[{"name":"4","postalCode":"52152","locality":"Simmerath","municipality":{"key":"05334028","name":"Simmerath","type":"Kreisangehörige_Gemeinde"},"district":{"key":"05334","name":"Städteregion Aachen","type":"Kreis"},"federalState":{"key":"05","name":"Nordrhein-Westfalen"}},{"name":"7","postalCode":"52152","locality":"Simmerath","municipality":{"key":"05334028","name":"Simmerath","type":"Kreisangehörige_Gemeinde"},"district":{"key":"05334","name":"Städteregion Aachen","type":"Kreis"},"federalState":{"key":"05","name":"Nordrhein-Westfalen"}},{"name":"Achterfeldstr.","postalCode":"52152","locality":"Simmerath","municipality":{"key":"05334028","name":"Simmerath","type":"Kreisangehörige_Gemeinde"},"district":{"key":"05334","name":"Städteregion Aachen","type":"Kreis"},"federalState":{"key":"05","name":"Nordrhein-Westfalen"}},{"name":"Afeield","postalCode":"52152","locality":"Simmerath","municipality":{"key":"05334028","name":"Simmerath","type":"Kreisangehörige_Gemeinde"},"district":{"key":"05334","name":"Städteregion Aachen","type":"Kreis"},"federalState":{"key":"05","name":"Nordrhein-Westfalen"}},{"name":"Ahornhof","postalCode":"52152","locality":"Simmerath","municipality":{"key":"05334028","name":"Simmerath","type":"Kreisangehörige_Gemeinde"},"district":{"key":"05334","name":"Städteregion Aachen","type":"Kreis"},"federalState":{"key":"05","name":"Nordrhein-Westfalen"}},{"name":"Ahornweg","postalCode":"52152","locality":"Simmerath","municipality":{"key":"05334028","name":"Simmerath","type":"Kreisangehörige_Gemeinde"},"district":{"key":"05334","name":"Städteregion Aachen","type":"Kreis"},"federalState":{"key":"05","name":"Nordrhein-Westfalen"}},{"name":"Alter Kirchweg","postalCode":"52152","locality":"Simmerath","municipality":{"key":"05334028","name":"Simmerath","type":"Kreisangehörige_Gemeinde"},"district":{"key":"05334","name":"Städteregion Aachen","type":"Kreis"},"federalState":{"key":"05","name":"Nordrhein-Westfalen"}},{"name":"Am Berg","postalCode":"52152","locality":"Simmerath","municipality":{"key":"05334028","name":"Simmerath","type":"Kreisangehörige_Gemeinde"},"district":{"key":"05334","name":"Städteregion Aachen","type":"Kreis"},"federalState":{"key":"05","name":"Nordrhein-Westfalen"}},{"name":"Am Bruchgraben","postalCode":"52152","locality":"Simmerath","municipality":{"key":"05334028","name":"Simmerath","type":"Kreisangehörige_Gemeinde"},"district":{"key":"05334","name":"Städteregion Aachen","type":"Kreis"},"federalState":{"key":"05","name":"Nordrhein-Westfalen"}},{"name":"Am Cholera-Kerchhoff","postalCode":"52152","locality":"Simmerath","municipality":{"key":"05334028","name":"Simmerath","type":"Kreisangehörige_Gemeinde"},"district":{"key":"05334","name":"Städteregion Aachen","type":"Kreis"},"federalState":{"key":"05","name":"Nordrhein-Westfalen"}},{"name":"Am Gericht","postalCode":"52152","locality":"Simmerath","municipality":{"key":"05334028","name":"Simmerath","type":"Kreisangehörige_Gemeinde"},"district":{"key":"05334","name":"Städteregion Aachen","type":"Kreis"},"federalState":{"key":"05","name":"Nordrhein-Westfalen"}},{"name":"Am Grasberg","postalCode":"52152","locality":"Simmerath","municipality":{"key":"05334028","name":"Simmerath","type":"Kreisangehörige_Gemeinde"},"district":{"key":"05334","name":"Städteregion Aachen","type":"Kreis"},"federalState":{"key":"05","name":"Nordrhein-Westfalen"}},{"name":"Am Hammerwerk","postalCode":"52152","locality":"Simmerath","municipality":{"key":"05334028","name":"Simmerath","type":"Kreisangehörige_Gemeinde"},"district":{"key":"05334","name":"Städteregion Aachen","type":"Kreis"},"federalState":{"key":"05","name":"Nordrhein-Westfalen"}},{"name":"Am Hasenstrauch","postalCode":"52152","locality":"Simmerath","municipality":{"key":"05334028","name":"Simmerath","type":"Kreisangehörige_Gemeinde"},"district":{"key":"05334","name":"Städteregion Aachen","type":"Kreis"},"federalState":{"key":"05","name":"Nordrhein-Westfalen"}},{"name":"Am Hostertberg","postalCode":"52152","locality":"Simmerath","municipality":{"key":"05334028","name":"Simmerath","type":"Kreisangehörige_Gemeinde"},"district":{"key":"05334","name":"Städteregion Aachen","type":"Kreis"},"federalState":{"key":"05","name":"Nordrhein-Westfalen"}},{"name":"Am Kanal","postalCode":"52152","locality":"Simmerath","municipality":{"key":"05334028","name":"Simmerath","type":"Kreisangehörige_Gemeinde"},"district":{"key":"05334","name":"Städteregion Aachen","type":"Kreis"},"federalState":{"key":"05","name":"Nordrhein-Westfalen"}},{"name":"Am Kreuzchen","postalCode":"52152","locality":"Simmerath","municipality":{"key":"05334028","name":"Simmerath","type":"Kreisangehörige_Gemeinde"},"district":{"key":"05334","name":"Städteregion Aachen","type":"Kreis"},"federalState":{"key":"05","name":"Nordrhein-Westfalen"}},{"name":"Am Markt","postalCode":"52152","locality":"Simmerath","municipality":{"key":"05334028","name":"Simmerath","type":"Kreisangehörige_Gemeinde"},"district":{"key":"05334","name":"Städteregion Aachen","type":"Kreis"},"federalState":{"key":"05","name":"Nordrhein-Westfalen"}},{"name":"Am Nußbaum","postalCode":"52152","locality":"Simmerath","municipality":{"key":"05334028","name":"Simmerath","type":"Kreisangehörige_Gemeinde"},"district":{"key":"05334","name":"Städteregion Aachen","type":"Kreis"},"federalState":{"key":"05","name":"Nordrhein-Westfalen"}},{"name":"Am Obersee","postalCode":"52152","locality":"Simmerath","municipality":{"key":"05334028","name":"Simmerath","type":"Kreisangehörige_Gemeinde"},"district":{"key":"05334","name":"Städteregion Aachen","type":"Kreis"},"federalState":{"key":"05","name":"Nordrhein-Westfalen"}},{"name":"Am Rossbach","postalCode":"52152","locality":"Simmerath","municipality":{"key":"05334028","name":"Simmerath","type":"Kreisangehörige_Gemeinde"},"district":{"key":"05334","name":"Städteregion Aachen","type":"Kreis"},"federalState":{"key":"05","name":"Nordrhein-Westfalen"}},{"name":"Am Rott","postalCode":"52152","locality":"Simmerath","municipality":{"key":"05334028","name":"Simmerath","type":"Kreisangehörige_Gemeinde"},"district":{"key":"05334","name":"Städteregion Aachen","type":"Kreis"},"federalState":{"key":"05","name":"Nordrhein-Westfalen"}},{"name":"Am Rurseezentrum","postalCode":"52152","locality":"Simmerath","municipality":{"key":"05334028","name":"Simmerath","type":"Kreisangehörige_Gemeinde"},"district":{"key":"05334","name":"Städteregion Aachen","type":"Kreis"},"federalState":{"key":"05","name":"Nordrhein-Westfalen"}},{"name":"Amselweg","postalCode":"52152","locality":"Simmerath","municipality":{"key":"05334028","name":"Simmerath","type":"Kreisangehörige_Gemeinde"},"district":{"key":"05334","name":"Städteregion Aachen","type":"Kreis"},"federalState":{"key":"05","name":"Nordrhein-Westfalen"}},{"name":"Amselweg ?","postalCode":"52152","locality":"Simmerath","municipality":{"key":"05334028","name":"Simmerath","type":"Kreisangehörige_Gemeinde"},"district":{"key":"05334","name":"Städteregion Aachen","type":"Kreis"},"federalState":{"key":"05","name":"Nordrhein-Westfalen"}},{"name":"Am Sportplatz","postalCode":"52152","locality":"Simmerath","municipality":{"key":"05334028","name":"Simmerath","type":"Kreisangehörige_Gemeinde"},"district":{"key":"05334","name":"Städteregion Aachen","type":"Kreis"},"federalState":{"key":"05","name":"Nordrhein-Westfalen"}},{"name":"Am Stein","postalCode":"52152","locality":"Simmerath","municipality":{"key":"05334028","name":"Simmerath","type":"Kreisangehörige_Gemeinde"},"district":{"key":"05334","name":"Städteregion Aachen","type":"Kreis"},"federalState":{"key":"05","name":"Nordrhein-Westfalen"}},{"name":"Am Südhang","postalCode":"52152","locality":"Simmerath","municipality":{"key":"05334028","name":"Simmerath","type":"Kreisangehörige_Gemeinde"},"district":{"key":"05334","name":"Städteregion Aachen","type":"Kreis"},"federalState":{"key":"05","name":"Nordrhein-Westfalen"}},{"name":"Am Venn","postalCode":"52152","locality":"Simmerath","municipality":{"key":"05334028","name":"Simmerath","type":"Kreisangehörige_Gemeinde"},"district":{"key":"05334","name":"Städteregion Aachen","type":"Kreis"},"federalState":{"key":"05","name":"Nordrhein-Westfalen"}},{"name":"Am Weidenbruch","postalCode":"52152","locality":"Simmerath","municipality":{"key":"05334028","name":"Simmerath","type":"Kreisangehörige_Gemeinde"},"district":{"key":"05334","name":"Städteregion Aachen","type":"Kreis"},"federalState":{"key":"05","name":"Nordrhein-Westfalen"}},{"name":"Am Weiher","postalCode":"52152","locality":"Simmerath","municipality":{"key":"05334028","name":"Simmerath","type":"Kreisangehörige_Gemeinde"},"district":{"key":"05334","name":"Städteregion Aachen","type":"Kreis"},"federalState":{"key":"05","name":"Nordrhein-Westfalen"}},{"name":"Am Zäunchen","postalCode":"52152","locality":"Simmerath","municipality":{"key":"05334028","name":"Simmerath","type":"Kreisangehörige_Gemeinde"},"district":{"key":"05334","name":"Städteregion Aachen","type":"Kreis"},"federalState":{"key":"05","name":"Nordrhein-Westfalen"}},{"name":"An der Eiche","postalCode":"52152","locality":"Simmerath","municipality":{"key":"05334028","name":"Simmerath","type":"Kreisangehörige_Gemeinde"},"district":{"key":"05334","name":"Städteregion Aachen","type":"Kreis"},"federalState":{"key":"05","name":"Nordrhein-Westfalen"}},{"name":"An der Streng","postalCode":"52152","locality":"Simmerath","municipality":{"key":"05334028","name":"Simmerath","type":"Kreisangehörige_Gemeinde"},"district":{"key":"05334","name":"Städteregion Aachen","type":"Kreis"},"federalState":{"key":"05","name":"Nordrhein-Westfalen"}},{"name":"Arnikaweg","postalCode":"52152","locality":"Simmerath","municipality":{"key":"05334028","name":"Simmerath","type":"Kreisangehörige_Gemeinde"},"district":{"key":"05334","name":"Städteregion Aachen","type":"Kreis"},"federalState":{"key":"05","name":"Nordrhein-Westfalen"}},{"name":"Arr Längsstoppel","postalCode":"52152","locality":"Simmerath","municipality":{"key":"05334028","name":"Simmerath","type":"Kreisangehörige_Gemeinde"},"district":{"key":"05334","name":"Städteregion Aachen","type":"Kreis"},"federalState":{"key":"05","name":"Nordrhein-Westfalen"}},{"name":"Auf dem Dresch","postalCode":"52152","locality":"Simmerath","municipality":{"key":"05334028","name":"Simmerath","type":"Kreisangehörige_Gemeinde"},"district":{"key":"05334","name":"Städteregion Aachen","type":"Kreis"},"federalState":{"key":"05","name":"Nordrhein-Westfalen"}},{"name":"Auf dem Knipp","postalCode":"52152","locality":"Simmerath","municipality":{"key":"05334028","name":"Simmerath","type":"Kreisangehörige_Gemeinde"},"district":{"key":"05334","name":"Städteregion Aachen","type":"Kreis"},"federalState":{"key":"05","name":"Nordrhein-Westfalen"}},{"name":"Auf dem Römer","postalCode":"52152","locality":"Simmerath","municipality":{"key":"05334028","name":"Simmerath","type":"Kreisangehörige_Gemeinde"},"district":{"key":"05334","name":"Städteregion Aachen","type":"Kreis"},"federalState":{"key":"05","name":"Nordrhein-Westfalen"}},{"name":"Auf dem Schoss","postalCode":"52152","locality":"Simmerath","municipality":{"key":"05334028","name":"Simmerath","type":"Kreisangehörige_Gemeinde"},"district":{"key":"05334","name":"Städteregion Aachen","type":"Kreis"},"federalState":{"key":"05","name":"Nordrhein-Westfalen"}},{"name":"Auf dem Stein","postalCode":"52152","locality":"Simmerath","municipality":{"key":"05334028","name":"Simmerath","type":"Kreisangehörige_Gemeinde"},"district":{"key":"05334","name":"Städteregion Aachen","type":"Kreis"},"federalState":{"key":"05","name":"Nordrhein-Westfalen"}},{"name":"Auf dem Weiher","postalCode":"52152","locality":"Simmerath","municipality":{"key":"05334028","name":"Simmerath","type":"Kreisangehörige_Gemeinde"},"district":{"key":"05334","name":"Städteregion Aachen","type":"Kreis"},"federalState":{"key":"05","name":"Nordrhein-Westfalen"}},{"name":"Auf dem Wollerscheid","postalCode":"52152","locality":"Simmerath","municipality":{"key":"05334028","name":"Simmerath","type":"Kreisangehörige_Gemeinde"},"district":{"key":"05334","name":"Städteregion Aachen","type":"Kreis"},"federalState":{"key":"05","name":"Nordrhein-Westfalen"}},{"name":"Auf den Feldern","postalCode":"52152","locality":"Simmerath","municipality":{"key":"05334028","name":"Simmerath","type":"Kreisangehörige_Gemeinde"},"district":{"key":"05334","name":"Städteregion Aachen","type":"Kreis"},"federalState":{"key":"05","name":"Nordrhein-Westfalen"}},{"name":"Auf der Bever","postalCode":"52152","locality":"Simmerath","municipality":{"key":"05334028","name":"Simmerath","type":"Kreisangehörige_Gemeinde"},"district":{"key":"05334","name":"Städteregion Aachen","type":"Kreis"},"federalState":{"key":"05","name":"Nordrhein-Westfalen"}},{"name":"Auf der Harth","postalCode":"52152","locality":"Simmerath","municipality":{"key":"05334028","name":"Simmerath","type":"Kreisangehörige_Gemeinde"},"district":{"key":"05334","name":"Städteregion Aachen","type":"Kreis"},"federalState":{"key":"05","name":"Nordrhein-Westfalen"}},{"name":"Auf der Held","postalCode":"52152","locality":"Simmerath","municipality":{"key":"05334028","name":"Simmerath","type":"Kreisangehörige_Gemeinde"},"district":{"key":"05334","name":"Städteregion Aachen","type":"Kreis"},"federalState":{"key":"05","name":"Nordrhein-Westfalen"}},{"name":"Auf der Hof","postalCode":"52152","locality":"Simmerath","municipality":{"key":"05334028","name":"Simmerath","type":"Kreisangehörige_Gemeinde"},"district":{"key":"05334","name":"Städteregion Aachen","type":"Kreis"},"federalState":{"key":"05","name":"Nordrhein-Westfalen"}},{"name":"Auf der Höhe","postalCode":"52152","locality":"Simmerath","municipality":{"key":"05334028","name":"Simmerath","type":"Kreisangehörige_Gemeinde"},"district":{"key":"05334","name":"Städteregion Aachen","type":"Kreis"},"federalState":{"key":"05","name":"Nordrhein-Westfalen"}},{"name":"Auf der Klopp","postalCode":"54552","locality":"Immerath","municipality":{"key":"07233034","name":"Immerath","type":"Kreisangehörige_Gemeinde"},"district":{"key":"07233","name":"Vulkaneifel","type":"Landkreis"},"federalState":{"key":"07","name":"Rheinland-Pfalz"}},{"name":"Auf der Ley","postalCode":"52152","locality":"Simmerath","municipality":{"key":"05334028","name":"Simmerath","type":"Kreisangehörige_Gemeinde"},"district":{"key":"05334","name":"Städteregion Aachen","type":"Kreis"},"federalState":{"key":"05","name":"Nordrhein-Westfalen"}},{"name":"Auf Dohnschet","postalCode":"52152","locality":"Simmerath","municipality":{"key":"05334028","name":"Simmerath","type":"Kreisangehörige_Gemeinde"},"district":{"key":"05334","name":"Städteregion Aachen","type":"Kreis"},"federalState":{"key":"05","name":"Nordrhein-Westfalen"}},{"name":"Bachstr.","postalCode":"52152","locality":"Simmerath","municipality":{"key":"05334028","name":"Simmerath","type":"Kreisangehörige_Gemeinde"},"district":{"key":"05334","name":"Städteregion Aachen","type":"Kreis"},"federalState":{"key":"05","name":"Nordrhein-Westfalen"}},{"name":"Bahnhofstr.","postalCode":"52152","locality":"Simmerath","municipality":{"key":"05334028","name":"Simmerath","type":"Kreisangehörige_Gemeinde"},"district":{"key":"05334","name":"Städteregion Aachen","type":"Kreis"},"federalState":{"key":"05","name":"Nordrhein-Westfalen"}},{"name":"Barbarastr.","postalCode":"52152","locality":"Simmerath","municipality":{"key":"05334028","name":"Simmerath","type":"Kreisangehörige_Gemeinde"},"district":{"key":"05334","name":"Städteregion Aachen","type":"Kreis"},"federalState":{"key":"05","name":"Nordrhein-Westfalen"}},{"name":"Bartholomäus-Steg","postalCode":"52152","locality":"Simmerath","municipality":{"key":"05334028","name":"Simmerath","type":"Kreisangehörige_Gemeinde"},"district":{"key":"05334","name":"Städteregion Aachen","type":"Kreis"},"federalState":{"key":"05","name":"Nordrhein-Westfalen"}},{"name":"Bergstr.","postalCode":"52152","locality":"Simmerath","municipality":{"key":"05334028","name":"Simmerath","type":"Kreisangehörige_Gemeinde"},"district":{"key":"05334","name":"Städteregion Aachen","type":"Kreis"},"federalState":{"key":"05","name":"Nordrhein-Westfalen"}},{"name":"Bergweg","postalCode":"52152","locality":"Simmerath","municipality":{"key":"05334028","name":"Simmerath","type":"Kreisangehörige_Gemeinde"},"district":{"key":"05334","name":"Städteregion Aachen","type":"Kreis"},"federalState":{"key":"05","name":"Nordrhein-Westfalen"}},{"name":"Bickerather Str.","postalCode":"52152","locality":"Simmerath","municipality":{"key":"05334028","name":"Simmerath","type":"Kreisangehörige_Gemeinde"},"district":{"key":"05334","name":"Städteregion Aachen","type":"Kreis"},"federalState":{"key":"05","name":"Nordrhein-Westfalen"}},{"name":"Birkenhof","postalCode":"52152","locality":"Simmerath","municipality":{"key":"05334028","name":"Simmerath","type":"Kreisangehörige_Gemeinde"},"district":{"key":"05334","name":"Städteregion Aachen","type":"Kreis"},"federalState":{"key":"05","name":"Nordrhein-Westfalen"}},{"name":"Birkenweg","postalCode":"52152","locality":"Simmerath","municipality":{"key":"05334028","name":"Simmerath","type":"Kreisangehörige_Gemeinde"},"district":{"key":"05334","name":"Städteregion Aachen","type":"Kreis"},"federalState":{"key":"05","name":"Nordrhein-Westfalen"}},{"name":"Böchelsjaaß (Büchelsgasse)","postalCode":"52152","locality":"Simmerath","municipality":{"key":"05334028","name":"Simmerath","type":"Kreisangehörige_Gemeinde"},"district":{"key":"05334","name":"Städteregion Aachen","type":"Kreis"},"federalState":{"key":"05","name":"Nordrhein-Westfalen"}},{"name":"Bocksgäßchen","postalCode":"52152","locality":"Simmerath","municipality":{"key":"05334028","name":"Simmerath","type":"Kreisangehörige_Gemeinde"},"district":{"key":"05334","name":"Städteregion Aachen","type":"Kreis"},"federalState":{"key":"05","name":"Nordrhein-Westfalen"}},{"name":"Bollard","postalCode":"52152","locality":"Simmerath","municipality":{"key":"05334028","name":"Simmerath","type":"Kreisangehörige_Gemeinde"},"district":{"key":"05334","name":"Städteregion Aachen","type":"Kreis"},"federalState":{"key":"05","name":"Nordrhein-Westfalen"}},{"name":"Boltesch Kuhl","postalCode":"52152","locality":"Simmerath","municipality":{"key":"05334028","name":"Simmerath","type":"Kreisangehörige_Gemeinde"},"district":{"key":"05334","name":"Städteregion Aachen","type":"Kreis"},"federalState":{"key":"05","name":"Nordrhein-Westfalen"}},{"name":"Boltisch Jääsje","postalCode":"52152","locality":"Simmerath","municipality":{"key":"05334028","name":"Simmerath","type":"Kreisangehörige_Gemeinde"},"district":{"key":"05334","name":"Städteregion Aachen","type":"Kreis"},"federalState":{"key":"05","name":"Nordrhein-Westfalen"}},{"name":"Böndches-Jääsje","postalCode":"52152","locality":"Simmerath","municipality":{"key":"05334028","name":"Simmerath","type":"Kreisangehörige_Gemeinde"},"district":{"key":"05334","name":"Städteregion Aachen","type":"Kreis"},"federalState":{"key":"05","name":"Nordrhein-Westfalen"}},{"name":"Böndejaas","postalCode":"52152","locality":"Simmerath","municipality":{"key":"05334028","name":"Simmerath","type":"Kreisangehörige_Gemeinde"},"district":{"key":"05334","name":"Städteregion Aachen","type":"Kreis"},"federalState":{"key":"05","name":"Nordrhein-Westfalen"}},{"name":"Boöschfeilder Wääch","postalCode":"52152","locality":"Simmerath","municipality":{"key":"05334028","name":"Simmerath","type":"Kreisangehörige_Gemeinde"},"district":{"key":"05334","name":"Städteregion Aachen","type":"Kreis"},"federalState":{"key":"05","name":"Nordrhein-Westfalen"}},{"name":"Bornstr.","postalCode":"52152","locality":"Simmerath","municipality":{"key":"05334028","name":"Simmerath","type":"Kreisangehörige_Gemeinde"},"district":{"key":"05334","name":"Städteregion Aachen","type":"Kreis"},"federalState":{"key":"05","name":"Nordrhein-Westfalen"}},{"name":"Borrgasse","postalCode":"52152","locality":"Simmerath","municipality":{"key":"05334028","name":"Simmerath","type":"Kreisangehörige_Gemeinde"},"district":{"key":"05334","name":"Städteregion Aachen","type":"Kreis"},"federalState":{"key":"05","name":"Nordrhein-Westfalen"}},{"name":"Breitestr.","postalCode":"52152","locality":"Simmerath","municipality":{"key":"05334028","name":"Simmerath","type":"Kreisangehörige_Gemeinde"},"district":{"key":"05334","name":"Städteregion Aachen","type":"Kreis"},"federalState":{"key":"05","name":"Nordrhein-Westfalen"}},{"name":"Breuer Range","postalCode":"52152","locality":"Simmerath","municipality":{"key":"05334028","name":"Simmerath","type":"Kreisangehörige_Gemeinde"},"district":{"key":"05334","name":"Städteregion Aachen","type":"Kreis"},"federalState":{"key":"05","name":"Nordrhein-Westfalen"}},{"name":"Breufeldstr.","postalCode":"52152","locality":"Simmerath","municipality":{"key":"05334028","name":"Simmerath","type":"Kreisangehörige_Gemeinde"},"district":{"key":"05334","name":"Städteregion Aachen","type":"Kreis"},"federalState":{"key":"05","name":"Nordrhein-Westfalen"}},{"name":"Breufeldstr. ?","postalCode":"52152","locality":"Simmerath","municipality":{"key":"05334028","name":"Simmerath","type":"Kreisangehörige_Gemeinde"},"district":{"key":"05334","name":"Städteregion Aachen","type":"Kreis"},"federalState":{"key":"05","name":"Nordrhein-Westfalen"}},{"name":"Brommersbach","postalCode":"52152","locality":"Simmerath","municipality":{"key":"05334028","name":"Simmerath","type":"Kreisangehörige_Gemeinde"},"district":{"key":"05334","name":"Städteregion Aachen","type":"Kreis"},"federalState":{"key":"05","name":"Nordrhein-Westfalen"}},{"name":"Bruchbendstr.","postalCode":"52152","locality":"Simmerath","municipality":{"key":"05334028","name":"Simmerath","type":"Kreisangehörige_Gemeinde"},"district":{"key":"05334","name":"Städteregion Aachen","type":"Kreis"},"federalState":{"key":"05","name":"Nordrhein-Westfalen"}},{"name":"Bruchstr.","postalCode":"52152","locality":"Simmerath","municipality":{"key":"05334028","name":"Simmerath","type":"Kreisangehörige_Gemeinde"},"district":{"key":"05334","name":"Städteregion Aachen","type":"Kreis"},"federalState":{"key":"05","name":"Nordrhein-Westfalen"}},{"name":"Brunnenstr.","postalCode":"52152","locality":"Simmerath","municipality":{"key":"05334028","name":"Simmerath","type":"Kreisangehörige_Gemeinde"},"district":{"key":"05334","name":"Städteregion Aachen","type":"Kreis"},"federalState":{"key":"05","name":"Nordrhein-Westfalen"}},{"name":"Brunnenstr.","postalCode":"54552","locality":"Immerath","municipality":{"key":"07233034","name":"Immerath","type":"Kreisangehörige_Gemeinde"},"district":{"key":"07233","name":"Vulkaneifel","type":"Landkreis"},"federalState":{"key":"07","name":"Rheinland-Pfalz"}},{"name":"Buchenhof","postalCode":"52152","locality":"Simmerath","municipality":{"key":"05334028","name":"Simmerath","type":"Kreisangehörige_Gemeinde"},"district":{"key":"05334","name":"Städteregion Aachen","type":"Kreis"},"federalState":{"key":"05","name":"Nordrhein-Westfalen"}},{"name":"Buchenweg","postalCode":"52152","locality":"Simmerath","municipality":{"key":"05334028","name":"Simmerath","type":"Kreisangehörige_Gemeinde"},"district":{"key":"05334","name":"Städteregion Aachen","type":"Kreis"},"federalState":{"key":"05","name":"Nordrhein-Westfalen"}},{"name":"Bundesstr.","postalCode":"52152","locality":"Simmerath","municipality":{"key":"05334028","name":"Simmerath","type":"Kreisangehörige_Gemeinde"},"district":{"key":"05334","name":"Städteregion Aachen","type":"Kreis"},"federalState":{"key":"05","name":"Nordrhein-Westfalen"}},{"name":"Buschfelder Weg","postalCode":"52152","locality":"Simmerath","municipality":{"key":"05334028","name":"Simmerath","type":"Kreisangehörige_Gemeinde"},"district":{"key":"05334","name":"Städteregion Aachen","type":"Kreis"},"federalState":{"key":"05","name":"Nordrhein-Westfalen"}},{"name":"Buschgasse","postalCode":"52152","locality":"Simmerath","municipality":{"key":"05334028","name":"Simmerath","type":"Kreisangehörige_Gemeinde"},"district":{"key":"05334","name":"Städteregion Aachen","type":"Kreis"},"federalState":{"key":"05","name":"Nordrhein-Westfalen"}},{"name":"Büschjeasje","postalCode":"52152","locality":"Simmerath","municipality":{"key":"05334028","name":"Simmerath","type":"Kreisangehörige_Gemeinde"},"district":{"key":"05334","name":"Städteregion Aachen","type":"Kreis"},"federalState":{"key":"05","name":"Nordrhein-Westfalen"}},{"name":"Campingweg","postalCode":"52152","locality":"Simmerath","municipality":{"key":"05334028","name":"Simmerath","type":"Kreisangehörige_Gemeinde"},"district":{"key":"05334","name":"Städteregion Aachen","type":"Kreis"},"federalState":{"key":"05","name":"Nordrhein-Westfalen"}},{"name":"Chantrainstr.","postalCode":"52152","locality":"Simmerath","municipality":{"key":"05334028","name":"Simmerath","type":"Kreisangehörige_Gemeinde"},"district":{"key":"05334","name":"Städteregion Aachen","type":"Kreis"},"federalState":{"key":"05","name":"Nordrhein-Westfalen"}},{"name":"Clara-Viebig-Str.","postalCode":"52152","locality":"Simmerath","municipality":{"key":"05334028","name":"Simmerath","type":"Kreisangehörige_Gemeinde"},"district":{"key":"05334","name":"Städteregion Aachen","type":"Kreis"},"federalState":{"key":"05","name":"Nordrhein-Westfalen"}},{"name":"Dedenborner Str.","postalCode":"52152","locality":"Simmerath","municipality":{"key":"05334028","name":"Simmerath","type":"Kreisangehörige_Gemeinde"},"district":{"key":"05334","name":"Städteregion Aachen","type":"Kreis"},"federalState":{"key":"05","name":"Nordrhein-Westfalen"}},{"name":"De Drouw","postalCode":"52152","locality":"Simmerath","municipality":{"key":"05334028","name":"Simmerath","type":"Kreisangehörige_Gemeinde"},"district":{"key":"05334","name":"Städteregion Aachen","type":"Kreis"},"federalState":{"key":"05","name":"Nordrhein-Westfalen"}},{"name":"Deffertsfeld","postalCode":"52152","locality":"Simmerath","municipality":{"key":"05334028","name":"Simmerath","type":"Kreisangehörige_Gemeinde"},"district":{"key":"05334","name":"Städteregion Aachen","type":"Kreis"},"federalState":{"key":"05","name":"Nordrhein-Westfalen"}},{"name":"Diejeldkopp","postalCode":"52152","locality":"Simmerath","municipality":{"key":"05334028","name":"Simmerath","type":"Kreisangehörige_Gemeinde"},"district":{"key":"05334","name":"Städteregion Aachen","type":"Kreis"},"federalState":{"key":"05","name":"Nordrhein-Westfalen"}},{"name":"Diejelskopp","postalCode":"52152","locality":"Simmerath","municipality":{"key":"05334028","name":"Simmerath","type":"Kreisangehörige_Gemeinde"},"district":{"key":"05334","name":"Städteregion Aachen","type":"Kreis"},"federalState":{"key":"05","name":"Nordrhein-Westfalen"}},{"name":"Dohmenstr.","postalCode":"52152","locality":"Simmerath","municipality":{"key":"05334028","name":"Simmerath","type":"Kreisangehörige_Gemeinde"},"district":{"key":"05334","name":"Städteregion Aachen","type":"Kreis"},"federalState":{"key":"05","name":"Nordrhein-Westfalen"}},{"name":"Donnerbruchgasse","postalCode":"52152","locality":"Simmerath","municipality":{"key":"05334028","name":"Simmerath","type":"Kreisangehörige_Gemeinde"},"district":{"key":"05334","name":"Städteregion Aachen","type":"Kreis"},"federalState":{"key":"05","name":"Nordrhein-Westfalen"}},{"name":"Dorfstr.","postalCode":"52152","locality":"Simmerath","municipality":{"key":"05334028","name":"Simmerath","type":"Kreisangehörige_Gemeinde"},"district":{"key":"05334","name":"Städteregion Aachen","type":"Kreis"},"federalState":{"key":"05","name":"Nordrhein-Westfalen"}},{"name":"Dörnchensweg","postalCode":"52152","locality":"Simmerath","municipality":{"key":"05334028","name":"Simmerath","type":"Kreisangehörige_Gemeinde"},"district":{"key":"05334","name":"Städteregion Aachen","type":"Kreis"},"federalState":{"key":"05","name":"Nordrhein-Westfalen"}},{"name":"Dörresfuhr","postalCode":"52152","locality":"Simmerath","municipality":{"key":"05334028","name":"Simmerath","type":"Kreisangehörige_Gemeinde"},"district":{"key":"05334","name":"Städteregion Aachen","type":"Kreis"},"federalState":{"key":"05","name":"Nordrhein-Westfalen"}},{"name":"Dürener Str.","postalCode":"52152","locality":"Simmerath","municipality":{"key":"05334028","name":"Simmerath","type":"Kreisangehörige_Gemeinde"},"district":{"key":"05334","name":"Städteregion Aachen","type":"Kreis"},"federalState":{"key":"05","name":"Nordrhein-Westfalen"}},{"name":"Ebereschenweg","postalCode":"52152","locality":"Simmerath","municipality":{"key":"05334028","name":"Simmerath","type":"Kreisangehörige_Gemeinde"},"district":{"key":"05334","name":"Städteregion Aachen","type":"Kreis"},"federalState":{"key":"05","name":"Nordrhein-Westfalen"}},{"name":"Edisonstr.","postalCode":"52152","locality":"Simmerath","municipality":{"key":"05334028","name":"Simmerath","type":"Kreisangehörige_Gemeinde"},"district":{"key":"05334","name":"Städteregion Aachen","type":"Kreis"},"federalState":{"key":"05","name":"Nordrhein-Westfalen"}},{"name":"Eichenweg","postalCode":"52152","locality":"Simmerath","municipality":{"key":"05334028","name":"Simmerath","type":"Kreisangehörige_Gemeinde"},"district":{"key":"05334","name":"Städteregion Aachen","type":"Kreis"},"federalState":{"key":"05","name":"Nordrhein-Westfalen"}},{"name":"Eicherscheid","postalCode":"52152","locality":"Simmerath","municipality":{"key":"05334028","name":"Simmerath","type":"Kreisangehörige_Gemeinde"},"district":{"key":"05334","name":"Städteregion Aachen","type":"Kreis"},"federalState":{"key":"05","name":"Nordrhein-Westfalen"}},{"name":"Eifelstr.","postalCode":"52152","locality":"Simmerath","municipality":{"key":"05334028","name":"Simmerath","type":"Kreisangehörige_Gemeinde"},"district":{"key":"05334","name":"Städteregion Aachen","type":"Kreis"},"federalState":{"key":"05","name":"Nordrhein-Westfalen"}},{"name":"Einruhr","postalCode":"52152","locality":"Simmerath","municipality":{"key":"05334028","name":"Simmerath","type":"Kreisangehörige_Gemeinde"},"district":{"key":"05334","name":"Städteregion Aachen","type":"Kreis"},"federalState":{"key":"05","name":"Nordrhein-Westfalen"}},{"name":"Einsteinstr.","postalCode":"52152","locality":"Simmerath","municipality":{"key":"05334028","name":"Simmerath","type":"Kreisangehörige_Gemeinde"},"district":{"key":"05334","name":"Städteregion Aachen","type":"Kreis"},"federalState":{"key":"05","name":"Nordrhein-Westfalen"}},{"name":"Eiserbachdamm","postalCode":"52152","locality":"Simmerath","municipality":{"key":"05334028","name":"Simmerath","type":"Kreisangehörige_Gemeinde"},"district":{"key":"05334","name":"Städteregion Aachen","type":"Kreis"},"federalState":{"key":"05","name":"Nordrhein-Westfalen"}},{"name":"Ellerchen","postalCode":"52152","locality":"Simmerath","municipality":{"key":"05334028","name":"Simmerath","type":"Kreisangehörige_Gemeinde"},"district":{"key":"05334","name":"Städteregion Aachen","type":"Kreis"},"federalState":{"key":"05","name":"Nordrhein-Westfalen"}},{"name":"Em Donnerbruch","postalCode":"52152","locality":"Simmerath","municipality":{"key":"05334028","name":"Simmerath","type":"Kreisangehörige_Gemeinde"},"district":{"key":"05334","name":"Städteregion Aachen","type":"Kreis"},"federalState":{"key":"05","name":"Nordrhein-Westfalen"}},{"name":"Em Engert","postalCode":"52152","locality":"Simmerath","municipality":{"key":"05334028","name":"Simmerath","type":"Kreisangehörige_Gemeinde"},"district":{"key":"05334","name":"Städteregion Aachen","type":"Kreis"},"federalState":{"key":"05","name":"Nordrhein-Westfalen"}},{"name":"Em Kallebruch","postalCode":"52152","locality":"Simmerath","municipality":{"key":"05334028","name":"Simmerath","type":"Kreisangehörige_Gemeinde"},"district":{"key":"05334","name":"Städteregion Aachen","type":"Kreis"},"federalState":{"key":"05","name":"Nordrhein-Westfalen"}},{"name":"Em Schenner","postalCode":"52152","locality":"Simmerath","municipality":{"key":"05334028","name":"Simmerath","type":"Kreisangehörige_Gemeinde"},"district":{"key":"05334","name":"Städteregion Aachen","type":"Kreis"},"federalState":{"key":"05","name":"Nordrhein-Westfalen"}},{"name":"em Sief","postalCode":"52152","locality":"Simmerath","municipality":{"key":"05334028","name":"Simmerath","type":"Kreisangehörige_Gemeinde"},"district":{"key":"05334","name":"Städteregion Aachen","type":"Kreis"},"federalState":{"key":"05","name":"Nordrhein-Westfalen"}},{"name":"em Stiel","postalCode":"52152","locality":"Simmerath","municipality":{"key":"05334028","name":"Simmerath","type":"Kreisangehörige_Gemeinde"},"district":{"key":"05334","name":"Städteregion Aachen","type":"Kreis"},"federalState":{"key":"05","name":"Nordrhein-Westfalen"}},{"name":"Em Wörbischfeld","postalCode":"52152","locality":"Simmerath","municipality":{"key":"05334028","name":"Simmerath","type":"Kreisangehörige_Gemeinde"},"district":{"key":"05334","name":"Städteregion Aachen","type":"Kreis"},"federalState":{"key":"05","name":"Nordrhein-Westfalen"}},{"name":"ene Zweibäsch","postalCode":"52152","locality":"Simmerath","municipality":{"key":"05334028","name":"Simmerath","type":"Kreisangehörige_Gemeinde"},"district":{"key":"05334","name":"Städteregion Aachen","type":"Kreis"},"federalState":{"key":"05","name":"Nordrhein-Westfalen"}},{"name":"Enzianweg","postalCode":"52152","locality":"Simmerath","municipality":{"key":"05334028","name":"Simmerath","type":"Kreisangehörige_Gemeinde"},"district":{"key":"05334","name":"Städteregion Aachen","type":"Kreis"},"federalState":{"key":"05","name":"Nordrhein-Westfalen"}},{"name":"er Höll","postalCode":"52152","locality":"Simmerath","municipality":{"key":"05334028","name":"Simmerath","type":"Kreisangehörige_Gemeinde"},"district":{"key":"05334","name":"Städteregion Aachen","type":"Kreis"},"federalState":{"key":"05","name":"Nordrhein-Westfalen"}},{"name":"Erikaweg","postalCode":"52152","locality":"Simmerath","municipality":{"key":"05334028","name":"Simmerath","type":"Kreisangehörige_Gemeinde"},"district":{"key":"05334","name":"Städteregion Aachen","type":"Kreis"},"federalState":{"key":"05","name":"Nordrhein-Westfalen"}},{"name":"Erkensruhr","postalCode":"52152","locality":"Simmerath","municipality":{"key":"05334028","name":"Simmerath","type":"Kreisangehörige_Gemeinde"},"district":{"key":"05334","name":"Städteregion Aachen","type":"Kreis"},"federalState":{"key":"05","name":"Nordrhein-Westfalen"}},{"name":"er Wöllekuhl","postalCode":"52152","locality":"Simmerath","municipality":{"key":"05334028","name":"Simmerath","type":"Kreisangehörige_Gemeinde"},"district":{"key":"05334","name":"Städteregion Aachen","type":"Kreis"},"federalState":{"key":"05","name":"Nordrhein-Westfalen"}},{"name":"Eselsbrücke","postalCode":"52152","locality":"Simmerath","municipality":{"key":"05334028","name":"Simmerath","type":"Kreisangehörige_Gemeinde"},"district":{"key":"05334","name":"Städteregion Aachen","type":"Kreis"},"federalState":{"key":"05","name":"Nordrhein-Westfalen"}},{"name":"Fazichroett","postalCode":"52152","locality":"Simmerath","municipality":{"key":"05334028","name":"Simmerath","type":"Kreisangehörige_Gemeinde"},"district":{"key":"05334","name":"Städteregion Aachen","type":"Kreis"},"federalState":{"key":"05","name":"Nordrhein-Westfalen"}},{"name":"Feddelesch Jaaß (Fittlersgasse)","postalCode":"52152","locality":"Simmerath","municipality":{"key":"05334028","name":"Simmerath","type":"Kreisangehörige_Gemeinde"},"district":{"key":"05334","name":"Städteregion Aachen","type":"Kreis"},"federalState":{"key":"05","name":"Nordrhein-Westfalen"}},{"name":"Felderstr.","postalCode":"52152","locality":"Simmerath","municipality":{"key":"05334028","name":"Simmerath","type":"Kreisangehörige_Gemeinde"},"district":{"key":"05334","name":"Städteregion Aachen","type":"Kreis"},"federalState":{"key":"05","name":"Nordrhein-Westfalen"}},{"name":"Fingert","postalCode":"52152","locality":"Simmerath","municipality":{"key":"05334028","name":"Simmerath","type":"Kreisangehörige_Gemeinde"},"district":{"key":"05334","name":"Städteregion Aachen","type":"Kreis"},"federalState":{"key":"05","name":"Nordrhein-Westfalen"}},{"name":"Fingerts Jaas","postalCode":"52152","locality":"Simmerath","municipality":{"key":"05334028","name":"Simmerath","type":"Kreisangehörige_Gemeinde"},"district":{"key":"05334","name":"Städteregion Aachen","type":"Kreis"},"federalState":{"key":"05","name":"Nordrhein-Westfalen"}},{"name":"Finkenauel","postalCode":"52152","locality":"Simmerath","municipality":{"key":"05334028","name":"Simmerath","type":"Kreisangehörige_Gemeinde"},"district":{"key":"05334","name":"Städteregion Aachen","type":"Kreis"},"federalState":{"key":"05","name":"Nordrhein-Westfalen"}},{"name":"Fluchgasse","postalCode":"52152","locality":"Simmerath","municipality":{"key":"05334028","name":"Simmerath","type":"Kreisangehörige_Gemeinde"},"district":{"key":"05334","name":"Städteregion Aachen","type":"Kreis"},"federalState":{"key":"05","name":"Nordrhein-Westfalen"}},{"name":"Forsthaus Hochau","postalCode":"52152","locality":"Simmerath","municipality":{"key":"05334028","name":"Simmerath","type":"Kreisangehörige_Gemeinde"},"district":{"key":"05334","name":"Städteregion Aachen","type":"Kreis"},"federalState":{"key":"05","name":"Nordrhein-Westfalen"}},{"name":"Franz-Becker-Str.","postalCode":"52152","locality":"Simmerath","municipality":{"key":"05334028","name":"Simmerath","type":"Kreisangehörige_Gemeinde"},"district":{"key":"05334","name":"Städteregion Aachen","type":"Kreis"},"federalState":{"key":"05","name":"Nordrhein-Westfalen"}},{"name":"Franz-Fedder-Str.","postalCode":"52152","locality":"Simmerath","municipality":{"key":"05334028","name":"Simmerath","type":"Kreisangehörige_Gemeinde"},"district":{"key":"05334","name":"Städteregion Aachen","type":"Kreis"},"federalState":{"key":"05","name":"Nordrhein-Westfalen"}},{"name":"Freizeitanlage","postalCode":"52152","locality":"Simmerath","municipality":{"key":"05334028","name":"Simmerath","type":"Kreisangehörige_Gemeinde"},"district":{"key":"05334","name":"Städteregion Aachen","type":"Kreis"},"federalState":{"key":"05","name":"Nordrhein-Westfalen"}},{"name":"Friedhofstr.","postalCode":"52152","locality":"Simmerath","municipality":{"key":"05334028","name":"Simmerath","type":"Kreisangehörige_Gemeinde"},"district":{"key":"05334","name":"Städteregion Aachen","type":"Kreis"},"federalState":{"key":"05","name":"Nordrhein-Westfalen"}},{"name":"Friedhofsweg","postalCode":"52152","locality":"Simmerath","municipality":{"key":"05334028","name":"Simmerath","type":"Kreisangehörige_Gemeinde"},"district":{"key":"05334","name":"Städteregion Aachen","type":"Kreis"},"federalState":{"key":"05","name":"Nordrhein-Westfalen"}},{"name":"Fronrater Weg","postalCode":"52152","locality":"Simmerath","municipality":{"key":"05334028","name":"Simmerath","type":"Kreisangehörige_Gemeinde"},"district":{"key":"05334","name":"Städteregion Aachen","type":"Kreis"},"federalState":{"key":"05","name":"Nordrhein-Westfalen"}},{"name":"Fronrather Weg","postalCode":"52152","locality":"Simmerath","municipality":{"key":"05334028","name":"Simmerath","type":"Kreisangehörige_Gemeinde"},"district":{"key":"05334","name":"Städteregion Aachen","type":"Kreis"},"federalState":{"key":"05","name":"Nordrhein-Westfalen"}},{"name":"Fuchsloch","postalCode":"52152","locality":"Simmerath","municipality":{"key":"05334028","name":"Simmerath","type":"Kreisangehörige_Gemeinde"},"district":{"key":"05334","name":"Städteregion Aachen","type":"Kreis"},"federalState":{"key":"05","name":"Nordrhein-Westfalen"}},{"name":"Fuggerstr.","postalCode":"52152","locality":"Simmerath","municipality":{"key":"05334028","name":"Simmerath","type":"Kreisangehörige_Gemeinde"},"district":{"key":"05334","name":"Städteregion Aachen","type":"Kreis"},"federalState":{"key":"05","name":"Nordrhein-Westfalen"}},{"name":"Fuhrtstr.","postalCode":"52152","locality":"Simmerath","municipality":{"key":"05334028","name":"Simmerath","type":"Kreisangehörige_Gemeinde"},"district":{"key":"05334","name":"Städteregion Aachen","type":"Kreis"},"federalState":{"key":"05","name":"Nordrhein-Westfalen"}},{"name":"Gartenstr.","postalCode":"52152","locality":"Simmerath","municipality":{"key":"05334028","name":"Simmerath","type":"Kreisangehörige_Gemeinde"},"district":{"key":"05334","name":"Städteregion Aachen","type":"Kreis"},"federalState":{"key":"05","name":"Nordrhein-Westfalen"}},{"name":"Gerhardsbruch","postalCode":"52152","locality":"Simmerath","municipality":{"key":"05334028","name":"Simmerath","type":"Kreisangehörige_Gemeinde"},"district":{"key":"05334","name":"Städteregion Aachen","type":"Kreis"},"federalState":{"key":"05","name":"Nordrhein-Westfalen"}},{"name":"Gerstenhof","postalCode":"52152","locality":"Simmerath","municipality":{"key":"05334028","name":"Simmerath","type":"Kreisangehörige_Gemeinde"},"district":{"key":"05334","name":"Städteregion Aachen","type":"Kreis"},"federalState":{"key":"05","name":"Nordrhein-Westfalen"}},{"name":"Ginsterley","postalCode":"52152","locality":"Simmerath","municipality":{"key":"05334028","name":"Simmerath","type":"Kreisangehörige_Gemeinde"},"district":{"key":"05334","name":"Städteregion Aachen","type":"Kreis"},"federalState":{"key":"05","name":"Nordrhein-Westfalen"}},{"name":"Girvelscheider Schneise","postalCode":"52152","locality":"Simmerath","municipality":{"key":"05334028","name":"Simmerath","type":"Kreisangehörige_Gemeinde"},"district":{"key":"05334","name":"Städteregion Aachen","type":"Kreis"},"federalState":{"key":"05","name":"Nordrhein-Westfalen"}},{"name":"Göjläjer","postalCode":"52152","locality":"Simmerath","municipality":{"key":"05334028","name":"Simmerath","type":"Kreisangehörige_Gemeinde"},"district":{"key":"05334","name":"Städteregion Aachen","type":"Kreis"},"federalState":{"key":"05","name":"Nordrhein-Westfalen"}},{"name":"Grasberg","postalCode":"52152","locality":"Simmerath","municipality":{"key":"05334028","name":"Simmerath","type":"Kreisangehörige_Gemeinde"},"district":{"key":"05334","name":"Städteregion Aachen","type":"Kreis"},"federalState":{"key":"05","name":"Nordrhein-Westfalen"}},{"name":"Grengdel","postalCode":"52152","locality":"Simmerath","municipality":{"key":"05334028","name":"Simmerath","type":"Kreisangehörige_Gemeinde"},"district":{"key":"05334","name":"Städteregion Aachen","type":"Kreis"},"federalState":{"key":"05","name":"Nordrhein-Westfalen"}},{"name":"Grenzweg","postalCode":"52152","locality":"Simmerath","municipality":{"key":"05334028","name":"Simmerath","type":"Kreisangehörige_Gemeinde"},"district":{"key":"05334","name":"Städteregion Aachen","type":"Kreis"},"federalState":{"key":"05","name":"Nordrhein-Westfalen"}},{"name":"Grimmischall","postalCode":"52152","locality":"Simmerath","municipality":{"key":"05334028","name":"Simmerath","type":"Kreisangehörige_Gemeinde"},"district":{"key":"05334","name":"Städteregion Aachen","type":"Kreis"},"federalState":{"key":"05","name":"Nordrhein-Westfalen"}},{"name":"Grubenweg","postalCode":"54552","locality":"Immerath","municipality":{"key":"07233034","name":"Immerath","type":"Kreisangehörige_Gemeinde"},"district":{"key":"07233","name":"Vulkaneifel","type":"Landkreis"},"federalState":{"key":"07","name":"Rheinland-Pfalz"}},{"name":"Grünentalstr.","postalCode":"52152","locality":"Simmerath","municipality":{"key":"05334028","name":"Simmerath","type":"Kreisangehörige_Gemeinde"},"district":{"key":"05334","name":"Städteregion Aachen","type":"Kreis"},"federalState":{"key":"05","name":"Nordrhein-Westfalen"}},{"name":"Häckeltches Weg","postalCode":"52152","locality":"Simmerath","municipality":{"key":"05334028","name":"Simmerath","type":"Kreisangehörige_Gemeinde"},"district":{"key":"05334","name":"Städteregion Aachen","type":"Kreis"},"federalState":{"key":"05","name":"Nordrhein-Westfalen"}},{"name":"Hahnbüchelsweg","postalCode":"52152","locality":"Simmerath","municipality":{"key":"05334028","name":"Simmerath","type":"Kreisangehörige_Gemeinde"},"district":{"key":"05334","name":"Städteregion Aachen","type":"Kreis"},"federalState":{"key":"05","name":"Nordrhein-Westfalen"}},{"name":"Hahner Str.","postalCode":"52152","locality":"Simmerath","municipality":{"key":"05334028","name":"Simmerath","type":"Kreisangehörige_Gemeinde"},"district":{"key":"05334","name":"Städteregion Aachen","type":"Kreis"},"federalState":{"key":"05","name":"Nordrhein-Westfalen"}},{"name":"Hammersheck","postalCode":"52152","locality":"Simmerath","municipality":{"key":"05334028","name":"Simmerath","type":"Kreisangehörige_Gemeinde"},"district":{"key":"05334","name":"Städteregion Aachen","type":"Kreis"},"federalState":{"key":"05","name":"Nordrhein-Westfalen"}},{"name":"Hammerstr.","postalCode":"52152","locality":"Simmerath","municipality":{"key":"05334028","name":"Simmerath","type":"Kreisangehörige_Gemeinde"},"district":{"key":"05334","name":"Städteregion Aachen","type":"Kreis"},"federalState":{"key":"05","name":"Nordrhein-Westfalen"}},{"name":"Hannesauel","postalCode":"52152","locality":"Simmerath","municipality":{"key":"05334028","name":"Simmerath","type":"Kreisangehörige_Gemeinde"},"district":{"key":"05334","name":"Städteregion Aachen","type":"Kreis"},"federalState":{"key":"05","name":"Nordrhein-Westfalen"}},{"name":"Hardtstr.","postalCode":"52152","locality":"Simmerath","municipality":{"key":"05334028","name":"Simmerath","type":"Kreisangehörige_Gemeinde"},"district":{"key":"05334","name":"Städteregion Aachen","type":"Kreis"},"federalState":{"key":"05","name":"Nordrhein-Westfalen"}},{"name":"Hauptstr.","postalCode":"52152","locality":"Simmerath","municipality":{"key":"05334028","name":"Simmerath","type":"Kreisangehörige_Gemeinde"},"district":{"key":"05334","name":"Städteregion Aachen","type":"Kreis"},"federalState":{"key":"05","name":"Nordrhein-Westfalen"}},{"name":"Hauptstr.","postalCode":"54552","locality":"Immerath","municipality":{"key":"07233034","name":"Immerath","type":"Kreisangehörige_Gemeinde"},"district":{"key":"07233","name":"Vulkaneifel","type":"Landkreis"},"federalState":{"key":"07","name":"Rheinland-Pfalz"}},{"name":"Haus Waldheim","postalCode":"52152","locality":"Simmerath","municipality":{"key":"05334028","name":"Simmerath","type":"Kreisangehörige_Gemeinde"},"district":{"key":"05334","name":"Städteregion Aachen","type":"Kreis"},"federalState":{"key":"05","name":"Nordrhein-Westfalen"}},{"name":"Hechelscheid","postalCode":"52152","locality":"Simmerath","municipality":{"key":"05334028","name":"Simmerath","type":"Kreisangehörige_Gemeinde"},"district":{"key":"05334","name":"Städteregion Aachen","type":"Kreis"},"federalState":{"key":"05","name":"Nordrhein-Westfalen"}},{"name":"Hechelscheider Str.","postalCode":"52152","locality":"Simmerath","municipality":{"key":"05334028","name":"Simmerath","type":"Kreisangehörige_Gemeinde"},"district":{"key":"05334","name":"Städteregion Aachen","type":"Kreis"},"federalState":{"key":"05","name":"Nordrhein-Westfalen"}},{"name":"Heckelchesweg","postalCode":"52152","locality":"Simmerath","municipality":{"key":"05334028","name":"Simmerath","type":"Kreisangehörige_Gemeinde"},"district":{"key":"05334","name":"Städteregion Aachen","type":"Kreis"},"federalState":{"key":"05","name":"Nordrhein-Westfalen"}},{"name":"Heidbüchelstr.","postalCode":"52152","locality":"Simmerath","municipality":{"key":"05334028","name":"Simmerath","type":"Kreisangehörige_Gemeinde"},"district":{"key":"05334","name":"Städteregion Aachen","type":"Kreis"},"federalState":{"key":"05","name":"Nordrhein-Westfalen"}},{"name":"Heider Hof","postalCode":"52152","locality":"Simmerath","municipality":{"key":"05334028","name":"Simmerath","type":"Kreisangehörige_Gemeinde"},"district":{"key":"05334","name":"Städteregion Aachen","type":"Kreis"},"federalState":{"key":"05","name":"Nordrhein-Westfalen"}},{"name":"Heidestr.","postalCode":"52152","locality":"Simmerath","municipality":{"key":"05334028","name":"Simmerath","type":"Kreisangehörige_Gemeinde"},"district":{"key":"05334","name":"Städteregion Aachen","type":"Kreis"},"federalState":{"key":"05","name":"Nordrhein-Westfalen"}},{"name":"Heidgasse","postalCode":"52152","locality":"Simmerath","municipality":{"key":"05334028","name":"Simmerath","type":"Kreisangehörige_Gemeinde"},"district":{"key":"05334","name":"Städteregion Aachen","type":"Kreis"},"federalState":{"key":"05","name":"Nordrhein-Westfalen"}},{"name":"Heilsteinstr.","postalCode":"52152","locality":"Simmerath","municipality":{"key":"05334028","name":"Simmerath","type":"Kreisangehörige_Gemeinde"},"district":{"key":"05334","name":"Städteregion Aachen","type":"Kreis"},"federalState":{"key":"05","name":"Nordrhein-Westfalen"}},{"name":"Heimigweg","postalCode":"52152","locality":"Simmerath","municipality":{"key":"05334028","name":"Simmerath","type":"Kreisangehörige_Gemeinde"},"district":{"key":"05334","name":"Städteregion Aachen","type":"Kreis"},"federalState":{"key":"05","name":"Nordrhein-Westfalen"}},{"name":"Heldter Gasse","postalCode":"52152","locality":"Simmerath","municipality":{"key":"05334028","name":"Simmerath","type":"Kreisangehörige_Gemeinde"},"district":{"key":"05334","name":"Städteregion Aachen","type":"Kreis"},"federalState":{"key":"05","name":"Nordrhein-Westfalen"}},{"name":"Heldter Weg","postalCode":"52152","locality":"Simmerath","municipality":{"key":"05334028","name":"Simmerath","type":"Kreisangehörige_Gemeinde"},"district":{"key":"05334","name":"Städteregion Aachen","type":"Kreis"},"federalState":{"key":"05","name":"Nordrhein-Westfalen"}},{"name":"Heppenböschel","postalCode":"52152","locality":"Simmerath","municipality":{"key":"05334028","name":"Simmerath","type":"Kreisangehörige_Gemeinde"},"district":{"key":"05334","name":"Städteregion Aachen","type":"Kreis"},"federalState":{"key":"05","name":"Nordrhein-Westfalen"}},{"name":"Herrberigstr.","postalCode":"52152","locality":"Simmerath","municipality":{"key":"05334028","name":"Simmerath","type":"Kreisangehörige_Gemeinde"},"district":{"key":"05334","name":"Städteregion Aachen","type":"Kreis"},"federalState":{"key":"05","name":"Nordrhein-Westfalen"}},{"name":"Hesselboesch","postalCode":"52152","locality":"Simmerath","municipality":{"key":"05334028","name":"Simmerath","type":"Kreisangehörige_Gemeinde"},"district":{"key":"05334","name":"Städteregion Aachen","type":"Kreis"},"federalState":{"key":"05","name":"Nordrhein-Westfalen"}},{"name":"Heustr.","postalCode":"52152","locality":"Simmerath","municipality":{"key":"05334028","name":"Simmerath","type":"Kreisangehörige_Gemeinde"},"district":{"key":"05334","name":"Städteregion Aachen","type":"Kreis"},"federalState":{"key":"05","name":"Nordrhein-Westfalen"}},{"name":"Hirschrott","postalCode":"52152","locality":"Simmerath","municipality":{"key":"05334028","name":"Simmerath","type":"Kreisangehörige_Gemeinde"},"district":{"key":"05334","name":"Städteregion Aachen","type":"Kreis"},"federalState":{"key":"05","name":"Nordrhein-Westfalen"}},{"name":"Hof Berensheck","postalCode":"52152","locality":"Simmerath","municipality":{"key":"05334028","name":"Simmerath","type":"Kreisangehörige_Gemeinde"},"district":{"key":"05334","name":"Städteregion Aachen","type":"Kreis"},"federalState":{"key":"05","name":"Nordrhein-Westfalen"}},{"name":"Hofstr.","postalCode":"52152","locality":"Simmerath","municipality":{"key":"05334028","name":"Simmerath","type":"Kreisangehörige_Gemeinde"},"district":{"key":"05334","name":"Städteregion Aachen","type":"Kreis"},"federalState":{"key":"05","name":"Nordrhein-Westfalen"}},{"name":"Hohenhövel","postalCode":"52152","locality":"Simmerath","municipality":{"key":"05334028","name":"Simmerath","type":"Kreisangehörige_Gemeinde"},"district":{"key":"05334","name":"Städteregion Aachen","type":"Kreis"},"federalState":{"key":"05","name":"Nordrhein-Westfalen"}},{"name":"Höhenstr.","postalCode":"52152","locality":"Simmerath","municipality":{"key":"05334028","name":"Simmerath","type":"Kreisangehörige_Gemeinde"},"district":{"key":"05334","name":"Städteregion Aachen","type":"Kreis"},"federalState":{"key":"05","name":"Nordrhein-Westfalen"}},{"name":"Hohlweg","postalCode":"52152","locality":"Simmerath","municipality":{"key":"05334028","name":"Simmerath","type":"Kreisangehörige_Gemeinde"},"district":{"key":"05334","name":"Städteregion Aachen","type":"Kreis"},"federalState":{"key":"05","name":"Nordrhein-Westfalen"}},{"name":"Hölzkaul","postalCode":"52152","locality":"Simmerath","municipality":{"key":"05334028","name":"Simmerath","type":"Kreisangehörige_Gemeinde"},"district":{"key":"05334","name":"Städteregion Aachen","type":"Kreis"},"federalState":{"key":"05","name":"Nordrhein-Westfalen"}},{"name":"Hommelepötz","postalCode":"52152","locality":"Simmerath","municipality":{"key":"05334028","name":"Simmerath","type":"Kreisangehörige_Gemeinde"},"district":{"key":"05334","name":"Städteregion Aachen","type":"Kreis"},"federalState":{"key":"05","name":"Nordrhein-Westfalen"}},{"name":"Hoscheiter Str.","postalCode":"52152","locality":"Simmerath","municipality":{"key":"05334028","name":"Simmerath","type":"Kreisangehörige_Gemeinde"},"district":{"key":"05334","name":"Städteregion Aachen","type":"Kreis"},"federalState":{"key":"05","name":"Nordrhein-Westfalen"}},{"name":"Hövel","postalCode":"52152","locality":"Simmerath","municipality":{"key":"05334028","name":"Simmerath","type":"Kreisangehörige_Gemeinde"},"district":{"key":"05334","name":"Städteregion Aachen","type":"Kreis"},"federalState":{"key":"05","name":"Nordrhein-Westfalen"}},{"name":"Hövelchesweg","postalCode":"52152","locality":"Simmerath","municipality":{"key":"05334028","name":"Simmerath","type":"Kreisangehörige_Gemeinde"},"district":{"key":"05334","name":"Städteregion Aachen","type":"Kreis"},"federalState":{"key":"05","name":"Nordrhein-Westfalen"}},{"name":"Humboldtstr.","postalCode":"52152","locality":"Simmerath","municipality":{"key":"05334028","name":"Simmerath","type":"Kreisangehörige_Gemeinde"},"district":{"key":"05334","name":"Städteregion Aachen","type":"Kreis"},"federalState":{"key":"05","name":"Nordrhein-Westfalen"}},{"name":"Im Birkenschlag","postalCode":"52152","locality":"Simmerath","municipality":{"key":"05334028","name":"Simmerath","type":"Kreisangehörige_Gemeinde"},"district":{"key":"05334","name":"Städteregion Aachen","type":"Kreis"},"federalState":{"key":"05","name":"Nordrhein-Westfalen"}},{"name":"Im Brand","postalCode":"52152","locality":"Simmerath","municipality":{"key":"05334028","name":"Simmerath","type":"Kreisangehörige_Gemeinde"},"district":{"key":"05334","name":"Städteregion Aachen","type":"Kreis"},"federalState":{"key":"05","name":"Nordrhein-Westfalen"}},{"name":"Im Buschfeld","postalCode":"52152","locality":"Simmerath","municipality":{"key":"05334028","name":"Simmerath","type":"Kreisangehörige_Gemeinde"},"district":{"key":"05334","name":"Städteregion Aachen","type":"Kreis"},"federalState":{"key":"05","name":"Nordrhein-Westfalen"}},{"name":"Im Dreieck","postalCode":"52152","locality":"Simmerath","municipality":{"key":"05334028","name":"Simmerath","type":"Kreisangehörige_Gemeinde"},"district":{"key":"05334","name":"Städteregion Aachen","type":"Kreis"},"federalState":{"key":"05","name":"Nordrhein-Westfalen"}},{"name":"Im Dümpel","postalCode":"54552","locality":"Immerath","municipality":{"key":"07233034","name":"Immerath","type":"Kreisangehörige_Gemeinde"},"district":{"key":"07233","name":"Vulkaneifel","type":"Landkreis"},"federalState":{"key":"07","name":"Rheinland-Pfalz"}},{"name":"Im Gansberg","postalCode":"52152","locality":"Simmerath","municipality":{"key":"05334028","name":"Simmerath","type":"Kreisangehörige_Gemeinde"},"district":{"key":"05334","name":"Städteregion Aachen","type":"Kreis"},"federalState":{"key":"05","name":"Nordrhein-Westfalen"}},{"name":"Im Gärtchen","postalCode":"52152","locality":"Simmerath","municipality":{"key":"05334028","name":"Simmerath","type":"Kreisangehörige_Gemeinde"},"district":{"key":"05334","name":"Städteregion Aachen","type":"Kreis"},"federalState":{"key":"05","name":"Nordrhein-Westfalen"}},{"name":"Im Hech","postalCode":"52152","locality":"Simmerath","municipality":{"key":"05334028","name":"Simmerath","type":"Kreisangehörige_Gemeinde"},"district":{"key":"05334","name":"Städteregion Aachen","type":"Kreis"},"federalState":{"key":"05","name":"Nordrhein-Westfalen"}},{"name":"Im Kämpchen","postalCode":"52152","locality":"Simmerath","municipality":{"key":"05334028","name":"Simmerath","type":"Kreisangehörige_Gemeinde"},"district":{"key":"05334","name":"Städteregion Aachen","type":"Kreis"},"federalState":{"key":"05","name":"Nordrhein-Westfalen"}},{"name":"Im Kirchendresch","postalCode":"52152","locality":"Simmerath","municipality":{"key":"05334028","name":"Simmerath","type":"Kreisangehörige_Gemeinde"},"district":{"key":"05334","name":"Städteregion Aachen","type":"Kreis"},"federalState":{"key":"05","name":"Nordrhein-Westfalen"}},{"name":"Im Mittelvenn","postalCode":"52152","locality":"Simmerath","municipality":{"key":"05334028","name":"Simmerath","type":"Kreisangehörige_Gemeinde"},"district":{"key":"05334","name":"Städteregion Aachen","type":"Kreis"},"federalState":{"key":"05","name":"Nordrhein-Westfalen"}},{"name":"Im Mölleböschel","postalCode":"52152","locality":"Simmerath","municipality":{"key":"05334028","name":"Simmerath","type":"Kreisangehörige_Gemeinde"},"district":{"key":"05334","name":"Städteregion Aachen","type":"Kreis"},"federalState":{"key":"05","name":"Nordrhein-Westfalen"}},{"name":"Im Pohl","postalCode":"52152","locality":"Simmerath","municipality":{"key":"05334028","name":"Simmerath","type":"Kreisangehörige_Gemeinde"},"district":{"key":"05334","name":"Städteregion Aachen","type":"Kreis"},"federalState":{"key":"05","name":"Nordrhein-Westfalen"}},{"name":"Im Römbchen","postalCode":"52152","locality":"Simmerath","municipality":{"key":"05334028","name":"Simmerath","type":"Kreisangehörige_Gemeinde"},"district":{"key":"05334","name":"Städteregion Aachen","type":"Kreis"},"federalState":{"key":"05","name":"Nordrhein-Westfalen"}},{"name":"Im Schenner","postalCode":"52152","locality":"Simmerath","municipality":{"key":"05334028","name":"Simmerath","type":"Kreisangehörige_Gemeinde"},"district":{"key":"05334","name":"Städteregion Aachen","type":"Kreis"},"federalState":{"key":"05","name":"Nordrhein-Westfalen"}},{"name":"Im Schiefenborn","postalCode":"52152","locality":"Simmerath","municipality":{"key":"05334028","name":"Simmerath","type":"Kreisangehörige_Gemeinde"},"district":{"key":"05334","name":"Städteregion Aachen","type":"Kreis"},"federalState":{"key":"05","name":"Nordrhein-Westfalen"}},{"name":"Im Schöllchen","postalCode":"52152","locality":"Simmerath","municipality":{"key":"05334028","name":"Simmerath","type":"Kreisangehörige_Gemeinde"},"district":{"key":"05334","name":"Städteregion Aachen","type":"Kreis"},"federalState":{"key":"05","name":"Nordrhein-Westfalen"}},{"name":"Im Schroof","postalCode":"52152","locality":"Simmerath","municipality":{"key":"05334028","name":"Simmerath","type":"Kreisangehörige_Gemeinde"},"district":{"key":"05334","name":"Städteregion Aachen","type":"Kreis"},"federalState":{"key":"05","name":"Nordrhein-Westfalen"}},{"name":"Im Sief","postalCode":"52152","locality":"Simmerath","municipality":{"key":"05334028","name":"Simmerath","type":"Kreisangehörige_Gemeinde"},"district":{"key":"05334","name":"Städteregion Aachen","type":"Kreis"},"federalState":{"key":"05","name":"Nordrhein-Westfalen"}},{"name":"Im Steinchen","postalCode":"52152","locality":"Simmerath","municipality":{"key":"05334028","name":"Simmerath","type":"Kreisangehörige_Gemeinde"},"district":{"key":"05334","name":"Städteregion Aachen","type":"Kreis"},"federalState":{"key":"05","name":"Nordrhein-Westfalen"}},{"name":"Im Venn","postalCode":"52152","locality":"Simmerath","municipality":{"key":"05334028","name":"Simmerath","type":"Kreisangehörige_Gemeinde"},"district":{"key":"05334","name":"Städteregion Aachen","type":"Kreis"},"federalState":{"key":"05","name":"Nordrhein-Westfalen"}},{"name":"Im Winkel","postalCode":"52152","locality":"Simmerath","municipality":{"key":"05334028","name":"Simmerath","type":"Kreisangehörige_Gemeinde"},"district":{"key":"05334","name":"Städteregion Aachen","type":"Kreis"},"federalState":{"key":"05","name":"Nordrhein-Westfalen"}},{"name":"Im Zaarbeendchen","postalCode":"52152","locality":"Simmerath","municipality":{"key":"05334028","name":"Simmerath","type":"Kreisangehörige_Gemeinde"},"district":{"key":"05334","name":"Städteregion Aachen","type":"Kreis"},"federalState":{"key":"05","name":"Nordrhein-Westfalen"}},{"name":"Im Zemmer","postalCode":"52152","locality":"Simmerath","municipality":{"key":"05334028","name":"Simmerath","type":"Kreisangehörige_Gemeinde"},"district":{"key":"05334","name":"Städteregion Aachen","type":"Kreis"},"federalState":{"key":"05","name":"Nordrhein-Westfalen"}},{"name":"In den Birken","postalCode":"52152","locality":"Simmerath","municipality":{"key":"05334028","name":"Simmerath","type":"Kreisangehörige_Gemeinde"},"district":{"key":"05334","name":"Städteregion Aachen","type":"Kreis"},"federalState":{"key":"05","name":"Nordrhein-Westfalen"}},{"name":"In den Bremen","postalCode":"52152","locality":"Simmerath","municipality":{"key":"05334028","name":"Simmerath","type":"Kreisangehörige_Gemeinde"},"district":{"key":"05334","name":"Städteregion Aachen","type":"Kreis"},"federalState":{"key":"05","name":"Nordrhein-Westfalen"}},{"name":"In den Brüchen","postalCode":"52152","locality":"Simmerath","municipality":{"key":"05334028","name":"Simmerath","type":"Kreisangehörige_Gemeinde"},"district":{"key":"05334","name":"Städteregion Aachen","type":"Kreis"},"federalState":{"key":"05","name":"Nordrhein-Westfalen"}},{"name":"In den Gassen","postalCode":"52152","locality":"Simmerath","municipality":{"key":"05334028","name":"Simmerath","type":"Kreisangehörige_Gemeinde"},"district":{"key":"05334","name":"Städteregion Aachen","type":"Kreis"},"federalState":{"key":"05","name":"Nordrhein-Westfalen"}},{"name":"In den Kuhlen","postalCode":"52152","locality":"Simmerath","municipality":{"key":"05334028","name":"Simmerath","type":"Kreisangehörige_Gemeinde"},"district":{"key":"05334","name":"Städteregion Aachen","type":"Kreis"},"federalState":{"key":"05","name":"Nordrhein-Westfalen"}},{"name":"In der Kier","postalCode":"52152","locality":"Simmerath","municipality":{"key":"05334028","name":"Simmerath","type":"Kreisangehörige_Gemeinde"},"district":{"key":"05334","name":"Städteregion Aachen","type":"Kreis"},"federalState":{"key":"05","name":"Nordrhein-Westfalen"}},{"name":"In der Mahr","postalCode":"52152","locality":"Simmerath","municipality":{"key":"05334028","name":"Simmerath","type":"Kreisangehörige_Gemeinde"},"district":{"key":"05334","name":"Städteregion Aachen","type":"Kreis"},"federalState":{"key":"05","name":"Nordrhein-Westfalen"}},{"name":"In der Schlad","postalCode":"52152","locality":"Simmerath","municipality":{"key":"05334028","name":"Simmerath","type":"Kreisangehörige_Gemeinde"},"district":{"key":"05334","name":"Städteregion Aachen","type":"Kreis"},"federalState":{"key":"05","name":"Nordrhein-Westfalen"}},{"name":"In der Wolsbach","postalCode":"52152","locality":"Simmerath","municipality":{"key":"05334028","name":"Simmerath","type":"Kreisangehörige_Gemeinde"},"district":{"key":"05334","name":"Städteregion Aachen","type":"Kreis"},"federalState":{"key":"05","name":"Nordrhein-Westfalen"}},{"name":"In Kringsweide","postalCode":"52152","locality":"Simmerath","municipality":{"key":"05334028","name":"Simmerath","type":"Kreisangehörige_Gemeinde"},"district":{"key":"05334","name":"Städteregion Aachen","type":"Kreis"},"federalState":{"key":"05","name":"Nordrhein-Westfalen"}},{"name":"In Lammersdorf","postalCode":"52152","locality":"Simmerath","municipality":{"key":"05334028","name":"Simmerath","type":"Kreisangehörige_Gemeinde"},"district":{"key":"05334","name":"Städteregion Aachen","type":"Kreis"},"federalState":{"key":"05","name":"Nordrhein-Westfalen"}},{"name":"In Steckenborn","postalCode":"52152","locality":"Simmerath","municipality":{"key":"05334028","name":"Simmerath","type":"Kreisangehörige_Gemeinde"},"district":{"key":"05334","name":"Städteregion Aachen","type":"Kreis"},"federalState":{"key":"05","name":"Nordrhein-Westfalen"}},{"name":"In Witzerath","postalCode":"52152","locality":"Simmerath","municipality":{"key":"05334028","name":"Simmerath","type":"Kreisangehörige_Gemeinde"},"district":{"key":"05334","name":"Städteregion Aachen","type":"Kreis"},"federalState":{"key":"05","name":"Nordrhein-Westfalen"}},{"name":"Jägerhausstr.","postalCode":"52152","locality":"Simmerath","municipality":{"key":"05334028","name":"Simmerath","type":"Kreisangehörige_Gemeinde"},"district":{"key":"05334","name":"Städteregion Aachen","type":"Kreis"},"federalState":{"key":"05","name":"Nordrhein-Westfalen"}},{"name":"Jägerhausweg","postalCode":"52152","locality":"Simmerath","municipality":{"key":"05334028","name":"Simmerath","type":"Kreisangehörige_Gemeinde"},"district":{"key":"05334","name":"Städteregion Aachen","type":"Kreis"},"federalState":{"key":"05","name":"Nordrhein-Westfalen"}},{"name":"Jägersweiler","postalCode":"52152","locality":"Simmerath","municipality":{"key":"05334028","name":"Simmerath","type":"Kreisangehörige_Gemeinde"},"district":{"key":"05334","name":"Städteregion Aachen","type":"Kreis"},"federalState":{"key":"05","name":"Nordrhein-Westfalen"}},{"name":"Jägersweiler Str.","postalCode":"52152","locality":"Simmerath","municipality":{"key":"05334028","name":"Simmerath","type":"Kreisangehörige_Gemeinde"},"district":{"key":"05334","name":"Städteregion Aachen","type":"Kreis"},"federalState":{"key":"05","name":"Nordrhein-Westfalen"}},{"name":"Jannesbönches Wääch","postalCode":"52152","locality":"Simmerath","municipality":{"key":"05334028","name":"Simmerath","type":"Kreisangehörige_Gemeinde"},"district":{"key":"05334","name":"Städteregion Aachen","type":"Kreis"},"federalState":{"key":"05","name":"Nordrhein-Westfalen"}},{"name":"Jieschnös","postalCode":"52152","locality":"Simmerath","municipality":{"key":"05334028","name":"Simmerath","type":"Kreisangehörige_Gemeinde"},"district":{"key":"05334","name":"Städteregion Aachen","type":"Kreis"},"federalState":{"key":"05","name":"Nordrhein-Westfalen"}},{"name":"Johannesweg","postalCode":"52152","locality":"Simmerath","municipality":{"key":"05334028","name":"Simmerath","type":"Kreisangehörige_Gemeinde"},"district":{"key":"05334","name":"Städteregion Aachen","type":"Kreis"},"federalState":{"key":"05","name":"Nordrhein-Westfalen"}},{"name":"Josef-Jansen-Str.","postalCode":"52152","locality":"Simmerath","municipality":{"key":"05334028","name":"Simmerath","type":"Kreisangehörige_Gemeinde"},"district":{"key":"05334","name":"Städteregion Aachen","type":"Kreis"},"federalState":{"key":"05","name":"Nordrhein-Westfalen"}},{"name":"Julius-Böttcher-Weg","postalCode":"52152","locality":"Simmerath","municipality":{"key":"05334028","name":"Simmerath","type":"Kreisangehörige_Gemeinde"},"district":{"key":"05334","name":"Städteregion Aachen","type":"Kreis"},"federalState":{"key":"05","name":"Nordrhein-Westfalen"}},{"name":"Junkerstr.","postalCode":"52152","locality":"Simmerath","municipality":{"key":"05334028","name":"Simmerath","type":"Kreisangehörige_Gemeinde"},"district":{"key":"05334","name":"Städteregion Aachen","type":"Kreis"},"federalState":{"key":"05","name":"Nordrhein-Westfalen"}},{"name":"Kalferscheider Gasse","postalCode":"52152","locality":"Simmerath","municipality":{"key":"05334028","name":"Simmerath","type":"Kreisangehörige_Gemeinde"},"district":{"key":"05334","name":"Städteregion Aachen","type":"Kreis"},"federalState":{"key":"05","name":"Nordrhein-Westfalen"}},{"name":"Kallbachstr.","postalCode":"52152","locality":"Simmerath","municipality":{"key":"05334028","name":"Simmerath","type":"Kreisangehörige_Gemeinde"},"district":{"key":"05334","name":"Städteregion Aachen","type":"Kreis"},"federalState":{"key":"05","name":"Nordrhein-Westfalen"}},{"name":"Kallbachweg","postalCode":"52152","locality":"Simmerath","municipality":{"key":"05334028","name":"Simmerath","type":"Kreisangehörige_Gemeinde"},"district":{"key":"05334","name":"Städteregion Aachen","type":"Kreis"},"federalState":{"key":"05","name":"Nordrhein-Westfalen"}},{"name":"Kallebruchs-Bönd","postalCode":"52152","locality":"Simmerath","municipality":{"key":"05334028","name":"Simmerath","type":"Kreisangehörige_Gemeinde"},"district":{"key":"05334","name":"Städteregion Aachen","type":"Kreis"},"federalState":{"key":"05","name":"Nordrhein-Westfalen"}},{"name":"Kallenbrucher Gasse","postalCode":"52152","locality":"Simmerath","municipality":{"key":"05334028","name":"Simmerath","type":"Kreisangehörige_Gemeinde"},"district":{"key":"05334","name":"Städteregion Aachen","type":"Kreis"},"federalState":{"key":"05","name":"Nordrhein-Westfalen"}},{"name":"Kalltal","postalCode":"52152","locality":"Simmerath","municipality":{"key":"05334028","name":"Simmerath","type":"Kreisangehörige_Gemeinde"},"district":{"key":"05334","name":"Städteregion Aachen","type":"Kreis"},"federalState":{"key":"05","name":"Nordrhein-Westfalen"}},{"name":"Kalltalstr.","postalCode":"52152","locality":"Simmerath","municipality":{"key":"05334028","name":"Simmerath","type":"Kreisangehörige_Gemeinde"},"district":{"key":"05334","name":"Städteregion Aachen","type":"Kreis"},"federalState":{"key":"05","name":"Nordrhein-Westfalen"}},{"name":"Kammerbruchstr.","postalCode":"52152","locality":"Simmerath","municipality":{"key":"05334028","name":"Simmerath","type":"Kreisangehörige_Gemeinde"},"district":{"key":"05334","name":"Städteregion Aachen","type":"Kreis"},"federalState":{"key":"05","name":"Nordrhein-Westfalen"}},{"name":"Kapellenstr.","postalCode":"52152","locality":"Simmerath","municipality":{"key":"05334028","name":"Simmerath","type":"Kreisangehörige_Gemeinde"},"district":{"key":"05334","name":"Städteregion Aachen","type":"Kreis"},"federalState":{"key":"05","name":"Nordrhein-Westfalen"}},{"name":"Kapellenweg","postalCode":"52152","locality":"Simmerath","municipality":{"key":"05334028","name":"Simmerath","type":"Kreisangehörige_Gemeinde"},"district":{"key":"05334","name":"Städteregion Aachen","type":"Kreis"},"federalState":{"key":"05","name":"Nordrhein-Westfalen"}},{"name":"Kastanienweg","postalCode":"52152","locality":"Simmerath","municipality":{"key":"05334028","name":"Simmerath","type":"Kreisangehörige_Gemeinde"},"district":{"key":"05334","name":"Städteregion Aachen","type":"Kreis"},"federalState":{"key":"05","name":"Nordrhein-Westfalen"}},{"name":"Kelltergasse","postalCode":"52152","locality":"Simmerath","municipality":{"key":"05334028","name":"Simmerath","type":"Kreisangehörige_Gemeinde"},"district":{"key":"05334","name":"Städteregion Aachen","type":"Kreis"},"federalState":{"key":"05","name":"Nordrhein-Westfalen"}},{"name":"Kesternicher Str.","postalCode":"52152","locality":"Simmerath","municipality":{"key":"05334028","name":"Simmerath","type":"Kreisangehörige_Gemeinde"},"district":{"key":"05334","name":"Städteregion Aachen","type":"Kreis"},"federalState":{"key":"05","name":"Nordrhein-Westfalen"}},{"name":"Kierweg","postalCode":"52152","locality":"Simmerath","municipality":{"key":"05334028","name":"Simmerath","type":"Kreisangehörige_Gemeinde"},"district":{"key":"05334","name":"Städteregion Aachen","type":"Kreis"},"federalState":{"key":"05","name":"Nordrhein-Westfalen"}},{"name":"Kieschroed","postalCode":"52152","locality":"Simmerath","municipality":{"key":"05334028","name":"Simmerath","type":"Kreisangehörige_Gemeinde"},"district":{"key":"05334","name":"Städteregion Aachen","type":"Kreis"},"federalState":{"key":"05","name":"Nordrhein-Westfalen"}},{"name":"Kirchgasse","postalCode":"52152","locality":"Simmerath","municipality":{"key":"05334028","name":"Simmerath","type":"Kreisangehörige_Gemeinde"},"district":{"key":"05334","name":"Städteregion Aachen","type":"Kreis"},"federalState":{"key":"05","name":"Nordrhein-Westfalen"}},{"name":"Kirchhofsweg","postalCode":"52152","locality":"Simmerath","municipality":{"key":"05334028","name":"Simmerath","type":"Kreisangehörige_Gemeinde"},"district":{"key":"05334","name":"Städteregion Aachen","type":"Kreis"},"federalState":{"key":"05","name":"Nordrhein-Westfalen"}},{"name":"Kirchplatz","postalCode":"52152","locality":"Simmerath","municipality":{"key":"05334028","name":"Simmerath","type":"Kreisangehörige_Gemeinde"},"district":{"key":"05334","name":"Städteregion Aachen","type":"Kreis"},"federalState":{"key":"05","name":"Nordrhein-Westfalen"}},{"name":"Kirchstr.","postalCode":"52152","locality":"Simmerath","municipality":{"key":"05334028","name":"Simmerath","type":"Kreisangehörige_Gemeinde"},"district":{"key":"05334","name":"Städteregion Aachen","type":"Kreis"},"federalState":{"key":"05","name":"Nordrhein-Westfalen"}},{"name":"Kirchweg","postalCode":"52152","locality":"Simmerath","municipality":{"key":"05334028","name":"Simmerath","type":"Kreisangehörige_Gemeinde"},"district":{"key":"05334","name":"Städteregion Aachen","type":"Kreis"},"federalState":{"key":"05","name":"Nordrhein-Westfalen"}},{"name":"Kirchweg","postalCode":"54552","locality":"Immerath","municipality":{"key":"07233034","name":"Immerath","type":"Kreisangehörige_Gemeinde"},"district":{"key":"07233","name":"Vulkaneifel","type":"Landkreis"},"federalState":{"key":"07","name":"Rheinland-Pfalz"}},{"name":"Kirschberg","postalCode":"52152","locality":"Simmerath","municipality":{"key":"05334028","name":"Simmerath","type":"Kreisangehörige_Gemeinde"},"district":{"key":"05334","name":"Städteregion Aachen","type":"Kreis"},"federalState":{"key":"05","name":"Nordrhein-Westfalen"}},{"name":"Klasfeld","postalCode":"52152","locality":"Simmerath","municipality":{"key":"05334028","name":"Simmerath","type":"Kreisangehörige_Gemeinde"},"district":{"key":"05334","name":"Städteregion Aachen","type":"Kreis"},"federalState":{"key":"05","name":"Nordrhein-Westfalen"}},{"name":"Klaus","postalCode":"52152","locality":"Simmerath","municipality":{"key":"05334028","name":"Simmerath","type":"Kreisangehörige_Gemeinde"},"district":{"key":"05334","name":"Städteregion Aachen","type":"Kreis"},"federalState":{"key":"05","name":"Nordrhein-Westfalen"}},{"name":"Koelsheid","postalCode":"52152","locality":"Simmerath","municipality":{"key":"05334028","name":"Simmerath","type":"Kreisangehörige_Gemeinde"},"district":{"key":"05334","name":"Städteregion Aachen","type":"Kreis"},"federalState":{"key":"05","name":"Nordrhein-Westfalen"}},{"name":"Kölner Str.","postalCode":"52152","locality":"Simmerath","municipality":{"key":"05334028","name":"Simmerath","type":"Kreisangehörige_Gemeinde"},"district":{"key":"05334","name":"Städteregion Aachen","type":"Kreis"},"federalState":{"key":"05","name":"Nordrhein-Westfalen"}},{"name":"Kömpches Gasse","postalCode":"52152","locality":"Simmerath","municipality":{"key":"05334028","name":"Simmerath","type":"Kreisangehörige_Gemeinde"},"district":{"key":"05334","name":"Städteregion Aachen","type":"Kreis"},"federalState":{"key":"05","name":"Nordrhein-Westfalen"}},{"name":"Konertzweg","postalCode":"52152","locality":"Simmerath","municipality":{"key":"05334028","name":"Simmerath","type":"Kreisangehörige_Gemeinde"},"district":{"key":"05334","name":"Städteregion Aachen","type":"Kreis"},"federalState":{"key":"05","name":"Nordrhein-Westfalen"}},{"name":"Königsgässchen","postalCode":"52152","locality":"Simmerath","municipality":{"key":"05334028","name":"Simmerath","type":"Kreisangehörige_Gemeinde"},"district":{"key":"05334","name":"Städteregion Aachen","type":"Kreis"},"federalState":{"key":"05","name":"Nordrhein-Westfalen"}},{"name":"Konsumspättche","postalCode":"52152","locality":"Simmerath","municipality":{"key":"05334028","name":"Simmerath","type":"Kreisangehörige_Gemeinde"},"district":{"key":"05334","name":"Städteregion Aachen","type":"Kreis"},"federalState":{"key":"05","name":"Nordrhein-Westfalen"}},{"name":"Kopperweg","postalCode":"52152","locality":"Simmerath","municipality":{"key":"05334028","name":"Simmerath","type":"Kreisangehörige_Gemeinde"},"district":{"key":"05334","name":"Städteregion Aachen","type":"Kreis"},"federalState":{"key":"05","name":"Nordrhein-Westfalen"}},{"name":"Köstischjäßje","postalCode":"52152","locality":"Simmerath","municipality":{"key":"05334028","name":"Simmerath","type":"Kreisangehörige_Gemeinde"},"district":{"key":"05334","name":"Städteregion Aachen","type":"Kreis"},"federalState":{"key":"05","name":"Nordrhein-Westfalen"}},{"name":"Krämerstr.","postalCode":"52152","locality":"Simmerath","municipality":{"key":"05334028","name":"Simmerath","type":"Kreisangehörige_Gemeinde"},"district":{"key":"05334","name":"Städteregion Aachen","type":"Kreis"},"federalState":{"key":"05","name":"Nordrhein-Westfalen"}},{"name":"Kranzbruchstr.","postalCode":"52152","locality":"Simmerath","municipality":{"key":"05334028","name":"Simmerath","type":"Kreisangehörige_Gemeinde"},"district":{"key":"05334","name":"Städteregion Aachen","type":"Kreis"},"federalState":{"key":"05","name":"Nordrhein-Westfalen"}},{"name":"Kreuzstr.","postalCode":"52152","locality":"Simmerath","municipality":{"key":"05334028","name":"Simmerath","type":"Kreisangehörige_Gemeinde"},"district":{"key":"05334","name":"Städteregion Aachen","type":"Kreis"},"federalState":{"key":"05","name":"Nordrhein-Westfalen"}},{"name":"Kreuzweg","postalCode":"54552","locality":"Immerath","municipality":{"key":"07233034","name":"Immerath","type":"Kreisangehörige_Gemeinde"},"district":{"key":"07233","name":"Vulkaneifel","type":"Landkreis"},"federalState":{"key":"07","name":"Rheinland-Pfalz"}},{"name":"Krooscheld","postalCode":"52152","locality":"Simmerath","municipality":{"key":"05334028","name":"Simmerath","type":"Kreisangehörige_Gemeinde"},"district":{"key":"05334","name":"Städteregion Aachen","type":"Kreis"},"federalState":{"key":"05","name":"Nordrhein-Westfalen"}},{"name":"Kuhl","postalCode":"52152","locality":"Simmerath","municipality":{"key":"05334028","name":"Simmerath","type":"Kreisangehörige_Gemeinde"},"district":{"key":"05334","name":"Städteregion Aachen","type":"Kreis"},"federalState":{"key":"05","name":"Nordrhein-Westfalen"}},{"name":"Kuhlenstr.","postalCode":"52152","locality":"Simmerath","municipality":{"key":"05334028","name":"Simmerath","type":"Kreisangehörige_Gemeinde"},"district":{"key":"05334","name":"Städteregion Aachen","type":"Kreis"},"federalState":{"key":"05","name":"Nordrhein-Westfalen"}},{"name":"Lambertusstr.","postalCode":"52152","locality":"Simmerath","municipality":{"key":"05334028","name":"Simmerath","type":"Kreisangehörige_Gemeinde"},"district":{"key":"05334","name":"Städteregion Aachen","type":"Kreis"},"federalState":{"key":"05","name":"Nordrhein-Westfalen"}},{"name":"Lammersdorfer Str.","postalCode":"52152","locality":"Simmerath","municipality":{"key":"05334028","name":"Simmerath","type":"Kreisangehörige_Gemeinde"},"district":{"key":"05334","name":"Städteregion Aachen","type":"Kreis"},"federalState":{"key":"05","name":"Nordrhein-Westfalen"}},{"name":"Langer Weg","postalCode":"52152","locality":"Simmerath","municipality":{"key":"05334028","name":"Simmerath","type":"Kreisangehörige_Gemeinde"},"district":{"key":"05334","name":"Städteregion Aachen","type":"Kreis"},"federalState":{"key":"05","name":"Nordrhein-Westfalen"}},{"name":"Lange Trift","postalCode":"52152","locality":"Simmerath","municipality":{"key":"05334028","name":"Simmerath","type":"Kreisangehörige_Gemeinde"},"district":{"key":"05334","name":"Städteregion Aachen","type":"Kreis"},"federalState":{"key":"05","name":"Nordrhein-Westfalen"}},{"name":"Langgasse","postalCode":"52152","locality":"Simmerath","municipality":{"key":"05334028","name":"Simmerath","type":"Kreisangehörige_Gemeinde"},"district":{"key":"05334","name":"Städteregion Aachen","type":"Kreis"},"federalState":{"key":"05","name":"Nordrhein-Westfalen"}},{"name":"Langscheider Str.","postalCode":"52152","locality":"Simmerath","municipality":{"key":"05334028","name":"Simmerath","type":"Kreisangehörige_Gemeinde"},"district":{"key":"05334","name":"Städteregion Aachen","type":"Kreis"},"federalState":{"key":"05","name":"Nordrhein-Westfalen"}},{"name":"Langschoß","postalCode":"52152","locality":"Simmerath","municipality":{"key":"05334028","name":"Simmerath","type":"Kreisangehörige_Gemeinde"},"district":{"key":"05334","name":"Städteregion Aachen","type":"Kreis"},"federalState":{"key":"05","name":"Nordrhein-Westfalen"}},{"name":"Lehmkuhl","postalCode":"52152","locality":"Simmerath","municipality":{"key":"05334028","name":"Simmerath","type":"Kreisangehörige_Gemeinde"},"district":{"key":"05334","name":"Städteregion Aachen","type":"Kreis"},"federalState":{"key":"05","name":"Nordrhein-Westfalen"}},{"name":"Lehrer-Friesen-Str.","postalCode":"52152","locality":"Simmerath","municipality":{"key":"05334028","name":"Simmerath","type":"Kreisangehörige_Gemeinde"},"district":{"key":"05334","name":"Städteregion Aachen","type":"Kreis"},"federalState":{"key":"05","name":"Nordrhein-Westfalen"}},{"name":"Leichenweg","postalCode":"52152","locality":"Simmerath","municipality":{"key":"05334028","name":"Simmerath","type":"Kreisangehörige_Gemeinde"},"district":{"key":"05334","name":"Städteregion Aachen","type":"Kreis"},"federalState":{"key":"05","name":"Nordrhein-Westfalen"}},{"name":"Liegewiese Naturfreibad Eiserbachsee","postalCode":"52152","locality":"Simmerath","municipality":{"key":"05334028","name":"Simmerath","type":"Kreisangehörige_Gemeinde"},"district":{"key":"05334","name":"Städteregion Aachen","type":"Kreis"},"federalState":{"key":"05","name":"Nordrhein-Westfalen"}},{"name":"Lieschewäsch (Leichenweg)","postalCode":"52152","locality":"Simmerath","municipality":{"key":"05334028","name":"Simmerath","type":"Kreisangehörige_Gemeinde"},"district":{"key":"05334","name":"Städteregion Aachen","type":"Kreis"},"federalState":{"key":"05","name":"Nordrhein-Westfalen"}},{"name":"Lindenhof","postalCode":"52152","locality":"Simmerath","municipality":{"key":"05334028","name":"Simmerath","type":"Kreisangehörige_Gemeinde"},"district":{"key":"05334","name":"Städteregion Aachen","type":"Kreis"},"federalState":{"key":"05","name":"Nordrhein-Westfalen"}},{"name":"Lindenstr.","postalCode":"52152","locality":"Simmerath","municipality":{"key":"05334028","name":"Simmerath","type":"Kreisangehörige_Gemeinde"},"district":{"key":"05334","name":"Städteregion Aachen","type":"Kreis"},"federalState":{"key":"05","name":"Nordrhein-Westfalen"}},{"name":"Lohmühlenstr.","postalCode":"52152","locality":"Simmerath","municipality":{"key":"05334028","name":"Simmerath","type":"Kreisangehörige_Gemeinde"},"district":{"key":"05334","name":"Städteregion Aachen","type":"Kreis"},"federalState":{"key":"05","name":"Nordrhein-Westfalen"}},{"name":"Lönsstr.","postalCode":"52152","locality":"Simmerath","municipality":{"key":"05334028","name":"Simmerath","type":"Kreisangehörige_Gemeinde"},"district":{"key":"05334","name":"Städteregion Aachen","type":"Kreis"},"federalState":{"key":"05","name":"Nordrhein-Westfalen"}},{"name":"Ludwig-Mathar-Weg","postalCode":"52152","locality":"Simmerath","municipality":{"key":"05334028","name":"Simmerath","type":"Kreisangehörige_Gemeinde"},"district":{"key":"05334","name":"Städteregion Aachen","type":"Kreis"},"federalState":{"key":"05","name":"Nordrhein-Westfalen"}},{"name":"Maarstr.","postalCode":"52152","locality":"Simmerath","municipality":{"key":"05334028","name":"Simmerath","type":"Kreisangehörige_Gemeinde"},"district":{"key":"05334","name":"Städteregion Aachen","type":"Kreis"},"federalState":{"key":"05","name":"Nordrhein-Westfalen"}},{"name":"Maarweg","postalCode":"54552","locality":"Immerath","municipality":{"key":"07233034","name":"Immerath","type":"Kreisangehörige_Gemeinde"},"district":{"key":"07233","name":"Vulkaneifel","type":"Landkreis"},"federalState":{"key":"07","name":"Rheinland-Pfalz"}},{"name":"Mai Jaaßje","postalCode":"52152","locality":"Simmerath","municipality":{"key":"05334028","name":"Simmerath","type":"Kreisangehörige_Gemeinde"},"district":{"key":"05334","name":"Städteregion Aachen","type":"Kreis"},"federalState":{"key":"05","name":"Nordrhein-Westfalen"}},{"name":"Maria-Flink-Weg","postalCode":"52152","locality":"Simmerath","municipality":{"key":"05334028","name":"Simmerath","type":"Kreisangehörige_Gemeinde"},"district":{"key":"05334","name":"Städteregion Aachen","type":"Kreis"},"federalState":{"key":"05","name":"Nordrhein-Westfalen"}},{"name":"Matsch","postalCode":"52152","locality":"Simmerath","municipality":{"key":"05334028","name":"Simmerath","type":"Kreisangehörige_Gemeinde"},"district":{"key":"05334","name":"Städteregion Aachen","type":"Kreis"},"federalState":{"key":"05","name":"Nordrhein-Westfalen"}},{"name":"Matthias-Zimmermann-Str.","postalCode":"52152","locality":"Simmerath","municipality":{"key":"05334028","name":"Simmerath","type":"Kreisangehörige_Gemeinde"},"district":{"key":"05334","name":"Städteregion Aachen","type":"Kreis"},"federalState":{"key":"05","name":"Nordrhein-Westfalen"}},{"name":"Mittelstr.","postalCode":"52152","locality":"Simmerath","municipality":{"key":"05334028","name":"Simmerath","type":"Kreisangehörige_Gemeinde"},"district":{"key":"05334","name":"Städteregion Aachen","type":"Kreis"},"federalState":{"key":"05","name":"Nordrhein-Westfalen"}},{"name":"Mömmespötzje","postalCode":"52152","locality":"Simmerath","municipality":{"key":"05334028","name":"Simmerath","type":"Kreisangehörige_Gemeinde"},"district":{"key":"05334","name":"Städteregion Aachen","type":"Kreis"},"federalState":{"key":"05","name":"Nordrhein-Westfalen"}},{"name":"Monschauer Str.","postalCode":"52152","locality":"Simmerath","municipality":{"key":"05334028","name":"Simmerath","type":"Kreisangehörige_Gemeinde"},"district":{"key":"05334","name":"Städteregion Aachen","type":"Kreis"},"federalState":{"key":"05","name":"Nordrhein-Westfalen"}},{"name":"Mühlengasse","postalCode":"52152","locality":"Simmerath","municipality":{"key":"05334028","name":"Simmerath","type":"Kreisangehörige_Gemeinde"},"district":{"key":"05334","name":"Städteregion Aachen","type":"Kreis"},"federalState":{"key":"05","name":"Nordrhein-Westfalen"}},{"name":"Mühlenknippstr.","postalCode":"52152","locality":"Simmerath","municipality":{"key":"05334028","name":"Simmerath","type":"Kreisangehörige_Gemeinde"},"district":{"key":"05334","name":"Städteregion Aachen","type":"Kreis"},"federalState":{"key":"05","name":"Nordrhein-Westfalen"}},{"name":"Mühlenweg","postalCode":"52152","locality":"Simmerath","municipality":{"key":"05334028","name":"Simmerath","type":"Kreisangehörige_Gemeinde"},"district":{"key":"05334","name":"Städteregion Aachen","type":"Kreis"},"federalState":{"key":"05","name":"Nordrhein-Westfalen"}},{"name":"Neu Fringshaus","postalCode":"52152","locality":"Simmerath","municipality":{"key":"05334028","name":"Simmerath","type":"Kreisangehörige_Gemeinde"},"district":{"key":"05334","name":"Städteregion Aachen","type":"Kreis"},"federalState":{"key":"05","name":"Nordrhein-Westfalen"}},{"name":"Nikolausbrücke","postalCode":"52152","locality":"Simmerath","municipality":{"key":"05334028","name":"Simmerath","type":"Kreisangehörige_Gemeinde"},"district":{"key":"05334","name":"Städteregion Aachen","type":"Kreis"},"federalState":{"key":"05","name":"Nordrhein-Westfalen"}},{"name":"Nikolaus-Jansen-Str.","postalCode":"52152","locality":"Simmerath","municipality":{"key":"05334028","name":"Simmerath","type":"Kreisangehörige_Gemeinde"},"district":{"key":"05334","name":"Städteregion Aachen","type":"Kreis"},"federalState":{"key":"05","name":"Nordrhein-Westfalen"}},{"name":"Nobelstr.","postalCode":"52152","locality":"Simmerath","municipality":{"key":"05334028","name":"Simmerath","type":"Kreisangehörige_Gemeinde"},"district":{"key":"05334","name":"Städteregion Aachen","type":"Kreis"},"federalState":{"key":"05","name":"Nordrhein-Westfalen"}},{"name":"Nordstr.","postalCode":"52152","locality":"Simmerath","municipality":{"key":"05334028","name":"Simmerath","type":"Kreisangehörige_Gemeinde"},"district":{"key":"05334","name":"Städteregion Aachen","type":"Kreis"},"federalState":{"key":"05","name":"Nordrhein-Westfalen"}},{"name":"Obershausener Str.","postalCode":"52152","locality":"Simmerath","municipality":{"key":"05334028","name":"Simmerath","type":"Kreisangehörige_Gemeinde"},"district":{"key":"05334","name":"Städteregion Aachen","type":"Kreis"},"federalState":{"key":"05","name":"Nordrhein-Westfalen"}},{"name":"om Böschl","postalCode":"52152","locality":"Simmerath","municipality":{"key":"05334028","name":"Simmerath","type":"Kreisangehörige_Gemeinde"},"district":{"key":"05334","name":"Städteregion Aachen","type":"Kreis"},"federalState":{"key":"05","name":"Nordrhein-Westfalen"}},{"name":"Om Jellert","postalCode":"52152","locality":"Simmerath","municipality":{"key":"05334028","name":"Simmerath","type":"Kreisangehörige_Gemeinde"},"district":{"key":"05334","name":"Städteregion Aachen","type":"Kreis"},"federalState":{"key":"05","name":"Nordrhein-Westfalen"}},{"name":"om Mühlert","postalCode":"52152","locality":"Simmerath","municipality":{"key":"05334028","name":"Simmerath","type":"Kreisangehörige_Gemeinde"},"district":{"key":"05334","name":"Städteregion Aachen","type":"Kreis"},"federalState":{"key":"05","name":"Nordrhein-Westfalen"}},{"name":"Onger Lamisch","postalCode":"52152","locality":"Simmerath","municipality":{"key":"05334028","name":"Simmerath","type":"Kreisangehörige_Gemeinde"},"district":{"key":"05334","name":"Städteregion Aachen","type":"Kreis"},"federalState":{"key":"05","name":"Nordrhein-Westfalen"}},{"name":"Op em Opperzfeld","postalCode":"52152","locality":"Simmerath","municipality":{"key":"05334028","name":"Simmerath","type":"Kreisangehörige_Gemeinde"},"district":{"key":"05334","name":"Städteregion Aachen","type":"Kreis"},"federalState":{"key":"05","name":"Nordrhein-Westfalen"}},{"name":"op er Diejelsheck","postalCode":"52152","locality":"Simmerath","municipality":{"key":"05334028","name":"Simmerath","type":"Kreisangehörige_Gemeinde"},"district":{"key":"05334","name":"Städteregion Aachen","type":"Kreis"},"federalState":{"key":"05","name":"Nordrhein-Westfalen"}},{"name":"Oper Heed (Auf der Heide)","postalCode":"52152","locality":"Simmerath","municipality":{"key":"05334028","name":"Simmerath","type":"Kreisangehörige_Gemeinde"},"district":{"key":"05334","name":"Städteregion Aachen","type":"Kreis"},"federalState":{"key":"05","name":"Nordrhein-Westfalen"}},{"name":"op er Höttekuhl","postalCode":"52152","locality":"Simmerath","municipality":{"key":"05334028","name":"Simmerath","type":"Kreisangehörige_Gemeinde"},"district":{"key":"05334","name":"Städteregion Aachen","type":"Kreis"},"federalState":{"key":"05","name":"Nordrhein-Westfalen"}},{"name":"op er Jongeheck","postalCode":"52152","locality":"Simmerath","municipality":{"key":"05334028","name":"Simmerath","type":"Kreisangehörige_Gemeinde"},"district":{"key":"05334","name":"Städteregion Aachen","type":"Kreis"},"federalState":{"key":"05","name":"Nordrhein-Westfalen"}},{"name":"Otto-Voss-Str.","postalCode":"52152","locality":"Simmerath","municipality":{"key":"05334028","name":"Simmerath","type":"Kreisangehörige_Gemeinde"},"district":{"key":"05334","name":"Städteregion Aachen","type":"Kreis"},"federalState":{"key":"05","name":"Nordrhein-Westfalen"}},{"name":"Paggenbend","postalCode":"52152","locality":"Simmerath","municipality":{"key":"05334028","name":"Simmerath","type":"Kreisangehörige_Gemeinde"},"district":{"key":"05334","name":"Städteregion Aachen","type":"Kreis"},"federalState":{"key":"05","name":"Nordrhein-Westfalen"}},{"name":"Parcours der Sinne","postalCode":"54552","locality":"Immerath","municipality":{"key":"07233034","name":"Immerath","type":"Kreisangehörige_Gemeinde"},"district":{"key":"07233","name":"Vulkaneifel","type":"Landkreis"},"federalState":{"key":"07","name":"Rheinland-Pfalz"}},{"name":"Paustenbacher Str.","postalCode":"52152","locality":"Simmerath","municipality":{"key":"05334028","name":"Simmerath","type":"Kreisangehörige_Gemeinde"},"district":{"key":"05334","name":"Städteregion Aachen","type":"Kreis"},"federalState":{"key":"05","name":"Nordrhein-Westfalen"}},{"name":"Peter-Schall-Str.","postalCode":"52152","locality":"Simmerath","municipality":{"key":"05334028","name":"Simmerath","type":"Kreisangehörige_Gemeinde"},"district":{"key":"05334","name":"Städteregion Aachen","type":"Kreis"},"federalState":{"key":"05","name":"Nordrhein-Westfalen"}},{"name":"Petershof","postalCode":"52152","locality":"Simmerath","municipality":{"key":"05334028","name":"Simmerath","type":"Kreisangehörige_Gemeinde"},"district":{"key":"05334","name":"Städteregion Aachen","type":"Kreis"},"federalState":{"key":"05","name":"Nordrhein-Westfalen"}},{"name":"Pferdsbruchweg","postalCode":"52152","locality":"Simmerath","municipality":{"key":"05334028","name":"Simmerath","type":"Kreisangehörige_Gemeinde"},"district":{"key":"05334","name":"Städteregion Aachen","type":"Kreis"},"federalState":{"key":"05","name":"Nordrhein-Westfalen"}},{"name":"Pferdsweide","postalCode":"52152","locality":"Simmerath","municipality":{"key":"05334028","name":"Simmerath","type":"Kreisangehörige_Gemeinde"},"district":{"key":"05334","name":"Städteregion Aachen","type":"Kreis"},"federalState":{"key":"05","name":"Nordrhein-Westfalen"}},{"name":"Pionierweg","postalCode":"52152","locality":"Simmerath","municipality":{"key":"05334028","name":"Simmerath","type":"Kreisangehörige_Gemeinde"},"district":{"key":"05334","name":"Städteregion Aachen","type":"Kreis"},"federalState":{"key":"05","name":"Nordrhein-Westfalen"}},{"name":"Pionierweg (A1)","postalCode":"52152","locality":"Simmerath","municipality":{"key":"05334028","name":"Simmerath","type":"Kreisangehörige_Gemeinde"},"district":{"key":"05334","name":"Städteregion Aachen","type":"Kreis"},"federalState":{"key":"05","name":"Nordrhein-Westfalen"}},{"name":"Pleushütte","postalCode":"52152","locality":"Simmerath","municipality":{"key":"05334028","name":"Simmerath","type":"Kreisangehörige_Gemeinde"},"district":{"key":"05334","name":"Städteregion Aachen","type":"Kreis"},"federalState":{"key":"05","name":"Nordrhein-Westfalen"}},{"name":"Promenadenweg","postalCode":"52152","locality":"Simmerath","municipality":{"key":"05334028","name":"Simmerath","type":"Kreisangehörige_Gemeinde"},"district":{"key":"05334","name":"Städteregion Aachen","type":"Kreis"},"federalState":{"key":"05","name":"Nordrhein-Westfalen"}},{"name":"Püngelbach","postalCode":"52152","locality":"Simmerath","municipality":{"key":"05334028","name":"Simmerath","type":"Kreisangehörige_Gemeinde"},"district":{"key":"05334","name":"Städteregion Aachen","type":"Kreis"},"federalState":{"key":"05","name":"Nordrhein-Westfalen"}},{"name":"Quadfliegstr.","postalCode":"52152","locality":"Simmerath","municipality":{"key":"05334028","name":"Simmerath","type":"Kreisangehörige_Gemeinde"},"district":{"key":"05334","name":"Städteregion Aachen","type":"Kreis"},"federalState":{"key":"05","name":"Nordrhein-Westfalen"}},{"name":"Randweg","postalCode":"52152","locality":"Simmerath","municipality":{"key":"05334028","name":"Simmerath","type":"Kreisangehörige_Gemeinde"},"district":{"key":"05334","name":"Städteregion Aachen","type":"Kreis"},"federalState":{"key":"05","name":"Nordrhein-Westfalen"}},{"name":"Rathausplatz","postalCode":"52152","locality":"Simmerath","municipality":{"key":"05334028","name":"Simmerath","type":"Kreisangehörige_Gemeinde"},"district":{"key":"05334","name":"Städteregion Aachen","type":"Kreis"},"federalState":{"key":"05","name":"Nordrhein-Westfalen"}},{"name":"Rauchenauel","postalCode":"52152","locality":"Simmerath","municipality":{"key":"05334028","name":"Simmerath","type":"Kreisangehörige_Gemeinde"},"district":{"key":"05334","name":"Städteregion Aachen","type":"Kreis"},"federalState":{"key":"05","name":"Nordrhein-Westfalen"}},{"name":"Ringstr.","postalCode":"52152","locality":"Simmerath","municipality":{"key":"05334028","name":"Simmerath","type":"Kreisangehörige_Gemeinde"},"district":{"key":"05334","name":"Städteregion Aachen","type":"Kreis"},"federalState":{"key":"05","name":"Nordrhein-Westfalen"}},{"name":"Rittweg (Röttweg)","postalCode":"52152","locality":"Simmerath","municipality":{"key":"05334028","name":"Simmerath","type":"Kreisangehörige_Gemeinde"},"district":{"key":"05334","name":"Städteregion Aachen","type":"Kreis"},"federalState":{"key":"05","name":"Nordrhein-Westfalen"}},{"name":"Robert-Koch-Str.","postalCode":"52152","locality":"Simmerath","municipality":{"key":"05334028","name":"Simmerath","type":"Kreisangehörige_Gemeinde"},"district":{"key":"05334","name":"Städteregion Aachen","type":"Kreis"},"federalState":{"key":"05","name":"Nordrhein-Westfalen"}},{"name":"Rolandstr.","postalCode":"52152","locality":"Simmerath","municipality":{"key":"05334028","name":"Simmerath","type":"Kreisangehörige_Gemeinde"},"district":{"key":"05334","name":"Städteregion Aachen","type":"Kreis"},"federalState":{"key":"05","name":"Nordrhein-Westfalen"}},{"name":"Rollesbroicher Str.","postalCode":"52152","locality":"Simmerath","municipality":{"key":"05334028","name":"Simmerath","type":"Kreisangehörige_Gemeinde"},"district":{"key":"05334","name":"Städteregion Aachen","type":"Kreis"},"federalState":{"key":"05","name":"Nordrhein-Westfalen"}},{"name":"Römerstr.","postalCode":"52152","locality":"Simmerath","municipality":{"key":"05334028","name":"Simmerath","type":"Kreisangehörige_Gemeinde"},"district":{"key":"05334","name":"Städteregion Aachen","type":"Kreis"},"federalState":{"key":"05","name":"Nordrhein-Westfalen"}},{"name":"Römerstr.","postalCode":"54552","locality":"Immerath","municipality":{"key":"07233034","name":"Immerath","type":"Kreisangehörige_Gemeinde"},"district":{"key":"07233","name":"Vulkaneifel","type":"Landkreis"},"federalState":{"key":"07","name":"Rheinland-Pfalz"}},{"name":"Rosariusse Jääsje","postalCode":"52152","locality":"Simmerath","municipality":{"key":"05334028","name":"Simmerath","type":"Kreisangehörige_Gemeinde"},"district":{"key":"05334","name":"Städteregion Aachen","type":"Kreis"},"federalState":{"key":"05","name":"Nordrhein-Westfalen"}},{"name":"Rott","postalCode":"52152","locality":"Simmerath","municipality":{"key":"05334028","name":"Simmerath","type":"Kreisangehörige_Gemeinde"},"district":{"key":"05334","name":"Städteregion Aachen","type":"Kreis"},"federalState":{"key":"05","name":"Nordrhein-Westfalen"}},{"name":"Rottele Jaaß","postalCode":"52152","locality":"Simmerath","municipality":{"key":"05334028","name":"Simmerath","type":"Kreisangehörige_Gemeinde"},"district":{"key":"05334","name":"Städteregion Aachen","type":"Kreis"},"federalState":{"key":"05","name":"Nordrhein-Westfalen"}},{"name":"Rurauenweg","postalCode":"52152","locality":"Simmerath","municipality":{"key":"05334028","name":"Simmerath","type":"Kreisangehörige_Gemeinde"},"district":{"key":"05334","name":"Städteregion Aachen","type":"Kreis"},"federalState":{"key":"05","name":"Nordrhein-Westfalen"}},{"name":"Rurberger Höhe","postalCode":"52152","locality":"Simmerath","municipality":{"key":"05334028","name":"Simmerath","type":"Kreisangehörige_Gemeinde"},"district":{"key":"05334","name":"Städteregion Aachen","type":"Kreis"},"federalState":{"key":"05","name":"Nordrhein-Westfalen"}},{"name":"Rurberger Str.","postalCode":"52152","locality":"Simmerath","municipality":{"key":"05334028","name":"Simmerath","type":"Kreisangehörige_Gemeinde"},"district":{"key":"05334","name":"Städteregion Aachen","type":"Kreis"},"federalState":{"key":"05","name":"Nordrhein-Westfalen"}},{"name":"Rurstr.","postalCode":"52152","locality":"Simmerath","municipality":{"key":"05334028","name":"Simmerath","type":"Kreisangehörige_Gemeinde"},"district":{"key":"05334","name":"Städteregion Aachen","type":"Kreis"},"federalState":{"key":"05","name":"Nordrhein-Westfalen"}},{"name":"Rurweg","postalCode":"52152","locality":"Simmerath","municipality":{"key":"05334028","name":"Simmerath","type":"Kreisangehörige_Gemeinde"},"district":{"key":"05334","name":"Städteregion Aachen","type":"Kreis"},"federalState":{"key":"05","name":"Nordrhein-Westfalen"}},{"name":"Rüstenstr.","postalCode":"52152","locality":"Simmerath","municipality":{"key":"05334028","name":"Simmerath","type":"Kreisangehörige_Gemeinde"},"district":{"key":"05334","name":"Städteregion Aachen","type":"Kreis"},"federalState":{"key":"05","name":"Nordrhein-Westfalen"}},{"name":"Saarscheider Weg","postalCode":"52152","locality":"Simmerath","municipality":{"key":"05334028","name":"Simmerath","type":"Kreisangehörige_Gemeinde"},"district":{"key":"05334","name":"Städteregion Aachen","type":"Kreis"},"federalState":{"key":"05","name":"Nordrhein-Westfalen"}},{"name":"Sackgasse","postalCode":"52152","locality":"Simmerath","municipality":{"key":"05334028","name":"Simmerath","type":"Kreisangehörige_Gemeinde"},"district":{"key":"05334","name":"Städteregion Aachen","type":"Kreis"},"federalState":{"key":"05","name":"Nordrhein-Westfalen"}},{"name":"Schafshof-Berenssief","postalCode":"52152","locality":"Simmerath","municipality":{"key":"05334028","name":"Simmerath","type":"Kreisangehörige_Gemeinde"},"district":{"key":"05334","name":"Städteregion Aachen","type":"Kreis"},"federalState":{"key":"05","name":"Nordrhein-Westfalen"}},{"name":"Schießgasse","postalCode":"52152","locality":"Simmerath","municipality":{"key":"05334028","name":"Simmerath","type":"Kreisangehörige_Gemeinde"},"district":{"key":"05334","name":"Städteregion Aachen","type":"Kreis"},"federalState":{"key":"05","name":"Nordrhein-Westfalen"}},{"name":"Schilsbachstr.","postalCode":"52152","locality":"Simmerath","municipality":{"key":"05334028","name":"Simmerath","type":"Kreisangehörige_Gemeinde"},"district":{"key":"05334","name":"Städteregion Aachen","type":"Kreis"},"federalState":{"key":"05","name":"Nordrhein-Westfalen"}},{"name":"Schilsbachtal","postalCode":"52152","locality":"Simmerath","municipality":{"key":"05334028","name":"Simmerath","type":"Kreisangehörige_Gemeinde"},"district":{"key":"05334","name":"Städteregion Aachen","type":"Kreis"},"federalState":{"key":"05","name":"Nordrhein-Westfalen"}},{"name":"Schmiedstr.","postalCode":"52152","locality":"Simmerath","municipality":{"key":"05334028","name":"Simmerath","type":"Kreisangehörige_Gemeinde"},"district":{"key":"05334","name":"Städteregion Aachen","type":"Kreis"},"federalState":{"key":"05","name":"Nordrhein-Westfalen"}},{"name":"Scholls Gässchen","postalCode":"52152","locality":"Simmerath","municipality":{"key":"05334028","name":"Simmerath","type":"Kreisangehörige_Gemeinde"},"district":{"key":"05334","name":"Städteregion Aachen","type":"Kreis"},"federalState":{"key":"05","name":"Nordrhein-Westfalen"}},{"name":"Schöne Aussicht","postalCode":"52152","locality":"Simmerath","municipality":{"key":"05334028","name":"Simmerath","type":"Kreisangehörige_Gemeinde"},"district":{"key":"05334","name":"Städteregion Aachen","type":"Kreis"},"federalState":{"key":"05","name":"Nordrhein-Westfalen"}},{"name":"Schößchensweg","postalCode":"52152","locality":"Simmerath","municipality":{"key":"05334028","name":"Simmerath","type":"Kreisangehörige_Gemeinde"},"district":{"key":"05334","name":"Städteregion Aachen","type":"Kreis"},"federalState":{"key":"05","name":"Nordrhein-Westfalen"}},{"name":"Schranke-Vennchesweg","postalCode":"52152","locality":"Simmerath","municipality":{"key":"05334028","name":"Simmerath","type":"Kreisangehörige_Gemeinde"},"district":{"key":"05334","name":"Städteregion Aachen","type":"Kreis"},"federalState":{"key":"05","name":"Nordrhein-Westfalen"}},{"name":"Schrauffweg","postalCode":"52152","locality":"Simmerath","municipality":{"key":"05334028","name":"Simmerath","type":"Kreisangehörige_Gemeinde"},"district":{"key":"05334","name":"Städteregion Aachen","type":"Kreis"},"federalState":{"key":"05","name":"Nordrhein-Westfalen"}},{"name":"Schulgässchen","postalCode":"52152","locality":"Simmerath","municipality":{"key":"05334028","name":"Simmerath","type":"Kreisangehörige_Gemeinde"},"district":{"key":"05334","name":"Städteregion Aachen","type":"Kreis"},"federalState":{"key":"05","name":"Nordrhein-Westfalen"}},{"name":"Schulstr.","postalCode":"52152","locality":"Simmerath","municipality":{"key":"05334028","name":"Simmerath","type":"Kreisangehörige_Gemeinde"},"district":{"key":"05334","name":"Städteregion Aachen","type":"Kreis"},"federalState":{"key":"05","name":"Nordrhein-Westfalen"}},{"name":"Schwalbenweg","postalCode":"52152","locality":"Simmerath","municipality":{"key":"05334028","name":"Simmerath","type":"Kreisangehörige_Gemeinde"},"district":{"key":"05334","name":"Städteregion Aachen","type":"Kreis"},"federalState":{"key":"05","name":"Nordrhein-Westfalen"}},{"name":"Schwester-Maria-Alberta-Str.","postalCode":"52152","locality":"Simmerath","municipality":{"key":"05334028","name":"Simmerath","type":"Kreisangehörige_Gemeinde"},"district":{"key":"05334","name":"Städteregion Aachen","type":"Kreis"},"federalState":{"key":"05","name":"Nordrhein-Westfalen"}},{"name":"Seerandweg","postalCode":"52152","locality":"Simmerath","municipality":{"key":"05334028","name":"Simmerath","type":"Kreisangehörige_Gemeinde"},"district":{"key":"05334","name":"Städteregion Aachen","type":"Kreis"},"federalState":{"key":"05","name":"Nordrhein-Westfalen"}},{"name":"Seestr.","postalCode":"52152","locality":"Simmerath","municipality":{"key":"05334028","name":"Simmerath","type":"Kreisangehörige_Gemeinde"},"district":{"key":"05334","name":"Städteregion Aachen","type":"Kreis"},"federalState":{"key":"05","name":"Nordrhein-Westfalen"}},{"name":"Seeufer","postalCode":"52152","locality":"Simmerath","municipality":{"key":"05334028","name":"Simmerath","type":"Kreisangehörige_Gemeinde"},"district":{"key":"05334","name":"Städteregion Aachen","type":"Kreis"},"federalState":{"key":"05","name":"Nordrhein-Westfalen"}},{"name":"Seifenauel","postalCode":"52152","locality":"Simmerath","municipality":{"key":"05334028","name":"Simmerath","type":"Kreisangehörige_Gemeinde"},"district":{"key":"05334","name":"Städteregion Aachen","type":"Kreis"},"federalState":{"key":"05","name":"Nordrhein-Westfalen"}},{"name":"Siemensstr.","postalCode":"52152","locality":"Simmerath","municipality":{"key":"05334028","name":"Simmerath","type":"Kreisangehörige_Gemeinde"},"district":{"key":"05334","name":"Städteregion Aachen","type":"Kreis"},"federalState":{"key":"05","name":"Nordrhein-Westfalen"}},{"name":"Simonsbrander Weg","postalCode":"52152","locality":"Simmerath","municipality":{"key":"05334028","name":"Simmerath","type":"Kreisangehörige_Gemeinde"},"district":{"key":"05334","name":"Städteregion Aachen","type":"Kreis"},"federalState":{"key":"05","name":"Nordrhein-Westfalen"}},{"name":"Simrodstr.","postalCode":"52152","locality":"Simmerath","municipality":{"key":"05334028","name":"Simmerath","type":"Kreisangehörige_Gemeinde"},"district":{"key":"05334","name":"Städteregion Aachen","type":"Kreis"},"federalState":{"key":"05","name":"Nordrhein-Westfalen"}},{"name":"Sonnenstr.","postalCode":"52152","locality":"Simmerath","municipality":{"key":"05334028","name":"Simmerath","type":"Kreisangehörige_Gemeinde"},"district":{"key":"05334","name":"Städteregion Aachen","type":"Kreis"},"federalState":{"key":"05","name":"Nordrhein-Westfalen"}},{"name":"Sonntagsstr.","postalCode":"52152","locality":"Simmerath","municipality":{"key":"05334028","name":"Simmerath","type":"Kreisangehörige_Gemeinde"},"district":{"key":"05334","name":"Städteregion Aachen","type":"Kreis"},"federalState":{"key":"05","name":"Nordrhein-Westfalen"}},{"name":"Sportplatzstr.","postalCode":"52152","locality":"Simmerath","municipality":{"key":"05334028","name":"Simmerath","type":"Kreisangehörige_Gemeinde"},"district":{"key":"05334","name":"Städteregion Aachen","type":"Kreis"},"federalState":{"key":"05","name":"Nordrhein-Westfalen"}},{"name":"Steckenborner Str.","postalCode":"52152","locality":"Simmerath","municipality":{"key":"05334028","name":"Simmerath","type":"Kreisangehörige_Gemeinde"},"district":{"key":"05334","name":"Städteregion Aachen","type":"Kreis"},"federalState":{"key":"05","name":"Nordrhein-Westfalen"}},{"name":"Steinbüchelstr.","postalCode":"52152","locality":"Simmerath","municipality":{"key":"05334028","name":"Simmerath","type":"Kreisangehörige_Gemeinde"},"district":{"key":"05334","name":"Städteregion Aachen","type":"Kreis"},"federalState":{"key":"05","name":"Nordrhein-Westfalen"}},{"name":"Steinrötschstr.","postalCode":"52152","locality":"Simmerath","municipality":{"key":"05334028","name":"Simmerath","type":"Kreisangehörige_Gemeinde"},"district":{"key":"05334","name":"Städteregion Aachen","type":"Kreis"},"federalState":{"key":"05","name":"Nordrhein-Westfalen"}},{"name":"Straucher Str.","postalCode":"52152","locality":"Simmerath","municipality":{"key":"05334028","name":"Simmerath","type":"Kreisangehörige_Gemeinde"},"district":{"key":"05334","name":"Städteregion Aachen","type":"Kreis"},"federalState":{"key":"05","name":"Nordrhein-Westfalen"}},{"name":"Stüttgesgasse","postalCode":"52152","locality":"Simmerath","municipality":{"key":"05334028","name":"Simmerath","type":"Kreisangehörige_Gemeinde"},"district":{"key":"05334","name":"Städteregion Aachen","type":"Kreis"},"federalState":{"key":"05","name":"Nordrhein-Westfalen"}},{"name":"Südstr.","postalCode":"52152","locality":"Simmerath","municipality":{"key":"05334028","name":"Simmerath","type":"Kreisangehörige_Gemeinde"},"district":{"key":"05334","name":"Städteregion Aachen","type":"Kreis"},"federalState":{"key":"05","name":"Nordrhein-Westfalen"}},{"name":"Sülerter-Wääch","postalCode":"52152","locality":"Simmerath","municipality":{"key":"05334028","name":"Simmerath","type":"Kreisangehörige_Gemeinde"},"district":{"key":"05334","name":"Städteregion Aachen","type":"Kreis"},"federalState":{"key":"05","name":"Nordrhein-Westfalen"}},{"name":"Teilland","postalCode":"52152","locality":"Simmerath","municipality":{"key":"05334028","name":"Simmerath","type":"Kreisangehörige_Gemeinde"},"district":{"key":"05334","name":"Städteregion Aachen","type":"Kreis"},"federalState":{"key":"05","name":"Nordrhein-Westfalen"}},{"name":"Tiefenbachtal","postalCode":"52152","locality":"Simmerath","municipality":{"key":"05334028","name":"Simmerath","type":"Kreisangehörige_Gemeinde"},"district":{"key":"05334","name":"Städteregion Aachen","type":"Kreis"},"federalState":{"key":"05","name":"Nordrhein-Westfalen"}},{"name":"Tiefenbachtalstr.","postalCode":"52152","locality":"Simmerath","municipality":{"key":"05334028","name":"Simmerath","type":"Kreisangehörige_Gemeinde"},"district":{"key":"05334","name":"Städteregion Aachen","type":"Kreis"},"federalState":{"key":"05","name":"Nordrhein-Westfalen"}},{"name":"Torfstr.","postalCode":"52152","locality":"Simmerath","municipality":{"key":"05334028","name":"Simmerath","type":"Kreisangehörige_Gemeinde"},"district":{"key":"05334","name":"Städteregion Aachen","type":"Kreis"},"federalState":{"key":"05","name":"Nordrhein-Westfalen"}},{"name":"Trift","postalCode":"52152","locality":"Simmerath","municipality":{"key":"05334028","name":"Simmerath","type":"Kreisangehörige_Gemeinde"},"district":{"key":"05334","name":"Städteregion Aachen","type":"Kreis"},"federalState":{"key":"05","name":"Nordrhein-Westfalen"}},{"name":"Triftstr.","postalCode":"52152","locality":"Simmerath","municipality":{"key":"05334028","name":"Simmerath","type":"Kreisangehörige_Gemeinde"},"district":{"key":"05334","name":"Städteregion Aachen","type":"Kreis"},"federalState":{"key":"05","name":"Nordrhein-Westfalen"}},{"name":"Uferstr.","postalCode":"52152","locality":"Simmerath","municipality":{"key":"05334028","name":"Simmerath","type":"Kreisangehörige_Gemeinde"},"district":{"key":"05334","name":"Städteregion Aachen","type":"Kreis"},"federalState":{"key":"05","name":"Nordrhein-Westfalen"}},{"name":"Venngasse","postalCode":"52152","locality":"Simmerath","municipality":{"key":"05334028","name":"Simmerath","type":"Kreisangehörige_Gemeinde"},"district":{"key":"05334","name":"Städteregion Aachen","type":"Kreis"},"federalState":{"key":"05","name":"Nordrhein-Westfalen"}},{"name":"Vennstr.","postalCode":"52152","locality":"Simmerath","municipality":{"key":"05334028","name":"Simmerath","type":"Kreisangehörige_Gemeinde"},"district":{"key":"05334","name":"Städteregion Aachen","type":"Kreis"},"federalState":{"key":"05","name":"Nordrhein-Westfalen"}},{"name":"Viktoriastr.","postalCode":"52152","locality":"Simmerath","municipality":{"key":"05334028","name":"Simmerath","type":"Kreisangehörige_Gemeinde"},"district":{"key":"05334","name":"Städteregion Aachen","type":"Kreis"},"federalState":{"key":"05","name":"Nordrhein-Westfalen"}},{"name":"Völlesbruchstr.","postalCode":"52152","locality":"Simmerath","municipality":{"key":"05334028","name":"Simmerath","type":"Kreisangehörige_Gemeinde"},"district":{"key":"05334","name":"Städteregion Aachen","type":"Kreis"},"federalState":{"key":"05","name":"Nordrhein-Westfalen"}},{"name":"Völligweg","postalCode":"52152","locality":"Simmerath","municipality":{"key":"05334028","name":"Simmerath","type":"Kreisangehörige_Gemeinde"},"district":{"key":"05334","name":"Städteregion Aachen","type":"Kreis"},"federalState":{"key":"05","name":"Nordrhein-Westfalen"}},{"name":"Waldsiedlung","postalCode":"52152","locality":"Simmerath","municipality":{"key":"05334028","name":"Simmerath","type":"Kreisangehörige_Gemeinde"},"district":{"key":"05334","name":"Städteregion Aachen","type":"Kreis"},"federalState":{"key":"05","name":"Nordrhein-Westfalen"}},{"name":"Waldstr.","postalCode":"52152","locality":"Simmerath","municipality":{"key":"05334028","name":"Simmerath","type":"Kreisangehörige_Gemeinde"},"district":{"key":"05334","name":"Städteregion Aachen","type":"Kreis"},"federalState":{"key":"05","name":"Nordrhein-Westfalen"}},{"name":"Waldweg","postalCode":"52152","locality":"Simmerath","municipality":{"key":"05334028","name":"Simmerath","type":"Kreisangehörige_Gemeinde"},"district":{"key":"05334","name":"Städteregion Aachen","type":"Kreis"},"federalState":{"key":"05","name":"Nordrhein-Westfalen"}},{"name":"Walter-Bachmann-Str.","postalCode":"52152","locality":"Simmerath","municipality":{"key":"05334028","name":"Simmerath","type":"Kreisangehörige_Gemeinde"},"district":{"key":"05334","name":"Städteregion Aachen","type":"Kreis"},"federalState":{"key":"05","name":"Nordrhein-Westfalen"}},{"name":"Wanderweg A1, A2","postalCode":"52152","locality":"Simmerath","municipality":{"key":"05334028","name":"Simmerath","type":"Kreisangehörige_Gemeinde"},"district":{"key":"05334","name":"Städteregion Aachen","type":"Kreis"},"federalState":{"key":"05","name":"Nordrhein-Westfalen"}},{"name":"Wanderweg A2","postalCode":"52152","locality":"Simmerath","municipality":{"key":"05334028","name":"Simmerath","type":"Kreisangehörige_Gemeinde"},"district":{"key":"05334","name":"Städteregion Aachen","type":"Kreis"},"federalState":{"key":"05","name":"Nordrhein-Westfalen"}},{"name":"Wassergarten Einruhr","postalCode":"52152","locality":"Simmerath","municipality":{"key":"05334028","name":"Simmerath","type":"Kreisangehörige_Gemeinde"},"district":{"key":"05334","name":"Städteregion Aachen","type":"Kreis"},"federalState":{"key":"05","name":"Nordrhein-Westfalen"}},{"name":"Weidenbacher Mühle","postalCode":"52152","locality":"Simmerath","municipality":{"key":"05334028","name":"Simmerath","type":"Kreisangehörige_Gemeinde"},"district":{"key":"05334","name":"Städteregion Aachen","type":"Kreis"},"federalState":{"key":"05","name":"Nordrhein-Westfalen"}},{"name":"Weidenbacher Weg","postalCode":"52152","locality":"Simmerath","municipality":{"key":"05334028","name":"Simmerath","type":"Kreisangehörige_Gemeinde"},"district":{"key":"05334","name":"Städteregion Aachen","type":"Kreis"},"federalState":{"key":"05","name":"Nordrhein-Westfalen"}},{"name":"Weidenbachtal","postalCode":"52152","locality":"Simmerath","municipality":{"key":"05334028","name":"Simmerath","type":"Kreisangehörige_Gemeinde"},"district":{"key":"05334","name":"Städteregion Aachen","type":"Kreis"},"federalState":{"key":"05","name":"Nordrhein-Westfalen"}},{"name":"Weidenhövel","postalCode":"52152","locality":"Simmerath","municipality":{"key":"05334028","name":"Simmerath","type":"Kreisangehörige_Gemeinde"},"district":{"key":"05334","name":"Städteregion Aachen","type":"Kreis"},"federalState":{"key":"05","name":"Nordrhein-Westfalen"}},{"name":"Weidenstr.","postalCode":"52152","locality":"Simmerath","municipality":{"key":"05334028","name":"Simmerath","type":"Kreisangehörige_Gemeinde"},"district":{"key":"05334","name":"Städteregion Aachen","type":"Kreis"},"federalState":{"key":"05","name":"Nordrhein-Westfalen"}},{"name":"Weiherhof","postalCode":"52152","locality":"Simmerath","municipality":{"key":"05334028","name":"Simmerath","type":"Kreisangehörige_Gemeinde"},"district":{"key":"05334","name":"Städteregion Aachen","type":"Kreis"},"federalState":{"key":"05","name":"Nordrhein-Westfalen"}},{"name":"Weiherstr.","postalCode":"52152","locality":"Simmerath","municipality":{"key":"05334028","name":"Simmerath","type":"Kreisangehörige_Gemeinde"},"district":{"key":"05334","name":"Städteregion Aachen","type":"Kreis"},"federalState":{"key":"05","name":"Nordrhein-Westfalen"}},{"name":"Weihrauchsberg","postalCode":"52152","locality":"Simmerath","municipality":{"key":"05334028","name":"Simmerath","type":"Kreisangehörige_Gemeinde"},"district":{"key":"05334","name":"Städteregion Aachen","type":"Kreis"},"federalState":{"key":"05","name":"Nordrhein-Westfalen"}},{"name":"Weimers Jaas","postalCode":"52152","locality":"Simmerath","municipality":{"key":"05334028","name":"Simmerath","type":"Kreisangehörige_Gemeinde"},"district":{"key":"05334","name":"Städteregion Aachen","type":"Kreis"},"federalState":{"key":"05","name":"Nordrhein-Westfalen"}},{"name":"Wendelinusstr.","postalCode":"52152","locality":"Simmerath","municipality":{"key":"05334028","name":"Simmerath","type":"Kreisangehörige_Gemeinde"},"district":{"key":"05334","name":"Städteregion Aachen","type":"Kreis"},"federalState":{"key":"05","name":"Nordrhein-Westfalen"}},{"name":"Westwallwanderweg","postalCode":"52152","locality":"Simmerath","municipality":{"key":"05334028","name":"Simmerath","type":"Kreisangehörige_Gemeinde"},"district":{"key":"05334","name":"Städteregion Aachen","type":"Kreis"},"federalState":{"key":"05","name":"Nordrhein-Westfalen"}},{"name":"Wiehweg","postalCode":"52152","locality":"Simmerath","municipality":{"key":"05334028","name":"Simmerath","type":"Kreisangehörige_Gemeinde"},"district":{"key":"05334","name":"Städteregion Aachen","type":"Kreis"},"federalState":{"key":"05","name":"Nordrhein-Westfalen"}},{"name":"Wiesenstr.","postalCode":"52152","locality":"Simmerath","municipality":{"key":"05334028","name":"Simmerath","type":"Kreisangehörige_Gemeinde"},"district":{"key":"05334","name":"Städteregion Aachen","type":"Kreis"},"federalState":{"key":"05","name":"Nordrhein-Westfalen"}},{"name":"Wiesentalstr.","postalCode":"52152","locality":"Simmerath","municipality":{"key":"05334028","name":"Simmerath","type":"Kreisangehörige_Gemeinde"},"district":{"key":"05334","name":"Städteregion Aachen","type":"Kreis"},"federalState":{"key":"05","name":"Nordrhein-Westfalen"}},{"name":"Wieskuhl","postalCode":"52152","locality":"Simmerath","municipality":{"key":"05334028","name":"Simmerath","type":"Kreisangehörige_Gemeinde"},"district":{"key":"05334","name":"Städteregion Aachen","type":"Kreis"},"federalState":{"key":"05","name":"Nordrhein-Westfalen"}},{"name":"Wilhelmsgarten","postalCode":"52152","locality":"Simmerath","municipality":{"key":"05334028","name":"Simmerath","type":"Kreisangehörige_Gemeinde"},"district":{"key":"05334","name":"Städteregion Aachen","type":"Kreis"},"federalState":{"key":"05","name":"Nordrhein-Westfalen"}},{"name":"Wingertsberg","postalCode":"52152","locality":"Simmerath","municipality":{"key":"05334028","name":"Simmerath","type":"Kreisangehörige_Gemeinde"},"district":{"key":"05334","name":"Städteregion Aachen","type":"Kreis"},"federalState":{"key":"05","name":"Nordrhein-Westfalen"}},{"name":"Witzerather Str.","postalCode":"52152","locality":"Simmerath","municipality":{"key":"05334028","name":"Simmerath","type":"Kreisangehörige_Gemeinde"},"district":{"key":"05334","name":"Städteregion Aachen","type":"Kreis"},"federalState":{"key":"05","name":"Nordrhein-Westfalen"}},{"name":"Witzerkuhl","postalCode":"52152","locality":"Simmerath","municipality":{"key":"05334028","name":"Simmerath","type":"Kreisangehörige_Gemeinde"},"district":{"key":"05334","name":"Städteregion Aachen","type":"Kreis"},"federalState":{"key":"05","name":"Nordrhein-Westfalen"}},{"name":"Woffelsbacher Str.","postalCode":"52152","locality":"Simmerath","municipality":{"key":"05334028","name":"Simmerath","type":"Kreisangehörige_Gemeinde"},"district":{"key":"05334","name":"Städteregion Aachen","type":"Kreis"},"federalState":{"key":"05","name":"Nordrhein-Westfalen"}},{"name":"Wolfsbacher Weg","postalCode":"52152","locality":"Simmerath","municipality":{"key":"05334028","name":"Simmerath","type":"Kreisangehörige_Gemeinde"},"district":{"key":"05334","name":"Städteregion Aachen","type":"Kreis"},"federalState":{"key":"05","name":"Nordrhein-Westfalen"}},{"name":"Wolfsgasse","postalCode":"52152","locality":"Simmerath","municipality":{"key":"05334028","name":"Simmerath","type":"Kreisangehörige_Gemeinde"},"district":{"key":"05334","name":"Städteregion Aachen","type":"Kreis"},"federalState":{"key":"05","name":"Nordrhein-Westfalen"}},{"name":"Wolfskuhl","postalCode":"52152","locality":"Simmerath","municipality":{"key":"05334028","name":"Simmerath","type":"Kreisangehörige_Gemeinde"},"district":{"key":"05334","name":"Städteregion Aachen","type":"Kreis"},"federalState":{"key":"05","name":"Nordrhein-Westfalen"}},{"name":"Wolfskuhl Weg","postalCode":"52152","locality":"Simmerath","municipality":{"key":"05334028","name":"Simmerath","type":"Kreisangehörige_Gemeinde"},"district":{"key":"05334","name":"Städteregion Aachen","type":"Kreis"},"federalState":{"key":"05","name":"Nordrhein-Westfalen"}},{"name":"Wolleberstee","postalCode":"52152","locality":"Simmerath","municipality":{"key":"05334028","name":"Simmerath","type":"Kreisangehörige_Gemeinde"},"district":{"key":"05334","name":"Städteregion Aachen","type":"Kreis"},"federalState":{"key":"05","name":"Nordrhein-Westfalen"}},{"name":"Wöllekuhl","postalCode":"52152","locality":"Simmerath","municipality":{"key":"05334028","name":"Simmerath","type":"Kreisangehörige_Gemeinde"},"district":{"key":"05334","name":"Städteregion Aachen","type":"Kreis"},"federalState":{"key":"05","name":"Nordrhein-Westfalen"}},{"name":"Wollgrasweg","postalCode":"52152","locality":"Simmerath","municipality":{"key":"05334028","name":"Simmerath","type":"Kreisangehörige_Gemeinde"},"district":{"key":"05334","name":"Städteregion Aachen","type":"Kreis"},"federalState":{"key":"05","name":"Nordrhein-Westfalen"}},{"name":"Wollseifener Str.","postalCode":"52152","locality":"Simmerath","municipality":{"key":"05334028","name":"Simmerath","type":"Kreisangehörige_Gemeinde"},"district":{"key":"05334","name":"Städteregion Aachen","type":"Kreis"},"federalState":{"key":"05","name":"Nordrhein-Westfalen"}},{"name":"Zäunchensweg","postalCode":"52152","locality":"Simmerath","municipality":{"key":"05334028","name":"Simmerath","type":"Kreisangehörige_Gemeinde"},"district":{"key":"05334","name":"Städteregion Aachen","type":"Kreis"},"federalState":{"key":"05","name":"Nordrhein-Westfalen"}},{"name":"Zufahrt zum Forellenhof","postalCode":"52152","locality":"Simmerath","municipality":{"key":"05334028","name":"Simmerath","type":"Kreisangehörige_Gemeinde"},"district":{"key":"05334","name":"Städteregion Aachen","type":"Kreis"},"federalState":{"key":"05","name":"Nordrhein-Westfalen"}},{"name":"Zum Belgenbach","postalCode":"52152","locality":"Simmerath","municipality":{"key":"05334028","name":"Simmerath","type":"Kreisangehörige_Gemeinde"},"district":{"key":"05334","name":"Städteregion Aachen","type":"Kreis"},"federalState":{"key":"05","name":"Nordrhein-Westfalen"}},{"name":"Zum Eichelberg","postalCode":"54552","locality":"Immerath","municipality":{"key":"07233034","name":"Immerath","type":"Kreisangehörige_Gemeinde"},"district":{"key":"07233","name":"Vulkaneifel","type":"Landkreis"},"federalState":{"key":"07","name":"Rheinland-Pfalz"}},{"name":"Zum Eifelkreuz","postalCode":"52152","locality":"Simmerath","municipality":{"key":"05334028","name":"Simmerath","type":"Kreisangehörige_Gemeinde"},"district":{"key":"05334","name":"Städteregion Aachen","type":"Kreis"},"federalState":{"key":"05","name":"Nordrhein-Westfalen"}},{"name":"Zum Heister","postalCode":"52152","locality":"Simmerath","municipality":{"key":"05334028","name":"Simmerath","type":"Kreisangehörige_Gemeinde"},"district":{"key":"05334","name":"Städteregion Aachen","type":"Kreis"},"federalState":{"key":"05","name":"Nordrhein-Westfalen"}},{"name":"Zum Mühlchen","postalCode":"52152","locality":"Simmerath","municipality":{"key":"05334028","name":"Simmerath","type":"Kreisangehörige_Gemeinde"},"district":{"key":"05334","name":"Städteregion Aachen","type":"Kreis"},"federalState":{"key":"05","name":"Nordrhein-Westfalen"}},{"name":"Zum Obersee","postalCode":"52152","locality":"Simmerath","municipality":{"key":"05334028","name":"Simmerath","type":"Kreisangehörige_Gemeinde"},"district":{"key":"05334","name":"Städteregion Aachen","type":"Kreis"},"federalState":{"key":"05","name":"Nordrhein-Westfalen"}},{"name":"Zum Rathaus","postalCode":"52152","locality":"Simmerath","municipality":{"key":"05334028","name":"Simmerath","type":"Kreisangehörige_Gemeinde"},"district":{"key":"05334","name":"Städteregion Aachen","type":"Kreis"},"federalState":{"key":"05","name":"Nordrhein-Westfalen"}},{"name":"Zum Weissen Kreuz","postalCode":"52152","locality":"Simmerath","municipality":{"key":"05334028","name":"Simmerath","type":"Kreisangehörige_Gemeinde"},"district":{"key":"05334","name":"Städteregion Aachen","type":"Kreis"},"federalState":{"key":"05","name":"Nordrhein-Westfalen"}},{"name":"Zum Wiesengrund","postalCode":"54552","locality":"Immerath","municipality":{"key":"07233034","name":"Immerath","type":"Kreisangehörige_Gemeinde"},"district":{"key":"07233","name":"Vulkaneifel","type":"Landkreis"},"federalState":{"key":"07","name":"Rheinland-Pfalz"}},{"name":"Äuchesgasse","postalCode":"52152","locality":"Simmerath","municipality":{"key":"05334028","name":"Simmerath","type":"Kreisangehörige_Gemeinde"},"district":{"key":"05334","name":"Städteregion Aachen","type":"Kreis"},"federalState":{"key":"05","name":"Nordrhein-Westfalen"}},{"name":"Ölmühle","postalCode":"52152","locality":"Simmerath","municipality":{"key":"05334028","name":"Simmerath","type":"Kreisangehörige_Gemeinde"},"district":{"key":"05334","name":"Städteregion Aachen","type":"Kreis"},"federalState":{"key":"05","name":"Nordrhein-Westfalen"}},{"name":"Öm de Kihr","postalCode":"52152","locality":"Simmerath","municipality":{"key":"05334028","name":"Simmerath","type":"Kreisangehörige_Gemeinde"},"district":{"key":"05334","name":"Städteregion Aachen","type":"Kreis"},"federalState":{"key":"05","name":"Nordrhein-Westfalen"}},]