[{"name":"11 Kilometerweg","postalCode":"37431","locality":"Harz (Landkreis Göttingen)","municipality":{"key":"03159501","name":"Harz (Landkreis Göttingen), gemfr. Geb.","type":"Gemeindefreies_Gebiet_Unbewohnt"},"district":{"key":"03159","name":"Göttingen","type":"Landkreis"},"federalState":{"key":"03","name":"Niedersachsen"}},{"name":"13.November-Weg","postalCode":"37520","locality":"Harz (Landkreis Göttingen)","municipality":{"key":"03159501","name":"Harz (Landkreis Göttingen), gemfr. Geb.","type":"Gemeindefreies_Gebiet_Unbewohnt"},"district":{"key":"03159","name":"Göttingen","type":"Landkreis"},"federalState":{"key":"03","name":"Niedersachsen"}},{"name":"1. Eckerhangweg","postalCode":"38667","locality":"Bad Harzburg","municipality":{"key":"03153002","name":"Bad Harzburg, Stadt","type":"Stadt"},"district":{"key":"03153","name":"Goslar","type":"Landkreis"},"federalState":{"key":"03","name":"Niedersachsen"}},{"name":"48-Pfennig-Weg","postalCode":"38667","locality":"Harz (LK Goslar)","municipality":{"key":"03153504","name":"Harz (Landkreis Goslar), gemfr. Gebiet","type":"Gemeindefreies_Gebiet_Unbewohnt"},"district":{"key":"03153","name":"Goslar","type":"Landkreis"},"federalState":{"key":"03","name":"Niedersachsen"}},{"name":"Ackerweg","postalCode":"38879","locality":"Wernigerode","municipality":{"key":"15085370","name":"Wernigerode, Stadt","type":"Stadt"},"district":{"key":"15085","name":"Harz","type":"Landkreis"},"federalState":{"key":"15","name":"Sachsen-Anhalt"}},{"name":"Agnesweg","postalCode":"38855","locality":"Wernigerode","municipality":{"key":"15085370","name":"Wernigerode, Stadt","type":"Stadt"},"district":{"key":"15085","name":"Harz","type":"Landkreis"},"federalState":{"key":"15","name":"Sachsen-Anhalt"}},{"name":"Agustenallee","postalCode":"38855","locality":"Wernigerode","municipality":{"key":"15085370","name":"Wernigerode, Stadt","type":"Stadt"},"district":{"key":"15085","name":"Harz","type":"Landkreis"},"federalState":{"key":"15","name":"Sachsen-Anhalt"}},{"name":"Ahornweg","postalCode":"38855","locality":"Wernigerode","municipality":{"key":"15085370","name":"Wernigerode, Stadt","type":"Stadt"},"district":{"key":"15085","name":"Harz","type":"Landkreis"},"federalState":{"key":"15","name":"Sachsen-Anhalt"}},{"name":"Albert-Bartels-Str.","postalCode":"38855","locality":"Wernigerode","municipality":{"key":"15085370","name":"Wernigerode, Stadt","type":"Stadt"},"district":{"key":"15085","name":"Harz","type":"Landkreis"},"federalState":{"key":"15","name":"Sachsen-Anhalt"}},{"name":"Albert-Einstein-Str.","postalCode":"38855","locality":"Wernigerode","municipality":{"key":"15085370","name":"Wernigerode, Stadt","type":"Stadt"},"district":{"key":"15085","name":"Harz","type":"Landkreis"},"federalState":{"key":"15","name":"Sachsen-Anhalt"}},{"name":"Albert-Schweitzer-Str.","postalCode":"38855","locality":"Wernigerode","municipality":{"key":"15085370","name":"Wernigerode, Stadt","type":"Stadt"},"district":{"key":"15085","name":"Harz","type":"Landkreis"},"federalState":{"key":"15","name":"Sachsen-Anhalt"}},{"name":"Alexanderstieg","postalCode":"38855","locality":"Wernigerode","municipality":{"key":"15085370","name":"Wernigerode, Stadt","type":"Stadt"},"district":{"key":"15085","name":"Harz","type":"Landkreis"},"federalState":{"key":"15","name":"Sachsen-Anhalt"}},{"name":"Alte Bobbahn","postalCode":"38879","locality":"Wernigerode","municipality":{"key":"15085370","name":"Wernigerode, Stadt","type":"Stadt"},"district":{"key":"15085","name":"Harz","type":"Landkreis"},"federalState":{"key":"15","name":"Sachsen-Anhalt"}},{"name":"Alte Brauerei","postalCode":"38855","locality":"Wernigerode","municipality":{"key":"15085370","name":"Wernigerode, Stadt","type":"Stadt"},"district":{"key":"15085","name":"Harz","type":"Landkreis"},"federalState":{"key":"15","name":"Sachsen-Anhalt"}},{"name":"Alte Dorfstr.","postalCode":"38879","locality":"Wernigerode","municipality":{"key":"15085370","name":"Wernigerode, Stadt","type":"Stadt"},"district":{"key":"15085","name":"Harz","type":"Landkreis"},"federalState":{"key":"15","name":"Sachsen-Anhalt"}},{"name":"Alte Poststr.","postalCode":"38855","locality":"Wernigerode","municipality":{"key":"15085370","name":"Wernigerode, Stadt","type":"Stadt"},"district":{"key":"15085","name":"Harz","type":"Landkreis"},"federalState":{"key":"15","name":"Sachsen-Anhalt"}},{"name":"Alter Bahnhof","postalCode":"38855","locality":"Wernigerode","municipality":{"key":"15085370","name":"Wernigerode, Stadt","type":"Stadt"},"district":{"key":"15085","name":"Harz","type":"Landkreis"},"federalState":{"key":"15","name":"Sachsen-Anhalt"}},{"name":"Alte Wernigeröder Str.","postalCode":"38879","locality":"Wernigerode","municipality":{"key":"15085370","name":"Wernigerode, Stadt","type":"Stadt"},"district":{"key":"15085","name":"Harz","type":"Landkreis"},"federalState":{"key":"15","name":"Sachsen-Anhalt"}},{"name":"Am Auerhahn","postalCode":"38855","locality":"Wernigerode","municipality":{"key":"15085370","name":"Wernigerode, Stadt","type":"Stadt"},"district":{"key":"15085","name":"Harz","type":"Landkreis"},"federalState":{"key":"15","name":"Sachsen-Anhalt"}},{"name":"Am Barrenbach","postalCode":"38855","locality":"Wernigerode","municipality":{"key":"15085370","name":"Wernigerode, Stadt","type":"Stadt"},"district":{"key":"15085","name":"Harz","type":"Landkreis"},"federalState":{"key":"15","name":"Sachsen-Anhalt"}},{"name":"Am Bauplatz","postalCode":"38855","locality":"Wernigerode","municipality":{"key":"15085370","name":"Wernigerode, Stadt","type":"Stadt"},"district":{"key":"15085","name":"Harz","type":"Landkreis"},"federalState":{"key":"15","name":"Sachsen-Anhalt"}},{"name":"Am braunen Wasser","postalCode":"38855","locality":"Wernigerode","municipality":{"key":"15085370","name":"Wernigerode, Stadt","type":"Stadt"},"district":{"key":"15085","name":"Harz","type":"Landkreis"},"federalState":{"key":"15","name":"Sachsen-Anhalt"}},{"name":"Am Eichberg","postalCode":"38855","locality":"Wernigerode","municipality":{"key":"15085370","name":"Wernigerode, Stadt","type":"Stadt"},"district":{"key":"15085","name":"Harz","type":"Landkreis"},"federalState":{"key":"15","name":"Sachsen-Anhalt"}},{"name":"Amelungsweg","postalCode":"38855","locality":"Wernigerode","municipality":{"key":"15085370","name":"Wernigerode, Stadt","type":"Stadt"},"district":{"key":"15085","name":"Harz","type":"Landkreis"},"federalState":{"key":"15","name":"Sachsen-Anhalt"}},{"name":"Am Fischerhof","postalCode":"38855","locality":"Wernigerode","municipality":{"key":"15085370","name":"Wernigerode, Stadt","type":"Stadt"},"district":{"key":"15085","name":"Harz","type":"Landkreis"},"federalState":{"key":"15","name":"Sachsen-Anhalt"}},{"name":"Am Floßplatz","postalCode":"38855","locality":"Wernigerode","municipality":{"key":"15085370","name":"Wernigerode, Stadt","type":"Stadt"},"district":{"key":"15085","name":"Harz","type":"Landkreis"},"federalState":{"key":"15","name":"Sachsen-Anhalt"}},{"name":"Am Galgenberg","postalCode":"38855","locality":"Wernigerode","municipality":{"key":"15085370","name":"Wernigerode, Stadt","type":"Stadt"},"district":{"key":"15085","name":"Harz","type":"Landkreis"},"federalState":{"key":"15","name":"Sachsen-Anhalt"}},{"name":"Am Großen Bleek","postalCode":"38855","locality":"Wernigerode","municipality":{"key":"15085370","name":"Wernigerode, Stadt","type":"Stadt"},"district":{"key":"15085","name":"Harz","type":"Landkreis"},"federalState":{"key":"15","name":"Sachsen-Anhalt"}},{"name":"Am Horstberg","postalCode":"38855","locality":"Wernigerode","municipality":{"key":"15085370","name":"Wernigerode, Stadt","type":"Stadt"},"district":{"key":"15085","name":"Harz","type":"Landkreis"},"federalState":{"key":"15","name":"Sachsen-Anhalt"}},{"name":"Am Jägerkopf","postalCode":"38855","locality":"Wernigerode","municipality":{"key":"15085370","name":"Wernigerode, Stadt","type":"Stadt"},"district":{"key":"15085","name":"Harz","type":"Landkreis"},"federalState":{"key":"15","name":"Sachsen-Anhalt"}},{"name":"Am Kastanienwäldchen","postalCode":"38855","locality":"Wernigerode","municipality":{"key":"15085370","name":"Wernigerode, Stadt","type":"Stadt"},"district":{"key":"15085","name":"Harz","type":"Landkreis"},"federalState":{"key":"15","name":"Sachsen-Anhalt"}},{"name":"Am Katzenteich","postalCode":"38855","locality":"Wernigerode","municipality":{"key":"15085370","name":"Wernigerode, Stadt","type":"Stadt"},"district":{"key":"15085","name":"Harz","type":"Landkreis"},"federalState":{"key":"15","name":"Sachsen-Anhalt"}},{"name":"Am Kupferhammer","postalCode":"38855","locality":"Wernigerode","municipality":{"key":"15085370","name":"Wernigerode, Stadt","type":"Stadt"},"district":{"key":"15085","name":"Harz","type":"Landkreis"},"federalState":{"key":"15","name":"Sachsen-Anhalt"}},{"name":"Am Küsterskamp","postalCode":"38855","locality":"Wernigerode","municipality":{"key":"15085370","name":"Wernigerode, Stadt","type":"Stadt"},"district":{"key":"15085","name":"Harz","type":"Landkreis"},"federalState":{"key":"15","name":"Sachsen-Anhalt"}},{"name":"Am Lerchenberg","postalCode":"38855","locality":"Wernigerode","municipality":{"key":"15085370","name":"Wernigerode, Stadt","type":"Stadt"},"district":{"key":"15085","name":"Harz","type":"Landkreis"},"federalState":{"key":"15","name":"Sachsen-Anhalt"}},{"name":"Am Lustgarten","postalCode":"38855","locality":"Wernigerode","municipality":{"key":"15085370","name":"Wernigerode, Stadt","type":"Stadt"},"district":{"key":"15085","name":"Harz","type":"Landkreis"},"federalState":{"key":"15","name":"Sachsen-Anhalt"}},{"name":"Am Lüttgegraben","postalCode":"38855","locality":"Wernigerode","municipality":{"key":"15085370","name":"Wernigerode, Stadt","type":"Stadt"},"district":{"key":"15085","name":"Harz","type":"Landkreis"},"federalState":{"key":"15","name":"Sachsen-Anhalt"}},{"name":"Am Park","postalCode":"38855","locality":"Wernigerode","municipality":{"key":"15085370","name":"Wernigerode, Stadt","type":"Stadt"},"district":{"key":"15085","name":"Harz","type":"Landkreis"},"federalState":{"key":"15","name":"Sachsen-Anhalt"}},{"name":"Am Plan","postalCode":"38855","locality":"Wernigerode","municipality":{"key":"15085370","name":"Wernigerode, Stadt","type":"Stadt"},"district":{"key":"15085","name":"Harz","type":"Landkreis"},"federalState":{"key":"15","name":"Sachsen-Anhalt"}},{"name":"Am Schleifweg","postalCode":"38855","locality":"Wernigerode","municipality":{"key":"15085370","name":"Wernigerode, Stadt","type":"Stadt"},"district":{"key":"15085","name":"Harz","type":"Landkreis"},"federalState":{"key":"15","name":"Sachsen-Anhalt"}},{"name":"Am Schloß","postalCode":"38855","locality":"Wernigerode","municipality":{"key":"15085370","name":"Wernigerode, Stadt","type":"Stadt"},"district":{"key":"15085","name":"Harz","type":"Landkreis"},"federalState":{"key":"15","name":"Sachsen-Anhalt"}},{"name":"Am Schreiberteich","postalCode":"38855","locality":"Wernigerode","municipality":{"key":"15085370","name":"Wernigerode, Stadt","type":"Stadt"},"district":{"key":"15085","name":"Harz","type":"Landkreis"},"federalState":{"key":"15","name":"Sachsen-Anhalt"}},{"name":"Amselweg","postalCode":"38855","locality":"Wernigerode","municipality":{"key":"15085370","name":"Wernigerode, Stadt","type":"Stadt"},"district":{"key":"15085","name":"Harz","type":"Landkreis"},"federalState":{"key":"15","name":"Sachsen-Anhalt"}},{"name":"Am Sonnenbrink","postalCode":"38855","locality":"Wernigerode","municipality":{"key":"15085370","name":"Wernigerode, Stadt","type":"Stadt"},"district":{"key":"15085","name":"Harz","type":"Landkreis"},"federalState":{"key":"15","name":"Sachsen-Anhalt"}},{"name":"Am Stadtweg","postalCode":"38855","locality":"Wernigerode","municipality":{"key":"15085370","name":"Wernigerode, Stadt","type":"Stadt"},"district":{"key":"15085","name":"Harz","type":"Landkreis"},"federalState":{"key":"15","name":"Sachsen-Anhalt"}},{"name":"Am Stapenberg","postalCode":"38855","locality":"Wernigerode","municipality":{"key":"15085370","name":"Wernigerode, Stadt","type":"Stadt"},"district":{"key":"15085","name":"Harz","type":"Landkreis"},"federalState":{"key":"15","name":"Sachsen-Anhalt"}},{"name":"Amtsfeldstr.","postalCode":"38855","locality":"Wernigerode","municipality":{"key":"15085370","name":"Wernigerode, Stadt","type":"Stadt"},"district":{"key":"15085","name":"Harz","type":"Landkreis"},"federalState":{"key":"15","name":"Sachsen-Anhalt"}},{"name":"Amtsgasse","postalCode":"38855","locality":"Wernigerode","municipality":{"key":"15085370","name":"Wernigerode, Stadt","type":"Stadt"},"district":{"key":"15085","name":"Harz","type":"Landkreis"},"federalState":{"key":"15","name":"Sachsen-Anhalt"}},{"name":"Am Tünneckenberg","postalCode":"38855","locality":"Wernigerode","municipality":{"key":"15085370","name":"Wernigerode, Stadt","type":"Stadt"},"district":{"key":"15085","name":"Harz","type":"Landkreis"},"federalState":{"key":"15","name":"Sachsen-Anhalt"}},{"name":"Am Vogelsang","postalCode":"38855","locality":"Wernigerode","municipality":{"key":"15085370","name":"Wernigerode, Stadt","type":"Stadt"},"district":{"key":"15085","name":"Harz","type":"Landkreis"},"federalState":{"key":"15","name":"Sachsen-Anhalt"}},{"name":"Am Vorwerk","postalCode":"38855","locality":"Wernigerode","municipality":{"key":"15085370","name":"Wernigerode, Stadt","type":"Stadt"},"district":{"key":"15085","name":"Harz","type":"Landkreis"},"federalState":{"key":"15","name":"Sachsen-Anhalt"}},{"name":"Am Wasser","postalCode":"38855","locality":"Wernigerode","municipality":{"key":"15085370","name":"Wernigerode, Stadt","type":"Stadt"},"district":{"key":"15085","name":"Harz","type":"Landkreis"},"federalState":{"key":"15","name":"Sachsen-Anhalt"}},{"name":"Am Wiesenhang","postalCode":"38855","locality":"Wernigerode","municipality":{"key":"15085370","name":"Wernigerode, Stadt","type":"Stadt"},"district":{"key":"15085","name":"Harz","type":"Landkreis"},"federalState":{"key":"15","name":"Sachsen-Anhalt"}},{"name":"Am Winterbergtor","postalCode":"38879","locality":"Wernigerode","municipality":{"key":"15085370","name":"Wernigerode, Stadt","type":"Stadt"},"district":{"key":"15085","name":"Harz","type":"Landkreis"},"federalState":{"key":"15","name":"Sachsen-Anhalt"}},{"name":"Bahnhofstr.","postalCode":"38855","locality":"Wernigerode","municipality":{"key":"15085370","name":"Wernigerode, Stadt","type":"Stadt"},"district":{"key":"15085","name":"Harz","type":"Landkreis"},"federalState":{"key":"15","name":"Sachsen-Anhalt"}},{"name":"Bahnhofsvorplatz","postalCode":"38855","locality":"Wernigerode","municipality":{"key":"15085370","name":"Wernigerode, Stadt","type":"Stadt"},"district":{"key":"15085","name":"Harz","type":"Landkreis"},"federalState":{"key":"15","name":"Sachsen-Anhalt"}},{"name":"Bahnparallelweg","postalCode":"38855","locality":"Wernigerode","municipality":{"key":"15085370","name":"Wernigerode, Stadt","type":"Stadt"},"district":{"key":"15085","name":"Harz","type":"Landkreis"},"federalState":{"key":"15","name":"Sachsen-Anhalt"}},{"name":"Bahnparallelweg","postalCode":"38875","locality":"Wernigerode","municipality":{"key":"15085370","name":"Wernigerode, Stadt","type":"Stadt"},"district":{"key":"15085","name":"Harz","type":"Landkreis"},"federalState":{"key":"15","name":"Sachsen-Anhalt"}},{"name":"Bahnparallelweg","postalCode":"38879","locality":"Wernigerode","municipality":{"key":"15085370","name":"Wernigerode, Stadt","type":"Stadt"},"district":{"key":"15085","name":"Harz","type":"Landkreis"},"federalState":{"key":"15","name":"Sachsen-Anhalt"}},{"name":"Barenberg","postalCode":"38879","locality":"Wernigerode","municipality":{"key":"15085370","name":"Wernigerode, Stadt","type":"Stadt"},"district":{"key":"15085","name":"Harz","type":"Landkreis"},"federalState":{"key":"15","name":"Sachsen-Anhalt"}},{"name":"Bärlappweg","postalCode":"38855","locality":"Wernigerode","municipality":{"key":"15085370","name":"Wernigerode, Stadt","type":"Stadt"},"district":{"key":"15085","name":"Harz","type":"Landkreis"},"federalState":{"key":"15","name":"Sachsen-Anhalt"}},{"name":"Beerbergstr.","postalCode":"38855","locality":"Wernigerode","municipality":{"key":"15085370","name":"Wernigerode, Stadt","type":"Stadt"},"district":{"key":"15085","name":"Harz","type":"Landkreis"},"federalState":{"key":"15","name":"Sachsen-Anhalt"}},{"name":"Bei den Schlehen","postalCode":"38855","locality":"Wernigerode","municipality":{"key":"15085370","name":"Wernigerode, Stadt","type":"Stadt"},"district":{"key":"15085","name":"Harz","type":"Landkreis"},"federalState":{"key":"15","name":"Sachsen-Anhalt"}},{"name":"Benzingeröder Chaussee","postalCode":"38855","locality":"Wernigerode","municipality":{"key":"15085370","name":"Wernigerode, Stadt","type":"Stadt"},"district":{"key":"15085","name":"Harz","type":"Landkreis"},"federalState":{"key":"15","name":"Sachsen-Anhalt"}},{"name":"Bergmannsgleie","postalCode":"38855","locality":"Wernigerode","municipality":{"key":"15085370","name":"Wernigerode, Stadt","type":"Stadt"},"district":{"key":"15085","name":"Harz","type":"Landkreis"},"federalState":{"key":"15","name":"Sachsen-Anhalt"}},{"name":"Bergstr.","postalCode":"38855","locality":"Wernigerode","municipality":{"key":"15085370","name":"Wernigerode, Stadt","type":"Stadt"},"district":{"key":"15085","name":"Harz","type":"Landkreis"},"federalState":{"key":"15","name":"Sachsen-Anhalt"}},{"name":"Bert-Heller-Str.","postalCode":"38855","locality":"Wernigerode","municipality":{"key":"15085370","name":"Wernigerode, Stadt","type":"Stadt"},"district":{"key":"15085","name":"Harz","type":"Landkreis"},"federalState":{"key":"15","name":"Sachsen-Anhalt"}},{"name":"Bibensstr.","postalCode":"38855","locality":"Wernigerode","municipality":{"key":"15085370","name":"Wernigerode, Stadt","type":"Stadt"},"district":{"key":"15085","name":"Harz","type":"Landkreis"},"federalState":{"key":"15","name":"Sachsen-Anhalt"}},{"name":"Bielsteinchaussee","postalCode":"38855","locality":"Wernigerode","municipality":{"key":"15085370","name":"Wernigerode, Stadt","type":"Stadt"},"district":{"key":"15085","name":"Harz","type":"Landkreis"},"federalState":{"key":"15","name":"Sachsen-Anhalt"}},{"name":"Bielsteinchaussee 2","postalCode":"38855","locality":"Wernigerode","municipality":{"key":"15085370","name":"Wernigerode, Stadt","type":"Stadt"},"district":{"key":"15085","name":"Harz","type":"Landkreis"},"federalState":{"key":"15","name":"Sachsen-Anhalt"}},{"name":"Birkenweg","postalCode":"38855","locality":"Wernigerode","municipality":{"key":"15085370","name":"Wernigerode, Stadt","type":"Stadt"},"district":{"key":"15085","name":"Harz","type":"Landkreis"},"federalState":{"key":"15","name":"Sachsen-Anhalt"}},{"name":"Birnenstieg","postalCode":"38855","locality":"Wernigerode","municipality":{"key":"15085370","name":"Wernigerode, Stadt","type":"Stadt"},"district":{"key":"15085","name":"Harz","type":"Landkreis"},"federalState":{"key":"15","name":"Sachsen-Anhalt"}},{"name":"Blankenburger Str.","postalCode":"38855","locality":"Wernigerode","municipality":{"key":"15085370","name":"Wernigerode, Stadt","type":"Stadt"},"district":{"key":"15085","name":"Harz","type":"Landkreis"},"federalState":{"key":"15","name":"Sachsen-Anhalt"}},{"name":"Blumentopfweg","postalCode":"38855","locality":"Wernigerode","municipality":{"key":"15085370","name":"Wernigerode, Stadt","type":"Stadt"},"district":{"key":"15085","name":"Harz","type":"Landkreis"},"federalState":{"key":"15","name":"Sachsen-Anhalt"}},{"name":"Blumenweg","postalCode":"38855","locality":"Wernigerode","municipality":{"key":"15085370","name":"Wernigerode, Stadt","type":"Stadt"},"district":{"key":"15085","name":"Harz","type":"Landkreis"},"federalState":{"key":"15","name":"Sachsen-Anhalt"}},{"name":"Bodestr.","postalCode":"38855","locality":"Wernigerode","municipality":{"key":"15085370","name":"Wernigerode, Stadt","type":"Stadt"},"district":{"key":"15085","name":"Harz","type":"Landkreis"},"federalState":{"key":"15","name":"Sachsen-Anhalt"}},{"name":"Bodeweg","postalCode":"38879","locality":"Wernigerode","municipality":{"key":"15085370","name":"Wernigerode, Stadt","type":"Stadt"},"district":{"key":"15085","name":"Harz","type":"Landkreis"},"federalState":{"key":"15","name":"Sachsen-Anhalt"}},{"name":"Bohlweg","postalCode":"38855","locality":"Wernigerode","municipality":{"key":"15085370","name":"Wernigerode, Stadt","type":"Stadt"},"district":{"key":"15085","name":"Harz","type":"Landkreis"},"federalState":{"key":"15","name":"Sachsen-Anhalt"}},{"name":"Bollhasental","postalCode":"38855","locality":"Wernigerode","municipality":{"key":"15085370","name":"Wernigerode, Stadt","type":"Stadt"},"district":{"key":"15085","name":"Harz","type":"Landkreis"},"federalState":{"key":"15","name":"Sachsen-Anhalt"}},{"name":"Bolmke","postalCode":"38855","locality":"Wernigerode","municipality":{"key":"15085370","name":"Wernigerode, Stadt","type":"Stadt"},"district":{"key":"15085","name":"Harz","type":"Landkreis"},"federalState":{"key":"15","name":"Sachsen-Anhalt"}},{"name":"Börstedter Str.","postalCode":"38855","locality":"Wernigerode","municipality":{"key":"15085370","name":"Wernigerode, Stadt","type":"Stadt"},"district":{"key":"15085","name":"Harz","type":"Landkreis"},"federalState":{"key":"15","name":"Sachsen-Anhalt"}},{"name":"Botheweg","postalCode":"38855","locality":"Wernigerode","municipality":{"key":"15085370","name":"Wernigerode, Stadt","type":"Stadt"},"district":{"key":"15085","name":"Harz","type":"Landkreis"},"federalState":{"key":"15","name":"Sachsen-Anhalt"}},{"name":"Botho-Weg","postalCode":"38879","locality":"Wernigerode","municipality":{"key":"15085370","name":"Wernigerode, Stadt","type":"Stadt"},"district":{"key":"15085","name":"Harz","type":"Landkreis"},"federalState":{"key":"15","name":"Sachsen-Anhalt"}},{"name":"Brandgasse","postalCode":"38855","locality":"Wernigerode","municipality":{"key":"15085370","name":"Wernigerode, Stadt","type":"Stadt"},"district":{"key":"15085","name":"Harz","type":"Landkreis"},"federalState":{"key":"15","name":"Sachsen-Anhalt"}},{"name":"Breite Str.","postalCode":"38855","locality":"Wernigerode","municipality":{"key":"15085370","name":"Wernigerode, Stadt","type":"Stadt"},"district":{"key":"15085","name":"Harz","type":"Landkreis"},"federalState":{"key":"15","name":"Sachsen-Anhalt"}},{"name":"Brockenblick","postalCode":"38855","locality":"Wernigerode","municipality":{"key":"15085370","name":"Wernigerode, Stadt","type":"Stadt"},"district":{"key":"15085","name":"Harz","type":"Landkreis"},"federalState":{"key":"15","name":"Sachsen-Anhalt"}},{"name":"Brockenstr.","postalCode":"38875","locality":"Wernigerode","municipality":{"key":"15085370","name":"Wernigerode, Stadt","type":"Stadt"},"district":{"key":"15085","name":"Harz","type":"Landkreis"},"federalState":{"key":"15","name":"Sachsen-Anhalt"}},{"name":"Brockenstr.","postalCode":"38879","locality":"Wernigerode","municipality":{"key":"15085370","name":"Wernigerode, Stadt","type":"Stadt"},"district":{"key":"15085","name":"Harz","type":"Landkreis"},"federalState":{"key":"15","name":"Sachsen-Anhalt"}},{"name":"Brockenweg","postalCode":"38855","locality":"Wernigerode","municipality":{"key":"15085370","name":"Wernigerode, Stadt","type":"Stadt"},"district":{"key":"15085","name":"Harz","type":"Landkreis"},"federalState":{"key":"15","name":"Sachsen-Anhalt"}},{"name":"Brückengasse","postalCode":"38855","locality":"Wernigerode","municipality":{"key":"15085370","name":"Wernigerode, Stadt","type":"Stadt"},"district":{"key":"15085","name":"Harz","type":"Landkreis"},"federalState":{"key":"15","name":"Sachsen-Anhalt"}},{"name":"Brunnenstr.","postalCode":"38855","locality":"Wernigerode","municipality":{"key":"15085370","name":"Wernigerode, Stadt","type":"Stadt"},"district":{"key":"15085","name":"Harz","type":"Landkreis"},"federalState":{"key":"15","name":"Sachsen-Anhalt"}},{"name":"Brunnnenhof","postalCode":"38855","locality":"Wernigerode","municipality":{"key":"15085370","name":"Wernigerode, Stadt","type":"Stadt"},"district":{"key":"15085","name":"Harz","type":"Landkreis"},"federalState":{"key":"15","name":"Sachsen-Anhalt"}},{"name":"Buchenweg","postalCode":"38855","locality":"Wernigerode","municipality":{"key":"15085370","name":"Wernigerode, Stadt","type":"Stadt"},"district":{"key":"15085","name":"Harz","type":"Landkreis"},"federalState":{"key":"15","name":"Sachsen-Anhalt"}},{"name":"Buchhölzchenweg","postalCode":"38855","locality":"Wernigerode","municipality":{"key":"15085370","name":"Wernigerode, Stadt","type":"Stadt"},"district":{"key":"15085","name":"Harz","type":"Landkreis"},"federalState":{"key":"15","name":"Sachsen-Anhalt"}},{"name":"Büchtingenstr.","postalCode":"38855","locality":"Wernigerode","municipality":{"key":"15085370","name":"Wernigerode, Stadt","type":"Stadt"},"district":{"key":"15085","name":"Harz","type":"Landkreis"},"federalState":{"key":"15","name":"Sachsen-Anhalt"}},{"name":"Bunkerweg","postalCode":"38855","locality":"Wernigerode","municipality":{"key":"15085370","name":"Wernigerode, Stadt","type":"Stadt"},"district":{"key":"15085","name":"Harz","type":"Landkreis"},"federalState":{"key":"15","name":"Sachsen-Anhalt"}},{"name":"Burgberg","postalCode":"38855","locality":"Wernigerode","municipality":{"key":"15085370","name":"Wernigerode, Stadt","type":"Stadt"},"district":{"key":"15085","name":"Harz","type":"Landkreis"},"federalState":{"key":"15","name":"Sachsen-Anhalt"}},{"name":"Bürgermeister Stieg","postalCode":"38855","locality":"Wernigerode","municipality":{"key":"15085370","name":"Wernigerode, Stadt","type":"Stadt"},"district":{"key":"15085","name":"Harz","type":"Landkreis"},"federalState":{"key":"15","name":"Sachsen-Anhalt"}},{"name":"Bürgerpark Wernigerode","postalCode":"38855","locality":"Wernigerode","municipality":{"key":"15085370","name":"Wernigerode, Stadt","type":"Stadt"},"district":{"key":"15085","name":"Harz","type":"Landkreis"},"federalState":{"key":"15","name":"Sachsen-Anhalt"}},{"name":"Burggraben","postalCode":"38855","locality":"Wernigerode","municipality":{"key":"15085370","name":"Wernigerode, Stadt","type":"Stadt"},"district":{"key":"15085","name":"Harz","type":"Landkreis"},"federalState":{"key":"15","name":"Sachsen-Anhalt"}},{"name":"Burgmühlenstr.","postalCode":"38855","locality":"Wernigerode","municipality":{"key":"15085370","name":"Wernigerode, Stadt","type":"Stadt"},"district":{"key":"15085","name":"Harz","type":"Landkreis"},"federalState":{"key":"15","name":"Sachsen-Anhalt"}},{"name":"Burgstr.","postalCode":"38855","locality":"Wernigerode","municipality":{"key":"15085370","name":"Wernigerode, Stadt","type":"Stadt"},"district":{"key":"15085","name":"Harz","type":"Landkreis"},"federalState":{"key":"15","name":"Sachsen-Anhalt"}},{"name":"Carl-Friedrich-Gauß-Str.","postalCode":"38855","locality":"Wernigerode","municipality":{"key":"15085370","name":"Wernigerode, Stadt","type":"Stadt"},"district":{"key":"15085","name":"Harz","type":"Landkreis"},"federalState":{"key":"15","name":"Sachsen-Anhalt"}},{"name":"Charlottenring","postalCode":"38855","locality":"Wernigerode","municipality":{"key":"15085370","name":"Wernigerode, Stadt","type":"Stadt"},"district":{"key":"15085","name":"Harz","type":"Landkreis"},"federalState":{"key":"15","name":"Sachsen-Anhalt"}},{"name":"Chaussee \"B\"","postalCode":"38855","locality":"Wernigerode","municipality":{"key":"15085370","name":"Wernigerode, Stadt","type":"Stadt"},"district":{"key":"15085","name":"Harz","type":"Landkreis"},"federalState":{"key":"15","name":"Sachsen-Anhalt"}},{"name":"Christianental","postalCode":"38855","locality":"Wernigerode","municipality":{"key":"15085370","name":"Wernigerode, Stadt","type":"Stadt"},"district":{"key":"15085","name":"Harz","type":"Landkreis"},"federalState":{"key":"15","name":"Sachsen-Anhalt"}},{"name":"Clara-Zetkin-Str.","postalCode":"38855","locality":"Wernigerode","municipality":{"key":"15085370","name":"Wernigerode, Stadt","type":"Stadt"},"district":{"key":"15085","name":"Harz","type":"Landkreis"},"federalState":{"key":"15","name":"Sachsen-Anhalt"}},{"name":"Damaschkestr.","postalCode":"38855","locality":"Wernigerode","municipality":{"key":"15085370","name":"Wernigerode, Stadt","type":"Stadt"},"district":{"key":"15085","name":"Harz","type":"Landkreis"},"federalState":{"key":"15","name":"Sachsen-Anhalt"}},{"name":"Darlingeröder Str.","postalCode":"38855","locality":"Wernigerode","municipality":{"key":"15085370","name":"Wernigerode, Stadt","type":"Stadt"},"district":{"key":"15085","name":"Harz","type":"Landkreis"},"federalState":{"key":"15","name":"Sachsen-Anhalt"}},{"name":"Degener Str.","postalCode":"38855","locality":"Wernigerode","municipality":{"key":"15085370","name":"Wernigerode, Stadt","type":"Stadt"},"district":{"key":"15085","name":"Harz","type":"Landkreis"},"federalState":{"key":"15","name":"Sachsen-Anhalt"}},{"name":"Deliusstr.","postalCode":"38855","locality":"Wernigerode","municipality":{"key":"15085370","name":"Wernigerode, Stadt","type":"Stadt"},"district":{"key":"15085","name":"Harz","type":"Landkreis"},"federalState":{"key":"15","name":"Sachsen-Anhalt"}},{"name":"Demutsgang","postalCode":"38855","locality":"Wernigerode","municipality":{"key":"15085370","name":"Wernigerode, Stadt","type":"Stadt"},"district":{"key":"15085","name":"Harz","type":"Landkreis"},"federalState":{"key":"15","name":"Sachsen-Anhalt"}},{"name":"Die Winde","postalCode":"38855","locality":"Wernigerode","municipality":{"key":"15085370","name":"Wernigerode, Stadt","type":"Stadt"},"district":{"key":"15085","name":"Harz","type":"Landkreis"},"federalState":{"key":"15","name":"Sachsen-Anhalt"}},{"name":"Dorfanger","postalCode":"38855","locality":"Wernigerode","municipality":{"key":"15085370","name":"Wernigerode, Stadt","type":"Stadt"},"district":{"key":"15085","name":"Harz","type":"Landkreis"},"federalState":{"key":"15","name":"Sachsen-Anhalt"}},{"name":"Dorfstr.","postalCode":"38855","locality":"Wernigerode","municipality":{"key":"15085370","name":"Wernigerode, Stadt","type":"Stadt"},"district":{"key":"15085","name":"Harz","type":"Landkreis"},"federalState":{"key":"15","name":"Sachsen-Anhalt"}},{"name":"Dornbergsweg","postalCode":"38855","locality":"Wernigerode","municipality":{"key":"15085370","name":"Wernigerode, Stadt","type":"Stadt"},"district":{"key":"15085","name":"Harz","type":"Landkreis"},"federalState":{"key":"15","name":"Sachsen-Anhalt"}},{"name":"Drängetal","postalCode":"38855","locality":"Wernigerode","municipality":{"key":"15085370","name":"Wernigerode, Stadt","type":"Stadt"},"district":{"key":"15085","name":"Harz","type":"Landkreis"},"federalState":{"key":"15","name":"Sachsen-Anhalt"}},{"name":"Drängetal Hangweg","postalCode":"38855","locality":"Wernigerode","municipality":{"key":"15085370","name":"Wernigerode, Stadt","type":"Stadt"},"district":{"key":"15085","name":"Harz","type":"Landkreis"},"federalState":{"key":"15","name":"Sachsen-Anhalt"}},{"name":"Dreikäseklippenweg","postalCode":"38855","locality":"Wernigerode","municipality":{"key":"15085370","name":"Wernigerode, Stadt","type":"Stadt"},"district":{"key":"15085","name":"Harz","type":"Landkreis"},"federalState":{"key":"15","name":"Sachsen-Anhalt"}},{"name":"Dr.-Jacobs-Str.","postalCode":"38855","locality":"Wernigerode","municipality":{"key":"15085370","name":"Wernigerode, Stadt","type":"Stadt"},"district":{"key":"15085","name":"Harz","type":"Landkreis"},"federalState":{"key":"15","name":"Sachsen-Anhalt"}},{"name":"Edelmannshäuweg","postalCode":"38879","locality":"Wernigerode","municipality":{"key":"15085370","name":"Wernigerode, Stadt","type":"Stadt"},"district":{"key":"15085","name":"Harz","type":"Landkreis"},"federalState":{"key":"15","name":"Sachsen-Anhalt"}},{"name":"ehem. Weg duchr's Paddenloch","postalCode":"38855","locality":"Wernigerode","municipality":{"key":"15085370","name":"Wernigerode, Stadt","type":"Stadt"},"district":{"key":"15085","name":"Harz","type":"Landkreis"},"federalState":{"key":"15","name":"Sachsen-Anhalt"}},{"name":"Eichenweg","postalCode":"38855","locality":"Wernigerode","municipality":{"key":"15085370","name":"Wernigerode, Stadt","type":"Stadt"},"district":{"key":"15085","name":"Harz","type":"Landkreis"},"federalState":{"key":"15","name":"Sachsen-Anhalt"}},{"name":"Eisenberg","postalCode":"38855","locality":"Wernigerode","municipality":{"key":"15085370","name":"Wernigerode, Stadt","type":"Stadt"},"district":{"key":"15085","name":"Harz","type":"Landkreis"},"federalState":{"key":"15","name":"Sachsen-Anhalt"}},{"name":"Eisergarten","postalCode":"38855","locality":"Wernigerode","municipality":{"key":"15085370","name":"Wernigerode, Stadt","type":"Stadt"},"district":{"key":"15085","name":"Harz","type":"Landkreis"},"federalState":{"key":"15","name":"Sachsen-Anhalt"}},{"name":"Eisergrund","postalCode":"38855","locality":"Wernigerode","municipality":{"key":"15085370","name":"Wernigerode, Stadt","type":"Stadt"},"district":{"key":"15085","name":"Harz","type":"Landkreis"},"federalState":{"key":"15","name":"Sachsen-Anhalt"}},{"name":"Elise-Crola-Str.","postalCode":"38855","locality":"Wernigerode","municipality":{"key":"15085370","name":"Wernigerode, Stadt","type":"Stadt"},"district":{"key":"15085","name":"Harz","type":"Landkreis"},"federalState":{"key":"15","name":"Sachsen-Anhalt"}},{"name":"Ellenbogen-Chaussee","postalCode":"38855","locality":"Wernigerode","municipality":{"key":"15085370","name":"Wernigerode, Stadt","type":"Stadt"},"district":{"key":"15085","name":"Harz","type":"Landkreis"},"federalState":{"key":"15","name":"Sachsen-Anhalt"}},{"name":"Erbgrafenweg","postalCode":"38855","locality":"Wernigerode","municipality":{"key":"15085370","name":"Wernigerode, Stadt","type":"Stadt"},"district":{"key":"15085","name":"Harz","type":"Landkreis"},"federalState":{"key":"15","name":"Sachsen-Anhalt"}},{"name":"Ernst-Moritz-Arndt-Weg","postalCode":"38855","locality":"Wernigerode","municipality":{"key":"15085370","name":"Wernigerode, Stadt","type":"Stadt"},"district":{"key":"15085","name":"Harz","type":"Landkreis"},"federalState":{"key":"15","name":"Sachsen-Anhalt"}},{"name":"Ernst-Pörner-Str.","postalCode":"38855","locality":"Wernigerode","municipality":{"key":"15085370","name":"Wernigerode, Stadt","type":"Stadt"},"district":{"key":"15085","name":"Harz","type":"Landkreis"},"federalState":{"key":"15","name":"Sachsen-Anhalt"}},{"name":"Eschenweg","postalCode":"38855","locality":"Wernigerode","municipality":{"key":"15085370","name":"Wernigerode, Stadt","type":"Stadt"},"district":{"key":"15085","name":"Harz","type":"Landkreis"},"federalState":{"key":"15","name":"Sachsen-Anhalt"}},{"name":"Eschwegestr.","postalCode":"38855","locality":"Wernigerode","municipality":{"key":"15085370","name":"Wernigerode, Stadt","type":"Stadt"},"district":{"key":"15085","name":"Harz","type":"Landkreis"},"federalState":{"key":"15","name":"Sachsen-Anhalt"}},{"name":"Eschwegestr.","postalCode":"38875","locality":"Wernigerode","municipality":{"key":"15085370","name":"Wernigerode, Stadt","type":"Stadt"},"district":{"key":"15085","name":"Harz","type":"Landkreis"},"federalState":{"key":"15","name":"Sachsen-Anhalt"}},{"name":"Ewaldsweg","postalCode":"38855","locality":"Wernigerode","municipality":{"key":"15085370","name":"Wernigerode, Stadt","type":"Stadt"},"district":{"key":"15085","name":"Harz","type":"Landkreis"},"federalState":{"key":"15","name":"Sachsen-Anhalt"}},{"name":"Feldstr.","postalCode":"38855","locality":"Wernigerode","municipality":{"key":"15085370","name":"Wernigerode, Stadt","type":"Stadt"},"district":{"key":"15085","name":"Harz","type":"Landkreis"},"federalState":{"key":"15","name":"Sachsen-Anhalt"}},{"name":"Fichtestr.","postalCode":"38855","locality":"Wernigerode","municipality":{"key":"15085370","name":"Wernigerode, Stadt","type":"Stadt"},"district":{"key":"15085","name":"Harz","type":"Landkreis"},"federalState":{"key":"15","name":"Sachsen-Anhalt"}},{"name":"Fliederweg","postalCode":"38855","locality":"Wernigerode","municipality":{"key":"15085370","name":"Wernigerode, Stadt","type":"Stadt"},"district":{"key":"15085","name":"Harz","type":"Landkreis"},"federalState":{"key":"15","name":"Sachsen-Anhalt"}},{"name":"Floßplatz","postalCode":"38855","locality":"Wernigerode","municipality":{"key":"15085370","name":"Wernigerode, Stadt","type":"Stadt"},"district":{"key":"15085","name":"Harz","type":"Landkreis"},"federalState":{"key":"15","name":"Sachsen-Anhalt"}},{"name":"Forckestr.","postalCode":"38855","locality":"Wernigerode","municipality":{"key":"15085370","name":"Wernigerode, Stadt","type":"Stadt"},"district":{"key":"15085","name":"Harz","type":"Landkreis"},"federalState":{"key":"15","name":"Sachsen-Anhalt"}},{"name":"Förstereiweg","postalCode":"38855","locality":"Wernigerode","municipality":{"key":"15085370","name":"Wernigerode, Stadt","type":"Stadt"},"district":{"key":"15085","name":"Harz","type":"Landkreis"},"federalState":{"key":"15","name":"Sachsen-Anhalt"}},{"name":"Försterplatz","postalCode":"38855","locality":"Wernigerode","municipality":{"key":"15085370","name":"Wernigerode, Stadt","type":"Stadt"},"district":{"key":"15085","name":"Harz","type":"Landkreis"},"federalState":{"key":"15","name":"Sachsen-Anhalt"}},{"name":"Forstmeister-Sietz-Weg","postalCode":"38855","locality":"Wernigerode","municipality":{"key":"15085370","name":"Wernigerode, Stadt","type":"Stadt"},"district":{"key":"15085","name":"Harz","type":"Landkreis"},"federalState":{"key":"15","name":"Sachsen-Anhalt"}},{"name":"Forstmeister-Sietz-Weg","postalCode":"38879","locality":"Wernigerode","municipality":{"key":"15085370","name":"Wernigerode, Stadt","type":"Stadt"},"district":{"key":"15085","name":"Harz","type":"Landkreis"},"federalState":{"key":"15","name":"Sachsen-Anhalt"}},{"name":"Frankenfeldstr.","postalCode":"38855","locality":"Wernigerode","municipality":{"key":"15085370","name":"Wernigerode, Stadt","type":"Stadt"},"district":{"key":"15085","name":"Harz","type":"Landkreis"},"federalState":{"key":"15","name":"Sachsen-Anhalt"}},{"name":"Freiheit","postalCode":"38855","locality":"Wernigerode","municipality":{"key":"15085370","name":"Wernigerode, Stadt","type":"Stadt"},"district":{"key":"15085","name":"Harz","type":"Landkreis"},"federalState":{"key":"15","name":"Sachsen-Anhalt"}},{"name":"Freilandstieg","postalCode":"38855","locality":"Wernigerode","municipality":{"key":"15085370","name":"Wernigerode, Stadt","type":"Stadt"},"district":{"key":"15085","name":"Harz","type":"Landkreis"},"federalState":{"key":"15","name":"Sachsen-Anhalt"}},{"name":"Friedenstr.","postalCode":"38855","locality":"Wernigerode","municipality":{"key":"15085370","name":"Wernigerode, Stadt","type":"Stadt"},"district":{"key":"15085","name":"Harz","type":"Landkreis"},"federalState":{"key":"15","name":"Sachsen-Anhalt"}},{"name":"Friederikental","postalCode":"38855","locality":"Wernigerode","municipality":{"key":"15085370","name":"Wernigerode, Stadt","type":"Stadt"},"district":{"key":"15085","name":"Harz","type":"Landkreis"},"federalState":{"key":"15","name":"Sachsen-Anhalt"}},{"name":"Friedrichstr.","postalCode":"38855","locality":"Wernigerode","municipality":{"key":"15085370","name":"Wernigerode, Stadt","type":"Stadt"},"district":{"key":"15085","name":"Harz","type":"Landkreis"},"federalState":{"key":"15","name":"Sachsen-Anhalt"}},{"name":"Fr. Naumann-Str.","postalCode":"38855","locality":"Wernigerode","municipality":{"key":"15085370","name":"Wernigerode, Stadt","type":"Stadt"},"district":{"key":"15085","name":"Harz","type":"Landkreis"},"federalState":{"key":"15","name":"Sachsen-Anhalt"}},{"name":"Gartenbreite","postalCode":"38855","locality":"Wernigerode","municipality":{"key":"15085370","name":"Wernigerode, Stadt","type":"Stadt"},"district":{"key":"15085","name":"Harz","type":"Landkreis"},"federalState":{"key":"15","name":"Sachsen-Anhalt"}},{"name":"Gartenstr.","postalCode":"38855","locality":"Wernigerode","municipality":{"key":"15085370","name":"Wernigerode, Stadt","type":"Stadt"},"district":{"key":"15085","name":"Harz","type":"Landkreis"},"federalState":{"key":"15","name":"Sachsen-Anhalt"}},{"name":"Gartenweg","postalCode":"38855","locality":"Wernigerode","municipality":{"key":"15085370","name":"Wernigerode, Stadt","type":"Stadt"},"district":{"key":"15085","name":"Harz","type":"Landkreis"},"federalState":{"key":"15","name":"Sachsen-Anhalt"}},{"name":"Gebranntes Eichental","postalCode":"38855","locality":"Wernigerode","municipality":{"key":"15085370","name":"Wernigerode, Stadt","type":"Stadt"},"district":{"key":"15085","name":"Harz","type":"Landkreis"},"federalState":{"key":"15","name":"Sachsen-Anhalt"}},{"name":"Gehrenweg","postalCode":"38855","locality":"Wernigerode","municipality":{"key":"15085370","name":"Wernigerode, Stadt","type":"Stadt"},"district":{"key":"15085","name":"Harz","type":"Landkreis"},"federalState":{"key":"15","name":"Sachsen-Anhalt"}},{"name":"Gelber Weg","postalCode":"38879","locality":"Wernigerode","municipality":{"key":"15085370","name":"Wernigerode, Stadt","type":"Stadt"},"district":{"key":"15085","name":"Harz","type":"Landkreis"},"federalState":{"key":"15","name":"Sachsen-Anhalt"}},{"name":"Georgiistr.","postalCode":"38855","locality":"Wernigerode","municipality":{"key":"15085370","name":"Wernigerode, Stadt","type":"Stadt"},"district":{"key":"15085","name":"Harz","type":"Landkreis"},"federalState":{"key":"15","name":"Sachsen-Anhalt"}},{"name":"Gerhard-Bombös-Weg","postalCode":"38855","locality":"Wernigerode","municipality":{"key":"15085370","name":"Wernigerode, Stadt","type":"Stadt"},"district":{"key":"15085","name":"Harz","type":"Landkreis"},"federalState":{"key":"15","name":"Sachsen-Anhalt"}},{"name":"Gerichtsstr.","postalCode":"38855","locality":"Wernigerode","municipality":{"key":"15085370","name":"Wernigerode, Stadt","type":"Stadt"},"district":{"key":"15085","name":"Harz","type":"Landkreis"},"federalState":{"key":"15","name":"Sachsen-Anhalt"}},{"name":"Gestellweg","postalCode":"38879","locality":"Wernigerode","municipality":{"key":"15085370","name":"Wernigerode, Stadt","type":"Stadt"},"district":{"key":"15085","name":"Harz","type":"Landkreis"},"federalState":{"key":"15","name":"Sachsen-Anhalt"}},{"name":"Gießerweg","postalCode":"38855","locality":"Wernigerode","municipality":{"key":"15085370","name":"Wernigerode, Stadt","type":"Stadt"},"district":{"key":"15085","name":"Harz","type":"Landkreis"},"federalState":{"key":"15","name":"Sachsen-Anhalt"}},{"name":"Glashüttenweg","postalCode":"38875","locality":"Wernigerode","municipality":{"key":"15085370","name":"Wernigerode, Stadt","type":"Stadt"},"district":{"key":"15085","name":"Harz","type":"Landkreis"},"federalState":{"key":"15","name":"Sachsen-Anhalt"}},{"name":"Glashüttenweg","postalCode":"38879","locality":"Wernigerode","municipality":{"key":"15085370","name":"Wernigerode, Stadt","type":"Stadt"},"district":{"key":"15085","name":"Harz","type":"Landkreis"},"federalState":{"key":"15","name":"Sachsen-Anhalt"}},{"name":"Gläsweg","postalCode":"38855","locality":"Wernigerode","municipality":{"key":"15085370","name":"Wernigerode, Stadt","type":"Stadt"},"district":{"key":"15085","name":"Harz","type":"Landkreis"},"federalState":{"key":"15","name":"Sachsen-Anhalt"}},{"name":"Gläsweg","postalCode":"38875","locality":"Wernigerode","municipality":{"key":"15085370","name":"Wernigerode, Stadt","type":"Stadt"},"district":{"key":"15085","name":"Harz","type":"Landkreis"},"federalState":{"key":"15","name":"Sachsen-Anhalt"}},{"name":"Glockengasse","postalCode":"38855","locality":"Wernigerode","municipality":{"key":"15085370","name":"Wernigerode, Stadt","type":"Stadt"},"district":{"key":"15085","name":"Harz","type":"Landkreis"},"federalState":{"key":"15","name":"Sachsen-Anhalt"}},{"name":"Goethestr.","postalCode":"38855","locality":"Wernigerode","municipality":{"key":"15085370","name":"Wernigerode, Stadt","type":"Stadt"},"district":{"key":"15085","name":"Harz","type":"Landkreis"},"federalState":{"key":"15","name":"Sachsen-Anhalt"}},{"name":"Goetheweg","postalCode":"38879","locality":"Wernigerode","municipality":{"key":"15085370","name":"Wernigerode, Stadt","type":"Stadt"},"district":{"key":"15085","name":"Harz","type":"Landkreis"},"federalState":{"key":"15","name":"Sachsen-Anhalt"}},{"name":"Goslarsche Gleie","postalCode":"38855","locality":"Wernigerode","municipality":{"key":"15085370","name":"Wernigerode, Stadt","type":"Stadt"},"district":{"key":"15085","name":"Harz","type":"Landkreis"},"federalState":{"key":"15","name":"Sachsen-Anhalt"}},{"name":"Gräfinnenweg","postalCode":"38855","locality":"Wernigerode","municipality":{"key":"15085370","name":"Wernigerode, Stadt","type":"Stadt"},"district":{"key":"15085","name":"Harz","type":"Landkreis"},"federalState":{"key":"15","name":"Sachsen-Anhalt"}},{"name":"Grandiger Weg","postalCode":"38875","locality":"Wernigerode","municipality":{"key":"15085370","name":"Wernigerode, Stadt","type":"Stadt"},"district":{"key":"15085","name":"Harz","type":"Landkreis"},"federalState":{"key":"15","name":"Sachsen-Anhalt"}},{"name":"Grasewanne","postalCode":"38855","locality":"Wernigerode","municipality":{"key":"15085370","name":"Wernigerode, Stadt","type":"Stadt"},"district":{"key":"15085","name":"Harz","type":"Landkreis"},"federalState":{"key":"15","name":"Sachsen-Anhalt"}},{"name":"Grenzweg","postalCode":"38855","locality":"Wernigerode","municipality":{"key":"15085370","name":"Wernigerode, Stadt","type":"Stadt"},"district":{"key":"15085","name":"Harz","type":"Landkreis"},"federalState":{"key":"15","name":"Sachsen-Anhalt"}},{"name":"Grenzweg","postalCode":"38879","locality":"Wernigerode","municipality":{"key":"15085370","name":"Wernigerode, Stadt","type":"Stadt"},"district":{"key":"15085","name":"Harz","type":"Landkreis"},"federalState":{"key":"15","name":"Sachsen-Anhalt"}},{"name":"Grenzweg am Bodesprung","postalCode":"38879","locality":"Wernigerode","municipality":{"key":"15085370","name":"Wernigerode, Stadt","type":"Stadt"},"district":{"key":"15085","name":"Harz","type":"Landkreis"},"federalState":{"key":"15","name":"Sachsen-Anhalt"}},{"name":"Große Bergstr.","postalCode":"38855","locality":"Wernigerode","municipality":{"key":"15085370","name":"Wernigerode, Stadt","type":"Stadt"},"district":{"key":"15085","name":"Harz","type":"Landkreis"},"federalState":{"key":"15","name":"Sachsen-Anhalt"}},{"name":"Große Dammstr.","postalCode":"38855","locality":"Wernigerode","municipality":{"key":"15085370","name":"Wernigerode, Stadt","type":"Stadt"},"district":{"key":"15085","name":"Harz","type":"Landkreis"},"federalState":{"key":"15","name":"Sachsen-Anhalt"}},{"name":"Große Schenkstr.","postalCode":"38855","locality":"Wernigerode","municipality":{"key":"15085370","name":"Wernigerode, Stadt","type":"Stadt"},"district":{"key":"15085","name":"Harz","type":"Landkreis"},"federalState":{"key":"15","name":"Sachsen-Anhalt"}},{"name":"Großes Gartental","postalCode":"38855","locality":"Wernigerode","municipality":{"key":"15085370","name":"Wernigerode, Stadt","type":"Stadt"},"district":{"key":"15085","name":"Harz","type":"Landkreis"},"federalState":{"key":"15","name":"Sachsen-Anhalt"}},{"name":"Große Ziegelstr.","postalCode":"38855","locality":"Wernigerode","municipality":{"key":"15085370","name":"Wernigerode, Stadt","type":"Stadt"},"district":{"key":"15085","name":"Harz","type":"Landkreis"},"federalState":{"key":"15","name":"Sachsen-Anhalt"}},{"name":"Großmutter Rodelbahn","postalCode":"38879","locality":"Wernigerode","municipality":{"key":"15085370","name":"Wernigerode, Stadt","type":"Stadt"},"district":{"key":"15085","name":"Harz","type":"Landkreis"},"federalState":{"key":"15","name":"Sachsen-Anhalt"}},{"name":"Grubestr.","postalCode":"38855","locality":"Wernigerode","municipality":{"key":"15085370","name":"Wernigerode, Stadt","type":"Stadt"},"district":{"key":"15085","name":"Harz","type":"Landkreis"},"federalState":{"key":"15","name":"Sachsen-Anhalt"}},{"name":"Grüne Str.","postalCode":"38855","locality":"Wernigerode","municipality":{"key":"15085370","name":"Wernigerode, Stadt","type":"Stadt"},"district":{"key":"15085","name":"Harz","type":"Landkreis"},"federalState":{"key":"15","name":"Sachsen-Anhalt"}},{"name":"Gustav-Petri-Str.","postalCode":"38855","locality":"Wernigerode","municipality":{"key":"15085370","name":"Wernigerode, Stadt","type":"Stadt"},"district":{"key":"15085","name":"Harz","type":"Landkreis"},"federalState":{"key":"15","name":"Sachsen-Anhalt"}},{"name":"Gutspark Minsleben","postalCode":"38855","locality":"Wernigerode","municipality":{"key":"15085370","name":"Wernigerode, Stadt","type":"Stadt"},"district":{"key":"15085","name":"Harz","type":"Landkreis"},"federalState":{"key":"15","name":"Sachsen-Anhalt"}},{"name":"Haakenstieg","postalCode":"38855","locality":"Wernigerode","municipality":{"key":"15085370","name":"Wernigerode, Stadt","type":"Stadt"},"district":{"key":"15085","name":"Harz","type":"Landkreis"},"federalState":{"key":"15","name":"Sachsen-Anhalt"}},{"name":"Hagenstr.","postalCode":"38879","locality":"Wernigerode","municipality":{"key":"15085370","name":"Wernigerode, Stadt","type":"Stadt"},"district":{"key":"15085","name":"Harz","type":"Landkreis"},"federalState":{"key":"15","name":"Sachsen-Anhalt"}},{"name":"Halberstädter Str.","postalCode":"38855","locality":"Wernigerode","municipality":{"key":"15085370","name":"Wernigerode, Stadt","type":"Stadt"},"district":{"key":"15085","name":"Harz","type":"Landkreis"},"federalState":{"key":"15","name":"Sachsen-Anhalt"}},{"name":"Halbe Str.","postalCode":"38855","locality":"Wernigerode","municipality":{"key":"15085370","name":"Wernigerode, Stadt","type":"Stadt"},"district":{"key":"15085","name":"Harz","type":"Landkreis"},"federalState":{"key":"15","name":"Sachsen-Anhalt"}},{"name":"Hallbauerstr.","postalCode":"38855","locality":"Wernigerode","municipality":{"key":"15085370","name":"Wernigerode, Stadt","type":"Stadt"},"district":{"key":"15085","name":"Harz","type":"Landkreis"},"federalState":{"key":"15","name":"Sachsen-Anhalt"}},{"name":"Hangelgasse","postalCode":"38855","locality":"Wernigerode","municipality":{"key":"15085370","name":"Wernigerode, Stadt","type":"Stadt"},"district":{"key":"15085","name":"Harz","type":"Landkreis"},"federalState":{"key":"15","name":"Sachsen-Anhalt"}},{"name":"Hangweg","postalCode":"38855","locality":"Wernigerode","municipality":{"key":"15085370","name":"Wernigerode, Stadt","type":"Stadt"},"district":{"key":"15085","name":"Harz","type":"Landkreis"},"federalState":{"key":"15","name":"Sachsen-Anhalt"}},{"name":"Hangweg","postalCode":"38879","locality":"Wernigerode","municipality":{"key":"15085370","name":"Wernigerode, Stadt","type":"Stadt"},"district":{"key":"15085","name":"Harz","type":"Landkreis"},"federalState":{"key":"15","name":"Sachsen-Anhalt"}},{"name":"Hans-Falkenhagen-Str.","postalCode":"38855","locality":"Wernigerode","municipality":{"key":"15085370","name":"Wernigerode, Stadt","type":"Stadt"},"district":{"key":"15085","name":"Harz","type":"Landkreis"},"federalState":{"key":"15","name":"Sachsen-Anhalt"}},{"name":"Hans-Hoffmann-Weg","postalCode":"38855","locality":"Wernigerode","municipality":{"key":"15085370","name":"Wernigerode, Stadt","type":"Stadt"},"district":{"key":"15085","name":"Harz","type":"Landkreis"},"federalState":{"key":"15","name":"Sachsen-Anhalt"}},{"name":"Harburgstr.","postalCode":"38855","locality":"Wernigerode","municipality":{"key":"15085370","name":"Wernigerode, Stadt","type":"Stadt"},"district":{"key":"15085","name":"Harz","type":"Landkreis"},"federalState":{"key":"15","name":"Sachsen-Anhalt"}},{"name":"Hartenberg","postalCode":"38855","locality":"Wernigerode","municipality":{"key":"15085370","name":"Wernigerode, Stadt","type":"Stadt"},"district":{"key":"15085","name":"Harz","type":"Landkreis"},"federalState":{"key":"15","name":"Sachsen-Anhalt"}},{"name":"Harzstr.","postalCode":"38855","locality":"Wernigerode","municipality":{"key":"15085370","name":"Wernigerode, Stadt","type":"Stadt"},"district":{"key":"15085","name":"Harz","type":"Landkreis"},"federalState":{"key":"15","name":"Sachsen-Anhalt"}},{"name":"Hasenwinkel","postalCode":"38855","locality":"Wernigerode","municipality":{"key":"15085370","name":"Wernigerode, Stadt","type":"Stadt"},"district":{"key":"15085","name":"Harz","type":"Landkreis"},"federalState":{"key":"15","name":"Sachsen-Anhalt"}},{"name":"Hasseröder Str.","postalCode":"38855","locality":"Wernigerode","municipality":{"key":"15085370","name":"Wernigerode, Stadt","type":"Stadt"},"district":{"key":"15085","name":"Harz","type":"Landkreis"},"federalState":{"key":"15","name":"Sachsen-Anhalt"}},{"name":"Hauptstr.","postalCode":"38855","locality":"Wernigerode","municipality":{"key":"15085370","name":"Wernigerode, Stadt","type":"Stadt"},"district":{"key":"15085","name":"Harz","type":"Landkreis"},"federalState":{"key":"15","name":"Sachsen-Anhalt"}},{"name":"Heidebreite","postalCode":"38855","locality":"Wernigerode","municipality":{"key":"15085370","name":"Wernigerode, Stadt","type":"Stadt"},"district":{"key":"15085","name":"Harz","type":"Landkreis"},"federalState":{"key":"15","name":"Sachsen-Anhalt"}},{"name":"Heidestr.","postalCode":"38855","locality":"Wernigerode","municipality":{"key":"15085370","name":"Wernigerode, Stadt","type":"Stadt"},"district":{"key":"15085","name":"Harz","type":"Landkreis"},"federalState":{"key":"15","name":"Sachsen-Anhalt"}},{"name":"Heiligengrund","postalCode":"38855","locality":"Wernigerode","municipality":{"key":"15085370","name":"Wernigerode, Stadt","type":"Stadt"},"district":{"key":"15085","name":"Harz","type":"Landkreis"},"federalState":{"key":"15","name":"Sachsen-Anhalt"}},{"name":"Heinrich-Heine-Str.","postalCode":"38855","locality":"Wernigerode","municipality":{"key":"15085370","name":"Wernigerode, Stadt","type":"Stadt"},"district":{"key":"15085","name":"Harz","type":"Landkreis"},"federalState":{"key":"15","name":"Sachsen-Anhalt"}},{"name":"Heltauer Platz","postalCode":"38855","locality":"Wernigerode","municipality":{"key":"15085370","name":"Wernigerode, Stadt","type":"Stadt"},"district":{"key":"15085","name":"Harz","type":"Landkreis"},"federalState":{"key":"15","name":"Sachsen-Anhalt"}},{"name":"Henning-Calvör-Str.","postalCode":"38855","locality":"Wernigerode","municipality":{"key":"15085370","name":"Wernigerode, Stadt","type":"Stadt"},"district":{"key":"15085","name":"Harz","type":"Landkreis"},"federalState":{"key":"15","name":"Sachsen-Anhalt"}},{"name":"Henrichstal","postalCode":"38855","locality":"Wernigerode","municipality":{"key":"15085370","name":"Wernigerode, Stadt","type":"Stadt"},"district":{"key":"15085","name":"Harz","type":"Landkreis"},"federalState":{"key":"15","name":"Sachsen-Anhalt"}},{"name":"Herbert-Pohl-Weg","postalCode":"38855","locality":"Wernigerode","municipality":{"key":"15085370","name":"Wernigerode, Stadt","type":"Stadt"},"district":{"key":"15085","name":"Harz","type":"Landkreis"},"federalState":{"key":"15","name":"Sachsen-Anhalt"}},{"name":"Hermann-Löns-Weg","postalCode":"38855","locality":"Wernigerode","municipality":{"key":"15085370","name":"Wernigerode, Stadt","type":"Stadt"},"district":{"key":"15085","name":"Harz","type":"Landkreis"},"federalState":{"key":"15","name":"Sachsen-Anhalt"}},{"name":"Hermann-Löns-Weg","postalCode":"38879","locality":"Wernigerode","municipality":{"key":"15085370","name":"Wernigerode, Stadt","type":"Stadt"},"district":{"key":"15085","name":"Harz","type":"Landkreis"},"federalState":{"key":"15","name":"Sachsen-Anhalt"}},{"name":"Hermannsweg","postalCode":"38855","locality":"Wernigerode","municipality":{"key":"15085370","name":"Wernigerode, Stadt","type":"Stadt"},"district":{"key":"15085","name":"Harz","type":"Landkreis"},"federalState":{"key":"15","name":"Sachsen-Anhalt"}},{"name":"Herrmannsweg","postalCode":"38855","locality":"Wernigerode","municipality":{"key":"15085370","name":"Wernigerode, Stadt","type":"Stadt"},"district":{"key":"15085","name":"Harz","type":"Landkreis"},"federalState":{"key":"15","name":"Sachsen-Anhalt"}},{"name":"Heudeber Str.","postalCode":"38855","locality":"Wernigerode","municipality":{"key":"15085370","name":"Wernigerode, Stadt","type":"Stadt"},"district":{"key":"15085","name":"Harz","type":"Landkreis"},"federalState":{"key":"15","name":"Sachsen-Anhalt"}},{"name":"Hilde-Coppi-Str.","postalCode":"38855","locality":"Wernigerode","municipality":{"key":"15085370","name":"Wernigerode, Stadt","type":"Stadt"},"district":{"key":"15085","name":"Harz","type":"Landkreis"},"federalState":{"key":"15","name":"Sachsen-Anhalt"}},{"name":"Hilleborchstr.","postalCode":"38855","locality":"Wernigerode","municipality":{"key":"15085370","name":"Wernigerode, Stadt","type":"Stadt"},"district":{"key":"15085","name":"Harz","type":"Landkreis"},"federalState":{"key":"15","name":"Sachsen-Anhalt"}},{"name":"Himmelpforte","postalCode":"38855","locality":"Wernigerode","municipality":{"key":"15085370","name":"Wernigerode, Stadt","type":"Stadt"},"district":{"key":"15085","name":"Harz","type":"Landkreis"},"federalState":{"key":"15","name":"Sachsen-Anhalt"}},{"name":"Hinter dem Dorf","postalCode":"38855","locality":"Wernigerode","municipality":{"key":"15085370","name":"Wernigerode, Stadt","type":"Stadt"},"district":{"key":"15085","name":"Harz","type":"Landkreis"},"federalState":{"key":"15","name":"Sachsen-Anhalt"}},{"name":"Hinter d. Gaswerk","postalCode":"38855","locality":"Wernigerode","municipality":{"key":"15085370","name":"Wernigerode, Stadt","type":"Stadt"},"district":{"key":"15085","name":"Harz","type":"Landkreis"},"federalState":{"key":"15","name":"Sachsen-Anhalt"}},{"name":"Hinterstr.","postalCode":"38855","locality":"Wernigerode","municipality":{"key":"15085370","name":"Wernigerode, Stadt","type":"Stadt"},"district":{"key":"15085","name":"Harz","type":"Landkreis"},"federalState":{"key":"15","name":"Sachsen-Anhalt"}},{"name":"Hinzingeröder Str.","postalCode":"38855","locality":"Wernigerode","municipality":{"key":"15085370","name":"Wernigerode, Stadt","type":"Stadt"},"district":{"key":"15085","name":"Harz","type":"Landkreis"},"federalState":{"key":"15","name":"Sachsen-Anhalt"}},{"name":"Hippelhangweg","postalCode":"38855","locality":"Wernigerode","municipality":{"key":"15085370","name":"Wernigerode, Stadt","type":"Stadt"},"district":{"key":"15085","name":"Harz","type":"Landkreis"},"federalState":{"key":"15","name":"Sachsen-Anhalt"}},{"name":"Hirtengasse","postalCode":"38855","locality":"Wernigerode","municipality":{"key":"15085370","name":"Wernigerode, Stadt","type":"Stadt"},"district":{"key":"15085","name":"Harz","type":"Landkreis"},"federalState":{"key":"15","name":"Sachsen-Anhalt"}},{"name":"Hirtenstieg","postalCode":"38879","locality":"Wernigerode","municipality":{"key":"15085370","name":"Wernigerode, Stadt","type":"Stadt"},"district":{"key":"15085","name":"Harz","type":"Landkreis"},"federalState":{"key":"15","name":"Sachsen-Anhalt"}},{"name":"Hohe Warte","postalCode":"38855","locality":"Wernigerode","municipality":{"key":"15085370","name":"Wernigerode, Stadt","type":"Stadt"},"district":{"key":"15085","name":"Harz","type":"Landkreis"},"federalState":{"key":"15","name":"Sachsen-Anhalt"}},{"name":"Holfelder Platz","postalCode":"38855","locality":"Wernigerode","municipality":{"key":"15085370","name":"Wernigerode, Stadt","type":"Stadt"},"district":{"key":"15085","name":"Harz","type":"Landkreis"},"federalState":{"key":"15","name":"Sachsen-Anhalt"}},{"name":"Höllenstieg","postalCode":"38855","locality":"Wernigerode","municipality":{"key":"15085370","name":"Wernigerode, Stadt","type":"Stadt"},"district":{"key":"15085","name":"Harz","type":"Landkreis"},"federalState":{"key":"15","name":"Sachsen-Anhalt"}},{"name":"Holmker Brücke","postalCode":"38855","locality":"Wernigerode","municipality":{"key":"15085370","name":"Wernigerode, Stadt","type":"Stadt"},"district":{"key":"15085","name":"Harz","type":"Landkreis"},"federalState":{"key":"15","name":"Sachsen-Anhalt"}},{"name":"Holtemme-Radweg","postalCode":"38855","locality":"Wernigerode","municipality":{"key":"15085370","name":"Wernigerode, Stadt","type":"Stadt"},"district":{"key":"15085","name":"Harz","type":"Landkreis"},"federalState":{"key":"15","name":"Sachsen-Anhalt"}},{"name":"Holzweg","postalCode":"38855","locality":"Wernigerode","municipality":{"key":"15085370","name":"Wernigerode, Stadt","type":"Stadt"},"district":{"key":"15085","name":"Harz","type":"Landkreis"},"federalState":{"key":"15","name":"Sachsen-Anhalt"}},{"name":"Honigtal-Hangweg","postalCode":"38855","locality":"Wernigerode","municipality":{"key":"15085370","name":"Wernigerode, Stadt","type":"Stadt"},"district":{"key":"15085","name":"Harz","type":"Landkreis"},"federalState":{"key":"15","name":"Sachsen-Anhalt"}},{"name":"Hornstr.","postalCode":"38855","locality":"Wernigerode","municipality":{"key":"15085370","name":"Wernigerode, Stadt","type":"Stadt"},"district":{"key":"15085","name":"Harz","type":"Landkreis"},"federalState":{"key":"15","name":"Sachsen-Anhalt"}},{"name":"Huberstr.","postalCode":"38855","locality":"Wernigerode","municipality":{"key":"15085370","name":"Wernigerode, Stadt","type":"Stadt"},"district":{"key":"15085","name":"Harz","type":"Landkreis"},"federalState":{"key":"15","name":"Sachsen-Anhalt"}},{"name":"Humboldtweg","postalCode":"38855","locality":"Wernigerode","municipality":{"key":"15085370","name":"Wernigerode, Stadt","type":"Stadt"},"district":{"key":"15085","name":"Harz","type":"Landkreis"},"federalState":{"key":"15","name":"Sachsen-Anhalt"}},{"name":"Hundemühle","postalCode":"38855","locality":"Wernigerode","municipality":{"key":"15085370","name":"Wernigerode, Stadt","type":"Stadt"},"district":{"key":"15085","name":"Harz","type":"Landkreis"},"federalState":{"key":"15","name":"Sachsen-Anhalt"}},{"name":"Ilsenburger Str.","postalCode":"38855","locality":"Wernigerode","municipality":{"key":"15085370","name":"Wernigerode, Stadt","type":"Stadt"},"district":{"key":"15085","name":"Harz","type":"Landkreis"},"federalState":{"key":"15","name":"Sachsen-Anhalt"}},{"name":"Im Altenröder Felde","postalCode":"38855","locality":"Wernigerode","municipality":{"key":"15085370","name":"Wernigerode, Stadt","type":"Stadt"},"district":{"key":"15085","name":"Harz","type":"Landkreis"},"federalState":{"key":"15","name":"Sachsen-Anhalt"}},{"name":"Im Bodengarten","postalCode":"38855","locality":"Wernigerode","municipality":{"key":"15085370","name":"Wernigerode, Stadt","type":"Stadt"},"district":{"key":"15085","name":"Harz","type":"Landkreis"},"federalState":{"key":"15","name":"Sachsen-Anhalt"}},{"name":"Im Bruchanger","postalCode":"38855","locality":"Wernigerode","municipality":{"key":"15085370","name":"Wernigerode, Stadt","type":"Stadt"},"district":{"key":"15085","name":"Harz","type":"Landkreis"},"federalState":{"key":"15","name":"Sachsen-Anhalt"}},{"name":"Im Hopfengarten","postalCode":"38855","locality":"Wernigerode","municipality":{"key":"15085370","name":"Wernigerode, Stadt","type":"Stadt"},"district":{"key":"15085","name":"Harz","type":"Landkreis"},"federalState":{"key":"15","name":"Sachsen-Anhalt"}},{"name":"Im langen Schlage","postalCode":"38855","locality":"Wernigerode","municipality":{"key":"15085370","name":"Wernigerode, Stadt","type":"Stadt"},"district":{"key":"15085","name":"Harz","type":"Landkreis"},"federalState":{"key":"15","name":"Sachsen-Anhalt"}},{"name":"Im Lerchenfelde","postalCode":"38855","locality":"Wernigerode","municipality":{"key":"15085370","name":"Wernigerode, Stadt","type":"Stadt"},"district":{"key":"15085","name":"Harz","type":"Landkreis"},"federalState":{"key":"15","name":"Sachsen-Anhalt"}},{"name":"Im Rosenwinkel","postalCode":"38855","locality":"Wernigerode","municipality":{"key":"15085370","name":"Wernigerode, Stadt","type":"Stadt"},"district":{"key":"15085","name":"Harz","type":"Landkreis"},"federalState":{"key":"15","name":"Sachsen-Anhalt"}},{"name":"Im Sieke","postalCode":"38855","locality":"Wernigerode","municipality":{"key":"15085370","name":"Wernigerode, Stadt","type":"Stadt"},"district":{"key":"15085","name":"Harz","type":"Landkreis"},"federalState":{"key":"15","name":"Sachsen-Anhalt"}},{"name":"Im Stadtfelde","postalCode":"38855","locality":"Wernigerode","municipality":{"key":"15085370","name":"Wernigerode, Stadt","type":"Stadt"},"district":{"key":"15085","name":"Harz","type":"Landkreis"},"federalState":{"key":"15","name":"Sachsen-Anhalt"}},{"name":"In den Sauren Wiesen","postalCode":"38855","locality":"Wernigerode","municipality":{"key":"15085370","name":"Wernigerode, Stadt","type":"Stadt"},"district":{"key":"15085","name":"Harz","type":"Landkreis"},"federalState":{"key":"15","name":"Sachsen-Anhalt"}},{"name":"In der Gasse","postalCode":"38879","locality":"Wernigerode","municipality":{"key":"15085370","name":"Wernigerode, Stadt","type":"Stadt"},"district":{"key":"15085","name":"Harz","type":"Landkreis"},"federalState":{"key":"15","name":"Sachsen-Anhalt"}},{"name":"Insel","postalCode":"38855","locality":"Wernigerode","municipality":{"key":"15085370","name":"Wernigerode, Stadt","type":"Stadt"},"district":{"key":"15085","name":"Harz","type":"Landkreis"},"federalState":{"key":"15","name":"Sachsen-Anhalt"}},{"name":"Jägergrund","postalCode":"38855","locality":"Wernigerode","municipality":{"key":"15085370","name":"Wernigerode, Stadt","type":"Stadt"},"district":{"key":"15085","name":"Harz","type":"Landkreis"},"federalState":{"key":"15","name":"Sachsen-Anhalt"}},{"name":"Johannishöfer Weg","postalCode":"38855","locality":"Wernigerode","municipality":{"key":"15085370","name":"Wernigerode, Stadt","type":"Stadt"},"district":{"key":"15085","name":"Harz","type":"Landkreis"},"federalState":{"key":"15","name":"Sachsen-Anhalt"}},{"name":"Johanniskirchweg","postalCode":"38855","locality":"Wernigerode","municipality":{"key":"15085370","name":"Wernigerode, Stadt","type":"Stadt"},"district":{"key":"15085","name":"Harz","type":"Landkreis"},"federalState":{"key":"15","name":"Sachsen-Anhalt"}},{"name":"Johannisstr.","postalCode":"38855","locality":"Wernigerode","municipality":{"key":"15085370","name":"Wernigerode, Stadt","type":"Stadt"},"district":{"key":"15085","name":"Harz","type":"Landkreis"},"federalState":{"key":"15","name":"Sachsen-Anhalt"}},{"name":"Johann-Sebastian-Bach-Str.","postalCode":"38855","locality":"Wernigerode","municipality":{"key":"15085370","name":"Wernigerode, Stadt","type":"Stadt"},"district":{"key":"15085","name":"Harz","type":"Landkreis"},"federalState":{"key":"15","name":"Sachsen-Anhalt"}},{"name":"Kaiserbreite","postalCode":"38855","locality":"Wernigerode","municipality":{"key":"15085370","name":"Wernigerode, Stadt","type":"Stadt"},"district":{"key":"15085","name":"Harz","type":"Landkreis"},"federalState":{"key":"15","name":"Sachsen-Anhalt"}},{"name":"Kaiserweg","postalCode":"38855","locality":"Wernigerode","municipality":{"key":"15085370","name":"Wernigerode, Stadt","type":"Stadt"},"district":{"key":"15085","name":"Harz","type":"Landkreis"},"federalState":{"key":"15","name":"Sachsen-Anhalt"}},{"name":"Kalkhüttenweg","postalCode":"38855","locality":"Wernigerode","municipality":{"key":"15085370","name":"Wernigerode, Stadt","type":"Stadt"},"district":{"key":"15085","name":"Harz","type":"Landkreis"},"federalState":{"key":"15","name":"Sachsen-Anhalt"}},{"name":"Kaltes Tal","postalCode":"38855","locality":"Wernigerode","municipality":{"key":"15085370","name":"Wernigerode, Stadt","type":"Stadt"},"district":{"key":"15085","name":"Harz","type":"Landkreis"},"federalState":{"key":"15","name":"Sachsen-Anhalt"}},{"name":"Kammweg","postalCode":"38855","locality":"Wernigerode","municipality":{"key":"15085370","name":"Wernigerode, Stadt","type":"Stadt"},"district":{"key":"15085","name":"Harz","type":"Landkreis"},"federalState":{"key":"15","name":"Sachsen-Anhalt"}},{"name":"Kantstr.","postalCode":"38855","locality":"Wernigerode","municipality":{"key":"15085370","name":"Wernigerode, Stadt","type":"Stadt"},"district":{"key":"15085","name":"Harz","type":"Landkreis"},"federalState":{"key":"15","name":"Sachsen-Anhalt"}},{"name":"Kanzleistr.","postalCode":"38855","locality":"Wernigerode","municipality":{"key":"15085370","name":"Wernigerode, Stadt","type":"Stadt"},"district":{"key":"15085","name":"Harz","type":"Landkreis"},"federalState":{"key":"15","name":"Sachsen-Anhalt"}},{"name":"Kapitelsberg","postalCode":"38855","locality":"Wernigerode","municipality":{"key":"15085370","name":"Wernigerode, Stadt","type":"Stadt"},"district":{"key":"15085","name":"Harz","type":"Landkreis"},"federalState":{"key":"15","name":"Sachsen-Anhalt"}},{"name":"Karl-Liebknecht-Str.","postalCode":"38855","locality":"Wernigerode","municipality":{"key":"15085370","name":"Wernigerode, Stadt","type":"Stadt"},"district":{"key":"15085","name":"Harz","type":"Landkreis"},"federalState":{"key":"15","name":"Sachsen-Anhalt"}},{"name":"Karl-Marx-Str.","postalCode":"38855","locality":"Wernigerode","municipality":{"key":"15085370","name":"Wernigerode, Stadt","type":"Stadt"},"district":{"key":"15085","name":"Harz","type":"Landkreis"},"federalState":{"key":"15","name":"Sachsen-Anhalt"}},{"name":"Karlstr.","postalCode":"38855","locality":"Wernigerode","municipality":{"key":"15085370","name":"Wernigerode, Stadt","type":"Stadt"},"district":{"key":"15085","name":"Harz","type":"Landkreis"},"federalState":{"key":"15","name":"Sachsen-Anhalt"}},{"name":"Karl-Wernicke-Platz","postalCode":"38855","locality":"Wernigerode","municipality":{"key":"15085370","name":"Wernigerode, Stadt","type":"Stadt"},"district":{"key":"15085","name":"Harz","type":"Landkreis"},"federalState":{"key":"15","name":"Sachsen-Anhalt"}},{"name":"Karnatzkistr.","postalCode":"38855","locality":"Wernigerode","municipality":{"key":"15085370","name":"Wernigerode, Stadt","type":"Stadt"},"district":{"key":"15085","name":"Harz","type":"Landkreis"},"federalState":{"key":"15","name":"Sachsen-Anhalt"}},{"name":"Karolinengarten","postalCode":"38855","locality":"Wernigerode","municipality":{"key":"15085370","name":"Wernigerode, Stadt","type":"Stadt"},"district":{"key":"15085","name":"Harz","type":"Landkreis"},"federalState":{"key":"15","name":"Sachsen-Anhalt"}},{"name":"Kastanienplatz","postalCode":"38855","locality":"Wernigerode","municipality":{"key":"15085370","name":"Wernigerode, Stadt","type":"Stadt"},"district":{"key":"15085","name":"Harz","type":"Landkreis"},"federalState":{"key":"15","name":"Sachsen-Anhalt"}},{"name":"Käthe-Kollwitz-Str.","postalCode":"38855","locality":"Wernigerode","municipality":{"key":"15085370","name":"Wernigerode, Stadt","type":"Stadt"},"district":{"key":"15085","name":"Harz","type":"Landkreis"},"federalState":{"key":"15","name":"Sachsen-Anhalt"}},{"name":"Kemmestr.","postalCode":"38855","locality":"Wernigerode","municipality":{"key":"15085370","name":"Wernigerode, Stadt","type":"Stadt"},"district":{"key":"15085","name":"Harz","type":"Landkreis"},"federalState":{"key":"15","name":"Sachsen-Anhalt"}},{"name":"Kesselmühlenstr.","postalCode":"38855","locality":"Wernigerode","municipality":{"key":"15085370","name":"Wernigerode, Stadt","type":"Stadt"},"district":{"key":"15085","name":"Harz","type":"Landkreis"},"federalState":{"key":"15","name":"Sachsen-Anhalt"}},{"name":"Kirchberg","postalCode":"38879","locality":"Wernigerode","municipality":{"key":"15085370","name":"Wernigerode, Stadt","type":"Stadt"},"district":{"key":"15085","name":"Harz","type":"Landkreis"},"federalState":{"key":"15","name":"Sachsen-Anhalt"}},{"name":"Kirchstieg","postalCode":"38875","locality":"Wernigerode","municipality":{"key":"15085370","name":"Wernigerode, Stadt","type":"Stadt"},"district":{"key":"15085","name":"Harz","type":"Landkreis"},"federalState":{"key":"15","name":"Sachsen-Anhalt"}},{"name":"Kirchstr.","postalCode":"38855","locality":"Wernigerode","municipality":{"key":"15085370","name":"Wernigerode, Stadt","type":"Stadt"},"district":{"key":"15085","name":"Harz","type":"Landkreis"},"federalState":{"key":"15","name":"Sachsen-Anhalt"}},{"name":"Kirschweg","postalCode":"38855","locality":"Wernigerode","municipality":{"key":"15085370","name":"Wernigerode, Stadt","type":"Stadt"},"district":{"key":"15085","name":"Harz","type":"Landkreis"},"federalState":{"key":"15","name":"Sachsen-Anhalt"}},{"name":"Kleine Bergstr.","postalCode":"38855","locality":"Wernigerode","municipality":{"key":"15085370","name":"Wernigerode, Stadt","type":"Stadt"},"district":{"key":"15085","name":"Harz","type":"Landkreis"},"federalState":{"key":"15","name":"Sachsen-Anhalt"}},{"name":"Kleine Dammstr.","postalCode":"38855","locality":"Wernigerode","municipality":{"key":"15085370","name":"Wernigerode, Stadt","type":"Stadt"},"district":{"key":"15085","name":"Harz","type":"Landkreis"},"federalState":{"key":"15","name":"Sachsen-Anhalt"}},{"name":"Kleiner Christianentalweg","postalCode":"38855","locality":"Wernigerode","municipality":{"key":"15085370","name":"Wernigerode, Stadt","type":"Stadt"},"district":{"key":"15085","name":"Harz","type":"Landkreis"},"federalState":{"key":"15","name":"Sachsen-Anhalt"}},{"name":"Kleine Schenkstr.","postalCode":"38855","locality":"Wernigerode","municipality":{"key":"15085370","name":"Wernigerode, Stadt","type":"Stadt"},"district":{"key":"15085","name":"Harz","type":"Landkreis"},"federalState":{"key":"15","name":"Sachsen-Anhalt"}},{"name":"Kleines Pfaffental","postalCode":"38855","locality":"Wernigerode","municipality":{"key":"15085370","name":"Wernigerode, Stadt","type":"Stadt"},"district":{"key":"15085","name":"Harz","type":"Landkreis"},"federalState":{"key":"15","name":"Sachsen-Anhalt"}},{"name":"Kleine Ziegelstr.","postalCode":"38855","locality":"Wernigerode","municipality":{"key":"15085370","name":"Wernigerode, Stadt","type":"Stadt"},"district":{"key":"15085","name":"Harz","type":"Landkreis"},"federalState":{"key":"15","name":"Sachsen-Anhalt"}},{"name":"Klint","postalCode":"38855","locality":"Wernigerode","municipality":{"key":"15085370","name":"Wernigerode, Stadt","type":"Stadt"},"district":{"key":"15085","name":"Harz","type":"Landkreis"},"federalState":{"key":"15","name":"Sachsen-Anhalt"}},{"name":"Klintgasse","postalCode":"38855","locality":"Wernigerode","municipality":{"key":"15085370","name":"Wernigerode, Stadt","type":"Stadt"},"district":{"key":"15085","name":"Harz","type":"Landkreis"},"federalState":{"key":"15","name":"Sachsen-Anhalt"}},{"name":"Knickweg","postalCode":"38855","locality":"Wernigerode","municipality":{"key":"15085370","name":"Wernigerode, Stadt","type":"Stadt"},"district":{"key":"15085","name":"Harz","type":"Landkreis"},"federalState":{"key":"15","name":"Sachsen-Anhalt"}},{"name":"Kochstr.","postalCode":"38855","locality":"Wernigerode","municipality":{"key":"15085370","name":"Wernigerode, Stadt","type":"Stadt"},"district":{"key":"15085","name":"Harz","type":"Landkreis"},"federalState":{"key":"15","name":"Sachsen-Anhalt"}},{"name":"Kohlgartenstr.","postalCode":"38855","locality":"Wernigerode","municipality":{"key":"15085370","name":"Wernigerode, Stadt","type":"Stadt"},"district":{"key":"15085","name":"Harz","type":"Landkreis"},"federalState":{"key":"15","name":"Sachsen-Anhalt"}},{"name":"Kohlmarkt","postalCode":"38855","locality":"Wernigerode","municipality":{"key":"15085370","name":"Wernigerode, Stadt","type":"Stadt"},"district":{"key":"15085","name":"Harz","type":"Landkreis"},"federalState":{"key":"15","name":"Sachsen-Anhalt"}},{"name":"Kohlstieg","postalCode":"38855","locality":"Wernigerode","municipality":{"key":"15085370","name":"Wernigerode, Stadt","type":"Stadt"},"district":{"key":"15085","name":"Harz","type":"Landkreis"},"federalState":{"key":"15","name":"Sachsen-Anhalt"}},{"name":"Königsweg","postalCode":"38855","locality":"Wernigerode","municipality":{"key":"15085370","name":"Wernigerode, Stadt","type":"Stadt"},"district":{"key":"15085","name":"Harz","type":"Landkreis"},"federalState":{"key":"15","name":"Sachsen-Anhalt"}},{"name":"Kopernikusstr.","postalCode":"38855","locality":"Wernigerode","municipality":{"key":"15085370","name":"Wernigerode, Stadt","type":"Stadt"},"district":{"key":"15085","name":"Harz","type":"Landkreis"},"federalState":{"key":"15","name":"Sachsen-Anhalt"}},{"name":"Kratzensteinring","postalCode":"38855","locality":"Wernigerode","municipality":{"key":"15085370","name":"Wernigerode, Stadt","type":"Stadt"},"district":{"key":"15085","name":"Harz","type":"Landkreis"},"federalState":{"key":"15","name":"Sachsen-Anhalt"}},{"name":"Krausestr.","postalCode":"38855","locality":"Wernigerode","municipality":{"key":"15085370","name":"Wernigerode, Stadt","type":"Stadt"},"district":{"key":"15085","name":"Harz","type":"Landkreis"},"federalState":{"key":"15","name":"Sachsen-Anhalt"}},{"name":"Kreuzberg","postalCode":"38855","locality":"Wernigerode","municipality":{"key":"15085370","name":"Wernigerode, Stadt","type":"Stadt"},"district":{"key":"15085","name":"Harz","type":"Landkreis"},"federalState":{"key":"15","name":"Sachsen-Anhalt"}},{"name":"Krugberg","postalCode":"38855","locality":"Wernigerode","municipality":{"key":"15085370","name":"Wernigerode, Stadt","type":"Stadt"},"district":{"key":"15085","name":"Harz","type":"Landkreis"},"federalState":{"key":"15","name":"Sachsen-Anhalt"}},{"name":"Kruskastr.","postalCode":"38855","locality":"Wernigerode","municipality":{"key":"15085370","name":"Wernigerode, Stadt","type":"Stadt"},"district":{"key":"15085","name":"Harz","type":"Landkreis"},"federalState":{"key":"15","name":"Sachsen-Anhalt"}},{"name":"Kuhgasse","postalCode":"38855","locality":"Wernigerode","municipality":{"key":"15085370","name":"Wernigerode, Stadt","type":"Stadt"},"district":{"key":"15085","name":"Harz","type":"Landkreis"},"federalState":{"key":"15","name":"Sachsen-Anhalt"}},{"name":"Kühnekopfweg","postalCode":"38855","locality":"Wernigerode","municipality":{"key":"15085370","name":"Wernigerode, Stadt","type":"Stadt"},"district":{"key":"15085","name":"Harz","type":"Landkreis"},"federalState":{"key":"15","name":"Sachsen-Anhalt"}},{"name":"Kuntzscher Garten","postalCode":"38855","locality":"Wernigerode","municipality":{"key":"15085370","name":"Wernigerode, Stadt","type":"Stadt"},"district":{"key":"15085","name":"Harz","type":"Landkreis"},"federalState":{"key":"15","name":"Sachsen-Anhalt"}},{"name":"Kurzer Stieg","postalCode":"38855","locality":"Wernigerode","municipality":{"key":"15085370","name":"Wernigerode, Stadt","type":"Stadt"},"district":{"key":"15085","name":"Harz","type":"Landkreis"},"federalState":{"key":"15","name":"Sachsen-Anhalt"}},{"name":"Lange Bruch Chaussee","postalCode":"38855","locality":"Wernigerode","municipality":{"key":"15085370","name":"Wernigerode, Stadt","type":"Stadt"},"district":{"key":"15085","name":"Harz","type":"Landkreis"},"federalState":{"key":"15","name":"Sachsen-Anhalt"}},{"name":"Lange Bruch Chaussee","postalCode":"38875","locality":"Wernigerode","municipality":{"key":"15085370","name":"Wernigerode, Stadt","type":"Stadt"},"district":{"key":"15085","name":"Harz","type":"Landkreis"},"federalState":{"key":"15","name":"Sachsen-Anhalt"}},{"name":"Langer Stieg","postalCode":"38855","locality":"Wernigerode","municipality":{"key":"15085370","name":"Wernigerode, Stadt","type":"Stadt"},"district":{"key":"15085","name":"Harz","type":"Landkreis"},"federalState":{"key":"15","name":"Sachsen-Anhalt"}},{"name":"Leitweg","postalCode":"38855","locality":"Wernigerode","municipality":{"key":"15085370","name":"Wernigerode, Stadt","type":"Stadt"},"district":{"key":"15085","name":"Harz","type":"Landkreis"},"federalState":{"key":"15","name":"Sachsen-Anhalt"}},{"name":"Lessingstr.","postalCode":"38855","locality":"Wernigerode","municipality":{"key":"15085370","name":"Wernigerode, Stadt","type":"Stadt"},"district":{"key":"15085","name":"Harz","type":"Landkreis"},"federalState":{"key":"15","name":"Sachsen-Anhalt"}},{"name":"Liebfrauenkirchhof","postalCode":"38855","locality":"Wernigerode","municipality":{"key":"15085370","name":"Wernigerode, Stadt","type":"Stadt"},"district":{"key":"15085","name":"Harz","type":"Landkreis"},"federalState":{"key":"15","name":"Sachsen-Anhalt"}},{"name":"Ligusterweg","postalCode":"38855","locality":"Wernigerode","municipality":{"key":"15085370","name":"Wernigerode, Stadt","type":"Stadt"},"district":{"key":"15085","name":"Harz","type":"Landkreis"},"federalState":{"key":"15","name":"Sachsen-Anhalt"}},{"name":"Lindenallee","postalCode":"38855","locality":"Wernigerode","municipality":{"key":"15085370","name":"Wernigerode, Stadt","type":"Stadt"},"district":{"key":"15085","name":"Harz","type":"Landkreis"},"federalState":{"key":"15","name":"Sachsen-Anhalt"}},{"name":"Lindenbergstr.","postalCode":"38855","locality":"Wernigerode","municipality":{"key":"15085370","name":"Wernigerode, Stadt","type":"Stadt"},"district":{"key":"15085","name":"Harz","type":"Landkreis"},"federalState":{"key":"15","name":"Sachsen-Anhalt"}},{"name":"Lindenhof","postalCode":"38855","locality":"Wernigerode","municipality":{"key":"15085370","name":"Wernigerode, Stadt","type":"Stadt"},"district":{"key":"15085","name":"Harz","type":"Landkreis"},"federalState":{"key":"15","name":"Sachsen-Anhalt"}},{"name":"Lossenweg","postalCode":"38855","locality":"Wernigerode","municipality":{"key":"15085370","name":"Wernigerode, Stadt","type":"Stadt"},"district":{"key":"15085","name":"Harz","type":"Landkreis"},"federalState":{"key":"15","name":"Sachsen-Anhalt"}},{"name":"Louis-Braille-Str.","postalCode":"38855","locality":"Wernigerode","municipality":{"key":"15085370","name":"Wernigerode, Stadt","type":"Stadt"},"district":{"key":"15085","name":"Harz","type":"Landkreis"},"federalState":{"key":"15","name":"Sachsen-Anhalt"}},{"name":"Ludwig-Uhland-Weg","postalCode":"38855","locality":"Wernigerode","municipality":{"key":"15085370","name":"Wernigerode, Stadt","type":"Stadt"},"district":{"key":"15085","name":"Harz","type":"Landkreis"},"federalState":{"key":"15","name":"Sachsen-Anhalt"}},{"name":"Luisental","postalCode":"38855","locality":"Wernigerode","municipality":{"key":"15085370","name":"Wernigerode, Stadt","type":"Stadt"},"district":{"key":"15085","name":"Harz","type":"Landkreis"},"federalState":{"key":"15","name":"Sachsen-Anhalt"}},{"name":"Lustgarten","postalCode":"38855","locality":"Wernigerode","municipality":{"key":"15085370","name":"Wernigerode, Stadt","type":"Stadt"},"district":{"key":"15085","name":"Harz","type":"Landkreis"},"federalState":{"key":"15","name":"Sachsen-Anhalt"}},{"name":"Lutherstr.","postalCode":"38855","locality":"Wernigerode","municipality":{"key":"15085370","name":"Wernigerode, Stadt","type":"Stadt"},"district":{"key":"15085","name":"Harz","type":"Landkreis"},"federalState":{"key":"15","name":"Sachsen-Anhalt"}},{"name":"Lüttgenfeldstr.","postalCode":"38855","locality":"Wernigerode","municipality":{"key":"15085370","name":"Wernigerode, Stadt","type":"Stadt"},"district":{"key":"15085","name":"Harz","type":"Landkreis"},"federalState":{"key":"15","name":"Sachsen-Anhalt"}},{"name":"Maerkerstieg","postalCode":"38855","locality":"Wernigerode","municipality":{"key":"15085370","name":"Wernigerode, Stadt","type":"Stadt"},"district":{"key":"15085","name":"Harz","type":"Landkreis"},"federalState":{"key":"15","name":"Sachsen-Anhalt"}},{"name":"Mannsbergstr.","postalCode":"38855","locality":"Wernigerode","municipality":{"key":"15085370","name":"Wernigerode, Stadt","type":"Stadt"},"district":{"key":"15085","name":"Harz","type":"Landkreis"},"federalState":{"key":"15","name":"Sachsen-Anhalt"}},{"name":"Marienweg","postalCode":"38855","locality":"Wernigerode","municipality":{"key":"15085370","name":"Wernigerode, Stadt","type":"Stadt"},"district":{"key":"15085","name":"Harz","type":"Landkreis"},"federalState":{"key":"15","name":"Sachsen-Anhalt"}},{"name":"Marklingeröder Str.","postalCode":"38855","locality":"Wernigerode","municipality":{"key":"15085370","name":"Wernigerode, Stadt","type":"Stadt"},"district":{"key":"15085","name":"Harz","type":"Landkreis"},"federalState":{"key":"15","name":"Sachsen-Anhalt"}},{"name":"Marktstr.","postalCode":"38855","locality":"Wernigerode","municipality":{"key":"15085370","name":"Wernigerode, Stadt","type":"Stadt"},"district":{"key":"15085","name":"Harz","type":"Landkreis"},"federalState":{"key":"15","name":"Sachsen-Anhalt"}},{"name":"Martin-Heinrich-Klaproth-Str.","postalCode":"38855","locality":"Wernigerode","municipality":{"key":"15085370","name":"Wernigerode, Stadt","type":"Stadt"},"district":{"key":"15085","name":"Harz","type":"Landkreis"},"federalState":{"key":"15","name":"Sachsen-Anhalt"}},{"name":"Maschstr.","postalCode":"38855","locality":"Wernigerode","municipality":{"key":"15085370","name":"Wernigerode, Stadt","type":"Stadt"},"district":{"key":"15085","name":"Harz","type":"Landkreis"},"federalState":{"key":"15","name":"Sachsen-Anhalt"}},{"name":"Mauergasse","postalCode":"38855","locality":"Wernigerode","municipality":{"key":"15085370","name":"Wernigerode, Stadt","type":"Stadt"},"district":{"key":"15085","name":"Harz","type":"Landkreis"},"federalState":{"key":"15","name":"Sachsen-Anhalt"}},{"name":"Max-Otto-Str.","postalCode":"38855","locality":"Wernigerode","municipality":{"key":"15085370","name":"Wernigerode, Stadt","type":"Stadt"},"district":{"key":"15085","name":"Harz","type":"Landkreis"},"federalState":{"key":"15","name":"Sachsen-Anhalt"}},{"name":"Max-Planck-Str.","postalCode":"38855","locality":"Wernigerode","municipality":{"key":"15085370","name":"Wernigerode, Stadt","type":"Stadt"},"district":{"key":"15085","name":"Harz","type":"Landkreis"},"federalState":{"key":"15","name":"Sachsen-Anhalt"}},{"name":"Mettestr.","postalCode":"38855","locality":"Wernigerode","municipality":{"key":"15085370","name":"Wernigerode, Stadt","type":"Stadt"},"district":{"key":"15085","name":"Harz","type":"Landkreis"},"federalState":{"key":"15","name":"Sachsen-Anhalt"}},{"name":"Mineralienschlucht","postalCode":"38855","locality":"Wernigerode","municipality":{"key":"15085370","name":"Wernigerode, Stadt","type":"Stadt"},"district":{"key":"15085","name":"Harz","type":"Landkreis"},"federalState":{"key":"15","name":"Sachsen-Anhalt"}},{"name":"Minslebener Str.","postalCode":"38855","locality":"Wernigerode","municipality":{"key":"15085370","name":"Wernigerode, Stadt","type":"Stadt"},"district":{"key":"15085","name":"Harz","type":"Landkreis"},"federalState":{"key":"15","name":"Sachsen-Anhalt"}},{"name":"Mittelstr.","postalCode":"38855","locality":"Wernigerode","municipality":{"key":"15085370","name":"Wernigerode, Stadt","type":"Stadt"},"district":{"key":"15085","name":"Harz","type":"Landkreis"},"federalState":{"key":"15","name":"Sachsen-Anhalt"}},{"name":"Mitteltor","postalCode":"38855","locality":"Wernigerode","municipality":{"key":"15085370","name":"Wernigerode, Stadt","type":"Stadt"},"district":{"key":"15085","name":"Harz","type":"Landkreis"},"federalState":{"key":"15","name":"Sachsen-Anhalt"}},{"name":"Molkenhaus-Chaussee","postalCode":"38855","locality":"Wernigerode","municipality":{"key":"15085370","name":"Wernigerode, Stadt","type":"Stadt"},"district":{"key":"15085","name":"Harz","type":"Landkreis"},"federalState":{"key":"15","name":"Sachsen-Anhalt"}},{"name":"Mönchstieg","postalCode":"38855","locality":"Wernigerode","municipality":{"key":"15085370","name":"Wernigerode, Stadt","type":"Stadt"},"district":{"key":"15085","name":"Harz","type":"Landkreis"},"federalState":{"key":"15","name":"Sachsen-Anhalt"}},{"name":"Mühlensteg","postalCode":"38855","locality":"Wernigerode","municipality":{"key":"15085370","name":"Wernigerode, Stadt","type":"Stadt"},"district":{"key":"15085","name":"Harz","type":"Landkreis"},"federalState":{"key":"15","name":"Sachsen-Anhalt"}},{"name":"Mühlenstr.","postalCode":"38855","locality":"Wernigerode","municipality":{"key":"15085370","name":"Wernigerode, Stadt","type":"Stadt"},"district":{"key":"15085","name":"Harz","type":"Landkreis"},"federalState":{"key":"15","name":"Sachsen-Anhalt"}},{"name":"Mühlental","postalCode":"38855","locality":"Wernigerode","municipality":{"key":"15085370","name":"Wernigerode, Stadt","type":"Stadt"},"district":{"key":"15085","name":"Harz","type":"Landkreis"},"federalState":{"key":"15","name":"Sachsen-Anhalt"}},{"name":"Muhlstieg","postalCode":"38855","locality":"Wernigerode","municipality":{"key":"15085370","name":"Wernigerode, Stadt","type":"Stadt"},"district":{"key":"15085","name":"Harz","type":"Landkreis"},"federalState":{"key":"15","name":"Sachsen-Anhalt"}},{"name":"Müllergasse","postalCode":"38855","locality":"Wernigerode","municipality":{"key":"15085370","name":"Wernigerode, Stadt","type":"Stadt"},"district":{"key":"15085","name":"Harz","type":"Landkreis"},"federalState":{"key":"15","name":"Sachsen-Anhalt"}},{"name":"Nesseltal","postalCode":"38855","locality":"Wernigerode","municipality":{"key":"15085370","name":"Wernigerode, Stadt","type":"Stadt"},"district":{"key":"15085","name":"Harz","type":"Landkreis"},"federalState":{"key":"15","name":"Sachsen-Anhalt"}},{"name":"Neue Mühle","postalCode":"38855","locality":"Wernigerode","municipality":{"key":"15085370","name":"Wernigerode, Stadt","type":"Stadt"},"district":{"key":"15085","name":"Harz","type":"Landkreis"},"federalState":{"key":"15","name":"Sachsen-Anhalt"}},{"name":"Neuer Goetheweg","postalCode":"38879","locality":"Wernigerode","municipality":{"key":"15085370","name":"Wernigerode, Stadt","type":"Stadt"},"district":{"key":"15085","name":"Harz","type":"Landkreis"},"federalState":{"key":"15","name":"Sachsen-Anhalt"}},{"name":"Neuer Heeg","postalCode":"38855","locality":"Wernigerode","municipality":{"key":"15085370","name":"Wernigerode, Stadt","type":"Stadt"},"district":{"key":"15085","name":"Harz","type":"Landkreis"},"federalState":{"key":"15","name":"Sachsen-Anhalt"}},{"name":"Neuer Markt","postalCode":"38855","locality":"Wernigerode","municipality":{"key":"15085370","name":"Wernigerode, Stadt","type":"Stadt"},"district":{"key":"15085","name":"Harz","type":"Landkreis"},"federalState":{"key":"15","name":"Sachsen-Anhalt"}},{"name":"Neuer Weg","postalCode":"38879","locality":"Wernigerode","municipality":{"key":"15085370","name":"Wernigerode, Stadt","type":"Stadt"},"district":{"key":"15085","name":"Harz","type":"Landkreis"},"federalState":{"key":"15","name":"Sachsen-Anhalt"}},{"name":"Neustadter Ring","postalCode":"38855","locality":"Wernigerode","municipality":{"key":"15085370","name":"Wernigerode, Stadt","type":"Stadt"},"district":{"key":"15085","name":"Harz","type":"Landkreis"},"federalState":{"key":"15","name":"Sachsen-Anhalt"}},{"name":"Nicolaiplatz","postalCode":"38855","locality":"Wernigerode","municipality":{"key":"15085370","name":"Wernigerode, Stadt","type":"Stadt"},"district":{"key":"15085","name":"Harz","type":"Landkreis"},"federalState":{"key":"15","name":"Sachsen-Anhalt"}},{"name":"Nöschenröder Hangweg","postalCode":"38855","locality":"Wernigerode","municipality":{"key":"15085370","name":"Wernigerode, Stadt","type":"Stadt"},"district":{"key":"15085","name":"Harz","type":"Landkreis"},"federalState":{"key":"15","name":"Sachsen-Anhalt"}},{"name":"Nöschenröder Str.","postalCode":"38855","locality":"Wernigerode","municipality":{"key":"15085370","name":"Wernigerode, Stadt","type":"Stadt"},"district":{"key":"15085","name":"Harz","type":"Landkreis"},"federalState":{"key":"15","name":"Sachsen-Anhalt"}},{"name":"Oberengengasse","postalCode":"38855","locality":"Wernigerode","municipality":{"key":"15085370","name":"Wernigerode, Stadt","type":"Stadt"},"district":{"key":"15085","name":"Harz","type":"Landkreis"},"federalState":{"key":"15","name":"Sachsen-Anhalt"}},{"name":"oberer Brücknerstieg","postalCode":"38855","locality":"Wernigerode","municipality":{"key":"15085370","name":"Wernigerode, Stadt","type":"Stadt"},"district":{"key":"15085","name":"Harz","type":"Landkreis"},"federalState":{"key":"15","name":"Sachsen-Anhalt"}},{"name":"Oberer Hohnekammhangweg","postalCode":"38875","locality":"Wernigerode","municipality":{"key":"15085370","name":"Wernigerode, Stadt","type":"Stadt"},"district":{"key":"15085","name":"Harz","type":"Landkreis"},"federalState":{"key":"15","name":"Sachsen-Anhalt"}},{"name":"Oberer Königsberger Weg","postalCode":"38879","locality":"Wernigerode","municipality":{"key":"15085370","name":"Wernigerode, Stadt","type":"Stadt"},"district":{"key":"15085","name":"Harz","type":"Landkreis"},"federalState":{"key":"15","name":"Sachsen-Anhalt"}},{"name":"Oberförster-Hermanns-Weg","postalCode":"38855","locality":"Wernigerode","municipality":{"key":"15085370","name":"Wernigerode, Stadt","type":"Stadt"},"district":{"key":"15085","name":"Harz","type":"Landkreis"},"federalState":{"key":"15","name":"Sachsen-Anhalt"}},{"name":"Oberförster-Koch-Weg","postalCode":"38855","locality":"Wernigerode","municipality":{"key":"15085370","name":"Wernigerode, Stadt","type":"Stadt"},"district":{"key":"15085","name":"Harz","type":"Landkreis"},"federalState":{"key":"15","name":"Sachsen-Anhalt"}},{"name":"Oberhof","postalCode":"38855","locality":"Wernigerode","municipality":{"key":"15085370","name":"Wernigerode, Stadt","type":"Stadt"},"district":{"key":"15085","name":"Harz","type":"Landkreis"},"federalState":{"key":"15","name":"Sachsen-Anhalt"}},{"name":"Oberpfarrkirchhof","postalCode":"38855","locality":"Wernigerode","municipality":{"key":"15085370","name":"Wernigerode, Stadt","type":"Stadt"},"district":{"key":"15085","name":"Harz","type":"Landkreis"},"federalState":{"key":"15","name":"Sachsen-Anhalt"}},{"name":"Ochsenteichstr.","postalCode":"38855","locality":"Wernigerode","municipality":{"key":"15085370","name":"Wernigerode, Stadt","type":"Stadt"},"district":{"key":"15085","name":"Harz","type":"Landkreis"},"federalState":{"key":"15","name":"Sachsen-Anhalt"}},{"name":"Organistenstr.","postalCode":"38855","locality":"Wernigerode","municipality":{"key":"15085370","name":"Wernigerode, Stadt","type":"Stadt"},"district":{"key":"15085","name":"Harz","type":"Landkreis"},"federalState":{"key":"15","name":"Sachsen-Anhalt"}},{"name":"Otto-von-Guericke-Str.","postalCode":"38855","locality":"Wernigerode","municipality":{"key":"15085370","name":"Wernigerode, Stadt","type":"Stadt"},"district":{"key":"15085","name":"Harz","type":"Landkreis"},"federalState":{"key":"15","name":"Sachsen-Anhalt"}},{"name":"Ottoweg","postalCode":"38879","locality":"Wernigerode","municipality":{"key":"15085370","name":"Wernigerode, Stadt","type":"Stadt"},"district":{"key":"15085","name":"Harz","type":"Landkreis"},"federalState":{"key":"15","name":"Sachsen-Anhalt"}},{"name":"Pahnberghangweg","postalCode":"38855","locality":"Wernigerode","municipality":{"key":"15085370","name":"Wernigerode, Stadt","type":"Stadt"},"district":{"key":"15085","name":"Harz","type":"Landkreis"},"federalState":{"key":"15","name":"Sachsen-Anhalt"}},{"name":"Papental","postalCode":"38855","locality":"Wernigerode","municipality":{"key":"15085370","name":"Wernigerode, Stadt","type":"Stadt"},"district":{"key":"15085","name":"Harz","type":"Landkreis"},"federalState":{"key":"15","name":"Sachsen-Anhalt"}},{"name":"Pappelweg","postalCode":"38855","locality":"Wernigerode","municipality":{"key":"15085370","name":"Wernigerode, Stadt","type":"Stadt"},"district":{"key":"15085","name":"Harz","type":"Landkreis"},"federalState":{"key":"15","name":"Sachsen-Anhalt"}},{"name":"Petersberg","postalCode":"38855","locality":"Wernigerode","municipality":{"key":"15085370","name":"Wernigerode, Stadt","type":"Stadt"},"district":{"key":"15085","name":"Harz","type":"Landkreis"},"federalState":{"key":"15","name":"Sachsen-Anhalt"}},{"name":"Pfälzergasse","postalCode":"38855","locality":"Wernigerode","municipality":{"key":"15085370","name":"Wernigerode, Stadt","type":"Stadt"},"district":{"key":"15085","name":"Harz","type":"Landkreis"},"federalState":{"key":"15","name":"Sachsen-Anhalt"}},{"name":"Pfarrstr.","postalCode":"38855","locality":"Wernigerode","municipality":{"key":"15085370","name":"Wernigerode, Stadt","type":"Stadt"},"district":{"key":"15085","name":"Harz","type":"Landkreis"},"federalState":{"key":"15","name":"Sachsen-Anhalt"}},{"name":"Pfingstgras","postalCode":"38855","locality":"Wernigerode","municipality":{"key":"15085370","name":"Wernigerode, Stadt","type":"Stadt"},"district":{"key":"15085","name":"Harz","type":"Landkreis"},"federalState":{"key":"15","name":"Sachsen-Anhalt"}},{"name":"Piepergrund","postalCode":"38855","locality":"Wernigerode","municipality":{"key":"15085370","name":"Wernigerode, Stadt","type":"Stadt"},"district":{"key":"15085","name":"Harz","type":"Landkreis"},"federalState":{"key":"15","name":"Sachsen-Anhalt"}},{"name":"Pisseckenweg","postalCode":"38855","locality":"Wernigerode","municipality":{"key":"15085370","name":"Wernigerode, Stadt","type":"Stadt"},"district":{"key":"15085","name":"Harz","type":"Landkreis"},"federalState":{"key":"15","name":"Sachsen-Anhalt"}},{"name":"Plan","postalCode":"38855","locality":"Wernigerode","municipality":{"key":"15085370","name":"Wernigerode, Stadt","type":"Stadt"},"district":{"key":"15085","name":"Harz","type":"Landkreis"},"federalState":{"key":"15","name":"Sachsen-Anhalt"}},{"name":"Plemnitzstr.","postalCode":"38855","locality":"Wernigerode","municipality":{"key":"15085370","name":"Wernigerode, Stadt","type":"Stadt"},"district":{"key":"15085","name":"Harz","type":"Landkreis"},"federalState":{"key":"15","name":"Sachsen-Anhalt"}},{"name":"Privatweg","postalCode":"38855","locality":"Wernigerode","municipality":{"key":"15085370","name":"Wernigerode, Stadt","type":"Stadt"},"district":{"key":"15085","name":"Harz","type":"Landkreis"},"federalState":{"key":"15","name":"Sachsen-Anhalt"}},{"name":"Promenade","postalCode":"38855","locality":"Wernigerode","municipality":{"key":"15085370","name":"Wernigerode, Stadt","type":"Stadt"},"district":{"key":"15085","name":"Harz","type":"Landkreis"},"federalState":{"key":"15","name":"Sachsen-Anhalt"}},{"name":"Pulvergarten","postalCode":"38855","locality":"Wernigerode","municipality":{"key":"15085370","name":"Wernigerode, Stadt","type":"Stadt"},"district":{"key":"15085","name":"Harz","type":"Landkreis"},"federalState":{"key":"15","name":"Sachsen-Anhalt"}},{"name":"Quergasse","postalCode":"38855","locality":"Wernigerode","municipality":{"key":"15085370","name":"Wernigerode, Stadt","type":"Stadt"},"district":{"key":"15085","name":"Harz","type":"Landkreis"},"federalState":{"key":"15","name":"Sachsen-Anhalt"}},{"name":"Reddeberweg","postalCode":"38855","locality":"Wernigerode","municipality":{"key":"15085370","name":"Wernigerode, Stadt","type":"Stadt"},"district":{"key":"15085","name":"Harz","type":"Landkreis"},"federalState":{"key":"15","name":"Sachsen-Anhalt"}},{"name":"Rimbecker Str.","postalCode":"38855","locality":"Wernigerode","municipality":{"key":"15085370","name":"Wernigerode, Stadt","type":"Stadt"},"district":{"key":"15085","name":"Harz","type":"Landkreis"},"federalState":{"key":"15","name":"Sachsen-Anhalt"}},{"name":"Ringstr.","postalCode":"38855","locality":"Wernigerode","municipality":{"key":"15085370","name":"Wernigerode, Stadt","type":"Stadt"},"district":{"key":"15085","name":"Harz","type":"Landkreis"},"federalState":{"key":"15","name":"Sachsen-Anhalt"}},{"name":"Röntgenstr.","postalCode":"38855","locality":"Wernigerode","municipality":{"key":"15085370","name":"Wernigerode, Stadt","type":"Stadt"},"district":{"key":"15085","name":"Harz","type":"Landkreis"},"federalState":{"key":"15","name":"Sachsen-Anhalt"}},{"name":"Rosa-Luxemburg-Str.","postalCode":"38855","locality":"Wernigerode","municipality":{"key":"15085370","name":"Wernigerode, Stadt","type":"Stadt"},"district":{"key":"15085","name":"Harz","type":"Landkreis"},"federalState":{"key":"15","name":"Sachsen-Anhalt"}},{"name":"Rösentor","postalCode":"38855","locality":"Wernigerode","municipality":{"key":"15085370","name":"Wernigerode, Stadt","type":"Stadt"},"district":{"key":"15085","name":"Harz","type":"Landkreis"},"federalState":{"key":"15","name":"Sachsen-Anhalt"}},{"name":"Rudolf-Breitscheid-Str.","postalCode":"38855","locality":"Wernigerode","municipality":{"key":"15085370","name":"Wernigerode, Stadt","type":"Stadt"},"district":{"key":"15085","name":"Harz","type":"Landkreis"},"federalState":{"key":"15","name":"Sachsen-Anhalt"}},{"name":"Runde Bruch Chaussee","postalCode":"38855","locality":"Wernigerode","municipality":{"key":"15085370","name":"Wernigerode, Stadt","type":"Stadt"},"district":{"key":"15085","name":"Harz","type":"Landkreis"},"federalState":{"key":"15","name":"Sachsen-Anhalt"}},{"name":"Rundes Bruch Chaussee","postalCode":"38855","locality":"Wernigerode","municipality":{"key":"15085370","name":"Wernigerode, Stadt","type":"Stadt"},"district":{"key":"15085","name":"Harz","type":"Landkreis"},"federalState":{"key":"15","name":"Sachsen-Anhalt"}},{"name":"Sachshäuweg","postalCode":"38875","locality":"Wernigerode","municipality":{"key":"15085370","name":"Wernigerode, Stadt","type":"Stadt"},"district":{"key":"15085","name":"Harz","type":"Landkreis"},"federalState":{"key":"15","name":"Sachsen-Anhalt"}},{"name":"Sackgasse","postalCode":"38855","locality":"Wernigerode","municipality":{"key":"15085370","name":"Wernigerode, Stadt","type":"Stadt"},"district":{"key":"15085","name":"Harz","type":"Landkreis"},"federalState":{"key":"15","name":"Sachsen-Anhalt"}},{"name":"Sackstr.","postalCode":"38855","locality":"Wernigerode","municipality":{"key":"15085370","name":"Wernigerode, Stadt","type":"Stadt"},"district":{"key":"15085","name":"Harz","type":"Landkreis"},"federalState":{"key":"15","name":"Sachsen-Anhalt"}},{"name":"Sägemühlengasse","postalCode":"38855","locality":"Wernigerode","municipality":{"key":"15085370","name":"Wernigerode, Stadt","type":"Stadt"},"district":{"key":"15085","name":"Harz","type":"Landkreis"},"federalState":{"key":"15","name":"Sachsen-Anhalt"}},{"name":"Salzbergstr.","postalCode":"38855","locality":"Wernigerode","municipality":{"key":"15085370","name":"Wernigerode, Stadt","type":"Stadt"},"district":{"key":"15085","name":"Harz","type":"Landkreis"},"federalState":{"key":"15","name":"Sachsen-Anhalt"}},{"name":"Sandbrink","postalCode":"38855","locality":"Wernigerode","municipality":{"key":"15085370","name":"Wernigerode, Stadt","type":"Stadt"},"district":{"key":"15085","name":"Harz","type":"Landkreis"},"federalState":{"key":"15","name":"Sachsen-Anhalt"}},{"name":"Sandbrinkstr.","postalCode":"38879","locality":"Wernigerode","municipality":{"key":"15085370","name":"Wernigerode, Stadt","type":"Stadt"},"district":{"key":"15085","name":"Harz","type":"Landkreis"},"federalState":{"key":"15","name":"Sachsen-Anhalt"}},{"name":"Sandtal","postalCode":"38855","locality":"Wernigerode","municipality":{"key":"15085370","name":"Wernigerode, Stadt","type":"Stadt"},"district":{"key":"15085","name":"Harz","type":"Landkreis"},"federalState":{"key":"15","name":"Sachsen-Anhalt"}},{"name":"Sattlerbad","postalCode":"38855","locality":"Wernigerode","municipality":{"key":"15085370","name":"Wernigerode, Stadt","type":"Stadt"},"district":{"key":"15085","name":"Harz","type":"Landkreis"},"federalState":{"key":"15","name":"Sachsen-Anhalt"}},{"name":"Schäferberg","postalCode":"38855","locality":"Wernigerode","municipality":{"key":"15085370","name":"Wernigerode, Stadt","type":"Stadt"},"district":{"key":"15085","name":"Harz","type":"Landkreis"},"federalState":{"key":"15","name":"Sachsen-Anhalt"}},{"name":"Schäfereigasse","postalCode":"38855","locality":"Wernigerode","municipality":{"key":"15085370","name":"Wernigerode, Stadt","type":"Stadt"},"district":{"key":"15085","name":"Harz","type":"Landkreis"},"federalState":{"key":"15","name":"Sachsen-Anhalt"}},{"name":"Schäfergrund","postalCode":"38855","locality":"Wernigerode","municipality":{"key":"15085370","name":"Wernigerode, Stadt","type":"Stadt"},"district":{"key":"15085","name":"Harz","type":"Landkreis"},"federalState":{"key":"15","name":"Sachsen-Anhalt"}},{"name":"Schäferstr.","postalCode":"38855","locality":"Wernigerode","municipality":{"key":"15085370","name":"Wernigerode, Stadt","type":"Stadt"},"district":{"key":"15085","name":"Harz","type":"Landkreis"},"federalState":{"key":"15","name":"Sachsen-Anhalt"}},{"name":"Schanze","postalCode":"38855","locality":"Wernigerode","municipality":{"key":"15085370","name":"Wernigerode, Stadt","type":"Stadt"},"district":{"key":"15085","name":"Harz","type":"Landkreis"},"federalState":{"key":"15","name":"Sachsen-Anhalt"}},{"name":"Schillerstr.","postalCode":"38855","locality":"Wernigerode","municipality":{"key":"15085370","name":"Wernigerode, Stadt","type":"Stadt"},"district":{"key":"15085","name":"Harz","type":"Landkreis"},"federalState":{"key":"15","name":"Sachsen-Anhalt"}},{"name":"Schlachthofstr.","postalCode":"38855","locality":"Wernigerode","municipality":{"key":"15085370","name":"Wernigerode, Stadt","type":"Stadt"},"district":{"key":"15085","name":"Harz","type":"Landkreis"},"federalState":{"key":"15","name":"Sachsen-Anhalt"}},{"name":"Schlossaufstieg","postalCode":"38855","locality":"Wernigerode","municipality":{"key":"15085370","name":"Wernigerode, Stadt","type":"Stadt"},"district":{"key":"15085","name":"Harz","type":"Landkreis"},"federalState":{"key":"15","name":"Sachsen-Anhalt"}},{"name":"Schlossblick","postalCode":"38855","locality":"Wernigerode","municipality":{"key":"15085370","name":"Wernigerode, Stadt","type":"Stadt"},"district":{"key":"15085","name":"Harz","type":"Landkreis"},"federalState":{"key":"15","name":"Sachsen-Anhalt"}},{"name":"Schlosschaussee","postalCode":"38855","locality":"Wernigerode","municipality":{"key":"15085370","name":"Wernigerode, Stadt","type":"Stadt"},"district":{"key":"15085","name":"Harz","type":"Landkreis"},"federalState":{"key":"15","name":"Sachsen-Anhalt"}},{"name":"Schmales Tal","postalCode":"38855","locality":"Wernigerode","municipality":{"key":"15085370","name":"Wernigerode, Stadt","type":"Stadt"},"district":{"key":"15085","name":"Harz","type":"Landkreis"},"federalState":{"key":"15","name":"Sachsen-Anhalt"}},{"name":"Schmatzfelder Str.","postalCode":"38855","locality":"Wernigerode","municipality":{"key":"15085370","name":"Wernigerode, Stadt","type":"Stadt"},"district":{"key":"15085","name":"Harz","type":"Landkreis"},"federalState":{"key":"15","name":"Sachsen-Anhalt"}},{"name":"Schmidtstr.","postalCode":"38855","locality":"Wernigerode","municipality":{"key":"15085370","name":"Wernigerode, Stadt","type":"Stadt"},"district":{"key":"15085","name":"Harz","type":"Landkreis"},"federalState":{"key":"15","name":"Sachsen-Anhalt"}},{"name":"Schmiedeberg","postalCode":"38855","locality":"Wernigerode","municipality":{"key":"15085370","name":"Wernigerode, Stadt","type":"Stadt"},"district":{"key":"15085","name":"Harz","type":"Landkreis"},"federalState":{"key":"15","name":"Sachsen-Anhalt"}},{"name":"Schmiedestr.","postalCode":"38855","locality":"Wernigerode","municipality":{"key":"15085370","name":"Wernigerode, Stadt","type":"Stadt"},"district":{"key":"15085","name":"Harz","type":"Landkreis"},"federalState":{"key":"15","name":"Sachsen-Anhalt"}},{"name":"Schöne Ecke","postalCode":"38855","locality":"Wernigerode","municipality":{"key":"15085370","name":"Wernigerode, Stadt","type":"Stadt"},"district":{"key":"15085","name":"Harz","type":"Landkreis"},"federalState":{"key":"15","name":"Sachsen-Anhalt"}},{"name":"Schreiberstr.","postalCode":"38855","locality":"Wernigerode","municipality":{"key":"15085370","name":"Wernigerode, Stadt","type":"Stadt"},"district":{"key":"15085","name":"Harz","type":"Landkreis"},"federalState":{"key":"15","name":"Sachsen-Anhalt"}},{"name":"Schulstr.","postalCode":"38855","locality":"Wernigerode","municipality":{"key":"15085370","name":"Wernigerode, Stadt","type":"Stadt"},"district":{"key":"15085","name":"Harz","type":"Landkreis"},"federalState":{"key":"15","name":"Sachsen-Anhalt"}},{"name":"Schützenberg","postalCode":"38855","locality":"Wernigerode","municipality":{"key":"15085370","name":"Wernigerode, Stadt","type":"Stadt"},"district":{"key":"15085","name":"Harz","type":"Landkreis"},"federalState":{"key":"15","name":"Sachsen-Anhalt"}},{"name":"Schützenstr.","postalCode":"38855","locality":"Wernigerode","municipality":{"key":"15085370","name":"Wernigerode, Stadt","type":"Stadt"},"district":{"key":"15085","name":"Harz","type":"Landkreis"},"federalState":{"key":"15","name":"Sachsen-Anhalt"}},{"name":"Schützentor","postalCode":"38855","locality":"Wernigerode","municipality":{"key":"15085370","name":"Wernigerode, Stadt","type":"Stadt"},"district":{"key":"15085","name":"Harz","type":"Landkreis"},"federalState":{"key":"15","name":"Sachsen-Anhalt"}},{"name":"Seigerhüttenweg","postalCode":"38855","locality":"Wernigerode","municipality":{"key":"15085370","name":"Wernigerode, Stadt","type":"Stadt"},"district":{"key":"15085","name":"Harz","type":"Landkreis"},"federalState":{"key":"15","name":"Sachsen-Anhalt"}},{"name":"Senfmühlenweg","postalCode":"38855","locality":"Wernigerode","municipality":{"key":"15085370","name":"Wernigerode, Stadt","type":"Stadt"},"district":{"key":"15085","name":"Harz","type":"Landkreis"},"federalState":{"key":"15","name":"Sachsen-Anhalt"}},{"name":"Sennhütte","postalCode":"38855","locality":"Wernigerode","municipality":{"key":"15085370","name":"Wernigerode, Stadt","type":"Stadt"},"district":{"key":"15085","name":"Harz","type":"Landkreis"},"federalState":{"key":"15","name":"Sachsen-Anhalt"}},{"name":"Silstedter Str.","postalCode":"38855","locality":"Wernigerode","municipality":{"key":"15085370","name":"Wernigerode, Stadt","type":"Stadt"},"district":{"key":"15085","name":"Harz","type":"Landkreis"},"federalState":{"key":"15","name":"Sachsen-Anhalt"}},{"name":"Silvestrystr.","postalCode":"38855","locality":"Wernigerode","municipality":{"key":"15085370","name":"Wernigerode, Stadt","type":"Stadt"},"district":{"key":"15085","name":"Harz","type":"Landkreis"},"federalState":{"key":"15","name":"Sachsen-Anhalt"}},{"name":"Sonnenwiese","postalCode":"38855","locality":"Wernigerode","municipality":{"key":"15085370","name":"Wernigerode, Stadt","type":"Stadt"},"district":{"key":"15085","name":"Harz","type":"Landkreis"},"federalState":{"key":"15","name":"Sachsen-Anhalt"}},{"name":"Spechtweg","postalCode":"38879","locality":"Wernigerode","municipality":{"key":"15085370","name":"Wernigerode, Stadt","type":"Stadt"},"district":{"key":"15085","name":"Harz","type":"Landkreis"},"federalState":{"key":"15","name":"Sachsen-Anhalt"}},{"name":"Stadtgarten","postalCode":"38855","locality":"Wernigerode","municipality":{"key":"15085370","name":"Wernigerode, Stadt","type":"Stadt"},"district":{"key":"15085","name":"Harz","type":"Landkreis"},"federalState":{"key":"15","name":"Sachsen-Anhalt"}},{"name":"Steinbergstr.","postalCode":"38855","locality":"Wernigerode","municipality":{"key":"15085370","name":"Wernigerode, Stadt","type":"Stadt"},"district":{"key":"15085","name":"Harz","type":"Landkreis"},"federalState":{"key":"15","name":"Sachsen-Anhalt"}},{"name":"Steinesche","postalCode":"38855","locality":"Wernigerode","municipality":{"key":"15085370","name":"Wernigerode, Stadt","type":"Stadt"},"district":{"key":"15085","name":"Harz","type":"Landkreis"},"federalState":{"key":"15","name":"Sachsen-Anhalt"}},{"name":"Steingrube","postalCode":"38855","locality":"Wernigerode","municipality":{"key":"15085370","name":"Wernigerode, Stadt","type":"Stadt"},"district":{"key":"15085","name":"Harz","type":"Landkreis"},"federalState":{"key":"15","name":"Sachsen-Anhalt"}},{"name":"Stieglitzecke","postalCode":"38855","locality":"Wernigerode","municipality":{"key":"15085370","name":"Wernigerode, Stadt","type":"Stadt"},"district":{"key":"15085","name":"Harz","type":"Landkreis"},"federalState":{"key":"15","name":"Sachsen-Anhalt"}},{"name":"Taufweg","postalCode":"38855","locality":"Wernigerode","municipality":{"key":"15085370","name":"Wernigerode, Stadt","type":"Stadt"},"district":{"key":"15085","name":"Harz","type":"Landkreis"},"federalState":{"key":"15","name":"Sachsen-Anhalt"}},{"name":"Teichdamm","postalCode":"38855","locality":"Wernigerode","municipality":{"key":"15085370","name":"Wernigerode, Stadt","type":"Stadt"},"district":{"key":"15085","name":"Harz","type":"Landkreis"},"federalState":{"key":"15","name":"Sachsen-Anhalt"}},{"name":"Theodor-Fontane-Str.","postalCode":"38855","locality":"Wernigerode","municipality":{"key":"15085370","name":"Wernigerode, Stadt","type":"Stadt"},"district":{"key":"15085","name":"Harz","type":"Landkreis"},"federalState":{"key":"15","name":"Sachsen-Anhalt"}},{"name":"Thieberg","postalCode":"38855","locality":"Wernigerode","municipality":{"key":"15085370","name":"Wernigerode, Stadt","type":"Stadt"},"district":{"key":"15085","name":"Harz","type":"Landkreis"},"federalState":{"key":"15","name":"Sachsen-Anhalt"}},{"name":"Thiestr.","postalCode":"38855","locality":"Wernigerode","municipality":{"key":"15085370","name":"Wernigerode, Stadt","type":"Stadt"},"district":{"key":"15085","name":"Harz","type":"Landkreis"},"federalState":{"key":"15","name":"Sachsen-Anhalt"}},{"name":"Thumkuhlenkopf Weg","postalCode":"38855","locality":"Wernigerode","municipality":{"key":"15085370","name":"Wernigerode, Stadt","type":"Stadt"},"district":{"key":"15085","name":"Harz","type":"Landkreis"},"federalState":{"key":"15","name":"Sachsen-Anhalt"}},{"name":"Thumkuhlental","postalCode":"38855","locality":"Wernigerode","municipality":{"key":"15085370","name":"Wernigerode, Stadt","type":"Stadt"},"district":{"key":"15085","name":"Harz","type":"Landkreis"},"federalState":{"key":"15","name":"Sachsen-Anhalt"}},{"name":"Tiefental","postalCode":"38855","locality":"Wernigerode","municipality":{"key":"15085370","name":"Wernigerode, Stadt","type":"Stadt"},"district":{"key":"15085","name":"Harz","type":"Landkreis"},"federalState":{"key":"15","name":"Sachsen-Anhalt"}},{"name":"Tiergartenstr.","postalCode":"38855","locality":"Wernigerode","municipality":{"key":"15085370","name":"Wernigerode, Stadt","type":"Stadt"},"district":{"key":"15085","name":"Harz","type":"Landkreis"},"federalState":{"key":"15","name":"Sachsen-Anhalt"}},{"name":"Totenweg","postalCode":"38855","locality":"Wernigerode","municipality":{"key":"15085370","name":"Wernigerode, Stadt","type":"Stadt"},"district":{"key":"15085","name":"Harz","type":"Landkreis"},"federalState":{"key":"15","name":"Sachsen-Anhalt"}},{"name":"Toter Weg","postalCode":"38879","locality":"Wernigerode","municipality":{"key":"15085370","name":"Wernigerode, Stadt","type":"Stadt"},"district":{"key":"15085","name":"Harz","type":"Landkreis"},"federalState":{"key":"15","name":"Sachsen-Anhalt"}},{"name":"Trecktal","postalCode":"38855","locality":"Wernigerode","municipality":{"key":"15085370","name":"Wernigerode, Stadt","type":"Stadt"},"district":{"key":"15085","name":"Harz","type":"Landkreis"},"federalState":{"key":"15","name":"Sachsen-Anhalt"}},{"name":"Treppenstieg","postalCode":"38855","locality":"Wernigerode","municipality":{"key":"15085370","name":"Wernigerode, Stadt","type":"Stadt"},"district":{"key":"15085","name":"Harz","type":"Landkreis"},"federalState":{"key":"15","name":"Sachsen-Anhalt"}},{"name":"Triangel","postalCode":"38855","locality":"Wernigerode","municipality":{"key":"15085370","name":"Wernigerode, Stadt","type":"Stadt"},"district":{"key":"15085","name":"Harz","type":"Landkreis"},"federalState":{"key":"15","name":"Sachsen-Anhalt"}},{"name":"Trift","postalCode":"38855","locality":"Wernigerode","municipality":{"key":"15085370","name":"Wernigerode, Stadt","type":"Stadt"},"district":{"key":"15085","name":"Harz","type":"Landkreis"},"federalState":{"key":"15","name":"Sachsen-Anhalt"}},{"name":"Tulpenweg","postalCode":"38855","locality":"Wernigerode","municipality":{"key":"15085370","name":"Wernigerode, Stadt","type":"Stadt"},"district":{"key":"15085","name":"Harz","type":"Landkreis"},"federalState":{"key":"15","name":"Sachsen-Anhalt"}},{"name":"Umgehungsstr.","postalCode":"38855","locality":"Wernigerode","municipality":{"key":"15085370","name":"Wernigerode, Stadt","type":"Stadt"},"district":{"key":"15085","name":"Harz","type":"Landkreis"},"federalState":{"key":"15","name":"Sachsen-Anhalt"}},{"name":"Unter dem Küchengarten","postalCode":"38855","locality":"Wernigerode","municipality":{"key":"15085370","name":"Wernigerode, Stadt","type":"Stadt"},"district":{"key":"15085","name":"Harz","type":"Landkreis"},"federalState":{"key":"15","name":"Sachsen-Anhalt"}},{"name":"Unter den Lehden","postalCode":"38855","locality":"Wernigerode","municipality":{"key":"15085370","name":"Wernigerode, Stadt","type":"Stadt"},"district":{"key":"15085","name":"Harz","type":"Landkreis"},"federalState":{"key":"15","name":"Sachsen-Anhalt"}},{"name":"Unter den Zindeln","postalCode":"38855","locality":"Wernigerode","municipality":{"key":"15085370","name":"Wernigerode, Stadt","type":"Stadt"},"district":{"key":"15085","name":"Harz","type":"Landkreis"},"federalState":{"key":"15","name":"Sachsen-Anhalt"}},{"name":"Unter der Linde","postalCode":"38855","locality":"Wernigerode","municipality":{"key":"15085370","name":"Wernigerode, Stadt","type":"Stadt"},"district":{"key":"15085","name":"Harz","type":"Landkreis"},"federalState":{"key":"15","name":"Sachsen-Anhalt"}},{"name":"Unterengengasse","postalCode":"38855","locality":"Wernigerode","municipality":{"key":"15085370","name":"Wernigerode, Stadt","type":"Stadt"},"district":{"key":"15085","name":"Harz","type":"Landkreis"},"federalState":{"key":"15","name":"Sachsen-Anhalt"}},{"name":"untere Peseke","postalCode":"38879","locality":"Wernigerode","municipality":{"key":"15085370","name":"Wernigerode, Stadt","type":"Stadt"},"district":{"key":"15085","name":"Harz","type":"Landkreis"},"federalState":{"key":"15","name":"Sachsen-Anhalt"}},{"name":"unterer Brückner-Stieg","postalCode":"38855","locality":"Wernigerode","municipality":{"key":"15085370","name":"Wernigerode, Stadt","type":"Stadt"},"district":{"key":"15085","name":"Harz","type":"Landkreis"},"federalState":{"key":"15","name":"Sachsen-Anhalt"}},{"name":"unterer Trichter","postalCode":"38855","locality":"Wernigerode","municipality":{"key":"15085370","name":"Wernigerode, Stadt","type":"Stadt"},"district":{"key":"15085","name":"Harz","type":"Landkreis"},"federalState":{"key":"15","name":"Sachsen-Anhalt"}},{"name":"Unterhof","postalCode":"38855","locality":"Wernigerode","municipality":{"key":"15085370","name":"Wernigerode, Stadt","type":"Stadt"},"district":{"key":"15085","name":"Harz","type":"Landkreis"},"federalState":{"key":"15","name":"Sachsen-Anhalt"}},{"name":"Unterm Ratskopf","postalCode":"38855","locality":"Wernigerode","municipality":{"key":"15085370","name":"Wernigerode, Stadt","type":"Stadt"},"district":{"key":"15085","name":"Harz","type":"Landkreis"},"federalState":{"key":"15","name":"Sachsen-Anhalt"}},{"name":"Unterm Wulfhorn","postalCode":"38855","locality":"Wernigerode","municipality":{"key":"15085370","name":"Wernigerode, Stadt","type":"Stadt"},"district":{"key":"15085","name":"Harz","type":"Landkreis"},"federalState":{"key":"15","name":"Sachsen-Anhalt"}},{"name":"Unterstr.","postalCode":"38855","locality":"Wernigerode","municipality":{"key":"15085370","name":"Wernigerode, Stadt","type":"Stadt"},"district":{"key":"15085","name":"Harz","type":"Landkreis"},"federalState":{"key":"15","name":"Sachsen-Anhalt"}},{"name":"Ursula-Reinecke-Stieg","postalCode":"38855","locality":"Wernigerode","municipality":{"key":"15085370","name":"Wernigerode, Stadt","type":"Stadt"},"district":{"key":"15085","name":"Harz","type":"Landkreis"},"federalState":{"key":"15","name":"Sachsen-Anhalt"}},{"name":"Veckenstedter Weg","postalCode":"38855","locality":"Wernigerode","municipality":{"key":"15085370","name":"Wernigerode, Stadt","type":"Stadt"},"district":{"key":"15085","name":"Harz","type":"Landkreis"},"federalState":{"key":"15","name":"Sachsen-Anhalt"}},{"name":"Victor-von-Scheffel-Weg","postalCode":"38855","locality":"Wernigerode","municipality":{"key":"15085370","name":"Wernigerode, Stadt","type":"Stadt"},"district":{"key":"15085","name":"Harz","type":"Landkreis"},"federalState":{"key":"15","name":"Sachsen-Anhalt"}},{"name":"Viehweidenweg","postalCode":"38855","locality":"Wernigerode","municipality":{"key":"15085370","name":"Wernigerode, Stadt","type":"Stadt"},"district":{"key":"15085","name":"Harz","type":"Landkreis"},"federalState":{"key":"15","name":"Sachsen-Anhalt"}},{"name":"Voigtstieg","postalCode":"38855","locality":"Wernigerode","municipality":{"key":"15085370","name":"Wernigerode, Stadt","type":"Stadt"},"district":{"key":"15085","name":"Harz","type":"Landkreis"},"federalState":{"key":"15","name":"Sachsen-Anhalt"}},{"name":"Von-Reiffenstein-Str.","postalCode":"38855","locality":"Wernigerode","municipality":{"key":"15085370","name":"Wernigerode, Stadt","type":"Stadt"},"district":{"key":"15085","name":"Harz","type":"Landkreis"},"federalState":{"key":"15","name":"Sachsen-Anhalt"}},{"name":"Vor dem Baumhof","postalCode":"38855","locality":"Wernigerode","municipality":{"key":"15085370","name":"Wernigerode, Stadt","type":"Stadt"},"district":{"key":"15085","name":"Harz","type":"Landkreis"},"federalState":{"key":"15","name":"Sachsen-Anhalt"}},{"name":"Vor der Mauer","postalCode":"38855","locality":"Wernigerode","municipality":{"key":"15085370","name":"Wernigerode, Stadt","type":"Stadt"},"district":{"key":"15085","name":"Harz","type":"Landkreis"},"federalState":{"key":"15","name":"Sachsen-Anhalt"}},{"name":"Voßweg","postalCode":"38855","locality":"Wernigerode","municipality":{"key":"15085370","name":"Wernigerode, Stadt","type":"Stadt"},"district":{"key":"15085","name":"Harz","type":"Landkreis"},"federalState":{"key":"15","name":"Sachsen-Anhalt"}},{"name":"Waldhofstr.","postalCode":"38855","locality":"Wernigerode","municipality":{"key":"15085370","name":"Wernigerode, Stadt","type":"Stadt"},"district":{"key":"15085","name":"Harz","type":"Landkreis"},"federalState":{"key":"15","name":"Sachsen-Anhalt"}},{"name":"Walther-Grosse-Ring","postalCode":"38855","locality":"Wernigerode","municipality":{"key":"15085370","name":"Wernigerode, Stadt","type":"Stadt"},"district":{"key":"15085","name":"Harz","type":"Landkreis"},"federalState":{"key":"15","name":"Sachsen-Anhalt"}},{"name":"Walther-Rathenau-Str.","postalCode":"38855","locality":"Wernigerode","municipality":{"key":"15085370","name":"Wernigerode, Stadt","type":"Stadt"},"district":{"key":"15085","name":"Harz","type":"Landkreis"},"federalState":{"key":"15","name":"Sachsen-Anhalt"}},{"name":"Wasserkunst","postalCode":"38855","locality":"Wernigerode","municipality":{"key":"15085370","name":"Wernigerode, Stadt","type":"Stadt"},"district":{"key":"15085","name":"Harz","type":"Landkreis"},"federalState":{"key":"15","name":"Sachsen-Anhalt"}},{"name":"Wasserstr.","postalCode":"38855","locality":"Wernigerode","municipality":{"key":"15085370","name":"Wernigerode, Stadt","type":"Stadt"},"district":{"key":"15085","name":"Harz","type":"Landkreis"},"federalState":{"key":"15","name":"Sachsen-Anhalt"}},{"name":"Wegestr.","postalCode":"38855","locality":"Wernigerode","municipality":{"key":"15085370","name":"Wernigerode, Stadt","type":"Stadt"},"district":{"key":"15085","name":"Harz","type":"Landkreis"},"federalState":{"key":"15","name":"Sachsen-Anhalt"}},{"name":"Weidenweg","postalCode":"38855","locality":"Wernigerode","municipality":{"key":"15085370","name":"Wernigerode, Stadt","type":"Stadt"},"district":{"key":"15085","name":"Harz","type":"Landkreis"},"federalState":{"key":"15","name":"Sachsen-Anhalt"}},{"name":"Weinbergstr.","postalCode":"38855","locality":"Wernigerode","municipality":{"key":"15085370","name":"Wernigerode, Stadt","type":"Stadt"},"district":{"key":"15085","name":"Harz","type":"Landkreis"},"federalState":{"key":"15","name":"Sachsen-Anhalt"}},{"name":"Weiße-Steine-Weg","postalCode":"38855","locality":"Wernigerode","municipality":{"key":"15085370","name":"Wernigerode, Stadt","type":"Stadt"},"district":{"key":"15085","name":"Harz","type":"Landkreis"},"federalState":{"key":"15","name":"Sachsen-Anhalt"}},{"name":"Wernigeröder Str.","postalCode":"38855","locality":"Wernigerode","municipality":{"key":"15085370","name":"Wernigerode, Stadt","type":"Stadt"},"district":{"key":"15085","name":"Harz","type":"Landkreis"},"federalState":{"key":"15","name":"Sachsen-Anhalt"}},{"name":"Westernstr.","postalCode":"38855","locality":"Wernigerode","municipality":{"key":"15085370","name":"Wernigerode, Stadt","type":"Stadt"},"district":{"key":"15085","name":"Harz","type":"Landkreis"},"federalState":{"key":"15","name":"Sachsen-Anhalt"}},{"name":"Wiesenweg","postalCode":"38855","locality":"Wernigerode","municipality":{"key":"15085370","name":"Wernigerode, Stadt","type":"Stadt"},"district":{"key":"15085","name":"Harz","type":"Landkreis"},"federalState":{"key":"15","name":"Sachsen-Anhalt"}},{"name":"Wildmeisterweg","postalCode":"38855","locality":"Wernigerode","municipality":{"key":"15085370","name":"Wernigerode, Stadt","type":"Stadt"},"district":{"key":"15085","name":"Harz","type":"Landkreis"},"federalState":{"key":"15","name":"Sachsen-Anhalt"}},{"name":"Wildpark Christianental","postalCode":"38855","locality":"Wernigerode","municipality":{"key":"15085370","name":"Wernigerode, Stadt","type":"Stadt"},"district":{"key":"15085","name":"Harz","type":"Landkreis"},"federalState":{"key":"15","name":"Sachsen-Anhalt"}},{"name":"Wilhelm-Pramme-Str.","postalCode":"38855","locality":"Wernigerode","municipality":{"key":"15085370","name":"Wernigerode, Stadt","type":"Stadt"},"district":{"key":"15085","name":"Harz","type":"Landkreis"},"federalState":{"key":"15","name":"Sachsen-Anhalt"}},{"name":"Wilhelm-Raabe-Str.","postalCode":"38855","locality":"Wernigerode","municipality":{"key":"15085370","name":"Wernigerode, Stadt","type":"Stadt"},"district":{"key":"15085","name":"Harz","type":"Landkreis"},"federalState":{"key":"15","name":"Sachsen-Anhalt"}},{"name":"Winkel","postalCode":"38855","locality":"Wernigerode","municipality":{"key":"15085370","name":"Wernigerode, Stadt","type":"Stadt"},"district":{"key":"15085","name":"Harz","type":"Landkreis"},"federalState":{"key":"15","name":"Sachsen-Anhalt"}},{"name":"Wolfsholz","postalCode":"38855","locality":"Wernigerode","municipality":{"key":"15085370","name":"Wernigerode, Stadt","type":"Stadt"},"district":{"key":"15085","name":"Harz","type":"Landkreis"},"federalState":{"key":"15","name":"Sachsen-Anhalt"}},{"name":"Woorthstr.","postalCode":"38855","locality":"Wernigerode","municipality":{"key":"15085370","name":"Wernigerode, Stadt","type":"Stadt"},"district":{"key":"15085","name":"Harz","type":"Landkreis"},"federalState":{"key":"15","name":"Sachsen-Anhalt"}},{"name":"Wüstenteichen","postalCode":"38855","locality":"Wernigerode","municipality":{"key":"15085370","name":"Wernigerode, Stadt","type":"Stadt"},"district":{"key":"15085","name":"Harz","type":"Landkreis"},"federalState":{"key":"15","name":"Sachsen-Anhalt"}},{"name":"Zaunwiese","postalCode":"38855","locality":"Wernigerode","municipality":{"key":"15085370","name":"Wernigerode, Stadt","type":"Stadt"},"district":{"key":"15085","name":"Harz","type":"Landkreis"},"federalState":{"key":"15","name":"Sachsen-Anhalt"}},{"name":"Ziegelbergsweg","postalCode":"38855","locality":"Wernigerode","municipality":{"key":"15085370","name":"Wernigerode, Stadt","type":"Stadt"},"district":{"key":"15085","name":"Harz","type":"Landkreis"},"federalState":{"key":"15","name":"Sachsen-Anhalt"}},{"name":"Ziegeleistr.","postalCode":"38855","locality":"Wernigerode","municipality":{"key":"15085370","name":"Wernigerode, Stadt","type":"Stadt"},"district":{"key":"15085","name":"Harz","type":"Landkreis"},"federalState":{"key":"15","name":"Sachsen-Anhalt"}},{"name":"Zu den Gärten","postalCode":"38855","locality":"Wernigerode","municipality":{"key":"15085370","name":"Wernigerode, Stadt","type":"Stadt"},"district":{"key":"15085","name":"Harz","type":"Landkreis"},"federalState":{"key":"15","name":"Sachsen-Anhalt"}},{"name":"Zufahrt Haus Blume","postalCode":"38855","locality":"Wernigerode","municipality":{"key":"15085370","name":"Wernigerode, Stadt","type":"Stadt"},"district":{"key":"15085","name":"Harz","type":"Landkreis"},"federalState":{"key":"15","name":"Sachsen-Anhalt"}},{"name":"Zufahrt Haus zur Stadtecke","postalCode":"38855","locality":"Wernigerode","municipality":{"key":"15085370","name":"Wernigerode, Stadt","type":"Stadt"},"district":{"key":"15085","name":"Harz","type":"Landkreis"},"federalState":{"key":"15","name":"Sachsen-Anhalt"}},{"name":"Zugang Haus Blume","postalCode":"38855","locality":"Wernigerode","municipality":{"key":"15085370","name":"Wernigerode, Stadt","type":"Stadt"},"district":{"key":"15085","name":"Harz","type":"Landkreis"},"federalState":{"key":"15","name":"Sachsen-Anhalt"}},{"name":"Zum Eichenholz","postalCode":"38855","locality":"Wernigerode","municipality":{"key":"15085370","name":"Wernigerode, Stadt","type":"Stadt"},"district":{"key":"15085","name":"Harz","type":"Landkreis"},"federalState":{"key":"15","name":"Sachsen-Anhalt"}},{"name":"Zum Krug","postalCode":"38855","locality":"Wernigerode","municipality":{"key":"15085370","name":"Wernigerode, Stadt","type":"Stadt"},"district":{"key":"15085","name":"Harz","type":"Landkreis"},"federalState":{"key":"15","name":"Sachsen-Anhalt"}},{"name":"Zum Kulcke","postalCode":"38855","locality":"Wernigerode","municipality":{"key":"15085370","name":"Wernigerode, Stadt","type":"Stadt"},"district":{"key":"15085","name":"Harz","type":"Landkreis"},"federalState":{"key":"15","name":"Sachsen-Anhalt"}},{"name":"Zum Lerchenberg","postalCode":"38855","locality":"Wernigerode","municipality":{"key":"15085370","name":"Wernigerode, Stadt","type":"Stadt"},"district":{"key":"15085","name":"Harz","type":"Landkreis"},"federalState":{"key":"15","name":"Sachsen-Anhalt"}},{"name":"Zur Aue","postalCode":"38855","locality":"Wernigerode","municipality":{"key":"15085370","name":"Wernigerode, Stadt","type":"Stadt"},"district":{"key":"15085","name":"Harz","type":"Landkreis"},"federalState":{"key":"15","name":"Sachsen-Anhalt"}},{"name":"Zur Roten Mühle","postalCode":"38855","locality":"Wernigerode","municipality":{"key":"15085370","name":"Wernigerode, Stadt","type":"Stadt"},"district":{"key":"15085","name":"Harz","type":"Landkreis"},"federalState":{"key":"15","name":"Sachsen-Anhalt"}},{"name":"Zwölfmorgental","postalCode":"38855","locality":"Wernigerode","municipality":{"key":"15085370","name":"Wernigerode, Stadt","type":"Stadt"},"district":{"key":"15085","name":"Harz","type":"Landkreis"},"federalState":{"key":"15","name":"Sachsen-Anhalt"}},{"name":"Öhrentalsweg","postalCode":"38667","locality":"Harz (LK Goslar)","municipality":{"key":"03153504","name":"Harz (Landkreis Goslar), gemfr. Gebiet","type":"Gemeindefreies_Gebiet_Unbewohnt"},"district":{"key":"03153","name":"Goslar","type":"Landkreis"},"federalState":{"key":"03","name":"Niedersachsen"}},{"name":"Ölmühle","postalCode":"06536","locality":"Südharz","municipality":{"key":"15087412","name":"Südharz","type":"Kreisangehörige_Gemeinde"},"district":{"key":"15087","name":"Mansfeld-Südharz","type":"Landkreis"},"federalState":{"key":"15","name":"Sachsen-Anhalt"}},{"name":"Ölmühle","postalCode":"37199","locality":"Wulften am Harz","municipality":{"key":"03159039","name":"Wulften am Harz","type":"Kreisangehörige_Gemeinde"},"district":{"key":"03159","name":"Göttingen","type":"Landkreis"},"federalState":{"key":"03","name":"Niedersachsen"}},{"name":"Ölmühlengasse","postalCode":"37520","locality":"Osterode am Harz","municipality":{"key":"03159026","name":"Osterode am Harz, Stadt","type":"Stadt"},"district":{"key":"03159","name":"Göttingen","type":"Landkreis"},"federalState":{"key":"03","name":"Niedersachsen"}},{"name":"Ölmühlenweg","postalCode":"06493","locality":"Harzgerode","municipality":{"key":"15085145","name":"Harzgerode, Stadt","type":"Stadt"},"district":{"key":"15085","name":"Harz","type":"Landkreis"},"federalState":{"key":"15","name":"Sachsen-Anhalt"}},{"name":"Übelsbergweg","postalCode":"37431","locality":"Harz (Landkreis Göttingen)","municipality":{"key":"03159501","name":"Harz (Landkreis Göttingen), gemfr. Geb.","type":"Gemeindefreies_Gebiet_Unbewohnt"},"district":{"key":"03159","name":"Göttingen","type":"Landkreis"},"federalState":{"key":"03","name":"Niedersachsen"}},{"name":"Über der Flut","postalCode":"37431","locality":"Bad Lauterberg im Harz","municipality":{"key":"03159003","name":"Bad Lauterberg im Harz, Stadt","type":"Stadt"},"district":{"key":"03159","name":"Göttingen","type":"Landkreis"},"federalState":{"key":"03","name":"Niedersachsen"}},{"name":"Über der Kälberbucht","postalCode":"37431","locality":"Bad Lauterberg im Harz","municipality":{"key":"03159003","name":"Bad Lauterberg im Harz, Stadt","type":"Stadt"},"district":{"key":"03159","name":"Göttingen","type":"Landkreis"},"federalState":{"key":"03","name":"Niedersachsen"}},{"name":"Ührde","postalCode":"37520","locality":"Osterode am Harz","municipality":{"key":"03159026","name":"Osterode am Harz, Stadt","type":"Stadt"},"district":{"key":"03159","name":"Göttingen","type":"Landkreis"},"federalState":{"key":"03","name":"Niedersachsen"}},{"name":"Ührder Str.","postalCode":"37520","locality":"Osterode am Harz","municipality":{"key":"03159026","name":"Osterode am Harz, Stadt","type":"Stadt"},"district":{"key":"03159","name":"Göttingen","type":"Landkreis"},"federalState":{"key":"03","name":"Niedersachsen"}},]