[{"key":"10137106","name":"Alpe Bavoggio","postalCode":"6986","locality":"Novaggio","commune":{"key":"5207","name":"Novaggio","shortName":"Novaggio"},"district":{"key":"2105","name":"Distretto di Lugano"},"canton":{"key":"21","code":"TI","name":"Ticino"},"status":"Real"},{"key":"10137105","name":"Al Pissarotino","postalCode":"6986","locality":"Novaggio","commune":{"key":"5207","name":"Novaggio","shortName":"Novaggio"},"district":{"key":"2105","name":"Distretto di Lugano"},"canton":{"key":"21","code":"TI","name":"Ticino"},"status":"Real"},{"key":"10210351","name":"Ara Ca d'là","postalCode":"6986","locality":"Novaggio","commune":{"key":"5207","name":"Novaggio","shortName":"Novaggio"},"district":{"key":"2105","name":"Distretto di Lugano"},"canton":{"key":"21","code":"TI","name":"Ticino"},"status":"Real"},{"key":"10210353","name":"Ara Cròsa","postalCode":"6986","locality":"Novaggio","commune":{"key":"5207","name":"Novaggio","shortName":"Novaggio"},"district":{"key":"2105","name":"Distretto di Lugano"},"canton":{"key":"21","code":"TI","name":"Ticino"},"status":"Real"},{"key":"10137111","name":"Ara Latería növa","postalCode":"6986","locality":"Novaggio","commune":{"key":"5207","name":"Novaggio","shortName":"Novaggio"},"district":{"key":"2105","name":"Distretto di Lugano"},"canton":{"key":"21","code":"TI","name":"Ticino"},"status":"Real"},{"key":"10210347","name":"Ara Latería végia","postalCode":"6986","locality":"Novaggio","commune":{"key":"5207","name":"Novaggio","shortName":"Novaggio"},"district":{"key":"2105","name":"Distretto di Lugano"},"canton":{"key":"21","code":"TI","name":"Ticino"},"status":"Real"},{"key":"10137107","name":"Ar Funtanón","postalCode":"6986","locality":"Novaggio","commune":{"key":"5207","name":"Novaggio","shortName":"Novaggio"},"district":{"key":"2105","name":"Distretto di Lugano"},"canton":{"key":"21","code":"TI","name":"Ticino"},"status":"Real"},{"key":"10210356","name":"Ar Paradìs","postalCode":"6986","locality":"Novaggio","commune":{"key":"5207","name":"Novaggio","shortName":"Novaggio"},"district":{"key":"2105","name":"Distretto di Lugano"},"canton":{"key":"21","code":"TI","name":"Ticino"},"status":"Real"},{"key":"10119501","name":"Ar Pasquèe","postalCode":"6986","locality":"Novaggio","commune":{"key":"5207","name":"Novaggio","shortName":"Novaggio"},"district":{"key":"2105","name":"Distretto di Lugano"},"canton":{"key":"21","code":"TI","name":"Ticino"},"status":"Real"},{"key":"10137108","name":"Ar Pissín","postalCode":"6986","locality":"Novaggio","commune":{"key":"5207","name":"Novaggio","shortName":"Novaggio"},"district":{"key":"2105","name":"Distretto di Lugano"},"canton":{"key":"21","code":"TI","name":"Ticino"},"status":"Real"},{"key":"10137113","name":"In Pasquèe","postalCode":"6986","locality":"Novaggio","commune":{"key":"5207","name":"Novaggio","shortName":"Novaggio"},"district":{"key":"2105","name":"Distretto di Lugano"},"canton":{"key":"21","code":"TI","name":"Ticino"},"status":"Real"},{"key":"10137115","name":"Perosa","postalCode":"6986","locality":"Novaggio","commune":{"key":"5207","name":"Novaggio","shortName":"Novaggio"},"district":{"key":"2105","name":"Distretto di Lugano"},"canton":{"key":"21","code":"TI","name":"Ticino"},"status":"Real"},{"key":"10137116","name":"Piázza di Matt","postalCode":"6986","locality":"Novaggio","commune":{"key":"5207","name":"Novaggio","shortName":"Novaggio"},"district":{"key":"2105","name":"Distretto di Lugano"},"canton":{"key":"21","code":"TI","name":"Ticino"},"status":"Real"},{"key":"10137117","name":"Piazza Francesco Ferrer","postalCode":"6986","locality":"Novaggio","commune":{"key":"5207","name":"Novaggio","shortName":"Novaggio"},"district":{"key":"2105","name":"Distretto di Lugano"},"canton":{"key":"21","code":"TI","name":"Ticino"},"status":"Real"},{"key":"10137118","name":"Piazzale Pietro Demarta","postalCode":"6986","locality":"Novaggio","commune":{"key":"5207","name":"Novaggio","shortName":"Novaggio"},"district":{"key":"2105","name":"Distretto di Lugano"},"canton":{"key":"21","code":"TI","name":"Ticino"},"status":"Real"},{"key":"10137119","name":"Ra Bufína","postalCode":"6986","locality":"Novaggio","commune":{"key":"5207","name":"Novaggio","shortName":"Novaggio"},"district":{"key":"2105","name":"Distretto di Lugano"},"canton":{"key":"21","code":"TI","name":"Ticino"},"status":"Real"},{"key":"10210358","name":"Ra Müs'cia","postalCode":"6986","locality":"Novaggio","commune":{"key":"5207","name":"Novaggio","shortName":"Novaggio"},"district":{"key":"2105","name":"Distretto di Lugano"},"canton":{"key":"21","code":"TI","name":"Ticino"},"status":"Real"},{"key":"10137121","name":"Ra Rungiòra","postalCode":"6986","locality":"Novaggio","commune":{"key":"5207","name":"Novaggio","shortName":"Novaggio"},"district":{"key":"2105","name":"Distretto di Lugano"},"canton":{"key":"21","code":"TI","name":"Ticino"},"status":"Real"},{"key":"10137122","name":"Ra Strécia","postalCode":"6986","locality":"Novaggio","commune":{"key":"5207","name":"Novaggio","shortName":"Novaggio"},"district":{"key":"2105","name":"Distretto di Lugano"},"canton":{"key":"21","code":"TI","name":"Ticino"},"status":"Real"},{"key":"10242516","name":"Scarináda Dunèla","postalCode":"6986","locality":"Novaggio","commune":{"key":"5207","name":"Novaggio","shortName":"Novaggio"},"district":{"key":"2105","name":"Distretto di Lugano"},"canton":{"key":"21","code":"TI","name":"Ticino"},"status":"Real"},{"key":"10210352","name":"Via Alfredo Ryser","postalCode":"6986","locality":"Novaggio","commune":{"key":"5207","name":"Novaggio","shortName":"Novaggio"},"district":{"key":"2105","name":"Distretto di Lugano"},"canton":{"key":"21","code":"TI","name":"Ticino"},"status":"Real"},{"key":"10137124","name":"Via Alice Meyer","postalCode":"6986","locality":"Novaggio","commune":{"key":"5207","name":"Novaggio","shortName":"Novaggio"},"district":{"key":"2105","name":"Distretto di Lugano"},"canton":{"key":"21","code":"TI","name":"Ticino"},"status":"Real"},{"key":"10137125","name":"Via Angelo Tamburini","postalCode":"6986","locality":"Novaggio","commune":{"key":"5207","name":"Novaggio","shortName":"Novaggio"},"district":{"key":"2105","name":"Distretto di Lugano"},"canton":{"key":"21","code":"TI","name":"Ticino"},"status":"Real"},{"key":"10137126","name":"Via Bedéa","postalCode":"6986","locality":"Novaggio","commune":{"key":"5207","name":"Novaggio","shortName":"Novaggio"},"district":{"key":"2105","name":"Distretto di Lugano"},"canton":{"key":"21","code":"TI","name":"Ticino"},"status":"Real"},{"key":"10137127","name":"Via Bressanèla","postalCode":"6986","locality":"Novaggio","commune":{"key":"5207","name":"Novaggio","shortName":"Novaggio"},"district":{"key":"2105","name":"Distretto di Lugano"},"canton":{"key":"21","code":"TI","name":"Ticino"},"status":"Real"},{"key":"10010692","name":"Via Campagna","postalCode":"6986","locality":"Novaggio","commune":{"key":"5207","name":"Novaggio","shortName":"Novaggio"},"district":{"key":"2105","name":"Distretto di Lugano"},"canton":{"key":"21","code":"TI","name":"Ticino"},"status":"Real"},{"key":"10137128","name":"Via Canavèe","postalCode":"6986","locality":"Novaggio","commune":{"key":"5207","name":"Novaggio","shortName":"Novaggio"},"district":{"key":"2105","name":"Distretto di Lugano"},"canton":{"key":"21","code":"TI","name":"Ticino"},"status":"Real"},{"key":"10137129","name":"Via Crüisc","postalCode":"6986","locality":"Novaggio","commune":{"key":"5207","name":"Novaggio","shortName":"Novaggio"},"district":{"key":"2105","name":"Distretto di Lugano"},"canton":{"key":"21","code":"TI","name":"Ticino"},"status":"Real"},{"key":"10210354","name":"Via Dr. Erich Schwarz","postalCode":"6986","locality":"Novaggio","commune":{"key":"5207","name":"Novaggio","shortName":"Novaggio"},"district":{"key":"2105","name":"Distretto di Lugano"},"canton":{"key":"21","code":"TI","name":"Ticino"},"status":"Real"},{"key":"10137130","name":"Via Fausto Buzzi","postalCode":"6986","locality":"Novaggio","commune":{"key":"5207","name":"Novaggio","shortName":"Novaggio"},"district":{"key":"2105","name":"Distretto di Lugano"},"canton":{"key":"21","code":"TI","name":"Ticino"},"status":"Real"},{"key":"10126467","name":"Via Felice Gambazzi","postalCode":"6986","locality":"Novaggio","commune":{"key":"5207","name":"Novaggio","shortName":"Novaggio"},"district":{"key":"2105","name":"Distretto di Lugano"},"canton":{"key":"21","code":"TI","name":"Ticino"},"status":"Real"},{"key":"10137131","name":"Via Gána","postalCode":"6986","locality":"Novaggio","commune":{"key":"5207","name":"Novaggio","shortName":"Novaggio"},"district":{"key":"2105","name":"Distretto di Lugano"},"canton":{"key":"21","code":"TI","name":"Ticino"},"status":"Real"},{"key":"10137132","name":"Via Gerò","postalCode":"6986","locality":"Novaggio","commune":{"key":"5207","name":"Novaggio","shortName":"Novaggio"},"district":{"key":"2105","name":"Distretto di Lugano"},"canton":{"key":"21","code":"TI","name":"Ticino"},"status":"Real"},{"key":"10118733","name":"Via Giuseppe Bertoli","postalCode":"6986","locality":"Novaggio","commune":{"key":"5207","name":"Novaggio","shortName":"Novaggio"},"district":{"key":"2105","name":"Distretto di Lugano"},"canton":{"key":"21","code":"TI","name":"Ticino"},"status":"Real"},{"key":"10137133","name":"Via i Quádra","postalCode":"6986","locality":"Novaggio","commune":{"key":"5207","name":"Novaggio","shortName":"Novaggio"},"district":{"key":"2105","name":"Distretto di Lugano"},"canton":{"key":"21","code":"TI","name":"Ticino"},"status":"Real"},{"key":"10137412","name":"Viale Gisòra","postalCode":"6986","locality":"Novaggio","commune":{"key":"5207","name":"Novaggio","shortName":"Novaggio"},"district":{"key":"2105","name":"Distretto di Lugano"},"canton":{"key":"21","code":"TI","name":"Ticino"},"status":"Real"},{"key":"10137134","name":"Via Lema","postalCode":"6986","locality":"Novaggio","commune":{"key":"5207","name":"Novaggio","shortName":"Novaggio"},"district":{"key":"2105","name":"Distretto di Lugano"},"canton":{"key":"21","code":"TI","name":"Ticino"},"status":"Real"},{"key":"10210350","name":"Via Magg. Gambazzi","postalCode":"6986","locality":"Novaggio","commune":{"key":"5207","name":"Novaggio","shortName":"Novaggio"},"district":{"key":"2105","name":"Distretto di Lugano"},"canton":{"key":"21","code":"TI","name":"Ticino"},"status":"Real"},{"key":"10210355","name":"Via Magrín","postalCode":"6986","locality":"Novaggio","commune":{"key":"5207","name":"Novaggio","shortName":"Novaggio"},"district":{"key":"2105","name":"Distretto di Lugano"},"canton":{"key":"21","code":"TI","name":"Ticino"},"status":"Real"},{"key":"10137135","name":"Via Malcantón","postalCode":"6986","locality":"Novaggio","commune":{"key":"5207","name":"Novaggio","shortName":"Novaggio"},"district":{"key":"2105","name":"Distretto di Lugano"},"canton":{"key":"21","code":"TI","name":"Ticino"},"status":"Real"},{"key":"10137136","name":"Via Mavögn","postalCode":"6986","locality":"Novaggio","commune":{"key":"5207","name":"Novaggio","shortName":"Novaggio"},"district":{"key":"2105","name":"Distretto di Lugano"},"canton":{"key":"21","code":"TI","name":"Ticino"},"status":"Real"},{"key":"10137137","name":"Via Meguldín","postalCode":"6986","locality":"Novaggio","commune":{"key":"5207","name":"Novaggio","shortName":"Novaggio"},"district":{"key":"2105","name":"Distretto di Lugano"},"canton":{"key":"21","code":"TI","name":"Ticino"},"status":"Real"},{"key":"10137139","name":"Via Nóga","postalCode":"6986","locality":"Novaggio","commune":{"key":"5207","name":"Novaggio","shortName":"Novaggio"},"district":{"key":"2105","name":"Distretto di Lugano"},"canton":{"key":"21","code":"TI","name":"Ticino"},"status":"Real"},{"key":"10137140","name":"Via Òrt de Prüvín","postalCode":"6986","locality":"Novaggio","commune":{"key":"5207","name":"Novaggio","shortName":"Novaggio"},"district":{"key":"2105","name":"Distretto di Lugano"},"canton":{"key":"21","code":"TI","name":"Ticino"},"status":"Real"},{"key":"10137141","name":"Via Pazz","postalCode":"6986","locality":"Novaggio","commune":{"key":"5207","name":"Novaggio","shortName":"Novaggio"},"district":{"key":"2105","name":"Distretto di Lugano"},"canton":{"key":"21","code":"TI","name":"Ticino"},"status":"Real"},{"key":"10137142","name":"Via Rívra","postalCode":"6986","locality":"Novaggio","commune":{"key":"5207","name":"Novaggio","shortName":"Novaggio"},"district":{"key":"2105","name":"Distretto di Lugano"},"canton":{"key":"21","code":"TI","name":"Ticino"},"status":"Real"},{"key":"10210357","name":"Via Rónch du Vécc","postalCode":"6986","locality":"Novaggio","commune":{"key":"5207","name":"Novaggio","shortName":"Novaggio"},"district":{"key":"2105","name":"Distretto di Lugano"},"canton":{"key":"21","code":"TI","name":"Ticino"},"status":"Real"},{"key":"10119263","name":"Via Selva Bella","postalCode":"6986","locality":"Novaggio","commune":{"key":"5207","name":"Novaggio","shortName":"Novaggio"},"district":{"key":"2105","name":"Distretto di Lugano"},"canton":{"key":"21","code":"TI","name":"Ticino"},"status":"Real"},{"key":"10137143","name":"Via Sott i Ca","postalCode":"6986","locality":"Novaggio","commune":{"key":"5207","name":"Novaggio","shortName":"Novaggio"},"district":{"key":"2105","name":"Distretto di Lugano"},"canton":{"key":"21","code":"TI","name":"Ticino"},"status":"Real"},{"key":"10137144","name":"Via Traverságn","postalCode":"6986","locality":"Novaggio","commune":{"key":"5207","name":"Novaggio","shortName":"Novaggio"},"district":{"key":"2105","name":"Distretto di Lugano"},"canton":{"key":"21","code":"TI","name":"Ticino"},"status":"Real"},{"key":"10137145","name":"Via Vinéra","postalCode":"6986","locality":"Novaggio","commune":{"key":"5207","name":"Novaggio","shortName":"Novaggio"},"district":{"key":"2105","name":"Distretto di Lugano"},"canton":{"key":"21","code":"TI","name":"Ticino"},"status":"Real"},]