[{"key":"10010267","name":"Aarbergstrasse","postalCode":"3274","locality":"Bühl b. Aarberg","commune":{"key":"734","name":"Bühl","shortName":"Bühl"},"district":{"key":"243","name":"Verwaltungskreis Seeland"},"canton":{"key":"2","code":"BE","name":"Bern / Berne"},"status":"Real"},{"key":"10177369","name":"Adlerweg","postalCode":"3322","locality":"Urtenen-Schönbühl","commune":{"key":"551","name":"Urtenen-Schönbühl","shortName":"Urtenen-Schönbühl"},"district":{"key":"246","name":"Verwaltungskreis Bern-Mittelland"},"canton":{"key":"2","code":"BE","name":"Bern / Berne"},"status":"Real"},{"key":"10093955","name":"Afrüti","postalCode":"9651","locality":"Ennetbühl","commune":{"key":"3360","name":"Nesslau","shortName":"Nesslau"},"district":{"key":"1727","name":"Wahlkreis Toggenburg"},"canton":{"key":"17","code":"SG","name":"St. Gallen"},"status":"Real"},{"key":"10232499","name":"Afrütistrasse","postalCode":"9651","locality":"Ennetbühl","commune":{"key":"3360","name":"Nesslau","shortName":"Nesslau"},"district":{"key":"1727","name":"Wahlkreis Toggenburg"},"canton":{"key":"17","code":"SG","name":"St. Gallen"},"status":"Real"},{"key":"10232503","name":"Afrüti-Tryen-Strasse","postalCode":"9651","locality":"Ennetbühl","commune":{"key":"3360","name":"Nesslau","shortName":"Nesslau"},"district":{"key":"1727","name":"Wahlkreis Toggenburg"},"canton":{"key":"17","code":"SG","name":"St. Gallen"},"status":"Real"},{"key":"10219094","name":"Allme","postalCode":"3274","locality":"Bühl b. Aarberg","commune":{"key":"734","name":"Bühl","shortName":"Bühl"},"district":{"key":"243","name":"Verwaltungskreis Seeland"},"canton":{"key":"2","code":"BE","name":"Bern / Berne"},"status":"Real"},{"key":"10150712","name":"Allmid","postalCode":"3636","locality":"Forst b. Längenbühl","commune":{"key":"948","name":"Forst-Längenbühl","shortName":"Forst-Längenbühl"},"district":{"key":"247","name":"Verwaltungskreis Thun"},"canton":{"key":"2","code":"BE","name":"Bern / Berne"},"status":"Real"},{"key":"10058452","name":"Alpbächli","postalCode":"9651","locality":"Ennetbühl","commune":{"key":"3360","name":"Nesslau","shortName":"Nesslau"},"district":{"key":"1727","name":"Wahlkreis Toggenburg"},"canton":{"key":"17","code":"SG","name":"St. Gallen"},"status":"Real"},{"key":"10010268","name":"Alpenweg","postalCode":"3274","locality":"Bühl b. Aarberg","commune":{"key":"734","name":"Bühl","shortName":"Bühl"},"district":{"key":"243","name":"Verwaltungskreis Seeland"},"canton":{"key":"2","code":"BE","name":"Bern / Berne"},"status":"Real"},{"key":"10078977","name":"Alpmatt","postalCode":"6016","locality":"Hellbühl","commune":{"key":"1062","name":"Malters","shortName":"Malters"},"district":{"key":"312","name":"Wahlkreis Luzern-Land"},"canton":{"key":"3","code":"LU","name":"Luzern"},"status":"Real"},{"key":"10123688","name":"Alte Bernstrasse","postalCode":"3322","locality":"Urtenen-Schönbühl","commune":{"key":"551","name":"Urtenen-Schönbühl","shortName":"Urtenen-Schönbühl"},"district":{"key":"246","name":"Verwaltungskreis Bern-Mittelland"},"canton":{"key":"2","code":"BE","name":"Bern / Berne"},"status":"Real"},{"key":"10250132","name":"Ampferebödeli","postalCode":"9651","locality":"Ennetbühl","commune":{"key":"3360","name":"Nesslau","shortName":"Nesslau"},"district":{"key":"1727","name":"Wahlkreis Toggenburg"},"canton":{"key":"17","code":"SG","name":"St. Gallen"},"status":"Real"},{"key":"10126239","name":"Am Rähn","postalCode":"9055","locality":"Bühler","commune":{"key":"3021","name":"Bühler","shortName":"Bühler"},"district":{"key":"1502","name":"Bezirk Mittelland"},"canton":{"key":"15","code":"AR","name":"Appenzell Ausserrhoden"},"status":"Real"},{"key":"10126241","name":"Am Roggenhalm","postalCode":"9055","locality":"Bühler","commune":{"key":"3021","name":"Bühler","shortName":"Bühler"},"district":{"key":"1502","name":"Bezirk Mittelland"},"canton":{"key":"15","code":"AR","name":"Appenzell Ausserrhoden"},"status":"Real"},{"key":"10049555","name":"Amselweg","postalCode":"3274","locality":"Bühl b. Aarberg","commune":{"key":"734","name":"Bühl","shortName":"Bühl"},"district":{"key":"243","name":"Verwaltungskreis Seeland"},"canton":{"key":"2","code":"BE","name":"Bern / Berne"},"status":"Real"},{"key":"10186470","name":"Amselweg","postalCode":"3322","locality":"Urtenen-Schönbühl","commune":{"key":"551","name":"Urtenen-Schönbühl","shortName":"Urtenen-Schönbühl"},"district":{"key":"246","name":"Verwaltungskreis Bern-Mittelland"},"canton":{"key":"2","code":"BE","name":"Bern / Berne"},"status":"Real"},{"key":"10031948","name":"Au","postalCode":"9055","locality":"Bühler","commune":{"key":"3021","name":"Bühler","shortName":"Bühler"},"district":{"key":"1502","name":"Bezirk Mittelland"},"canton":{"key":"15","code":"AR","name":"Appenzell Ausserrhoden"},"status":"Real"},{"key":"10232035","name":"Aueli","postalCode":"9651","locality":"Ennetbühl","commune":{"key":"3360","name":"Nesslau","shortName":"Nesslau"},"district":{"key":"1727","name":"Wahlkreis Toggenburg"},"canton":{"key":"17","code":"SG","name":"St. Gallen"},"status":"Real"},{"key":"10219098","name":"Auf der Hohlen","postalCode":"3274","locality":"Bühl b. Aarberg","commune":{"key":"734","name":"Bühl","shortName":"Bühl"},"district":{"key":"243","name":"Verwaltungskreis Seeland"},"canton":{"key":"2","code":"BE","name":"Bern / Berne"},"status":"Real"},{"key":"10151941","name":"Austrasse","postalCode":"9055","locality":"Bühler","commune":{"key":"3021","name":"Bühler","shortName":"Bühler"},"district":{"key":"1502","name":"Bezirk Mittelland"},"canton":{"key":"15","code":"AR","name":"Appenzell Ausserrhoden"},"status":"Real"},{"key":"10218100","name":"Bachmatt","postalCode":"3322","locality":"Urtenen-Schönbühl","commune":{"key":"551","name":"Urtenen-Schönbühl","shortName":"Urtenen-Schönbühl"},"district":{"key":"246","name":"Verwaltungskreis Bern-Mittelland"},"canton":{"key":"2","code":"BE","name":"Bern / Berne"},"status":"Real"},{"key":"10009655","name":"Bachweg","postalCode":"3322","locality":"Urtenen-Schönbühl","commune":{"key":"551","name":"Urtenen-Schönbühl","shortName":"Urtenen-Schönbühl"},"district":{"key":"246","name":"Verwaltungskreis Bern-Mittelland"},"canton":{"key":"2","code":"BE","name":"Bern / Berne"},"status":"Real"},{"key":"10065661","name":"Badstrasse","postalCode":"3322","locality":"Urtenen-Schönbühl","commune":{"key":"551","name":"Urtenen-Schönbühl","shortName":"Urtenen-Schönbühl"},"district":{"key":"246","name":"Verwaltungskreis Bern-Mittelland"},"canton":{"key":"2","code":"BE","name":"Bern / Berne"},"status":"Real"},{"key":"10049478","name":"Bahnhofstrasse","postalCode":"3322","locality":"Urtenen-Schönbühl","commune":{"key":"551","name":"Urtenen-Schönbühl","shortName":"Urtenen-Schönbühl"},"district":{"key":"246","name":"Verwaltungskreis Bern-Mittelland"},"canton":{"key":"2","code":"BE","name":"Bern / Berne"},"status":"Real"},{"key":"10215387","name":"Bahnhofstrasse","postalCode":"9055","locality":"Bühler","commune":{"key":"3021","name":"Bühler","shortName":"Bühler"},"district":{"key":"1502","name":"Bezirk Mittelland"},"canton":{"key":"15","code":"AR","name":"Appenzell Ausserrhoden"},"status":"Real"},{"key":"10083703","name":"Bänihus","postalCode":"6016","locality":"Hellbühl","commune":{"key":"1062","name":"Malters","shortName":"Malters"},"district":{"key":"312","name":"Wahlkreis Luzern-Land"},"canton":{"key":"3","code":"LU","name":"Luzern"},"status":"Real"},{"key":"10177371","name":"Baumgärtliweg","postalCode":"3322","locality":"Urtenen-Schönbühl","commune":{"key":"551","name":"Urtenen-Schönbühl","shortName":"Urtenen-Schönbühl"},"district":{"key":"246","name":"Verwaltungskreis Bern-Mittelland"},"canton":{"key":"2","code":"BE","name":"Bern / Berne"},"status":"Real"},{"key":"10173903","name":"Befang Steinleuten","postalCode":"9055","locality":"Bühler","commune":{"key":"3021","name":"Bühler","shortName":"Bühler"},"district":{"key":"1502","name":"Bezirk Mittelland"},"canton":{"key":"15","code":"AR","name":"Appenzell Ausserrhoden"},"status":"Real"},{"key":"10033263","name":"Berg","postalCode":"9651","locality":"Ennetbühl","commune":{"key":"3360","name":"Nesslau","shortName":"Nesslau"},"district":{"key":"1727","name":"Wahlkreis Toggenburg"},"canton":{"key":"17","code":"SG","name":"St. Gallen"},"status":"Real"},{"key":"10003299","name":"Bergackerweg","postalCode":"3322","locality":"Urtenen-Schönbühl","commune":{"key":"551","name":"Urtenen-Schönbühl","shortName":"Urtenen-Schönbühl"},"district":{"key":"246","name":"Verwaltungskreis Bern-Mittelland"},"canton":{"key":"2","code":"BE","name":"Bern / Berne"},"status":"Real"},{"key":"10232579","name":"Berg-Laub","postalCode":"9651","locality":"Ennetbühl","commune":{"key":"3360","name":"Nesslau","shortName":"Nesslau"},"district":{"key":"1727","name":"Wahlkreis Toggenburg"},"canton":{"key":"17","code":"SG","name":"St. Gallen"},"status":"Real"},{"key":"10251074","name":"Bergli","postalCode":"9651","locality":"Ennetbühl","commune":{"key":"3360","name":"Nesslau","shortName":"Nesslau"},"district":{"key":"1727","name":"Wahlkreis Toggenburg"},"canton":{"key":"17","code":"SG","name":"St. Gallen"},"status":"Real"},{"key":"10173905","name":"Bergli Steinleuten","postalCode":"9055","locality":"Bühler","commune":{"key":"3021","name":"Bühler","shortName":"Bühler"},"district":{"key":"1502","name":"Bezirk Mittelland"},"canton":{"key":"15","code":"AR","name":"Appenzell Ausserrhoden"},"status":"Real"},{"key":"10226889","name":"Berg-Oberlaui-Weg","postalCode":"9651","locality":"Ennetbühl","commune":{"key":"3360","name":"Nesslau","shortName":"Nesslau"},"district":{"key":"1727","name":"Wahlkreis Toggenburg"},"canton":{"key":"17","code":"SG","name":"St. Gallen"},"status":"Real"},{"key":"10232602","name":"Bergstrasse","postalCode":"9651","locality":"Ennetbühl","commune":{"key":"3360","name":"Nesslau","shortName":"Nesslau"},"district":{"key":"1727","name":"Wahlkreis Toggenburg"},"canton":{"key":"17","code":"SG","name":"St. Gallen"},"status":"Real"},{"key":"10232606","name":"Bergweg","postalCode":"9651","locality":"Ennetbühl","commune":{"key":"3360","name":"Nesslau","shortName":"Nesslau"},"district":{"key":"1727","name":"Wahlkreis Toggenburg"},"canton":{"key":"17","code":"SG","name":"St. Gallen"},"status":"Real"},{"key":"10232610","name":"Bernhalden-Horn-Weg","postalCode":"9651","locality":"Ennetbühl","commune":{"key":"3360","name":"Nesslau","shortName":"Nesslau"},"district":{"key":"1727","name":"Wahlkreis Toggenburg"},"canton":{"key":"17","code":"SG","name":"St. Gallen"},"status":"Real"},{"key":"10081891","name":"Bernstrasse","postalCode":"3322","locality":"Urtenen-Schönbühl","commune":{"key":"551","name":"Urtenen-Schönbühl","shortName":"Urtenen-Schönbühl"},"district":{"key":"246","name":"Verwaltungskreis Bern-Mittelland"},"canton":{"key":"2","code":"BE","name":"Bern / Berne"},"status":"Real"},{"key":"10008455","name":"Bernstrasse","postalCode":"3322","locality":"Urtenen-Schönbühl","commune":{"key":"551","name":"Urtenen-Schönbühl","shortName":"Urtenen-Schönbühl"},"district":{"key":"246","name":"Verwaltungskreis Bern-Mittelland"},"canton":{"key":"2","code":"BE","name":"Bern / Berne"},"status":"Real"},{"key":"10104747","name":"Bielstrasse","postalCode":"3274","locality":"Bühl b. Aarberg","commune":{"key":"734","name":"Bühl","shortName":"Bühl"},"district":{"key":"243","name":"Verwaltungskreis Seeland"},"canton":{"key":"2","code":"BE","name":"Bern / Berne"},"status":"Real"},{"key":"10075097","name":"Bim Bach","postalCode":"3636","locality":"Längenbühl","commune":{"key":"948","name":"Forst-Längenbühl","shortName":"Forst-Längenbühl"},"district":{"key":"247","name":"Verwaltungskreis Thun"},"canton":{"key":"2","code":"BE","name":"Bern / Berne"},"status":"Real"},{"key":"10175110","name":"Bim Türli","postalCode":"3636","locality":"Längenbühl","commune":{"key":"948","name":"Forst-Längenbühl","shortName":"Forst-Längenbühl"},"district":{"key":"247","name":"Verwaltungskreis Thun"},"canton":{"key":"2","code":"BE","name":"Bern / Berne"},"status":"Real"},{"key":"10061917","name":"Bim Wald","postalCode":"3636","locality":"Längenbühl","commune":{"key":"948","name":"Forst-Längenbühl","shortName":"Forst-Längenbühl"},"district":{"key":"247","name":"Verwaltungskreis Thun"},"canton":{"key":"2","code":"BE","name":"Bern / Berne"},"status":"Real"},{"key":"10146194","name":"Bleichelistrasse","postalCode":"9055","locality":"Bühler","commune":{"key":"3021","name":"Bühler","shortName":"Bühler"},"district":{"key":"1502","name":"Bezirk Mittelland"},"canton":{"key":"15","code":"AR","name":"Appenzell Ausserrhoden"},"status":"Real"},{"key":"10126224","name":"Blumenberg","postalCode":"9055","locality":"Bühler","commune":{"key":"3021","name":"Bühler","shortName":"Bühler"},"district":{"key":"1502","name":"Bezirk Mittelland"},"canton":{"key":"15","code":"AR","name":"Appenzell Ausserrhoden"},"status":"Real"},{"key":"10147676","name":"Blumensteinstrasse","postalCode":"3636","locality":"Längenbühl","commune":{"key":"948","name":"Forst-Längenbühl","shortName":"Forst-Längenbühl"},"district":{"key":"247","name":"Verwaltungskreis Thun"},"canton":{"key":"2","code":"BE","name":"Bern / Berne"},"status":"Real"},{"key":"10112145","name":"Blumenweg","postalCode":"3322","locality":"Urtenen-Schönbühl","commune":{"key":"551","name":"Urtenen-Schönbühl","shortName":"Urtenen-Schönbühl"},"district":{"key":"246","name":"Verwaltungskreis Bern-Mittelland"},"canton":{"key":"2","code":"BE","name":"Bern / Berne"},"status":"Real"},{"key":"10017032","name":"Bodematt","postalCode":"6016","locality":"Hellbühl","commune":{"key":"1062","name":"Malters","shortName":"Malters"},"district":{"key":"312","name":"Wahlkreis Luzern-Land"},"canton":{"key":"3","code":"LU","name":"Luzern"},"status":"Real"},{"key":"10075895","name":"Boden","postalCode":"9651","locality":"Ennetbühl","commune":{"key":"3360","name":"Nesslau","shortName":"Nesslau"},"district":{"key":"1727","name":"Wahlkreis Toggenburg"},"canton":{"key":"17","code":"SG","name":"St. Gallen"},"status":"Real"},{"key":"10118288","name":"Bodenhüslistrasse","postalCode":"9651","locality":"Ennetbühl","commune":{"key":"3360","name":"Nesslau","shortName":"Nesslau"},"district":{"key":"1727","name":"Wahlkreis Toggenburg"},"canton":{"key":"17","code":"SG","name":"St. Gallen"},"status":"Real"},{"key":"10232626","name":"Bodenstrasse","postalCode":"9651","locality":"Ennetbühl","commune":{"key":"3360","name":"Nesslau","shortName":"Nesslau"},"district":{"key":"1727","name":"Wahlkreis Toggenburg"},"canton":{"key":"17","code":"SG","name":"St. Gallen"},"status":"Real"},{"key":"10147677","name":"Bodeschür","postalCode":"3636","locality":"Längenbühl","commune":{"key":"948","name":"Forst-Längenbühl","shortName":"Forst-Längenbühl"},"district":{"key":"247","name":"Verwaltungskreis Thun"},"canton":{"key":"2","code":"BE","name":"Bern / Berne"},"status":"Real"},{"key":"10146196","name":"Böhlstrasse","postalCode":"9055","locality":"Bühler","commune":{"key":"3021","name":"Bühler","shortName":"Bühler"},"district":{"key":"1502","name":"Bezirk Mittelland"},"canton":{"key":"15","code":"AR","name":"Appenzell Ausserrhoden"},"status":"Real"},{"key":"10055179","name":"Bohnere","postalCode":"3274","locality":"Bühl b. Aarberg","commune":{"key":"734","name":"Bühl","shortName":"Bühl"},"district":{"key":"243","name":"Verwaltungskreis Seeland"},"canton":{"key":"2","code":"BE","name":"Bern / Berne"},"status":"Real"},{"key":"10219102","name":"Bösematt","postalCode":"3274","locality":"Bühl b. Aarberg","commune":{"key":"734","name":"Bühl","shortName":"Bühl"},"district":{"key":"243","name":"Verwaltungskreis Seeland"},"canton":{"key":"2","code":"BE","name":"Bern / Berne"},"status":"Real"},{"key":"10150713","name":"Breite","postalCode":"3636","locality":"Forst b. Längenbühl","commune":{"key":"948","name":"Forst-Längenbühl","shortName":"Forst-Längenbühl"},"district":{"key":"247","name":"Verwaltungskreis Thun"},"canton":{"key":"2","code":"BE","name":"Bern / Berne"},"status":"Real"},{"key":"10226456","name":"Breitensteinstrasse","postalCode":"9651","locality":"Ennetbühl","commune":{"key":"3360","name":"Nesslau","shortName":"Nesslau"},"district":{"key":"1727","name":"Wahlkreis Toggenburg"},"canton":{"key":"17","code":"SG","name":"St. Gallen"},"status":"Real"},{"key":"10109951","name":"Bremgarten","postalCode":"6016","locality":"Hellbühl","commune":{"key":"1062","name":"Malters","shortName":"Malters"},"district":{"key":"312","name":"Wahlkreis Luzern-Land"},"canton":{"key":"3","code":"LU","name":"Luzern"},"status":"Real"},{"key":"10117279","name":"Brenten","postalCode":"6016","locality":"Hellbühl","commune":{"key":"1062","name":"Malters","shortName":"Malters"},"district":{"key":"312","name":"Wahlkreis Luzern-Land"},"canton":{"key":"3","code":"LU","name":"Luzern"},"status":"Real"},{"key":"10226464","name":"Bruderschwendiweg","postalCode":"9651","locality":"Ennetbühl","commune":{"key":"3360","name":"Nesslau","shortName":"Nesslau"},"district":{"key":"1727","name":"Wahlkreis Toggenburg"},"canton":{"key":"17","code":"SG","name":"St. Gallen"},"status":"Real"},{"key":"10075896","name":"Brüggli","postalCode":"9651","locality":"Ennetbühl","commune":{"key":"3360","name":"Nesslau","shortName":"Nesslau"},"district":{"key":"1727","name":"Wahlkreis Toggenburg"},"canton":{"key":"17","code":"SG","name":"St. Gallen"},"status":"Real"},{"key":"10147679","name":"Brunnacher","postalCode":"3636","locality":"Forst b. Längenbühl","commune":{"key":"948","name":"Forst-Längenbühl","shortName":"Forst-Längenbühl"},"district":{"key":"247","name":"Verwaltungskreis Thun"},"canton":{"key":"2","code":"BE","name":"Bern / Berne"},"status":"Real"},{"key":"10003300","name":"Bubenlooweg","postalCode":"3322","locality":"Urtenen-Schönbühl","commune":{"key":"551","name":"Urtenen-Schönbühl","shortName":"Urtenen-Schönbühl"},"district":{"key":"246","name":"Verwaltungskreis Bern-Mittelland"},"canton":{"key":"2","code":"BE","name":"Bern / Berne"},"status":"Real"},{"key":"10251077","name":"Büchel","postalCode":"9651","locality":"Ennetbühl","commune":{"key":"3360","name":"Nesslau","shortName":"Nesslau"},"district":{"key":"1727","name":"Wahlkreis Toggenburg"},"canton":{"key":"17","code":"SG","name":"St. Gallen"},"status":"Real"},{"key":"10226476","name":"Büchelstrasse","postalCode":"9651","locality":"Ennetbühl","commune":{"key":"3360","name":"Nesslau","shortName":"Nesslau"},"district":{"key":"1727","name":"Wahlkreis Toggenburg"},"canton":{"key":"17","code":"SG","name":"St. Gallen"},"status":"Real"},{"key":"10179098","name":"Buchen","postalCode":"6016","locality":"Hellbühl","commune":{"key":"1062","name":"Malters","shortName":"Malters"},"district":{"key":"312","name":"Wahlkreis Luzern-Land"},"canton":{"key":"3","code":"LU","name":"Luzern"},"status":"Real"},{"key":"10122506","name":"Buchenweg","postalCode":"3322","locality":"Urtenen-Schönbühl","commune":{"key":"551","name":"Urtenen-Schönbühl","shortName":"Urtenen-Schönbühl"},"district":{"key":"246","name":"Verwaltungskreis Bern-Mittelland"},"canton":{"key":"2","code":"BE","name":"Bern / Berne"},"status":"Real"},{"key":"10074210","name":"Buchenweid","postalCode":"6016","locality":"Hellbühl","commune":{"key":"1062","name":"Malters","shortName":"Malters"},"district":{"key":"312","name":"Wahlkreis Luzern-Land"},"canton":{"key":"3","code":"LU","name":"Luzern"},"status":"Real"},{"key":"10226524","name":"Bügenweg","postalCode":"9651","locality":"Ennetbühl","commune":{"key":"3360","name":"Nesslau","shortName":"Nesslau"},"district":{"key":"1727","name":"Wahlkreis Toggenburg"},"canton":{"key":"17","code":"SG","name":"St. Gallen"},"status":"Real"},{"key":"10219106","name":"Bühlweg","postalCode":"3274","locality":"Bühl b. Aarberg","commune":{"key":"734","name":"Bühl","shortName":"Bühl"},"district":{"key":"243","name":"Verwaltungskreis Seeland"},"canton":{"key":"2","code":"BE","name":"Bern / Berne"},"status":"Real"},{"key":"10162678","name":"Chalbermoos","postalCode":"3636","locality":"Längenbühl","commune":{"key":"948","name":"Forst-Längenbühl","shortName":"Forst-Längenbühl"},"district":{"key":"247","name":"Verwaltungskreis Thun"},"canton":{"key":"2","code":"BE","name":"Bern / Berne"},"status":"Real"},{"key":"10074483","name":"Chällenweg","postalCode":"6016","locality":"Hellbühl","commune":{"key":"1062","name":"Malters","shortName":"Malters"},"district":{"key":"312","name":"Wahlkreis Luzern-Land"},"canton":{"key":"3","code":"LU","name":"Luzern"},"status":"Real"},{"key":"10228595","name":"Chatzenlochweg","postalCode":"9651","locality":"Ennetbühl","commune":{"key":"3360","name":"Nesslau","shortName":"Nesslau"},"district":{"key":"1727","name":"Wahlkreis Toggenburg"},"canton":{"key":"17","code":"SG","name":"St. Gallen"},"status":"Real"},{"key":"10010953","name":"Cheer","postalCode":"3636","locality":"Längenbühl","commune":{"key":"948","name":"Forst-Längenbühl","shortName":"Forst-Längenbühl"},"district":{"key":"247","name":"Verwaltungskreis Thun"},"canton":{"key":"2","code":"BE","name":"Bern / Berne"},"status":"Real"},{"key":"10167580","name":"Chellen","postalCode":"9055","locality":"Bühler","commune":{"key":"3021","name":"Bühler","shortName":"Bühler"},"district":{"key":"1502","name":"Bezirk Mittelland"},"canton":{"key":"15","code":"AR","name":"Appenzell Ausserrhoden"},"status":"Real"},{"key":"10147652","name":"Chellenweid","postalCode":"9055","locality":"Bühler","commune":{"key":"3021","name":"Bühler","shortName":"Bühler"},"district":{"key":"1502","name":"Bezirk Mittelland"},"canton":{"key":"15","code":"AR","name":"Appenzell Ausserrhoden"},"status":"Real"},{"key":"10232273","name":"Chengelmoos","postalCode":"9651","locality":"Ennetbühl","commune":{"key":"3360","name":"Nesslau","shortName":"Nesslau"},"district":{"key":"1727","name":"Wahlkreis Toggenburg"},"canton":{"key":"17","code":"SG","name":"St. Gallen"},"status":"Real"},{"key":"10232281","name":"Chessler","postalCode":"9651","locality":"Ennetbühl","commune":{"key":"3360","name":"Nesslau","shortName":"Nesslau"},"district":{"key":"1727","name":"Wahlkreis Toggenburg"},"canton":{"key":"17","code":"SG","name":"St. Gallen"},"status":"Real"},{"key":"10185531","name":"Chlinismad","postalCode":"3636","locality":"Längenbühl","commune":{"key":"948","name":"Forst-Längenbühl","shortName":"Forst-Längenbühl"},"district":{"key":"247","name":"Verwaltungskreis Thun"},"canton":{"key":"2","code":"BE","name":"Bern / Berne"},"status":"Real"},{"key":"10039416","name":"Chliweidli","postalCode":"3636","locality":"Forst b. Längenbühl","commune":{"key":"948","name":"Forst-Längenbühl","shortName":"Forst-Längenbühl"},"district":{"key":"247","name":"Verwaltungskreis Thun"},"canton":{"key":"2","code":"BE","name":"Bern / Berne"},"status":"Real"},{"key":"10232285","name":"Chlosteralpstrasse","postalCode":"9651","locality":"Ennetbühl","commune":{"key":"3360","name":"Nesslau","shortName":"Nesslau"},"district":{"key":"1727","name":"Wahlkreis Toggenburg"},"canton":{"key":"17","code":"SG","name":"St. Gallen"},"status":"Real"},{"key":"10147680","name":"Cholschwand","postalCode":"3636","locality":"Forst b. Längenbühl","commune":{"key":"948","name":"Forst-Längenbühl","shortName":"Forst-Längenbühl"},"district":{"key":"247","name":"Verwaltungskreis Thun"},"canton":{"key":"2","code":"BE","name":"Bern / Berne"},"status":"Real"},{"key":"10232289","name":"Cholwaldweg","postalCode":"9651","locality":"Ennetbühl","commune":{"key":"3360","name":"Nesslau","shortName":"Nesslau"},"district":{"key":"1727","name":"Wahlkreis Toggenburg"},"canton":{"key":"17","code":"SG","name":"St. Gallen"},"status":"Real"},{"key":"10232300","name":"Chopfbergweg","postalCode":"9651","locality":"Ennetbühl","commune":{"key":"3360","name":"Nesslau","shortName":"Nesslau"},"district":{"key":"1727","name":"Wahlkreis Toggenburg"},"canton":{"key":"17","code":"SG","name":"St. Gallen"},"status":"Real"},{"key":"10232304","name":"Choster","postalCode":"9651","locality":"Ennetbühl","commune":{"key":"3360","name":"Nesslau","shortName":"Nesslau"},"district":{"key":"1727","name":"Wahlkreis Toggenburg"},"canton":{"key":"17","code":"SG","name":"St. Gallen"},"status":"Real"},{"key":"10082950","name":"Chriesiweg","postalCode":"3322","locality":"Urtenen-Schönbühl","commune":{"key":"551","name":"Urtenen-Schönbühl","shortName":"Urtenen-Schönbühl"},"district":{"key":"246","name":"Verwaltungskreis Bern-Mittelland"},"canton":{"key":"2","code":"BE","name":"Bern / Berne"},"status":"Real"},{"key":"10150714","name":"Chrome","postalCode":"3636","locality":"Forst b. Längenbühl","commune":{"key":"948","name":"Forst-Längenbühl","shortName":"Forst-Längenbühl"},"district":{"key":"247","name":"Verwaltungskreis Thun"},"canton":{"key":"2","code":"BE","name":"Bern / Berne"},"status":"Real"},{"key":"10206392","name":"Chrummbaum","postalCode":"6016","locality":"Hellbühl","commune":{"key":"1062","name":"Malters","shortName":"Malters"},"district":{"key":"312","name":"Wahlkreis Luzern-Land"},"canton":{"key":"3","code":"LU","name":"Luzern"},"status":"Real"},{"key":"10232317","name":"Chüisweg","postalCode":"9651","locality":"Ennetbühl","commune":{"key":"3360","name":"Nesslau","shortName":"Nesslau"},"district":{"key":"1727","name":"Wahlkreis Toggenburg"},"canton":{"key":"17","code":"SG","name":"St. Gallen"},"status":"Real"},{"key":"10128440","name":"Chumm","postalCode":"3636","locality":"Längenbühl","commune":{"key":"948","name":"Forst-Längenbühl","shortName":"Forst-Längenbühl"},"district":{"key":"247","name":"Verwaltungskreis Thun"},"canton":{"key":"2","code":"BE","name":"Bern / Berne"},"status":"Real"},{"key":"10147653","name":"Dachsböhl","postalCode":"9055","locality":"Bühler","commune":{"key":"3021","name":"Bühler","shortName":"Bühler"},"district":{"key":"1502","name":"Bezirk Mittelland"},"canton":{"key":"15","code":"AR","name":"Appenzell Ausserrhoden"},"status":"Real"},{"key":"10061918","name":"Dittlige","postalCode":"3636","locality":"Längenbühl","commune":{"key":"948","name":"Forst-Längenbühl","shortName":"Forst-Längenbühl"},"district":{"key":"247","name":"Verwaltungskreis Thun"},"canton":{"key":"2","code":"BE","name":"Bern / Berne"},"status":"Real"},{"key":"10059867","name":"Dittligegg","postalCode":"3636","locality":"Längenbühl","commune":{"key":"948","name":"Forst-Längenbühl","shortName":"Forst-Längenbühl"},"district":{"key":"247","name":"Verwaltungskreis Thun"},"canton":{"key":"2","code":"BE","name":"Bern / Berne"},"status":"Real"},{"key":"10147654","name":"Domisau","postalCode":"9055","locality":"Bühler","commune":{"key":"3021","name":"Bühler","shortName":"Bühler"},"district":{"key":"1502","name":"Bezirk Mittelland"},"canton":{"key":"15","code":"AR","name":"Appenzell Ausserrhoden"},"status":"Real"},{"key":"10251354","name":"Dorf","postalCode":"9651","locality":"Ennetbühl","commune":{"key":"3360","name":"Nesslau","shortName":"Nesslau"},"district":{"key":"1727","name":"Wahlkreis Toggenburg"},"canton":{"key":"17","code":"SG","name":"St. Gallen"},"status":"Real"},{"key":"10108664","name":"Dörfli","postalCode":"3636","locality":"Forst b. Längenbühl","commune":{"key":"948","name":"Forst-Längenbühl","shortName":"Forst-Längenbühl"},"district":{"key":"247","name":"Verwaltungskreis Thun"},"canton":{"key":"2","code":"BE","name":"Bern / Berne"},"status":"Real"},{"key":"10147655","name":"Dorfmühle","postalCode":"9055","locality":"Bühler","commune":{"key":"3021","name":"Bühler","shortName":"Bühler"},"district":{"key":"1502","name":"Bezirk Mittelland"},"canton":{"key":"15","code":"AR","name":"Appenzell Ausserrhoden"},"status":"Real"},{"key":"10131161","name":"Dorfstrasse","postalCode":"3274","locality":"Bühl b. Aarberg","commune":{"key":"734","name":"Bühl","shortName":"Bühl"},"district":{"key":"243","name":"Verwaltungskreis Seeland"},"canton":{"key":"2","code":"BE","name":"Bern / Berne"},"status":"Real"},{"key":"10142272","name":"Dorfstrasse","postalCode":"9055","locality":"Bühler","commune":{"key":"3021","name":"Bühler","shortName":"Bühler"},"district":{"key":"1502","name":"Bezirk Mittelland"},"canton":{"key":"15","code":"AR","name":"Appenzell Ausserrhoden"},"status":"Real"},{"key":"10194136","name":"Dorfstrasse","postalCode":"9055","locality":"Bühler","commune":{"key":"3021","name":"Bühler","shortName":"Bühler"},"district":{"key":"1502","name":"Bezirk Mittelland"},"canton":{"key":"15","code":"AR","name":"Appenzell Ausserrhoden"},"status":"Real"},{"key":"10049479","name":"Dorniackerstrasse","postalCode":"3322","locality":"Urtenen-Schönbühl","commune":{"key":"551","name":"Urtenen-Schönbühl","shortName":"Urtenen-Schönbühl"},"district":{"key":"246","name":"Verwaltungskreis Bern-Mittelland"},"canton":{"key":"2","code":"BE","name":"Bern / Berne"},"status":"Real"},{"key":"10232366","name":"Dräher-Wälli-Strasse","postalCode":"9651","locality":"Ennetbühl","commune":{"key":"3360","name":"Nesslau","shortName":"Nesslau"},"district":{"key":"1727","name":"Wahlkreis Toggenburg"},"canton":{"key":"17","code":"SG","name":"St. Gallen"},"status":"Real"},{"key":"10147656","name":"Ebnet","postalCode":"9055","locality":"Bühler","commune":{"key":"3021","name":"Bühler","shortName":"Bühler"},"district":{"key":"1502","name":"Bezirk Mittelland"},"canton":{"key":"15","code":"AR","name":"Appenzell Ausserrhoden"},"status":"Real"},{"key":"10147657","name":"Ebni","postalCode":"9055","locality":"Bühler","commune":{"key":"3021","name":"Bühler","shortName":"Bühler"},"district":{"key":"1502","name":"Bezirk Mittelland"},"canton":{"key":"15","code":"AR","name":"Appenzell Ausserrhoden"},"status":"Real"},{"key":"10147658","name":"Edelgrueb","postalCode":"9055","locality":"Bühler","commune":{"key":"3021","name":"Bühler","shortName":"Bühler"},"district":{"key":"1502","name":"Bezirk Mittelland"},"canton":{"key":"15","code":"AR","name":"Appenzell Ausserrhoden"},"status":"Real"},{"key":"10147659","name":"Egg","postalCode":"9055","locality":"Bühler","commune":{"key":"3021","name":"Bühler","shortName":"Bühler"},"district":{"key":"1502","name":"Bezirk Mittelland"},"canton":{"key":"15","code":"AR","name":"Appenzell Ausserrhoden"},"status":"Real"},{"key":"10010950","name":"Egge","postalCode":"3636","locality":"Längenbühl","commune":{"key":"948","name":"Forst-Längenbühl","shortName":"Forst-Längenbühl"},"district":{"key":"247","name":"Verwaltungskreis Thun"},"canton":{"key":"2","code":"BE","name":"Bern / Berne"},"status":"Real"},{"key":"10251091","name":"Eggli","postalCode":"9651","locality":"Ennetbühl","commune":{"key":"3360","name":"Nesslau","shortName":"Nesslau"},"district":{"key":"1727","name":"Wahlkreis Toggenburg"},"canton":{"key":"17","code":"SG","name":"St. Gallen"},"status":"Real"},{"key":"10250886","name":"Egglistrasse","postalCode":"9651","locality":"Ennetbühl","commune":{"key":"3360","name":"Nesslau","shortName":"Nesslau"},"district":{"key":"1727","name":"Wahlkreis Toggenburg"},"canton":{"key":"17","code":"SG","name":"St. Gallen"},"status":"Real"},{"key":"10173901","name":"Egg Steinleuten","postalCode":"9055","locality":"Bühler","commune":{"key":"3021","name":"Bühler","shortName":"Bühler"},"district":{"key":"1502","name":"Bezirk Mittelland"},"canton":{"key":"15","code":"AR","name":"Appenzell Ausserrhoden"},"status":"Real"},{"key":"10146199","name":"Eggstrasse","postalCode":"9055","locality":"Bühler","commune":{"key":"3021","name":"Bühler","shortName":"Bühler"},"district":{"key":"1502","name":"Bezirk Mittelland"},"canton":{"key":"15","code":"AR","name":"Appenzell Ausserrhoden"},"status":"Real"},{"key":"10049556","name":"Eichhofweg","postalCode":"3274","locality":"Bühl b. Aarberg","commune":{"key":"734","name":"Bühl","shortName":"Bühl"},"district":{"key":"243","name":"Verwaltungskreis Seeland"},"canton":{"key":"2","code":"BE","name":"Bern / Berne"},"status":"Real"},{"key":"10009657","name":"Eigerweg","postalCode":"3322","locality":"Urtenen-Schönbühl","commune":{"key":"551","name":"Urtenen-Schönbühl","shortName":"Urtenen-Schönbühl"},"district":{"key":"246","name":"Verwaltungskreis Bern-Mittelland"},"canton":{"key":"2","code":"BE","name":"Bern / Berne"},"status":"Real"},{"key":"10228760","name":"Ellbogenweg","postalCode":"9651","locality":"Ennetbühl","commune":{"key":"3360","name":"Nesslau","shortName":"Nesslau"},"district":{"key":"1727","name":"Wahlkreis Toggenburg"},"canton":{"key":"17","code":"SG","name":"St. Gallen"},"status":"Real"},{"key":"10226744","name":"Ennetbühlerstrasse","postalCode":"9651","locality":"Ennetbühl","commune":{"key":"3360","name":"Nesslau","shortName":"Nesslau"},"district":{"key":"1727","name":"Wahlkreis Toggenburg"},"canton":{"key":"17","code":"SG","name":"St. Gallen"},"status":"Real"},{"key":"10003301","name":"Etzmattrain","postalCode":"3322","locality":"Urtenen-Schönbühl","commune":{"key":"551","name":"Urtenen-Schönbühl","shortName":"Urtenen-Schönbühl"},"district":{"key":"246","name":"Verwaltungskreis Bern-Mittelland"},"canton":{"key":"2","code":"BE","name":"Bern / Berne"},"status":"Real"},{"key":"10065662","name":"Etzmattstrasse","postalCode":"3322","locality":"Urtenen-Schönbühl","commune":{"key":"551","name":"Urtenen-Schönbühl","shortName":"Urtenen-Schönbühl"},"district":{"key":"246","name":"Verwaltungskreis Bern-Mittelland"},"canton":{"key":"2","code":"BE","name":"Bern / Berne"},"status":"Real"},{"key":"10059694","name":"Eugst","postalCode":"9055","locality":"Bühler","commune":{"key":"3021","name":"Bühler","shortName":"Bühler"},"district":{"key":"1502","name":"Bezirk Mittelland"},"canton":{"key":"15","code":"AR","name":"Appenzell Ausserrhoden"},"status":"Real"},{"key":"10033265","name":"Evabrunnen","postalCode":"9651","locality":"Ennetbühl","commune":{"key":"3360","name":"Nesslau","shortName":"Nesslau"},"district":{"key":"1727","name":"Wahlkreis Toggenburg"},"canton":{"key":"17","code":"SG","name":"St. Gallen"},"status":"Real"},{"key":"10234493","name":"Evabrunnen-Stockenriet","postalCode":"9651","locality":"Ennetbühl","commune":{"key":"3360","name":"Nesslau","shortName":"Nesslau"},"district":{"key":"1727","name":"Wahlkreis Toggenburg"},"canton":{"key":"17","code":"SG","name":"St. Gallen"},"status":"Real"},{"key":"10075897","name":"Feissenmoos","postalCode":"9651","locality":"Ennetbühl","commune":{"key":"3360","name":"Nesslau","shortName":"Nesslau"},"district":{"key":"1727","name":"Wahlkreis Toggenburg"},"canton":{"key":"17","code":"SG","name":"St. Gallen"},"status":"Real"},{"key":"10226786","name":"Feissenmoos-Laub","postalCode":"9651","locality":"Ennetbühl","commune":{"key":"3360","name":"Nesslau","shortName":"Nesslau"},"district":{"key":"1727","name":"Wahlkreis Toggenburg"},"canton":{"key":"17","code":"SG","name":"St. Gallen"},"status":"Real"},{"key":"10226790","name":"Feissenmoosstrasse","postalCode":"9651","locality":"Ennetbühl","commune":{"key":"3360","name":"Nesslau","shortName":"Nesslau"},"district":{"key":"1727","name":"Wahlkreis Toggenburg"},"canton":{"key":"17","code":"SG","name":"St. Gallen"},"status":"Real"},{"key":"10033266","name":"Feld","postalCode":"9651","locality":"Ennetbühl","commune":{"key":"3360","name":"Nesslau","shortName":"Nesslau"},"district":{"key":"1727","name":"Wahlkreis Toggenburg"},"canton":{"key":"17","code":"SG","name":"St. Gallen"},"status":"Real"},{"key":"10003290","name":"Feldeggstrasse","postalCode":"3322","locality":"Urtenen-Schönbühl","commune":{"key":"551","name":"Urtenen-Schönbühl","shortName":"Urtenen-Schönbühl"},"district":{"key":"246","name":"Verwaltungskreis Bern-Mittelland"},"canton":{"key":"2","code":"BE","name":"Bern / Berne"},"status":"Real"},{"key":"10126225","name":"Feldi","postalCode":"9055","locality":"Bühler","commune":{"key":"3021","name":"Bühler","shortName":"Bühler"},"district":{"key":"1502","name":"Bezirk Mittelland"},"canton":{"key":"15","code":"AR","name":"Appenzell Ausserrhoden"},"status":"Real"},{"key":"10150510","name":"Felsen","postalCode":"9055","locality":"Bühler","commune":{"key":"3021","name":"Bühler","shortName":"Bühler"},"district":{"key":"1502","name":"Bezirk Mittelland"},"canton":{"key":"15","code":"AR","name":"Appenzell Ausserrhoden"},"status":"Real"},{"key":"10049480","name":"Finkenweg","postalCode":"3322","locality":"Urtenen-Schönbühl","commune":{"key":"551","name":"Urtenen-Schönbühl","shortName":"Urtenen-Schönbühl"},"district":{"key":"246","name":"Verwaltungskreis Bern-Mittelland"},"canton":{"key":"2","code":"BE","name":"Bern / Berne"},"status":"Real"},{"key":"10150715","name":"Fischacher","postalCode":"3636","locality":"Forst b. Längenbühl","commune":{"key":"948","name":"Forst-Längenbühl","shortName":"Forst-Längenbühl"},"district":{"key":"247","name":"Verwaltungskreis Thun"},"canton":{"key":"2","code":"BE","name":"Bern / Berne"},"status":"Real"},{"key":"10147660","name":"Foren","postalCode":"9055","locality":"Bühler","commune":{"key":"3021","name":"Bühler","shortName":"Bühler"},"district":{"key":"1502","name":"Bezirk Mittelland"},"canton":{"key":"15","code":"AR","name":"Appenzell Ausserrhoden"},"status":"Real"},{"key":"10003302","name":"Friedhofweg","postalCode":"3322","locality":"Urtenen-Schönbühl","commune":{"key":"551","name":"Urtenen-Schönbühl","shortName":"Urtenen-Schönbühl"},"district":{"key":"246","name":"Verwaltungskreis Bern-Mittelland"},"canton":{"key":"2","code":"BE","name":"Bern / Berne"},"status":"Real"},{"key":"10010949","name":"Gäbacher","postalCode":"3636","locality":"Längenbühl","commune":{"key":"948","name":"Forst-Längenbühl","shortName":"Forst-Längenbühl"},"district":{"key":"247","name":"Verwaltungskreis Thun"},"canton":{"key":"2","code":"BE","name":"Bern / Berne"},"status":"Real"},{"key":"10166257","name":"Gallis","postalCode":"9651","locality":"Ennetbühl","commune":{"key":"3360","name":"Nesslau","shortName":"Nesslau"},"district":{"key":"1727","name":"Wahlkreis Toggenburg"},"canton":{"key":"17","code":"SG","name":"St. Gallen"},"status":"Real"},{"key":"10075898","name":"Gampi","postalCode":"9651","locality":"Ennetbühl","commune":{"key":"3360","name":"Nesslau","shortName":"Nesslau"},"district":{"key":"1727","name":"Wahlkreis Toggenburg"},"canton":{"key":"17","code":"SG","name":"St. Gallen"},"status":"Real"},{"key":"10234569","name":"Gampi-Stigelen","postalCode":"9651","locality":"Ennetbühl","commune":{"key":"3360","name":"Nesslau","shortName":"Nesslau"},"district":{"key":"1727","name":"Wahlkreis Toggenburg"},"canton":{"key":"17","code":"SG","name":"St. Gallen"},"status":"Real"},{"key":"10234573","name":"Gampistrasse","postalCode":"9651","locality":"Ennetbühl","commune":{"key":"3360","name":"Nesslau","shortName":"Nesslau"},"district":{"key":"1727","name":"Wahlkreis Toggenburg"},"canton":{"key":"17","code":"SG","name":"St. Gallen"},"status":"Real"},{"key":"10081892","name":"Gartenweg","postalCode":"3322","locality":"Urtenen-Schönbühl","commune":{"key":"551","name":"Urtenen-Schönbühl","shortName":"Urtenen-Schönbühl"},"district":{"key":"246","name":"Verwaltungskreis Bern-Mittelland"},"canton":{"key":"2","code":"BE","name":"Bern / Berne"},"status":"Real"},{"key":"10004893","name":"Gässli","postalCode":"3636","locality":"Forst b. Längenbühl","commune":{"key":"948","name":"Forst-Längenbühl","shortName":"Forst-Längenbühl"},"district":{"key":"247","name":"Verwaltungskreis Thun"},"canton":{"key":"2","code":"BE","name":"Bern / Berne"},"status":"Real"},{"key":"10066936","name":"Geissrain","postalCode":"3636","locality":"Forst b. Längenbühl","commune":{"key":"948","name":"Forst-Längenbühl","shortName":"Forst-Längenbühl"},"district":{"key":"247","name":"Verwaltungskreis Thun"},"canton":{"key":"2","code":"BE","name":"Bern / Berne"},"status":"Real"},{"key":"10010951","name":"Geistsee","postalCode":"3636","locality":"Längenbühl","commune":{"key":"948","name":"Forst-Längenbühl","shortName":"Forst-Längenbühl"},"district":{"key":"247","name":"Verwaltungskreis Thun"},"canton":{"key":"2","code":"BE","name":"Bern / Berne"},"status":"Real"},{"key":"10228934","name":"Gerli-Leser-Weg","postalCode":"9651","locality":"Ennetbühl","commune":{"key":"3360","name":"Nesslau","shortName":"Nesslau"},"district":{"key":"1727","name":"Wahlkreis Toggenburg"},"canton":{"key":"17","code":"SG","name":"St. Gallen"},"status":"Real"},{"key":"10147661","name":"Gern","postalCode":"9055","locality":"Bühler","commune":{"key":"3021","name":"Bühler","shortName":"Bühler"},"district":{"key":"1502","name":"Bezirk Mittelland"},"canton":{"key":"15","code":"AR","name":"Appenzell Ausserrhoden"},"status":"Real"},{"key":"10228949","name":"Gerzenberg-Lüchern","postalCode":"9651","locality":"Ennetbühl","commune":{"key":"3360","name":"Nesslau","shortName":"Nesslau"},"district":{"key":"1727","name":"Wahlkreis Toggenburg"},"canton":{"key":"17","code":"SG","name":"St. Gallen"},"status":"Real"},{"key":"10155404","name":"Gewerbestrasse","postalCode":"3322","locality":"Urtenen-Schönbühl","commune":{"key":"551","name":"Urtenen-Schönbühl","shortName":"Urtenen-Schönbühl"},"district":{"key":"246","name":"Verwaltungskreis Bern-Mittelland"},"canton":{"key":"2","code":"BE","name":"Bern / Berne"},"status":"Real"},{"key":"10075899","name":"Gill","postalCode":"9651","locality":"Ennetbühl","commune":{"key":"3360","name":"Nesslau","shortName":"Nesslau"},"district":{"key":"1727","name":"Wahlkreis Toggenburg"},"canton":{"key":"17","code":"SG","name":"St. Gallen"},"status":"Real"},{"key":"10234624","name":"Gill-Schwendi","postalCode":"9651","locality":"Ennetbühl","commune":{"key":"3360","name":"Nesslau","shortName":"Nesslau"},"district":{"key":"1727","name":"Wahlkreis Toggenburg"},"canton":{"key":"17","code":"SG","name":"St. Gallen"},"status":"Real"},{"key":"10234632","name":"Gillstrasse","postalCode":"9651","locality":"Ennetbühl","commune":{"key":"3360","name":"Nesslau","shortName":"Nesslau"},"district":{"key":"1727","name":"Wahlkreis Toggenburg"},"canton":{"key":"17","code":"SG","name":"St. Gallen"},"status":"Real"},{"key":"10234158","name":"Gillweg","postalCode":"9651","locality":"Ennetbühl","commune":{"key":"3360","name":"Nesslau","shortName":"Nesslau"},"district":{"key":"1727","name":"Wahlkreis Toggenburg"},"canton":{"key":"17","code":"SG","name":"St. Gallen"},"status":"Real"},{"key":"10173048","name":"Gmeinmatt","postalCode":"3322","locality":"Urtenen-Schönbühl","commune":{"key":"551","name":"Urtenen-Schönbühl","shortName":"Urtenen-Schönbühl"},"district":{"key":"246","name":"Verwaltungskreis Bern-Mittelland"},"canton":{"key":"2","code":"BE","name":"Bern / Berne"},"status":"Real"},{"key":"10108576","name":"Göbsi","postalCode":"9055","locality":"Bühler","commune":{"key":"3021","name":"Bühler","shortName":"Bühler"},"district":{"key":"1502","name":"Bezirk Mittelland"},"canton":{"key":"15","code":"AR","name":"Appenzell Ausserrhoden"},"status":"Real"},{"key":"10150511","name":"Göbsi","postalCode":"9055","locality":"Bühler","commune":{"key":"3021","name":"Bühler","shortName":"Bühler"},"district":{"key":"1502","name":"Bezirk Mittelland"},"canton":{"key":"15","code":"AR","name":"Appenzell Ausserrhoden"},"status":"Real"},{"key":"10229009","name":"Gössigenstrasse","postalCode":"9651","locality":"Ennetbühl","commune":{"key":"3360","name":"Nesslau","shortName":"Nesslau"},"district":{"key":"1727","name":"Wahlkreis Toggenburg"},"canton":{"key":"17","code":"SG","name":"St. Gallen"},"status":"Real"},{"key":"10189413","name":"Grämse","postalCode":"6016","locality":"Hellbühl","commune":{"key":"1062","name":"Malters","shortName":"Malters"},"district":{"key":"312","name":"Wahlkreis Luzern-Land"},"canton":{"key":"3","code":"LU","name":"Luzern"},"status":"Real"},{"key":"10132956","name":"Grauholzstrasse","postalCode":"3322","locality":"Urtenen-Schönbühl","commune":{"key":"551","name":"Urtenen-Schönbühl","shortName":"Urtenen-Schönbühl"},"district":{"key":"246","name":"Verwaltungskreis Bern-Mittelland"},"canton":{"key":"2","code":"BE","name":"Bern / Berne"},"status":"Real"},{"key":"10102699","name":"Grauholzstrasse","postalCode":"3322","locality":"Urtenen-Schönbühl","commune":{"key":"551","name":"Urtenen-Schönbühl","shortName":"Urtenen-Schönbühl"},"district":{"key":"246","name":"Verwaltungskreis Bern-Mittelland"},"canton":{"key":"2","code":"BE","name":"Bern / Berne"},"status":"Real"},{"key":"10015148","name":"Grindlen","postalCode":"6016","locality":"Hellbühl","commune":{"key":"1062","name":"Malters","shortName":"Malters"},"district":{"key":"312","name":"Wahlkreis Luzern-Land"},"canton":{"key":"3","code":"LU","name":"Luzern"},"status":"Real"},{"key":"10162029","name":"Grossallme","postalCode":"3274","locality":"Bühl b. Aarberg","commune":{"key":"734","name":"Bühl","shortName":"Bühl"},"district":{"key":"243","name":"Verwaltungskreis Seeland"},"canton":{"key":"2","code":"BE","name":"Bern / Berne"},"status":"Real"},{"key":"10234691","name":"Grossriet","postalCode":"9651","locality":"Ennetbühl","commune":{"key":"3360","name":"Nesslau","shortName":"Nesslau"},"district":{"key":"1727","name":"Wahlkreis Toggenburg"},"canton":{"key":"17","code":"SG","name":"St. Gallen"},"status":"Real"},{"key":"10081893","name":"Grubenstrasse","postalCode":"3322","locality":"Urtenen-Schönbühl","commune":{"key":"551","name":"Urtenen-Schönbühl","shortName":"Urtenen-Schönbühl"},"district":{"key":"246","name":"Verwaltungskreis Bern-Mittelland"},"canton":{"key":"2","code":"BE","name":"Bern / Berne"},"status":"Real"},{"key":"10217017","name":"Grüllmatt","postalCode":"3274","locality":"Bühl b. Aarberg","commune":{"key":"734","name":"Bühl","shortName":"Bühl"},"district":{"key":"243","name":"Verwaltungskreis Seeland"},"canton":{"key":"2","code":"BE","name":"Bern / Berne"},"status":"Real"},{"key":"10150512","name":"Grünau","postalCode":"9055","locality":"Bühler","commune":{"key":"3021","name":"Bühler","shortName":"Bühler"},"district":{"key":"1502","name":"Bezirk Mittelland"},"canton":{"key":"15","code":"AR","name":"Appenzell Ausserrhoden"},"status":"Real"},{"key":"10167204","name":"Gryzemoos","postalCode":"3636","locality":"Längenbühl","commune":{"key":"948","name":"Forst-Längenbühl","shortName":"Forst-Längenbühl"},"district":{"key":"247","name":"Verwaltungskreis Thun"},"canton":{"key":"2","code":"BE","name":"Bern / Berne"},"status":"Real"},{"key":"10011303","name":"Gspan","postalCode":"6016","locality":"Hellbühl","commune":{"key":"1062","name":"Malters","shortName":"Malters"},"district":{"key":"312","name":"Wahlkreis Luzern-Land"},"canton":{"key":"3","code":"LU","name":"Luzern"},"status":"Real"},{"key":"10234224","name":"Gubelstrasse","postalCode":"9651","locality":"Ennetbühl","commune":{"key":"3360","name":"Nesslau","shortName":"Nesslau"},"district":{"key":"1727","name":"Wahlkreis Toggenburg"},"canton":{"key":"17","code":"SG","name":"St. Gallen"},"status":"Real"},{"key":"10187413","name":"Gublen","postalCode":"9651","locality":"Ennetbühl","commune":{"key":"3360","name":"Nesslau","shortName":"Nesslau"},"district":{"key":"1727","name":"Wahlkreis Toggenburg"},"canton":{"key":"17","code":"SG","name":"St. Gallen"},"status":"Real"},{"key":"10229048","name":"Güblen-Brüggli","postalCode":"9651","locality":"Ennetbühl","commune":{"key":"3360","name":"Nesslau","shortName":"Nesslau"},"district":{"key":"1727","name":"Wahlkreis Toggenburg"},"canton":{"key":"17","code":"SG","name":"St. Gallen"},"status":"Real"},{"key":"10190463","name":"Gublenstrasse","postalCode":"9651","locality":"Ennetbühl","commune":{"key":"3360","name":"Nesslau","shortName":"Nesslau"},"district":{"key":"1727","name":"Wahlkreis Toggenburg"},"canton":{"key":"17","code":"SG","name":"St. Gallen"},"status":"Real"},{"key":"10234232","name":"Gublenweid-Feissenmoos","postalCode":"9651","locality":"Ennetbühl","commune":{"key":"3360","name":"Nesslau","shortName":"Nesslau"},"district":{"key":"1727","name":"Wahlkreis Toggenburg"},"canton":{"key":"17","code":"SG","name":"St. Gallen"},"status":"Real"},{"key":"10234236","name":"Gublenweid-Hasel","postalCode":"9651","locality":"Ennetbühl","commune":{"key":"3360","name":"Nesslau","shortName":"Nesslau"},"district":{"key":"1727","name":"Wahlkreis Toggenburg"},"canton":{"key":"17","code":"SG","name":"St. Gallen"},"status":"Real"},{"key":"10234240","name":"Gugen-Lee-Weg","postalCode":"9651","locality":"Ennetbühl","commune":{"key":"3360","name":"Nesslau","shortName":"Nesslau"},"district":{"key":"1727","name":"Wahlkreis Toggenburg"},"canton":{"key":"17","code":"SG","name":"St. Gallen"},"status":"Real"},{"key":"10075900","name":"Gwelber","postalCode":"9651","locality":"Ennetbühl","commune":{"key":"3360","name":"Nesslau","shortName":"Nesslau"},"district":{"key":"1727","name":"Wahlkreis Toggenburg"},"canton":{"key":"17","code":"SG","name":"St. Gallen"},"status":"Real"},{"key":"10234248","name":"Gwelberstrasse","postalCode":"9651","locality":"Ennetbühl","commune":{"key":"3360","name":"Nesslau","shortName":"Nesslau"},"district":{"key":"1727","name":"Wahlkreis Toggenburg"},"canton":{"key":"17","code":"SG","name":"St. Gallen"},"status":"Real"},{"key":"10234252","name":"Häcklerweg","postalCode":"9651","locality":"Ennetbühl","commune":{"key":"3360","name":"Nesslau","shortName":"Nesslau"},"district":{"key":"1727","name":"Wahlkreis Toggenburg"},"canton":{"key":"17","code":"SG","name":"St. Gallen"},"status":"Real"},{"key":"10010269","name":"Hagacher","postalCode":"3274","locality":"Bühl b. Aarberg","commune":{"key":"734","name":"Bühl","shortName":"Bühl"},"district":{"key":"243","name":"Verwaltungskreis Seeland"},"canton":{"key":"2","code":"BE","name":"Bern / Berne"},"status":"Real"},{"key":"10074487","name":"Halde","postalCode":"6016","locality":"Hellbühl","commune":{"key":"1062","name":"Malters","shortName":"Malters"},"district":{"key":"312","name":"Wahlkreis Luzern-Land"},"canton":{"key":"3","code":"LU","name":"Luzern"},"status":"Real"},{"key":"10251098","name":"Halden","postalCode":"9651","locality":"Ennetbühl","commune":{"key":"3360","name":"Nesslau","shortName":"Nesslau"},"district":{"key":"1727","name":"Wahlkreis Toggenburg"},"canton":{"key":"17","code":"SG","name":"St. Gallen"},"status":"Real"},{"key":"10234292","name":"Halden-Lütterli","postalCode":"9651","locality":"Ennetbühl","commune":{"key":"3360","name":"Nesslau","shortName":"Nesslau"},"district":{"key":"1727","name":"Wahlkreis Toggenburg"},"canton":{"key":"17","code":"SG","name":"St. Gallen"},"status":"Real"},{"key":"10234296","name":"Halden-Müllersmatt","postalCode":"9651","locality":"Ennetbühl","commune":{"key":"3360","name":"Nesslau","shortName":"Nesslau"},"district":{"key":"1727","name":"Wahlkreis Toggenburg"},"canton":{"key":"17","code":"SG","name":"St. Gallen"},"status":"Real"},{"key":"10234300","name":"Halden-Platten","postalCode":"9651","locality":"Ennetbühl","commune":{"key":"3360","name":"Nesslau","shortName":"Nesslau"},"district":{"key":"1727","name":"Wahlkreis Toggenburg"},"canton":{"key":"17","code":"SG","name":"St. Gallen"},"status":"Real"},{"key":"10250869","name":"Haldenstrasse","postalCode":"9651","locality":"Ennetbühl","commune":{"key":"3360","name":"Nesslau","shortName":"Nesslau"},"district":{"key":"1727","name":"Wahlkreis Toggenburg"},"canton":{"key":"17","code":"SG","name":"St. Gallen"},"status":"Real"},{"key":"10126226","name":"Hälmli","postalCode":"9055","locality":"Bühler","commune":{"key":"3021","name":"Bühler","shortName":"Bühler"},"district":{"key":"1502","name":"Bezirk Mittelland"},"canton":{"key":"15","code":"AR","name":"Appenzell Ausserrhoden"},"status":"Real"},{"key":"10061919","name":"Halte","postalCode":"3636","locality":"Längenbühl","commune":{"key":"948","name":"Forst-Längenbühl","shortName":"Forst-Längenbühl"},"district":{"key":"247","name":"Verwaltungskreis Thun"},"canton":{"key":"2","code":"BE","name":"Bern / Berne"},"status":"Real"},{"key":"10187906","name":"Halten","postalCode":"9055","locality":"Bühler","commune":{"key":"3021","name":"Bühler","shortName":"Bühler"},"district":{"key":"1502","name":"Bezirk Mittelland"},"canton":{"key":"15","code":"AR","name":"Appenzell Ausserrhoden"},"status":"Real"},{"key":"10146203","name":"Haltenstrasse","postalCode":"9055","locality":"Bühler","commune":{"key":"3021","name":"Bühler","shortName":"Bühler"},"district":{"key":"1502","name":"Bezirk Mittelland"},"canton":{"key":"15","code":"AR","name":"Appenzell Ausserrhoden"},"status":"Real"},{"key":"10082219","name":"Härdmänigen","postalCode":"6016","locality":"Hellbühl","commune":{"key":"1062","name":"Malters","shortName":"Malters"},"district":{"key":"312","name":"Wahlkreis Luzern-Land"},"canton":{"key":"3","code":"LU","name":"Luzern"},"status":"Real"},{"key":"10147662","name":"Harzig","postalCode":"9055","locality":"Bühler","commune":{"key":"3021","name":"Bühler","shortName":"Bühler"},"district":{"key":"1502","name":"Bezirk Mittelland"},"canton":{"key":"15","code":"AR","name":"Appenzell Ausserrhoden"},"status":"Real"},{"key":"10033267","name":"Hasel","postalCode":"9651","locality":"Ennetbühl","commune":{"key":"3360","name":"Nesslau","shortName":"Nesslau"},"district":{"key":"1727","name":"Wahlkreis Toggenburg"},"canton":{"key":"17","code":"SG","name":"St. Gallen"},"status":"Real"},{"key":"10252298","name":"Haselegg","postalCode":"9055","locality":"Bühler","commune":{"key":"3021","name":"Bühler","shortName":"Bühler"},"district":{"key":"1502","name":"Bezirk Mittelland"},"canton":{"key":"15","code":"AR","name":"Appenzell Ausserrhoden"},"status":"Real"},{"key":"10010952","name":"Hattige","postalCode":"3636","locality":"Längenbühl","commune":{"key":"948","name":"Forst-Längenbühl","shortName":"Forst-Längenbühl"},"district":{"key":"247","name":"Verwaltungskreis Thun"},"canton":{"key":"2","code":"BE","name":"Bern / Berne"},"status":"Real"},{"key":"10225564","name":"Heilquellweg","postalCode":"9651","locality":"Ennetbühl","commune":{"key":"3360","name":"Nesslau","shortName":"Nesslau"},"district":{"key":"1727","name":"Wahlkreis Toggenburg"},"canton":{"key":"17","code":"SG","name":"St. Gallen"},"status":"Real"},{"key":"10190939","name":"Hellbühlstrasse","postalCode":"6016","locality":"Hellbühl","commune":{"key":"1062","name":"Malters","shortName":"Malters"},"district":{"key":"312","name":"Wahlkreis Luzern-Land"},"canton":{"key":"3","code":"LU","name":"Luzern"},"status":"Real"},{"key":"10075099","name":"Helte","postalCode":"3636","locality":"Längenbühl","commune":{"key":"948","name":"Forst-Längenbühl","shortName":"Forst-Längenbühl"},"district":{"key":"247","name":"Verwaltungskreis Thun"},"canton":{"key":"2","code":"BE","name":"Bern / Berne"},"status":"Real"},{"key":"10185870","name":"Herischwand","postalCode":"6016","locality":"Hellbühl","commune":{"key":"1062","name":"Malters","shortName":"Malters"},"district":{"key":"312","name":"Wahlkreis Luzern-Land"},"canton":{"key":"3","code":"LU","name":"Luzern"},"status":"Real"},{"key":"10150513","name":"Hermoos","postalCode":"9055","locality":"Bühler","commune":{"key":"3021","name":"Bühler","shortName":"Bühler"},"district":{"key":"1502","name":"Bezirk Mittelland"},"canton":{"key":"15","code":"AR","name":"Appenzell Ausserrhoden"},"status":"Real"},{"key":"10053666","name":"Hilpringen","postalCode":"6016","locality":"Hellbühl","commune":{"key":"1062","name":"Malters","shortName":"Malters"},"district":{"key":"312","name":"Wahlkreis Luzern-Land"},"canton":{"key":"3","code":"LU","name":"Luzern"},"status":"Real"},{"key":"10008445","name":"Hindelbankstrasse","postalCode":"3322","locality":"Urtenen-Schönbühl","commune":{"key":"551","name":"Urtenen-Schönbühl","shortName":"Urtenen-Schönbühl"},"district":{"key":"246","name":"Verwaltungskreis Bern-Mittelland"},"canton":{"key":"2","code":"BE","name":"Bern / Berne"},"status":"Real"},{"key":"10003291","name":"Hindelbankstrasse","postalCode":"3322","locality":"Urtenen-Schönbühl","commune":{"key":"551","name":"Urtenen-Schönbühl","shortName":"Urtenen-Schönbühl"},"district":{"key":"246","name":"Verwaltungskreis Bern-Mittelland"},"canton":{"key":"2","code":"BE","name":"Bern / Berne"},"status":"Real"},{"key":"10112483","name":"Hinterdorf","postalCode":"3274","locality":"Bühl b. Aarberg","commune":{"key":"734","name":"Bühl","shortName":"Bühl"},"district":{"key":"243","name":"Verwaltungskreis Seeland"},"canton":{"key":"2","code":"BE","name":"Bern / Berne"},"status":"Real"},{"key":"10147663","name":"Hinterdorf","postalCode":"9055","locality":"Bühler","commune":{"key":"3021","name":"Bühler","shortName":"Bühler"},"district":{"key":"1502","name":"Bezirk Mittelland"},"canton":{"key":"15","code":"AR","name":"Appenzell Ausserrhoden"},"status":"Real"},{"key":"10200337","name":"Hintere Göbsi","postalCode":"9055","locality":"Bühler","commune":{"key":"3021","name":"Bühler","shortName":"Bühler"},"district":{"key":"1502","name":"Bezirk Mittelland"},"canton":{"key":"15","code":"AR","name":"Appenzell Ausserrhoden"},"status":"Real"},{"key":"10252299","name":"Hinteres Rälimoos","postalCode":"9055","locality":"Bühler","commune":{"key":"3021","name":"Bühler","shortName":"Bühler"},"district":{"key":"1502","name":"Bezirk Mittelland"},"canton":{"key":"15","code":"AR","name":"Appenzell Ausserrhoden"},"status":"Real"},{"key":"10225664","name":"Hinterfallenstrasse","postalCode":"9651","locality":"Ennetbühl","commune":{"key":"3360","name":"Nesslau","shortName":"Nesslau"},"district":{"key":"1727","name":"Wahlkreis Toggenburg"},"canton":{"key":"17","code":"SG","name":"St. Gallen"},"status":"Real"},{"key":"10225672","name":"Hinterfallenweg","postalCode":"9651","locality":"Ennetbühl","commune":{"key":"3360","name":"Nesslau","shortName":"Nesslau"},"district":{"key":"1727","name":"Wahlkreis Toggenburg"},"canton":{"key":"17","code":"SG","name":"St. Gallen"},"status":"Real"},{"key":"10234939","name":"Hinterleimensteig","postalCode":"9055","locality":"Bühler","commune":{"key":"3021","name":"Bühler","shortName":"Bühler"},"district":{"key":"1502","name":"Bezirk Mittelland"},"canton":{"key":"15","code":"AR","name":"Appenzell Ausserrhoden"},"status":"Real"},{"key":"10033268","name":"Hinterschlatt","postalCode":"9651","locality":"Ennetbühl","commune":{"key":"3360","name":"Nesslau","shortName":"Nesslau"},"district":{"key":"1727","name":"Wahlkreis Toggenburg"},"canton":{"key":"17","code":"SG","name":"St. Gallen"},"status":"Real"},{"key":"10227187","name":"Hinterschlatt-Hübschholz","postalCode":"9651","locality":"Ennetbühl","commune":{"key":"3360","name":"Nesslau","shortName":"Nesslau"},"district":{"key":"1727","name":"Wahlkreis Toggenburg"},"canton":{"key":"17","code":"SG","name":"St. Gallen"},"status":"Real"},{"key":"10227191","name":"Hinterschlattstrasse","postalCode":"9651","locality":"Ennetbühl","commune":{"key":"3360","name":"Nesslau","shortName":"Nesslau"},"district":{"key":"1727","name":"Wahlkreis Toggenburg"},"canton":{"key":"17","code":"SG","name":"St. Gallen"},"status":"Real"},{"key":"10227195","name":"Hinterschlatt-Unterwart","postalCode":"9651","locality":"Ennetbühl","commune":{"key":"3360","name":"Nesslau","shortName":"Nesslau"},"district":{"key":"1727","name":"Wahlkreis Toggenburg"},"canton":{"key":"17","code":"SG","name":"St. Gallen"},"status":"Real"},{"key":"10074217","name":"Hinterschlucht","postalCode":"6016","locality":"Hellbühl","commune":{"key":"1062","name":"Malters","shortName":"Malters"},"district":{"key":"312","name":"Wahlkreis Luzern-Land"},"canton":{"key":"3","code":"LU","name":"Luzern"},"status":"Real"},{"key":"10187975","name":"Hinterschurtigen","postalCode":"6016","locality":"Hellbühl","commune":{"key":"1062","name":"Malters","shortName":"Malters"},"district":{"key":"312","name":"Wahlkreis Luzern-Land"},"canton":{"key":"3","code":"LU","name":"Luzern"},"status":"Real"},{"key":"10117807","name":"Hirschbach","postalCode":"3636","locality":"Forst b. Längenbühl","commune":{"key":"948","name":"Forst-Längenbühl","shortName":"Forst-Längenbühl"},"district":{"key":"247","name":"Verwaltungskreis Thun"},"canton":{"key":"2","code":"BE","name":"Bern / Berne"},"status":"Real"},{"key":"10108675","name":"Hirschiguet","postalCode":"3636","locality":"Längenbühl","commune":{"key":"948","name":"Forst-Längenbühl","shortName":"Forst-Längenbühl"},"district":{"key":"247","name":"Verwaltungskreis Thun"},"canton":{"key":"2","code":"BE","name":"Bern / Berne"},"status":"Real"},{"key":"10185323","name":"Hofstatt","postalCode":"9055","locality":"Bühler","commune":{"key":"3021","name":"Bühler","shortName":"Bühler"},"district":{"key":"1502","name":"Bezirk Mittelland"},"canton":{"key":"15","code":"AR","name":"Appenzell Ausserrhoden"},"status":"Real"},{"key":"10075901","name":"Hofstatt","postalCode":"9651","locality":"Ennetbühl","commune":{"key":"3360","name":"Nesslau","shortName":"Nesslau"},"district":{"key":"1727","name":"Wahlkreis Toggenburg"},"canton":{"key":"17","code":"SG","name":"St. Gallen"},"status":"Real"},{"key":"10003303","name":"Höheweg","postalCode":"3322","locality":"Urtenen-Schönbühl","commune":{"key":"551","name":"Urtenen-Schönbühl","shortName":"Urtenen-Schönbühl"},"district":{"key":"246","name":"Verwaltungskreis Bern-Mittelland"},"canton":{"key":"2","code":"BE","name":"Bern / Berne"},"status":"Real"},{"key":"10197546","name":"Hohlenmatt","postalCode":"3274","locality":"Bühl b. Aarberg","commune":{"key":"734","name":"Bühl","shortName":"Bühl"},"district":{"key":"243","name":"Verwaltungskreis Seeland"},"canton":{"key":"2","code":"BE","name":"Bern / Berne"},"status":"Real"},{"key":"10003292","name":"Hohrainstrasse","postalCode":"3322","locality":"Urtenen-Schönbühl","commune":{"key":"551","name":"Urtenen-Schönbühl","shortName":"Urtenen-Schönbühl"},"district":{"key":"246","name":"Verwaltungskreis Bern-Mittelland"},"canton":{"key":"2","code":"BE","name":"Bern / Berne"},"status":"Real"},{"key":"10217021","name":"Holebordweg","postalCode":"3274","locality":"Bühl b. Aarberg","commune":{"key":"734","name":"Bühl","shortName":"Bühl"},"district":{"key":"243","name":"Verwaltungskreis Seeland"},"canton":{"key":"2","code":"BE","name":"Bern / Berne"},"status":"Real"},{"key":"10257272","name":"Holz","postalCode":"6016","locality":"Hellbühl","commune":{"key":"1062","name":"Malters","shortName":"Malters"},"district":{"key":"312","name":"Wahlkreis Luzern-Land"},"canton":{"key":"3","code":"LU","name":"Luzern"},"status":"Real"},{"key":"10189832","name":"Holzgasse","postalCode":"3322","locality":"Urtenen-Schönbühl","commune":{"key":"551","name":"Urtenen-Schönbühl","shortName":"Urtenen-Schönbühl"},"district":{"key":"246","name":"Verwaltungskreis Bern-Mittelland"},"canton":{"key":"2","code":"BE","name":"Bern / Berne"},"status":"Real"},{"key":"10084497","name":"Holzhalde","postalCode":"6016","locality":"Hellbühl","commune":{"key":"1062","name":"Malters","shortName":"Malters"},"district":{"key":"312","name":"Wahlkreis Luzern-Land"},"canton":{"key":"3","code":"LU","name":"Luzern"},"status":"Real"},{"key":"10227247","name":"Hornstrasse","postalCode":"9651","locality":"Ennetbühl","commune":{"key":"3360","name":"Nesslau","shortName":"Nesslau"},"district":{"key":"1727","name":"Wahlkreis Toggenburg"},"canton":{"key":"17","code":"SG","name":"St. Gallen"},"status":"Real"},{"key":"10193915","name":"Im Baumgarten","postalCode":"6016","locality":"Hellbühl","commune":{"key":"1062","name":"Malters","shortName":"Malters"},"district":{"key":"312","name":"Wahlkreis Luzern-Land"},"canton":{"key":"3","code":"LU","name":"Luzern"},"status":"Real"},{"key":"10187184","name":"Im Guet","postalCode":"3636","locality":"Längenbühl","commune":{"key":"948","name":"Forst-Längenbühl","shortName":"Forst-Längenbühl"},"district":{"key":"247","name":"Verwaltungskreis Thun"},"canton":{"key":"2","code":"BE","name":"Bern / Berne"},"status":"Real"},{"key":"10126231","name":"Im Melsterböhl","postalCode":"9055","locality":"Bühler","commune":{"key":"3021","name":"Bühler","shortName":"Bühler"},"district":{"key":"1502","name":"Bezirk Mittelland"},"canton":{"key":"15","code":"AR","name":"Appenzell Ausserrhoden"},"status":"Real"},{"key":"10119180","name":"Im Sterngarten","postalCode":"6016","locality":"Hellbühl","commune":{"key":"1062","name":"Malters","shortName":"Malters"},"district":{"key":"312","name":"Wahlkreis Luzern-Land"},"canton":{"key":"3","code":"LU","name":"Luzern"},"status":"Real"},{"key":"10008457","name":"Industriestrasse","postalCode":"3322","locality":"Urtenen-Schönbühl","commune":{"key":"551","name":"Urtenen-Schönbühl","shortName":"Urtenen-Schönbühl"},"district":{"key":"246","name":"Verwaltungskreis Bern-Mittelland"},"canton":{"key":"2","code":"BE","name":"Bern / Berne"},"status":"Real"},{"key":"10227290","name":"Järflen","postalCode":"9651","locality":"Ennetbühl","commune":{"key":"3360","name":"Nesslau","shortName":"Nesslau"},"district":{"key":"1727","name":"Wahlkreis Toggenburg"},"canton":{"key":"17","code":"SG","name":"St. Gallen"},"status":"Real"},{"key":"10152798","name":"Jon","postalCode":"9055","locality":"Bühler","commune":{"key":"3021","name":"Bühler","shortName":"Bühler"},"district":{"key":"1502","name":"Bezirk Mittelland"},"canton":{"key":"15","code":"AR","name":"Appenzell Ausserrhoden"},"status":"Real"},{"key":"10003293","name":"Jungfrauweg","postalCode":"3322","locality":"Urtenen-Schönbühl","commune":{"key":"551","name":"Urtenen-Schönbühl","shortName":"Urtenen-Schönbühl"},"district":{"key":"246","name":"Verwaltungskreis Bern-Mittelland"},"canton":{"key":"2","code":"BE","name":"Bern / Berne"},"status":"Real"},{"key":"10057935","name":"Juraweg","postalCode":"3274","locality":"Bühl b. Aarberg","commune":{"key":"734","name":"Bühl","shortName":"Bühl"},"district":{"key":"243","name":"Verwaltungskreis Seeland"},"canton":{"key":"2","code":"BE","name":"Bern / Berne"},"status":"Real"},{"key":"10009614","name":"Kanalweg","postalCode":"3322","locality":"Urtenen-Schönbühl","commune":{"key":"551","name":"Urtenen-Schönbühl","shortName":"Urtenen-Schönbühl"},"district":{"key":"246","name":"Verwaltungskreis Bern-Mittelland"},"canton":{"key":"2","code":"BE","name":"Bern / Berne"},"status":"Real"},{"key":"10086644","name":"Käserfeldweg","postalCode":"3274","locality":"Bühl b. Aarberg","commune":{"key":"734","name":"Bühl","shortName":"Bühl"},"district":{"key":"243","name":"Verwaltungskreis Seeland"},"canton":{"key":"2","code":"BE","name":"Bern / Berne"},"status":"Real"},{"key":"10045597","name":"Kasernenweg","postalCode":"3322","locality":"Urtenen-Schönbühl","commune":{"key":"551","name":"Urtenen-Schönbühl","shortName":"Urtenen-Schönbühl"},"district":{"key":"246","name":"Verwaltungskreis Bern-Mittelland"},"canton":{"key":"2","code":"BE","name":"Bern / Berne"},"status":"Real"},{"key":"10152864","name":"Kasernenweg","postalCode":"3322","locality":"Urtenen-Schönbühl","commune":{"key":"551","name":"Urtenen-Schönbühl","shortName":"Urtenen-Schönbühl"},"district":{"key":"246","name":"Verwaltungskreis Bern-Mittelland"},"canton":{"key":"2","code":"BE","name":"Bern / Berne"},"status":"Real"},{"key":"10074221","name":"Kelsigen","postalCode":"6016","locality":"Hellbühl","commune":{"key":"1062","name":"Malters","shortName":"Malters"},"district":{"key":"312","name":"Wahlkreis Luzern-Land"},"canton":{"key":"3","code":"LU","name":"Luzern"},"status":"Real"},{"key":"10152799","name":"Kernenmoos","postalCode":"9055","locality":"Bühler","commune":{"key":"3021","name":"Bühler","shortName":"Bühler"},"district":{"key":"1502","name":"Bezirk Mittelland"},"canton":{"key":"15","code":"AR","name":"Appenzell Ausserrhoden"},"status":"Real"},{"key":"10124948","name":"Kirchgässli","postalCode":"3322","locality":"Urtenen-Schönbühl","commune":{"key":"551","name":"Urtenen-Schönbühl","shortName":"Urtenen-Schönbühl"},"district":{"key":"246","name":"Verwaltungskreis Bern-Mittelland"},"canton":{"key":"2","code":"BE","name":"Bern / Berne"},"status":"Real"},{"key":"10074490","name":"Kirchrain","postalCode":"6016","locality":"Hellbühl","commune":{"key":"1062","name":"Malters","shortName":"Malters"},"district":{"key":"312","name":"Wahlkreis Luzern-Land"},"canton":{"key":"3","code":"LU","name":"Luzern"},"status":"Real"},{"key":"10152800","name":"Knopf","postalCode":"9055","locality":"Bühler","commune":{"key":"3021","name":"Bühler","shortName":"Bühler"},"district":{"key":"1502","name":"Bezirk Mittelland"},"canton":{"key":"15","code":"AR","name":"Appenzell Ausserrhoden"},"status":"Real"},{"key":"10126227","name":"Kohli","postalCode":"9055","locality":"Bühler","commune":{"key":"3021","name":"Bühler","shortName":"Bühler"},"district":{"key":"1502","name":"Bezirk Mittelland"},"canton":{"key":"15","code":"AR","name":"Appenzell Ausserrhoden"},"status":"Real"},{"key":"10152801","name":"Kopfholz","postalCode":"9055","locality":"Bühler","commune":{"key":"3021","name":"Bühler","shortName":"Bühler"},"district":{"key":"1502","name":"Bezirk Mittelland"},"canton":{"key":"15","code":"AR","name":"Appenzell Ausserrhoden"},"status":"Real"},{"key":"10126228","name":"Kratz","postalCode":"9055","locality":"Bühler","commune":{"key":"3021","name":"Bühler","shortName":"Bühler"},"district":{"key":"1502","name":"Bezirk Mittelland"},"canton":{"key":"15","code":"AR","name":"Appenzell Ausserrhoden"},"status":"Real"},{"key":"10126229","name":"Kriegersmühle","postalCode":"9055","locality":"Bühler","commune":{"key":"3021","name":"Bühler","shortName":"Bühler"},"district":{"key":"1502","name":"Bezirk Mittelland"},"canton":{"key":"15","code":"AR","name":"Appenzell Ausserrhoden"},"status":"Real"},{"key":"10217025","name":"Krommen","postalCode":"3274","locality":"Bühl b. Aarberg","commune":{"key":"734","name":"Bühl","shortName":"Bühl"},"district":{"key":"243","name":"Verwaltungskreis Seeland"},"canton":{"key":"2","code":"BE","name":"Bern / Berne"},"status":"Real"},{"key":"10147665","name":"Krummbach","postalCode":"9055","locality":"Bühler","commune":{"key":"3021","name":"Bühler","shortName":"Bühler"},"district":{"key":"1502","name":"Bezirk Mittelland"},"canton":{"key":"15","code":"AR","name":"Appenzell Ausserrhoden"},"status":"Real"},{"key":"10015149","name":"Krummbaum","postalCode":"6016","locality":"Hellbühl","commune":{"key":"1062","name":"Malters","shortName":"Malters"},"district":{"key":"312","name":"Wahlkreis Luzern-Land"},"canton":{"key":"3","code":"LU","name":"Luzern"},"status":"Real"},{"key":"10189481","name":"Laad","postalCode":"9651","locality":"Ennetbühl","commune":{"key":"3360","name":"Nesslau","shortName":"Nesslau"},"district":{"key":"1727","name":"Wahlkreis Toggenburg"},"canton":{"key":"17","code":"SG","name":"St. Gallen"},"status":"Real"},{"key":"10227585","name":"Laadstrasse","postalCode":"9651","locality":"Ennetbühl","commune":{"key":"3360","name":"Nesslau","shortName":"Nesslau"},"district":{"key":"1727","name":"Wahlkreis Toggenburg"},"canton":{"key":"17","code":"SG","name":"St. Gallen"},"status":"Real"},{"key":"10227593","name":"Laad-Wald-Weg","postalCode":"9651","locality":"Ennetbühl","commune":{"key":"3360","name":"Nesslau","shortName":"Nesslau"},"district":{"key":"1727","name":"Wahlkreis Toggenburg"},"canton":{"key":"17","code":"SG","name":"St. Gallen"},"status":"Real"},{"key":"10178839","name":"Lampige","postalCode":"6016","locality":"Hellbühl","commune":{"key":"1062","name":"Malters","shortName":"Malters"},"district":{"key":"312","name":"Wahlkreis Luzern-Land"},"canton":{"key":"3","code":"LU","name":"Luzern"},"status":"Real"},{"key":"10219225","name":"Längenbühlstrasse","postalCode":"3636","locality":"Längenbühl","commune":{"key":"948","name":"Forst-Längenbühl","shortName":"Forst-Längenbühl"},"district":{"key":"247","name":"Verwaltungskreis Thun"},"canton":{"key":"2","code":"BE","name":"Bern / Berne"},"status":"Real"},{"key":"10177372","name":"Längenlooweg","postalCode":"3322","locality":"Urtenen-Schönbühl","commune":{"key":"551","name":"Urtenen-Schönbühl","shortName":"Urtenen-Schönbühl"},"district":{"key":"246","name":"Verwaltungskreis Bern-Mittelland"},"canton":{"key":"2","code":"BE","name":"Bern / Berne"},"status":"Real"},{"key":"10003294","name":"Längenrüppstrasse","postalCode":"3322","locality":"Urtenen-Schönbühl","commune":{"key":"551","name":"Urtenen-Schönbühl","shortName":"Urtenen-Schönbühl"},"district":{"key":"246","name":"Verwaltungskreis Bern-Mittelland"},"canton":{"key":"2","code":"BE","name":"Bern / Berne"},"status":"Real"},{"key":"10082884","name":"Längmoos","postalCode":"3636","locality":"Forst b. Längenbühl","commune":{"key":"948","name":"Forst-Längenbühl","shortName":"Forst-Längenbühl"},"district":{"key":"247","name":"Verwaltungskreis Thun"},"canton":{"key":"2","code":"BE","name":"Bern / Berne"},"status":"Real"},{"key":"10227621","name":"Laub","postalCode":"9651","locality":"Ennetbühl","commune":{"key":"3360","name":"Nesslau","shortName":"Nesslau"},"district":{"key":"1727","name":"Wahlkreis Toggenburg"},"canton":{"key":"17","code":"SG","name":"St. Gallen"},"status":"Real"},{"key":"10093957","name":"Laui","postalCode":"9651","locality":"Ennetbühl","commune":{"key":"3360","name":"Nesslau","shortName":"Nesslau"},"district":{"key":"1727","name":"Wahlkreis Toggenburg"},"canton":{"key":"17","code":"SG","name":"St. Gallen"},"status":"Real"},{"key":"10227653","name":"Läuisstrasse","postalCode":"9651","locality":"Ennetbühl","commune":{"key":"3360","name":"Nesslau","shortName":"Nesslau"},"district":{"key":"1727","name":"Wahlkreis Toggenburg"},"canton":{"key":"17","code":"SG","name":"St. Gallen"},"status":"Real"},{"key":"10033549","name":"Lauistrasse","postalCode":"9651","locality":"Ennetbühl","commune":{"key":"3360","name":"Nesslau","shortName":"Nesslau"},"district":{"key":"1727","name":"Wahlkreis Toggenburg"},"canton":{"key":"17","code":"SG","name":"St. Gallen"},"status":"Real"},{"key":"10187414","name":"Lee","postalCode":"9651","locality":"Ennetbühl","commune":{"key":"3360","name":"Nesslau","shortName":"Nesslau"},"district":{"key":"1727","name":"Wahlkreis Toggenburg"},"canton":{"key":"17","code":"SG","name":"St. Gallen"},"status":"Real"},{"key":"10065663","name":"Leeackerweg","postalCode":"3322","locality":"Urtenen-Schönbühl","commune":{"key":"551","name":"Urtenen-Schönbühl","shortName":"Urtenen-Schönbühl"},"district":{"key":"246","name":"Verwaltungskreis Bern-Mittelland"},"canton":{"key":"2","code":"BE","name":"Bern / Berne"},"status":"Real"},{"key":"10227669","name":"Lee-Häckler-Weg","postalCode":"9651","locality":"Ennetbühl","commune":{"key":"3360","name":"Nesslau","shortName":"Nesslau"},"district":{"key":"1727","name":"Wahlkreis Toggenburg"},"canton":{"key":"17","code":"SG","name":"St. Gallen"},"status":"Real"},{"key":"10147682","name":"Leen","postalCode":"3636","locality":"Forst b. Längenbühl","commune":{"key":"948","name":"Forst-Längenbühl","shortName":"Forst-Längenbühl"},"district":{"key":"247","name":"Verwaltungskreis Thun"},"canton":{"key":"2","code":"BE","name":"Bern / Berne"},"status":"Real"},{"key":"10227677","name":"Leestrasse","postalCode":"9651","locality":"Ennetbühl","commune":{"key":"3360","name":"Nesslau","shortName":"Nesslau"},"district":{"key":"1727","name":"Wahlkreis Toggenburg"},"canton":{"key":"17","code":"SG","name":"St. Gallen"},"status":"Real"},{"key":"10227705","name":"Leh-Windegg","postalCode":"9651","locality":"Ennetbühl","commune":{"key":"3360","name":"Nesslau","shortName":"Nesslau"},"district":{"key":"1727","name":"Wahlkreis Toggenburg"},"canton":{"key":"17","code":"SG","name":"St. Gallen"},"status":"Real"},{"key":"10082946","name":"Lerchenweg","postalCode":"3322","locality":"Urtenen-Schönbühl","commune":{"key":"551","name":"Urtenen-Schönbühl","shortName":"Urtenen-Schönbühl"},"district":{"key":"246","name":"Verwaltungskreis Bern-Mittelland"},"canton":{"key":"2","code":"BE","name":"Bern / Berne"},"status":"Real"},{"key":"10031991","name":"Lienzern","postalCode":"9055","locality":"Bühler","commune":{"key":"3021","name":"Bühler","shortName":"Bühler"},"district":{"key":"1502","name":"Bezirk Mittelland"},"canton":{"key":"15","code":"AR","name":"Appenzell Ausserrhoden"},"status":"Real"},{"key":"10068745","name":"Linde","postalCode":"9055","locality":"Bühler","commune":{"key":"3021","name":"Bühler","shortName":"Bühler"},"district":{"key":"1502","name":"Bezirk Mittelland"},"canton":{"key":"15","code":"AR","name":"Appenzell Ausserrhoden"},"status":"Real"},{"key":"10082951","name":"Lindhohleweg","postalCode":"3322","locality":"Urtenen-Schönbühl","commune":{"key":"551","name":"Urtenen-Schönbühl","shortName":"Urtenen-Schönbühl"},"district":{"key":"246","name":"Verwaltungskreis Bern-Mittelland"},"canton":{"key":"2","code":"BE","name":"Bern / Berne"},"status":"Real"},{"key":"10017034","name":"Litzhuet","postalCode":"6016","locality":"Hellbühl","commune":{"key":"1062","name":"Malters","shortName":"Malters"},"district":{"key":"312","name":"Wahlkreis Luzern-Land"},"canton":{"key":"3","code":"LU","name":"Luzern"},"status":"Real"},{"key":"10126230","name":"Loch","postalCode":"9055","locality":"Bühler","commune":{"key":"3021","name":"Bühler","shortName":"Bühler"},"district":{"key":"1502","name":"Bezirk Mittelland"},"canton":{"key":"15","code":"AR","name":"Appenzell Ausserrhoden"},"status":"Real"},{"key":"10033550","name":"Lüchern","postalCode":"9651","locality":"Ennetbühl","commune":{"key":"3360","name":"Nesslau","shortName":"Nesslau"},"district":{"key":"1727","name":"Wahlkreis Toggenburg"},"canton":{"key":"17","code":"SG","name":"St. Gallen"},"status":"Real"},{"key":"10227828","name":"Luteren","postalCode":"9651","locality":"Ennetbühl","commune":{"key":"3360","name":"Nesslau","shortName":"Nesslau"},"district":{"key":"1727","name":"Wahlkreis Toggenburg"},"canton":{"key":"17","code":"SG","name":"St. Gallen"},"status":"Real"},{"key":"10093958","name":"Lutertannen","postalCode":"9651","locality":"Ennetbühl","commune":{"key":"3360","name":"Nesslau","shortName":"Nesslau"},"district":{"key":"1727","name":"Wahlkreis Toggenburg"},"canton":{"key":"17","code":"SG","name":"St. Gallen"},"status":"Real"},{"key":"10227836","name":"Lütisalpstrasse","postalCode":"9651","locality":"Ennetbühl","commune":{"key":"3360","name":"Nesslau","shortName":"Nesslau"},"district":{"key":"1727","name":"Wahlkreis Toggenburg"},"canton":{"key":"17","code":"SG","name":"St. Gallen"},"status":"Real"},{"key":"10240987","name":"Luzernstrasse","postalCode":"6016","locality":"Hellbühl","commune":{"key":"1062","name":"Malters","shortName":"Malters"},"district":{"key":"312","name":"Wahlkreis Luzern-Land"},"canton":{"key":"3","code":"LU","name":"Luzern"},"status":"Real"},{"key":"10177370","name":"Lyssstrasse","postalCode":"3322","locality":"Urtenen-Schönbühl","commune":{"key":"551","name":"Urtenen-Schönbühl","shortName":"Urtenen-Schönbühl"},"district":{"key":"246","name":"Verwaltungskreis Bern-Mittelland"},"canton":{"key":"2","code":"BE","name":"Bern / Berne"},"status":"Real"},{"key":"10178807","name":"Maltersstrasse","postalCode":"6016","locality":"Hellbühl","commune":{"key":"1062","name":"Malters","shortName":"Malters"},"district":{"key":"312","name":"Wahlkreis Luzern-Land"},"canton":{"key":"3","code":"LU","name":"Luzern"},"status":"Real"},{"key":"10015150","name":"Margel","postalCode":"6016","locality":"Hellbühl","commune":{"key":"1062","name":"Malters","shortName":"Malters"},"district":{"key":"312","name":"Wahlkreis Luzern-Land"},"canton":{"key":"3","code":"LU","name":"Luzern"},"status":"Real"},{"key":"10156474","name":"Margelhof","postalCode":"6016","locality":"Hellbühl","commune":{"key":"1062","name":"Malters","shortName":"Malters"},"district":{"key":"312","name":"Wahlkreis Luzern-Land"},"canton":{"key":"3","code":"LU","name":"Luzern"},"status":"Real"},{"key":"10082947","name":"Mattenweg","postalCode":"3322","locality":"Urtenen-Schönbühl","commune":{"key":"551","name":"Urtenen-Schönbühl","shortName":"Urtenen-Schönbühl"},"district":{"key":"246","name":"Verwaltungskreis Bern-Mittelland"},"canton":{"key":"2","code":"BE","name":"Bern / Berne"},"status":"Real"},{"key":"10082952","name":"Mattstettenstrasse","postalCode":"3322","locality":"Urtenen-Schönbühl","commune":{"key":"551","name":"Urtenen-Schönbühl","shortName":"Urtenen-Schönbühl"},"district":{"key":"246","name":"Verwaltungskreis Bern-Mittelland"},"canton":{"key":"2","code":"BE","name":"Bern / Berne"},"status":"Real"},{"key":"10122100","name":"Mehlersweid","postalCode":"9055","locality":"Bühler","commune":{"key":"3021","name":"Bühler","shortName":"Bühler"},"district":{"key":"1502","name":"Bezirk Mittelland"},"canton":{"key":"15","code":"AR","name":"Appenzell Ausserrhoden"},"status":"Real"},{"key":"10065664","name":"Meisenweg","postalCode":"3322","locality":"Urtenen-Schönbühl","commune":{"key":"551","name":"Urtenen-Schönbühl","shortName":"Urtenen-Schönbühl"},"district":{"key":"246","name":"Verwaltungskreis Bern-Mittelland"},"canton":{"key":"2","code":"BE","name":"Bern / Berne"},"status":"Real"},{"key":"10112047","name":"Melbengocht","postalCode":"9651","locality":"Ennetbühl","commune":{"key":"3360","name":"Nesslau","shortName":"Nesslau"},"district":{"key":"1727","name":"Wahlkreis Toggenburg"},"canton":{"key":"17","code":"SG","name":"St. Gallen"},"status":"Real"},{"key":"10126232","name":"Melsterböhl","postalCode":"9055","locality":"Bühler","commune":{"key":"3021","name":"Bühler","shortName":"Bühler"},"district":{"key":"1502","name":"Bezirk Mittelland"},"canton":{"key":"15","code":"AR","name":"Appenzell Ausserrhoden"},"status":"Real"},{"key":"10187907","name":"Mempfel","postalCode":"9055","locality":"Bühler","commune":{"key":"3021","name":"Bühler","shortName":"Bühler"},"district":{"key":"1502","name":"Bezirk Mittelland"},"canton":{"key":"15","code":"AR","name":"Appenzell Ausserrhoden"},"status":"Real"},{"key":"10061921","name":"Miesch","postalCode":"3636","locality":"Längenbühl","commune":{"key":"948","name":"Forst-Längenbühl","shortName":"Forst-Längenbühl"},"district":{"key":"247","name":"Verwaltungskreis Thun"},"canton":{"key":"2","code":"BE","name":"Bern / Berne"},"status":"Real"},{"key":"10102725","name":"Mitteldorfstrasse","postalCode":"3274","locality":"Bühl b. Aarberg","commune":{"key":"734","name":"Bühl","shortName":"Bühl"},"district":{"key":"243","name":"Verwaltungskreis Seeland"},"canton":{"key":"2","code":"BE","name":"Bern / Berne"},"status":"Real"},{"key":"10017035","name":"Mittlerbüel","postalCode":"6016","locality":"Hellbühl","commune":{"key":"1062","name":"Malters","shortName":"Malters"},"district":{"key":"312","name":"Wahlkreis Luzern-Land"},"canton":{"key":"3","code":"LU","name":"Luzern"},"status":"Real"},{"key":"10173266","name":"Moos","postalCode":"9055","locality":"Bühler","commune":{"key":"3021","name":"Bühler","shortName":"Bühler"},"district":{"key":"1502","name":"Bezirk Mittelland"},"canton":{"key":"15","code":"AR","name":"Appenzell Ausserrhoden"},"status":"Real"},{"key":"10185320","name":"Moos","postalCode":"9055","locality":"Bühler","commune":{"key":"3021","name":"Bühler","shortName":"Bühler"},"district":{"key":"1502","name":"Bezirk Mittelland"},"canton":{"key":"15","code":"AR","name":"Appenzell Ausserrhoden"},"status":"Real"},{"key":"10155148","name":"Moosfeldweg","postalCode":"3322","locality":"Urtenen-Schönbühl","commune":{"key":"551","name":"Urtenen-Schönbühl","shortName":"Urtenen-Schönbühl"},"district":{"key":"246","name":"Verwaltungskreis Bern-Mittelland"},"canton":{"key":"2","code":"BE","name":"Bern / Berne"},"status":"Real"},{"key":"10010270","name":"Moosgasse","postalCode":"3274","locality":"Bühl b. Aarberg","commune":{"key":"734","name":"Bühl","shortName":"Bühl"},"district":{"key":"243","name":"Verwaltungskreis Seeland"},"canton":{"key":"2","code":"BE","name":"Bern / Berne"},"status":"Real"},{"key":"10126233","name":"Möösli","postalCode":"9055","locality":"Bühler","commune":{"key":"3021","name":"Bühler","shortName":"Bühler"},"district":{"key":"1502","name":"Bezirk Mittelland"},"canton":{"key":"15","code":"AR","name":"Appenzell Ausserrhoden"},"status":"Real"},{"key":"10182215","name":"Moosmatt","postalCode":"3636","locality":"Forst b. Längenbühl","commune":{"key":"948","name":"Forst-Längenbühl","shortName":"Forst-Längenbühl"},"district":{"key":"247","name":"Verwaltungskreis Thun"},"canton":{"key":"2","code":"BE","name":"Bern / Berne"},"status":"Real"},{"key":"10216925","name":"Moosmattweg","postalCode":"3322","locality":"Urtenen-Schönbühl","commune":{"key":"551","name":"Urtenen-Schönbühl","shortName":"Urtenen-Schönbühl"},"district":{"key":"246","name":"Verwaltungskreis Bern-Mittelland"},"canton":{"key":"2","code":"BE","name":"Bern / Berne"},"status":"Real"},{"key":"10010271","name":"Moosrain","postalCode":"3274","locality":"Bühl b. Aarberg","commune":{"key":"734","name":"Bühl","shortName":"Bühl"},"district":{"key":"243","name":"Verwaltungskreis Seeland"},"canton":{"key":"2","code":"BE","name":"Bern / Berne"},"status":"Real"},{"key":"10003295","name":"Moosseeweg","postalCode":"3322","locality":"Urtenen-Schönbühl","commune":{"key":"551","name":"Urtenen-Schönbühl","shortName":"Urtenen-Schönbühl"},"district":{"key":"246","name":"Verwaltungskreis Bern-Mittelland"},"canton":{"key":"2","code":"BE","name":"Bern / Berne"},"status":"Real"},{"key":"10128010","name":"Moosstrasse","postalCode":"3322","locality":"Urtenen-Schönbühl","commune":{"key":"551","name":"Urtenen-Schönbühl","shortName":"Urtenen-Schönbühl"},"district":{"key":"246","name":"Verwaltungskreis Bern-Mittelland"},"canton":{"key":"2","code":"BE","name":"Bern / Berne"},"status":"Real"},{"key":"10033551","name":"Morgen","postalCode":"9651","locality":"Ennetbühl","commune":{"key":"3360","name":"Nesslau","shortName":"Nesslau"},"district":{"key":"1727","name":"Wahlkreis Toggenburg"},"canton":{"key":"17","code":"SG","name":"St. Gallen"},"status":"Real"},{"key":"10167205","name":"Mühle","postalCode":"3636","locality":"Längenbühl","commune":{"key":"948","name":"Forst-Längenbühl","shortName":"Forst-Längenbühl"},"district":{"key":"247","name":"Verwaltungskreis Thun"},"canton":{"key":"2","code":"BE","name":"Bern / Berne"},"status":"Real"},{"key":"10003304","name":"Mühlestrasse","postalCode":"3322","locality":"Urtenen-Schönbühl","commune":{"key":"551","name":"Urtenen-Schönbühl","shortName":"Urtenen-Schönbühl"},"district":{"key":"246","name":"Verwaltungskreis Bern-Mittelland"},"canton":{"key":"2","code":"BE","name":"Bern / Berne"},"status":"Real"},{"key":"10227920","name":"Mühliweg-Morgen","postalCode":"9651","locality":"Ennetbühl","commune":{"key":"3360","name":"Nesslau","shortName":"Nesslau"},"district":{"key":"1727","name":"Wahlkreis Toggenburg"},"canton":{"key":"17","code":"SG","name":"St. Gallen"},"status":"Real"},{"key":"10033552","name":"Müliweg","postalCode":"9651","locality":"Ennetbühl","commune":{"key":"3360","name":"Nesslau","shortName":"Nesslau"},"district":{"key":"1727","name":"Wahlkreis Toggenburg"},"canton":{"key":"17","code":"SG","name":"St. Gallen"},"status":"Real"},{"key":"10093959","name":"Müllersmatt","postalCode":"9651","locality":"Ennetbühl","commune":{"key":"3360","name":"Nesslau","shortName":"Nesslau"},"district":{"key":"1727","name":"Wahlkreis Toggenburg"},"canton":{"key":"17","code":"SG","name":"St. Gallen"},"status":"Real"},{"key":"10225297","name":"Müllersmattweg","postalCode":"9651","locality":"Ennetbühl","commune":{"key":"3360","name":"Nesslau","shortName":"Nesslau"},"district":{"key":"1727","name":"Wahlkreis Toggenburg"},"canton":{"key":"17","code":"SG","name":"St. Gallen"},"status":"Real"},{"key":"10225301","name":"Muser","postalCode":"9651","locality":"Ennetbühl","commune":{"key":"3360","name":"Nesslau","shortName":"Nesslau"},"district":{"key":"1727","name":"Wahlkreis Toggenburg"},"canton":{"key":"17","code":"SG","name":"St. Gallen"},"status":"Real"},{"key":"10225313","name":"Näppis-Oberstigen","postalCode":"9651","locality":"Ennetbühl","commune":{"key":"3360","name":"Nesslau","shortName":"Nesslau"},"district":{"key":"1727","name":"Wahlkreis Toggenburg"},"canton":{"key":"17","code":"SG","name":"St. Gallen"},"status":"Real"},{"key":"10126234","name":"Nassschwendi","postalCode":"9055","locality":"Bühler","commune":{"key":"3021","name":"Bühler","shortName":"Bühler"},"district":{"key":"1502","name":"Bezirk Mittelland"},"canton":{"key":"15","code":"AR","name":"Appenzell Ausserrhoden"},"status":"Real"},{"key":"10225321","name":"Nesslen-Schwendi","postalCode":"9651","locality":"Ennetbühl","commune":{"key":"3360","name":"Nesslau","shortName":"Nesslau"},"district":{"key":"1727","name":"Wahlkreis Toggenburg"},"canton":{"key":"17","code":"SG","name":"St. Gallen"},"status":"Real"},{"key":"10173907","name":"Neubruch Steinleuten","postalCode":"9055","locality":"Bühler","commune":{"key":"3021","name":"Bühler","shortName":"Bühler"},"district":{"key":"1502","name":"Bezirk Mittelland"},"canton":{"key":"15","code":"AR","name":"Appenzell Ausserrhoden"},"status":"Real"},{"key":"10240995","name":"Neuenkirchstrasse","postalCode":"6016","locality":"Hellbühl","commune":{"key":"1062","name":"Malters","shortName":"Malters"},"district":{"key":"312","name":"Wahlkreis Luzern-Land"},"canton":{"key":"3","code":"LU","name":"Luzern"},"status":"Real"},{"key":"10114841","name":"Neuhaus","postalCode":"6016","locality":"Hellbühl","commune":{"key":"1062","name":"Malters","shortName":"Malters"},"district":{"key":"312","name":"Wahlkreis Luzern-Land"},"canton":{"key":"3","code":"LU","name":"Luzern"},"status":"Real"},{"key":"10169182","name":"Neuhof","postalCode":"6016","locality":"Hellbühl","commune":{"key":"1062","name":"Malters","shortName":"Malters"},"district":{"key":"312","name":"Wahlkreis Luzern-Land"},"canton":{"key":"3","code":"LU","name":"Luzern"},"status":"Real"},{"key":"10074227","name":"Neulimbach","postalCode":"6016","locality":"Hellbühl","commune":{"key":"1062","name":"Malters","shortName":"Malters"},"district":{"key":"312","name":"Wahlkreis Luzern-Land"},"canton":{"key":"3","code":"LU","name":"Luzern"},"status":"Real"},{"key":"10011307","name":"Neurüti","postalCode":"6016","locality":"Hellbühl","commune":{"key":"1062","name":"Malters","shortName":"Malters"},"district":{"key":"312","name":"Wahlkreis Luzern-Land"},"canton":{"key":"3","code":"LU","name":"Luzern"},"status":"Real"},{"key":"10117301","name":"Neurütistrasse","postalCode":"6016","locality":"Hellbühl","commune":{"key":"1062","name":"Malters","shortName":"Malters"},"district":{"key":"312","name":"Wahlkreis Luzern-Land"},"canton":{"key":"3","code":"LU","name":"Luzern"},"status":"Real"},{"key":"10250877","name":"Neuschwendi","postalCode":"9651","locality":"Ennetbühl","commune":{"key":"3360","name":"Nesslau","shortName":"Nesslau"},"district":{"key":"1727","name":"Wahlkreis Toggenburg"},"canton":{"key":"17","code":"SG","name":"St. Gallen"},"status":"Real"},{"key":"10228017","name":"Neuschwendi-Boden-Weg","postalCode":"9651","locality":"Ennetbühl","commune":{"key":"3360","name":"Nesslau","shortName":"Nesslau"},"district":{"key":"1727","name":"Wahlkreis Toggenburg"},"canton":{"key":"17","code":"SG","name":"St. Gallen"},"status":"Real"},{"key":"10228025","name":"Neuschwendi-Reien-Weg","postalCode":"9651","locality":"Ennetbühl","commune":{"key":"3360","name":"Nesslau","shortName":"Nesslau"},"district":{"key":"1727","name":"Wahlkreis Toggenburg"},"canton":{"key":"17","code":"SG","name":"St. Gallen"},"status":"Real"},{"key":"10228032","name":"Neuschwendistrasse","postalCode":"9651","locality":"Ennetbühl","commune":{"key":"3360","name":"Nesslau","shortName":"Nesslau"},"district":{"key":"1727","name":"Wahlkreis Toggenburg"},"canton":{"key":"17","code":"SG","name":"St. Gallen"},"status":"Real"},{"key":"10109952","name":"Neustechenrain","postalCode":"6016","locality":"Hellbühl","commune":{"key":"1062","name":"Malters","shortName":"Malters"},"district":{"key":"312","name":"Wahlkreis Luzern-Land"},"canton":{"key":"3","code":"LU","name":"Luzern"},"status":"Real"},{"key":"10108502","name":"Neutannhüsern","postalCode":"6016","locality":"Hellbühl","commune":{"key":"1062","name":"Malters","shortName":"Malters"},"district":{"key":"312","name":"Wahlkreis Luzern-Land"},"canton":{"key":"3","code":"LU","name":"Luzern"},"status":"Real"},{"key":"10229096","name":"Niederstockstrasse","postalCode":"9651","locality":"Ennetbühl","commune":{"key":"3360","name":"Nesslau","shortName":"Nesslau"},"district":{"key":"1727","name":"Wahlkreis Toggenburg"},"canton":{"key":"17","code":"SG","name":"St. Gallen"},"status":"Real"},{"key":"10225357","name":"Niederstockweg","postalCode":"9651","locality":"Ennetbühl","commune":{"key":"3360","name":"Nesslau","shortName":"Nesslau"},"district":{"key":"1727","name":"Wahlkreis Toggenburg"},"canton":{"key":"17","code":"SG","name":"St. Gallen"},"status":"Real"},{"key":"10185326","name":"Nistelbühl","postalCode":"9055","locality":"Bühler","commune":{"key":"3021","name":"Bühler","shortName":"Bühler"},"district":{"key":"1502","name":"Bezirk Mittelland"},"canton":{"key":"15","code":"AR","name":"Appenzell Ausserrhoden"},"status":"Real"},{"key":"10126235","name":"Nord","postalCode":"9055","locality":"Bühler","commune":{"key":"3021","name":"Bühler","shortName":"Bühler"},"district":{"key":"1502","name":"Bezirk Mittelland"},"canton":{"key":"15","code":"AR","name":"Appenzell Ausserrhoden"},"status":"Real"},{"key":"10230072","name":"Nüsslibühl-Weg","postalCode":"9651","locality":"Ennetbühl","commune":{"key":"3360","name":"Nesslau","shortName":"Nesslau"},"district":{"key":"1727","name":"Wahlkreis Toggenburg"},"canton":{"key":"17","code":"SG","name":"St. Gallen"},"status":"Real"},{"key":"10058453","name":"Nüsslisbühl","postalCode":"9651","locality":"Ennetbühl","commune":{"key":"3360","name":"Nesslau","shortName":"Nesslau"},"district":{"key":"1727","name":"Wahlkreis Toggenburg"},"canton":{"key":"17","code":"SG","name":"St. Gallen"},"status":"Real"},{"key":"10110835","name":"Oberboden","postalCode":"9055","locality":"Bühler","commune":{"key":"3021","name":"Bühler","shortName":"Bühler"},"district":{"key":"1502","name":"Bezirk Mittelland"},"canton":{"key":"15","code":"AR","name":"Appenzell Ausserrhoden"},"status":"Real"},{"key":"10073173","name":"Oberbüel","postalCode":"6016","locality":"Hellbühl","commune":{"key":"1062","name":"Malters","shortName":"Malters"},"district":{"key":"312","name":"Wahlkreis Luzern-Land"},"canton":{"key":"3","code":"LU","name":"Luzern"},"status":"Real"},{"key":"10031962","name":"Oberdorf","postalCode":"9055","locality":"Bühler","commune":{"key":"3021","name":"Bühler","shortName":"Bühler"},"district":{"key":"1502","name":"Bezirk Mittelland"},"canton":{"key":"15","code":"AR","name":"Appenzell Ausserrhoden"},"status":"Real"},{"key":"10251118","name":"Oberdorf","postalCode":"9651","locality":"Ennetbühl","commune":{"key":"3360","name":"Nesslau","shortName":"Nesslau"},"district":{"key":"1727","name":"Wahlkreis Toggenburg"},"canton":{"key":"17","code":"SG","name":"St. Gallen"},"status":"Real"},{"key":"10003305","name":"Oberdorfstrasse","postalCode":"3322","locality":"Urtenen-Schönbühl","commune":{"key":"551","name":"Urtenen-Schönbühl","shortName":"Urtenen-Schönbühl"},"district":{"key":"246","name":"Verwaltungskreis Bern-Mittelland"},"canton":{"key":"2","code":"BE","name":"Bern / Berne"},"status":"Real"},{"key":"10126236","name":"Obere Au","postalCode":"9055","locality":"Bühler","commune":{"key":"3021","name":"Bühler","shortName":"Bühler"},"district":{"key":"1502","name":"Bezirk Mittelland"},"canton":{"key":"15","code":"AR","name":"Appenzell Ausserrhoden"},"status":"Real"},{"key":"10033257","name":"Obere Gössigen","postalCode":"9651","locality":"Ennetbühl","commune":{"key":"3360","name":"Nesslau","shortName":"Nesslau"},"district":{"key":"1727","name":"Wahlkreis Toggenburg"},"canton":{"key":"17","code":"SG","name":"St. Gallen"},"status":"Real"},{"key":"10132538","name":"Obere Laui","postalCode":"9651","locality":"Ennetbühl","commune":{"key":"3360","name":"Nesslau","shortName":"Nesslau"},"district":{"key":"1727","name":"Wahlkreis Toggenburg"},"canton":{"key":"17","code":"SG","name":"St. Gallen"},"status":"Real"},{"key":"10133643","name":"Oberer Dachsböhl","postalCode":"9055","locality":"Bühler","commune":{"key":"3021","name":"Bühler","shortName":"Bühler"},"district":{"key":"1502","name":"Bezirk Mittelland"},"canton":{"key":"15","code":"AR","name":"Appenzell Ausserrhoden"},"status":"Real"},{"key":"10031964","name":"Oberer Mempfel","postalCode":"9055","locality":"Bühler","commune":{"key":"3021","name":"Bühler","shortName":"Bühler"},"district":{"key":"1502","name":"Bezirk Mittelland"},"canton":{"key":"15","code":"AR","name":"Appenzell Ausserrhoden"},"status":"Real"},{"key":"10147666","name":"Oberer Roggenhalm","postalCode":"9055","locality":"Bühler","commune":{"key":"3021","name":"Bühler","shortName":"Bühler"},"district":{"key":"1502","name":"Bezirk Mittelland"},"canton":{"key":"15","code":"AR","name":"Appenzell Ausserrhoden"},"status":"Real"},{"key":"10126238","name":"Obere Rüti","postalCode":"9055","locality":"Bühler","commune":{"key":"3021","name":"Bühler","shortName":"Bühler"},"district":{"key":"1502","name":"Bezirk Mittelland"},"canton":{"key":"15","code":"AR","name":"Appenzell Ausserrhoden"},"status":"Real"},{"key":"10126237","name":"Oberes Grüt","postalCode":"9055","locality":"Bühler","commune":{"key":"3021","name":"Bühler","shortName":"Bühler"},"district":{"key":"1502","name":"Bezirk Mittelland"},"canton":{"key":"15","code":"AR","name":"Appenzell Ausserrhoden"},"status":"Real"},{"key":"10057936","name":"Oberfeld","postalCode":"3274","locality":"Bühl b. Aarberg","commune":{"key":"734","name":"Bühl","shortName":"Bühl"},"district":{"key":"243","name":"Verwaltungskreis Seeland"},"canton":{"key":"2","code":"BE","name":"Bern / Berne"},"status":"Real"},{"key":"10150514","name":"Oberfeld","postalCode":"9055","locality":"Bühler","commune":{"key":"3021","name":"Bühler","shortName":"Bühler"},"district":{"key":"1502","name":"Bezirk Mittelland"},"canton":{"key":"15","code":"AR","name":"Appenzell Ausserrhoden"},"status":"Real"},{"key":"10053676","name":"Obergeitigen","postalCode":"6016","locality":"Hellbühl","commune":{"key":"1062","name":"Malters","shortName":"Malters"},"district":{"key":"312","name":"Wahlkreis Luzern-Land"},"canton":{"key":"3","code":"LU","name":"Luzern"},"status":"Real"},{"key":"10229174","name":"Oberhofeld-Lauchwis-Weg","postalCode":"9651","locality":"Ennetbühl","commune":{"key":"3360","name":"Nesslau","shortName":"Nesslau"},"district":{"key":"1727","name":"Wahlkreis Toggenburg"},"canton":{"key":"17","code":"SG","name":"St. Gallen"},"status":"Real"},{"key":"10179099","name":"Oberknebligen","postalCode":"6016","locality":"Hellbühl","commune":{"key":"1062","name":"Malters","shortName":"Malters"},"district":{"key":"312","name":"Wahlkreis Luzern-Land"},"canton":{"key":"3","code":"LU","name":"Luzern"},"status":"Real"},{"key":"10229183","name":"Oberlaui-Chlosteralp-Weg","postalCode":"9651","locality":"Ennetbühl","commune":{"key":"3360","name":"Nesslau","shortName":"Nesslau"},"district":{"key":"1727","name":"Wahlkreis Toggenburg"},"canton":{"key":"17","code":"SG","name":"St. Gallen"},"status":"Real"},{"key":"10230195","name":"Oberlauistrasse","postalCode":"9651","locality":"Ennetbühl","commune":{"key":"3360","name":"Nesslau","shortName":"Nesslau"},"district":{"key":"1727","name":"Wahlkreis Toggenburg"},"canton":{"key":"17","code":"SG","name":"St. Gallen"},"status":"Real"},{"key":"10230203","name":"Oberlauiweg","postalCode":"9651","locality":"Ennetbühl","commune":{"key":"3360","name":"Nesslau","shortName":"Nesslau"},"district":{"key":"1727","name":"Wahlkreis Toggenburg"},"canton":{"key":"17","code":"SG","name":"St. Gallen"},"status":"Real"},{"key":"10190938","name":"Oberlimbach","postalCode":"6016","locality":"Hellbühl","commune":{"key":"1062","name":"Malters","shortName":"Malters"},"district":{"key":"312","name":"Wahlkreis Luzern-Land"},"canton":{"key":"3","code":"LU","name":"Luzern"},"status":"Real"},{"key":"10075904","name":"Ober Rietli","postalCode":"9651","locality":"Ennetbühl","commune":{"key":"3360","name":"Nesslau","shortName":"Nesslau"},"district":{"key":"1727","name":"Wahlkreis Toggenburg"},"canton":{"key":"17","code":"SG","name":"St. Gallen"},"status":"Real"},{"key":"10015320","name":"Oberstechenrain","postalCode":"6016","locality":"Hellbühl","commune":{"key":"1062","name":"Malters","shortName":"Malters"},"district":{"key":"312","name":"Wahlkreis Luzern-Land"},"canton":{"key":"3","code":"LU","name":"Luzern"},"status":"Real"},{"key":"10101532","name":"Obertannhüsern","postalCode":"6016","locality":"Hellbühl","commune":{"key":"1062","name":"Malters","shortName":"Malters"},"district":{"key":"312","name":"Wahlkreis Luzern-Land"},"canton":{"key":"3","code":"LU","name":"Luzern"},"status":"Real"},{"key":"10225457","name":"Oberwald-Chräzerli-Weg","postalCode":"9651","locality":"Ennetbühl","commune":{"key":"3360","name":"Nesslau","shortName":"Nesslau"},"district":{"key":"1727","name":"Wahlkreis Toggenburg"},"canton":{"key":"17","code":"SG","name":"St. Gallen"},"status":"Real"},{"key":"10053677","name":"Oberwilgis","postalCode":"6016","locality":"Hellbühl","commune":{"key":"1062","name":"Malters","shortName":"Malters"},"district":{"key":"312","name":"Wahlkreis Luzern-Land"},"canton":{"key":"3","code":"LU","name":"Luzern"},"status":"Real"},{"key":"10093960","name":"Oberwis","postalCode":"9651","locality":"Ennetbühl","commune":{"key":"3360","name":"Nesslau","shortName":"Nesslau"},"district":{"key":"1727","name":"Wahlkreis Toggenburg"},"canton":{"key":"17","code":"SG","name":"St. Gallen"},"status":"Real"},{"key":"10015151","name":"Oberzinggen","postalCode":"6016","locality":"Hellbühl","commune":{"key":"1062","name":"Malters","shortName":"Malters"},"district":{"key":"312","name":"Wahlkreis Luzern-Land"},"canton":{"key":"3","code":"LU","name":"Luzern"},"status":"Real"},{"key":"10010954","name":"Ochseweid","postalCode":"3636","locality":"Längenbühl","commune":{"key":"948","name":"Forst-Längenbühl","shortName":"Forst-Längenbühl"},"district":{"key":"247","name":"Verwaltungskreis Thun"},"canton":{"key":"2","code":"BE","name":"Bern / Berne"},"status":"Real"},{"key":"10225460","name":"Ofenlochweg","postalCode":"9651","locality":"Ennetbühl","commune":{"key":"3360","name":"Nesslau","shortName":"Nesslau"},"district":{"key":"1727","name":"Wahlkreis Toggenburg"},"canton":{"key":"17","code":"SG","name":"St. Gallen"},"status":"Real"},{"key":"10057130","name":"Oobern","postalCode":"9651","locality":"Ennetbühl","commune":{"key":"3360","name":"Nesslau","shortName":"Nesslau"},"district":{"key":"1727","name":"Wahlkreis Toggenburg"},"canton":{"key":"17","code":"SG","name":"St. Gallen"},"status":"Real"},{"key":"10225468","name":"Oobern-Feissenmoos","postalCode":"9651","locality":"Ennetbühl","commune":{"key":"3360","name":"Nesslau","shortName":"Nesslau"},"district":{"key":"1727","name":"Wahlkreis Toggenburg"},"canton":{"key":"17","code":"SG","name":"St. Gallen"},"status":"Real"},{"key":"10230242","name":"Oobernstrasse","postalCode":"9651","locality":"Ennetbühl","commune":{"key":"3360","name":"Nesslau","shortName":"Nesslau"},"district":{"key":"1727","name":"Wahlkreis Toggenburg"},"canton":{"key":"17","code":"SG","name":"St. Gallen"},"status":"Real"},{"key":"10230250","name":"Oobernweg","postalCode":"9651","locality":"Ennetbühl","commune":{"key":"3360","name":"Nesslau","shortName":"Nesslau"},"district":{"key":"1727","name":"Wahlkreis Toggenburg"},"canton":{"key":"17","code":"SG","name":"St. Gallen"},"status":"Real"},{"key":"10065665","name":"Platanenweg","postalCode":"3322","locality":"Urtenen-Schönbühl","commune":{"key":"551","name":"Urtenen-Schönbühl","shortName":"Urtenen-Schönbühl"},"district":{"key":"246","name":"Verwaltungskreis Bern-Mittelland"},"canton":{"key":"2","code":"BE","name":"Bern / Berne"},"status":"Real"},{"key":"10075905","name":"Platten","postalCode":"9651","locality":"Ennetbühl","commune":{"key":"3360","name":"Nesslau","shortName":"Nesslau"},"district":{"key":"1727","name":"Wahlkreis Toggenburg"},"canton":{"key":"17","code":"SG","name":"St. Gallen"},"status":"Real"},{"key":"10230322","name":"Platten-Schafacker","postalCode":"9651","locality":"Ennetbühl","commune":{"key":"3360","name":"Nesslau","shortName":"Nesslau"},"district":{"key":"1727","name":"Wahlkreis Toggenburg"},"canton":{"key":"17","code":"SG","name":"St. Gallen"},"status":"Real"},{"key":"10114603","name":"Postwiese","postalCode":"9651","locality":"Ennetbühl","commune":{"key":"3360","name":"Nesslau","shortName":"Nesslau"},"district":{"key":"1727","name":"Wahlkreis Toggenburg"},"canton":{"key":"17","code":"SG","name":"St. Gallen"},"status":"Real"},{"key":"10229267","name":"Postwiesenweg","postalCode":"9651","locality":"Ennetbühl","commune":{"key":"3360","name":"Nesslau","shortName":"Nesslau"},"district":{"key":"1727","name":"Wahlkreis Toggenburg"},"canton":{"key":"17","code":"SG","name":"St. Gallen"},"status":"Real"},{"key":"10229271","name":"Postwiesestrasse","postalCode":"9651","locality":"Ennetbühl","commune":{"key":"3360","name":"Nesslau","shortName":"Nesslau"},"district":{"key":"1727","name":"Wahlkreis Toggenburg"},"canton":{"key":"17","code":"SG","name":"St. Gallen"},"status":"Real"},{"key":"10003306","name":"Privatweg","postalCode":"3322","locality":"Urtenen-Schönbühl","commune":{"key":"551","name":"Urtenen-Schönbühl","shortName":"Urtenen-Schönbühl"},"district":{"key":"246","name":"Verwaltungskreis Bern-Mittelland"},"canton":{"key":"2","code":"BE","name":"Bern / Berne"},"status":"Real"},{"key":"10017036","name":"Raage","postalCode":"6016","locality":"Hellbühl","commune":{"key":"1062","name":"Malters","shortName":"Malters"},"district":{"key":"312","name":"Wahlkreis Luzern-Land"},"canton":{"key":"3","code":"LU","name":"Luzern"},"status":"Real"},{"key":"10103812","name":"Räblirain","postalCode":"3274","locality":"Bühl b. Aarberg","commune":{"key":"734","name":"Bühl","shortName":"Bühl"},"district":{"key":"243","name":"Verwaltungskreis Seeland"},"canton":{"key":"2","code":"BE","name":"Bern / Berne"},"status":"Real"},{"key":"10147667","name":"Rähn","postalCode":"9055","locality":"Bühler","commune":{"key":"3021","name":"Bühler","shortName":"Bühler"},"district":{"key":"1502","name":"Bezirk Mittelland"},"canton":{"key":"15","code":"AR","name":"Appenzell Ausserrhoden"},"status":"Real"},{"key":"10126240","name":"Rälimoos","postalCode":"9055","locality":"Bühler","commune":{"key":"3021","name":"Bühler","shortName":"Bühler"},"district":{"key":"1502","name":"Bezirk Mittelland"},"canton":{"key":"15","code":"AR","name":"Appenzell Ausserrhoden"},"status":"Real"},{"key":"10126548","name":"Rälimoosstrasse","postalCode":"9055","locality":"Bühler","commune":{"key":"3021","name":"Bühler","shortName":"Bühler"},"district":{"key":"1502","name":"Bezirk Mittelland"},"canton":{"key":"15","code":"AR","name":"Appenzell Ausserrhoden"},"status":"Real"},{"key":"10147668","name":"Rämsen","postalCode":"9055","locality":"Bühler","commune":{"key":"3021","name":"Bühler","shortName":"Bühler"},"district":{"key":"1502","name":"Bezirk Mittelland"},"canton":{"key":"15","code":"AR","name":"Appenzell Ausserrhoden"},"status":"Real"},{"key":"10010272","name":"Rebenweg","postalCode":"3274","locality":"Bühl b. Aarberg","commune":{"key":"734","name":"Bühl","shortName":"Bühl"},"district":{"key":"243","name":"Verwaltungskreis Seeland"},"canton":{"key":"2","code":"BE","name":"Bern / Berne"},"status":"Real"},{"key":"10218108","name":"Reckholderweg","postalCode":"3322","locality":"Urtenen-Schönbühl","commune":{"key":"551","name":"Urtenen-Schönbühl","shortName":"Urtenen-Schönbühl"},"district":{"key":"246","name":"Verwaltungskreis Bern-Mittelland"},"canton":{"key":"2","code":"BE","name":"Bern / Berne"},"status":"Real"},{"key":"10188917","name":"Riedhubel","postalCode":"3636","locality":"Forst b. Längenbühl","commune":{"key":"948","name":"Forst-Längenbühl","shortName":"Forst-Längenbühl"},"district":{"key":"247","name":"Verwaltungskreis Thun"},"canton":{"key":"2","code":"BE","name":"Bern / Berne"},"status":"Real"},{"key":"10059857","name":"Riedli","postalCode":"3636","locality":"Forst b. Längenbühl","commune":{"key":"948","name":"Forst-Längenbühl","shortName":"Forst-Längenbühl"},"district":{"key":"247","name":"Verwaltungskreis Thun"},"canton":{"key":"2","code":"BE","name":"Bern / Berne"},"status":"Real"},{"key":"10033553","name":"Riet","postalCode":"9651","locality":"Ennetbühl","commune":{"key":"3360","name":"Nesslau","shortName":"Nesslau"},"district":{"key":"1727","name":"Wahlkreis Toggenburg"},"canton":{"key":"17","code":"SG","name":"St. Gallen"},"status":"Real"},{"key":"10126137","name":"Rietbad","postalCode":"9651","locality":"Ennetbühl","commune":{"key":"3360","name":"Nesslau","shortName":"Nesslau"},"district":{"key":"1727","name":"Wahlkreis Toggenburg"},"canton":{"key":"17","code":"SG","name":"St. Gallen"},"status":"Real"},{"key":"10227117","name":"Rietbadstrasse","postalCode":"9651","locality":"Ennetbühl","commune":{"key":"3360","name":"Nesslau","shortName":"Nesslau"},"district":{"key":"1727","name":"Wahlkreis Toggenburg"},"canton":{"key":"17","code":"SG","name":"St. Gallen"},"status":"Real"},{"key":"10227121","name":"Riet-Dräher","postalCode":"9651","locality":"Ennetbühl","commune":{"key":"3360","name":"Nesslau","shortName":"Nesslau"},"district":{"key":"1727","name":"Wahlkreis Toggenburg"},"canton":{"key":"17","code":"SG","name":"St. Gallen"},"status":"Real"},{"key":"10227125","name":"Rietfaltlig-Horn-Weg","postalCode":"9651","locality":"Ennetbühl","commune":{"key":"3360","name":"Nesslau","shortName":"Nesslau"},"district":{"key":"1727","name":"Wahlkreis Toggenburg"},"canton":{"key":"17","code":"SG","name":"St. Gallen"},"status":"Real"},{"key":"10227129","name":"Riet-Hinterschlatt-Weg","postalCode":"9651","locality":"Ennetbühl","commune":{"key":"3360","name":"Nesslau","shortName":"Nesslau"},"district":{"key":"1727","name":"Wahlkreis Toggenburg"},"canton":{"key":"17","code":"SG","name":"St. Gallen"},"status":"Real"},{"key":"10033554","name":"Rietstrasse","postalCode":"9651","locality":"Ennetbühl","commune":{"key":"3360","name":"Nesslau","shortName":"Nesslau"},"district":{"key":"1727","name":"Wahlkreis Toggenburg"},"canton":{"key":"17","code":"SG","name":"St. Gallen"},"status":"Real"},{"key":"10250887","name":"Risi","postalCode":"9651","locality":"Ennetbühl","commune":{"key":"3360","name":"Nesslau","shortName":"Nesslau"},"district":{"key":"1727","name":"Wahlkreis Toggenburg"},"canton":{"key":"17","code":"SG","name":"St. Gallen"},"status":"Real"},{"key":"10229351","name":"Risi-Eggli","postalCode":"9651","locality":"Ennetbühl","commune":{"key":"3360","name":"Nesslau","shortName":"Nesslau"},"district":{"key":"1727","name":"Wahlkreis Toggenburg"},"canton":{"key":"17","code":"SG","name":"St. Gallen"},"status":"Real"},{"key":"10229371","name":"Ritteren-Unterstigenstrasse","postalCode":"9651","locality":"Ennetbühl","commune":{"key":"3360","name":"Nesslau","shortName":"Nesslau"},"district":{"key":"1727","name":"Wahlkreis Toggenburg"},"canton":{"key":"17","code":"SG","name":"St. Gallen"},"status":"Real"},{"key":"10229375","name":"Ritternweg","postalCode":"9651","locality":"Ennetbühl","commune":{"key":"3360","name":"Nesslau","shortName":"Nesslau"},"district":{"key":"1727","name":"Wahlkreis Toggenburg"},"canton":{"key":"17","code":"SG","name":"St. Gallen"},"status":"Real"},{"key":"10229379","name":"Rittliweg","postalCode":"9651","locality":"Ennetbühl","commune":{"key":"3360","name":"Nesslau","shortName":"Nesslau"},"district":{"key":"1727","name":"Wahlkreis Toggenburg"},"canton":{"key":"17","code":"SG","name":"St. Gallen"},"status":"Real"},{"key":"10163147","name":"Road Atlanta","postalCode":"6016","locality":"Hellbühl","commune":{"key":"1062","name":"Malters","shortName":"Malters"},"district":{"key":"312","name":"Wahlkreis Luzern-Land"},"canton":{"key":"3","code":"LU","name":"Luzern"},"status":"Real"},{"key":"10218112","name":"Rödelberg","postalCode":"3322","locality":"Urtenen-Schönbühl","commune":{"key":"551","name":"Urtenen-Schönbühl","shortName":"Urtenen-Schönbühl"},"district":{"key":"246","name":"Verwaltungskreis Bern-Mittelland"},"canton":{"key":"2","code":"BE","name":"Bern / Berne"},"status":"Real"},{"key":"10126242","name":"Roggenhalm","postalCode":"9055","locality":"Bühler","commune":{"key":"3021","name":"Bühler","shortName":"Bühler"},"district":{"key":"1502","name":"Bezirk Mittelland"},"canton":{"key":"15","code":"AR","name":"Appenzell Ausserrhoden"},"status":"Real"},{"key":"10010273","name":"Römerstrasse","postalCode":"3274","locality":"Bühl b. Aarberg","commune":{"key":"734","name":"Bühl","shortName":"Bühl"},"district":{"key":"243","name":"Verwaltungskreis Seeland"},"canton":{"key":"2","code":"BE","name":"Bern / Berne"},"status":"Real"},{"key":"10229383","name":"Roosen-Läuis-Weg","postalCode":"9651","locality":"Ennetbühl","commune":{"key":"3360","name":"Nesslau","shortName":"Nesslau"},"district":{"key":"1727","name":"Wahlkreis Toggenburg"},"canton":{"key":"17","code":"SG","name":"St. Gallen"},"status":"Real"},{"key":"10150515","name":"Rosenberg","postalCode":"9055","locality":"Bühler","commune":{"key":"3021","name":"Bühler","shortName":"Bühler"},"district":{"key":"1502","name":"Bezirk Mittelland"},"canton":{"key":"15","code":"AR","name":"Appenzell Ausserrhoden"},"status":"Real"},{"key":"10003296","name":"Rosenweg","postalCode":"3322","locality":"Urtenen-Schönbühl","commune":{"key":"551","name":"Urtenen-Schönbühl","shortName":"Urtenen-Schönbühl"},"district":{"key":"246","name":"Verwaltungskreis Bern-Mittelland"},"canton":{"key":"2","code":"BE","name":"Bern / Berne"},"status":"Real"},{"key":"10240999","name":"Rösslimatt","postalCode":"6016","locality":"Hellbühl","commune":{"key":"1062","name":"Malters","shortName":"Malters"},"district":{"key":"312","name":"Wahlkreis Luzern-Land"},"canton":{"key":"3","code":"LU","name":"Luzern"},"status":"Real"},{"key":"10212439","name":"Rotbachweg","postalCode":"6016","locality":"Hellbühl","commune":{"key":"1062","name":"Malters","shortName":"Malters"},"district":{"key":"312","name":"Wahlkreis Luzern-Land"},"canton":{"key":"3","code":"LU","name":"Luzern"},"status":"Real"},{"key":"10011308","name":"Rotbachweg","postalCode":"6016","locality":"Hellbühl","commune":{"key":"1062","name":"Malters","shortName":"Malters"},"district":{"key":"312","name":"Wahlkreis Luzern-Land"},"canton":{"key":"3","code":"LU","name":"Luzern"},"status":"Real"},{"key":"10126243","name":"Rotfarb","postalCode":"9055","locality":"Bühler","commune":{"key":"3021","name":"Bühler","shortName":"Bühler"},"district":{"key":"1502","name":"Bezirk Mittelland"},"canton":{"key":"15","code":"AR","name":"Appenzell Ausserrhoden"},"status":"Real"},{"key":"10147669","name":"Rothalde","postalCode":"9055","locality":"Bühler","commune":{"key":"3021","name":"Bühler","shortName":"Bühler"},"district":{"key":"1502","name":"Bezirk Mittelland"},"canton":{"key":"15","code":"AR","name":"Appenzell Ausserrhoden"},"status":"Real"},{"key":"10133644","name":"Rothaldenstrasse","postalCode":"9055","locality":"Bühler","commune":{"key":"3021","name":"Bühler","shortName":"Bühler"},"district":{"key":"1502","name":"Bezirk Mittelland"},"canton":{"key":"15","code":"AR","name":"Appenzell Ausserrhoden"},"status":"Real"},{"key":"10126244","name":"Rothüsli","postalCode":"9055","locality":"Bühler","commune":{"key":"3021","name":"Bühler","shortName":"Bühler"},"district":{"key":"1502","name":"Bezirk Mittelland"},"canton":{"key":"15","code":"AR","name":"Appenzell Ausserrhoden"},"status":"Real"},{"key":"10074498","name":"Rotmatt","postalCode":"6016","locality":"Hellbühl","commune":{"key":"1062","name":"Malters","shortName":"Malters"},"district":{"key":"312","name":"Wahlkreis Luzern-Land"},"canton":{"key":"3","code":"LU","name":"Luzern"},"status":"Real"},{"key":"10210131","name":"Ruswilerstrasse","postalCode":"6016","locality":"Hellbühl","commune":{"key":"1062","name":"Malters","shortName":"Malters"},"district":{"key":"312","name":"Wahlkreis Luzern-Land"},"canton":{"key":"3","code":"LU","name":"Luzern"},"status":"Real"},{"key":"10189398","name":"Ruswilstrasse","postalCode":"6016","locality":"Hellbühl","commune":{"key":"1062","name":"Malters","shortName":"Malters"},"district":{"key":"312","name":"Wahlkreis Luzern-Land"},"canton":{"key":"3","code":"LU","name":"Luzern"},"status":"Real"},{"key":"10010579","name":"Rüteli","postalCode":"6016","locality":"Hellbühl","commune":{"key":"1062","name":"Malters","shortName":"Malters"},"district":{"key":"312","name":"Wahlkreis Luzern-Land"},"canton":{"key":"3","code":"LU","name":"Luzern"},"status":"Real"},{"key":"10241855","name":"Rüti","postalCode":"6016","locality":"Hellbühl","commune":{"key":"1062","name":"Malters","shortName":"Malters"},"district":{"key":"312","name":"Wahlkreis Luzern-Land"},"canton":{"key":"3","code":"LU","name":"Luzern"},"status":"Real"},{"key":"10147670","name":"Rüti","postalCode":"9055","locality":"Bühler","commune":{"key":"3021","name":"Bühler","shortName":"Bühler"},"district":{"key":"1502","name":"Bezirk Mittelland"},"canton":{"key":"15","code":"AR","name":"Appenzell Ausserrhoden"},"status":"Real"},{"key":"10082221","name":"Rütiweg","postalCode":"6016","locality":"Hellbühl","commune":{"key":"1062","name":"Malters","shortName":"Malters"},"district":{"key":"312","name":"Wahlkreis Luzern-Land"},"canton":{"key":"3","code":"LU","name":"Luzern"},"status":"Real"},{"key":"10167207","name":"Rytweg","postalCode":"3636","locality":"Längenbühl","commune":{"key":"948","name":"Forst-Längenbühl","shortName":"Forst-Längenbühl"},"district":{"key":"247","name":"Verwaltungskreis Thun"},"canton":{"key":"2","code":"BE","name":"Bern / Berne"},"status":"Real"},{"key":"10168413","name":"Sageli","postalCode":"6016","locality":"Hellbühl","commune":{"key":"1062","name":"Malters","shortName":"Malters"},"district":{"key":"312","name":"Wahlkreis Luzern-Land"},"canton":{"key":"3","code":"LU","name":"Luzern"},"status":"Real"},{"key":"10053667","name":"Sagenhübeli","postalCode":"6016","locality":"Hellbühl","commune":{"key":"1062","name":"Malters","shortName":"Malters"},"district":{"key":"312","name":"Wahlkreis Luzern-Land"},"canton":{"key":"3","code":"LU","name":"Luzern"},"status":"Real"},{"key":"10082948","name":"Sandstrasse","postalCode":"3322","locality":"Urtenen-Schönbühl","commune":{"key":"551","name":"Urtenen-Schönbühl","shortName":"Urtenen-Schönbühl"},"district":{"key":"246","name":"Verwaltungskreis Bern-Mittelland"},"canton":{"key":"2","code":"BE","name":"Bern / Berne"},"status":"Real"},{"key":"10102695","name":"Sandstrasse","postalCode":"3322","locality":"Urtenen-Schönbühl","commune":{"key":"551","name":"Urtenen-Schönbühl","shortName":"Urtenen-Schönbühl"},"district":{"key":"246","name":"Verwaltungskreis Bern-Mittelland"},"canton":{"key":"2","code":"BE","name":"Bern / Berne"},"status":"Real"},{"key":"10231059","name":"Säntisalpenweg","postalCode":"9651","locality":"Ennetbühl","commune":{"key":"3360","name":"Nesslau","shortName":"Nesslau"},"district":{"key":"1727","name":"Wahlkreis Toggenburg"},"canton":{"key":"17","code":"SG","name":"St. Gallen"},"status":"Real"},{"key":"10210327","name":"Säntisalp-Wideralp-Strasse","postalCode":"9651","locality":"Ennetbühl","commune":{"key":"3360","name":"Nesslau","shortName":"Nesslau"},"district":{"key":"1727","name":"Wahlkreis Toggenburg"},"canton":{"key":"17","code":"SG","name":"St. Gallen"},"status":"Real"},{"key":"10231063","name":"Schafacker-Häckler-Leh","postalCode":"9651","locality":"Ennetbühl","commune":{"key":"3360","name":"Nesslau","shortName":"Nesslau"},"district":{"key":"1727","name":"Wahlkreis Toggenburg"},"canton":{"key":"17","code":"SG","name":"St. Gallen"},"status":"Real"},{"key":"10114527","name":"Schleipfen","postalCode":"9651","locality":"Ennetbühl","commune":{"key":"3360","name":"Nesslau","shortName":"Nesslau"},"district":{"key":"1727","name":"Wahlkreis Toggenburg"},"canton":{"key":"17","code":"SG","name":"St. Gallen"},"status":"Real"},{"key":"10073450","name":"Schlosshubel","postalCode":"6016","locality":"Hellbühl","commune":{"key":"1062","name":"Malters","shortName":"Malters"},"district":{"key":"312","name":"Wahlkreis Luzern-Land"},"canton":{"key":"3","code":"LU","name":"Luzern"},"status":"Real"},{"key":"10010955","name":"Schlupf","postalCode":"3636","locality":"Längenbühl","commune":{"key":"948","name":"Forst-Längenbühl","shortName":"Forst-Längenbühl"},"district":{"key":"247","name":"Verwaltungskreis Thun"},"canton":{"key":"2","code":"BE","name":"Bern / Berne"},"status":"Real"},{"key":"10218116","name":"Schmiedegässli","postalCode":"3322","locality":"Urtenen-Schönbühl","commune":{"key":"551","name":"Urtenen-Schönbühl","shortName":"Urtenen-Schönbühl"},"district":{"key":"246","name":"Verwaltungskreis Bern-Mittelland"},"canton":{"key":"2","code":"BE","name":"Bern / Berne"},"status":"Real"},{"key":"10228964","name":"Schrändli-Windegg","postalCode":"9651","locality":"Ennetbühl","commune":{"key":"3360","name":"Nesslau","shortName":"Nesslau"},"district":{"key":"1727","name":"Wahlkreis Toggenburg"},"canton":{"key":"17","code":"SG","name":"St. Gallen"},"status":"Real"},{"key":"10114459","name":"Schulhausstrasse","postalCode":"3322","locality":"Urtenen-Schönbühl","commune":{"key":"551","name":"Urtenen-Schönbühl","shortName":"Urtenen-Schönbühl"},"district":{"key":"246","name":"Verwaltungskreis Bern-Mittelland"},"canton":{"key":"2","code":"BE","name":"Bern / Berne"},"status":"Real"},{"key":"10103903","name":"Schürmättli","postalCode":"6016","locality":"Hellbühl","commune":{"key":"1062","name":"Malters","shortName":"Malters"},"district":{"key":"312","name":"Wahlkreis Luzern-Land"},"canton":{"key":"3","code":"LU","name":"Luzern"},"status":"Real"},{"key":"10103904","name":"Schurtigen","postalCode":"6016","locality":"Hellbühl","commune":{"key":"1062","name":"Malters","shortName":"Malters"},"district":{"key":"312","name":"Wahlkreis Luzern-Land"},"canton":{"key":"3","code":"LU","name":"Luzern"},"status":"Real"},{"key":"10147671","name":"Schützenberg","postalCode":"9055","locality":"Bühler","commune":{"key":"3021","name":"Bühler","shortName":"Bühler"},"district":{"key":"1502","name":"Bezirk Mittelland"},"canton":{"key":"15","code":"AR","name":"Appenzell Ausserrhoden"},"status":"Real"},{"key":"10082953","name":"Schützenmauerweg","postalCode":"3322","locality":"Urtenen-Schönbühl","commune":{"key":"551","name":"Urtenen-Schönbühl","shortName":"Urtenen-Schönbühl"},"district":{"key":"246","name":"Verwaltungskreis Bern-Mittelland"},"canton":{"key":"2","code":"BE","name":"Bern / Berne"},"status":"Real"},{"key":"10003297","name":"Schützenweg","postalCode":"3322","locality":"Urtenen-Schönbühl","commune":{"key":"551","name":"Urtenen-Schönbühl","shortName":"Urtenen-Schönbühl"},"district":{"key":"246","name":"Verwaltungskreis Bern-Mittelland"},"canton":{"key":"2","code":"BE","name":"Bern / Berne"},"status":"Real"},{"key":"10106506","name":"Schwägalpstrasse","postalCode":"9651","locality":"Ennetbühl","commune":{"key":"3360","name":"Nesslau","shortName":"Nesslau"},"district":{"key":"1727","name":"Wahlkreis Toggenburg"},"canton":{"key":"17","code":"SG","name":"St. Gallen"},"status":"Real"},{"key":"10180443","name":"Schwand","postalCode":"6016","locality":"Hellbühl","commune":{"key":"1062","name":"Malters","shortName":"Malters"},"district":{"key":"312","name":"Wahlkreis Luzern-Land"},"canton":{"key":"3","code":"LU","name":"Luzern"},"status":"Real"},{"key":"10212440","name":"Schwandstrasse","postalCode":"6016","locality":"Hellbühl","commune":{"key":"1062","name":"Malters","shortName":"Malters"},"district":{"key":"312","name":"Wahlkreis Luzern-Land"},"canton":{"key":"3","code":"LU","name":"Luzern"},"status":"Real"},{"key":"10011310","name":"Schwandstrasse","postalCode":"6016","locality":"Hellbühl","commune":{"key":"1062","name":"Malters","shortName":"Malters"},"district":{"key":"312","name":"Wahlkreis Luzern-Land"},"canton":{"key":"3","code":"LU","name":"Luzern"},"status":"Real"},{"key":"10126245","name":"Schwantlen","postalCode":"9055","locality":"Bühler","commune":{"key":"3021","name":"Bühler","shortName":"Bühler"},"district":{"key":"1502","name":"Bezirk Mittelland"},"canton":{"key":"15","code":"AR","name":"Appenzell Ausserrhoden"},"status":"Real"},{"key":"10217029","name":"Schwellallme","postalCode":"3274","locality":"Bühl b. Aarberg","commune":{"key":"734","name":"Bühl","shortName":"Bühl"},"district":{"key":"243","name":"Verwaltungskreis Seeland"},"canton":{"key":"2","code":"BE","name":"Bern / Berne"},"status":"Real"},{"key":"10185347","name":"Schwendi","postalCode":"9055","locality":"Bühler","commune":{"key":"3021","name":"Bühler","shortName":"Bühler"},"district":{"key":"1502","name":"Bezirk Mittelland"},"canton":{"key":"15","code":"AR","name":"Appenzell Ausserrhoden"},"status":"Real"},{"key":"10074235","name":"Schwingruben","postalCode":"6016","locality":"Hellbühl","commune":{"key":"1062","name":"Malters","shortName":"Malters"},"district":{"key":"312","name":"Wahlkreis Luzern-Land"},"canton":{"key":"3","code":"LU","name":"Luzern"},"status":"Real"},{"key":"10093961","name":"Seeben","postalCode":"9651","locality":"Ennetbühl","commune":{"key":"3360","name":"Nesslau","shortName":"Nesslau"},"district":{"key":"1727","name":"Wahlkreis Toggenburg"},"canton":{"key":"17","code":"SG","name":"St. Gallen"},"status":"Real"},{"key":"10229016","name":"Seeben-Dräher-Weg","postalCode":"9651","locality":"Ennetbühl","commune":{"key":"3360","name":"Nesslau","shortName":"Nesslau"},"district":{"key":"1727","name":"Wahlkreis Toggenburg"},"canton":{"key":"17","code":"SG","name":"St. Gallen"},"status":"Real"},{"key":"10075100","name":"Seematt","postalCode":"3636","locality":"Längenbühl","commune":{"key":"948","name":"Forst-Längenbühl","shortName":"Forst-Längenbühl"},"district":{"key":"247","name":"Verwaltungskreis Thun"},"canton":{"key":"2","code":"BE","name":"Bern / Berne"},"status":"Real"},{"key":"10003298","name":"Seemattstrasse","postalCode":"3322","locality":"Urtenen-Schönbühl","commune":{"key":"551","name":"Urtenen-Schönbühl","shortName":"Urtenen-Schönbühl"},"district":{"key":"246","name":"Verwaltungskreis Bern-Mittelland"},"canton":{"key":"2","code":"BE","name":"Bern / Berne"},"status":"Real"},{"key":"10117273","name":"Silberlingen","postalCode":"6016","locality":"Hellbühl","commune":{"key":"1062","name":"Malters","shortName":"Malters"},"district":{"key":"312","name":"Wahlkreis Luzern-Land"},"canton":{"key":"3","code":"LU","name":"Luzern"},"status":"Real"},{"key":"10082949","name":"Solothurnstrasse","postalCode":"3322","locality":"Urtenen-Schönbühl","commune":{"key":"551","name":"Urtenen-Schönbühl","shortName":"Urtenen-Schönbühl"},"district":{"key":"246","name":"Verwaltungskreis Bern-Mittelland"},"canton":{"key":"2","code":"BE","name":"Bern / Berne"},"status":"Real"},{"key":"10146211","name":"Sonnenbergstrasse","postalCode":"9055","locality":"Bühler","commune":{"key":"3021","name":"Bühler","shortName":"Bühler"},"district":{"key":"1502","name":"Bezirk Mittelland"},"canton":{"key":"15","code":"AR","name":"Appenzell Ausserrhoden"},"status":"Real"},{"key":"10187416","name":"Sonnwiesstrasse","postalCode":"9651","locality":"Ennetbühl","commune":{"key":"3360","name":"Nesslau","shortName":"Nesslau"},"district":{"key":"1727","name":"Wahlkreis Toggenburg"},"canton":{"key":"17","code":"SG","name":"St. Gallen"},"status":"Real"},{"key":"10167482","name":"Soum","postalCode":"3636","locality":"Forst b. Längenbühl","commune":{"key":"948","name":"Forst-Längenbühl","shortName":"Forst-Längenbühl"},"district":{"key":"247","name":"Verwaltungskreis Thun"},"canton":{"key":"2","code":"BE","name":"Bern / Berne"},"status":"Real"},{"key":"10227316","name":"Spicher-Neuwald-Weg","postalCode":"9651","locality":"Ennetbühl","commune":{"key":"3360","name":"Nesslau","shortName":"Nesslau"},"district":{"key":"1727","name":"Wahlkreis Toggenburg"},"canton":{"key":"17","code":"SG","name":"St. Gallen"},"status":"Real"},{"key":"10227320","name":"Spicherweg","postalCode":"9651","locality":"Ennetbühl","commune":{"key":"3360","name":"Nesslau","shortName":"Nesslau"},"district":{"key":"1727","name":"Wahlkreis Toggenburg"},"canton":{"key":"17","code":"SG","name":"St. Gallen"},"status":"Real"},{"key":"10227328","name":"Spital-Schleipfen-Strasse","postalCode":"9651","locality":"Ennetbühl","commune":{"key":"3360","name":"Nesslau","shortName":"Nesslau"},"district":{"key":"1727","name":"Wahlkreis Toggenburg"},"canton":{"key":"17","code":"SG","name":"St. Gallen"},"status":"Real"},{"key":"10085070","name":"Spitzbreite","postalCode":"6016","locality":"Hellbühl","commune":{"key":"1062","name":"Malters","shortName":"Malters"},"district":{"key":"312","name":"Wahlkreis Luzern-Land"},"canton":{"key":"3","code":"LU","name":"Luzern"},"status":"Real"},{"key":"10135268","name":"Sportweg","postalCode":"3322","locality":"Urtenen-Schönbühl","commune":{"key":"551","name":"Urtenen-Schönbühl","shortName":"Urtenen-Schönbühl"},"district":{"key":"246","name":"Verwaltungskreis Bern-Mittelland"},"canton":{"key":"2","code":"BE","name":"Bern / Berne"},"status":"Real"},{"key":"10218120","name":"Sportweg","postalCode":"3322","locality":"Urtenen-Schönbühl","commune":{"key":"551","name":"Urtenen-Schönbühl","shortName":"Urtenen-Schönbühl"},"district":{"key":"246","name":"Verwaltungskreis Bern-Mittelland"},"canton":{"key":"2","code":"BE","name":"Bern / Berne"},"status":"Real"},{"key":"10173906","name":"Städeli Steinleuten","postalCode":"9055","locality":"Bühler","commune":{"key":"3021","name":"Bühler","shortName":"Bühler"},"district":{"key":"1502","name":"Bezirk Mittelland"},"canton":{"key":"15","code":"AR","name":"Appenzell Ausserrhoden"},"status":"Real"},{"key":"10065666","name":"Staldenstrasse","postalCode":"3322","locality":"Urtenen-Schönbühl","commune":{"key":"551","name":"Urtenen-Schönbühl","shortName":"Urtenen-Schönbühl"},"district":{"key":"246","name":"Verwaltungskreis Bern-Mittelland"},"canton":{"key":"2","code":"BE","name":"Bern / Berne"},"status":"Real"},{"key":"10252300","name":"Starkenweid","postalCode":"9055","locality":"Bühler","commune":{"key":"3021","name":"Bühler","shortName":"Bühler"},"district":{"key":"1502","name":"Bezirk Mittelland"},"canton":{"key":"15","code":"AR","name":"Appenzell Ausserrhoden"},"status":"Real"},{"key":"10114840","name":"Stechenrain","postalCode":"6016","locality":"Hellbühl","commune":{"key":"1062","name":"Malters","shortName":"Malters"},"district":{"key":"312","name":"Wahlkreis Luzern-Land"},"canton":{"key":"3","code":"LU","name":"Luzern"},"status":"Real"},{"key":"10069509","name":"Stechenrainmühle","postalCode":"6016","locality":"Hellbühl","commune":{"key":"1062","name":"Malters","shortName":"Malters"},"district":{"key":"312","name":"Wahlkreis Luzern-Land"},"canton":{"key":"3","code":"LU","name":"Luzern"},"status":"Real"},{"key":"10152802","name":"Steigbach","postalCode":"9055","locality":"Bühler","commune":{"key":"3021","name":"Bühler","shortName":"Bühler"},"district":{"key":"1502","name":"Bezirk Mittelland"},"canton":{"key":"15","code":"AR","name":"Appenzell Ausserrhoden"},"status":"Real"},{"key":"10126552","name":"Steigstrasse","postalCode":"9055","locality":"Bühler","commune":{"key":"3021","name":"Bühler","shortName":"Bühler"},"district":{"key":"1502","name":"Bezirk Mittelland"},"canton":{"key":"15","code":"AR","name":"Appenzell Ausserrhoden"},"status":"Real"},{"key":"10133645","name":"Steigwaldstrasse","postalCode":"9055","locality":"Bühler","commune":{"key":"3021","name":"Bühler","shortName":"Bühler"},"district":{"key":"1502","name":"Bezirk Mittelland"},"canton":{"key":"15","code":"AR","name":"Appenzell Ausserrhoden"},"status":"Real"},{"key":"10083706","name":"Steimatt","postalCode":"6016","locality":"Hellbühl","commune":{"key":"1062","name":"Malters","shortName":"Malters"},"district":{"key":"312","name":"Wahlkreis Luzern-Land"},"canton":{"key":"3","code":"LU","name":"Luzern"},"status":"Real"},{"key":"10205222","name":"Talackerweg","postalCode":"3322","locality":"Urtenen-Schönbühl","commune":{"key":"551","name":"Urtenen-Schönbühl","shortName":"Urtenen-Schönbühl"},"district":{"key":"246","name":"Verwaltungskreis Bern-Mittelland"},"canton":{"key":"2","code":"BE","name":"Bern / Berne"},"status":"Real"},{"key":"10017037","name":"Tanne","postalCode":"6016","locality":"Hellbühl","commune":{"key":"1062","name":"Malters","shortName":"Malters"},"district":{"key":"312","name":"Wahlkreis Luzern-Land"},"canton":{"key":"3","code":"LU","name":"Luzern"},"status":"Real"},{"key":"10150705","name":"Tanne","postalCode":"9055","locality":"Bühler","commune":{"key":"3021","name":"Bühler","shortName":"Bühler"},"district":{"key":"1502","name":"Bezirk Mittelland"},"canton":{"key":"15","code":"AR","name":"Appenzell Ausserrhoden"},"status":"Real"},{"key":"10215386","name":"Tannhölzliweg","postalCode":"3322","locality":"Urtenen-Schönbühl","commune":{"key":"551","name":"Urtenen-Schönbühl","shortName":"Urtenen-Schönbühl"},"district":{"key":"246","name":"Verwaltungskreis Bern-Mittelland"},"canton":{"key":"2","code":"BE","name":"Bern / Berne"},"status":"Real"},{"key":"10185856","name":"Tannhüsern","postalCode":"6016","locality":"Hellbühl","commune":{"key":"1062","name":"Malters","shortName":"Malters"},"district":{"key":"312","name":"Wahlkreis Luzern-Land"},"canton":{"key":"3","code":"LU","name":"Luzern"},"status":"Real"},{"key":"10168711","name":"Tell","postalCode":"9055","locality":"Bühler","commune":{"key":"3021","name":"Bühler","shortName":"Bühler"},"district":{"key":"1502","name":"Bezirk Mittelland"},"canton":{"key":"15","code":"AR","name":"Appenzell Ausserrhoden"},"status":"Real"},{"key":"10119233","name":"Tell","postalCode":"9055","locality":"Bühler","commune":{"key":"3021","name":"Bühler","shortName":"Bühler"},"district":{"key":"1502","name":"Bezirk Mittelland"},"canton":{"key":"15","code":"AR","name":"Appenzell Ausserrhoden"},"status":"Real"},{"key":"10126553","name":"Tellstrasse","postalCode":"9055","locality":"Bühler","commune":{"key":"3021","name":"Bühler","shortName":"Bühler"},"district":{"key":"1502","name":"Bezirk Mittelland"},"canton":{"key":"15","code":"AR","name":"Appenzell Ausserrhoden"},"status":"Real"},{"key":"10147672","name":"Teufenerstrasse","postalCode":"9055","locality":"Bühler","commune":{"key":"3021","name":"Bühler","shortName":"Bühler"},"district":{"key":"1502","name":"Bezirk Mittelland"},"canton":{"key":"15","code":"AR","name":"Appenzell Ausserrhoden"},"status":"Real"},{"key":"10067840","name":"Trogenerstrasse","postalCode":"9055","locality":"Bühler","commune":{"key":"3021","name":"Bühler","shortName":"Bühler"},"district":{"key":"1502","name":"Bezirk Mittelland"},"canton":{"key":"15","code":"AR","name":"Appenzell Ausserrhoden"},"status":"Real"},{"key":"10075909","name":"Tryen","postalCode":"9651","locality":"Ennetbühl","commune":{"key":"3360","name":"Nesslau","shortName":"Nesslau"},"district":{"key":"1727","name":"Wahlkreis Toggenburg"},"canton":{"key":"17","code":"SG","name":"St. Gallen"},"status":"Real"},{"key":"10033557","name":"Tryenstrasse","postalCode":"9651","locality":"Ennetbühl","commune":{"key":"3360","name":"Nesslau","shortName":"Nesslau"},"district":{"key":"1727","name":"Wahlkreis Toggenburg"},"canton":{"key":"17","code":"SG","name":"St. Gallen"},"status":"Real"},{"key":"10229301","name":"Tryen-Studen-Weg","postalCode":"9651","locality":"Ennetbühl","commune":{"key":"3360","name":"Nesslau","shortName":"Nesslau"},"district":{"key":"1727","name":"Wahlkreis Toggenburg"},"canton":{"key":"17","code":"SG","name":"St. Gallen"},"status":"Real"},{"key":"10003307","name":"Tulpenweg","postalCode":"3322","locality":"Urtenen-Schönbühl","commune":{"key":"551","name":"Urtenen-Schönbühl","shortName":"Urtenen-Schönbühl"},"district":{"key":"246","name":"Verwaltungskreis Bern-Mittelland"},"canton":{"key":"2","code":"BE","name":"Bern / Berne"},"status":"Real"},{"key":"10017038","name":"Underbüel","postalCode":"6016","locality":"Hellbühl","commune":{"key":"1062","name":"Malters","shortName":"Malters"},"district":{"key":"312","name":"Wahlkreis Luzern-Land"},"canton":{"key":"3","code":"LU","name":"Luzern"},"status":"Real"},{"key":"10167483","name":"Underleen","postalCode":"3636","locality":"Forst b. Längenbühl","commune":{"key":"948","name":"Forst-Längenbühl","shortName":"Forst-Längenbühl"},"district":{"key":"247","name":"Verwaltungskreis Thun"},"canton":{"key":"2","code":"BE","name":"Bern / Berne"},"status":"Real"},{"key":"10229332","name":"Under Scherlet","postalCode":"9651","locality":"Ennetbühl","commune":{"key":"3360","name":"Nesslau","shortName":"Nesslau"},"district":{"key":"1727","name":"Wahlkreis Toggenburg"},"canton":{"key":"17","code":"SG","name":"St. Gallen"},"status":"Real"},{"key":"10192074","name":"Unterboden","postalCode":"9055","locality":"Bühler","commune":{"key":"3021","name":"Bühler","shortName":"Bühler"},"district":{"key":"1502","name":"Bezirk Mittelland"},"canton":{"key":"15","code":"AR","name":"Appenzell Ausserrhoden"},"status":"Real"},{"key":"10112146","name":"Unterdorfstrasse","postalCode":"3322","locality":"Urtenen-Schönbühl","commune":{"key":"551","name":"Urtenen-Schönbühl","shortName":"Urtenen-Schönbühl"},"district":{"key":"246","name":"Verwaltungskreis Bern-Mittelland"},"canton":{"key":"2","code":"BE","name":"Bern / Berne"},"status":"Real"},{"key":"10147673","name":"Untere Brunneren","postalCode":"9055","locality":"Bühler","commune":{"key":"3021","name":"Bühler","shortName":"Bühler"},"district":{"key":"1502","name":"Bezirk Mittelland"},"canton":{"key":"15","code":"AR","name":"Appenzell Ausserrhoden"},"status":"Real"},{"key":"10229399","name":"Unteregglistrasse","postalCode":"9651","locality":"Ennetbühl","commune":{"key":"3360","name":"Nesslau","shortName":"Nesslau"},"district":{"key":"1727","name":"Wahlkreis Toggenburg"},"canton":{"key":"17","code":"SG","name":"St. Gallen"},"status":"Real"},{"key":"10229380","name":"Untere Gillstrasse","postalCode":"9651","locality":"Ennetbühl","commune":{"key":"3360","name":"Nesslau","shortName":"Nesslau"},"district":{"key":"1727","name":"Wahlkreis Toggenburg"},"canton":{"key":"17","code":"SG","name":"St. Gallen"},"status":"Real"},{"key":"10203485","name":"Untere Hägni","postalCode":"9055","locality":"Bühler","commune":{"key":"3021","name":"Bühler","shortName":"Bühler"},"district":{"key":"1502","name":"Bezirk Mittelland"},"canton":{"key":"15","code":"AR","name":"Appenzell Ausserrhoden"},"status":"Real"},{"key":"10195088","name":"Untere Risi","postalCode":"9651","locality":"Ennetbühl","commune":{"key":"3360","name":"Nesslau","shortName":"Nesslau"},"district":{"key":"1727","name":"Wahlkreis Toggenburg"},"canton":{"key":"17","code":"SG","name":"St. Gallen"},"status":"Real"},{"key":"10150707","name":"Unterer Steigbach","postalCode":"9055","locality":"Bühler","commune":{"key":"3021","name":"Bühler","shortName":"Bühler"},"district":{"key":"1502","name":"Bezirk Mittelland"},"canton":{"key":"15","code":"AR","name":"Appenzell Ausserrhoden"},"status":"Real"},{"key":"10150517","name":"Unterer Stein","postalCode":"9055","locality":"Bühler","commune":{"key":"3021","name":"Bühler","shortName":"Bühler"},"district":{"key":"1502","name":"Bezirk Mittelland"},"canton":{"key":"15","code":"AR","name":"Appenzell Ausserrhoden"},"status":"Real"},{"key":"10150706","name":"Untere Rüti","postalCode":"9055","locality":"Bühler","commune":{"key":"3021","name":"Bühler","shortName":"Bühler"},"district":{"key":"1502","name":"Bezirk Mittelland"},"canton":{"key":"15","code":"AR","name":"Appenzell Ausserrhoden"},"status":"Real"},{"key":"10224053","name":"Unteres Brüggli-Berg","postalCode":"9651","locality":"Ennetbühl","commune":{"key":"3360","name":"Nesslau","shortName":"Nesslau"},"district":{"key":"1727","name":"Wahlkreis Toggenburg"},"canton":{"key":"17","code":"SG","name":"St. Gallen"},"status":"Real"},{"key":"10150516","name":"Unteres Hälmli","postalCode":"9055","locality":"Bühler","commune":{"key":"3021","name":"Bühler","shortName":"Bühler"},"district":{"key":"1502","name":"Bezirk Mittelland"},"canton":{"key":"15","code":"AR","name":"Appenzell Ausserrhoden"},"status":"Real"},{"key":"10212002","name":"Unteres Strahlholz","postalCode":"9055","locality":"Bühler","commune":{"key":"3021","name":"Bühler","shortName":"Bühler"},"district":{"key":"1502","name":"Bezirk Mittelland"},"canton":{"key":"15","code":"AR","name":"Appenzell Ausserrhoden"},"status":"Real"},{"key":"10123274","name":"Untergeitigen","postalCode":"6016","locality":"Hellbühl","commune":{"key":"1062","name":"Malters","shortName":"Malters"},"district":{"key":"312","name":"Wahlkreis Luzern-Land"},"canton":{"key":"3","code":"LU","name":"Luzern"},"status":"Real"},{"key":"10104599","name":"Unterhusen","postalCode":"9651","locality":"Ennetbühl","commune":{"key":"3360","name":"Nesslau","shortName":"Nesslau"},"district":{"key":"1727","name":"Wahlkreis Toggenburg"},"canton":{"key":"17","code":"SG","name":"St. Gallen"},"status":"Real"},{"key":"10015154","name":"Unterlimbach","postalCode":"6016","locality":"Hellbühl","commune":{"key":"1062","name":"Malters","shortName":"Malters"},"district":{"key":"312","name":"Wahlkreis Luzern-Land"},"canton":{"key":"3","code":"LU","name":"Luzern"},"status":"Real"},{"key":"10010580","name":"Unterschwand","postalCode":"6016","locality":"Hellbühl","commune":{"key":"1062","name":"Malters","shortName":"Malters"},"district":{"key":"312","name":"Wahlkreis Luzern-Land"},"canton":{"key":"3","code":"LU","name":"Luzern"},"status":"Real"},{"key":"10015155","name":"Unterwilgis","postalCode":"6016","locality":"Hellbühl","commune":{"key":"1062","name":"Malters","shortName":"Malters"},"district":{"key":"312","name":"Wahlkreis Luzern-Land"},"canton":{"key":"3","code":"LU","name":"Luzern"},"status":"Real"},{"key":"10053678","name":"Unterzinggen","postalCode":"6016","locality":"Hellbühl","commune":{"key":"1062","name":"Malters","shortName":"Malters"},"district":{"key":"312","name":"Wahlkreis Luzern-Land"},"canton":{"key":"3","code":"LU","name":"Luzern"},"status":"Real"},{"key":"10224110","name":"Vorderchuis-Hinterchuis","postalCode":"9651","locality":"Ennetbühl","commune":{"key":"3360","name":"Nesslau","shortName":"Nesslau"},"district":{"key":"1727","name":"Wahlkreis Toggenburg"},"canton":{"key":"17","code":"SG","name":"St. Gallen"},"status":"Real"},{"key":"10150708","name":"Vorderes Rälimoos","postalCode":"9055","locality":"Bühler","commune":{"key":"3021","name":"Bühler","shortName":"Bühler"},"district":{"key":"1502","name":"Bezirk Mittelland"},"canton":{"key":"15","code":"AR","name":"Appenzell Ausserrhoden"},"status":"Real"},{"key":"10203484","name":"Vorderes Rälimoos","postalCode":"9055","locality":"Bühler","commune":{"key":"3021","name":"Bühler","shortName":"Bühler"},"district":{"key":"1502","name":"Bezirk Mittelland"},"canton":{"key":"15","code":"AR","name":"Appenzell Ausserrhoden"},"status":"Real"},{"key":"10224118","name":"Vordere Stelzenbodenstrasse","postalCode":"9651","locality":"Ennetbühl","commune":{"key":"3360","name":"Nesslau","shortName":"Nesslau"},"district":{"key":"1727","name":"Wahlkreis Toggenburg"},"canton":{"key":"17","code":"SG","name":"St. Gallen"},"status":"Real"},{"key":"10120205","name":"Vorderschlucht","postalCode":"6016","locality":"Hellbühl","commune":{"key":"1062","name":"Malters","shortName":"Malters"},"district":{"key":"312","name":"Wahlkreis Luzern-Land"},"canton":{"key":"3","code":"LU","name":"Luzern"},"status":"Real"},{"key":"10112048","name":"Wald","postalCode":"9651","locality":"Ennetbühl","commune":{"key":"3360","name":"Nesslau","shortName":"Nesslau"},"district":{"key":"1727","name":"Wahlkreis Toggenburg"},"canton":{"key":"17","code":"SG","name":"St. Gallen"},"status":"Real"},{"key":"10015156","name":"Waldegg","postalCode":"6016","locality":"Hellbühl","commune":{"key":"1062","name":"Malters","shortName":"Malters"},"district":{"key":"312","name":"Wahlkreis Luzern-Land"},"canton":{"key":"3","code":"LU","name":"Luzern"},"status":"Real"},{"key":"10104401","name":"Waldeggrain","postalCode":"6016","locality":"Hellbühl","commune":{"key":"1062","name":"Malters","shortName":"Malters"},"district":{"key":"312","name":"Wahlkreis Luzern-Land"},"canton":{"key":"3","code":"LU","name":"Luzern"},"status":"Real"},{"key":"10218124","name":"Waldeggstrasse","postalCode":"3322","locality":"Urtenen-Schönbühl","commune":{"key":"551","name":"Urtenen-Schönbühl","shortName":"Urtenen-Schönbühl"},"district":{"key":"246","name":"Verwaltungskreis Bern-Mittelland"},"canton":{"key":"2","code":"BE","name":"Bern / Berne"},"status":"Real"},{"key":"10082222","name":"Waldeggweg","postalCode":"6016","locality":"Hellbühl","commune":{"key":"1062","name":"Malters","shortName":"Malters"},"district":{"key":"312","name":"Wahlkreis Luzern-Land"},"canton":{"key":"3","code":"LU","name":"Luzern"},"status":"Real"},{"key":"10135034","name":"Waldhus","postalCode":"6016","locality":"Hellbühl","commune":{"key":"1062","name":"Malters","shortName":"Malters"},"district":{"key":"312","name":"Wahlkreis Luzern-Land"},"canton":{"key":"3","code":"LU","name":"Luzern"},"status":"Real"},{"key":"10224122","name":"Waldstrasse","postalCode":"9651","locality":"Ennetbühl","commune":{"key":"3360","name":"Nesslau","shortName":"Nesslau"},"district":{"key":"1727","name":"Wahlkreis Toggenburg"},"canton":{"key":"17","code":"SG","name":"St. Gallen"},"status":"Real"},{"key":"10033559","name":"Wälli","postalCode":"9651","locality":"Ennetbühl","commune":{"key":"3360","name":"Nesslau","shortName":"Nesslau"},"district":{"key":"1727","name":"Wahlkreis Toggenburg"},"canton":{"key":"17","code":"SG","name":"St. Gallen"},"status":"Real"},{"key":"10224130","name":"Wälli-Unterwart","postalCode":"9651","locality":"Ennetbühl","commune":{"key":"3360","name":"Nesslau","shortName":"Nesslau"},"district":{"key":"1727","name":"Wahlkreis Toggenburg"},"canton":{"key":"17","code":"SG","name":"St. Gallen"},"status":"Real"},{"key":"10049557","name":"Walperswilstrasse","postalCode":"3274","locality":"Bühl b. Aarberg","commune":{"key":"734","name":"Bühl","shortName":"Bühl"},"district":{"key":"243","name":"Verwaltungskreis Seeland"},"canton":{"key":"2","code":"BE","name":"Bern / Berne"},"status":"Real"},{"key":"10082885","name":"Wart","postalCode":"3636","locality":"Forst b. Längenbühl","commune":{"key":"948","name":"Forst-Längenbühl","shortName":"Forst-Längenbühl"},"district":{"key":"247","name":"Verwaltungskreis Thun"},"canton":{"key":"2","code":"BE","name":"Bern / Berne"},"status":"Real"},{"key":"10075911","name":"Wart","postalCode":"9651","locality":"Ennetbühl","commune":{"key":"3360","name":"Nesslau","shortName":"Nesslau"},"district":{"key":"1727","name":"Wahlkreis Toggenburg"},"canton":{"key":"17","code":"SG","name":"St. Gallen"},"status":"Real"},{"key":"10224143","name":"Wartstrasse","postalCode":"9651","locality":"Ennetbühl","commune":{"key":"3360","name":"Nesslau","shortName":"Nesslau"},"district":{"key":"1727","name":"Wahlkreis Toggenburg"},"canton":{"key":"17","code":"SG","name":"St. Gallen"},"status":"Real"},{"key":"10059868","name":"Wase","postalCode":"3636","locality":"Längenbühl","commune":{"key":"948","name":"Forst-Längenbühl","shortName":"Forst-Längenbühl"},"district":{"key":"247","name":"Verwaltungskreis Thun"},"canton":{"key":"2","code":"BE","name":"Bern / Berne"},"status":"Real"},{"key":"10093963","name":"Wasseracker","postalCode":"9651","locality":"Ennetbühl","commune":{"key":"3360","name":"Nesslau","shortName":"Nesslau"},"district":{"key":"1727","name":"Wahlkreis Toggenburg"},"canton":{"key":"17","code":"SG","name":"St. Gallen"},"status":"Real"},{"key":"10217033","name":"Wassermatt","postalCode":"3274","locality":"Bühl b. Aarberg","commune":{"key":"734","name":"Bühl","shortName":"Bühl"},"district":{"key":"243","name":"Verwaltungskreis Seeland"},"canton":{"key":"2","code":"BE","name":"Bern / Berne"},"status":"Real"},{"key":"10150709","name":"Weid","postalCode":"9055","locality":"Bühler","commune":{"key":"3021","name":"Bühler","shortName":"Bühler"},"district":{"key":"1502","name":"Bezirk Mittelland"},"canton":{"key":"15","code":"AR","name":"Appenzell Ausserrhoden"},"status":"Real"},{"key":"10251138","name":"Weid","postalCode":"9651","locality":"Ennetbühl","commune":{"key":"3360","name":"Nesslau","shortName":"Nesslau"},"district":{"key":"1727","name":"Wahlkreis Toggenburg"},"canton":{"key":"17","code":"SG","name":"St. Gallen"},"status":"Real"},{"key":"10186643","name":"Weidli","postalCode":"9651","locality":"Ennetbühl","commune":{"key":"3360","name":"Nesslau","shortName":"Nesslau"},"district":{"key":"1727","name":"Wahlkreis Toggenburg"},"canton":{"key":"17","code":"SG","name":"St. Gallen"},"status":"Real"},{"key":"10224171","name":"Weidli-Nüsslisbühl","postalCode":"9651","locality":"Ennetbühl","commune":{"key":"3360","name":"Nesslau","shortName":"Nesslau"},"district":{"key":"1727","name":"Wahlkreis Toggenburg"},"canton":{"key":"17","code":"SG","name":"St. Gallen"},"status":"Real"},{"key":"10224179","name":"Weid-Roosen","postalCode":"9651","locality":"Ennetbühl","commune":{"key":"3360","name":"Nesslau","shortName":"Nesslau"},"district":{"key":"1727","name":"Wahlkreis Toggenburg"},"canton":{"key":"17","code":"SG","name":"St. Gallen"},"status":"Real"},{"key":"10173902","name":"Weid Steinleuten","postalCode":"9055","locality":"Bühler","commune":{"key":"3021","name":"Bühler","shortName":"Bühler"},"district":{"key":"1502","name":"Bezirk Mittelland"},"canton":{"key":"15","code":"AR","name":"Appenzell Ausserrhoden"},"status":"Real"},{"key":"10189595","name":"Weiermatt","postalCode":"3636","locality":"Längenbühl","commune":{"key":"948","name":"Forst-Längenbühl","shortName":"Forst-Längenbühl"},"district":{"key":"247","name":"Verwaltungskreis Thun"},"canton":{"key":"2","code":"BE","name":"Bern / Berne"},"status":"Real"},{"key":"10010956","name":"Weiermatt","postalCode":"3636","locality":"Längenbühl","commune":{"key":"948","name":"Forst-Längenbühl","shortName":"Forst-Längenbühl"},"district":{"key":"247","name":"Verwaltungskreis Thun"},"canton":{"key":"2","code":"BE","name":"Bern / Berne"},"status":"Real"},{"key":"10031868","name":"Weissbachbad","postalCode":"9055","locality":"Bühler","commune":{"key":"3021","name":"Bühler","shortName":"Bühler"},"district":{"key":"1502","name":"Bezirk Mittelland"},"canton":{"key":"15","code":"AR","name":"Appenzell Ausserrhoden"},"status":"Real"},{"key":"10173904","name":"Weissen Steinleuten","postalCode":"9055","locality":"Bühler","commune":{"key":"3021","name":"Bühler","shortName":"Bühler"},"district":{"key":"1502","name":"Bezirk Mittelland"},"canton":{"key":"15","code":"AR","name":"Appenzell Ausserrhoden"},"status":"Real"},{"key":"10241322","name":"Westliche Bergstrasse","postalCode":"6016","locality":"Hellbühl","commune":{"key":"1062","name":"Malters","shortName":"Malters"},"district":{"key":"312","name":"Wahlkreis Luzern-Land"},"canton":{"key":"3","code":"LU","name":"Luzern"},"status":"Real"},{"key":"10082954","name":"Wiggiswilweg","postalCode":"3322","locality":"Urtenen-Schönbühl","commune":{"key":"551","name":"Urtenen-Schönbühl","shortName":"Urtenen-Schönbühl"},"district":{"key":"246","name":"Verwaltungskreis Bern-Mittelland"},"canton":{"key":"2","code":"BE","name":"Bern / Berne"},"status":"Real"},{"key":"10013408","name":"Wilgis","postalCode":"6016","locality":"Hellbühl","commune":{"key":"1062","name":"Malters","shortName":"Malters"},"district":{"key":"312","name":"Wahlkreis Luzern-Land"},"canton":{"key":"3","code":"LU","name":"Luzern"},"status":"Real"},{"key":"10228239","name":"Windegg-Häckler","postalCode":"9651","locality":"Ennetbühl","commune":{"key":"3360","name":"Nesslau","shortName":"Nesslau"},"district":{"key":"1727","name":"Wahlkreis Toggenburg"},"canton":{"key":"17","code":"SG","name":"St. Gallen"},"status":"Real"},{"key":"10123533","name":"Windegg-Schlatt","postalCode":"9651","locality":"Ennetbühl","commune":{"key":"3360","name":"Nesslau","shortName":"Nesslau"},"district":{"key":"1727","name":"Wahlkreis Toggenburg"},"canton":{"key":"17","code":"SG","name":"St. Gallen"},"status":"Real"},{"key":"10226522","name":"Windenweg","postalCode":"9651","locality":"Ennetbühl","commune":{"key":"3360","name":"Nesslau","shortName":"Nesslau"},"district":{"key":"1727","name":"Wahlkreis Toggenburg"},"canton":{"key":"17","code":"SG","name":"St. Gallen"},"status":"Real"},{"key":"10150710","name":"Wissegg","postalCode":"9055","locality":"Bühler","commune":{"key":"3021","name":"Bühler","shortName":"Bühler"},"district":{"key":"1502","name":"Bezirk Mittelland"},"canton":{"key":"15","code":"AR","name":"Appenzell Ausserrhoden"},"status":"Real"},{"key":"10147685","name":"Wolfrichti","postalCode":"3636","locality":"Längenbühl","commune":{"key":"948","name":"Forst-Längenbühl","shortName":"Forst-Längenbühl"},"district":{"key":"247","name":"Verwaltungskreis Thun"},"canton":{"key":"2","code":"BE","name":"Bern / Berne"},"status":"Real"},{"key":"10228270","name":"Wolfsgrüeblistrasse","postalCode":"9651","locality":"Ennetbühl","commune":{"key":"3360","name":"Nesslau","shortName":"Nesslau"},"district":{"key":"1727","name":"Wahlkreis Toggenburg"},"canton":{"key":"17","code":"SG","name":"St. Gallen"},"status":"Real"},{"key":"10218127","name":"Wydenholzacker","postalCode":"3322","locality":"Urtenen-Schönbühl","commune":{"key":"551","name":"Urtenen-Schönbühl","shortName":"Urtenen-Schönbühl"},"district":{"key":"246","name":"Verwaltungskreis Bern-Mittelland"},"canton":{"key":"2","code":"BE","name":"Bern / Berne"},"status":"Real"},{"key":"10126251","name":"Wyssemoos","postalCode":"3636","locality":"Längenbühl","commune":{"key":"948","name":"Forst-Längenbühl","shortName":"Forst-Längenbühl"},"district":{"key":"247","name":"Verwaltungskreis Thun"},"canton":{"key":"2","code":"BE","name":"Bern / Berne"},"status":"Real"},{"key":"10066938","name":"Zälggässli","postalCode":"3636","locality":"Forst b. Längenbühl","commune":{"key":"948","name":"Forst-Längenbühl","shortName":"Forst-Längenbühl"},"district":{"key":"247","name":"Verwaltungskreis Thun"},"canton":{"key":"2","code":"BE","name":"Bern / Berne"},"status":"Real"},{"key":"10057937","name":"Zälgli","postalCode":"3274","locality":"Bühl b. Aarberg","commune":{"key":"734","name":"Bühl","shortName":"Bühl"},"district":{"key":"243","name":"Verwaltungskreis Seeland"},"canton":{"key":"2","code":"BE","name":"Bern / Berne"},"status":"Real"},{"key":"10177373","name":"Zelgliweg","postalCode":"3322","locality":"Urtenen-Schönbühl","commune":{"key":"551","name":"Urtenen-Schönbühl","shortName":"Urtenen-Schönbühl"},"district":{"key":"246","name":"Verwaltungskreis Bern-Mittelland"},"canton":{"key":"2","code":"BE","name":"Bern / Berne"},"status":"Real"},{"key":"10163804","name":"Zentrum","postalCode":"3322","locality":"Urtenen-Schönbühl","commune":{"key":"551","name":"Urtenen-Schönbühl","shortName":"Urtenen-Schönbühl"},"district":{"key":"246","name":"Verwaltungskreis Bern-Mittelland"},"canton":{"key":"2","code":"BE","name":"Bern / Berne"},"status":"Real"},{"key":"10060395","name":"Zentrumsplatz","postalCode":"3322","locality":"Urtenen-Schönbühl","commune":{"key":"551","name":"Urtenen-Schönbühl","shortName":"Urtenen-Schönbühl"},"district":{"key":"246","name":"Verwaltungskreis Bern-Mittelland"},"canton":{"key":"2","code":"BE","name":"Bern / Berne"},"status":"Real"},{"key":"10147674","name":"Zistenegg","postalCode":"9055","locality":"Bühler","commune":{"key":"3021","name":"Bühler","shortName":"Bühler"},"district":{"key":"1502","name":"Bezirk Mittelland"},"canton":{"key":"15","code":"AR","name":"Appenzell Ausserrhoden"},"status":"Real"},]