[{"key":"10106019","name":"Alte Poststrasse","postalCode":"8536","locality":"Hüttwilen","commune":{"key":"4821","name":"Hüttwilen","shortName":"Hüttwilen"},"district":{"key":"2012","name":"Bezirk Frauenfeld"},"canton":{"key":"20","code":"TG","name":"Thurgau"},"status":"Real"},{"key":"10119123","name":"Althusweg","postalCode":"8536","locality":"Hüttwilen","commune":{"key":"4821","name":"Hüttwilen","shortName":"Hüttwilen"},"district":{"key":"2012","name":"Bezirk Frauenfeld"},"canton":{"key":"20","code":"TG","name":"Thurgau"},"status":"Real"},{"key":"10176513","name":"Am Seebach","postalCode":"8536","locality":"Hüttwilen","commune":{"key":"4821","name":"Hüttwilen","shortName":"Hüttwilen"},"district":{"key":"2012","name":"Bezirk Frauenfeld"},"canton":{"key":"20","code":"TG","name":"Thurgau"},"status":"Real"},{"key":"10202096","name":"Bächli","postalCode":"8536","locality":"Hüttwilen","commune":{"key":"4821","name":"Hüttwilen","shortName":"Hüttwilen"},"district":{"key":"2012","name":"Bezirk Frauenfeld"},"canton":{"key":"20","code":"TG","name":"Thurgau"},"status":"Real"},{"key":"10038377","name":"Betburweg","postalCode":"8536","locality":"Hüttwilen","commune":{"key":"4821","name":"Hüttwilen","shortName":"Hüttwilen"},"district":{"key":"2012","name":"Bezirk Frauenfeld"},"canton":{"key":"20","code":"TG","name":"Thurgau"},"status":"Real"},{"key":"10203820","name":"Bibelifrässer","postalCode":"8536","locality":"Hüttwilen","commune":{"key":"4821","name":"Hüttwilen","shortName":"Hüttwilen"},"district":{"key":"2012","name":"Bezirk Frauenfeld"},"canton":{"key":"20","code":"TG","name":"Thurgau"},"status":"Real"},{"key":"10252426","name":"Bohl","postalCode":"8536","locality":"Hüttwilen","commune":{"key":"4821","name":"Hüttwilen","shortName":"Hüttwilen"},"district":{"key":"2012","name":"Bezirk Frauenfeld"},"canton":{"key":"20","code":"TG","name":"Thurgau"},"status":"Real"},{"key":"10195873","name":"Bruniraa","postalCode":"8536","locality":"Hüttwilen","commune":{"key":"4821","name":"Hüttwilen","shortName":"Hüttwilen"},"district":{"key":"2012","name":"Bezirk Frauenfeld"},"canton":{"key":"20","code":"TG","name":"Thurgau"},"status":"Real"},{"key":"10070900","name":"Büelhof","postalCode":"8536","locality":"Hüttwilen","commune":{"key":"4821","name":"Hüttwilen","shortName":"Hüttwilen"},"district":{"key":"2012","name":"Bezirk Frauenfeld"},"canton":{"key":"20","code":"TG","name":"Thurgau"},"status":"Real"},{"key":"10097139","name":"Chalet Sunneschy","postalCode":"8536","locality":"Hüttwilen","commune":{"key":"4821","name":"Hüttwilen","shortName":"Hüttwilen"},"district":{"key":"2012","name":"Bezirk Frauenfeld"},"canton":{"key":"20","code":"TG","name":"Thurgau"},"status":"Real"},{"key":"10235030","name":"Dorfstrasse","postalCode":"8536","locality":"Hüttwilen","commune":{"key":"4821","name":"Hüttwilen","shortName":"Hüttwilen"},"district":{"key":"2012","name":"Bezirk Frauenfeld"},"canton":{"key":"20","code":"TG","name":"Thurgau"},"status":"Real"},{"key":"10048939","name":"Ebnetweg","postalCode":"8536","locality":"Hüttwilen","commune":{"key":"4821","name":"Hüttwilen","shortName":"Hüttwilen"},"district":{"key":"2012","name":"Bezirk Frauenfeld"},"canton":{"key":"20","code":"TG","name":"Thurgau"},"status":"Real"},{"key":"10038379","name":"Engelgasse","postalCode":"8536","locality":"Hüttwilen","commune":{"key":"4821","name":"Hüttwilen","shortName":"Hüttwilen"},"district":{"key":"2012","name":"Bezirk Frauenfeld"},"canton":{"key":"20","code":"TG","name":"Thurgau"},"status":"Real"},{"key":"10252427","name":"Försterhaus","postalCode":"8536","locality":"Hüttwilen","commune":{"key":"4821","name":"Hüttwilen","shortName":"Hüttwilen"},"district":{"key":"2012","name":"Bezirk Frauenfeld"},"canton":{"key":"20","code":"TG","name":"Thurgau"},"status":"Real"},{"key":"10252428","name":"Forstwerkhof","postalCode":"8536","locality":"Hüttwilen","commune":{"key":"4821","name":"Hüttwilen","shortName":"Hüttwilen"},"district":{"key":"2012","name":"Bezirk Frauenfeld"},"canton":{"key":"20","code":"TG","name":"Thurgau"},"status":"Real"},{"key":"10038380","name":"Geerenstrasse","postalCode":"8536","locality":"Hüttwilen","commune":{"key":"4821","name":"Hüttwilen","shortName":"Hüttwilen"},"district":{"key":"2012","name":"Bezirk Frauenfeld"},"canton":{"key":"20","code":"TG","name":"Thurgau"},"status":"Real"},{"key":"10199309","name":"Guggebüel","postalCode":"8536","locality":"Hüttwilen","commune":{"key":"4821","name":"Hüttwilen","shortName":"Hüttwilen"},"district":{"key":"2012","name":"Bezirk Frauenfeld"},"canton":{"key":"20","code":"TG","name":"Thurgau"},"status":"Real"},{"key":"10048940","name":"Guggehüslistrasse","postalCode":"8536","locality":"Hüttwilen","commune":{"key":"4821","name":"Hüttwilen","shortName":"Hüttwilen"},"district":{"key":"2012","name":"Bezirk Frauenfeld"},"canton":{"key":"20","code":"TG","name":"Thurgau"},"status":"Real"},{"key":"10060891","name":"Guggenhüsli","postalCode":"8536","locality":"Hüttwilen","commune":{"key":"4821","name":"Hüttwilen","shortName":"Hüttwilen"},"district":{"key":"2012","name":"Bezirk Frauenfeld"},"canton":{"key":"20","code":"TG","name":"Thurgau"},"status":"Real"},{"key":"10070901","name":"Hagschnurer","postalCode":"8536","locality":"Hüttwilen","commune":{"key":"4821","name":"Hüttwilen","shortName":"Hüttwilen"},"district":{"key":"2012","name":"Bezirk Frauenfeld"},"canton":{"key":"20","code":"TG","name":"Thurgau"},"status":"Real"},{"key":"10241140","name":"Halde","postalCode":"8536","locality":"Hüttwilen","commune":{"key":"4821","name":"Hüttwilen","shortName":"Hüttwilen"},"district":{"key":"2012","name":"Bezirk Frauenfeld"},"canton":{"key":"20","code":"TG","name":"Thurgau"},"status":"Real"},{"key":"10096874","name":"Haldenhof","postalCode":"8536","locality":"Hüttwilen","commune":{"key":"4821","name":"Hüttwilen","shortName":"Hüttwilen"},"district":{"key":"2012","name":"Bezirk Frauenfeld"},"canton":{"key":"20","code":"TG","name":"Thurgau"},"status":"Real"},{"key":"10038381","name":"Hauptstrasse","postalCode":"8536","locality":"Hüttwilen","commune":{"key":"4821","name":"Hüttwilen","shortName":"Hüttwilen"},"district":{"key":"2012","name":"Bezirk Frauenfeld"},"canton":{"key":"20","code":"TG","name":"Thurgau"},"status":"Real"},{"key":"10199614","name":"Heerewingerte","postalCode":"8536","locality":"Hüttwilen","commune":{"key":"4821","name":"Hüttwilen","shortName":"Hüttwilen"},"district":{"key":"2012","name":"Bezirk Frauenfeld"},"canton":{"key":"20","code":"TG","name":"Thurgau"},"status":"Real"},{"key":"10070902","name":"Hinter der Kirche","postalCode":"8536","locality":"Hüttwilen","commune":{"key":"4821","name":"Hüttwilen","shortName":"Hüttwilen"},"district":{"key":"2012","name":"Bezirk Frauenfeld"},"canton":{"key":"20","code":"TG","name":"Thurgau"},"status":"Real"},{"key":"10196172","name":"Hochwacht","postalCode":"8536","locality":"Hüttwilen","commune":{"key":"4821","name":"Hüttwilen","shortName":"Hüttwilen"},"district":{"key":"2012","name":"Bezirk Frauenfeld"},"canton":{"key":"20","code":"TG","name":"Thurgau"},"status":"Real"},{"key":"10202099","name":"Hofacker","postalCode":"8536","locality":"Hüttwilen","commune":{"key":"4821","name":"Hüttwilen","shortName":"Hüttwilen"},"district":{"key":"2012","name":"Bezirk Frauenfeld"},"canton":{"key":"20","code":"TG","name":"Thurgau"},"status":"Real"},{"key":"10199301","name":"Hoppelibüel","postalCode":"8536","locality":"Hüttwilen","commune":{"key":"4821","name":"Hüttwilen","shortName":"Hüttwilen"},"district":{"key":"2012","name":"Bezirk Frauenfeld"},"canton":{"key":"20","code":"TG","name":"Thurgau"},"status":"Real"},{"key":"10199303","name":"Hüttwiilersee","postalCode":"8536","locality":"Hüttwilen","commune":{"key":"4821","name":"Hüttwilen","shortName":"Hüttwilen"},"district":{"key":"2012","name":"Bezirk Frauenfeld"},"canton":{"key":"20","code":"TG","name":"Thurgau"},"status":"Real"},{"key":"10060892","name":"Im Ebnet","postalCode":"8536","locality":"Hüttwilen","commune":{"key":"4821","name":"Hüttwilen","shortName":"Hüttwilen"},"district":{"key":"2012","name":"Bezirk Frauenfeld"},"canton":{"key":"20","code":"TG","name":"Thurgau"},"status":"Real"},{"key":"10172165","name":"Im Gisel","postalCode":"8536","locality":"Hüttwilen","commune":{"key":"4821","name":"Hüttwilen","shortName":"Hüttwilen"},"district":{"key":"2012","name":"Bezirk Frauenfeld"},"canton":{"key":"20","code":"TG","name":"Thurgau"},"status":"Real"},{"key":"10176514","name":"Im Hörnli","postalCode":"8536","locality":"Hüttwilen","commune":{"key":"4821","name":"Hüttwilen","shortName":"Hüttwilen"},"district":{"key":"2012","name":"Bezirk Frauenfeld"},"canton":{"key":"20","code":"TG","name":"Thurgau"},"status":"Real"},{"key":"10038382","name":"Im Letten","postalCode":"8536","locality":"Hüttwilen","commune":{"key":"4821","name":"Hüttwilen","shortName":"Hüttwilen"},"district":{"key":"2012","name":"Bezirk Frauenfeld"},"canton":{"key":"20","code":"TG","name":"Thurgau"},"status":"Real"},{"key":"10170921","name":"Im Obstgarten","postalCode":"8536","locality":"Hüttwilen","commune":{"key":"4821","name":"Hüttwilen","shortName":"Hüttwilen"},"district":{"key":"2012","name":"Bezirk Frauenfeld"},"canton":{"key":"20","code":"TG","name":"Thurgau"},"status":"Real"},{"key":"10096875","name":"Im Winkel","postalCode":"8536","locality":"Hüttwilen","commune":{"key":"4821","name":"Hüttwilen","shortName":"Hüttwilen"},"district":{"key":"2012","name":"Bezirk Frauenfeld"},"canton":{"key":"20","code":"TG","name":"Thurgau"},"status":"Real"},{"key":"10070903","name":"Im Wuli","postalCode":"8536","locality":"Hüttwilen","commune":{"key":"4821","name":"Hüttwilen","shortName":"Hüttwilen"},"district":{"key":"2012","name":"Bezirk Frauenfeld"},"canton":{"key":"20","code":"TG","name":"Thurgau"},"status":"Real"},{"key":"10252429","name":"Im Zälgli","postalCode":"8536","locality":"Hüttwilen","commune":{"key":"4821","name":"Hüttwilen","shortName":"Hüttwilen"},"district":{"key":"2012","name":"Bezirk Frauenfeld"},"canton":{"key":"20","code":"TG","name":"Thurgau"},"status":"Real"},{"key":"10038383","name":"Isebüelstrasse","postalCode":"8536","locality":"Hüttwilen","commune":{"key":"4821","name":"Hüttwilen","shortName":"Hüttwilen"},"district":{"key":"2012","name":"Bezirk Frauenfeld"},"canton":{"key":"20","code":"TG","name":"Thurgau"},"status":"Real"},{"key":"10110474","name":"Kalchrain","postalCode":"8536","locality":"Hüttwilen","commune":{"key":"4821","name":"Hüttwilen","shortName":"Hüttwilen"},"district":{"key":"2012","name":"Bezirk Frauenfeld"},"canton":{"key":"20","code":"TG","name":"Thurgau"},"status":"Real"},{"key":"10070904","name":"Kalchrainerstrasse","postalCode":"8536","locality":"Hüttwilen","commune":{"key":"4821","name":"Hüttwilen","shortName":"Hüttwilen"},"district":{"key":"2012","name":"Bezirk Frauenfeld"},"canton":{"key":"20","code":"TG","name":"Thurgau"},"status":"Real"},{"key":"10096876","name":"Kanzleiweg","postalCode":"8536","locality":"Hüttwilen","commune":{"key":"4821","name":"Hüttwilen","shortName":"Hüttwilen"},"district":{"key":"2012","name":"Bezirk Frauenfeld"},"canton":{"key":"20","code":"TG","name":"Thurgau"},"status":"Real"},{"key":"10038384","name":"Kawazen","postalCode":"8536","locality":"Hüttwilen","commune":{"key":"4821","name":"Hüttwilen","shortName":"Hüttwilen"},"district":{"key":"2012","name":"Bezirk Frauenfeld"},"canton":{"key":"20","code":"TG","name":"Thurgau"},"status":"Real"},{"key":"10252433","name":"Kirchweg","postalCode":"8536","locality":"Hüttwilen","commune":{"key":"4821","name":"Hüttwilen","shortName":"Hüttwilen"},"district":{"key":"2012","name":"Bezirk Frauenfeld"},"canton":{"key":"20","code":"TG","name":"Thurgau"},"status":"Real"},{"key":"10204129","name":"Langäcker","postalCode":"8536","locality":"Hüttwilen","commune":{"key":"4821","name":"Hüttwilen","shortName":"Hüttwilen"},"district":{"key":"2012","name":"Bezirk Frauenfeld"},"canton":{"key":"20","code":"TG","name":"Thurgau"},"status":"Real"},{"key":"10203855","name":"Lantwise","postalCode":"8536","locality":"Hüttwilen","commune":{"key":"4821","name":"Hüttwilen","shortName":"Hüttwilen"},"district":{"key":"2012","name":"Bezirk Frauenfeld"},"canton":{"key":"20","code":"TG","name":"Thurgau"},"status":"Real"},{"key":"10201917","name":"Lussi","postalCode":"8536","locality":"Hüttwilen","commune":{"key":"4821","name":"Hüttwilen","shortName":"Hüttwilen"},"district":{"key":"2012","name":"Bezirk Frauenfeld"},"canton":{"key":"20","code":"TG","name":"Thurgau"},"status":"Real"},{"key":"10038385","name":"Lussistrasse","postalCode":"8536","locality":"Hüttwilen","commune":{"key":"4821","name":"Hüttwilen","shortName":"Hüttwilen"},"district":{"key":"2012","name":"Bezirk Frauenfeld"},"canton":{"key":"20","code":"TG","name":"Thurgau"},"status":"Real"},{"key":"10038386","name":"Mooracker","postalCode":"8536","locality":"Hüttwilen","commune":{"key":"4821","name":"Hüttwilen","shortName":"Hüttwilen"},"district":{"key":"2012","name":"Bezirk Frauenfeld"},"canton":{"key":"20","code":"TG","name":"Thurgau"},"status":"Real"},{"key":"10060893","name":"Morgenstern","postalCode":"8536","locality":"Hüttwilen","commune":{"key":"4821","name":"Hüttwilen","shortName":"Hüttwilen"},"district":{"key":"2012","name":"Bezirk Frauenfeld"},"canton":{"key":"20","code":"TG","name":"Thurgau"},"status":"Real"},{"key":"10199616","name":"Nägelsee","postalCode":"8536","locality":"Hüttwilen","commune":{"key":"4821","name":"Hüttwilen","shortName":"Hüttwilen"},"district":{"key":"2012","name":"Bezirk Frauenfeld"},"canton":{"key":"20","code":"TG","name":"Thurgau"},"status":"Real"},{"key":"10128344","name":"Neuhof","postalCode":"8536","locality":"Hüttwilen","commune":{"key":"4821","name":"Hüttwilen","shortName":"Hüttwilen"},"district":{"key":"2012","name":"Bezirk Frauenfeld"},"canton":{"key":"20","code":"TG","name":"Thurgau"},"status":"Real"},{"key":"10096877","name":"Neumühle","postalCode":"8536","locality":"Hüttwilen","commune":{"key":"4821","name":"Hüttwilen","shortName":"Hüttwilen"},"district":{"key":"2012","name":"Bezirk Frauenfeld"},"canton":{"key":"20","code":"TG","name":"Thurgau"},"status":"Real"},{"key":"10038387","name":"Oberdorfstrasse","postalCode":"8536","locality":"Hüttwilen","commune":{"key":"4821","name":"Hüttwilen","shortName":"Hüttwilen"},"district":{"key":"2012","name":"Bezirk Frauenfeld"},"canton":{"key":"20","code":"TG","name":"Thurgau"},"status":"Real"},{"key":"10070906","name":"Oberes Steimürli","postalCode":"8536","locality":"Hüttwilen","commune":{"key":"4821","name":"Hüttwilen","shortName":"Hüttwilen"},"district":{"key":"2012","name":"Bezirk Frauenfeld"},"canton":{"key":"20","code":"TG","name":"Thurgau"},"status":"Real"},{"key":"10176515","name":"Oberhof","postalCode":"8536","locality":"Hüttwilen","commune":{"key":"4821","name":"Hüttwilen","shortName":"Hüttwilen"},"district":{"key":"2012","name":"Bezirk Frauenfeld"},"canton":{"key":"20","code":"TG","name":"Thurgau"},"status":"Real"},{"key":"10199302","name":"Oberi Halde","postalCode":"8536","locality":"Hüttwilen","commune":{"key":"4821","name":"Hüttwilen","shortName":"Hüttwilen"},"district":{"key":"2012","name":"Bezirk Frauenfeld"},"canton":{"key":"20","code":"TG","name":"Thurgau"},"status":"Real"},{"key":"10201039","name":"Peie","postalCode":"8536","locality":"Hüttwilen","commune":{"key":"4821","name":"Hüttwilen","shortName":"Hüttwilen"},"district":{"key":"2012","name":"Bezirk Frauenfeld"},"canton":{"key":"20","code":"TG","name":"Thurgau"},"status":"Real"},{"key":"10202097","name":"Praate","postalCode":"8536","locality":"Hüttwilen","commune":{"key":"4821","name":"Hüttwilen","shortName":"Hüttwilen"},"district":{"key":"2012","name":"Bezirk Frauenfeld"},"canton":{"key":"20","code":"TG","name":"Thurgau"},"status":"Real"},{"key":"10038069","name":"Rauspfeife","postalCode":"8536","locality":"Hüttwilen","commune":{"key":"4821","name":"Hüttwilen","shortName":"Hüttwilen"},"district":{"key":"2012","name":"Bezirk Frauenfeld"},"canton":{"key":"20","code":"TG","name":"Thurgau"},"status":"Real"},{"key":"10161179","name":"Rebwies","postalCode":"8536","locality":"Hüttwilen","commune":{"key":"4821","name":"Hüttwilen","shortName":"Hüttwilen"},"district":{"key":"2012","name":"Bezirk Frauenfeld"},"canton":{"key":"20","code":"TG","name":"Thurgau"},"status":"Real"},{"key":"10199305","name":"Riethalde","postalCode":"8536","locality":"Hüttwilen","commune":{"key":"4821","name":"Hüttwilen","shortName":"Hüttwilen"},"district":{"key":"2012","name":"Bezirk Frauenfeld"},"canton":{"key":"20","code":"TG","name":"Thurgau"},"status":"Real"},{"key":"10202166","name":"Ruechtwis","postalCode":"8536","locality":"Hüttwilen","commune":{"key":"4821","name":"Hüttwilen","shortName":"Hüttwilen"},"district":{"key":"2012","name":"Bezirk Frauenfeld"},"canton":{"key":"20","code":"TG","name":"Thurgau"},"status":"Real"},{"key":"10196178","name":"Rumishalde","postalCode":"8536","locality":"Hüttwilen","commune":{"key":"4821","name":"Hüttwilen","shortName":"Hüttwilen"},"district":{"key":"2012","name":"Bezirk Frauenfeld"},"canton":{"key":"20","code":"TG","name":"Thurgau"},"status":"Real"},{"key":"10199833","name":"Sack","postalCode":"8536","locality":"Hüttwilen","commune":{"key":"4821","name":"Hüttwilen","shortName":"Hüttwilen"},"district":{"key":"2012","name":"Bezirk Frauenfeld"},"canton":{"key":"20","code":"TG","name":"Thurgau"},"status":"Real"},{"key":"10202094","name":"Sandbüel","postalCode":"8536","locality":"Hüttwilen","commune":{"key":"4821","name":"Hüttwilen","shortName":"Hüttwilen"},"district":{"key":"2012","name":"Bezirk Frauenfeld"},"canton":{"key":"20","code":"TG","name":"Thurgau"},"status":"Real"},{"key":"10096878","name":"Schulstrasse","postalCode":"8536","locality":"Hüttwilen","commune":{"key":"4821","name":"Hüttwilen","shortName":"Hüttwilen"},"district":{"key":"2012","name":"Bezirk Frauenfeld"},"canton":{"key":"20","code":"TG","name":"Thurgau"},"status":"Real"},{"key":"10190400","name":"Seebachäcker","postalCode":"8536","locality":"Hüttwilen","commune":{"key":"4821","name":"Hüttwilen","shortName":"Hüttwilen"},"district":{"key":"2012","name":"Bezirk Frauenfeld"},"canton":{"key":"20","code":"TG","name":"Thurgau"},"status":"Real"},{"key":"10038388","name":"Seebachstrasse","postalCode":"8536","locality":"Hüttwilen","commune":{"key":"4821","name":"Hüttwilen","shortName":"Hüttwilen"},"district":{"key":"2012","name":"Bezirk Frauenfeld"},"canton":{"key":"20","code":"TG","name":"Thurgau"},"status":"Real"},{"key":"10038389","name":"Seeben","postalCode":"8536","locality":"Hüttwilen","commune":{"key":"4821","name":"Hüttwilen","shortName":"Hüttwilen"},"district":{"key":"2012","name":"Bezirk Frauenfeld"},"canton":{"key":"20","code":"TG","name":"Thurgau"},"status":"Real"},{"key":"10038390","name":"Seehalde","postalCode":"8536","locality":"Hüttwilen","commune":{"key":"4821","name":"Hüttwilen","shortName":"Hüttwilen"},"district":{"key":"2012","name":"Bezirk Frauenfeld"},"canton":{"key":"20","code":"TG","name":"Thurgau"},"status":"Real"},{"key":"10038391","name":"Seehof","postalCode":"8536","locality":"Hüttwilen","commune":{"key":"4821","name":"Hüttwilen","shortName":"Hüttwilen"},"district":{"key":"2012","name":"Bezirk Frauenfeld"},"canton":{"key":"20","code":"TG","name":"Thurgau"},"status":"Real"},{"key":"10107844","name":"Sonnenhof","postalCode":"8536","locality":"Hüttwilen","commune":{"key":"4821","name":"Hüttwilen","shortName":"Hüttwilen"},"district":{"key":"2012","name":"Bezirk Frauenfeld"},"canton":{"key":"20","code":"TG","name":"Thurgau"},"status":"Real"},{"key":"10060073","name":"Sonnenplatz","postalCode":"8536","locality":"Hüttwilen","commune":{"key":"4821","name":"Hüttwilen","shortName":"Hüttwilen"},"district":{"key":"2012","name":"Bezirk Frauenfeld"},"canton":{"key":"20","code":"TG","name":"Thurgau"},"status":"Real"},{"key":"10202167","name":"Staanegger Weier","postalCode":"8536","locality":"Hüttwilen","commune":{"key":"4821","name":"Hüttwilen","shortName":"Hüttwilen"},"district":{"key":"2012","name":"Bezirk Frauenfeld"},"canton":{"key":"20","code":"TG","name":"Thurgau"},"status":"Real"},{"key":"10195872","name":"Stadtschriiber","postalCode":"8536","locality":"Hüttwilen","commune":{"key":"4821","name":"Hüttwilen","shortName":"Hüttwilen"},"district":{"key":"2012","name":"Bezirk Frauenfeld"},"canton":{"key":"20","code":"TG","name":"Thurgau"},"status":"Real"},{"key":"10097138","name":"Steinegg","postalCode":"8536","locality":"Hüttwilen","commune":{"key":"4821","name":"Hüttwilen","shortName":"Hüttwilen"},"district":{"key":"2012","name":"Bezirk Frauenfeld"},"canton":{"key":"20","code":"TG","name":"Thurgau"},"status":"Real"},{"key":"10235102","name":"Steineggerstrasse","postalCode":"8536","locality":"Hüttwilen","commune":{"key":"4821","name":"Hüttwilen","shortName":"Hüttwilen"},"district":{"key":"2012","name":"Bezirk Frauenfeld"},"canton":{"key":"20","code":"TG","name":"Thurgau"},"status":"Real"},{"key":"10070908","name":"Steinerweg","postalCode":"8536","locality":"Hüttwilen","commune":{"key":"4821","name":"Hüttwilen","shortName":"Hüttwilen"},"district":{"key":"2012","name":"Bezirk Frauenfeld"},"canton":{"key":"20","code":"TG","name":"Thurgau"},"status":"Real"},{"key":"10215381","name":"Stockacker","postalCode":"8536","locality":"Hüttwilen","commune":{"key":"4821","name":"Hüttwilen","shortName":"Hüttwilen"},"district":{"key":"2012","name":"Bezirk Frauenfeld"},"canton":{"key":"20","code":"TG","name":"Thurgau"},"status":"Real"},{"key":"10176516","name":"Stutheien","postalCode":"8536","locality":"Hüttwilen","commune":{"key":"4821","name":"Hüttwilen","shortName":"Hüttwilen"},"district":{"key":"2012","name":"Bezirk Frauenfeld"},"canton":{"key":"20","code":"TG","name":"Thurgau"},"status":"Real"},{"key":"10107843","name":"Sunnematt","postalCode":"8536","locality":"Hüttwilen","commune":{"key":"4821","name":"Hüttwilen","shortName":"Hüttwilen"},"district":{"key":"2012","name":"Bezirk Frauenfeld"},"canton":{"key":"20","code":"TG","name":"Thurgau"},"status":"Real"},{"key":"10195874","name":"Underi Halde","postalCode":"8536","locality":"Hüttwilen","commune":{"key":"4821","name":"Hüttwilen","shortName":"Hüttwilen"},"district":{"key":"2012","name":"Bezirk Frauenfeld"},"canton":{"key":"20","code":"TG","name":"Thurgau"},"status":"Real"},{"key":"10110475","name":"Unteres Steimürli","postalCode":"8536","locality":"Hüttwilen","commune":{"key":"4821","name":"Hüttwilen","shortName":"Hüttwilen"},"district":{"key":"2012","name":"Bezirk Frauenfeld"},"canton":{"key":"20","code":"TG","name":"Thurgau"},"status":"Real"},{"key":"10199307","name":"Vorderi Au","postalCode":"8536","locality":"Hüttwilen","commune":{"key":"4821","name":"Hüttwilen","shortName":"Hüttwilen"},"district":{"key":"2012","name":"Bezirk Frauenfeld"},"canton":{"key":"20","code":"TG","name":"Thurgau"},"status":"Real"},{"key":"10097140","name":"Zehntenstrasse","postalCode":"8536","locality":"Hüttwilen","commune":{"key":"4821","name":"Hüttwilen","shortName":"Hüttwilen"},"district":{"key":"2012","name":"Bezirk Frauenfeld"},"canton":{"key":"20","code":"TG","name":"Thurgau"},"status":"Real"},{"key":"10038393","name":"Zimmerweg","postalCode":"8536","locality":"Hüttwilen","commune":{"key":"4821","name":"Hüttwilen","shortName":"Hüttwilen"},"district":{"key":"2012","name":"Bezirk Frauenfeld"},"canton":{"key":"20","code":"TG","name":"Thurgau"},"status":"Real"},{"key":"10059346","name":"Zum Steimürli","postalCode":"8536","locality":"Hüttwilen","commune":{"key":"4821","name":"Hüttwilen","shortName":"Hüttwilen"},"district":{"key":"2012","name":"Bezirk Frauenfeld"},"canton":{"key":"20","code":"TG","name":"Thurgau"},"status":"Real"},]