[{"name":"Am Berg","postalCode":"92554","locality":"Thanstein","municipality":{"key":"09376172","name":"Thanstein","type":"Kreisangehörige_Gemeinde"},"district":{"key":"09376","name":"Schwandorf","type":"Landkreis"},"federalState":{"key":"09","name":"Bayern"}},{"name":"Am Bergfeld","postalCode":"92554","locality":"Thanstein","municipality":{"key":"09376172","name":"Thanstein","type":"Kreisangehörige_Gemeinde"},"district":{"key":"09376","name":"Schwandorf","type":"Landkreis"},"federalState":{"key":"09","name":"Bayern"}},{"name":"Anderlhof","postalCode":"92554","locality":"Thanstein","municipality":{"key":"09376172","name":"Thanstein","type":"Kreisangehörige_Gemeinde"},"district":{"key":"09376","name":"Schwandorf","type":"Landkreis"},"federalState":{"key":"09","name":"Bayern"}},{"name":"Bayerhof","postalCode":"92554","locality":"Thanstein","municipality":{"key":"09376172","name":"Thanstein","type":"Kreisangehörige_Gemeinde"},"district":{"key":"09376","name":"Schwandorf","type":"Landkreis"},"federalState":{"key":"09","name":"Bayern"}},{"name":"Berg","postalCode":"92554","locality":"Thanstein","municipality":{"key":"09376172","name":"Thanstein","type":"Kreisangehörige_Gemeinde"},"district":{"key":"09376","name":"Schwandorf","type":"Landkreis"},"federalState":{"key":"09","name":"Bayern"}},{"name":"Bergstr.","postalCode":"92554","locality":"Thanstein","municipality":{"key":"09376172","name":"Thanstein","type":"Kreisangehörige_Gemeinde"},"district":{"key":"09376","name":"Schwandorf","type":"Landkreis"},"federalState":{"key":"09","name":"Bayern"}},{"name":"Burgstr.","postalCode":"92554","locality":"Thanstein","municipality":{"key":"09376172","name":"Thanstein","type":"Kreisangehörige_Gemeinde"},"district":{"key":"09376","name":"Schwandorf","type":"Landkreis"},"federalState":{"key":"09","name":"Bayern"}},{"name":"Celsiusstr.","postalCode":"92421","locality":"Schwandorf","municipality":{"key":"09376161","name":"Schwandorf, GKSt","type":"Große_Kreisstadt"},"district":{"key":"09376","name":"Schwandorf","type":"Landkreis"},"federalState":{"key":"09","name":"Bayern"}},{"name":"Charlottenhof","postalCode":"92421","locality":"Schwandorf","municipality":{"key":"09376161","name":"Schwandorf, GKSt","type":"Große_Kreisstadt"},"district":{"key":"09376","name":"Schwandorf","type":"Landkreis"},"federalState":{"key":"09","name":"Bayern"}},{"name":"Dautersdorf","postalCode":"92554","locality":"Thanstein","municipality":{"key":"09376172","name":"Thanstein","type":"Kreisangehörige_Gemeinde"},"district":{"key":"09376","name":"Schwandorf","type":"Landkreis"},"federalState":{"key":"09","name":"Bayern"}},{"name":"Eibensteinstr.","postalCode":"92554","locality":"Thanstein","municipality":{"key":"09376172","name":"Thanstein","type":"Kreisangehörige_Gemeinde"},"district":{"key":"09376","name":"Schwandorf","type":"Landkreis"},"federalState":{"key":"09","name":"Bayern"}},{"name":"Fabrikstr.","postalCode":"92421","locality":"Schwandorf","municipality":{"key":"09376161","name":"Schwandorf, GKSt","type":"Große_Kreisstadt"},"district":{"key":"09376","name":"Schwandorf","type":"Landkreis"},"federalState":{"key":"09","name":"Bayern"}},{"name":"Fahrenheitstr.","postalCode":"92421","locality":"Schwandorf","municipality":{"key":"09376161","name":"Schwandorf, GKSt","type":"Große_Kreisstadt"},"district":{"key":"09376","name":"Schwandorf","type":"Landkreis"},"federalState":{"key":"09","name":"Bayern"}},{"name":"Fahrradparcours Verkehrsübungsfläche","postalCode":"92421","locality":"Schwandorf","municipality":{"key":"09376161","name":"Schwandorf, GKSt","type":"Große_Kreisstadt"},"district":{"key":"09376","name":"Schwandorf","type":"Landkreis"},"federalState":{"key":"09","name":"Bayern"}},{"name":"Falkenauer Str.","postalCode":"92421","locality":"Schwandorf","municipality":{"key":"09376161","name":"Schwandorf, GKSt","type":"Große_Kreisstadt"},"district":{"key":"09376","name":"Schwandorf","type":"Landkreis"},"federalState":{"key":"09","name":"Bayern"}},{"name":"Faltermeierweg","postalCode":"92421","locality":"Schwandorf","municipality":{"key":"09376161","name":"Schwandorf, GKSt","type":"Große_Kreisstadt"},"district":{"key":"09376","name":"Schwandorf","type":"Landkreis"},"federalState":{"key":"09","name":"Bayern"}},{"name":"Farnstr.","postalCode":"92421","locality":"Schwandorf","municipality":{"key":"09376161","name":"Schwandorf, GKSt","type":"Große_Kreisstadt"},"district":{"key":"09376","name":"Schwandorf","type":"Landkreis"},"federalState":{"key":"09","name":"Bayern"}},{"name":"Fasanenstr.","postalCode":"92421","locality":"Schwandorf","municipality":{"key":"09376161","name":"Schwandorf, GKSt","type":"Große_Kreisstadt"},"district":{"key":"09376","name":"Schwandorf","type":"Landkreis"},"federalState":{"key":"09","name":"Bayern"}},{"name":"Feldstr.","postalCode":"92421","locality":"Schwandorf","municipality":{"key":"09376161","name":"Schwandorf, GKSt","type":"Große_Kreisstadt"},"district":{"key":"09376","name":"Schwandorf","type":"Landkreis"},"federalState":{"key":"09","name":"Bayern"}},{"name":"Feuerhausgasse","postalCode":"92421","locality":"Schwandorf","municipality":{"key":"09376161","name":"Schwandorf, GKSt","type":"Große_Kreisstadt"},"district":{"key":"09376","name":"Schwandorf","type":"Landkreis"},"federalState":{"key":"09","name":"Bayern"}},{"name":"Feuerlilienstr.","postalCode":"92421","locality":"Schwandorf","municipality":{"key":"09376161","name":"Schwandorf, GKSt","type":"Große_Kreisstadt"},"district":{"key":"09376","name":"Schwandorf","type":"Landkreis"},"federalState":{"key":"09","name":"Bayern"}},{"name":"Fichtelanlage","postalCode":"92421","locality":"Schwandorf","municipality":{"key":"09376161","name":"Schwandorf, GKSt","type":"Große_Kreisstadt"},"district":{"key":"09376","name":"Schwandorf","type":"Landkreis"},"federalState":{"key":"09","name":"Bayern"}},{"name":"Fichtenstr.","postalCode":"92421","locality":"Schwandorf","municipality":{"key":"09376161","name":"Schwandorf, GKSt","type":"Große_Kreisstadt"},"district":{"key":"09376","name":"Schwandorf","type":"Landkreis"},"federalState":{"key":"09","name":"Bayern"}},{"name":"Fichtlstr.","postalCode":"92421","locality":"Schwandorf","municipality":{"key":"09376161","name":"Schwandorf, GKSt","type":"Große_Kreisstadt"},"district":{"key":"09376","name":"Schwandorf","type":"Landkreis"},"federalState":{"key":"09","name":"Bayern"}},{"name":"Fingerhutstr.","postalCode":"92421","locality":"Schwandorf","municipality":{"key":"09376161","name":"Schwandorf, GKSt","type":"Große_Kreisstadt"},"district":{"key":"09376","name":"Schwandorf","type":"Landkreis"},"federalState":{"key":"09","name":"Bayern"}},{"name":"Finkenweg","postalCode":"92421","locality":"Schwandorf","municipality":{"key":"09376161","name":"Schwandorf, GKSt","type":"Große_Kreisstadt"},"district":{"key":"09376","name":"Schwandorf","type":"Landkreis"},"federalState":{"key":"09","name":"Bayern"}},{"name":"Fischgasse","postalCode":"92421","locality":"Schwandorf","municipality":{"key":"09376161","name":"Schwandorf, GKSt","type":"Große_Kreisstadt"},"district":{"key":"09376","name":"Schwandorf","type":"Landkreis"},"federalState":{"key":"09","name":"Bayern"}},{"name":"Fischseestr.","postalCode":"92421","locality":"Schwandorf","municipality":{"key":"09376161","name":"Schwandorf, GKSt","type":"Große_Kreisstadt"},"district":{"key":"09376","name":"Schwandorf","type":"Landkreis"},"federalState":{"key":"09","name":"Bayern"}},{"name":"Fliederstr.","postalCode":"92421","locality":"Schwandorf","municipality":{"key":"09376161","name":"Schwandorf, GKSt","type":"Große_Kreisstadt"},"district":{"key":"09376","name":"Schwandorf","type":"Landkreis"},"federalState":{"key":"09","name":"Bayern"}},{"name":"Florastr.","postalCode":"92421","locality":"Schwandorf","municipality":{"key":"09376161","name":"Schwandorf, GKSt","type":"Große_Kreisstadt"},"district":{"key":"09376","name":"Schwandorf","type":"Landkreis"},"federalState":{"key":"09","name":"Bayern"}},{"name":"Flurstr.","postalCode":"92421","locality":"Schwandorf","municipality":{"key":"09376161","name":"Schwandorf, GKSt","type":"Große_Kreisstadt"},"district":{"key":"09376","name":"Schwandorf","type":"Landkreis"},"federalState":{"key":"09","name":"Bayern"}},{"name":"Föhrenstr.","postalCode":"92421","locality":"Schwandorf","municipality":{"key":"09376161","name":"Schwandorf, GKSt","type":"Große_Kreisstadt"},"district":{"key":"09376","name":"Schwandorf","type":"Landkreis"},"federalState":{"key":"09","name":"Bayern"}},{"name":"Forellenstr.","postalCode":"92421","locality":"Schwandorf","municipality":{"key":"09376161","name":"Schwandorf, GKSt","type":"Große_Kreisstadt"},"district":{"key":"09376","name":"Schwandorf","type":"Landkreis"},"federalState":{"key":"09","name":"Bayern"}},{"name":"Franckstr.","postalCode":"92421","locality":"Schwandorf","municipality":{"key":"09376161","name":"Schwandorf, GKSt","type":"Große_Kreisstadt"},"district":{"key":"09376","name":"Schwandorf","type":"Landkreis"},"federalState":{"key":"09","name":"Bayern"}},{"name":"Frankenstr.","postalCode":"92421","locality":"Schwandorf","municipality":{"key":"09376161","name":"Schwandorf, GKSt","type":"Große_Kreisstadt"},"district":{"key":"09376","name":"Schwandorf","type":"Landkreis"},"federalState":{"key":"09","name":"Bayern"}},{"name":"Frauenschuhstr.","postalCode":"92421","locality":"Schwandorf","municipality":{"key":"09376161","name":"Schwandorf, GKSt","type":"Große_Kreisstadt"},"district":{"key":"09376","name":"Schwandorf","type":"Landkreis"},"federalState":{"key":"09","name":"Bayern"}},{"name":"Fraunhoferstr.","postalCode":"92421","locality":"Schwandorf","municipality":{"key":"09376161","name":"Schwandorf, GKSt","type":"Große_Kreisstadt"},"district":{"key":"09376","name":"Schwandorf","type":"Landkreis"},"federalState":{"key":"09","name":"Bayern"}},{"name":"Freihoels","postalCode":"92421","locality":"Schwandorf","municipality":{"key":"09376161","name":"Schwandorf, GKSt","type":"Große_Kreisstadt"},"district":{"key":"09376","name":"Schwandorf","type":"Landkreis"},"federalState":{"key":"09","name":"Bayern"}},{"name":"Freihöls","postalCode":"92421","locality":"Schwandorf","municipality":{"key":"09376161","name":"Schwandorf, GKSt","type":"Große_Kreisstadt"},"district":{"key":"09376","name":"Schwandorf","type":"Landkreis"},"federalState":{"key":"09","name":"Bayern"}},{"name":"Friedhofstr.","postalCode":"92421","locality":"Schwandorf","municipality":{"key":"09376161","name":"Schwandorf, GKSt","type":"Große_Kreisstadt"},"district":{"key":"09376","name":"Schwandorf","type":"Landkreis"},"federalState":{"key":"09","name":"Bayern"}},{"name":"Friedrich-Ebert-Str.","postalCode":"92421","locality":"Schwandorf","municipality":{"key":"09376161","name":"Schwandorf, GKSt","type":"Große_Kreisstadt"},"district":{"key":"09376","name":"Schwandorf","type":"Landkreis"},"federalState":{"key":"09","name":"Bayern"}},{"name":"Friedrich-Hebbel-Str.","postalCode":"92421","locality":"Schwandorf","municipality":{"key":"09376161","name":"Schwandorf, GKSt","type":"Große_Kreisstadt"},"district":{"key":"09376","name":"Schwandorf","type":"Landkreis"},"federalState":{"key":"09","name":"Bayern"}},{"name":"Friedrich-Wilhelm-Weber-Str.","postalCode":"92421","locality":"Schwandorf","municipality":{"key":"09376161","name":"Schwandorf, GKSt","type":"Große_Kreisstadt"},"district":{"key":"09376","name":"Schwandorf","type":"Landkreis"},"federalState":{"key":"09","name":"Bayern"}},{"name":"Fröbelstr.","postalCode":"92421","locality":"Schwandorf","municipality":{"key":"09376161","name":"Schwandorf, GKSt","type":"Große_Kreisstadt"},"district":{"key":"09376","name":"Schwandorf","type":"Landkreis"},"federalState":{"key":"09","name":"Bayern"}},{"name":"Fröhlichstr.","postalCode":"92421","locality":"Schwandorf","municipality":{"key":"09376161","name":"Schwandorf, GKSt","type":"Große_Kreisstadt"},"district":{"key":"09376","name":"Schwandorf","type":"Landkreis"},"federalState":{"key":"09","name":"Bayern"}},{"name":"Fronberger Str.","postalCode":"92421","locality":"Schwandorf","municipality":{"key":"09376161","name":"Schwandorf, GKSt","type":"Große_Kreisstadt"},"district":{"key":"09376","name":"Schwandorf","type":"Landkreis"},"federalState":{"key":"09","name":"Bayern"}},{"name":"Frühlingsstr.","postalCode":"92421","locality":"Schwandorf","municipality":{"key":"09376161","name":"Schwandorf, GKSt","type":"Große_Kreisstadt"},"district":{"key":"09376","name":"Schwandorf","type":"Landkreis"},"federalState":{"key":"09","name":"Bayern"}},{"name":"Frühlingstr.","postalCode":"92421","locality":"Schwandorf","municipality":{"key":"09376161","name":"Schwandorf, GKSt","type":"Große_Kreisstadt"},"district":{"key":"09376","name":"Schwandorf","type":"Landkreis"},"federalState":{"key":"09","name":"Bayern"}},{"name":"Gabelsberger Str.","postalCode":"92421","locality":"Schwandorf","municipality":{"key":"09376161","name":"Schwandorf, GKSt","type":"Große_Kreisstadt"},"district":{"key":"09376","name":"Schwandorf","type":"Landkreis"},"federalState":{"key":"09","name":"Bayern"}},{"name":"Gaisbergstr.","postalCode":"92421","locality":"Schwandorf","municipality":{"key":"09376161","name":"Schwandorf, GKSt","type":"Große_Kreisstadt"},"district":{"key":"09376","name":"Schwandorf","type":"Landkreis"},"federalState":{"key":"09","name":"Bayern"}},{"name":"Galgengasse","postalCode":"92421","locality":"Schwandorf","municipality":{"key":"09376161","name":"Schwandorf, GKSt","type":"Große_Kreisstadt"},"district":{"key":"09376","name":"Schwandorf","type":"Landkreis"},"federalState":{"key":"09","name":"Bayern"}},{"name":"Galileistr.","postalCode":"92421","locality":"Schwandorf","municipality":{"key":"09376161","name":"Schwandorf, GKSt","type":"Große_Kreisstadt"},"district":{"key":"09376","name":"Schwandorf","type":"Landkreis"},"federalState":{"key":"09","name":"Bayern"}},{"name":"Galvanistr.","postalCode":"92421","locality":"Schwandorf","municipality":{"key":"09376161","name":"Schwandorf, GKSt","type":"Große_Kreisstadt"},"district":{"key":"09376","name":"Schwandorf","type":"Landkreis"},"federalState":{"key":"09","name":"Bayern"}},{"name":"Ganghoferstr.","postalCode":"92421","locality":"Schwandorf","municipality":{"key":"09376161","name":"Schwandorf, GKSt","type":"Große_Kreisstadt"},"district":{"key":"09376","name":"Schwandorf","type":"Landkreis"},"federalState":{"key":"09","name":"Bayern"}},{"name":"Garrstr.","postalCode":"92421","locality":"Schwandorf","municipality":{"key":"09376161","name":"Schwandorf, GKSt","type":"Große_Kreisstadt"},"district":{"key":"09376","name":"Schwandorf","type":"Landkreis"},"federalState":{"key":"09","name":"Bayern"}},{"name":"Gartenackerstr.","postalCode":"92421","locality":"Schwandorf","municipality":{"key":"09376161","name":"Schwandorf, GKSt","type":"Große_Kreisstadt"},"district":{"key":"09376","name":"Schwandorf","type":"Landkreis"},"federalState":{"key":"09","name":"Bayern"}},{"name":"Gartenstr.","postalCode":"92421","locality":"Schwandorf","municipality":{"key":"09376161","name":"Schwandorf, GKSt","type":"Große_Kreisstadt"},"district":{"key":"09376","name":"Schwandorf","type":"Landkreis"},"federalState":{"key":"09","name":"Bayern"}},{"name":"Gärtnerstr.","postalCode":"92421","locality":"Schwandorf","municipality":{"key":"09376161","name":"Schwandorf, GKSt","type":"Große_Kreisstadt"},"district":{"key":"09376","name":"Schwandorf","type":"Landkreis"},"federalState":{"key":"09","name":"Bayern"}},{"name":"Gebrüder-Grimm-Str.","postalCode":"92421","locality":"Schwandorf","municipality":{"key":"09376161","name":"Schwandorf, GKSt","type":"Große_Kreisstadt"},"district":{"key":"09376","name":"Schwandorf","type":"Landkreis"},"federalState":{"key":"09","name":"Bayern"}},{"name":"Georg-Feldmeier-Str.","postalCode":"92421","locality":"Schwandorf","municipality":{"key":"09376161","name":"Schwandorf, GKSt","type":"Große_Kreisstadt"},"district":{"key":"09376","name":"Schwandorf","type":"Landkreis"},"federalState":{"key":"09","name":"Bayern"}},{"name":"Georg-Schambeck-Str.","postalCode":"92421","locality":"Schwandorf","municipality":{"key":"09376161","name":"Schwandorf, GKSt","type":"Große_Kreisstadt"},"district":{"key":"09376","name":"Schwandorf","type":"Landkreis"},"federalState":{"key":"09","name":"Bayern"}},{"name":"Geranienweg","postalCode":"92421","locality":"Schwandorf","municipality":{"key":"09376161","name":"Schwandorf, GKSt","type":"Große_Kreisstadt"},"district":{"key":"09376","name":"Schwandorf","type":"Landkreis"},"federalState":{"key":"09","name":"Bayern"}},{"name":"Geschwister-Scholl-Str.","postalCode":"92421","locality":"Schwandorf","municipality":{"key":"09376161","name":"Schwandorf, GKSt","type":"Große_Kreisstadt"},"district":{"key":"09376","name":"Schwandorf","type":"Landkreis"},"federalState":{"key":"09","name":"Bayern"}},{"name":"Gibachtstr.","postalCode":"92421","locality":"Schwandorf","municipality":{"key":"09376161","name":"Schwandorf, GKSt","type":"Große_Kreisstadt"},"district":{"key":"09376","name":"Schwandorf","type":"Landkreis"},"federalState":{"key":"09","name":"Bayern"}},{"name":"Ginsterweg","postalCode":"92421","locality":"Schwandorf","municipality":{"key":"09376161","name":"Schwandorf, GKSt","type":"Große_Kreisstadt"},"district":{"key":"09376","name":"Schwandorf","type":"Landkreis"},"federalState":{"key":"09","name":"Bayern"}},{"name":"Gladiolenstr.","postalCode":"92421","locality":"Schwandorf","municipality":{"key":"09376161","name":"Schwandorf, GKSt","type":"Große_Kreisstadt"},"district":{"key":"09376","name":"Schwandorf","type":"Landkreis"},"federalState":{"key":"09","name":"Bayern"}},{"name":"Glätzlstr.","postalCode":"92421","locality":"Schwandorf","municipality":{"key":"09376161","name":"Schwandorf, GKSt","type":"Große_Kreisstadt"},"district":{"key":"09376","name":"Schwandorf","type":"Landkreis"},"federalState":{"key":"09","name":"Bayern"}},{"name":"Gleiwitzer Str.","postalCode":"92421","locality":"Schwandorf","municipality":{"key":"09376161","name":"Schwandorf, GKSt","type":"Große_Kreisstadt"},"district":{"key":"09376","name":"Schwandorf","type":"Landkreis"},"federalState":{"key":"09","name":"Bayern"}},{"name":"Goethestr.","postalCode":"92421","locality":"Schwandorf","municipality":{"key":"09376161","name":"Schwandorf, GKSt","type":"Große_Kreisstadt"},"district":{"key":"09376","name":"Schwandorf","type":"Landkreis"},"federalState":{"key":"09","name":"Bayern"}},{"name":"Gögglbacher Ring","postalCode":"92421","locality":"Schwandorf","municipality":{"key":"09376161","name":"Schwandorf, GKSt","type":"Große_Kreisstadt"},"district":{"key":"09376","name":"Schwandorf","type":"Landkreis"},"federalState":{"key":"09","name":"Bayern"}},{"name":"Goldregenstr.","postalCode":"92421","locality":"Schwandorf","municipality":{"key":"09376161","name":"Schwandorf, GKSt","type":"Große_Kreisstadt"},"district":{"key":"09376","name":"Schwandorf","type":"Landkreis"},"federalState":{"key":"09","name":"Bayern"}},{"name":"Goldsternstr.","postalCode":"92421","locality":"Schwandorf","municipality":{"key":"09376161","name":"Schwandorf, GKSt","type":"Große_Kreisstadt"},"district":{"key":"09376","name":"Schwandorf","type":"Landkreis"},"federalState":{"key":"09","name":"Bayern"}},{"name":"Grabenweg","postalCode":"92421","locality":"Schwandorf","municipality":{"key":"09376161","name":"Schwandorf, GKSt","type":"Große_Kreisstadt"},"district":{"key":"09376","name":"Schwandorf","type":"Landkreis"},"federalState":{"key":"09","name":"Bayern"}},{"name":"Graf-von-Stauffenberg-Str.","postalCode":"92421","locality":"Schwandorf","municipality":{"key":"09376161","name":"Schwandorf, GKSt","type":"Große_Kreisstadt"},"district":{"key":"09376","name":"Schwandorf","type":"Landkreis"},"federalState":{"key":"09","name":"Bayern"}},{"name":"Grain","postalCode":"92421","locality":"Schwandorf","municipality":{"key":"09376161","name":"Schwandorf, GKSt","type":"Große_Kreisstadt"},"district":{"key":"09376","name":"Schwandorf","type":"Landkreis"},"federalState":{"key":"09","name":"Bayern"}},{"name":"Grieslweg","postalCode":"92421","locality":"Schwandorf","municipality":{"key":"09376161","name":"Schwandorf, GKSt","type":"Große_Kreisstadt"},"district":{"key":"09376","name":"Schwandorf","type":"Landkreis"},"federalState":{"key":"09","name":"Bayern"}},{"name":"Grillparzerplatz","postalCode":"92421","locality":"Schwandorf","municipality":{"key":"09376161","name":"Schwandorf, GKSt","type":"Große_Kreisstadt"},"district":{"key":"09376","name":"Schwandorf","type":"Landkreis"},"federalState":{"key":"09","name":"Bayern"}},{"name":"Grünstr.","postalCode":"92421","locality":"Schwandorf","municipality":{"key":"09376161","name":"Schwandorf, GKSt","type":"Große_Kreisstadt"},"district":{"key":"09376","name":"Schwandorf","type":"Landkreis"},"federalState":{"key":"09","name":"Bayern"}},{"name":"Grünwaldstr.","postalCode":"92421","locality":"Schwandorf","municipality":{"key":"09376161","name":"Schwandorf, GKSt","type":"Große_Kreisstadt"},"district":{"key":"09376","name":"Schwandorf","type":"Landkreis"},"federalState":{"key":"09","name":"Bayern"}},{"name":"Guerickestr.","postalCode":"92421","locality":"Schwandorf","municipality":{"key":"09376161","name":"Schwandorf, GKSt","type":"Große_Kreisstadt"},"district":{"key":"09376","name":"Schwandorf","type":"Landkreis"},"federalState":{"key":"09","name":"Bayern"}},{"name":"Gustav-Hertz-Str.","postalCode":"92421","locality":"Schwandorf","municipality":{"key":"09376161","name":"Schwandorf, GKSt","type":"Große_Kreisstadt"},"district":{"key":"09376","name":"Schwandorf","type":"Landkreis"},"federalState":{"key":"09","name":"Bayern"}},{"name":"Güterhallenstr.","postalCode":"92421","locality":"Schwandorf","municipality":{"key":"09376161","name":"Schwandorf, GKSt","type":"Große_Kreisstadt"},"district":{"key":"09376","name":"Schwandorf","type":"Landkreis"},"federalState":{"key":"09","name":"Bayern"}},{"name":"Haindlhof","postalCode":"92554","locality":"Thanstein","municipality":{"key":"09376172","name":"Thanstein","type":"Kreisangehörige_Gemeinde"},"district":{"key":"09376","name":"Schwandorf","type":"Landkreis"},"federalState":{"key":"09","name":"Bayern"}},{"name":"Hartelsteigweg","postalCode":"92554","locality":"Thanstein","municipality":{"key":"09376172","name":"Thanstein","type":"Kreisangehörige_Gemeinde"},"district":{"key":"09376","name":"Schwandorf","type":"Landkreis"},"federalState":{"key":"09","name":"Bayern"}},{"name":"Hebersdorf","postalCode":"92554","locality":"Thanstein","municipality":{"key":"09376172","name":"Thanstein","type":"Kreisangehörige_Gemeinde"},"district":{"key":"09376","name":"Schwandorf","type":"Landkreis"},"federalState":{"key":"09","name":"Bayern"}},{"name":"Holnsteinstr.","postalCode":"92554","locality":"Thanstein","municipality":{"key":"09376172","name":"Thanstein","type":"Kreisangehörige_Gemeinde"},"district":{"key":"09376","name":"Schwandorf","type":"Landkreis"},"federalState":{"key":"09","name":"Bayern"}},{"name":"Im Tal","postalCode":"92554","locality":"Thanstein","municipality":{"key":"09376172","name":"Thanstein","type":"Kreisangehörige_Gemeinde"},"district":{"key":"09376","name":"Schwandorf","type":"Landkreis"},"federalState":{"key":"09","name":"Bayern"}},{"name":"Jedesbach","postalCode":"92554","locality":"Thanstein","municipality":{"key":"09376172","name":"Thanstein","type":"Kreisangehörige_Gemeinde"},"district":{"key":"09376","name":"Schwandorf","type":"Landkreis"},"federalState":{"key":"09","name":"Bayern"}},{"name":"Johannesstr.","postalCode":"92554","locality":"Thanstein","municipality":{"key":"09376172","name":"Thanstein","type":"Kreisangehörige_Gemeinde"},"district":{"key":"09376","name":"Schwandorf","type":"Landkreis"},"federalState":{"key":"09","name":"Bayern"}},{"name":"Kiesenberger Str.","postalCode":"92554","locality":"Thanstein","municipality":{"key":"09376172","name":"Thanstein","type":"Kreisangehörige_Gemeinde"},"district":{"key":"09376","name":"Schwandorf","type":"Landkreis"},"federalState":{"key":"09","name":"Bayern"}},{"name":"Kirchplatz","postalCode":"92554","locality":"Thanstein","municipality":{"key":"09376172","name":"Thanstein","type":"Kreisangehörige_Gemeinde"},"district":{"key":"09376","name":"Schwandorf","type":"Landkreis"},"federalState":{"key":"09","name":"Bayern"}},{"name":"Kirchstr.","postalCode":"92554","locality":"Thanstein","municipality":{"key":"09376172","name":"Thanstein","type":"Kreisangehörige_Gemeinde"},"district":{"key":"09376","name":"Schwandorf","type":"Landkreis"},"federalState":{"key":"09","name":"Bayern"}},{"name":"Klonnerhof","postalCode":"92554","locality":"Thanstein","municipality":{"key":"09376172","name":"Thanstein","type":"Kreisangehörige_Gemeinde"},"district":{"key":"09376","name":"Schwandorf","type":"Landkreis"},"federalState":{"key":"09","name":"Bayern"}},{"name":"Lampartstr.","postalCode":"92421","locality":"Schwandorf","municipality":{"key":"09376161","name":"Schwandorf, GKSt","type":"Große_Kreisstadt"},"district":{"key":"09376","name":"Schwandorf","type":"Landkreis"},"federalState":{"key":"09","name":"Bayern"}},{"name":"Lange Str.","postalCode":"92421","locality":"Schwandorf","municipality":{"key":"09376161","name":"Schwandorf, GKSt","type":"Große_Kreisstadt"},"district":{"key":"09376","name":"Schwandorf","type":"Landkreis"},"federalState":{"key":"09","name":"Bayern"}},{"name":"Laubstr.","postalCode":"92421","locality":"Schwandorf","municipality":{"key":"09376161","name":"Schwandorf, GKSt","type":"Große_Kreisstadt"},"district":{"key":"09376","name":"Schwandorf","type":"Landkreis"},"federalState":{"key":"09","name":"Bayern"}},{"name":"Leite","postalCode":"92421","locality":"Schwandorf","municipality":{"key":"09376161","name":"Schwandorf, GKSt","type":"Große_Kreisstadt"},"district":{"key":"09376","name":"Schwandorf","type":"Landkreis"},"federalState":{"key":"09","name":"Bayern"}},{"name":"Leitlstr.","postalCode":"92421","locality":"Schwandorf","municipality":{"key":"09376161","name":"Schwandorf, GKSt","type":"Große_Kreisstadt"},"district":{"key":"09376","name":"Schwandorf","type":"Landkreis"},"federalState":{"key":"09","name":"Bayern"}},{"name":"Lenzstr.","postalCode":"92421","locality":"Schwandorf","municipality":{"key":"09376161","name":"Schwandorf, GKSt","type":"Große_Kreisstadt"},"district":{"key":"09376","name":"Schwandorf","type":"Landkreis"},"federalState":{"key":"09","name":"Bayern"}},{"name":"Lerchenstr.","postalCode":"92421","locality":"Schwandorf","municipality":{"key":"09376161","name":"Schwandorf, GKSt","type":"Große_Kreisstadt"},"district":{"key":"09376","name":"Schwandorf","type":"Landkreis"},"federalState":{"key":"09","name":"Bayern"}},{"name":"Lessingstr.","postalCode":"92421","locality":"Schwandorf","municipality":{"key":"09376161","name":"Schwandorf, GKSt","type":"Große_Kreisstadt"},"district":{"key":"09376","name":"Schwandorf","type":"Landkreis"},"federalState":{"key":"09","name":"Bayern"}},{"name":"Lettenstr.","postalCode":"92421","locality":"Schwandorf","municipality":{"key":"09376161","name":"Schwandorf, GKSt","type":"Große_Kreisstadt"},"district":{"key":"09376","name":"Schwandorf","type":"Landkreis"},"federalState":{"key":"09","name":"Bayern"}},{"name":"Libellenstr.","postalCode":"92421","locality":"Schwandorf","municipality":{"key":"09376161","name":"Schwandorf, GKSt","type":"Große_Kreisstadt"},"district":{"key":"09376","name":"Schwandorf","type":"Landkreis"},"federalState":{"key":"09","name":"Bayern"}},{"name":"Liebigstr.","postalCode":"92421","locality":"Schwandorf","municipality":{"key":"09376161","name":"Schwandorf, GKSt","type":"Große_Kreisstadt"},"district":{"key":"09376","name":"Schwandorf","type":"Landkreis"},"federalState":{"key":"09","name":"Bayern"}},{"name":"Lilienstr.","postalCode":"92421","locality":"Schwandorf","municipality":{"key":"09376161","name":"Schwandorf, GKSt","type":"Große_Kreisstadt"},"district":{"key":"09376","name":"Schwandorf","type":"Landkreis"},"federalState":{"key":"09","name":"Bayern"}},{"name":"Lilienthalstr.","postalCode":"92421","locality":"Schwandorf","municipality":{"key":"09376161","name":"Schwandorf, GKSt","type":"Große_Kreisstadt"},"district":{"key":"09376","name":"Schwandorf","type":"Landkreis"},"federalState":{"key":"09","name":"Bayern"}},{"name":"Lindenlohe","postalCode":"92421","locality":"Schwandorf","municipality":{"key":"09376161","name":"Schwandorf, GKSt","type":"Große_Kreisstadt"},"district":{"key":"09376","name":"Schwandorf","type":"Landkreis"},"federalState":{"key":"09","name":"Bayern"}},{"name":"Lindenloher Str.","postalCode":"92421","locality":"Schwandorf","municipality":{"key":"09376161","name":"Schwandorf, GKSt","type":"Große_Kreisstadt"},"district":{"key":"09376","name":"Schwandorf","type":"Landkreis"},"federalState":{"key":"09","name":"Bayern"}},{"name":"Lindenstr.","postalCode":"92421","locality":"Schwandorf","municipality":{"key":"09376161","name":"Schwandorf, GKSt","type":"Große_Kreisstadt"},"district":{"key":"09376","name":"Schwandorf","type":"Landkreis"},"federalState":{"key":"09","name":"Bayern"}},{"name":"Lohbachstr.","postalCode":"92421","locality":"Schwandorf","municipality":{"key":"09376161","name":"Schwandorf, GKSt","type":"Große_Kreisstadt"},"district":{"key":"09376","name":"Schwandorf","type":"Landkreis"},"federalState":{"key":"09","name":"Bayern"}},{"name":"Lohstr.","postalCode":"92421","locality":"Schwandorf","municipality":{"key":"09376161","name":"Schwandorf, GKSt","type":"Große_Kreisstadt"},"district":{"key":"09376","name":"Schwandorf","type":"Landkreis"},"federalState":{"key":"09","name":"Bayern"}},{"name":"Loisnitzer Weg","postalCode":"92421","locality":"Schwandorf","municipality":{"key":"09376161","name":"Schwandorf, GKSt","type":"Große_Kreisstadt"},"district":{"key":"09376","name":"Schwandorf","type":"Landkreis"},"federalState":{"key":"09","name":"Bayern"}},{"name":"Löllstr.","postalCode":"92421","locality":"Schwandorf","municipality":{"key":"09376161","name":"Schwandorf, GKSt","type":"Große_Kreisstadt"},"district":{"key":"09376","name":"Schwandorf","type":"Landkreis"},"federalState":{"key":"09","name":"Bayern"}},{"name":"Lönsstr.","postalCode":"92421","locality":"Schwandorf","municipality":{"key":"09376161","name":"Schwandorf, GKSt","type":"Große_Kreisstadt"},"district":{"key":"09376","name":"Schwandorf","type":"Landkreis"},"federalState":{"key":"09","name":"Bayern"}},{"name":"Luberstr.","postalCode":"92421","locality":"Schwandorf","municipality":{"key":"09376161","name":"Schwandorf, GKSt","type":"Große_Kreisstadt"},"district":{"key":"09376","name":"Schwandorf","type":"Landkreis"},"federalState":{"key":"09","name":"Bayern"}},{"name":"Ludwig-Pirzer-Str.","postalCode":"92421","locality":"Schwandorf","municipality":{"key":"09376161","name":"Schwandorf, GKSt","type":"Große_Kreisstadt"},"district":{"key":"09376","name":"Schwandorf","type":"Landkreis"},"federalState":{"key":"09","name":"Bayern"}},{"name":"Ludwig-Thoma-Platz","postalCode":"92421","locality":"Schwandorf","municipality":{"key":"09376161","name":"Schwandorf, GKSt","type":"Große_Kreisstadt"},"district":{"key":"09376","name":"Schwandorf","type":"Landkreis"},"federalState":{"key":"09","name":"Bayern"}},{"name":"Moorlehrpfad","postalCode":"92554","locality":"Thanstein","municipality":{"key":"09376172","name":"Thanstein","type":"Kreisangehörige_Gemeinde"},"district":{"key":"09376","name":"Schwandorf","type":"Landkreis"},"federalState":{"key":"09","name":"Bayern"}},{"name":"Moosstr.","postalCode":"92554","locality":"Thanstein","municipality":{"key":"09376172","name":"Thanstein","type":"Kreisangehörige_Gemeinde"},"district":{"key":"09376","name":"Schwandorf","type":"Landkreis"},"federalState":{"key":"09","name":"Bayern"}},{"name":"Neudeck","postalCode":"92554","locality":"Thanstein","municipality":{"key":"09376172","name":"Thanstein","type":"Kreisangehörige_Gemeinde"},"district":{"key":"09376","name":"Schwandorf","type":"Landkreis"},"federalState":{"key":"09","name":"Bayern"}},{"name":"Neunburger Str.","postalCode":"92554","locality":"Thanstein","municipality":{"key":"09376172","name":"Thanstein","type":"Kreisangehörige_Gemeinde"},"district":{"key":"09376","name":"Schwandorf","type":"Landkreis"},"federalState":{"key":"09","name":"Bayern"}},{"name":"Oberholzstr.","postalCode":"92421","locality":"Schwandorf","municipality":{"key":"09376161","name":"Schwandorf, GKSt","type":"Große_Kreisstadt"},"district":{"key":"09376","name":"Schwandorf","type":"Landkreis"},"federalState":{"key":"09","name":"Bayern"}},{"name":"Ochsentradweg","postalCode":"92421","locality":"Schwandorf","municipality":{"key":"09376161","name":"Schwandorf, GKSt","type":"Große_Kreisstadt"},"district":{"key":"09376","name":"Schwandorf","type":"Landkreis"},"federalState":{"key":"09","name":"Bayern"}},{"name":"Ohmstr.","postalCode":"92421","locality":"Schwandorf","municipality":{"key":"09376161","name":"Schwandorf, GKSt","type":"Große_Kreisstadt"},"district":{"key":"09376","name":"Schwandorf","type":"Landkreis"},"federalState":{"key":"09","name":"Bayern"}},{"name":"Olympiastr.","postalCode":"92421","locality":"Schwandorf","municipality":{"key":"09376161","name":"Schwandorf, GKSt","type":"Große_Kreisstadt"},"district":{"key":"09376","name":"Schwandorf","type":"Landkreis"},"federalState":{"key":"09","name":"Bayern"}},{"name":"Oskar-Kösters-Str.","postalCode":"92421","locality":"Schwandorf","municipality":{"key":"09376161","name":"Schwandorf, GKSt","type":"Große_Kreisstadt"},"district":{"key":"09376","name":"Schwandorf","type":"Landkreis"},"federalState":{"key":"09","name":"Bayern"}},{"name":"Oskar-von-Miller-Str.","postalCode":"92421","locality":"Schwandorf","municipality":{"key":"09376161","name":"Schwandorf, GKSt","type":"Große_Kreisstadt"},"district":{"key":"09376","name":"Schwandorf","type":"Landkreis"},"federalState":{"key":"09","name":"Bayern"}},{"name":"Osserstr.","postalCode":"92421","locality":"Schwandorf","municipality":{"key":"09376161","name":"Schwandorf, GKSt","type":"Große_Kreisstadt"},"district":{"key":"09376","name":"Schwandorf","type":"Landkreis"},"federalState":{"key":"09","name":"Bayern"}},{"name":"Otto-Hahn-Str.","postalCode":"92421","locality":"Schwandorf","municipality":{"key":"09376161","name":"Schwandorf, GKSt","type":"Große_Kreisstadt"},"district":{"key":"09376","name":"Schwandorf","type":"Landkreis"},"federalState":{"key":"09","name":"Bayern"}},{"name":"Ottostr.","postalCode":"92421","locality":"Schwandorf","municipality":{"key":"09376161","name":"Schwandorf, GKSt","type":"Große_Kreisstadt"},"district":{"key":"09376","name":"Schwandorf","type":"Landkreis"},"federalState":{"key":"09","name":"Bayern"}},{"name":"Pappelweg","postalCode":"92421","locality":"Schwandorf","municipality":{"key":"09376161","name":"Schwandorf, GKSt","type":"Große_Kreisstadt"},"district":{"key":"09376","name":"Schwandorf","type":"Landkreis"},"federalState":{"key":"09","name":"Bayern"}},{"name":"Paststr.","postalCode":"92421","locality":"Schwandorf","municipality":{"key":"09376161","name":"Schwandorf, GKSt","type":"Große_Kreisstadt"},"district":{"key":"09376","name":"Schwandorf","type":"Landkreis"},"federalState":{"key":"09","name":"Bayern"}},{"name":"Paul-Keller-Str.","postalCode":"92421","locality":"Schwandorf","municipality":{"key":"09376161","name":"Schwandorf, GKSt","type":"Große_Kreisstadt"},"district":{"key":"09376","name":"Schwandorf","type":"Landkreis"},"federalState":{"key":"09","name":"Bayern"}},{"name":"Paulsdorferstr.","postalCode":"92421","locality":"Schwandorf","municipality":{"key":"09376161","name":"Schwandorf, GKSt","type":"Große_Kreisstadt"},"district":{"key":"09376","name":"Schwandorf","type":"Landkreis"},"federalState":{"key":"09","name":"Bayern"}},{"name":"Paulusstr.","postalCode":"92421","locality":"Schwandorf","municipality":{"key":"09376161","name":"Schwandorf, GKSt","type":"Große_Kreisstadt"},"district":{"key":"09376","name":"Schwandorf","type":"Landkreis"},"federalState":{"key":"09","name":"Bayern"}},{"name":"Paul-von-Denis-Str.","postalCode":"92421","locality":"Schwandorf","municipality":{"key":"09376161","name":"Schwandorf, GKSt","type":"Große_Kreisstadt"},"district":{"key":"09376","name":"Schwandorf","type":"Landkreis"},"federalState":{"key":"09","name":"Bayern"}},{"name":"Pesserlstr.","postalCode":"92421","locality":"Schwandorf","municipality":{"key":"09376161","name":"Schwandorf, GKSt","type":"Große_Kreisstadt"},"district":{"key":"09376","name":"Schwandorf","type":"Landkreis"},"federalState":{"key":"09","name":"Bayern"}},{"name":"Peter-Dörfler-Str.","postalCode":"92421","locality":"Schwandorf","municipality":{"key":"09376161","name":"Schwandorf, GKSt","type":"Große_Kreisstadt"},"district":{"key":"09376","name":"Schwandorf","type":"Landkreis"},"federalState":{"key":"09","name":"Bayern"}},{"name":"Pettenkoferstr.","postalCode":"92421","locality":"Schwandorf","municipality":{"key":"09376161","name":"Schwandorf, GKSt","type":"Große_Kreisstadt"},"district":{"key":"09376","name":"Schwandorf","type":"Landkreis"},"federalState":{"key":"09","name":"Bayern"}},{"name":"Pfannholzerstr.","postalCode":"92421","locality":"Schwandorf","municipality":{"key":"09376161","name":"Schwandorf, GKSt","type":"Große_Kreisstadt"},"district":{"key":"09376","name":"Schwandorf","type":"Landkreis"},"federalState":{"key":"09","name":"Bayern"}},{"name":"Pfarrer-Spießl-Str.","postalCode":"92421","locality":"Schwandorf","municipality":{"key":"09376161","name":"Schwandorf, GKSt","type":"Große_Kreisstadt"},"district":{"key":"09376","name":"Schwandorf","type":"Landkreis"},"federalState":{"key":"09","name":"Bayern"}},{"name":"Pfarrer-Wild-Str.","postalCode":"92421","locality":"Schwandorf","municipality":{"key":"09376161","name":"Schwandorf, GKSt","type":"Große_Kreisstadt"},"district":{"key":"09376","name":"Schwandorf","type":"Landkreis"},"federalState":{"key":"09","name":"Bayern"}},{"name":"Pfarrwiese","postalCode":"92421","locality":"Schwandorf","municipality":{"key":"09376161","name":"Schwandorf, GKSt","type":"Große_Kreisstadt"},"district":{"key":"09376","name":"Schwandorf","type":"Landkreis"},"federalState":{"key":"09","name":"Bayern"}},{"name":"Pfingstnelkenstr.","postalCode":"92421","locality":"Schwandorf","municipality":{"key":"09376161","name":"Schwandorf, GKSt","type":"Große_Kreisstadt"},"district":{"key":"09376","name":"Schwandorf","type":"Landkreis"},"federalState":{"key":"09","name":"Bayern"}},{"name":"Pfingstrosenstr.","postalCode":"92421","locality":"Schwandorf","municipality":{"key":"09376161","name":"Schwandorf, GKSt","type":"Große_Kreisstadt"},"district":{"key":"09376","name":"Schwandorf","type":"Landkreis"},"federalState":{"key":"09","name":"Bayern"}},{"name":"Pfleghofgasse","postalCode":"92421","locality":"Schwandorf","municipality":{"key":"09376161","name":"Schwandorf, GKSt","type":"Große_Kreisstadt"},"district":{"key":"09376","name":"Schwandorf","type":"Landkreis"},"federalState":{"key":"09","name":"Bayern"}},{"name":"Pirzerstr.","postalCode":"92421","locality":"Schwandorf","municipality":{"key":"09376161","name":"Schwandorf, GKSt","type":"Große_Kreisstadt"},"district":{"key":"09376","name":"Schwandorf","type":"Landkreis"},"federalState":{"key":"09","name":"Bayern"}},{"name":"Pittersberger Str.","postalCode":"92421","locality":"Schwandorf","municipality":{"key":"09376161","name":"Schwandorf, GKSt","type":"Große_Kreisstadt"},"district":{"key":"09376","name":"Schwandorf","type":"Landkreis"},"federalState":{"key":"09","name":"Bayern"}},{"name":"Postgartenstr.","postalCode":"92421","locality":"Schwandorf","municipality":{"key":"09376161","name":"Schwandorf, GKSt","type":"Große_Kreisstadt"},"district":{"key":"09376","name":"Schwandorf","type":"Landkreis"},"federalState":{"key":"09","name":"Bayern"}},{"name":"Prälat-Dimpfl-Str.","postalCode":"92421","locality":"Schwandorf","municipality":{"key":"09376161","name":"Schwandorf, GKSt","type":"Große_Kreisstadt"},"district":{"key":"09376","name":"Schwandorf","type":"Landkreis"},"federalState":{"key":"09","name":"Bayern"}},{"name":"Prissath","postalCode":"92421","locality":"Schwandorf","municipality":{"key":"09376161","name":"Schwandorf, GKSt","type":"Große_Kreisstadt"},"district":{"key":"09376","name":"Schwandorf","type":"Landkreis"},"federalState":{"key":"09","name":"Bayern"}},{"name":"Prissather Weg","postalCode":"92421","locality":"Schwandorf","municipality":{"key":"09376161","name":"Schwandorf, GKSt","type":"Große_Kreisstadt"},"district":{"key":"09376","name":"Schwandorf","type":"Landkreis"},"federalState":{"key":"09","name":"Bayern"}},{"name":"Promenadenweg","postalCode":"92421","locality":"Schwandorf","municipality":{"key":"09376161","name":"Schwandorf, GKSt","type":"Große_Kreisstadt"},"district":{"key":"09376","name":"Schwandorf","type":"Landkreis"},"federalState":{"key":"09","name":"Bayern"}},{"name":"Quellweg","postalCode":"92421","locality":"Schwandorf","municipality":{"key":"09376161","name":"Schwandorf, GKSt","type":"Große_Kreisstadt"},"district":{"key":"09376","name":"Schwandorf","type":"Landkreis"},"federalState":{"key":"09","name":"Bayern"}},{"name":"Rachelstr.","postalCode":"92421","locality":"Schwandorf","municipality":{"key":"09376161","name":"Schwandorf, GKSt","type":"Große_Kreisstadt"},"district":{"key":"09376","name":"Schwandorf","type":"Landkreis"},"federalState":{"key":"09","name":"Bayern"}},{"name":"Radweg zum Ortsteil Büchelkühn","postalCode":"92421","locality":"Schwandorf","municipality":{"key":"09376161","name":"Schwandorf, GKSt","type":"Große_Kreisstadt"},"district":{"key":"09376","name":"Schwandorf","type":"Landkreis"},"federalState":{"key":"09","name":"Bayern"}},{"name":"Raiffeisenstr.","postalCode":"92421","locality":"Schwandorf","municipality":{"key":"09376161","name":"Schwandorf, GKSt","type":"Große_Kreisstadt"},"district":{"key":"09376","name":"Schwandorf","type":"Landkreis"},"federalState":{"key":"09","name":"Bayern"}},{"name":"Ranawerkstr.","postalCode":"92421","locality":"Schwandorf","municipality":{"key":"09376161","name":"Schwandorf, GKSt","type":"Große_Kreisstadt"},"district":{"key":"09376","name":"Schwandorf","type":"Landkreis"},"federalState":{"key":"09","name":"Bayern"}},{"name":"Randolph-von-Breidbach-Str.","postalCode":"92421","locality":"Schwandorf","municipality":{"key":"09376161","name":"Schwandorf, GKSt","type":"Große_Kreisstadt"},"district":{"key":"09376","name":"Schwandorf","type":"Landkreis"},"federalState":{"key":"09","name":"Bayern"}},{"name":"Rasenstr.","postalCode":"92421","locality":"Schwandorf","municipality":{"key":"09376161","name":"Schwandorf, GKSt","type":"Große_Kreisstadt"},"district":{"key":"09376","name":"Schwandorf","type":"Landkreis"},"federalState":{"key":"09","name":"Bayern"}},{"name":"Rathausstr.","postalCode":"92421","locality":"Schwandorf","municipality":{"key":"09376161","name":"Schwandorf, GKSt","type":"Große_Kreisstadt"},"district":{"key":"09376","name":"Schwandorf","type":"Landkreis"},"federalState":{"key":"09","name":"Bayern"}},{"name":"Regensburger Str.","postalCode":"92421","locality":"Schwandorf","municipality":{"key":"09376161","name":"Schwandorf, GKSt","type":"Große_Kreisstadt"},"district":{"key":"09376","name":"Schwandorf","type":"Landkreis"},"federalState":{"key":"09","name":"Bayern"}},{"name":"Reichlgasse","postalCode":"92421","locality":"Schwandorf","municipality":{"key":"09376161","name":"Schwandorf, GKSt","type":"Große_Kreisstadt"},"district":{"key":"09376","name":"Schwandorf","type":"Landkreis"},"federalState":{"key":"09","name":"Bayern"}},{"name":"Reiherstr.","postalCode":"92421","locality":"Schwandorf","municipality":{"key":"09376161","name":"Schwandorf, GKSt","type":"Große_Kreisstadt"},"district":{"key":"09376","name":"Schwandorf","type":"Landkreis"},"federalState":{"key":"09","name":"Bayern"}},{"name":"Reisstr.","postalCode":"92421","locality":"Schwandorf","municipality":{"key":"09376161","name":"Schwandorf, GKSt","type":"Große_Kreisstadt"},"district":{"key":"09376","name":"Schwandorf","type":"Landkreis"},"federalState":{"key":"09","name":"Bayern"}},{"name":"Richter Weg","postalCode":"92421","locality":"Schwandorf","municipality":{"key":"09376161","name":"Schwandorf, GKSt","type":"Große_Kreisstadt"},"district":{"key":"09376","name":"Schwandorf","type":"Landkreis"},"federalState":{"key":"09","name":"Bayern"}},{"name":"Ringstr.","postalCode":"92421","locality":"Schwandorf","municipality":{"key":"09376161","name":"Schwandorf, GKSt","type":"Große_Kreisstadt"},"district":{"key":"09376","name":"Schwandorf","type":"Landkreis"},"federalState":{"key":"09","name":"Bayern"}},{"name":"Robert-Koch-Str.","postalCode":"92421","locality":"Schwandorf","municipality":{"key":"09376161","name":"Schwandorf, GKSt","type":"Große_Kreisstadt"},"district":{"key":"09376","name":"Schwandorf","type":"Landkreis"},"federalState":{"key":"09","name":"Bayern"}},{"name":"Roidlweg","postalCode":"92421","locality":"Schwandorf","municipality":{"key":"09376161","name":"Schwandorf, GKSt","type":"Große_Kreisstadt"},"district":{"key":"09376","name":"Schwandorf","type":"Landkreis"},"federalState":{"key":"09","name":"Bayern"}},{"name":"Rölsstr.","postalCode":"92421","locality":"Schwandorf","municipality":{"key":"09376161","name":"Schwandorf, GKSt","type":"Große_Kreisstadt"},"district":{"key":"09376","name":"Schwandorf","type":"Landkreis"},"federalState":{"key":"09","name":"Bayern"}},{"name":"Röntgenstr.","postalCode":"92421","locality":"Schwandorf","municipality":{"key":"09376161","name":"Schwandorf, GKSt","type":"Große_Kreisstadt"},"district":{"key":"09376","name":"Schwandorf","type":"Landkreis"},"federalState":{"key":"09","name":"Bayern"}},{"name":"Röschstr.","postalCode":"92421","locality":"Schwandorf","municipality":{"key":"09376161","name":"Schwandorf, GKSt","type":"Große_Kreisstadt"},"district":{"key":"09376","name":"Schwandorf","type":"Landkreis"},"federalState":{"key":"09","name":"Bayern"}},{"name":"Roseggerstr.","postalCode":"92421","locality":"Schwandorf","municipality":{"key":"09376161","name":"Schwandorf, GKSt","type":"Große_Kreisstadt"},"district":{"key":"09376","name":"Schwandorf","type":"Landkreis"},"federalState":{"key":"09","name":"Bayern"}},{"name":"Rosenstr.","postalCode":"92421","locality":"Schwandorf","municipality":{"key":"09376161","name":"Schwandorf, GKSt","type":"Große_Kreisstadt"},"district":{"key":"09376","name":"Schwandorf","type":"Landkreis"},"federalState":{"key":"09","name":"Bayern"}},{"name":"Rothlindenstr.","postalCode":"92421","locality":"Schwandorf","municipality":{"key":"09376161","name":"Schwandorf, GKSt","type":"Große_Kreisstadt"},"district":{"key":"09376","name":"Schwandorf","type":"Landkreis"},"federalState":{"key":"09","name":"Bayern"}},{"name":"Rotleite","postalCode":"92421","locality":"Schwandorf","municipality":{"key":"09376161","name":"Schwandorf, GKSt","type":"Große_Kreisstadt"},"district":{"key":"09376","name":"Schwandorf","type":"Landkreis"},"federalState":{"key":"09","name":"Bayern"}},{"name":"Rübenackerweg","postalCode":"92421","locality":"Schwandorf","municipality":{"key":"09376161","name":"Schwandorf, GKSt","type":"Große_Kreisstadt"},"district":{"key":"09376","name":"Schwandorf","type":"Landkreis"},"federalState":{"key":"09","name":"Bayern"}},{"name":"Rudolf-Danhardt-Str.","postalCode":"92421","locality":"Schwandorf","municipality":{"key":"09376161","name":"Schwandorf, GKSt","type":"Große_Kreisstadt"},"district":{"key":"09376","name":"Schwandorf","type":"Landkreis"},"federalState":{"key":"09","name":"Bayern"}},{"name":"Ruhseugstr.","postalCode":"92421","locality":"Schwandorf","municipality":{"key":"09376161","name":"Schwandorf, GKSt","type":"Große_Kreisstadt"},"district":{"key":"09376","name":"Schwandorf","type":"Landkreis"},"federalState":{"key":"09","name":"Bayern"}},{"name":"Ruselstr.","postalCode":"92421","locality":"Schwandorf","municipality":{"key":"09376161","name":"Schwandorf, GKSt","type":"Große_Kreisstadt"},"district":{"key":"09376","name":"Schwandorf","type":"Landkreis"},"federalState":{"key":"09","name":"Bayern"}},{"name":"Rußwurmstr.","postalCode":"92421","locality":"Schwandorf","municipality":{"key":"09376161","name":"Schwandorf, GKSt","type":"Große_Kreisstadt"},"district":{"key":"09376","name":"Schwandorf","type":"Landkreis"},"federalState":{"key":"09","name":"Bayern"}},{"name":"Rüsterstr.","postalCode":"92421","locality":"Schwandorf","municipality":{"key":"09376161","name":"Schwandorf, GKSt","type":"Große_Kreisstadt"},"district":{"key":"09376","name":"Schwandorf","type":"Landkreis"},"federalState":{"key":"09","name":"Bayern"}},{"name":"Schloßberg","postalCode":"92554","locality":"Thanstein","municipality":{"key":"09376172","name":"Thanstein","type":"Kreisangehörige_Gemeinde"},"district":{"key":"09376","name":"Schwandorf","type":"Landkreis"},"federalState":{"key":"09","name":"Bayern"}},{"name":"Schönbuchen","postalCode":"92554","locality":"Thanstein","municipality":{"key":"09376172","name":"Thanstein","type":"Kreisangehörige_Gemeinde"},"district":{"key":"09376","name":"Schwandorf","type":"Landkreis"},"federalState":{"key":"09","name":"Bayern"}},{"name":"Stiegelweg","postalCode":"92554","locality":"Thanstein","municipality":{"key":"09376172","name":"Thanstein","type":"Kreisangehörige_Gemeinde"},"district":{"key":"09376","name":"Schwandorf","type":"Landkreis"},"federalState":{"key":"09","name":"Bayern"}},{"name":"Tännesried","postalCode":"92554","locality":"Thanstein","municipality":{"key":"09376172","name":"Thanstein","type":"Kreisangehörige_Gemeinde"},"district":{"key":"09376","name":"Schwandorf","type":"Landkreis"},"federalState":{"key":"09","name":"Bayern"}},{"name":"Thannmühle","postalCode":"92554","locality":"Thanstein","municipality":{"key":"09376172","name":"Thanstein","type":"Kreisangehörige_Gemeinde"},"district":{"key":"09376","name":"Schwandorf","type":"Landkreis"},"federalState":{"key":"09","name":"Bayern"}},{"name":"Tradweg","postalCode":"92554","locality":"Thanstein","municipality":{"key":"09376172","name":"Thanstein","type":"Kreisangehörige_Gemeinde"},"district":{"key":"09376","name":"Schwandorf","type":"Landkreis"},"federalState":{"key":"09","name":"Bayern"}},{"name":"Uferstr.","postalCode":"92421","locality":"Schwandorf","municipality":{"key":"09376161","name":"Schwandorf, GKSt","type":"Große_Kreisstadt"},"district":{"key":"09376","name":"Schwandorf","type":"Landkreis"},"federalState":{"key":"09","name":"Bayern"}},{"name":"Uhlandstr.","postalCode":"92421","locality":"Schwandorf","municipality":{"key":"09376161","name":"Schwandorf, GKSt","type":"Große_Kreisstadt"},"district":{"key":"09376","name":"Schwandorf","type":"Landkreis"},"federalState":{"key":"09","name":"Bayern"}},{"name":"Ulmenstr.","postalCode":"92421","locality":"Schwandorf","municipality":{"key":"09376161","name":"Schwandorf, GKSt","type":"Große_Kreisstadt"},"district":{"key":"09376","name":"Schwandorf","type":"Landkreis"},"federalState":{"key":"09","name":"Bayern"}},{"name":"Ulrich-Hiltl-Str.","postalCode":"92421","locality":"Schwandorf","municipality":{"key":"09376161","name":"Schwandorf, GKSt","type":"Große_Kreisstadt"},"district":{"key":"09376","name":"Schwandorf","type":"Landkreis"},"federalState":{"key":"09","name":"Bayern"}},{"name":"Veilchenstr.","postalCode":"92421","locality":"Schwandorf","municipality":{"key":"09376161","name":"Schwandorf, GKSt","type":"Große_Kreisstadt"},"district":{"key":"09376","name":"Schwandorf","type":"Landkreis"},"federalState":{"key":"09","name":"Bayern"}},{"name":"Verbindungs-Rad-Feld-Weg Naabeck-Büchelkühn","postalCode":"92421","locality":"Schwandorf","municipality":{"key":"09376161","name":"Schwandorf, GKSt","type":"Große_Kreisstadt"},"district":{"key":"09376","name":"Schwandorf","type":"Landkreis"},"federalState":{"key":"09","name":"Bayern"}},{"name":"Virchowstr.","postalCode":"92421","locality":"Schwandorf","municipality":{"key":"09376161","name":"Schwandorf, GKSt","type":"Große_Kreisstadt"},"district":{"key":"09376","name":"Schwandorf","type":"Landkreis"},"federalState":{"key":"09","name":"Bayern"}},{"name":"Vogelstr.","postalCode":"92421","locality":"Schwandorf","municipality":{"key":"09376161","name":"Schwandorf, GKSt","type":"Große_Kreisstadt"},"district":{"key":"09376","name":"Schwandorf","type":"Landkreis"},"federalState":{"key":"09","name":"Bayern"}},{"name":"Vogelweide","postalCode":"92421","locality":"Schwandorf","municipality":{"key":"09376161","name":"Schwandorf, GKSt","type":"Große_Kreisstadt"},"district":{"key":"09376","name":"Schwandorf","type":"Landkreis"},"federalState":{"key":"09","name":"Bayern"}},{"name":"Voithenbergstr.","postalCode":"92421","locality":"Schwandorf","municipality":{"key":"09376161","name":"Schwandorf, GKSt","type":"Große_Kreisstadt"},"district":{"key":"09376","name":"Schwandorf","type":"Landkreis"},"federalState":{"key":"09","name":"Bayern"}},{"name":"Voltastr.","postalCode":"92421","locality":"Schwandorf","municipality":{"key":"09376161","name":"Schwandorf, GKSt","type":"Große_Kreisstadt"},"district":{"key":"09376","name":"Schwandorf","type":"Landkreis"},"federalState":{"key":"09","name":"Bayern"}},{"name":"Vorstr.","postalCode":"92421","locality":"Schwandorf","municipality":{"key":"09376161","name":"Schwandorf, GKSt","type":"Große_Kreisstadt"},"district":{"key":"09376","name":"Schwandorf","type":"Landkreis"},"federalState":{"key":"09","name":"Bayern"}},{"name":"Wagnerhof","postalCode":"92554","locality":"Thanstein","municipality":{"key":"09376172","name":"Thanstein","type":"Kreisangehörige_Gemeinde"},"district":{"key":"09376","name":"Schwandorf","type":"Landkreis"},"federalState":{"key":"09","name":"Bayern"}},{"name":"Winklarner Str.","postalCode":"92554","locality":"Thanstein","municipality":{"key":"09376172","name":"Thanstein","type":"Kreisangehörige_Gemeinde"},"district":{"key":"09376","name":"Schwandorf","type":"Landkreis"},"federalState":{"key":"09","name":"Bayern"}},{"name":"Zeisigstr.","postalCode":"92421","locality":"Schwandorf","municipality":{"key":"09376161","name":"Schwandorf, GKSt","type":"Große_Kreisstadt"},"district":{"key":"09376","name":"Schwandorf","type":"Landkreis"},"federalState":{"key":"09","name":"Bayern"}},{"name":"Zellerstr.","postalCode":"92421","locality":"Schwandorf","municipality":{"key":"09376161","name":"Schwandorf, GKSt","type":"Große_Kreisstadt"},"district":{"key":"09376","name":"Schwandorf","type":"Landkreis"},"federalState":{"key":"09","name":"Bayern"}},{"name":"Zengerstr.","postalCode":"92421","locality":"Schwandorf","municipality":{"key":"09376161","name":"Schwandorf, GKSt","type":"Große_Kreisstadt"},"district":{"key":"09376","name":"Schwandorf","type":"Landkreis"},"federalState":{"key":"09","name":"Bayern"}},{"name":"Zeppelinstr.","postalCode":"92421","locality":"Schwandorf","municipality":{"key":"09376161","name":"Schwandorf, GKSt","type":"Große_Kreisstadt"},"district":{"key":"09376","name":"Schwandorf","type":"Landkreis"},"federalState":{"key":"09","name":"Bayern"}},{"name":"Ziegelhütte","postalCode":"92421","locality":"Schwandorf","municipality":{"key":"09376161","name":"Schwandorf, GKSt","type":"Große_Kreisstadt"},"district":{"key":"09376","name":"Schwandorf","type":"Landkreis"},"federalState":{"key":"09","name":"Bayern"}},{"name":"Zielheimer Str.","postalCode":"92421","locality":"Schwandorf","municipality":{"key":"09376161","name":"Schwandorf, GKSt","type":"Große_Kreisstadt"},"district":{"key":"09376","name":"Schwandorf","type":"Landkreis"},"federalState":{"key":"09","name":"Bayern"}},{"name":"Zugang Naab-Promenadeweg","postalCode":"92421","locality":"Schwandorf","municipality":{"key":"09376161","name":"Schwandorf, GKSt","type":"Große_Kreisstadt"},"district":{"key":"09376","name":"Schwandorf","type":"Landkreis"},"federalState":{"key":"09","name":"Bayern"}},{"name":"Zugang Naabradweg","postalCode":"92421","locality":"Schwandorf","municipality":{"key":"09376161","name":"Schwandorf, GKSt","type":"Große_Kreisstadt"},"district":{"key":"09376","name":"Schwandorf","type":"Landkreis"},"federalState":{"key":"09","name":"Bayern"}},{"name":"Zugang St.-Anna-Kapelle","postalCode":"92421","locality":"Schwandorf","municipality":{"key":"09376161","name":"Schwandorf, GKSt","type":"Große_Kreisstadt"},"district":{"key":"09376","name":"Schwandorf","type":"Landkreis"},"federalState":{"key":"09","name":"Bayern"}},{"name":"Zugang St. Martin","postalCode":"92421","locality":"Schwandorf","municipality":{"key":"09376161","name":"Schwandorf, GKSt","type":"Große_Kreisstadt"},"district":{"key":"09376","name":"Schwandorf","type":"Landkreis"},"federalState":{"key":"09","name":"Bayern"}},{"name":"Zum Anger","postalCode":"92421","locality":"Schwandorf","municipality":{"key":"09376161","name":"Schwandorf, GKSt","type":"Große_Kreisstadt"},"district":{"key":"09376","name":"Schwandorf","type":"Landkreis"},"federalState":{"key":"09","name":"Bayern"}},{"name":"Zum guten Hirten","postalCode":"92421","locality":"Schwandorf","municipality":{"key":"09376161","name":"Schwandorf, GKSt","type":"Große_Kreisstadt"},"district":{"key":"09376","name":"Schwandorf","type":"Landkreis"},"federalState":{"key":"09","name":"Bayern"}},{"name":"Zum Schmied","postalCode":"92421","locality":"Schwandorf","municipality":{"key":"09376161","name":"Schwandorf, GKSt","type":"Große_Kreisstadt"},"district":{"key":"09376","name":"Schwandorf","type":"Landkreis"},"federalState":{"key":"09","name":"Bayern"}},{"name":"Zur Furt","postalCode":"92421","locality":"Schwandorf","municipality":{"key":"09376161","name":"Schwandorf, GKSt","type":"Große_Kreisstadt"},"district":{"key":"09376","name":"Schwandorf","type":"Landkreis"},"federalState":{"key":"09","name":"Bayern"}},{"name":"Zur Kalluzen","postalCode":"92421","locality":"Schwandorf","municipality":{"key":"09376161","name":"Schwandorf, GKSt","type":"Große_Kreisstadt"},"district":{"key":"09376","name":"Schwandorf","type":"Landkreis"},"federalState":{"key":"09","name":"Bayern"}},{"name":"Zu St. Bartholomä","postalCode":"92421","locality":"Schwandorf","municipality":{"key":"09376161","name":"Schwandorf, GKSt","type":"Große_Kreisstadt"},"district":{"key":"09376","name":"Schwandorf","type":"Landkreis"},"federalState":{"key":"09","name":"Bayern"}},]