[{"name":"Am Herrengarten","postalCode":"54316","locality":"Pluwig","municipality":{"key":"07235107","name":"Pluwig","type":"Kreisangehörige_Gemeinde"},"district":{"key":"07235","name":"Trier-Saarburg","type":"Landkreis"},"federalState":{"key":"07","name":"Rheinland-Pfalz"}},{"name":"Am Johannesberg","postalCode":"54316","locality":"Pluwig","municipality":{"key":"07235107","name":"Pluwig","type":"Kreisangehörige_Gemeinde"},"district":{"key":"07235","name":"Trier-Saarburg","type":"Landkreis"},"federalState":{"key":"07","name":"Rheinland-Pfalz"}},{"name":"Auf Beenzelt","postalCode":"54316","locality":"Pluwig","municipality":{"key":"07235107","name":"Pluwig","type":"Kreisangehörige_Gemeinde"},"district":{"key":"07235","name":"Trier-Saarburg","type":"Landkreis"},"federalState":{"key":"07","name":"Rheinland-Pfalz"}},{"name":"Auf dem Wacken","postalCode":"54316","locality":"Pluwig","municipality":{"key":"07235107","name":"Pluwig","type":"Kreisangehörige_Gemeinde"},"district":{"key":"07235","name":"Trier-Saarburg","type":"Landkreis"},"federalState":{"key":"07","name":"Rheinland-Pfalz"}},{"name":"Auf Steinisch","postalCode":"54316","locality":"Pluwig","municipality":{"key":"07235107","name":"Pluwig","type":"Kreisangehörige_Gemeinde"},"district":{"key":"07235","name":"Trier-Saarburg","type":"Landkreis"},"federalState":{"key":"07","name":"Rheinland-Pfalz"}},{"name":"Bahnhofstr.","postalCode":"54316","locality":"Pluwig","municipality":{"key":"07235107","name":"Pluwig","type":"Kreisangehörige_Gemeinde"},"district":{"key":"07235","name":"Trier-Saarburg","type":"Landkreis"},"federalState":{"key":"07","name":"Rheinland-Pfalz"}},{"name":"Bergstr.","postalCode":"54316","locality":"Pluwig","municipality":{"key":"07235107","name":"Pluwig","type":"Kreisangehörige_Gemeinde"},"district":{"key":"07235","name":"Trier-Saarburg","type":"Landkreis"},"federalState":{"key":"07","name":"Rheinland-Pfalz"}},{"name":"Brunnenweg","postalCode":"54316","locality":"Pluwig","municipality":{"key":"07235107","name":"Pluwig","type":"Kreisangehörige_Gemeinde"},"district":{"key":"07235","name":"Trier-Saarburg","type":"Landkreis"},"federalState":{"key":"07","name":"Rheinland-Pfalz"}},{"name":"Dorfplatz","postalCode":"54316","locality":"Pluwig","municipality":{"key":"07235107","name":"Pluwig","type":"Kreisangehörige_Gemeinde"},"district":{"key":"07235","name":"Trier-Saarburg","type":"Landkreis"},"federalState":{"key":"07","name":"Rheinland-Pfalz"}},{"name":"Franzenheimer Str.","postalCode":"54316","locality":"Pluwig","municipality":{"key":"07235107","name":"Pluwig","type":"Kreisangehörige_Gemeinde"},"district":{"key":"07235","name":"Trier-Saarburg","type":"Landkreis"},"federalState":{"key":"07","name":"Rheinland-Pfalz"}},{"name":"Gartenstr.","postalCode":"54316","locality":"Pluwig","municipality":{"key":"07235107","name":"Pluwig","type":"Kreisangehörige_Gemeinde"},"district":{"key":"07235","name":"Trier-Saarburg","type":"Landkreis"},"federalState":{"key":"07","name":"Rheinland-Pfalz"}},{"name":"Grawertstr.","postalCode":"54316","locality":"Pluwig","municipality":{"key":"07235107","name":"Pluwig","type":"Kreisangehörige_Gemeinde"},"district":{"key":"07235","name":"Trier-Saarburg","type":"Landkreis"},"federalState":{"key":"07","name":"Rheinland-Pfalz"}},{"name":"Gusterather Str.","postalCode":"54316","locality":"Pluwig","municipality":{"key":"07235107","name":"Pluwig","type":"Kreisangehörige_Gemeinde"},"district":{"key":"07235","name":"Trier-Saarburg","type":"Landkreis"},"federalState":{"key":"07","name":"Rheinland-Pfalz"}},{"name":"Im Ecken","postalCode":"54316","locality":"Pluwig","municipality":{"key":"07235107","name":"Pluwig","type":"Kreisangehörige_Gemeinde"},"district":{"key":"07235","name":"Trier-Saarburg","type":"Landkreis"},"federalState":{"key":"07","name":"Rheinland-Pfalz"}},{"name":"Im Hargarten","postalCode":"54316","locality":"Pluwig","municipality":{"key":"07235107","name":"Pluwig","type":"Kreisangehörige_Gemeinde"},"district":{"key":"07235","name":"Trier-Saarburg","type":"Landkreis"},"federalState":{"key":"07","name":"Rheinland-Pfalz"}},{"name":"In der Aetel","postalCode":"54316","locality":"Pluwig","municipality":{"key":"07235107","name":"Pluwig","type":"Kreisangehörige_Gemeinde"},"district":{"key":"07235","name":"Trier-Saarburg","type":"Landkreis"},"federalState":{"key":"07","name":"Rheinland-Pfalz"}},{"name":"In der Karlwies","postalCode":"54316","locality":"Pluwig","municipality":{"key":"07235107","name":"Pluwig","type":"Kreisangehörige_Gemeinde"},"district":{"key":"07235","name":"Trier-Saarburg","type":"Landkreis"},"federalState":{"key":"07","name":"Rheinland-Pfalz"}},{"name":"In der Sauerwies","postalCode":"54316","locality":"Pluwig","municipality":{"key":"07235107","name":"Pluwig","type":"Kreisangehörige_Gemeinde"},"district":{"key":"07235","name":"Trier-Saarburg","type":"Landkreis"},"federalState":{"key":"07","name":"Rheinland-Pfalz"}},{"name":"In der Weidenwies","postalCode":"54316","locality":"Pluwig","municipality":{"key":"07235107","name":"Pluwig","type":"Kreisangehörige_Gemeinde"},"district":{"key":"07235","name":"Trier-Saarburg","type":"Landkreis"},"federalState":{"key":"07","name":"Rheinland-Pfalz"}},{"name":"Kapellenstr.","postalCode":"54316","locality":"Pluwig","municipality":{"key":"07235107","name":"Pluwig","type":"Kreisangehörige_Gemeinde"},"district":{"key":"07235","name":"Trier-Saarburg","type":"Landkreis"},"federalState":{"key":"07","name":"Rheinland-Pfalz"}},{"name":"Karl-May-Weg","postalCode":"54316","locality":"Pluwig","municipality":{"key":"07235107","name":"Pluwig","type":"Kreisangehörige_Gemeinde"},"district":{"key":"07235","name":"Trier-Saarburg","type":"Landkreis"},"federalState":{"key":"07","name":"Rheinland-Pfalz"}},{"name":"Kirchenpfad","postalCode":"54316","locality":"Pluwig","municipality":{"key":"07235107","name":"Pluwig","type":"Kreisangehörige_Gemeinde"},"district":{"key":"07235","name":"Trier-Saarburg","type":"Landkreis"},"federalState":{"key":"07","name":"Rheinland-Pfalz"}},{"name":"Kirchstr.","postalCode":"54316","locality":"Pluwig","municipality":{"key":"07235107","name":"Pluwig","type":"Kreisangehörige_Gemeinde"},"district":{"key":"07235","name":"Trier-Saarburg","type":"Landkreis"},"federalState":{"key":"07","name":"Rheinland-Pfalz"}},{"name":"Kreuzgarten","postalCode":"54316","locality":"Pluwig","municipality":{"key":"07235107","name":"Pluwig","type":"Kreisangehörige_Gemeinde"},"district":{"key":"07235","name":"Trier-Saarburg","type":"Landkreis"},"federalState":{"key":"07","name":"Rheinland-Pfalz"}},{"name":"Mäuswäldchen","postalCode":"54316","locality":"Pluwig","municipality":{"key":"07235107","name":"Pluwig","type":"Kreisangehörige_Gemeinde"},"district":{"key":"07235","name":"Trier-Saarburg","type":"Landkreis"},"federalState":{"key":"07","name":"Rheinland-Pfalz"}},{"name":"Pluwig-Hammer","postalCode":"54316","locality":"Pluwig","municipality":{"key":"07235107","name":"Pluwig","type":"Kreisangehörige_Gemeinde"},"district":{"key":"07235","name":"Trier-Saarburg","type":"Landkreis"},"federalState":{"key":"07","name":"Rheinland-Pfalz"}},{"name":"Privatweg","postalCode":"54316","locality":"Pluwig","municipality":{"key":"07235107","name":"Pluwig","type":"Kreisangehörige_Gemeinde"},"district":{"key":"07235","name":"Trier-Saarburg","type":"Landkreis"},"federalState":{"key":"07","name":"Rheinland-Pfalz"}},{"name":"Raiffeisenstr.","postalCode":"54316","locality":"Pluwig","municipality":{"key":"07235107","name":"Pluwig","type":"Kreisangehörige_Gemeinde"},"district":{"key":"07235","name":"Trier-Saarburg","type":"Landkreis"},"federalState":{"key":"07","name":"Rheinland-Pfalz"}},{"name":"Ringstr.","postalCode":"54316","locality":"Pluwig","municipality":{"key":"07235107","name":"Pluwig","type":"Kreisangehörige_Gemeinde"},"district":{"key":"07235","name":"Trier-Saarburg","type":"Landkreis"},"federalState":{"key":"07","name":"Rheinland-Pfalz"}},{"name":"Ruwerstr.","postalCode":"54316","locality":"Pluwig","municipality":{"key":"07235107","name":"Pluwig","type":"Kreisangehörige_Gemeinde"},"district":{"key":"07235","name":"Trier-Saarburg","type":"Landkreis"},"federalState":{"key":"07","name":"Rheinland-Pfalz"}},{"name":"Spatelweg","postalCode":"54316","locality":"Pluwig","municipality":{"key":"07235107","name":"Pluwig","type":"Kreisangehörige_Gemeinde"},"district":{"key":"07235","name":"Trier-Saarburg","type":"Landkreis"},"federalState":{"key":"07","name":"Rheinland-Pfalz"}},{"name":"St. Johannes Str.","postalCode":"54316","locality":"Pluwig","municipality":{"key":"07235107","name":"Pluwig","type":"Kreisangehörige_Gemeinde"},"district":{"key":"07235","name":"Trier-Saarburg","type":"Landkreis"},"federalState":{"key":"07","name":"Rheinland-Pfalz"}},{"name":"Trierer Str.","postalCode":"54316","locality":"Pluwig","municipality":{"key":"07235107","name":"Pluwig","type":"Kreisangehörige_Gemeinde"},"district":{"key":"07235","name":"Trier-Saarburg","type":"Landkreis"},"federalState":{"key":"07","name":"Rheinland-Pfalz"}},{"name":"Walburgastr.","postalCode":"54316","locality":"Pluwig","municipality":{"key":"07235107","name":"Pluwig","type":"Kreisangehörige_Gemeinde"},"district":{"key":"07235","name":"Trier-Saarburg","type":"Landkreis"},"federalState":{"key":"07","name":"Rheinland-Pfalz"}},{"name":"Willmericher Str.","postalCode":"54316","locality":"Pluwig","municipality":{"key":"07235107","name":"Pluwig","type":"Kreisangehörige_Gemeinde"},"district":{"key":"07235","name":"Trier-Saarburg","type":"Landkreis"},"federalState":{"key":"07","name":"Rheinland-Pfalz"}},{"name":"Wilzenburger Str.","postalCode":"54316","locality":"Pluwig","municipality":{"key":"07235107","name":"Pluwig","type":"Kreisangehörige_Gemeinde"},"district":{"key":"07235","name":"Trier-Saarburg","type":"Landkreis"},"federalState":{"key":"07","name":"Rheinland-Pfalz"}},]