[{"name":"An der Tränke","postalCode":"99947","locality":"Tottleben","municipality":{"key":"16064062","name":"Tottleben","type":"Kreisangehörige_Gemeinde"},"district":{"key":"16064","name":"Unstrut-Hainich-Kreis","type":"Landkreis"},"federalState":{"key":"16","name":"Thüringen"}},{"name":"ehem. Bahnstrecke Bad Langensalza–Haussömmern","postalCode":"99947","locality":"Tottleben","municipality":{"key":"16064062","name":"Tottleben","type":"Kreisangehörige_Gemeinde"},"district":{"key":"16064","name":"Unstrut-Hainich-Kreis","type":"Landkreis"},"federalState":{"key":"16","name":"Thüringen"}},{"name":"Friedhofstr.","postalCode":"99947","locality":"Tottleben","municipality":{"key":"16064062","name":"Tottleben","type":"Kreisangehörige_Gemeinde"},"district":{"key":"16064","name":"Unstrut-Hainich-Kreis","type":"Landkreis"},"federalState":{"key":"16","name":"Thüringen"}},{"name":"Große Gasse","postalCode":"99947","locality":"Tottleben","municipality":{"key":"16064062","name":"Tottleben","type":"Kreisangehörige_Gemeinde"},"district":{"key":"16064","name":"Unstrut-Hainich-Kreis","type":"Landkreis"},"federalState":{"key":"16","name":"Thüringen"}},{"name":"Hauptstr.","postalCode":"99947","locality":"Tottleben","municipality":{"key":"16064062","name":"Tottleben","type":"Kreisangehörige_Gemeinde"},"district":{"key":"16064","name":"Unstrut-Hainich-Kreis","type":"Landkreis"},"federalState":{"key":"16","name":"Thüringen"}},{"name":"Hinter dem Hofegarten","postalCode":"99947","locality":"Tottleben","municipality":{"key":"16064062","name":"Tottleben","type":"Kreisangehörige_Gemeinde"},"district":{"key":"16064","name":"Unstrut-Hainich-Kreis","type":"Landkreis"},"federalState":{"key":"16","name":"Thüringen"}},{"name":"Hinter der Hecke","postalCode":"99947","locality":"Tottleben","municipality":{"key":"16064062","name":"Tottleben","type":"Kreisangehörige_Gemeinde"},"district":{"key":"16064","name":"Unstrut-Hainich-Kreis","type":"Landkreis"},"federalState":{"key":"16","name":"Thüringen"}},{"name":"Kleine Gasse","postalCode":"99947","locality":"Tottleben","municipality":{"key":"16064062","name":"Tottleben","type":"Kreisangehörige_Gemeinde"},"district":{"key":"16064","name":"Unstrut-Hainich-Kreis","type":"Landkreis"},"federalState":{"key":"16","name":"Thüringen"}},{"name":"Niederhofstr.","postalCode":"99947","locality":"Tottleben","municipality":{"key":"16064062","name":"Tottleben","type":"Kreisangehörige_Gemeinde"},"district":{"key":"16064","name":"Unstrut-Hainich-Kreis","type":"Landkreis"},"federalState":{"key":"16","name":"Thüringen"}},{"name":"Zeitgasse","postalCode":"99947","locality":"Tottleben","municipality":{"key":"16064062","name":"Tottleben","type":"Kreisangehörige_Gemeinde"},"district":{"key":"16064","name":"Unstrut-Hainich-Kreis","type":"Landkreis"},"federalState":{"key":"16","name":"Thüringen"}},]