[{"name":"Am Sonnenhang","postalCode":"57520","locality":"Derschen","municipality":{"key":"07132019","name":"Derschen","type":"Kreisangehörige_Gemeinde"},"district":{"key":"07132","name":"Altenkirchen (Westerwald)","type":"Landkreis"},"federalState":{"key":"07","name":"Rheinland-Pfalz"}},{"name":"Auf der Erbesbitz","postalCode":"57520","locality":"Derschen","municipality":{"key":"07132019","name":"Derschen","type":"Kreisangehörige_Gemeinde"},"district":{"key":"07132","name":"Altenkirchen (Westerwald)","type":"Landkreis"},"federalState":{"key":"07","name":"Rheinland-Pfalz"}},{"name":"Auf der Kombitz","postalCode":"57520","locality":"Derschen","municipality":{"key":"07132019","name":"Derschen","type":"Kreisangehörige_Gemeinde"},"district":{"key":"07132","name":"Altenkirchen (Westerwald)","type":"Landkreis"},"federalState":{"key":"07","name":"Rheinland-Pfalz"}},{"name":"Auf der Kornbitz","postalCode":"57520","locality":"Derschen","municipality":{"key":"07132019","name":"Derschen","type":"Kreisangehörige_Gemeinde"},"district":{"key":"07132","name":"Altenkirchen (Westerwald)","type":"Landkreis"},"federalState":{"key":"07","name":"Rheinland-Pfalz"}},{"name":"Daadener Str.","postalCode":"57520","locality":"Derschen","municipality":{"key":"07132019","name":"Derschen","type":"Kreisangehörige_Gemeinde"},"district":{"key":"07132","name":"Altenkirchen (Westerwald)","type":"Landkreis"},"federalState":{"key":"07","name":"Rheinland-Pfalz"}},{"name":"Friedewälder Str.","postalCode":"57520","locality":"Derschen","municipality":{"key":"07132019","name":"Derschen","type":"Kreisangehörige_Gemeinde"},"district":{"key":"07132","name":"Altenkirchen (Westerwald)","type":"Landkreis"},"federalState":{"key":"07","name":"Rheinland-Pfalz"}},{"name":"Im Bierfass","postalCode":"57520","locality":"Derschen","municipality":{"key":"07132019","name":"Derschen","type":"Kreisangehörige_Gemeinde"},"district":{"key":"07132","name":"Altenkirchen (Westerwald)","type":"Landkreis"},"federalState":{"key":"07","name":"Rheinland-Pfalz"}},{"name":"Im Eiselbett","postalCode":"57520","locality":"Derschen","municipality":{"key":"07132019","name":"Derschen","type":"Kreisangehörige_Gemeinde"},"district":{"key":"07132","name":"Altenkirchen (Westerwald)","type":"Landkreis"},"federalState":{"key":"07","name":"Rheinland-Pfalz"}},{"name":"Im Gewerbegebiet","postalCode":"57520","locality":"Derschen","municipality":{"key":"07132019","name":"Derschen","type":"Kreisangehörige_Gemeinde"},"district":{"key":"07132","name":"Altenkirchen (Westerwald)","type":"Landkreis"},"federalState":{"key":"07","name":"Rheinland-Pfalz"}},{"name":"Im Neuen Garten","postalCode":"57520","locality":"Derschen","municipality":{"key":"07132019","name":"Derschen","type":"Kreisangehörige_Gemeinde"},"district":{"key":"07132","name":"Altenkirchen (Westerwald)","type":"Landkreis"},"federalState":{"key":"07","name":"Rheinland-Pfalz"}},{"name":"In der Trift","postalCode":"57520","locality":"Derschen","municipality":{"key":"07132019","name":"Derschen","type":"Kreisangehörige_Gemeinde"},"district":{"key":"07132","name":"Altenkirchen (Westerwald)","type":"Landkreis"},"federalState":{"key":"07","name":"Rheinland-Pfalz"}},{"name":"Kirchweg","postalCode":"57520","locality":"Derschen","municipality":{"key":"07132019","name":"Derschen","type":"Kreisangehörige_Gemeinde"},"district":{"key":"07132","name":"Altenkirchen (Westerwald)","type":"Landkreis"},"federalState":{"key":"07","name":"Rheinland-Pfalz"}},{"name":"Maudener Weg","postalCode":"57520","locality":"Derschen","municipality":{"key":"07132019","name":"Derschen","type":"Kreisangehörige_Gemeinde"},"district":{"key":"07132","name":"Altenkirchen (Westerwald)","type":"Landkreis"},"federalState":{"key":"07","name":"Rheinland-Pfalz"}},{"name":"Mühlweg","postalCode":"57520","locality":"Derschen","municipality":{"key":"07132019","name":"Derschen","type":"Kreisangehörige_Gemeinde"},"district":{"key":"07132","name":"Altenkirchen (Westerwald)","type":"Landkreis"},"federalState":{"key":"07","name":"Rheinland-Pfalz"}},{"name":"Schmiedengasse","postalCode":"57520","locality":"Derschen","municipality":{"key":"07132019","name":"Derschen","type":"Kreisangehörige_Gemeinde"},"district":{"key":"07132","name":"Altenkirchen (Westerwald)","type":"Landkreis"},"federalState":{"key":"07","name":"Rheinland-Pfalz"}},{"name":"Talstr.","postalCode":"57520","locality":"Derschen","municipality":{"key":"07132019","name":"Derschen","type":"Kreisangehörige_Gemeinde"},"district":{"key":"07132","name":"Altenkirchen (Westerwald)","type":"Landkreis"},"federalState":{"key":"07","name":"Rheinland-Pfalz"}},{"name":"Wehrhölzchen","postalCode":"57520","locality":"Derschen","municipality":{"key":"07132019","name":"Derschen","type":"Kreisangehörige_Gemeinde"},"district":{"key":"07132","name":"Altenkirchen (Westerwald)","type":"Landkreis"},"federalState":{"key":"07","name":"Rheinland-Pfalz"}},{"name":"Wiesenstr.","postalCode":"57520","locality":"Derschen","municipality":{"key":"07132019","name":"Derschen","type":"Kreisangehörige_Gemeinde"},"district":{"key":"07132","name":"Altenkirchen (Westerwald)","type":"Landkreis"},"federalState":{"key":"07","name":"Rheinland-Pfalz"}},{"name":"Zur Burg","postalCode":"57520","locality":"Derschen","municipality":{"key":"07132019","name":"Derschen","type":"Kreisangehörige_Gemeinde"},"district":{"key":"07132","name":"Altenkirchen (Westerwald)","type":"Landkreis"},"federalState":{"key":"07","name":"Rheinland-Pfalz"}},]