[{"name":"Am Hübel","postalCode":"66909","locality":"Nanzdietschweiler","municipality":{"key":"07336064","name":"Nanzdietschweiler","type":"Kreisangehörige_Gemeinde"},"district":{"key":"07336","name":"Kusel","type":"Landkreis"},"federalState":{"key":"07","name":"Rheinland-Pfalz"}},{"name":"Am Mühlberg","postalCode":"66909","locality":"Nanzdietschweiler","municipality":{"key":"07336064","name":"Nanzdietschweiler","type":"Kreisangehörige_Gemeinde"},"district":{"key":"07336","name":"Kusel","type":"Landkreis"},"federalState":{"key":"07","name":"Rheinland-Pfalz"}},{"name":"An der Heck","postalCode":"66909","locality":"Nanzdietschweiler","municipality":{"key":"07336064","name":"Nanzdietschweiler","type":"Kreisangehörige_Gemeinde"},"district":{"key":"07336","name":"Kusel","type":"Landkreis"},"federalState":{"key":"07","name":"Rheinland-Pfalz"}},{"name":"Auf der Wethau","postalCode":"66909","locality":"Nanzdietschweiler","municipality":{"key":"07336064","name":"Nanzdietschweiler","type":"Kreisangehörige_Gemeinde"},"district":{"key":"07336","name":"Kusel","type":"Landkreis"},"federalState":{"key":"07","name":"Rheinland-Pfalz"}},{"name":"Backgraben","postalCode":"66909","locality":"Nanzdietschweiler","municipality":{"key":"07336064","name":"Nanzdietschweiler","type":"Kreisangehörige_Gemeinde"},"district":{"key":"07336","name":"Kusel","type":"Landkreis"},"federalState":{"key":"07","name":"Rheinland-Pfalz"}},{"name":"Bahnhofstr.","postalCode":"66909","locality":"Nanzdietschweiler","municipality":{"key":"07336064","name":"Nanzdietschweiler","type":"Kreisangehörige_Gemeinde"},"district":{"key":"07336","name":"Kusel","type":"Landkreis"},"federalState":{"key":"07","name":"Rheinland-Pfalz"}},{"name":"Bergstr.","postalCode":"66909","locality":"Nanzdietschweiler","municipality":{"key":"07336064","name":"Nanzdietschweiler","type":"Kreisangehörige_Gemeinde"},"district":{"key":"07336","name":"Kusel","type":"Landkreis"},"federalState":{"key":"07","name":"Rheinland-Pfalz"}},{"name":"Birkenweg","postalCode":"66909","locality":"Nanzdietschweiler","municipality":{"key":"07336064","name":"Nanzdietschweiler","type":"Kreisangehörige_Gemeinde"},"district":{"key":"07336","name":"Kusel","type":"Landkreis"},"federalState":{"key":"07","name":"Rheinland-Pfalz"}},{"name":"Börsborner Str.","postalCode":"66909","locality":"Nanzdietschweiler","municipality":{"key":"07336064","name":"Nanzdietschweiler","type":"Kreisangehörige_Gemeinde"},"district":{"key":"07336","name":"Kusel","type":"Landkreis"},"federalState":{"key":"07","name":"Rheinland-Pfalz"}},{"name":"Breitenauer Weg","postalCode":"66909","locality":"Nanzdietschweiler","municipality":{"key":"07336064","name":"Nanzdietschweiler","type":"Kreisangehörige_Gemeinde"},"district":{"key":"07336","name":"Kusel","type":"Landkreis"},"federalState":{"key":"07","name":"Rheinland-Pfalz"}},{"name":"Christian-Böhmer-Weg","postalCode":"66869","locality":"Kusel","municipality":{"key":"07336055","name":"Kusel, Stadt","type":"Stadt"},"district":{"key":"07336","name":"Kusel","type":"Landkreis"},"federalState":{"key":"07","name":"Rheinland-Pfalz"}},{"name":"Danziger Str.","postalCode":"66869","locality":"Kusel","municipality":{"key":"07336055","name":"Kusel, Stadt","type":"Stadt"},"district":{"key":"07336","name":"Kusel","type":"Landkreis"},"federalState":{"key":"07","name":"Rheinland-Pfalz"}},{"name":"Dr.-Albert-Jung-Str.","postalCode":"66869","locality":"Kusel","municipality":{"key":"07336055","name":"Kusel, Stadt","type":"Stadt"},"district":{"key":"07336","name":"Kusel","type":"Landkreis"},"federalState":{"key":"07","name":"Rheinland-Pfalz"}},{"name":"Eichenweg","postalCode":"66909","locality":"Nanzdietschweiler","municipality":{"key":"07336064","name":"Nanzdietschweiler","type":"Kreisangehörige_Gemeinde"},"district":{"key":"07336","name":"Kusel","type":"Landkreis"},"federalState":{"key":"07","name":"Rheinland-Pfalz"}},{"name":"Erlenweg","postalCode":"66909","locality":"Nanzdietschweiler","municipality":{"key":"07336064","name":"Nanzdietschweiler","type":"Kreisangehörige_Gemeinde"},"district":{"key":"07336","name":"Kusel","type":"Landkreis"},"federalState":{"key":"07","name":"Rheinland-Pfalz"}},{"name":"Feldstr.","postalCode":"66909","locality":"Nanzdietschweiler","municipality":{"key":"07336064","name":"Nanzdietschweiler","type":"Kreisangehörige_Gemeinde"},"district":{"key":"07336","name":"Kusel","type":"Landkreis"},"federalState":{"key":"07","name":"Rheinland-Pfalz"}},{"name":"Felsenstr.","postalCode":"66909","locality":"Nanzdietschweiler","municipality":{"key":"07336064","name":"Nanzdietschweiler","type":"Kreisangehörige_Gemeinde"},"district":{"key":"07336","name":"Kusel","type":"Landkreis"},"federalState":{"key":"07","name":"Rheinland-Pfalz"}},{"name":"Friedhofstr.","postalCode":"66909","locality":"Nanzdietschweiler","municipality":{"key":"07336064","name":"Nanzdietschweiler","type":"Kreisangehörige_Gemeinde"},"district":{"key":"07336","name":"Kusel","type":"Landkreis"},"federalState":{"key":"07","name":"Rheinland-Pfalz"}},{"name":"Glanstr.","postalCode":"66909","locality":"Nanzdietschweiler","municipality":{"key":"07336064","name":"Nanzdietschweiler","type":"Kreisangehörige_Gemeinde"},"district":{"key":"07336","name":"Kusel","type":"Landkreis"},"federalState":{"key":"07","name":"Rheinland-Pfalz"}},{"name":"Glantalbahn","postalCode":"66909","locality":"Nanzdietschweiler","municipality":{"key":"07336064","name":"Nanzdietschweiler","type":"Kreisangehörige_Gemeinde"},"district":{"key":"07336","name":"Kusel","type":"Landkreis"},"federalState":{"key":"07","name":"Rheinland-Pfalz"}},{"name":"Hauptstr.","postalCode":"66909","locality":"Nanzdietschweiler","municipality":{"key":"07336064","name":"Nanzdietschweiler","type":"Kreisangehörige_Gemeinde"},"district":{"key":"07336","name":"Kusel","type":"Landkreis"},"federalState":{"key":"07","name":"Rheinland-Pfalz"}},{"name":"Hofstr.","postalCode":"66909","locality":"Nanzdietschweiler","municipality":{"key":"07336064","name":"Nanzdietschweiler","type":"Kreisangehörige_Gemeinde"},"district":{"key":"07336","name":"Kusel","type":"Landkreis"},"federalState":{"key":"07","name":"Rheinland-Pfalz"}},{"name":"Im Eck","postalCode":"66909","locality":"Nanzdietschweiler","municipality":{"key":"07336064","name":"Nanzdietschweiler","type":"Kreisangehörige_Gemeinde"},"district":{"key":"07336","name":"Kusel","type":"Landkreis"},"federalState":{"key":"07","name":"Rheinland-Pfalz"}},{"name":"Katzenbacherstr.","postalCode":"66909","locality":"Nanzdietschweiler","municipality":{"key":"07336064","name":"Nanzdietschweiler","type":"Kreisangehörige_Gemeinde"},"district":{"key":"07336","name":"Kusel","type":"Landkreis"},"federalState":{"key":"07","name":"Rheinland-Pfalz"}},{"name":"Kirchstr.","postalCode":"66909","locality":"Nanzdietschweiler","municipality":{"key":"07336064","name":"Nanzdietschweiler","type":"Kreisangehörige_Gemeinde"},"district":{"key":"07336","name":"Kusel","type":"Landkreis"},"federalState":{"key":"07","name":"Rheinland-Pfalz"}},{"name":"Kreuzstr.","postalCode":"66909","locality":"Nanzdietschweiler","municipality":{"key":"07336064","name":"Nanzdietschweiler","type":"Kreisangehörige_Gemeinde"},"district":{"key":"07336","name":"Kusel","type":"Landkreis"},"federalState":{"key":"07","name":"Rheinland-Pfalz"}},{"name":"Kurpfalzstr.","postalCode":"66909","locality":"Nanzdietschweiler","municipality":{"key":"07336064","name":"Nanzdietschweiler","type":"Kreisangehörige_Gemeinde"},"district":{"key":"07336","name":"Kusel","type":"Landkreis"},"federalState":{"key":"07","name":"Rheinland-Pfalz"}},{"name":"Landschaftsstr.","postalCode":"66869","locality":"Kusel","municipality":{"key":"07336055","name":"Kusel, Stadt","type":"Stadt"},"district":{"key":"07336","name":"Kusel","type":"Landkreis"},"federalState":{"key":"07","name":"Rheinland-Pfalz"}},{"name":"Lehnstaffel","postalCode":"66869","locality":"Kusel","municipality":{"key":"07336055","name":"Kusel, Stadt","type":"Stadt"},"district":{"key":"07336","name":"Kusel","type":"Landkreis"},"federalState":{"key":"07","name":"Rheinland-Pfalz"}},{"name":"Lehnstr.","postalCode":"66869","locality":"Kusel","municipality":{"key":"07336055","name":"Kusel, Stadt","type":"Stadt"},"district":{"key":"07336","name":"Kusel","type":"Landkreis"},"federalState":{"key":"07","name":"Rheinland-Pfalz"}},{"name":"Luitpoldstr.","postalCode":"66869","locality":"Kusel","municipality":{"key":"07336055","name":"Kusel, Stadt","type":"Stadt"},"district":{"key":"07336","name":"Kusel","type":"Landkreis"},"federalState":{"key":"07","name":"Rheinland-Pfalz"}},{"name":"Mühlpfad","postalCode":"66909","locality":"Nanzdietschweiler","municipality":{"key":"07336064","name":"Nanzdietschweiler","type":"Kreisangehörige_Gemeinde"},"district":{"key":"07336","name":"Kusel","type":"Landkreis"},"federalState":{"key":"07","name":"Rheinland-Pfalz"}},{"name":"Niedermohrer Str.","postalCode":"66909","locality":"Nanzdietschweiler","municipality":{"key":"07336064","name":"Nanzdietschweiler","type":"Kreisangehörige_Gemeinde"},"district":{"key":"07336","name":"Kusel","type":"Landkreis"},"federalState":{"key":"07","name":"Rheinland-Pfalz"}},{"name":"Oberer Holler","postalCode":"66869","locality":"Kusel","municipality":{"key":"07336055","name":"Kusel, Stadt","type":"Stadt"},"district":{"key":"07336","name":"Kusel","type":"Landkreis"},"federalState":{"key":"07","name":"Rheinland-Pfalz"}},{"name":"Park Toucy","postalCode":"66869","locality":"Kusel","municipality":{"key":"07336055","name":"Kusel, Stadt","type":"Stadt"},"district":{"key":"07336","name":"Kusel","type":"Landkreis"},"federalState":{"key":"07","name":"Rheinland-Pfalz"}},{"name":"Paul-Münch-Str.","postalCode":"66869","locality":"Kusel","municipality":{"key":"07336055","name":"Kusel, Stadt","type":"Stadt"},"district":{"key":"07336","name":"Kusel","type":"Landkreis"},"federalState":{"key":"07","name":"Rheinland-Pfalz"}},{"name":"Ringstr.","postalCode":"66909","locality":"Nanzdietschweiler","municipality":{"key":"07336064","name":"Nanzdietschweiler","type":"Kreisangehörige_Gemeinde"},"district":{"key":"07336","name":"Kusel","type":"Landkreis"},"federalState":{"key":"07","name":"Rheinland-Pfalz"}},{"name":"Schulstr.","postalCode":"66909","locality":"Nanzdietschweiler","municipality":{"key":"07336064","name":"Nanzdietschweiler","type":"Kreisangehörige_Gemeinde"},"district":{"key":"07336","name":"Kusel","type":"Landkreis"},"federalState":{"key":"07","name":"Rheinland-Pfalz"}},{"name":"Sonnenberg","postalCode":"66909","locality":"Nanzdietschweiler","municipality":{"key":"07336064","name":"Nanzdietschweiler","type":"Kreisangehörige_Gemeinde"},"district":{"key":"07336","name":"Kusel","type":"Landkreis"},"federalState":{"key":"07","name":"Rheinland-Pfalz"}},{"name":"Talstr.","postalCode":"66909","locality":"Nanzdietschweiler","municipality":{"key":"07336064","name":"Nanzdietschweiler","type":"Kreisangehörige_Gemeinde"},"district":{"key":"07336","name":"Kusel","type":"Landkreis"},"federalState":{"key":"07","name":"Rheinland-Pfalz"}},{"name":"Unterm Feist","postalCode":"66869","locality":"Kusel","municipality":{"key":"07336055","name":"Kusel, Stadt","type":"Stadt"},"district":{"key":"07336","name":"Kusel","type":"Landkreis"},"federalState":{"key":"07","name":"Rheinland-Pfalz"}},{"name":"Von-der-Leyen-Str.","postalCode":"66909","locality":"Nanzdietschweiler","municipality":{"key":"07336064","name":"Nanzdietschweiler","type":"Kreisangehörige_Gemeinde"},"district":{"key":"07336","name":"Kusel","type":"Landkreis"},"federalState":{"key":"07","name":"Rheinland-Pfalz"}},{"name":"Wiesenstr.","postalCode":"66909","locality":"Nanzdietschweiler","municipality":{"key":"07336064","name":"Nanzdietschweiler","type":"Kreisangehörige_Gemeinde"},"district":{"key":"07336","name":"Kusel","type":"Landkreis"},"federalState":{"key":"07","name":"Rheinland-Pfalz"}},{"name":"Zalaweg","postalCode":"66869","locality":"Kusel","municipality":{"key":"07336055","name":"Kusel, Stadt","type":"Stadt"},"district":{"key":"07336","name":"Kusel","type":"Landkreis"},"federalState":{"key":"07","name":"Rheinland-Pfalz"}},{"name":"Zieselbach","postalCode":"66869","locality":"Kusel","municipality":{"key":"07336055","name":"Kusel, Stadt","type":"Stadt"},"district":{"key":"07336","name":"Kusel","type":"Landkreis"},"federalState":{"key":"07","name":"Rheinland-Pfalz"}},{"name":"Zum halben Mond","postalCode":"66869","locality":"Kusel","municipality":{"key":"07336055","name":"Kusel, Stadt","type":"Stadt"},"district":{"key":"07336","name":"Kusel","type":"Landkreis"},"federalState":{"key":"07","name":"Rheinland-Pfalz"}},{"name":"Zur Winterhelle","postalCode":"66869","locality":"Kusel","municipality":{"key":"07336055","name":"Kusel, Stadt","type":"Stadt"},"district":{"key":"07336","name":"Kusel","type":"Landkreis"},"federalState":{"key":"07","name":"Rheinland-Pfalz"}},]