[{"key":"10075213","name":"Bügls Suot","postalCode":"7502","locality":"Bever","commune":{"key":"3781","name":"Bever","shortName":"Bever"},"district":{"key":"1846","name":"Region Maloja"},"canton":{"key":"18","code":"GR","name":"Graubünden / Grigioni / Grischun"},"status":"Real"},{"key":"10130021","name":"Chà d'Mez","postalCode":"7502","locality":"Bever","commune":{"key":"3781","name":"Bever","shortName":"Bever"},"district":{"key":"1846","name":"Region Maloja"},"canton":{"key":"18","code":"GR","name":"Graubünden / Grigioni / Grischun"},"status":"Real"},{"key":"10111532","name":"Chà Suot","postalCode":"7502","locality":"Bever","commune":{"key":"3781","name":"Bever","shortName":"Bever"},"district":{"key":"1846","name":"Region Maloja"},"canton":{"key":"18","code":"GR","name":"Graubünden / Grigioni / Grischun"},"status":"Real"},{"key":"10038992","name":"Chà Sur","postalCode":"7502","locality":"Bever","commune":{"key":"3781","name":"Bever","shortName":"Bever"},"district":{"key":"1846","name":"Region Maloja"},"canton":{"key":"18","code":"GR","name":"Graubünden / Grigioni / Grischun"},"status":"Real"},{"key":"10103220","name":"Chaunt Fuorn","postalCode":"7502","locality":"Bever","commune":{"key":"3781","name":"Bever","shortName":"Bever"},"district":{"key":"1846","name":"Region Maloja"},"canton":{"key":"18","code":"GR","name":"Graubünden / Grigioni / Grischun"},"status":"Real"},{"key":"10257802","name":"Crasta Mora","postalCode":"7502","locality":"Bever","commune":{"key":"3781","name":"Bever","shortName":"Bever"},"district":{"key":"1846","name":"Region Maloja"},"canton":{"key":"18","code":"GR","name":"Graubünden / Grigioni / Grischun"},"status":"Real"},{"key":"10175197","name":"Culögnas","postalCode":"7502","locality":"Bever","commune":{"key":"3781","name":"Bever","shortName":"Bever"},"district":{"key":"1846","name":"Region Maloja"},"canton":{"key":"18","code":"GR","name":"Graubünden / Grigioni / Grischun"},"status":"Real"},{"key":"10095377","name":"Fuschigna","postalCode":"7502","locality":"Bever","commune":{"key":"3781","name":"Bever","shortName":"Bever"},"district":{"key":"1846","name":"Region Maloja"},"canton":{"key":"18","code":"GR","name":"Graubünden / Grigioni / Grischun"},"status":"Real"},{"key":"10258919","name":"Gravatscha","postalCode":"7502","locality":"Bever","commune":{"key":"3781","name":"Bever","shortName":"Bever"},"district":{"key":"1846","name":"Region Maloja"},"canton":{"key":"18","code":"GR","name":"Graubünden / Grigioni / Grischun"},"status":"Real"},{"key":"10038991","name":"Las Agnas","postalCode":"7502","locality":"Bever","commune":{"key":"3781","name":"Bever","shortName":"Bever"},"district":{"key":"1846","name":"Region Maloja"},"canton":{"key":"18","code":"GR","name":"Graubünden / Grigioni / Grischun"},"status":"Real"},{"key":"10148489","name":"Spinas","postalCode":"7502","locality":"Bever","commune":{"key":"3781","name":"Bever","shortName":"Bever"},"district":{"key":"1846","name":"Region Maloja"},"canton":{"key":"18","code":"GR","name":"Graubünden / Grigioni / Grischun"},"status":"Real"},{"key":"10216309","name":"Straglia","postalCode":"7502","locality":"Bever","commune":{"key":"3781","name":"Bever","shortName":"Bever"},"district":{"key":"1846","name":"Region Maloja"},"canton":{"key":"18","code":"GR","name":"Graubünden / Grigioni / Grischun"},"status":"Real"},{"key":"10129814","name":"Val Bever","postalCode":"7502","locality":"Bever","commune":{"key":"3781","name":"Bever","shortName":"Bever"},"district":{"key":"1846","name":"Region Maloja"},"canton":{"key":"18","code":"GR","name":"Graubünden / Grigioni / Grischun"},"status":"Real"},{"key":"10095378","name":"Via Charels Suot","postalCode":"7502","locality":"Bever","commune":{"key":"3781","name":"Bever","shortName":"Bever"},"district":{"key":"1846","name":"Region Maloja"},"canton":{"key":"18","code":"GR","name":"Graubünden / Grigioni / Grischun"},"status":"Real"},{"key":"10038993","name":"Via Charels Sur","postalCode":"7502","locality":"Bever","commune":{"key":"3781","name":"Bever","shortName":"Bever"},"district":{"key":"1846","name":"Region Maloja"},"canton":{"key":"18","code":"GR","name":"Graubünden / Grigioni / Grischun"},"status":"Real"},{"key":"10191170","name":"Via da la Resgia","postalCode":"7502","locality":"Bever","commune":{"key":"3781","name":"Bever","shortName":"Bever"},"district":{"key":"1846","name":"Region Maloja"},"canton":{"key":"18","code":"GR","name":"Graubünden / Grigioni / Grischun"},"status":"Real"},{"key":"10075215","name":"Via da Plaz","postalCode":"7502","locality":"Bever","commune":{"key":"3781","name":"Bever","shortName":"Bever"},"district":{"key":"1846","name":"Region Maloja"},"canton":{"key":"18","code":"GR","name":"Graubünden / Grigioni / Grischun"},"status":"Real"},{"key":"10185535","name":"Via Davous","postalCode":"7502","locality":"Bever","commune":{"key":"3781","name":"Bever","shortName":"Bever"},"district":{"key":"1846","name":"Region Maloja"},"canton":{"key":"18","code":"GR","name":"Graubünden / Grigioni / Grischun"},"status":"Real"},{"key":"10075214","name":"Via Isellas","postalCode":"7502","locality":"Bever","commune":{"key":"3781","name":"Bever","shortName":"Bever"},"district":{"key":"1846","name":"Region Maloja"},"canton":{"key":"18","code":"GR","name":"Graubünden / Grigioni / Grischun"},"status":"Real"},{"key":"10108190","name":"Via Lavusters","postalCode":"7502","locality":"Bever","commune":{"key":"3781","name":"Bever","shortName":"Bever"},"district":{"key":"1846","name":"Region Maloja"},"canton":{"key":"18","code":"GR","name":"Graubünden / Grigioni / Grischun"},"status":"Real"},{"key":"10038994","name":"Via Maistra","postalCode":"7502","locality":"Bever","commune":{"key":"3781","name":"Bever","shortName":"Bever"},"district":{"key":"1846","name":"Region Maloja"},"canton":{"key":"18","code":"GR","name":"Graubünden / Grigioni / Grischun"},"status":"Real"},{"key":"10132296","name":"Via Mulin","postalCode":"7502","locality":"Bever","commune":{"key":"3781","name":"Bever","shortName":"Bever"},"district":{"key":"1846","name":"Region Maloja"},"canton":{"key":"18","code":"GR","name":"Graubünden / Grigioni / Grischun"},"status":"Real"},{"key":"10257803","name":"Via Muntatsch","postalCode":"7502","locality":"Bever","commune":{"key":"3781","name":"Bever","shortName":"Bever"},"district":{"key":"1846","name":"Region Maloja"},"canton":{"key":"18","code":"GR","name":"Graubünden / Grigioni / Grischun"},"status":"Real"},{"key":"10095379","name":"Via Nouva","postalCode":"7502","locality":"Bever","commune":{"key":"3781","name":"Bever","shortName":"Bever"},"district":{"key":"1846","name":"Region Maloja"},"canton":{"key":"18","code":"GR","name":"Graubünden / Grigioni / Grischun"},"status":"Real"},{"key":"10258540","name":"Via Taverna","postalCode":"7502","locality":"Bever","commune":{"key":"3781","name":"Bever","shortName":"Bever"},"district":{"key":"1846","name":"Region Maloja"},"canton":{"key":"18","code":"GR","name":"Graubünden / Grigioni / Grischun"},"status":"Real"},]