[{"key":"10240676","name":"Aarestrasse","postalCode":"3627","locality":"Heimberg","commune":{"key":"928","name":"Heimberg","shortName":"Heimberg"},"district":{"key":"247","name":"Verwaltungskreis Thun"},"canton":{"key":"2","code":"BE","name":"Bern / Berne"},"status":"Real"},{"key":"10216721","name":"Aareweg","postalCode":"3627","locality":"Heimberg","commune":{"key":"928","name":"Heimberg","shortName":"Heimberg"},"district":{"key":"247","name":"Verwaltungskreis Thun"},"canton":{"key":"2","code":"BE","name":"Bern / Berne"},"status":"Real"},{"key":"10127081","name":"Aarhölzliweg","postalCode":"3627","locality":"Heimberg","commune":{"key":"928","name":"Heimberg","shortName":"Heimberg"},"district":{"key":"247","name":"Verwaltungskreis Thun"},"canton":{"key":"2","code":"BE","name":"Bern / Berne"},"status":"Real"},{"key":"10082895","name":"Ackerfluhweg","postalCode":"3627","locality":"Heimberg","commune":{"key":"928","name":"Heimberg","shortName":"Heimberg"},"district":{"key":"247","name":"Verwaltungskreis Thun"},"canton":{"key":"2","code":"BE","name":"Bern / Berne"},"status":"Real"},{"key":"10216728","name":"Aegelmoosweg","postalCode":"3627","locality":"Heimberg","commune":{"key":"928","name":"Heimberg","shortName":"Heimberg"},"district":{"key":"247","name":"Verwaltungskreis Thun"},"canton":{"key":"2","code":"BE","name":"Bern / Berne"},"status":"Real"},{"key":"10015343","name":"Ahornistrasse","postalCode":"3627","locality":"Heimberg","commune":{"key":"928","name":"Heimberg","shortName":"Heimberg"},"district":{"key":"247","name":"Verwaltungskreis Thun"},"canton":{"key":"2","code":"BE","name":"Bern / Berne"},"status":"Real"},{"key":"10015344","name":"Alpenblickweg","postalCode":"3627","locality":"Heimberg","commune":{"key":"928","name":"Heimberg","shortName":"Heimberg"},"district":{"key":"247","name":"Verwaltungskreis Thun"},"canton":{"key":"2","code":"BE","name":"Bern / Berne"},"status":"Real"},{"key":"10180509","name":"Alpenstrasse","postalCode":"3627","locality":"Heimberg","commune":{"key":"928","name":"Heimberg","shortName":"Heimberg"},"district":{"key":"247","name":"Verwaltungskreis Thun"},"canton":{"key":"2","code":"BE","name":"Bern / Berne"},"status":"Real"},{"key":"10249570","name":"Alte Aarestrasse","postalCode":"3627","locality":"Heimberg","commune":{"key":"928","name":"Heimberg","shortName":"Heimberg"},"district":{"key":"247","name":"Verwaltungskreis Thun"},"canton":{"key":"2","code":"BE","name":"Bern / Berne"},"status":"Real"},{"key":"10185515","name":"Amselweg","postalCode":"3627","locality":"Heimberg","commune":{"key":"928","name":"Heimberg","shortName":"Heimberg"},"district":{"key":"247","name":"Verwaltungskreis Thun"},"canton":{"key":"2","code":"BE","name":"Bern / Berne"},"status":"Real"},{"key":"10015345","name":"Auweg","postalCode":"3627","locality":"Heimberg","commune":{"key":"928","name":"Heimberg","shortName":"Heimberg"},"district":{"key":"247","name":"Verwaltungskreis Thun"},"canton":{"key":"2","code":"BE","name":"Bern / Berne"},"status":"Real"},{"key":"10082896","name":"Bahnhofstrasse","postalCode":"3627","locality":"Heimberg","commune":{"key":"928","name":"Heimberg","shortName":"Heimberg"},"district":{"key":"247","name":"Verwaltungskreis Thun"},"canton":{"key":"2","code":"BE","name":"Bern / Berne"},"status":"Real"},{"key":"10015348","name":"Bäumbergstrasse","postalCode":"3627","locality":"Heimberg","commune":{"key":"928","name":"Heimberg","shortName":"Heimberg"},"district":{"key":"247","name":"Verwaltungskreis Thun"},"canton":{"key":"2","code":"BE","name":"Bern / Berne"},"status":"Real"},{"key":"10015349","name":"Bäumbergweg","postalCode":"3627","locality":"Heimberg","commune":{"key":"928","name":"Heimberg","shortName":"Heimberg"},"district":{"key":"247","name":"Verwaltungskreis Thun"},"canton":{"key":"2","code":"BE","name":"Bern / Berne"},"status":"Real"},{"key":"10061954","name":"Bernstrasse","postalCode":"3627","locality":"Heimberg","commune":{"key":"928","name":"Heimberg","shortName":"Heimberg"},"district":{"key":"247","name":"Verwaltungskreis Thun"},"canton":{"key":"2","code":"BE","name":"Bern / Berne"},"status":"Real"},{"key":"10185514","name":"Bernstrasse","postalCode":"3627","locality":"Heimberg","commune":{"key":"928","name":"Heimberg","shortName":"Heimberg"},"district":{"key":"247","name":"Verwaltungskreis Thun"},"canton":{"key":"2","code":"BE","name":"Bern / Berne"},"status":"Real"},{"key":"10105933","name":"Bir Underfüerig","postalCode":"3627","locality":"Heimberg","commune":{"key":"928","name":"Heimberg","shortName":"Heimberg"},"district":{"key":"247","name":"Verwaltungskreis Thun"},"canton":{"key":"2","code":"BE","name":"Bern / Berne"},"status":"Real"},{"key":"10015346","name":"Blümlisalpstrasse","postalCode":"3627","locality":"Heimberg","commune":{"key":"928","name":"Heimberg","shortName":"Heimberg"},"district":{"key":"247","name":"Verwaltungskreis Thun"},"canton":{"key":"2","code":"BE","name":"Bern / Berne"},"status":"Real"},{"key":"10128438","name":"Brenzikofenstrasse","postalCode":"3627","locality":"Heimberg","commune":{"key":"928","name":"Heimberg","shortName":"Heimberg"},"district":{"key":"247","name":"Verwaltungskreis Thun"},"canton":{"key":"2","code":"BE","name":"Bern / Berne"},"status":"Real"},{"key":"10155484","name":"Buchenweg","postalCode":"3627","locality":"Heimberg","commune":{"key":"928","name":"Heimberg","shortName":"Heimberg"},"district":{"key":"247","name":"Verwaltungskreis Thun"},"canton":{"key":"2","code":"BE","name":"Bern / Berne"},"status":"Real"},{"key":"10015347","name":"Buechwaldstrasse","postalCode":"3627","locality":"Heimberg","commune":{"key":"928","name":"Heimberg","shortName":"Heimberg"},"district":{"key":"247","name":"Verwaltungskreis Thun"},"canton":{"key":"2","code":"BE","name":"Bern / Berne"},"status":"Real"},{"key":"10120049","name":"Bühlackerstrasse","postalCode":"3627","locality":"Heimberg","commune":{"key":"928","name":"Heimberg","shortName":"Heimberg"},"district":{"key":"247","name":"Verwaltungskreis Thun"},"canton":{"key":"2","code":"BE","name":"Bern / Berne"},"status":"Real"},{"key":"10066944","name":"Bürglenweg","postalCode":"3627","locality":"Heimberg","commune":{"key":"928","name":"Heimberg","shortName":"Heimberg"},"district":{"key":"247","name":"Verwaltungskreis Thun"},"canton":{"key":"2","code":"BE","name":"Bern / Berne"},"status":"Real"},{"key":"10216731","name":"Dählenwaldweg","postalCode":"3627","locality":"Heimberg","commune":{"key":"928","name":"Heimberg","shortName":"Heimberg"},"district":{"key":"247","name":"Verwaltungskreis Thun"},"canton":{"key":"2","code":"BE","name":"Bern / Berne"},"status":"Real"},{"key":"10216735","name":"Dammweg","postalCode":"3627","locality":"Heimberg","commune":{"key":"928","name":"Heimberg","shortName":"Heimberg"},"district":{"key":"247","name":"Verwaltungskreis Thun"},"canton":{"key":"2","code":"BE","name":"Bern / Berne"},"status":"Real"},{"key":"10082897","name":"Dohlenweg","postalCode":"3627","locality":"Heimberg","commune":{"key":"928","name":"Heimberg","shortName":"Heimberg"},"district":{"key":"247","name":"Verwaltungskreis Thun"},"canton":{"key":"2","code":"BE","name":"Bern / Berne"},"status":"Real"},{"key":"10185516","name":"Dornhaldestrasse","postalCode":"3627","locality":"Heimberg","commune":{"key":"928","name":"Heimberg","shortName":"Heimberg"},"district":{"key":"247","name":"Verwaltungskreis Thun"},"canton":{"key":"2","code":"BE","name":"Bern / Berne"},"status":"Real"},{"key":"10015350","name":"Drosselweg","postalCode":"3627","locality":"Heimberg","commune":{"key":"928","name":"Heimberg","shortName":"Heimberg"},"district":{"key":"247","name":"Verwaltungskreis Thun"},"canton":{"key":"2","code":"BE","name":"Bern / Berne"},"status":"Real"},{"key":"10082898","name":"Eichenweg","postalCode":"3627","locality":"Heimberg","commune":{"key":"928","name":"Heimberg","shortName":"Heimberg"},"district":{"key":"247","name":"Verwaltungskreis Thun"},"canton":{"key":"2","code":"BE","name":"Bern / Berne"},"status":"Real"},{"key":"10066945","name":"Elsterweg","postalCode":"3627","locality":"Heimberg","commune":{"key":"928","name":"Heimberg","shortName":"Heimberg"},"district":{"key":"247","name":"Verwaltungskreis Thun"},"canton":{"key":"2","code":"BE","name":"Bern / Berne"},"status":"Real"},{"key":"10015351","name":"Fabrikweg","postalCode":"3627","locality":"Heimberg","commune":{"key":"928","name":"Heimberg","shortName":"Heimberg"},"district":{"key":"247","name":"Verwaltungskreis Thun"},"canton":{"key":"2","code":"BE","name":"Bern / Berne"},"status":"Real"},{"key":"10015352","name":"Falkenweg","postalCode":"3627","locality":"Heimberg","commune":{"key":"928","name":"Heimberg","shortName":"Heimberg"},"district":{"key":"247","name":"Verwaltungskreis Thun"},"canton":{"key":"2","code":"BE","name":"Bern / Berne"},"status":"Real"},{"key":"10015353","name":"Finkenweg","postalCode":"3627","locality":"Heimberg","commune":{"key":"928","name":"Heimberg","shortName":"Heimberg"},"district":{"key":"247","name":"Verwaltungskreis Thun"},"canton":{"key":"2","code":"BE","name":"Bern / Berne"},"status":"Real"},{"key":"10015354","name":"Fluhweg","postalCode":"3627","locality":"Heimberg","commune":{"key":"928","name":"Heimberg","shortName":"Heimberg"},"district":{"key":"247","name":"Verwaltungskreis Thun"},"canton":{"key":"2","code":"BE","name":"Bern / Berne"},"status":"Real"},{"key":"10138577","name":"Flurweg","postalCode":"3627","locality":"Heimberg","commune":{"key":"928","name":"Heimberg","shortName":"Heimberg"},"district":{"key":"247","name":"Verwaltungskreis Thun"},"canton":{"key":"2","code":"BE","name":"Bern / Berne"},"status":"Real"},{"key":"10161023","name":"Forstweg","postalCode":"3627","locality":"Heimberg","commune":{"key":"928","name":"Heimberg","shortName":"Heimberg"},"district":{"key":"247","name":"Verwaltungskreis Thun"},"canton":{"key":"2","code":"BE","name":"Bern / Berne"},"status":"Real"},{"key":"10216738","name":"Friedhofweg","postalCode":"3627","locality":"Heimberg","commune":{"key":"928","name":"Heimberg","shortName":"Heimberg"},"district":{"key":"247","name":"Verwaltungskreis Thun"},"canton":{"key":"2","code":"BE","name":"Bern / Berne"},"status":"Real"},{"key":"10066946","name":"Gantrischweg","postalCode":"3627","locality":"Heimberg","commune":{"key":"928","name":"Heimberg","shortName":"Heimberg"},"district":{"key":"247","name":"Verwaltungskreis Thun"},"canton":{"key":"2","code":"BE","name":"Bern / Berne"},"status":"Real"},{"key":"10082899","name":"Gurnigelstrasse","postalCode":"3627","locality":"Heimberg","commune":{"key":"928","name":"Heimberg","shortName":"Heimberg"},"district":{"key":"247","name":"Verwaltungskreis Thun"},"canton":{"key":"2","code":"BE","name":"Bern / Berne"},"status":"Real"},{"key":"10015355","name":"Hasenweg","postalCode":"3627","locality":"Heimberg","commune":{"key":"928","name":"Heimberg","shortName":"Heimberg"},"district":{"key":"247","name":"Verwaltungskreis Thun"},"canton":{"key":"2","code":"BE","name":"Bern / Berne"},"status":"Real"},{"key":"10114901","name":"Haslikehrweg","postalCode":"3627","locality":"Heimberg","commune":{"key":"928","name":"Heimberg","shortName":"Heimberg"},"district":{"key":"247","name":"Verwaltungskreis Thun"},"canton":{"key":"2","code":"BE","name":"Bern / Berne"},"status":"Real"},{"key":"10216742","name":"Hinterer Hubelweg","postalCode":"3627","locality":"Heimberg","commune":{"key":"928","name":"Heimberg","shortName":"Heimberg"},"district":{"key":"247","name":"Verwaltungskreis Thun"},"canton":{"key":"2","code":"BE","name":"Bern / Berne"},"status":"Real"},{"key":"10015356","name":"Höheweg","postalCode":"3627","locality":"Heimberg","commune":{"key":"928","name":"Heimberg","shortName":"Heimberg"},"district":{"key":"247","name":"Verwaltungskreis Thun"},"canton":{"key":"2","code":"BE","name":"Bern / Berne"},"status":"Real"},{"key":"10066947","name":"Industrieweg","postalCode":"3627","locality":"Heimberg","commune":{"key":"928","name":"Heimberg","shortName":"Heimberg"},"district":{"key":"247","name":"Verwaltungskreis Thun"},"canton":{"key":"2","code":"BE","name":"Bern / Berne"},"status":"Real"},{"key":"10108667","name":"Jägerweg","postalCode":"3627","locality":"Heimberg","commune":{"key":"928","name":"Heimberg","shortName":"Heimberg"},"district":{"key":"247","name":"Verwaltungskreis Thun"},"canton":{"key":"2","code":"BE","name":"Bern / Berne"},"status":"Real"},{"key":"10185517","name":"Käsereiweg","postalCode":"3627","locality":"Heimberg","commune":{"key":"928","name":"Heimberg","shortName":"Heimberg"},"district":{"key":"247","name":"Verwaltungskreis Thun"},"canton":{"key":"2","code":"BE","name":"Bern / Berne"},"status":"Real"},{"key":"10015528","name":"Kilchstutz","postalCode":"3627","locality":"Heimberg","commune":{"key":"928","name":"Heimberg","shortName":"Heimberg"},"district":{"key":"247","name":"Verwaltungskreis Thun"},"canton":{"key":"2","code":"BE","name":"Bern / Berne"},"status":"Real"},{"key":"10082900","name":"Kohlmattweg","postalCode":"3627","locality":"Heimberg","commune":{"key":"928","name":"Heimberg","shortName":"Heimberg"},"district":{"key":"247","name":"Verwaltungskreis Thun"},"canton":{"key":"2","code":"BE","name":"Bern / Berne"},"status":"Real"},{"key":"10138578","name":"Laueligrabenweg","postalCode":"3627","locality":"Heimberg","commune":{"key":"928","name":"Heimberg","shortName":"Heimberg"},"district":{"key":"247","name":"Verwaltungskreis Thun"},"canton":{"key":"2","code":"BE","name":"Bern / Berne"},"status":"Real"},{"key":"10015357","name":"Mattenstrasse","postalCode":"3627","locality":"Heimberg","commune":{"key":"928","name":"Heimberg","shortName":"Heimberg"},"district":{"key":"247","name":"Verwaltungskreis Thun"},"canton":{"key":"2","code":"BE","name":"Bern / Berne"},"status":"Real"},{"key":"10066948","name":"Meisenweg","postalCode":"3627","locality":"Heimberg","commune":{"key":"928","name":"Heimberg","shortName":"Heimberg"},"district":{"key":"247","name":"Verwaltungskreis Thun"},"canton":{"key":"2","code":"BE","name":"Bern / Berne"},"status":"Real"},{"key":"10015358","name":"Mittelweg","postalCode":"3627","locality":"Heimberg","commune":{"key":"928","name":"Heimberg","shortName":"Heimberg"},"district":{"key":"247","name":"Verwaltungskreis Thun"},"canton":{"key":"2","code":"BE","name":"Bern / Berne"},"status":"Real"},{"key":"10082901","name":"Niesenstrasse","postalCode":"3627","locality":"Heimberg","commune":{"key":"928","name":"Heimberg","shortName":"Heimberg"},"district":{"key":"247","name":"Verwaltungskreis Thun"},"canton":{"key":"2","code":"BE","name":"Bern / Berne"},"status":"Real"},{"key":"10015359","name":"Nünenenweg","postalCode":"3627","locality":"Heimberg","commune":{"key":"928","name":"Heimberg","shortName":"Heimberg"},"district":{"key":"247","name":"Verwaltungskreis Thun"},"canton":{"key":"2","code":"BE","name":"Bern / Berne"},"status":"Real"},{"key":"10015362","name":"Räbacher","postalCode":"3627","locality":"Heimberg","commune":{"key":"928","name":"Heimberg","shortName":"Heimberg"},"district":{"key":"247","name":"Verwaltungskreis Thun"},"canton":{"key":"2","code":"BE","name":"Bern / Berne"},"status":"Real"},{"key":"10216747","name":"Radweg","postalCode":"3627","locality":"Heimberg","commune":{"key":"928","name":"Heimberg","shortName":"Heimberg"},"district":{"key":"247","name":"Verwaltungskreis Thun"},"canton":{"key":"2","code":"BE","name":"Bern / Berne"},"status":"Real"},{"key":"10015360","name":"Rebeliweg","postalCode":"3627","locality":"Heimberg","commune":{"key":"928","name":"Heimberg","shortName":"Heimberg"},"district":{"key":"247","name":"Verwaltungskreis Thun"},"canton":{"key":"2","code":"BE","name":"Bern / Berne"},"status":"Real"},{"key":"10066949","name":"Riedackerstrasse","postalCode":"3627","locality":"Heimberg","commune":{"key":"928","name":"Heimberg","shortName":"Heimberg"},"district":{"key":"247","name":"Verwaltungskreis Thun"},"canton":{"key":"2","code":"BE","name":"Bern / Berne"},"status":"Real"},{"key":"10015361","name":"Rosenweg","postalCode":"3627","locality":"Heimberg","commune":{"key":"928","name":"Heimberg","shortName":"Heimberg"},"district":{"key":"247","name":"Verwaltungskreis Thun"},"canton":{"key":"2","code":"BE","name":"Bern / Berne"},"status":"Real"},{"key":"10185518","name":"Rösslimatte","postalCode":"3627","locality":"Heimberg","commune":{"key":"928","name":"Heimberg","shortName":"Heimberg"},"district":{"key":"247","name":"Verwaltungskreis Thun"},"canton":{"key":"2","code":"BE","name":"Bern / Berne"},"status":"Real"},{"key":"10082902","name":"Rothachenweg","postalCode":"3627","locality":"Heimberg","commune":{"key":"928","name":"Heimberg","shortName":"Heimberg"},"district":{"key":"247","name":"Verwaltungskreis Thun"},"canton":{"key":"2","code":"BE","name":"Bern / Berne"},"status":"Real"},{"key":"10015363","name":"Schulgässli","postalCode":"3627","locality":"Heimberg","commune":{"key":"928","name":"Heimberg","shortName":"Heimberg"},"district":{"key":"247","name":"Verwaltungskreis Thun"},"canton":{"key":"2","code":"BE","name":"Bern / Berne"},"status":"Real"},{"key":"10066950","name":"Schulstrasse","postalCode":"3627","locality":"Heimberg","commune":{"key":"928","name":"Heimberg","shortName":"Heimberg"},"district":{"key":"247","name":"Verwaltungskreis Thun"},"canton":{"key":"2","code":"BE","name":"Bern / Berne"},"status":"Real"},{"key":"10015364","name":"Schützenstrasse","postalCode":"3627","locality":"Heimberg","commune":{"key":"928","name":"Heimberg","shortName":"Heimberg"},"district":{"key":"247","name":"Verwaltungskreis Thun"},"canton":{"key":"2","code":"BE","name":"Bern / Berne"},"status":"Real"},{"key":"10186130","name":"Schwalbenweg","postalCode":"3627","locality":"Heimberg","commune":{"key":"928","name":"Heimberg","shortName":"Heimberg"},"district":{"key":"247","name":"Verwaltungskreis Thun"},"canton":{"key":"2","code":"BE","name":"Bern / Berne"},"status":"Real"},{"key":"10015365","name":"Sonnhaldeweg","postalCode":"3627","locality":"Heimberg","commune":{"key":"928","name":"Heimberg","shortName":"Heimberg"},"district":{"key":"247","name":"Verwaltungskreis Thun"},"canton":{"key":"2","code":"BE","name":"Bern / Berne"},"status":"Real"},{"key":"10126575","name":"Sonnrainweg","postalCode":"3627","locality":"Heimberg","commune":{"key":"928","name":"Heimberg","shortName":"Heimberg"},"district":{"key":"247","name":"Verwaltungskreis Thun"},"canton":{"key":"2","code":"BE","name":"Bern / Berne"},"status":"Real"},{"key":"10082903","name":"Spitalsheimbergweg","postalCode":"3627","locality":"Heimberg","commune":{"key":"928","name":"Heimberg","shortName":"Heimberg"},"district":{"key":"247","name":"Verwaltungskreis Thun"},"canton":{"key":"2","code":"BE","name":"Bern / Berne"},"status":"Real"},{"key":"10066951","name":"Starenweg","postalCode":"3627","locality":"Heimberg","commune":{"key":"928","name":"Heimberg","shortName":"Heimberg"},"district":{"key":"247","name":"Verwaltungskreis Thun"},"canton":{"key":"2","code":"BE","name":"Bern / Berne"},"status":"Real"},{"key":"10015366","name":"Stationsweg","postalCode":"3627","locality":"Heimberg","commune":{"key":"928","name":"Heimberg","shortName":"Heimberg"},"district":{"key":"247","name":"Verwaltungskreis Thun"},"canton":{"key":"2","code":"BE","name":"Bern / Berne"},"status":"Real"},{"key":"10129461","name":"Stockhornstrasse","postalCode":"3627","locality":"Heimberg","commune":{"key":"928","name":"Heimberg","shortName":"Heimberg"},"district":{"key":"247","name":"Verwaltungskreis Thun"},"canton":{"key":"2","code":"BE","name":"Bern / Berne"},"status":"Real"},{"key":"10098427","name":"Stockweg","postalCode":"3627","locality":"Heimberg","commune":{"key":"928","name":"Heimberg","shortName":"Heimberg"},"district":{"key":"247","name":"Verwaltungskreis Thun"},"canton":{"key":"2","code":"BE","name":"Bern / Berne"},"status":"Real"},{"key":"10114902","name":"Thungschneitweg","postalCode":"3627","locality":"Heimberg","commune":{"key":"928","name":"Heimberg","shortName":"Heimberg"},"district":{"key":"247","name":"Verwaltungskreis Thun"},"canton":{"key":"2","code":"BE","name":"Bern / Berne"},"status":"Real"},{"key":"10082904","name":"Tulpenweg","postalCode":"3627","locality":"Heimberg","commune":{"key":"928","name":"Heimberg","shortName":"Heimberg"},"district":{"key":"247","name":"Verwaltungskreis Thun"},"canton":{"key":"2","code":"BE","name":"Bern / Berne"},"status":"Real"},{"key":"10066952","name":"Untere Niesenstrasse","postalCode":"3627","locality":"Heimberg","commune":{"key":"928","name":"Heimberg","shortName":"Heimberg"},"district":{"key":"247","name":"Verwaltungskreis Thun"},"canton":{"key":"2","code":"BE","name":"Bern / Berne"},"status":"Real"},{"key":"10216754","name":"Vorderer Hubelweg","postalCode":"3627","locality":"Heimberg","commune":{"key":"928","name":"Heimberg","shortName":"Heimberg"},"district":{"key":"247","name":"Verwaltungskreis Thun"},"canton":{"key":"2","code":"BE","name":"Bern / Berne"},"status":"Real"},{"key":"10217958","name":"Waldeckweg","postalCode":"3627","locality":"Heimberg","commune":{"key":"928","name":"Heimberg","shortName":"Heimberg"},"district":{"key":"247","name":"Verwaltungskreis Thun"},"canton":{"key":"2","code":"BE","name":"Bern / Berne"},"status":"Real"},{"key":"10217963","name":"Waldgartenweg","postalCode":"3627","locality":"Heimberg","commune":{"key":"928","name":"Heimberg","shortName":"Heimberg"},"district":{"key":"247","name":"Verwaltungskreis Thun"},"canton":{"key":"2","code":"BE","name":"Bern / Berne"},"status":"Real"},{"key":"10015367","name":"Weiherweg","postalCode":"3627","locality":"Heimberg","commune":{"key":"928","name":"Heimberg","shortName":"Heimberg"},"district":{"key":"247","name":"Verwaltungskreis Thun"},"canton":{"key":"2","code":"BE","name":"Bern / Berne"},"status":"Real"},{"key":"10082905","name":"Winterhaldenstrasse","postalCode":"3627","locality":"Heimberg","commune":{"key":"928","name":"Heimberg","shortName":"Heimberg"},"district":{"key":"247","name":"Verwaltungskreis Thun"},"canton":{"key":"2","code":"BE","name":"Bern / Berne"},"status":"Real"},]