[{"name":"Am Rebstock","postalCode":"55452","locality":"Dorsheim","municipality":{"key":"07133026","name":"Dorsheim","type":"Kreisangehörige_Gemeinde"},"district":{"key":"07133","name":"Bad Kreuznach","type":"Landkreis"},"federalState":{"key":"07","name":"Rheinland-Pfalz"}},{"name":"An der Schmiede","postalCode":"55452","locality":"Dorsheim","municipality":{"key":"07133026","name":"Dorsheim","type":"Kreisangehörige_Gemeinde"},"district":{"key":"07133","name":"Bad Kreuznach","type":"Landkreis"},"federalState":{"key":"07","name":"Rheinland-Pfalz"}},{"name":"Bergstr.","postalCode":"55452","locality":"Dorsheim","municipality":{"key":"07133026","name":"Dorsheim","type":"Kreisangehörige_Gemeinde"},"district":{"key":"07133","name":"Bad Kreuznach","type":"Landkreis"},"federalState":{"key":"07","name":"Rheinland-Pfalz"}},{"name":"Binger Str.","postalCode":"55452","locality":"Dorsheim","municipality":{"key":"07133026","name":"Dorsheim","type":"Kreisangehörige_Gemeinde"},"district":{"key":"07133","name":"Bad Kreuznach","type":"Landkreis"},"federalState":{"key":"07","name":"Rheinland-Pfalz"}},{"name":"Burg-Layer Str.","postalCode":"55452","locality":"Dorsheim","municipality":{"key":"07133026","name":"Dorsheim","type":"Kreisangehörige_Gemeinde"},"district":{"key":"07133","name":"Bad Kreuznach","type":"Landkreis"},"federalState":{"key":"07","name":"Rheinland-Pfalz"}},{"name":"Carl-Schurz-Str.","postalCode":"55543","locality":"Bad Kreuznach","municipality":{"key":"07133006","name":"Bad Kreuznach, Stadt","type":"Stadt"},"district":{"key":"07133","name":"Bad Kreuznach","type":"Landkreis"},"federalState":{"key":"07","name":"Rheinland-Pfalz"}},{"name":"Carl-Spitzweg-Str.","postalCode":"55543","locality":"Bad Kreuznach","municipality":{"key":"07133006","name":"Bad Kreuznach, Stadt","type":"Stadt"},"district":{"key":"07133","name":"Bad Kreuznach","type":"Landkreis"},"federalState":{"key":"07","name":"Rheinland-Pfalz"}},{"name":"Carl-Zeiss-Str.","postalCode":"55543","locality":"Bad Kreuznach","municipality":{"key":"07133006","name":"Bad Kreuznach, Stadt","type":"Stadt"},"district":{"key":"07133","name":"Bad Kreuznach","type":"Landkreis"},"federalState":{"key":"07","name":"Rheinland-Pfalz"}},{"name":"Carmerstr.","postalCode":"55543","locality":"Bad Kreuznach","municipality":{"key":"07133006","name":"Bad Kreuznach, Stadt","type":"Stadt"},"district":{"key":"07133","name":"Bad Kreuznach","type":"Landkreis"},"federalState":{"key":"07","name":"Rheinland-Pfalz"}},{"name":"Cauerstr.","postalCode":"55543","locality":"Bad Kreuznach","municipality":{"key":"07133006","name":"Bad Kreuznach, Stadt","type":"Stadt"},"district":{"key":"07133","name":"Bad Kreuznach","type":"Landkreis"},"federalState":{"key":"07","name":"Rheinland-Pfalz"}},{"name":"Cecilienhöhe","postalCode":"55543","locality":"Bad Kreuznach","municipality":{"key":"07133006","name":"Bad Kreuznach, Stadt","type":"Stadt"},"district":{"key":"07133","name":"Bad Kreuznach","type":"Landkreis"},"federalState":{"key":"07","name":"Rheinland-Pfalz"}},{"name":"Charles-de-Gaulle-Str.","postalCode":"55543","locality":"Bad Kreuznach","municipality":{"key":"07133006","name":"Bad Kreuznach, Stadt","type":"Stadt"},"district":{"key":"07133","name":"Bad Kreuznach","type":"Landkreis"},"federalState":{"key":"07","name":"Rheinland-Pfalz"}},{"name":"Charles-de-Gaulle-Str.","postalCode":"55545","locality":"Bad Kreuznach","municipality":{"key":"07133006","name":"Bad Kreuznach, Stadt","type":"Stadt"},"district":{"key":"07133","name":"Bad Kreuznach","type":"Landkreis"},"federalState":{"key":"07","name":"Rheinland-Pfalz"}},{"name":"Corneliusstr.","postalCode":"55545","locality":"Bad Kreuznach","municipality":{"key":"07133006","name":"Bad Kreuznach, Stadt","type":"Stadt"},"district":{"key":"07133","name":"Bad Kreuznach","type":"Landkreis"},"federalState":{"key":"07","name":"Rheinland-Pfalz"}},{"name":"Dalbergstr.","postalCode":"55545","locality":"Bad Kreuznach","municipality":{"key":"07133006","name":"Bad Kreuznach, Stadt","type":"Stadt"},"district":{"key":"07133","name":"Bad Kreuznach","type":"Landkreis"},"federalState":{"key":"07","name":"Rheinland-Pfalz"}},{"name":"Danziger Str.","postalCode":"55543","locality":"Bad Kreuznach","municipality":{"key":"07133006","name":"Bad Kreuznach, Stadt","type":"Stadt"},"district":{"key":"07133","name":"Bad Kreuznach","type":"Landkreis"},"federalState":{"key":"07","name":"Rheinland-Pfalz"}},{"name":"Dessauer Str.","postalCode":"55545","locality":"Bad Kreuznach","municipality":{"key":"07133006","name":"Bad Kreuznach, Stadt","type":"Stadt"},"district":{"key":"07133","name":"Bad Kreuznach","type":"Landkreis"},"federalState":{"key":"07","name":"Rheinland-Pfalz"}},{"name":"Dienheimer Berg","postalCode":"55545","locality":"Bad Kreuznach","municipality":{"key":"07133006","name":"Bad Kreuznach, Stadt","type":"Stadt"},"district":{"key":"07133","name":"Bad Kreuznach","type":"Landkreis"},"federalState":{"key":"07","name":"Rheinland-Pfalz"}},{"name":"Dorfbrunnenstr.","postalCode":"55545","locality":"Bad Kreuznach","municipality":{"key":"07133006","name":"Bad Kreuznach, Stadt","type":"Stadt"},"district":{"key":"07133","name":"Bad Kreuznach","type":"Landkreis"},"federalState":{"key":"07","name":"Rheinland-Pfalz"}},{"name":"Dorfplatz","postalCode":"55545","locality":"Bad Kreuznach","municipality":{"key":"07133006","name":"Bad Kreuznach, Stadt","type":"Stadt"},"district":{"key":"07133","name":"Bad Kreuznach","type":"Landkreis"},"federalState":{"key":"07","name":"Rheinland-Pfalz"}},{"name":"Dornfelderweg","postalCode":"55583","locality":"Bad Kreuznach","municipality":{"key":"07133006","name":"Bad Kreuznach, Stadt","type":"Stadt"},"district":{"key":"07133","name":"Bad Kreuznach","type":"Landkreis"},"federalState":{"key":"07","name":"Rheinland-Pfalz"}},{"name":"Dorsheimer Str.","postalCode":"55545","locality":"Bad Kreuznach","municipality":{"key":"07133006","name":"Bad Kreuznach, Stadt","type":"Stadt"},"district":{"key":"07133","name":"Bad Kreuznach","type":"Landkreis"},"federalState":{"key":"07","name":"Rheinland-Pfalz"}},{"name":"Dr.-Alfons-Gamp-Str.","postalCode":"55543","locality":"Bad Kreuznach","municipality":{"key":"07133006","name":"Bad Kreuznach, Stadt","type":"Stadt"},"district":{"key":"07133","name":"Bad Kreuznach","type":"Landkreis"},"federalState":{"key":"07","name":"Rheinland-Pfalz"}},{"name":"Dreiburgenstr.","postalCode":"55583","locality":"Bad Kreuznach","municipality":{"key":"07133006","name":"Bad Kreuznach, Stadt","type":"Stadt"},"district":{"key":"07133","name":"Bad Kreuznach","type":"Landkreis"},"federalState":{"key":"07","name":"Rheinland-Pfalz"}},{"name":"Dr.-Geisenheyner-Str.","postalCode":"55545","locality":"Bad Kreuznach","municipality":{"key":"07133006","name":"Bad Kreuznach, Stadt","type":"Stadt"},"district":{"key":"07133","name":"Bad Kreuznach","type":"Landkreis"},"federalState":{"key":"07","name":"Rheinland-Pfalz"}},{"name":"Dr.-Gerhard-Muhs-Str.","postalCode":"55543","locality":"Bad Kreuznach","municipality":{"key":"07133006","name":"Bad Kreuznach, Stadt","type":"Stadt"},"district":{"key":"07133","name":"Bad Kreuznach","type":"Landkreis"},"federalState":{"key":"07","name":"Rheinland-Pfalz"}},{"name":"Dr.-Herbert-Eimert-Str.","postalCode":"55543","locality":"Bad Kreuznach","municipality":{"key":"07133006","name":"Bad Kreuznach, Stadt","type":"Stadt"},"district":{"key":"07133","name":"Bad Kreuznach","type":"Landkreis"},"federalState":{"key":"07","name":"Rheinland-Pfalz"}},{"name":"Dr.-Karl-Aschoff-Str.","postalCode":"55543","locality":"Bad Kreuznach","municipality":{"key":"07133006","name":"Bad Kreuznach, Stadt","type":"Stadt"},"district":{"key":"07133","name":"Bad Kreuznach","type":"Landkreis"},"federalState":{"key":"07","name":"Rheinland-Pfalz"}},{"name":"Dr.-Karl-Hessel-Str.","postalCode":"55543","locality":"Bad Kreuznach","municipality":{"key":"07133006","name":"Bad Kreuznach, Stadt","type":"Stadt"},"district":{"key":"07133","name":"Bad Kreuznach","type":"Landkreis"},"federalState":{"key":"07","name":"Rheinland-Pfalz"}},{"name":"Dr.-Konrad-Adenauer-Str.","postalCode":"55543","locality":"Bad Kreuznach","municipality":{"key":"07133006","name":"Bad Kreuznach, Stadt","type":"Stadt"},"district":{"key":"07133","name":"Bad Kreuznach","type":"Landkreis"},"federalState":{"key":"07","name":"Rheinland-Pfalz"}},{"name":"Drosselweg","postalCode":"55543","locality":"Bad Kreuznach","municipality":{"key":"07133006","name":"Bad Kreuznach, Stadt","type":"Stadt"},"district":{"key":"07133","name":"Bad Kreuznach","type":"Landkreis"},"federalState":{"key":"07","name":"Rheinland-Pfalz"}},{"name":"Drosselweg","postalCode":"55583","locality":"Bad Kreuznach","municipality":{"key":"07133006","name":"Bad Kreuznach, Stadt","type":"Stadt"},"district":{"key":"07133","name":"Bad Kreuznach","type":"Landkreis"},"federalState":{"key":"07","name":"Rheinland-Pfalz"}},{"name":"Drususstr.","postalCode":"55545","locality":"Bad Kreuznach","municipality":{"key":"07133006","name":"Bad Kreuznach, Stadt","type":"Stadt"},"district":{"key":"07133","name":"Bad Kreuznach","type":"Landkreis"},"federalState":{"key":"07","name":"Rheinland-Pfalz"}},{"name":"Dr.-Velten-Str.","postalCode":"55543","locality":"Bad Kreuznach","municipality":{"key":"07133006","name":"Bad Kreuznach, Stadt","type":"Stadt"},"district":{"key":"07133","name":"Bad Kreuznach","type":"Landkreis"},"federalState":{"key":"07","name":"Rheinland-Pfalz"}},{"name":"Dr.-Werner-Forßmann-Str.","postalCode":"55543","locality":"Bad Kreuznach","municipality":{"key":"07133006","name":"Bad Kreuznach, Stadt","type":"Stadt"},"district":{"key":"07133","name":"Bad Kreuznach","type":"Landkreis"},"federalState":{"key":"07","name":"Rheinland-Pfalz"}},{"name":"Dr.-Wilhelm-Adt-Str.","postalCode":"55543","locality":"Bad Kreuznach","municipality":{"key":"07133006","name":"Bad Kreuznach, Stadt","type":"Stadt"},"district":{"key":"07133","name":"Bad Kreuznach","type":"Landkreis"},"federalState":{"key":"07","name":"Rheinland-Pfalz"}},{"name":"Dürerstr.","postalCode":"55543","locality":"Bad Kreuznach","municipality":{"key":"07133006","name":"Bad Kreuznach, Stadt","type":"Stadt"},"district":{"key":"07133","name":"Bad Kreuznach","type":"Landkreis"},"federalState":{"key":"07","name":"Rheinland-Pfalz"}},{"name":"Eberhard-Anheuser-Str.","postalCode":"55543","locality":"Bad Kreuznach","municipality":{"key":"07133006","name":"Bad Kreuznach, Stadt","type":"Stadt"},"district":{"key":"07133","name":"Bad Kreuznach","type":"Landkreis"},"federalState":{"key":"07","name":"Rheinland-Pfalz"}},{"name":"Edith-Piaf-Str.","postalCode":"55543","locality":"Bad Kreuznach","municipality":{"key":"07133006","name":"Bad Kreuznach, Stadt","type":"Stadt"},"district":{"key":"07133","name":"Bad Kreuznach","type":"Landkreis"},"federalState":{"key":"07","name":"Rheinland-Pfalz"}},{"name":"Ehrenpreisweg","postalCode":"55543","locality":"Bad Kreuznach","municipality":{"key":"07133006","name":"Bad Kreuznach, Stadt","type":"Stadt"},"district":{"key":"07133","name":"Bad Kreuznach","type":"Landkreis"},"federalState":{"key":"07","name":"Rheinland-Pfalz"}},{"name":"Eichendorffstr.","postalCode":"55545","locality":"Bad Kreuznach","municipality":{"key":"07133006","name":"Bad Kreuznach, Stadt","type":"Stadt"},"district":{"key":"07133","name":"Bad Kreuznach","type":"Landkreis"},"federalState":{"key":"07","name":"Rheinland-Pfalz"}},{"name":"Eichstr.","postalCode":"55543","locality":"Bad Kreuznach","municipality":{"key":"07133006","name":"Bad Kreuznach, Stadt","type":"Stadt"},"district":{"key":"07133","name":"Bad Kreuznach","type":"Landkreis"},"federalState":{"key":"07","name":"Rheinland-Pfalz"}},{"name":"Eidendorffstr.","postalCode":"55545","locality":"Bad Kreuznach","municipality":{"key":"07133006","name":"Bad Kreuznach, Stadt","type":"Stadt"},"district":{"key":"07133","name":"Bad Kreuznach","type":"Landkreis"},"federalState":{"key":"07","name":"Rheinland-Pfalz"}},{"name":"Eiermarkt","postalCode":"55545","locality":"Bad Kreuznach","municipality":{"key":"07133006","name":"Bad Kreuznach, Stadt","type":"Stadt"},"district":{"key":"07133","name":"Bad Kreuznach","type":"Landkreis"},"federalState":{"key":"07","name":"Rheinland-Pfalz"}},{"name":"Elbinger Str.","postalCode":"55543","locality":"Bad Kreuznach","municipality":{"key":"07133006","name":"Bad Kreuznach, Stadt","type":"Stadt"},"district":{"key":"07133","name":"Bad Kreuznach","type":"Landkreis"},"federalState":{"key":"07","name":"Rheinland-Pfalz"}},{"name":"Elfelderstr.","postalCode":"55545","locality":"Bad Kreuznach","municipality":{"key":"07133006","name":"Bad Kreuznach, Stadt","type":"Stadt"},"district":{"key":"07133","name":"Bad Kreuznach","type":"Landkreis"},"federalState":{"key":"07","name":"Rheinland-Pfalz"}},{"name":"Elisabethenstr.","postalCode":"55545","locality":"Bad Kreuznach","municipality":{"key":"07133006","name":"Bad Kreuznach, Stadt","type":"Stadt"},"district":{"key":"07133","name":"Bad Kreuznach","type":"Landkreis"},"federalState":{"key":"07","name":"Rheinland-Pfalz"}},{"name":"Ellen-Thress-Str.","postalCode":"55543","locality":"Bad Kreuznach","municipality":{"key":"07133006","name":"Bad Kreuznach, Stadt","type":"Stadt"},"district":{"key":"07133","name":"Bad Kreuznach","type":"Landkreis"},"federalState":{"key":"07","name":"Rheinland-Pfalz"}},{"name":"Ellerbachstr.","postalCode":"55545","locality":"Bad Kreuznach","municipality":{"key":"07133006","name":"Bad Kreuznach, Stadt","type":"Stadt"},"district":{"key":"07133","name":"Bad Kreuznach","type":"Landkreis"},"federalState":{"key":"07","name":"Rheinland-Pfalz"}},{"name":"Elsbeth-Krukenberg-Str.","postalCode":"55543","locality":"Bad Kreuznach","municipality":{"key":"07133006","name":"Bad Kreuznach, Stadt","type":"Stadt"},"district":{"key":"07133","name":"Bad Kreuznach","type":"Landkreis"},"federalState":{"key":"07","name":"Rheinland-Pfalz"}},{"name":"Emil-Jacob-Weg","postalCode":"55543","locality":"Bad Kreuznach","municipality":{"key":"07133006","name":"Bad Kreuznach, Stadt","type":"Stadt"},"district":{"key":"07133","name":"Bad Kreuznach","type":"Landkreis"},"federalState":{"key":"07","name":"Rheinland-Pfalz"}},{"name":"Emil-Nolde-Str.","postalCode":"55543","locality":"Bad Kreuznach","municipality":{"key":"07133006","name":"Bad Kreuznach, Stadt","type":"Stadt"},"district":{"key":"07133","name":"Bad Kreuznach","type":"Landkreis"},"federalState":{"key":"07","name":"Rheinland-Pfalz"}},{"name":"Engelmannstr.","postalCode":"55543","locality":"Bad Kreuznach","municipality":{"key":"07133006","name":"Bad Kreuznach, Stadt","type":"Stadt"},"district":{"key":"07133","name":"Bad Kreuznach","type":"Landkreis"},"federalState":{"key":"07","name":"Rheinland-Pfalz"}},{"name":"Entenpfuhler Weg","postalCode":"55543","locality":"Bad Kreuznach","municipality":{"key":"07133006","name":"Bad Kreuznach, Stadt","type":"Stadt"},"district":{"key":"07133","name":"Bad Kreuznach","type":"Landkreis"},"federalState":{"key":"07","name":"Rheinland-Pfalz"}},{"name":"Entenpfuhler Weinbergsweg","postalCode":"55543","locality":"Bad Kreuznach","municipality":{"key":"07133006","name":"Bad Kreuznach, Stadt","type":"Stadt"},"district":{"key":"07133","name":"Bad Kreuznach","type":"Landkreis"},"federalState":{"key":"07","name":"Rheinland-Pfalz"}},{"name":"Erlenweg","postalCode":"55543","locality":"Bad Kreuznach","municipality":{"key":"07133006","name":"Bad Kreuznach, Stadt","type":"Stadt"},"district":{"key":"07133","name":"Bad Kreuznach","type":"Landkreis"},"federalState":{"key":"07","name":"Rheinland-Pfalz"}},{"name":"Erlenweg","postalCode":"55583","locality":"Bad Kreuznach","municipality":{"key":"07133006","name":"Bad Kreuznach, Stadt","type":"Stadt"},"district":{"key":"07133","name":"Bad Kreuznach","type":"Landkreis"},"federalState":{"key":"07","name":"Rheinland-Pfalz"}},{"name":"Ernst-Barlach-Str.","postalCode":"55543","locality":"Bad Kreuznach","municipality":{"key":"07133006","name":"Bad Kreuznach, Stadt","type":"Stadt"},"district":{"key":"07133","name":"Bad Kreuznach","type":"Landkreis"},"federalState":{"key":"07","name":"Rheinland-Pfalz"}},{"name":"Ernst-Ludwig-Str.","postalCode":"55545","locality":"Bad Kreuznach","municipality":{"key":"07133006","name":"Bad Kreuznach, Stadt","type":"Stadt"},"district":{"key":"07133","name":"Bad Kreuznach","type":"Landkreis"},"federalState":{"key":"07","name":"Rheinland-Pfalz"}},{"name":"Erster Galgenberger Weg","postalCode":"55543","locality":"Bad Kreuznach","municipality":{"key":"07133006","name":"Bad Kreuznach, Stadt","type":"Stadt"},"district":{"key":"07133","name":"Bad Kreuznach","type":"Landkreis"},"federalState":{"key":"07","name":"Rheinland-Pfalz"}},{"name":"Europaplatz","postalCode":"55543","locality":"Bad Kreuznach","municipality":{"key":"07133006","name":"Bad Kreuznach, Stadt","type":"Stadt"},"district":{"key":"07133","name":"Bad Kreuznach","type":"Landkreis"},"federalState":{"key":"07","name":"Rheinland-Pfalz"}},{"name":"Falkensteinstr.","postalCode":"55545","locality":"Bad Kreuznach","municipality":{"key":"07133006","name":"Bad Kreuznach, Stadt","type":"Stadt"},"district":{"key":"07133","name":"Bad Kreuznach","type":"Landkreis"},"federalState":{"key":"07","name":"Rheinland-Pfalz"}},{"name":"Falkenweg","postalCode":"55583","locality":"Bad Kreuznach","municipality":{"key":"07133006","name":"Bad Kreuznach, Stadt","type":"Stadt"},"district":{"key":"07133","name":"Bad Kreuznach","type":"Landkreis"},"federalState":{"key":"07","name":"Rheinland-Pfalz"}},{"name":"Felix-Wankel-Str.","postalCode":"55545","locality":"Bad Kreuznach","municipality":{"key":"07133006","name":"Bad Kreuznach, Stadt","type":"Stadt"},"district":{"key":"07133","name":"Bad Kreuznach","type":"Landkreis"},"federalState":{"key":"07","name":"Rheinland-Pfalz"}},{"name":"Ferdinand-Porsche-Str.","postalCode":"55543","locality":"Bad Kreuznach","municipality":{"key":"07133006","name":"Bad Kreuznach, Stadt","type":"Stadt"},"district":{"key":"07133","name":"Bad Kreuznach","type":"Landkreis"},"federalState":{"key":"07","name":"Rheinland-Pfalz"}},{"name":"Finkenweg","postalCode":"55583","locality":"Bad Kreuznach","municipality":{"key":"07133006","name":"Bad Kreuznach, Stadt","type":"Stadt"},"district":{"key":"07133","name":"Bad Kreuznach","type":"Landkreis"},"federalState":{"key":"07","name":"Rheinland-Pfalz"}},{"name":"Fischergasse","postalCode":"55545","locality":"Bad Kreuznach","municipality":{"key":"07133006","name":"Bad Kreuznach, Stadt","type":"Stadt"},"district":{"key":"07133","name":"Bad Kreuznach","type":"Landkreis"},"federalState":{"key":"07","name":"Rheinland-Pfalz"}},{"name":"Fischerplatz","postalCode":"55545","locality":"Bad Kreuznach","municipality":{"key":"07133006","name":"Bad Kreuznach, Stadt","type":"Stadt"},"district":{"key":"07133","name":"Bad Kreuznach","type":"Landkreis"},"federalState":{"key":"07","name":"Rheinland-Pfalz"}},{"name":"Fontanestr.","postalCode":"55543","locality":"Bad Kreuznach","municipality":{"key":"07133006","name":"Bad Kreuznach, Stadt","type":"Stadt"},"district":{"key":"07133","name":"Bad Kreuznach","type":"Landkreis"},"federalState":{"key":"07","name":"Rheinland-Pfalz"}},{"name":"Forsthausweg","postalCode":"55543","locality":"Bad Kreuznach","municipality":{"key":"07133006","name":"Bad Kreuznach, Stadt","type":"Stadt"},"district":{"key":"07133","name":"Bad Kreuznach","type":"Landkreis"},"federalState":{"key":"07","name":"Rheinland-Pfalz"}},{"name":"Forstmeister-Gräff-Str.","postalCode":"55543","locality":"Bad Kreuznach","municipality":{"key":"07133006","name":"Bad Kreuznach, Stadt","type":"Stadt"},"district":{"key":"07133","name":"Bad Kreuznach","type":"Landkreis"},"federalState":{"key":"07","name":"Rheinland-Pfalz"}},{"name":"Frankenstr.","postalCode":"55545","locality":"Bad Kreuznach","municipality":{"key":"07133006","name":"Bad Kreuznach, Stadt","type":"Stadt"},"district":{"key":"07133","name":"Bad Kreuznach","type":"Landkreis"},"federalState":{"key":"07","name":"Rheinland-Pfalz"}},{"name":"Frankfurter Str.","postalCode":"55545","locality":"Bad Kreuznach","municipality":{"key":"07133006","name":"Bad Kreuznach, Stadt","type":"Stadt"},"district":{"key":"07133","name":"Bad Kreuznach","type":"Landkreis"},"federalState":{"key":"07","name":"Rheinland-Pfalz"}},{"name":"Franz-Eichenauer-Str.","postalCode":"55543","locality":"Bad Kreuznach","municipality":{"key":"07133006","name":"Bad Kreuznach, Stadt","type":"Stadt"},"district":{"key":"07133","name":"Bad Kreuznach","type":"Landkreis"},"federalState":{"key":"07","name":"Rheinland-Pfalz"}},{"name":"Franziska-Puricelli-Str.","postalCode":"55543","locality":"Bad Kreuznach","municipality":{"key":"07133006","name":"Bad Kreuznach, Stadt","type":"Stadt"},"district":{"key":"07133","name":"Bad Kreuznach","type":"Landkreis"},"federalState":{"key":"07","name":"Rheinland-Pfalz"}},{"name":"Franz-Marc-Str.","postalCode":"55543","locality":"Bad Kreuznach","municipality":{"key":"07133006","name":"Bad Kreuznach, Stadt","type":"Stadt"},"district":{"key":"07133","name":"Bad Kreuznach","type":"Landkreis"},"federalState":{"key":"07","name":"Rheinland-Pfalz"}},{"name":"Franz-Schubert-Str.","postalCode":"55583","locality":"Bad Kreuznach","municipality":{"key":"07133006","name":"Bad Kreuznach, Stadt","type":"Stadt"},"district":{"key":"07133","name":"Bad Kreuznach","type":"Landkreis"},"federalState":{"key":"07","name":"Rheinland-Pfalz"}},{"name":"Franz-von-Sickingen-Str.","postalCode":"55583","locality":"Bad Kreuznach","municipality":{"key":"07133006","name":"Bad Kreuznach, Stadt","type":"Stadt"},"district":{"key":"07133","name":"Bad Kreuznach","type":"Landkreis"},"federalState":{"key":"07","name":"Rheinland-Pfalz"}},{"name":"Freiherr-vom-Stein-Str.","postalCode":"55543","locality":"Bad Kreuznach","municipality":{"key":"07133006","name":"Bad Kreuznach, Stadt","type":"Stadt"},"district":{"key":"07133","name":"Bad Kreuznach","type":"Landkreis"},"federalState":{"key":"07","name":"Rheinland-Pfalz"}},{"name":"Frenzenberg","postalCode":"55545","locality":"Bad Kreuznach","municipality":{"key":"07133006","name":"Bad Kreuznach, Stadt","type":"Stadt"},"district":{"key":"07133","name":"Bad Kreuznach","type":"Landkreis"},"federalState":{"key":"07","name":"Rheinland-Pfalz"}},{"name":"Friedensbrücke","postalCode":"55583","locality":"Bad Kreuznach","municipality":{"key":"07133006","name":"Bad Kreuznach, Stadt","type":"Stadt"},"district":{"key":"07133","name":"Bad Kreuznach","type":"Landkreis"},"federalState":{"key":"07","name":"Rheinland-Pfalz"}},{"name":"Friedensstr.","postalCode":"55583","locality":"Bad Kreuznach","municipality":{"key":"07133006","name":"Bad Kreuznach, Stadt","type":"Stadt"},"district":{"key":"07133","name":"Bad Kreuznach","type":"Landkreis"},"federalState":{"key":"07","name":"Rheinland-Pfalz"}},{"name":"Friedhofsweg","postalCode":"55545","locality":"Bad Kreuznach","municipality":{"key":"07133006","name":"Bad Kreuznach, Stadt","type":"Stadt"},"district":{"key":"07133","name":"Bad Kreuznach","type":"Landkreis"},"federalState":{"key":"07","name":"Rheinland-Pfalz"}},{"name":"Friedrichstr.","postalCode":"55543","locality":"Bad Kreuznach","municipality":{"key":"07133006","name":"Bad Kreuznach, Stadt","type":"Stadt"},"district":{"key":"07133","name":"Bad Kreuznach","type":"Landkreis"},"federalState":{"key":"07","name":"Rheinland-Pfalz"}},{"name":"Füllscheuer","postalCode":"55543","locality":"Bad Kreuznach","municipality":{"key":"07133006","name":"Bad Kreuznach, Stadt","type":"Stadt"},"district":{"key":"07133","name":"Bad Kreuznach","type":"Landkreis"},"federalState":{"key":"07","name":"Rheinland-Pfalz"}},{"name":"Gabelsberger Str.","postalCode":"55543","locality":"Bad Kreuznach","municipality":{"key":"07133006","name":"Bad Kreuznach, Stadt","type":"Stadt"},"district":{"key":"07133","name":"Bad Kreuznach","type":"Landkreis"},"federalState":{"key":"07","name":"Rheinland-Pfalz"}},{"name":"Gartenbrunnenstr.","postalCode":"55543","locality":"Bad Kreuznach","municipality":{"key":"07133006","name":"Bad Kreuznach, Stadt","type":"Stadt"},"district":{"key":"07133","name":"Bad Kreuznach","type":"Landkreis"},"federalState":{"key":"07","name":"Rheinland-Pfalz"}},{"name":"Gartenbrunnenweg","postalCode":"55543","locality":"Bad Kreuznach","municipality":{"key":"07133006","name":"Bad Kreuznach, Stadt","type":"Stadt"},"district":{"key":"07133","name":"Bad Kreuznach","type":"Landkreis"},"federalState":{"key":"07","name":"Rheinland-Pfalz"}},{"name":"Gartenstr.","postalCode":"55583","locality":"Bad Kreuznach","municipality":{"key":"07133006","name":"Bad Kreuznach, Stadt","type":"Stadt"},"district":{"key":"07133","name":"Bad Kreuznach","type":"Landkreis"},"federalState":{"key":"07","name":"Rheinland-Pfalz"}},{"name":"Gartenweg","postalCode":"55583","locality":"Bad Kreuznach","municipality":{"key":"07133006","name":"Bad Kreuznach, Stadt","type":"Stadt"},"district":{"key":"07133","name":"Bad Kreuznach","type":"Landkreis"},"federalState":{"key":"07","name":"Rheinland-Pfalz"}},{"name":"Gebrüder-Baruch-Str.","postalCode":"55543","locality":"Bad Kreuznach","municipality":{"key":"07133006","name":"Bad Kreuznach, Stadt","type":"Stadt"},"district":{"key":"07133","name":"Bad Kreuznach","type":"Landkreis"},"federalState":{"key":"07","name":"Rheinland-Pfalz"}},{"name":"Geibstr.","postalCode":"55545","locality":"Bad Kreuznach","municipality":{"key":"07133006","name":"Bad Kreuznach, Stadt","type":"Stadt"},"district":{"key":"07133","name":"Bad Kreuznach","type":"Landkreis"},"federalState":{"key":"07","name":"Rheinland-Pfalz"}},{"name":"Geißenbrücke","postalCode":"55543","locality":"Bad Kreuznach","municipality":{"key":"07133006","name":"Bad Kreuznach, Stadt","type":"Stadt"},"district":{"key":"07133","name":"Bad Kreuznach","type":"Landkreis"},"federalState":{"key":"07","name":"Rheinland-Pfalz"}},{"name":"Gelbsternweg","postalCode":"55543","locality":"Bad Kreuznach","municipality":{"key":"07133006","name":"Bad Kreuznach, Stadt","type":"Stadt"},"district":{"key":"07133","name":"Bad Kreuznach","type":"Landkreis"},"federalState":{"key":"07","name":"Rheinland-Pfalz"}},{"name":"Genheimer Str.","postalCode":"55545","locality":"Bad Kreuznach","municipality":{"key":"07133006","name":"Bad Kreuznach, Stadt","type":"Stadt"},"district":{"key":"07133","name":"Bad Kreuznach","type":"Landkreis"},"federalState":{"key":"07","name":"Rheinland-Pfalz"}},{"name":"Gensinger Str.","postalCode":"55543","locality":"Bad Kreuznach","municipality":{"key":"07133006","name":"Bad Kreuznach, Stadt","type":"Stadt"},"district":{"key":"07133","name":"Bad Kreuznach","type":"Landkreis"},"federalState":{"key":"07","name":"Rheinland-Pfalz"}},{"name":"George-Gershwin-Str.","postalCode":"55543","locality":"Bad Kreuznach","municipality":{"key":"07133006","name":"Bad Kreuznach, Stadt","type":"Stadt"},"district":{"key":"07133","name":"Bad Kreuznach","type":"Landkreis"},"federalState":{"key":"07","name":"Rheinland-Pfalz"}},{"name":"George-Marshall-Str.","postalCode":"55543","locality":"Bad Kreuznach","municipality":{"key":"07133006","name":"Bad Kreuznach, Stadt","type":"Stadt"},"district":{"key":"07133","name":"Bad Kreuznach","type":"Landkreis"},"federalState":{"key":"07","name":"Rheinland-Pfalz"}},{"name":"Gerbergasse","postalCode":"55545","locality":"Bad Kreuznach","municipality":{"key":"07133006","name":"Bad Kreuznach, Stadt","type":"Stadt"},"district":{"key":"07133","name":"Bad Kreuznach","type":"Landkreis"},"federalState":{"key":"07","name":"Rheinland-Pfalz"}},{"name":"Glashütter Weg","postalCode":"55543","locality":"Bad Kreuznach","municipality":{"key":"07133006","name":"Bad Kreuznach, Stadt","type":"Stadt"},"district":{"key":"07133","name":"Bad Kreuznach","type":"Landkreis"},"federalState":{"key":"07","name":"Rheinland-Pfalz"}},{"name":"Gleiwitzer Str.","postalCode":"55543","locality":"Bad Kreuznach","municipality":{"key":"07133006","name":"Bad Kreuznach, Stadt","type":"Stadt"},"district":{"key":"07133","name":"Bad Kreuznach","type":"Landkreis"},"federalState":{"key":"07","name":"Rheinland-Pfalz"}},{"name":"Glockengasse","postalCode":"55545","locality":"Bad Kreuznach","municipality":{"key":"07133006","name":"Bad Kreuznach, Stadt","type":"Stadt"},"district":{"key":"07133","name":"Bad Kreuznach","type":"Landkreis"},"federalState":{"key":"07","name":"Rheinland-Pfalz"}},{"name":"Gluckstr.","postalCode":"55543","locality":"Bad Kreuznach","municipality":{"key":"07133006","name":"Bad Kreuznach, Stadt","type":"Stadt"},"district":{"key":"07133","name":"Bad Kreuznach","type":"Landkreis"},"federalState":{"key":"07","name":"Rheinland-Pfalz"}},{"name":"Göbenstr.","postalCode":"55543","locality":"Bad Kreuznach","municipality":{"key":"07133006","name":"Bad Kreuznach, Stadt","type":"Stadt"},"district":{"key":"07133","name":"Bad Kreuznach","type":"Landkreis"},"federalState":{"key":"07","name":"Rheinland-Pfalz"}},{"name":"Goethestr.","postalCode":"55543","locality":"Bad Kreuznach","municipality":{"key":"07133006","name":"Bad Kreuznach, Stadt","type":"Stadt"},"district":{"key":"07133","name":"Bad Kreuznach","type":"Landkreis"},"federalState":{"key":"07","name":"Rheinland-Pfalz"}},{"name":"Görlitzer Str.","postalCode":"55543","locality":"Bad Kreuznach","municipality":{"key":"07133006","name":"Bad Kreuznach, Stadt","type":"Stadt"},"district":{"key":"07133","name":"Bad Kreuznach","type":"Landkreis"},"federalState":{"key":"07","name":"Rheinland-Pfalz"}},{"name":"Görzstr.","postalCode":"55545","locality":"Bad Kreuznach","municipality":{"key":"07133006","name":"Bad Kreuznach, Stadt","type":"Stadt"},"district":{"key":"07133","name":"Bad Kreuznach","type":"Landkreis"},"federalState":{"key":"07","name":"Rheinland-Pfalz"}},{"name":"Gotenstr.","postalCode":"55545","locality":"Bad Kreuznach","municipality":{"key":"07133006","name":"Bad Kreuznach, Stadt","type":"Stadt"},"district":{"key":"07133","name":"Bad Kreuznach","type":"Landkreis"},"federalState":{"key":"07","name":"Rheinland-Pfalz"}},{"name":"Götzenfelsstr.","postalCode":"55583","locality":"Bad Kreuznach","municipality":{"key":"07133006","name":"Bad Kreuznach, Stadt","type":"Stadt"},"district":{"key":"07133","name":"Bad Kreuznach","type":"Landkreis"},"federalState":{"key":"07","name":"Rheinland-Pfalz"}},{"name":"Graf-Siegfried-Str.","postalCode":"55543","locality":"Bad Kreuznach","municipality":{"key":"07133006","name":"Bad Kreuznach, Stadt","type":"Stadt"},"district":{"key":"07133","name":"Bad Kreuznach","type":"Landkreis"},"federalState":{"key":"07","name":"Rheinland-Pfalz"}},{"name":"Grete-Schickedanz-Str.","postalCode":"55545","locality":"Bad Kreuznach","municipality":{"key":"07133006","name":"Bad Kreuznach, Stadt","type":"Stadt"},"district":{"key":"07133","name":"Bad Kreuznach","type":"Landkreis"},"federalState":{"key":"07","name":"Rheinland-Pfalz"}},{"name":"Grundweg","postalCode":"55545","locality":"Bad Kreuznach","municipality":{"key":"07133006","name":"Bad Kreuznach, Stadt","type":"Stadt"},"district":{"key":"07133","name":"Bad Kreuznach","type":"Landkreis"},"federalState":{"key":"07","name":"Rheinland-Pfalz"}},{"name":"Guldentaler Weg","postalCode":"55545","locality":"Bad Kreuznach","municipality":{"key":"07133006","name":"Bad Kreuznach, Stadt","type":"Stadt"},"district":{"key":"07133","name":"Bad Kreuznach","type":"Landkreis"},"federalState":{"key":"07","name":"Rheinland-Pfalz"}},{"name":"Gustav-Pfarrius-Str.","postalCode":"55543","locality":"Bad Kreuznach","municipality":{"key":"07133006","name":"Bad Kreuznach, Stadt","type":"Stadt"},"district":{"key":"07133","name":"Bad Kreuznach","type":"Landkreis"},"federalState":{"key":"07","name":"Rheinland-Pfalz"}},{"name":"Gutenberger Str.","postalCode":"55545","locality":"Bad Kreuznach","municipality":{"key":"07133006","name":"Bad Kreuznach, Stadt","type":"Stadt"},"district":{"key":"07133","name":"Bad Kreuznach","type":"Landkreis"},"federalState":{"key":"07","name":"Rheinland-Pfalz"}},{"name":"Güterbahnhofstr.","postalCode":"55545","locality":"Bad Kreuznach","municipality":{"key":"07133006","name":"Bad Kreuznach, Stadt","type":"Stadt"},"district":{"key":"07133","name":"Bad Kreuznach","type":"Landkreis"},"federalState":{"key":"07","name":"Rheinland-Pfalz"}},{"name":"Gutlay","postalCode":"55545","locality":"Bad Kreuznach","municipality":{"key":"07133006","name":"Bad Kreuznach, Stadt","type":"Stadt"},"district":{"key":"07133","name":"Bad Kreuznach","type":"Landkreis"},"federalState":{"key":"07","name":"Rheinland-Pfalz"}},{"name":"Gymnasialstr.","postalCode":"55543","locality":"Bad Kreuznach","municipality":{"key":"07133006","name":"Bad Kreuznach, Stadt","type":"Stadt"},"district":{"key":"07133","name":"Bad Kreuznach","type":"Landkreis"},"federalState":{"key":"07","name":"Rheinland-Pfalz"}},{"name":"Hackenheimer Str.","postalCode":"55545","locality":"Bad Kreuznach","municipality":{"key":"07133006","name":"Bad Kreuznach, Stadt","type":"Stadt"},"district":{"key":"07133","name":"Bad Kreuznach","type":"Landkreis"},"federalState":{"key":"07","name":"Rheinland-Pfalz"}},{"name":"Hahnenpfad","postalCode":"55545","locality":"Bad Kreuznach","municipality":{"key":"07133006","name":"Bad Kreuznach, Stadt","type":"Stadt"},"district":{"key":"07133","name":"Bad Kreuznach","type":"Landkreis"},"federalState":{"key":"07","name":"Rheinland-Pfalz"}},{"name":"Händelstr.","postalCode":"55543","locality":"Bad Kreuznach","municipality":{"key":"07133006","name":"Bad Kreuznach, Stadt","type":"Stadt"},"district":{"key":"07133","name":"Bad Kreuznach","type":"Landkreis"},"federalState":{"key":"07","name":"Rheinland-Pfalz"}},{"name":"Hannah-Arendt-Str.","postalCode":"55543","locality":"Bad Kreuznach","municipality":{"key":"07133006","name":"Bad Kreuznach, Stadt","type":"Stadt"},"district":{"key":"07133","name":"Bad Kreuznach","type":"Landkreis"},"federalState":{"key":"07","name":"Rheinland-Pfalz"}},{"name":"Hans-Klauer-Weg","postalCode":"55543","locality":"Bad Kreuznach","municipality":{"key":"07133006","name":"Bad Kreuznach, Stadt","type":"Stadt"},"district":{"key":"07133","name":"Bad Kreuznach","type":"Landkreis"},"federalState":{"key":"07","name":"Rheinland-Pfalz"}},{"name":"Hans-Schumm-Str.","postalCode":"55543","locality":"Bad Kreuznach","municipality":{"key":"07133006","name":"Bad Kreuznach, Stadt","type":"Stadt"},"district":{"key":"07133","name":"Bad Kreuznach","type":"Landkreis"},"federalState":{"key":"07","name":"Rheinland-Pfalz"}},{"name":"Hans-Staab-Str.","postalCode":"55543","locality":"Bad Kreuznach","municipality":{"key":"07133006","name":"Bad Kreuznach, Stadt","type":"Stadt"},"district":{"key":"07133","name":"Bad Kreuznach","type":"Landkreis"},"federalState":{"key":"07","name":"Rheinland-Pfalz"}},{"name":"Hargesheimer Landstr.","postalCode":"55545","locality":"Bad Kreuznach","municipality":{"key":"07133006","name":"Bad Kreuznach, Stadt","type":"Stadt"},"district":{"key":"07133","name":"Bad Kreuznach","type":"Landkreis"},"federalState":{"key":"07","name":"Rheinland-Pfalz"}},{"name":"Hasenrecher Weg","postalCode":"55543","locality":"Bad Kreuznach","municipality":{"key":"07133006","name":"Bad Kreuznach, Stadt","type":"Stadt"},"district":{"key":"07133","name":"Bad Kreuznach","type":"Landkreis"},"federalState":{"key":"07","name":"Rheinland-Pfalz"}},{"name":"Haydnstr.","postalCode":"55543","locality":"Bad Kreuznach","municipality":{"key":"07133006","name":"Bad Kreuznach, Stadt","type":"Stadt"},"district":{"key":"07133","name":"Bad Kreuznach","type":"Landkreis"},"federalState":{"key":"07","name":"Rheinland-Pfalz"}},{"name":"Hebbelstr.","postalCode":"55543","locality":"Bad Kreuznach","municipality":{"key":"07133006","name":"Bad Kreuznach, Stadt","type":"Stadt"},"district":{"key":"07133","name":"Bad Kreuznach","type":"Landkreis"},"federalState":{"key":"07","name":"Rheinland-Pfalz"}},{"name":"Heddesheimer Str.","postalCode":"55545","locality":"Bad Kreuznach","municipality":{"key":"07133006","name":"Bad Kreuznach, Stadt","type":"Stadt"},"district":{"key":"07133","name":"Bad Kreuznach","type":"Landkreis"},"federalState":{"key":"07","name":"Rheinland-Pfalz"}},{"name":"Heidenmauer","postalCode":"55543","locality":"Bad Kreuznach","municipality":{"key":"07133006","name":"Bad Kreuznach, Stadt","type":"Stadt"},"district":{"key":"07133","name":"Bad Kreuznach","type":"Landkreis"},"federalState":{"key":"07","name":"Rheinland-Pfalz"}},{"name":"Heinrich-Held-Str.","postalCode":"55543","locality":"Bad Kreuznach","municipality":{"key":"07133006","name":"Bad Kreuznach, Stadt","type":"Stadt"},"district":{"key":"07133","name":"Bad Kreuznach","type":"Landkreis"},"federalState":{"key":"07","name":"Rheinland-Pfalz"}},{"name":"Heinrich-Kreuz-Str.","postalCode":"55545","locality":"Bad Kreuznach","municipality":{"key":"07133006","name":"Bad Kreuznach, Stadt","type":"Stadt"},"district":{"key":"07133","name":"Bad Kreuznach","type":"Landkreis"},"federalState":{"key":"07","name":"Rheinland-Pfalz"}},{"name":"Heinrichstr.","postalCode":"55543","locality":"Bad Kreuznach","municipality":{"key":"07133006","name":"Bad Kreuznach, Stadt","type":"Stadt"},"district":{"key":"07133","name":"Bad Kreuznach","type":"Landkreis"},"federalState":{"key":"07","name":"Rheinland-Pfalz"}},{"name":"Helenenstr.","postalCode":"55543","locality":"Bad Kreuznach","municipality":{"key":"07133006","name":"Bad Kreuznach, Stadt","type":"Stadt"},"district":{"key":"07133","name":"Bad Kreuznach","type":"Landkreis"},"federalState":{"key":"07","name":"Rheinland-Pfalz"}},{"name":"Helene-Voigtländer-Str.","postalCode":"55543","locality":"Bad Kreuznach","municipality":{"key":"07133006","name":"Bad Kreuznach, Stadt","type":"Stadt"},"district":{"key":"07133","name":"Bad Kreuznach","type":"Landkreis"},"federalState":{"key":"07","name":"Rheinland-Pfalz"}},{"name":"Helmut-Schwindt-Weg","postalCode":"55543","locality":"Bad Kreuznach","municipality":{"key":"07133006","name":"Bad Kreuznach, Stadt","type":"Stadt"},"district":{"key":"07133","name":"Bad Kreuznach","type":"Landkreis"},"federalState":{"key":"07","name":"Rheinland-Pfalz"}},{"name":"Herlesweiden","postalCode":"55543","locality":"Bad Kreuznach","municipality":{"key":"07133006","name":"Bad Kreuznach, Stadt","type":"Stadt"},"district":{"key":"07133","name":"Bad Kreuznach","type":"Landkreis"},"federalState":{"key":"07","name":"Rheinland-Pfalz"}},{"name":"Hermannsbrücke","postalCode":"55545","locality":"Bad Kreuznach","municipality":{"key":"07133006","name":"Bad Kreuznach, Stadt","type":"Stadt"},"district":{"key":"07133","name":"Bad Kreuznach","type":"Landkreis"},"federalState":{"key":"07","name":"Rheinland-Pfalz"}},{"name":"Hermannstr.","postalCode":"55545","locality":"Bad Kreuznach","municipality":{"key":"07133006","name":"Bad Kreuznach, Stadt","type":"Stadt"},"district":{"key":"07133","name":"Bad Kreuznach","type":"Landkreis"},"federalState":{"key":"07","name":"Rheinland-Pfalz"}},{"name":"Herrengarten","postalCode":"55545","locality":"Bad Kreuznach","municipality":{"key":"07133006","name":"Bad Kreuznach, Stadt","type":"Stadt"},"district":{"key":"07133","name":"Bad Kreuznach","type":"Landkreis"},"federalState":{"key":"07","name":"Rheinland-Pfalz"}},{"name":"Herrengartenstr.","postalCode":"55583","locality":"Bad Kreuznach","municipality":{"key":"07133006","name":"Bad Kreuznach, Stadt","type":"Stadt"},"district":{"key":"07133","name":"Bad Kreuznach","type":"Landkreis"},"federalState":{"key":"07","name":"Rheinland-Pfalz"}},{"name":"Hertha-Kuna-Anlage","postalCode":"55583","locality":"Bad Kreuznach","municipality":{"key":"07133006","name":"Bad Kreuznach, Stadt","type":"Stadt"},"district":{"key":"07133","name":"Bad Kreuznach","type":"Landkreis"},"federalState":{"key":"07","name":"Rheinland-Pfalz"}},{"name":"Hildegard-Schäfer-Str.","postalCode":"55543","locality":"Bad Kreuznach","municipality":{"key":"07133006","name":"Bad Kreuznach, Stadt","type":"Stadt"},"district":{"key":"07133","name":"Bad Kreuznach","type":"Landkreis"},"federalState":{"key":"07","name":"Rheinland-Pfalz"}},{"name":"Hinter den Weiden","postalCode":"55545","locality":"Bad Kreuznach","municipality":{"key":"07133006","name":"Bad Kreuznach, Stadt","type":"Stadt"},"district":{"key":"07133","name":"Bad Kreuznach","type":"Landkreis"},"federalState":{"key":"07","name":"Rheinland-Pfalz"}},{"name":"Hintere Grabenstr.","postalCode":"55545","locality":"Bad Kreuznach","municipality":{"key":"07133006","name":"Bad Kreuznach, Stadt","type":"Stadt"},"district":{"key":"07133","name":"Bad Kreuznach","type":"Landkreis"},"federalState":{"key":"07","name":"Rheinland-Pfalz"}},{"name":"Hochfeld","postalCode":"55545","locality":"Bad Kreuznach","municipality":{"key":"07133006","name":"Bad Kreuznach, Stadt","type":"Stadt"},"district":{"key":"07133","name":"Bad Kreuznach","type":"Landkreis"},"federalState":{"key":"07","name":"Rheinland-Pfalz"}},{"name":"Hochstr.","postalCode":"55545","locality":"Bad Kreuznach","municipality":{"key":"07133006","name":"Bad Kreuznach, Stadt","type":"Stadt"},"district":{"key":"07133","name":"Bad Kreuznach","type":"Landkreis"},"federalState":{"key":"07","name":"Rheinland-Pfalz"}},{"name":"Hofgartenstr.","postalCode":"55545","locality":"Bad Kreuznach","municipality":{"key":"07133006","name":"Bad Kreuznach, Stadt","type":"Stadt"},"district":{"key":"07133","name":"Bad Kreuznach","type":"Landkreis"},"federalState":{"key":"07","name":"Rheinland-Pfalz"}},{"name":"Hohe Bell","postalCode":"55543","locality":"Bad Kreuznach","municipality":{"key":"07133006","name":"Bad Kreuznach, Stadt","type":"Stadt"},"district":{"key":"07133","name":"Bad Kreuznach","type":"Landkreis"},"federalState":{"key":"07","name":"Rheinland-Pfalz"}},{"name":"Holbeinstr.","postalCode":"55543","locality":"Bad Kreuznach","municipality":{"key":"07133006","name":"Bad Kreuznach, Stadt","type":"Stadt"},"district":{"key":"07133","name":"Bad Kreuznach","type":"Landkreis"},"federalState":{"key":"07","name":"Rheinland-Pfalz"}},{"name":"Hölderlinstr.","postalCode":"55543","locality":"Bad Kreuznach","municipality":{"key":"07133006","name":"Bad Kreuznach, Stadt","type":"Stadt"},"district":{"key":"07133","name":"Bad Kreuznach","type":"Landkreis"},"federalState":{"key":"07","name":"Rheinland-Pfalz"}},{"name":"Holzmarkt","postalCode":"55545","locality":"Bad Kreuznach","municipality":{"key":"07133006","name":"Bad Kreuznach, Stadt","type":"Stadt"},"district":{"key":"07133","name":"Bad Kreuznach","type":"Landkreis"},"federalState":{"key":"07","name":"Rheinland-Pfalz"}},{"name":"Hombes-Briggelche","postalCode":"55545","locality":"Bad Kreuznach","municipality":{"key":"07133006","name":"Bad Kreuznach, Stadt","type":"Stadt"},"district":{"key":"07133","name":"Bad Kreuznach","type":"Landkreis"},"federalState":{"key":"07","name":"Rheinland-Pfalz"}},{"name":"Horrweiler-Weg","postalCode":"55545","locality":"Bad Kreuznach","municipality":{"key":"07133006","name":"Bad Kreuznach, Stadt","type":"Stadt"},"district":{"key":"07133","name":"Bad Kreuznach","type":"Landkreis"},"federalState":{"key":"07","name":"Rheinland-Pfalz"}},{"name":"Hospitalgasse","postalCode":"55543","locality":"Bad Kreuznach","municipality":{"key":"07133006","name":"Bad Kreuznach, Stadt","type":"Stadt"},"district":{"key":"07133","name":"Bad Kreuznach","type":"Landkreis"},"federalState":{"key":"07","name":"Rheinland-Pfalz"}},{"name":"Hüffelsheimer Str.","postalCode":"55545","locality":"Bad Kreuznach","municipality":{"key":"07133006","name":"Bad Kreuznach, Stadt","type":"Stadt"},"district":{"key":"07133","name":"Bad Kreuznach","type":"Landkreis"},"federalState":{"key":"07","name":"Rheinland-Pfalz"}},{"name":"Hugo-Reich-Str.","postalCode":"55543","locality":"Bad Kreuznach","municipality":{"key":"07133006","name":"Bad Kreuznach, Stadt","type":"Stadt"},"district":{"key":"07133","name":"Bad Kreuznach","type":"Landkreis"},"federalState":{"key":"07","name":"Rheinland-Pfalz"}},{"name":"Hugo-Salzmann-Str.","postalCode":"55543","locality":"Bad Kreuznach","municipality":{"key":"07133006","name":"Bad Kreuznach, Stadt","type":"Stadt"},"district":{"key":"07133","name":"Bad Kreuznach","type":"Landkreis"},"federalState":{"key":"07","name":"Rheinland-Pfalz"}},{"name":"Humperdinckstr.","postalCode":"55543","locality":"Bad Kreuznach","municipality":{"key":"07133006","name":"Bad Kreuznach, Stadt","type":"Stadt"},"district":{"key":"07133","name":"Bad Kreuznach","type":"Landkreis"},"federalState":{"key":"07","name":"Rheinland-Pfalz"}},{"name":"Im Baumfeld","postalCode":"55452","locality":"Dorsheim","municipality":{"key":"07133026","name":"Dorsheim","type":"Kreisangehörige_Gemeinde"},"district":{"key":"07133","name":"Bad Kreuznach","type":"Landkreis"},"federalState":{"key":"07","name":"Rheinland-Pfalz"}},{"name":"In den Kirchzellen","postalCode":"55452","locality":"Dorsheim","municipality":{"key":"07133026","name":"Dorsheim","type":"Kreisangehörige_Gemeinde"},"district":{"key":"07133","name":"Bad Kreuznach","type":"Landkreis"},"federalState":{"key":"07","name":"Rheinland-Pfalz"}},{"name":"Jahnstr.","postalCode":"55583","locality":"Bad Kreuznach","municipality":{"key":"07133006","name":"Bad Kreuznach, Stadt","type":"Stadt"},"district":{"key":"07133","name":"Bad Kreuznach","type":"Landkreis"},"federalState":{"key":"07","name":"Rheinland-Pfalz"}},{"name":"Jahrmarktsbrücke","postalCode":"55543","locality":"Bad Kreuznach","municipality":{"key":"07133006","name":"Bad Kreuznach, Stadt","type":"Stadt"},"district":{"key":"07133","name":"Bad Kreuznach","type":"Landkreis"},"federalState":{"key":"07","name":"Rheinland-Pfalz"}},{"name":"Jahrmarktsbrücke","postalCode":"55545","locality":"Bad Kreuznach","municipality":{"key":"07133006","name":"Bad Kreuznach, Stadt","type":"Stadt"},"district":{"key":"07133","name":"Bad Kreuznach","type":"Landkreis"},"federalState":{"key":"07","name":"Rheinland-Pfalz"}},{"name":"Jean-Winckler-Str.","postalCode":"55543","locality":"Bad Kreuznach","municipality":{"key":"07133006","name":"Bad Kreuznach, Stadt","type":"Stadt"},"district":{"key":"07133","name":"Bad Kreuznach","type":"Landkreis"},"federalState":{"key":"07","name":"Rheinland-Pfalz"}},{"name":"Johannes-Kaup-Str.","postalCode":"55543","locality":"Bad Kreuznach","municipality":{"key":"07133006","name":"Bad Kreuznach, Stadt","type":"Stadt"},"district":{"key":"07133","name":"Bad Kreuznach","type":"Landkreis"},"federalState":{"key":"07","name":"Rheinland-Pfalz"}},{"name":"Johannisstr.","postalCode":"55545","locality":"Bad Kreuznach","municipality":{"key":"07133006","name":"Bad Kreuznach, Stadt","type":"Stadt"},"district":{"key":"07133","name":"Bad Kreuznach","type":"Landkreis"},"federalState":{"key":"07","name":"Rheinland-Pfalz"}},{"name":"Johann-Sebastian-Bach-Str.","postalCode":"55543","locality":"Bad Kreuznach","municipality":{"key":"07133006","name":"Bad Kreuznach, Stadt","type":"Stadt"},"district":{"key":"07133","name":"Bad Kreuznach","type":"Landkreis"},"federalState":{"key":"07","name":"Rheinland-Pfalz"}},{"name":"John-F.-Kennedy-Str.","postalCode":"55543","locality":"Bad Kreuznach","municipality":{"key":"07133006","name":"Bad Kreuznach, Stadt","type":"Stadt"},"district":{"key":"07133","name":"Bad Kreuznach","type":"Landkreis"},"federalState":{"key":"07","name":"Rheinland-Pfalz"}},{"name":"Johrmarktsbrick","postalCode":"55543","locality":"Bad Kreuznach","municipality":{"key":"07133006","name":"Bad Kreuznach, Stadt","type":"Stadt"},"district":{"key":"07133","name":"Bad Kreuznach","type":"Landkreis"},"federalState":{"key":"07","name":"Rheinland-Pfalz"}},{"name":"Josef-Förster-Str.","postalCode":"55545","locality":"Bad Kreuznach","municipality":{"key":"07133006","name":"Bad Kreuznach, Stadt","type":"Stadt"},"district":{"key":"07133","name":"Bad Kreuznach","type":"Landkreis"},"federalState":{"key":"07","name":"Rheinland-Pfalz"}},{"name":"Josef-Schneider-Str.","postalCode":"55543","locality":"Bad Kreuznach","municipality":{"key":"07133006","name":"Bad Kreuznach, Stadt","type":"Stadt"},"district":{"key":"07133","name":"Bad Kreuznach","type":"Landkreis"},"federalState":{"key":"07","name":"Rheinland-Pfalz"}},{"name":"Jungstr.","postalCode":"55543","locality":"Bad Kreuznach","municipality":{"key":"07133006","name":"Bad Kreuznach, Stadt","type":"Stadt"},"district":{"key":"07133","name":"Bad Kreuznach","type":"Landkreis"},"federalState":{"key":"07","name":"Rheinland-Pfalz"}},{"name":"Junkerstr.","postalCode":"55545","locality":"Bad Kreuznach","municipality":{"key":"07133006","name":"Bad Kreuznach, Stadt","type":"Stadt"},"district":{"key":"07133","name":"Bad Kreuznach","type":"Landkreis"},"federalState":{"key":"07","name":"Rheinland-Pfalz"}},{"name":"Jupiterstr.","postalCode":"55545","locality":"Bad Kreuznach","municipality":{"key":"07133006","name":"Bad Kreuznach, Stadt","type":"Stadt"},"district":{"key":"07133","name":"Bad Kreuznach","type":"Landkreis"},"federalState":{"key":"07","name":"Rheinland-Pfalz"}},{"name":"Kahlenberger Str.","postalCode":"55545","locality":"Bad Kreuznach","municipality":{"key":"07133006","name":"Bad Kreuznach, Stadt","type":"Stadt"},"district":{"key":"07133","name":"Bad Kreuznach","type":"Landkreis"},"federalState":{"key":"07","name":"Rheinland-Pfalz"}},{"name":"Kaisermantelweg","postalCode":"55543","locality":"Bad Kreuznach","municipality":{"key":"07133006","name":"Bad Kreuznach, Stadt","type":"Stadt"},"district":{"key":"07133","name":"Bad Kreuznach","type":"Landkreis"},"federalState":{"key":"07","name":"Rheinland-Pfalz"}},{"name":"Kaiser-Wilhelm-Str.","postalCode":"55543","locality":"Bad Kreuznach","municipality":{"key":"07133006","name":"Bad Kreuznach, Stadt","type":"Stadt"},"district":{"key":"07133","name":"Bad Kreuznach","type":"Landkreis"},"federalState":{"key":"07","name":"Rheinland-Pfalz"}},{"name":"Kapitän-Lorenz-Ufer","postalCode":"55583","locality":"Bad Kreuznach","municipality":{"key":"07133006","name":"Bad Kreuznach, Stadt","type":"Stadt"},"district":{"key":"07133","name":"Bad Kreuznach","type":"Landkreis"},"federalState":{"key":"07","name":"Rheinland-Pfalz"}},{"name":"Kappelpfad","postalCode":"55545","locality":"Bad Kreuznach","municipality":{"key":"07133006","name":"Bad Kreuznach, Stadt","type":"Stadt"},"district":{"key":"07133","name":"Bad Kreuznach","type":"Landkreis"},"federalState":{"key":"07","name":"Rheinland-Pfalz"}},{"name":"Karl-Kastenholz-Str.","postalCode":"55543","locality":"Bad Kreuznach","municipality":{"key":"07133006","name":"Bad Kreuznach, Stadt","type":"Stadt"},"district":{"key":"07133","name":"Bad Kreuznach","type":"Landkreis"},"federalState":{"key":"07","name":"Rheinland-Pfalz"}},{"name":"Karl-Kuhn-Str.","postalCode":"55543","locality":"Bad Kreuznach","municipality":{"key":"07133006","name":"Bad Kreuznach, Stadt","type":"Stadt"},"district":{"key":"07133","name":"Bad Kreuznach","type":"Landkreis"},"federalState":{"key":"07","name":"Rheinland-Pfalz"}},{"name":"Karl-Sack-Str.","postalCode":"55545","locality":"Bad Kreuznach","municipality":{"key":"07133006","name":"Bad Kreuznach, Stadt","type":"Stadt"},"district":{"key":"07133","name":"Bad Kreuznach","type":"Landkreis"},"federalState":{"key":"07","name":"Rheinland-Pfalz"}},{"name":"Karlshalle","postalCode":"55543","locality":"Bad Kreuznach","municipality":{"key":"07133006","name":"Bad Kreuznach, Stadt","type":"Stadt"},"district":{"key":"07133","name":"Bad Kreuznach","type":"Landkreis"},"federalState":{"key":"07","name":"Rheinland-Pfalz"}},{"name":"Karl-Steiner-Str.","postalCode":"55543","locality":"Bad Kreuznach","municipality":{"key":"07133006","name":"Bad Kreuznach, Stadt","type":"Stadt"},"district":{"key":"07133","name":"Bad Kreuznach","type":"Landkreis"},"federalState":{"key":"07","name":"Rheinland-Pfalz"}},{"name":"Kastanienweg","postalCode":"55543","locality":"Bad Kreuznach","municipality":{"key":"07133006","name":"Bad Kreuznach, Stadt","type":"Stadt"},"district":{"key":"07133","name":"Bad Kreuznach","type":"Landkreis"},"federalState":{"key":"07","name":"Rheinland-Pfalz"}},{"name":"Käthe-Kollwitz-Str.","postalCode":"55543","locality":"Bad Kreuznach","municipality":{"key":"07133006","name":"Bad Kreuznach, Stadt","type":"Stadt"},"district":{"key":"07133","name":"Bad Kreuznach","type":"Landkreis"},"federalState":{"key":"07","name":"Rheinland-Pfalz"}},{"name":"Keltenstr.","postalCode":"55545","locality":"Bad Kreuznach","municipality":{"key":"07133006","name":"Bad Kreuznach, Stadt","type":"Stadt"},"district":{"key":"07133","name":"Bad Kreuznach","type":"Landkreis"},"federalState":{"key":"07","name":"Rheinland-Pfalz"}},{"name":"Kelterweg","postalCode":"55545","locality":"Bad Kreuznach","municipality":{"key":"07133006","name":"Bad Kreuznach, Stadt","type":"Stadt"},"district":{"key":"07133","name":"Bad Kreuznach","type":"Landkreis"},"federalState":{"key":"07","name":"Rheinland-Pfalz"}},{"name":"Kendelstr.","postalCode":"55545","locality":"Bad Kreuznach","municipality":{"key":"07133006","name":"Bad Kreuznach, Stadt","type":"Stadt"},"district":{"key":"07133","name":"Bad Kreuznach","type":"Landkreis"},"federalState":{"key":"07","name":"Rheinland-Pfalz"}},{"name":"Kernerweg","postalCode":"55583","locality":"Bad Kreuznach","municipality":{"key":"07133006","name":"Bad Kreuznach, Stadt","type":"Stadt"},"district":{"key":"07133","name":"Bad Kreuznach","type":"Landkreis"},"federalState":{"key":"07","name":"Rheinland-Pfalz"}},{"name":"Kettelerstr.","postalCode":"55545","locality":"Bad Kreuznach","municipality":{"key":"07133006","name":"Bad Kreuznach, Stadt","type":"Stadt"},"district":{"key":"07133","name":"Bad Kreuznach","type":"Landkreis"},"federalState":{"key":"07","name":"Rheinland-Pfalz"}},{"name":"Kiefernweg","postalCode":"55543","locality":"Bad Kreuznach","municipality":{"key":"07133006","name":"Bad Kreuznach, Stadt","type":"Stadt"},"district":{"key":"07133","name":"Bad Kreuznach","type":"Landkreis"},"federalState":{"key":"07","name":"Rheinland-Pfalz"}},{"name":"Kiefernweg","postalCode":"55583","locality":"Bad Kreuznach","municipality":{"key":"07133006","name":"Bad Kreuznach, Stadt","type":"Stadt"},"district":{"key":"07133","name":"Bad Kreuznach","type":"Landkreis"},"federalState":{"key":"07","name":"Rheinland-Pfalz"}},{"name":"Kilianstr.","postalCode":"55543","locality":"Bad Kreuznach","municipality":{"key":"07133006","name":"Bad Kreuznach, Stadt","type":"Stadt"},"district":{"key":"07133","name":"Bad Kreuznach","type":"Landkreis"},"federalState":{"key":"07","name":"Rheinland-Pfalz"}},{"name":"Kinscherfstr.","postalCode":"55545","locality":"Bad Kreuznach","municipality":{"key":"07133006","name":"Bad Kreuznach, Stadt","type":"Stadt"},"district":{"key":"07133","name":"Bad Kreuznach","type":"Landkreis"},"federalState":{"key":"07","name":"Rheinland-Pfalz"}},{"name":"Kirchberg","postalCode":"55545","locality":"Bad Kreuznach","municipality":{"key":"07133006","name":"Bad Kreuznach, Stadt","type":"Stadt"},"district":{"key":"07133","name":"Bad Kreuznach","type":"Landkreis"},"federalState":{"key":"07","name":"Rheinland-Pfalz"}},{"name":"Kirchstr.","postalCode":"55545","locality":"Bad Kreuznach","municipality":{"key":"07133006","name":"Bad Kreuznach, Stadt","type":"Stadt"},"district":{"key":"07133","name":"Bad Kreuznach","type":"Landkreis"},"federalState":{"key":"07","name":"Rheinland-Pfalz"}},{"name":"Kirchwinkel","postalCode":"55545","locality":"Bad Kreuznach","municipality":{"key":"07133006","name":"Bad Kreuznach, Stadt","type":"Stadt"},"district":{"key":"07133","name":"Bad Kreuznach","type":"Landkreis"},"federalState":{"key":"07","name":"Rheinland-Pfalz"}},{"name":"Kirschsteinanlage","postalCode":"55543","locality":"Bad Kreuznach","municipality":{"key":"07133006","name":"Bad Kreuznach, Stadt","type":"Stadt"},"district":{"key":"07133","name":"Bad Kreuznach","type":"Landkreis"},"federalState":{"key":"07","name":"Rheinland-Pfalz"}},{"name":"Klagenfurter Str.","postalCode":"55543","locality":"Bad Kreuznach","municipality":{"key":"07133006","name":"Bad Kreuznach, Stadt","type":"Stadt"},"district":{"key":"07133","name":"Bad Kreuznach","type":"Landkreis"},"federalState":{"key":"07","name":"Rheinland-Pfalz"}},{"name":"Klappergasse","postalCode":"55545","locality":"Bad Kreuznach","municipality":{"key":"07133006","name":"Bad Kreuznach, Stadt","type":"Stadt"},"district":{"key":"07133","name":"Bad Kreuznach","type":"Landkreis"},"federalState":{"key":"07","name":"Rheinland-Pfalz"}},{"name":"Kleiststr.","postalCode":"55543","locality":"Bad Kreuznach","municipality":{"key":"07133006","name":"Bad Kreuznach, Stadt","type":"Stadt"},"district":{"key":"07133","name":"Bad Kreuznach","type":"Landkreis"},"federalState":{"key":"07","name":"Rheinland-Pfalz"}},{"name":"Klostergasse","postalCode":"55543","locality":"Bad Kreuznach","municipality":{"key":"07133006","name":"Bad Kreuznach, Stadt","type":"Stadt"},"district":{"key":"07133","name":"Bad Kreuznach","type":"Landkreis"},"federalState":{"key":"07","name":"Rheinland-Pfalz"}},{"name":"Koernickestr.","postalCode":"55543","locality":"Bad Kreuznach","municipality":{"key":"07133006","name":"Bad Kreuznach, Stadt","type":"Stadt"},"district":{"key":"07133","name":"Bad Kreuznach","type":"Landkreis"},"federalState":{"key":"07","name":"Rheinland-Pfalz"}},{"name":"Kolberger Str.","postalCode":"55543","locality":"Bad Kreuznach","municipality":{"key":"07133006","name":"Bad Kreuznach, Stadt","type":"Stadt"},"district":{"key":"07133","name":"Bad Kreuznach","type":"Landkreis"},"federalState":{"key":"07","name":"Rheinland-Pfalz"}},{"name":"Kolpingstr.","postalCode":"55545","locality":"Bad Kreuznach","municipality":{"key":"07133006","name":"Bad Kreuznach, Stadt","type":"Stadt"},"district":{"key":"07133","name":"Bad Kreuznach","type":"Landkreis"},"federalState":{"key":"07","name":"Rheinland-Pfalz"}},{"name":"Königsberger Str.","postalCode":"55543","locality":"Bad Kreuznach","municipality":{"key":"07133006","name":"Bad Kreuznach, Stadt","type":"Stadt"},"district":{"key":"07133","name":"Bad Kreuznach","type":"Landkreis"},"federalState":{"key":"07","name":"Rheinland-Pfalz"}},{"name":"Königsgartenstr.","postalCode":"55583","locality":"Bad Kreuznach","municipality":{"key":"07133006","name":"Bad Kreuznach, Stadt","type":"Stadt"},"district":{"key":"07133","name":"Bad Kreuznach","type":"Landkreis"},"federalState":{"key":"07","name":"Rheinland-Pfalz"}},{"name":"Konrad-Frey-Str.","postalCode":"55543","locality":"Bad Kreuznach","municipality":{"key":"07133006","name":"Bad Kreuznach, Stadt","type":"Stadt"},"district":{"key":"07133","name":"Bad Kreuznach","type":"Landkreis"},"federalState":{"key":"07","name":"Rheinland-Pfalz"}},{"name":"Korellengarten","postalCode":"55543","locality":"Bad Kreuznach","municipality":{"key":"07133006","name":"Bad Kreuznach, Stadt","type":"Stadt"},"district":{"key":"07133","name":"Bad Kreuznach","type":"Landkreis"},"federalState":{"key":"07","name":"Rheinland-Pfalz"}},{"name":"Kronenberger Gasse","postalCode":"55545","locality":"Bad Kreuznach","municipality":{"key":"07133006","name":"Bad Kreuznach, Stadt","type":"Stadt"},"district":{"key":"07133","name":"Bad Kreuznach","type":"Landkreis"},"federalState":{"key":"07","name":"Rheinland-Pfalz"}},{"name":"Krötenpfuhler Weg","postalCode":"55545","locality":"Bad Kreuznach","municipality":{"key":"07133006","name":"Bad Kreuznach, Stadt","type":"Stadt"},"district":{"key":"07133","name":"Bad Kreuznach","type":"Landkreis"},"federalState":{"key":"07","name":"Rheinland-Pfalz"}},{"name":"Krummer Kranz","postalCode":"55545","locality":"Bad Kreuznach","municipality":{"key":"07133006","name":"Bad Kreuznach, Stadt","type":"Stadt"},"district":{"key":"07133","name":"Bad Kreuznach","type":"Landkreis"},"federalState":{"key":"07","name":"Rheinland-Pfalz"}},{"name":"Küppersstr.","postalCode":"55543","locality":"Bad Kreuznach","municipality":{"key":"07133006","name":"Bad Kreuznach, Stadt","type":"Stadt"},"district":{"key":"07133","name":"Bad Kreuznach","type":"Landkreis"},"federalState":{"key":"07","name":"Rheinland-Pfalz"}},{"name":"Kurhausstr.","postalCode":"55543","locality":"Bad Kreuznach","municipality":{"key":"07133006","name":"Bad Kreuznach, Stadt","type":"Stadt"},"district":{"key":"07133","name":"Bad Kreuznach","type":"Landkreis"},"federalState":{"key":"07","name":"Rheinland-Pfalz"}},{"name":"Kurhausstr.","postalCode":"55583","locality":"Bad Kreuznach","municipality":{"key":"07133006","name":"Bad Kreuznach, Stadt","type":"Stadt"},"district":{"key":"07133","name":"Bad Kreuznach","type":"Landkreis"},"federalState":{"key":"07","name":"Rheinland-Pfalz"}},{"name":"Kurpark","postalCode":"55543","locality":"Bad Kreuznach","municipality":{"key":"07133006","name":"Bad Kreuznach, Stadt","type":"Stadt"},"district":{"key":"07133","name":"Bad Kreuznach","type":"Landkreis"},"federalState":{"key":"07","name":"Rheinland-Pfalz"}},{"name":"Kurpark","postalCode":"55583","locality":"Bad Kreuznach","municipality":{"key":"07133006","name":"Bad Kreuznach, Stadt","type":"Stadt"},"district":{"key":"07133","name":"Bad Kreuznach","type":"Landkreis"},"federalState":{"key":"07","name":"Rheinland-Pfalz"}},{"name":"Kurt-Vittinghoff-Strraße","postalCode":"55543","locality":"Bad Kreuznach","municipality":{"key":"07133006","name":"Bad Kreuznach, Stadt","type":"Stadt"},"district":{"key":"07133","name":"Bad Kreuznach","type":"Landkreis"},"federalState":{"key":"07","name":"Rheinland-Pfalz"}},{"name":"Kurt-Weill-Str.","postalCode":"55543","locality":"Bad Kreuznach","municipality":{"key":"07133006","name":"Bad Kreuznach, Stadt","type":"Stadt"},"district":{"key":"07133","name":"Bad Kreuznach","type":"Landkreis"},"federalState":{"key":"07","name":"Rheinland-Pfalz"}},{"name":"Laubenheimer Str.","postalCode":"55452","locality":"Dorsheim","municipality":{"key":"07133026","name":"Dorsheim","type":"Kreisangehörige_Gemeinde"},"district":{"key":"07133","name":"Bad Kreuznach","type":"Landkreis"},"federalState":{"key":"07","name":"Rheinland-Pfalz"}},{"name":"Lindenstr.","postalCode":"55452","locality":"Dorsheim","municipality":{"key":"07133026","name":"Dorsheim","type":"Kreisangehörige_Gemeinde"},"district":{"key":"07133","name":"Bad Kreuznach","type":"Landkreis"},"federalState":{"key":"07","name":"Rheinland-Pfalz"}},{"name":"Magister-Faust-Gasse","postalCode":"55545","locality":"Bad Kreuznach","municipality":{"key":"07133006","name":"Bad Kreuznach, Stadt","type":"Stadt"},"district":{"key":"07133","name":"Bad Kreuznach","type":"Landkreis"},"federalState":{"key":"07","name":"Rheinland-Pfalz"}},{"name":"Mainzer Str.","postalCode":"55545","locality":"Bad Kreuznach","municipality":{"key":"07133006","name":"Bad Kreuznach, Stadt","type":"Stadt"},"district":{"key":"07133","name":"Bad Kreuznach","type":"Landkreis"},"federalState":{"key":"07","name":"Rheinland-Pfalz"}},{"name":"Maler-Faber-Str.","postalCode":"55545","locality":"Bad Kreuznach","municipality":{"key":"07133006","name":"Bad Kreuznach, Stadt","type":"Stadt"},"district":{"key":"07133","name":"Bad Kreuznach","type":"Landkreis"},"federalState":{"key":"07","name":"Rheinland-Pfalz"}},{"name":"Maler-Müller-Str.","postalCode":"55545","locality":"Bad Kreuznach","municipality":{"key":"07133006","name":"Bad Kreuznach, Stadt","type":"Stadt"},"district":{"key":"07133","name":"Bad Kreuznach","type":"Landkreis"},"federalState":{"key":"07","name":"Rheinland-Pfalz"}},{"name":"Mannheimer Str.","postalCode":"55543","locality":"Bad Kreuznach","municipality":{"key":"07133006","name":"Bad Kreuznach, Stadt","type":"Stadt"},"district":{"key":"07133","name":"Bad Kreuznach","type":"Landkreis"},"federalState":{"key":"07","name":"Rheinland-Pfalz"}},{"name":"Mannheimer Str.","postalCode":"55545","locality":"Bad Kreuznach","municipality":{"key":"07133006","name":"Bad Kreuznach, Stadt","type":"Stadt"},"district":{"key":"07133","name":"Bad Kreuznach","type":"Landkreis"},"federalState":{"key":"07","name":"Rheinland-Pfalz"}},{"name":"Manteuffelstr.","postalCode":"55543","locality":"Bad Kreuznach","municipality":{"key":"07133006","name":"Bad Kreuznach, Stadt","type":"Stadt"},"district":{"key":"07133","name":"Bad Kreuznach","type":"Landkreis"},"federalState":{"key":"07","name":"Rheinland-Pfalz"}},{"name":"Märchenhain","postalCode":"55583","locality":"Bad Kreuznach","municipality":{"key":"07133006","name":"Bad Kreuznach, Stadt","type":"Stadt"},"district":{"key":"07133","name":"Bad Kreuznach","type":"Landkreis"},"federalState":{"key":"07","name":"Rheinland-Pfalz"}},{"name":"Margot-Pottlitzer-Strauß-Str.","postalCode":"55543","locality":"Bad Kreuznach","municipality":{"key":"07133006","name":"Bad Kreuznach, Stadt","type":"Stadt"},"district":{"key":"07133","name":"Bad Kreuznach","type":"Landkreis"},"federalState":{"key":"07","name":"Rheinland-Pfalz"}},{"name":"Marienburger Str.","postalCode":"55543","locality":"Bad Kreuznach","municipality":{"key":"07133006","name":"Bad Kreuznach, Stadt","type":"Stadt"},"district":{"key":"07133","name":"Bad Kreuznach","type":"Landkreis"},"federalState":{"key":"07","name":"Rheinland-Pfalz"}},{"name":"Märkische Str.","postalCode":"55543","locality":"Bad Kreuznach","municipality":{"key":"07133006","name":"Bad Kreuznach, Stadt","type":"Stadt"},"district":{"key":"07133","name":"Bad Kreuznach","type":"Landkreis"},"federalState":{"key":"07","name":"Rheinland-Pfalz"}},{"name":"Marktstr.","postalCode":"55545","locality":"Bad Kreuznach","municipality":{"key":"07133006","name":"Bad Kreuznach, Stadt","type":"Stadt"},"district":{"key":"07133","name":"Bad Kreuznach","type":"Landkreis"},"federalState":{"key":"07","name":"Rheinland-Pfalz"}},{"name":"Martinsblick","postalCode":"55545","locality":"Bad Kreuznach","municipality":{"key":"07133006","name":"Bad Kreuznach, Stadt","type":"Stadt"},"district":{"key":"07133","name":"Bad Kreuznach","type":"Landkreis"},"federalState":{"key":"07","name":"Rheinland-Pfalz"}},{"name":"Mathildenstr.","postalCode":"55543","locality":"Bad Kreuznach","municipality":{"key":"07133006","name":"Bad Kreuznach, Stadt","type":"Stadt"},"district":{"key":"07133","name":"Bad Kreuznach","type":"Landkreis"},"federalState":{"key":"07","name":"Rheinland-Pfalz"}},{"name":"Matthias-Grünewald-Str.","postalCode":"55543","locality":"Bad Kreuznach","municipality":{"key":"07133006","name":"Bad Kreuznach, Stadt","type":"Stadt"},"district":{"key":"07133","name":"Bad Kreuznach","type":"Landkreis"},"federalState":{"key":"07","name":"Rheinland-Pfalz"}},{"name":"Max-Ernst-Str.","postalCode":"55543","locality":"Bad Kreuznach","municipality":{"key":"07133006","name":"Bad Kreuznach, Stadt","type":"Stadt"},"district":{"key":"07133","name":"Bad Kreuznach","type":"Landkreis"},"federalState":{"key":"07","name":"Rheinland-Pfalz"}},{"name":"Maximus-Urbanus-Str.","postalCode":"55545","locality":"Bad Kreuznach","municipality":{"key":"07133006","name":"Bad Kreuznach, Stadt","type":"Stadt"},"district":{"key":"07133","name":"Bad Kreuznach","type":"Landkreis"},"federalState":{"key":"07","name":"Rheinland-Pfalz"}},{"name":"Max-Liebermann-Str.","postalCode":"55543","locality":"Bad Kreuznach","municipality":{"key":"07133006","name":"Bad Kreuznach, Stadt","type":"Stadt"},"district":{"key":"07133","name":"Bad Kreuznach","type":"Landkreis"},"federalState":{"key":"07","name":"Rheinland-Pfalz"}},{"name":"Max-Planck-Str.","postalCode":"55545","locality":"Bad Kreuznach","municipality":{"key":"07133006","name":"Bad Kreuznach, Stadt","type":"Stadt"},"district":{"key":"07133","name":"Bad Kreuznach","type":"Landkreis"},"federalState":{"key":"07","name":"Rheinland-Pfalz"}},{"name":"Max-Slevogt-Str.","postalCode":"55543","locality":"Bad Kreuznach","municipality":{"key":"07133006","name":"Bad Kreuznach, Stadt","type":"Stadt"},"district":{"key":"07133","name":"Bad Kreuznach","type":"Landkreis"},"federalState":{"key":"07","name":"Rheinland-Pfalz"}},{"name":"Memeler Str.","postalCode":"55543","locality":"Bad Kreuznach","municipality":{"key":"07133006","name":"Bad Kreuznach, Stadt","type":"Stadt"},"district":{"key":"07133","name":"Bad Kreuznach","type":"Landkreis"},"federalState":{"key":"07","name":"Rheinland-Pfalz"}},{"name":"Merowingerstr.","postalCode":"55545","locality":"Bad Kreuznach","municipality":{"key":"07133006","name":"Bad Kreuznach, Stadt","type":"Stadt"},"district":{"key":"07133","name":"Bad Kreuznach","type":"Landkreis"},"federalState":{"key":"07","name":"Rheinland-Pfalz"}},{"name":"Metzgergasse","postalCode":"55545","locality":"Bad Kreuznach","municipality":{"key":"07133006","name":"Bad Kreuznach, Stadt","type":"Stadt"},"district":{"key":"07133","name":"Bad Kreuznach","type":"Landkreis"},"federalState":{"key":"07","name":"Rheinland-Pfalz"}},{"name":"Michel-Mort-Gasse","postalCode":"55545","locality":"Bad Kreuznach","municipality":{"key":"07133006","name":"Bad Kreuznach, Stadt","type":"Stadt"},"district":{"key":"07133","name":"Bad Kreuznach","type":"Landkreis"},"federalState":{"key":"07","name":"Rheinland-Pfalz"}},{"name":"Milchgasse","postalCode":"55545","locality":"Bad Kreuznach","municipality":{"key":"07133006","name":"Bad Kreuznach, Stadt","type":"Stadt"},"district":{"key":"07133","name":"Bad Kreuznach","type":"Landkreis"},"federalState":{"key":"07","name":"Rheinland-Pfalz"}},{"name":"Mittlerer Flurweg","postalCode":"55543","locality":"Bad Kreuznach","municipality":{"key":"07133006","name":"Bad Kreuznach, Stadt","type":"Stadt"},"district":{"key":"07133","name":"Bad Kreuznach","type":"Landkreis"},"federalState":{"key":"07","name":"Rheinland-Pfalz"}},{"name":"Mittlerer Galgenberger Weg","postalCode":"55543","locality":"Bad Kreuznach","municipality":{"key":"07133006","name":"Bad Kreuznach, Stadt","type":"Stadt"},"district":{"key":"07133","name":"Bad Kreuznach","type":"Landkreis"},"federalState":{"key":"07","name":"Rheinland-Pfalz"}},{"name":"Möbusstr.","postalCode":"55543","locality":"Bad Kreuznach","municipality":{"key":"07133006","name":"Bad Kreuznach, Stadt","type":"Stadt"},"district":{"key":"07133","name":"Bad Kreuznach","type":"Landkreis"},"federalState":{"key":"07","name":"Rheinland-Pfalz"}},{"name":"Moltkestr.","postalCode":"55543","locality":"Bad Kreuznach","municipality":{"key":"07133006","name":"Bad Kreuznach, Stadt","type":"Stadt"},"district":{"key":"07133","name":"Bad Kreuznach","type":"Landkreis"},"federalState":{"key":"07","name":"Rheinland-Pfalz"}},{"name":"Mönchberg","postalCode":"55545","locality":"Bad Kreuznach","municipality":{"key":"07133006","name":"Bad Kreuznach, Stadt","type":"Stadt"},"district":{"key":"07133","name":"Bad Kreuznach","type":"Landkreis"},"federalState":{"key":"07","name":"Rheinland-Pfalz"}},{"name":"Mönchstr.","postalCode":"55545","locality":"Bad Kreuznach","municipality":{"key":"07133006","name":"Bad Kreuznach, Stadt","type":"Stadt"},"district":{"key":"07133","name":"Bad Kreuznach","type":"Landkreis"},"federalState":{"key":"07","name":"Rheinland-Pfalz"}},{"name":"Mörikestr.","postalCode":"55543","locality":"Bad Kreuznach","municipality":{"key":"07133006","name":"Bad Kreuznach, Stadt","type":"Stadt"},"district":{"key":"07133","name":"Bad Kreuznach","type":"Landkreis"},"federalState":{"key":"07","name":"Rheinland-Pfalz"}},{"name":"Mozartstr.","postalCode":"55543","locality":"Bad Kreuznach","municipality":{"key":"07133006","name":"Bad Kreuznach, Stadt","type":"Stadt"},"district":{"key":"07133","name":"Bad Kreuznach","type":"Landkreis"},"federalState":{"key":"07","name":"Rheinland-Pfalz"}},{"name":"Mozartstr.","postalCode":"55583","locality":"Bad Kreuznach","municipality":{"key":"07133006","name":"Bad Kreuznach, Stadt","type":"Stadt"},"district":{"key":"07133","name":"Bad Kreuznach","type":"Landkreis"},"federalState":{"key":"07","name":"Rheinland-Pfalz"}},{"name":"Mühlenstr.","postalCode":"55543","locality":"Bad Kreuznach","municipality":{"key":"07133006","name":"Bad Kreuznach, Stadt","type":"Stadt"},"district":{"key":"07133","name":"Bad Kreuznach","type":"Landkreis"},"federalState":{"key":"07","name":"Rheinland-Pfalz"}},{"name":"Mühlweg","postalCode":"55545","locality":"Bad Kreuznach","municipality":{"key":"07133006","name":"Bad Kreuznach, Stadt","type":"Stadt"},"district":{"key":"07133","name":"Bad Kreuznach","type":"Landkreis"},"federalState":{"key":"07","name":"Rheinland-Pfalz"}},{"name":"Müller-Thurgauweg","postalCode":"55583","locality":"Bad Kreuznach","municipality":{"key":"07133006","name":"Bad Kreuznach, Stadt","type":"Stadt"},"district":{"key":"07133","name":"Bad Kreuznach","type":"Landkreis"},"federalState":{"key":"07","name":"Rheinland-Pfalz"}},{"name":"Nahestr.","postalCode":"55452","locality":"Dorsheim","municipality":{"key":"07133026","name":"Dorsheim","type":"Kreisangehörige_Gemeinde"},"district":{"key":"07133","name":"Bad Kreuznach","type":"Landkreis"},"federalState":{"key":"07","name":"Rheinland-Pfalz"}},{"name":"Oberbürgermeister-Buß-Str.","postalCode":"55543","locality":"Bad Kreuznach","municipality":{"key":"07133006","name":"Bad Kreuznach, Stadt","type":"Stadt"},"district":{"key":"07133","name":"Bad Kreuznach","type":"Landkreis"},"federalState":{"key":"07","name":"Rheinland-Pfalz"}},{"name":"Obere Flotz","postalCode":"55543","locality":"Bad Kreuznach","municipality":{"key":"07133006","name":"Bad Kreuznach, Stadt","type":"Stadt"},"district":{"key":"07133","name":"Bad Kreuznach","type":"Landkreis"},"federalState":{"key":"07","name":"Rheinland-Pfalz"}},{"name":"Obere Gartenstr.","postalCode":"55545","locality":"Bad Kreuznach","municipality":{"key":"07133006","name":"Bad Kreuznach, Stadt","type":"Stadt"},"district":{"key":"07133","name":"Bad Kreuznach","type":"Landkreis"},"federalState":{"key":"07","name":"Rheinland-Pfalz"}},{"name":"Oberer Monauweg","postalCode":"55543","locality":"Bad Kreuznach","municipality":{"key":"07133006","name":"Bad Kreuznach, Stadt","type":"Stadt"},"district":{"key":"07133","name":"Bad Kreuznach","type":"Landkreis"},"federalState":{"key":"07","name":"Rheinland-Pfalz"}},{"name":"Oberer Mühlweg","postalCode":"55545","locality":"Bad Kreuznach","municipality":{"key":"07133006","name":"Bad Kreuznach, Stadt","type":"Stadt"},"district":{"key":"07133","name":"Bad Kreuznach","type":"Landkreis"},"federalState":{"key":"07","name":"Rheinland-Pfalz"}},{"name":"Oceanus-Str.","postalCode":"55545","locality":"Bad Kreuznach","municipality":{"key":"07133006","name":"Bad Kreuznach, Stadt","type":"Stadt"},"district":{"key":"07133","name":"Bad Kreuznach","type":"Landkreis"},"federalState":{"key":"07","name":"Rheinland-Pfalz"}},{"name":"Oligsberg","postalCode":"55543","locality":"Bad Kreuznach","municipality":{"key":"07133006","name":"Bad Kreuznach, Stadt","type":"Stadt"},"district":{"key":"07133","name":"Bad Kreuznach","type":"Landkreis"},"federalState":{"key":"07","name":"Rheinland-Pfalz"}},{"name":"Oranienpark","postalCode":"55543","locality":"Bad Kreuznach","municipality":{"key":"07133006","name":"Bad Kreuznach, Stadt","type":"Stadt"},"district":{"key":"07133","name":"Bad Kreuznach","type":"Landkreis"},"federalState":{"key":"07","name":"Rheinland-Pfalz"}},{"name":"Oranienstr.","postalCode":"55543","locality":"Bad Kreuznach","municipality":{"key":"07133006","name":"Bad Kreuznach, Stadt","type":"Stadt"},"district":{"key":"07133","name":"Bad Kreuznach","type":"Landkreis"},"federalState":{"key":"07","name":"Rheinland-Pfalz"}},{"name":"Orffstr.","postalCode":"55543","locality":"Bad Kreuznach","municipality":{"key":"07133006","name":"Bad Kreuznach, Stadt","type":"Stadt"},"district":{"key":"07133","name":"Bad Kreuznach","type":"Landkreis"},"federalState":{"key":"07","name":"Rheinland-Pfalz"}},{"name":"Ortegaweg","postalCode":"55543","locality":"Bad Kreuznach","municipality":{"key":"07133006","name":"Bad Kreuznach, Stadt","type":"Stadt"},"district":{"key":"07133","name":"Bad Kreuznach","type":"Landkreis"},"federalState":{"key":"07","name":"Rheinland-Pfalz"}},{"name":"Otto-Hersing-Str.","postalCode":"55545","locality":"Bad Kreuznach","municipality":{"key":"07133006","name":"Bad Kreuznach, Stadt","type":"Stadt"},"district":{"key":"07133","name":"Bad Kreuznach","type":"Landkreis"},"federalState":{"key":"07","name":"Rheinland-Pfalz"}},{"name":"Otto-Meffert-Str.","postalCode":"55543","locality":"Bad Kreuznach","municipality":{"key":"07133006","name":"Bad Kreuznach, Stadt","type":"Stadt"},"district":{"key":"07133","name":"Bad Kreuznach","type":"Landkreis"},"federalState":{"key":"07","name":"Rheinland-Pfalz"}},{"name":"Pappelweg","postalCode":"55543","locality":"Bad Kreuznach","municipality":{"key":"07133006","name":"Bad Kreuznach, Stadt","type":"Stadt"},"district":{"key":"07133","name":"Bad Kreuznach","type":"Landkreis"},"federalState":{"key":"07","name":"Rheinland-Pfalz"}},{"name":"Park der Sinne","postalCode":"55543","locality":"Bad Kreuznach","municipality":{"key":"07133006","name":"Bad Kreuznach, Stadt","type":"Stadt"},"district":{"key":"07133","name":"Bad Kreuznach","type":"Landkreis"},"federalState":{"key":"07","name":"Rheinland-Pfalz"}},{"name":"Parkstr.","postalCode":"55545","locality":"Bad Kreuznach","municipality":{"key":"07133006","name":"Bad Kreuznach, Stadt","type":"Stadt"},"district":{"key":"07133","name":"Bad Kreuznach","type":"Landkreis"},"federalState":{"key":"07","name":"Rheinland-Pfalz"}},{"name":"Paul-Barberot-Str.","postalCode":"55543","locality":"Bad Kreuznach","municipality":{"key":"07133006","name":"Bad Kreuznach, Stadt","type":"Stadt"},"district":{"key":"07133","name":"Bad Kreuznach","type":"Landkreis"},"federalState":{"key":"07","name":"Rheinland-Pfalz"}},{"name":"Paul-Hindemith-Str.","postalCode":"55543","locality":"Bad Kreuznach","municipality":{"key":"07133006","name":"Bad Kreuznach, Stadt","type":"Stadt"},"district":{"key":"07133","name":"Bad Kreuznach","type":"Landkreis"},"federalState":{"key":"07","name":"Rheinland-Pfalz"}},{"name":"Paul-Klee-Str.","postalCode":"55543","locality":"Bad Kreuznach","municipality":{"key":"07133006","name":"Bad Kreuznach, Stadt","type":"Stadt"},"district":{"key":"07133","name":"Bad Kreuznach","type":"Landkreis"},"federalState":{"key":"07","name":"Rheinland-Pfalz"}},{"name":"Paul Schneider Weg","postalCode":"55545","locality":"Bad Kreuznach","municipality":{"key":"07133006","name":"Bad Kreuznach, Stadt","type":"Stadt"},"district":{"key":"07133","name":"Bad Kreuznach","type":"Landkreis"},"federalState":{"key":"07","name":"Rheinland-Pfalz"}},{"name":"Pestalozzistr.","postalCode":"55543","locality":"Bad Kreuznach","municipality":{"key":"07133006","name":"Bad Kreuznach, Stadt","type":"Stadt"},"district":{"key":"07133","name":"Bad Kreuznach","type":"Landkreis"},"federalState":{"key":"07","name":"Rheinland-Pfalz"}},{"name":"Peter-Fink-Str.","postalCode":"55543","locality":"Bad Kreuznach","municipality":{"key":"07133006","name":"Bad Kreuznach, Stadt","type":"Stadt"},"district":{"key":"07133","name":"Bad Kreuznach","type":"Landkreis"},"federalState":{"key":"07","name":"Rheinland-Pfalz"}},{"name":"Petersgasse","postalCode":"55545","locality":"Bad Kreuznach","municipality":{"key":"07133006","name":"Bad Kreuznach, Stadt","type":"Stadt"},"district":{"key":"07133","name":"Bad Kreuznach","type":"Landkreis"},"federalState":{"key":"07","name":"Rheinland-Pfalz"}},{"name":"Pfalzsprung","postalCode":"55543","locality":"Bad Kreuznach","municipality":{"key":"07133006","name":"Bad Kreuznach, Stadt","type":"Stadt"},"district":{"key":"07133","name":"Bad Kreuznach","type":"Landkreis"},"federalState":{"key":"07","name":"Rheinland-Pfalz"}},{"name":"Pfalzstr.","postalCode":"55543","locality":"Bad Kreuznach","municipality":{"key":"07133006","name":"Bad Kreuznach, Stadt","type":"Stadt"},"district":{"key":"07133","name":"Bad Kreuznach","type":"Landkreis"},"federalState":{"key":"07","name":"Rheinland-Pfalz"}},{"name":"Pfalzstr.","postalCode":"55583","locality":"Bad Kreuznach","municipality":{"key":"07133006","name":"Bad Kreuznach, Stadt","type":"Stadt"},"district":{"key":"07133","name":"Bad Kreuznach","type":"Landkreis"},"federalState":{"key":"07","name":"Rheinland-Pfalz"}},{"name":"Pfarrer-Dr.-Nagel-Weg","postalCode":"55583","locality":"Bad Kreuznach","municipality":{"key":"07133006","name":"Bad Kreuznach, Stadt","type":"Stadt"},"district":{"key":"07133","name":"Bad Kreuznach","type":"Landkreis"},"federalState":{"key":"07","name":"Rheinland-Pfalz"}},{"name":"Pfarrer-Zimmermann-Weg","postalCode":"55583","locality":"Bad Kreuznach","municipality":{"key":"07133006","name":"Bad Kreuznach, Stadt","type":"Stadt"},"district":{"key":"07133","name":"Bad Kreuznach","type":"Landkreis"},"federalState":{"key":"07","name":"Rheinland-Pfalz"}},{"name":"Pfarrgarten","postalCode":"55545","locality":"Bad Kreuznach","municipality":{"key":"07133006","name":"Bad Kreuznach, Stadt","type":"Stadt"},"district":{"key":"07133","name":"Bad Kreuznach","type":"Landkreis"},"federalState":{"key":"07","name":"Rheinland-Pfalz"}},{"name":"Pfingstwiese","postalCode":"55545","locality":"Bad Kreuznach","municipality":{"key":"07133006","name":"Bad Kreuznach, Stadt","type":"Stadt"},"district":{"key":"07133","name":"Bad Kreuznach","type":"Landkreis"},"federalState":{"key":"07","name":"Rheinland-Pfalz"}},{"name":"Pfitznerstr.","postalCode":"55543","locality":"Bad Kreuznach","municipality":{"key":"07133006","name":"Bad Kreuznach, Stadt","type":"Stadt"},"district":{"key":"07133","name":"Bad Kreuznach","type":"Landkreis"},"federalState":{"key":"07","name":"Rheinland-Pfalz"}},{"name":"Philippstr.","postalCode":"55543","locality":"Bad Kreuznach","municipality":{"key":"07133006","name":"Bad Kreuznach, Stadt","type":"Stadt"},"district":{"key":"07133","name":"Bad Kreuznach","type":"Landkreis"},"federalState":{"key":"07","name":"Rheinland-Pfalz"}},{"name":"Planiger Str.","postalCode":"55543","locality":"Bad Kreuznach","municipality":{"key":"07133006","name":"Bad Kreuznach, Stadt","type":"Stadt"},"district":{"key":"07133","name":"Bad Kreuznach","type":"Landkreis"},"federalState":{"key":"07","name":"Rheinland-Pfalz"}},{"name":"Platz der ehemaligen Synagoge","postalCode":"55543","locality":"Bad Kreuznach","municipality":{"key":"07133006","name":"Bad Kreuznach, Stadt","type":"Stadt"},"district":{"key":"07133","name":"Bad Kreuznach","type":"Landkreis"},"federalState":{"key":"07","name":"Rheinland-Pfalz"}},{"name":"Pommernstr.","postalCode":"55545","locality":"Bad Kreuznach","municipality":{"key":"07133006","name":"Bad Kreuznach, Stadt","type":"Stadt"},"district":{"key":"07133","name":"Bad Kreuznach","type":"Landkreis"},"federalState":{"key":"07","name":"Rheinland-Pfalz"}},{"name":"Portugieserweg","postalCode":"55583","locality":"Bad Kreuznach","municipality":{"key":"07133006","name":"Bad Kreuznach, Stadt","type":"Stadt"},"district":{"key":"07133","name":"Bad Kreuznach","type":"Landkreis"},"federalState":{"key":"07","name":"Rheinland-Pfalz"}},{"name":"Poststr.","postalCode":"55545","locality":"Bad Kreuznach","municipality":{"key":"07133006","name":"Bad Kreuznach, Stadt","type":"Stadt"},"district":{"key":"07133","name":"Bad Kreuznach","type":"Landkreis"},"federalState":{"key":"07","name":"Rheinland-Pfalz"}},{"name":"Potsdamer Str.","postalCode":"55543","locality":"Bad Kreuznach","municipality":{"key":"07133006","name":"Bad Kreuznach, Stadt","type":"Stadt"},"district":{"key":"07133","name":"Bad Kreuznach","type":"Landkreis"},"federalState":{"key":"07","name":"Rheinland-Pfalz"}},{"name":"Potthoffstr.","postalCode":"55545","locality":"Bad Kreuznach","municipality":{"key":"07133006","name":"Bad Kreuznach, Stadt","type":"Stadt"},"district":{"key":"07133","name":"Bad Kreuznach","type":"Landkreis"},"federalState":{"key":"07","name":"Rheinland-Pfalz"}},{"name":"Pouilly-Brücke","postalCode":"55583","locality":"Bad Kreuznach","municipality":{"key":"07133006","name":"Bad Kreuznach, Stadt","type":"Stadt"},"district":{"key":"07133","name":"Bad Kreuznach","type":"Landkreis"},"federalState":{"key":"07","name":"Rheinland-Pfalz"}},{"name":"Prinz-Friedrich-Karl-Str.","postalCode":"55543","locality":"Bad Kreuznach","municipality":{"key":"07133006","name":"Bad Kreuznach, Stadt","type":"Stadt"},"district":{"key":"07133","name":"Bad Kreuznach","type":"Landkreis"},"federalState":{"key":"07","name":"Rheinland-Pfalz"}},{"name":"Rheinblick","postalCode":"55452","locality":"Dorsheim","municipality":{"key":"07133026","name":"Dorsheim","type":"Kreisangehörige_Gemeinde"},"district":{"key":"07133","name":"Bad Kreuznach","type":"Landkreis"},"federalState":{"key":"07","name":"Rheinland-Pfalz"}},{"name":"Saarstr.","postalCode":"55583","locality":"Bad Kreuznach","municipality":{"key":"07133006","name":"Bad Kreuznach, Stadt","type":"Stadt"},"district":{"key":"07133","name":"Bad Kreuznach","type":"Landkreis"},"federalState":{"key":"07","name":"Rheinland-Pfalz"}},{"name":"Salierstr.","postalCode":"55545","locality":"Bad Kreuznach","municipality":{"key":"07133006","name":"Bad Kreuznach, Stadt","type":"Stadt"},"district":{"key":"07133","name":"Bad Kreuznach","type":"Landkreis"},"federalState":{"key":"07","name":"Rheinland-Pfalz"}},{"name":"Salinenblick","postalCode":"55543","locality":"Bad Kreuznach","municipality":{"key":"07133006","name":"Bad Kreuznach, Stadt","type":"Stadt"},"district":{"key":"07133","name":"Bad Kreuznach","type":"Landkreis"},"federalState":{"key":"07","name":"Rheinland-Pfalz"}},{"name":"Salinenplatz","postalCode":"55543","locality":"Bad Kreuznach","municipality":{"key":"07133006","name":"Bad Kreuznach, Stadt","type":"Stadt"},"district":{"key":"07133","name":"Bad Kreuznach","type":"Landkreis"},"federalState":{"key":"07","name":"Rheinland-Pfalz"}},{"name":"Salinenstr.","postalCode":"55543","locality":"Bad Kreuznach","municipality":{"key":"07133006","name":"Bad Kreuznach, Stadt","type":"Stadt"},"district":{"key":"07133","name":"Bad Kreuznach","type":"Landkreis"},"federalState":{"key":"07","name":"Rheinland-Pfalz"}},{"name":"Saline Theodorshalle","postalCode":"55543","locality":"Bad Kreuznach","municipality":{"key":"07133006","name":"Bad Kreuznach, Stadt","type":"Stadt"},"district":{"key":"07133","name":"Bad Kreuznach","type":"Landkreis"},"federalState":{"key":"07","name":"Rheinland-Pfalz"}},{"name":"Sandweg","postalCode":"55543","locality":"Bad Kreuznach","municipality":{"key":"07133006","name":"Bad Kreuznach, Stadt","type":"Stadt"},"district":{"key":"07133","name":"Bad Kreuznach","type":"Landkreis"},"federalState":{"key":"07","name":"Rheinland-Pfalz"}},{"name":"Schäferstr.","postalCode":"55583","locality":"Bad Kreuznach","municipality":{"key":"07133006","name":"Bad Kreuznach, Stadt","type":"Stadt"},"district":{"key":"07133","name":"Bad Kreuznach","type":"Landkreis"},"federalState":{"key":"07","name":"Rheinland-Pfalz"}},{"name":"Schar","postalCode":"55545","locality":"Bad Kreuznach","municipality":{"key":"07133006","name":"Bad Kreuznach, Stadt","type":"Stadt"},"district":{"key":"07133","name":"Bad Kreuznach","type":"Landkreis"},"federalState":{"key":"07","name":"Rheinland-Pfalz"}},{"name":"Scheunenplatz","postalCode":"55545","locality":"Bad Kreuznach","municipality":{"key":"07133006","name":"Bad Kreuznach, Stadt","type":"Stadt"},"district":{"key":"07133","name":"Bad Kreuznach","type":"Landkreis"},"federalState":{"key":"07","name":"Rheinland-Pfalz"}},{"name":"Scheurebenweg","postalCode":"55583","locality":"Bad Kreuznach","municipality":{"key":"07133006","name":"Bad Kreuznach, Stadt","type":"Stadt"},"district":{"key":"07133","name":"Bad Kreuznach","type":"Landkreis"},"federalState":{"key":"07","name":"Rheinland-Pfalz"}},{"name":"Schillerstr.","postalCode":"55545","locality":"Bad Kreuznach","municipality":{"key":"07133006","name":"Bad Kreuznach, Stadt","type":"Stadt"},"district":{"key":"07133","name":"Bad Kreuznach","type":"Landkreis"},"federalState":{"key":"07","name":"Rheinland-Pfalz"}},{"name":"Schlarpshecke","postalCode":"55543","locality":"Bad Kreuznach","municipality":{"key":"07133006","name":"Bad Kreuznach, Stadt","type":"Stadt"},"district":{"key":"07133","name":"Bad Kreuznach","type":"Landkreis"},"federalState":{"key":"07","name":"Rheinland-Pfalz"}},{"name":"Schlesienstr.","postalCode":"55545","locality":"Bad Kreuznach","municipality":{"key":"07133006","name":"Bad Kreuznach, Stadt","type":"Stadt"},"district":{"key":"07133","name":"Bad Kreuznach","type":"Landkreis"},"federalState":{"key":"07","name":"Rheinland-Pfalz"}},{"name":"Schloßgartenstr.","postalCode":"55583","locality":"Bad Kreuznach","municipality":{"key":"07133006","name":"Bad Kreuznach, Stadt","type":"Stadt"},"district":{"key":"07133","name":"Bad Kreuznach","type":"Landkreis"},"federalState":{"key":"07","name":"Rheinland-Pfalz"}},{"name":"Schlosspark","postalCode":"55545","locality":"Bad Kreuznach","municipality":{"key":"07133006","name":"Bad Kreuznach, Stadt","type":"Stadt"},"district":{"key":"07133","name":"Bad Kreuznach","type":"Landkreis"},"federalState":{"key":"07","name":"Rheinland-Pfalz"}},{"name":"Schloßplatz","postalCode":"55543","locality":"Bad Kreuznach","municipality":{"key":"07133006","name":"Bad Kreuznach, Stadt","type":"Stadt"},"district":{"key":"07133","name":"Bad Kreuznach","type":"Landkreis"},"federalState":{"key":"07","name":"Rheinland-Pfalz"}},{"name":"Schloßstr.","postalCode":"55543","locality":"Bad Kreuznach","municipality":{"key":"07133006","name":"Bad Kreuznach, Stadt","type":"Stadt"},"district":{"key":"07133","name":"Bad Kreuznach","type":"Landkreis"},"federalState":{"key":"07","name":"Rheinland-Pfalz"}},{"name":"Schmiedgasse","postalCode":"55545","locality":"Bad Kreuznach","municipality":{"key":"07133006","name":"Bad Kreuznach, Stadt","type":"Stadt"},"district":{"key":"07133","name":"Bad Kreuznach","type":"Landkreis"},"federalState":{"key":"07","name":"Rheinland-Pfalz"}},{"name":"Schneegans-Str.","postalCode":"55543","locality":"Bad Kreuznach","municipality":{"key":"07133006","name":"Bad Kreuznach, Stadt","type":"Stadt"},"district":{"key":"07133","name":"Bad Kreuznach","type":"Landkreis"},"federalState":{"key":"07","name":"Rheinland-Pfalz"}},{"name":"Schnuckenack-Reinhardt-Str.","postalCode":"55543","locality":"Bad Kreuznach","municipality":{"key":"07133006","name":"Bad Kreuznach, Stadt","type":"Stadt"},"district":{"key":"07133","name":"Bad Kreuznach","type":"Landkreis"},"federalState":{"key":"07","name":"Rheinland-Pfalz"}},{"name":"Schöffenstr.","postalCode":"55543","locality":"Bad Kreuznach","municipality":{"key":"07133006","name":"Bad Kreuznach, Stadt","type":"Stadt"},"district":{"key":"07133","name":"Bad Kreuznach","type":"Landkreis"},"federalState":{"key":"07","name":"Rheinland-Pfalz"}},{"name":"Schöne Aussicht","postalCode":"55545","locality":"Bad Kreuznach","municipality":{"key":"07133006","name":"Bad Kreuznach, Stadt","type":"Stadt"},"district":{"key":"07133","name":"Bad Kreuznach","type":"Landkreis"},"federalState":{"key":"07","name":"Rheinland-Pfalz"}},{"name":"Schöne Aussicht","postalCode":"55583","locality":"Bad Kreuznach","municipality":{"key":"07133006","name":"Bad Kreuznach, Stadt","type":"Stadt"},"district":{"key":"07133","name":"Bad Kreuznach","type":"Landkreis"},"federalState":{"key":"07","name":"Rheinland-Pfalz"}},{"name":"Schubertstr.","postalCode":"55543","locality":"Bad Kreuznach","municipality":{"key":"07133006","name":"Bad Kreuznach, Stadt","type":"Stadt"},"district":{"key":"07133","name":"Bad Kreuznach","type":"Landkreis"},"federalState":{"key":"07","name":"Rheinland-Pfalz"}},{"name":"Schuhgasse","postalCode":"55545","locality":"Bad Kreuznach","municipality":{"key":"07133006","name":"Bad Kreuznach, Stadt","type":"Stadt"},"district":{"key":"07133","name":"Bad Kreuznach","type":"Landkreis"},"federalState":{"key":"07","name":"Rheinland-Pfalz"}},{"name":"Schumannstr.","postalCode":"55543","locality":"Bad Kreuznach","municipality":{"key":"07133006","name":"Bad Kreuznach, Stadt","type":"Stadt"},"district":{"key":"07133","name":"Bad Kreuznach","type":"Landkreis"},"federalState":{"key":"07","name":"Rheinland-Pfalz"}},{"name":"Schweppenhausener Str.","postalCode":"55545","locality":"Bad Kreuznach","municipality":{"key":"07133006","name":"Bad Kreuznach, Stadt","type":"Stadt"},"district":{"key":"07133","name":"Bad Kreuznach","type":"Landkreis"},"federalState":{"key":"07","name":"Rheinland-Pfalz"}},{"name":"Seeber Flur","postalCode":"55545","locality":"Bad Kreuznach","municipality":{"key":"07133006","name":"Bad Kreuznach, Stadt","type":"Stadt"},"district":{"key":"07133","name":"Bad Kreuznach","type":"Landkreis"},"federalState":{"key":"07","name":"Rheinland-Pfalz"}},{"name":"Segelfalterweg","postalCode":"55543","locality":"Bad Kreuznach","municipality":{"key":"07133006","name":"Bad Kreuznach, Stadt","type":"Stadt"},"district":{"key":"07133","name":"Bad Kreuznach","type":"Landkreis"},"federalState":{"key":"07","name":"Rheinland-Pfalz"}},{"name":"Seitzstr.","postalCode":"55543","locality":"Bad Kreuznach","municipality":{"key":"07133006","name":"Bad Kreuznach, Stadt","type":"Stadt"},"district":{"key":"07133","name":"Bad Kreuznach","type":"Landkreis"},"federalState":{"key":"07","name":"Rheinland-Pfalz"}},{"name":"Siemensstr.","postalCode":"55543","locality":"Bad Kreuznach","municipality":{"key":"07133006","name":"Bad Kreuznach, Stadt","type":"Stadt"},"district":{"key":"07133","name":"Bad Kreuznach","type":"Landkreis"},"federalState":{"key":"07","name":"Rheinland-Pfalz"}},{"name":"Sigismundstr.","postalCode":"55543","locality":"Bad Kreuznach","municipality":{"key":"07133006","name":"Bad Kreuznach, Stadt","type":"Stadt"},"district":{"key":"07133","name":"Bad Kreuznach","type":"Landkreis"},"federalState":{"key":"07","name":"Rheinland-Pfalz"}},{"name":"Silonia-Str.","postalCode":"55545","locality":"Bad Kreuznach","municipality":{"key":"07133006","name":"Bad Kreuznach, Stadt","type":"Stadt"},"district":{"key":"07133","name":"Bad Kreuznach","type":"Landkreis"},"federalState":{"key":"07","name":"Rheinland-Pfalz"}},{"name":"Silvanerweg","postalCode":"55583","locality":"Bad Kreuznach","municipality":{"key":"07133006","name":"Bad Kreuznach, Stadt","type":"Stadt"},"district":{"key":"07133","name":"Bad Kreuznach","type":"Landkreis"},"federalState":{"key":"07","name":"Rheinland-Pfalz"}},{"name":"Simsa-Str.","postalCode":"55543","locality":"Bad Kreuznach","municipality":{"key":"07133006","name":"Bad Kreuznach, Stadt","type":"Stadt"},"district":{"key":"07133","name":"Bad Kreuznach","type":"Landkreis"},"federalState":{"key":"07","name":"Rheinland-Pfalz"}},{"name":"Sonnenberg","postalCode":"55545","locality":"Bad Kreuznach","municipality":{"key":"07133006","name":"Bad Kreuznach, Stadt","type":"Stadt"},"district":{"key":"07133","name":"Bad Kreuznach","type":"Landkreis"},"federalState":{"key":"07","name":"Rheinland-Pfalz"}},{"name":"Soonblick","postalCode":"55543","locality":"Bad Kreuznach","municipality":{"key":"07133006","name":"Bad Kreuznach, Stadt","type":"Stadt"},"district":{"key":"07133","name":"Bad Kreuznach","type":"Landkreis"},"federalState":{"key":"07","name":"Rheinland-Pfalz"}},{"name":"Sophie Sondhelm Weg","postalCode":"55543","locality":"Bad Kreuznach","municipality":{"key":"07133006","name":"Bad Kreuznach, Stadt","type":"Stadt"},"district":{"key":"07133","name":"Bad Kreuznach","type":"Landkreis"},"federalState":{"key":"07","name":"Rheinland-Pfalz"}},{"name":"Spätburgunderweg","postalCode":"55543","locality":"Bad Kreuznach","municipality":{"key":"07133006","name":"Bad Kreuznach, Stadt","type":"Stadt"},"district":{"key":"07133","name":"Bad Kreuznach","type":"Landkreis"},"federalState":{"key":"07","name":"Rheinland-Pfalz"}},{"name":"Speckerbrücke","postalCode":"55583","locality":"Bad Kreuznach","municipality":{"key":"07133006","name":"Bad Kreuznach, Stadt","type":"Stadt"},"district":{"key":"07133","name":"Bad Kreuznach","type":"Landkreis"},"federalState":{"key":"07","name":"Rheinland-Pfalz"}},{"name":"Sponheimer Str.","postalCode":"55543","locality":"Bad Kreuznach","municipality":{"key":"07133006","name":"Bad Kreuznach, Stadt","type":"Stadt"},"district":{"key":"07133","name":"Bad Kreuznach","type":"Landkreis"},"federalState":{"key":"07","name":"Rheinland-Pfalz"}},{"name":"Starenweg","postalCode":"55583","locality":"Bad Kreuznach","municipality":{"key":"07133006","name":"Bad Kreuznach, Stadt","type":"Stadt"},"district":{"key":"07133","name":"Bad Kreuznach","type":"Landkreis"},"federalState":{"key":"07","name":"Rheinland-Pfalz"}},{"name":"Steige","postalCode":"55545","locality":"Bad Kreuznach","municipality":{"key":"07133006","name":"Bad Kreuznach, Stadt","type":"Stadt"},"district":{"key":"07133","name":"Bad Kreuznach","type":"Landkreis"},"federalState":{"key":"07","name":"Rheinland-Pfalz"}},{"name":"Steinkaut","postalCode":"55543","locality":"Bad Kreuznach","municipality":{"key":"07133006","name":"Bad Kreuznach, Stadt","type":"Stadt"},"district":{"key":"07133","name":"Bad Kreuznach","type":"Landkreis"},"federalState":{"key":"07","name":"Rheinland-Pfalz"}},{"name":"Steinkauzweg","postalCode":"55543","locality":"Bad Kreuznach","municipality":{"key":"07133006","name":"Bad Kreuznach, Stadt","type":"Stadt"},"district":{"key":"07133","name":"Bad Kreuznach","type":"Landkreis"},"federalState":{"key":"07","name":"Rheinland-Pfalz"}},{"name":"Steinweg","postalCode":"55545","locality":"Bad Kreuznach","municipality":{"key":"07133006","name":"Bad Kreuznach, Stadt","type":"Stadt"},"district":{"key":"07133","name":"Bad Kreuznach","type":"Landkreis"},"federalState":{"key":"07","name":"Rheinland-Pfalz"}},{"name":"Stettiner Str.","postalCode":"55543","locality":"Bad Kreuznach","municipality":{"key":"07133006","name":"Bad Kreuznach, Stadt","type":"Stadt"},"district":{"key":"07133","name":"Bad Kreuznach","type":"Landkreis"},"federalState":{"key":"07","name":"Rheinland-Pfalz"}},{"name":"Steubenstr.","postalCode":"55543","locality":"Bad Kreuznach","municipality":{"key":"07133006","name":"Bad Kreuznach, Stadt","type":"Stadt"},"district":{"key":"07133","name":"Bad Kreuznach","type":"Landkreis"},"federalState":{"key":"07","name":"Rheinland-Pfalz"}},{"name":"St.-Gordianus-Str.","postalCode":"55545","locality":"Bad Kreuznach","municipality":{"key":"07133006","name":"Bad Kreuznach, Stadt","type":"Stadt"},"district":{"key":"07133","name":"Bad Kreuznach","type":"Landkreis"},"federalState":{"key":"07","name":"Rheinland-Pfalz"}},{"name":"Trollbergstr.","postalCode":"55452","locality":"Dorsheim","municipality":{"key":"07133026","name":"Dorsheim","type":"Kreisangehörige_Gemeinde"},"district":{"key":"07133","name":"Bad Kreuznach","type":"Landkreis"},"federalState":{"key":"07","name":"Rheinland-Pfalz"}},{"name":"Uhlandstr.","postalCode":"55543","locality":"Bad Kreuznach","municipality":{"key":"07133006","name":"Bad Kreuznach, Stadt","type":"Stadt"},"district":{"key":"07133","name":"Bad Kreuznach","type":"Landkreis"},"federalState":{"key":"07","name":"Rheinland-Pfalz"}},{"name":"Ulmenweg","postalCode":"55543","locality":"Bad Kreuznach","municipality":{"key":"07133006","name":"Bad Kreuznach, Stadt","type":"Stadt"},"district":{"key":"07133","name":"Bad Kreuznach","type":"Landkreis"},"federalState":{"key":"07","name":"Rheinland-Pfalz"}},{"name":"Ulrich-von-Hutten-Str.","postalCode":"55583","locality":"Bad Kreuznach","municipality":{"key":"07133006","name":"Bad Kreuznach, Stadt","type":"Stadt"},"district":{"key":"07133","name":"Bad Kreuznach","type":"Landkreis"},"federalState":{"key":"07","name":"Rheinland-Pfalz"}},{"name":"Unter den Gärten","postalCode":"55545","locality":"Bad Kreuznach","municipality":{"key":"07133006","name":"Bad Kreuznach, Stadt","type":"Stadt"},"district":{"key":"07133","name":"Bad Kreuznach","type":"Landkreis"},"federalState":{"key":"07","name":"Rheinland-Pfalz"}},{"name":"Unter den Linden","postalCode":"55545","locality":"Bad Kreuznach","municipality":{"key":"07133006","name":"Bad Kreuznach, Stadt","type":"Stadt"},"district":{"key":"07133","name":"Bad Kreuznach","type":"Landkreis"},"federalState":{"key":"07","name":"Rheinland-Pfalz"}},{"name":"Unter der Bastei","postalCode":"55583","locality":"Bad Kreuznach","municipality":{"key":"07133006","name":"Bad Kreuznach, Stadt","type":"Stadt"},"district":{"key":"07133","name":"Bad Kreuznach","type":"Landkreis"},"federalState":{"key":"07","name":"Rheinland-Pfalz"}},{"name":"Van-Recum-Str.","postalCode":"55545","locality":"Bad Kreuznach","municipality":{"key":"07133006","name":"Bad Kreuznach, Stadt","type":"Stadt"},"district":{"key":"07133","name":"Bad Kreuznach","type":"Landkreis"},"federalState":{"key":"07","name":"Rheinland-Pfalz"}},{"name":"Victorinusstr.","postalCode":"55545","locality":"Bad Kreuznach","municipality":{"key":"07133006","name":"Bad Kreuznach, Stadt","type":"Stadt"},"district":{"key":"07133","name":"Bad Kreuznach","type":"Landkreis"},"federalState":{"key":"07","name":"Rheinland-Pfalz"}},{"name":"Viktoriastr.","postalCode":"55543","locality":"Bad Kreuznach","municipality":{"key":"07133006","name":"Bad Kreuznach, Stadt","type":"Stadt"},"district":{"key":"07133","name":"Bad Kreuznach","type":"Landkreis"},"federalState":{"key":"07","name":"Rheinland-Pfalz"}},{"name":"Vordere Grabenstr.","postalCode":"55545","locality":"Bad Kreuznach","municipality":{"key":"07133006","name":"Bad Kreuznach, Stadt","type":"Stadt"},"district":{"key":"07133","name":"Bad Kreuznach","type":"Landkreis"},"federalState":{"key":"07","name":"Rheinland-Pfalz"}},{"name":"Waldstr.","postalCode":"55452","locality":"Dorsheim","municipality":{"key":"07133026","name":"Dorsheim","type":"Kreisangehörige_Gemeinde"},"district":{"key":"07133","name":"Bad Kreuznach","type":"Landkreis"},"federalState":{"key":"07","name":"Rheinland-Pfalz"}},{"name":"Weinbergstr.","postalCode":"55452","locality":"Dorsheim","municipality":{"key":"07133026","name":"Dorsheim","type":"Kreisangehörige_Gemeinde"},"district":{"key":"07133","name":"Bad Kreuznach","type":"Landkreis"},"federalState":{"key":"07","name":"Rheinland-Pfalz"}},{"name":"Zehntbrückerstr.","postalCode":"55545","locality":"Bad Kreuznach","municipality":{"key":"07133006","name":"Bad Kreuznach, Stadt","type":"Stadt"},"district":{"key":"07133","name":"Bad Kreuznach","type":"Landkreis"},"federalState":{"key":"07","name":"Rheinland-Pfalz"}},{"name":"Zelterstr.","postalCode":"55545","locality":"Bad Kreuznach","municipality":{"key":"07133006","name":"Bad Kreuznach, Stadt","type":"Stadt"},"district":{"key":"07133","name":"Bad Kreuznach","type":"Landkreis"},"federalState":{"key":"07","name":"Rheinland-Pfalz"}},{"name":"Zum Klotz","postalCode":"55545","locality":"Bad Kreuznach","municipality":{"key":"07133006","name":"Bad Kreuznach, Stadt","type":"Stadt"},"district":{"key":"07133","name":"Bad Kreuznach","type":"Landkreis"},"federalState":{"key":"07","name":"Rheinland-Pfalz"}},{"name":"Zum Neuhof","postalCode":"55545","locality":"Bad Kreuznach","municipality":{"key":"07133006","name":"Bad Kreuznach, Stadt","type":"Stadt"},"district":{"key":"07133","name":"Bad Kreuznach","type":"Landkreis"},"federalState":{"key":"07","name":"Rheinland-Pfalz"}},{"name":"Zum Wacholder","postalCode":"55583","locality":"Bad Kreuznach","municipality":{"key":"07133006","name":"Bad Kreuznach, Stadt","type":"Stadt"},"district":{"key":"07133","name":"Bad Kreuznach","type":"Landkreis"},"federalState":{"key":"07","name":"Rheinland-Pfalz"}},{"name":"Zum Weihergrund","postalCode":"55545","locality":"Bad Kreuznach","municipality":{"key":"07133006","name":"Bad Kreuznach, Stadt","type":"Stadt"},"district":{"key":"07133","name":"Bad Kreuznach","type":"Landkreis"},"federalState":{"key":"07","name":"Rheinland-Pfalz"}},{"name":"Zur Alsenz","postalCode":"55583","locality":"Bad Kreuznach","municipality":{"key":"07133006","name":"Bad Kreuznach, Stadt","type":"Stadt"},"district":{"key":"07133","name":"Bad Kreuznach","type":"Landkreis"},"federalState":{"key":"07","name":"Rheinland-Pfalz"}},{"name":"Zur Klaster","postalCode":"55545","locality":"Bad Kreuznach","municipality":{"key":"07133006","name":"Bad Kreuznach, Stadt","type":"Stadt"},"district":{"key":"07133","name":"Bad Kreuznach","type":"Landkreis"},"federalState":{"key":"07","name":"Rheinland-Pfalz"}},{"name":"Zur Rosenhecke","postalCode":"55545","locality":"Bad Kreuznach","municipality":{"key":"07133006","name":"Bad Kreuznach, Stadt","type":"Stadt"},"district":{"key":"07133","name":"Bad Kreuznach","type":"Landkreis"},"federalState":{"key":"07","name":"Rheinland-Pfalz"}},{"name":"Zweiter Galgenberger Weg","postalCode":"55543","locality":"Bad Kreuznach","municipality":{"key":"07133006","name":"Bad Kreuznach, Stadt","type":"Stadt"},"district":{"key":"07133","name":"Bad Kreuznach","type":"Landkreis"},"federalState":{"key":"07","name":"Rheinland-Pfalz"}},{"name":"Zwischen den Birken","postalCode":"55545","locality":"Bad Kreuznach","municipality":{"key":"07133006","name":"Bad Kreuznach, Stadt","type":"Stadt"},"district":{"key":"07133","name":"Bad Kreuznach","type":"Landkreis"},"federalState":{"key":"07","name":"Rheinland-Pfalz"}},]