[{"key":"10091403","name":"Abendstrasse","postalCode":"8217","locality":"Wilchingen","commune":{"key":"2974","name":"Wilchingen","shortName":"Wilchingen"},"district":{"key":"1406","name":"Bezirk Unterklettgau"},"canton":{"key":"14","code":"SH","name":"Schaffhausen"},"status":"Real"},{"key":"10148814","name":"Alte Bahnhofstrasse","postalCode":"8217","locality":"Wilchingen","commune":{"key":"2974","name":"Wilchingen","shortName":"Wilchingen"},"district":{"key":"1406","name":"Bezirk Unterklettgau"},"canton":{"key":"14","code":"SH","name":"Schaffhausen"},"status":"Real"},{"key":"10073112","name":"Am Bächli","postalCode":"8217","locality":"Wilchingen","commune":{"key":"2974","name":"Wilchingen","shortName":"Wilchingen"},"district":{"key":"1406","name":"Bezirk Unterklettgau"},"canton":{"key":"14","code":"SH","name":"Schaffhausen"},"status":"Real"},{"key":"10187873","name":"Aspenhof","postalCode":"8217","locality":"Wilchingen","commune":{"key":"2974","name":"Wilchingen","shortName":"Wilchingen"},"district":{"key":"1406","name":"Bezirk Unterklettgau"},"canton":{"key":"14","code":"SH","name":"Schaffhausen"},"status":"Real"},{"key":"10149927","name":"Bahnhofstrasse","postalCode":"8217","locality":"Wilchingen","commune":{"key":"2974","name":"Wilchingen","shortName":"Wilchingen"},"district":{"key":"1406","name":"Bezirk Unterklettgau"},"canton":{"key":"14","code":"SH","name":"Schaffhausen"},"status":"Real"},{"key":"10148704","name":"Berghaus","postalCode":"8217","locality":"Wilchingen","commune":{"key":"2974","name":"Wilchingen","shortName":"Wilchingen"},"district":{"key":"1406","name":"Bezirk Unterklettgau"},"canton":{"key":"14","code":"SH","name":"Schaffhausen"},"status":"Real"},{"key":"10179766","name":"Bettengasse","postalCode":"8217","locality":"Wilchingen","commune":{"key":"2974","name":"Wilchingen","shortName":"Wilchingen"},"district":{"key":"1406","name":"Bezirk Unterklettgau"},"canton":{"key":"14","code":"SH","name":"Schaffhausen"},"status":"Real"},{"key":"10031525","name":"Bettenstrasse","postalCode":"8217","locality":"Wilchingen","commune":{"key":"2974","name":"Wilchingen","shortName":"Wilchingen"},"district":{"key":"1406","name":"Bezirk Unterklettgau"},"canton":{"key":"14","code":"SH","name":"Schaffhausen"},"status":"Real"},{"key":"10139725","name":"Birkenhof","postalCode":"8217","locality":"Wilchingen","commune":{"key":"2974","name":"Wilchingen","shortName":"Wilchingen"},"district":{"key":"1406","name":"Bezirk Unterklettgau"},"canton":{"key":"14","code":"SH","name":"Schaffhausen"},"status":"Real"},{"key":"10134234","name":"Blomberg","postalCode":"8217","locality":"Wilchingen","commune":{"key":"2974","name":"Wilchingen","shortName":"Wilchingen"},"district":{"key":"1406","name":"Bezirk Unterklettgau"},"canton":{"key":"14","code":"SH","name":"Schaffhausen"},"status":"Real"},{"key":"10091404","name":"Blumenweg","postalCode":"8217","locality":"Wilchingen","commune":{"key":"2974","name":"Wilchingen","shortName":"Wilchingen"},"district":{"key":"1406","name":"Bezirk Unterklettgau"},"canton":{"key":"14","code":"SH","name":"Schaffhausen"},"status":"Real"},{"key":"10031814","name":"Breitestrasse","postalCode":"8217","locality":"Wilchingen","commune":{"key":"2974","name":"Wilchingen","shortName":"Wilchingen"},"district":{"key":"1406","name":"Bezirk Unterklettgau"},"canton":{"key":"14","code":"SH","name":"Schaffhausen"},"status":"Real"},{"key":"10031815","name":"Bruderhof","postalCode":"8217","locality":"Wilchingen","commune":{"key":"2974","name":"Wilchingen","shortName":"Wilchingen"},"district":{"key":"1406","name":"Bezirk Unterklettgau"},"canton":{"key":"14","code":"SH","name":"Schaffhausen"},"status":"Real"},{"key":"10152436","name":"Brüelstrasse","postalCode":"8217","locality":"Wilchingen","commune":{"key":"2974","name":"Wilchingen","shortName":"Wilchingen"},"district":{"key":"1406","name":"Bezirk Unterklettgau"},"canton":{"key":"14","code":"SH","name":"Schaffhausen"},"status":"Real"},{"key":"10136961","name":"Chilchhofstrasse","postalCode":"8217","locality":"Wilchingen","commune":{"key":"2974","name":"Wilchingen","shortName":"Wilchingen"},"district":{"key":"1406","name":"Bezirk Unterklettgau"},"canton":{"key":"14","code":"SH","name":"Schaffhausen"},"status":"Real"},{"key":"10031816","name":"Dickistrasse","postalCode":"8217","locality":"Wilchingen","commune":{"key":"2974","name":"Wilchingen","shortName":"Wilchingen"},"district":{"key":"1406","name":"Bezirk Unterklettgau"},"canton":{"key":"14","code":"SH","name":"Schaffhausen"},"status":"Real"},{"key":"10134235","name":"Galgenbuckstrasse","postalCode":"8217","locality":"Wilchingen","commune":{"key":"2974","name":"Wilchingen","shortName":"Wilchingen"},"district":{"key":"1406","name":"Bezirk Unterklettgau"},"canton":{"key":"14","code":"SH","name":"Schaffhausen"},"status":"Real"},{"key":"10073114","name":"Gartenweg","postalCode":"8217","locality":"Wilchingen","commune":{"key":"2974","name":"Wilchingen","shortName":"Wilchingen"},"district":{"key":"1406","name":"Bezirk Unterklettgau"},"canton":{"key":"14","code":"SH","name":"Schaffhausen"},"status":"Real"},{"key":"10209544","name":"Gewerbestrasse","postalCode":"8217","locality":"Wilchingen","commune":{"key":"2974","name":"Wilchingen","shortName":"Wilchingen"},"district":{"key":"1406","name":"Bezirk Unterklettgau"},"canton":{"key":"14","code":"SH","name":"Schaffhausen"},"status":"Real"},{"key":"10031818","name":"Grossgasse","postalCode":"8217","locality":"Wilchingen","commune":{"key":"2974","name":"Wilchingen","shortName":"Wilchingen"},"district":{"key":"1406","name":"Bezirk Unterklettgau"},"canton":{"key":"14","code":"SH","name":"Schaffhausen"},"status":"Real"},{"key":"10149928","name":"Haartelstrasse","postalCode":"8217","locality":"Wilchingen","commune":{"key":"2974","name":"Wilchingen","shortName":"Wilchingen"},"district":{"key":"1406","name":"Bezirk Unterklettgau"},"canton":{"key":"14","code":"SH","name":"Schaffhausen"},"status":"Real"},{"key":"10244675","name":"Häidehof","postalCode":"8217","locality":"Wilchingen","commune":{"key":"2974","name":"Wilchingen","shortName":"Wilchingen"},"district":{"key":"1406","name":"Bezirk Unterklettgau"},"canton":{"key":"14","code":"SH","name":"Schaffhausen"},"status":"Real"},{"key":"10152449","name":"Haslachergasse","postalCode":"8217","locality":"Wilchingen","commune":{"key":"2974","name":"Wilchingen","shortName":"Wilchingen"},"district":{"key":"1406","name":"Bezirk Unterklettgau"},"canton":{"key":"14","code":"SH","name":"Schaffhausen"},"status":"Real"},{"key":"10091406","name":"Haslacherstrasse","postalCode":"8217","locality":"Wilchingen","commune":{"key":"2974","name":"Wilchingen","shortName":"Wilchingen"},"district":{"key":"1406","name":"Bezirk Unterklettgau"},"canton":{"key":"14","code":"SH","name":"Schaffhausen"},"status":"Real"},{"key":"10148816","name":"Hauptstrasse","postalCode":"8217","locality":"Wilchingen","commune":{"key":"2974","name":"Wilchingen","shortName":"Wilchingen"},"district":{"key":"1406","name":"Bezirk Unterklettgau"},"canton":{"key":"14","code":"SH","name":"Schaffhausen"},"status":"Real"},{"key":"10152450","name":"Hinterlangenstallstrasse","postalCode":"8217","locality":"Wilchingen","commune":{"key":"2974","name":"Wilchingen","shortName":"Wilchingen"},"district":{"key":"1406","name":"Bezirk Unterklettgau"},"canton":{"key":"14","code":"SH","name":"Schaffhausen"},"status":"Real"},{"key":"10073115","name":"Hofackergarten","postalCode":"8217","locality":"Wilchingen","commune":{"key":"2974","name":"Wilchingen","shortName":"Wilchingen"},"district":{"key":"1406","name":"Bezirk Unterklettgau"},"canton":{"key":"14","code":"SH","name":"Schaffhausen"},"status":"Real"},{"key":"10031819","name":"Hofackerstrasse","postalCode":"8217","locality":"Wilchingen","commune":{"key":"2974","name":"Wilchingen","shortName":"Wilchingen"},"district":{"key":"1406","name":"Bezirk Unterklettgau"},"canton":{"key":"14","code":"SH","name":"Schaffhausen"},"status":"Real"},{"key":"10031820","name":"Hubelhof","postalCode":"8217","locality":"Wilchingen","commune":{"key":"2974","name":"Wilchingen","shortName":"Wilchingen"},"district":{"key":"1406","name":"Bezirk Unterklettgau"},"canton":{"key":"14","code":"SH","name":"Schaffhausen"},"status":"Real"},{"key":"10152451","name":"Hungerbüelstrasse","postalCode":"8217","locality":"Wilchingen","commune":{"key":"2974","name":"Wilchingen","shortName":"Wilchingen"},"district":{"key":"1406","name":"Bezirk Unterklettgau"},"canton":{"key":"14","code":"SH","name":"Schaffhausen"},"status":"Real"},{"key":"10121182","name":"Im Tobel","postalCode":"8217","locality":"Wilchingen","commune":{"key":"2974","name":"Wilchingen","shortName":"Wilchingen"},"district":{"key":"1406","name":"Bezirk Unterklettgau"},"canton":{"key":"14","code":"SH","name":"Schaffhausen"},"status":"Real"},{"key":"10148815","name":"In der Gasse","postalCode":"8217","locality":"Wilchingen","commune":{"key":"2974","name":"Wilchingen","shortName":"Wilchingen"},"district":{"key":"1406","name":"Bezirk Unterklettgau"},"canton":{"key":"14","code":"SH","name":"Schaffhausen"},"status":"Real"},{"key":"10117743","name":"In Wiesen","postalCode":"8217","locality":"Wilchingen","commune":{"key":"2974","name":"Wilchingen","shortName":"Wilchingen"},"district":{"key":"1406","name":"Bezirk Unterklettgau"},"canton":{"key":"14","code":"SH","name":"Schaffhausen"},"status":"Real"},{"key":"10179768","name":"Kapellenweg","postalCode":"8217","locality":"Wilchingen","commune":{"key":"2974","name":"Wilchingen","shortName":"Wilchingen"},"district":{"key":"1406","name":"Bezirk Unterklettgau"},"canton":{"key":"14","code":"SH","name":"Schaffhausen"},"status":"Real"},{"key":"10053542","name":"Klettgauerhof","postalCode":"8217","locality":"Wilchingen","commune":{"key":"2974","name":"Wilchingen","shortName":"Wilchingen"},"district":{"key":"1406","name":"Bezirk Unterklettgau"},"canton":{"key":"14","code":"SH","name":"Schaffhausen"},"status":"Real"},{"key":"10148817","name":"Löchlistrasse","postalCode":"8217","locality":"Wilchingen","commune":{"key":"2974","name":"Wilchingen","shortName":"Wilchingen"},"district":{"key":"1406","name":"Bezirk Unterklettgau"},"canton":{"key":"14","code":"SH","name":"Schaffhausen"},"status":"Real"},{"key":"10103236","name":"Mettlenstrasse","postalCode":"8217","locality":"Wilchingen","commune":{"key":"2974","name":"Wilchingen","shortName":"Wilchingen"},"district":{"key":"1406","name":"Bezirk Unterklettgau"},"canton":{"key":"14","code":"SH","name":"Schaffhausen"},"status":"Real"},{"key":"10031823","name":"Mettlenweg","postalCode":"8217","locality":"Wilchingen","commune":{"key":"2974","name":"Wilchingen","shortName":"Wilchingen"},"district":{"key":"1406","name":"Bezirk Unterklettgau"},"canton":{"key":"14","code":"SH","name":"Schaffhausen"},"status":"Real"},{"key":"10031824","name":"Mühlenstrasse","postalCode":"8217","locality":"Wilchingen","commune":{"key":"2974","name":"Wilchingen","shortName":"Wilchingen"},"district":{"key":"1406","name":"Bezirk Unterklettgau"},"canton":{"key":"14","code":"SH","name":"Schaffhausen"},"status":"Real"},{"key":"10091408","name":"Mülibach","postalCode":"8217","locality":"Wilchingen","commune":{"key":"2974","name":"Wilchingen","shortName":"Wilchingen"},"district":{"key":"1406","name":"Bezirk Unterklettgau"},"canton":{"key":"14","code":"SH","name":"Schaffhausen"},"status":"Real"},{"key":"10053543","name":"Neuhof","postalCode":"8217","locality":"Wilchingen","commune":{"key":"2974","name":"Wilchingen","shortName":"Wilchingen"},"district":{"key":"1406","name":"Bezirk Unterklettgau"},"canton":{"key":"14","code":"SH","name":"Schaffhausen"},"status":"Real"},{"key":"10148818","name":"Niederwiesenstrasse","postalCode":"8217","locality":"Wilchingen","commune":{"key":"2974","name":"Wilchingen","shortName":"Wilchingen"},"district":{"key":"1406","name":"Bezirk Unterklettgau"},"canton":{"key":"14","code":"SH","name":"Schaffhausen"},"status":"Real"},{"key":"10136960","name":"Osterfingerstrasse","postalCode":"8217","locality":"Wilchingen","commune":{"key":"2974","name":"Wilchingen","shortName":"Wilchingen"},"district":{"key":"1406","name":"Bezirk Unterklettgau"},"canton":{"key":"14","code":"SH","name":"Schaffhausen"},"status":"Real"},{"key":"10031827","name":"Quellenweg","postalCode":"8217","locality":"Wilchingen","commune":{"key":"2974","name":"Wilchingen","shortName":"Wilchingen"},"district":{"key":"1406","name":"Bezirk Unterklettgau"},"canton":{"key":"14","code":"SH","name":"Schaffhausen"},"status":"Real"},{"key":"10148819","name":"Raastrasse","postalCode":"8217","locality":"Wilchingen","commune":{"key":"2974","name":"Wilchingen","shortName":"Wilchingen"},"district":{"key":"1406","name":"Bezirk Unterklettgau"},"canton":{"key":"14","code":"SH","name":"Schaffhausen"},"status":"Real"},{"key":"10124090","name":"Rainhof","postalCode":"8217","locality":"Wilchingen","commune":{"key":"2974","name":"Wilchingen","shortName":"Wilchingen"},"district":{"key":"1406","name":"Bezirk Unterklettgau"},"canton":{"key":"14","code":"SH","name":"Schaffhausen"},"status":"Real"},{"key":"10179769","name":"Rossberg","postalCode":"8217","locality":"Wilchingen","commune":{"key":"2974","name":"Wilchingen","shortName":"Wilchingen"},"district":{"key":"1406","name":"Bezirk Unterklettgau"},"canton":{"key":"14","code":"SH","name":"Schaffhausen"},"status":"Real"},{"key":"10031830","name":"Sägereistrasse","postalCode":"8217","locality":"Wilchingen","commune":{"key":"2974","name":"Wilchingen","shortName":"Wilchingen"},"district":{"key":"1406","name":"Bezirk Unterklettgau"},"canton":{"key":"14","code":"SH","name":"Schaffhausen"},"status":"Real"},{"key":"10091410","name":"Schelmengasse","postalCode":"8217","locality":"Wilchingen","commune":{"key":"2974","name":"Wilchingen","shortName":"Wilchingen"},"district":{"key":"1406","name":"Bezirk Unterklettgau"},"canton":{"key":"14","code":"SH","name":"Schaffhausen"},"status":"Real"},{"key":"10031829","name":"Schulgasse","postalCode":"8217","locality":"Wilchingen","commune":{"key":"2974","name":"Wilchingen","shortName":"Wilchingen"},"district":{"key":"1406","name":"Bezirk Unterklettgau"},"canton":{"key":"14","code":"SH","name":"Schaffhausen"},"status":"Real"},{"key":"10073116","name":"Seldwylastrasse","postalCode":"8217","locality":"Wilchingen","commune":{"key":"2974","name":"Wilchingen","shortName":"Wilchingen"},"district":{"key":"1406","name":"Bezirk Unterklettgau"},"canton":{"key":"14","code":"SH","name":"Schaffhausen"},"status":"Real"},{"key":"10104515","name":"Sommerhalde","postalCode":"8217","locality":"Wilchingen","commune":{"key":"2974","name":"Wilchingen","shortName":"Wilchingen"},"district":{"key":"1406","name":"Bezirk Unterklettgau"},"canton":{"key":"14","code":"SH","name":"Schaffhausen"},"status":"Real"},{"key":"10180895","name":"Sonnenhof","postalCode":"8217","locality":"Wilchingen","commune":{"key":"2974","name":"Wilchingen","shortName":"Wilchingen"},"district":{"key":"1406","name":"Bezirk Unterklettgau"},"canton":{"key":"14","code":"SH","name":"Schaffhausen"},"status":"Real"},{"key":"10187875","name":"Spitzhaldenweg","postalCode":"8217","locality":"Wilchingen","commune":{"key":"2974","name":"Wilchingen","shortName":"Wilchingen"},"district":{"key":"1406","name":"Bezirk Unterklettgau"},"canton":{"key":"14","code":"SH","name":"Schaffhausen"},"status":"Real"},{"key":"10152453","name":"Talackerstrasse","postalCode":"8217","locality":"Wilchingen","commune":{"key":"2974","name":"Wilchingen","shortName":"Wilchingen"},"district":{"key":"1406","name":"Bezirk Unterklettgau"},"canton":{"key":"14","code":"SH","name":"Schaffhausen"},"status":"Real"},{"key":"10113223","name":"Tiefenweg","postalCode":"8217","locality":"Wilchingen","commune":{"key":"2974","name":"Wilchingen","shortName":"Wilchingen"},"district":{"key":"1406","name":"Bezirk Unterklettgau"},"canton":{"key":"14","code":"SH","name":"Schaffhausen"},"status":"Real"},{"key":"10149929","name":"Trasadingerstrasse","postalCode":"8217","locality":"Wilchingen","commune":{"key":"2974","name":"Wilchingen","shortName":"Wilchingen"},"district":{"key":"1406","name":"Bezirk Unterklettgau"},"canton":{"key":"14","code":"SH","name":"Schaffhausen"},"status":"Real"},{"key":"10152454","name":"Tumihof","postalCode":"8217","locality":"Wilchingen","commune":{"key":"2974","name":"Wilchingen","shortName":"Wilchingen"},"district":{"key":"1406","name":"Bezirk Unterklettgau"},"canton":{"key":"14","code":"SH","name":"Schaffhausen"},"status":"Real"},{"key":"10091184","name":"Unterneuhaus","postalCode":"8217","locality":"Wilchingen","commune":{"key":"2974","name":"Wilchingen","shortName":"Wilchingen"},"district":{"key":"1406","name":"Bezirk Unterklettgau"},"canton":{"key":"14","code":"SH","name":"Schaffhausen"},"status":"Real"},{"key":"10031833","name":"Weiherweg","postalCode":"8217","locality":"Wilchingen","commune":{"key":"2974","name":"Wilchingen","shortName":"Wilchingen"},"district":{"key":"1406","name":"Bezirk Unterklettgau"},"canton":{"key":"14","code":"SH","name":"Schaffhausen"},"status":"Real"},{"key":"10031834","name":"Wiesenweg","postalCode":"8217","locality":"Wilchingen","commune":{"key":"2974","name":"Wilchingen","shortName":"Wilchingen"},"district":{"key":"1406","name":"Bezirk Unterklettgau"},"canton":{"key":"14","code":"SH","name":"Schaffhausen"},"status":"Real"},{"key":"10053545","name":"Wilchingerberg","postalCode":"8217","locality":"Wilchingen","commune":{"key":"2974","name":"Wilchingen","shortName":"Wilchingen"},"district":{"key":"1406","name":"Bezirk Unterklettgau"},"canton":{"key":"14","code":"SH","name":"Schaffhausen"},"status":"Real"},{"key":"10149930","name":"Winkelstrasse","postalCode":"8217","locality":"Wilchingen","commune":{"key":"2974","name":"Wilchingen","shortName":"Wilchingen"},"district":{"key":"1406","name":"Bezirk Unterklettgau"},"canton":{"key":"14","code":"SH","name":"Schaffhausen"},"status":"Real"},{"key":"10152455","name":"Zinggenstrasse","postalCode":"8217","locality":"Wilchingen","commune":{"key":"2974","name":"Wilchingen","shortName":"Wilchingen"},"district":{"key":"1406","name":"Bezirk Unterklettgau"},"canton":{"key":"14","code":"SH","name":"Schaffhausen"},"status":"Real"},]