[{"name":"Ackerstr.","postalCode":"51702","locality":"Bergneustadt","municipality":{"key":"05374004","name":"Bergneustadt, Stadt","type":"Stadt"},"district":{"key":"05374","name":"Oberbergischer Kreis","type":"Kreis"},"federalState":{"key":"05","name":"Nordrhein-Westfalen"}},{"name":"Aehlenbergstr.","postalCode":"51702","locality":"Bergneustadt","municipality":{"key":"05374004","name":"Bergneustadt, Stadt","type":"Stadt"},"district":{"key":"05374","name":"Oberbergischer Kreis","type":"Kreis"},"federalState":{"key":"05","name":"Nordrhein-Westfalen"}},{"name":"Ahornweg","postalCode":"51702","locality":"Bergneustadt","municipality":{"key":"05374004","name":"Bergneustadt, Stadt","type":"Stadt"},"district":{"key":"05374","name":"Oberbergischer Kreis","type":"Kreis"},"federalState":{"key":"05","name":"Nordrhein-Westfalen"}},{"name":"Alte Halde","postalCode":"51702","locality":"Bergneustadt","municipality":{"key":"05374004","name":"Bergneustadt, Stadt","type":"Stadt"},"district":{"key":"05374","name":"Oberbergischer Kreis","type":"Kreis"},"federalState":{"key":"05","name":"Nordrhein-Westfalen"}},{"name":"Altenastr.","postalCode":"51702","locality":"Bergneustadt","municipality":{"key":"05374004","name":"Bergneustadt, Stadt","type":"Stadt"},"district":{"key":"05374","name":"Oberbergischer Kreis","type":"Kreis"},"federalState":{"key":"05","name":"Nordrhein-Westfalen"}},{"name":"Altenother Weg","postalCode":"51702","locality":"Bergneustadt","municipality":{"key":"05374004","name":"Bergneustadt, Stadt","type":"Stadt"},"district":{"key":"05374","name":"Oberbergischer Kreis","type":"Kreis"},"federalState":{"key":"05","name":"Nordrhein-Westfalen"}},{"name":"Alte Str.","postalCode":"51702","locality":"Bergneustadt","municipality":{"key":"05374004","name":"Bergneustadt, Stadt","type":"Stadt"},"district":{"key":"05374","name":"Oberbergischer Kreis","type":"Kreis"},"federalState":{"key":"05","name":"Nordrhein-Westfalen"}},{"name":"Am alten Friedhof","postalCode":"51702","locality":"Bergneustadt","municipality":{"key":"05374004","name":"Bergneustadt, Stadt","type":"Stadt"},"district":{"key":"05374","name":"Oberbergischer Kreis","type":"Kreis"},"federalState":{"key":"05","name":"Nordrhein-Westfalen"}},{"name":"Am Büchelchen","postalCode":"51702","locality":"Bergneustadt","municipality":{"key":"05374004","name":"Bergneustadt, Stadt","type":"Stadt"},"district":{"key":"05374","name":"Oberbergischer Kreis","type":"Kreis"},"federalState":{"key":"05","name":"Nordrhein-Westfalen"}},{"name":"Am Dümpel","postalCode":"51702","locality":"Bergneustadt","municipality":{"key":"05374004","name":"Bergneustadt, Stadt","type":"Stadt"},"district":{"key":"05374","name":"Oberbergischer Kreis","type":"Kreis"},"federalState":{"key":"05","name":"Nordrhein-Westfalen"}},{"name":"Am Freien Stuhl","postalCode":"51702","locality":"Bergneustadt","municipality":{"key":"05374004","name":"Bergneustadt, Stadt","type":"Stadt"},"district":{"key":"05374","name":"Oberbergischer Kreis","type":"Kreis"},"federalState":{"key":"05","name":"Nordrhein-Westfalen"}},{"name":"Am Fuchsberg","postalCode":"51702","locality":"Bergneustadt","municipality":{"key":"05374004","name":"Bergneustadt, Stadt","type":"Stadt"},"district":{"key":"05374","name":"Oberbergischer Kreis","type":"Kreis"},"federalState":{"key":"05","name":"Nordrhein-Westfalen"}},{"name":"Am Grafweg","postalCode":"51702","locality":"Bergneustadt","municipality":{"key":"05374004","name":"Bergneustadt, Stadt","type":"Stadt"},"district":{"key":"05374","name":"Oberbergischer Kreis","type":"Kreis"},"federalState":{"key":"05","name":"Nordrhein-Westfalen"}},{"name":"Am Hang","postalCode":"51702","locality":"Bergneustadt","municipality":{"key":"05374004","name":"Bergneustadt, Stadt","type":"Stadt"},"district":{"key":"05374","name":"Oberbergischer Kreis","type":"Kreis"},"federalState":{"key":"05","name":"Nordrhein-Westfalen"}},{"name":"Am Heidchen","postalCode":"51702","locality":"Bergneustadt","municipality":{"key":"05374004","name":"Bergneustadt, Stadt","type":"Stadt"},"district":{"key":"05374","name":"Oberbergischer Kreis","type":"Kreis"},"federalState":{"key":"05","name":"Nordrhein-Westfalen"}},{"name":"Am Heinzelmännchen","postalCode":"51702","locality":"Bergneustadt","municipality":{"key":"05374004","name":"Bergneustadt, Stadt","type":"Stadt"},"district":{"key":"05374","name":"Oberbergischer Kreis","type":"Kreis"},"federalState":{"key":"05","name":"Nordrhein-Westfalen"}},{"name":"Am Heshahn","postalCode":"51702","locality":"Bergneustadt","municipality":{"key":"05374004","name":"Bergneustadt, Stadt","type":"Stadt"},"district":{"key":"05374","name":"Oberbergischer Kreis","type":"Kreis"},"federalState":{"key":"05","name":"Nordrhein-Westfalen"}},{"name":"Am Höfchen","postalCode":"51702","locality":"Bergneustadt","municipality":{"key":"05374004","name":"Bergneustadt, Stadt","type":"Stadt"},"district":{"key":"05374","name":"Oberbergischer Kreis","type":"Kreis"},"federalState":{"key":"05","name":"Nordrhein-Westfalen"}},{"name":"Am Holzweg","postalCode":"51702","locality":"Bergneustadt","municipality":{"key":"05374004","name":"Bergneustadt, Stadt","type":"Stadt"},"district":{"key":"05374","name":"Oberbergischer Kreis","type":"Kreis"},"federalState":{"key":"05","name":"Nordrhein-Westfalen"}},{"name":"Amickeweg","postalCode":"51702","locality":"Bergneustadt","municipality":{"key":"05374004","name":"Bergneustadt, Stadt","type":"Stadt"},"district":{"key":"05374","name":"Oberbergischer Kreis","type":"Kreis"},"federalState":{"key":"05","name":"Nordrhein-Westfalen"}},{"name":"Am Klitgen","postalCode":"51702","locality":"Bergneustadt","municipality":{"key":"05374004","name":"Bergneustadt, Stadt","type":"Stadt"},"district":{"key":"05374","name":"Oberbergischer Kreis","type":"Kreis"},"federalState":{"key":"05","name":"Nordrhein-Westfalen"}},{"name":"Am Laubberg","postalCode":"51702","locality":"Bergneustadt","municipality":{"key":"05374004","name":"Bergneustadt, Stadt","type":"Stadt"},"district":{"key":"05374","name":"Oberbergischer Kreis","type":"Kreis"},"federalState":{"key":"05","name":"Nordrhein-Westfalen"}},{"name":"Am Leiweg","postalCode":"51702","locality":"Bergneustadt","municipality":{"key":"05374004","name":"Bergneustadt, Stadt","type":"Stadt"},"district":{"key":"05374","name":"Oberbergischer Kreis","type":"Kreis"},"federalState":{"key":"05","name":"Nordrhein-Westfalen"}},{"name":"Am Müllersberg","postalCode":"51702","locality":"Bergneustadt","municipality":{"key":"05374004","name":"Bergneustadt, Stadt","type":"Stadt"},"district":{"key":"05374","name":"Oberbergischer Kreis","type":"Kreis"},"federalState":{"key":"05","name":"Nordrhein-Westfalen"}},{"name":"Am Ohl","postalCode":"51702","locality":"Bergneustadt","municipality":{"key":"05374004","name":"Bergneustadt, Stadt","type":"Stadt"},"district":{"key":"05374","name":"Oberbergischer Kreis","type":"Kreis"},"federalState":{"key":"05","name":"Nordrhein-Westfalen"}},{"name":"Am Räschen","postalCode":"51702","locality":"Bergneustadt","municipality":{"key":"05374004","name":"Bergneustadt, Stadt","type":"Stadt"},"district":{"key":"05374","name":"Oberbergischer Kreis","type":"Kreis"},"federalState":{"key":"05","name":"Nordrhein-Westfalen"}},{"name":"Am Schlöten","postalCode":"51702","locality":"Bergneustadt","municipality":{"key":"05374004","name":"Bergneustadt, Stadt","type":"Stadt"},"district":{"key":"05374","name":"Oberbergischer Kreis","type":"Kreis"},"federalState":{"key":"05","name":"Nordrhein-Westfalen"}},{"name":"Am Schürenfeld","postalCode":"51702","locality":"Bergneustadt","municipality":{"key":"05374004","name":"Bergneustadt, Stadt","type":"Stadt"},"district":{"key":"05374","name":"Oberbergischer Kreis","type":"Kreis"},"federalState":{"key":"05","name":"Nordrhein-Westfalen"}},{"name":"Am Silberhalter","postalCode":"51702","locality":"Bergneustadt","municipality":{"key":"05374004","name":"Bergneustadt, Stadt","type":"Stadt"},"district":{"key":"05374","name":"Oberbergischer Kreis","type":"Kreis"},"federalState":{"key":"05","name":"Nordrhein-Westfalen"}},{"name":"Am Stadtwald","postalCode":"51702","locality":"Bergneustadt","municipality":{"key":"05374004","name":"Bergneustadt, Stadt","type":"Stadt"},"district":{"key":"05374","name":"Oberbergischer Kreis","type":"Kreis"},"federalState":{"key":"05","name":"Nordrhein-Westfalen"}},{"name":"Am Steimel","postalCode":"51702","locality":"Bergneustadt","municipality":{"key":"05374004","name":"Bergneustadt, Stadt","type":"Stadt"},"district":{"key":"05374","name":"Oberbergischer Kreis","type":"Kreis"},"federalState":{"key":"05","name":"Nordrhein-Westfalen"}},{"name":"Am Stentenberg","postalCode":"51702","locality":"Bergneustadt","municipality":{"key":"05374004","name":"Bergneustadt, Stadt","type":"Stadt"},"district":{"key":"05374","name":"Oberbergischer Kreis","type":"Kreis"},"federalState":{"key":"05","name":"Nordrhein-Westfalen"}},{"name":"Am Stockhahn","postalCode":"51702","locality":"Bergneustadt","municipality":{"key":"05374004","name":"Bergneustadt, Stadt","type":"Stadt"},"district":{"key":"05374","name":"Oberbergischer Kreis","type":"Kreis"},"federalState":{"key":"05","name":"Nordrhein-Westfalen"}},{"name":"Am Wäcker","postalCode":"51702","locality":"Bergneustadt","municipality":{"key":"05374004","name":"Bergneustadt, Stadt","type":"Stadt"},"district":{"key":"05374","name":"Oberbergischer Kreis","type":"Kreis"},"federalState":{"key":"05","name":"Nordrhein-Westfalen"}},{"name":"An der Belmicke","postalCode":"51702","locality":"Bergneustadt","municipality":{"key":"05374004","name":"Bergneustadt, Stadt","type":"Stadt"},"district":{"key":"05374","name":"Oberbergischer Kreis","type":"Kreis"},"federalState":{"key":"05","name":"Nordrhein-Westfalen"}},{"name":"An der Burg","postalCode":"51702","locality":"Bergneustadt","municipality":{"key":"05374004","name":"Bergneustadt, Stadt","type":"Stadt"},"district":{"key":"05374","name":"Oberbergischer Kreis","type":"Kreis"},"federalState":{"key":"05","name":"Nordrhein-Westfalen"}},{"name":"An der Dörspe","postalCode":"51702","locality":"Bergneustadt","municipality":{"key":"05374004","name":"Bergneustadt, Stadt","type":"Stadt"},"district":{"key":"05374","name":"Oberbergischer Kreis","type":"Kreis"},"federalState":{"key":"05","name":"Nordrhein-Westfalen"}},{"name":"An der Eie","postalCode":"51702","locality":"Bergneustadt","municipality":{"key":"05374004","name":"Bergneustadt, Stadt","type":"Stadt"},"district":{"key":"05374","name":"Oberbergischer Kreis","type":"Kreis"},"federalState":{"key":"05","name":"Nordrhein-Westfalen"}},{"name":"Annastr.","postalCode":"51702","locality":"Bergneustadt","municipality":{"key":"05374004","name":"Bergneustadt, Stadt","type":"Stadt"},"district":{"key":"05374","name":"Oberbergischer Kreis","type":"Kreis"},"federalState":{"key":"05","name":"Nordrhein-Westfalen"}},{"name":"Asternweg","postalCode":"51702","locality":"Bergneustadt","municipality":{"key":"05374004","name":"Bergneustadt, Stadt","type":"Stadt"},"district":{"key":"05374","name":"Oberbergischer Kreis","type":"Kreis"},"federalState":{"key":"05","name":"Nordrhein-Westfalen"}},{"name":"Auf dem Dümpel","postalCode":"51702","locality":"Bergneustadt","municipality":{"key":"05374004","name":"Bergneustadt, Stadt","type":"Stadt"},"district":{"key":"05374","name":"Oberbergischer Kreis","type":"Kreis"},"federalState":{"key":"05","name":"Nordrhein-Westfalen"}},{"name":"Auf dem Kamp","postalCode":"51702","locality":"Bergneustadt","municipality":{"key":"05374004","name":"Bergneustadt, Stadt","type":"Stadt"},"district":{"key":"05374","name":"Oberbergischer Kreis","type":"Kreis"},"federalState":{"key":"05","name":"Nordrhein-Westfalen"}},{"name":"Auf dem Nochen","postalCode":"51702","locality":"Bergneustadt","municipality":{"key":"05374004","name":"Bergneustadt, Stadt","type":"Stadt"},"district":{"key":"05374","name":"Oberbergischer Kreis","type":"Kreis"},"federalState":{"key":"05","name":"Nordrhein-Westfalen"}},{"name":"Auf dem Rosten","postalCode":"51702","locality":"Bergneustadt","municipality":{"key":"05374004","name":"Bergneustadt, Stadt","type":"Stadt"},"district":{"key":"05374","name":"Oberbergischer Kreis","type":"Kreis"},"federalState":{"key":"05","name":"Nordrhein-Westfalen"}},{"name":"Auf dem Stein","postalCode":"51702","locality":"Bergneustadt","municipality":{"key":"05374004","name":"Bergneustadt, Stadt","type":"Stadt"},"district":{"key":"05374","name":"Oberbergischer Kreis","type":"Kreis"},"federalState":{"key":"05","name":"Nordrhein-Westfalen"}},{"name":"Auf der Hardt","postalCode":"51702","locality":"Bergneustadt","municipality":{"key":"05374004","name":"Bergneustadt, Stadt","type":"Stadt"},"district":{"key":"05374","name":"Oberbergischer Kreis","type":"Kreis"},"federalState":{"key":"05","name":"Nordrhein-Westfalen"}},{"name":"Bahnhofstr.","postalCode":"51702","locality":"Bergneustadt","municipality":{"key":"05374004","name":"Bergneustadt, Stadt","type":"Stadt"},"district":{"key":"05374","name":"Oberbergischer Kreis","type":"Kreis"},"federalState":{"key":"05","name":"Nordrhein-Westfalen"}},{"name":"Baldenberger Weg","postalCode":"51702","locality":"Bergneustadt","municipality":{"key":"05374004","name":"Bergneustadt, Stadt","type":"Stadt"},"district":{"key":"05374","name":"Oberbergischer Kreis","type":"Kreis"},"federalState":{"key":"05","name":"Nordrhein-Westfalen"}},{"name":"Belmicker Weg","postalCode":"51702","locality":"Bergneustadt","municipality":{"key":"05374004","name":"Bergneustadt, Stadt","type":"Stadt"},"district":{"key":"05374","name":"Oberbergischer Kreis","type":"Kreis"},"federalState":{"key":"05","name":"Nordrhein-Westfalen"}},{"name":"Bergpark Hackenberg","postalCode":"51702","locality":"Bergneustadt","municipality":{"key":"05374004","name":"Bergneustadt, Stadt","type":"Stadt"},"district":{"key":"05374","name":"Oberbergischer Kreis","type":"Kreis"},"federalState":{"key":"05","name":"Nordrhein-Westfalen"}},{"name":"Bergstr.","postalCode":"51702","locality":"Bergneustadt","municipality":{"key":"05374004","name":"Bergneustadt, Stadt","type":"Stadt"},"district":{"key":"05374","name":"Oberbergischer Kreis","type":"Kreis"},"federalState":{"key":"05","name":"Nordrhein-Westfalen"}},{"name":"Birkenstr.","postalCode":"51702","locality":"Bergneustadt","municipality":{"key":"05374004","name":"Bergneustadt, Stadt","type":"Stadt"},"district":{"key":"05374","name":"Oberbergischer Kreis","type":"Kreis"},"federalState":{"key":"05","name":"Nordrhein-Westfalen"}},{"name":"Blumenweg","postalCode":"51702","locality":"Bergneustadt","municipality":{"key":"05374004","name":"Bergneustadt, Stadt","type":"Stadt"},"district":{"key":"05374","name":"Oberbergischer Kreis","type":"Kreis"},"federalState":{"key":"05","name":"Nordrhein-Westfalen"}},{"name":"Bösinghausen","postalCode":"51702","locality":"Bergneustadt","municipality":{"key":"05374004","name":"Bergneustadt, Stadt","type":"Stadt"},"district":{"key":"05374","name":"Oberbergischer Kreis","type":"Kreis"},"federalState":{"key":"05","name":"Nordrhein-Westfalen"}},{"name":"Breitegarten","postalCode":"51702","locality":"Bergneustadt","municipality":{"key":"05374004","name":"Bergneustadt, Stadt","type":"Stadt"},"district":{"key":"05374","name":"Oberbergischer Kreis","type":"Kreis"},"federalState":{"key":"05","name":"Nordrhein-Westfalen"}},{"name":"Breiter Weg","postalCode":"51702","locality":"Bergneustadt","municipality":{"key":"05374004","name":"Bergneustadt, Stadt","type":"Stadt"},"district":{"key":"05374","name":"Oberbergischer Kreis","type":"Kreis"},"federalState":{"key":"05","name":"Nordrhein-Westfalen"}},{"name":"Breite Str.","postalCode":"51702","locality":"Bergneustadt","municipality":{"key":"05374004","name":"Bergneustadt, Stadt","type":"Stadt"},"district":{"key":"05374","name":"Oberbergischer Kreis","type":"Kreis"},"federalState":{"key":"05","name":"Nordrhein-Westfalen"}},{"name":"Breslauer Str.","postalCode":"51702","locality":"Bergneustadt","municipality":{"key":"05374004","name":"Bergneustadt, Stadt","type":"Stadt"},"district":{"key":"05374","name":"Oberbergischer Kreis","type":"Kreis"},"federalState":{"key":"05","name":"Nordrhein-Westfalen"}},{"name":"Brüchener Weg","postalCode":"51702","locality":"Bergneustadt","municipality":{"key":"05374004","name":"Bergneustadt, Stadt","type":"Stadt"},"district":{"key":"05374","name":"Oberbergischer Kreis","type":"Kreis"},"federalState":{"key":"05","name":"Nordrhein-Westfalen"}},{"name":"Bruchhausener Str.","postalCode":"51702","locality":"Bergneustadt","municipality":{"key":"05374004","name":"Bergneustadt, Stadt","type":"Stadt"},"district":{"key":"05374","name":"Oberbergischer Kreis","type":"Kreis"},"federalState":{"key":"05","name":"Nordrhein-Westfalen"}},{"name":"Bruchstr.","postalCode":"51702","locality":"Bergneustadt","municipality":{"key":"05374004","name":"Bergneustadt, Stadt","type":"Stadt"},"district":{"key":"05374","name":"Oberbergischer Kreis","type":"Kreis"},"federalState":{"key":"05","name":"Nordrhein-Westfalen"}},{"name":"Brunnenstr.","postalCode":"51702","locality":"Bergneustadt","municipality":{"key":"05374004","name":"Bergneustadt, Stadt","type":"Stadt"},"district":{"key":"05374","name":"Oberbergischer Kreis","type":"Kreis"},"federalState":{"key":"05","name":"Nordrhein-Westfalen"}},{"name":"Buchenstr.","postalCode":"51702","locality":"Bergneustadt","municipality":{"key":"05374004","name":"Bergneustadt, Stadt","type":"Stadt"},"district":{"key":"05374","name":"Oberbergischer Kreis","type":"Kreis"},"federalState":{"key":"05","name":"Nordrhein-Westfalen"}},{"name":"Burgstr.","postalCode":"51702","locality":"Bergneustadt","municipality":{"key":"05374004","name":"Bergneustadt, Stadt","type":"Stadt"},"district":{"key":"05374","name":"Oberbergischer Kreis","type":"Kreis"},"federalState":{"key":"05","name":"Nordrhein-Westfalen"}},{"name":"Burstenstr.","postalCode":"51702","locality":"Bergneustadt","municipality":{"key":"05374004","name":"Bergneustadt, Stadt","type":"Stadt"},"district":{"key":"05374","name":"Oberbergischer Kreis","type":"Kreis"},"federalState":{"key":"05","name":"Nordrhein-Westfalen"}},{"name":"Burstenweg","postalCode":"51702","locality":"Bergneustadt","municipality":{"key":"05374004","name":"Bergneustadt, Stadt","type":"Stadt"},"district":{"key":"05374","name":"Oberbergischer Kreis","type":"Kreis"},"federalState":{"key":"05","name":"Nordrhein-Westfalen"}},{"name":"Buschweg","postalCode":"51702","locality":"Bergneustadt","municipality":{"key":"05374004","name":"Bergneustadt, Stadt","type":"Stadt"},"district":{"key":"05374","name":"Oberbergischer Kreis","type":"Kreis"},"federalState":{"key":"05","name":"Nordrhein-Westfalen"}},{"name":"Butterwiese","postalCode":"51702","locality":"Bergneustadt","municipality":{"key":"05374004","name":"Bergneustadt, Stadt","type":"Stadt"},"district":{"key":"05374","name":"Oberbergischer Kreis","type":"Kreis"},"federalState":{"key":"05","name":"Nordrhein-Westfalen"}},{"name":"Danziger Str.","postalCode":"51702","locality":"Bergneustadt","municipality":{"key":"05374004","name":"Bergneustadt, Stadt","type":"Stadt"},"district":{"key":"05374","name":"Oberbergischer Kreis","type":"Kreis"},"federalState":{"key":"05","name":"Nordrhein-Westfalen"}},{"name":"Denklinger Str.","postalCode":"51702","locality":"Bergneustadt","municipality":{"key":"05374004","name":"Bergneustadt, Stadt","type":"Stadt"},"district":{"key":"05374","name":"Oberbergischer Kreis","type":"Kreis"},"federalState":{"key":"05","name":"Nordrhein-Westfalen"}},{"name":"Derschlager Str.","postalCode":"51702","locality":"Bergneustadt","municipality":{"key":"05374004","name":"Bergneustadt, Stadt","type":"Stadt"},"district":{"key":"05374","name":"Oberbergischer Kreis","type":"Kreis"},"federalState":{"key":"05","name":"Nordrhein-Westfalen"}},{"name":"Dietrich-Bonhoeffer-Weg","postalCode":"51702","locality":"Bergneustadt","municipality":{"key":"05374004","name":"Bergneustadt, Stadt","type":"Stadt"},"district":{"key":"05374","name":"Oberbergischer Kreis","type":"Kreis"},"federalState":{"key":"05","name":"Nordrhein-Westfalen"}},{"name":"Dorfplatz","postalCode":"51702","locality":"Bergneustadt","municipality":{"key":"05374004","name":"Bergneustadt, Stadt","type":"Stadt"},"district":{"key":"05374","name":"Oberbergischer Kreis","type":"Kreis"},"federalState":{"key":"05","name":"Nordrhein-Westfalen"}},{"name":"Dorfstr.","postalCode":"51702","locality":"Bergneustadt","municipality":{"key":"05374004","name":"Bergneustadt, Stadt","type":"Stadt"},"district":{"key":"05374","name":"Oberbergischer Kreis","type":"Kreis"},"federalState":{"key":"05","name":"Nordrhein-Westfalen"}},{"name":"Dörspestr.","postalCode":"51702","locality":"Bergneustadt","municipality":{"key":"05374004","name":"Bergneustadt, Stadt","type":"Stadt"},"district":{"key":"05374","name":"Oberbergischer Kreis","type":"Kreis"},"federalState":{"key":"05","name":"Nordrhein-Westfalen"}},{"name":"Drostenweg","postalCode":"51702","locality":"Bergneustadt","municipality":{"key":"05374004","name":"Bergneustadt, Stadt","type":"Stadt"},"district":{"key":"05374","name":"Oberbergischer Kreis","type":"Kreis"},"federalState":{"key":"05","name":"Nordrhein-Westfalen"}},{"name":"Druchtemicke","postalCode":"51702","locality":"Bergneustadt","municipality":{"key":"05374004","name":"Bergneustadt, Stadt","type":"Stadt"},"district":{"key":"05374","name":"Oberbergischer Kreis","type":"Kreis"},"federalState":{"key":"05","name":"Nordrhein-Westfalen"}},{"name":"Eckenhagener Str.","postalCode":"51702","locality":"Bergneustadt","municipality":{"key":"05374004","name":"Bergneustadt, Stadt","type":"Stadt"},"district":{"key":"05374","name":"Oberbergischer Kreis","type":"Kreis"},"federalState":{"key":"05","name":"Nordrhein-Westfalen"}},{"name":"Eichendorffstr.","postalCode":"51702","locality":"Bergneustadt","municipality":{"key":"05374004","name":"Bergneustadt, Stadt","type":"Stadt"},"district":{"key":"05374","name":"Oberbergischer Kreis","type":"Kreis"},"federalState":{"key":"05","name":"Nordrhein-Westfalen"}},{"name":"Eichenstr.","postalCode":"51702","locality":"Bergneustadt","municipality":{"key":"05374004","name":"Bergneustadt, Stadt","type":"Stadt"},"district":{"key":"05374","name":"Oberbergischer Kreis","type":"Kreis"},"federalState":{"key":"05","name":"Nordrhein-Westfalen"}},{"name":"Eifeler Str.","postalCode":"51702","locality":"Bergneustadt","municipality":{"key":"05374004","name":"Bergneustadt, Stadt","type":"Stadt"},"district":{"key":"05374","name":"Oberbergischer Kreis","type":"Kreis"},"federalState":{"key":"05","name":"Nordrhein-Westfalen"}},{"name":"Enneststr.","postalCode":"51702","locality":"Bergneustadt","municipality":{"key":"05374004","name":"Bergneustadt, Stadt","type":"Stadt"},"district":{"key":"05374","name":"Oberbergischer Kreis","type":"Kreis"},"federalState":{"key":"05","name":"Nordrhein-Westfalen"}},{"name":"Entgarten","postalCode":"51702","locality":"Bergneustadt","municipality":{"key":"05374004","name":"Bergneustadt, Stadt","type":"Stadt"},"district":{"key":"05374","name":"Oberbergischer Kreis","type":"Kreis"},"federalState":{"key":"05","name":"Nordrhein-Westfalen"}},{"name":"Erlenweg","postalCode":"51702","locality":"Bergneustadt","municipality":{"key":"05374004","name":"Bergneustadt, Stadt","type":"Stadt"},"district":{"key":"05374","name":"Oberbergischer Kreis","type":"Kreis"},"federalState":{"key":"05","name":"Nordrhein-Westfalen"}},{"name":"Ersbacher Weg","postalCode":"51702","locality":"Bergneustadt","municipality":{"key":"05374004","name":"Bergneustadt, Stadt","type":"Stadt"},"district":{"key":"05374","name":"Oberbergischer Kreis","type":"Kreis"},"federalState":{"key":"05","name":"Nordrhein-Westfalen"}},{"name":"Eschenstr.","postalCode":"51702","locality":"Bergneustadt","municipality":{"key":"05374004","name":"Bergneustadt, Stadt","type":"Stadt"},"district":{"key":"05374","name":"Oberbergischer Kreis","type":"Kreis"},"federalState":{"key":"05","name":"Nordrhein-Westfalen"}},{"name":"Feldstr.","postalCode":"51702","locality":"Bergneustadt","municipality":{"key":"05374004","name":"Bergneustadt, Stadt","type":"Stadt"},"district":{"key":"05374","name":"Oberbergischer Kreis","type":"Kreis"},"federalState":{"key":"05","name":"Nordrhein-Westfalen"}},{"name":"Fichtenstr.","postalCode":"51702","locality":"Bergneustadt","municipality":{"key":"05374004","name":"Bergneustadt, Stadt","type":"Stadt"},"district":{"key":"05374","name":"Oberbergischer Kreis","type":"Kreis"},"federalState":{"key":"05","name":"Nordrhein-Westfalen"}},{"name":"Fliederstr.","postalCode":"51702","locality":"Bergneustadt","municipality":{"key":"05374004","name":"Bergneustadt, Stadt","type":"Stadt"},"district":{"key":"05374","name":"Oberbergischer Kreis","type":"Kreis"},"federalState":{"key":"05","name":"Nordrhein-Westfalen"}},{"name":"Flurstr.","postalCode":"51702","locality":"Bergneustadt","municipality":{"key":"05374004","name":"Bergneustadt, Stadt","type":"Stadt"},"district":{"key":"05374","name":"Oberbergischer Kreis","type":"Kreis"},"federalState":{"key":"05","name":"Nordrhein-Westfalen"}},{"name":"Freischlade","postalCode":"51702","locality":"Bergneustadt","municipality":{"key":"05374004","name":"Bergneustadt, Stadt","type":"Stadt"},"district":{"key":"05374","name":"Oberbergischer Kreis","type":"Kreis"},"federalState":{"key":"05","name":"Nordrhein-Westfalen"}},{"name":"Friedhofstr.","postalCode":"51702","locality":"Bergneustadt","municipality":{"key":"05374004","name":"Bergneustadt, Stadt","type":"Stadt"},"district":{"key":"05374","name":"Oberbergischer Kreis","type":"Kreis"},"federalState":{"key":"05","name":"Nordrhein-Westfalen"}},{"name":"Friedrich-Ebert-Str.","postalCode":"51702","locality":"Bergneustadt","municipality":{"key":"05374004","name":"Bergneustadt, Stadt","type":"Stadt"},"district":{"key":"05374","name":"Oberbergischer Kreis","type":"Kreis"},"federalState":{"key":"05","name":"Nordrhein-Westfalen"}},{"name":"Fritz-Rau-Str.","postalCode":"51702","locality":"Bergneustadt","municipality":{"key":"05374004","name":"Bergneustadt, Stadt","type":"Stadt"},"district":{"key":"05374","name":"Oberbergischer Kreis","type":"Kreis"},"federalState":{"key":"05","name":"Nordrhein-Westfalen"}},{"name":"Frümbergstr.","postalCode":"51702","locality":"Bergneustadt","municipality":{"key":"05374004","name":"Bergneustadt, Stadt","type":"Stadt"},"district":{"key":"05374","name":"Oberbergischer Kreis","type":"Kreis"},"federalState":{"key":"05","name":"Nordrhein-Westfalen"}},{"name":"Gartenstr.","postalCode":"51702","locality":"Bergneustadt","municipality":{"key":"05374004","name":"Bergneustadt, Stadt","type":"Stadt"},"district":{"key":"05374","name":"Oberbergischer Kreis","type":"Kreis"},"federalState":{"key":"05","name":"Nordrhein-Westfalen"}},{"name":"Gasstr.","postalCode":"51702","locality":"Bergneustadt","municipality":{"key":"05374004","name":"Bergneustadt, Stadt","type":"Stadt"},"district":{"key":"05374","name":"Oberbergischer Kreis","type":"Kreis"},"federalState":{"key":"05","name":"Nordrhein-Westfalen"}},{"name":"Geesthölzchen","postalCode":"51702","locality":"Bergneustadt","municipality":{"key":"05374004","name":"Bergneustadt, Stadt","type":"Stadt"},"district":{"key":"05374","name":"Oberbergischer Kreis","type":"Kreis"},"federalState":{"key":"05","name":"Nordrhein-Westfalen"}},{"name":"Geschleide","postalCode":"51702","locality":"Bergneustadt","municipality":{"key":"05374004","name":"Bergneustadt, Stadt","type":"Stadt"},"district":{"key":"05374","name":"Oberbergischer Kreis","type":"Kreis"},"federalState":{"key":"05","name":"Nordrhein-Westfalen"}},{"name":"Gimbornstr.","postalCode":"51702","locality":"Bergneustadt","municipality":{"key":"05374004","name":"Bergneustadt, Stadt","type":"Stadt"},"district":{"key":"05374","name":"Oberbergischer Kreis","type":"Kreis"},"federalState":{"key":"05","name":"Nordrhein-Westfalen"}},{"name":"Glockenbergstr.","postalCode":"51702","locality":"Bergneustadt","municipality":{"key":"05374004","name":"Bergneustadt, Stadt","type":"Stadt"},"district":{"key":"05374","name":"Oberbergischer Kreis","type":"Kreis"},"federalState":{"key":"05","name":"Nordrhein-Westfalen"}},{"name":"Goethestr.","postalCode":"51702","locality":"Bergneustadt","municipality":{"key":"05374004","name":"Bergneustadt, Stadt","type":"Stadt"},"district":{"key":"05374","name":"Oberbergischer Kreis","type":"Kreis"},"federalState":{"key":"05","name":"Nordrhein-Westfalen"}},{"name":"Hackenberger Weg","postalCode":"51702","locality":"Bergneustadt","municipality":{"key":"05374004","name":"Bergneustadt, Stadt","type":"Stadt"},"district":{"key":"05374","name":"Oberbergischer Kreis","type":"Kreis"},"federalState":{"key":"05","name":"Nordrhein-Westfalen"}},{"name":"Hackewiese","postalCode":"51702","locality":"Bergneustadt","municipality":{"key":"05374004","name":"Bergneustadt, Stadt","type":"Stadt"},"district":{"key":"05374","name":"Oberbergischer Kreis","type":"Kreis"},"federalState":{"key":"05","name":"Nordrhein-Westfalen"}},{"name":"Hanenstr.","postalCode":"51702","locality":"Bergneustadt","municipality":{"key":"05374004","name":"Bergneustadt, Stadt","type":"Stadt"},"district":{"key":"05374","name":"Oberbergischer Kreis","type":"Kreis"},"federalState":{"key":"05","name":"Nordrhein-Westfalen"}},{"name":"Hannemicker Weg","postalCode":"51702","locality":"Bergneustadt","municipality":{"key":"05374004","name":"Bergneustadt, Stadt","type":"Stadt"},"district":{"key":"05374","name":"Oberbergischer Kreis","type":"Kreis"},"federalState":{"key":"05","name":"Nordrhein-Westfalen"}},{"name":"Hardtstr.","postalCode":"51702","locality":"Bergneustadt","municipality":{"key":"05374004","name":"Bergneustadt, Stadt","type":"Stadt"},"district":{"key":"05374","name":"Oberbergischer Kreis","type":"Kreis"},"federalState":{"key":"05","name":"Nordrhein-Westfalen"}},{"name":"Hartemicker Weg","postalCode":"51702","locality":"Bergneustadt","municipality":{"key":"05374004","name":"Bergneustadt, Stadt","type":"Stadt"},"district":{"key":"05374","name":"Oberbergischer Kreis","type":"Kreis"},"federalState":{"key":"05","name":"Nordrhein-Westfalen"}},{"name":"Hauptstr.","postalCode":"51702","locality":"Bergneustadt","municipality":{"key":"05374004","name":"Bergneustadt, Stadt","type":"Stadt"},"district":{"key":"05374","name":"Oberbergischer Kreis","type":"Kreis"},"federalState":{"key":"05","name":"Nordrhein-Westfalen"}},{"name":"Heckenweg","postalCode":"51702","locality":"Bergneustadt","municipality":{"key":"05374004","name":"Bergneustadt, Stadt","type":"Stadt"},"district":{"key":"05374","name":"Oberbergischer Kreis","type":"Kreis"},"federalState":{"key":"05","name":"Nordrhein-Westfalen"}},{"name":"Heerstr.","postalCode":"51702","locality":"Bergneustadt","municipality":{"key":"05374004","name":"Bergneustadt, Stadt","type":"Stadt"},"district":{"key":"05374","name":"Oberbergischer Kreis","type":"Kreis"},"federalState":{"key":"05","name":"Nordrhein-Westfalen"}},{"name":"Heideweg","postalCode":"51702","locality":"Bergneustadt","municipality":{"key":"05374004","name":"Bergneustadt, Stadt","type":"Stadt"},"district":{"key":"05374","name":"Oberbergischer Kreis","type":"Kreis"},"federalState":{"key":"05","name":"Nordrhein-Westfalen"}},{"name":"Heisterbacher Weg","postalCode":"51702","locality":"Bergneustadt","municipality":{"key":"05374004","name":"Bergneustadt, Stadt","type":"Stadt"},"district":{"key":"05374","name":"Oberbergischer Kreis","type":"Kreis"},"federalState":{"key":"05","name":"Nordrhein-Westfalen"}},{"name":"Henneweide","postalCode":"51702","locality":"Bergneustadt","municipality":{"key":"05374004","name":"Bergneustadt, Stadt","type":"Stadt"},"district":{"key":"05374","name":"Oberbergischer Kreis","type":"Kreis"},"federalState":{"key":"05","name":"Nordrhein-Westfalen"}},{"name":"Hepperblick","postalCode":"51702","locality":"Bergneustadt","municipality":{"key":"05374004","name":"Bergneustadt, Stadt","type":"Stadt"},"district":{"key":"05374","name":"Oberbergischer Kreis","type":"Kreis"},"federalState":{"key":"05","name":"Nordrhein-Westfalen"}},{"name":"Hermicker Weg","postalCode":"51702","locality":"Bergneustadt","municipality":{"key":"05374004","name":"Bergneustadt, Stadt","type":"Stadt"},"district":{"key":"05374","name":"Oberbergischer Kreis","type":"Kreis"},"federalState":{"key":"05","name":"Nordrhein-Westfalen"}},{"name":"Herweg","postalCode":"51702","locality":"Bergneustadt","municipality":{"key":"05374004","name":"Bergneustadt, Stadt","type":"Stadt"},"district":{"key":"05374","name":"Oberbergischer Kreis","type":"Kreis"},"federalState":{"key":"05","name":"Nordrhein-Westfalen"}},{"name":"Hilgesbicke","postalCode":"51702","locality":"Bergneustadt","municipality":{"key":"05374004","name":"Bergneustadt, Stadt","type":"Stadt"},"district":{"key":"05374","name":"Oberbergischer Kreis","type":"Kreis"},"federalState":{"key":"05","name":"Nordrhein-Westfalen"}},{"name":"Hirschweg","postalCode":"51702","locality":"Bergneustadt","municipality":{"key":"05374004","name":"Bergneustadt, Stadt","type":"Stadt"},"district":{"key":"05374","name":"Oberbergischer Kreis","type":"Kreis"},"federalState":{"key":"05","name":"Nordrhein-Westfalen"}},{"name":"Höchstenstr.","postalCode":"51702","locality":"Bergneustadt","municipality":{"key":"05374004","name":"Bergneustadt, Stadt","type":"Stadt"},"district":{"key":"05374","name":"Oberbergischer Kreis","type":"Kreis"},"federalState":{"key":"05","name":"Nordrhein-Westfalen"}},{"name":"Hoeh","postalCode":"51702","locality":"Bergneustadt","municipality":{"key":"05374004","name":"Bergneustadt, Stadt","type":"Stadt"},"district":{"key":"05374","name":"Oberbergischer Kreis","type":"Kreis"},"federalState":{"key":"05","name":"Nordrhein-Westfalen"}},{"name":"Hofstr.","postalCode":"51702","locality":"Bergneustadt","municipality":{"key":"05374004","name":"Bergneustadt, Stadt","type":"Stadt"},"district":{"key":"05374","name":"Oberbergischer Kreis","type":"Kreis"},"federalState":{"key":"05","name":"Nordrhein-Westfalen"}},{"name":"Hofwiese","postalCode":"51702","locality":"Bergneustadt","municipality":{"key":"05374004","name":"Bergneustadt, Stadt","type":"Stadt"},"district":{"key":"05374","name":"Oberbergischer Kreis","type":"Kreis"},"federalState":{"key":"05","name":"Nordrhein-Westfalen"}},{"name":"Höhenweg","postalCode":"51702","locality":"Bergneustadt","municipality":{"key":"05374004","name":"Bergneustadt, Stadt","type":"Stadt"},"district":{"key":"05374","name":"Oberbergischer Kreis","type":"Kreis"},"federalState":{"key":"05","name":"Nordrhein-Westfalen"}},{"name":"Hohler Weg","postalCode":"51702","locality":"Bergneustadt","municipality":{"key":"05374004","name":"Bergneustadt, Stadt","type":"Stadt"},"district":{"key":"05374","name":"Oberbergischer Kreis","type":"Kreis"},"federalState":{"key":"05","name":"Nordrhein-Westfalen"}},{"name":"Hohle Str.","postalCode":"51702","locality":"Bergneustadt","municipality":{"key":"05374004","name":"Bergneustadt, Stadt","type":"Stadt"},"district":{"key":"05374","name":"Oberbergischer Kreis","type":"Kreis"},"federalState":{"key":"05","name":"Nordrhein-Westfalen"}},{"name":"Hunschlade","postalCode":"51702","locality":"Bergneustadt","municipality":{"key":"05374004","name":"Bergneustadt, Stadt","type":"Stadt"},"district":{"key":"05374","name":"Oberbergischer Kreis","type":"Kreis"},"federalState":{"key":"05","name":"Nordrhein-Westfalen"}},{"name":"Ibitschenstr.","postalCode":"51702","locality":"Bergneustadt","municipality":{"key":"05374004","name":"Bergneustadt, Stadt","type":"Stadt"},"district":{"key":"05374","name":"Oberbergischer Kreis","type":"Kreis"},"federalState":{"key":"05","name":"Nordrhein-Westfalen"}},{"name":"Im Dickfeld","postalCode":"51702","locality":"Bergneustadt","municipality":{"key":"05374004","name":"Bergneustadt, Stadt","type":"Stadt"},"district":{"key":"05374","name":"Oberbergischer Kreis","type":"Kreis"},"federalState":{"key":"05","name":"Nordrhein-Westfalen"}},{"name":"Im Eichenfeld","postalCode":"51702","locality":"Bergneustadt","municipality":{"key":"05374004","name":"Bergneustadt, Stadt","type":"Stadt"},"district":{"key":"05374","name":"Oberbergischer Kreis","type":"Kreis"},"federalState":{"key":"05","name":"Nordrhein-Westfalen"}},{"name":"Im Espenhagen","postalCode":"51702","locality":"Bergneustadt","municipality":{"key":"05374004","name":"Bergneustadt, Stadt","type":"Stadt"},"district":{"key":"05374","name":"Oberbergischer Kreis","type":"Kreis"},"federalState":{"key":"05","name":"Nordrhein-Westfalen"}},{"name":"Im Kohlhagen","postalCode":"51702","locality":"Bergneustadt","municipality":{"key":"05374004","name":"Bergneustadt, Stadt","type":"Stadt"},"district":{"key":"05374","name":"Oberbergischer Kreis","type":"Kreis"},"federalState":{"key":"05","name":"Nordrhein-Westfalen"}},{"name":"Immickestr.","postalCode":"51702","locality":"Bergneustadt","municipality":{"key":"05374004","name":"Bergneustadt, Stadt","type":"Stadt"},"district":{"key":"05374","name":"Oberbergischer Kreis","type":"Kreis"},"federalState":{"key":"05","name":"Nordrhein-Westfalen"}},{"name":"Im Stadtgraben","postalCode":"51702","locality":"Bergneustadt","municipality":{"key":"05374004","name":"Bergneustadt, Stadt","type":"Stadt"},"district":{"key":"05374","name":"Oberbergischer Kreis","type":"Kreis"},"federalState":{"key":"05","name":"Nordrhein-Westfalen"}},{"name":"Im Strick","postalCode":"51702","locality":"Bergneustadt","municipality":{"key":"05374004","name":"Bergneustadt, Stadt","type":"Stadt"},"district":{"key":"05374","name":"Oberbergischer Kreis","type":"Kreis"},"federalState":{"key":"05","name":"Nordrhein-Westfalen"}},{"name":"In der Bockemühle","postalCode":"51702","locality":"Bergneustadt","municipality":{"key":"05374004","name":"Bergneustadt, Stadt","type":"Stadt"},"district":{"key":"05374","name":"Oberbergischer Kreis","type":"Kreis"},"federalState":{"key":"05","name":"Nordrhein-Westfalen"}},{"name":"In der Delle","postalCode":"51702","locality":"Bergneustadt","municipality":{"key":"05374004","name":"Bergneustadt, Stadt","type":"Stadt"},"district":{"key":"05374","name":"Oberbergischer Kreis","type":"Kreis"},"federalState":{"key":"05","name":"Nordrhein-Westfalen"}},{"name":"In der Fuhr","postalCode":"51702","locality":"Bergneustadt","municipality":{"key":"05374004","name":"Bergneustadt, Stadt","type":"Stadt"},"district":{"key":"05374","name":"Oberbergischer Kreis","type":"Kreis"},"federalState":{"key":"05","name":"Nordrhein-Westfalen"}},{"name":"In der Leie","postalCode":"51702","locality":"Bergneustadt","municipality":{"key":"05374004","name":"Bergneustadt, Stadt","type":"Stadt"},"district":{"key":"05374","name":"Oberbergischer Kreis","type":"Kreis"},"federalState":{"key":"05","name":"Nordrhein-Westfalen"}},{"name":"Jahnstr.","postalCode":"51702","locality":"Bergneustadt","municipality":{"key":"05374004","name":"Bergneustadt, Stadt","type":"Stadt"},"district":{"key":"05374","name":"Oberbergischer Kreis","type":"Kreis"},"federalState":{"key":"05","name":"Nordrhein-Westfalen"}},{"name":"Johann-Budde-Str.","postalCode":"51702","locality":"Bergneustadt","municipality":{"key":"05374004","name":"Bergneustadt, Stadt","type":"Stadt"},"district":{"key":"05374","name":"Oberbergischer Kreis","type":"Kreis"},"federalState":{"key":"05","name":"Nordrhein-Westfalen"}},{"name":"Johann-Hackenberg-Str.","postalCode":"51702","locality":"Bergneustadt","municipality":{"key":"05374004","name":"Bergneustadt, Stadt","type":"Stadt"},"district":{"key":"05374","name":"Oberbergischer Kreis","type":"Kreis"},"federalState":{"key":"05","name":"Nordrhein-Westfalen"}},{"name":"Josef-von-Jechner-Str.","postalCode":"51702","locality":"Bergneustadt","municipality":{"key":"05374004","name":"Bergneustadt, Stadt","type":"Stadt"},"district":{"key":"05374","name":"Oberbergischer Kreis","type":"Kreis"},"federalState":{"key":"05","name":"Nordrhein-Westfalen"}},{"name":"Kampgarten","postalCode":"51702","locality":"Bergneustadt","municipality":{"key":"05374004","name":"Bergneustadt, Stadt","type":"Stadt"},"district":{"key":"05374","name":"Oberbergischer Kreis","type":"Kreis"},"federalState":{"key":"05","name":"Nordrhein-Westfalen"}},{"name":"Kampstr.","postalCode":"51702","locality":"Bergneustadt","municipality":{"key":"05374004","name":"Bergneustadt, Stadt","type":"Stadt"},"district":{"key":"05374","name":"Oberbergischer Kreis","type":"Kreis"},"federalState":{"key":"05","name":"Nordrhein-Westfalen"}},{"name":"Kapellenstr.","postalCode":"51702","locality":"Bergneustadt","municipality":{"key":"05374004","name":"Bergneustadt, Stadt","type":"Stadt"},"district":{"key":"05374","name":"Oberbergischer Kreis","type":"Kreis"},"federalState":{"key":"05","name":"Nordrhein-Westfalen"}},{"name":"Karlstr.","postalCode":"51702","locality":"Bergneustadt","municipality":{"key":"05374004","name":"Bergneustadt, Stadt","type":"Stadt"},"district":{"key":"05374","name":"Oberbergischer Kreis","type":"Kreis"},"federalState":{"key":"05","name":"Nordrhein-Westfalen"}},{"name":"Kastanienweg","postalCode":"51702","locality":"Bergneustadt","municipality":{"key":"05374004","name":"Bergneustadt, Stadt","type":"Stadt"},"district":{"key":"05374","name":"Oberbergischer Kreis","type":"Kreis"},"federalState":{"key":"05","name":"Nordrhein-Westfalen"}},{"name":"Kaufmannsgasse","postalCode":"51702","locality":"Bergneustadt","municipality":{"key":"05374004","name":"Bergneustadt, Stadt","type":"Stadt"},"district":{"key":"05374","name":"Oberbergischer Kreis","type":"Kreis"},"federalState":{"key":"05","name":"Nordrhein-Westfalen"}},{"name":"Kellerseifen","postalCode":"51702","locality":"Bergneustadt","municipality":{"key":"05374004","name":"Bergneustadt, Stadt","type":"Stadt"},"district":{"key":"05374","name":"Oberbergischer Kreis","type":"Kreis"},"federalState":{"key":"05","name":"Nordrhein-Westfalen"}},{"name":"Kirchstr.","postalCode":"51702","locality":"Bergneustadt","municipality":{"key":"05374004","name":"Bergneustadt, Stadt","type":"Stadt"},"district":{"key":"05374","name":"Oberbergischer Kreis","type":"Kreis"},"federalState":{"key":"05","name":"Nordrhein-Westfalen"}},{"name":"Klevestr.","postalCode":"51702","locality":"Bergneustadt","municipality":{"key":"05374004","name":"Bergneustadt, Stadt","type":"Stadt"},"district":{"key":"05374","name":"Oberbergischer Kreis","type":"Kreis"},"federalState":{"key":"05","name":"Nordrhein-Westfalen"}},{"name":"Klosterweg","postalCode":"51702","locality":"Bergneustadt","municipality":{"key":"05374004","name":"Bergneustadt, Stadt","type":"Stadt"},"district":{"key":"05374","name":"Oberbergischer Kreis","type":"Kreis"},"federalState":{"key":"05","name":"Nordrhein-Westfalen"}},{"name":"Kölner Str.","postalCode":"51702","locality":"Bergneustadt","municipality":{"key":"05374004","name":"Bergneustadt, Stadt","type":"Stadt"},"district":{"key":"05374","name":"Oberbergischer Kreis","type":"Kreis"},"federalState":{"key":"05","name":"Nordrhein-Westfalen"}},{"name":"Königsberger Str.","postalCode":"51702","locality":"Bergneustadt","municipality":{"key":"05374004","name":"Bergneustadt, Stadt","type":"Stadt"},"district":{"key":"05374","name":"Oberbergischer Kreis","type":"Kreis"},"federalState":{"key":"05","name":"Nordrhein-Westfalen"}},{"name":"Kortemicker Str.","postalCode":"51702","locality":"Bergneustadt","municipality":{"key":"05374004","name":"Bergneustadt, Stadt","type":"Stadt"},"district":{"key":"05374","name":"Oberbergischer Kreis","type":"Kreis"},"federalState":{"key":"05","name":"Nordrhein-Westfalen"}},{"name":"Kreuzstr.","postalCode":"51702","locality":"Bergneustadt","municipality":{"key":"05374004","name":"Bergneustadt, Stadt","type":"Stadt"},"district":{"key":"05374","name":"Oberbergischer Kreis","type":"Kreis"},"federalState":{"key":"05","name":"Nordrhein-Westfalen"}},{"name":"Langenlöhstr.","postalCode":"51702","locality":"Bergneustadt","municipality":{"key":"05374004","name":"Bergneustadt, Stadt","type":"Stadt"},"district":{"key":"05374","name":"Oberbergischer Kreis","type":"Kreis"},"federalState":{"key":"05","name":"Nordrhein-Westfalen"}},{"name":"Längestenstr.","postalCode":"51702","locality":"Bergneustadt","municipality":{"key":"05374004","name":"Bergneustadt, Stadt","type":"Stadt"},"district":{"key":"05374","name":"Oberbergischer Kreis","type":"Kreis"},"federalState":{"key":"05","name":"Nordrhein-Westfalen"}},{"name":"Leopold-Krawinkel-Str.","postalCode":"51702","locality":"Bergneustadt","municipality":{"key":"05374004","name":"Bergneustadt, Stadt","type":"Stadt"},"district":{"key":"05374","name":"Oberbergischer Kreis","type":"Kreis"},"federalState":{"key":"05","name":"Nordrhein-Westfalen"}},{"name":"Lieberhausener Str.","postalCode":"51702","locality":"Bergneustadt","municipality":{"key":"05374004","name":"Bergneustadt, Stadt","type":"Stadt"},"district":{"key":"05374","name":"Oberbergischer Kreis","type":"Kreis"},"federalState":{"key":"05","name":"Nordrhein-Westfalen"}},{"name":"Liegnitzer Str.","postalCode":"51702","locality":"Bergneustadt","municipality":{"key":"05374004","name":"Bergneustadt, Stadt","type":"Stadt"},"district":{"key":"05374","name":"Oberbergischer Kreis","type":"Kreis"},"federalState":{"key":"05","name":"Nordrhein-Westfalen"}},{"name":"Lilienstr.","postalCode":"51702","locality":"Bergneustadt","municipality":{"key":"05374004","name":"Bergneustadt, Stadt","type":"Stadt"},"district":{"key":"05374","name":"Oberbergischer Kreis","type":"Kreis"},"federalState":{"key":"05","name":"Nordrhein-Westfalen"}},{"name":"Lindenstr.","postalCode":"51702","locality":"Bergneustadt","municipality":{"key":"05374004","name":"Bergneustadt, Stadt","type":"Stadt"},"district":{"key":"05374","name":"Oberbergischer Kreis","type":"Kreis"},"federalState":{"key":"05","name":"Nordrhein-Westfalen"}},{"name":"Löhstr.","postalCode":"51702","locality":"Bergneustadt","municipality":{"key":"05374004","name":"Bergneustadt, Stadt","type":"Stadt"},"district":{"key":"05374","name":"Oberbergischer Kreis","type":"Kreis"},"federalState":{"key":"05","name":"Nordrhein-Westfalen"}},{"name":"Lützenbergstr.","postalCode":"51702","locality":"Bergneustadt","municipality":{"key":"05374004","name":"Bergneustadt, Stadt","type":"Stadt"},"district":{"key":"05374","name":"Oberbergischer Kreis","type":"Kreis"},"federalState":{"key":"05","name":"Nordrhein-Westfalen"}},{"name":"Markstr.","postalCode":"51702","locality":"Bergneustadt","municipality":{"key":"05374004","name":"Bergneustadt, Stadt","type":"Stadt"},"district":{"key":"05374","name":"Oberbergischer Kreis","type":"Kreis"},"federalState":{"key":"05","name":"Nordrhein-Westfalen"}},{"name":"Martin-Luther-Str.","postalCode":"51702","locality":"Bergneustadt","municipality":{"key":"05374004","name":"Bergneustadt, Stadt","type":"Stadt"},"district":{"key":"05374","name":"Oberbergischer Kreis","type":"Kreis"},"federalState":{"key":"05","name":"Nordrhein-Westfalen"}},{"name":"Meerschlader Weg","postalCode":"51702","locality":"Bergneustadt","municipality":{"key":"05374004","name":"Bergneustadt, Stadt","type":"Stadt"},"district":{"key":"05374","name":"Oberbergischer Kreis","type":"Kreis"},"federalState":{"key":"05","name":"Nordrhein-Westfalen"}},{"name":"Mühlenstr.","postalCode":"51702","locality":"Bergneustadt","municipality":{"key":"05374004","name":"Bergneustadt, Stadt","type":"Stadt"},"district":{"key":"05374","name":"Oberbergischer Kreis","type":"Kreis"},"federalState":{"key":"05","name":"Nordrhein-Westfalen"}},{"name":"Mühlhofer Weg","postalCode":"51702","locality":"Bergneustadt","municipality":{"key":"05374004","name":"Bergneustadt, Stadt","type":"Stadt"},"district":{"key":"05374","name":"Oberbergischer Kreis","type":"Kreis"},"federalState":{"key":"05","name":"Nordrhein-Westfalen"}},{"name":"Nelkenstr.","postalCode":"51702","locality":"Bergneustadt","municipality":{"key":"05374004","name":"Bergneustadt, Stadt","type":"Stadt"},"district":{"key":"05374","name":"Oberbergischer Kreis","type":"Kreis"},"federalState":{"key":"05","name":"Nordrhein-Westfalen"}},{"name":"Neue Siedlung","postalCode":"51702","locality":"Bergneustadt","municipality":{"key":"05374004","name":"Bergneustadt, Stadt","type":"Stadt"},"district":{"key":"05374","name":"Oberbergischer Kreis","type":"Kreis"},"federalState":{"key":"05","name":"Nordrhein-Westfalen"}},{"name":"Neue Str.","postalCode":"51702","locality":"Bergneustadt","municipality":{"key":"05374004","name":"Bergneustadt, Stadt","type":"Stadt"},"district":{"key":"05374","name":"Oberbergischer Kreis","type":"Kreis"},"federalState":{"key":"05","name":"Nordrhein-Westfalen"}},{"name":"Niederrengse","postalCode":"51702","locality":"Bergneustadt","municipality":{"key":"05374004","name":"Bergneustadt, Stadt","type":"Stadt"},"district":{"key":"05374","name":"Oberbergischer Kreis","type":"Kreis"},"federalState":{"key":"05","name":"Nordrhein-Westfalen"}},{"name":"Nistenbergstr.","postalCode":"51702","locality":"Bergneustadt","municipality":{"key":"05374004","name":"Bergneustadt, Stadt","type":"Stadt"},"district":{"key":"05374","name":"Oberbergischer Kreis","type":"Kreis"},"federalState":{"key":"05","name":"Nordrhein-Westfalen"}},{"name":"Nordstr.","postalCode":"51702","locality":"Bergneustadt","municipality":{"key":"05374004","name":"Bergneustadt, Stadt","type":"Stadt"},"district":{"key":"05374","name":"Oberbergischer Kreis","type":"Kreis"},"federalState":{"key":"05","name":"Nordrhein-Westfalen"}},{"name":"Oberhof","postalCode":"51702","locality":"Bergneustadt","municipality":{"key":"05374004","name":"Bergneustadt, Stadt","type":"Stadt"},"district":{"key":"05374","name":"Oberbergischer Kreis","type":"Kreis"},"federalState":{"key":"05","name":"Nordrhein-Westfalen"}},{"name":"Olper Str.","postalCode":"51702","locality":"Bergneustadt","municipality":{"key":"05374004","name":"Bergneustadt, Stadt","type":"Stadt"},"district":{"key":"05374","name":"Oberbergischer Kreis","type":"Kreis"},"federalState":{"key":"05","name":"Nordrhein-Westfalen"}},{"name":"Oststr.","postalCode":"51702","locality":"Bergneustadt","municipality":{"key":"05374004","name":"Bergneustadt, Stadt","type":"Stadt"},"district":{"key":"05374","name":"Oberbergischer Kreis","type":"Kreis"},"federalState":{"key":"05","name":"Nordrhein-Westfalen"}},{"name":"Othestr.","postalCode":"51702","locality":"Bergneustadt","municipality":{"key":"05374004","name":"Bergneustadt, Stadt","type":"Stadt"},"district":{"key":"05374","name":"Oberbergischer Kreis","type":"Kreis"},"federalState":{"key":"05","name":"Nordrhein-Westfalen"}},{"name":"Park der Generationen","postalCode":"51702","locality":"Bergneustadt","municipality":{"key":"05374004","name":"Bergneustadt, Stadt","type":"Stadt"},"district":{"key":"05374","name":"Oberbergischer Kreis","type":"Kreis"},"federalState":{"key":"05","name":"Nordrhein-Westfalen"}},{"name":"Paulstr.","postalCode":"51702","locality":"Bergneustadt","municipality":{"key":"05374004","name":"Bergneustadt, Stadt","type":"Stadt"},"district":{"key":"05374","name":"Oberbergischer Kreis","type":"Kreis"},"federalState":{"key":"05","name":"Nordrhein-Westfalen"}},{"name":"Peter-Butz-Str.","postalCode":"51702","locality":"Bergneustadt","municipality":{"key":"05374004","name":"Bergneustadt, Stadt","type":"Stadt"},"district":{"key":"05374","name":"Oberbergischer Kreis","type":"Kreis"},"federalState":{"key":"05","name":"Nordrhein-Westfalen"}},{"name":"Pieper-Keller-Str.","postalCode":"51702","locality":"Bergneustadt","municipality":{"key":"05374004","name":"Bergneustadt, Stadt","type":"Stadt"},"district":{"key":"05374","name":"Oberbergischer Kreis","type":"Kreis"},"federalState":{"key":"05","name":"Nordrhein-Westfalen"}},{"name":"Pustenbach","postalCode":"51702","locality":"Bergneustadt","municipality":{"key":"05374004","name":"Bergneustadt, Stadt","type":"Stadt"},"district":{"key":"05374","name":"Oberbergischer Kreis","type":"Kreis"},"federalState":{"key":"05","name":"Nordrhein-Westfalen"}},{"name":"Quellenweg","postalCode":"51702","locality":"Bergneustadt","municipality":{"key":"05374004","name":"Bergneustadt, Stadt","type":"Stadt"},"district":{"key":"05374","name":"Oberbergischer Kreis","type":"Kreis"},"federalState":{"key":"05","name":"Nordrhein-Westfalen"}},{"name":"Ravensbergstr.","postalCode":"51702","locality":"Bergneustadt","municipality":{"key":"05374004","name":"Bergneustadt, Stadt","type":"Stadt"},"district":{"key":"05374","name":"Oberbergischer Kreis","type":"Kreis"},"federalState":{"key":"05","name":"Nordrhein-Westfalen"}},{"name":"Rehwinkel","postalCode":"51702","locality":"Bergneustadt","municipality":{"key":"05374004","name":"Bergneustadt, Stadt","type":"Stadt"},"district":{"key":"05374","name":"Oberbergischer Kreis","type":"Kreis"},"federalState":{"key":"05","name":"Nordrhein-Westfalen"}},{"name":"Rengsestr.","postalCode":"51702","locality":"Bergneustadt","municipality":{"key":"05374004","name":"Bergneustadt, Stadt","type":"Stadt"},"district":{"key":"05374","name":"Oberbergischer Kreis","type":"Kreis"},"federalState":{"key":"05","name":"Nordrhein-Westfalen"}},{"name":"Renneweg","postalCode":"51702","locality":"Bergneustadt","municipality":{"key":"05374004","name":"Bergneustadt, Stadt","type":"Stadt"},"district":{"key":"05374","name":"Oberbergischer Kreis","type":"Kreis"},"federalState":{"key":"05","name":"Nordrhein-Westfalen"}},{"name":"Rerkausenstr.","postalCode":"51702","locality":"Bergneustadt","municipality":{"key":"05374004","name":"Bergneustadt, Stadt","type":"Stadt"},"district":{"key":"05374","name":"Oberbergischer Kreis","type":"Kreis"},"federalState":{"key":"05","name":"Nordrhein-Westfalen"}},{"name":"Richtstr.","postalCode":"51702","locality":"Bergneustadt","municipality":{"key":"05374004","name":"Bergneustadt, Stadt","type":"Stadt"},"district":{"key":"05374","name":"Oberbergischer Kreis","type":"Kreis"},"federalState":{"key":"05","name":"Nordrhein-Westfalen"}},{"name":"Rosenstr.","postalCode":"51702","locality":"Bergneustadt","municipality":{"key":"05374004","name":"Bergneustadt, Stadt","type":"Stadt"},"district":{"key":"05374","name":"Oberbergischer Kreis","type":"Kreis"},"federalState":{"key":"05","name":"Nordrhein-Westfalen"}},{"name":"Rosenthal","postalCode":"51702","locality":"Bergneustadt","municipality":{"key":"05374004","name":"Bergneustadt, Stadt","type":"Stadt"},"district":{"key":"05374","name":"Oberbergischer Kreis","type":"Kreis"},"federalState":{"key":"05","name":"Nordrhein-Westfalen"}},{"name":"Rosenthalseifen","postalCode":"51702","locality":"Bergneustadt","municipality":{"key":"05374004","name":"Bergneustadt, Stadt","type":"Stadt"},"district":{"key":"05374","name":"Oberbergischer Kreis","type":"Kreis"},"federalState":{"key":"05","name":"Nordrhein-Westfalen"}},{"name":"Rudolf-Harbig-Str.","postalCode":"51702","locality":"Bergneustadt","municipality":{"key":"05374004","name":"Bergneustadt, Stadt","type":"Stadt"},"district":{"key":"05374","name":"Oberbergischer Kreis","type":"Kreis"},"federalState":{"key":"05","name":"Nordrhein-Westfalen"}},{"name":"Saltemertstr.","postalCode":"51702","locality":"Bergneustadt","municipality":{"key":"05374004","name":"Bergneustadt, Stadt","type":"Stadt"},"district":{"key":"05374","name":"Oberbergischer Kreis","type":"Kreis"},"federalState":{"key":"05","name":"Nordrhein-Westfalen"}},{"name":"Scheurenwiese","postalCode":"51702","locality":"Bergneustadt","municipality":{"key":"05374004","name":"Bergneustadt, Stadt","type":"Stadt"},"district":{"key":"05374","name":"Oberbergischer Kreis","type":"Kreis"},"federalState":{"key":"05","name":"Nordrhein-Westfalen"}},{"name":"Schillerstr.","postalCode":"51702","locality":"Bergneustadt","municipality":{"key":"05374004","name":"Bergneustadt, Stadt","type":"Stadt"},"district":{"key":"05374","name":"Oberbergischer Kreis","type":"Kreis"},"federalState":{"key":"05","name":"Nordrhein-Westfalen"}},{"name":"Schöne Aussicht","postalCode":"51702","locality":"Bergneustadt","municipality":{"key":"05374004","name":"Bergneustadt, Stadt","type":"Stadt"},"district":{"key":"05374","name":"Oberbergischer Kreis","type":"Kreis"},"federalState":{"key":"05","name":"Nordrhein-Westfalen"}},{"name":"Schürmannstr.","postalCode":"51702","locality":"Bergneustadt","municipality":{"key":"05374004","name":"Bergneustadt, Stadt","type":"Stadt"},"district":{"key":"05374","name":"Oberbergischer Kreis","type":"Kreis"},"federalState":{"key":"05","name":"Nordrhein-Westfalen"}},{"name":"Schwarzenbergstr.","postalCode":"51702","locality":"Bergneustadt","municipality":{"key":"05374004","name":"Bergneustadt, Stadt","type":"Stadt"},"district":{"key":"05374","name":"Oberbergischer Kreis","type":"Kreis"},"federalState":{"key":"05","name":"Nordrhein-Westfalen"}},{"name":"Seutenstr.","postalCode":"51702","locality":"Bergneustadt","municipality":{"key":"05374004","name":"Bergneustadt, Stadt","type":"Stadt"},"district":{"key":"05374","name":"Oberbergischer Kreis","type":"Kreis"},"federalState":{"key":"05","name":"Nordrhein-Westfalen"}},{"name":"Siedlungsstr.","postalCode":"51702","locality":"Bergneustadt","municipality":{"key":"05374004","name":"Bergneustadt, Stadt","type":"Stadt"},"district":{"key":"05374","name":"Oberbergischer Kreis","type":"Kreis"},"federalState":{"key":"05","name":"Nordrhein-Westfalen"}},{"name":"Silbergstr.","postalCode":"51702","locality":"Bergneustadt","municipality":{"key":"05374004","name":"Bergneustadt, Stadt","type":"Stadt"},"district":{"key":"05374","name":"Oberbergischer Kreis","type":"Kreis"},"federalState":{"key":"05","name":"Nordrhein-Westfalen"}},{"name":"Skulpturenpark","postalCode":"51702","locality":"Bergneustadt","municipality":{"key":"05374004","name":"Bergneustadt, Stadt","type":"Stadt"},"district":{"key":"05374","name":"Oberbergischer Kreis","type":"Kreis"},"federalState":{"key":"05","name":"Nordrhein-Westfalen"}},{"name":"Sohler Weg","postalCode":"51702","locality":"Bergneustadt","municipality":{"key":"05374004","name":"Bergneustadt, Stadt","type":"Stadt"},"district":{"key":"05374","name":"Oberbergischer Kreis","type":"Kreis"},"federalState":{"key":"05","name":"Nordrhein-Westfalen"}},{"name":"Sonnenkamp","postalCode":"51702","locality":"Bergneustadt","municipality":{"key":"05374004","name":"Bergneustadt, Stadt","type":"Stadt"},"district":{"key":"05374","name":"Oberbergischer Kreis","type":"Kreis"},"federalState":{"key":"05","name":"Nordrhein-Westfalen"}},{"name":"Sonnenweg","postalCode":"51702","locality":"Bergneustadt","municipality":{"key":"05374004","name":"Bergneustadt, Stadt","type":"Stadt"},"district":{"key":"05374","name":"Oberbergischer Kreis","type":"Kreis"},"federalState":{"key":"05","name":"Nordrhein-Westfalen"}},{"name":"Spreckenweg","postalCode":"51702","locality":"Bergneustadt","municipality":{"key":"05374004","name":"Bergneustadt, Stadt","type":"Stadt"},"district":{"key":"05374","name":"Oberbergischer Kreis","type":"Kreis"},"federalState":{"key":"05","name":"Nordrhein-Westfalen"}},{"name":"Stadionstr.","postalCode":"51702","locality":"Bergneustadt","municipality":{"key":"05374004","name":"Bergneustadt, Stadt","type":"Stadt"},"district":{"key":"05374","name":"Oberbergischer Kreis","type":"Kreis"},"federalState":{"key":"05","name":"Nordrhein-Westfalen"}},{"name":"Stadtwald","postalCode":"51702","locality":"Bergneustadt","municipality":{"key":"05374004","name":"Bergneustadt, Stadt","type":"Stadt"},"district":{"key":"05374","name":"Oberbergischer Kreis","type":"Kreis"},"federalState":{"key":"05","name":"Nordrhein-Westfalen"}},{"name":"Steilweg","postalCode":"51702","locality":"Bergneustadt","municipality":{"key":"05374004","name":"Bergneustadt, Stadt","type":"Stadt"},"district":{"key":"05374","name":"Oberbergischer Kreis","type":"Kreis"},"federalState":{"key":"05","name":"Nordrhein-Westfalen"}},{"name":"Steimelstr.","postalCode":"51702","locality":"Bergneustadt","municipality":{"key":"05374004","name":"Bergneustadt, Stadt","type":"Stadt"},"district":{"key":"05374","name":"Oberbergischer Kreis","type":"Kreis"},"federalState":{"key":"05","name":"Nordrhein-Westfalen"}},{"name":"Steinstr.","postalCode":"51702","locality":"Bergneustadt","municipality":{"key":"05374004","name":"Bergneustadt, Stadt","type":"Stadt"},"district":{"key":"05374","name":"Oberbergischer Kreis","type":"Kreis"},"federalState":{"key":"05","name":"Nordrhein-Westfalen"}},{"name":"Stentenbergsiepen","postalCode":"51702","locality":"Bergneustadt","municipality":{"key":"05374004","name":"Bergneustadt, Stadt","type":"Stadt"},"district":{"key":"05374","name":"Oberbergischer Kreis","type":"Kreis"},"federalState":{"key":"05","name":"Nordrhein-Westfalen"}},{"name":"Stentenbergstr.","postalCode":"51702","locality":"Bergneustadt","municipality":{"key":"05374004","name":"Bergneustadt, Stadt","type":"Stadt"},"district":{"key":"05374","name":"Oberbergischer Kreis","type":"Kreis"},"federalState":{"key":"05","name":"Nordrhein-Westfalen"}},{"name":"Stettiner Str.","postalCode":"51702","locality":"Bergneustadt","municipality":{"key":"05374004","name":"Bergneustadt, Stadt","type":"Stadt"},"district":{"key":"05374","name":"Oberbergischer Kreis","type":"Kreis"},"federalState":{"key":"05","name":"Nordrhein-Westfalen"}},{"name":"Südring","postalCode":"51702","locality":"Bergneustadt","municipality":{"key":"05374004","name":"Bergneustadt, Stadt","type":"Stadt"},"district":{"key":"05374","name":"Oberbergischer Kreis","type":"Kreis"},"federalState":{"key":"05","name":"Nordrhein-Westfalen"}},{"name":"Südstr.","postalCode":"51702","locality":"Bergneustadt","municipality":{"key":"05374004","name":"Bergneustadt, Stadt","type":"Stadt"},"district":{"key":"05374","name":"Oberbergischer Kreis","type":"Kreis"},"federalState":{"key":"05","name":"Nordrhein-Westfalen"}},{"name":"Sülemicker Str.","postalCode":"51702","locality":"Bergneustadt","municipality":{"key":"05374004","name":"Bergneustadt, Stadt","type":"Stadt"},"district":{"key":"05374","name":"Oberbergischer Kreis","type":"Kreis"},"federalState":{"key":"05","name":"Nordrhein-Westfalen"}},{"name":"Talsperrenstr.","postalCode":"51702","locality":"Bergneustadt","municipality":{"key":"05374004","name":"Bergneustadt, Stadt","type":"Stadt"},"district":{"key":"05374","name":"Oberbergischer Kreis","type":"Kreis"},"federalState":{"key":"05","name":"Nordrhein-Westfalen"}},{"name":"Talstr.","postalCode":"51702","locality":"Bergneustadt","municipality":{"key":"05374004","name":"Bergneustadt, Stadt","type":"Stadt"},"district":{"key":"05374","name":"Oberbergischer Kreis","type":"Kreis"},"federalState":{"key":"05","name":"Nordrhein-Westfalen"}},{"name":"Teichstr.","postalCode":"51702","locality":"Bergneustadt","municipality":{"key":"05374004","name":"Bergneustadt, Stadt","type":"Stadt"},"district":{"key":"05374","name":"Oberbergischer Kreis","type":"Kreis"},"federalState":{"key":"05","name":"Nordrhein-Westfalen"}},{"name":"Töschenwiese","postalCode":"51702","locality":"Bergneustadt","municipality":{"key":"05374004","name":"Bergneustadt, Stadt","type":"Stadt"},"district":{"key":"05374","name":"Oberbergischer Kreis","type":"Kreis"},"federalState":{"key":"05","name":"Nordrhein-Westfalen"}},{"name":"Tulpenweg","postalCode":"51702","locality":"Bergneustadt","municipality":{"key":"05374004","name":"Bergneustadt, Stadt","type":"Stadt"},"district":{"key":"05374","name":"Oberbergischer Kreis","type":"Kreis"},"federalState":{"key":"05","name":"Nordrhein-Westfalen"}},{"name":"Turnerstr.","postalCode":"51702","locality":"Bergneustadt","municipality":{"key":"05374004","name":"Bergneustadt, Stadt","type":"Stadt"},"district":{"key":"05374","name":"Oberbergischer Kreis","type":"Kreis"},"federalState":{"key":"05","name":"Nordrhein-Westfalen"}},{"name":"Unter dem Löh","postalCode":"51702","locality":"Bergneustadt","municipality":{"key":"05374004","name":"Bergneustadt, Stadt","type":"Stadt"},"district":{"key":"05374","name":"Oberbergischer Kreis","type":"Kreis"},"federalState":{"key":"05","name":"Nordrhein-Westfalen"}},{"name":"Veilchenstr.","postalCode":"51702","locality":"Bergneustadt","municipality":{"key":"05374004","name":"Bergneustadt, Stadt","type":"Stadt"},"district":{"key":"05374","name":"Oberbergischer Kreis","type":"Kreis"},"federalState":{"key":"05","name":"Nordrhein-Westfalen"}},{"name":"Vor der Alten Höh","postalCode":"51702","locality":"Bergneustadt","municipality":{"key":"05374004","name":"Bergneustadt, Stadt","type":"Stadt"},"district":{"key":"05374","name":"Oberbergischer Kreis","type":"Kreis"},"federalState":{"key":"05","name":"Nordrhein-Westfalen"}},{"name":"Vor der Platte","postalCode":"51702","locality":"Bergneustadt","municipality":{"key":"05374004","name":"Bergneustadt, Stadt","type":"Stadt"},"district":{"key":"05374","name":"Oberbergischer Kreis","type":"Kreis"},"federalState":{"key":"05","name":"Nordrhein-Westfalen"}},{"name":"Vossbicke","postalCode":"51702","locality":"Bergneustadt","municipality":{"key":"05374004","name":"Bergneustadt, Stadt","type":"Stadt"},"district":{"key":"05374","name":"Oberbergischer Kreis","type":"Kreis"},"federalState":{"key":"05","name":"Nordrhein-Westfalen"}},{"name":"Waldstr.","postalCode":"51702","locality":"Bergneustadt","municipality":{"key":"05374004","name":"Bergneustadt, Stadt","type":"Stadt"},"district":{"key":"05374","name":"Oberbergischer Kreis","type":"Kreis"},"federalState":{"key":"05","name":"Nordrhein-Westfalen"}},{"name":"Wallstr.","postalCode":"51702","locality":"Bergneustadt","municipality":{"key":"05374004","name":"Bergneustadt, Stadt","type":"Stadt"},"district":{"key":"05374","name":"Oberbergischer Kreis","type":"Kreis"},"federalState":{"key":"05","name":"Nordrhein-Westfalen"}},{"name":"Wasserstr.","postalCode":"51702","locality":"Bergneustadt","municipality":{"key":"05374004","name":"Bergneustadt, Stadt","type":"Stadt"},"district":{"key":"05374","name":"Oberbergischer Kreis","type":"Kreis"},"federalState":{"key":"05","name":"Nordrhein-Westfalen"}},{"name":"Weidenweg","postalCode":"51702","locality":"Bergneustadt","municipality":{"key":"05374004","name":"Bergneustadt, Stadt","type":"Stadt"},"district":{"key":"05374","name":"Oberbergischer Kreis","type":"Kreis"},"federalState":{"key":"05","name":"Nordrhein-Westfalen"}},{"name":"Wendeweg","postalCode":"51702","locality":"Bergneustadt","municipality":{"key":"05374004","name":"Bergneustadt, Stadt","type":"Stadt"},"district":{"key":"05374","name":"Oberbergischer Kreis","type":"Kreis"},"federalState":{"key":"05","name":"Nordrhein-Westfalen"}},{"name":"Weststr.","postalCode":"51702","locality":"Bergneustadt","municipality":{"key":"05374004","name":"Bergneustadt, Stadt","type":"Stadt"},"district":{"key":"05374","name":"Oberbergischer Kreis","type":"Kreis"},"federalState":{"key":"05","name":"Nordrhein-Westfalen"}},{"name":"Wiedenbruchstr.","postalCode":"51702","locality":"Bergneustadt","municipality":{"key":"05374004","name":"Bergneustadt, Stadt","type":"Stadt"},"district":{"key":"05374","name":"Oberbergischer Kreis","type":"Kreis"},"federalState":{"key":"05","name":"Nordrhein-Westfalen"}},{"name":"Wiedenester Blick","postalCode":"51702","locality":"Bergneustadt","municipality":{"key":"05374004","name":"Bergneustadt, Stadt","type":"Stadt"},"district":{"key":"05374","name":"Oberbergischer Kreis","type":"Kreis"},"federalState":{"key":"05","name":"Nordrhein-Westfalen"}},{"name":"Wiedeneststr.","postalCode":"51702","locality":"Bergneustadt","municipality":{"key":"05374004","name":"Bergneustadt, Stadt","type":"Stadt"},"district":{"key":"05374","name":"Oberbergischer Kreis","type":"Kreis"},"federalState":{"key":"05","name":"Nordrhein-Westfalen"}},{"name":"Wilhelm-Schriever-Str.","postalCode":"51702","locality":"Bergneustadt","municipality":{"key":"05374004","name":"Bergneustadt, Stadt","type":"Stadt"},"district":{"key":"05374","name":"Oberbergischer Kreis","type":"Kreis"},"federalState":{"key":"05","name":"Nordrhein-Westfalen"}},{"name":"Wilhelmstr.","postalCode":"51702","locality":"Bergneustadt","municipality":{"key":"05374004","name":"Bergneustadt, Stadt","type":"Stadt"},"district":{"key":"05374","name":"Oberbergischer Kreis","type":"Kreis"},"federalState":{"key":"05","name":"Nordrhein-Westfalen"}},{"name":"Wolfschlader Weg","postalCode":"51702","locality":"Bergneustadt","municipality":{"key":"05374004","name":"Bergneustadt, Stadt","type":"Stadt"},"district":{"key":"05374","name":"Oberbergischer Kreis","type":"Kreis"},"federalState":{"key":"05","name":"Nordrhein-Westfalen"}},{"name":"Wörde","postalCode":"51702","locality":"Bergneustadt","municipality":{"key":"05374004","name":"Bergneustadt, Stadt","type":"Stadt"},"district":{"key":"05374","name":"Oberbergischer Kreis","type":"Kreis"},"federalState":{"key":"05","name":"Nordrhein-Westfalen"}},{"name":"Zum Bauckmert","postalCode":"51702","locality":"Bergneustadt","municipality":{"key":"05374004","name":"Bergneustadt, Stadt","type":"Stadt"},"district":{"key":"05374","name":"Oberbergischer Kreis","type":"Kreis"},"federalState":{"key":"05","name":"Nordrhein-Westfalen"}},{"name":"Zum Beul","postalCode":"51702","locality":"Bergneustadt","municipality":{"key":"05374004","name":"Bergneustadt, Stadt","type":"Stadt"},"district":{"key":"05374","name":"Oberbergischer Kreis","type":"Kreis"},"federalState":{"key":"05","name":"Nordrhein-Westfalen"}},{"name":"Zum Bornacker","postalCode":"51702","locality":"Bergneustadt","municipality":{"key":"05374004","name":"Bergneustadt, Stadt","type":"Stadt"},"district":{"key":"05374","name":"Oberbergischer Kreis","type":"Kreis"},"federalState":{"key":"05","name":"Nordrhein-Westfalen"}},{"name":"Zum Bürgen","postalCode":"51702","locality":"Bergneustadt","municipality":{"key":"05374004","name":"Bergneustadt, Stadt","type":"Stadt"},"district":{"key":"05374","name":"Oberbergischer Kreis","type":"Kreis"},"federalState":{"key":"05","name":"Nordrhein-Westfalen"}},{"name":"Zum Dreiort","postalCode":"51702","locality":"Bergneustadt","municipality":{"key":"05374004","name":"Bergneustadt, Stadt","type":"Stadt"},"district":{"key":"05374","name":"Oberbergischer Kreis","type":"Kreis"},"federalState":{"key":"05","name":"Nordrhein-Westfalen"}},{"name":"Zum Grünen Siepen","postalCode":"51702","locality":"Bergneustadt","municipality":{"key":"05374004","name":"Bergneustadt, Stadt","type":"Stadt"},"district":{"key":"05374","name":"Oberbergischer Kreis","type":"Kreis"},"federalState":{"key":"05","name":"Nordrhein-Westfalen"}},{"name":"Zum Hornbruch","postalCode":"51702","locality":"Bergneustadt","municipality":{"key":"05374004","name":"Bergneustadt, Stadt","type":"Stadt"},"district":{"key":"05374","name":"Oberbergischer Kreis","type":"Kreis"},"federalState":{"key":"05","name":"Nordrhein-Westfalen"}},{"name":"Zum Jettholz","postalCode":"51702","locality":"Bergneustadt","municipality":{"key":"05374004","name":"Bergneustadt, Stadt","type":"Stadt"},"district":{"key":"05374","name":"Oberbergischer Kreis","type":"Kreis"},"federalState":{"key":"05","name":"Nordrhein-Westfalen"}},{"name":"Zum Knollen","postalCode":"51702","locality":"Bergneustadt","municipality":{"key":"05374004","name":"Bergneustadt, Stadt","type":"Stadt"},"district":{"key":"05374","name":"Oberbergischer Kreis","type":"Kreis"},"federalState":{"key":"05","name":"Nordrhein-Westfalen"}},{"name":"Zum Krähenacker","postalCode":"51702","locality":"Bergneustadt","municipality":{"key":"05374004","name":"Bergneustadt, Stadt","type":"Stadt"},"district":{"key":"05374","name":"Oberbergischer Kreis","type":"Kreis"},"federalState":{"key":"05","name":"Nordrhein-Westfalen"}},{"name":"Zum Lichtenbruch","postalCode":"51702","locality":"Bergneustadt","municipality":{"key":"05374004","name":"Bergneustadt, Stadt","type":"Stadt"},"district":{"key":"05374","name":"Oberbergischer Kreis","type":"Kreis"},"federalState":{"key":"05","name":"Nordrhein-Westfalen"}},{"name":"Zum Wiebusch","postalCode":"51702","locality":"Bergneustadt","municipality":{"key":"05374004","name":"Bergneustadt, Stadt","type":"Stadt"},"district":{"key":"05374","name":"Oberbergischer Kreis","type":"Kreis"},"federalState":{"key":"05","name":"Nordrhein-Westfalen"}},{"name":"Zur alten Wiese","postalCode":"51702","locality":"Bergneustadt","municipality":{"key":"05374004","name":"Bergneustadt, Stadt","type":"Stadt"},"district":{"key":"05374","name":"Oberbergischer Kreis","type":"Kreis"},"federalState":{"key":"05","name":"Nordrhein-Westfalen"}},{"name":"Zur Bretschlade","postalCode":"51702","locality":"Bergneustadt","municipality":{"key":"05374004","name":"Bergneustadt, Stadt","type":"Stadt"},"district":{"key":"05374","name":"Oberbergischer Kreis","type":"Kreis"},"federalState":{"key":"05","name":"Nordrhein-Westfalen"}},{"name":"Zur Drift","postalCode":"51702","locality":"Bergneustadt","municipality":{"key":"05374004","name":"Bergneustadt, Stadt","type":"Stadt"},"district":{"key":"05374","name":"Oberbergischer Kreis","type":"Kreis"},"federalState":{"key":"05","name":"Nordrhein-Westfalen"}},{"name":"Zur Nordhelle","postalCode":"51702","locality":"Bergneustadt","municipality":{"key":"05374004","name":"Bergneustadt, Stadt","type":"Stadt"},"district":{"key":"05374","name":"Oberbergischer Kreis","type":"Kreis"},"federalState":{"key":"05","name":"Nordrhein-Westfalen"}},{"name":"Zur Steinebreche","postalCode":"51702","locality":"Bergneustadt","municipality":{"key":"05374004","name":"Bergneustadt, Stadt","type":"Stadt"},"district":{"key":"05374","name":"Oberbergischer Kreis","type":"Kreis"},"federalState":{"key":"05","name":"Nordrhein-Westfalen"}},{"name":"Zwerstaller Weg","postalCode":"51702","locality":"Bergneustadt","municipality":{"key":"05374004","name":"Bergneustadt, Stadt","type":"Stadt"},"district":{"key":"05374","name":"Oberbergischer Kreis","type":"Kreis"},"federalState":{"key":"05","name":"Nordrhein-Westfalen"}},]