[{"name":"An der Kirche","postalCode":"56357","locality":"Obertiefenbach","municipality":{"key":"07141104","name":"Obertiefenbach","type":"Kreisangehörige_Gemeinde"},"district":{"key":"07141","name":"Rhein-Lahn-Kreis","type":"Landkreis"},"federalState":{"key":"07","name":"Rheinland-Pfalz"}},{"name":"Bornweg","postalCode":"56357","locality":"Obertiefenbach","municipality":{"key":"07141104","name":"Obertiefenbach","type":"Kreisangehörige_Gemeinde"},"district":{"key":"07141","name":"Rhein-Lahn-Kreis","type":"Landkreis"},"federalState":{"key":"07","name":"Rheinland-Pfalz"}},{"name":"Friedhofsstr.","postalCode":"56357","locality":"Obertiefenbach","municipality":{"key":"07141104","name":"Obertiefenbach","type":"Kreisangehörige_Gemeinde"},"district":{"key":"07141","name":"Rhein-Lahn-Kreis","type":"Landkreis"},"federalState":{"key":"07","name":"Rheinland-Pfalz"}},{"name":"Gartenstr.","postalCode":"56357","locality":"Obertiefenbach","municipality":{"key":"07141104","name":"Obertiefenbach","type":"Kreisangehörige_Gemeinde"},"district":{"key":"07141","name":"Rhein-Lahn-Kreis","type":"Landkreis"},"federalState":{"key":"07","name":"Rheinland-Pfalz"}},{"name":"Im Kappesgarten","postalCode":"56357","locality":"Obertiefenbach","municipality":{"key":"07141104","name":"Obertiefenbach","type":"Kreisangehörige_Gemeinde"},"district":{"key":"07141","name":"Rhein-Lahn-Kreis","type":"Landkreis"},"federalState":{"key":"07","name":"Rheinland-Pfalz"}},{"name":"In der Krei","postalCode":"56357","locality":"Obertiefenbach","municipality":{"key":"07141104","name":"Obertiefenbach","type":"Kreisangehörige_Gemeinde"},"district":{"key":"07141","name":"Rhein-Lahn-Kreis","type":"Landkreis"},"federalState":{"key":"07","name":"Rheinland-Pfalz"}},{"name":"In der Vorstadt","postalCode":"56357","locality":"Obertiefenbach","municipality":{"key":"07141104","name":"Obertiefenbach","type":"Kreisangehörige_Gemeinde"},"district":{"key":"07141","name":"Rhein-Lahn-Kreis","type":"Landkreis"},"federalState":{"key":"07","name":"Rheinland-Pfalz"}},{"name":"Lindenstr.","postalCode":"56357","locality":"Obertiefenbach","municipality":{"key":"07141104","name":"Obertiefenbach","type":"Kreisangehörige_Gemeinde"},"district":{"key":"07141","name":"Rhein-Lahn-Kreis","type":"Landkreis"},"federalState":{"key":"07","name":"Rheinland-Pfalz"}},{"name":"Mühlenweg","postalCode":"56357","locality":"Obertiefenbach","municipality":{"key":"07141104","name":"Obertiefenbach","type":"Kreisangehörige_Gemeinde"},"district":{"key":"07141","name":"Rhein-Lahn-Kreis","type":"Landkreis"},"federalState":{"key":"07","name":"Rheinland-Pfalz"}},{"name":"Rathausstr.","postalCode":"56357","locality":"Obertiefenbach","municipality":{"key":"07141104","name":"Obertiefenbach","type":"Kreisangehörige_Gemeinde"},"district":{"key":"07141","name":"Rhein-Lahn-Kreis","type":"Landkreis"},"federalState":{"key":"07","name":"Rheinland-Pfalz"}},{"name":"Rosenweg","postalCode":"56357","locality":"Obertiefenbach","municipality":{"key":"07141104","name":"Obertiefenbach","type":"Kreisangehörige_Gemeinde"},"district":{"key":"07141","name":"Rhein-Lahn-Kreis","type":"Landkreis"},"federalState":{"key":"07","name":"Rheinland-Pfalz"}},{"name":"Tulpenweg","postalCode":"56357","locality":"Obertiefenbach","municipality":{"key":"07141104","name":"Obertiefenbach","type":"Kreisangehörige_Gemeinde"},"district":{"key":"07141","name":"Rhein-Lahn-Kreis","type":"Landkreis"},"federalState":{"key":"07","name":"Rheinland-Pfalz"}},{"name":"Unter den Eichen","postalCode":"56357","locality":"Obertiefenbach","municipality":{"key":"07141104","name":"Obertiefenbach","type":"Kreisangehörige_Gemeinde"},"district":{"key":"07141","name":"Rhein-Lahn-Kreis","type":"Landkreis"},"federalState":{"key":"07","name":"Rheinland-Pfalz"}},]