[{"name":"Am alten Mühlengraben","postalCode":"55450","locality":"Langenlonsheim","municipality":{"key":"07133054","name":"Langenlonsheim","type":"Kreisangehörige_Gemeinde"},"district":{"key":"07133","name":"Bad Kreuznach","type":"Landkreis"},"federalState":{"key":"07","name":"Rheinland-Pfalz"}},{"name":"Am Bohnenteich","postalCode":"55450","locality":"Langenlonsheim","municipality":{"key":"07133054","name":"Langenlonsheim","type":"Kreisangehörige_Gemeinde"},"district":{"key":"07133","name":"Bad Kreuznach","type":"Landkreis"},"federalState":{"key":"07","name":"Rheinland-Pfalz"}},{"name":"Ameisengasse","postalCode":"55450","locality":"Langenlonsheim","municipality":{"key":"07133054","name":"Langenlonsheim","type":"Kreisangehörige_Gemeinde"},"district":{"key":"07133","name":"Bad Kreuznach","type":"Landkreis"},"federalState":{"key":"07","name":"Rheinland-Pfalz"}},{"name":"Am Goldberg","postalCode":"55450","locality":"Langenlonsheim","municipality":{"key":"07133054","name":"Langenlonsheim","type":"Kreisangehörige_Gemeinde"},"district":{"key":"07133","name":"Bad Kreuznach","type":"Landkreis"},"federalState":{"key":"07","name":"Rheinland-Pfalz"}},{"name":"Am Kirchgarten","postalCode":"55237","locality":"Lonsheim","municipality":{"key":"07331043","name":"Lonsheim","type":"Kreisangehörige_Gemeinde"},"district":{"key":"07331","name":"Alzey-Worms","type":"Landkreis"},"federalState":{"key":"07","name":"Rheinland-Pfalz"}},{"name":"An den Gärten","postalCode":"55237","locality":"Lonsheim","municipality":{"key":"07331043","name":"Lonsheim","type":"Kreisangehörige_Gemeinde"},"district":{"key":"07331","name":"Alzey-Worms","type":"Landkreis"},"federalState":{"key":"07","name":"Rheinland-Pfalz"}},{"name":"An den Weingärten","postalCode":"55450","locality":"Langenlonsheim","municipality":{"key":"07133054","name":"Langenlonsheim","type":"Kreisangehörige_Gemeinde"},"district":{"key":"07133","name":"Bad Kreuznach","type":"Landkreis"},"federalState":{"key":"07","name":"Rheinland-Pfalz"}},{"name":"An der Pforte","postalCode":"55450","locality":"Langenlonsheim","municipality":{"key":"07133054","name":"Langenlonsheim","type":"Kreisangehörige_Gemeinde"},"district":{"key":"07133","name":"Bad Kreuznach","type":"Landkreis"},"federalState":{"key":"07","name":"Rheinland-Pfalz"}},{"name":"An der Ruh","postalCode":"55450","locality":"Langenlonsheim","municipality":{"key":"07133054","name":"Langenlonsheim","type":"Kreisangehörige_Gemeinde"},"district":{"key":"07133","name":"Bad Kreuznach","type":"Landkreis"},"federalState":{"key":"07","name":"Rheinland-Pfalz"}},{"name":"Beethovenstr.","postalCode":"55450","locality":"Langenlonsheim","municipality":{"key":"07133054","name":"Langenlonsheim","type":"Kreisangehörige_Gemeinde"},"district":{"key":"07133","name":"Bad Kreuznach","type":"Landkreis"},"federalState":{"key":"07","name":"Rheinland-Pfalz"}},{"name":"Bergbornstr.","postalCode":"55450","locality":"Langenlonsheim","municipality":{"key":"07133054","name":"Langenlonsheim","type":"Kreisangehörige_Gemeinde"},"district":{"key":"07133","name":"Bad Kreuznach","type":"Landkreis"},"federalState":{"key":"07","name":"Rheinland-Pfalz"}},{"name":"Bermersheimer Str.","postalCode":"55237","locality":"Lonsheim","municipality":{"key":"07331043","name":"Lonsheim","type":"Kreisangehörige_Gemeinde"},"district":{"key":"07331","name":"Alzey-Worms","type":"Landkreis"},"federalState":{"key":"07","name":"Rheinland-Pfalz"}},{"name":"Binger Str.","postalCode":"55450","locality":"Langenlonsheim","municipality":{"key":"07133054","name":"Langenlonsheim","type":"Kreisangehörige_Gemeinde"},"district":{"key":"07133","name":"Bad Kreuznach","type":"Landkreis"},"federalState":{"key":"07","name":"Rheinland-Pfalz"}},{"name":"Bölweg","postalCode":"55237","locality":"Lonsheim","municipality":{"key":"07331043","name":"Lonsheim","type":"Kreisangehörige_Gemeinde"},"district":{"key":"07331","name":"Alzey-Worms","type":"Landkreis"},"federalState":{"key":"07","name":"Rheinland-Pfalz"}},{"name":"Bornheimer Str.","postalCode":"55237","locality":"Lonsheim","municipality":{"key":"07331043","name":"Lonsheim","type":"Kreisangehörige_Gemeinde"},"district":{"key":"07331","name":"Alzey-Worms","type":"Landkreis"},"federalState":{"key":"07","name":"Rheinland-Pfalz"}},{"name":"Brahmsstr.","postalCode":"55450","locality":"Langenlonsheim","municipality":{"key":"07133054","name":"Langenlonsheim","type":"Kreisangehörige_Gemeinde"},"district":{"key":"07133","name":"Bad Kreuznach","type":"Landkreis"},"federalState":{"key":"07","name":"Rheinland-Pfalz"}},{"name":"Burgunderstr.","postalCode":"55237","locality":"Lonsheim","municipality":{"key":"07331043","name":"Lonsheim","type":"Kreisangehörige_Gemeinde"},"district":{"key":"07331","name":"Alzey-Worms","type":"Landkreis"},"federalState":{"key":"07","name":"Rheinland-Pfalz"}},{"name":"Cramerstr.","postalCode":"55450","locality":"Langenlonsheim","municipality":{"key":"07133054","name":"Langenlonsheim","type":"Kreisangehörige_Gemeinde"},"district":{"key":"07133","name":"Bad Kreuznach","type":"Landkreis"},"federalState":{"key":"07","name":"Rheinland-Pfalz"}},{"name":"Danziger Str.","postalCode":"55450","locality":"Langenlonsheim","municipality":{"key":"07133054","name":"Langenlonsheim","type":"Kreisangehörige_Gemeinde"},"district":{"key":"07133","name":"Bad Kreuznach","type":"Landkreis"},"federalState":{"key":"07","name":"Rheinland-Pfalz"}},{"name":"Ellerngasse","postalCode":"55237","locality":"Lonsheim","municipality":{"key":"07331043","name":"Lonsheim","type":"Kreisangehörige_Gemeinde"},"district":{"key":"07331","name":"Alzey-Worms","type":"Landkreis"},"federalState":{"key":"07","name":"Rheinland-Pfalz"}},{"name":"Erbes-Büdesheimer Str.","postalCode":"55237","locality":"Lonsheim","municipality":{"key":"07331043","name":"Lonsheim","type":"Kreisangehörige_Gemeinde"},"district":{"key":"07331","name":"Alzey-Worms","type":"Landkreis"},"federalState":{"key":"07","name":"Rheinland-Pfalz"}},{"name":"Ernst-Ludwig-Str.","postalCode":"55450","locality":"Langenlonsheim","municipality":{"key":"07133054","name":"Langenlonsheim","type":"Kreisangehörige_Gemeinde"},"district":{"key":"07133","name":"Bad Kreuznach","type":"Landkreis"},"federalState":{"key":"07","name":"Rheinland-Pfalz"}},{"name":"Freiherr-vom-Stein-Str.","postalCode":"55450","locality":"Langenlonsheim","municipality":{"key":"07133054","name":"Langenlonsheim","type":"Kreisangehörige_Gemeinde"},"district":{"key":"07133","name":"Bad Kreuznach","type":"Landkreis"},"federalState":{"key":"07","name":"Rheinland-Pfalz"}},{"name":"Frickegässchen","postalCode":"55450","locality":"Langenlonsheim","municipality":{"key":"07133054","name":"Langenlonsheim","type":"Kreisangehörige_Gemeinde"},"district":{"key":"07133","name":"Bad Kreuznach","type":"Landkreis"},"federalState":{"key":"07","name":"Rheinland-Pfalz"}},{"name":"Friedhofstr.","postalCode":"55450","locality":"Langenlonsheim","municipality":{"key":"07133054","name":"Langenlonsheim","type":"Kreisangehörige_Gemeinde"},"district":{"key":"07133","name":"Bad Kreuznach","type":"Landkreis"},"federalState":{"key":"07","name":"Rheinland-Pfalz"}},{"name":"Friedrichstr.","postalCode":"55237","locality":"Lonsheim","municipality":{"key":"07331043","name":"Lonsheim","type":"Kreisangehörige_Gemeinde"},"district":{"key":"07331","name":"Alzey-Worms","type":"Landkreis"},"federalState":{"key":"07","name":"Rheinland-Pfalz"}},{"name":"Gartenstr.","postalCode":"55450","locality":"Langenlonsheim","municipality":{"key":"07133054","name":"Langenlonsheim","type":"Kreisangehörige_Gemeinde"},"district":{"key":"07133","name":"Bad Kreuznach","type":"Landkreis"},"federalState":{"key":"07","name":"Rheinland-Pfalz"}},{"name":"Gebgernstr.","postalCode":"55450","locality":"Langenlonsheim","municipality":{"key":"07133054","name":"Langenlonsheim","type":"Kreisangehörige_Gemeinde"},"district":{"key":"07133","name":"Bad Kreuznach","type":"Landkreis"},"federalState":{"key":"07","name":"Rheinland-Pfalz"}},{"name":"Gensinger Str.","postalCode":"55450","locality":"Langenlonsheim","municipality":{"key":"07133054","name":"Langenlonsheim","type":"Kreisangehörige_Gemeinde"},"district":{"key":"07133","name":"Bad Kreuznach","type":"Landkreis"},"federalState":{"key":"07","name":"Rheinland-Pfalz"}},{"name":"Goethepark","postalCode":"55450","locality":"Langenlonsheim","municipality":{"key":"07133054","name":"Langenlonsheim","type":"Kreisangehörige_Gemeinde"},"district":{"key":"07133","name":"Bad Kreuznach","type":"Landkreis"},"federalState":{"key":"07","name":"Rheinland-Pfalz"}},{"name":"Goethestr.","postalCode":"55450","locality":"Langenlonsheim","municipality":{"key":"07133054","name":"Langenlonsheim","type":"Kreisangehörige_Gemeinde"},"district":{"key":"07133","name":"Bad Kreuznach","type":"Landkreis"},"federalState":{"key":"07","name":"Rheinland-Pfalz"}},{"name":"Grolsheimer Str.","postalCode":"55450","locality":"Langenlonsheim","municipality":{"key":"07133054","name":"Langenlonsheim","type":"Kreisangehörige_Gemeinde"},"district":{"key":"07133","name":"Bad Kreuznach","type":"Landkreis"},"federalState":{"key":"07","name":"Rheinland-Pfalz"}},{"name":"Guldenbachstr.","postalCode":"55450","locality":"Langenlonsheim","municipality":{"key":"07133054","name":"Langenlonsheim","type":"Kreisangehörige_Gemeinde"},"district":{"key":"07133","name":"Bad Kreuznach","type":"Landkreis"},"federalState":{"key":"07","name":"Rheinland-Pfalz"}},{"name":"Gutenbergerstr.","postalCode":"55450","locality":"Langenlonsheim","municipality":{"key":"07133054","name":"Langenlonsheim","type":"Kreisangehörige_Gemeinde"},"district":{"key":"07133","name":"Bad Kreuznach","type":"Landkreis"},"federalState":{"key":"07","name":"Rheinland-Pfalz"}},{"name":"Händelstr.","postalCode":"55450","locality":"Langenlonsheim","municipality":{"key":"07133054","name":"Langenlonsheim","type":"Kreisangehörige_Gemeinde"},"district":{"key":"07133","name":"Bad Kreuznach","type":"Landkreis"},"federalState":{"key":"07","name":"Rheinland-Pfalz"}},{"name":"Hasengasse","postalCode":"55450","locality":"Langenlonsheim","municipality":{"key":"07133054","name":"Langenlonsheim","type":"Kreisangehörige_Gemeinde"},"district":{"key":"07133","name":"Bad Kreuznach","type":"Landkreis"},"federalState":{"key":"07","name":"Rheinland-Pfalz"}},{"name":"Heddesheimer Str.","postalCode":"55450","locality":"Langenlonsheim","municipality":{"key":"07133054","name":"Langenlonsheim","type":"Kreisangehörige_Gemeinde"},"district":{"key":"07133","name":"Bad Kreuznach","type":"Landkreis"},"federalState":{"key":"07","name":"Rheinland-Pfalz"}},{"name":"Heinrich-Heine-Str.","postalCode":"55450","locality":"Langenlonsheim","municipality":{"key":"07133054","name":"Langenlonsheim","type":"Kreisangehörige_Gemeinde"},"district":{"key":"07133","name":"Bad Kreuznach","type":"Landkreis"},"federalState":{"key":"07","name":"Rheinland-Pfalz"}},{"name":"Heumarkt","postalCode":"55450","locality":"Langenlonsheim","municipality":{"key":"07133054","name":"Langenlonsheim","type":"Kreisangehörige_Gemeinde"},"district":{"key":"07133","name":"Bad Kreuznach","type":"Landkreis"},"federalState":{"key":"07","name":"Rheinland-Pfalz"}},{"name":"Hexelgasse","postalCode":"55237","locality":"Lonsheim","municipality":{"key":"07331043","name":"Lonsheim","type":"Kreisangehörige_Gemeinde"},"district":{"key":"07331","name":"Alzey-Worms","type":"Landkreis"},"federalState":{"key":"07","name":"Rheinland-Pfalz"}},{"name":"Hintergasse","postalCode":"55450","locality":"Langenlonsheim","municipality":{"key":"07133054","name":"Langenlonsheim","type":"Kreisangehörige_Gemeinde"},"district":{"key":"07133","name":"Bad Kreuznach","type":"Landkreis"},"federalState":{"key":"07","name":"Rheinland-Pfalz"}},{"name":"Hofstatt","postalCode":"55450","locality":"Langenlonsheim","municipality":{"key":"07133054","name":"Langenlonsheim","type":"Kreisangehörige_Gemeinde"},"district":{"key":"07133","name":"Bad Kreuznach","type":"Landkreis"},"federalState":{"key":"07","name":"Rheinland-Pfalz"}},{"name":"Holländergasse","postalCode":"55450","locality":"Langenlonsheim","municipality":{"key":"07133054","name":"Langenlonsheim","type":"Kreisangehörige_Gemeinde"},"district":{"key":"07133","name":"Bad Kreuznach","type":"Landkreis"},"federalState":{"key":"07","name":"Rheinland-Pfalz"}},{"name":"Hollergasse","postalCode":"55450","locality":"Langenlonsheim","municipality":{"key":"07133054","name":"Langenlonsheim","type":"Kreisangehörige_Gemeinde"},"district":{"key":"07133","name":"Bad Kreuznach","type":"Landkreis"},"federalState":{"key":"07","name":"Rheinland-Pfalz"}},{"name":"Im Böhel","postalCode":"55450","locality":"Langenlonsheim","municipality":{"key":"07133054","name":"Langenlonsheim","type":"Kreisangehörige_Gemeinde"},"district":{"key":"07133","name":"Bad Kreuznach","type":"Landkreis"},"federalState":{"key":"07","name":"Rheinland-Pfalz"}},{"name":"Im Hoppegarten","postalCode":"55450","locality":"Langenlonsheim","municipality":{"key":"07133054","name":"Langenlonsheim","type":"Kreisangehörige_Gemeinde"},"district":{"key":"07133","name":"Bad Kreuznach","type":"Landkreis"},"federalState":{"key":"07","name":"Rheinland-Pfalz"}},{"name":"Im Kappeseck","postalCode":"55237","locality":"Lonsheim","municipality":{"key":"07331043","name":"Lonsheim","type":"Kreisangehörige_Gemeinde"},"district":{"key":"07331","name":"Alzey-Worms","type":"Landkreis"},"federalState":{"key":"07","name":"Rheinland-Pfalz"}},{"name":"Im Klopp","postalCode":"55450","locality":"Langenlonsheim","municipality":{"key":"07133054","name":"Langenlonsheim","type":"Kreisangehörige_Gemeinde"},"district":{"key":"07133","name":"Bad Kreuznach","type":"Landkreis"},"federalState":{"key":"07","name":"Rheinland-Pfalz"}},{"name":"Im Vogelsang","postalCode":"55450","locality":"Langenlonsheim","municipality":{"key":"07133054","name":"Langenlonsheim","type":"Kreisangehörige_Gemeinde"},"district":{"key":"07133","name":"Bad Kreuznach","type":"Landkreis"},"federalState":{"key":"07","name":"Rheinland-Pfalz"}},{"name":"Johann-Sebastian-Bach-Str.","postalCode":"55450","locality":"Langenlonsheim","municipality":{"key":"07133054","name":"Langenlonsheim","type":"Kreisangehörige_Gemeinde"},"district":{"key":"07133","name":"Bad Kreuznach","type":"Landkreis"},"federalState":{"key":"07","name":"Rheinland-Pfalz"}},{"name":"Johann-Stork Str.","postalCode":"55237","locality":"Lonsheim","municipality":{"key":"07331043","name":"Lonsheim","type":"Kreisangehörige_Gemeinde"},"district":{"key":"07331","name":"Alzey-Worms","type":"Landkreis"},"federalState":{"key":"07","name":"Rheinland-Pfalz"}},{"name":"Kandelgasse","postalCode":"55237","locality":"Lonsheim","municipality":{"key":"07331043","name":"Lonsheim","type":"Kreisangehörige_Gemeinde"},"district":{"key":"07331","name":"Alzey-Worms","type":"Landkreis"},"federalState":{"key":"07","name":"Rheinland-Pfalz"}},{"name":"Kinsheck","postalCode":"55450","locality":"Langenlonsheim","municipality":{"key":"07133054","name":"Langenlonsheim","type":"Kreisangehörige_Gemeinde"},"district":{"key":"07133","name":"Bad Kreuznach","type":"Landkreis"},"federalState":{"key":"07","name":"Rheinland-Pfalz"}},{"name":"Kirchgasse","postalCode":"55237","locality":"Lonsheim","municipality":{"key":"07331043","name":"Lonsheim","type":"Kreisangehörige_Gemeinde"},"district":{"key":"07331","name":"Alzey-Worms","type":"Landkreis"},"federalState":{"key":"07","name":"Rheinland-Pfalz"}},{"name":"Kleiststr.","postalCode":"55450","locality":"Langenlonsheim","municipality":{"key":"07133054","name":"Langenlonsheim","type":"Kreisangehörige_Gemeinde"},"district":{"key":"07133","name":"Bad Kreuznach","type":"Landkreis"},"federalState":{"key":"07","name":"Rheinland-Pfalz"}},{"name":"Kloningerspark","postalCode":"55450","locality":"Langenlonsheim","municipality":{"key":"07133054","name":"Langenlonsheim","type":"Kreisangehörige_Gemeinde"},"district":{"key":"07133","name":"Bad Kreuznach","type":"Landkreis"},"federalState":{"key":"07","name":"Rheinland-Pfalz"}},{"name":"Lauerweg","postalCode":"55450","locality":"Langenlonsheim","municipality":{"key":"07133054","name":"Langenlonsheim","type":"Kreisangehörige_Gemeinde"},"district":{"key":"07133","name":"Bad Kreuznach","type":"Landkreis"},"federalState":{"key":"07","name":"Rheinland-Pfalz"}},{"name":"Lessingstr.","postalCode":"55450","locality":"Langenlonsheim","municipality":{"key":"07133054","name":"Langenlonsheim","type":"Kreisangehörige_Gemeinde"},"district":{"key":"07133","name":"Bad Kreuznach","type":"Landkreis"},"federalState":{"key":"07","name":"Rheinland-Pfalz"}},{"name":"Löhrstr.","postalCode":"55450","locality":"Langenlonsheim","municipality":{"key":"07133054","name":"Langenlonsheim","type":"Kreisangehörige_Gemeinde"},"district":{"key":"07133","name":"Bad Kreuznach","type":"Landkreis"},"federalState":{"key":"07","name":"Rheinland-Pfalz"}},{"name":"Mainzer Str.","postalCode":"55450","locality":"Langenlonsheim","municipality":{"key":"07133054","name":"Langenlonsheim","type":"Kreisangehörige_Gemeinde"},"district":{"key":"07133","name":"Bad Kreuznach","type":"Landkreis"},"federalState":{"key":"07","name":"Rheinland-Pfalz"}},{"name":"Mandelbergstr.","postalCode":"55237","locality":"Lonsheim","municipality":{"key":"07331043","name":"Lonsheim","type":"Kreisangehörige_Gemeinde"},"district":{"key":"07331","name":"Alzey-Worms","type":"Landkreis"},"federalState":{"key":"07","name":"Rheinland-Pfalz"}},{"name":"Mozartstr.","postalCode":"55450","locality":"Langenlonsheim","municipality":{"key":"07133054","name":"Langenlonsheim","type":"Kreisangehörige_Gemeinde"},"district":{"key":"07133","name":"Bad Kreuznach","type":"Landkreis"},"federalState":{"key":"07","name":"Rheinland-Pfalz"}},{"name":"Naheweinstr.","postalCode":"55450","locality":"Langenlonsheim","municipality":{"key":"07133054","name":"Langenlonsheim","type":"Kreisangehörige_Gemeinde"},"district":{"key":"07133","name":"Bad Kreuznach","type":"Landkreis"},"federalState":{"key":"07","name":"Rheinland-Pfalz"}},{"name":"Nelly-Sachs-Str.","postalCode":"55450","locality":"Langenlonsheim","municipality":{"key":"07133054","name":"Langenlonsheim","type":"Kreisangehörige_Gemeinde"},"district":{"key":"07133","name":"Bad Kreuznach","type":"Landkreis"},"federalState":{"key":"07","name":"Rheinland-Pfalz"}},{"name":"Neugasse","postalCode":"55237","locality":"Lonsheim","municipality":{"key":"07331043","name":"Lonsheim","type":"Kreisangehörige_Gemeinde"},"district":{"key":"07331","name":"Alzey-Worms","type":"Landkreis"},"federalState":{"key":"07","name":"Rheinland-Pfalz"}},{"name":"Obere Grabenstr.","postalCode":"55450","locality":"Langenlonsheim","municipality":{"key":"07133054","name":"Langenlonsheim","type":"Kreisangehörige_Gemeinde"},"district":{"key":"07133","name":"Bad Kreuznach","type":"Landkreis"},"federalState":{"key":"07","name":"Rheinland-Pfalz"}},{"name":"Obergasse","postalCode":"55237","locality":"Lonsheim","municipality":{"key":"07331043","name":"Lonsheim","type":"Kreisangehörige_Gemeinde"},"district":{"key":"07331","name":"Alzey-Worms","type":"Landkreis"},"federalState":{"key":"07","name":"Rheinland-Pfalz"}},{"name":"Ostpreußenstr.","postalCode":"55450","locality":"Langenlonsheim","municipality":{"key":"07133054","name":"Langenlonsheim","type":"Kreisangehörige_Gemeinde"},"district":{"key":"07133","name":"Bad Kreuznach","type":"Landkreis"},"federalState":{"key":"07","name":"Rheinland-Pfalz"}},{"name":"Pestalozzistr.","postalCode":"55450","locality":"Langenlonsheim","municipality":{"key":"07133054","name":"Langenlonsheim","type":"Kreisangehörige_Gemeinde"},"district":{"key":"07133","name":"Bad Kreuznach","type":"Landkreis"},"federalState":{"key":"07","name":"Rheinland-Pfalz"}},{"name":"Place Potton","postalCode":"55450","locality":"Langenlonsheim","municipality":{"key":"07133054","name":"Langenlonsheim","type":"Kreisangehörige_Gemeinde"},"district":{"key":"07133","name":"Bad Kreuznach","type":"Landkreis"},"federalState":{"key":"07","name":"Rheinland-Pfalz"}},{"name":"Pommernstr.","postalCode":"55450","locality":"Langenlonsheim","municipality":{"key":"07133054","name":"Langenlonsheim","type":"Kreisangehörige_Gemeinde"},"district":{"key":"07133","name":"Bad Kreuznach","type":"Landkreis"},"federalState":{"key":"07","name":"Rheinland-Pfalz"}},{"name":"Poststr.","postalCode":"55450","locality":"Langenlonsheim","municipality":{"key":"07133054","name":"Langenlonsheim","type":"Kreisangehörige_Gemeinde"},"district":{"key":"07133","name":"Bad Kreuznach","type":"Landkreis"},"federalState":{"key":"07","name":"Rheinland-Pfalz"}},{"name":"Ratzengasse","postalCode":"55450","locality":"Langenlonsheim","municipality":{"key":"07133054","name":"Langenlonsheim","type":"Kreisangehörige_Gemeinde"},"district":{"key":"07133","name":"Bad Kreuznach","type":"Landkreis"},"federalState":{"key":"07","name":"Rheinland-Pfalz"}},{"name":"Reielgasse","postalCode":"55450","locality":"Langenlonsheim","municipality":{"key":"07133054","name":"Langenlonsheim","type":"Kreisangehörige_Gemeinde"},"district":{"key":"07133","name":"Bad Kreuznach","type":"Landkreis"},"federalState":{"key":"07","name":"Rheinland-Pfalz"}},{"name":"Richard-Wagner-Str.","postalCode":"55450","locality":"Langenlonsheim","municipality":{"key":"07133054","name":"Langenlonsheim","type":"Kreisangehörige_Gemeinde"},"district":{"key":"07133","name":"Bad Kreuznach","type":"Landkreis"},"federalState":{"key":"07","name":"Rheinland-Pfalz"}},{"name":"Richgartstr.","postalCode":"55450","locality":"Langenlonsheim","municipality":{"key":"07133054","name":"Langenlonsheim","type":"Kreisangehörige_Gemeinde"},"district":{"key":"07133","name":"Bad Kreuznach","type":"Landkreis"},"federalState":{"key":"07","name":"Rheinland-Pfalz"}},{"name":"Rilkestr.","postalCode":"55450","locality":"Langenlonsheim","municipality":{"key":"07133054","name":"Langenlonsheim","type":"Kreisangehörige_Gemeinde"},"district":{"key":"07133","name":"Bad Kreuznach","type":"Landkreis"},"federalState":{"key":"07","name":"Rheinland-Pfalz"}},{"name":"Robert-Stolz-Str.","postalCode":"55450","locality":"Langenlonsheim","municipality":{"key":"07133054","name":"Langenlonsheim","type":"Kreisangehörige_Gemeinde"},"district":{"key":"07133","name":"Bad Kreuznach","type":"Landkreis"},"federalState":{"key":"07","name":"Rheinland-Pfalz"}},{"name":"Rothenbergerstr.","postalCode":"55450","locality":"Langenlonsheim","municipality":{"key":"07133054","name":"Langenlonsheim","type":"Kreisangehörige_Gemeinde"},"district":{"key":"07133","name":"Bad Kreuznach","type":"Landkreis"},"federalState":{"key":"07","name":"Rheinland-Pfalz"}},{"name":"Saarstr.","postalCode":"55450","locality":"Langenlonsheim","municipality":{"key":"07133054","name":"Langenlonsheim","type":"Kreisangehörige_Gemeinde"},"district":{"key":"07133","name":"Bad Kreuznach","type":"Landkreis"},"federalState":{"key":"07","name":"Rheinland-Pfalz"}},{"name":"Schillerstr.","postalCode":"55450","locality":"Langenlonsheim","municipality":{"key":"07133054","name":"Langenlonsheim","type":"Kreisangehörige_Gemeinde"},"district":{"key":"07133","name":"Bad Kreuznach","type":"Landkreis"},"federalState":{"key":"07","name":"Rheinland-Pfalz"}},{"name":"Schlesische Str.","postalCode":"55450","locality":"Langenlonsheim","municipality":{"key":"07133054","name":"Langenlonsheim","type":"Kreisangehörige_Gemeinde"},"district":{"key":"07133","name":"Bad Kreuznach","type":"Landkreis"},"federalState":{"key":"07","name":"Rheinland-Pfalz"}},{"name":"Schlossgasse","postalCode":"55237","locality":"Lonsheim","municipality":{"key":"07331043","name":"Lonsheim","type":"Kreisangehörige_Gemeinde"},"district":{"key":"07331","name":"Alzey-Worms","type":"Landkreis"},"federalState":{"key":"07","name":"Rheinland-Pfalz"}},{"name":"Schmittstr.","postalCode":"55450","locality":"Langenlonsheim","municipality":{"key":"07133054","name":"Langenlonsheim","type":"Kreisangehörige_Gemeinde"},"district":{"key":"07133","name":"Bad Kreuznach","type":"Landkreis"},"federalState":{"key":"07","name":"Rheinland-Pfalz"}},{"name":"Schönbergstr.","postalCode":"55237","locality":"Lonsheim","municipality":{"key":"07331043","name":"Lonsheim","type":"Kreisangehörige_Gemeinde"},"district":{"key":"07331","name":"Alzey-Worms","type":"Landkreis"},"federalState":{"key":"07","name":"Rheinland-Pfalz"}},{"name":"Schubertstr.","postalCode":"55450","locality":"Langenlonsheim","municipality":{"key":"07133054","name":"Langenlonsheim","type":"Kreisangehörige_Gemeinde"},"district":{"key":"07133","name":"Bad Kreuznach","type":"Landkreis"},"federalState":{"key":"07","name":"Rheinland-Pfalz"}},{"name":"Schulstr.","postalCode":"55450","locality":"Langenlonsheim","municipality":{"key":"07133054","name":"Langenlonsheim","type":"Kreisangehörige_Gemeinde"},"district":{"key":"07133","name":"Bad Kreuznach","type":"Landkreis"},"federalState":{"key":"07","name":"Rheinland-Pfalz"}},{"name":"Schützenstr.","postalCode":"55450","locality":"Langenlonsheim","municipality":{"key":"07133054","name":"Langenlonsheim","type":"Kreisangehörige_Gemeinde"},"district":{"key":"07133","name":"Bad Kreuznach","type":"Landkreis"},"federalState":{"key":"07","name":"Rheinland-Pfalz"}},{"name":"Sonnenbornstr.","postalCode":"55450","locality":"Langenlonsheim","municipality":{"key":"07133054","name":"Langenlonsheim","type":"Kreisangehörige_Gemeinde"},"district":{"key":"07133","name":"Bad Kreuznach","type":"Landkreis"},"federalState":{"key":"07","name":"Rheinland-Pfalz"}},{"name":"Stettiner Str.","postalCode":"55450","locality":"Langenlonsheim","municipality":{"key":"07133054","name":"Langenlonsheim","type":"Kreisangehörige_Gemeinde"},"district":{"key":"07133","name":"Bad Kreuznach","type":"Landkreis"},"federalState":{"key":"07","name":"Rheinland-Pfalz"}},{"name":"Untere Grabenstr.","postalCode":"55450","locality":"Langenlonsheim","municipality":{"key":"07133054","name":"Langenlonsheim","type":"Kreisangehörige_Gemeinde"},"district":{"key":"07133","name":"Bad Kreuznach","type":"Landkreis"},"federalState":{"key":"07","name":"Rheinland-Pfalz"}},{"name":"Untergasse","postalCode":"55237","locality":"Lonsheim","municipality":{"key":"07331043","name":"Lonsheim","type":"Kreisangehörige_Gemeinde"},"district":{"key":"07331","name":"Alzey-Worms","type":"Landkreis"},"federalState":{"key":"07","name":"Rheinland-Pfalz"}},{"name":"Waldstr.","postalCode":"55450","locality":"Langenlonsheim","municipality":{"key":"07133054","name":"Langenlonsheim","type":"Kreisangehörige_Gemeinde"},"district":{"key":"07133","name":"Bad Kreuznach","type":"Landkreis"},"federalState":{"key":"07","name":"Rheinland-Pfalz"}},{"name":"Wallstr.","postalCode":"55450","locality":"Langenlonsheim","municipality":{"key":"07133054","name":"Langenlonsheim","type":"Kreisangehörige_Gemeinde"},"district":{"key":"07133","name":"Bad Kreuznach","type":"Landkreis"},"federalState":{"key":"07","name":"Rheinland-Pfalz"}},{"name":"Weidenstr.","postalCode":"55450","locality":"Langenlonsheim","municipality":{"key":"07133054","name":"Langenlonsheim","type":"Kreisangehörige_Gemeinde"},"district":{"key":"07133","name":"Bad Kreuznach","type":"Landkreis"},"federalState":{"key":"07","name":"Rheinland-Pfalz"}},{"name":"Weihergasse","postalCode":"55237","locality":"Lonsheim","municipality":{"key":"07331043","name":"Lonsheim","type":"Kreisangehörige_Gemeinde"},"district":{"key":"07331","name":"Alzey-Worms","type":"Landkreis"},"federalState":{"key":"07","name":"Rheinland-Pfalz"}},{"name":"Wiesenweg","postalCode":"55237","locality":"Lonsheim","municipality":{"key":"07331043","name":"Lonsheim","type":"Kreisangehörige_Gemeinde"},"district":{"key":"07331","name":"Alzey-Worms","type":"Landkreis"},"federalState":{"key":"07","name":"Rheinland-Pfalz"}},]