[{"name":"Achterlinde","postalCode":"59602","locality":"Rüthen","municipality":{"key":"05974036","name":"Rüthen, Stadt","type":"Stadt"},"district":{"key":"05974","name":"Soest","type":"Kreis"},"federalState":{"key":"05","name":"Nordrhein-Westfalen"}},{"name":"Alte Kreisstr.","postalCode":"59602","locality":"Rüthen","municipality":{"key":"05974036","name":"Rüthen, Stadt","type":"Stadt"},"district":{"key":"05974","name":"Soest","type":"Kreis"},"federalState":{"key":"05","name":"Nordrhein-Westfalen"}},{"name":"Altenrüthener Str.","postalCode":"59602","locality":"Rüthen","municipality":{"key":"05974036","name":"Rüthen, Stadt","type":"Stadt"},"district":{"key":"05974","name":"Soest","type":"Kreis"},"federalState":{"key":"05","name":"Nordrhein-Westfalen"}},{"name":"Alter Hellweg","postalCode":"59602","locality":"Rüthen","municipality":{"key":"05974036","name":"Rüthen, Stadt","type":"Stadt"},"district":{"key":"05974","name":"Soest","type":"Kreis"},"federalState":{"key":"05","name":"Nordrhein-Westfalen"}},{"name":"Alter Weg","postalCode":"59602","locality":"Rüthen","municipality":{"key":"05974036","name":"Rüthen, Stadt","type":"Stadt"},"district":{"key":"05974","name":"Soest","type":"Kreis"},"federalState":{"key":"05","name":"Nordrhein-Westfalen"}},{"name":"Am Baumhof","postalCode":"59602","locality":"Rüthen","municipality":{"key":"05974036","name":"Rüthen, Stadt","type":"Stadt"},"district":{"key":"05974","name":"Soest","type":"Kreis"},"federalState":{"key":"05","name":"Nordrhein-Westfalen"}},{"name":"Am Berge","postalCode":"59602","locality":"Rüthen","municipality":{"key":"05974036","name":"Rüthen, Stadt","type":"Stadt"},"district":{"key":"05974","name":"Soest","type":"Kreis"},"federalState":{"key":"05","name":"Nordrhein-Westfalen"}},{"name":"Am Fangegraben","postalCode":"59602","locality":"Rüthen","municipality":{"key":"05974036","name":"Rüthen, Stadt","type":"Stadt"},"district":{"key":"05974","name":"Soest","type":"Kreis"},"federalState":{"key":"05","name":"Nordrhein-Westfalen"}},{"name":"Am Gericht","postalCode":"59602","locality":"Rüthen","municipality":{"key":"05974036","name":"Rüthen, Stadt","type":"Stadt"},"district":{"key":"05974","name":"Soest","type":"Kreis"},"federalState":{"key":"05","name":"Nordrhein-Westfalen"}},{"name":"Am Hartweg","postalCode":"59602","locality":"Rüthen","municipality":{"key":"05974036","name":"Rüthen, Stadt","type":"Stadt"},"district":{"key":"05974","name":"Soest","type":"Kreis"},"federalState":{"key":"05","name":"Nordrhein-Westfalen"}},{"name":"Am Hunneskamp","postalCode":"59602","locality":"Rüthen","municipality":{"key":"05974036","name":"Rüthen, Stadt","type":"Stadt"},"district":{"key":"05974","name":"Soest","type":"Kreis"},"federalState":{"key":"05","name":"Nordrhein-Westfalen"}},{"name":"Am Kattenstein","postalCode":"59602","locality":"Rüthen","municipality":{"key":"05974036","name":"Rüthen, Stadt","type":"Stadt"},"district":{"key":"05974","name":"Soest","type":"Kreis"},"federalState":{"key":"05","name":"Nordrhein-Westfalen"}},{"name":"Am Kirchplatz","postalCode":"59602","locality":"Rüthen","municipality":{"key":"05974036","name":"Rüthen, Stadt","type":"Stadt"},"district":{"key":"05974","name":"Soest","type":"Kreis"},"federalState":{"key":"05","name":"Nordrhein-Westfalen"}},{"name":"Am Knapp","postalCode":"59602","locality":"Rüthen","municipality":{"key":"05974036","name":"Rüthen, Stadt","type":"Stadt"},"district":{"key":"05974","name":"Soest","type":"Kreis"},"federalState":{"key":"05","name":"Nordrhein-Westfalen"}},{"name":"Am Knüvel","postalCode":"59602","locality":"Rüthen","municipality":{"key":"05974036","name":"Rüthen, Stadt","type":"Stadt"},"district":{"key":"05974","name":"Soest","type":"Kreis"},"federalState":{"key":"05","name":"Nordrhein-Westfalen"}},{"name":"Am Kump","postalCode":"59602","locality":"Rüthen","municipality":{"key":"05974036","name":"Rüthen, Stadt","type":"Stadt"},"district":{"key":"05974","name":"Soest","type":"Kreis"},"federalState":{"key":"05","name":"Nordrhein-Westfalen"}},{"name":"Am Markt","postalCode":"59602","locality":"Rüthen","municipality":{"key":"05974036","name":"Rüthen, Stadt","type":"Stadt"},"district":{"key":"05974","name":"Soest","type":"Kreis"},"federalState":{"key":"05","name":"Nordrhein-Westfalen"}},{"name":"Am Mildenweg","postalCode":"59602","locality":"Rüthen","municipality":{"key":"05974036","name":"Rüthen, Stadt","type":"Stadt"},"district":{"key":"05974","name":"Soest","type":"Kreis"},"federalState":{"key":"05","name":"Nordrhein-Westfalen"}},{"name":"Am Möncherberg","postalCode":"59602","locality":"Rüthen","municipality":{"key":"05974036","name":"Rüthen, Stadt","type":"Stadt"},"district":{"key":"05974","name":"Soest","type":"Kreis"},"federalState":{"key":"05","name":"Nordrhein-Westfalen"}},{"name":"Am Mühlenschlag","postalCode":"59602","locality":"Rüthen","municipality":{"key":"05974036","name":"Rüthen, Stadt","type":"Stadt"},"district":{"key":"05974","name":"Soest","type":"Kreis"},"federalState":{"key":"05","name":"Nordrhein-Westfalen"}},{"name":"Am Papenweg","postalCode":"59602","locality":"Rüthen","municipality":{"key":"05974036","name":"Rüthen, Stadt","type":"Stadt"},"district":{"key":"05974","name":"Soest","type":"Kreis"},"federalState":{"key":"05","name":"Nordrhein-Westfalen"}},{"name":"Am Rabenknapp","postalCode":"59602","locality":"Rüthen","municipality":{"key":"05974036","name":"Rüthen, Stadt","type":"Stadt"},"district":{"key":"05974","name":"Soest","type":"Kreis"},"federalState":{"key":"05","name":"Nordrhein-Westfalen"}},{"name":"Am Rabennest","postalCode":"59602","locality":"Rüthen","municipality":{"key":"05974036","name":"Rüthen, Stadt","type":"Stadt"},"district":{"key":"05974","name":"Soest","type":"Kreis"},"federalState":{"key":"05","name":"Nordrhein-Westfalen"}},{"name":"Am Rittergraben","postalCode":"59602","locality":"Rüthen","municipality":{"key":"05974036","name":"Rüthen, Stadt","type":"Stadt"},"district":{"key":"05974","name":"Soest","type":"Kreis"},"federalState":{"key":"05","name":"Nordrhein-Westfalen"}},{"name":"Am Rundweg","postalCode":"59602","locality":"Rüthen","municipality":{"key":"05974036","name":"Rüthen, Stadt","type":"Stadt"},"district":{"key":"05974","name":"Soest","type":"Kreis"},"federalState":{"key":"05","name":"Nordrhein-Westfalen"}},{"name":"Am Schulplatz","postalCode":"59602","locality":"Rüthen","municipality":{"key":"05974036","name":"Rüthen, Stadt","type":"Stadt"},"district":{"key":"05974","name":"Soest","type":"Kreis"},"federalState":{"key":"05","name":"Nordrhein-Westfalen"}},{"name":"Amselweg","postalCode":"59602","locality":"Rüthen","municipality":{"key":"05974036","name":"Rüthen, Stadt","type":"Stadt"},"district":{"key":"05974","name":"Soest","type":"Kreis"},"federalState":{"key":"05","name":"Nordrhein-Westfalen"}},{"name":"Am Stadtgraben","postalCode":"59602","locality":"Rüthen","municipality":{"key":"05974036","name":"Rüthen, Stadt","type":"Stadt"},"district":{"key":"05974","name":"Soest","type":"Kreis"},"federalState":{"key":"05","name":"Nordrhein-Westfalen"}},{"name":"Am Steinbruch","postalCode":"59602","locality":"Rüthen","municipality":{"key":"05974036","name":"Rüthen, Stadt","type":"Stadt"},"district":{"key":"05974","name":"Soest","type":"Kreis"},"federalState":{"key":"05","name":"Nordrhein-Westfalen"}},{"name":"Am Teich","postalCode":"59602","locality":"Rüthen","municipality":{"key":"05974036","name":"Rüthen, Stadt","type":"Stadt"},"district":{"key":"05974","name":"Soest","type":"Kreis"},"federalState":{"key":"05","name":"Nordrhein-Westfalen"}},{"name":"Am Töneken","postalCode":"59602","locality":"Rüthen","municipality":{"key":"05974036","name":"Rüthen, Stadt","type":"Stadt"},"district":{"key":"05974","name":"Soest","type":"Kreis"},"federalState":{"key":"05","name":"Nordrhein-Westfalen"}},{"name":"Am Vogelkamp","postalCode":"59602","locality":"Rüthen","municipality":{"key":"05974036","name":"Rüthen, Stadt","type":"Stadt"},"district":{"key":"05974","name":"Soest","type":"Kreis"},"federalState":{"key":"05","name":"Nordrhein-Westfalen"}},{"name":"Am Wiesenberg","postalCode":"59602","locality":"Rüthen","municipality":{"key":"05974036","name":"Rüthen, Stadt","type":"Stadt"},"district":{"key":"05974","name":"Soest","type":"Kreis"},"federalState":{"key":"05","name":"Nordrhein-Westfalen"}},{"name":"Am Wiggestät","postalCode":"59602","locality":"Rüthen","municipality":{"key":"05974036","name":"Rüthen, Stadt","type":"Stadt"},"district":{"key":"05974","name":"Soest","type":"Kreis"},"federalState":{"key":"05","name":"Nordrhein-Westfalen"}},{"name":"An der Lütken Haar","postalCode":"59602","locality":"Rüthen","municipality":{"key":"05974036","name":"Rüthen, Stadt","type":"Stadt"},"district":{"key":"05974","name":"Soest","type":"Kreis"},"federalState":{"key":"05","name":"Nordrhein-Westfalen"}},{"name":"An der Mergelkuhle","postalCode":"59602","locality":"Rüthen","municipality":{"key":"05974036","name":"Rüthen, Stadt","type":"Stadt"},"district":{"key":"05974","name":"Soest","type":"Kreis"},"federalState":{"key":"05","name":"Nordrhein-Westfalen"}},{"name":"Antoniusstr.","postalCode":"59602","locality":"Rüthen","municipality":{"key":"05974036","name":"Rüthen, Stadt","type":"Stadt"},"district":{"key":"05974","name":"Soest","type":"Kreis"},"federalState":{"key":"05","name":"Nordrhein-Westfalen"}},{"name":"Aschentalweg","postalCode":"59602","locality":"Rüthen","municipality":{"key":"05974036","name":"Rüthen, Stadt","type":"Stadt"},"district":{"key":"05974","name":"Soest","type":"Kreis"},"federalState":{"key":"05","name":"Nordrhein-Westfalen"}},{"name":"Auf dem Kamp","postalCode":"59602","locality":"Rüthen","municipality":{"key":"05974036","name":"Rüthen, Stadt","type":"Stadt"},"district":{"key":"05974","name":"Soest","type":"Kreis"},"federalState":{"key":"05","name":"Nordrhein-Westfalen"}},{"name":"Auf dem Schild","postalCode":"59602","locality":"Rüthen","municipality":{"key":"05974036","name":"Rüthen, Stadt","type":"Stadt"},"district":{"key":"05974","name":"Soest","type":"Kreis"},"federalState":{"key":"05","name":"Nordrhein-Westfalen"}},{"name":"Auf dem Stein","postalCode":"59602","locality":"Rüthen","municipality":{"key":"05974036","name":"Rüthen, Stadt","type":"Stadt"},"district":{"key":"05974","name":"Soest","type":"Kreis"},"federalState":{"key":"05","name":"Nordrhein-Westfalen"}},{"name":"Auf dem Steinberg","postalCode":"59602","locality":"Rüthen","municipality":{"key":"05974036","name":"Rüthen, Stadt","type":"Stadt"},"district":{"key":"05974","name":"Soest","type":"Kreis"},"federalState":{"key":"05","name":"Nordrhein-Westfalen"}},{"name":"Auf den Höfen","postalCode":"59602","locality":"Rüthen","municipality":{"key":"05974036","name":"Rüthen, Stadt","type":"Stadt"},"district":{"key":"05974","name":"Soest","type":"Kreis"},"federalState":{"key":"05","name":"Nordrhein-Westfalen"}},{"name":"Augustastr.","postalCode":"59602","locality":"Rüthen","municipality":{"key":"05974036","name":"Rüthen, Stadt","type":"Stadt"},"district":{"key":"05974","name":"Soest","type":"Kreis"},"federalState":{"key":"05","name":"Nordrhein-Westfalen"}},{"name":"Bachstr.","postalCode":"59602","locality":"Rüthen","municipality":{"key":"05974036","name":"Rüthen, Stadt","type":"Stadt"},"district":{"key":"05974","name":"Soest","type":"Kreis"},"federalState":{"key":"05","name":"Nordrhein-Westfalen"}},{"name":"Bahnhofstr.","postalCode":"59602","locality":"Rüthen","municipality":{"key":"05974036","name":"Rüthen, Stadt","type":"Stadt"},"district":{"key":"05974","name":"Soest","type":"Kreis"},"federalState":{"key":"05","name":"Nordrhein-Westfalen"}},{"name":"Beleckenweg","postalCode":"59602","locality":"Rüthen","municipality":{"key":"05974036","name":"Rüthen, Stadt","type":"Stadt"},"district":{"key":"05974","name":"Soest","type":"Kreis"},"federalState":{"key":"05","name":"Nordrhein-Westfalen"}},{"name":"Belecker Weg","postalCode":"59602","locality":"Rüthen","municipality":{"key":"05974036","name":"Rüthen, Stadt","type":"Stadt"},"district":{"key":"05974","name":"Soest","type":"Kreis"},"federalState":{"key":"05","name":"Nordrhein-Westfalen"}},{"name":"Benderstr.","postalCode":"59602","locality":"Rüthen","municipality":{"key":"05974036","name":"Rüthen, Stadt","type":"Stadt"},"district":{"key":"05974","name":"Soest","type":"Kreis"},"federalState":{"key":"05","name":"Nordrhein-Westfalen"}},{"name":"Berghöferfeld","postalCode":"59602","locality":"Rüthen","municipality":{"key":"05974036","name":"Rüthen, Stadt","type":"Stadt"},"district":{"key":"05974","name":"Soest","type":"Kreis"},"federalState":{"key":"05","name":"Nordrhein-Westfalen"}},{"name":"Bergrieks Kamp","postalCode":"59602","locality":"Rüthen","municipality":{"key":"05974036","name":"Rüthen, Stadt","type":"Stadt"},"district":{"key":"05974","name":"Soest","type":"Kreis"},"federalState":{"key":"05","name":"Nordrhein-Westfalen"}},{"name":"Bergstr.","postalCode":"59602","locality":"Rüthen","municipality":{"key":"05974036","name":"Rüthen, Stadt","type":"Stadt"},"district":{"key":"05974","name":"Soest","type":"Kreis"},"federalState":{"key":"05","name":"Nordrhein-Westfalen"}},{"name":"Bergweg","postalCode":"59602","locality":"Rüthen","municipality":{"key":"05974036","name":"Rüthen, Stadt","type":"Stadt"},"district":{"key":"05974","name":"Soest","type":"Kreis"},"federalState":{"key":"05","name":"Nordrhein-Westfalen"}},{"name":"Bibertal","postalCode":"59602","locality":"Rüthen","municipality":{"key":"05974036","name":"Rüthen, Stadt","type":"Stadt"},"district":{"key":"05974","name":"Soest","type":"Kreis"},"federalState":{"key":"05","name":"Nordrhein-Westfalen"}},{"name":"Birkenweg","postalCode":"59602","locality":"Rüthen","municipality":{"key":"05974036","name":"Rüthen, Stadt","type":"Stadt"},"district":{"key":"05974","name":"Soest","type":"Kreis"},"federalState":{"key":"05","name":"Nordrhein-Westfalen"}},{"name":"Blumenstr.","postalCode":"59602","locality":"Rüthen","municipality":{"key":"05974036","name":"Rüthen, Stadt","type":"Stadt"},"district":{"key":"05974","name":"Soest","type":"Kreis"},"federalState":{"key":"05","name":"Nordrhein-Westfalen"}},{"name":"Blumental","postalCode":"59602","locality":"Rüthen","municipality":{"key":"05974036","name":"Rüthen, Stadt","type":"Stadt"},"district":{"key":"05974","name":"Soest","type":"Kreis"},"federalState":{"key":"05","name":"Nordrhein-Westfalen"}},{"name":"Boeklerstr.","postalCode":"59602","locality":"Rüthen","municipality":{"key":"05974036","name":"Rüthen, Stadt","type":"Stadt"},"district":{"key":"05974","name":"Soest","type":"Kreis"},"federalState":{"key":"05","name":"Nordrhein-Westfalen"}},{"name":"Bornweg","postalCode":"59602","locality":"Rüthen","municipality":{"key":"05974036","name":"Rüthen, Stadt","type":"Stadt"},"district":{"key":"05974","name":"Soest","type":"Kreis"},"federalState":{"key":"05","name":"Nordrhein-Westfalen"}},{"name":"Brandisstr.","postalCode":"59602","locality":"Rüthen","municipality":{"key":"05974036","name":"Rüthen, Stadt","type":"Stadt"},"district":{"key":"05974","name":"Soest","type":"Kreis"},"federalState":{"key":"05","name":"Nordrhein-Westfalen"}},{"name":"Braugasse","postalCode":"59602","locality":"Rüthen","municipality":{"key":"05974036","name":"Rüthen, Stadt","type":"Stadt"},"district":{"key":"05974","name":"Soest","type":"Kreis"},"federalState":{"key":"05","name":"Nordrhein-Westfalen"}},{"name":"Breitenbuscher Weg","postalCode":"59602","locality":"Rüthen","municipality":{"key":"05974036","name":"Rüthen, Stadt","type":"Stadt"},"district":{"key":"05974","name":"Soest","type":"Kreis"},"federalState":{"key":"05","name":"Nordrhein-Westfalen"}},{"name":"Breslauer Str.","postalCode":"59602","locality":"Rüthen","municipality":{"key":"05974036","name":"Rüthen, Stadt","type":"Stadt"},"district":{"key":"05974","name":"Soest","type":"Kreis"},"federalState":{"key":"05","name":"Nordrhein-Westfalen"}},{"name":"Briloner Str.","postalCode":"59602","locality":"Rüthen","municipality":{"key":"05974036","name":"Rüthen, Stadt","type":"Stadt"},"district":{"key":"05974","name":"Soest","type":"Kreis"},"federalState":{"key":"05","name":"Nordrhein-Westfalen"}},{"name":"Bruchstr.","postalCode":"59602","locality":"Rüthen","municipality":{"key":"05974036","name":"Rüthen, Stadt","type":"Stadt"},"district":{"key":"05974","name":"Soest","type":"Kreis"},"federalState":{"key":"05","name":"Nordrhein-Westfalen"}},{"name":"Bruchweg","postalCode":"59602","locality":"Rüthen","municipality":{"key":"05974036","name":"Rüthen, Stadt","type":"Stadt"},"district":{"key":"05974","name":"Soest","type":"Kreis"},"federalState":{"key":"05","name":"Nordrhein-Westfalen"}},{"name":"Brückenweg","postalCode":"59602","locality":"Rüthen","municipality":{"key":"05974036","name":"Rüthen, Stadt","type":"Stadt"},"district":{"key":"05974","name":"Soest","type":"Kreis"},"federalState":{"key":"05","name":"Nordrhein-Westfalen"}},{"name":"Brumecke","postalCode":"59602","locality":"Rüthen","municipality":{"key":"05974036","name":"Rüthen, Stadt","type":"Stadt"},"district":{"key":"05974","name":"Soest","type":"Kreis"},"federalState":{"key":"05","name":"Nordrhein-Westfalen"}},{"name":"Brunnenweg","postalCode":"59602","locality":"Rüthen","municipality":{"key":"05974036","name":"Rüthen, Stadt","type":"Stadt"},"district":{"key":"05974","name":"Soest","type":"Kreis"},"federalState":{"key":"05","name":"Nordrhein-Westfalen"}},{"name":"Brunwardinger Str.","postalCode":"59602","locality":"Rüthen","municipality":{"key":"05974036","name":"Rüthen, Stadt","type":"Stadt"},"district":{"key":"05974","name":"Soest","type":"Kreis"},"federalState":{"key":"05","name":"Nordrhein-Westfalen"}},{"name":"Bufestr.","postalCode":"59602","locality":"Rüthen","municipality":{"key":"05974036","name":"Rüthen, Stadt","type":"Stadt"},"district":{"key":"05974","name":"Soest","type":"Kreis"},"federalState":{"key":"05","name":"Nordrhein-Westfalen"}},{"name":"Bültenweg","postalCode":"59602","locality":"Rüthen","municipality":{"key":"05974036","name":"Rüthen, Stadt","type":"Stadt"},"district":{"key":"05974","name":"Soest","type":"Kreis"},"federalState":{"key":"05","name":"Nordrhein-Westfalen"}},{"name":"Bürener Weg","postalCode":"59602","locality":"Rüthen","municipality":{"key":"05974036","name":"Rüthen, Stadt","type":"Stadt"},"district":{"key":"05974","name":"Soest","type":"Kreis"},"federalState":{"key":"05","name":"Nordrhein-Westfalen"}},{"name":"Burgstr.","postalCode":"59602","locality":"Rüthen","municipality":{"key":"05974036","name":"Rüthen, Stadt","type":"Stadt"},"district":{"key":"05974","name":"Soest","type":"Kreis"},"federalState":{"key":"05","name":"Nordrhein-Westfalen"}},{"name":"Burgtorstr.","postalCode":"59602","locality":"Rüthen","municipality":{"key":"05974036","name":"Rüthen, Stadt","type":"Stadt"},"district":{"key":"05974","name":"Soest","type":"Kreis"},"federalState":{"key":"05","name":"Nordrhein-Westfalen"}},{"name":"Buschhofstr.","postalCode":"59602","locality":"Rüthen","municipality":{"key":"05974036","name":"Rüthen, Stadt","type":"Stadt"},"district":{"key":"05974","name":"Soest","type":"Kreis"},"federalState":{"key":"05","name":"Nordrhein-Westfalen"}},{"name":"Buschweg","postalCode":"59602","locality":"Rüthen","municipality":{"key":"05974036","name":"Rüthen, Stadt","type":"Stadt"},"district":{"key":"05974","name":"Soest","type":"Kreis"},"federalState":{"key":"05","name":"Nordrhein-Westfalen"}},{"name":"Carl-Michels-Str.","postalCode":"59602","locality":"Rüthen","municipality":{"key":"05974036","name":"Rüthen, Stadt","type":"Stadt"},"district":{"key":"05974","name":"Soest","type":"Kreis"},"federalState":{"key":"05","name":"Nordrhein-Westfalen"}},{"name":"Danziger Str.","postalCode":"59602","locality":"Rüthen","municipality":{"key":"05974036","name":"Rüthen, Stadt","type":"Stadt"},"district":{"key":"05974","name":"Soest","type":"Kreis"},"federalState":{"key":"05","name":"Nordrhein-Westfalen"}},{"name":"Dorfstr.","postalCode":"59602","locality":"Rüthen","municipality":{"key":"05974036","name":"Rüthen, Stadt","type":"Stadt"},"district":{"key":"05974","name":"Soest","type":"Kreis"},"federalState":{"key":"05","name":"Nordrhein-Westfalen"}},{"name":"Drewer-Heide","postalCode":"59602","locality":"Rüthen","municipality":{"key":"05974036","name":"Rüthen, Stadt","type":"Stadt"},"district":{"key":"05974","name":"Soest","type":"Kreis"},"federalState":{"key":"05","name":"Nordrhein-Westfalen"}},{"name":"Drewerstr.","postalCode":"59602","locality":"Rüthen","municipality":{"key":"05974036","name":"Rüthen, Stadt","type":"Stadt"},"district":{"key":"05974","name":"Soest","type":"Kreis"},"federalState":{"key":"05","name":"Nordrhein-Westfalen"}},{"name":"Drosselweg","postalCode":"59602","locality":"Rüthen","municipality":{"key":"05974036","name":"Rüthen, Stadt","type":"Stadt"},"district":{"key":"05974","name":"Soest","type":"Kreis"},"federalState":{"key":"05","name":"Nordrhein-Westfalen"}},{"name":"Dumekestr.","postalCode":"59602","locality":"Rüthen","municipality":{"key":"05974036","name":"Rüthen, Stadt","type":"Stadt"},"district":{"key":"05974","name":"Soest","type":"Kreis"},"federalState":{"key":"05","name":"Nordrhein-Westfalen"}},{"name":"Dusternweg","postalCode":"59602","locality":"Rüthen","municipality":{"key":"05974036","name":"Rüthen, Stadt","type":"Stadt"},"district":{"key":"05974","name":"Soest","type":"Kreis"},"federalState":{"key":"05","name":"Nordrhein-Westfalen"}},{"name":"Eckenstr.","postalCode":"59602","locality":"Rüthen","municipality":{"key":"05974036","name":"Rüthen, Stadt","type":"Stadt"},"district":{"key":"05974","name":"Soest","type":"Kreis"},"federalState":{"key":"05","name":"Nordrhein-Westfalen"}},{"name":"Effeler Str.","postalCode":"59602","locality":"Rüthen","municipality":{"key":"05974036","name":"Rüthen, Stadt","type":"Stadt"},"district":{"key":"05974","name":"Soest","type":"Kreis"},"federalState":{"key":"05","name":"Nordrhein-Westfalen"}},{"name":"Eichenweg","postalCode":"59602","locality":"Rüthen","municipality":{"key":"05974036","name":"Rüthen, Stadt","type":"Stadt"},"district":{"key":"05974","name":"Soest","type":"Kreis"},"federalState":{"key":"05","name":"Nordrhein-Westfalen"}},{"name":"Eickhoffer Str.","postalCode":"59602","locality":"Rüthen","municipality":{"key":"05974036","name":"Rüthen, Stadt","type":"Stadt"},"district":{"key":"05974","name":"Soest","type":"Kreis"},"federalState":{"key":"05","name":"Nordrhein-Westfalen"}},{"name":"Eickhoffer Weg","postalCode":"59602","locality":"Rüthen","municipality":{"key":"05974036","name":"Rüthen, Stadt","type":"Stadt"},"district":{"key":"05974","name":"Soest","type":"Kreis"},"federalState":{"key":"05","name":"Nordrhein-Westfalen"}},{"name":"Elmespöten","postalCode":"59602","locality":"Rüthen","municipality":{"key":"05974036","name":"Rüthen, Stadt","type":"Stadt"},"district":{"key":"05974","name":"Soest","type":"Kreis"},"federalState":{"key":"05","name":"Nordrhein-Westfalen"}},{"name":"Erwitter Weg","postalCode":"59602","locality":"Rüthen","municipality":{"key":"05974036","name":"Rüthen, Stadt","type":"Stadt"},"district":{"key":"05974","name":"Soest","type":"Kreis"},"federalState":{"key":"05","name":"Nordrhein-Westfalen"}},{"name":"Ettingerhof","postalCode":"59602","locality":"Rüthen","municipality":{"key":"05974036","name":"Rüthen, Stadt","type":"Stadt"},"district":{"key":"05974","name":"Soest","type":"Kreis"},"federalState":{"key":"05","name":"Nordrhein-Westfalen"}},{"name":"Feierstr.","postalCode":"59602","locality":"Rüthen","municipality":{"key":"05974036","name":"Rüthen, Stadt","type":"Stadt"},"district":{"key":"05974","name":"Soest","type":"Kreis"},"federalState":{"key":"05","name":"Nordrhein-Westfalen"}},{"name":"Felsenstr.","postalCode":"59602","locality":"Rüthen","municipality":{"key":"05974036","name":"Rüthen, Stadt","type":"Stadt"},"district":{"key":"05974","name":"Soest","type":"Kreis"},"federalState":{"key":"05","name":"Nordrhein-Westfalen"}},{"name":"Friedrich-Spee-Str.","postalCode":"59602","locality":"Rüthen","municipality":{"key":"05974036","name":"Rüthen, Stadt","type":"Stadt"},"district":{"key":"05974","name":"Soest","type":"Kreis"},"federalState":{"key":"05","name":"Nordrhein-Westfalen"}},{"name":"Galksiepen","postalCode":"59602","locality":"Rüthen","municipality":{"key":"05974036","name":"Rüthen, Stadt","type":"Stadt"},"district":{"key":"05974","name":"Soest","type":"Kreis"},"federalState":{"key":"05","name":"Nordrhein-Westfalen"}},{"name":"Gartenstr.","postalCode":"59602","locality":"Rüthen","municipality":{"key":"05974036","name":"Rüthen, Stadt","type":"Stadt"},"district":{"key":"05974","name":"Soest","type":"Kreis"},"federalState":{"key":"05","name":"Nordrhein-Westfalen"}},{"name":"Gartenweg","postalCode":"59602","locality":"Rüthen","municipality":{"key":"05974036","name":"Rüthen, Stadt","type":"Stadt"},"district":{"key":"05974","name":"Soest","type":"Kreis"},"federalState":{"key":"05","name":"Nordrhein-Westfalen"}},{"name":"Geseker Str.","postalCode":"59602","locality":"Rüthen","municipality":{"key":"05974036","name":"Rüthen, Stadt","type":"Stadt"},"district":{"key":"05974","name":"Soest","type":"Kreis"},"federalState":{"key":"05","name":"Nordrhein-Westfalen"}},{"name":"Glenneweg","postalCode":"59602","locality":"Rüthen","municipality":{"key":"05974036","name":"Rüthen, Stadt","type":"Stadt"},"district":{"key":"05974","name":"Soest","type":"Kreis"},"federalState":{"key":"05","name":"Nordrhein-Westfalen"}},{"name":"Goldsteinweg","postalCode":"59602","locality":"Rüthen","municipality":{"key":"05974036","name":"Rüthen, Stadt","type":"Stadt"},"district":{"key":"05974","name":"Soest","type":"Kreis"},"federalState":{"key":"05","name":"Nordrhein-Westfalen"}},{"name":"Grabenweg","postalCode":"59602","locality":"Rüthen","municipality":{"key":"05974036","name":"Rüthen, Stadt","type":"Stadt"},"district":{"key":"05974","name":"Soest","type":"Kreis"},"federalState":{"key":"05","name":"Nordrhein-Westfalen"}},{"name":"Grundbachweg","postalCode":"59602","locality":"Rüthen","municipality":{"key":"05974036","name":"Rüthen, Stadt","type":"Stadt"},"district":{"key":"05974","name":"Soest","type":"Kreis"},"federalState":{"key":"05","name":"Nordrhein-Westfalen"}},{"name":"Grundstr.","postalCode":"59602","locality":"Rüthen","municipality":{"key":"05974036","name":"Rüthen, Stadt","type":"Stadt"},"district":{"key":"05974","name":"Soest","type":"Kreis"},"federalState":{"key":"05","name":"Nordrhein-Westfalen"}},{"name":"Grüner Weg","postalCode":"59602","locality":"Rüthen","municipality":{"key":"05974036","name":"Rüthen, Stadt","type":"Stadt"},"district":{"key":"05974","name":"Soest","type":"Kreis"},"federalState":{"key":"05","name":"Nordrhein-Westfalen"}},{"name":"Gut Ringe","postalCode":"59602","locality":"Rüthen","municipality":{"key":"05974036","name":"Rüthen, Stadt","type":"Stadt"},"district":{"key":"05974","name":"Soest","type":"Kreis"},"federalState":{"key":"05","name":"Nordrhein-Westfalen"}},{"name":"Haarstr.","postalCode":"59602","locality":"Rüthen","municipality":{"key":"05974036","name":"Rüthen, Stadt","type":"Stadt"},"district":{"key":"05974","name":"Soest","type":"Kreis"},"federalState":{"key":"05","name":"Nordrhein-Westfalen"}},{"name":"Hachtorstr.","postalCode":"59602","locality":"Rüthen","municipality":{"key":"05974036","name":"Rüthen, Stadt","type":"Stadt"},"district":{"key":"05974","name":"Soest","type":"Kreis"},"federalState":{"key":"05","name":"Nordrhein-Westfalen"}},{"name":"Hagenstr.","postalCode":"59602","locality":"Rüthen","municipality":{"key":"05974036","name":"Rüthen, Stadt","type":"Stadt"},"district":{"key":"05974","name":"Soest","type":"Kreis"},"federalState":{"key":"05","name":"Nordrhein-Westfalen"}},{"name":"Hahnetalweg","postalCode":"59602","locality":"Rüthen","municipality":{"key":"05974036","name":"Rüthen, Stadt","type":"Stadt"},"district":{"key":"05974","name":"Soest","type":"Kreis"},"federalState":{"key":"05","name":"Nordrhein-Westfalen"}},{"name":"Hammweg","postalCode":"59602","locality":"Rüthen","municipality":{"key":"05974036","name":"Rüthen, Stadt","type":"Stadt"},"district":{"key":"05974","name":"Soest","type":"Kreis"},"federalState":{"key":"05","name":"Nordrhein-Westfalen"}},{"name":"Hankerfeld","postalCode":"59602","locality":"Rüthen","municipality":{"key":"05974036","name":"Rüthen, Stadt","type":"Stadt"},"district":{"key":"05974","name":"Soest","type":"Kreis"},"federalState":{"key":"05","name":"Nordrhein-Westfalen"}},{"name":"Hansastr.","postalCode":"59602","locality":"Rüthen","municipality":{"key":"05974036","name":"Rüthen, Stadt","type":"Stadt"},"district":{"key":"05974","name":"Soest","type":"Kreis"},"federalState":{"key":"05","name":"Nordrhein-Westfalen"}},{"name":"Hardtstr.","postalCode":"59602","locality":"Rüthen","municipality":{"key":"05974036","name":"Rüthen, Stadt","type":"Stadt"},"district":{"key":"05974","name":"Soest","type":"Kreis"},"federalState":{"key":"05","name":"Nordrhein-Westfalen"}},{"name":"Harringhuser Str.","postalCode":"59602","locality":"Rüthen","municipality":{"key":"05974036","name":"Rüthen, Stadt","type":"Stadt"},"district":{"key":"05974","name":"Soest","type":"Kreis"},"federalState":{"key":"05","name":"Nordrhein-Westfalen"}},{"name":"Hartweg","postalCode":"59602","locality":"Rüthen","municipality":{"key":"05974036","name":"Rüthen, Stadt","type":"Stadt"},"district":{"key":"05974","name":"Soest","type":"Kreis"},"federalState":{"key":"05","name":"Nordrhein-Westfalen"}},{"name":"Hauptstr.","postalCode":"59602","locality":"Rüthen","municipality":{"key":"05974036","name":"Rüthen, Stadt","type":"Stadt"},"district":{"key":"05974","name":"Soest","type":"Kreis"},"federalState":{"key":"05","name":"Nordrhein-Westfalen"}},{"name":"Heckenweg","postalCode":"59602","locality":"Rüthen","municipality":{"key":"05974036","name":"Rüthen, Stadt","type":"Stadt"},"district":{"key":"05974","name":"Soest","type":"Kreis"},"federalState":{"key":"05","name":"Nordrhein-Westfalen"}},{"name":"Heidberg","postalCode":"59602","locality":"Rüthen","municipality":{"key":"05974036","name":"Rüthen, Stadt","type":"Stadt"},"district":{"key":"05974","name":"Soest","type":"Kreis"},"federalState":{"key":"05","name":"Nordrhein-Westfalen"}},{"name":"Heide","postalCode":"59602","locality":"Rüthen","municipality":{"key":"05974036","name":"Rüthen, Stadt","type":"Stadt"},"district":{"key":"05974","name":"Soest","type":"Kreis"},"federalState":{"key":"05","name":"Nordrhein-Westfalen"}},{"name":"Heideweg","postalCode":"59602","locality":"Rüthen","municipality":{"key":"05974036","name":"Rüthen, Stadt","type":"Stadt"},"district":{"key":"05974","name":"Soest","type":"Kreis"},"federalState":{"key":"05","name":"Nordrhein-Westfalen"}},{"name":"Heimekerweg","postalCode":"59602","locality":"Rüthen","municipality":{"key":"05974036","name":"Rüthen, Stadt","type":"Stadt"},"district":{"key":"05974","name":"Soest","type":"Kreis"},"federalState":{"key":"05","name":"Nordrhein-Westfalen"}},{"name":"Hemmergrund","postalCode":"59602","locality":"Rüthen","municipality":{"key":"05974036","name":"Rüthen, Stadt","type":"Stadt"},"district":{"key":"05974","name":"Soest","type":"Kreis"},"federalState":{"key":"05","name":"Nordrhein-Westfalen"}},{"name":"Hemmer Weg","postalCode":"59602","locality":"Rüthen","municipality":{"key":"05974036","name":"Rüthen, Stadt","type":"Stadt"},"district":{"key":"05974","name":"Soest","type":"Kreis"},"federalState":{"key":"05","name":"Nordrhein-Westfalen"}},{"name":"Hennebölestr.","postalCode":"59602","locality":"Rüthen","municipality":{"key":"05974036","name":"Rüthen, Stadt","type":"Stadt"},"district":{"key":"05974","name":"Soest","type":"Kreis"},"federalState":{"key":"05","name":"Nordrhein-Westfalen"}},{"name":"Heroldstr.","postalCode":"59602","locality":"Rüthen","municipality":{"key":"05974036","name":"Rüthen, Stadt","type":"Stadt"},"district":{"key":"05974","name":"Soest","type":"Kreis"},"federalState":{"key":"05","name":"Nordrhein-Westfalen"}},{"name":"Heroldweg","postalCode":"59602","locality":"Rüthen","municipality":{"key":"05974036","name":"Rüthen, Stadt","type":"Stadt"},"district":{"key":"05974","name":"Soest","type":"Kreis"},"federalState":{"key":"05","name":"Nordrhein-Westfalen"}},{"name":"Hessenhohlweg","postalCode":"59602","locality":"Rüthen","municipality":{"key":"05974036","name":"Rüthen, Stadt","type":"Stadt"},"district":{"key":"05974","name":"Soest","type":"Kreis"},"federalState":{"key":"05","name":"Nordrhein-Westfalen"}},{"name":"Hinter der Mauer","postalCode":"59602","locality":"Rüthen","municipality":{"key":"05974036","name":"Rüthen, Stadt","type":"Stadt"},"district":{"key":"05974","name":"Soest","type":"Kreis"},"federalState":{"key":"05","name":"Nordrhein-Westfalen"}},{"name":"Hinterer Diebespfad","postalCode":"59602","locality":"Rüthen","municipality":{"key":"05974036","name":"Rüthen, Stadt","type":"Stadt"},"district":{"key":"05974","name":"Soest","type":"Kreis"},"federalState":{"key":"05","name":"Nordrhein-Westfalen"}},{"name":"Hochstr.","postalCode":"59602","locality":"Rüthen","municipality":{"key":"05974036","name":"Rüthen, Stadt","type":"Stadt"},"district":{"key":"05974","name":"Soest","type":"Kreis"},"federalState":{"key":"05","name":"Nordrhein-Westfalen"}},{"name":"Höhenstr.","postalCode":"59602","locality":"Rüthen","municipality":{"key":"05974036","name":"Rüthen, Stadt","type":"Stadt"},"district":{"key":"05974","name":"Soest","type":"Kreis"},"federalState":{"key":"05","name":"Nordrhein-Westfalen"}},{"name":"Hoinkhauser Mühlenweg","postalCode":"59602","locality":"Rüthen","municipality":{"key":"05974036","name":"Rüthen, Stadt","type":"Stadt"},"district":{"key":"05974","name":"Soest","type":"Kreis"},"federalState":{"key":"05","name":"Nordrhein-Westfalen"}},{"name":"Hoinkhauser Str.","postalCode":"59602","locality":"Rüthen","municipality":{"key":"05974036","name":"Rüthen, Stadt","type":"Stadt"},"district":{"key":"05974","name":"Soest","type":"Kreis"},"federalState":{"key":"05","name":"Nordrhein-Westfalen"}},{"name":"Holzweg","postalCode":"59602","locality":"Rüthen","municipality":{"key":"05974036","name":"Rüthen, Stadt","type":"Stadt"},"district":{"key":"05974","name":"Soest","type":"Kreis"},"federalState":{"key":"05","name":"Nordrhein-Westfalen"}},{"name":"Horstweg","postalCode":"59602","locality":"Rüthen","municipality":{"key":"05974036","name":"Rüthen, Stadt","type":"Stadt"},"district":{"key":"05974","name":"Soest","type":"Kreis"},"federalState":{"key":"05","name":"Nordrhein-Westfalen"}},{"name":"Hubertusstr.","postalCode":"59602","locality":"Rüthen","municipality":{"key":"05974036","name":"Rüthen, Stadt","type":"Stadt"},"district":{"key":"05974","name":"Soest","type":"Kreis"},"federalState":{"key":"05","name":"Nordrhein-Westfalen"}},{"name":"Hüding","postalCode":"59602","locality":"Rüthen","municipality":{"key":"05974036","name":"Rüthen, Stadt","type":"Stadt"},"district":{"key":"05974","name":"Soest","type":"Kreis"},"federalState":{"key":"05","name":"Nordrhein-Westfalen"}},{"name":"Hukensiel","postalCode":"59602","locality":"Rüthen","municipality":{"key":"05974036","name":"Rüthen, Stadt","type":"Stadt"},"district":{"key":"05974","name":"Soest","type":"Kreis"},"federalState":{"key":"05","name":"Nordrhein-Westfalen"}},{"name":"Im Alten Wall","postalCode":"59602","locality":"Rüthen","municipality":{"key":"05974036","name":"Rüthen, Stadt","type":"Stadt"},"district":{"key":"05974","name":"Soest","type":"Kreis"},"federalState":{"key":"05","name":"Nordrhein-Westfalen"}},{"name":"Im Boden","postalCode":"59602","locality":"Rüthen","municipality":{"key":"05974036","name":"Rüthen, Stadt","type":"Stadt"},"district":{"key":"05974","name":"Soest","type":"Kreis"},"federalState":{"key":"05","name":"Nordrhein-Westfalen"}},{"name":"Im Bruch","postalCode":"59602","locality":"Rüthen","municipality":{"key":"05974036","name":"Rüthen, Stadt","type":"Stadt"},"district":{"key":"05974","name":"Soest","type":"Kreis"},"federalState":{"key":"05","name":"Nordrhein-Westfalen"}},{"name":"Im Hohlpoth","postalCode":"59602","locality":"Rüthen","municipality":{"key":"05974036","name":"Rüthen, Stadt","type":"Stadt"},"district":{"key":"05974","name":"Soest","type":"Kreis"},"federalState":{"key":"05","name":"Nordrhein-Westfalen"}},{"name":"Im Kirchfeld","postalCode":"59602","locality":"Rüthen","municipality":{"key":"05974036","name":"Rüthen, Stadt","type":"Stadt"},"district":{"key":"05974","name":"Soest","type":"Kreis"},"federalState":{"key":"05","name":"Nordrhein-Westfalen"}},{"name":"Im Kirchtal","postalCode":"59602","locality":"Rüthen","municipality":{"key":"05974036","name":"Rüthen, Stadt","type":"Stadt"},"district":{"key":"05974","name":"Soest","type":"Kreis"},"federalState":{"key":"05","name":"Nordrhein-Westfalen"}},{"name":"Im Kleinen Feld","postalCode":"59602","locality":"Rüthen","municipality":{"key":"05974036","name":"Rüthen, Stadt","type":"Stadt"},"district":{"key":"05974","name":"Soest","type":"Kreis"},"federalState":{"key":"05","name":"Nordrhein-Westfalen"}},{"name":"Im Krummen Hagen","postalCode":"59602","locality":"Rüthen","municipality":{"key":"05974036","name":"Rüthen, Stadt","type":"Stadt"},"district":{"key":"05974","name":"Soest","type":"Kreis"},"federalState":{"key":"05","name":"Nordrhein-Westfalen"}},{"name":"Im Rosengarten","postalCode":"59602","locality":"Rüthen","municipality":{"key":"05974036","name":"Rüthen, Stadt","type":"Stadt"},"district":{"key":"05974","name":"Soest","type":"Kreis"},"federalState":{"key":"05","name":"Nordrhein-Westfalen"}},{"name":"Im Schemfeld","postalCode":"59602","locality":"Rüthen","municipality":{"key":"05974036","name":"Rüthen, Stadt","type":"Stadt"},"district":{"key":"05974","name":"Soest","type":"Kreis"},"federalState":{"key":"05","name":"Nordrhein-Westfalen"}},{"name":"Im Schling","postalCode":"59602","locality":"Rüthen","municipality":{"key":"05974036","name":"Rüthen, Stadt","type":"Stadt"},"district":{"key":"05974","name":"Soest","type":"Kreis"},"federalState":{"key":"05","name":"Nordrhein-Westfalen"}},{"name":"Im Stieken","postalCode":"59602","locality":"Rüthen","municipality":{"key":"05974036","name":"Rüthen, Stadt","type":"Stadt"},"district":{"key":"05974","name":"Soest","type":"Kreis"},"federalState":{"key":"05","name":"Nordrhein-Westfalen"}},{"name":"In der Günne","postalCode":"59602","locality":"Rüthen","municipality":{"key":"05974036","name":"Rüthen, Stadt","type":"Stadt"},"district":{"key":"05974","name":"Soest","type":"Kreis"},"federalState":{"key":"05","name":"Nordrhein-Westfalen"}},{"name":"In der Trift","postalCode":"59602","locality":"Rüthen","municipality":{"key":"05974036","name":"Rüthen, Stadt","type":"Stadt"},"district":{"key":"05974","name":"Soest","type":"Kreis"},"federalState":{"key":"05","name":"Nordrhein-Westfalen"}},{"name":"Industriestr. Möhnetal","postalCode":"59602","locality":"Rüthen","municipality":{"key":"05974036","name":"Rüthen, Stadt","type":"Stadt"},"district":{"key":"05974","name":"Soest","type":"Kreis"},"federalState":{"key":"05","name":"Nordrhein-Westfalen"}},{"name":"Johanneseichenweg","postalCode":"59602","locality":"Rüthen","municipality":{"key":"05974036","name":"Rüthen, Stadt","type":"Stadt"},"district":{"key":"05974","name":"Soest","type":"Kreis"},"federalState":{"key":"05","name":"Nordrhein-Westfalen"}},{"name":"Johannesholzstr.","postalCode":"59602","locality":"Rüthen","municipality":{"key":"05974036","name":"Rüthen, Stadt","type":"Stadt"},"district":{"key":"05974","name":"Soest","type":"Kreis"},"federalState":{"key":"05","name":"Nordrhein-Westfalen"}},{"name":"Johannesstr.","postalCode":"59602","locality":"Rüthen","municipality":{"key":"05974036","name":"Rüthen, Stadt","type":"Stadt"},"district":{"key":"05974","name":"Soest","type":"Kreis"},"federalState":{"key":"05","name":"Nordrhein-Westfalen"}},{"name":"Josef-Oel-Str.","postalCode":"59602","locality":"Rüthen","municipality":{"key":"05974036","name":"Rüthen, Stadt","type":"Stadt"},"district":{"key":"05974","name":"Soest","type":"Kreis"},"federalState":{"key":"05","name":"Nordrhein-Westfalen"}},{"name":"Jürgenstr.","postalCode":"59602","locality":"Rüthen","municipality":{"key":"05974036","name":"Rüthen, Stadt","type":"Stadt"},"district":{"key":"05974","name":"Soest","type":"Kreis"},"federalState":{"key":"05","name":"Nordrhein-Westfalen"}},{"name":"Käksweg","postalCode":"59602","locality":"Rüthen","municipality":{"key":"05974036","name":"Rüthen, Stadt","type":"Stadt"},"district":{"key":"05974","name":"Soest","type":"Kreis"},"federalState":{"key":"05","name":"Nordrhein-Westfalen"}},{"name":"Kallenhardter Str.","postalCode":"59602","locality":"Rüthen","municipality":{"key":"05974036","name":"Rüthen, Stadt","type":"Stadt"},"district":{"key":"05974","name":"Soest","type":"Kreis"},"federalState":{"key":"05","name":"Nordrhein-Westfalen"}},{"name":"Kampstr.","postalCode":"59602","locality":"Rüthen","municipality":{"key":"05974036","name":"Rüthen, Stadt","type":"Stadt"},"district":{"key":"05974","name":"Soest","type":"Kreis"},"federalState":{"key":"05","name":"Nordrhein-Westfalen"}},{"name":"Kapellenstr.","postalCode":"59602","locality":"Rüthen","municipality":{"key":"05974036","name":"Rüthen, Stadt","type":"Stadt"},"district":{"key":"05974","name":"Soest","type":"Kreis"},"federalState":{"key":"05","name":"Nordrhein-Westfalen"}},{"name":"Kapellenweg","postalCode":"59602","locality":"Rüthen","municipality":{"key":"05974036","name":"Rüthen, Stadt","type":"Stadt"},"district":{"key":"05974","name":"Soest","type":"Kreis"},"federalState":{"key":"05","name":"Nordrhein-Westfalen"}},{"name":"Kapuzinergasse","postalCode":"59602","locality":"Rüthen","municipality":{"key":"05974036","name":"Rüthen, Stadt","type":"Stadt"},"district":{"key":"05974","name":"Soest","type":"Kreis"},"federalState":{"key":"05","name":"Nordrhein-Westfalen"}},{"name":"Kattenpfad","postalCode":"59602","locality":"Rüthen","municipality":{"key":"05974036","name":"Rüthen, Stadt","type":"Stadt"},"district":{"key":"05974","name":"Soest","type":"Kreis"},"federalState":{"key":"05","name":"Nordrhein-Westfalen"}},{"name":"Kattensiepen","postalCode":"59602","locality":"Rüthen","municipality":{"key":"05974036","name":"Rüthen, Stadt","type":"Stadt"},"district":{"key":"05974","name":"Soest","type":"Kreis"},"federalState":{"key":"05","name":"Nordrhein-Westfalen"}},{"name":"Kaunitzstr.","postalCode":"59602","locality":"Rüthen","municipality":{"key":"05974036","name":"Rüthen, Stadt","type":"Stadt"},"district":{"key":"05974","name":"Soest","type":"Kreis"},"federalState":{"key":"05","name":"Nordrhein-Westfalen"}},{"name":"Kellinghauser Str.","postalCode":"59602","locality":"Rüthen","municipality":{"key":"05974036","name":"Rüthen, Stadt","type":"Stadt"},"district":{"key":"05974","name":"Soest","type":"Kreis"},"federalState":{"key":"05","name":"Nordrhein-Westfalen"}},{"name":"Kettelerstr.","postalCode":"59602","locality":"Rüthen","municipality":{"key":"05974036","name":"Rüthen, Stadt","type":"Stadt"},"district":{"key":"05974","name":"Soest","type":"Kreis"},"federalState":{"key":"05","name":"Nordrhein-Westfalen"}},{"name":"Kirchstr.","postalCode":"59602","locality":"Rüthen","municipality":{"key":"05974036","name":"Rüthen, Stadt","type":"Stadt"},"district":{"key":"05974","name":"Soest","type":"Kreis"},"federalState":{"key":"05","name":"Nordrhein-Westfalen"}},{"name":"Kirchtal","postalCode":"59602","locality":"Rüthen","municipality":{"key":"05974036","name":"Rüthen, Stadt","type":"Stadt"},"district":{"key":"05974","name":"Soest","type":"Kreis"},"federalState":{"key":"05","name":"Nordrhein-Westfalen"}},{"name":"Kirchweg","postalCode":"59602","locality":"Rüthen","municipality":{"key":"05974036","name":"Rüthen, Stadt","type":"Stadt"},"district":{"key":"05974","name":"Soest","type":"Kreis"},"federalState":{"key":"05","name":"Nordrhein-Westfalen"}},{"name":"Kitzelbachweg","postalCode":"59602","locality":"Rüthen","municipality":{"key":"05974036","name":"Rüthen, Stadt","type":"Stadt"},"district":{"key":"05974","name":"Soest","type":"Kreis"},"federalState":{"key":"05","name":"Nordrhein-Westfalen"}},{"name":"Klosterweg","postalCode":"59602","locality":"Rüthen","municipality":{"key":"05974036","name":"Rüthen, Stadt","type":"Stadt"},"district":{"key":"05974","name":"Soest","type":"Kreis"},"federalState":{"key":"05","name":"Nordrhein-Westfalen"}},{"name":"Kneblinghauser Weg","postalCode":"59602","locality":"Rüthen","municipality":{"key":"05974036","name":"Rüthen, Stadt","type":"Stadt"},"district":{"key":"05974","name":"Soest","type":"Kreis"},"federalState":{"key":"05","name":"Nordrhein-Westfalen"}},{"name":"Kolpingstr.","postalCode":"59602","locality":"Rüthen","municipality":{"key":"05974036","name":"Rüthen, Stadt","type":"Stadt"},"district":{"key":"05974","name":"Soest","type":"Kreis"},"federalState":{"key":"05","name":"Nordrhein-Westfalen"}},{"name":"Königsgasse","postalCode":"59602","locality":"Rüthen","municipality":{"key":"05974036","name":"Rüthen, Stadt","type":"Stadt"},"district":{"key":"05974","name":"Soest","type":"Kreis"},"federalState":{"key":"05","name":"Nordrhein-Westfalen"}},{"name":"Königstr.","postalCode":"59602","locality":"Rüthen","municipality":{"key":"05974036","name":"Rüthen, Stadt","type":"Stadt"},"district":{"key":"05974","name":"Soest","type":"Kreis"},"federalState":{"key":"05","name":"Nordrhein-Westfalen"}},{"name":"Körtlinghausen","postalCode":"59602","locality":"Rüthen","municipality":{"key":"05974036","name":"Rüthen, Stadt","type":"Stadt"},"district":{"key":"05974","name":"Soest","type":"Kreis"},"federalState":{"key":"05","name":"Nordrhein-Westfalen"}},{"name":"Körtlinghauser Weg","postalCode":"59602","locality":"Rüthen","municipality":{"key":"05974036","name":"Rüthen, Stadt","type":"Stadt"},"district":{"key":"05974","name":"Soest","type":"Kreis"},"federalState":{"key":"05","name":"Nordrhein-Westfalen"}},{"name":"Kuhbrücke","postalCode":"59602","locality":"Rüthen","municipality":{"key":"05974036","name":"Rüthen, Stadt","type":"Stadt"},"district":{"key":"05974","name":"Soest","type":"Kreis"},"federalState":{"key":"05","name":"Nordrhein-Westfalen"}},{"name":"Kurzer Weg","postalCode":"59602","locality":"Rüthen","municipality":{"key":"05974036","name":"Rüthen, Stadt","type":"Stadt"},"district":{"key":"05974","name":"Soest","type":"Kreis"},"federalState":{"key":"05","name":"Nordrhein-Westfalen"}},{"name":"Kurze Str.","postalCode":"59602","locality":"Rüthen","municipality":{"key":"05974036","name":"Rüthen, Stadt","type":"Stadt"},"district":{"key":"05974","name":"Soest","type":"Kreis"},"federalState":{"key":"05","name":"Nordrhein-Westfalen"}},{"name":"Lange Str.","postalCode":"59602","locality":"Rüthen","municipality":{"key":"05974036","name":"Rüthen, Stadt","type":"Stadt"},"district":{"key":"05974","name":"Soest","type":"Kreis"},"federalState":{"key":"05","name":"Nordrhein-Westfalen"}},{"name":"Lange Wenne","postalCode":"59602","locality":"Rüthen","municipality":{"key":"05974036","name":"Rüthen, Stadt","type":"Stadt"},"district":{"key":"05974","name":"Soest","type":"Kreis"},"federalState":{"key":"05","name":"Nordrhein-Westfalen"}},{"name":"Laubengang","postalCode":"59602","locality":"Rüthen","municipality":{"key":"05974036","name":"Rüthen, Stadt","type":"Stadt"},"district":{"key":"05974","name":"Soest","type":"Kreis"},"federalState":{"key":"05","name":"Nordrhein-Westfalen"}},{"name":"Lehmkaule","postalCode":"59602","locality":"Rüthen","municipality":{"key":"05974036","name":"Rüthen, Stadt","type":"Stadt"},"district":{"key":"05974","name":"Soest","type":"Kreis"},"federalState":{"key":"05","name":"Nordrhein-Westfalen"}},{"name":"Leiberger Wald","postalCode":"59602","locality":"Rüthen","municipality":{"key":"05974036","name":"Rüthen, Stadt","type":"Stadt"},"district":{"key":"05974","name":"Soest","type":"Kreis"},"federalState":{"key":"05","name":"Nordrhein-Westfalen"}},{"name":"Lerchenweg","postalCode":"59602","locality":"Rüthen","municipality":{"key":"05974036","name":"Rüthen, Stadt","type":"Stadt"},"district":{"key":"05974","name":"Soest","type":"Kreis"},"federalState":{"key":"05","name":"Nordrhein-Westfalen"}},{"name":"Lietweg","postalCode":"59602","locality":"Rüthen","municipality":{"key":"05974036","name":"Rüthen, Stadt","type":"Stadt"},"district":{"key":"05974","name":"Soest","type":"Kreis"},"federalState":{"key":"05","name":"Nordrhein-Westfalen"}},{"name":"Lindenstr.","postalCode":"59602","locality":"Rüthen","municipality":{"key":"05974036","name":"Rüthen, Stadt","type":"Stadt"},"district":{"key":"05974","name":"Soest","type":"Kreis"},"federalState":{"key":"05","name":"Nordrhein-Westfalen"}},{"name":"Lindentalstr.","postalCode":"59602","locality":"Rüthen","municipality":{"key":"05974036","name":"Rüthen, Stadt","type":"Stadt"},"district":{"key":"05974","name":"Soest","type":"Kreis"},"federalState":{"key":"05","name":"Nordrhein-Westfalen"}},{"name":"Lindenweg","postalCode":"59602","locality":"Rüthen","municipality":{"key":"05974036","name":"Rüthen, Stadt","type":"Stadt"},"district":{"key":"05974","name":"Soest","type":"Kreis"},"federalState":{"key":"05","name":"Nordrhein-Westfalen"}},{"name":"Lippstädter Str.","postalCode":"59602","locality":"Rüthen","municipality":{"key":"05974036","name":"Rüthen, Stadt","type":"Stadt"},"district":{"key":"05974","name":"Soest","type":"Kreis"},"federalState":{"key":"05","name":"Nordrhein-Westfalen"}},{"name":"Loershagen","postalCode":"59602","locality":"Rüthen","municipality":{"key":"05974036","name":"Rüthen, Stadt","type":"Stadt"},"district":{"key":"05974","name":"Soest","type":"Kreis"},"federalState":{"key":"05","name":"Nordrhein-Westfalen"}},{"name":"Lütke Haar","postalCode":"59602","locality":"Rüthen","municipality":{"key":"05974036","name":"Rüthen, Stadt","type":"Stadt"},"district":{"key":"05974","name":"Soest","type":"Kreis"},"federalState":{"key":"05","name":"Nordrhein-Westfalen"}},{"name":"Lütke Linde","postalCode":"59602","locality":"Rüthen","municipality":{"key":"05974036","name":"Rüthen, Stadt","type":"Stadt"},"district":{"key":"05974","name":"Soest","type":"Kreis"},"federalState":{"key":"05","name":"Nordrhein-Westfalen"}},{"name":"Luziastr.","postalCode":"59602","locality":"Rüthen","municipality":{"key":"05974036","name":"Rüthen, Stadt","type":"Stadt"},"district":{"key":"05974","name":"Soest","type":"Kreis"},"federalState":{"key":"05","name":"Nordrhein-Westfalen"}},{"name":"Magdalenenstr.","postalCode":"59602","locality":"Rüthen","municipality":{"key":"05974036","name":"Rüthen, Stadt","type":"Stadt"},"district":{"key":"05974","name":"Soest","type":"Kreis"},"federalState":{"key":"05","name":"Nordrhein-Westfalen"}},{"name":"Marienstr.","postalCode":"59602","locality":"Rüthen","municipality":{"key":"05974036","name":"Rüthen, Stadt","type":"Stadt"},"district":{"key":"05974","name":"Soest","type":"Kreis"},"federalState":{"key":"05","name":"Nordrhein-Westfalen"}},{"name":"Markusweg","postalCode":"59602","locality":"Rüthen","municipality":{"key":"05974036","name":"Rüthen, Stadt","type":"Stadt"},"district":{"key":"05974","name":"Soest","type":"Kreis"},"federalState":{"key":"05","name":"Nordrhein-Westfalen"}},{"name":"Markweg","postalCode":"59602","locality":"Rüthen","municipality":{"key":"05974036","name":"Rüthen, Stadt","type":"Stadt"},"district":{"key":"05974","name":"Soest","type":"Kreis"},"federalState":{"key":"05","name":"Nordrhein-Westfalen"}},{"name":"Maximilian-Kolbe-Str.","postalCode":"59602","locality":"Rüthen","municipality":{"key":"05974036","name":"Rüthen, Stadt","type":"Stadt"},"district":{"key":"05974","name":"Soest","type":"Kreis"},"federalState":{"key":"05","name":"Nordrhein-Westfalen"}},{"name":"Meerfeld","postalCode":"59602","locality":"Rüthen","municipality":{"key":"05974036","name":"Rüthen, Stadt","type":"Stadt"},"district":{"key":"05974","name":"Soest","type":"Kreis"},"federalState":{"key":"05","name":"Nordrhein-Westfalen"}},{"name":"Meister Ring","postalCode":"59602","locality":"Rüthen","municipality":{"key":"05974036","name":"Rüthen, Stadt","type":"Stadt"},"district":{"key":"05974","name":"Soest","type":"Kreis"},"federalState":{"key":"05","name":"Nordrhein-Westfalen"}},{"name":"Meister Str.","postalCode":"59602","locality":"Rüthen","municipality":{"key":"05974036","name":"Rüthen, Stadt","type":"Stadt"},"district":{"key":"05974","name":"Soest","type":"Kreis"},"federalState":{"key":"05","name":"Nordrhein-Westfalen"}},{"name":"Menzeler Str.","postalCode":"59602","locality":"Rüthen","municipality":{"key":"05974036","name":"Rüthen, Stadt","type":"Stadt"},"district":{"key":"05974","name":"Soest","type":"Kreis"},"federalState":{"key":"05","name":"Nordrhein-Westfalen"}},{"name":"Menzeler Weg","postalCode":"59602","locality":"Rüthen","municipality":{"key":"05974036","name":"Rüthen, Stadt","type":"Stadt"},"district":{"key":"05974","name":"Soest","type":"Kreis"},"federalState":{"key":"05","name":"Nordrhein-Westfalen"}},{"name":"Michael-Stapirius-Str.","postalCode":"59602","locality":"Rüthen","municipality":{"key":"05974036","name":"Rüthen, Stadt","type":"Stadt"},"district":{"key":"05974","name":"Soest","type":"Kreis"},"federalState":{"key":"05","name":"Nordrhein-Westfalen"}},{"name":"Milchstr.","postalCode":"59602","locality":"Rüthen","municipality":{"key":"05974036","name":"Rüthen, Stadt","type":"Stadt"},"district":{"key":"05974","name":"Soest","type":"Kreis"},"federalState":{"key":"05","name":"Nordrhein-Westfalen"}},{"name":"Mildental","postalCode":"59602","locality":"Rüthen","municipality":{"key":"05974036","name":"Rüthen, Stadt","type":"Stadt"},"district":{"key":"05974","name":"Soest","type":"Kreis"},"federalState":{"key":"05","name":"Nordrhein-Westfalen"}},{"name":"Mildestr.","postalCode":"59602","locality":"Rüthen","municipality":{"key":"05974036","name":"Rüthen, Stadt","type":"Stadt"},"district":{"key":"05974","name":"Soest","type":"Kreis"},"federalState":{"key":"05","name":"Nordrhein-Westfalen"}},{"name":"Mittlere Str.","postalCode":"59602","locality":"Rüthen","municipality":{"key":"05974036","name":"Rüthen, Stadt","type":"Stadt"},"district":{"key":"05974","name":"Soest","type":"Kreis"},"federalState":{"key":"05","name":"Nordrhein-Westfalen"}},{"name":"Möhnetal","postalCode":"59602","locality":"Rüthen","municipality":{"key":"05974036","name":"Rüthen, Stadt","type":"Stadt"},"district":{"key":"05974","name":"Soest","type":"Kreis"},"federalState":{"key":"05","name":"Nordrhein-Westfalen"}},{"name":"Mollenkämpe","postalCode":"59602","locality":"Rüthen","municipality":{"key":"05974036","name":"Rüthen, Stadt","type":"Stadt"},"district":{"key":"05974","name":"Soest","type":"Kreis"},"federalState":{"key":"05","name":"Nordrhein-Westfalen"}},{"name":"Mühlenweg","postalCode":"59602","locality":"Rüthen","municipality":{"key":"05974036","name":"Rüthen, Stadt","type":"Stadt"},"district":{"key":"05974","name":"Soest","type":"Kreis"},"federalState":{"key":"05","name":"Nordrhein-Westfalen"}},{"name":"Münnekessiepen","postalCode":"59602","locality":"Rüthen","municipality":{"key":"05974036","name":"Rüthen, Stadt","type":"Stadt"},"district":{"key":"05974","name":"Soest","type":"Kreis"},"federalState":{"key":"05","name":"Nordrhein-Westfalen"}},{"name":"Nettelstädt","postalCode":"59602","locality":"Rüthen","municipality":{"key":"05974036","name":"Rüthen, Stadt","type":"Stadt"},"district":{"key":"05974","name":"Soest","type":"Kreis"},"federalState":{"key":"05","name":"Nordrhein-Westfalen"}},{"name":"Neuer Weg","postalCode":"59602","locality":"Rüthen","municipality":{"key":"05974036","name":"Rüthen, Stadt","type":"Stadt"},"district":{"key":"05974","name":"Soest","type":"Kreis"},"federalState":{"key":"05","name":"Nordrhein-Westfalen"}},{"name":"Niedere Str.","postalCode":"59602","locality":"Rüthen","municipality":{"key":"05974036","name":"Rüthen, Stadt","type":"Stadt"},"district":{"key":"05974","name":"Soest","type":"Kreis"},"federalState":{"key":"05","name":"Nordrhein-Westfalen"}},{"name":"Nikolausstr.","postalCode":"59602","locality":"Rüthen","municipality":{"key":"05974036","name":"Rüthen, Stadt","type":"Stadt"},"district":{"key":"05974","name":"Soest","type":"Kreis"},"federalState":{"key":"05","name":"Nordrhein-Westfalen"}},{"name":"Nölke-Schütten-Str.","postalCode":"59602","locality":"Rüthen","municipality":{"key":"05974036","name":"Rüthen, Stadt","type":"Stadt"},"district":{"key":"05974","name":"Soest","type":"Kreis"},"federalState":{"key":"05","name":"Nordrhein-Westfalen"}},{"name":"Nordstr.","postalCode":"59602","locality":"Rüthen","municipality":{"key":"05974036","name":"Rüthen, Stadt","type":"Stadt"},"district":{"key":"05974","name":"Soest","type":"Kreis"},"federalState":{"key":"05","name":"Nordrhein-Westfalen"}},{"name":"Obere Denne","postalCode":"59602","locality":"Rüthen","municipality":{"key":"05974036","name":"Rüthen, Stadt","type":"Stadt"},"district":{"key":"05974","name":"Soest","type":"Kreis"},"federalState":{"key":"05","name":"Nordrhein-Westfalen"}},{"name":"Obere Heide","postalCode":"59602","locality":"Rüthen","municipality":{"key":"05974036","name":"Rüthen, Stadt","type":"Stadt"},"district":{"key":"05974","name":"Soest","type":"Kreis"},"federalState":{"key":"05","name":"Nordrhein-Westfalen"}},{"name":"Obere Steinpforte","postalCode":"59602","locality":"Rüthen","municipality":{"key":"05974036","name":"Rüthen, Stadt","type":"Stadt"},"district":{"key":"05974","name":"Soest","type":"Kreis"},"federalState":{"key":"05","name":"Nordrhein-Westfalen"}},{"name":"Oberfeld","postalCode":"59602","locality":"Rüthen","municipality":{"key":"05974036","name":"Rüthen, Stadt","type":"Stadt"},"district":{"key":"05974","name":"Soest","type":"Kreis"},"federalState":{"key":"05","name":"Nordrhein-Westfalen"}},{"name":"Oesternstr.","postalCode":"59602","locality":"Rüthen","municipality":{"key":"05974036","name":"Rüthen, Stadt","type":"Stadt"},"district":{"key":"05974","name":"Soest","type":"Kreis"},"federalState":{"key":"05","name":"Nordrhein-Westfalen"}},{"name":"Oesterntor","postalCode":"59602","locality":"Rüthen","municipality":{"key":"05974036","name":"Rüthen, Stadt","type":"Stadt"},"district":{"key":"05974","name":"Soest","type":"Kreis"},"federalState":{"key":"05","name":"Nordrhein-Westfalen"}},{"name":"Osterfeldsberg","postalCode":"59602","locality":"Rüthen","municipality":{"key":"05974036","name":"Rüthen, Stadt","type":"Stadt"},"district":{"key":"05974","name":"Soest","type":"Kreis"},"federalState":{"key":"05","name":"Nordrhein-Westfalen"}},{"name":"Oststr.","postalCode":"59602","locality":"Rüthen","municipality":{"key":"05974036","name":"Rüthen, Stadt","type":"Stadt"},"district":{"key":"05974","name":"Soest","type":"Kreis"},"federalState":{"key":"05","name":"Nordrhein-Westfalen"}},{"name":"Pankratiusweg","postalCode":"59602","locality":"Rüthen","municipality":{"key":"05974036","name":"Rüthen, Stadt","type":"Stadt"},"district":{"key":"05974","name":"Soest","type":"Kreis"},"federalState":{"key":"05","name":"Nordrhein-Westfalen"}},{"name":"Papenweg","postalCode":"59602","locality":"Rüthen","municipality":{"key":"05974036","name":"Rüthen, Stadt","type":"Stadt"},"district":{"key":"05974","name":"Soest","type":"Kreis"},"federalState":{"key":"05","name":"Nordrhein-Westfalen"}},{"name":"Paul-Gerhardt-Str.","postalCode":"59602","locality":"Rüthen","municipality":{"key":"05974036","name":"Rüthen, Stadt","type":"Stadt"},"district":{"key":"05974","name":"Soest","type":"Kreis"},"federalState":{"key":"05","name":"Nordrhein-Westfalen"}},{"name":"Pfeffergasse","postalCode":"59602","locality":"Rüthen","municipality":{"key":"05974036","name":"Rüthen, Stadt","type":"Stadt"},"district":{"key":"05974","name":"Soest","type":"Kreis"},"federalState":{"key":"05","name":"Nordrhein-Westfalen"}},{"name":"Provinzialstr.","postalCode":"59602","locality":"Rüthen","municipality":{"key":"05974036","name":"Rüthen, Stadt","type":"Stadt"},"district":{"key":"05974","name":"Soest","type":"Kreis"},"federalState":{"key":"05","name":"Nordrhein-Westfalen"}},{"name":"Quadegasse","postalCode":"59494","locality":"Soest","municipality":{"key":"05974040","name":"Soest, Stadt","type":"Stadt"},"district":{"key":"05974","name":"Soest","type":"Kreis"},"federalState":{"key":"05","name":"Nordrhein-Westfalen"}},{"name":"R8","postalCode":"59602","locality":"Rüthen","municipality":{"key":"05974036","name":"Rüthen, Stadt","type":"Stadt"},"district":{"key":"05974","name":"Soest","type":"Kreis"},"federalState":{"key":"05","name":"Nordrhein-Westfalen"}},{"name":"R8, R47","postalCode":"59602","locality":"Rüthen","municipality":{"key":"05974036","name":"Rüthen, Stadt","type":"Stadt"},"district":{"key":"05974","name":"Soest","type":"Kreis"},"federalState":{"key":"05","name":"Nordrhein-Westfalen"}},{"name":"Radowitzstr.","postalCode":"59602","locality":"Rüthen","municipality":{"key":"05974036","name":"Rüthen, Stadt","type":"Stadt"},"district":{"key":"05974","name":"Soest","type":"Kreis"},"federalState":{"key":"05","name":"Nordrhein-Westfalen"}},{"name":"Raiffeisenstr.","postalCode":"59602","locality":"Rüthen","municipality":{"key":"05974036","name":"Rüthen, Stadt","type":"Stadt"},"district":{"key":"05974","name":"Soest","type":"Kreis"},"federalState":{"key":"05","name":"Nordrhein-Westfalen"}},{"name":"Raimundstr.","postalCode":"59602","locality":"Rüthen","municipality":{"key":"05974036","name":"Rüthen, Stadt","type":"Stadt"},"district":{"key":"05974","name":"Soest","type":"Kreis"},"federalState":{"key":"05","name":"Nordrhein-Westfalen"}},{"name":"Rennweg","postalCode":"59602","locality":"Rüthen","municipality":{"key":"05974036","name":"Rüthen, Stadt","type":"Stadt"},"district":{"key":"05974","name":"Soest","type":"Kreis"},"federalState":{"key":"05","name":"Nordrhein-Westfalen"}},{"name":"Riekemacherstr.","postalCode":"59602","locality":"Rüthen","municipality":{"key":"05974036","name":"Rüthen, Stadt","type":"Stadt"},"district":{"key":"05974","name":"Soest","type":"Kreis"},"federalState":{"key":"05","name":"Nordrhein-Westfalen"}},{"name":"Ringer Str.","postalCode":"59602","locality":"Rüthen","municipality":{"key":"05974036","name":"Rüthen, Stadt","type":"Stadt"},"district":{"key":"05974","name":"Soest","type":"Kreis"},"federalState":{"key":"05","name":"Nordrhein-Westfalen"}},{"name":"Ringstr.","postalCode":"59602","locality":"Rüthen","municipality":{"key":"05974036","name":"Rüthen, Stadt","type":"Stadt"},"district":{"key":"05974","name":"Soest","type":"Kreis"},"federalState":{"key":"05","name":"Nordrhein-Westfalen"}},{"name":"Rissneital","postalCode":"59602","locality":"Rüthen","municipality":{"key":"05974036","name":"Rüthen, Stadt","type":"Stadt"},"district":{"key":"05974","name":"Soest","type":"Kreis"},"federalState":{"key":"05","name":"Nordrhein-Westfalen"}},{"name":"Ritterstr.","postalCode":"59602","locality":"Rüthen","municipality":{"key":"05974036","name":"Rüthen, Stadt","type":"Stadt"},"district":{"key":"05974","name":"Soest","type":"Kreis"},"federalState":{"key":"05","name":"Nordrhein-Westfalen"}},{"name":"Röinghstr.","postalCode":"59602","locality":"Rüthen","municipality":{"key":"05974036","name":"Rüthen, Stadt","type":"Stadt"},"district":{"key":"05974","name":"Soest","type":"Kreis"},"federalState":{"key":"05","name":"Nordrhein-Westfalen"}},{"name":"Romberg","postalCode":"59602","locality":"Rüthen","municipality":{"key":"05974036","name":"Rüthen, Stadt","type":"Stadt"},"district":{"key":"05974","name":"Soest","type":"Kreis"},"federalState":{"key":"05","name":"Nordrhein-Westfalen"}},{"name":"Romeckeweg","postalCode":"59602","locality":"Rüthen","municipality":{"key":"05974036","name":"Rüthen, Stadt","type":"Stadt"},"district":{"key":"05974","name":"Soest","type":"Kreis"},"federalState":{"key":"05","name":"Nordrhein-Westfalen"}},{"name":"Römerstr.","postalCode":"59602","locality":"Rüthen","municipality":{"key":"05974036","name":"Rüthen, Stadt","type":"Stadt"},"district":{"key":"05974","name":"Soest","type":"Kreis"},"federalState":{"key":"05","name":"Nordrhein-Westfalen"}},{"name":"Rosenkamp","postalCode":"59602","locality":"Rüthen","municipality":{"key":"05974036","name":"Rüthen, Stadt","type":"Stadt"},"district":{"key":"05974","name":"Soest","type":"Kreis"},"federalState":{"key":"05","name":"Nordrhein-Westfalen"}},{"name":"Rosenstr.","postalCode":"59602","locality":"Rüthen","municipality":{"key":"05974036","name":"Rüthen, Stadt","type":"Stadt"},"district":{"key":"05974","name":"Soest","type":"Kreis"},"federalState":{"key":"05","name":"Nordrhein-Westfalen"}},{"name":"Rüthener Landstr.","postalCode":"59602","locality":"Rüthen","municipality":{"key":"05974036","name":"Rüthen, Stadt","type":"Stadt"},"district":{"key":"05974","name":"Soest","type":"Kreis"},"federalState":{"key":"05","name":"Nordrhein-Westfalen"}},{"name":"Rüthener Weg","postalCode":"59602","locality":"Rüthen","municipality":{"key":"05974036","name":"Rüthen, Stadt","type":"Stadt"},"district":{"key":"05974","name":"Soest","type":"Kreis"},"federalState":{"key":"05","name":"Nordrhein-Westfalen"}},{"name":"Salzeichenweg","postalCode":"59602","locality":"Rüthen","municipality":{"key":"05974036","name":"Rüthen, Stadt","type":"Stadt"},"district":{"key":"05974","name":"Soest","type":"Kreis"},"federalState":{"key":"05","name":"Nordrhein-Westfalen"}},{"name":"Salzweg","postalCode":"59602","locality":"Rüthen","municipality":{"key":"05974036","name":"Rüthen, Stadt","type":"Stadt"},"district":{"key":"05974","name":"Soest","type":"Kreis"},"federalState":{"key":"05","name":"Nordrhein-Westfalen"}},{"name":"Sandkaulenweg","postalCode":"59602","locality":"Rüthen","municipality":{"key":"05974036","name":"Rüthen, Stadt","type":"Stadt"},"district":{"key":"05974","name":"Soest","type":"Kreis"},"federalState":{"key":"05","name":"Nordrhein-Westfalen"}},{"name":"Sandstr.","postalCode":"59602","locality":"Rüthen","municipality":{"key":"05974036","name":"Rüthen, Stadt","type":"Stadt"},"district":{"key":"05974","name":"Soest","type":"Kreis"},"federalState":{"key":"05","name":"Nordrhein-Westfalen"}},{"name":"Sauerdrift","postalCode":"59602","locality":"Rüthen","municipality":{"key":"05974036","name":"Rüthen, Stadt","type":"Stadt"},"district":{"key":"05974","name":"Soest","type":"Kreis"},"federalState":{"key":"05","name":"Nordrhein-Westfalen"}},{"name":"Sauerländer Weg","postalCode":"59602","locality":"Rüthen","municipality":{"key":"05974036","name":"Rüthen, Stadt","type":"Stadt"},"district":{"key":"05974","name":"Soest","type":"Kreis"},"federalState":{"key":"05","name":"Nordrhein-Westfalen"}},{"name":"Sauerstr.","postalCode":"59602","locality":"Rüthen","municipality":{"key":"05974036","name":"Rüthen, Stadt","type":"Stadt"},"district":{"key":"05974","name":"Soest","type":"Kreis"},"federalState":{"key":"05","name":"Nordrhein-Westfalen"}},{"name":"Scheunenweg","postalCode":"59602","locality":"Rüthen","municipality":{"key":"05974036","name":"Rüthen, Stadt","type":"Stadt"},"district":{"key":"05974","name":"Soest","type":"Kreis"},"federalState":{"key":"05","name":"Nordrhein-Westfalen"}},{"name":"Schlagfeldweg","postalCode":"59602","locality":"Rüthen","municipality":{"key":"05974036","name":"Rüthen, Stadt","type":"Stadt"},"district":{"key":"05974","name":"Soest","type":"Kreis"},"federalState":{"key":"05","name":"Nordrhein-Westfalen"}},{"name":"Schlangenpfad","postalCode":"59602","locality":"Rüthen","municipality":{"key":"05974036","name":"Rüthen, Stadt","type":"Stadt"},"district":{"key":"05974","name":"Soest","type":"Kreis"},"federalState":{"key":"05","name":"Nordrhein-Westfalen"}},{"name":"Schmalloh","postalCode":"59602","locality":"Rüthen","municipality":{"key":"05974036","name":"Rüthen, Stadt","type":"Stadt"},"district":{"key":"05974","name":"Soest","type":"Kreis"},"federalState":{"key":"05","name":"Nordrhein-Westfalen"}},{"name":"Schmiedegasse","postalCode":"59602","locality":"Rüthen","municipality":{"key":"05974036","name":"Rüthen, Stadt","type":"Stadt"},"district":{"key":"05974","name":"Soest","type":"Kreis"},"federalState":{"key":"05","name":"Nordrhein-Westfalen"}},{"name":"Schmiedeweg","postalCode":"59602","locality":"Rüthen","municipality":{"key":"05974036","name":"Rüthen, Stadt","type":"Stadt"},"district":{"key":"05974","name":"Soest","type":"Kreis"},"federalState":{"key":"05","name":"Nordrhein-Westfalen"}},{"name":"Schneringer Str.","postalCode":"59602","locality":"Rüthen","municipality":{"key":"05974036","name":"Rüthen, Stadt","type":"Stadt"},"district":{"key":"05974","name":"Soest","type":"Kreis"},"federalState":{"key":"05","name":"Nordrhein-Westfalen"}},{"name":"Schneringhuser Str.","postalCode":"59602","locality":"Rüthen","municipality":{"key":"05974036","name":"Rüthen, Stadt","type":"Stadt"},"district":{"key":"05974","name":"Soest","type":"Kreis"},"federalState":{"key":"05","name":"Nordrhein-Westfalen"}},{"name":"Schorlemerstr.","postalCode":"59602","locality":"Rüthen","municipality":{"key":"05974036","name":"Rüthen, Stadt","type":"Stadt"},"district":{"key":"05974","name":"Soest","type":"Kreis"},"federalState":{"key":"05","name":"Nordrhein-Westfalen"}},{"name":"Schulstr.","postalCode":"59602","locality":"Rüthen","municipality":{"key":"05974036","name":"Rüthen, Stadt","type":"Stadt"},"district":{"key":"05974","name":"Soest","type":"Kreis"},"federalState":{"key":"05","name":"Nordrhein-Westfalen"}},{"name":"Schultzstr.","postalCode":"59602","locality":"Rüthen","municipality":{"key":"05974036","name":"Rüthen, Stadt","type":"Stadt"},"district":{"key":"05974","name":"Soest","type":"Kreis"},"federalState":{"key":"05","name":"Nordrhein-Westfalen"}},{"name":"Schürenbuschweg","postalCode":"59602","locality":"Rüthen","municipality":{"key":"05974036","name":"Rüthen, Stadt","type":"Stadt"},"district":{"key":"05974","name":"Soest","type":"Kreis"},"federalState":{"key":"05","name":"Nordrhein-Westfalen"}},{"name":"Schustergasse","postalCode":"59602","locality":"Rüthen","municipality":{"key":"05974036","name":"Rüthen, Stadt","type":"Stadt"},"district":{"key":"05974","name":"Soest","type":"Kreis"},"federalState":{"key":"05","name":"Nordrhein-Westfalen"}},{"name":"Schüttelhorst","postalCode":"59602","locality":"Rüthen","municipality":{"key":"05974036","name":"Rüthen, Stadt","type":"Stadt"},"district":{"key":"05974","name":"Soest","type":"Kreis"},"federalState":{"key":"05","name":"Nordrhein-Westfalen"}},{"name":"Schützenkamp","postalCode":"59602","locality":"Rüthen","municipality":{"key":"05974036","name":"Rüthen, Stadt","type":"Stadt"},"district":{"key":"05974","name":"Soest","type":"Kreis"},"federalState":{"key":"05","name":"Nordrhein-Westfalen"}},{"name":"Schützenstr.","postalCode":"59602","locality":"Rüthen","municipality":{"key":"05974036","name":"Rüthen, Stadt","type":"Stadt"},"district":{"key":"05974","name":"Soest","type":"Kreis"},"federalState":{"key":"05","name":"Nordrhein-Westfalen"}},{"name":"Schwarzer Weg","postalCode":"59602","locality":"Rüthen","municipality":{"key":"05974036","name":"Rüthen, Stadt","type":"Stadt"},"district":{"key":"05974","name":"Soest","type":"Kreis"},"federalState":{"key":"05","name":"Nordrhein-Westfalen"}},{"name":"Seibertzweg","postalCode":"59602","locality":"Rüthen","municipality":{"key":"05974036","name":"Rüthen, Stadt","type":"Stadt"},"district":{"key":"05974","name":"Soest","type":"Kreis"},"federalState":{"key":"05","name":"Nordrhein-Westfalen"}},{"name":"Seilerweg","postalCode":"59602","locality":"Rüthen","municipality":{"key":"05974036","name":"Rüthen, Stadt","type":"Stadt"},"district":{"key":"05974","name":"Soest","type":"Kreis"},"federalState":{"key":"05","name":"Nordrhein-Westfalen"}},{"name":"Siebkenstr.","postalCode":"59602","locality":"Rüthen","municipality":{"key":"05974036","name":"Rüthen, Stadt","type":"Stadt"},"district":{"key":"05974","name":"Soest","type":"Kreis"},"federalState":{"key":"05","name":"Nordrhein-Westfalen"}},{"name":"Silberbach","postalCode":"59602","locality":"Rüthen","municipality":{"key":"05974036","name":"Rüthen, Stadt","type":"Stadt"},"district":{"key":"05974","name":"Soest","type":"Kreis"},"federalState":{"key":"05","name":"Nordrhein-Westfalen"}},{"name":"Soestweg","postalCode":"59602","locality":"Rüthen","municipality":{"key":"05974036","name":"Rüthen, Stadt","type":"Stadt"},"district":{"key":"05974","name":"Soest","type":"Kreis"},"federalState":{"key":"05","name":"Nordrhein-Westfalen"}},{"name":"Sommerberg","postalCode":"59602","locality":"Rüthen","municipality":{"key":"05974036","name":"Rüthen, Stadt","type":"Stadt"},"district":{"key":"05974","name":"Soest","type":"Kreis"},"federalState":{"key":"05","name":"Nordrhein-Westfalen"}},{"name":"Sonnenweg","postalCode":"59602","locality":"Rüthen","municipality":{"key":"05974036","name":"Rüthen, Stadt","type":"Stadt"},"district":{"key":"05974","name":"Soest","type":"Kreis"},"federalState":{"key":"05","name":"Nordrhein-Westfalen"}},{"name":"Spielplatzstr.","postalCode":"59602","locality":"Rüthen","municipality":{"key":"05974036","name":"Rüthen, Stadt","type":"Stadt"},"district":{"key":"05974","name":"Soest","type":"Kreis"},"federalState":{"key":"05","name":"Nordrhein-Westfalen"}},{"name":"Spitze Warte","postalCode":"59602","locality":"Rüthen","municipality":{"key":"05974036","name":"Rüthen, Stadt","type":"Stadt"},"district":{"key":"05974","name":"Soest","type":"Kreis"},"federalState":{"key":"05","name":"Nordrhein-Westfalen"}},{"name":"Stadtmauer","postalCode":"59602","locality":"Rüthen","municipality":{"key":"05974036","name":"Rüthen, Stadt","type":"Stadt"},"district":{"key":"05974","name":"Soest","type":"Kreis"},"federalState":{"key":"05","name":"Nordrhein-Westfalen"}},{"name":"Stefanusstr.","postalCode":"59602","locality":"Rüthen","municipality":{"key":"05974036","name":"Rüthen, Stadt","type":"Stadt"},"district":{"key":"05974","name":"Soest","type":"Kreis"},"federalState":{"key":"05","name":"Nordrhein-Westfalen"}},{"name":"Steinkerfeld","postalCode":"59602","locality":"Rüthen","municipality":{"key":"05974036","name":"Rüthen, Stadt","type":"Stadt"},"district":{"key":"05974","name":"Soest","type":"Kreis"},"federalState":{"key":"05","name":"Nordrhein-Westfalen"}},{"name":"Steinpfad","postalCode":"59602","locality":"Rüthen","municipality":{"key":"05974036","name":"Rüthen, Stadt","type":"Stadt"},"district":{"key":"05974","name":"Soest","type":"Kreis"},"federalState":{"key":"05","name":"Nordrhein-Westfalen"}},{"name":"Stromberg","postalCode":"59602","locality":"Rüthen","municipality":{"key":"05974036","name":"Rüthen, Stadt","type":"Stadt"},"district":{"key":"05974","name":"Soest","type":"Kreis"},"federalState":{"key":"05","name":"Nordrhein-Westfalen"}},{"name":"Strotenweg","postalCode":"59602","locality":"Rüthen","municipality":{"key":"05974036","name":"Rüthen, Stadt","type":"Stadt"},"district":{"key":"05974","name":"Soest","type":"Kreis"},"federalState":{"key":"05","name":"Nordrhein-Westfalen"}},{"name":"Südstr.","postalCode":"59602","locality":"Rüthen","municipality":{"key":"05974036","name":"Rüthen, Stadt","type":"Stadt"},"district":{"key":"05974","name":"Soest","type":"Kreis"},"federalState":{"key":"05","name":"Nordrhein-Westfalen"}},{"name":"Suttroper Weg","postalCode":"59602","locality":"Rüthen","municipality":{"key":"05974036","name":"Rüthen, Stadt","type":"Stadt"},"district":{"key":"05974","name":"Soest","type":"Kreis"},"federalState":{"key":"05","name":"Nordrhein-Westfalen"}},{"name":"Teichstr.","postalCode":"59602","locality":"Rüthen","municipality":{"key":"05974036","name":"Rüthen, Stadt","type":"Stadt"},"district":{"key":"05974","name":"Soest","type":"Kreis"},"federalState":{"key":"05","name":"Nordrhein-Westfalen"}},{"name":"Tentweg","postalCode":"59602","locality":"Rüthen","municipality":{"key":"05974036","name":"Rüthen, Stadt","type":"Stadt"},"district":{"key":"05974","name":"Soest","type":"Kreis"},"federalState":{"key":"05","name":"Nordrhein-Westfalen"}},{"name":"Theodor-Ernst-Str.","postalCode":"59602","locality":"Rüthen","municipality":{"key":"05974036","name":"Rüthen, Stadt","type":"Stadt"},"district":{"key":"05974","name":"Soest","type":"Kreis"},"federalState":{"key":"05","name":"Nordrhein-Westfalen"}},{"name":"Thielestr.","postalCode":"59602","locality":"Rüthen","municipality":{"key":"05974036","name":"Rüthen, Stadt","type":"Stadt"},"district":{"key":"05974","name":"Soest","type":"Kreis"},"federalState":{"key":"05","name":"Nordrhein-Westfalen"}},{"name":"Thingplatz","postalCode":"59602","locality":"Rüthen","municipality":{"key":"05974036","name":"Rüthen, Stadt","type":"Stadt"},"district":{"key":"05974","name":"Soest","type":"Kreis"},"federalState":{"key":"05","name":"Nordrhein-Westfalen"}},{"name":"Triftweg","postalCode":"59602","locality":"Rüthen","municipality":{"key":"05974036","name":"Rüthen, Stadt","type":"Stadt"},"district":{"key":"05974","name":"Soest","type":"Kreis"},"federalState":{"key":"05","name":"Nordrhein-Westfalen"}},{"name":"Tünsberg","postalCode":"59602","locality":"Rüthen","municipality":{"key":"05974036","name":"Rüthen, Stadt","type":"Stadt"},"district":{"key":"05974","name":"Soest","type":"Kreis"},"federalState":{"key":"05","name":"Nordrhein-Westfalen"}},{"name":"Unsolerweg","postalCode":"59602","locality":"Rüthen","municipality":{"key":"05974036","name":"Rüthen, Stadt","type":"Stadt"},"district":{"key":"05974","name":"Soest","type":"Kreis"},"federalState":{"key":"05","name":"Nordrhein-Westfalen"}},{"name":"Unter den Eichen","postalCode":"59602","locality":"Rüthen","municipality":{"key":"05974036","name":"Rüthen, Stadt","type":"Stadt"},"district":{"key":"05974","name":"Soest","type":"Kreis"},"federalState":{"key":"05","name":"Nordrhein-Westfalen"}},{"name":"Unter der Haar","postalCode":"59602","locality":"Rüthen","municipality":{"key":"05974036","name":"Rüthen, Stadt","type":"Stadt"},"district":{"key":"05974","name":"Soest","type":"Kreis"},"federalState":{"key":"05","name":"Nordrhein-Westfalen"}},{"name":"Untere Denne","postalCode":"59602","locality":"Rüthen","municipality":{"key":"05974036","name":"Rüthen, Stadt","type":"Stadt"},"district":{"key":"05974","name":"Soest","type":"Kreis"},"federalState":{"key":"05","name":"Nordrhein-Westfalen"}},{"name":"Untere Steinpforte","postalCode":"59602","locality":"Rüthen","municipality":{"key":"05974036","name":"Rüthen, Stadt","type":"Stadt"},"district":{"key":"05974","name":"Soest","type":"Kreis"},"federalState":{"key":"05","name":"Nordrhein-Westfalen"}},{"name":"Untere Str.","postalCode":"59602","locality":"Rüthen","municipality":{"key":"05974036","name":"Rüthen, Stadt","type":"Stadt"},"district":{"key":"05974","name":"Soest","type":"Kreis"},"federalState":{"key":"05","name":"Nordrhein-Westfalen"}},{"name":"Von-Loen-Str.","postalCode":"59602","locality":"Rüthen","municipality":{"key":"05974036","name":"Rüthen, Stadt","type":"Stadt"},"district":{"key":"05974","name":"Soest","type":"Kreis"},"federalState":{"key":"05","name":"Nordrhein-Westfalen"}},{"name":"Vorderer Diebespfad","postalCode":"59602","locality":"Rüthen","municipality":{"key":"05974036","name":"Rüthen, Stadt","type":"Stadt"},"district":{"key":"05974","name":"Soest","type":"Kreis"},"federalState":{"key":"05","name":"Nordrhein-Westfalen"}},{"name":"Vorm Grafenholz","postalCode":"59602","locality":"Rüthen","municipality":{"key":"05974036","name":"Rüthen, Stadt","type":"Stadt"},"district":{"key":"05974","name":"Soest","type":"Kreis"},"federalState":{"key":"05","name":"Nordrhein-Westfalen"}},{"name":"Wandweg","postalCode":"59602","locality":"Rüthen","municipality":{"key":"05974036","name":"Rüthen, Stadt","type":"Stadt"},"district":{"key":"05974","name":"Soest","type":"Kreis"},"federalState":{"key":"05","name":"Nordrhein-Westfalen"}},{"name":"Warsteiner Weg","postalCode":"59602","locality":"Rüthen","municipality":{"key":"05974036","name":"Rüthen, Stadt","type":"Stadt"},"district":{"key":"05974","name":"Soest","type":"Kreis"},"federalState":{"key":"05","name":"Nordrhein-Westfalen"}},{"name":"Weickede","postalCode":"59602","locality":"Rüthen","municipality":{"key":"05974036","name":"Rüthen, Stadt","type":"Stadt"},"district":{"key":"05974","name":"Soest","type":"Kreis"},"federalState":{"key":"05","name":"Nordrhein-Westfalen"}},{"name":"Westereidener Str.","postalCode":"59602","locality":"Rüthen","municipality":{"key":"05974036","name":"Rüthen, Stadt","type":"Stadt"},"district":{"key":"05974","name":"Soest","type":"Kreis"},"federalState":{"key":"05","name":"Nordrhein-Westfalen"}},{"name":"Weststr.","postalCode":"59602","locality":"Rüthen","municipality":{"key":"05974036","name":"Rüthen, Stadt","type":"Stadt"},"district":{"key":"05974","name":"Soest","type":"Kreis"},"federalState":{"key":"05","name":"Nordrhein-Westfalen"}},{"name":"Wiebusch","postalCode":"59602","locality":"Rüthen","municipality":{"key":"05974036","name":"Rüthen, Stadt","type":"Stadt"},"district":{"key":"05974","name":"Soest","type":"Kreis"},"federalState":{"key":"05","name":"Nordrhein-Westfalen"}},{"name":"Wilhelm-Schröder-Str.","postalCode":"59602","locality":"Rüthen","municipality":{"key":"05974036","name":"Rüthen, Stadt","type":"Stadt"},"district":{"key":"05974","name":"Soest","type":"Kreis"},"federalState":{"key":"05","name":"Nordrhein-Westfalen"}},{"name":"Wilhelmstr.","postalCode":"59602","locality":"Rüthen","municipality":{"key":"05974036","name":"Rüthen, Stadt","type":"Stadt"},"district":{"key":"05974","name":"Soest","type":"Kreis"},"federalState":{"key":"05","name":"Nordrhein-Westfalen"}},{"name":"Windpothstr.","postalCode":"59602","locality":"Rüthen","municipality":{"key":"05974036","name":"Rüthen, Stadt","type":"Stadt"},"district":{"key":"05974","name":"Soest","type":"Kreis"},"federalState":{"key":"05","name":"Nordrhein-Westfalen"}},{"name":"Winkelgasse","postalCode":"59602","locality":"Rüthen","municipality":{"key":"05974036","name":"Rüthen, Stadt","type":"Stadt"},"district":{"key":"05974","name":"Soest","type":"Kreis"},"federalState":{"key":"05","name":"Nordrhein-Westfalen"}},{"name":"Winschenweg","postalCode":"59602","locality":"Rüthen","municipality":{"key":"05974036","name":"Rüthen, Stadt","type":"Stadt"},"district":{"key":"05974","name":"Soest","type":"Kreis"},"federalState":{"key":"05","name":"Nordrhein-Westfalen"}},{"name":"Zehntfreie Höfe","postalCode":"59602","locality":"Rüthen","municipality":{"key":"05974036","name":"Rüthen, Stadt","type":"Stadt"},"district":{"key":"05974","name":"Soest","type":"Kreis"},"federalState":{"key":"05","name":"Nordrhein-Westfalen"}},{"name":"Ziegeleistr.","postalCode":"59602","locality":"Rüthen","municipality":{"key":"05974036","name":"Rüthen, Stadt","type":"Stadt"},"district":{"key":"05974","name":"Soest","type":"Kreis"},"federalState":{"key":"05","name":"Nordrhein-Westfalen"}},{"name":"Zu den Birken","postalCode":"59602","locality":"Rüthen","municipality":{"key":"05974036","name":"Rüthen, Stadt","type":"Stadt"},"district":{"key":"05974","name":"Soest","type":"Kreis"},"federalState":{"key":"05","name":"Nordrhein-Westfalen"}},{"name":"Zum alten Backhaus","postalCode":"59602","locality":"Rüthen","municipality":{"key":"05974036","name":"Rüthen, Stadt","type":"Stadt"},"district":{"key":"05974","name":"Soest","type":"Kreis"},"federalState":{"key":"05","name":"Nordrhein-Westfalen"}},{"name":"Zum alten Berg","postalCode":"59602","locality":"Rüthen","municipality":{"key":"05974036","name":"Rüthen, Stadt","type":"Stadt"},"district":{"key":"05974","name":"Soest","type":"Kreis"},"federalState":{"key":"05","name":"Nordrhein-Westfalen"}},{"name":"Zum Griesenturm","postalCode":"59602","locality":"Rüthen","municipality":{"key":"05974036","name":"Rüthen, Stadt","type":"Stadt"},"district":{"key":"05974","name":"Soest","type":"Kreis"},"federalState":{"key":"05","name":"Nordrhein-Westfalen"}},{"name":"Zum Horstfeld","postalCode":"59602","locality":"Rüthen","municipality":{"key":"05974036","name":"Rüthen, Stadt","type":"Stadt"},"district":{"key":"05974","name":"Soest","type":"Kreis"},"federalState":{"key":"05","name":"Nordrhein-Westfalen"}},{"name":"Zum Schemmergrund","postalCode":"59602","locality":"Rüthen","municipality":{"key":"05974036","name":"Rüthen, Stadt","type":"Stadt"},"district":{"key":"05974","name":"Soest","type":"Kreis"},"federalState":{"key":"05","name":"Nordrhein-Westfalen"}},{"name":"Zum Teufelssiepen","postalCode":"59602","locality":"Rüthen","municipality":{"key":"05974036","name":"Rüthen, Stadt","type":"Stadt"},"district":{"key":"05974","name":"Soest","type":"Kreis"},"federalState":{"key":"05","name":"Nordrhein-Westfalen"}},{"name":"Zum Walde","postalCode":"59602","locality":"Rüthen","municipality":{"key":"05974036","name":"Rüthen, Stadt","type":"Stadt"},"district":{"key":"05974","name":"Soest","type":"Kreis"},"federalState":{"key":"05","name":"Nordrhein-Westfalen"}},{"name":"Zur Schemmergrund","postalCode":"59602","locality":"Rüthen","municipality":{"key":"05974036","name":"Rüthen, Stadt","type":"Stadt"},"district":{"key":"05974","name":"Soest","type":"Kreis"},"federalState":{"key":"05","name":"Nordrhein-Westfalen"}},{"name":"Zur Schneidemühle","postalCode":"59602","locality":"Rüthen","municipality":{"key":"05974036","name":"Rüthen, Stadt","type":"Stadt"},"district":{"key":"05974","name":"Soest","type":"Kreis"},"federalState":{"key":"05","name":"Nordrhein-Westfalen"}},{"name":"Zur Schwelle","postalCode":"59602","locality":"Rüthen","municipality":{"key":"05974036","name":"Rüthen, Stadt","type":"Stadt"},"district":{"key":"05974","name":"Soest","type":"Kreis"},"federalState":{"key":"05","name":"Nordrhein-Westfalen"}},{"name":"Zur Stadtmauer","postalCode":"59602","locality":"Rüthen","municipality":{"key":"05974036","name":"Rüthen, Stadt","type":"Stadt"},"district":{"key":"05974","name":"Soest","type":"Kreis"},"federalState":{"key":"05","name":"Nordrhein-Westfalen"}},{"name":"Zur Sunder","postalCode":"59602","locality":"Rüthen","municipality":{"key":"05974036","name":"Rüthen, Stadt","type":"Stadt"},"district":{"key":"05974","name":"Soest","type":"Kreis"},"federalState":{"key":"05","name":"Nordrhein-Westfalen"}},]