[{"key":"10099941","name":"Avenue de Fully","postalCode":"1920","locality":"Martigny","commune":{"key":"6136","name":"Martigny","shortName":"Martigny"},"district":{"key":"2307","name":"District de Martigny"},"canton":{"key":"23","code":"VS","name":"Valais / Wallis"},"status":"Real"},{"key":"10045807","name":"Avenue de la Fusion","postalCode":"1920","locality":"Martigny","commune":{"key":"6136","name":"Martigny","shortName":"Martigny"},"district":{"key":"2307","name":"District de Martigny"},"canton":{"key":"23","code":"VS","name":"Valais / Wallis"},"status":"Real"},{"key":"10185421","name":"Avenue de la Gare","postalCode":"1920","locality":"Martigny","commune":{"key":"6136","name":"Martigny","shortName":"Martigny"},"district":{"key":"2307","name":"District de Martigny"},"canton":{"key":"23","code":"VS","name":"Valais / Wallis"},"status":"Real"},{"key":"10081598","name":"Avenue des Grandes Maresches","postalCode":"1920","locality":"Martigny","commune":{"key":"6136","name":"Martigny","shortName":"Martigny"},"district":{"key":"2307","name":"District de Martigny"},"canton":{"key":"23","code":"VS","name":"Valais / Wallis"},"status":"Real"},{"key":"10045808","name":"Avenue des Neuvilles","postalCode":"1920","locality":"Martigny","commune":{"key":"6136","name":"Martigny","shortName":"Martigny"},"district":{"key":"2307","name":"District de Martigny"},"canton":{"key":"23","code":"VS","name":"Valais / Wallis"},"status":"Real"},{"key":"10176247","name":"Avenue des Prés Beudin","postalCode":"1920","locality":"Martigny","commune":{"key":"6136","name":"Martigny","shortName":"Martigny"},"district":{"key":"2307","name":"District de Martigny"},"canton":{"key":"23","code":"VS","name":"Valais / Wallis"},"status":"Real"},{"key":"10045809","name":"Avenue du Grand-St-Bernard","postalCode":"1920","locality":"Martigny","commune":{"key":"6136","name":"Martigny","shortName":"Martigny"},"district":{"key":"2307","name":"District de Martigny"},"canton":{"key":"23","code":"VS","name":"Valais / Wallis"},"status":"Real"},{"key":"10237607","name":"Bérenger","postalCode":"1921","locality":"Martigny-Croix","commune":{"key":"6137","name":"Martigny-Combe","shortName":"Martigny-Combe"},"district":{"key":"2307","name":"District de Martigny"},"canton":{"key":"23","code":"VS","name":"Valais / Wallis"},"status":"Real"},{"key":"10237664","name":"Berge Sud","postalCode":"1920","locality":"Martigny","commune":{"key":"6136","name":"Martigny","shortName":"Martigny"},"district":{"key":"2307","name":"District de Martigny"},"canton":{"key":"23","code":"VS","name":"Valais / Wallis"},"status":"Real"},{"key":"10237611","name":"Bioley","postalCode":"1921","locality":"Martigny-Croix","commune":{"key":"6137","name":"Martigny-Combe","shortName":"Martigny-Combe"},"district":{"key":"2307","name":"District de Martigny"},"canton":{"key":"23","code":"VS","name":"Valais / Wallis"},"status":"Real"},{"key":"10237559","name":"Botzat des Crettes","postalCode":"1920","locality":"Martigny","commune":{"key":"6136","name":"Martigny","shortName":"Martigny"},"district":{"key":"2307","name":"District de Martigny"},"canton":{"key":"23","code":"VS","name":"Valais / Wallis"},"status":"Real"},{"key":"10147572","name":"Chanton","postalCode":"1921","locality":"Martigny-Croix","commune":{"key":"6137","name":"Martigny-Combe","shortName":"Martigny-Combe"},"district":{"key":"2307","name":"District de Martigny"},"canton":{"key":"23","code":"VS","name":"Valais / Wallis"},"status":"Real"},{"key":"10017275","name":"Chanton d'en Bas","postalCode":"1921","locality":"Martigny-Croix","commune":{"key":"6137","name":"Martigny-Combe","shortName":"Martigny-Combe"},"district":{"key":"2307","name":"District de Martigny"},"canton":{"key":"23","code":"VS","name":"Valais / Wallis"},"status":"Real"},{"key":"10119334","name":"Charavex","postalCode":"1921","locality":"Martigny-Croix","commune":{"key":"6137","name":"Martigny-Combe","shortName":"Martigny-Combe"},"district":{"key":"2307","name":"District de Martigny"},"canton":{"key":"23","code":"VS","name":"Valais / Wallis"},"status":"Real"},{"key":"10190619","name":"Chemin de la Chapelle","postalCode":"1920","locality":"Martigny","commune":{"key":"6136","name":"Martigny","shortName":"Martigny"},"district":{"key":"2307","name":"District de Martigny"},"canton":{"key":"23","code":"VS","name":"Valais / Wallis"},"status":"Real"},{"key":"10007147","name":"Chemin de la Dagne","postalCode":"1921","locality":"Martigny-Croix","commune":{"key":"6137","name":"Martigny-Combe","shortName":"Martigny-Combe"},"district":{"key":"2307","name":"District de Martigny"},"canton":{"key":"23","code":"VS","name":"Valais / Wallis"},"status":"Real"},{"key":"10144101","name":"Chemin de la Meudette","postalCode":"1921","locality":"Martigny-Croix","commune":{"key":"6137","name":"Martigny-Combe","shortName":"Martigny-Combe"},"district":{"key":"2307","name":"District de Martigny"},"canton":{"key":"23","code":"VS","name":"Valais / Wallis"},"status":"Real"},{"key":"10116413","name":"Chemin de la Praille","postalCode":"1920","locality":"Martigny","commune":{"key":"6136","name":"Martigny","shortName":"Martigny"},"district":{"key":"2307","name":"District de Martigny"},"canton":{"key":"23","code":"VS","name":"Valais / Wallis"},"status":"Real"},{"key":"10151097","name":"Chemin de la Rasse","postalCode":"1921","locality":"Martigny-Croix","commune":{"key":"6137","name":"Martigny-Combe","shortName":"Martigny-Combe"},"district":{"key":"2307","name":"District de Martigny"},"canton":{"key":"23","code":"VS","name":"Valais / Wallis"},"status":"Real"},{"key":"10148546","name":"Chemin de l'Ecole","postalCode":"1921","locality":"Martigny-Croix","commune":{"key":"6137","name":"Martigny-Combe","shortName":"Martigny-Combe"},"district":{"key":"2307","name":"District de Martigny"},"canton":{"key":"23","code":"VS","name":"Valais / Wallis"},"status":"Real"},{"key":"10099942","name":"Chemin de Longes Rayes","postalCode":"1920","locality":"Martigny","commune":{"key":"6136","name":"Martigny","shortName":"Martigny"},"district":{"key":"2307","name":"District de Martigny"},"canton":{"key":"23","code":"VS","name":"Valais / Wallis"},"status":"Real"},{"key":"10045810","name":"Chemin de Provence","postalCode":"1920","locality":"Martigny","commune":{"key":"6136","name":"Martigny","shortName":"Martigny"},"district":{"key":"2307","name":"District de Martigny"},"canton":{"key":"23","code":"VS","name":"Valais / Wallis"},"status":"Real"},{"key":"10045813","name":"Chemin des Barrières","postalCode":"1920","locality":"Martigny","commune":{"key":"6136","name":"Martigny","shortName":"Martigny"},"district":{"key":"2307","name":"District de Martigny"},"canton":{"key":"23","code":"VS","name":"Valais / Wallis"},"status":"Real"},{"key":"10045814","name":"Chemin des Ecoliers","postalCode":"1920","locality":"Martigny","commune":{"key":"6136","name":"Martigny","shortName":"Martigny"},"district":{"key":"2307","name":"District de Martigny"},"canton":{"key":"23","code":"VS","name":"Valais / Wallis"},"status":"Real"},{"key":"10045815","name":"Chemin des Fumeaux","postalCode":"1920","locality":"Martigny","commune":{"key":"6136","name":"Martigny","shortName":"Martigny"},"district":{"key":"2307","name":"District de Martigny"},"canton":{"key":"23","code":"VS","name":"Valais / Wallis"},"status":"Real"},{"key":"10045816","name":"Chemin des Glariers","postalCode":"1920","locality":"Martigny","commune":{"key":"6136","name":"Martigny","shortName":"Martigny"},"district":{"key":"2307","name":"District de Martigny"},"canton":{"key":"23","code":"VS","name":"Valais / Wallis"},"status":"Real"},{"key":"10142159","name":"Chemin des Nérouds","postalCode":"1921","locality":"Martigny-Croix","commune":{"key":"6137","name":"Martigny-Combe","shortName":"Martigny-Combe"},"district":{"key":"2307","name":"District de Martigny"},"canton":{"key":"23","code":"VS","name":"Valais / Wallis"},"status":"Real"},{"key":"10237262","name":"Chemin des Portions","postalCode":"1920","locality":"Martigny","commune":{"key":"6136","name":"Martigny","shortName":"Martigny"},"district":{"key":"2307","name":"District de Martigny"},"canton":{"key":"23","code":"VS","name":"Valais / Wallis"},"status":"Real"},{"key":"10125578","name":"Chemin des Prés de l'Ile","postalCode":"1920","locality":"Martigny","commune":{"key":"6136","name":"Martigny","shortName":"Martigny"},"district":{"key":"2307","name":"District de Martigny"},"canton":{"key":"23","code":"VS","name":"Valais / Wallis"},"status":"Real"},{"key":"10099943","name":"Chemin des Sorbiers","postalCode":"1920","locality":"Martigny","commune":{"key":"6136","name":"Martigny","shortName":"Martigny"},"district":{"key":"2307","name":"District de Martigny"},"canton":{"key":"23","code":"VS","name":"Valais / Wallis"},"status":"Real"},{"key":"10189003","name":"Chemin des Valérianes","postalCode":"1920","locality":"Martigny","commune":{"key":"6136","name":"Martigny","shortName":"Martigny"},"district":{"key":"2307","name":"District de Martigny"},"canton":{"key":"23","code":"VS","name":"Valais / Wallis"},"status":"Real"},{"key":"10099944","name":"Chemin du Château","postalCode":"1920","locality":"Martigny","commune":{"key":"6136","name":"Martigny","shortName":"Martigny"},"district":{"key":"2307","name":"District de Martigny"},"canton":{"key":"23","code":"VS","name":"Valais / Wallis"},"status":"Real"},{"key":"10150006","name":"Chemin du Fetorney","postalCode":"1921","locality":"Martigny-Croix","commune":{"key":"6137","name":"Martigny-Combe","shortName":"Martigny-Combe"},"district":{"key":"2307","name":"District de Martigny"},"canton":{"key":"23","code":"VS","name":"Valais / Wallis"},"status":"Real"},{"key":"10106447","name":"Chemin du Gilloud","postalCode":"1920","locality":"Martigny","commune":{"key":"6136","name":"Martigny","shortName":"Martigny"},"district":{"key":"2307","name":"District de Martigny"},"canton":{"key":"23","code":"VS","name":"Valais / Wallis"},"status":"Real"},{"key":"10151099","name":"Chemin du Gitieux","postalCode":"1921","locality":"Martigny-Croix","commune":{"key":"6137","name":"Martigny-Combe","shortName":"Martigny-Combe"},"district":{"key":"2307","name":"District de Martigny"},"canton":{"key":"23","code":"VS","name":"Valais / Wallis"},"status":"Real"},{"key":"10045817","name":"Chemin du Milieu","postalCode":"1920","locality":"Martigny","commune":{"key":"6136","name":"Martigny","shortName":"Martigny"},"district":{"key":"2307","name":"District de Martigny"},"canton":{"key":"23","code":"VS","name":"Valais / Wallis"},"status":"Real"},{"key":"10129689","name":"Chemin du Pont","postalCode":"1920","locality":"Martigny","commune":{"key":"6136","name":"Martigny","shortName":"Martigny"},"district":{"key":"2307","name":"District de Martigny"},"canton":{"key":"23","code":"VS","name":"Valais / Wallis"},"status":"Real"},{"key":"10105715","name":"Chemin du Scex","postalCode":"1920","locality":"Martigny","commune":{"key":"6136","name":"Martigny","shortName":"Martigny"},"district":{"key":"2307","name":"District de Martigny"},"canton":{"key":"23","code":"VS","name":"Valais / Wallis"},"status":"Real"},{"key":"10236699","name":"Chemin du Syndicat","postalCode":"1920","locality":"Martigny","commune":{"key":"6136","name":"Martigny","shortName":"Martigny"},"district":{"key":"2307","name":"District de Martigny"},"canton":{"key":"23","code":"VS","name":"Valais / Wallis"},"status":"Real"},{"key":"10153323","name":"Chemin du Vivier","postalCode":"1920","locality":"Martigny","commune":{"key":"6136","name":"Martigny","shortName":"Martigny"},"district":{"key":"2307","name":"District de Martigny"},"canton":{"key":"23","code":"VS","name":"Valais / Wallis"},"status":"Real"},{"key":"10049992","name":"Combarigny","postalCode":"1921","locality":"Martigny-Croix","commune":{"key":"6137","name":"Martigny-Combe","shortName":"Martigny-Combe"},"district":{"key":"2307","name":"District de Martigny"},"canton":{"key":"23","code":"VS","name":"Valais / Wallis"},"status":"Real"},{"key":"10184804","name":"Gueuroz","postalCode":"1920","locality":"Martigny","commune":{"key":"6136","name":"Martigny","shortName":"Martigny"},"district":{"key":"2307","name":"District de Martigny"},"canton":{"key":"23","code":"VS","name":"Valais / Wallis"},"status":"Real"},{"key":"10045818","name":"Iles Cédées","postalCode":"1920","locality":"Martigny","commune":{"key":"6136","name":"Martigny","shortName":"Martigny"},"district":{"key":"2307","name":"District de Martigny"},"canton":{"key":"23","code":"VS","name":"Valais / Wallis"},"status":"Real"},{"key":"10237563","name":"La Bourrigne","postalCode":"1920","locality":"Martigny","commune":{"key":"6136","name":"Martigny","shortName":"Martigny"},"district":{"key":"2307","name":"District de Martigny"},"canton":{"key":"23","code":"VS","name":"Valais / Wallis"},"status":"Real"},{"key":"10236678","name":"La Brouna","postalCode":"1921","locality":"Martigny-Croix","commune":{"key":"6137","name":"Martigny-Combe","shortName":"Martigny-Combe"},"district":{"key":"2307","name":"District de Martigny"},"canton":{"key":"23","code":"VS","name":"Valais / Wallis"},"status":"Real"},{"key":"10107329","name":"La Caffe","postalCode":"1921","locality":"Martigny-Croix","commune":{"key":"6137","name":"Martigny-Combe","shortName":"Martigny-Combe"},"district":{"key":"2307","name":"District de Martigny"},"canton":{"key":"23","code":"VS","name":"Valais / Wallis"},"status":"Real"},{"key":"10119580","name":"La Crettaz","postalCode":"1921","locality":"Martigny-Croix","commune":{"key":"6137","name":"Martigny-Combe","shortName":"Martigny-Combe"},"district":{"key":"2307","name":"District de Martigny"},"canton":{"key":"23","code":"VS","name":"Valais / Wallis"},"status":"Real"},{"key":"10193042","name":"La Crette","postalCode":"1921","locality":"Martigny-Croix","commune":{"key":"6137","name":"Martigny-Combe","shortName":"Martigny-Combe"},"district":{"key":"2307","name":"District de Martigny"},"canton":{"key":"23","code":"VS","name":"Valais / Wallis"},"status":"Real"},{"key":"10045819","name":"La Perrette","postalCode":"1920","locality":"Martigny","commune":{"key":"6136","name":"Martigny","shortName":"Martigny"},"district":{"key":"2307","name":"District de Martigny"},"canton":{"key":"23","code":"VS","name":"Valais / Wallis"},"status":"Real"},{"key":"10237627","name":"La Preise","postalCode":"1921","locality":"Martigny-Croix","commune":{"key":"6137","name":"Martigny-Combe","shortName":"Martigny-Combe"},"district":{"key":"2307","name":"District de Martigny"},"canton":{"key":"23","code":"VS","name":"Valais / Wallis"},"status":"Real"},{"key":"10237022","name":"L'Arpille","postalCode":"1921","locality":"Martigny-Croix","commune":{"key":"6137","name":"Martigny-Combe","shortName":"Martigny-Combe"},"district":{"key":"2307","name":"District de Martigny"},"canton":{"key":"23","code":"VS","name":"Valais / Wallis"},"status":"Real"},{"key":"10155024","name":"La Zouilla","postalCode":"1920","locality":"Martigny","commune":{"key":"6136","name":"Martigny","shortName":"Martigny"},"district":{"key":"2307","name":"District de Martigny"},"canton":{"key":"23","code":"VS","name":"Valais / Wallis"},"status":"Real"},{"key":"10045820","name":"Le Belluart","postalCode":"1920","locality":"Martigny","commune":{"key":"6136","name":"Martigny","shortName":"Martigny"},"district":{"key":"2307","name":"District de Martigny"},"canton":{"key":"23","code":"VS","name":"Valais / Wallis"},"status":"Real"},{"key":"10185430","name":"Le Borgeaud","postalCode":"1921","locality":"Martigny-Croix","commune":{"key":"6137","name":"Martigny-Combe","shortName":"Martigny-Combe"},"district":{"key":"2307","name":"District de Martigny"},"canton":{"key":"23","code":"VS","name":"Valais / Wallis"},"status":"Real"},{"key":"10152086","name":"Le Buitoux","postalCode":"1921","locality":"Martigny-Croix","commune":{"key":"6137","name":"Martigny-Combe","shortName":"Martigny-Combe"},"district":{"key":"2307","name":"District de Martigny"},"canton":{"key":"23","code":"VS","name":"Valais / Wallis"},"status":"Real"},{"key":"10237026","name":"Le Châtelis","postalCode":"1920","locality":"Martigny","commune":{"key":"6136","name":"Martigny","shortName":"Martigny"},"district":{"key":"2307","name":"District de Martigny"},"canton":{"key":"23","code":"VS","name":"Valais / Wallis"},"status":"Real"},{"key":"10237659","name":"Le Liapey","postalCode":"1921","locality":"Martigny-Croix","commune":{"key":"6137","name":"Martigny-Combe","shortName":"Martigny-Combe"},"district":{"key":"2307","name":"District de Martigny"},"canton":{"key":"23","code":"VS","name":"Valais / Wallis"},"status":"Real"},{"key":"10141811","name":"Le Mentset","postalCode":"1921","locality":"Martigny-Croix","commune":{"key":"6137","name":"Martigny-Combe","shortName":"Martigny-Combe"},"district":{"key":"2307","name":"District de Martigny"},"canton":{"key":"23","code":"VS","name":"Valais / Wallis"},"status":"Real"},{"key":"10040667","name":"Le Perrey","postalCode":"1921","locality":"Martigny-Croix","commune":{"key":"6137","name":"Martigny-Combe","shortName":"Martigny-Combe"},"district":{"key":"2307","name":"District de Martigny"},"canton":{"key":"23","code":"VS","name":"Valais / Wallis"},"status":"Real"},{"key":"10133331","name":"Le Revix","postalCode":"1921","locality":"Martigny-Croix","commune":{"key":"6137","name":"Martigny-Combe","shortName":"Martigny-Combe"},"district":{"key":"2307","name":"District de Martigny"},"canton":{"key":"23","code":"VS","name":"Valais / Wallis"},"status":"Real"},{"key":"10101233","name":"Les Assets","postalCode":"1921","locality":"Martigny-Croix","commune":{"key":"6137","name":"Martigny-Combe","shortName":"Martigny-Combe"},"district":{"key":"2307","name":"District de Martigny"},"canton":{"key":"23","code":"VS","name":"Valais / Wallis"},"status":"Real"},{"key":"10237687","name":"Les Combales","postalCode":"1921","locality":"Martigny-Croix","commune":{"key":"6137","name":"Martigny-Combe","shortName":"Martigny-Combe"},"district":{"key":"2307","name":"District de Martigny"},"canton":{"key":"23","code":"VS","name":"Valais / Wallis"},"status":"Real"},{"key":"10237691","name":"Les Croisettes","postalCode":"1921","locality":"Martigny-Croix","commune":{"key":"6137","name":"Martigny-Combe","shortName":"Martigny-Combe"},"district":{"key":"2307","name":"District de Martigny"},"canton":{"key":"23","code":"VS","name":"Valais / Wallis"},"status":"Real"},{"key":"10237695","name":"Les Ecottins","postalCode":"1921","locality":"Martigny-Croix","commune":{"key":"6137","name":"Martigny-Combe","shortName":"Martigny-Combe"},"district":{"key":"2307","name":"District de Martigny"},"canton":{"key":"23","code":"VS","name":"Valais / Wallis"},"status":"Real"},{"key":"10237699","name":"Les Forêts","postalCode":"1921","locality":"Martigny-Croix","commune":{"key":"6137","name":"Martigny-Combe","shortName":"Martigny-Combe"},"district":{"key":"2307","name":"District de Martigny"},"canton":{"key":"23","code":"VS","name":"Valais / Wallis"},"status":"Real"},{"key":"10237571","name":"Les Girardines","postalCode":"1920","locality":"Martigny","commune":{"key":"6136","name":"Martigny","shortName":"Martigny"},"district":{"key":"2307","name":"District de Martigny"},"canton":{"key":"23","code":"VS","name":"Valais / Wallis"},"status":"Real"},{"key":"10081602","name":"Les Grands Drets","postalCode":"1920","locality":"Martigny","commune":{"key":"6136","name":"Martigny","shortName":"Martigny"},"district":{"key":"2307","name":"District de Martigny"},"canton":{"key":"23","code":"VS","name":"Valais / Wallis"},"status":"Real"},{"key":"10237575","name":"Les Grépons","postalCode":"1920","locality":"Martigny","commune":{"key":"6136","name":"Martigny","shortName":"Martigny"},"district":{"key":"2307","name":"District de Martigny"},"canton":{"key":"23","code":"VS","name":"Valais / Wallis"},"status":"Real"},{"key":"10193043","name":"Les Guières","postalCode":"1921","locality":"Martigny-Croix","commune":{"key":"6137","name":"Martigny-Combe","shortName":"Martigny-Combe"},"district":{"key":"2307","name":"District de Martigny"},"canton":{"key":"23","code":"VS","name":"Valais / Wallis"},"status":"Real"},{"key":"10237579","name":"Les Marques","postalCode":"1920","locality":"Martigny","commune":{"key":"6136","name":"Martigny","shortName":"Martigny"},"district":{"key":"2307","name":"District de Martigny"},"canton":{"key":"23","code":"VS","name":"Valais / Wallis"},"status":"Real"},{"key":"10236210","name":"Les Pales","postalCode":"1921","locality":"Martigny-Croix","commune":{"key":"6137","name":"Martigny-Combe","shortName":"Martigny-Combe"},"district":{"key":"2307","name":"District de Martigny"},"canton":{"key":"23","code":"VS","name":"Valais / Wallis"},"status":"Real"},{"key":"10236217","name":"Les Pas","postalCode":"1921","locality":"Martigny-Croix","commune":{"key":"6137","name":"Martigny-Combe","shortName":"Martigny-Combe"},"district":{"key":"2307","name":"District de Martigny"},"canton":{"key":"23","code":"VS","name":"Valais / Wallis"},"status":"Real"},{"key":"10040677","name":"Les Tsablets","postalCode":"1921","locality":"Martigny-Croix","commune":{"key":"6137","name":"Martigny-Combe","shortName":"Martigny-Combe"},"district":{"key":"2307","name":"District de Martigny"},"canton":{"key":"23","code":"VS","name":"Valais / Wallis"},"status":"Real"},{"key":"10237675","name":"Le Torrent de Saint-Jean","postalCode":"1921","locality":"Martigny-Croix","commune":{"key":"6137","name":"Martigny-Combe","shortName":"Martigny-Combe"},"district":{"key":"2307","name":"District de Martigny"},"canton":{"key":"23","code":"VS","name":"Valais / Wallis"},"status":"Real"},{"key":"10063943","name":"L'Ile à Bernard","postalCode":"1920","locality":"Martigny","commune":{"key":"6136","name":"Martigny","shortName":"Martigny"},"district":{"key":"2307","name":"District de Martigny"},"canton":{"key":"23","code":"VS","name":"Valais / Wallis"},"status":"Real"},{"key":"10045822","name":"Maraiche de la Croix","postalCode":"1920","locality":"Martigny","commune":{"key":"6136","name":"Martigny","shortName":"Martigny"},"district":{"key":"2307","name":"District de Martigny"},"canton":{"key":"23","code":"VS","name":"Valais / Wallis"},"status":"Real"},{"key":"10155053","name":"Maraiches Neuves","postalCode":"1920","locality":"Martigny","commune":{"key":"6136","name":"Martigny","shortName":"Martigny"},"district":{"key":"2307","name":"District de Martigny"},"canton":{"key":"23","code":"VS","name":"Valais / Wallis"},"status":"Real"},{"key":"10236220","name":"Mayens Basses","postalCode":"1921","locality":"Martigny-Croix","commune":{"key":"6137","name":"Martigny-Combe","shortName":"Martigny-Combe"},"district":{"key":"2307","name":"District de Martigny"},"canton":{"key":"23","code":"VS","name":"Valais / Wallis"},"status":"Real"},{"key":"10040668","name":"Meylan","postalCode":"1921","locality":"Martigny-Croix","commune":{"key":"6137","name":"Martigny-Combe","shortName":"Martigny-Combe"},"district":{"key":"2307","name":"District de Martigny"},"canton":{"key":"23","code":"VS","name":"Valais / Wallis"},"status":"Real"},{"key":"10198951","name":"Passage des Colombes","postalCode":"1920","locality":"Martigny","commune":{"key":"6136","name":"Martigny","shortName":"Martigny"},"district":{"key":"2307","name":"District de Martigny"},"canton":{"key":"23","code":"VS","name":"Valais / Wallis"},"status":"Real"},{"key":"10201878","name":"Passage des Oliviers","postalCode":"1920","locality":"Martigny","commune":{"key":"6136","name":"Martigny","shortName":"Martigny"},"district":{"key":"2307","name":"District de Martigny"},"canton":{"key":"23","code":"VS","name":"Valais / Wallis"},"status":"Real"},{"key":"10171336","name":"Passage des Sciences","postalCode":"1920","locality":"Martigny","commune":{"key":"6136","name":"Martigny","shortName":"Martigny"},"district":{"key":"2307","name":"District de Martigny"},"canton":{"key":"23","code":"VS","name":"Valais / Wallis"},"status":"Real"},{"key":"10237583","name":"Petits Sorts","postalCode":"1920","locality":"Martigny","commune":{"key":"6136","name":"Martigny","shortName":"Martigny"},"district":{"key":"2307","name":"District de Martigny"},"canton":{"key":"23","code":"VS","name":"Valais / Wallis"},"status":"Real"},{"key":"10100555","name":"Pied du Château","postalCode":"1921","locality":"Martigny-Croix","commune":{"key":"6137","name":"Martigny-Combe","shortName":"Martigny-Combe"},"district":{"key":"2307","name":"District de Martigny"},"canton":{"key":"23","code":"VS","name":"Valais / Wallis"},"status":"Real"},{"key":"10237587","name":"Pierre du Beurre","postalCode":"1920","locality":"Martigny","commune":{"key":"6136","name":"Martigny","shortName":"Martigny"},"district":{"key":"2307","name":"District de Martigny"},"canton":{"key":"23","code":"VS","name":"Valais / Wallis"},"status":"Real"},{"key":"10099947","name":"Place Centrale","postalCode":"1920","locality":"Martigny","commune":{"key":"6136","name":"Martigny","shortName":"Martigny"},"district":{"key":"2307","name":"District de Martigny"},"canton":{"key":"23","code":"VS","name":"Valais / Wallis"},"status":"Real"},{"key":"10143413","name":"Place Centrale","postalCode":"1921","locality":"Martigny-Croix","commune":{"key":"6137","name":"Martigny-Combe","shortName":"Martigny-Combe"},"district":{"key":"2307","name":"District de Martigny"},"canton":{"key":"23","code":"VS","name":"Valais / Wallis"},"status":"Real"},{"key":"10058357","name":"Place de Plaisance","postalCode":"1920","locality":"Martigny","commune":{"key":"6136","name":"Martigny","shortName":"Martigny"},"district":{"key":"2307","name":"District de Martigny"},"canton":{"key":"23","code":"VS","name":"Valais / Wallis"},"status":"Real"},{"key":"10045824","name":"Place de Rome","postalCode":"1920","locality":"Martigny","commune":{"key":"6136","name":"Martigny","shortName":"Martigny"},"district":{"key":"2307","name":"District de Martigny"},"canton":{"key":"23","code":"VS","name":"Valais / Wallis"},"status":"Real"},{"key":"10132173","name":"Place du Bourg","postalCode":"1920","locality":"Martigny","commune":{"key":"6136","name":"Martigny","shortName":"Martigny"},"district":{"key":"2307","name":"District de Martigny"},"canton":{"key":"23","code":"VS","name":"Valais / Wallis"},"status":"Real"},{"key":"10185423","name":"Place du Midi","postalCode":"1920","locality":"Martigny","commune":{"key":"6136","name":"Martigny","shortName":"Martigny"},"district":{"key":"2307","name":"District de Martigny"},"canton":{"key":"23","code":"VS","name":"Valais / Wallis"},"status":"Real"},{"key":"10045823","name":"Place St-Michel","postalCode":"1920","locality":"Martigny","commune":{"key":"6136","name":"Martigny","shortName":"Martigny"},"district":{"key":"2307","name":"District de Martigny"},"canton":{"key":"23","code":"VS","name":"Valais / Wallis"},"status":"Real"},{"key":"10081612","name":"Plan Cerisier","postalCode":"1921","locality":"Martigny-Croix","commune":{"key":"6137","name":"Martigny-Combe","shortName":"Martigny-Combe"},"district":{"key":"2307","name":"District de Martigny"},"canton":{"key":"23","code":"VS","name":"Valais / Wallis"},"status":"Real"},{"key":"10099948","name":"Pré-de-Foire","postalCode":"1920","locality":"Martigny","commune":{"key":"6136","name":"Martigny","shortName":"Martigny"},"district":{"key":"2307","name":"District de Martigny"},"canton":{"key":"23","code":"VS","name":"Valais / Wallis"},"status":"Real"},{"key":"10237591","name":"Rossetan","postalCode":"1920","locality":"Martigny","commune":{"key":"6136","name":"Martigny","shortName":"Martigny"},"district":{"key":"2307","name":"District de Martigny"},"canton":{"key":"23","code":"VS","name":"Valais / Wallis"},"status":"Real"},{"key":"10155054","name":"Route de Ferrage","postalCode":"1920","locality":"Martigny","commune":{"key":"6136","name":"Martigny","shortName":"Martigny"},"district":{"key":"2307","name":"District de Martigny"},"canton":{"key":"23","code":"VS","name":"Valais / Wallis"},"status":"Real"},{"key":"10119585","name":"Route de la Combe","postalCode":"1921","locality":"Martigny-Croix","commune":{"key":"6137","name":"Martigny-Combe","shortName":"Martigny-Combe"},"district":{"key":"2307","name":"District de Martigny"},"canton":{"key":"23","code":"VS","name":"Valais / Wallis"},"status":"Real"},{"key":"10148150","name":"Route de la Condémine","postalCode":"1921","locality":"Martigny-Croix","commune":{"key":"6137","name":"Martigny-Combe","shortName":"Martigny-Combe"},"district":{"key":"2307","name":"District de Martigny"},"canton":{"key":"23","code":"VS","name":"Valais / Wallis"},"status":"Real"},{"key":"10133911","name":"Route de la Croix","postalCode":"1921","locality":"Martigny-Croix","commune":{"key":"6137","name":"Martigny-Combe","shortName":"Martigny-Combe"},"district":{"key":"2307","name":"District de Martigny"},"canton":{"key":"23","code":"VS","name":"Valais / Wallis"},"status":"Real"},{"key":"10148016","name":"Route de la Dranse","postalCode":"1921","locality":"Martigny-Croix","commune":{"key":"6137","name":"Martigny-Combe","shortName":"Martigny-Combe"},"district":{"key":"2307","name":"District de Martigny"},"canton":{"key":"23","code":"VS","name":"Valais / Wallis"},"status":"Real"},{"key":"10150007","name":"Route de la Fontaine","postalCode":"1921","locality":"Martigny-Croix","commune":{"key":"6137","name":"Martigny-Combe","shortName":"Martigny-Combe"},"district":{"key":"2307","name":"District de Martigny"},"canton":{"key":"23","code":"VS","name":"Valais / Wallis"},"status":"Real"},{"key":"10146181","name":"Route de la Forclaz","postalCode":"1920","locality":"Martigny","commune":{"key":"6136","name":"Martigny","shortName":"Martigny"},"district":{"key":"2307","name":"District de Martigny"},"canton":{"key":"23","code":"VS","name":"Valais / Wallis"},"status":"Real"},{"key":"10146181","name":"Route de la Forclaz","postalCode":"1921","locality":"Martigny-Croix","commune":{"key":"6137","name":"Martigny-Combe","shortName":"Martigny-Combe"},"district":{"key":"2307","name":"District de Martigny"},"canton":{"key":"23","code":"VS","name":"Valais / Wallis"},"status":"Real"},{"key":"10151522","name":"Route de la Forêt","postalCode":"1921","locality":"Martigny-Croix","commune":{"key":"6137","name":"Martigny-Combe","shortName":"Martigny-Combe"},"district":{"key":"2307","name":"District de Martigny"},"canton":{"key":"23","code":"VS","name":"Valais / Wallis"},"status":"Real"},{"key":"10076798","name":"Route de la Poudrière","postalCode":"1921","locality":"Martigny-Croix","commune":{"key":"6137","name":"Martigny-Combe","shortName":"Martigny-Combe"},"district":{"key":"2307","name":"District de Martigny"},"canton":{"key":"23","code":"VS","name":"Valais / Wallis"},"status":"Real"},{"key":"10152251","name":"Route de la Vidondée","postalCode":"1921","locality":"Martigny-Croix","commune":{"key":"6137","name":"Martigny-Combe","shortName":"Martigny-Combe"},"district":{"key":"2307","name":"District de Martigny"},"canton":{"key":"23","code":"VS","name":"Valais / Wallis"},"status":"Real"},{"key":"10141573","name":"Route de la Ya","postalCode":"1921","locality":"Martigny-Croix","commune":{"key":"6137","name":"Martigny-Combe","shortName":"Martigny-Combe"},"district":{"key":"2307","name":"District de Martigny"},"canton":{"key":"23","code":"VS","name":"Valais / Wallis"},"status":"Real"},{"key":"10040669","name":"Route de Plan-Cerisier","postalCode":"1921","locality":"Martigny-Croix","commune":{"key":"6137","name":"Martigny-Combe","shortName":"Martigny-Combe"},"district":{"key":"2307","name":"District de Martigny"},"canton":{"key":"23","code":"VS","name":"Valais / Wallis"},"status":"Real"},{"key":"10148014","name":"Route des Bans","postalCode":"1921","locality":"Martigny-Croix","commune":{"key":"6137","name":"Martigny-Combe","shortName":"Martigny-Combe"},"district":{"key":"2307","name":"District de Martigny"},"canton":{"key":"23","code":"VS","name":"Valais / Wallis"},"status":"Real"},{"key":"10171335","name":"Route des Chantons","postalCode":"1920","locality":"Martigny","commune":{"key":"6136","name":"Martigny","shortName":"Martigny"},"district":{"key":"2307","name":"District de Martigny"},"canton":{"key":"23","code":"VS","name":"Valais / Wallis"},"status":"Real"},{"key":"10148015","name":"Route des Creusats","postalCode":"1921","locality":"Martigny-Croix","commune":{"key":"6137","name":"Martigny-Combe","shortName":"Martigny-Combe"},"district":{"key":"2307","name":"District de Martigny"},"canton":{"key":"23","code":"VS","name":"Valais / Wallis"},"status":"Real"},{"key":"10151912","name":"Route des Fontaines","postalCode":"1921","locality":"Martigny-Croix","commune":{"key":"6137","name":"Martigny-Combe","shortName":"Martigny-Combe"},"district":{"key":"2307","name":"District de Martigny"},"canton":{"key":"23","code":"VS","name":"Valais / Wallis"},"status":"Real"},{"key":"10045825","name":"Route des Iles","postalCode":"1920","locality":"Martigny","commune":{"key":"6136","name":"Martigny","shortName":"Martigny"},"district":{"key":"2307","name":"District de Martigny"},"canton":{"key":"23","code":"VS","name":"Valais / Wallis"},"status":"Real"},{"key":"10246707","name":"Route des Indes","postalCode":"1920","locality":"Martigny","commune":{"key":"6136","name":"Martigny","shortName":"Martigny"},"district":{"key":"2307","name":"District de Martigny"},"canton":{"key":"23","code":"VS","name":"Valais / Wallis"},"status":"Real"},{"key":"10007148","name":"Route des Rappes","postalCode":"1921","locality":"Martigny-Croix","commune":{"key":"6137","name":"Martigny-Combe","shortName":"Martigny-Combe"},"district":{"key":"2307","name":"District de Martigny"},"canton":{"key":"23","code":"VS","name":"Valais / Wallis"},"status":"Real"},{"key":"10148697","name":"Route de St-Jean","postalCode":"1921","locality":"Martigny-Croix","commune":{"key":"6137","name":"Martigny-Combe","shortName":"Martigny-Combe"},"district":{"key":"2307","name":"District de Martigny"},"canton":{"key":"23","code":"VS","name":"Valais / Wallis"},"status":"Real"},{"key":"10252629","name":"Route d'Ottan","postalCode":"1920","locality":"Martigny","commune":{"key":"6136","name":"Martigny","shortName":"Martigny"},"district":{"key":"2307","name":"District de Martigny"},"canton":{"key":"23","code":"VS","name":"Valais / Wallis"},"status":"Real"},{"key":"10126748","name":"Route du Cergneux","postalCode":"1921","locality":"Martigny-Croix","commune":{"key":"6137","name":"Martigny-Combe","shortName":"Martigny-Combe"},"district":{"key":"2307","name":"District de Martigny"},"canton":{"key":"23","code":"VS","name":"Valais / Wallis"},"status":"Real"},{"key":"10126826","name":"Route du Château","postalCode":"1921","locality":"Martigny-Croix","commune":{"key":"6137","name":"Martigny-Combe","shortName":"Martigny-Combe"},"district":{"key":"2307","name":"District de Martigny"},"canton":{"key":"23","code":"VS","name":"Valais / Wallis"},"status":"Real"},{"key":"10152135","name":"Route du Fays","postalCode":"1921","locality":"Martigny-Croix","commune":{"key":"6137","name":"Martigny-Combe","shortName":"Martigny-Combe"},"district":{"key":"2307","name":"District de Martigny"},"canton":{"key":"23","code":"VS","name":"Valais / Wallis"},"status":"Real"},{"key":"10148151","name":"Route du Grand-Saint-Bernard","postalCode":"1921","locality":"Martigny-Croix","commune":{"key":"6137","name":"Martigny-Combe","shortName":"Martigny-Combe"},"district":{"key":"2307","name":"District de Martigny"},"canton":{"key":"23","code":"VS","name":"Valais / Wallis"},"status":"Real"},{"key":"10151523","name":"Route du Grand Verger","postalCode":"1921","locality":"Martigny-Croix","commune":{"key":"6137","name":"Martigny-Combe","shortName":"Martigny-Combe"},"district":{"key":"2307","name":"District de Martigny"},"canton":{"key":"23","code":"VS","name":"Valais / Wallis"},"status":"Real"},{"key":"10145223","name":"Route du Réservoir","postalCode":"1921","locality":"Martigny-Croix","commune":{"key":"6137","name":"Martigny-Combe","shortName":"Martigny-Combe"},"district":{"key":"2307","name":"District de Martigny"},"canton":{"key":"23","code":"VS","name":"Valais / Wallis"},"status":"Real"},{"key":"10148152","name":"Route du Soleil","postalCode":"1921","locality":"Martigny-Croix","commune":{"key":"6137","name":"Martigny-Combe","shortName":"Martigny-Combe"},"district":{"key":"2307","name":"District de Martigny"},"canton":{"key":"23","code":"VS","name":"Valais / Wallis"},"status":"Real"},{"key":"10081603","name":"Rue Bonne de Bourbon","postalCode":"1920","locality":"Martigny","commune":{"key":"6136","name":"Martigny","shortName":"Martigny"},"district":{"key":"2307","name":"District de Martigny"},"canton":{"key":"23","code":"VS","name":"Valais / Wallis"},"status":"Real"},{"key":"10176248","name":"Rue d'Aoste","postalCode":"1920","locality":"Martigny","commune":{"key":"6136","name":"Martigny","shortName":"Martigny"},"district":{"key":"2307","name":"District de Martigny"},"canton":{"key":"23","code":"VS","name":"Valais / Wallis"},"status":"Real"},{"key":"10056475","name":"Rue de Bellevue","postalCode":"1920","locality":"Martigny","commune":{"key":"6136","name":"Martigny","shortName":"Martigny"},"district":{"key":"2307","name":"District de Martigny"},"canton":{"key":"23","code":"VS","name":"Valais / Wallis"},"status":"Real"},{"key":"10099949","name":"Rue de Bévignoux","postalCode":"1920","locality":"Martigny","commune":{"key":"6136","name":"Martigny","shortName":"Martigny"},"district":{"key":"2307","name":"District de Martigny"},"canton":{"key":"23","code":"VS","name":"Valais / Wallis"},"status":"Real"},{"key":"10045828","name":"Rue de Grimisuat","postalCode":"1920","locality":"Martigny","commune":{"key":"6136","name":"Martigny","shortName":"Martigny"},"district":{"key":"2307","name":"District de Martigny"},"canton":{"key":"23","code":"VS","name":"Valais / Wallis"},"status":"Real"},{"key":"10099952","name":"Rue de la Bâtiaz","postalCode":"1920","locality":"Martigny","commune":{"key":"6136","name":"Martigny","shortName":"Martigny"},"district":{"key":"2307","name":"District de Martigny"},"canton":{"key":"23","code":"VS","name":"Valais / Wallis"},"status":"Real"},{"key":"10045835","name":"Rue de la Délèze","postalCode":"1920","locality":"Martigny","commune":{"key":"6136","name":"Martigny","shortName":"Martigny"},"district":{"key":"2307","name":"District de Martigny"},"canton":{"key":"23","code":"VS","name":"Valais / Wallis"},"status":"Real"},{"key":"10185424","name":"Rue de la Dranse","postalCode":"1920","locality":"Martigny","commune":{"key":"6136","name":"Martigny","shortName":"Martigny"},"district":{"key":"2307","name":"District de Martigny"},"canton":{"key":"23","code":"VS","name":"Valais / Wallis"},"status":"Real"},{"key":"10190620","name":"Rue de la Grenette","postalCode":"1920","locality":"Martigny","commune":{"key":"6136","name":"Martigny","shortName":"Martigny"},"district":{"key":"2307","name":"District de Martigny"},"canton":{"key":"23","code":"VS","name":"Valais / Wallis"},"status":"Real"},{"key":"10081606","name":"Rue de la Laiterie","postalCode":"1920","locality":"Martigny","commune":{"key":"6136","name":"Martigny","shortName":"Martigny"},"district":{"key":"2307","name":"District de Martigny"},"canton":{"key":"23","code":"VS","name":"Valais / Wallis"},"status":"Real"},{"key":"10045836","name":"Rue de la Maladière","postalCode":"1920","locality":"Martigny","commune":{"key":"6136","name":"Martigny","shortName":"Martigny"},"district":{"key":"2307","name":"District de Martigny"},"canton":{"key":"23","code":"VS","name":"Valais / Wallis"},"status":"Real"},{"key":"10176249","name":"Rue de la Moya","postalCode":"1920","locality":"Martigny","commune":{"key":"6136","name":"Martigny","shortName":"Martigny"},"district":{"key":"2307","name":"District de Martigny"},"canton":{"key":"23","code":"VS","name":"Valais / Wallis"},"status":"Real"},{"key":"10099951","name":"Rue de l'Ancienne Pointe","postalCode":"1920","locality":"Martigny","commune":{"key":"6136","name":"Martigny","shortName":"Martigny"},"district":{"key":"2307","name":"District de Martigny"},"canton":{"key":"23","code":"VS","name":"Valais / Wallis"},"status":"Real"},{"key":"10099953","name":"Rue de la Pierre-Avoi","postalCode":"1920","locality":"Martigny","commune":{"key":"6136","name":"Martigny","shortName":"Martigny"},"district":{"key":"2307","name":"District de Martigny"},"canton":{"key":"23","code":"VS","name":"Valais / Wallis"},"status":"Real"},{"key":"10045837","name":"Rue de la Poste","postalCode":"1920","locality":"Martigny","commune":{"key":"6136","name":"Martigny","shortName":"Martigny"},"district":{"key":"2307","name":"District de Martigny"},"canton":{"key":"23","code":"VS","name":"Valais / Wallis"},"status":"Real"},{"key":"10045812","name":"Rue de la Prairie","postalCode":"1920","locality":"Martigny","commune":{"key":"6136","name":"Martigny","shortName":"Martigny"},"district":{"key":"2307","name":"District de Martigny"},"canton":{"key":"23","code":"VS","name":"Valais / Wallis"},"status":"Real"},{"key":"10152252","name":"Rue de l'Arbignon","postalCode":"1921","locality":"Martigny-Croix","commune":{"key":"6137","name":"Martigny-Combe","shortName":"Martigny-Combe"},"district":{"key":"2307","name":"District de Martigny"},"canton":{"key":"23","code":"VS","name":"Valais / Wallis"},"status":"Real"},{"key":"10081605","name":"Rue de l'Arbre de la Liberté","postalCode":"1920","locality":"Martigny","commune":{"key":"6136","name":"Martigny","shortName":"Martigny"},"district":{"key":"2307","name":"District de Martigny"},"canton":{"key":"23","code":"VS","name":"Valais / Wallis"},"status":"Real"},{"key":"10045838","name":"Rue de la Scierie","postalCode":"1920","locality":"Martigny","commune":{"key":"6136","name":"Martigny","shortName":"Martigny"},"district":{"key":"2307","name":"District de Martigny"},"canton":{"key":"23","code":"VS","name":"Valais / Wallis"},"status":"Real"},{"key":"10045839","name":"Rue de la Tannerie","postalCode":"1920","locality":"Martigny","commune":{"key":"6136","name":"Martigny","shortName":"Martigny"},"district":{"key":"2307","name":"District de Martigny"},"canton":{"key":"23","code":"VS","name":"Valais / Wallis"},"status":"Real"},{"key":"10237599","name":"Sur les Scex","postalCode":"1920","locality":"Martigny","commune":{"key":"6136","name":"Martigny","shortName":"Martigny"},"district":{"key":"2307","name":"District de Martigny"},"canton":{"key":"23","code":"VS","name":"Valais / Wallis"},"status":"Real"},{"key":"10237603","name":"Tirebovet","postalCode":"1920","locality":"Martigny","commune":{"key":"6136","name":"Martigny","shortName":"Martigny"},"district":{"key":"2307","name":"District de Martigny"},"canton":{"key":"23","code":"VS","name":"Valais / Wallis"},"status":"Real"},]