[{"name":"Alte Rathausstr.","postalCode":"56867","locality":"Briedel","municipality":{"key":"07135013","name":"Briedel","type":"Kreisangehörige_Gemeinde"},"district":{"key":"07135","name":"Cochem-Zell","type":"Landkreis"},"federalState":{"key":"07","name":"Rheinland-Pfalz"}},{"name":"Auf dem Bach","postalCode":"56867","locality":"Briedel","municipality":{"key":"07135013","name":"Briedel","type":"Kreisangehörige_Gemeinde"},"district":{"key":"07135","name":"Cochem-Zell","type":"Landkreis"},"federalState":{"key":"07","name":"Rheinland-Pfalz"}},{"name":"Balduinstr.","postalCode":"56867","locality":"Briedel","municipality":{"key":"07135013","name":"Briedel","type":"Kreisangehörige_Gemeinde"},"district":{"key":"07135","name":"Cochem-Zell","type":"Landkreis"},"federalState":{"key":"07","name":"Rheinland-Pfalz"}},{"name":"Bergstr.","postalCode":"56867","locality":"Briedel","municipality":{"key":"07135013","name":"Briedel","type":"Kreisangehörige_Gemeinde"},"district":{"key":"07135","name":"Cochem-Zell","type":"Landkreis"},"federalState":{"key":"07","name":"Rheinland-Pfalz"}},{"name":"BR 2/ 5/ 6","postalCode":"56867","locality":"Briedel","municipality":{"key":"07135013","name":"Briedel","type":"Kreisangehörige_Gemeinde"},"district":{"key":"07135","name":"Cochem-Zell","type":"Landkreis"},"federalState":{"key":"07","name":"Rheinland-Pfalz"}},{"name":"BR 2 / 6","postalCode":"56867","locality":"Briedel","municipality":{"key":"07135013","name":"Briedel","type":"Kreisangehörige_Gemeinde"},"district":{"key":"07135","name":"Cochem-Zell","type":"Landkreis"},"federalState":{"key":"07","name":"Rheinland-Pfalz"}},{"name":"BR 5","postalCode":"56867","locality":"Briedel","municipality":{"key":"07135013","name":"Briedel","type":"Kreisangehörige_Gemeinde"},"district":{"key":"07135","name":"Cochem-Zell","type":"Landkreis"},"federalState":{"key":"07","name":"Rheinland-Pfalz"}},{"name":"Bracher Weg","postalCode":"56867","locality":"Briedel","municipality":{"key":"07135013","name":"Briedel","type":"Kreisangehörige_Gemeinde"},"district":{"key":"07135","name":"Cochem-Zell","type":"Landkreis"},"federalState":{"key":"07","name":"Rheinland-Pfalz"}},{"name":"Brunnenplatz","postalCode":"56867","locality":"Briedel","municipality":{"key":"07135013","name":"Briedel","type":"Kreisangehörige_Gemeinde"},"district":{"key":"07135","name":"Cochem-Zell","type":"Landkreis"},"federalState":{"key":"07","name":"Rheinland-Pfalz"}},{"name":"Bummkopf","postalCode":"56867","locality":"Briedel","municipality":{"key":"07135013","name":"Briedel","type":"Kreisangehörige_Gemeinde"},"district":{"key":"07135","name":"Cochem-Zell","type":"Landkreis"},"federalState":{"key":"07","name":"Rheinland-Pfalz"}},{"name":"Burgunderweg","postalCode":"56867","locality":"Briedel","municipality":{"key":"07135013","name":"Briedel","type":"Kreisangehörige_Gemeinde"},"district":{"key":"07135","name":"Cochem-Zell","type":"Landkreis"},"federalState":{"key":"07","name":"Rheinland-Pfalz"}},{"name":"Eltzerhofstr.","postalCode":"56867","locality":"Briedel","municipality":{"key":"07135013","name":"Briedel","type":"Kreisangehörige_Gemeinde"},"district":{"key":"07135","name":"Cochem-Zell","type":"Landkreis"},"federalState":{"key":"07","name":"Rheinland-Pfalz"}},{"name":"Friedhofsweg","postalCode":"56867","locality":"Briedel","municipality":{"key":"07135013","name":"Briedel","type":"Kreisangehörige_Gemeinde"},"district":{"key":"07135","name":"Cochem-Zell","type":"Landkreis"},"federalState":{"key":"07","name":"Rheinland-Pfalz"}},{"name":"Gartenstr.","postalCode":"56867","locality":"Briedel","municipality":{"key":"07135013","name":"Briedel","type":"Kreisangehörige_Gemeinde"},"district":{"key":"07135","name":"Cochem-Zell","type":"Landkreis"},"federalState":{"key":"07","name":"Rheinland-Pfalz"}},{"name":"Graf-Salm-Str.","postalCode":"56867","locality":"Briedel","municipality":{"key":"07135013","name":"Briedel","type":"Kreisangehörige_Gemeinde"},"district":{"key":"07135","name":"Cochem-Zell","type":"Landkreis"},"federalState":{"key":"07","name":"Rheinland-Pfalz"}},{"name":"Hauptstr.","postalCode":"56867","locality":"Briedel","municipality":{"key":"07135013","name":"Briedel","type":"Kreisangehörige_Gemeinde"},"district":{"key":"07135","name":"Cochem-Zell","type":"Landkreis"},"federalState":{"key":"07","name":"Rheinland-Pfalz"}},{"name":"Himmeroderstr.","postalCode":"56867","locality":"Briedel","municipality":{"key":"07135013","name":"Briedel","type":"Kreisangehörige_Gemeinde"},"district":{"key":"07135","name":"Cochem-Zell","type":"Landkreis"},"federalState":{"key":"07","name":"Rheinland-Pfalz"}},{"name":"Im Garten","postalCode":"56867","locality":"Briedel","municipality":{"key":"07135013","name":"Briedel","type":"Kreisangehörige_Gemeinde"},"district":{"key":"07135","name":"Cochem-Zell","type":"Landkreis"},"federalState":{"key":"07","name":"Rheinland-Pfalz"}},{"name":"Im Kordel","postalCode":"56867","locality":"Briedel","municipality":{"key":"07135013","name":"Briedel","type":"Kreisangehörige_Gemeinde"},"district":{"key":"07135","name":"Cochem-Zell","type":"Landkreis"},"federalState":{"key":"07","name":"Rheinland-Pfalz"}},{"name":"Im Wallgraben","postalCode":"56867","locality":"Briedel","municipality":{"key":"07135013","name":"Briedel","type":"Kreisangehörige_Gemeinde"},"district":{"key":"07135","name":"Cochem-Zell","type":"Landkreis"},"federalState":{"key":"07","name":"Rheinland-Pfalz"}},{"name":"Im Weingarten","postalCode":"56867","locality":"Briedel","municipality":{"key":"07135013","name":"Briedel","type":"Kreisangehörige_Gemeinde"},"district":{"key":"07135","name":"Cochem-Zell","type":"Landkreis"},"federalState":{"key":"07","name":"Rheinland-Pfalz"}},{"name":"Moselallee","postalCode":"56867","locality":"Briedel","municipality":{"key":"07135013","name":"Briedel","type":"Kreisangehörige_Gemeinde"},"district":{"key":"07135","name":"Cochem-Zell","type":"Landkreis"},"federalState":{"key":"07","name":"Rheinland-Pfalz"}},{"name":"Moselstr.","postalCode":"56867","locality":"Briedel","municipality":{"key":"07135013","name":"Briedel","type":"Kreisangehörige_Gemeinde"},"district":{"key":"07135","name":"Cochem-Zell","type":"Landkreis"},"federalState":{"key":"07","name":"Rheinland-Pfalz"}},{"name":"Römerstr.","postalCode":"56867","locality":"Briedel","municipality":{"key":"07135013","name":"Briedel","type":"Kreisangehörige_Gemeinde"},"district":{"key":"07135","name":"Cochem-Zell","type":"Landkreis"},"federalState":{"key":"07","name":"Rheinland-Pfalz"}},{"name":"Schneiders Gang","postalCode":"56867","locality":"Briedel","municipality":{"key":"07135013","name":"Briedel","type":"Kreisangehörige_Gemeinde"},"district":{"key":"07135","name":"Cochem-Zell","type":"Landkreis"},"federalState":{"key":"07","name":"Rheinland-Pfalz"}},{"name":"Springiersbacherstr.","postalCode":"56867","locality":"Briedel","municipality":{"key":"07135013","name":"Briedel","type":"Kreisangehörige_Gemeinde"},"district":{"key":"07135","name":"Cochem-Zell","type":"Landkreis"},"federalState":{"key":"07","name":"Rheinland-Pfalz"}},{"name":"St.-Martin-Weg","postalCode":"56867","locality":"Briedel","municipality":{"key":"07135013","name":"Briedel","type":"Kreisangehörige_Gemeinde"},"district":{"key":"07135","name":"Cochem-Zell","type":"Landkreis"},"federalState":{"key":"07","name":"Rheinland-Pfalz"}},{"name":"Sündstr.","postalCode":"56867","locality":"Briedel","municipality":{"key":"07135013","name":"Briedel","type":"Kreisangehörige_Gemeinde"},"district":{"key":"07135","name":"Cochem-Zell","type":"Landkreis"},"federalState":{"key":"07","name":"Rheinland-Pfalz"}},{"name":"Wanderweg Briedel B1","postalCode":"56867","locality":"Briedel","municipality":{"key":"07135013","name":"Briedel","type":"Kreisangehörige_Gemeinde"},"district":{"key":"07135","name":"Cochem-Zell","type":"Landkreis"},"federalState":{"key":"07","name":"Rheinland-Pfalz"}},{"name":"Zehntstr.","postalCode":"56867","locality":"Briedel","municipality":{"key":"07135013","name":"Briedel","type":"Kreisangehörige_Gemeinde"},"district":{"key":"07135","name":"Cochem-Zell","type":"Landkreis"},"federalState":{"key":"07","name":"Rheinland-Pfalz"}},]