[{"name":"Ackerstr.","postalCode":"03253","locality":"Doberlug-Kirchhain","municipality":{"key":"12062092","name":"Doberlug-Kirchhain, Stadt","type":"Stadt"},"district":{"key":"12062","name":"Elbe-Elster","type":"Landkreis"},"federalState":{"key":"12","name":"Brandenburg"}},{"name":"Akazienweg","postalCode":"03253","locality":"Doberlug-Kirchhain","municipality":{"key":"12062092","name":"Doberlug-Kirchhain, Stadt","type":"Stadt"},"district":{"key":"12062","name":"Elbe-Elster","type":"Landkreis"},"federalState":{"key":"12","name":"Brandenburg"}},{"name":"Allendorfer Str.","postalCode":"35274","locality":"Kirchhain","municipality":{"key":"06534011","name":"Kirchhain, Stadt","type":"Stadt"},"district":{"key":"06534","name":"Marburg-Biedenkopf","type":"Landkreis"},"federalState":{"key":"06","name":"Hessen"}},{"name":"Alsfelder Str.","postalCode":"35274","locality":"Kirchhain","municipality":{"key":"06534011","name":"Kirchhain, Stadt","type":"Stadt"},"district":{"key":"06534","name":"Marburg-Biedenkopf","type":"Landkreis"},"federalState":{"key":"06","name":"Hessen"}},{"name":"Alte Herzberger Str.","postalCode":"03253","locality":"Doberlug-Kirchhain","municipality":{"key":"12062092","name":"Doberlug-Kirchhain, Stadt","type":"Stadt"},"district":{"key":"12062","name":"Elbe-Elster","type":"Landkreis"},"federalState":{"key":"12","name":"Brandenburg"}},{"name":"Alte Kirchhainer Str.","postalCode":"03253","locality":"Doberlug-Kirchhain","municipality":{"key":"12062092","name":"Doberlug-Kirchhain, Stadt","type":"Stadt"},"district":{"key":"12062","name":"Elbe-Elster","type":"Landkreis"},"federalState":{"key":"12","name":"Brandenburg"}},{"name":"Alte Kreisstr.","postalCode":"35274","locality":"Kirchhain","municipality":{"key":"06534011","name":"Kirchhain, Stadt","type":"Stadt"},"district":{"key":"06534","name":"Marburg-Biedenkopf","type":"Landkreis"},"federalState":{"key":"06","name":"Hessen"}},{"name":"Alte Poststr.","postalCode":"03253","locality":"Doberlug-Kirchhain","municipality":{"key":"12062092","name":"Doberlug-Kirchhain, Stadt","type":"Stadt"},"district":{"key":"12062","name":"Elbe-Elster","type":"Landkreis"},"federalState":{"key":"12","name":"Brandenburg"}},{"name":"Alter Garten","postalCode":"35274","locality":"Kirchhain","municipality":{"key":"06534011","name":"Kirchhain, Stadt","type":"Stadt"},"district":{"key":"06534","name":"Marburg-Biedenkopf","type":"Landkreis"},"federalState":{"key":"06","name":"Hessen"}},{"name":"Alter Kirchweg","postalCode":"35274","locality":"Kirchhain","municipality":{"key":"06534011","name":"Kirchhain, Stadt","type":"Stadt"},"district":{"key":"06534","name":"Marburg-Biedenkopf","type":"Landkreis"},"federalState":{"key":"06","name":"Hessen"}},{"name":"Alte Schulstr.","postalCode":"35274","locality":"Kirchhain","municipality":{"key":"06534011","name":"Kirchhain, Stadt","type":"Stadt"},"district":{"key":"06534","name":"Marburg-Biedenkopf","type":"Landkreis"},"federalState":{"key":"06","name":"Hessen"}},{"name":"Alte Seite","postalCode":"35274","locality":"Kirchhain","municipality":{"key":"06534011","name":"Kirchhain, Stadt","type":"Stadt"},"district":{"key":"06534","name":"Marburg-Biedenkopf","type":"Landkreis"},"federalState":{"key":"06","name":"Hessen"}},{"name":"Am Amöneburger Tor","postalCode":"35274","locality":"Kirchhain","municipality":{"key":"06534011","name":"Kirchhain, Stadt","type":"Stadt"},"district":{"key":"06534","name":"Marburg-Biedenkopf","type":"Landkreis"},"federalState":{"key":"06","name":"Hessen"}},{"name":"Am Bachgraben","postalCode":"35274","locality":"Kirchhain","municipality":{"key":"06534011","name":"Kirchhain, Stadt","type":"Stadt"},"district":{"key":"06534","name":"Marburg-Biedenkopf","type":"Landkreis"},"federalState":{"key":"06","name":"Hessen"}},{"name":"Am Bahnhof","postalCode":"35274","locality":"Kirchhain","municipality":{"key":"06534011","name":"Kirchhain, Stadt","type":"Stadt"},"district":{"key":"06534","name":"Marburg-Biedenkopf","type":"Landkreis"},"federalState":{"key":"06","name":"Hessen"}},{"name":"Am Bildstock","postalCode":"35274","locality":"Kirchhain","municipality":{"key":"06534011","name":"Kirchhain, Stadt","type":"Stadt"},"district":{"key":"06534","name":"Marburg-Biedenkopf","type":"Landkreis"},"federalState":{"key":"06","name":"Hessen"}},{"name":"Am Bornacker","postalCode":"35274","locality":"Kirchhain","municipality":{"key":"06534011","name":"Kirchhain, Stadt","type":"Stadt"},"district":{"key":"06534","name":"Marburg-Biedenkopf","type":"Landkreis"},"federalState":{"key":"06","name":"Hessen"}},{"name":"Am Brauhaus","postalCode":"35274","locality":"Kirchhain","municipality":{"key":"06534011","name":"Kirchhain, Stadt","type":"Stadt"},"district":{"key":"06534","name":"Marburg-Biedenkopf","type":"Landkreis"},"federalState":{"key":"06","name":"Hessen"}},{"name":"Am Buchholz","postalCode":"35274","locality":"Kirchhain","municipality":{"key":"06534011","name":"Kirchhain, Stadt","type":"Stadt"},"district":{"key":"06534","name":"Marburg-Biedenkopf","type":"Landkreis"},"federalState":{"key":"06","name":"Hessen"}},{"name":"Am Burgsgraben","postalCode":"35274","locality":"Kirchhain","municipality":{"key":"06534011","name":"Kirchhain, Stadt","type":"Stadt"},"district":{"key":"06534","name":"Marburg-Biedenkopf","type":"Landkreis"},"federalState":{"key":"06","name":"Hessen"}},{"name":"Am Dorfbrunnen","postalCode":"35274","locality":"Kirchhain","municipality":{"key":"06534011","name":"Kirchhain, Stadt","type":"Stadt"},"district":{"key":"06534","name":"Marburg-Biedenkopf","type":"Landkreis"},"federalState":{"key":"06","name":"Hessen"}},{"name":"Am Dorfplatz","postalCode":"35274","locality":"Kirchhain","municipality":{"key":"06534011","name":"Kirchhain, Stadt","type":"Stadt"},"district":{"key":"06534","name":"Marburg-Biedenkopf","type":"Landkreis"},"federalState":{"key":"06","name":"Hessen"}},{"name":"Am Dornbusch","postalCode":"35274","locality":"Kirchhain","municipality":{"key":"06534011","name":"Kirchhain, Stadt","type":"Stadt"},"district":{"key":"06534","name":"Marburg-Biedenkopf","type":"Landkreis"},"federalState":{"key":"06","name":"Hessen"}},{"name":"Am Ebertshäuschen","postalCode":"35274","locality":"Kirchhain","municipality":{"key":"06534011","name":"Kirchhain, Stadt","type":"Stadt"},"district":{"key":"06534","name":"Marburg-Biedenkopf","type":"Landkreis"},"federalState":{"key":"06","name":"Hessen"}},{"name":"Am Eichbrunnen","postalCode":"35274","locality":"Kirchhain","municipality":{"key":"06534011","name":"Kirchhain, Stadt","type":"Stadt"},"district":{"key":"06534","name":"Marburg-Biedenkopf","type":"Landkreis"},"federalState":{"key":"06","name":"Hessen"}},{"name":"Am Eichfeld","postalCode":"35274","locality":"Kirchhain","municipality":{"key":"06534011","name":"Kirchhain, Stadt","type":"Stadt"},"district":{"key":"06534","name":"Marburg-Biedenkopf","type":"Landkreis"},"federalState":{"key":"06","name":"Hessen"}},{"name":"Am Fliederbusch","postalCode":"35274","locality":"Kirchhain","municipality":{"key":"06534011","name":"Kirchhain, Stadt","type":"Stadt"},"district":{"key":"06534","name":"Marburg-Biedenkopf","type":"Landkreis"},"federalState":{"key":"06","name":"Hessen"}},{"name":"Am Flutgraben","postalCode":"03253","locality":"Doberlug-Kirchhain","municipality":{"key":"12062092","name":"Doberlug-Kirchhain, Stadt","type":"Stadt"},"district":{"key":"12062","name":"Elbe-Elster","type":"Landkreis"},"federalState":{"key":"12","name":"Brandenburg"}},{"name":"Am Forsthaus","postalCode":"35274","locality":"Kirchhain","municipality":{"key":"06534011","name":"Kirchhain, Stadt","type":"Stadt"},"district":{"key":"06534","name":"Marburg-Biedenkopf","type":"Landkreis"},"federalState":{"key":"06","name":"Hessen"}},{"name":"Am Friedhof","postalCode":"35274","locality":"Kirchhain","municipality":{"key":"06534011","name":"Kirchhain, Stadt","type":"Stadt"},"district":{"key":"06534","name":"Marburg-Biedenkopf","type":"Landkreis"},"federalState":{"key":"06","name":"Hessen"}},{"name":"Am Fulgensgraben","postalCode":"03253","locality":"Doberlug-Kirchhain","municipality":{"key":"12062092","name":"Doberlug-Kirchhain, Stadt","type":"Stadt"},"district":{"key":"12062","name":"Elbe-Elster","type":"Landkreis"},"federalState":{"key":"12","name":"Brandenburg"}},{"name":"Am Gemeinschaftshaus","postalCode":"35274","locality":"Kirchhain","municipality":{"key":"06534011","name":"Kirchhain, Stadt","type":"Stadt"},"district":{"key":"06534","name":"Marburg-Biedenkopf","type":"Landkreis"},"federalState":{"key":"06","name":"Hessen"}},{"name":"Am Graben","postalCode":"03253","locality":"Doberlug-Kirchhain","municipality":{"key":"12062092","name":"Doberlug-Kirchhain, Stadt","type":"Stadt"},"district":{"key":"12062","name":"Elbe-Elster","type":"Landkreis"},"federalState":{"key":"12","name":"Brandenburg"}},{"name":"Am Graben","postalCode":"35274","locality":"Kirchhain","municipality":{"key":"06534011","name":"Kirchhain, Stadt","type":"Stadt"},"district":{"key":"06534","name":"Marburg-Biedenkopf","type":"Landkreis"},"federalState":{"key":"06","name":"Hessen"}},{"name":"Am Grainersberg","postalCode":"35274","locality":"Kirchhain","municipality":{"key":"06534011","name":"Kirchhain, Stadt","type":"Stadt"},"district":{"key":"06534","name":"Marburg-Biedenkopf","type":"Landkreis"},"federalState":{"key":"06","name":"Hessen"}},{"name":"Am Grün","postalCode":"35274","locality":"Kirchhain","municipality":{"key":"06534011","name":"Kirchhain, Stadt","type":"Stadt"},"district":{"key":"06534","name":"Marburg-Biedenkopf","type":"Landkreis"},"federalState":{"key":"06","name":"Hessen"}},{"name":"Am Hagwall","postalCode":"03253","locality":"Doberlug-Kirchhain","municipality":{"key":"12062092","name":"Doberlug-Kirchhain, Stadt","type":"Stadt"},"district":{"key":"12062","name":"Elbe-Elster","type":"Landkreis"},"federalState":{"key":"12","name":"Brandenburg"}},{"name":"Am Hallenbad","postalCode":"35274","locality":"Kirchhain","municipality":{"key":"06534011","name":"Kirchhain, Stadt","type":"Stadt"},"district":{"key":"06534","name":"Marburg-Biedenkopf","type":"Landkreis"},"federalState":{"key":"06","name":"Hessen"}},{"name":"Am Hamert","postalCode":"35274","locality":"Kirchhain","municipality":{"key":"06534011","name":"Kirchhain, Stadt","type":"Stadt"},"district":{"key":"06534","name":"Marburg-Biedenkopf","type":"Landkreis"},"federalState":{"key":"06","name":"Hessen"}},{"name":"Am Hang","postalCode":"35274","locality":"Kirchhain","municipality":{"key":"06534011","name":"Kirchhain, Stadt","type":"Stadt"},"district":{"key":"06534","name":"Marburg-Biedenkopf","type":"Landkreis"},"federalState":{"key":"06","name":"Hessen"}},{"name":"Am Hard","postalCode":"03253","locality":"Doberlug-Kirchhain","municipality":{"key":"12062092","name":"Doberlug-Kirchhain, Stadt","type":"Stadt"},"district":{"key":"12062","name":"Elbe-Elster","type":"Landkreis"},"federalState":{"key":"12","name":"Brandenburg"}},{"name":"Am Hegestrauch","postalCode":"35274","locality":"Kirchhain","municipality":{"key":"06534011","name":"Kirchhain, Stadt","type":"Stadt"},"district":{"key":"06534","name":"Marburg-Biedenkopf","type":"Landkreis"},"federalState":{"key":"06","name":"Hessen"}},{"name":"Am Helgehaus","postalCode":"35274","locality":"Kirchhain","municipality":{"key":"06534011","name":"Kirchhain, Stadt","type":"Stadt"},"district":{"key":"06534","name":"Marburg-Biedenkopf","type":"Landkreis"},"federalState":{"key":"06","name":"Hessen"}},{"name":"Am Hexenturm","postalCode":"35274","locality":"Kirchhain","municipality":{"key":"06534011","name":"Kirchhain, Stadt","type":"Stadt"},"district":{"key":"06534","name":"Marburg-Biedenkopf","type":"Landkreis"},"federalState":{"key":"06","name":"Hessen"}},{"name":"Am Heydwolf","postalCode":"35274","locality":"Kirchhain","municipality":{"key":"06534011","name":"Kirchhain, Stadt","type":"Stadt"},"district":{"key":"06534","name":"Marburg-Biedenkopf","type":"Landkreis"},"federalState":{"key":"06","name":"Hessen"}},{"name":"Am Hirtgarten","postalCode":"35274","locality":"Kirchhain","municipality":{"key":"06534011","name":"Kirchhain, Stadt","type":"Stadt"},"district":{"key":"06534","name":"Marburg-Biedenkopf","type":"Landkreis"},"federalState":{"key":"06","name":"Hessen"}},{"name":"Am Hohen Steig","postalCode":"03253","locality":"Doberlug-Kirchhain","municipality":{"key":"12062092","name":"Doberlug-Kirchhain, Stadt","type":"Stadt"},"district":{"key":"12062","name":"Elbe-Elster","type":"Landkreis"},"federalState":{"key":"12","name":"Brandenburg"}},{"name":"Am Holderstrauch","postalCode":"35274","locality":"Kirchhain","municipality":{"key":"06534011","name":"Kirchhain, Stadt","type":"Stadt"},"district":{"key":"06534","name":"Marburg-Biedenkopf","type":"Landkreis"},"federalState":{"key":"06","name":"Hessen"}},{"name":"Am Homberg","postalCode":"35274","locality":"Kirchhain","municipality":{"key":"06534011","name":"Kirchhain, Stadt","type":"Stadt"},"district":{"key":"06534","name":"Marburg-Biedenkopf","type":"Landkreis"},"federalState":{"key":"06","name":"Hessen"}},{"name":"Am Honbach","postalCode":"35274","locality":"Kirchhain","municipality":{"key":"06534011","name":"Kirchhain, Stadt","type":"Stadt"},"district":{"key":"06534","name":"Marburg-Biedenkopf","type":"Landkreis"},"federalState":{"key":"06","name":"Hessen"}},{"name":"Bachstr.","postalCode":"35274","locality":"Kirchhain","municipality":{"key":"06534011","name":"Kirchhain, Stadt","type":"Stadt"},"district":{"key":"06534","name":"Marburg-Biedenkopf","type":"Landkreis"},"federalState":{"key":"06","name":"Hessen"}},{"name":"Bahnhofsallee","postalCode":"03253","locality":"Doberlug-Kirchhain","municipality":{"key":"12062092","name":"Doberlug-Kirchhain, Stadt","type":"Stadt"},"district":{"key":"12062","name":"Elbe-Elster","type":"Landkreis"},"federalState":{"key":"12","name":"Brandenburg"}},{"name":"Bahnhofstr.","postalCode":"03253","locality":"Doberlug-Kirchhain","municipality":{"key":"12062092","name":"Doberlug-Kirchhain, Stadt","type":"Stadt"},"district":{"key":"12062","name":"Elbe-Elster","type":"Landkreis"},"federalState":{"key":"12","name":"Brandenburg"}},{"name":"Bahnhofstr.","postalCode":"35274","locality":"Kirchhain","municipality":{"key":"06534011","name":"Kirchhain, Stadt","type":"Stadt"},"district":{"key":"06534","name":"Marburg-Biedenkopf","type":"Landkreis"},"federalState":{"key":"06","name":"Hessen"}},{"name":"Bärfangweg","postalCode":"03253","locality":"Doberlug-Kirchhain","municipality":{"key":"12062092","name":"Doberlug-Kirchhain, Stadt","type":"Stadt"},"district":{"key":"12062","name":"Elbe-Elster","type":"Landkreis"},"federalState":{"key":"12","name":"Brandenburg"}},{"name":"Baumschulenweg","postalCode":"03253","locality":"Doberlug-Kirchhain","municipality":{"key":"12062092","name":"Doberlug-Kirchhain, Stadt","type":"Stadt"},"district":{"key":"12062","name":"Elbe-Elster","type":"Landkreis"},"federalState":{"key":"12","name":"Brandenburg"}},{"name":"Beethovenstr.","postalCode":"35274","locality":"Kirchhain","municipality":{"key":"06534011","name":"Kirchhain, Stadt","type":"Stadt"},"district":{"key":"06534","name":"Marburg-Biedenkopf","type":"Landkreis"},"federalState":{"key":"06","name":"Hessen"}},{"name":"Bei der Papiermühle","postalCode":"35274","locality":"Kirchhain","municipality":{"key":"06534011","name":"Kirchhain, Stadt","type":"Stadt"},"district":{"key":"06534","name":"Marburg-Biedenkopf","type":"Landkreis"},"federalState":{"key":"06","name":"Hessen"}},{"name":"Bergstr.","postalCode":"35274","locality":"Kirchhain","municipality":{"key":"06534011","name":"Kirchhain, Stadt","type":"Stadt"},"district":{"key":"06534","name":"Marburg-Biedenkopf","type":"Landkreis"},"federalState":{"key":"06","name":"Hessen"}},{"name":"Berliner Str.","postalCode":"35274","locality":"Kirchhain","municipality":{"key":"06534011","name":"Kirchhain, Stadt","type":"Stadt"},"district":{"key":"06534","name":"Marburg-Biedenkopf","type":"Landkreis"},"federalState":{"key":"06","name":"Hessen"}},{"name":"Bertolt-Brecht-Str.","postalCode":"35274","locality":"Kirchhain","municipality":{"key":"06534011","name":"Kirchhain, Stadt","type":"Stadt"},"district":{"key":"06534","name":"Marburg-Biedenkopf","type":"Landkreis"},"federalState":{"key":"06","name":"Hessen"}},{"name":"Bertram-Schaefer-Str.","postalCode":"35274","locality":"Kirchhain","municipality":{"key":"06534011","name":"Kirchhain, Stadt","type":"Stadt"},"district":{"key":"06534","name":"Marburg-Biedenkopf","type":"Landkreis"},"federalState":{"key":"06","name":"Hessen"}},{"name":"Biegenstr.","postalCode":"35274","locality":"Kirchhain","municipality":{"key":"06534011","name":"Kirchhain, Stadt","type":"Stadt"},"district":{"key":"06534","name":"Marburg-Biedenkopf","type":"Landkreis"},"federalState":{"key":"06","name":"Hessen"}},{"name":"Birkenhof","postalCode":"35274","locality":"Kirchhain","municipality":{"key":"06534011","name":"Kirchhain, Stadt","type":"Stadt"},"district":{"key":"06534","name":"Marburg-Biedenkopf","type":"Landkreis"},"federalState":{"key":"06","name":"Hessen"}},{"name":"Birkenstr.","postalCode":"35274","locality":"Kirchhain","municipality":{"key":"06534011","name":"Kirchhain, Stadt","type":"Stadt"},"district":{"key":"06534","name":"Marburg-Biedenkopf","type":"Landkreis"},"federalState":{"key":"06","name":"Hessen"}},{"name":"Blaue Pfütze","postalCode":"35274","locality":"Kirchhain","municipality":{"key":"06534011","name":"Kirchhain, Stadt","type":"Stadt"},"district":{"key":"06534","name":"Marburg-Biedenkopf","type":"Landkreis"},"federalState":{"key":"06","name":"Hessen"}},{"name":"Blumenstr.","postalCode":"35274","locality":"Kirchhain","municipality":{"key":"06534011","name":"Kirchhain, Stadt","type":"Stadt"},"district":{"key":"06534","name":"Marburg-Biedenkopf","type":"Landkreis"},"federalState":{"key":"06","name":"Hessen"}},{"name":"Blumenweg","postalCode":"35274","locality":"Kirchhain","municipality":{"key":"06534011","name":"Kirchhain, Stadt","type":"Stadt"},"district":{"key":"06534","name":"Marburg-Biedenkopf","type":"Landkreis"},"federalState":{"key":"06","name":"Hessen"}},{"name":"Bodenbacher Weg","postalCode":"35274","locality":"Kirchhain","municipality":{"key":"06534011","name":"Kirchhain, Stadt","type":"Stadt"},"district":{"key":"06534","name":"Marburg-Biedenkopf","type":"Landkreis"},"federalState":{"key":"06","name":"Hessen"}},{"name":"Bogenstr.","postalCode":"35274","locality":"Kirchhain","municipality":{"key":"06534011","name":"Kirchhain, Stadt","type":"Stadt"},"district":{"key":"06534","name":"Marburg-Biedenkopf","type":"Landkreis"},"federalState":{"key":"06","name":"Hessen"}},{"name":"Bonifatiusweg","postalCode":"35274","locality":"Kirchhain","municipality":{"key":"06534011","name":"Kirchhain, Stadt","type":"Stadt"},"district":{"key":"06534","name":"Marburg-Biedenkopf","type":"Landkreis"},"federalState":{"key":"06","name":"Hessen"}},{"name":"Bornackerweg","postalCode":"35274","locality":"Kirchhain","municipality":{"key":"06534011","name":"Kirchhain, Stadt","type":"Stadt"},"district":{"key":"06534","name":"Marburg-Biedenkopf","type":"Landkreis"},"federalState":{"key":"06","name":"Hessen"}},{"name":"Borngasse","postalCode":"35274","locality":"Kirchhain","municipality":{"key":"06534011","name":"Kirchhain, Stadt","type":"Stadt"},"district":{"key":"06534","name":"Marburg-Biedenkopf","type":"Landkreis"},"federalState":{"key":"06","name":"Hessen"}},{"name":"Bornstr.","postalCode":"35274","locality":"Kirchhain","municipality":{"key":"06534011","name":"Kirchhain, Stadt","type":"Stadt"},"district":{"key":"06534","name":"Marburg-Biedenkopf","type":"Landkreis"},"federalState":{"key":"06","name":"Hessen"}},{"name":"Brandenburger Str.","postalCode":"35274","locality":"Kirchhain","municipality":{"key":"06534011","name":"Kirchhain, Stadt","type":"Stadt"},"district":{"key":"06534","name":"Marburg-Biedenkopf","type":"Landkreis"},"federalState":{"key":"06","name":"Hessen"}},{"name":"Brauhausgasse","postalCode":"03253","locality":"Doberlug-Kirchhain","municipality":{"key":"12062092","name":"Doberlug-Kirchhain, Stadt","type":"Stadt"},"district":{"key":"12062","name":"Elbe-Elster","type":"Landkreis"},"federalState":{"key":"12","name":"Brandenburg"}},{"name":"Brauhausstr.","postalCode":"03253","locality":"Doberlug-Kirchhain","municipality":{"key":"12062092","name":"Doberlug-Kirchhain, Stadt","type":"Stadt"},"district":{"key":"12062","name":"Elbe-Elster","type":"Landkreis"},"federalState":{"key":"12","name":"Brandenburg"}},{"name":"Breslauer Str.","postalCode":"35274","locality":"Kirchhain","municipality":{"key":"06534011","name":"Kirchhain, Stadt","type":"Stadt"},"district":{"key":"06534","name":"Marburg-Biedenkopf","type":"Landkreis"},"federalState":{"key":"06","name":"Hessen"}},{"name":"Brießelstr.","postalCode":"35274","locality":"Kirchhain","municipality":{"key":"06534011","name":"Kirchhain, Stadt","type":"Stadt"},"district":{"key":"06534","name":"Marburg-Biedenkopf","type":"Landkreis"},"federalState":{"key":"06","name":"Hessen"}},{"name":"Brückenstr.","postalCode":"35274","locality":"Kirchhain","municipality":{"key":"06534011","name":"Kirchhain, Stadt","type":"Stadt"},"district":{"key":"06534","name":"Marburg-Biedenkopf","type":"Landkreis"},"federalState":{"key":"06","name":"Hessen"}},{"name":"Brüder-Grimm-Str.","postalCode":"35274","locality":"Kirchhain","municipality":{"key":"06534011","name":"Kirchhain, Stadt","type":"Stadt"},"district":{"key":"06534","name":"Marburg-Biedenkopf","type":"Landkreis"},"federalState":{"key":"06","name":"Hessen"}},{"name":"Brunnenstr.","postalCode":"35274","locality":"Kirchhain","municipality":{"key":"06534011","name":"Kirchhain, Stadt","type":"Stadt"},"district":{"key":"06534","name":"Marburg-Biedenkopf","type":"Landkreis"},"federalState":{"key":"06","name":"Hessen"}},{"name":"Brunnenweg","postalCode":"35274","locality":"Kirchhain","municipality":{"key":"06534011","name":"Kirchhain, Stadt","type":"Stadt"},"district":{"key":"06534","name":"Marburg-Biedenkopf","type":"Landkreis"},"federalState":{"key":"06","name":"Hessen"}},{"name":"Buchenweg","postalCode":"35274","locality":"Kirchhain","municipality":{"key":"06534011","name":"Kirchhain, Stadt","type":"Stadt"},"district":{"key":"06534","name":"Marburg-Biedenkopf","type":"Landkreis"},"federalState":{"key":"06","name":"Hessen"}},{"name":"Buchfinkenweg","postalCode":"35274","locality":"Kirchhain","municipality":{"key":"06534011","name":"Kirchhain, Stadt","type":"Stadt"},"district":{"key":"06534","name":"Marburg-Biedenkopf","type":"Landkreis"},"federalState":{"key":"06","name":"Hessen"}},{"name":"Buchhainer Mittelstr.","postalCode":"03253","locality":"Doberlug-Kirchhain","municipality":{"key":"12062092","name":"Doberlug-Kirchhain, Stadt","type":"Stadt"},"district":{"key":"12062","name":"Elbe-Elster","type":"Landkreis"},"federalState":{"key":"12","name":"Brandenburg"}},{"name":"Buchhainer Str.","postalCode":"03253","locality":"Doberlug-Kirchhain","municipality":{"key":"12062092","name":"Doberlug-Kirchhain, Stadt","type":"Stadt"},"district":{"key":"12062","name":"Elbe-Elster","type":"Landkreis"},"federalState":{"key":"12","name":"Brandenburg"}},{"name":"Buchhain Mittelstr.","postalCode":"03253","locality":"Doberlug-Kirchhain","municipality":{"key":"12062092","name":"Doberlug-Kirchhain, Stadt","type":"Stadt"},"district":{"key":"12062","name":"Elbe-Elster","type":"Landkreis"},"federalState":{"key":"12","name":"Brandenburg"}},{"name":"Buchleideweg","postalCode":"35274","locality":"Kirchhain","municipality":{"key":"06534011","name":"Kirchhain, Stadt","type":"Stadt"},"district":{"key":"06534","name":"Marburg-Biedenkopf","type":"Landkreis"},"federalState":{"key":"06","name":"Hessen"}},{"name":"Burgholzer Str.","postalCode":"35274","locality":"Kirchhain","municipality":{"key":"06534011","name":"Kirchhain, Stadt","type":"Stadt"},"district":{"key":"06534","name":"Marburg-Biedenkopf","type":"Landkreis"},"federalState":{"key":"06","name":"Hessen"}},{"name":"Burgweg","postalCode":"35274","locality":"Kirchhain","municipality":{"key":"06534011","name":"Kirchhain, Stadt","type":"Stadt"},"district":{"key":"06534","name":"Marburg-Biedenkopf","type":"Landkreis"},"federalState":{"key":"06","name":"Hessen"}},{"name":"Buschhornweg","postalCode":"35274","locality":"Kirchhain","municipality":{"key":"06534011","name":"Kirchhain, Stadt","type":"Stadt"},"district":{"key":"06534","name":"Marburg-Biedenkopf","type":"Landkreis"},"federalState":{"key":"06","name":"Hessen"}},{"name":"Buschmühle","postalCode":"03253","locality":"Doberlug-Kirchhain","municipality":{"key":"12062092","name":"Doberlug-Kirchhain, Stadt","type":"Stadt"},"district":{"key":"12062","name":"Elbe-Elster","type":"Landkreis"},"federalState":{"key":"12","name":"Brandenburg"}},{"name":"Carl-Maria-von-Weber-Str.","postalCode":"35274","locality":"Kirchhain","municipality":{"key":"06534011","name":"Kirchhain, Stadt","type":"Stadt"},"district":{"key":"06534","name":"Marburg-Biedenkopf","type":"Landkreis"},"federalState":{"key":"06","name":"Hessen"}},{"name":"Caspar-Preis-Weg","postalCode":"35274","locality":"Kirchhain","municipality":{"key":"06534011","name":"Kirchhain, Stadt","type":"Stadt"},"district":{"key":"06534","name":"Marburg-Biedenkopf","type":"Landkreis"},"federalState":{"key":"06","name":"Hessen"}},{"name":"Chemnitzer Str.","postalCode":"35274","locality":"Kirchhain","municipality":{"key":"06534011","name":"Kirchhain, Stadt","type":"Stadt"},"district":{"key":"06534","name":"Marburg-Biedenkopf","type":"Landkreis"},"federalState":{"key":"06","name":"Hessen"}},{"name":"Clara-Schumann-Str.","postalCode":"35274","locality":"Kirchhain","municipality":{"key":"06534011","name":"Kirchhain, Stadt","type":"Stadt"},"district":{"key":"06534","name":"Marburg-Biedenkopf","type":"Landkreis"},"federalState":{"key":"06","name":"Hessen"}},{"name":"Clemens-Bretano-Str.","postalCode":"35274","locality":"Kirchhain","municipality":{"key":"06534011","name":"Kirchhain, Stadt","type":"Stadt"},"district":{"key":"06534","name":"Marburg-Biedenkopf","type":"Landkreis"},"federalState":{"key":"06","name":"Hessen"}},{"name":"Cottbuser Str.","postalCode":"03253","locality":"Doberlug-Kirchhain","municipality":{"key":"12062092","name":"Doberlug-Kirchhain, Stadt","type":"Stadt"},"district":{"key":"12062","name":"Elbe-Elster","type":"Landkreis"},"federalState":{"key":"12","name":"Brandenburg"}},{"name":"Dahlienstr.","postalCode":"35274","locality":"Kirchhain","municipality":{"key":"06534011","name":"Kirchhain, Stadt","type":"Stadt"},"district":{"key":"06534","name":"Marburg-Biedenkopf","type":"Landkreis"},"federalState":{"key":"06","name":"Hessen"}},{"name":"Dammweg","postalCode":"03253","locality":"Doberlug-Kirchhain","municipality":{"key":"12062092","name":"Doberlug-Kirchhain, Stadt","type":"Stadt"},"district":{"key":"12062","name":"Elbe-Elster","type":"Landkreis"},"federalState":{"key":"12","name":"Brandenburg"}},{"name":"Daniel-Keßler-Str.","postalCode":"35274","locality":"Kirchhain","municipality":{"key":"06534011","name":"Kirchhain, Stadt","type":"Stadt"},"district":{"key":"06534","name":"Marburg-Biedenkopf","type":"Landkreis"},"federalState":{"key":"06","name":"Hessen"}},{"name":"Danziger Str.","postalCode":"35274","locality":"Kirchhain","municipality":{"key":"06534011","name":"Kirchhain, Stadt","type":"Stadt"},"district":{"key":"06534","name":"Marburg-Biedenkopf","type":"Landkreis"},"federalState":{"key":"06","name":"Hessen"}},{"name":"Diemelweg","postalCode":"35274","locality":"Kirchhain","municipality":{"key":"06534011","name":"Kirchhain, Stadt","type":"Stadt"},"district":{"key":"06534","name":"Marburg-Biedenkopf","type":"Landkreis"},"federalState":{"key":"06","name":"Hessen"}},{"name":"Doberluger Chaussee","postalCode":"03253","locality":"Doberlug-Kirchhain","municipality":{"key":"12062092","name":"Doberlug-Kirchhain, Stadt","type":"Stadt"},"district":{"key":"12062","name":"Elbe-Elster","type":"Landkreis"},"federalState":{"key":"12","name":"Brandenburg"}},{"name":"Doberluger Str.","postalCode":"03253","locality":"Doberlug-Kirchhain","municipality":{"key":"12062092","name":"Doberlug-Kirchhain, Stadt","type":"Stadt"},"district":{"key":"12062","name":"Elbe-Elster","type":"Landkreis"},"federalState":{"key":"12","name":"Brandenburg"}},{"name":"Doberluger Str.","postalCode":"35274","locality":"Kirchhain","municipality":{"key":"06534011","name":"Kirchhain, Stadt","type":"Stadt"},"district":{"key":"06534","name":"Marburg-Biedenkopf","type":"Landkreis"},"federalState":{"key":"06","name":"Hessen"}},{"name":"Dohlenweg","postalCode":"35274","locality":"Kirchhain","municipality":{"key":"06534011","name":"Kirchhain, Stadt","type":"Stadt"},"district":{"key":"06534","name":"Marburg-Biedenkopf","type":"Landkreis"},"federalState":{"key":"06","name":"Hessen"}},{"name":"Dorfplatz","postalCode":"03253","locality":"Doberlug-Kirchhain","municipality":{"key":"12062092","name":"Doberlug-Kirchhain, Stadt","type":"Stadt"},"district":{"key":"12062","name":"Elbe-Elster","type":"Landkreis"},"federalState":{"key":"12","name":"Brandenburg"}},{"name":"Dorfstr.","postalCode":"35274","locality":"Kirchhain","municipality":{"key":"06534011","name":"Kirchhain, Stadt","type":"Stadt"},"district":{"key":"06534","name":"Marburg-Biedenkopf","type":"Landkreis"},"federalState":{"key":"06","name":"Hessen"}},{"name":"Dresdener Str.","postalCode":"35274","locality":"Kirchhain","municipality":{"key":"06534011","name":"Kirchhain, Stadt","type":"Stadt"},"district":{"key":"06534","name":"Marburg-Biedenkopf","type":"Landkreis"},"federalState":{"key":"06","name":"Hessen"}},{"name":"Drosselweg","postalCode":"35274","locality":"Kirchhain","municipality":{"key":"06534011","name":"Kirchhain, Stadt","type":"Stadt"},"district":{"key":"06534","name":"Marburg-Biedenkopf","type":"Landkreis"},"federalState":{"key":"06","name":"Hessen"}},{"name":"Dr.-Wilhelm-Külz-Str.","postalCode":"03253","locality":"Doberlug-Kirchhain","municipality":{"key":"12062092","name":"Doberlug-Kirchhain, Stadt","type":"Stadt"},"district":{"key":"12062","name":"Elbe-Elster","type":"Landkreis"},"federalState":{"key":"12","name":"Brandenburg"}},{"name":"Dübrichen","postalCode":"03253","locality":"Doberlug-Kirchhain","municipality":{"key":"12062092","name":"Doberlug-Kirchhain, Stadt","type":"Stadt"},"district":{"key":"12062","name":"Elbe-Elster","type":"Landkreis"},"federalState":{"key":"12","name":"Brandenburg"}},{"name":"Ederstr.","postalCode":"35274","locality":"Kirchhain","municipality":{"key":"06534011","name":"Kirchhain, Stadt","type":"Stadt"},"district":{"key":"06534","name":"Marburg-Biedenkopf","type":"Landkreis"},"federalState":{"key":"06","name":"Hessen"}},{"name":"Ehemaliger Spielplatz","postalCode":"35274","locality":"Kirchhain","municipality":{"key":"06534011","name":"Kirchhain, Stadt","type":"Stadt"},"district":{"key":"06534","name":"Marburg-Biedenkopf","type":"Landkreis"},"federalState":{"key":"06","name":"Hessen"}},{"name":"Eichendorffstr.","postalCode":"35274","locality":"Kirchhain","municipality":{"key":"06534011","name":"Kirchhain, Stadt","type":"Stadt"},"district":{"key":"06534","name":"Marburg-Biedenkopf","type":"Landkreis"},"federalState":{"key":"06","name":"Hessen"}},{"name":"Eichenweg","postalCode":"35274","locality":"Kirchhain","municipality":{"key":"06534011","name":"Kirchhain, Stadt","type":"Stadt"},"district":{"key":"06534","name":"Marburg-Biedenkopf","type":"Landkreis"},"federalState":{"key":"06","name":"Hessen"}},{"name":"Eichholzer Weg","postalCode":"03253","locality":"Doberlug-Kirchhain","municipality":{"key":"12062092","name":"Doberlug-Kirchhain, Stadt","type":"Stadt"},"district":{"key":"12062","name":"Elbe-Elster","type":"Landkreis"},"federalState":{"key":"12","name":"Brandenburg"}},{"name":"Eisenacher Str.","postalCode":"35274","locality":"Kirchhain","municipality":{"key":"06534011","name":"Kirchhain, Stadt","type":"Stadt"},"district":{"key":"06534","name":"Marburg-Biedenkopf","type":"Landkreis"},"federalState":{"key":"06","name":"Hessen"}},{"name":"Elmsdorfer Str.","postalCode":"35274","locality":"Kirchhain","municipality":{"key":"06534011","name":"Kirchhain, Stadt","type":"Stadt"},"district":{"key":"06534","name":"Marburg-Biedenkopf","type":"Landkreis"},"federalState":{"key":"06","name":"Hessen"}},{"name":"Elsterweg","postalCode":"35274","locality":"Kirchhain","municipality":{"key":"06534011","name":"Kirchhain, Stadt","type":"Stadt"},"district":{"key":"06534","name":"Marburg-Biedenkopf","type":"Landkreis"},"federalState":{"key":"06","name":"Hessen"}},{"name":"Emcostr.","postalCode":"35274","locality":"Kirchhain","municipality":{"key":"06534011","name":"Kirchhain, Stadt","type":"Stadt"},"district":{"key":"06534","name":"Marburg-Biedenkopf","type":"Landkreis"},"federalState":{"key":"06","name":"Hessen"}},{"name":"Emsdorfer Str.","postalCode":"35274","locality":"Kirchhain","municipality":{"key":"06534011","name":"Kirchhain, Stadt","type":"Stadt"},"district":{"key":"06534","name":"Marburg-Biedenkopf","type":"Landkreis"},"federalState":{"key":"06","name":"Hessen"}},{"name":"Erbsenberg","postalCode":"35274","locality":"Kirchhain","municipality":{"key":"06534011","name":"Kirchhain, Stadt","type":"Stadt"},"district":{"key":"06534","name":"Marburg-Biedenkopf","type":"Landkreis"},"federalState":{"key":"06","name":"Hessen"}},{"name":"Erfurter Str.","postalCode":"35274","locality":"Kirchhain","municipality":{"key":"06534011","name":"Kirchhain, Stadt","type":"Stadt"},"district":{"key":"06534","name":"Marburg-Biedenkopf","type":"Landkreis"},"federalState":{"key":"06","name":"Hessen"}},{"name":"Erich-Kästner-Weg","postalCode":"35274","locality":"Kirchhain","municipality":{"key":"06534011","name":"Kirchhain, Stadt","type":"Stadt"},"district":{"key":"06534","name":"Marburg-Biedenkopf","type":"Landkreis"},"federalState":{"key":"06","name":"Hessen"}},{"name":"Erksdorfer Str.","postalCode":"35274","locality":"Kirchhain","municipality":{"key":"06534011","name":"Kirchhain, Stadt","type":"Stadt"},"district":{"key":"06534","name":"Marburg-Biedenkopf","type":"Landkreis"},"federalState":{"key":"06","name":"Hessen"}},{"name":"Erlenstr.","postalCode":"35274","locality":"Kirchhain","municipality":{"key":"06534011","name":"Kirchhain, Stadt","type":"Stadt"},"district":{"key":"06534","name":"Marburg-Biedenkopf","type":"Landkreis"},"federalState":{"key":"06","name":"Hessen"}},{"name":"Ernst Thälmann Str.","postalCode":"03253","locality":"Doberlug-Kirchhain","municipality":{"key":"12062092","name":"Doberlug-Kirchhain, Stadt","type":"Stadt"},"district":{"key":"12062","name":"Elbe-Elster","type":"Landkreis"},"federalState":{"key":"12","name":"Brandenburg"}},{"name":"Erwin-Kramer-Ring","postalCode":"03253","locality":"Doberlug-Kirchhain","municipality":{"key":"12062092","name":"Doberlug-Kirchhain, Stadt","type":"Stadt"},"district":{"key":"12062","name":"Elbe-Elster","type":"Landkreis"},"federalState":{"key":"12","name":"Brandenburg"}},{"name":"Eulenweg","postalCode":"35274","locality":"Kirchhain","municipality":{"key":"06534011","name":"Kirchhain, Stadt","type":"Stadt"},"district":{"key":"06534","name":"Marburg-Biedenkopf","type":"Landkreis"},"federalState":{"key":"06","name":"Hessen"}},{"name":"Ewald-Wolf-Str.","postalCode":"03253","locality":"Doberlug-Kirchhain","municipality":{"key":"12062092","name":"Doberlug-Kirchhain, Stadt","type":"Stadt"},"district":{"key":"12062","name":"Elbe-Elster","type":"Landkreis"},"federalState":{"key":"12","name":"Brandenburg"}},{"name":"Falkenweg","postalCode":"35274","locality":"Kirchhain","municipality":{"key":"06534011","name":"Kirchhain, Stadt","type":"Stadt"},"district":{"key":"06534","name":"Marburg-Biedenkopf","type":"Landkreis"},"federalState":{"key":"06","name":"Hessen"}},{"name":"Fasanenweg","postalCode":"35274","locality":"Kirchhain","municipality":{"key":"06534011","name":"Kirchhain, Stadt","type":"Stadt"},"district":{"key":"06534","name":"Marburg-Biedenkopf","type":"Landkreis"},"federalState":{"key":"06","name":"Hessen"}},{"name":"Feldstr.","postalCode":"03253","locality":"Doberlug-Kirchhain","municipality":{"key":"12062092","name":"Doberlug-Kirchhain, Stadt","type":"Stadt"},"district":{"key":"12062","name":"Elbe-Elster","type":"Landkreis"},"federalState":{"key":"12","name":"Brandenburg"}},{"name":"Feldweg","postalCode":"03253","locality":"Doberlug-Kirchhain","municipality":{"key":"12062092","name":"Doberlug-Kirchhain, Stadt","type":"Stadt"},"district":{"key":"12062","name":"Elbe-Elster","type":"Landkreis"},"federalState":{"key":"12","name":"Brandenburg"}},{"name":"Feldweg","postalCode":"35274","locality":"Kirchhain","municipality":{"key":"06534011","name":"Kirchhain, Stadt","type":"Stadt"},"district":{"key":"06534","name":"Marburg-Biedenkopf","type":"Landkreis"},"federalState":{"key":"06","name":"Hessen"}},{"name":"Fichtenweg","postalCode":"35274","locality":"Kirchhain","municipality":{"key":"06534011","name":"Kirchhain, Stadt","type":"Stadt"},"district":{"key":"06534","name":"Marburg-Biedenkopf","type":"Landkreis"},"federalState":{"key":"06","name":"Hessen"}},{"name":"Finkenweg","postalCode":"35274","locality":"Kirchhain","municipality":{"key":"06534011","name":"Kirchhain, Stadt","type":"Stadt"},"district":{"key":"06534","name":"Marburg-Biedenkopf","type":"Landkreis"},"federalState":{"key":"06","name":"Hessen"}},{"name":"Finsterwalder Chaussee","postalCode":"03253","locality":"Doberlug-Kirchhain","municipality":{"key":"12062092","name":"Doberlug-Kirchhain, Stadt","type":"Stadt"},"district":{"key":"12062","name":"Elbe-Elster","type":"Landkreis"},"federalState":{"key":"12","name":"Brandenburg"}},{"name":"Finsterwalder Str.","postalCode":"03253","locality":"Doberlug-Kirchhain","municipality":{"key":"12062092","name":"Doberlug-Kirchhain, Stadt","type":"Stadt"},"district":{"key":"12062","name":"Elbe-Elster","type":"Landkreis"},"federalState":{"key":"12","name":"Brandenburg"}},{"name":"Fischwasserstr.","postalCode":"03253","locality":"Doberlug-Kirchhain","municipality":{"key":"12062092","name":"Doberlug-Kirchhain, Stadt","type":"Stadt"},"district":{"key":"12062","name":"Elbe-Elster","type":"Landkreis"},"federalState":{"key":"12","name":"Brandenburg"}},{"name":"Fliederstr.","postalCode":"35274","locality":"Kirchhain","municipality":{"key":"06534011","name":"Kirchhain, Stadt","type":"Stadt"},"district":{"key":"06534","name":"Marburg-Biedenkopf","type":"Landkreis"},"federalState":{"key":"06","name":"Hessen"}},{"name":"Flurstr.","postalCode":"35274","locality":"Kirchhain","municipality":{"key":"06534011","name":"Kirchhain, Stadt","type":"Stadt"},"district":{"key":"06534","name":"Marburg-Biedenkopf","type":"Landkreis"},"federalState":{"key":"06","name":"Hessen"}},{"name":"Folgenweg","postalCode":"03253","locality":"Doberlug-Kirchhain","municipality":{"key":"12062092","name":"Doberlug-Kirchhain, Stadt","type":"Stadt"},"district":{"key":"12062","name":"Elbe-Elster","type":"Landkreis"},"federalState":{"key":"12","name":"Brandenburg"}},{"name":"Forsthausstr.","postalCode":"35274","locality":"Kirchhain","municipality":{"key":"06534011","name":"Kirchhain, Stadt","type":"Stadt"},"district":{"key":"06534","name":"Marburg-Biedenkopf","type":"Landkreis"},"federalState":{"key":"06","name":"Hessen"}},{"name":"Frankenaer Dorfstr.","postalCode":"03253","locality":"Doberlug-Kirchhain","municipality":{"key":"12062092","name":"Doberlug-Kirchhain, Stadt","type":"Stadt"},"district":{"key":"12062","name":"Elbe-Elster","type":"Landkreis"},"federalState":{"key":"12","name":"Brandenburg"}},{"name":"Frankenaer Hauptstr.","postalCode":"03253","locality":"Doberlug-Kirchhain","municipality":{"key":"12062092","name":"Doberlug-Kirchhain, Stadt","type":"Stadt"},"district":{"key":"12062","name":"Elbe-Elster","type":"Landkreis"},"federalState":{"key":"12","name":"Brandenburg"}},{"name":"Frankenaer Weg","postalCode":"03253","locality":"Doberlug-Kirchhain","municipality":{"key":"12062092","name":"Doberlug-Kirchhain, Stadt","type":"Stadt"},"district":{"key":"12062","name":"Elbe-Elster","type":"Landkreis"},"federalState":{"key":"12","name":"Brandenburg"}},{"name":"Frankfurter Str.","postalCode":"35274","locality":"Kirchhain","municipality":{"key":"06534011","name":"Kirchhain, Stadt","type":"Stadt"},"district":{"key":"06534","name":"Marburg-Biedenkopf","type":"Landkreis"},"federalState":{"key":"06","name":"Hessen"}},{"name":"Franz-Liszt-Str.","postalCode":"35274","locality":"Kirchhain","municipality":{"key":"06534011","name":"Kirchhain, Stadt","type":"Stadt"},"district":{"key":"06534","name":"Marburg-Biedenkopf","type":"Landkreis"},"federalState":{"key":"06","name":"Hessen"}},{"name":"Franz-Schubert-Str.","postalCode":"35274","locality":"Kirchhain","municipality":{"key":"06534011","name":"Kirchhain, Stadt","type":"Stadt"},"district":{"key":"06534","name":"Marburg-Biedenkopf","type":"Landkreis"},"federalState":{"key":"06","name":"Hessen"}},{"name":"Friedenstr.","postalCode":"03253","locality":"Doberlug-Kirchhain","municipality":{"key":"12062092","name":"Doberlug-Kirchhain, Stadt","type":"Stadt"},"district":{"key":"12062","name":"Elbe-Elster","type":"Landkreis"},"federalState":{"key":"12","name":"Brandenburg"}},{"name":"Friedhofsweg","postalCode":"35274","locality":"Kirchhain","municipality":{"key":"06534011","name":"Kirchhain, Stadt","type":"Stadt"},"district":{"key":"06534","name":"Marburg-Biedenkopf","type":"Landkreis"},"federalState":{"key":"06","name":"Hessen"}},{"name":"Friedrich-Engels-Str.","postalCode":"03253","locality":"Doberlug-Kirchhain","municipality":{"key":"12062092","name":"Doberlug-Kirchhain, Stadt","type":"Stadt"},"district":{"key":"12062","name":"Elbe-Elster","type":"Landkreis"},"federalState":{"key":"12","name":"Brandenburg"}},{"name":"Friedrich-Ludwig-Jahn-Str.","postalCode":"03253","locality":"Doberlug-Kirchhain","municipality":{"key":"12062092","name":"Doberlug-Kirchhain, Stadt","type":"Stadt"},"district":{"key":"12062","name":"Elbe-Elster","type":"Landkreis"},"federalState":{"key":"12","name":"Brandenburg"}},{"name":"Fuldaer Str.","postalCode":"35274","locality":"Kirchhain","municipality":{"key":"06534011","name":"Kirchhain, Stadt","type":"Stadt"},"district":{"key":"06534","name":"Marburg-Biedenkopf","type":"Landkreis"},"federalState":{"key":"06","name":"Hessen"}},{"name":"Gänseburg","postalCode":"35274","locality":"Kirchhain","municipality":{"key":"06534011","name":"Kirchhain, Stadt","type":"Stadt"},"district":{"key":"06534","name":"Marburg-Biedenkopf","type":"Landkreis"},"federalState":{"key":"06","name":"Hessen"}},{"name":"Gartenstr.","postalCode":"03253","locality":"Doberlug-Kirchhain","municipality":{"key":"12062092","name":"Doberlug-Kirchhain, Stadt","type":"Stadt"},"district":{"key":"12062","name":"Elbe-Elster","type":"Landkreis"},"federalState":{"key":"12","name":"Brandenburg"}},{"name":"Gartenstr.","postalCode":"35274","locality":"Kirchhain","municipality":{"key":"06534011","name":"Kirchhain, Stadt","type":"Stadt"},"district":{"key":"06534","name":"Marburg-Biedenkopf","type":"Landkreis"},"federalState":{"key":"06","name":"Hessen"}},{"name":"Gartenweg","postalCode":"35274","locality":"Kirchhain","municipality":{"key":"06534011","name":"Kirchhain, Stadt","type":"Stadt"},"district":{"key":"06534","name":"Marburg-Biedenkopf","type":"Landkreis"},"federalState":{"key":"06","name":"Hessen"}},{"name":"Gärtnerweg","postalCode":"35274","locality":"Kirchhain","municipality":{"key":"06534011","name":"Kirchhain, Stadt","type":"Stadt"},"district":{"key":"06534","name":"Marburg-Biedenkopf","type":"Landkreis"},"federalState":{"key":"06","name":"Hessen"}},{"name":"Gässchen","postalCode":"35274","locality":"Kirchhain","municipality":{"key":"06534011","name":"Kirchhain, Stadt","type":"Stadt"},"district":{"key":"06534","name":"Marburg-Biedenkopf","type":"Landkreis"},"federalState":{"key":"06","name":"Hessen"}},{"name":"Gefangenenberg","postalCode":"35274","locality":"Kirchhain","municipality":{"key":"06534011","name":"Kirchhain, Stadt","type":"Stadt"},"district":{"key":"06534","name":"Marburg-Biedenkopf","type":"Landkreis"},"federalState":{"key":"06","name":"Hessen"}},{"name":"Genossenschaftsstr.","postalCode":"03253","locality":"Doberlug-Kirchhain","municipality":{"key":"12062092","name":"Doberlug-Kirchhain, Stadt","type":"Stadt"},"district":{"key":"12062","name":"Elbe-Elster","type":"Landkreis"},"federalState":{"key":"12","name":"Brandenburg"}},{"name":"Georg-Friedrich-Händel-Str.","postalCode":"35274","locality":"Kirchhain","municipality":{"key":"06534011","name":"Kirchhain, Stadt","type":"Stadt"},"district":{"key":"06534","name":"Marburg-Biedenkopf","type":"Landkreis"},"federalState":{"key":"06","name":"Hessen"}},{"name":"Gerberastr.","postalCode":"35274","locality":"Kirchhain","municipality":{"key":"06534011","name":"Kirchhain, Stadt","type":"Stadt"},"district":{"key":"06534","name":"Marburg-Biedenkopf","type":"Landkreis"},"federalState":{"key":"06","name":"Hessen"}},{"name":"Gerberstr.","postalCode":"03253","locality":"Doberlug-Kirchhain","municipality":{"key":"12062092","name":"Doberlug-Kirchhain, Stadt","type":"Stadt"},"district":{"key":"12062","name":"Elbe-Elster","type":"Landkreis"},"federalState":{"key":"12","name":"Brandenburg"}},{"name":"Gerichtsstr.","postalCode":"03253","locality":"Doberlug-Kirchhain","municipality":{"key":"12062092","name":"Doberlug-Kirchhain, Stadt","type":"Stadt"},"district":{"key":"12062","name":"Elbe-Elster","type":"Landkreis"},"federalState":{"key":"12","name":"Brandenburg"}},{"name":"Gerichtsweg","postalCode":"35274","locality":"Kirchhain","municipality":{"key":"06534011","name":"Kirchhain, Stadt","type":"Stadt"},"district":{"key":"06534","name":"Marburg-Biedenkopf","type":"Landkreis"},"federalState":{"key":"06","name":"Hessen"}},{"name":"Gewerbegebiet Südstr.","postalCode":"03253","locality":"Doberlug-Kirchhain","municipality":{"key":"12062092","name":"Doberlug-Kirchhain, Stadt","type":"Stadt"},"district":{"key":"12062","name":"Elbe-Elster","type":"Landkreis"},"federalState":{"key":"12","name":"Brandenburg"}},{"name":"Gierweg","postalCode":"35274","locality":"Kirchhain","municipality":{"key":"06534011","name":"Kirchhain, Stadt","type":"Stadt"},"district":{"key":"06534","name":"Marburg-Biedenkopf","type":"Landkreis"},"federalState":{"key":"06","name":"Hessen"}},{"name":"Ginsterweg","postalCode":"35274","locality":"Kirchhain","municipality":{"key":"06534011","name":"Kirchhain, Stadt","type":"Stadt"},"district":{"key":"06534","name":"Marburg-Biedenkopf","type":"Landkreis"},"federalState":{"key":"06","name":"Hessen"}},{"name":"Goethestr.","postalCode":"03253","locality":"Doberlug-Kirchhain","municipality":{"key":"12062092","name":"Doberlug-Kirchhain, Stadt","type":"Stadt"},"district":{"key":"12062","name":"Elbe-Elster","type":"Landkreis"},"federalState":{"key":"12","name":"Brandenburg"}},{"name":"Goethestr.","postalCode":"35274","locality":"Kirchhain","municipality":{"key":"06534011","name":"Kirchhain, Stadt","type":"Stadt"},"district":{"key":"06534","name":"Marburg-Biedenkopf","type":"Landkreis"},"federalState":{"key":"06","name":"Hessen"}},{"name":"Grimmerstr.","postalCode":"03253","locality":"Doberlug-Kirchhain","municipality":{"key":"12062092","name":"Doberlug-Kirchhain, Stadt","type":"Stadt"},"district":{"key":"12062","name":"Elbe-Elster","type":"Landkreis"},"federalState":{"key":"12","name":"Brandenburg"}},{"name":"Großseelheimer Str.","postalCode":"35274","locality":"Kirchhain","municipality":{"key":"06534011","name":"Kirchhain, Stadt","type":"Stadt"},"district":{"key":"06534","name":"Marburg-Biedenkopf","type":"Landkreis"},"federalState":{"key":"06","name":"Hessen"}},{"name":"Grüner Weg","postalCode":"03253","locality":"Doberlug-Kirchhain","municipality":{"key":"12062092","name":"Doberlug-Kirchhain, Stadt","type":"Stadt"},"district":{"key":"12062","name":"Elbe-Elster","type":"Landkreis"},"federalState":{"key":"12","name":"Brandenburg"}},{"name":"Grüner Weg","postalCode":"35274","locality":"Kirchhain","municipality":{"key":"06534011","name":"Kirchhain, Stadt","type":"Stadt"},"district":{"key":"06534","name":"Marburg-Biedenkopf","type":"Landkreis"},"federalState":{"key":"06","name":"Hessen"}},{"name":"Hagweg","postalCode":"03253","locality":"Doberlug-Kirchhain","municipality":{"key":"12062092","name":"Doberlug-Kirchhain, Stadt","type":"Stadt"},"district":{"key":"12062","name":"Elbe-Elster","type":"Landkreis"},"federalState":{"key":"12","name":"Brandenburg"}},{"name":"Hamertweg","postalCode":"35274","locality":"Kirchhain","municipality":{"key":"06534011","name":"Kirchhain, Stadt","type":"Stadt"},"district":{"key":"06534","name":"Marburg-Biedenkopf","type":"Landkreis"},"federalState":{"key":"06","name":"Hessen"}},{"name":"Handweg","postalCode":"35274","locality":"Kirchhain","municipality":{"key":"06534011","name":"Kirchhain, Stadt","type":"Stadt"},"district":{"key":"06534","name":"Marburg-Biedenkopf","type":"Landkreis"},"federalState":{"key":"06","name":"Hessen"}},{"name":"Hangelburg","postalCode":"35274","locality":"Kirchhain","municipality":{"key":"06534011","name":"Kirchhain, Stadt","type":"Stadt"},"district":{"key":"06534","name":"Marburg-Biedenkopf","type":"Landkreis"},"federalState":{"key":"06","name":"Hessen"}},{"name":"Hans-Sachs-Str.","postalCode":"35274","locality":"Kirchhain","municipality":{"key":"06534011","name":"Kirchhain, Stadt","type":"Stadt"},"district":{"key":"06534","name":"Marburg-Biedenkopf","type":"Landkreis"},"federalState":{"key":"06","name":"Hessen"}},{"name":"Hatzbacher Str.","postalCode":"35274","locality":"Kirchhain","municipality":{"key":"06534011","name":"Kirchhain, Stadt","type":"Stadt"},"district":{"key":"06534","name":"Marburg-Biedenkopf","type":"Landkreis"},"federalState":{"key":"06","name":"Hessen"}},{"name":"Hauptstr.","postalCode":"03253","locality":"Doberlug-Kirchhain","municipality":{"key":"12062092","name":"Doberlug-Kirchhain, Stadt","type":"Stadt"},"district":{"key":"12062","name":"Elbe-Elster","type":"Landkreis"},"federalState":{"key":"12","name":"Brandenburg"}},{"name":"Hauptstr.","postalCode":"35274","locality":"Kirchhain","municipality":{"key":"06534011","name":"Kirchhain, Stadt","type":"Stadt"},"district":{"key":"06534","name":"Marburg-Biedenkopf","type":"Landkreis"},"federalState":{"key":"06","name":"Hessen"}},{"name":"Heidestr.","postalCode":"35274","locality":"Kirchhain","municipality":{"key":"06534011","name":"Kirchhain, Stadt","type":"Stadt"},"district":{"key":"06534","name":"Marburg-Biedenkopf","type":"Landkreis"},"federalState":{"key":"06","name":"Hessen"}},{"name":"Heinrich-Bopp-Weg","postalCode":"35274","locality":"Kirchhain","municipality":{"key":"06534011","name":"Kirchhain, Stadt","type":"Stadt"},"district":{"key":"06534","name":"Marburg-Biedenkopf","type":"Landkreis"},"federalState":{"key":"06","name":"Hessen"}},{"name":"Heinrich-Heine-Str.","postalCode":"35274","locality":"Kirchhain","municipality":{"key":"06534011","name":"Kirchhain, Stadt","type":"Stadt"},"district":{"key":"06534","name":"Marburg-Biedenkopf","type":"Landkreis"},"federalState":{"key":"06","name":"Hessen"}},{"name":"Heinrich-Nebel-Str.","postalCode":"35274","locality":"Kirchhain","municipality":{"key":"06534011","name":"Kirchhain, Stadt","type":"Stadt"},"district":{"key":"06534","name":"Marburg-Biedenkopf","type":"Landkreis"},"federalState":{"key":"06","name":"Hessen"}},{"name":"Hennersdorfer Damm","postalCode":"03253","locality":"Doberlug-Kirchhain","municipality":{"key":"12062092","name":"Doberlug-Kirchhain, Stadt","type":"Stadt"},"district":{"key":"12062","name":"Elbe-Elster","type":"Landkreis"},"federalState":{"key":"12","name":"Brandenburg"}},{"name":"Hennersdorfer Str.","postalCode":"03253","locality":"Doberlug-Kirchhain","municipality":{"key":"12062092","name":"Doberlug-Kirchhain, Stadt","type":"Stadt"},"district":{"key":"12062","name":"Elbe-Elster","type":"Landkreis"},"federalState":{"key":"12","name":"Brandenburg"}},{"name":"Hennersdorfer Weg","postalCode":"03253","locality":"Doberlug-Kirchhain","municipality":{"key":"12062092","name":"Doberlug-Kirchhain, Stadt","type":"Stadt"},"district":{"key":"12062","name":"Elbe-Elster","type":"Landkreis"},"federalState":{"key":"12","name":"Brandenburg"}},{"name":"Hermann-Löns-Str.","postalCode":"35274","locality":"Kirchhain","municipality":{"key":"06534011","name":"Kirchhain, Stadt","type":"Stadt"},"district":{"key":"06534","name":"Marburg-Biedenkopf","type":"Landkreis"},"federalState":{"key":"06","name":"Hessen"}},{"name":"Herzberger Str.","postalCode":"03253","locality":"Doberlug-Kirchhain","municipality":{"key":"12062092","name":"Doberlug-Kirchhain, Stadt","type":"Stadt"},"district":{"key":"12062","name":"Elbe-Elster","type":"Landkreis"},"federalState":{"key":"12","name":"Brandenburg"}},{"name":"Himmelsberger Str.","postalCode":"35274","locality":"Kirchhain","municipality":{"key":"06534011","name":"Kirchhain, Stadt","type":"Stadt"},"district":{"key":"06534","name":"Marburg-Biedenkopf","type":"Landkreis"},"federalState":{"key":"06","name":"Hessen"}},{"name":"Hindenburgstr.","postalCode":"35274","locality":"Kirchhain","municipality":{"key":"06534011","name":"Kirchhain, Stadt","type":"Stadt"},"district":{"key":"06534","name":"Marburg-Biedenkopf","type":"Landkreis"},"federalState":{"key":"06","name":"Hessen"}},{"name":"Hinter dem Friedhof","postalCode":"35274","locality":"Kirchhain","municipality":{"key":"06534011","name":"Kirchhain, Stadt","type":"Stadt"},"district":{"key":"06534","name":"Marburg-Biedenkopf","type":"Landkreis"},"federalState":{"key":"06","name":"Hessen"}},{"name":"Hinter den Höfen","postalCode":"35274","locality":"Kirchhain","municipality":{"key":"06534011","name":"Kirchhain, Stadt","type":"Stadt"},"district":{"key":"06534","name":"Marburg-Biedenkopf","type":"Landkreis"},"federalState":{"key":"06","name":"Hessen"}},{"name":"Hinter der Mauer","postalCode":"35274","locality":"Kirchhain","municipality":{"key":"06534011","name":"Kirchhain, Stadt","type":"Stadt"},"district":{"key":"06534","name":"Marburg-Biedenkopf","type":"Landkreis"},"federalState":{"key":"06","name":"Hessen"}},{"name":"Hinter der Post","postalCode":"35274","locality":"Kirchhain","municipality":{"key":"06534011","name":"Kirchhain, Stadt","type":"Stadt"},"district":{"key":"06534","name":"Marburg-Biedenkopf","type":"Landkreis"},"federalState":{"key":"06","name":"Hessen"}},{"name":"Hintere Hofstatt","postalCode":"35274","locality":"Kirchhain","municipality":{"key":"06534011","name":"Kirchhain, Stadt","type":"Stadt"},"district":{"key":"06534","name":"Marburg-Biedenkopf","type":"Landkreis"},"federalState":{"key":"06","name":"Hessen"}},{"name":"Hintergasse","postalCode":"35274","locality":"Kirchhain","municipality":{"key":"06534011","name":"Kirchhain, Stadt","type":"Stadt"},"district":{"key":"06534","name":"Marburg-Biedenkopf","type":"Landkreis"},"federalState":{"key":"06","name":"Hessen"}},{"name":"Hinterm Kirchhof","postalCode":"35274","locality":"Kirchhain","municipality":{"key":"06534011","name":"Kirchhain, Stadt","type":"Stadt"},"district":{"key":"06534","name":"Marburg-Biedenkopf","type":"Landkreis"},"federalState":{"key":"06","name":"Hessen"}},{"name":"Hinterste Riede","postalCode":"35274","locality":"Kirchhain","municipality":{"key":"06534011","name":"Kirchhain, Stadt","type":"Stadt"},"district":{"key":"06534","name":"Marburg-Biedenkopf","type":"Landkreis"},"federalState":{"key":"06","name":"Hessen"}},{"name":"Hirtenstr.","postalCode":"03253","locality":"Doberlug-Kirchhain","municipality":{"key":"12062092","name":"Doberlug-Kirchhain, Stadt","type":"Stadt"},"district":{"key":"12062","name":"Elbe-Elster","type":"Landkreis"},"federalState":{"key":"12","name":"Brandenburg"}},{"name":"Hirtenteichstr.","postalCode":"03253","locality":"Doberlug-Kirchhain","municipality":{"key":"12062092","name":"Doberlug-Kirchhain, Stadt","type":"Stadt"},"district":{"key":"12062","name":"Elbe-Elster","type":"Landkreis"},"federalState":{"key":"12","name":"Brandenburg"}},{"name":"Hofackerstr.","postalCode":"35274","locality":"Kirchhain","municipality":{"key":"06534011","name":"Kirchhain, Stadt","type":"Stadt"},"district":{"key":"06534","name":"Marburg-Biedenkopf","type":"Landkreis"},"federalState":{"key":"06","name":"Hessen"}},{"name":"Höhenstr.","postalCode":"35274","locality":"Kirchhain","municipality":{"key":"06534011","name":"Kirchhain, Stadt","type":"Stadt"},"district":{"key":"06534","name":"Marburg-Biedenkopf","type":"Landkreis"},"federalState":{"key":"06","name":"Hessen"}},{"name":"Hohlweg","postalCode":"35274","locality":"Kirchhain","municipality":{"key":"06534011","name":"Kirchhain, Stadt","type":"Stadt"},"district":{"key":"06534","name":"Marburg-Biedenkopf","type":"Landkreis"},"federalState":{"key":"06","name":"Hessen"}},{"name":"Holunderstr.","postalCode":"35274","locality":"Kirchhain","municipality":{"key":"06534011","name":"Kirchhain, Stadt","type":"Stadt"},"district":{"key":"06534","name":"Marburg-Biedenkopf","type":"Landkreis"},"federalState":{"key":"06","name":"Hessen"}},{"name":"Holzackerweg","postalCode":"35274","locality":"Kirchhain","municipality":{"key":"06534011","name":"Kirchhain, Stadt","type":"Stadt"},"district":{"key":"06534","name":"Marburg-Biedenkopf","type":"Landkreis"},"federalState":{"key":"06","name":"Hessen"}},{"name":"Hubertushof","postalCode":"35274","locality":"Kirchhain","municipality":{"key":"06534011","name":"Kirchhain, Stadt","type":"Stadt"},"district":{"key":"06534","name":"Marburg-Biedenkopf","type":"Landkreis"},"federalState":{"key":"06","name":"Hessen"}},{"name":"Hubertusweg","postalCode":"35274","locality":"Kirchhain","municipality":{"key":"06534011","name":"Kirchhain, Stadt","type":"Stadt"},"district":{"key":"06534","name":"Marburg-Biedenkopf","type":"Landkreis"},"federalState":{"key":"06","name":"Hessen"}},{"name":"Im Biegen","postalCode":"35274","locality":"Kirchhain","municipality":{"key":"06534011","name":"Kirchhain, Stadt","type":"Stadt"},"district":{"key":"06534","name":"Marburg-Biedenkopf","type":"Landkreis"},"federalState":{"key":"06","name":"Hessen"}},{"name":"Im Brand","postalCode":"35274","locality":"Kirchhain","municipality":{"key":"06534011","name":"Kirchhain, Stadt","type":"Stadt"},"district":{"key":"06534","name":"Marburg-Biedenkopf","type":"Landkreis"},"federalState":{"key":"06","name":"Hessen"}},{"name":"Im Felde West","postalCode":"03253","locality":"Doberlug-Kirchhain","municipality":{"key":"12062092","name":"Doberlug-Kirchhain, Stadt","type":"Stadt"},"district":{"key":"12062","name":"Elbe-Elster","type":"Landkreis"},"federalState":{"key":"12","name":"Brandenburg"}},{"name":"Im Gefälle","postalCode":"35274","locality":"Kirchhain","municipality":{"key":"06534011","name":"Kirchhain, Stadt","type":"Stadt"},"district":{"key":"06534","name":"Marburg-Biedenkopf","type":"Landkreis"},"federalState":{"key":"06","name":"Hessen"}},{"name":"Im Lorenz","postalCode":"35274","locality":"Kirchhain","municipality":{"key":"06534011","name":"Kirchhain, Stadt","type":"Stadt"},"district":{"key":"06534","name":"Marburg-Biedenkopf","type":"Landkreis"},"federalState":{"key":"06","name":"Hessen"}},{"name":"Im Lützenfeld","postalCode":"35274","locality":"Kirchhain","municipality":{"key":"06534011","name":"Kirchhain, Stadt","type":"Stadt"},"district":{"key":"06534","name":"Marburg-Biedenkopf","type":"Landkreis"},"federalState":{"key":"06","name":"Hessen"}},{"name":"Im Pitzenfeld","postalCode":"35274","locality":"Kirchhain","municipality":{"key":"06534011","name":"Kirchhain, Stadt","type":"Stadt"},"district":{"key":"06534","name":"Marburg-Biedenkopf","type":"Landkreis"},"federalState":{"key":"06","name":"Hessen"}},{"name":"Im Riedeboden","postalCode":"35274","locality":"Kirchhain","municipality":{"key":"06534011","name":"Kirchhain, Stadt","type":"Stadt"},"district":{"key":"06534","name":"Marburg-Biedenkopf","type":"Landkreis"},"federalState":{"key":"06","name":"Hessen"}},{"name":"Im Rübengarten","postalCode":"35274","locality":"Kirchhain","municipality":{"key":"06534011","name":"Kirchhain, Stadt","type":"Stadt"},"district":{"key":"06534","name":"Marburg-Biedenkopf","type":"Landkreis"},"federalState":{"key":"06","name":"Hessen"}},{"name":"Im Sonnenwinkel","postalCode":"35274","locality":"Kirchhain","municipality":{"key":"06534011","name":"Kirchhain, Stadt","type":"Stadt"},"district":{"key":"06534","name":"Marburg-Biedenkopf","type":"Landkreis"},"federalState":{"key":"06","name":"Hessen"}},{"name":"Im Steinbruch","postalCode":"35274","locality":"Kirchhain","municipality":{"key":"06534011","name":"Kirchhain, Stadt","type":"Stadt"},"district":{"key":"06534","name":"Marburg-Biedenkopf","type":"Landkreis"},"federalState":{"key":"06","name":"Hessen"}},{"name":"Im Wiesenhof","postalCode":"35274","locality":"Kirchhain","municipality":{"key":"06534011","name":"Kirchhain, Stadt","type":"Stadt"},"district":{"key":"06534","name":"Marburg-Biedenkopf","type":"Landkreis"},"federalState":{"key":"06","name":"Hessen"}},{"name":"In dem Baumgarten","postalCode":"35274","locality":"Kirchhain","municipality":{"key":"06534011","name":"Kirchhain, Stadt","type":"Stadt"},"district":{"key":"06534","name":"Marburg-Biedenkopf","type":"Landkreis"},"federalState":{"key":"06","name":"Hessen"}},{"name":"In den Bachgärten","postalCode":"35274","locality":"Kirchhain","municipality":{"key":"06534011","name":"Kirchhain, Stadt","type":"Stadt"},"district":{"key":"06534","name":"Marburg-Biedenkopf","type":"Landkreis"},"federalState":{"key":"06","name":"Hessen"}},{"name":"In den Baiern","postalCode":"35274","locality":"Kirchhain","municipality":{"key":"06534011","name":"Kirchhain, Stadt","type":"Stadt"},"district":{"key":"06534","name":"Marburg-Biedenkopf","type":"Landkreis"},"federalState":{"key":"06","name":"Hessen"}},{"name":"In den Borngärten","postalCode":"35274","locality":"Kirchhain","municipality":{"key":"06534011","name":"Kirchhain, Stadt","type":"Stadt"},"district":{"key":"06534","name":"Marburg-Biedenkopf","type":"Landkreis"},"federalState":{"key":"06","name":"Hessen"}},{"name":"In den Steinen","postalCode":"35274","locality":"Kirchhain","municipality":{"key":"06534011","name":"Kirchhain, Stadt","type":"Stadt"},"district":{"key":"06534","name":"Marburg-Biedenkopf","type":"Landkreis"},"federalState":{"key":"06","name":"Hessen"}},{"name":"In der Ecke","postalCode":"35274","locality":"Kirchhain","municipality":{"key":"06534011","name":"Kirchhain, Stadt","type":"Stadt"},"district":{"key":"06534","name":"Marburg-Biedenkopf","type":"Landkreis"},"federalState":{"key":"06","name":"Hessen"}},{"name":"In der Gasse","postalCode":"35274","locality":"Kirchhain","municipality":{"key":"06534011","name":"Kirchhain, Stadt","type":"Stadt"},"district":{"key":"06534","name":"Marburg-Biedenkopf","type":"Landkreis"},"federalState":{"key":"06","name":"Hessen"}},{"name":"In der Hohl","postalCode":"35274","locality":"Kirchhain","municipality":{"key":"06534011","name":"Kirchhain, Stadt","type":"Stadt"},"district":{"key":"06534","name":"Marburg-Biedenkopf","type":"Landkreis"},"federalState":{"key":"06","name":"Hessen"}},{"name":"In der Lehmkaute","postalCode":"35274","locality":"Kirchhain","municipality":{"key":"06534011","name":"Kirchhain, Stadt","type":"Stadt"},"district":{"key":"06534","name":"Marburg-Biedenkopf","type":"Landkreis"},"federalState":{"key":"06","name":"Hessen"}},{"name":"Jägerstr.","postalCode":"35274","locality":"Kirchhain","municipality":{"key":"06534011","name":"Kirchhain, Stadt","type":"Stadt"},"district":{"key":"06534","name":"Marburg-Biedenkopf","type":"Landkreis"},"federalState":{"key":"06","name":"Hessen"}},{"name":"Jähdeneck","postalCode":"03253","locality":"Doberlug-Kirchhain","municipality":{"key":"12062092","name":"Doberlug-Kirchhain, Stadt","type":"Stadt"},"district":{"key":"12062","name":"Elbe-Elster","type":"Landkreis"},"federalState":{"key":"12","name":"Brandenburg"}},{"name":"Johannes-Brahms-Str.","postalCode":"35274","locality":"Kirchhain","municipality":{"key":"06534011","name":"Kirchhain, Stadt","type":"Stadt"},"district":{"key":"06534","name":"Marburg-Biedenkopf","type":"Landkreis"},"federalState":{"key":"06","name":"Hessen"}},{"name":"Johann-Peter-Hebel-Str.","postalCode":"35274","locality":"Kirchhain","municipality":{"key":"06534011","name":"Kirchhain, Stadt","type":"Stadt"},"district":{"key":"06534","name":"Marburg-Biedenkopf","type":"Landkreis"},"federalState":{"key":"06","name":"Hessen"}},{"name":"Johann-Sebastian-Bach-Str.","postalCode":"03253","locality":"Doberlug-Kirchhain","municipality":{"key":"12062092","name":"Doberlug-Kirchhain, Stadt","type":"Stadt"},"district":{"key":"12062","name":"Elbe-Elster","type":"Landkreis"},"federalState":{"key":"12","name":"Brandenburg"}},{"name":"Johann-Sebastian-Bach-Str.","postalCode":"35274","locality":"Kirchhain","municipality":{"key":"06534011","name":"Kirchhain, Stadt","type":"Stadt"},"district":{"key":"06534","name":"Marburg-Biedenkopf","type":"Landkreis"},"federalState":{"key":"06","name":"Hessen"}},{"name":"Joichtweg","postalCode":"35274","locality":"Kirchhain","municipality":{"key":"06534011","name":"Kirchhain, Stadt","type":"Stadt"},"district":{"key":"06534","name":"Marburg-Biedenkopf","type":"Landkreis"},"federalState":{"key":"06","name":"Hessen"}},{"name":"Joseph-Haydn-Str.","postalCode":"35274","locality":"Kirchhain","municipality":{"key":"06534011","name":"Kirchhain, Stadt","type":"Stadt"},"district":{"key":"06534","name":"Marburg-Biedenkopf","type":"Landkreis"},"federalState":{"key":"06","name":"Hessen"}},{"name":"Kantorstr.","postalCode":"03253","locality":"Doberlug-Kirchhain","municipality":{"key":"12062092","name":"Doberlug-Kirchhain, Stadt","type":"Stadt"},"district":{"key":"12062","name":"Elbe-Elster","type":"Landkreis"},"federalState":{"key":"12","name":"Brandenburg"}},{"name":"Karl-Liebknecht-Str.","postalCode":"03253","locality":"Doberlug-Kirchhain","municipality":{"key":"12062092","name":"Doberlug-Kirchhain, Stadt","type":"Stadt"},"district":{"key":"12062","name":"Elbe-Elster","type":"Landkreis"},"federalState":{"key":"12","name":"Brandenburg"}},{"name":"Karl-Marx-Str.","postalCode":"03253","locality":"Doberlug-Kirchhain","municipality":{"key":"12062092","name":"Doberlug-Kirchhain, Stadt","type":"Stadt"},"district":{"key":"12062","name":"Elbe-Elster","type":"Landkreis"},"federalState":{"key":"12","name":"Brandenburg"}},{"name":"Karlsbader Str.","postalCode":"35274","locality":"Kirchhain","municipality":{"key":"06534011","name":"Kirchhain, Stadt","type":"Stadt"},"district":{"key":"06534","name":"Marburg-Biedenkopf","type":"Landkreis"},"federalState":{"key":"06","name":"Hessen"}},{"name":"Kasseler Str.","postalCode":"35274","locality":"Kirchhain","municipality":{"key":"06534011","name":"Kirchhain, Stadt","type":"Stadt"},"district":{"key":"06534","name":"Marburg-Biedenkopf","type":"Landkreis"},"federalState":{"key":"06","name":"Hessen"}},{"name":"Kastanienstr.","postalCode":"35274","locality":"Kirchhain","municipality":{"key":"06534011","name":"Kirchhain, Stadt","type":"Stadt"},"district":{"key":"06534","name":"Marburg-Biedenkopf","type":"Landkreis"},"federalState":{"key":"06","name":"Hessen"}},{"name":"Kellerwiese","postalCode":"35274","locality":"Kirchhain","municipality":{"key":"06534011","name":"Kirchhain, Stadt","type":"Stadt"},"district":{"key":"06534","name":"Marburg-Biedenkopf","type":"Landkreis"},"federalState":{"key":"06","name":"Hessen"}},{"name":"Kiefernweg","postalCode":"35274","locality":"Kirchhain","municipality":{"key":"06534011","name":"Kirchhain, Stadt","type":"Stadt"},"district":{"key":"06534","name":"Marburg-Biedenkopf","type":"Landkreis"},"federalState":{"key":"06","name":"Hessen"}},{"name":"Kietzer Str.","postalCode":"03253","locality":"Doberlug-Kirchhain","municipality":{"key":"12062092","name":"Doberlug-Kirchhain, Stadt","type":"Stadt"},"district":{"key":"12062","name":"Elbe-Elster","type":"Landkreis"},"federalState":{"key":"12","name":"Brandenburg"}},{"name":"Kirchecke","postalCode":"35274","locality":"Kirchhain","municipality":{"key":"06534011","name":"Kirchhain, Stadt","type":"Stadt"},"district":{"key":"06534","name":"Marburg-Biedenkopf","type":"Landkreis"},"federalState":{"key":"06","name":"Hessen"}},{"name":"Kirchhainer Str.","postalCode":"03253","locality":"Doberlug-Kirchhain","municipality":{"key":"12062092","name":"Doberlug-Kirchhain, Stadt","type":"Stadt"},"district":{"key":"12062","name":"Elbe-Elster","type":"Landkreis"},"federalState":{"key":"12","name":"Brandenburg"}},{"name":"Kirchhainer Weg","postalCode":"03253","locality":"Doberlug-Kirchhain","municipality":{"key":"12062092","name":"Doberlug-Kirchhain, Stadt","type":"Stadt"},"district":{"key":"12062","name":"Elbe-Elster","type":"Landkreis"},"federalState":{"key":"12","name":"Brandenburg"}},{"name":"Kirchhainer Weg","postalCode":"35274","locality":"Kirchhain","municipality":{"key":"06534011","name":"Kirchhain, Stadt","type":"Stadt"},"district":{"key":"06534","name":"Marburg-Biedenkopf","type":"Landkreis"},"federalState":{"key":"06","name":"Hessen"}},{"name":"Kirchhof","postalCode":"35274","locality":"Kirchhain","municipality":{"key":"06534011","name":"Kirchhain, Stadt","type":"Stadt"},"district":{"key":"06534","name":"Marburg-Biedenkopf","type":"Landkreis"},"federalState":{"key":"06","name":"Hessen"}},{"name":"Kirchsteig","postalCode":"03253","locality":"Doberlug-Kirchhain","municipality":{"key":"12062092","name":"Doberlug-Kirchhain, Stadt","type":"Stadt"},"district":{"key":"12062","name":"Elbe-Elster","type":"Landkreis"},"federalState":{"key":"12","name":"Brandenburg"}},{"name":"Kirchstr.","postalCode":"03253","locality":"Doberlug-Kirchhain","municipality":{"key":"12062092","name":"Doberlug-Kirchhain, Stadt","type":"Stadt"},"district":{"key":"12062","name":"Elbe-Elster","type":"Landkreis"},"federalState":{"key":"12","name":"Brandenburg"}},{"name":"Kirchweg","postalCode":"35274","locality":"Kirchhain","municipality":{"key":"06534011","name":"Kirchhain, Stadt","type":"Stadt"},"district":{"key":"06534","name":"Marburg-Biedenkopf","type":"Landkreis"},"federalState":{"key":"06","name":"Hessen"}},{"name":"Kirschenbergstr.","postalCode":"35274","locality":"Kirchhain","municipality":{"key":"06534011","name":"Kirchhain, Stadt","type":"Stadt"},"district":{"key":"06534","name":"Marburg-Biedenkopf","type":"Landkreis"},"federalState":{"key":"06","name":"Hessen"}},{"name":"Kleinstr.","postalCode":"35274","locality":"Kirchhain","municipality":{"key":"06534011","name":"Kirchhain, Stadt","type":"Stadt"},"district":{"key":"06534","name":"Marburg-Biedenkopf","type":"Landkreis"},"federalState":{"key":"06","name":"Hessen"}},{"name":"Kohlengäßchen","postalCode":"35274","locality":"Kirchhain","municipality":{"key":"06534011","name":"Kirchhain, Stadt","type":"Stadt"},"district":{"key":"06534","name":"Marburg-Biedenkopf","type":"Landkreis"},"federalState":{"key":"06","name":"Hessen"}},{"name":"Königsberger Str.","postalCode":"35274","locality":"Kirchhain","municipality":{"key":"06534011","name":"Kirchhain, Stadt","type":"Stadt"},"district":{"key":"06534","name":"Marburg-Biedenkopf","type":"Landkreis"},"federalState":{"key":"06","name":"Hessen"}},{"name":"Königsstr.","postalCode":"35274","locality":"Kirchhain","municipality":{"key":"06534011","name":"Kirchhain, Stadt","type":"Stadt"},"district":{"key":"06534","name":"Marburg-Biedenkopf","type":"Landkreis"},"federalState":{"key":"06","name":"Hessen"}},{"name":"Lahnstr.","postalCode":"35274","locality":"Kirchhain","municipality":{"key":"06534011","name":"Kirchhain, Stadt","type":"Stadt"},"district":{"key":"06534","name":"Marburg-Biedenkopf","type":"Landkreis"},"federalState":{"key":"06","name":"Hessen"}},{"name":"Lange Gasse","postalCode":"35274","locality":"Kirchhain","municipality":{"key":"06534011","name":"Kirchhain, Stadt","type":"Stadt"},"district":{"key":"06534","name":"Marburg-Biedenkopf","type":"Landkreis"},"federalState":{"key":"06","name":"Hessen"}},{"name":"Langensteiner Str.","postalCode":"35274","locality":"Kirchhain","municipality":{"key":"06534011","name":"Kirchhain, Stadt","type":"Stadt"},"district":{"key":"06534","name":"Marburg-Biedenkopf","type":"Landkreis"},"federalState":{"key":"06","name":"Hessen"}},{"name":"Langen Strichen","postalCode":"35274","locality":"Kirchhain","municipality":{"key":"06534011","name":"Kirchhain, Stadt","type":"Stadt"},"district":{"key":"06534","name":"Marburg-Biedenkopf","type":"Landkreis"},"federalState":{"key":"06","name":"Hessen"}},{"name":"Lärchenpfad","postalCode":"35274","locality":"Kirchhain","municipality":{"key":"06534011","name":"Kirchhain, Stadt","type":"Stadt"},"district":{"key":"06534","name":"Marburg-Biedenkopf","type":"Landkreis"},"federalState":{"key":"06","name":"Hessen"}},{"name":"Laubenweg","postalCode":"35274","locality":"Kirchhain","municipality":{"key":"06534011","name":"Kirchhain, Stadt","type":"Stadt"},"district":{"key":"06534","name":"Marburg-Biedenkopf","type":"Landkreis"},"federalState":{"key":"06","name":"Hessen"}},{"name":"Lauterbacher Str.","postalCode":"35274","locality":"Kirchhain","municipality":{"key":"06534011","name":"Kirchhain, Stadt","type":"Stadt"},"district":{"key":"06534","name":"Marburg-Biedenkopf","type":"Landkreis"},"federalState":{"key":"06","name":"Hessen"}},{"name":"Lehenweg","postalCode":"35274","locality":"Kirchhain","municipality":{"key":"06534011","name":"Kirchhain, Stadt","type":"Stadt"},"district":{"key":"06534","name":"Marburg-Biedenkopf","type":"Landkreis"},"federalState":{"key":"06","name":"Hessen"}},{"name":"Lehmkaute","postalCode":"35274","locality":"Kirchhain","municipality":{"key":"06534011","name":"Kirchhain, Stadt","type":"Stadt"},"district":{"key":"06534","name":"Marburg-Biedenkopf","type":"Landkreis"},"federalState":{"key":"06","name":"Hessen"}},{"name":"Lehmweg","postalCode":"03253","locality":"Doberlug-Kirchhain","municipality":{"key":"12062092","name":"Doberlug-Kirchhain, Stadt","type":"Stadt"},"district":{"key":"12062","name":"Elbe-Elster","type":"Landkreis"},"federalState":{"key":"12","name":"Brandenburg"}},{"name":"Leipziger Str.","postalCode":"03253","locality":"Doberlug-Kirchhain","municipality":{"key":"12062092","name":"Doberlug-Kirchhain, Stadt","type":"Stadt"},"district":{"key":"12062","name":"Elbe-Elster","type":"Landkreis"},"federalState":{"key":"12","name":"Brandenburg"}},{"name":"Leipziger Str.","postalCode":"35274","locality":"Kirchhain","municipality":{"key":"06534011","name":"Kirchhain, Stadt","type":"Stadt"},"district":{"key":"06534","name":"Marburg-Biedenkopf","type":"Landkreis"},"federalState":{"key":"06","name":"Hessen"}},{"name":"Leo-Strauß-Str.","postalCode":"35274","locality":"Kirchhain","municipality":{"key":"06534011","name":"Kirchhain, Stadt","type":"Stadt"},"district":{"key":"06534","name":"Marburg-Biedenkopf","type":"Landkreis"},"federalState":{"key":"06","name":"Hessen"}},{"name":"Lerchenstr.","postalCode":"35274","locality":"Kirchhain","municipality":{"key":"06534011","name":"Kirchhain, Stadt","type":"Stadt"},"district":{"key":"06534","name":"Marburg-Biedenkopf","type":"Landkreis"},"federalState":{"key":"06","name":"Hessen"}},{"name":"Lichtena","postalCode":"03253","locality":"Doberlug-Kirchhain","municipality":{"key":"12062092","name":"Doberlug-Kirchhain, Stadt","type":"Stadt"},"district":{"key":"12062","name":"Elbe-Elster","type":"Landkreis"},"federalState":{"key":"12","name":"Brandenburg"}},{"name":"Liebigstr.","postalCode":"35274","locality":"Kirchhain","municipality":{"key":"06534011","name":"Kirchhain, Stadt","type":"Stadt"},"district":{"key":"06534","name":"Marburg-Biedenkopf","type":"Landkreis"},"federalState":{"key":"06","name":"Hessen"}},{"name":"Lindenaer Str.","postalCode":"03253","locality":"Doberlug-Kirchhain","municipality":{"key":"12062092","name":"Doberlug-Kirchhain, Stadt","type":"Stadt"},"district":{"key":"12062","name":"Elbe-Elster","type":"Landkreis"},"federalState":{"key":"12","name":"Brandenburg"}},{"name":"Lindenplatz","postalCode":"35274","locality":"Kirchhain","municipality":{"key":"06534011","name":"Kirchhain, Stadt","type":"Stadt"},"district":{"key":"06534","name":"Marburg-Biedenkopf","type":"Landkreis"},"federalState":{"key":"06","name":"Hessen"}},{"name":"Lindenstr.","postalCode":"03253","locality":"Doberlug-Kirchhain","municipality":{"key":"12062092","name":"Doberlug-Kirchhain, Stadt","type":"Stadt"},"district":{"key":"12062","name":"Elbe-Elster","type":"Landkreis"},"federalState":{"key":"12","name":"Brandenburg"}},{"name":"Lindenstr.","postalCode":"35274","locality":"Kirchhain","municipality":{"key":"06534011","name":"Kirchhain, Stadt","type":"Stadt"},"district":{"key":"06534","name":"Marburg-Biedenkopf","type":"Landkreis"},"federalState":{"key":"06","name":"Hessen"}},{"name":"Lisa-de-Boor-Str.","postalCode":"35274","locality":"Kirchhain","municipality":{"key":"06534011","name":"Kirchhain, Stadt","type":"Stadt"},"district":{"key":"06534","name":"Marburg-Biedenkopf","type":"Landkreis"},"federalState":{"key":"06","name":"Hessen"}},{"name":"Lochweg","postalCode":"35274","locality":"Kirchhain","municipality":{"key":"06534011","name":"Kirchhain, Stadt","type":"Stadt"},"district":{"key":"06534","name":"Marburg-Biedenkopf","type":"Landkreis"},"federalState":{"key":"06","name":"Hessen"}},{"name":"Luchgasse","postalCode":"35274","locality":"Kirchhain","municipality":{"key":"06534011","name":"Kirchhain, Stadt","type":"Stadt"},"district":{"key":"06534","name":"Marburg-Biedenkopf","type":"Landkreis"},"federalState":{"key":"06","name":"Hessen"}},{"name":"Luckauer Str.","postalCode":"03253","locality":"Doberlug-Kirchhain","municipality":{"key":"12062092","name":"Doberlug-Kirchhain, Stadt","type":"Stadt"},"district":{"key":"12062","name":"Elbe-Elster","type":"Landkreis"},"federalState":{"key":"12","name":"Brandenburg"}},{"name":"Lugau Ausbau Nr.","postalCode":"03253","locality":"Doberlug-Kirchhain","municipality":{"key":"12062092","name":"Doberlug-Kirchhain, Stadt","type":"Stadt"},"district":{"key":"12062","name":"Elbe-Elster","type":"Landkreis"},"federalState":{"key":"12","name":"Brandenburg"}},{"name":"Lugauer Allee","postalCode":"03253","locality":"Doberlug-Kirchhain","municipality":{"key":"12062092","name":"Doberlug-Kirchhain, Stadt","type":"Stadt"},"district":{"key":"12062","name":"Elbe-Elster","type":"Landkreis"},"federalState":{"key":"12","name":"Brandenburg"}},{"name":"Lugauer Chaussee","postalCode":"03253","locality":"Doberlug-Kirchhain","municipality":{"key":"12062092","name":"Doberlug-Kirchhain, Stadt","type":"Stadt"},"district":{"key":"12062","name":"Elbe-Elster","type":"Landkreis"},"federalState":{"key":"12","name":"Brandenburg"}},{"name":"Lugauer Hauptstr.","postalCode":"03253","locality":"Doberlug-Kirchhain","municipality":{"key":"12062092","name":"Doberlug-Kirchhain, Stadt","type":"Stadt"},"district":{"key":"12062","name":"Elbe-Elster","type":"Landkreis"},"federalState":{"key":"12","name":"Brandenburg"}},{"name":"Lugauer Str.","postalCode":"03253","locality":"Doberlug-Kirchhain","municipality":{"key":"12062092","name":"Doberlug-Kirchhain, Stadt","type":"Stadt"},"district":{"key":"12062","name":"Elbe-Elster","type":"Landkreis"},"federalState":{"key":"12","name":"Brandenburg"}},{"name":"Lugauer Weg","postalCode":"03253","locality":"Doberlug-Kirchhain","municipality":{"key":"12062092","name":"Doberlug-Kirchhain, Stadt","type":"Stadt"},"district":{"key":"12062","name":"Elbe-Elster","type":"Landkreis"},"federalState":{"key":"12","name":"Brandenburg"}},{"name":"Magdeburger Str.","postalCode":"35274","locality":"Kirchhain","municipality":{"key":"06534011","name":"Kirchhain, Stadt","type":"Stadt"},"district":{"key":"06534","name":"Marburg-Biedenkopf","type":"Landkreis"},"federalState":{"key":"06","name":"Hessen"}},{"name":"Mainstr.","postalCode":"35274","locality":"Kirchhain","municipality":{"key":"06534011","name":"Kirchhain, Stadt","type":"Stadt"},"district":{"key":"06534","name":"Marburg-Biedenkopf","type":"Landkreis"},"federalState":{"key":"06","name":"Hessen"}},{"name":"Malerweg","postalCode":"35274","locality":"Kirchhain","municipality":{"key":"06534011","name":"Kirchhain, Stadt","type":"Stadt"},"district":{"key":"06534","name":"Marburg-Biedenkopf","type":"Landkreis"},"federalState":{"key":"06","name":"Hessen"}},{"name":"Marburger Ring","postalCode":"35274","locality":"Kirchhain","municipality":{"key":"06534011","name":"Kirchhain, Stadt","type":"Stadt"},"district":{"key":"06534","name":"Marburg-Biedenkopf","type":"Landkreis"},"federalState":{"key":"06","name":"Hessen"}},{"name":"Marburger Str.","postalCode":"35274","locality":"Kirchhain","municipality":{"key":"06534011","name":"Kirchhain, Stadt","type":"Stadt"},"district":{"key":"06534","name":"Marburg-Biedenkopf","type":"Landkreis"},"federalState":{"key":"06","name":"Hessen"}},{"name":"Marktstr.","postalCode":"35274","locality":"Kirchhain","municipality":{"key":"06534011","name":"Kirchhain, Stadt","type":"Stadt"},"district":{"key":"06534","name":"Marburg-Biedenkopf","type":"Landkreis"},"federalState":{"key":"06","name":"Hessen"}},{"name":"Marktweg","postalCode":"35274","locality":"Kirchhain","municipality":{"key":"06534011","name":"Kirchhain, Stadt","type":"Stadt"},"district":{"key":"06534","name":"Marburg-Biedenkopf","type":"Landkreis"},"federalState":{"key":"06","name":"Hessen"}},{"name":"Maurerstr.","postalCode":"35274","locality":"Kirchhain","municipality":{"key":"06534011","name":"Kirchhain, Stadt","type":"Stadt"},"district":{"key":"06534","name":"Marburg-Biedenkopf","type":"Landkreis"},"federalState":{"key":"06","name":"Hessen"}},{"name":"Meisenweg","postalCode":"35274","locality":"Kirchhain","municipality":{"key":"06534011","name":"Kirchhain, Stadt","type":"Stadt"},"district":{"key":"06534","name":"Marburg-Biedenkopf","type":"Landkreis"},"federalState":{"key":"06","name":"Hessen"}},{"name":"Melsunger Str.","postalCode":"35274","locality":"Kirchhain","municipality":{"key":"06534011","name":"Kirchhain, Stadt","type":"Stadt"},"district":{"key":"06534","name":"Marburg-Biedenkopf","type":"Landkreis"},"federalState":{"key":"06","name":"Hessen"}},{"name":"Menchestr.","postalCode":"35274","locality":"Kirchhain","municipality":{"key":"06534011","name":"Kirchhain, Stadt","type":"Stadt"},"district":{"key":"06534","name":"Marburg-Biedenkopf","type":"Landkreis"},"federalState":{"key":"06","name":"Hessen"}},{"name":"Mittelstr.","postalCode":"03253","locality":"Doberlug-Kirchhain","municipality":{"key":"12062092","name":"Doberlug-Kirchhain, Stadt","type":"Stadt"},"district":{"key":"12062","name":"Elbe-Elster","type":"Landkreis"},"federalState":{"key":"12","name":"Brandenburg"}},{"name":"Mittelstr.","postalCode":"35274","locality":"Kirchhain","municipality":{"key":"06534011","name":"Kirchhain, Stadt","type":"Stadt"},"district":{"key":"06534","name":"Marburg-Biedenkopf","type":"Landkreis"},"federalState":{"key":"06","name":"Hessen"}},{"name":"Mittelweg","postalCode":"03253","locality":"Doberlug-Kirchhain","municipality":{"key":"12062092","name":"Doberlug-Kirchhain, Stadt","type":"Stadt"},"district":{"key":"12062","name":"Elbe-Elster","type":"Landkreis"},"federalState":{"key":"12","name":"Brandenburg"}},{"name":"Mittelweg","postalCode":"35274","locality":"Kirchhain","municipality":{"key":"06534011","name":"Kirchhain, Stadt","type":"Stadt"},"district":{"key":"06534","name":"Marburg-Biedenkopf","type":"Landkreis"},"federalState":{"key":"06","name":"Hessen"}},{"name":"Mittlerer Esperweg","postalCode":"35274","locality":"Kirchhain","municipality":{"key":"06534011","name":"Kirchhain, Stadt","type":"Stadt"},"district":{"key":"06534","name":"Marburg-Biedenkopf","type":"Landkreis"},"federalState":{"key":"06","name":"Hessen"}},{"name":"Möhrengarten","postalCode":"35274","locality":"Kirchhain","municipality":{"key":"06534011","name":"Kirchhain, Stadt","type":"Stadt"},"district":{"key":"06534","name":"Marburg-Biedenkopf","type":"Landkreis"},"federalState":{"key":"06","name":"Hessen"}},{"name":"Mozartstr.","postalCode":"35274","locality":"Kirchhain","municipality":{"key":"06534011","name":"Kirchhain, Stadt","type":"Stadt"},"district":{"key":"06534","name":"Marburg-Biedenkopf","type":"Landkreis"},"federalState":{"key":"06","name":"Hessen"}},{"name":"Mühlenstr.","postalCode":"03253","locality":"Doberlug-Kirchhain","municipality":{"key":"12062092","name":"Doberlug-Kirchhain, Stadt","type":"Stadt"},"district":{"key":"12062","name":"Elbe-Elster","type":"Landkreis"},"federalState":{"key":"12","name":"Brandenburg"}},{"name":"Mühlenweg","postalCode":"03253","locality":"Doberlug-Kirchhain","municipality":{"key":"12062092","name":"Doberlug-Kirchhain, Stadt","type":"Stadt"},"district":{"key":"12062","name":"Elbe-Elster","type":"Landkreis"},"federalState":{"key":"12","name":"Brandenburg"}},{"name":"Mühlgasse","postalCode":"35274","locality":"Kirchhain","municipality":{"key":"06534011","name":"Kirchhain, Stadt","type":"Stadt"},"district":{"key":"06534","name":"Marburg-Biedenkopf","type":"Landkreis"},"federalState":{"key":"06","name":"Hessen"}},{"name":"Mühlgrabenweg","postalCode":"03253","locality":"Doberlug-Kirchhain","municipality":{"key":"12062092","name":"Doberlug-Kirchhain, Stadt","type":"Stadt"},"district":{"key":"12062","name":"Elbe-Elster","type":"Landkreis"},"federalState":{"key":"12","name":"Brandenburg"}},{"name":"Mühlweg","postalCode":"35274","locality":"Kirchhain","municipality":{"key":"06534011","name":"Kirchhain, Stadt","type":"Stadt"},"district":{"key":"06534","name":"Marburg-Biedenkopf","type":"Landkreis"},"federalState":{"key":"06","name":"Hessen"}},{"name":"Müllerstr.","postalCode":"35274","locality":"Kirchhain","municipality":{"key":"06534011","name":"Kirchhain, Stadt","type":"Stadt"},"district":{"key":"06534","name":"Marburg-Biedenkopf","type":"Landkreis"},"federalState":{"key":"06","name":"Hessen"}},{"name":"Münchhausener Str.","postalCode":"03253","locality":"Doberlug-Kirchhain","municipality":{"key":"12062092","name":"Doberlug-Kirchhain, Stadt","type":"Stadt"},"district":{"key":"12062","name":"Elbe-Elster","type":"Landkreis"},"federalState":{"key":"12","name":"Brandenburg"}},{"name":"Naherholungsgebiet Sandfang","postalCode":"35274","locality":"Kirchhain","municipality":{"key":"06534011","name":"Kirchhain, Stadt","type":"Stadt"},"district":{"key":"06534","name":"Marburg-Biedenkopf","type":"Landkreis"},"federalState":{"key":"06","name":"Hessen"}},{"name":"Naturerlebnis Erlensee","postalCode":"35274","locality":"Kirchhain","municipality":{"key":"06534011","name":"Kirchhain, Stadt","type":"Stadt"},"district":{"key":"06534","name":"Marburg-Biedenkopf","type":"Landkreis"},"federalState":{"key":"06","name":"Hessen"}},{"name":"Nebelsberger Weg","postalCode":"35274","locality":"Kirchhain","municipality":{"key":"06534011","name":"Kirchhain, Stadt","type":"Stadt"},"district":{"key":"06534","name":"Marburg-Biedenkopf","type":"Landkreis"},"federalState":{"key":"06","name":"Hessen"}},{"name":"Nelkenstr.","postalCode":"35274","locality":"Kirchhain","municipality":{"key":"06534011","name":"Kirchhain, Stadt","type":"Stadt"},"district":{"key":"06534","name":"Marburg-Biedenkopf","type":"Landkreis"},"federalState":{"key":"06","name":"Hessen"}},{"name":"Nelkenweg","postalCode":"35274","locality":"Kirchhain","municipality":{"key":"06534011","name":"Kirchhain, Stadt","type":"Stadt"},"district":{"key":"06534","name":"Marburg-Biedenkopf","type":"Landkreis"},"federalState":{"key":"06","name":"Hessen"}},{"name":"Nexdorfer Dorfstr.","postalCode":"03253","locality":"Doberlug-Kirchhain","municipality":{"key":"12062092","name":"Doberlug-Kirchhain, Stadt","type":"Stadt"},"district":{"key":"12062","name":"Elbe-Elster","type":"Landkreis"},"federalState":{"key":"12","name":"Brandenburg"}},{"name":"Nexdorfer Hauptstr.","postalCode":"03253","locality":"Doberlug-Kirchhain","municipality":{"key":"12062092","name":"Doberlug-Kirchhain, Stadt","type":"Stadt"},"district":{"key":"12062","name":"Elbe-Elster","type":"Landkreis"},"federalState":{"key":"12","name":"Brandenburg"}},{"name":"Niederrheinische Str.","postalCode":"35274","locality":"Kirchhain","municipality":{"key":"06534011","name":"Kirchhain, Stadt","type":"Stadt"},"district":{"key":"06534","name":"Marburg-Biedenkopf","type":"Landkreis"},"federalState":{"key":"06","name":"Hessen"}},{"name":"Obere Gärten","postalCode":"35274","locality":"Kirchhain","municipality":{"key":"06534011","name":"Kirchhain, Stadt","type":"Stadt"},"district":{"key":"06534","name":"Marburg-Biedenkopf","type":"Landkreis"},"federalState":{"key":"06","name":"Hessen"}},{"name":"Oberer Esperweg","postalCode":"35274","locality":"Kirchhain","municipality":{"key":"06534011","name":"Kirchhain, Stadt","type":"Stadt"},"district":{"key":"06534","name":"Marburg-Biedenkopf","type":"Landkreis"},"federalState":{"key":"06","name":"Hessen"}},{"name":"Oberer Ohmweg","postalCode":"35274","locality":"Kirchhain","municipality":{"key":"06534011","name":"Kirchhain, Stadt","type":"Stadt"},"district":{"key":"06534","name":"Marburg-Biedenkopf","type":"Landkreis"},"federalState":{"key":"06","name":"Hessen"}},{"name":"Obergasse","postalCode":"35274","locality":"Kirchhain","municipality":{"key":"06534011","name":"Kirchhain, Stadt","type":"Stadt"},"district":{"key":"06534","name":"Marburg-Biedenkopf","type":"Landkreis"},"federalState":{"key":"06","name":"Hessen"}},{"name":"Oelsiger Str.","postalCode":"03253","locality":"Doberlug-Kirchhain","municipality":{"key":"12062092","name":"Doberlug-Kirchhain, Stadt","type":"Stadt"},"district":{"key":"12062","name":"Elbe-Elster","type":"Landkreis"},"federalState":{"key":"12","name":"Brandenburg"}},{"name":"Ohmstr.","postalCode":"35274","locality":"Kirchhain","municipality":{"key":"06534011","name":"Kirchhain, Stadt","type":"Stadt"},"district":{"key":"06534","name":"Marburg-Biedenkopf","type":"Landkreis"},"federalState":{"key":"06","name":"Hessen"}},{"name":"Oststr.","postalCode":"03253","locality":"Doberlug-Kirchhain","municipality":{"key":"12062092","name":"Doberlug-Kirchhain, Stadt","type":"Stadt"},"district":{"key":"12062","name":"Elbe-Elster","type":"Landkreis"},"federalState":{"key":"12","name":"Brandenburg"}},{"name":"Pestalozziplatz","postalCode":"03253","locality":"Doberlug-Kirchhain","municipality":{"key":"12062092","name":"Doberlug-Kirchhain, Stadt","type":"Stadt"},"district":{"key":"12062","name":"Elbe-Elster","type":"Landkreis"},"federalState":{"key":"12","name":"Brandenburg"}},{"name":"Pestalozzistr.","postalCode":"35274","locality":"Kirchhain","municipality":{"key":"06534011","name":"Kirchhain, Stadt","type":"Stadt"},"district":{"key":"06534","name":"Marburg-Biedenkopf","type":"Landkreis"},"federalState":{"key":"06","name":"Hessen"}},{"name":"Pfarrweg","postalCode":"35274","locality":"Kirchhain","municipality":{"key":"06534011","name":"Kirchhain, Stadt","type":"Stadt"},"district":{"key":"06534","name":"Marburg-Biedenkopf","type":"Landkreis"},"federalState":{"key":"06","name":"Hessen"}},{"name":"Pitzeweg","postalCode":"35274","locality":"Kirchhain","municipality":{"key":"06534011","name":"Kirchhain, Stadt","type":"Stadt"},"district":{"key":"06534","name":"Marburg-Biedenkopf","type":"Landkreis"},"federalState":{"key":"06","name":"Hessen"}},{"name":"Platzäcker","postalCode":"35274","locality":"Kirchhain","municipality":{"key":"06534011","name":"Kirchhain, Stadt","type":"Stadt"},"district":{"key":"06534","name":"Marburg-Biedenkopf","type":"Landkreis"},"federalState":{"key":"06","name":"Hessen"}},{"name":"Plomeliner Str.","postalCode":"35274","locality":"Kirchhain","municipality":{"key":"06534011","name":"Kirchhain, Stadt","type":"Stadt"},"district":{"key":"06534","name":"Marburg-Biedenkopf","type":"Landkreis"},"federalState":{"key":"06","name":"Hessen"}},{"name":"Posener Str.","postalCode":"35274","locality":"Kirchhain","municipality":{"key":"06534011","name":"Kirchhain, Stadt","type":"Stadt"},"district":{"key":"06534","name":"Marburg-Biedenkopf","type":"Landkreis"},"federalState":{"key":"06","name":"Hessen"}},{"name":"Poststr.","postalCode":"03253","locality":"Doberlug-Kirchhain","municipality":{"key":"12062092","name":"Doberlug-Kirchhain, Stadt","type":"Stadt"},"district":{"key":"12062","name":"Elbe-Elster","type":"Landkreis"},"federalState":{"key":"12","name":"Brandenburg"}},{"name":"Potsdamer Str.","postalCode":"03253","locality":"Doberlug-Kirchhain","municipality":{"key":"12062092","name":"Doberlug-Kirchhain, Stadt","type":"Stadt"},"district":{"key":"12062","name":"Elbe-Elster","type":"Landkreis"},"federalState":{"key":"12","name":"Brandenburg"}},{"name":"Potsdamer Str.","postalCode":"35274","locality":"Kirchhain","municipality":{"key":"06534011","name":"Kirchhain, Stadt","type":"Stadt"},"district":{"key":"06534","name":"Marburg-Biedenkopf","type":"Landkreis"},"federalState":{"key":"06","name":"Hessen"}},{"name":"Prießener Str.","postalCode":"03253","locality":"Doberlug-Kirchhain","municipality":{"key":"12062092","name":"Doberlug-Kirchhain, Stadt","type":"Stadt"},"district":{"key":"12062","name":"Elbe-Elster","type":"Landkreis"},"federalState":{"key":"12","name":"Brandenburg"}},{"name":"Promenadenweg","postalCode":"35274","locality":"Kirchhain","municipality":{"key":"06534011","name":"Kirchhain, Stadt","type":"Stadt"},"district":{"key":"06534","name":"Marburg-Biedenkopf","type":"Landkreis"},"federalState":{"key":"06","name":"Hessen"}},{"name":"Querstr.","postalCode":"03253","locality":"Doberlug-Kirchhain","municipality":{"key":"12062092","name":"Doberlug-Kirchhain, Stadt","type":"Stadt"},"district":{"key":"12062","name":"Elbe-Elster","type":"Landkreis"},"federalState":{"key":"12","name":"Brandenburg"}},{"name":"Raiffeisenstr.","postalCode":"35274","locality":"Kirchhain","municipality":{"key":"06534011","name":"Kirchhain, Stadt","type":"Stadt"},"district":{"key":"06534","name":"Marburg-Biedenkopf","type":"Landkreis"},"federalState":{"key":"06","name":"Hessen"}},{"name":"Raiffeisenweg","postalCode":"35274","locality":"Kirchhain","municipality":{"key":"06534011","name":"Kirchhain, Stadt","type":"Stadt"},"district":{"key":"06534","name":"Marburg-Biedenkopf","type":"Landkreis"},"federalState":{"key":"06","name":"Hessen"}},{"name":"Rathausstr.","postalCode":"03253","locality":"Doberlug-Kirchhain","municipality":{"key":"12062092","name":"Doberlug-Kirchhain, Stadt","type":"Stadt"},"district":{"key":"12062","name":"Elbe-Elster","type":"Landkreis"},"federalState":{"key":"12","name":"Brandenburg"}},{"name":"Rauschenberger Str.","postalCode":"35274","locality":"Kirchhain","municipality":{"key":"06534011","name":"Kirchhain, Stadt","type":"Stadt"},"district":{"key":"06534","name":"Marburg-Biedenkopf","type":"Landkreis"},"federalState":{"key":"06","name":"Hessen"}},{"name":"Rheinstr.","postalCode":"35274","locality":"Kirchhain","municipality":{"key":"06534011","name":"Kirchhain, Stadt","type":"Stadt"},"district":{"key":"06534","name":"Marburg-Biedenkopf","type":"Landkreis"},"federalState":{"key":"06","name":"Hessen"}},{"name":"Richard-Strauss-Str.","postalCode":"35274","locality":"Kirchhain","municipality":{"key":"06534011","name":"Kirchhain, Stadt","type":"Stadt"},"district":{"key":"06534","name":"Marburg-Biedenkopf","type":"Landkreis"},"federalState":{"key":"06","name":"Hessen"}},{"name":"Richard-Wagner-Str.","postalCode":"35274","locality":"Kirchhain","municipality":{"key":"06534011","name":"Kirchhain, Stadt","type":"Stadt"},"district":{"key":"06534","name":"Marburg-Biedenkopf","type":"Landkreis"},"federalState":{"key":"06","name":"Hessen"}},{"name":"Riedestr.","postalCode":"35274","locality":"Kirchhain","municipality":{"key":"06534011","name":"Kirchhain, Stadt","type":"Stadt"},"district":{"key":"06534","name":"Marburg-Biedenkopf","type":"Landkreis"},"federalState":{"key":"06","name":"Hessen"}},{"name":"Ringstr.","postalCode":"35274","locality":"Kirchhain","municipality":{"key":"06534011","name":"Kirchhain, Stadt","type":"Stadt"},"district":{"key":"06534","name":"Marburg-Biedenkopf","type":"Landkreis"},"federalState":{"key":"06","name":"Hessen"}},{"name":"Rittersteig","postalCode":"03253","locality":"Doberlug-Kirchhain","municipality":{"key":"12062092","name":"Doberlug-Kirchhain, Stadt","type":"Stadt"},"district":{"key":"12062","name":"Elbe-Elster","type":"Landkreis"},"federalState":{"key":"12","name":"Brandenburg"}},{"name":"Rodelstr.","postalCode":"35274","locality":"Kirchhain","municipality":{"key":"06534011","name":"Kirchhain, Stadt","type":"Stadt"},"district":{"key":"06534","name":"Marburg-Biedenkopf","type":"Landkreis"},"federalState":{"key":"06","name":"Hessen"}},{"name":"Röllgaßgarten","postalCode":"35274","locality":"Kirchhain","municipality":{"key":"06534011","name":"Kirchhain, Stadt","type":"Stadt"},"district":{"key":"06534","name":"Marburg-Biedenkopf","type":"Landkreis"},"federalState":{"key":"06","name":"Hessen"}},{"name":"Rollstuhlauffahrt","postalCode":"35274","locality":"Kirchhain","municipality":{"key":"06534011","name":"Kirchhain, Stadt","type":"Stadt"},"district":{"key":"06534","name":"Marburg-Biedenkopf","type":"Landkreis"},"federalState":{"key":"06","name":"Hessen"}},{"name":"Römerstr.","postalCode":"35274","locality":"Kirchhain","municipality":{"key":"06534011","name":"Kirchhain, Stadt","type":"Stadt"},"district":{"key":"06534","name":"Marburg-Biedenkopf","type":"Landkreis"},"federalState":{"key":"06","name":"Hessen"}},{"name":"Rosa-Luxemburg-Str.","postalCode":"03253","locality":"Doberlug-Kirchhain","municipality":{"key":"12062092","name":"Doberlug-Kirchhain, Stadt","type":"Stadt"},"district":{"key":"12062","name":"Elbe-Elster","type":"Landkreis"},"federalState":{"key":"12","name":"Brandenburg"}},{"name":"Rosenstr.","postalCode":"35274","locality":"Kirchhain","municipality":{"key":"06534011","name":"Kirchhain, Stadt","type":"Stadt"},"district":{"key":"06534","name":"Marburg-Biedenkopf","type":"Landkreis"},"federalState":{"key":"06","name":"Hessen"}},{"name":"Roßdorfer Str.","postalCode":"35274","locality":"Kirchhain","municipality":{"key":"06534011","name":"Kirchhain, Stadt","type":"Stadt"},"district":{"key":"06534","name":"Marburg-Biedenkopf","type":"Landkreis"},"federalState":{"key":"06","name":"Hessen"}},{"name":"Rostocker Str.","postalCode":"35274","locality":"Kirchhain","municipality":{"key":"06534011","name":"Kirchhain, Stadt","type":"Stadt"},"district":{"key":"06534","name":"Marburg-Biedenkopf","type":"Landkreis"},"federalState":{"key":"06","name":"Hessen"}},{"name":"Rotenbergstr.","postalCode":"35274","locality":"Kirchhain","municipality":{"key":"06534011","name":"Kirchhain, Stadt","type":"Stadt"},"district":{"key":"06534","name":"Marburg-Biedenkopf","type":"Landkreis"},"federalState":{"key":"06","name":"Hessen"}},{"name":"Roter Weg","postalCode":"35274","locality":"Kirchhain","municipality":{"key":"06534011","name":"Kirchhain, Stadt","type":"Stadt"},"district":{"key":"06534","name":"Marburg-Biedenkopf","type":"Landkreis"},"federalState":{"key":"06","name":"Hessen"}},{"name":"Röthestr.","postalCode":"35274","locality":"Kirchhain","municipality":{"key":"06534011","name":"Kirchhain, Stadt","type":"Stadt"},"district":{"key":"06534","name":"Marburg-Biedenkopf","type":"Landkreis"},"federalState":{"key":"06","name":"Hessen"}},{"name":"Rotkehlchenweg","postalCode":"35274","locality":"Kirchhain","municipality":{"key":"06534011","name":"Kirchhain, Stadt","type":"Stadt"},"district":{"key":"06534","name":"Marburg-Biedenkopf","type":"Landkreis"},"federalState":{"key":"06","name":"Hessen"}},{"name":"Rotsgärtenstr.","postalCode":"35274","locality":"Kirchhain","municipality":{"key":"06534011","name":"Kirchhain, Stadt","type":"Stadt"},"district":{"key":"06534","name":"Marburg-Biedenkopf","type":"Landkreis"},"federalState":{"key":"06","name":"Hessen"}},{"name":"Rückersdorfer Str.","postalCode":"03253","locality":"Doberlug-Kirchhain","municipality":{"key":"12062092","name":"Doberlug-Kirchhain, Stadt","type":"Stadt"},"district":{"key":"12062","name":"Elbe-Elster","type":"Landkreis"},"federalState":{"key":"12","name":"Brandenburg"}},{"name":"Saalfeldstr.","postalCode":"35274","locality":"Kirchhain","municipality":{"key":"06534011","name":"Kirchhain, Stadt","type":"Stadt"},"district":{"key":"06534","name":"Marburg-Biedenkopf","type":"Landkreis"},"federalState":{"key":"06","name":"Hessen"}},{"name":"Sandweg","postalCode":"35274","locality":"Kirchhain","municipality":{"key":"06534011","name":"Kirchhain, Stadt","type":"Stadt"},"district":{"key":"06534","name":"Marburg-Biedenkopf","type":"Landkreis"},"federalState":{"key":"06","name":"Hessen"}},{"name":"Schäferberg","postalCode":"03253","locality":"Doberlug-Kirchhain","municipality":{"key":"12062092","name":"Doberlug-Kirchhain, Stadt","type":"Stadt"},"district":{"key":"12062","name":"Elbe-Elster","type":"Landkreis"},"federalState":{"key":"12","name":"Brandenburg"}},{"name":"Schäferstr.","postalCode":"35274","locality":"Kirchhain","municipality":{"key":"06534011","name":"Kirchhain, Stadt","type":"Stadt"},"district":{"key":"06534","name":"Marburg-Biedenkopf","type":"Landkreis"},"federalState":{"key":"06","name":"Hessen"}},{"name":"Schaffenrathstr.","postalCode":"35274","locality":"Kirchhain","municipality":{"key":"06534011","name":"Kirchhain, Stadt","type":"Stadt"},"district":{"key":"06534","name":"Marburg-Biedenkopf","type":"Landkreis"},"federalState":{"key":"06","name":"Hessen"}},{"name":"Schefferstr.","postalCode":"35274","locality":"Kirchhain","municipality":{"key":"06534011","name":"Kirchhain, Stadt","type":"Stadt"},"district":{"key":"06534","name":"Marburg-Biedenkopf","type":"Landkreis"},"federalState":{"key":"06","name":"Hessen"}},{"name":"Schildaer Str.","postalCode":"03253","locality":"Doberlug-Kirchhain","municipality":{"key":"12062092","name":"Doberlug-Kirchhain, Stadt","type":"Stadt"},"district":{"key":"12062","name":"Elbe-Elster","type":"Landkreis"},"federalState":{"key":"12","name":"Brandenburg"}},{"name":"Schillerpark","postalCode":"03253","locality":"Doberlug-Kirchhain","municipality":{"key":"12062092","name":"Doberlug-Kirchhain, Stadt","type":"Stadt"},"district":{"key":"12062","name":"Elbe-Elster","type":"Landkreis"},"federalState":{"key":"12","name":"Brandenburg"}},{"name":"Schillerstr.","postalCode":"03253","locality":"Doberlug-Kirchhain","municipality":{"key":"12062092","name":"Doberlug-Kirchhain, Stadt","type":"Stadt"},"district":{"key":"12062","name":"Elbe-Elster","type":"Landkreis"},"federalState":{"key":"12","name":"Brandenburg"}},{"name":"Schillerstr.","postalCode":"35274","locality":"Kirchhain","municipality":{"key":"06534011","name":"Kirchhain, Stadt","type":"Stadt"},"district":{"key":"06534","name":"Marburg-Biedenkopf","type":"Landkreis"},"federalState":{"key":"06","name":"Hessen"}},{"name":"Schlosserstr.","postalCode":"35274","locality":"Kirchhain","municipality":{"key":"06534011","name":"Kirchhain, Stadt","type":"Stadt"},"district":{"key":"06534","name":"Marburg-Biedenkopf","type":"Landkreis"},"federalState":{"key":"06","name":"Hessen"}},{"name":"Schloßstr.","postalCode":"03253","locality":"Doberlug-Kirchhain","municipality":{"key":"12062092","name":"Doberlug-Kirchhain, Stadt","type":"Stadt"},"district":{"key":"12062","name":"Elbe-Elster","type":"Landkreis"},"federalState":{"key":"12","name":"Brandenburg"}},{"name":"Schmiedeweg","postalCode":"35274","locality":"Kirchhain","municipality":{"key":"06534011","name":"Kirchhain, Stadt","type":"Stadt"},"district":{"key":"06534","name":"Marburg-Biedenkopf","type":"Landkreis"},"federalState":{"key":"06","name":"Hessen"}},{"name":"Schmittgasse","postalCode":"35274","locality":"Kirchhain","municipality":{"key":"06534011","name":"Kirchhain, Stadt","type":"Stadt"},"district":{"key":"06534","name":"Marburg-Biedenkopf","type":"Landkreis"},"federalState":{"key":"06","name":"Hessen"}},{"name":"Schönbacher Str.","postalCode":"35274","locality":"Kirchhain","municipality":{"key":"06534011","name":"Kirchhain, Stadt","type":"Stadt"},"district":{"key":"06534","name":"Marburg-Biedenkopf","type":"Landkreis"},"federalState":{"key":"06","name":"Hessen"}},{"name":"Schönborner Str.","postalCode":"03253","locality":"Doberlug-Kirchhain","municipality":{"key":"12062092","name":"Doberlug-Kirchhain, Stadt","type":"Stadt"},"district":{"key":"12062","name":"Elbe-Elster","type":"Landkreis"},"federalState":{"key":"12","name":"Brandenburg"}},{"name":"Schöne Aussicht","postalCode":"35274","locality":"Kirchhain","municipality":{"key":"06534011","name":"Kirchhain, Stadt","type":"Stadt"},"district":{"key":"06534","name":"Marburg-Biedenkopf","type":"Landkreis"},"federalState":{"key":"06","name":"Hessen"}},{"name":"Schönstädter Str.","postalCode":"35274","locality":"Kirchhain","municipality":{"key":"06534011","name":"Kirchhain, Stadt","type":"Stadt"},"district":{"key":"06534","name":"Marburg-Biedenkopf","type":"Landkreis"},"federalState":{"key":"06","name":"Hessen"}},{"name":"Schulsteig","postalCode":"03253","locality":"Doberlug-Kirchhain","municipality":{"key":"12062092","name":"Doberlug-Kirchhain, Stadt","type":"Stadt"},"district":{"key":"12062","name":"Elbe-Elster","type":"Landkreis"},"federalState":{"key":"12","name":"Brandenburg"}},{"name":"Schulstr.","postalCode":"03253","locality":"Doberlug-Kirchhain","municipality":{"key":"12062092","name":"Doberlug-Kirchhain, Stadt","type":"Stadt"},"district":{"key":"12062","name":"Elbe-Elster","type":"Landkreis"},"federalState":{"key":"12","name":"Brandenburg"}},{"name":"Schulstr.","postalCode":"35274","locality":"Kirchhain","municipality":{"key":"06534011","name":"Kirchhain, Stadt","type":"Stadt"},"district":{"key":"06534","name":"Marburg-Biedenkopf","type":"Landkreis"},"federalState":{"key":"06","name":"Hessen"}},{"name":"Schulweg","postalCode":"35274","locality":"Kirchhain","municipality":{"key":"06534011","name":"Kirchhain, Stadt","type":"Stadt"},"district":{"key":"06534","name":"Marburg-Biedenkopf","type":"Landkreis"},"federalState":{"key":"06","name":"Hessen"}},{"name":"Schwalbenweg","postalCode":"35274","locality":"Kirchhain","municipality":{"key":"06534011","name":"Kirchhain, Stadt","type":"Stadt"},"district":{"key":"06534","name":"Marburg-Biedenkopf","type":"Landkreis"},"federalState":{"key":"06","name":"Hessen"}},{"name":"Schweizergasse","postalCode":"35274","locality":"Kirchhain","municipality":{"key":"06534011","name":"Kirchhain, Stadt","type":"Stadt"},"district":{"key":"06534","name":"Marburg-Biedenkopf","type":"Landkreis"},"federalState":{"key":"06","name":"Hessen"}},{"name":"Schweriner Str.","postalCode":"35274","locality":"Kirchhain","municipality":{"key":"06534011","name":"Kirchhain, Stadt","type":"Stadt"},"district":{"key":"06534","name":"Marburg-Biedenkopf","type":"Landkreis"},"federalState":{"key":"06","name":"Hessen"}},{"name":"Seitengasse","postalCode":"35274","locality":"Kirchhain","municipality":{"key":"06534011","name":"Kirchhain, Stadt","type":"Stadt"},"district":{"key":"06534","name":"Marburg-Biedenkopf","type":"Landkreis"},"federalState":{"key":"06","name":"Hessen"}},{"name":"Selzweg","postalCode":"03253","locality":"Doberlug-Kirchhain","municipality":{"key":"12062092","name":"Doberlug-Kirchhain, Stadt","type":"Stadt"},"district":{"key":"12062","name":"Elbe-Elster","type":"Landkreis"},"federalState":{"key":"12","name":"Brandenburg"}},{"name":"Semmeweg","postalCode":"35274","locality":"Kirchhain","municipality":{"key":"06534011","name":"Kirchhain, Stadt","type":"Stadt"},"district":{"key":"06534","name":"Marburg-Biedenkopf","type":"Landkreis"},"federalState":{"key":"06","name":"Hessen"}},{"name":"Siedlerweg","postalCode":"03253","locality":"Doberlug-Kirchhain","municipality":{"key":"12062092","name":"Doberlug-Kirchhain, Stadt","type":"Stadt"},"district":{"key":"12062","name":"Elbe-Elster","type":"Landkreis"},"federalState":{"key":"12","name":"Brandenburg"}},{"name":"Siedlung Schulz","postalCode":"03253","locality":"Doberlug-Kirchhain","municipality":{"key":"12062092","name":"Doberlug-Kirchhain, Stadt","type":"Stadt"},"district":{"key":"12062","name":"Elbe-Elster","type":"Landkreis"},"federalState":{"key":"12","name":"Brandenburg"}},{"name":"Siedlungsstr.","postalCode":"35274","locality":"Kirchhain","municipality":{"key":"06534011","name":"Kirchhain, Stadt","type":"Stadt"},"district":{"key":"06534","name":"Marburg-Biedenkopf","type":"Landkreis"},"federalState":{"key":"06","name":"Hessen"}},{"name":"Sindersfelder Str.","postalCode":"35274","locality":"Kirchhain","municipality":{"key":"06534011","name":"Kirchhain, Stadt","type":"Stadt"},"district":{"key":"06534","name":"Marburg-Biedenkopf","type":"Landkreis"},"federalState":{"key":"06","name":"Hessen"}},{"name":"Sonnenallee","postalCode":"35274","locality":"Kirchhain","municipality":{"key":"06534011","name":"Kirchhain, Stadt","type":"Stadt"},"district":{"key":"06534","name":"Marburg-Biedenkopf","type":"Landkreis"},"federalState":{"key":"06","name":"Hessen"}},{"name":"Sonnenstr.","postalCode":"03253","locality":"Doberlug-Kirchhain","municipality":{"key":"12062092","name":"Doberlug-Kirchhain, Stadt","type":"Stadt"},"district":{"key":"12062","name":"Elbe-Elster","type":"Landkreis"},"federalState":{"key":"12","name":"Brandenburg"}},{"name":"Sonnenstr.","postalCode":"35274","locality":"Kirchhain","municipality":{"key":"06534011","name":"Kirchhain, Stadt","type":"Stadt"},"district":{"key":"06534","name":"Marburg-Biedenkopf","type":"Landkreis"},"federalState":{"key":"06","name":"Hessen"}},{"name":"Sonnenweg","postalCode":"35274","locality":"Kirchhain","municipality":{"key":"06534011","name":"Kirchhain, Stadt","type":"Stadt"},"district":{"key":"06534","name":"Marburg-Biedenkopf","type":"Landkreis"},"federalState":{"key":"06","name":"Hessen"}},{"name":"Sonnenwiesenweg","postalCode":"35274","locality":"Kirchhain","municipality":{"key":"06534011","name":"Kirchhain, Stadt","type":"Stadt"},"district":{"key":"06534","name":"Marburg-Biedenkopf","type":"Landkreis"},"federalState":{"key":"06","name":"Hessen"}},{"name":"Sportplatzstr.","postalCode":"35274","locality":"Kirchhain","municipality":{"key":"06534011","name":"Kirchhain, Stadt","type":"Stadt"},"district":{"key":"06534","name":"Marburg-Biedenkopf","type":"Landkreis"},"federalState":{"key":"06","name":"Hessen"}},{"name":"Sportstr.","postalCode":"35274","locality":"Kirchhain","municipality":{"key":"06534011","name":"Kirchhain, Stadt","type":"Stadt"},"district":{"key":"06534","name":"Marburg-Biedenkopf","type":"Landkreis"},"federalState":{"key":"06","name":"Hessen"}},{"name":"Steinhäuser Str.","postalCode":"35274","locality":"Kirchhain","municipality":{"key":"06534011","name":"Kirchhain, Stadt","type":"Stadt"},"district":{"key":"06534","name":"Marburg-Biedenkopf","type":"Landkreis"},"federalState":{"key":"06","name":"Hessen"}},{"name":"Steinstr.","postalCode":"35274","locality":"Kirchhain","municipality":{"key":"06534011","name":"Kirchhain, Stadt","type":"Stadt"},"district":{"key":"06534","name":"Marburg-Biedenkopf","type":"Landkreis"},"federalState":{"key":"06","name":"Hessen"}},{"name":"Steinweg","postalCode":"35274","locality":"Kirchhain","municipality":{"key":"06534011","name":"Kirchhain, Stadt","type":"Stadt"},"district":{"key":"06534","name":"Marburg-Biedenkopf","type":"Landkreis"},"federalState":{"key":"06","name":"Hessen"}},{"name":"Stettiner Str.","postalCode":"35274","locality":"Kirchhain","municipality":{"key":"06534011","name":"Kirchhain, Stadt","type":"Stadt"},"district":{"key":"06534","name":"Marburg-Biedenkopf","type":"Landkreis"},"federalState":{"key":"06","name":"Hessen"}},{"name":"Stiegelsberg","postalCode":"35274","locality":"Kirchhain","municipality":{"key":"06534011","name":"Kirchhain, Stadt","type":"Stadt"},"district":{"key":"06534","name":"Marburg-Biedenkopf","type":"Landkreis"},"federalState":{"key":"06","name":"Hessen"}},{"name":"Str. der Jugend","postalCode":"03253","locality":"Doberlug-Kirchhain","municipality":{"key":"12062092","name":"Doberlug-Kirchhain, Stadt","type":"Stadt"},"district":{"key":"12062","name":"Elbe-Elster","type":"Landkreis"},"federalState":{"key":"12","name":"Brandenburg"}},{"name":"Str.nackerring","postalCode":"35274","locality":"Kirchhain","municipality":{"key":"06534011","name":"Kirchhain, Stadt","type":"Stadt"},"district":{"key":"06534","name":"Marburg-Biedenkopf","type":"Landkreis"},"federalState":{"key":"06","name":"Hessen"}},{"name":"Südeck","postalCode":"03253","locality":"Doberlug-Kirchhain","municipality":{"key":"12062092","name":"Doberlug-Kirchhain, Stadt","type":"Stadt"},"district":{"key":"12062","name":"Elbe-Elster","type":"Landkreis"},"federalState":{"key":"12","name":"Brandenburg"}},{"name":"Südstr.","postalCode":"03253","locality":"Doberlug-Kirchhain","municipality":{"key":"12062092","name":"Doberlug-Kirchhain, Stadt","type":"Stadt"},"district":{"key":"12062","name":"Elbe-Elster","type":"Landkreis"},"federalState":{"key":"12","name":"Brandenburg"}},{"name":"Südweg","postalCode":"03253","locality":"Doberlug-Kirchhain","municipality":{"key":"12062092","name":"Doberlug-Kirchhain, Stadt","type":"Stadt"},"district":{"key":"12062","name":"Elbe-Elster","type":"Landkreis"},"federalState":{"key":"12","name":"Brandenburg"}},{"name":"Tannenweg","postalCode":"35274","locality":"Kirchhain","municipality":{"key":"06534011","name":"Kirchhain, Stadt","type":"Stadt"},"district":{"key":"06534","name":"Marburg-Biedenkopf","type":"Landkreis"},"federalState":{"key":"06","name":"Hessen"}},{"name":"Taubenweg","postalCode":"35274","locality":"Kirchhain","municipality":{"key":"06534011","name":"Kirchhain, Stadt","type":"Stadt"},"district":{"key":"06534","name":"Marburg-Biedenkopf","type":"Landkreis"},"federalState":{"key":"06","name":"Hessen"}},{"name":"Teichmannsgärten","postalCode":"35274","locality":"Kirchhain","municipality":{"key":"06534011","name":"Kirchhain, Stadt","type":"Stadt"},"district":{"key":"06534","name":"Marburg-Biedenkopf","type":"Landkreis"},"federalState":{"key":"06","name":"Hessen"}},{"name":"Teichstr.","postalCode":"35274","locality":"Kirchhain","municipality":{"key":"06534011","name":"Kirchhain, Stadt","type":"Stadt"},"district":{"key":"06534","name":"Marburg-Biedenkopf","type":"Landkreis"},"federalState":{"key":"06","name":"Hessen"}},{"name":"Teichweg","postalCode":"35274","locality":"Kirchhain","municipality":{"key":"06534011","name":"Kirchhain, Stadt","type":"Stadt"},"district":{"key":"06534","name":"Marburg-Biedenkopf","type":"Landkreis"},"federalState":{"key":"06","name":"Hessen"}},{"name":"Theodor-Fontane-Str.","postalCode":"35274","locality":"Kirchhain","municipality":{"key":"06534011","name":"Kirchhain, Stadt","type":"Stadt"},"district":{"key":"06534","name":"Marburg-Biedenkopf","type":"Landkreis"},"federalState":{"key":"06","name":"Hessen"}},{"name":"Tiergartenstr.","postalCode":"03253","locality":"Doberlug-Kirchhain","municipality":{"key":"12062092","name":"Doberlug-Kirchhain, Stadt","type":"Stadt"},"district":{"key":"12062","name":"Elbe-Elster","type":"Landkreis"},"federalState":{"key":"12","name":"Brandenburg"}},{"name":"Tilsiter Str.","postalCode":"35274","locality":"Kirchhain","municipality":{"key":"06534011","name":"Kirchhain, Stadt","type":"Stadt"},"district":{"key":"06534","name":"Marburg-Biedenkopf","type":"Landkreis"},"federalState":{"key":"06","name":"Hessen"}},{"name":"Torgauer Str.","postalCode":"03253","locality":"Doberlug-Kirchhain","municipality":{"key":"12062092","name":"Doberlug-Kirchhain, Stadt","type":"Stadt"},"district":{"key":"12062","name":"Elbe-Elster","type":"Landkreis"},"federalState":{"key":"12","name":"Brandenburg"}},{"name":"Trauweg","postalCode":"35274","locality":"Kirchhain","municipality":{"key":"06534011","name":"Kirchhain, Stadt","type":"Stadt"},"district":{"key":"06534","name":"Marburg-Biedenkopf","type":"Landkreis"},"federalState":{"key":"06","name":"Hessen"}},{"name":"Trebbus","postalCode":"03253","locality":"Doberlug-Kirchhain","municipality":{"key":"12062092","name":"Doberlug-Kirchhain, Stadt","type":"Stadt"},"district":{"key":"12062","name":"Elbe-Elster","type":"Landkreis"},"federalState":{"key":"12","name":"Brandenburg"}},{"name":"Trift","postalCode":"03253","locality":"Doberlug-Kirchhain","municipality":{"key":"12062092","name":"Doberlug-Kirchhain, Stadt","type":"Stadt"},"district":{"key":"12062","name":"Elbe-Elster","type":"Landkreis"},"federalState":{"key":"12","name":"Brandenburg"}},{"name":"Tulpenweg","postalCode":"35274","locality":"Kirchhain","municipality":{"key":"06534011","name":"Kirchhain, Stadt","type":"Stadt"},"district":{"key":"06534","name":"Marburg-Biedenkopf","type":"Landkreis"},"federalState":{"key":"06","name":"Hessen"}},{"name":"Turmstr.","postalCode":"35274","locality":"Kirchhain","municipality":{"key":"06534011","name":"Kirchhain, Stadt","type":"Stadt"},"district":{"key":"06534","name":"Marburg-Biedenkopf","type":"Landkreis"},"federalState":{"key":"06","name":"Hessen"}},{"name":"Ulrich-Kühn-Str.","postalCode":"03253","locality":"Doberlug-Kirchhain","municipality":{"key":"12062092","name":"Doberlug-Kirchhain, Stadt","type":"Stadt"},"district":{"key":"12062","name":"Elbe-Elster","type":"Landkreis"},"federalState":{"key":"12","name":"Brandenburg"}},{"name":"Umgehungsstr.","postalCode":"03253","locality":"Doberlug-Kirchhain","municipality":{"key":"12062092","name":"Doberlug-Kirchhain, Stadt","type":"Stadt"},"district":{"key":"12062","name":"Elbe-Elster","type":"Landkreis"},"federalState":{"key":"12","name":"Brandenburg"}},{"name":"Unter der Kirche","postalCode":"35274","locality":"Kirchhain","municipality":{"key":"06534011","name":"Kirchhain, Stadt","type":"Stadt"},"district":{"key":"06534","name":"Marburg-Biedenkopf","type":"Landkreis"},"federalState":{"key":"06","name":"Hessen"}},{"name":"Unter der Riede","postalCode":"35274","locality":"Kirchhain","municipality":{"key":"06534011","name":"Kirchhain, Stadt","type":"Stadt"},"district":{"key":"06534","name":"Marburg-Biedenkopf","type":"Landkreis"},"federalState":{"key":"06","name":"Hessen"}},{"name":"Unter der Röte","postalCode":"35274","locality":"Kirchhain","municipality":{"key":"06534011","name":"Kirchhain, Stadt","type":"Stadt"},"district":{"key":"06534","name":"Marburg-Biedenkopf","type":"Landkreis"},"federalState":{"key":"06","name":"Hessen"}},{"name":"Unterer Esperweg","postalCode":"35274","locality":"Kirchhain","municipality":{"key":"06534011","name":"Kirchhain, Stadt","type":"Stadt"},"district":{"key":"06534","name":"Marburg-Biedenkopf","type":"Landkreis"},"federalState":{"key":"06","name":"Hessen"}},{"name":"Unterer Ohmweg","postalCode":"35274","locality":"Kirchhain","municipality":{"key":"06534011","name":"Kirchhain, Stadt","type":"Stadt"},"district":{"key":"06534","name":"Marburg-Biedenkopf","type":"Landkreis"},"federalState":{"key":"06","name":"Hessen"}},{"name":"Untergasse","postalCode":"35274","locality":"Kirchhain","municipality":{"key":"06534011","name":"Kirchhain, Stadt","type":"Stadt"},"district":{"key":"06534","name":"Marburg-Biedenkopf","type":"Landkreis"},"federalState":{"key":"06","name":"Hessen"}},{"name":"Unterm Berg","postalCode":"35274","locality":"Kirchhain","municipality":{"key":"06534011","name":"Kirchhain, Stadt","type":"Stadt"},"district":{"key":"06534","name":"Marburg-Biedenkopf","type":"Landkreis"},"federalState":{"key":"06","name":"Hessen"}},{"name":"Unterm Dorf","postalCode":"35274","locality":"Kirchhain","municipality":{"key":"06534011","name":"Kirchhain, Stadt","type":"Stadt"},"district":{"key":"06534","name":"Marburg-Biedenkopf","type":"Landkreis"},"federalState":{"key":"06","name":"Hessen"}},{"name":"Unterm Groth","postalCode":"35274","locality":"Kirchhain","municipality":{"key":"06534011","name":"Kirchhain, Stadt","type":"Stadt"},"district":{"key":"06534","name":"Marburg-Biedenkopf","type":"Landkreis"},"federalState":{"key":"06","name":"Hessen"}},{"name":"Unterm Zaunacker","postalCode":"35274","locality":"Kirchhain","municipality":{"key":"06534011","name":"Kirchhain, Stadt","type":"Stadt"},"district":{"key":"06534","name":"Marburg-Biedenkopf","type":"Landkreis"},"federalState":{"key":"06","name":"Hessen"}},{"name":"Vinzenz-Koch-Str.","postalCode":"35274","locality":"Kirchhain","municipality":{"key":"06534011","name":"Kirchhain, Stadt","type":"Stadt"},"district":{"key":"06534","name":"Marburg-Biedenkopf","type":"Landkreis"},"federalState":{"key":"06","name":"Hessen"}},{"name":"Vogelgasse","postalCode":"35274","locality":"Kirchhain","municipality":{"key":"06534011","name":"Kirchhain, Stadt","type":"Stadt"},"district":{"key":"06534","name":"Marburg-Biedenkopf","type":"Landkreis"},"federalState":{"key":"06","name":"Hessen"}},{"name":"Vordere Hofstatt","postalCode":"35274","locality":"Kirchhain","municipality":{"key":"06534011","name":"Kirchhain, Stadt","type":"Stadt"},"district":{"key":"06534","name":"Marburg-Biedenkopf","type":"Landkreis"},"federalState":{"key":"06","name":"Hessen"}},{"name":"Waldhufenstr.","postalCode":"03253","locality":"Doberlug-Kirchhain","municipality":{"key":"12062092","name":"Doberlug-Kirchhain, Stadt","type":"Stadt"},"district":{"key":"12062","name":"Elbe-Elster","type":"Landkreis"},"federalState":{"key":"12","name":"Brandenburg"}},{"name":"Waldstr.","postalCode":"35274","locality":"Kirchhain","municipality":{"key":"06534011","name":"Kirchhain, Stadt","type":"Stadt"},"district":{"key":"06534","name":"Marburg-Biedenkopf","type":"Landkreis"},"federalState":{"key":"06","name":"Hessen"}},{"name":"Wallgasse","postalCode":"35274","locality":"Kirchhain","municipality":{"key":"06534011","name":"Kirchhain, Stadt","type":"Stadt"},"district":{"key":"06534","name":"Marburg-Biedenkopf","type":"Landkreis"},"federalState":{"key":"06","name":"Hessen"}},{"name":"Walther-Rathenau-Str.","postalCode":"03253","locality":"Doberlug-Kirchhain","municipality":{"key":"12062092","name":"Doberlug-Kirchhain, Stadt","type":"Stadt"},"district":{"key":"12062","name":"Elbe-Elster","type":"Landkreis"},"federalState":{"key":"12","name":"Brandenburg"}},{"name":"Weg am Umspannwerk","postalCode":"03253","locality":"Doberlug-Kirchhain","municipality":{"key":"12062092","name":"Doberlug-Kirchhain, Stadt","type":"Stadt"},"district":{"key":"12062","name":"Elbe-Elster","type":"Landkreis"},"federalState":{"key":"12","name":"Brandenburg"}},{"name":"Weidegasse","postalCode":"35274","locality":"Kirchhain","municipality":{"key":"06534011","name":"Kirchhain, Stadt","type":"Stadt"},"district":{"key":"06534","name":"Marburg-Biedenkopf","type":"Landkreis"},"federalState":{"key":"06","name":"Hessen"}},{"name":"Weidenstr.","postalCode":"35274","locality":"Kirchhain","municipality":{"key":"06534011","name":"Kirchhain, Stadt","type":"Stadt"},"district":{"key":"06534","name":"Marburg-Biedenkopf","type":"Landkreis"},"federalState":{"key":"06","name":"Hessen"}},{"name":"Weimarer Str.","postalCode":"35274","locality":"Kirchhain","municipality":{"key":"06534011","name":"Kirchhain, Stadt","type":"Stadt"},"district":{"key":"06534","name":"Marburg-Biedenkopf","type":"Landkreis"},"federalState":{"key":"06","name":"Hessen"}},{"name":"Weinberg","postalCode":"35274","locality":"Kirchhain","municipality":{"key":"06534011","name":"Kirchhain, Stadt","type":"Stadt"},"district":{"key":"06534","name":"Marburg-Biedenkopf","type":"Landkreis"},"federalState":{"key":"06","name":"Hessen"}},{"name":"Werenzhainer Hauptstr.","postalCode":"03253","locality":"Doberlug-Kirchhain","municipality":{"key":"12062092","name":"Doberlug-Kirchhain, Stadt","type":"Stadt"},"district":{"key":"12062","name":"Elbe-Elster","type":"Landkreis"},"federalState":{"key":"12","name":"Brandenburg"}},{"name":"Werenzhainer Wiesenweg","postalCode":"03253","locality":"Doberlug-Kirchhain","municipality":{"key":"12062092","name":"Doberlug-Kirchhain, Stadt","type":"Stadt"},"district":{"key":"12062","name":"Elbe-Elster","type":"Landkreis"},"federalState":{"key":"12","name":"Brandenburg"}},{"name":"Werenzhainer Ziegelei","postalCode":"03253","locality":"Doberlug-Kirchhain","municipality":{"key":"12062092","name":"Doberlug-Kirchhain, Stadt","type":"Stadt"},"district":{"key":"12062","name":"Elbe-Elster","type":"Landkreis"},"federalState":{"key":"12","name":"Brandenburg"}},{"name":"Werksstr. MKK","postalCode":"03253","locality":"Doberlug-Kirchhain","municipality":{"key":"12062092","name":"Doberlug-Kirchhain, Stadt","type":"Stadt"},"district":{"key":"12062","name":"Elbe-Elster","type":"Landkreis"},"federalState":{"key":"12","name":"Brandenburg"}},{"name":"Weserstr.","postalCode":"35274","locality":"Kirchhain","municipality":{"key":"06534011","name":"Kirchhain, Stadt","type":"Stadt"},"district":{"key":"06534","name":"Marburg-Biedenkopf","type":"Landkreis"},"federalState":{"key":"06","name":"Hessen"}},{"name":"Wickersdorfer Str.","postalCode":"35274","locality":"Kirchhain","municipality":{"key":"06534011","name":"Kirchhain, Stadt","type":"Stadt"},"district":{"key":"06534","name":"Marburg-Biedenkopf","type":"Landkreis"},"federalState":{"key":"06","name":"Hessen"}},{"name":"Wiesenknopfweg","postalCode":"35274","locality":"Kirchhain","municipality":{"key":"06534011","name":"Kirchhain, Stadt","type":"Stadt"},"district":{"key":"06534","name":"Marburg-Biedenkopf","type":"Landkreis"},"federalState":{"key":"06","name":"Hessen"}},{"name":"Wiesenstr.","postalCode":"03253","locality":"Doberlug-Kirchhain","municipality":{"key":"12062092","name":"Doberlug-Kirchhain, Stadt","type":"Stadt"},"district":{"key":"12062","name":"Elbe-Elster","type":"Landkreis"},"federalState":{"key":"12","name":"Brandenburg"}},{"name":"Wiesenweg","postalCode":"03253","locality":"Doberlug-Kirchhain","municipality":{"key":"12062092","name":"Doberlug-Kirchhain, Stadt","type":"Stadt"},"district":{"key":"12062","name":"Elbe-Elster","type":"Landkreis"},"federalState":{"key":"12","name":"Brandenburg"}},{"name":"Wiesenweg","postalCode":"35274","locality":"Kirchhain","municipality":{"key":"06534011","name":"Kirchhain, Stadt","type":"Stadt"},"district":{"key":"06534","name":"Marburg-Biedenkopf","type":"Landkreis"},"federalState":{"key":"06","name":"Hessen"}},{"name":"Wilhelm-Busch-Str.","postalCode":"35274","locality":"Kirchhain","municipality":{"key":"06534011","name":"Kirchhain, Stadt","type":"Stadt"},"district":{"key":"06534","name":"Marburg-Biedenkopf","type":"Landkreis"},"federalState":{"key":"06","name":"Hessen"}},{"name":"Wilhelm-Noll-Str.","postalCode":"35274","locality":"Kirchhain","municipality":{"key":"06534011","name":"Kirchhain, Stadt","type":"Stadt"},"district":{"key":"06534","name":"Marburg-Biedenkopf","type":"Landkreis"},"federalState":{"key":"06","name":"Hessen"}},{"name":"Willersdorfer Str.","postalCode":"35274","locality":"Kirchhain","municipality":{"key":"06534011","name":"Kirchhain, Stadt","type":"Stadt"},"district":{"key":"06534","name":"Marburg-Biedenkopf","type":"Landkreis"},"federalState":{"key":"06","name":"Hessen"}},{"name":"Wohratalstr.","postalCode":"35274","locality":"Kirchhain","municipality":{"key":"06534011","name":"Kirchhain, Stadt","type":"Stadt"},"district":{"key":"06534","name":"Marburg-Biedenkopf","type":"Landkreis"},"federalState":{"key":"06","name":"Hessen"}},{"name":"Wolfangerstr.","postalCode":"35274","locality":"Kirchhain","municipality":{"key":"06534011","name":"Kirchhain, Stadt","type":"Stadt"},"district":{"key":"06534","name":"Marburg-Biedenkopf","type":"Landkreis"},"federalState":{"key":"06","name":"Hessen"}},{"name":"Wolfartsweg","postalCode":"35274","locality":"Kirchhain","municipality":{"key":"06534011","name":"Kirchhain, Stadt","type":"Stadt"},"district":{"key":"06534","name":"Marburg-Biedenkopf","type":"Landkreis"},"federalState":{"key":"06","name":"Hessen"}},{"name":"Wolfsweg","postalCode":"35274","locality":"Kirchhain","municipality":{"key":"06534011","name":"Kirchhain, Stadt","type":"Stadt"},"district":{"key":"06534","name":"Marburg-Biedenkopf","type":"Landkreis"},"federalState":{"key":"06","name":"Hessen"}},{"name":"Wuhlgartenstr.","postalCode":"35274","locality":"Kirchhain","municipality":{"key":"06534011","name":"Kirchhain, Stadt","type":"Stadt"},"district":{"key":"06534","name":"Marburg-Biedenkopf","type":"Landkreis"},"federalState":{"key":"06","name":"Hessen"}},{"name":"Wuhlgraben","postalCode":"35274","locality":"Kirchhain","municipality":{"key":"06534011","name":"Kirchhain, Stadt","type":"Stadt"},"district":{"key":"06534","name":"Marburg-Biedenkopf","type":"Landkreis"},"federalState":{"key":"06","name":"Hessen"}},{"name":"Ziegelei","postalCode":"03253","locality":"Doberlug-Kirchhain","municipality":{"key":"12062092","name":"Doberlug-Kirchhain, Stadt","type":"Stadt"},"district":{"key":"12062","name":"Elbe-Elster","type":"Landkreis"},"federalState":{"key":"12","name":"Brandenburg"}},{"name":"Ziegeleistr.","postalCode":"35274","locality":"Kirchhain","municipality":{"key":"06534011","name":"Kirchhain, Stadt","type":"Stadt"},"district":{"key":"06534","name":"Marburg-Biedenkopf","type":"Landkreis"},"federalState":{"key":"06","name":"Hessen"}},{"name":"Ziegelgartenstr.","postalCode":"35274","locality":"Kirchhain","municipality":{"key":"06534011","name":"Kirchhain, Stadt","type":"Stadt"},"district":{"key":"06534","name":"Marburg-Biedenkopf","type":"Landkreis"},"federalState":{"key":"06","name":"Hessen"}},{"name":"Zimmerplatzweg","postalCode":"35274","locality":"Kirchhain","municipality":{"key":"06534011","name":"Kirchhain, Stadt","type":"Stadt"},"district":{"key":"06534","name":"Marburg-Biedenkopf","type":"Landkreis"},"federalState":{"key":"06","name":"Hessen"}},{"name":"Zu den Bornwiesen","postalCode":"35274","locality":"Kirchhain","municipality":{"key":"06534011","name":"Kirchhain, Stadt","type":"Stadt"},"district":{"key":"06534","name":"Marburg-Biedenkopf","type":"Landkreis"},"federalState":{"key":"06","name":"Hessen"}},{"name":"Zu den Gänseäckern","postalCode":"35274","locality":"Kirchhain","municipality":{"key":"06534011","name":"Kirchhain, Stadt","type":"Stadt"},"district":{"key":"06534","name":"Marburg-Biedenkopf","type":"Landkreis"},"federalState":{"key":"06","name":"Hessen"}},{"name":"Zu den Jakobsäckern","postalCode":"35274","locality":"Kirchhain","municipality":{"key":"06534011","name":"Kirchhain, Stadt","type":"Stadt"},"district":{"key":"06534","name":"Marburg-Biedenkopf","type":"Landkreis"},"federalState":{"key":"06","name":"Hessen"}},{"name":"Zu den Trieschern","postalCode":"35274","locality":"Kirchhain","municipality":{"key":"06534011","name":"Kirchhain, Stadt","type":"Stadt"},"district":{"key":"06534","name":"Marburg-Biedenkopf","type":"Landkreis"},"federalState":{"key":"06","name":"Hessen"}},{"name":"Zum Ährenfeld","postalCode":"35274","locality":"Kirchhain","municipality":{"key":"06534011","name":"Kirchhain, Stadt","type":"Stadt"},"district":{"key":"06534","name":"Marburg-Biedenkopf","type":"Landkreis"},"federalState":{"key":"06","name":"Hessen"}},{"name":"Zum Damm","postalCode":"35274","locality":"Kirchhain","municipality":{"key":"06534011","name":"Kirchhain, Stadt","type":"Stadt"},"district":{"key":"06534","name":"Marburg-Biedenkopf","type":"Landkreis"},"federalState":{"key":"06","name":"Hessen"}},{"name":"Zum Hornbühl","postalCode":"35274","locality":"Kirchhain","municipality":{"key":"06534011","name":"Kirchhain, Stadt","type":"Stadt"},"district":{"key":"06534","name":"Marburg-Biedenkopf","type":"Landkreis"},"federalState":{"key":"06","name":"Hessen"}},{"name":"Zum Riedhof","postalCode":"35274","locality":"Kirchhain","municipality":{"key":"06534011","name":"Kirchhain, Stadt","type":"Stadt"},"district":{"key":"06534","name":"Marburg-Biedenkopf","type":"Landkreis"},"federalState":{"key":"06","name":"Hessen"}},{"name":"Zum Rosengarten","postalCode":"35274","locality":"Kirchhain","municipality":{"key":"06534011","name":"Kirchhain, Stadt","type":"Stadt"},"district":{"key":"06534","name":"Marburg-Biedenkopf","type":"Landkreis"},"federalState":{"key":"06","name":"Hessen"}},{"name":"Zum Schützenhaus","postalCode":"35274","locality":"Kirchhain","municipality":{"key":"06534011","name":"Kirchhain, Stadt","type":"Stadt"},"district":{"key":"06534","name":"Marburg-Biedenkopf","type":"Landkreis"},"federalState":{"key":"06","name":"Hessen"}},{"name":"Zum Sportplatz","postalCode":"35274","locality":"Kirchhain","municipality":{"key":"06534011","name":"Kirchhain, Stadt","type":"Stadt"},"district":{"key":"06534","name":"Marburg-Biedenkopf","type":"Landkreis"},"federalState":{"key":"06","name":"Hessen"}},{"name":"Zum Torfstich","postalCode":"03253","locality":"Doberlug-Kirchhain","municipality":{"key":"12062092","name":"Doberlug-Kirchhain, Stadt","type":"Stadt"},"district":{"key":"12062","name":"Elbe-Elster","type":"Landkreis"},"federalState":{"key":"12","name":"Brandenburg"}},{"name":"Zum Weingarten","postalCode":"35274","locality":"Kirchhain","municipality":{"key":"06534011","name":"Kirchhain, Stadt","type":"Stadt"},"district":{"key":"06534","name":"Marburg-Biedenkopf","type":"Landkreis"},"federalState":{"key":"06","name":"Hessen"}},{"name":"Zur Alten Seite","postalCode":"35274","locality":"Kirchhain","municipality":{"key":"06534011","name":"Kirchhain, Stadt","type":"Stadt"},"district":{"key":"06534","name":"Marburg-Biedenkopf","type":"Landkreis"},"federalState":{"key":"06","name":"Hessen"}},{"name":"Zur Birkenhecke","postalCode":"35274","locality":"Kirchhain","municipality":{"key":"06534011","name":"Kirchhain, Stadt","type":"Stadt"},"district":{"key":"06534","name":"Marburg-Biedenkopf","type":"Landkreis"},"federalState":{"key":"06","name":"Hessen"}},{"name":"Zur Dorflinde","postalCode":"35274","locality":"Kirchhain","municipality":{"key":"06534011","name":"Kirchhain, Stadt","type":"Stadt"},"district":{"key":"06534","name":"Marburg-Biedenkopf","type":"Landkreis"},"federalState":{"key":"06","name":"Hessen"}},{"name":"Zur Haartmühle","postalCode":"35274","locality":"Kirchhain","municipality":{"key":"06534011","name":"Kirchhain, Stadt","type":"Stadt"},"district":{"key":"06534","name":"Marburg-Biedenkopf","type":"Landkreis"},"federalState":{"key":"06","name":"Hessen"}},{"name":"Zur Hohen Eich","postalCode":"35274","locality":"Kirchhain","municipality":{"key":"06534011","name":"Kirchhain, Stadt","type":"Stadt"},"district":{"key":"06534","name":"Marburg-Biedenkopf","type":"Landkreis"},"federalState":{"key":"06","name":"Hessen"}},{"name":"Zur Obergasse","postalCode":"35274","locality":"Kirchhain","municipality":{"key":"06534011","name":"Kirchhain, Stadt","type":"Stadt"},"district":{"key":"06534","name":"Marburg-Biedenkopf","type":"Landkreis"},"federalState":{"key":"06","name":"Hessen"}},{"name":"Zwetschenweg","postalCode":"35274","locality":"Kirchhain","municipality":{"key":"06534011","name":"Kirchhain, Stadt","type":"Stadt"},"district":{"key":"06534","name":"Marburg-Biedenkopf","type":"Landkreis"},"federalState":{"key":"06","name":"Hessen"}},{"name":"Zwickauer Str.","postalCode":"35274","locality":"Kirchhain","municipality":{"key":"06534011","name":"Kirchhain, Stadt","type":"Stadt"},"district":{"key":"06534","name":"Marburg-Biedenkopf","type":"Landkreis"},"federalState":{"key":"06","name":"Hessen"}},{"name":"Ölsiger Str.","postalCode":"03253","locality":"Doberlug-Kirchhain","municipality":{"key":"12062092","name":"Doberlug-Kirchhain, Stadt","type":"Stadt"},"district":{"key":"12062","name":"Elbe-Elster","type":"Landkreis"},"federalState":{"key":"12","name":"Brandenburg"}},]