[{"name":"Am Kirschberg","postalCode":"01796","locality":"Dohma","municipality":{"key":"14628070","name":"Dohma","type":"Kreisangehörige_Gemeinde"},"district":{"key":"14628","name":"Sächsische Schweiz-Osterzgebirge","type":"Landkreis"},"federalState":{"key":"14","name":"Sachsen"}},{"name":"Am Schloß","postalCode":"01796","locality":"Dohma","municipality":{"key":"14628070","name":"Dohma","type":"Kreisangehörige_Gemeinde"},"district":{"key":"14628","name":"Sächsische Schweiz-Osterzgebirge","type":"Landkreis"},"federalState":{"key":"14","name":"Sachsen"}},{"name":"Am Tunnel","postalCode":"01796","locality":"Dohma","municipality":{"key":"14628070","name":"Dohma","type":"Kreisangehörige_Gemeinde"},"district":{"key":"14628","name":"Sächsische Schweiz-Osterzgebirge","type":"Landkreis"},"federalState":{"key":"14","name":"Sachsen"}},{"name":"Bahretalstr.","postalCode":"01796","locality":"Dohma","municipality":{"key":"14628070","name":"Dohma","type":"Kreisangehörige_Gemeinde"},"district":{"key":"14628","name":"Sächsische Schweiz-Osterzgebirge","type":"Landkreis"},"federalState":{"key":"14","name":"Sachsen"}},{"name":"Buswendeplatz","postalCode":"01796","locality":"Dohma","municipality":{"key":"14628070","name":"Dohma","type":"Kreisangehörige_Gemeinde"},"district":{"key":"14628","name":"Sächsische Schweiz-Osterzgebirge","type":"Landkreis"},"federalState":{"key":"14","name":"Sachsen"}},{"name":"Cotta A","postalCode":"01796","locality":"Dohma","municipality":{"key":"14628070","name":"Dohma","type":"Kreisangehörige_Gemeinde"},"district":{"key":"14628","name":"Sächsische Schweiz-Osterzgebirge","type":"Landkreis"},"federalState":{"key":"14","name":"Sachsen"}},{"name":"Cotta B","postalCode":"01796","locality":"Dohma","municipality":{"key":"14628070","name":"Dohma","type":"Kreisangehörige_Gemeinde"},"district":{"key":"14628","name":"Sächsische Schweiz-Osterzgebirge","type":"Landkreis"},"federalState":{"key":"14","name":"Sachsen"}},{"name":"Cottaer Str.","postalCode":"01796","locality":"Dohma","municipality":{"key":"14628070","name":"Dohma","type":"Kreisangehörige_Gemeinde"},"district":{"key":"14628","name":"Sächsische Schweiz-Osterzgebirge","type":"Landkreis"},"federalState":{"key":"14","name":"Sachsen"}},{"name":"Dorfstr.","postalCode":"01796","locality":"Dohma","municipality":{"key":"14628070","name":"Dohma","type":"Kreisangehörige_Gemeinde"},"district":{"key":"14628","name":"Sächsische Schweiz-Osterzgebirge","type":"Landkreis"},"federalState":{"key":"14","name":"Sachsen"}},{"name":"ehemalige Bahnstrecke Pirna - Großcotta","postalCode":"01796","locality":"Dohma","municipality":{"key":"14628070","name":"Dohma","type":"Kreisangehörige_Gemeinde"},"district":{"key":"14628","name":"Sächsische Schweiz-Osterzgebirge","type":"Landkreis"},"federalState":{"key":"14","name":"Sachsen"}},{"name":"ehem. Bahnstrecke Pirna - Gottleuba","postalCode":"01796","locality":"Dohma","municipality":{"key":"14628070","name":"Dohma","type":"Kreisangehörige_Gemeinde"},"district":{"key":"14628","name":"Sächsische Schweiz-Osterzgebirge","type":"Landkreis"},"federalState":{"key":"14","name":"Sachsen"}},{"name":"Ernst-Nied-Weg","postalCode":"01796","locality":"Dohma","municipality":{"key":"14628070","name":"Dohma","type":"Kreisangehörige_Gemeinde"},"district":{"key":"14628","name":"Sächsische Schweiz-Osterzgebirge","type":"Landkreis"},"federalState":{"key":"14","name":"Sachsen"}},{"name":"Hohe Str.","postalCode":"01796","locality":"Dohma","municipality":{"key":"14628070","name":"Dohma","type":"Kreisangehörige_Gemeinde"},"district":{"key":"14628","name":"Sächsische Schweiz-Osterzgebirge","type":"Landkreis"},"federalState":{"key":"14","name":"Sachsen"}},{"name":"Kühnelsweg","postalCode":"01796","locality":"Dohma","municipality":{"key":"14628070","name":"Dohma","type":"Kreisangehörige_Gemeinde"},"district":{"key":"14628","name":"Sächsische Schweiz-Osterzgebirge","type":"Landkreis"},"federalState":{"key":"14","name":"Sachsen"}},{"name":"Lohmgrund","postalCode":"01796","locality":"Dohma","municipality":{"key":"14628070","name":"Dohma","type":"Kreisangehörige_Gemeinde"},"district":{"key":"14628","name":"Sächsische Schweiz-Osterzgebirge","type":"Landkreis"},"federalState":{"key":"14","name":"Sachsen"}},{"name":"Naumannsweg","postalCode":"01796","locality":"Dohma","municipality":{"key":"14628070","name":"Dohma","type":"Kreisangehörige_Gemeinde"},"district":{"key":"14628","name":"Sächsische Schweiz-Osterzgebirge","type":"Landkreis"},"federalState":{"key":"14","name":"Sachsen"}},{"name":"Neue Str.","postalCode":"01796","locality":"Dohma","municipality":{"key":"14628070","name":"Dohma","type":"Kreisangehörige_Gemeinde"},"district":{"key":"14628","name":"Sächsische Schweiz-Osterzgebirge","type":"Landkreis"},"federalState":{"key":"14","name":"Sachsen"}},{"name":"Obere Siedlung","postalCode":"01796","locality":"Dohma","municipality":{"key":"14628070","name":"Dohma","type":"Kreisangehörige_Gemeinde"},"district":{"key":"14628","name":"Sächsische Schweiz-Osterzgebirge","type":"Landkreis"},"federalState":{"key":"14","name":"Sachsen"}},{"name":"Reichelsweg","postalCode":"01796","locality":"Dohma","municipality":{"key":"14628070","name":"Dohma","type":"Kreisangehörige_Gemeinde"},"district":{"key":"14628","name":"Sächsische Schweiz-Osterzgebirge","type":"Landkreis"},"federalState":{"key":"14","name":"Sachsen"}},{"name":"Schindergraben","postalCode":"01796","locality":"Dohma","municipality":{"key":"14628070","name":"Dohma","type":"Kreisangehörige_Gemeinde"},"district":{"key":"14628","name":"Sächsische Schweiz-Osterzgebirge","type":"Landkreis"},"federalState":{"key":"14","name":"Sachsen"}},{"name":"Schlegelweg","postalCode":"01796","locality":"Dohma","municipality":{"key":"14628070","name":"Dohma","type":"Kreisangehörige_Gemeinde"},"district":{"key":"14628","name":"Sächsische Schweiz-Osterzgebirge","type":"Landkreis"},"federalState":{"key":"14","name":"Sachsen"}},{"name":"Untere Dorfstr.","postalCode":"01796","locality":"Dohma","municipality":{"key":"14628070","name":"Dohma","type":"Kreisangehörige_Gemeinde"},"district":{"key":"14628","name":"Sächsische Schweiz-Osterzgebirge","type":"Landkreis"},"federalState":{"key":"14","name":"Sachsen"}},{"name":"Untere Siedlung","postalCode":"01796","locality":"Dohma","municipality":{"key":"14628070","name":"Dohma","type":"Kreisangehörige_Gemeinde"},"district":{"key":"14628","name":"Sächsische Schweiz-Osterzgebirge","type":"Landkreis"},"federalState":{"key":"14","name":"Sachsen"}},{"name":"Weg der Jungen Pioniere","postalCode":"01796","locality":"Dohma","municipality":{"key":"14628070","name":"Dohma","type":"Kreisangehörige_Gemeinde"},"district":{"key":"14628","name":"Sächsische Schweiz-Osterzgebirge","type":"Landkreis"},"federalState":{"key":"14","name":"Sachsen"}},{"name":"Weinleite","postalCode":"01796","locality":"Dohma","municipality":{"key":"14628070","name":"Dohma","type":"Kreisangehörige_Gemeinde"},"district":{"key":"14628","name":"Sächsische Schweiz-Osterzgebirge","type":"Landkreis"},"federalState":{"key":"14","name":"Sachsen"}},{"name":"Zum Heideberg","postalCode":"01796","locality":"Dohma","municipality":{"key":"14628070","name":"Dohma","type":"Kreisangehörige_Gemeinde"},"district":{"key":"14628","name":"Sächsische Schweiz-Osterzgebirge","type":"Landkreis"},"federalState":{"key":"14","name":"Sachsen"}},]