[{"key":"10195962","name":"Altbürerstrasse","postalCode":"6147","locality":"Altbüron","commune":{"key":"1122","name":"Altbüron","shortName":"Altbüron"},"district":{"key":"315","name":"Wahlkreis Willisau"},"canton":{"key":"3","code":"LU","name":"Luzern"},"status":"Real"},{"key":"10115880","name":"Am Rain","postalCode":"6147","locality":"Altbüron","commune":{"key":"1122","name":"Altbüron","shortName":"Altbüron"},"district":{"key":"315","name":"Wahlkreis Willisau"},"canton":{"key":"3","code":"LU","name":"Luzern"},"status":"Real"},{"key":"10120934","name":"Ausserdorf","postalCode":"6147","locality":"Altbüron","commune":{"key":"1122","name":"Altbüron","shortName":"Altbüron"},"district":{"key":"315","name":"Wahlkreis Willisau"},"canton":{"key":"3","code":"LU","name":"Luzern"},"status":"Real"},{"key":"10196601","name":"Ausserdorfstrasse","postalCode":"6147","locality":"Altbüron","commune":{"key":"1122","name":"Altbüron","shortName":"Altbüron"},"district":{"key":"315","name":"Wahlkreis Willisau"},"canton":{"key":"3","code":"LU","name":"Luzern"},"status":"Real"},{"key":"10196612","name":"Bärgsbodestrasse","postalCode":"6147","locality":"Altbüron","commune":{"key":"1122","name":"Altbüron","shortName":"Altbüron"},"district":{"key":"315","name":"Wahlkreis Willisau"},"canton":{"key":"3","code":"LU","name":"Luzern"},"status":"Real"},{"key":"10196593","name":"Bellevuestrasse","postalCode":"6147","locality":"Altbüron","commune":{"key":"1122","name":"Altbüron","shortName":"Altbüron"},"district":{"key":"315","name":"Wahlkreis Willisau"},"canton":{"key":"3","code":"LU","name":"Luzern"},"status":"Real"},{"key":"10017365","name":"Birkenweg","postalCode":"6147","locality":"Altbüron","commune":{"key":"1122","name":"Altbüron","shortName":"Altbüron"},"district":{"key":"315","name":"Wahlkreis Willisau"},"canton":{"key":"3","code":"LU","name":"Luzern"},"status":"Real"},{"key":"10063413","name":"Blatten","postalCode":"6147","locality":"Altbüron","commune":{"key":"1122","name":"Altbüron","shortName":"Altbüron"},"district":{"key":"315","name":"Wahlkreis Willisau"},"canton":{"key":"3","code":"LU","name":"Luzern"},"status":"Real"},{"key":"10196620","name":"Blattenstrasse","postalCode":"6147","locality":"Altbüron","commune":{"key":"1122","name":"Altbüron","shortName":"Altbüron"},"district":{"key":"315","name":"Wahlkreis Willisau"},"canton":{"key":"3","code":"LU","name":"Luzern"},"status":"Real"},{"key":"10131205","name":"Bohnern","postalCode":"6147","locality":"Altbüron","commune":{"key":"1122","name":"Altbüron","shortName":"Altbüron"},"district":{"key":"315","name":"Wahlkreis Willisau"},"canton":{"key":"3","code":"LU","name":"Luzern"},"status":"Real"},{"key":"10117322","name":"Breite","postalCode":"6147","locality":"Altbüron","commune":{"key":"1122","name":"Altbüron","shortName":"Altbüron"},"district":{"key":"315","name":"Wahlkreis Willisau"},"canton":{"key":"3","code":"LU","name":"Luzern"},"status":"Real"},{"key":"10196602","name":"Breitistrasse","postalCode":"6147","locality":"Altbüron","commune":{"key":"1122","name":"Altbüron","shortName":"Altbüron"},"district":{"key":"315","name":"Wahlkreis Willisau"},"canton":{"key":"3","code":"LU","name":"Luzern"},"status":"Real"},{"key":"10063414","name":"Buchwald","postalCode":"6147","locality":"Altbüron","commune":{"key":"1122","name":"Altbüron","shortName":"Altbüron"},"district":{"key":"315","name":"Wahlkreis Willisau"},"canton":{"key":"3","code":"LU","name":"Luzern"},"status":"Real"},{"key":"10196621","name":"Buechwaldstrasse","postalCode":"6147","locality":"Altbüron","commune":{"key":"1122","name":"Altbüron","shortName":"Altbüron"},"district":{"key":"315","name":"Wahlkreis Willisau"},"canton":{"key":"3","code":"LU","name":"Luzern"},"status":"Real"},{"key":"10017366","name":"Bühl","postalCode":"6147","locality":"Altbüron","commune":{"key":"1122","name":"Altbüron","shortName":"Altbüron"},"district":{"key":"315","name":"Wahlkreis Willisau"},"canton":{"key":"3","code":"LU","name":"Luzern"},"status":"Real"},{"key":"10196603","name":"Chaserewaldstrasse","postalCode":"6147","locality":"Altbüron","commune":{"key":"1122","name":"Altbüron","shortName":"Altbüron"},"district":{"key":"315","name":"Wahlkreis Willisau"},"canton":{"key":"3","code":"LU","name":"Luzern"},"status":"Real"},{"key":"10200862","name":"Chritze","postalCode":"6147","locality":"Altbüron","commune":{"key":"1122","name":"Altbüron","shortName":"Altbüron"},"district":{"key":"315","name":"Wahlkreis Willisau"},"canton":{"key":"3","code":"LU","name":"Luzern"},"status":"Real"},{"key":"10196622","name":"Chritzenstrasse","postalCode":"6147","locality":"Altbüron","commune":{"key":"1122","name":"Altbüron","shortName":"Altbüron"},"district":{"key":"315","name":"Wahlkreis Willisau"},"canton":{"key":"3","code":"LU","name":"Luzern"},"status":"Real"},{"key":"10196594","name":"Chrüzweg","postalCode":"6147","locality":"Altbüron","commune":{"key":"1122","name":"Altbüron","shortName":"Altbüron"},"district":{"key":"315","name":"Wahlkreis Willisau"},"canton":{"key":"3","code":"LU","name":"Luzern"},"status":"Real"},{"key":"10103690","name":"Dorf","postalCode":"6147","locality":"Altbüron","commune":{"key":"1122","name":"Altbüron","shortName":"Altbüron"},"district":{"key":"315","name":"Wahlkreis Willisau"},"canton":{"key":"3","code":"LU","name":"Luzern"},"status":"Real"},{"key":"10097532","name":"Eihölzli","postalCode":"6147","locality":"Altbüron","commune":{"key":"1122","name":"Altbüron","shortName":"Altbüron"},"district":{"key":"315","name":"Wahlkreis Willisau"},"canton":{"key":"3","code":"LU","name":"Luzern"},"status":"Real"},{"key":"10196604","name":"Eihölzlistrasse","postalCode":"6147","locality":"Altbüron","commune":{"key":"1122","name":"Altbüron","shortName":"Altbüron"},"district":{"key":"315","name":"Wahlkreis Willisau"},"canton":{"key":"3","code":"LU","name":"Luzern"},"status":"Real"},{"key":"10196613","name":"Eihölzliwaldstrasse","postalCode":"6147","locality":"Altbüron","commune":{"key":"1122","name":"Altbüron","shortName":"Altbüron"},"district":{"key":"315","name":"Wahlkreis Willisau"},"canton":{"key":"3","code":"LU","name":"Luzern"},"status":"Real"},{"key":"10081838","name":"Eppenwilerstrasse","postalCode":"6147","locality":"Altbüron","commune":{"key":"1122","name":"Altbüron","shortName":"Altbüron"},"district":{"key":"315","name":"Wahlkreis Willisau"},"canton":{"key":"3","code":"LU","name":"Luzern"},"status":"Real"},{"key":"10017954","name":"Erpolingenweg","postalCode":"6147","locality":"Altbüron","commune":{"key":"1122","name":"Altbüron","shortName":"Altbüron"},"district":{"key":"315","name":"Wahlkreis Willisau"},"canton":{"key":"3","code":"LU","name":"Luzern"},"status":"Real"},{"key":"10083465","name":"Feld","postalCode":"6147","locality":"Altbüron","commune":{"key":"1122","name":"Altbüron","shortName":"Altbüron"},"district":{"key":"315","name":"Wahlkreis Willisau"},"canton":{"key":"3","code":"LU","name":"Luzern"},"status":"Real"},{"key":"10004714","name":"Fischbächli","postalCode":"6147","locality":"Altbüron","commune":{"key":"1122","name":"Altbüron","shortName":"Altbüron"},"district":{"key":"315","name":"Wahlkreis Willisau"},"canton":{"key":"3","code":"LU","name":"Luzern"},"status":"Real"},{"key":"10196623","name":"Fischbächlistrasse","postalCode":"6147","locality":"Altbüron","commune":{"key":"1122","name":"Altbüron","shortName":"Altbüron"},"district":{"key":"315","name":"Wahlkreis Willisau"},"canton":{"key":"3","code":"LU","name":"Luzern"},"status":"Real"},{"key":"10187320","name":"Flue","postalCode":"6147","locality":"Altbüron","commune":{"key":"1122","name":"Altbüron","shortName":"Altbüron"},"district":{"key":"315","name":"Wahlkreis Willisau"},"canton":{"key":"3","code":"LU","name":"Luzern"},"status":"Real"},{"key":"10017956","name":"Fronhofenstrasse","postalCode":"6147","locality":"Altbüron","commune":{"key":"1122","name":"Altbüron","shortName":"Altbüron"},"district":{"key":"315","name":"Wahlkreis Willisau"},"canton":{"key":"3","code":"LU","name":"Luzern"},"status":"Real"},{"key":"10017367","name":"Gass","postalCode":"6147","locality":"Altbüron","commune":{"key":"1122","name":"Altbüron","shortName":"Altbüron"},"district":{"key":"315","name":"Wahlkreis Willisau"},"canton":{"key":"3","code":"LU","name":"Luzern"},"status":"Real"},{"key":"10196595","name":"Grosswaldstrasse","postalCode":"6147","locality":"Altbüron","commune":{"key":"1122","name":"Altbüron","shortName":"Altbüron"},"district":{"key":"315","name":"Wahlkreis Willisau"},"canton":{"key":"3","code":"LU","name":"Luzern"},"status":"Real"},{"key":"10017368","name":"Grünbach","postalCode":"6147","locality":"Altbüron","commune":{"key":"1122","name":"Altbüron","shortName":"Altbüron"},"district":{"key":"315","name":"Wahlkreis Willisau"},"canton":{"key":"3","code":"LU","name":"Luzern"},"status":"Real"},{"key":"10017369","name":"Halden","postalCode":"6147","locality":"Altbüron","commune":{"key":"1122","name":"Altbüron","shortName":"Altbüron"},"district":{"key":"315","name":"Wahlkreis Willisau"},"canton":{"key":"3","code":"LU","name":"Luzern"},"status":"Real"},{"key":"10190765","name":"Haldenrain","postalCode":"6147","locality":"Altbüron","commune":{"key":"1122","name":"Altbüron","shortName":"Altbüron"},"district":{"key":"315","name":"Wahlkreis Willisau"},"canton":{"key":"3","code":"LU","name":"Luzern"},"status":"Real"},{"key":"10053819","name":"Hasenacher","postalCode":"6147","locality":"Altbüron","commune":{"key":"1122","name":"Altbüron","shortName":"Altbüron"},"district":{"key":"315","name":"Wahlkreis Willisau"},"canton":{"key":"3","code":"LU","name":"Luzern"},"status":"Real"},{"key":"10196605","name":"Hasenacherwaldstrasse","postalCode":"6147","locality":"Altbüron","commune":{"key":"1122","name":"Altbüron","shortName":"Altbüron"},"district":{"key":"315","name":"Wahlkreis Willisau"},"canton":{"key":"3","code":"LU","name":"Luzern"},"status":"Real"},{"key":"10198842","name":"Hasenacherweg","postalCode":"6147","locality":"Altbüron","commune":{"key":"1122","name":"Altbüron","shortName":"Altbüron"},"district":{"key":"315","name":"Wahlkreis Willisau"},"canton":{"key":"3","code":"LU","name":"Luzern"},"status":"Real"},{"key":"10161911","name":"Haueten","postalCode":"6147","locality":"Altbüron","commune":{"key":"1122","name":"Altbüron","shortName":"Altbüron"},"district":{"key":"315","name":"Wahlkreis Willisau"},"canton":{"key":"3","code":"LU","name":"Luzern"},"status":"Real"},{"key":"10063415","name":"Hauetenmatte","postalCode":"6147","locality":"Altbüron","commune":{"key":"1122","name":"Altbüron","shortName":"Altbüron"},"district":{"key":"315","name":"Wahlkreis Willisau"},"canton":{"key":"3","code":"LU","name":"Luzern"},"status":"Real"},{"key":"10017370","name":"Hiltbrunnen","postalCode":"6147","locality":"Altbüron","commune":{"key":"1122","name":"Altbüron","shortName":"Altbüron"},"district":{"key":"315","name":"Wahlkreis Willisau"},"canton":{"key":"3","code":"LU","name":"Luzern"},"status":"Real"},{"key":"10199780","name":"Hinderbonerestrasse","postalCode":"6147","locality":"Altbüron","commune":{"key":"1122","name":"Altbüron","shortName":"Altbüron"},"district":{"key":"315","name":"Wahlkreis Willisau"},"canton":{"key":"3","code":"LU","name":"Luzern"},"status":"Real"},{"key":"10083466","name":"Hintergass","postalCode":"6147","locality":"Altbüron","commune":{"key":"1122","name":"Altbüron","shortName":"Altbüron"},"district":{"key":"315","name":"Wahlkreis Willisau"},"canton":{"key":"3","code":"LU","name":"Luzern"},"status":"Real"},{"key":"10103691","name":"Horn","postalCode":"6147","locality":"Altbüron","commune":{"key":"1122","name":"Altbüron","shortName":"Altbüron"},"district":{"key":"315","name":"Wahlkreis Willisau"},"canton":{"key":"3","code":"LU","name":"Luzern"},"status":"Real"},{"key":"10115881","name":"Hornstrasse","postalCode":"6147","locality":"Altbüron","commune":{"key":"1122","name":"Altbüron","shortName":"Altbüron"},"district":{"key":"315","name":"Wahlkreis Willisau"},"canton":{"key":"3","code":"LU","name":"Luzern"},"status":"Real"},{"key":"10017371","name":"Hübeli","postalCode":"6147","locality":"Altbüron","commune":{"key":"1122","name":"Altbüron","shortName":"Altbüron"},"district":{"key":"315","name":"Wahlkreis Willisau"},"canton":{"key":"3","code":"LU","name":"Luzern"},"status":"Real"},{"key":"10196614","name":"Hübelistrasse","postalCode":"6147","locality":"Altbüron","commune":{"key":"1122","name":"Altbüron","shortName":"Altbüron"},"district":{"key":"315","name":"Wahlkreis Willisau"},"canton":{"key":"3","code":"LU","name":"Luzern"},"status":"Real"},{"key":"10196606","name":"Kantonsstrasse","postalCode":"6147","locality":"Altbüron","commune":{"key":"1122","name":"Altbüron","shortName":"Altbüron"},"district":{"key":"315","name":"Wahlkreis Willisau"},"canton":{"key":"3","code":"LU","name":"Luzern"},"status":"Real"},{"key":"10196596","name":"Kapellenstrasse","postalCode":"6147","locality":"Altbüron","commune":{"key":"1122","name":"Altbüron","shortName":"Altbüron"},"district":{"key":"315","name":"Wahlkreis Willisau"},"canton":{"key":"3","code":"LU","name":"Luzern"},"status":"Real"},{"key":"10063416","name":"Kasern","postalCode":"6147","locality":"Altbüron","commune":{"key":"1122","name":"Altbüron","shortName":"Altbüron"},"district":{"key":"315","name":"Wahlkreis Willisau"},"canton":{"key":"3","code":"LU","name":"Luzern"},"status":"Real"},{"key":"10053820","name":"Kirchbühl","postalCode":"6147","locality":"Altbüron","commune":{"key":"1122","name":"Altbüron","shortName":"Altbüron"},"district":{"key":"315","name":"Wahlkreis Willisau"},"canton":{"key":"3","code":"LU","name":"Luzern"},"status":"Real"},{"key":"10200861","name":"Kreuzmatte","postalCode":"6147","locality":"Altbüron","commune":{"key":"1122","name":"Altbüron","shortName":"Altbüron"},"district":{"key":"315","name":"Wahlkreis Willisau"},"canton":{"key":"3","code":"LU","name":"Luzern"},"status":"Real"},{"key":"10199781","name":"Längeggstrasse","postalCode":"6147","locality":"Altbüron","commune":{"key":"1122","name":"Altbüron","shortName":"Altbüron"},"district":{"key":"315","name":"Wahlkreis Willisau"},"canton":{"key":"3","code":"LU","name":"Luzern"},"status":"Real"},{"key":"10017373","name":"Linden","postalCode":"6147","locality":"Altbüron","commune":{"key":"1122","name":"Altbüron","shortName":"Altbüron"},"district":{"key":"315","name":"Wahlkreis Willisau"},"canton":{"key":"3","code":"LU","name":"Luzern"},"status":"Real"},{"key":"10063417","name":"Lindenweg","postalCode":"6147","locality":"Altbüron","commune":{"key":"1122","name":"Altbüron","shortName":"Altbüron"},"district":{"key":"315","name":"Wahlkreis Willisau"},"canton":{"key":"3","code":"LU","name":"Luzern"},"status":"Real"},{"key":"10117961","name":"Ludligen","postalCode":"6147","locality":"Altbüron","commune":{"key":"1122","name":"Altbüron","shortName":"Altbüron"},"district":{"key":"315","name":"Wahlkreis Willisau"},"canton":{"key":"3","code":"LU","name":"Luzern"},"status":"Real"},{"key":"10103692","name":"Meichten","postalCode":"6147","locality":"Altbüron","commune":{"key":"1122","name":"Altbüron","shortName":"Altbüron"},"district":{"key":"315","name":"Wahlkreis Willisau"},"canton":{"key":"3","code":"LU","name":"Luzern"},"status":"Real"},{"key":"10157634","name":"Melchnauerstrasse","postalCode":"6147","locality":"Altbüron","commune":{"key":"1122","name":"Altbüron","shortName":"Altbüron"},"district":{"key":"315","name":"Wahlkreis Willisau"},"canton":{"key":"3","code":"LU","name":"Luzern"},"status":"Real"},{"key":"10196607","name":"Möslistrasse","postalCode":"6147","locality":"Altbüron","commune":{"key":"1122","name":"Altbüron","shortName":"Altbüron"},"district":{"key":"315","name":"Wahlkreis Willisau"},"canton":{"key":"3","code":"LU","name":"Luzern"},"status":"Real"},{"key":"10017374","name":"Mühle","postalCode":"6147","locality":"Altbüron","commune":{"key":"1122","name":"Altbüron","shortName":"Altbüron"},"district":{"key":"315","name":"Wahlkreis Willisau"},"canton":{"key":"3","code":"LU","name":"Luzern"},"status":"Real"},{"key":"10117950","name":"Mühlehof","postalCode":"6147","locality":"Altbüron","commune":{"key":"1122","name":"Altbüron","shortName":"Altbüron"},"district":{"key":"315","name":"Wahlkreis Willisau"},"canton":{"key":"3","code":"LU","name":"Luzern"},"status":"Real"},{"key":"10017375","name":"Mühlematte","postalCode":"6147","locality":"Altbüron","commune":{"key":"1122","name":"Altbüron","shortName":"Altbüron"},"district":{"key":"315","name":"Wahlkreis Willisau"},"canton":{"key":"3","code":"LU","name":"Luzern"},"status":"Real"},{"key":"10083467","name":"Müsenbühl","postalCode":"6147","locality":"Altbüron","commune":{"key":"1122","name":"Altbüron","shortName":"Altbüron"},"district":{"key":"315","name":"Wahlkreis Willisau"},"canton":{"key":"3","code":"LU","name":"Luzern"},"status":"Real"},{"key":"10196615","name":"Obere Hornbuechwaldstrasse","postalCode":"6147","locality":"Altbüron","commune":{"key":"1122","name":"Altbüron","shortName":"Altbüron"},"district":{"key":"315","name":"Wahlkreis Willisau"},"canton":{"key":"3","code":"LU","name":"Luzern"},"status":"Real"},{"key":"10165947","name":"Obere Weihermatte","postalCode":"6147","locality":"Altbüron","commune":{"key":"1122","name":"Altbüron","shortName":"Altbüron"},"district":{"key":"315","name":"Wahlkreis Willisau"},"canton":{"key":"3","code":"LU","name":"Luzern"},"status":"Real"},{"key":"10196597","name":"Rainstrasse","postalCode":"6147","locality":"Altbüron","commune":{"key":"1122","name":"Altbüron","shortName":"Altbüron"},"district":{"key":"315","name":"Wahlkreis Willisau"},"canton":{"key":"3","code":"LU","name":"Luzern"},"status":"Real"},{"key":"10200860","name":"Riken","postalCode":"6147","locality":"Altbüron","commune":{"key":"1122","name":"Altbüron","shortName":"Altbüron"},"district":{"key":"315","name":"Wahlkreis Willisau"},"canton":{"key":"3","code":"LU","name":"Luzern"},"status":"Real"},{"key":"10199782","name":"Rikenstrasse","postalCode":"6147","locality":"Altbüron","commune":{"key":"1122","name":"Altbüron","shortName":"Altbüron"},"district":{"key":"315","name":"Wahlkreis Willisau"},"canton":{"key":"3","code":"LU","name":"Luzern"},"status":"Real"},{"key":"10017377","name":"Ring","postalCode":"6147","locality":"Altbüron","commune":{"key":"1122","name":"Altbüron","shortName":"Altbüron"},"district":{"key":"315","name":"Wahlkreis Willisau"},"canton":{"key":"3","code":"LU","name":"Luzern"},"status":"Real"},{"key":"10196608","name":"Rislerestrasse","postalCode":"6147","locality":"Altbüron","commune":{"key":"1122","name":"Altbüron","shortName":"Altbüron"},"district":{"key":"315","name":"Wahlkreis Willisau"},"canton":{"key":"3","code":"LU","name":"Luzern"},"status":"Real"},{"key":"10131211","name":"Roggliswilerstrasse","postalCode":"6147","locality":"Altbüron","commune":{"key":"1122","name":"Altbüron","shortName":"Altbüron"},"district":{"key":"315","name":"Wahlkreis Willisau"},"canton":{"key":"3","code":"LU","name":"Luzern"},"status":"Real"},{"key":"10196598","name":"Roggliswilerstrasse","postalCode":"6147","locality":"Altbüron","commune":{"key":"1122","name":"Altbüron","shortName":"Altbüron"},"district":{"key":"315","name":"Wahlkreis Willisau"},"canton":{"key":"3","code":"LU","name":"Luzern"},"status":"Real"},{"key":"10199783","name":"Roodigstrasse","postalCode":"6147","locality":"Altbüron","commune":{"key":"1122","name":"Altbüron","shortName":"Altbüron"},"district":{"key":"315","name":"Wahlkreis Willisau"},"canton":{"key":"3","code":"LU","name":"Luzern"},"status":"Real"},{"key":"10017379","name":"Säget","postalCode":"6147","locality":"Altbüron","commune":{"key":"1122","name":"Altbüron","shortName":"Altbüron"},"district":{"key":"315","name":"Wahlkreis Willisau"},"canton":{"key":"3","code":"LU","name":"Luzern"},"status":"Real"},{"key":"10196616","name":"Sägethubel","postalCode":"6147","locality":"Altbüron","commune":{"key":"1122","name":"Altbüron","shortName":"Altbüron"},"district":{"key":"315","name":"Wahlkreis Willisau"},"canton":{"key":"3","code":"LU","name":"Luzern"},"status":"Real"},{"key":"10107468","name":"Schlössli","postalCode":"6147","locality":"Altbüron","commune":{"key":"1122","name":"Altbüron","shortName":"Altbüron"},"district":{"key":"315","name":"Wahlkreis Willisau"},"canton":{"key":"3","code":"LU","name":"Luzern"},"status":"Real"},{"key":"10129441","name":"Schlossweg","postalCode":"6147","locality":"Altbüron","commune":{"key":"1122","name":"Altbüron","shortName":"Altbüron"},"district":{"key":"315","name":"Wahlkreis Willisau"},"canton":{"key":"3","code":"LU","name":"Luzern"},"status":"Real"},{"key":"10187321","name":"Schmittenweg","postalCode":"6147","locality":"Altbüron","commune":{"key":"1122","name":"Altbüron","shortName":"Altbüron"},"district":{"key":"315","name":"Wahlkreis Willisau"},"canton":{"key":"3","code":"LU","name":"Luzern"},"status":"Real"},{"key":"10103726","name":"Schulhausweg","postalCode":"6147","locality":"Altbüron","commune":{"key":"1122","name":"Altbüron","shortName":"Altbüron"},"district":{"key":"315","name":"Wahlkreis Willisau"},"canton":{"key":"3","code":"LU","name":"Luzern"},"status":"Real"},{"key":"10053821","name":"Sonnenbühl","postalCode":"6147","locality":"Altbüron","commune":{"key":"1122","name":"Altbüron","shortName":"Altbüron"},"district":{"key":"315","name":"Wahlkreis Willisau"},"canton":{"key":"3","code":"LU","name":"Luzern"},"status":"Real"},{"key":"10017378","name":"Sonnhalde","postalCode":"6147","locality":"Altbüron","commune":{"key":"1122","name":"Altbüron","shortName":"Altbüron"},"district":{"key":"315","name":"Wahlkreis Willisau"},"canton":{"key":"3","code":"LU","name":"Luzern"},"status":"Real"},{"key":"10103693","name":"Stalten","postalCode":"6147","locality":"Altbüron","commune":{"key":"1122","name":"Altbüron","shortName":"Altbüron"},"district":{"key":"315","name":"Wahlkreis Willisau"},"canton":{"key":"3","code":"LU","name":"Luzern"},"status":"Real"},{"key":"10196609","name":"Staltenstrasse","postalCode":"6147","locality":"Altbüron","commune":{"key":"1122","name":"Altbüron","shortName":"Altbüron"},"district":{"key":"315","name":"Wahlkreis Willisau"},"canton":{"key":"3","code":"LU","name":"Luzern"},"status":"Real"},{"key":"10199784","name":"Steigass","postalCode":"6147","locality":"Altbüron","commune":{"key":"1122","name":"Altbüron","shortName":"Altbüron"},"district":{"key":"315","name":"Wahlkreis Willisau"},"canton":{"key":"3","code":"LU","name":"Luzern"},"status":"Real"},{"key":"10063418","name":"Steinhubel","postalCode":"6147","locality":"Altbüron","commune":{"key":"1122","name":"Altbüron","shortName":"Altbüron"},"district":{"key":"315","name":"Wahlkreis Willisau"},"canton":{"key":"3","code":"LU","name":"Luzern"},"status":"Real"},{"key":"10196617","name":"Steinhubelstrasse","postalCode":"6147","locality":"Altbüron","commune":{"key":"1122","name":"Altbüron","shortName":"Altbüron"},"district":{"key":"315","name":"Wahlkreis Willisau"},"canton":{"key":"3","code":"LU","name":"Luzern"},"status":"Real"},{"key":"10196599","name":"Stempechwaldstrasse","postalCode":"6147","locality":"Altbüron","commune":{"key":"1122","name":"Altbüron","shortName":"Altbüron"},"district":{"key":"315","name":"Wahlkreis Willisau"},"canton":{"key":"3","code":"LU","name":"Luzern"},"status":"Real"},{"key":"10083468","name":"St. Urbanstrasse","postalCode":"6147","locality":"Altbüron","commune":{"key":"1122","name":"Altbüron","shortName":"Altbüron"},"district":{"key":"315","name":"Wahlkreis Willisau"},"canton":{"key":"3","code":"LU","name":"Luzern"},"status":"Real"},{"key":"10115882","name":"Talbachmatte","postalCode":"6147","locality":"Altbüron","commune":{"key":"1122","name":"Altbüron","shortName":"Altbüron"},"district":{"key":"315","name":"Wahlkreis Willisau"},"canton":{"key":"3","code":"LU","name":"Luzern"},"status":"Real"},{"key":"10063173","name":"Tannenstrasse","postalCode":"6147","locality":"Altbüron","commune":{"key":"1122","name":"Altbüron","shortName":"Altbüron"},"district":{"key":"315","name":"Wahlkreis Willisau"},"canton":{"key":"3","code":"LU","name":"Luzern"},"status":"Real"},{"key":"10196610","name":"Totebode","postalCode":"6147","locality":"Altbüron","commune":{"key":"1122","name":"Altbüron","shortName":"Altbüron"},"district":{"key":"315","name":"Wahlkreis Willisau"},"canton":{"key":"3","code":"LU","name":"Luzern"},"status":"Real"},{"key":"10199785","name":"Totenbodenstrasse","postalCode":"6147","locality":"Altbüron","commune":{"key":"1122","name":"Altbüron","shortName":"Altbüron"},"district":{"key":"315","name":"Wahlkreis Willisau"},"canton":{"key":"3","code":"LU","name":"Luzern"},"status":"Real"},{"key":"10199786","name":"Tünkelhübeli","postalCode":"6147","locality":"Altbüron","commune":{"key":"1122","name":"Altbüron","shortName":"Altbüron"},"district":{"key":"315","name":"Wahlkreis Willisau"},"canton":{"key":"3","code":"LU","name":"Luzern"},"status":"Real"},{"key":"10063419","name":"Unterdorf","postalCode":"6147","locality":"Altbüron","commune":{"key":"1122","name":"Altbüron","shortName":"Altbüron"},"district":{"key":"315","name":"Wahlkreis Willisau"},"canton":{"key":"3","code":"LU","name":"Luzern"},"status":"Real"},{"key":"10196618","name":"Untere Hasenacherstrasse","postalCode":"6147","locality":"Altbüron","commune":{"key":"1122","name":"Altbüron","shortName":"Altbüron"},"district":{"key":"315","name":"Wahlkreis Willisau"},"canton":{"key":"3","code":"LU","name":"Luzern"},"status":"Real"},{"key":"10196600","name":"Untere Längeggstrasse","postalCode":"6147","locality":"Altbüron","commune":{"key":"1122","name":"Altbüron","shortName":"Altbüron"},"district":{"key":"315","name":"Wahlkreis Willisau"},"canton":{"key":"3","code":"LU","name":"Luzern"},"status":"Real"},{"key":"10196611","name":"Untere Staltenstrasse","postalCode":"6147","locality":"Altbüron","commune":{"key":"1122","name":"Altbüron","shortName":"Altbüron"},"district":{"key":"315","name":"Wahlkreis Willisau"},"canton":{"key":"3","code":"LU","name":"Luzern"},"status":"Real"},{"key":"10053822","name":"Unterfeld","postalCode":"6147","locality":"Altbüron","commune":{"key":"1122","name":"Altbüron","shortName":"Altbüron"},"district":{"key":"315","name":"Wahlkreis Willisau"},"canton":{"key":"3","code":"LU","name":"Luzern"},"status":"Real"},{"key":"10083469","name":"Voregg","postalCode":"6147","locality":"Altbüron","commune":{"key":"1122","name":"Altbüron","shortName":"Altbüron"},"district":{"key":"315","name":"Wahlkreis Willisau"},"canton":{"key":"3","code":"LU","name":"Luzern"},"status":"Real"},{"key":"10199787","name":"Wässermattestrasse","postalCode":"6147","locality":"Altbüron","commune":{"key":"1122","name":"Altbüron","shortName":"Altbüron"},"district":{"key":"315","name":"Wahlkreis Willisau"},"canton":{"key":"3","code":"LU","name":"Luzern"},"status":"Real"},{"key":"10017381","name":"Weihermatte","postalCode":"6147","locality":"Altbüron","commune":{"key":"1122","name":"Altbüron","shortName":"Altbüron"},"district":{"key":"315","name":"Wahlkreis Willisau"},"canton":{"key":"3","code":"LU","name":"Luzern"},"status":"Real"},{"key":"10251489","name":"Äglermoos","postalCode":"6147","locality":"Altbüron","commune":{"key":"1122","name":"Altbüron","shortName":"Altbüron"},"district":{"key":"315","name":"Wahlkreis Willisau"},"canton":{"key":"3","code":"LU","name":"Luzern"},"status":"Real"},{"key":"10196619","name":"Ängelgehrstrasse","postalCode":"6147","locality":"Altbüron","commune":{"key":"1122","name":"Altbüron","shortName":"Altbüron"},"district":{"key":"315","name":"Wahlkreis Willisau"},"canton":{"key":"3","code":"LU","name":"Luzern"},"status":"Real"},]