[{"name":"Alpenroder Str.","postalCode":"57642","locality":"Alpenrod","municipality":{"key":"07143202","name":"Alpenrod","type":"Kreisangehörige_Gemeinde"},"district":{"key":"07143","name":"Westerwaldkreis","type":"Landkreis"},"federalState":{"key":"07","name":"Rheinland-Pfalz"}},{"name":"Alpenroder Str.","postalCode":"57647","locality":"Alpenrod","municipality":{"key":"07143202","name":"Alpenrod","type":"Kreisangehörige_Gemeinde"},"district":{"key":"07143","name":"Westerwaldkreis","type":"Landkreis"},"federalState":{"key":"07","name":"Rheinland-Pfalz"}},{"name":"Am Flutgraben","postalCode":"57647","locality":"Alpenrod","municipality":{"key":"07143202","name":"Alpenrod","type":"Kreisangehörige_Gemeinde"},"district":{"key":"07143","name":"Westerwaldkreis","type":"Landkreis"},"federalState":{"key":"07","name":"Rheinland-Pfalz"}},{"name":"Am Hirzbach","postalCode":"57642","locality":"Alpenrod","municipality":{"key":"07143202","name":"Alpenrod","type":"Kreisangehörige_Gemeinde"},"district":{"key":"07143","name":"Westerwaldkreis","type":"Landkreis"},"federalState":{"key":"07","name":"Rheinland-Pfalz"}},{"name":"Am Kirchplatz","postalCode":"57642","locality":"Alpenrod","municipality":{"key":"07143202","name":"Alpenrod","type":"Kreisangehörige_Gemeinde"},"district":{"key":"07143","name":"Westerwaldkreis","type":"Landkreis"},"federalState":{"key":"07","name":"Rheinland-Pfalz"}},{"name":"Am Mühlenhahn","postalCode":"57647","locality":"Alpenrod","municipality":{"key":"07143202","name":"Alpenrod","type":"Kreisangehörige_Gemeinde"},"district":{"key":"07143","name":"Westerwaldkreis","type":"Landkreis"},"federalState":{"key":"07","name":"Rheinland-Pfalz"}},{"name":"Am Wassergraben","postalCode":"57642","locality":"Alpenrod","municipality":{"key":"07143202","name":"Alpenrod","type":"Kreisangehörige_Gemeinde"},"district":{"key":"07143","name":"Westerwaldkreis","type":"Landkreis"},"federalState":{"key":"07","name":"Rheinland-Pfalz"}},{"name":"Auf der Jaucht","postalCode":"57647","locality":"Alpenrod","municipality":{"key":"07143202","name":"Alpenrod","type":"Kreisangehörige_Gemeinde"},"district":{"key":"07143","name":"Westerwaldkreis","type":"Landkreis"},"federalState":{"key":"07","name":"Rheinland-Pfalz"}},{"name":"Bachstr.","postalCode":"57642","locality":"Alpenrod","municipality":{"key":"07143202","name":"Alpenrod","type":"Kreisangehörige_Gemeinde"},"district":{"key":"07143","name":"Westerwaldkreis","type":"Landkreis"},"federalState":{"key":"07","name":"Rheinland-Pfalz"}},{"name":"Bergweg","postalCode":"57642","locality":"Alpenrod","municipality":{"key":"07143202","name":"Alpenrod","type":"Kreisangehörige_Gemeinde"},"district":{"key":"07143","name":"Westerwaldkreis","type":"Landkreis"},"federalState":{"key":"07","name":"Rheinland-Pfalz"}},{"name":"Büdinger Str.","postalCode":"57647","locality":"Alpenrod","municipality":{"key":"07143202","name":"Alpenrod","type":"Kreisangehörige_Gemeinde"},"district":{"key":"07143","name":"Westerwaldkreis","type":"Landkreis"},"federalState":{"key":"07","name":"Rheinland-Pfalz"}},{"name":"Dehlinger Weg","postalCode":"57642","locality":"Alpenrod","municipality":{"key":"07143202","name":"Alpenrod","type":"Kreisangehörige_Gemeinde"},"district":{"key":"07143","name":"Westerwaldkreis","type":"Landkreis"},"federalState":{"key":"07","name":"Rheinland-Pfalz"}},{"name":"Finkenweg","postalCode":"57642","locality":"Alpenrod","municipality":{"key":"07143202","name":"Alpenrod","type":"Kreisangehörige_Gemeinde"},"district":{"key":"07143","name":"Westerwaldkreis","type":"Landkreis"},"federalState":{"key":"07","name":"Rheinland-Pfalz"}},{"name":"Gartenstr.","postalCode":"57642","locality":"Alpenrod","municipality":{"key":"07143202","name":"Alpenrod","type":"Kreisangehörige_Gemeinde"},"district":{"key":"07143","name":"Westerwaldkreis","type":"Landkreis"},"federalState":{"key":"07","name":"Rheinland-Pfalz"}},{"name":"Großer Ring","postalCode":"57642","locality":"Alpenrod","municipality":{"key":"07143202","name":"Alpenrod","type":"Kreisangehörige_Gemeinde"},"district":{"key":"07143","name":"Westerwaldkreis","type":"Landkreis"},"federalState":{"key":"07","name":"Rheinland-Pfalz"}},{"name":"Hauptstr.","postalCode":"57642","locality":"Alpenrod","municipality":{"key":"07143202","name":"Alpenrod","type":"Kreisangehörige_Gemeinde"},"district":{"key":"07143","name":"Westerwaldkreis","type":"Landkreis"},"federalState":{"key":"07","name":"Rheinland-Pfalz"}},{"name":"Hensches Wiese","postalCode":"57642","locality":"Alpenrod","municipality":{"key":"07143202","name":"Alpenrod","type":"Kreisangehörige_Gemeinde"},"district":{"key":"07143","name":"Westerwaldkreis","type":"Landkreis"},"federalState":{"key":"07","name":"Rheinland-Pfalz"}},{"name":"Im Erlengarten","postalCode":"57647","locality":"Alpenrod","municipality":{"key":"07143202","name":"Alpenrod","type":"Kreisangehörige_Gemeinde"},"district":{"key":"07143","name":"Westerwaldkreis","type":"Landkreis"},"federalState":{"key":"07","name":"Rheinland-Pfalz"}},{"name":"In der Gass","postalCode":"57642","locality":"Alpenrod","municipality":{"key":"07143202","name":"Alpenrod","type":"Kreisangehörige_Gemeinde"},"district":{"key":"07143","name":"Westerwaldkreis","type":"Landkreis"},"federalState":{"key":"07","name":"Rheinland-Pfalz"}},{"name":"In der Trifft","postalCode":"57642","locality":"Alpenrod","municipality":{"key":"07143202","name":"Alpenrod","type":"Kreisangehörige_Gemeinde"},"district":{"key":"07143","name":"Westerwaldkreis","type":"Landkreis"},"federalState":{"key":"07","name":"Rheinland-Pfalz"}},{"name":"Kirchweg","postalCode":"57642","locality":"Alpenrod","municipality":{"key":"07143202","name":"Alpenrod","type":"Kreisangehörige_Gemeinde"},"district":{"key":"07143","name":"Westerwaldkreis","type":"Landkreis"},"federalState":{"key":"07","name":"Rheinland-Pfalz"}},{"name":"Lerchenweg","postalCode":"57642","locality":"Alpenrod","municipality":{"key":"07143202","name":"Alpenrod","type":"Kreisangehörige_Gemeinde"},"district":{"key":"07143","name":"Westerwaldkreis","type":"Landkreis"},"federalState":{"key":"07","name":"Rheinland-Pfalz"}},{"name":"Mittelstr.","postalCode":"57642","locality":"Alpenrod","municipality":{"key":"07143202","name":"Alpenrod","type":"Kreisangehörige_Gemeinde"},"district":{"key":"07143","name":"Westerwaldkreis","type":"Landkreis"},"federalState":{"key":"07","name":"Rheinland-Pfalz"}},{"name":"Neuer Weg","postalCode":"57642","locality":"Alpenrod","municipality":{"key":"07143202","name":"Alpenrod","type":"Kreisangehörige_Gemeinde"},"district":{"key":"07143","name":"Westerwaldkreis","type":"Landkreis"},"federalState":{"key":"07","name":"Rheinland-Pfalz"}},{"name":"Ober Beckers Haus","postalCode":"57642","locality":"Alpenrod","municipality":{"key":"07143202","name":"Alpenrod","type":"Kreisangehörige_Gemeinde"},"district":{"key":"07143","name":"Westerwaldkreis","type":"Landkreis"},"federalState":{"key":"07","name":"Rheinland-Pfalz"}},{"name":"Oberster Garten","postalCode":"57642","locality":"Alpenrod","municipality":{"key":"07143202","name":"Alpenrod","type":"Kreisangehörige_Gemeinde"},"district":{"key":"07143","name":"Westerwaldkreis","type":"Landkreis"},"federalState":{"key":"07","name":"Rheinland-Pfalz"}},{"name":"Poststr.","postalCode":"57642","locality":"Alpenrod","municipality":{"key":"07143202","name":"Alpenrod","type":"Kreisangehörige_Gemeinde"},"district":{"key":"07143","name":"Westerwaldkreis","type":"Landkreis"},"federalState":{"key":"07","name":"Rheinland-Pfalz"}},{"name":"Ringstr.","postalCode":"57642","locality":"Alpenrod","municipality":{"key":"07143202","name":"Alpenrod","type":"Kreisangehörige_Gemeinde"},"district":{"key":"07143","name":"Westerwaldkreis","type":"Landkreis"},"federalState":{"key":"07","name":"Rheinland-Pfalz"}},{"name":"Schulstr.","postalCode":"57642","locality":"Alpenrod","municipality":{"key":"07143202","name":"Alpenrod","type":"Kreisangehörige_Gemeinde"},"district":{"key":"07143","name":"Westerwaldkreis","type":"Landkreis"},"federalState":{"key":"07","name":"Rheinland-Pfalz"}},{"name":"Stadtweg","postalCode":"57642","locality":"Alpenrod","municipality":{"key":"07143202","name":"Alpenrod","type":"Kreisangehörige_Gemeinde"},"district":{"key":"07143","name":"Westerwaldkreis","type":"Landkreis"},"federalState":{"key":"07","name":"Rheinland-Pfalz"}},{"name":"Steinenbrück","postalCode":"57642","locality":"Alpenrod","municipality":{"key":"07143202","name":"Alpenrod","type":"Kreisangehörige_Gemeinde"},"district":{"key":"07143","name":"Westerwaldkreis","type":"Landkreis"},"federalState":{"key":"07","name":"Rheinland-Pfalz"}},{"name":"Steinweg","postalCode":"57642","locality":"Alpenrod","municipality":{"key":"07143202","name":"Alpenrod","type":"Kreisangehörige_Gemeinde"},"district":{"key":"07143","name":"Westerwaldkreis","type":"Landkreis"},"federalState":{"key":"07","name":"Rheinland-Pfalz"}},{"name":"Talmühle","postalCode":"57647","locality":"Alpenrod","municipality":{"key":"07143202","name":"Alpenrod","type":"Kreisangehörige_Gemeinde"},"district":{"key":"07143","name":"Westerwaldkreis","type":"Landkreis"},"federalState":{"key":"07","name":"Rheinland-Pfalz"}},{"name":"Talstr.","postalCode":"57647","locality":"Alpenrod","municipality":{"key":"07143202","name":"Alpenrod","type":"Kreisangehörige_Gemeinde"},"district":{"key":"07143","name":"Westerwaldkreis","type":"Landkreis"},"federalState":{"key":"07","name":"Rheinland-Pfalz"}},{"name":"Unterste Wiese","postalCode":"57642","locality":"Alpenrod","municipality":{"key":"07143202","name":"Alpenrod","type":"Kreisangehörige_Gemeinde"},"district":{"key":"07143","name":"Westerwaldkreis","type":"Landkreis"},"federalState":{"key":"07","name":"Rheinland-Pfalz"}},{"name":"Waldweg","postalCode":"57647","locality":"Alpenrod","municipality":{"key":"07143202","name":"Alpenrod","type":"Kreisangehörige_Gemeinde"},"district":{"key":"07143","name":"Westerwaldkreis","type":"Landkreis"},"federalState":{"key":"07","name":"Rheinland-Pfalz"}},{"name":"Weiherweg","postalCode":"57647","locality":"Alpenrod","municipality":{"key":"07143202","name":"Alpenrod","type":"Kreisangehörige_Gemeinde"},"district":{"key":"07143","name":"Westerwaldkreis","type":"Landkreis"},"federalState":{"key":"07","name":"Rheinland-Pfalz"}},{"name":"Westring","postalCode":"57642","locality":"Alpenrod","municipality":{"key":"07143202","name":"Alpenrod","type":"Kreisangehörige_Gemeinde"},"district":{"key":"07143","name":"Westerwaldkreis","type":"Landkreis"},"federalState":{"key":"07","name":"Rheinland-Pfalz"}},{"name":"Wiesenstr.","postalCode":"57642","locality":"Alpenrod","municipality":{"key":"07143202","name":"Alpenrod","type":"Kreisangehörige_Gemeinde"},"district":{"key":"07143","name":"Westerwaldkreis","type":"Landkreis"},"federalState":{"key":"07","name":"Rheinland-Pfalz"}},]