[{"name":"Ackerrain","postalCode":"16868","locality":"Wusterhausen/Dosse","municipality":{"key":"12068477","name":"Wusterhausen/Dosse","type":"Kreisangehörige_Gemeinde"},"district":{"key":"12068","name":"Ostprignitz-Ruppin","type":"Landkreis"},"federalState":{"key":"12","name":"Brandenburg"}},{"name":"Alte Poststr.","postalCode":"16868","locality":"Wusterhausen/Dosse","municipality":{"key":"12068477","name":"Wusterhausen/Dosse","type":"Kreisangehörige_Gemeinde"},"district":{"key":"12068","name":"Ostprignitz-Ruppin","type":"Landkreis"},"federalState":{"key":"12","name":"Brandenburg"}},{"name":"Am Anger","postalCode":"16866","locality":"Wusterhausen/Dosse","municipality":{"key":"12068477","name":"Wusterhausen/Dosse","type":"Kreisangehörige_Gemeinde"},"district":{"key":"12068","name":"Ostprignitz-Ruppin","type":"Landkreis"},"federalState":{"key":"12","name":"Brandenburg"}},{"name":"Am Bahnhof","postalCode":"16845","locality":"Wusterhausen/Dosse","municipality":{"key":"12068477","name":"Wusterhausen/Dosse","type":"Kreisangehörige_Gemeinde"},"district":{"key":"12068","name":"Ostprignitz-Ruppin","type":"Landkreis"},"federalState":{"key":"12","name":"Brandenburg"}},{"name":"Am Eichengrund","postalCode":"16868","locality":"Wusterhausen/Dosse","municipality":{"key":"12068477","name":"Wusterhausen/Dosse","type":"Kreisangehörige_Gemeinde"},"district":{"key":"12068","name":"Ostprignitz-Ruppin","type":"Landkreis"},"federalState":{"key":"12","name":"Brandenburg"}},{"name":"Am Markt","postalCode":"16868","locality":"Wusterhausen/Dosse","municipality":{"key":"12068477","name":"Wusterhausen/Dosse","type":"Kreisangehörige_Gemeinde"},"district":{"key":"12068","name":"Ostprignitz-Ruppin","type":"Landkreis"},"federalState":{"key":"12","name":"Brandenburg"}},{"name":"Amselweg","postalCode":"16845","locality":"Wusterhausen/Dosse","municipality":{"key":"12068477","name":"Wusterhausen/Dosse","type":"Kreisangehörige_Gemeinde"},"district":{"key":"12068","name":"Ostprignitz-Ruppin","type":"Landkreis"},"federalState":{"key":"12","name":"Brandenburg"}},{"name":"Amselweg","postalCode":"16868","locality":"Wusterhausen/Dosse","municipality":{"key":"12068477","name":"Wusterhausen/Dosse","type":"Kreisangehörige_Gemeinde"},"district":{"key":"12068","name":"Ostprignitz-Ruppin","type":"Landkreis"},"federalState":{"key":"12","name":"Brandenburg"}},{"name":"Am Sonnenhügel","postalCode":"16868","locality":"Wusterhausen/Dosse","municipality":{"key":"12068477","name":"Wusterhausen/Dosse","type":"Kreisangehörige_Gemeinde"},"district":{"key":"12068","name":"Ostprignitz-Ruppin","type":"Landkreis"},"federalState":{"key":"12","name":"Brandenburg"}},{"name":"Am Sportplatz","postalCode":"16868","locality":"Wusterhausen/Dosse","municipality":{"key":"12068477","name":"Wusterhausen/Dosse","type":"Kreisangehörige_Gemeinde"},"district":{"key":"12068","name":"Ostprignitz-Ruppin","type":"Landkreis"},"federalState":{"key":"12","name":"Brandenburg"}},{"name":"An den Friedhofswällen","postalCode":"16868","locality":"Wusterhausen/Dosse","municipality":{"key":"12068477","name":"Wusterhausen/Dosse","type":"Kreisangehörige_Gemeinde"},"district":{"key":"12068","name":"Ostprignitz-Ruppin","type":"Landkreis"},"federalState":{"key":"12","name":"Brandenburg"}},{"name":"An der Klempnitz","postalCode":"16868","locality":"Wusterhausen/Dosse","municipality":{"key":"12068477","name":"Wusterhausen/Dosse","type":"Kreisangehörige_Gemeinde"},"district":{"key":"12068","name":"Ostprignitz-Ruppin","type":"Landkreis"},"federalState":{"key":"12","name":"Brandenburg"}},{"name":"An der Seemühle","postalCode":"16868","locality":"Wusterhausen/Dosse","municipality":{"key":"12068477","name":"Wusterhausen/Dosse","type":"Kreisangehörige_Gemeinde"},"district":{"key":"12068","name":"Ostprignitz-Ruppin","type":"Landkreis"},"federalState":{"key":"12","name":"Brandenburg"}},{"name":"Bahnhofstr.","postalCode":"16845","locality":"Wusterhausen/Dosse","municipality":{"key":"12068477","name":"Wusterhausen/Dosse","type":"Kreisangehörige_Gemeinde"},"district":{"key":"12068","name":"Ostprignitz-Ruppin","type":"Landkreis"},"federalState":{"key":"12","name":"Brandenburg"}},{"name":"Bahnhofstr.","postalCode":"16868","locality":"Wusterhausen/Dosse","municipality":{"key":"12068477","name":"Wusterhausen/Dosse","type":"Kreisangehörige_Gemeinde"},"district":{"key":"12068","name":"Ostprignitz-Ruppin","type":"Landkreis"},"federalState":{"key":"12","name":"Brandenburg"}},{"name":"Bahnhofsweg","postalCode":"16845","locality":"Wusterhausen/Dosse","municipality":{"key":"12068477","name":"Wusterhausen/Dosse","type":"Kreisangehörige_Gemeinde"},"district":{"key":"12068","name":"Ostprignitz-Ruppin","type":"Landkreis"},"federalState":{"key":"12","name":"Brandenburg"}},{"name":"Bantikower Weg","postalCode":"16866","locality":"Wusterhausen/Dosse","municipality":{"key":"12068477","name":"Wusterhausen/Dosse","type":"Kreisangehörige_Gemeinde"},"district":{"key":"12068","name":"Ostprignitz-Ruppin","type":"Landkreis"},"federalState":{"key":"12","name":"Brandenburg"}},{"name":"Bantikower Weg","postalCode":"16868","locality":"Wusterhausen/Dosse","municipality":{"key":"12068477","name":"Wusterhausen/Dosse","type":"Kreisangehörige_Gemeinde"},"district":{"key":"12068","name":"Ostprignitz-Ruppin","type":"Landkreis"},"federalState":{"key":"12","name":"Brandenburg"}},{"name":"Barsikower Weg","postalCode":"16845","locality":"Wusterhausen/Dosse","municipality":{"key":"12068477","name":"Wusterhausen/Dosse","type":"Kreisangehörige_Gemeinde"},"district":{"key":"12068","name":"Ostprignitz-Ruppin","type":"Landkreis"},"federalState":{"key":"12","name":"Brandenburg"}},{"name":"Bergstr.","postalCode":"16845","locality":"Wusterhausen/Dosse","municipality":{"key":"12068477","name":"Wusterhausen/Dosse","type":"Kreisangehörige_Gemeinde"},"district":{"key":"12068","name":"Ostprignitz-Ruppin","type":"Landkreis"},"federalState":{"key":"12","name":"Brandenburg"}},{"name":"Bergweg","postalCode":"16845","locality":"Wusterhausen/Dosse","municipality":{"key":"12068477","name":"Wusterhausen/Dosse","type":"Kreisangehörige_Gemeinde"},"district":{"key":"12068","name":"Ostprignitz-Ruppin","type":"Landkreis"},"federalState":{"key":"12","name":"Brandenburg"}},{"name":"Berliner Str.","postalCode":"16868","locality":"Wusterhausen/Dosse","municipality":{"key":"12068477","name":"Wusterhausen/Dosse","type":"Kreisangehörige_Gemeinde"},"district":{"key":"12068","name":"Ostprignitz-Ruppin","type":"Landkreis"},"federalState":{"key":"12","name":"Brandenburg"}},{"name":"Birkenweg","postalCode":"16868","locality":"Wusterhausen/Dosse","municipality":{"key":"12068477","name":"Wusterhausen/Dosse","type":"Kreisangehörige_Gemeinde"},"district":{"key":"12068","name":"Ostprignitz-Ruppin","type":"Landkreis"},"federalState":{"key":"12","name":"Brandenburg"}},{"name":"Borchertstr.","postalCode":"16868","locality":"Wusterhausen/Dosse","municipality":{"key":"12068477","name":"Wusterhausen/Dosse","type":"Kreisangehörige_Gemeinde"},"district":{"key":"12068","name":"Ostprignitz-Ruppin","type":"Landkreis"},"federalState":{"key":"12","name":"Brandenburg"}},{"name":"Brunner Str.","postalCode":"16868","locality":"Wusterhausen/Dosse","municipality":{"key":"12068477","name":"Wusterhausen/Dosse","type":"Kreisangehörige_Gemeinde"},"district":{"key":"12068","name":"Ostprignitz-Ruppin","type":"Landkreis"},"federalState":{"key":"12","name":"Brandenburg"}},{"name":"Brunner Weg","postalCode":"16845","locality":"Wusterhausen/Dosse","municipality":{"key":"12068477","name":"Wusterhausen/Dosse","type":"Kreisangehörige_Gemeinde"},"district":{"key":"12068","name":"Ostprignitz-Ruppin","type":"Landkreis"},"federalState":{"key":"12","name":"Brandenburg"}},{"name":"Bückwitz-Ausbau","postalCode":"16845","locality":"Wusterhausen/Dosse","municipality":{"key":"12068477","name":"Wusterhausen/Dosse","type":"Kreisangehörige_Gemeinde"},"district":{"key":"12068","name":"Ostprignitz-Ruppin","type":"Landkreis"},"federalState":{"key":"12","name":"Brandenburg"}},{"name":"Burgwall","postalCode":"16868","locality":"Wusterhausen/Dosse","municipality":{"key":"12068477","name":"Wusterhausen/Dosse","type":"Kreisangehörige_Gemeinde"},"district":{"key":"12068","name":"Ostprignitz-Ruppin","type":"Landkreis"},"federalState":{"key":"12","name":"Brandenburg"}},{"name":"Chausseestr.","postalCode":"16845","locality":"Wusterhausen/Dosse","municipality":{"key":"12068477","name":"Wusterhausen/Dosse","type":"Kreisangehörige_Gemeinde"},"district":{"key":"12068","name":"Ostprignitz-Ruppin","type":"Landkreis"},"federalState":{"key":"12","name":"Brandenburg"}},{"name":"Dombrowskistr.","postalCode":"16868","locality":"Wusterhausen/Dosse","municipality":{"key":"12068477","name":"Wusterhausen/Dosse","type":"Kreisangehörige_Gemeinde"},"district":{"key":"12068","name":"Ostprignitz-Ruppin","type":"Landkreis"},"federalState":{"key":"12","name":"Brandenburg"}},{"name":"Domstr.","postalCode":"16868","locality":"Wusterhausen/Dosse","municipality":{"key":"12068477","name":"Wusterhausen/Dosse","type":"Kreisangehörige_Gemeinde"},"district":{"key":"12068","name":"Ostprignitz-Ruppin","type":"Landkreis"},"federalState":{"key":"12","name":"Brandenburg"}},{"name":"Dorfstr.","postalCode":"16845","locality":"Wusterhausen/Dosse","municipality":{"key":"12068477","name":"Wusterhausen/Dosse","type":"Kreisangehörige_Gemeinde"},"district":{"key":"12068","name":"Ostprignitz-Ruppin","type":"Landkreis"},"federalState":{"key":"12","name":"Brandenburg"}},{"name":"Dorfstr.","postalCode":"16868","locality":"Wusterhausen/Dosse","municipality":{"key":"12068477","name":"Wusterhausen/Dosse","type":"Kreisangehörige_Gemeinde"},"district":{"key":"12068","name":"Ostprignitz-Ruppin","type":"Landkreis"},"federalState":{"key":"12","name":"Brandenburg"}},{"name":"Dossestr.","postalCode":"16868","locality":"Wusterhausen/Dosse","municipality":{"key":"12068477","name":"Wusterhausen/Dosse","type":"Kreisangehörige_Gemeinde"},"district":{"key":"12068","name":"Ostprignitz-Ruppin","type":"Landkreis"},"federalState":{"key":"12","name":"Brandenburg"}},{"name":"Dreetzer Str.","postalCode":"16845","locality":"Wusterhausen/Dosse","municipality":{"key":"12068477","name":"Wusterhausen/Dosse","type":"Kreisangehörige_Gemeinde"},"district":{"key":"12068","name":"Ostprignitz-Ruppin","type":"Landkreis"},"federalState":{"key":"12","name":"Brandenburg"}},{"name":"Dreetzer Weg","postalCode":"16845","locality":"Wusterhausen/Dosse","municipality":{"key":"12068477","name":"Wusterhausen/Dosse","type":"Kreisangehörige_Gemeinde"},"district":{"key":"12068","name":"Ostprignitz-Ruppin","type":"Landkreis"},"federalState":{"key":"12","name":"Brandenburg"}},{"name":"Eichhörnchenweg","postalCode":"16868","locality":"Wusterhausen/Dosse","municipality":{"key":"12068477","name":"Wusterhausen/Dosse","type":"Kreisangehörige_Gemeinde"},"district":{"key":"12068","name":"Ostprignitz-Ruppin","type":"Landkreis"},"federalState":{"key":"12","name":"Brandenburg"}},{"name":"Feldweg","postalCode":"16845","locality":"Wusterhausen/Dosse","municipality":{"key":"12068477","name":"Wusterhausen/Dosse","type":"Kreisangehörige_Gemeinde"},"district":{"key":"12068","name":"Ostprignitz-Ruppin","type":"Landkreis"},"federalState":{"key":"12","name":"Brandenburg"}},{"name":"Feldweg","postalCode":"16868","locality":"Wusterhausen/Dosse","municipality":{"key":"12068477","name":"Wusterhausen/Dosse","type":"Kreisangehörige_Gemeinde"},"district":{"key":"12068","name":"Ostprignitz-Ruppin","type":"Landkreis"},"federalState":{"key":"12","name":"Brandenburg"}},{"name":"Feldwinkel","postalCode":"16868","locality":"Wusterhausen/Dosse","municipality":{"key":"12068477","name":"Wusterhausen/Dosse","type":"Kreisangehörige_Gemeinde"},"district":{"key":"12068","name":"Ostprignitz-Ruppin","type":"Landkreis"},"federalState":{"key":"12","name":"Brandenburg"}},{"name":"Fischerstr.","postalCode":"16868","locality":"Wusterhausen/Dosse","municipality":{"key":"12068477","name":"Wusterhausen/Dosse","type":"Kreisangehörige_Gemeinde"},"district":{"key":"12068","name":"Ostprignitz-Ruppin","type":"Landkreis"},"federalState":{"key":"12","name":"Brandenburg"}},{"name":"Fliederweg","postalCode":"16868","locality":"Wusterhausen/Dosse","municipality":{"key":"12068477","name":"Wusterhausen/Dosse","type":"Kreisangehörige_Gemeinde"},"district":{"key":"12068","name":"Ostprignitz-Ruppin","type":"Landkreis"},"federalState":{"key":"12","name":"Brandenburg"}},{"name":"Fontanestr.","postalCode":"16866","locality":"Wusterhausen/Dosse","municipality":{"key":"12068477","name":"Wusterhausen/Dosse","type":"Kreisangehörige_Gemeinde"},"district":{"key":"12068","name":"Ostprignitz-Ruppin","type":"Landkreis"},"federalState":{"key":"12","name":"Brandenburg"}},{"name":"Friedensstr.","postalCode":"16845","locality":"Wusterhausen/Dosse","municipality":{"key":"12068477","name":"Wusterhausen/Dosse","type":"Kreisangehörige_Gemeinde"},"district":{"key":"12068","name":"Ostprignitz-Ruppin","type":"Landkreis"},"federalState":{"key":"12","name":"Brandenburg"}},{"name":"Friedensweg","postalCode":"16845","locality":"Wusterhausen/Dosse","municipality":{"key":"12068477","name":"Wusterhausen/Dosse","type":"Kreisangehörige_Gemeinde"},"district":{"key":"12068","name":"Ostprignitz-Ruppin","type":"Landkreis"},"federalState":{"key":"12","name":"Brandenburg"}},{"name":"Gartenweg","postalCode":"16845","locality":"Wusterhausen/Dosse","municipality":{"key":"12068477","name":"Wusterhausen/Dosse","type":"Kreisangehörige_Gemeinde"},"district":{"key":"12068","name":"Ostprignitz-Ruppin","type":"Landkreis"},"federalState":{"key":"12","name":"Brandenburg"}},{"name":"Gartenweg","postalCode":"16868","locality":"Wusterhausen/Dosse","municipality":{"key":"12068477","name":"Wusterhausen/Dosse","type":"Kreisangehörige_Gemeinde"},"district":{"key":"12068","name":"Ostprignitz-Ruppin","type":"Landkreis"},"federalState":{"key":"12","name":"Brandenburg"}},{"name":"Gartower Str.","postalCode":"16868","locality":"Wusterhausen/Dosse","municipality":{"key":"12068477","name":"Wusterhausen/Dosse","type":"Kreisangehörige_Gemeinde"},"district":{"key":"12068","name":"Ostprignitz-Ruppin","type":"Landkreis"},"federalState":{"key":"12","name":"Brandenburg"}},{"name":"Garzer Weg","postalCode":"16845","locality":"Wusterhausen/Dosse","municipality":{"key":"12068477","name":"Wusterhausen/Dosse","type":"Kreisangehörige_Gemeinde"},"district":{"key":"12068","name":"Ostprignitz-Ruppin","type":"Landkreis"},"federalState":{"key":"12","name":"Brandenburg"}},{"name":"Hasenweg","postalCode":"16868","locality":"Wusterhausen/Dosse","municipality":{"key":"12068477","name":"Wusterhausen/Dosse","type":"Kreisangehörige_Gemeinde"},"district":{"key":"12068","name":"Ostprignitz-Ruppin","type":"Landkreis"},"federalState":{"key":"12","name":"Brandenburg"}},{"name":"Hauptstr.","postalCode":"16845","locality":"Wusterhausen/Dosse","municipality":{"key":"12068477","name":"Wusterhausen/Dosse","type":"Kreisangehörige_Gemeinde"},"district":{"key":"12068","name":"Ostprignitz-Ruppin","type":"Landkreis"},"federalState":{"key":"12","name":"Brandenburg"}},{"name":"Heilbrunner Str.","postalCode":"16845","locality":"Wusterhausen/Dosse","municipality":{"key":"12068477","name":"Wusterhausen/Dosse","type":"Kreisangehörige_Gemeinde"},"district":{"key":"12068","name":"Ostprignitz-Ruppin","type":"Landkreis"},"federalState":{"key":"12","name":"Brandenburg"}},{"name":"Hexenweg","postalCode":"16868","locality":"Wusterhausen/Dosse","municipality":{"key":"12068477","name":"Wusterhausen/Dosse","type":"Kreisangehörige_Gemeinde"},"district":{"key":"12068","name":"Ostprignitz-Ruppin","type":"Landkreis"},"federalState":{"key":"12","name":"Brandenburg"}},{"name":"Imkerweg","postalCode":"16868","locality":"Wusterhausen/Dosse","municipality":{"key":"12068477","name":"Wusterhausen/Dosse","type":"Kreisangehörige_Gemeinde"},"district":{"key":"12068","name":"Ostprignitz-Ruppin","type":"Landkreis"},"federalState":{"key":"12","name":"Brandenburg"}},{"name":"Kampehler Str.","postalCode":"16845","locality":"Wusterhausen/Dosse","municipality":{"key":"12068477","name":"Wusterhausen/Dosse","type":"Kreisangehörige_Gemeinde"},"district":{"key":"12068","name":"Ostprignitz-Ruppin","type":"Landkreis"},"federalState":{"key":"12","name":"Brandenburg"}},{"name":"Kantower Str.","postalCode":"16845","locality":"Wusterhausen/Dosse","municipality":{"key":"12068477","name":"Wusterhausen/Dosse","type":"Kreisangehörige_Gemeinde"},"district":{"key":"12068","name":"Ostprignitz-Ruppin","type":"Landkreis"},"federalState":{"key":"12","name":"Brandenburg"}},{"name":"Kastanienweg","postalCode":"16868","locality":"Wusterhausen/Dosse","municipality":{"key":"12068477","name":"Wusterhausen/Dosse","type":"Kreisangehörige_Gemeinde"},"district":{"key":"12068","name":"Ostprignitz-Ruppin","type":"Landkreis"},"federalState":{"key":"12","name":"Brandenburg"}},{"name":"Kirchstr.","postalCode":"16868","locality":"Wusterhausen/Dosse","municipality":{"key":"12068477","name":"Wusterhausen/Dosse","type":"Kreisangehörige_Gemeinde"},"district":{"key":"12068","name":"Ostprignitz-Ruppin","type":"Landkreis"},"federalState":{"key":"12","name":"Brandenburg"}},{"name":"Klempnitzwall","postalCode":"16868","locality":"Wusterhausen/Dosse","municipality":{"key":"12068477","name":"Wusterhausen/Dosse","type":"Kreisangehörige_Gemeinde"},"district":{"key":"12068","name":"Ostprignitz-Ruppin","type":"Landkreis"},"federalState":{"key":"12","name":"Brandenburg"}},{"name":"Klempowsiedlung","postalCode":"16868","locality":"Wusterhausen/Dosse","municipality":{"key":"12068477","name":"Wusterhausen/Dosse","type":"Kreisangehörige_Gemeinde"},"district":{"key":"12068","name":"Ostprignitz-Ruppin","type":"Landkreis"},"federalState":{"key":"12","name":"Brandenburg"}},{"name":"Klempowwall","postalCode":"16868","locality":"Wusterhausen/Dosse","municipality":{"key":"12068477","name":"Wusterhausen/Dosse","type":"Kreisangehörige_Gemeinde"},"district":{"key":"12068","name":"Ostprignitz-Ruppin","type":"Landkreis"},"federalState":{"key":"12","name":"Brandenburg"}},{"name":"Klempowweg","postalCode":"16868","locality":"Wusterhausen/Dosse","municipality":{"key":"12068477","name":"Wusterhausen/Dosse","type":"Kreisangehörige_Gemeinde"},"district":{"key":"12068","name":"Ostprignitz-Ruppin","type":"Landkreis"},"federalState":{"key":"12","name":"Brandenburg"}},{"name":"Kommandantenstr.","postalCode":"16868","locality":"Wusterhausen/Dosse","municipality":{"key":"12068477","name":"Wusterhausen/Dosse","type":"Kreisangehörige_Gemeinde"},"district":{"key":"12068","name":"Ostprignitz-Ruppin","type":"Landkreis"},"federalState":{"key":"12","name":"Brandenburg"}},{"name":"Kyritzer Str.","postalCode":"16866","locality":"Wusterhausen/Dosse","municipality":{"key":"12068477","name":"Wusterhausen/Dosse","type":"Kreisangehörige_Gemeinde"},"district":{"key":"12068","name":"Ostprignitz-Ruppin","type":"Landkreis"},"federalState":{"key":"12","name":"Brandenburg"}},{"name":"Kyritzer Str.","postalCode":"16868","locality":"Wusterhausen/Dosse","municipality":{"key":"12068477","name":"Wusterhausen/Dosse","type":"Kreisangehörige_Gemeinde"},"district":{"key":"12068","name":"Ostprignitz-Ruppin","type":"Landkreis"},"federalState":{"key":"12","name":"Brandenburg"}},{"name":"Läsikower Ring","postalCode":"16845","locality":"Wusterhausen/Dosse","municipality":{"key":"12068477","name":"Wusterhausen/Dosse","type":"Kreisangehörige_Gemeinde"},"district":{"key":"12068","name":"Ostprignitz-Ruppin","type":"Landkreis"},"federalState":{"key":"12","name":"Brandenburg"}},{"name":"Lindenstr.","postalCode":"16845","locality":"Wusterhausen/Dosse","municipality":{"key":"12068477","name":"Wusterhausen/Dosse","type":"Kreisangehörige_Gemeinde"},"district":{"key":"12068","name":"Ostprignitz-Ruppin","type":"Landkreis"},"federalState":{"key":"12","name":"Brandenburg"}},{"name":"Lindenweg","postalCode":"16866","locality":"Wusterhausen/Dosse","municipality":{"key":"12068477","name":"Wusterhausen/Dosse","type":"Kreisangehörige_Gemeinde"},"district":{"key":"12068","name":"Ostprignitz-Ruppin","type":"Landkreis"},"federalState":{"key":"12","name":"Brandenburg"}},{"name":"Lögower Weg","postalCode":"16845","locality":"Wusterhausen/Dosse","municipality":{"key":"12068477","name":"Wusterhausen/Dosse","type":"Kreisangehörige_Gemeinde"},"district":{"key":"12068","name":"Ostprignitz-Ruppin","type":"Landkreis"},"federalState":{"key":"12","name":"Brandenburg"}},{"name":"Ludwigstr.","postalCode":"16868","locality":"Wusterhausen/Dosse","municipality":{"key":"12068477","name":"Wusterhausen/Dosse","type":"Kreisangehörige_Gemeinde"},"district":{"key":"12068","name":"Ostprignitz-Ruppin","type":"Landkreis"},"federalState":{"key":"12","name":"Brandenburg"}},{"name":"Mittelweg","postalCode":"16868","locality":"Wusterhausen/Dosse","municipality":{"key":"12068477","name":"Wusterhausen/Dosse","type":"Kreisangehörige_Gemeinde"},"district":{"key":"12068","name":"Ostprignitz-Ruppin","type":"Landkreis"},"federalState":{"key":"12","name":"Brandenburg"}},{"name":"Netzebander Str.","postalCode":"16866","locality":"Wusterhausen/Dosse","municipality":{"key":"12068477","name":"Wusterhausen/Dosse","type":"Kreisangehörige_Gemeinde"},"district":{"key":"12068","name":"Ostprignitz-Ruppin","type":"Landkreis"},"federalState":{"key":"12","name":"Brandenburg"}},{"name":"Neue Poststr.","postalCode":"16868","locality":"Wusterhausen/Dosse","municipality":{"key":"12068477","name":"Wusterhausen/Dosse","type":"Kreisangehörige_Gemeinde"},"district":{"key":"12068","name":"Ostprignitz-Ruppin","type":"Landkreis"},"federalState":{"key":"12","name":"Brandenburg"}},{"name":"Neuer Siedlungsweg","postalCode":"16845","locality":"Wusterhausen/Dosse","municipality":{"key":"12068477","name":"Wusterhausen/Dosse","type":"Kreisangehörige_Gemeinde"},"district":{"key":"12068","name":"Ostprignitz-Ruppin","type":"Landkreis"},"federalState":{"key":"12","name":"Brandenburg"}},{"name":"Neuruppiner Str.","postalCode":"16845","locality":"Wusterhausen/Dosse","municipality":{"key":"12068477","name":"Wusterhausen/Dosse","type":"Kreisangehörige_Gemeinde"},"district":{"key":"12068","name":"Ostprignitz-Ruppin","type":"Landkreis"},"federalState":{"key":"12","name":"Brandenburg"}},{"name":"Parkstr.","postalCode":"16845","locality":"Wusterhausen/Dosse","municipality":{"key":"12068477","name":"Wusterhausen/Dosse","type":"Kreisangehörige_Gemeinde"},"district":{"key":"12068","name":"Ostprignitz-Ruppin","type":"Landkreis"},"federalState":{"key":"12","name":"Brandenburg"}},{"name":"Parkweg","postalCode":"16845","locality":"Wusterhausen/Dosse","municipality":{"key":"12068477","name":"Wusterhausen/Dosse","type":"Kreisangehörige_Gemeinde"},"district":{"key":"12068","name":"Ostprignitz-Ruppin","type":"Landkreis"},"federalState":{"key":"12","name":"Brandenburg"}},{"name":"Petersilienstr.","postalCode":"16868","locality":"Wusterhausen/Dosse","municipality":{"key":"12068477","name":"Wusterhausen/Dosse","type":"Kreisangehörige_Gemeinde"},"district":{"key":"12068","name":"Ostprignitz-Ruppin","type":"Landkreis"},"federalState":{"key":"12","name":"Brandenburg"}},{"name":"Petersilienweg","postalCode":"16845","locality":"Wusterhausen/Dosse","municipality":{"key":"12068477","name":"Wusterhausen/Dosse","type":"Kreisangehörige_Gemeinde"},"district":{"key":"12068","name":"Ostprignitz-Ruppin","type":"Landkreis"},"federalState":{"key":"12","name":"Brandenburg"}},{"name":"Plan","postalCode":"16845","locality":"Wusterhausen/Dosse","municipality":{"key":"12068477","name":"Wusterhausen/Dosse","type":"Kreisangehörige_Gemeinde"},"district":{"key":"12068","name":"Ostprignitz-Ruppin","type":"Landkreis"},"federalState":{"key":"12","name":"Brandenburg"}},{"name":"Plänitzer Weg","postalCode":"16868","locality":"Wusterhausen/Dosse","municipality":{"key":"12068477","name":"Wusterhausen/Dosse","type":"Kreisangehörige_Gemeinde"},"district":{"key":"12068","name":"Ostprignitz-Ruppin","type":"Landkreis"},"federalState":{"key":"12","name":"Brandenburg"}},{"name":"Postweg","postalCode":"16845","locality":"Wusterhausen/Dosse","municipality":{"key":"12068477","name":"Wusterhausen/Dosse","type":"Kreisangehörige_Gemeinde"},"district":{"key":"12068","name":"Ostprignitz-Ruppin","type":"Landkreis"},"federalState":{"key":"12","name":"Brandenburg"}},{"name":"Promenade","postalCode":"16868","locality":"Wusterhausen/Dosse","municipality":{"key":"12068477","name":"Wusterhausen/Dosse","type":"Kreisangehörige_Gemeinde"},"district":{"key":"12068","name":"Ostprignitz-Ruppin","type":"Landkreis"},"federalState":{"key":"12","name":"Brandenburg"}},{"name":"Reihereck","postalCode":"16868","locality":"Wusterhausen/Dosse","municipality":{"key":"12068477","name":"Wusterhausen/Dosse","type":"Kreisangehörige_Gemeinde"},"district":{"key":"12068","name":"Ostprignitz-Ruppin","type":"Landkreis"},"federalState":{"key":"12","name":"Brandenburg"}},{"name":"Ringstr.","postalCode":"16845","locality":"Wusterhausen/Dosse","municipality":{"key":"12068477","name":"Wusterhausen/Dosse","type":"Kreisangehörige_Gemeinde"},"district":{"key":"12068","name":"Ostprignitz-Ruppin","type":"Landkreis"},"federalState":{"key":"12","name":"Brandenburg"}},{"name":"Ringstr.","postalCode":"16868","locality":"Wusterhausen/Dosse","municipality":{"key":"12068477","name":"Wusterhausen/Dosse","type":"Kreisangehörige_Gemeinde"},"district":{"key":"12068","name":"Ostprignitz-Ruppin","type":"Landkreis"},"federalState":{"key":"12","name":"Brandenburg"}},{"name":"Rohrlacker Weg","postalCode":"16845","locality":"Wusterhausen/Dosse","municipality":{"key":"12068477","name":"Wusterhausen/Dosse","type":"Kreisangehörige_Gemeinde"},"district":{"key":"12068","name":"Ostprignitz-Ruppin","type":"Landkreis"},"federalState":{"key":"12","name":"Brandenburg"}},{"name":"Rosenweg","postalCode":"16845","locality":"Wusterhausen/Dosse","municipality":{"key":"12068477","name":"Wusterhausen/Dosse","type":"Kreisangehörige_Gemeinde"},"district":{"key":"12068","name":"Ostprignitz-Ruppin","type":"Landkreis"},"federalState":{"key":"12","name":"Brandenburg"}},{"name":"Rudolf-Breitscheid-Str.","postalCode":"16868","locality":"Wusterhausen/Dosse","municipality":{"key":"12068477","name":"Wusterhausen/Dosse","type":"Kreisangehörige_Gemeinde"},"district":{"key":"12068","name":"Ostprignitz-Ruppin","type":"Landkreis"},"federalState":{"key":"12","name":"Brandenburg"}},{"name":"Sandweg","postalCode":"16845","locality":"Wusterhausen/Dosse","municipality":{"key":"12068477","name":"Wusterhausen/Dosse","type":"Kreisangehörige_Gemeinde"},"district":{"key":"12068","name":"Ostprignitz-Ruppin","type":"Landkreis"},"federalState":{"key":"12","name":"Brandenburg"}},{"name":"Sankt-Georg-Str.","postalCode":"16868","locality":"Wusterhausen/Dosse","municipality":{"key":"12068477","name":"Wusterhausen/Dosse","type":"Kreisangehörige_Gemeinde"},"district":{"key":"12068","name":"Ostprignitz-Ruppin","type":"Landkreis"},"federalState":{"key":"12","name":"Brandenburg"}},{"name":"Sankt-Petri-Str.","postalCode":"16868","locality":"Wusterhausen/Dosse","municipality":{"key":"12068477","name":"Wusterhausen/Dosse","type":"Kreisangehörige_Gemeinde"},"district":{"key":"12068","name":"Ostprignitz-Ruppin","type":"Landkreis"},"federalState":{"key":"12","name":"Brandenburg"}},{"name":"Schanzenweg","postalCode":"16845","locality":"Wusterhausen/Dosse","municipality":{"key":"12068477","name":"Wusterhausen/Dosse","type":"Kreisangehörige_Gemeinde"},"district":{"key":"12068","name":"Ostprignitz-Ruppin","type":"Landkreis"},"federalState":{"key":"12","name":"Brandenburg"}},{"name":"Schiffahrt","postalCode":"16868","locality":"Wusterhausen/Dosse","municipality":{"key":"12068477","name":"Wusterhausen/Dosse","type":"Kreisangehörige_Gemeinde"},"district":{"key":"12068","name":"Ostprignitz-Ruppin","type":"Landkreis"},"federalState":{"key":"12","name":"Brandenburg"}},{"name":"Schulstr.","postalCode":"16845","locality":"Wusterhausen/Dosse","municipality":{"key":"12068477","name":"Wusterhausen/Dosse","type":"Kreisangehörige_Gemeinde"},"district":{"key":"12068","name":"Ostprignitz-Ruppin","type":"Landkreis"},"federalState":{"key":"12","name":"Brandenburg"}},{"name":"Schulstr.","postalCode":"16868","locality":"Wusterhausen/Dosse","municipality":{"key":"12068477","name":"Wusterhausen/Dosse","type":"Kreisangehörige_Gemeinde"},"district":{"key":"12068","name":"Ostprignitz-Ruppin","type":"Landkreis"},"federalState":{"key":"12","name":"Brandenburg"}},{"name":"Schulweg","postalCode":"16845","locality":"Wusterhausen/Dosse","municipality":{"key":"12068477","name":"Wusterhausen/Dosse","type":"Kreisangehörige_Gemeinde"},"district":{"key":"12068","name":"Ostprignitz-Ruppin","type":"Landkreis"},"federalState":{"key":"12","name":"Brandenburg"}},{"name":"Schwarzer Damm","postalCode":"16845","locality":"Wusterhausen/Dosse","municipality":{"key":"12068477","name":"Wusterhausen/Dosse","type":"Kreisangehörige_Gemeinde"},"district":{"key":"12068","name":"Ostprignitz-Ruppin","type":"Landkreis"},"federalState":{"key":"12","name":"Brandenburg"}},{"name":"Schwarzer Weg","postalCode":"16845","locality":"Wusterhausen/Dosse","municipality":{"key":"12068477","name":"Wusterhausen/Dosse","type":"Kreisangehörige_Gemeinde"},"district":{"key":"12068","name":"Ostprignitz-Ruppin","type":"Landkreis"},"federalState":{"key":"12","name":"Brandenburg"}},{"name":"Sechzehneichener Weg","postalCode":"16868","locality":"Wusterhausen/Dosse","municipality":{"key":"12068477","name":"Wusterhausen/Dosse","type":"Kreisangehörige_Gemeinde"},"district":{"key":"12068","name":"Ostprignitz-Ruppin","type":"Landkreis"},"federalState":{"key":"12","name":"Brandenburg"}},{"name":"Seestr.","postalCode":"16845","locality":"Wusterhausen/Dosse","municipality":{"key":"12068477","name":"Wusterhausen/Dosse","type":"Kreisangehörige_Gemeinde"},"district":{"key":"12068","name":"Ostprignitz-Ruppin","type":"Landkreis"},"federalState":{"key":"12","name":"Brandenburg"}},{"name":"Seestr.","postalCode":"16868","locality":"Wusterhausen/Dosse","municipality":{"key":"12068477","name":"Wusterhausen/Dosse","type":"Kreisangehörige_Gemeinde"},"district":{"key":"12068","name":"Ostprignitz-Ruppin","type":"Landkreis"},"federalState":{"key":"12","name":"Brandenburg"}},{"name":"Segeletzer Str.","postalCode":"16845","locality":"Wusterhausen/Dosse","municipality":{"key":"12068477","name":"Wusterhausen/Dosse","type":"Kreisangehörige_Gemeinde"},"district":{"key":"12068","name":"Ostprignitz-Ruppin","type":"Landkreis"},"federalState":{"key":"12","name":"Brandenburg"}},{"name":"Segeletzer Weg","postalCode":"16845","locality":"Wusterhausen/Dosse","municipality":{"key":"12068477","name":"Wusterhausen/Dosse","type":"Kreisangehörige_Gemeinde"},"district":{"key":"12068","name":"Ostprignitz-Ruppin","type":"Landkreis"},"federalState":{"key":"12","name":"Brandenburg"}},{"name":"Stolper Weg","postalCode":"16866","locality":"Wusterhausen/Dosse","municipality":{"key":"12068477","name":"Wusterhausen/Dosse","type":"Kreisangehörige_Gemeinde"},"district":{"key":"12068","name":"Ostprignitz-Ruppin","type":"Landkreis"},"federalState":{"key":"12","name":"Brandenburg"}},{"name":"Strandbadstr.","postalCode":"16868","locality":"Wusterhausen/Dosse","municipality":{"key":"12068477","name":"Wusterhausen/Dosse","type":"Kreisangehörige_Gemeinde"},"district":{"key":"12068","name":"Ostprignitz-Ruppin","type":"Landkreis"},"federalState":{"key":"12","name":"Brandenburg"}},{"name":"Tornower Str.","postalCode":"16866","locality":"Wusterhausen/Dosse","municipality":{"key":"12068477","name":"Wusterhausen/Dosse","type":"Kreisangehörige_Gemeinde"},"district":{"key":"12068","name":"Ostprignitz-Ruppin","type":"Landkreis"},"federalState":{"key":"12","name":"Brandenburg"}},{"name":"Tramnitzer Str.","postalCode":"16845","locality":"Wusterhausen/Dosse","municipality":{"key":"12068477","name":"Wusterhausen/Dosse","type":"Kreisangehörige_Gemeinde"},"district":{"key":"12068","name":"Ostprignitz-Ruppin","type":"Landkreis"},"federalState":{"key":"12","name":"Brandenburg"}},{"name":"Trieplatzer Str.","postalCode":"16845","locality":"Wusterhausen/Dosse","municipality":{"key":"12068477","name":"Wusterhausen/Dosse","type":"Kreisangehörige_Gemeinde"},"district":{"key":"12068","name":"Ostprignitz-Ruppin","type":"Landkreis"},"federalState":{"key":"12","name":"Brandenburg"}},{"name":"Uferweg","postalCode":"16868","locality":"Wusterhausen/Dosse","municipality":{"key":"12068477","name":"Wusterhausen/Dosse","type":"Kreisangehörige_Gemeinde"},"district":{"key":"12068","name":"Ostprignitz-Ruppin","type":"Landkreis"},"federalState":{"key":"12","name":"Brandenburg"}},{"name":"Waldstr.","postalCode":"16845","locality":"Wusterhausen/Dosse","municipality":{"key":"12068477","name":"Wusterhausen/Dosse","type":"Kreisangehörige_Gemeinde"},"district":{"key":"12068","name":"Ostprignitz-Ruppin","type":"Landkreis"},"federalState":{"key":"12","name":"Brandenburg"}},{"name":"Waldweg","postalCode":"16845","locality":"Wusterhausen/Dosse","municipality":{"key":"12068477","name":"Wusterhausen/Dosse","type":"Kreisangehörige_Gemeinde"},"district":{"key":"12068","name":"Ostprignitz-Ruppin","type":"Landkreis"},"federalState":{"key":"12","name":"Brandenburg"}},{"name":"Wallweg","postalCode":"16868","locality":"Wusterhausen/Dosse","municipality":{"key":"12068477","name":"Wusterhausen/Dosse","type":"Kreisangehörige_Gemeinde"},"district":{"key":"12068","name":"Ostprignitz-Ruppin","type":"Landkreis"},"federalState":{"key":"12","name":"Brandenburg"}},{"name":"Weg zum Kickelberg","postalCode":"16845","locality":"Wusterhausen/Dosse","municipality":{"key":"12068477","name":"Wusterhausen/Dosse","type":"Kreisangehörige_Gemeinde"},"district":{"key":"12068","name":"Ostprignitz-Ruppin","type":"Landkreis"},"federalState":{"key":"12","name":"Brandenburg"}},{"name":"Wehr IV","postalCode":"16845","locality":"Wusterhausen/Dosse","municipality":{"key":"12068477","name":"Wusterhausen/Dosse","type":"Kreisangehörige_Gemeinde"},"district":{"key":"12068","name":"Ostprignitz-Ruppin","type":"Landkreis"},"federalState":{"key":"12","name":"Brandenburg"}},{"name":"Weidenweg","postalCode":"16845","locality":"Wusterhausen/Dosse","municipality":{"key":"12068477","name":"Wusterhausen/Dosse","type":"Kreisangehörige_Gemeinde"},"district":{"key":"12068","name":"Ostprignitz-Ruppin","type":"Landkreis"},"federalState":{"key":"12","name":"Brandenburg"}},{"name":"Westfalenstr.","postalCode":"16845","locality":"Wusterhausen/Dosse","municipality":{"key":"12068477","name":"Wusterhausen/Dosse","type":"Kreisangehörige_Gemeinde"},"district":{"key":"12068","name":"Ostprignitz-Ruppin","type":"Landkreis"},"federalState":{"key":"12","name":"Brandenburg"}},{"name":"Wiesengrund","postalCode":"16868","locality":"Wusterhausen/Dosse","municipality":{"key":"12068477","name":"Wusterhausen/Dosse","type":"Kreisangehörige_Gemeinde"},"district":{"key":"12068","name":"Ostprignitz-Ruppin","type":"Landkreis"},"federalState":{"key":"12","name":"Brandenburg"}},{"name":"Wildberger Str.","postalCode":"16845","locality":"Wusterhausen/Dosse","municipality":{"key":"12068477","name":"Wusterhausen/Dosse","type":"Kreisangehörige_Gemeinde"},"district":{"key":"12068","name":"Ostprignitz-Ruppin","type":"Landkreis"},"federalState":{"key":"12","name":"Brandenburg"}},{"name":"Winkel","postalCode":"16845","locality":"Wusterhausen/Dosse","municipality":{"key":"12068477","name":"Wusterhausen/Dosse","type":"Kreisangehörige_Gemeinde"},"district":{"key":"12068","name":"Ostprignitz-Ruppin","type":"Landkreis"},"federalState":{"key":"12","name":"Brandenburg"}},{"name":"Winkelweg","postalCode":"16845","locality":"Wusterhausen/Dosse","municipality":{"key":"12068477","name":"Wusterhausen/Dosse","type":"Kreisangehörige_Gemeinde"},"district":{"key":"12068","name":"Ostprignitz-Ruppin","type":"Landkreis"},"federalState":{"key":"12","name":"Brandenburg"}},{"name":"Winkelweg","postalCode":"16868","locality":"Wusterhausen/Dosse","municipality":{"key":"12068477","name":"Wusterhausen/Dosse","type":"Kreisangehörige_Gemeinde"},"district":{"key":"12068","name":"Ostprignitz-Ruppin","type":"Landkreis"},"federalState":{"key":"12","name":"Brandenburg"}},{"name":"Wulkower Str.","postalCode":"16866","locality":"Wusterhausen/Dosse","municipality":{"key":"12068477","name":"Wusterhausen/Dosse","type":"Kreisangehörige_Gemeinde"},"district":{"key":"12068","name":"Ostprignitz-Ruppin","type":"Landkreis"},"federalState":{"key":"12","name":"Brandenburg"}},{"name":"Wusterhausener Str.","postalCode":"16845","locality":"Wusterhausen/Dosse","municipality":{"key":"12068477","name":"Wusterhausen/Dosse","type":"Kreisangehörige_Gemeinde"},"district":{"key":"12068","name":"Ostprignitz-Ruppin","type":"Landkreis"},"federalState":{"key":"12","name":"Brandenburg"}},{"name":"Wusterhausener Str.","postalCode":"16866","locality":"Wusterhausen/Dosse","municipality":{"key":"12068477","name":"Wusterhausen/Dosse","type":"Kreisangehörige_Gemeinde"},"district":{"key":"12068","name":"Ostprignitz-Ruppin","type":"Landkreis"},"federalState":{"key":"12","name":"Brandenburg"}},{"name":"Wusterhausener Str.","postalCode":"16868","locality":"Wusterhausen/Dosse","municipality":{"key":"12068477","name":"Wusterhausen/Dosse","type":"Kreisangehörige_Gemeinde"},"district":{"key":"12068","name":"Ostprignitz-Ruppin","type":"Landkreis"},"federalState":{"key":"12","name":"Brandenburg"}},{"name":"Zu den Weiden","postalCode":"16868","locality":"Wusterhausen/Dosse","municipality":{"key":"12068477","name":"Wusterhausen/Dosse","type":"Kreisangehörige_Gemeinde"},"district":{"key":"12068","name":"Ostprignitz-Ruppin","type":"Landkreis"},"federalState":{"key":"12","name":"Brandenburg"}},{"name":"Zum Bleichwall","postalCode":"16868","locality":"Wusterhausen/Dosse","municipality":{"key":"12068477","name":"Wusterhausen/Dosse","type":"Kreisangehörige_Gemeinde"},"district":{"key":"12068","name":"Ostprignitz-Ruppin","type":"Landkreis"},"federalState":{"key":"12","name":"Brandenburg"}},{"name":"Zum Horstberg","postalCode":"16868","locality":"Wusterhausen/Dosse","municipality":{"key":"12068477","name":"Wusterhausen/Dosse","type":"Kreisangehörige_Gemeinde"},"district":{"key":"12068","name":"Ostprignitz-Ruppin","type":"Landkreis"},"federalState":{"key":"12","name":"Brandenburg"}},{"name":"Zur Dossehalle","postalCode":"16868","locality":"Wusterhausen/Dosse","municipality":{"key":"12068477","name":"Wusterhausen/Dosse","type":"Kreisangehörige_Gemeinde"},"district":{"key":"12068","name":"Ostprignitz-Ruppin","type":"Landkreis"},"federalState":{"key":"12","name":"Brandenburg"}},{"name":"Zur Ziegelwiese","postalCode":"16868","locality":"Wusterhausen/Dosse","municipality":{"key":"12068477","name":"Wusterhausen/Dosse","type":"Kreisangehörige_Gemeinde"},"district":{"key":"12068","name":"Ostprignitz-Ruppin","type":"Landkreis"},"federalState":{"key":"12","name":"Brandenburg"}},]