[{"name":"Alte Gasse","postalCode":"92705","locality":"Leuchtenberg","municipality":{"key":"09374132","name":"Leuchtenberg, M","type":"Markt"},"district":{"key":"09374","name":"Neustadt a.d.Waldnaab","type":"Landkreis"},"federalState":{"key":"09","name":"Bayern"}},{"name":"Am Alten Dorf","postalCode":"92705","locality":"Leuchtenberg","municipality":{"key":"09374132","name":"Leuchtenberg, M","type":"Markt"},"district":{"key":"09374","name":"Neustadt a.d.Waldnaab","type":"Landkreis"},"federalState":{"key":"09","name":"Bayern"}},{"name":"Am Buchenbaum","postalCode":"92705","locality":"Leuchtenberg","municipality":{"key":"09374132","name":"Leuchtenberg, M","type":"Markt"},"district":{"key":"09374","name":"Neustadt a.d.Waldnaab","type":"Landkreis"},"federalState":{"key":"09","name":"Bayern"}},{"name":"Am Feiler","postalCode":"92705","locality":"Leuchtenberg","municipality":{"key":"09374132","name":"Leuchtenberg, M","type":"Markt"},"district":{"key":"09374","name":"Neustadt a.d.Waldnaab","type":"Landkreis"},"federalState":{"key":"09","name":"Bayern"}},{"name":"Am Hohen Stein","postalCode":"92705","locality":"Leuchtenberg","municipality":{"key":"09374132","name":"Leuchtenberg, M","type":"Markt"},"district":{"key":"09374","name":"Neustadt a.d.Waldnaab","type":"Landkreis"},"federalState":{"key":"09","name":"Bayern"}},{"name":"Am Kellerhals","postalCode":"92705","locality":"Leuchtenberg","municipality":{"key":"09374132","name":"Leuchtenberg, M","type":"Markt"},"district":{"key":"09374","name":"Neustadt a.d.Waldnaab","type":"Landkreis"},"federalState":{"key":"09","name":"Bayern"}},{"name":"Am Pfarrhäusl","postalCode":"92705","locality":"Leuchtenberg","municipality":{"key":"09374132","name":"Leuchtenberg, M","type":"Markt"},"district":{"key":"09374","name":"Neustadt a.d.Waldnaab","type":"Landkreis"},"federalState":{"key":"09","name":"Bayern"}},{"name":"Am Ringelbrunnen","postalCode":"92705","locality":"Leuchtenberg","municipality":{"key":"09374132","name":"Leuchtenberg, M","type":"Markt"},"district":{"key":"09374","name":"Neustadt a.d.Waldnaab","type":"Landkreis"},"federalState":{"key":"09","name":"Bayern"}},{"name":"An der Hofstatt","postalCode":"92705","locality":"Leuchtenberg","municipality":{"key":"09374132","name":"Leuchtenberg, M","type":"Markt"},"district":{"key":"09374","name":"Neustadt a.d.Waldnaab","type":"Landkreis"},"federalState":{"key":"09","name":"Bayern"}},{"name":"An der Trift","postalCode":"92705","locality":"Leuchtenberg","municipality":{"key":"09374132","name":"Leuchtenberg, M","type":"Markt"},"district":{"key":"09374","name":"Neustadt a.d.Waldnaab","type":"Landkreis"},"federalState":{"key":"09","name":"Bayern"}},{"name":"Badergasse","postalCode":"92705","locality":"Leuchtenberg","municipality":{"key":"09374132","name":"Leuchtenberg, M","type":"Markt"},"district":{"key":"09374","name":"Neustadt a.d.Waldnaab","type":"Landkreis"},"federalState":{"key":"09","name":"Bayern"}},{"name":"Bernrieth","postalCode":"92705","locality":"Leuchtenberg","municipality":{"key":"09374132","name":"Leuchtenberg, M","type":"Markt"},"district":{"key":"09374","name":"Neustadt a.d.Waldnaab","type":"Landkreis"},"federalState":{"key":"09","name":"Bayern"}},{"name":"Brauhausstr.","postalCode":"92705","locality":"Leuchtenberg","municipality":{"key":"09374132","name":"Leuchtenberg, M","type":"Markt"},"district":{"key":"09374","name":"Neustadt a.d.Waldnaab","type":"Landkreis"},"federalState":{"key":"09","name":"Bayern"}},{"name":"Buchbühlstr.","postalCode":"92705","locality":"Leuchtenberg","municipality":{"key":"09374132","name":"Leuchtenberg, M","type":"Markt"},"district":{"key":"09374","name":"Neustadt a.d.Waldnaab","type":"Landkreis"},"federalState":{"key":"09","name":"Bayern"}},{"name":"Burgweg","postalCode":"92705","locality":"Leuchtenberg","municipality":{"key":"09374132","name":"Leuchtenberg, M","type":"Markt"},"district":{"key":"09374","name":"Neustadt a.d.Waldnaab","type":"Landkreis"},"federalState":{"key":"09","name":"Bayern"}},{"name":"Döllnitz","postalCode":"92705","locality":"Leuchtenberg","municipality":{"key":"09374132","name":"Leuchtenberg, M","type":"Markt"},"district":{"key":"09374","name":"Neustadt a.d.Waldnaab","type":"Landkreis"},"federalState":{"key":"09","name":"Bayern"}},{"name":"Fichtenweg","postalCode":"92705","locality":"Leuchtenberg","municipality":{"key":"09374132","name":"Leuchtenberg, M","type":"Markt"},"district":{"key":"09374","name":"Neustadt a.d.Waldnaab","type":"Landkreis"},"federalState":{"key":"09","name":"Bayern"}},{"name":"Friedhofsweg","postalCode":"92705","locality":"Leuchtenberg","municipality":{"key":"09374132","name":"Leuchtenberg, M","type":"Markt"},"district":{"key":"09374","name":"Neustadt a.d.Waldnaab","type":"Landkreis"},"federalState":{"key":"09","name":"Bayern"}},{"name":"Hackergasse","postalCode":"92705","locality":"Leuchtenberg","municipality":{"key":"09374132","name":"Leuchtenberg, M","type":"Markt"},"district":{"key":"09374","name":"Neustadt a.d.Waldnaab","type":"Landkreis"},"federalState":{"key":"09","name":"Bayern"}},{"name":"Hermannsberger Str.","postalCode":"92705","locality":"Leuchtenberg","municipality":{"key":"09374132","name":"Leuchtenberg, M","type":"Markt"},"district":{"key":"09374","name":"Neustadt a.d.Waldnaab","type":"Landkreis"},"federalState":{"key":"09","name":"Bayern"}},{"name":"Hinter der Burg","postalCode":"92705","locality":"Leuchtenberg","municipality":{"key":"09374132","name":"Leuchtenberg, M","type":"Markt"},"district":{"key":"09374","name":"Neustadt a.d.Waldnaab","type":"Landkreis"},"federalState":{"key":"09","name":"Bayern"}},{"name":"Hohe Gasse","postalCode":"92705","locality":"Leuchtenberg","municipality":{"key":"09374132","name":"Leuchtenberg, M","type":"Markt"},"district":{"key":"09374","name":"Neustadt a.d.Waldnaab","type":"Landkreis"},"federalState":{"key":"09","name":"Bayern"}},{"name":"Innerer Markt","postalCode":"92705","locality":"Leuchtenberg","municipality":{"key":"09374132","name":"Leuchtenberg, M","type":"Markt"},"district":{"key":"09374","name":"Neustadt a.d.Waldnaab","type":"Landkreis"},"federalState":{"key":"09","name":"Bayern"}},{"name":"Kirchenstr.","postalCode":"92705","locality":"Leuchtenberg","municipality":{"key":"09374132","name":"Leuchtenberg, M","type":"Markt"},"district":{"key":"09374","name":"Neustadt a.d.Waldnaab","type":"Landkreis"},"federalState":{"key":"09","name":"Bayern"}},{"name":"Kleinpoppenhof","postalCode":"92705","locality":"Leuchtenberg","municipality":{"key":"09374132","name":"Leuchtenberg, M","type":"Markt"},"district":{"key":"09374","name":"Neustadt a.d.Waldnaab","type":"Landkreis"},"federalState":{"key":"09","name":"Bayern"}},{"name":"Kleßberg","postalCode":"92705","locality":"Leuchtenberg","municipality":{"key":"09374132","name":"Leuchtenberg, M","type":"Markt"},"district":{"key":"09374","name":"Neustadt a.d.Waldnaab","type":"Landkreis"},"federalState":{"key":"09","name":"Bayern"}},{"name":"Klessberger Weg","postalCode":"92705","locality":"Leuchtenberg","municipality":{"key":"09374132","name":"Leuchtenberg, M","type":"Markt"},"district":{"key":"09374","name":"Neustadt a.d.Waldnaab","type":"Landkreis"},"federalState":{"key":"09","name":"Bayern"}},{"name":"Lerau","postalCode":"92705","locality":"Leuchtenberg","municipality":{"key":"09374132","name":"Leuchtenberg, M","type":"Markt"},"district":{"key":"09374","name":"Neustadt a.d.Waldnaab","type":"Landkreis"},"federalState":{"key":"09","name":"Bayern"}},{"name":"Lückenrieth","postalCode":"92705","locality":"Leuchtenberg","municipality":{"key":"09374132","name":"Leuchtenberg, M","type":"Markt"},"district":{"key":"09374","name":"Neustadt a.d.Waldnaab","type":"Landkreis"},"federalState":{"key":"09","name":"Bayern"}},{"name":"Lückenriether Str.","postalCode":"92705","locality":"Leuchtenberg","municipality":{"key":"09374132","name":"Leuchtenberg, M","type":"Markt"},"district":{"key":"09374","name":"Neustadt a.d.Waldnaab","type":"Landkreis"},"federalState":{"key":"09","name":"Bayern"}},{"name":"Luhäckerstr.","postalCode":"92705","locality":"Leuchtenberg","municipality":{"key":"09374132","name":"Leuchtenberg, M","type":"Markt"},"district":{"key":"09374","name":"Neustadt a.d.Waldnaab","type":"Landkreis"},"federalState":{"key":"09","name":"Bayern"}},{"name":"Luher Str.","postalCode":"92705","locality":"Leuchtenberg","municipality":{"key":"09374132","name":"Leuchtenberg, M","type":"Markt"},"district":{"key":"09374","name":"Neustadt a.d.Waldnaab","type":"Landkreis"},"federalState":{"key":"09","name":"Bayern"}},{"name":"Pfarrer-Reitter-Str.","postalCode":"92705","locality":"Leuchtenberg","municipality":{"key":"09374132","name":"Leuchtenberg, M","type":"Markt"},"district":{"key":"09374","name":"Neustadt a.d.Waldnaab","type":"Landkreis"},"federalState":{"key":"09","name":"Bayern"}},{"name":"Pfarrer-Wagner-Str.","postalCode":"92705","locality":"Leuchtenberg","municipality":{"key":"09374132","name":"Leuchtenberg, M","type":"Markt"},"district":{"key":"09374","name":"Neustadt a.d.Waldnaab","type":"Landkreis"},"federalState":{"key":"09","name":"Bayern"}},{"name":"Pfarrer-Weeger-Str.","postalCode":"92705","locality":"Leuchtenberg","municipality":{"key":"09374132","name":"Leuchtenberg, M","type":"Markt"},"district":{"key":"09374","name":"Neustadt a.d.Waldnaab","type":"Landkreis"},"federalState":{"key":"09","name":"Bayern"}},{"name":"Preppach","postalCode":"92705","locality":"Leuchtenberg","municipality":{"key":"09374132","name":"Leuchtenberg, M","type":"Markt"},"district":{"key":"09374","name":"Neustadt a.d.Waldnaab","type":"Landkreis"},"federalState":{"key":"09","name":"Bayern"}},{"name":"Rektor-Kraus-Str.","postalCode":"92705","locality":"Leuchtenberg","municipality":{"key":"09374132","name":"Leuchtenberg, M","type":"Markt"},"district":{"key":"09374","name":"Neustadt a.d.Waldnaab","type":"Landkreis"},"federalState":{"key":"09","name":"Bayern"}},{"name":"Seheringstr.","postalCode":"92705","locality":"Leuchtenberg","municipality":{"key":"09374132","name":"Leuchtenberg, M","type":"Markt"},"district":{"key":"09374","name":"Neustadt a.d.Waldnaab","type":"Landkreis"},"federalState":{"key":"09","name":"Bayern"}},{"name":"Steinach","postalCode":"92705","locality":"Leuchtenberg","municipality":{"key":"09374132","name":"Leuchtenberg, M","type":"Markt"},"district":{"key":"09374","name":"Neustadt a.d.Waldnaab","type":"Landkreis"},"federalState":{"key":"09","name":"Bayern"}},{"name":"Steinackerstr.","postalCode":"92705","locality":"Leuchtenberg","municipality":{"key":"09374132","name":"Leuchtenberg, M","type":"Markt"},"district":{"key":"09374","name":"Neustadt a.d.Waldnaab","type":"Landkreis"},"federalState":{"key":"09","name":"Bayern"}},{"name":"Stollergasse","postalCode":"92705","locality":"Leuchtenberg","municipality":{"key":"09374132","name":"Leuchtenberg, M","type":"Markt"},"district":{"key":"09374","name":"Neustadt a.d.Waldnaab","type":"Landkreis"},"federalState":{"key":"09","name":"Bayern"}},{"name":"Turner Weg","postalCode":"92705","locality":"Leuchtenberg","municipality":{"key":"09374132","name":"Leuchtenberg, M","type":"Markt"},"district":{"key":"09374","name":"Neustadt a.d.Waldnaab","type":"Landkreis"},"federalState":{"key":"09","name":"Bayern"}},{"name":"Unteres Tor","postalCode":"92705","locality":"Leuchtenberg","municipality":{"key":"09374132","name":"Leuchtenberg, M","type":"Markt"},"district":{"key":"09374","name":"Neustadt a.d.Waldnaab","type":"Landkreis"},"federalState":{"key":"09","name":"Bayern"}},{"name":"Unternankau","postalCode":"92705","locality":"Leuchtenberg","municipality":{"key":"09374132","name":"Leuchtenberg, M","type":"Markt"},"district":{"key":"09374","name":"Neustadt a.d.Waldnaab","type":"Landkreis"},"federalState":{"key":"09","name":"Bayern"}},{"name":"Waldweg","postalCode":"92705","locality":"Leuchtenberg","municipality":{"key":"09374132","name":"Leuchtenberg, M","type":"Markt"},"district":{"key":"09374","name":"Neustadt a.d.Waldnaab","type":"Landkreis"},"federalState":{"key":"09","name":"Bayern"}},{"name":"Wieselrieth","postalCode":"92705","locality":"Leuchtenberg","municipality":{"key":"09374132","name":"Leuchtenberg, M","type":"Markt"},"district":{"key":"09374","name":"Neustadt a.d.Waldnaab","type":"Landkreis"},"federalState":{"key":"09","name":"Bayern"}},{"name":"Wittschau","postalCode":"92705","locality":"Leuchtenberg","municipality":{"key":"09374132","name":"Leuchtenberg, M","type":"Markt"},"district":{"key":"09374","name":"Neustadt a.d.Waldnaab","type":"Landkreis"},"federalState":{"key":"09","name":"Bayern"}},{"name":"Zum Sportplatz","postalCode":"92705","locality":"Leuchtenberg","municipality":{"key":"09374132","name":"Leuchtenberg, M","type":"Markt"},"district":{"key":"09374","name":"Neustadt a.d.Waldnaab","type":"Landkreis"},"federalState":{"key":"09","name":"Bayern"}},{"name":"Äußerer Markt","postalCode":"92705","locality":"Leuchtenberg","municipality":{"key":"09374132","name":"Leuchtenberg, M","type":"Markt"},"district":{"key":"09374","name":"Neustadt a.d.Waldnaab","type":"Landkreis"},"federalState":{"key":"09","name":"Bayern"}},]