[{"name":"Alter Schulweg","postalCode":"21723","locality":"Hollern-Twielenfleth","municipality":{"key":"03359026","name":"Hollern-Twielenfleth","type":"Kreisangehörige_Gemeinde"},"district":{"key":"03359","name":"Stade","type":"Landkreis"},"federalState":{"key":"03","name":"Niedersachsen"}},{"name":"Altländer Ring","postalCode":"21723","locality":"Hollern-Twielenfleth","municipality":{"key":"03359026","name":"Hollern-Twielenfleth","type":"Kreisangehörige_Gemeinde"},"district":{"key":"03359","name":"Stade","type":"Landkreis"},"federalState":{"key":"03","name":"Niedersachsen"}},{"name":"Am Landweg","postalCode":"21723","locality":"Hollern-Twielenfleth","municipality":{"key":"03359026","name":"Hollern-Twielenfleth","type":"Kreisangehörige_Gemeinde"},"district":{"key":"03359","name":"Stade","type":"Landkreis"},"federalState":{"key":"03","name":"Niedersachsen"}},{"name":"Am Schießstand","postalCode":"21723","locality":"Hollern-Twielenfleth","municipality":{"key":"03359026","name":"Hollern-Twielenfleth","type":"Kreisangehörige_Gemeinde"},"district":{"key":"03359","name":"Stade","type":"Landkreis"},"federalState":{"key":"03","name":"Niedersachsen"}},{"name":"Am Wegen","postalCode":"21723","locality":"Hollern-Twielenfleth","municipality":{"key":"03359026","name":"Hollern-Twielenfleth","type":"Kreisangehörige_Gemeinde"},"district":{"key":"03359","name":"Stade","type":"Landkreis"},"federalState":{"key":"03","name":"Niedersachsen"}},{"name":"An der Eilwettern","postalCode":"21723","locality":"Hollern-Twielenfleth","municipality":{"key":"03359026","name":"Hollern-Twielenfleth","type":"Kreisangehörige_Gemeinde"},"district":{"key":"03359","name":"Stade","type":"Landkreis"},"federalState":{"key":"03","name":"Niedersachsen"}},{"name":"An'n Meinkenhoff","postalCode":"21723","locality":"Hollern-Twielenfleth","municipality":{"key":"03359026","name":"Hollern-Twielenfleth","type":"Kreisangehörige_Gemeinde"},"district":{"key":"03359","name":"Stade","type":"Landkreis"},"federalState":{"key":"03","name":"Niedersachsen"}},{"name":"Bassenfleth","postalCode":"21723","locality":"Hollern-Twielenfleth","municipality":{"key":"03359026","name":"Hollern-Twielenfleth","type":"Kreisangehörige_Gemeinde"},"district":{"key":"03359","name":"Stade","type":"Landkreis"},"federalState":{"key":"03","name":"Niedersachsen"}},{"name":"Bassenflether Chaussee","postalCode":"21723","locality":"Hollern-Twielenfleth","municipality":{"key":"03359026","name":"Hollern-Twielenfleth","type":"Kreisangehörige_Gemeinde"},"district":{"key":"03359","name":"Stade","type":"Landkreis"},"federalState":{"key":"03","name":"Niedersachsen"}},{"name":"Bi de School","postalCode":"21723","locality":"Hollern-Twielenfleth","municipality":{"key":"03359026","name":"Hollern-Twielenfleth","type":"Kreisangehörige_Gemeinde"},"district":{"key":"03359","name":"Stade","type":"Landkreis"},"federalState":{"key":"03","name":"Niedersachsen"}},{"name":"Camper Str.","postalCode":"21680","locality":"Stade","municipality":{"key":"03359038","name":"Stade, Hansestadt","type":"Stadt"},"district":{"key":"03359","name":"Stade","type":"Landkreis"},"federalState":{"key":"03","name":"Niedersachsen"}},{"name":"Carl-Benz-Str.","postalCode":"21684","locality":"Stade","municipality":{"key":"03359038","name":"Stade, Hansestadt","type":"Stadt"},"district":{"key":"03359","name":"Stade","type":"Landkreis"},"federalState":{"key":"03","name":"Niedersachsen"}},{"name":"Carl-Diercke-Park","postalCode":"21682","locality":"Stade","municipality":{"key":"03359038","name":"Stade, Hansestadt","type":"Stadt"},"district":{"key":"03359","name":"Stade","type":"Landkreis"},"federalState":{"key":"03","name":"Niedersachsen"}},{"name":"Carl-Goerdeler-Weg","postalCode":"21684","locality":"Stade","municipality":{"key":"03359038","name":"Stade, Hansestadt","type":"Stadt"},"district":{"key":"03359","name":"Stade","type":"Landkreis"},"federalState":{"key":"03","name":"Niedersachsen"}},{"name":"Carl-von-Ossietzky-Weg","postalCode":"21684","locality":"Stade","municipality":{"key":"03359038","name":"Stade, Hansestadt","type":"Stadt"},"district":{"key":"03359","name":"Stade","type":"Landkreis"},"federalState":{"key":"03","name":"Niedersachsen"}},{"name":"Casmannstr.","postalCode":"21680","locality":"Stade","municipality":{"key":"03359038","name":"Stade, Hansestadt","type":"Stadt"},"district":{"key":"03359","name":"Stade","type":"Landkreis"},"federalState":{"key":"03","name":"Niedersachsen"}},{"name":"Celler Str.","postalCode":"21680","locality":"Stade","municipality":{"key":"03359038","name":"Stade, Hansestadt","type":"Stadt"},"district":{"key":"03359","name":"Stade","type":"Landkreis"},"federalState":{"key":"03","name":"Niedersachsen"}},{"name":"Chaukenstr.","postalCode":"21680","locality":"Stade","municipality":{"key":"03359038","name":"Stade, Hansestadt","type":"Stadt"},"district":{"key":"03359","name":"Stade","type":"Landkreis"},"federalState":{"key":"03","name":"Niedersachsen"}},{"name":"Cheruskerweg","postalCode":"21680","locality":"Stade","municipality":{"key":"03359038","name":"Stade, Hansestadt","type":"Stadt"},"district":{"key":"03359","name":"Stade","type":"Landkreis"},"federalState":{"key":"03","name":"Niedersachsen"}},{"name":"Christian-Reichert-Str.","postalCode":"55271","locality":"Stadecken-Elsheim","municipality":{"key":"07339057","name":"Stadecken-Elsheim","type":"Kreisangehörige_Gemeinde"},"district":{"key":"07339","name":"Mainz-Bingen","type":"Landkreis"},"federalState":{"key":"07","name":"Rheinland-Pfalz"}},{"name":"Christophorusweg","postalCode":"21683","locality":"Stade","municipality":{"key":"03359038","name":"Stade, Hansestadt","type":"Stadt"},"district":{"key":"03359","name":"Stade","type":"Landkreis"},"federalState":{"key":"03","name":"Niedersachsen"}},{"name":"Clara-Schumannstr.","postalCode":"55271","locality":"Stadecken-Elsheim","municipality":{"key":"07339057","name":"Stadecken-Elsheim","type":"Kreisangehörige_Gemeinde"},"district":{"key":"07339","name":"Mainz-Bingen","type":"Landkreis"},"federalState":{"key":"07","name":"Rheinland-Pfalz"}},{"name":"Claus-von-Stauffenberg-Weg","postalCode":"21684","locality":"Stade","municipality":{"key":"03359038","name":"Stade, Hansestadt","type":"Stadt"},"district":{"key":"03359","name":"Stade","type":"Landkreis"},"federalState":{"key":"03","name":"Niedersachsen"}},{"name":"Cosmae-Kirchhof","postalCode":"21682","locality":"Stade","municipality":{"key":"03359038","name":"Stade, Hansestadt","type":"Stadt"},"district":{"key":"03359","name":"Stade","type":"Landkreis"},"federalState":{"key":"03","name":"Niedersachsen"}},{"name":"Cranzer Str.","postalCode":"21680","locality":"Stade","municipality":{"key":"03359038","name":"Stade, Hansestadt","type":"Stadt"},"district":{"key":"03359","name":"Stade","type":"Landkreis"},"federalState":{"key":"03","name":"Niedersachsen"}},{"name":"Durchweg","postalCode":"21723","locality":"Hollern-Twielenfleth","municipality":{"key":"03359026","name":"Hollern-Twielenfleth","type":"Kreisangehörige_Gemeinde"},"district":{"key":"03359","name":"Stade","type":"Landkreis"},"federalState":{"key":"03","name":"Niedersachsen"}},{"name":"Eichenhüll","postalCode":"96187","locality":"Stadelhofen","municipality":{"key":"09471189","name":"Stadelhofen","type":"Kreisangehörige_Gemeinde"},"district":{"key":"09471","name":"Bamberg","type":"Landkreis"},"federalState":{"key":"09","name":"Bayern"}},{"name":"Eichenstr.","postalCode":"21684","locality":"Stade","municipality":{"key":"03359038","name":"Stade, Hansestadt","type":"Stadt"},"district":{"key":"03359","name":"Stade","type":"Landkreis"},"federalState":{"key":"03","name":"Niedersachsen"}},{"name":"Eisenbahnstr.","postalCode":"21680","locality":"Stade","municipality":{"key":"03359038","name":"Stade, Hansestadt","type":"Stadt"},"district":{"key":"03359","name":"Stade","type":"Landkreis"},"federalState":{"key":"03","name":"Niedersachsen"}},{"name":"Elbinger Str.","postalCode":"21680","locality":"Stade","municipality":{"key":"03359038","name":"Stade, Hansestadt","type":"Stadt"},"district":{"key":"03359","name":"Stade","type":"Landkreis"},"federalState":{"key":"03","name":"Niedersachsen"}},{"name":"Elbstr.","postalCode":"21683","locality":"Stade","municipality":{"key":"03359038","name":"Stade, Hansestadt","type":"Stadt"},"district":{"key":"03359","name":"Stade","type":"Landkreis"},"federalState":{"key":"03","name":"Niedersachsen"}},{"name":"Elsternstr.","postalCode":"21683","locality":"Stade","municipality":{"key":"03359038","name":"Stade, Hansestadt","type":"Stadt"},"district":{"key":"03359","name":"Stade","type":"Landkreis"},"federalState":{"key":"03","name":"Niedersachsen"}},{"name":"Entenstieg","postalCode":"21682","locality":"Stade","municipality":{"key":"03359038","name":"Stade, Hansestadt","type":"Stadt"},"district":{"key":"03359","name":"Stade","type":"Landkreis"},"federalState":{"key":"03","name":"Niedersachsen"}},{"name":"Erich-Kästner-Weg","postalCode":"21684","locality":"Stade","municipality":{"key":"03359038","name":"Stade, Hansestadt","type":"Stadt"},"district":{"key":"03359","name":"Stade","type":"Landkreis"},"federalState":{"key":"03","name":"Niedersachsen"}},{"name":"Erlengrund","postalCode":"21684","locality":"Stade","municipality":{"key":"03359038","name":"Stade, Hansestadt","type":"Stadt"},"district":{"key":"03359","name":"Stade","type":"Landkreis"},"federalState":{"key":"03","name":"Niedersachsen"}},{"name":"Erlenweg","postalCode":"21683","locality":"Stade","municipality":{"key":"03359038","name":"Stade, Hansestadt","type":"Stadt"},"district":{"key":"03359","name":"Stade","type":"Landkreis"},"federalState":{"key":"03","name":"Niedersachsen"}},{"name":"Ernst-August-Str.","postalCode":"21683","locality":"Stade","municipality":{"key":"03359038","name":"Stade, Hansestadt","type":"Stadt"},"district":{"key":"03359","name":"Stade","type":"Landkreis"},"federalState":{"key":"03","name":"Niedersachsen"}},{"name":"Ernstweg","postalCode":"21684","locality":"Stade","municipality":{"key":"03359038","name":"Stade, Hansestadt","type":"Stadt"},"district":{"key":"03359","name":"Stade","type":"Landkreis"},"federalState":{"key":"03","name":"Niedersachsen"}},{"name":"Essenheimer Str.","postalCode":"55271","locality":"Stadecken-Elsheim","municipality":{"key":"07339057","name":"Stadecken-Elsheim","type":"Kreisangehörige_Gemeinde"},"district":{"key":"07339","name":"Mainz-Bingen","type":"Landkreis"},"federalState":{"key":"07","name":"Rheinland-Pfalz"}},{"name":"Estebrügger Str.","postalCode":"21680","locality":"Stade","municipality":{"key":"03359038","name":"Stade, Hansestadt","type":"Stadt"},"district":{"key":"03359","name":"Stade","type":"Landkreis"},"federalState":{"key":"03","name":"Niedersachsen"}},{"name":"Eulenweg","postalCode":"21684","locality":"Stade","municipality":{"key":"03359038","name":"Stade, Hansestadt","type":"Stadt"},"district":{"key":"03359","name":"Stade","type":"Landkreis"},"federalState":{"key":"03","name":"Niedersachsen"}},{"name":"Feriendorf Altes Land","postalCode":"21723","locality":"Hollern-Twielenfleth","municipality":{"key":"03359026","name":"Hollern-Twielenfleth","type":"Kreisangehörige_Gemeinde"},"district":{"key":"03359","name":"Stade","type":"Landkreis"},"federalState":{"key":"03","name":"Niedersachsen"}},{"name":"Grüner Weg","postalCode":"21723","locality":"Hollern-Twielenfleth","municipality":{"key":"03359026","name":"Hollern-Twielenfleth","type":"Kreisangehörige_Gemeinde"},"district":{"key":"03359","name":"Stade","type":"Landkreis"},"federalState":{"key":"03","name":"Niedersachsen"}},{"name":"Hinterdeich","postalCode":"21723","locality":"Hollern-Twielenfleth","municipality":{"key":"03359026","name":"Hollern-Twielenfleth","type":"Kreisangehörige_Gemeinde"},"district":{"key":"03359","name":"Stade","type":"Landkreis"},"federalState":{"key":"03","name":"Niedersachsen"}},{"name":"Hinterstr.","postalCode":"21723","locality":"Hollern-Twielenfleth","municipality":{"key":"03359026","name":"Hollern-Twielenfleth","type":"Kreisangehörige_Gemeinde"},"district":{"key":"03359","name":"Stade","type":"Landkreis"},"federalState":{"key":"03","name":"Niedersachsen"}},{"name":"Hollernstr.","postalCode":"21723","locality":"Hollern-Twielenfleth","municipality":{"key":"03359026","name":"Hollern-Twielenfleth","type":"Kreisangehörige_Gemeinde"},"district":{"key":"03359","name":"Stade","type":"Landkreis"},"federalState":{"key":"03","name":"Niedersachsen"}},{"name":"Hörne","postalCode":"21723","locality":"Hollern-Twielenfleth","municipality":{"key":"03359026","name":"Hollern-Twielenfleth","type":"Kreisangehörige_Gemeinde"},"district":{"key":"03359","name":"Stade","type":"Landkreis"},"federalState":{"key":"03","name":"Niedersachsen"}},{"name":"Im Taubenkamp","postalCode":"21723","locality":"Hollern-Twielenfleth","municipality":{"key":"03359026","name":"Hollern-Twielenfleth","type":"Kreisangehörige_Gemeinde"},"district":{"key":"03359","name":"Stade","type":"Landkreis"},"federalState":{"key":"03","name":"Niedersachsen"}},{"name":"Jahnstr.","postalCode":"21680","locality":"Stade","municipality":{"key":"03359038","name":"Stade, Hansestadt","type":"Stadt"},"district":{"key":"03359","name":"Stade","type":"Landkreis"},"federalState":{"key":"03","name":"Niedersachsen"}},{"name":"Jobelmannstr.","postalCode":"21680","locality":"Stade","municipality":{"key":"03359038","name":"Stade, Hansestadt","type":"Stadt"},"district":{"key":"03359","name":"Stade","type":"Landkreis"},"federalState":{"key":"03","name":"Niedersachsen"}},{"name":"Johannisburger Str.","postalCode":"21680","locality":"Stade","municipality":{"key":"03359038","name":"Stade, Hansestadt","type":"Stadt"},"district":{"key":"03359","name":"Stade","type":"Landkreis"},"federalState":{"key":"03","name":"Niedersachsen"}},{"name":"Johannisstr.","postalCode":"21682","locality":"Stade","municipality":{"key":"03359038","name":"Stade, Hansestadt","type":"Stadt"},"district":{"key":"03359","name":"Stade","type":"Landkreis"},"federalState":{"key":"03","name":"Niedersachsen"}},{"name":"Jorker Str.","postalCode":"21680","locality":"Stade","municipality":{"key":"03359038","name":"Stade, Hansestadt","type":"Stadt"},"district":{"key":"03359","name":"Stade","type":"Landkreis"},"federalState":{"key":"03","name":"Niedersachsen"}},{"name":"Julius-Leber-Weg","postalCode":"21684","locality":"Stade","municipality":{"key":"03359038","name":"Stade, Hansestadt","type":"Stadt"},"district":{"key":"03359","name":"Stade","type":"Landkreis"},"federalState":{"key":"03","name":"Niedersachsen"}},{"name":"Justus-Delbrück-Weg","postalCode":"21684","locality":"Stade","municipality":{"key":"03359038","name":"Stade, Hansestadt","type":"Stadt"},"district":{"key":"03359","name":"Stade","type":"Landkreis"},"federalState":{"key":"03","name":"Niedersachsen"}},{"name":"Kirchenstr.","postalCode":"21723","locality":"Hollern-Twielenfleth","municipality":{"key":"03359026","name":"Hollern-Twielenfleth","type":"Kreisangehörige_Gemeinde"},"district":{"key":"03359","name":"Stade","type":"Landkreis"},"federalState":{"key":"03","name":"Niedersachsen"}},{"name":"Kirschhoff","postalCode":"21723","locality":"Hollern-Twielenfleth","municipality":{"key":"03359026","name":"Hollern-Twielenfleth","type":"Kreisangehörige_Gemeinde"},"district":{"key":"03359","name":"Stade","type":"Landkreis"},"federalState":{"key":"03","name":"Niedersachsen"}},{"name":"Korbmacherweg","postalCode":"21723","locality":"Hollern-Twielenfleth","municipality":{"key":"03359026","name":"Hollern-Twielenfleth","type":"Kreisangehörige_Gemeinde"},"district":{"key":"03359","name":"Stade","type":"Landkreis"},"federalState":{"key":"03","name":"Niedersachsen"}},{"name":"Kurze Str.","postalCode":"21723","locality":"Hollern-Twielenfleth","municipality":{"key":"03359026","name":"Hollern-Twielenfleth","type":"Kreisangehörige_Gemeinde"},"district":{"key":"03359","name":"Stade","type":"Landkreis"},"federalState":{"key":"03","name":"Niedersachsen"}},{"name":"Lühesand","postalCode":"21723","locality":"Hollern-Twielenfleth","municipality":{"key":"03359026","name":"Hollern-Twielenfleth","type":"Kreisangehörige_Gemeinde"},"district":{"key":"03359","name":"Stade","type":"Landkreis"},"federalState":{"key":"03","name":"Niedersachsen"}},{"name":"Melau","postalCode":"21723","locality":"Hollern-Twielenfleth","municipality":{"key":"03359026","name":"Hollern-Twielenfleth","type":"Kreisangehörige_Gemeinde"},"district":{"key":"03359","name":"Stade","type":"Landkreis"},"federalState":{"key":"03","name":"Niedersachsen"}},{"name":"Mühlenstr.","postalCode":"21723","locality":"Hollern-Twielenfleth","municipality":{"key":"03359026","name":"Hollern-Twielenfleth","type":"Kreisangehörige_Gemeinde"},"district":{"key":"03359","name":"Stade","type":"Landkreis"},"federalState":{"key":"03","name":"Niedersachsen"}},{"name":"Mühlenweg","postalCode":"21723","locality":"Hollern-Twielenfleth","municipality":{"key":"03359026","name":"Hollern-Twielenfleth","type":"Kreisangehörige_Gemeinde"},"district":{"key":"03359","name":"Stade","type":"Landkreis"},"federalState":{"key":"03","name":"Niedersachsen"}},{"name":"Nachtigallenweg","postalCode":"21682","locality":"Stade","municipality":{"key":"03359038","name":"Stade, Hansestadt","type":"Stadt"},"district":{"key":"03359","name":"Stade","type":"Landkreis"},"federalState":{"key":"03","name":"Niedersachsen"}},{"name":"Nagelstiftsweg","postalCode":"21682","locality":"Stade","municipality":{"key":"03359038","name":"Stade, Hansestadt","type":"Stadt"},"district":{"key":"03359","name":"Stade","type":"Landkreis"},"federalState":{"key":"03","name":"Niedersachsen"}},{"name":"Neidenburger Weg","postalCode":"21680","locality":"Stade","municipality":{"key":"03359038","name":"Stade, Hansestadt","type":"Stadt"},"district":{"key":"03359","name":"Stade","type":"Landkreis"},"federalState":{"key":"03","name":"Niedersachsen"}},{"name":"Nelkenweg","postalCode":"21684","locality":"Stade","municipality":{"key":"03359038","name":"Stade, Hansestadt","type":"Stadt"},"district":{"key":"03359","name":"Stade","type":"Landkreis"},"federalState":{"key":"03","name":"Niedersachsen"}},{"name":"Nettelbeckweg","postalCode":"21680","locality":"Stade","municipality":{"key":"03359038","name":"Stade, Hansestadt","type":"Stadt"},"district":{"key":"03359","name":"Stade","type":"Landkreis"},"federalState":{"key":"03","name":"Niedersachsen"}},{"name":"Neubourgstr.","postalCode":"21682","locality":"Stade","municipality":{"key":"03359038","name":"Stade, Hansestadt","type":"Stadt"},"district":{"key":"03359","name":"Stade","type":"Landkreis"},"federalState":{"key":"03","name":"Niedersachsen"}},{"name":"Neuenfelder Str.","postalCode":"21680","locality":"Stade","municipality":{"key":"03359038","name":"Stade, Hansestadt","type":"Stadt"},"district":{"key":"03359","name":"Stade","type":"Landkreis"},"federalState":{"key":"03","name":"Niedersachsen"}},{"name":"Neue-Stücken-Feld","postalCode":"21684","locality":"Stade","municipality":{"key":"03359038","name":"Stade, Hansestadt","type":"Stadt"},"district":{"key":"03359","name":"Stade","type":"Landkreis"},"federalState":{"key":"03","name":"Niedersachsen"}},{"name":"Neugasse","postalCode":"55271","locality":"Stadecken-Elsheim","municipality":{"key":"07339057","name":"Stadecken-Elsheim","type":"Kreisangehörige_Gemeinde"},"district":{"key":"07339","name":"Mainz-Bingen","type":"Landkreis"},"federalState":{"key":"07","name":"Rheinland-Pfalz"}},{"name":"Neu-Schnee","postalCode":"21683","locality":"Stade","municipality":{"key":"03359038","name":"Stade, Hansestadt","type":"Stadt"},"district":{"key":"03359","name":"Stade","type":"Landkreis"},"federalState":{"key":"03","name":"Niedersachsen"}},{"name":"Nicolaus-Dreyer-Str.","postalCode":"21683","locality":"Stade","municipality":{"key":"03359038","name":"Stade, Hansestadt","type":"Stadt"},"district":{"key":"03359","name":"Stade","type":"Landkreis"},"federalState":{"key":"03","name":"Niedersachsen"}},{"name":"Nikolaus-Otto-Str.","postalCode":"21684","locality":"Stade","municipality":{"key":"03359038","name":"Stade, Hansestadt","type":"Stadt"},"district":{"key":"03359","name":"Stade","type":"Landkreis"},"federalState":{"key":"03","name":"Niedersachsen"}},{"name":"Norderstr.","postalCode":"21683","locality":"Stade","municipality":{"key":"03359038","name":"Stade, Hansestadt","type":"Stadt"},"district":{"key":"03359","name":"Stade","type":"Landkreis"},"federalState":{"key":"03","name":"Niedersachsen"}},{"name":"Normannenstr.","postalCode":"21680","locality":"Stade","municipality":{"key":"03359038","name":"Stade, Hansestadt","type":"Stadt"},"district":{"key":"03359","name":"Stade","type":"Landkreis"},"federalState":{"key":"03","name":"Niedersachsen"}},{"name":"Oberer Weg","postalCode":"21682","locality":"Stade","municipality":{"key":"03359038","name":"Stade, Hansestadt","type":"Stadt"},"district":{"key":"03359","name":"Stade","type":"Landkreis"},"federalState":{"key":"03","name":"Niedersachsen"}},{"name":"Obstmarschenweg","postalCode":"21683","locality":"Stade","municipality":{"key":"03359038","name":"Stade, Hansestadt","type":"Stadt"},"district":{"key":"03359","name":"Stade","type":"Landkreis"},"federalState":{"key":"03","name":"Niedersachsen"}},{"name":"Odamm","postalCode":"21684","locality":"Stade","municipality":{"key":"03359038","name":"Stade, Hansestadt","type":"Stadt"},"district":{"key":"03359","name":"Stade","type":"Landkreis"},"federalState":{"key":"03","name":"Niedersachsen"}},{"name":"Ohle Kamp","postalCode":"21684","locality":"Stade","municipality":{"key":"03359038","name":"Stade, Hansestadt","type":"Stadt"},"district":{"key":"03359","name":"Stade","type":"Landkreis"},"federalState":{"key":"03","name":"Niedersachsen"}},{"name":"Ohle Ring","postalCode":"21684","locality":"Stade","municipality":{"key":"03359038","name":"Stade, Hansestadt","type":"Stadt"},"district":{"key":"03359","name":"Stade","type":"Landkreis"},"federalState":{"key":"03","name":"Niedersachsen"}},{"name":"Ohof","postalCode":"21684","locality":"Stade","municipality":{"key":"03359038","name":"Stade, Hansestadt","type":"Stadt"},"district":{"key":"03359","name":"Stade","type":"Landkreis"},"federalState":{"key":"03","name":"Niedersachsen"}},{"name":"Oppenheimer Str.","postalCode":"55271","locality":"Stadecken-Elsheim","municipality":{"key":"07339057","name":"Stadecken-Elsheim","type":"Kreisangehörige_Gemeinde"},"district":{"key":"07339","name":"Mainz-Bingen","type":"Landkreis"},"federalState":{"key":"07","name":"Rheinland-Pfalz"}},{"name":"Ortsringweg","postalCode":"55271","locality":"Stadecken-Elsheim","municipality":{"key":"07339057","name":"Stadecken-Elsheim","type":"Kreisangehörige_Gemeinde"},"district":{"key":"07339","name":"Mainz-Bingen","type":"Landkreis"},"federalState":{"key":"07","name":"Rheinland-Pfalz"}},{"name":"Osteresch","postalCode":"21683","locality":"Stade","municipality":{"key":"03359038","name":"Stade, Hansestadt","type":"Stadt"},"district":{"key":"03359","name":"Stade","type":"Landkreis"},"federalState":{"key":"03","name":"Niedersachsen"}},{"name":"Ostmarkstr.","postalCode":"21680","locality":"Stade","municipality":{"key":"03359038","name":"Stade, Hansestadt","type":"Stadt"},"district":{"key":"03359","name":"Stade","type":"Landkreis"},"federalState":{"key":"03","name":"Niedersachsen"}},{"name":"Ottenbecker Damm","postalCode":"21684","locality":"Stade","municipality":{"key":"03359038","name":"Stade, Hansestadt","type":"Stadt"},"district":{"key":"03359","name":"Stade","type":"Landkreis"},"federalState":{"key":"03","name":"Niedersachsen"}},{"name":"Ovelgönner Weg","postalCode":"21682","locality":"Stade","municipality":{"key":"03359038","name":"Stade, Hansestadt","type":"Stadt"},"district":{"key":"03359","name":"Stade","type":"Landkreis"},"federalState":{"key":"03","name":"Niedersachsen"}},{"name":"Pappelstieg","postalCode":"21683","locality":"Stade","municipality":{"key":"03359038","name":"Stade, Hansestadt","type":"Stadt"},"district":{"key":"03359","name":"Stade","type":"Landkreis"},"federalState":{"key":"03","name":"Niedersachsen"}},{"name":"Parkstr.","postalCode":"21682","locality":"Stade","municipality":{"key":"03359038","name":"Stade, Hansestadt","type":"Stadt"},"district":{"key":"03359","name":"Stade","type":"Landkreis"},"federalState":{"key":"03","name":"Niedersachsen"}},{"name":"Parkweg","postalCode":"21682","locality":"Stade","municipality":{"key":"03359038","name":"Stade, Hansestadt","type":"Stadt"},"district":{"key":"03359","name":"Stade","type":"Landkreis"},"federalState":{"key":"03","name":"Niedersachsen"}},{"name":"Paul-Kannapke-Weg","postalCode":"21684","locality":"Stade","municipality":{"key":"03359038","name":"Stade, Hansestadt","type":"Stadt"},"district":{"key":"03359","name":"Stade","type":"Landkreis"},"federalState":{"key":"03","name":"Niedersachsen"}},{"name":"Peerkoppel","postalCode":"21683","locality":"Stade","municipality":{"key":"03359038","name":"Stade, Hansestadt","type":"Stadt"},"district":{"key":"03359","name":"Stade","type":"Landkreis"},"federalState":{"key":"03","name":"Niedersachsen"}},{"name":"Pferdestr.","postalCode":"21682","locality":"Stade","municipality":{"key":"03359038","name":"Stade, Hansestadt","type":"Stadt"},"district":{"key":"03359","name":"Stade","type":"Landkreis"},"federalState":{"key":"03","name":"Niedersachsen"}},{"name":"Pflückerweg","postalCode":"21684","locality":"Stade","municipality":{"key":"03359038","name":"Stade, Hansestadt","type":"Stadt"},"district":{"key":"03359","name":"Stade","type":"Landkreis"},"federalState":{"key":"03","name":"Niedersachsen"}},{"name":"Pillauer Str.","postalCode":"21680","locality":"Stade","municipality":{"key":"03359038","name":"Stade, Hansestadt","type":"Stadt"},"district":{"key":"03359","name":"Stade","type":"Landkreis"},"federalState":{"key":"03","name":"Niedersachsen"}},{"name":"Pommernstr.","postalCode":"21680","locality":"Stade","municipality":{"key":"03359038","name":"Stade, Hansestadt","type":"Stadt"},"district":{"key":"03359","name":"Stade","type":"Landkreis"},"federalState":{"key":"03","name":"Niedersachsen"}},{"name":"Portstr.","postalCode":"55271","locality":"Stadecken-Elsheim","municipality":{"key":"07339057","name":"Stadecken-Elsheim","type":"Kreisangehörige_Gemeinde"},"district":{"key":"07339","name":"Mainz-Bingen","type":"Landkreis"},"federalState":{"key":"07","name":"Rheinland-Pfalz"}},{"name":"Poststr.","postalCode":"21682","locality":"Stade","municipality":{"key":"03359038","name":"Stade, Hansestadt","type":"Stadt"},"district":{"key":"03359","name":"Stade","type":"Landkreis"},"federalState":{"key":"03","name":"Niedersachsen"}},{"name":"Pottwärder","postalCode":"21682","locality":"Stade","municipality":{"key":"03359038","name":"Stade, Hansestadt","type":"Stadt"},"district":{"key":"03359","name":"Stade","type":"Landkreis"},"federalState":{"key":"03","name":"Niedersachsen"}},{"name":"Priorsgarten","postalCode":"21680","locality":"Stade","municipality":{"key":"03359038","name":"Stade, Hansestadt","type":"Stadt"},"district":{"key":"03359","name":"Stade","type":"Landkreis"},"federalState":{"key":"03","name":"Niedersachsen"}},{"name":"Pulverweg","postalCode":"21682","locality":"Stade","municipality":{"key":"03359038","name":"Stade, Hansestadt","type":"Stadt"},"district":{"key":"03359","name":"Stade","type":"Landkreis"},"federalState":{"key":"03","name":"Niedersachsen"}},{"name":"Querweg","postalCode":"21682","locality":"Stade","municipality":{"key":"03359038","name":"Stade, Hansestadt","type":"Stadt"},"district":{"key":"03359","name":"Stade","type":"Landkreis"},"federalState":{"key":"03","name":"Niedersachsen"}},{"name":"Raiffeisenstr.","postalCode":"55271","locality":"Stadecken-Elsheim","municipality":{"key":"07339057","name":"Stadecken-Elsheim","type":"Kreisangehörige_Gemeinde"},"district":{"key":"07339","name":"Mainz-Bingen","type":"Landkreis"},"federalState":{"key":"07","name":"Rheinland-Pfalz"}},{"name":"Rainfarnweg","postalCode":"21680","locality":"Stade","municipality":{"key":"03359038","name":"Stade, Hansestadt","type":"Stadt"},"district":{"key":"03359","name":"Stade","type":"Landkreis"},"federalState":{"key":"03","name":"Niedersachsen"}},{"name":"Rebhuhnstr.","postalCode":"21683","locality":"Stade","municipality":{"key":"03359038","name":"Stade, Hansestadt","type":"Stadt"},"district":{"key":"03359","name":"Stade","type":"Landkreis"},"federalState":{"key":"03","name":"Niedersachsen"}},{"name":"Reeperbahn","postalCode":"21682","locality":"Stade","municipality":{"key":"03359038","name":"Stade, Hansestadt","type":"Stadt"},"district":{"key":"03359","name":"Stade","type":"Landkreis"},"federalState":{"key":"03","name":"Niedersachsen"}},{"name":"Rehwiese","postalCode":"21682","locality":"Stade","municipality":{"key":"03359038","name":"Stade, Hansestadt","type":"Stadt"},"district":{"key":"03359","name":"Stade","type":"Landkreis"},"federalState":{"key":"03","name":"Niedersachsen"}},{"name":"Reiner-Lange-Str.","postalCode":"21680","locality":"Stade","municipality":{"key":"03359038","name":"Stade, Hansestadt","type":"Stadt"},"district":{"key":"03359","name":"Stade","type":"Landkreis"},"federalState":{"key":"03","name":"Niedersachsen"}},{"name":"Richeyweg","postalCode":"21682","locality":"Stade","municipality":{"key":"03359038","name":"Stade, Hansestadt","type":"Stadt"},"district":{"key":"03359","name":"Stade","type":"Landkreis"},"federalState":{"key":"03","name":"Niedersachsen"}},{"name":"Rieslingstr.","postalCode":"55271","locality":"Stadecken-Elsheim","municipality":{"key":"07339057","name":"Stadecken-Elsheim","type":"Kreisangehörige_Gemeinde"},"district":{"key":"07339","name":"Mainz-Bingen","type":"Landkreis"},"federalState":{"key":"07","name":"Rheinland-Pfalz"}},{"name":"Ringelnatzweg","postalCode":"21684","locality":"Stade","municipality":{"key":"03359038","name":"Stade, Hansestadt","type":"Stadt"},"district":{"key":"03359","name":"Stade","type":"Landkreis"},"federalState":{"key":"03","name":"Niedersachsen"}},{"name":"Ritterstr.","postalCode":"21682","locality":"Stade","municipality":{"key":"03359038","name":"Stade, Hansestadt","type":"Stadt"},"district":{"key":"03359","name":"Stade","type":"Landkreis"},"federalState":{"key":"03","name":"Niedersachsen"}},{"name":"Roggenkamp","postalCode":"21680","locality":"Stade","municipality":{"key":"03359038","name":"Stade, Hansestadt","type":"Stadt"},"district":{"key":"03359","name":"Stade","type":"Landkreis"},"federalState":{"key":"03","name":"Niedersachsen"}},{"name":"Röhrweg","postalCode":"21683","locality":"Stade","municipality":{"key":"03359038","name":"Stade, Hansestadt","type":"Stadt"},"district":{"key":"03359","name":"Stade","type":"Landkreis"},"federalState":{"key":"03","name":"Niedersachsen"}},{"name":"Römerstr.","postalCode":"21680","locality":"Stade","municipality":{"key":"03359038","name":"Stade, Hansestadt","type":"Stadt"},"district":{"key":"03359","name":"Stade","type":"Landkreis"},"federalState":{"key":"03","name":"Niedersachsen"}},{"name":"Rönnebyweg","postalCode":"21682","locality":"Stade","municipality":{"key":"03359038","name":"Stade, Hansestadt","type":"Stadt"},"district":{"key":"03359","name":"Stade","type":"Landkreis"},"federalState":{"key":"03","name":"Niedersachsen"}},{"name":"Rosenstr.","postalCode":"21682","locality":"Stade","municipality":{"key":"03359038","name":"Stade, Hansestadt","type":"Stadt"},"district":{"key":"03359","name":"Stade","type":"Landkreis"},"federalState":{"key":"03","name":"Niedersachsen"}},{"name":"Rothstr.","postalCode":"21680","locality":"Stade","municipality":{"key":"03359038","name":"Stade, Hansestadt","type":"Stadt"},"district":{"key":"03359","name":"Stade","type":"Landkreis"},"federalState":{"key":"03","name":"Niedersachsen"}},{"name":"Rübenkamp","postalCode":"21680","locality":"Stade","municipality":{"key":"03359038","name":"Stade, Hansestadt","type":"Stadt"},"district":{"key":"03359","name":"Stade","type":"Landkreis"},"federalState":{"key":"03","name":"Niedersachsen"}},{"name":"Rudolf-Diesel-Str.","postalCode":"21684","locality":"Stade","municipality":{"key":"03359038","name":"Stade, Hansestadt","type":"Stadt"},"district":{"key":"03359","name":"Stade","type":"Landkreis"},"federalState":{"key":"03","name":"Niedersachsen"}},{"name":"Rudolf-Kinau-Weg","postalCode":"21684","locality":"Stade","municipality":{"key":"03359038","name":"Stade, Hansestadt","type":"Stadt"},"district":{"key":"03359","name":"Stade","type":"Landkreis"},"federalState":{"key":"03","name":"Niedersachsen"}},{"name":"Rupt Sur Moselle Str.","postalCode":"55271","locality":"Stadecken-Elsheim","municipality":{"key":"07339057","name":"Stadecken-Elsheim","type":"Kreisangehörige_Gemeinde"},"district":{"key":"07339","name":"Mainz-Bingen","type":"Landkreis"},"federalState":{"key":"07","name":"Rheinland-Pfalz"}},{"name":"Siebenhöfen","postalCode":"21723","locality":"Hollern-Twielenfleth","municipality":{"key":"03359026","name":"Hollern-Twielenfleth","type":"Kreisangehörige_Gemeinde"},"district":{"key":"03359","name":"Stade","type":"Landkreis"},"federalState":{"key":"03","name":"Niedersachsen"}},{"name":"Siebenhöfener Feld","postalCode":"21723","locality":"Hollern-Twielenfleth","municipality":{"key":"03359026","name":"Hollern-Twielenfleth","type":"Kreisangehörige_Gemeinde"},"district":{"key":"03359","name":"Stade","type":"Landkreis"},"federalState":{"key":"03","name":"Niedersachsen"}},{"name":"Speersort","postalCode":"21723","locality":"Hollern-Twielenfleth","municipality":{"key":"03359026","name":"Hollern-Twielenfleth","type":"Kreisangehörige_Gemeinde"},"district":{"key":"03359","name":"Stade","type":"Landkreis"},"federalState":{"key":"03","name":"Niedersachsen"}},{"name":"Twielenfleth Am Deich","postalCode":"21723","locality":"Hollern-Twielenfleth","municipality":{"key":"03359026","name":"Hollern-Twielenfleth","type":"Kreisangehörige_Gemeinde"},"district":{"key":"03359","name":"Stade","type":"Landkreis"},"federalState":{"key":"03","name":"Niedersachsen"}},{"name":"Twielenflether Chaussee","postalCode":"21723","locality":"Hollern-Twielenfleth","municipality":{"key":"03359026","name":"Hollern-Twielenfleth","type":"Kreisangehörige_Gemeinde"},"district":{"key":"03359","name":"Stade","type":"Landkreis"},"federalState":{"key":"03","name":"Niedersachsen"}},{"name":"Udonenstr.","postalCode":"21680","locality":"Stade","municipality":{"key":"03359038","name":"Stade, Hansestadt","type":"Stadt"},"district":{"key":"03359","name":"Stade","type":"Landkreis"},"federalState":{"key":"03","name":"Niedersachsen"}},{"name":"Uelzener Str.","postalCode":"21680","locality":"Stade","municipality":{"key":"03359038","name":"Stade, Hansestadt","type":"Stadt"},"district":{"key":"03359","name":"Stade","type":"Landkreis"},"federalState":{"key":"03","name":"Niedersachsen"}},{"name":"Uhlenberg","postalCode":"21680","locality":"Stade","municipality":{"key":"03359038","name":"Stade, Hansestadt","type":"Stadt"},"district":{"key":"03359","name":"Stade","type":"Landkreis"},"federalState":{"key":"03","name":"Niedersachsen"}},{"name":"Ulmenweg","postalCode":"21683","locality":"Stade","municipality":{"key":"03359038","name":"Stade, Hansestadt","type":"Stadt"},"district":{"key":"03359","name":"Stade","type":"Landkreis"},"federalState":{"key":"03","name":"Niedersachsen"}},{"name":"Undeloher Weg","postalCode":"21680","locality":"Stade","municipality":{"key":"03359038","name":"Stade, Hansestadt","type":"Stadt"},"district":{"key":"03359","name":"Stade","type":"Landkreis"},"federalState":{"key":"03","name":"Niedersachsen"}},{"name":"Unter den Eichen","postalCode":"21684","locality":"Stade","municipality":{"key":"03359038","name":"Stade, Hansestadt","type":"Stadt"},"district":{"key":"03359","name":"Stade","type":"Landkreis"},"federalState":{"key":"03","name":"Niedersachsen"}},{"name":"Vorderstr.","postalCode":"21723","locality":"Hollern-Twielenfleth","municipality":{"key":"03359026","name":"Hollern-Twielenfleth","type":"Kreisangehörige_Gemeinde"},"district":{"key":"03359","name":"Stade","type":"Landkreis"},"federalState":{"key":"03","name":"Niedersachsen"}},{"name":"Wöhrden","postalCode":"21723","locality":"Hollern-Twielenfleth","municipality":{"key":"03359026","name":"Hollern-Twielenfleth","type":"Kreisangehörige_Gemeinde"},"district":{"key":"03359","name":"Stade","type":"Landkreis"},"federalState":{"key":"03","name":"Niedersachsen"}},{"name":"Wöhrdener Weg","postalCode":"21723","locality":"Hollern-Twielenfleth","municipality":{"key":"03359026","name":"Hollern-Twielenfleth","type":"Kreisangehörige_Gemeinde"},"district":{"key":"03359","name":"Stade","type":"Landkreis"},"federalState":{"key":"03","name":"Niedersachsen"}},{"name":"Ystadweg","postalCode":"21682","locality":"Stade","municipality":{"key":"03359038","name":"Stade, Hansestadt","type":"Stadt"},"district":{"key":"03359","name":"Stade","type":"Landkreis"},"federalState":{"key":"03","name":"Niedersachsen"}},{"name":"Zehnthofstr.","postalCode":"55271","locality":"Stadecken-Elsheim","municipality":{"key":"07339057","name":"Stadecken-Elsheim","type":"Kreisangehörige_Gemeinde"},"district":{"key":"07339","name":"Mainz-Bingen","type":"Landkreis"},"federalState":{"key":"07","name":"Rheinland-Pfalz"}},{"name":"Zeisigweg","postalCode":"21682","locality":"Stade","municipality":{"key":"03359038","name":"Stade, Hansestadt","type":"Stadt"},"district":{"key":"03359","name":"Stade","type":"Landkreis"},"federalState":{"key":"03","name":"Niedersachsen"}},{"name":"Zeppelinstr.","postalCode":"21680","locality":"Stade","municipality":{"key":"03359038","name":"Stade, Hansestadt","type":"Stadt"},"district":{"key":"03359","name":"Stade","type":"Landkreis"},"federalState":{"key":"03","name":"Niedersachsen"}},{"name":"Zum Lichtenberg","postalCode":"21684","locality":"Stade","municipality":{"key":"03359038","name":"Stade, Hansestadt","type":"Stadt"},"district":{"key":"03359","name":"Stade","type":"Landkreis"},"federalState":{"key":"03","name":"Niedersachsen"}},{"name":"Zum Pulverberg","postalCode":"21682","locality":"Stade","municipality":{"key":"03359038","name":"Stade, Hansestadt","type":"Stadt"},"district":{"key":"03359","name":"Stade","type":"Landkreis"},"federalState":{"key":"03","name":"Niedersachsen"}},{"name":"Zum Schwingetal","postalCode":"21680","locality":"Stade","municipality":{"key":"03359038","name":"Stade, Hansestadt","type":"Stadt"},"district":{"key":"03359","name":"Stade","type":"Landkreis"},"federalState":{"key":"03","name":"Niedersachsen"}},{"name":"Zum Wiesenland","postalCode":"21682","locality":"Stade","municipality":{"key":"03359038","name":"Stade, Hansestadt","type":"Stadt"},"district":{"key":"03359","name":"Stade","type":"Landkreis"},"federalState":{"key":"03","name":"Niedersachsen"}},{"name":"Zur Mühle","postalCode":"21684","locality":"Stade","municipality":{"key":"03359038","name":"Stade, Hansestadt","type":"Stadt"},"district":{"key":"03359","name":"Stade","type":"Landkreis"},"federalState":{"key":"03","name":"Niedersachsen"}},{"name":"Zwerggasse","postalCode":"55271","locality":"Stadecken-Elsheim","municipality":{"key":"07339057","name":"Stadecken-Elsheim","type":"Kreisangehörige_Gemeinde"},"district":{"key":"07339","name":"Mainz-Bingen","type":"Landkreis"},"federalState":{"key":"07","name":"Rheinland-Pfalz"}},{"name":"Über den Burgwiesen","postalCode":"21682","locality":"Stade","municipality":{"key":"03359038","name":"Stade, Hansestadt","type":"Stadt"},"district":{"key":"03359","name":"Stade","type":"Landkreis"},"federalState":{"key":"03","name":"Niedersachsen"}},]