[{"key":"10047693","name":"Abschlacht","postalCode":"3932","locality":"Visperterminen","commune":{"key":"6298","name":"Visperterminen","shortName":"Visperterminen"},"district":{"key":"2313","name":"Bezirk Visp"},"canton":{"key":"23","code":"VS","name":"Valais / Wallis"},"status":"Real"},{"key":"10098006","name":"Ahorli","postalCode":"3932","locality":"Visperterminen","commune":{"key":"6298","name":"Visperterminen","shortName":"Visperterminen"},"district":{"key":"2313","name":"Bezirk Visp"},"canton":{"key":"23","code":"VS","name":"Valais / Wallis"},"status":"Real"},{"key":"10047694","name":"Ahorlistutz","postalCode":"3932","locality":"Visperterminen","commune":{"key":"6298","name":"Visperterminen","shortName":"Visperterminen"},"district":{"key":"2313","name":"Bezirk Visp"},"canton":{"key":"23","code":"VS","name":"Valais / Wallis"},"status":"Real"},{"key":"10237966","name":"Ara","postalCode":"3932","locality":"Visperterminen","commune":{"key":"6298","name":"Visperterminen","shortName":"Visperterminen"},"district":{"key":"2313","name":"Bezirk Visp"},"canton":{"key":"23","code":"VS","name":"Valais / Wallis"},"status":"Real"},{"key":"10237962","name":"A Staalustrasse","postalCode":"3932","locality":"Visperterminen","commune":{"key":"6298","name":"Visperterminen","shortName":"Visperterminen"},"district":{"key":"2313","name":"Bezirk Visp"},"canton":{"key":"23","code":"VS","name":"Valais / Wallis"},"status":"Real"},{"key":"10115626","name":"A Staaluweg","postalCode":"3932","locality":"Visperterminen","commune":{"key":"6298","name":"Visperterminen","shortName":"Visperterminen"},"district":{"key":"2313","name":"Bezirk Visp"},"canton":{"key":"23","code":"VS","name":"Valais / Wallis"},"status":"Real"},{"key":"10237550","name":"Bächji","postalCode":"3932","locality":"Visperterminen","commune":{"key":"6298","name":"Visperterminen","shortName":"Visperterminen"},"district":{"key":"2313","name":"Bezirk Visp"},"canton":{"key":"23","code":"VS","name":"Valais / Wallis"},"status":"Real"},{"key":"10237553","name":"Bächmatte","postalCode":"3932","locality":"Visperterminen","commune":{"key":"6298","name":"Visperterminen","shortName":"Visperterminen"},"district":{"key":"2313","name":"Bezirk Visp"},"canton":{"key":"23","code":"VS","name":"Valais / Wallis"},"status":"Real"},{"key":"10098007","name":"Backhausweg","postalCode":"3932","locality":"Visperterminen","commune":{"key":"6298","name":"Visperterminen","shortName":"Visperterminen"},"district":{"key":"2313","name":"Bezirk Visp"},"canton":{"key":"23","code":"VS","name":"Valais / Wallis"},"status":"Real"},{"key":"10237557","name":"Banntola","postalCode":"3932","locality":"Visperterminen","commune":{"key":"6298","name":"Visperterminen","shortName":"Visperterminen"},"district":{"key":"2313","name":"Bezirk Visp"},"canton":{"key":"23","code":"VS","name":"Valais / Wallis"},"status":"Real"},{"key":"10184883","name":"Bifiga","postalCode":"3932","locality":"Visperterminen","commune":{"key":"6298","name":"Visperterminen","shortName":"Visperterminen"},"district":{"key":"2313","name":"Bezirk Visp"},"canton":{"key":"23","code":"VS","name":"Valais / Wallis"},"status":"Real"},{"key":"10047696","name":"Birch","postalCode":"3932","locality":"Visperterminen","commune":{"key":"6298","name":"Visperterminen","shortName":"Visperterminen"},"district":{"key":"2313","name":"Bezirk Visp"},"canton":{"key":"23","code":"VS","name":"Valais / Wallis"},"status":"Real"},{"key":"10047697","name":"Bischofweg","postalCode":"3932","locality":"Visperterminen","commune":{"key":"6298","name":"Visperterminen","shortName":"Visperterminen"},"district":{"key":"2313","name":"Bezirk Visp"},"canton":{"key":"23","code":"VS","name":"Valais / Wallis"},"status":"Real"},{"key":"10127192","name":"Bitzine","postalCode":"3932","locality":"Visperterminen","commune":{"key":"6298","name":"Visperterminen","shortName":"Visperterminen"},"district":{"key":"2313","name":"Bezirk Visp"},"canton":{"key":"23","code":"VS","name":"Valais / Wallis"},"status":"Real"},{"key":"10079028","name":"Bodma","postalCode":"3932","locality":"Visperterminen","commune":{"key":"6298","name":"Visperterminen","shortName":"Visperterminen"},"district":{"key":"2313","name":"Bezirk Visp"},"canton":{"key":"23","code":"VS","name":"Valais / Wallis"},"status":"Real"},{"key":"10237561","name":"Bodmastrasse","postalCode":"3932","locality":"Visperterminen","commune":{"key":"6298","name":"Visperterminen","shortName":"Visperterminen"},"district":{"key":"2313","name":"Bezirk Visp"},"canton":{"key":"23","code":"VS","name":"Valais / Wallis"},"status":"Real"},{"key":"10047698","name":"Bodmumatte","postalCode":"3932","locality":"Visperterminen","commune":{"key":"6298","name":"Visperterminen","shortName":"Visperterminen"},"district":{"key":"2313","name":"Bezirk Visp"},"canton":{"key":"23","code":"VS","name":"Valais / Wallis"},"status":"Real"},{"key":"10237565","name":"Brandji","postalCode":"3932","locality":"Visperterminen","commune":{"key":"6298","name":"Visperterminen","shortName":"Visperterminen"},"district":{"key":"2313","name":"Bezirk Visp"},"canton":{"key":"23","code":"VS","name":"Valais / Wallis"},"status":"Real"},{"key":"10237569","name":"Brunnustrasse","postalCode":"3932","locality":"Visperterminen","commune":{"key":"6298","name":"Visperterminen","shortName":"Visperterminen"},"district":{"key":"2313","name":"Bezirk Visp"},"canton":{"key":"23","code":"VS","name":"Valais / Wallis"},"status":"Real"},{"key":"10237573","name":"Cheischtji","postalCode":"3932","locality":"Visperterminen","commune":{"key":"6298","name":"Visperterminen","shortName":"Visperterminen"},"district":{"key":"2313","name":"Bezirk Visp"},"canton":{"key":"23","code":"VS","name":"Valais / Wallis"},"status":"Real"},{"key":"10079029","name":"Chilchweg","postalCode":"3932","locality":"Visperterminen","commune":{"key":"6298","name":"Visperterminen","shortName":"Visperterminen"},"district":{"key":"2313","name":"Bezirk Visp"},"canton":{"key":"23","code":"VS","name":"Valais / Wallis"},"status":"Real"},{"key":"10148297","name":"Chlei Derfji","postalCode":"3932","locality":"Visperterminen","commune":{"key":"6298","name":"Visperterminen","shortName":"Visperterminen"},"district":{"key":"2313","name":"Bezirk Visp"},"canton":{"key":"23","code":"VS","name":"Valais / Wallis"},"status":"Real"},{"key":"10237577","name":"Chrachilbodo","postalCode":"3932","locality":"Visperterminen","commune":{"key":"6298","name":"Visperterminen","shortName":"Visperterminen"},"district":{"key":"2313","name":"Bezirk Visp"},"canton":{"key":"23","code":"VS","name":"Valais / Wallis"},"status":"Real"},{"key":"10237581","name":"Chrizji","postalCode":"3932","locality":"Visperterminen","commune":{"key":"6298","name":"Visperterminen","shortName":"Visperterminen"},"district":{"key":"2313","name":"Bezirk Visp"},"canton":{"key":"23","code":"VS","name":"Valais / Wallis"},"status":"Real"},{"key":"10237585","name":"Chrommo","postalCode":"3932","locality":"Visperterminen","commune":{"key":"6298","name":"Visperterminen","shortName":"Visperterminen"},"district":{"key":"2313","name":"Bezirk Visp"},"canton":{"key":"23","code":"VS","name":"Valais / Wallis"},"status":"Real"},{"key":"10237589","name":"Chumme","postalCode":"3932","locality":"Visperterminen","commune":{"key":"6298","name":"Visperterminen","shortName":"Visperterminen"},"district":{"key":"2313","name":"Bezirk Visp"},"canton":{"key":"23","code":"VS","name":"Valais / Wallis"},"status":"Real"},{"key":"10237593","name":"Chummini","postalCode":"3932","locality":"Visperterminen","commune":{"key":"6298","name":"Visperterminen","shortName":"Visperterminen"},"district":{"key":"2313","name":"Bezirk Visp"},"canton":{"key":"23","code":"VS","name":"Valais / Wallis"},"status":"Real"},{"key":"10113919","name":"Dorfstrasse","postalCode":"3932","locality":"Visperterminen","commune":{"key":"6298","name":"Visperterminen","shortName":"Visperterminen"},"district":{"key":"2313","name":"Bezirk Visp"},"canton":{"key":"23","code":"VS","name":"Valais / Wallis"},"status":"Real"},{"key":"10047699","name":"Drieschtweg","postalCode":"3932","locality":"Visperterminen","commune":{"key":"6298","name":"Visperterminen","shortName":"Visperterminen"},"district":{"key":"2313","name":"Bezirk Visp"},"canton":{"key":"23","code":"VS","name":"Valais / Wallis"},"status":"Real"},{"key":"10047700","name":"Egga","postalCode":"3932","locality":"Visperterminen","commune":{"key":"6298","name":"Visperterminen","shortName":"Visperterminen"},"district":{"key":"2313","name":"Bezirk Visp"},"canton":{"key":"23","code":"VS","name":"Valais / Wallis"},"status":"Real"},{"key":"10237970","name":"Eigna","postalCode":"3932","locality":"Visperterminen","commune":{"key":"6298","name":"Visperterminen","shortName":"Visperterminen"},"district":{"key":"2313","name":"Bezirk Visp"},"canton":{"key":"23","code":"VS","name":"Valais / Wallis"},"status":"Real"},{"key":"10237974","name":"Erb","postalCode":"3932","locality":"Visperterminen","commune":{"key":"6298","name":"Visperterminen","shortName":"Visperterminen"},"district":{"key":"2313","name":"Bezirk Visp"},"canton":{"key":"23","code":"VS","name":"Valais / Wallis"},"status":"Real"},{"key":"10237597","name":"Eschilachra","postalCode":"3932","locality":"Visperterminen","commune":{"key":"6298","name":"Visperterminen","shortName":"Visperterminen"},"district":{"key":"2313","name":"Bezirk Visp"},"canton":{"key":"23","code":"VS","name":"Valais / Wallis"},"status":"Real"},{"key":"10237601","name":"Fielatte","postalCode":"3932","locality":"Visperterminen","commune":{"key":"6298","name":"Visperterminen","shortName":"Visperterminen"},"district":{"key":"2313","name":"Bezirk Visp"},"canton":{"key":"23","code":"VS","name":"Valais / Wallis"},"status":"Real"},{"key":"10079030","name":"Figschlecher","postalCode":"3932","locality":"Visperterminen","commune":{"key":"6298","name":"Visperterminen","shortName":"Visperterminen"},"district":{"key":"2313","name":"Bezirk Visp"},"canton":{"key":"23","code":"VS","name":"Valais / Wallis"},"status":"Real"},{"key":"10047701","name":"Furumatte","postalCode":"3932","locality":"Visperterminen","commune":{"key":"6298","name":"Visperterminen","shortName":"Visperterminen"},"district":{"key":"2313","name":"Bezirk Visp"},"canton":{"key":"23","code":"VS","name":"Valais / Wallis"},"status":"Real"},{"key":"10184884","name":"Furustutz","postalCode":"3932","locality":"Visperterminen","commune":{"key":"6298","name":"Visperterminen","shortName":"Visperterminen"},"district":{"key":"2313","name":"Bezirk Visp"},"canton":{"key":"23","code":"VS","name":"Valais / Wallis"},"status":"Real"},{"key":"10237605","name":"Furuweg","postalCode":"3932","locality":"Visperterminen","commune":{"key":"6298","name":"Visperterminen","shortName":"Visperterminen"},"district":{"key":"2313","name":"Bezirk Visp"},"canton":{"key":"23","code":"VS","name":"Valais / Wallis"},"status":"Real"},{"key":"10237609","name":"Gärschtere","postalCode":"3932","locality":"Visperterminen","commune":{"key":"6298","name":"Visperterminen","shortName":"Visperterminen"},"district":{"key":"2313","name":"Bezirk Visp"},"canton":{"key":"23","code":"VS","name":"Valais / Wallis"},"status":"Real"},{"key":"10099027","name":"Gärschteruheji","postalCode":"3932","locality":"Visperterminen","commune":{"key":"6298","name":"Visperterminen","shortName":"Visperterminen"},"district":{"key":"2313","name":"Bezirk Visp"},"canton":{"key":"23","code":"VS","name":"Valais / Wallis"},"status":"Real"},{"key":"10138689","name":"Giljo","postalCode":"3932","locality":"Visperterminen","commune":{"key":"6298","name":"Visperterminen","shortName":"Visperterminen"},"district":{"key":"2313","name":"Bezirk Visp"},"canton":{"key":"23","code":"VS","name":"Valais / Wallis"},"status":"Real"},{"key":"10061831","name":"Giw","postalCode":"3932","locality":"Visperterminen","commune":{"key":"6298","name":"Visperterminen","shortName":"Visperterminen"},"district":{"key":"2313","name":"Bezirk Visp"},"canton":{"key":"23","code":"VS","name":"Valais / Wallis"},"status":"Real"},{"key":"10115627","name":"Giwstrasse","postalCode":"3932","locality":"Visperterminen","commune":{"key":"6298","name":"Visperterminen","shortName":"Visperterminen"},"district":{"key":"2313","name":"Bezirk Visp"},"canton":{"key":"23","code":"VS","name":"Valais / Wallis"},"status":"Real"},{"key":"10237613","name":"Goopjini","postalCode":"3932","locality":"Visperterminen","commune":{"key":"6298","name":"Visperterminen","shortName":"Visperterminen"},"district":{"key":"2313","name":"Bezirk Visp"},"canton":{"key":"23","code":"VS","name":"Valais / Wallis"},"status":"Real"},{"key":"10237617","name":"Gritte","postalCode":"3932","locality":"Visperterminen","commune":{"key":"6298","name":"Visperterminen","shortName":"Visperterminen"},"district":{"key":"2313","name":"Bezirk Visp"},"canton":{"key":"23","code":"VS","name":"Valais / Wallis"},"status":"Real"},{"key":"10237665","name":"Häischalpji","postalCode":"3932","locality":"Visperterminen","commune":{"key":"6298","name":"Visperterminen","shortName":"Visperterminen"},"district":{"key":"2313","name":"Bezirk Visp"},"canton":{"key":"23","code":"VS","name":"Valais / Wallis"},"status":"Real"},{"key":"10237669","name":"Hauptstrasse","postalCode":"3932","locality":"Visperterminen","commune":{"key":"6298","name":"Visperterminen","shortName":"Visperterminen"},"district":{"key":"2313","name":"Bezirk Visp"},"canton":{"key":"23","code":"VS","name":"Valais / Wallis"},"status":"Real"},{"key":"10047704","name":"Heruviertil","postalCode":"3932","locality":"Visperterminen","commune":{"key":"6298","name":"Visperterminen","shortName":"Visperterminen"},"district":{"key":"2313","name":"Bezirk Visp"},"canton":{"key":"23","code":"VS","name":"Valais / Wallis"},"status":"Real"},{"key":"10237673","name":"Hinigi Matte","postalCode":"3932","locality":"Visperterminen","commune":{"key":"6298","name":"Visperterminen","shortName":"Visperterminen"},"district":{"key":"2313","name":"Bezirk Visp"},"canton":{"key":"23","code":"VS","name":"Valais / Wallis"},"status":"Real"},{"key":"10237677","name":"Hoflüowildi","postalCode":"3932","locality":"Visperterminen","commune":{"key":"6298","name":"Visperterminen","shortName":"Visperterminen"},"district":{"key":"2313","name":"Bezirk Visp"},"canton":{"key":"23","code":"VS","name":"Valais / Wallis"},"status":"Real"},{"key":"10237681","name":"Hofmatte","postalCode":"3932","locality":"Visperterminen","commune":{"key":"6298","name":"Visperterminen","shortName":"Visperterminen"},"district":{"key":"2313","name":"Bezirk Visp"},"canton":{"key":"23","code":"VS","name":"Valais / Wallis"},"status":"Real"},{"key":"10184885","name":"Hotee","postalCode":"3932","locality":"Visperterminen","commune":{"key":"6298","name":"Visperterminen","shortName":"Visperterminen"},"district":{"key":"2313","name":"Bezirk Visp"},"canton":{"key":"23","code":"VS","name":"Valais / Wallis"},"status":"Real"},{"key":"10237685","name":"Hoteestrasse","postalCode":"3932","locality":"Visperterminen","commune":{"key":"6298","name":"Visperterminen","shortName":"Visperterminen"},"district":{"key":"2313","name":"Bezirk Visp"},"canton":{"key":"23","code":"VS","name":"Valais / Wallis"},"status":"Real"},{"key":"10236690","name":"Hundschepfe","postalCode":"3932","locality":"Visperterminen","commune":{"key":"6298","name":"Visperterminen","shortName":"Visperterminen"},"district":{"key":"2313","name":"Bezirk Visp"},"canton":{"key":"23","code":"VS","name":"Valais / Wallis"},"status":"Real"},{"key":"10047706","name":"Kanzleiweg","postalCode":"3932","locality":"Visperterminen","commune":{"key":"6298","name":"Visperterminen","shortName":"Visperterminen"},"district":{"key":"2313","name":"Bezirk Visp"},"canton":{"key":"23","code":"VS","name":"Valais / Wallis"},"status":"Real"},{"key":"10079032","name":"Kapellenweg","postalCode":"3932","locality":"Visperterminen","commune":{"key":"6298","name":"Visperterminen","shortName":"Visperterminen"},"district":{"key":"2313","name":"Bezirk Visp"},"canton":{"key":"23","code":"VS","name":"Valais / Wallis"},"status":"Real"},{"key":"10236698","name":"Kapitol","postalCode":"3932","locality":"Visperterminen","commune":{"key":"6298","name":"Visperterminen","shortName":"Visperterminen"},"district":{"key":"2313","name":"Bezirk Visp"},"canton":{"key":"23","code":"VS","name":"Valais / Wallis"},"status":"Real"},{"key":"10047707","name":"Kirchgasse","postalCode":"3932","locality":"Visperterminen","commune":{"key":"6298","name":"Visperterminen","shortName":"Visperterminen"},"district":{"key":"2313","name":"Bezirk Visp"},"canton":{"key":"23","code":"VS","name":"Valais / Wallis"},"status":"Real"},{"key":"10113920","name":"Kirchstrasse","postalCode":"3932","locality":"Visperterminen","commune":{"key":"6298","name":"Visperterminen","shortName":"Visperterminen"},"district":{"key":"2313","name":"Bezirk Visp"},"canton":{"key":"23","code":"VS","name":"Valais / Wallis"},"status":"Real"},{"key":"10193196","name":"Lammjibodo","postalCode":"3932","locality":"Visperterminen","commune":{"key":"6298","name":"Visperterminen","shortName":"Visperterminen"},"district":{"key":"2313","name":"Bezirk Visp"},"canton":{"key":"23","code":"VS","name":"Valais / Wallis"},"status":"Real"},{"key":"10236702","name":"Leji","postalCode":"3932","locality":"Visperterminen","commune":{"key":"6298","name":"Visperterminen","shortName":"Visperterminen"},"district":{"key":"2313","name":"Bezirk Visp"},"canton":{"key":"23","code":"VS","name":"Valais / Wallis"},"status":"Real"},{"key":"10047708","name":"Loch","postalCode":"3932","locality":"Visperterminen","commune":{"key":"6298","name":"Visperterminen","shortName":"Visperterminen"},"district":{"key":"2313","name":"Bezirk Visp"},"canton":{"key":"23","code":"VS","name":"Valais / Wallis"},"status":"Real"},{"key":"10132214","name":"Lochbodo","postalCode":"3932","locality":"Visperterminen","commune":{"key":"6298","name":"Visperterminen","shortName":"Visperterminen"},"district":{"key":"2313","name":"Bezirk Visp"},"canton":{"key":"23","code":"VS","name":"Valais / Wallis"},"status":"Real"},{"key":"10079033","name":"Meiggerli","postalCode":"3932","locality":"Visperterminen","commune":{"key":"6298","name":"Visperterminen","shortName":"Visperterminen"},"district":{"key":"2313","name":"Bezirk Visp"},"canton":{"key":"23","code":"VS","name":"Valais / Wallis"},"status":"Real"},{"key":"10047709","name":"Mettilmatte","postalCode":"3932","locality":"Visperterminen","commune":{"key":"6298","name":"Visperterminen","shortName":"Visperterminen"},"district":{"key":"2313","name":"Bezirk Visp"},"canton":{"key":"23","code":"VS","name":"Valais / Wallis"},"status":"Real"},{"key":"10236706","name":"Militschugge","postalCode":"3932","locality":"Visperterminen","commune":{"key":"6298","name":"Visperterminen","shortName":"Visperterminen"},"district":{"key":"2313","name":"Bezirk Visp"},"canton":{"key":"23","code":"VS","name":"Valais / Wallis"},"status":"Real"},{"key":"10057021","name":"Mosi","postalCode":"3932","locality":"Visperterminen","commune":{"key":"6298","name":"Visperterminen","shortName":"Visperterminen"},"district":{"key":"2313","name":"Bezirk Visp"},"canton":{"key":"23","code":"VS","name":"Valais / Wallis"},"status":"Real"},{"key":"10236710","name":"Niderhischerachra","postalCode":"3932","locality":"Visperterminen","commune":{"key":"6298","name":"Visperterminen","shortName":"Visperterminen"},"district":{"key":"2313","name":"Bezirk Visp"},"canton":{"key":"23","code":"VS","name":"Valais / Wallis"},"status":"Real"},{"key":"10099029","name":"Niederhäusern","postalCode":"3932","locality":"Visperterminen","commune":{"key":"6298","name":"Visperterminen","shortName":"Visperterminen"},"district":{"key":"2313","name":"Bezirk Visp"},"canton":{"key":"23","code":"VS","name":"Valais / Wallis"},"status":"Real"},{"key":"10236714","name":"Niwwe","postalCode":"3932","locality":"Visperterminen","commune":{"key":"6298","name":"Visperterminen","shortName":"Visperterminen"},"district":{"key":"2313","name":"Bezirk Visp"},"canton":{"key":"23","code":"VS","name":"Valais / Wallis"},"status":"Real"},{"key":"10079034","name":"Oberbrunnu","postalCode":"3932","locality":"Visperterminen","commune":{"key":"6298","name":"Visperterminen","shortName":"Visperterminen"},"district":{"key":"2313","name":"Bezirk Visp"},"canton":{"key":"23","code":"VS","name":"Valais / Wallis"},"status":"Real"},{"key":"10236718","name":"Ober Chilchwäg","postalCode":"3932","locality":"Visperterminen","commune":{"key":"6298","name":"Visperterminen","shortName":"Visperterminen"},"district":{"key":"2313","name":"Bezirk Visp"},"canton":{"key":"23","code":"VS","name":"Valais / Wallis"},"status":"Real"},{"key":"10236722","name":"Obers Ried","postalCode":"3932","locality":"Visperterminen","commune":{"key":"6298","name":"Visperterminen","shortName":"Visperterminen"},"district":{"key":"2313","name":"Bezirk Visp"},"canton":{"key":"23","code":"VS","name":"Valais / Wallis"},"status":"Real"},{"key":"10047710","name":"Oberstalden","postalCode":"3932","locality":"Visperterminen","commune":{"key":"6298","name":"Visperterminen","shortName":"Visperterminen"},"district":{"key":"2313","name":"Bezirk Visp"},"canton":{"key":"23","code":"VS","name":"Valais / Wallis"},"status":"Real"},{"key":"10115628","name":"Obri Bifiga","postalCode":"3932","locality":"Visperterminen","commune":{"key":"6298","name":"Visperterminen","shortName":"Visperterminen"},"district":{"key":"2313","name":"Bezirk Visp"},"canton":{"key":"23","code":"VS","name":"Valais / Wallis"},"status":"Real"},{"key":"10236726","name":"Obri Siite","postalCode":"3932","locality":"Visperterminen","commune":{"key":"6298","name":"Visperterminen","shortName":"Visperterminen"},"district":{"key":"2313","name":"Bezirk Visp"},"canton":{"key":"23","code":"VS","name":"Valais / Wallis"},"status":"Real"},{"key":"10236730","name":"Obri Stalerachra","postalCode":"3932","locality":"Visperterminen","commune":{"key":"6298","name":"Visperterminen","shortName":"Visperterminen"},"district":{"key":"2313","name":"Bezirk Visp"},"canton":{"key":"23","code":"VS","name":"Valais / Wallis"},"status":"Real"},{"key":"10151910","name":"Obru Hobiel","postalCode":"3932","locality":"Visperterminen","commune":{"key":"6298","name":"Visperterminen","shortName":"Visperterminen"},"district":{"key":"2313","name":"Bezirk Visp"},"canton":{"key":"23","code":"VS","name":"Valais / Wallis"},"status":"Real"},{"key":"10099030","name":"Parmili","postalCode":"3932","locality":"Visperterminen","commune":{"key":"6298","name":"Visperterminen","shortName":"Visperterminen"},"district":{"key":"2313","name":"Bezirk Visp"},"canton":{"key":"23","code":"VS","name":"Valais / Wallis"},"status":"Real"},{"key":"10047961","name":"Peterlistadelweg","postalCode":"3932","locality":"Visperterminen","commune":{"key":"6298","name":"Visperterminen","shortName":"Visperterminen"},"district":{"key":"2313","name":"Bezirk Visp"},"canton":{"key":"23","code":"VS","name":"Valais / Wallis"},"status":"Real"},{"key":"10236734","name":"Pintärne","postalCode":"3932","locality":"Visperterminen","commune":{"key":"6298","name":"Visperterminen","shortName":"Visperterminen"},"district":{"key":"2313","name":"Bezirk Visp"},"canton":{"key":"23","code":"VS","name":"Valais / Wallis"},"status":"Real"},{"key":"10236742","name":"Riebe","postalCode":"3932","locality":"Visperterminen","commune":{"key":"6298","name":"Visperterminen","shortName":"Visperterminen"},"district":{"key":"2313","name":"Bezirk Visp"},"canton":{"key":"23","code":"VS","name":"Valais / Wallis"},"status":"Real"},{"key":"10079036","name":"Ried","postalCode":"3932","locality":"Visperterminen","commune":{"key":"6298","name":"Visperterminen","shortName":"Visperterminen"},"district":{"key":"2313","name":"Bezirk Visp"},"canton":{"key":"23","code":"VS","name":"Valais / Wallis"},"status":"Real"},{"key":"10057022","name":"Ritibiel","postalCode":"3932","locality":"Visperterminen","commune":{"key":"6298","name":"Visperterminen","shortName":"Visperterminen"},"district":{"key":"2313","name":"Bezirk Visp"},"canton":{"key":"23","code":"VS","name":"Valais / Wallis"},"status":"Real"},{"key":"10099284","name":"Rohaltenweg","postalCode":"3932","locality":"Visperterminen","commune":{"key":"6298","name":"Visperterminen","shortName":"Visperterminen"},"district":{"key":"2313","name":"Bezirk Visp"},"canton":{"key":"23","code":"VS","name":"Valais / Wallis"},"status":"Real"},{"key":"10047962","name":"Roorli","postalCode":"3932","locality":"Visperterminen","commune":{"key":"6298","name":"Visperterminen","shortName":"Visperterminen"},"district":{"key":"2313","name":"Bezirk Visp"},"canton":{"key":"23","code":"VS","name":"Valais / Wallis"},"status":"Real"},{"key":"10236746","name":"Sädolti","postalCode":"3932","locality":"Visperterminen","commune":{"key":"6298","name":"Visperterminen","shortName":"Visperterminen"},"district":{"key":"2313","name":"Bezirk Visp"},"canton":{"key":"23","code":"VS","name":"Valais / Wallis"},"status":"Real"},{"key":"10189240","name":"Sägeweg","postalCode":"3932","locality":"Visperterminen","commune":{"key":"6298","name":"Visperterminen","shortName":"Visperterminen"},"district":{"key":"2313","name":"Bezirk Visp"},"canton":{"key":"23","code":"VS","name":"Valais / Wallis"},"status":"Real"},{"key":"10123938","name":"Sandhubel","postalCode":"3932","locality":"Visperterminen","commune":{"key":"6298","name":"Visperterminen","shortName":"Visperterminen"},"district":{"key":"2313","name":"Bezirk Visp"},"canton":{"key":"23","code":"VS","name":"Valais / Wallis"},"status":"Real"},{"key":"10121639","name":"Sattolti","postalCode":"3932","locality":"Visperterminen","commune":{"key":"6298","name":"Visperterminen","shortName":"Visperterminen"},"district":{"key":"2313","name":"Bezirk Visp"},"canton":{"key":"23","code":"VS","name":"Valais / Wallis"},"status":"Real"},{"key":"10236750","name":"Scheitwäga","postalCode":"3932","locality":"Visperterminen","commune":{"key":"6298","name":"Visperterminen","shortName":"Visperterminen"},"district":{"key":"2313","name":"Bezirk Visp"},"canton":{"key":"23","code":"VS","name":"Valais / Wallis"},"status":"Real"},{"key":"10184887","name":"Schene Bodo","postalCode":"3932","locality":"Visperterminen","commune":{"key":"6298","name":"Visperterminen","shortName":"Visperterminen"},"district":{"key":"2313","name":"Bezirk Visp"},"canton":{"key":"23","code":"VS","name":"Valais / Wallis"},"status":"Real"},{"key":"10236754","name":"Schibuweg","postalCode":"3932","locality":"Visperterminen","commune":{"key":"6298","name":"Visperterminen","shortName":"Visperterminen"},"district":{"key":"2313","name":"Bezirk Visp"},"canton":{"key":"23","code":"VS","name":"Valais / Wallis"},"status":"Real"},{"key":"10236758","name":"Schlüocht","postalCode":"3932","locality":"Visperterminen","commune":{"key":"6298","name":"Visperterminen","shortName":"Visperterminen"},"district":{"key":"2313","name":"Bezirk Visp"},"canton":{"key":"23","code":"VS","name":"Valais / Wallis"},"status":"Real"},{"key":"10079037","name":"Schulhausstrasse","postalCode":"3932","locality":"Visperterminen","commune":{"key":"6298","name":"Visperterminen","shortName":"Visperterminen"},"district":{"key":"2313","name":"Bezirk Visp"},"canton":{"key":"23","code":"VS","name":"Valais / Wallis"},"status":"Real"},{"key":"10237978","name":"Spiss","postalCode":"3932","locality":"Visperterminen","commune":{"key":"6298","name":"Visperterminen","shortName":"Visperterminen"},"district":{"key":"2313","name":"Bezirk Visp"},"canton":{"key":"23","code":"VS","name":"Valais / Wallis"},"status":"Real"},{"key":"10236766","name":"Stallbauzone","postalCode":"3932","locality":"Visperterminen","commune":{"key":"6298","name":"Visperterminen","shortName":"Visperterminen"},"district":{"key":"2313","name":"Bezirk Visp"},"canton":{"key":"23","code":"VS","name":"Valais / Wallis"},"status":"Real"},{"key":"10047963","name":"Steischir","postalCode":"3932","locality":"Visperterminen","commune":{"key":"6298","name":"Visperterminen","shortName":"Visperterminen"},"district":{"key":"2313","name":"Bezirk Visp"},"canton":{"key":"23","code":"VS","name":"Valais / Wallis"},"status":"Real"},{"key":"10138240","name":"Stoffelsch Alpji","postalCode":"3932","locality":"Visperterminen","commune":{"key":"6298","name":"Visperterminen","shortName":"Visperterminen"},"district":{"key":"2313","name":"Bezirk Visp"},"canton":{"key":"23","code":"VS","name":"Valais / Wallis"},"status":"Real"},{"key":"10236770","name":"Stuckjini","postalCode":"3932","locality":"Visperterminen","commune":{"key":"6298","name":"Visperterminen","shortName":"Visperterminen"},"district":{"key":"2313","name":"Bezirk Visp"},"canton":{"key":"23","code":"VS","name":"Valais / Wallis"},"status":"Real"},{"key":"10236774","name":"Sunnegga","postalCode":"3932","locality":"Visperterminen","commune":{"key":"6298","name":"Visperterminen","shortName":"Visperterminen"},"district":{"key":"2313","name":"Bezirk Visp"},"canton":{"key":"23","code":"VS","name":"Valais / Wallis"},"status":"Real"},{"key":"10236778","name":"Sunnini","postalCode":"3932","locality":"Visperterminen","commune":{"key":"6298","name":"Visperterminen","shortName":"Visperterminen"},"district":{"key":"2313","name":"Bezirk Visp"},"canton":{"key":"23","code":"VS","name":"Valais / Wallis"},"status":"Real"},{"key":"10236782","name":"Testadla","postalCode":"3932","locality":"Visperterminen","commune":{"key":"6298","name":"Visperterminen","shortName":"Visperterminen"},"district":{"key":"2313","name":"Bezirk Visp"},"canton":{"key":"23","code":"VS","name":"Valais / Wallis"},"status":"Real"},{"key":"10099285","name":"Turnhallenstrasse","postalCode":"3932","locality":"Visperterminen","commune":{"key":"6298","name":"Visperterminen","shortName":"Visperterminen"},"district":{"key":"2313","name":"Bezirk Visp"},"canton":{"key":"23","code":"VS","name":"Valais / Wallis"},"status":"Real"},{"key":"10236786","name":"Umfahrungsstrasse","postalCode":"3932","locality":"Visperterminen","commune":{"key":"6298","name":"Visperterminen","shortName":"Visperterminen"},"district":{"key":"2313","name":"Bezirk Visp"},"canton":{"key":"23","code":"VS","name":"Valais / Wallis"},"status":"Real"},{"key":"10236233","name":"Undri Bodma","postalCode":"3932","locality":"Visperterminen","commune":{"key":"6298","name":"Visperterminen","shortName":"Visperterminen"},"district":{"key":"2313","name":"Bezirk Visp"},"canton":{"key":"23","code":"VS","name":"Valais / Wallis"},"status":"Real"},{"key":"10174502","name":"Undri Siite","postalCode":"3932","locality":"Visperterminen","commune":{"key":"6298","name":"Visperterminen","shortName":"Visperterminen"},"district":{"key":"2313","name":"Bezirk Visp"},"canton":{"key":"23","code":"VS","name":"Valais / Wallis"},"status":"Real"},{"key":"10115166","name":"Undri Teifi","postalCode":"3932","locality":"Visperterminen","commune":{"key":"6298","name":"Visperterminen","shortName":"Visperterminen"},"district":{"key":"2313","name":"Bezirk Visp"},"canton":{"key":"23","code":"VS","name":"Valais / Wallis"},"status":"Real"},{"key":"10061830","name":"Undrostjiweg","postalCode":"3932","locality":"Visperterminen","commune":{"key":"6298","name":"Visperterminen","shortName":"Visperterminen"},"district":{"key":"2313","name":"Bezirk Visp"},"canton":{"key":"23","code":"VS","name":"Valais / Wallis"},"status":"Real"},{"key":"10046383","name":"Unnerbrunnu","postalCode":"3932","locality":"Visperterminen","commune":{"key":"6298","name":"Visperterminen","shortName":"Visperterminen"},"district":{"key":"2313","name":"Bezirk Visp"},"canton":{"key":"23","code":"VS","name":"Valais / Wallis"},"status":"Real"},{"key":"10236237","name":"Unner Chilchwäg","postalCode":"3932","locality":"Visperterminen","commune":{"key":"6298","name":"Visperterminen","shortName":"Visperterminen"},"district":{"key":"2313","name":"Bezirk Visp"},"canton":{"key":"23","code":"VS","name":"Valais / Wallis"},"status":"Real"},{"key":"10236241","name":"Unner Hobiel","postalCode":"3932","locality":"Visperterminen","commune":{"key":"6298","name":"Visperterminen","shortName":"Visperterminen"},"district":{"key":"2313","name":"Bezirk Visp"},"canton":{"key":"23","code":"VS","name":"Valais / Wallis"},"status":"Real"},{"key":"10121253","name":"Unterstalden","postalCode":"3932","locality":"Visperterminen","commune":{"key":"6298","name":"Visperterminen","shortName":"Visperterminen"},"district":{"key":"2313","name":"Bezirk Visp"},"canton":{"key":"23","code":"VS","name":"Valais / Wallis"},"status":"Real"},{"key":"10046384","name":"Warthüs","postalCode":"3932","locality":"Visperterminen","commune":{"key":"6298","name":"Visperterminen","shortName":"Visperterminen"},"district":{"key":"2313","name":"Bezirk Visp"},"canton":{"key":"23","code":"VS","name":"Valais / Wallis"},"status":"Real"},{"key":"10184888","name":"Wiera","postalCode":"3932","locality":"Visperterminen","commune":{"key":"6298","name":"Visperterminen","shortName":"Visperterminen"},"district":{"key":"2313","name":"Bezirk Visp"},"canton":{"key":"23","code":"VS","name":"Valais / Wallis"},"status":"Real"},{"key":"10237982","name":"Zantostadol","postalCode":"3932","locality":"Visperterminen","commune":{"key":"6298","name":"Visperterminen","shortName":"Visperterminen"},"district":{"key":"2313","name":"Bezirk Visp"},"canton":{"key":"23","code":"VS","name":"Valais / Wallis"},"status":"Real"},{"key":"10236195","name":"Ze chalte Stadlu","postalCode":"3932","locality":"Visperterminen","commune":{"key":"6298","name":"Visperterminen","shortName":"Visperterminen"},"district":{"key":"2313","name":"Bezirk Visp"},"canton":{"key":"23","code":"VS","name":"Valais / Wallis"},"status":"Real"},{"key":"10237983","name":"Zer niwu Schiir","postalCode":"3932","locality":"Visperterminen","commune":{"key":"6298","name":"Visperterminen","shortName":"Visperterminen"},"district":{"key":"2313","name":"Bezirk Visp"},"canton":{"key":"23","code":"VS","name":"Valais / Wallis"},"status":"Real"},{"key":"10236198","name":"Ze Sanderu","postalCode":"3932","locality":"Visperterminen","commune":{"key":"6298","name":"Visperterminen","shortName":"Visperterminen"},"district":{"key":"2313","name":"Bezirk Visp"},"canton":{"key":"23","code":"VS","name":"Valais / Wallis"},"status":"Real"},{"key":"10079040","name":"Ze Stüdu","postalCode":"3932","locality":"Visperterminen","commune":{"key":"6298","name":"Visperterminen","shortName":"Visperterminen"},"district":{"key":"2313","name":"Bezirk Visp"},"canton":{"key":"23","code":"VS","name":"Valais / Wallis"},"status":"Real"},{"key":"10236245","name":"Z' Morachru","postalCode":"3932","locality":"Visperterminen","commune":{"key":"6298","name":"Visperterminen","shortName":"Visperterminen"},"district":{"key":"2313","name":"Bezirk Visp"},"canton":{"key":"23","code":"VS","name":"Valais / Wallis"},"status":"Real"},{"key":"10127194","name":"Zum Chrizji","postalCode":"3932","locality":"Visperterminen","commune":{"key":"6298","name":"Visperterminen","shortName":"Visperterminen"},"district":{"key":"2313","name":"Bezirk Visp"},"canton":{"key":"23","code":"VS","name":"Valais / Wallis"},"status":"Real"},{"key":"10258971","name":"Zum undru Hüs","postalCode":"3932","locality":"Visperterminen","commune":{"key":"6298","name":"Visperterminen","shortName":"Visperterminen"},"district":{"key":"2313","name":"Bezirk Visp"},"canton":{"key":"23","code":"VS","name":"Valais / Wallis"},"status":"Real"},{"key":"10197418","name":"Zum unru Hüs","postalCode":"3932","locality":"Visperterminen","commune":{"key":"6298","name":"Visperterminen","shortName":"Visperterminen"},"district":{"key":"2313","name":"Bezirk Visp"},"canton":{"key":"23","code":"VS","name":"Valais / Wallis"},"status":"Real"},{"key":"10237804","name":"Z' vordersch Waldsch","postalCode":"3932","locality":"Visperterminen","commune":{"key":"6298","name":"Visperterminen","shortName":"Visperterminen"},"district":{"key":"2313","name":"Bezirk Visp"},"canton":{"key":"23","code":"VS","name":"Valais / Wallis"},"status":"Real"},{"key":"10105798","name":"Ägerschbodu","postalCode":"3932","locality":"Visperterminen","commune":{"key":"6298","name":"Visperterminen","shortName":"Visperterminen"},"district":{"key":"2313","name":"Bezirk Visp"},"canton":{"key":"23","code":"VS","name":"Valais / Wallis"},"status":"Real"},{"key":"10047695","name":"Ässmatte","postalCode":"3932","locality":"Visperterminen","commune":{"key":"6298","name":"Visperterminen","shortName":"Visperterminen"},"district":{"key":"2313","name":"Bezirk Visp"},"canton":{"key":"23","code":"VS","name":"Valais / Wallis"},"status":"Real"},{"key":"10208132","name":"Ässmattustutz","postalCode":"3932","locality":"Visperterminen","commune":{"key":"6298","name":"Visperterminen","shortName":"Visperterminen"},"district":{"key":"2313","name":"Bezirk Visp"},"canton":{"key":"23","code":"VS","name":"Valais / Wallis"},"status":"Real"},]