[{"name":"Achterweg","postalCode":"29633","locality":"Munster","municipality":{"key":"03358016","name":"Munster, Stadt","type":"Stadt"},"district":{"key":"03358","name":"Heidekreis","type":"Landkreis"},"federalState":{"key":"03","name":"Niedersachsen"}},{"name":"Adlerhorst","postalCode":"29633","locality":"Munster","municipality":{"key":"03358016","name":"Munster, Stadt","type":"Stadt"},"district":{"key":"03358","name":"Heidekreis","type":"Landkreis"},"federalState":{"key":"03","name":"Niedersachsen"}},{"name":"Ahornweg","postalCode":"29633","locality":"Munster","municipality":{"key":"03358016","name":"Munster, Stadt","type":"Stadt"},"district":{"key":"03358","name":"Heidekreis","type":"Landkreis"},"federalState":{"key":"03","name":"Niedersachsen"}},{"name":"Akazienstieg","postalCode":"29633","locality":"Munster","municipality":{"key":"03358016","name":"Munster, Stadt","type":"Stadt"},"district":{"key":"03358","name":"Heidekreis","type":"Landkreis"},"federalState":{"key":"03","name":"Niedersachsen"}},{"name":"Algenweg","postalCode":"29633","locality":"Munster","municipality":{"key":"03358016","name":"Munster, Stadt","type":"Stadt"},"district":{"key":"03358","name":"Heidekreis","type":"Landkreis"},"federalState":{"key":"03","name":"Niedersachsen"}},{"name":"Almwiese","postalCode":"29633","locality":"Munster","municipality":{"key":"03358016","name":"Munster, Stadt","type":"Stadt"},"district":{"key":"03358","name":"Heidekreis","type":"Landkreis"},"federalState":{"key":"03","name":"Niedersachsen"}},{"name":"Alter Lopauer Weg","postalCode":"29633","locality":"Munster","municipality":{"key":"03358016","name":"Munster, Stadt","type":"Stadt"},"district":{"key":"03358","name":"Heidekreis","type":"Landkreis"},"federalState":{"key":"03","name":"Niedersachsen"}},{"name":"Alter Rehrhofer Weg","postalCode":"29633","locality":"Munster","municipality":{"key":"03358016","name":"Munster, Stadt","type":"Stadt"},"district":{"key":"03358","name":"Heidekreis","type":"Landkreis"},"federalState":{"key":"03","name":"Niedersachsen"}},{"name":"Alvermannsgrund","postalCode":"29633","locality":"Munster","municipality":{"key":"03358016","name":"Munster, Stadt","type":"Stadt"},"district":{"key":"03358","name":"Heidekreis","type":"Landkreis"},"federalState":{"key":"03","name":"Niedersachsen"}},{"name":"Alvern","postalCode":"29633","locality":"Munster","municipality":{"key":"03358016","name":"Munster, Stadt","type":"Stadt"},"district":{"key":"03358","name":"Heidekreis","type":"Landkreis"},"federalState":{"key":"03","name":"Niedersachsen"}},{"name":"Alvernscher Weg","postalCode":"29633","locality":"Munster","municipality":{"key":"03358016","name":"Munster, Stadt","type":"Stadt"},"district":{"key":"03358","name":"Heidekreis","type":"Landkreis"},"federalState":{"key":"03","name":"Niedersachsen"}},{"name":"Am Barkhof","postalCode":"29633","locality":"Munster","municipality":{"key":"03358016","name":"Munster, Stadt","type":"Stadt"},"district":{"key":"03358","name":"Heidekreis","type":"Landkreis"},"federalState":{"key":"03","name":"Niedersachsen"}},{"name":"Am Bauhof","postalCode":"29633","locality":"Munster","municipality":{"key":"03358016","name":"Munster, Stadt","type":"Stadt"},"district":{"key":"03358","name":"Heidekreis","type":"Landkreis"},"federalState":{"key":"03","name":"Niedersachsen"}},{"name":"Am Bispinger Weg","postalCode":"29633","locality":"Munster","municipality":{"key":"03358016","name":"Munster, Stadt","type":"Stadt"},"district":{"key":"03358","name":"Heidekreis","type":"Landkreis"},"federalState":{"key":"03","name":"Niedersachsen"}},{"name":"Am Bruchhopsgraben","postalCode":"29633","locality":"Munster","municipality":{"key":"03358016","name":"Munster, Stadt","type":"Stadt"},"district":{"key":"03358","name":"Heidekreis","type":"Landkreis"},"federalState":{"key":"03","name":"Niedersachsen"}},{"name":"Am Eickhof","postalCode":"29633","locality":"Munster","municipality":{"key":"03358016","name":"Munster, Stadt","type":"Stadt"},"district":{"key":"03358","name":"Heidekreis","type":"Landkreis"},"federalState":{"key":"03","name":"Niedersachsen"}},{"name":"Am Exerzierplatz","postalCode":"29633","locality":"Munster","municipality":{"key":"03358016","name":"Munster, Stadt","type":"Stadt"},"district":{"key":"03358","name":"Heidekreis","type":"Landkreis"},"federalState":{"key":"03","name":"Niedersachsen"}},{"name":"Am Hanloh","postalCode":"29633","locality":"Munster","municipality":{"key":"03358016","name":"Munster, Stadt","type":"Stadt"},"district":{"key":"03358","name":"Heidekreis","type":"Landkreis"},"federalState":{"key":"03","name":"Niedersachsen"}},{"name":"Am Hohen Kamp","postalCode":"29633","locality":"Munster","municipality":{"key":"03358016","name":"Munster, Stadt","type":"Stadt"},"district":{"key":"03358","name":"Heidekreis","type":"Landkreis"},"federalState":{"key":"03","name":"Niedersachsen"}},{"name":"Am Hollmoor","postalCode":"29633","locality":"Munster","municipality":{"key":"03358016","name":"Munster, Stadt","type":"Stadt"},"district":{"key":"03358","name":"Heidekreis","type":"Landkreis"},"federalState":{"key":"03","name":"Niedersachsen"}},{"name":"Am Holze","postalCode":"29633","locality":"Munster","municipality":{"key":"03358016","name":"Munster, Stadt","type":"Stadt"},"district":{"key":"03358","name":"Heidekreis","type":"Landkreis"},"federalState":{"key":"03","name":"Niedersachsen"}},{"name":"Am Hunnenberg","postalCode":"29633","locality":"Munster","municipality":{"key":"03358016","name":"Munster, Stadt","type":"Stadt"},"district":{"key":"03358","name":"Heidekreis","type":"Landkreis"},"federalState":{"key":"03","name":"Niedersachsen"}},{"name":"Am Kleinbahnhof","postalCode":"29633","locality":"Munster","municipality":{"key":"03358016","name":"Munster, Stadt","type":"Stadt"},"district":{"key":"03358","name":"Heidekreis","type":"Landkreis"},"federalState":{"key":"03","name":"Niedersachsen"}},{"name":"Am Meikenhof","postalCode":"29633","locality":"Munster","municipality":{"key":"03358016","name":"Munster, Stadt","type":"Stadt"},"district":{"key":"03358","name":"Heidekreis","type":"Landkreis"},"federalState":{"key":"03","name":"Niedersachsen"}},{"name":"Am Moor","postalCode":"29633","locality":"Munster","municipality":{"key":"03358016","name":"Munster, Stadt","type":"Stadt"},"district":{"key":"03358","name":"Heidekreis","type":"Landkreis"},"federalState":{"key":"03","name":"Niedersachsen"}},{"name":"Am Mühlenteich","postalCode":"29633","locality":"Munster","municipality":{"key":"03358016","name":"Munster, Stadt","type":"Stadt"},"district":{"key":"03358","name":"Heidekreis","type":"Landkreis"},"federalState":{"key":"03","name":"Niedersachsen"}},{"name":"Am Osterberg","postalCode":"29633","locality":"Munster","municipality":{"key":"03358016","name":"Munster, Stadt","type":"Stadt"},"district":{"key":"03358","name":"Heidekreis","type":"Landkreis"},"federalState":{"key":"03","name":"Niedersachsen"}},{"name":"Am Park","postalCode":"29633","locality":"Munster","municipality":{"key":"03358016","name":"Munster, Stadt","type":"Stadt"},"district":{"key":"03358","name":"Heidekreis","type":"Landkreis"},"federalState":{"key":"03","name":"Niedersachsen"}},{"name":"Am Sandkrug","postalCode":"29633","locality":"Munster","municipality":{"key":"03358016","name":"Munster, Stadt","type":"Stadt"},"district":{"key":"03358","name":"Heidekreis","type":"Landkreis"},"federalState":{"key":"03","name":"Niedersachsen"}},{"name":"Am Schützenplatz","postalCode":"29633","locality":"Munster","municipality":{"key":"03358016","name":"Munster, Stadt","type":"Stadt"},"district":{"key":"03358","name":"Heidekreis","type":"Landkreis"},"federalState":{"key":"03","name":"Niedersachsen"}},{"name":"Amselweg","postalCode":"29633","locality":"Munster","municipality":{"key":"03358016","name":"Munster, Stadt","type":"Stadt"},"district":{"key":"03358","name":"Heidekreis","type":"Landkreis"},"federalState":{"key":"03","name":"Niedersachsen"}},{"name":"Am Sportplatz","postalCode":"29633","locality":"Munster","municipality":{"key":"03358016","name":"Munster, Stadt","type":"Stadt"},"district":{"key":"03358","name":"Heidekreis","type":"Landkreis"},"federalState":{"key":"03","name":"Niedersachsen"}},{"name":"Am Süllberg","postalCode":"29633","locality":"Munster","municipality":{"key":"03358016","name":"Munster, Stadt","type":"Stadt"},"district":{"key":"03358","name":"Heidekreis","type":"Landkreis"},"federalState":{"key":"03","name":"Niedersachsen"}},{"name":"Am Teich","postalCode":"29633","locality":"Munster","municipality":{"key":"03358016","name":"Munster, Stadt","type":"Stadt"},"district":{"key":"03358","name":"Heidekreis","type":"Landkreis"},"federalState":{"key":"03","name":"Niedersachsen"}},{"name":"Am Wasserwerk","postalCode":"29633","locality":"Munster","municipality":{"key":"03358016","name":"Munster, Stadt","type":"Stadt"},"district":{"key":"03358","name":"Heidekreis","type":"Landkreis"},"federalState":{"key":"03","name":"Niedersachsen"}},{"name":"Am Wiesengrund","postalCode":"29633","locality":"Munster","municipality":{"key":"03358016","name":"Munster, Stadt","type":"Stadt"},"district":{"key":"03358","name":"Heidekreis","type":"Landkreis"},"federalState":{"key":"03","name":"Niedersachsen"}},{"name":"An der Hohen Luft","postalCode":"29633","locality":"Munster","municipality":{"key":"03358016","name":"Munster, Stadt","type":"Stadt"},"district":{"key":"03358","name":"Heidekreis","type":"Landkreis"},"federalState":{"key":"03","name":"Niedersachsen"}},{"name":"An der Kommandantur","postalCode":"29633","locality":"Munster","municipality":{"key":"03358016","name":"Munster, Stadt","type":"Stadt"},"district":{"key":"03358","name":"Heidekreis","type":"Landkreis"},"federalState":{"key":"03","name":"Niedersachsen"}},{"name":"An der Koppel","postalCode":"29633","locality":"Munster","municipality":{"key":"03358016","name":"Munster, Stadt","type":"Stadt"},"district":{"key":"03358","name":"Heidekreis","type":"Landkreis"},"federalState":{"key":"03","name":"Niedersachsen"}},{"name":"An der Pflasterbahn","postalCode":"29633","locality":"Munster","municipality":{"key":"03358016","name":"Munster, Stadt","type":"Stadt"},"district":{"key":"03358","name":"Heidekreis","type":"Landkreis"},"federalState":{"key":"03","name":"Niedersachsen"}},{"name":"An der Raubkammer","postalCode":"29633","locality":"Munster","municipality":{"key":"03358016","name":"Munster, Stadt","type":"Stadt"},"district":{"key":"03358","name":"Heidekreis","type":"Landkreis"},"federalState":{"key":"03","name":"Niedersachsen"}},{"name":"Anne-Frank-Weg","postalCode":"29633","locality":"Munster","municipality":{"key":"03358016","name":"Munster, Stadt","type":"Stadt"},"district":{"key":"03358","name":"Heidekreis","type":"Landkreis"},"federalState":{"key":"03","name":"Niedersachsen"}},{"name":"Armin-Knap-Winkel","postalCode":"29633","locality":"Munster","municipality":{"key":"03358016","name":"Munster, Stadt","type":"Stadt"},"district":{"key":"03358","name":"Heidekreis","type":"Landkreis"},"federalState":{"key":"03","name":"Niedersachsen"}},{"name":"Auerhahnweg","postalCode":"29633","locality":"Munster","municipality":{"key":"03358016","name":"Munster, Stadt","type":"Stadt"},"district":{"key":"03358","name":"Heidekreis","type":"Landkreis"},"federalState":{"key":"03","name":"Niedersachsen"}},{"name":"Auf dem Horn","postalCode":"29633","locality":"Munster","municipality":{"key":"03358016","name":"Munster, Stadt","type":"Stadt"},"district":{"key":"03358","name":"Heidekreis","type":"Landkreis"},"federalState":{"key":"03","name":"Niedersachsen"}},{"name":"Auf dem Sülle","postalCode":"29633","locality":"Munster","municipality":{"key":"03358016","name":"Munster, Stadt","type":"Stadt"},"district":{"key":"03358","name":"Heidekreis","type":"Landkreis"},"federalState":{"key":"03","name":"Niedersachsen"}},{"name":"Aussiger Str.","postalCode":"29633","locality":"Munster","municipality":{"key":"03358016","name":"Munster, Stadt","type":"Stadt"},"district":{"key":"03358","name":"Heidekreis","type":"Landkreis"},"federalState":{"key":"03","name":"Niedersachsen"}},{"name":"Bachstr.","postalCode":"29633","locality":"Munster","municipality":{"key":"03358016","name":"Munster, Stadt","type":"Stadt"},"district":{"key":"03358","name":"Heidekreis","type":"Landkreis"},"federalState":{"key":"03","name":"Niedersachsen"}},{"name":"Bahnhofstr.","postalCode":"29633","locality":"Munster","municipality":{"key":"03358016","name":"Munster, Stadt","type":"Stadt"},"district":{"key":"03358","name":"Heidekreis","type":"Landkreis"},"federalState":{"key":"03","name":"Niedersachsen"}},{"name":"Bauengehäge","postalCode":"29633","locality":"Munster","municipality":{"key":"03358016","name":"Munster, Stadt","type":"Stadt"},"district":{"key":"03358","name":"Heidekreis","type":"Landkreis"},"federalState":{"key":"03","name":"Niedersachsen"}},{"name":"Bauerngehäge","postalCode":"29633","locality":"Munster","municipality":{"key":"03358016","name":"Munster, Stadt","type":"Stadt"},"district":{"key":"03358","name":"Heidekreis","type":"Landkreis"},"federalState":{"key":"03","name":"Niedersachsen"}},{"name":"Baumschulenweg","postalCode":"29633","locality":"Munster","municipality":{"key":"03358016","name":"Munster, Stadt","type":"Stadt"},"district":{"key":"03358","name":"Heidekreis","type":"Landkreis"},"federalState":{"key":"03","name":"Niedersachsen"}},{"name":"Beetenwiese","postalCode":"29633","locality":"Munster","municipality":{"key":"03358016","name":"Munster, Stadt","type":"Stadt"},"district":{"key":"03358","name":"Heidekreis","type":"Landkreis"},"federalState":{"key":"03","name":"Niedersachsen"}},{"name":"Bergstr.","postalCode":"29633","locality":"Munster","municipality":{"key":"03358016","name":"Munster, Stadt","type":"Stadt"},"district":{"key":"03358","name":"Heidekreis","type":"Landkreis"},"federalState":{"key":"03","name":"Niedersachsen"}},{"name":"Berlinchner Str.","postalCode":"29633","locality":"Munster","municipality":{"key":"03358016","name":"Munster, Stadt","type":"Stadt"},"district":{"key":"03358","name":"Heidekreis","type":"Landkreis"},"federalState":{"key":"03","name":"Niedersachsen"}},{"name":"Berliner Str.","postalCode":"29633","locality":"Munster","municipality":{"key":"03358016","name":"Munster, Stadt","type":"Stadt"},"district":{"key":"03358","name":"Heidekreis","type":"Landkreis"},"federalState":{"key":"03","name":"Niedersachsen"}},{"name":"Bernsteiner Weg","postalCode":"29633","locality":"Munster","municipality":{"key":"03358016","name":"Munster, Stadt","type":"Stadt"},"district":{"key":"03358","name":"Heidekreis","type":"Landkreis"},"federalState":{"key":"03","name":"Niedersachsen"}},{"name":"Besucherweg","postalCode":"29565","locality":"Munster","municipality":{"key":"03358016","name":"Munster, Stadt","type":"Stadt"},"district":{"key":"03358","name":"Heidekreis","type":"Landkreis"},"federalState":{"key":"03","name":"Niedersachsen"}},{"name":"Bickbeerbusch","postalCode":"29633","locality":"Munster","municipality":{"key":"03358016","name":"Munster, Stadt","type":"Stadt"},"district":{"key":"03358","name":"Heidekreis","type":"Landkreis"},"federalState":{"key":"03","name":"Niedersachsen"}},{"name":"Birkenweg","postalCode":"29633","locality":"Munster","municipality":{"key":"03358016","name":"Munster, Stadt","type":"Stadt"},"district":{"key":"03358","name":"Heidekreis","type":"Landkreis"},"federalState":{"key":"03","name":"Niedersachsen"}},{"name":"Birkhuhnweg","postalCode":"29633","locality":"Munster","municipality":{"key":"03358016","name":"Munster, Stadt","type":"Stadt"},"district":{"key":"03358","name":"Heidekreis","type":"Landkreis"},"federalState":{"key":"03","name":"Niedersachsen"}},{"name":"Blumenweg","postalCode":"29633","locality":"Munster","municipality":{"key":"03358016","name":"Munster, Stadt","type":"Stadt"},"district":{"key":"03358","name":"Heidekreis","type":"Landkreis"},"federalState":{"key":"03","name":"Niedersachsen"}},{"name":"Brambosteler Weg","postalCode":"29633","locality":"Munster","municipality":{"key":"03358016","name":"Munster, Stadt","type":"Stadt"},"district":{"key":"03358","name":"Heidekreis","type":"Landkreis"},"federalState":{"key":"03","name":"Niedersachsen"}},{"name":"Bramwinkel","postalCode":"29633","locality":"Munster","municipality":{"key":"03358016","name":"Munster, Stadt","type":"Stadt"},"district":{"key":"03358","name":"Heidekreis","type":"Landkreis"},"federalState":{"key":"03","name":"Niedersachsen"}},{"name":"Brandenburger Str.","postalCode":"29633","locality":"Munster","municipality":{"key":"03358016","name":"Munster, Stadt","type":"Stadt"},"district":{"key":"03358","name":"Heidekreis","type":"Landkreis"},"federalState":{"key":"03","name":"Niedersachsen"}},{"name":"Breloher Str.","postalCode":"29633","locality":"Munster","municipality":{"key":"03358016","name":"Munster, Stadt","type":"Stadt"},"district":{"key":"03358","name":"Heidekreis","type":"Landkreis"},"federalState":{"key":"03","name":"Niedersachsen"}},{"name":"Breloher Weg","postalCode":"29633","locality":"Munster","municipality":{"key":"03358016","name":"Munster, Stadt","type":"Stadt"},"district":{"key":"03358","name":"Heidekreis","type":"Landkreis"},"federalState":{"key":"03","name":"Niedersachsen"}},{"name":"Breslauer Str.","postalCode":"29633","locality":"Munster","municipality":{"key":"03358016","name":"Munster, Stadt","type":"Stadt"},"district":{"key":"03358","name":"Heidekreis","type":"Landkreis"},"federalState":{"key":"03","name":"Niedersachsen"}},{"name":"Brombeerweg","postalCode":"29633","locality":"Munster","municipality":{"key":"03358016","name":"Munster, Stadt","type":"Stadt"},"district":{"key":"03358","name":"Heidekreis","type":"Landkreis"},"federalState":{"key":"03","name":"Niedersachsen"}},{"name":"Brucknerstr.","postalCode":"29633","locality":"Munster","municipality":{"key":"03358016","name":"Munster, Stadt","type":"Stadt"},"district":{"key":"03358","name":"Heidekreis","type":"Landkreis"},"federalState":{"key":"03","name":"Niedersachsen"}},{"name":"Buchenweg","postalCode":"29633","locality":"Munster","municipality":{"key":"03358016","name":"Munster, Stadt","type":"Stadt"},"district":{"key":"03358","name":"Heidekreis","type":"Landkreis"},"federalState":{"key":"03","name":"Niedersachsen"}},{"name":"Camminer Str.","postalCode":"29633","locality":"Munster","municipality":{"key":"03358016","name":"Munster, Stadt","type":"Stadt"},"district":{"key":"03358","name":"Heidekreis","type":"Landkreis"},"federalState":{"key":"03","name":"Niedersachsen"}},{"name":"Carl-Friedrich-Goerdeler-Weg","postalCode":"29633","locality":"Munster","municipality":{"key":"03358016","name":"Munster, Stadt","type":"Stadt"},"district":{"key":"03358","name":"Heidekreis","type":"Landkreis"},"federalState":{"key":"03","name":"Niedersachsen"}},{"name":"Celler Str.","postalCode":"29633","locality":"Munster","municipality":{"key":"03358016","name":"Munster, Stadt","type":"Stadt"},"district":{"key":"03358","name":"Heidekreis","type":"Landkreis"},"federalState":{"key":"03","name":"Niedersachsen"}},{"name":"Clausewitzallee","postalCode":"29633","locality":"Munster","municipality":{"key":"03358016","name":"Munster, Stadt","type":"Stadt"},"district":{"key":"03358","name":"Heidekreis","type":"Landkreis"},"federalState":{"key":"03","name":"Niedersachsen"}},{"name":"Clemens-Neuhaus-Weg","postalCode":"29633","locality":"Munster","municipality":{"key":"03358016","name":"Munster, Stadt","type":"Stadt"},"district":{"key":"03358","name":"Heidekreis","type":"Landkreis"},"federalState":{"key":"03","name":"Niedersachsen"}},{"name":"Danziger Str.","postalCode":"29633","locality":"Munster","municipality":{"key":"03358016","name":"Munster, Stadt","type":"Stadt"},"district":{"key":"03358","name":"Heidekreis","type":"Landkreis"},"federalState":{"key":"03","name":"Niedersachsen"}},{"name":"Dethlingen","postalCode":"29633","locality":"Munster","municipality":{"key":"03358016","name":"Munster, Stadt","type":"Stadt"},"district":{"key":"03358","name":"Heidekreis","type":"Landkreis"},"federalState":{"key":"03","name":"Niedersachsen"}},{"name":"Dietrich-Bonhoeffer-Weg","postalCode":"29633","locality":"Munster","municipality":{"key":"03358016","name":"Munster, Stadt","type":"Stadt"},"district":{"key":"03358","name":"Heidekreis","type":"Landkreis"},"federalState":{"key":"03","name":"Niedersachsen"}},{"name":"Dorf Ilster","postalCode":"29633","locality":"Munster","municipality":{"key":"03358016","name":"Munster, Stadt","type":"Stadt"},"district":{"key":"03358","name":"Heidekreis","type":"Landkreis"},"federalState":{"key":"03","name":"Niedersachsen"}},{"name":"Dr.-Günther-Winkelmann-Weg","postalCode":"29633","locality":"Munster","municipality":{"key":"03358016","name":"Munster, Stadt","type":"Stadt"},"district":{"key":"03358","name":"Heidekreis","type":"Landkreis"},"federalState":{"key":"03","name":"Niedersachsen"}},{"name":"Dr.-Hermann-Marcks-Str.","postalCode":"29633","locality":"Munster","municipality":{"key":"03358016","name":"Munster, Stadt","type":"Stadt"},"district":{"key":"03358","name":"Heidekreis","type":"Landkreis"},"federalState":{"key":"03","name":"Niedersachsen"}},{"name":"Drosselweg","postalCode":"29633","locality":"Munster","municipality":{"key":"03358016","name":"Munster, Stadt","type":"Stadt"},"district":{"key":"03358","name":"Heidekreis","type":"Landkreis"},"federalState":{"key":"03","name":"Niedersachsen"}},{"name":"Eggerskammer","postalCode":"29633","locality":"Munster","municipality":{"key":"03358016","name":"Munster, Stadt","type":"Stadt"},"district":{"key":"03358","name":"Heidekreis","type":"Landkreis"},"federalState":{"key":"03","name":"Niedersachsen"}},{"name":"Eibenhof","postalCode":"29633","locality":"Munster","municipality":{"key":"03358016","name":"Munster, Stadt","type":"Stadt"},"district":{"key":"03358","name":"Heidekreis","type":"Landkreis"},"federalState":{"key":"03","name":"Niedersachsen"}},{"name":"Eichenweg","postalCode":"29633","locality":"Munster","municipality":{"key":"03358016","name":"Munster, Stadt","type":"Stadt"},"district":{"key":"03358","name":"Heidekreis","type":"Landkreis"},"federalState":{"key":"03","name":"Niedersachsen"}},{"name":"Elchweg","postalCode":"29633","locality":"Munster","municipality":{"key":"03358016","name":"Munster, Stadt","type":"Stadt"},"district":{"key":"03358","name":"Heidekreis","type":"Landkreis"},"federalState":{"key":"03","name":"Niedersachsen"}},{"name":"Ellernbusch","postalCode":"29633","locality":"Munster","municipality":{"key":"03358016","name":"Munster, Stadt","type":"Stadt"},"district":{"key":"03358","name":"Heidekreis","type":"Landkreis"},"federalState":{"key":"03","name":"Niedersachsen"}},{"name":"Emil-Chwastek-Platz","postalCode":"29633","locality":"Munster","municipality":{"key":"03358016","name":"Munster, Stadt","type":"Stadt"},"district":{"key":"03358","name":"Heidekreis","type":"Landkreis"},"federalState":{"key":"03","name":"Niedersachsen"}},{"name":"Emminger Weg","postalCode":"29633","locality":"Munster","municipality":{"key":"03358016","name":"Munster, Stadt","type":"Stadt"},"district":{"key":"03358","name":"Heidekreis","type":"Landkreis"},"federalState":{"key":"03","name":"Niedersachsen"}},{"name":"Ent- und Beladestelle","postalCode":"29633","locality":"Munster","municipality":{"key":"03358016","name":"Munster, Stadt","type":"Stadt"},"district":{"key":"03358","name":"Heidekreis","type":"Landkreis"},"federalState":{"key":"03","name":"Niedersachsen"}},{"name":"Eragnyweg","postalCode":"29633","locality":"Munster","municipality":{"key":"03358016","name":"Munster, Stadt","type":"Stadt"},"district":{"key":"03358","name":"Heidekreis","type":"Landkreis"},"federalState":{"key":"03","name":"Niedersachsen"}},{"name":"Ernst-Pernoll-Str.","postalCode":"29633","locality":"Munster","municipality":{"key":"03358016","name":"Munster, Stadt","type":"Stadt"},"district":{"key":"03358","name":"Heidekreis","type":"Landkreis"},"federalState":{"key":"03","name":"Niedersachsen"}},{"name":"Eschenweg","postalCode":"29633","locality":"Munster","municipality":{"key":"03358016","name":"Munster, Stadt","type":"Stadt"},"district":{"key":"03358","name":"Heidekreis","type":"Landkreis"},"federalState":{"key":"03","name":"Niedersachsen"}},{"name":"Falkenhof","postalCode":"29633","locality":"Munster","municipality":{"key":"03358016","name":"Munster, Stadt","type":"Stadt"},"district":{"key":"03358","name":"Heidekreis","type":"Landkreis"},"federalState":{"key":"03","name":"Niedersachsen"}},{"name":"Fasanenweg","postalCode":"29633","locality":"Munster","municipality":{"key":"03358016","name":"Munster, Stadt","type":"Stadt"},"district":{"key":"03358","name":"Heidekreis","type":"Landkreis"},"federalState":{"key":"03","name":"Niedersachsen"}},{"name":"Faßberger Str.","postalCode":"29633","locality":"Munster","municipality":{"key":"03358016","name":"Munster, Stadt","type":"Stadt"},"district":{"key":"03358","name":"Heidekreis","type":"Landkreis"},"federalState":{"key":"03","name":"Niedersachsen"}},{"name":"Feldmannshof","postalCode":"29633","locality":"Munster","municipality":{"key":"03358016","name":"Munster, Stadt","type":"Stadt"},"district":{"key":"03358","name":"Heidekreis","type":"Landkreis"},"federalState":{"key":"03","name":"Niedersachsen"}},{"name":"Feldweg","postalCode":"29633","locality":"Munster","municipality":{"key":"03358016","name":"Munster, Stadt","type":"Stadt"},"district":{"key":"03358","name":"Heidekreis","type":"Landkreis"},"federalState":{"key":"03","name":"Niedersachsen"}},{"name":"Fichtehof","postalCode":"29633","locality":"Munster","municipality":{"key":"03358016","name":"Munster, Stadt","type":"Stadt"},"district":{"key":"03358","name":"Heidekreis","type":"Landkreis"},"federalState":{"key":"03","name":"Niedersachsen"}},{"name":"Finkenweg","postalCode":"29633","locality":"Munster","municipality":{"key":"03358016","name":"Munster, Stadt","type":"Stadt"},"district":{"key":"03358","name":"Heidekreis","type":"Landkreis"},"federalState":{"key":"03","name":"Niedersachsen"}},{"name":"Forellenweg","postalCode":"29633","locality":"Munster","municipality":{"key":"03358016","name":"Munster, Stadt","type":"Stadt"},"district":{"key":"03358","name":"Heidekreis","type":"Landkreis"},"federalState":{"key":"03","name":"Niedersachsen"}},{"name":"Försterstieg","postalCode":"29633","locality":"Munster","municipality":{"key":"03358016","name":"Munster, Stadt","type":"Stadt"},"district":{"key":"03358","name":"Heidekreis","type":"Landkreis"},"federalState":{"key":"03","name":"Niedersachsen"}},{"name":"Forstgarten","postalCode":"29633","locality":"Munster","municipality":{"key":"03358016","name":"Munster, Stadt","type":"Stadt"},"district":{"key":"03358","name":"Heidekreis","type":"Landkreis"},"federalState":{"key":"03","name":"Niedersachsen"}},{"name":"Forstweg","postalCode":"29633","locality":"Munster","municipality":{"key":"03358016","name":"Munster, Stadt","type":"Stadt"},"district":{"key":"03358","name":"Heidekreis","type":"Landkreis"},"federalState":{"key":"03","name":"Niedersachsen"}},{"name":"Freiherr-von-Richthofen-Str.","postalCode":"29633","locality":"Munster","municipality":{"key":"03358016","name":"Munster, Stadt","type":"Stadt"},"district":{"key":"03358","name":"Heidekreis","type":"Landkreis"},"federalState":{"key":"03","name":"Niedersachsen"}},{"name":"Freudenthalstr.","postalCode":"29633","locality":"Munster","municipality":{"key":"03358016","name":"Munster, Stadt","type":"Stadt"},"district":{"key":"03358","name":"Heidekreis","type":"Landkreis"},"federalState":{"key":"03","name":"Niedersachsen"}},{"name":"Friedrich-Heinrich-Platz","postalCode":"29633","locality":"Munster","municipality":{"key":"03358016","name":"Munster, Stadt","type":"Stadt"},"district":{"key":"03358","name":"Heidekreis","type":"Landkreis"},"federalState":{"key":"03","name":"Niedersachsen"}},{"name":"Fritz-Reuter-Str.","postalCode":"29633","locality":"Munster","municipality":{"key":"03358016","name":"Munster, Stadt","type":"Stadt"},"district":{"key":"03358","name":"Heidekreis","type":"Landkreis"},"federalState":{"key":"03","name":"Niedersachsen"}},{"name":"Fuchskoppel","postalCode":"29633","locality":"Munster","municipality":{"key":"03358016","name":"Munster, Stadt","type":"Stadt"},"district":{"key":"03358","name":"Heidekreis","type":"Landkreis"},"federalState":{"key":"03","name":"Niedersachsen"}},{"name":"Fuhrenkamp","postalCode":"29633","locality":"Munster","municipality":{"key":"03358016","name":"Munster, Stadt","type":"Stadt"},"district":{"key":"03358","name":"Heidekreis","type":"Landkreis"},"federalState":{"key":"03","name":"Niedersachsen"}},{"name":"Gartenstr.","postalCode":"29633","locality":"Munster","municipality":{"key":"03358016","name":"Munster, Stadt","type":"Stadt"},"district":{"key":"03358","name":"Heidekreis","type":"Landkreis"},"federalState":{"key":"03","name":"Niedersachsen"}},{"name":"General-Philipp-Weg","postalCode":"29633","locality":"Munster","municipality":{"key":"03358016","name":"Munster, Stadt","type":"Stadt"},"district":{"key":"03358","name":"Heidekreis","type":"Landkreis"},"federalState":{"key":"03","name":"Niedersachsen"}},{"name":"Geschwister-Scholl-Str.","postalCode":"29633","locality":"Munster","municipality":{"key":"03358016","name":"Munster, Stadt","type":"Stadt"},"district":{"key":"03358","name":"Heidekreis","type":"Landkreis"},"federalState":{"key":"03","name":"Niedersachsen"}},{"name":"Ginsterweg","postalCode":"29633","locality":"Munster","municipality":{"key":"03358016","name":"Munster, Stadt","type":"Stadt"},"district":{"key":"03358","name":"Heidekreis","type":"Landkreis"},"federalState":{"key":"03","name":"Niedersachsen"}},{"name":"Gleiwitzer Str.","postalCode":"29633","locality":"Munster","municipality":{"key":"03358016","name":"Munster, Stadt","type":"Stadt"},"district":{"key":"03358","name":"Heidekreis","type":"Landkreis"},"federalState":{"key":"03","name":"Niedersachsen"}},{"name":"Görlitzer Str.","postalCode":"29633","locality":"Munster","municipality":{"key":"03358016","name":"Munster, Stadt","type":"Stadt"},"district":{"key":"03358","name":"Heidekreis","type":"Landkreis"},"federalState":{"key":"03","name":"Niedersachsen"}},{"name":"Graf-Spee-Str.","postalCode":"29633","locality":"Munster","municipality":{"key":"03358016","name":"Munster, Stadt","type":"Stadt"},"district":{"key":"03358","name":"Heidekreis","type":"Landkreis"},"federalState":{"key":"03","name":"Niedersachsen"}},{"name":"Grasmoorkamp","postalCode":"29633","locality":"Munster","municipality":{"key":"03358016","name":"Munster, Stadt","type":"Stadt"},"district":{"key":"03358","name":"Heidekreis","type":"Landkreis"},"federalState":{"key":"03","name":"Niedersachsen"}},{"name":"Greifenweg","postalCode":"29633","locality":"Munster","municipality":{"key":"03358016","name":"Munster, Stadt","type":"Stadt"},"district":{"key":"03358","name":"Heidekreis","type":"Landkreis"},"federalState":{"key":"03","name":"Niedersachsen"}},{"name":"Grenadierschneiße","postalCode":"29633","locality":"Munster","municipality":{"key":"03358016","name":"Munster, Stadt","type":"Stadt"},"district":{"key":"03358","name":"Heidekreis","type":"Landkreis"},"federalState":{"key":"03","name":"Niedersachsen"}},{"name":"Grenzhof","postalCode":"29633","locality":"Munster","municipality":{"key":"03358016","name":"Munster, Stadt","type":"Stadt"},"district":{"key":"03358","name":"Heidekreis","type":"Landkreis"},"federalState":{"key":"03","name":"Niedersachsen"}},{"name":"Großer Kamp","postalCode":"29633","locality":"Munster","municipality":{"key":"03358016","name":"Munster, Stadt","type":"Stadt"},"district":{"key":"03358","name":"Heidekreis","type":"Landkreis"},"federalState":{"key":"03","name":"Niedersachsen"}},{"name":"Gustav-Meyer-Str.","postalCode":"29633","locality":"Munster","municipality":{"key":"03358016","name":"Munster, Stadt","type":"Stadt"},"district":{"key":"03358","name":"Heidekreis","type":"Landkreis"},"federalState":{"key":"03","name":"Niedersachsen"}},{"name":"Hagebuttenweg","postalCode":"29633","locality":"Munster","municipality":{"key":"03358016","name":"Munster, Stadt","type":"Stadt"},"district":{"key":"03358","name":"Heidekreis","type":"Landkreis"},"federalState":{"key":"03","name":"Niedersachsen"}},{"name":"Haidwiese","postalCode":"29633","locality":"Munster","municipality":{"key":"03358016","name":"Munster, Stadt","type":"Stadt"},"district":{"key":"03358","name":"Heidekreis","type":"Landkreis"},"federalState":{"key":"03","name":"Niedersachsen"}},{"name":"Händelstr.","postalCode":"29633","locality":"Munster","municipality":{"key":"03358016","name":"Munster, Stadt","type":"Stadt"},"district":{"key":"03358","name":"Heidekreis","type":"Landkreis"},"federalState":{"key":"03","name":"Niedersachsen"}},{"name":"Hasenfang","postalCode":"29633","locality":"Munster","municipality":{"key":"03358016","name":"Munster, Stadt","type":"Stadt"},"district":{"key":"03358","name":"Heidekreis","type":"Landkreis"},"federalState":{"key":"03","name":"Niedersachsen"}},{"name":"Hasenheide","postalCode":"29633","locality":"Munster","municipality":{"key":"03358016","name":"Munster, Stadt","type":"Stadt"},"district":{"key":"03358","name":"Heidekreis","type":"Landkreis"},"federalState":{"key":"03","name":"Niedersachsen"}},{"name":"Haus Ilster","postalCode":"29633","locality":"Munster","municipality":{"key":"03358016","name":"Munster, Stadt","type":"Stadt"},"district":{"key":"03358","name":"Heidekreis","type":"Landkreis"},"federalState":{"key":"03","name":"Niedersachsen"}},{"name":"Hechtweg","postalCode":"29633","locality":"Munster","municipality":{"key":"03358016","name":"Munster, Stadt","type":"Stadt"},"district":{"key":"03358","name":"Heidekreis","type":"Landkreis"},"federalState":{"key":"03","name":"Niedersachsen"}},{"name":"Heidberg","postalCode":"29633","locality":"Munster","municipality":{"key":"03358016","name":"Munster, Stadt","type":"Stadt"},"district":{"key":"03358","name":"Heidekreis","type":"Landkreis"},"federalState":{"key":"03","name":"Niedersachsen"}},{"name":"Heidewinkel","postalCode":"29633","locality":"Munster","municipality":{"key":"03358016","name":"Munster, Stadt","type":"Stadt"},"district":{"key":"03358","name":"Heidekreis","type":"Landkreis"},"federalState":{"key":"03","name":"Niedersachsen"}},{"name":"Heisterbusch","postalCode":"29633","locality":"Munster","municipality":{"key":"03358016","name":"Munster, Stadt","type":"Stadt"},"district":{"key":"03358","name":"Heidekreis","type":"Landkreis"},"federalState":{"key":"03","name":"Niedersachsen"}},{"name":"Hermann-Billung-Str.","postalCode":"29633","locality":"Munster","municipality":{"key":"03358016","name":"Munster, Stadt","type":"Stadt"},"district":{"key":"03358","name":"Heidekreis","type":"Landkreis"},"federalState":{"key":"03","name":"Niedersachsen"}},{"name":"Hermann-Löns-Str.","postalCode":"29633","locality":"Munster","municipality":{"key":"03358016","name":"Munster, Stadt","type":"Stadt"},"district":{"key":"03358","name":"Heidekreis","type":"Landkreis"},"federalState":{"key":"03","name":"Niedersachsen"}},{"name":"Hindemithweg","postalCode":"29633","locality":"Munster","municipality":{"key":"03358016","name":"Munster, Stadt","type":"Stadt"},"district":{"key":"03358","name":"Heidekreis","type":"Landkreis"},"federalState":{"key":"03","name":"Niedersachsen"}},{"name":"Hindenburgallee","postalCode":"29633","locality":"Munster","municipality":{"key":"03358016","name":"Munster, Stadt","type":"Stadt"},"district":{"key":"03358","name":"Heidekreis","type":"Landkreis"},"federalState":{"key":"03","name":"Niedersachsen"}},{"name":"Hinter dem Gehäge","postalCode":"29633","locality":"Munster","municipality":{"key":"03358016","name":"Munster, Stadt","type":"Stadt"},"district":{"key":"03358","name":"Heidekreis","type":"Landkreis"},"federalState":{"key":"03","name":"Niedersachsen"}},{"name":"Hinter der Bahn","postalCode":"29633","locality":"Munster","municipality":{"key":"03358016","name":"Munster, Stadt","type":"Stadt"},"district":{"key":"03358","name":"Heidekreis","type":"Landkreis"},"federalState":{"key":"03","name":"Niedersachsen"}},{"name":"Hinterste Berg","postalCode":"29633","locality":"Munster","municipality":{"key":"03358016","name":"Munster, Stadt","type":"Stadt"},"district":{"key":"03358","name":"Heidekreis","type":"Landkreis"},"federalState":{"key":"03","name":"Niedersachsen"}},{"name":"Hökerdorf","postalCode":"29633","locality":"Munster","municipality":{"key":"03358016","name":"Munster, Stadt","type":"Stadt"},"district":{"key":"03358","name":"Heidekreis","type":"Landkreis"},"federalState":{"key":"03","name":"Niedersachsen"}},{"name":"Holunderweg","postalCode":"29633","locality":"Munster","municipality":{"key":"03358016","name":"Munster, Stadt","type":"Stadt"},"district":{"key":"03358","name":"Heidekreis","type":"Landkreis"},"federalState":{"key":"03","name":"Niedersachsen"}},{"name":"Höpskamp","postalCode":"29633","locality":"Munster","municipality":{"key":"03358016","name":"Munster, Stadt","type":"Stadt"},"district":{"key":"03358","name":"Heidekreis","type":"Landkreis"},"federalState":{"key":"03","name":"Niedersachsen"}},{"name":"Hornheider Weg","postalCode":"29633","locality":"Munster","municipality":{"key":"03358016","name":"Munster, Stadt","type":"Stadt"},"district":{"key":"03358","name":"Heidekreis","type":"Landkreis"},"federalState":{"key":"03","name":"Niedersachsen"}},{"name":"Hummelweg","postalCode":"29633","locality":"Munster","municipality":{"key":"03358016","name":"Munster, Stadt","type":"Stadt"},"district":{"key":"03358","name":"Heidekreis","type":"Landkreis"},"federalState":{"key":"03","name":"Niedersachsen"}},{"name":"Ilsterweg","postalCode":"29633","locality":"Munster","municipality":{"key":"03358016","name":"Munster, Stadt","type":"Stadt"},"district":{"key":"03358","name":"Heidekreis","type":"Landkreis"},"federalState":{"key":"03","name":"Niedersachsen"}},{"name":"Im Bruch","postalCode":"29633","locality":"Munster","municipality":{"key":"03358016","name":"Munster, Stadt","type":"Stadt"},"district":{"key":"03358","name":"Heidekreis","type":"Landkreis"},"federalState":{"key":"03","name":"Niedersachsen"}},{"name":"Im Bürgerpark","postalCode":"29633","locality":"Munster","municipality":{"key":"03358016","name":"Munster, Stadt","type":"Stadt"},"district":{"key":"03358","name":"Heidekreis","type":"Landkreis"},"federalState":{"key":"03","name":"Niedersachsen"}},{"name":"Im Feeth","postalCode":"29633","locality":"Munster","municipality":{"key":"03358016","name":"Munster, Stadt","type":"Stadt"},"district":{"key":"03358","name":"Heidekreis","type":"Landkreis"},"federalState":{"key":"03","name":"Niedersachsen"}},{"name":"Immengarten","postalCode":"29633","locality":"Munster","municipality":{"key":"03358016","name":"Munster, Stadt","type":"Stadt"},"district":{"key":"03358","name":"Heidekreis","type":"Landkreis"},"federalState":{"key":"03","name":"Niedersachsen"}},{"name":"Im Oertzetal","postalCode":"29633","locality":"Munster","municipality":{"key":"03358016","name":"Munster, Stadt","type":"Stadt"},"district":{"key":"03358","name":"Heidekreis","type":"Landkreis"},"federalState":{"key":"03","name":"Niedersachsen"}},{"name":"Im Oertzewinkel","postalCode":"29633","locality":"Munster","municipality":{"key":"03358016","name":"Munster, Stadt","type":"Stadt"},"district":{"key":"03358","name":"Heidekreis","type":"Landkreis"},"federalState":{"key":"03","name":"Niedersachsen"}},{"name":"Im Rehmen","postalCode":"29633","locality":"Munster","municipality":{"key":"03358016","name":"Munster, Stadt","type":"Stadt"},"district":{"key":"03358","name":"Heidekreis","type":"Landkreis"},"federalState":{"key":"03","name":"Niedersachsen"}},{"name":"Im Westerfeld","postalCode":"29633","locality":"Munster","municipality":{"key":"03358016","name":"Munster, Stadt","type":"Stadt"},"district":{"key":"03358","name":"Heidekreis","type":"Landkreis"},"federalState":{"key":"03","name":"Niedersachsen"}},{"name":"In der Masch","postalCode":"29633","locality":"Munster","municipality":{"key":"03358016","name":"Munster, Stadt","type":"Stadt"},"district":{"key":"03358","name":"Heidekreis","type":"Landkreis"},"federalState":{"key":"03","name":"Niedersachsen"}},{"name":"Jagdweg","postalCode":"29633","locality":"Munster","municipality":{"key":"03358016","name":"Munster, Stadt","type":"Stadt"},"district":{"key":"03358","name":"Heidekreis","type":"Landkreis"},"federalState":{"key":"03","name":"Niedersachsen"}},{"name":"Jägerhof","postalCode":"29633","locality":"Munster","municipality":{"key":"03358016","name":"Munster, Stadt","type":"Stadt"},"district":{"key":"03358","name":"Heidekreis","type":"Landkreis"},"federalState":{"key":"03","name":"Niedersachsen"}},{"name":"Jahnstr.","postalCode":"29633","locality":"Munster","municipality":{"key":"03358016","name":"Munster, Stadt","type":"Stadt"},"district":{"key":"03358","name":"Heidekreis","type":"Landkreis"},"federalState":{"key":"03","name":"Niedersachsen"}},{"name":"Jugendweg","postalCode":"29633","locality":"Munster","municipality":{"key":"03358016","name":"Munster, Stadt","type":"Stadt"},"district":{"key":"03358","name":"Heidekreis","type":"Landkreis"},"federalState":{"key":"03","name":"Niedersachsen"}},{"name":"Kaiserweg","postalCode":"29633","locality":"Munster","municipality":{"key":"03358016","name":"Munster, Stadt","type":"Stadt"},"district":{"key":"03358","name":"Heidekreis","type":"Landkreis"},"federalState":{"key":"03","name":"Niedersachsen"}},{"name":"Karlsbader Str.","postalCode":"29633","locality":"Munster","municipality":{"key":"03358016","name":"Munster, Stadt","type":"Stadt"},"district":{"key":"03358","name":"Heidekreis","type":"Landkreis"},"federalState":{"key":"03","name":"Niedersachsen"}},{"name":"Karl-Schenk-Str.","postalCode":"29633","locality":"Munster","municipality":{"key":"03358016","name":"Munster, Stadt","type":"Stadt"},"district":{"key":"03358","name":"Heidekreis","type":"Landkreis"},"federalState":{"key":"03","name":"Niedersachsen"}},{"name":"Karpfenweg","postalCode":"29633","locality":"Munster","municipality":{"key":"03358016","name":"Munster, Stadt","type":"Stadt"},"district":{"key":"03358","name":"Heidekreis","type":"Landkreis"},"federalState":{"key":"03","name":"Niedersachsen"}},{"name":"Kastanienweg","postalCode":"29633","locality":"Munster","municipality":{"key":"03358016","name":"Munster, Stadt","type":"Stadt"},"district":{"key":"03358","name":"Heidekreis","type":"Landkreis"},"federalState":{"key":"03","name":"Niedersachsen"}},{"name":"Kiefernweg","postalCode":"29633","locality":"Munster","municipality":{"key":"03358016","name":"Munster, Stadt","type":"Stadt"},"district":{"key":"03358","name":"Heidekreis","type":"Landkreis"},"federalState":{"key":"03","name":"Niedersachsen"}},{"name":"Kieselgurweg","postalCode":"29633","locality":"Munster","municipality":{"key":"03358016","name":"Munster, Stadt","type":"Stadt"},"district":{"key":"03358","name":"Heidekreis","type":"Landkreis"},"federalState":{"key":"03","name":"Niedersachsen"}},{"name":"Kirchgarten","postalCode":"29633","locality":"Munster","municipality":{"key":"03358016","name":"Munster, Stadt","type":"Stadt"},"district":{"key":"03358","name":"Heidekreis","type":"Landkreis"},"federalState":{"key":"03","name":"Niedersachsen"}},{"name":"Klappgarten","postalCode":"29633","locality":"Munster","municipality":{"key":"03358016","name":"Munster, Stadt","type":"Stadt"},"district":{"key":"03358","name":"Heidekreis","type":"Landkreis"},"federalState":{"key":"03","name":"Niedersachsen"}},{"name":"Klaus-Groth-Gasse","postalCode":"29633","locality":"Munster","municipality":{"key":"03358016","name":"Munster, Stadt","type":"Stadt"},"district":{"key":"03358","name":"Heidekreis","type":"Landkreis"},"federalState":{"key":"03","name":"Niedersachsen"}},{"name":"Kleiner Kamp","postalCode":"29633","locality":"Munster","municipality":{"key":"03358016","name":"Munster, Stadt","type":"Stadt"},"district":{"key":"03358","name":"Heidekreis","type":"Landkreis"},"federalState":{"key":"03","name":"Niedersachsen"}},{"name":"Kleines Gehäge","postalCode":"29633","locality":"Munster","municipality":{"key":"03358016","name":"Munster, Stadt","type":"Stadt"},"district":{"key":"03358","name":"Heidekreis","type":"Landkreis"},"federalState":{"key":"03","name":"Niedersachsen"}},{"name":"Kleine Str.","postalCode":"29633","locality":"Munster","municipality":{"key":"03358016","name":"Munster, Stadt","type":"Stadt"},"district":{"key":"03358","name":"Heidekreis","type":"Landkreis"},"federalState":{"key":"03","name":"Niedersachsen"}},{"name":"Kneippweg","postalCode":"29633","locality":"Munster","municipality":{"key":"03358016","name":"Munster, Stadt","type":"Stadt"},"district":{"key":"03358","name":"Heidekreis","type":"Landkreis"},"federalState":{"key":"03","name":"Niedersachsen"}},{"name":"Köbengehäge","postalCode":"29633","locality":"Munster","municipality":{"key":"03358016","name":"Munster, Stadt","type":"Stadt"},"district":{"key":"03358","name":"Heidekreis","type":"Landkreis"},"federalState":{"key":"03","name":"Niedersachsen"}},{"name":"Kohlenbissener Grund","postalCode":"29633","locality":"Munster","municipality":{"key":"03358016","name":"Munster, Stadt","type":"Stadt"},"district":{"key":"03358","name":"Heidekreis","type":"Landkreis"},"federalState":{"key":"03","name":"Niedersachsen"}},{"name":"Kohlenbissener Str.","postalCode":"29633","locality":"Munster","municipality":{"key":"03358016","name":"Munster, Stadt","type":"Stadt"},"district":{"key":"03358","name":"Heidekreis","type":"Landkreis"},"federalState":{"key":"03","name":"Niedersachsen"}},{"name":"Kolberger Weg","postalCode":"29633","locality":"Munster","municipality":{"key":"03358016","name":"Munster, Stadt","type":"Stadt"},"district":{"key":"03358","name":"Heidekreis","type":"Landkreis"},"federalState":{"key":"03","name":"Niedersachsen"}},{"name":"Königsberger Str.","postalCode":"29633","locality":"Munster","municipality":{"key":"03358016","name":"Munster, Stadt","type":"Stadt"},"district":{"key":"03358","name":"Heidekreis","type":"Landkreis"},"federalState":{"key":"03","name":"Niedersachsen"}},{"name":"Kösliner Damm","postalCode":"29633","locality":"Munster","municipality":{"key":"03358016","name":"Munster, Stadt","type":"Stadt"},"district":{"key":"03358","name":"Heidekreis","type":"Landkreis"},"federalState":{"key":"03","name":"Niedersachsen"}},{"name":"Kranichhorst","postalCode":"29633","locality":"Munster","municipality":{"key":"03358016","name":"Munster, Stadt","type":"Stadt"},"district":{"key":"03358","name":"Heidekreis","type":"Landkreis"},"federalState":{"key":"03","name":"Niedersachsen"}},{"name":"Kreienmoor","postalCode":"29633","locality":"Munster","municipality":{"key":"03358016","name":"Munster, Stadt","type":"Stadt"},"district":{"key":"03358","name":"Heidekreis","type":"Landkreis"},"federalState":{"key":"03","name":"Niedersachsen"}},{"name":"Kronsbeerweg","postalCode":"29633","locality":"Munster","municipality":{"key":"03358016","name":"Munster, Stadt","type":"Stadt"},"district":{"key":"03358","name":"Heidekreis","type":"Landkreis"},"federalState":{"key":"03","name":"Niedersachsen"}},{"name":"Krummenberg","postalCode":"29633","locality":"Munster","municipality":{"key":"03358016","name":"Munster, Stadt","type":"Stadt"},"district":{"key":"03358","name":"Heidekreis","type":"Landkreis"},"federalState":{"key":"03","name":"Niedersachsen"}},{"name":"Krusengarten","postalCode":"29633","locality":"Munster","municipality":{"key":"03358016","name":"Munster, Stadt","type":"Stadt"},"district":{"key":"03358","name":"Heidekreis","type":"Landkreis"},"federalState":{"key":"03","name":"Niedersachsen"}},{"name":"Kummerlandweg","postalCode":"29633","locality":"Munster","municipality":{"key":"03358016","name":"Munster, Stadt","type":"Stadt"},"district":{"key":"03358","name":"Heidekreis","type":"Landkreis"},"federalState":{"key":"03","name":"Niedersachsen"}},{"name":"Kurze Str.","postalCode":"29633","locality":"Munster","municipality":{"key":"03358016","name":"Munster, Stadt","type":"Stadt"},"district":{"key":"03358","name":"Heidekreis","type":"Landkreis"},"federalState":{"key":"03","name":"Niedersachsen"}},{"name":"Landsberger Str.","postalCode":"29633","locality":"Munster","municipality":{"key":"03358016","name":"Munster, Stadt","type":"Stadt"},"district":{"key":"03358","name":"Heidekreis","type":"Landkreis"},"federalState":{"key":"03","name":"Niedersachsen"}},{"name":"Lange Wiese","postalCode":"29633","locality":"Munster","municipality":{"key":"03358016","name":"Munster, Stadt","type":"Stadt"},"district":{"key":"03358","name":"Heidekreis","type":"Landkreis"},"federalState":{"key":"03","name":"Niedersachsen"}},{"name":"Lärchenweg","postalCode":"29633","locality":"Munster","municipality":{"key":"03358016","name":"Munster, Stadt","type":"Stadt"},"district":{"key":"03358","name":"Heidekreis","type":"Landkreis"},"federalState":{"key":"03","name":"Niedersachsen"}},{"name":"Leckerberg","postalCode":"29633","locality":"Munster","municipality":{"key":"03358016","name":"Munster, Stadt","type":"Stadt"},"district":{"key":"03358","name":"Heidekreis","type":"Landkreis"},"federalState":{"key":"03","name":"Niedersachsen"}},{"name":"Lindenstr.","postalCode":"29633","locality":"Munster","municipality":{"key":"03358016","name":"Munster, Stadt","type":"Stadt"},"district":{"key":"03358","name":"Heidekreis","type":"Landkreis"},"federalState":{"key":"03","name":"Niedersachsen"}},{"name":"Lippehner Str.","postalCode":"29633","locality":"Munster","municipality":{"key":"03358016","name":"Munster, Stadt","type":"Stadt"},"district":{"key":"03358","name":"Heidekreis","type":"Landkreis"},"federalState":{"key":"03","name":"Niedersachsen"}},{"name":"Lise-Meitner-Str.","postalCode":"29633","locality":"Munster","municipality":{"key":"03358016","name":"Munster, Stadt","type":"Stadt"},"district":{"key":"03358","name":"Heidekreis","type":"Landkreis"},"federalState":{"key":"03","name":"Niedersachsen"}},{"name":"Lönsheide","postalCode":"29633","locality":"Munster","municipality":{"key":"03358016","name":"Munster, Stadt","type":"Stadt"},"district":{"key":"03358","name":"Heidekreis","type":"Landkreis"},"federalState":{"key":"03","name":"Niedersachsen"}},{"name":"Lopau","postalCode":"29565","locality":"Munster","municipality":{"key":"03358016","name":"Munster, Stadt","type":"Stadt"},"district":{"key":"03358","name":"Heidekreis","type":"Landkreis"},"federalState":{"key":"03","name":"Niedersachsen"}},{"name":"Lopauer Weg","postalCode":"29633","locality":"Munster","municipality":{"key":"03358016","name":"Munster, Stadt","type":"Stadt"},"district":{"key":"03358","name":"Heidekreis","type":"Landkreis"},"federalState":{"key":"03","name":"Niedersachsen"}},{"name":"Lopautalweg","postalCode":"29565","locality":"Munster","municipality":{"key":"03358016","name":"Munster, Stadt","type":"Stadt"},"district":{"key":"03358","name":"Heidekreis","type":"Landkreis"},"federalState":{"key":"03","name":"Niedersachsen"}},{"name":"Lüneburger Str.","postalCode":"29633","locality":"Munster","municipality":{"key":"03358016","name":"Munster, Stadt","type":"Stadt"},"district":{"key":"03358","name":"Heidekreis","type":"Landkreis"},"federalState":{"key":"03","name":"Niedersachsen"}},{"name":"Marienburger Str.","postalCode":"29633","locality":"Munster","municipality":{"key":"03358016","name":"Munster, Stadt","type":"Stadt"},"district":{"key":"03358","name":"Heidekreis","type":"Landkreis"},"federalState":{"key":"03","name":"Niedersachsen"}},{"name":"Martens-Hof","postalCode":"29633","locality":"Munster","municipality":{"key":"03358016","name":"Munster, Stadt","type":"Stadt"},"district":{"key":"03358","name":"Heidekreis","type":"Landkreis"},"federalState":{"key":"03","name":"Niedersachsen"}},{"name":"Meisenweg","postalCode":"29633","locality":"Munster","municipality":{"key":"03358016","name":"Munster, Stadt","type":"Stadt"},"district":{"key":"03358","name":"Heidekreis","type":"Landkreis"},"federalState":{"key":"03","name":"Niedersachsen"}},{"name":"Memeler Str.","postalCode":"29633","locality":"Munster","municipality":{"key":"03358016","name":"Munster, Stadt","type":"Stadt"},"district":{"key":"03358","name":"Heidekreis","type":"Landkreis"},"federalState":{"key":"03","name":"Niedersachsen"}},{"name":"Mitschurinskweg","postalCode":"29633","locality":"Munster","municipality":{"key":"03358016","name":"Munster, Stadt","type":"Stadt"},"district":{"key":"03358","name":"Heidekreis","type":"Landkreis"},"federalState":{"key":"03","name":"Niedersachsen"}},{"name":"Mittelweg","postalCode":"29633","locality":"Munster","municipality":{"key":"03358016","name":"Munster, Stadt","type":"Stadt"},"district":{"key":"03358","name":"Heidekreis","type":"Landkreis"},"federalState":{"key":"03","name":"Niedersachsen"}},{"name":"Moorfeld","postalCode":"29633","locality":"Munster","municipality":{"key":"03358016","name":"Munster, Stadt","type":"Stadt"},"district":{"key":"03358","name":"Heidekreis","type":"Landkreis"},"federalState":{"key":"03","name":"Niedersachsen"}},{"name":"Moosbeerenweg","postalCode":"29633","locality":"Munster","municipality":{"key":"03358016","name":"Munster, Stadt","type":"Stadt"},"district":{"key":"03358","name":"Heidekreis","type":"Landkreis"},"federalState":{"key":"03","name":"Niedersachsen"}},{"name":"Mozartstr.","postalCode":"29633","locality":"Munster","municipality":{"key":"03358016","name":"Munster, Stadt","type":"Stadt"},"district":{"key":"03358","name":"Heidekreis","type":"Landkreis"},"federalState":{"key":"03","name":"Niedersachsen"}},{"name":"Muncloh","postalCode":"29633","locality":"Munster","municipality":{"key":"03358016","name":"Munster, Stadt","type":"Stadt"},"district":{"key":"03358","name":"Heidekreis","type":"Landkreis"},"federalState":{"key":"03","name":"Niedersachsen"}},{"name":"Neue Str.","postalCode":"29633","locality":"Munster","municipality":{"key":"03358016","name":"Munster, Stadt","type":"Stadt"},"district":{"key":"03358","name":"Heidekreis","type":"Landkreis"},"federalState":{"key":"03","name":"Niedersachsen"}},{"name":"Neumärkerplatz","postalCode":"29633","locality":"Munster","municipality":{"key":"03358016","name":"Munster, Stadt","type":"Stadt"},"district":{"key":"03358","name":"Heidekreis","type":"Landkreis"},"federalState":{"key":"03","name":"Niedersachsen"}},{"name":"Niedersachsenweg","postalCode":"29633","locality":"Munster","municipality":{"key":"03358016","name":"Munster, Stadt","type":"Stadt"},"district":{"key":"03358","name":"Heidekreis","type":"Landkreis"},"federalState":{"key":"03","name":"Niedersachsen"}},{"name":"Norddurchlass","postalCode":"29565","locality":"Munster","municipality":{"key":"03358016","name":"Munster, Stadt","type":"Stadt"},"district":{"key":"03358","name":"Heidekreis","type":"Landkreis"},"federalState":{"key":"03","name":"Niedersachsen"}},{"name":"Norddurchlass","postalCode":"29633","locality":"Munster","municipality":{"key":"03358016","name":"Munster, Stadt","type":"Stadt"},"district":{"key":"03358","name":"Heidekreis","type":"Landkreis"},"federalState":{"key":"03","name":"Niedersachsen"}},{"name":"Nordstr.","postalCode":"29633","locality":"Munster","municipality":{"key":"03358016","name":"Munster, Stadt","type":"Stadt"},"district":{"key":"03358","name":"Heidekreis","type":"Landkreis"},"federalState":{"key":"03","name":"Niedersachsen"}},{"name":"Oerreler Weg","postalCode":"29633","locality":"Munster","municipality":{"key":"03358016","name":"Munster, Stadt","type":"Stadt"},"district":{"key":"03358","name":"Heidekreis","type":"Landkreis"},"federalState":{"key":"03","name":"Niedersachsen"}},{"name":"Ostkreuz","postalCode":"29633","locality":"Munster","municipality":{"key":"03358016","name":"Munster, Stadt","type":"Stadt"},"district":{"key":"03358","name":"Heidekreis","type":"Landkreis"},"federalState":{"key":"03","name":"Niedersachsen"}},{"name":"Ostmark Str.","postalCode":"29633","locality":"Munster","municipality":{"key":"03358016","name":"Munster, Stadt","type":"Stadt"},"district":{"key":"03358","name":"Heidekreis","type":"Landkreis"},"federalState":{"key":"03","name":"Niedersachsen"}},{"name":"Ostpreußenweg","postalCode":"29633","locality":"Munster","municipality":{"key":"03358016","name":"Munster, Stadt","type":"Stadt"},"district":{"key":"03358","name":"Heidekreis","type":"Landkreis"},"federalState":{"key":"03","name":"Niedersachsen"}},{"name":"Ost-West Schneise","postalCode":"29633","locality":"Munster","municipality":{"key":"03358016","name":"Munster, Stadt","type":"Stadt"},"district":{"key":"03358","name":"Heidekreis","type":"Landkreis"},"federalState":{"key":"03","name":"Niedersachsen"}},{"name":"Otto-Hahn-Ring","postalCode":"29633","locality":"Munster","municipality":{"key":"03358016","name":"Munster, Stadt","type":"Stadt"},"district":{"key":"03358","name":"Heidekreis","type":"Landkreis"},"federalState":{"key":"03","name":"Niedersachsen"}},{"name":"Paul-Ehrlich-Str.","postalCode":"29633","locality":"Munster","municipality":{"key":"03358016","name":"Munster, Stadt","type":"Stadt"},"district":{"key":"03358","name":"Heidekreis","type":"Landkreis"},"federalState":{"key":"03","name":"Niedersachsen"}},{"name":"Pestalozzistr.","postalCode":"29633","locality":"Munster","municipality":{"key":"03358016","name":"Munster, Stadt","type":"Stadt"},"district":{"key":"03358","name":"Heidekreis","type":"Landkreis"},"federalState":{"key":"03","name":"Niedersachsen"}},{"name":"Pommernweg","postalCode":"29633","locality":"Munster","municipality":{"key":"03358016","name":"Munster, Stadt","type":"Stadt"},"district":{"key":"03358","name":"Heidekreis","type":"Landkreis"},"federalState":{"key":"03","name":"Niedersachsen"}},{"name":"Poststr.","postalCode":"29633","locality":"Munster","municipality":{"key":"03358016","name":"Munster, Stadt","type":"Stadt"},"district":{"key":"03358","name":"Heidekreis","type":"Landkreis"},"federalState":{"key":"03","name":"Niedersachsen"}},{"name":"Potsdamer Str.","postalCode":"29633","locality":"Munster","municipality":{"key":"03358016","name":"Munster, Stadt","type":"Stadt"},"district":{"key":"03358","name":"Heidekreis","type":"Landkreis"},"federalState":{"key":"03","name":"Niedersachsen"}},{"name":"Probstallee","postalCode":"29633","locality":"Munster","municipality":{"key":"03358016","name":"Munster, Stadt","type":"Stadt"},"district":{"key":"03358","name":"Heidekreis","type":"Landkreis"},"federalState":{"key":"03","name":"Niedersachsen"}},{"name":"Querweg","postalCode":"29633","locality":"Munster","municipality":{"key":"03358016","name":"Munster, Stadt","type":"Stadt"},"district":{"key":"03358","name":"Heidekreis","type":"Landkreis"},"federalState":{"key":"03","name":"Niedersachsen"}},{"name":"Radcliffweg","postalCode":"29633","locality":"Munster","municipality":{"key":"03358016","name":"Munster, Stadt","type":"Stadt"},"district":{"key":"03358","name":"Heidekreis","type":"Landkreis"},"federalState":{"key":"03","name":"Niedersachsen"}},{"name":"Regenfeld","postalCode":"29633","locality":"Munster","municipality":{"key":"03358016","name":"Munster, Stadt","type":"Stadt"},"district":{"key":"03358","name":"Heidekreis","type":"Landkreis"},"federalState":{"key":"03","name":"Niedersachsen"}},{"name":"Rehrhofer Weg","postalCode":"29633","locality":"Munster","municipality":{"key":"03358016","name":"Munster, Stadt","type":"Stadt"},"district":{"key":"03358","name":"Heidekreis","type":"Landkreis"},"federalState":{"key":"03","name":"Niedersachsen"}},{"name":"Reiherstieg","postalCode":"29633","locality":"Munster","municipality":{"key":"03358016","name":"Munster, Stadt","type":"Stadt"},"district":{"key":"03358","name":"Heidekreis","type":"Landkreis"},"federalState":{"key":"03","name":"Niedersachsen"}},{"name":"Robert-Koch-Ring","postalCode":"29633","locality":"Munster","municipality":{"key":"03358016","name":"Munster, Stadt","type":"Stadt"},"district":{"key":"03358","name":"Heidekreis","type":"Landkreis"},"federalState":{"key":"03","name":"Niedersachsen"}},{"name":"Robert-Stratmann-Weg","postalCode":"29633","locality":"Munster","municipality":{"key":"03358016","name":"Munster, Stadt","type":"Stadt"},"district":{"key":"03358","name":"Heidekreis","type":"Landkreis"},"federalState":{"key":"03","name":"Niedersachsen"}},{"name":"Roggenkamp","postalCode":"29633","locality":"Munster","municipality":{"key":"03358016","name":"Munster, Stadt","type":"Stadt"},"district":{"key":"03358","name":"Heidekreis","type":"Landkreis"},"federalState":{"key":"03","name":"Niedersachsen"}},{"name":"Rohrammerweg","postalCode":"29633","locality":"Munster","municipality":{"key":"03358016","name":"Munster, Stadt","type":"Stadt"},"district":{"key":"03358","name":"Heidekreis","type":"Landkreis"},"federalState":{"key":"03","name":"Niedersachsen"}},{"name":"Röhrkamp","postalCode":"29633","locality":"Munster","municipality":{"key":"03358016","name":"Munster, Stadt","type":"Stadt"},"district":{"key":"03358","name":"Heidekreis","type":"Landkreis"},"federalState":{"key":"03","name":"Niedersachsen"}},{"name":"Rommelstr.","postalCode":"29633","locality":"Munster","municipality":{"key":"03358016","name":"Munster, Stadt","type":"Stadt"},"district":{"key":"03358","name":"Heidekreis","type":"Landkreis"},"federalState":{"key":"03","name":"Niedersachsen"}},{"name":"Rosenstr.","postalCode":"29633","locality":"Munster","municipality":{"key":"03358016","name":"Munster, Stadt","type":"Stadt"},"district":{"key":"03358","name":"Heidekreis","type":"Landkreis"},"federalState":{"key":"03","name":"Niedersachsen"}},{"name":"Röthemoor","postalCode":"29633","locality":"Munster","municipality":{"key":"03358016","name":"Munster, Stadt","type":"Stadt"},"district":{"key":"03358","name":"Heidekreis","type":"Landkreis"},"federalState":{"key":"03","name":"Niedersachsen"}},{"name":"Rübezahlweg","postalCode":"29633","locality":"Munster","municipality":{"key":"03358016","name":"Munster, Stadt","type":"Stadt"},"district":{"key":"03358","name":"Heidekreis","type":"Landkreis"},"federalState":{"key":"03","name":"Niedersachsen"}},{"name":"Runde Str.","postalCode":"29633","locality":"Munster","municipality":{"key":"03358016","name":"Munster, Stadt","type":"Stadt"},"district":{"key":"03358","name":"Heidekreis","type":"Landkreis"},"federalState":{"key":"03","name":"Niedersachsen"}},{"name":"Salzwedeler Str.","postalCode":"29633","locality":"Munster","municipality":{"key":"03358016","name":"Munster, Stadt","type":"Stadt"},"district":{"key":"03358","name":"Heidekreis","type":"Landkreis"},"federalState":{"key":"03","name":"Niedersachsen"}},{"name":"Sandgarten","postalCode":"29633","locality":"Munster","municipality":{"key":"03358016","name":"Munster, Stadt","type":"Stadt"},"district":{"key":"03358","name":"Heidekreis","type":"Landkreis"},"federalState":{"key":"03","name":"Niedersachsen"}},{"name":"Sandkrugweg","postalCode":"29633","locality":"Munster","municipality":{"key":"03358016","name":"Munster, Stadt","type":"Stadt"},"district":{"key":"03358","name":"Heidekreis","type":"Landkreis"},"federalState":{"key":"03","name":"Niedersachsen"}},{"name":"Schilfweg","postalCode":"29633","locality":"Munster","municipality":{"key":"03358016","name":"Munster, Stadt","type":"Stadt"},"district":{"key":"03358","name":"Heidekreis","type":"Landkreis"},"federalState":{"key":"03","name":"Niedersachsen"}},{"name":"Schlehenweg","postalCode":"29633","locality":"Munster","municipality":{"key":"03358016","name":"Munster, Stadt","type":"Stadt"},"district":{"key":"03358","name":"Heidekreis","type":"Landkreis"},"federalState":{"key":"03","name":"Niedersachsen"}},{"name":"Schleienweg","postalCode":"29633","locality":"Munster","municipality":{"key":"03358016","name":"Munster, Stadt","type":"Stadt"},"district":{"key":"03358","name":"Heidekreis","type":"Landkreis"},"federalState":{"key":"03","name":"Niedersachsen"}},{"name":"Schlesierweg","postalCode":"29633","locality":"Munster","municipality":{"key":"03358016","name":"Munster, Stadt","type":"Stadt"},"district":{"key":"03358","name":"Heidekreis","type":"Landkreis"},"federalState":{"key":"03","name":"Niedersachsen"}},{"name":"Schmiedestr.","postalCode":"29633","locality":"Munster","municipality":{"key":"03358016","name":"Munster, Stadt","type":"Stadt"},"district":{"key":"03358","name":"Heidekreis","type":"Landkreis"},"federalState":{"key":"03","name":"Niedersachsen"}},{"name":"Schulstr.","postalCode":"29633","locality":"Munster","municipality":{"key":"03358016","name":"Munster, Stadt","type":"Stadt"},"district":{"key":"03358","name":"Heidekreis","type":"Landkreis"},"federalState":{"key":"03","name":"Niedersachsen"}},{"name":"Schweriner Str.","postalCode":"29633","locality":"Munster","municipality":{"key":"03358016","name":"Munster, Stadt","type":"Stadt"},"district":{"key":"03358","name":"Heidekreis","type":"Landkreis"},"federalState":{"key":"03","name":"Niedersachsen"}},{"name":"Sieben Stücke","postalCode":"29633","locality":"Munster","municipality":{"key":"03358016","name":"Munster, Stadt","type":"Stadt"},"district":{"key":"03358","name":"Heidekreis","type":"Landkreis"},"federalState":{"key":"03","name":"Niedersachsen"}},{"name":"Söhlstr.","postalCode":"29633","locality":"Munster","municipality":{"key":"03358016","name":"Munster, Stadt","type":"Stadt"},"district":{"key":"03358","name":"Heidekreis","type":"Landkreis"},"federalState":{"key":"03","name":"Niedersachsen"}},{"name":"Soldiner Str.","postalCode":"29633","locality":"Munster","municipality":{"key":"03358016","name":"Munster, Stadt","type":"Stadt"},"district":{"key":"03358","name":"Heidekreis","type":"Landkreis"},"federalState":{"key":"03","name":"Niedersachsen"}},{"name":"Soltauer Str.","postalCode":"29633","locality":"Munster","municipality":{"key":"03358016","name":"Munster, Stadt","type":"Stadt"},"district":{"key":"03358","name":"Heidekreis","type":"Landkreis"},"federalState":{"key":"03","name":"Niedersachsen"}},{"name":"Sonnentauweg","postalCode":"29633","locality":"Munster","municipality":{"key":"03358016","name":"Munster, Stadt","type":"Stadt"},"district":{"key":"03358","name":"Heidekreis","type":"Landkreis"},"federalState":{"key":"03","name":"Niedersachsen"}},{"name":"Sonnenweg","postalCode":"29633","locality":"Munster","municipality":{"key":"03358016","name":"Munster, Stadt","type":"Stadt"},"district":{"key":"03358","name":"Heidekreis","type":"Landkreis"},"federalState":{"key":"03","name":"Niedersachsen"}},{"name":"Speckenmoor","postalCode":"29633","locality":"Munster","municipality":{"key":"03358016","name":"Munster, Stadt","type":"Stadt"},"district":{"key":"03358","name":"Heidekreis","type":"Landkreis"},"federalState":{"key":"03","name":"Niedersachsen"}},{"name":"Sperbergasse","postalCode":"29633","locality":"Munster","municipality":{"key":"03358016","name":"Munster, Stadt","type":"Stadt"},"district":{"key":"03358","name":"Heidekreis","type":"Landkreis"},"federalState":{"key":"03","name":"Niedersachsen"}},{"name":"Sportanlagen","postalCode":"29633","locality":"Munster","municipality":{"key":"03358016","name":"Munster, Stadt","type":"Stadt"},"district":{"key":"03358","name":"Heidekreis","type":"Landkreis"},"federalState":{"key":"03","name":"Niedersachsen"}},{"name":"Steinkamp","postalCode":"29633","locality":"Munster","municipality":{"key":"03358016","name":"Munster, Stadt","type":"Stadt"},"district":{"key":"03358","name":"Heidekreis","type":"Landkreis"},"federalState":{"key":"03","name":"Niedersachsen"}},{"name":"Stettiner Str.","postalCode":"29633","locality":"Munster","municipality":{"key":"03358016","name":"Munster, Stadt","type":"Stadt"},"district":{"key":"03358","name":"Heidekreis","type":"Landkreis"},"federalState":{"key":"03","name":"Niedersachsen"}},{"name":"Storchenweg","postalCode":"29633","locality":"Munster","municipality":{"key":"03358016","name":"Munster, Stadt","type":"Stadt"},"district":{"key":"03358","name":"Heidekreis","type":"Landkreis"},"federalState":{"key":"03","name":"Niedersachsen"}},{"name":"Struckwiese","postalCode":"29633","locality":"Munster","municipality":{"key":"03358016","name":"Munster, Stadt","type":"Stadt"},"district":{"key":"03358","name":"Heidekreis","type":"Landkreis"},"federalState":{"key":"03","name":"Niedersachsen"}},{"name":"Stübeckshorner Weg","postalCode":"29565","locality":"Munster","municipality":{"key":"03358016","name":"Munster, Stadt","type":"Stadt"},"district":{"key":"03358","name":"Heidekreis","type":"Landkreis"},"federalState":{"key":"03","name":"Niedersachsen"}},{"name":"Studtmannshof","postalCode":"29633","locality":"Munster","municipality":{"key":"03358016","name":"Munster, Stadt","type":"Stadt"},"district":{"key":"03358","name":"Heidekreis","type":"Landkreis"},"federalState":{"key":"03","name":"Niedersachsen"}},{"name":"Sudetenstr.","postalCode":"29633","locality":"Munster","municipality":{"key":"03358016","name":"Munster, Stadt","type":"Stadt"},"district":{"key":"03358","name":"Heidekreis","type":"Landkreis"},"federalState":{"key":"03","name":"Niedersachsen"}},{"name":"Südkamp","postalCode":"29633","locality":"Munster","municipality":{"key":"03358016","name":"Munster, Stadt","type":"Stadt"},"district":{"key":"03358","name":"Heidekreis","type":"Landkreis"},"federalState":{"key":"03","name":"Niedersachsen"}},{"name":"Südkreuz","postalCode":"29633","locality":"Munster","municipality":{"key":"03358016","name":"Munster, Stadt","type":"Stadt"},"district":{"key":"03358","name":"Heidekreis","type":"Landkreis"},"federalState":{"key":"03","name":"Niedersachsen"}},{"name":"Tannenweg","postalCode":"29633","locality":"Munster","municipality":{"key":"03358016","name":"Munster, Stadt","type":"Stadt"},"district":{"key":"03358","name":"Heidekreis","type":"Landkreis"},"federalState":{"key":"03","name":"Niedersachsen"}},{"name":"Tilsiter Str.","postalCode":"29633","locality":"Munster","municipality":{"key":"03358016","name":"Munster, Stadt","type":"Stadt"},"district":{"key":"03358","name":"Heidekreis","type":"Landkreis"},"federalState":{"key":"03","name":"Niedersachsen"}},{"name":"Töpingen","postalCode":"29633","locality":"Munster","municipality":{"key":"03358016","name":"Munster, Stadt","type":"Stadt"},"district":{"key":"03358","name":"Heidekreis","type":"Landkreis"},"federalState":{"key":"03","name":"Niedersachsen"}},{"name":"Töpinger Kreuz","postalCode":"29633","locality":"Munster","municipality":{"key":"03358016","name":"Munster, Stadt","type":"Stadt"},"district":{"key":"03358","name":"Heidekreis","type":"Landkreis"},"federalState":{"key":"03","name":"Niedersachsen"}},{"name":"Töpinger Str.","postalCode":"29633","locality":"Munster","municipality":{"key":"03358016","name":"Munster, Stadt","type":"Stadt"},"district":{"key":"03358","name":"Heidekreis","type":"Landkreis"},"federalState":{"key":"03","name":"Niedersachsen"}},{"name":"Torfweg","postalCode":"29633","locality":"Munster","municipality":{"key":"03358016","name":"Munster, Stadt","type":"Stadt"},"district":{"key":"03358","name":"Heidekreis","type":"Landkreis"},"federalState":{"key":"03","name":"Niedersachsen"}},{"name":"Tristacher Str.","postalCode":"29633","locality":"Munster","municipality":{"key":"03358016","name":"Munster, Stadt","type":"Stadt"},"district":{"key":"03358","name":"Heidekreis","type":"Landkreis"},"federalState":{"key":"03","name":"Niedersachsen"}},{"name":"Turmweg","postalCode":"29633","locality":"Munster","municipality":{"key":"03358016","name":"Munster, Stadt","type":"Stadt"},"district":{"key":"03358","name":"Heidekreis","type":"Landkreis"},"federalState":{"key":"03","name":"Niedersachsen"}},{"name":"Uelzener Str.","postalCode":"29633","locality":"Munster","municipality":{"key":"03358016","name":"Munster, Stadt","type":"Stadt"},"district":{"key":"03358","name":"Heidekreis","type":"Landkreis"},"federalState":{"key":"03","name":"Niedersachsen"}},{"name":"Uhlenflucht","postalCode":"29633","locality":"Munster","municipality":{"key":"03358016","name":"Munster, Stadt","type":"Stadt"},"district":{"key":"03358","name":"Heidekreis","type":"Landkreis"},"federalState":{"key":"03","name":"Niedersachsen"}},{"name":"Ulmenhof","postalCode":"29633","locality":"Munster","municipality":{"key":"03358016","name":"Munster, Stadt","type":"Stadt"},"district":{"key":"03358","name":"Heidekreis","type":"Landkreis"},"federalState":{"key":"03","name":"Niedersachsen"}},{"name":"Unkenweg","postalCode":"29633","locality":"Munster","municipality":{"key":"03358016","name":"Munster, Stadt","type":"Stadt"},"district":{"key":"03358","name":"Heidekreis","type":"Landkreis"},"federalState":{"key":"03","name":"Niedersachsen"}},{"name":"Unnenkamp","postalCode":"29633","locality":"Munster","municipality":{"key":"03358016","name":"Munster, Stadt","type":"Stadt"},"district":{"key":"03358","name":"Heidekreis","type":"Landkreis"},"federalState":{"key":"03","name":"Niedersachsen"}},{"name":"Unter den Buchen","postalCode":"29633","locality":"Munster","municipality":{"key":"03358016","name":"Munster, Stadt","type":"Stadt"},"district":{"key":"03358","name":"Heidekreis","type":"Landkreis"},"federalState":{"key":"03","name":"Niedersachsen"}},{"name":"Veestherrnweg","postalCode":"29633","locality":"Munster","municipality":{"key":"03358016","name":"Munster, Stadt","type":"Stadt"},"district":{"key":"03358","name":"Heidekreis","type":"Landkreis"},"federalState":{"key":"03","name":"Niedersachsen"}},{"name":"Vogelbeerhecke","postalCode":"29633","locality":"Munster","municipality":{"key":"03358016","name":"Munster, Stadt","type":"Stadt"},"district":{"key":"03358","name":"Heidekreis","type":"Landkreis"},"federalState":{"key":"03","name":"Niedersachsen"}},{"name":"Von-der-Meden-Weg","postalCode":"29633","locality":"Munster","municipality":{"key":"03358016","name":"Munster, Stadt","type":"Stadt"},"district":{"key":"03358","name":"Heidekreis","type":"Landkreis"},"federalState":{"key":"03","name":"Niedersachsen"}},{"name":"Wacholdergrund","postalCode":"29633","locality":"Munster","municipality":{"key":"03358016","name":"Munster, Stadt","type":"Stadt"},"district":{"key":"03358","name":"Heidekreis","type":"Landkreis"},"federalState":{"key":"03","name":"Niedersachsen"}},{"name":"Wagnerstr.","postalCode":"29633","locality":"Munster","municipality":{"key":"03358016","name":"Munster, Stadt","type":"Stadt"},"district":{"key":"03358","name":"Heidekreis","type":"Landkreis"},"federalState":{"key":"03","name":"Niedersachsen"}},{"name":"Waldstr.","postalCode":"29633","locality":"Munster","municipality":{"key":"03358016","name":"Munster, Stadt","type":"Stadt"},"district":{"key":"03358","name":"Heidekreis","type":"Landkreis"},"federalState":{"key":"03","name":"Niedersachsen"}},{"name":"Walter-Heinzel-Weg","postalCode":"29633","locality":"Munster","municipality":{"key":"03358016","name":"Munster, Stadt","type":"Stadt"},"district":{"key":"03358","name":"Heidekreis","type":"Landkreis"},"federalState":{"key":"03","name":"Niedersachsen"}},{"name":"Weißdornweg","postalCode":"29633","locality":"Munster","municipality":{"key":"03358016","name":"Munster, Stadt","type":"Stadt"},"district":{"key":"03358","name":"Heidekreis","type":"Landkreis"},"federalState":{"key":"03","name":"Niedersachsen"}},{"name":"Welfenhof","postalCode":"29633","locality":"Munster","municipality":{"key":"03358016","name":"Munster, Stadt","type":"Stadt"},"district":{"key":"03358","name":"Heidekreis","type":"Landkreis"},"federalState":{"key":"03","name":"Niedersachsen"}},{"name":"Werner-Knebel-Weg","postalCode":"29633","locality":"Munster","municipality":{"key":"03358016","name":"Munster, Stadt","type":"Stadt"},"district":{"key":"03358","name":"Heidekreis","type":"Landkreis"},"federalState":{"key":"03","name":"Niedersachsen"}},{"name":"Wiesenstr.","postalCode":"29633","locality":"Munster","municipality":{"key":"03358016","name":"Munster, Stadt","type":"Stadt"},"district":{"key":"03358","name":"Heidekreis","type":"Landkreis"},"federalState":{"key":"03","name":"Niedersachsen"}},{"name":"Wietzendorfer Weg","postalCode":"29633","locality":"Munster","municipality":{"key":"03358016","name":"Munster, Stadt","type":"Stadt"},"district":{"key":"03358","name":"Heidekreis","type":"Landkreis"},"federalState":{"key":"03","name":"Niedersachsen"}},{"name":"Wietzerberg","postalCode":"29633","locality":"Munster","municipality":{"key":"03358016","name":"Munster, Stadt","type":"Stadt"},"district":{"key":"03358","name":"Heidekreis","type":"Landkreis"},"federalState":{"key":"03","name":"Niedersachsen"}},{"name":"Wildackerweg","postalCode":"29633","locality":"Munster","municipality":{"key":"03358016","name":"Munster, Stadt","type":"Stadt"},"district":{"key":"03358","name":"Heidekreis","type":"Landkreis"},"federalState":{"key":"03","name":"Niedersachsen"}},{"name":"Wilhelm-Bockelmann-Str.","postalCode":"29633","locality":"Munster","municipality":{"key":"03358016","name":"Munster, Stadt","type":"Stadt"},"district":{"key":"03358","name":"Heidekreis","type":"Landkreis"},"federalState":{"key":"03","name":"Niedersachsen"}},{"name":"Winkelmannshof","postalCode":"29633","locality":"Munster","municipality":{"key":"03358016","name":"Munster, Stadt","type":"Stadt"},"district":{"key":"03358","name":"Heidekreis","type":"Landkreis"},"federalState":{"key":"03","name":"Niedersachsen"}},{"name":"Wittekindgrund","postalCode":"29633","locality":"Munster","municipality":{"key":"03358016","name":"Munster, Stadt","type":"Stadt"},"district":{"key":"03358","name":"Heidekreis","type":"Landkreis"},"federalState":{"key":"03","name":"Niedersachsen"}},{"name":"Wolfsbahn","postalCode":"29633","locality":"Munster","municipality":{"key":"03358016","name":"Munster, Stadt","type":"Stadt"},"district":{"key":"03358","name":"Heidekreis","type":"Landkreis"},"federalState":{"key":"03","name":"Niedersachsen"}},{"name":"Wolfsloh","postalCode":"29633","locality":"Munster","municipality":{"key":"03358016","name":"Munster, Stadt","type":"Stadt"},"district":{"key":"03358","name":"Heidekreis","type":"Landkreis"},"federalState":{"key":"03","name":"Niedersachsen"}},{"name":"Wollgrasweg","postalCode":"29633","locality":"Munster","municipality":{"key":"03358016","name":"Munster, Stadt","type":"Stadt"},"district":{"key":"03358","name":"Heidekreis","type":"Landkreis"},"federalState":{"key":"03","name":"Niedersachsen"}},{"name":"Worthweg","postalCode":"29633","locality":"Munster","municipality":{"key":"03358016","name":"Munster, Stadt","type":"Stadt"},"district":{"key":"03358","name":"Heidekreis","type":"Landkreis"},"federalState":{"key":"03","name":"Niedersachsen"}},{"name":"Zahrenhusenweg","postalCode":"29633","locality":"Munster","municipality":{"key":"03358016","name":"Munster, Stadt","type":"Stadt"},"district":{"key":"03358","name":"Heidekreis","type":"Landkreis"},"federalState":{"key":"03","name":"Niedersachsen"}},{"name":"Zanderweg","postalCode":"29633","locality":"Munster","municipality":{"key":"03358016","name":"Munster, Stadt","type":"Stadt"},"district":{"key":"03358","name":"Heidekreis","type":"Landkreis"},"federalState":{"key":"03","name":"Niedersachsen"}},{"name":"Zu den Hatzseen","postalCode":"29633","locality":"Munster","municipality":{"key":"03358016","name":"Munster, Stadt","type":"Stadt"},"district":{"key":"03358","name":"Heidekreis","type":"Landkreis"},"federalState":{"key":"03","name":"Niedersachsen"}},{"name":"Zum Dröbbelsloh","postalCode":"29633","locality":"Munster","municipality":{"key":"03358016","name":"Munster, Stadt","type":"Stadt"},"district":{"key":"03358","name":"Heidekreis","type":"Landkreis"},"federalState":{"key":"03","name":"Niedersachsen"}},{"name":"Zum Kreienberg","postalCode":"29633","locality":"Munster","municipality":{"key":"03358016","name":"Munster, Stadt","type":"Stadt"},"district":{"key":"03358","name":"Heidekreis","type":"Landkreis"},"federalState":{"key":"03","name":"Niedersachsen"}},{"name":"Zum Schützenwald","postalCode":"29633","locality":"Munster","municipality":{"key":"03358016","name":"Munster, Stadt","type":"Stadt"},"district":{"key":"03358","name":"Heidekreis","type":"Landkreis"},"federalState":{"key":"03","name":"Niedersachsen"}},{"name":"Zum Sprötzloh","postalCode":"29633","locality":"Munster","municipality":{"key":"03358016","name":"Munster, Stadt","type":"Stadt"},"district":{"key":"03358","name":"Heidekreis","type":"Landkreis"},"federalState":{"key":"03","name":"Niedersachsen"}},{"name":"Zur Kleinen Örtze","postalCode":"29633","locality":"Munster","municipality":{"key":"03358016","name":"Munster, Stadt","type":"Stadt"},"district":{"key":"03358","name":"Heidekreis","type":"Landkreis"},"federalState":{"key":"03","name":"Niedersachsen"}},]