[{"name":"Ahornring","postalCode":"06467","locality":"Seeland","municipality":{"key":"15089307","name":"Seeland, Stadt","type":"Stadt"},"district":{"key":"15089","name":"Salzlandkreis","type":"Landkreis"},"federalState":{"key":"15","name":"Sachsen-Anhalt"}},{"name":"Albertstr.","postalCode":"06466","locality":"Seeland","municipality":{"key":"15089307","name":"Seeland, Stadt","type":"Stadt"},"district":{"key":"15089","name":"Salzlandkreis","type":"Landkreis"},"federalState":{"key":"15","name":"Sachsen-Anhalt"}},{"name":"Altdöberner Str.","postalCode":"03103","locality":"Neu-Seeland","municipality":{"key":"12066226","name":"Neu-Seeland/Nowa Jazorina","type":"Kreisangehörige_Gemeinde"},"district":{"key":"12066","name":"Oberspreewald-Lausitz","type":"Landkreis"},"federalState":{"key":"12","name":"Brandenburg"}},{"name":"Alte Topfstr.","postalCode":"06467","locality":"Seeland","municipality":{"key":"15089307","name":"Seeland, Stadt","type":"Stadt"},"district":{"key":"15089","name":"Salzlandkreis","type":"Landkreis"},"federalState":{"key":"15","name":"Sachsen-Anhalt"}},{"name":"Am Anger","postalCode":"06466","locality":"Seeland","municipality":{"key":"15089307","name":"Seeland, Stadt","type":"Stadt"},"district":{"key":"15089","name":"Salzlandkreis","type":"Landkreis"},"federalState":{"key":"15","name":"Sachsen-Anhalt"}},{"name":"Am Bahnhof","postalCode":"06469","locality":"Seeland","municipality":{"key":"15089307","name":"Seeland, Stadt","type":"Stadt"},"district":{"key":"15089","name":"Salzlandkreis","type":"Landkreis"},"federalState":{"key":"15","name":"Sachsen-Anhalt"}},{"name":"Am Funkturm","postalCode":"03103","locality":"Neu-Seeland","municipality":{"key":"12066226","name":"Neu-Seeland/Nowa Jazorina","type":"Kreisangehörige_Gemeinde"},"district":{"key":"12066","name":"Oberspreewald-Lausitz","type":"Landkreis"},"federalState":{"key":"12","name":"Brandenburg"}},{"name":"Am Gieseckenberg","postalCode":"06467","locality":"Seeland","municipality":{"key":"15089307","name":"Seeland, Stadt","type":"Stadt"},"district":{"key":"15089","name":"Salzlandkreis","type":"Landkreis"},"federalState":{"key":"15","name":"Sachsen-Anhalt"}},{"name":"Am Holzanger","postalCode":"06466","locality":"Seeland","municipality":{"key":"15089307","name":"Seeland, Stadt","type":"Stadt"},"district":{"key":"15089","name":"Salzlandkreis","type":"Landkreis"},"federalState":{"key":"15","name":"Sachsen-Anhalt"}},{"name":"Am Kantor Kamp","postalCode":"06466","locality":"Seeland","municipality":{"key":"15089307","name":"Seeland, Stadt","type":"Stadt"},"district":{"key":"15089","name":"Salzlandkreis","type":"Landkreis"},"federalState":{"key":"15","name":"Sachsen-Anhalt"}},{"name":"Am neuen Ring","postalCode":"06469","locality":"Seeland","municipality":{"key":"15089307","name":"Seeland, Stadt","type":"Stadt"},"district":{"key":"15089","name":"Salzlandkreis","type":"Landkreis"},"federalState":{"key":"15","name":"Sachsen-Anhalt"}},{"name":"Am Pappelweg","postalCode":"06464","locality":"Seeland","municipality":{"key":"15089307","name":"Seeland, Stadt","type":"Stadt"},"district":{"key":"15089","name":"Salzlandkreis","type":"Landkreis"},"federalState":{"key":"15","name":"Sachsen-Anhalt"}},{"name":"Am Schwabeplan","postalCode":"06466","locality":"Seeland","municipality":{"key":"15089307","name":"Seeland, Stadt","type":"Stadt"},"district":{"key":"15089","name":"Salzlandkreis","type":"Landkreis"},"federalState":{"key":"15","name":"Sachsen-Anhalt"}},{"name":"Amselweg","postalCode":"06466","locality":"Seeland","municipality":{"key":"15089307","name":"Seeland, Stadt","type":"Stadt"},"district":{"key":"15089","name":"Salzlandkreis","type":"Landkreis"},"federalState":{"key":"15","name":"Sachsen-Anhalt"}},{"name":"Amselweg","postalCode":"06467","locality":"Seeland","municipality":{"key":"15089307","name":"Seeland, Stadt","type":"Stadt"},"district":{"key":"15089","name":"Salzlandkreis","type":"Landkreis"},"federalState":{"key":"15","name":"Sachsen-Anhalt"}},{"name":"Am Wassertrum","postalCode":"06464","locality":"Seeland","municipality":{"key":"15089307","name":"Seeland, Stadt","type":"Stadt"},"district":{"key":"15089","name":"Salzlandkreis","type":"Landkreis"},"federalState":{"key":"15","name":"Sachsen-Anhalt"}},{"name":"Am Wasserturm","postalCode":"06464","locality":"Seeland","municipality":{"key":"15089307","name":"Seeland, Stadt","type":"Stadt"},"district":{"key":"15089","name":"Salzlandkreis","type":"Landkreis"},"federalState":{"key":"15","name":"Sachsen-Anhalt"}},{"name":"Am Wehr","postalCode":"06466","locality":"Seeland","municipality":{"key":"15089307","name":"Seeland, Stadt","type":"Stadt"},"district":{"key":"15089","name":"Salzlandkreis","type":"Landkreis"},"federalState":{"key":"15","name":"Sachsen-Anhalt"}},{"name":"Am Weinberg","postalCode":"06449","locality":"Seeland","municipality":{"key":"15089307","name":"Seeland, Stadt","type":"Stadt"},"district":{"key":"15089","name":"Salzlandkreis","type":"Landkreis"},"federalState":{"key":"15","name":"Sachsen-Anhalt"}},{"name":"Am Wiesenweg","postalCode":"03103","locality":"Neu-Seeland","municipality":{"key":"12066226","name":"Neu-Seeland/Nowa Jazorina","type":"Kreisangehörige_Gemeinde"},"district":{"key":"12066","name":"Oberspreewald-Lausitz","type":"Landkreis"},"federalState":{"key":"12","name":"Brandenburg"}},{"name":"An der Alten Mühle","postalCode":"06466","locality":"Seeland","municipality":{"key":"15089307","name":"Seeland, Stadt","type":"Stadt"},"district":{"key":"15089","name":"Salzlandkreis","type":"Landkreis"},"federalState":{"key":"15","name":"Sachsen-Anhalt"}},{"name":"An der Kirche","postalCode":"06449","locality":"Seeland","municipality":{"key":"15089307","name":"Seeland, Stadt","type":"Stadt"},"district":{"key":"15089","name":"Salzlandkreis","type":"Landkreis"},"federalState":{"key":"15","name":"Sachsen-Anhalt"}},{"name":"An der Kirche","postalCode":"06467","locality":"Seeland","municipality":{"key":"15089307","name":"Seeland, Stadt","type":"Stadt"},"district":{"key":"15089","name":"Salzlandkreis","type":"Landkreis"},"federalState":{"key":"15","name":"Sachsen-Anhalt"}},{"name":"Anger","postalCode":"06449","locality":"Seeland","municipality":{"key":"15089307","name":"Seeland, Stadt","type":"Stadt"},"district":{"key":"15089","name":"Salzlandkreis","type":"Landkreis"},"federalState":{"key":"15","name":"Sachsen-Anhalt"}},{"name":"Angerstr.","postalCode":"06467","locality":"Seeland","municipality":{"key":"15089307","name":"Seeland, Stadt","type":"Stadt"},"district":{"key":"15089","name":"Salzlandkreis","type":"Landkreis"},"federalState":{"key":"15","name":"Sachsen-Anhalt"}},{"name":"Ascherslebener Str.","postalCode":"06464","locality":"Seeland","municipality":{"key":"15089307","name":"Seeland, Stadt","type":"Stadt"},"district":{"key":"15089","name":"Salzlandkreis","type":"Landkreis"},"federalState":{"key":"15","name":"Sachsen-Anhalt"}},{"name":"Ascherslebener Str.","postalCode":"06467","locality":"Seeland","municipality":{"key":"15089307","name":"Seeland, Stadt","type":"Stadt"},"district":{"key":"15089","name":"Salzlandkreis","type":"Landkreis"},"federalState":{"key":"15","name":"Sachsen-Anhalt"}},{"name":"Bäckerstr.","postalCode":"06449","locality":"Seeland","municipality":{"key":"15089307","name":"Seeland, Stadt","type":"Stadt"},"district":{"key":"15089","name":"Salzlandkreis","type":"Landkreis"},"federalState":{"key":"15","name":"Sachsen-Anhalt"}},{"name":"Badstubenstr.","postalCode":"06467","locality":"Seeland","municipality":{"key":"15089307","name":"Seeland, Stadt","type":"Stadt"},"district":{"key":"15089","name":"Salzlandkreis","type":"Landkreis"},"federalState":{"key":"15","name":"Sachsen-Anhalt"}},{"name":"Bahnhofstr.","postalCode":"06464","locality":"Seeland","municipality":{"key":"15089307","name":"Seeland, Stadt","type":"Stadt"},"district":{"key":"15089","name":"Salzlandkreis","type":"Landkreis"},"federalState":{"key":"15","name":"Sachsen-Anhalt"}},{"name":"Bahnhofstr.","postalCode":"06466","locality":"Seeland","municipality":{"key":"15089307","name":"Seeland, Stadt","type":"Stadt"},"district":{"key":"15089","name":"Salzlandkreis","type":"Landkreis"},"federalState":{"key":"15","name":"Sachsen-Anhalt"}},{"name":"Bahnhofstr.","postalCode":"06469","locality":"Seeland","municipality":{"key":"15089307","name":"Seeland, Stadt","type":"Stadt"},"district":{"key":"15089","name":"Salzlandkreis","type":"Landkreis"},"federalState":{"key":"15","name":"Sachsen-Anhalt"}},{"name":"Bahnsdorfer Dorfstr.","postalCode":"03103","locality":"Neu-Seeland","municipality":{"key":"12066226","name":"Neu-Seeland/Nowa Jazorina","type":"Kreisangehörige_Gemeinde"},"district":{"key":"12066","name":"Oberspreewald-Lausitz","type":"Landkreis"},"federalState":{"key":"12","name":"Brandenburg"}},{"name":"Bahnsdorfer Weg","postalCode":"03103","locality":"Neu-Seeland","municipality":{"key":"12066226","name":"Neu-Seeland/Nowa Jazorina","type":"Kreisangehörige_Gemeinde"},"district":{"key":"12066","name":"Oberspreewald-Lausitz","type":"Landkreis"},"federalState":{"key":"12","name":"Brandenburg"}},{"name":"Ballenstedter Str.","postalCode":"06466","locality":"Seeland","municipality":{"key":"15089307","name":"Seeland, Stadt","type":"Stadt"},"district":{"key":"15089","name":"Salzlandkreis","type":"Landkreis"},"federalState":{"key":"15","name":"Sachsen-Anhalt"}},{"name":"Ballenstedter Str.","postalCode":"06467","locality":"Seeland","municipality":{"key":"15089307","name":"Seeland, Stadt","type":"Stadt"},"district":{"key":"15089","name":"Salzlandkreis","type":"Landkreis"},"federalState":{"key":"15","name":"Sachsen-Anhalt"}},{"name":"Bauernstr.","postalCode":"06449","locality":"Seeland","municipality":{"key":"15089307","name":"Seeland, Stadt","type":"Stadt"},"district":{"key":"15089","name":"Salzlandkreis","type":"Landkreis"},"federalState":{"key":"15","name":"Sachsen-Anhalt"}},{"name":"Bauerntränke","postalCode":"06449","locality":"Seeland","municipality":{"key":"15089307","name":"Seeland, Stadt","type":"Stadt"},"district":{"key":"15089","name":"Salzlandkreis","type":"Landkreis"},"federalState":{"key":"15","name":"Sachsen-Anhalt"}},{"name":"Bergstr.","postalCode":"06449","locality":"Seeland","municipality":{"key":"15089307","name":"Seeland, Stadt","type":"Stadt"},"district":{"key":"15089","name":"Salzlandkreis","type":"Landkreis"},"federalState":{"key":"15","name":"Sachsen-Anhalt"}},{"name":"Bergstr.","postalCode":"06467","locality":"Seeland","municipality":{"key":"15089307","name":"Seeland, Stadt","type":"Stadt"},"district":{"key":"15089","name":"Salzlandkreis","type":"Landkreis"},"federalState":{"key":"15","name":"Sachsen-Anhalt"}},{"name":"Bergwinkel","postalCode":"06449","locality":"Seeland","municipality":{"key":"15089307","name":"Seeland, Stadt","type":"Stadt"},"district":{"key":"15089","name":"Salzlandkreis","type":"Landkreis"},"federalState":{"key":"15","name":"Sachsen-Anhalt"}},{"name":"Birkenstr.","postalCode":"06467","locality":"Seeland","municipality":{"key":"15089307","name":"Seeland, Stadt","type":"Stadt"},"district":{"key":"15089","name":"Salzlandkreis","type":"Landkreis"},"federalState":{"key":"15","name":"Sachsen-Anhalt"}},{"name":"Brunnenstr.","postalCode":"06449","locality":"Seeland","municipality":{"key":"15089307","name":"Seeland, Stadt","type":"Stadt"},"district":{"key":"15089","name":"Salzlandkreis","type":"Landkreis"},"federalState":{"key":"15","name":"Sachsen-Anhalt"}},{"name":"Buchholzer Weg","postalCode":"03103","locality":"Neu-Seeland","municipality":{"key":"12066226","name":"Neu-Seeland/Nowa Jazorina","type":"Kreisangehörige_Gemeinde"},"district":{"key":"12066","name":"Oberspreewald-Lausitz","type":"Landkreis"},"federalState":{"key":"12","name":"Brandenburg"}},{"name":"Burgweg","postalCode":"06464","locality":"Seeland","municipality":{"key":"15089307","name":"Seeland, Stadt","type":"Stadt"},"district":{"key":"15089","name":"Salzlandkreis","type":"Landkreis"},"federalState":{"key":"15","name":"Sachsen-Anhalt"}},{"name":"Buschstr.","postalCode":"06467","locality":"Seeland","municipality":{"key":"15089307","name":"Seeland, Stadt","type":"Stadt"},"district":{"key":"15089","name":"Salzlandkreis","type":"Landkreis"},"federalState":{"key":"15","name":"Sachsen-Anhalt"}},{"name":"Chausseestr.","postalCode":"06449","locality":"Seeland","municipality":{"key":"15089307","name":"Seeland, Stadt","type":"Stadt"},"district":{"key":"15089","name":"Salzlandkreis","type":"Landkreis"},"federalState":{"key":"15","name":"Sachsen-Anhalt"}},{"name":"Clara-Zetkin-Str.","postalCode":"06464","locality":"Seeland","municipality":{"key":"15089307","name":"Seeland, Stadt","type":"Stadt"},"district":{"key":"15089","name":"Salzlandkreis","type":"Landkreis"},"federalState":{"key":"15","name":"Sachsen-Anhalt"}},{"name":"Cochstedter Str.","postalCode":"06449","locality":"Seeland","municipality":{"key":"15089307","name":"Seeland, Stadt","type":"Stadt"},"district":{"key":"15089","name":"Salzlandkreis","type":"Landkreis"},"federalState":{"key":"15","name":"Sachsen-Anhalt"}},{"name":"Corrensstr.","postalCode":"06466","locality":"Seeland","municipality":{"key":"15089307","name":"Seeland, Stadt","type":"Stadt"},"district":{"key":"15089","name":"Salzlandkreis","type":"Landkreis"},"federalState":{"key":"15","name":"Sachsen-Anhalt"}},{"name":"Darwinstr.","postalCode":"06466","locality":"Seeland","municipality":{"key":"15089307","name":"Seeland, Stadt","type":"Stadt"},"district":{"key":"15089","name":"Salzlandkreis","type":"Landkreis"},"federalState":{"key":"15","name":"Sachsen-Anhalt"}},{"name":"Domäne","postalCode":"06467","locality":"Seeland","municipality":{"key":"15089307","name":"Seeland, Stadt","type":"Stadt"},"district":{"key":"15089","name":"Salzlandkreis","type":"Landkreis"},"federalState":{"key":"15","name":"Sachsen-Anhalt"}},{"name":"Dörrwolfer Weg","postalCode":"03103","locality":"Neu-Seeland","municipality":{"key":"12066226","name":"Neu-Seeland/Nowa Jazorina","type":"Kreisangehörige_Gemeinde"},"district":{"key":"12066","name":"Oberspreewald-Lausitz","type":"Landkreis"},"federalState":{"key":"12","name":"Brandenburg"}},{"name":"Drosselweg","postalCode":"06466","locality":"Seeland","municipality":{"key":"15089307","name":"Seeland, Stadt","type":"Stadt"},"district":{"key":"15089","name":"Salzlandkreis","type":"Landkreis"},"federalState":{"key":"15","name":"Sachsen-Anhalt"}},{"name":"Drosselweg","postalCode":"06467","locality":"Seeland","municipality":{"key":"15089307","name":"Seeland, Stadt","type":"Stadt"},"district":{"key":"15089","name":"Salzlandkreis","type":"Landkreis"},"federalState":{"key":"15","name":"Sachsen-Anhalt"}},{"name":"Ernst-Thälmann-Str.","postalCode":"06467","locality":"Seeland","municipality":{"key":"15089307","name":"Seeland, Stadt","type":"Stadt"},"district":{"key":"15089","name":"Salzlandkreis","type":"Landkreis"},"federalState":{"key":"15","name":"Sachsen-Anhalt"}},{"name":"Erwin-Baur-Platz","postalCode":"06466","locality":"Seeland","municipality":{"key":"15089307","name":"Seeland, Stadt","type":"Stadt"},"district":{"key":"15089","name":"Salzlandkreis","type":"Landkreis"},"federalState":{"key":"15","name":"Sachsen-Anhalt"}},{"name":"Fabrikstr.","postalCode":"06467","locality":"Seeland","municipality":{"key":"15089307","name":"Seeland, Stadt","type":"Stadt"},"district":{"key":"15089","name":"Salzlandkreis","type":"Landkreis"},"federalState":{"key":"15","name":"Sachsen-Anhalt"}},{"name":"Fahrtgasse","postalCode":"06466","locality":"Seeland","municipality":{"key":"15089307","name":"Seeland, Stadt","type":"Stadt"},"district":{"key":"15089","name":"Salzlandkreis","type":"Landkreis"},"federalState":{"key":"15","name":"Sachsen-Anhalt"}},{"name":"Fasaneriestr.","postalCode":"06467","locality":"Seeland","municipality":{"key":"15089307","name":"Seeland, Stadt","type":"Stadt"},"district":{"key":"15089","name":"Salzlandkreis","type":"Landkreis"},"federalState":{"key":"15","name":"Sachsen-Anhalt"}},{"name":"Finkenweg","postalCode":"06466","locality":"Seeland","municipality":{"key":"15089307","name":"Seeland, Stadt","type":"Stadt"},"district":{"key":"15089","name":"Salzlandkreis","type":"Landkreis"},"federalState":{"key":"15","name":"Sachsen-Anhalt"}},{"name":"Fliedergasse","postalCode":"06467","locality":"Seeland","municipality":{"key":"15089307","name":"Seeland, Stadt","type":"Stadt"},"district":{"key":"15089","name":"Salzlandkreis","type":"Landkreis"},"federalState":{"key":"15","name":"Sachsen-Anhalt"}},{"name":"Fortunaplatz","postalCode":"06467","locality":"Seeland","municipality":{"key":"15089307","name":"Seeland, Stadt","type":"Stadt"},"district":{"key":"15089","name":"Salzlandkreis","type":"Landkreis"},"federalState":{"key":"15","name":"Sachsen-Anhalt"}},{"name":"Freiheitsplatz","postalCode":"06467","locality":"Seeland","municipality":{"key":"15089307","name":"Seeland, Stadt","type":"Stadt"},"district":{"key":"15089","name":"Salzlandkreis","type":"Landkreis"},"federalState":{"key":"15","name":"Sachsen-Anhalt"}},{"name":"Friedhofstr.","postalCode":"06467","locality":"Seeland","municipality":{"key":"15089307","name":"Seeland, Stadt","type":"Stadt"},"district":{"key":"15089","name":"Salzlandkreis","type":"Landkreis"},"federalState":{"key":"15","name":"Sachsen-Anhalt"}},{"name":"Friedhofstr.","postalCode":"06469","locality":"Seeland","municipality":{"key":"15089307","name":"Seeland, Stadt","type":"Stadt"},"district":{"key":"15089","name":"Salzlandkreis","type":"Landkreis"},"federalState":{"key":"15","name":"Sachsen-Anhalt"}},{"name":"Friedhofsweg","postalCode":"03103","locality":"Neu-Seeland","municipality":{"key":"12066226","name":"Neu-Seeland/Nowa Jazorina","type":"Kreisangehörige_Gemeinde"},"district":{"key":"12066","name":"Oberspreewald-Lausitz","type":"Landkreis"},"federalState":{"key":"12","name":"Brandenburg"}},{"name":"Friedhofsweg","postalCode":"06449","locality":"Seeland","municipality":{"key":"15089307","name":"Seeland, Stadt","type":"Stadt"},"district":{"key":"15089","name":"Salzlandkreis","type":"Landkreis"},"federalState":{"key":"15","name":"Sachsen-Anhalt"}},{"name":"Friedrich Ebert Str.","postalCode":"06464","locality":"Seeland","municipality":{"key":"15089307","name":"Seeland, Stadt","type":"Stadt"},"district":{"key":"15089","name":"Salzlandkreis","type":"Landkreis"},"federalState":{"key":"15","name":"Sachsen-Anhalt"}},{"name":"Friedrich-Fleischauer-Str.","postalCode":"06469","locality":"Seeland","municipality":{"key":"15089307","name":"Seeland, Stadt","type":"Stadt"},"district":{"key":"15089","name":"Salzlandkreis","type":"Landkreis"},"federalState":{"key":"15","name":"Sachsen-Anhalt"}},{"name":"Friedrichsauer Str.","postalCode":"06449","locality":"Seeland","municipality":{"key":"15089307","name":"Seeland, Stadt","type":"Stadt"},"district":{"key":"15089","name":"Salzlandkreis","type":"Landkreis"},"federalState":{"key":"15","name":"Sachsen-Anhalt"}},{"name":"Friedrichsauer Weg","postalCode":"06466","locality":"Seeland","municipality":{"key":"15089307","name":"Seeland, Stadt","type":"Stadt"},"district":{"key":"15089","name":"Salzlandkreis","type":"Landkreis"},"federalState":{"key":"15","name":"Sachsen-Anhalt"}},{"name":"Friedrich-Weddeler-Str.","postalCode":"06469","locality":"Seeland","municipality":{"key":"15089307","name":"Seeland, Stadt","type":"Stadt"},"district":{"key":"15089","name":"Salzlandkreis","type":"Landkreis"},"federalState":{"key":"15","name":"Sachsen-Anhalt"}},{"name":"Froser Str.","postalCode":"06467","locality":"Seeland","municipality":{"key":"15089307","name":"Seeland, Stadt","type":"Stadt"},"district":{"key":"15089","name":"Salzlandkreis","type":"Landkreis"},"federalState":{"key":"15","name":"Sachsen-Anhalt"}},{"name":"Froser Weg","postalCode":"06469","locality":"Seeland","municipality":{"key":"15089307","name":"Seeland, Stadt","type":"Stadt"},"district":{"key":"15089","name":"Salzlandkreis","type":"Landkreis"},"federalState":{"key":"15","name":"Sachsen-Anhalt"}},{"name":"Gartenstr.","postalCode":"06467","locality":"Seeland","municipality":{"key":"15089307","name":"Seeland, Stadt","type":"Stadt"},"district":{"key":"15089","name":"Salzlandkreis","type":"Landkreis"},"federalState":{"key":"15","name":"Sachsen-Anhalt"}},{"name":"Gartenstr.","postalCode":"06469","locality":"Seeland","municipality":{"key":"15089307","name":"Seeland, Stadt","type":"Stadt"},"district":{"key":"15089","name":"Salzlandkreis","type":"Landkreis"},"federalState":{"key":"15","name":"Sachsen-Anhalt"}},{"name":"Gaterslebener Str.","postalCode":"06469","locality":"Seeland","municipality":{"key":"15089307","name":"Seeland, Stadt","type":"Stadt"},"district":{"key":"15089","name":"Salzlandkreis","type":"Landkreis"},"federalState":{"key":"15","name":"Sachsen-Anhalt"}},{"name":"Gerberstr.","postalCode":"06467","locality":"Seeland","municipality":{"key":"15089307","name":"Seeland, Stadt","type":"Stadt"},"district":{"key":"15089","name":"Salzlandkreis","type":"Landkreis"},"federalState":{"key":"15","name":"Sachsen-Anhalt"}},{"name":"Graben","postalCode":"06466","locality":"Seeland","municipality":{"key":"15089307","name":"Seeland, Stadt","type":"Stadt"},"district":{"key":"15089","name":"Salzlandkreis","type":"Landkreis"},"federalState":{"key":"15","name":"Sachsen-Anhalt"}},{"name":"Grabenstr.","postalCode":"06467","locality":"Seeland","municipality":{"key":"15089307","name":"Seeland, Stadt","type":"Stadt"},"district":{"key":"15089","name":"Salzlandkreis","type":"Landkreis"},"federalState":{"key":"15","name":"Sachsen-Anhalt"}},{"name":"Grüne Str.","postalCode":"06467","locality":"Seeland","municipality":{"key":"15089307","name":"Seeland, Stadt","type":"Stadt"},"district":{"key":"15089","name":"Salzlandkreis","type":"Landkreis"},"federalState":{"key":"15","name":"Sachsen-Anhalt"}},{"name":"Grüne Str.","postalCode":"06469","locality":"Seeland","municipality":{"key":"15089307","name":"Seeland, Stadt","type":"Stadt"},"district":{"key":"15089","name":"Salzlandkreis","type":"Landkreis"},"federalState":{"key":"15","name":"Sachsen-Anhalt"}},{"name":"Gutsweg","postalCode":"03103","locality":"Neu-Seeland","municipality":{"key":"12066226","name":"Neu-Seeland/Nowa Jazorina","type":"Kreisangehörige_Gemeinde"},"district":{"key":"12066","name":"Oberspreewald-Lausitz","type":"Landkreis"},"federalState":{"key":"12","name":"Brandenburg"}},{"name":"Habbendorfer Weg","postalCode":"06469","locality":"Seeland","municipality":{"key":"15089307","name":"Seeland, Stadt","type":"Stadt"},"district":{"key":"15089","name":"Salzlandkreis","type":"Landkreis"},"federalState":{"key":"15","name":"Sachsen-Anhalt"}},{"name":"Haeckelstr.","postalCode":"06467","locality":"Seeland","municipality":{"key":"15089307","name":"Seeland, Stadt","type":"Stadt"},"district":{"key":"15089","name":"Salzlandkreis","type":"Landkreis"},"federalState":{"key":"15","name":"Sachsen-Anhalt"}},{"name":"Haldenstr.","postalCode":"06469","locality":"Seeland","municipality":{"key":"15089307","name":"Seeland, Stadt","type":"Stadt"},"district":{"key":"15089","name":"Salzlandkreis","type":"Landkreis"},"federalState":{"key":"15","name":"Sachsen-Anhalt"}},{"name":"Hans-Stubbe-Str.","postalCode":"06466","locality":"Seeland","municipality":{"key":"15089307","name":"Seeland, Stadt","type":"Stadt"},"district":{"key":"15089","name":"Salzlandkreis","type":"Landkreis"},"federalState":{"key":"15","name":"Sachsen-Anhalt"}},{"name":"Hauskabelweg","postalCode":"06464","locality":"Seeland","municipality":{"key":"15089307","name":"Seeland, Stadt","type":"Stadt"},"district":{"key":"15089","name":"Salzlandkreis","type":"Landkreis"},"federalState":{"key":"15","name":"Sachsen-Anhalt"}},{"name":"Henkstr.","postalCode":"06467","locality":"Seeland","municipality":{"key":"15089307","name":"Seeland, Stadt","type":"Stadt"},"district":{"key":"15089","name":"Salzlandkreis","type":"Landkreis"},"federalState":{"key":"15","name":"Sachsen-Anhalt"}},{"name":"Hinter dem Dorf","postalCode":"06464","locality":"Seeland","municipality":{"key":"15089307","name":"Seeland, Stadt","type":"Stadt"},"district":{"key":"15089","name":"Salzlandkreis","type":"Landkreis"},"federalState":{"key":"15","name":"Sachsen-Anhalt"}},{"name":"Hofgasse","postalCode":"06467","locality":"Seeland","municipality":{"key":"15089307","name":"Seeland, Stadt","type":"Stadt"},"district":{"key":"15089","name":"Salzlandkreis","type":"Landkreis"},"federalState":{"key":"15","name":"Sachsen-Anhalt"}},{"name":"Hoymer Str.","postalCode":"06464","locality":"Seeland","municipality":{"key":"15089307","name":"Seeland, Stadt","type":"Stadt"},"district":{"key":"15089","name":"Salzlandkreis","type":"Landkreis"},"federalState":{"key":"15","name":"Sachsen-Anhalt"}},{"name":"Hoymer Str.","postalCode":"06466","locality":"Seeland","municipality":{"key":"15089307","name":"Seeland, Stadt","type":"Stadt"},"district":{"key":"15089","name":"Salzlandkreis","type":"Landkreis"},"federalState":{"key":"15","name":"Sachsen-Anhalt"}},{"name":"Hoymer Str.","postalCode":"06469","locality":"Seeland","municipality":{"key":"15089307","name":"Seeland, Stadt","type":"Stadt"},"district":{"key":"15089","name":"Salzlandkreis","type":"Landkreis"},"federalState":{"key":"15","name":"Sachsen-Anhalt"}},{"name":"Hühnerbrücke","postalCode":"06466","locality":"Seeland","municipality":{"key":"15089307","name":"Seeland, Stadt","type":"Stadt"},"district":{"key":"15089","name":"Salzlandkreis","type":"Landkreis"},"federalState":{"key":"15","name":"Sachsen-Anhalt"}},{"name":"Jägergasse","postalCode":"06464","locality":"Seeland","municipality":{"key":"15089307","name":"Seeland, Stadt","type":"Stadt"},"district":{"key":"15089","name":"Salzlandkreis","type":"Landkreis"},"federalState":{"key":"15","name":"Sachsen-Anhalt"}},{"name":"Kaethe-Schulken-Weg","postalCode":"06466","locality":"Seeland","municipality":{"key":"15089307","name":"Seeland, Stadt","type":"Stadt"},"district":{"key":"15089","name":"Salzlandkreis","type":"Landkreis"},"federalState":{"key":"15","name":"Sachsen-Anhalt"}},{"name":"Kampstr.","postalCode":"06467","locality":"Seeland","municipality":{"key":"15089307","name":"Seeland, Stadt","type":"Stadt"},"district":{"key":"15089","name":"Salzlandkreis","type":"Landkreis"},"federalState":{"key":"15","name":"Sachsen-Anhalt"}},{"name":"Kapellenteich","postalCode":"06466","locality":"Seeland","municipality":{"key":"15089307","name":"Seeland, Stadt","type":"Stadt"},"district":{"key":"15089","name":"Salzlandkreis","type":"Landkreis"},"federalState":{"key":"15","name":"Sachsen-Anhalt"}},{"name":"Kirchberg","postalCode":"06464","locality":"Seeland","municipality":{"key":"15089307","name":"Seeland, Stadt","type":"Stadt"},"district":{"key":"15089","name":"Salzlandkreis","type":"Landkreis"},"federalState":{"key":"15","name":"Sachsen-Anhalt"}},{"name":"Kirchgasse","postalCode":"06467","locality":"Seeland","municipality":{"key":"15089307","name":"Seeland, Stadt","type":"Stadt"},"district":{"key":"15089","name":"Salzlandkreis","type":"Landkreis"},"federalState":{"key":"15","name":"Sachsen-Anhalt"}},{"name":"Kirchhof","postalCode":"06467","locality":"Seeland","municipality":{"key":"15089307","name":"Seeland, Stadt","type":"Stadt"},"district":{"key":"15089","name":"Salzlandkreis","type":"Landkreis"},"federalState":{"key":"15","name":"Sachsen-Anhalt"}},{"name":"Kirchpark","postalCode":"06469","locality":"Seeland","municipality":{"key":"15089307","name":"Seeland, Stadt","type":"Stadt"},"district":{"key":"15089","name":"Salzlandkreis","type":"Landkreis"},"federalState":{"key":"15","name":"Sachsen-Anhalt"}},{"name":"Kirchstr.","postalCode":"06469","locality":"Seeland","municipality":{"key":"15089307","name":"Seeland, Stadt","type":"Stadt"},"district":{"key":"15089","name":"Salzlandkreis","type":"Landkreis"},"federalState":{"key":"15","name":"Sachsen-Anhalt"}},{"name":"Königsauer Str.","postalCode":"06449","locality":"Seeland","municipality":{"key":"15089307","name":"Seeland, Stadt","type":"Stadt"},"district":{"key":"15089","name":"Salzlandkreis","type":"Landkreis"},"federalState":{"key":"15","name":"Sachsen-Anhalt"}},{"name":"Königsauer Str.","postalCode":"06464","locality":"Seeland","municipality":{"key":"15089307","name":"Seeland, Stadt","type":"Stadt"},"district":{"key":"15089","name":"Salzlandkreis","type":"Landkreis"},"federalState":{"key":"15","name":"Sachsen-Anhalt"}},{"name":"Kunersdorfer Str.","postalCode":"03103","locality":"Neu-Seeland","municipality":{"key":"12066226","name":"Neu-Seeland/Nowa Jazorina","type":"Kreisangehörige_Gemeinde"},"district":{"key":"12066","name":"Oberspreewald-Lausitz","type":"Landkreis"},"federalState":{"key":"12","name":"Brandenburg"}},{"name":"Kunersdorfer Weg","postalCode":"03103","locality":"Neu-Seeland","municipality":{"key":"12066226","name":"Neu-Seeland/Nowa Jazorina","type":"Kreisangehörige_Gemeinde"},"district":{"key":"12066","name":"Oberspreewald-Lausitz","type":"Landkreis"},"federalState":{"key":"12","name":"Brandenburg"}},{"name":"Kurze Str.","postalCode":"06469","locality":"Seeland","municipality":{"key":"15089307","name":"Seeland, Stadt","type":"Stadt"},"district":{"key":"15089","name":"Salzlandkreis","type":"Landkreis"},"federalState":{"key":"15","name":"Sachsen-Anhalt"}},{"name":"Lange Str.","postalCode":"06466","locality":"Seeland","municipality":{"key":"15089307","name":"Seeland, Stadt","type":"Stadt"},"district":{"key":"15089","name":"Salzlandkreis","type":"Landkreis"},"federalState":{"key":"15","name":"Sachsen-Anhalt"}},{"name":"Leeskower Dorfstr.","postalCode":"03103","locality":"Neu-Seeland","municipality":{"key":"12066226","name":"Neu-Seeland/Nowa Jazorina","type":"Kreisangehörige_Gemeinde"},"district":{"key":"12066","name":"Oberspreewald-Lausitz","type":"Landkreis"},"federalState":{"key":"12","name":"Brandenburg"}},{"name":"Leeskower Str.","postalCode":"03103","locality":"Neu-Seeland","municipality":{"key":"12066226","name":"Neu-Seeland/Nowa Jazorina","type":"Kreisangehörige_Gemeinde"},"district":{"key":"12066","name":"Oberspreewald-Lausitz","type":"Landkreis"},"federalState":{"key":"12","name":"Brandenburg"}},{"name":"Leopoldstr.","postalCode":"06464","locality":"Seeland","municipality":{"key":"15089307","name":"Seeland, Stadt","type":"Stadt"},"district":{"key":"15089","name":"Salzlandkreis","type":"Landkreis"},"federalState":{"key":"15","name":"Sachsen-Anhalt"}},{"name":"Liebigweg","postalCode":"06466","locality":"Seeland","municipality":{"key":"15089307","name":"Seeland, Stadt","type":"Stadt"},"district":{"key":"15089","name":"Salzlandkreis","type":"Landkreis"},"federalState":{"key":"15","name":"Sachsen-Anhalt"}},{"name":"Liesker Dorfstr.","postalCode":"03103","locality":"Neu-Seeland","municipality":{"key":"12066226","name":"Neu-Seeland/Nowa Jazorina","type":"Kreisangehörige_Gemeinde"},"district":{"key":"12066","name":"Oberspreewald-Lausitz","type":"Landkreis"},"federalState":{"key":"12","name":"Brandenburg"}},{"name":"Liesker Seestr.","postalCode":"03103","locality":"Neu-Seeland","municipality":{"key":"12066226","name":"Neu-Seeland/Nowa Jazorina","type":"Kreisangehörige_Gemeinde"},"district":{"key":"12066","name":"Oberspreewald-Lausitz","type":"Landkreis"},"federalState":{"key":"12","name":"Brandenburg"}},{"name":"Lindenfeld","postalCode":"03103","locality":"Neu-Seeland","municipality":{"key":"12066226","name":"Neu-Seeland/Nowa Jazorina","type":"Kreisangehörige_Gemeinde"},"district":{"key":"12066","name":"Oberspreewald-Lausitz","type":"Landkreis"},"federalState":{"key":"12","name":"Brandenburg"}},{"name":"Lindenstr.","postalCode":"03103","locality":"Neu-Seeland","municipality":{"key":"12066226","name":"Neu-Seeland/Nowa Jazorina","type":"Kreisangehörige_Gemeinde"},"district":{"key":"12066","name":"Oberspreewald-Lausitz","type":"Landkreis"},"federalState":{"key":"12","name":"Brandenburg"}},{"name":"Lindenstr.","postalCode":"06449","locality":"Seeland","municipality":{"key":"15089307","name":"Seeland, Stadt","type":"Stadt"},"district":{"key":"15089","name":"Salzlandkreis","type":"Landkreis"},"federalState":{"key":"15","name":"Sachsen-Anhalt"}},{"name":"Lindenstr.","postalCode":"06467","locality":"Seeland","municipality":{"key":"15089307","name":"Seeland, Stadt","type":"Stadt"},"district":{"key":"15089","name":"Salzlandkreis","type":"Landkreis"},"federalState":{"key":"15","name":"Sachsen-Anhalt"}},{"name":"Lindenstr.","postalCode":"06469","locality":"Seeland","municipality":{"key":"15089307","name":"Seeland, Stadt","type":"Stadt"},"district":{"key":"15089","name":"Salzlandkreis","type":"Landkreis"},"federalState":{"key":"15","name":"Sachsen-Anhalt"}},{"name":"Löwenweg","postalCode":"06464","locality":"Seeland","municipality":{"key":"15089307","name":"Seeland, Stadt","type":"Stadt"},"district":{"key":"15089","name":"Salzlandkreis","type":"Landkreis"},"federalState":{"key":"15","name":"Sachsen-Anhalt"}},{"name":"Lubochow-Dorfstr.","postalCode":"03103","locality":"Neu-Seeland","municipality":{"key":"12066226","name":"Neu-Seeland/Nowa Jazorina","type":"Kreisangehörige_Gemeinde"},"district":{"key":"12066","name":"Oberspreewald-Lausitz","type":"Landkreis"},"federalState":{"key":"12","name":"Brandenburg"}},{"name":"Margaretenstr.","postalCode":"06469","locality":"Seeland","municipality":{"key":"15089307","name":"Seeland, Stadt","type":"Stadt"},"district":{"key":"15089","name":"Salzlandkreis","type":"Landkreis"},"federalState":{"key":"15","name":"Sachsen-Anhalt"}},{"name":"Markt","postalCode":"06467","locality":"Seeland","municipality":{"key":"15089307","name":"Seeland, Stadt","type":"Stadt"},"district":{"key":"15089","name":"Salzlandkreis","type":"Landkreis"},"federalState":{"key":"15","name":"Sachsen-Anhalt"}},{"name":"Marktstr.","postalCode":"06467","locality":"Seeland","municipality":{"key":"15089307","name":"Seeland, Stadt","type":"Stadt"},"district":{"key":"15089","name":"Salzlandkreis","type":"Landkreis"},"federalState":{"key":"15","name":"Sachsen-Anhalt"}},{"name":"Martha-Brautzsch-Str.","postalCode":"06467","locality":"Seeland","municipality":{"key":"15089307","name":"Seeland, Stadt","type":"Stadt"},"district":{"key":"15089","name":"Salzlandkreis","type":"Landkreis"},"federalState":{"key":"15","name":"Sachsen-Anhalt"}},{"name":"M. Brautsch-Str.","postalCode":"06467","locality":"Seeland","municipality":{"key":"15089307","name":"Seeland, Stadt","type":"Stadt"},"district":{"key":"15089","name":"Salzlandkreis","type":"Landkreis"},"federalState":{"key":"15","name":"Sachsen-Anhalt"}},{"name":"Mittelstr.","postalCode":"06464","locality":"Seeland","municipality":{"key":"15089307","name":"Seeland, Stadt","type":"Stadt"},"district":{"key":"15089","name":"Salzlandkreis","type":"Landkreis"},"federalState":{"key":"15","name":"Sachsen-Anhalt"}},{"name":"Mittelstr.","postalCode":"06467","locality":"Seeland","municipality":{"key":"15089307","name":"Seeland, Stadt","type":"Stadt"},"district":{"key":"15089","name":"Salzlandkreis","type":"Landkreis"},"federalState":{"key":"15","name":"Sachsen-Anhalt"}},{"name":"Mittelstr.","postalCode":"06469","locality":"Seeland","municipality":{"key":"15089307","name":"Seeland, Stadt","type":"Stadt"},"district":{"key":"15089","name":"Salzlandkreis","type":"Landkreis"},"federalState":{"key":"15","name":"Sachsen-Anhalt"}},{"name":"Möller-Brücke","postalCode":"06467","locality":"Seeland","municipality":{"key":"15089307","name":"Seeland, Stadt","type":"Stadt"},"district":{"key":"15089","name":"Salzlandkreis","type":"Landkreis"},"federalState":{"key":"15","name":"Sachsen-Anhalt"}},{"name":"Mühlenstr.","postalCode":"06464","locality":"Seeland","municipality":{"key":"15089307","name":"Seeland, Stadt","type":"Stadt"},"district":{"key":"15089","name":"Salzlandkreis","type":"Landkreis"},"federalState":{"key":"15","name":"Sachsen-Anhalt"}},{"name":"Mühlenstr.","postalCode":"06467","locality":"Seeland","municipality":{"key":"15089307","name":"Seeland, Stadt","type":"Stadt"},"district":{"key":"15089","name":"Salzlandkreis","type":"Landkreis"},"federalState":{"key":"15","name":"Sachsen-Anhalt"}},{"name":"Mühlenweg","postalCode":"06466","locality":"Seeland","municipality":{"key":"15089307","name":"Seeland, Stadt","type":"Stadt"},"district":{"key":"15089","name":"Salzlandkreis","type":"Landkreis"},"federalState":{"key":"15","name":"Sachsen-Anhalt"}},{"name":"Nachterstedter Str.","postalCode":"06464","locality":"Seeland","municipality":{"key":"15089307","name":"Seeland, Stadt","type":"Stadt"},"district":{"key":"15089","name":"Salzlandkreis","type":"Landkreis"},"federalState":{"key":"15","name":"Sachsen-Anhalt"}},{"name":"Nachterstedter Str.","postalCode":"06466","locality":"Seeland","municipality":{"key":"15089307","name":"Seeland, Stadt","type":"Stadt"},"district":{"key":"15089","name":"Salzlandkreis","type":"Landkreis"},"federalState":{"key":"15","name":"Sachsen-Anhalt"}},{"name":"Nachterstedter Str.","postalCode":"06467","locality":"Seeland","municipality":{"key":"15089307","name":"Seeland, Stadt","type":"Stadt"},"district":{"key":"15089","name":"Salzlandkreis","type":"Landkreis"},"federalState":{"key":"15","name":"Sachsen-Anhalt"}},{"name":"Neue Reihe","postalCode":"06449","locality":"Seeland","municipality":{"key":"15089307","name":"Seeland, Stadt","type":"Stadt"},"district":{"key":"15089","name":"Salzlandkreis","type":"Landkreis"},"federalState":{"key":"15","name":"Sachsen-Anhalt"}},{"name":"Neue Reihe","postalCode":"06464","locality":"Seeland","municipality":{"key":"15089307","name":"Seeland, Stadt","type":"Stadt"},"district":{"key":"15089","name":"Salzlandkreis","type":"Landkreis"},"federalState":{"key":"15","name":"Sachsen-Anhalt"}},{"name":"Neuer Weg","postalCode":"06466","locality":"Seeland","municipality":{"key":"15089307","name":"Seeland, Stadt","type":"Stadt"},"district":{"key":"15089","name":"Salzlandkreis","type":"Landkreis"},"federalState":{"key":"15","name":"Sachsen-Anhalt"}},{"name":"Neustädter Str.","postalCode":"06467","locality":"Seeland","municipality":{"key":"15089307","name":"Seeland, Stadt","type":"Stadt"},"district":{"key":"15089","name":"Salzlandkreis","type":"Landkreis"},"federalState":{"key":"15","name":"Sachsen-Anhalt"}},{"name":"Oberdamm","postalCode":"06466","locality":"Seeland","municipality":{"key":"15089307","name":"Seeland, Stadt","type":"Stadt"},"district":{"key":"15089","name":"Salzlandkreis","type":"Landkreis"},"federalState":{"key":"15","name":"Sachsen-Anhalt"}},{"name":"Obere Sackgasse","postalCode":"06467","locality":"Seeland","municipality":{"key":"15089307","name":"Seeland, Stadt","type":"Stadt"},"district":{"key":"15089","name":"Salzlandkreis","type":"Landkreis"},"federalState":{"key":"15","name":"Sachsen-Anhalt"}},{"name":"Oberstr.","postalCode":"06469","locality":"Seeland","municipality":{"key":"15089307","name":"Seeland, Stadt","type":"Stadt"},"district":{"key":"15089","name":"Salzlandkreis","type":"Landkreis"},"federalState":{"key":"15","name":"Sachsen-Anhalt"}},{"name":"Park am Denkmal","postalCode":"06469","locality":"Seeland","municipality":{"key":"15089307","name":"Seeland, Stadt","type":"Stadt"},"district":{"key":"15089","name":"Salzlandkreis","type":"Landkreis"},"federalState":{"key":"15","name":"Sachsen-Anhalt"}},{"name":"Petergasse","postalCode":"06464","locality":"Seeland","municipality":{"key":"15089307","name":"Seeland, Stadt","type":"Stadt"},"district":{"key":"15089","name":"Salzlandkreis","type":"Landkreis"},"federalState":{"key":"15","name":"Sachsen-Anhalt"}},{"name":"Platz der Jugend","postalCode":"06449","locality":"Seeland","municipality":{"key":"15089307","name":"Seeland, Stadt","type":"Stadt"},"district":{"key":"15089","name":"Salzlandkreis","type":"Landkreis"},"federalState":{"key":"15","name":"Sachsen-Anhalt"}},{"name":"Pothofstr.","postalCode":"06466","locality":"Seeland","municipality":{"key":"15089307","name":"Seeland, Stadt","type":"Stadt"},"district":{"key":"15089","name":"Salzlandkreis","type":"Landkreis"},"federalState":{"key":"15","name":"Sachsen-Anhalt"}},{"name":"Quedlinburger Str.","postalCode":"06466","locality":"Seeland","municipality":{"key":"15089307","name":"Seeland, Stadt","type":"Stadt"},"district":{"key":"15089","name":"Salzlandkreis","type":"Landkreis"},"federalState":{"key":"15","name":"Sachsen-Anhalt"}},{"name":"Quedlinburger Str.","postalCode":"06467","locality":"Seeland","municipality":{"key":"15089307","name":"Seeland, Stadt","type":"Stadt"},"district":{"key":"15089","name":"Salzlandkreis","type":"Landkreis"},"federalState":{"key":"15","name":"Sachsen-Anhalt"}},{"name":"Rathausplatz","postalCode":"06467","locality":"Seeland","municipality":{"key":"15089307","name":"Seeland, Stadt","type":"Stadt"},"district":{"key":"15089","name":"Salzlandkreis","type":"Landkreis"},"federalState":{"key":"15","name":"Sachsen-Anhalt"}},{"name":"Reinstedter Str.","postalCode":"06464","locality":"Seeland","municipality":{"key":"15089307","name":"Seeland, Stadt","type":"Stadt"},"district":{"key":"15089","name":"Salzlandkreis","type":"Landkreis"},"federalState":{"key":"15","name":"Sachsen-Anhalt"}},{"name":"Reinstedter Str.","postalCode":"06467","locality":"Seeland","municipality":{"key":"15089307","name":"Seeland, Stadt","type":"Stadt"},"district":{"key":"15089","name":"Salzlandkreis","type":"Landkreis"},"federalState":{"key":"15","name":"Sachsen-Anhalt"}},{"name":"Ressener Dorfstr.","postalCode":"03103","locality":"Neu-Seeland","municipality":{"key":"12066226","name":"Neu-Seeland/Nowa Jazorina","type":"Kreisangehörige_Gemeinde"},"district":{"key":"12066","name":"Oberspreewald-Lausitz","type":"Landkreis"},"federalState":{"key":"12","name":"Brandenburg"}},{"name":"Rosengarten","postalCode":"06469","locality":"Seeland","municipality":{"key":"15089307","name":"Seeland, Stadt","type":"Stadt"},"district":{"key":"15089","name":"Salzlandkreis","type":"Landkreis"},"federalState":{"key":"15","name":"Sachsen-Anhalt"}},{"name":"Rothehofweg","postalCode":"06466","locality":"Seeland","municipality":{"key":"15089307","name":"Seeland, Stadt","type":"Stadt"},"district":{"key":"15089","name":"Salzlandkreis","type":"Landkreis"},"federalState":{"key":"15","name":"Sachsen-Anhalt"}},{"name":"Rudolf-Breitscheid-Str.","postalCode":"06467","locality":"Seeland","municipality":{"key":"15089307","name":"Seeland, Stadt","type":"Stadt"},"district":{"key":"15089","name":"Salzlandkreis","type":"Landkreis"},"federalState":{"key":"15","name":"Sachsen-Anhalt"}},{"name":"Salpetergasse","postalCode":"06467","locality":"Seeland","municipality":{"key":"15089307","name":"Seeland, Stadt","type":"Stadt"},"district":{"key":"15089","name":"Salzlandkreis","type":"Landkreis"},"federalState":{"key":"15","name":"Sachsen-Anhalt"}},{"name":"Sandkuhle","postalCode":"06464","locality":"Seeland","municipality":{"key":"15089307","name":"Seeland, Stadt","type":"Stadt"},"district":{"key":"15089","name":"Salzlandkreis","type":"Landkreis"},"federalState":{"key":"15","name":"Sachsen-Anhalt"}},{"name":"Schäfergasse","postalCode":"06467","locality":"Seeland","municipality":{"key":"15089307","name":"Seeland, Stadt","type":"Stadt"},"district":{"key":"15089","name":"Salzlandkreis","type":"Landkreis"},"federalState":{"key":"15","name":"Sachsen-Anhalt"}},{"name":"Scheunenhof","postalCode":"06467","locality":"Seeland","municipality":{"key":"15089307","name":"Seeland, Stadt","type":"Stadt"},"district":{"key":"15089","name":"Salzlandkreis","type":"Landkreis"},"federalState":{"key":"15","name":"Sachsen-Anhalt"}},{"name":"Schlossplatz","postalCode":"06467","locality":"Seeland","municipality":{"key":"15089307","name":"Seeland, Stadt","type":"Stadt"},"district":{"key":"15089","name":"Salzlandkreis","type":"Landkreis"},"federalState":{"key":"15","name":"Sachsen-Anhalt"}},{"name":"Schlossstr.","postalCode":"06467","locality":"Seeland","municipality":{"key":"15089307","name":"Seeland, Stadt","type":"Stadt"},"district":{"key":"15089","name":"Salzlandkreis","type":"Landkreis"},"federalState":{"key":"15","name":"Sachsen-Anhalt"}},{"name":"Schmale Str.","postalCode":"06467","locality":"Seeland","municipality":{"key":"15089307","name":"Seeland, Stadt","type":"Stadt"},"district":{"key":"15089","name":"Salzlandkreis","type":"Landkreis"},"federalState":{"key":"15","name":"Sachsen-Anhalt"}},{"name":"Schmiedegasse","postalCode":"06467","locality":"Seeland","municipality":{"key":"15089307","name":"Seeland, Stadt","type":"Stadt"},"district":{"key":"15089","name":"Salzlandkreis","type":"Landkreis"},"federalState":{"key":"15","name":"Sachsen-Anhalt"}},{"name":"Schmiedestr.","postalCode":"06466","locality":"Seeland","municipality":{"key":"15089307","name":"Seeland, Stadt","type":"Stadt"},"district":{"key":"15089","name":"Salzlandkreis","type":"Landkreis"},"federalState":{"key":"15","name":"Sachsen-Anhalt"}},{"name":"Schuhgasse","postalCode":"06467","locality":"Seeland","municipality":{"key":"15089307","name":"Seeland, Stadt","type":"Stadt"},"district":{"key":"15089","name":"Salzlandkreis","type":"Landkreis"},"federalState":{"key":"15","name":"Sachsen-Anhalt"}},{"name":"Schulstr.","postalCode":"06449","locality":"Seeland","municipality":{"key":"15089307","name":"Seeland, Stadt","type":"Stadt"},"district":{"key":"15089","name":"Salzlandkreis","type":"Landkreis"},"federalState":{"key":"15","name":"Sachsen-Anhalt"}},{"name":"Schulstr.","postalCode":"06464","locality":"Seeland","municipality":{"key":"15089307","name":"Seeland, Stadt","type":"Stadt"},"district":{"key":"15089","name":"Salzlandkreis","type":"Landkreis"},"federalState":{"key":"15","name":"Sachsen-Anhalt"}},{"name":"Schulstr.","postalCode":"06466","locality":"Seeland","municipality":{"key":"15089307","name":"Seeland, Stadt","type":"Stadt"},"district":{"key":"15089","name":"Salzlandkreis","type":"Landkreis"},"federalState":{"key":"15","name":"Sachsen-Anhalt"}},{"name":"Schulstr.","postalCode":"06467","locality":"Seeland","municipality":{"key":"15089307","name":"Seeland, Stadt","type":"Stadt"},"district":{"key":"15089","name":"Salzlandkreis","type":"Landkreis"},"federalState":{"key":"15","name":"Sachsen-Anhalt"}},{"name":"Schulstr.","postalCode":"06469","locality":"Seeland","municipality":{"key":"15089307","name":"Seeland, Stadt","type":"Stadt"},"district":{"key":"15089","name":"Salzlandkreis","type":"Landkreis"},"federalState":{"key":"15","name":"Sachsen-Anhalt"}},{"name":"Schüttelweg","postalCode":"06466","locality":"Seeland","municipality":{"key":"15089307","name":"Seeland, Stadt","type":"Stadt"},"district":{"key":"15089","name":"Salzlandkreis","type":"Landkreis"},"federalState":{"key":"15","name":"Sachsen-Anhalt"}},{"name":"Schützenplatz","postalCode":"06464","locality":"Seeland","municipality":{"key":"15089307","name":"Seeland, Stadt","type":"Stadt"},"district":{"key":"15089","name":"Salzlandkreis","type":"Landkreis"},"federalState":{"key":"15","name":"Sachsen-Anhalt"}},{"name":"Seepromenade","postalCode":"06449","locality":"Seeland","municipality":{"key":"15089307","name":"Seeland, Stadt","type":"Stadt"},"district":{"key":"15089","name":"Salzlandkreis","type":"Landkreis"},"federalState":{"key":"15","name":"Sachsen-Anhalt"}},{"name":"Seestr.","postalCode":"06449","locality":"Seeland","municipality":{"key":"15089307","name":"Seeland, Stadt","type":"Stadt"},"district":{"key":"15089","name":"Salzlandkreis","type":"Landkreis"},"federalState":{"key":"15","name":"Sachsen-Anhalt"}},{"name":"Senftenberger Str.","postalCode":"03103","locality":"Neu-Seeland","municipality":{"key":"12066226","name":"Neu-Seeland/Nowa Jazorina","type":"Kreisangehörige_Gemeinde"},"district":{"key":"12066","name":"Oberspreewald-Lausitz","type":"Landkreis"},"federalState":{"key":"12","name":"Brandenburg"}},{"name":"Siedlerstr.","postalCode":"06466","locality":"Seeland","municipality":{"key":"15089307","name":"Seeland, Stadt","type":"Stadt"},"district":{"key":"15089","name":"Salzlandkreis","type":"Landkreis"},"federalState":{"key":"15","name":"Sachsen-Anhalt"}},{"name":"Siedlung","postalCode":"06449","locality":"Seeland","municipality":{"key":"15089307","name":"Seeland, Stadt","type":"Stadt"},"district":{"key":"15089","name":"Salzlandkreis","type":"Landkreis"},"federalState":{"key":"15","name":"Sachsen-Anhalt"}},{"name":"Siedlung des Aufbaus","postalCode":"06467","locality":"Seeland","municipality":{"key":"15089307","name":"Seeland, Stadt","type":"Stadt"},"district":{"key":"15089","name":"Salzlandkreis","type":"Landkreis"},"federalState":{"key":"15","name":"Sachsen-Anhalt"}},{"name":"Sollhaben I","postalCode":"06449","locality":"Seeland","municipality":{"key":"15089307","name":"Seeland, Stadt","type":"Stadt"},"district":{"key":"15089","name":"Salzlandkreis","type":"Landkreis"},"federalState":{"key":"15","name":"Sachsen-Anhalt"}},{"name":"Sollhaben II","postalCode":"06449","locality":"Seeland","municipality":{"key":"15089307","name":"Seeland, Stadt","type":"Stadt"},"district":{"key":"15089","name":"Salzlandkreis","type":"Landkreis"},"federalState":{"key":"15","name":"Sachsen-Anhalt"}},{"name":"Sornoer Str.","postalCode":"03103","locality":"Neu-Seeland","municipality":{"key":"12066226","name":"Neu-Seeland/Nowa Jazorina","type":"Kreisangehörige_Gemeinde"},"district":{"key":"12066","name":"Oberspreewald-Lausitz","type":"Landkreis"},"federalState":{"key":"12","name":"Brandenburg"}},{"name":"Spielplatz Nachterstedt","postalCode":"06469","locality":"Seeland","municipality":{"key":"15089307","name":"Seeland, Stadt","type":"Stadt"},"district":{"key":"15089","name":"Salzlandkreis","type":"Landkreis"},"federalState":{"key":"15","name":"Sachsen-Anhalt"}},{"name":"Stobenanger","postalCode":"06466","locality":"Seeland","municipality":{"key":"15089307","name":"Seeland, Stadt","type":"Stadt"},"district":{"key":"15089","name":"Salzlandkreis","type":"Landkreis"},"federalState":{"key":"15","name":"Sachsen-Anhalt"}},{"name":"StuBA-Hain","postalCode":"03103","locality":"Neu-Seeland","municipality":{"key":"12066226","name":"Neu-Seeland/Nowa Jazorina","type":"Kreisangehörige_Gemeinde"},"district":{"key":"12066","name":"Oberspreewald-Lausitz","type":"Landkreis"},"federalState":{"key":"12","name":"Brandenburg"}},{"name":"Thomas-Müntzer-Str.","postalCode":"06464","locality":"Seeland","municipality":{"key":"15089307","name":"Seeland, Stadt","type":"Stadt"},"district":{"key":"15089","name":"Salzlandkreis","type":"Landkreis"},"federalState":{"key":"15","name":"Sachsen-Anhalt"}},{"name":"Thomas-Müntzer-Str.","postalCode":"06469","locality":"Seeland","municipality":{"key":"15089307","name":"Seeland, Stadt","type":"Stadt"},"district":{"key":"15089","name":"Salzlandkreis","type":"Landkreis"},"federalState":{"key":"15","name":"Sachsen-Anhalt"}},{"name":"Tiestr.","postalCode":"06467","locality":"Seeland","municipality":{"key":"15089307","name":"Seeland, Stadt","type":"Stadt"},"district":{"key":"15089","name":"Salzlandkreis","type":"Landkreis"},"federalState":{"key":"15","name":"Sachsen-Anhalt"}},{"name":"Unterdamm","postalCode":"06466","locality":"Seeland","municipality":{"key":"15089307","name":"Seeland, Stadt","type":"Stadt"},"district":{"key":"15089","name":"Salzlandkreis","type":"Landkreis"},"federalState":{"key":"15","name":"Sachsen-Anhalt"}},{"name":"Unter dem Turm","postalCode":"06464","locality":"Seeland","municipality":{"key":"15089307","name":"Seeland, Stadt","type":"Stadt"},"district":{"key":"15089","name":"Salzlandkreis","type":"Landkreis"},"federalState":{"key":"15","name":"Sachsen-Anhalt"}},{"name":"Unter dem Weinberg","postalCode":"06449","locality":"Seeland","municipality":{"key":"15089307","name":"Seeland, Stadt","type":"Stadt"},"district":{"key":"15089","name":"Salzlandkreis","type":"Landkreis"},"federalState":{"key":"15","name":"Sachsen-Anhalt"}},{"name":"Untere Sackgass","postalCode":"06467","locality":"Seeland","municipality":{"key":"15089307","name":"Seeland, Stadt","type":"Stadt"},"district":{"key":"15089","name":"Salzlandkreis","type":"Landkreis"},"federalState":{"key":"15","name":"Sachsen-Anhalt"}},{"name":"Unterstr.","postalCode":"06467","locality":"Seeland","municipality":{"key":"15089307","name":"Seeland, Stadt","type":"Stadt"},"district":{"key":"15089","name":"Salzlandkreis","type":"Landkreis"},"federalState":{"key":"15","name":"Sachsen-Anhalt"}},{"name":"Unterstr.","postalCode":"06469","locality":"Seeland","municipality":{"key":"15089307","name":"Seeland, Stadt","type":"Stadt"},"district":{"key":"15089","name":"Salzlandkreis","type":"Landkreis"},"federalState":{"key":"15","name":"Sachsen-Anhalt"}},{"name":"Virchowstr.","postalCode":"06469","locality":"Seeland","municipality":{"key":"15089307","name":"Seeland, Stadt","type":"Stadt"},"district":{"key":"15089","name":"Salzlandkreis","type":"Landkreis"},"federalState":{"key":"15","name":"Sachsen-Anhalt"}},{"name":"Vor dem Bahnhof","postalCode":"06464","locality":"Seeland","municipality":{"key":"15089307","name":"Seeland, Stadt","type":"Stadt"},"district":{"key":"15089","name":"Salzlandkreis","type":"Landkreis"},"federalState":{"key":"15","name":"Sachsen-Anhalt"}},{"name":"Vor den Häusern","postalCode":"06449","locality":"Seeland","municipality":{"key":"15089307","name":"Seeland, Stadt","type":"Stadt"},"district":{"key":"15089","name":"Salzlandkreis","type":"Landkreis"},"federalState":{"key":"15","name":"Sachsen-Anhalt"}},{"name":"Vor den neuen Häusern","postalCode":"06466","locality":"Seeland","municipality":{"key":"15089307","name":"Seeland, Stadt","type":"Stadt"},"district":{"key":"15089","name":"Salzlandkreis","type":"Landkreis"},"federalState":{"key":"15","name":"Sachsen-Anhalt"}},{"name":"Vor der See","postalCode":"06464","locality":"Seeland","municipality":{"key":"15089307","name":"Seeland, Stadt","type":"Stadt"},"district":{"key":"15089","name":"Salzlandkreis","type":"Landkreis"},"federalState":{"key":"15","name":"Sachsen-Anhalt"}},{"name":"Waschholzstr.","postalCode":"06467","locality":"Seeland","municipality":{"key":"15089307","name":"Seeland, Stadt","type":"Stadt"},"district":{"key":"15089","name":"Salzlandkreis","type":"Landkreis"},"federalState":{"key":"15","name":"Sachsen-Anhalt"}},{"name":"Wasserstr.","postalCode":"06466","locality":"Seeland","municipality":{"key":"15089307","name":"Seeland, Stadt","type":"Stadt"},"district":{"key":"15089","name":"Salzlandkreis","type":"Landkreis"},"federalState":{"key":"15","name":"Sachsen-Anhalt"}},{"name":"Wasserstr.","postalCode":"06467","locality":"Seeland","municipality":{"key":"15089307","name":"Seeland, Stadt","type":"Stadt"},"district":{"key":"15089","name":"Salzlandkreis","type":"Landkreis"},"federalState":{"key":"15","name":"Sachsen-Anhalt"}},{"name":"Wiesenschlag","postalCode":"06464","locality":"Seeland","municipality":{"key":"15089307","name":"Seeland, Stadt","type":"Stadt"},"district":{"key":"15089","name":"Salzlandkreis","type":"Landkreis"},"federalState":{"key":"15","name":"Sachsen-Anhalt"}},{"name":"Wiesenweg","postalCode":"03103","locality":"Neu-Seeland","municipality":{"key":"12066226","name":"Neu-Seeland/Nowa Jazorina","type":"Kreisangehörige_Gemeinde"},"district":{"key":"12066","name":"Oberspreewald-Lausitz","type":"Landkreis"},"federalState":{"key":"12","name":"Brandenburg"}},{"name":"Wilhelmstr.","postalCode":"06469","locality":"Seeland","municipality":{"key":"15089307","name":"Seeland, Stadt","type":"Stadt"},"district":{"key":"15089","name":"Salzlandkreis","type":"Landkreis"},"federalState":{"key":"15","name":"Sachsen-Anhalt"}},{"name":"Wilslebener Str.","postalCode":"06464","locality":"Seeland","municipality":{"key":"15089307","name":"Seeland, Stadt","type":"Stadt"},"district":{"key":"15089","name":"Salzlandkreis","type":"Landkreis"},"federalState":{"key":"15","name":"Sachsen-Anhalt"}},{"name":"Wissenschaftlerlaufbahn","postalCode":"06466","locality":"Seeland","municipality":{"key":"15089307","name":"Seeland, Stadt","type":"Stadt"},"district":{"key":"15089","name":"Salzlandkreis","type":"Landkreis"},"federalState":{"key":"15","name":"Sachsen-Anhalt"}},{"name":"Zollhausstr.","postalCode":"03103","locality":"Neu-Seeland","municipality":{"key":"12066226","name":"Neu-Seeland/Nowa Jazorina","type":"Kreisangehörige_Gemeinde"},"district":{"key":"12066","name":"Oberspreewald-Lausitz","type":"Landkreis"},"federalState":{"key":"12","name":"Brandenburg"}},{"name":"Zum Wasserturm","postalCode":"06467","locality":"Seeland","municipality":{"key":"15089307","name":"Seeland, Stadt","type":"Stadt"},"district":{"key":"15089","name":"Salzlandkreis","type":"Landkreis"},"federalState":{"key":"15","name":"Sachsen-Anhalt"}},{"name":"Zur Selkeaue","postalCode":"06467","locality":"Seeland","municipality":{"key":"15089307","name":"Seeland, Stadt","type":"Stadt"},"district":{"key":"15089","name":"Salzlandkreis","type":"Landkreis"},"federalState":{"key":"15","name":"Sachsen-Anhalt"}},{"name":"Zwischen den Tiewänden","postalCode":"06467","locality":"Seeland","municipality":{"key":"15089307","name":"Seeland, Stadt","type":"Stadt"},"district":{"key":"15089","name":"Salzlandkreis","type":"Landkreis"},"federalState":{"key":"15","name":"Sachsen-Anhalt"}},]