[{"name":"Ahornweg","postalCode":"36145","locality":"Hofbieber","municipality":{"key":"06631013","name":"Hofbieber","type":"Kreisangehörige_Gemeinde"},"district":{"key":"06631","name":"Fulda","type":"Landkreis"},"federalState":{"key":"06","name":"Hessen"}},{"name":"Allmuser Str.","postalCode":"36145","locality":"Hofbieber","municipality":{"key":"06631013","name":"Hofbieber","type":"Kreisangehörige_Gemeinde"},"district":{"key":"06631","name":"Fulda","type":"Landkreis"},"federalState":{"key":"06","name":"Hessen"}},{"name":"Alter Weg","postalCode":"36145","locality":"Hofbieber","municipality":{"key":"06631013","name":"Hofbieber","type":"Kreisangehörige_Gemeinde"},"district":{"key":"06631","name":"Fulda","type":"Landkreis"},"federalState":{"key":"06","name":"Hessen"}},{"name":"Am Bahnrain","postalCode":"36145","locality":"Hofbieber","municipality":{"key":"06631013","name":"Hofbieber","type":"Kreisangehörige_Gemeinde"},"district":{"key":"06631","name":"Fulda","type":"Landkreis"},"federalState":{"key":"06","name":"Hessen"}},{"name":"Am Berg","postalCode":"36145","locality":"Hofbieber","municipality":{"key":"06631013","name":"Hofbieber","type":"Kreisangehörige_Gemeinde"},"district":{"key":"06631","name":"Fulda","type":"Landkreis"},"federalState":{"key":"06","name":"Hessen"}},{"name":"Am Birkicht","postalCode":"36145","locality":"Hofbieber","municipality":{"key":"06631013","name":"Hofbieber","type":"Kreisangehörige_Gemeinde"},"district":{"key":"06631","name":"Fulda","type":"Landkreis"},"federalState":{"key":"06","name":"Hessen"}},{"name":"Am Born","postalCode":"36145","locality":"Hofbieber","municipality":{"key":"06631013","name":"Hofbieber","type":"Kreisangehörige_Gemeinde"},"district":{"key":"06631","name":"Fulda","type":"Landkreis"},"federalState":{"key":"06","name":"Hessen"}},{"name":"Am Brunnen","postalCode":"36145","locality":"Hofbieber","municipality":{"key":"06631013","name":"Hofbieber","type":"Kreisangehörige_Gemeinde"},"district":{"key":"06631","name":"Fulda","type":"Landkreis"},"federalState":{"key":"06","name":"Hessen"}},{"name":"Am Bürgerhaus","postalCode":"36145","locality":"Hofbieber","municipality":{"key":"06631013","name":"Hofbieber","type":"Kreisangehörige_Gemeinde"},"district":{"key":"06631","name":"Fulda","type":"Landkreis"},"federalState":{"key":"06","name":"Hessen"}},{"name":"Am Farrod","postalCode":"36145","locality":"Hofbieber","municipality":{"key":"06631013","name":"Hofbieber","type":"Kreisangehörige_Gemeinde"},"district":{"key":"06631","name":"Fulda","type":"Landkreis"},"federalState":{"key":"06","name":"Hessen"}},{"name":"Am Feld","postalCode":"36145","locality":"Hofbieber","municipality":{"key":"06631013","name":"Hofbieber","type":"Kreisangehörige_Gemeinde"},"district":{"key":"06631","name":"Fulda","type":"Landkreis"},"federalState":{"key":"06","name":"Hessen"}},{"name":"Am Gehäu","postalCode":"36145","locality":"Hofbieber","municipality":{"key":"06631013","name":"Hofbieber","type":"Kreisangehörige_Gemeinde"},"district":{"key":"06631","name":"Fulda","type":"Landkreis"},"federalState":{"key":"06","name":"Hessen"}},{"name":"Am Golfplatz","postalCode":"36145","locality":"Hofbieber","municipality":{"key":"06631013","name":"Hofbieber","type":"Kreisangehörige_Gemeinde"},"district":{"key":"06631","name":"Fulda","type":"Landkreis"},"federalState":{"key":"06","name":"Hessen"}},{"name":"Am Gollersrasen","postalCode":"36145","locality":"Hofbieber","municipality":{"key":"06631013","name":"Hofbieber","type":"Kreisangehörige_Gemeinde"},"district":{"key":"06631","name":"Fulda","type":"Landkreis"},"federalState":{"key":"06","name":"Hessen"}},{"name":"Am Heidig","postalCode":"36145","locality":"Hofbieber","municipality":{"key":"06631013","name":"Hofbieber","type":"Kreisangehörige_Gemeinde"},"district":{"key":"06631","name":"Fulda","type":"Landkreis"},"federalState":{"key":"06","name":"Hessen"}},{"name":"Am Heister","postalCode":"36145","locality":"Hofbieber","municipality":{"key":"06631013","name":"Hofbieber","type":"Kreisangehörige_Gemeinde"},"district":{"key":"06631","name":"Fulda","type":"Landkreis"},"federalState":{"key":"06","name":"Hessen"}},{"name":"Am Hirtsrain","postalCode":"36145","locality":"Hofbieber","municipality":{"key":"06631013","name":"Hofbieber","type":"Kreisangehörige_Gemeinde"},"district":{"key":"06631","name":"Fulda","type":"Landkreis"},"federalState":{"key":"06","name":"Hessen"}},{"name":"Am Hofberg","postalCode":"36145","locality":"Hofbieber","municipality":{"key":"06631013","name":"Hofbieber","type":"Kreisangehörige_Gemeinde"},"district":{"key":"06631","name":"Fulda","type":"Landkreis"},"federalState":{"key":"06","name":"Hessen"}},{"name":"Am Hungerwald","postalCode":"36145","locality":"Hofbieber","municipality":{"key":"06631013","name":"Hofbieber","type":"Kreisangehörige_Gemeinde"},"district":{"key":"06631","name":"Fulda","type":"Landkreis"},"federalState":{"key":"06","name":"Hessen"}},{"name":"Am Jugendheim","postalCode":"36145","locality":"Hofbieber","municipality":{"key":"06631013","name":"Hofbieber","type":"Kreisangehörige_Gemeinde"},"district":{"key":"06631","name":"Fulda","type":"Landkreis"},"federalState":{"key":"06","name":"Hessen"}},{"name":"Am Kalkwerk","postalCode":"36145","locality":"Hofbieber","municipality":{"key":"06631013","name":"Hofbieber","type":"Kreisangehörige_Gemeinde"},"district":{"key":"06631","name":"Fulda","type":"Landkreis"},"federalState":{"key":"06","name":"Hessen"}},{"name":"Am Kies","postalCode":"36145","locality":"Hofbieber","municipality":{"key":"06631013","name":"Hofbieber","type":"Kreisangehörige_Gemeinde"},"district":{"key":"06631","name":"Fulda","type":"Landkreis"},"federalState":{"key":"06","name":"Hessen"}},{"name":"Am Kiesberg","postalCode":"36145","locality":"Hofbieber","municipality":{"key":"06631013","name":"Hofbieber","type":"Kreisangehörige_Gemeinde"},"district":{"key":"06631","name":"Fulda","type":"Landkreis"},"federalState":{"key":"06","name":"Hessen"}},{"name":"Am Krautgarten","postalCode":"36145","locality":"Hofbieber","municipality":{"key":"06631013","name":"Hofbieber","type":"Kreisangehörige_Gemeinde"},"district":{"key":"06631","name":"Fulda","type":"Landkreis"},"federalState":{"key":"06","name":"Hessen"}},{"name":"Am Langen Rasen","postalCode":"36145","locality":"Hofbieber","municipality":{"key":"06631013","name":"Hofbieber","type":"Kreisangehörige_Gemeinde"},"district":{"key":"06631","name":"Fulda","type":"Landkreis"},"federalState":{"key":"06","name":"Hessen"}},{"name":"Am Lindenplatz","postalCode":"36145","locality":"Hofbieber","municipality":{"key":"06631013","name":"Hofbieber","type":"Kreisangehörige_Gemeinde"},"district":{"key":"06631","name":"Fulda","type":"Landkreis"},"federalState":{"key":"06","name":"Hessen"}},{"name":"Am Linsengraben","postalCode":"36145","locality":"Hofbieber","municipality":{"key":"06631013","name":"Hofbieber","type":"Kreisangehörige_Gemeinde"},"district":{"key":"06631","name":"Fulda","type":"Landkreis"},"federalState":{"key":"06","name":"Hessen"}},{"name":"Am Manggraben","postalCode":"36145","locality":"Hofbieber","municipality":{"key":"06631013","name":"Hofbieber","type":"Kreisangehörige_Gemeinde"},"district":{"key":"06631","name":"Fulda","type":"Landkreis"},"federalState":{"key":"06","name":"Hessen"}},{"name":"Am Medenstein","postalCode":"36145","locality":"Hofbieber","municipality":{"key":"06631013","name":"Hofbieber","type":"Kreisangehörige_Gemeinde"},"district":{"key":"06631","name":"Fulda","type":"Landkreis"},"federalState":{"key":"06","name":"Hessen"}},{"name":"Am Mühlschlag","postalCode":"36145","locality":"Hofbieber","municipality":{"key":"06631013","name":"Hofbieber","type":"Kreisangehörige_Gemeinde"},"district":{"key":"06631","name":"Fulda","type":"Landkreis"},"federalState":{"key":"06","name":"Hessen"}},{"name":"Am Sand","postalCode":"36145","locality":"Hofbieber","municipality":{"key":"06631013","name":"Hofbieber","type":"Kreisangehörige_Gemeinde"},"district":{"key":"06631","name":"Fulda","type":"Landkreis"},"federalState":{"key":"06","name":"Hessen"}},{"name":"Am Sandberg","postalCode":"36145","locality":"Hofbieber","municipality":{"key":"06631013","name":"Hofbieber","type":"Kreisangehörige_Gemeinde"},"district":{"key":"06631","name":"Fulda","type":"Landkreis"},"federalState":{"key":"06","name":"Hessen"}},{"name":"Am Schackenberg","postalCode":"36145","locality":"Hofbieber","municipality":{"key":"06631013","name":"Hofbieber","type":"Kreisangehörige_Gemeinde"},"district":{"key":"06631","name":"Fulda","type":"Landkreis"},"federalState":{"key":"06","name":"Hessen"}},{"name":"Am Schlossberg","postalCode":"36145","locality":"Hofbieber","municipality":{"key":"06631013","name":"Hofbieber","type":"Kreisangehörige_Gemeinde"},"district":{"key":"06631","name":"Fulda","type":"Landkreis"},"federalState":{"key":"06","name":"Hessen"}},{"name":"Am Schnegelsberg","postalCode":"36145","locality":"Hofbieber","municipality":{"key":"06631013","name":"Hofbieber","type":"Kreisangehörige_Gemeinde"},"district":{"key":"06631","name":"Fulda","type":"Landkreis"},"federalState":{"key":"06","name":"Hessen"}},{"name":"Am Schützenhaus","postalCode":"36145","locality":"Hofbieber","municipality":{"key":"06631013","name":"Hofbieber","type":"Kreisangehörige_Gemeinde"},"district":{"key":"06631","name":"Fulda","type":"Landkreis"},"federalState":{"key":"06","name":"Hessen"}},{"name":"Am Sportplatz","postalCode":"36145","locality":"Hofbieber","municipality":{"key":"06631013","name":"Hofbieber","type":"Kreisangehörige_Gemeinde"},"district":{"key":"06631","name":"Fulda","type":"Landkreis"},"federalState":{"key":"06","name":"Hessen"}},{"name":"Am Steinbruch","postalCode":"36145","locality":"Hofbieber","municipality":{"key":"06631013","name":"Hofbieber","type":"Kreisangehörige_Gemeinde"},"district":{"key":"06631","name":"Fulda","type":"Landkreis"},"federalState":{"key":"06","name":"Hessen"}},{"name":"Am Stöckfeld","postalCode":"36145","locality":"Hofbieber","municipality":{"key":"06631013","name":"Hofbieber","type":"Kreisangehörige_Gemeinde"},"district":{"key":"06631","name":"Fulda","type":"Landkreis"},"federalState":{"key":"06","name":"Hessen"}},{"name":"Am Tennisplatz","postalCode":"36145","locality":"Hofbieber","municipality":{"key":"06631013","name":"Hofbieber","type":"Kreisangehörige_Gemeinde"},"district":{"key":"06631","name":"Fulda","type":"Landkreis"},"federalState":{"key":"06","name":"Hessen"}},{"name":"Am Weiherstück","postalCode":"36145","locality":"Hofbieber","municipality":{"key":"06631013","name":"Hofbieber","type":"Kreisangehörige_Gemeinde"},"district":{"key":"06631","name":"Fulda","type":"Landkreis"},"federalState":{"key":"06","name":"Hessen"}},{"name":"Am Wiesenpfad","postalCode":"36145","locality":"Hofbieber","municipality":{"key":"06631013","name":"Hofbieber","type":"Kreisangehörige_Gemeinde"},"district":{"key":"06631","name":"Fulda","type":"Landkreis"},"federalState":{"key":"06","name":"Hessen"}},{"name":"An der Bieber","postalCode":"36145","locality":"Hofbieber","municipality":{"key":"06631013","name":"Hofbieber","type":"Kreisangehörige_Gemeinde"},"district":{"key":"06631","name":"Fulda","type":"Landkreis"},"federalState":{"key":"06","name":"Hessen"}},{"name":"An der Eller","postalCode":"36145","locality":"Hofbieber","municipality":{"key":"06631013","name":"Hofbieber","type":"Kreisangehörige_Gemeinde"},"district":{"key":"06631","name":"Fulda","type":"Landkreis"},"federalState":{"key":"06","name":"Hessen"}},{"name":"An der Georgshöhe","postalCode":"36145","locality":"Hofbieber","municipality":{"key":"06631013","name":"Hofbieber","type":"Kreisangehörige_Gemeinde"},"district":{"key":"06631","name":"Fulda","type":"Landkreis"},"federalState":{"key":"06","name":"Hessen"}},{"name":"An der Insel","postalCode":"36145","locality":"Hofbieber","municipality":{"key":"06631013","name":"Hofbieber","type":"Kreisangehörige_Gemeinde"},"district":{"key":"06631","name":"Fulda","type":"Landkreis"},"federalState":{"key":"06","name":"Hessen"}},{"name":"An der Kähnhecke","postalCode":"36145","locality":"Hofbieber","municipality":{"key":"06631013","name":"Hofbieber","type":"Kreisangehörige_Gemeinde"},"district":{"key":"06631","name":"Fulda","type":"Landkreis"},"federalState":{"key":"06","name":"Hessen"}},{"name":"An der Kirche","postalCode":"36145","locality":"Hofbieber","municipality":{"key":"06631013","name":"Hofbieber","type":"Kreisangehörige_Gemeinde"},"district":{"key":"06631","name":"Fulda","type":"Landkreis"},"federalState":{"key":"06","name":"Hessen"}},{"name":"An der Läng","postalCode":"36145","locality":"Hofbieber","municipality":{"key":"06631013","name":"Hofbieber","type":"Kreisangehörige_Gemeinde"},"district":{"key":"06631","name":"Fulda","type":"Landkreis"},"federalState":{"key":"06","name":"Hessen"}},{"name":"An der Milseburg","postalCode":"36145","locality":"Hofbieber","municipality":{"key":"06631013","name":"Hofbieber","type":"Kreisangehörige_Gemeinde"},"district":{"key":"06631","name":"Fulda","type":"Landkreis"},"federalState":{"key":"06","name":"Hessen"}},{"name":"Bachstr.","postalCode":"36145","locality":"Hofbieber","municipality":{"key":"06631013","name":"Hofbieber","type":"Kreisangehörige_Gemeinde"},"district":{"key":"06631","name":"Fulda","type":"Landkreis"},"federalState":{"key":"06","name":"Hessen"}},{"name":"Bahnhofstr.","postalCode":"36145","locality":"Hofbieber","municipality":{"key":"06631013","name":"Hofbieber","type":"Kreisangehörige_Gemeinde"},"district":{"key":"06631","name":"Fulda","type":"Landkreis"},"federalState":{"key":"06","name":"Hessen"}},{"name":"Bahnhofsweg","postalCode":"36145","locality":"Hofbieber","municipality":{"key":"06631013","name":"Hofbieber","type":"Kreisangehörige_Gemeinde"},"district":{"key":"06631","name":"Fulda","type":"Landkreis"},"federalState":{"key":"06","name":"Hessen"}},{"name":"Bergstr.","postalCode":"36145","locality":"Hofbieber","municipality":{"key":"06631013","name":"Hofbieber","type":"Kreisangehörige_Gemeinde"},"district":{"key":"06631","name":"Fulda","type":"Landkreis"},"federalState":{"key":"06","name":"Hessen"}},{"name":"Biebersteiner Str.","postalCode":"36145","locality":"Hofbieber","municipality":{"key":"06631013","name":"Hofbieber","type":"Kreisangehörige_Gemeinde"},"district":{"key":"06631","name":"Fulda","type":"Landkreis"},"federalState":{"key":"06","name":"Hessen"}},{"name":"Biebersteiner Weg","postalCode":"36145","locality":"Hofbieber","municipality":{"key":"06631013","name":"Hofbieber","type":"Kreisangehörige_Gemeinde"},"district":{"key":"06631","name":"Fulda","type":"Landkreis"},"federalState":{"key":"06","name":"Hessen"}},{"name":"Biebertalstr.","postalCode":"36145","locality":"Hofbieber","municipality":{"key":"06631013","name":"Hofbieber","type":"Kreisangehörige_Gemeinde"},"district":{"key":"06631","name":"Fulda","type":"Landkreis"},"federalState":{"key":"06","name":"Hessen"}},{"name":"Bieberweg","postalCode":"36145","locality":"Hofbieber","municipality":{"key":"06631013","name":"Hofbieber","type":"Kreisangehörige_Gemeinde"},"district":{"key":"06631","name":"Fulda","type":"Landkreis"},"federalState":{"key":"06","name":"Hessen"}},{"name":"Bieneller Str.","postalCode":"36145","locality":"Hofbieber","municipality":{"key":"06631013","name":"Hofbieber","type":"Kreisangehörige_Gemeinde"},"district":{"key":"06631","name":"Fulda","type":"Landkreis"},"federalState":{"key":"06","name":"Hessen"}},{"name":"Birkenweg","postalCode":"36145","locality":"Hofbieber","municipality":{"key":"06631013","name":"Hofbieber","type":"Kreisangehörige_Gemeinde"},"district":{"key":"06631","name":"Fulda","type":"Landkreis"},"federalState":{"key":"06","name":"Hessen"}},{"name":"Borneller Weg","postalCode":"36145","locality":"Hofbieber","municipality":{"key":"06631013","name":"Hofbieber","type":"Kreisangehörige_Gemeinde"},"district":{"key":"06631","name":"Fulda","type":"Landkreis"},"federalState":{"key":"06","name":"Hessen"}},{"name":"Bornweg","postalCode":"36145","locality":"Hofbieber","municipality":{"key":"06631013","name":"Hofbieber","type":"Kreisangehörige_Gemeinde"},"district":{"key":"06631","name":"Fulda","type":"Landkreis"},"federalState":{"key":"06","name":"Hessen"}},{"name":"Boxberg","postalCode":"36145","locality":"Hofbieber","municipality":{"key":"06631013","name":"Hofbieber","type":"Kreisangehörige_Gemeinde"},"district":{"key":"06631","name":"Fulda","type":"Landkreis"},"federalState":{"key":"06","name":"Hessen"}},{"name":"Brunnengasse","postalCode":"36145","locality":"Hofbieber","municipality":{"key":"06631013","name":"Hofbieber","type":"Kreisangehörige_Gemeinde"},"district":{"key":"06631","name":"Fulda","type":"Landkreis"},"federalState":{"key":"06","name":"Hessen"}},{"name":"Brunnenstr.","postalCode":"36145","locality":"Hofbieber","municipality":{"key":"06631013","name":"Hofbieber","type":"Kreisangehörige_Gemeinde"},"district":{"key":"06631","name":"Fulda","type":"Landkreis"},"federalState":{"key":"06","name":"Hessen"}},{"name":"Buchenweg","postalCode":"36145","locality":"Hofbieber","municipality":{"key":"06631013","name":"Hofbieber","type":"Kreisangehörige_Gemeinde"},"district":{"key":"06631","name":"Fulda","type":"Landkreis"},"federalState":{"key":"06","name":"Hessen"}},{"name":"Carl-Schurz-Str.","postalCode":"36041","locality":"Fulda","municipality":{"key":"06631009","name":"Fulda, Stadt","type":"Stadt"},"district":{"key":"06631","name":"Fulda","type":"Landkreis"},"federalState":{"key":"06","name":"Hessen"}},{"name":"Chattenstr.","postalCode":"36043","locality":"Fulda","municipality":{"key":"06631009","name":"Fulda, Stadt","type":"Stadt"},"district":{"key":"06631","name":"Fulda","type":"Landkreis"},"federalState":{"key":"06","name":"Hessen"}},{"name":"Christian-Rohlfs-Str.","postalCode":"36041","locality":"Fulda","municipality":{"key":"06631009","name":"Fulda, Stadt","type":"Stadt"},"district":{"key":"06631","name":"Fulda","type":"Landkreis"},"federalState":{"key":"06","name":"Hessen"}},{"name":"Christian-Wirth-Str.","postalCode":"36043","locality":"Fulda","municipality":{"key":"06631009","name":"Fulda, Stadt","type":"Stadt"},"district":{"key":"06631","name":"Fulda","type":"Landkreis"},"federalState":{"key":"06","name":"Hessen"}},{"name":"Christine-Brückner-Str.","postalCode":"36199","locality":"Rotenburg an der Fulda","municipality":{"key":"06632018","name":"Rotenburg a. d. Fulda, Stadt","type":"Stadt"},"district":{"key":"06632","name":"Hersfeld-Rotenburg","type":"Landkreis"},"federalState":{"key":"06","name":"Hessen"}},{"name":"Columbastr.","postalCode":"36039","locality":"Fulda","municipality":{"key":"06631009","name":"Fulda, Stadt","type":"Stadt"},"district":{"key":"06631","name":"Fulda","type":"Landkreis"},"federalState":{"key":"06","name":"Hessen"}},{"name":"Comostr.","postalCode":"36039","locality":"Fulda","municipality":{"key":"06631009","name":"Fulda, Stadt","type":"Stadt"},"district":{"key":"06631","name":"Fulda","type":"Landkreis"},"federalState":{"key":"06","name":"Hessen"}},{"name":"Corveyer Str.","postalCode":"36039","locality":"Fulda","municipality":{"key":"06631009","name":"Fulda, Stadt","type":"Stadt"},"district":{"key":"06631","name":"Fulda","type":"Landkreis"},"federalState":{"key":"06","name":"Hessen"}},{"name":"Creditonstr.","postalCode":"36039","locality":"Fulda","municipality":{"key":"06631009","name":"Fulda, Stadt","type":"Stadt"},"district":{"key":"06631","name":"Fulda","type":"Landkreis"},"federalState":{"key":"06","name":"Hessen"}},{"name":"Crumbacher Str.","postalCode":"34277","locality":"Fuldabrück","municipality":{"key":"06633008","name":"Fuldabrück","type":"Kreisangehörige_Gemeinde"},"district":{"key":"06633","name":"Kassel","type":"Landkreis"},"federalState":{"key":"06","name":"Hessen"}},{"name":"Dammersbacher Str.","postalCode":"36145","locality":"Hofbieber","municipality":{"key":"06631013","name":"Hofbieber","type":"Kreisangehörige_Gemeinde"},"district":{"key":"06631","name":"Fulda","type":"Landkreis"},"federalState":{"key":"06","name":"Hessen"}},{"name":"Dipperzer Str.","postalCode":"36145","locality":"Hofbieber","municipality":{"key":"06631013","name":"Hofbieber","type":"Kreisangehörige_Gemeinde"},"district":{"key":"06631","name":"Fulda","type":"Landkreis"},"federalState":{"key":"06","name":"Hessen"}},{"name":"Dorfstr.","postalCode":"36145","locality":"Hofbieber","municipality":{"key":"06631013","name":"Hofbieber","type":"Kreisangehörige_Gemeinde"},"district":{"key":"06631","name":"Fulda","type":"Landkreis"},"federalState":{"key":"06","name":"Hessen"}},{"name":"Egelmes","postalCode":"36145","locality":"Hofbieber","municipality":{"key":"06631013","name":"Hofbieber","type":"Kreisangehörige_Gemeinde"},"district":{"key":"06631","name":"Fulda","type":"Landkreis"},"federalState":{"key":"06","name":"Hessen"}},{"name":"Egelmeser Str.","postalCode":"36145","locality":"Hofbieber","municipality":{"key":"06631013","name":"Hofbieber","type":"Kreisangehörige_Gemeinde"},"district":{"key":"06631","name":"Fulda","type":"Landkreis"},"federalState":{"key":"06","name":"Hessen"}},{"name":"Ehrlichsweg","postalCode":"36145","locality":"Hofbieber","municipality":{"key":"06631013","name":"Hofbieber","type":"Kreisangehörige_Gemeinde"},"district":{"key":"06631","name":"Fulda","type":"Landkreis"},"federalState":{"key":"06","name":"Hessen"}},{"name":"Eibenweg","postalCode":"36145","locality":"Hofbieber","municipality":{"key":"06631013","name":"Hofbieber","type":"Kreisangehörige_Gemeinde"},"district":{"key":"06631","name":"Fulda","type":"Landkreis"},"federalState":{"key":"06","name":"Hessen"}},{"name":"Eichenweg","postalCode":"36145","locality":"Hofbieber","municipality":{"key":"06631013","name":"Hofbieber","type":"Kreisangehörige_Gemeinde"},"district":{"key":"06631","name":"Fulda","type":"Landkreis"},"federalState":{"key":"06","name":"Hessen"}},{"name":"Ellenbogenweg","postalCode":"36145","locality":"Hofbieber","municipality":{"key":"06631013","name":"Hofbieber","type":"Kreisangehörige_Gemeinde"},"district":{"key":"06631","name":"Fulda","type":"Landkreis"},"federalState":{"key":"06","name":"Hessen"}},{"name":"Erlenweg","postalCode":"36145","locality":"Hofbieber","municipality":{"key":"06631013","name":"Hofbieber","type":"Kreisangehörige_Gemeinde"},"district":{"key":"06631","name":"Fulda","type":"Landkreis"},"federalState":{"key":"06","name":"Hessen"}},{"name":"Fasanenweg","postalCode":"36145","locality":"Hofbieber","municipality":{"key":"06631013","name":"Hofbieber","type":"Kreisangehörige_Gemeinde"},"district":{"key":"06631","name":"Fulda","type":"Landkreis"},"federalState":{"key":"06","name":"Hessen"}},{"name":"Friedrichstr.","postalCode":"36145","locality":"Hofbieber","municipality":{"key":"06631013","name":"Hofbieber","type":"Kreisangehörige_Gemeinde"},"district":{"key":"06631","name":"Fulda","type":"Landkreis"},"federalState":{"key":"06","name":"Hessen"}},{"name":"Fuldaer Str.","postalCode":"36145","locality":"Hofbieber","municipality":{"key":"06631013","name":"Hofbieber","type":"Kreisangehörige_Gemeinde"},"district":{"key":"06631","name":"Fulda","type":"Landkreis"},"federalState":{"key":"06","name":"Hessen"}},{"name":"Gangolfshof","postalCode":"36145","locality":"Hofbieber","municipality":{"key":"06631013","name":"Hofbieber","type":"Kreisangehörige_Gemeinde"},"district":{"key":"06631","name":"Fulda","type":"Landkreis"},"federalState":{"key":"06","name":"Hessen"}},{"name":"Gartenstr.","postalCode":"36145","locality":"Hofbieber","municipality":{"key":"06631013","name":"Hofbieber","type":"Kreisangehörige_Gemeinde"},"district":{"key":"06631","name":"Fulda","type":"Landkreis"},"federalState":{"key":"06","name":"Hessen"}},{"name":"Gartenweg","postalCode":"36145","locality":"Hofbieber","municipality":{"key":"06631013","name":"Hofbieber","type":"Kreisangehörige_Gemeinde"},"district":{"key":"06631","name":"Fulda","type":"Landkreis"},"federalState":{"key":"06","name":"Hessen"}},{"name":"Gotthardser Str.","postalCode":"36145","locality":"Hofbieber","municipality":{"key":"06631013","name":"Hofbieber","type":"Kreisangehörige_Gemeinde"},"district":{"key":"06631","name":"Fulda","type":"Landkreis"},"federalState":{"key":"06","name":"Hessen"}},{"name":"Grottenweg","postalCode":"36145","locality":"Hofbieber","municipality":{"key":"06631013","name":"Hofbieber","type":"Kreisangehörige_Gemeinde"},"district":{"key":"06631","name":"Fulda","type":"Landkreis"},"federalState":{"key":"06","name":"Hessen"}},{"name":"Gut Weihershof","postalCode":"36145","locality":"Hofbieber","municipality":{"key":"06631013","name":"Hofbieber","type":"Kreisangehörige_Gemeinde"},"district":{"key":"06631","name":"Fulda","type":"Landkreis"},"federalState":{"key":"06","name":"Hessen"}},{"name":"Hauptstr.","postalCode":"36145","locality":"Hofbieber","municipality":{"key":"06631013","name":"Hofbieber","type":"Kreisangehörige_Gemeinde"},"district":{"key":"06631","name":"Fulda","type":"Landkreis"},"federalState":{"key":"06","name":"Hessen"}},{"name":"Heidelsteinstr.","postalCode":"36145","locality":"Hofbieber","municipality":{"key":"06631013","name":"Hofbieber","type":"Kreisangehörige_Gemeinde"},"district":{"key":"06631","name":"Fulda","type":"Landkreis"},"federalState":{"key":"06","name":"Hessen"}},{"name":"Hinterstellberg","postalCode":"36145","locality":"Hofbieber","municipality":{"key":"06631013","name":"Hofbieber","type":"Kreisangehörige_Gemeinde"},"district":{"key":"06631","name":"Fulda","type":"Landkreis"},"federalState":{"key":"06","name":"Hessen"}},{"name":"Hirtsgasse","postalCode":"36145","locality":"Hofbieber","municipality":{"key":"06631013","name":"Hofbieber","type":"Kreisangehörige_Gemeinde"},"district":{"key":"06631","name":"Fulda","type":"Landkreis"},"federalState":{"key":"06","name":"Hessen"}},{"name":"Hochrhönring","postalCode":"36145","locality":"Hofbieber","municipality":{"key":"06631013","name":"Hofbieber","type":"Kreisangehörige_Gemeinde"},"district":{"key":"06631","name":"Fulda","type":"Landkreis"},"federalState":{"key":"06","name":"Hessen"}},{"name":"Hofbergstr.","postalCode":"36145","locality":"Hofbieber","municipality":{"key":"06631013","name":"Hofbieber","type":"Kreisangehörige_Gemeinde"},"district":{"key":"06631","name":"Fulda","type":"Landkreis"},"federalState":{"key":"06","name":"Hessen"}},{"name":"Hofbieberer Str.","postalCode":"36145","locality":"Hofbieber","municipality":{"key":"06631013","name":"Hofbieber","type":"Kreisangehörige_Gemeinde"},"district":{"key":"06631","name":"Fulda","type":"Landkreis"},"federalState":{"key":"06","name":"Hessen"}},{"name":"Hohlsteinweg","postalCode":"36145","locality":"Hofbieber","municipality":{"key":"06631013","name":"Hofbieber","type":"Kreisangehörige_Gemeinde"},"district":{"key":"06631","name":"Fulda","type":"Landkreis"},"federalState":{"key":"06","name":"Hessen"}},{"name":"Im Grund","postalCode":"36145","locality":"Hofbieber","municipality":{"key":"06631013","name":"Hofbieber","type":"Kreisangehörige_Gemeinde"},"district":{"key":"06631","name":"Fulda","type":"Landkreis"},"federalState":{"key":"06","name":"Hessen"}},{"name":"Im Kammerfeld","postalCode":"36145","locality":"Hofbieber","municipality":{"key":"06631013","name":"Hofbieber","type":"Kreisangehörige_Gemeinde"},"district":{"key":"06631","name":"Fulda","type":"Landkreis"},"federalState":{"key":"06","name":"Hessen"}},{"name":"Im Nässenfeld","postalCode":"36145","locality":"Hofbieber","municipality":{"key":"06631013","name":"Hofbieber","type":"Kreisangehörige_Gemeinde"},"district":{"key":"06631","name":"Fulda","type":"Landkreis"},"federalState":{"key":"06","name":"Hessen"}},{"name":"Im Südend","postalCode":"36145","locality":"Hofbieber","municipality":{"key":"06631013","name":"Hofbieber","type":"Kreisangehörige_Gemeinde"},"district":{"key":"06631","name":"Fulda","type":"Landkreis"},"federalState":{"key":"06","name":"Hessen"}},{"name":"Im Weidig","postalCode":"36145","locality":"Hofbieber","municipality":{"key":"06631013","name":"Hofbieber","type":"Kreisangehörige_Gemeinde"},"district":{"key":"06631","name":"Fulda","type":"Landkreis"},"federalState":{"key":"06","name":"Hessen"}},{"name":"Johannesstr.","postalCode":"36145","locality":"Hofbieber","municipality":{"key":"06631013","name":"Hofbieber","type":"Kreisangehörige_Gemeinde"},"district":{"key":"06631","name":"Fulda","type":"Landkreis"},"federalState":{"key":"06","name":"Hessen"}},{"name":"Josefstr.","postalCode":"36145","locality":"Hofbieber","municipality":{"key":"06631013","name":"Hofbieber","type":"Kreisangehörige_Gemeinde"},"district":{"key":"06631","name":"Fulda","type":"Landkreis"},"federalState":{"key":"06","name":"Hessen"}},{"name":"Julius-von-Kreyfelt-Str.","postalCode":"36145","locality":"Hofbieber","municipality":{"key":"06631013","name":"Hofbieber","type":"Kreisangehörige_Gemeinde"},"district":{"key":"06631","name":"Fulda","type":"Landkreis"},"federalState":{"key":"06","name":"Hessen"}},{"name":"Kapellenweg","postalCode":"36145","locality":"Hofbieber","municipality":{"key":"06631013","name":"Hofbieber","type":"Kreisangehörige_Gemeinde"},"district":{"key":"06631","name":"Fulda","type":"Landkreis"},"federalState":{"key":"06","name":"Hessen"}},{"name":"Karhof","postalCode":"36145","locality":"Hofbieber","municipality":{"key":"06631013","name":"Hofbieber","type":"Kreisangehörige_Gemeinde"},"district":{"key":"06631","name":"Fulda","type":"Landkreis"},"federalState":{"key":"06","name":"Hessen"}},{"name":"Kirchplatz","postalCode":"36145","locality":"Hofbieber","municipality":{"key":"06631013","name":"Hofbieber","type":"Kreisangehörige_Gemeinde"},"district":{"key":"06631","name":"Fulda","type":"Landkreis"},"federalState":{"key":"06","name":"Hessen"}},{"name":"Kirchstr.","postalCode":"36145","locality":"Hofbieber","municipality":{"key":"06631013","name":"Hofbieber","type":"Kreisangehörige_Gemeinde"},"district":{"key":"06631","name":"Fulda","type":"Landkreis"},"federalState":{"key":"06","name":"Hessen"}},{"name":"Kirchweg","postalCode":"36145","locality":"Hofbieber","municipality":{"key":"06631013","name":"Hofbieber","type":"Kreisangehörige_Gemeinde"},"district":{"key":"06631","name":"Fulda","type":"Landkreis"},"federalState":{"key":"06","name":"Hessen"}},{"name":"Kohlbergweg","postalCode":"36145","locality":"Hofbieber","municipality":{"key":"06631013","name":"Hofbieber","type":"Kreisangehörige_Gemeinde"},"district":{"key":"06631","name":"Fulda","type":"Landkreis"},"federalState":{"key":"06","name":"Hessen"}},{"name":"Königsmühle","postalCode":"36145","locality":"Hofbieber","municipality":{"key":"06631013","name":"Hofbieber","type":"Kreisangehörige_Gemeinde"},"district":{"key":"06631","name":"Fulda","type":"Landkreis"},"federalState":{"key":"06","name":"Hessen"}},{"name":"Kreuzbergstr.","postalCode":"36145","locality":"Hofbieber","municipality":{"key":"06631013","name":"Hofbieber","type":"Kreisangehörige_Gemeinde"},"district":{"key":"06631","name":"Fulda","type":"Landkreis"},"federalState":{"key":"06","name":"Hessen"}},{"name":"Kreuzweg am Schröcksküppel","postalCode":"36145","locality":"Hofbieber","municipality":{"key":"06631013","name":"Hofbieber","type":"Kreisangehörige_Gemeinde"},"district":{"key":"06631","name":"Fulda","type":"Landkreis"},"federalState":{"key":"06","name":"Hessen"}},{"name":"Kugelbergstr.","postalCode":"36145","locality":"Hofbieber","municipality":{"key":"06631013","name":"Hofbieber","type":"Kreisangehörige_Gemeinde"},"district":{"key":"06631","name":"Fulda","type":"Landkreis"},"federalState":{"key":"06","name":"Hessen"}},{"name":"Langenberg","postalCode":"36145","locality":"Hofbieber","municipality":{"key":"06631013","name":"Hofbieber","type":"Kreisangehörige_Gemeinde"},"district":{"key":"06631","name":"Fulda","type":"Landkreis"},"federalState":{"key":"06","name":"Hessen"}},{"name":"Langenbieberer Str.","postalCode":"36145","locality":"Hofbieber","municipality":{"key":"06631013","name":"Hofbieber","type":"Kreisangehörige_Gemeinde"},"district":{"key":"06631","name":"Fulda","type":"Landkreis"},"federalState":{"key":"06","name":"Hessen"}},{"name":"Lichtweg","postalCode":"36145","locality":"Hofbieber","municipality":{"key":"06631013","name":"Hofbieber","type":"Kreisangehörige_Gemeinde"},"district":{"key":"06631","name":"Fulda","type":"Landkreis"},"federalState":{"key":"06","name":"Hessen"}},{"name":"Lindenstr.","postalCode":"36145","locality":"Hofbieber","municipality":{"key":"06631013","name":"Hofbieber","type":"Kreisangehörige_Gemeinde"},"district":{"key":"06631","name":"Fulda","type":"Landkreis"},"federalState":{"key":"06","name":"Hessen"}},{"name":"Lölsweg","postalCode":"36145","locality":"Hofbieber","municipality":{"key":"06631013","name":"Hofbieber","type":"Kreisangehörige_Gemeinde"},"district":{"key":"06631","name":"Fulda","type":"Landkreis"},"federalState":{"key":"06","name":"Hessen"}},{"name":"Ludwig-Nüdling-Weg","postalCode":"36145","locality":"Hofbieber","municipality":{"key":"06631013","name":"Hofbieber","type":"Kreisangehörige_Gemeinde"},"district":{"key":"06631","name":"Fulda","type":"Landkreis"},"federalState":{"key":"06","name":"Hessen"}},{"name":"Mahlertser Str.","postalCode":"36145","locality":"Hofbieber","municipality":{"key":"06631013","name":"Hofbieber","type":"Kreisangehörige_Gemeinde"},"district":{"key":"06631","name":"Fulda","type":"Landkreis"},"federalState":{"key":"06","name":"Hessen"}},{"name":"Mahlertsmühle","postalCode":"36145","locality":"Hofbieber","municipality":{"key":"06631013","name":"Hofbieber","type":"Kreisangehörige_Gemeinde"},"district":{"key":"06631","name":"Fulda","type":"Landkreis"},"federalState":{"key":"06","name":"Hessen"}},{"name":"Mambachtalstr.","postalCode":"36145","locality":"Hofbieber","municipality":{"key":"06631013","name":"Hofbieber","type":"Kreisangehörige_Gemeinde"},"district":{"key":"06631","name":"Fulda","type":"Landkreis"},"federalState":{"key":"06","name":"Hessen"}},{"name":"Martesweg","postalCode":"36145","locality":"Hofbieber","municipality":{"key":"06631013","name":"Hofbieber","type":"Kreisangehörige_Gemeinde"},"district":{"key":"06631","name":"Fulda","type":"Landkreis"},"federalState":{"key":"06","name":"Hessen"}},{"name":"Milseburgstr.","postalCode":"36145","locality":"Hofbieber","municipality":{"key":"06631013","name":"Hofbieber","type":"Kreisangehörige_Gemeinde"},"district":{"key":"06631","name":"Fulda","type":"Landkreis"},"federalState":{"key":"06","name":"Hessen"}},{"name":"Mittelberger Str.","postalCode":"36145","locality":"Hofbieber","municipality":{"key":"06631013","name":"Hofbieber","type":"Kreisangehörige_Gemeinde"},"district":{"key":"06631","name":"Fulda","type":"Landkreis"},"federalState":{"key":"06","name":"Hessen"}},{"name":"Mittelgasse","postalCode":"36145","locality":"Hofbieber","municipality":{"key":"06631013","name":"Hofbieber","type":"Kreisangehörige_Gemeinde"},"district":{"key":"06631","name":"Fulda","type":"Landkreis"},"federalState":{"key":"06","name":"Hessen"}},{"name":"Mittelstr.","postalCode":"36145","locality":"Hofbieber","municipality":{"key":"06631013","name":"Hofbieber","type":"Kreisangehörige_Gemeinde"},"district":{"key":"06631","name":"Fulda","type":"Landkreis"},"federalState":{"key":"06","name":"Hessen"}},{"name":"Morleser Str.","postalCode":"36145","locality":"Hofbieber","municipality":{"key":"06631013","name":"Hofbieber","type":"Kreisangehörige_Gemeinde"},"district":{"key":"06631","name":"Fulda","type":"Landkreis"},"federalState":{"key":"06","name":"Hessen"}},{"name":"Mühlengasse","postalCode":"36145","locality":"Hofbieber","municipality":{"key":"06631013","name":"Hofbieber","type":"Kreisangehörige_Gemeinde"},"district":{"key":"06631","name":"Fulda","type":"Landkreis"},"federalState":{"key":"06","name":"Hessen"}},{"name":"Mühlenstr.","postalCode":"36145","locality":"Hofbieber","municipality":{"key":"06631013","name":"Hofbieber","type":"Kreisangehörige_Gemeinde"},"district":{"key":"06631","name":"Fulda","type":"Landkreis"},"federalState":{"key":"06","name":"Hessen"}},{"name":"Mühlenweg","postalCode":"36145","locality":"Hofbieber","municipality":{"key":"06631013","name":"Hofbieber","type":"Kreisangehörige_Gemeinde"},"district":{"key":"06631","name":"Fulda","type":"Landkreis"},"federalState":{"key":"06","name":"Hessen"}},{"name":"Niederbieberer Str.","postalCode":"36145","locality":"Hofbieber","municipality":{"key":"06631013","name":"Hofbieber","type":"Kreisangehörige_Gemeinde"},"district":{"key":"06631","name":"Fulda","type":"Landkreis"},"federalState":{"key":"06","name":"Hessen"}},{"name":"Nüsterrasen","postalCode":"36145","locality":"Hofbieber","municipality":{"key":"06631013","name":"Hofbieber","type":"Kreisangehörige_Gemeinde"},"district":{"key":"06631","name":"Fulda","type":"Landkreis"},"federalState":{"key":"06","name":"Hessen"}},{"name":"Nüststr.","postalCode":"36145","locality":"Hofbieber","municipality":{"key":"06631013","name":"Hofbieber","type":"Kreisangehörige_Gemeinde"},"district":{"key":"06631","name":"Fulda","type":"Landkreis"},"federalState":{"key":"06","name":"Hessen"}},{"name":"Oberdörnbachshof","postalCode":"36145","locality":"Hofbieber","municipality":{"key":"06631013","name":"Hofbieber","type":"Kreisangehörige_Gemeinde"},"district":{"key":"06631","name":"Fulda","type":"Landkreis"},"federalState":{"key":"06","name":"Hessen"}},{"name":"Obergruben","postalCode":"36145","locality":"Hofbieber","municipality":{"key":"06631013","name":"Hofbieber","type":"Kreisangehörige_Gemeinde"},"district":{"key":"06631","name":"Fulda","type":"Landkreis"},"federalState":{"key":"06","name":"Hessen"}},{"name":"Oberweg","postalCode":"36145","locality":"Hofbieber","municipality":{"key":"06631013","name":"Hofbieber","type":"Kreisangehörige_Gemeinde"},"district":{"key":"06631","name":"Fulda","type":"Landkreis"},"federalState":{"key":"06","name":"Hessen"}},{"name":"Ortesweg","postalCode":"36145","locality":"Hofbieber","municipality":{"key":"06631013","name":"Hofbieber","type":"Kreisangehörige_Gemeinde"},"district":{"key":"06631","name":"Fulda","type":"Landkreis"},"federalState":{"key":"06","name":"Hessen"}},{"name":"Paul-Klüber-Str.","postalCode":"36145","locality":"Hofbieber","municipality":{"key":"06631013","name":"Hofbieber","type":"Kreisangehörige_Gemeinde"},"district":{"key":"06631","name":"Fulda","type":"Landkreis"},"federalState":{"key":"06","name":"Hessen"}},{"name":"Petersberger Str.","postalCode":"36145","locality":"Hofbieber","municipality":{"key":"06631013","name":"Hofbieber","type":"Kreisangehörige_Gemeinde"},"district":{"key":"06631","name":"Fulda","type":"Landkreis"},"federalState":{"key":"06","name":"Hessen"}},{"name":"Quergasse","postalCode":"36199","locality":"Rotenburg an der Fulda","municipality":{"key":"06632018","name":"Rotenburg a. d. Fulda, Stadt","type":"Stadt"},"district":{"key":"06632","name":"Hersfeld-Rotenburg","type":"Landkreis"},"federalState":{"key":"06","name":"Hessen"}},{"name":"Querstr.","postalCode":"34277","locality":"Fuldabrück","municipality":{"key":"06633008","name":"Fuldabrück","type":"Kreisangehörige_Gemeinde"},"district":{"key":"06633","name":"Kassel","type":"Landkreis"},"federalState":{"key":"06","name":"Hessen"}},{"name":"Querstr.","postalCode":"36199","locality":"Rotenburg an der Fulda","municipality":{"key":"06632018","name":"Rotenburg a. d. Fulda, Stadt","type":"Stadt"},"district":{"key":"06632","name":"Hersfeld-Rotenburg","type":"Landkreis"},"federalState":{"key":"06","name":"Hessen"}},{"name":"Querweingasse","postalCode":"36199","locality":"Rotenburg an der Fulda","municipality":{"key":"06632018","name":"Rotenburg a. d. Fulda, Stadt","type":"Stadt"},"district":{"key":"06632","name":"Hersfeld-Rotenburg","type":"Landkreis"},"federalState":{"key":"06","name":"Hessen"}},{"name":"Raiffeisenstr.","postalCode":"36145","locality":"Hofbieber","municipality":{"key":"06631013","name":"Hofbieber","type":"Kreisangehörige_Gemeinde"},"district":{"key":"06631","name":"Fulda","type":"Landkreis"},"federalState":{"key":"06","name":"Hessen"}},{"name":"Rhönringstr.","postalCode":"36145","locality":"Hofbieber","municipality":{"key":"06631013","name":"Hofbieber","type":"Kreisangehörige_Gemeinde"},"district":{"key":"06631","name":"Fulda","type":"Landkreis"},"federalState":{"key":"06","name":"Hessen"}},{"name":"Rhönweg","postalCode":"36145","locality":"Hofbieber","municipality":{"key":"06631013","name":"Hofbieber","type":"Kreisangehörige_Gemeinde"},"district":{"key":"06631","name":"Fulda","type":"Landkreis"},"federalState":{"key":"06","name":"Hessen"}},{"name":"Rimmelser Str.","postalCode":"36145","locality":"Hofbieber","municipality":{"key":"06631013","name":"Hofbieber","type":"Kreisangehörige_Gemeinde"},"district":{"key":"06631","name":"Fulda","type":"Landkreis"},"federalState":{"key":"06","name":"Hessen"}},{"name":"Ringstr.","postalCode":"36145","locality":"Hofbieber","municipality":{"key":"06631013","name":"Hofbieber","type":"Kreisangehörige_Gemeinde"},"district":{"key":"06631","name":"Fulda","type":"Landkreis"},"federalState":{"key":"06","name":"Hessen"}},{"name":"Ringweg","postalCode":"36145","locality":"Hofbieber","municipality":{"key":"06631013","name":"Hofbieber","type":"Kreisangehörige_Gemeinde"},"district":{"key":"06631","name":"Fulda","type":"Landkreis"},"federalState":{"key":"06","name":"Hessen"}},{"name":"Rödergrund","postalCode":"36145","locality":"Hofbieber","municipality":{"key":"06631013","name":"Hofbieber","type":"Kreisangehörige_Gemeinde"},"district":{"key":"06631","name":"Fulda","type":"Landkreis"},"federalState":{"key":"06","name":"Hessen"}},{"name":"Rosenweg","postalCode":"36145","locality":"Hofbieber","municipality":{"key":"06631013","name":"Hofbieber","type":"Kreisangehörige_Gemeinde"},"district":{"key":"06631","name":"Fulda","type":"Landkreis"},"federalState":{"key":"06","name":"Hessen"}},{"name":"Sandroth","postalCode":"36145","locality":"Hofbieber","municipality":{"key":"06631013","name":"Hofbieber","type":"Kreisangehörige_Gemeinde"},"district":{"key":"06631","name":"Fulda","type":"Landkreis"},"federalState":{"key":"06","name":"Hessen"}},{"name":"Schackauer Weg","postalCode":"36145","locality":"Hofbieber","municipality":{"key":"06631013","name":"Hofbieber","type":"Kreisangehörige_Gemeinde"},"district":{"key":"06631","name":"Fulda","type":"Landkreis"},"federalState":{"key":"06","name":"Hessen"}},{"name":"Schäferweg","postalCode":"36145","locality":"Hofbieber","municipality":{"key":"06631013","name":"Hofbieber","type":"Kreisangehörige_Gemeinde"},"district":{"key":"06631","name":"Fulda","type":"Landkreis"},"federalState":{"key":"06","name":"Hessen"}},{"name":"Schloßstr.","postalCode":"36145","locality":"Hofbieber","municipality":{"key":"06631013","name":"Hofbieber","type":"Kreisangehörige_Gemeinde"},"district":{"key":"06631","name":"Fulda","type":"Landkreis"},"federalState":{"key":"06","name":"Hessen"}},{"name":"Schulstr.","postalCode":"36145","locality":"Hofbieber","municipality":{"key":"06631013","name":"Hofbieber","type":"Kreisangehörige_Gemeinde"},"district":{"key":"06631","name":"Fulda","type":"Landkreis"},"federalState":{"key":"06","name":"Hessen"}},{"name":"Schulweg","postalCode":"36145","locality":"Hofbieber","municipality":{"key":"06631013","name":"Hofbieber","type":"Kreisangehörige_Gemeinde"},"district":{"key":"06631","name":"Fulda","type":"Landkreis"},"federalState":{"key":"06","name":"Hessen"}},{"name":"Schwarzbacher Str.","postalCode":"36145","locality":"Hofbieber","municipality":{"key":"06631013","name":"Hofbieber","type":"Kreisangehörige_Gemeinde"},"district":{"key":"06631","name":"Fulda","type":"Landkreis"},"federalState":{"key":"06","name":"Hessen"}},{"name":"Siedlerstr.","postalCode":"36145","locality":"Hofbieber","municipality":{"key":"06631013","name":"Hofbieber","type":"Kreisangehörige_Gemeinde"},"district":{"key":"06631","name":"Fulda","type":"Landkreis"},"federalState":{"key":"06","name":"Hessen"}},{"name":"Skulpturenpark","postalCode":"36145","locality":"Hofbieber","municipality":{"key":"06631013","name":"Hofbieber","type":"Kreisangehörige_Gemeinde"},"district":{"key":"06631","name":"Fulda","type":"Landkreis"},"federalState":{"key":"06","name":"Hessen"}},{"name":"Sonnenweg","postalCode":"36145","locality":"Hofbieber","municipality":{"key":"06631013","name":"Hofbieber","type":"Kreisangehörige_Gemeinde"},"district":{"key":"06631","name":"Fulda","type":"Landkreis"},"federalState":{"key":"06","name":"Hessen"}},{"name":"Steens","postalCode":"36145","locality":"Hofbieber","municipality":{"key":"06631013","name":"Hofbieber","type":"Kreisangehörige_Gemeinde"},"district":{"key":"06631","name":"Fulda","type":"Landkreis"},"federalState":{"key":"06","name":"Hessen"}},{"name":"Steenser Str.","postalCode":"36145","locality":"Hofbieber","municipality":{"key":"06631013","name":"Hofbieber","type":"Kreisangehörige_Gemeinde"},"district":{"key":"06631","name":"Fulda","type":"Landkreis"},"federalState":{"key":"06","name":"Hessen"}},{"name":"Stellbergweg","postalCode":"36145","locality":"Hofbieber","municipality":{"key":"06631013","name":"Hofbieber","type":"Kreisangehörige_Gemeinde"},"district":{"key":"06631","name":"Fulda","type":"Landkreis"},"federalState":{"key":"06","name":"Hessen"}},{"name":"Tannenweg","postalCode":"36145","locality":"Hofbieber","municipality":{"key":"06631013","name":"Hofbieber","type":"Kreisangehörige_Gemeinde"},"district":{"key":"06631","name":"Fulda","type":"Landkreis"},"federalState":{"key":"06","name":"Hessen"}},{"name":"Tanner Str.","postalCode":"36145","locality":"Hofbieber","municipality":{"key":"06631013","name":"Hofbieber","type":"Kreisangehörige_Gemeinde"},"district":{"key":"06631","name":"Fulda","type":"Landkreis"},"federalState":{"key":"06","name":"Hessen"}},{"name":"Traisbacher Str.","postalCode":"36145","locality":"Hofbieber","municipality":{"key":"06631013","name":"Hofbieber","type":"Kreisangehörige_Gemeinde"},"district":{"key":"06631","name":"Fulda","type":"Landkreis"},"federalState":{"key":"06","name":"Hessen"}},{"name":"Ulmenweg","postalCode":"36145","locality":"Hofbieber","municipality":{"key":"06631013","name":"Hofbieber","type":"Kreisangehörige_Gemeinde"},"district":{"key":"06631","name":"Fulda","type":"Landkreis"},"federalState":{"key":"06","name":"Hessen"}},{"name":"Unterdörnbachshof","postalCode":"36145","locality":"Hofbieber","municipality":{"key":"06631013","name":"Hofbieber","type":"Kreisangehörige_Gemeinde"},"district":{"key":"06631","name":"Fulda","type":"Landkreis"},"federalState":{"key":"06","name":"Hessen"}},{"name":"Vorderstellberg","postalCode":"36145","locality":"Hofbieber","municipality":{"key":"06631013","name":"Hofbieber","type":"Kreisangehörige_Gemeinde"},"district":{"key":"06631","name":"Fulda","type":"Landkreis"},"federalState":{"key":"06","name":"Hessen"}},{"name":"Wachtküppelweg","postalCode":"36145","locality":"Hofbieber","municipality":{"key":"06631013","name":"Hofbieber","type":"Kreisangehörige_Gemeinde"},"district":{"key":"06631","name":"Fulda","type":"Landkreis"},"federalState":{"key":"06","name":"Hessen"}},{"name":"Wadbergstr.","postalCode":"36145","locality":"Hofbieber","municipality":{"key":"06631013","name":"Hofbieber","type":"Kreisangehörige_Gemeinde"},"district":{"key":"06631","name":"Fulda","type":"Landkreis"},"federalState":{"key":"06","name":"Hessen"}},{"name":"Wallings","postalCode":"36145","locality":"Hofbieber","municipality":{"key":"06631013","name":"Hofbieber","type":"Kreisangehörige_Gemeinde"},"district":{"key":"06631","name":"Fulda","type":"Landkreis"},"federalState":{"key":"06","name":"Hessen"}},{"name":"Wallingser Weg","postalCode":"36145","locality":"Hofbieber","municipality":{"key":"06631013","name":"Hofbieber","type":"Kreisangehörige_Gemeinde"},"district":{"key":"06631","name":"Fulda","type":"Landkreis"},"federalState":{"key":"06","name":"Hessen"}},{"name":"Wallweg","postalCode":"36145","locality":"Hofbieber","municipality":{"key":"06631013","name":"Hofbieber","type":"Kreisangehörige_Gemeinde"},"district":{"key":"06631","name":"Fulda","type":"Landkreis"},"federalState":{"key":"06","name":"Hessen"}},{"name":"Wasserkuppenstr.","postalCode":"36145","locality":"Hofbieber","municipality":{"key":"06631013","name":"Hofbieber","type":"Kreisangehörige_Gemeinde"},"district":{"key":"06631","name":"Fulda","type":"Landkreis"},"federalState":{"key":"06","name":"Hessen"}},{"name":"Weihershöfer Weg","postalCode":"36145","locality":"Hofbieber","municipality":{"key":"06631013","name":"Hofbieber","type":"Kreisangehörige_Gemeinde"},"district":{"key":"06631","name":"Fulda","type":"Landkreis"},"federalState":{"key":"06","name":"Hessen"}},{"name":"Weihersmühle","postalCode":"36145","locality":"Hofbieber","municipality":{"key":"06631013","name":"Hofbieber","type":"Kreisangehörige_Gemeinde"},"district":{"key":"06631","name":"Fulda","type":"Landkreis"},"federalState":{"key":"06","name":"Hessen"}},{"name":"Weinstr.","postalCode":"36145","locality":"Hofbieber","municipality":{"key":"06631013","name":"Hofbieber","type":"Kreisangehörige_Gemeinde"},"district":{"key":"06631","name":"Fulda","type":"Landkreis"},"federalState":{"key":"06","name":"Hessen"}},{"name":"Wiesener Str.","postalCode":"36145","locality":"Hofbieber","municipality":{"key":"06631013","name":"Hofbieber","type":"Kreisangehörige_Gemeinde"},"district":{"key":"06631","name":"Fulda","type":"Landkreis"},"federalState":{"key":"06","name":"Hessen"}},{"name":"Wiesenstr.","postalCode":"36145","locality":"Hofbieber","municipality":{"key":"06631013","name":"Hofbieber","type":"Kreisangehörige_Gemeinde"},"district":{"key":"06631","name":"Fulda","type":"Landkreis"},"federalState":{"key":"06","name":"Hessen"}},{"name":"Wiesenweg","postalCode":"36145","locality":"Hofbieber","municipality":{"key":"06631013","name":"Hofbieber","type":"Kreisangehörige_Gemeinde"},"district":{"key":"06631","name":"Fulda","type":"Landkreis"},"federalState":{"key":"06","name":"Hessen"}},{"name":"Wilhelm-Leitschuh-Str.","postalCode":"36145","locality":"Hofbieber","municipality":{"key":"06631013","name":"Hofbieber","type":"Kreisangehörige_Gemeinde"},"district":{"key":"06631","name":"Fulda","type":"Landkreis"},"federalState":{"key":"06","name":"Hessen"}},{"name":"Wittgeser Str.","postalCode":"36145","locality":"Hofbieber","municipality":{"key":"06631013","name":"Hofbieber","type":"Kreisangehörige_Gemeinde"},"district":{"key":"06631","name":"Fulda","type":"Landkreis"},"federalState":{"key":"06","name":"Hessen"}},{"name":"Ysenburgstr.","postalCode":"34233","locality":"Fuldatal","municipality":{"key":"06633009","name":"Fuldatal","type":"Kreisangehörige_Gemeinde"},"district":{"key":"06633","name":"Kassel","type":"Landkreis"},"federalState":{"key":"06","name":"Hessen"}},{"name":"Zu den Dörnbachshöfen","postalCode":"36145","locality":"Hofbieber","municipality":{"key":"06631013","name":"Hofbieber","type":"Kreisangehörige_Gemeinde"},"district":{"key":"06631","name":"Fulda","type":"Landkreis"},"federalState":{"key":"06","name":"Hessen"}},{"name":"Zufallweg","postalCode":"36145","locality":"Hofbieber","municipality":{"key":"06631013","name":"Hofbieber","type":"Kreisangehörige_Gemeinde"},"district":{"key":"06631","name":"Fulda","type":"Landkreis"},"federalState":{"key":"06","name":"Hessen"}},{"name":"Zum Grabenhof","postalCode":"36145","locality":"Hofbieber","municipality":{"key":"06631013","name":"Hofbieber","type":"Kreisangehörige_Gemeinde"},"district":{"key":"06631","name":"Fulda","type":"Landkreis"},"federalState":{"key":"06","name":"Hessen"}},{"name":"Zum Hahnershof","postalCode":"36145","locality":"Hofbieber","municipality":{"key":"06631013","name":"Hofbieber","type":"Kreisangehörige_Gemeinde"},"district":{"key":"06631","name":"Fulda","type":"Landkreis"},"federalState":{"key":"06","name":"Hessen"}},{"name":"Zum Hauenstein","postalCode":"36145","locality":"Hofbieber","municipality":{"key":"06631013","name":"Hofbieber","type":"Kreisangehörige_Gemeinde"},"district":{"key":"06631","name":"Fulda","type":"Landkreis"},"federalState":{"key":"06","name":"Hessen"}},{"name":"Zum Ringwall","postalCode":"36145","locality":"Hofbieber","municipality":{"key":"06631013","name":"Hofbieber","type":"Kreisangehörige_Gemeinde"},"district":{"key":"06631","name":"Fulda","type":"Landkreis"},"federalState":{"key":"06","name":"Hessen"}},{"name":"Zum Wäldchen","postalCode":"36145","locality":"Hofbieber","municipality":{"key":"06631013","name":"Hofbieber","type":"Kreisangehörige_Gemeinde"},"district":{"key":"06631","name":"Fulda","type":"Landkreis"},"federalState":{"key":"06","name":"Hessen"}},{"name":"Zum Ziegenkopf","postalCode":"36145","locality":"Hofbieber","municipality":{"key":"06631013","name":"Hofbieber","type":"Kreisangehörige_Gemeinde"},"district":{"key":"06631","name":"Fulda","type":"Landkreis"},"federalState":{"key":"06","name":"Hessen"}},{"name":"Zur Grotte","postalCode":"36145","locality":"Hofbieber","municipality":{"key":"06631013","name":"Hofbieber","type":"Kreisangehörige_Gemeinde"},"district":{"key":"06631","name":"Fulda","type":"Landkreis"},"federalState":{"key":"06","name":"Hessen"}},{"name":"Zur Günze","postalCode":"36145","locality":"Hofbieber","municipality":{"key":"06631013","name":"Hofbieber","type":"Kreisangehörige_Gemeinde"},"district":{"key":"06631","name":"Fulda","type":"Landkreis"},"federalState":{"key":"06","name":"Hessen"}},{"name":"Zur Hessenliede","postalCode":"36145","locality":"Hofbieber","municipality":{"key":"06631013","name":"Hofbieber","type":"Kreisangehörige_Gemeinde"},"district":{"key":"06631","name":"Fulda","type":"Landkreis"},"federalState":{"key":"06","name":"Hessen"}},{"name":"Öchenbach","postalCode":"36145","locality":"Hofbieber","municipality":{"key":"06631013","name":"Hofbieber","type":"Kreisangehörige_Gemeinde"},"district":{"key":"06631","name":"Fulda","type":"Landkreis"},"federalState":{"key":"06","name":"Hessen"}},{"name":"Über dem Gericht","postalCode":"36199","locality":"Rotenburg an der Fulda","municipality":{"key":"06632018","name":"Rotenburg a. d. Fulda, Stadt","type":"Stadt"},"district":{"key":"06632","name":"Hersfeld-Rotenburg","type":"Landkreis"},"federalState":{"key":"06","name":"Hessen"}},{"name":"Über den Gärten","postalCode":"36041","locality":"Fulda","municipality":{"key":"06631009","name":"Fulda, Stadt","type":"Stadt"},"district":{"key":"06631","name":"Fulda","type":"Landkreis"},"federalState":{"key":"06","name":"Hessen"}},{"name":"Über den Gärten","postalCode":"36199","locality":"Rotenburg an der Fulda","municipality":{"key":"06632018","name":"Rotenburg a. d. Fulda, Stadt","type":"Stadt"},"district":{"key":"06632","name":"Hersfeld-Rotenburg","type":"Landkreis"},"federalState":{"key":"06","name":"Hessen"}},{"name":"Über der Aue","postalCode":"36041","locality":"Fulda","municipality":{"key":"06631009","name":"Fulda, Stadt","type":"Stadt"},"district":{"key":"06631","name":"Fulda","type":"Landkreis"},"federalState":{"key":"06","name":"Hessen"}},{"name":"Über der Linde","postalCode":"36199","locality":"Rotenburg an der Fulda","municipality":{"key":"06632018","name":"Rotenburg a. d. Fulda, Stadt","type":"Stadt"},"district":{"key":"06632","name":"Hersfeld-Rotenburg","type":"Landkreis"},"federalState":{"key":"06","name":"Hessen"}},{"name":"Über der Schanze","postalCode":"36199","locality":"Rotenburg an der Fulda","municipality":{"key":"06632018","name":"Rotenburg a. d. Fulda, Stadt","type":"Stadt"},"district":{"key":"06632","name":"Hersfeld-Rotenburg","type":"Landkreis"},"federalState":{"key":"06","name":"Hessen"}},{"name":"Übers Feld","postalCode":"34233","locality":"Fuldatal","municipality":{"key":"06633009","name":"Fuldatal","type":"Kreisangehörige_Gemeinde"},"district":{"key":"06633","name":"Kassel","type":"Landkreis"},"federalState":{"key":"06","name":"Hessen"}},{"name":"Ürzeller Weg","postalCode":"36041","locality":"Fulda","municipality":{"key":"06631009","name":"Fulda, Stadt","type":"Stadt"},"district":{"key":"06631","name":"Fulda","type":"Landkreis"},"federalState":{"key":"06","name":"Hessen"}},]