[{"name":"Ackerweg","postalCode":"32289","locality":"Rödinghausen","municipality":{"key":"05758028","name":"Rödinghausen","type":"Kreisangehörige_Gemeinde"},"district":{"key":"05758","name":"Herford","type":"Kreis"},"federalState":{"key":"05","name":"Nordrhein-Westfalen"}},{"name":"Adlerweg","postalCode":"32289","locality":"Rödinghausen","municipality":{"key":"05758028","name":"Rödinghausen","type":"Kreisangehörige_Gemeinde"},"district":{"key":"05758","name":"Herford","type":"Kreis"},"federalState":{"key":"05","name":"Nordrhein-Westfalen"}},{"name":"Ahornweg","postalCode":"32289","locality":"Rödinghausen","municipality":{"key":"05758028","name":"Rödinghausen","type":"Kreisangehörige_Gemeinde"},"district":{"key":"05758","name":"Herford","type":"Kreis"},"federalState":{"key":"05","name":"Nordrhein-Westfalen"}},{"name":"Albert-Einstein-Str.","postalCode":"32289","locality":"Rödinghausen","municipality":{"key":"05758028","name":"Rödinghausen","type":"Kreisangehörige_Gemeinde"},"district":{"key":"05758","name":"Herford","type":"Kreis"},"federalState":{"key":"05","name":"Nordrhein-Westfalen"}},{"name":"Albert-Schweitzer-Str.","postalCode":"32289","locality":"Rödinghausen","municipality":{"key":"05758028","name":"Rödinghausen","type":"Kreisangehörige_Gemeinde"},"district":{"key":"05758","name":"Herford","type":"Kreis"},"federalState":{"key":"05","name":"Nordrhein-Westfalen"}},{"name":"Alte Dorfstr.","postalCode":"32289","locality":"Rödinghausen","municipality":{"key":"05758028","name":"Rödinghausen","type":"Kreisangehörige_Gemeinde"},"district":{"key":"05758","name":"Herford","type":"Kreis"},"federalState":{"key":"05","name":"Nordrhein-Westfalen"}},{"name":"Alte Siedlung","postalCode":"32289","locality":"Rödinghausen","municipality":{"key":"05758028","name":"Rödinghausen","type":"Kreisangehörige_Gemeinde"},"district":{"key":"05758","name":"Herford","type":"Kreis"},"federalState":{"key":"05","name":"Nordrhein-Westfalen"}},{"name":"Am Alten Sportplatz","postalCode":"32289","locality":"Rödinghausen","municipality":{"key":"05758028","name":"Rödinghausen","type":"Kreisangehörige_Gemeinde"},"district":{"key":"05758","name":"Herford","type":"Kreis"},"federalState":{"key":"05","name":"Nordrhein-Westfalen"}},{"name":"Am Amtssteinbruch","postalCode":"32289","locality":"Rödinghausen","municipality":{"key":"05758028","name":"Rödinghausen","type":"Kreisangehörige_Gemeinde"},"district":{"key":"05758","name":"Herford","type":"Kreis"},"federalState":{"key":"05","name":"Nordrhein-Westfalen"}},{"name":"Am Bergkamp","postalCode":"32289","locality":"Rödinghausen","municipality":{"key":"05758028","name":"Rödinghausen","type":"Kreisangehörige_Gemeinde"},"district":{"key":"05758","name":"Herford","type":"Kreis"},"federalState":{"key":"05","name":"Nordrhein-Westfalen"}},{"name":"Am Camp","postalCode":"32289","locality":"Rödinghausen","municipality":{"key":"05758028","name":"Rödinghausen","type":"Kreisangehörige_Gemeinde"},"district":{"key":"05758","name":"Herford","type":"Kreis"},"federalState":{"key":"05","name":"Nordrhein-Westfalen"}},{"name":"Am Feuerwehrhaus","postalCode":"32289","locality":"Rödinghausen","municipality":{"key":"05758028","name":"Rödinghausen","type":"Kreisangehörige_Gemeinde"},"district":{"key":"05758","name":"Herford","type":"Kreis"},"federalState":{"key":"05","name":"Nordrhein-Westfalen"}},{"name":"Am Freibad","postalCode":"32289","locality":"Rödinghausen","municipality":{"key":"05758028","name":"Rödinghausen","type":"Kreisangehörige_Gemeinde"},"district":{"key":"05758","name":"Herford","type":"Kreis"},"federalState":{"key":"05","name":"Nordrhein-Westfalen"}},{"name":"Am Gemeindehaus","postalCode":"32289","locality":"Rödinghausen","municipality":{"key":"05758028","name":"Rödinghausen","type":"Kreisangehörige_Gemeinde"},"district":{"key":"05758","name":"Herford","type":"Kreis"},"federalState":{"key":"05","name":"Nordrhein-Westfalen"}},{"name":"Am Heidenbrockacker","postalCode":"32289","locality":"Rödinghausen","municipality":{"key":"05758028","name":"Rödinghausen","type":"Kreisangehörige_Gemeinde"},"district":{"key":"05758","name":"Herford","type":"Kreis"},"federalState":{"key":"05","name":"Nordrhein-Westfalen"}},{"name":"Am Höger Siek","postalCode":"32289","locality":"Rödinghausen","municipality":{"key":"05758028","name":"Rödinghausen","type":"Kreisangehörige_Gemeinde"},"district":{"key":"05758","name":"Herford","type":"Kreis"},"federalState":{"key":"05","name":"Nordrhein-Westfalen"}},{"name":"Am Holtacker","postalCode":"32289","locality":"Rödinghausen","municipality":{"key":"05758028","name":"Rödinghausen","type":"Kreisangehörige_Gemeinde"},"district":{"key":"05758","name":"Herford","type":"Kreis"},"federalState":{"key":"05","name":"Nordrhein-Westfalen"}},{"name":"Am Hünengrab","postalCode":"32289","locality":"Rödinghausen","municipality":{"key":"05758028","name":"Rödinghausen","type":"Kreisangehörige_Gemeinde"},"district":{"key":"05758","name":"Herford","type":"Kreis"},"federalState":{"key":"05","name":"Nordrhein-Westfalen"}},{"name":"Am Kilverbach","postalCode":"32289","locality":"Rödinghausen","municipality":{"key":"05758028","name":"Rödinghausen","type":"Kreisangehörige_Gemeinde"},"district":{"key":"05758","name":"Herford","type":"Kreis"},"federalState":{"key":"05","name":"Nordrhein-Westfalen"}},{"name":"Am Kummerbrink","postalCode":"32289","locality":"Rödinghausen","municipality":{"key":"05758028","name":"Rödinghausen","type":"Kreisangehörige_Gemeinde"},"district":{"key":"05758","name":"Herford","type":"Kreis"},"federalState":{"key":"05","name":"Nordrhein-Westfalen"}},{"name":"Am Kurpark","postalCode":"32289","locality":"Rödinghausen","municipality":{"key":"05758028","name":"Rödinghausen","type":"Kreisangehörige_Gemeinde"},"district":{"key":"05758","name":"Herford","type":"Kreis"},"federalState":{"key":"05","name":"Nordrhein-Westfalen"}},{"name":"Am langen Siek","postalCode":"32289","locality":"Rödinghausen","municipality":{"key":"05758028","name":"Rödinghausen","type":"Kreisangehörige_Gemeinde"},"district":{"key":"05758","name":"Herford","type":"Kreis"},"federalState":{"key":"05","name":"Nordrhein-Westfalen"}},{"name":"Am Maschbrink","postalCode":"32289","locality":"Rödinghausen","municipality":{"key":"05758028","name":"Rödinghausen","type":"Kreisangehörige_Gemeinde"},"district":{"key":"05758","name":"Herford","type":"Kreis"},"federalState":{"key":"05","name":"Nordrhein-Westfalen"}},{"name":"Am Röthegraben","postalCode":"32289","locality":"Rödinghausen","municipality":{"key":"05758028","name":"Rödinghausen","type":"Kreisangehörige_Gemeinde"},"district":{"key":"05758","name":"Herford","type":"Kreis"},"federalState":{"key":"05","name":"Nordrhein-Westfalen"}},{"name":"Am Rundteil","postalCode":"32289","locality":"Rödinghausen","municipality":{"key":"05758028","name":"Rödinghausen","type":"Kreisangehörige_Gemeinde"},"district":{"key":"05758","name":"Herford","type":"Kreis"},"federalState":{"key":"05","name":"Nordrhein-Westfalen"}},{"name":"Am Schlage","postalCode":"32289","locality":"Rödinghausen","municipality":{"key":"05758028","name":"Rödinghausen","type":"Kreisangehörige_Gemeinde"},"district":{"key":"05758","name":"Herford","type":"Kreis"},"federalState":{"key":"05","name":"Nordrhein-Westfalen"}},{"name":"Am Schulwald","postalCode":"32289","locality":"Rödinghausen","municipality":{"key":"05758028","name":"Rödinghausen","type":"Kreisangehörige_Gemeinde"},"district":{"key":"05758","name":"Herford","type":"Kreis"},"federalState":{"key":"05","name":"Nordrhein-Westfalen"}},{"name":"Amselweg","postalCode":"32289","locality":"Rödinghausen","municipality":{"key":"05758028","name":"Rödinghausen","type":"Kreisangehörige_Gemeinde"},"district":{"key":"05758","name":"Herford","type":"Kreis"},"federalState":{"key":"05","name":"Nordrhein-Westfalen"}},{"name":"Amtshausstr.","postalCode":"32289","locality":"Rödinghausen","municipality":{"key":"05758028","name":"Rödinghausen","type":"Kreisangehörige_Gemeinde"},"district":{"key":"05758","name":"Herford","type":"Kreis"},"federalState":{"key":"05","name":"Nordrhein-Westfalen"}},{"name":"An den Seppen","postalCode":"32289","locality":"Rödinghausen","municipality":{"key":"05758028","name":"Rödinghausen","type":"Kreisangehörige_Gemeinde"},"district":{"key":"05758","name":"Herford","type":"Kreis"},"federalState":{"key":"05","name":"Nordrhein-Westfalen"}},{"name":"An der Breite","postalCode":"32289","locality":"Rödinghausen","municipality":{"key":"05758028","name":"Rödinghausen","type":"Kreisangehörige_Gemeinde"},"district":{"key":"05758","name":"Herford","type":"Kreis"},"federalState":{"key":"05","name":"Nordrhein-Westfalen"}},{"name":"An der Friedenseiche","postalCode":"32289","locality":"Rödinghausen","municipality":{"key":"05758028","name":"Rödinghausen","type":"Kreisangehörige_Gemeinde"},"district":{"key":"05758","name":"Herford","type":"Kreis"},"federalState":{"key":"05","name":"Nordrhein-Westfalen"}},{"name":"An der Kirche","postalCode":"32289","locality":"Rödinghausen","municipality":{"key":"05758028","name":"Rödinghausen","type":"Kreisangehörige_Gemeinde"},"district":{"key":"05758","name":"Herford","type":"Kreis"},"federalState":{"key":"05","name":"Nordrhein-Westfalen"}},{"name":"An der Matilge","postalCode":"32289","locality":"Rödinghausen","municipality":{"key":"05758028","name":"Rödinghausen","type":"Kreisangehörige_Gemeinde"},"district":{"key":"05758","name":"Herford","type":"Kreis"},"federalState":{"key":"05","name":"Nordrhein-Westfalen"}},{"name":"An der Stertwelle","postalCode":"32289","locality":"Rödinghausen","municipality":{"key":"05758028","name":"Rödinghausen","type":"Kreisangehörige_Gemeinde"},"district":{"key":"05758","name":"Herford","type":"Kreis"},"federalState":{"key":"05","name":"Nordrhein-Westfalen"}},{"name":"An der Wolfskammer","postalCode":"32289","locality":"Rödinghausen","municipality":{"key":"05758028","name":"Rödinghausen","type":"Kreisangehörige_Gemeinde"},"district":{"key":"05758","name":"Herford","type":"Kreis"},"federalState":{"key":"05","name":"Nordrhein-Westfalen"}},{"name":"Auenwiese","postalCode":"32289","locality":"Rödinghausen","municipality":{"key":"05758028","name":"Rödinghausen","type":"Kreisangehörige_Gemeinde"},"district":{"key":"05758","name":"Herford","type":"Kreis"},"federalState":{"key":"05","name":"Nordrhein-Westfalen"}},{"name":"Aueweg","postalCode":"32289","locality":"Rödinghausen","municipality":{"key":"05758028","name":"Rödinghausen","type":"Kreisangehörige_Gemeinde"},"district":{"key":"05758","name":"Herford","type":"Kreis"},"federalState":{"key":"05","name":"Nordrhein-Westfalen"}},{"name":"Auf dem Brink","postalCode":"32289","locality":"Rödinghausen","municipality":{"key":"05758028","name":"Rödinghausen","type":"Kreisangehörige_Gemeinde"},"district":{"key":"05758","name":"Herford","type":"Kreis"},"federalState":{"key":"05","name":"Nordrhein-Westfalen"}},{"name":"Auf dem Kamp","postalCode":"32289","locality":"Rödinghausen","municipality":{"key":"05758028","name":"Rödinghausen","type":"Kreisangehörige_Gemeinde"},"district":{"key":"05758","name":"Herford","type":"Kreis"},"federalState":{"key":"05","name":"Nordrhein-Westfalen"}},{"name":"Auf dem Krümpel","postalCode":"32289","locality":"Rödinghausen","municipality":{"key":"05758028","name":"Rödinghausen","type":"Kreisangehörige_Gemeinde"},"district":{"key":"05758","name":"Herford","type":"Kreis"},"federalState":{"key":"05","name":"Nordrhein-Westfalen"}},{"name":"Auf der Drift","postalCode":"32289","locality":"Rödinghausen","municipality":{"key":"05758028","name":"Rödinghausen","type":"Kreisangehörige_Gemeinde"},"district":{"key":"05758","name":"Herford","type":"Kreis"},"federalState":{"key":"05","name":"Nordrhein-Westfalen"}},{"name":"Auf der Heide","postalCode":"32289","locality":"Rödinghausen","municipality":{"key":"05758028","name":"Rödinghausen","type":"Kreisangehörige_Gemeinde"},"district":{"key":"05758","name":"Herford","type":"Kreis"},"federalState":{"key":"05","name":"Nordrhein-Westfalen"}},{"name":"Auf der Horst","postalCode":"32289","locality":"Rödinghausen","municipality":{"key":"05758028","name":"Rödinghausen","type":"Kreisangehörige_Gemeinde"},"district":{"key":"05758","name":"Herford","type":"Kreis"},"federalState":{"key":"05","name":"Nordrhein-Westfalen"}},{"name":"Bachstr.","postalCode":"32289","locality":"Rödinghausen","municipality":{"key":"05758028","name":"Rödinghausen","type":"Kreisangehörige_Gemeinde"},"district":{"key":"05758","name":"Herford","type":"Kreis"},"federalState":{"key":"05","name":"Nordrhein-Westfalen"}},{"name":"Bahnhofstr.","postalCode":"32289","locality":"Rödinghausen","municipality":{"key":"05758028","name":"Rödinghausen","type":"Kreisangehörige_Gemeinde"},"district":{"key":"05758","name":"Herford","type":"Kreis"},"federalState":{"key":"05","name":"Nordrhein-Westfalen"}},{"name":"Bahnstr.","postalCode":"32289","locality":"Rödinghausen","municipality":{"key":"05758028","name":"Rödinghausen","type":"Kreisangehörige_Gemeinde"},"district":{"key":"05758","name":"Herford","type":"Kreis"},"federalState":{"key":"05","name":"Nordrhein-Westfalen"}},{"name":"Bauernsiedlung","postalCode":"32289","locality":"Rödinghausen","municipality":{"key":"05758028","name":"Rödinghausen","type":"Kreisangehörige_Gemeinde"},"district":{"key":"05758","name":"Herford","type":"Kreis"},"federalState":{"key":"05","name":"Nordrhein-Westfalen"}},{"name":"Bauringstr. Nord","postalCode":"32289","locality":"Rödinghausen","municipality":{"key":"05758028","name":"Rödinghausen","type":"Kreisangehörige_Gemeinde"},"district":{"key":"05758","name":"Herford","type":"Kreis"},"federalState":{"key":"05","name":"Nordrhein-Westfalen"}},{"name":"Bauringstr. Süd","postalCode":"32289","locality":"Rödinghausen","municipality":{"key":"05758028","name":"Rödinghausen","type":"Kreisangehörige_Gemeinde"},"district":{"key":"05758","name":"Herford","type":"Kreis"},"federalState":{"key":"05","name":"Nordrhein-Westfalen"}},{"name":"Beethovenstr.","postalCode":"32289","locality":"Rödinghausen","municipality":{"key":"05758028","name":"Rödinghausen","type":"Kreisangehörige_Gemeinde"},"district":{"key":"05758","name":"Herford","type":"Kreis"},"federalState":{"key":"05","name":"Nordrhein-Westfalen"}},{"name":"Bergstr.","postalCode":"32289","locality":"Rödinghausen","municipality":{"key":"05758028","name":"Rödinghausen","type":"Kreisangehörige_Gemeinde"},"district":{"key":"05758","name":"Herford","type":"Kreis"},"federalState":{"key":"05","name":"Nordrhein-Westfalen"}},{"name":"Bergweg","postalCode":"32289","locality":"Rödinghausen","municipality":{"key":"05758028","name":"Rödinghausen","type":"Kreisangehörige_Gemeinde"},"district":{"key":"05758","name":"Herford","type":"Kreis"},"federalState":{"key":"05","name":"Nordrhein-Westfalen"}},{"name":"Blockweg","postalCode":"32289","locality":"Rödinghausen","municipality":{"key":"05758028","name":"Rödinghausen","type":"Kreisangehörige_Gemeinde"},"district":{"key":"05758","name":"Herford","type":"Kreis"},"federalState":{"key":"05","name":"Nordrhein-Westfalen"}},{"name":"Böckelfeld","postalCode":"32289","locality":"Rödinghausen","municipality":{"key":"05758028","name":"Rödinghausen","type":"Kreisangehörige_Gemeinde"},"district":{"key":"05758","name":"Herford","type":"Kreis"},"federalState":{"key":"05","name":"Nordrhein-Westfalen"}},{"name":"Böllstr.","postalCode":"32289","locality":"Rödinghausen","municipality":{"key":"05758028","name":"Rödinghausen","type":"Kreisangehörige_Gemeinde"},"district":{"key":"05758","name":"Herford","type":"Kreis"},"federalState":{"key":"05","name":"Nordrhein-Westfalen"}},{"name":"Böschenfeldweg","postalCode":"32289","locality":"Rödinghausen","municipality":{"key":"05758028","name":"Rödinghausen","type":"Kreisangehörige_Gemeinde"},"district":{"key":"05758","name":"Herford","type":"Kreis"},"federalState":{"key":"05","name":"Nordrhein-Westfalen"}},{"name":"Brechtstr.","postalCode":"32289","locality":"Rödinghausen","municipality":{"key":"05758028","name":"Rödinghausen","type":"Kreisangehörige_Gemeinde"},"district":{"key":"05758","name":"Herford","type":"Kreis"},"federalState":{"key":"05","name":"Nordrhein-Westfalen"}},{"name":"Bremerfeld","postalCode":"32289","locality":"Rödinghausen","municipality":{"key":"05758028","name":"Rödinghausen","type":"Kreisangehörige_Gemeinde"},"district":{"key":"05758","name":"Herford","type":"Kreis"},"federalState":{"key":"05","name":"Nordrhein-Westfalen"}},{"name":"Bruchmühlener Str.","postalCode":"32289","locality":"Rödinghausen","municipality":{"key":"05758028","name":"Rödinghausen","type":"Kreisangehörige_Gemeinde"},"district":{"key":"05758","name":"Herford","type":"Kreis"},"federalState":{"key":"05","name":"Nordrhein-Westfalen"}},{"name":"Bruchstr.","postalCode":"32289","locality":"Rödinghausen","municipality":{"key":"05758028","name":"Rödinghausen","type":"Kreisangehörige_Gemeinde"},"district":{"key":"05758","name":"Herford","type":"Kreis"},"federalState":{"key":"05","name":"Nordrhein-Westfalen"}},{"name":"Buchenweg","postalCode":"32289","locality":"Rödinghausen","municipality":{"key":"05758028","name":"Rödinghausen","type":"Kreisangehörige_Gemeinde"},"district":{"key":"05758","name":"Herford","type":"Kreis"},"federalState":{"key":"05","name":"Nordrhein-Westfalen"}},{"name":"Buersche Str.","postalCode":"32289","locality":"Rödinghausen","municipality":{"key":"05758028","name":"Rödinghausen","type":"Kreisangehörige_Gemeinde"},"district":{"key":"05758","name":"Herford","type":"Kreis"},"federalState":{"key":"05","name":"Nordrhein-Westfalen"}},{"name":"Bünder Str.","postalCode":"32289","locality":"Rödinghausen","municipality":{"key":"05758028","name":"Rödinghausen","type":"Kreisangehörige_Gemeinde"},"district":{"key":"05758","name":"Herford","type":"Kreis"},"federalState":{"key":"05","name":"Nordrhein-Westfalen"}},{"name":"Bunte-Mühlen-Weg","postalCode":"32289","locality":"Rödinghausen","municipality":{"key":"05758028","name":"Rödinghausen","type":"Kreisangehörige_Gemeinde"},"district":{"key":"05758","name":"Herford","type":"Kreis"},"federalState":{"key":"05","name":"Nordrhein-Westfalen"}},{"name":"Bursiek","postalCode":"32289","locality":"Rödinghausen","municipality":{"key":"05758028","name":"Rödinghausen","type":"Kreisangehörige_Gemeinde"},"district":{"key":"05758","name":"Herford","type":"Kreis"},"federalState":{"key":"05","name":"Nordrhein-Westfalen"}},{"name":"Buschweg","postalCode":"32289","locality":"Rödinghausen","municipality":{"key":"05758028","name":"Rödinghausen","type":"Kreisangehörige_Gemeinde"},"district":{"key":"05758","name":"Herford","type":"Kreis"},"federalState":{"key":"05","name":"Nordrhein-Westfalen"}},{"name":"Bussardweg","postalCode":"32289","locality":"Rödinghausen","municipality":{"key":"05758028","name":"Rödinghausen","type":"Kreisangehörige_Gemeinde"},"district":{"key":"05758","name":"Herford","type":"Kreis"},"federalState":{"key":"05","name":"Nordrhein-Westfalen"}},{"name":"Clarenstr.","postalCode":"32052","locality":"Herford","municipality":{"key":"05758012","name":"Herford, Hansestadt","type":"Stadt"},"district":{"key":"05758","name":"Herford","type":"Kreis"},"federalState":{"key":"05","name":"Nordrhein-Westfalen"}},{"name":"Clausewitzstr.","postalCode":"32052","locality":"Herford","municipality":{"key":"05758012","name":"Herford, Hansestadt","type":"Stadt"},"district":{"key":"05758","name":"Herford","type":"Kreis"},"federalState":{"key":"05","name":"Nordrhein-Westfalen"}},{"name":"Credenstr.","postalCode":"32052","locality":"Herford","municipality":{"key":"05758012","name":"Herford, Hansestadt","type":"Stadt"},"district":{"key":"05758","name":"Herford","type":"Kreis"},"federalState":{"key":"05","name":"Nordrhein-Westfalen"}},{"name":"Darnauer Weg","postalCode":"32289","locality":"Rödinghausen","municipality":{"key":"05758028","name":"Rödinghausen","type":"Kreisangehörige_Gemeinde"},"district":{"key":"05758","name":"Herford","type":"Kreis"},"federalState":{"key":"05","name":"Nordrhein-Westfalen"}},{"name":"Diekenweg","postalCode":"32289","locality":"Rödinghausen","municipality":{"key":"05758028","name":"Rödinghausen","type":"Kreisangehörige_Gemeinde"},"district":{"key":"05758","name":"Herford","type":"Kreis"},"federalState":{"key":"05","name":"Nordrhein-Westfalen"}},{"name":"Donoer Str.","postalCode":"32289","locality":"Rödinghausen","municipality":{"key":"05758028","name":"Rödinghausen","type":"Kreisangehörige_Gemeinde"},"district":{"key":"05758","name":"Herford","type":"Kreis"},"federalState":{"key":"05","name":"Nordrhein-Westfalen"}},{"name":"Dorfstr.","postalCode":"32289","locality":"Rödinghausen","municipality":{"key":"05758028","name":"Rödinghausen","type":"Kreisangehörige_Gemeinde"},"district":{"key":"05758","name":"Herford","type":"Kreis"},"federalState":{"key":"05","name":"Nordrhein-Westfalen"}},{"name":"Dreianger","postalCode":"32289","locality":"Rödinghausen","municipality":{"key":"05758028","name":"Rödinghausen","type":"Kreisangehörige_Gemeinde"},"district":{"key":"05758","name":"Herford","type":"Kreis"},"federalState":{"key":"05","name":"Nordrhein-Westfalen"}},{"name":"Drögerhorst","postalCode":"32289","locality":"Rödinghausen","municipality":{"key":"05758028","name":"Rödinghausen","type":"Kreisangehörige_Gemeinde"},"district":{"key":"05758","name":"Herford","type":"Kreis"},"federalState":{"key":"05","name":"Nordrhein-Westfalen"}},{"name":"Drosselweg","postalCode":"32289","locality":"Rödinghausen","municipality":{"key":"05758028","name":"Rödinghausen","type":"Kreisangehörige_Gemeinde"},"district":{"key":"05758","name":"Herford","type":"Kreis"},"federalState":{"key":"05","name":"Nordrhein-Westfalen"}},{"name":"Droste-Hülshoff-Str.","postalCode":"32289","locality":"Rödinghausen","municipality":{"key":"05758028","name":"Rödinghausen","type":"Kreisangehörige_Gemeinde"},"district":{"key":"05758","name":"Herford","type":"Kreis"},"federalState":{"key":"05","name":"Nordrhein-Westfalen"}},{"name":"Dürerweg","postalCode":"32289","locality":"Rödinghausen","municipality":{"key":"05758028","name":"Rödinghausen","type":"Kreisangehörige_Gemeinde"},"district":{"key":"05758","name":"Herford","type":"Kreis"},"federalState":{"key":"05","name":"Nordrhein-Westfalen"}},{"name":"Eichendorffstr.","postalCode":"32289","locality":"Rödinghausen","municipality":{"key":"05758028","name":"Rödinghausen","type":"Kreisangehörige_Gemeinde"},"district":{"key":"05758","name":"Herford","type":"Kreis"},"federalState":{"key":"05","name":"Nordrhein-Westfalen"}},{"name":"Eichenweg","postalCode":"32289","locality":"Rödinghausen","municipality":{"key":"05758028","name":"Rödinghausen","type":"Kreisangehörige_Gemeinde"},"district":{"key":"05758","name":"Herford","type":"Kreis"},"federalState":{"key":"05","name":"Nordrhein-Westfalen"}},{"name":"Enger Weg","postalCode":"32289","locality":"Rödinghausen","municipality":{"key":"05758028","name":"Rödinghausen","type":"Kreisangehörige_Gemeinde"},"district":{"key":"05758","name":"Herford","type":"Kreis"},"federalState":{"key":"05","name":"Nordrhein-Westfalen"}},{"name":"Ernst-Reuter-Str.","postalCode":"32289","locality":"Rödinghausen","municipality":{"key":"05758028","name":"Rödinghausen","type":"Kreisangehörige_Gemeinde"},"district":{"key":"05758","name":"Herford","type":"Kreis"},"federalState":{"key":"05","name":"Nordrhein-Westfalen"}},{"name":"Falkenweg","postalCode":"32289","locality":"Rödinghausen","municipality":{"key":"05758028","name":"Rödinghausen","type":"Kreisangehörige_Gemeinde"},"district":{"key":"05758","name":"Herford","type":"Kreis"},"federalState":{"key":"05","name":"Nordrhein-Westfalen"}},{"name":"Fasanenweg","postalCode":"32289","locality":"Rödinghausen","municipality":{"key":"05758028","name":"Rödinghausen","type":"Kreisangehörige_Gemeinde"},"district":{"key":"05758","name":"Herford","type":"Kreis"},"federalState":{"key":"05","name":"Nordrhein-Westfalen"}},{"name":"Feldstr.","postalCode":"32289","locality":"Rödinghausen","municipality":{"key":"05758028","name":"Rödinghausen","type":"Kreisangehörige_Gemeinde"},"district":{"key":"05758","name":"Herford","type":"Kreis"},"federalState":{"key":"05","name":"Nordrhein-Westfalen"}},{"name":"Fichtenweg","postalCode":"32289","locality":"Rödinghausen","municipality":{"key":"05758028","name":"Rödinghausen","type":"Kreisangehörige_Gemeinde"},"district":{"key":"05758","name":"Herford","type":"Kreis"},"federalState":{"key":"05","name":"Nordrhein-Westfalen"}},{"name":"Finkenweg","postalCode":"32289","locality":"Rödinghausen","municipality":{"key":"05758028","name":"Rödinghausen","type":"Kreisangehörige_Gemeinde"},"district":{"key":"05758","name":"Herford","type":"Kreis"},"federalState":{"key":"05","name":"Nordrhein-Westfalen"}},{"name":"Fliederweg","postalCode":"32289","locality":"Rödinghausen","municipality":{"key":"05758028","name":"Rödinghausen","type":"Kreisangehörige_Gemeinde"},"district":{"key":"05758","name":"Herford","type":"Kreis"},"federalState":{"key":"05","name":"Nordrhein-Westfalen"}},{"name":"Franz-Kafka-Str.","postalCode":"32289","locality":"Rödinghausen","municipality":{"key":"05758028","name":"Rödinghausen","type":"Kreisangehörige_Gemeinde"},"district":{"key":"05758","name":"Herford","type":"Kreis"},"federalState":{"key":"05","name":"Nordrhein-Westfalen"}},{"name":"Freibad Rödinghausen","postalCode":"32289","locality":"Rödinghausen","municipality":{"key":"05758028","name":"Rödinghausen","type":"Kreisangehörige_Gemeinde"},"district":{"key":"05758","name":"Herford","type":"Kreis"},"federalState":{"key":"05","name":"Nordrhein-Westfalen"}},{"name":"Friedebergstr.","postalCode":"32289","locality":"Rödinghausen","municipality":{"key":"05758028","name":"Rödinghausen","type":"Kreisangehörige_Gemeinde"},"district":{"key":"05758","name":"Herford","type":"Kreis"},"federalState":{"key":"05","name":"Nordrhein-Westfalen"}},{"name":"Friedhofsweg","postalCode":"32289","locality":"Rödinghausen","municipality":{"key":"05758028","name":"Rödinghausen","type":"Kreisangehörige_Gemeinde"},"district":{"key":"05758","name":"Herford","type":"Kreis"},"federalState":{"key":"05","name":"Nordrhein-Westfalen"}},{"name":"Fritschendorfer Weg","postalCode":"32289","locality":"Rödinghausen","municipality":{"key":"05758028","name":"Rödinghausen","type":"Kreisangehörige_Gemeinde"},"district":{"key":"05758","name":"Herford","type":"Kreis"},"federalState":{"key":"05","name":"Nordrhein-Westfalen"}},{"name":"Fünfhausenstr.","postalCode":"32289","locality":"Rödinghausen","municipality":{"key":"05758028","name":"Rödinghausen","type":"Kreisangehörige_Gemeinde"},"district":{"key":"05758","name":"Herford","type":"Kreis"},"federalState":{"key":"05","name":"Nordrhein-Westfalen"}},{"name":"Gartenstr.","postalCode":"32289","locality":"Rödinghausen","municipality":{"key":"05758028","name":"Rödinghausen","type":"Kreisangehörige_Gemeinde"},"district":{"key":"05758","name":"Herford","type":"Kreis"},"federalState":{"key":"05","name":"Nordrhein-Westfalen"}},{"name":"Gebrüder-Grimm-Str.","postalCode":"32289","locality":"Rödinghausen","municipality":{"key":"05758028","name":"Rödinghausen","type":"Kreisangehörige_Gemeinde"},"district":{"key":"05758","name":"Herford","type":"Kreis"},"federalState":{"key":"05","name":"Nordrhein-Westfalen"}},{"name":"Gellertweg","postalCode":"32289","locality":"Rödinghausen","municipality":{"key":"05758028","name":"Rödinghausen","type":"Kreisangehörige_Gemeinde"},"district":{"key":"05758","name":"Herford","type":"Kreis"},"federalState":{"key":"05","name":"Nordrhein-Westfalen"}},{"name":"Georg-Büchner-Str.","postalCode":"32289","locality":"Rödinghausen","municipality":{"key":"05758028","name":"Rödinghausen","type":"Kreisangehörige_Gemeinde"},"district":{"key":"05758","name":"Herford","type":"Kreis"},"federalState":{"key":"05","name":"Nordrhein-Westfalen"}},{"name":"Gerhart-Hauptmann-Str.","postalCode":"32289","locality":"Rödinghausen","municipality":{"key":"05758028","name":"Rödinghausen","type":"Kreisangehörige_Gemeinde"},"district":{"key":"05758","name":"Herford","type":"Kreis"},"federalState":{"key":"05","name":"Nordrhein-Westfalen"}},{"name":"Glockenheide","postalCode":"32289","locality":"Rödinghausen","municipality":{"key":"05758028","name":"Rödinghausen","type":"Kreisangehörige_Gemeinde"},"district":{"key":"05758","name":"Herford","type":"Kreis"},"federalState":{"key":"05","name":"Nordrhein-Westfalen"}},{"name":"Goethering","postalCode":"32289","locality":"Rödinghausen","municipality":{"key":"05758028","name":"Rödinghausen","type":"Kreisangehörige_Gemeinde"},"district":{"key":"05758","name":"Herford","type":"Kreis"},"federalState":{"key":"05","name":"Nordrhein-Westfalen"}},{"name":"Gossnerweg","postalCode":"32289","locality":"Rödinghausen","municipality":{"key":"05758028","name":"Rödinghausen","type":"Kreisangehörige_Gemeinde"},"district":{"key":"05758","name":"Herford","type":"Kreis"},"federalState":{"key":"05","name":"Nordrhein-Westfalen"}},{"name":"Griesenbrokstr.","postalCode":"32289","locality":"Rödinghausen","municipality":{"key":"05758028","name":"Rödinghausen","type":"Kreisangehörige_Gemeinde"},"district":{"key":"05758","name":"Herford","type":"Kreis"},"federalState":{"key":"05","name":"Nordrhein-Westfalen"}},{"name":"Große Heide","postalCode":"32289","locality":"Rödinghausen","municipality":{"key":"05758028","name":"Rödinghausen","type":"Kreisangehörige_Gemeinde"},"district":{"key":"05758","name":"Herford","type":"Kreis"},"federalState":{"key":"05","name":"Nordrhein-Westfalen"}},{"name":"Großer Ort","postalCode":"32289","locality":"Rödinghausen","municipality":{"key":"05758028","name":"Rödinghausen","type":"Kreisangehörige_Gemeinde"},"district":{"key":"05758","name":"Herford","type":"Kreis"},"federalState":{"key":"05","name":"Nordrhein-Westfalen"}},{"name":"Grüne Str.","postalCode":"32289","locality":"Rödinghausen","municipality":{"key":"05758028","name":"Rödinghausen","type":"Kreisangehörige_Gemeinde"},"district":{"key":"05758","name":"Herford","type":"Kreis"},"federalState":{"key":"05","name":"Nordrhein-Westfalen"}},{"name":"Gutspark Böckel","postalCode":"32289","locality":"Rödinghausen","municipality":{"key":"05758028","name":"Rödinghausen","type":"Kreisangehörige_Gemeinde"},"district":{"key":"05758","name":"Herford","type":"Kreis"},"federalState":{"key":"05","name":"Nordrhein-Westfalen"}},{"name":"Gutspark Kilver","postalCode":"32289","locality":"Rödinghausen","municipality":{"key":"05758028","name":"Rödinghausen","type":"Kreisangehörige_Gemeinde"},"district":{"key":"05758","name":"Herford","type":"Kreis"},"federalState":{"key":"05","name":"Nordrhein-Westfalen"}},{"name":"Hambachweg","postalCode":"32289","locality":"Rödinghausen","municipality":{"key":"05758028","name":"Rödinghausen","type":"Kreisangehörige_Gemeinde"},"district":{"key":"05758","name":"Herford","type":"Kreis"},"federalState":{"key":"05","name":"Nordrhein-Westfalen"}},{"name":"Hambringweg","postalCode":"32289","locality":"Rödinghausen","municipality":{"key":"05758028","name":"Rödinghausen","type":"Kreisangehörige_Gemeinde"},"district":{"key":"05758","name":"Herford","type":"Kreis"},"federalState":{"key":"05","name":"Nordrhein-Westfalen"}},{"name":"Händelstr.","postalCode":"32289","locality":"Rödinghausen","municipality":{"key":"05758028","name":"Rödinghausen","type":"Kreisangehörige_Gemeinde"},"district":{"key":"05758","name":"Herford","type":"Kreis"},"federalState":{"key":"05","name":"Nordrhein-Westfalen"}},{"name":"Handwerkerstr.","postalCode":"32289","locality":"Rödinghausen","municipality":{"key":"05758028","name":"Rödinghausen","type":"Kreisangehörige_Gemeinde"},"district":{"key":"05758","name":"Herford","type":"Kreis"},"federalState":{"key":"05","name":"Nordrhein-Westfalen"}},{"name":"Hansastr.","postalCode":"32289","locality":"Rödinghausen","municipality":{"key":"05758028","name":"Rödinghausen","type":"Kreisangehörige_Gemeinde"},"district":{"key":"05758","name":"Herford","type":"Kreis"},"federalState":{"key":"05","name":"Nordrhein-Westfalen"}},{"name":"Hans-Sachs-Str.","postalCode":"32289","locality":"Rödinghausen","municipality":{"key":"05758028","name":"Rödinghausen","type":"Kreisangehörige_Gemeinde"},"district":{"key":"05758","name":"Herford","type":"Kreis"},"federalState":{"key":"05","name":"Nordrhein-Westfalen"}},{"name":"Hasenfeld","postalCode":"32289","locality":"Rödinghausen","municipality":{"key":"05758028","name":"Rödinghausen","type":"Kreisangehörige_Gemeinde"},"district":{"key":"05758","name":"Herford","type":"Kreis"},"federalState":{"key":"05","name":"Nordrhein-Westfalen"}},{"name":"Hebelweg","postalCode":"32289","locality":"Rödinghausen","municipality":{"key":"05758028","name":"Rödinghausen","type":"Kreisangehörige_Gemeinde"},"district":{"key":"05758","name":"Herford","type":"Kreis"},"federalState":{"key":"05","name":"Nordrhein-Westfalen"}},{"name":"Heckenweg","postalCode":"32289","locality":"Rödinghausen","municipality":{"key":"05758028","name":"Rödinghausen","type":"Kreisangehörige_Gemeinde"},"district":{"key":"05758","name":"Herford","type":"Kreis"},"federalState":{"key":"05","name":"Nordrhein-Westfalen"}},{"name":"Heerstr.","postalCode":"32289","locality":"Rödinghausen","municipality":{"key":"05758028","name":"Rödinghausen","type":"Kreisangehörige_Gemeinde"},"district":{"key":"05758","name":"Herford","type":"Kreis"},"federalState":{"key":"05","name":"Nordrhein-Westfalen"}},{"name":"Heidestr.","postalCode":"32289","locality":"Rödinghausen","municipality":{"key":"05758028","name":"Rödinghausen","type":"Kreisangehörige_Gemeinde"},"district":{"key":"05758","name":"Herford","type":"Kreis"},"federalState":{"key":"05","name":"Nordrhein-Westfalen"}},{"name":"Heidkamp","postalCode":"32289","locality":"Rödinghausen","municipality":{"key":"05758028","name":"Rödinghausen","type":"Kreisangehörige_Gemeinde"},"district":{"key":"05758","name":"Herford","type":"Kreis"},"federalState":{"key":"05","name":"Nordrhein-Westfalen"}},{"name":"Heidwinkel","postalCode":"32289","locality":"Rödinghausen","municipality":{"key":"05758028","name":"Rödinghausen","type":"Kreisangehörige_Gemeinde"},"district":{"key":"05758","name":"Herford","type":"Kreis"},"federalState":{"key":"05","name":"Nordrhein-Westfalen"}},{"name":"Heinrich-Heine-Str.","postalCode":"32289","locality":"Rödinghausen","municipality":{"key":"05758028","name":"Rödinghausen","type":"Kreisangehörige_Gemeinde"},"district":{"key":"05758","name":"Herford","type":"Kreis"},"federalState":{"key":"05","name":"Nordrhein-Westfalen"}},{"name":"Herderstr.","postalCode":"32289","locality":"Rödinghausen","municipality":{"key":"05758028","name":"Rödinghausen","type":"Kreisangehörige_Gemeinde"},"district":{"key":"05758","name":"Herford","type":"Kreis"},"federalState":{"key":"05","name":"Nordrhein-Westfalen"}},{"name":"Hindenburgstr.","postalCode":"32289","locality":"Rödinghausen","municipality":{"key":"05758028","name":"Rödinghausen","type":"Kreisangehörige_Gemeinde"},"district":{"key":"05758","name":"Herford","type":"Kreis"},"federalState":{"key":"05","name":"Nordrhein-Westfalen"}},{"name":"Hinter der Stockhude","postalCode":"32289","locality":"Rödinghausen","municipality":{"key":"05758028","name":"Rödinghausen","type":"Kreisangehörige_Gemeinde"},"district":{"key":"05758","name":"Herford","type":"Kreis"},"federalState":{"key":"05","name":"Nordrhein-Westfalen"}},{"name":"Högerfeldweg","postalCode":"32289","locality":"Rödinghausen","municipality":{"key":"05758028","name":"Rödinghausen","type":"Kreisangehörige_Gemeinde"},"district":{"key":"05758","name":"Herford","type":"Kreis"},"federalState":{"key":"05","name":"Nordrhein-Westfalen"}},{"name":"Höger Heide","postalCode":"32289","locality":"Rödinghausen","municipality":{"key":"05758028","name":"Rödinghausen","type":"Kreisangehörige_Gemeinde"},"district":{"key":"05758","name":"Herford","type":"Kreis"},"federalState":{"key":"05","name":"Nordrhein-Westfalen"}},{"name":"Hölderlinweg","postalCode":"32289","locality":"Rödinghausen","municipality":{"key":"05758028","name":"Rödinghausen","type":"Kreisangehörige_Gemeinde"},"district":{"key":"05758","name":"Herford","type":"Kreis"},"federalState":{"key":"05","name":"Nordrhein-Westfalen"}},{"name":"Holser Str.","postalCode":"32289","locality":"Rödinghausen","municipality":{"key":"05758028","name":"Rödinghausen","type":"Kreisangehörige_Gemeinde"},"district":{"key":"05758","name":"Herford","type":"Kreis"},"federalState":{"key":"05","name":"Nordrhein-Westfalen"}},{"name":"Holtkampstr.","postalCode":"32289","locality":"Rödinghausen","municipality":{"key":"05758028","name":"Rödinghausen","type":"Kreisangehörige_Gemeinde"},"district":{"key":"05758","name":"Herford","type":"Kreis"},"federalState":{"key":"05","name":"Nordrhein-Westfalen"}},{"name":"Horstfelder Str.","postalCode":"32289","locality":"Rödinghausen","municipality":{"key":"05758028","name":"Rödinghausen","type":"Kreisangehörige_Gemeinde"},"district":{"key":"05758","name":"Herford","type":"Kreis"},"federalState":{"key":"05","name":"Nordrhein-Westfalen"}},{"name":"Hünengrabweg","postalCode":"32289","locality":"Rödinghausen","municipality":{"key":"05758028","name":"Rödinghausen","type":"Kreisangehörige_Gemeinde"},"district":{"key":"05758","name":"Herford","type":"Kreis"},"federalState":{"key":"05","name":"Nordrhein-Westfalen"}},{"name":"Im Böckelfeld","postalCode":"32289","locality":"Rödinghausen","municipality":{"key":"05758028","name":"Rödinghausen","type":"Kreisangehörige_Gemeinde"},"district":{"key":"05758","name":"Herford","type":"Kreis"},"federalState":{"key":"05","name":"Nordrhein-Westfalen"}},{"name":"Im Böskenbruch","postalCode":"32289","locality":"Rödinghausen","municipality":{"key":"05758028","name":"Rödinghausen","type":"Kreisangehörige_Gemeinde"},"district":{"key":"05758","name":"Herford","type":"Kreis"},"federalState":{"key":"05","name":"Nordrhein-Westfalen"}},{"name":"Im Brackfeld","postalCode":"32289","locality":"Rödinghausen","municipality":{"key":"05758028","name":"Rödinghausen","type":"Kreisangehörige_Gemeinde"},"district":{"key":"05758","name":"Herford","type":"Kreis"},"federalState":{"key":"05","name":"Nordrhein-Westfalen"}},{"name":"Im Bruche","postalCode":"32289","locality":"Rödinghausen","municipality":{"key":"05758028","name":"Rödinghausen","type":"Kreisangehörige_Gemeinde"},"district":{"key":"05758","name":"Herford","type":"Kreis"},"federalState":{"key":"05","name":"Nordrhein-Westfalen"}},{"name":"Im Dicken Busche","postalCode":"32289","locality":"Rödinghausen","municipality":{"key":"05758028","name":"Rödinghausen","type":"Kreisangehörige_Gemeinde"},"district":{"key":"05758","name":"Herford","type":"Kreis"},"federalState":{"key":"05","name":"Nordrhein-Westfalen"}},{"name":"Im Dieken","postalCode":"32289","locality":"Rödinghausen","municipality":{"key":"05758028","name":"Rödinghausen","type":"Kreisangehörige_Gemeinde"},"district":{"key":"05758","name":"Herford","type":"Kreis"},"federalState":{"key":"05","name":"Nordrhein-Westfalen"}},{"name":"Im Donoer Berg","postalCode":"32289","locality":"Rödinghausen","municipality":{"key":"05758028","name":"Rödinghausen","type":"Kreisangehörige_Gemeinde"},"district":{"key":"05758","name":"Herford","type":"Kreis"},"federalState":{"key":"05","name":"Nordrhein-Westfalen"}},{"name":"Im Dornsiek","postalCode":"32289","locality":"Rödinghausen","municipality":{"key":"05758028","name":"Rödinghausen","type":"Kreisangehörige_Gemeinde"},"district":{"key":"05758","name":"Herford","type":"Kreis"},"federalState":{"key":"05","name":"Nordrhein-Westfalen"}},{"name":"Im Hasenberg","postalCode":"32289","locality":"Rödinghausen","municipality":{"key":"05758028","name":"Rödinghausen","type":"Kreisangehörige_Gemeinde"},"district":{"key":"05758","name":"Herford","type":"Kreis"},"federalState":{"key":"05","name":"Nordrhein-Westfalen"}},{"name":"Im Kellenberg","postalCode":"32289","locality":"Rödinghausen","municipality":{"key":"05758028","name":"Rödinghausen","type":"Kreisangehörige_Gemeinde"},"district":{"key":"05758","name":"Herford","type":"Kreis"},"federalState":{"key":"05","name":"Nordrhein-Westfalen"}},{"name":"Im Kracht","postalCode":"32289","locality":"Rödinghausen","municipality":{"key":"05758028","name":"Rödinghausen","type":"Kreisangehörige_Gemeinde"},"district":{"key":"05758","name":"Herford","type":"Kreis"},"federalState":{"key":"05","name":"Nordrhein-Westfalen"}},{"name":"Im Loh","postalCode":"32289","locality":"Rödinghausen","municipality":{"key":"05758028","name":"Rödinghausen","type":"Kreisangehörige_Gemeinde"},"district":{"key":"05758","name":"Herford","type":"Kreis"},"federalState":{"key":"05","name":"Nordrhein-Westfalen"}},{"name":"Im Niederfeld","postalCode":"32289","locality":"Rödinghausen","municipality":{"key":"05758028","name":"Rödinghausen","type":"Kreisangehörige_Gemeinde"},"district":{"key":"05758","name":"Herford","type":"Kreis"},"federalState":{"key":"05","name":"Nordrhein-Westfalen"}},{"name":"Im Osterberg","postalCode":"32289","locality":"Rödinghausen","municipality":{"key":"05758028","name":"Rödinghausen","type":"Kreisangehörige_Gemeinde"},"district":{"key":"05758","name":"Herford","type":"Kreis"},"federalState":{"key":"05","name":"Nordrhein-Westfalen"}},{"name":"Im Osterfeld","postalCode":"32289","locality":"Rödinghausen","municipality":{"key":"05758028","name":"Rödinghausen","type":"Kreisangehörige_Gemeinde"},"district":{"key":"05758","name":"Herford","type":"Kreis"},"federalState":{"key":"05","name":"Nordrhein-Westfalen"}},{"name":"Im Placken","postalCode":"32289","locality":"Rödinghausen","municipality":{"key":"05758028","name":"Rödinghausen","type":"Kreisangehörige_Gemeinde"},"district":{"key":"05758","name":"Herford","type":"Kreis"},"federalState":{"key":"05","name":"Nordrhein-Westfalen"}},{"name":"Im Rallensiek","postalCode":"32289","locality":"Rödinghausen","municipality":{"key":"05758028","name":"Rödinghausen","type":"Kreisangehörige_Gemeinde"},"district":{"key":"05758","name":"Herford","type":"Kreis"},"federalState":{"key":"05","name":"Nordrhein-Westfalen"}},{"name":"Im Stüfken","postalCode":"32289","locality":"Rödinghausen","municipality":{"key":"05758028","name":"Rödinghausen","type":"Kreisangehörige_Gemeinde"},"district":{"key":"05758","name":"Herford","type":"Kreis"},"federalState":{"key":"05","name":"Nordrhein-Westfalen"}},{"name":"Im Südholz","postalCode":"32289","locality":"Rödinghausen","municipality":{"key":"05758028","name":"Rödinghausen","type":"Kreisangehörige_Gemeinde"},"district":{"key":"05758","name":"Herford","type":"Kreis"},"federalState":{"key":"05","name":"Nordrhein-Westfalen"}},{"name":"Im Timmerfelde","postalCode":"32289","locality":"Rödinghausen","municipality":{"key":"05758028","name":"Rödinghausen","type":"Kreisangehörige_Gemeinde"},"district":{"key":"05758","name":"Herford","type":"Kreis"},"federalState":{"key":"05","name":"Nordrhein-Westfalen"}},{"name":"Im Wehmerhorster Wiesental","postalCode":"32289","locality":"Rödinghausen","municipality":{"key":"05758028","name":"Rödinghausen","type":"Kreisangehörige_Gemeinde"},"district":{"key":"05758","name":"Herford","type":"Kreis"},"federalState":{"key":"05","name":"Nordrhein-Westfalen"}},{"name":"Im Westerberg","postalCode":"32289","locality":"Rödinghausen","municipality":{"key":"05758028","name":"Rödinghausen","type":"Kreisangehörige_Gemeinde"},"district":{"key":"05758","name":"Herford","type":"Kreis"},"federalState":{"key":"05","name":"Nordrhein-Westfalen"}},{"name":"In der Flage","postalCode":"32289","locality":"Rödinghausen","municipality":{"key":"05758028","name":"Rödinghausen","type":"Kreisangehörige_Gemeinde"},"district":{"key":"05758","name":"Herford","type":"Kreis"},"federalState":{"key":"05","name":"Nordrhein-Westfalen"}},{"name":"In der Gehle","postalCode":"32289","locality":"Rödinghausen","municipality":{"key":"05758028","name":"Rödinghausen","type":"Kreisangehörige_Gemeinde"},"district":{"key":"05758","name":"Herford","type":"Kreis"},"federalState":{"key":"05","name":"Nordrhein-Westfalen"}},{"name":"In der Lage","postalCode":"32289","locality":"Rödinghausen","municipality":{"key":"05758028","name":"Rödinghausen","type":"Kreisangehörige_Gemeinde"},"district":{"key":"05758","name":"Herford","type":"Kreis"},"federalState":{"key":"05","name":"Nordrhein-Westfalen"}},{"name":"In der Ort","postalCode":"32289","locality":"Rödinghausen","municipality":{"key":"05758028","name":"Rödinghausen","type":"Kreisangehörige_Gemeinde"},"district":{"key":"05758","name":"Herford","type":"Kreis"},"federalState":{"key":"05","name":"Nordrhein-Westfalen"}},{"name":"Industriestr.","postalCode":"32289","locality":"Rödinghausen","municipality":{"key":"05758028","name":"Rödinghausen","type":"Kreisangehörige_Gemeinde"},"district":{"key":"05758","name":"Herford","type":"Kreis"},"federalState":{"key":"05","name":"Nordrhein-Westfalen"}},{"name":"Jagdweg","postalCode":"32289","locality":"Rödinghausen","municipality":{"key":"05758028","name":"Rödinghausen","type":"Kreisangehörige_Gemeinde"},"district":{"key":"05758","name":"Herford","type":"Kreis"},"federalState":{"key":"05","name":"Nordrhein-Westfalen"}},{"name":"Jerusalemstr.","postalCode":"32289","locality":"Rödinghausen","municipality":{"key":"05758028","name":"Rödinghausen","type":"Kreisangehörige_Gemeinde"},"district":{"key":"05758","name":"Herford","type":"Kreis"},"federalState":{"key":"05","name":"Nordrhein-Westfalen"}},{"name":"Kammweg","postalCode":"32289","locality":"Rödinghausen","municipality":{"key":"05758028","name":"Rödinghausen","type":"Kreisangehörige_Gemeinde"},"district":{"key":"05758","name":"Herford","type":"Kreis"},"federalState":{"key":"05","name":"Nordrhein-Westfalen"}},{"name":"Kantstr.","postalCode":"32289","locality":"Rödinghausen","municipality":{"key":"05758028","name":"Rödinghausen","type":"Kreisangehörige_Gemeinde"},"district":{"key":"05758","name":"Herford","type":"Kreis"},"federalState":{"key":"05","name":"Nordrhein-Westfalen"}},{"name":"Kapellenstr.","postalCode":"32289","locality":"Rödinghausen","municipality":{"key":"05758028","name":"Rödinghausen","type":"Kreisangehörige_Gemeinde"},"district":{"key":"05758","name":"Herford","type":"Kreis"},"federalState":{"key":"05","name":"Nordrhein-Westfalen"}},{"name":"Kastanienweg","postalCode":"32289","locality":"Rödinghausen","municipality":{"key":"05758028","name":"Rödinghausen","type":"Kreisangehörige_Gemeinde"},"district":{"key":"05758","name":"Herford","type":"Kreis"},"federalState":{"key":"05","name":"Nordrhein-Westfalen"}},{"name":"Kästnerweg","postalCode":"32289","locality":"Rödinghausen","municipality":{"key":"05758028","name":"Rödinghausen","type":"Kreisangehörige_Gemeinde"},"district":{"key":"05758","name":"Herford","type":"Kreis"},"federalState":{"key":"05","name":"Nordrhein-Westfalen"}},{"name":"Käthe-Kollwitz-Str.","postalCode":"32289","locality":"Rödinghausen","municipality":{"key":"05758028","name":"Rödinghausen","type":"Kreisangehörige_Gemeinde"},"district":{"key":"05758","name":"Herford","type":"Kreis"},"federalState":{"key":"05","name":"Nordrhein-Westfalen"}},{"name":"Kilverstr.","postalCode":"32289","locality":"Rödinghausen","municipality":{"key":"05758028","name":"Rödinghausen","type":"Kreisangehörige_Gemeinde"},"district":{"key":"05758","name":"Herford","type":"Kreis"},"federalState":{"key":"05","name":"Nordrhein-Westfalen"}},{"name":"Kirchsieksbrink","postalCode":"32289","locality":"Rödinghausen","municipality":{"key":"05758028","name":"Rödinghausen","type":"Kreisangehörige_Gemeinde"},"district":{"key":"05758","name":"Herford","type":"Kreis"},"federalState":{"key":"05","name":"Nordrhein-Westfalen"}},{"name":"Kirchweg","postalCode":"32289","locality":"Rödinghausen","municipality":{"key":"05758028","name":"Rödinghausen","type":"Kreisangehörige_Gemeinde"},"district":{"key":"05758","name":"Herford","type":"Kreis"},"federalState":{"key":"05","name":"Nordrhein-Westfalen"}},{"name":"Kleinbremen","postalCode":"32289","locality":"Rödinghausen","municipality":{"key":"05758028","name":"Rödinghausen","type":"Kreisangehörige_Gemeinde"},"district":{"key":"05758","name":"Herford","type":"Kreis"},"federalState":{"key":"05","name":"Nordrhein-Westfalen"}},{"name":"Kleine Heide","postalCode":"32289","locality":"Rödinghausen","municipality":{"key":"05758028","name":"Rödinghausen","type":"Kreisangehörige_Gemeinde"},"district":{"key":"05758","name":"Herford","type":"Kreis"},"federalState":{"key":"05","name":"Nordrhein-Westfalen"}},{"name":"Kleiner Weg","postalCode":"32289","locality":"Rödinghausen","municipality":{"key":"05758028","name":"Rödinghausen","type":"Kreisangehörige_Gemeinde"},"district":{"key":"05758","name":"Herford","type":"Kreis"},"federalState":{"key":"05","name":"Nordrhein-Westfalen"}},{"name":"Kleiststr.","postalCode":"32289","locality":"Rödinghausen","municipality":{"key":"05758028","name":"Rödinghausen","type":"Kreisangehörige_Gemeinde"},"district":{"key":"05758","name":"Herford","type":"Kreis"},"federalState":{"key":"05","name":"Nordrhein-Westfalen"}},{"name":"Knickweg","postalCode":"32289","locality":"Rödinghausen","municipality":{"key":"05758028","name":"Rödinghausen","type":"Kreisangehörige_Gemeinde"},"district":{"key":"05758","name":"Herford","type":"Kreis"},"federalState":{"key":"05","name":"Nordrhein-Westfalen"}},{"name":"Krittenhorst","postalCode":"32289","locality":"Rödinghausen","municipality":{"key":"05758028","name":"Rödinghausen","type":"Kreisangehörige_Gemeinde"},"district":{"key":"05758","name":"Herford","type":"Kreis"},"federalState":{"key":"05","name":"Nordrhein-Westfalen"}},{"name":"Kurpark","postalCode":"32289","locality":"Rödinghausen","municipality":{"key":"05758028","name":"Rödinghausen","type":"Kreisangehörige_Gemeinde"},"district":{"key":"05758","name":"Herford","type":"Kreis"},"federalState":{"key":"05","name":"Nordrhein-Westfalen"}},{"name":"Kurzer Weg","postalCode":"32289","locality":"Rödinghausen","municipality":{"key":"05758028","name":"Rödinghausen","type":"Kreisangehörige_Gemeinde"},"district":{"key":"05758","name":"Herford","type":"Kreis"},"federalState":{"key":"05","name":"Nordrhein-Westfalen"}},{"name":"Lange Hegge","postalCode":"32289","locality":"Rödinghausen","municipality":{"key":"05758028","name":"Rödinghausen","type":"Kreisangehörige_Gemeinde"},"district":{"key":"05758","name":"Herford","type":"Kreis"},"federalState":{"key":"05","name":"Nordrhein-Westfalen"}},{"name":"Lärchenweg","postalCode":"32289","locality":"Rödinghausen","municipality":{"key":"05758028","name":"Rödinghausen","type":"Kreisangehörige_Gemeinde"},"district":{"key":"05758","name":"Herford","type":"Kreis"},"federalState":{"key":"05","name":"Nordrhein-Westfalen"}},{"name":"Lehmkuhlenweg","postalCode":"32289","locality":"Rödinghausen","municipality":{"key":"05758028","name":"Rödinghausen","type":"Kreisangehörige_Gemeinde"},"district":{"key":"05758","name":"Herford","type":"Kreis"},"federalState":{"key":"05","name":"Nordrhein-Westfalen"}},{"name":"Lessingstr.","postalCode":"32289","locality":"Rödinghausen","municipality":{"key":"05758028","name":"Rödinghausen","type":"Kreisangehörige_Gemeinde"},"district":{"key":"05758","name":"Herford","type":"Kreis"},"federalState":{"key":"05","name":"Nordrhein-Westfalen"}},{"name":"Limbreede","postalCode":"32289","locality":"Rödinghausen","municipality":{"key":"05758028","name":"Rödinghausen","type":"Kreisangehörige_Gemeinde"},"district":{"key":"05758","name":"Herford","type":"Kreis"},"federalState":{"key":"05","name":"Nordrhein-Westfalen"}},{"name":"Linkerhagen","postalCode":"32289","locality":"Rödinghausen","municipality":{"key":"05758028","name":"Rödinghausen","type":"Kreisangehörige_Gemeinde"},"district":{"key":"05758","name":"Herford","type":"Kreis"},"federalState":{"key":"05","name":"Nordrhein-Westfalen"}},{"name":"Lohacker","postalCode":"32289","locality":"Rödinghausen","municipality":{"key":"05758028","name":"Rödinghausen","type":"Kreisangehörige_Gemeinde"},"district":{"key":"05758","name":"Herford","type":"Kreis"},"federalState":{"key":"05","name":"Nordrhein-Westfalen"}},{"name":"Lohmühlenweg","postalCode":"32289","locality":"Rödinghausen","municipality":{"key":"05758028","name":"Rödinghausen","type":"Kreisangehörige_Gemeinde"},"district":{"key":"05758","name":"Herford","type":"Kreis"},"federalState":{"key":"05","name":"Nordrhein-Westfalen"}},{"name":"Lönsweg","postalCode":"32289","locality":"Rödinghausen","municipality":{"key":"05758028","name":"Rödinghausen","type":"Kreisangehörige_Gemeinde"},"district":{"key":"05758","name":"Herford","type":"Kreis"},"federalState":{"key":"05","name":"Nordrhein-Westfalen"}},{"name":"Meierhofstr.","postalCode":"32289","locality":"Rödinghausen","municipality":{"key":"05758028","name":"Rödinghausen","type":"Kreisangehörige_Gemeinde"},"district":{"key":"05758","name":"Herford","type":"Kreis"},"federalState":{"key":"05","name":"Nordrhein-Westfalen"}},{"name":"Milanweg","postalCode":"32289","locality":"Rödinghausen","municipality":{"key":"05758028","name":"Rödinghausen","type":"Kreisangehörige_Gemeinde"},"district":{"key":"05758","name":"Herford","type":"Kreis"},"federalState":{"key":"05","name":"Nordrhein-Westfalen"}},{"name":"Mittelweg","postalCode":"32289","locality":"Rödinghausen","municipality":{"key":"05758028","name":"Rödinghausen","type":"Kreisangehörige_Gemeinde"},"district":{"key":"05758","name":"Herford","type":"Kreis"},"federalState":{"key":"05","name":"Nordrhein-Westfalen"}},{"name":"Möllenberg","postalCode":"32289","locality":"Rödinghausen","municipality":{"key":"05758028","name":"Rödinghausen","type":"Kreisangehörige_Gemeinde"},"district":{"key":"05758","name":"Herford","type":"Kreis"},"federalState":{"key":"05","name":"Nordrhein-Westfalen"}},{"name":"Mörikestr.","postalCode":"32289","locality":"Rödinghausen","municipality":{"key":"05758028","name":"Rödinghausen","type":"Kreisangehörige_Gemeinde"},"district":{"key":"05758","name":"Herford","type":"Kreis"},"federalState":{"key":"05","name":"Nordrhein-Westfalen"}},{"name":"Mozartstr.","postalCode":"32289","locality":"Rödinghausen","municipality":{"key":"05758028","name":"Rödinghausen","type":"Kreisangehörige_Gemeinde"},"district":{"key":"05758","name":"Herford","type":"Kreis"},"federalState":{"key":"05","name":"Nordrhein-Westfalen"}},{"name":"Mühlenkamp","postalCode":"32289","locality":"Rödinghausen","municipality":{"key":"05758028","name":"Rödinghausen","type":"Kreisangehörige_Gemeinde"},"district":{"key":"05758","name":"Herford","type":"Kreis"},"federalState":{"key":"05","name":"Nordrhein-Westfalen"}},{"name":"Mühlenstr.","postalCode":"32289","locality":"Rödinghausen","municipality":{"key":"05758028","name":"Rödinghausen","type":"Kreisangehörige_Gemeinde"},"district":{"key":"05758","name":"Herford","type":"Kreis"},"federalState":{"key":"05","name":"Nordrhein-Westfalen"}},{"name":"Neue Str.","postalCode":"32289","locality":"Rödinghausen","municipality":{"key":"05758028","name":"Rödinghausen","type":"Kreisangehörige_Gemeinde"},"district":{"key":"05758","name":"Herford","type":"Kreis"},"federalState":{"key":"05","name":"Nordrhein-Westfalen"}},{"name":"Nordbachweg","postalCode":"32289","locality":"Rödinghausen","municipality":{"key":"05758028","name":"Rödinghausen","type":"Kreisangehörige_Gemeinde"},"district":{"key":"05758","name":"Herford","type":"Kreis"},"federalState":{"key":"05","name":"Nordrhein-Westfalen"}},{"name":"Nordweg","postalCode":"32289","locality":"Rödinghausen","municipality":{"key":"05758028","name":"Rödinghausen","type":"Kreisangehörige_Gemeinde"},"district":{"key":"05758","name":"Herford","type":"Kreis"},"federalState":{"key":"05","name":"Nordrhein-Westfalen"}},{"name":"Oberbauerschafter Str.","postalCode":"32289","locality":"Rödinghausen","municipality":{"key":"05758028","name":"Rödinghausen","type":"Kreisangehörige_Gemeinde"},"district":{"key":"05758","name":"Herford","type":"Kreis"},"federalState":{"key":"05","name":"Nordrhein-Westfalen"}},{"name":"Osnabrücker Str.","postalCode":"32289","locality":"Rödinghausen","municipality":{"key":"05758028","name":"Rödinghausen","type":"Kreisangehörige_Gemeinde"},"district":{"key":"05758","name":"Herford","type":"Kreis"},"federalState":{"key":"05","name":"Nordrhein-Westfalen"}},{"name":"Ostkilverstr.","postalCode":"32289","locality":"Rödinghausen","municipality":{"key":"05758028","name":"Rödinghausen","type":"Kreisangehörige_Gemeinde"},"district":{"key":"05758","name":"Herford","type":"Kreis"},"federalState":{"key":"05","name":"Nordrhein-Westfalen"}},{"name":"Ostweg","postalCode":"32289","locality":"Rödinghausen","municipality":{"key":"05758028","name":"Rödinghausen","type":"Kreisangehörige_Gemeinde"},"district":{"key":"05758","name":"Herford","type":"Kreis"},"federalState":{"key":"05","name":"Nordrhein-Westfalen"}},{"name":"Papenwandweg","postalCode":"32289","locality":"Rödinghausen","municipality":{"key":"05758028","name":"Rödinghausen","type":"Kreisangehörige_Gemeinde"},"district":{"key":"05758","name":"Herford","type":"Kreis"},"federalState":{"key":"05","name":"Nordrhein-Westfalen"}},{"name":"Parkstr.","postalCode":"32289","locality":"Rödinghausen","municipality":{"key":"05758028","name":"Rödinghausen","type":"Kreisangehörige_Gemeinde"},"district":{"key":"05758","name":"Herford","type":"Kreis"},"federalState":{"key":"05","name":"Nordrhein-Westfalen"}},{"name":"Paul-Klee-Weg","postalCode":"32289","locality":"Rödinghausen","municipality":{"key":"05758028","name":"Rödinghausen","type":"Kreisangehörige_Gemeinde"},"district":{"key":"05758","name":"Herford","type":"Kreis"},"federalState":{"key":"05","name":"Nordrhein-Westfalen"}},{"name":"Quellenweg","postalCode":"32289","locality":"Rödinghausen","municipality":{"key":"05758028","name":"Rödinghausen","type":"Kreisangehörige_Gemeinde"},"district":{"key":"05758","name":"Herford","type":"Kreis"},"federalState":{"key":"05","name":"Nordrhein-Westfalen"}},{"name":"Rebhuhnweg","postalCode":"32289","locality":"Rödinghausen","municipality":{"key":"05758028","name":"Rödinghausen","type":"Kreisangehörige_Gemeinde"},"district":{"key":"05758","name":"Herford","type":"Kreis"},"federalState":{"key":"05","name":"Nordrhein-Westfalen"}},{"name":"Rehwinkel","postalCode":"32289","locality":"Rödinghausen","municipality":{"key":"05758028","name":"Rödinghausen","type":"Kreisangehörige_Gemeinde"},"district":{"key":"05758","name":"Herford","type":"Kreis"},"federalState":{"key":"05","name":"Nordrhein-Westfalen"}},{"name":"Rembrandtstr.","postalCode":"32289","locality":"Rödinghausen","municipality":{"key":"05758028","name":"Rödinghausen","type":"Kreisangehörige_Gemeinde"},"district":{"key":"05758","name":"Herford","type":"Kreis"},"federalState":{"key":"05","name":"Nordrhein-Westfalen"}},{"name":"Rennerskamp","postalCode":"32289","locality":"Rödinghausen","municipality":{"key":"05758028","name":"Rödinghausen","type":"Kreisangehörige_Gemeinde"},"district":{"key":"05758","name":"Herford","type":"Kreis"},"federalState":{"key":"05","name":"Nordrhein-Westfalen"}},{"name":"Rödinghauser Bergweg","postalCode":"32289","locality":"Rödinghausen","municipality":{"key":"05758028","name":"Rödinghausen","type":"Kreisangehörige_Gemeinde"},"district":{"key":"05758","name":"Herford","type":"Kreis"},"federalState":{"key":"05","name":"Nordrhein-Westfalen"}},{"name":"Rödinghauser Heide","postalCode":"32289","locality":"Rödinghausen","municipality":{"key":"05758028","name":"Rödinghausen","type":"Kreisangehörige_Gemeinde"},"district":{"key":"05758","name":"Herford","type":"Kreis"},"federalState":{"key":"05","name":"Nordrhein-Westfalen"}},{"name":"Rubensstr.","postalCode":"32289","locality":"Rödinghausen","municipality":{"key":"05758028","name":"Rödinghausen","type":"Kreisangehörige_Gemeinde"},"district":{"key":"05758","name":"Herford","type":"Kreis"},"federalState":{"key":"05","name":"Nordrhein-Westfalen"}},{"name":"Rückertstr.","postalCode":"32289","locality":"Rödinghausen","municipality":{"key":"05758028","name":"Rödinghausen","type":"Kreisangehörige_Gemeinde"},"district":{"key":"05758","name":"Herford","type":"Kreis"},"federalState":{"key":"05","name":"Nordrhein-Westfalen"}},{"name":"Rüschener Str.","postalCode":"32289","locality":"Rödinghausen","municipality":{"key":"05758028","name":"Rödinghausen","type":"Kreisangehörige_Gemeinde"},"district":{"key":"05758","name":"Herford","type":"Kreis"},"federalState":{"key":"05","name":"Nordrhein-Westfalen"}},{"name":"Sachsenweg","postalCode":"32289","locality":"Rödinghausen","municipality":{"key":"05758028","name":"Rödinghausen","type":"Kreisangehörige_Gemeinde"},"district":{"key":"05758","name":"Herford","type":"Kreis"},"federalState":{"key":"05","name":"Nordrhein-Westfalen"}},{"name":"Schäfers Garten","postalCode":"32289","locality":"Rödinghausen","municipality":{"key":"05758028","name":"Rödinghausen","type":"Kreisangehörige_Gemeinde"},"district":{"key":"05758","name":"Herford","type":"Kreis"},"federalState":{"key":"05","name":"Nordrhein-Westfalen"}},{"name":"Schäferweg","postalCode":"32289","locality":"Rödinghausen","municipality":{"key":"05758028","name":"Rödinghausen","type":"Kreisangehörige_Gemeinde"},"district":{"key":"05758","name":"Herford","type":"Kreis"},"federalState":{"key":"05","name":"Nordrhein-Westfalen"}},{"name":"Schiemkerweg","postalCode":"32289","locality":"Rödinghausen","municipality":{"key":"05758028","name":"Rödinghausen","type":"Kreisangehörige_Gemeinde"},"district":{"key":"05758","name":"Herford","type":"Kreis"},"federalState":{"key":"05","name":"Nordrhein-Westfalen"}},{"name":"Schierenacker","postalCode":"32289","locality":"Rödinghausen","municipality":{"key":"05758028","name":"Rödinghausen","type":"Kreisangehörige_Gemeinde"},"district":{"key":"05758","name":"Herford","type":"Kreis"},"federalState":{"key":"05","name":"Nordrhein-Westfalen"}},{"name":"Schillerstr.","postalCode":"32289","locality":"Rödinghausen","municipality":{"key":"05758028","name":"Rödinghausen","type":"Kreisangehörige_Gemeinde"},"district":{"key":"05758","name":"Herford","type":"Kreis"},"federalState":{"key":"05","name":"Nordrhein-Westfalen"}},{"name":"Schirmker Brink","postalCode":"32289","locality":"Rödinghausen","municipality":{"key":"05758028","name":"Rödinghausen","type":"Kreisangehörige_Gemeinde"},"district":{"key":"05758","name":"Herford","type":"Kreis"},"federalState":{"key":"05","name":"Nordrhein-Westfalen"}},{"name":"Schlegelstr.","postalCode":"32289","locality":"Rödinghausen","municipality":{"key":"05758028","name":"Rödinghausen","type":"Kreisangehörige_Gemeinde"},"district":{"key":"05758","name":"Herford","type":"Kreis"},"federalState":{"key":"05","name":"Nordrhein-Westfalen"}},{"name":"Schlinkweg","postalCode":"32289","locality":"Rödinghausen","municipality":{"key":"05758028","name":"Rödinghausen","type":"Kreisangehörige_Gemeinde"},"district":{"key":"05758","name":"Herford","type":"Kreis"},"federalState":{"key":"05","name":"Nordrhein-Westfalen"}},{"name":"Schluchtenweg","postalCode":"32289","locality":"Rödinghausen","municipality":{"key":"05758028","name":"Rödinghausen","type":"Kreisangehörige_Gemeinde"},"district":{"key":"05758","name":"Herford","type":"Kreis"},"federalState":{"key":"05","name":"Nordrhein-Westfalen"}},{"name":"Schnurrbartstr.","postalCode":"32289","locality":"Rödinghausen","municipality":{"key":"05758028","name":"Rödinghausen","type":"Kreisangehörige_Gemeinde"},"district":{"key":"05758","name":"Herford","type":"Kreis"},"federalState":{"key":"05","name":"Nordrhein-Westfalen"}},{"name":"Schubertstr.","postalCode":"32289","locality":"Rödinghausen","municipality":{"key":"05758028","name":"Rödinghausen","type":"Kreisangehörige_Gemeinde"},"district":{"key":"05758","name":"Herford","type":"Kreis"},"federalState":{"key":"05","name":"Nordrhein-Westfalen"}},{"name":"Schulstr.","postalCode":"32289","locality":"Rödinghausen","municipality":{"key":"05758028","name":"Rödinghausen","type":"Kreisangehörige_Gemeinde"},"district":{"key":"05758","name":"Herford","type":"Kreis"},"federalState":{"key":"05","name":"Nordrhein-Westfalen"}},{"name":"Schwarzer Weg","postalCode":"32289","locality":"Rödinghausen","municipality":{"key":"05758028","name":"Rödinghausen","type":"Kreisangehörige_Gemeinde"},"district":{"key":"05758","name":"Herford","type":"Kreis"},"federalState":{"key":"05","name":"Nordrhein-Westfalen"}},{"name":"Schwenningdorfer Heide","postalCode":"32289","locality":"Rödinghausen","municipality":{"key":"05758028","name":"Rödinghausen","type":"Kreisangehörige_Gemeinde"},"district":{"key":"05758","name":"Herford","type":"Kreis"},"federalState":{"key":"05","name":"Nordrhein-Westfalen"}},{"name":"Siedlungsweg","postalCode":"32289","locality":"Rödinghausen","municipality":{"key":"05758028","name":"Rödinghausen","type":"Kreisangehörige_Gemeinde"},"district":{"key":"05758","name":"Herford","type":"Kreis"},"federalState":{"key":"05","name":"Nordrhein-Westfalen"}},{"name":"Siendorfer Weg","postalCode":"32289","locality":"Rödinghausen","municipality":{"key":"05758028","name":"Rödinghausen","type":"Kreisangehörige_Gemeinde"},"district":{"key":"05758","name":"Herford","type":"Kreis"},"federalState":{"key":"05","name":"Nordrhein-Westfalen"}},{"name":"Sonnenwinkel","postalCode":"32289","locality":"Rödinghausen","municipality":{"key":"05758028","name":"Rödinghausen","type":"Kreisangehörige_Gemeinde"},"district":{"key":"05758","name":"Herford","type":"Kreis"},"federalState":{"key":"05","name":"Nordrhein-Westfalen"}},{"name":"Sperlingweg","postalCode":"32289","locality":"Rödinghausen","municipality":{"key":"05758028","name":"Rödinghausen","type":"Kreisangehörige_Gemeinde"},"district":{"key":"05758","name":"Herford","type":"Kreis"},"federalState":{"key":"05","name":"Nordrhein-Westfalen"}},{"name":"Sportplatzweg","postalCode":"32289","locality":"Rödinghausen","municipality":{"key":"05758028","name":"Rödinghausen","type":"Kreisangehörige_Gemeinde"},"district":{"key":"05758","name":"Herford","type":"Kreis"},"federalState":{"key":"05","name":"Nordrhein-Westfalen"}},{"name":"Starenweg","postalCode":"32289","locality":"Rödinghausen","municipality":{"key":"05758028","name":"Rödinghausen","type":"Kreisangehörige_Gemeinde"},"district":{"key":"05758","name":"Herford","type":"Kreis"},"federalState":{"key":"05","name":"Nordrhein-Westfalen"}},{"name":"Steinbrinkweg","postalCode":"32289","locality":"Rödinghausen","municipality":{"key":"05758028","name":"Rödinghausen","type":"Kreisangehörige_Gemeinde"},"district":{"key":"05758","name":"Herford","type":"Kreis"},"federalState":{"key":"05","name":"Nordrhein-Westfalen"}},{"name":"Stockhude","postalCode":"32289","locality":"Rödinghausen","municipality":{"key":"05758028","name":"Rödinghausen","type":"Kreisangehörige_Gemeinde"},"district":{"key":"05758","name":"Herford","type":"Kreis"},"federalState":{"key":"05","name":"Nordrhein-Westfalen"}},{"name":"Studieker Weg","postalCode":"32289","locality":"Rödinghausen","municipality":{"key":"05758028","name":"Rödinghausen","type":"Kreisangehörige_Gemeinde"},"district":{"key":"05758","name":"Herford","type":"Kreis"},"federalState":{"key":"05","name":"Nordrhein-Westfalen"}},{"name":"Stukenhöfener Str.","postalCode":"32289","locality":"Rödinghausen","municipality":{"key":"05758028","name":"Rödinghausen","type":"Kreisangehörige_Gemeinde"},"district":{"key":"05758","name":"Herford","type":"Kreis"},"federalState":{"key":"05","name":"Nordrhein-Westfalen"}},{"name":"Süddorf","postalCode":"32289","locality":"Rödinghausen","municipality":{"key":"05758028","name":"Rödinghausen","type":"Kreisangehörige_Gemeinde"},"district":{"key":"05758","name":"Herford","type":"Kreis"},"federalState":{"key":"05","name":"Nordrhein-Westfalen"}},{"name":"Talweg","postalCode":"32289","locality":"Rödinghausen","municipality":{"key":"05758028","name":"Rödinghausen","type":"Kreisangehörige_Gemeinde"},"district":{"key":"05758","name":"Herford","type":"Kreis"},"federalState":{"key":"05","name":"Nordrhein-Westfalen"}},{"name":"Teichweg","postalCode":"32289","locality":"Rödinghausen","municipality":{"key":"05758028","name":"Rödinghausen","type":"Kreisangehörige_Gemeinde"},"district":{"key":"05758","name":"Herford","type":"Kreis"},"federalState":{"key":"05","name":"Nordrhein-Westfalen"}},{"name":"Telgenweg","postalCode":"32289","locality":"Rödinghausen","municipality":{"key":"05758028","name":"Rödinghausen","type":"Kreisangehörige_Gemeinde"},"district":{"key":"05758","name":"Herford","type":"Kreis"},"federalState":{"key":"05","name":"Nordrhein-Westfalen"}},{"name":"Theodor-Fontane-Ring","postalCode":"32289","locality":"Rödinghausen","municipality":{"key":"05758028","name":"Rödinghausen","type":"Kreisangehörige_Gemeinde"},"district":{"key":"05758","name":"Herford","type":"Kreis"},"federalState":{"key":"05","name":"Nordrhein-Westfalen"}},{"name":"Thomas-Mann-Str.","postalCode":"32289","locality":"Rödinghausen","municipality":{"key":"05758028","name":"Rödinghausen","type":"Kreisangehörige_Gemeinde"},"district":{"key":"05758","name":"Herford","type":"Kreis"},"federalState":{"key":"05","name":"Nordrhein-Westfalen"}},{"name":"Trotzenburg","postalCode":"32289","locality":"Rödinghausen","municipality":{"key":"05758028","name":"Rödinghausen","type":"Kreisangehörige_Gemeinde"},"district":{"key":"05758","name":"Herford","type":"Kreis"},"federalState":{"key":"05","name":"Nordrhein-Westfalen"}},{"name":"Uhlandplatz","postalCode":"32051","locality":"Herford","municipality":{"key":"05758012","name":"Herford, Hansestadt","type":"Stadt"},"district":{"key":"05758","name":"Herford","type":"Kreis"},"federalState":{"key":"05","name":"Nordrhein-Westfalen"}},{"name":"Uhlandstr.","postalCode":"32051","locality":"Herford","municipality":{"key":"05758012","name":"Herford, Hansestadt","type":"Stadt"},"district":{"key":"05758","name":"Herford","type":"Kreis"},"federalState":{"key":"05","name":"Nordrhein-Westfalen"}},{"name":"Unter den Linden","postalCode":"32052","locality":"Herford","municipality":{"key":"05758012","name":"Herford, Hansestadt","type":"Stadt"},"district":{"key":"05758","name":"Herford","type":"Kreis"},"federalState":{"key":"05","name":"Nordrhein-Westfalen"}},{"name":"Unterer Brokamp","postalCode":"32051","locality":"Herford","municipality":{"key":"05758012","name":"Herford, Hansestadt","type":"Stadt"},"district":{"key":"05758","name":"Herford","type":"Kreis"},"federalState":{"key":"05","name":"Nordrhein-Westfalen"}},{"name":"Unterer Hamscheberg","postalCode":"32049","locality":"Herford","municipality":{"key":"05758012","name":"Herford, Hansestadt","type":"Stadt"},"district":{"key":"05758","name":"Herford","type":"Kreis"},"federalState":{"key":"05","name":"Nordrhein-Westfalen"}},{"name":"Unterm Homberg","postalCode":"32049","locality":"Herford","municipality":{"key":"05758012","name":"Herford, Hansestadt","type":"Stadt"},"district":{"key":"05758","name":"Herford","type":"Kreis"},"federalState":{"key":"05","name":"Nordrhein-Westfalen"}},{"name":"Vor dem Berge","postalCode":"32289","locality":"Rödinghausen","municipality":{"key":"05758028","name":"Rödinghausen","type":"Kreisangehörige_Gemeinde"},"district":{"key":"05758","name":"Herford","type":"Kreis"},"federalState":{"key":"05","name":"Nordrhein-Westfalen"}},{"name":"Vor den Bäumen","postalCode":"32289","locality":"Rödinghausen","municipality":{"key":"05758028","name":"Rödinghausen","type":"Kreisangehörige_Gemeinde"},"district":{"key":"05758","name":"Herford","type":"Kreis"},"federalState":{"key":"05","name":"Nordrhein-Westfalen"}},{"name":"Voßholzweg","postalCode":"32289","locality":"Rödinghausen","municipality":{"key":"05758028","name":"Rödinghausen","type":"Kreisangehörige_Gemeinde"},"district":{"key":"05758","name":"Herford","type":"Kreis"},"federalState":{"key":"05","name":"Nordrhein-Westfalen"}},{"name":"Voßkuhle","postalCode":"32289","locality":"Rödinghausen","municipality":{"key":"05758028","name":"Rödinghausen","type":"Kreisangehörige_Gemeinde"},"district":{"key":"05758","name":"Herford","type":"Kreis"},"federalState":{"key":"05","name":"Nordrhein-Westfalen"}},{"name":"Waghorster Str.","postalCode":"32289","locality":"Rödinghausen","municipality":{"key":"05758028","name":"Rödinghausen","type":"Kreisangehörige_Gemeinde"},"district":{"key":"05758","name":"Herford","type":"Kreis"},"federalState":{"key":"05","name":"Nordrhein-Westfalen"}},{"name":"Wagnerweg","postalCode":"32289","locality":"Rödinghausen","municipality":{"key":"05758028","name":"Rödinghausen","type":"Kreisangehörige_Gemeinde"},"district":{"key":"05758","name":"Herford","type":"Kreis"},"federalState":{"key":"05","name":"Nordrhein-Westfalen"}},{"name":"Waldweg","postalCode":"32289","locality":"Rödinghausen","municipality":{"key":"05758028","name":"Rödinghausen","type":"Kreisangehörige_Gemeinde"},"district":{"key":"05758","name":"Herford","type":"Kreis"},"federalState":{"key":"05","name":"Nordrhein-Westfalen"}},{"name":"Wehmerhorststr.","postalCode":"32289","locality":"Rödinghausen","municipality":{"key":"05758028","name":"Rödinghausen","type":"Kreisangehörige_Gemeinde"},"district":{"key":"05758","name":"Herford","type":"Kreis"},"federalState":{"key":"05","name":"Nordrhein-Westfalen"}},{"name":"Wehmer Winkel","postalCode":"32289","locality":"Rödinghausen","municipality":{"key":"05758028","name":"Rödinghausen","type":"Kreisangehörige_Gemeinde"},"district":{"key":"05758","name":"Herford","type":"Kreis"},"federalState":{"key":"05","name":"Nordrhein-Westfalen"}},{"name":"Weidenbrink","postalCode":"32289","locality":"Rödinghausen","municipality":{"key":"05758028","name":"Rödinghausen","type":"Kreisangehörige_Gemeinde"},"district":{"key":"05758","name":"Herford","type":"Kreis"},"federalState":{"key":"05","name":"Nordrhein-Westfalen"}},{"name":"Werkstr.","postalCode":"32289","locality":"Rödinghausen","municipality":{"key":"05758028","name":"Rödinghausen","type":"Kreisangehörige_Gemeinde"},"district":{"key":"05758","name":"Herford","type":"Kreis"},"federalState":{"key":"05","name":"Nordrhein-Westfalen"}},{"name":"Westerbergstr.","postalCode":"32289","locality":"Rödinghausen","municipality":{"key":"05758028","name":"Rödinghausen","type":"Kreisangehörige_Gemeinde"},"district":{"key":"05758","name":"Herford","type":"Kreis"},"federalState":{"key":"05","name":"Nordrhein-Westfalen"}},{"name":"Westkilverstr.","postalCode":"32289","locality":"Rödinghausen","municipality":{"key":"05758028","name":"Rödinghausen","type":"Kreisangehörige_Gemeinde"},"district":{"key":"05758","name":"Herford","type":"Kreis"},"federalState":{"key":"05","name":"Nordrhein-Westfalen"}},{"name":"Wiehenstr.","postalCode":"32289","locality":"Rödinghausen","municipality":{"key":"05758028","name":"Rödinghausen","type":"Kreisangehörige_Gemeinde"},"district":{"key":"05758","name":"Herford","type":"Kreis"},"federalState":{"key":"05","name":"Nordrhein-Westfalen"}},{"name":"Wiesenweg","postalCode":"32289","locality":"Rödinghausen","municipality":{"key":"05758028","name":"Rödinghausen","type":"Kreisangehörige_Gemeinde"},"district":{"key":"05758","name":"Herford","type":"Kreis"},"federalState":{"key":"05","name":"Nordrhein-Westfalen"}},{"name":"Wildweg","postalCode":"32289","locality":"Rödinghausen","municipality":{"key":"05758028","name":"Rödinghausen","type":"Kreisangehörige_Gemeinde"},"district":{"key":"05758","name":"Herford","type":"Kreis"},"federalState":{"key":"05","name":"Nordrhein-Westfalen"}},{"name":"Windmühlenfeld","postalCode":"32289","locality":"Rödinghausen","municipality":{"key":"05758028","name":"Rödinghausen","type":"Kreisangehörige_Gemeinde"},"district":{"key":"05758","name":"Herford","type":"Kreis"},"federalState":{"key":"05","name":"Nordrhein-Westfalen"}},{"name":"Winkelfeld","postalCode":"32289","locality":"Rödinghausen","municipality":{"key":"05758028","name":"Rödinghausen","type":"Kreisangehörige_Gemeinde"},"district":{"key":"05758","name":"Herford","type":"Kreis"},"federalState":{"key":"05","name":"Nordrhein-Westfalen"}},{"name":"Winkelweg","postalCode":"32289","locality":"Rödinghausen","municipality":{"key":"05758028","name":"Rödinghausen","type":"Kreisangehörige_Gemeinde"},"district":{"key":"05758","name":"Herford","type":"Kreis"},"federalState":{"key":"05","name":"Nordrhein-Westfalen"}},{"name":"Wittekindsweg","postalCode":"32289","locality":"Rödinghausen","municipality":{"key":"05758028","name":"Rödinghausen","type":"Kreisangehörige_Gemeinde"},"district":{"key":"05758","name":"Herford","type":"Kreis"},"federalState":{"key":"05","name":"Nordrhein-Westfalen"}},{"name":"Yorckstr.","postalCode":"32052","locality":"Herford","municipality":{"key":"05758012","name":"Herford, Hansestadt","type":"Stadt"},"district":{"key":"05758","name":"Herford","type":"Kreis"},"federalState":{"key":"05","name":"Nordrhein-Westfalen"}},{"name":"Zum Kiebitzgrund","postalCode":"32289","locality":"Rödinghausen","municipality":{"key":"05758028","name":"Rödinghausen","type":"Kreisangehörige_Gemeinde"},"district":{"key":"05758","name":"Herford","type":"Kreis"},"federalState":{"key":"05","name":"Nordrhein-Westfalen"}},{"name":"Zum Mühlenbach","postalCode":"32289","locality":"Rödinghausen","municipality":{"key":"05758028","name":"Rödinghausen","type":"Kreisangehörige_Gemeinde"},"district":{"key":"05758","name":"Herford","type":"Kreis"},"federalState":{"key":"05","name":"Nordrhein-Westfalen"}},{"name":"Zum Natten","postalCode":"32289","locality":"Rödinghausen","municipality":{"key":"05758028","name":"Rödinghausen","type":"Kreisangehörige_Gemeinde"},"district":{"key":"05758","name":"Herford","type":"Kreis"},"federalState":{"key":"05","name":"Nordrhein-Westfalen"}},{"name":"Zum Nonnenstein","postalCode":"32289","locality":"Rödinghausen","municipality":{"key":"05758028","name":"Rödinghausen","type":"Kreisangehörige_Gemeinde"},"district":{"key":"05758","name":"Herford","type":"Kreis"},"federalState":{"key":"05","name":"Nordrhein-Westfalen"}},{"name":"Zum Schmiedeplatz","postalCode":"32289","locality":"Rödinghausen","municipality":{"key":"05758028","name":"Rödinghausen","type":"Kreisangehörige_Gemeinde"},"district":{"key":"05758","name":"Herford","type":"Kreis"},"federalState":{"key":"05","name":"Nordrhein-Westfalen"}},{"name":"Zum Stillen Frieden","postalCode":"32289","locality":"Rödinghausen","municipality":{"key":"05758028","name":"Rödinghausen","type":"Kreisangehörige_Gemeinde"},"district":{"key":"05758","name":"Herford","type":"Kreis"},"federalState":{"key":"05","name":"Nordrhein-Westfalen"}},{"name":"Zum Wiesengrund","postalCode":"32289","locality":"Rödinghausen","municipality":{"key":"05758028","name":"Rödinghausen","type":"Kreisangehörige_Gemeinde"},"district":{"key":"05758","name":"Herford","type":"Kreis"},"federalState":{"key":"05","name":"Nordrhein-Westfalen"}},{"name":"Zur Alten Schmiede","postalCode":"32289","locality":"Rödinghausen","municipality":{"key":"05758028","name":"Rödinghausen","type":"Kreisangehörige_Gemeinde"},"district":{"key":"05758","name":"Herford","type":"Kreis"},"federalState":{"key":"05","name":"Nordrhein-Westfalen"}},{"name":"Zur Alten Schule","postalCode":"32289","locality":"Rödinghausen","municipality":{"key":"05758028","name":"Rödinghausen","type":"Kreisangehörige_Gemeinde"},"district":{"key":"05758","name":"Herford","type":"Kreis"},"federalState":{"key":"05","name":"Nordrhein-Westfalen"}},{"name":"Zur Kirchbreite","postalCode":"32289","locality":"Rödinghausen","municipality":{"key":"05758028","name":"Rödinghausen","type":"Kreisangehörige_Gemeinde"},"district":{"key":"05758","name":"Herford","type":"Kreis"},"federalState":{"key":"05","name":"Nordrhein-Westfalen"}},{"name":"Zur Schirmke","postalCode":"32289","locality":"Rödinghausen","municipality":{"key":"05758028","name":"Rödinghausen","type":"Kreisangehörige_Gemeinde"},"district":{"key":"05758","name":"Herford","type":"Kreis"},"federalState":{"key":"05","name":"Nordrhein-Westfalen"}},{"name":"Zur Schönen Aussicht","postalCode":"32289","locality":"Rödinghausen","municipality":{"key":"05758028","name":"Rödinghausen","type":"Kreisangehörige_Gemeinde"},"district":{"key":"05758","name":"Herford","type":"Kreis"},"federalState":{"key":"05","name":"Nordrhein-Westfalen"}},{"name":"Zur Wehme","postalCode":"32289","locality":"Rödinghausen","municipality":{"key":"05758028","name":"Rödinghausen","type":"Kreisangehörige_Gemeinde"},"district":{"key":"05758","name":"Herford","type":"Kreis"},"federalState":{"key":"05","name":"Nordrhein-Westfalen"}},]