[{"name":"Ahornweg","postalCode":"97990","locality":"Weikersheim","municipality":{"key":"08128126","name":"Weikersheim, Stadt","type":"Stadt"},"district":{"key":"08128","name":"Main-Tauber-Kreis","type":"Landkreis"},"federalState":{"key":"08","name":"Baden-Württemberg"}},{"name":"Akkermanstr.","postalCode":"97990","locality":"Weikersheim","municipality":{"key":"08128126","name":"Weikersheim, Stadt","type":"Stadt"},"district":{"key":"08128","name":"Main-Tauber-Kreis","type":"Landkreis"},"federalState":{"key":"08","name":"Baden-Württemberg"}},{"name":"Albert-Einstein-Str.","postalCode":"97990","locality":"Weikersheim","municipality":{"key":"08128126","name":"Weikersheim, Stadt","type":"Stadt"},"district":{"key":"08128","name":"Main-Tauber-Kreis","type":"Landkreis"},"federalState":{"key":"08","name":"Baden-Württemberg"}},{"name":"Alemannenweg","postalCode":"97990","locality":"Weikersheim","municipality":{"key":"08128126","name":"Weikersheim, Stadt","type":"Stadt"},"district":{"key":"08128","name":"Main-Tauber-Kreis","type":"Landkreis"},"federalState":{"key":"08","name":"Baden-Württemberg"}},{"name":"Alte Steige","postalCode":"97990","locality":"Weikersheim","municipality":{"key":"08128126","name":"Weikersheim, Stadt","type":"Stadt"},"district":{"key":"08128","name":"Main-Tauber-Kreis","type":"Landkreis"},"federalState":{"key":"08","name":"Baden-Württemberg"}},{"name":"Alte Taubertalstr.","postalCode":"97990","locality":"Weikersheim","municipality":{"key":"08128126","name":"Weikersheim, Stadt","type":"Stadt"},"district":{"key":"08128","name":"Main-Tauber-Kreis","type":"Landkreis"},"federalState":{"key":"08","name":"Baden-Württemberg"}},{"name":"Am Bahnhof","postalCode":"97990","locality":"Weikersheim","municipality":{"key":"08128126","name":"Weikersheim, Stadt","type":"Stadt"},"district":{"key":"08128","name":"Main-Tauber-Kreis","type":"Landkreis"},"federalState":{"key":"08","name":"Baden-Württemberg"}},{"name":"Am Burbach","postalCode":"97990","locality":"Weikersheim","municipality":{"key":"08128126","name":"Weikersheim, Stadt","type":"Stadt"},"district":{"key":"08128","name":"Main-Tauber-Kreis","type":"Landkreis"},"federalState":{"key":"08","name":"Baden-Württemberg"}},{"name":"Am Dorfgraben","postalCode":"97990","locality":"Weikersheim","municipality":{"key":"08128126","name":"Weikersheim, Stadt","type":"Stadt"},"district":{"key":"08128","name":"Main-Tauber-Kreis","type":"Landkreis"},"federalState":{"key":"08","name":"Baden-Württemberg"}},{"name":"Am Fuchsbrunnen","postalCode":"97990","locality":"Weikersheim","municipality":{"key":"08128126","name":"Weikersheim, Stadt","type":"Stadt"},"district":{"key":"08128","name":"Main-Tauber-Kreis","type":"Landkreis"},"federalState":{"key":"08","name":"Baden-Württemberg"}},{"name":"Am Gänsturm","postalCode":"97990","locality":"Weikersheim","municipality":{"key":"08128126","name":"Weikersheim, Stadt","type":"Stadt"},"district":{"key":"08128","name":"Main-Tauber-Kreis","type":"Landkreis"},"federalState":{"key":"08","name":"Baden-Württemberg"}},{"name":"Am Ghäuberg","postalCode":"97990","locality":"Weikersheim","municipality":{"key":"08128126","name":"Weikersheim, Stadt","type":"Stadt"},"district":{"key":"08128","name":"Main-Tauber-Kreis","type":"Landkreis"},"federalState":{"key":"08","name":"Baden-Württemberg"}},{"name":"Am Graben","postalCode":"97990","locality":"Weikersheim","municipality":{"key":"08128126","name":"Weikersheim, Stadt","type":"Stadt"},"district":{"key":"08128","name":"Main-Tauber-Kreis","type":"Landkreis"},"federalState":{"key":"08","name":"Baden-Württemberg"}},{"name":"Am Hohlach","postalCode":"97990","locality":"Weikersheim","municipality":{"key":"08128126","name":"Weikersheim, Stadt","type":"Stadt"},"district":{"key":"08128","name":"Main-Tauber-Kreis","type":"Landkreis"},"federalState":{"key":"08","name":"Baden-Württemberg"}},{"name":"Am Klosterberg","postalCode":"97990","locality":"Weikersheim","municipality":{"key":"08128126","name":"Weikersheim, Stadt","type":"Stadt"},"district":{"key":"08128","name":"Main-Tauber-Kreis","type":"Landkreis"},"federalState":{"key":"08","name":"Baden-Württemberg"}},{"name":"Am Markt","postalCode":"97990","locality":"Weikersheim","municipality":{"key":"08128126","name":"Weikersheim, Stadt","type":"Stadt"},"district":{"key":"08128","name":"Main-Tauber-Kreis","type":"Landkreis"},"federalState":{"key":"08","name":"Baden-Württemberg"}},{"name":"Am Rathaus","postalCode":"97990","locality":"Weikersheim","municipality":{"key":"08128126","name":"Weikersheim, Stadt","type":"Stadt"},"district":{"key":"08128","name":"Main-Tauber-Kreis","type":"Landkreis"},"federalState":{"key":"08","name":"Baden-Württemberg"}},{"name":"Am Schmecker","postalCode":"97990","locality":"Weikersheim","municipality":{"key":"08128126","name":"Weikersheim, Stadt","type":"Stadt"},"district":{"key":"08128","name":"Main-Tauber-Kreis","type":"Landkreis"},"federalState":{"key":"08","name":"Baden-Württemberg"}},{"name":"Amselweg","postalCode":"97990","locality":"Weikersheim","municipality":{"key":"08128126","name":"Weikersheim, Stadt","type":"Stadt"},"district":{"key":"08128","name":"Main-Tauber-Kreis","type":"Landkreis"},"federalState":{"key":"08","name":"Baden-Württemberg"}},{"name":"Am Tauberberg","postalCode":"97990","locality":"Weikersheim","municipality":{"key":"08128126","name":"Weikersheim, Stadt","type":"Stadt"},"district":{"key":"08128","name":"Main-Tauber-Kreis","type":"Landkreis"},"federalState":{"key":"08","name":"Baden-Württemberg"}},{"name":"An der Romantischen Str.","postalCode":"97990","locality":"Weikersheim","municipality":{"key":"08128126","name":"Weikersheim, Stadt","type":"Stadt"},"district":{"key":"08128","name":"Main-Tauber-Kreis","type":"Landkreis"},"federalState":{"key":"08","name":"Baden-Württemberg"}},{"name":"An der Stadtmauer","postalCode":"97990","locality":"Weikersheim","municipality":{"key":"08128126","name":"Weikersheim, Stadt","type":"Stadt"},"district":{"key":"08128","name":"Main-Tauber-Kreis","type":"Landkreis"},"federalState":{"key":"08","name":"Baden-Württemberg"}},{"name":"An der Tauber","postalCode":"97990","locality":"Weikersheim","municipality":{"key":"08128126","name":"Weikersheim, Stadt","type":"Stadt"},"district":{"key":"08128","name":"Main-Tauber-Kreis","type":"Landkreis"},"federalState":{"key":"08","name":"Baden-Württemberg"}},{"name":"Aubweg","postalCode":"97990","locality":"Weikersheim","municipality":{"key":"08128126","name":"Weikersheim, Stadt","type":"Stadt"},"district":{"key":"08128","name":"Main-Tauber-Kreis","type":"Landkreis"},"federalState":{"key":"08","name":"Baden-Württemberg"}},{"name":"August-Laukhuff-Str.","postalCode":"97990","locality":"Weikersheim","municipality":{"key":"08128126","name":"Weikersheim, Stadt","type":"Stadt"},"district":{"key":"08128","name":"Main-Tauber-Kreis","type":"Landkreis"},"federalState":{"key":"08","name":"Baden-Württemberg"}},{"name":"Austr.","postalCode":"97990","locality":"Weikersheim","municipality":{"key":"08128126","name":"Weikersheim, Stadt","type":"Stadt"},"district":{"key":"08128","name":"Main-Tauber-Kreis","type":"Landkreis"},"federalState":{"key":"08","name":"Baden-Württemberg"}},{"name":"Bachgasse","postalCode":"97990","locality":"Weikersheim","municipality":{"key":"08128126","name":"Weikersheim, Stadt","type":"Stadt"},"district":{"key":"08128","name":"Main-Tauber-Kreis","type":"Landkreis"},"federalState":{"key":"08","name":"Baden-Württemberg"}},{"name":"Bachstr.","postalCode":"97990","locality":"Weikersheim","municipality":{"key":"08128126","name":"Weikersheim, Stadt","type":"Stadt"},"district":{"key":"08128","name":"Main-Tauber-Kreis","type":"Landkreis"},"federalState":{"key":"08","name":"Baden-Württemberg"}},{"name":"Badstr.","postalCode":"97990","locality":"Weikersheim","municipality":{"key":"08128126","name":"Weikersheim, Stadt","type":"Stadt"},"district":{"key":"08128","name":"Main-Tauber-Kreis","type":"Landkreis"},"federalState":{"key":"08","name":"Baden-Württemberg"}},{"name":"Bahnhof","postalCode":"97990","locality":"Weikersheim","municipality":{"key":"08128126","name":"Weikersheim, Stadt","type":"Stadt"},"district":{"key":"08128","name":"Main-Tauber-Kreis","type":"Landkreis"},"federalState":{"key":"08","name":"Baden-Württemberg"}},{"name":"Bahnhofstr.","postalCode":"97990","locality":"Weikersheim","municipality":{"key":"08128126","name":"Weikersheim, Stadt","type":"Stadt"},"district":{"key":"08128","name":"Main-Tauber-Kreis","type":"Landkreis"},"federalState":{"key":"08","name":"Baden-Württemberg"}},{"name":"Bahnstr.","postalCode":"97990","locality":"Weikersheim","municipality":{"key":"08128126","name":"Weikersheim, Stadt","type":"Stadt"},"district":{"key":"08128","name":"Main-Tauber-Kreis","type":"Landkreis"},"federalState":{"key":"08","name":"Baden-Württemberg"}},{"name":"Bauernholzweg","postalCode":"97990","locality":"Weikersheim","municipality":{"key":"08128126","name":"Weikersheim, Stadt","type":"Stadt"},"district":{"key":"08128","name":"Main-Tauber-Kreis","type":"Landkreis"},"federalState":{"key":"08","name":"Baden-Württemberg"}},{"name":"Bernsfelder Str.","postalCode":"97990","locality":"Weikersheim","municipality":{"key":"08128126","name":"Weikersheim, Stadt","type":"Stadt"},"district":{"key":"08128","name":"Main-Tauber-Kreis","type":"Landkreis"},"federalState":{"key":"08","name":"Baden-Württemberg"}},{"name":"Bismarckstr.","postalCode":"97990","locality":"Weikersheim","municipality":{"key":"08128126","name":"Weikersheim, Stadt","type":"Stadt"},"district":{"key":"08128","name":"Main-Tauber-Kreis","type":"Landkreis"},"federalState":{"key":"08","name":"Baden-Württemberg"}},{"name":"Blumenstr.","postalCode":"97990","locality":"Weikersheim","municipality":{"key":"08128126","name":"Weikersheim, Stadt","type":"Stadt"},"district":{"key":"08128","name":"Main-Tauber-Kreis","type":"Landkreis"},"federalState":{"key":"08","name":"Baden-Württemberg"}},{"name":"Bocksweg","postalCode":"97990","locality":"Weikersheim","municipality":{"key":"08128126","name":"Weikersheim, Stadt","type":"Stadt"},"district":{"key":"08128","name":"Main-Tauber-Kreis","type":"Landkreis"},"federalState":{"key":"08","name":"Baden-Württemberg"}},{"name":"Breslaustr.","postalCode":"97990","locality":"Weikersheim","municipality":{"key":"08128126","name":"Weikersheim, Stadt","type":"Stadt"},"district":{"key":"08128","name":"Main-Tauber-Kreis","type":"Landkreis"},"federalState":{"key":"08","name":"Baden-Württemberg"}},{"name":"Bronn","postalCode":"97990","locality":"Weikersheim","municipality":{"key":"08128126","name":"Weikersheim, Stadt","type":"Stadt"},"district":{"key":"08128","name":"Main-Tauber-Kreis","type":"Landkreis"},"federalState":{"key":"08","name":"Baden-Württemberg"}},{"name":"Brühlweg","postalCode":"97990","locality":"Weikersheim","municipality":{"key":"08128126","name":"Weikersheim, Stadt","type":"Stadt"},"district":{"key":"08128","name":"Main-Tauber-Kreis","type":"Landkreis"},"federalState":{"key":"08","name":"Baden-Württemberg"}},{"name":"Brunnengasse","postalCode":"97990","locality":"Weikersheim","municipality":{"key":"08128126","name":"Weikersheim, Stadt","type":"Stadt"},"district":{"key":"08128","name":"Main-Tauber-Kreis","type":"Landkreis"},"federalState":{"key":"08","name":"Baden-Württemberg"}},{"name":"Brunnenweg","postalCode":"97990","locality":"Weikersheim","municipality":{"key":"08128126","name":"Weikersheim, Stadt","type":"Stadt"},"district":{"key":"08128","name":"Main-Tauber-Kreis","type":"Landkreis"},"federalState":{"key":"08","name":"Baden-Württemberg"}},{"name":"Buchenweg","postalCode":"97990","locality":"Weikersheim","municipality":{"key":"08128126","name":"Weikersheim, Stadt","type":"Stadt"},"district":{"key":"08128","name":"Main-Tauber-Kreis","type":"Landkreis"},"federalState":{"key":"08","name":"Baden-Württemberg"}},{"name":"Bussardweg","postalCode":"97990","locality":"Weikersheim","municipality":{"key":"08128126","name":"Weikersheim, Stadt","type":"Stadt"},"district":{"key":"08128","name":"Main-Tauber-Kreis","type":"Landkreis"},"federalState":{"key":"08","name":"Baden-Württemberg"}},{"name":"Dahlienweg","postalCode":"97990","locality":"Weikersheim","municipality":{"key":"08128126","name":"Weikersheim, Stadt","type":"Stadt"},"district":{"key":"08128","name":"Main-Tauber-Kreis","type":"Landkreis"},"federalState":{"key":"08","name":"Baden-Württemberg"}},{"name":"Danzigstr.","postalCode":"97990","locality":"Weikersheim","municipality":{"key":"08128126","name":"Weikersheim, Stadt","type":"Stadt"},"district":{"key":"08128","name":"Main-Tauber-Kreis","type":"Landkreis"},"federalState":{"key":"08","name":"Baden-Württemberg"}},{"name":"Degelbronner Weg","postalCode":"97990","locality":"Weikersheim","municipality":{"key":"08128126","name":"Weikersheim, Stadt","type":"Stadt"},"district":{"key":"08128","name":"Main-Tauber-Kreis","type":"Landkreis"},"federalState":{"key":"08","name":"Baden-Württemberg"}},{"name":"Deutschordenstr.","postalCode":"97990","locality":"Weikersheim","municipality":{"key":"08128126","name":"Weikersheim, Stadt","type":"Stadt"},"district":{"key":"08128","name":"Main-Tauber-Kreis","type":"Landkreis"},"federalState":{"key":"08","name":"Baden-Württemberg"}},{"name":"Dorfstr.","postalCode":"97990","locality":"Weikersheim","municipality":{"key":"08128126","name":"Weikersheim, Stadt","type":"Stadt"},"district":{"key":"08128","name":"Main-Tauber-Kreis","type":"Landkreis"},"federalState":{"key":"08","name":"Baden-Württemberg"}},{"name":"Drosselweg","postalCode":"97990","locality":"Weikersheim","municipality":{"key":"08128126","name":"Weikersheim, Stadt","type":"Stadt"},"district":{"key":"08128","name":"Main-Tauber-Kreis","type":"Landkreis"},"federalState":{"key":"08","name":"Baden-Württemberg"}},{"name":"Dunaföldvarer Allee","postalCode":"97990","locality":"Weikersheim","municipality":{"key":"08128126","name":"Weikersheim, Stadt","type":"Stadt"},"district":{"key":"08128","name":"Main-Tauber-Kreis","type":"Landkreis"},"federalState":{"key":"08","name":"Baden-Württemberg"}},{"name":"Dürrbachweg","postalCode":"97990","locality":"Weikersheim","municipality":{"key":"08128126","name":"Weikersheim, Stadt","type":"Stadt"},"district":{"key":"08128","name":"Main-Tauber-Kreis","type":"Landkreis"},"federalState":{"key":"08","name":"Baden-Württemberg"}},{"name":"Eichendorffstr.","postalCode":"97990","locality":"Weikersheim","municipality":{"key":"08128126","name":"Weikersheim, Stadt","type":"Stadt"},"district":{"key":"08128","name":"Main-Tauber-Kreis","type":"Landkreis"},"federalState":{"key":"08","name":"Baden-Württemberg"}},{"name":"Eisgrubenweg","postalCode":"97990","locality":"Weikersheim","municipality":{"key":"08128126","name":"Weikersheim, Stadt","type":"Stadt"},"district":{"key":"08128","name":"Main-Tauber-Kreis","type":"Landkreis"},"federalState":{"key":"08","name":"Baden-Württemberg"}},{"name":"Eisvogelweg","postalCode":"97990","locality":"Weikersheim","municipality":{"key":"08128126","name":"Weikersheim, Stadt","type":"Stadt"},"district":{"key":"08128","name":"Main-Tauber-Kreis","type":"Landkreis"},"federalState":{"key":"08","name":"Baden-Württemberg"}},{"name":"Enges Gässle","postalCode":"97990","locality":"Weikersheim","municipality":{"key":"08128126","name":"Weikersheim, Stadt","type":"Stadt"},"district":{"key":"08128","name":"Main-Tauber-Kreis","type":"Landkreis"},"federalState":{"key":"08","name":"Baden-Württemberg"}},{"name":"Erasmus-Widmann-Str.","postalCode":"97990","locality":"Weikersheim","municipality":{"key":"08128126","name":"Weikersheim, Stadt","type":"Stadt"},"district":{"key":"08128","name":"Main-Tauber-Kreis","type":"Landkreis"},"federalState":{"key":"08","name":"Baden-Württemberg"}},{"name":"Erbsengasse","postalCode":"97990","locality":"Weikersheim","municipality":{"key":"08128126","name":"Weikersheim, Stadt","type":"Stadt"},"district":{"key":"08128","name":"Main-Tauber-Kreis","type":"Landkreis"},"federalState":{"key":"08","name":"Baden-Württemberg"}},{"name":"Eselsweg","postalCode":"97990","locality":"Weikersheim","municipality":{"key":"08128126","name":"Weikersheim, Stadt","type":"Stadt"},"district":{"key":"08128","name":"Main-Tauber-Kreis","type":"Landkreis"},"federalState":{"key":"08","name":"Baden-Württemberg"}},{"name":"Eulenstr.","postalCode":"97990","locality":"Weikersheim","municipality":{"key":"08128126","name":"Weikersheim, Stadt","type":"Stadt"},"district":{"key":"08128","name":"Main-Tauber-Kreis","type":"Landkreis"},"federalState":{"key":"08","name":"Baden-Württemberg"}},{"name":"Falkenweg","postalCode":"97990","locality":"Weikersheim","municipality":{"key":"08128126","name":"Weikersheim, Stadt","type":"Stadt"},"district":{"key":"08128","name":"Main-Tauber-Kreis","type":"Landkreis"},"federalState":{"key":"08","name":"Baden-Württemberg"}},{"name":"Fasanenweg","postalCode":"97990","locality":"Weikersheim","municipality":{"key":"08128126","name":"Weikersheim, Stadt","type":"Stadt"},"district":{"key":"08128","name":"Main-Tauber-Kreis","type":"Landkreis"},"federalState":{"key":"08","name":"Baden-Württemberg"}},{"name":"Feldertor","postalCode":"97990","locality":"Weikersheim","municipality":{"key":"08128126","name":"Weikersheim, Stadt","type":"Stadt"},"district":{"key":"08128","name":"Main-Tauber-Kreis","type":"Landkreis"},"federalState":{"key":"08","name":"Baden-Württemberg"}},{"name":"Festplatz","postalCode":"97990","locality":"Weikersheim","municipality":{"key":"08128126","name":"Weikersheim, Stadt","type":"Stadt"},"district":{"key":"08128","name":"Main-Tauber-Kreis","type":"Landkreis"},"federalState":{"key":"08","name":"Baden-Württemberg"}},{"name":"Finkenweg","postalCode":"97990","locality":"Weikersheim","municipality":{"key":"08128126","name":"Weikersheim, Stadt","type":"Stadt"},"district":{"key":"08128","name":"Main-Tauber-Kreis","type":"Landkreis"},"federalState":{"key":"08","name":"Baden-Württemberg"}},{"name":"Flur","postalCode":"97990","locality":"Weikersheim","municipality":{"key":"08128126","name":"Weikersheim, Stadt","type":"Stadt"},"district":{"key":"08128","name":"Main-Tauber-Kreis","type":"Landkreis"},"federalState":{"key":"08","name":"Baden-Württemberg"}},{"name":"Forchenweg","postalCode":"97990","locality":"Weikersheim","municipality":{"key":"08128126","name":"Weikersheim, Stadt","type":"Stadt"},"district":{"key":"08128","name":"Main-Tauber-Kreis","type":"Landkreis"},"federalState":{"key":"08","name":"Baden-Württemberg"}},{"name":"Frankenstr.","postalCode":"97990","locality":"Weikersheim","municipality":{"key":"08128126","name":"Weikersheim, Stadt","type":"Stadt"},"district":{"key":"08128","name":"Main-Tauber-Kreis","type":"Landkreis"},"federalState":{"key":"08","name":"Baden-Württemberg"}},{"name":"Friedenstr.","postalCode":"97990","locality":"Weikersheim","municipality":{"key":"08128126","name":"Weikersheim, Stadt","type":"Stadt"},"district":{"key":"08128","name":"Main-Tauber-Kreis","type":"Landkreis"},"federalState":{"key":"08","name":"Baden-Württemberg"}},{"name":"Friedhofsweg","postalCode":"97990","locality":"Weikersheim","municipality":{"key":"08128126","name":"Weikersheim, Stadt","type":"Stadt"},"district":{"key":"08128","name":"Main-Tauber-Kreis","type":"Landkreis"},"federalState":{"key":"08","name":"Baden-Württemberg"}},{"name":"Friedrichstr.","postalCode":"97990","locality":"Weikersheim","municipality":{"key":"08128126","name":"Weikersheim, Stadt","type":"Stadt"},"district":{"key":"08128","name":"Main-Tauber-Kreis","type":"Landkreis"},"federalState":{"key":"08","name":"Baden-Württemberg"}},{"name":"Friedrich-Wolfarth-Str.","postalCode":"97990","locality":"Weikersheim","municipality":{"key":"08128126","name":"Weikersheim, Stadt","type":"Stadt"},"district":{"key":"08128","name":"Main-Tauber-Kreis","type":"Landkreis"},"federalState":{"key":"08","name":"Baden-Württemberg"}},{"name":"Frühlingstr.","postalCode":"97990","locality":"Weikersheim","municipality":{"key":"08128126","name":"Weikersheim, Stadt","type":"Stadt"},"district":{"key":"08128","name":"Main-Tauber-Kreis","type":"Landkreis"},"federalState":{"key":"08","name":"Baden-Württemberg"}},{"name":"Furchgasse","postalCode":"97990","locality":"Weikersheim","municipality":{"key":"08128126","name":"Weikersheim, Stadt","type":"Stadt"},"district":{"key":"08128","name":"Main-Tauber-Kreis","type":"Landkreis"},"federalState":{"key":"08","name":"Baden-Württemberg"}},{"name":"Fürst-Gottfried-Str.","postalCode":"97990","locality":"Weikersheim","municipality":{"key":"08128126","name":"Weikersheim, Stadt","type":"Stadt"},"district":{"key":"08128","name":"Main-Tauber-Kreis","type":"Landkreis"},"federalState":{"key":"08","name":"Baden-Württemberg"}},{"name":"Gartenstr.","postalCode":"97990","locality":"Weikersheim","municipality":{"key":"08128126","name":"Weikersheim, Stadt","type":"Stadt"},"district":{"key":"08128","name":"Main-Tauber-Kreis","type":"Landkreis"},"federalState":{"key":"08","name":"Baden-Württemberg"}},{"name":"Goethestr.","postalCode":"97990","locality":"Weikersheim","municipality":{"key":"08128126","name":"Weikersheim, Stadt","type":"Stadt"},"district":{"key":"08128","name":"Main-Tauber-Kreis","type":"Landkreis"},"federalState":{"key":"08","name":"Baden-Württemberg"}},{"name":"Grabenweg","postalCode":"97990","locality":"Weikersheim","municipality":{"key":"08128126","name":"Weikersheim, Stadt","type":"Stadt"},"district":{"key":"08128","name":"Main-Tauber-Kreis","type":"Landkreis"},"federalState":{"key":"08","name":"Baden-Württemberg"}},{"name":"Haagen","postalCode":"97990","locality":"Weikersheim","municipality":{"key":"08128126","name":"Weikersheim, Stadt","type":"Stadt"},"district":{"key":"08128","name":"Main-Tauber-Kreis","type":"Landkreis"},"federalState":{"key":"08","name":"Baden-Württemberg"}},{"name":"Habichtweg","postalCode":"97990","locality":"Weikersheim","municipality":{"key":"08128126","name":"Weikersheim, Stadt","type":"Stadt"},"district":{"key":"08128","name":"Main-Tauber-Kreis","type":"Landkreis"},"federalState":{"key":"08","name":"Baden-Württemberg"}},{"name":"Hadergasse","postalCode":"97990","locality":"Weikersheim","municipality":{"key":"08128126","name":"Weikersheim, Stadt","type":"Stadt"},"district":{"key":"08128","name":"Main-Tauber-Kreis","type":"Landkreis"},"federalState":{"key":"08","name":"Baden-Württemberg"}},{"name":"Haldenweg","postalCode":"97990","locality":"Weikersheim","municipality":{"key":"08128126","name":"Weikersheim, Stadt","type":"Stadt"},"district":{"key":"08128","name":"Main-Tauber-Kreis","type":"Landkreis"},"federalState":{"key":"08","name":"Baden-Württemberg"}},{"name":"Hammelsklingenweg","postalCode":"97990","locality":"Weikersheim","municipality":{"key":"08128126","name":"Weikersheim, Stadt","type":"Stadt"},"district":{"key":"08128","name":"Main-Tauber-Kreis","type":"Landkreis"},"federalState":{"key":"08","name":"Baden-Württemberg"}},{"name":"Harthäuser Str.","postalCode":"97990","locality":"Weikersheim","municipality":{"key":"08128126","name":"Weikersheim, Stadt","type":"Stadt"},"district":{"key":"08128","name":"Main-Tauber-Kreis","type":"Landkreis"},"federalState":{"key":"08","name":"Baden-Württemberg"}},{"name":"Hartriegel","postalCode":"97990","locality":"Weikersheim","municipality":{"key":"08128126","name":"Weikersheim, Stadt","type":"Stadt"},"district":{"key":"08128","name":"Main-Tauber-Kreis","type":"Landkreis"},"federalState":{"key":"08","name":"Baden-Württemberg"}},{"name":"Hartweg","postalCode":"97990","locality":"Weikersheim","municipality":{"key":"08128126","name":"Weikersheim, Stadt","type":"Stadt"},"district":{"key":"08128","name":"Main-Tauber-Kreis","type":"Landkreis"},"federalState":{"key":"08","name":"Baden-Württemberg"}},{"name":"Hauptstr.","postalCode":"97990","locality":"Weikersheim","municipality":{"key":"08128126","name":"Weikersheim, Stadt","type":"Stadt"},"district":{"key":"08128","name":"Main-Tauber-Kreis","type":"Landkreis"},"federalState":{"key":"08","name":"Baden-Württemberg"}},{"name":"Heerweg","postalCode":"97990","locality":"Weikersheim","municipality":{"key":"08128126","name":"Weikersheim, Stadt","type":"Stadt"},"district":{"key":"08128","name":"Main-Tauber-Kreis","type":"Landkreis"},"federalState":{"key":"08","name":"Baden-Württemberg"}},{"name":"Heinrich-Zapp-Str.","postalCode":"97990","locality":"Weikersheim","municipality":{"key":"08128126","name":"Weikersheim, Stadt","type":"Stadt"},"district":{"key":"08128","name":"Main-Tauber-Kreis","type":"Landkreis"},"federalState":{"key":"08","name":"Baden-Württemberg"}},{"name":"Heinz-Sausele-Weg","postalCode":"97990","locality":"Weikersheim","municipality":{"key":"08128126","name":"Weikersheim, Stadt","type":"Stadt"},"district":{"key":"08128","name":"Main-Tauber-Kreis","type":"Landkreis"},"federalState":{"key":"08","name":"Baden-Württemberg"}},{"name":"Herrengasse","postalCode":"97990","locality":"Weikersheim","municipality":{"key":"08128126","name":"Weikersheim, Stadt","type":"Stadt"},"district":{"key":"08128","name":"Main-Tauber-Kreis","type":"Landkreis"},"federalState":{"key":"08","name":"Baden-Württemberg"}},{"name":"Herrgottstr.","postalCode":"97990","locality":"Weikersheim","municipality":{"key":"08128126","name":"Weikersheim, Stadt","type":"Stadt"},"district":{"key":"08128","name":"Main-Tauber-Kreis","type":"Landkreis"},"federalState":{"key":"08","name":"Baden-Württemberg"}},{"name":"Hintere Furchgasse","postalCode":"97990","locality":"Weikersheim","municipality":{"key":"08128126","name":"Weikersheim, Stadt","type":"Stadt"},"district":{"key":"08128","name":"Main-Tauber-Kreis","type":"Landkreis"},"federalState":{"key":"08","name":"Baden-Württemberg"}},{"name":"Hirtenstr.","postalCode":"97990","locality":"Weikersheim","municipality":{"key":"08128126","name":"Weikersheim, Stadt","type":"Stadt"},"district":{"key":"08128","name":"Main-Tauber-Kreis","type":"Landkreis"},"federalState":{"key":"08","name":"Baden-Württemberg"}},{"name":"Hof Aischland","postalCode":"97990","locality":"Weikersheim","municipality":{"key":"08128126","name":"Weikersheim, Stadt","type":"Stadt"},"district":{"key":"08128","name":"Main-Tauber-Kreis","type":"Landkreis"},"federalState":{"key":"08","name":"Baden-Württemberg"}},{"name":"Hofstelze","postalCode":"97990","locality":"Weikersheim","municipality":{"key":"08128126","name":"Weikersheim, Stadt","type":"Stadt"},"district":{"key":"08128","name":"Main-Tauber-Kreis","type":"Landkreis"},"federalState":{"key":"08","name":"Baden-Württemberg"}},{"name":"Hohenloher Str.","postalCode":"97990","locality":"Weikersheim","municipality":{"key":"08128126","name":"Weikersheim, Stadt","type":"Stadt"},"district":{"key":"08128","name":"Main-Tauber-Kreis","type":"Landkreis"},"federalState":{"key":"08","name":"Baden-Württemberg"}},{"name":"Höhenweg","postalCode":"97990","locality":"Weikersheim","municipality":{"key":"08128126","name":"Weikersheim, Stadt","type":"Stadt"},"district":{"key":"08128","name":"Main-Tauber-Kreis","type":"Landkreis"},"federalState":{"key":"08","name":"Baden-Württemberg"}},{"name":"Hölderlinstr.","postalCode":"97990","locality":"Weikersheim","municipality":{"key":"08128126","name":"Weikersheim, Stadt","type":"Stadt"},"district":{"key":"08128","name":"Main-Tauber-Kreis","type":"Landkreis"},"federalState":{"key":"08","name":"Baden-Württemberg"}},{"name":"Holzackerweg","postalCode":"97990","locality":"Weikersheim","municipality":{"key":"08128126","name":"Weikersheim, Stadt","type":"Stadt"},"district":{"key":"08128","name":"Main-Tauber-Kreis","type":"Landkreis"},"federalState":{"key":"08","name":"Baden-Württemberg"}},{"name":"Honsbronn","postalCode":"97990","locality":"Weikersheim","municipality":{"key":"08128126","name":"Weikersheim, Stadt","type":"Stadt"},"district":{"key":"08128","name":"Main-Tauber-Kreis","type":"Landkreis"},"federalState":{"key":"08","name":"Baden-Württemberg"}},{"name":"Humboldtstr.","postalCode":"97990","locality":"Weikersheim","municipality":{"key":"08128126","name":"Weikersheim, Stadt","type":"Stadt"},"district":{"key":"08128","name":"Main-Tauber-Kreis","type":"Landkreis"},"federalState":{"key":"08","name":"Baden-Württemberg"}},{"name":"Hüttenweg","postalCode":"97990","locality":"Weikersheim","municipality":{"key":"08128126","name":"Weikersheim, Stadt","type":"Stadt"},"district":{"key":"08128","name":"Main-Tauber-Kreis","type":"Landkreis"},"federalState":{"key":"08","name":"Baden-Württemberg"}},{"name":"Im Egelsee","postalCode":"97990","locality":"Weikersheim","municipality":{"key":"08128126","name":"Weikersheim, Stadt","type":"Stadt"},"district":{"key":"08128","name":"Main-Tauber-Kreis","type":"Landkreis"},"federalState":{"key":"08","name":"Baden-Württemberg"}},{"name":"Im Löhle","postalCode":"97990","locality":"Weikersheim","municipality":{"key":"08128126","name":"Weikersheim, Stadt","type":"Stadt"},"district":{"key":"08128","name":"Main-Tauber-Kreis","type":"Landkreis"},"federalState":{"key":"08","name":"Baden-Württemberg"}},{"name":"Industriestr.","postalCode":"97990","locality":"Weikersheim","municipality":{"key":"08128126","name":"Weikersheim, Stadt","type":"Stadt"},"district":{"key":"08128","name":"Main-Tauber-Kreis","type":"Landkreis"},"federalState":{"key":"08","name":"Baden-Württemberg"}},{"name":"Johannes-Kepler-Allee","postalCode":"97990","locality":"Weikersheim","municipality":{"key":"08128126","name":"Weikersheim, Stadt","type":"Stadt"},"district":{"key":"08128","name":"Main-Tauber-Kreis","type":"Landkreis"},"federalState":{"key":"08","name":"Baden-Württemberg"}},{"name":"Kanalstr.","postalCode":"97990","locality":"Weikersheim","municipality":{"key":"08128126","name":"Weikersheim, Stadt","type":"Stadt"},"district":{"key":"08128","name":"Main-Tauber-Kreis","type":"Landkreis"},"federalState":{"key":"08","name":"Baden-Württemberg"}},{"name":"Kapellenweg","postalCode":"97990","locality":"Weikersheim","municipality":{"key":"08128126","name":"Weikersheim, Stadt","type":"Stadt"},"district":{"key":"08128","name":"Main-Tauber-Kreis","type":"Landkreis"},"federalState":{"key":"08","name":"Baden-Württemberg"}},{"name":"Kappelweg","postalCode":"97990","locality":"Weikersheim","municipality":{"key":"08128126","name":"Weikersheim, Stadt","type":"Stadt"},"district":{"key":"08128","name":"Main-Tauber-Kreis","type":"Landkreis"},"federalState":{"key":"08","name":"Baden-Württemberg"}},{"name":"Karl-Ludwig-Str.","postalCode":"97990","locality":"Weikersheim","municipality":{"key":"08128126","name":"Weikersheim, Stadt","type":"Stadt"},"district":{"key":"08128","name":"Main-Tauber-Kreis","type":"Landkreis"},"federalState":{"key":"08","name":"Baden-Württemberg"}},{"name":"Karlstr.","postalCode":"97990","locality":"Weikersheim","municipality":{"key":"08128126","name":"Weikersheim, Stadt","type":"Stadt"},"district":{"key":"08128","name":"Main-Tauber-Kreis","type":"Landkreis"},"federalState":{"key":"08","name":"Baden-Württemberg"}},{"name":"Katharinenstr.","postalCode":"97990","locality":"Weikersheim","municipality":{"key":"08128126","name":"Weikersheim, Stadt","type":"Stadt"},"district":{"key":"08128","name":"Main-Tauber-Kreis","type":"Landkreis"},"federalState":{"key":"08","name":"Baden-Württemberg"}},{"name":"Kelterstr.","postalCode":"97990","locality":"Weikersheim","municipality":{"key":"08128126","name":"Weikersheim, Stadt","type":"Stadt"},"district":{"key":"08128","name":"Main-Tauber-Kreis","type":"Landkreis"},"federalState":{"key":"08","name":"Baden-Württemberg"}},{"name":"Kemetenstr.","postalCode":"97990","locality":"Weikersheim","municipality":{"key":"08128126","name":"Weikersheim, Stadt","type":"Stadt"},"district":{"key":"08128","name":"Main-Tauber-Kreis","type":"Landkreis"},"federalState":{"key":"08","name":"Baden-Württemberg"}},{"name":"Kernerweg","postalCode":"97990","locality":"Weikersheim","municipality":{"key":"08128126","name":"Weikersheim, Stadt","type":"Stadt"},"district":{"key":"08128","name":"Main-Tauber-Kreis","type":"Landkreis"},"federalState":{"key":"08","name":"Baden-Württemberg"}},{"name":"Kirchäcker","postalCode":"97990","locality":"Weikersheim","municipality":{"key":"08128126","name":"Weikersheim, Stadt","type":"Stadt"},"district":{"key":"08128","name":"Main-Tauber-Kreis","type":"Landkreis"},"federalState":{"key":"08","name":"Baden-Württemberg"}},{"name":"Kirchberg","postalCode":"97990","locality":"Weikersheim","municipality":{"key":"08128126","name":"Weikersheim, Stadt","type":"Stadt"},"district":{"key":"08128","name":"Main-Tauber-Kreis","type":"Landkreis"},"federalState":{"key":"08","name":"Baden-Württemberg"}},{"name":"Kirchgasse","postalCode":"97990","locality":"Weikersheim","municipality":{"key":"08128126","name":"Weikersheim, Stadt","type":"Stadt"},"district":{"key":"08128","name":"Main-Tauber-Kreis","type":"Landkreis"},"federalState":{"key":"08","name":"Baden-Württemberg"}},{"name":"Kirchgässle","postalCode":"97990","locality":"Weikersheim","municipality":{"key":"08128126","name":"Weikersheim, Stadt","type":"Stadt"},"district":{"key":"08128","name":"Main-Tauber-Kreis","type":"Landkreis"},"federalState":{"key":"08","name":"Baden-Württemberg"}},{"name":"Kirchstr.","postalCode":"97990","locality":"Weikersheim","municipality":{"key":"08128126","name":"Weikersheim, Stadt","type":"Stadt"},"district":{"key":"08128","name":"Main-Tauber-Kreis","type":"Landkreis"},"federalState":{"key":"08","name":"Baden-Württemberg"}},{"name":"Kleiststr.","postalCode":"97990","locality":"Weikersheim","municipality":{"key":"08128126","name":"Weikersheim, Stadt","type":"Stadt"},"district":{"key":"08128","name":"Main-Tauber-Kreis","type":"Landkreis"},"federalState":{"key":"08","name":"Baden-Württemberg"}},{"name":"Klingenstr.","postalCode":"97990","locality":"Weikersheim","municipality":{"key":"08128126","name":"Weikersheim, Stadt","type":"Stadt"},"district":{"key":"08128","name":"Main-Tauber-Kreis","type":"Landkreis"},"federalState":{"key":"08","name":"Baden-Württemberg"}},{"name":"Klosterbergweg","postalCode":"97990","locality":"Weikersheim","municipality":{"key":"08128126","name":"Weikersheim, Stadt","type":"Stadt"},"district":{"key":"08128","name":"Main-Tauber-Kreis","type":"Landkreis"},"federalState":{"key":"08","name":"Baden-Württemberg"}},{"name":"Klosterhof","postalCode":"97990","locality":"Weikersheim","municipality":{"key":"08128126","name":"Weikersheim, Stadt","type":"Stadt"},"district":{"key":"08128","name":"Main-Tauber-Kreis","type":"Landkreis"},"federalState":{"key":"08","name":"Baden-Württemberg"}},{"name":"Klosterstr.","postalCode":"97990","locality":"Weikersheim","municipality":{"key":"08128126","name":"Weikersheim, Stadt","type":"Stadt"},"district":{"key":"08128","name":"Main-Tauber-Kreis","type":"Landkreis"},"federalState":{"key":"08","name":"Baden-Württemberg"}},{"name":"Königsbergstr.","postalCode":"97990","locality":"Weikersheim","municipality":{"key":"08128126","name":"Weikersheim, Stadt","type":"Stadt"},"district":{"key":"08128","name":"Main-Tauber-Kreis","type":"Landkreis"},"federalState":{"key":"08","name":"Baden-Württemberg"}},{"name":"Kopernikusstr.","postalCode":"97990","locality":"Weikersheim","municipality":{"key":"08128126","name":"Weikersheim, Stadt","type":"Stadt"},"district":{"key":"08128","name":"Main-Tauber-Kreis","type":"Landkreis"},"federalState":{"key":"08","name":"Baden-Württemberg"}},{"name":"Kreuzstr.","postalCode":"97990","locality":"Weikersheim","municipality":{"key":"08128126","name":"Weikersheim, Stadt","type":"Stadt"},"district":{"key":"08128","name":"Main-Tauber-Kreis","type":"Landkreis"},"federalState":{"key":"08","name":"Baden-Württemberg"}},{"name":"Kronenstr.","postalCode":"97990","locality":"Weikersheim","municipality":{"key":"08128126","name":"Weikersheim, Stadt","type":"Stadt"},"district":{"key":"08128","name":"Main-Tauber-Kreis","type":"Landkreis"},"federalState":{"key":"08","name":"Baden-Württemberg"}},{"name":"Lange Str.","postalCode":"97990","locality":"Weikersheim","municipality":{"key":"08128126","name":"Weikersheim, Stadt","type":"Stadt"},"district":{"key":"08128","name":"Main-Tauber-Kreis","type":"Landkreis"},"federalState":{"key":"08","name":"Baden-Württemberg"}},{"name":"Laudenbacher Str.","postalCode":"97990","locality":"Weikersheim","municipality":{"key":"08128126","name":"Weikersheim, Stadt","type":"Stadt"},"district":{"key":"08128","name":"Main-Tauber-Kreis","type":"Landkreis"},"federalState":{"key":"08","name":"Baden-Württemberg"}},{"name":"Leitenweg","postalCode":"97990","locality":"Weikersheim","municipality":{"key":"08128126","name":"Weikersheim, Stadt","type":"Stadt"},"district":{"key":"08128","name":"Main-Tauber-Kreis","type":"Landkreis"},"federalState":{"key":"08","name":"Baden-Württemberg"}},{"name":"Lerchenweg","postalCode":"97990","locality":"Weikersheim","municipality":{"key":"08128126","name":"Weikersheim, Stadt","type":"Stadt"},"district":{"key":"08128","name":"Main-Tauber-Kreis","type":"Landkreis"},"federalState":{"key":"08","name":"Baden-Württemberg"}},{"name":"Lessingstr.","postalCode":"97990","locality":"Weikersheim","municipality":{"key":"08128126","name":"Weikersheim, Stadt","type":"Stadt"},"district":{"key":"08128","name":"Main-Tauber-Kreis","type":"Landkreis"},"federalState":{"key":"08","name":"Baden-Württemberg"}},{"name":"Lilienweg","postalCode":"97990","locality":"Weikersheim","municipality":{"key":"08128126","name":"Weikersheim, Stadt","type":"Stadt"},"district":{"key":"08128","name":"Main-Tauber-Kreis","type":"Landkreis"},"federalState":{"key":"08","name":"Baden-Württemberg"}},{"name":"Lindenstr.","postalCode":"97990","locality":"Weikersheim","municipality":{"key":"08128126","name":"Weikersheim, Stadt","type":"Stadt"},"district":{"key":"08128","name":"Main-Tauber-Kreis","type":"Landkreis"},"federalState":{"key":"08","name":"Baden-Württemberg"}},{"name":"Lindenweg","postalCode":"97990","locality":"Weikersheim","municipality":{"key":"08128126","name":"Weikersheim, Stadt","type":"Stadt"},"district":{"key":"08128","name":"Main-Tauber-Kreis","type":"Landkreis"},"federalState":{"key":"08","name":"Baden-Württemberg"}},{"name":"Lutzenklinge","postalCode":"97990","locality":"Weikersheim","municipality":{"key":"08128126","name":"Weikersheim, Stadt","type":"Stadt"},"district":{"key":"08128","name":"Main-Tauber-Kreis","type":"Landkreis"},"federalState":{"key":"08","name":"Baden-Württemberg"}},{"name":"Margeritenweg","postalCode":"97990","locality":"Weikersheim","municipality":{"key":"08128126","name":"Weikersheim, Stadt","type":"Stadt"},"district":{"key":"08128","name":"Main-Tauber-Kreis","type":"Landkreis"},"federalState":{"key":"08","name":"Baden-Württemberg"}},{"name":"Marienstr.","postalCode":"97990","locality":"Weikersheim","municipality":{"key":"08128126","name":"Weikersheim, Stadt","type":"Stadt"},"district":{"key":"08128","name":"Main-Tauber-Kreis","type":"Landkreis"},"federalState":{"key":"08","name":"Baden-Württemberg"}},{"name":"Marktplatz","postalCode":"97990","locality":"Weikersheim","municipality":{"key":"08128126","name":"Weikersheim, Stadt","type":"Stadt"},"district":{"key":"08128","name":"Main-Tauber-Kreis","type":"Landkreis"},"federalState":{"key":"08","name":"Baden-Württemberg"}},{"name":"Max-Planck-Ring","postalCode":"97990","locality":"Weikersheim","municipality":{"key":"08128126","name":"Weikersheim, Stadt","type":"Stadt"},"district":{"key":"08128","name":"Main-Tauber-Kreis","type":"Landkreis"},"federalState":{"key":"08","name":"Baden-Württemberg"}},{"name":"Meisenweg","postalCode":"97990","locality":"Weikersheim","municipality":{"key":"08128126","name":"Weikersheim, Stadt","type":"Stadt"},"district":{"key":"08128","name":"Main-Tauber-Kreis","type":"Landkreis"},"federalState":{"key":"08","name":"Baden-Württemberg"}},{"name":"Merkurweg","postalCode":"97990","locality":"Weikersheim","municipality":{"key":"08128126","name":"Weikersheim, Stadt","type":"Stadt"},"district":{"key":"08128","name":"Main-Tauber-Kreis","type":"Landkreis"},"federalState":{"key":"08","name":"Baden-Württemberg"}},{"name":"Mittelstr.","postalCode":"97990","locality":"Weikersheim","municipality":{"key":"08128126","name":"Weikersheim, Stadt","type":"Stadt"},"district":{"key":"08128","name":"Main-Tauber-Kreis","type":"Landkreis"},"federalState":{"key":"08","name":"Baden-Württemberg"}},{"name":"Mittelweg","postalCode":"97990","locality":"Weikersheim","municipality":{"key":"08128126","name":"Weikersheim, Stadt","type":"Stadt"},"district":{"key":"08128","name":"Main-Tauber-Kreis","type":"Landkreis"},"federalState":{"key":"08","name":"Baden-Württemberg"}},{"name":"Mohlachstr.","postalCode":"97990","locality":"Weikersheim","municipality":{"key":"08128126","name":"Weikersheim, Stadt","type":"Stadt"},"district":{"key":"08128","name":"Main-Tauber-Kreis","type":"Landkreis"},"federalState":{"key":"08","name":"Baden-Württemberg"}},{"name":"Molkereistr.","postalCode":"97990","locality":"Weikersheim","municipality":{"key":"08128126","name":"Weikersheim, Stadt","type":"Stadt"},"district":{"key":"08128","name":"Main-Tauber-Kreis","type":"Landkreis"},"federalState":{"key":"08","name":"Baden-Württemberg"}},{"name":"Mönchsgarten","postalCode":"97990","locality":"Weikersheim","municipality":{"key":"08128126","name":"Weikersheim, Stadt","type":"Stadt"},"district":{"key":"08128","name":"Main-Tauber-Kreis","type":"Landkreis"},"federalState":{"key":"08","name":"Baden-Württemberg"}},{"name":"Mörikestr.","postalCode":"97990","locality":"Weikersheim","municipality":{"key":"08128126","name":"Weikersheim, Stadt","type":"Stadt"},"district":{"key":"08128","name":"Main-Tauber-Kreis","type":"Landkreis"},"federalState":{"key":"08","name":"Baden-Württemberg"}},{"name":"Mozartstr.","postalCode":"97990","locality":"Weikersheim","municipality":{"key":"08128126","name":"Weikersheim, Stadt","type":"Stadt"},"district":{"key":"08128","name":"Main-Tauber-Kreis","type":"Landkreis"},"federalState":{"key":"08","name":"Baden-Württemberg"}},{"name":"Mühläcker","postalCode":"97990","locality":"Weikersheim","municipality":{"key":"08128126","name":"Weikersheim, Stadt","type":"Stadt"},"district":{"key":"08128","name":"Main-Tauber-Kreis","type":"Landkreis"},"federalState":{"key":"08","name":"Baden-Württemberg"}},{"name":"Mühlenweg","postalCode":"97990","locality":"Weikersheim","municipality":{"key":"08128126","name":"Weikersheim, Stadt","type":"Stadt"},"district":{"key":"08128","name":"Main-Tauber-Kreis","type":"Landkreis"},"federalState":{"key":"08","name":"Baden-Württemberg"}},{"name":"Mühlgärten","postalCode":"97990","locality":"Weikersheim","municipality":{"key":"08128126","name":"Weikersheim, Stadt","type":"Stadt"},"district":{"key":"08128","name":"Main-Tauber-Kreis","type":"Landkreis"},"federalState":{"key":"08","name":"Baden-Württemberg"}},{"name":"Mühlgasse","postalCode":"97990","locality":"Weikersheim","municipality":{"key":"08128126","name":"Weikersheim, Stadt","type":"Stadt"},"district":{"key":"08128","name":"Main-Tauber-Kreis","type":"Landkreis"},"federalState":{"key":"08","name":"Baden-Württemberg"}},{"name":"Mühlstr.","postalCode":"97990","locality":"Weikersheim","municipality":{"key":"08128126","name":"Weikersheim, Stadt","type":"Stadt"},"district":{"key":"08128","name":"Main-Tauber-Kreis","type":"Landkreis"},"federalState":{"key":"08","name":"Baden-Württemberg"}},{"name":"Narzissenweg","postalCode":"97990","locality":"Weikersheim","municipality":{"key":"08128126","name":"Weikersheim, Stadt","type":"Stadt"},"district":{"key":"08128","name":"Main-Tauber-Kreis","type":"Landkreis"},"federalState":{"key":"08","name":"Baden-Württemberg"}},{"name":"Nelkenweg","postalCode":"97990","locality":"Weikersheim","municipality":{"key":"08128126","name":"Weikersheim, Stadt","type":"Stadt"},"district":{"key":"08128","name":"Main-Tauber-Kreis","type":"Landkreis"},"federalState":{"key":"08","name":"Baden-Württemberg"}},{"name":"Neubronner Str.","postalCode":"97990","locality":"Weikersheim","municipality":{"key":"08128126","name":"Weikersheim, Stadt","type":"Stadt"},"district":{"key":"08128","name":"Main-Tauber-Kreis","type":"Landkreis"},"federalState":{"key":"08","name":"Baden-Württemberg"}},{"name":"Neuer-Bau-Gasse","postalCode":"97990","locality":"Weikersheim","municipality":{"key":"08128126","name":"Weikersheim, Stadt","type":"Stadt"},"district":{"key":"08128","name":"Main-Tauber-Kreis","type":"Landkreis"},"federalState":{"key":"08","name":"Baden-Württemberg"}},{"name":"Neuseser Str.","postalCode":"97990","locality":"Weikersheim","municipality":{"key":"08128126","name":"Weikersheim, Stadt","type":"Stadt"},"district":{"key":"08128","name":"Main-Tauber-Kreis","type":"Landkreis"},"federalState":{"key":"08","name":"Baden-Württemberg"}},{"name":"Niederstetter Str.","postalCode":"97990","locality":"Weikersheim","municipality":{"key":"08128126","name":"Weikersheim, Stadt","type":"Stadt"},"district":{"key":"08128","name":"Main-Tauber-Kreis","type":"Landkreis"},"federalState":{"key":"08","name":"Baden-Württemberg"}},{"name":"Obere Gasse","postalCode":"97990","locality":"Weikersheim","municipality":{"key":"08128126","name":"Weikersheim, Stadt","type":"Stadt"},"district":{"key":"08128","name":"Main-Tauber-Kreis","type":"Landkreis"},"federalState":{"key":"08","name":"Baden-Württemberg"}},{"name":"Oberes Tor","postalCode":"97990","locality":"Weikersheim","municipality":{"key":"08128126","name":"Weikersheim, Stadt","type":"Stadt"},"district":{"key":"08128","name":"Main-Tauber-Kreis","type":"Landkreis"},"federalState":{"key":"08","name":"Baden-Württemberg"}},{"name":"Oberndorf","postalCode":"97990","locality":"Weikersheim","municipality":{"key":"08128126","name":"Weikersheim, Stadt","type":"Stadt"},"district":{"key":"08128","name":"Main-Tauber-Kreis","type":"Landkreis"},"federalState":{"key":"08","name":"Baden-Württemberg"}},{"name":"Oberndorfer Weg","postalCode":"97990","locality":"Weikersheim","municipality":{"key":"08128126","name":"Weikersheim, Stadt","type":"Stadt"},"district":{"key":"08128","name":"Main-Tauber-Kreis","type":"Landkreis"},"federalState":{"key":"08","name":"Baden-Württemberg"}},{"name":"Ostlandweg","postalCode":"97990","locality":"Weikersheim","municipality":{"key":"08128126","name":"Weikersheim, Stadt","type":"Stadt"},"district":{"key":"08128","name":"Main-Tauber-Kreis","type":"Landkreis"},"federalState":{"key":"08","name":"Baden-Württemberg"}},{"name":"Pfarrgasse","postalCode":"97990","locality":"Weikersheim","municipality":{"key":"08128126","name":"Weikersheim, Stadt","type":"Stadt"},"district":{"key":"08128","name":"Main-Tauber-Kreis","type":"Landkreis"},"federalState":{"key":"08","name":"Baden-Württemberg"}},{"name":"Pfitzinger Str.","postalCode":"97990","locality":"Weikersheim","municipality":{"key":"08128126","name":"Weikersheim, Stadt","type":"Stadt"},"district":{"key":"08128","name":"Main-Tauber-Kreis","type":"Landkreis"},"federalState":{"key":"08","name":"Baden-Württemberg"}},{"name":"Pionierbrücke","postalCode":"97990","locality":"Weikersheim","municipality":{"key":"08128126","name":"Weikersheim, Stadt","type":"Stadt"},"district":{"key":"08128","name":"Main-Tauber-Kreis","type":"Landkreis"},"federalState":{"key":"08","name":"Baden-Württemberg"}},{"name":"Pirolweg","postalCode":"97990","locality":"Weikersheim","municipality":{"key":"08128126","name":"Weikersheim, Stadt","type":"Stadt"},"district":{"key":"08128","name":"Main-Tauber-Kreis","type":"Landkreis"},"federalState":{"key":"08","name":"Baden-Württemberg"}},{"name":"Postgasse","postalCode":"97990","locality":"Weikersheim","municipality":{"key":"08128126","name":"Weikersheim, Stadt","type":"Stadt"},"district":{"key":"08128","name":"Main-Tauber-Kreis","type":"Landkreis"},"federalState":{"key":"08","name":"Baden-Württemberg"}},{"name":"Queckbronn","postalCode":"97990","locality":"Weikersheim","municipality":{"key":"08128126","name":"Weikersheim, Stadt","type":"Stadt"},"district":{"key":"08128","name":"Main-Tauber-Kreis","type":"Landkreis"},"federalState":{"key":"08","name":"Baden-Württemberg"}},{"name":"Ränklestr.","postalCode":"97990","locality":"Weikersheim","municipality":{"key":"08128126","name":"Weikersheim, Stadt","type":"Stadt"},"district":{"key":"08128","name":"Main-Tauber-Kreis","type":"Landkreis"},"federalState":{"key":"08","name":"Baden-Württemberg"}},{"name":"Rinnengasse","postalCode":"97990","locality":"Weikersheim","municipality":{"key":"08128126","name":"Weikersheim, Stadt","type":"Stadt"},"district":{"key":"08128","name":"Main-Tauber-Kreis","type":"Landkreis"},"federalState":{"key":"08","name":"Baden-Württemberg"}},{"name":"Rohmbergweg","postalCode":"97990","locality":"Weikersheim","municipality":{"key":"08128126","name":"Weikersheim, Stadt","type":"Stadt"},"district":{"key":"08128","name":"Main-Tauber-Kreis","type":"Landkreis"},"federalState":{"key":"08","name":"Baden-Württemberg"}},{"name":"Rosengarten","postalCode":"97990","locality":"Weikersheim","municipality":{"key":"08128126","name":"Weikersheim, Stadt","type":"Stadt"},"district":{"key":"08128","name":"Main-Tauber-Kreis","type":"Landkreis"},"federalState":{"key":"08","name":"Baden-Württemberg"}},{"name":"Rosenstr.","postalCode":"97990","locality":"Weikersheim","municipality":{"key":"08128126","name":"Weikersheim, Stadt","type":"Stadt"},"district":{"key":"08128","name":"Main-Tauber-Kreis","type":"Landkreis"},"federalState":{"key":"08","name":"Baden-Württemberg"}},{"name":"Rosenweg","postalCode":"97990","locality":"Weikersheim","municipality":{"key":"08128126","name":"Weikersheim, Stadt","type":"Stadt"},"district":{"key":"08128","name":"Main-Tauber-Kreis","type":"Landkreis"},"federalState":{"key":"08","name":"Baden-Württemberg"}},{"name":"Ruderisweg","postalCode":"97990","locality":"Weikersheim","municipality":{"key":"08128126","name":"Weikersheim, Stadt","type":"Stadt"},"district":{"key":"08128","name":"Main-Tauber-Kreis","type":"Landkreis"},"federalState":{"key":"08","name":"Baden-Württemberg"}},{"name":"Rüsselhäuser Weg","postalCode":"97990","locality":"Weikersheim","municipality":{"key":"08128126","name":"Weikersheim, Stadt","type":"Stadt"},"district":{"key":"08128","name":"Main-Tauber-Kreis","type":"Landkreis"},"federalState":{"key":"08","name":"Baden-Württemberg"}},{"name":"Saufang","postalCode":"97990","locality":"Weikersheim","municipality":{"key":"08128126","name":"Weikersheim, Stadt","type":"Stadt"},"district":{"key":"08128","name":"Main-Tauber-Kreis","type":"Landkreis"},"federalState":{"key":"08","name":"Baden-Württemberg"}},{"name":"Schadenbergstr.","postalCode":"97990","locality":"Weikersheim","municipality":{"key":"08128126","name":"Weikersheim, Stadt","type":"Stadt"},"district":{"key":"08128","name":"Main-Tauber-Kreis","type":"Landkreis"},"federalState":{"key":"08","name":"Baden-Württemberg"}},{"name":"Schäftersheimer Str.","postalCode":"97990","locality":"Weikersheim","municipality":{"key":"08128126","name":"Weikersheim, Stadt","type":"Stadt"},"district":{"key":"08128","name":"Main-Tauber-Kreis","type":"Landkreis"},"federalState":{"key":"08","name":"Baden-Württemberg"}},{"name":"Schaftrieb","postalCode":"97990","locality":"Weikersheim","municipality":{"key":"08128126","name":"Weikersheim, Stadt","type":"Stadt"},"district":{"key":"08128","name":"Main-Tauber-Kreis","type":"Landkreis"},"federalState":{"key":"08","name":"Baden-Württemberg"}},{"name":"Schillerstr.","postalCode":"97990","locality":"Weikersheim","municipality":{"key":"08128126","name":"Weikersheim, Stadt","type":"Stadt"},"district":{"key":"08128","name":"Main-Tauber-Kreis","type":"Landkreis"},"federalState":{"key":"08","name":"Baden-Württemberg"}},{"name":"Schloßgarten","postalCode":"97990","locality":"Weikersheim","municipality":{"key":"08128126","name":"Weikersheim, Stadt","type":"Stadt"},"district":{"key":"08128","name":"Main-Tauber-Kreis","type":"Landkreis"},"federalState":{"key":"08","name":"Baden-Württemberg"}},{"name":"Schlössle","postalCode":"97990","locality":"Weikersheim","municipality":{"key":"08128126","name":"Weikersheim, Stadt","type":"Stadt"},"district":{"key":"08128","name":"Main-Tauber-Kreis","type":"Landkreis"},"federalState":{"key":"08","name":"Baden-Württemberg"}},{"name":"Schlosspark","postalCode":"97990","locality":"Weikersheim","municipality":{"key":"08128126","name":"Weikersheim, Stadt","type":"Stadt"},"district":{"key":"08128","name":"Main-Tauber-Kreis","type":"Landkreis"},"federalState":{"key":"08","name":"Baden-Württemberg"}},{"name":"Schmiedsbuck","postalCode":"97990","locality":"Weikersheim","municipality":{"key":"08128126","name":"Weikersheim, Stadt","type":"Stadt"},"district":{"key":"08128","name":"Main-Tauber-Kreis","type":"Landkreis"},"federalState":{"key":"08","name":"Baden-Württemberg"}},{"name":"Schulstr.","postalCode":"97990","locality":"Weikersheim","municipality":{"key":"08128126","name":"Weikersheim, Stadt","type":"Stadt"},"district":{"key":"08128","name":"Main-Tauber-Kreis","type":"Landkreis"},"federalState":{"key":"08","name":"Baden-Württemberg"}},{"name":"Schulweg","postalCode":"97990","locality":"Weikersheim","municipality":{"key":"08128126","name":"Weikersheim, Stadt","type":"Stadt"},"district":{"key":"08128","name":"Main-Tauber-Kreis","type":"Landkreis"},"federalState":{"key":"08","name":"Baden-Württemberg"}},{"name":"Schustergasse","postalCode":"97990","locality":"Weikersheim","municipality":{"key":"08128126","name":"Weikersheim, Stadt","type":"Stadt"},"district":{"key":"08128","name":"Main-Tauber-Kreis","type":"Landkreis"},"federalState":{"key":"08","name":"Baden-Württemberg"}},{"name":"Schwalbenweg","postalCode":"97990","locality":"Weikersheim","municipality":{"key":"08128126","name":"Weikersheim, Stadt","type":"Stadt"},"district":{"key":"08128","name":"Main-Tauber-Kreis","type":"Landkreis"},"federalState":{"key":"08","name":"Baden-Württemberg"}},{"name":"Seebuckweg","postalCode":"97990","locality":"Weikersheim","municipality":{"key":"08128126","name":"Weikersheim, Stadt","type":"Stadt"},"district":{"key":"08128","name":"Main-Tauber-Kreis","type":"Landkreis"},"federalState":{"key":"08","name":"Baden-Württemberg"}},{"name":"Silcherstr.","postalCode":"97990","locality":"Weikersheim","municipality":{"key":"08128126","name":"Weikersheim, Stadt","type":"Stadt"},"district":{"key":"08128","name":"Main-Tauber-Kreis","type":"Landkreis"},"federalState":{"key":"08","name":"Baden-Württemberg"}},{"name":"Sonnenhalde","postalCode":"97990","locality":"Weikersheim","municipality":{"key":"08128126","name":"Weikersheim, Stadt","type":"Stadt"},"district":{"key":"08128","name":"Main-Tauber-Kreis","type":"Landkreis"},"federalState":{"key":"08","name":"Baden-Württemberg"}},{"name":"Sonnenhang","postalCode":"97990","locality":"Weikersheim","municipality":{"key":"08128126","name":"Weikersheim, Stadt","type":"Stadt"},"district":{"key":"08128","name":"Main-Tauber-Kreis","type":"Landkreis"},"federalState":{"key":"08","name":"Baden-Württemberg"}},{"name":"Sonnenstr.","postalCode":"97990","locality":"Weikersheim","municipality":{"key":"08128126","name":"Weikersheim, Stadt","type":"Stadt"},"district":{"key":"08128","name":"Main-Tauber-Kreis","type":"Landkreis"},"federalState":{"key":"08","name":"Baden-Württemberg"}},{"name":"Spechtweg","postalCode":"97990","locality":"Weikersheim","municipality":{"key":"08128126","name":"Weikersheim, Stadt","type":"Stadt"},"district":{"key":"08128","name":"Main-Tauber-Kreis","type":"Landkreis"},"federalState":{"key":"08","name":"Baden-Württemberg"}},{"name":"Sperberweg","postalCode":"97990","locality":"Weikersheim","municipality":{"key":"08128126","name":"Weikersheim, Stadt","type":"Stadt"},"district":{"key":"08128","name":"Main-Tauber-Kreis","type":"Landkreis"},"federalState":{"key":"08","name":"Baden-Württemberg"}},{"name":"Sperlingsweg","postalCode":"97990","locality":"Weikersheim","municipality":{"key":"08128126","name":"Weikersheim, Stadt","type":"Stadt"},"district":{"key":"08128","name":"Main-Tauber-Kreis","type":"Landkreis"},"federalState":{"key":"08","name":"Baden-Württemberg"}},{"name":"Spießlestr.","postalCode":"97990","locality":"Weikersheim","municipality":{"key":"08128126","name":"Weikersheim, Stadt","type":"Stadt"},"district":{"key":"08128","name":"Main-Tauber-Kreis","type":"Landkreis"},"federalState":{"key":"08","name":"Baden-Württemberg"}},{"name":"Spitalgasse","postalCode":"97990","locality":"Weikersheim","municipality":{"key":"08128126","name":"Weikersheim, Stadt","type":"Stadt"},"district":{"key":"08128","name":"Main-Tauber-Kreis","type":"Landkreis"},"federalState":{"key":"08","name":"Baden-Württemberg"}},{"name":"Stadtpark Weikersheim","postalCode":"97990","locality":"Weikersheim","municipality":{"key":"08128126","name":"Weikersheim, Stadt","type":"Stadt"},"district":{"key":"08128","name":"Main-Tauber-Kreis","type":"Landkreis"},"federalState":{"key":"08","name":"Baden-Württemberg"}},{"name":"Stalldorfer Str.","postalCode":"97990","locality":"Weikersheim","municipality":{"key":"08128126","name":"Weikersheim, Stadt","type":"Stadt"},"district":{"key":"08128","name":"Main-Tauber-Kreis","type":"Landkreis"},"federalState":{"key":"08","name":"Baden-Württemberg"}},{"name":"Starenweg","postalCode":"97990","locality":"Weikersheim","municipality":{"key":"08128126","name":"Weikersheim, Stadt","type":"Stadt"},"district":{"key":"08128","name":"Main-Tauber-Kreis","type":"Landkreis"},"federalState":{"key":"08","name":"Baden-Württemberg"}},{"name":"Stegwiesen","postalCode":"97990","locality":"Weikersheim","municipality":{"key":"08128126","name":"Weikersheim, Stadt","type":"Stadt"},"district":{"key":"08128","name":"Main-Tauber-Kreis","type":"Landkreis"},"federalState":{"key":"08","name":"Baden-Württemberg"}},{"name":"Steinäckerstr.","postalCode":"97990","locality":"Weikersheim","municipality":{"key":"08128126","name":"Weikersheim, Stadt","type":"Stadt"},"district":{"key":"08128","name":"Main-Tauber-Kreis","type":"Landkreis"},"federalState":{"key":"08","name":"Baden-Württemberg"}},{"name":"Steinriegel","postalCode":"97990","locality":"Weikersheim","municipality":{"key":"08128126","name":"Weikersheim, Stadt","type":"Stadt"},"district":{"key":"08128","name":"Main-Tauber-Kreis","type":"Landkreis"},"federalState":{"key":"08","name":"Baden-Württemberg"}},{"name":"Stettinstr.","postalCode":"97990","locality":"Weikersheim","municipality":{"key":"08128126","name":"Weikersheim, Stadt","type":"Stadt"},"district":{"key":"08128","name":"Main-Tauber-Kreis","type":"Landkreis"},"federalState":{"key":"08","name":"Baden-Württemberg"}},{"name":"Sudetenstr.","postalCode":"97990","locality":"Weikersheim","municipality":{"key":"08128126","name":"Weikersheim, Stadt","type":"Stadt"},"district":{"key":"08128","name":"Main-Tauber-Kreis","type":"Landkreis"},"federalState":{"key":"08","name":"Baden-Württemberg"}},{"name":"Talstr.","postalCode":"97990","locality":"Weikersheim","municipality":{"key":"08128126","name":"Weikersheim, Stadt","type":"Stadt"},"district":{"key":"08128","name":"Main-Tauber-Kreis","type":"Landkreis"},"federalState":{"key":"08","name":"Baden-Württemberg"}},{"name":"Tannenviertelweg","postalCode":"97990","locality":"Weikersheim","municipality":{"key":"08128126","name":"Weikersheim, Stadt","type":"Stadt"},"district":{"key":"08128","name":"Main-Tauber-Kreis","type":"Landkreis"},"federalState":{"key":"08","name":"Baden-Württemberg"}},{"name":"Taubenhaus","postalCode":"97990","locality":"Weikersheim","municipality":{"key":"08128126","name":"Weikersheim, Stadt","type":"Stadt"},"district":{"key":"08128","name":"Main-Tauber-Kreis","type":"Landkreis"},"federalState":{"key":"08","name":"Baden-Württemberg"}},{"name":"Tauberhöhe","postalCode":"97990","locality":"Weikersheim","municipality":{"key":"08128126","name":"Weikersheim, Stadt","type":"Stadt"},"district":{"key":"08128","name":"Main-Tauber-Kreis","type":"Landkreis"},"federalState":{"key":"08","name":"Baden-Württemberg"}},{"name":"Taubermühle","postalCode":"97990","locality":"Weikersheim","municipality":{"key":"08128126","name":"Weikersheim, Stadt","type":"Stadt"},"district":{"key":"08128","name":"Main-Tauber-Kreis","type":"Landkreis"},"federalState":{"key":"08","name":"Baden-Württemberg"}},{"name":"Taubermühlenweg","postalCode":"97990","locality":"Weikersheim","municipality":{"key":"08128126","name":"Weikersheim, Stadt","type":"Stadt"},"district":{"key":"08128","name":"Main-Tauber-Kreis","type":"Landkreis"},"federalState":{"key":"08","name":"Baden-Württemberg"}},{"name":"Tempelgasse","postalCode":"97990","locality":"Weikersheim","municipality":{"key":"08128126","name":"Weikersheim, Stadt","type":"Stadt"},"district":{"key":"08128","name":"Main-Tauber-Kreis","type":"Landkreis"},"federalState":{"key":"08","name":"Baden-Württemberg"}},{"name":"Teufelstal","postalCode":"97990","locality":"Weikersheim","municipality":{"key":"08128126","name":"Weikersheim, Stadt","type":"Stadt"},"district":{"key":"08128","name":"Main-Tauber-Kreis","type":"Landkreis"},"federalState":{"key":"08","name":"Baden-Württemberg"}},{"name":"Tilsitstr.","postalCode":"97990","locality":"Weikersheim","municipality":{"key":"08128126","name":"Weikersheim, Stadt","type":"Stadt"},"district":{"key":"08128","name":"Main-Tauber-Kreis","type":"Landkreis"},"federalState":{"key":"08","name":"Baden-Württemberg"}},{"name":"Tulpenweg","postalCode":"97990","locality":"Weikersheim","municipality":{"key":"08128126","name":"Weikersheim, Stadt","type":"Stadt"},"district":{"key":"08128","name":"Main-Tauber-Kreis","type":"Landkreis"},"federalState":{"key":"08","name":"Baden-Württemberg"}},{"name":"Turmstr.","postalCode":"97990","locality":"Weikersheim","municipality":{"key":"08128126","name":"Weikersheim, Stadt","type":"Stadt"},"district":{"key":"08128","name":"Main-Tauber-Kreis","type":"Landkreis"},"federalState":{"key":"08","name":"Baden-Württemberg"}},{"name":"Uferweg","postalCode":"97990","locality":"Weikersheim","municipality":{"key":"08128126","name":"Weikersheim, Stadt","type":"Stadt"},"district":{"key":"08128","name":"Main-Tauber-Kreis","type":"Landkreis"},"federalState":{"key":"08","name":"Baden-Württemberg"}},{"name":"Uhlandstr.","postalCode":"97990","locality":"Weikersheim","municipality":{"key":"08128126","name":"Weikersheim, Stadt","type":"Stadt"},"district":{"key":"08128","name":"Main-Tauber-Kreis","type":"Landkreis"},"federalState":{"key":"08","name":"Baden-Württemberg"}},{"name":"Untere Gasse","postalCode":"97990","locality":"Weikersheim","municipality":{"key":"08128126","name":"Weikersheim, Stadt","type":"Stadt"},"district":{"key":"08128","name":"Main-Tauber-Kreis","type":"Landkreis"},"federalState":{"key":"08","name":"Baden-Württemberg"}},{"name":"Untere Kirchgasse","postalCode":"97990","locality":"Weikersheim","municipality":{"key":"08128126","name":"Weikersheim, Stadt","type":"Stadt"},"district":{"key":"08128","name":"Main-Tauber-Kreis","type":"Landkreis"},"federalState":{"key":"08","name":"Baden-Württemberg"}},{"name":"Untere Mühle","postalCode":"97990","locality":"Weikersheim","municipality":{"key":"08128126","name":"Weikersheim, Stadt","type":"Stadt"},"district":{"key":"08128","name":"Main-Tauber-Kreis","type":"Landkreis"},"federalState":{"key":"08","name":"Baden-Württemberg"}},{"name":"Viehsteige","postalCode":"97990","locality":"Weikersheim","municipality":{"key":"08128126","name":"Weikersheim, Stadt","type":"Stadt"},"district":{"key":"08128","name":"Main-Tauber-Kreis","type":"Landkreis"},"federalState":{"key":"08","name":"Baden-Württemberg"}},{"name":"Vogelsteige","postalCode":"97990","locality":"Weikersheim","municipality":{"key":"08128126","name":"Weikersheim, Stadt","type":"Stadt"},"district":{"key":"08128","name":"Main-Tauber-Kreis","type":"Landkreis"},"federalState":{"key":"08","name":"Baden-Württemberg"}},{"name":"Von-Hatzfeld-Str.","postalCode":"97990","locality":"Weikersheim","municipality":{"key":"08128126","name":"Weikersheim, Stadt","type":"Stadt"},"district":{"key":"08128","name":"Main-Tauber-Kreis","type":"Landkreis"},"federalState":{"key":"08","name":"Baden-Württemberg"}},{"name":"Vorstadtstr.","postalCode":"97990","locality":"Weikersheim","municipality":{"key":"08128126","name":"Weikersheim, Stadt","type":"Stadt"},"district":{"key":"08128","name":"Main-Tauber-Kreis","type":"Landkreis"},"federalState":{"key":"08","name":"Baden-Württemberg"}},{"name":"Wallgraben","postalCode":"97990","locality":"Weikersheim","municipality":{"key":"08128126","name":"Weikersheim, Stadt","type":"Stadt"},"district":{"key":"08128","name":"Main-Tauber-Kreis","type":"Landkreis"},"federalState":{"key":"08","name":"Baden-Württemberg"}},{"name":"Weikersheimer Str.","postalCode":"97990","locality":"Weikersheim","municipality":{"key":"08128126","name":"Weikersheim, Stadt","type":"Stadt"},"district":{"key":"08128","name":"Main-Tauber-Kreis","type":"Landkreis"},"federalState":{"key":"08","name":"Baden-Württemberg"}},{"name":"Weingartensteige","postalCode":"97990","locality":"Weikersheim","municipality":{"key":"08128126","name":"Weikersheim, Stadt","type":"Stadt"},"district":{"key":"08128","name":"Main-Tauber-Kreis","type":"Landkreis"},"federalState":{"key":"08","name":"Baden-Württemberg"}},{"name":"Weingasse","postalCode":"97990","locality":"Weikersheim","municipality":{"key":"08128126","name":"Weikersheim, Stadt","type":"Stadt"},"district":{"key":"08128","name":"Main-Tauber-Kreis","type":"Landkreis"},"federalState":{"key":"08","name":"Baden-Württemberg"}},{"name":"Wiesenweg","postalCode":"97990","locality":"Weikersheim","municipality":{"key":"08128126","name":"Weikersheim, Stadt","type":"Stadt"},"district":{"key":"08128","name":"Main-Tauber-Kreis","type":"Landkreis"},"federalState":{"key":"08","name":"Baden-Württemberg"}},{"name":"Wilhelm-Röntgen-Str.","postalCode":"97990","locality":"Weikersheim","municipality":{"key":"08128126","name":"Weikersheim, Stadt","type":"Stadt"},"district":{"key":"08128","name":"Main-Tauber-Kreis","type":"Landkreis"},"federalState":{"key":"08","name":"Baden-Württemberg"}},{"name":"Wilhelmstr.","postalCode":"97990","locality":"Weikersheim","municipality":{"key":"08128126","name":"Weikersheim, Stadt","type":"Stadt"},"district":{"key":"08128","name":"Main-Tauber-Kreis","type":"Landkreis"},"federalState":{"key":"08","name":"Baden-Württemberg"}},{"name":"Wolfgangstr.","postalCode":"97990","locality":"Weikersheim","municipality":{"key":"08128126","name":"Weikersheim, Stadt","type":"Stadt"},"district":{"key":"08128","name":"Main-Tauber-Kreis","type":"Landkreis"},"federalState":{"key":"08","name":"Baden-Württemberg"}},{"name":"Würzburger Str.","postalCode":"97990","locality":"Weikersheim","municipality":{"key":"08128126","name":"Weikersheim, Stadt","type":"Stadt"},"district":{"key":"08128","name":"Main-Tauber-Kreis","type":"Landkreis"},"federalState":{"key":"08","name":"Baden-Württemberg"}},{"name":"Zehnthof","postalCode":"97990","locality":"Weikersheim","municipality":{"key":"08128126","name":"Weikersheim, Stadt","type":"Stadt"},"district":{"key":"08128","name":"Main-Tauber-Kreis","type":"Landkreis"},"federalState":{"key":"08","name":"Baden-Württemberg"}},{"name":"Zeisigweg","postalCode":"97990","locality":"Weikersheim","municipality":{"key":"08128126","name":"Weikersheim, Stadt","type":"Stadt"},"district":{"key":"08128","name":"Main-Tauber-Kreis","type":"Landkreis"},"federalState":{"key":"08","name":"Baden-Württemberg"}},]