[{"name":"Alleestr.","postalCode":"03249","locality":"Sonnewalde","municipality":{"key":"12062469","name":"Sonnewalde, Stadt","type":"Stadt"},"district":{"key":"12062","name":"Elbe-Elster","type":"Landkreis"},"federalState":{"key":"12","name":"Brandenburg"}},{"name":"Am Birkenwald","postalCode":"03249","locality":"Sonnewalde","municipality":{"key":"12062469","name":"Sonnewalde, Stadt","type":"Stadt"},"district":{"key":"12062","name":"Elbe-Elster","type":"Landkreis"},"federalState":{"key":"12","name":"Brandenburg"}},{"name":"Am Kindergarten","postalCode":"03249","locality":"Sonnewalde","municipality":{"key":"12062469","name":"Sonnewalde, Stadt","type":"Stadt"},"district":{"key":"12062","name":"Elbe-Elster","type":"Landkreis"},"federalState":{"key":"12","name":"Brandenburg"}},{"name":"Am Park","postalCode":"03249","locality":"Sonnewalde","municipality":{"key":"12062469","name":"Sonnewalde, Stadt","type":"Stadt"},"district":{"key":"12062","name":"Elbe-Elster","type":"Landkreis"},"federalState":{"key":"12","name":"Brandenburg"}},{"name":"Amselweg","postalCode":"03249","locality":"Sonnewalde","municipality":{"key":"12062469","name":"Sonnewalde, Stadt","type":"Stadt"},"district":{"key":"12062","name":"Elbe-Elster","type":"Landkreis"},"federalState":{"key":"12","name":"Brandenburg"}},{"name":"Am Sportplatz","postalCode":"03249","locality":"Sonnewalde","municipality":{"key":"12062469","name":"Sonnewalde, Stadt","type":"Stadt"},"district":{"key":"12062","name":"Elbe-Elster","type":"Landkreis"},"federalState":{"key":"12","name":"Brandenburg"}},{"name":"Am Storchennest","postalCode":"03249","locality":"Sonnewalde","municipality":{"key":"12062469","name":"Sonnewalde, Stadt","type":"Stadt"},"district":{"key":"12062","name":"Elbe-Elster","type":"Landkreis"},"federalState":{"key":"12","name":"Brandenburg"}},{"name":"Am Wall","postalCode":"03249","locality":"Sonnewalde","municipality":{"key":"12062469","name":"Sonnewalde, Stadt","type":"Stadt"},"district":{"key":"12062","name":"Elbe-Elster","type":"Landkreis"},"federalState":{"key":"12","name":"Brandenburg"}},{"name":"An der Brauerei","postalCode":"03249","locality":"Sonnewalde","municipality":{"key":"12062469","name":"Sonnewalde, Stadt","type":"Stadt"},"district":{"key":"12062","name":"Elbe-Elster","type":"Landkreis"},"federalState":{"key":"12","name":"Brandenburg"}},{"name":"An der ehemaligen Molkerei","postalCode":"03249","locality":"Sonnewalde","municipality":{"key":"12062469","name":"Sonnewalde, Stadt","type":"Stadt"},"district":{"key":"12062","name":"Elbe-Elster","type":"Landkreis"},"federalState":{"key":"12","name":"Brandenburg"}},{"name":"An der Waage","postalCode":"03249","locality":"Sonnewalde","municipality":{"key":"12062469","name":"Sonnewalde, Stadt","type":"Stadt"},"district":{"key":"12062","name":"Elbe-Elster","type":"Landkreis"},"federalState":{"key":"12","name":"Brandenburg"}},{"name":"Ausbau","postalCode":"03249","locality":"Sonnewalde","municipality":{"key":"12062469","name":"Sonnewalde, Stadt","type":"Stadt"},"district":{"key":"12062","name":"Elbe-Elster","type":"Landkreis"},"federalState":{"key":"12","name":"Brandenburg"}},{"name":"Brauhausstr.","postalCode":"03249","locality":"Sonnewalde","municipality":{"key":"12062469","name":"Sonnewalde, Stadt","type":"Stadt"},"district":{"key":"12062","name":"Elbe-Elster","type":"Landkreis"},"federalState":{"key":"12","name":"Brandenburg"}},{"name":"Breite Str.","postalCode":"03249","locality":"Sonnewalde","municipality":{"key":"12062469","name":"Sonnewalde, Stadt","type":"Stadt"},"district":{"key":"12062","name":"Elbe-Elster","type":"Landkreis"},"federalState":{"key":"12","name":"Brandenburg"}},{"name":"Brenitzer Str.","postalCode":"03249","locality":"Sonnewalde","municipality":{"key":"12062469","name":"Sonnewalde, Stadt","type":"Stadt"},"district":{"key":"12062","name":"Elbe-Elster","type":"Landkreis"},"federalState":{"key":"12","name":"Brandenburg"}},{"name":"Brenitzer Weg","postalCode":"03249","locality":"Sonnewalde","municipality":{"key":"12062469","name":"Sonnewalde, Stadt","type":"Stadt"},"district":{"key":"12062","name":"Elbe-Elster","type":"Landkreis"},"federalState":{"key":"12","name":"Brandenburg"}},{"name":"Dabener Weg","postalCode":"03249","locality":"Sonnewalde","municipality":{"key":"12062469","name":"Sonnewalde, Stadt","type":"Stadt"},"district":{"key":"12062","name":"Elbe-Elster","type":"Landkreis"},"federalState":{"key":"12","name":"Brandenburg"}},{"name":"Dorfanger","postalCode":"03249","locality":"Sonnewalde","municipality":{"key":"12062469","name":"Sonnewalde, Stadt","type":"Stadt"},"district":{"key":"12062","name":"Elbe-Elster","type":"Landkreis"},"federalState":{"key":"12","name":"Brandenburg"}},{"name":"Dorfaue","postalCode":"03249","locality":"Sonnewalde","municipality":{"key":"12062469","name":"Sonnewalde, Stadt","type":"Stadt"},"district":{"key":"12062","name":"Elbe-Elster","type":"Landkreis"},"federalState":{"key":"12","name":"Brandenburg"}},{"name":"Dorfplatz","postalCode":"03249","locality":"Sonnewalde","municipality":{"key":"12062469","name":"Sonnewalde, Stadt","type":"Stadt"},"district":{"key":"12062","name":"Elbe-Elster","type":"Landkreis"},"federalState":{"key":"12","name":"Brandenburg"}},{"name":"Dorfstr.","postalCode":"03249","locality":"Sonnewalde","municipality":{"key":"12062469","name":"Sonnewalde, Stadt","type":"Stadt"},"district":{"key":"12062","name":"Elbe-Elster","type":"Landkreis"},"federalState":{"key":"12","name":"Brandenburg"}},{"name":"Eichholzer Weg","postalCode":"03249","locality":"Sonnewalde","municipality":{"key":"12062469","name":"Sonnewalde, Stadt","type":"Stadt"},"district":{"key":"12062","name":"Elbe-Elster","type":"Landkreis"},"federalState":{"key":"12","name":"Brandenburg"}},{"name":"Engestr.","postalCode":"03249","locality":"Sonnewalde","municipality":{"key":"12062469","name":"Sonnewalde, Stadt","type":"Stadt"},"district":{"key":"12062","name":"Elbe-Elster","type":"Landkreis"},"federalState":{"key":"12","name":"Brandenburg"}},{"name":"Feldstr.","postalCode":"03249","locality":"Sonnewalde","municipality":{"key":"12062469","name":"Sonnewalde, Stadt","type":"Stadt"},"district":{"key":"12062","name":"Elbe-Elster","type":"Landkreis"},"federalState":{"key":"12","name":"Brandenburg"}},{"name":"Feldweg","postalCode":"03249","locality":"Sonnewalde","municipality":{"key":"12062469","name":"Sonnewalde, Stadt","type":"Stadt"},"district":{"key":"12062","name":"Elbe-Elster","type":"Landkreis"},"federalState":{"key":"12","name":"Brandenburg"}},{"name":"Finsterwalder Landstr.","postalCode":"03249","locality":"Sonnewalde","municipality":{"key":"12062469","name":"Sonnewalde, Stadt","type":"Stadt"},"district":{"key":"12062","name":"Elbe-Elster","type":"Landkreis"},"federalState":{"key":"12","name":"Brandenburg"}},{"name":"Finsterwalder Str.","postalCode":"03249","locality":"Sonnewalde","municipality":{"key":"12062469","name":"Sonnewalde, Stadt","type":"Stadt"},"district":{"key":"12062","name":"Elbe-Elster","type":"Landkreis"},"federalState":{"key":"12","name":"Brandenburg"}},{"name":"Friedenstr.","postalCode":"03249","locality":"Sonnewalde","municipality":{"key":"12062469","name":"Sonnewalde, Stadt","type":"Stadt"},"district":{"key":"12062","name":"Elbe-Elster","type":"Landkreis"},"federalState":{"key":"12","name":"Brandenburg"}},{"name":"Friedersdorfer Str.","postalCode":"03249","locality":"Sonnewalde","municipality":{"key":"12062469","name":"Sonnewalde, Stadt","type":"Stadt"},"district":{"key":"12062","name":"Elbe-Elster","type":"Landkreis"},"federalState":{"key":"12","name":"Brandenburg"}},{"name":"Fröbelstr.","postalCode":"03249","locality":"Sonnewalde","municipality":{"key":"12062469","name":"Sonnewalde, Stadt","type":"Stadt"},"district":{"key":"12062","name":"Elbe-Elster","type":"Landkreis"},"federalState":{"key":"12","name":"Brandenburg"}},{"name":"Gahroer Weg","postalCode":"03249","locality":"Sonnewalde","municipality":{"key":"12062469","name":"Sonnewalde, Stadt","type":"Stadt"},"district":{"key":"12062","name":"Elbe-Elster","type":"Landkreis"},"federalState":{"key":"12","name":"Brandenburg"}},{"name":"Goßmarer Str.","postalCode":"03249","locality":"Sonnewalde","municipality":{"key":"12062469","name":"Sonnewalde, Stadt","type":"Stadt"},"district":{"key":"12062","name":"Elbe-Elster","type":"Landkreis"},"federalState":{"key":"12","name":"Brandenburg"}},{"name":"Große Feldstr.","postalCode":"03249","locality":"Sonnewalde","municipality":{"key":"12062469","name":"Sonnewalde, Stadt","type":"Stadt"},"district":{"key":"12062","name":"Elbe-Elster","type":"Landkreis"},"federalState":{"key":"12","name":"Brandenburg"}},{"name":"Großkrausniker Str.","postalCode":"03249","locality":"Sonnewalde","municipality":{"key":"12062469","name":"Sonnewalde, Stadt","type":"Stadt"},"district":{"key":"12062","name":"Elbe-Elster","type":"Landkreis"},"federalState":{"key":"12","name":"Brandenburg"}},{"name":"Hainstr.","postalCode":"03249","locality":"Sonnewalde","municipality":{"key":"12062469","name":"Sonnewalde, Stadt","type":"Stadt"},"district":{"key":"12062","name":"Elbe-Elster","type":"Landkreis"},"federalState":{"key":"12","name":"Brandenburg"}},{"name":"Hauptstr.","postalCode":"03249","locality":"Sonnewalde","municipality":{"key":"12062469","name":"Sonnewalde, Stadt","type":"Stadt"},"district":{"key":"12062","name":"Elbe-Elster","type":"Landkreis"},"federalState":{"key":"12","name":"Brandenburg"}},{"name":"Hennersdorfer Weg","postalCode":"03249","locality":"Sonnewalde","municipality":{"key":"12062469","name":"Sonnewalde, Stadt","type":"Stadt"},"district":{"key":"12062","name":"Elbe-Elster","type":"Landkreis"},"federalState":{"key":"12","name":"Brandenburg"}},{"name":"Herzberger Str.","postalCode":"03249","locality":"Sonnewalde","municipality":{"key":"12062469","name":"Sonnewalde, Stadt","type":"Stadt"},"district":{"key":"12062","name":"Elbe-Elster","type":"Landkreis"},"federalState":{"key":"12","name":"Brandenburg"}},{"name":"Hintergasse","postalCode":"03249","locality":"Sonnewalde","municipality":{"key":"12062469","name":"Sonnewalde, Stadt","type":"Stadt"},"district":{"key":"12062","name":"Elbe-Elster","type":"Landkreis"},"federalState":{"key":"12","name":"Brandenburg"}},{"name":"Hinterweg","postalCode":"03249","locality":"Sonnewalde","municipality":{"key":"12062469","name":"Sonnewalde, Stadt","type":"Stadt"},"district":{"key":"12062","name":"Elbe-Elster","type":"Landkreis"},"federalState":{"key":"12","name":"Brandenburg"}},{"name":"John-Deere-Str.","postalCode":"03249","locality":"Sonnewalde","municipality":{"key":"12062469","name":"Sonnewalde, Stadt","type":"Stadt"},"district":{"key":"12062","name":"Elbe-Elster","type":"Landkreis"},"federalState":{"key":"12","name":"Brandenburg"}},{"name":"Kirchhainer Chaussee","postalCode":"03249","locality":"Sonnewalde","municipality":{"key":"12062469","name":"Sonnewalde, Stadt","type":"Stadt"},"district":{"key":"12062","name":"Elbe-Elster","type":"Landkreis"},"federalState":{"key":"12","name":"Brandenburg"}},{"name":"Kirchhainer Str.","postalCode":"03249","locality":"Sonnewalde","municipality":{"key":"12062469","name":"Sonnewalde, Stadt","type":"Stadt"},"district":{"key":"12062","name":"Elbe-Elster","type":"Landkreis"},"federalState":{"key":"12","name":"Brandenburg"}},{"name":"Kirchhofstr.","postalCode":"03249","locality":"Sonnewalde","municipality":{"key":"12062469","name":"Sonnewalde, Stadt","type":"Stadt"},"district":{"key":"12062","name":"Elbe-Elster","type":"Landkreis"},"federalState":{"key":"12","name":"Brandenburg"}},{"name":"Kirschenallee","postalCode":"03249","locality":"Sonnewalde","municipality":{"key":"12062469","name":"Sonnewalde, Stadt","type":"Stadt"},"district":{"key":"12062","name":"Elbe-Elster","type":"Landkreis"},"federalState":{"key":"12","name":"Brandenburg"}},{"name":"Kleinbahren","postalCode":"03249","locality":"Sonnewalde","municipality":{"key":"12062469","name":"Sonnewalde, Stadt","type":"Stadt"},"district":{"key":"12062","name":"Elbe-Elster","type":"Landkreis"},"federalState":{"key":"12","name":"Brandenburg"}},{"name":"Kleine Feldstr.","postalCode":"03249","locality":"Sonnewalde","municipality":{"key":"12062469","name":"Sonnewalde, Stadt","type":"Stadt"},"district":{"key":"12062","name":"Elbe-Elster","type":"Landkreis"},"federalState":{"key":"12","name":"Brandenburg"}},{"name":"Kleinkrausnik","postalCode":"03249","locality":"Sonnewalde","municipality":{"key":"12062469","name":"Sonnewalde, Stadt","type":"Stadt"},"district":{"key":"12062","name":"Elbe-Elster","type":"Landkreis"},"federalState":{"key":"12","name":"Brandenburg"}},{"name":"Kleinkrausniker Str.","postalCode":"03249","locality":"Sonnewalde","municipality":{"key":"12062469","name":"Sonnewalde, Stadt","type":"Stadt"},"district":{"key":"12062","name":"Elbe-Elster","type":"Landkreis"},"federalState":{"key":"12","name":"Brandenburg"}},{"name":"Konrad-Ziegler-Str.","postalCode":"03249","locality":"Sonnewalde","municipality":{"key":"12062469","name":"Sonnewalde, Stadt","type":"Stadt"},"district":{"key":"12062","name":"Elbe-Elster","type":"Landkreis"},"federalState":{"key":"12","name":"Brandenburg"}},{"name":"Kurzes Ende","postalCode":"03249","locality":"Sonnewalde","municipality":{"key":"12062469","name":"Sonnewalde, Stadt","type":"Stadt"},"district":{"key":"12062","name":"Elbe-Elster","type":"Landkreis"},"federalState":{"key":"12","name":"Brandenburg"}},{"name":"Luckauer Str.","postalCode":"03249","locality":"Sonnewalde","municipality":{"key":"12062469","name":"Sonnewalde, Stadt","type":"Stadt"},"district":{"key":"12062","name":"Elbe-Elster","type":"Landkreis"},"federalState":{"key":"12","name":"Brandenburg"}},{"name":"Manfred-von-Ardenne-Str.","postalCode":"03249","locality":"Sonnewalde","municipality":{"key":"12062469","name":"Sonnewalde, Stadt","type":"Stadt"},"district":{"key":"12062","name":"Elbe-Elster","type":"Landkreis"},"federalState":{"key":"12","name":"Brandenburg"}},{"name":"Markt","postalCode":"03249","locality":"Sonnewalde","municipality":{"key":"12062469","name":"Sonnewalde, Stadt","type":"Stadt"},"district":{"key":"12062","name":"Elbe-Elster","type":"Landkreis"},"federalState":{"key":"12","name":"Brandenburg"}},{"name":"Mittelstr.","postalCode":"03249","locality":"Sonnewalde","municipality":{"key":"12062469","name":"Sonnewalde, Stadt","type":"Stadt"},"district":{"key":"12062","name":"Elbe-Elster","type":"Landkreis"},"federalState":{"key":"12","name":"Brandenburg"}},{"name":"Möllendorf","postalCode":"03249","locality":"Sonnewalde","municipality":{"key":"12062469","name":"Sonnewalde, Stadt","type":"Stadt"},"district":{"key":"12062","name":"Elbe-Elster","type":"Landkreis"},"federalState":{"key":"12","name":"Brandenburg"}},{"name":"Mühlenweg","postalCode":"03249","locality":"Sonnewalde","municipality":{"key":"12062469","name":"Sonnewalde, Stadt","type":"Stadt"},"district":{"key":"12062","name":"Elbe-Elster","type":"Landkreis"},"federalState":{"key":"12","name":"Brandenburg"}},{"name":"Otto-von-Guericke-Str.","postalCode":"03249","locality":"Sonnewalde","municipality":{"key":"12062469","name":"Sonnewalde, Stadt","type":"Stadt"},"district":{"key":"12062","name":"Elbe-Elster","type":"Landkreis"},"federalState":{"key":"12","name":"Brandenburg"}},{"name":"Pahlsdorf","postalCode":"03249","locality":"Sonnewalde","municipality":{"key":"12062469","name":"Sonnewalde, Stadt","type":"Stadt"},"district":{"key":"12062","name":"Elbe-Elster","type":"Landkreis"},"federalState":{"key":"12","name":"Brandenburg"}},{"name":"Pießig","postalCode":"03249","locality":"Sonnewalde","municipality":{"key":"12062469","name":"Sonnewalde, Stadt","type":"Stadt"},"district":{"key":"12062","name":"Elbe-Elster","type":"Landkreis"},"federalState":{"key":"12","name":"Brandenburg"}},{"name":"Planetenwanderweg","postalCode":"03249","locality":"Sonnewalde","municipality":{"key":"12062469","name":"Sonnewalde, Stadt","type":"Stadt"},"district":{"key":"12062","name":"Elbe-Elster","type":"Landkreis"},"federalState":{"key":"12","name":"Brandenburg"}},{"name":"Ringstr.","postalCode":"03249","locality":"Sonnewalde","municipality":{"key":"12062469","name":"Sonnewalde, Stadt","type":"Stadt"},"district":{"key":"12062","name":"Elbe-Elster","type":"Landkreis"},"federalState":{"key":"12","name":"Brandenburg"}},{"name":"Rosenstr.","postalCode":"03249","locality":"Sonnewalde","municipality":{"key":"12062469","name":"Sonnewalde, Stadt","type":"Stadt"},"district":{"key":"12062","name":"Elbe-Elster","type":"Landkreis"},"federalState":{"key":"12","name":"Brandenburg"}},{"name":"Sandweg","postalCode":"03249","locality":"Sonnewalde","municipality":{"key":"12062469","name":"Sonnewalde, Stadt","type":"Stadt"},"district":{"key":"12062","name":"Elbe-Elster","type":"Landkreis"},"federalState":{"key":"12","name":"Brandenburg"}},{"name":"Schloßstr.","postalCode":"03249","locality":"Sonnewalde","municipality":{"key":"12062469","name":"Sonnewalde, Stadt","type":"Stadt"},"district":{"key":"12062","name":"Elbe-Elster","type":"Landkreis"},"federalState":{"key":"12","name":"Brandenburg"}},{"name":"Schulstr.","postalCode":"03249","locality":"Sonnewalde","municipality":{"key":"12062469","name":"Sonnewalde, Stadt","type":"Stadt"},"district":{"key":"12062","name":"Elbe-Elster","type":"Landkreis"},"federalState":{"key":"12","name":"Brandenburg"}},{"name":"Sonnewalder Str.","postalCode":"03249","locality":"Sonnewalde","municipality":{"key":"12062469","name":"Sonnewalde, Stadt","type":"Stadt"},"district":{"key":"12062","name":"Elbe-Elster","type":"Landkreis"},"federalState":{"key":"12","name":"Brandenburg"}},{"name":"Wehnsdorfer Weg","postalCode":"03249","locality":"Sonnewalde","municipality":{"key":"12062469","name":"Sonnewalde, Stadt","type":"Stadt"},"district":{"key":"12062","name":"Elbe-Elster","type":"Landkreis"},"federalState":{"key":"12","name":"Brandenburg"}},{"name":"Werner-von-Siemens-Str.","postalCode":"03249","locality":"Sonnewalde","municipality":{"key":"12062469","name":"Sonnewalde, Stadt","type":"Stadt"},"district":{"key":"12062","name":"Elbe-Elster","type":"Landkreis"},"federalState":{"key":"12","name":"Brandenburg"}},{"name":"Zeckeriner Dorfstr.","postalCode":"03249","locality":"Sonnewalde","municipality":{"key":"12062469","name":"Sonnewalde, Stadt","type":"Stadt"},"district":{"key":"12062","name":"Elbe-Elster","type":"Landkreis"},"federalState":{"key":"12","name":"Brandenburg"}},{"name":"Zeckeriner Str.","postalCode":"03249","locality":"Sonnewalde","municipality":{"key":"12062469","name":"Sonnewalde, Stadt","type":"Stadt"},"district":{"key":"12062","name":"Elbe-Elster","type":"Landkreis"},"federalState":{"key":"12","name":"Brandenburg"}},{"name":"Zum Sportplatz","postalCode":"03249","locality":"Sonnewalde","municipality":{"key":"12062469","name":"Sonnewalde, Stadt","type":"Stadt"},"district":{"key":"12062","name":"Elbe-Elster","type":"Landkreis"},"federalState":{"key":"12","name":"Brandenburg"}},]