[{"key":"10252643","name":"Champ Bacon","postalCode":"1690","locality":"Villaz-St-Pierre","commune":{"key":"2117","name":"Villaz","shortName":"Villaz"},"district":{"key":"1002","name":"District de la Glâne"},"canton":{"key":"10","code":"FR","name":"Fribourg / Freiburg"},"status":"Real"},{"key":"10252648","name":"Chemin de Cocagne","postalCode":"1690","locality":"Villaz-St-Pierre","commune":{"key":"2117","name":"Villaz","shortName":"Villaz"},"district":{"key":"1002","name":"District de la Glâne"},"canton":{"key":"10","code":"FR","name":"Fribourg / Freiburg"},"status":"Real"},{"key":"10168397","name":"Chemin de la Gilla","postalCode":"1690","locality":"Villaz-St-Pierre","commune":{"key":"2117","name":"Villaz","shortName":"Villaz"},"district":{"key":"1002","name":"District de la Glâne"},"canton":{"key":"10","code":"FR","name":"Fribourg / Freiburg"},"status":"Real"},{"key":"10025232","name":"Chemin de la Rapetta","postalCode":"1690","locality":"Villaz-St-Pierre","commune":{"key":"2117","name":"Villaz","shortName":"Villaz"},"district":{"key":"1002","name":"District de la Glâne"},"canton":{"key":"10","code":"FR","name":"Fribourg / Freiburg"},"status":"Real"},{"key":"10164612","name":"Chemin des Craux","postalCode":"1690","locality":"Villaz-St-Pierre","commune":{"key":"2117","name":"Villaz","shortName":"Villaz"},"district":{"key":"1002","name":"District de la Glâne"},"canton":{"key":"10","code":"FR","name":"Fribourg / Freiburg"},"status":"Real"},{"key":"10168399","name":"Chemin des Roches","postalCode":"1690","locality":"Villaz-St-Pierre","commune":{"key":"2117","name":"Villaz","shortName":"Villaz"},"district":{"key":"1002","name":"District de la Glâne"},"canton":{"key":"10","code":"FR","name":"Fribourg / Freiburg"},"status":"Real"},{"key":"10168671","name":"Chemin du Blessonney","postalCode":"1690","locality":"Villaz-St-Pierre","commune":{"key":"2117","name":"Villaz","shortName":"Villaz"},"district":{"key":"1002","name":"District de la Glâne"},"canton":{"key":"10","code":"FR","name":"Fribourg / Freiburg"},"status":"Real"},{"key":"10120355","name":"En Baudia","postalCode":"1690","locality":"Villaz-St-Pierre","commune":{"key":"2117","name":"Villaz","shortName":"Villaz"},"district":{"key":"1002","name":"District de la Glâne"},"canton":{"key":"10","code":"FR","name":"Fribourg / Freiburg"},"status":"Real"},{"key":"10252662","name":"Forêt Communale","postalCode":"1690","locality":"Villaz-St-Pierre","commune":{"key":"2117","name":"Villaz","shortName":"Villaz"},"district":{"key":"1002","name":"District de la Glâne"},"canton":{"key":"10","code":"FR","name":"Fribourg / Freiburg"},"status":"Real"},{"key":"10089739","name":"Granges la Battia","postalCode":"1690","locality":"Villaz-St-Pierre","commune":{"key":"2117","name":"Villaz","shortName":"Villaz"},"district":{"key":"1002","name":"District de la Glâne"},"canton":{"key":"10","code":"FR","name":"Fribourg / Freiburg"},"status":"Real"},{"key":"10010883","name":"La Sauge","postalCode":"1690","locality":"Villaz-St-Pierre","commune":{"key":"2117","name":"Villaz","shortName":"Villaz"},"district":{"key":"1002","name":"District de la Glâne"},"canton":{"key":"10","code":"FR","name":"Fribourg / Freiburg"},"status":"Real"},{"key":"10010877","name":"Le Biolex","postalCode":"1690","locality":"Villaz-St-Pierre","commune":{"key":"2117","name":"Villaz","shortName":"Villaz"},"district":{"key":"1002","name":"District de la Glâne"},"canton":{"key":"10","code":"FR","name":"Fribourg / Freiburg"},"status":"Real"},{"key":"10010885","name":"Le Ferrage","postalCode":"1690","locality":"Villaz-St-Pierre","commune":{"key":"2117","name":"Villaz","shortName":"Villaz"},"district":{"key":"1002","name":"District de la Glâne"},"canton":{"key":"10","code":"FR","name":"Fribourg / Freiburg"},"status":"Real"},{"key":"10010886","name":"Le Petit-Clos","postalCode":"1690","locality":"Villaz-St-Pierre","commune":{"key":"2117","name":"Villaz","shortName":"Villaz"},"district":{"key":"1002","name":"District de la Glâne"},"canton":{"key":"10","code":"FR","name":"Fribourg / Freiburg"},"status":"Real"},{"key":"10210710","name":"Le Renailly","postalCode":"1690","locality":"Villaz-St-Pierre","commune":{"key":"2117","name":"Villaz","shortName":"Villaz"},"district":{"key":"1002","name":"District de la Glâne"},"canton":{"key":"10","code":"FR","name":"Fribourg / Freiburg"},"status":"Real"},{"key":"10252691","name":"L'Intre Muey","postalCode":"1690","locality":"Villaz-St-Pierre","commune":{"key":"2117","name":"Villaz","shortName":"Villaz"},"district":{"key":"1002","name":"District de la Glâne"},"canton":{"key":"10","code":"FR","name":"Fribourg / Freiburg"},"status":"Real"},{"key":"10252693","name":"Pré de la Grange","postalCode":"1690","locality":"Villaz-St-Pierre","commune":{"key":"2117","name":"Villaz","shortName":"Villaz"},"district":{"key":"1002","name":"District de la Glâne"},"canton":{"key":"10","code":"FR","name":"Fribourg / Freiburg"},"status":"Real"},{"key":"10017570","name":"Route de Fribourg","postalCode":"1690","locality":"Villaz-St-Pierre","commune":{"key":"2117","name":"Villaz","shortName":"Villaz"},"district":{"key":"1002","name":"District de la Glâne"},"canton":{"key":"10","code":"FR","name":"Fribourg / Freiburg"},"status":"Real"},{"key":"10168673","name":"Route de Fuyens","postalCode":"1690","locality":"Villaz-St-Pierre","commune":{"key":"2117","name":"Villaz","shortName":"Villaz"},"district":{"key":"1002","name":"District de la Glâne"},"canton":{"key":"10","code":"FR","name":"Fribourg / Freiburg"},"status":"Real"},{"key":"10104330","name":"Route de la Chaussia","postalCode":"1690","locality":"Villaz-St-Pierre","commune":{"key":"2117","name":"Villaz","shortName":"Villaz"},"district":{"key":"1002","name":"District de la Glâne"},"canton":{"key":"10","code":"FR","name":"Fribourg / Freiburg"},"status":"Real"},{"key":"10168682","name":"Route de la Fin","postalCode":"1690","locality":"Villaz-St-Pierre","commune":{"key":"2117","name":"Villaz","shortName":"Villaz"},"district":{"key":"1002","name":"District de la Glâne"},"canton":{"key":"10","code":"FR","name":"Fribourg / Freiburg"},"status":"Real"},{"key":"10017571","name":"Route de la Forêt","postalCode":"1690","locality":"Villaz-St-Pierre","commune":{"key":"2117","name":"Villaz","shortName":"Villaz"},"district":{"key":"1002","name":"District de la Glâne"},"canton":{"key":"10","code":"FR","name":"Fribourg / Freiburg"},"status":"Real"},{"key":"10017572","name":"Route de la Gare","postalCode":"1690","locality":"Villaz-St-Pierre","commune":{"key":"2117","name":"Villaz","shortName":"Villaz"},"district":{"key":"1002","name":"District de la Glâne"},"canton":{"key":"10","code":"FR","name":"Fribourg / Freiburg"},"status":"Real"},{"key":"10173611","name":"Route de l'Eglise","postalCode":"1690","locality":"Villaz-St-Pierre","commune":{"key":"2117","name":"Villaz","shortName":"Villaz"},"district":{"key":"1002","name":"District de la Glâne"},"canton":{"key":"10","code":"FR","name":"Fribourg / Freiburg"},"status":"Real"},{"key":"10181038","name":"Route de Lussy","postalCode":"1690","locality":"Villaz-St-Pierre","commune":{"key":"2117","name":"Villaz","shortName":"Villaz"},"district":{"key":"1002","name":"District de la Glâne"},"canton":{"key":"10","code":"FR","name":"Fribourg / Freiburg"},"status":"Real"},{"key":"10173612","name":"Route de Massonnens","postalCode":"1690","locality":"Villaz-St-Pierre","commune":{"key":"2117","name":"Villaz","shortName":"Villaz"},"district":{"key":"1002","name":"District de la Glâne"},"canton":{"key":"10","code":"FR","name":"Fribourg / Freiburg"},"status":"Real"},{"key":"10174104","name":"Route de Romont","postalCode":"1690","locality":"Villaz-St-Pierre","commune":{"key":"2117","name":"Villaz","shortName":"Villaz"},"district":{"key":"1002","name":"District de la Glâne"},"canton":{"key":"10","code":"FR","name":"Fribourg / Freiburg"},"status":"Real"},{"key":"10148538","name":"Route des Granges","postalCode":"1690","locality":"Villaz-St-Pierre","commune":{"key":"2117","name":"Villaz","shortName":"Villaz"},"district":{"key":"1002","name":"District de la Glâne"},"canton":{"key":"10","code":"FR","name":"Fribourg / Freiburg"},"status":"Real"},{"key":"10252697","name":"Route des Granges","postalCode":"1690","locality":"Villaz-St-Pierre","commune":{"key":"2117","name":"Villaz","shortName":"Villaz"},"district":{"key":"1002","name":"District de la Glâne"},"canton":{"key":"10","code":"FR","name":"Fribourg / Freiburg"},"status":"Real"},{"key":"10088206","name":"Route de Villarimboud","postalCode":"1690","locality":"Villaz-St-Pierre","commune":{"key":"2117","name":"Villaz","shortName":"Villaz"},"district":{"key":"1002","name":"District de la Glâne"},"canton":{"key":"10","code":"FR","name":"Fribourg / Freiburg"},"status":"Real"},{"key":"10164381","name":"Route du Vieux-Chêne","postalCode":"1690","locality":"Villaz-St-Pierre","commune":{"key":"2117","name":"Villaz","shortName":"Villaz"},"district":{"key":"1002","name":"District de la Glâne"},"canton":{"key":"10","code":"FR","name":"Fribourg / Freiburg"},"status":"Real"},{"key":"10164670","name":"Zone Industrielle du Vivier","postalCode":"1690","locality":"Villaz-St-Pierre","commune":{"key":"2117","name":"Villaz","shortName":"Villaz"},"district":{"key":"1002","name":"District de la Glâne"},"canton":{"key":"10","code":"FR","name":"Fribourg / Freiburg"},"status":"Real"},]