[{"name":"Alte Bargener Str.","postalCode":"74928","locality":"Hüffenhardt","municipality":{"key":"08225042","name":"Hüffenhardt","type":"Kreisangehörige_Gemeinde"},"district":{"key":"08225","name":"Neckar-Odenwald-Kreis","type":"Landkreis"},"federalState":{"key":"08","name":"Baden-Württemberg"}},{"name":"Alter Saatschulweg","postalCode":"74928","locality":"Hüffenhardt","municipality":{"key":"08225042","name":"Hüffenhardt","type":"Kreisangehörige_Gemeinde"},"district":{"key":"08225","name":"Neckar-Odenwald-Kreis","type":"Landkreis"},"federalState":{"key":"08","name":"Baden-Württemberg"}},{"name":"Am Berg","postalCode":"74928","locality":"Hüffenhardt","municipality":{"key":"08225042","name":"Hüffenhardt","type":"Kreisangehörige_Gemeinde"},"district":{"key":"08225","name":"Neckar-Odenwald-Kreis","type":"Landkreis"},"federalState":{"key":"08","name":"Baden-Württemberg"}},{"name":"Am Gänsgarten","postalCode":"74928","locality":"Hüffenhardt","municipality":{"key":"08225042","name":"Hüffenhardt","type":"Kreisangehörige_Gemeinde"},"district":{"key":"08225","name":"Neckar-Odenwald-Kreis","type":"Landkreis"},"federalState":{"key":"08","name":"Baden-Württemberg"}},{"name":"Am Kirschenrain","postalCode":"74928","locality":"Hüffenhardt","municipality":{"key":"08225042","name":"Hüffenhardt","type":"Kreisangehörige_Gemeinde"},"district":{"key":"08225","name":"Neckar-Odenwald-Kreis","type":"Landkreis"},"federalState":{"key":"08","name":"Baden-Württemberg"}},{"name":"Am Schieferberg","postalCode":"74928","locality":"Hüffenhardt","municipality":{"key":"08225042","name":"Hüffenhardt","type":"Kreisangehörige_Gemeinde"},"district":{"key":"08225","name":"Neckar-Odenwald-Kreis","type":"Landkreis"},"federalState":{"key":"08","name":"Baden-Württemberg"}},{"name":"August-Hermann-Francke-Str.","postalCode":"74928","locality":"Hüffenhardt","municipality":{"key":"08225042","name":"Hüffenhardt","type":"Kreisangehörige_Gemeinde"},"district":{"key":"08225","name":"Neckar-Odenwald-Kreis","type":"Landkreis"},"federalState":{"key":"08","name":"Baden-Württemberg"}},{"name":"Bahnhofstr.","postalCode":"74928","locality":"Hüffenhardt","municipality":{"key":"08225042","name":"Hüffenhardt","type":"Kreisangehörige_Gemeinde"},"district":{"key":"08225","name":"Neckar-Odenwald-Kreis","type":"Landkreis"},"federalState":{"key":"08","name":"Baden-Württemberg"}},{"name":"Bangert","postalCode":"74928","locality":"Hüffenhardt","municipality":{"key":"08225042","name":"Hüffenhardt","type":"Kreisangehörige_Gemeinde"},"district":{"key":"08225","name":"Neckar-Odenwald-Kreis","type":"Landkreis"},"federalState":{"key":"08","name":"Baden-Württemberg"}},{"name":"Barnholz","postalCode":"74928","locality":"Hüffenhardt","municipality":{"key":"08225042","name":"Hüffenhardt","type":"Kreisangehörige_Gemeinde"},"district":{"key":"08225","name":"Neckar-Odenwald-Kreis","type":"Landkreis"},"federalState":{"key":"08","name":"Baden-Württemberg"}},{"name":"Bergstr.","postalCode":"74928","locality":"Hüffenhardt","municipality":{"key":"08225042","name":"Hüffenhardt","type":"Kreisangehörige_Gemeinde"},"district":{"key":"08225","name":"Neckar-Odenwald-Kreis","type":"Landkreis"},"federalState":{"key":"08","name":"Baden-Württemberg"}},{"name":"Beudweg","postalCode":"74928","locality":"Hüffenhardt","municipality":{"key":"08225042","name":"Hüffenhardt","type":"Kreisangehörige_Gemeinde"},"district":{"key":"08225","name":"Neckar-Odenwald-Kreis","type":"Landkreis"},"federalState":{"key":"08","name":"Baden-Württemberg"}},{"name":"Binsenweg","postalCode":"74928","locality":"Hüffenhardt","municipality":{"key":"08225042","name":"Hüffenhardt","type":"Kreisangehörige_Gemeinde"},"district":{"key":"08225","name":"Neckar-Odenwald-Kreis","type":"Landkreis"},"federalState":{"key":"08","name":"Baden-Württemberg"}},{"name":"Blindenrainweg","postalCode":"74928","locality":"Hüffenhardt","municipality":{"key":"08225042","name":"Hüffenhardt","type":"Kreisangehörige_Gemeinde"},"district":{"key":"08225","name":"Neckar-Odenwald-Kreis","type":"Landkreis"},"federalState":{"key":"08","name":"Baden-Württemberg"}},{"name":"Bohnengasse","postalCode":"74928","locality":"Hüffenhardt","municipality":{"key":"08225042","name":"Hüffenhardt","type":"Kreisangehörige_Gemeinde"},"district":{"key":"08225","name":"Neckar-Odenwald-Kreis","type":"Landkreis"},"federalState":{"key":"08","name":"Baden-Württemberg"}},{"name":"Bollwerk","postalCode":"74928","locality":"Hüffenhardt","municipality":{"key":"08225042","name":"Hüffenhardt","type":"Kreisangehörige_Gemeinde"},"district":{"key":"08225","name":"Neckar-Odenwald-Kreis","type":"Landkreis"},"federalState":{"key":"08","name":"Baden-Württemberg"}},{"name":"Bombenlochweg","postalCode":"74928","locality":"Hüffenhardt","municipality":{"key":"08225042","name":"Hüffenhardt","type":"Kreisangehörige_Gemeinde"},"district":{"key":"08225","name":"Neckar-Odenwald-Kreis","type":"Landkreis"},"federalState":{"key":"08","name":"Baden-Württemberg"}},{"name":"Brühlgasse","postalCode":"74928","locality":"Hüffenhardt","municipality":{"key":"08225042","name":"Hüffenhardt","type":"Kreisangehörige_Gemeinde"},"district":{"key":"08225","name":"Neckar-Odenwald-Kreis","type":"Landkreis"},"federalState":{"key":"08","name":"Baden-Württemberg"}},{"name":"Brunnenmichelsweg","postalCode":"74928","locality":"Hüffenhardt","municipality":{"key":"08225042","name":"Hüffenhardt","type":"Kreisangehörige_Gemeinde"},"district":{"key":"08225","name":"Neckar-Odenwald-Kreis","type":"Landkreis"},"federalState":{"key":"08","name":"Baden-Württemberg"}},{"name":"Carl-Maria-von-Weber-Str.","postalCode":"74928","locality":"Hüffenhardt","municipality":{"key":"08225042","name":"Hüffenhardt","type":"Kreisangehörige_Gemeinde"},"district":{"key":"08225","name":"Neckar-Odenwald-Kreis","type":"Landkreis"},"federalState":{"key":"08","name":"Baden-Württemberg"}},{"name":"Clara-Schumann-Str.","postalCode":"74928","locality":"Hüffenhardt","municipality":{"key":"08225042","name":"Hüffenhardt","type":"Kreisangehörige_Gemeinde"},"district":{"key":"08225","name":"Neckar-Odenwald-Kreis","type":"Landkreis"},"federalState":{"key":"08","name":"Baden-Württemberg"}},{"name":"Dienernweg","postalCode":"74928","locality":"Hüffenhardt","municipality":{"key":"08225042","name":"Hüffenhardt","type":"Kreisangehörige_Gemeinde"},"district":{"key":"08225","name":"Neckar-Odenwald-Kreis","type":"Landkreis"},"federalState":{"key":"08","name":"Baden-Württemberg"}},{"name":"Edgar-John-Str.","postalCode":"74928","locality":"Hüffenhardt","municipality":{"key":"08225042","name":"Hüffenhardt","type":"Kreisangehörige_Gemeinde"},"district":{"key":"08225","name":"Neckar-Odenwald-Kreis","type":"Landkreis"},"federalState":{"key":"08","name":"Baden-Württemberg"}},{"name":"Eichendorffstr.","postalCode":"74928","locality":"Hüffenhardt","municipality":{"key":"08225042","name":"Hüffenhardt","type":"Kreisangehörige_Gemeinde"},"district":{"key":"08225","name":"Neckar-Odenwald-Kreis","type":"Landkreis"},"federalState":{"key":"08","name":"Baden-Württemberg"}},{"name":"Fichtenweg","postalCode":"74928","locality":"Hüffenhardt","municipality":{"key":"08225042","name":"Hüffenhardt","type":"Kreisangehörige_Gemeinde"},"district":{"key":"08225","name":"Neckar-Odenwald-Kreis","type":"Landkreis"},"federalState":{"key":"08","name":"Baden-Württemberg"}},{"name":"Forlenweg","postalCode":"74928","locality":"Hüffenhardt","municipality":{"key":"08225042","name":"Hüffenhardt","type":"Kreisangehörige_Gemeinde"},"district":{"key":"08225","name":"Neckar-Odenwald-Kreis","type":"Landkreis"},"federalState":{"key":"08","name":"Baden-Württemberg"}},{"name":"Friedhofstr.","postalCode":"74928","locality":"Hüffenhardt","municipality":{"key":"08225042","name":"Hüffenhardt","type":"Kreisangehörige_Gemeinde"},"district":{"key":"08225","name":"Neckar-Odenwald-Kreis","type":"Landkreis"},"federalState":{"key":"08","name":"Baden-Württemberg"}},{"name":"Gartenstr.","postalCode":"74928","locality":"Hüffenhardt","municipality":{"key":"08225042","name":"Hüffenhardt","type":"Kreisangehörige_Gemeinde"},"district":{"key":"08225","name":"Neckar-Odenwald-Kreis","type":"Landkreis"},"federalState":{"key":"08","name":"Baden-Württemberg"}},{"name":"Gäßle","postalCode":"74928","locality":"Hüffenhardt","municipality":{"key":"08225042","name":"Hüffenhardt","type":"Kreisangehörige_Gemeinde"},"district":{"key":"08225","name":"Neckar-Odenwald-Kreis","type":"Landkreis"},"federalState":{"key":"08","name":"Baden-Württemberg"}},{"name":"Geiger","postalCode":"74928","locality":"Hüffenhardt","municipality":{"key":"08225042","name":"Hüffenhardt","type":"Kreisangehörige_Gemeinde"},"district":{"key":"08225","name":"Neckar-Odenwald-Kreis","type":"Landkreis"},"federalState":{"key":"08","name":"Baden-Württemberg"}},{"name":"Goethestr.","postalCode":"74928","locality":"Hüffenhardt","municipality":{"key":"08225042","name":"Hüffenhardt","type":"Kreisangehörige_Gemeinde"},"district":{"key":"08225","name":"Neckar-Odenwald-Kreis","type":"Landkreis"},"federalState":{"key":"08","name":"Baden-Württemberg"}},{"name":"Haasacker","postalCode":"74928","locality":"Hüffenhardt","municipality":{"key":"08225042","name":"Hüffenhardt","type":"Kreisangehörige_Gemeinde"},"district":{"key":"08225","name":"Neckar-Odenwald-Kreis","type":"Landkreis"},"federalState":{"key":"08","name":"Baden-Württemberg"}},{"name":"Hälde","postalCode":"74928","locality":"Hüffenhardt","municipality":{"key":"08225042","name":"Hüffenhardt","type":"Kreisangehörige_Gemeinde"},"district":{"key":"08225","name":"Neckar-Odenwald-Kreis","type":"Landkreis"},"federalState":{"key":"08","name":"Baden-Württemberg"}},{"name":"Häldenweg","postalCode":"74928","locality":"Hüffenhardt","municipality":{"key":"08225042","name":"Hüffenhardt","type":"Kreisangehörige_Gemeinde"},"district":{"key":"08225","name":"Neckar-Odenwald-Kreis","type":"Landkreis"},"federalState":{"key":"08","name":"Baden-Württemberg"}},{"name":"Häldeweg","postalCode":"74928","locality":"Hüffenhardt","municipality":{"key":"08225042","name":"Hüffenhardt","type":"Kreisangehörige_Gemeinde"},"district":{"key":"08225","name":"Neckar-Odenwald-Kreis","type":"Landkreis"},"federalState":{"key":"08","name":"Baden-Württemberg"}},{"name":"Hauptstr.","postalCode":"74928","locality":"Hüffenhardt","municipality":{"key":"08225042","name":"Hüffenhardt","type":"Kreisangehörige_Gemeinde"},"district":{"key":"08225","name":"Neckar-Odenwald-Kreis","type":"Landkreis"},"federalState":{"key":"08","name":"Baden-Württemberg"}},{"name":"Hebelstr.","postalCode":"74928","locality":"Hüffenhardt","municipality":{"key":"08225042","name":"Hüffenhardt","type":"Kreisangehörige_Gemeinde"},"district":{"key":"08225","name":"Neckar-Odenwald-Kreis","type":"Landkreis"},"federalState":{"key":"08","name":"Baden-Württemberg"}},{"name":"Heftstedenweg","postalCode":"74928","locality":"Hüffenhardt","municipality":{"key":"08225042","name":"Hüffenhardt","type":"Kreisangehörige_Gemeinde"},"district":{"key":"08225","name":"Neckar-Odenwald-Kreis","type":"Landkreis"},"federalState":{"key":"08","name":"Baden-Württemberg"}},{"name":"Herderstr.","postalCode":"74928","locality":"Hüffenhardt","municipality":{"key":"08225042","name":"Hüffenhardt","type":"Kreisangehörige_Gemeinde"},"district":{"key":"08225","name":"Neckar-Odenwald-Kreis","type":"Landkreis"},"federalState":{"key":"08","name":"Baden-Württemberg"}},{"name":"Hohstattstr.","postalCode":"74928","locality":"Hüffenhardt","municipality":{"key":"08225042","name":"Hüffenhardt","type":"Kreisangehörige_Gemeinde"},"district":{"key":"08225","name":"Neckar-Odenwald-Kreis","type":"Landkreis"},"federalState":{"key":"08","name":"Baden-Württemberg"}},{"name":"Hölderlinstr.","postalCode":"74928","locality":"Hüffenhardt","municipality":{"key":"08225042","name":"Hüffenhardt","type":"Kreisangehörige_Gemeinde"},"district":{"key":"08225","name":"Neckar-Odenwald-Kreis","type":"Landkreis"},"federalState":{"key":"08","name":"Baden-Württemberg"}},{"name":"Hüffenhardter Weg","postalCode":"74928","locality":"Hüffenhardt","municipality":{"key":"08225042","name":"Hüffenhardt","type":"Kreisangehörige_Gemeinde"},"district":{"key":"08225","name":"Neckar-Odenwald-Kreis","type":"Landkreis"},"federalState":{"key":"08","name":"Baden-Württemberg"}},{"name":"In den Weinbergen","postalCode":"74928","locality":"Hüffenhardt","municipality":{"key":"08225042","name":"Hüffenhardt","type":"Kreisangehörige_Gemeinde"},"district":{"key":"08225","name":"Neckar-Odenwald-Kreis","type":"Landkreis"},"federalState":{"key":"08","name":"Baden-Württemberg"}},{"name":"Industriestr.","postalCode":"74928","locality":"Hüffenhardt","municipality":{"key":"08225042","name":"Hüffenhardt","type":"Kreisangehörige_Gemeinde"},"district":{"key":"08225","name":"Neckar-Odenwald-Kreis","type":"Landkreis"},"federalState":{"key":"08","name":"Baden-Württemberg"}},{"name":"Jägersgarten","postalCode":"74928","locality":"Hüffenhardt","municipality":{"key":"08225042","name":"Hüffenhardt","type":"Kreisangehörige_Gemeinde"},"district":{"key":"08225","name":"Neckar-Odenwald-Kreis","type":"Landkreis"},"federalState":{"key":"08","name":"Baden-Württemberg"}},{"name":"Jakob-Bleyer-Str.","postalCode":"74928","locality":"Hüffenhardt","municipality":{"key":"08225042","name":"Hüffenhardt","type":"Kreisangehörige_Gemeinde"},"district":{"key":"08225","name":"Neckar-Odenwald-Kreis","type":"Landkreis"},"federalState":{"key":"08","name":"Baden-Württemberg"}},{"name":"Kälbertshäuser Str.","postalCode":"74928","locality":"Hüffenhardt","municipality":{"key":"08225042","name":"Hüffenhardt","type":"Kreisangehörige_Gemeinde"},"district":{"key":"08225","name":"Neckar-Odenwald-Kreis","type":"Landkreis"},"federalState":{"key":"08","name":"Baden-Württemberg"}},{"name":"Kantstr.","postalCode":"74928","locality":"Hüffenhardt","municipality":{"key":"08225042","name":"Hüffenhardt","type":"Kreisangehörige_Gemeinde"},"district":{"key":"08225","name":"Neckar-Odenwald-Kreis","type":"Landkreis"},"federalState":{"key":"08","name":"Baden-Württemberg"}},{"name":"Karl-Schramm-Str.","postalCode":"74928","locality":"Hüffenhardt","municipality":{"key":"08225042","name":"Hüffenhardt","type":"Kreisangehörige_Gemeinde"},"district":{"key":"08225","name":"Neckar-Odenwald-Kreis","type":"Landkreis"},"federalState":{"key":"08","name":"Baden-Württemberg"}},{"name":"Käthe-Kollwitz-Str.","postalCode":"74928","locality":"Hüffenhardt","municipality":{"key":"08225042","name":"Hüffenhardt","type":"Kreisangehörige_Gemeinde"},"district":{"key":"08225","name":"Neckar-Odenwald-Kreis","type":"Landkreis"},"federalState":{"key":"08","name":"Baden-Württemberg"}},{"name":"Keltergasse","postalCode":"74928","locality":"Hüffenhardt","municipality":{"key":"08225042","name":"Hüffenhardt","type":"Kreisangehörige_Gemeinde"},"district":{"key":"08225","name":"Neckar-Odenwald-Kreis","type":"Landkreis"},"federalState":{"key":"08","name":"Baden-Württemberg"}},{"name":"Kirchgasse","postalCode":"74928","locality":"Hüffenhardt","municipality":{"key":"08225042","name":"Hüffenhardt","type":"Kreisangehörige_Gemeinde"},"district":{"key":"08225","name":"Neckar-Odenwald-Kreis","type":"Landkreis"},"federalState":{"key":"08","name":"Baden-Württemberg"}},{"name":"Koblenzer Weg","postalCode":"74928","locality":"Hüffenhardt","municipality":{"key":"08225042","name":"Hüffenhardt","type":"Kreisangehörige_Gemeinde"},"district":{"key":"08225","name":"Neckar-Odenwald-Kreis","type":"Landkreis"},"federalState":{"key":"08","name":"Baden-Württemberg"}},{"name":"Körnerstr.","postalCode":"74928","locality":"Hüffenhardt","municipality":{"key":"08225042","name":"Hüffenhardt","type":"Kreisangehörige_Gemeinde"},"district":{"key":"08225","name":"Neckar-Odenwald-Kreis","type":"Landkreis"},"federalState":{"key":"08","name":"Baden-Württemberg"}},{"name":"Krumme Birkenweg","postalCode":"74928","locality":"Hüffenhardt","municipality":{"key":"08225042","name":"Hüffenhardt","type":"Kreisangehörige_Gemeinde"},"district":{"key":"08225","name":"Neckar-Odenwald-Kreis","type":"Landkreis"},"federalState":{"key":"08","name":"Baden-Württemberg"}},{"name":"Lederbuchelweg","postalCode":"74928","locality":"Hüffenhardt","municipality":{"key":"08225042","name":"Hüffenhardt","type":"Kreisangehörige_Gemeinde"},"district":{"key":"08225","name":"Neckar-Odenwald-Kreis","type":"Landkreis"},"federalState":{"key":"08","name":"Baden-Württemberg"}},{"name":"Lessingstr.","postalCode":"74928","locality":"Hüffenhardt","municipality":{"key":"08225042","name":"Hüffenhardt","type":"Kreisangehörige_Gemeinde"},"district":{"key":"08225","name":"Neckar-Odenwald-Kreis","type":"Landkreis"},"federalState":{"key":"08","name":"Baden-Württemberg"}},{"name":"Lindenstr.","postalCode":"74928","locality":"Hüffenhardt","municipality":{"key":"08225042","name":"Hüffenhardt","type":"Kreisangehörige_Gemeinde"},"district":{"key":"08225","name":"Neckar-Odenwald-Kreis","type":"Landkreis"},"federalState":{"key":"08","name":"Baden-Württemberg"}},{"name":"Markstal","postalCode":"74928","locality":"Hüffenhardt","municipality":{"key":"08225042","name":"Hüffenhardt","type":"Kreisangehörige_Gemeinde"},"district":{"key":"08225","name":"Neckar-Odenwald-Kreis","type":"Landkreis"},"federalState":{"key":"08","name":"Baden-Württemberg"}},{"name":"Max-Liebermann-Str.","postalCode":"74928","locality":"Hüffenhardt","municipality":{"key":"08225042","name":"Hüffenhardt","type":"Kreisangehörige_Gemeinde"},"district":{"key":"08225","name":"Neckar-Odenwald-Kreis","type":"Landkreis"},"federalState":{"key":"08","name":"Baden-Württemberg"}},{"name":"Mittlerer Klingenweg","postalCode":"74928","locality":"Hüffenhardt","municipality":{"key":"08225042","name":"Hüffenhardt","type":"Kreisangehörige_Gemeinde"},"district":{"key":"08225","name":"Neckar-Odenwald-Kreis","type":"Landkreis"},"federalState":{"key":"08","name":"Baden-Württemberg"}},{"name":"Mörikestr.","postalCode":"74928","locality":"Hüffenhardt","municipality":{"key":"08225042","name":"Hüffenhardt","type":"Kreisangehörige_Gemeinde"},"district":{"key":"08225","name":"Neckar-Odenwald-Kreis","type":"Landkreis"},"federalState":{"key":"08","name":"Baden-Württemberg"}},{"name":"Mühlbacher Str.","postalCode":"74928","locality":"Hüffenhardt","municipality":{"key":"08225042","name":"Hüffenhardt","type":"Kreisangehörige_Gemeinde"},"district":{"key":"08225","name":"Neckar-Odenwald-Kreis","type":"Landkreis"},"federalState":{"key":"08","name":"Baden-Württemberg"}},{"name":"Mühlweg","postalCode":"74928","locality":"Hüffenhardt","municipality":{"key":"08225042","name":"Hüffenhardt","type":"Kreisangehörige_Gemeinde"},"district":{"key":"08225","name":"Neckar-Odenwald-Kreis","type":"Landkreis"},"federalState":{"key":"08","name":"Baden-Württemberg"}},{"name":"Pfaffenbusch","postalCode":"74928","locality":"Hüffenhardt","municipality":{"key":"08225042","name":"Hüffenhardt","type":"Kreisangehörige_Gemeinde"},"district":{"key":"08225","name":"Neckar-Odenwald-Kreis","type":"Landkreis"},"federalState":{"key":"08","name":"Baden-Württemberg"}},{"name":"Pfaffenbuschweg","postalCode":"74928","locality":"Hüffenhardt","municipality":{"key":"08225042","name":"Hüffenhardt","type":"Kreisangehörige_Gemeinde"},"district":{"key":"08225","name":"Neckar-Odenwald-Kreis","type":"Landkreis"},"federalState":{"key":"08","name":"Baden-Württemberg"}},{"name":"Pfaffenloch","postalCode":"74928","locality":"Hüffenhardt","municipality":{"key":"08225042","name":"Hüffenhardt","type":"Kreisangehörige_Gemeinde"},"district":{"key":"08225","name":"Neckar-Odenwald-Kreis","type":"Landkreis"},"federalState":{"key":"08","name":"Baden-Württemberg"}},{"name":"Reisengasse","postalCode":"74928","locality":"Hüffenhardt","municipality":{"key":"08225042","name":"Hüffenhardt","type":"Kreisangehörige_Gemeinde"},"district":{"key":"08225","name":"Neckar-Odenwald-Kreis","type":"Landkreis"},"federalState":{"key":"08","name":"Baden-Württemberg"}},{"name":"Ringstr.","postalCode":"74928","locality":"Hüffenhardt","municipality":{"key":"08225042","name":"Hüffenhardt","type":"Kreisangehörige_Gemeinde"},"district":{"key":"08225","name":"Neckar-Odenwald-Kreis","type":"Landkreis"},"federalState":{"key":"08","name":"Baden-Württemberg"}},{"name":"Rodholz","postalCode":"74928","locality":"Hüffenhardt","municipality":{"key":"08225042","name":"Hüffenhardt","type":"Kreisangehörige_Gemeinde"},"district":{"key":"08225","name":"Neckar-Odenwald-Kreis","type":"Landkreis"},"federalState":{"key":"08","name":"Baden-Württemberg"}},{"name":"Rodholzweg","postalCode":"74928","locality":"Hüffenhardt","municipality":{"key":"08225042","name":"Hüffenhardt","type":"Kreisangehörige_Gemeinde"},"district":{"key":"08225","name":"Neckar-Odenwald-Kreis","type":"Landkreis"},"federalState":{"key":"08","name":"Baden-Württemberg"}},{"name":"Sackgasse","postalCode":"74928","locality":"Hüffenhardt","municipality":{"key":"08225042","name":"Hüffenhardt","type":"Kreisangehörige_Gemeinde"},"district":{"key":"08225","name":"Neckar-Odenwald-Kreis","type":"Landkreis"},"federalState":{"key":"08","name":"Baden-Württemberg"}},{"name":"Saustallweg","postalCode":"74928","locality":"Hüffenhardt","municipality":{"key":"08225042","name":"Hüffenhardt","type":"Kreisangehörige_Gemeinde"},"district":{"key":"08225","name":"Neckar-Odenwald-Kreis","type":"Landkreis"},"federalState":{"key":"08","name":"Baden-Württemberg"}},{"name":"Schafgasse","postalCode":"74928","locality":"Hüffenhardt","municipality":{"key":"08225042","name":"Hüffenhardt","type":"Kreisangehörige_Gemeinde"},"district":{"key":"08225","name":"Neckar-Odenwald-Kreis","type":"Landkreis"},"federalState":{"key":"08","name":"Baden-Württemberg"}},{"name":"Scheckiglochweg","postalCode":"74928","locality":"Hüffenhardt","municipality":{"key":"08225042","name":"Hüffenhardt","type":"Kreisangehörige_Gemeinde"},"district":{"key":"08225","name":"Neckar-Odenwald-Kreis","type":"Landkreis"},"federalState":{"key":"08","name":"Baden-Württemberg"}},{"name":"Scheffelstr.","postalCode":"74928","locality":"Hüffenhardt","municipality":{"key":"08225042","name":"Hüffenhardt","type":"Kreisangehörige_Gemeinde"},"district":{"key":"08225","name":"Neckar-Odenwald-Kreis","type":"Landkreis"},"federalState":{"key":"08","name":"Baden-Württemberg"}},{"name":"Schickengasse","postalCode":"74928","locality":"Hüffenhardt","municipality":{"key":"08225042","name":"Hüffenhardt","type":"Kreisangehörige_Gemeinde"},"district":{"key":"08225","name":"Neckar-Odenwald-Kreis","type":"Landkreis"},"federalState":{"key":"08","name":"Baden-Württemberg"}},{"name":"Schillerstr.","postalCode":"74928","locality":"Hüffenhardt","municipality":{"key":"08225042","name":"Hüffenhardt","type":"Kreisangehörige_Gemeinde"},"district":{"key":"08225","name":"Neckar-Odenwald-Kreis","type":"Landkreis"},"federalState":{"key":"08","name":"Baden-Württemberg"}},{"name":"Schlagerweg","postalCode":"74928","locality":"Hüffenhardt","municipality":{"key":"08225042","name":"Hüffenhardt","type":"Kreisangehörige_Gemeinde"},"district":{"key":"08225","name":"Neckar-Odenwald-Kreis","type":"Landkreis"},"federalState":{"key":"08","name":"Baden-Württemberg"}},{"name":"Schloßgasse","postalCode":"74928","locality":"Hüffenhardt","municipality":{"key":"08225042","name":"Hüffenhardt","type":"Kreisangehörige_Gemeinde"},"district":{"key":"08225","name":"Neckar-Odenwald-Kreis","type":"Landkreis"},"federalState":{"key":"08","name":"Baden-Württemberg"}},{"name":"Schulstr.","postalCode":"74928","locality":"Hüffenhardt","municipality":{"key":"08225042","name":"Hüffenhardt","type":"Kreisangehörige_Gemeinde"},"district":{"key":"08225","name":"Neckar-Odenwald-Kreis","type":"Landkreis"},"federalState":{"key":"08","name":"Baden-Württemberg"}},{"name":"Seilergasse","postalCode":"74928","locality":"Hüffenhardt","municipality":{"key":"08225042","name":"Hüffenhardt","type":"Kreisangehörige_Gemeinde"},"district":{"key":"08225","name":"Neckar-Odenwald-Kreis","type":"Landkreis"},"federalState":{"key":"08","name":"Baden-Württemberg"}},{"name":"Seitenrainweg","postalCode":"74928","locality":"Hüffenhardt","municipality":{"key":"08225042","name":"Hüffenhardt","type":"Kreisangehörige_Gemeinde"},"district":{"key":"08225","name":"Neckar-Odenwald-Kreis","type":"Landkreis"},"federalState":{"key":"08","name":"Baden-Württemberg"}},{"name":"Semmelweisstr.","postalCode":"74928","locality":"Hüffenhardt","municipality":{"key":"08225042","name":"Hüffenhardt","type":"Kreisangehörige_Gemeinde"},"district":{"key":"08225","name":"Neckar-Odenwald-Kreis","type":"Landkreis"},"federalState":{"key":"08","name":"Baden-Württemberg"}},{"name":"Sommerseitenweg","postalCode":"74928","locality":"Hüffenhardt","municipality":{"key":"08225042","name":"Hüffenhardt","type":"Kreisangehörige_Gemeinde"},"district":{"key":"08225","name":"Neckar-Odenwald-Kreis","type":"Landkreis"},"federalState":{"key":"08","name":"Baden-Württemberg"}},{"name":"Staugasse","postalCode":"74928","locality":"Hüffenhardt","municipality":{"key":"08225042","name":"Hüffenhardt","type":"Kreisangehörige_Gemeinde"},"district":{"key":"08225","name":"Neckar-Odenwald-Kreis","type":"Landkreis"},"federalState":{"key":"08","name":"Baden-Württemberg"}},{"name":"Steinbruchweg - Erddeponie","postalCode":"74928","locality":"Hüffenhardt","municipality":{"key":"08225042","name":"Hüffenhardt","type":"Kreisangehörige_Gemeinde"},"district":{"key":"08225","name":"Neckar-Odenwald-Kreis","type":"Landkreis"},"federalState":{"key":"08","name":"Baden-Württemberg"}},{"name":"Südstr.","postalCode":"74928","locality":"Hüffenhardt","municipality":{"key":"08225042","name":"Hüffenhardt","type":"Kreisangehörige_Gemeinde"},"district":{"key":"08225","name":"Neckar-Odenwald-Kreis","type":"Landkreis"},"federalState":{"key":"08","name":"Baden-Württemberg"}},{"name":"Todenweg","postalCode":"74928","locality":"Hüffenhardt","municipality":{"key":"08225042","name":"Hüffenhardt","type":"Kreisangehörige_Gemeinde"},"district":{"key":"08225","name":"Neckar-Odenwald-Kreis","type":"Landkreis"},"federalState":{"key":"08","name":"Baden-Württemberg"}},{"name":"Uhlandstr.","postalCode":"74928","locality":"Hüffenhardt","municipality":{"key":"08225042","name":"Hüffenhardt","type":"Kreisangehörige_Gemeinde"},"district":{"key":"08225","name":"Neckar-Odenwald-Kreis","type":"Landkreis"},"federalState":{"key":"08","name":"Baden-Württemberg"}},{"name":"Unschuffweg","postalCode":"74928","locality":"Hüffenhardt","municipality":{"key":"08225042","name":"Hüffenhardt","type":"Kreisangehörige_Gemeinde"},"district":{"key":"08225","name":"Neckar-Odenwald-Kreis","type":"Landkreis"},"federalState":{"key":"08","name":"Baden-Württemberg"}},{"name":"Vier Buchenweg","postalCode":"74928","locality":"Hüffenhardt","municipality":{"key":"08225042","name":"Hüffenhardt","type":"Kreisangehörige_Gemeinde"},"district":{"key":"08225","name":"Neckar-Odenwald-Kreis","type":"Landkreis"},"federalState":{"key":"08","name":"Baden-Württemberg"}},{"name":"Vorderer Mühlwaldweg","postalCode":"74928","locality":"Hüffenhardt","municipality":{"key":"08225042","name":"Hüffenhardt","type":"Kreisangehörige_Gemeinde"},"district":{"key":"08225","name":"Neckar-Odenwald-Kreis","type":"Landkreis"},"federalState":{"key":"08","name":"Baden-Württemberg"}},{"name":"Wagenseeweg","postalCode":"74928","locality":"Hüffenhardt","municipality":{"key":"08225042","name":"Hüffenhardt","type":"Kreisangehörige_Gemeinde"},"district":{"key":"08225","name":"Neckar-Odenwald-Kreis","type":"Landkreis"},"federalState":{"key":"08","name":"Baden-Württemberg"}},{"name":"Waldstr.","postalCode":"74928","locality":"Hüffenhardt","municipality":{"key":"08225042","name":"Hüffenhardt","type":"Kreisangehörige_Gemeinde"},"district":{"key":"08225","name":"Neckar-Odenwald-Kreis","type":"Landkreis"},"federalState":{"key":"08","name":"Baden-Württemberg"}},{"name":"Wasserweg","postalCode":"74928","locality":"Hüffenhardt","municipality":{"key":"08225042","name":"Hüffenhardt","type":"Kreisangehörige_Gemeinde"},"district":{"key":"08225","name":"Neckar-Odenwald-Kreis","type":"Landkreis"},"federalState":{"key":"08","name":"Baden-Württemberg"}},{"name":"Wielandstr.","postalCode":"74928","locality":"Hüffenhardt","municipality":{"key":"08225042","name":"Hüffenhardt","type":"Kreisangehörige_Gemeinde"},"district":{"key":"08225","name":"Neckar-Odenwald-Kreis","type":"Landkreis"},"federalState":{"key":"08","name":"Baden-Württemberg"}},{"name":"Wimpfener Weg","postalCode":"74928","locality":"Hüffenhardt","municipality":{"key":"08225042","name":"Hüffenhardt","type":"Kreisangehörige_Gemeinde"},"district":{"key":"08225","name":"Neckar-Odenwald-Kreis","type":"Landkreis"},"federalState":{"key":"08","name":"Baden-Württemberg"}},{"name":"Wirtschaftsweg","postalCode":"74928","locality":"Hüffenhardt","municipality":{"key":"08225042","name":"Hüffenhardt","type":"Kreisangehörige_Gemeinde"},"district":{"key":"08225","name":"Neckar-Odenwald-Kreis","type":"Landkreis"},"federalState":{"key":"08","name":"Baden-Württemberg"}},]