[{"name":"Achter de Muer","postalCode":"17207","locality":"Röbel/Müritz","municipality":{"key":"13071124","name":"Röbel/Müritz, Stadt","type":"Stadt"},"district":{"key":"13071","name":"Mecklenburgische Seenplatte","type":"Landkreis"},"federalState":{"key":"13","name":"Mecklenburg-Vorpommern"}},{"name":"Ahornallee","postalCode":"17207","locality":"Röbel/Müritz","municipality":{"key":"13071124","name":"Röbel/Müritz, Stadt","type":"Stadt"},"district":{"key":"13071","name":"Mecklenburgische Seenplatte","type":"Landkreis"},"federalState":{"key":"13","name":"Mecklenburg-Vorpommern"}},{"name":"Alte Dampferbrücke","postalCode":"17207","locality":"Röbel/Müritz","municipality":{"key":"13071124","name":"Röbel/Müritz, Stadt","type":"Stadt"},"district":{"key":"13071","name":"Mecklenburgische Seenplatte","type":"Landkreis"},"federalState":{"key":"13","name":"Mecklenburg-Vorpommern"}},{"name":"Am Bahnhof","postalCode":"17207","locality":"Röbel/Müritz","municipality":{"key":"13071124","name":"Röbel/Müritz, Stadt","type":"Stadt"},"district":{"key":"13071","name":"Mecklenburgische Seenplatte","type":"Landkreis"},"federalState":{"key":"13","name":"Mecklenburg-Vorpommern"}},{"name":"Am Gildekamp","postalCode":"17207","locality":"Röbel/Müritz","municipality":{"key":"13071124","name":"Röbel/Müritz, Stadt","type":"Stadt"},"district":{"key":"13071","name":"Mecklenburgische Seenplatte","type":"Landkreis"},"federalState":{"key":"13","name":"Mecklenburg-Vorpommern"}},{"name":"Am Kirchenholz","postalCode":"17207","locality":"Röbel/Müritz","municipality":{"key":"13071124","name":"Röbel/Müritz, Stadt","type":"Stadt"},"district":{"key":"13071","name":"Mecklenburgische Seenplatte","type":"Landkreis"},"federalState":{"key":"13","name":"Mecklenburg-Vorpommern"}},{"name":"Am Krankenhaus","postalCode":"17207","locality":"Röbel/Müritz","municipality":{"key":"13071124","name":"Röbel/Müritz, Stadt","type":"Stadt"},"district":{"key":"13071","name":"Mecklenburgische Seenplatte","type":"Landkreis"},"federalState":{"key":"13","name":"Mecklenburg-Vorpommern"}},{"name":"Am Rosenwinkel","postalCode":"17207","locality":"Röbel/Müritz","municipality":{"key":"13071124","name":"Röbel/Müritz, Stadt","type":"Stadt"},"district":{"key":"13071","name":"Mecklenburgische Seenplatte","type":"Landkreis"},"federalState":{"key":"13","name":"Mecklenburg-Vorpommern"}},{"name":"Am Weidehang","postalCode":"17207","locality":"Röbel/Müritz","municipality":{"key":"13071124","name":"Röbel/Müritz, Stadt","type":"Stadt"},"district":{"key":"13071","name":"Mecklenburgische Seenplatte","type":"Landkreis"},"federalState":{"key":"13","name":"Mecklenburg-Vorpommern"}},{"name":"Bahnhofstr.","postalCode":"17207","locality":"Röbel/Müritz","municipality":{"key":"13071124","name":"Röbel/Müritz, Stadt","type":"Stadt"},"district":{"key":"13071","name":"Mecklenburgische Seenplatte","type":"Landkreis"},"federalState":{"key":"13","name":"Mecklenburg-Vorpommern"}},{"name":"Birkenallee","postalCode":"17207","locality":"Röbel/Müritz","municipality":{"key":"13071124","name":"Röbel/Müritz, Stadt","type":"Stadt"},"district":{"key":"13071","name":"Mecklenburgische Seenplatte","type":"Landkreis"},"federalState":{"key":"13","name":"Mecklenburg-Vorpommern"}},{"name":"Bitterfeld","postalCode":"17207","locality":"Röbel/Müritz","municipality":{"key":"13071124","name":"Röbel/Müritz, Stadt","type":"Stadt"},"district":{"key":"13071","name":"Mecklenburgische Seenplatte","type":"Landkreis"},"federalState":{"key":"13","name":"Mecklenburg-Vorpommern"}},{"name":"Clara-Zetkin-Str.","postalCode":"17207","locality":"Röbel/Müritz","municipality":{"key":"13071124","name":"Röbel/Müritz, Stadt","type":"Stadt"},"district":{"key":"13071","name":"Mecklenburgische Seenplatte","type":"Landkreis"},"federalState":{"key":"13","name":"Mecklenburg-Vorpommern"}},{"name":"Dr.-Kosmowski-Str.","postalCode":"17207","locality":"Röbel/Müritz","municipality":{"key":"13071124","name":"Röbel/Müritz, Stadt","type":"Stadt"},"district":{"key":"13071","name":"Mecklenburgische Seenplatte","type":"Landkreis"},"federalState":{"key":"13","name":"Mecklenburg-Vorpommern"}},{"name":"Enge Str.","postalCode":"17207","locality":"Röbel/Müritz","municipality":{"key":"13071124","name":"Röbel/Müritz, Stadt","type":"Stadt"},"district":{"key":"13071","name":"Mecklenburgische Seenplatte","type":"Landkreis"},"federalState":{"key":"13","name":"Mecklenburg-Vorpommern"}},{"name":"Friesensportplatz","postalCode":"17207","locality":"Röbel/Müritz","municipality":{"key":"13071124","name":"Röbel/Müritz, Stadt","type":"Stadt"},"district":{"key":"13071","name":"Mecklenburgische Seenplatte","type":"Landkreis"},"federalState":{"key":"13","name":"Mecklenburg-Vorpommern"}},{"name":"Fritz-Reuter-Str.","postalCode":"17207","locality":"Röbel/Müritz","municipality":{"key":"13071124","name":"Röbel/Müritz, Stadt","type":"Stadt"},"district":{"key":"13071","name":"Mecklenburgische Seenplatte","type":"Landkreis"},"federalState":{"key":"13","name":"Mecklenburg-Vorpommern"}},{"name":"Gartenstr.","postalCode":"17207","locality":"Röbel/Müritz","municipality":{"key":"13071124","name":"Röbel/Müritz, Stadt","type":"Stadt"},"district":{"key":"13071","name":"Mecklenburgische Seenplatte","type":"Landkreis"},"federalState":{"key":"13","name":"Mecklenburg-Vorpommern"}},{"name":"Glienholzweg","postalCode":"17207","locality":"Röbel/Müritz","municipality":{"key":"13071124","name":"Röbel/Müritz, Stadt","type":"Stadt"},"district":{"key":"13071","name":"Mecklenburgische Seenplatte","type":"Landkreis"},"federalState":{"key":"13","name":"Mecklenburg-Vorpommern"}},{"name":"Gotthunskamp","postalCode":"17207","locality":"Röbel/Müritz","municipality":{"key":"13071124","name":"Röbel/Müritz, Stadt","type":"Stadt"},"district":{"key":"13071","name":"Mecklenburgische Seenplatte","type":"Landkreis"},"federalState":{"key":"13","name":"Mecklenburg-Vorpommern"}},{"name":"Große Stavenstr.","postalCode":"17207","locality":"Röbel/Müritz","municipality":{"key":"13071124","name":"Röbel/Müritz, Stadt","type":"Stadt"},"district":{"key":"13071","name":"Mecklenburgische Seenplatte","type":"Landkreis"},"federalState":{"key":"13","name":"Mecklenburg-Vorpommern"}},{"name":"Gustav-Melkert-Str.","postalCode":"17207","locality":"Röbel/Müritz","municipality":{"key":"13071124","name":"Röbel/Müritz, Stadt","type":"Stadt"},"district":{"key":"13071","name":"Mecklenburgische Seenplatte","type":"Landkreis"},"federalState":{"key":"13","name":"Mecklenburg-Vorpommern"}},{"name":"Hanne-Nüte-Str.","postalCode":"17207","locality":"Röbel/Müritz","municipality":{"key":"13071124","name":"Röbel/Müritz, Stadt","type":"Stadt"},"district":{"key":"13071","name":"Mecklenburgische Seenplatte","type":"Landkreis"},"federalState":{"key":"13","name":"Mecklenburg-Vorpommern"}},{"name":"Hohe Str.","postalCode":"17207","locality":"Röbel/Müritz","municipality":{"key":"13071124","name":"Röbel/Müritz, Stadt","type":"Stadt"},"district":{"key":"13071","name":"Mecklenburgische Seenplatte","type":"Landkreis"},"federalState":{"key":"13","name":"Mecklenburg-Vorpommern"}},{"name":"Hohle Str.","postalCode":"17207","locality":"Röbel/Müritz","municipality":{"key":"13071124","name":"Röbel/Müritz, Stadt","type":"Stadt"},"district":{"key":"13071","name":"Mecklenburgische Seenplatte","type":"Landkreis"},"federalState":{"key":"13","name":"Mecklenburg-Vorpommern"}},{"name":"Im Ort","postalCode":"17207","locality":"Röbel/Müritz","municipality":{"key":"13071124","name":"Röbel/Müritz, Stadt","type":"Stadt"},"district":{"key":"13071","name":"Mecklenburgische Seenplatte","type":"Landkreis"},"federalState":{"key":"13","name":"Mecklenburg-Vorpommern"}},{"name":"Juri-Gagarin-Str.","postalCode":"17207","locality":"Röbel/Müritz","municipality":{"key":"13071124","name":"Röbel/Müritz, Stadt","type":"Stadt"},"district":{"key":"13071","name":"Mecklenburgische Seenplatte","type":"Landkreis"},"federalState":{"key":"13","name":"Mecklenburg-Vorpommern"}},{"name":"Kirchplatz","postalCode":"17207","locality":"Röbel/Müritz","municipality":{"key":"13071124","name":"Röbel/Müritz, Stadt","type":"Stadt"},"district":{"key":"13071","name":"Mecklenburgische Seenplatte","type":"Landkreis"},"federalState":{"key":"13","name":"Mecklenburg-Vorpommern"}},{"name":"Kirchweg","postalCode":"17207","locality":"Röbel/Müritz","municipality":{"key":"13071124","name":"Röbel/Müritz, Stadt","type":"Stadt"},"district":{"key":"13071","name":"Mecklenburgische Seenplatte","type":"Landkreis"},"federalState":{"key":"13","name":"Mecklenburg-Vorpommern"}},{"name":"Kirschenallee","postalCode":"17207","locality":"Röbel/Müritz","municipality":{"key":"13071124","name":"Röbel/Müritz, Stadt","type":"Stadt"},"district":{"key":"13071","name":"Mecklenburgische Seenplatte","type":"Landkreis"},"federalState":{"key":"13","name":"Mecklenburg-Vorpommern"}},{"name":"Kleine Stavenstr.","postalCode":"17207","locality":"Röbel/Müritz","municipality":{"key":"13071124","name":"Röbel/Müritz, Stadt","type":"Stadt"},"district":{"key":"13071","name":"Mecklenburgische Seenplatte","type":"Landkreis"},"federalState":{"key":"13","name":"Mecklenburg-Vorpommern"}},{"name":"Klosterstr.","postalCode":"17207","locality":"Röbel/Müritz","municipality":{"key":"13071124","name":"Röbel/Müritz, Stadt","type":"Stadt"},"district":{"key":"13071","name":"Mecklenburgische Seenplatte","type":"Landkreis"},"federalState":{"key":"13","name":"Mecklenburg-Vorpommern"}},{"name":"Kurze Str.","postalCode":"17207","locality":"Röbel/Müritz","municipality":{"key":"13071124","name":"Röbel/Müritz, Stadt","type":"Stadt"},"district":{"key":"13071","name":"Mecklenburgische Seenplatte","type":"Landkreis"},"federalState":{"key":"13","name":"Mecklenburg-Vorpommern"}},{"name":"Lindenallee","postalCode":"17207","locality":"Röbel/Müritz","municipality":{"key":"13071124","name":"Röbel/Müritz, Stadt","type":"Stadt"},"district":{"key":"13071","name":"Mecklenburgische Seenplatte","type":"Landkreis"},"federalState":{"key":"13","name":"Mecklenburg-Vorpommern"}},{"name":"Löhner Weg","postalCode":"17207","locality":"Röbel/Müritz","municipality":{"key":"13071124","name":"Röbel/Müritz, Stadt","type":"Stadt"},"district":{"key":"13071","name":"Mecklenburgische Seenplatte","type":"Landkreis"},"federalState":{"key":"13","name":"Mecklenburg-Vorpommern"}},{"name":"Ludorfer Weg","postalCode":"17207","locality":"Röbel/Müritz","municipality":{"key":"13071124","name":"Röbel/Müritz, Stadt","type":"Stadt"},"district":{"key":"13071","name":"Mecklenburgische Seenplatte","type":"Landkreis"},"federalState":{"key":"13","name":"Mecklenburg-Vorpommern"}},{"name":"Marienfelder Str.","postalCode":"17207","locality":"Röbel/Müritz","municipality":{"key":"13071124","name":"Röbel/Müritz, Stadt","type":"Stadt"},"district":{"key":"13071","name":"Mecklenburgische Seenplatte","type":"Landkreis"},"federalState":{"key":"13","name":"Mecklenburg-Vorpommern"}},{"name":"Marktplatz","postalCode":"17207","locality":"Röbel/Müritz","municipality":{"key":"13071124","name":"Röbel/Müritz, Stadt","type":"Stadt"},"district":{"key":"13071","name":"Mecklenburgische Seenplatte","type":"Landkreis"},"federalState":{"key":"13","name":"Mecklenburg-Vorpommern"}},{"name":"Mauerstr.","postalCode":"17207","locality":"Röbel/Müritz","municipality":{"key":"13071124","name":"Röbel/Müritz, Stadt","type":"Stadt"},"district":{"key":"13071","name":"Mecklenburgische Seenplatte","type":"Landkreis"},"federalState":{"key":"13","name":"Mecklenburg-Vorpommern"}},{"name":"Mirower Str.","postalCode":"17207","locality":"Röbel/Müritz","municipality":{"key":"13071124","name":"Röbel/Müritz, Stadt","type":"Stadt"},"district":{"key":"13071","name":"Mecklenburgische Seenplatte","type":"Landkreis"},"federalState":{"key":"13","name":"Mecklenburg-Vorpommern"}},{"name":"Mönchkirchhof","postalCode":"17207","locality":"Röbel/Müritz","municipality":{"key":"13071124","name":"Röbel/Müritz, Stadt","type":"Stadt"},"district":{"key":"13071","name":"Mecklenburgische Seenplatte","type":"Landkreis"},"federalState":{"key":"13","name":"Mecklenburg-Vorpommern"}},{"name":"Mönchteich","postalCode":"17207","locality":"Röbel/Müritz","municipality":{"key":"13071124","name":"Röbel/Müritz, Stadt","type":"Stadt"},"district":{"key":"13071","name":"Mecklenburgische Seenplatte","type":"Landkreis"},"federalState":{"key":"13","name":"Mecklenburg-Vorpommern"}},{"name":"Mühlenberg","postalCode":"17207","locality":"Röbel/Müritz","municipality":{"key":"13071124","name":"Röbel/Müritz, Stadt","type":"Stadt"},"district":{"key":"13071","name":"Mecklenburgische Seenplatte","type":"Landkreis"},"federalState":{"key":"13","name":"Mecklenburg-Vorpommern"}},{"name":"Mühlenstr.","postalCode":"17207","locality":"Röbel/Müritz","municipality":{"key":"13071124","name":"Röbel/Müritz, Stadt","type":"Stadt"},"district":{"key":"13071","name":"Mecklenburgische Seenplatte","type":"Landkreis"},"federalState":{"key":"13","name":"Mecklenburg-Vorpommern"}},{"name":"Mühlentor","postalCode":"17207","locality":"Röbel/Müritz","municipality":{"key":"13071124","name":"Röbel/Müritz, Stadt","type":"Stadt"},"district":{"key":"13071","name":"Mecklenburgische Seenplatte","type":"Landkreis"},"federalState":{"key":"13","name":"Mecklenburg-Vorpommern"}},{"name":"Müritzblick","postalCode":"17207","locality":"Röbel/Müritz","municipality":{"key":"13071124","name":"Röbel/Müritz, Stadt","type":"Stadt"},"district":{"key":"13071","name":"Mecklenburgische Seenplatte","type":"Landkreis"},"federalState":{"key":"13","name":"Mecklenburg-Vorpommern"}},{"name":"Müritzpromenade","postalCode":"17207","locality":"Röbel/Müritz","municipality":{"key":"13071124","name":"Röbel/Müritz, Stadt","type":"Stadt"},"district":{"key":"13071","name":"Mecklenburgische Seenplatte","type":"Landkreis"},"federalState":{"key":"13","name":"Mecklenburg-Vorpommern"}},{"name":"Pferdemarkt","postalCode":"17207","locality":"Röbel/Müritz","municipality":{"key":"13071124","name":"Röbel/Müritz, Stadt","type":"Stadt"},"district":{"key":"13071","name":"Mecklenburgische Seenplatte","type":"Landkreis"},"federalState":{"key":"13","name":"Mecklenburg-Vorpommern"}},{"name":"Plauer Str.","postalCode":"17207","locality":"Röbel/Müritz","municipality":{"key":"13071124","name":"Röbel/Müritz, Stadt","type":"Stadt"},"district":{"key":"13071","name":"Mecklenburgische Seenplatte","type":"Landkreis"},"federalState":{"key":"13","name":"Mecklenburg-Vorpommern"}},{"name":"Predigerstr.","postalCode":"17207","locality":"Röbel/Müritz","municipality":{"key":"13071124","name":"Röbel/Müritz, Stadt","type":"Stadt"},"district":{"key":"13071","name":"Mecklenburgische Seenplatte","type":"Landkreis"},"federalState":{"key":"13","name":"Mecklenburg-Vorpommern"}},{"name":"Ringstr.","postalCode":"17207","locality":"Röbel/Müritz","municipality":{"key":"13071124","name":"Röbel/Müritz, Stadt","type":"Stadt"},"district":{"key":"13071","name":"Mecklenburgische Seenplatte","type":"Landkreis"},"federalState":{"key":"13","name":"Mecklenburg-Vorpommern"}},{"name":"Röbeler Str.","postalCode":"17207","locality":"Röbel/Müritz","municipality":{"key":"13071124","name":"Röbel/Müritz, Stadt","type":"Stadt"},"district":{"key":"13071","name":"Mecklenburgische Seenplatte","type":"Landkreis"},"federalState":{"key":"13","name":"Mecklenburg-Vorpommern"}},{"name":"Roßstr.","postalCode":"17207","locality":"Röbel/Müritz","municipality":{"key":"13071124","name":"Röbel/Müritz, Stadt","type":"Stadt"},"district":{"key":"13071","name":"Mecklenburgische Seenplatte","type":"Landkreis"},"federalState":{"key":"13","name":"Mecklenburg-Vorpommern"}},{"name":"Schulstr.","postalCode":"17207","locality":"Röbel/Müritz","municipality":{"key":"13071124","name":"Röbel/Müritz, Stadt","type":"Stadt"},"district":{"key":"13071","name":"Mecklenburgische Seenplatte","type":"Landkreis"},"federalState":{"key":"13","name":"Mecklenburg-Vorpommern"}},{"name":"Seebadstr.","postalCode":"17207","locality":"Röbel/Müritz","municipality":{"key":"13071124","name":"Röbel/Müritz, Stadt","type":"Stadt"},"district":{"key":"13071","name":"Mecklenburgische Seenplatte","type":"Landkreis"},"federalState":{"key":"13","name":"Mecklenburg-Vorpommern"}},{"name":"Solzower Weg","postalCode":"17207","locality":"Röbel/Müritz","municipality":{"key":"13071124","name":"Röbel/Müritz, Stadt","type":"Stadt"},"district":{"key":"13071","name":"Mecklenburgische Seenplatte","type":"Landkreis"},"federalState":{"key":"13","name":"Mecklenburg-Vorpommern"}},{"name":"Stadtgarten","postalCode":"17207","locality":"Röbel/Müritz","municipality":{"key":"13071124","name":"Röbel/Müritz, Stadt","type":"Stadt"},"district":{"key":"13071","name":"Mecklenburgische Seenplatte","type":"Landkreis"},"federalState":{"key":"13","name":"Mecklenburg-Vorpommern"}},{"name":"Stadtrandsiedlung","postalCode":"17207","locality":"Röbel/Müritz","municipality":{"key":"13071124","name":"Röbel/Müritz, Stadt","type":"Stadt"},"district":{"key":"13071","name":"Mecklenburgische Seenplatte","type":"Landkreis"},"federalState":{"key":"13","name":"Mecklenburg-Vorpommern"}},{"name":"Str. am Gildekamp","postalCode":"17207","locality":"Röbel/Müritz","municipality":{"key":"13071124","name":"Röbel/Müritz, Stadt","type":"Stadt"},"district":{"key":"13071","name":"Mecklenburgische Seenplatte","type":"Landkreis"},"federalState":{"key":"13","name":"Mecklenburg-Vorpommern"}},{"name":"Str. der Deutschen Einheit","postalCode":"17207","locality":"Röbel/Müritz","municipality":{"key":"13071124","name":"Röbel/Müritz, Stadt","type":"Stadt"},"district":{"key":"13071","name":"Mecklenburgische Seenplatte","type":"Landkreis"},"federalState":{"key":"13","name":"Mecklenburg-Vorpommern"}},{"name":"Str. des Friedens","postalCode":"17207","locality":"Röbel/Müritz","municipality":{"key":"13071124","name":"Röbel/Müritz, Stadt","type":"Stadt"},"district":{"key":"13071","name":"Mecklenburgische Seenplatte","type":"Landkreis"},"federalState":{"key":"13","name":"Mecklenburg-Vorpommern"}},{"name":"Töpferwall","postalCode":"17207","locality":"Röbel/Müritz","municipality":{"key":"13071124","name":"Röbel/Müritz, Stadt","type":"Stadt"},"district":{"key":"13071","name":"Mecklenburgische Seenplatte","type":"Landkreis"},"federalState":{"key":"13","name":"Mecklenburg-Vorpommern"}},{"name":"Turnplatz","postalCode":"17207","locality":"Röbel/Müritz","municipality":{"key":"13071124","name":"Röbel/Müritz, Stadt","type":"Stadt"},"district":{"key":"13071","name":"Mecklenburgische Seenplatte","type":"Landkreis"},"federalState":{"key":"13","name":"Mecklenburg-Vorpommern"}},{"name":"Uferpromenade","postalCode":"17207","locality":"Röbel/Müritz","municipality":{"key":"13071124","name":"Röbel/Müritz, Stadt","type":"Stadt"},"district":{"key":"13071","name":"Mecklenburgische Seenplatte","type":"Landkreis"},"federalState":{"key":"13","name":"Mecklenburg-Vorpommern"}},{"name":"Unkel-Bräsig-Str.","postalCode":"17207","locality":"Röbel/Müritz","municipality":{"key":"13071124","name":"Röbel/Müritz, Stadt","type":"Stadt"},"district":{"key":"13071","name":"Mecklenburgische Seenplatte","type":"Landkreis"},"federalState":{"key":"13","name":"Mecklenburg-Vorpommern"}},{"name":"Unter den Kiefern","postalCode":"17207","locality":"Röbel/Müritz","municipality":{"key":"13071124","name":"Röbel/Müritz, Stadt","type":"Stadt"},"district":{"key":"13071","name":"Mecklenburgische Seenplatte","type":"Landkreis"},"federalState":{"key":"13","name":"Mecklenburg-Vorpommern"}},{"name":"Wallpromenade","postalCode":"17207","locality":"Röbel/Müritz","municipality":{"key":"13071124","name":"Röbel/Müritz, Stadt","type":"Stadt"},"district":{"key":"13071","name":"Mecklenburgische Seenplatte","type":"Landkreis"},"federalState":{"key":"13","name":"Mecklenburg-Vorpommern"}},{"name":"Wardenburger Weg","postalCode":"17207","locality":"Röbel/Müritz","municipality":{"key":"13071124","name":"Röbel/Müritz, Stadt","type":"Stadt"},"district":{"key":"13071","name":"Mecklenburgische Seenplatte","type":"Landkreis"},"federalState":{"key":"13","name":"Mecklenburg-Vorpommern"}},{"name":"Weidehang","postalCode":"17207","locality":"Röbel/Müritz","municipality":{"key":"13071124","name":"Röbel/Müritz, Stadt","type":"Stadt"},"district":{"key":"13071","name":"Mecklenburgische Seenplatte","type":"Landkreis"},"federalState":{"key":"13","name":"Mecklenburg-Vorpommern"}},{"name":"Wiesengrund","postalCode":"17207","locality":"Röbel/Müritz","municipality":{"key":"13071124","name":"Röbel/Müritz, Stadt","type":"Stadt"},"district":{"key":"13071","name":"Mecklenburgische Seenplatte","type":"Landkreis"},"federalState":{"key":"13","name":"Mecklenburg-Vorpommern"}},{"name":"Wiesenstr.","postalCode":"17207","locality":"Röbel/Müritz","municipality":{"key":"13071124","name":"Röbel/Müritz, Stadt","type":"Stadt"},"district":{"key":"13071","name":"Mecklenburgische Seenplatte","type":"Landkreis"},"federalState":{"key":"13","name":"Mecklenburg-Vorpommern"}},{"name":"Wünnowweg","postalCode":"17207","locality":"Röbel/Müritz","municipality":{"key":"13071124","name":"Röbel/Müritz, Stadt","type":"Stadt"},"district":{"key":"13071","name":"Mecklenburgische Seenplatte","type":"Landkreis"},"federalState":{"key":"13","name":"Mecklenburg-Vorpommern"}},{"name":"Ziegelei","postalCode":"17207","locality":"Röbel/Müritz","municipality":{"key":"13071124","name":"Röbel/Müritz, Stadt","type":"Stadt"},"district":{"key":"13071","name":"Mecklenburgische Seenplatte","type":"Landkreis"},"federalState":{"key":"13","name":"Mecklenburg-Vorpommern"}},{"name":"Ziegenmarkt","postalCode":"17207","locality":"Röbel/Müritz","municipality":{"key":"13071124","name":"Röbel/Müritz, Stadt","type":"Stadt"},"district":{"key":"13071","name":"Mecklenburgische Seenplatte","type":"Landkreis"},"federalState":{"key":"13","name":"Mecklenburg-Vorpommern"}},{"name":"Zielower Weg","postalCode":"17207","locality":"Röbel/Müritz","municipality":{"key":"13071124","name":"Röbel/Müritz, Stadt","type":"Stadt"},"district":{"key":"13071","name":"Mecklenburgische Seenplatte","type":"Landkreis"},"federalState":{"key":"13","name":"Mecklenburg-Vorpommern"}},]