[{"name":"Burgstr.","postalCode":"56459","locality":"Weltersburg","municipality":{"key":"07143307","name":"Weltersburg","type":"Kreisangehörige_Gemeinde"},"district":{"key":"07143","name":"Westerwaldkreis","type":"Landkreis"},"federalState":{"key":"07","name":"Rheinland-Pfalz"}},{"name":"Girkenrother Str.","postalCode":"56459","locality":"Weltersburg","municipality":{"key":"07143307","name":"Weltersburg","type":"Kreisangehörige_Gemeinde"},"district":{"key":"07143","name":"Westerwaldkreis","type":"Landkreis"},"federalState":{"key":"07","name":"Rheinland-Pfalz"}},{"name":"Hauptstr.","postalCode":"56459","locality":"Weltersburg","municipality":{"key":"07143307","name":"Weltersburg","type":"Kreisangehörige_Gemeinde"},"district":{"key":"07143","name":"Westerwaldkreis","type":"Landkreis"},"federalState":{"key":"07","name":"Rheinland-Pfalz"}},{"name":"Im Boden","postalCode":"56459","locality":"Weltersburg","municipality":{"key":"07143307","name":"Weltersburg","type":"Kreisangehörige_Gemeinde"},"district":{"key":"07143","name":"Westerwaldkreis","type":"Landkreis"},"federalState":{"key":"07","name":"Rheinland-Pfalz"}},{"name":"Im Patengarten","postalCode":"56459","locality":"Weltersburg","municipality":{"key":"07143307","name":"Weltersburg","type":"Kreisangehörige_Gemeinde"},"district":{"key":"07143","name":"Westerwaldkreis","type":"Landkreis"},"federalState":{"key":"07","name":"Rheinland-Pfalz"}},{"name":"Im Seifen","postalCode":"56459","locality":"Weltersburg","municipality":{"key":"07143307","name":"Weltersburg","type":"Kreisangehörige_Gemeinde"},"district":{"key":"07143","name":"Westerwaldkreis","type":"Landkreis"},"federalState":{"key":"07","name":"Rheinland-Pfalz"}},{"name":"Mittelweg","postalCode":"56459","locality":"Weltersburg","municipality":{"key":"07143307","name":"Weltersburg","type":"Kreisangehörige_Gemeinde"},"district":{"key":"07143","name":"Westerwaldkreis","type":"Landkreis"},"federalState":{"key":"07","name":"Rheinland-Pfalz"}},{"name":"Oberweg","postalCode":"56459","locality":"Weltersburg","municipality":{"key":"07143307","name":"Weltersburg","type":"Kreisangehörige_Gemeinde"},"district":{"key":"07143","name":"Westerwaldkreis","type":"Landkreis"},"federalState":{"key":"07","name":"Rheinland-Pfalz"}},{"name":"Ottensteiner Str.","postalCode":"56459","locality":"Weltersburg","municipality":{"key":"07143307","name":"Weltersburg","type":"Kreisangehörige_Gemeinde"},"district":{"key":"07143","name":"Westerwaldkreis","type":"Landkreis"},"federalState":{"key":"07","name":"Rheinland-Pfalz"}},{"name":"Reifenberger Str.","postalCode":"56459","locality":"Weltersburg","municipality":{"key":"07143307","name":"Weltersburg","type":"Kreisangehörige_Gemeinde"},"district":{"key":"07143","name":"Westerwaldkreis","type":"Landkreis"},"federalState":{"key":"07","name":"Rheinland-Pfalz"}},{"name":"Ringstr.","postalCode":"56459","locality":"Weltersburg","municipality":{"key":"07143307","name":"Weltersburg","type":"Kreisangehörige_Gemeinde"},"district":{"key":"07143","name":"Westerwaldkreis","type":"Landkreis"},"federalState":{"key":"07","name":"Rheinland-Pfalz"}},{"name":"Salzer Weg","postalCode":"56459","locality":"Weltersburg","municipality":{"key":"07143307","name":"Weltersburg","type":"Kreisangehörige_Gemeinde"},"district":{"key":"07143","name":"Westerwaldkreis","type":"Landkreis"},"federalState":{"key":"07","name":"Rheinland-Pfalz"}},{"name":"Sayner Weg","postalCode":"56459","locality":"Weltersburg","municipality":{"key":"07143307","name":"Weltersburg","type":"Kreisangehörige_Gemeinde"},"district":{"key":"07143","name":"Westerwaldkreis","type":"Landkreis"},"federalState":{"key":"07","name":"Rheinland-Pfalz"}},{"name":"Turmweg","postalCode":"56459","locality":"Weltersburg","municipality":{"key":"07143307","name":"Weltersburg","type":"Kreisangehörige_Gemeinde"},"district":{"key":"07143","name":"Westerwaldkreis","type":"Landkreis"},"federalState":{"key":"07","name":"Rheinland-Pfalz"}},{"name":"Unterstr.","postalCode":"56459","locality":"Weltersburg","municipality":{"key":"07143307","name":"Weltersburg","type":"Kreisangehörige_Gemeinde"},"district":{"key":"07143","name":"Westerwaldkreis","type":"Landkreis"},"federalState":{"key":"07","name":"Rheinland-Pfalz"}},{"name":"Wiegand Weg","postalCode":"56459","locality":"Weltersburg","municipality":{"key":"07143307","name":"Weltersburg","type":"Kreisangehörige_Gemeinde"},"district":{"key":"07143","name":"Westerwaldkreis","type":"Landkreis"},"federalState":{"key":"07","name":"Rheinland-Pfalz"}},{"name":"Wiesenstr.","postalCode":"56459","locality":"Weltersburg","municipality":{"key":"07143307","name":"Weltersburg","type":"Kreisangehörige_Gemeinde"},"district":{"key":"07143","name":"Westerwaldkreis","type":"Landkreis"},"federalState":{"key":"07","name":"Rheinland-Pfalz"}},{"name":"Zum Berberg","postalCode":"56459","locality":"Weltersburg","municipality":{"key":"07143307","name":"Weltersburg","type":"Kreisangehörige_Gemeinde"},"district":{"key":"07143","name":"Westerwaldkreis","type":"Landkreis"},"federalState":{"key":"07","name":"Rheinland-Pfalz"}},]