[{"name":"Allerbreite","postalCode":"37619","locality":"Hehlen","municipality":{"key":"03255017","name":"Hehlen","type":"Kreisangehörige_Gemeinde"},"district":{"key":"03255","name":"Holzminden","type":"Landkreis"},"federalState":{"key":"03","name":"Niedersachsen"}},{"name":"Alte Schmiede","postalCode":"37619","locality":"Hehlen","municipality":{"key":"03255017","name":"Hehlen","type":"Kreisangehörige_Gemeinde"},"district":{"key":"03255","name":"Holzminden","type":"Landkreis"},"federalState":{"key":"03","name":"Niedersachsen"}},{"name":"Alte Schulstr.","postalCode":"37619","locality":"Hehlen","municipality":{"key":"03255017","name":"Hehlen","type":"Kreisangehörige_Gemeinde"},"district":{"key":"03255","name":"Holzminden","type":"Landkreis"},"federalState":{"key":"03","name":"Niedersachsen"}},{"name":"Am Eckholz","postalCode":"37619","locality":"Hehlen","municipality":{"key":"03255017","name":"Hehlen","type":"Kreisangehörige_Gemeinde"},"district":{"key":"03255","name":"Holzminden","type":"Landkreis"},"federalState":{"key":"03","name":"Niedersachsen"}},{"name":"Am Feldberg","postalCode":"37619","locality":"Hehlen","municipality":{"key":"03255017","name":"Hehlen","type":"Kreisangehörige_Gemeinde"},"district":{"key":"03255","name":"Holzminden","type":"Landkreis"},"federalState":{"key":"03","name":"Niedersachsen"}},{"name":"Am Kuhkamp","postalCode":"37619","locality":"Hehlen","municipality":{"key":"03255017","name":"Hehlen","type":"Kreisangehörige_Gemeinde"},"district":{"key":"03255","name":"Holzminden","type":"Landkreis"},"federalState":{"key":"03","name":"Niedersachsen"}},{"name":"Am Schiffberg","postalCode":"37619","locality":"Hehlen","municipality":{"key":"03255017","name":"Hehlen","type":"Kreisangehörige_Gemeinde"},"district":{"key":"03255","name":"Holzminden","type":"Landkreis"},"federalState":{"key":"03","name":"Niedersachsen"}},{"name":"Am Thie","postalCode":"37619","locality":"Hehlen","municipality":{"key":"03255017","name":"Hehlen","type":"Kreisangehörige_Gemeinde"},"district":{"key":"03255","name":"Holzminden","type":"Landkreis"},"federalState":{"key":"03","name":"Niedersachsen"}},{"name":"Am Weserufer","postalCode":"37619","locality":"Hehlen","municipality":{"key":"03255017","name":"Hehlen","type":"Kreisangehörige_Gemeinde"},"district":{"key":"03255","name":"Holzminden","type":"Landkreis"},"federalState":{"key":"03","name":"Niedersachsen"}},{"name":"An der Fähre","postalCode":"37619","locality":"Hehlen","municipality":{"key":"03255017","name":"Hehlen","type":"Kreisangehörige_Gemeinde"},"district":{"key":"03255","name":"Holzminden","type":"Landkreis"},"federalState":{"key":"03","name":"Niedersachsen"}},{"name":"Auf dem Berge","postalCode":"37619","locality":"Hehlen","municipality":{"key":"03255017","name":"Hehlen","type":"Kreisangehörige_Gemeinde"},"district":{"key":"03255","name":"Holzminden","type":"Landkreis"},"federalState":{"key":"03","name":"Niedersachsen"}},{"name":"Bergweg","postalCode":"37619","locality":"Hehlen","municipality":{"key":"03255017","name":"Hehlen","type":"Kreisangehörige_Gemeinde"},"district":{"key":"03255","name":"Holzminden","type":"Landkreis"},"federalState":{"key":"03","name":"Niedersachsen"}},{"name":"Birkenweg","postalCode":"37619","locality":"Hehlen","municipality":{"key":"03255017","name":"Hehlen","type":"Kreisangehörige_Gemeinde"},"district":{"key":"03255","name":"Holzminden","type":"Landkreis"},"federalState":{"key":"03","name":"Niedersachsen"}},{"name":"Brinkweg","postalCode":"37619","locality":"Hehlen","municipality":{"key":"03255017","name":"Hehlen","type":"Kreisangehörige_Gemeinde"},"district":{"key":"03255","name":"Holzminden","type":"Landkreis"},"federalState":{"key":"03","name":"Niedersachsen"}},{"name":"Brökelner Str.","postalCode":"37619","locality":"Hehlen","municipality":{"key":"03255017","name":"Hehlen","type":"Kreisangehörige_Gemeinde"},"district":{"key":"03255","name":"Holzminden","type":"Landkreis"},"federalState":{"key":"03","name":"Niedersachsen"}},{"name":"Brönenberg","postalCode":"37619","locality":"Hehlen","municipality":{"key":"03255017","name":"Hehlen","type":"Kreisangehörige_Gemeinde"},"district":{"key":"03255","name":"Holzminden","type":"Landkreis"},"federalState":{"key":"03","name":"Niedersachsen"}},{"name":"Charlottenstr.","postalCode":"37603","locality":"Holzminden","municipality":{"key":"03255023","name":"Holzminden, Stadt","type":"Stadt"},"district":{"key":"03255","name":"Holzminden","type":"Landkreis"},"federalState":{"key":"03","name":"Niedersachsen"}},{"name":"Claudiusstr.","postalCode":"37603","locality":"Holzminden","municipality":{"key":"03255023","name":"Holzminden, Stadt","type":"Stadt"},"district":{"key":"03255","name":"Holzminden","type":"Landkreis"},"federalState":{"key":"03","name":"Niedersachsen"}},{"name":"Conventgasse","postalCode":"37603","locality":"Holzminden","municipality":{"key":"03255023","name":"Holzminden, Stadt","type":"Stadt"},"district":{"key":"03255","name":"Holzminden","type":"Landkreis"},"federalState":{"key":"03","name":"Niedersachsen"}},{"name":"Corveyblick","postalCode":"37603","locality":"Holzminden","municipality":{"key":"03255023","name":"Holzminden, Stadt","type":"Stadt"},"district":{"key":"03255","name":"Holzminden","type":"Landkreis"},"federalState":{"key":"03","name":"Niedersachsen"}},{"name":"Curt-Sauermilch-Weg","postalCode":"37603","locality":"Holzminden","municipality":{"key":"03255023","name":"Holzminden, Stadt","type":"Stadt"},"district":{"key":"03255","name":"Holzminden","type":"Landkreis"},"federalState":{"key":"03","name":"Niedersachsen"}},{"name":"Dammstr.","postalCode":"37603","locality":"Holzminden","municipality":{"key":"03255023","name":"Holzminden, Stadt","type":"Stadt"},"district":{"key":"03255","name":"Holzminden","type":"Landkreis"},"federalState":{"key":"03","name":"Niedersachsen"}},{"name":"Danziger Str.","postalCode":"37603","locality":"Holzminden","municipality":{"key":"03255023","name":"Holzminden, Stadt","type":"Stadt"},"district":{"key":"03255","name":"Holzminden","type":"Landkreis"},"federalState":{"key":"03","name":"Niedersachsen"}},{"name":"Dasseler Str.","postalCode":"37603","locality":"Holzminden","municipality":{"key":"03255023","name":"Holzminden, Stadt","type":"Stadt"},"district":{"key":"03255","name":"Holzminden","type":"Landkreis"},"federalState":{"key":"03","name":"Niedersachsen"}},{"name":"Derentaler Str.","postalCode":"37603","locality":"Holzminden","municipality":{"key":"03255023","name":"Holzminden, Stadt","type":"Stadt"},"district":{"key":"03255","name":"Holzminden","type":"Landkreis"},"federalState":{"key":"03","name":"Niedersachsen"}},{"name":"Dieckhoffstr.","postalCode":"37603","locality":"Holzminden","municipality":{"key":"03255023","name":"Holzminden, Stadt","type":"Stadt"},"district":{"key":"03255","name":"Holzminden","type":"Landkreis"},"federalState":{"key":"03","name":"Niedersachsen"}},{"name":"Dohnenstieg","postalCode":"37603","locality":"Holzminden","municipality":{"key":"03255023","name":"Holzminden, Stadt","type":"Stadt"},"district":{"key":"03255","name":"Holzminden","type":"Landkreis"},"federalState":{"key":"03","name":"Niedersachsen"}},{"name":"Dölmeweg","postalCode":"37603","locality":"Holzminden","municipality":{"key":"03255023","name":"Holzminden, Stadt","type":"Stadt"},"district":{"key":"03255","name":"Holzminden","type":"Landkreis"},"federalState":{"key":"03","name":"Niedersachsen"}},{"name":"Dragocostr.","postalCode":"37603","locality":"Holzminden","municipality":{"key":"03255023","name":"Holzminden, Stadt","type":"Stadt"},"district":{"key":"03255","name":"Holzminden","type":"Landkreis"},"federalState":{"key":"03","name":"Niedersachsen"}},{"name":"Dr.-Jasper-Str.","postalCode":"37603","locality":"Holzminden","municipality":{"key":"03255023","name":"Holzminden, Stadt","type":"Stadt"},"district":{"key":"03255","name":"Holzminden","type":"Landkreis"},"federalState":{"key":"03","name":"Niedersachsen"}},{"name":"Dr.-Lehmann-Weg","postalCode":"37603","locality":"Holzminden","municipality":{"key":"03255023","name":"Holzminden, Stadt","type":"Stadt"},"district":{"key":"03255","name":"Holzminden","type":"Landkreis"},"federalState":{"key":"03","name":"Niedersachsen"}},{"name":"Drosselweg","postalCode":"37603","locality":"Holzminden","municipality":{"key":"03255023","name":"Holzminden, Stadt","type":"Stadt"},"district":{"key":"03255","name":"Holzminden","type":"Landkreis"},"federalState":{"key":"03","name":"Niedersachsen"}},{"name":"Drosteweg","postalCode":"37603","locality":"Holzminden","municipality":{"key":"03255023","name":"Holzminden, Stadt","type":"Stadt"},"district":{"key":"03255","name":"Holzminden","type":"Landkreis"},"federalState":{"key":"03","name":"Niedersachsen"}},{"name":"Dr.-Stiebel-Str.","postalCode":"37603","locality":"Holzminden","municipality":{"key":"03255023","name":"Holzminden, Stadt","type":"Stadt"},"district":{"key":"03255","name":"Holzminden","type":"Landkreis"},"federalState":{"key":"03","name":"Niedersachsen"}},{"name":"Dürerweg","postalCode":"37603","locality":"Holzminden","municipality":{"key":"03255023","name":"Holzminden, Stadt","type":"Stadt"},"district":{"key":"03255","name":"Holzminden","type":"Landkreis"},"federalState":{"key":"03","name":"Niedersachsen"}},{"name":"Dürrestr.","postalCode":"37603","locality":"Holzminden","municipality":{"key":"03255023","name":"Holzminden, Stadt","type":"Stadt"},"district":{"key":"03255","name":"Holzminden","type":"Landkreis"},"federalState":{"key":"03","name":"Niedersachsen"}},{"name":"Eckenbrecherstr.","postalCode":"37603","locality":"Holzminden","municipality":{"key":"03255023","name":"Holzminden, Stadt","type":"Stadt"},"district":{"key":"03255","name":"Holzminden","type":"Landkreis"},"federalState":{"key":"03","name":"Niedersachsen"}},{"name":"Eichenallee","postalCode":"37603","locality":"Holzminden","municipality":{"key":"03255023","name":"Holzminden, Stadt","type":"Stadt"},"district":{"key":"03255","name":"Holzminden","type":"Landkreis"},"federalState":{"key":"03","name":"Niedersachsen"}},{"name":"Eichendorffstr.","postalCode":"37603","locality":"Holzminden","municipality":{"key":"03255023","name":"Holzminden, Stadt","type":"Stadt"},"district":{"key":"03255","name":"Holzminden","type":"Landkreis"},"federalState":{"key":"03","name":"Niedersachsen"}},{"name":"Einbecker Str.","postalCode":"37603","locality":"Holzminden","municipality":{"key":"03255023","name":"Holzminden, Stadt","type":"Stadt"},"district":{"key":"03255","name":"Holzminden","type":"Landkreis"},"federalState":{"key":"03","name":"Niedersachsen"}},{"name":"Elchweg","postalCode":"37603","locality":"Holzminden","municipality":{"key":"03255023","name":"Holzminden, Stadt","type":"Stadt"},"district":{"key":"03255","name":"Holzminden","type":"Landkreis"},"federalState":{"key":"03","name":"Niedersachsen"}},{"name":"Elsa-Brändström-Weg","postalCode":"37603","locality":"Holzminden","municipality":{"key":"03255023","name":"Holzminden, Stadt","type":"Stadt"},"district":{"key":"03255","name":"Holzminden","type":"Landkreis"},"federalState":{"key":"03","name":"Niedersachsen"}},{"name":"Enge Str.","postalCode":"37603","locality":"Holzminden","municipality":{"key":"03255023","name":"Holzminden, Stadt","type":"Stadt"},"district":{"key":"03255","name":"Holzminden","type":"Landkreis"},"federalState":{"key":"03","name":"Niedersachsen"}},{"name":"Ernst-Abbe-Str.","postalCode":"37603","locality":"Holzminden","municipality":{"key":"03255023","name":"Holzminden, Stadt","type":"Stadt"},"district":{"key":"03255","name":"Holzminden","type":"Landkreis"},"federalState":{"key":"03","name":"Niedersachsen"}},{"name":"Ernst-August-Str.","postalCode":"37603","locality":"Holzminden","municipality":{"key":"03255023","name":"Holzminden, Stadt","type":"Stadt"},"district":{"key":"03255","name":"Holzminden","type":"Landkreis"},"federalState":{"key":"03","name":"Niedersachsen"}},{"name":"Erwin-Böhme-Str.","postalCode":"37603","locality":"Holzminden","municipality":{"key":"03255023","name":"Holzminden, Stadt","type":"Stadt"},"district":{"key":"03255","name":"Holzminden","type":"Landkreis"},"federalState":{"key":"03","name":"Niedersachsen"}},{"name":"Eulenweg","postalCode":"37603","locality":"Holzminden","municipality":{"key":"03255505","name":"Holzminden, gemfr. Gebiet","type":"Gemeindefreies_Gebiet_Unbewohnt"},"district":{"key":"03255","name":"Holzminden","type":"Landkreis"},"federalState":{"key":"03","name":"Niedersachsen"}},{"name":"Everstein","postalCode":"37603","locality":"Holzminden","municipality":{"key":"03255023","name":"Holzminden, Stadt","type":"Stadt"},"district":{"key":"03255","name":"Holzminden","type":"Landkreis"},"federalState":{"key":"03","name":"Niedersachsen"}},{"name":"Fahrenbreite","postalCode":"37603","locality":"Holzminden","municipality":{"key":"03255023","name":"Holzminden, Stadt","type":"Stadt"},"district":{"key":"03255","name":"Holzminden","type":"Landkreis"},"federalState":{"key":"03","name":"Niedersachsen"}},{"name":"Fasanenflug","postalCode":"37603","locality":"Holzminden","municipality":{"key":"03255023","name":"Holzminden, Stadt","type":"Stadt"},"district":{"key":"03255","name":"Holzminden","type":"Landkreis"},"federalState":{"key":"03","name":"Niedersachsen"}},{"name":"Feldblumenweg","postalCode":"37603","locality":"Holzminden","municipality":{"key":"03255023","name":"Holzminden, Stadt","type":"Stadt"},"district":{"key":"03255","name":"Holzminden","type":"Landkreis"},"federalState":{"key":"03","name":"Niedersachsen"}},{"name":"Feldstr.","postalCode":"37603","locality":"Holzminden","municipality":{"key":"03255023","name":"Holzminden, Stadt","type":"Stadt"},"district":{"key":"03255","name":"Holzminden","type":"Landkreis"},"federalState":{"key":"03","name":"Niedersachsen"}},{"name":"Finkenweg","postalCode":"37603","locality":"Holzminden","municipality":{"key":"03255023","name":"Holzminden, Stadt","type":"Stadt"},"district":{"key":"03255","name":"Holzminden","type":"Landkreis"},"federalState":{"key":"03","name":"Niedersachsen"}},{"name":"Fliederbusch","postalCode":"37603","locality":"Holzminden","municipality":{"key":"03255023","name":"Holzminden, Stadt","type":"Stadt"},"district":{"key":"03255","name":"Holzminden","type":"Landkreis"},"federalState":{"key":"03","name":"Niedersachsen"}},{"name":"Flüttenweg","postalCode":"37603","locality":"Holzminden","municipality":{"key":"03255505","name":"Holzminden, gemfr. Gebiet","type":"Gemeindefreies_Gebiet_Unbewohnt"},"district":{"key":"03255","name":"Holzminden","type":"Landkreis"},"federalState":{"key":"03","name":"Niedersachsen"}},{"name":"Fohlenplackener Str.","postalCode":"37603","locality":"Holzminden","municipality":{"key":"03255023","name":"Holzminden, Stadt","type":"Stadt"},"district":{"key":"03255","name":"Holzminden","type":"Landkreis"},"federalState":{"key":"03","name":"Niedersachsen"}},{"name":"Fontanestr.","postalCode":"37603","locality":"Holzminden","municipality":{"key":"03255023","name":"Holzminden, Stadt","type":"Stadt"},"district":{"key":"03255","name":"Holzminden","type":"Landkreis"},"federalState":{"key":"03","name":"Niedersachsen"}},{"name":"Försterstieg","postalCode":"37603","locality":"Holzminden","municipality":{"key":"03255023","name":"Holzminden, Stadt","type":"Stadt"},"district":{"key":"03255","name":"Holzminden","type":"Landkreis"},"federalState":{"key":"03","name":"Niedersachsen"}},{"name":"Forster Weg","postalCode":"37603","locality":"Holzminden","municipality":{"key":"03255023","name":"Holzminden, Stadt","type":"Stadt"},"district":{"key":"03255","name":"Holzminden","type":"Landkreis"},"federalState":{"key":"03","name":"Niedersachsen"}},{"name":"Forstgarten","postalCode":"37603","locality":"Holzminden","municipality":{"key":"03255023","name":"Holzminden, Stadt","type":"Stadt"},"district":{"key":"03255","name":"Holzminden","type":"Landkreis"},"federalState":{"key":"03","name":"Niedersachsen"}},{"name":"Franz-Liszt-Weg","postalCode":"37603","locality":"Holzminden","municipality":{"key":"03255023","name":"Holzminden, Stadt","type":"Stadt"},"district":{"key":"03255","name":"Holzminden","type":"Landkreis"},"federalState":{"key":"03","name":"Niedersachsen"}},{"name":"Fritz-Reuter-Weg","postalCode":"37603","locality":"Holzminden","municipality":{"key":"03255023","name":"Holzminden, Stadt","type":"Stadt"},"district":{"key":"03255","name":"Holzminden","type":"Landkreis"},"federalState":{"key":"03","name":"Niedersachsen"}},{"name":"Fröbelweg","postalCode":"37603","locality":"Holzminden","municipality":{"key":"03255023","name":"Holzminden, Stadt","type":"Stadt"},"district":{"key":"03255","name":"Holzminden","type":"Landkreis"},"federalState":{"key":"03","name":"Niedersachsen"}},{"name":"Fuchsfang","postalCode":"37603","locality":"Holzminden","municipality":{"key":"03255023","name":"Holzminden, Stadt","type":"Stadt"},"district":{"key":"03255","name":"Holzminden","type":"Landkreis"},"federalState":{"key":"03","name":"Niedersachsen"}},{"name":"Fürstenberger Allee","postalCode":"37603","locality":"Holzminden","municipality":{"key":"03255023","name":"Holzminden, Stadt","type":"Stadt"},"district":{"key":"03255","name":"Holzminden","type":"Landkreis"},"federalState":{"key":"03","name":"Niedersachsen"}},{"name":"Fürstenberger Str.","postalCode":"37603","locality":"Holzminden","municipality":{"key":"03255023","name":"Holzminden, Stadt","type":"Stadt"},"district":{"key":"03255","name":"Holzminden","type":"Landkreis"},"federalState":{"key":"03","name":"Niedersachsen"}},{"name":"Gartenweg","postalCode":"37619","locality":"Hehlen","municipality":{"key":"03255017","name":"Hehlen","type":"Kreisangehörige_Gemeinde"},"district":{"key":"03255","name":"Holzminden","type":"Landkreis"},"federalState":{"key":"03","name":"Niedersachsen"}},{"name":"Georg-Sander-Ring","postalCode":"37619","locality":"Hehlen","municipality":{"key":"03255017","name":"Hehlen","type":"Kreisangehörige_Gemeinde"},"district":{"key":"03255","name":"Holzminden","type":"Landkreis"},"federalState":{"key":"03","name":"Niedersachsen"}},{"name":"Gerberfahrt","postalCode":"37619","locality":"Hehlen","municipality":{"key":"03255017","name":"Hehlen","type":"Kreisangehörige_Gemeinde"},"district":{"key":"03255","name":"Holzminden","type":"Landkreis"},"federalState":{"key":"03","name":"Niedersachsen"}},{"name":"Hajener Str.","postalCode":"37619","locality":"Hehlen","municipality":{"key":"03255017","name":"Hehlen","type":"Kreisangehörige_Gemeinde"},"district":{"key":"03255","name":"Holzminden","type":"Landkreis"},"federalState":{"key":"03","name":"Niedersachsen"}},{"name":"Hauptstr.","postalCode":"37619","locality":"Hehlen","municipality":{"key":"03255017","name":"Hehlen","type":"Kreisangehörige_Gemeinde"},"district":{"key":"03255","name":"Holzminden","type":"Landkreis"},"federalState":{"key":"03","name":"Niedersachsen"}},{"name":"Hehlener Str.","postalCode":"37619","locality":"Hehlen","municipality":{"key":"03255017","name":"Hehlen","type":"Kreisangehörige_Gemeinde"},"district":{"key":"03255","name":"Holzminden","type":"Landkreis"},"federalState":{"key":"03","name":"Niedersachsen"}},{"name":"Heyener Str.","postalCode":"37619","locality":"Hehlen","municipality":{"key":"03255017","name":"Hehlen","type":"Kreisangehörige_Gemeinde"},"district":{"key":"03255","name":"Holzminden","type":"Landkreis"},"federalState":{"key":"03","name":"Niedersachsen"}},{"name":"Hoher Pforte","postalCode":"37619","locality":"Hehlen","municipality":{"key":"03255017","name":"Hehlen","type":"Kreisangehörige_Gemeinde"},"district":{"key":"03255","name":"Holzminden","type":"Landkreis"},"federalState":{"key":"03","name":"Niedersachsen"}},{"name":"Im Dorfe","postalCode":"37619","locality":"Hehlen","municipality":{"key":"03255017","name":"Hehlen","type":"Kreisangehörige_Gemeinde"},"district":{"key":"03255","name":"Holzminden","type":"Landkreis"},"federalState":{"key":"03","name":"Niedersachsen"}},{"name":"Im Felde","postalCode":"37619","locality":"Hehlen","municipality":{"key":"03255017","name":"Hehlen","type":"Kreisangehörige_Gemeinde"},"district":{"key":"03255","name":"Holzminden","type":"Landkreis"},"federalState":{"key":"03","name":"Niedersachsen"}},{"name":"Im Hagen","postalCode":"37619","locality":"Hehlen","municipality":{"key":"03255017","name":"Hehlen","type":"Kreisangehörige_Gemeinde"},"district":{"key":"03255","name":"Holzminden","type":"Landkreis"},"federalState":{"key":"03","name":"Niedersachsen"}},{"name":"Im Mittelfeld","postalCode":"37619","locality":"Hehlen","municipality":{"key":"03255017","name":"Hehlen","type":"Kreisangehörige_Gemeinde"},"district":{"key":"03255","name":"Holzminden","type":"Landkreis"},"federalState":{"key":"03","name":"Niedersachsen"}},{"name":"Im Winkel","postalCode":"37619","locality":"Hehlen","municipality":{"key":"03255017","name":"Hehlen","type":"Kreisangehörige_Gemeinde"},"district":{"key":"03255","name":"Holzminden","type":"Landkreis"},"federalState":{"key":"03","name":"Niedersachsen"}},{"name":"Jenaer Str.","postalCode":"37603","locality":"Holzminden","municipality":{"key":"03255023","name":"Holzminden, Stadt","type":"Stadt"},"district":{"key":"03255","name":"Holzminden","type":"Landkreis"},"federalState":{"key":"03","name":"Niedersachsen"}},{"name":"Johannismarkt","postalCode":"37603","locality":"Holzminden","municipality":{"key":"03255023","name":"Holzminden, Stadt","type":"Stadt"},"district":{"key":"03255","name":"Holzminden","type":"Landkreis"},"federalState":{"key":"03","name":"Niedersachsen"}},{"name":"Johannisstr.","postalCode":"37603","locality":"Holzminden","municipality":{"key":"03255023","name":"Holzminden, Stadt","type":"Stadt"},"district":{"key":"03255","name":"Holzminden","type":"Landkreis"},"federalState":{"key":"03","name":"Niedersachsen"}},{"name":"Jugendgarten","postalCode":"37603","locality":"Holzminden","municipality":{"key":"03255023","name":"Holzminden, Stadt","type":"Stadt"},"district":{"key":"03255","name":"Holzminden","type":"Landkreis"},"federalState":{"key":"03","name":"Niedersachsen"}},{"name":"Kalkwerksweg","postalCode":"37619","locality":"Hehlen","municipality":{"key":"03255017","name":"Hehlen","type":"Kreisangehörige_Gemeinde"},"district":{"key":"03255","name":"Holzminden","type":"Landkreis"},"federalState":{"key":"03","name":"Niedersachsen"}},{"name":"Kemnader Str.","postalCode":"37619","locality":"Hehlen","municipality":{"key":"03255017","name":"Hehlen","type":"Kreisangehörige_Gemeinde"},"district":{"key":"03255","name":"Holzminden","type":"Landkreis"},"federalState":{"key":"03","name":"Niedersachsen"}},{"name":"Langer Weg","postalCode":"37603","locality":"Holzminden","municipality":{"key":"03255505","name":"Holzminden, gemfr. Gebiet","type":"Gemeindefreies_Gebiet_Unbewohnt"},"district":{"key":"03255","name":"Holzminden","type":"Landkreis"},"federalState":{"key":"03","name":"Niedersachsen"}},{"name":"Laubhof","postalCode":"37603","locality":"Holzminden","municipality":{"key":"03255023","name":"Holzminden, Stadt","type":"Stadt"},"district":{"key":"03255","name":"Holzminden","type":"Landkreis"},"federalState":{"key":"03","name":"Niedersachsen"}},{"name":"Legatenstieg","postalCode":"37603","locality":"Holzminden","municipality":{"key":"03255023","name":"Holzminden, Stadt","type":"Stadt"},"district":{"key":"03255","name":"Holzminden","type":"Landkreis"},"federalState":{"key":"03","name":"Niedersachsen"}},{"name":"Lehmkuhle","postalCode":"37603","locality":"Holzminden","municipality":{"key":"03255023","name":"Holzminden, Stadt","type":"Stadt"},"district":{"key":"03255","name":"Holzminden","type":"Landkreis"},"federalState":{"key":"03","name":"Niedersachsen"}},{"name":"Lehne","postalCode":"37603","locality":"Holzminden","municipality":{"key":"03255023","name":"Holzminden, Stadt","type":"Stadt"},"district":{"key":"03255","name":"Holzminden","type":"Landkreis"},"federalState":{"key":"03","name":"Niedersachsen"}},{"name":"Leobschützer Str.","postalCode":"37603","locality":"Holzminden","municipality":{"key":"03255023","name":"Holzminden, Stadt","type":"Stadt"},"district":{"key":"03255","name":"Holzminden","type":"Landkreis"},"federalState":{"key":"03","name":"Niedersachsen"}},{"name":"Lessingweg","postalCode":"37603","locality":"Holzminden","municipality":{"key":"03255023","name":"Holzminden, Stadt","type":"Stadt"},"district":{"key":"03255","name":"Holzminden","type":"Landkreis"},"federalState":{"key":"03","name":"Niedersachsen"}},{"name":"Liebigstr.","postalCode":"37603","locality":"Holzminden","municipality":{"key":"03255023","name":"Holzminden, Stadt","type":"Stadt"},"district":{"key":"03255","name":"Holzminden","type":"Landkreis"},"federalState":{"key":"03","name":"Niedersachsen"}},{"name":"Liethstr.","postalCode":"37603","locality":"Holzminden","municipality":{"key":"03255023","name":"Holzminden, Stadt","type":"Stadt"},"district":{"key":"03255","name":"Holzminden","type":"Landkreis"},"federalState":{"key":"03","name":"Niedersachsen"}},{"name":"Ligusterweg","postalCode":"37603","locality":"Holzminden","municipality":{"key":"03255023","name":"Holzminden, Stadt","type":"Stadt"},"district":{"key":"03255","name":"Holzminden","type":"Landkreis"},"federalState":{"key":"03","name":"Niedersachsen"}},{"name":"Limkerecke","postalCode":"37603","locality":"Holzminden","municipality":{"key":"03255023","name":"Holzminden, Stadt","type":"Stadt"},"district":{"key":"03255","name":"Holzminden","type":"Landkreis"},"federalState":{"key":"03","name":"Niedersachsen"}},{"name":"Lindenallee","postalCode":"37603","locality":"Holzminden","municipality":{"key":"03255023","name":"Holzminden, Stadt","type":"Stadt"},"district":{"key":"03255","name":"Holzminden","type":"Landkreis"},"federalState":{"key":"03","name":"Niedersachsen"}},{"name":"Lindenstr.","postalCode":"37603","locality":"Holzminden","municipality":{"key":"03255023","name":"Holzminden, Stadt","type":"Stadt"},"district":{"key":"03255","name":"Holzminden","type":"Landkreis"},"federalState":{"key":"03","name":"Niedersachsen"}},{"name":"Lönsstr.","postalCode":"37603","locality":"Holzminden","municipality":{"key":"03255023","name":"Holzminden, Stadt","type":"Stadt"},"district":{"key":"03255","name":"Holzminden","type":"Landkreis"},"federalState":{"key":"03","name":"Niedersachsen"}},{"name":"Lortzingstr.","postalCode":"37603","locality":"Holzminden","municipality":{"key":"03255023","name":"Holzminden, Stadt","type":"Stadt"},"district":{"key":"03255","name":"Holzminden","type":"Landkreis"},"federalState":{"key":"03","name":"Niedersachsen"}},{"name":"Lüchtringer Allee","postalCode":"37603","locality":"Holzminden","municipality":{"key":"03255023","name":"Holzminden, Stadt","type":"Stadt"},"district":{"key":"03255","name":"Holzminden","type":"Landkreis"},"federalState":{"key":"03","name":"Niedersachsen"}},{"name":"Lüchtringer Weg","postalCode":"37603","locality":"Holzminden","municipality":{"key":"03255023","name":"Holzminden, Stadt","type":"Stadt"},"district":{"key":"03255","name":"Holzminden","type":"Landkreis"},"federalState":{"key":"03","name":"Niedersachsen"}},{"name":"Luisenstr.","postalCode":"37603","locality":"Holzminden","municipality":{"key":"03255023","name":"Holzminden, Stadt","type":"Stadt"},"district":{"key":"03255","name":"Holzminden","type":"Landkreis"},"federalState":{"key":"03","name":"Niedersachsen"}},{"name":"Lupinenweg","postalCode":"37603","locality":"Holzminden","municipality":{"key":"03255023","name":"Holzminden, Stadt","type":"Stadt"},"district":{"key":"03255","name":"Holzminden","type":"Landkreis"},"federalState":{"key":"03","name":"Niedersachsen"}},{"name":"Mastenweg","postalCode":"37619","locality":"Hehlen","municipality":{"key":"03255017","name":"Hehlen","type":"Kreisangehörige_Gemeinde"},"district":{"key":"03255","name":"Holzminden","type":"Landkreis"},"federalState":{"key":"03","name":"Niedersachsen"}},{"name":"Mühlenstr.","postalCode":"37619","locality":"Hehlen","municipality":{"key":"03255017","name":"Hehlen","type":"Kreisangehörige_Gemeinde"},"district":{"key":"03255","name":"Holzminden","type":"Landkreis"},"federalState":{"key":"03","name":"Niedersachsen"}},{"name":"Neue Str.","postalCode":"37619","locality":"Hehlen","municipality":{"key":"03255017","name":"Hehlen","type":"Kreisangehörige_Gemeinde"},"district":{"key":"03255","name":"Holzminden","type":"Landkreis"},"federalState":{"key":"03","name":"Niedersachsen"}},{"name":"Nordumgehung Bodenwerder","postalCode":"37619","locality":"Hehlen","municipality":{"key":"03255017","name":"Hehlen","type":"Kreisangehörige_Gemeinde"},"district":{"key":"03255","name":"Holzminden","type":"Landkreis"},"federalState":{"key":"03","name":"Niedersachsen"}},{"name":"Obere Str.","postalCode":"37619","locality":"Hehlen","municipality":{"key":"03255017","name":"Hehlen","type":"Kreisangehörige_Gemeinde"},"district":{"key":"03255","name":"Holzminden","type":"Landkreis"},"federalState":{"key":"03","name":"Niedersachsen"}},{"name":"Ostlandstr.","postalCode":"37619","locality":"Hehlen","municipality":{"key":"03255017","name":"Hehlen","type":"Kreisangehörige_Gemeinde"},"district":{"key":"03255","name":"Holzminden","type":"Landkreis"},"federalState":{"key":"03","name":"Niedersachsen"}},{"name":"Poststr.","postalCode":"37619","locality":"Hehlen","municipality":{"key":"03255017","name":"Hehlen","type":"Kreisangehörige_Gemeinde"},"district":{"key":"03255","name":"Holzminden","type":"Landkreis"},"federalState":{"key":"03","name":"Niedersachsen"}},{"name":"Quittenweg","postalCode":"37603","locality":"Holzminden","municipality":{"key":"03255023","name":"Holzminden, Stadt","type":"Stadt"},"district":{"key":"03255","name":"Holzminden","type":"Landkreis"},"federalState":{"key":"03","name":"Niedersachsen"}},{"name":"Reitemeyerweg","postalCode":"37619","locality":"Hehlen","municipality":{"key":"03255017","name":"Hehlen","type":"Kreisangehörige_Gemeinde"},"district":{"key":"03255","name":"Holzminden","type":"Landkreis"},"federalState":{"key":"03","name":"Niedersachsen"}},{"name":"Schäferbrink","postalCode":"37619","locality":"Hehlen","municipality":{"key":"03255017","name":"Hehlen","type":"Kreisangehörige_Gemeinde"},"district":{"key":"03255","name":"Holzminden","type":"Landkreis"},"federalState":{"key":"03","name":"Niedersachsen"}},{"name":"Schloßstr.","postalCode":"37619","locality":"Hehlen","municipality":{"key":"03255017","name":"Hehlen","type":"Kreisangehörige_Gemeinde"},"district":{"key":"03255","name":"Holzminden","type":"Landkreis"},"federalState":{"key":"03","name":"Niedersachsen"}},{"name":"Schulstr.","postalCode":"37619","locality":"Hehlen","municipality":{"key":"03255017","name":"Hehlen","type":"Kreisangehörige_Gemeinde"},"district":{"key":"03255","name":"Holzminden","type":"Landkreis"},"federalState":{"key":"03","name":"Niedersachsen"}},{"name":"Talstr.","postalCode":"37603","locality":"Holzminden","municipality":{"key":"03255023","name":"Holzminden, Stadt","type":"Stadt"},"district":{"key":"03255","name":"Holzminden","type":"Landkreis"},"federalState":{"key":"03","name":"Niedersachsen"}},{"name":"Teichstr.","postalCode":"37603","locality":"Holzminden","municipality":{"key":"03255023","name":"Holzminden, Stadt","type":"Stadt"},"district":{"key":"03255","name":"Holzminden","type":"Landkreis"},"federalState":{"key":"03","name":"Niedersachsen"}},{"name":"Theodor-Storm-Str.","postalCode":"37603","locality":"Holzminden","municipality":{"key":"03255023","name":"Holzminden, Stadt","type":"Stadt"},"district":{"key":"03255","name":"Holzminden","type":"Landkreis"},"federalState":{"key":"03","name":"Niedersachsen"}},{"name":"Thomaskirchweg","postalCode":"37603","locality":"Holzminden","municipality":{"key":"03255023","name":"Holzminden, Stadt","type":"Stadt"},"district":{"key":"03255","name":"Holzminden","type":"Landkreis"},"federalState":{"key":"03","name":"Niedersachsen"}},{"name":"Thüringer Weg","postalCode":"37603","locality":"Holzminden","municipality":{"key":"03255023","name":"Holzminden, Stadt","type":"Stadt"},"district":{"key":"03255","name":"Holzminden","type":"Landkreis"},"federalState":{"key":"03","name":"Niedersachsen"}},{"name":"Torfbruchstr.","postalCode":"37603","locality":"Holzminden","municipality":{"key":"03255023","name":"Holzminden, Stadt","type":"Stadt"},"district":{"key":"03255","name":"Holzminden","type":"Landkreis"},"federalState":{"key":"03","name":"Niedersachsen"}},{"name":"Torfhaus","postalCode":"37603","locality":"Holzminden","municipality":{"key":"03255023","name":"Holzminden, Stadt","type":"Stadt"},"district":{"key":"03255","name":"Holzminden","type":"Landkreis"},"federalState":{"key":"03","name":"Niedersachsen"}},{"name":"Trakehnerweg","postalCode":"37603","locality":"Holzminden","municipality":{"key":"03255023","name":"Holzminden, Stadt","type":"Stadt"},"district":{"key":"03255","name":"Holzminden","type":"Landkreis"},"federalState":{"key":"03","name":"Niedersachsen"}},{"name":"Trift","postalCode":"37603","locality":"Holzminden","municipality":{"key":"03255023","name":"Holzminden, Stadt","type":"Stadt"},"district":{"key":"03255","name":"Holzminden","type":"Landkreis"},"federalState":{"key":"03","name":"Niedersachsen"}},{"name":"Tünneckenhagen","postalCode":"37603","locality":"Holzminden","municipality":{"key":"03255023","name":"Holzminden, Stadt","type":"Stadt"},"district":{"key":"03255","name":"Holzminden","type":"Landkreis"},"federalState":{"key":"03","name":"Niedersachsen"}},{"name":"Untere Str.","postalCode":"37619","locality":"Hehlen","municipality":{"key":"03255017","name":"Hehlen","type":"Kreisangehörige_Gemeinde"},"district":{"key":"03255","name":"Holzminden","type":"Landkreis"},"federalState":{"key":"03","name":"Niedersachsen"}},{"name":"Viktoria-Luise-Weg","postalCode":"37603","locality":"Holzminden","municipality":{"key":"03255023","name":"Holzminden, Stadt","type":"Stadt"},"district":{"key":"03255","name":"Holzminden","type":"Landkreis"},"federalState":{"key":"03","name":"Niedersachsen"}},{"name":"Vogelherd","postalCode":"37603","locality":"Holzminden","municipality":{"key":"03255023","name":"Holzminden, Stadt","type":"Stadt"},"district":{"key":"03255","name":"Holzminden","type":"Landkreis"},"federalState":{"key":"03","name":"Niedersachsen"}},{"name":"Vogelsang","postalCode":"37603","locality":"Holzminden","municipality":{"key":"03255023","name":"Holzminden, Stadt","type":"Stadt"},"district":{"key":"03255","name":"Holzminden","type":"Landkreis"},"federalState":{"key":"03","name":"Niedersachsen"}},{"name":"Von-Langen-Allee","postalCode":"37603","locality":"Holzminden","municipality":{"key":"03255023","name":"Holzminden, Stadt","type":"Stadt"},"district":{"key":"03255","name":"Holzminden","type":"Landkreis"},"federalState":{"key":"03","name":"Niedersachsen"}},{"name":"Waldfrieden","postalCode":"37619","locality":"Hehlen","municipality":{"key":"03255017","name":"Hehlen","type":"Kreisangehörige_Gemeinde"},"district":{"key":"03255","name":"Holzminden","type":"Landkreis"},"federalState":{"key":"03","name":"Niedersachsen"}},{"name":"Weserblick","postalCode":"37619","locality":"Hehlen","municipality":{"key":"03255017","name":"Hehlen","type":"Kreisangehörige_Gemeinde"},"district":{"key":"03255","name":"Holzminden","type":"Landkreis"},"federalState":{"key":"03","name":"Niedersachsen"}},{"name":"Wiesenhang","postalCode":"37619","locality":"Hehlen","municipality":{"key":"03255017","name":"Hehlen","type":"Kreisangehörige_Gemeinde"},"district":{"key":"03255","name":"Holzminden","type":"Landkreis"},"federalState":{"key":"03","name":"Niedersachsen"}},{"name":"Wiesenweg","postalCode":"37619","locality":"Hehlen","municipality":{"key":"03255017","name":"Hehlen","type":"Kreisangehörige_Gemeinde"},"district":{"key":"03255","name":"Holzminden","type":"Landkreis"},"federalState":{"key":"03","name":"Niedersachsen"}},{"name":"Wolfskamp","postalCode":"37619","locality":"Hehlen","municipality":{"key":"03255017","name":"Hehlen","type":"Kreisangehörige_Gemeinde"},"district":{"key":"03255","name":"Holzminden","type":"Landkreis"},"federalState":{"key":"03","name":"Niedersachsen"}},{"name":"Zur Raute","postalCode":"37619","locality":"Hehlen","municipality":{"key":"03255017","name":"Hehlen","type":"Kreisangehörige_Gemeinde"},"district":{"key":"03255","name":"Holzminden","type":"Landkreis"},"federalState":{"key":"03","name":"Niedersachsen"}},{"name":"Über dem Born","postalCode":"37619","locality":"Hehlen","municipality":{"key":"03255017","name":"Hehlen","type":"Kreisangehörige_Gemeinde"},"district":{"key":"03255","name":"Holzminden","type":"Landkreis"},"federalState":{"key":"03","name":"Niedersachsen"}},{"name":"Über den Höfen","postalCode":"37619","locality":"Hehlen","municipality":{"key":"03255017","name":"Hehlen","type":"Kreisangehörige_Gemeinde"},"district":{"key":"03255","name":"Holzminden","type":"Landkreis"},"federalState":{"key":"03","name":"Niedersachsen"}},]