[{"name":"Ackerweg","postalCode":"09212","locality":"Limbach-Oberfrohna","municipality":{"key":"14524180","name":"Limbach-Oberfrohna, Stadt","type":"Stadt"},"district":{"key":"14524","name":"Zwickau","type":"Landkreis"},"federalState":{"key":"14","name":"Sachsen"}},{"name":"Ahornweg","postalCode":"09212","locality":"Limbach-Oberfrohna","municipality":{"key":"14524180","name":"Limbach-Oberfrohna, Stadt","type":"Stadt"},"district":{"key":"14524","name":"Zwickau","type":"Landkreis"},"federalState":{"key":"14","name":"Sachsen"}},{"name":"Albert-Einstein-Str.","postalCode":"09212","locality":"Limbach-Oberfrohna","municipality":{"key":"14524180","name":"Limbach-Oberfrohna, Stadt","type":"Stadt"},"district":{"key":"14524","name":"Zwickau","type":"Landkreis"},"federalState":{"key":"14","name":"Sachsen"}},{"name":"Albertstr.","postalCode":"09212","locality":"Limbach-Oberfrohna","municipality":{"key":"14524180","name":"Limbach-Oberfrohna, Stadt","type":"Stadt"},"district":{"key":"14524","name":"Zwickau","type":"Landkreis"},"federalState":{"key":"14","name":"Sachsen"}},{"name":"Am Bahnhof","postalCode":"09212","locality":"Limbach-Oberfrohna","municipality":{"key":"14524180","name":"Limbach-Oberfrohna, Stadt","type":"Stadt"},"district":{"key":"14524","name":"Zwickau","type":"Landkreis"},"federalState":{"key":"14","name":"Sachsen"}},{"name":"Am Berg","postalCode":"09212","locality":"Limbach-Oberfrohna","municipality":{"key":"14524180","name":"Limbach-Oberfrohna, Stadt","type":"Stadt"},"district":{"key":"14524","name":"Zwickau","type":"Landkreis"},"federalState":{"key":"14","name":"Sachsen"}},{"name":"Am Birkenhain","postalCode":"09212","locality":"Limbach-Oberfrohna","municipality":{"key":"14524180","name":"Limbach-Oberfrohna, Stadt","type":"Stadt"},"district":{"key":"14524","name":"Zwickau","type":"Landkreis"},"federalState":{"key":"14","name":"Sachsen"}},{"name":"Am Dorfteich","postalCode":"09212","locality":"Limbach-Oberfrohna","municipality":{"key":"14524180","name":"Limbach-Oberfrohna, Stadt","type":"Stadt"},"district":{"key":"14524","name":"Zwickau","type":"Landkreis"},"federalState":{"key":"14","name":"Sachsen"}},{"name":"Am Eichenwald","postalCode":"09212","locality":"Limbach-Oberfrohna","municipality":{"key":"14524180","name":"Limbach-Oberfrohna, Stadt","type":"Stadt"},"district":{"key":"14524","name":"Zwickau","type":"Landkreis"},"federalState":{"key":"14","name":"Sachsen"}},{"name":"Am Feldscheunenweg","postalCode":"09212","locality":"Limbach-Oberfrohna","municipality":{"key":"14524180","name":"Limbach-Oberfrohna, Stadt","type":"Stadt"},"district":{"key":"14524","name":"Zwickau","type":"Landkreis"},"federalState":{"key":"14","name":"Sachsen"}},{"name":"Am Feuerwehrdepot","postalCode":"09212","locality":"Limbach-Oberfrohna","municipality":{"key":"14524180","name":"Limbach-Oberfrohna, Stadt","type":"Stadt"},"district":{"key":"14524","name":"Zwickau","type":"Landkreis"},"federalState":{"key":"14","name":"Sachsen"}},{"name":"Am Försterhäuschen","postalCode":"09212","locality":"Limbach-Oberfrohna","municipality":{"key":"14524180","name":"Limbach-Oberfrohna, Stadt","type":"Stadt"},"district":{"key":"14524","name":"Zwickau","type":"Landkreis"},"federalState":{"key":"14","name":"Sachsen"}},{"name":"Am Frohnbach","postalCode":"09212","locality":"Limbach-Oberfrohna","municipality":{"key":"14524180","name":"Limbach-Oberfrohna, Stadt","type":"Stadt"},"district":{"key":"14524","name":"Zwickau","type":"Landkreis"},"federalState":{"key":"14","name":"Sachsen"}},{"name":"Am Gemeindewald","postalCode":"09212","locality":"Limbach-Oberfrohna","municipality":{"key":"14524180","name":"Limbach-Oberfrohna, Stadt","type":"Stadt"},"district":{"key":"14524","name":"Zwickau","type":"Landkreis"},"federalState":{"key":"14","name":"Sachsen"}},{"name":"Am Hang","postalCode":"09212","locality":"Limbach-Oberfrohna","municipality":{"key":"14524180","name":"Limbach-Oberfrohna, Stadt","type":"Stadt"},"district":{"key":"14524","name":"Zwickau","type":"Landkreis"},"federalState":{"key":"14","name":"Sachsen"}},{"name":"Am Hohen Busch","postalCode":"09212","locality":"Limbach-Oberfrohna","municipality":{"key":"14524180","name":"Limbach-Oberfrohna, Stadt","type":"Stadt"},"district":{"key":"14524","name":"Zwickau","type":"Landkreis"},"federalState":{"key":"14","name":"Sachsen"}},{"name":"Am Hohen Hain","postalCode":"09212","locality":"Limbach-Oberfrohna","municipality":{"key":"14524180","name":"Limbach-Oberfrohna, Stadt","type":"Stadt"},"district":{"key":"14524","name":"Zwickau","type":"Landkreis"},"federalState":{"key":"14","name":"Sachsen"}},{"name":"Am Jahnhaus","postalCode":"09212","locality":"Limbach-Oberfrohna","municipality":{"key":"14524180","name":"Limbach-Oberfrohna, Stadt","type":"Stadt"},"district":{"key":"14524","name":"Zwickau","type":"Landkreis"},"federalState":{"key":"14","name":"Sachsen"}},{"name":"Am Kirchberg","postalCode":"09212","locality":"Limbach-Oberfrohna","municipality":{"key":"14524180","name":"Limbach-Oberfrohna, Stadt","type":"Stadt"},"district":{"key":"14524","name":"Zwickau","type":"Landkreis"},"federalState":{"key":"14","name":"Sachsen"}},{"name":"Am Kirchhügel","postalCode":"09212","locality":"Limbach-Oberfrohna","municipality":{"key":"14524180","name":"Limbach-Oberfrohna, Stadt","type":"Stadt"},"district":{"key":"14524","name":"Zwickau","type":"Landkreis"},"federalState":{"key":"14","name":"Sachsen"}},{"name":"Am Kornfeld","postalCode":"09212","locality":"Limbach-Oberfrohna","municipality":{"key":"14524180","name":"Limbach-Oberfrohna, Stadt","type":"Stadt"},"district":{"key":"14524","name":"Zwickau","type":"Landkreis"},"federalState":{"key":"14","name":"Sachsen"}},{"name":"Am Limbacher Teichgebiet","postalCode":"09212","locality":"Limbach-Oberfrohna","municipality":{"key":"14524180","name":"Limbach-Oberfrohna, Stadt","type":"Stadt"},"district":{"key":"14524","name":"Zwickau","type":"Landkreis"},"federalState":{"key":"14","name":"Sachsen"}},{"name":"Am Lindnerhof","postalCode":"09212","locality":"Limbach-Oberfrohna","municipality":{"key":"14524180","name":"Limbach-Oberfrohna, Stadt","type":"Stadt"},"district":{"key":"14524","name":"Zwickau","type":"Landkreis"},"federalState":{"key":"14","name":"Sachsen"}},{"name":"Am Neuteich","postalCode":"09212","locality":"Limbach-Oberfrohna","municipality":{"key":"14524180","name":"Limbach-Oberfrohna, Stadt","type":"Stadt"},"district":{"key":"14524","name":"Zwickau","type":"Landkreis"},"federalState":{"key":"14","name":"Sachsen"}},{"name":"Am Oesterholz","postalCode":"09212","locality":"Limbach-Oberfrohna","municipality":{"key":"14524180","name":"Limbach-Oberfrohna, Stadt","type":"Stadt"},"district":{"key":"14524","name":"Zwickau","type":"Landkreis"},"federalState":{"key":"14","name":"Sachsen"}},{"name":"Am Pappelhain","postalCode":"09212","locality":"Limbach-Oberfrohna","municipality":{"key":"14524180","name":"Limbach-Oberfrohna, Stadt","type":"Stadt"},"district":{"key":"14524","name":"Zwickau","type":"Landkreis"},"federalState":{"key":"14","name":"Sachsen"}},{"name":"Am Pfarrbach","postalCode":"09212","locality":"Limbach-Oberfrohna","municipality":{"key":"14524180","name":"Limbach-Oberfrohna, Stadt","type":"Stadt"},"district":{"key":"14524","name":"Zwickau","type":"Landkreis"},"federalState":{"key":"14","name":"Sachsen"}},{"name":"Am Quirlbusch","postalCode":"09212","locality":"Limbach-Oberfrohna","municipality":{"key":"14524180","name":"Limbach-Oberfrohna, Stadt","type":"Stadt"},"district":{"key":"14524","name":"Zwickau","type":"Landkreis"},"federalState":{"key":"14","name":"Sachsen"}},{"name":"Am Rosenhof","postalCode":"09212","locality":"Limbach-Oberfrohna","municipality":{"key":"14524180","name":"Limbach-Oberfrohna, Stadt","type":"Stadt"},"district":{"key":"14524","name":"Zwickau","type":"Landkreis"},"federalState":{"key":"14","name":"Sachsen"}},{"name":"Am Schloß","postalCode":"09212","locality":"Limbach-Oberfrohna","municipality":{"key":"14524180","name":"Limbach-Oberfrohna, Stadt","type":"Stadt"},"district":{"key":"14524","name":"Zwickau","type":"Landkreis"},"federalState":{"key":"14","name":"Sachsen"}},{"name":"Am Schützteich","postalCode":"09212","locality":"Limbach-Oberfrohna","municipality":{"key":"14524180","name":"Limbach-Oberfrohna, Stadt","type":"Stadt"},"district":{"key":"14524","name":"Zwickau","type":"Landkreis"},"federalState":{"key":"14","name":"Sachsen"}},{"name":"Am Schweizerhof","postalCode":"09212","locality":"Limbach-Oberfrohna","municipality":{"key":"14524180","name":"Limbach-Oberfrohna, Stadt","type":"Stadt"},"district":{"key":"14524","name":"Zwickau","type":"Landkreis"},"federalState":{"key":"14","name":"Sachsen"}},{"name":"Am Sportplatz","postalCode":"09212","locality":"Limbach-Oberfrohna","municipality":{"key":"14524180","name":"Limbach-Oberfrohna, Stadt","type":"Stadt"},"district":{"key":"14524","name":"Zwickau","type":"Landkreis"},"federalState":{"key":"14","name":"Sachsen"}},{"name":"Am Stadtpark","postalCode":"09212","locality":"Limbach-Oberfrohna","municipality":{"key":"14524180","name":"Limbach-Oberfrohna, Stadt","type":"Stadt"},"district":{"key":"14524","name":"Zwickau","type":"Landkreis"},"federalState":{"key":"14","name":"Sachsen"}},{"name":"Am Steinbruch","postalCode":"09212","locality":"Limbach-Oberfrohna","municipality":{"key":"14524180","name":"Limbach-Oberfrohna, Stadt","type":"Stadt"},"district":{"key":"14524","name":"Zwickau","type":"Landkreis"},"federalState":{"key":"14","name":"Sachsen"}},{"name":"Am Südhang","postalCode":"09212","locality":"Limbach-Oberfrohna","municipality":{"key":"14524180","name":"Limbach-Oberfrohna, Stadt","type":"Stadt"},"district":{"key":"14524","name":"Zwickau","type":"Landkreis"},"federalState":{"key":"14","name":"Sachsen"}},{"name":"Am Tännigt","postalCode":"09212","locality":"Limbach-Oberfrohna","municipality":{"key":"14524180","name":"Limbach-Oberfrohna, Stadt","type":"Stadt"},"district":{"key":"14524","name":"Zwickau","type":"Landkreis"},"federalState":{"key":"14","name":"Sachsen"}},{"name":"Am Tor","postalCode":"09212","locality":"Limbach-Oberfrohna","municipality":{"key":"14524180","name":"Limbach-Oberfrohna, Stadt","type":"Stadt"},"district":{"key":"14524","name":"Zwickau","type":"Landkreis"},"federalState":{"key":"14","name":"Sachsen"}},{"name":"Am Ullersberg","postalCode":"09212","locality":"Limbach-Oberfrohna","municipality":{"key":"14524180","name":"Limbach-Oberfrohna, Stadt","type":"Stadt"},"district":{"key":"14524","name":"Zwickau","type":"Landkreis"},"federalState":{"key":"14","name":"Sachsen"}},{"name":"An den Teichen","postalCode":"09212","locality":"Limbach-Oberfrohna","municipality":{"key":"14524180","name":"Limbach-Oberfrohna, Stadt","type":"Stadt"},"district":{"key":"14524","name":"Zwickau","type":"Landkreis"},"federalState":{"key":"14","name":"Sachsen"}},{"name":"An der Alten Färberei","postalCode":"09212","locality":"Limbach-Oberfrohna","municipality":{"key":"14524180","name":"Limbach-Oberfrohna, Stadt","type":"Stadt"},"district":{"key":"14524","name":"Zwickau","type":"Landkreis"},"federalState":{"key":"14","name":"Sachsen"}},{"name":"An der Gärtnerei","postalCode":"09212","locality":"Limbach-Oberfrohna","municipality":{"key":"14524180","name":"Limbach-Oberfrohna, Stadt","type":"Stadt"},"district":{"key":"14524","name":"Zwickau","type":"Landkreis"},"federalState":{"key":"14","name":"Sachsen"}},{"name":"An der Großsporthalle","postalCode":"09212","locality":"Limbach-Oberfrohna","municipality":{"key":"14524180","name":"Limbach-Oberfrohna, Stadt","type":"Stadt"},"district":{"key":"14524","name":"Zwickau","type":"Landkreis"},"federalState":{"key":"14","name":"Sachsen"}},{"name":"An der Hofwiese","postalCode":"09212","locality":"Limbach-Oberfrohna","municipality":{"key":"14524180","name":"Limbach-Oberfrohna, Stadt","type":"Stadt"},"district":{"key":"14524","name":"Zwickau","type":"Landkreis"},"federalState":{"key":"14","name":"Sachsen"}},{"name":"An der Hopfendarre","postalCode":"09212","locality":"Limbach-Oberfrohna","municipality":{"key":"14524180","name":"Limbach-Oberfrohna, Stadt","type":"Stadt"},"district":{"key":"14524","name":"Zwickau","type":"Landkreis"},"federalState":{"key":"14","name":"Sachsen"}},{"name":"An der Klausmühle","postalCode":"09212","locality":"Limbach-Oberfrohna","municipality":{"key":"14524180","name":"Limbach-Oberfrohna, Stadt","type":"Stadt"},"district":{"key":"14524","name":"Zwickau","type":"Landkreis"},"federalState":{"key":"14","name":"Sachsen"}},{"name":"An der Stadtkirche","postalCode":"09212","locality":"Limbach-Oberfrohna","municipality":{"key":"14524180","name":"Limbach-Oberfrohna, Stadt","type":"Stadt"},"district":{"key":"14524","name":"Zwickau","type":"Landkreis"},"federalState":{"key":"14","name":"Sachsen"}},{"name":"Anna-Esche-Gäßchen","postalCode":"09212","locality":"Limbach-Oberfrohna","municipality":{"key":"14524180","name":"Limbach-Oberfrohna, Stadt","type":"Stadt"},"district":{"key":"14524","name":"Zwickau","type":"Landkreis"},"federalState":{"key":"14","name":"Sachsen"}},{"name":"Anna-Esche-Str.","postalCode":"09212","locality":"Limbach-Oberfrohna","municipality":{"key":"14524180","name":"Limbach-Oberfrohna, Stadt","type":"Stadt"},"district":{"key":"14524","name":"Zwickau","type":"Landkreis"},"federalState":{"key":"14","name":"Sachsen"}},{"name":"Anton-Günther-Str.","postalCode":"09212","locality":"Limbach-Oberfrohna","municipality":{"key":"14524180","name":"Limbach-Oberfrohna, Stadt","type":"Stadt"},"district":{"key":"14524","name":"Zwickau","type":"Landkreis"},"federalState":{"key":"14","name":"Sachsen"}},{"name":"Bachgasse","postalCode":"09212","locality":"Limbach-Oberfrohna","municipality":{"key":"14524180","name":"Limbach-Oberfrohna, Stadt","type":"Stadt"},"district":{"key":"14524","name":"Zwickau","type":"Landkreis"},"federalState":{"key":"14","name":"Sachsen"}},{"name":"Bachstr.","postalCode":"09212","locality":"Limbach-Oberfrohna","municipality":{"key":"14524180","name":"Limbach-Oberfrohna, Stadt","type":"Stadt"},"district":{"key":"14524","name":"Zwickau","type":"Landkreis"},"federalState":{"key":"14","name":"Sachsen"}},{"name":"Bahnhof","postalCode":"09212","locality":"Limbach-Oberfrohna","municipality":{"key":"14524180","name":"Limbach-Oberfrohna, Stadt","type":"Stadt"},"district":{"key":"14524","name":"Zwickau","type":"Landkreis"},"federalState":{"key":"14","name":"Sachsen"}},{"name":"Bahnhofstr.","postalCode":"09212","locality":"Limbach-Oberfrohna","municipality":{"key":"14524180","name":"Limbach-Oberfrohna, Stadt","type":"Stadt"},"district":{"key":"14524","name":"Zwickau","type":"Landkreis"},"federalState":{"key":"14","name":"Sachsen"}},{"name":"Bauhofstr.","postalCode":"09212","locality":"Limbach-Oberfrohna","municipality":{"key":"14524180","name":"Limbach-Oberfrohna, Stadt","type":"Stadt"},"district":{"key":"14524","name":"Zwickau","type":"Landkreis"},"federalState":{"key":"14","name":"Sachsen"}},{"name":"Baumgartenweg","postalCode":"09212","locality":"Limbach-Oberfrohna","municipality":{"key":"14524180","name":"Limbach-Oberfrohna, Stadt","type":"Stadt"},"district":{"key":"14524","name":"Zwickau","type":"Landkreis"},"federalState":{"key":"14","name":"Sachsen"}},{"name":"Bergstr.","postalCode":"09212","locality":"Limbach-Oberfrohna","municipality":{"key":"14524180","name":"Limbach-Oberfrohna, Stadt","type":"Stadt"},"district":{"key":"14524","name":"Zwickau","type":"Landkreis"},"federalState":{"key":"14","name":"Sachsen"}},{"name":"Bernhardstr.","postalCode":"09212","locality":"Limbach-Oberfrohna","municipality":{"key":"14524180","name":"Limbach-Oberfrohna, Stadt","type":"Stadt"},"district":{"key":"14524","name":"Zwickau","type":"Landkreis"},"federalState":{"key":"14","name":"Sachsen"}},{"name":"Birken","postalCode":"09212","locality":"Limbach-Oberfrohna","municipality":{"key":"14524180","name":"Limbach-Oberfrohna, Stadt","type":"Stadt"},"district":{"key":"14524","name":"Zwickau","type":"Landkreis"},"federalState":{"key":"14","name":"Sachsen"}},{"name":"Birkenweg","postalCode":"09212","locality":"Limbach-Oberfrohna","municipality":{"key":"14524180","name":"Limbach-Oberfrohna, Stadt","type":"Stadt"},"district":{"key":"14524","name":"Zwickau","type":"Landkreis"},"federalState":{"key":"14","name":"Sachsen"}},{"name":"Blumenweg","postalCode":"09212","locality":"Limbach-Oberfrohna","municipality":{"key":"14524180","name":"Limbach-Oberfrohna, Stadt","type":"Stadt"},"district":{"key":"14524","name":"Zwickau","type":"Landkreis"},"federalState":{"key":"14","name":"Sachsen"}},{"name":"Bodenreform","postalCode":"09212","locality":"Limbach-Oberfrohna","municipality":{"key":"14524180","name":"Limbach-Oberfrohna, Stadt","type":"Stadt"},"district":{"key":"14524","name":"Zwickau","type":"Landkreis"},"federalState":{"key":"14","name":"Sachsen"}},{"name":"Bräunsdorfer Allee","postalCode":"09212","locality":"Limbach-Oberfrohna","municipality":{"key":"14524180","name":"Limbach-Oberfrohna, Stadt","type":"Stadt"},"district":{"key":"14524","name":"Zwickau","type":"Landkreis"},"federalState":{"key":"14","name":"Sachsen"}},{"name":"Bräunsdorfer Str.","postalCode":"09212","locality":"Limbach-Oberfrohna","municipality":{"key":"14524180","name":"Limbach-Oberfrohna, Stadt","type":"Stadt"},"district":{"key":"14524","name":"Zwickau","type":"Landkreis"},"federalState":{"key":"14","name":"Sachsen"}},{"name":"Brunnenstr.","postalCode":"09212","locality":"Limbach-Oberfrohna","municipality":{"key":"14524180","name":"Limbach-Oberfrohna, Stadt","type":"Stadt"},"district":{"key":"14524","name":"Zwickau","type":"Landkreis"},"federalState":{"key":"14","name":"Sachsen"}},{"name":"Buchenweg","postalCode":"09212","locality":"Limbach-Oberfrohna","municipality":{"key":"14524180","name":"Limbach-Oberfrohna, Stadt","type":"Stadt"},"district":{"key":"14524","name":"Zwickau","type":"Landkreis"},"federalState":{"key":"14","name":"Sachsen"}},{"name":"Burgstädter Str.","postalCode":"09212","locality":"Limbach-Oberfrohna","municipality":{"key":"14524180","name":"Limbach-Oberfrohna, Stadt","type":"Stadt"},"district":{"key":"14524","name":"Zwickau","type":"Landkreis"},"federalState":{"key":"14","name":"Sachsen"}},{"name":"Chemnitzer Str.","postalCode":"09212","locality":"Limbach-Oberfrohna","municipality":{"key":"14524180","name":"Limbach-Oberfrohna, Stadt","type":"Stadt"},"district":{"key":"14524","name":"Zwickau","type":"Landkreis"},"federalState":{"key":"14","name":"Sachsen"}},{"name":"Christophstr.","postalCode":"09212","locality":"Limbach-Oberfrohna","municipality":{"key":"14524180","name":"Limbach-Oberfrohna, Stadt","type":"Stadt"},"district":{"key":"14524","name":"Zwickau","type":"Landkreis"},"federalState":{"key":"14","name":"Sachsen"}},{"name":"Cranachstr.","postalCode":"09212","locality":"Limbach-Oberfrohna","municipality":{"key":"14524180","name":"Limbach-Oberfrohna, Stadt","type":"Stadt"},"district":{"key":"14524","name":"Zwickau","type":"Landkreis"},"federalState":{"key":"14","name":"Sachsen"}},{"name":"Damaschkestr.","postalCode":"09212","locality":"Limbach-Oberfrohna","municipality":{"key":"14524180","name":"Limbach-Oberfrohna, Stadt","type":"Stadt"},"district":{"key":"14524","name":"Zwickau","type":"Landkreis"},"federalState":{"key":"14","name":"Sachsen"}},{"name":"Doppelgasse","postalCode":"09212","locality":"Limbach-Oberfrohna","municipality":{"key":"14524180","name":"Limbach-Oberfrohna, Stadt","type":"Stadt"},"district":{"key":"14524","name":"Zwickau","type":"Landkreis"},"federalState":{"key":"14","name":"Sachsen"}},{"name":"Dorfstr.","postalCode":"09212","locality":"Limbach-Oberfrohna","municipality":{"key":"14524180","name":"Limbach-Oberfrohna, Stadt","type":"Stadt"},"district":{"key":"14524","name":"Zwickau","type":"Landkreis"},"federalState":{"key":"14","name":"Sachsen"}},{"name":"Dorotheenstr.","postalCode":"09212","locality":"Limbach-Oberfrohna","municipality":{"key":"14524180","name":"Limbach-Oberfrohna, Stadt","type":"Stadt"},"district":{"key":"14524","name":"Zwickau","type":"Landkreis"},"federalState":{"key":"14","name":"Sachsen"}},{"name":"Dr.-Goerdeler-Str.","postalCode":"09212","locality":"Limbach-Oberfrohna","municipality":{"key":"14524180","name":"Limbach-Oberfrohna, Stadt","type":"Stadt"},"district":{"key":"14524","name":"Zwickau","type":"Landkreis"},"federalState":{"key":"14","name":"Sachsen"}},{"name":"Dr.-Neideck-Str.","postalCode":"09212","locality":"Limbach-Oberfrohna","municipality":{"key":"14524180","name":"Limbach-Oberfrohna, Stadt","type":"Stadt"},"district":{"key":"14524","name":"Zwickau","type":"Landkreis"},"federalState":{"key":"14","name":"Sachsen"}},{"name":"Durchgangsweg","postalCode":"09212","locality":"Limbach-Oberfrohna","municipality":{"key":"14524180","name":"Limbach-Oberfrohna, Stadt","type":"Stadt"},"district":{"key":"14524","name":"Zwickau","type":"Landkreis"},"federalState":{"key":"14","name":"Sachsen"}},{"name":"Dürerplatz","postalCode":"09212","locality":"Limbach-Oberfrohna","municipality":{"key":"14524180","name":"Limbach-Oberfrohna, Stadt","type":"Stadt"},"district":{"key":"14524","name":"Zwickau","type":"Landkreis"},"federalState":{"key":"14","name":"Sachsen"}},{"name":"Eichelbergstr.","postalCode":"09212","locality":"Limbach-Oberfrohna","municipality":{"key":"14524180","name":"Limbach-Oberfrohna, Stadt","type":"Stadt"},"district":{"key":"14524","name":"Zwickau","type":"Landkreis"},"federalState":{"key":"14","name":"Sachsen"}},{"name":"Einsamkeit","postalCode":"09212","locality":"Limbach-Oberfrohna","municipality":{"key":"14524180","name":"Limbach-Oberfrohna, Stadt","type":"Stadt"},"district":{"key":"14524","name":"Zwickau","type":"Landkreis"},"federalState":{"key":"14","name":"Sachsen"}},{"name":"Färberweg","postalCode":"09212","locality":"Limbach-Oberfrohna","municipality":{"key":"14524180","name":"Limbach-Oberfrohna, Stadt","type":"Stadt"},"district":{"key":"14524","name":"Zwickau","type":"Landkreis"},"federalState":{"key":"14","name":"Sachsen"}},{"name":"Feldsteig","postalCode":"09212","locality":"Limbach-Oberfrohna","municipality":{"key":"14524180","name":"Limbach-Oberfrohna, Stadt","type":"Stadt"},"district":{"key":"14524","name":"Zwickau","type":"Landkreis"},"federalState":{"key":"14","name":"Sachsen"}},{"name":"Feldstr.","postalCode":"09212","locality":"Limbach-Oberfrohna","municipality":{"key":"14524180","name":"Limbach-Oberfrohna, Stadt","type":"Stadt"},"district":{"key":"14524","name":"Zwickau","type":"Landkreis"},"federalState":{"key":"14","name":"Sachsen"}},{"name":"Feldweg","postalCode":"09212","locality":"Limbach-Oberfrohna","municipality":{"key":"14524180","name":"Limbach-Oberfrohna, Stadt","type":"Stadt"},"district":{"key":"14524","name":"Zwickau","type":"Landkreis"},"federalState":{"key":"14","name":"Sachsen"}},{"name":"Fichtenweg","postalCode":"09212","locality":"Limbach-Oberfrohna","municipality":{"key":"14524180","name":"Limbach-Oberfrohna, Stadt","type":"Stadt"},"district":{"key":"14524","name":"Zwickau","type":"Landkreis"},"federalState":{"key":"14","name":"Sachsen"}},{"name":"Fichtestr.","postalCode":"09212","locality":"Limbach-Oberfrohna","municipality":{"key":"14524180","name":"Limbach-Oberfrohna, Stadt","type":"Stadt"},"district":{"key":"14524","name":"Zwickau","type":"Landkreis"},"federalState":{"key":"14","name":"Sachsen"}},{"name":"Folgenstr.","postalCode":"09212","locality":"Limbach-Oberfrohna","municipality":{"key":"14524180","name":"Limbach-Oberfrohna, Stadt","type":"Stadt"},"district":{"key":"14524","name":"Zwickau","type":"Landkreis"},"federalState":{"key":"14","name":"Sachsen"}},{"name":"Fontanestr.","postalCode":"09212","locality":"Limbach-Oberfrohna","municipality":{"key":"14524180","name":"Limbach-Oberfrohna, Stadt","type":"Stadt"},"district":{"key":"14524","name":"Zwickau","type":"Landkreis"},"federalState":{"key":"14","name":"Sachsen"}},{"name":"Friedrichstr.","postalCode":"09212","locality":"Limbach-Oberfrohna","municipality":{"key":"14524180","name":"Limbach-Oberfrohna, Stadt","type":"Stadt"},"district":{"key":"14524","name":"Zwickau","type":"Landkreis"},"federalState":{"key":"14","name":"Sachsen"}},{"name":"Friesenweg","postalCode":"09212","locality":"Limbach-Oberfrohna","municipality":{"key":"14524180","name":"Limbach-Oberfrohna, Stadt","type":"Stadt"},"district":{"key":"14524","name":"Zwickau","type":"Landkreis"},"federalState":{"key":"14","name":"Sachsen"}},{"name":"Frohnbachstr.","postalCode":"09212","locality":"Limbach-Oberfrohna","municipality":{"key":"14524180","name":"Limbach-Oberfrohna, Stadt","type":"Stadt"},"district":{"key":"14524","name":"Zwickau","type":"Landkreis"},"federalState":{"key":"14","name":"Sachsen"}},{"name":"Froschweg","postalCode":"09212","locality":"Limbach-Oberfrohna","municipality":{"key":"14524180","name":"Limbach-Oberfrohna, Stadt","type":"Stadt"},"district":{"key":"14524","name":"Zwickau","type":"Landkreis"},"federalState":{"key":"14","name":"Sachsen"}},{"name":"Gabelsberger Str.","postalCode":"09212","locality":"Limbach-Oberfrohna","municipality":{"key":"14524180","name":"Limbach-Oberfrohna, Stadt","type":"Stadt"},"district":{"key":"14524","name":"Zwickau","type":"Landkreis"},"federalState":{"key":"14","name":"Sachsen"}},{"name":"Gartenkolonie","postalCode":"09212","locality":"Limbach-Oberfrohna","municipality":{"key":"14524180","name":"Limbach-Oberfrohna, Stadt","type":"Stadt"},"district":{"key":"14524","name":"Zwickau","type":"Landkreis"},"federalState":{"key":"14","name":"Sachsen"}},{"name":"Gartenstr.","postalCode":"09212","locality":"Limbach-Oberfrohna","municipality":{"key":"14524180","name":"Limbach-Oberfrohna, Stadt","type":"Stadt"},"district":{"key":"14524","name":"Zwickau","type":"Landkreis"},"federalState":{"key":"14","name":"Sachsen"}},{"name":"Gartenweg","postalCode":"09212","locality":"Limbach-Oberfrohna","municipality":{"key":"14524180","name":"Limbach-Oberfrohna, Stadt","type":"Stadt"},"district":{"key":"14524","name":"Zwickau","type":"Landkreis"},"federalState":{"key":"14","name":"Sachsen"}},{"name":"Georgstr.","postalCode":"09212","locality":"Limbach-Oberfrohna","municipality":{"key":"14524180","name":"Limbach-Oberfrohna, Stadt","type":"Stadt"},"district":{"key":"14524","name":"Zwickau","type":"Landkreis"},"federalState":{"key":"14","name":"Sachsen"}},{"name":"Gert-Hofmann-Str.","postalCode":"09212","locality":"Limbach-Oberfrohna","municipality":{"key":"14524180","name":"Limbach-Oberfrohna, Stadt","type":"Stadt"},"district":{"key":"14524","name":"Zwickau","type":"Landkreis"},"federalState":{"key":"14","name":"Sachsen"}},{"name":"Gießerweg","postalCode":"09212","locality":"Limbach-Oberfrohna","municipality":{"key":"14524180","name":"Limbach-Oberfrohna, Stadt","type":"Stadt"},"district":{"key":"14524","name":"Zwickau","type":"Landkreis"},"federalState":{"key":"14","name":"Sachsen"}},{"name":"Goethestr.","postalCode":"09212","locality":"Limbach-Oberfrohna","municipality":{"key":"14524180","name":"Limbach-Oberfrohna, Stadt","type":"Stadt"},"district":{"key":"14524","name":"Zwickau","type":"Landkreis"},"federalState":{"key":"14","name":"Sachsen"}},{"name":"Goetheweg","postalCode":"09212","locality":"Limbach-Oberfrohna","municipality":{"key":"14524180","name":"Limbach-Oberfrohna, Stadt","type":"Stadt"},"district":{"key":"14524","name":"Zwickau","type":"Landkreis"},"federalState":{"key":"14","name":"Sachsen"}},{"name":"Goldene Aue","postalCode":"09212","locality":"Limbach-Oberfrohna","municipality":{"key":"14524180","name":"Limbach-Oberfrohna, Stadt","type":"Stadt"},"district":{"key":"14524","name":"Zwickau","type":"Landkreis"},"federalState":{"key":"14","name":"Sachsen"}},{"name":"Grenzstr.","postalCode":"09212","locality":"Limbach-Oberfrohna","municipality":{"key":"14524180","name":"Limbach-Oberfrohna, Stadt","type":"Stadt"},"district":{"key":"14524","name":"Zwickau","type":"Landkreis"},"federalState":{"key":"14","name":"Sachsen"}},{"name":"Grünaer Str.","postalCode":"09212","locality":"Limbach-Oberfrohna","municipality":{"key":"14524180","name":"Limbach-Oberfrohna, Stadt","type":"Stadt"},"district":{"key":"14524","name":"Zwickau","type":"Landkreis"},"federalState":{"key":"14","name":"Sachsen"}},{"name":"Grünlandweg","postalCode":"09212","locality":"Limbach-Oberfrohna","municipality":{"key":"14524180","name":"Limbach-Oberfrohna, Stadt","type":"Stadt"},"district":{"key":"14524","name":"Zwickau","type":"Landkreis"},"federalState":{"key":"14","name":"Sachsen"}},{"name":"Grützmühlenweg","postalCode":"09212","locality":"Limbach-Oberfrohna","municipality":{"key":"14524180","name":"Limbach-Oberfrohna, Stadt","type":"Stadt"},"district":{"key":"14524","name":"Zwickau","type":"Landkreis"},"federalState":{"key":"14","name":"Sachsen"}},{"name":"Hainstr.","postalCode":"09212","locality":"Limbach-Oberfrohna","municipality":{"key":"14524180","name":"Limbach-Oberfrohna, Stadt","type":"Stadt"},"district":{"key":"14524","name":"Zwickau","type":"Landkreis"},"federalState":{"key":"14","name":"Sachsen"}},{"name":"Hainweg","postalCode":"09212","locality":"Limbach-Oberfrohna","municipality":{"key":"14524180","name":"Limbach-Oberfrohna, Stadt","type":"Stadt"},"district":{"key":"14524","name":"Zwickau","type":"Landkreis"},"federalState":{"key":"14","name":"Sachsen"}},{"name":"Hambacher Str.","postalCode":"09212","locality":"Limbach-Oberfrohna","municipality":{"key":"14524180","name":"Limbach-Oberfrohna, Stadt","type":"Stadt"},"district":{"key":"14524","name":"Zwickau","type":"Landkreis"},"federalState":{"key":"14","name":"Sachsen"}},{"name":"Hartmannsdorfer Str.","postalCode":"09212","locality":"Limbach-Oberfrohna","municipality":{"key":"14524180","name":"Limbach-Oberfrohna, Stadt","type":"Stadt"},"district":{"key":"14524","name":"Zwickau","type":"Landkreis"},"federalState":{"key":"14","name":"Sachsen"}},{"name":"Hauptstr.","postalCode":"09212","locality":"Limbach-Oberfrohna","municipality":{"key":"14524180","name":"Limbach-Oberfrohna, Stadt","type":"Stadt"},"district":{"key":"14524","name":"Zwickau","type":"Landkreis"},"federalState":{"key":"14","name":"Sachsen"}},{"name":"Hauptweg","postalCode":"09212","locality":"Limbach-Oberfrohna","municipality":{"key":"14524180","name":"Limbach-Oberfrohna, Stadt","type":"Stadt"},"district":{"key":"14524","name":"Zwickau","type":"Landkreis"},"federalState":{"key":"14","name":"Sachsen"}},{"name":"Hechinger Str.","postalCode":"09212","locality":"Limbach-Oberfrohna","municipality":{"key":"14524180","name":"Limbach-Oberfrohna, Stadt","type":"Stadt"},"district":{"key":"14524","name":"Zwickau","type":"Landkreis"},"federalState":{"key":"14","name":"Sachsen"}},{"name":"Heinestr.","postalCode":"09212","locality":"Limbach-Oberfrohna","municipality":{"key":"14524180","name":"Limbach-Oberfrohna, Stadt","type":"Stadt"},"district":{"key":"14524","name":"Zwickau","type":"Landkreis"},"federalState":{"key":"14","name":"Sachsen"}},{"name":"Heinrich-Heine-Str.","postalCode":"09212","locality":"Limbach-Oberfrohna","municipality":{"key":"14524180","name":"Limbach-Oberfrohna, Stadt","type":"Stadt"},"district":{"key":"14524","name":"Zwickau","type":"Landkreis"},"federalState":{"key":"14","name":"Sachsen"}},{"name":"Heinrich-Mauersberger-Ring","postalCode":"09212","locality":"Limbach-Oberfrohna","municipality":{"key":"14524180","name":"Limbach-Oberfrohna, Stadt","type":"Stadt"},"district":{"key":"14524","name":"Zwickau","type":"Landkreis"},"federalState":{"key":"14","name":"Sachsen"}},{"name":"Heinrichstr.","postalCode":"09212","locality":"Limbach-Oberfrohna","municipality":{"key":"14524180","name":"Limbach-Oberfrohna, Stadt","type":"Stadt"},"district":{"key":"14524","name":"Zwickau","type":"Landkreis"},"federalState":{"key":"14","name":"Sachsen"}},{"name":"Helenenstr.","postalCode":"09212","locality":"Limbach-Oberfrohna","municipality":{"key":"14524180","name":"Limbach-Oberfrohna, Stadt","type":"Stadt"},"district":{"key":"14524","name":"Zwickau","type":"Landkreis"},"federalState":{"key":"14","name":"Sachsen"}},{"name":"Herrnsdorfer Str.","postalCode":"09212","locality":"Limbach-Oberfrohna","municipality":{"key":"14524180","name":"Limbach-Oberfrohna, Stadt","type":"Stadt"},"district":{"key":"14524","name":"Zwickau","type":"Landkreis"},"federalState":{"key":"14","name":"Sachsen"}},{"name":"Hohensteiner Str.","postalCode":"09212","locality":"Limbach-Oberfrohna","municipality":{"key":"14524180","name":"Limbach-Oberfrohna, Stadt","type":"Stadt"},"district":{"key":"14524","name":"Zwickau","type":"Landkreis"},"federalState":{"key":"14","name":"Sachsen"}},{"name":"Hoher Hain","postalCode":"09212","locality":"Limbach-Oberfrohna","municipality":{"key":"14524180","name":"Limbach-Oberfrohna, Stadt","type":"Stadt"},"district":{"key":"14524","name":"Zwickau","type":"Landkreis"},"federalState":{"key":"14","name":"Sachsen"}},{"name":"Hoher Weg","postalCode":"09212","locality":"Limbach-Oberfrohna","municipality":{"key":"14524180","name":"Limbach-Oberfrohna, Stadt","type":"Stadt"},"district":{"key":"14524","name":"Zwickau","type":"Landkreis"},"federalState":{"key":"14","name":"Sachsen"}},{"name":"Hohe Str.","postalCode":"09212","locality":"Limbach-Oberfrohna","municipality":{"key":"14524180","name":"Limbach-Oberfrohna, Stadt","type":"Stadt"},"district":{"key":"14524","name":"Zwickau","type":"Landkreis"},"federalState":{"key":"14","name":"Sachsen"}},{"name":"Hohlweg","postalCode":"09212","locality":"Limbach-Oberfrohna","municipality":{"key":"14524180","name":"Limbach-Oberfrohna, Stadt","type":"Stadt"},"district":{"key":"14524","name":"Zwickau","type":"Landkreis"},"federalState":{"key":"14","name":"Sachsen"}},{"name":"Hölzels Weg","postalCode":"09212","locality":"Limbach-Oberfrohna","municipality":{"key":"14524180","name":"Limbach-Oberfrohna, Stadt","type":"Stadt"},"district":{"key":"14524","name":"Zwickau","type":"Landkreis"},"federalState":{"key":"14","name":"Sachsen"}},{"name":"Holzmühlenstr.","postalCode":"09212","locality":"Limbach-Oberfrohna","municipality":{"key":"14524180","name":"Limbach-Oberfrohna, Stadt","type":"Stadt"},"district":{"key":"14524","name":"Zwickau","type":"Landkreis"},"federalState":{"key":"14","name":"Sachsen"}},{"name":"Hopfenweg","postalCode":"09212","locality":"Limbach-Oberfrohna","municipality":{"key":"14524180","name":"Limbach-Oberfrohna, Stadt","type":"Stadt"},"district":{"key":"14524","name":"Zwickau","type":"Landkreis"},"federalState":{"key":"14","name":"Sachsen"}},{"name":"Horst-Strohbach-Str.","postalCode":"09212","locality":"Limbach-Oberfrohna","municipality":{"key":"14524180","name":"Limbach-Oberfrohna, Stadt","type":"Stadt"},"district":{"key":"14524","name":"Zwickau","type":"Landkreis"},"federalState":{"key":"14","name":"Sachsen"}},{"name":"Humboldtstr.","postalCode":"09212","locality":"Limbach-Oberfrohna","municipality":{"key":"14524180","name":"Limbach-Oberfrohna, Stadt","type":"Stadt"},"district":{"key":"14524","name":"Zwickau","type":"Landkreis"},"federalState":{"key":"14","name":"Sachsen"}},{"name":"Industriestr.","postalCode":"09212","locality":"Limbach-Oberfrohna","municipality":{"key":"14524180","name":"Limbach-Oberfrohna, Stadt","type":"Stadt"},"district":{"key":"14524","name":"Zwickau","type":"Landkreis"},"federalState":{"key":"14","name":"Sachsen"}},{"name":"Ingelheimer Str.","postalCode":"09212","locality":"Limbach-Oberfrohna","municipality":{"key":"14524180","name":"Limbach-Oberfrohna, Stadt","type":"Stadt"},"district":{"key":"14524","name":"Zwickau","type":"Landkreis"},"federalState":{"key":"14","name":"Sachsen"}},{"name":"Jägergasse","postalCode":"09212","locality":"Limbach-Oberfrohna","municipality":{"key":"14524180","name":"Limbach-Oberfrohna, Stadt","type":"Stadt"},"district":{"key":"14524","name":"Zwickau","type":"Landkreis"},"federalState":{"key":"14","name":"Sachsen"}},{"name":"Jägerstr.","postalCode":"09212","locality":"Limbach-Oberfrohna","municipality":{"key":"14524180","name":"Limbach-Oberfrohna, Stadt","type":"Stadt"},"district":{"key":"14524","name":"Zwickau","type":"Landkreis"},"federalState":{"key":"14","name":"Sachsen"}},{"name":"Jahnweg","postalCode":"09212","locality":"Limbach-Oberfrohna","municipality":{"key":"14524180","name":"Limbach-Oberfrohna, Stadt","type":"Stadt"},"district":{"key":"14524","name":"Zwickau","type":"Landkreis"},"federalState":{"key":"14","name":"Sachsen"}},{"name":"Johannisplatz","postalCode":"09212","locality":"Limbach-Oberfrohna","municipality":{"key":"14524180","name":"Limbach-Oberfrohna, Stadt","type":"Stadt"},"district":{"key":"14524","name":"Zwickau","type":"Landkreis"},"federalState":{"key":"14","name":"Sachsen"}},{"name":"Johannstr.","postalCode":"09212","locality":"Limbach-Oberfrohna","municipality":{"key":"14524180","name":"Limbach-Oberfrohna, Stadt","type":"Stadt"},"district":{"key":"14524","name":"Zwickau","type":"Landkreis"},"federalState":{"key":"14","name":"Sachsen"}},{"name":"Kantstr.","postalCode":"09212","locality":"Limbach-Oberfrohna","municipality":{"key":"14524180","name":"Limbach-Oberfrohna, Stadt","type":"Stadt"},"district":{"key":"14524","name":"Zwickau","type":"Landkreis"},"federalState":{"key":"14","name":"Sachsen"}},{"name":"Karlstr.","postalCode":"09212","locality":"Limbach-Oberfrohna","municipality":{"key":"14524180","name":"Limbach-Oberfrohna, Stadt","type":"Stadt"},"district":{"key":"14524","name":"Zwickau","type":"Landkreis"},"federalState":{"key":"14","name":"Sachsen"}},{"name":"Kastanienweg","postalCode":"09212","locality":"Limbach-Oberfrohna","municipality":{"key":"14524180","name":"Limbach-Oberfrohna, Stadt","type":"Stadt"},"district":{"key":"14524","name":"Zwickau","type":"Landkreis"},"federalState":{"key":"14","name":"Sachsen"}},{"name":"Kaufunger Str.","postalCode":"09212","locality":"Limbach-Oberfrohna","municipality":{"key":"14524180","name":"Limbach-Oberfrohna, Stadt","type":"Stadt"},"district":{"key":"14524","name":"Zwickau","type":"Landkreis"},"federalState":{"key":"14","name":"Sachsen"}},{"name":"Kellerberg","postalCode":"09212","locality":"Limbach-Oberfrohna","municipality":{"key":"14524180","name":"Limbach-Oberfrohna, Stadt","type":"Stadt"},"district":{"key":"14524","name":"Zwickau","type":"Landkreis"},"federalState":{"key":"14","name":"Sachsen"}},{"name":"Kirchsteig","postalCode":"09212","locality":"Limbach-Oberfrohna","municipality":{"key":"14524180","name":"Limbach-Oberfrohna, Stadt","type":"Stadt"},"district":{"key":"14524","name":"Zwickau","type":"Landkreis"},"federalState":{"key":"14","name":"Sachsen"}},{"name":"Kirchstr.","postalCode":"09212","locality":"Limbach-Oberfrohna","municipality":{"key":"14524180","name":"Limbach-Oberfrohna, Stadt","type":"Stadt"},"district":{"key":"14524","name":"Zwickau","type":"Landkreis"},"federalState":{"key":"14","name":"Sachsen"}},{"name":"Kirchweg","postalCode":"09212","locality":"Limbach-Oberfrohna","municipality":{"key":"14524180","name":"Limbach-Oberfrohna, Stadt","type":"Stadt"},"district":{"key":"14524","name":"Zwickau","type":"Landkreis"},"federalState":{"key":"14","name":"Sachsen"}},{"name":"Klausstr.","postalCode":"09212","locality":"Limbach-Oberfrohna","municipality":{"key":"14524180","name":"Limbach-Oberfrohna, Stadt","type":"Stadt"},"district":{"key":"14524","name":"Zwickau","type":"Landkreis"},"federalState":{"key":"14","name":"Sachsen"}},{"name":"Kleines Dörfchen","postalCode":"09212","locality":"Limbach-Oberfrohna","municipality":{"key":"14524180","name":"Limbach-Oberfrohna, Stadt","type":"Stadt"},"district":{"key":"14524","name":"Zwickau","type":"Landkreis"},"federalState":{"key":"14","name":"Sachsen"}},{"name":"Kleingartenweg","postalCode":"09212","locality":"Limbach-Oberfrohna","municipality":{"key":"14524180","name":"Limbach-Oberfrohna, Stadt","type":"Stadt"},"district":{"key":"14524","name":"Zwickau","type":"Landkreis"},"federalState":{"key":"14","name":"Sachsen"}},{"name":"Knaumühlenweg","postalCode":"09212","locality":"Limbach-Oberfrohna","municipality":{"key":"14524180","name":"Limbach-Oberfrohna, Stadt","type":"Stadt"},"district":{"key":"14524","name":"Zwickau","type":"Landkreis"},"federalState":{"key":"14","name":"Sachsen"}},{"name":"Körnerstr.","postalCode":"09212","locality":"Limbach-Oberfrohna","municipality":{"key":"14524180","name":"Limbach-Oberfrohna, Stadt","type":"Stadt"},"district":{"key":"14524","name":"Zwickau","type":"Landkreis"},"federalState":{"key":"14","name":"Sachsen"}},{"name":"Krämerberg","postalCode":"09212","locality":"Limbach-Oberfrohna","municipality":{"key":"14524180","name":"Limbach-Oberfrohna, Stadt","type":"Stadt"},"district":{"key":"14524","name":"Zwickau","type":"Landkreis"},"federalState":{"key":"14","name":"Sachsen"}},{"name":"Kreuzeiche","postalCode":"09212","locality":"Limbach-Oberfrohna","municipality":{"key":"14524180","name":"Limbach-Oberfrohna, Stadt","type":"Stadt"},"district":{"key":"14524","name":"Zwickau","type":"Landkreis"},"federalState":{"key":"14","name":"Sachsen"}},{"name":"Kreuzeichenweg","postalCode":"09212","locality":"Limbach-Oberfrohna","municipality":{"key":"14524180","name":"Limbach-Oberfrohna, Stadt","type":"Stadt"},"district":{"key":"14524","name":"Zwickau","type":"Landkreis"},"federalState":{"key":"14","name":"Sachsen"}},{"name":"Kreuzstr.","postalCode":"09212","locality":"Limbach-Oberfrohna","municipality":{"key":"14524180","name":"Limbach-Oberfrohna, Stadt","type":"Stadt"},"district":{"key":"14524","name":"Zwickau","type":"Landkreis"},"federalState":{"key":"14","name":"Sachsen"}},{"name":"Kunz-von-Kauffungen-Weg","postalCode":"09212","locality":"Limbach-Oberfrohna","municipality":{"key":"14524180","name":"Limbach-Oberfrohna, Stadt","type":"Stadt"},"district":{"key":"14524","name":"Zwickau","type":"Landkreis"},"federalState":{"key":"14","name":"Sachsen"}},{"name":"Kurze Str.","postalCode":"09212","locality":"Limbach-Oberfrohna","municipality":{"key":"14524180","name":"Limbach-Oberfrohna, Stadt","type":"Stadt"},"district":{"key":"14524","name":"Zwickau","type":"Landkreis"},"federalState":{"key":"14","name":"Sachsen"}},{"name":"Langenberger Str.","postalCode":"09212","locality":"Limbach-Oberfrohna","municipality":{"key":"14524180","name":"Limbach-Oberfrohna, Stadt","type":"Stadt"},"district":{"key":"14524","name":"Zwickau","type":"Landkreis"},"federalState":{"key":"14","name":"Sachsen"}},{"name":"Lärchenweg","postalCode":"09212","locality":"Limbach-Oberfrohna","municipality":{"key":"14524180","name":"Limbach-Oberfrohna, Stadt","type":"Stadt"},"district":{"key":"14524","name":"Zwickau","type":"Landkreis"},"federalState":{"key":"14","name":"Sachsen"}},{"name":"Lessingstr.","postalCode":"09212","locality":"Limbach-Oberfrohna","municipality":{"key":"14524180","name":"Limbach-Oberfrohna, Stadt","type":"Stadt"},"district":{"key":"14524","name":"Zwickau","type":"Landkreis"},"federalState":{"key":"14","name":"Sachsen"}},{"name":"Lessingweg","postalCode":"09212","locality":"Limbach-Oberfrohna","municipality":{"key":"14524180","name":"Limbach-Oberfrohna, Stadt","type":"Stadt"},"district":{"key":"14524","name":"Zwickau","type":"Landkreis"},"federalState":{"key":"14","name":"Sachsen"}},{"name":"Lindenaustr.","postalCode":"09212","locality":"Limbach-Oberfrohna","municipality":{"key":"14524180","name":"Limbach-Oberfrohna, Stadt","type":"Stadt"},"district":{"key":"14524","name":"Zwickau","type":"Landkreis"},"federalState":{"key":"14","name":"Sachsen"}},{"name":"Lindenstr.","postalCode":"09212","locality":"Limbach-Oberfrohna","municipality":{"key":"14524180","name":"Limbach-Oberfrohna, Stadt","type":"Stadt"},"district":{"key":"14524","name":"Zwickau","type":"Landkreis"},"federalState":{"key":"14","name":"Sachsen"}},{"name":"Lindenweg","postalCode":"09212","locality":"Limbach-Oberfrohna","municipality":{"key":"14524180","name":"Limbach-Oberfrohna, Stadt","type":"Stadt"},"district":{"key":"14524","name":"Zwickau","type":"Landkreis"},"federalState":{"key":"14","name":"Sachsen"}},{"name":"Löbelgässchen","postalCode":"09212","locality":"Limbach-Oberfrohna","municipality":{"key":"14524180","name":"Limbach-Oberfrohna, Stadt","type":"Stadt"},"district":{"key":"14524","name":"Zwickau","type":"Landkreis"},"federalState":{"key":"14","name":"Sachsen"}},{"name":"Ludwig-Jahn-Str.","postalCode":"09212","locality":"Limbach-Oberfrohna","municipality":{"key":"14524180","name":"Limbach-Oberfrohna, Stadt","type":"Stadt"},"district":{"key":"14524","name":"Zwickau","type":"Landkreis"},"federalState":{"key":"14","name":"Sachsen"}},{"name":"Ludwig-Richter-Str.","postalCode":"09212","locality":"Limbach-Oberfrohna","municipality":{"key":"14524180","name":"Limbach-Oberfrohna, Stadt","type":"Stadt"},"district":{"key":"14524","name":"Zwickau","type":"Landkreis"},"federalState":{"key":"14","name":"Sachsen"}},{"name":"Ludwigsplatz","postalCode":"09212","locality":"Limbach-Oberfrohna","municipality":{"key":"14524180","name":"Limbach-Oberfrohna, Stadt","type":"Stadt"},"district":{"key":"14524","name":"Zwickau","type":"Landkreis"},"federalState":{"key":"14","name":"Sachsen"}},{"name":"Lutherstr.","postalCode":"09212","locality":"Limbach-Oberfrohna","municipality":{"key":"14524180","name":"Limbach-Oberfrohna, Stadt","type":"Stadt"},"district":{"key":"14524","name":"Zwickau","type":"Landkreis"},"federalState":{"key":"14","name":"Sachsen"}},{"name":"Maltzstr.","postalCode":"09212","locality":"Limbach-Oberfrohna","municipality":{"key":"14524180","name":"Limbach-Oberfrohna, Stadt","type":"Stadt"},"district":{"key":"14524","name":"Zwickau","type":"Landkreis"},"federalState":{"key":"14","name":"Sachsen"}},{"name":"Markt","postalCode":"09212","locality":"Limbach-Oberfrohna","municipality":{"key":"14524180","name":"Limbach-Oberfrohna, Stadt","type":"Stadt"},"district":{"key":"14524","name":"Zwickau","type":"Landkreis"},"federalState":{"key":"14","name":"Sachsen"}},{"name":"Marktsteig","postalCode":"09212","locality":"Limbach-Oberfrohna","municipality":{"key":"14524180","name":"Limbach-Oberfrohna, Stadt","type":"Stadt"},"district":{"key":"14524","name":"Zwickau","type":"Landkreis"},"federalState":{"key":"14","name":"Sachsen"}},{"name":"Marktstr.","postalCode":"09212","locality":"Limbach-Oberfrohna","municipality":{"key":"14524180","name":"Limbach-Oberfrohna, Stadt","type":"Stadt"},"district":{"key":"14524","name":"Zwickau","type":"Landkreis"},"federalState":{"key":"14","name":"Sachsen"}},{"name":"Meinsdorfer Str.","postalCode":"09212","locality":"Limbach-Oberfrohna","municipality":{"key":"14524180","name":"Limbach-Oberfrohna, Stadt","type":"Stadt"},"district":{"key":"14524","name":"Zwickau","type":"Landkreis"},"federalState":{"key":"14","name":"Sachsen"}},{"name":"Menzelstr.","postalCode":"09212","locality":"Limbach-Oberfrohna","municipality":{"key":"14524180","name":"Limbach-Oberfrohna, Stadt","type":"Stadt"},"district":{"key":"14524","name":"Zwickau","type":"Landkreis"},"federalState":{"key":"14","name":"Sachsen"}},{"name":"Michelsweg","postalCode":"09212","locality":"Limbach-Oberfrohna","municipality":{"key":"14524180","name":"Limbach-Oberfrohna, Stadt","type":"Stadt"},"district":{"key":"14524","name":"Zwickau","type":"Landkreis"},"federalState":{"key":"14","name":"Sachsen"}},{"name":"Mittelgasse","postalCode":"09212","locality":"Limbach-Oberfrohna","municipality":{"key":"14524180","name":"Limbach-Oberfrohna, Stadt","type":"Stadt"},"district":{"key":"14524","name":"Zwickau","type":"Landkreis"},"federalState":{"key":"14","name":"Sachsen"}},{"name":"Mittelstr.","postalCode":"09212","locality":"Limbach-Oberfrohna","municipality":{"key":"14524180","name":"Limbach-Oberfrohna, Stadt","type":"Stadt"},"district":{"key":"14524","name":"Zwickau","type":"Landkreis"},"federalState":{"key":"14","name":"Sachsen"}},{"name":"Mittelweg","postalCode":"09212","locality":"Limbach-Oberfrohna","municipality":{"key":"14524180","name":"Limbach-Oberfrohna, Stadt","type":"Stadt"},"district":{"key":"14524","name":"Zwickau","type":"Landkreis"},"federalState":{"key":"14","name":"Sachsen"}},{"name":"Moritzstr.","postalCode":"09212","locality":"Limbach-Oberfrohna","municipality":{"key":"14524180","name":"Limbach-Oberfrohna, Stadt","type":"Stadt"},"district":{"key":"14524","name":"Zwickau","type":"Landkreis"},"federalState":{"key":"14","name":"Sachsen"}},{"name":"Mozartstr.","postalCode":"09212","locality":"Limbach-Oberfrohna","municipality":{"key":"14524180","name":"Limbach-Oberfrohna, Stadt","type":"Stadt"},"district":{"key":"14524","name":"Zwickau","type":"Landkreis"},"federalState":{"key":"14","name":"Sachsen"}},{"name":"Mühlauer Weg","postalCode":"09212","locality":"Limbach-Oberfrohna","municipality":{"key":"14524180","name":"Limbach-Oberfrohna, Stadt","type":"Stadt"},"district":{"key":"14524","name":"Zwickau","type":"Landkreis"},"federalState":{"key":"14","name":"Sachsen"}},{"name":"Mühlenstr.","postalCode":"09212","locality":"Limbach-Oberfrohna","municipality":{"key":"14524180","name":"Limbach-Oberfrohna, Stadt","type":"Stadt"},"district":{"key":"14524","name":"Zwickau","type":"Landkreis"},"federalState":{"key":"14","name":"Sachsen"}},{"name":"Mühlwiese","postalCode":"09212","locality":"Limbach-Oberfrohna","municipality":{"key":"14524180","name":"Limbach-Oberfrohna, Stadt","type":"Stadt"},"district":{"key":"14524","name":"Zwickau","type":"Landkreis"},"federalState":{"key":"14","name":"Sachsen"}},{"name":"Muldentalweg","postalCode":"09212","locality":"Limbach-Oberfrohna","municipality":{"key":"14524180","name":"Limbach-Oberfrohna, Stadt","type":"Stadt"},"district":{"key":"14524","name":"Zwickau","type":"Landkreis"},"federalState":{"key":"14","name":"Sachsen"}},{"name":"Muldenweg","postalCode":"09212","locality":"Limbach-Oberfrohna","municipality":{"key":"14524180","name":"Limbach-Oberfrohna, Stadt","type":"Stadt"},"district":{"key":"14524","name":"Zwickau","type":"Landkreis"},"federalState":{"key":"14","name":"Sachsen"}},{"name":"Naturlehrpfad","postalCode":"09212","locality":"Limbach-Oberfrohna","municipality":{"key":"14524180","name":"Limbach-Oberfrohna, Stadt","type":"Stadt"},"district":{"key":"14524","name":"Zwickau","type":"Landkreis"},"federalState":{"key":"14","name":"Sachsen"}},{"name":"Neue Heimat","postalCode":"09212","locality":"Limbach-Oberfrohna","municipality":{"key":"14524180","name":"Limbach-Oberfrohna, Stadt","type":"Stadt"},"district":{"key":"14524","name":"Zwickau","type":"Landkreis"},"federalState":{"key":"14","name":"Sachsen"}},{"name":"Neue Str.","postalCode":"09212","locality":"Limbach-Oberfrohna","municipality":{"key":"14524180","name":"Limbach-Oberfrohna, Stadt","type":"Stadt"},"district":{"key":"14524","name":"Zwickau","type":"Landkreis"},"federalState":{"key":"14","name":"Sachsen"}},{"name":"Nickelmühlenweg","postalCode":"09212","locality":"Limbach-Oberfrohna","municipality":{"key":"14524180","name":"Limbach-Oberfrohna, Stadt","type":"Stadt"},"district":{"key":"14524","name":"Zwickau","type":"Landkreis"},"federalState":{"key":"14","name":"Sachsen"}},{"name":"Niederfrohnaer Str.","postalCode":"09212","locality":"Limbach-Oberfrohna","municipality":{"key":"14524180","name":"Limbach-Oberfrohna, Stadt","type":"Stadt"},"district":{"key":"14524","name":"Zwickau","type":"Landkreis"},"federalState":{"key":"14","name":"Sachsen"}},{"name":"Niederwald","postalCode":"09212","locality":"Limbach-Oberfrohna","municipality":{"key":"14524180","name":"Limbach-Oberfrohna, Stadt","type":"Stadt"},"district":{"key":"14524","name":"Zwickau","type":"Landkreis"},"federalState":{"key":"14","name":"Sachsen"}},{"name":"Nordstr.","postalCode":"09212","locality":"Limbach-Oberfrohna","municipality":{"key":"14524180","name":"Limbach-Oberfrohna, Stadt","type":"Stadt"},"district":{"key":"14524","name":"Zwickau","type":"Landkreis"},"federalState":{"key":"14","name":"Sachsen"}},{"name":"Nordweg","postalCode":"09212","locality":"Limbach-Oberfrohna","municipality":{"key":"14524180","name":"Limbach-Oberfrohna, Stadt","type":"Stadt"},"district":{"key":"14524","name":"Zwickau","type":"Landkreis"},"federalState":{"key":"14","name":"Sachsen"}},{"name":"Obere Dorfstr.","postalCode":"09212","locality":"Limbach-Oberfrohna","municipality":{"key":"14524180","name":"Limbach-Oberfrohna, Stadt","type":"Stadt"},"district":{"key":"14524","name":"Zwickau","type":"Landkreis"},"federalState":{"key":"14","name":"Sachsen"}},{"name":"Oberer Gutsweg","postalCode":"09212","locality":"Limbach-Oberfrohna","municipality":{"key":"14524180","name":"Limbach-Oberfrohna, Stadt","type":"Stadt"},"district":{"key":"14524","name":"Zwickau","type":"Landkreis"},"federalState":{"key":"14","name":"Sachsen"}},{"name":"oberer Weg","postalCode":"09212","locality":"Limbach-Oberfrohna","municipality":{"key":"14524180","name":"Limbach-Oberfrohna, Stadt","type":"Stadt"},"district":{"key":"14524","name":"Zwickau","type":"Landkreis"},"federalState":{"key":"14","name":"Sachsen"}},{"name":"Oberfrohnaer Str.","postalCode":"09212","locality":"Limbach-Oberfrohna","municipality":{"key":"14524180","name":"Limbach-Oberfrohna, Stadt","type":"Stadt"},"district":{"key":"14524","name":"Zwickau","type":"Landkreis"},"federalState":{"key":"14","name":"Sachsen"}},{"name":"Ostring","postalCode":"09212","locality":"Limbach-Oberfrohna","municipality":{"key":"14524180","name":"Limbach-Oberfrohna, Stadt","type":"Stadt"},"district":{"key":"14524","name":"Zwickau","type":"Landkreis"},"federalState":{"key":"14","name":"Sachsen"}},{"name":"Oststr.","postalCode":"09212","locality":"Limbach-Oberfrohna","municipality":{"key":"14524180","name":"Limbach-Oberfrohna, Stadt","type":"Stadt"},"district":{"key":"14524","name":"Zwickau","type":"Landkreis"},"federalState":{"key":"14","name":"Sachsen"}},{"name":"Parkstr.","postalCode":"09212","locality":"Limbach-Oberfrohna","municipality":{"key":"14524180","name":"Limbach-Oberfrohna, Stadt","type":"Stadt"},"district":{"key":"14524","name":"Zwickau","type":"Landkreis"},"federalState":{"key":"14","name":"Sachsen"}},{"name":"Paul-Fritzsching-Str.","postalCode":"09212","locality":"Limbach-Oberfrohna","municipality":{"key":"14524180","name":"Limbach-Oberfrohna, Stadt","type":"Stadt"},"district":{"key":"14524","name":"Zwickau","type":"Landkreis"},"federalState":{"key":"14","name":"Sachsen"}},{"name":"Paul-Seydel-Str.","postalCode":"09212","locality":"Limbach-Oberfrohna","municipality":{"key":"14524180","name":"Limbach-Oberfrohna, Stadt","type":"Stadt"},"district":{"key":"14524","name":"Zwickau","type":"Landkreis"},"federalState":{"key":"14","name":"Sachsen"}},{"name":"Peniger Str.","postalCode":"09212","locality":"Limbach-Oberfrohna","municipality":{"key":"14524180","name":"Limbach-Oberfrohna, Stadt","type":"Stadt"},"district":{"key":"14524","name":"Zwickau","type":"Landkreis"},"federalState":{"key":"14","name":"Sachsen"}},{"name":"Pestalozzistr.","postalCode":"09212","locality":"Limbach-Oberfrohna","municipality":{"key":"14524180","name":"Limbach-Oberfrohna, Stadt","type":"Stadt"},"district":{"key":"14524","name":"Zwickau","type":"Landkreis"},"federalState":{"key":"14","name":"Sachsen"}},{"name":"Plantagenweg","postalCode":"09212","locality":"Limbach-Oberfrohna","municipality":{"key":"14524180","name":"Limbach-Oberfrohna, Stadt","type":"Stadt"},"district":{"key":"14524","name":"Zwickau","type":"Landkreis"},"federalState":{"key":"14","name":"Sachsen"}},{"name":"Platz des Friedens","postalCode":"09212","locality":"Limbach-Oberfrohna","municipality":{"key":"14524180","name":"Limbach-Oberfrohna, Stadt","type":"Stadt"},"district":{"key":"14524","name":"Zwickau","type":"Landkreis"},"federalState":{"key":"14","name":"Sachsen"}},{"name":"Pleißaer Str.","postalCode":"09212","locality":"Limbach-Oberfrohna","municipality":{"key":"14524180","name":"Limbach-Oberfrohna, Stadt","type":"Stadt"},"district":{"key":"14524","name":"Zwickau","type":"Landkreis"},"federalState":{"key":"14","name":"Sachsen"}},{"name":"Pleißenbachstr.","postalCode":"09212","locality":"Limbach-Oberfrohna","municipality":{"key":"14524180","name":"Limbach-Oberfrohna, Stadt","type":"Stadt"},"district":{"key":"14524","name":"Zwickau","type":"Landkreis"},"federalState":{"key":"14","name":"Sachsen"}},{"name":"Pleißengrundstr.","postalCode":"09212","locality":"Limbach-Oberfrohna","municipality":{"key":"14524180","name":"Limbach-Oberfrohna, Stadt","type":"Stadt"},"district":{"key":"14524","name":"Zwickau","type":"Landkreis"},"federalState":{"key":"14","name":"Sachsen"}},{"name":"Postgässchen","postalCode":"09212","locality":"Limbach-Oberfrohna","municipality":{"key":"14524180","name":"Limbach-Oberfrohna, Stadt","type":"Stadt"},"district":{"key":"14524","name":"Zwickau","type":"Landkreis"},"federalState":{"key":"14","name":"Sachsen"}},{"name":"Privater Park","postalCode":"09212","locality":"Limbach-Oberfrohna","municipality":{"key":"14524180","name":"Limbach-Oberfrohna, Stadt","type":"Stadt"},"district":{"key":"14524","name":"Zwickau","type":"Landkreis"},"federalState":{"key":"14","name":"Sachsen"}},{"name":"Professor-Willkomm-Str.","postalCode":"09212","locality":"Limbach-Oberfrohna","municipality":{"key":"14524180","name":"Limbach-Oberfrohna, Stadt","type":"Stadt"},"district":{"key":"14524","name":"Zwickau","type":"Landkreis"},"federalState":{"key":"14","name":"Sachsen"}},{"name":"Promenadenweg","postalCode":"09212","locality":"Limbach-Oberfrohna","municipality":{"key":"14524180","name":"Limbach-Oberfrohna, Stadt","type":"Stadt"},"district":{"key":"14524","name":"Zwickau","type":"Landkreis"},"federalState":{"key":"14","name":"Sachsen"}},{"name":"Querstr.","postalCode":"09212","locality":"Limbach-Oberfrohna","municipality":{"key":"14524180","name":"Limbach-Oberfrohna, Stadt","type":"Stadt"},"district":{"key":"14524","name":"Zwickau","type":"Landkreis"},"federalState":{"key":"14","name":"Sachsen"}},{"name":"Querweg","postalCode":"09212","locality":"Limbach-Oberfrohna","municipality":{"key":"14524180","name":"Limbach-Oberfrohna, Stadt","type":"Stadt"},"district":{"key":"14524","name":"Zwickau","type":"Landkreis"},"federalState":{"key":"14","name":"Sachsen"}},{"name":"Rabensteiner Str.","postalCode":"09212","locality":"Limbach-Oberfrohna","municipality":{"key":"14524180","name":"Limbach-Oberfrohna, Stadt","type":"Stadt"},"district":{"key":"14524","name":"Zwickau","type":"Landkreis"},"federalState":{"key":"14","name":"Sachsen"}},{"name":"Radweg durch die Leite","postalCode":"09212","locality":"Limbach-Oberfrohna","municipality":{"key":"14524180","name":"Limbach-Oberfrohna, Stadt","type":"Stadt"},"district":{"key":"14524","name":"Zwickau","type":"Landkreis"},"federalState":{"key":"14","name":"Sachsen"}},{"name":"Reinholdstr.","postalCode":"09212","locality":"Limbach-Oberfrohna","municipality":{"key":"14524180","name":"Limbach-Oberfrohna, Stadt","type":"Stadt"},"district":{"key":"14524","name":"Zwickau","type":"Landkreis"},"federalState":{"key":"14","name":"Sachsen"}},{"name":"Ringstr.","postalCode":"09212","locality":"Limbach-Oberfrohna","municipality":{"key":"14524180","name":"Limbach-Oberfrohna, Stadt","type":"Stadt"},"district":{"key":"14524","name":"Zwickau","type":"Landkreis"},"federalState":{"key":"14","name":"Sachsen"}},{"name":"Robert-Koch-Str.","postalCode":"09212","locality":"Limbach-Oberfrohna","municipality":{"key":"14524180","name":"Limbach-Oberfrohna, Stadt","type":"Stadt"},"district":{"key":"14524","name":"Zwickau","type":"Landkreis"},"federalState":{"key":"14","name":"Sachsen"}},{"name":"Rotdornstr.","postalCode":"09212","locality":"Limbach-Oberfrohna","municipality":{"key":"14524180","name":"Limbach-Oberfrohna, Stadt","type":"Stadt"},"district":{"key":"14524","name":"Zwickau","type":"Landkreis"},"federalState":{"key":"14","name":"Sachsen"}},{"name":"Roteichenweg","postalCode":"09212","locality":"Limbach-Oberfrohna","municipality":{"key":"14524180","name":"Limbach-Oberfrohna, Stadt","type":"Stadt"},"district":{"key":"14524","name":"Zwickau","type":"Landkreis"},"federalState":{"key":"14","name":"Sachsen"}},{"name":"Rubensstr.","postalCode":"09212","locality":"Limbach-Oberfrohna","municipality":{"key":"14524180","name":"Limbach-Oberfrohna, Stadt","type":"Stadt"},"district":{"key":"14524","name":"Zwickau","type":"Landkreis"},"federalState":{"key":"14","name":"Sachsen"}},{"name":"Sachsenstr.","postalCode":"09212","locality":"Limbach-Oberfrohna","municipality":{"key":"14524180","name":"Limbach-Oberfrohna, Stadt","type":"Stadt"},"district":{"key":"14524","name":"Zwickau","type":"Landkreis"},"federalState":{"key":"14","name":"Sachsen"}},{"name":"Saugraben","postalCode":"09212","locality":"Limbach-Oberfrohna","municipality":{"key":"14524180","name":"Limbach-Oberfrohna, Stadt","type":"Stadt"},"district":{"key":"14524","name":"Zwickau","type":"Landkreis"},"federalState":{"key":"14","name":"Sachsen"}},{"name":"Saurand","postalCode":"09212","locality":"Limbach-Oberfrohna","municipality":{"key":"14524180","name":"Limbach-Oberfrohna, Stadt","type":"Stadt"},"district":{"key":"14524","name":"Zwickau","type":"Landkreis"},"federalState":{"key":"14","name":"Sachsen"}},{"name":"Schillerstr.","postalCode":"09212","locality":"Limbach-Oberfrohna","municipality":{"key":"14524180","name":"Limbach-Oberfrohna, Stadt","type":"Stadt"},"district":{"key":"14524","name":"Zwickau","type":"Landkreis"},"federalState":{"key":"14","name":"Sachsen"}},{"name":"Schillerweg","postalCode":"09212","locality":"Limbach-Oberfrohna","municipality":{"key":"14524180","name":"Limbach-Oberfrohna, Stadt","type":"Stadt"},"district":{"key":"14524","name":"Zwickau","type":"Landkreis"},"federalState":{"key":"14","name":"Sachsen"}},{"name":"Schloßberg","postalCode":"09212","locality":"Limbach-Oberfrohna","municipality":{"key":"14524180","name":"Limbach-Oberfrohna, Stadt","type":"Stadt"},"district":{"key":"14524","name":"Zwickau","type":"Landkreis"},"federalState":{"key":"14","name":"Sachsen"}},{"name":"Schloßpark Wolkenburg","postalCode":"09212","locality":"Limbach-Oberfrohna","municipality":{"key":"14524180","name":"Limbach-Oberfrohna, Stadt","type":"Stadt"},"district":{"key":"14524","name":"Zwickau","type":"Landkreis"},"federalState":{"key":"14","name":"Sachsen"}},{"name":"Schmiedeweg","postalCode":"09212","locality":"Limbach-Oberfrohna","municipality":{"key":"14524180","name":"Limbach-Oberfrohna, Stadt","type":"Stadt"},"district":{"key":"14524","name":"Zwickau","type":"Landkreis"},"federalState":{"key":"14","name":"Sachsen"}},{"name":"Schreberweg","postalCode":"09212","locality":"Limbach-Oberfrohna","municipality":{"key":"14524180","name":"Limbach-Oberfrohna, Stadt","type":"Stadt"},"district":{"key":"14524","name":"Zwickau","type":"Landkreis"},"federalState":{"key":"14","name":"Sachsen"}},{"name":"Schröderstr.","postalCode":"09212","locality":"Limbach-Oberfrohna","municipality":{"key":"14524180","name":"Limbach-Oberfrohna, Stadt","type":"Stadt"},"district":{"key":"14524","name":"Zwickau","type":"Landkreis"},"federalState":{"key":"14","name":"Sachsen"}},{"name":"Schulberg","postalCode":"09212","locality":"Limbach-Oberfrohna","municipality":{"key":"14524180","name":"Limbach-Oberfrohna, Stadt","type":"Stadt"},"district":{"key":"14524","name":"Zwickau","type":"Landkreis"},"federalState":{"key":"14","name":"Sachsen"}},{"name":"Schulstr.","postalCode":"09212","locality":"Limbach-Oberfrohna","municipality":{"key":"14524180","name":"Limbach-Oberfrohna, Stadt","type":"Stadt"},"district":{"key":"14524","name":"Zwickau","type":"Landkreis"},"federalState":{"key":"14","name":"Sachsen"}},{"name":"Schulweg","postalCode":"09212","locality":"Limbach-Oberfrohna","municipality":{"key":"14524180","name":"Limbach-Oberfrohna, Stadt","type":"Stadt"},"district":{"key":"14524","name":"Zwickau","type":"Landkreis"},"federalState":{"key":"14","name":"Sachsen"}},{"name":"Schützenstr.","postalCode":"09212","locality":"Limbach-Oberfrohna","municipality":{"key":"14524180","name":"Limbach-Oberfrohna, Stadt","type":"Stadt"},"district":{"key":"14524","name":"Zwickau","type":"Landkreis"},"federalState":{"key":"14","name":"Sachsen"}},{"name":"Siedlergrund","postalCode":"09212","locality":"Limbach-Oberfrohna","municipality":{"key":"14524180","name":"Limbach-Oberfrohna, Stadt","type":"Stadt"},"district":{"key":"14524","name":"Zwickau","type":"Landkreis"},"federalState":{"key":"14","name":"Sachsen"}},{"name":"Siedlerstr.","postalCode":"09212","locality":"Limbach-Oberfrohna","municipality":{"key":"14524180","name":"Limbach-Oberfrohna, Stadt","type":"Stadt"},"district":{"key":"14524","name":"Zwickau","type":"Landkreis"},"federalState":{"key":"14","name":"Sachsen"}},{"name":"Siedlerweg","postalCode":"09212","locality":"Limbach-Oberfrohna","municipality":{"key":"14524180","name":"Limbach-Oberfrohna, Stadt","type":"Stadt"},"district":{"key":"14524","name":"Zwickau","type":"Landkreis"},"federalState":{"key":"14","name":"Sachsen"}},{"name":"Siedlung am Friedhof","postalCode":"09212","locality":"Limbach-Oberfrohna","municipality":{"key":"14524180","name":"Limbach-Oberfrohna, Stadt","type":"Stadt"},"district":{"key":"14524","name":"Zwickau","type":"Landkreis"},"federalState":{"key":"14","name":"Sachsen"}},{"name":"Silberberg","postalCode":"09212","locality":"Limbach-Oberfrohna","municipality":{"key":"14524180","name":"Limbach-Oberfrohna, Stadt","type":"Stadt"},"district":{"key":"14524","name":"Zwickau","type":"Landkreis"},"federalState":{"key":"14","name":"Sachsen"}},{"name":"Sonnenstr.","postalCode":"09212","locality":"Limbach-Oberfrohna","municipality":{"key":"14524180","name":"Limbach-Oberfrohna, Stadt","type":"Stadt"},"district":{"key":"14524","name":"Zwickau","type":"Landkreis"},"federalState":{"key":"14","name":"Sachsen"}},{"name":"Stadtpark Limbach Oberfrona","postalCode":"09212","locality":"Limbach-Oberfrohna","municipality":{"key":"14524180","name":"Limbach-Oberfrohna, Stadt","type":"Stadt"},"district":{"key":"14524","name":"Zwickau","type":"Landkreis"},"federalState":{"key":"14","name":"Sachsen"}},{"name":"Staudenweg","postalCode":"09212","locality":"Limbach-Oberfrohna","municipality":{"key":"14524180","name":"Limbach-Oberfrohna, Stadt","type":"Stadt"},"district":{"key":"14524","name":"Zwickau","type":"Landkreis"},"federalState":{"key":"14","name":"Sachsen"}},{"name":"Str. des Friedens","postalCode":"09212","locality":"Limbach-Oberfrohna","municipality":{"key":"14524180","name":"Limbach-Oberfrohna, Stadt","type":"Stadt"},"district":{"key":"14524","name":"Zwickau","type":"Landkreis"},"federalState":{"key":"14","name":"Sachsen"}},{"name":"Südstr.","postalCode":"09212","locality":"Limbach-Oberfrohna","municipality":{"key":"14524180","name":"Limbach-Oberfrohna, Stadt","type":"Stadt"},"district":{"key":"14524","name":"Zwickau","type":"Landkreis"},"federalState":{"key":"14","name":"Sachsen"}},{"name":"Talstr.","postalCode":"09212","locality":"Limbach-Oberfrohna","municipality":{"key":"14524180","name":"Limbach-Oberfrohna, Stadt","type":"Stadt"},"district":{"key":"14524","name":"Zwickau","type":"Landkreis"},"federalState":{"key":"14","name":"Sachsen"}},{"name":"Talweg","postalCode":"09212","locality":"Limbach-Oberfrohna","municipality":{"key":"14524180","name":"Limbach-Oberfrohna, Stadt","type":"Stadt"},"district":{"key":"14524","name":"Zwickau","type":"Landkreis"},"federalState":{"key":"14","name":"Sachsen"}},{"name":"Tannenweg","postalCode":"09212","locality":"Limbach-Oberfrohna","municipality":{"key":"14524180","name":"Limbach-Oberfrohna, Stadt","type":"Stadt"},"district":{"key":"14524","name":"Zwickau","type":"Landkreis"},"federalState":{"key":"14","name":"Sachsen"}},{"name":"Teichstr.","postalCode":"09212","locality":"Limbach-Oberfrohna","municipality":{"key":"14524180","name":"Limbach-Oberfrohna, Stadt","type":"Stadt"},"district":{"key":"14524","name":"Zwickau","type":"Landkreis"},"federalState":{"key":"14","name":"Sachsen"}},{"name":"Thierbacher Str.","postalCode":"09212","locality":"Limbach-Oberfrohna","municipality":{"key":"14524180","name":"Limbach-Oberfrohna, Stadt","type":"Stadt"},"district":{"key":"14524","name":"Zwickau","type":"Landkreis"},"federalState":{"key":"14","name":"Sachsen"}},{"name":"Thomas-Müntzer-Weg","postalCode":"09212","locality":"Limbach-Oberfrohna","municipality":{"key":"14524180","name":"Limbach-Oberfrohna, Stadt","type":"Stadt"},"district":{"key":"14524","name":"Zwickau","type":"Landkreis"},"federalState":{"key":"14","name":"Sachsen"}},{"name":"Tierparkstr.","postalCode":"09212","locality":"Limbach-Oberfrohna","municipality":{"key":"14524180","name":"Limbach-Oberfrohna, Stadt","type":"Stadt"},"district":{"key":"14524","name":"Zwickau","type":"Landkreis"},"federalState":{"key":"14","name":"Sachsen"}},{"name":"Tierparkweg","postalCode":"09212","locality":"Limbach-Oberfrohna","municipality":{"key":"14524180","name":"Limbach-Oberfrohna, Stadt","type":"Stadt"},"district":{"key":"14524","name":"Zwickau","type":"Landkreis"},"federalState":{"key":"14","name":"Sachsen"}},{"name":"Torweg","postalCode":"09212","locality":"Limbach-Oberfrohna","municipality":{"key":"14524180","name":"Limbach-Oberfrohna, Stadt","type":"Stadt"},"district":{"key":"14524","name":"Zwickau","type":"Landkreis"},"federalState":{"key":"14","name":"Sachsen"}},{"name":"Turnstr.","postalCode":"09212","locality":"Limbach-Oberfrohna","municipality":{"key":"14524180","name":"Limbach-Oberfrohna, Stadt","type":"Stadt"},"district":{"key":"14524","name":"Zwickau","type":"Landkreis"},"federalState":{"key":"14","name":"Sachsen"}},{"name":"Uhlsdorfer Str.","postalCode":"09212","locality":"Limbach-Oberfrohna","municipality":{"key":"14524180","name":"Limbach-Oberfrohna, Stadt","type":"Stadt"},"district":{"key":"14524","name":"Zwickau","type":"Landkreis"},"federalState":{"key":"14","name":"Sachsen"}},{"name":"Untere Dorfstr.","postalCode":"09212","locality":"Limbach-Oberfrohna","municipality":{"key":"14524180","name":"Limbach-Oberfrohna, Stadt","type":"Stadt"},"district":{"key":"14524","name":"Zwickau","type":"Landkreis"},"federalState":{"key":"14","name":"Sachsen"}},{"name":"Unterer Gutsweg","postalCode":"09212","locality":"Limbach-Oberfrohna","municipality":{"key":"14524180","name":"Limbach-Oberfrohna, Stadt","type":"Stadt"},"district":{"key":"14524","name":"Zwickau","type":"Landkreis"},"federalState":{"key":"14","name":"Sachsen"}},{"name":"unterer Weg","postalCode":"09212","locality":"Limbach-Oberfrohna","municipality":{"key":"14524180","name":"Limbach-Oberfrohna, Stadt","type":"Stadt"},"district":{"key":"14524","name":"Zwickau","type":"Landkreis"},"federalState":{"key":"14","name":"Sachsen"}},{"name":"Viehweg Mittelfrohna","postalCode":"09212","locality":"Limbach-Oberfrohna","municipality":{"key":"14524180","name":"Limbach-Oberfrohna, Stadt","type":"Stadt"},"district":{"key":"14524","name":"Zwickau","type":"Landkreis"},"federalState":{"key":"14","name":"Sachsen"}},{"name":"Waldenburger Str.","postalCode":"09212","locality":"Limbach-Oberfrohna","municipality":{"key":"14524180","name":"Limbach-Oberfrohna, Stadt","type":"Stadt"},"district":{"key":"14524","name":"Zwickau","type":"Landkreis"},"federalState":{"key":"14","name":"Sachsen"}},{"name":"Waldstr.","postalCode":"09212","locality":"Limbach-Oberfrohna","municipality":{"key":"14524180","name":"Limbach-Oberfrohna, Stadt","type":"Stadt"},"district":{"key":"14524","name":"Zwickau","type":"Landkreis"},"federalState":{"key":"14","name":"Sachsen"}},{"name":"Wasserstr.","postalCode":"09212","locality":"Limbach-Oberfrohna","municipality":{"key":"14524180","name":"Limbach-Oberfrohna, Stadt","type":"Stadt"},"district":{"key":"14524","name":"Zwickau","type":"Landkreis"},"federalState":{"key":"14","name":"Sachsen"}},{"name":"Weberberg","postalCode":"09212","locality":"Limbach-Oberfrohna","municipality":{"key":"14524180","name":"Limbach-Oberfrohna, Stadt","type":"Stadt"},"district":{"key":"14524","name":"Zwickau","type":"Landkreis"},"federalState":{"key":"14","name":"Sachsen"}},{"name":"Werkgasse","postalCode":"09212","locality":"Limbach-Oberfrohna","municipality":{"key":"14524180","name":"Limbach-Oberfrohna, Stadt","type":"Stadt"},"district":{"key":"14524","name":"Zwickau","type":"Landkreis"},"federalState":{"key":"14","name":"Sachsen"}},{"name":"Weststr.","postalCode":"09212","locality":"Limbach-Oberfrohna","municipality":{"key":"14524180","name":"Limbach-Oberfrohna, Stadt","type":"Stadt"},"district":{"key":"14524","name":"Zwickau","type":"Landkreis"},"federalState":{"key":"14","name":"Sachsen"}},{"name":"Wetzelstr.","postalCode":"09212","locality":"Limbach-Oberfrohna","municipality":{"key":"14524180","name":"Limbach-Oberfrohna, Stadt","type":"Stadt"},"district":{"key":"14524","name":"Zwickau","type":"Landkreis"},"federalState":{"key":"14","name":"Sachsen"}},{"name":"Wiesengrund","postalCode":"09212","locality":"Limbach-Oberfrohna","municipality":{"key":"14524180","name":"Limbach-Oberfrohna, Stadt","type":"Stadt"},"district":{"key":"14524","name":"Zwickau","type":"Landkreis"},"federalState":{"key":"14","name":"Sachsen"}},{"name":"Wiesenstr.","postalCode":"09212","locality":"Limbach-Oberfrohna","municipality":{"key":"14524180","name":"Limbach-Oberfrohna, Stadt","type":"Stadt"},"district":{"key":"14524","name":"Zwickau","type":"Landkreis"},"federalState":{"key":"14","name":"Sachsen"}},{"name":"Wiesenweg","postalCode":"09212","locality":"Limbach-Oberfrohna","municipality":{"key":"14524180","name":"Limbach-Oberfrohna, Stadt","type":"Stadt"},"district":{"key":"14524","name":"Zwickau","type":"Landkreis"},"federalState":{"key":"14","name":"Sachsen"}},{"name":"Willy-Böhme-Str.","postalCode":"09212","locality":"Limbach-Oberfrohna","municipality":{"key":"14524180","name":"Limbach-Oberfrohna, Stadt","type":"Stadt"},"district":{"key":"14524","name":"Zwickau","type":"Landkreis"},"federalState":{"key":"14","name":"Sachsen"}},{"name":"Windmühlenstr.","postalCode":"09212","locality":"Limbach-Oberfrohna","municipality":{"key":"14524180","name":"Limbach-Oberfrohna, Stadt","type":"Stadt"},"district":{"key":"14524","name":"Zwickau","type":"Landkreis"},"federalState":{"key":"14","name":"Sachsen"}},{"name":"Wolkenburger Str.","postalCode":"09212","locality":"Limbach-Oberfrohna","municipality":{"key":"14524180","name":"Limbach-Oberfrohna, Stadt","type":"Stadt"},"district":{"key":"14524","name":"Zwickau","type":"Landkreis"},"federalState":{"key":"14","name":"Sachsen"}},{"name":"Wüstenbrander Str.","postalCode":"09212","locality":"Limbach-Oberfrohna","municipality":{"key":"14524180","name":"Limbach-Oberfrohna, Stadt","type":"Stadt"},"district":{"key":"14524","name":"Zwickau","type":"Landkreis"},"federalState":{"key":"14","name":"Sachsen"}},{"name":"Zeppelinstr.","postalCode":"09212","locality":"Limbach-Oberfrohna","municipality":{"key":"14524180","name":"Limbach-Oberfrohna, Stadt","type":"Stadt"},"district":{"key":"14524","name":"Zwickau","type":"Landkreis"},"federalState":{"key":"14","name":"Sachsen"}},{"name":"Ziegelstr.","postalCode":"09212","locality":"Limbach-Oberfrohna","municipality":{"key":"14524180","name":"Limbach-Oberfrohna, Stadt","type":"Stadt"},"district":{"key":"14524","name":"Zwickau","type":"Landkreis"},"federalState":{"key":"14","name":"Sachsen"}},{"name":"Zliner Str.","postalCode":"09212","locality":"Limbach-Oberfrohna","municipality":{"key":"14524180","name":"Limbach-Oberfrohna, Stadt","type":"Stadt"},"district":{"key":"14524","name":"Zwickau","type":"Landkreis"},"federalState":{"key":"14","name":"Sachsen"}},{"name":"Zum Kapellenberg","postalCode":"09212","locality":"Limbach-Oberfrohna","municipality":{"key":"14524180","name":"Limbach-Oberfrohna, Stadt","type":"Stadt"},"district":{"key":"14524","name":"Zwickau","type":"Landkreis"},"federalState":{"key":"14","name":"Sachsen"}},{"name":"Zum Lindenhof","postalCode":"09212","locality":"Limbach-Oberfrohna","municipality":{"key":"14524180","name":"Limbach-Oberfrohna, Stadt","type":"Stadt"},"district":{"key":"14524","name":"Zwickau","type":"Landkreis"},"federalState":{"key":"14","name":"Sachsen"}},{"name":"Zum Sportplatz","postalCode":"09212","locality":"Limbach-Oberfrohna","municipality":{"key":"14524180","name":"Limbach-Oberfrohna, Stadt","type":"Stadt"},"district":{"key":"14524","name":"Zwickau","type":"Landkreis"},"federalState":{"key":"14","name":"Sachsen"}},{"name":"Zur Papierfabrik","postalCode":"09212","locality":"Limbach-Oberfrohna","municipality":{"key":"14524180","name":"Limbach-Oberfrohna, Stadt","type":"Stadt"},"district":{"key":"14524","name":"Zwickau","type":"Landkreis"},"federalState":{"key":"14","name":"Sachsen"}},{"name":"Äußere Dresdner Str.","postalCode":"08066","locality":"Zwickau","municipality":{"key":"14524330","name":"Zwickau, Stadt","type":"Stadt"},"district":{"key":"14524","name":"Zwickau","type":"Landkreis"},"federalState":{"key":"14","name":"Sachsen"}},{"name":"Äußere Schneeberger Str.","postalCode":"08056","locality":"Zwickau","municipality":{"key":"14524330","name":"Zwickau, Stadt","type":"Stadt"},"district":{"key":"14524","name":"Zwickau","type":"Landkreis"},"federalState":{"key":"14","name":"Sachsen"}},{"name":"Äußere Zwickauer Str.","postalCode":"08064","locality":"Zwickau","municipality":{"key":"14524330","name":"Zwickau, Stadt","type":"Stadt"},"district":{"key":"14524","name":"Zwickau","type":"Landkreis"},"federalState":{"key":"14","name":"Sachsen"}},{"name":"Öffentlicher Park Pleißa","postalCode":"09212","locality":"Limbach-Oberfrohna","municipality":{"key":"14524180","name":"Limbach-Oberfrohna, Stadt","type":"Stadt"},"district":{"key":"14524","name":"Zwickau","type":"Landkreis"},"federalState":{"key":"14","name":"Sachsen"}},]