[{"name":"Adelheidstr.","postalCode":"65396","locality":"Walluf","municipality":{"key":"06439017","name":"Walluf","type":"Kreisangehörige_Gemeinde"},"district":{"key":"06439","name":"Rheingau-Taunus-Kreis","type":"Landkreis"},"federalState":{"key":"06","name":"Hessen"}},{"name":"Am Eichelgarten","postalCode":"65396","locality":"Walluf","municipality":{"key":"06439017","name":"Walluf","type":"Kreisangehörige_Gemeinde"},"district":{"key":"06439","name":"Rheingau-Taunus-Kreis","type":"Landkreis"},"federalState":{"key":"06","name":"Hessen"}},{"name":"Am Klingenweg","postalCode":"65396","locality":"Walluf","municipality":{"key":"06439017","name":"Walluf","type":"Kreisangehörige_Gemeinde"},"district":{"key":"06439","name":"Rheingau-Taunus-Kreis","type":"Landkreis"},"federalState":{"key":"06","name":"Hessen"}},{"name":"Am Mühlgraben","postalCode":"65396","locality":"Walluf","municipality":{"key":"06439017","name":"Walluf","type":"Kreisangehörige_Gemeinde"},"district":{"key":"06439","name":"Rheingau-Taunus-Kreis","type":"Landkreis"},"federalState":{"key":"06","name":"Hessen"}},{"name":"An den Reben","postalCode":"65396","locality":"Walluf","municipality":{"key":"06439017","name":"Walluf","type":"Kreisangehörige_Gemeinde"},"district":{"key":"06439","name":"Rheingau-Taunus-Kreis","type":"Landkreis"},"federalState":{"key":"06","name":"Hessen"}},{"name":"An der Dreispitz","postalCode":"65396","locality":"Walluf","municipality":{"key":"06439017","name":"Walluf","type":"Kreisangehörige_Gemeinde"},"district":{"key":"06439","name":"Rheingau-Taunus-Kreis","type":"Landkreis"},"federalState":{"key":"06","name":"Hessen"}},{"name":"Asternweg","postalCode":"65396","locality":"Walluf","municipality":{"key":"06439017","name":"Walluf","type":"Kreisangehörige_Gemeinde"},"district":{"key":"06439","name":"Rheingau-Taunus-Kreis","type":"Landkreis"},"federalState":{"key":"06","name":"Hessen"}},{"name":"Bachweg","postalCode":"65396","locality":"Walluf","municipality":{"key":"06439017","name":"Walluf","type":"Kreisangehörige_Gemeinde"},"district":{"key":"06439","name":"Rheingau-Taunus-Kreis","type":"Landkreis"},"federalState":{"key":"06","name":"Hessen"}},{"name":"Bahnhofstr.","postalCode":"65396","locality":"Walluf","municipality":{"key":"06439017","name":"Walluf","type":"Kreisangehörige_Gemeinde"},"district":{"key":"06439","name":"Rheingau-Taunus-Kreis","type":"Landkreis"},"federalState":{"key":"06","name":"Hessen"}},{"name":"Beckerweg","postalCode":"65396","locality":"Walluf","municipality":{"key":"06439017","name":"Walluf","type":"Kreisangehörige_Gemeinde"},"district":{"key":"06439","name":"Rheingau-Taunus-Kreis","type":"Landkreis"},"federalState":{"key":"06","name":"Hessen"}},{"name":"Bergbildstock","postalCode":"65396","locality":"Walluf","municipality":{"key":"06439017","name":"Walluf","type":"Kreisangehörige_Gemeinde"},"district":{"key":"06439","name":"Rheingau-Taunus-Kreis","type":"Landkreis"},"federalState":{"key":"06","name":"Hessen"}},{"name":"Birkenweg","postalCode":"65396","locality":"Walluf","municipality":{"key":"06439017","name":"Walluf","type":"Kreisangehörige_Gemeinde"},"district":{"key":"06439","name":"Rheingau-Taunus-Kreis","type":"Landkreis"},"federalState":{"key":"06","name":"Hessen"}},{"name":"Brückenstr.","postalCode":"65396","locality":"Walluf","municipality":{"key":"06439017","name":"Walluf","type":"Kreisangehörige_Gemeinde"},"district":{"key":"06439","name":"Rheingau-Taunus-Kreis","type":"Landkreis"},"federalState":{"key":"06","name":"Hessen"}},{"name":"Drobollacher Platz","postalCode":"65396","locality":"Walluf","municipality":{"key":"06439017","name":"Walluf","type":"Kreisangehörige_Gemeinde"},"district":{"key":"06439","name":"Rheingau-Taunus-Kreis","type":"Landkreis"},"federalState":{"key":"06","name":"Hessen"}},{"name":"Egerstr.","postalCode":"65396","locality":"Walluf","municipality":{"key":"06439017","name":"Walluf","type":"Kreisangehörige_Gemeinde"},"district":{"key":"06439","name":"Rheingau-Taunus-Kreis","type":"Landkreis"},"federalState":{"key":"06","name":"Hessen"}},{"name":"Eichenweg","postalCode":"65396","locality":"Walluf","municipality":{"key":"06439017","name":"Walluf","type":"Kreisangehörige_Gemeinde"},"district":{"key":"06439","name":"Rheingau-Taunus-Kreis","type":"Landkreis"},"federalState":{"key":"06","name":"Hessen"}},{"name":"Eilweg","postalCode":"65396","locality":"Walluf","municipality":{"key":"06439017","name":"Walluf","type":"Kreisangehörige_Gemeinde"},"district":{"key":"06439","name":"Rheingau-Taunus-Kreis","type":"Landkreis"},"federalState":{"key":"06","name":"Hessen"}},{"name":"Eltviller Weg","postalCode":"65396","locality":"Walluf","municipality":{"key":"06439017","name":"Walluf","type":"Kreisangehörige_Gemeinde"},"district":{"key":"06439","name":"Rheingau-Taunus-Kreis","type":"Landkreis"},"federalState":{"key":"06","name":"Hessen"}},{"name":"Enzianweg","postalCode":"65396","locality":"Walluf","municipality":{"key":"06439017","name":"Walluf","type":"Kreisangehörige_Gemeinde"},"district":{"key":"06439","name":"Rheingau-Taunus-Kreis","type":"Landkreis"},"federalState":{"key":"06","name":"Hessen"}},{"name":"Erikaweg","postalCode":"65396","locality":"Walluf","municipality":{"key":"06439017","name":"Walluf","type":"Kreisangehörige_Gemeinde"},"district":{"key":"06439","name":"Rheingau-Taunus-Kreis","type":"Landkreis"},"federalState":{"key":"06","name":"Hessen"}},{"name":"Fischergasse","postalCode":"65396","locality":"Walluf","municipality":{"key":"06439017","name":"Walluf","type":"Kreisangehörige_Gemeinde"},"district":{"key":"06439","name":"Rheingau-Taunus-Kreis","type":"Landkreis"},"federalState":{"key":"06","name":"Hessen"}},{"name":"Fliederstr.","postalCode":"65396","locality":"Walluf","municipality":{"key":"06439017","name":"Walluf","type":"Kreisangehörige_Gemeinde"},"district":{"key":"06439","name":"Rheingau-Taunus-Kreis","type":"Landkreis"},"federalState":{"key":"06","name":"Hessen"}},{"name":"Frauensteiner Weg","postalCode":"65396","locality":"Walluf","municipality":{"key":"06439017","name":"Walluf","type":"Kreisangehörige_Gemeinde"},"district":{"key":"06439","name":"Rheingau-Taunus-Kreis","type":"Landkreis"},"federalState":{"key":"06","name":"Hessen"}},{"name":"Freiherr-von-Kolborn-Str.","postalCode":"65396","locality":"Walluf","municipality":{"key":"06439017","name":"Walluf","type":"Kreisangehörige_Gemeinde"},"district":{"key":"06439","name":"Rheingau-Taunus-Kreis","type":"Landkreis"},"federalState":{"key":"06","name":"Hessen"}},{"name":"Gartenfeldstr.","postalCode":"65396","locality":"Walluf","municipality":{"key":"06439017","name":"Walluf","type":"Kreisangehörige_Gemeinde"},"district":{"key":"06439","name":"Rheingau-Taunus-Kreis","type":"Landkreis"},"federalState":{"key":"06","name":"Hessen"}},{"name":"Haselnußgasse","postalCode":"65396","locality":"Walluf","municipality":{"key":"06439017","name":"Walluf","type":"Kreisangehörige_Gemeinde"},"district":{"key":"06439","name":"Rheingau-Taunus-Kreis","type":"Landkreis"},"federalState":{"key":"06","name":"Hessen"}},{"name":"Hauptstr.","postalCode":"65396","locality":"Walluf","municipality":{"key":"06439017","name":"Walluf","type":"Kreisangehörige_Gemeinde"},"district":{"key":"06439","name":"Rheingau-Taunus-Kreis","type":"Landkreis"},"federalState":{"key":"06","name":"Hessen"}},{"name":"Heinrich-Maurer-Weg","postalCode":"65396","locality":"Walluf","municipality":{"key":"06439017","name":"Walluf","type":"Kreisangehörige_Gemeinde"},"district":{"key":"06439","name":"Rheingau-Taunus-Kreis","type":"Landkreis"},"federalState":{"key":"06","name":"Hessen"}},{"name":"Hintergasse","postalCode":"65396","locality":"Walluf","municipality":{"key":"06439017","name":"Walluf","type":"Kreisangehörige_Gemeinde"},"district":{"key":"06439","name":"Rheingau-Taunus-Kreis","type":"Landkreis"},"federalState":{"key":"06","name":"Hessen"}},{"name":"Hohlweg","postalCode":"65396","locality":"Walluf","municipality":{"key":"06439017","name":"Walluf","type":"Kreisangehörige_Gemeinde"},"district":{"key":"06439","name":"Rheingau-Taunus-Kreis","type":"Landkreis"},"federalState":{"key":"06","name":"Hessen"}},{"name":"Im Gottesacker","postalCode":"65396","locality":"Walluf","municipality":{"key":"06439017","name":"Walluf","type":"Kreisangehörige_Gemeinde"},"district":{"key":"06439","name":"Rheingau-Taunus-Kreis","type":"Landkreis"},"federalState":{"key":"06","name":"Hessen"}},{"name":"Im Grohenstück","postalCode":"65396","locality":"Walluf","municipality":{"key":"06439017","name":"Walluf","type":"Kreisangehörige_Gemeinde"},"district":{"key":"06439","name":"Rheingau-Taunus-Kreis","type":"Landkreis"},"federalState":{"key":"06","name":"Hessen"}},{"name":"Im Jungenstück","postalCode":"65396","locality":"Walluf","municipality":{"key":"06439017","name":"Walluf","type":"Kreisangehörige_Gemeinde"},"district":{"key":"06439","name":"Rheingau-Taunus-Kreis","type":"Landkreis"},"federalState":{"key":"06","name":"Hessen"}},{"name":"Im Kressboden","postalCode":"65396","locality":"Walluf","municipality":{"key":"06439017","name":"Walluf","type":"Kreisangehörige_Gemeinde"},"district":{"key":"06439","name":"Rheingau-Taunus-Kreis","type":"Landkreis"},"federalState":{"key":"06","name":"Hessen"}},{"name":"Im Oberberg","postalCode":"65396","locality":"Walluf","municipality":{"key":"06439017","name":"Walluf","type":"Kreisangehörige_Gemeinde"},"district":{"key":"06439","name":"Rheingau-Taunus-Kreis","type":"Landkreis"},"federalState":{"key":"06","name":"Hessen"}},{"name":"Im Sand","postalCode":"65396","locality":"Walluf","municipality":{"key":"06439017","name":"Walluf","type":"Kreisangehörige_Gemeinde"},"district":{"key":"06439","name":"Rheingau-Taunus-Kreis","type":"Landkreis"},"federalState":{"key":"06","name":"Hessen"}},{"name":"In der Rehbach","postalCode":"65396","locality":"Walluf","municipality":{"key":"06439017","name":"Walluf","type":"Kreisangehörige_Gemeinde"},"district":{"key":"06439","name":"Rheingau-Taunus-Kreis","type":"Landkreis"},"federalState":{"key":"06","name":"Hessen"}},{"name":"Irisweg","postalCode":"65396","locality":"Walluf","municipality":{"key":"06439017","name":"Walluf","type":"Kreisangehörige_Gemeinde"},"district":{"key":"06439","name":"Rheingau-Taunus-Kreis","type":"Landkreis"},"federalState":{"key":"06","name":"Hessen"}},{"name":"Jakob-Fechtig-Weg","postalCode":"65396","locality":"Walluf","municipality":{"key":"06439017","name":"Walluf","type":"Kreisangehörige_Gemeinde"},"district":{"key":"06439","name":"Rheingau-Taunus-Kreis","type":"Landkreis"},"federalState":{"key":"06","name":"Hessen"}},{"name":"Johannisbrunnenstr.","postalCode":"65396","locality":"Walluf","municipality":{"key":"06439017","name":"Walluf","type":"Kreisangehörige_Gemeinde"},"district":{"key":"06439","name":"Rheingau-Taunus-Kreis","type":"Landkreis"},"federalState":{"key":"06","name":"Hessen"}},{"name":"Johannisfeld","postalCode":"65396","locality":"Walluf","municipality":{"key":"06439017","name":"Walluf","type":"Kreisangehörige_Gemeinde"},"district":{"key":"06439","name":"Rheingau-Taunus-Kreis","type":"Landkreis"},"federalState":{"key":"06","name":"Hessen"}},{"name":"Kapellenstr.","postalCode":"65396","locality":"Walluf","municipality":{"key":"06439017","name":"Walluf","type":"Kreisangehörige_Gemeinde"},"district":{"key":"06439","name":"Rheingau-Taunus-Kreis","type":"Landkreis"},"federalState":{"key":"06","name":"Hessen"}},{"name":"Kirchgasse","postalCode":"65396","locality":"Walluf","municipality":{"key":"06439017","name":"Walluf","type":"Kreisangehörige_Gemeinde"},"district":{"key":"06439","name":"Rheingau-Taunus-Kreis","type":"Landkreis"},"federalState":{"key":"06","name":"Hessen"}},{"name":"Krokusweg","postalCode":"65396","locality":"Walluf","municipality":{"key":"06439017","name":"Walluf","type":"Kreisangehörige_Gemeinde"},"district":{"key":"06439","name":"Rheingau-Taunus-Kreis","type":"Landkreis"},"federalState":{"key":"06","name":"Hessen"}},{"name":"Liebaustr.","postalCode":"65396","locality":"Walluf","municipality":{"key":"06439017","name":"Walluf","type":"Kreisangehörige_Gemeinde"},"district":{"key":"06439","name":"Rheingau-Taunus-Kreis","type":"Landkreis"},"federalState":{"key":"06","name":"Hessen"}},{"name":"Luxemburger Str.","postalCode":"65396","locality":"Walluf","municipality":{"key":"06439017","name":"Walluf","type":"Kreisangehörige_Gemeinde"},"district":{"key":"06439","name":"Rheingau-Taunus-Kreis","type":"Landkreis"},"federalState":{"key":"06","name":"Hessen"}},{"name":"Marktstr.","postalCode":"65396","locality":"Walluf","municipality":{"key":"06439017","name":"Walluf","type":"Kreisangehörige_Gemeinde"},"district":{"key":"06439","name":"Rheingau-Taunus-Kreis","type":"Landkreis"},"federalState":{"key":"06","name":"Hessen"}},{"name":"Martinstr.","postalCode":"65396","locality":"Walluf","municipality":{"key":"06439017","name":"Walluf","type":"Kreisangehörige_Gemeinde"},"district":{"key":"06439","name":"Rheingau-Taunus-Kreis","type":"Landkreis"},"federalState":{"key":"06","name":"Hessen"}},{"name":"Mohnweg","postalCode":"65396","locality":"Walluf","municipality":{"key":"06439017","name":"Walluf","type":"Kreisangehörige_Gemeinde"},"district":{"key":"06439","name":"Rheingau-Taunus-Kreis","type":"Landkreis"},"federalState":{"key":"06","name":"Hessen"}},{"name":"Mühlstr.","postalCode":"65396","locality":"Walluf","municipality":{"key":"06439017","name":"Walluf","type":"Kreisangehörige_Gemeinde"},"district":{"key":"06439","name":"Rheingau-Taunus-Kreis","type":"Landkreis"},"federalState":{"key":"06","name":"Hessen"}},{"name":"Nelkenstr.","postalCode":"65396","locality":"Walluf","municipality":{"key":"06439017","name":"Walluf","type":"Kreisangehörige_Gemeinde"},"district":{"key":"06439","name":"Rheingau-Taunus-Kreis","type":"Landkreis"},"federalState":{"key":"06","name":"Hessen"}},{"name":"Neustr.","postalCode":"65396","locality":"Walluf","municipality":{"key":"06439017","name":"Walluf","type":"Kreisangehörige_Gemeinde"},"district":{"key":"06439","name":"Rheingau-Taunus-Kreis","type":"Landkreis"},"federalState":{"key":"06","name":"Hessen"}},{"name":"Obere Martinsthaler Str.","postalCode":"65396","locality":"Walluf","municipality":{"key":"06439017","name":"Walluf","type":"Kreisangehörige_Gemeinde"},"district":{"key":"06439","name":"Rheingau-Taunus-Kreis","type":"Landkreis"},"federalState":{"key":"06","name":"Hessen"}},{"name":"Odenwaldstr.","postalCode":"65396","locality":"Walluf","municipality":{"key":"06439017","name":"Walluf","type":"Kreisangehörige_Gemeinde"},"district":{"key":"06439","name":"Rheingau-Taunus-Kreis","type":"Landkreis"},"federalState":{"key":"06","name":"Hessen"}},{"name":"Paradiesstr.","postalCode":"65396","locality":"Walluf","municipality":{"key":"06439017","name":"Walluf","type":"Kreisangehörige_Gemeinde"},"district":{"key":"06439","name":"Rheingau-Taunus-Kreis","type":"Landkreis"},"federalState":{"key":"06","name":"Hessen"}},{"name":"Petersweg","postalCode":"65396","locality":"Walluf","municipality":{"key":"06439017","name":"Walluf","type":"Kreisangehörige_Gemeinde"},"district":{"key":"06439","name":"Rheingau-Taunus-Kreis","type":"Landkreis"},"federalState":{"key":"06","name":"Hessen"}},{"name":"Pflänzerweg","postalCode":"65396","locality":"Walluf","municipality":{"key":"06439017","name":"Walluf","type":"Kreisangehörige_Gemeinde"},"district":{"key":"06439","name":"Rheingau-Taunus-Kreis","type":"Landkreis"},"federalState":{"key":"06","name":"Hessen"}},{"name":"Rheinallee","postalCode":"65396","locality":"Walluf","municipality":{"key":"06439017","name":"Walluf","type":"Kreisangehörige_Gemeinde"},"district":{"key":"06439","name":"Rheingau-Taunus-Kreis","type":"Landkreis"},"federalState":{"key":"06","name":"Hessen"}},{"name":"Rheinstr.","postalCode":"65396","locality":"Walluf","municipality":{"key":"06439017","name":"Walluf","type":"Kreisangehörige_Gemeinde"},"district":{"key":"06439","name":"Rheingau-Taunus-Kreis","type":"Landkreis"},"federalState":{"key":"06","name":"Hessen"}},{"name":"Rhönstr.","postalCode":"65396","locality":"Walluf","municipality":{"key":"06439017","name":"Walluf","type":"Kreisangehörige_Gemeinde"},"district":{"key":"06439","name":"Rheingau-Taunus-Kreis","type":"Landkreis"},"federalState":{"key":"06","name":"Hessen"}},{"name":"Riesengebirgsstr.","postalCode":"65396","locality":"Walluf","municipality":{"key":"06439017","name":"Walluf","type":"Kreisangehörige_Gemeinde"},"district":{"key":"06439","name":"Rheingau-Taunus-Kreis","type":"Landkreis"},"federalState":{"key":"06","name":"Hessen"}},{"name":"Rieslingstr.","postalCode":"65396","locality":"Walluf","municipality":{"key":"06439017","name":"Walluf","type":"Kreisangehörige_Gemeinde"},"district":{"key":"06439","name":"Rheingau-Taunus-Kreis","type":"Landkreis"},"federalState":{"key":"06","name":"Hessen"}},{"name":"Rosenstr.","postalCode":"65396","locality":"Walluf","municipality":{"key":"06439017","name":"Walluf","type":"Kreisangehörige_Gemeinde"},"district":{"key":"06439","name":"Rheingau-Taunus-Kreis","type":"Landkreis"},"federalState":{"key":"06","name":"Hessen"}},{"name":"Sandweg","postalCode":"65396","locality":"Walluf","municipality":{"key":"06439017","name":"Walluf","type":"Kreisangehörige_Gemeinde"},"district":{"key":"06439","name":"Rheingau-Taunus-Kreis","type":"Landkreis"},"federalState":{"key":"06","name":"Hessen"}},{"name":"Schachtweg","postalCode":"65396","locality":"Walluf","municipality":{"key":"06439017","name":"Walluf","type":"Kreisangehörige_Gemeinde"},"district":{"key":"06439","name":"Rheingau-Taunus-Kreis","type":"Landkreis"},"federalState":{"key":"06","name":"Hessen"}},{"name":"Schmiedegäßchen","postalCode":"65396","locality":"Walluf","municipality":{"key":"06439017","name":"Walluf","type":"Kreisangehörige_Gemeinde"},"district":{"key":"06439","name":"Rheingau-Taunus-Kreis","type":"Landkreis"},"federalState":{"key":"06","name":"Hessen"}},{"name":"Schöne Aussicht","postalCode":"65396","locality":"Walluf","municipality":{"key":"06439017","name":"Walluf","type":"Kreisangehörige_Gemeinde"},"district":{"key":"06439","name":"Rheingau-Taunus-Kreis","type":"Landkreis"},"federalState":{"key":"06","name":"Hessen"}},{"name":"Schulberg","postalCode":"65396","locality":"Walluf","municipality":{"key":"06439017","name":"Walluf","type":"Kreisangehörige_Gemeinde"},"district":{"key":"06439","name":"Rheingau-Taunus-Kreis","type":"Landkreis"},"federalState":{"key":"06","name":"Hessen"}},{"name":"Schulstr.","postalCode":"65396","locality":"Walluf","municipality":{"key":"06439017","name":"Walluf","type":"Kreisangehörige_Gemeinde"},"district":{"key":"06439","name":"Rheingau-Taunus-Kreis","type":"Landkreis"},"federalState":{"key":"06","name":"Hessen"}},{"name":"Sonnenblumenweg","postalCode":"65396","locality":"Walluf","municipality":{"key":"06439017","name":"Walluf","type":"Kreisangehörige_Gemeinde"},"district":{"key":"06439","name":"Rheingau-Taunus-Kreis","type":"Landkreis"},"federalState":{"key":"06","name":"Hessen"}},{"name":"Spätburgunderweg","postalCode":"65396","locality":"Walluf","municipality":{"key":"06439017","name":"Walluf","type":"Kreisangehörige_Gemeinde"},"district":{"key":"06439","name":"Rheingau-Taunus-Kreis","type":"Landkreis"},"federalState":{"key":"06","name":"Hessen"}},{"name":"Spessartstr.","postalCode":"65396","locality":"Walluf","municipality":{"key":"06439017","name":"Walluf","type":"Kreisangehörige_Gemeinde"},"district":{"key":"06439","name":"Rheingau-Taunus-Kreis","type":"Landkreis"},"federalState":{"key":"06","name":"Hessen"}},{"name":"Steingartenweg","postalCode":"65396","locality":"Walluf","municipality":{"key":"06439017","name":"Walluf","type":"Kreisangehörige_Gemeinde"},"district":{"key":"06439","name":"Rheingau-Taunus-Kreis","type":"Landkreis"},"federalState":{"key":"06","name":"Hessen"}},{"name":"Steingasse","postalCode":"65396","locality":"Walluf","municipality":{"key":"06439017","name":"Walluf","type":"Kreisangehörige_Gemeinde"},"district":{"key":"06439","name":"Rheingau-Taunus-Kreis","type":"Landkreis"},"federalState":{"key":"06","name":"Hessen"}},{"name":"Steinheimer Str.","postalCode":"65396","locality":"Walluf","municipality":{"key":"06439017","name":"Walluf","type":"Kreisangehörige_Gemeinde"},"district":{"key":"06439","name":"Rheingau-Taunus-Kreis","type":"Landkreis"},"federalState":{"key":"06","name":"Hessen"}},{"name":"Steinritzweg","postalCode":"65396","locality":"Walluf","municipality":{"key":"06439017","name":"Walluf","type":"Kreisangehörige_Gemeinde"},"district":{"key":"06439","name":"Rheingau-Taunus-Kreis","type":"Landkreis"},"federalState":{"key":"06","name":"Hessen"}},{"name":"St.-Elisabethenstr.","postalCode":"65396","locality":"Walluf","municipality":{"key":"06439017","name":"Walluf","type":"Kreisangehörige_Gemeinde"},"district":{"key":"06439","name":"Rheingau-Taunus-Kreis","type":"Landkreis"},"federalState":{"key":"06","name":"Hessen"}},{"name":"Tannenweg","postalCode":"65396","locality":"Walluf","municipality":{"key":"06439017","name":"Walluf","type":"Kreisangehörige_Gemeinde"},"district":{"key":"06439","name":"Rheingau-Taunus-Kreis","type":"Landkreis"},"federalState":{"key":"06","name":"Hessen"}},{"name":"Taunusstr.","postalCode":"65396","locality":"Walluf","municipality":{"key":"06439017","name":"Walluf","type":"Kreisangehörige_Gemeinde"},"district":{"key":"06439","name":"Rheingau-Taunus-Kreis","type":"Landkreis"},"federalState":{"key":"06","name":"Hessen"}},{"name":"Tulpenweg","postalCode":"65396","locality":"Walluf","municipality":{"key":"06439017","name":"Walluf","type":"Kreisangehörige_Gemeinde"},"district":{"key":"06439","name":"Rheingau-Taunus-Kreis","type":"Landkreis"},"federalState":{"key":"06","name":"Hessen"}},{"name":"Untere Martinsthaler Str.","postalCode":"65396","locality":"Walluf","municipality":{"key":"06439017","name":"Walluf","type":"Kreisangehörige_Gemeinde"},"district":{"key":"06439","name":"Rheingau-Taunus-Kreis","type":"Landkreis"},"federalState":{"key":"06","name":"Hessen"}},{"name":"Veilchenweg","postalCode":"65396","locality":"Walluf","municipality":{"key":"06439017","name":"Walluf","type":"Kreisangehörige_Gemeinde"},"district":{"key":"06439","name":"Rheingau-Taunus-Kreis","type":"Landkreis"},"federalState":{"key":"06","name":"Hessen"}},{"name":"Vitusberg","postalCode":"65396","locality":"Walluf","municipality":{"key":"06439017","name":"Walluf","type":"Kreisangehörige_Gemeinde"},"district":{"key":"06439","name":"Rheingau-Taunus-Kreis","type":"Landkreis"},"federalState":{"key":"06","name":"Hessen"}},{"name":"Walkenbergweg","postalCode":"65396","locality":"Walluf","municipality":{"key":"06439017","name":"Walluf","type":"Kreisangehörige_Gemeinde"},"district":{"key":"06439","name":"Rheingau-Taunus-Kreis","type":"Landkreis"},"federalState":{"key":"06","name":"Hessen"}},{"name":"Werftstr.","postalCode":"65396","locality":"Walluf","municipality":{"key":"06439017","name":"Walluf","type":"Kreisangehörige_Gemeinde"},"district":{"key":"06439","name":"Rheingau-Taunus-Kreis","type":"Landkreis"},"federalState":{"key":"06","name":"Hessen"}},{"name":"Westerwaldstr.","postalCode":"65396","locality":"Walluf","municipality":{"key":"06439017","name":"Walluf","type":"Kreisangehörige_Gemeinde"},"district":{"key":"06439","name":"Rheingau-Taunus-Kreis","type":"Landkreis"},"federalState":{"key":"06","name":"Hessen"}},]