[{"name":"Akazienallee","postalCode":"31707","locality":"Bad Eilsen","municipality":{"key":"03257005","name":"Bad Eilsen","type":"Kreisangehörige_Gemeinde"},"district":{"key":"03257","name":"Schaumburg","type":"Landkreis"},"federalState":{"key":"03","name":"Niedersachsen"}},{"name":"Am Kreuzkamp","postalCode":"31707","locality":"Bad Eilsen","municipality":{"key":"03257005","name":"Bad Eilsen","type":"Kreisangehörige_Gemeinde"},"district":{"key":"03257","name":"Schaumburg","type":"Landkreis"},"federalState":{"key":"03","name":"Niedersachsen"}},{"name":"Am Kurpark","postalCode":"31707","locality":"Bad Eilsen","municipality":{"key":"03257005","name":"Bad Eilsen","type":"Kreisangehörige_Gemeinde"},"district":{"key":"03257","name":"Schaumburg","type":"Landkreis"},"federalState":{"key":"03","name":"Niedersachsen"}},{"name":"Am Rottfeld","postalCode":"31707","locality":"Bad Eilsen","municipality":{"key":"03257005","name":"Bad Eilsen","type":"Kreisangehörige_Gemeinde"},"district":{"key":"03257","name":"Schaumburg","type":"Landkreis"},"federalState":{"key":"03","name":"Niedersachsen"}},{"name":"Arensburger Str.","postalCode":"31707","locality":"Bad Eilsen","municipality":{"key":"03257005","name":"Bad Eilsen","type":"Kreisangehörige_Gemeinde"},"district":{"key":"03257","name":"Schaumburg","type":"Landkreis"},"federalState":{"key":"03","name":"Niedersachsen"}},{"name":"Auf dem Brinke","postalCode":"31707","locality":"Bad Eilsen","municipality":{"key":"03257005","name":"Bad Eilsen","type":"Kreisangehörige_Gemeinde"},"district":{"key":"03257","name":"Schaumburg","type":"Landkreis"},"federalState":{"key":"03","name":"Niedersachsen"}},{"name":"Auf der Bult","postalCode":"31707","locality":"Bad Eilsen","municipality":{"key":"03257005","name":"Bad Eilsen","type":"Kreisangehörige_Gemeinde"},"district":{"key":"03257","name":"Schaumburg","type":"Landkreis"},"federalState":{"key":"03","name":"Niedersachsen"}},{"name":"Bahnhofstr.","postalCode":"31707","locality":"Bad Eilsen","municipality":{"key":"03257005","name":"Bad Eilsen","type":"Kreisangehörige_Gemeinde"},"district":{"key":"03257","name":"Schaumburg","type":"Landkreis"},"federalState":{"key":"03","name":"Niedersachsen"}},{"name":"Berliner Str.","postalCode":"31707","locality":"Bad Eilsen","municipality":{"key":"03257005","name":"Bad Eilsen","type":"Kreisangehörige_Gemeinde"},"district":{"key":"03257","name":"Schaumburg","type":"Landkreis"},"federalState":{"key":"03","name":"Niedersachsen"}},{"name":"Brunnenpromenade","postalCode":"31707","locality":"Bad Eilsen","municipality":{"key":"03257005","name":"Bad Eilsen","type":"Kreisangehörige_Gemeinde"},"district":{"key":"03257","name":"Schaumburg","type":"Landkreis"},"federalState":{"key":"03","name":"Niedersachsen"}},{"name":"Bückeburger Str.","postalCode":"31707","locality":"Bad Eilsen","municipality":{"key":"03257005","name":"Bad Eilsen","type":"Kreisangehörige_Gemeinde"},"district":{"key":"03257","name":"Schaumburg","type":"Landkreis"},"federalState":{"key":"03","name":"Niedersachsen"}},{"name":"Dr.-Faber-Str.","postalCode":"31707","locality":"Bad Eilsen","municipality":{"key":"03257005","name":"Bad Eilsen","type":"Kreisangehörige_Gemeinde"},"district":{"key":"03257","name":"Schaumburg","type":"Landkreis"},"federalState":{"key":"03","name":"Niedersachsen"}},{"name":"Eduard-Mörike-Str.","postalCode":"31707","locality":"Bad Eilsen","municipality":{"key":"03257005","name":"Bad Eilsen","type":"Kreisangehörige_Gemeinde"},"district":{"key":"03257","name":"Schaumburg","type":"Landkreis"},"federalState":{"key":"03","name":"Niedersachsen"}},{"name":"Englischer Garten","postalCode":"31707","locality":"Bad Eilsen","municipality":{"key":"03257005","name":"Bad Eilsen","type":"Kreisangehörige_Gemeinde"},"district":{"key":"03257","name":"Schaumburg","type":"Landkreis"},"federalState":{"key":"03","name":"Niedersachsen"}},{"name":"Feldstr.","postalCode":"31707","locality":"Bad Eilsen","municipality":{"key":"03257005","name":"Bad Eilsen","type":"Kreisangehörige_Gemeinde"},"district":{"key":"03257","name":"Schaumburg","type":"Landkreis"},"federalState":{"key":"03","name":"Niedersachsen"}},{"name":"Franz-Liszt-Str.","postalCode":"31707","locality":"Bad Eilsen","municipality":{"key":"03257005","name":"Bad Eilsen","type":"Kreisangehörige_Gemeinde"},"district":{"key":"03257","name":"Schaumburg","type":"Landkreis"},"federalState":{"key":"03","name":"Niedersachsen"}},{"name":"Friedrich-Ebert-Str.","postalCode":"31707","locality":"Bad Eilsen","municipality":{"key":"03257005","name":"Bad Eilsen","type":"Kreisangehörige_Gemeinde"},"district":{"key":"03257","name":"Schaumburg","type":"Landkreis"},"federalState":{"key":"03","name":"Niedersachsen"}},{"name":"Friedrichstr.","postalCode":"31707","locality":"Bad Eilsen","municipality":{"key":"03257005","name":"Bad Eilsen","type":"Kreisangehörige_Gemeinde"},"district":{"key":"03257","name":"Schaumburg","type":"Landkreis"},"federalState":{"key":"03","name":"Niedersachsen"}},{"name":"Fürst-Adolf-Str.","postalCode":"31707","locality":"Bad Eilsen","municipality":{"key":"03257005","name":"Bad Eilsen","type":"Kreisangehörige_Gemeinde"},"district":{"key":"03257","name":"Schaumburg","type":"Landkreis"},"federalState":{"key":"03","name":"Niedersachsen"}},{"name":"Gerhart-Hauptmann-Str.","postalCode":"31707","locality":"Bad Eilsen","municipality":{"key":"03257005","name":"Bad Eilsen","type":"Kreisangehörige_Gemeinde"},"district":{"key":"03257","name":"Schaumburg","type":"Landkreis"},"federalState":{"key":"03","name":"Niedersachsen"}},{"name":"Graf-Wilhelm-Str.","postalCode":"31707","locality":"Bad Eilsen","municipality":{"key":"03257005","name":"Bad Eilsen","type":"Kreisangehörige_Gemeinde"},"district":{"key":"03257","name":"Schaumburg","type":"Landkreis"},"federalState":{"key":"03","name":"Niedersachsen"}},{"name":"Harrlallee","postalCode":"31707","locality":"Bad Eilsen","municipality":{"key":"03257005","name":"Bad Eilsen","type":"Kreisangehörige_Gemeinde"},"district":{"key":"03257","name":"Schaumburg","type":"Landkreis"},"federalState":{"key":"03","name":"Niedersachsen"}},{"name":"Heinrich-Heine-Str.","postalCode":"31707","locality":"Bad Eilsen","municipality":{"key":"03257005","name":"Bad Eilsen","type":"Kreisangehörige_Gemeinde"},"district":{"key":"03257","name":"Schaumburg","type":"Landkreis"},"federalState":{"key":"03","name":"Niedersachsen"}},{"name":"Hermann-Löns-Str.","postalCode":"31707","locality":"Bad Eilsen","municipality":{"key":"03257005","name":"Bad Eilsen","type":"Kreisangehörige_Gemeinde"},"district":{"key":"03257","name":"Schaumburg","type":"Landkreis"},"federalState":{"key":"03","name":"Niedersachsen"}},{"name":"Herminenstr.","postalCode":"31707","locality":"Bad Eilsen","municipality":{"key":"03257005","name":"Bad Eilsen","type":"Kreisangehörige_Gemeinde"},"district":{"key":"03257","name":"Schaumburg","type":"Landkreis"},"federalState":{"key":"03","name":"Niedersachsen"}},{"name":"Höhenstr.","postalCode":"31707","locality":"Bad Eilsen","municipality":{"key":"03257005","name":"Bad Eilsen","type":"Kreisangehörige_Gemeinde"},"district":{"key":"03257","name":"Schaumburg","type":"Landkreis"},"federalState":{"key":"03","name":"Niedersachsen"}},{"name":"Im Langen Kamp","postalCode":"31707","locality":"Bad Eilsen","municipality":{"key":"03257005","name":"Bad Eilsen","type":"Kreisangehörige_Gemeinde"},"district":{"key":"03257","name":"Schaumburg","type":"Landkreis"},"federalState":{"key":"03","name":"Niedersachsen"}},{"name":"Im Winkel","postalCode":"31707","locality":"Bad Eilsen","municipality":{"key":"03257005","name":"Bad Eilsen","type":"Kreisangehörige_Gemeinde"},"district":{"key":"03257","name":"Schaumburg","type":"Landkreis"},"federalState":{"key":"03","name":"Niedersachsen"}},{"name":"Interessentenweg","postalCode":"31707","locality":"Bad Eilsen","municipality":{"key":"03257005","name":"Bad Eilsen","type":"Kreisangehörige_Gemeinde"},"district":{"key":"03257","name":"Schaumburg","type":"Landkreis"},"federalState":{"key":"03","name":"Niedersachsen"}},{"name":"Julianenstr.","postalCode":"31707","locality":"Bad Eilsen","municipality":{"key":"03257005","name":"Bad Eilsen","type":"Kreisangehörige_Gemeinde"},"district":{"key":"03257","name":"Schaumburg","type":"Landkreis"},"federalState":{"key":"03","name":"Niedersachsen"}},{"name":"Kurpark","postalCode":"31707","locality":"Bad Eilsen","municipality":{"key":"03257005","name":"Bad Eilsen","type":"Kreisangehörige_Gemeinde"},"district":{"key":"03257","name":"Schaumburg","type":"Landkreis"},"federalState":{"key":"03","name":"Niedersachsen"}},{"name":"Kurze Str.","postalCode":"31707","locality":"Bad Eilsen","municipality":{"key":"03257005","name":"Bad Eilsen","type":"Kreisangehörige_Gemeinde"},"district":{"key":"03257","name":"Schaumburg","type":"Landkreis"},"federalState":{"key":"03","name":"Niedersachsen"}},{"name":"Parkstr.","postalCode":"31707","locality":"Bad Eilsen","municipality":{"key":"03257005","name":"Bad Eilsen","type":"Kreisangehörige_Gemeinde"},"district":{"key":"03257","name":"Schaumburg","type":"Landkreis"},"federalState":{"key":"03","name":"Niedersachsen"}},{"name":"Ringstr.","postalCode":"31707","locality":"Bad Eilsen","municipality":{"key":"03257005","name":"Bad Eilsen","type":"Kreisangehörige_Gemeinde"},"district":{"key":"03257","name":"Schaumburg","type":"Landkreis"},"federalState":{"key":"03","name":"Niedersachsen"}},{"name":"Rosenstr.","postalCode":"31707","locality":"Bad Eilsen","municipality":{"key":"03257005","name":"Bad Eilsen","type":"Kreisangehörige_Gemeinde"},"district":{"key":"03257","name":"Schaumburg","type":"Landkreis"},"federalState":{"key":"03","name":"Niedersachsen"}},{"name":"Talstr.","postalCode":"31707","locality":"Bad Eilsen","municipality":{"key":"03257005","name":"Bad Eilsen","type":"Kreisangehörige_Gemeinde"},"district":{"key":"03257","name":"Schaumburg","type":"Landkreis"},"federalState":{"key":"03","name":"Niedersachsen"}},{"name":"Theodor-Heuss-Str.","postalCode":"31707","locality":"Bad Eilsen","municipality":{"key":"03257005","name":"Bad Eilsen","type":"Kreisangehörige_Gemeinde"},"district":{"key":"03257","name":"Schaumburg","type":"Landkreis"},"federalState":{"key":"03","name":"Niedersachsen"}},{"name":"Thomas-Mann-Str.","postalCode":"31707","locality":"Bad Eilsen","municipality":{"key":"03257005","name":"Bad Eilsen","type":"Kreisangehörige_Gemeinde"},"district":{"key":"03257","name":"Schaumburg","type":"Landkreis"},"federalState":{"key":"03","name":"Niedersachsen"}},{"name":"Waldstr.","postalCode":"31707","locality":"Bad Eilsen","municipality":{"key":"03257005","name":"Bad Eilsen","type":"Kreisangehörige_Gemeinde"},"district":{"key":"03257","name":"Schaumburg","type":"Landkreis"},"federalState":{"key":"03","name":"Niedersachsen"}},{"name":"Wiesenstr.","postalCode":"31707","locality":"Bad Eilsen","municipality":{"key":"03257005","name":"Bad Eilsen","type":"Kreisangehörige_Gemeinde"},"district":{"key":"03257","name":"Schaumburg","type":"Landkreis"},"federalState":{"key":"03","name":"Niedersachsen"}},{"name":"Wilhelm-Busch-Str.","postalCode":"31707","locality":"Bad Eilsen","municipality":{"key":"03257005","name":"Bad Eilsen","type":"Kreisangehörige_Gemeinde"},"district":{"key":"03257","name":"Schaumburg","type":"Landkreis"},"federalState":{"key":"03","name":"Niedersachsen"}},{"name":"Wilhelmstr.","postalCode":"31707","locality":"Bad Eilsen","municipality":{"key":"03257005","name":"Bad Eilsen","type":"Kreisangehörige_Gemeinde"},"district":{"key":"03257","name":"Schaumburg","type":"Landkreis"},"federalState":{"key":"03","name":"Niedersachsen"}},]