[{"name":"Am Bahnhof","postalCode":"54533","locality":"Hasborn","municipality":{"key":"07231049","name":"Hasborn","type":"Kreisangehörige_Gemeinde"},"district":{"key":"07231","name":"Bernkastel-Wittlich","type":"Landkreis"},"federalState":{"key":"07","name":"Rheinland-Pfalz"}},{"name":"Am Dreschplatz","postalCode":"54533","locality":"Hasborn","municipality":{"key":"07231049","name":"Hasborn","type":"Kreisangehörige_Gemeinde"},"district":{"key":"07231","name":"Bernkastel-Wittlich","type":"Landkreis"},"federalState":{"key":"07","name":"Rheinland-Pfalz"}},{"name":"Am Wald","postalCode":"54533","locality":"Hasborn","municipality":{"key":"07231049","name":"Hasborn","type":"Kreisangehörige_Gemeinde"},"district":{"key":"07231","name":"Bernkastel-Wittlich","type":"Landkreis"},"federalState":{"key":"07","name":"Rheinland-Pfalz"}},{"name":"Auf der Eichelsbach","postalCode":"54533","locality":"Hasborn","municipality":{"key":"07231049","name":"Hasborn","type":"Kreisangehörige_Gemeinde"},"district":{"key":"07231","name":"Bernkastel-Wittlich","type":"Landkreis"},"federalState":{"key":"07","name":"Rheinland-Pfalz"}},{"name":"Auf Potzerbach","postalCode":"54533","locality":"Hasborn","municipality":{"key":"07231049","name":"Hasborn","type":"Kreisangehörige_Gemeinde"},"district":{"key":"07231","name":"Bernkastel-Wittlich","type":"Landkreis"},"federalState":{"key":"07","name":"Rheinland-Pfalz"}},{"name":"Beienbergweg","postalCode":"54533","locality":"Hasborn","municipality":{"key":"07231049","name":"Hasborn","type":"Kreisangehörige_Gemeinde"},"district":{"key":"07231","name":"Bernkastel-Wittlich","type":"Landkreis"},"federalState":{"key":"07","name":"Rheinland-Pfalz"}},{"name":"Dorfstr.","postalCode":"54533","locality":"Hasborn","municipality":{"key":"07231049","name":"Hasborn","type":"Kreisangehörige_Gemeinde"},"district":{"key":"07231","name":"Bernkastel-Wittlich","type":"Landkreis"},"federalState":{"key":"07","name":"Rheinland-Pfalz"}},{"name":"Hauptstr.","postalCode":"54533","locality":"Hasborn","municipality":{"key":"07231049","name":"Hasborn","type":"Kreisangehörige_Gemeinde"},"district":{"key":"07231","name":"Bernkastel-Wittlich","type":"Landkreis"},"federalState":{"key":"07","name":"Rheinland-Pfalz"}},{"name":"Kirchstr.","postalCode":"54533","locality":"Hasborn","municipality":{"key":"07231049","name":"Hasborn","type":"Kreisangehörige_Gemeinde"},"district":{"key":"07231","name":"Bernkastel-Wittlich","type":"Landkreis"},"federalState":{"key":"07","name":"Rheinland-Pfalz"}},{"name":"Kurzer Weg","postalCode":"54533","locality":"Hasborn","municipality":{"key":"07231049","name":"Hasborn","type":"Kreisangehörige_Gemeinde"},"district":{"key":"07231","name":"Bernkastel-Wittlich","type":"Landkreis"},"federalState":{"key":"07","name":"Rheinland-Pfalz"}},{"name":"Mosel Our Weg","postalCode":"54533","locality":"Hasborn","municipality":{"key":"07231049","name":"Hasborn","type":"Kreisangehörige_Gemeinde"},"district":{"key":"07231","name":"Bernkastel-Wittlich","type":"Landkreis"},"federalState":{"key":"07","name":"Rheinland-Pfalz"}},{"name":"Oberster Acker","postalCode":"54533","locality":"Hasborn","municipality":{"key":"07231049","name":"Hasborn","type":"Kreisangehörige_Gemeinde"},"district":{"key":"07231","name":"Bernkastel-Wittlich","type":"Landkreis"},"federalState":{"key":"07","name":"Rheinland-Pfalz"}},{"name":"Rochusweg","postalCode":"54533","locality":"Hasborn","municipality":{"key":"07231049","name":"Hasborn","type":"Kreisangehörige_Gemeinde"},"district":{"key":"07231","name":"Bernkastel-Wittlich","type":"Landkreis"},"federalState":{"key":"07","name":"Rheinland-Pfalz"}},{"name":"Rund um den Eselsberg","postalCode":"54533","locality":"Hasborn","municipality":{"key":"07231049","name":"Hasborn","type":"Kreisangehörige_Gemeinde"},"district":{"key":"07231","name":"Bernkastel-Wittlich","type":"Landkreis"},"federalState":{"key":"07","name":"Rheinland-Pfalz"}},{"name":"Zum Dümpel","postalCode":"54533","locality":"Hasborn","municipality":{"key":"07231049","name":"Hasborn","type":"Kreisangehörige_Gemeinde"},"district":{"key":"07231","name":"Bernkastel-Wittlich","type":"Landkreis"},"federalState":{"key":"07","name":"Rheinland-Pfalz"}},{"name":"Zum Holg","postalCode":"54533","locality":"Hasborn","municipality":{"key":"07231049","name":"Hasborn","type":"Kreisangehörige_Gemeinde"},"district":{"key":"07231","name":"Bernkastel-Wittlich","type":"Landkreis"},"federalState":{"key":"07","name":"Rheinland-Pfalz"}},{"name":"Zur Siedlung","postalCode":"54533","locality":"Hasborn","municipality":{"key":"07231049","name":"Hasborn","type":"Kreisangehörige_Gemeinde"},"district":{"key":"07231","name":"Bernkastel-Wittlich","type":"Landkreis"},"federalState":{"key":"07","name":"Rheinland-Pfalz"}},]