[{"name":"Adalbert-Stifter-Ring","postalCode":"69493","locality":"Hirschberg an der Bergstraße","municipality":{"key":"08226107","name":"Hirschberg an der Bergstraße","type":"Kreisangehörige_Gemeinde"},"district":{"key":"08226","name":"Rhein-Neckar-Kreis","type":"Landkreis"},"federalState":{"key":"08","name":"Baden-Württemberg"}},{"name":"Ahornstr.","postalCode":"69493","locality":"Hirschberg an der Bergstraße","municipality":{"key":"08226107","name":"Hirschberg an der Bergstraße","type":"Kreisangehörige_Gemeinde"},"district":{"key":"08226","name":"Rhein-Neckar-Kreis","type":"Landkreis"},"federalState":{"key":"08","name":"Baden-Württemberg"}},{"name":"Akazienweg","postalCode":"69493","locality":"Hirschberg an der Bergstraße","municipality":{"key":"08226107","name":"Hirschberg an der Bergstraße","type":"Kreisangehörige_Gemeinde"},"district":{"key":"08226","name":"Rhein-Neckar-Kreis","type":"Landkreis"},"federalState":{"key":"08","name":"Baden-Württemberg"}},{"name":"Albert-Schweitzer-Str.","postalCode":"69493","locality":"Hirschberg an der Bergstraße","municipality":{"key":"08226107","name":"Hirschberg an der Bergstraße","type":"Kreisangehörige_Gemeinde"},"district":{"key":"08226","name":"Rhein-Neckar-Kreis","type":"Landkreis"},"federalState":{"key":"08","name":"Baden-Württemberg"}},{"name":"Alte Allee","postalCode":"07927","locality":"Hirschberg","municipality":{"key":"16075046","name":"Hirschberg, Stadt","type":"Stadt"},"district":{"key":"16075","name":"Saale-Orla-Kreis","type":"Landkreis"},"federalState":{"key":"16","name":"Thüringen"}},{"name":"Am Kelterberg","postalCode":"69493","locality":"Hirschberg an der Bergstraße","municipality":{"key":"08226107","name":"Hirschberg an der Bergstraße","type":"Kreisangehörige_Gemeinde"},"district":{"key":"08226","name":"Rhein-Neckar-Kreis","type":"Landkreis"},"federalState":{"key":"08","name":"Baden-Württemberg"}},{"name":"Am Lindenbrunnen","postalCode":"69493","locality":"Hirschberg an der Bergstraße","municipality":{"key":"08226107","name":"Hirschberg an der Bergstraße","type":"Kreisangehörige_Gemeinde"},"district":{"key":"08226","name":"Rhein-Neckar-Kreis","type":"Landkreis"},"federalState":{"key":"08","name":"Baden-Württemberg"}},{"name":"Am Mühlgraben","postalCode":"69493","locality":"Hirschberg an der Bergstraße","municipality":{"key":"08226107","name":"Hirschberg an der Bergstraße","type":"Kreisangehörige_Gemeinde"},"district":{"key":"08226","name":"Rhein-Neckar-Kreis","type":"Landkreis"},"federalState":{"key":"08","name":"Baden-Württemberg"}},{"name":"Am Rödchen","postalCode":"65558","locality":"Hirschberg","municipality":{"key":"07141057","name":"Hirschberg","type":"Kreisangehörige_Gemeinde"},"district":{"key":"07141","name":"Rhein-Lahn-Kreis","type":"Landkreis"},"federalState":{"key":"07","name":"Rheinland-Pfalz"}},{"name":"Am Saalehang","postalCode":"07927","locality":"Hirschberg","municipality":{"key":"16075046","name":"Hirschberg, Stadt","type":"Stadt"},"district":{"key":"16075","name":"Saale-Orla-Kreis","type":"Landkreis"},"federalState":{"key":"16","name":"Thüringen"}},{"name":"Am Schloßgarten","postalCode":"69493","locality":"Hirschberg an der Bergstraße","municipality":{"key":"08226107","name":"Hirschberg an der Bergstraße","type":"Kreisangehörige_Gemeinde"},"district":{"key":"08226","name":"Rhein-Neckar-Kreis","type":"Landkreis"},"federalState":{"key":"08","name":"Baden-Württemberg"}},{"name":"Am Schmellenberg","postalCode":"69493","locality":"Hirschberg an der Bergstraße","municipality":{"key":"08226107","name":"Hirschberg an der Bergstraße","type":"Kreisangehörige_Gemeinde"},"district":{"key":"08226","name":"Rhein-Neckar-Kreis","type":"Landkreis"},"federalState":{"key":"08","name":"Baden-Württemberg"}},{"name":"Am Staudenbach","postalCode":"69493","locality":"Hirschberg an der Bergstraße","municipality":{"key":"08226107","name":"Hirschberg an der Bergstraße","type":"Kreisangehörige_Gemeinde"},"district":{"key":"08226","name":"Rhein-Neckar-Kreis","type":"Landkreis"},"federalState":{"key":"08","name":"Baden-Württemberg"}},{"name":"Amtsgerichtsweg","postalCode":"07927","locality":"Hirschberg","municipality":{"key":"16075046","name":"Hirschberg, Stadt","type":"Stadt"},"district":{"key":"16075","name":"Saale-Orla-Kreis","type":"Landkreis"},"federalState":{"key":"16","name":"Thüringen"}},{"name":"Astrid-Lindgren-Weg","postalCode":"69493","locality":"Hirschberg an der Bergstraße","municipality":{"key":"08226107","name":"Hirschberg an der Bergstraße","type":"Kreisangehörige_Gemeinde"},"district":{"key":"08226","name":"Rhein-Neckar-Kreis","type":"Landkreis"},"federalState":{"key":"08","name":"Baden-Württemberg"}},{"name":"August-Bebel-Str.","postalCode":"07927","locality":"Hirschberg","municipality":{"key":"16075046","name":"Hirschberg, Stadt","type":"Stadt"},"district":{"key":"16075","name":"Saale-Orla-Kreis","type":"Landkreis"},"federalState":{"key":"16","name":"Thüringen"}},{"name":"Bahnhofstr.","postalCode":"07927","locality":"Hirschberg","municipality":{"key":"16075046","name":"Hirschberg, Stadt","type":"Stadt"},"district":{"key":"16075","name":"Saale-Orla-Kreis","type":"Landkreis"},"federalState":{"key":"16","name":"Thüringen"}},{"name":"Bahnhofstr.","postalCode":"69493","locality":"Hirschberg an der Bergstraße","municipality":{"key":"08226107","name":"Hirschberg an der Bergstraße","type":"Kreisangehörige_Gemeinde"},"district":{"key":"08226","name":"Rhein-Neckar-Kreis","type":"Landkreis"},"federalState":{"key":"08","name":"Baden-Württemberg"}},{"name":"Beethovenstr.","postalCode":"69493","locality":"Hirschberg an der Bergstraße","municipality":{"key":"08226107","name":"Hirschberg an der Bergstraße","type":"Kreisangehörige_Gemeinde"},"district":{"key":"08226","name":"Rhein-Neckar-Kreis","type":"Landkreis"},"federalState":{"key":"08","name":"Baden-Württemberg"}},{"name":"Beinpfad","postalCode":"69493","locality":"Hirschberg an der Bergstraße","municipality":{"key":"08226107","name":"Hirschberg an der Bergstraße","type":"Kreisangehörige_Gemeinde"},"district":{"key":"08226","name":"Rhein-Neckar-Kreis","type":"Landkreis"},"federalState":{"key":"08","name":"Baden-Württemberg"}},{"name":"Beinweg","postalCode":"69493","locality":"Hirschberg an der Bergstraße","municipality":{"key":"08226107","name":"Hirschberg an der Bergstraße","type":"Kreisangehörige_Gemeinde"},"district":{"key":"08226","name":"Rhein-Neckar-Kreis","type":"Landkreis"},"federalState":{"key":"08","name":"Baden-Württemberg"}},{"name":"Belzhohl","postalCode":"69493","locality":"Hirschberg an der Bergstraße","municipality":{"key":"08226107","name":"Hirschberg an der Bergstraße","type":"Kreisangehörige_Gemeinde"},"district":{"key":"08226","name":"Rhein-Neckar-Kreis","type":"Landkreis"},"federalState":{"key":"08","name":"Baden-Württemberg"}},{"name":"Bergstr.","postalCode":"65558","locality":"Hirschberg","municipality":{"key":"07141057","name":"Hirschberg","type":"Kreisangehörige_Gemeinde"},"district":{"key":"07141","name":"Rhein-Lahn-Kreis","type":"Landkreis"},"federalState":{"key":"07","name":"Rheinland-Pfalz"}},{"name":"Bergstr.","postalCode":"69493","locality":"Hirschberg an der Bergstraße","municipality":{"key":"08226107","name":"Hirschberg an der Bergstraße","type":"Kreisangehörige_Gemeinde"},"district":{"key":"08226","name":"Rhein-Neckar-Kreis","type":"Landkreis"},"federalState":{"key":"08","name":"Baden-Württemberg"}},{"name":"Bergweg","postalCode":"69493","locality":"Hirschberg an der Bergstraße","municipality":{"key":"08226107","name":"Hirschberg an der Bergstraße","type":"Kreisangehörige_Gemeinde"},"district":{"key":"08226","name":"Rhein-Neckar-Kreis","type":"Landkreis"},"federalState":{"key":"08","name":"Baden-Württemberg"}},{"name":"Birkenstr.","postalCode":"69493","locality":"Hirschberg an der Bergstraße","municipality":{"key":"08226107","name":"Hirschberg an der Bergstraße","type":"Kreisangehörige_Gemeinde"},"district":{"key":"08226","name":"Rhein-Neckar-Kreis","type":"Landkreis"},"federalState":{"key":"08","name":"Baden-Württemberg"}},{"name":"Birkenweg","postalCode":"07927","locality":"Hirschberg","municipality":{"key":"16075046","name":"Hirschberg, Stadt","type":"Stadt"},"district":{"key":"16075","name":"Saale-Orla-Kreis","type":"Landkreis"},"federalState":{"key":"16","name":"Thüringen"}},{"name":"Bombenlochweg","postalCode":"69493","locality":"Hirschberg an der Bergstraße","municipality":{"key":"08226107","name":"Hirschberg an der Bergstraße","type":"Kreisangehörige_Gemeinde"},"district":{"key":"08226","name":"Rhein-Neckar-Kreis","type":"Landkreis"},"federalState":{"key":"08","name":"Baden-Württemberg"}},{"name":"Brandenburger Str.","postalCode":"69493","locality":"Hirschberg an der Bergstraße","municipality":{"key":"08226107","name":"Hirschberg an der Bergstraße","type":"Kreisangehörige_Gemeinde"},"district":{"key":"08226","name":"Rhein-Neckar-Kreis","type":"Landkreis"},"federalState":{"key":"08","name":"Baden-Württemberg"}},{"name":"Brauhausgasse","postalCode":"07927","locality":"Hirschberg","municipality":{"key":"16075046","name":"Hirschberg, Stadt","type":"Stadt"},"district":{"key":"16075","name":"Saale-Orla-Kreis","type":"Landkreis"},"federalState":{"key":"16","name":"Thüringen"}},{"name":"Breiter Steinweg","postalCode":"69493","locality":"Hirschberg an der Bergstraße","municipality":{"key":"08226107","name":"Hirschberg an der Bergstraße","type":"Kreisangehörige_Gemeinde"},"district":{"key":"08226","name":"Rhein-Neckar-Kreis","type":"Landkreis"},"federalState":{"key":"08","name":"Baden-Württemberg"}},{"name":"Breitgasse","postalCode":"69493","locality":"Hirschberg an der Bergstraße","municipality":{"key":"08226107","name":"Hirschberg an der Bergstraße","type":"Kreisangehörige_Gemeinde"},"district":{"key":"08226","name":"Rhein-Neckar-Kreis","type":"Landkreis"},"federalState":{"key":"08","name":"Baden-Württemberg"}},{"name":"Breslauer Str.","postalCode":"69493","locality":"Hirschberg an der Bergstraße","municipality":{"key":"08226107","name":"Hirschberg an der Bergstraße","type":"Kreisangehörige_Gemeinde"},"district":{"key":"08226","name":"Rhein-Neckar-Kreis","type":"Landkreis"},"federalState":{"key":"08","name":"Baden-Württemberg"}},{"name":"Brignais-Platz","postalCode":"69493","locality":"Hirschberg an der Bergstraße","municipality":{"key":"08226107","name":"Hirschberg an der Bergstraße","type":"Kreisangehörige_Gemeinde"},"district":{"key":"08226","name":"Rhein-Neckar-Kreis","type":"Landkreis"},"federalState":{"key":"08","name":"Baden-Württemberg"}},{"name":"Brombeerweg","postalCode":"69493","locality":"Hirschberg an der Bergstraße","municipality":{"key":"08226107","name":"Hirschberg an der Bergstraße","type":"Kreisangehörige_Gemeinde"},"district":{"key":"08226","name":"Rhein-Neckar-Kreis","type":"Landkreis"},"federalState":{"key":"08","name":"Baden-Württemberg"}},{"name":"Brüder-Grimm-Str.","postalCode":"69493","locality":"Hirschberg an der Bergstraße","municipality":{"key":"08226107","name":"Hirschberg an der Bergstraße","type":"Kreisangehörige_Gemeinde"},"district":{"key":"08226","name":"Rhein-Neckar-Kreis","type":"Landkreis"},"federalState":{"key":"08","name":"Baden-Württemberg"}},{"name":"Brunnengasse","postalCode":"69493","locality":"Hirschberg an der Bergstraße","municipality":{"key":"08226107","name":"Hirschberg an der Bergstraße","type":"Kreisangehörige_Gemeinde"},"district":{"key":"08226","name":"Rhein-Neckar-Kreis","type":"Landkreis"},"federalState":{"key":"08","name":"Baden-Württemberg"}},{"name":"Brunnenplatz","postalCode":"07927","locality":"Hirschberg","municipality":{"key":"16075046","name":"Hirschberg, Stadt","type":"Stadt"},"district":{"key":"16075","name":"Saale-Orla-Kreis","type":"Landkreis"},"federalState":{"key":"16","name":"Thüringen"}},{"name":"Buchenweg","postalCode":"69493","locality":"Hirschberg an der Bergstraße","municipality":{"key":"08226107","name":"Hirschberg an der Bergstraße","type":"Kreisangehörige_Gemeinde"},"district":{"key":"08226","name":"Rhein-Neckar-Kreis","type":"Landkreis"},"federalState":{"key":"08","name":"Baden-Württemberg"}},{"name":"Bürgermeister-Mayer-Weg","postalCode":"69493","locality":"Hirschberg an der Bergstraße","municipality":{"key":"08226107","name":"Hirschberg an der Bergstraße","type":"Kreisangehörige_Gemeinde"},"district":{"key":"08226","name":"Rhein-Neckar-Kreis","type":"Landkreis"},"federalState":{"key":"08","name":"Baden-Württemberg"}},{"name":"Burgunderweg","postalCode":"69493","locality":"Hirschberg an der Bergstraße","municipality":{"key":"08226107","name":"Hirschberg an der Bergstraße","type":"Kreisangehörige_Gemeinde"},"district":{"key":"08226","name":"Rhein-Neckar-Kreis","type":"Landkreis"},"federalState":{"key":"08","name":"Baden-Württemberg"}},{"name":"Burgweg","postalCode":"69493","locality":"Hirschberg an der Bergstraße","municipality":{"key":"08226107","name":"Hirschberg an der Bergstraße","type":"Kreisangehörige_Gemeinde"},"district":{"key":"08226","name":"Rhein-Neckar-Kreis","type":"Landkreis"},"federalState":{"key":"08","name":"Baden-Württemberg"}},{"name":"Büttemerweg","postalCode":"69493","locality":"Hirschberg an der Bergstraße","municipality":{"key":"08226107","name":"Hirschberg an der Bergstraße","type":"Kreisangehörige_Gemeinde"},"district":{"key":"08226","name":"Rhein-Neckar-Kreis","type":"Landkreis"},"federalState":{"key":"08","name":"Baden-Württemberg"}},{"name":"Carl-Diem-Weg","postalCode":"69493","locality":"Hirschberg an der Bergstraße","municipality":{"key":"08226107","name":"Hirschberg an der Bergstraße","type":"Kreisangehörige_Gemeinde"},"district":{"key":"08226","name":"Rhein-Neckar-Kreis","type":"Landkreis"},"federalState":{"key":"08","name":"Baden-Württemberg"}},{"name":"Dohlweg","postalCode":"69493","locality":"Hirschberg an der Bergstraße","municipality":{"key":"08226107","name":"Hirschberg an der Bergstraße","type":"Kreisangehörige_Gemeinde"},"district":{"key":"08226","name":"Rhein-Neckar-Kreis","type":"Landkreis"},"federalState":{"key":"08","name":"Baden-Württemberg"}},{"name":"Drittelsgasse","postalCode":"69493","locality":"Hirschberg an der Bergstraße","municipality":{"key":"08226107","name":"Hirschberg an der Bergstraße","type":"Kreisangehörige_Gemeinde"},"district":{"key":"08226","name":"Rhein-Neckar-Kreis","type":"Landkreis"},"federalState":{"key":"08","name":"Baden-Württemberg"}},{"name":"Dr.-Walter-Schmitt-Anlage","postalCode":"69493","locality":"Hirschberg an der Bergstraße","municipality":{"key":"08226107","name":"Hirschberg an der Bergstraße","type":"Kreisangehörige_Gemeinde"},"district":{"key":"08226","name":"Rhein-Neckar-Kreis","type":"Landkreis"},"federalState":{"key":"08","name":"Baden-Württemberg"}},{"name":"Eichendorffstr.","postalCode":"69493","locality":"Hirschberg an der Bergstraße","municipality":{"key":"08226107","name":"Hirschberg an der Bergstraße","type":"Kreisangehörige_Gemeinde"},"district":{"key":"08226","name":"Rhein-Neckar-Kreis","type":"Landkreis"},"federalState":{"key":"08","name":"Baden-Württemberg"}},{"name":"Elisabeth-Kulmann-Str.","postalCode":"69493","locality":"Hirschberg an der Bergstraße","municipality":{"key":"08226107","name":"Hirschberg an der Bergstraße","type":"Kreisangehörige_Gemeinde"},"district":{"key":"08226","name":"Rhein-Neckar-Kreis","type":"Landkreis"},"federalState":{"key":"08","name":"Baden-Württemberg"}},{"name":"Elisenstr.","postalCode":"07927","locality":"Hirschberg","municipality":{"key":"16075046","name":"Hirschberg, Stadt","type":"Stadt"},"district":{"key":"16075","name":"Saale-Orla-Kreis","type":"Landkreis"},"federalState":{"key":"16","name":"Thüringen"}},{"name":"Endweg","postalCode":"69493","locality":"Hirschberg an der Bergstraße","municipality":{"key":"08226107","name":"Hirschberg an der Bergstraße","type":"Kreisangehörige_Gemeinde"},"district":{"key":"08226","name":"Rhein-Neckar-Kreis","type":"Landkreis"},"federalState":{"key":"08","name":"Baden-Württemberg"}},{"name":"Eppenroder Str.","postalCode":"65558","locality":"Hirschberg","municipality":{"key":"07141057","name":"Hirschberg","type":"Kreisangehörige_Gemeinde"},"district":{"key":"07141","name":"Rhein-Lahn-Kreis","type":"Landkreis"},"federalState":{"key":"07","name":"Rheinland-Pfalz"}},{"name":"Erich-Kästner-Weg","postalCode":"69493","locality":"Hirschberg an der Bergstraße","municipality":{"key":"08226107","name":"Hirschberg an der Bergstraße","type":"Kreisangehörige_Gemeinde"},"district":{"key":"08226","name":"Rhein-Neckar-Kreis","type":"Landkreis"},"federalState":{"key":"08","name":"Baden-Württemberg"}},{"name":"Ernst-Thälmann-Str.","postalCode":"07927","locality":"Hirschberg","municipality":{"key":"16075046","name":"Hirschberg, Stadt","type":"Stadt"},"district":{"key":"16075","name":"Saale-Orla-Kreis","type":"Landkreis"},"federalState":{"key":"16","name":"Thüringen"}},{"name":"Eselsbergweg","postalCode":"69493","locality":"Hirschberg an der Bergstraße","municipality":{"key":"08226107","name":"Hirschberg an der Bergstraße","type":"Kreisangehörige_Gemeinde"},"district":{"key":"08226","name":"Rhein-Neckar-Kreis","type":"Landkreis"},"federalState":{"key":"08","name":"Baden-Württemberg"}},{"name":"Feldstr.","postalCode":"65558","locality":"Hirschberg","municipality":{"key":"07141057","name":"Hirschberg","type":"Kreisangehörige_Gemeinde"},"district":{"key":"07141","name":"Rhein-Lahn-Kreis","type":"Landkreis"},"federalState":{"key":"07","name":"Rheinland-Pfalz"}},{"name":"Fenchelstr.","postalCode":"69493","locality":"Hirschberg an der Bergstraße","municipality":{"key":"08226107","name":"Hirschberg an der Bergstraße","type":"Kreisangehörige_Gemeinde"},"district":{"key":"08226","name":"Rhein-Neckar-Kreis","type":"Landkreis"},"federalState":{"key":"08","name":"Baden-Württemberg"}},{"name":"Fichtenstr.","postalCode":"69493","locality":"Hirschberg an der Bergstraße","municipality":{"key":"08226107","name":"Hirschberg an der Bergstraße","type":"Kreisangehörige_Gemeinde"},"district":{"key":"08226","name":"Rhein-Neckar-Kreis","type":"Landkreis"},"federalState":{"key":"08","name":"Baden-Württemberg"}},{"name":"Fliederweg","postalCode":"69493","locality":"Hirschberg an der Bergstraße","municipality":{"key":"08226107","name":"Hirschberg an der Bergstraße","type":"Kreisangehörige_Gemeinde"},"district":{"key":"08226","name":"Rhein-Neckar-Kreis","type":"Landkreis"},"federalState":{"key":"08","name":"Baden-Württemberg"}},{"name":"Freiburger Str.","postalCode":"69493","locality":"Hirschberg an der Bergstraße","municipality":{"key":"08226107","name":"Hirschberg an der Bergstraße","type":"Kreisangehörige_Gemeinde"},"district":{"key":"08226","name":"Rhein-Neckar-Kreis","type":"Landkreis"},"federalState":{"key":"08","name":"Baden-Württemberg"}},{"name":"Friedensweg","postalCode":"69493","locality":"Hirschberg an der Bergstraße","municipality":{"key":"08226107","name":"Hirschberg an der Bergstraße","type":"Kreisangehörige_Gemeinde"},"district":{"key":"08226","name":"Rhein-Neckar-Kreis","type":"Landkreis"},"federalState":{"key":"08","name":"Baden-Württemberg"}},{"name":"Friedrich-Ebert-Str.","postalCode":"69493","locality":"Hirschberg an der Bergstraße","municipality":{"key":"08226107","name":"Hirschberg an der Bergstraße","type":"Kreisangehörige_Gemeinde"},"district":{"key":"08226","name":"Rhein-Neckar-Kreis","type":"Landkreis"},"federalState":{"key":"08","name":"Baden-Württemberg"}},{"name":"Friedrich-Fröbel-Str.","postalCode":"07927","locality":"Hirschberg","municipality":{"key":"16075046","name":"Hirschberg, Stadt","type":"Stadt"},"district":{"key":"16075","name":"Saale-Orla-Kreis","type":"Landkreis"},"federalState":{"key":"16","name":"Thüringen"}},{"name":"Friedrichstr.","postalCode":"69493","locality":"Hirschberg an der Bergstraße","municipality":{"key":"08226107","name":"Hirschberg an der Bergstraße","type":"Kreisangehörige_Gemeinde"},"district":{"key":"08226","name":"Rhein-Neckar-Kreis","type":"Landkreis"},"federalState":{"key":"08","name":"Baden-Württemberg"}},{"name":"Galgenstr.","postalCode":"69493","locality":"Hirschberg an der Bergstraße","municipality":{"key":"08226107","name":"Hirschberg an der Bergstraße","type":"Kreisangehörige_Gemeinde"},"district":{"key":"08226","name":"Rhein-Neckar-Kreis","type":"Landkreis"},"federalState":{"key":"08","name":"Baden-Württemberg"}},{"name":"Gartenstr.","postalCode":"07927","locality":"Hirschberg","municipality":{"key":"16075046","name":"Hirschberg, Stadt","type":"Stadt"},"district":{"key":"16075","name":"Saale-Orla-Kreis","type":"Landkreis"},"federalState":{"key":"16","name":"Thüringen"}},{"name":"Gartenstr.","postalCode":"65558","locality":"Hirschberg","municipality":{"key":"07141057","name":"Hirschberg","type":"Kreisangehörige_Gemeinde"},"district":{"key":"07141","name":"Rhein-Lahn-Kreis","type":"Landkreis"},"federalState":{"key":"07","name":"Rheinland-Pfalz"}},{"name":"Gartenstr.","postalCode":"69493","locality":"Hirschberg an der Bergstraße","municipality":{"key":"08226107","name":"Hirschberg an der Bergstraße","type":"Kreisangehörige_Gemeinde"},"district":{"key":"08226","name":"Rhein-Neckar-Kreis","type":"Landkreis"},"federalState":{"key":"08","name":"Baden-Württemberg"}},{"name":"Gerberstr.","postalCode":"07927","locality":"Hirschberg","municipality":{"key":"16075046","name":"Hirschberg, Stadt","type":"Stadt"},"district":{"key":"16075","name":"Saale-Orla-Kreis","type":"Landkreis"},"federalState":{"key":"16","name":"Thüringen"}},{"name":"Gingässlein","postalCode":"07927","locality":"Hirschberg","municipality":{"key":"16075046","name":"Hirschberg, Stadt","type":"Stadt"},"district":{"key":"16075","name":"Saale-Orla-Kreis","type":"Landkreis"},"federalState":{"key":"16","name":"Thüringen"}},{"name":"Ginggäßlein","postalCode":"07927","locality":"Hirschberg","municipality":{"key":"16075046","name":"Hirschberg, Stadt","type":"Stadt"},"district":{"key":"16075","name":"Saale-Orla-Kreis","type":"Landkreis"},"federalState":{"key":"16","name":"Thüringen"}},{"name":"Goethestr.","postalCode":"69493","locality":"Hirschberg an der Bergstraße","municipality":{"key":"08226107","name":"Hirschberg an der Bergstraße","type":"Kreisangehörige_Gemeinde"},"district":{"key":"08226","name":"Rhein-Neckar-Kreis","type":"Landkreis"},"federalState":{"key":"08","name":"Baden-Württemberg"}},{"name":"Göritz","postalCode":"07927","locality":"Hirschberg","municipality":{"key":"16075046","name":"Hirschberg, Stadt","type":"Stadt"},"district":{"key":"16075","name":"Saale-Orla-Kreis","type":"Landkreis"},"federalState":{"key":"16","name":"Thüringen"}},{"name":"Görlitzer Str.","postalCode":"69493","locality":"Hirschberg an der Bergstraße","municipality":{"key":"08226107","name":"Hirschberg an der Bergstraße","type":"Kreisangehörige_Gemeinde"},"district":{"key":"08226","name":"Rhein-Neckar-Kreis","type":"Landkreis"},"federalState":{"key":"08","name":"Baden-Württemberg"}},{"name":"Gottfried-Nadler-Str.","postalCode":"69493","locality":"Hirschberg an der Bergstraße","municipality":{"key":"08226107","name":"Hirschberg an der Bergstraße","type":"Kreisangehörige_Gemeinde"},"district":{"key":"08226","name":"Rhein-Neckar-Kreis","type":"Landkreis"},"federalState":{"key":"08","name":"Baden-Württemberg"}},{"name":"Grasweg","postalCode":"69493","locality":"Hirschberg an der Bergstraße","municipality":{"key":"08226107","name":"Hirschberg an der Bergstraße","type":"Kreisangehörige_Gemeinde"},"district":{"key":"08226","name":"Rhein-Neckar-Kreis","type":"Landkreis"},"federalState":{"key":"08","name":"Baden-Württemberg"}},{"name":"Große Kirchgasse","postalCode":"07927","locality":"Hirschberg","municipality":{"key":"16075046","name":"Hirschberg, Stadt","type":"Stadt"},"district":{"key":"16075","name":"Saale-Orla-Kreis","type":"Landkreis"},"federalState":{"key":"16","name":"Thüringen"}},{"name":"Großsachsener Str.","postalCode":"69493","locality":"Hirschberg an der Bergstraße","municipality":{"key":"08226107","name":"Hirschberg an der Bergstraße","type":"Kreisangehörige_Gemeinde"},"district":{"key":"08226","name":"Rhein-Neckar-Kreis","type":"Landkreis"},"federalState":{"key":"08","name":"Baden-Württemberg"}},{"name":"Haagackerweg","postalCode":"69493","locality":"Hirschberg an der Bergstraße","municipality":{"key":"08226107","name":"Hirschberg an der Bergstraße","type":"Kreisangehörige_Gemeinde"},"district":{"key":"08226","name":"Rhein-Neckar-Kreis","type":"Landkreis"},"federalState":{"key":"08","name":"Baden-Württemberg"}},{"name":"Haferbergweg","postalCode":"69493","locality":"Hirschberg an der Bergstraße","municipality":{"key":"08226107","name":"Hirschberg an der Bergstraße","type":"Kreisangehörige_Gemeinde"},"district":{"key":"08226","name":"Rhein-Neckar-Kreis","type":"Landkreis"},"federalState":{"key":"08","name":"Baden-Württemberg"}},{"name":"Hängesteg","postalCode":"07927","locality":"Hirschberg","municipality":{"key":"16075046","name":"Hirschberg, Stadt","type":"Stadt"},"district":{"key":"16075","name":"Saale-Orla-Kreis","type":"Landkreis"},"federalState":{"key":"16","name":"Thüringen"}},{"name":"Hans-Thoma-Str.","postalCode":"69493","locality":"Hirschberg an der Bergstraße","municipality":{"key":"08226107","name":"Hirschberg an der Bergstraße","type":"Kreisangehörige_Gemeinde"},"district":{"key":"08226","name":"Rhein-Neckar-Kreis","type":"Landkreis"},"federalState":{"key":"08","name":"Baden-Württemberg"}},{"name":"Hauptstr.","postalCode":"65558","locality":"Hirschberg","municipality":{"key":"07141057","name":"Hirschberg","type":"Kreisangehörige_Gemeinde"},"district":{"key":"07141","name":"Rhein-Lahn-Kreis","type":"Landkreis"},"federalState":{"key":"07","name":"Rheinland-Pfalz"}},{"name":"Hauptstr.","postalCode":"69493","locality":"Hirschberg an der Bergstraße","municipality":{"key":"08226107","name":"Hirschberg an der Bergstraße","type":"Kreisangehörige_Gemeinde"},"district":{"key":"08226","name":"Rhein-Neckar-Kreis","type":"Landkreis"},"federalState":{"key":"08","name":"Baden-Württemberg"}},{"name":"Hebelstr.","postalCode":"69493","locality":"Hirschberg an der Bergstraße","municipality":{"key":"08226107","name":"Hirschberg an der Bergstraße","type":"Kreisangehörige_Gemeinde"},"district":{"key":"08226","name":"Rhein-Neckar-Kreis","type":"Landkreis"},"federalState":{"key":"08","name":"Baden-Württemberg"}},{"name":"Heddesheimer Str.","postalCode":"69493","locality":"Hirschberg an der Bergstraße","municipality":{"key":"08226107","name":"Hirschberg an der Bergstraße","type":"Kreisangehörige_Gemeinde"},"district":{"key":"08226","name":"Rhein-Neckar-Kreis","type":"Landkreis"},"federalState":{"key":"08","name":"Baden-Württemberg"}},{"name":"Heidelberger Str.","postalCode":"69493","locality":"Hirschberg an der Bergstraße","municipality":{"key":"08226107","name":"Hirschberg an der Bergstraße","type":"Kreisangehörige_Gemeinde"},"district":{"key":"08226","name":"Rhein-Neckar-Kreis","type":"Landkreis"},"federalState":{"key":"08","name":"Baden-Württemberg"}},{"name":"Heidenlochweg","postalCode":"69493","locality":"Hirschberg an der Bergstraße","municipality":{"key":"08226107","name":"Hirschberg an der Bergstraße","type":"Kreisangehörige_Gemeinde"},"district":{"key":"08226","name":"Rhein-Neckar-Kreis","type":"Landkreis"},"federalState":{"key":"08","name":"Baden-Württemberg"}},{"name":"Heinestr.","postalCode":"69493","locality":"Hirschberg an der Bergstraße","municipality":{"key":"08226107","name":"Hirschberg an der Bergstraße","type":"Kreisangehörige_Gemeinde"},"district":{"key":"08226","name":"Rhein-Neckar-Kreis","type":"Landkreis"},"federalState":{"key":"08","name":"Baden-Württemberg"}},{"name":"Herbert-Kunkel-Str.","postalCode":"69493","locality":"Hirschberg an der Bergstraße","municipality":{"key":"08226107","name":"Hirschberg an der Bergstraße","type":"Kreisangehörige_Gemeinde"},"district":{"key":"08226","name":"Rhein-Neckar-Kreis","type":"Landkreis"},"federalState":{"key":"08","name":"Baden-Württemberg"}},{"name":"Hermann-Löns-Str.","postalCode":"69493","locality":"Hirschberg an der Bergstraße","municipality":{"key":"08226107","name":"Hirschberg an der Bergstraße","type":"Kreisangehörige_Gemeinde"},"district":{"key":"08226","name":"Rhein-Neckar-Kreis","type":"Landkreis"},"federalState":{"key":"08","name":"Baden-Württemberg"}},{"name":"Hindenburgweg","postalCode":"69493","locality":"Hirschberg an der Bergstraße","municipality":{"key":"08226107","name":"Hirschberg an der Bergstraße","type":"Kreisangehörige_Gemeinde"},"district":{"key":"08226","name":"Rhein-Neckar-Kreis","type":"Landkreis"},"federalState":{"key":"08","name":"Baden-Württemberg"}},{"name":"Hintergasse","postalCode":"69493","locality":"Hirschberg an der Bergstraße","municipality":{"key":"08226107","name":"Hirschberg an der Bergstraße","type":"Kreisangehörige_Gemeinde"},"district":{"key":"08226","name":"Rhein-Neckar-Kreis","type":"Landkreis"},"federalState":{"key":"08","name":"Baden-Württemberg"}},{"name":"Hirschbergstr.","postalCode":"69493","locality":"Hirschberg an der Bergstraße","municipality":{"key":"08226107","name":"Hirschberg an der Bergstraße","type":"Kreisangehörige_Gemeinde"},"district":{"key":"08226","name":"Rhein-Neckar-Kreis","type":"Landkreis"},"federalState":{"key":"08","name":"Baden-Württemberg"}},{"name":"Hofer Str.","postalCode":"07927","locality":"Hirschberg","municipality":{"key":"16075046","name":"Hirschberg, Stadt","type":"Stadt"},"district":{"key":"16075","name":"Saale-Orla-Kreis","type":"Landkreis"},"federalState":{"key":"16","name":"Thüringen"}},{"name":"Hohensachsener Str.","postalCode":"69493","locality":"Hirschberg an der Bergstraße","municipality":{"key":"08226107","name":"Hirschberg an der Bergstraße","type":"Kreisangehörige_Gemeinde"},"district":{"key":"08226","name":"Rhein-Neckar-Kreis","type":"Landkreis"},"federalState":{"key":"08","name":"Baden-Württemberg"}},{"name":"Höhenweg","postalCode":"69493","locality":"Hirschberg an der Bergstraße","municipality":{"key":"08226107","name":"Hirschberg an der Bergstraße","type":"Kreisangehörige_Gemeinde"},"district":{"key":"08226","name":"Rhein-Neckar-Kreis","type":"Landkreis"},"federalState":{"key":"08","name":"Baden-Württemberg"}},{"name":"Hölderlinstr.","postalCode":"69493","locality":"Hirschberg an der Bergstraße","municipality":{"key":"08226107","name":"Hirschberg an der Bergstraße","type":"Kreisangehörige_Gemeinde"},"district":{"key":"08226","name":"Rhein-Neckar-Kreis","type":"Landkreis"},"federalState":{"key":"08","name":"Baden-Württemberg"}},{"name":"Höllenquellenweg","postalCode":"69493","locality":"Hirschberg an der Bergstraße","municipality":{"key":"08226107","name":"Hirschberg an der Bergstraße","type":"Kreisangehörige_Gemeinde"},"district":{"key":"08226","name":"Rhein-Neckar-Kreis","type":"Landkreis"},"federalState":{"key":"08","name":"Baden-Württemberg"}},{"name":"Holunderweg","postalCode":"69493","locality":"Hirschberg an der Bergstraße","municipality":{"key":"08226107","name":"Hirschberg an der Bergstraße","type":"Kreisangehörige_Gemeinde"},"district":{"key":"08226","name":"Rhein-Neckar-Kreis","type":"Landkreis"},"federalState":{"key":"08","name":"Baden-Württemberg"}},{"name":"Hönigstr.","postalCode":"69493","locality":"Hirschberg an der Bergstraße","municipality":{"key":"08226107","name":"Hirschberg an der Bergstraße","type":"Kreisangehörige_Gemeinde"},"district":{"key":"08226","name":"Rhein-Neckar-Kreis","type":"Landkreis"},"federalState":{"key":"08","name":"Baden-Württemberg"}},{"name":"Im Brambusch","postalCode":"69493","locality":"Hirschberg an der Bergstraße","municipality":{"key":"08226107","name":"Hirschberg an der Bergstraße","type":"Kreisangehörige_Gemeinde"},"district":{"key":"08226","name":"Rhein-Neckar-Kreis","type":"Landkreis"},"federalState":{"key":"08","name":"Baden-Württemberg"}},{"name":"Im Brünnel","postalCode":"69493","locality":"Hirschberg an der Bergstraße","municipality":{"key":"08226107","name":"Hirschberg an der Bergstraße","type":"Kreisangehörige_Gemeinde"},"district":{"key":"08226","name":"Rhein-Neckar-Kreis","type":"Landkreis"},"federalState":{"key":"08","name":"Baden-Württemberg"}},{"name":"Im Eck","postalCode":"69493","locality":"Hirschberg an der Bergstraße","municipality":{"key":"08226107","name":"Hirschberg an der Bergstraße","type":"Kreisangehörige_Gemeinde"},"district":{"key":"08226","name":"Rhein-Neckar-Kreis","type":"Landkreis"},"federalState":{"key":"08","name":"Baden-Württemberg"}},{"name":"Im Großen Garten","postalCode":"69493","locality":"Hirschberg an der Bergstraße","municipality":{"key":"08226107","name":"Hirschberg an der Bergstraße","type":"Kreisangehörige_Gemeinde"},"district":{"key":"08226","name":"Rhein-Neckar-Kreis","type":"Landkreis"},"federalState":{"key":"08","name":"Baden-Württemberg"}},{"name":"Im Hefen","postalCode":"69493","locality":"Hirschberg an der Bergstraße","municipality":{"key":"08226107","name":"Hirschberg an der Bergstraße","type":"Kreisangehörige_Gemeinde"},"district":{"key":"08226","name":"Rhein-Neckar-Kreis","type":"Landkreis"},"federalState":{"key":"08","name":"Baden-Württemberg"}},{"name":"Im Scheibling","postalCode":"69493","locality":"Hirschberg an der Bergstraße","municipality":{"key":"08226107","name":"Hirschberg an der Bergstraße","type":"Kreisangehörige_Gemeinde"},"district":{"key":"08226","name":"Rhein-Neckar-Kreis","type":"Landkreis"},"federalState":{"key":"08","name":"Baden-Württemberg"}},{"name":"Im Schwanenstein","postalCode":"69493","locality":"Hirschberg an der Bergstraße","municipality":{"key":"08226107","name":"Hirschberg an der Bergstraße","type":"Kreisangehörige_Gemeinde"},"district":{"key":"08226","name":"Rhein-Neckar-Kreis","type":"Landkreis"},"federalState":{"key":"08","name":"Baden-Württemberg"}},{"name":"Im Sterzwinkel","postalCode":"69493","locality":"Hirschberg an der Bergstraße","municipality":{"key":"08226107","name":"Hirschberg an der Bergstraße","type":"Kreisangehörige_Gemeinde"},"district":{"key":"08226","name":"Rhein-Neckar-Kreis","type":"Landkreis"},"federalState":{"key":"08","name":"Baden-Württemberg"}},{"name":"In den Gärten","postalCode":"65558","locality":"Hirschberg","municipality":{"key":"07141057","name":"Hirschberg","type":"Kreisangehörige_Gemeinde"},"district":{"key":"07141","name":"Rhein-Lahn-Kreis","type":"Landkreis"},"federalState":{"key":"07","name":"Rheinland-Pfalz"}},{"name":"In der Hühl","postalCode":"69493","locality":"Hirschberg an der Bergstraße","municipality":{"key":"08226107","name":"Hirschberg an der Bergstraße","type":"Kreisangehörige_Gemeinde"},"district":{"key":"08226","name":"Rhein-Neckar-Kreis","type":"Landkreis"},"federalState":{"key":"08","name":"Baden-Württemberg"}},{"name":"In der Straßwies","postalCode":"69493","locality":"Hirschberg an der Bergstraße","municipality":{"key":"08226107","name":"Hirschberg an der Bergstraße","type":"Kreisangehörige_Gemeinde"},"district":{"key":"08226","name":"Rhein-Neckar-Kreis","type":"Landkreis"},"federalState":{"key":"08","name":"Baden-Württemberg"}},{"name":"Jägerstr.","postalCode":"07927","locality":"Hirschberg","municipality":{"key":"16075046","name":"Hirschberg, Stadt","type":"Stadt"},"district":{"key":"16075","name":"Saale-Orla-Kreis","type":"Landkreis"},"federalState":{"key":"16","name":"Thüringen"}},{"name":"Jahnstr.","postalCode":"69493","locality":"Hirschberg an der Bergstraße","municipality":{"key":"08226107","name":"Hirschberg an der Bergstraße","type":"Kreisangehörige_Gemeinde"},"district":{"key":"08226","name":"Rhein-Neckar-Kreis","type":"Landkreis"},"federalState":{"key":"08","name":"Baden-Württemberg"}},{"name":"Johann-Dörk-Str.","postalCode":"69493","locality":"Hirschberg an der Bergstraße","municipality":{"key":"08226107","name":"Hirschberg an der Bergstraße","type":"Kreisangehörige_Gemeinde"},"district":{"key":"08226","name":"Rhein-Neckar-Kreis","type":"Landkreis"},"federalState":{"key":"08","name":"Baden-Württemberg"}},{"name":"Johann-Sebastian-Bach-Str.","postalCode":"69493","locality":"Hirschberg an der Bergstraße","municipality":{"key":"08226107","name":"Hirschberg an der Bergstraße","type":"Kreisangehörige_Gemeinde"},"district":{"key":"08226","name":"Rhein-Neckar-Kreis","type":"Landkreis"},"federalState":{"key":"08","name":"Baden-Württemberg"}},{"name":"Juchhöh","postalCode":"07927","locality":"Hirschberg","municipality":{"key":"16075046","name":"Hirschberg, Stadt","type":"Stadt"},"district":{"key":"16075","name":"Saale-Orla-Kreis","type":"Landkreis"},"federalState":{"key":"16","name":"Thüringen"}},{"name":"Kantstr.","postalCode":"69493","locality":"Hirschberg an der Bergstraße","municipality":{"key":"08226107","name":"Hirschberg an der Bergstraße","type":"Kreisangehörige_Gemeinde"},"district":{"key":"08226","name":"Rhein-Neckar-Kreis","type":"Landkreis"},"federalState":{"key":"08","name":"Baden-Württemberg"}},{"name":"Kanzelbergkopfweg","postalCode":"69493","locality":"Hirschberg an der Bergstraße","municipality":{"key":"08226107","name":"Hirschberg an der Bergstraße","type":"Kreisangehörige_Gemeinde"},"district":{"key":"08226","name":"Rhein-Neckar-Kreis","type":"Landkreis"},"federalState":{"key":"08","name":"Baden-Württemberg"}},{"name":"Kanzelbergostweg","postalCode":"69493","locality":"Hirschberg an der Bergstraße","municipality":{"key":"08226107","name":"Hirschberg an der Bergstraße","type":"Kreisangehörige_Gemeinde"},"district":{"key":"08226","name":"Rhein-Neckar-Kreis","type":"Landkreis"},"federalState":{"key":"08","name":"Baden-Württemberg"}},{"name":"Kanzelbergrückenweg","postalCode":"69493","locality":"Hirschberg an der Bergstraße","municipality":{"key":"08226107","name":"Hirschberg an der Bergstraße","type":"Kreisangehörige_Gemeinde"},"district":{"key":"08226","name":"Rhein-Neckar-Kreis","type":"Landkreis"},"federalState":{"key":"08","name":"Baden-Württemberg"}},{"name":"Kapellenweg","postalCode":"69493","locality":"Hirschberg an der Bergstraße","municipality":{"key":"08226107","name":"Hirschberg an der Bergstraße","type":"Kreisangehörige_Gemeinde"},"district":{"key":"08226","name":"Rhein-Neckar-Kreis","type":"Landkreis"},"federalState":{"key":"08","name":"Baden-Württemberg"}},{"name":"Karl-Liebknecht-Str.","postalCode":"07927","locality":"Hirschberg","municipality":{"key":"16075046","name":"Hirschberg, Stadt","type":"Stadt"},"district":{"key":"16075","name":"Saale-Orla-Kreis","type":"Landkreis"},"federalState":{"key":"16","name":"Thüringen"}},{"name":"Karl-Marx-Str.","postalCode":"07927","locality":"Hirschberg","municipality":{"key":"16075046","name":"Hirschberg, Stadt","type":"Stadt"},"district":{"key":"16075","name":"Saale-Orla-Kreis","type":"Landkreis"},"federalState":{"key":"16","name":"Thüringen"}},{"name":"Karlsruher Str.","postalCode":"69493","locality":"Hirschberg an der Bergstraße","municipality":{"key":"08226107","name":"Hirschberg an der Bergstraße","type":"Kreisangehörige_Gemeinde"},"district":{"key":"08226","name":"Rhein-Neckar-Kreis","type":"Landkreis"},"federalState":{"key":"08","name":"Baden-Württemberg"}},{"name":"Kastanienweg","postalCode":"69493","locality":"Hirschberg an der Bergstraße","municipality":{"key":"08226107","name":"Hirschberg an der Bergstraße","type":"Kreisangehörige_Gemeinde"},"district":{"key":"08226","name":"Rhein-Neckar-Kreis","type":"Landkreis"},"federalState":{"key":"08","name":"Baden-Württemberg"}},{"name":"Kehrrangweg","postalCode":"69493","locality":"Hirschberg an der Bergstraße","municipality":{"key":"08226107","name":"Hirschberg an der Bergstraße","type":"Kreisangehörige_Gemeinde"},"district":{"key":"08226","name":"Rhein-Neckar-Kreis","type":"Landkreis"},"federalState":{"key":"08","name":"Baden-Württemberg"}},{"name":"Kirchgasse","postalCode":"69493","locality":"Hirschberg an der Bergstraße","municipality":{"key":"08226107","name":"Hirschberg an der Bergstraße","type":"Kreisangehörige_Gemeinde"},"district":{"key":"08226","name":"Rhein-Neckar-Kreis","type":"Landkreis"},"federalState":{"key":"08","name":"Baden-Württemberg"}},{"name":"Kirchplatz","postalCode":"07927","locality":"Hirschberg","municipality":{"key":"16075046","name":"Hirschberg, Stadt","type":"Stadt"},"district":{"key":"16075","name":"Saale-Orla-Kreis","type":"Landkreis"},"federalState":{"key":"16","name":"Thüringen"}},{"name":"Kirchweg","postalCode":"65558","locality":"Hirschberg","municipality":{"key":"07141057","name":"Hirschberg","type":"Kreisangehörige_Gemeinde"},"district":{"key":"07141","name":"Rhein-Lahn-Kreis","type":"Landkreis"},"federalState":{"key":"07","name":"Rheinland-Pfalz"}},{"name":"Kirschbaumweg","postalCode":"69493","locality":"Hirschberg an der Bergstraße","municipality":{"key":"08226107","name":"Hirschberg an der Bergstraße","type":"Kreisangehörige_Gemeinde"},"district":{"key":"08226","name":"Rhein-Neckar-Kreis","type":"Landkreis"},"federalState":{"key":"08","name":"Baden-Württemberg"}},{"name":"Kleiststr.","postalCode":"69493","locality":"Hirschberg an der Bergstraße","municipality":{"key":"08226107","name":"Hirschberg an der Bergstraße","type":"Kreisangehörige_Gemeinde"},"district":{"key":"08226","name":"Rhein-Neckar-Kreis","type":"Landkreis"},"federalState":{"key":"08","name":"Baden-Württemberg"}},{"name":"Kohlbachweg","postalCode":"69493","locality":"Hirschberg an der Bergstraße","municipality":{"key":"08226107","name":"Hirschberg an der Bergstraße","type":"Kreisangehörige_Gemeinde"},"district":{"key":"08226","name":"Rhein-Neckar-Kreis","type":"Landkreis"},"federalState":{"key":"08","name":"Baden-Württemberg"}},{"name":"Kolonnenweg","postalCode":"07927","locality":"Hirschberg","municipality":{"key":"16075046","name":"Hirschberg, Stadt","type":"Stadt"},"district":{"key":"16075","name":"Saale-Orla-Kreis","type":"Landkreis"},"federalState":{"key":"16","name":"Thüringen"}},{"name":"Kolpingstr.","postalCode":"69493","locality":"Hirschberg an der Bergstraße","municipality":{"key":"08226107","name":"Hirschberg an der Bergstraße","type":"Kreisangehörige_Gemeinde"},"district":{"key":"08226","name":"Rhein-Neckar-Kreis","type":"Landkreis"},"federalState":{"key":"08","name":"Baden-Württemberg"}},{"name":"Königsberger Str.","postalCode":"69493","locality":"Hirschberg an der Bergstraße","municipality":{"key":"08226107","name":"Hirschberg an der Bergstraße","type":"Kreisangehörige_Gemeinde"},"district":{"key":"08226","name":"Rhein-Neckar-Kreis","type":"Landkreis"},"federalState":{"key":"08","name":"Baden-Württemberg"}},{"name":"Kornbuckelweg","postalCode":"69493","locality":"Hirschberg an der Bergstraße","municipality":{"key":"08226107","name":"Hirschberg an der Bergstraße","type":"Kreisangehörige_Gemeinde"},"district":{"key":"08226","name":"Rhein-Neckar-Kreis","type":"Landkreis"},"federalState":{"key":"08","name":"Baden-Württemberg"}},{"name":"Kreuzgasse","postalCode":"69493","locality":"Hirschberg an der Bergstraße","municipality":{"key":"08226107","name":"Hirschberg an der Bergstraße","type":"Kreisangehörige_Gemeinde"},"district":{"key":"08226","name":"Rhein-Neckar-Kreis","type":"Landkreis"},"federalState":{"key":"08","name":"Baden-Württemberg"}},{"name":"Kurpfalzstr.","postalCode":"69493","locality":"Hirschberg an der Bergstraße","municipality":{"key":"08226107","name":"Hirschberg an der Bergstraße","type":"Kreisangehörige_Gemeinde"},"district":{"key":"08226","name":"Rhein-Neckar-Kreis","type":"Landkreis"},"federalState":{"key":"08","name":"Baden-Württemberg"}},{"name":"Ladenburger Str.","postalCode":"69493","locality":"Hirschberg an der Bergstraße","municipality":{"key":"08226107","name":"Hirschberg an der Bergstraße","type":"Kreisangehörige_Gemeinde"},"district":{"key":"08226","name":"Rhein-Neckar-Kreis","type":"Landkreis"},"federalState":{"key":"08","name":"Baden-Württemberg"}},{"name":"Landstr.","postalCode":"69493","locality":"Hirschberg an der Bergstraße","municipality":{"key":"08226107","name":"Hirschberg an der Bergstraße","type":"Kreisangehörige_Gemeinde"},"district":{"key":"08226","name":"Rhein-Neckar-Kreis","type":"Landkreis"},"federalState":{"key":"08","name":"Baden-Württemberg"}},{"name":"Landwehrhagener Platz","postalCode":"69493","locality":"Hirschberg an der Bergstraße","municipality":{"key":"08226107","name":"Hirschberg an der Bergstraße","type":"Kreisangehörige_Gemeinde"},"district":{"key":"08226","name":"Rhein-Neckar-Kreis","type":"Landkreis"},"federalState":{"key":"08","name":"Baden-Württemberg"}},{"name":"Leichtweg","postalCode":"69493","locality":"Hirschberg an der Bergstraße","municipality":{"key":"08226107","name":"Hirschberg an der Bergstraße","type":"Kreisangehörige_Gemeinde"},"district":{"key":"08226","name":"Rhein-Neckar-Kreis","type":"Landkreis"},"federalState":{"key":"08","name":"Baden-Württemberg"}},{"name":"Lessingstr.","postalCode":"69493","locality":"Hirschberg an der Bergstraße","municipality":{"key":"08226107","name":"Hirschberg an der Bergstraße","type":"Kreisangehörige_Gemeinde"},"district":{"key":"08226","name":"Rhein-Neckar-Kreis","type":"Landkreis"},"federalState":{"key":"08","name":"Baden-Württemberg"}},{"name":"Lettengasse","postalCode":"69493","locality":"Hirschberg an der Bergstraße","municipality":{"key":"08226107","name":"Hirschberg an der Bergstraße","type":"Kreisangehörige_Gemeinde"},"district":{"key":"08226","name":"Rhein-Neckar-Kreis","type":"Landkreis"},"federalState":{"key":"08","name":"Baden-Württemberg"}},{"name":"Leutershausener Str.","postalCode":"69493","locality":"Hirschberg an der Bergstraße","municipality":{"key":"08226107","name":"Hirschberg an der Bergstraße","type":"Kreisangehörige_Gemeinde"},"district":{"key":"08226","name":"Rhein-Neckar-Kreis","type":"Landkreis"},"federalState":{"key":"08","name":"Baden-Württemberg"}},{"name":"Lindenstr.","postalCode":"69493","locality":"Hirschberg an der Bergstraße","municipality":{"key":"08226107","name":"Hirschberg an der Bergstraße","type":"Kreisangehörige_Gemeinde"},"district":{"key":"08226","name":"Rhein-Neckar-Kreis","type":"Landkreis"},"federalState":{"key":"08","name":"Baden-Württemberg"}},{"name":"Lobdengaustr.","postalCode":"69493","locality":"Hirschberg an der Bergstraße","municipality":{"key":"08226107","name":"Hirschberg an der Bergstraße","type":"Kreisangehörige_Gemeinde"},"district":{"key":"08226","name":"Rhein-Neckar-Kreis","type":"Landkreis"},"federalState":{"key":"08","name":"Baden-Württemberg"}},{"name":"Lobensteiner Str.","postalCode":"07927","locality":"Hirschberg","municipality":{"key":"16075046","name":"Hirschberg, Stadt","type":"Stadt"},"district":{"key":"16075","name":"Saale-Orla-Kreis","type":"Landkreis"},"federalState":{"key":"16","name":"Thüringen"}},{"name":"Lörscher Weg","postalCode":"69493","locality":"Hirschberg an der Bergstraße","municipality":{"key":"08226107","name":"Hirschberg an der Bergstraße","type":"Kreisangehörige_Gemeinde"},"district":{"key":"08226","name":"Rhein-Neckar-Kreis","type":"Landkreis"},"federalState":{"key":"08","name":"Baden-Württemberg"}},{"name":"Luisenstr.","postalCode":"69493","locality":"Hirschberg an der Bergstraße","municipality":{"key":"08226107","name":"Hirschberg an der Bergstraße","type":"Kreisangehörige_Gemeinde"},"district":{"key":"08226","name":"Rhein-Neckar-Kreis","type":"Landkreis"},"federalState":{"key":"08","name":"Baden-Württemberg"}},{"name":"Mannheimer Str.","postalCode":"69493","locality":"Hirschberg an der Bergstraße","municipality":{"key":"08226107","name":"Hirschberg an der Bergstraße","type":"Kreisangehörige_Gemeinde"},"district":{"key":"08226","name":"Rhein-Neckar-Kreis","type":"Landkreis"},"federalState":{"key":"08","name":"Baden-Württemberg"}},{"name":"Margarethenruhweg","postalCode":"69493","locality":"Hirschberg an der Bergstraße","municipality":{"key":"08226107","name":"Hirschberg an der Bergstraße","type":"Kreisangehörige_Gemeinde"},"district":{"key":"08226","name":"Rhein-Neckar-Kreis","type":"Landkreis"},"federalState":{"key":"08","name":"Baden-Württemberg"}},{"name":"Marktacker","postalCode":"07927","locality":"Hirschberg","municipality":{"key":"16075046","name":"Hirschberg, Stadt","type":"Stadt"},"district":{"key":"16075","name":"Saale-Orla-Kreis","type":"Landkreis"},"federalState":{"key":"16","name":"Thüringen"}},{"name":"Marktplatz","postalCode":"69493","locality":"Hirschberg an der Bergstraße","municipality":{"key":"08226107","name":"Hirschberg an der Bergstraße","type":"Kreisangehörige_Gemeinde"},"district":{"key":"08226","name":"Rhein-Neckar-Kreis","type":"Landkreis"},"federalState":{"key":"08","name":"Baden-Württemberg"}},{"name":"Marktstr.","postalCode":"07927","locality":"Hirschberg","municipality":{"key":"16075046","name":"Hirschberg, Stadt","type":"Stadt"},"district":{"key":"16075","name":"Saale-Orla-Kreis","type":"Landkreis"},"federalState":{"key":"16","name":"Thüringen"}},{"name":"Martin-Stöhr-Str.","postalCode":"69493","locality":"Hirschberg an der Bergstraße","municipality":{"key":"08226107","name":"Hirschberg an der Bergstraße","type":"Kreisangehörige_Gemeinde"},"district":{"key":"08226","name":"Rhein-Neckar-Kreis","type":"Landkreis"},"federalState":{"key":"08","name":"Baden-Württemberg"}},{"name":"Maulberg","postalCode":"07927","locality":"Hirschberg","municipality":{"key":"16075046","name":"Hirschberg, Stadt","type":"Stadt"},"district":{"key":"16075","name":"Saale-Orla-Kreis","type":"Landkreis"},"federalState":{"key":"16","name":"Thüringen"}},{"name":"Maxim-Gorki-Str.","postalCode":"07927","locality":"Hirschberg","municipality":{"key":"16075046","name":"Hirschberg, Stadt","type":"Stadt"},"district":{"key":"16075","name":"Saale-Orla-Kreis","type":"Landkreis"},"federalState":{"key":"16","name":"Thüringen"}},{"name":"Meisengasse","postalCode":"69493","locality":"Hirschberg an der Bergstraße","municipality":{"key":"08226107","name":"Hirschberg an der Bergstraße","type":"Kreisangehörige_Gemeinde"},"district":{"key":"08226","name":"Rhein-Neckar-Kreis","type":"Landkreis"},"federalState":{"key":"08","name":"Baden-Württemberg"}},{"name":"Michael-Ende-Str.","postalCode":"69493","locality":"Hirschberg an der Bergstraße","municipality":{"key":"08226107","name":"Hirschberg an der Bergstraße","type":"Kreisangehörige_Gemeinde"},"district":{"key":"08226","name":"Rhein-Neckar-Kreis","type":"Landkreis"},"federalState":{"key":"08","name":"Baden-Württemberg"}},{"name":"Mittelgasse","postalCode":"69493","locality":"Hirschberg an der Bergstraße","municipality":{"key":"08226107","name":"Hirschberg an der Bergstraße","type":"Kreisangehörige_Gemeinde"},"district":{"key":"08226","name":"Rhein-Neckar-Kreis","type":"Landkreis"},"federalState":{"key":"08","name":"Baden-Württemberg"}},{"name":"Mörikestr.","postalCode":"69493","locality":"Hirschberg an der Bergstraße","municipality":{"key":"08226107","name":"Hirschberg an der Bergstraße","type":"Kreisangehörige_Gemeinde"},"district":{"key":"08226","name":"Rhein-Neckar-Kreis","type":"Landkreis"},"federalState":{"key":"08","name":"Baden-Württemberg"}},{"name":"Mozartstr.","postalCode":"69493","locality":"Hirschberg an der Bergstraße","municipality":{"key":"08226107","name":"Hirschberg an der Bergstraße","type":"Kreisangehörige_Gemeinde"},"district":{"key":"08226","name":"Rhein-Neckar-Kreis","type":"Landkreis"},"federalState":{"key":"08","name":"Baden-Württemberg"}},{"name":"Muldweg","postalCode":"69493","locality":"Hirschberg an der Bergstraße","municipality":{"key":"08226107","name":"Hirschberg an der Bergstraße","type":"Kreisangehörige_Gemeinde"},"district":{"key":"08226","name":"Rhein-Neckar-Kreis","type":"Landkreis"},"federalState":{"key":"08","name":"Baden-Württemberg"}},{"name":"Neckarstr.","postalCode":"69493","locality":"Hirschberg an der Bergstraße","municipality":{"key":"08226107","name":"Hirschberg an der Bergstraße","type":"Kreisangehörige_Gemeinde"},"district":{"key":"08226","name":"Rhein-Neckar-Kreis","type":"Landkreis"},"federalState":{"key":"08","name":"Baden-Württemberg"}},{"name":"Obere Berggasse","postalCode":"07927","locality":"Hirschberg","municipality":{"key":"16075046","name":"Hirschberg, Stadt","type":"Stadt"},"district":{"key":"16075","name":"Saale-Orla-Kreis","type":"Landkreis"},"federalState":{"key":"16","name":"Thüringen"}},{"name":"Obere Bergstr.","postalCode":"69493","locality":"Hirschberg an der Bergstraße","municipality":{"key":"08226107","name":"Hirschberg an der Bergstraße","type":"Kreisangehörige_Gemeinde"},"district":{"key":"08226","name":"Rhein-Neckar-Kreis","type":"Landkreis"},"federalState":{"key":"08","name":"Baden-Württemberg"}},{"name":"Oberer Häuselbergweg","postalCode":"69493","locality":"Hirschberg an der Bergstraße","municipality":{"key":"08226107","name":"Hirschberg an der Bergstraße","type":"Kreisangehörige_Gemeinde"},"district":{"key":"08226","name":"Rhein-Neckar-Kreis","type":"Landkreis"},"federalState":{"key":"08","name":"Baden-Württemberg"}},{"name":"Oberer Staudenbergweg","postalCode":"69493","locality":"Hirschberg an der Bergstraße","municipality":{"key":"08226107","name":"Hirschberg an der Bergstraße","type":"Kreisangehörige_Gemeinde"},"district":{"key":"08226","name":"Rhein-Neckar-Kreis","type":"Landkreis"},"federalState":{"key":"08","name":"Baden-Württemberg"}},{"name":"Obergasse","postalCode":"69493","locality":"Hirschberg an der Bergstraße","municipality":{"key":"08226107","name":"Hirschberg an der Bergstraße","type":"Kreisangehörige_Gemeinde"},"district":{"key":"08226","name":"Rhein-Neckar-Kreis","type":"Landkreis"},"federalState":{"key":"08","name":"Baden-Württemberg"}},{"name":"Odenwaldstr.","postalCode":"69493","locality":"Hirschberg an der Bergstraße","municipality":{"key":"08226107","name":"Hirschberg an der Bergstraße","type":"Kreisangehörige_Gemeinde"},"district":{"key":"08226","name":"Rhein-Neckar-Kreis","type":"Landkreis"},"federalState":{"key":"08","name":"Baden-Württemberg"}},{"name":"Pavillonweg","postalCode":"69493","locality":"Hirschberg an der Bergstraße","municipality":{"key":"08226107","name":"Hirschberg an der Bergstraße","type":"Kreisangehörige_Gemeinde"},"district":{"key":"08226","name":"Rhein-Neckar-Kreis","type":"Landkreis"},"federalState":{"key":"08","name":"Baden-Württemberg"}},{"name":"Pestalozzistr.","postalCode":"07927","locality":"Hirschberg","municipality":{"key":"16075046","name":"Hirschberg, Stadt","type":"Stadt"},"district":{"key":"16075","name":"Saale-Orla-Kreis","type":"Landkreis"},"federalState":{"key":"16","name":"Thüringen"}},{"name":"Pestalozzistr.","postalCode":"69493","locality":"Hirschberg an der Bergstraße","municipality":{"key":"08226107","name":"Hirschberg an der Bergstraße","type":"Kreisangehörige_Gemeinde"},"district":{"key":"08226","name":"Rhein-Neckar-Kreis","type":"Landkreis"},"federalState":{"key":"08","name":"Baden-Württemberg"}},{"name":"Pferchweg","postalCode":"69493","locality":"Hirschberg an der Bergstraße","municipality":{"key":"08226107","name":"Hirschberg an der Bergstraße","type":"Kreisangehörige_Gemeinde"},"district":{"key":"08226","name":"Rhein-Neckar-Kreis","type":"Landkreis"},"federalState":{"key":"08","name":"Baden-Württemberg"}},{"name":"Platanenstr.","postalCode":"69493","locality":"Hirschberg an der Bergstraße","municipality":{"key":"08226107","name":"Hirschberg an der Bergstraße","type":"Kreisangehörige_Gemeinde"},"district":{"key":"08226","name":"Rhein-Neckar-Kreis","type":"Landkreis"},"federalState":{"key":"08","name":"Baden-Württemberg"}},{"name":"Plauensche Str.","postalCode":"07927","locality":"Hirschberg","municipality":{"key":"16075046","name":"Hirschberg, Stadt","type":"Stadt"},"district":{"key":"16075","name":"Saale-Orla-Kreis","type":"Landkreis"},"federalState":{"key":"16","name":"Thüringen"}},{"name":"Querstr.","postalCode":"07927","locality":"Hirschberg","municipality":{"key":"16075046","name":"Hirschberg, Stadt","type":"Stadt"},"district":{"key":"16075","name":"Saale-Orla-Kreis","type":"Landkreis"},"federalState":{"key":"16","name":"Thüringen"}},{"name":"Raiffeisenstr.","postalCode":"69493","locality":"Hirschberg an der Bergstraße","municipality":{"key":"08226107","name":"Hirschberg an der Bergstraße","type":"Kreisangehörige_Gemeinde"},"district":{"key":"08226","name":"Rhein-Neckar-Kreis","type":"Landkreis"},"federalState":{"key":"08","name":"Baden-Württemberg"}},{"name":"Rathausgasse","postalCode":"07927","locality":"Hirschberg","municipality":{"key":"16075046","name":"Hirschberg, Stadt","type":"Stadt"},"district":{"key":"16075","name":"Saale-Orla-Kreis","type":"Landkreis"},"federalState":{"key":"16","name":"Thüringen"}},{"name":"Rebenweg","postalCode":"69493","locality":"Hirschberg an der Bergstraße","municipality":{"key":"08226107","name":"Hirschberg an der Bergstraße","type":"Kreisangehörige_Gemeinde"},"district":{"key":"08226","name":"Rhein-Neckar-Kreis","type":"Landkreis"},"federalState":{"key":"08","name":"Baden-Württemberg"}},{"name":"Rheinstr.","postalCode":"69493","locality":"Hirschberg an der Bergstraße","municipality":{"key":"08226107","name":"Hirschberg an der Bergstraße","type":"Kreisangehörige_Gemeinde"},"district":{"key":"08226","name":"Rhein-Neckar-Kreis","type":"Landkreis"},"federalState":{"key":"08","name":"Baden-Württemberg"}},{"name":"Riedweg","postalCode":"69493","locality":"Hirschberg an der Bergstraße","municipality":{"key":"08226107","name":"Hirschberg an der Bergstraße","type":"Kreisangehörige_Gemeinde"},"district":{"key":"08226","name":"Rhein-Neckar-Kreis","type":"Landkreis"},"federalState":{"key":"08","name":"Baden-Württemberg"}},{"name":"Rosengartenstr.","postalCode":"69493","locality":"Hirschberg an der Bergstraße","municipality":{"key":"08226107","name":"Hirschberg an der Bergstraße","type":"Kreisangehörige_Gemeinde"},"district":{"key":"08226","name":"Rhein-Neckar-Kreis","type":"Landkreis"},"federalState":{"key":"08","name":"Baden-Württemberg"}},{"name":"Rudolf-Breitscheid-Str.","postalCode":"07927","locality":"Hirschberg","municipality":{"key":"16075046","name":"Hirschberg, Stadt","type":"Stadt"},"district":{"key":"16075","name":"Saale-Orla-Kreis","type":"Landkreis"},"federalState":{"key":"16","name":"Thüringen"}},{"name":"Saalehang","postalCode":"07927","locality":"Hirschberg","municipality":{"key":"16075046","name":"Hirschberg, Stadt","type":"Stadt"},"district":{"key":"16075","name":"Saale-Orla-Kreis","type":"Landkreis"},"federalState":{"key":"16","name":"Thüringen"}},{"name":"Saalgasse","postalCode":"07927","locality":"Hirschberg","municipality":{"key":"16075046","name":"Hirschberg, Stadt","type":"Stadt"},"district":{"key":"16075","name":"Saale-Orla-Kreis","type":"Landkreis"},"federalState":{"key":"16","name":"Thüringen"}},{"name":"Salzlackweg","postalCode":"69493","locality":"Hirschberg an der Bergstraße","municipality":{"key":"08226107","name":"Hirschberg an der Bergstraße","type":"Kreisangehörige_Gemeinde"},"district":{"key":"08226","name":"Rhein-Neckar-Kreis","type":"Landkreis"},"federalState":{"key":"08","name":"Baden-Württemberg"}},{"name":"Schillerstr.","postalCode":"69493","locality":"Hirschberg an der Bergstraße","municipality":{"key":"08226107","name":"Hirschberg an der Bergstraße","type":"Kreisangehörige_Gemeinde"},"district":{"key":"08226","name":"Rhein-Neckar-Kreis","type":"Landkreis"},"federalState":{"key":"08","name":"Baden-Württemberg"}},{"name":"Schlehdornweg","postalCode":"69493","locality":"Hirschberg an der Bergstraße","municipality":{"key":"08226107","name":"Hirschberg an der Bergstraße","type":"Kreisangehörige_Gemeinde"},"district":{"key":"08226","name":"Rhein-Neckar-Kreis","type":"Landkreis"},"federalState":{"key":"08","name":"Baden-Württemberg"}},{"name":"Schloßgasse","postalCode":"07927","locality":"Hirschberg","municipality":{"key":"16075046","name":"Hirschberg, Stadt","type":"Stadt"},"district":{"key":"16075","name":"Saale-Orla-Kreis","type":"Landkreis"},"federalState":{"key":"16","name":"Thüringen"}},{"name":"Schloßgasse","postalCode":"69493","locality":"Hirschberg an der Bergstraße","municipality":{"key":"08226107","name":"Hirschberg an der Bergstraße","type":"Kreisangehörige_Gemeinde"},"district":{"key":"08226","name":"Rhein-Neckar-Kreis","type":"Landkreis"},"federalState":{"key":"08","name":"Baden-Württemberg"}},{"name":"Schubertstr.","postalCode":"69493","locality":"Hirschberg an der Bergstraße","municipality":{"key":"08226107","name":"Hirschberg an der Bergstraße","type":"Kreisangehörige_Gemeinde"},"district":{"key":"08226","name":"Rhein-Neckar-Kreis","type":"Landkreis"},"federalState":{"key":"08","name":"Baden-Württemberg"}},{"name":"Schulgäßchen","postalCode":"69493","locality":"Hirschberg an der Bergstraße","municipality":{"key":"08226107","name":"Hirschberg an der Bergstraße","type":"Kreisangehörige_Gemeinde"},"district":{"key":"08226","name":"Rhein-Neckar-Kreis","type":"Landkreis"},"federalState":{"key":"08","name":"Baden-Württemberg"}},{"name":"Schulstr.","postalCode":"07927","locality":"Hirschberg","municipality":{"key":"16075046","name":"Hirschberg, Stadt","type":"Stadt"},"district":{"key":"16075","name":"Saale-Orla-Kreis","type":"Landkreis"},"federalState":{"key":"16","name":"Thüringen"}},{"name":"Schulweg","postalCode":"07927","locality":"Hirschberg","municipality":{"key":"16075046","name":"Hirschberg, Stadt","type":"Stadt"},"district":{"key":"16075","name":"Saale-Orla-Kreis","type":"Landkreis"},"federalState":{"key":"16","name":"Thüringen"}},{"name":"Schwarzwaldstr.","postalCode":"69493","locality":"Hirschberg an der Bergstraße","municipality":{"key":"08226107","name":"Hirschberg an der Bergstraße","type":"Kreisangehörige_Gemeinde"},"district":{"key":"08226","name":"Rhein-Neckar-Kreis","type":"Landkreis"},"federalState":{"key":"08","name":"Baden-Württemberg"}},{"name":"Siebenbürgerhof","postalCode":"69493","locality":"Hirschberg an der Bergstraße","municipality":{"key":"08226107","name":"Hirschberg an der Bergstraße","type":"Kreisangehörige_Gemeinde"},"district":{"key":"08226","name":"Rhein-Neckar-Kreis","type":"Landkreis"},"federalState":{"key":"08","name":"Baden-Württemberg"}},{"name":"Siedlung","postalCode":"07927","locality":"Hirschberg","municipality":{"key":"16075046","name":"Hirschberg, Stadt","type":"Stadt"},"district":{"key":"16075","name":"Saale-Orla-Kreis","type":"Landkreis"},"federalState":{"key":"16","name":"Thüringen"}},{"name":"Silvanerweg","postalCode":"69493","locality":"Hirschberg an der Bergstraße","municipality":{"key":"08226107","name":"Hirschberg an der Bergstraße","type":"Kreisangehörige_Gemeinde"},"district":{"key":"08226","name":"Rhein-Neckar-Kreis","type":"Landkreis"},"federalState":{"key":"08","name":"Baden-Württemberg"}},{"name":"Skulpturengarten","postalCode":"69493","locality":"Hirschberg an der Bergstraße","municipality":{"key":"08226107","name":"Hirschberg an der Bergstraße","type":"Kreisangehörige_Gemeinde"},"district":{"key":"08226","name":"Rhein-Neckar-Kreis","type":"Landkreis"},"federalState":{"key":"08","name":"Baden-Württemberg"}},{"name":"Sonnenbergweg","postalCode":"69493","locality":"Hirschberg an der Bergstraße","municipality":{"key":"08226107","name":"Hirschberg an der Bergstraße","type":"Kreisangehörige_Gemeinde"},"district":{"key":"08226","name":"Rhein-Neckar-Kreis","type":"Landkreis"},"federalState":{"key":"08","name":"Baden-Württemberg"}},{"name":"Sparnberg","postalCode":"07927","locality":"Hirschberg","municipality":{"key":"16075046","name":"Hirschberg, Stadt","type":"Stadt"},"district":{"key":"16075","name":"Saale-Orla-Kreis","type":"Landkreis"},"federalState":{"key":"16","name":"Thüringen"}},{"name":"Sperrbauch","postalCode":"69493","locality":"Hirschberg an der Bergstraße","municipality":{"key":"08226107","name":"Hirschberg an der Bergstraße","type":"Kreisangehörige_Gemeinde"},"district":{"key":"08226","name":"Rhein-Neckar-Kreis","type":"Landkreis"},"federalState":{"key":"08","name":"Baden-Württemberg"}},{"name":"Staudenbergweg","postalCode":"69493","locality":"Hirschberg an der Bergstraße","municipality":{"key":"08226107","name":"Hirschberg an der Bergstraße","type":"Kreisangehörige_Gemeinde"},"district":{"key":"08226","name":"Rhein-Neckar-Kreis","type":"Landkreis"},"federalState":{"key":"08","name":"Baden-Württemberg"}},{"name":"Steig","postalCode":"69493","locality":"Hirschberg an der Bergstraße","municipality":{"key":"08226107","name":"Hirschberg an der Bergstraße","type":"Kreisangehörige_Gemeinde"},"district":{"key":"08226","name":"Rhein-Neckar-Kreis","type":"Landkreis"},"federalState":{"key":"08","name":"Baden-Württemberg"}},{"name":"Str. des Friedens","postalCode":"07927","locality":"Hirschberg","municipality":{"key":"16075046","name":"Hirschberg, Stadt","type":"Stadt"},"district":{"key":"16075","name":"Saale-Orla-Kreis","type":"Landkreis"},"federalState":{"key":"16","name":"Thüringen"}},{"name":"Talsiedlung","postalCode":"69493","locality":"Hirschberg an der Bergstraße","municipality":{"key":"08226107","name":"Hirschberg an der Bergstraße","type":"Kreisangehörige_Gemeinde"},"district":{"key":"08226","name":"Rhein-Neckar-Kreis","type":"Landkreis"},"federalState":{"key":"08","name":"Baden-Württemberg"}},{"name":"Talstr.","postalCode":"69493","locality":"Hirschberg an der Bergstraße","municipality":{"key":"08226107","name":"Hirschberg an der Bergstraße","type":"Kreisangehörige_Gemeinde"},"district":{"key":"08226","name":"Rhein-Neckar-Kreis","type":"Landkreis"},"federalState":{"key":"08","name":"Baden-Württemberg"}},{"name":"Thomas-Müntzer-Str.","postalCode":"07927","locality":"Hirschberg","municipality":{"key":"16075046","name":"Hirschberg, Stadt","type":"Stadt"},"district":{"key":"16075","name":"Saale-Orla-Kreis","type":"Landkreis"},"federalState":{"key":"16","name":"Thüringen"}},{"name":"Tischlersberg","postalCode":"07927","locality":"Hirschberg","municipality":{"key":"16075046","name":"Hirschberg, Stadt","type":"Stadt"},"district":{"key":"16075","name":"Saale-Orla-Kreis","type":"Landkreis"},"federalState":{"key":"16","name":"Thüringen"}},{"name":"Traubenweg","postalCode":"69493","locality":"Hirschberg an der Bergstraße","municipality":{"key":"08226107","name":"Hirschberg an der Bergstraße","type":"Kreisangehörige_Gemeinde"},"district":{"key":"08226","name":"Rhein-Neckar-Kreis","type":"Landkreis"},"federalState":{"key":"08","name":"Baden-Württemberg"}},{"name":"Uferstr.","postalCode":"07927","locality":"Hirschberg","municipality":{"key":"16075046","name":"Hirschberg, Stadt","type":"Stadt"},"district":{"key":"16075","name":"Saale-Orla-Kreis","type":"Landkreis"},"federalState":{"key":"16","name":"Thüringen"}},{"name":"Uhlandstr.","postalCode":"69493","locality":"Hirschberg an der Bergstraße","municipality":{"key":"08226107","name":"Hirschberg an der Bergstraße","type":"Kreisangehörige_Gemeinde"},"district":{"key":"08226","name":"Rhein-Neckar-Kreis","type":"Landkreis"},"federalState":{"key":"08","name":"Baden-Württemberg"}},{"name":"Ullersreuth","postalCode":"07927","locality":"Hirschberg","municipality":{"key":"16075046","name":"Hirschberg, Stadt","type":"Stadt"},"district":{"key":"16075","name":"Saale-Orla-Kreis","type":"Landkreis"},"federalState":{"key":"16","name":"Thüringen"}},{"name":"Ulmenstr.","postalCode":"69493","locality":"Hirschberg an der Bergstraße","municipality":{"key":"08226107","name":"Hirschberg an der Bergstraße","type":"Kreisangehörige_Gemeinde"},"district":{"key":"08226","name":"Rhein-Neckar-Kreis","type":"Landkreis"},"federalState":{"key":"08","name":"Baden-Württemberg"}},{"name":"Untere Berggasse","postalCode":"07927","locality":"Hirschberg","municipality":{"key":"16075046","name":"Hirschberg, Stadt","type":"Stadt"},"district":{"key":"16075","name":"Saale-Orla-Kreis","type":"Landkreis"},"federalState":{"key":"16","name":"Thüringen"}},{"name":"Unterer Häuselbergweg","postalCode":"69493","locality":"Hirschberg an der Bergstraße","municipality":{"key":"08226107","name":"Hirschberg an der Bergstraße","type":"Kreisangehörige_Gemeinde"},"district":{"key":"08226","name":"Rhein-Neckar-Kreis","type":"Landkreis"},"federalState":{"key":"08","name":"Baden-Württemberg"}},{"name":"Unterer Talbergweg","postalCode":"69493","locality":"Hirschberg an der Bergstraße","municipality":{"key":"08226107","name":"Hirschberg an der Bergstraße","type":"Kreisangehörige_Gemeinde"},"district":{"key":"08226","name":"Rhein-Neckar-Kreis","type":"Landkreis"},"federalState":{"key":"08","name":"Baden-Württemberg"}},{"name":"Venzka","postalCode":"07927","locality":"Hirschberg","municipality":{"key":"16075046","name":"Hirschberg, Stadt","type":"Stadt"},"district":{"key":"16075","name":"Saale-Orla-Kreis","type":"Landkreis"},"federalState":{"key":"16","name":"Thüringen"}},{"name":"Vordergasse","postalCode":"69493","locality":"Hirschberg an der Bergstraße","municipality":{"key":"08226107","name":"Hirschberg an der Bergstraße","type":"Kreisangehörige_Gemeinde"},"district":{"key":"08226","name":"Rhein-Neckar-Kreis","type":"Landkreis"},"federalState":{"key":"08","name":"Baden-Württemberg"}},{"name":"Waldstr.","postalCode":"07927","locality":"Hirschberg","municipality":{"key":"16075046","name":"Hirschberg, Stadt","type":"Stadt"},"district":{"key":"16075","name":"Saale-Orla-Kreis","type":"Landkreis"},"federalState":{"key":"16","name":"Thüringen"}},{"name":"Waldstr.","postalCode":"65558","locality":"Hirschberg","municipality":{"key":"07141057","name":"Hirschberg","type":"Kreisangehörige_Gemeinde"},"district":{"key":"07141","name":"Rhein-Lahn-Kreis","type":"Landkreis"},"federalState":{"key":"07","name":"Rheinland-Pfalz"}},{"name":"Weinbergstr.","postalCode":"69493","locality":"Hirschberg an der Bergstraße","municipality":{"key":"08226107","name":"Hirschberg an der Bergstraße","type":"Kreisangehörige_Gemeinde"},"district":{"key":"08226","name":"Rhein-Neckar-Kreis","type":"Landkreis"},"federalState":{"key":"08","name":"Baden-Württemberg"}},{"name":"Weinheimer Str.","postalCode":"69493","locality":"Hirschberg an der Bergstraße","municipality":{"key":"08226107","name":"Hirschberg an der Bergstraße","type":"Kreisangehörige_Gemeinde"},"district":{"key":"08226","name":"Rhein-Neckar-Kreis","type":"Landkreis"},"federalState":{"key":"08","name":"Baden-Württemberg"}},{"name":"Wilhelm-Busch-Ring","postalCode":"69493","locality":"Hirschberg an der Bergstraße","municipality":{"key":"08226107","name":"Hirschberg an der Bergstraße","type":"Kreisangehörige_Gemeinde"},"district":{"key":"08226","name":"Rhein-Neckar-Kreis","type":"Landkreis"},"federalState":{"key":"08","name":"Baden-Württemberg"}},{"name":"Winzerweg","postalCode":"69493","locality":"Hirschberg an der Bergstraße","municipality":{"key":"08226107","name":"Hirschberg an der Bergstraße","type":"Kreisangehörige_Gemeinde"},"district":{"key":"08226","name":"Rhein-Neckar-Kreis","type":"Landkreis"},"federalState":{"key":"08","name":"Baden-Württemberg"}},{"name":"Wolfenklingeweg","postalCode":"69493","locality":"Hirschberg an der Bergstraße","municipality":{"key":"08226107","name":"Hirschberg an der Bergstraße","type":"Kreisangehörige_Gemeinde"},"district":{"key":"08226","name":"Rhein-Neckar-Kreis","type":"Landkreis"},"federalState":{"key":"08","name":"Baden-Württemberg"}},{"name":"Wolfsackerweg","postalCode":"69493","locality":"Hirschberg an der Bergstraße","municipality":{"key":"08226107","name":"Hirschberg an der Bergstraße","type":"Kreisangehörige_Gemeinde"},"district":{"key":"08226","name":"Rhein-Neckar-Kreis","type":"Landkreis"},"federalState":{"key":"08","name":"Baden-Württemberg"}},{"name":"Wormser Str.","postalCode":"69493","locality":"Hirschberg an der Bergstraße","municipality":{"key":"08226107","name":"Hirschberg an der Bergstraße","type":"Kreisangehörige_Gemeinde"},"district":{"key":"08226","name":"Rhein-Neckar-Kreis","type":"Landkreis"},"federalState":{"key":"08","name":"Baden-Württemberg"}},{"name":"Zinkenbergweg","postalCode":"69493","locality":"Hirschberg an der Bergstraße","municipality":{"key":"08226107","name":"Hirschberg an der Bergstraße","type":"Kreisangehörige_Gemeinde"},"district":{"key":"08226","name":"Rhein-Neckar-Kreis","type":"Landkreis"},"federalState":{"key":"08","name":"Baden-Württemberg"}},{"name":"Zur Kupferzeche","postalCode":"07927","locality":"Hirschberg","municipality":{"key":"16075046","name":"Hirschberg, Stadt","type":"Stadt"},"district":{"key":"16075","name":"Saale-Orla-Kreis","type":"Landkreis"},"federalState":{"key":"16","name":"Thüringen"}},]