[{"name":"Altenborn","postalCode":"56355","locality":"Bettendorf","municipality":{"key":"07141012","name":"Bettendorf","type":"Kreisangehörige_Gemeinde"},"district":{"key":"07141","name":"Rhein-Lahn-Kreis","type":"Landkreis"},"federalState":{"key":"07","name":"Rheinland-Pfalz"}},{"name":"Bornkippel","postalCode":"56355","locality":"Bettendorf","municipality":{"key":"07141012","name":"Bettendorf","type":"Kreisangehörige_Gemeinde"},"district":{"key":"07141","name":"Rhein-Lahn-Kreis","type":"Landkreis"},"federalState":{"key":"07","name":"Rheinland-Pfalz"}},{"name":"Fichtenweg","postalCode":"56355","locality":"Bettendorf","municipality":{"key":"07141012","name":"Bettendorf","type":"Kreisangehörige_Gemeinde"},"district":{"key":"07141","name":"Rhein-Lahn-Kreis","type":"Landkreis"},"federalState":{"key":"07","name":"Rheinland-Pfalz"}},{"name":"Gartenstr.","postalCode":"56355","locality":"Bettendorf","municipality":{"key":"07141012","name":"Bettendorf","type":"Kreisangehörige_Gemeinde"},"district":{"key":"07141","name":"Rhein-Lahn-Kreis","type":"Landkreis"},"federalState":{"key":"07","name":"Rheinland-Pfalz"}},{"name":"Gillwiese","postalCode":"56355","locality":"Bettendorf","municipality":{"key":"07141012","name":"Bettendorf","type":"Kreisangehörige_Gemeinde"},"district":{"key":"07141","name":"Rhein-Lahn-Kreis","type":"Landkreis"},"federalState":{"key":"07","name":"Rheinland-Pfalz"}},{"name":"Hochstr.","postalCode":"56355","locality":"Bettendorf","municipality":{"key":"07141012","name":"Bettendorf","type":"Kreisangehörige_Gemeinde"},"district":{"key":"07141","name":"Rhein-Lahn-Kreis","type":"Landkreis"},"federalState":{"key":"07","name":"Rheinland-Pfalz"}},{"name":"Im Brandholz","postalCode":"56355","locality":"Bettendorf","municipality":{"key":"07141012","name":"Bettendorf","type":"Kreisangehörige_Gemeinde"},"district":{"key":"07141","name":"Rhein-Lahn-Kreis","type":"Landkreis"},"federalState":{"key":"07","name":"Rheinland-Pfalz"}},{"name":"Im Wiesengrund","postalCode":"56355","locality":"Bettendorf","municipality":{"key":"07141012","name":"Bettendorf","type":"Kreisangehörige_Gemeinde"},"district":{"key":"07141","name":"Rhein-Lahn-Kreis","type":"Landkreis"},"federalState":{"key":"07","name":"Rheinland-Pfalz"}},{"name":"Küstwiese","postalCode":"56355","locality":"Bettendorf","municipality":{"key":"07141012","name":"Bettendorf","type":"Kreisangehörige_Gemeinde"},"district":{"key":"07141","name":"Rhein-Lahn-Kreis","type":"Landkreis"},"federalState":{"key":"07","name":"Rheinland-Pfalz"}},{"name":"Miehlener Str.","postalCode":"56355","locality":"Bettendorf","municipality":{"key":"07141012","name":"Bettendorf","type":"Kreisangehörige_Gemeinde"},"district":{"key":"07141","name":"Rhein-Lahn-Kreis","type":"Landkreis"},"federalState":{"key":"07","name":"Rheinland-Pfalz"}},{"name":"Mühlweg","postalCode":"56355","locality":"Bettendorf","municipality":{"key":"07141012","name":"Bettendorf","type":"Kreisangehörige_Gemeinde"},"district":{"key":"07141","name":"Rhein-Lahn-Kreis","type":"Landkreis"},"federalState":{"key":"07","name":"Rheinland-Pfalz"}},{"name":"Nastätter Str.","postalCode":"56355","locality":"Bettendorf","municipality":{"key":"07141012","name":"Bettendorf","type":"Kreisangehörige_Gemeinde"},"district":{"key":"07141","name":"Rhein-Lahn-Kreis","type":"Landkreis"},"federalState":{"key":"07","name":"Rheinland-Pfalz"}},{"name":"Platzer Weg","postalCode":"56355","locality":"Bettendorf","municipality":{"key":"07141012","name":"Bettendorf","type":"Kreisangehörige_Gemeinde"},"district":{"key":"07141","name":"Rhein-Lahn-Kreis","type":"Landkreis"},"federalState":{"key":"07","name":"Rheinland-Pfalz"}},{"name":"Schulwiese","postalCode":"56355","locality":"Bettendorf","municipality":{"key":"07141012","name":"Bettendorf","type":"Kreisangehörige_Gemeinde"},"district":{"key":"07141","name":"Rhein-Lahn-Kreis","type":"Landkreis"},"federalState":{"key":"07","name":"Rheinland-Pfalz"}},]