[{"key":"10193550","name":"Altholzstrasse","postalCode":"8194","locality":"Hüntwangen","commune":{"key":"61","name":"Hüntwangen","shortName":"Hüntwangen"},"district":{"key":"103","name":"Bezirk Bülach"},"canton":{"key":"1","code":"ZH","name":"Zürich"},"status":"Real"},{"key":"10248610","name":"Alti Burgstrasse","postalCode":"8194","locality":"Hüntwangen","commune":{"key":"61","name":"Hüntwangen","shortName":"Hüntwangen"},"district":{"key":"103","name":"Bezirk Bülach"},"canton":{"key":"1","code":"ZH","name":"Zürich"},"status":"Real"},{"key":"10193429","name":"Anderschloostrasse","postalCode":"8194","locality":"Hüntwangen","commune":{"key":"61","name":"Hüntwangen","shortName":"Hüntwangen"},"district":{"key":"103","name":"Bezirk Bülach"},"canton":{"key":"1","code":"ZH","name":"Zürich"},"status":"Real"},{"key":"10152070","name":"Bachweg","postalCode":"8194","locality":"Hüntwangen","commune":{"key":"61","name":"Hüntwangen","shortName":"Hüntwangen"},"district":{"key":"103","name":"Bezirk Bülach"},"canton":{"key":"1","code":"ZH","name":"Zürich"},"status":"Real"},{"key":"10112612","name":"Badener Landstrasse","postalCode":"8194","locality":"Hüntwangen","commune":{"key":"61","name":"Hüntwangen","shortName":"Hüntwangen"},"district":{"key":"103","name":"Bezirk Bülach"},"canton":{"key":"1","code":"ZH","name":"Zürich"},"status":"Real"},{"key":"10193430","name":"Badstrasse","postalCode":"8194","locality":"Hüntwangen","commune":{"key":"61","name":"Hüntwangen","shortName":"Hüntwangen"},"district":{"key":"103","name":"Bezirk Bülach"},"canton":{"key":"1","code":"ZH","name":"Zürich"},"status":"Real"},{"key":"10183165","name":"Bahnhofstrasse","postalCode":"8194","locality":"Hüntwangen","commune":{"key":"61","name":"Hüntwangen","shortName":"Hüntwangen"},"district":{"key":"103","name":"Bezirk Bülach"},"canton":{"key":"1","code":"ZH","name":"Zürich"},"status":"Real"},{"key":"10193431","name":"Bälsackgasse","postalCode":"8194","locality":"Hüntwangen","commune":{"key":"61","name":"Hüntwangen","shortName":"Hüntwangen"},"district":{"key":"103","name":"Bezirk Bülach"},"canton":{"key":"1","code":"ZH","name":"Zürich"},"status":"Real"},{"key":"10057284","name":"Bälstrasse","postalCode":"8194","locality":"Hüntwangen","commune":{"key":"61","name":"Hüntwangen","shortName":"Hüntwangen"},"district":{"key":"103","name":"Bezirk Bülach"},"canton":{"key":"1","code":"ZH","name":"Zürich"},"status":"Real"},{"key":"10112613","name":"Bälweg","postalCode":"8194","locality":"Hüntwangen","commune":{"key":"61","name":"Hüntwangen","shortName":"Hüntwangen"},"district":{"key":"103","name":"Bezirk Bülach"},"canton":{"key":"1","code":"ZH","name":"Zürich"},"status":"Real"},{"key":"10248707","name":"Bandweg","postalCode":"8194","locality":"Hüntwangen","commune":{"key":"61","name":"Hüntwangen","shortName":"Hüntwangen"},"district":{"key":"103","name":"Bezirk Bülach"},"canton":{"key":"1","code":"ZH","name":"Zürich"},"status":"Real"},{"key":"10193432","name":"Bannweg","postalCode":"8194","locality":"Hüntwangen","commune":{"key":"61","name":"Hüntwangen","shortName":"Hüntwangen"},"district":{"key":"103","name":"Bezirk Bülach"},"canton":{"key":"1","code":"ZH","name":"Zürich"},"status":"Real"},{"key":"10144233","name":"Bauelenzelgstrasse","postalCode":"8194","locality":"Hüntwangen","commune":{"key":"61","name":"Hüntwangen","shortName":"Hüntwangen"},"district":{"key":"103","name":"Bezirk Bülach"},"canton":{"key":"1","code":"ZH","name":"Zürich"},"status":"Real"},{"key":"10193433","name":"Bauelhaustrasse","postalCode":"8194","locality":"Hüntwangen","commune":{"key":"61","name":"Hüntwangen","shortName":"Hüntwangen"},"district":{"key":"103","name":"Bezirk Bülach"},"canton":{"key":"1","code":"ZH","name":"Zürich"},"status":"Real"},{"key":"10001101","name":"Bergstrasse","postalCode":"8194","locality":"Hüntwangen","commune":{"key":"61","name":"Hüntwangen","shortName":"Hüntwangen"},"district":{"key":"103","name":"Bezirk Bülach"},"canton":{"key":"1","code":"ZH","name":"Zürich"},"status":"Real"},{"key":"10194603","name":"Birchstrasse","postalCode":"8194","locality":"Hüntwangen","commune":{"key":"61","name":"Hüntwangen","shortName":"Hüntwangen"},"district":{"key":"103","name":"Bezirk Bülach"},"canton":{"key":"1","code":"ZH","name":"Zürich"},"status":"Real"},{"key":"10001102","name":"Bodenstrasse","postalCode":"8194","locality":"Hüntwangen","commune":{"key":"61","name":"Hüntwangen","shortName":"Hüntwangen"},"district":{"key":"103","name":"Bezirk Bülach"},"canton":{"key":"1","code":"ZH","name":"Zürich"},"status":"Real"},{"key":"10194780","name":"Breitriethaustrasse","postalCode":"8194","locality":"Hüntwangen","commune":{"key":"61","name":"Hüntwangen","shortName":"Hüntwangen"},"district":{"key":"103","name":"Bezirk Bülach"},"canton":{"key":"1","code":"ZH","name":"Zürich"},"status":"Real"},{"key":"10193434","name":"Breitstrasse","postalCode":"8194","locality":"Hüntwangen","commune":{"key":"61","name":"Hüntwangen","shortName":"Hüntwangen"},"district":{"key":"103","name":"Bezirk Bülach"},"canton":{"key":"1","code":"ZH","name":"Zürich"},"status":"Real"},{"key":"10194781","name":"Brolandstrasse","postalCode":"8194","locality":"Hüntwangen","commune":{"key":"61","name":"Hüntwangen","shortName":"Hüntwangen"},"district":{"key":"103","name":"Bezirk Bülach"},"canton":{"key":"1","code":"ZH","name":"Zürich"},"status":"Real"},{"key":"10053910","name":"Brunnenstrasse","postalCode":"8194","locality":"Hüntwangen","commune":{"key":"61","name":"Hüntwangen","shortName":"Hüntwangen"},"district":{"key":"103","name":"Bezirk Bülach"},"canton":{"key":"1","code":"ZH","name":"Zürich"},"status":"Real"},{"key":"10193551","name":"Buchenlooweg","postalCode":"8194","locality":"Hüntwangen","commune":{"key":"61","name":"Hüntwangen","shortName":"Hüntwangen"},"district":{"key":"103","name":"Bezirk Bülach"},"canton":{"key":"1","code":"ZH","name":"Zürich"},"status":"Real"},{"key":"10193552","name":"Buechhaldenstrasse","postalCode":"8194","locality":"Hüntwangen","commune":{"key":"61","name":"Hüntwangen","shortName":"Hüntwangen"},"district":{"key":"103","name":"Bezirk Bülach"},"canton":{"key":"1","code":"ZH","name":"Zürich"},"status":"Real"},{"key":"10193553","name":"Büntenstrasse","postalCode":"8194","locality":"Hüntwangen","commune":{"key":"61","name":"Hüntwangen","shortName":"Hüntwangen"},"district":{"key":"103","name":"Bezirk Bülach"},"canton":{"key":"1","code":"ZH","name":"Zürich"},"status":"Real"},{"key":"10195214","name":"Büntenweg","postalCode":"8194","locality":"Hüntwangen","commune":{"key":"61","name":"Hüntwangen","shortName":"Hüntwangen"},"district":{"key":"103","name":"Bezirk Bülach"},"canton":{"key":"1","code":"ZH","name":"Zürich"},"status":"Real"},{"key":"10193554","name":"Chilstigstrasse","postalCode":"8194","locality":"Hüntwangen","commune":{"key":"61","name":"Hüntwangen","shortName":"Hüntwangen"},"district":{"key":"103","name":"Bezirk Bülach"},"canton":{"key":"1","code":"ZH","name":"Zürich"},"status":"Real"},{"key":"10080745","name":"Cholplatzstrasse","postalCode":"8194","locality":"Hüntwangen","commune":{"key":"61","name":"Hüntwangen","shortName":"Hüntwangen"},"district":{"key":"103","name":"Bezirk Bülach"},"canton":{"key":"1","code":"ZH","name":"Zürich"},"status":"Real"},{"key":"10193555","name":"Cholplatzweg","postalCode":"8194","locality":"Hüntwangen","commune":{"key":"61","name":"Hüntwangen","shortName":"Hüntwangen"},"district":{"key":"103","name":"Bezirk Bülach"},"canton":{"key":"1","code":"ZH","name":"Zürich"},"status":"Real"},{"key":"10193556","name":"Chüesetzistrasse","postalCode":"8194","locality":"Hüntwangen","commune":{"key":"61","name":"Hüntwangen","shortName":"Hüntwangen"},"district":{"key":"103","name":"Bezirk Bülach"},"canton":{"key":"1","code":"ZH","name":"Zürich"},"status":"Real"},{"key":"10001103","name":"Danielstrasse","postalCode":"8194","locality":"Hüntwangen","commune":{"key":"61","name":"Hüntwangen","shortName":"Hüntwangen"},"district":{"key":"103","name":"Bezirk Bülach"},"canton":{"key":"1","code":"ZH","name":"Zürich"},"status":"Real"},{"key":"10053911","name":"Dorfstrasse","postalCode":"8194","locality":"Hüntwangen","commune":{"key":"61","name":"Hüntwangen","shortName":"Hüntwangen"},"district":{"key":"103","name":"Bezirk Bülach"},"canton":{"key":"1","code":"ZH","name":"Zürich"},"status":"Real"},{"key":"10153340","name":"Eggsbüelstrasse","postalCode":"8194","locality":"Hüntwangen","commune":{"key":"61","name":"Hüntwangen","shortName":"Hüntwangen"},"district":{"key":"103","name":"Bezirk Bülach"},"canton":{"key":"1","code":"ZH","name":"Zürich"},"status":"Real"},{"key":"10193557","name":"Eggsbüelweg","postalCode":"8194","locality":"Hüntwangen","commune":{"key":"61","name":"Hüntwangen","shortName":"Hüntwangen"},"district":{"key":"103","name":"Bezirk Bülach"},"canton":{"key":"1","code":"ZH","name":"Zürich"},"status":"Real"},{"key":"10193558","name":"Eglisauerstrasse","postalCode":"8194","locality":"Hüntwangen","commune":{"key":"61","name":"Hüntwangen","shortName":"Hüntwangen"},"district":{"key":"103","name":"Bezirk Bülach"},"canton":{"key":"1","code":"ZH","name":"Zürich"},"status":"Real"},{"key":"10193559","name":"Eichenweg","postalCode":"8194","locality":"Hüntwangen","commune":{"key":"61","name":"Hüntwangen","shortName":"Hüntwangen"},"district":{"key":"103","name":"Bezirk Bülach"},"canton":{"key":"1","code":"ZH","name":"Zürich"},"status":"Real"},{"key":"10160861","name":"Eichhof","postalCode":"8194","locality":"Hüntwangen","commune":{"key":"61","name":"Hüntwangen","shortName":"Hüntwangen"},"district":{"key":"103","name":"Bezirk Bülach"},"canton":{"key":"1","code":"ZH","name":"Zürich"},"status":"Real"},{"key":"10194782","name":"Eichlihaustrasse","postalCode":"8194","locality":"Hüntwangen","commune":{"key":"61","name":"Hüntwangen","shortName":"Hüntwangen"},"district":{"key":"103","name":"Bezirk Bülach"},"canton":{"key":"1","code":"ZH","name":"Zürich"},"status":"Real"},{"key":"10193560","name":"Eichstrasse","postalCode":"8194","locality":"Hüntwangen","commune":{"key":"61","name":"Hüntwangen","shortName":"Hüntwangen"},"district":{"key":"103","name":"Bezirk Bülach"},"canton":{"key":"1","code":"ZH","name":"Zürich"},"status":"Real"},{"key":"10193561","name":"Eigistrasse","postalCode":"8194","locality":"Hüntwangen","commune":{"key":"61","name":"Hüntwangen","shortName":"Hüntwangen"},"district":{"key":"103","name":"Bezirk Bülach"},"canton":{"key":"1","code":"ZH","name":"Zürich"},"status":"Real"},{"key":"10193562","name":"Einkehrweg","postalCode":"8194","locality":"Hüntwangen","commune":{"key":"61","name":"Hüntwangen","shortName":"Hüntwangen"},"district":{"key":"103","name":"Bezirk Bülach"},"canton":{"key":"1","code":"ZH","name":"Zürich"},"status":"Real"},{"key":"10110934","name":"Fabrikstrasse","postalCode":"8194","locality":"Hüntwangen","commune":{"key":"61","name":"Hüntwangen","shortName":"Hüntwangen"},"district":{"key":"103","name":"Bezirk Bülach"},"canton":{"key":"1","code":"ZH","name":"Zürich"},"status":"Real"},{"key":"10193563","name":"Falchenstrasse","postalCode":"8194","locality":"Hüntwangen","commune":{"key":"61","name":"Hüntwangen","shortName":"Hüntwangen"},"district":{"key":"103","name":"Bezirk Bülach"},"canton":{"key":"1","code":"ZH","name":"Zürich"},"status":"Real"},{"key":"10193564","name":"Farbstrasse","postalCode":"8194","locality":"Hüntwangen","commune":{"key":"61","name":"Hüntwangen","shortName":"Hüntwangen"},"district":{"key":"103","name":"Bezirk Bülach"},"canton":{"key":"1","code":"ZH","name":"Zürich"},"status":"Real"},{"key":"10133707","name":"Feldstrasse","postalCode":"8194","locality":"Hüntwangen","commune":{"key":"61","name":"Hüntwangen","shortName":"Hüntwangen"},"district":{"key":"103","name":"Bezirk Bülach"},"canton":{"key":"1","code":"ZH","name":"Zürich"},"status":"Real"},{"key":"10193565","name":"Friedenweg","postalCode":"8194","locality":"Hüntwangen","commune":{"key":"61","name":"Hüntwangen","shortName":"Hüntwangen"},"district":{"key":"103","name":"Bezirk Bülach"},"canton":{"key":"1","code":"ZH","name":"Zürich"},"status":"Real"},{"key":"10193566","name":"Friedhofstrasse","postalCode":"8194","locality":"Hüntwangen","commune":{"key":"61","name":"Hüntwangen","shortName":"Hüntwangen"},"district":{"key":"103","name":"Bezirk Bülach"},"canton":{"key":"1","code":"ZH","name":"Zürich"},"status":"Real"},{"key":"10080746","name":"Froburgstrasse","postalCode":"8194","locality":"Hüntwangen","commune":{"key":"61","name":"Hüntwangen","shortName":"Hüntwangen"},"district":{"key":"103","name":"Bezirk Bülach"},"canton":{"key":"1","code":"ZH","name":"Zürich"},"status":"Real"},{"key":"10248621","name":"Froburgweg","postalCode":"8194","locality":"Hüntwangen","commune":{"key":"61","name":"Hüntwangen","shortName":"Hüntwangen"},"district":{"key":"103","name":"Bezirk Bülach"},"canton":{"key":"1","code":"ZH","name":"Zürich"},"status":"Real"},{"key":"10099763","name":"Frymannstrasse","postalCode":"8194","locality":"Hüntwangen","commune":{"key":"61","name":"Hüntwangen","shortName":"Hüntwangen"},"district":{"key":"103","name":"Bezirk Bülach"},"canton":{"key":"1","code":"ZH","name":"Zürich"},"status":"Real"},{"key":"10188018","name":"Fuchshofstrasse","postalCode":"8194","locality":"Hüntwangen","commune":{"key":"61","name":"Hüntwangen","shortName":"Hüntwangen"},"district":{"key":"103","name":"Bezirk Bülach"},"canton":{"key":"1","code":"ZH","name":"Zürich"},"status":"Real"},{"key":"10193657","name":"Gartenweg","postalCode":"8194","locality":"Hüntwangen","commune":{"key":"61","name":"Hüntwangen","shortName":"Hüntwangen"},"district":{"key":"103","name":"Bezirk Bülach"},"canton":{"key":"1","code":"ZH","name":"Zürich"},"status":"Real"},{"key":"10001104","name":"Goldbachweg","postalCode":"8194","locality":"Hüntwangen","commune":{"key":"61","name":"Hüntwangen","shortName":"Hüntwangen"},"district":{"key":"103","name":"Bezirk Bülach"},"canton":{"key":"1","code":"ZH","name":"Zürich"},"status":"Real"},{"key":"10193569","name":"Grenzweg","postalCode":"8194","locality":"Hüntwangen","commune":{"key":"61","name":"Hüntwangen","shortName":"Hüntwangen"},"district":{"key":"103","name":"Bezirk Bülach"},"canton":{"key":"1","code":"ZH","name":"Zürich"},"status":"Real"},{"key":"10193570","name":"Haldenstrasse","postalCode":"8194","locality":"Hüntwangen","commune":{"key":"61","name":"Hüntwangen","shortName":"Hüntwangen"},"district":{"key":"103","name":"Bezirk Bülach"},"canton":{"key":"1","code":"ZH","name":"Zürich"},"status":"Real"},{"key":"10193571","name":"Haldenweg","postalCode":"8194","locality":"Hüntwangen","commune":{"key":"61","name":"Hüntwangen","shortName":"Hüntwangen"},"district":{"key":"103","name":"Bezirk Bülach"},"canton":{"key":"1","code":"ZH","name":"Zürich"},"status":"Real"},{"key":"10149241","name":"Haufackerstrasse","postalCode":"8194","locality":"Hüntwangen","commune":{"key":"61","name":"Hüntwangen","shortName":"Hüntwangen"},"district":{"key":"103","name":"Bezirk Bülach"},"canton":{"key":"1","code":"ZH","name":"Zürich"},"status":"Real"},{"key":"10193572","name":"Haustrasse","postalCode":"8194","locality":"Hüntwangen","commune":{"key":"61","name":"Hüntwangen","shortName":"Hüntwangen"},"district":{"key":"103","name":"Bezirk Bülach"},"canton":{"key":"1","code":"ZH","name":"Zürich"},"status":"Real"},{"key":"10053912","name":"Heinisolstrasse","postalCode":"8194","locality":"Hüntwangen","commune":{"key":"61","name":"Hüntwangen","shortName":"Hüntwangen"},"district":{"key":"103","name":"Bezirk Bülach"},"canton":{"key":"1","code":"ZH","name":"Zürich"},"status":"Real"},{"key":"10001105","name":"Hinterdorfstrasse","postalCode":"8194","locality":"Hüntwangen","commune":{"key":"61","name":"Hüntwangen","shortName":"Hüntwangen"},"district":{"key":"103","name":"Bezirk Bülach"},"canton":{"key":"1","code":"ZH","name":"Zürich"},"status":"Real"},{"key":"10193573","name":"Hintere Bahndammstrasse","postalCode":"8194","locality":"Hüntwangen","commune":{"key":"61","name":"Hüntwangen","shortName":"Hüntwangen"},"district":{"key":"103","name":"Bezirk Bülach"},"canton":{"key":"1","code":"ZH","name":"Zürich"},"status":"Real"},{"key":"10193574","name":"Hintere Burgstrasse","postalCode":"8194","locality":"Hüntwangen","commune":{"key":"61","name":"Hüntwangen","shortName":"Hüntwangen"},"district":{"key":"103","name":"Bezirk Bülach"},"canton":{"key":"1","code":"ZH","name":"Zürich"},"status":"Real"},{"key":"10194783","name":"Hintere Gentnerstrasse","postalCode":"8194","locality":"Hüntwangen","commune":{"key":"61","name":"Hüntwangen","shortName":"Hüntwangen"},"district":{"key":"103","name":"Bezirk Bülach"},"canton":{"key":"1","code":"ZH","name":"Zürich"},"status":"Real"},{"key":"10057285","name":"Hinterer Kirchweg","postalCode":"8194","locality":"Hüntwangen","commune":{"key":"61","name":"Hüntwangen","shortName":"Hüntwangen"},"district":{"key":"103","name":"Bezirk Bülach"},"canton":{"key":"1","code":"ZH","name":"Zürich"},"status":"Real"},{"key":"10194784","name":"Hintere Stadtforenstrasse","postalCode":"8194","locality":"Hüntwangen","commune":{"key":"61","name":"Hüntwangen","shortName":"Hüntwangen"},"district":{"key":"103","name":"Bezirk Bülach"},"canton":{"key":"1","code":"ZH","name":"Zürich"},"status":"Real"},{"key":"10110935","name":"Hofackerweg","postalCode":"8194","locality":"Hüntwangen","commune":{"key":"61","name":"Hüntwangen","shortName":"Hüntwangen"},"district":{"key":"103","name":"Bezirk Bülach"},"canton":{"key":"1","code":"ZH","name":"Zürich"},"status":"Real"},{"key":"10080747","name":"Hohlgasse","postalCode":"8194","locality":"Hüntwangen","commune":{"key":"61","name":"Hüntwangen","shortName":"Hüntwangen"},"district":{"key":"103","name":"Bezirk Bülach"},"canton":{"key":"1","code":"ZH","name":"Zürich"},"status":"Real"},{"key":"10194785","name":"Hornsackgasse","postalCode":"8194","locality":"Hüntwangen","commune":{"key":"61","name":"Hüntwangen","shortName":"Hüntwangen"},"district":{"key":"103","name":"Bezirk Bülach"},"canton":{"key":"1","code":"ZH","name":"Zürich"},"status":"Real"},{"key":"10001106","name":"Im Band","postalCode":"8194","locality":"Hüntwangen","commune":{"key":"61","name":"Hüntwangen","shortName":"Hüntwangen"},"district":{"key":"103","name":"Bezirk Bülach"},"canton":{"key":"1","code":"ZH","name":"Zürich"},"status":"Real"},{"key":"10054298","name":"Im Gentner","postalCode":"8194","locality":"Hüntwangen","commune":{"key":"61","name":"Hüntwangen","shortName":"Hüntwangen"},"district":{"key":"103","name":"Bezirk Bülach"},"canton":{"key":"1","code":"ZH","name":"Zürich"},"status":"Real"},{"key":"10001107","name":"Kehlhofstrasse","postalCode":"8194","locality":"Hüntwangen","commune":{"key":"61","name":"Hüntwangen","shortName":"Hüntwangen"},"district":{"key":"103","name":"Bezirk Bülach"},"canton":{"key":"1","code":"ZH","name":"Zürich"},"status":"Real"},{"key":"10160221","name":"Kehlhofweg","postalCode":"8194","locality":"Hüntwangen","commune":{"key":"61","name":"Hüntwangen","shortName":"Hüntwangen"},"district":{"key":"103","name":"Bezirk Bülach"},"canton":{"key":"1","code":"ZH","name":"Zürich"},"status":"Real"},{"key":"10244228","name":"Kiesgrubenweg","postalCode":"8194","locality":"Hüntwangen","commune":{"key":"61","name":"Hüntwangen","shortName":"Hüntwangen"},"district":{"key":"103","name":"Bezirk Bülach"},"canton":{"key":"1","code":"ZH","name":"Zürich"},"status":"Real"},{"key":"10194786","name":"Kieswerkstrasse","postalCode":"8194","locality":"Hüntwangen","commune":{"key":"61","name":"Hüntwangen","shortName":"Hüntwangen"},"district":{"key":"103","name":"Bezirk Bülach"},"canton":{"key":"1","code":"ZH","name":"Zürich"},"status":"Real"},{"key":"10194787","name":"Kleingasse","postalCode":"8194","locality":"Hüntwangen","commune":{"key":"61","name":"Hüntwangen","shortName":"Hüntwangen"},"district":{"key":"103","name":"Bezirk Bülach"},"canton":{"key":"1","code":"ZH","name":"Zürich"},"status":"Real"},{"key":"10057286","name":"Küfergasse","postalCode":"8194","locality":"Hüntwangen","commune":{"key":"61","name":"Hüntwangen","shortName":"Hüntwangen"},"district":{"key":"103","name":"Bezirk Bülach"},"canton":{"key":"1","code":"ZH","name":"Zürich"},"status":"Real"},{"key":"10193575","name":"Landbachstrasse","postalCode":"8194","locality":"Hüntwangen","commune":{"key":"61","name":"Hüntwangen","shortName":"Hüntwangen"},"district":{"key":"103","name":"Bezirk Bülach"},"canton":{"key":"1","code":"ZH","name":"Zürich"},"status":"Real"},{"key":"10194788","name":"Langackerstrasse","postalCode":"8194","locality":"Hüntwangen","commune":{"key":"61","name":"Hüntwangen","shortName":"Hüntwangen"},"district":{"key":"103","name":"Bezirk Bülach"},"canton":{"key":"1","code":"ZH","name":"Zürich"},"status":"Real"},{"key":"10194789","name":"Langfuristrasse","postalCode":"8194","locality":"Hüntwangen","commune":{"key":"61","name":"Hüntwangen","shortName":"Hüntwangen"},"district":{"key":"103","name":"Bezirk Bülach"},"canton":{"key":"1","code":"ZH","name":"Zürich"},"status":"Real"},{"key":"10054299","name":"Längghof","postalCode":"8194","locality":"Hüntwangen","commune":{"key":"61","name":"Hüntwangen","shortName":"Hüntwangen"},"district":{"key":"103","name":"Bezirk Bülach"},"canton":{"key":"1","code":"ZH","name":"Zürich"},"status":"Real"},{"key":"10193576","name":"Länggstrasse","postalCode":"8194","locality":"Hüntwangen","commune":{"key":"61","name":"Hüntwangen","shortName":"Hüntwangen"},"district":{"key":"103","name":"Bezirk Bülach"},"canton":{"key":"1","code":"ZH","name":"Zürich"},"status":"Real"},{"key":"10193577","name":"Leewiesstrasse","postalCode":"8194","locality":"Hüntwangen","commune":{"key":"61","name":"Hüntwangen","shortName":"Hüntwangen"},"district":{"key":"103","name":"Bezirk Bülach"},"canton":{"key":"1","code":"ZH","name":"Zürich"},"status":"Real"},{"key":"10173831","name":"Linde","postalCode":"8194","locality":"Hüntwangen","commune":{"key":"61","name":"Hüntwangen","shortName":"Hüntwangen"},"district":{"key":"103","name":"Bezirk Bülach"},"canton":{"key":"1","code":"ZH","name":"Zürich"},"status":"Real"},{"key":"10248816","name":"Lindenweg","postalCode":"8194","locality":"Hüntwangen","commune":{"key":"61","name":"Hüntwangen","shortName":"Hüntwangen"},"district":{"key":"103","name":"Bezirk Bülach"},"canton":{"key":"1","code":"ZH","name":"Zürich"},"status":"Real"},{"key":"10193578","name":"Lirenweg","postalCode":"8194","locality":"Hüntwangen","commune":{"key":"61","name":"Hüntwangen","shortName":"Hüntwangen"},"district":{"key":"103","name":"Bezirk Bülach"},"canton":{"key":"1","code":"ZH","name":"Zürich"},"status":"Real"},{"key":"10001109","name":"Meierstrasse","postalCode":"8194","locality":"Hüntwangen","commune":{"key":"61","name":"Hüntwangen","shortName":"Hüntwangen"},"district":{"key":"103","name":"Bezirk Bülach"},"canton":{"key":"1","code":"ZH","name":"Zürich"},"status":"Real"},{"key":"10195090","name":"Mittlere Bandstrasse","postalCode":"8194","locality":"Hüntwangen","commune":{"key":"61","name":"Hüntwangen","shortName":"Hüntwangen"},"district":{"key":"103","name":"Bezirk Bülach"},"canton":{"key":"1","code":"ZH","name":"Zürich"},"status":"Real"},{"key":"10195091","name":"Mittlere Bauelhaustrasse","postalCode":"8194","locality":"Hüntwangen","commune":{"key":"61","name":"Hüntwangen","shortName":"Hüntwangen"},"district":{"key":"103","name":"Bezirk Bülach"},"canton":{"key":"1","code":"ZH","name":"Zürich"},"status":"Real"},{"key":"10193003","name":"Morgensonnstrasse","postalCode":"8194","locality":"Hüntwangen","commune":{"key":"61","name":"Hüntwangen","shortName":"Hüntwangen"},"district":{"key":"103","name":"Bezirk Bülach"},"canton":{"key":"1","code":"ZH","name":"Zürich"},"status":"Real"},{"key":"10193004","name":"Morgenstrasse","postalCode":"8194","locality":"Hüntwangen","commune":{"key":"61","name":"Hüntwangen","shortName":"Hüntwangen"},"district":{"key":"103","name":"Bezirk Bülach"},"canton":{"key":"1","code":"ZH","name":"Zürich"},"status":"Real"},{"key":"10153597","name":"Murenweg","postalCode":"8194","locality":"Hüntwangen","commune":{"key":"61","name":"Hüntwangen","shortName":"Hüntwangen"},"district":{"key":"103","name":"Bezirk Bülach"},"canton":{"key":"1","code":"ZH","name":"Zürich"},"status":"Real"},{"key":"10193005","name":"Neuwisstrasse","postalCode":"8194","locality":"Hüntwangen","commune":{"key":"61","name":"Hüntwangen","shortName":"Hüntwangen"},"district":{"key":"103","name":"Bezirk Bülach"},"canton":{"key":"1","code":"ZH","name":"Zürich"},"status":"Real"},{"key":"10193006","name":"Obere Bälstrasse","postalCode":"8194","locality":"Hüntwangen","commune":{"key":"61","name":"Hüntwangen","shortName":"Hüntwangen"},"district":{"key":"103","name":"Bezirk Bülach"},"canton":{"key":"1","code":"ZH","name":"Zürich"},"status":"Real"},{"key":"10193007","name":"Obere Bandstrasse","postalCode":"8194","locality":"Hüntwangen","commune":{"key":"61","name":"Hüntwangen","shortName":"Hüntwangen"},"district":{"key":"103","name":"Bezirk Bülach"},"canton":{"key":"1","code":"ZH","name":"Zürich"},"status":"Real"},{"key":"10193008","name":"Obere Bauelhaustrasse","postalCode":"8194","locality":"Hüntwangen","commune":{"key":"61","name":"Hüntwangen","shortName":"Hüntwangen"},"district":{"key":"103","name":"Bezirk Bülach"},"canton":{"key":"1","code":"ZH","name":"Zürich"},"status":"Real"},{"key":"10193010","name":"Obere Buechhaldenstrasse","postalCode":"8194","locality":"Hüntwangen","commune":{"key":"61","name":"Hüntwangen","shortName":"Hüntwangen"},"district":{"key":"103","name":"Bezirk Bülach"},"canton":{"key":"1","code":"ZH","name":"Zürich"},"status":"Real"},{"key":"10193011","name":"Obere Rötzlibachstrasse","postalCode":"8194","locality":"Hüntwangen","commune":{"key":"61","name":"Hüntwangen","shortName":"Hüntwangen"},"district":{"key":"103","name":"Bezirk Bülach"},"canton":{"key":"1","code":"ZH","name":"Zürich"},"status":"Real"},{"key":"10120433","name":"Oelergasse","postalCode":"8194","locality":"Hüntwangen","commune":{"key":"61","name":"Hüntwangen","shortName":"Hüntwangen"},"district":{"key":"103","name":"Bezirk Bülach"},"canton":{"key":"1","code":"ZH","name":"Zürich"},"status":"Real"},{"key":"10193013","name":"Pflanzschulstrasse","postalCode":"8194","locality":"Hüntwangen","commune":{"key":"61","name":"Hüntwangen","shortName":"Hüntwangen"},"district":{"key":"103","name":"Bezirk Bülach"},"canton":{"key":"1","code":"ZH","name":"Zürich"},"status":"Real"},{"key":"10193014","name":"Pilgerhofweg","postalCode":"8194","locality":"Hüntwangen","commune":{"key":"61","name":"Hüntwangen","shortName":"Hüntwangen"},"district":{"key":"103","name":"Bezirk Bülach"},"canton":{"key":"1","code":"ZH","name":"Zürich"},"status":"Real"},{"key":"10080748","name":"Poststrasse","postalCode":"8194","locality":"Hüntwangen","commune":{"key":"61","name":"Hüntwangen","shortName":"Hüntwangen"},"district":{"key":"103","name":"Bezirk Bülach"},"canton":{"key":"1","code":"ZH","name":"Zürich"},"status":"Real"},{"key":"10193015","name":"Postweg","postalCode":"8194","locality":"Hüntwangen","commune":{"key":"61","name":"Hüntwangen","shortName":"Hüntwangen"},"district":{"key":"103","name":"Bezirk Bülach"},"canton":{"key":"1","code":"ZH","name":"Zürich"},"status":"Real"},{"key":"10193016","name":"Querstrasse","postalCode":"8194","locality":"Hüntwangen","commune":{"key":"61","name":"Hüntwangen","shortName":"Hüntwangen"},"district":{"key":"103","name":"Bezirk Bülach"},"canton":{"key":"1","code":"ZH","name":"Zürich"},"status":"Real"},{"key":"10193017","name":"Rankweg","postalCode":"8194","locality":"Hüntwangen","commune":{"key":"61","name":"Hüntwangen","shortName":"Hüntwangen"},"district":{"key":"103","name":"Bezirk Bülach"},"canton":{"key":"1","code":"ZH","name":"Zürich"},"status":"Real"},{"key":"10057287","name":"Rebbergstrasse","postalCode":"8194","locality":"Hüntwangen","commune":{"key":"61","name":"Hüntwangen","shortName":"Hüntwangen"},"district":{"key":"103","name":"Bezirk Bülach"},"canton":{"key":"1","code":"ZH","name":"Zürich"},"status":"Real"},{"key":"10193018","name":"Reutholzstrasse","postalCode":"8194","locality":"Hüntwangen","commune":{"key":"61","name":"Hüntwangen","shortName":"Hüntwangen"},"district":{"key":"103","name":"Bezirk Bülach"},"canton":{"key":"1","code":"ZH","name":"Zürich"},"status":"Real"},{"key":"10193019","name":"Rheinstrasse","postalCode":"8194","locality":"Hüntwangen","commune":{"key":"61","name":"Hüntwangen","shortName":"Hüntwangen"},"district":{"key":"103","name":"Bezirk Bülach"},"canton":{"key":"1","code":"ZH","name":"Zürich"},"status":"Real"},{"key":"10193020","name":"Rötzlibachstrasse","postalCode":"8194","locality":"Hüntwangen","commune":{"key":"61","name":"Hüntwangen","shortName":"Hüntwangen"},"district":{"key":"103","name":"Bezirk Bülach"},"canton":{"key":"1","code":"ZH","name":"Zürich"},"status":"Real"},{"key":"10193021","name":"Rütistrasse","postalCode":"8194","locality":"Hüntwangen","commune":{"key":"61","name":"Hüntwangen","shortName":"Hüntwangen"},"district":{"key":"103","name":"Bezirk Bülach"},"canton":{"key":"1","code":"ZH","name":"Zürich"},"status":"Real"},{"key":"10193022","name":"Saumstrasse","postalCode":"8194","locality":"Hüntwangen","commune":{"key":"61","name":"Hüntwangen","shortName":"Hüntwangen"},"district":{"key":"103","name":"Bezirk Bülach"},"canton":{"key":"1","code":"ZH","name":"Zürich"},"status":"Real"},{"key":"10210322","name":"Scheffweg","postalCode":"8194","locality":"Hüntwangen","commune":{"key":"61","name":"Hüntwangen","shortName":"Hüntwangen"},"district":{"key":"103","name":"Bezirk Bülach"},"canton":{"key":"1","code":"ZH","name":"Zürich"},"status":"Real"},{"key":"10110936","name":"Schliferweg","postalCode":"8194","locality":"Hüntwangen","commune":{"key":"61","name":"Hüntwangen","shortName":"Hüntwangen"},"district":{"key":"103","name":"Bezirk Bülach"},"canton":{"key":"1","code":"ZH","name":"Zürich"},"status":"Real"},{"key":"10001111","name":"Schmiedgasse","postalCode":"8194","locality":"Hüntwangen","commune":{"key":"61","name":"Hüntwangen","shortName":"Hüntwangen"},"district":{"key":"103","name":"Bezirk Bülach"},"canton":{"key":"1","code":"ZH","name":"Zürich"},"status":"Real"},{"key":"10080749","name":"Schulgasse","postalCode":"8194","locality":"Hüntwangen","commune":{"key":"61","name":"Hüntwangen","shortName":"Hüntwangen"},"district":{"key":"103","name":"Bezirk Bülach"},"canton":{"key":"1","code":"ZH","name":"Zürich"},"status":"Real"},{"key":"10144234","name":"Signalstrasse","postalCode":"8194","locality":"Hüntwangen","commune":{"key":"61","name":"Hüntwangen","shortName":"Hüntwangen"},"district":{"key":"103","name":"Bezirk Bülach"},"canton":{"key":"1","code":"ZH","name":"Zürich"},"status":"Real"},{"key":"10193023","name":"Sonnenweg","postalCode":"8194","locality":"Hüntwangen","commune":{"key":"61","name":"Hüntwangen","shortName":"Hüntwangen"},"district":{"key":"103","name":"Bezirk Bülach"},"canton":{"key":"1","code":"ZH","name":"Zürich"},"status":"Real"},{"key":"10193024","name":"Spitzstrasse","postalCode":"8194","locality":"Hüntwangen","commune":{"key":"61","name":"Hüntwangen","shortName":"Hüntwangen"},"district":{"key":"103","name":"Bezirk Bülach"},"canton":{"key":"1","code":"ZH","name":"Zürich"},"status":"Real"},{"key":"10193025","name":"Steigstrasse","postalCode":"8194","locality":"Hüntwangen","commune":{"key":"61","name":"Hüntwangen","shortName":"Hüntwangen"},"district":{"key":"103","name":"Bezirk Bülach"},"canton":{"key":"1","code":"ZH","name":"Zürich"},"status":"Real"},{"key":"10057288","name":"Steilgasse","postalCode":"8194","locality":"Hüntwangen","commune":{"key":"61","name":"Hüntwangen","shortName":"Hüntwangen"},"district":{"key":"103","name":"Bezirk Bülach"},"canton":{"key":"1","code":"ZH","name":"Zürich"},"status":"Real"},{"key":"10193026","name":"Steinackerstrasse","postalCode":"8194","locality":"Hüntwangen","commune":{"key":"61","name":"Hüntwangen","shortName":"Hüntwangen"},"district":{"key":"103","name":"Bezirk Bülach"},"canton":{"key":"1","code":"ZH","name":"Zürich"},"status":"Real"},{"key":"10001112","name":"Stepackerstrasse","postalCode":"8194","locality":"Hüntwangen","commune":{"key":"61","name":"Hüntwangen","shortName":"Hüntwangen"},"district":{"key":"103","name":"Bezirk Bülach"},"canton":{"key":"1","code":"ZH","name":"Zürich"},"status":"Real"},{"key":"10193028","name":"Stockenstrasse","postalCode":"8194","locality":"Hüntwangen","commune":{"key":"61","name":"Hüntwangen","shortName":"Hüntwangen"},"district":{"key":"103","name":"Bezirk Bülach"},"canton":{"key":"1","code":"ZH","name":"Zürich"},"status":"Real"},{"key":"10248683","name":"Stockenweg","postalCode":"8194","locality":"Hüntwangen","commune":{"key":"61","name":"Hüntwangen","shortName":"Hüntwangen"},"district":{"key":"103","name":"Bezirk Bülach"},"canton":{"key":"1","code":"ZH","name":"Zürich"},"status":"Real"},{"key":"10193029","name":"Untere Bandstrasse","postalCode":"8194","locality":"Hüntwangen","commune":{"key":"61","name":"Hüntwangen","shortName":"Hüntwangen"},"district":{"key":"103","name":"Bezirk Bülach"},"canton":{"key":"1","code":"ZH","name":"Zürich"},"status":"Real"},{"key":"10193030","name":"Untere Birchenstrasse","postalCode":"8194","locality":"Hüntwangen","commune":{"key":"61","name":"Hüntwangen","shortName":"Hüntwangen"},"district":{"key":"103","name":"Bezirk Bülach"},"canton":{"key":"1","code":"ZH","name":"Zürich"},"status":"Real"},{"key":"10162551","name":"Untere Eggsbüelstrasse","postalCode":"8194","locality":"Hüntwangen","commune":{"key":"61","name":"Hüntwangen","shortName":"Hüntwangen"},"district":{"key":"103","name":"Bezirk Bülach"},"canton":{"key":"1","code":"ZH","name":"Zürich"},"status":"Real"},{"key":"10193031","name":"Untere Haustrasse","postalCode":"8194","locality":"Hüntwangen","commune":{"key":"61","name":"Hüntwangen","shortName":"Hüntwangen"},"district":{"key":"103","name":"Bezirk Bülach"},"canton":{"key":"1","code":"ZH","name":"Zürich"},"status":"Real"},{"key":"10080750","name":"Untere Heinisolstrasse","postalCode":"8194","locality":"Hüntwangen","commune":{"key":"61","name":"Hüntwangen","shortName":"Hüntwangen"},"district":{"key":"103","name":"Bezirk Bülach"},"canton":{"key":"1","code":"ZH","name":"Zürich"},"status":"Real"},{"key":"10193032","name":"Untere Wolfhagstrasse","postalCode":"8194","locality":"Hüntwangen","commune":{"key":"61","name":"Hüntwangen","shortName":"Hüntwangen"},"district":{"key":"103","name":"Bezirk Bülach"},"canton":{"key":"1","code":"ZH","name":"Zürich"},"status":"Real"},{"key":"10194790","name":"Vordere Bahndammstrasse","postalCode":"8194","locality":"Hüntwangen","commune":{"key":"61","name":"Hüntwangen","shortName":"Hüntwangen"},"district":{"key":"103","name":"Bezirk Bülach"},"canton":{"key":"1","code":"ZH","name":"Zürich"},"status":"Real"},{"key":"10194791","name":"Vordere Burgstrasse","postalCode":"8194","locality":"Hüntwangen","commune":{"key":"61","name":"Hüntwangen","shortName":"Hüntwangen"},"district":{"key":"103","name":"Bezirk Bülach"},"canton":{"key":"1","code":"ZH","name":"Zürich"},"status":"Real"},{"key":"10193033","name":"Vordere Gentnerstrasse","postalCode":"8194","locality":"Hüntwangen","commune":{"key":"61","name":"Hüntwangen","shortName":"Hüntwangen"},"district":{"key":"103","name":"Bezirk Bülach"},"canton":{"key":"1","code":"ZH","name":"Zürich"},"status":"Real"},{"key":"10001113","name":"Vorderer Kirchweg","postalCode":"8194","locality":"Hüntwangen","commune":{"key":"61","name":"Hüntwangen","shortName":"Hüntwangen"},"district":{"key":"103","name":"Bezirk Bülach"},"canton":{"key":"1","code":"ZH","name":"Zürich"},"status":"Real"},{"key":"10193034","name":"Vordere Stadtforenstrasse","postalCode":"8194","locality":"Hüntwangen","commune":{"key":"61","name":"Hüntwangen","shortName":"Hüntwangen"},"district":{"key":"103","name":"Bezirk Bülach"},"canton":{"key":"1","code":"ZH","name":"Zürich"},"status":"Real"},{"key":"10193035","name":"Vorwiesenstrasse","postalCode":"8194","locality":"Hüntwangen","commune":{"key":"61","name":"Hüntwangen","shortName":"Hüntwangen"},"district":{"key":"103","name":"Bezirk Bülach"},"canton":{"key":"1","code":"ZH","name":"Zürich"},"status":"Real"},{"key":"10193036","name":"Waldhausstrasse","postalCode":"8194","locality":"Hüntwangen","commune":{"key":"61","name":"Hüntwangen","shortName":"Hüntwangen"},"district":{"key":"103","name":"Bezirk Bülach"},"canton":{"key":"1","code":"ZH","name":"Zürich"},"status":"Real"},{"key":"10193037","name":"Wasterkingerweg","postalCode":"8194","locality":"Hüntwangen","commune":{"key":"61","name":"Hüntwangen","shortName":"Hüntwangen"},"district":{"key":"103","name":"Bezirk Bülach"},"canton":{"key":"1","code":"ZH","name":"Zürich"},"status":"Real"},{"key":"10193038","name":"Weiherstrasse","postalCode":"8194","locality":"Hüntwangen","commune":{"key":"61","name":"Hüntwangen","shortName":"Hüntwangen"},"district":{"key":"103","name":"Bezirk Bülach"},"canton":{"key":"1","code":"ZH","name":"Zürich"},"status":"Real"},{"key":"10149622","name":"Wilerstrasse","postalCode":"8194","locality":"Hüntwangen","commune":{"key":"61","name":"Hüntwangen","shortName":"Hüntwangen"},"district":{"key":"103","name":"Bezirk Bülach"},"canton":{"key":"1","code":"ZH","name":"Zürich"},"status":"Real"},{"key":"10001114","name":"Winkelstrasse","postalCode":"8194","locality":"Hüntwangen","commune":{"key":"61","name":"Hüntwangen","shortName":"Hüntwangen"},"district":{"key":"103","name":"Bezirk Bülach"},"canton":{"key":"1","code":"ZH","name":"Zürich"},"status":"Real"},{"key":"10057289","name":"Wolfhagstrasse","postalCode":"8194","locality":"Hüntwangen","commune":{"key":"61","name":"Hüntwangen","shortName":"Hüntwangen"},"district":{"key":"103","name":"Bezirk Bülach"},"canton":{"key":"1","code":"ZH","name":"Zürich"},"status":"Real"},{"key":"10193039","name":"Zimmerplatzstrasse","postalCode":"8194","locality":"Hüntwangen","commune":{"key":"61","name":"Hüntwangen","shortName":"Hüntwangen"},"district":{"key":"103","name":"Bezirk Bülach"},"canton":{"key":"1","code":"ZH","name":"Zürich"},"status":"Real"},]