[{"name":"Altenberg","postalCode":"54539","locality":"Ürzig","municipality":{"key":"07231125","name":"Ürzig","type":"Kreisangehörige_Gemeinde"},"district":{"key":"07231","name":"Bernkastel-Wittlich","type":"Landkreis"},"federalState":{"key":"07","name":"Rheinland-Pfalz"}},{"name":"Am Heiligenhäuschen","postalCode":"54539","locality":"Ürzig","municipality":{"key":"07231125","name":"Ürzig","type":"Kreisangehörige_Gemeinde"},"district":{"key":"07231","name":"Bernkastel-Wittlich","type":"Landkreis"},"federalState":{"key":"07","name":"Rheinland-Pfalz"}},{"name":"Bahnhof Ürzig","postalCode":"54539","locality":"Ürzig","municipality":{"key":"07231125","name":"Ürzig","type":"Kreisangehörige_Gemeinde"},"district":{"key":"07231","name":"Bernkastel-Wittlich","type":"Landkreis"},"federalState":{"key":"07","name":"Rheinland-Pfalz"}},{"name":"Bergstr.","postalCode":"54539","locality":"Ürzig","municipality":{"key":"07231125","name":"Ürzig","type":"Kreisangehörige_Gemeinde"},"district":{"key":"07231","name":"Bernkastel-Wittlich","type":"Landkreis"},"federalState":{"key":"07","name":"Rheinland-Pfalz"}},{"name":"Brunnenstr.","postalCode":"54539","locality":"Ürzig","municipality":{"key":"07231125","name":"Ürzig","type":"Kreisangehörige_Gemeinde"},"district":{"key":"07231","name":"Bernkastel-Wittlich","type":"Landkreis"},"federalState":{"key":"07","name":"Rheinland-Pfalz"}},{"name":"Christian-Dieden-Weg","postalCode":"54539","locality":"Ürzig","municipality":{"key":"07231125","name":"Ürzig","type":"Kreisangehörige_Gemeinde"},"district":{"key":"07231","name":"Bernkastel-Wittlich","type":"Landkreis"},"federalState":{"key":"07","name":"Rheinland-Pfalz"}},{"name":"Edmund Conen Weg","postalCode":"54539","locality":"Ürzig","municipality":{"key":"07231125","name":"Ürzig","type":"Kreisangehörige_Gemeinde"},"district":{"key":"07231","name":"Bernkastel-Wittlich","type":"Landkreis"},"federalState":{"key":"07","name":"Rheinland-Pfalz"}},{"name":"Finkenweg","postalCode":"54539","locality":"Ürzig","municipality":{"key":"07231125","name":"Ürzig","type":"Kreisangehörige_Gemeinde"},"district":{"key":"07231","name":"Bernkastel-Wittlich","type":"Landkreis"},"federalState":{"key":"07","name":"Rheinland-Pfalz"}},{"name":"Hubertushöhe","postalCode":"54539","locality":"Ürzig","municipality":{"key":"07231125","name":"Ürzig","type":"Kreisangehörige_Gemeinde"},"district":{"key":"07231","name":"Bernkastel-Wittlich","type":"Landkreis"},"federalState":{"key":"07","name":"Rheinland-Pfalz"}},{"name":"Hüwel","postalCode":"54539","locality":"Ürzig","municipality":{"key":"07231125","name":"Ürzig","type":"Kreisangehörige_Gemeinde"},"district":{"key":"07231","name":"Bernkastel-Wittlich","type":"Landkreis"},"federalState":{"key":"07","name":"Rheinland-Pfalz"}},{"name":"Im Eichengrund","postalCode":"54539","locality":"Ürzig","municipality":{"key":"07231125","name":"Ürzig","type":"Kreisangehörige_Gemeinde"},"district":{"key":"07231","name":"Bernkastel-Wittlich","type":"Landkreis"},"federalState":{"key":"07","name":"Rheinland-Pfalz"}},{"name":"Im Kordel","postalCode":"54539","locality":"Ürzig","municipality":{"key":"07231125","name":"Ürzig","type":"Kreisangehörige_Gemeinde"},"district":{"key":"07231","name":"Bernkastel-Wittlich","type":"Landkreis"},"federalState":{"key":"07","name":"Rheinland-Pfalz"}},{"name":"Im Wiesengrund","postalCode":"54539","locality":"Ürzig","municipality":{"key":"07231125","name":"Ürzig","type":"Kreisangehörige_Gemeinde"},"district":{"key":"07231","name":"Bernkastel-Wittlich","type":"Landkreis"},"federalState":{"key":"07","name":"Rheinland-Pfalz"}},{"name":"Karl-Christoffel-Weg","postalCode":"54539","locality":"Ürzig","municipality":{"key":"07231125","name":"Ürzig","type":"Kreisangehörige_Gemeinde"},"district":{"key":"07231","name":"Bernkastel-Wittlich","type":"Landkreis"},"federalState":{"key":"07","name":"Rheinland-Pfalz"}},{"name":"Kondelblick","postalCode":"54539","locality":"Ürzig","municipality":{"key":"07231125","name":"Ürzig","type":"Kreisangehörige_Gemeinde"},"district":{"key":"07231","name":"Bernkastel-Wittlich","type":"Landkreis"},"federalState":{"key":"07","name":"Rheinland-Pfalz"}},{"name":"Molitorstr.","postalCode":"54539","locality":"Ürzig","municipality":{"key":"07231125","name":"Ürzig","type":"Kreisangehörige_Gemeinde"},"district":{"key":"07231","name":"Bernkastel-Wittlich","type":"Landkreis"},"federalState":{"key":"07","name":"Rheinland-Pfalz"}},{"name":"Moselhöhenweg","postalCode":"54539","locality":"Ürzig","municipality":{"key":"07231125","name":"Ürzig","type":"Kreisangehörige_Gemeinde"},"district":{"key":"07231","name":"Bernkastel-Wittlich","type":"Landkreis"},"federalState":{"key":"07","name":"Rheinland-Pfalz"}},{"name":"Moselufer","postalCode":"54539","locality":"Ürzig","municipality":{"key":"07231125","name":"Ürzig","type":"Kreisangehörige_Gemeinde"},"district":{"key":"07231","name":"Bernkastel-Wittlich","type":"Landkreis"},"federalState":{"key":"07","name":"Rheinland-Pfalz"}},{"name":"Rathausplatz","postalCode":"54539","locality":"Ürzig","municipality":{"key":"07231125","name":"Ürzig","type":"Kreisangehörige_Gemeinde"},"district":{"key":"07231","name":"Bernkastel-Wittlich","type":"Landkreis"},"federalState":{"key":"07","name":"Rheinland-Pfalz"}},{"name":"Rederweg","postalCode":"54539","locality":"Ürzig","municipality":{"key":"07231125","name":"Ürzig","type":"Kreisangehörige_Gemeinde"},"district":{"key":"07231","name":"Bernkastel-Wittlich","type":"Landkreis"},"federalState":{"key":"07","name":"Rheinland-Pfalz"}},{"name":"Römerstr.","postalCode":"54539","locality":"Ürzig","municipality":{"key":"07231125","name":"Ürzig","type":"Kreisangehörige_Gemeinde"},"district":{"key":"07231","name":"Bernkastel-Wittlich","type":"Landkreis"},"federalState":{"key":"07","name":"Rheinland-Pfalz"}},{"name":"Schanzstr.","postalCode":"54539","locality":"Ürzig","municipality":{"key":"07231125","name":"Ürzig","type":"Kreisangehörige_Gemeinde"},"district":{"key":"07231","name":"Bernkastel-Wittlich","type":"Landkreis"},"federalState":{"key":"07","name":"Rheinland-Pfalz"}},{"name":"Scheuertrift","postalCode":"54539","locality":"Ürzig","municipality":{"key":"07231125","name":"Ürzig","type":"Kreisangehörige_Gemeinde"},"district":{"key":"07231","name":"Bernkastel-Wittlich","type":"Landkreis"},"federalState":{"key":"07","name":"Rheinland-Pfalz"}},{"name":"St. Maternusstr.","postalCode":"54539","locality":"Ürzig","municipality":{"key":"07231125","name":"Ürzig","type":"Kreisangehörige_Gemeinde"},"district":{"key":"07231","name":"Bernkastel-Wittlich","type":"Landkreis"},"federalState":{"key":"07","name":"Rheinland-Pfalz"}},{"name":"Wehrbüsch","postalCode":"54539","locality":"Ürzig","municipality":{"key":"07231125","name":"Ürzig","type":"Kreisangehörige_Gemeinde"},"district":{"key":"07231","name":"Bernkastel-Wittlich","type":"Landkreis"},"federalState":{"key":"07","name":"Rheinland-Pfalz"}},{"name":"Wittlicher Str.","postalCode":"54539","locality":"Ürzig","municipality":{"key":"07231125","name":"Ürzig","type":"Kreisangehörige_Gemeinde"},"district":{"key":"07231","name":"Bernkastel-Wittlich","type":"Landkreis"},"federalState":{"key":"07","name":"Rheinland-Pfalz"}},{"name":"Würzgartenstr.","postalCode":"54539","locality":"Ürzig","municipality":{"key":"07231125","name":"Ürzig","type":"Kreisangehörige_Gemeinde"},"district":{"key":"07231","name":"Bernkastel-Wittlich","type":"Landkreis"},"federalState":{"key":"07","name":"Rheinland-Pfalz"}},{"name":"Zehnthof","postalCode":"54539","locality":"Ürzig","municipality":{"key":"07231125","name":"Ürzig","type":"Kreisangehörige_Gemeinde"},"district":{"key":"07231","name":"Bernkastel-Wittlich","type":"Landkreis"},"federalState":{"key":"07","name":"Rheinland-Pfalz"}},{"name":"Zum Mont Royal","postalCode":"54539","locality":"Ürzig","municipality":{"key":"07231125","name":"Ürzig","type":"Kreisangehörige_Gemeinde"},"district":{"key":"07231","name":"Bernkastel-Wittlich","type":"Landkreis"},"federalState":{"key":"07","name":"Rheinland-Pfalz"}},{"name":"Zum Rastel","postalCode":"54539","locality":"Ürzig","municipality":{"key":"07231125","name":"Ürzig","type":"Kreisangehörige_Gemeinde"},"district":{"key":"07231","name":"Bernkastel-Wittlich","type":"Landkreis"},"federalState":{"key":"07","name":"Rheinland-Pfalz"}},]