[{"name":"Aesculap-Platz","postalCode":"78532","locality":"Tuttlingen","municipality":{"key":"08327050","name":"Tuttlingen, Stadt","type":"Große_Kreisstadt"},"district":{"key":"08327","name":"Tuttlingen","type":"Landkreis"},"federalState":{"key":"08","name":"Baden-Württemberg"}},{"name":"Ahornweg","postalCode":"78532","locality":"Tuttlingen","municipality":{"key":"08327050","name":"Tuttlingen, Stadt","type":"Große_Kreisstadt"},"district":{"key":"08327","name":"Tuttlingen","type":"Landkreis"},"federalState":{"key":"08","name":"Baden-Württemberg"}},{"name":"Aichhalder Hof","postalCode":"78532","locality":"Tuttlingen","municipality":{"key":"08327050","name":"Tuttlingen, Stadt","type":"Große_Kreisstadt"},"district":{"key":"08327","name":"Tuttlingen","type":"Landkreis"},"federalState":{"key":"08","name":"Baden-Württemberg"}},{"name":"Albert-Schweitzer-Str.","postalCode":"78532","locality":"Tuttlingen","municipality":{"key":"08327050","name":"Tuttlingen, Stadt","type":"Große_Kreisstadt"},"district":{"key":"08327","name":"Tuttlingen","type":"Landkreis"},"federalState":{"key":"08","name":"Baden-Württemberg"}},{"name":"Albrecht-Dürer-Str.","postalCode":"78532","locality":"Tuttlingen","municipality":{"key":"08327050","name":"Tuttlingen, Stadt","type":"Große_Kreisstadt"},"district":{"key":"08327","name":"Tuttlingen","type":"Landkreis"},"federalState":{"key":"08","name":"Baden-Württemberg"}},{"name":"Albstr.","postalCode":"78532","locality":"Tuttlingen","municipality":{"key":"08327050","name":"Tuttlingen, Stadt","type":"Große_Kreisstadt"},"district":{"key":"08327","name":"Tuttlingen","type":"Landkreis"},"federalState":{"key":"08","name":"Baden-Württemberg"}},{"name":"Alemannenstr.","postalCode":"78532","locality":"Tuttlingen","municipality":{"key":"08327050","name":"Tuttlingen, Stadt","type":"Große_Kreisstadt"},"district":{"key":"08327","name":"Tuttlingen","type":"Landkreis"},"federalState":{"key":"08","name":"Baden-Württemberg"}},{"name":"Alexanderstr.","postalCode":"78532","locality":"Tuttlingen","municipality":{"key":"08327050","name":"Tuttlingen, Stadt","type":"Große_Kreisstadt"},"district":{"key":"08327","name":"Tuttlingen","type":"Landkreis"},"federalState":{"key":"08","name":"Baden-Württemberg"}},{"name":"Alleenstr.","postalCode":"78532","locality":"Tuttlingen","municipality":{"key":"08327050","name":"Tuttlingen, Stadt","type":"Große_Kreisstadt"},"district":{"key":"08327","name":"Tuttlingen","type":"Landkreis"},"federalState":{"key":"08","name":"Baden-Württemberg"}},{"name":"Altenburgweg","postalCode":"78532","locality":"Tuttlingen","municipality":{"key":"08327050","name":"Tuttlingen, Stadt","type":"Große_Kreisstadt"},"district":{"key":"08327","name":"Tuttlingen","type":"Landkreis"},"federalState":{"key":"08","name":"Baden-Württemberg"}},{"name":"Altentalstr.","postalCode":"78532","locality":"Tuttlingen","municipality":{"key":"08327050","name":"Tuttlingen, Stadt","type":"Große_Kreisstadt"},"district":{"key":"08327","name":"Tuttlingen","type":"Landkreis"},"federalState":{"key":"08","name":"Baden-Württemberg"}},{"name":"Alter Bergweg","postalCode":"78532","locality":"Tuttlingen","municipality":{"key":"08327050","name":"Tuttlingen, Stadt","type":"Große_Kreisstadt"},"district":{"key":"08327","name":"Tuttlingen","type":"Landkreis"},"federalState":{"key":"08","name":"Baden-Württemberg"}},{"name":"Am Bach","postalCode":"78532","locality":"Tuttlingen","municipality":{"key":"08327050","name":"Tuttlingen, Stadt","type":"Große_Kreisstadt"},"district":{"key":"08327","name":"Tuttlingen","type":"Landkreis"},"federalState":{"key":"08","name":"Baden-Württemberg"}},{"name":"Am Bahnhof","postalCode":"78532","locality":"Tuttlingen","municipality":{"key":"08327050","name":"Tuttlingen, Stadt","type":"Große_Kreisstadt"},"district":{"key":"08327","name":"Tuttlingen","type":"Landkreis"},"federalState":{"key":"08","name":"Baden-Württemberg"}},{"name":"Am Bauenhag","postalCode":"78532","locality":"Tuttlingen","municipality":{"key":"08327050","name":"Tuttlingen, Stadt","type":"Große_Kreisstadt"},"district":{"key":"08327","name":"Tuttlingen","type":"Landkreis"},"federalState":{"key":"08","name":"Baden-Württemberg"}},{"name":"Ambrosius-Blarer-Str.","postalCode":"78532","locality":"Tuttlingen","municipality":{"key":"08327050","name":"Tuttlingen, Stadt","type":"Große_Kreisstadt"},"district":{"key":"08327","name":"Tuttlingen","type":"Landkreis"},"federalState":{"key":"08","name":"Baden-Württemberg"}},{"name":"Am Damm","postalCode":"78532","locality":"Tuttlingen","municipality":{"key":"08327050","name":"Tuttlingen, Stadt","type":"Große_Kreisstadt"},"district":{"key":"08327","name":"Tuttlingen","type":"Landkreis"},"federalState":{"key":"08","name":"Baden-Württemberg"}},{"name":"Am Eichbühl","postalCode":"78532","locality":"Tuttlingen","municipality":{"key":"08327050","name":"Tuttlingen, Stadt","type":"Große_Kreisstadt"},"district":{"key":"08327","name":"Tuttlingen","type":"Landkreis"},"federalState":{"key":"08","name":"Baden-Württemberg"}},{"name":"Am Haken","postalCode":"78532","locality":"Tuttlingen","municipality":{"key":"08327050","name":"Tuttlingen, Stadt","type":"Große_Kreisstadt"},"district":{"key":"08327","name":"Tuttlingen","type":"Landkreis"},"federalState":{"key":"08","name":"Baden-Württemberg"}},{"name":"Am Kirchenweg","postalCode":"78532","locality":"Tuttlingen","municipality":{"key":"08327050","name":"Tuttlingen, Stadt","type":"Große_Kreisstadt"},"district":{"key":"08327","name":"Tuttlingen","type":"Landkreis"},"federalState":{"key":"08","name":"Baden-Württemberg"}},{"name":"Am Krähenbach","postalCode":"78532","locality":"Tuttlingen","municipality":{"key":"08327050","name":"Tuttlingen, Stadt","type":"Große_Kreisstadt"},"district":{"key":"08327","name":"Tuttlingen","type":"Landkreis"},"federalState":{"key":"08","name":"Baden-Württemberg"}},{"name":"Am Möhringer Bahnhof","postalCode":"78532","locality":"Tuttlingen","municipality":{"key":"08327050","name":"Tuttlingen, Stadt","type":"Große_Kreisstadt"},"district":{"key":"08327","name":"Tuttlingen","type":"Landkreis"},"federalState":{"key":"08","name":"Baden-Württemberg"}},{"name":"Am Mühlberg","postalCode":"78532","locality":"Tuttlingen","municipality":{"key":"08327050","name":"Tuttlingen, Stadt","type":"Große_Kreisstadt"},"district":{"key":"08327","name":"Tuttlingen","type":"Landkreis"},"federalState":{"key":"08","name":"Baden-Württemberg"}},{"name":"Am Pfarrgarten","postalCode":"78532","locality":"Tuttlingen","municipality":{"key":"08327050","name":"Tuttlingen, Stadt","type":"Große_Kreisstadt"},"district":{"key":"08327","name":"Tuttlingen","type":"Landkreis"},"federalState":{"key":"08","name":"Baden-Württemberg"}},{"name":"Am Schafmarkt","postalCode":"78532","locality":"Tuttlingen","municipality":{"key":"08327050","name":"Tuttlingen, Stadt","type":"Große_Kreisstadt"},"district":{"key":"08327","name":"Tuttlingen","type":"Landkreis"},"federalState":{"key":"08","name":"Baden-Württemberg"}},{"name":"Am Schneckengarten","postalCode":"78532","locality":"Tuttlingen","municipality":{"key":"08327050","name":"Tuttlingen, Stadt","type":"Große_Kreisstadt"},"district":{"key":"08327","name":"Tuttlingen","type":"Landkreis"},"federalState":{"key":"08","name":"Baden-Württemberg"}},{"name":"Am Seltenbach","postalCode":"78532","locality":"Tuttlingen","municipality":{"key":"08327050","name":"Tuttlingen, Stadt","type":"Große_Kreisstadt"},"district":{"key":"08327","name":"Tuttlingen","type":"Landkreis"},"federalState":{"key":"08","name":"Baden-Württemberg"}},{"name":"Amselweg","postalCode":"78532","locality":"Tuttlingen","municipality":{"key":"08327050","name":"Tuttlingen, Stadt","type":"Große_Kreisstadt"},"district":{"key":"08327","name":"Tuttlingen","type":"Landkreis"},"federalState":{"key":"08","name":"Baden-Württemberg"}},{"name":"Am Sonnenbuckel","postalCode":"78532","locality":"Tuttlingen","municipality":{"key":"08327050","name":"Tuttlingen, Stadt","type":"Große_Kreisstadt"},"district":{"key":"08327","name":"Tuttlingen","type":"Landkreis"},"federalState":{"key":"08","name":"Baden-Württemberg"}},{"name":"Am Sträßle","postalCode":"78532","locality":"Tuttlingen","municipality":{"key":"08327050","name":"Tuttlingen, Stadt","type":"Große_Kreisstadt"},"district":{"key":"08327","name":"Tuttlingen","type":"Landkreis"},"federalState":{"key":"08","name":"Baden-Württemberg"}},{"name":"Am Winterberg","postalCode":"78532","locality":"Tuttlingen","municipality":{"key":"08327050","name":"Tuttlingen, Stadt","type":"Große_Kreisstadt"},"district":{"key":"08327","name":"Tuttlingen","type":"Landkreis"},"federalState":{"key":"08","name":"Baden-Württemberg"}},{"name":"An der Katzensteig","postalCode":"78532","locality":"Tuttlingen","municipality":{"key":"08327050","name":"Tuttlingen, Stadt","type":"Große_Kreisstadt"},"district":{"key":"08327","name":"Tuttlingen","type":"Landkreis"},"federalState":{"key":"08","name":"Baden-Württemberg"}},{"name":"Annaweg","postalCode":"78532","locality":"Tuttlingen","municipality":{"key":"08327050","name":"Tuttlingen, Stadt","type":"Große_Kreisstadt"},"district":{"key":"08327","name":"Tuttlingen","type":"Landkreis"},"federalState":{"key":"08","name":"Baden-Württemberg"}},{"name":"Anton-Braun-Str.","postalCode":"78532","locality":"Tuttlingen","municipality":{"key":"08327050","name":"Tuttlingen, Stadt","type":"Große_Kreisstadt"},"district":{"key":"08327","name":"Tuttlingen","type":"Landkreis"},"federalState":{"key":"08","name":"Baden-Württemberg"}},{"name":"Antoniusstr.","postalCode":"78532","locality":"Tuttlingen","municipality":{"key":"08327050","name":"Tuttlingen, Stadt","type":"Große_Kreisstadt"},"district":{"key":"08327","name":"Tuttlingen","type":"Landkreis"},"federalState":{"key":"08","name":"Baden-Württemberg"}},{"name":"Astrid-Lindgren-Str.","postalCode":"78532","locality":"Tuttlingen","municipality":{"key":"08327050","name":"Tuttlingen, Stadt","type":"Große_Kreisstadt"},"district":{"key":"08327","name":"Tuttlingen","type":"Landkreis"},"federalState":{"key":"08","name":"Baden-Württemberg"}},{"name":"Auf Berken","postalCode":"78532","locality":"Tuttlingen","municipality":{"key":"08327050","name":"Tuttlingen, Stadt","type":"Große_Kreisstadt"},"district":{"key":"08327","name":"Tuttlingen","type":"Landkreis"},"federalState":{"key":"08","name":"Baden-Württemberg"}},{"name":"Auf dem Schafrain","postalCode":"78532","locality":"Tuttlingen","municipality":{"key":"08327050","name":"Tuttlingen, Stadt","type":"Große_Kreisstadt"},"district":{"key":"08327","name":"Tuttlingen","type":"Landkreis"},"federalState":{"key":"08","name":"Baden-Württemberg"}},{"name":"Auf dem Schildrain","postalCode":"78532","locality":"Tuttlingen","municipality":{"key":"08327050","name":"Tuttlingen, Stadt","type":"Große_Kreisstadt"},"district":{"key":"08327","name":"Tuttlingen","type":"Landkreis"},"federalState":{"key":"08","name":"Baden-Württemberg"}},{"name":"Auf Lett","postalCode":"78532","locality":"Tuttlingen","municipality":{"key":"08327050","name":"Tuttlingen, Stadt","type":"Große_Kreisstadt"},"district":{"key":"08327","name":"Tuttlingen","type":"Landkreis"},"federalState":{"key":"08","name":"Baden-Württemberg"}},{"name":"August-Lämmle-Weg","postalCode":"78532","locality":"Tuttlingen","municipality":{"key":"08327050","name":"Tuttlingen, Stadt","type":"Große_Kreisstadt"},"district":{"key":"08327","name":"Tuttlingen","type":"Landkreis"},"federalState":{"key":"08","name":"Baden-Württemberg"}},{"name":"Austr.","postalCode":"78532","locality":"Tuttlingen","municipality":{"key":"08327050","name":"Tuttlingen, Stadt","type":"Große_Kreisstadt"},"district":{"key":"08327","name":"Tuttlingen","type":"Landkreis"},"federalState":{"key":"08","name":"Baden-Württemberg"}},{"name":"Baarstr.","postalCode":"78532","locality":"Tuttlingen","municipality":{"key":"08327050","name":"Tuttlingen, Stadt","type":"Große_Kreisstadt"},"district":{"key":"08327","name":"Tuttlingen","type":"Landkreis"},"federalState":{"key":"08","name":"Baden-Württemberg"}},{"name":"Badstr.","postalCode":"78532","locality":"Tuttlingen","municipality":{"key":"08327050","name":"Tuttlingen, Stadt","type":"Große_Kreisstadt"},"district":{"key":"08327","name":"Tuttlingen","type":"Landkreis"},"federalState":{"key":"08","name":"Baden-Württemberg"}},{"name":"Bahnhofstr.","postalCode":"78532","locality":"Tuttlingen","municipality":{"key":"08327050","name":"Tuttlingen, Stadt","type":"Große_Kreisstadt"},"district":{"key":"08327","name":"Tuttlingen","type":"Landkreis"},"federalState":{"key":"08","name":"Baden-Württemberg"}},{"name":"Balinger Str.","postalCode":"78532","locality":"Tuttlingen","municipality":{"key":"08327050","name":"Tuttlingen, Stadt","type":"Große_Kreisstadt"},"district":{"key":"08327","name":"Tuttlingen","type":"Landkreis"},"federalState":{"key":"08","name":"Baden-Württemberg"}},{"name":"Balinger Weg","postalCode":"78532","locality":"Tuttlingen","municipality":{"key":"08327050","name":"Tuttlingen, Stadt","type":"Große_Kreisstadt"},"district":{"key":"08327","name":"Tuttlingen","type":"Landkreis"},"federalState":{"key":"08","name":"Baden-Württemberg"}},{"name":"Barbarastr.","postalCode":"78532","locality":"Tuttlingen","municipality":{"key":"08327050","name":"Tuttlingen, Stadt","type":"Große_Kreisstadt"},"district":{"key":"08327","name":"Tuttlingen","type":"Landkreis"},"federalState":{"key":"08","name":"Baden-Württemberg"}},{"name":"Barfußpfad","postalCode":"78532","locality":"Tuttlingen","municipality":{"key":"08327050","name":"Tuttlingen, Stadt","type":"Große_Kreisstadt"},"district":{"key":"08327","name":"Tuttlingen","type":"Landkreis"},"federalState":{"key":"08","name":"Baden-Württemberg"}},{"name":"Battaglia Str.","postalCode":"78532","locality":"Tuttlingen","municipality":{"key":"08327050","name":"Tuttlingen, Stadt","type":"Große_Kreisstadt"},"district":{"key":"08327","name":"Tuttlingen","type":"Landkreis"},"federalState":{"key":"08","name":"Baden-Württemberg"}},{"name":"Beethovenstr.","postalCode":"78532","locality":"Tuttlingen","municipality":{"key":"08327050","name":"Tuttlingen, Stadt","type":"Große_Kreisstadt"},"district":{"key":"08327","name":"Tuttlingen","type":"Landkreis"},"federalState":{"key":"08","name":"Baden-Württemberg"}},{"name":"Behringweg","postalCode":"78532","locality":"Tuttlingen","municipality":{"key":"08327050","name":"Tuttlingen, Stadt","type":"Große_Kreisstadt"},"district":{"key":"08327","name":"Tuttlingen","type":"Landkreis"},"federalState":{"key":"08","name":"Baden-Württemberg"}},{"name":"Bei der Brühlmühle","postalCode":"78532","locality":"Tuttlingen","municipality":{"key":"08327050","name":"Tuttlingen, Stadt","type":"Große_Kreisstadt"},"district":{"key":"08327","name":"Tuttlingen","type":"Landkreis"},"federalState":{"key":"08","name":"Baden-Württemberg"}},{"name":"Bei der Kapelle","postalCode":"78532","locality":"Tuttlingen","municipality":{"key":"08327050","name":"Tuttlingen, Stadt","type":"Große_Kreisstadt"},"district":{"key":"08327","name":"Tuttlingen","type":"Landkreis"},"federalState":{"key":"08","name":"Baden-Württemberg"}},{"name":"Bei der Pürschmark","postalCode":"78532","locality":"Tuttlingen","municipality":{"key":"08327050","name":"Tuttlingen, Stadt","type":"Große_Kreisstadt"},"district":{"key":"08327","name":"Tuttlingen","type":"Landkreis"},"federalState":{"key":"08","name":"Baden-Württemberg"}},{"name":"Bei der Schmelze","postalCode":"78532","locality":"Tuttlingen","municipality":{"key":"08327050","name":"Tuttlingen, Stadt","type":"Große_Kreisstadt"},"district":{"key":"08327","name":"Tuttlingen","type":"Landkreis"},"federalState":{"key":"08","name":"Baden-Württemberg"}},{"name":"Beim Alten Friedhof","postalCode":"78532","locality":"Tuttlingen","municipality":{"key":"08327050","name":"Tuttlingen, Stadt","type":"Große_Kreisstadt"},"district":{"key":"08327","name":"Tuttlingen","type":"Landkreis"},"federalState":{"key":"08","name":"Baden-Württemberg"}},{"name":"Beim Fünftälerweg","postalCode":"78532","locality":"Tuttlingen","municipality":{"key":"08327050","name":"Tuttlingen, Stadt","type":"Große_Kreisstadt"},"district":{"key":"08327","name":"Tuttlingen","type":"Landkreis"},"federalState":{"key":"08","name":"Baden-Württemberg"}},{"name":"Beim Grenztäle","postalCode":"78532","locality":"Tuttlingen","municipality":{"key":"08327050","name":"Tuttlingen, Stadt","type":"Große_Kreisstadt"},"district":{"key":"08327","name":"Tuttlingen","type":"Landkreis"},"federalState":{"key":"08","name":"Baden-Württemberg"}},{"name":"Beim Heiligental","postalCode":"78532","locality":"Tuttlingen","municipality":{"key":"08327050","name":"Tuttlingen, Stadt","type":"Große_Kreisstadt"},"district":{"key":"08327","name":"Tuttlingen","type":"Landkreis"},"federalState":{"key":"08","name":"Baden-Württemberg"}},{"name":"Beim Hirschbrünnele","postalCode":"78532","locality":"Tuttlingen","municipality":{"key":"08327050","name":"Tuttlingen, Stadt","type":"Große_Kreisstadt"},"district":{"key":"08327","name":"Tuttlingen","type":"Landkreis"},"federalState":{"key":"08","name":"Baden-Württemberg"}},{"name":"Beim Leibertäle","postalCode":"78532","locality":"Tuttlingen","municipality":{"key":"08327050","name":"Tuttlingen, Stadt","type":"Große_Kreisstadt"},"district":{"key":"08327","name":"Tuttlingen","type":"Landkreis"},"federalState":{"key":"08","name":"Baden-Württemberg"}},{"name":"Beim Pfaffentäle","postalCode":"78532","locality":"Tuttlingen","municipality":{"key":"08327050","name":"Tuttlingen, Stadt","type":"Große_Kreisstadt"},"district":{"key":"08327","name":"Tuttlingen","type":"Landkreis"},"federalState":{"key":"08","name":"Baden-Württemberg"}},{"name":"Beim Rupfentäle","postalCode":"78532","locality":"Tuttlingen","municipality":{"key":"08327050","name":"Tuttlingen, Stadt","type":"Große_Kreisstadt"},"district":{"key":"08327","name":"Tuttlingen","type":"Landkreis"},"federalState":{"key":"08","name":"Baden-Württemberg"}},{"name":"Belchenstr.","postalCode":"78532","locality":"Tuttlingen","municipality":{"key":"08327050","name":"Tuttlingen, Stadt","type":"Große_Kreisstadt"},"district":{"key":"08327","name":"Tuttlingen","type":"Landkreis"},"federalState":{"key":"08","name":"Baden-Württemberg"}},{"name":"Berchenstr.","postalCode":"78532","locality":"Tuttlingen","municipality":{"key":"08327050","name":"Tuttlingen, Stadt","type":"Große_Kreisstadt"},"district":{"key":"08327","name":"Tuttlingen","type":"Landkreis"},"federalState":{"key":"08","name":"Baden-Württemberg"}},{"name":"Bergenweg","postalCode":"78532","locality":"Tuttlingen","municipality":{"key":"08327050","name":"Tuttlingen, Stadt","type":"Große_Kreisstadt"},"district":{"key":"08327","name":"Tuttlingen","type":"Landkreis"},"federalState":{"key":"08","name":"Baden-Württemberg"}},{"name":"Berghaldenweg","postalCode":"78532","locality":"Tuttlingen","municipality":{"key":"08327050","name":"Tuttlingen, Stadt","type":"Große_Kreisstadt"},"district":{"key":"08327","name":"Tuttlingen","type":"Landkreis"},"federalState":{"key":"08","name":"Baden-Württemberg"}},{"name":"Bergstr.","postalCode":"78532","locality":"Tuttlingen","municipality":{"key":"08327050","name":"Tuttlingen, Stadt","type":"Große_Kreisstadt"},"district":{"key":"08327","name":"Tuttlingen","type":"Landkreis"},"federalState":{"key":"08","name":"Baden-Württemberg"}},{"name":"Berliner Ring","postalCode":"78532","locality":"Tuttlingen","municipality":{"key":"08327050","name":"Tuttlingen, Stadt","type":"Große_Kreisstadt"},"district":{"key":"08327","name":"Tuttlingen","type":"Landkreis"},"federalState":{"key":"08","name":"Baden-Württemberg"}},{"name":"Bertholdstr.","postalCode":"78532","locality":"Tuttlingen","municipality":{"key":"08327050","name":"Tuttlingen, Stadt","type":"Große_Kreisstadt"},"district":{"key":"08327","name":"Tuttlingen","type":"Landkreis"},"federalState":{"key":"08","name":"Baden-Württemberg"}},{"name":"Biesendorfer Weg","postalCode":"78532","locality":"Tuttlingen","municipality":{"key":"08327050","name":"Tuttlingen, Stadt","type":"Große_Kreisstadt"},"district":{"key":"08327","name":"Tuttlingen","type":"Landkreis"},"federalState":{"key":"08","name":"Baden-Württemberg"}},{"name":"Birkenstr.","postalCode":"78532","locality":"Tuttlingen","municipality":{"key":"08327050","name":"Tuttlingen, Stadt","type":"Große_Kreisstadt"},"district":{"key":"08327","name":"Tuttlingen","type":"Landkreis"},"federalState":{"key":"08","name":"Baden-Württemberg"}},{"name":"Bischof-Sproll-Str.","postalCode":"78532","locality":"Tuttlingen","municipality":{"key":"08327050","name":"Tuttlingen, Stadt","type":"Große_Kreisstadt"},"district":{"key":"08327","name":"Tuttlingen","type":"Landkreis"},"federalState":{"key":"08","name":"Baden-Württemberg"}},{"name":"Bischofszeller Str.","postalCode":"78532","locality":"Tuttlingen","municipality":{"key":"08327050","name":"Tuttlingen, Stadt","type":"Große_Kreisstadt"},"district":{"key":"08327","name":"Tuttlingen","type":"Landkreis"},"federalState":{"key":"08","name":"Baden-Württemberg"}},{"name":"Bismarckstr.","postalCode":"78532","locality":"Tuttlingen","municipality":{"key":"08327050","name":"Tuttlingen, Stadt","type":"Große_Kreisstadt"},"district":{"key":"08327","name":"Tuttlingen","type":"Landkreis"},"federalState":{"key":"08","name":"Baden-Württemberg"}},{"name":"Bleichestr.","postalCode":"78532","locality":"Tuttlingen","municipality":{"key":"08327050","name":"Tuttlingen, Stadt","type":"Große_Kreisstadt"},"district":{"key":"08327","name":"Tuttlingen","type":"Landkreis"},"federalState":{"key":"08","name":"Baden-Württemberg"}},{"name":"Blumenstr.","postalCode":"78532","locality":"Tuttlingen","municipality":{"key":"08327050","name":"Tuttlingen, Stadt","type":"Große_Kreisstadt"},"district":{"key":"08327","name":"Tuttlingen","type":"Landkreis"},"federalState":{"key":"08","name":"Baden-Württemberg"}},{"name":"Bodelschwinghweg","postalCode":"78532","locality":"Tuttlingen","municipality":{"key":"08327050","name":"Tuttlingen, Stadt","type":"Große_Kreisstadt"},"district":{"key":"08327","name":"Tuttlingen","type":"Landkreis"},"federalState":{"key":"08","name":"Baden-Württemberg"}},{"name":"Bodenseestr.","postalCode":"78532","locality":"Tuttlingen","municipality":{"key":"08327050","name":"Tuttlingen, Stadt","type":"Große_Kreisstadt"},"district":{"key":"08327","name":"Tuttlingen","type":"Landkreis"},"federalState":{"key":"08","name":"Baden-Württemberg"}},{"name":"Bogenstr.","postalCode":"78532","locality":"Tuttlingen","municipality":{"key":"08327050","name":"Tuttlingen, Stadt","type":"Große_Kreisstadt"},"district":{"key":"08327","name":"Tuttlingen","type":"Landkreis"},"federalState":{"key":"08","name":"Baden-Württemberg"}},{"name":"Braugasse","postalCode":"78532","locality":"Tuttlingen","municipality":{"key":"08327050","name":"Tuttlingen, Stadt","type":"Große_Kreisstadt"},"district":{"key":"08327","name":"Tuttlingen","type":"Landkreis"},"federalState":{"key":"08","name":"Baden-Württemberg"}},{"name":"Bräunisbergstr.","postalCode":"78532","locality":"Tuttlingen","municipality":{"key":"08327050","name":"Tuttlingen, Stadt","type":"Große_Kreisstadt"},"district":{"key":"08327","name":"Tuttlingen","type":"Landkreis"},"federalState":{"key":"08","name":"Baden-Württemberg"}},{"name":"Brendenweg","postalCode":"78532","locality":"Tuttlingen","municipality":{"key":"08327050","name":"Tuttlingen, Stadt","type":"Große_Kreisstadt"},"district":{"key":"08327","name":"Tuttlingen","type":"Landkreis"},"federalState":{"key":"08","name":"Baden-Württemberg"}},{"name":"Brennteneichenweg","postalCode":"78532","locality":"Tuttlingen","municipality":{"key":"08327050","name":"Tuttlingen, Stadt","type":"Große_Kreisstadt"},"district":{"key":"08327","name":"Tuttlingen","type":"Landkreis"},"federalState":{"key":"08","name":"Baden-Württemberg"}},{"name":"Brenntenstr.","postalCode":"78532","locality":"Tuttlingen","municipality":{"key":"08327050","name":"Tuttlingen, Stadt","type":"Große_Kreisstadt"},"district":{"key":"08327","name":"Tuttlingen","type":"Landkreis"},"federalState":{"key":"08","name":"Baden-Württemberg"}},{"name":"Brenntenweg","postalCode":"78532","locality":"Tuttlingen","municipality":{"key":"08327050","name":"Tuttlingen, Stadt","type":"Große_Kreisstadt"},"district":{"key":"08327","name":"Tuttlingen","type":"Landkreis"},"federalState":{"key":"08","name":"Baden-Württemberg"}},{"name":"Breschnegg","postalCode":"78532","locality":"Tuttlingen","municipality":{"key":"08327050","name":"Tuttlingen, Stadt","type":"Große_Kreisstadt"},"district":{"key":"08327","name":"Tuttlingen","type":"Landkreis"},"federalState":{"key":"08","name":"Baden-Württemberg"}},{"name":"Breslauer Str.","postalCode":"78532","locality":"Tuttlingen","municipality":{"key":"08327050","name":"Tuttlingen, Stadt","type":"Große_Kreisstadt"},"district":{"key":"08327","name":"Tuttlingen","type":"Landkreis"},"federalState":{"key":"08","name":"Baden-Württemberg"}},{"name":"Brückenstr.","postalCode":"78532","locality":"Tuttlingen","municipality":{"key":"08327050","name":"Tuttlingen, Stadt","type":"Große_Kreisstadt"},"district":{"key":"08327","name":"Tuttlingen","type":"Landkreis"},"federalState":{"key":"08","name":"Baden-Württemberg"}},{"name":"Brucknerweg","postalCode":"78532","locality":"Tuttlingen","municipality":{"key":"08327050","name":"Tuttlingen, Stadt","type":"Große_Kreisstadt"},"district":{"key":"08327","name":"Tuttlingen","type":"Landkreis"},"federalState":{"key":"08","name":"Baden-Württemberg"}},{"name":"Bruderhofstr.","postalCode":"78532","locality":"Tuttlingen","municipality":{"key":"08327050","name":"Tuttlingen, Stadt","type":"Große_Kreisstadt"},"district":{"key":"08327","name":"Tuttlingen","type":"Landkreis"},"federalState":{"key":"08","name":"Baden-Württemberg"}},{"name":"Carl-Benz-Str.","postalCode":"78532","locality":"Tuttlingen","municipality":{"key":"08327050","name":"Tuttlingen, Stadt","type":"Große_Kreisstadt"},"district":{"key":"08327","name":"Tuttlingen","type":"Landkreis"},"federalState":{"key":"08","name":"Baden-Württemberg"}},{"name":"Carl-Zeiss-Str.","postalCode":"78532","locality":"Tuttlingen","municipality":{"key":"08327050","name":"Tuttlingen, Stadt","type":"Große_Kreisstadt"},"district":{"key":"08327","name":"Tuttlingen","type":"Landkreis"},"federalState":{"key":"08","name":"Baden-Württemberg"}},{"name":"Charlottenstr.","postalCode":"78532","locality":"Tuttlingen","municipality":{"key":"08327050","name":"Tuttlingen, Stadt","type":"Große_Kreisstadt"},"district":{"key":"08327","name":"Tuttlingen","type":"Landkreis"},"federalState":{"key":"08","name":"Baden-Württemberg"}},{"name":"Christian-Scheerer-Str.","postalCode":"78532","locality":"Tuttlingen","municipality":{"key":"08327050","name":"Tuttlingen, Stadt","type":"Große_Kreisstadt"},"district":{"key":"08327","name":"Tuttlingen","type":"Landkreis"},"federalState":{"key":"08","name":"Baden-Württemberg"}},{"name":"Christophstr.","postalCode":"78532","locality":"Tuttlingen","municipality":{"key":"08327050","name":"Tuttlingen, Stadt","type":"Große_Kreisstadt"},"district":{"key":"08327","name":"Tuttlingen","type":"Landkreis"},"federalState":{"key":"08","name":"Baden-Württemberg"}},{"name":"Dachsweg","postalCode":"78532","locality":"Tuttlingen","municipality":{"key":"08327050","name":"Tuttlingen, Stadt","type":"Große_Kreisstadt"},"district":{"key":"08327","name":"Tuttlingen","type":"Landkreis"},"federalState":{"key":"08","name":"Baden-Württemberg"}},{"name":"Daimlerstr.","postalCode":"78532","locality":"Tuttlingen","municipality":{"key":"08327050","name":"Tuttlingen, Stadt","type":"Große_Kreisstadt"},"district":{"key":"08327","name":"Tuttlingen","type":"Landkreis"},"federalState":{"key":"08","name":"Baden-Württemberg"}},{"name":"Dammstr.","postalCode":"78532","locality":"Tuttlingen","municipality":{"key":"08327050","name":"Tuttlingen, Stadt","type":"Große_Kreisstadt"},"district":{"key":"08327","name":"Tuttlingen","type":"Landkreis"},"federalState":{"key":"08","name":"Baden-Württemberg"}},{"name":"Danziger Str.","postalCode":"78532","locality":"Tuttlingen","municipality":{"key":"08327050","name":"Tuttlingen, Stadt","type":"Große_Kreisstadt"},"district":{"key":"08327","name":"Tuttlingen","type":"Landkreis"},"federalState":{"key":"08","name":"Baden-Württemberg"}},{"name":"D'Groß Bruck","postalCode":"78532","locality":"Tuttlingen","municipality":{"key":"08327050","name":"Tuttlingen, Stadt","type":"Große_Kreisstadt"},"district":{"key":"08327","name":"Tuttlingen","type":"Landkreis"},"federalState":{"key":"08","name":"Baden-Württemberg"}},{"name":"Dietrich-Bonhoeffer-Str.","postalCode":"78532","locality":"Tuttlingen","municipality":{"key":"08327050","name":"Tuttlingen, Stadt","type":"Große_Kreisstadt"},"district":{"key":"08327","name":"Tuttlingen","type":"Landkreis"},"federalState":{"key":"08","name":"Baden-Württemberg"}},{"name":"Dietweg","postalCode":"78532","locality":"Tuttlingen","municipality":{"key":"08327050","name":"Tuttlingen, Stadt","type":"Große_Kreisstadt"},"district":{"key":"08327","name":"Tuttlingen","type":"Landkreis"},"federalState":{"key":"08","name":"Baden-Württemberg"}},{"name":"Donaubrücke","postalCode":"78532","locality":"Tuttlingen","municipality":{"key":"08327050","name":"Tuttlingen, Stadt","type":"Große_Kreisstadt"},"district":{"key":"08327","name":"Tuttlingen","type":"Landkreis"},"federalState":{"key":"08","name":"Baden-Württemberg"}},{"name":"Donaueschinger Str.","postalCode":"78532","locality":"Tuttlingen","municipality":{"key":"08327050","name":"Tuttlingen, Stadt","type":"Große_Kreisstadt"},"district":{"key":"08327","name":"Tuttlingen","type":"Landkreis"},"federalState":{"key":"08","name":"Baden-Württemberg"}},{"name":"Donaukiesweg","postalCode":"78532","locality":"Tuttlingen","municipality":{"key":"08327050","name":"Tuttlingen, Stadt","type":"Große_Kreisstadt"},"district":{"key":"08327","name":"Tuttlingen","type":"Landkreis"},"federalState":{"key":"08","name":"Baden-Württemberg"}},{"name":"Donaustr.","postalCode":"78532","locality":"Tuttlingen","municipality":{"key":"08327050","name":"Tuttlingen, Stadt","type":"Große_Kreisstadt"},"district":{"key":"08327","name":"Tuttlingen","type":"Landkreis"},"federalState":{"key":"08","name":"Baden-Württemberg"}},{"name":"Donautalstr.","postalCode":"78532","locality":"Tuttlingen","municipality":{"key":"08327050","name":"Tuttlingen, Stadt","type":"Große_Kreisstadt"},"district":{"key":"08327","name":"Tuttlingen","type":"Landkreis"},"federalState":{"key":"08","name":"Baden-Württemberg"}},{"name":"Dorchentöbeleweg","postalCode":"78532","locality":"Tuttlingen","municipality":{"key":"08327050","name":"Tuttlingen, Stadt","type":"Große_Kreisstadt"},"district":{"key":"08327","name":"Tuttlingen","type":"Landkreis"},"federalState":{"key":"08","name":"Baden-Württemberg"}},{"name":"Dornerweg","postalCode":"78532","locality":"Tuttlingen","municipality":{"key":"08327050","name":"Tuttlingen, Stadt","type":"Große_Kreisstadt"},"district":{"key":"08327","name":"Tuttlingen","type":"Landkreis"},"federalState":{"key":"08","name":"Baden-Württemberg"}},{"name":"Dornierstr.","postalCode":"78532","locality":"Tuttlingen","municipality":{"key":"08327050","name":"Tuttlingen, Stadt","type":"Große_Kreisstadt"},"district":{"key":"08327","name":"Tuttlingen","type":"Landkreis"},"federalState":{"key":"08","name":"Baden-Württemberg"}},{"name":"Dornröschenweg","postalCode":"78532","locality":"Tuttlingen","municipality":{"key":"08327050","name":"Tuttlingen, Stadt","type":"Große_Kreisstadt"},"district":{"key":"08327","name":"Tuttlingen","type":"Landkreis"},"federalState":{"key":"08","name":"Baden-Württemberg"}},{"name":"Dresdner Str.","postalCode":"78532","locality":"Tuttlingen","municipality":{"key":"08327050","name":"Tuttlingen, Stadt","type":"Große_Kreisstadt"},"district":{"key":"08327","name":"Tuttlingen","type":"Landkreis"},"federalState":{"key":"08","name":"Baden-Württemberg"}},{"name":"Dr. Karl-Storz-Platz","postalCode":"78532","locality":"Tuttlingen","municipality":{"key":"08327050","name":"Tuttlingen, Stadt","type":"Große_Kreisstadt"},"district":{"key":"08327","name":"Tuttlingen","type":"Landkreis"},"federalState":{"key":"08","name":"Baden-Württemberg"}},{"name":"Dr. Karl-Storz-Str.","postalCode":"78532","locality":"Tuttlingen","municipality":{"key":"08327050","name":"Tuttlingen, Stadt","type":"Große_Kreisstadt"},"district":{"key":"08327","name":"Tuttlingen","type":"Landkreis"},"federalState":{"key":"08","name":"Baden-Württemberg"}},{"name":"Duttentalstr.","postalCode":"78532","locality":"Tuttlingen","municipality":{"key":"08327050","name":"Tuttlingen, Stadt","type":"Große_Kreisstadt"},"district":{"key":"08327","name":"Tuttlingen","type":"Landkreis"},"federalState":{"key":"08","name":"Baden-Württemberg"}},{"name":"Duttentalweg","postalCode":"78532","locality":"Tuttlingen","municipality":{"key":"08327050","name":"Tuttlingen, Stadt","type":"Große_Kreisstadt"},"district":{"key":"08327","name":"Tuttlingen","type":"Landkreis"},"federalState":{"key":"08","name":"Baden-Württemberg"}},{"name":"Eberhardstr.","postalCode":"78532","locality":"Tuttlingen","municipality":{"key":"08327050","name":"Tuttlingen, Stadt","type":"Große_Kreisstadt"},"district":{"key":"08327","name":"Tuttlingen","type":"Landkreis"},"federalState":{"key":"08","name":"Baden-Württemberg"}},{"name":"Eckenerstr.","postalCode":"78532","locality":"Tuttlingen","municipality":{"key":"08327050","name":"Tuttlingen, Stadt","type":"Große_Kreisstadt"},"district":{"key":"08327","name":"Tuttlingen","type":"Landkreis"},"federalState":{"key":"08","name":"Baden-Württemberg"}},{"name":"Egartenäcker","postalCode":"78532","locality":"Tuttlingen","municipality":{"key":"08327050","name":"Tuttlingen, Stadt","type":"Große_Kreisstadt"},"district":{"key":"08327","name":"Tuttlingen","type":"Landkreis"},"federalState":{"key":"08","name":"Baden-Württemberg"}},{"name":"Egerstr.","postalCode":"78532","locality":"Tuttlingen","municipality":{"key":"08327050","name":"Tuttlingen, Stadt","type":"Große_Kreisstadt"},"district":{"key":"08327","name":"Tuttlingen","type":"Landkreis"},"federalState":{"key":"08","name":"Baden-Württemberg"}},{"name":"Ehrenbergstr.","postalCode":"78532","locality":"Tuttlingen","municipality":{"key":"08327050","name":"Tuttlingen, Stadt","type":"Große_Kreisstadt"},"district":{"key":"08327","name":"Tuttlingen","type":"Landkreis"},"federalState":{"key":"08","name":"Baden-Württemberg"}},{"name":"Eichenstr.","postalCode":"78532","locality":"Tuttlingen","municipality":{"key":"08327050","name":"Tuttlingen, Stadt","type":"Große_Kreisstadt"},"district":{"key":"08327","name":"Tuttlingen","type":"Landkreis"},"federalState":{"key":"08","name":"Baden-Württemberg"}},{"name":"Eichhörnchenweg","postalCode":"78532","locality":"Tuttlingen","municipality":{"key":"08327050","name":"Tuttlingen, Stadt","type":"Große_Kreisstadt"},"district":{"key":"08327","name":"Tuttlingen","type":"Landkreis"},"federalState":{"key":"08","name":"Baden-Württemberg"}},{"name":"Eisenbahnstr.","postalCode":"78532","locality":"Tuttlingen","municipality":{"key":"08327050","name":"Tuttlingen, Stadt","type":"Große_Kreisstadt"},"district":{"key":"08327","name":"Tuttlingen","type":"Landkreis"},"federalState":{"key":"08","name":"Baden-Württemberg"}},{"name":"Elsa-Brandström-Weg","postalCode":"78532","locality":"Tuttlingen","municipality":{"key":"08327050","name":"Tuttlingen, Stadt","type":"Große_Kreisstadt"},"district":{"key":"08327","name":"Tuttlingen","type":"Landkreis"},"federalState":{"key":"08","name":"Baden-Württemberg"}},{"name":"Eltastr.","postalCode":"78532","locality":"Tuttlingen","municipality":{"key":"08327050","name":"Tuttlingen, Stadt","type":"Große_Kreisstadt"},"district":{"key":"08327","name":"Tuttlingen","type":"Landkreis"},"federalState":{"key":"08","name":"Baden-Württemberg"}},{"name":"Eltaweg","postalCode":"78532","locality":"Tuttlingen","municipality":{"key":"08327050","name":"Tuttlingen, Stadt","type":"Große_Kreisstadt"},"district":{"key":"08327","name":"Tuttlingen","type":"Landkreis"},"federalState":{"key":"08","name":"Baden-Württemberg"}},{"name":"Emminger Str.","postalCode":"78532","locality":"Tuttlingen","municipality":{"key":"08327050","name":"Tuttlingen, Stadt","type":"Große_Kreisstadt"},"district":{"key":"08327","name":"Tuttlingen","type":"Landkreis"},"federalState":{"key":"08","name":"Baden-Württemberg"}},{"name":"Energiestr.","postalCode":"78532","locality":"Tuttlingen","municipality":{"key":"08327050","name":"Tuttlingen, Stadt","type":"Große_Kreisstadt"},"district":{"key":"08327","name":"Tuttlingen","type":"Landkreis"},"federalState":{"key":"08","name":"Baden-Württemberg"}},{"name":"Engener Str.","postalCode":"78532","locality":"Tuttlingen","municipality":{"key":"08327050","name":"Tuttlingen, Stadt","type":"Große_Kreisstadt"},"district":{"key":"08327","name":"Tuttlingen","type":"Landkreis"},"federalState":{"key":"08","name":"Baden-Württemberg"}},{"name":"Ententäleweg","postalCode":"78532","locality":"Tuttlingen","municipality":{"key":"08327050","name":"Tuttlingen, Stadt","type":"Große_Kreisstadt"},"district":{"key":"08327","name":"Tuttlingen","type":"Landkreis"},"federalState":{"key":"08","name":"Baden-Württemberg"}},{"name":"Erbschlichtweg","postalCode":"78532","locality":"Tuttlingen","municipality":{"key":"08327050","name":"Tuttlingen, Stadt","type":"Große_Kreisstadt"},"district":{"key":"08327","name":"Tuttlingen","type":"Landkreis"},"federalState":{"key":"08","name":"Baden-Württemberg"}},{"name":"Erich-Heckel-Weg","postalCode":"78532","locality":"Tuttlingen","municipality":{"key":"08327050","name":"Tuttlingen, Stadt","type":"Große_Kreisstadt"},"district":{"key":"08327","name":"Tuttlingen","type":"Landkreis"},"federalState":{"key":"08","name":"Baden-Württemberg"}},{"name":"Erlenweg","postalCode":"78532","locality":"Tuttlingen","municipality":{"key":"08327050","name":"Tuttlingen, Stadt","type":"Große_Kreisstadt"},"district":{"key":"08327","name":"Tuttlingen","type":"Landkreis"},"federalState":{"key":"08","name":"Baden-Württemberg"}},{"name":"Eßlinger Str.","postalCode":"78532","locality":"Tuttlingen","municipality":{"key":"08327050","name":"Tuttlingen, Stadt","type":"Große_Kreisstadt"},"district":{"key":"08327","name":"Tuttlingen","type":"Landkreis"},"federalState":{"key":"08","name":"Baden-Württemberg"}},{"name":"Ettlensegart","postalCode":"78532","locality":"Tuttlingen","municipality":{"key":"08327050","name":"Tuttlingen, Stadt","type":"Große_Kreisstadt"},"district":{"key":"08327","name":"Tuttlingen","type":"Landkreis"},"federalState":{"key":"08","name":"Baden-Württemberg"}},{"name":"Eugen-Grieshaber-Ring","postalCode":"78532","locality":"Tuttlingen","municipality":{"key":"08327050","name":"Tuttlingen, Stadt","type":"Große_Kreisstadt"},"district":{"key":"08327","name":"Tuttlingen","type":"Landkreis"},"federalState":{"key":"08","name":"Baden-Württemberg"}},{"name":"Eugenstr.","postalCode":"78532","locality":"Tuttlingen","municipality":{"key":"08327050","name":"Tuttlingen, Stadt","type":"Große_Kreisstadt"},"district":{"key":"08327","name":"Tuttlingen","type":"Landkreis"},"federalState":{"key":"08","name":"Baden-Württemberg"}},{"name":"Falkenstr.","postalCode":"78532","locality":"Tuttlingen","municipality":{"key":"08327050","name":"Tuttlingen, Stadt","type":"Große_Kreisstadt"},"district":{"key":"08327","name":"Tuttlingen","type":"Landkreis"},"federalState":{"key":"08","name":"Baden-Württemberg"}},{"name":"Faulenbachstr.","postalCode":"78532","locality":"Tuttlingen","municipality":{"key":"08327050","name":"Tuttlingen, Stadt","type":"Große_Kreisstadt"},"district":{"key":"08327","name":"Tuttlingen","type":"Landkreis"},"federalState":{"key":"08","name":"Baden-Württemberg"}},{"name":"Feldbergstr.","postalCode":"78532","locality":"Tuttlingen","municipality":{"key":"08327050","name":"Tuttlingen, Stadt","type":"Große_Kreisstadt"},"district":{"key":"08327","name":"Tuttlingen","type":"Landkreis"},"federalState":{"key":"08","name":"Baden-Württemberg"}},{"name":"Feuerbachweg","postalCode":"78532","locality":"Tuttlingen","municipality":{"key":"08327050","name":"Tuttlingen, Stadt","type":"Große_Kreisstadt"},"district":{"key":"08327","name":"Tuttlingen","type":"Landkreis"},"federalState":{"key":"08","name":"Baden-Württemberg"}},{"name":"Fichtenweg","postalCode":"78532","locality":"Tuttlingen","municipality":{"key":"08327050","name":"Tuttlingen, Stadt","type":"Große_Kreisstadt"},"district":{"key":"08327","name":"Tuttlingen","type":"Landkreis"},"federalState":{"key":"08","name":"Baden-Württemberg"}},{"name":"Finkenstr.","postalCode":"78532","locality":"Tuttlingen","municipality":{"key":"08327050","name":"Tuttlingen, Stadt","type":"Große_Kreisstadt"},"district":{"key":"08327","name":"Tuttlingen","type":"Landkreis"},"federalState":{"key":"08","name":"Baden-Württemberg"}},{"name":"Flachsweg","postalCode":"78532","locality":"Tuttlingen","municipality":{"key":"08327050","name":"Tuttlingen, Stadt","type":"Große_Kreisstadt"},"district":{"key":"08327","name":"Tuttlingen","type":"Landkreis"},"federalState":{"key":"08","name":"Baden-Württemberg"}},{"name":"Fliederweg","postalCode":"78532","locality":"Tuttlingen","municipality":{"key":"08327050","name":"Tuttlingen, Stadt","type":"Große_Kreisstadt"},"district":{"key":"08327","name":"Tuttlingen","type":"Landkreis"},"federalState":{"key":"08","name":"Baden-Württemberg"}},{"name":"Flurstr.","postalCode":"78532","locality":"Tuttlingen","municipality":{"key":"08327050","name":"Tuttlingen, Stadt","type":"Große_Kreisstadt"},"district":{"key":"08327","name":"Tuttlingen","type":"Landkreis"},"federalState":{"key":"08","name":"Baden-Württemberg"}},{"name":"Föhrenstr.","postalCode":"78532","locality":"Tuttlingen","municipality":{"key":"08327050","name":"Tuttlingen, Stadt","type":"Große_Kreisstadt"},"district":{"key":"08327","name":"Tuttlingen","type":"Landkreis"},"federalState":{"key":"08","name":"Baden-Württemberg"}},{"name":"Forststr.","postalCode":"78532","locality":"Tuttlingen","municipality":{"key":"08327050","name":"Tuttlingen, Stadt","type":"Große_Kreisstadt"},"district":{"key":"08327","name":"Tuttlingen","type":"Landkreis"},"federalState":{"key":"08","name":"Baden-Württemberg"}},{"name":"Freiburgstr.","postalCode":"78532","locality":"Tuttlingen","municipality":{"key":"08327050","name":"Tuttlingen, Stadt","type":"Große_Kreisstadt"},"district":{"key":"08327","name":"Tuttlingen","type":"Landkreis"},"federalState":{"key":"08","name":"Baden-Württemberg"}},{"name":"Friedrichstr.","postalCode":"78532","locality":"Tuttlingen","municipality":{"key":"08327050","name":"Tuttlingen, Stadt","type":"Große_Kreisstadt"},"district":{"key":"08327","name":"Tuttlingen","type":"Landkreis"},"federalState":{"key":"08","name":"Baden-Württemberg"}},{"name":"Fronhofstr.","postalCode":"78532","locality":"Tuttlingen","municipality":{"key":"08327050","name":"Tuttlingen, Stadt","type":"Große_Kreisstadt"},"district":{"key":"08327","name":"Tuttlingen","type":"Landkreis"},"federalState":{"key":"08","name":"Baden-Württemberg"}},{"name":"Froschkönigweg","postalCode":"78532","locality":"Tuttlingen","municipality":{"key":"08327050","name":"Tuttlingen, Stadt","type":"Große_Kreisstadt"},"district":{"key":"08327","name":"Tuttlingen","type":"Landkreis"},"federalState":{"key":"08","name":"Baden-Württemberg"}},{"name":"Fuchslochstr.","postalCode":"78532","locality":"Tuttlingen","municipality":{"key":"08327050","name":"Tuttlingen, Stadt","type":"Große_Kreisstadt"},"district":{"key":"08327","name":"Tuttlingen","type":"Landkreis"},"federalState":{"key":"08","name":"Baden-Württemberg"}},{"name":"Fuchsweg","postalCode":"78532","locality":"Tuttlingen","municipality":{"key":"08327050","name":"Tuttlingen, Stadt","type":"Große_Kreisstadt"},"district":{"key":"08327","name":"Tuttlingen","type":"Landkreis"},"federalState":{"key":"08","name":"Baden-Württemberg"}},{"name":"Fünftälerweg","postalCode":"78532","locality":"Tuttlingen","municipality":{"key":"08327050","name":"Tuttlingen, Stadt","type":"Große_Kreisstadt"},"district":{"key":"08327","name":"Tuttlingen","type":"Landkreis"},"federalState":{"key":"08","name":"Baden-Württemberg"}},{"name":"Fürstensteinweg","postalCode":"78532","locality":"Tuttlingen","municipality":{"key":"08327050","name":"Tuttlingen, Stadt","type":"Große_Kreisstadt"},"district":{"key":"08327","name":"Tuttlingen","type":"Landkreis"},"federalState":{"key":"08","name":"Baden-Württemberg"}},{"name":"Gabriele-Münter-Weg","postalCode":"78532","locality":"Tuttlingen","municipality":{"key":"08327050","name":"Tuttlingen, Stadt","type":"Große_Kreisstadt"},"district":{"key":"08327","name":"Tuttlingen","type":"Landkreis"},"federalState":{"key":"08","name":"Baden-Württemberg"}},{"name":"Gachenwinkelweg","postalCode":"78532","locality":"Tuttlingen","municipality":{"key":"08327050","name":"Tuttlingen, Stadt","type":"Große_Kreisstadt"},"district":{"key":"08327","name":"Tuttlingen","type":"Landkreis"},"federalState":{"key":"08","name":"Baden-Württemberg"}},{"name":"Galgenweg","postalCode":"78532","locality":"Tuttlingen","municipality":{"key":"08327050","name":"Tuttlingen, Stadt","type":"Große_Kreisstadt"},"district":{"key":"08327","name":"Tuttlingen","type":"Landkreis"},"federalState":{"key":"08","name":"Baden-Württemberg"}},{"name":"Gallertalweg","postalCode":"78532","locality":"Tuttlingen","municipality":{"key":"08327050","name":"Tuttlingen, Stadt","type":"Große_Kreisstadt"},"district":{"key":"08327","name":"Tuttlingen","type":"Landkreis"},"federalState":{"key":"08","name":"Baden-Württemberg"}},{"name":"Gallus-Has-Weg","postalCode":"78532","locality":"Tuttlingen","municipality":{"key":"08327050","name":"Tuttlingen, Stadt","type":"Große_Kreisstadt"},"district":{"key":"08327","name":"Tuttlingen","type":"Landkreis"},"federalState":{"key":"08","name":"Baden-Württemberg"}},{"name":"Gänsäcker","postalCode":"78532","locality":"Tuttlingen","municipality":{"key":"08327050","name":"Tuttlingen, Stadt","type":"Große_Kreisstadt"},"district":{"key":"08327","name":"Tuttlingen","type":"Landkreis"},"federalState":{"key":"08","name":"Baden-Württemberg"}},{"name":"Gartenstr.","postalCode":"78532","locality":"Tuttlingen","municipality":{"key":"08327050","name":"Tuttlingen, Stadt","type":"Große_Kreisstadt"},"district":{"key":"08327","name":"Tuttlingen","type":"Landkreis"},"federalState":{"key":"08","name":"Baden-Württemberg"}},{"name":"Gassenäcker","postalCode":"78532","locality":"Tuttlingen","municipality":{"key":"08327050","name":"Tuttlingen, Stadt","type":"Große_Kreisstadt"},"district":{"key":"08327","name":"Tuttlingen","type":"Landkreis"},"federalState":{"key":"08","name":"Baden-Württemberg"}},{"name":"Gaußstr.","postalCode":"78532","locality":"Tuttlingen","municipality":{"key":"08327050","name":"Tuttlingen, Stadt","type":"Große_Kreisstadt"},"district":{"key":"08327","name":"Tuttlingen","type":"Landkreis"},"federalState":{"key":"08","name":"Baden-Württemberg"}},{"name":"Gehrengässle","postalCode":"78532","locality":"Tuttlingen","municipality":{"key":"08327050","name":"Tuttlingen, Stadt","type":"Große_Kreisstadt"},"district":{"key":"08327","name":"Tuttlingen","type":"Landkreis"},"federalState":{"key":"08","name":"Baden-Württemberg"}},{"name":"Gehrensträssle","postalCode":"78532","locality":"Tuttlingen","municipality":{"key":"08327050","name":"Tuttlingen, Stadt","type":"Große_Kreisstadt"},"district":{"key":"08327","name":"Tuttlingen","type":"Landkreis"},"federalState":{"key":"08","name":"Baden-Württemberg"}},{"name":"Georg-Elser-Str.","postalCode":"78532","locality":"Tuttlingen","municipality":{"key":"08327050","name":"Tuttlingen, Stadt","type":"Große_Kreisstadt"},"district":{"key":"08327","name":"Tuttlingen","type":"Landkreis"},"federalState":{"key":"08","name":"Baden-Württemberg"}},{"name":"Gerberannental","postalCode":"78532","locality":"Tuttlingen","municipality":{"key":"08327050","name":"Tuttlingen, Stadt","type":"Große_Kreisstadt"},"district":{"key":"08327","name":"Tuttlingen","type":"Landkreis"},"federalState":{"key":"08","name":"Baden-Württemberg"}},{"name":"Gerberannentäle","postalCode":"78532","locality":"Tuttlingen","municipality":{"key":"08327050","name":"Tuttlingen, Stadt","type":"Große_Kreisstadt"},"district":{"key":"08327","name":"Tuttlingen","type":"Landkreis"},"federalState":{"key":"08","name":"Baden-Württemberg"}},{"name":"Gerberstr.","postalCode":"78532","locality":"Tuttlingen","municipality":{"key":"08327050","name":"Tuttlingen, Stadt","type":"Große_Kreisstadt"},"district":{"key":"08327","name":"Tuttlingen","type":"Landkreis"},"federalState":{"key":"08","name":"Baden-Württemberg"}},{"name":"Gerber-Ufer","postalCode":"78532","locality":"Tuttlingen","municipality":{"key":"08327050","name":"Tuttlingen, Stadt","type":"Große_Kreisstadt"},"district":{"key":"08327","name":"Tuttlingen","type":"Landkreis"},"federalState":{"key":"08","name":"Baden-Württemberg"}},{"name":"Geroldstr.","postalCode":"78532","locality":"Tuttlingen","municipality":{"key":"08327050","name":"Tuttlingen, Stadt","type":"Große_Kreisstadt"},"district":{"key":"08327","name":"Tuttlingen","type":"Landkreis"},"federalState":{"key":"08","name":"Baden-Württemberg"}},{"name":"Geschwister-Scholl-Str.","postalCode":"78532","locality":"Tuttlingen","municipality":{"key":"08327050","name":"Tuttlingen, Stadt","type":"Große_Kreisstadt"},"district":{"key":"08327","name":"Tuttlingen","type":"Landkreis"},"federalState":{"key":"08","name":"Baden-Württemberg"}},{"name":"Gießstr.","postalCode":"78532","locality":"Tuttlingen","municipality":{"key":"08327050","name":"Tuttlingen, Stadt","type":"Große_Kreisstadt"},"district":{"key":"08327","name":"Tuttlingen","type":"Landkreis"},"federalState":{"key":"08","name":"Baden-Württemberg"}},{"name":"Gihrsteinstr.","postalCode":"78532","locality":"Tuttlingen","municipality":{"key":"08327050","name":"Tuttlingen, Stadt","type":"Große_Kreisstadt"},"district":{"key":"08327","name":"Tuttlingen","type":"Landkreis"},"federalState":{"key":"08","name":"Baden-Württemberg"}},{"name":"Ginkgoterasse","postalCode":"78532","locality":"Tuttlingen","municipality":{"key":"08327050","name":"Tuttlingen, Stadt","type":"Große_Kreisstadt"},"district":{"key":"08327","name":"Tuttlingen","type":"Landkreis"},"federalState":{"key":"08","name":"Baden-Württemberg"}},{"name":"Goethestr.","postalCode":"78532","locality":"Tuttlingen","municipality":{"key":"08327050","name":"Tuttlingen, Stadt","type":"Große_Kreisstadt"},"district":{"key":"08327","name":"Tuttlingen","type":"Landkreis"},"federalState":{"key":"08","name":"Baden-Württemberg"}},{"name":"Gotenstr.","postalCode":"78532","locality":"Tuttlingen","municipality":{"key":"08327050","name":"Tuttlingen, Stadt","type":"Große_Kreisstadt"},"district":{"key":"08327","name":"Tuttlingen","type":"Landkreis"},"federalState":{"key":"08","name":"Baden-Württemberg"}},{"name":"Graf-von-Galen-Str.","postalCode":"78532","locality":"Tuttlingen","municipality":{"key":"08327050","name":"Tuttlingen, Stadt","type":"Große_Kreisstadt"},"district":{"key":"08327","name":"Tuttlingen","type":"Landkreis"},"federalState":{"key":"08","name":"Baden-Württemberg"}},{"name":"Graneggweg","postalCode":"78532","locality":"Tuttlingen","municipality":{"key":"08327050","name":"Tuttlingen, Stadt","type":"Große_Kreisstadt"},"district":{"key":"08327","name":"Tuttlingen","type":"Landkreis"},"federalState":{"key":"08","name":"Baden-Württemberg"}},{"name":"Grävenitzweg","postalCode":"78532","locality":"Tuttlingen","municipality":{"key":"08327050","name":"Tuttlingen, Stadt","type":"Große_Kreisstadt"},"district":{"key":"08327","name":"Tuttlingen","type":"Landkreis"},"federalState":{"key":"08","name":"Baden-Württemberg"}},{"name":"Griesstr.","postalCode":"78532","locality":"Tuttlingen","municipality":{"key":"08327050","name":"Tuttlingen, Stadt","type":"Große_Kreisstadt"},"district":{"key":"08327","name":"Tuttlingen","type":"Landkreis"},"federalState":{"key":"08","name":"Baden-Württemberg"}},{"name":"Grundweg","postalCode":"78532","locality":"Tuttlingen","municipality":{"key":"08327050","name":"Tuttlingen, Stadt","type":"Große_Kreisstadt"},"district":{"key":"08327","name":"Tuttlingen","type":"Landkreis"},"federalState":{"key":"08","name":"Baden-Württemberg"}},{"name":"Grünenbergstr.","postalCode":"78532","locality":"Tuttlingen","municipality":{"key":"08327050","name":"Tuttlingen, Stadt","type":"Große_Kreisstadt"},"district":{"key":"08327","name":"Tuttlingen","type":"Landkreis"},"federalState":{"key":"08","name":"Baden-Württemberg"}},{"name":"Grünewaldstr.","postalCode":"78532","locality":"Tuttlingen","municipality":{"key":"08327050","name":"Tuttlingen, Stadt","type":"Große_Kreisstadt"},"district":{"key":"08327","name":"Tuttlingen","type":"Landkreis"},"federalState":{"key":"08","name":"Baden-Württemberg"}},{"name":"Gustav-Werner-Weg","postalCode":"78532","locality":"Tuttlingen","municipality":{"key":"08327050","name":"Tuttlingen, Stadt","type":"Große_Kreisstadt"},"district":{"key":"08327","name":"Tuttlingen","type":"Landkreis"},"federalState":{"key":"08","name":"Baden-Württemberg"}},{"name":"Gutenbergstr.","postalCode":"78532","locality":"Tuttlingen","municipality":{"key":"08327050","name":"Tuttlingen, Stadt","type":"Große_Kreisstadt"},"district":{"key":"08327","name":"Tuttlingen","type":"Landkreis"},"federalState":{"key":"08","name":"Baden-Württemberg"}},{"name":"Häldeleweg","postalCode":"78532","locality":"Tuttlingen","municipality":{"key":"08327050","name":"Tuttlingen, Stadt","type":"Große_Kreisstadt"},"district":{"key":"08327","name":"Tuttlingen","type":"Landkreis"},"federalState":{"key":"08","name":"Baden-Württemberg"}},{"name":"Haldenstr.","postalCode":"78532","locality":"Tuttlingen","municipality":{"key":"08327050","name":"Tuttlingen, Stadt","type":"Große_Kreisstadt"},"district":{"key":"08327","name":"Tuttlingen","type":"Landkreis"},"federalState":{"key":"08","name":"Baden-Württemberg"}},{"name":"Halldorfer Str.","postalCode":"78532","locality":"Tuttlingen","municipality":{"key":"08327050","name":"Tuttlingen, Stadt","type":"Große_Kreisstadt"},"district":{"key":"08327","name":"Tuttlingen","type":"Landkreis"},"federalState":{"key":"08","name":"Baden-Württemberg"}},{"name":"Halldorferweg","postalCode":"78532","locality":"Tuttlingen","municipality":{"key":"08327050","name":"Tuttlingen, Stadt","type":"Große_Kreisstadt"},"district":{"key":"08327","name":"Tuttlingen","type":"Landkreis"},"federalState":{"key":"08","name":"Baden-Württemberg"}},{"name":"Hans-Thoma-Weg","postalCode":"78532","locality":"Tuttlingen","municipality":{"key":"08327050","name":"Tuttlingen, Stadt","type":"Große_Kreisstadt"},"district":{"key":"08327","name":"Tuttlingen","type":"Landkreis"},"federalState":{"key":"08","name":"Baden-Württemberg"}},{"name":"Hardstr.","postalCode":"78532","locality":"Tuttlingen","municipality":{"key":"08327050","name":"Tuttlingen, Stadt","type":"Große_Kreisstadt"},"district":{"key":"08327","name":"Tuttlingen","type":"Landkreis"},"federalState":{"key":"08","name":"Baden-Württemberg"}},{"name":"Hardstrasse","postalCode":"78532","locality":"Tuttlingen","municipality":{"key":"08327050","name":"Tuttlingen, Stadt","type":"Große_Kreisstadt"},"district":{"key":"08327","name":"Tuttlingen","type":"Landkreis"},"federalState":{"key":"08","name":"Baden-Württemberg"}},{"name":"Haselnußweg","postalCode":"78532","locality":"Tuttlingen","municipality":{"key":"08327050","name":"Tuttlingen, Stadt","type":"Große_Kreisstadt"},"district":{"key":"08327","name":"Tuttlingen","type":"Landkreis"},"federalState":{"key":"08","name":"Baden-Württemberg"}},{"name":"Hasenweg","postalCode":"78532","locality":"Tuttlingen","municipality":{"key":"08327050","name":"Tuttlingen, Stadt","type":"Große_Kreisstadt"},"district":{"key":"08327","name":"Tuttlingen","type":"Landkreis"},"federalState":{"key":"08","name":"Baden-Württemberg"}},{"name":"Hattinger Weg","postalCode":"78532","locality":"Tuttlingen","municipality":{"key":"08327050","name":"Tuttlingen, Stadt","type":"Große_Kreisstadt"},"district":{"key":"08327","name":"Tuttlingen","type":"Landkreis"},"federalState":{"key":"08","name":"Baden-Württemberg"}},{"name":"Haubergstr.","postalCode":"78532","locality":"Tuttlingen","municipality":{"key":"08327050","name":"Tuttlingen, Stadt","type":"Große_Kreisstadt"},"district":{"key":"08327","name":"Tuttlingen","type":"Landkreis"},"federalState":{"key":"08","name":"Baden-Württemberg"}},{"name":"Hebsacker Halde","postalCode":"78532","locality":"Tuttlingen","municipality":{"key":"08327050","name":"Tuttlingen, Stadt","type":"Große_Kreisstadt"},"district":{"key":"08327","name":"Tuttlingen","type":"Landkreis"},"federalState":{"key":"08","name":"Baden-Württemberg"}},{"name":"Hebsackweg","postalCode":"78532","locality":"Tuttlingen","municipality":{"key":"08327050","name":"Tuttlingen, Stadt","type":"Große_Kreisstadt"},"district":{"key":"08327","name":"Tuttlingen","type":"Landkreis"},"federalState":{"key":"08","name":"Baden-Württemberg"}},{"name":"Hechtgasse","postalCode":"78532","locality":"Tuttlingen","municipality":{"key":"08327050","name":"Tuttlingen, Stadt","type":"Große_Kreisstadt"},"district":{"key":"08327","name":"Tuttlingen","type":"Landkreis"},"federalState":{"key":"08","name":"Baden-Württemberg"}},{"name":"Hegaustr.","postalCode":"78532","locality":"Tuttlingen","municipality":{"key":"08327050","name":"Tuttlingen, Stadt","type":"Große_Kreisstadt"},"district":{"key":"08327","name":"Tuttlingen","type":"Landkreis"},"federalState":{"key":"08","name":"Baden-Württemberg"}},{"name":"Heinrich-Rieker-Str.","postalCode":"78532","locality":"Tuttlingen","municipality":{"key":"08327050","name":"Tuttlingen, Stadt","type":"Große_Kreisstadt"},"district":{"key":"08327","name":"Tuttlingen","type":"Landkreis"},"federalState":{"key":"08","name":"Baden-Württemberg"}},{"name":"Helfereistr.","postalCode":"78532","locality":"Tuttlingen","municipality":{"key":"08327050","name":"Tuttlingen, Stadt","type":"Große_Kreisstadt"},"district":{"key":"08327","name":"Tuttlingen","type":"Landkreis"},"federalState":{"key":"08","name":"Baden-Württemberg"}},{"name":"Hermann-Leiber-Str.","postalCode":"78532","locality":"Tuttlingen","municipality":{"key":"08327050","name":"Tuttlingen, Stadt","type":"Große_Kreisstadt"},"district":{"key":"08327","name":"Tuttlingen","type":"Landkreis"},"federalState":{"key":"08","name":"Baden-Württemberg"}},{"name":"Hermannstr.","postalCode":"78532","locality":"Tuttlingen","municipality":{"key":"08327050","name":"Tuttlingen, Stadt","type":"Große_Kreisstadt"},"district":{"key":"08327","name":"Tuttlingen","type":"Landkreis"},"federalState":{"key":"08","name":"Baden-Württemberg"}},{"name":"Heubergweg","postalCode":"78532","locality":"Tuttlingen","municipality":{"key":"08327050","name":"Tuttlingen, Stadt","type":"Große_Kreisstadt"},"district":{"key":"08327","name":"Tuttlingen","type":"Landkreis"},"federalState":{"key":"08","name":"Baden-Württemberg"}},{"name":"Heugasse","postalCode":"78532","locality":"Tuttlingen","municipality":{"key":"08327050","name":"Tuttlingen, Stadt","type":"Große_Kreisstadt"},"district":{"key":"08327","name":"Tuttlingen","type":"Landkreis"},"federalState":{"key":"08","name":"Baden-Württemberg"}},{"name":"Hinter den Häusern","postalCode":"78532","locality":"Tuttlingen","municipality":{"key":"08327050","name":"Tuttlingen, Stadt","type":"Große_Kreisstadt"},"district":{"key":"08327","name":"Tuttlingen","type":"Landkreis"},"federalState":{"key":"08","name":"Baden-Württemberg"}},{"name":"Hinter Hoch","postalCode":"78532","locality":"Tuttlingen","municipality":{"key":"08327050","name":"Tuttlingen, Stadt","type":"Große_Kreisstadt"},"district":{"key":"08327","name":"Tuttlingen","type":"Landkreis"},"federalState":{"key":"08","name":"Baden-Württemberg"}},{"name":"Hinterm Bild","postalCode":"78532","locality":"Tuttlingen","municipality":{"key":"08327050","name":"Tuttlingen, Stadt","type":"Große_Kreisstadt"},"district":{"key":"08327","name":"Tuttlingen","type":"Landkreis"},"federalState":{"key":"08","name":"Baden-Württemberg"}},{"name":"Hirschkopfweg","postalCode":"78532","locality":"Tuttlingen","municipality":{"key":"08327050","name":"Tuttlingen, Stadt","type":"Große_Kreisstadt"},"district":{"key":"08327","name":"Tuttlingen","type":"Landkreis"},"federalState":{"key":"08","name":"Baden-Württemberg"}},{"name":"Hochbergstr.","postalCode":"78532","locality":"Tuttlingen","municipality":{"key":"08327050","name":"Tuttlingen, Stadt","type":"Große_Kreisstadt"},"district":{"key":"08327","name":"Tuttlingen","type":"Landkreis"},"federalState":{"key":"08","name":"Baden-Württemberg"}},{"name":"Hohenstoffelweg","postalCode":"78532","locality":"Tuttlingen","municipality":{"key":"08327050","name":"Tuttlingen, Stadt","type":"Große_Kreisstadt"},"district":{"key":"08327","name":"Tuttlingen","type":"Landkreis"},"federalState":{"key":"08","name":"Baden-Württemberg"}},{"name":"Höhenstr.","postalCode":"78532","locality":"Tuttlingen","municipality":{"key":"08327050","name":"Tuttlingen, Stadt","type":"Große_Kreisstadt"},"district":{"key":"08327","name":"Tuttlingen","type":"Landkreis"},"federalState":{"key":"08","name":"Baden-Württemberg"}},{"name":"Hohentwielstr.","postalCode":"78532","locality":"Tuttlingen","municipality":{"key":"08327050","name":"Tuttlingen, Stadt","type":"Große_Kreisstadt"},"district":{"key":"08327","name":"Tuttlingen","type":"Landkreis"},"federalState":{"key":"08","name":"Baden-Württemberg"}},{"name":"Hohnerstr.","postalCode":"78532","locality":"Tuttlingen","municipality":{"key":"08327050","name":"Tuttlingen, Stadt","type":"Große_Kreisstadt"},"district":{"key":"08327","name":"Tuttlingen","type":"Landkreis"},"federalState":{"key":"08","name":"Baden-Württemberg"}},{"name":"Holbeinweg","postalCode":"78532","locality":"Tuttlingen","municipality":{"key":"08327050","name":"Tuttlingen, Stadt","type":"Große_Kreisstadt"},"district":{"key":"08327","name":"Tuttlingen","type":"Landkreis"},"federalState":{"key":"08","name":"Baden-Württemberg"}},{"name":"Hölderlinstr.","postalCode":"78532","locality":"Tuttlingen","municipality":{"key":"08327050","name":"Tuttlingen, Stadt","type":"Große_Kreisstadt"},"district":{"key":"08327","name":"Tuttlingen","type":"Landkreis"},"federalState":{"key":"08","name":"Baden-Württemberg"}},{"name":"Holderweg","postalCode":"78532","locality":"Tuttlingen","municipality":{"key":"08327050","name":"Tuttlingen, Stadt","type":"Große_Kreisstadt"},"district":{"key":"08327","name":"Tuttlingen","type":"Landkreis"},"federalState":{"key":"08","name":"Baden-Württemberg"}},{"name":"Honbergstr.","postalCode":"78532","locality":"Tuttlingen","municipality":{"key":"08327050","name":"Tuttlingen, Stadt","type":"Große_Kreisstadt"},"district":{"key":"08327","name":"Tuttlingen","type":"Landkreis"},"federalState":{"key":"08","name":"Baden-Württemberg"}},{"name":"Höwenweg","postalCode":"78532","locality":"Tuttlingen","municipality":{"key":"08327050","name":"Tuttlingen, Stadt","type":"Große_Kreisstadt"},"district":{"key":"08327","name":"Tuttlingen","type":"Landkreis"},"federalState":{"key":"08","name":"Baden-Württemberg"}},{"name":"Hungholzrundweg","postalCode":"78532","locality":"Tuttlingen","municipality":{"key":"08327050","name":"Tuttlingen, Stadt","type":"Große_Kreisstadt"},"district":{"key":"08327","name":"Tuttlingen","type":"Landkreis"},"federalState":{"key":"08","name":"Baden-Württemberg"}},{"name":"Hüttenweg","postalCode":"78532","locality":"Tuttlingen","municipality":{"key":"08327050","name":"Tuttlingen, Stadt","type":"Große_Kreisstadt"},"district":{"key":"08327","name":"Tuttlingen","type":"Landkreis"},"federalState":{"key":"08","name":"Baden-Württemberg"}},{"name":"Iltisweg","postalCode":"78532","locality":"Tuttlingen","municipality":{"key":"08327050","name":"Tuttlingen, Stadt","type":"Große_Kreisstadt"},"district":{"key":"08327","name":"Tuttlingen","type":"Landkreis"},"federalState":{"key":"08","name":"Baden-Württemberg"}},{"name":"Im Ameisental","postalCode":"78532","locality":"Tuttlingen","municipality":{"key":"08327050","name":"Tuttlingen, Stadt","type":"Große_Kreisstadt"},"district":{"key":"08327","name":"Tuttlingen","type":"Landkreis"},"federalState":{"key":"08","name":"Baden-Württemberg"}},{"name":"Im Anger","postalCode":"78532","locality":"Tuttlingen","municipality":{"key":"08327050","name":"Tuttlingen, Stadt","type":"Große_Kreisstadt"},"district":{"key":"08327","name":"Tuttlingen","type":"Landkreis"},"federalState":{"key":"08","name":"Baden-Württemberg"}},{"name":"Im Donaufeld","postalCode":"78532","locality":"Tuttlingen","municipality":{"key":"08327050","name":"Tuttlingen, Stadt","type":"Große_Kreisstadt"},"district":{"key":"08327","name":"Tuttlingen","type":"Landkreis"},"federalState":{"key":"08","name":"Baden-Württemberg"}},{"name":"Im Egartenweg","postalCode":"78532","locality":"Tuttlingen","municipality":{"key":"08327050","name":"Tuttlingen, Stadt","type":"Große_Kreisstadt"},"district":{"key":"08327","name":"Tuttlingen","type":"Landkreis"},"federalState":{"key":"08","name":"Baden-Württemberg"}},{"name":"Im Holderstöckle","postalCode":"78532","locality":"Tuttlingen","municipality":{"key":"08327050","name":"Tuttlingen, Stadt","type":"Große_Kreisstadt"},"district":{"key":"08327","name":"Tuttlingen","type":"Landkreis"},"federalState":{"key":"08","name":"Baden-Württemberg"}},{"name":"Im Jungen Steigle","postalCode":"78532","locality":"Tuttlingen","municipality":{"key":"08327050","name":"Tuttlingen, Stadt","type":"Große_Kreisstadt"},"district":{"key":"08327","name":"Tuttlingen","type":"Landkreis"},"federalState":{"key":"08","name":"Baden-Württemberg"}},{"name":"Im Koppenland","postalCode":"78532","locality":"Tuttlingen","municipality":{"key":"08327050","name":"Tuttlingen, Stadt","type":"Große_Kreisstadt"},"district":{"key":"08327","name":"Tuttlingen","type":"Landkreis"},"federalState":{"key":"08","name":"Baden-Württemberg"}},{"name":"Immendinger Str.","postalCode":"78532","locality":"Tuttlingen","municipality":{"key":"08327050","name":"Tuttlingen, Stadt","type":"Große_Kreisstadt"},"district":{"key":"08327","name":"Tuttlingen","type":"Landkreis"},"federalState":{"key":"08","name":"Baden-Württemberg"}},{"name":"Im Mittleren Ösch","postalCode":"78532","locality":"Tuttlingen","municipality":{"key":"08327050","name":"Tuttlingen, Stadt","type":"Große_Kreisstadt"},"district":{"key":"08327","name":"Tuttlingen","type":"Landkreis"},"federalState":{"key":"08","name":"Baden-Württemberg"}},{"name":"Im Sengentäle","postalCode":"78532","locality":"Tuttlingen","municipality":{"key":"08327050","name":"Tuttlingen, Stadt","type":"Große_Kreisstadt"},"district":{"key":"08327","name":"Tuttlingen","type":"Landkreis"},"federalState":{"key":"08","name":"Baden-Württemberg"}},{"name":"Im Steinigen Tal","postalCode":"78532","locality":"Tuttlingen","municipality":{"key":"08327050","name":"Tuttlingen, Stadt","type":"Große_Kreisstadt"},"district":{"key":"08327","name":"Tuttlingen","type":"Landkreis"},"federalState":{"key":"08","name":"Baden-Württemberg"}},{"name":"Im Tal","postalCode":"78532","locality":"Tuttlingen","municipality":{"key":"08327050","name":"Tuttlingen, Stadt","type":"Große_Kreisstadt"},"district":{"key":"08327","name":"Tuttlingen","type":"Landkreis"},"federalState":{"key":"08","name":"Baden-Württemberg"}},{"name":"Im Taubentäle","postalCode":"78532","locality":"Tuttlingen","municipality":{"key":"08327050","name":"Tuttlingen, Stadt","type":"Große_Kreisstadt"},"district":{"key":"08327","name":"Tuttlingen","type":"Landkreis"},"federalState":{"key":"08","name":"Baden-Württemberg"}},{"name":"Im Winkel","postalCode":"78532","locality":"Tuttlingen","municipality":{"key":"08327050","name":"Tuttlingen, Stadt","type":"Große_Kreisstadt"},"district":{"key":"08327","name":"Tuttlingen","type":"Landkreis"},"federalState":{"key":"08","name":"Baden-Württemberg"}},{"name":"Im Wolfsbühl","postalCode":"78532","locality":"Tuttlingen","municipality":{"key":"08327050","name":"Tuttlingen, Stadt","type":"Große_Kreisstadt"},"district":{"key":"08327","name":"Tuttlingen","type":"Landkreis"},"federalState":{"key":"08","name":"Baden-Württemberg"}},{"name":"Im Zeitenlob","postalCode":"78532","locality":"Tuttlingen","municipality":{"key":"08327050","name":"Tuttlingen, Stadt","type":"Große_Kreisstadt"},"district":{"key":"08327","name":"Tuttlingen","type":"Landkreis"},"federalState":{"key":"08","name":"Baden-Württemberg"}},{"name":"In Altwegen","postalCode":"78532","locality":"Tuttlingen","municipality":{"key":"08327050","name":"Tuttlingen, Stadt","type":"Große_Kreisstadt"},"district":{"key":"08327","name":"Tuttlingen","type":"Landkreis"},"federalState":{"key":"08","name":"Baden-Württemberg"}},{"name":"In Aspen","postalCode":"78532","locality":"Tuttlingen","municipality":{"key":"08327050","name":"Tuttlingen, Stadt","type":"Große_Kreisstadt"},"district":{"key":"08327","name":"Tuttlingen","type":"Landkreis"},"federalState":{"key":"08","name":"Baden-Württemberg"}},{"name":"In der Thürn","postalCode":"78532","locality":"Tuttlingen","municipality":{"key":"08327050","name":"Tuttlingen, Stadt","type":"Große_Kreisstadt"},"district":{"key":"08327","name":"Tuttlingen","type":"Landkreis"},"federalState":{"key":"08","name":"Baden-Württemberg"}},{"name":"Industriestr.","postalCode":"78532","locality":"Tuttlingen","municipality":{"key":"08327050","name":"Tuttlingen, Stadt","type":"Große_Kreisstadt"},"district":{"key":"08327","name":"Tuttlingen","type":"Landkreis"},"federalState":{"key":"08","name":"Baden-Württemberg"}},{"name":"In Göhren","postalCode":"78532","locality":"Tuttlingen","municipality":{"key":"08327050","name":"Tuttlingen, Stadt","type":"Große_Kreisstadt"},"district":{"key":"08327","name":"Tuttlingen","type":"Landkreis"},"federalState":{"key":"08","name":"Baden-Württemberg"}},{"name":"In Grubenäcker","postalCode":"78532","locality":"Tuttlingen","municipality":{"key":"08327050","name":"Tuttlingen, Stadt","type":"Große_Kreisstadt"},"district":{"key":"08327","name":"Tuttlingen","type":"Landkreis"},"federalState":{"key":"08","name":"Baden-Württemberg"}},{"name":"In Haslen","postalCode":"78532","locality":"Tuttlingen","municipality":{"key":"08327050","name":"Tuttlingen, Stadt","type":"Große_Kreisstadt"},"district":{"key":"08327","name":"Tuttlingen","type":"Landkreis"},"federalState":{"key":"08","name":"Baden-Württemberg"}},{"name":"In Hohensteig","postalCode":"78532","locality":"Tuttlingen","municipality":{"key":"08327050","name":"Tuttlingen, Stadt","type":"Große_Kreisstadt"},"district":{"key":"08327","name":"Tuttlingen","type":"Landkreis"},"federalState":{"key":"08","name":"Baden-Württemberg"}},{"name":"In Wagäckern","postalCode":"78532","locality":"Tuttlingen","municipality":{"key":"08327050","name":"Tuttlingen, Stadt","type":"Große_Kreisstadt"},"district":{"key":"08327","name":"Tuttlingen","type":"Landkreis"},"federalState":{"key":"08","name":"Baden-Württemberg"}},{"name":"In Wöhrden","postalCode":"78532","locality":"Tuttlingen","municipality":{"key":"08327050","name":"Tuttlingen, Stadt","type":"Große_Kreisstadt"},"district":{"key":"08327","name":"Tuttlingen","type":"Landkreis"},"federalState":{"key":"08","name":"Baden-Württemberg"}},{"name":"Ippinger Str.","postalCode":"78532","locality":"Tuttlingen","municipality":{"key":"08327050","name":"Tuttlingen, Stadt","type":"Große_Kreisstadt"},"district":{"key":"08327","name":"Tuttlingen","type":"Landkreis"},"federalState":{"key":"08","name":"Baden-Württemberg"}},{"name":"Jägerbuchenweg","postalCode":"78532","locality":"Tuttlingen","municipality":{"key":"08327050","name":"Tuttlingen, Stadt","type":"Große_Kreisstadt"},"district":{"key":"08327","name":"Tuttlingen","type":"Landkreis"},"federalState":{"key":"08","name":"Baden-Württemberg"}},{"name":"Jägerhofstr.","postalCode":"78532","locality":"Tuttlingen","municipality":{"key":"08327050","name":"Tuttlingen, Stadt","type":"Große_Kreisstadt"},"district":{"key":"08327","name":"Tuttlingen","type":"Landkreis"},"federalState":{"key":"08","name":"Baden-Württemberg"}},{"name":"Jägerstr.","postalCode":"78532","locality":"Tuttlingen","municipality":{"key":"08327050","name":"Tuttlingen, Stadt","type":"Große_Kreisstadt"},"district":{"key":"08327","name":"Tuttlingen","type":"Landkreis"},"federalState":{"key":"08","name":"Baden-Württemberg"}},{"name":"Jahnstr.","postalCode":"78532","locality":"Tuttlingen","municipality":{"key":"08327050","name":"Tuttlingen, Stadt","type":"Große_Kreisstadt"},"district":{"key":"08327","name":"Tuttlingen","type":"Landkreis"},"federalState":{"key":"08","name":"Baden-Württemberg"}},{"name":"Jakobstr.","postalCode":"78532","locality":"Tuttlingen","municipality":{"key":"08327050","name":"Tuttlingen, Stadt","type":"Große_Kreisstadt"},"district":{"key":"08327","name":"Tuttlingen","type":"Landkreis"},"federalState":{"key":"08","name":"Baden-Württemberg"}},{"name":"Jetterstr.","postalCode":"78532","locality":"Tuttlingen","municipality":{"key":"08327050","name":"Tuttlingen, Stadt","type":"Große_Kreisstadt"},"district":{"key":"08327","name":"Tuttlingen","type":"Landkreis"},"federalState":{"key":"08","name":"Baden-Württemberg"}},{"name":"Johann-Sebastian-Bach-Str.","postalCode":"78532","locality":"Tuttlingen","municipality":{"key":"08327050","name":"Tuttlingen, Stadt","type":"Große_Kreisstadt"},"district":{"key":"08327","name":"Tuttlingen","type":"Landkreis"},"federalState":{"key":"08","name":"Baden-Württemberg"}},{"name":"Joseph-Haas-Weg","postalCode":"78532","locality":"Tuttlingen","municipality":{"key":"08327050","name":"Tuttlingen, Stadt","type":"Große_Kreisstadt"},"district":{"key":"08327","name":"Tuttlingen","type":"Landkreis"},"federalState":{"key":"08","name":"Baden-Württemberg"}},{"name":"Joseph-Haydn-Weg","postalCode":"78532","locality":"Tuttlingen","municipality":{"key":"08327050","name":"Tuttlingen, Stadt","type":"Große_Kreisstadt"},"district":{"key":"08327","name":"Tuttlingen","type":"Landkreis"},"federalState":{"key":"08","name":"Baden-Württemberg"}},{"name":"Julius-Fröhlich-Platz","postalCode":"78532","locality":"Tuttlingen","municipality":{"key":"08327050","name":"Tuttlingen, Stadt","type":"Große_Kreisstadt"},"district":{"key":"08327","name":"Tuttlingen","type":"Landkreis"},"federalState":{"key":"08","name":"Baden-Württemberg"}},{"name":"Junkersstr.","postalCode":"78532","locality":"Tuttlingen","municipality":{"key":"08327050","name":"Tuttlingen, Stadt","type":"Große_Kreisstadt"},"district":{"key":"08327","name":"Tuttlingen","type":"Landkreis"},"federalState":{"key":"08","name":"Baden-Württemberg"}},{"name":"Kaiserstr.","postalCode":"78532","locality":"Tuttlingen","municipality":{"key":"08327050","name":"Tuttlingen, Stadt","type":"Große_Kreisstadt"},"district":{"key":"08327","name":"Tuttlingen","type":"Landkreis"},"federalState":{"key":"08","name":"Baden-Württemberg"}},{"name":"Kammerhalde","postalCode":"78532","locality":"Tuttlingen","municipality":{"key":"08327050","name":"Tuttlingen, Stadt","type":"Große_Kreisstadt"},"district":{"key":"08327","name":"Tuttlingen","type":"Landkreis"},"federalState":{"key":"08","name":"Baden-Württemberg"}},{"name":"Kammerhaldenweg","postalCode":"78532","locality":"Tuttlingen","municipality":{"key":"08327050","name":"Tuttlingen, Stadt","type":"Große_Kreisstadt"},"district":{"key":"08327","name":"Tuttlingen","type":"Landkreis"},"federalState":{"key":"08","name":"Baden-Württemberg"}},{"name":"Kanalstr.","postalCode":"78532","locality":"Tuttlingen","municipality":{"key":"08327050","name":"Tuttlingen, Stadt","type":"Große_Kreisstadt"},"district":{"key":"08327","name":"Tuttlingen","type":"Landkreis"},"federalState":{"key":"08","name":"Baden-Württemberg"}},{"name":"Kandelstr.","postalCode":"78532","locality":"Tuttlingen","municipality":{"key":"08327050","name":"Tuttlingen, Stadt","type":"Große_Kreisstadt"},"district":{"key":"08327","name":"Tuttlingen","type":"Landkreis"},"federalState":{"key":"08","name":"Baden-Württemberg"}},{"name":"Kantstr.","postalCode":"78532","locality":"Tuttlingen","municipality":{"key":"08327050","name":"Tuttlingen, Stadt","type":"Große_Kreisstadt"},"district":{"key":"08327","name":"Tuttlingen","type":"Landkreis"},"federalState":{"key":"08","name":"Baden-Württemberg"}},{"name":"Kapellenstr.","postalCode":"78532","locality":"Tuttlingen","municipality":{"key":"08327050","name":"Tuttlingen, Stadt","type":"Große_Kreisstadt"},"district":{"key":"08327","name":"Tuttlingen","type":"Landkreis"},"federalState":{"key":"08","name":"Baden-Württemberg"}},{"name":"Kapfstr.","postalCode":"78532","locality":"Tuttlingen","municipality":{"key":"08327050","name":"Tuttlingen, Stadt","type":"Große_Kreisstadt"},"district":{"key":"08327","name":"Tuttlingen","type":"Landkreis"},"federalState":{"key":"08","name":"Baden-Württemberg"}},{"name":"Karlstr.","postalCode":"78532","locality":"Tuttlingen","municipality":{"key":"08327050","name":"Tuttlingen, Stadt","type":"Große_Kreisstadt"},"district":{"key":"08327","name":"Tuttlingen","type":"Landkreis"},"federalState":{"key":"08","name":"Baden-Württemberg"}},{"name":"Karpfenstr.","postalCode":"78532","locality":"Tuttlingen","municipality":{"key":"08327050","name":"Tuttlingen, Stadt","type":"Große_Kreisstadt"},"district":{"key":"08327","name":"Tuttlingen","type":"Landkreis"},"federalState":{"key":"08","name":"Baden-Württemberg"}},{"name":"Katharinenstr.","postalCode":"78532","locality":"Tuttlingen","municipality":{"key":"08327050","name":"Tuttlingen, Stadt","type":"Große_Kreisstadt"},"district":{"key":"08327","name":"Tuttlingen","type":"Landkreis"},"federalState":{"key":"08","name":"Baden-Württemberg"}},{"name":"Käthe-Kollwitz-Weg","postalCode":"78532","locality":"Tuttlingen","municipality":{"key":"08327050","name":"Tuttlingen, Stadt","type":"Große_Kreisstadt"},"district":{"key":"08327","name":"Tuttlingen","type":"Landkreis"},"federalState":{"key":"08","name":"Baden-Württemberg"}},{"name":"Keltenstr.","postalCode":"78532","locality":"Tuttlingen","municipality":{"key":"08327050","name":"Tuttlingen, Stadt","type":"Große_Kreisstadt"},"district":{"key":"08327","name":"Tuttlingen","type":"Landkreis"},"federalState":{"key":"08","name":"Baden-Württemberg"}},{"name":"Kernerstr.","postalCode":"78532","locality":"Tuttlingen","municipality":{"key":"08327050","name":"Tuttlingen, Stadt","type":"Große_Kreisstadt"},"district":{"key":"08327","name":"Tuttlingen","type":"Landkreis"},"federalState":{"key":"08","name":"Baden-Württemberg"}},{"name":"Kettelerstr.","postalCode":"78532","locality":"Tuttlingen","municipality":{"key":"08327050","name":"Tuttlingen, Stadt","type":"Große_Kreisstadt"},"district":{"key":"08327","name":"Tuttlingen","type":"Landkreis"},"federalState":{"key":"08","name":"Baden-Württemberg"}},{"name":"Kindergartenweg","postalCode":"78532","locality":"Tuttlingen","municipality":{"key":"08327050","name":"Tuttlingen, Stadt","type":"Große_Kreisstadt"},"district":{"key":"08327","name":"Tuttlingen","type":"Landkreis"},"federalState":{"key":"08","name":"Baden-Württemberg"}},{"name":"Kirchgasse","postalCode":"78532","locality":"Tuttlingen","municipality":{"key":"08327050","name":"Tuttlingen, Stadt","type":"Große_Kreisstadt"},"district":{"key":"08327","name":"Tuttlingen","type":"Landkreis"},"federalState":{"key":"08","name":"Baden-Württemberg"}},{"name":"Kirchstr.","postalCode":"78532","locality":"Tuttlingen","municipality":{"key":"08327050","name":"Tuttlingen, Stadt","type":"Große_Kreisstadt"},"district":{"key":"08327","name":"Tuttlingen","type":"Landkreis"},"federalState":{"key":"08","name":"Baden-Württemberg"}},{"name":"Kleines Öschle","postalCode":"78532","locality":"Tuttlingen","municipality":{"key":"08327050","name":"Tuttlingen, Stadt","type":"Große_Kreisstadt"},"district":{"key":"08327","name":"Tuttlingen","type":"Landkreis"},"federalState":{"key":"08","name":"Baden-Württemberg"}},{"name":"Kleinreuteleweg","postalCode":"78532","locality":"Tuttlingen","municipality":{"key":"08327050","name":"Tuttlingen, Stadt","type":"Große_Kreisstadt"},"district":{"key":"08327","name":"Tuttlingen","type":"Landkreis"},"federalState":{"key":"08","name":"Baden-Württemberg"}},{"name":"Klingenbergstr.","postalCode":"78532","locality":"Tuttlingen","municipality":{"key":"08327050","name":"Tuttlingen, Stadt","type":"Große_Kreisstadt"},"district":{"key":"08327","name":"Tuttlingen","type":"Landkreis"},"federalState":{"key":"08","name":"Baden-Württemberg"}},{"name":"Klippeneckstr.","postalCode":"78532","locality":"Tuttlingen","municipality":{"key":"08327050","name":"Tuttlingen, Stadt","type":"Große_Kreisstadt"},"district":{"key":"08327","name":"Tuttlingen","type":"Landkreis"},"federalState":{"key":"08","name":"Baden-Württemberg"}},{"name":"Kniebisstr.","postalCode":"78532","locality":"Tuttlingen","municipality":{"key":"08327050","name":"Tuttlingen, Stadt","type":"Große_Kreisstadt"},"district":{"key":"08327","name":"Tuttlingen","type":"Landkreis"},"federalState":{"key":"08","name":"Baden-Württemberg"}},{"name":"Kniestr.","postalCode":"78532","locality":"Tuttlingen","municipality":{"key":"08327050","name":"Tuttlingen, Stadt","type":"Große_Kreisstadt"},"district":{"key":"08327","name":"Tuttlingen","type":"Landkreis"},"federalState":{"key":"08","name":"Baden-Württemberg"}},{"name":"Koloniestr.","postalCode":"78532","locality":"Tuttlingen","municipality":{"key":"08327050","name":"Tuttlingen, Stadt","type":"Große_Kreisstadt"},"district":{"key":"08327","name":"Tuttlingen","type":"Landkreis"},"federalState":{"key":"08","name":"Baden-Württemberg"}},{"name":"Kolpingweg","postalCode":"78532","locality":"Tuttlingen","municipality":{"key":"08327050","name":"Tuttlingen, Stadt","type":"Große_Kreisstadt"},"district":{"key":"08327","name":"Tuttlingen","type":"Landkreis"},"federalState":{"key":"08","name":"Baden-Württemberg"}},{"name":"Königsberger Str.","postalCode":"78532","locality":"Tuttlingen","municipality":{"key":"08327050","name":"Tuttlingen, Stadt","type":"Große_Kreisstadt"},"district":{"key":"08327","name":"Tuttlingen","type":"Landkreis"},"federalState":{"key":"08","name":"Baden-Württemberg"}},{"name":"Königstr.","postalCode":"78532","locality":"Tuttlingen","municipality":{"key":"08327050","name":"Tuttlingen, Stadt","type":"Große_Kreisstadt"},"district":{"key":"08327","name":"Tuttlingen","type":"Landkreis"},"federalState":{"key":"08","name":"Baden-Württemberg"}},{"name":"Konzenbergstr.","postalCode":"78532","locality":"Tuttlingen","municipality":{"key":"08327050","name":"Tuttlingen, Stadt","type":"Große_Kreisstadt"},"district":{"key":"08327","name":"Tuttlingen","type":"Landkreis"},"federalState":{"key":"08","name":"Baden-Württemberg"}},{"name":"Krafftstr.","postalCode":"78532","locality":"Tuttlingen","municipality":{"key":"08327050","name":"Tuttlingen, Stadt","type":"Große_Kreisstadt"},"district":{"key":"08327","name":"Tuttlingen","type":"Landkreis"},"federalState":{"key":"08","name":"Baden-Württemberg"}},{"name":"Kraftsteinweg","postalCode":"78532","locality":"Tuttlingen","municipality":{"key":"08327050","name":"Tuttlingen, Stadt","type":"Große_Kreisstadt"},"district":{"key":"08327","name":"Tuttlingen","type":"Landkreis"},"federalState":{"key":"08","name":"Baden-Württemberg"}},{"name":"Krähenstr.","postalCode":"78532","locality":"Tuttlingen","municipality":{"key":"08327050","name":"Tuttlingen, Stadt","type":"Große_Kreisstadt"},"district":{"key":"08327","name":"Tuttlingen","type":"Landkreis"},"federalState":{"key":"08","name":"Baden-Württemberg"}},{"name":"Krankenhausstr.","postalCode":"78532","locality":"Tuttlingen","municipality":{"key":"08327050","name":"Tuttlingen, Stadt","type":"Große_Kreisstadt"},"district":{"key":"08327","name":"Tuttlingen","type":"Landkreis"},"federalState":{"key":"08","name":"Baden-Württemberg"}},{"name":"Kreutzerweg","postalCode":"78532","locality":"Tuttlingen","municipality":{"key":"08327050","name":"Tuttlingen, Stadt","type":"Große_Kreisstadt"},"district":{"key":"08327","name":"Tuttlingen","type":"Landkreis"},"federalState":{"key":"08","name":"Baden-Württemberg"}},{"name":"Kreuzgasse","postalCode":"78532","locality":"Tuttlingen","municipality":{"key":"08327050","name":"Tuttlingen, Stadt","type":"Große_Kreisstadt"},"district":{"key":"08327","name":"Tuttlingen","type":"Landkreis"},"federalState":{"key":"08","name":"Baden-Württemberg"}},{"name":"Kreuzhaldeweg","postalCode":"78532","locality":"Tuttlingen","municipality":{"key":"08327050","name":"Tuttlingen, Stadt","type":"Große_Kreisstadt"},"district":{"key":"08327","name":"Tuttlingen","type":"Landkreis"},"federalState":{"key":"08","name":"Baden-Württemberg"}},{"name":"Kreuzstr.","postalCode":"78532","locality":"Tuttlingen","municipality":{"key":"08327050","name":"Tuttlingen, Stadt","type":"Große_Kreisstadt"},"district":{"key":"08327","name":"Tuttlingen","type":"Landkreis"},"federalState":{"key":"08","name":"Baden-Württemberg"}},{"name":"Kreuzstr.ntunnel","postalCode":"78532","locality":"Tuttlingen","municipality":{"key":"08327050","name":"Tuttlingen, Stadt","type":"Große_Kreisstadt"},"district":{"key":"08327","name":"Tuttlingen","type":"Landkreis"},"federalState":{"key":"08","name":"Baden-Württemberg"}},{"name":"Kronenstr.","postalCode":"78532","locality":"Tuttlingen","municipality":{"key":"08327050","name":"Tuttlingen, Stadt","type":"Große_Kreisstadt"},"district":{"key":"08327","name":"Tuttlingen","type":"Landkreis"},"federalState":{"key":"08","name":"Baden-Württemberg"}},{"name":"Kühltal","postalCode":"78532","locality":"Tuttlingen","municipality":{"key":"08327050","name":"Tuttlingen, Stadt","type":"Große_Kreisstadt"},"district":{"key":"08327","name":"Tuttlingen","type":"Landkreis"},"federalState":{"key":"08","name":"Baden-Württemberg"}},{"name":"Kühltalstr.","postalCode":"78532","locality":"Tuttlingen","municipality":{"key":"08327050","name":"Tuttlingen, Stadt","type":"Große_Kreisstadt"},"district":{"key":"08327","name":"Tuttlingen","type":"Landkreis"},"federalState":{"key":"08","name":"Baden-Württemberg"}},{"name":"Kurze Str.","postalCode":"78532","locality":"Tuttlingen","municipality":{"key":"08327050","name":"Tuttlingen, Stadt","type":"Große_Kreisstadt"},"district":{"key":"08327","name":"Tuttlingen","type":"Landkreis"},"federalState":{"key":"08","name":"Baden-Württemberg"}},{"name":"Lembergweg","postalCode":"78532","locality":"Tuttlingen","municipality":{"key":"08327050","name":"Tuttlingen, Stadt","type":"Große_Kreisstadt"},"district":{"key":"08327","name":"Tuttlingen","type":"Landkreis"},"federalState":{"key":"08","name":"Baden-Württemberg"}},{"name":"Lenaustr.","postalCode":"78532","locality":"Tuttlingen","municipality":{"key":"08327050","name":"Tuttlingen, Stadt","type":"Große_Kreisstadt"},"district":{"key":"08327","name":"Tuttlingen","type":"Landkreis"},"federalState":{"key":"08","name":"Baden-Württemberg"}},{"name":"Lessingstr.","postalCode":"78532","locality":"Tuttlingen","municipality":{"key":"08327050","name":"Tuttlingen, Stadt","type":"Große_Kreisstadt"},"district":{"key":"08327","name":"Tuttlingen","type":"Landkreis"},"federalState":{"key":"08","name":"Baden-Württemberg"}},{"name":"Leutenberghangweg","postalCode":"78532","locality":"Tuttlingen","municipality":{"key":"08327050","name":"Tuttlingen, Stadt","type":"Große_Kreisstadt"},"district":{"key":"08327","name":"Tuttlingen","type":"Landkreis"},"federalState":{"key":"08","name":"Baden-Württemberg"}},{"name":"Leutenbergstr.","postalCode":"78532","locality":"Tuttlingen","municipality":{"key":"08327050","name":"Tuttlingen, Stadt","type":"Große_Kreisstadt"},"district":{"key":"08327","name":"Tuttlingen","type":"Landkreis"},"federalState":{"key":"08","name":"Baden-Württemberg"}},{"name":"Lilienthalweg","postalCode":"78532","locality":"Tuttlingen","municipality":{"key":"08327050","name":"Tuttlingen, Stadt","type":"Große_Kreisstadt"},"district":{"key":"08327","name":"Tuttlingen","type":"Landkreis"},"federalState":{"key":"08","name":"Baden-Württemberg"}},{"name":"Lindenstr.","postalCode":"78532","locality":"Tuttlingen","municipality":{"key":"08327050","name":"Tuttlingen, Stadt","type":"Große_Kreisstadt"},"district":{"key":"08327","name":"Tuttlingen","type":"Landkreis"},"federalState":{"key":"08","name":"Baden-Württemberg"}},{"name":"Liptinger Str.","postalCode":"78532","locality":"Tuttlingen","municipality":{"key":"08327050","name":"Tuttlingen, Stadt","type":"Große_Kreisstadt"},"district":{"key":"08327","name":"Tuttlingen","type":"Landkreis"},"federalState":{"key":"08","name":"Baden-Württemberg"}},{"name":"Lohmehlenring","postalCode":"78532","locality":"Tuttlingen","municipality":{"key":"08327050","name":"Tuttlingen, Stadt","type":"Große_Kreisstadt"},"district":{"key":"08327","name":"Tuttlingen","type":"Landkreis"},"federalState":{"key":"08","name":"Baden-Württemberg"}},{"name":"Ludwig-Finckh-Weg","postalCode":"78532","locality":"Tuttlingen","municipality":{"key":"08327050","name":"Tuttlingen, Stadt","type":"Große_Kreisstadt"},"district":{"key":"08327","name":"Tuttlingen","type":"Landkreis"},"federalState":{"key":"08","name":"Baden-Württemberg"}},{"name":"Ludwigstal","postalCode":"78532","locality":"Tuttlingen","municipality":{"key":"08327050","name":"Tuttlingen, Stadt","type":"Große_Kreisstadt"},"district":{"key":"08327","name":"Tuttlingen","type":"Landkreis"},"federalState":{"key":"08","name":"Baden-Württemberg"}},{"name":"Ludwigstaler Str.","postalCode":"78532","locality":"Tuttlingen","municipality":{"key":"08327050","name":"Tuttlingen, Stadt","type":"Große_Kreisstadt"},"district":{"key":"08327","name":"Tuttlingen","type":"Landkreis"},"federalState":{"key":"08","name":"Baden-Württemberg"}},{"name":"Luginsfeldweg","postalCode":"78532","locality":"Tuttlingen","municipality":{"key":"08327050","name":"Tuttlingen, Stadt","type":"Große_Kreisstadt"},"district":{"key":"08327","name":"Tuttlingen","type":"Landkreis"},"federalState":{"key":"08","name":"Baden-Württemberg"}},{"name":"Lupfenstr.","postalCode":"78532","locality":"Tuttlingen","municipality":{"key":"08327050","name":"Tuttlingen, Stadt","type":"Große_Kreisstadt"},"district":{"key":"08327","name":"Tuttlingen","type":"Landkreis"},"federalState":{"key":"08","name":"Baden-Württemberg"}},{"name":"Maienweg","postalCode":"78532","locality":"Tuttlingen","municipality":{"key":"08327050","name":"Tuttlingen, Stadt","type":"Große_Kreisstadt"},"district":{"key":"08327","name":"Tuttlingen","type":"Landkreis"},"federalState":{"key":"08","name":"Baden-Württemberg"}},{"name":"Malatzäcker","postalCode":"78532","locality":"Tuttlingen","municipality":{"key":"08327050","name":"Tuttlingen, Stadt","type":"Große_Kreisstadt"},"district":{"key":"08327","name":"Tuttlingen","type":"Landkreis"},"federalState":{"key":"08","name":"Baden-Württemberg"}},{"name":"Marderweg","postalCode":"78532","locality":"Tuttlingen","municipality":{"key":"08327050","name":"Tuttlingen, Stadt","type":"Große_Kreisstadt"},"district":{"key":"08327","name":"Tuttlingen","type":"Landkreis"},"federalState":{"key":"08","name":"Baden-Württemberg"}},{"name":"Marienburgstr.","postalCode":"78532","locality":"Tuttlingen","municipality":{"key":"08327050","name":"Tuttlingen, Stadt","type":"Große_Kreisstadt"},"district":{"key":"08327","name":"Tuttlingen","type":"Landkreis"},"federalState":{"key":"08","name":"Baden-Württemberg"}},{"name":"Marienweg","postalCode":"78532","locality":"Tuttlingen","municipality":{"key":"08327050","name":"Tuttlingen, Stadt","type":"Große_Kreisstadt"},"district":{"key":"08327","name":"Tuttlingen","type":"Landkreis"},"federalState":{"key":"08","name":"Baden-Württemberg"}},{"name":"Marktgasse","postalCode":"78532","locality":"Tuttlingen","municipality":{"key":"08327050","name":"Tuttlingen, Stadt","type":"Große_Kreisstadt"},"district":{"key":"08327","name":"Tuttlingen","type":"Landkreis"},"federalState":{"key":"08","name":"Baden-Württemberg"}},{"name":"Markusweg","postalCode":"78532","locality":"Tuttlingen","municipality":{"key":"08327050","name":"Tuttlingen, Stadt","type":"Große_Kreisstadt"},"district":{"key":"08327","name":"Tuttlingen","type":"Landkreis"},"federalState":{"key":"08","name":"Baden-Württemberg"}},{"name":"Martin-Luther-Weg","postalCode":"78532","locality":"Tuttlingen","municipality":{"key":"08327050","name":"Tuttlingen, Stadt","type":"Große_Kreisstadt"},"district":{"key":"08327","name":"Tuttlingen","type":"Landkreis"},"federalState":{"key":"08","name":"Baden-Württemberg"}},{"name":"Mattsteigstr.","postalCode":"78532","locality":"Tuttlingen","municipality":{"key":"08327050","name":"Tuttlingen, Stadt","type":"Große_Kreisstadt"},"district":{"key":"08327","name":"Tuttlingen","type":"Landkreis"},"federalState":{"key":"08","name":"Baden-Württemberg"}},{"name":"Max-Beckmann-Weg","postalCode":"78532","locality":"Tuttlingen","municipality":{"key":"08327050","name":"Tuttlingen, Stadt","type":"Große_Kreisstadt"},"district":{"key":"08327","name":"Tuttlingen","type":"Landkreis"},"federalState":{"key":"08","name":"Baden-Württemberg"}},{"name":"Max-Eyth-Str.","postalCode":"78532","locality":"Tuttlingen","municipality":{"key":"08327050","name":"Tuttlingen, Stadt","type":"Große_Kreisstadt"},"district":{"key":"08327","name":"Tuttlingen","type":"Landkreis"},"federalState":{"key":"08","name":"Baden-Württemberg"}},{"name":"Max-Planck-Str.","postalCode":"78532","locality":"Tuttlingen","municipality":{"key":"08327050","name":"Tuttlingen, Stadt","type":"Große_Kreisstadt"},"district":{"key":"08327","name":"Tuttlingen","type":"Landkreis"},"federalState":{"key":"08","name":"Baden-Württemberg"}},{"name":"Maybachstr.","postalCode":"78532","locality":"Tuttlingen","municipality":{"key":"08327050","name":"Tuttlingen, Stadt","type":"Große_Kreisstadt"},"district":{"key":"08327","name":"Tuttlingen","type":"Landkreis"},"federalState":{"key":"08","name":"Baden-Württemberg"}},{"name":"Melbishaldenweg","postalCode":"78532","locality":"Tuttlingen","municipality":{"key":"08327050","name":"Tuttlingen, Stadt","type":"Große_Kreisstadt"},"district":{"key":"08327","name":"Tuttlingen","type":"Landkreis"},"federalState":{"key":"08","name":"Baden-Württemberg"}},{"name":"Menzelweg","postalCode":"78532","locality":"Tuttlingen","municipality":{"key":"08327050","name":"Tuttlingen, Stadt","type":"Große_Kreisstadt"},"district":{"key":"08327","name":"Tuttlingen","type":"Landkreis"},"federalState":{"key":"08","name":"Baden-Württemberg"}},{"name":"Messerschmittstr.","postalCode":"78532","locality":"Tuttlingen","municipality":{"key":"08327050","name":"Tuttlingen, Stadt","type":"Große_Kreisstadt"},"district":{"key":"08327","name":"Tuttlingen","type":"Landkreis"},"federalState":{"key":"08","name":"Baden-Württemberg"}},{"name":"Meßkircher Str.","postalCode":"78532","locality":"Tuttlingen","municipality":{"key":"08327050","name":"Tuttlingen, Stadt","type":"Große_Kreisstadt"},"district":{"key":"08327","name":"Tuttlingen","type":"Landkreis"},"federalState":{"key":"08","name":"Baden-Württemberg"}},{"name":"Mettenbergstr.","postalCode":"78532","locality":"Tuttlingen","municipality":{"key":"08327050","name":"Tuttlingen, Stadt","type":"Große_Kreisstadt"},"district":{"key":"08327","name":"Tuttlingen","type":"Landkreis"},"federalState":{"key":"08","name":"Baden-Württemberg"}},{"name":"Mittelstr.","postalCode":"78532","locality":"Tuttlingen","municipality":{"key":"08327050","name":"Tuttlingen, Stadt","type":"Große_Kreisstadt"},"district":{"key":"08327","name":"Tuttlingen","type":"Landkreis"},"federalState":{"key":"08","name":"Baden-Württemberg"}},{"name":"Mittlere Gasse","postalCode":"78532","locality":"Tuttlingen","municipality":{"key":"08327050","name":"Tuttlingen, Stadt","type":"Große_Kreisstadt"},"district":{"key":"08327","name":"Tuttlingen","type":"Landkreis"},"federalState":{"key":"08","name":"Baden-Württemberg"}},{"name":"Mohlstr.","postalCode":"78532","locality":"Tuttlingen","municipality":{"key":"08327050","name":"Tuttlingen, Stadt","type":"Große_Kreisstadt"},"district":{"key":"08327","name":"Tuttlingen","type":"Landkreis"},"federalState":{"key":"08","name":"Baden-Württemberg"}},{"name":"Mohrendobeltraufweg","postalCode":"78532","locality":"Tuttlingen","municipality":{"key":"08327050","name":"Tuttlingen, Stadt","type":"Große_Kreisstadt"},"district":{"key":"08327","name":"Tuttlingen","type":"Landkreis"},"federalState":{"key":"08","name":"Baden-Württemberg"}},{"name":"Möhringer Str.","postalCode":"78532","locality":"Tuttlingen","municipality":{"key":"08327050","name":"Tuttlingen, Stadt","type":"Große_Kreisstadt"},"district":{"key":"08327","name":"Tuttlingen","type":"Landkreis"},"federalState":{"key":"08","name":"Baden-Württemberg"}},{"name":"Moltkestr.","postalCode":"78532","locality":"Tuttlingen","municipality":{"key":"08327050","name":"Tuttlingen, Stadt","type":"Große_Kreisstadt"},"district":{"key":"08327","name":"Tuttlingen","type":"Landkreis"},"federalState":{"key":"08","name":"Baden-Württemberg"}},{"name":"Mörikeweg","postalCode":"78532","locality":"Tuttlingen","municipality":{"key":"08327050","name":"Tuttlingen, Stadt","type":"Große_Kreisstadt"},"district":{"key":"08327","name":"Tuttlingen","type":"Landkreis"},"federalState":{"key":"08","name":"Baden-Württemberg"}},{"name":"Mozartstr.","postalCode":"78532","locality":"Tuttlingen","municipality":{"key":"08327050","name":"Tuttlingen, Stadt","type":"Große_Kreisstadt"},"district":{"key":"08327","name":"Tuttlingen","type":"Landkreis"},"federalState":{"key":"08","name":"Baden-Württemberg"}},{"name":"Mühlenweg","postalCode":"78532","locality":"Tuttlingen","municipality":{"key":"08327050","name":"Tuttlingen, Stadt","type":"Große_Kreisstadt"},"district":{"key":"08327","name":"Tuttlingen","type":"Landkreis"},"federalState":{"key":"08","name":"Baden-Württemberg"}},{"name":"Mühlheimer Str.","postalCode":"78532","locality":"Tuttlingen","municipality":{"key":"08327050","name":"Tuttlingen, Stadt","type":"Große_Kreisstadt"},"district":{"key":"08327","name":"Tuttlingen","type":"Landkreis"},"federalState":{"key":"08","name":"Baden-Württemberg"}},{"name":"Mühlsteigstr.","postalCode":"78532","locality":"Tuttlingen","municipality":{"key":"08327050","name":"Tuttlingen, Stadt","type":"Große_Kreisstadt"},"district":{"key":"08327","name":"Tuttlingen","type":"Landkreis"},"federalState":{"key":"08","name":"Baden-Württemberg"}},{"name":"Mühlsteinweg","postalCode":"78532","locality":"Tuttlingen","municipality":{"key":"08327050","name":"Tuttlingen, Stadt","type":"Große_Kreisstadt"},"district":{"key":"08327","name":"Tuttlingen","type":"Landkreis"},"federalState":{"key":"08","name":"Baden-Württemberg"}},{"name":"Nelkenstr.","postalCode":"78532","locality":"Tuttlingen","municipality":{"key":"08327050","name":"Tuttlingen, Stadt","type":"Große_Kreisstadt"},"district":{"key":"08327","name":"Tuttlingen","type":"Landkreis"},"federalState":{"key":"08","name":"Baden-Württemberg"}},{"name":"Nendinger Allee","postalCode":"78532","locality":"Tuttlingen","municipality":{"key":"08327050","name":"Tuttlingen, Stadt","type":"Große_Kreisstadt"},"district":{"key":"08327","name":"Tuttlingen","type":"Landkreis"},"federalState":{"key":"08","name":"Baden-Württemberg"}},{"name":"Neuer Wurzenweg","postalCode":"78532","locality":"Tuttlingen","municipality":{"key":"08327050","name":"Tuttlingen, Stadt","type":"Große_Kreisstadt"},"district":{"key":"08327","name":"Tuttlingen","type":"Landkreis"},"federalState":{"key":"08","name":"Baden-Württemberg"}},{"name":"Neuhauser Str.","postalCode":"78532","locality":"Tuttlingen","municipality":{"key":"08327050","name":"Tuttlingen, Stadt","type":"Große_Kreisstadt"},"district":{"key":"08327","name":"Tuttlingen","type":"Landkreis"},"federalState":{"key":"08","name":"Baden-Württemberg"}},{"name":"Nonnenburgstr.","postalCode":"78532","locality":"Tuttlingen","municipality":{"key":"08327050","name":"Tuttlingen, Stadt","type":"Große_Kreisstadt"},"district":{"key":"08327","name":"Tuttlingen","type":"Landkreis"},"federalState":{"key":"08","name":"Baden-Württemberg"}},{"name":"Ob der Brücke","postalCode":"78532","locality":"Tuttlingen","municipality":{"key":"08327050","name":"Tuttlingen, Stadt","type":"Große_Kreisstadt"},"district":{"key":"08327","name":"Tuttlingen","type":"Landkreis"},"federalState":{"key":"08","name":"Baden-Württemberg"}},{"name":"Oberamteistr.","postalCode":"78532","locality":"Tuttlingen","municipality":{"key":"08327050","name":"Tuttlingen, Stadt","type":"Große_Kreisstadt"},"district":{"key":"08327","name":"Tuttlingen","type":"Landkreis"},"federalState":{"key":"08","name":"Baden-Württemberg"}},{"name":"Obere Gasse","postalCode":"78532","locality":"Tuttlingen","municipality":{"key":"08327050","name":"Tuttlingen, Stadt","type":"Große_Kreisstadt"},"district":{"key":"08327","name":"Tuttlingen","type":"Landkreis"},"federalState":{"key":"08","name":"Baden-Württemberg"}},{"name":"Obere Hauptstr.","postalCode":"78532","locality":"Tuttlingen","municipality":{"key":"08327050","name":"Tuttlingen, Stadt","type":"Große_Kreisstadt"},"district":{"key":"08327","name":"Tuttlingen","type":"Landkreis"},"federalState":{"key":"08","name":"Baden-Württemberg"}},{"name":"Oberer Bann","postalCode":"78532","locality":"Tuttlingen","municipality":{"key":"08327050","name":"Tuttlingen, Stadt","type":"Große_Kreisstadt"},"district":{"key":"08327","name":"Tuttlingen","type":"Landkreis"},"federalState":{"key":"08","name":"Baden-Württemberg"}},{"name":"Oberer Hangweg","postalCode":"78532","locality":"Tuttlingen","municipality":{"key":"08327050","name":"Tuttlingen, Stadt","type":"Große_Kreisstadt"},"district":{"key":"08327","name":"Tuttlingen","type":"Landkreis"},"federalState":{"key":"08","name":"Baden-Württemberg"}},{"name":"Oberer Klammenweg","postalCode":"78532","locality":"Tuttlingen","municipality":{"key":"08327050","name":"Tuttlingen, Stadt","type":"Große_Kreisstadt"},"district":{"key":"08327","name":"Tuttlingen","type":"Landkreis"},"federalState":{"key":"08","name":"Baden-Württemberg"}},{"name":"Obere Vorstadt","postalCode":"78532","locality":"Tuttlingen","municipality":{"key":"08327050","name":"Tuttlingen, Stadt","type":"Große_Kreisstadt"},"district":{"key":"08327","name":"Tuttlingen","type":"Landkreis"},"federalState":{"key":"08","name":"Baden-Württemberg"}},{"name":"Ob.Stichweg","postalCode":"78532","locality":"Tuttlingen","municipality":{"key":"08327050","name":"Tuttlingen, Stadt","type":"Große_Kreisstadt"},"district":{"key":"08327","name":"Tuttlingen","type":"Landkreis"},"federalState":{"key":"08","name":"Baden-Württemberg"}},{"name":"Olgastr.","postalCode":"78532","locality":"Tuttlingen","municipality":{"key":"08327050","name":"Tuttlingen, Stadt","type":"Große_Kreisstadt"},"district":{"key":"08327","name":"Tuttlingen","type":"Landkreis"},"federalState":{"key":"08","name":"Baden-Württemberg"}},{"name":"Ottilienstr.","postalCode":"78532","locality":"Tuttlingen","municipality":{"key":"08327050","name":"Tuttlingen, Stadt","type":"Große_Kreisstadt"},"district":{"key":"08327","name":"Tuttlingen","type":"Landkreis"},"federalState":{"key":"08","name":"Baden-Württemberg"}},{"name":"Otto-Dix-Str.","postalCode":"78532","locality":"Tuttlingen","municipality":{"key":"08327050","name":"Tuttlingen, Stadt","type":"Große_Kreisstadt"},"district":{"key":"08327","name":"Tuttlingen","type":"Landkreis"},"federalState":{"key":"08","name":"Baden-Württemberg"}},{"name":"Palisadenhauweg","postalCode":"78532","locality":"Tuttlingen","municipality":{"key":"08327050","name":"Tuttlingen, Stadt","type":"Große_Kreisstadt"},"district":{"key":"08327","name":"Tuttlingen","type":"Landkreis"},"federalState":{"key":"08","name":"Baden-Württemberg"}},{"name":"Panoramastr.","postalCode":"78532","locality":"Tuttlingen","municipality":{"key":"08327050","name":"Tuttlingen, Stadt","type":"Große_Kreisstadt"},"district":{"key":"08327","name":"Tuttlingen","type":"Landkreis"},"federalState":{"key":"08","name":"Baden-Württemberg"}},{"name":"Paracelsusweg","postalCode":"78532","locality":"Tuttlingen","municipality":{"key":"08327050","name":"Tuttlingen, Stadt","type":"Große_Kreisstadt"},"district":{"key":"08327","name":"Tuttlingen","type":"Landkreis"},"federalState":{"key":"08","name":"Baden-Württemberg"}},{"name":"Paradiestäle","postalCode":"78532","locality":"Tuttlingen","municipality":{"key":"08327050","name":"Tuttlingen, Stadt","type":"Große_Kreisstadt"},"district":{"key":"08327","name":"Tuttlingen","type":"Landkreis"},"federalState":{"key":"08","name":"Baden-Württemberg"}},{"name":"Paul-Ehrlich-Weg","postalCode":"78532","locality":"Tuttlingen","municipality":{"key":"08327050","name":"Tuttlingen, Stadt","type":"Große_Kreisstadt"},"district":{"key":"08327","name":"Tuttlingen","type":"Landkreis"},"federalState":{"key":"08","name":"Baden-Württemberg"}},{"name":"Pestalozzistr.","postalCode":"78532","locality":"Tuttlingen","municipality":{"key":"08327050","name":"Tuttlingen, Stadt","type":"Große_Kreisstadt"},"district":{"key":"08327","name":"Tuttlingen","type":"Landkreis"},"federalState":{"key":"08","name":"Baden-Württemberg"}},{"name":"Peterstr.","postalCode":"78532","locality":"Tuttlingen","municipality":{"key":"08327050","name":"Tuttlingen, Stadt","type":"Große_Kreisstadt"},"district":{"key":"08327","name":"Tuttlingen","type":"Landkreis"},"federalState":{"key":"08","name":"Baden-Württemberg"}},{"name":"Pettenkoferweg","postalCode":"78532","locality":"Tuttlingen","municipality":{"key":"08327050","name":"Tuttlingen, Stadt","type":"Große_Kreisstadt"},"district":{"key":"08327","name":"Tuttlingen","type":"Landkreis"},"federalState":{"key":"08","name":"Baden-Württemberg"}},{"name":"Pfaffennutzenhölzleweg","postalCode":"78532","locality":"Tuttlingen","municipality":{"key":"08327050","name":"Tuttlingen, Stadt","type":"Große_Kreisstadt"},"district":{"key":"08327","name":"Tuttlingen","type":"Landkreis"},"federalState":{"key":"08","name":"Baden-Württemberg"}},{"name":"Pfarrstr.","postalCode":"78532","locality":"Tuttlingen","municipality":{"key":"08327050","name":"Tuttlingen, Stadt","type":"Große_Kreisstadt"},"district":{"key":"08327","name":"Tuttlingen","type":"Landkreis"},"federalState":{"key":"08","name":"Baden-Württemberg"}},{"name":"Pflanzschulweg","postalCode":"78532","locality":"Tuttlingen","municipality":{"key":"08327050","name":"Tuttlingen, Stadt","type":"Große_Kreisstadt"},"district":{"key":"08327","name":"Tuttlingen","type":"Landkreis"},"federalState":{"key":"08","name":"Baden-Württemberg"}},{"name":"Philosophenweg","postalCode":"78532","locality":"Tuttlingen","municipality":{"key":"08327050","name":"Tuttlingen, Stadt","type":"Große_Kreisstadt"},"district":{"key":"08327","name":"Tuttlingen","type":"Landkreis"},"federalState":{"key":"08","name":"Baden-Württemberg"}},{"name":"Plettenbergstr.","postalCode":"78532","locality":"Tuttlingen","municipality":{"key":"08327050","name":"Tuttlingen, Stadt","type":"Große_Kreisstadt"},"district":{"key":"08327","name":"Tuttlingen","type":"Landkreis"},"federalState":{"key":"08","name":"Baden-Württemberg"}},{"name":"Querstr.","postalCode":"78532","locality":"Tuttlingen","municipality":{"key":"08327050","name":"Tuttlingen, Stadt","type":"Große_Kreisstadt"},"district":{"key":"08327","name":"Tuttlingen","type":"Landkreis"},"federalState":{"key":"08","name":"Baden-Württemberg"}},{"name":"Rabenbühlstr.","postalCode":"78532","locality":"Tuttlingen","municipality":{"key":"08327050","name":"Tuttlingen, Stadt","type":"Große_Kreisstadt"},"district":{"key":"08327","name":"Tuttlingen","type":"Landkreis"},"federalState":{"key":"08","name":"Baden-Württemberg"}},{"name":"Rathausgasse","postalCode":"78532","locality":"Tuttlingen","municipality":{"key":"08327050","name":"Tuttlingen, Stadt","type":"Große_Kreisstadt"},"district":{"key":"08327","name":"Tuttlingen","type":"Landkreis"},"federalState":{"key":"08","name":"Baden-Württemberg"}},{"name":"Rathenauplatz","postalCode":"78532","locality":"Tuttlingen","municipality":{"key":"08327050","name":"Tuttlingen, Stadt","type":"Große_Kreisstadt"},"district":{"key":"08327","name":"Tuttlingen","type":"Landkreis"},"federalState":{"key":"08","name":"Baden-Württemberg"}},{"name":"Rechbergstr.","postalCode":"78532","locality":"Tuttlingen","municipality":{"key":"08327050","name":"Tuttlingen, Stadt","type":"Große_Kreisstadt"},"district":{"key":"08327","name":"Tuttlingen","type":"Landkreis"},"federalState":{"key":"08","name":"Baden-Württemberg"}},{"name":"Regerweg","postalCode":"78532","locality":"Tuttlingen","municipality":{"key":"08327050","name":"Tuttlingen, Stadt","type":"Große_Kreisstadt"},"district":{"key":"08327","name":"Tuttlingen","type":"Landkreis"},"federalState":{"key":"08","name":"Baden-Württemberg"}},{"name":"Rehgartenweg","postalCode":"78532","locality":"Tuttlingen","municipality":{"key":"08327050","name":"Tuttlingen, Stadt","type":"Große_Kreisstadt"},"district":{"key":"08327","name":"Tuttlingen","type":"Landkreis"},"federalState":{"key":"08","name":"Baden-Württemberg"}},{"name":"Rembrandtweg","postalCode":"78532","locality":"Tuttlingen","municipality":{"key":"08327050","name":"Tuttlingen, Stadt","type":"Große_Kreisstadt"},"district":{"key":"08327","name":"Tuttlingen","type":"Landkreis"},"federalState":{"key":"08","name":"Baden-Württemberg"}},{"name":"Reutestr.","postalCode":"78532","locality":"Tuttlingen","municipality":{"key":"08327050","name":"Tuttlingen, Stadt","type":"Große_Kreisstadt"},"district":{"key":"08327","name":"Tuttlingen","type":"Landkreis"},"federalState":{"key":"08","name":"Baden-Württemberg"}},{"name":"Richard-Strauss-Weg","postalCode":"78532","locality":"Tuttlingen","municipality":{"key":"08327050","name":"Tuttlingen, Stadt","type":"Große_Kreisstadt"},"district":{"key":"08327","name":"Tuttlingen","type":"Landkreis"},"federalState":{"key":"08","name":"Baden-Württemberg"}},{"name":"Richard-Wagner-Str.","postalCode":"78532","locality":"Tuttlingen","municipality":{"key":"08327050","name":"Tuttlingen, Stadt","type":"Große_Kreisstadt"},"district":{"key":"08327","name":"Tuttlingen","type":"Landkreis"},"federalState":{"key":"08","name":"Baden-Württemberg"}},{"name":"Ringstr.","postalCode":"78532","locality":"Tuttlingen","municipality":{"key":"08327050","name":"Tuttlingen, Stadt","type":"Große_Kreisstadt"},"district":{"key":"08327","name":"Tuttlingen","type":"Landkreis"},"federalState":{"key":"08","name":"Baden-Württemberg"}},{"name":"Risibergstr.","postalCode":"78532","locality":"Tuttlingen","municipality":{"key":"08327050","name":"Tuttlingen, Stadt","type":"Große_Kreisstadt"},"district":{"key":"08327","name":"Tuttlingen","type":"Landkreis"},"federalState":{"key":"08","name":"Baden-Württemberg"}},{"name":"Robert-Bosch-Str.","postalCode":"78532","locality":"Tuttlingen","municipality":{"key":"08327050","name":"Tuttlingen, Stadt","type":"Große_Kreisstadt"},"district":{"key":"08327","name":"Tuttlingen","type":"Landkreis"},"federalState":{"key":"08","name":"Baden-Württemberg"}},{"name":"Robert-Koch-Str.","postalCode":"78532","locality":"Tuttlingen","municipality":{"key":"08327050","name":"Tuttlingen, Stadt","type":"Große_Kreisstadt"},"district":{"key":"08327","name":"Tuttlingen","type":"Landkreis"},"federalState":{"key":"08","name":"Baden-Württemberg"}},{"name":"Röntgenstr.","postalCode":"78532","locality":"Tuttlingen","municipality":{"key":"08327050","name":"Tuttlingen, Stadt","type":"Große_Kreisstadt"},"district":{"key":"08327","name":"Tuttlingen","type":"Landkreis"},"federalState":{"key":"08","name":"Baden-Württemberg"}},{"name":"Rosenstr.","postalCode":"78532","locality":"Tuttlingen","municipality":{"key":"08327050","name":"Tuttlingen, Stadt","type":"Große_Kreisstadt"},"district":{"key":"08327","name":"Tuttlingen","type":"Landkreis"},"federalState":{"key":"08","name":"Baden-Württemberg"}},{"name":"Rotdornweg","postalCode":"78532","locality":"Tuttlingen","municipality":{"key":"08327050","name":"Tuttlingen, Stadt","type":"Große_Kreisstadt"},"district":{"key":"08327","name":"Tuttlingen","type":"Landkreis"},"federalState":{"key":"08","name":"Baden-Württemberg"}},{"name":"Rote Str.","postalCode":"78532","locality":"Tuttlingen","municipality":{"key":"08327050","name":"Tuttlingen, Stadt","type":"Große_Kreisstadt"},"district":{"key":"08327","name":"Tuttlingen","type":"Landkreis"},"federalState":{"key":"08","name":"Baden-Württemberg"}},{"name":"Rotkäppchenweg","postalCode":"78532","locality":"Tuttlingen","municipality":{"key":"08327050","name":"Tuttlingen, Stadt","type":"Große_Kreisstadt"},"district":{"key":"08327","name":"Tuttlingen","type":"Landkreis"},"federalState":{"key":"08","name":"Baden-Württemberg"}},{"name":"Rotwildstr.","postalCode":"78532","locality":"Tuttlingen","municipality":{"key":"08327050","name":"Tuttlingen, Stadt","type":"Große_Kreisstadt"},"district":{"key":"08327","name":"Tuttlingen","type":"Landkreis"},"federalState":{"key":"08","name":"Baden-Württemberg"}},{"name":"Rubensweg","postalCode":"78532","locality":"Tuttlingen","municipality":{"key":"08327050","name":"Tuttlingen, Stadt","type":"Große_Kreisstadt"},"district":{"key":"08327","name":"Tuttlingen","type":"Landkreis"},"federalState":{"key":"08","name":"Baden-Württemberg"}},{"name":"Rudolf-Diesel-Str.","postalCode":"78532","locality":"Tuttlingen","municipality":{"key":"08327050","name":"Tuttlingen, Stadt","type":"Große_Kreisstadt"},"district":{"key":"08327","name":"Tuttlingen","type":"Landkreis"},"federalState":{"key":"08","name":"Baden-Württemberg"}},{"name":"Rudolf-Virchow-Str.","postalCode":"78532","locality":"Tuttlingen","municipality":{"key":"08327050","name":"Tuttlingen, Stadt","type":"Große_Kreisstadt"},"district":{"key":"08327","name":"Tuttlingen","type":"Landkreis"},"federalState":{"key":"08","name":"Baden-Württemberg"}},{"name":"Rumpelstilzchenweg","postalCode":"78532","locality":"Tuttlingen","municipality":{"key":"08327050","name":"Tuttlingen, Stadt","type":"Große_Kreisstadt"},"district":{"key":"08327","name":"Tuttlingen","type":"Landkreis"},"federalState":{"key":"08","name":"Baden-Württemberg"}},{"name":"Rußbergstr.","postalCode":"78532","locality":"Tuttlingen","municipality":{"key":"08327050","name":"Tuttlingen, Stadt","type":"Große_Kreisstadt"},"district":{"key":"08327","name":"Tuttlingen","type":"Landkreis"},"federalState":{"key":"08","name":"Baden-Württemberg"}},{"name":"Salzstr.","postalCode":"78532","locality":"Tuttlingen","municipality":{"key":"08327050","name":"Tuttlingen, Stadt","type":"Große_Kreisstadt"},"district":{"key":"08327","name":"Tuttlingen","type":"Landkreis"},"federalState":{"key":"08","name":"Baden-Württemberg"}},{"name":"Säntisblick","postalCode":"78532","locality":"Tuttlingen","municipality":{"key":"08327050","name":"Tuttlingen, Stadt","type":"Große_Kreisstadt"},"district":{"key":"08327","name":"Tuttlingen","type":"Landkreis"},"federalState":{"key":"08","name":"Baden-Württemberg"}},{"name":"Sattlerstr.","postalCode":"78532","locality":"Tuttlingen","municipality":{"key":"08327050","name":"Tuttlingen, Stadt","type":"Große_Kreisstadt"},"district":{"key":"08327","name":"Tuttlingen","type":"Landkreis"},"federalState":{"key":"08","name":"Baden-Württemberg"}},{"name":"Sauerbruchstr.","postalCode":"78532","locality":"Tuttlingen","municipality":{"key":"08327050","name":"Tuttlingen, Stadt","type":"Große_Kreisstadt"},"district":{"key":"08327","name":"Tuttlingen","type":"Landkreis"},"federalState":{"key":"08","name":"Baden-Württemberg"}},{"name":"Sauplatzweg","postalCode":"78532","locality":"Tuttlingen","municipality":{"key":"08327050","name":"Tuttlingen, Stadt","type":"Große_Kreisstadt"},"district":{"key":"08327","name":"Tuttlingen","type":"Landkreis"},"federalState":{"key":"08","name":"Baden-Württemberg"}},{"name":"Schaffhauser Str.","postalCode":"78532","locality":"Tuttlingen","municipality":{"key":"08327050","name":"Tuttlingen, Stadt","type":"Große_Kreisstadt"},"district":{"key":"08327","name":"Tuttlingen","type":"Landkreis"},"federalState":{"key":"08","name":"Baden-Württemberg"}},{"name":"Schalmenweg","postalCode":"78532","locality":"Tuttlingen","municipality":{"key":"08327050","name":"Tuttlingen, Stadt","type":"Große_Kreisstadt"},"district":{"key":"08327","name":"Tuttlingen","type":"Landkreis"},"federalState":{"key":"08","name":"Baden-Württemberg"}},{"name":"Schauberweg","postalCode":"78532","locality":"Tuttlingen","municipality":{"key":"08327050","name":"Tuttlingen, Stadt","type":"Große_Kreisstadt"},"district":{"key":"08327","name":"Tuttlingen","type":"Landkreis"},"federalState":{"key":"08","name":"Baden-Württemberg"}},{"name":"Schauinslandstr.","postalCode":"78532","locality":"Tuttlingen","municipality":{"key":"08327050","name":"Tuttlingen, Stadt","type":"Große_Kreisstadt"},"district":{"key":"08327","name":"Tuttlingen","type":"Landkreis"},"federalState":{"key":"08","name":"Baden-Württemberg"}},{"name":"Scheffelstr.","postalCode":"78532","locality":"Tuttlingen","municipality":{"key":"08327050","name":"Tuttlingen, Stadt","type":"Große_Kreisstadt"},"district":{"key":"08327","name":"Tuttlingen","type":"Landkreis"},"federalState":{"key":"08","name":"Baden-Württemberg"}},{"name":"Scheibenbühl","postalCode":"78532","locality":"Tuttlingen","municipality":{"key":"08327050","name":"Tuttlingen, Stadt","type":"Große_Kreisstadt"},"district":{"key":"08327","name":"Tuttlingen","type":"Landkreis"},"federalState":{"key":"08","name":"Baden-Württemberg"}},{"name":"Schillerstr.","postalCode":"78532","locality":"Tuttlingen","municipality":{"key":"08327050","name":"Tuttlingen, Stadt","type":"Große_Kreisstadt"},"district":{"key":"08327","name":"Tuttlingen","type":"Landkreis"},"federalState":{"key":"08","name":"Baden-Württemberg"}},{"name":"Schlehenweg","postalCode":"78532","locality":"Tuttlingen","municipality":{"key":"08327050","name":"Tuttlingen, Stadt","type":"Große_Kreisstadt"},"district":{"key":"08327","name":"Tuttlingen","type":"Landkreis"},"federalState":{"key":"08","name":"Baden-Württemberg"}},{"name":"Schleifgasse","postalCode":"78532","locality":"Tuttlingen","municipality":{"key":"08327050","name":"Tuttlingen, Stadt","type":"Große_Kreisstadt"},"district":{"key":"08327","name":"Tuttlingen","type":"Landkreis"},"federalState":{"key":"08","name":"Baden-Württemberg"}},{"name":"Schlößleweg","postalCode":"78532","locality":"Tuttlingen","municipality":{"key":"08327050","name":"Tuttlingen, Stadt","type":"Große_Kreisstadt"},"district":{"key":"08327","name":"Tuttlingen","type":"Landkreis"},"federalState":{"key":"08","name":"Baden-Württemberg"}},{"name":"Schluchseestr.","postalCode":"78532","locality":"Tuttlingen","municipality":{"key":"08327050","name":"Tuttlingen, Stadt","type":"Große_Kreisstadt"},"district":{"key":"08327","name":"Tuttlingen","type":"Landkreis"},"federalState":{"key":"08","name":"Baden-Württemberg"}},{"name":"Schmale Str.","postalCode":"78532","locality":"Tuttlingen","municipality":{"key":"08327050","name":"Tuttlingen, Stadt","type":"Große_Kreisstadt"},"district":{"key":"08327","name":"Tuttlingen","type":"Landkreis"},"federalState":{"key":"08","name":"Baden-Württemberg"}},{"name":"Schneewittchenweg","postalCode":"78532","locality":"Tuttlingen","municipality":{"key":"08327050","name":"Tuttlingen, Stadt","type":"Große_Kreisstadt"},"district":{"key":"08327","name":"Tuttlingen","type":"Landkreis"},"federalState":{"key":"08","name":"Baden-Württemberg"}},{"name":"Schönhalde","postalCode":"78532","locality":"Tuttlingen","municipality":{"key":"08327050","name":"Tuttlingen, Stadt","type":"Große_Kreisstadt"},"district":{"key":"08327","name":"Tuttlingen","type":"Landkreis"},"federalState":{"key":"08","name":"Baden-Württemberg"}},{"name":"Schorenstr.","postalCode":"78532","locality":"Tuttlingen","municipality":{"key":"08327050","name":"Tuttlingen, Stadt","type":"Große_Kreisstadt"},"district":{"key":"08327","name":"Tuttlingen","type":"Landkreis"},"federalState":{"key":"08","name":"Baden-Württemberg"}},{"name":"Schorenweg","postalCode":"78532","locality":"Tuttlingen","municipality":{"key":"08327050","name":"Tuttlingen, Stadt","type":"Große_Kreisstadt"},"district":{"key":"08327","name":"Tuttlingen","type":"Landkreis"},"federalState":{"key":"08","name":"Baden-Württemberg"}},{"name":"Schrotenstr.","postalCode":"78532","locality":"Tuttlingen","municipality":{"key":"08327050","name":"Tuttlingen, Stadt","type":"Große_Kreisstadt"},"district":{"key":"08327","name":"Tuttlingen","type":"Landkreis"},"federalState":{"key":"08","name":"Baden-Württemberg"}},{"name":"Schubertstr.","postalCode":"78532","locality":"Tuttlingen","municipality":{"key":"08327050","name":"Tuttlingen, Stadt","type":"Große_Kreisstadt"},"district":{"key":"08327","name":"Tuttlingen","type":"Landkreis"},"federalState":{"key":"08","name":"Baden-Württemberg"}},{"name":"Schulstr.","postalCode":"78532","locality":"Tuttlingen","municipality":{"key":"08327050","name":"Tuttlingen, Stadt","type":"Große_Kreisstadt"},"district":{"key":"08327","name":"Tuttlingen","type":"Landkreis"},"federalState":{"key":"08","name":"Baden-Württemberg"}},{"name":"Schumannstr.","postalCode":"78532","locality":"Tuttlingen","municipality":{"key":"08327050","name":"Tuttlingen, Stadt","type":"Große_Kreisstadt"},"district":{"key":"08327","name":"Tuttlingen","type":"Landkreis"},"federalState":{"key":"08","name":"Baden-Württemberg"}},{"name":"Schützenstr.","postalCode":"78532","locality":"Tuttlingen","municipality":{"key":"08327050","name":"Tuttlingen, Stadt","type":"Große_Kreisstadt"},"district":{"key":"08327","name":"Tuttlingen","type":"Landkreis"},"federalState":{"key":"08","name":"Baden-Württemberg"}},{"name":"Schwabstr.","postalCode":"78532","locality":"Tuttlingen","municipality":{"key":"08327050","name":"Tuttlingen, Stadt","type":"Große_Kreisstadt"},"district":{"key":"08327","name":"Tuttlingen","type":"Landkreis"},"federalState":{"key":"08","name":"Baden-Württemberg"}},{"name":"Schwarzwaldstr.","postalCode":"78532","locality":"Tuttlingen","municipality":{"key":"08327050","name":"Tuttlingen, Stadt","type":"Große_Kreisstadt"},"district":{"key":"08327","name":"Tuttlingen","type":"Landkreis"},"federalState":{"key":"08","name":"Baden-Württemberg"}},{"name":"Schwenninger Str.","postalCode":"78532","locality":"Tuttlingen","municipality":{"key":"08327050","name":"Tuttlingen, Stadt","type":"Große_Kreisstadt"},"district":{"key":"08327","name":"Tuttlingen","type":"Landkreis"},"federalState":{"key":"08","name":"Baden-Württemberg"}},{"name":"Sektor A","postalCode":"78532","locality":"Tuttlingen","municipality":{"key":"08327050","name":"Tuttlingen, Stadt","type":"Große_Kreisstadt"},"district":{"key":"08327","name":"Tuttlingen","type":"Landkreis"},"federalState":{"key":"08","name":"Baden-Württemberg"}},{"name":"Sektor B","postalCode":"78532","locality":"Tuttlingen","municipality":{"key":"08327050","name":"Tuttlingen, Stadt","type":"Große_Kreisstadt"},"district":{"key":"08327","name":"Tuttlingen","type":"Landkreis"},"federalState":{"key":"08","name":"Baden-Württemberg"}},{"name":"Sektor C","postalCode":"78532","locality":"Tuttlingen","municipality":{"key":"08327050","name":"Tuttlingen, Stadt","type":"Große_Kreisstadt"},"district":{"key":"08327","name":"Tuttlingen","type":"Landkreis"},"federalState":{"key":"08","name":"Baden-Württemberg"}},{"name":"Sektor D","postalCode":"78532","locality":"Tuttlingen","municipality":{"key":"08327050","name":"Tuttlingen, Stadt","type":"Große_Kreisstadt"},"district":{"key":"08327","name":"Tuttlingen","type":"Landkreis"},"federalState":{"key":"08","name":"Baden-Württemberg"}},{"name":"Sektor F","postalCode":"78532","locality":"Tuttlingen","municipality":{"key":"08327050","name":"Tuttlingen, Stadt","type":"Große_Kreisstadt"},"district":{"key":"08327","name":"Tuttlingen","type":"Landkreis"},"federalState":{"key":"08","name":"Baden-Württemberg"}},{"name":"Semersteig","postalCode":"78532","locality":"Tuttlingen","municipality":{"key":"08327050","name":"Tuttlingen, Stadt","type":"Große_Kreisstadt"},"district":{"key":"08327","name":"Tuttlingen","type":"Landkreis"},"federalState":{"key":"08","name":"Baden-Württemberg"}},{"name":"Semmelweisstr.","postalCode":"78532","locality":"Tuttlingen","municipality":{"key":"08327050","name":"Tuttlingen, Stadt","type":"Große_Kreisstadt"},"district":{"key":"08327","name":"Tuttlingen","type":"Landkreis"},"federalState":{"key":"08","name":"Baden-Württemberg"}},{"name":"Sengenbrühlhangweg","postalCode":"78532","locality":"Tuttlingen","municipality":{"key":"08327050","name":"Tuttlingen, Stadt","type":"Große_Kreisstadt"},"district":{"key":"08327","name":"Tuttlingen","type":"Landkreis"},"federalState":{"key":"08","name":"Baden-Württemberg"}},{"name":"Sengenbrühltraufweg","postalCode":"78532","locality":"Tuttlingen","municipality":{"key":"08327050","name":"Tuttlingen, Stadt","type":"Große_Kreisstadt"},"district":{"key":"08327","name":"Tuttlingen","type":"Landkreis"},"federalState":{"key":"08","name":"Baden-Württemberg"}},{"name":"Siedlungsweg","postalCode":"78532","locality":"Tuttlingen","municipality":{"key":"08327050","name":"Tuttlingen, Stadt","type":"Große_Kreisstadt"},"district":{"key":"08327","name":"Tuttlingen","type":"Landkreis"},"federalState":{"key":"08","name":"Baden-Württemberg"}},{"name":"Siegentäleweg","postalCode":"78532","locality":"Tuttlingen","municipality":{"key":"08327050","name":"Tuttlingen, Stadt","type":"Große_Kreisstadt"},"district":{"key":"08327","name":"Tuttlingen","type":"Landkreis"},"federalState":{"key":"08","name":"Baden-Württemberg"}},{"name":"Siemensstr.","postalCode":"78532","locality":"Tuttlingen","municipality":{"key":"08327050","name":"Tuttlingen, Stadt","type":"Große_Kreisstadt"},"district":{"key":"08327","name":"Tuttlingen","type":"Landkreis"},"federalState":{"key":"08","name":"Baden-Württemberg"}},{"name":"Sigmund-Freud-Str.","postalCode":"78532","locality":"Tuttlingen","municipality":{"key":"08327050","name":"Tuttlingen, Stadt","type":"Große_Kreisstadt"},"district":{"key":"08327","name":"Tuttlingen","type":"Landkreis"},"federalState":{"key":"08","name":"Baden-Württemberg"}},{"name":"Silcherstr.","postalCode":"78532","locality":"Tuttlingen","municipality":{"key":"08327050","name":"Tuttlingen, Stadt","type":"Große_Kreisstadt"},"district":{"key":"08327","name":"Tuttlingen","type":"Landkreis"},"federalState":{"key":"08","name":"Baden-Württemberg"}},{"name":"Singener Str.","postalCode":"78532","locality":"Tuttlingen","municipality":{"key":"08327050","name":"Tuttlingen, Stadt","type":"Große_Kreisstadt"},"district":{"key":"08327","name":"Tuttlingen","type":"Landkreis"},"federalState":{"key":"08","name":"Baden-Württemberg"}},{"name":"Sommerberg","postalCode":"78532","locality":"Tuttlingen","municipality":{"key":"08327050","name":"Tuttlingen, Stadt","type":"Große_Kreisstadt"},"district":{"key":"08327","name":"Tuttlingen","type":"Landkreis"},"federalState":{"key":"08","name":"Baden-Württemberg"}},{"name":"Sonnhalde","postalCode":"78532","locality":"Tuttlingen","municipality":{"key":"08327050","name":"Tuttlingen, Stadt","type":"Große_Kreisstadt"},"district":{"key":"08327","name":"Tuttlingen","type":"Landkreis"},"federalState":{"key":"08","name":"Baden-Württemberg"}},{"name":"Spitzigkäpfleweg","postalCode":"78532","locality":"Tuttlingen","municipality":{"key":"08327050","name":"Tuttlingen, Stadt","type":"Große_Kreisstadt"},"district":{"key":"08327","name":"Tuttlingen","type":"Landkreis"},"federalState":{"key":"08","name":"Baden-Württemberg"}},{"name":"Stadionstr.","postalCode":"78532","locality":"Tuttlingen","municipality":{"key":"08327050","name":"Tuttlingen, Stadt","type":"Große_Kreisstadt"},"district":{"key":"08327","name":"Tuttlingen","type":"Landkreis"},"federalState":{"key":"08","name":"Baden-Württemberg"}},{"name":"Stadtgarten","postalCode":"78532","locality":"Tuttlingen","municipality":{"key":"08327050","name":"Tuttlingen, Stadt","type":"Große_Kreisstadt"},"district":{"key":"08327","name":"Tuttlingen","type":"Landkreis"},"federalState":{"key":"08","name":"Baden-Württemberg"}},{"name":"Stadtkirchstr.","postalCode":"78532","locality":"Tuttlingen","municipality":{"key":"08327050","name":"Tuttlingen, Stadt","type":"Große_Kreisstadt"},"district":{"key":"08327","name":"Tuttlingen","type":"Landkreis"},"federalState":{"key":"08","name":"Baden-Württemberg"}},{"name":"Talheimer Str.","postalCode":"78532","locality":"Tuttlingen","municipality":{"key":"08327050","name":"Tuttlingen, Stadt","type":"Große_Kreisstadt"},"district":{"key":"08327","name":"Tuttlingen","type":"Landkreis"},"federalState":{"key":"08","name":"Baden-Württemberg"}},{"name":"Talstr.","postalCode":"78532","locality":"Tuttlingen","municipality":{"key":"08327050","name":"Tuttlingen, Stadt","type":"Große_Kreisstadt"},"district":{"key":"08327","name":"Tuttlingen","type":"Landkreis"},"federalState":{"key":"08","name":"Baden-Württemberg"}},{"name":"Tannenweg","postalCode":"78532","locality":"Tuttlingen","municipality":{"key":"08327050","name":"Tuttlingen, Stadt","type":"Große_Kreisstadt"},"district":{"key":"08327","name":"Tuttlingen","type":"Landkreis"},"federalState":{"key":"08","name":"Baden-Württemberg"}},{"name":"Theodor-Heuss-Allee","postalCode":"78532","locality":"Tuttlingen","municipality":{"key":"08327050","name":"Tuttlingen, Stadt","type":"Große_Kreisstadt"},"district":{"key":"08327","name":"Tuttlingen","type":"Landkreis"},"federalState":{"key":"08","name":"Baden-Württemberg"}},{"name":"Titiseestr.","postalCode":"78532","locality":"Tuttlingen","municipality":{"key":"08327050","name":"Tuttlingen, Stadt","type":"Große_Kreisstadt"},"district":{"key":"08327","name":"Tuttlingen","type":"Landkreis"},"federalState":{"key":"08","name":"Baden-Württemberg"}},{"name":"Trossinger Str.","postalCode":"78532","locality":"Tuttlingen","municipality":{"key":"08327050","name":"Tuttlingen, Stadt","type":"Große_Kreisstadt"},"district":{"key":"08327","name":"Tuttlingen","type":"Landkreis"},"federalState":{"key":"08","name":"Baden-Württemberg"}},{"name":"Uberstr.","postalCode":"78532","locality":"Tuttlingen","municipality":{"key":"08327050","name":"Tuttlingen, Stadt","type":"Große_Kreisstadt"},"district":{"key":"08327","name":"Tuttlingen","type":"Landkreis"},"federalState":{"key":"08","name":"Baden-Württemberg"}},{"name":"Uhlandstr.","postalCode":"78532","locality":"Tuttlingen","municipality":{"key":"08327050","name":"Tuttlingen, Stadt","type":"Große_Kreisstadt"},"district":{"key":"08327","name":"Tuttlingen","type":"Landkreis"},"federalState":{"key":"08","name":"Baden-Württemberg"}},{"name":"Ulmenweg","postalCode":"78532","locality":"Tuttlingen","municipality":{"key":"08327050","name":"Tuttlingen, Stadt","type":"Große_Kreisstadt"},"district":{"key":"08327","name":"Tuttlingen","type":"Landkreis"},"federalState":{"key":"08","name":"Baden-Württemberg"}},{"name":"Ulrichstr.","postalCode":"78532","locality":"Tuttlingen","municipality":{"key":"08327050","name":"Tuttlingen, Stadt","type":"Große_Kreisstadt"},"district":{"key":"08327","name":"Tuttlingen","type":"Landkreis"},"federalState":{"key":"08","name":"Baden-Württemberg"}},{"name":"Unter Buchsteig","postalCode":"78532","locality":"Tuttlingen","municipality":{"key":"08327050","name":"Tuttlingen, Stadt","type":"Große_Kreisstadt"},"district":{"key":"08327","name":"Tuttlingen","type":"Landkreis"},"federalState":{"key":"08","name":"Baden-Württemberg"}},{"name":"Unter dem Hägle","postalCode":"78532","locality":"Tuttlingen","municipality":{"key":"08327050","name":"Tuttlingen, Stadt","type":"Große_Kreisstadt"},"district":{"key":"08327","name":"Tuttlingen","type":"Landkreis"},"federalState":{"key":"08","name":"Baden-Württemberg"}},{"name":"Untere Hauptstr.","postalCode":"78532","locality":"Tuttlingen","municipality":{"key":"08327050","name":"Tuttlingen, Stadt","type":"Große_Kreisstadt"},"district":{"key":"08327","name":"Tuttlingen","type":"Landkreis"},"federalState":{"key":"08","name":"Baden-Württemberg"}},{"name":"Unterer Hangweg","postalCode":"78532","locality":"Tuttlingen","municipality":{"key":"08327050","name":"Tuttlingen, Stadt","type":"Große_Kreisstadt"},"district":{"key":"08327","name":"Tuttlingen","type":"Landkreis"},"federalState":{"key":"08","name":"Baden-Württemberg"}},{"name":"Unterer Klammenweg","postalCode":"78532","locality":"Tuttlingen","municipality":{"key":"08327050","name":"Tuttlingen, Stadt","type":"Große_Kreisstadt"},"district":{"key":"08327","name":"Tuttlingen","type":"Landkreis"},"federalState":{"key":"08","name":"Baden-Württemberg"}},{"name":"Untere Vorstadt","postalCode":"78532","locality":"Tuttlingen","municipality":{"key":"08327050","name":"Tuttlingen, Stadt","type":"Große_Kreisstadt"},"district":{"key":"08327","name":"Tuttlingen","type":"Landkreis"},"federalState":{"key":"08","name":"Baden-Württemberg"}},{"name":"Unter Haßlen","postalCode":"78532","locality":"Tuttlingen","municipality":{"key":"08327050","name":"Tuttlingen, Stadt","type":"Große_Kreisstadt"},"district":{"key":"08327","name":"Tuttlingen","type":"Landkreis"},"federalState":{"key":"08","name":"Baden-Württemberg"}},{"name":"Unter Hoch","postalCode":"78532","locality":"Tuttlingen","municipality":{"key":"08327050","name":"Tuttlingen, Stadt","type":"Große_Kreisstadt"},"district":{"key":"08327","name":"Tuttlingen","type":"Landkreis"},"federalState":{"key":"08","name":"Baden-Württemberg"}},{"name":"Unter Jennung","postalCode":"78532","locality":"Tuttlingen","municipality":{"key":"08327050","name":"Tuttlingen, Stadt","type":"Große_Kreisstadt"},"district":{"key":"08327","name":"Tuttlingen","type":"Landkreis"},"federalState":{"key":"08","name":"Baden-Württemberg"}},{"name":"Unterm Häldele","postalCode":"78532","locality":"Tuttlingen","municipality":{"key":"08327050","name":"Tuttlingen, Stadt","type":"Große_Kreisstadt"},"district":{"key":"08327","name":"Tuttlingen","type":"Landkreis"},"federalState":{"key":"08","name":"Baden-Württemberg"}},{"name":"Ursentalstr.","postalCode":"78532","locality":"Tuttlingen","municipality":{"key":"08327050","name":"Tuttlingen, Stadt","type":"Große_Kreisstadt"},"district":{"key":"08327","name":"Tuttlingen","type":"Landkreis"},"federalState":{"key":"08","name":"Baden-Württemberg"}},{"name":"Vogelsangweg","postalCode":"78532","locality":"Tuttlingen","municipality":{"key":"08327050","name":"Tuttlingen, Stadt","type":"Große_Kreisstadt"},"district":{"key":"08327","name":"Tuttlingen","type":"Landkreis"},"federalState":{"key":"08","name":"Baden-Württemberg"}},{"name":"Vogt's Mistweg","postalCode":"78532","locality":"Tuttlingen","municipality":{"key":"08327050","name":"Tuttlingen, Stadt","type":"Große_Kreisstadt"},"district":{"key":"08327","name":"Tuttlingen","type":"Landkreis"},"federalState":{"key":"08","name":"Baden-Württemberg"}},{"name":"Waaghausstr.","postalCode":"78532","locality":"Tuttlingen","municipality":{"key":"08327050","name":"Tuttlingen, Stadt","type":"Große_Kreisstadt"},"district":{"key":"08327","name":"Tuttlingen","type":"Landkreis"},"federalState":{"key":"08","name":"Baden-Württemberg"}},{"name":"Wagenstr.","postalCode":"78532","locality":"Tuttlingen","municipality":{"key":"08327050","name":"Tuttlingen, Stadt","type":"Große_Kreisstadt"},"district":{"key":"08327","name":"Tuttlingen","type":"Landkreis"},"federalState":{"key":"08","name":"Baden-Württemberg"}},{"name":"Waidhofener Str.","postalCode":"78532","locality":"Tuttlingen","municipality":{"key":"08327050","name":"Tuttlingen, Stadt","type":"Große_Kreisstadt"},"district":{"key":"08327","name":"Tuttlingen","type":"Landkreis"},"federalState":{"key":"08","name":"Baden-Württemberg"}},{"name":"Waldstr.","postalCode":"78532","locality":"Tuttlingen","municipality":{"key":"08327050","name":"Tuttlingen, Stadt","type":"Große_Kreisstadt"},"district":{"key":"08327","name":"Tuttlingen","type":"Landkreis"},"federalState":{"key":"08","name":"Baden-Württemberg"}},{"name":"Wallenburgweg","postalCode":"78532","locality":"Tuttlingen","municipality":{"key":"08327050","name":"Tuttlingen, Stadt","type":"Große_Kreisstadt"},"district":{"key":"08327","name":"Tuttlingen","type":"Landkreis"},"federalState":{"key":"08","name":"Baden-Württemberg"}},{"name":"Wartenbergstr.","postalCode":"78532","locality":"Tuttlingen","municipality":{"key":"08327050","name":"Tuttlingen, Stadt","type":"Große_Kreisstadt"},"district":{"key":"08327","name":"Tuttlingen","type":"Landkreis"},"federalState":{"key":"08","name":"Baden-Württemberg"}},{"name":"Wasserstiege","postalCode":"78532","locality":"Tuttlingen","municipality":{"key":"08327050","name":"Tuttlingen, Stadt","type":"Große_Kreisstadt"},"district":{"key":"08327","name":"Tuttlingen","type":"Landkreis"},"federalState":{"key":"08","name":"Baden-Württemberg"}},{"name":"Weilatten","postalCode":"78532","locality":"Tuttlingen","municipality":{"key":"08327050","name":"Tuttlingen, Stadt","type":"Große_Kreisstadt"},"district":{"key":"08327","name":"Tuttlingen","type":"Landkreis"},"federalState":{"key":"08","name":"Baden-Württemberg"}},{"name":"Weimarstr.","postalCode":"78532","locality":"Tuttlingen","municipality":{"key":"08327050","name":"Tuttlingen, Stadt","type":"Große_Kreisstadt"},"district":{"key":"08327","name":"Tuttlingen","type":"Landkreis"},"federalState":{"key":"08","name":"Baden-Württemberg"}},{"name":"Weißdornweg","postalCode":"78532","locality":"Tuttlingen","municipality":{"key":"08327050","name":"Tuttlingen, Stadt","type":"Große_Kreisstadt"},"district":{"key":"08327","name":"Tuttlingen","type":"Landkreis"},"federalState":{"key":"08","name":"Baden-Württemberg"}},{"name":"Weißrosenstr.","postalCode":"78532","locality":"Tuttlingen","municipality":{"key":"08327050","name":"Tuttlingen, Stadt","type":"Große_Kreisstadt"},"district":{"key":"08327","name":"Tuttlingen","type":"Landkreis"},"federalState":{"key":"08","name":"Baden-Württemberg"}},{"name":"Wendelsgrundweg","postalCode":"78532","locality":"Tuttlingen","municipality":{"key":"08327050","name":"Tuttlingen, Stadt","type":"Große_Kreisstadt"},"district":{"key":"08327","name":"Tuttlingen","type":"Landkreis"},"federalState":{"key":"08","name":"Baden-Württemberg"}},{"name":"Werderstr.","postalCode":"78532","locality":"Tuttlingen","municipality":{"key":"08327050","name":"Tuttlingen, Stadt","type":"Große_Kreisstadt"},"district":{"key":"08327","name":"Tuttlingen","type":"Landkreis"},"federalState":{"key":"08","name":"Baden-Württemberg"}},{"name":"Werenwagstr.","postalCode":"78532","locality":"Tuttlingen","municipality":{"key":"08327050","name":"Tuttlingen, Stadt","type":"Große_Kreisstadt"},"district":{"key":"08327","name":"Tuttlingen","type":"Landkreis"},"federalState":{"key":"08","name":"Baden-Württemberg"}},{"name":"Widerholdstr.","postalCode":"78532","locality":"Tuttlingen","municipality":{"key":"08327050","name":"Tuttlingen, Stadt","type":"Große_Kreisstadt"},"district":{"key":"08327","name":"Tuttlingen","type":"Landkreis"},"federalState":{"key":"08","name":"Baden-Württemberg"}},{"name":"Wiechertstr.","postalCode":"78532","locality":"Tuttlingen","municipality":{"key":"08327050","name":"Tuttlingen, Stadt","type":"Große_Kreisstadt"},"district":{"key":"08327","name":"Tuttlingen","type":"Landkreis"},"federalState":{"key":"08","name":"Baden-Württemberg"}},{"name":"Wielandstr.","postalCode":"78532","locality":"Tuttlingen","municipality":{"key":"08327050","name":"Tuttlingen, Stadt","type":"Große_Kreisstadt"},"district":{"key":"08327","name":"Tuttlingen","type":"Landkreis"},"federalState":{"key":"08","name":"Baden-Württemberg"}},{"name":"Wieselweg","postalCode":"78532","locality":"Tuttlingen","municipality":{"key":"08327050","name":"Tuttlingen, Stadt","type":"Große_Kreisstadt"},"district":{"key":"08327","name":"Tuttlingen","type":"Landkreis"},"federalState":{"key":"08","name":"Baden-Württemberg"}},{"name":"Wildensteinstr.","postalCode":"78532","locality":"Tuttlingen","municipality":{"key":"08327050","name":"Tuttlingen, Stadt","type":"Große_Kreisstadt"},"district":{"key":"08327","name":"Tuttlingen","type":"Landkreis"},"federalState":{"key":"08","name":"Baden-Württemberg"}},{"name":"Wilhelm-Hauff-Weg","postalCode":"78532","locality":"Tuttlingen","municipality":{"key":"08327050","name":"Tuttlingen, Stadt","type":"Große_Kreisstadt"},"district":{"key":"08327","name":"Tuttlingen","type":"Landkreis"},"federalState":{"key":"08","name":"Baden-Württemberg"}},{"name":"Wilhelm-Leuschner-Str.","postalCode":"78532","locality":"Tuttlingen","municipality":{"key":"08327050","name":"Tuttlingen, Stadt","type":"Große_Kreisstadt"},"district":{"key":"08327","name":"Tuttlingen","type":"Landkreis"},"federalState":{"key":"08","name":"Baden-Württemberg"}},{"name":"Wilhelm-Nagel-Weg","postalCode":"78532","locality":"Tuttlingen","municipality":{"key":"08327050","name":"Tuttlingen, Stadt","type":"Große_Kreisstadt"},"district":{"key":"08327","name":"Tuttlingen","type":"Landkreis"},"federalState":{"key":"08","name":"Baden-Württemberg"}},{"name":"Wilhelmstr.","postalCode":"78532","locality":"Tuttlingen","municipality":{"key":"08327050","name":"Tuttlingen, Stadt","type":"Große_Kreisstadt"},"district":{"key":"08327","name":"Tuttlingen","type":"Landkreis"},"federalState":{"key":"08","name":"Baden-Württemberg"}},{"name":"Winkelgasse","postalCode":"78532","locality":"Tuttlingen","municipality":{"key":"08327050","name":"Tuttlingen, Stadt","type":"Große_Kreisstadt"},"district":{"key":"08327","name":"Tuttlingen","type":"Landkreis"},"federalState":{"key":"08","name":"Baden-Württemberg"}},{"name":"Winterhaldenweg","postalCode":"78532","locality":"Tuttlingen","municipality":{"key":"08327050","name":"Tuttlingen, Stadt","type":"Große_Kreisstadt"},"district":{"key":"08327","name":"Tuttlingen","type":"Landkreis"},"federalState":{"key":"08","name":"Baden-Württemberg"}},{"name":"Witthautraufweg","postalCode":"78532","locality":"Tuttlingen","municipality":{"key":"08327050","name":"Tuttlingen, Stadt","type":"Große_Kreisstadt"},"district":{"key":"08327","name":"Tuttlingen","type":"Landkreis"},"federalState":{"key":"08","name":"Baden-Württemberg"}},{"name":"Witthohsteige","postalCode":"78532","locality":"Tuttlingen","municipality":{"key":"08327050","name":"Tuttlingen, Stadt","type":"Große_Kreisstadt"},"district":{"key":"08327","name":"Tuttlingen","type":"Landkreis"},"federalState":{"key":"08","name":"Baden-Württemberg"}},{"name":"Wöhrdenbrücke","postalCode":"78532","locality":"Tuttlingen","municipality":{"key":"08327050","name":"Tuttlingen, Stadt","type":"Große_Kreisstadt"},"district":{"key":"08327","name":"Tuttlingen","type":"Landkreis"},"federalState":{"key":"08","name":"Baden-Württemberg"}},{"name":"Wurzenweg","postalCode":"78532","locality":"Tuttlingen","municipality":{"key":"08327050","name":"Tuttlingen, Stadt","type":"Große_Kreisstadt"},"district":{"key":"08327","name":"Tuttlingen","type":"Landkreis"},"federalState":{"key":"08","name":"Baden-Württemberg"}},{"name":"Zelterweg","postalCode":"78532","locality":"Tuttlingen","municipality":{"key":"08327050","name":"Tuttlingen, Stadt","type":"Große_Kreisstadt"},"district":{"key":"08327","name":"Tuttlingen","type":"Landkreis"},"federalState":{"key":"08","name":"Baden-Württemberg"}},{"name":"Zeppelinstr.","postalCode":"78532","locality":"Tuttlingen","municipality":{"key":"08327050","name":"Tuttlingen, Stadt","type":"Große_Kreisstadt"},"district":{"key":"08327","name":"Tuttlingen","type":"Landkreis"},"federalState":{"key":"08","name":"Baden-Württemberg"}},{"name":"Zeughausstr.","postalCode":"78532","locality":"Tuttlingen","municipality":{"key":"08327050","name":"Tuttlingen, Stadt","type":"Große_Kreisstadt"},"district":{"key":"08327","name":"Tuttlingen","type":"Landkreis"},"federalState":{"key":"08","name":"Baden-Württemberg"}},{"name":"Ziegeleiweg","postalCode":"78532","locality":"Tuttlingen","municipality":{"key":"08327050","name":"Tuttlingen, Stadt","type":"Große_Kreisstadt"},"district":{"key":"08327","name":"Tuttlingen","type":"Landkreis"},"federalState":{"key":"08","name":"Baden-Württemberg"}},{"name":"Ziegelweg","postalCode":"78532","locality":"Tuttlingen","municipality":{"key":"08327050","name":"Tuttlingen, Stadt","type":"Große_Kreisstadt"},"district":{"key":"08327","name":"Tuttlingen","type":"Landkreis"},"federalState":{"key":"08","name":"Baden-Württemberg"}},{"name":"Zirkelweg","postalCode":"78532","locality":"Tuttlingen","municipality":{"key":"08327050","name":"Tuttlingen, Stadt","type":"Große_Kreisstadt"},"district":{"key":"08327","name":"Tuttlingen","type":"Landkreis"},"federalState":{"key":"08","name":"Baden-Württemberg"}},{"name":"Zollernstr.","postalCode":"78532","locality":"Tuttlingen","municipality":{"key":"08327050","name":"Tuttlingen, Stadt","type":"Große_Kreisstadt"},"district":{"key":"08327","name":"Tuttlingen","type":"Landkreis"},"federalState":{"key":"08","name":"Baden-Württemberg"}},{"name":"Zur Widum","postalCode":"78532","locality":"Tuttlingen","municipality":{"key":"08327050","name":"Tuttlingen, Stadt","type":"Große_Kreisstadt"},"district":{"key":"08327","name":"Tuttlingen","type":"Landkreis"},"federalState":{"key":"08","name":"Baden-Württemberg"}},]