[{"name":"Am Pflatterbach","postalCode":"91632","locality":"Wieseth","municipality":{"key":"09571223","name":"Wieseth","type":"Kreisangehörige_Gemeinde"},"district":{"key":"09571","name":"Ansbach","type":"Landkreis"},"federalState":{"key":"09","name":"Bayern"}},{"name":"Bratfeldstr.","postalCode":"91632","locality":"Wieseth","municipality":{"key":"09571223","name":"Wieseth","type":"Kreisangehörige_Gemeinde"},"district":{"key":"09571","name":"Ansbach","type":"Landkreis"},"federalState":{"key":"09","name":"Bayern"}},{"name":"Burker Str.","postalCode":"91632","locality":"Wieseth","municipality":{"key":"09571223","name":"Wieseth","type":"Kreisangehörige_Gemeinde"},"district":{"key":"09571","name":"Ansbach","type":"Landkreis"},"federalState":{"key":"09","name":"Bayern"}},{"name":"Charlottenhöhe","postalCode":"91522","locality":"Ansbach","municipality":{"key":"09561000","name":"Ansbach","type":"Kreisfreie_Stadt"},"district":{"key":"09561","name":"Ansbach","type":"Kreisfreie_Stadt"},"federalState":{"key":"09","name":"Bayern"}},{"name":"Charlottenstr.","postalCode":"91522","locality":"Ansbach","municipality":{"key":"09561000","name":"Ansbach","type":"Kreisfreie_Stadt"},"district":{"key":"09561","name":"Ansbach","type":"Kreisfreie_Stadt"},"federalState":{"key":"09","name":"Bayern"}},{"name":"Christian-Sturm-Str.","postalCode":"91522","locality":"Ansbach","municipality":{"key":"09561000","name":"Ansbach","type":"Kreisfreie_Stadt"},"district":{"key":"09561","name":"Ansbach","type":"Kreisfreie_Stadt"},"federalState":{"key":"09","name":"Bayern"}},{"name":"Claffheim","postalCode":"91522","locality":"Ansbach","municipality":{"key":"09561000","name":"Ansbach","type":"Kreisfreie_Stadt"},"district":{"key":"09561","name":"Ansbach","type":"Kreisfreie_Stadt"},"federalState":{"key":"09","name":"Bayern"}},{"name":"Crailsheimstr.","postalCode":"91522","locality":"Ansbach","municipality":{"key":"09561000","name":"Ansbach","type":"Kreisfreie_Stadt"},"district":{"key":"09561","name":"Ansbach","type":"Kreisfreie_Stadt"},"federalState":{"key":"09","name":"Bayern"}},{"name":"Cronegkstr.","postalCode":"91522","locality":"Ansbach","municipality":{"key":"09561000","name":"Ansbach","type":"Kreisfreie_Stadt"},"district":{"key":"09561","name":"Ansbach","type":"Kreisfreie_Stadt"},"federalState":{"key":"09","name":"Bayern"}},{"name":"Deffersdorf","postalCode":"91632","locality":"Wieseth","municipality":{"key":"09571223","name":"Wieseth","type":"Kreisangehörige_Gemeinde"},"district":{"key":"09571","name":"Ansbach","type":"Landkreis"},"federalState":{"key":"09","name":"Bayern"}},{"name":"Deffersdorfer Weg","postalCode":"91632","locality":"Wieseth","municipality":{"key":"09571223","name":"Wieseth","type":"Kreisangehörige_Gemeinde"},"district":{"key":"09571","name":"Ansbach","type":"Landkreis"},"federalState":{"key":"09","name":"Bayern"}},{"name":"Dentleiner Str.","postalCode":"91632","locality":"Wieseth","municipality":{"key":"09571223","name":"Wieseth","type":"Kreisangehörige_Gemeinde"},"district":{"key":"09571","name":"Ansbach","type":"Landkreis"},"federalState":{"key":"09","name":"Bayern"}},{"name":"Egerlandstr.","postalCode":"91522","locality":"Ansbach","municipality":{"key":"09561000","name":"Ansbach","type":"Kreisfreie_Stadt"},"district":{"key":"09561","name":"Ansbach","type":"Kreisfreie_Stadt"},"federalState":{"key":"09","name":"Bayern"}},{"name":"Egloffswinder Str.","postalCode":"91522","locality":"Ansbach","municipality":{"key":"09561000","name":"Ansbach","type":"Kreisfreie_Stadt"},"district":{"key":"09561","name":"Ansbach","type":"Kreisfreie_Stadt"},"federalState":{"key":"09","name":"Bayern"}},{"name":"Eichenbachstr.","postalCode":"91522","locality":"Ansbach","municipality":{"key":"09561000","name":"Ansbach","type":"Kreisfreie_Stadt"},"district":{"key":"09561","name":"Ansbach","type":"Kreisfreie_Stadt"},"federalState":{"key":"09","name":"Bayern"}},{"name":"Eichendorffstr.","postalCode":"91522","locality":"Ansbach","municipality":{"key":"09561000","name":"Ansbach","type":"Kreisfreie_Stadt"},"district":{"key":"09561","name":"Ansbach","type":"Kreisfreie_Stadt"},"federalState":{"key":"09","name":"Bayern"}},{"name":"Eichenstr.","postalCode":"91522","locality":"Ansbach","municipality":{"key":"09561000","name":"Ansbach","type":"Kreisfreie_Stadt"},"district":{"key":"09561","name":"Ansbach","type":"Kreisfreie_Stadt"},"federalState":{"key":"09","name":"Bayern"}},{"name":"Eichenstr.","postalCode":"91623","locality":"Sachsen bei Ansbach","municipality":{"key":"09571196","name":"Sachsen b.Ansbach","type":"Kreisangehörige_Gemeinde"},"district":{"key":"09571","name":"Ansbach","type":"Landkreis"},"federalState":{"key":"09","name":"Bayern"}},{"name":"Eichgarten","postalCode":"56235","locality":"Ransbach-Baumbach","municipality":{"key":"07143062","name":"Ransbach-Baumbach, Stadt","type":"Stadt"},"district":{"key":"07143","name":"Westerwaldkreis","type":"Landkreis"},"federalState":{"key":"07","name":"Rheinland-Pfalz"}},{"name":"Eifelstr.","postalCode":"56235","locality":"Ransbach-Baumbach","municipality":{"key":"07143062","name":"Ransbach-Baumbach, Stadt","type":"Stadt"},"district":{"key":"07143","name":"Westerwaldkreis","type":"Landkreis"},"federalState":{"key":"07","name":"Rheinland-Pfalz"}},{"name":"Elpersdorfer Schneise","postalCode":"91522","locality":"Ansbach","municipality":{"key":"09561000","name":"Ansbach","type":"Kreisfreie_Stadt"},"district":{"key":"09561","name":"Ansbach","type":"Kreisfreie_Stadt"},"federalState":{"key":"09","name":"Bayern"}},{"name":"Elspergerstr.","postalCode":"91522","locality":"Ansbach","municipality":{"key":"09561000","name":"Ansbach","type":"Kreisfreie_Stadt"},"district":{"key":"09561","name":"Ansbach","type":"Kreisfreie_Stadt"},"federalState":{"key":"09","name":"Bayern"}},{"name":"Eltwinstr.","postalCode":"91522","locality":"Ansbach","municipality":{"key":"09561000","name":"Ansbach","type":"Kreisfreie_Stadt"},"district":{"key":"09561","name":"Ansbach","type":"Kreisfreie_Stadt"},"federalState":{"key":"09","name":"Bayern"}},{"name":"Endresstr.","postalCode":"91522","locality":"Ansbach","municipality":{"key":"09561000","name":"Ansbach","type":"Kreisfreie_Stadt"},"district":{"key":"09561","name":"Ansbach","type":"Kreisfreie_Stadt"},"federalState":{"key":"09","name":"Bayern"}},{"name":"Erlbachweg","postalCode":"91623","locality":"Sachsen bei Ansbach","municipality":{"key":"09571196","name":"Sachsen b.Ansbach","type":"Kreisangehörige_Gemeinde"},"district":{"key":"09571","name":"Ansbach","type":"Landkreis"},"federalState":{"key":"09","name":"Bayern"}},{"name":"Erlenhofstr.","postalCode":"56235","locality":"Ransbach-Baumbach","municipality":{"key":"07143062","name":"Ransbach-Baumbach, Stadt","type":"Stadt"},"district":{"key":"07143","name":"Westerwaldkreis","type":"Landkreis"},"federalState":{"key":"07","name":"Rheinland-Pfalz"}},{"name":"Ernst-Körner-Ring","postalCode":"91522","locality":"Ansbach","municipality":{"key":"09561000","name":"Ansbach","type":"Kreisfreie_Stadt"},"district":{"key":"09561","name":"Ansbach","type":"Kreisfreie_Stadt"},"federalState":{"key":"09","name":"Bayern"}},{"name":"Eschenstr.","postalCode":"91522","locality":"Ansbach","municipality":{"key":"09561000","name":"Ansbach","type":"Kreisfreie_Stadt"},"district":{"key":"09561","name":"Ansbach","type":"Kreisfreie_Stadt"},"federalState":{"key":"09","name":"Bayern"}},{"name":"Eschenweg","postalCode":"91623","locality":"Sachsen bei Ansbach","municipality":{"key":"09571196","name":"Sachsen b.Ansbach","type":"Kreisangehörige_Gemeinde"},"district":{"key":"09571","name":"Ansbach","type":"Landkreis"},"federalState":{"key":"09","name":"Bayern"}},{"name":"Escherichstr.","postalCode":"91522","locality":"Ansbach","municipality":{"key":"09561000","name":"Ansbach","type":"Kreisfreie_Stadt"},"district":{"key":"09561","name":"Ansbach","type":"Kreisfreie_Stadt"},"federalState":{"key":"09","name":"Bayern"}},{"name":"Eulenweg","postalCode":"91522","locality":"Ansbach","municipality":{"key":"09561000","name":"Ansbach","type":"Kreisfreie_Stadt"},"district":{"key":"09561","name":"Ansbach","type":"Kreisfreie_Stadt"},"federalState":{"key":"09","name":"Bayern"}},{"name":"Eulerstr.","postalCode":"56235","locality":"Ransbach-Baumbach","municipality":{"key":"07143062","name":"Ransbach-Baumbach, Stadt","type":"Stadt"},"district":{"key":"07143","name":"Westerwaldkreis","type":"Landkreis"},"federalState":{"key":"07","name":"Rheinland-Pfalz"}},{"name":"Eyber Str.","postalCode":"91522","locality":"Ansbach","municipality":{"key":"09561000","name":"Ansbach","type":"Kreisfreie_Stadt"},"district":{"key":"09561","name":"Ansbach","type":"Kreisfreie_Stadt"},"federalState":{"key":"09","name":"Bayern"}},{"name":"Falkenweg","postalCode":"91522","locality":"Ansbach","municipality":{"key":"09561000","name":"Ansbach","type":"Kreisfreie_Stadt"},"district":{"key":"09561","name":"Ansbach","type":"Kreisfreie_Stadt"},"federalState":{"key":"09","name":"Bayern"}},{"name":"Fasanensteig","postalCode":"91522","locality":"Ansbach","municipality":{"key":"09561000","name":"Ansbach","type":"Kreisfreie_Stadt"},"district":{"key":"09561","name":"Ansbach","type":"Kreisfreie_Stadt"},"federalState":{"key":"09","name":"Bayern"}},{"name":"Fasanenweg","postalCode":"56235","locality":"Ransbach-Baumbach","municipality":{"key":"07143062","name":"Ransbach-Baumbach, Stadt","type":"Stadt"},"district":{"key":"07143","name":"Westerwaldkreis","type":"Landkreis"},"federalState":{"key":"07","name":"Rheinland-Pfalz"}},{"name":"Faunstr.","postalCode":"91522","locality":"Ansbach","municipality":{"key":"09561000","name":"Ansbach","type":"Kreisfreie_Stadt"},"district":{"key":"09561","name":"Ansbach","type":"Kreisfreie_Stadt"},"federalState":{"key":"09","name":"Bayern"}},{"name":"Feldstr.","postalCode":"56235","locality":"Ransbach-Baumbach","municipality":{"key":"07143062","name":"Ransbach-Baumbach, Stadt","type":"Stadt"},"district":{"key":"07143","name":"Westerwaldkreis","type":"Landkreis"},"federalState":{"key":"07","name":"Rheinland-Pfalz"}},{"name":"Feldstr.","postalCode":"91522","locality":"Ansbach","municipality":{"key":"09561000","name":"Ansbach","type":"Kreisfreie_Stadt"},"district":{"key":"09561","name":"Ansbach","type":"Kreisfreie_Stadt"},"federalState":{"key":"09","name":"Bayern"}},{"name":"Feldwiesenstr.","postalCode":"91522","locality":"Ansbach","municipality":{"key":"09561000","name":"Ansbach","type":"Kreisfreie_Stadt"},"district":{"key":"09561","name":"Ansbach","type":"Kreisfreie_Stadt"},"federalState":{"key":"09","name":"Bayern"}},{"name":"Fermoplatz","postalCode":"91522","locality":"Ansbach","municipality":{"key":"09561000","name":"Ansbach","type":"Kreisfreie_Stadt"},"district":{"key":"09561","name":"Ansbach","type":"Kreisfreie_Stadt"},"federalState":{"key":"09","name":"Bayern"}},{"name":"Feuchtlachfeld","postalCode":"91522","locality":"Ansbach","municipality":{"key":"09561000","name":"Ansbach","type":"Kreisfreie_Stadt"},"district":{"key":"09561","name":"Ansbach","type":"Kreisfreie_Stadt"},"federalState":{"key":"09","name":"Bayern"}},{"name":"Feuchtlachweg","postalCode":"91522","locality":"Ansbach","municipality":{"key":"09561000","name":"Ansbach","type":"Kreisfreie_Stadt"},"district":{"key":"09561","name":"Ansbach","type":"Kreisfreie_Stadt"},"federalState":{"key":"09","name":"Bayern"}},{"name":"Feuchtlachweg","postalCode":"91623","locality":"Sachsen bei Ansbach","municipality":{"key":"09571196","name":"Sachsen b.Ansbach","type":"Kreisangehörige_Gemeinde"},"district":{"key":"09571","name":"Ansbach","type":"Landkreis"},"federalState":{"key":"09","name":"Bayern"}},{"name":"Feuchtwanger Str.","postalCode":"91522","locality":"Ansbach","municipality":{"key":"09561000","name":"Ansbach","type":"Kreisfreie_Stadt"},"district":{"key":"09561","name":"Ansbach","type":"Kreisfreie_Stadt"},"federalState":{"key":"09","name":"Bayern"}},{"name":"Feuerbachstr.","postalCode":"91522","locality":"Ansbach","municipality":{"key":"09561000","name":"Ansbach","type":"Kreisfreie_Stadt"},"district":{"key":"09561","name":"Ansbach","type":"Kreisfreie_Stadt"},"federalState":{"key":"09","name":"Bayern"}},{"name":"Fichtenstr.","postalCode":"91623","locality":"Sachsen bei Ansbach","municipality":{"key":"09571196","name":"Sachsen b.Ansbach","type":"Kreisangehörige_Gemeinde"},"district":{"key":"09571","name":"Ansbach","type":"Landkreis"},"federalState":{"key":"09","name":"Bayern"}},{"name":"Fichtestr.","postalCode":"91522","locality":"Ansbach","municipality":{"key":"09561000","name":"Ansbach","type":"Kreisfreie_Stadt"},"district":{"key":"09561","name":"Ansbach","type":"Kreisfreie_Stadt"},"federalState":{"key":"09","name":"Bayern"}},{"name":"Finkenbuckweg","postalCode":"91522","locality":"Ansbach","municipality":{"key":"09561000","name":"Ansbach","type":"Kreisfreie_Stadt"},"district":{"key":"09561","name":"Ansbach","type":"Kreisfreie_Stadt"},"federalState":{"key":"09","name":"Bayern"}},{"name":"Finkenstr.","postalCode":"91522","locality":"Ansbach","municipality":{"key":"09561000","name":"Ansbach","type":"Kreisfreie_Stadt"},"district":{"key":"09561","name":"Ansbach","type":"Kreisfreie_Stadt"},"federalState":{"key":"09","name":"Bayern"}},{"name":"Finkenweg","postalCode":"56235","locality":"Ransbach-Baumbach","municipality":{"key":"07143062","name":"Ransbach-Baumbach, Stadt","type":"Stadt"},"district":{"key":"07143","name":"Westerwaldkreis","type":"Landkreis"},"federalState":{"key":"07","name":"Rheinland-Pfalz"}},{"name":"Fischerstr.","postalCode":"91522","locality":"Ansbach","municipality":{"key":"09561000","name":"Ansbach","type":"Kreisfreie_Stadt"},"district":{"key":"09561","name":"Ansbach","type":"Kreisfreie_Stadt"},"federalState":{"key":"09","name":"Bayern"}},{"name":"Fischerweg","postalCode":"56235","locality":"Ransbach-Baumbach","municipality":{"key":"07143062","name":"Ransbach-Baumbach, Stadt","type":"Stadt"},"district":{"key":"07143","name":"Westerwaldkreis","type":"Landkreis"},"federalState":{"key":"07","name":"Rheinland-Pfalz"}},{"name":"Fischstr.","postalCode":"91522","locality":"Ansbach","municipality":{"key":"09561000","name":"Ansbach","type":"Kreisfreie_Stadt"},"district":{"key":"09561","name":"Ansbach","type":"Kreisfreie_Stadt"},"federalState":{"key":"09","name":"Bayern"}},{"name":"Flemingweg","postalCode":"91522","locality":"Ansbach","municipality":{"key":"09561000","name":"Ansbach","type":"Kreisfreie_Stadt"},"district":{"key":"09561","name":"Ansbach","type":"Kreisfreie_Stadt"},"federalState":{"key":"09","name":"Bayern"}},{"name":"Flurweg","postalCode":"91623","locality":"Sachsen bei Ansbach","municipality":{"key":"09571196","name":"Sachsen b.Ansbach","type":"Kreisangehörige_Gemeinde"},"district":{"key":"09571","name":"Ansbach","type":"Landkreis"},"federalState":{"key":"09","name":"Bayern"}},{"name":"Föhrenstr.","postalCode":"91522","locality":"Ansbach","municipality":{"key":"09561000","name":"Ansbach","type":"Kreisfreie_Stadt"},"district":{"key":"09561","name":"Ansbach","type":"Kreisfreie_Stadt"},"federalState":{"key":"09","name":"Bayern"}},{"name":"Föhrenstr.","postalCode":"91623","locality":"Sachsen bei Ansbach","municipality":{"key":"09571196","name":"Sachsen b.Ansbach","type":"Kreisangehörige_Gemeinde"},"district":{"key":"09571","name":"Ansbach","type":"Landkreis"},"federalState":{"key":"09","name":"Bayern"}},{"name":"Forellenweg","postalCode":"56235","locality":"Ransbach-Baumbach","municipality":{"key":"07143062","name":"Ransbach-Baumbach, Stadt","type":"Stadt"},"district":{"key":"07143","name":"Westerwaldkreis","type":"Landkreis"},"federalState":{"key":"07","name":"Rheinland-Pfalz"}},{"name":"Frankenhöhe","postalCode":"91522","locality":"Ansbach","municipality":{"key":"09561000","name":"Ansbach","type":"Kreisfreie_Stadt"},"district":{"key":"09561","name":"Ansbach","type":"Kreisfreie_Stadt"},"federalState":{"key":"09","name":"Bayern"}},{"name":"Frankenstr.","postalCode":"91522","locality":"Ansbach","municipality":{"key":"09561000","name":"Ansbach","type":"Kreisfreie_Stadt"},"district":{"key":"09561","name":"Ansbach","type":"Kreisfreie_Stadt"},"federalState":{"key":"09","name":"Bayern"}},{"name":"Frankenweg","postalCode":"91522","locality":"Ansbach","municipality":{"key":"09561000","name":"Ansbach","type":"Kreisfreie_Stadt"},"district":{"key":"09561","name":"Ansbach","type":"Kreisfreie_Stadt"},"federalState":{"key":"09","name":"Bayern"}},{"name":"Freiherr-vom-Stein-Str.","postalCode":"56235","locality":"Ransbach-Baumbach","municipality":{"key":"07143062","name":"Ransbach-Baumbach, Stadt","type":"Stadt"},"district":{"key":"07143","name":"Westerwaldkreis","type":"Landkreis"},"federalState":{"key":"07","name":"Rheinland-Pfalz"}},{"name":"Friedhofsweg","postalCode":"56235","locality":"Ransbach-Baumbach","municipality":{"key":"07143062","name":"Ransbach-Baumbach, Stadt","type":"Stadt"},"district":{"key":"07143","name":"Westerwaldkreis","type":"Landkreis"},"federalState":{"key":"07","name":"Rheinland-Pfalz"}},{"name":"Friedrich-Samhammer-Str.","postalCode":"91522","locality":"Ansbach","municipality":{"key":"09561000","name":"Ansbach","type":"Kreisfreie_Stadt"},"district":{"key":"09561","name":"Ansbach","type":"Kreisfreie_Stadt"},"federalState":{"key":"09","name":"Bayern"}},{"name":"Friedrichstr.","postalCode":"91522","locality":"Ansbach","municipality":{"key":"09561000","name":"Ansbach","type":"Kreisfreie_Stadt"},"district":{"key":"09561","name":"Ansbach","type":"Kreisfreie_Stadt"},"federalState":{"key":"09","name":"Bayern"}},{"name":"Frühlingsstr.","postalCode":"91522","locality":"Ansbach","municipality":{"key":"09561000","name":"Ansbach","type":"Kreisfreie_Stadt"},"district":{"key":"09561","name":"Ansbach","type":"Kreisfreie_Stadt"},"federalState":{"key":"09","name":"Bayern"}},{"name":"Funkenbachstr.","postalCode":"91522","locality":"Ansbach","municipality":{"key":"09561000","name":"Ansbach","type":"Kreisfreie_Stadt"},"district":{"key":"09561","name":"Ansbach","type":"Kreisfreie_Stadt"},"federalState":{"key":"09","name":"Bayern"}},{"name":"Fürstenstr.","postalCode":"91522","locality":"Ansbach","municipality":{"key":"09561000","name":"Ansbach","type":"Kreisfreie_Stadt"},"district":{"key":"09561","name":"Ansbach","type":"Kreisfreie_Stadt"},"federalState":{"key":"09","name":"Bayern"}},{"name":"Gartenstr.","postalCode":"91632","locality":"Wieseth","municipality":{"key":"09571223","name":"Wieseth","type":"Kreisangehörige_Gemeinde"},"district":{"key":"09571","name":"Ansbach","type":"Landkreis"},"federalState":{"key":"09","name":"Bayern"}},{"name":"Hauptstr.","postalCode":"91632","locality":"Wieseth","municipality":{"key":"09571223","name":"Wieseth","type":"Kreisangehörige_Gemeinde"},"district":{"key":"09571","name":"Ansbach","type":"Landkreis"},"federalState":{"key":"09","name":"Bayern"}},{"name":"Häuslingen 2, 3, 3 1/2, 5","postalCode":"91632","locality":"Wieseth","municipality":{"key":"09571223","name":"Wieseth","type":"Kreisangehörige_Gemeinde"},"district":{"key":"09571","name":"Ansbach","type":"Landkreis"},"federalState":{"key":"09","name":"Bayern"}},{"name":"Herrieder Str.","postalCode":"91632","locality":"Wieseth","municipality":{"key":"09571223","name":"Wieseth","type":"Kreisangehörige_Gemeinde"},"district":{"key":"09571","name":"Ansbach","type":"Landkreis"},"federalState":{"key":"09","name":"Bayern"}},{"name":"Industriestr.","postalCode":"91632","locality":"Wieseth","municipality":{"key":"09571223","name":"Wieseth","type":"Kreisangehörige_Gemeinde"},"district":{"key":"09571","name":"Ansbach","type":"Landkreis"},"federalState":{"key":"09","name":"Bayern"}},{"name":"Jägerndorfer Str.","postalCode":"91522","locality":"Ansbach","municipality":{"key":"09561000","name":"Ansbach","type":"Kreisfreie_Stadt"},"district":{"key":"09561","name":"Ansbach","type":"Kreisfreie_Stadt"},"federalState":{"key":"09","name":"Bayern"}},{"name":"Jägerpfad","postalCode":"56235","locality":"Ransbach-Baumbach","municipality":{"key":"07143062","name":"Ransbach-Baumbach, Stadt","type":"Stadt"},"district":{"key":"07143","name":"Westerwaldkreis","type":"Landkreis"},"federalState":{"key":"07","name":"Rheinland-Pfalz"}},{"name":"Jahnstr.","postalCode":"56235","locality":"Ransbach-Baumbach","municipality":{"key":"07143062","name":"Ransbach-Baumbach, Stadt","type":"Stadt"},"district":{"key":"07143","name":"Westerwaldkreis","type":"Landkreis"},"federalState":{"key":"07","name":"Rheinland-Pfalz"}},{"name":"Jahnstr.","postalCode":"91522","locality":"Ansbach","municipality":{"key":"09561000","name":"Ansbach","type":"Kreisfreie_Stadt"},"district":{"key":"09561","name":"Ansbach","type":"Kreisfreie_Stadt"},"federalState":{"key":"09","name":"Bayern"}},{"name":"Johannisweg","postalCode":"91522","locality":"Ansbach","municipality":{"key":"09561000","name":"Ansbach","type":"Kreisfreie_Stadt"},"district":{"key":"09561","name":"Ansbach","type":"Kreisfreie_Stadt"},"federalState":{"key":"09","name":"Bayern"}},{"name":"Johann-Matthie-Str.","postalCode":"56235","locality":"Ransbach-Baumbach","municipality":{"key":"07143062","name":"Ransbach-Baumbach, Stadt","type":"Stadt"},"district":{"key":"07143","name":"Westerwaldkreis","type":"Landkreis"},"federalState":{"key":"07","name":"Rheinland-Pfalz"}},{"name":"Johann-Sebastian-Bach-Platz","postalCode":"91522","locality":"Ansbach","municipality":{"key":"09561000","name":"Ansbach","type":"Kreisfreie_Stadt"},"district":{"key":"09561","name":"Ansbach","type":"Kreisfreie_Stadt"},"federalState":{"key":"09","name":"Bayern"}},{"name":"Jüdtstr.","postalCode":"91522","locality":"Ansbach","municipality":{"key":"09561000","name":"Ansbach","type":"Kreisfreie_Stadt"},"district":{"key":"09561","name":"Ansbach","type":"Kreisfreie_Stadt"},"federalState":{"key":"09","name":"Bayern"}},{"name":"Julius-Meyer-Str.","postalCode":"91522","locality":"Ansbach","municipality":{"key":"09561000","name":"Ansbach","type":"Kreisfreie_Stadt"},"district":{"key":"09561","name":"Ansbach","type":"Kreisfreie_Stadt"},"federalState":{"key":"09","name":"Bayern"}},{"name":"Junckerweg","postalCode":"91522","locality":"Ansbach","municipality":{"key":"09561000","name":"Ansbach","type":"Kreisfreie_Stadt"},"district":{"key":"09561","name":"Ansbach","type":"Kreisfreie_Stadt"},"federalState":{"key":"09","name":"Bayern"}},{"name":"Junkernstr.","postalCode":"56235","locality":"Ransbach-Baumbach","municipality":{"key":"07143062","name":"Ransbach-Baumbach, Stadt","type":"Stadt"},"district":{"key":"07143","name":"Westerwaldkreis","type":"Landkreis"},"federalState":{"key":"07","name":"Rheinland-Pfalz"}},{"name":"Kanalstr.","postalCode":"91522","locality":"Ansbach","municipality":{"key":"09561000","name":"Ansbach","type":"Kreisfreie_Stadt"},"district":{"key":"09561","name":"Ansbach","type":"Kreisfreie_Stadt"},"federalState":{"key":"09","name":"Bayern"}},{"name":"Kannenbäckerstr.","postalCode":"56235","locality":"Ransbach-Baumbach","municipality":{"key":"07143062","name":"Ransbach-Baumbach, Stadt","type":"Stadt"},"district":{"key":"07143","name":"Westerwaldkreis","type":"Landkreis"},"federalState":{"key":"07","name":"Rheinland-Pfalz"}},{"name":"Kapellenstr.","postalCode":"56235","locality":"Ransbach-Baumbach","municipality":{"key":"07143062","name":"Ransbach-Baumbach, Stadt","type":"Stadt"},"district":{"key":"07143","name":"Westerwaldkreis","type":"Landkreis"},"federalState":{"key":"07","name":"Rheinland-Pfalz"}},{"name":"Karlsbader Str.","postalCode":"91522","locality":"Ansbach","municipality":{"key":"09561000","name":"Ansbach","type":"Kreisfreie_Stadt"},"district":{"key":"09561","name":"Ansbach","type":"Kreisfreie_Stadt"},"federalState":{"key":"09","name":"Bayern"}},{"name":"Karlsplatz","postalCode":"91522","locality":"Ansbach","municipality":{"key":"09561000","name":"Ansbach","type":"Kreisfreie_Stadt"},"district":{"key":"09561","name":"Ansbach","type":"Kreisfreie_Stadt"},"federalState":{"key":"09","name":"Bayern"}},{"name":"Karlstr.","postalCode":"91522","locality":"Ansbach","municipality":{"key":"09561000","name":"Ansbach","type":"Kreisfreie_Stadt"},"district":{"key":"09561","name":"Ansbach","type":"Kreisfreie_Stadt"},"federalState":{"key":"09","name":"Bayern"}},{"name":"Karolinenstr.","postalCode":"91522","locality":"Ansbach","municipality":{"key":"09561000","name":"Ansbach","type":"Kreisfreie_Stadt"},"district":{"key":"09561","name":"Ansbach","type":"Kreisfreie_Stadt"},"federalState":{"key":"09","name":"Bayern"}},{"name":"Karpfenstr.","postalCode":"91522","locality":"Ansbach","municipality":{"key":"09561000","name":"Ansbach","type":"Kreisfreie_Stadt"},"district":{"key":"09561","name":"Ansbach","type":"Kreisfreie_Stadt"},"federalState":{"key":"09","name":"Bayern"}},{"name":"Kasernendamm","postalCode":"91522","locality":"Ansbach","municipality":{"key":"09561000","name":"Ansbach","type":"Kreisfreie_Stadt"},"district":{"key":"09561","name":"Ansbach","type":"Kreisfreie_Stadt"},"federalState":{"key":"09","name":"Bayern"}},{"name":"Kaspar-Hauser-Platz","postalCode":"91522","locality":"Ansbach","municipality":{"key":"09561000","name":"Ansbach","type":"Kreisfreie_Stadt"},"district":{"key":"09561","name":"Ansbach","type":"Kreisfreie_Stadt"},"federalState":{"key":"09","name":"Bayern"}},{"name":"Katterbacher Weg","postalCode":"91522","locality":"Ansbach","municipality":{"key":"09561000","name":"Ansbach","type":"Kreisfreie_Stadt"},"district":{"key":"09561","name":"Ansbach","type":"Kreisfreie_Stadt"},"federalState":{"key":"09","name":"Bayern"}},{"name":"Kiefernweg","postalCode":"91522","locality":"Ansbach","municipality":{"key":"09561000","name":"Ansbach","type":"Kreisfreie_Stadt"},"district":{"key":"09561","name":"Ansbach","type":"Kreisfreie_Stadt"},"federalState":{"key":"09","name":"Bayern"}},{"name":"Kirchenstr.","postalCode":"91522","locality":"Ansbach","municipality":{"key":"09561000","name":"Ansbach","type":"Kreisfreie_Stadt"},"district":{"key":"09561","name":"Ansbach","type":"Kreisfreie_Stadt"},"federalState":{"key":"09","name":"Bayern"}},{"name":"Kirchenweg","postalCode":"91522","locality":"Ansbach","municipality":{"key":"09561000","name":"Ansbach","type":"Kreisfreie_Stadt"},"district":{"key":"09561","name":"Ansbach","type":"Kreisfreie_Stadt"},"federalState":{"key":"09","name":"Bayern"}},{"name":"Kirchplatz","postalCode":"91522","locality":"Ansbach","municipality":{"key":"09561000","name":"Ansbach","type":"Kreisfreie_Stadt"},"district":{"key":"09561","name":"Ansbach","type":"Kreisfreie_Stadt"},"federalState":{"key":"09","name":"Bayern"}},{"name":"Kirchstr.","postalCode":"56235","locality":"Ransbach-Baumbach","municipality":{"key":"07143062","name":"Ransbach-Baumbach, Stadt","type":"Stadt"},"district":{"key":"07143","name":"Westerwaldkreis","type":"Landkreis"},"federalState":{"key":"07","name":"Rheinland-Pfalz"}},{"name":"Kleinfeldchen","postalCode":"56235","locality":"Ransbach-Baumbach","municipality":{"key":"07143062","name":"Ransbach-Baumbach, Stadt","type":"Stadt"},"district":{"key":"07143","name":"Westerwaldkreis","type":"Landkreis"},"federalState":{"key":"07","name":"Rheinland-Pfalz"}},{"name":"Klingenberg","postalCode":"91522","locality":"Ansbach","municipality":{"key":"09561000","name":"Ansbach","type":"Kreisfreie_Stadt"},"district":{"key":"09561","name":"Ansbach","type":"Kreisfreie_Stadt"},"federalState":{"key":"09","name":"Bayern"}},{"name":"Klopstockstr.","postalCode":"91522","locality":"Ansbach","municipality":{"key":"09561000","name":"Ansbach","type":"Kreisfreie_Stadt"},"district":{"key":"09561","name":"Ansbach","type":"Kreisfreie_Stadt"},"federalState":{"key":"09","name":"Bayern"}},{"name":"Knebelstr.","postalCode":"91522","locality":"Ansbach","municipality":{"key":"09561000","name":"Ansbach","type":"Kreisfreie_Stadt"},"district":{"key":"09561","name":"Ansbach","type":"Kreisfreie_Stadt"},"federalState":{"key":"09","name":"Bayern"}},{"name":"Kolpingstr.","postalCode":"56235","locality":"Ransbach-Baumbach","municipality":{"key":"07143062","name":"Ransbach-Baumbach, Stadt","type":"Stadt"},"district":{"key":"07143","name":"Westerwaldkreis","type":"Landkreis"},"federalState":{"key":"07","name":"Rheinland-Pfalz"}},{"name":"Königsberger Str.","postalCode":"56235","locality":"Ransbach-Baumbach","municipality":{"key":"07143062","name":"Ransbach-Baumbach, Stadt","type":"Stadt"},"district":{"key":"07143","name":"Westerwaldkreis","type":"Landkreis"},"federalState":{"key":"07","name":"Rheinland-Pfalz"}},{"name":"Königsberger Str.","postalCode":"91522","locality":"Ansbach","municipality":{"key":"09561000","name":"Ansbach","type":"Kreisfreie_Stadt"},"district":{"key":"09561","name":"Ansbach","type":"Kreisfreie_Stadt"},"federalState":{"key":"09","name":"Bayern"}},{"name":"Konrad-Knörr-Str.","postalCode":"91522","locality":"Ansbach","municipality":{"key":"09561000","name":"Ansbach","type":"Kreisfreie_Stadt"},"district":{"key":"09561","name":"Ansbach","type":"Kreisfreie_Stadt"},"federalState":{"key":"09","name":"Bayern"}},{"name":"Köppelblick","postalCode":"56235","locality":"Ransbach-Baumbach","municipality":{"key":"07143062","name":"Ransbach-Baumbach, Stadt","type":"Stadt"},"district":{"key":"07143","name":"Westerwaldkreis","type":"Landkreis"},"federalState":{"key":"07","name":"Rheinland-Pfalz"}},{"name":"Körnerplatz","postalCode":"91522","locality":"Ansbach","municipality":{"key":"09561000","name":"Ansbach","type":"Kreisfreie_Stadt"},"district":{"key":"09561","name":"Ansbach","type":"Kreisfreie_Stadt"},"federalState":{"key":"09","name":"Bayern"}},{"name":"Kösslerstr.","postalCode":"91522","locality":"Ansbach","municipality":{"key":"09561000","name":"Ansbach","type":"Kreisfreie_Stadt"},"district":{"key":"09561","name":"Ansbach","type":"Kreisfreie_Stadt"},"federalState":{"key":"09","name":"Bayern"}},{"name":"Kraußstr.","postalCode":"91522","locality":"Ansbach","municipality":{"key":"09561000","name":"Ansbach","type":"Kreisfreie_Stadt"},"district":{"key":"09561","name":"Ansbach","type":"Kreisfreie_Stadt"},"federalState":{"key":"09","name":"Bayern"}},{"name":"Kreisstr.","postalCode":"91623","locality":"Sachsen bei Ansbach","municipality":{"key":"09571196","name":"Sachsen b.Ansbach","type":"Kreisangehörige_Gemeinde"},"district":{"key":"09571","name":"Ansbach","type":"Landkreis"},"federalState":{"key":"09","name":"Bayern"}},{"name":"Kreuzberg","postalCode":"91623","locality":"Sachsen bei Ansbach","municipality":{"key":"09571196","name":"Sachsen b.Ansbach","type":"Kreisangehörige_Gemeinde"},"district":{"key":"09571","name":"Ansbach","type":"Landkreis"},"federalState":{"key":"09","name":"Bayern"}},{"name":"Kronacherstr.","postalCode":"91522","locality":"Ansbach","municipality":{"key":"09561000","name":"Ansbach","type":"Kreisfreie_Stadt"},"district":{"key":"09561","name":"Ansbach","type":"Kreisfreie_Stadt"},"federalState":{"key":"09","name":"Bayern"}},{"name":"Krugbäckerstr.","postalCode":"56235","locality":"Ransbach-Baumbach","municipality":{"key":"07143062","name":"Ransbach-Baumbach, Stadt","type":"Stadt"},"district":{"key":"07143","name":"Westerwaldkreis","type":"Landkreis"},"federalState":{"key":"07","name":"Rheinland-Pfalz"}},{"name":"Krumme Leiten","postalCode":"91623","locality":"Sachsen bei Ansbach","municipality":{"key":"09571196","name":"Sachsen b.Ansbach","type":"Kreisangehörige_Gemeinde"},"district":{"key":"09571","name":"Ansbach","type":"Landkreis"},"federalState":{"key":"09","name":"Bayern"}},{"name":"Kurzendorf","postalCode":"91522","locality":"Ansbach","municipality":{"key":"09561000","name":"Ansbach","type":"Kreisfreie_Stadt"},"district":{"key":"09561","name":"Ansbach","type":"Kreisfreie_Stadt"},"federalState":{"key":"09","name":"Bayern"}},{"name":"Lahnstr.","postalCode":"56235","locality":"Ransbach-Baumbach","municipality":{"key":"07143062","name":"Ransbach-Baumbach, Stadt","type":"Stadt"},"district":{"key":"07143","name":"Westerwaldkreis","type":"Landkreis"},"federalState":{"key":"07","name":"Rheinland-Pfalz"}},{"name":"Lambarenestr.","postalCode":"91522","locality":"Ansbach","municipality":{"key":"09561000","name":"Ansbach","type":"Kreisfreie_Stadt"},"district":{"key":"09561","name":"Ansbach","type":"Kreisfreie_Stadt"},"federalState":{"key":"09","name":"Bayern"}},{"name":"Lambrechtstr.","postalCode":"91522","locality":"Ansbach","municipality":{"key":"09561000","name":"Ansbach","type":"Kreisfreie_Stadt"},"district":{"key":"09561","name":"Ansbach","type":"Kreisfreie_Stadt"},"federalState":{"key":"09","name":"Bayern"}},{"name":"Landshuber Str.","postalCode":"56235","locality":"Ransbach-Baumbach","municipality":{"key":"07143062","name":"Ransbach-Baumbach, Stadt","type":"Stadt"},"district":{"key":"07143","name":"Westerwaldkreis","type":"Landkreis"},"federalState":{"key":"07","name":"Rheinland-Pfalz"}},{"name":"Lärchenstr.","postalCode":"91623","locality":"Sachsen bei Ansbach","municipality":{"key":"09571196","name":"Sachsen b.Ansbach","type":"Kreisangehörige_Gemeinde"},"district":{"key":"09571","name":"Ansbach","type":"Landkreis"},"federalState":{"key":"09","name":"Bayern"}},{"name":"Lärchenweg","postalCode":"56235","locality":"Ransbach-Baumbach","municipality":{"key":"07143062","name":"Ransbach-Baumbach, Stadt","type":"Stadt"},"district":{"key":"07143","name":"Westerwaldkreis","type":"Landkreis"},"federalState":{"key":"07","name":"Rheinland-Pfalz"}},{"name":"Laurentiusstr.","postalCode":"91522","locality":"Ansbach","municipality":{"key":"09561000","name":"Ansbach","type":"Kreisfreie_Stadt"},"district":{"key":"09561","name":"Ansbach","type":"Kreisfreie_Stadt"},"federalState":{"key":"09","name":"Bayern"}},{"name":"Lehnertweg","postalCode":"91522","locality":"Ansbach","municipality":{"key":"09561000","name":"Ansbach","type":"Kreisfreie_Stadt"},"district":{"key":"09561","name":"Ansbach","type":"Kreisfreie_Stadt"},"federalState":{"key":"09","name":"Bayern"}},{"name":"Leipziger Str.","postalCode":"56235","locality":"Ransbach-Baumbach","municipality":{"key":"07143062","name":"Ransbach-Baumbach, Stadt","type":"Stadt"},"district":{"key":"07143","name":"Westerwaldkreis","type":"Landkreis"},"federalState":{"key":"07","name":"Rheinland-Pfalz"}},{"name":"Leipziger Str.","postalCode":"91522","locality":"Ansbach","municipality":{"key":"09561000","name":"Ansbach","type":"Kreisfreie_Stadt"},"district":{"key":"09561","name":"Ansbach","type":"Kreisfreie_Stadt"},"federalState":{"key":"09","name":"Bayern"}},{"name":"Lenauweg","postalCode":"91522","locality":"Ansbach","municipality":{"key":"09561000","name":"Ansbach","type":"Kreisfreie_Stadt"},"district":{"key":"09561","name":"Ansbach","type":"Kreisfreie_Stadt"},"federalState":{"key":"09","name":"Bayern"}},{"name":"Leonhart-Fuchs-Garten","postalCode":"91522","locality":"Ansbach","municipality":{"key":"09561000","name":"Ansbach","type":"Kreisfreie_Stadt"},"district":{"key":"09561","name":"Ansbach","type":"Kreisfreie_Stadt"},"federalState":{"key":"09","name":"Bayern"}},{"name":"Leonhart-Fuchs-Str.","postalCode":"91522","locality":"Ansbach","municipality":{"key":"09561000","name":"Ansbach","type":"Kreisfreie_Stadt"},"district":{"key":"09561","name":"Ansbach","type":"Kreisfreie_Stadt"},"federalState":{"key":"09","name":"Bayern"}},{"name":"Lerchenberg","postalCode":"91623","locality":"Sachsen bei Ansbach","municipality":{"key":"09571196","name":"Sachsen b.Ansbach","type":"Kreisangehörige_Gemeinde"},"district":{"key":"09571","name":"Ansbach","type":"Landkreis"},"federalState":{"key":"09","name":"Bayern"}},{"name":"Lerchenstr.","postalCode":"91522","locality":"Ansbach","municipality":{"key":"09561000","name":"Ansbach","type":"Kreisfreie_Stadt"},"district":{"key":"09561","name":"Ansbach","type":"Kreisfreie_Stadt"},"federalState":{"key":"09","name":"Bayern"}},{"name":"Lessingstr.","postalCode":"91522","locality":"Ansbach","municipality":{"key":"09561000","name":"Ansbach","type":"Kreisfreie_Stadt"},"district":{"key":"09561","name":"Ansbach","type":"Kreisfreie_Stadt"},"federalState":{"key":"09","name":"Bayern"}},{"name":"Leutershäuser Str.","postalCode":"91522","locality":"Ansbach","municipality":{"key":"09561000","name":"Ansbach","type":"Kreisfreie_Stadt"},"district":{"key":"09561","name":"Ansbach","type":"Kreisfreie_Stadt"},"federalState":{"key":"09","name":"Bayern"}},{"name":"Liebigstr.","postalCode":"91522","locality":"Ansbach","municipality":{"key":"09561000","name":"Ansbach","type":"Kreisfreie_Stadt"},"district":{"key":"09561","name":"Ansbach","type":"Kreisfreie_Stadt"},"federalState":{"key":"09","name":"Bayern"}},{"name":"Lindenstr.","postalCode":"91522","locality":"Ansbach","municipality":{"key":"09561000","name":"Ansbach","type":"Kreisfreie_Stadt"},"district":{"key":"09561","name":"Ansbach","type":"Kreisfreie_Stadt"},"federalState":{"key":"09","name":"Bayern"}},{"name":"Lindenstr.","postalCode":"91623","locality":"Sachsen bei Ansbach","municipality":{"key":"09571196","name":"Sachsen b.Ansbach","type":"Kreisangehörige_Gemeinde"},"district":{"key":"09571","name":"Ansbach","type":"Landkreis"},"federalState":{"key":"09","name":"Bayern"}},{"name":"Lindenweg","postalCode":"91522","locality":"Ansbach","municipality":{"key":"09561000","name":"Ansbach","type":"Kreisfreie_Stadt"},"district":{"key":"09561","name":"Ansbach","type":"Kreisfreie_Stadt"},"federalState":{"key":"09","name":"Bayern"}},{"name":"Louis-Schmetzer-Str.","postalCode":"91522","locality":"Ansbach","municipality":{"key":"09561000","name":"Ansbach","type":"Kreisfreie_Stadt"},"district":{"key":"09561","name":"Ansbach","type":"Kreisfreie_Stadt"},"federalState":{"key":"09","name":"Bayern"}},{"name":"Ludwig-Keller-Str.","postalCode":"91522","locality":"Ansbach","municipality":{"key":"09561000","name":"Ansbach","type":"Kreisfreie_Stadt"},"district":{"key":"09561","name":"Ansbach","type":"Kreisfreie_Stadt"},"federalState":{"key":"09","name":"Bayern"}},{"name":"Ludwigstr.","postalCode":"56235","locality":"Ransbach-Baumbach","municipality":{"key":"07143062","name":"Ransbach-Baumbach, Stadt","type":"Stadt"},"district":{"key":"07143","name":"Westerwaldkreis","type":"Landkreis"},"federalState":{"key":"07","name":"Rheinland-Pfalz"}},{"name":"Luisenstr.","postalCode":"91522","locality":"Ansbach","municipality":{"key":"09561000","name":"Ansbach","type":"Kreisfreie_Stadt"},"district":{"key":"09561","name":"Ansbach","type":"Kreisfreie_Stadt"},"federalState":{"key":"09","name":"Bayern"}},{"name":"Lunckenbeinstr.","postalCode":"91522","locality":"Ansbach","municipality":{"key":"09561000","name":"Ansbach","type":"Kreisfreie_Stadt"},"district":{"key":"09561","name":"Ansbach","type":"Kreisfreie_Stadt"},"federalState":{"key":"09","name":"Bayern"}},{"name":"Mittelschönbronner Str.","postalCode":"91632","locality":"Wieseth","municipality":{"key":"09571223","name":"Wieseth","type":"Kreisangehörige_Gemeinde"},"district":{"key":"09571","name":"Ansbach","type":"Landkreis"},"federalState":{"key":"09","name":"Bayern"}},{"name":"Naglerstr.","postalCode":"91522","locality":"Ansbach","municipality":{"key":"09561000","name":"Ansbach","type":"Kreisfreie_Stadt"},"district":{"key":"09561","name":"Ansbach","type":"Kreisfreie_Stadt"},"federalState":{"key":"09","name":"Bayern"}},{"name":"Naumannstr.","postalCode":"91522","locality":"Ansbach","municipality":{"key":"09561000","name":"Ansbach","type":"Kreisfreie_Stadt"},"district":{"key":"09561","name":"Ansbach","type":"Kreisfreie_Stadt"},"federalState":{"key":"09","name":"Bayern"}},{"name":"Nelkenstr.","postalCode":"91522","locality":"Ansbach","municipality":{"key":"09561000","name":"Ansbach","type":"Kreisfreie_Stadt"},"district":{"key":"09561","name":"Ansbach","type":"Kreisfreie_Stadt"},"federalState":{"key":"09","name":"Bayern"}},{"name":"Neufeldstr.","postalCode":"56235","locality":"Ransbach-Baumbach","municipality":{"key":"07143062","name":"Ransbach-Baumbach, Stadt","type":"Stadt"},"district":{"key":"07143","name":"Westerwaldkreis","type":"Landkreis"},"federalState":{"key":"07","name":"Rheinland-Pfalz"}},{"name":"Neukirchen","postalCode":"91623","locality":"Sachsen bei Ansbach","municipality":{"key":"09571196","name":"Sachsen b.Ansbach","type":"Kreisangehörige_Gemeinde"},"district":{"key":"09571","name":"Ansbach","type":"Landkreis"},"federalState":{"key":"09","name":"Bayern"}},{"name":"Neukirchener Str.","postalCode":"91522","locality":"Ansbach","municipality":{"key":"09561000","name":"Ansbach","type":"Kreisfreie_Stadt"},"district":{"key":"09561","name":"Ansbach","type":"Kreisfreie_Stadt"},"federalState":{"key":"09","name":"Bayern"}},{"name":"Neukirchner Str.","postalCode":"91623","locality":"Sachsen bei Ansbach","municipality":{"key":"09571196","name":"Sachsen b.Ansbach","type":"Kreisangehörige_Gemeinde"},"district":{"key":"09571","name":"Ansbach","type":"Landkreis"},"federalState":{"key":"09","name":"Bayern"}},{"name":"Neustr.","postalCode":"56235","locality":"Ransbach-Baumbach","municipality":{"key":"07143062","name":"Ransbach-Baumbach, Stadt","type":"Stadt"},"district":{"key":"07143","name":"Westerwaldkreis","type":"Landkreis"},"federalState":{"key":"07","name":"Rheinland-Pfalz"}},{"name":"Niederfeldstr.","postalCode":"56235","locality":"Ransbach-Baumbach","municipality":{"key":"07143062","name":"Ransbach-Baumbach, Stadt","type":"Stadt"},"district":{"key":"07143","name":"Westerwaldkreis","type":"Landkreis"},"federalState":{"key":"07","name":"Rheinland-Pfalz"}},{"name":"Norbert-Hochsieder-Str.","postalCode":"91522","locality":"Ansbach","municipality":{"key":"09561000","name":"Ansbach","type":"Kreisfreie_Stadt"},"district":{"key":"09561","name":"Ansbach","type":"Kreisfreie_Stadt"},"federalState":{"key":"09","name":"Bayern"}},{"name":"Nordweg","postalCode":"91522","locality":"Ansbach","municipality":{"key":"09561000","name":"Ansbach","type":"Kreisfreie_Stadt"},"district":{"key":"09561","name":"Ansbach","type":"Kreisfreie_Stadt"},"federalState":{"key":"09","name":"Bayern"}},{"name":"Nürnberger Str.","postalCode":"91522","locality":"Ansbach","municipality":{"key":"09561000","name":"Ansbach","type":"Kreisfreie_Stadt"},"district":{"key":"09561","name":"Ansbach","type":"Kreisfreie_Stadt"},"federalState":{"key":"09","name":"Bayern"}},{"name":"Nußbaumweg","postalCode":"91522","locality":"Ansbach","municipality":{"key":"09561000","name":"Ansbach","type":"Kreisfreie_Stadt"},"district":{"key":"09561","name":"Ansbach","type":"Kreisfreie_Stadt"},"federalState":{"key":"09","name":"Bayern"}},{"name":"Obere Mühlleite","postalCode":"91522","locality":"Ansbach","municipality":{"key":"09561000","name":"Ansbach","type":"Kreisfreie_Stadt"},"district":{"key":"09561","name":"Ansbach","type":"Kreisfreie_Stadt"},"federalState":{"key":"09","name":"Bayern"}},{"name":"Oberer Weinberg","postalCode":"91522","locality":"Ansbach","municipality":{"key":"09561000","name":"Ansbach","type":"Kreisfreie_Stadt"},"district":{"key":"09561","name":"Ansbach","type":"Kreisfreie_Stadt"},"federalState":{"key":"09","name":"Bayern"}},{"name":"Oberhäuserstr.","postalCode":"91522","locality":"Ansbach","municipality":{"key":"09561000","name":"Ansbach","type":"Kreisfreie_Stadt"},"district":{"key":"09561","name":"Ansbach","type":"Kreisfreie_Stadt"},"federalState":{"key":"09","name":"Bayern"}},{"name":"Oertelweg","postalCode":"91522","locality":"Ansbach","municipality":{"key":"09561000","name":"Ansbach","type":"Kreisfreie_Stadt"},"district":{"key":"09561","name":"Ansbach","type":"Kreisfreie_Stadt"},"federalState":{"key":"09","name":"Bayern"}},{"name":"Orangeriesteg","postalCode":"91522","locality":"Ansbach","municipality":{"key":"09561000","name":"Ansbach","type":"Kreisfreie_Stadt"},"district":{"key":"09561","name":"Ansbach","type":"Kreisfreie_Stadt"},"federalState":{"key":"09","name":"Bayern"}},{"name":"Osterfeldstr.","postalCode":"56235","locality":"Ransbach-Baumbach","municipality":{"key":"07143062","name":"Ransbach-Baumbach, Stadt","type":"Stadt"},"district":{"key":"07143","name":"Westerwaldkreis","type":"Landkreis"},"federalState":{"key":"07","name":"Rheinland-Pfalz"}},{"name":"Oststr.","postalCode":"56235","locality":"Ransbach-Baumbach","municipality":{"key":"07143062","name":"Ransbach-Baumbach, Stadt","type":"Stadt"},"district":{"key":"07143","name":"Westerwaldkreis","type":"Landkreis"},"federalState":{"key":"07","name":"Rheinland-Pfalz"}},{"name":"Othmayrstr.","postalCode":"91522","locality":"Ansbach","municipality":{"key":"09561000","name":"Ansbach","type":"Kreisfreie_Stadt"},"district":{"key":"09561","name":"Ansbach","type":"Kreisfreie_Stadt"},"federalState":{"key":"09","name":"Bayern"}},{"name":"Otto-Lilienthal-Weg","postalCode":"91522","locality":"Ansbach","municipality":{"key":"09561000","name":"Ansbach","type":"Kreisfreie_Stadt"},"district":{"key":"09561","name":"Ansbach","type":"Kreisfreie_Stadt"},"federalState":{"key":"09","name":"Bayern"}},{"name":"Parkstr.","postalCode":"56235","locality":"Ransbach-Baumbach","municipality":{"key":"07143062","name":"Ransbach-Baumbach, Stadt","type":"Stadt"},"district":{"key":"07143","name":"Westerwaldkreis","type":"Landkreis"},"federalState":{"key":"07","name":"Rheinland-Pfalz"}},{"name":"Pestalozzistr.","postalCode":"91522","locality":"Ansbach","municipality":{"key":"09561000","name":"Ansbach","type":"Kreisfreie_Stadt"},"district":{"key":"09561","name":"Ansbach","type":"Kreisfreie_Stadt"},"federalState":{"key":"09","name":"Bayern"}},{"name":"Pettenkoferstr.","postalCode":"91522","locality":"Ansbach","municipality":{"key":"09561000","name":"Ansbach","type":"Kreisfreie_Stadt"},"district":{"key":"09561","name":"Ansbach","type":"Kreisfreie_Stadt"},"federalState":{"key":"09","name":"Bayern"}},{"name":"Pfaffenbuck","postalCode":"91522","locality":"Ansbach","municipality":{"key":"09561000","name":"Ansbach","type":"Kreisfreie_Stadt"},"district":{"key":"09561","name":"Ansbach","type":"Kreisfreie_Stadt"},"federalState":{"key":"09","name":"Bayern"}},{"name":"Pfaffengreuth","postalCode":"91522","locality":"Ansbach","municipality":{"key":"09561000","name":"Ansbach","type":"Kreisfreie_Stadt"},"district":{"key":"09561","name":"Ansbach","type":"Kreisfreie_Stadt"},"federalState":{"key":"09","name":"Bayern"}},{"name":"Pfaffengreuther Berg","postalCode":"91522","locality":"Ansbach","municipality":{"key":"09561000","name":"Ansbach","type":"Kreisfreie_Stadt"},"district":{"key":"09561","name":"Ansbach","type":"Kreisfreie_Stadt"},"federalState":{"key":"09","name":"Bayern"}},{"name":"Pfarrer-Born-Str.","postalCode":"56235","locality":"Ransbach-Baumbach","municipality":{"key":"07143062","name":"Ransbach-Baumbach, Stadt","type":"Stadt"},"district":{"key":"07143","name":"Westerwaldkreis","type":"Landkreis"},"federalState":{"key":"07","name":"Rheinland-Pfalz"}},{"name":"Pfarrer-Hans-Str.","postalCode":"56235","locality":"Ransbach-Baumbach","municipality":{"key":"07143062","name":"Ransbach-Baumbach, Stadt","type":"Stadt"},"district":{"key":"07143","name":"Westerwaldkreis","type":"Landkreis"},"federalState":{"key":"07","name":"Rheinland-Pfalz"}},{"name":"Pfarrer-Nonn-Str.","postalCode":"56235","locality":"Ransbach-Baumbach","municipality":{"key":"07143062","name":"Ransbach-Baumbach, Stadt","type":"Stadt"},"district":{"key":"07143","name":"Westerwaldkreis","type":"Landkreis"},"federalState":{"key":"07","name":"Rheinland-Pfalz"}},{"name":"Pfarrstr.","postalCode":"91522","locality":"Ansbach","municipality":{"key":"09561000","name":"Ansbach","type":"Kreisfreie_Stadt"},"district":{"key":"09561","name":"Ansbach","type":"Kreisfreie_Stadt"},"federalState":{"key":"09","name":"Bayern"}},{"name":"Pfisterstr.","postalCode":"91522","locality":"Ansbach","municipality":{"key":"09561000","name":"Ansbach","type":"Kreisfreie_Stadt"},"district":{"key":"09561","name":"Ansbach","type":"Kreisfreie_Stadt"},"federalState":{"key":"09","name":"Bayern"}},{"name":"Philipp-Zorn-Str.","postalCode":"91522","locality":"Ansbach","municipality":{"key":"09561000","name":"Ansbach","type":"Kreisfreie_Stadt"},"district":{"key":"09561","name":"Ansbach","type":"Kreisfreie_Stadt"},"federalState":{"key":"09","name":"Bayern"}},{"name":"Platenstr.","postalCode":"91522","locality":"Ansbach","municipality":{"key":"09561000","name":"Ansbach","type":"Kreisfreie_Stadt"},"district":{"key":"09561","name":"Ansbach","type":"Kreisfreie_Stadt"},"federalState":{"key":"09","name":"Bayern"}},{"name":"Pleurtuit-Str.","postalCode":"56235","locality":"Ransbach-Baumbach","municipality":{"key":"07143062","name":"Ransbach-Baumbach, Stadt","type":"Stadt"},"district":{"key":"07143","name":"Westerwaldkreis","type":"Landkreis"},"federalState":{"key":"07","name":"Rheinland-Pfalz"}},{"name":"Pommernstr.","postalCode":"91522","locality":"Ansbach","municipality":{"key":"09561000","name":"Ansbach","type":"Kreisfreie_Stadt"},"district":{"key":"09561","name":"Ansbach","type":"Kreisfreie_Stadt"},"federalState":{"key":"09","name":"Bayern"}},{"name":"Poststr.","postalCode":"56235","locality":"Ransbach-Baumbach","municipality":{"key":"07143062","name":"Ransbach-Baumbach, Stadt","type":"Stadt"},"district":{"key":"07143","name":"Westerwaldkreis","type":"Landkreis"},"federalState":{"key":"07","name":"Rheinland-Pfalz"}},{"name":"Potsdamer Str.","postalCode":"56235","locality":"Ransbach-Baumbach","municipality":{"key":"07143062","name":"Ransbach-Baumbach, Stadt","type":"Stadt"},"district":{"key":"07143","name":"Westerwaldkreis","type":"Landkreis"},"federalState":{"key":"07","name":"Rheinland-Pfalz"}},{"name":"Promenade","postalCode":"91522","locality":"Ansbach","municipality":{"key":"09561000","name":"Ansbach","type":"Kreisfreie_Stadt"},"district":{"key":"09561","name":"Ansbach","type":"Kreisfreie_Stadt"},"federalState":{"key":"09","name":"Bayern"}},{"name":"Quaststr.","postalCode":"91522","locality":"Ansbach","municipality":{"key":"09561000","name":"Ansbach","type":"Kreisfreie_Stadt"},"district":{"key":"09561","name":"Ansbach","type":"Kreisfreie_Stadt"},"federalState":{"key":"09","name":"Bayern"}},{"name":"Ringstr.","postalCode":"91632","locality":"Wieseth","municipality":{"key":"09571223","name":"Wieseth","type":"Kreisangehörige_Gemeinde"},"district":{"key":"09571","name":"Ansbach","type":"Landkreis"},"federalState":{"key":"09","name":"Bayern"}},{"name":"Rosenstr.","postalCode":"91632","locality":"Wieseth","municipality":{"key":"09571223","name":"Wieseth","type":"Kreisangehörige_Gemeinde"},"district":{"key":"09571","name":"Ansbach","type":"Landkreis"},"federalState":{"key":"09","name":"Bayern"}},{"name":"Sauerbruchstr.","postalCode":"91522","locality":"Ansbach","municipality":{"key":"09561000","name":"Ansbach","type":"Kreisfreie_Stadt"},"district":{"key":"09561","name":"Ansbach","type":"Kreisfreie_Stadt"},"federalState":{"key":"09","name":"Bayern"}},{"name":"Sauerwiesen","postalCode":"91522","locality":"Ansbach","municipality":{"key":"09561000","name":"Ansbach","type":"Kreisfreie_Stadt"},"district":{"key":"09561","name":"Ansbach","type":"Kreisfreie_Stadt"},"federalState":{"key":"09","name":"Bayern"}},{"name":"Saynbachstr.","postalCode":"56235","locality":"Ransbach-Baumbach","municipality":{"key":"07143062","name":"Ransbach-Baumbach, Stadt","type":"Stadt"},"district":{"key":"07143","name":"Westerwaldkreis","type":"Landkreis"},"federalState":{"key":"07","name":"Rheinland-Pfalz"}},{"name":"Schäferweg","postalCode":"91522","locality":"Ansbach","municipality":{"key":"09561000","name":"Ansbach","type":"Kreisfreie_Stadt"},"district":{"key":"09561","name":"Ansbach","type":"Kreisfreie_Stadt"},"federalState":{"key":"09","name":"Bayern"}},{"name":"Schaitbergerstr.","postalCode":"91522","locality":"Ansbach","municipality":{"key":"09561000","name":"Ansbach","type":"Kreisfreie_Stadt"},"district":{"key":"09561","name":"Ansbach","type":"Kreisfreie_Stadt"},"federalState":{"key":"09","name":"Bayern"}},{"name":"Schalkhäuser Landstr.","postalCode":"91522","locality":"Ansbach","municipality":{"key":"09561000","name":"Ansbach","type":"Kreisfreie_Stadt"},"district":{"key":"09561","name":"Ansbach","type":"Kreisfreie_Stadt"},"federalState":{"key":"09","name":"Bayern"}},{"name":"Schalkhäuser Str.","postalCode":"91522","locality":"Ansbach","municipality":{"key":"09561000","name":"Ansbach","type":"Kreisfreie_Stadt"},"district":{"key":"09561","name":"Ansbach","type":"Kreisfreie_Stadt"},"federalState":{"key":"09","name":"Bayern"}},{"name":"Schellingweg","postalCode":"91522","locality":"Ansbach","municipality":{"key":"09561000","name":"Ansbach","type":"Kreisfreie_Stadt"},"district":{"key":"09561","name":"Ansbach","type":"Kreisfreie_Stadt"},"federalState":{"key":"09","name":"Bayern"}},{"name":"Schenkstr.","postalCode":"91522","locality":"Ansbach","municipality":{"key":"09561000","name":"Ansbach","type":"Kreisfreie_Stadt"},"district":{"key":"09561","name":"Ansbach","type":"Kreisfreie_Stadt"},"federalState":{"key":"09","name":"Bayern"}},{"name":"Schillerstr.","postalCode":"56235","locality":"Ransbach-Baumbach","municipality":{"key":"07143062","name":"Ransbach-Baumbach, Stadt","type":"Stadt"},"district":{"key":"07143","name":"Westerwaldkreis","type":"Landkreis"},"federalState":{"key":"07","name":"Rheinland-Pfalz"}},{"name":"Schillerstr.","postalCode":"91522","locality":"Ansbach","municipality":{"key":"09561000","name":"Ansbach","type":"Kreisfreie_Stadt"},"district":{"key":"09561","name":"Ansbach","type":"Kreisfreie_Stadt"},"federalState":{"key":"09","name":"Bayern"}},{"name":"Schleifweg","postalCode":"91522","locality":"Ansbach","municipality":{"key":"09561000","name":"Ansbach","type":"Kreisfreie_Stadt"},"district":{"key":"09561","name":"Ansbach","type":"Kreisfreie_Stadt"},"federalState":{"key":"09","name":"Bayern"}},{"name":"Schlesierstr.","postalCode":"91522","locality":"Ansbach","municipality":{"key":"09561000","name":"Ansbach","type":"Kreisfreie_Stadt"},"district":{"key":"09561","name":"Ansbach","type":"Kreisfreie_Stadt"},"federalState":{"key":"09","name":"Bayern"}},{"name":"Schloßberg","postalCode":"91623","locality":"Sachsen bei Ansbach","municipality":{"key":"09571196","name":"Sachsen b.Ansbach","type":"Kreisangehörige_Gemeinde"},"district":{"key":"09571","name":"Ansbach","type":"Landkreis"},"federalState":{"key":"09","name":"Bayern"}},{"name":"Schloßstr.","postalCode":"91522","locality":"Ansbach","municipality":{"key":"09561000","name":"Ansbach","type":"Kreisfreie_Stadt"},"district":{"key":"09561","name":"Ansbach","type":"Kreisfreie_Stadt"},"federalState":{"key":"09","name":"Bayern"}},{"name":"Schmiedstr.","postalCode":"91522","locality":"Ansbach","municipality":{"key":"09561000","name":"Ansbach","type":"Kreisfreie_Stadt"},"district":{"key":"09561","name":"Ansbach","type":"Kreisfreie_Stadt"},"federalState":{"key":"09","name":"Bayern"}},{"name":"Schönau","postalCode":"91522","locality":"Ansbach","municipality":{"key":"09561000","name":"Ansbach","type":"Kreisfreie_Stadt"},"district":{"key":"09561","name":"Ansbach","type":"Kreisfreie_Stadt"},"federalState":{"key":"09","name":"Bayern"}},{"name":"Schönbrunnstr.","postalCode":"91522","locality":"Ansbach","municipality":{"key":"09561000","name":"Ansbach","type":"Kreisfreie_Stadt"},"district":{"key":"09561","name":"Ansbach","type":"Kreisfreie_Stadt"},"federalState":{"key":"09","name":"Bayern"}},{"name":"Schöneckerstr.","postalCode":"91522","locality":"Ansbach","municipality":{"key":"09561000","name":"Ansbach","type":"Kreisfreie_Stadt"},"district":{"key":"09561","name":"Ansbach","type":"Kreisfreie_Stadt"},"federalState":{"key":"09","name":"Bayern"}},{"name":"Schönfeldstr.","postalCode":"91522","locality":"Ansbach","municipality":{"key":"09561000","name":"Ansbach","type":"Kreisfreie_Stadt"},"district":{"key":"09561","name":"Ansbach","type":"Kreisfreie_Stadt"},"federalState":{"key":"09","name":"Bayern"}},{"name":"Schrankenweg","postalCode":"91522","locality":"Ansbach","municipality":{"key":"09561000","name":"Ansbach","type":"Kreisfreie_Stadt"},"district":{"key":"09561","name":"Ansbach","type":"Kreisfreie_Stadt"},"federalState":{"key":"09","name":"Bayern"}},{"name":"Schreberweg","postalCode":"91522","locality":"Ansbach","municipality":{"key":"09561000","name":"Ansbach","type":"Kreisfreie_Stadt"},"district":{"key":"09561","name":"Ansbach","type":"Kreisfreie_Stadt"},"federalState":{"key":"09","name":"Bayern"}},{"name":"Schreglestr.","postalCode":"91522","locality":"Ansbach","municipality":{"key":"09561000","name":"Ansbach","type":"Kreisfreie_Stadt"},"district":{"key":"09561","name":"Ansbach","type":"Kreisfreie_Stadt"},"federalState":{"key":"09","name":"Bayern"}},{"name":"Schreibmüllerstr.","postalCode":"91522","locality":"Ansbach","municipality":{"key":"09561000","name":"Ansbach","type":"Kreisfreie_Stadt"},"district":{"key":"09561","name":"Ansbach","type":"Kreisfreie_Stadt"},"federalState":{"key":"09","name":"Bayern"}},{"name":"Schubertstr.","postalCode":"91522","locality":"Ansbach","municipality":{"key":"09561000","name":"Ansbach","type":"Kreisfreie_Stadt"},"district":{"key":"09561","name":"Ansbach","type":"Kreisfreie_Stadt"},"federalState":{"key":"09","name":"Bayern"}},{"name":"Schulstr.","postalCode":"56235","locality":"Ransbach-Baumbach","municipality":{"key":"07143062","name":"Ransbach-Baumbach, Stadt","type":"Stadt"},"district":{"key":"07143","name":"Westerwaldkreis","type":"Landkreis"},"federalState":{"key":"07","name":"Rheinland-Pfalz"}},{"name":"Schulstr.","postalCode":"91522","locality":"Ansbach","municipality":{"key":"09561000","name":"Ansbach","type":"Kreisfreie_Stadt"},"district":{"key":"09561","name":"Ansbach","type":"Kreisfreie_Stadt"},"federalState":{"key":"09","name":"Bayern"}},{"name":"Schulweg","postalCode":"56235","locality":"Ransbach-Baumbach","municipality":{"key":"07143062","name":"Ransbach-Baumbach, Stadt","type":"Stadt"},"district":{"key":"07143","name":"Westerwaldkreis","type":"Landkreis"},"federalState":{"key":"07","name":"Rheinland-Pfalz"}},{"name":"Schwabedastr.","postalCode":"91522","locality":"Ansbach","municipality":{"key":"09561000","name":"Ansbach","type":"Kreisfreie_Stadt"},"district":{"key":"09561","name":"Ansbach","type":"Kreisfreie_Stadt"},"federalState":{"key":"09","name":"Bayern"}},{"name":"Schwalbenpfad","postalCode":"56235","locality":"Ransbach-Baumbach","municipality":{"key":"07143062","name":"Ransbach-Baumbach, Stadt","type":"Stadt"},"district":{"key":"07143","name":"Westerwaldkreis","type":"Landkreis"},"federalState":{"key":"07","name":"Rheinland-Pfalz"}},{"name":"Schwalbenstr.","postalCode":"91522","locality":"Ansbach","municipality":{"key":"09561000","name":"Ansbach","type":"Kreisfreie_Stadt"},"district":{"key":"09561","name":"Ansbach","type":"Kreisfreie_Stadt"},"federalState":{"key":"09","name":"Bayern"}},{"name":"Schwanenweg","postalCode":"56235","locality":"Ransbach-Baumbach","municipality":{"key":"07143062","name":"Ransbach-Baumbach, Stadt","type":"Stadt"},"district":{"key":"07143","name":"Westerwaldkreis","type":"Landkreis"},"federalState":{"key":"07","name":"Rheinland-Pfalz"}},{"name":"Schwarzbeckstr.","postalCode":"91522","locality":"Ansbach","municipality":{"key":"09561000","name":"Ansbach","type":"Kreisfreie_Stadt"},"district":{"key":"09561","name":"Ansbach","type":"Kreisfreie_Stadt"},"federalState":{"key":"09","name":"Bayern"}},{"name":"Seckendorffstr.","postalCode":"91522","locality":"Ansbach","municipality":{"key":"09561000","name":"Ansbach","type":"Kreisfreie_Stadt"},"district":{"key":"09561","name":"Ansbach","type":"Kreisfreie_Stadt"},"federalState":{"key":"09","name":"Bayern"}},{"name":"Seligerstr.","postalCode":"91522","locality":"Ansbach","municipality":{"key":"09561000","name":"Ansbach","type":"Kreisfreie_Stadt"},"district":{"key":"09561","name":"Ansbach","type":"Kreisfreie_Stadt"},"federalState":{"key":"09","name":"Bayern"}},{"name":"Semmelweisstr.","postalCode":"91522","locality":"Ansbach","municipality":{"key":"09561000","name":"Ansbach","type":"Kreisfreie_Stadt"},"district":{"key":"09561","name":"Ansbach","type":"Kreisfreie_Stadt"},"federalState":{"key":"09","name":"Bayern"}},{"name":"Siedlerweg","postalCode":"91522","locality":"Ansbach","municipality":{"key":"09561000","name":"Ansbach","type":"Kreisfreie_Stadt"},"district":{"key":"09561","name":"Ansbach","type":"Kreisfreie_Stadt"},"federalState":{"key":"09","name":"Bayern"}},{"name":"Siegstr.","postalCode":"56235","locality":"Ransbach-Baumbach","municipality":{"key":"07143062","name":"Ransbach-Baumbach, Stadt","type":"Stadt"},"district":{"key":"07143","name":"Westerwaldkreis","type":"Landkreis"},"federalState":{"key":"07","name":"Rheinland-Pfalz"}},{"name":"Silberallee","postalCode":"91522","locality":"Ansbach","municipality":{"key":"09561000","name":"Ansbach","type":"Kreisfreie_Stadt"},"district":{"key":"09561","name":"Ansbach","type":"Kreisfreie_Stadt"},"federalState":{"key":"09","name":"Bayern"}},{"name":"Silberbachstr.","postalCode":"91623","locality":"Sachsen bei Ansbach","municipality":{"key":"09571196","name":"Sachsen b.Ansbach","type":"Kreisangehörige_Gemeinde"},"district":{"key":"09571","name":"Ansbach","type":"Landkreis"},"federalState":{"key":"09","name":"Bayern"}},{"name":"Sommerau","postalCode":"91522","locality":"Ansbach","municipality":{"key":"09561000","name":"Ansbach","type":"Kreisfreie_Stadt"},"district":{"key":"09561","name":"Ansbach","type":"Kreisfreie_Stadt"},"federalState":{"key":"09","name":"Bayern"}},{"name":"Sonnenberg","postalCode":"91522","locality":"Ansbach","municipality":{"key":"09561000","name":"Ansbach","type":"Kreisfreie_Stadt"},"district":{"key":"09561","name":"Ansbach","type":"Kreisfreie_Stadt"},"federalState":{"key":"09","name":"Bayern"}},{"name":"Sonnenfeld","postalCode":"91522","locality":"Ansbach","municipality":{"key":"09561000","name":"Ansbach","type":"Kreisfreie_Stadt"},"district":{"key":"09561","name":"Ansbach","type":"Kreisfreie_Stadt"},"federalState":{"key":"09","name":"Bayern"}},{"name":"Sonnenstr.","postalCode":"91522","locality":"Ansbach","municipality":{"key":"09561000","name":"Ansbach","type":"Kreisfreie_Stadt"},"district":{"key":"09561","name":"Ansbach","type":"Kreisfreie_Stadt"},"federalState":{"key":"09","name":"Bayern"}},{"name":"Sonnenstr.","postalCode":"91623","locality":"Sachsen bei Ansbach","municipality":{"key":"09571196","name":"Sachsen b.Ansbach","type":"Kreisangehörige_Gemeinde"},"district":{"key":"09571","name":"Ansbach","type":"Landkreis"},"federalState":{"key":"09","name":"Bayern"}},{"name":"Späthstr.","postalCode":"91522","locality":"Ansbach","municipality":{"key":"09561000","name":"Ansbach","type":"Kreisfreie_Stadt"},"district":{"key":"09561","name":"Ansbach","type":"Kreisfreie_Stadt"},"federalState":{"key":"09","name":"Bayern"}},{"name":"Spechtstr.","postalCode":"91522","locality":"Ansbach","municipality":{"key":"09561000","name":"Ansbach","type":"Kreisfreie_Stadt"},"district":{"key":"09561","name":"Ansbach","type":"Kreisfreie_Stadt"},"federalState":{"key":"09","name":"Bayern"}},{"name":"Sperberweg","postalCode":"91522","locality":"Ansbach","municipality":{"key":"09561000","name":"Ansbach","type":"Kreisfreie_Stadt"},"district":{"key":"09561","name":"Ansbach","type":"Kreisfreie_Stadt"},"federalState":{"key":"09","name":"Bayern"}},{"name":"Stadtgarten","postalCode":"91522","locality":"Ansbach","municipality":{"key":"09561000","name":"Ansbach","type":"Kreisfreie_Stadt"},"district":{"key":"09561","name":"Ansbach","type":"Kreisfreie_Stadt"},"federalState":{"key":"09","name":"Bayern"}},{"name":"Stadtgraben","postalCode":"91522","locality":"Ansbach","municipality":{"key":"09561000","name":"Ansbach","type":"Kreisfreie_Stadt"},"district":{"key":"09561","name":"Ansbach","type":"Kreisfreie_Stadt"},"federalState":{"key":"09","name":"Bayern"}},{"name":"Talstr.","postalCode":"91632","locality":"Wieseth","municipality":{"key":"09571223","name":"Wieseth","type":"Kreisangehörige_Gemeinde"},"district":{"key":"09571","name":"Ansbach","type":"Landkreis"},"federalState":{"key":"09","name":"Bayern"}},{"name":"Tulpenstr.","postalCode":"91632","locality":"Wieseth","municipality":{"key":"09571223","name":"Wieseth","type":"Kreisangehörige_Gemeinde"},"district":{"key":"09571","name":"Ansbach","type":"Landkreis"},"federalState":{"key":"09","name":"Bayern"}},{"name":"Uhlandstr.","postalCode":"91522","locality":"Ansbach","municipality":{"key":"09561000","name":"Ansbach","type":"Kreisfreie_Stadt"},"district":{"key":"09561","name":"Ansbach","type":"Kreisfreie_Stadt"},"federalState":{"key":"09","name":"Bayern"}},{"name":"Ulanenweg","postalCode":"91522","locality":"Ansbach","municipality":{"key":"09561000","name":"Ansbach","type":"Kreisfreie_Stadt"},"district":{"key":"09561","name":"Ansbach","type":"Kreisfreie_Stadt"},"federalState":{"key":"09","name":"Bayern"}},{"name":"Ulmenstr.","postalCode":"91623","locality":"Sachsen bei Ansbach","municipality":{"key":"09571196","name":"Sachsen b.Ansbach","type":"Kreisangehörige_Gemeinde"},"district":{"key":"09571","name":"Ansbach","type":"Landkreis"},"federalState":{"key":"09","name":"Bayern"}},{"name":"Ulmenweg","postalCode":"56235","locality":"Ransbach-Baumbach","municipality":{"key":"07143062","name":"Ransbach-Baumbach, Stadt","type":"Stadt"},"district":{"key":"07143","name":"Westerwaldkreis","type":"Landkreis"},"federalState":{"key":"07","name":"Rheinland-Pfalz"}},{"name":"Ulmenweg","postalCode":"91522","locality":"Ansbach","municipality":{"key":"09561000","name":"Ansbach","type":"Kreisfreie_Stadt"},"district":{"key":"09561","name":"Ansbach","type":"Kreisfreie_Stadt"},"federalState":{"key":"09","name":"Bayern"}},{"name":"Untere Mühlleite","postalCode":"91522","locality":"Ansbach","municipality":{"key":"09561000","name":"Ansbach","type":"Kreisfreie_Stadt"},"district":{"key":"09561","name":"Ansbach","type":"Kreisfreie_Stadt"},"federalState":{"key":"09","name":"Bayern"}},{"name":"Unterer Weinberg","postalCode":"91522","locality":"Ansbach","municipality":{"key":"09561000","name":"Ansbach","type":"Kreisfreie_Stadt"},"district":{"key":"09561","name":"Ansbach","type":"Kreisfreie_Stadt"},"federalState":{"key":"09","name":"Bayern"}},{"name":"Urlasstr.","postalCode":"91522","locality":"Ansbach","municipality":{"key":"09561000","name":"Ansbach","type":"Kreisfreie_Stadt"},"district":{"key":"09561","name":"Ansbach","type":"Kreisfreie_Stadt"},"federalState":{"key":"09","name":"Bayern"}},{"name":"Urlesstr.","postalCode":"91623","locality":"Sachsen bei Ansbach","municipality":{"key":"09571196","name":"Sachsen b.Ansbach","type":"Kreisangehörige_Gemeinde"},"district":{"key":"09571","name":"Ansbach","type":"Landkreis"},"federalState":{"key":"09","name":"Bayern"}},{"name":"Veit-Stoß-Str.","postalCode":"91623","locality":"Sachsen bei Ansbach","municipality":{"key":"09571196","name":"Sachsen b.Ansbach","type":"Kreisangehörige_Gemeinde"},"district":{"key":"09571","name":"Ansbach","type":"Landkreis"},"federalState":{"key":"09","name":"Bayern"}},{"name":"Vetterstr.","postalCode":"91522","locality":"Ansbach","municipality":{"key":"09561000","name":"Ansbach","type":"Kreisfreie_Stadt"},"district":{"key":"09561","name":"Ansbach","type":"Kreisfreie_Stadt"},"federalState":{"key":"09","name":"Bayern"}},{"name":"Virchowstr.","postalCode":"91522","locality":"Ansbach","municipality":{"key":"09561000","name":"Ansbach","type":"Kreisfreie_Stadt"},"district":{"key":"09561","name":"Ansbach","type":"Kreisfreie_Stadt"},"federalState":{"key":"09","name":"Bayern"}},{"name":"Vogelherd","postalCode":"91522","locality":"Ansbach","municipality":{"key":"09561000","name":"Ansbach","type":"Kreisfreie_Stadt"},"district":{"key":"09561","name":"Ansbach","type":"Kreisfreie_Stadt"},"federalState":{"key":"09","name":"Bayern"}},{"name":"Vogelweide","postalCode":"91522","locality":"Ansbach","municipality":{"key":"09561000","name":"Ansbach","type":"Kreisfreie_Stadt"},"district":{"key":"09561","name":"Ansbach","type":"Kreisfreie_Stadt"},"federalState":{"key":"09","name":"Bayern"}},{"name":"Vogtherrstr.","postalCode":"91522","locality":"Ansbach","municipality":{"key":"09561000","name":"Ansbach","type":"Kreisfreie_Stadt"},"district":{"key":"09561","name":"Ansbach","type":"Kreisfreie_Stadt"},"federalState":{"key":"09","name":"Bayern"}},{"name":"Volkersdorfer Str.","postalCode":"91623","locality":"Sachsen bei Ansbach","municipality":{"key":"09571196","name":"Sachsen b.Ansbach","type":"Kreisangehörige_Gemeinde"},"district":{"key":"09571","name":"Ansbach","type":"Landkreis"},"federalState":{"key":"09","name":"Bayern"}},{"name":"Von-Reifenberg-Str.","postalCode":"56235","locality":"Ransbach-Baumbach","municipality":{"key":"07143062","name":"Ransbach-Baumbach, Stadt","type":"Stadt"},"district":{"key":"07143","name":"Westerwaldkreis","type":"Landkreis"},"federalState":{"key":"07","name":"Rheinland-Pfalz"}},{"name":"Von-Steuben-Str.","postalCode":"91522","locality":"Ansbach","municipality":{"key":"09561000","name":"Ansbach","type":"Kreisfreie_Stadt"},"district":{"key":"09561","name":"Ansbach","type":"Kreisfreie_Stadt"},"federalState":{"key":"09","name":"Bayern"}},{"name":"Von-Weber-Str.","postalCode":"91522","locality":"Ansbach","municipality":{"key":"09561000","name":"Ansbach","type":"Kreisfreie_Stadt"},"district":{"key":"09561","name":"Ansbach","type":"Kreisfreie_Stadt"},"federalState":{"key":"09","name":"Bayern"}},{"name":"Waldemar-Fritsch-Weg","postalCode":"91522","locality":"Ansbach","municipality":{"key":"09561000","name":"Ansbach","type":"Kreisfreie_Stadt"},"district":{"key":"09561","name":"Ansbach","type":"Kreisfreie_Stadt"},"federalState":{"key":"09","name":"Bayern"}},{"name":"Waldheimweg","postalCode":"91522","locality":"Ansbach","municipality":{"key":"09561000","name":"Ansbach","type":"Kreisfreie_Stadt"},"district":{"key":"09561","name":"Ansbach","type":"Kreisfreie_Stadt"},"federalState":{"key":"09","name":"Bayern"}},{"name":"Waldstr.","postalCode":"91522","locality":"Ansbach","municipality":{"key":"09561000","name":"Ansbach","type":"Kreisfreie_Stadt"},"district":{"key":"09561","name":"Ansbach","type":"Kreisfreie_Stadt"},"federalState":{"key":"09","name":"Bayern"}},{"name":"Waldstr.","postalCode":"91623","locality":"Sachsen bei Ansbach","municipality":{"key":"09571196","name":"Sachsen b.Ansbach","type":"Kreisangehörige_Gemeinde"},"district":{"key":"09571","name":"Ansbach","type":"Landkreis"},"federalState":{"key":"09","name":"Bayern"}},{"name":"Waldweg","postalCode":"56235","locality":"Ransbach-Baumbach","municipality":{"key":"07143062","name":"Ransbach-Baumbach, Stadt","type":"Stadt"},"district":{"key":"07143","name":"Westerwaldkreis","type":"Landkreis"},"federalState":{"key":"07","name":"Rheinland-Pfalz"}},{"name":"Wallensteinstr.","postalCode":"91522","locality":"Ansbach","municipality":{"key":"09561000","name":"Ansbach","type":"Kreisfreie_Stadt"},"district":{"key":"09561","name":"Ansbach","type":"Kreisfreie_Stadt"},"federalState":{"key":"09","name":"Bayern"}},{"name":"Wallersdorfer Steig","postalCode":"91522","locality":"Ansbach","municipality":{"key":"09561000","name":"Ansbach","type":"Kreisfreie_Stadt"},"district":{"key":"09561","name":"Ansbach","type":"Kreisfreie_Stadt"},"federalState":{"key":"09","name":"Bayern"}},{"name":"Wallersdorfer Str.","postalCode":"91522","locality":"Ansbach","municipality":{"key":"09561000","name":"Ansbach","type":"Kreisfreie_Stadt"},"district":{"key":"09561","name":"Ansbach","type":"Kreisfreie_Stadt"},"federalState":{"key":"09","name":"Bayern"}},{"name":"Wannenweg","postalCode":"91522","locality":"Ansbach","municipality":{"key":"09561000","name":"Ansbach","type":"Kreisfreie_Stadt"},"district":{"key":"09561","name":"Ansbach","type":"Kreisfreie_Stadt"},"federalState":{"key":"09","name":"Bayern"}},{"name":"Weiherfeld","postalCode":"91522","locality":"Ansbach","municipality":{"key":"09561000","name":"Ansbach","type":"Kreisfreie_Stadt"},"district":{"key":"09561","name":"Ansbach","type":"Kreisfreie_Stadt"},"federalState":{"key":"09","name":"Bayern"}},{"name":"Weihergasse","postalCode":"91522","locality":"Ansbach","municipality":{"key":"09561000","name":"Ansbach","type":"Kreisfreie_Stadt"},"district":{"key":"09561","name":"Ansbach","type":"Kreisfreie_Stadt"},"federalState":{"key":"09","name":"Bayern"}},{"name":"Weiherschlagallee","postalCode":"91522","locality":"Ansbach","municipality":{"key":"09561000","name":"Ansbach","type":"Kreisfreie_Stadt"},"district":{"key":"09561","name":"Ansbach","type":"Kreisfreie_Stadt"},"federalState":{"key":"09","name":"Bayern"}},{"name":"Weiherstr.","postalCode":"56235","locality":"Ransbach-Baumbach","municipality":{"key":"07143062","name":"Ransbach-Baumbach, Stadt","type":"Stadt"},"district":{"key":"07143","name":"Westerwaldkreis","type":"Landkreis"},"federalState":{"key":"07","name":"Rheinland-Pfalz"}},{"name":"Weinbergstr.","postalCode":"91522","locality":"Ansbach","municipality":{"key":"09561000","name":"Ansbach","type":"Kreisfreie_Stadt"},"district":{"key":"09561","name":"Ansbach","type":"Kreisfreie_Stadt"},"federalState":{"key":"09","name":"Bayern"}},{"name":"Weinbergstr.","postalCode":"91623","locality":"Sachsen bei Ansbach","municipality":{"key":"09571196","name":"Sachsen b.Ansbach","type":"Kreisangehörige_Gemeinde"},"district":{"key":"09571","name":"Ansbach","type":"Landkreis"},"federalState":{"key":"09","name":"Bayern"}},{"name":"Weinleite","postalCode":"91522","locality":"Ansbach","municipality":{"key":"09561000","name":"Ansbach","type":"Kreisfreie_Stadt"},"district":{"key":"09561","name":"Ansbach","type":"Kreisfreie_Stadt"},"federalState":{"key":"09","name":"Bayern"}},{"name":"Weißäcker","postalCode":"91522","locality":"Ansbach","municipality":{"key":"09561000","name":"Ansbach","type":"Kreisfreie_Stadt"},"district":{"key":"09561","name":"Ansbach","type":"Kreisfreie_Stadt"},"federalState":{"key":"09","name":"Bayern"}},{"name":"Welserstr.","postalCode":"91522","locality":"Ansbach","municipality":{"key":"09561000","name":"Ansbach","type":"Kreisfreie_Stadt"},"district":{"key":"09561","name":"Ansbach","type":"Kreisfreie_Stadt"},"federalState":{"key":"09","name":"Bayern"}},{"name":"Wendenstr.","postalCode":"91522","locality":"Ansbach","municipality":{"key":"09561000","name":"Ansbach","type":"Kreisfreie_Stadt"},"district":{"key":"09561","name":"Ansbach","type":"Kreisfreie_Stadt"},"federalState":{"key":"09","name":"Bayern"}},{"name":"Werner-von-Siemens-Str.","postalCode":"91522","locality":"Ansbach","municipality":{"key":"09561000","name":"Ansbach","type":"Kreisfreie_Stadt"},"district":{"key":"09561","name":"Ansbach","type":"Kreisfreie_Stadt"},"federalState":{"key":"09","name":"Bayern"}},{"name":"Westallee","postalCode":"56235","locality":"Ransbach-Baumbach","municipality":{"key":"07143062","name":"Ransbach-Baumbach, Stadt","type":"Stadt"},"district":{"key":"07143","name":"Westerwaldkreis","type":"Landkreis"},"federalState":{"key":"07","name":"Rheinland-Pfalz"}},{"name":"Westerwaldstr.","postalCode":"56235","locality":"Ransbach-Baumbach","municipality":{"key":"07143062","name":"Ransbach-Baumbach, Stadt","type":"Stadt"},"district":{"key":"07143","name":"Westerwaldkreis","type":"Landkreis"},"federalState":{"key":"07","name":"Rheinland-Pfalz"}},{"name":"Weststr.","postalCode":"56235","locality":"Ransbach-Baumbach","municipality":{"key":"07143062","name":"Ransbach-Baumbach, Stadt","type":"Stadt"},"district":{"key":"07143","name":"Westerwaldkreis","type":"Landkreis"},"federalState":{"key":"07","name":"Rheinland-Pfalz"}},{"name":"Wiesenstr.","postalCode":"91522","locality":"Ansbach","municipality":{"key":"09561000","name":"Ansbach","type":"Kreisfreie_Stadt"},"district":{"key":"09561","name":"Ansbach","type":"Kreisfreie_Stadt"},"federalState":{"key":"09","name":"Bayern"}},{"name":"Wiesenweg","postalCode":"56235","locality":"Ransbach-Baumbach","municipality":{"key":"07143062","name":"Ransbach-Baumbach, Stadt","type":"Stadt"},"district":{"key":"07143","name":"Westerwaldkreis","type":"Landkreis"},"federalState":{"key":"07","name":"Rheinland-Pfalz"}},{"name":"Wiesenweg","postalCode":"91522","locality":"Ansbach","municipality":{"key":"09561000","name":"Ansbach","type":"Kreisfreie_Stadt"},"district":{"key":"09561","name":"Ansbach","type":"Kreisfreie_Stadt"},"federalState":{"key":"09","name":"Bayern"}},{"name":"Wiesenweg","postalCode":"91623","locality":"Sachsen bei Ansbach","municipality":{"key":"09571196","name":"Sachsen b.Ansbach","type":"Kreisangehörige_Gemeinde"},"district":{"key":"09571","name":"Ansbach","type":"Landkreis"},"federalState":{"key":"09","name":"Bayern"}},{"name":"Wilhelmstr.","postalCode":"56235","locality":"Ransbach-Baumbach","municipality":{"key":"07143062","name":"Ransbach-Baumbach, Stadt","type":"Stadt"},"district":{"key":"07143","name":"Westerwaldkreis","type":"Landkreis"},"federalState":{"key":"07","name":"Rheinland-Pfalz"}},{"name":"Windmühlberg","postalCode":"91522","locality":"Ansbach","municipality":{"key":"09561000","name":"Ansbach","type":"Kreisfreie_Stadt"},"district":{"key":"09561","name":"Ansbach","type":"Kreisfreie_Stadt"},"federalState":{"key":"09","name":"Bayern"}},{"name":"Windsbacher Str.","postalCode":"91522","locality":"Ansbach","municipality":{"key":"09561000","name":"Ansbach","type":"Kreisfreie_Stadt"},"district":{"key":"09561","name":"Ansbach","type":"Kreisfreie_Stadt"},"federalState":{"key":"09","name":"Bayern"}},{"name":"Wirkerstr.","postalCode":"56235","locality":"Ransbach-Baumbach","municipality":{"key":"07143062","name":"Ransbach-Baumbach, Stadt","type":"Stadt"},"district":{"key":"07143","name":"Westerwaldkreis","type":"Landkreis"},"federalState":{"key":"07","name":"Rheinland-Pfalz"}},{"name":"Wirthsgasse","postalCode":"91522","locality":"Ansbach","municipality":{"key":"09561000","name":"Ansbach","type":"Kreisfreie_Stadt"},"district":{"key":"09561","name":"Ansbach","type":"Kreisfreie_Stadt"},"federalState":{"key":"09","name":"Bayern"}},{"name":"Wohnbaustr.","postalCode":"91522","locality":"Ansbach","municipality":{"key":"09561000","name":"Ansbach","type":"Kreisfreie_Stadt"},"district":{"key":"09561","name":"Ansbach","type":"Kreisfreie_Stadt"},"federalState":{"key":"09","name":"Bayern"}},{"name":"Wolframstr.","postalCode":"91522","locality":"Ansbach","municipality":{"key":"09561000","name":"Ansbach","type":"Kreisfreie_Stadt"},"district":{"key":"09561","name":"Ansbach","type":"Kreisfreie_Stadt"},"federalState":{"key":"09","name":"Bayern"}},{"name":"Würzburger Landstr.","postalCode":"91522","locality":"Ansbach","municipality":{"key":"09561000","name":"Ansbach","type":"Kreisfreie_Stadt"},"district":{"key":"09561","name":"Ansbach","type":"Kreisfreie_Stadt"},"federalState":{"key":"09","name":"Bayern"}},{"name":"Würzburger Str.","postalCode":"91522","locality":"Ansbach","municipality":{"key":"09561000","name":"Ansbach","type":"Kreisfreie_Stadt"},"district":{"key":"09561","name":"Ansbach","type":"Kreisfreie_Stadt"},"federalState":{"key":"09","name":"Bayern"}},{"name":"Zimmersdorfer Str.","postalCode":"91632","locality":"Wieseth","municipality":{"key":"09571223","name":"Wieseth","type":"Kreisangehörige_Gemeinde"},"district":{"key":"09571","name":"Ansbach","type":"Landkreis"},"federalState":{"key":"09","name":"Bayern"}},]