[{"name":"Am Mühlenplatz","postalCode":"56584","locality":"Meinborn","municipality":{"key":"07138042","name":"Meinborn","type":"Kreisangehörige_Gemeinde"},"district":{"key":"07138","name":"Neuwied","type":"Landkreis"},"federalState":{"key":"07","name":"Rheinland-Pfalz"}},{"name":"Auf dem Löh","postalCode":"56584","locality":"Meinborn","municipality":{"key":"07138042","name":"Meinborn","type":"Kreisangehörige_Gemeinde"},"district":{"key":"07138","name":"Neuwied","type":"Landkreis"},"federalState":{"key":"07","name":"Rheinland-Pfalz"}},{"name":"Auf den Weiden","postalCode":"56584","locality":"Meinborn","municipality":{"key":"07138042","name":"Meinborn","type":"Kreisangehörige_Gemeinde"},"district":{"key":"07138","name":"Neuwied","type":"Landkreis"},"federalState":{"key":"07","name":"Rheinland-Pfalz"}},{"name":"Bergstr.","postalCode":"56584","locality":"Meinborn","municipality":{"key":"07138042","name":"Meinborn","type":"Kreisangehörige_Gemeinde"},"district":{"key":"07138","name":"Neuwied","type":"Landkreis"},"federalState":{"key":"07","name":"Rheinland-Pfalz"}},{"name":"Birkenweg","postalCode":"56584","locality":"Meinborn","municipality":{"key":"07138042","name":"Meinborn","type":"Kreisangehörige_Gemeinde"},"district":{"key":"07138","name":"Neuwied","type":"Landkreis"},"federalState":{"key":"07","name":"Rheinland-Pfalz"}},{"name":"Bismarckstr.","postalCode":"56584","locality":"Meinborn","municipality":{"key":"07138042","name":"Meinborn","type":"Kreisangehörige_Gemeinde"},"district":{"key":"07138","name":"Neuwied","type":"Landkreis"},"federalState":{"key":"07","name":"Rheinland-Pfalz"}},{"name":"Calvinstr.","postalCode":"56567","locality":"Neuwied","municipality":{"key":"07138045","name":"Neuwied, Stadt","type":"Stadt"},"district":{"key":"07138","name":"Neuwied","type":"Landkreis"},"federalState":{"key":"07","name":"Rheinland-Pfalz"}},{"name":"Capybaras","postalCode":"56566","locality":"Neuwied","municipality":{"key":"07138045","name":"Neuwied, Stadt","type":"Stadt"},"district":{"key":"07138","name":"Neuwied","type":"Landkreis"},"federalState":{"key":"07","name":"Rheinland-Pfalz"}},{"name":"Carmen-Sylva-Garten","postalCode":"56564","locality":"Neuwied","municipality":{"key":"07138045","name":"Neuwied, Stadt","type":"Stadt"},"district":{"key":"07138","name":"Neuwied","type":"Landkreis"},"federalState":{"key":"07","name":"Rheinland-Pfalz"}},{"name":"Cheruskerstr.","postalCode":"56567","locality":"Neuwied","municipality":{"key":"07138045","name":"Neuwied, Stadt","type":"Stadt"},"district":{"key":"07138","name":"Neuwied","type":"Landkreis"},"federalState":{"key":"07","name":"Rheinland-Pfalz"}},{"name":"Clemensstr.","postalCode":"56566","locality":"Neuwied","municipality":{"key":"07138045","name":"Neuwied, Stadt","type":"Stadt"},"district":{"key":"07138","name":"Neuwied","type":"Landkreis"},"federalState":{"key":"07","name":"Rheinland-Pfalz"}},{"name":"Cranachstr.","postalCode":"56566","locality":"Neuwied","municipality":{"key":"07138045","name":"Neuwied, Stadt","type":"Stadt"},"district":{"key":"07138","name":"Neuwied","type":"Landkreis"},"federalState":{"key":"07","name":"Rheinland-Pfalz"}},{"name":"Dachspfad","postalCode":"56566","locality":"Neuwied","municipality":{"key":"07138045","name":"Neuwied, Stadt","type":"Stadt"},"district":{"key":"07138","name":"Neuwied","type":"Landkreis"},"federalState":{"key":"07","name":"Rheinland-Pfalz"}},{"name":"Dahlbachs Weg","postalCode":"56566","locality":"Neuwied","municipality":{"key":"07138045","name":"Neuwied, Stadt","type":"Stadt"},"district":{"key":"07138","name":"Neuwied","type":"Landkreis"},"federalState":{"key":"07","name":"Rheinland-Pfalz"}},{"name":"Dahlienweg","postalCode":"56566","locality":"Neuwied","municipality":{"key":"07138045","name":"Neuwied, Stadt","type":"Stadt"},"district":{"key":"07138","name":"Neuwied","type":"Landkreis"},"federalState":{"key":"07","name":"Rheinland-Pfalz"}},{"name":"Dammstr.","postalCode":"56564","locality":"Neuwied","municipality":{"key":"07138045","name":"Neuwied, Stadt","type":"Stadt"},"district":{"key":"07138","name":"Neuwied","type":"Landkreis"},"federalState":{"key":"07","name":"Rheinland-Pfalz"}},{"name":"Damwild","postalCode":"56566","locality":"Neuwied","municipality":{"key":"07138045","name":"Neuwied, Stadt","type":"Stadt"},"district":{"key":"07138","name":"Neuwied","type":"Landkreis"},"federalState":{"key":"07","name":"Rheinland-Pfalz"}},{"name":"Danziger Str.","postalCode":"56564","locality":"Neuwied","municipality":{"key":"07138045","name":"Neuwied, Stadt","type":"Stadt"},"district":{"key":"07138","name":"Neuwied","type":"Landkreis"},"federalState":{"key":"07","name":"Rheinland-Pfalz"}},{"name":"Deichanlage Neuwied","postalCode":"56564","locality":"Neuwied","municipality":{"key":"07138045","name":"Neuwied, Stadt","type":"Stadt"},"district":{"key":"07138","name":"Neuwied","type":"Landkreis"},"federalState":{"key":"07","name":"Rheinland-Pfalz"}},{"name":"Deichstr.","postalCode":"56564","locality":"Neuwied","municipality":{"key":"07138045","name":"Neuwied, Stadt","type":"Stadt"},"district":{"key":"07138","name":"Neuwied","type":"Landkreis"},"federalState":{"key":"07","name":"Rheinland-Pfalz"}},{"name":"Diamantstr.","postalCode":"56566","locality":"Neuwied","municipality":{"key":"07138045","name":"Neuwied, Stadt","type":"Stadt"},"district":{"key":"07138","name":"Neuwied","type":"Landkreis"},"federalState":{"key":"07","name":"Rheinland-Pfalz"}},{"name":"Dierdorfer Str.","postalCode":"56564","locality":"Neuwied","municipality":{"key":"07138045","name":"Neuwied, Stadt","type":"Stadt"},"district":{"key":"07138","name":"Neuwied","type":"Landkreis"},"federalState":{"key":"07","name":"Rheinland-Pfalz"}},{"name":"Dierdorfer Str.","postalCode":"56566","locality":"Neuwied","municipality":{"key":"07138045","name":"Neuwied, Stadt","type":"Stadt"},"district":{"key":"07138","name":"Neuwied","type":"Landkreis"},"federalState":{"key":"07","name":"Rheinland-Pfalz"}},{"name":"Dierdorfer Str.","postalCode":"56567","locality":"Neuwied","municipality":{"key":"07138045","name":"Neuwied, Stadt","type":"Stadt"},"district":{"key":"07138","name":"Neuwied","type":"Landkreis"},"federalState":{"key":"07","name":"Rheinland-Pfalz"}},{"name":"Dietrich-Bonhoeffer-Str.","postalCode":"56566","locality":"Neuwied","municipality":{"key":"07138045","name":"Neuwied, Stadt","type":"Stadt"},"district":{"key":"07138","name":"Neuwied","type":"Landkreis"},"federalState":{"key":"07","name":"Rheinland-Pfalz"}},{"name":"Donaustr.","postalCode":"56567","locality":"Neuwied","municipality":{"key":"07138045","name":"Neuwied, Stadt","type":"Stadt"},"district":{"key":"07138","name":"Neuwied","type":"Landkreis"},"federalState":{"key":"07","name":"Rheinland-Pfalz"}},{"name":"Dorfstr.","postalCode":"56567","locality":"Neuwied","municipality":{"key":"07138045","name":"Neuwied, Stadt","type":"Stadt"},"district":{"key":"07138","name":"Neuwied","type":"Landkreis"},"federalState":{"key":"07","name":"Rheinland-Pfalz"}},{"name":"Dr.-Gustav-Heinemann-Str.","postalCode":"56564","locality":"Neuwied","municipality":{"key":"07138045","name":"Neuwied, Stadt","type":"Stadt"},"district":{"key":"07138","name":"Neuwied","type":"Landkreis"},"federalState":{"key":"07","name":"Rheinland-Pfalz"}},{"name":"Dr.-Karl-Carstens-Str.","postalCode":"56564","locality":"Neuwied","municipality":{"key":"07138045","name":"Neuwied, Stadt","type":"Stadt"},"district":{"key":"07138","name":"Neuwied","type":"Landkreis"},"federalState":{"key":"07","name":"Rheinland-Pfalz"}},{"name":"Dr.-Lüssem-Str.","postalCode":"56566","locality":"Neuwied","municipality":{"key":"07138045","name":"Neuwied, Stadt","type":"Stadt"},"district":{"key":"07138","name":"Neuwied","type":"Landkreis"},"federalState":{"key":"07","name":"Rheinland-Pfalz"}},{"name":"Drosselpfad","postalCode":"56564","locality":"Neuwied","municipality":{"key":"07138045","name":"Neuwied, Stadt","type":"Stadt"},"district":{"key":"07138","name":"Neuwied","type":"Landkreis"},"federalState":{"key":"07","name":"Rheinland-Pfalz"}},{"name":"Durchgang Tor Parkplätze Aldi und Edeka","postalCode":"56566","locality":"Neuwied","municipality":{"key":"07138045","name":"Neuwied, Stadt","type":"Stadt"},"district":{"key":"07138","name":"Neuwied","type":"Landkreis"},"federalState":{"key":"07","name":"Rheinland-Pfalz"}},{"name":"Dürerstr.","postalCode":"56566","locality":"Neuwied","municipality":{"key":"07138045","name":"Neuwied, Stadt","type":"Stadt"},"district":{"key":"07138","name":"Neuwied","type":"Landkreis"},"federalState":{"key":"07","name":"Rheinland-Pfalz"}},{"name":"Erlenweg","postalCode":"56584","locality":"Meinborn","municipality":{"key":"07138042","name":"Meinborn","type":"Kreisangehörige_Gemeinde"},"district":{"key":"07138","name":"Neuwied","type":"Landkreis"},"federalState":{"key":"07","name":"Rheinland-Pfalz"}},{"name":"Fackertsfeld","postalCode":"56584","locality":"Meinborn","municipality":{"key":"07138042","name":"Meinborn","type":"Kreisangehörige_Gemeinde"},"district":{"key":"07138","name":"Neuwied","type":"Landkreis"},"federalState":{"key":"07","name":"Rheinland-Pfalz"}},{"name":"Flurstr.","postalCode":"56584","locality":"Meinborn","municipality":{"key":"07138042","name":"Meinborn","type":"Kreisangehörige_Gemeinde"},"district":{"key":"07138","name":"Neuwied","type":"Landkreis"},"federalState":{"key":"07","name":"Rheinland-Pfalz"}},{"name":"Friedrichstr.","postalCode":"56584","locality":"Meinborn","municipality":{"key":"07138042","name":"Meinborn","type":"Kreisangehörige_Gemeinde"},"district":{"key":"07138","name":"Neuwied","type":"Landkreis"},"federalState":{"key":"07","name":"Rheinland-Pfalz"}},{"name":"Fulkwinstr.","postalCode":"56584","locality":"Meinborn","municipality":{"key":"07138042","name":"Meinborn","type":"Kreisangehörige_Gemeinde"},"district":{"key":"07138","name":"Neuwied","type":"Landkreis"},"federalState":{"key":"07","name":"Rheinland-Pfalz"}},{"name":"Goethestr.","postalCode":"56584","locality":"Meinborn","municipality":{"key":"07138042","name":"Meinborn","type":"Kreisangehörige_Gemeinde"},"district":{"key":"07138","name":"Neuwied","type":"Landkreis"},"federalState":{"key":"07","name":"Rheinland-Pfalz"}},{"name":"Grabenstr.","postalCode":"56584","locality":"Meinborn","municipality":{"key":"07138042","name":"Meinborn","type":"Kreisangehörige_Gemeinde"},"district":{"key":"07138","name":"Neuwied","type":"Landkreis"},"federalState":{"key":"07","name":"Rheinland-Pfalz"}},{"name":"Habsburger Str.","postalCode":"56567","locality":"Neuwied","municipality":{"key":"07138045","name":"Neuwied, Stadt","type":"Stadt"},"district":{"key":"07138","name":"Neuwied","type":"Landkreis"},"federalState":{"key":"07","name":"Rheinland-Pfalz"}},{"name":"Hahneichstr.","postalCode":"56566","locality":"Neuwied","municipality":{"key":"07138045","name":"Neuwied, Stadt","type":"Stadt"},"district":{"key":"07138","name":"Neuwied","type":"Landkreis"},"federalState":{"key":"07","name":"Rheinland-Pfalz"}},{"name":"Hahnenstr.","postalCode":"56564","locality":"Neuwied","municipality":{"key":"07138045","name":"Neuwied, Stadt","type":"Stadt"},"district":{"key":"07138","name":"Neuwied","type":"Landkreis"},"federalState":{"key":"07","name":"Rheinland-Pfalz"}},{"name":"Hahnweg","postalCode":"56566","locality":"Neuwied","municipality":{"key":"07138045","name":"Neuwied, Stadt","type":"Stadt"},"district":{"key":"07138","name":"Neuwied","type":"Landkreis"},"federalState":{"key":"07","name":"Rheinland-Pfalz"}},{"name":"Hamburger Str.","postalCode":"56566","locality":"Neuwied","municipality":{"key":"07138045","name":"Neuwied, Stadt","type":"Stadt"},"district":{"key":"07138","name":"Neuwied","type":"Landkreis"},"federalState":{"key":"07","name":"Rheinland-Pfalz"}},{"name":"Hammerstr.","postalCode":"56566","locality":"Neuwied","municipality":{"key":"07138045","name":"Neuwied, Stadt","type":"Stadt"},"district":{"key":"07138","name":"Neuwied","type":"Landkreis"},"federalState":{"key":"07","name":"Rheinland-Pfalz"}},{"name":"Händelstr.","postalCode":"56566","locality":"Neuwied","municipality":{"key":"07138045","name":"Neuwied, Stadt","type":"Stadt"},"district":{"key":"07138","name":"Neuwied","type":"Landkreis"},"federalState":{"key":"07","name":"Rheinland-Pfalz"}},{"name":"Handwerkerweg","postalCode":"56567","locality":"Neuwied","municipality":{"key":"07138045","name":"Neuwied, Stadt","type":"Stadt"},"district":{"key":"07138","name":"Neuwied","type":"Landkreis"},"federalState":{"key":"07","name":"Rheinland-Pfalz"}},{"name":"Hans-Böckler-Str.","postalCode":"56567","locality":"Neuwied","municipality":{"key":"07138045","name":"Neuwied, Stadt","type":"Stadt"},"district":{"key":"07138","name":"Neuwied","type":"Landkreis"},"federalState":{"key":"07","name":"Rheinland-Pfalz"}},{"name":"Hans-Böhm-Str.","postalCode":"56564","locality":"Neuwied","municipality":{"key":"07138045","name":"Neuwied, Stadt","type":"Stadt"},"district":{"key":"07138","name":"Neuwied","type":"Landkreis"},"federalState":{"key":"07","name":"Rheinland-Pfalz"}},{"name":"Hans-Christian-Andersen-Str.","postalCode":"56567","locality":"Neuwied","municipality":{"key":"07138045","name":"Neuwied, Stadt","type":"Stadt"},"district":{"key":"07138","name":"Neuwied","type":"Landkreis"},"federalState":{"key":"07","name":"Rheinland-Pfalz"}},{"name":"Hans-Fallada-Str.","postalCode":"56567","locality":"Neuwied","municipality":{"key":"07138045","name":"Neuwied, Stadt","type":"Stadt"},"district":{"key":"07138","name":"Neuwied","type":"Landkreis"},"federalState":{"key":"07","name":"Rheinland-Pfalz"}},{"name":"Hans-Thoma-Str.","postalCode":"56566","locality":"Neuwied","municipality":{"key":"07138045","name":"Neuwied, Stadt","type":"Stadt"},"district":{"key":"07138","name":"Neuwied","type":"Landkreis"},"federalState":{"key":"07","name":"Rheinland-Pfalz"}},{"name":"Hardenbergstr.","postalCode":"56566","locality":"Neuwied","municipality":{"key":"07138045","name":"Neuwied, Stadt","type":"Stadt"},"district":{"key":"07138","name":"Neuwied","type":"Landkreis"},"federalState":{"key":"07","name":"Rheinland-Pfalz"}},{"name":"Hauptstr.","postalCode":"56566","locality":"Neuwied","municipality":{"key":"07138045","name":"Neuwied, Stadt","type":"Stadt"},"district":{"key":"07138","name":"Neuwied","type":"Landkreis"},"federalState":{"key":"07","name":"Rheinland-Pfalz"}},{"name":"Hausenborner Str.","postalCode":"56566","locality":"Neuwied","municipality":{"key":"07138045","name":"Neuwied, Stadt","type":"Stadt"},"district":{"key":"07138","name":"Neuwied","type":"Landkreis"},"federalState":{"key":"07","name":"Rheinland-Pfalz"}},{"name":"Häuserweg","postalCode":"56566","locality":"Neuwied","municipality":{"key":"07138045","name":"Neuwied, Stadt","type":"Stadt"},"district":{"key":"07138","name":"Neuwied","type":"Landkreis"},"federalState":{"key":"07","name":"Rheinland-Pfalz"}},{"name":"Haydnstr.","postalCode":"56566","locality":"Neuwied","municipality":{"key":"07138045","name":"Neuwied, Stadt","type":"Stadt"},"district":{"key":"07138","name":"Neuwied","type":"Landkreis"},"federalState":{"key":"07","name":"Rheinland-Pfalz"}},{"name":"Heddesdorfer Str.","postalCode":"56564","locality":"Neuwied","municipality":{"key":"07138045","name":"Neuwied, Stadt","type":"Stadt"},"district":{"key":"07138","name":"Neuwied","type":"Landkreis"},"federalState":{"key":"07","name":"Rheinland-Pfalz"}},{"name":"Heilsberger Str.","postalCode":"56566","locality":"Neuwied","municipality":{"key":"07138045","name":"Neuwied, Stadt","type":"Stadt"},"district":{"key":"07138","name":"Neuwied","type":"Landkreis"},"federalState":{"key":"07","name":"Rheinland-Pfalz"}},{"name":"Heimbacher Str.","postalCode":"56566","locality":"Neuwied","municipality":{"key":"07138045","name":"Neuwied, Stadt","type":"Stadt"},"district":{"key":"07138","name":"Neuwied","type":"Landkreis"},"federalState":{"key":"07","name":"Rheinland-Pfalz"}},{"name":"Heimbacher Weg","postalCode":"56566","locality":"Neuwied","municipality":{"key":"07138045","name":"Neuwied, Stadt","type":"Stadt"},"district":{"key":"07138","name":"Neuwied","type":"Landkreis"},"federalState":{"key":"07","name":"Rheinland-Pfalz"}},{"name":"Heimstättenstr.","postalCode":"56567","locality":"Neuwied","municipality":{"key":"07138045","name":"Neuwied, Stadt","type":"Stadt"},"district":{"key":"07138","name":"Neuwied","type":"Landkreis"},"federalState":{"key":"07","name":"Rheinland-Pfalz"}},{"name":"Heimstr.","postalCode":"56566","locality":"Neuwied","municipality":{"key":"07138045","name":"Neuwied, Stadt","type":"Stadt"},"district":{"key":"07138","name":"Neuwied","type":"Landkreis"},"federalState":{"key":"07","name":"Rheinland-Pfalz"}},{"name":"Heinrich-Heine-Str.","postalCode":"56567","locality":"Neuwied","municipality":{"key":"07138045","name":"Neuwied, Stadt","type":"Stadt"},"district":{"key":"07138","name":"Neuwied","type":"Landkreis"},"federalState":{"key":"07","name":"Rheinland-Pfalz"}},{"name":"Heinrich-Mann-Str.","postalCode":"56567","locality":"Neuwied","municipality":{"key":"07138045","name":"Neuwied, Stadt","type":"Stadt"},"district":{"key":"07138","name":"Neuwied","type":"Landkreis"},"federalState":{"key":"07","name":"Rheinland-Pfalz"}},{"name":"Heinrich-Schütz-Str.","postalCode":"56566","locality":"Neuwied","municipality":{"key":"07138045","name":"Neuwied, Stadt","type":"Stadt"},"district":{"key":"07138","name":"Neuwied","type":"Landkreis"},"federalState":{"key":"07","name":"Rheinland-Pfalz"}},{"name":"Heinrich-von-Kleist-Str.","postalCode":"56567","locality":"Neuwied","municipality":{"key":"07138045","name":"Neuwied, Stadt","type":"Stadt"},"district":{"key":"07138","name":"Neuwied","type":"Landkreis"},"federalState":{"key":"07","name":"Rheinland-Pfalz"}},{"name":"Heldenbergstr.","postalCode":"56567","locality":"Neuwied","municipality":{"key":"07138045","name":"Neuwied, Stadt","type":"Stadt"},"district":{"key":"07138","name":"Neuwied","type":"Landkreis"},"federalState":{"key":"07","name":"Rheinland-Pfalz"}},{"name":"Helle","postalCode":"56566","locality":"Neuwied","municipality":{"key":"07138045","name":"Neuwied, Stadt","type":"Stadt"},"district":{"key":"07138","name":"Neuwied","type":"Landkreis"},"federalState":{"key":"07","name":"Rheinland-Pfalz"}},{"name":"Hermann-Hesse-Str.","postalCode":"56567","locality":"Neuwied","municipality":{"key":"07138045","name":"Neuwied, Stadt","type":"Stadt"},"district":{"key":"07138","name":"Neuwied","type":"Landkreis"},"federalState":{"key":"07","name":"Rheinland-Pfalz"}},{"name":"Hermann-Loens-Str.","postalCode":"56567","locality":"Neuwied","municipality":{"key":"07138045","name":"Neuwied, Stadt","type":"Stadt"},"district":{"key":"07138","name":"Neuwied","type":"Landkreis"},"federalState":{"key":"07","name":"Rheinland-Pfalz"}},{"name":"Hermann-Moll-Str.","postalCode":"56567","locality":"Neuwied","municipality":{"key":"07138045","name":"Neuwied, Stadt","type":"Stadt"},"district":{"key":"07138","name":"Neuwied","type":"Landkreis"},"federalState":{"key":"07","name":"Rheinland-Pfalz"}},{"name":"Hermannstr.","postalCode":"56564","locality":"Neuwied","municipality":{"key":"07138045","name":"Neuwied, Stadt","type":"Stadt"},"district":{"key":"07138","name":"Neuwied","type":"Landkreis"},"federalState":{"key":"07","name":"Rheinland-Pfalz"}},{"name":"Herrnhuter Allee","postalCode":"56564","locality":"Neuwied","municipality":{"key":"07138045","name":"Neuwied, Stadt","type":"Stadt"},"district":{"key":"07138","name":"Neuwied","type":"Landkreis"},"federalState":{"key":"07","name":"Rheinland-Pfalz"}},{"name":"Hilgenpfad","postalCode":"56566","locality":"Neuwied","municipality":{"key":"07138045","name":"Neuwied, Stadt","type":"Stadt"},"district":{"key":"07138","name":"Neuwied","type":"Landkreis"},"federalState":{"key":"07","name":"Rheinland-Pfalz"}},{"name":"Hinter der Hohl","postalCode":"56567","locality":"Neuwied","municipality":{"key":"07138045","name":"Neuwied, Stadt","type":"Stadt"},"district":{"key":"07138","name":"Neuwied","type":"Landkreis"},"federalState":{"key":"07","name":"Rheinland-Pfalz"}},{"name":"Hinter der Mühle","postalCode":"56567","locality":"Neuwied","municipality":{"key":"07138045","name":"Neuwied, Stadt","type":"Stadt"},"district":{"key":"07138","name":"Neuwied","type":"Landkreis"},"federalState":{"key":"07","name":"Rheinland-Pfalz"}},{"name":"Hirschziegenantilopen","postalCode":"56566","locality":"Neuwied","municipality":{"key":"07138045","name":"Neuwied, Stadt","type":"Stadt"},"district":{"key":"07138","name":"Neuwied","type":"Landkreis"},"federalState":{"key":"07","name":"Rheinland-Pfalz"}},{"name":"Hochstr.","postalCode":"56566","locality":"Neuwied","municipality":{"key":"07138045","name":"Neuwied, Stadt","type":"Stadt"},"district":{"key":"07138","name":"Neuwied","type":"Landkreis"},"federalState":{"key":"07","name":"Rheinland-Pfalz"}},{"name":"Hofgründchen","postalCode":"56564","locality":"Neuwied","municipality":{"key":"07138045","name":"Neuwied, Stadt","type":"Stadt"},"district":{"key":"07138","name":"Neuwied","type":"Landkreis"},"federalState":{"key":"07","name":"Rheinland-Pfalz"}},{"name":"Hohenstaufenstr.","postalCode":"56567","locality":"Neuwied","municipality":{"key":"07138045","name":"Neuwied, Stadt","type":"Stadt"},"district":{"key":"07138","name":"Neuwied","type":"Landkreis"},"federalState":{"key":"07","name":"Rheinland-Pfalz"}},{"name":"Höhenstr.","postalCode":"56567","locality":"Neuwied","municipality":{"key":"07138045","name":"Neuwied, Stadt","type":"Stadt"},"district":{"key":"07138","name":"Neuwied","type":"Landkreis"},"federalState":{"key":"07","name":"Rheinland-Pfalz"}},{"name":"Hohenzollernstr.","postalCode":"56567","locality":"Neuwied","municipality":{"key":"07138045","name":"Neuwied, Stadt","type":"Stadt"},"district":{"key":"07138","name":"Neuwied","type":"Landkreis"},"federalState":{"key":"07","name":"Rheinland-Pfalz"}},{"name":"Hoher Kirchweg","postalCode":"56567","locality":"Neuwied","municipality":{"key":"07138045","name":"Neuwied, Stadt","type":"Stadt"},"district":{"key":"07138","name":"Neuwied","type":"Landkreis"},"federalState":{"key":"07","name":"Rheinland-Pfalz"}},{"name":"Holbeinstr.","postalCode":"56566","locality":"Neuwied","municipality":{"key":"07138045","name":"Neuwied, Stadt","type":"Stadt"},"district":{"key":"07138","name":"Neuwied","type":"Landkreis"},"federalState":{"key":"07","name":"Rheinland-Pfalz"}},{"name":"Holunderweg","postalCode":"56566","locality":"Neuwied","municipality":{"key":"07138045","name":"Neuwied, Stadt","type":"Stadt"},"district":{"key":"07138","name":"Neuwied","type":"Landkreis"},"federalState":{"key":"07","name":"Rheinland-Pfalz"}},{"name":"Holzweg","postalCode":"56566","locality":"Neuwied","municipality":{"key":"07138045","name":"Neuwied, Stadt","type":"Stadt"},"district":{"key":"07138","name":"Neuwied","type":"Landkreis"},"federalState":{"key":"07","name":"Rheinland-Pfalz"}},{"name":"Hommelsberg","postalCode":"56566","locality":"Neuwied","municipality":{"key":"07138045","name":"Neuwied, Stadt","type":"Stadt"},"district":{"key":"07138","name":"Neuwied","type":"Landkreis"},"federalState":{"key":"07","name":"Rheinland-Pfalz"}},{"name":"Horstpfad","postalCode":"56567","locality":"Neuwied","municipality":{"key":"07138045","name":"Neuwied, Stadt","type":"Stadt"},"district":{"key":"07138","name":"Neuwied","type":"Landkreis"},"federalState":{"key":"07","name":"Rheinland-Pfalz"}},{"name":"Igelweg","postalCode":"56566","locality":"Neuwied","municipality":{"key":"07138045","name":"Neuwied, Stadt","type":"Stadt"},"district":{"key":"07138","name":"Neuwied","type":"Landkreis"},"federalState":{"key":"07","name":"Rheinland-Pfalz"}},{"name":"Im Ahlen","postalCode":"56564","locality":"Neuwied","municipality":{"key":"07138045","name":"Neuwied, Stadt","type":"Stadt"},"district":{"key":"07138","name":"Neuwied","type":"Landkreis"},"federalState":{"key":"07","name":"Rheinland-Pfalz"}},{"name":"Im Altenstück","postalCode":"56566","locality":"Neuwied","municipality":{"key":"07138045","name":"Neuwied, Stadt","type":"Stadt"},"district":{"key":"07138","name":"Neuwied","type":"Landkreis"},"federalState":{"key":"07","name":"Rheinland-Pfalz"}},{"name":"Im Aubisch","postalCode":"56567","locality":"Neuwied","municipality":{"key":"07138045","name":"Neuwied, Stadt","type":"Stadt"},"district":{"key":"07138","name":"Neuwied","type":"Landkreis"},"federalState":{"key":"07","name":"Rheinland-Pfalz"}},{"name":"Im Bauschwingert","postalCode":"56567","locality":"Neuwied","municipality":{"key":"07138045","name":"Neuwied, Stadt","type":"Stadt"},"district":{"key":"07138","name":"Neuwied","type":"Landkreis"},"federalState":{"key":"07","name":"Rheinland-Pfalz"}},{"name":"Im Bitzen","postalCode":"56566","locality":"Neuwied","municipality":{"key":"07138045","name":"Neuwied, Stadt","type":"Stadt"},"district":{"key":"07138","name":"Neuwied","type":"Landkreis"},"federalState":{"key":"07","name":"Rheinland-Pfalz"}},{"name":"Im Boden","postalCode":"56566","locality":"Neuwied","municipality":{"key":"07138045","name":"Neuwied, Stadt","type":"Stadt"},"district":{"key":"07138","name":"Neuwied","type":"Landkreis"},"federalState":{"key":"07","name":"Rheinland-Pfalz"}},{"name":"Im Bornwingert","postalCode":"56567","locality":"Neuwied","municipality":{"key":"07138045","name":"Neuwied, Stadt","type":"Stadt"},"district":{"key":"07138","name":"Neuwied","type":"Landkreis"},"federalState":{"key":"07","name":"Rheinland-Pfalz"}},{"name":"Im Bremer","postalCode":"56567","locality":"Neuwied","municipality":{"key":"07138045","name":"Neuwied, Stadt","type":"Stadt"},"district":{"key":"07138","name":"Neuwied","type":"Landkreis"},"federalState":{"key":"07","name":"Rheinland-Pfalz"}},{"name":"Im Bruch","postalCode":"56567","locality":"Neuwied","municipality":{"key":"07138045","name":"Neuwied, Stadt","type":"Stadt"},"district":{"key":"07138","name":"Neuwied","type":"Landkreis"},"federalState":{"key":"07","name":"Rheinland-Pfalz"}},{"name":"Im Bruchborn","postalCode":"56567","locality":"Neuwied","municipality":{"key":"07138045","name":"Neuwied, Stadt","type":"Stadt"},"district":{"key":"07138","name":"Neuwied","type":"Landkreis"},"federalState":{"key":"07","name":"Rheinland-Pfalz"}},{"name":"Im Denzel","postalCode":"56567","locality":"Neuwied","municipality":{"key":"07138045","name":"Neuwied, Stadt","type":"Stadt"},"district":{"key":"07138","name":"Neuwied","type":"Landkreis"},"federalState":{"key":"07","name":"Rheinland-Pfalz"}},{"name":"Im Elm","postalCode":"56566","locality":"Neuwied","municipality":{"key":"07138045","name":"Neuwied, Stadt","type":"Stadt"},"district":{"key":"07138","name":"Neuwied","type":"Landkreis"},"federalState":{"key":"07","name":"Rheinland-Pfalz"}},{"name":"Im Engelchen","postalCode":"56567","locality":"Neuwied","municipality":{"key":"07138045","name":"Neuwied, Stadt","type":"Stadt"},"district":{"key":"07138","name":"Neuwied","type":"Landkreis"},"federalState":{"key":"07","name":"Rheinland-Pfalz"}},{"name":"Im Felster","postalCode":"56567","locality":"Neuwied","municipality":{"key":"07138045","name":"Neuwied, Stadt","type":"Stadt"},"district":{"key":"07138","name":"Neuwied","type":"Landkreis"},"federalState":{"key":"07","name":"Rheinland-Pfalz"}},{"name":"Im Flürchen","postalCode":"56566","locality":"Neuwied","municipality":{"key":"07138045","name":"Neuwied, Stadt","type":"Stadt"},"district":{"key":"07138","name":"Neuwied","type":"Landkreis"},"federalState":{"key":"07","name":"Rheinland-Pfalz"}},{"name":"Im Funkenstück","postalCode":"56567","locality":"Neuwied","municipality":{"key":"07138045","name":"Neuwied, Stadt","type":"Stadt"},"district":{"key":"07138","name":"Neuwied","type":"Landkreis"},"federalState":{"key":"07","name":"Rheinland-Pfalz"}},{"name":"Im Gärtchen","postalCode":"56566","locality":"Neuwied","municipality":{"key":"07138045","name":"Neuwied, Stadt","type":"Stadt"},"district":{"key":"07138","name":"Neuwied","type":"Landkreis"},"federalState":{"key":"07","name":"Rheinland-Pfalz"}},{"name":"Im Gesetz","postalCode":"56566","locality":"Neuwied","municipality":{"key":"07138045","name":"Neuwied, Stadt","type":"Stadt"},"district":{"key":"07138","name":"Neuwied","type":"Landkreis"},"federalState":{"key":"07","name":"Rheinland-Pfalz"}},{"name":"Im Graben","postalCode":"56566","locality":"Neuwied","municipality":{"key":"07138045","name":"Neuwied, Stadt","type":"Stadt"},"district":{"key":"07138","name":"Neuwied","type":"Landkreis"},"federalState":{"key":"07","name":"Rheinland-Pfalz"}},{"name":"Im Hessel","postalCode":"56564","locality":"Neuwied","municipality":{"key":"07138045","name":"Neuwied, Stadt","type":"Stadt"},"district":{"key":"07138","name":"Neuwied","type":"Landkreis"},"federalState":{"key":"07","name":"Rheinland-Pfalz"}},{"name":"Im Höstert","postalCode":"56567","locality":"Neuwied","municipality":{"key":"07138045","name":"Neuwied, Stadt","type":"Stadt"},"district":{"key":"07138","name":"Neuwied","type":"Landkreis"},"federalState":{"key":"07","name":"Rheinland-Pfalz"}},{"name":"Im Kirchgraben","postalCode":"56567","locality":"Neuwied","municipality":{"key":"07138045","name":"Neuwied, Stadt","type":"Stadt"},"district":{"key":"07138","name":"Neuwied","type":"Landkreis"},"federalState":{"key":"07","name":"Rheinland-Pfalz"}},{"name":"Im Köwig","postalCode":"56567","locality":"Neuwied","municipality":{"key":"07138045","name":"Neuwied, Stadt","type":"Stadt"},"district":{"key":"07138","name":"Neuwied","type":"Landkreis"},"federalState":{"key":"07","name":"Rheinland-Pfalz"}},{"name":"Immanuel-Kant-Str.","postalCode":"56567","locality":"Neuwied","municipality":{"key":"07138045","name":"Neuwied, Stadt","type":"Stadt"},"district":{"key":"07138","name":"Neuwied","type":"Landkreis"},"federalState":{"key":"07","name":"Rheinland-Pfalz"}},{"name":"Im Meergras","postalCode":"56567","locality":"Neuwied","municipality":{"key":"07138045","name":"Neuwied, Stadt","type":"Stadt"},"district":{"key":"07138","name":"Neuwied","type":"Landkreis"},"federalState":{"key":"07","name":"Rheinland-Pfalz"}},{"name":"Im Merzborn","postalCode":"56567","locality":"Neuwied","municipality":{"key":"07138045","name":"Neuwied, Stadt","type":"Stadt"},"district":{"key":"07138","name":"Neuwied","type":"Landkreis"},"federalState":{"key":"07","name":"Rheinland-Pfalz"}},{"name":"Im Mühlengretchen","postalCode":"56566","locality":"Neuwied","municipality":{"key":"07138045","name":"Neuwied, Stadt","type":"Stadt"},"district":{"key":"07138","name":"Neuwied","type":"Landkreis"},"federalState":{"key":"07","name":"Rheinland-Pfalz"}},{"name":"Im Mühlengrund","postalCode":"56566","locality":"Neuwied","municipality":{"key":"07138045","name":"Neuwied, Stadt","type":"Stadt"},"district":{"key":"07138","name":"Neuwied","type":"Landkreis"},"federalState":{"key":"07","name":"Rheinland-Pfalz"}},{"name":"Im Netzbecher","postalCode":"56567","locality":"Neuwied","municipality":{"key":"07138045","name":"Neuwied, Stadt","type":"Stadt"},"district":{"key":"07138","name":"Neuwied","type":"Landkreis"},"federalState":{"key":"07","name":"Rheinland-Pfalz"}},{"name":"Im Römerkastell","postalCode":"56567","locality":"Neuwied","municipality":{"key":"07138045","name":"Neuwied, Stadt","type":"Stadt"},"district":{"key":"07138","name":"Neuwied","type":"Landkreis"},"federalState":{"key":"07","name":"Rheinland-Pfalz"}},{"name":"Im Sayntal","postalCode":"56566","locality":"Neuwied","municipality":{"key":"07138045","name":"Neuwied, Stadt","type":"Stadt"},"district":{"key":"07138","name":"Neuwied","type":"Landkreis"},"federalState":{"key":"07","name":"Rheinland-Pfalz"}},{"name":"Im Schützengrund","postalCode":"56566","locality":"Neuwied","municipality":{"key":"07138045","name":"Neuwied, Stadt","type":"Stadt"},"district":{"key":"07138","name":"Neuwied","type":"Landkreis"},"federalState":{"key":"07","name":"Rheinland-Pfalz"}},{"name":"Im Sütchen","postalCode":"56566","locality":"Neuwied","municipality":{"key":"07138045","name":"Neuwied, Stadt","type":"Stadt"},"district":{"key":"07138","name":"Neuwied","type":"Landkreis"},"federalState":{"key":"07","name":"Rheinland-Pfalz"}},{"name":"Im Tardis","postalCode":"56566","locality":"Neuwied","municipality":{"key":"07138045","name":"Neuwied, Stadt","type":"Stadt"},"district":{"key":"07138","name":"Neuwied","type":"Landkreis"},"federalState":{"key":"07","name":"Rheinland-Pfalz"}},{"name":"Im Vogelsang","postalCode":"56566","locality":"Neuwied","municipality":{"key":"07138045","name":"Neuwied, Stadt","type":"Stadt"},"district":{"key":"07138","name":"Neuwied","type":"Landkreis"},"federalState":{"key":"07","name":"Rheinland-Pfalz"}},{"name":"Im Weidchen","postalCode":"56564","locality":"Neuwied","municipality":{"key":"07138045","name":"Neuwied, Stadt","type":"Stadt"},"district":{"key":"07138","name":"Neuwied","type":"Landkreis"},"federalState":{"key":"07","name":"Rheinland-Pfalz"}},{"name":"Im Wiedtal","postalCode":"56567","locality":"Neuwied","municipality":{"key":"07138045","name":"Neuwied, Stadt","type":"Stadt"},"district":{"key":"07138","name":"Neuwied","type":"Landkreis"},"federalState":{"key":"07","name":"Rheinland-Pfalz"}},{"name":"Im Wingert","postalCode":"56566","locality":"Neuwied","municipality":{"key":"07138045","name":"Neuwied, Stadt","type":"Stadt"},"district":{"key":"07138","name":"Neuwied","type":"Landkreis"},"federalState":{"key":"07","name":"Rheinland-Pfalz"}},{"name":"Im Winkel","postalCode":"56566","locality":"Neuwied","municipality":{"key":"07138045","name":"Neuwied, Stadt","type":"Stadt"},"district":{"key":"07138","name":"Neuwied","type":"Landkreis"},"federalState":{"key":"07","name":"Rheinland-Pfalz"}},{"name":"In den Akazien","postalCode":"56567","locality":"Neuwied","municipality":{"key":"07138045","name":"Neuwied, Stadt","type":"Stadt"},"district":{"key":"07138","name":"Neuwied","type":"Landkreis"},"federalState":{"key":"07","name":"Rheinland-Pfalz"}},{"name":"In den Kirschen","postalCode":"56566","locality":"Neuwied","municipality":{"key":"07138045","name":"Neuwied, Stadt","type":"Stadt"},"district":{"key":"07138","name":"Neuwied","type":"Landkreis"},"federalState":{"key":"07","name":"Rheinland-Pfalz"}},{"name":"In den Talstücken","postalCode":"56567","locality":"Neuwied","municipality":{"key":"07138045","name":"Neuwied, Stadt","type":"Stadt"},"district":{"key":"07138","name":"Neuwied","type":"Landkreis"},"federalState":{"key":"07","name":"Rheinland-Pfalz"}},{"name":"In den Wickenbitzen","postalCode":"56566","locality":"Neuwied","municipality":{"key":"07138045","name":"Neuwied, Stadt","type":"Stadt"},"district":{"key":"07138","name":"Neuwied","type":"Landkreis"},"federalState":{"key":"07","name":"Rheinland-Pfalz"}},{"name":"In der Allee","postalCode":"56564","locality":"Neuwied","municipality":{"key":"07138045","name":"Neuwied, Stadt","type":"Stadt"},"district":{"key":"07138","name":"Neuwied","type":"Landkreis"},"federalState":{"key":"07","name":"Rheinland-Pfalz"}},{"name":"In der Au","postalCode":"56567","locality":"Neuwied","municipality":{"key":"07138045","name":"Neuwied, Stadt","type":"Stadt"},"district":{"key":"07138","name":"Neuwied","type":"Landkreis"},"federalState":{"key":"07","name":"Rheinland-Pfalz"}},{"name":"In der Bitz","postalCode":"56567","locality":"Neuwied","municipality":{"key":"07138045","name":"Neuwied, Stadt","type":"Stadt"},"district":{"key":"07138","name":"Neuwied","type":"Landkreis"},"federalState":{"key":"07","name":"Rheinland-Pfalz"}},{"name":"In der Borgel","postalCode":"56567","locality":"Neuwied","municipality":{"key":"07138045","name":"Neuwied, Stadt","type":"Stadt"},"district":{"key":"07138","name":"Neuwied","type":"Landkreis"},"federalState":{"key":"07","name":"Rheinland-Pfalz"}},{"name":"In der Held","postalCode":"56567","locality":"Neuwied","municipality":{"key":"07138045","name":"Neuwied, Stadt","type":"Stadt"},"district":{"key":"07138","name":"Neuwied","type":"Landkreis"},"federalState":{"key":"07","name":"Rheinland-Pfalz"}},{"name":"In der Kirchhell","postalCode":"56564","locality":"Neuwied","municipality":{"key":"07138045","name":"Neuwied, Stadt","type":"Stadt"},"district":{"key":"07138","name":"Neuwied","type":"Landkreis"},"federalState":{"key":"07","name":"Rheinland-Pfalz"}},{"name":"Jahnstr.","postalCode":"56567","locality":"Neuwied","municipality":{"key":"07138045","name":"Neuwied, Stadt","type":"Stadt"},"district":{"key":"07138","name":"Neuwied","type":"Landkreis"},"federalState":{"key":"07","name":"Rheinland-Pfalz"}},{"name":"Jakobstr.","postalCode":"56566","locality":"Neuwied","municipality":{"key":"07138045","name":"Neuwied, Stadt","type":"Stadt"},"district":{"key":"07138","name":"Neuwied","type":"Landkreis"},"federalState":{"key":"07","name":"Rheinland-Pfalz"}},{"name":"James-Krüss-Str.","postalCode":"56564","locality":"Neuwied","municipality":{"key":"07138045","name":"Neuwied, Stadt","type":"Stadt"},"district":{"key":"07138","name":"Neuwied","type":"Landkreis"},"federalState":{"key":"07","name":"Rheinland-Pfalz"}},{"name":"Januarius-Zick-Str.","postalCode":"56566","locality":"Neuwied","municipality":{"key":"07138045","name":"Neuwied, Stadt","type":"Stadt"},"district":{"key":"07138","name":"Neuwied","type":"Landkreis"},"federalState":{"key":"07","name":"Rheinland-Pfalz"}},{"name":"Jasminstr.","postalCode":"56566","locality":"Neuwied","municipality":{"key":"07138045","name":"Neuwied, Stadt","type":"Stadt"},"district":{"key":"07138","name":"Neuwied","type":"Landkreis"},"federalState":{"key":"07","name":"Rheinland-Pfalz"}},{"name":"Johannes-Kepler-Str.","postalCode":"56566","locality":"Neuwied","municipality":{"key":"07138045","name":"Neuwied, Stadt","type":"Stadt"},"district":{"key":"07138","name":"Neuwied","type":"Landkreis"},"federalState":{"key":"07","name":"Rheinland-Pfalz"}},{"name":"Johannes-Seiz-Str.","postalCode":"56566","locality":"Neuwied","municipality":{"key":"07138045","name":"Neuwied, Stadt","type":"Stadt"},"district":{"key":"07138","name":"Neuwied","type":"Landkreis"},"federalState":{"key":"07","name":"Rheinland-Pfalz"}},{"name":"Johann-Gottfried-Herder-Str.","postalCode":"56567","locality":"Neuwied","municipality":{"key":"07138045","name":"Neuwied, Stadt","type":"Stadt"},"district":{"key":"07138","name":"Neuwied","type":"Landkreis"},"federalState":{"key":"07","name":"Rheinland-Pfalz"}},{"name":"Johannisstr.","postalCode":"56566","locality":"Neuwied","municipality":{"key":"07138045","name":"Neuwied, Stadt","type":"Stadt"},"district":{"key":"07138","name":"Neuwied","type":"Landkreis"},"federalState":{"key":"07","name":"Rheinland-Pfalz"}},{"name":"Johann-Sebastian-Bach-Str.","postalCode":"56566","locality":"Neuwied","municipality":{"key":"07138045","name":"Neuwied, Stadt","type":"Stadt"},"district":{"key":"07138","name":"Neuwied","type":"Landkreis"},"federalState":{"key":"07","name":"Rheinland-Pfalz"}},{"name":"Josefstr.","postalCode":"56567","locality":"Neuwied","municipality":{"key":"07138045","name":"Neuwied, Stadt","type":"Stadt"},"district":{"key":"07138","name":"Neuwied","type":"Landkreis"},"federalState":{"key":"07","name":"Rheinland-Pfalz"}},{"name":"Josef-Wittlich-Str.","postalCode":"56566","locality":"Neuwied","municipality":{"key":"07138045","name":"Neuwied, Stadt","type":"Stadt"},"district":{"key":"07138","name":"Neuwied","type":"Landkreis"},"federalState":{"key":"07","name":"Rheinland-Pfalz"}},{"name":"Julius-Remy-Str.","postalCode":"56564","locality":"Neuwied","municipality":{"key":"07138045","name":"Neuwied, Stadt","type":"Stadt"},"district":{"key":"07138","name":"Neuwied","type":"Landkreis"},"federalState":{"key":"07","name":"Rheinland-Pfalz"}},{"name":"Junkerstr.","postalCode":"56564","locality":"Neuwied","municipality":{"key":"07138045","name":"Neuwied, Stadt","type":"Stadt"},"district":{"key":"07138","name":"Neuwied","type":"Landkreis"},"federalState":{"key":"07","name":"Rheinland-Pfalz"}},{"name":"Junkerstücke","postalCode":"56566","locality":"Neuwied","municipality":{"key":"07138045","name":"Neuwied, Stadt","type":"Stadt"},"district":{"key":"07138","name":"Neuwied","type":"Landkreis"},"federalState":{"key":"07","name":"Rheinland-Pfalz"}},{"name":"Junostr.","postalCode":"56566","locality":"Neuwied","municipality":{"key":"07138045","name":"Neuwied, Stadt","type":"Stadt"},"district":{"key":"07138","name":"Neuwied","type":"Landkreis"},"federalState":{"key":"07","name":"Rheinland-Pfalz"}},{"name":"Jupiterstr.","postalCode":"56566","locality":"Neuwied","municipality":{"key":"07138045","name":"Neuwied, Stadt","type":"Stadt"},"district":{"key":"07138","name":"Neuwied","type":"Landkreis"},"federalState":{"key":"07","name":"Rheinland-Pfalz"}},{"name":"Justus-Liebig-Str.","postalCode":"56566","locality":"Neuwied","municipality":{"key":"07138045","name":"Neuwied, Stadt","type":"Stadt"},"district":{"key":"07138","name":"Neuwied","type":"Landkreis"},"federalState":{"key":"07","name":"Rheinland-Pfalz"}},{"name":"Kakteenstr.","postalCode":"56566","locality":"Neuwied","municipality":{"key":"07138045","name":"Neuwied, Stadt","type":"Stadt"},"district":{"key":"07138","name":"Neuwied","type":"Landkreis"},"federalState":{"key":"07","name":"Rheinland-Pfalz"}},{"name":"Känguru","postalCode":"56566","locality":"Neuwied","municipality":{"key":"07138045","name":"Neuwied, Stadt","type":"Stadt"},"district":{"key":"07138","name":"Neuwied","type":"Landkreis"},"federalState":{"key":"07","name":"Rheinland-Pfalz"}},{"name":"Kaninchenstadt","postalCode":"56566","locality":"Neuwied","municipality":{"key":"07138045","name":"Neuwied, Stadt","type":"Stadt"},"district":{"key":"07138","name":"Neuwied","type":"Landkreis"},"federalState":{"key":"07","name":"Rheinland-Pfalz"}},{"name":"Kapellenstr.","postalCode":"56566","locality":"Neuwied","municipality":{"key":"07138045","name":"Neuwied, Stadt","type":"Stadt"},"district":{"key":"07138","name":"Neuwied","type":"Landkreis"},"federalState":{"key":"07","name":"Rheinland-Pfalz"}},{"name":"Kappelstr.","postalCode":"56564","locality":"Neuwied","municipality":{"key":"07138045","name":"Neuwied, Stadt","type":"Stadt"},"district":{"key":"07138","name":"Neuwied","type":"Landkreis"},"federalState":{"key":"07","name":"Rheinland-Pfalz"}},{"name":"Karbachstr.","postalCode":"56567","locality":"Neuwied","municipality":{"key":"07138045","name":"Neuwied, Stadt","type":"Stadt"},"district":{"key":"07138","name":"Neuwied","type":"Landkreis"},"federalState":{"key":"07","name":"Rheinland-Pfalz"}},{"name":"Karl-Marx-Str.","postalCode":"56567","locality":"Neuwied","municipality":{"key":"07138045","name":"Neuwied, Stadt","type":"Stadt"},"district":{"key":"07138","name":"Neuwied","type":"Landkreis"},"federalState":{"key":"07","name":"Rheinland-Pfalz"}},{"name":"Karolingerstr.","postalCode":"56567","locality":"Neuwied","municipality":{"key":"07138045","name":"Neuwied, Stadt","type":"Stadt"},"district":{"key":"07138","name":"Neuwied","type":"Landkreis"},"federalState":{"key":"07","name":"Rheinland-Pfalz"}},{"name":"Kastanienallee","postalCode":"56567","locality":"Neuwied","municipality":{"key":"07138045","name":"Neuwied, Stadt","type":"Stadt"},"district":{"key":"07138","name":"Neuwied","type":"Landkreis"},"federalState":{"key":"07","name":"Rheinland-Pfalz"}},{"name":"Kastellstr.","postalCode":"56564","locality":"Neuwied","municipality":{"key":"07138045","name":"Neuwied, Stadt","type":"Stadt"},"district":{"key":"07138","name":"Neuwied","type":"Landkreis"},"federalState":{"key":"07","name":"Rheinland-Pfalz"}},{"name":"Käthe-Kollwitz-Str.","postalCode":"56567","locality":"Neuwied","municipality":{"key":"07138045","name":"Neuwied, Stadt","type":"Stadt"},"district":{"key":"07138","name":"Neuwied","type":"Landkreis"},"federalState":{"key":"07","name":"Rheinland-Pfalz"}},{"name":"Katzenbären","postalCode":"56566","locality":"Neuwied","municipality":{"key":"07138045","name":"Neuwied, Stadt","type":"Stadt"},"district":{"key":"07138","name":"Neuwied","type":"Landkreis"},"federalState":{"key":"07","name":"Rheinland-Pfalz"}},{"name":"Kehlbachstr.","postalCode":"56567","locality":"Neuwied","municipality":{"key":"07138045","name":"Neuwied, Stadt","type":"Stadt"},"district":{"key":"07138","name":"Neuwied","type":"Landkreis"},"federalState":{"key":"07","name":"Rheinland-Pfalz"}},{"name":"Kellersbungert","postalCode":"56566","locality":"Neuwied","municipality":{"key":"07138045","name":"Neuwied, Stadt","type":"Stadt"},"district":{"key":"07138","name":"Neuwied","type":"Landkreis"},"federalState":{"key":"07","name":"Rheinland-Pfalz"}},{"name":"Keltenstr.","postalCode":"56567","locality":"Neuwied","municipality":{"key":"07138045","name":"Neuwied, Stadt","type":"Stadt"},"district":{"key":"07138","name":"Neuwied","type":"Landkreis"},"federalState":{"key":"07","name":"Rheinland-Pfalz"}},{"name":"Kelterweg","postalCode":"56566","locality":"Neuwied","municipality":{"key":"07138045","name":"Neuwied, Stadt","type":"Stadt"},"district":{"key":"07138","name":"Neuwied","type":"Landkreis"},"federalState":{"key":"07","name":"Rheinland-Pfalz"}},{"name":"Kieselborner Weg","postalCode":"56566","locality":"Neuwied","municipality":{"key":"07138045","name":"Neuwied, Stadt","type":"Stadt"},"district":{"key":"07138","name":"Neuwied","type":"Landkreis"},"federalState":{"key":"07","name":"Rheinland-Pfalz"}},{"name":"Kimbernstr.","postalCode":"56567","locality":"Neuwied","municipality":{"key":"07138045","name":"Neuwied, Stadt","type":"Stadt"},"district":{"key":"07138","name":"Neuwied","type":"Landkreis"},"federalState":{"key":"07","name":"Rheinland-Pfalz"}},{"name":"Kinzingstr.","postalCode":"56564","locality":"Neuwied","municipality":{"key":"07138045","name":"Neuwied, Stadt","type":"Stadt"},"district":{"key":"07138","name":"Neuwied","type":"Landkreis"},"federalState":{"key":"07","name":"Rheinland-Pfalz"}},{"name":"Kirchplatz","postalCode":"56564","locality":"Neuwied","municipality":{"key":"07138045","name":"Neuwied, Stadt","type":"Stadt"},"district":{"key":"07138","name":"Neuwied","type":"Landkreis"},"federalState":{"key":"07","name":"Rheinland-Pfalz"}},{"name":"Kirchstr.","postalCode":"56564","locality":"Neuwied","municipality":{"key":"07138045","name":"Neuwied, Stadt","type":"Stadt"},"district":{"key":"07138","name":"Neuwied","type":"Landkreis"},"federalState":{"key":"07","name":"Rheinland-Pfalz"}},{"name":"Kirschblütenweg","postalCode":"56566","locality":"Neuwied","municipality":{"key":"07138045","name":"Neuwied, Stadt","type":"Stadt"},"district":{"key":"07138","name":"Neuwied","type":"Landkreis"},"federalState":{"key":"07","name":"Rheinland-Pfalz"}},{"name":"Kirschenweg","postalCode":"56564","locality":"Neuwied","municipality":{"key":"07138045","name":"Neuwied, Stadt","type":"Stadt"},"district":{"key":"07138","name":"Neuwied","type":"Landkreis"},"federalState":{"key":"07","name":"Rheinland-Pfalz"}},{"name":"Kleine Brunnengasse","postalCode":"56567","locality":"Neuwied","municipality":{"key":"07138045","name":"Neuwied, Stadt","type":"Stadt"},"district":{"key":"07138","name":"Neuwied","type":"Landkreis"},"federalState":{"key":"07","name":"Rheinland-Pfalz"}},{"name":"Kleine Wilhelmsgasse","postalCode":"56566","locality":"Neuwied","municipality":{"key":"07138045","name":"Neuwied, Stadt","type":"Stadt"},"district":{"key":"07138","name":"Neuwied","type":"Landkreis"},"federalState":{"key":"07","name":"Rheinland-Pfalz"}},{"name":"Klippergasse","postalCode":"56566","locality":"Neuwied","municipality":{"key":"07138045","name":"Neuwied, Stadt","type":"Stadt"},"district":{"key":"07138","name":"Neuwied","type":"Landkreis"},"federalState":{"key":"07","name":"Rheinland-Pfalz"}},{"name":"Klosterstr.","postalCode":"56566","locality":"Neuwied","municipality":{"key":"07138045","name":"Neuwied, Stadt","type":"Stadt"},"district":{"key":"07138","name":"Neuwied","type":"Landkreis"},"federalState":{"key":"07","name":"Rheinland-Pfalz"}},{"name":"Kolberger Str.","postalCode":"56566","locality":"Neuwied","municipality":{"key":"07138045","name":"Neuwied, Stadt","type":"Stadt"},"district":{"key":"07138","name":"Neuwied","type":"Landkreis"},"federalState":{"key":"07","name":"Rheinland-Pfalz"}},{"name":"Kölner Str.","postalCode":"56566","locality":"Neuwied","municipality":{"key":"07138045","name":"Neuwied, Stadt","type":"Stadt"},"district":{"key":"07138","name":"Neuwied","type":"Landkreis"},"federalState":{"key":"07","name":"Rheinland-Pfalz"}},{"name":"Kolpingstr.","postalCode":"56566","locality":"Neuwied","municipality":{"key":"07138045","name":"Neuwied, Stadt","type":"Stadt"},"district":{"key":"07138","name":"Neuwied","type":"Landkreis"},"federalState":{"key":"07","name":"Rheinland-Pfalz"}},{"name":"Komiteestr.","postalCode":"56566","locality":"Neuwied","municipality":{"key":"07138045","name":"Neuwied, Stadt","type":"Stadt"},"district":{"key":"07138","name":"Neuwied","type":"Landkreis"},"federalState":{"key":"07","name":"Rheinland-Pfalz"}},{"name":"Königsberger Str.","postalCode":"56564","locality":"Neuwied","municipality":{"key":"07138045","name":"Neuwied, Stadt","type":"Stadt"},"district":{"key":"07138","name":"Neuwied","type":"Landkreis"},"federalState":{"key":"07","name":"Rheinland-Pfalz"}},{"name":"Konrad-Adenauer-Str.","postalCode":"56564","locality":"Neuwied","municipality":{"key":"07138045","name":"Neuwied, Stadt","type":"Stadt"},"district":{"key":"07138","name":"Neuwied","type":"Landkreis"},"federalState":{"key":"07","name":"Rheinland-Pfalz"}},{"name":"Kopernikusweg","postalCode":"56566","locality":"Neuwied","municipality":{"key":"07138045","name":"Neuwied, Stadt","type":"Stadt"},"district":{"key":"07138","name":"Neuwied","type":"Landkreis"},"federalState":{"key":"07","name":"Rheinland-Pfalz"}},{"name":"Kraniche","postalCode":"56566","locality":"Neuwied","municipality":{"key":"07138045","name":"Neuwied, Stadt","type":"Stadt"},"district":{"key":"07138","name":"Neuwied","type":"Landkreis"},"federalState":{"key":"07","name":"Rheinland-Pfalz"}},{"name":"Krasnaer Str.","postalCode":"56566","locality":"Neuwied","municipality":{"key":"07138045","name":"Neuwied, Stadt","type":"Stadt"},"district":{"key":"07138","name":"Neuwied","type":"Landkreis"},"federalState":{"key":"07","name":"Rheinland-Pfalz"}},{"name":"Kreuzeich","postalCode":"56567","locality":"Neuwied","municipality":{"key":"07138045","name":"Neuwied, Stadt","type":"Stadt"},"district":{"key":"07138","name":"Neuwied","type":"Landkreis"},"federalState":{"key":"07","name":"Rheinland-Pfalz"}},{"name":"Kreuzstr.","postalCode":"56564","locality":"Neuwied","municipality":{"key":"07138045","name":"Neuwied, Stadt","type":"Stadt"},"district":{"key":"07138","name":"Neuwied","type":"Landkreis"},"federalState":{"key":"07","name":"Rheinland-Pfalz"}},{"name":"Krummer Weg","postalCode":"56566","locality":"Neuwied","municipality":{"key":"07138045","name":"Neuwied, Stadt","type":"Stadt"},"district":{"key":"07138","name":"Neuwied","type":"Landkreis"},"federalState":{"key":"07","name":"Rheinland-Pfalz"}},{"name":"Kümmelbergsweg","postalCode":"56567","locality":"Neuwied","municipality":{"key":"07138045","name":"Neuwied, Stadt","type":"Stadt"},"district":{"key":"07138","name":"Neuwied","type":"Landkreis"},"federalState":{"key":"07","name":"Rheinland-Pfalz"}},{"name":"Kunosteinstr.","postalCode":"56566","locality":"Neuwied","municipality":{"key":"07138045","name":"Neuwied, Stadt","type":"Stadt"},"district":{"key":"07138","name":"Neuwied","type":"Landkreis"},"federalState":{"key":"07","name":"Rheinland-Pfalz"}},{"name":"Kurt-Kluge-Str.","postalCode":"56567","locality":"Neuwied","municipality":{"key":"07138045","name":"Neuwied, Stadt","type":"Stadt"},"district":{"key":"07138","name":"Neuwied","type":"Landkreis"},"federalState":{"key":"07","name":"Rheinland-Pfalz"}},{"name":"Kurtrierer Str.","postalCode":"56567","locality":"Neuwied","municipality":{"key":"07138045","name":"Neuwied, Stadt","type":"Stadt"},"district":{"key":"07138","name":"Neuwied","type":"Landkreis"},"federalState":{"key":"07","name":"Rheinland-Pfalz"}},{"name":"Kurt-Schumacher-Str.","postalCode":"56567","locality":"Neuwied","municipality":{"key":"07138045","name":"Neuwied, Stadt","type":"Stadt"},"district":{"key":"07138","name":"Neuwied","type":"Landkreis"},"federalState":{"key":"07","name":"Rheinland-Pfalz"}},{"name":"Kurt-Tucholsky-Str.","postalCode":"56567","locality":"Neuwied","municipality":{"key":"07138045","name":"Neuwied, Stadt","type":"Stadt"},"district":{"key":"07138","name":"Neuwied","type":"Landkreis"},"federalState":{"key":"07","name":"Rheinland-Pfalz"}},{"name":"Kurt-Weill-Str.","postalCode":"56566","locality":"Neuwied","municipality":{"key":"07138045","name":"Neuwied, Stadt","type":"Stadt"},"district":{"key":"07138","name":"Neuwied","type":"Landkreis"},"federalState":{"key":"07","name":"Rheinland-Pfalz"}},{"name":"Lessingstr.","postalCode":"56584","locality":"Meinborn","municipality":{"key":"07138042","name":"Meinborn","type":"Kreisangehörige_Gemeinde"},"district":{"key":"07138","name":"Neuwied","type":"Landkreis"},"federalState":{"key":"07","name":"Rheinland-Pfalz"}},{"name":"Lindenstr.","postalCode":"56584","locality":"Meinborn","municipality":{"key":"07138042","name":"Meinborn","type":"Kreisangehörige_Gemeinde"},"district":{"key":"07138","name":"Neuwied","type":"Landkreis"},"federalState":{"key":"07","name":"Rheinland-Pfalz"}},{"name":"Mainzer Str.","postalCode":"56566","locality":"Neuwied","municipality":{"key":"07138045","name":"Neuwied, Stadt","type":"Stadt"},"district":{"key":"07138","name":"Neuwied","type":"Landkreis"},"federalState":{"key":"07","name":"Rheinland-Pfalz"}},{"name":"Manule","postalCode":"56566","locality":"Neuwied","municipality":{"key":"07138045","name":"Neuwied, Stadt","type":"Stadt"},"district":{"key":"07138","name":"Neuwied","type":"Landkreis"},"federalState":{"key":"07","name":"Rheinland-Pfalz"}},{"name":"Marabus","postalCode":"56566","locality":"Neuwied","municipality":{"key":"07138045","name":"Neuwied, Stadt","type":"Stadt"},"district":{"key":"07138","name":"Neuwied","type":"Landkreis"},"federalState":{"key":"07","name":"Rheinland-Pfalz"}},{"name":"Marc-Chagall-Str.","postalCode":"56566","locality":"Neuwied","municipality":{"key":"07138045","name":"Neuwied, Stadt","type":"Stadt"},"district":{"key":"07138","name":"Neuwied","type":"Landkreis"},"federalState":{"key":"07","name":"Rheinland-Pfalz"}},{"name":"Margarethenstr.","postalCode":"56566","locality":"Neuwied","municipality":{"key":"07138045","name":"Neuwied, Stadt","type":"Stadt"},"district":{"key":"07138","name":"Neuwied","type":"Landkreis"},"federalState":{"key":"07","name":"Rheinland-Pfalz"}},{"name":"Marienborn","postalCode":"56567","locality":"Neuwied","municipality":{"key":"07138045","name":"Neuwied, Stadt","type":"Stadt"},"district":{"key":"07138","name":"Neuwied","type":"Landkreis"},"federalState":{"key":"07","name":"Rheinland-Pfalz"}},{"name":"Marienstr.","postalCode":"56567","locality":"Neuwied","municipality":{"key":"07138045","name":"Neuwied, Stadt","type":"Stadt"},"district":{"key":"07138","name":"Neuwied","type":"Landkreis"},"federalState":{"key":"07","name":"Rheinland-Pfalz"}},{"name":"Markenweg","postalCode":"56566","locality":"Neuwied","municipality":{"key":"07138045","name":"Neuwied, Stadt","type":"Stadt"},"district":{"key":"07138","name":"Neuwied","type":"Landkreis"},"federalState":{"key":"07","name":"Rheinland-Pfalz"}},{"name":"Märkerwaldstr.","postalCode":"56566","locality":"Neuwied","municipality":{"key":"07138045","name":"Neuwied, Stadt","type":"Stadt"},"district":{"key":"07138","name":"Neuwied","type":"Landkreis"},"federalState":{"key":"07","name":"Rheinland-Pfalz"}},{"name":"Marktstr.","postalCode":"56564","locality":"Neuwied","municipality":{"key":"07138045","name":"Neuwied, Stadt","type":"Stadt"},"district":{"key":"07138","name":"Neuwied","type":"Landkreis"},"federalState":{"key":"07","name":"Rheinland-Pfalz"}},{"name":"Marsstr.","postalCode":"56566","locality":"Neuwied","municipality":{"key":"07138045","name":"Neuwied, Stadt","type":"Stadt"},"district":{"key":"07138","name":"Neuwied","type":"Landkreis"},"federalState":{"key":"07","name":"Rheinland-Pfalz"}},{"name":"Martin-Luther-Str.","postalCode":"56567","locality":"Neuwied","municipality":{"key":"07138045","name":"Neuwied, Stadt","type":"Stadt"},"district":{"key":"07138","name":"Neuwied","type":"Landkreis"},"federalState":{"key":"07","name":"Rheinland-Pfalz"}},{"name":"Martinskirchstr.","postalCode":"56566","locality":"Neuwied","municipality":{"key":"07138045","name":"Neuwied, Stadt","type":"Stadt"},"district":{"key":"07138","name":"Neuwied","type":"Landkreis"},"federalState":{"key":"07","name":"Rheinland-Pfalz"}},{"name":"Martinstr.","postalCode":"56567","locality":"Neuwied","municipality":{"key":"07138045","name":"Neuwied, Stadt","type":"Stadt"},"district":{"key":"07138","name":"Neuwied","type":"Landkreis"},"federalState":{"key":"07","name":"Rheinland-Pfalz"}},{"name":"Masurenstr.","postalCode":"56567","locality":"Neuwied","municipality":{"key":"07138045","name":"Neuwied, Stadt","type":"Stadt"},"district":{"key":"07138","name":"Neuwied","type":"Landkreis"},"federalState":{"key":"07","name":"Rheinland-Pfalz"}},{"name":"Matthiasberg","postalCode":"56564","locality":"Neuwied","municipality":{"key":"07138045","name":"Neuwied, Stadt","type":"Stadt"},"district":{"key":"07138","name":"Neuwied","type":"Landkreis"},"federalState":{"key":"07","name":"Rheinland-Pfalz"}},{"name":"Matthias-Erzberger-Str.","postalCode":"56564","locality":"Neuwied","municipality":{"key":"07138045","name":"Neuwied, Stadt","type":"Stadt"},"district":{"key":"07138","name":"Neuwied","type":"Landkreis"},"federalState":{"key":"07","name":"Rheinland-Pfalz"}},{"name":"Max-Dünnebier-Str.","postalCode":"56567","locality":"Neuwied","municipality":{"key":"07138045","name":"Neuwied, Stadt","type":"Stadt"},"district":{"key":"07138","name":"Neuwied","type":"Landkreis"},"federalState":{"key":"07","name":"Rheinland-Pfalz"}},{"name":"Max-Ernst-Str.","postalCode":"56566","locality":"Neuwied","municipality":{"key":"07138045","name":"Neuwied, Stadt","type":"Stadt"},"district":{"key":"07138","name":"Neuwied","type":"Landkreis"},"federalState":{"key":"07","name":"Rheinland-Pfalz"}},{"name":"Max-Planck-Str.","postalCode":"56566","locality":"Neuwied","municipality":{"key":"07138045","name":"Neuwied, Stadt","type":"Stadt"},"district":{"key":"07138","name":"Neuwied","type":"Landkreis"},"federalState":{"key":"07","name":"Rheinland-Pfalz"}},{"name":"Mecklenburgstr.","postalCode":"56567","locality":"Neuwied","municipality":{"key":"07138045","name":"Neuwied, Stadt","type":"Stadt"},"district":{"key":"07138","name":"Neuwied","type":"Landkreis"},"federalState":{"key":"07","name":"Rheinland-Pfalz"}},{"name":"Meerheck","postalCode":"56566","locality":"Neuwied","municipality":{"key":"07138045","name":"Neuwied, Stadt","type":"Stadt"},"district":{"key":"07138","name":"Neuwied","type":"Landkreis"},"federalState":{"key":"07","name":"Rheinland-Pfalz"}},{"name":"Meerpfad","postalCode":"56566","locality":"Neuwied","municipality":{"key":"07138045","name":"Neuwied, Stadt","type":"Stadt"},"district":{"key":"07138","name":"Neuwied","type":"Landkreis"},"federalState":{"key":"07","name":"Rheinland-Pfalz"}},{"name":"Meisenweg","postalCode":"56564","locality":"Neuwied","municipality":{"key":"07138045","name":"Neuwied, Stadt","type":"Stadt"},"district":{"key":"07138","name":"Neuwied","type":"Landkreis"},"federalState":{"key":"07","name":"Rheinland-Pfalz"}},{"name":"Melanchthonstr.","postalCode":"56567","locality":"Neuwied","municipality":{"key":"07138045","name":"Neuwied, Stadt","type":"Stadt"},"district":{"key":"07138","name":"Neuwied","type":"Landkreis"},"federalState":{"key":"07","name":"Rheinland-Pfalz"}},{"name":"Melsbacher Str.","postalCode":"56567","locality":"Neuwied","municipality":{"key":"07138045","name":"Neuwied, Stadt","type":"Stadt"},"district":{"key":"07138","name":"Neuwied","type":"Landkreis"},"federalState":{"key":"07","name":"Rheinland-Pfalz"}},{"name":"Memelstr.","postalCode":"56566","locality":"Neuwied","municipality":{"key":"07138045","name":"Neuwied, Stadt","type":"Stadt"},"district":{"key":"07138","name":"Neuwied","type":"Landkreis"},"federalState":{"key":"07","name":"Rheinland-Pfalz"}},{"name":"Mennonitenstr.","postalCode":"56567","locality":"Neuwied","municipality":{"key":"07138045","name":"Neuwied, Stadt","type":"Stadt"},"district":{"key":"07138","name":"Neuwied","type":"Landkreis"},"federalState":{"key":"07","name":"Rheinland-Pfalz"}},{"name":"Menschenaffen","postalCode":"56566","locality":"Neuwied","municipality":{"key":"07138045","name":"Neuwied, Stadt","type":"Stadt"},"district":{"key":"07138","name":"Neuwied","type":"Landkreis"},"federalState":{"key":"07","name":"Rheinland-Pfalz"}},{"name":"Merkurstr.","postalCode":"56566","locality":"Neuwied","municipality":{"key":"07138045","name":"Neuwied, Stadt","type":"Stadt"},"district":{"key":"07138","name":"Neuwied","type":"Landkreis"},"federalState":{"key":"07","name":"Rheinland-Pfalz"}},{"name":"Merowingerstr.","postalCode":"56567","locality":"Neuwied","municipality":{"key":"07138045","name":"Neuwied, Stadt","type":"Stadt"},"district":{"key":"07138","name":"Neuwied","type":"Landkreis"},"federalState":{"key":"07","name":"Rheinland-Pfalz"}},{"name":"Michael-Ende-Str.","postalCode":"56564","locality":"Neuwied","municipality":{"key":"07138045","name":"Neuwied, Stadt","type":"Stadt"},"district":{"key":"07138","name":"Neuwied","type":"Landkreis"},"federalState":{"key":"07","name":"Rheinland-Pfalz"}},{"name":"Michaelstr.","postalCode":"56567","locality":"Neuwied","municipality":{"key":"07138045","name":"Neuwied, Stadt","type":"Stadt"},"district":{"key":"07138","name":"Neuwied","type":"Landkreis"},"federalState":{"key":"07","name":"Rheinland-Pfalz"}},{"name":"Mittelstr.","postalCode":"56564","locality":"Neuwied","municipality":{"key":"07138045","name":"Neuwied, Stadt","type":"Stadt"},"district":{"key":"07138","name":"Neuwied","type":"Landkreis"},"federalState":{"key":"07","name":"Rheinland-Pfalz"}},{"name":"Mittelweg","postalCode":"56566","locality":"Neuwied","municipality":{"key":"07138045","name":"Neuwied, Stadt","type":"Stadt"},"district":{"key":"07138","name":"Neuwied","type":"Landkreis"},"federalState":{"key":"07","name":"Rheinland-Pfalz"}},{"name":"Mohnweg","postalCode":"56566","locality":"Neuwied","municipality":{"key":"07138045","name":"Neuwied, Stadt","type":"Stadt"},"district":{"key":"07138","name":"Neuwied","type":"Landkreis"},"federalState":{"key":"07","name":"Rheinland-Pfalz"}},{"name":"Mondweg","postalCode":"56564","locality":"Neuwied","municipality":{"key":"07138045","name":"Neuwied, Stadt","type":"Stadt"},"district":{"key":"07138","name":"Neuwied","type":"Landkreis"},"federalState":{"key":"07","name":"Rheinland-Pfalz"}},{"name":"Monrepos","postalCode":"56567","locality":"Neuwied","municipality":{"key":"07138045","name":"Neuwied, Stadt","type":"Stadt"},"district":{"key":"07138","name":"Neuwied","type":"Landkreis"},"federalState":{"key":"07","name":"Rheinland-Pfalz"}},{"name":"Monreposstr.","postalCode":"56567","locality":"Neuwied","municipality":{"key":"07138045","name":"Neuwied, Stadt","type":"Stadt"},"district":{"key":"07138","name":"Neuwied","type":"Landkreis"},"federalState":{"key":"07","name":"Rheinland-Pfalz"}},{"name":"Moselstr.","postalCode":"56567","locality":"Neuwied","municipality":{"key":"07138045","name":"Neuwied, Stadt","type":"Stadt"},"district":{"key":"07138","name":"Neuwied","type":"Landkreis"},"federalState":{"key":"07","name":"Rheinland-Pfalz"}},{"name":"Mozartstr.","postalCode":"56566","locality":"Neuwied","municipality":{"key":"07138045","name":"Neuwied, Stadt","type":"Stadt"},"district":{"key":"07138","name":"Neuwied","type":"Landkreis"},"federalState":{"key":"07","name":"Rheinland-Pfalz"}},{"name":"Mühlenweg","postalCode":"56567","locality":"Neuwied","municipality":{"key":"07138045","name":"Neuwied, Stadt","type":"Stadt"},"district":{"key":"07138","name":"Neuwied","type":"Landkreis"},"federalState":{"key":"07","name":"Rheinland-Pfalz"}},{"name":"Mühlwerthstr.","postalCode":"56567","locality":"Neuwied","municipality":{"key":"07138045","name":"Neuwied, Stadt","type":"Stadt"},"district":{"key":"07138","name":"Neuwied","type":"Landkreis"},"federalState":{"key":"07","name":"Rheinland-Pfalz"}},{"name":"Mülhofener Str.","postalCode":"56566","locality":"Neuwied","municipality":{"key":"07138045","name":"Neuwied, Stadt","type":"Stadt"},"district":{"key":"07138","name":"Neuwied","type":"Landkreis"},"federalState":{"key":"07","name":"Rheinland-Pfalz"}},{"name":"Müllergasse","postalCode":"56566","locality":"Neuwied","municipality":{"key":"07138045","name":"Neuwied, Stadt","type":"Stadt"},"district":{"key":"07138","name":"Neuwied","type":"Landkreis"},"federalState":{"key":"07","name":"Rheinland-Pfalz"}},{"name":"Münchenpfad","postalCode":"56566","locality":"Neuwied","municipality":{"key":"07138045","name":"Neuwied, Stadt","type":"Stadt"},"district":{"key":"07138","name":"Neuwied","type":"Landkreis"},"federalState":{"key":"07","name":"Rheinland-Pfalz"}},{"name":"Museumstr.","postalCode":"56564","locality":"Neuwied","municipality":{"key":"07138045","name":"Neuwied, Stadt","type":"Stadt"},"district":{"key":"07138","name":"Neuwied","type":"Landkreis"},"federalState":{"key":"07","name":"Rheinland-Pfalz"}},{"name":"Nachtigallenweg","postalCode":"56564","locality":"Neuwied","municipality":{"key":"07138045","name":"Neuwied, Stadt","type":"Stadt"},"district":{"key":"07138","name":"Neuwied","type":"Landkreis"},"federalState":{"key":"07","name":"Rheinland-Pfalz"}},{"name":"Nagelgasse","postalCode":"56564","locality":"Neuwied","municipality":{"key":"07138045","name":"Neuwied, Stadt","type":"Stadt"},"district":{"key":"07138","name":"Neuwied","type":"Landkreis"},"federalState":{"key":"07","name":"Rheinland-Pfalz"}},{"name":"Nahestr.","postalCode":"56567","locality":"Neuwied","municipality":{"key":"07138045","name":"Neuwied, Stadt","type":"Stadt"},"district":{"key":"07138","name":"Neuwied","type":"Landkreis"},"federalState":{"key":"07","name":"Rheinland-Pfalz"}},{"name":"Narzissenweg","postalCode":"56566","locality":"Neuwied","municipality":{"key":"07138045","name":"Neuwied, Stadt","type":"Stadt"},"district":{"key":"07138","name":"Neuwied","type":"Landkreis"},"federalState":{"key":"07","name":"Rheinland-Pfalz"}},{"name":"Nelkengarten","postalCode":"56564","locality":"Neuwied","municipality":{"key":"07138045","name":"Neuwied, Stadt","type":"Stadt"},"district":{"key":"07138","name":"Neuwied","type":"Landkreis"},"federalState":{"key":"07","name":"Rheinland-Pfalz"}},{"name":"Neptunstr.","postalCode":"56566","locality":"Neuwied","municipality":{"key":"07138045","name":"Neuwied, Stadt","type":"Stadt"},"district":{"key":"07138","name":"Neuwied","type":"Landkreis"},"federalState":{"key":"07","name":"Rheinland-Pfalz"}},{"name":"Neuer Weg","postalCode":"56567","locality":"Neuwied","municipality":{"key":"07138045","name":"Neuwied, Stadt","type":"Stadt"},"district":{"key":"07138","name":"Neuwied","type":"Landkreis"},"federalState":{"key":"07","name":"Rheinland-Pfalz"}},{"name":"Neue Wilhelmstr.","postalCode":"56566","locality":"Neuwied","municipality":{"key":"07138045","name":"Neuwied, Stadt","type":"Stadt"},"district":{"key":"07138","name":"Neuwied","type":"Landkreis"},"federalState":{"key":"07","name":"Rheinland-Pfalz"}},{"name":"Neuwieder Str.","postalCode":"56566","locality":"Neuwied","municipality":{"key":"07138045","name":"Neuwied, Stadt","type":"Stadt"},"district":{"key":"07138","name":"Neuwied","type":"Landkreis"},"federalState":{"key":"07","name":"Rheinland-Pfalz"}},{"name":"Neuwiesenweg","postalCode":"56566","locality":"Neuwied","municipality":{"key":"07138045","name":"Neuwied, Stadt","type":"Stadt"},"district":{"key":"07138","name":"Neuwied","type":"Landkreis"},"federalState":{"key":"07","name":"Rheinland-Pfalz"}},{"name":"Niederbieberer Str.","postalCode":"56567","locality":"Neuwied","municipality":{"key":"07138045","name":"Neuwied, Stadt","type":"Stadt"},"district":{"key":"07138","name":"Neuwied","type":"Landkreis"},"federalState":{"key":"07","name":"Rheinland-Pfalz"}},{"name":"Nikolaus-Ehlen-Str.","postalCode":"56566","locality":"Neuwied","municipality":{"key":"07138045","name":"Neuwied, Stadt","type":"Stadt"},"district":{"key":"07138","name":"Neuwied","type":"Landkreis"},"federalState":{"key":"07","name":"Rheinland-Pfalz"}},{"name":"Nobelstr.","postalCode":"56566","locality":"Neuwied","municipality":{"key":"07138045","name":"Neuwied, Stadt","type":"Stadt"},"district":{"key":"07138","name":"Neuwied","type":"Landkreis"},"federalState":{"key":"07","name":"Rheinland-Pfalz"}},{"name":"Nodhausen","postalCode":"56567","locality":"Neuwied","municipality":{"key":"07138045","name":"Neuwied, Stadt","type":"Stadt"},"district":{"key":"07138","name":"Neuwied","type":"Landkreis"},"federalState":{"key":"07","name":"Rheinland-Pfalz"}},{"name":"Nodhausener Str.","postalCode":"56567","locality":"Neuwied","municipality":{"key":"07138045","name":"Neuwied, Stadt","type":"Stadt"},"district":{"key":"07138","name":"Neuwied","type":"Landkreis"},"federalState":{"key":"07","name":"Rheinland-Pfalz"}},{"name":"Nonnenpfad","postalCode":"56567","locality":"Neuwied","municipality":{"key":"07138045","name":"Neuwied, Stadt","type":"Stadt"},"district":{"key":"07138","name":"Neuwied","type":"Landkreis"},"federalState":{"key":"07","name":"Rheinland-Pfalz"}},{"name":"Nordsteg","postalCode":"56567","locality":"Neuwied","municipality":{"key":"07138045","name":"Neuwied, Stadt","type":"Stadt"},"district":{"key":"07138","name":"Neuwied","type":"Landkreis"},"federalState":{"key":"07","name":"Rheinland-Pfalz"}},{"name":"Oberbieberer Str.","postalCode":"56567","locality":"Neuwied","municipality":{"key":"07138045","name":"Neuwied, Stadt","type":"Stadt"},"district":{"key":"07138","name":"Neuwied","type":"Landkreis"},"federalState":{"key":"07","name":"Rheinland-Pfalz"}},{"name":"Oberbüngstr.","postalCode":"56566","locality":"Neuwied","municipality":{"key":"07138045","name":"Neuwied, Stadt","type":"Stadt"},"district":{"key":"07138","name":"Neuwied","type":"Landkreis"},"federalState":{"key":"07","name":"Rheinland-Pfalz"}},{"name":"Oberdorfstr.","postalCode":"56567","locality":"Neuwied","municipality":{"key":"07138045","name":"Neuwied, Stadt","type":"Stadt"},"district":{"key":"07138","name":"Neuwied","type":"Landkreis"},"federalState":{"key":"07","name":"Rheinland-Pfalz"}},{"name":"Obere Fluraustr.","postalCode":"56567","locality":"Neuwied","municipality":{"key":"07138045","name":"Neuwied, Stadt","type":"Stadt"},"district":{"key":"07138","name":"Neuwied","type":"Landkreis"},"federalState":{"key":"07","name":"Rheinland-Pfalz"}},{"name":"Obere Görgengasse","postalCode":"56566","locality":"Neuwied","municipality":{"key":"07138045","name":"Neuwied, Stadt","type":"Stadt"},"district":{"key":"07138","name":"Neuwied","type":"Landkreis"},"federalState":{"key":"07","name":"Rheinland-Pfalz"}},{"name":"Oberer Grabenring","postalCode":"56566","locality":"Neuwied","municipality":{"key":"07138045","name":"Neuwied, Stadt","type":"Stadt"},"district":{"key":"07138","name":"Neuwied","type":"Landkreis"},"federalState":{"key":"07","name":"Rheinland-Pfalz"}},{"name":"Oberer Kümmelbergsweg","postalCode":"56567","locality":"Neuwied","municipality":{"key":"07138045","name":"Neuwied, Stadt","type":"Stadt"},"district":{"key":"07138","name":"Neuwied","type":"Landkreis"},"federalState":{"key":"07","name":"Rheinland-Pfalz"}},{"name":"Oberer Markenweg","postalCode":"56566","locality":"Neuwied","municipality":{"key":"07138045","name":"Neuwied, Stadt","type":"Stadt"},"district":{"key":"07138","name":"Neuwied","type":"Landkreis"},"federalState":{"key":"07","name":"Rheinland-Pfalz"}},{"name":"Obergasse","postalCode":"56566","locality":"Neuwied","municipality":{"key":"07138045","name":"Neuwied, Stadt","type":"Stadt"},"district":{"key":"07138","name":"Neuwied","type":"Landkreis"},"federalState":{"key":"07","name":"Rheinland-Pfalz"}},{"name":"Obergraben","postalCode":"56567","locality":"Neuwied","municipality":{"key":"07138045","name":"Neuwied, Stadt","type":"Stadt"},"district":{"key":"07138","name":"Neuwied","type":"Landkreis"},"federalState":{"key":"07","name":"Rheinland-Pfalz"}},{"name":"Oberstr.","postalCode":"56567","locality":"Neuwied","municipality":{"key":"07138045","name":"Neuwied, Stadt","type":"Stadt"},"district":{"key":"07138","name":"Neuwied","type":"Landkreis"},"federalState":{"key":"07","name":"Rheinland-Pfalz"}},{"name":"Oleanderweg","postalCode":"56566","locality":"Neuwied","municipality":{"key":"07138045","name":"Neuwied, Stadt","type":"Stadt"},"district":{"key":"07138","name":"Neuwied","type":"Landkreis"},"federalState":{"key":"07","name":"Rheinland-Pfalz"}},{"name":"Opalstr.","postalCode":"56566","locality":"Neuwied","municipality":{"key":"07138045","name":"Neuwied, Stadt","type":"Stadt"},"district":{"key":"07138","name":"Neuwied","type":"Landkreis"},"federalState":{"key":"07","name":"Rheinland-Pfalz"}},{"name":"Orchideenstr.","postalCode":"56566","locality":"Neuwied","municipality":{"key":"07138045","name":"Neuwied, Stadt","type":"Stadt"},"district":{"key":"07138","name":"Neuwied","type":"Landkreis"},"federalState":{"key":"07","name":"Rheinland-Pfalz"}},{"name":"Orffstr.","postalCode":"56566","locality":"Neuwied","municipality":{"key":"07138045","name":"Neuwied, Stadt","type":"Stadt"},"district":{"key":"07138","name":"Neuwied","type":"Landkreis"},"federalState":{"key":"07","name":"Rheinland-Pfalz"}},{"name":"Ostpreußenstr.","postalCode":"56567","locality":"Neuwied","municipality":{"key":"07138045","name":"Neuwied, Stadt","type":"Stadt"},"district":{"key":"07138","name":"Neuwied","type":"Landkreis"},"federalState":{"key":"07","name":"Rheinland-Pfalz"}},{"name":"Oststr.","postalCode":"56567","locality":"Neuwied","municipality":{"key":"07138045","name":"Neuwied, Stadt","type":"Stadt"},"district":{"key":"07138","name":"Neuwied","type":"Landkreis"},"federalState":{"key":"07","name":"Rheinland-Pfalz"}},{"name":"Otto-Hahn-Str.","postalCode":"56566","locality":"Neuwied","municipality":{"key":"07138045","name":"Neuwied, Stadt","type":"Stadt"},"district":{"key":"07138","name":"Neuwied","type":"Landkreis"},"federalState":{"key":"07","name":"Rheinland-Pfalz"}},{"name":"Otzbachweg","postalCode":"56566","locality":"Neuwied","municipality":{"key":"07138045","name":"Neuwied, Stadt","type":"Stadt"},"district":{"key":"07138","name":"Neuwied","type":"Landkreis"},"federalState":{"key":"07","name":"Rheinland-Pfalz"}},{"name":"Pablo-Picasso-Str.","postalCode":"56566","locality":"Neuwied","municipality":{"key":"07138045","name":"Neuwied, Stadt","type":"Stadt"},"district":{"key":"07138","name":"Neuwied","type":"Landkreis"},"federalState":{"key":"07","name":"Rheinland-Pfalz"}},{"name":"Papageien","postalCode":"56566","locality":"Neuwied","municipality":{"key":"07138045","name":"Neuwied, Stadt","type":"Stadt"},"district":{"key":"07138","name":"Neuwied","type":"Landkreis"},"federalState":{"key":"07","name":"Rheinland-Pfalz"}},{"name":"Paradieskraniche","postalCode":"56566","locality":"Neuwied","municipality":{"key":"07138045","name":"Neuwied, Stadt","type":"Stadt"},"district":{"key":"07138","name":"Neuwied","type":"Landkreis"},"federalState":{"key":"07","name":"Rheinland-Pfalz"}},{"name":"Parkstr.","postalCode":"56566","locality":"Neuwied","municipality":{"key":"07138045","name":"Neuwied, Stadt","type":"Stadt"},"district":{"key":"07138","name":"Neuwied","type":"Landkreis"},"federalState":{"key":"07","name":"Rheinland-Pfalz"}},{"name":"Pasteurstr.","postalCode":"56566","locality":"Neuwied","municipality":{"key":"07138045","name":"Neuwied, Stadt","type":"Stadt"},"district":{"key":"07138","name":"Neuwied","type":"Landkreis"},"federalState":{"key":"07","name":"Rheinland-Pfalz"}},{"name":"Pastor-Weber-Str.","postalCode":"56567","locality":"Neuwied","municipality":{"key":"07138045","name":"Neuwied, Stadt","type":"Stadt"},"district":{"key":"07138","name":"Neuwied","type":"Landkreis"},"federalState":{"key":"07","name":"Rheinland-Pfalz"}},{"name":"Paul-Gerhardt-Str.","postalCode":"56567","locality":"Neuwied","municipality":{"key":"07138045","name":"Neuwied, Stadt","type":"Stadt"},"district":{"key":"07138","name":"Neuwied","type":"Landkreis"},"federalState":{"key":"07","name":"Rheinland-Pfalz"}},{"name":"Paul-Klee-Str.","postalCode":"56566","locality":"Neuwied","municipality":{"key":"07138045","name":"Neuwied, Stadt","type":"Stadt"},"district":{"key":"07138","name":"Neuwied","type":"Landkreis"},"federalState":{"key":"07","name":"Rheinland-Pfalz"}},{"name":"Pestalozzistr.","postalCode":"56567","locality":"Neuwied","municipality":{"key":"07138045","name":"Neuwied, Stadt","type":"Stadt"},"district":{"key":"07138","name":"Neuwied","type":"Landkreis"},"federalState":{"key":"07","name":"Rheinland-Pfalz"}},{"name":"Peter-Hauprich-Weg","postalCode":"56564","locality":"Neuwied","municipality":{"key":"07138045","name":"Neuwied, Stadt","type":"Stadt"},"district":{"key":"07138","name":"Neuwied","type":"Landkreis"},"federalState":{"key":"07","name":"Rheinland-Pfalz"}},{"name":"Peter-Rosegger-Str.","postalCode":"56567","locality":"Neuwied","municipality":{"key":"07138045","name":"Neuwied, Stadt","type":"Stadt"},"district":{"key":"07138","name":"Neuwied","type":"Landkreis"},"federalState":{"key":"07","name":"Rheinland-Pfalz"}},{"name":"Peter-Siemeister-Str.","postalCode":"56564","locality":"Neuwied","municipality":{"key":"07138045","name":"Neuwied, Stadt","type":"Stadt"},"district":{"key":"07138","name":"Neuwied","type":"Landkreis"},"federalState":{"key":"07","name":"Rheinland-Pfalz"}},{"name":"Petunienstr.","postalCode":"56566","locality":"Neuwied","municipality":{"key":"07138045","name":"Neuwied, Stadt","type":"Stadt"},"district":{"key":"07138","name":"Neuwied","type":"Landkreis"},"federalState":{"key":"07","name":"Rheinland-Pfalz"}},{"name":"Pfahlwiese","postalCode":"56567","locality":"Neuwied","municipality":{"key":"07138045","name":"Neuwied, Stadt","type":"Stadt"},"district":{"key":"07138","name":"Neuwied","type":"Landkreis"},"federalState":{"key":"07","name":"Rheinland-Pfalz"}},{"name":"Pfarrer-Herbert-Köhler-Str.","postalCode":"56566","locality":"Neuwied","municipality":{"key":"07138045","name":"Neuwied, Stadt","type":"Stadt"},"district":{"key":"07138","name":"Neuwied","type":"Landkreis"},"federalState":{"key":"07","name":"Rheinland-Pfalz"}},{"name":"Pfarrer-Meyer-Str.","postalCode":"56564","locality":"Neuwied","municipality":{"key":"07138045","name":"Neuwied, Stadt","type":"Stadt"},"district":{"key":"07138","name":"Neuwied","type":"Landkreis"},"federalState":{"key":"07","name":"Rheinland-Pfalz"}},{"name":"Pfarrer-Werner-Mörchen-Str.","postalCode":"56564","locality":"Neuwied","municipality":{"key":"07138045","name":"Neuwied, Stadt","type":"Stadt"},"district":{"key":"07138","name":"Neuwied","type":"Landkreis"},"federalState":{"key":"07","name":"Rheinland-Pfalz"}},{"name":"Pfarrstr.","postalCode":"56564","locality":"Neuwied","municipality":{"key":"07138045","name":"Neuwied, Stadt","type":"Stadt"},"district":{"key":"07138","name":"Neuwied","type":"Landkreis"},"federalState":{"key":"07","name":"Rheinland-Pfalz"}},{"name":"Pfeifersweg","postalCode":"56566","locality":"Neuwied","municipality":{"key":"07138045","name":"Neuwied, Stadt","type":"Stadt"},"district":{"key":"07138","name":"Neuwied","type":"Landkreis"},"federalState":{"key":"07","name":"Rheinland-Pfalz"}},{"name":"Pförtchen","postalCode":"56566","locality":"Neuwied","municipality":{"key":"07138045","name":"Neuwied, Stadt","type":"Stadt"},"district":{"key":"07138","name":"Neuwied","type":"Landkreis"},"federalState":{"key":"07","name":"Rheinland-Pfalz"}},{"name":"Pommernstr.","postalCode":"56567","locality":"Neuwied","municipality":{"key":"07138045","name":"Neuwied, Stadt","type":"Stadt"},"district":{"key":"07138","name":"Neuwied","type":"Landkreis"},"federalState":{"key":"07","name":"Rheinland-Pfalz"}},{"name":"Poststr.","postalCode":"56567","locality":"Neuwied","municipality":{"key":"07138045","name":"Neuwied, Stadt","type":"Stadt"},"district":{"key":"07138","name":"Neuwied","type":"Landkreis"},"federalState":{"key":"07","name":"Rheinland-Pfalz"}},{"name":"Preisbergstr.","postalCode":"56567","locality":"Neuwied","municipality":{"key":"07138045","name":"Neuwied, Stadt","type":"Stadt"},"district":{"key":"07138","name":"Neuwied","type":"Landkreis"},"federalState":{"key":"07","name":"Rheinland-Pfalz"}},{"name":"Prinz-Maximilian-zu-Wied-Str.","postalCode":"56564","locality":"Neuwied","municipality":{"key":"07138045","name":"Neuwied, Stadt","type":"Stadt"},"district":{"key":"07138","name":"Neuwied","type":"Landkreis"},"federalState":{"key":"07","name":"Rheinland-Pfalz"}},{"name":"Prinz-Viktor-Str.","postalCode":"56564","locality":"Neuwied","municipality":{"key":"07138045","name":"Neuwied, Stadt","type":"Stadt"},"district":{"key":"07138","name":"Neuwied","type":"Landkreis"},"federalState":{"key":"07","name":"Rheinland-Pfalz"}},{"name":"Püschwiese","postalCode":"56566","locality":"Neuwied","municipality":{"key":"07138045","name":"Neuwied, Stadt","type":"Stadt"},"district":{"key":"07138","name":"Neuwied","type":"Landkreis"},"federalState":{"key":"07","name":"Rheinland-Pfalz"}},{"name":"Pützgasse","postalCode":"56564","locality":"Neuwied","municipality":{"key":"07138045","name":"Neuwied, Stadt","type":"Stadt"},"district":{"key":"07138","name":"Neuwied","type":"Landkreis"},"federalState":{"key":"07","name":"Rheinland-Pfalz"}},{"name":"Raffaelweg","postalCode":"56566","locality":"Neuwied","municipality":{"key":"07138045","name":"Neuwied, Stadt","type":"Stadt"},"district":{"key":"07138","name":"Neuwied","type":"Landkreis"},"federalState":{"key":"07","name":"Rheinland-Pfalz"}},{"name":"Raiffeisenplatz","postalCode":"56564","locality":"Neuwied","municipality":{"key":"07138045","name":"Neuwied, Stadt","type":"Stadt"},"district":{"key":"07138","name":"Neuwied","type":"Landkreis"},"federalState":{"key":"07","name":"Rheinland-Pfalz"}},{"name":"Raiffeisenring","postalCode":"56564","locality":"Neuwied","municipality":{"key":"07138045","name":"Neuwied, Stadt","type":"Stadt"},"district":{"key":"07138","name":"Neuwied","type":"Landkreis"},"federalState":{"key":"07","name":"Rheinland-Pfalz"}},{"name":"Rasselsteiner Str.","postalCode":"56564","locality":"Neuwied","municipality":{"key":"07138045","name":"Neuwied, Stadt","type":"Stadt"},"district":{"key":"07138","name":"Neuwied","type":"Landkreis"},"federalState":{"key":"07","name":"Rheinland-Pfalz"}},{"name":"Rasselsteiner Str.","postalCode":"56567","locality":"Neuwied","municipality":{"key":"07138045","name":"Neuwied, Stadt","type":"Stadt"},"district":{"key":"07138","name":"Neuwied","type":"Landkreis"},"federalState":{"key":"07","name":"Rheinland-Pfalz"}},{"name":"Rastenburger Str.","postalCode":"56566","locality":"Neuwied","municipality":{"key":"07138045","name":"Neuwied, Stadt","type":"Stadt"},"district":{"key":"07138","name":"Neuwied","type":"Landkreis"},"federalState":{"key":"07","name":"Rheinland-Pfalz"}},{"name":"Rebenweg","postalCode":"56566","locality":"Neuwied","municipality":{"key":"07138045","name":"Neuwied, Stadt","type":"Stadt"},"district":{"key":"07138","name":"Neuwied","type":"Landkreis"},"federalState":{"key":"07","name":"Rheinland-Pfalz"}},{"name":"Reckstr.","postalCode":"56564","locality":"Neuwied","municipality":{"key":"07138045","name":"Neuwied, Stadt","type":"Stadt"},"district":{"key":"07138","name":"Neuwied","type":"Landkreis"},"federalState":{"key":"07","name":"Rheinland-Pfalz"}},{"name":"Reiterpfad","postalCode":"56566","locality":"Neuwied","municipality":{"key":"07138045","name":"Neuwied, Stadt","type":"Stadt"},"district":{"key":"07138","name":"Neuwied","type":"Landkreis"},"federalState":{"key":"07","name":"Rheinland-Pfalz"}},{"name":"Rektor-Eul-Str.","postalCode":"56567","locality":"Neuwied","municipality":{"key":"07138045","name":"Neuwied, Stadt","type":"Stadt"},"district":{"key":"07138","name":"Neuwied","type":"Landkreis"},"federalState":{"key":"07","name":"Rheinland-Pfalz"}},{"name":"Rembrandtstr.","postalCode":"56566","locality":"Neuwied","municipality":{"key":"07138045","name":"Neuwied, Stadt","type":"Stadt"},"district":{"key":"07138","name":"Neuwied","type":"Landkreis"},"federalState":{"key":"07","name":"Rheinland-Pfalz"}},{"name":"Renoirstr.","postalCode":"56566","locality":"Neuwied","municipality":{"key":"07138045","name":"Neuwied, Stadt","type":"Stadt"},"district":{"key":"07138","name":"Neuwied","type":"Landkreis"},"federalState":{"key":"07","name":"Rheinland-Pfalz"}},{"name":"Renzentalweg","postalCode":"56567","locality":"Neuwied","municipality":{"key":"07138045","name":"Neuwied, Stadt","type":"Stadt"},"district":{"key":"07138","name":"Neuwied","type":"Landkreis"},"federalState":{"key":"07","name":"Rheinland-Pfalz"}},{"name":"Resedastr.","postalCode":"56566","locality":"Neuwied","municipality":{"key":"07138045","name":"Neuwied, Stadt","type":"Stadt"},"district":{"key":"07138","name":"Neuwied","type":"Landkreis"},"federalState":{"key":"07","name":"Rheinland-Pfalz"}},{"name":"Reuterspfad","postalCode":"56566","locality":"Neuwied","municipality":{"key":"07138045","name":"Neuwied, Stadt","type":"Stadt"},"district":{"key":"07138","name":"Neuwied","type":"Landkreis"},"federalState":{"key":"07","name":"Rheinland-Pfalz"}},{"name":"Reylstr.","postalCode":"56566","locality":"Neuwied","municipality":{"key":"07138045","name":"Neuwied, Stadt","type":"Stadt"},"district":{"key":"07138","name":"Neuwied","type":"Landkreis"},"federalState":{"key":"07","name":"Rheinland-Pfalz"}},{"name":"Reylsweg","postalCode":"56566","locality":"Neuwied","municipality":{"key":"07138045","name":"Neuwied, Stadt","type":"Stadt"},"district":{"key":"07138","name":"Neuwied","type":"Landkreis"},"federalState":{"key":"07","name":"Rheinland-Pfalz"}},{"name":"Rheinblick","postalCode":"56567","locality":"Neuwied","municipality":{"key":"07138045","name":"Neuwied, Stadt","type":"Stadt"},"district":{"key":"07138","name":"Neuwied","type":"Landkreis"},"federalState":{"key":"07","name":"Rheinland-Pfalz"}},{"name":"Rheinheldestr.","postalCode":"56567","locality":"Neuwied","municipality":{"key":"07138045","name":"Neuwied, Stadt","type":"Stadt"},"district":{"key":"07138","name":"Neuwied","type":"Landkreis"},"federalState":{"key":"07","name":"Rheinland-Pfalz"}},{"name":"Rheinhöhenstr.","postalCode":"56567","locality":"Neuwied","municipality":{"key":"07138045","name":"Neuwied, Stadt","type":"Stadt"},"district":{"key":"07138","name":"Neuwied","type":"Landkreis"},"federalState":{"key":"07","name":"Rheinland-Pfalz"}},{"name":"Rheinhöhenweg","postalCode":"56566","locality":"Neuwied","municipality":{"key":"07138045","name":"Neuwied, Stadt","type":"Stadt"},"district":{"key":"07138","name":"Neuwied","type":"Landkreis"},"federalState":{"key":"07","name":"Rheinland-Pfalz"}},{"name":"Rheinhöhenweg","postalCode":"56567","locality":"Neuwied","municipality":{"key":"07138045","name":"Neuwied, Stadt","type":"Stadt"},"district":{"key":"07138","name":"Neuwied","type":"Landkreis"},"federalState":{"key":"07","name":"Rheinland-Pfalz"}},{"name":"Rheinstr.","postalCode":"56564","locality":"Neuwied","municipality":{"key":"07138045","name":"Neuwied, Stadt","type":"Stadt"},"district":{"key":"07138","name":"Neuwied","type":"Landkreis"},"federalState":{"key":"07","name":"Rheinland-Pfalz"}},{"name":"Rheintalweg","postalCode":"56564","locality":"Neuwied","municipality":{"key":"07138045","name":"Neuwied, Stadt","type":"Stadt"},"district":{"key":"07138","name":"Neuwied","type":"Landkreis"},"federalState":{"key":"07","name":"Rheinland-Pfalz"}},{"name":"Rhein-Wied-Eck","postalCode":"56567","locality":"Neuwied","municipality":{"key":"07138045","name":"Neuwied, Stadt","type":"Stadt"},"district":{"key":"07138","name":"Neuwied","type":"Landkreis"},"federalState":{"key":"07","name":"Rheinland-Pfalz"}},{"name":"Rhein-Wied-Stadion","postalCode":"56564","locality":"Neuwied","municipality":{"key":"07138045","name":"Neuwied, Stadt","type":"Stadt"},"district":{"key":"07138","name":"Neuwied","type":"Landkreis"},"federalState":{"key":"07","name":"Rheinland-Pfalz"}},{"name":"Ricarda-Huch-Str.","postalCode":"56567","locality":"Neuwied","municipality":{"key":"07138045","name":"Neuwied, Stadt","type":"Stadt"},"district":{"key":"07138","name":"Neuwied","type":"Landkreis"},"federalState":{"key":"07","name":"Rheinland-Pfalz"}},{"name":"Richard-Wagner-Str.","postalCode":"56566","locality":"Neuwied","municipality":{"key":"07138045","name":"Neuwied, Stadt","type":"Stadt"},"district":{"key":"07138","name":"Neuwied","type":"Landkreis"},"federalState":{"key":"07","name":"Rheinland-Pfalz"}},{"name":"Richterswiler Str.","postalCode":"56564","locality":"Neuwied","municipality":{"key":"07138045","name":"Neuwied, Stadt","type":"Stadt"},"district":{"key":"07138","name":"Neuwied","type":"Landkreis"},"federalState":{"key":"07","name":"Rheinland-Pfalz"}},{"name":"Riemenschneiderstr.","postalCode":"56566","locality":"Neuwied","municipality":{"key":"07138045","name":"Neuwied, Stadt","type":"Stadt"},"district":{"key":"07138","name":"Neuwied","type":"Landkreis"},"federalState":{"key":"07","name":"Rheinland-Pfalz"}},{"name":"Ringmauer","postalCode":"56567","locality":"Neuwied","municipality":{"key":"07138045","name":"Neuwied, Stadt","type":"Stadt"},"district":{"key":"07138","name":"Neuwied","type":"Landkreis"},"federalState":{"key":"07","name":"Rheinland-Pfalz"}},{"name":"Ringstr.","postalCode":"56564","locality":"Neuwied","municipality":{"key":"07138045","name":"Neuwied, Stadt","type":"Stadt"},"district":{"key":"07138","name":"Neuwied","type":"Landkreis"},"federalState":{"key":"07","name":"Rheinland-Pfalz"}},{"name":"Robert-Bosch-Str.","postalCode":"56566","locality":"Neuwied","municipality":{"key":"07138045","name":"Neuwied, Stadt","type":"Stadt"},"district":{"key":"07138","name":"Neuwied","type":"Landkreis"},"federalState":{"key":"07","name":"Rheinland-Pfalz"}},{"name":"Robert-Koch-Str.","postalCode":"56566","locality":"Neuwied","municipality":{"key":"07138045","name":"Neuwied, Stadt","type":"Stadt"},"district":{"key":"07138","name":"Neuwied","type":"Landkreis"},"federalState":{"key":"07","name":"Rheinland-Pfalz"}},{"name":"Robert-Krups-Str.","postalCode":"56564","locality":"Neuwied","municipality":{"key":"07138045","name":"Neuwied, Stadt","type":"Stadt"},"district":{"key":"07138","name":"Neuwied","type":"Landkreis"},"federalState":{"key":"07","name":"Rheinland-Pfalz"}},{"name":"Robert-Stolz-Str.","postalCode":"56566","locality":"Neuwied","municipality":{"key":"07138045","name":"Neuwied, Stadt","type":"Stadt"},"district":{"key":"07138","name":"Neuwied","type":"Landkreis"},"federalState":{"key":"07","name":"Rheinland-Pfalz"}},{"name":"Rockenfeld","postalCode":"56567","locality":"Neuwied","municipality":{"key":"07138045","name":"Neuwied, Stadt","type":"Stadt"},"district":{"key":"07138","name":"Neuwied","type":"Landkreis"},"federalState":{"key":"07","name":"Rheinland-Pfalz"}},{"name":"Rockenfelder Str.","postalCode":"56567","locality":"Neuwied","municipality":{"key":"07138045","name":"Neuwied, Stadt","type":"Stadt"},"district":{"key":"07138","name":"Neuwied","type":"Landkreis"},"federalState":{"key":"07","name":"Rheinland-Pfalz"}},{"name":"Rodenacker","postalCode":"56566","locality":"Neuwied","municipality":{"key":"07138045","name":"Neuwied, Stadt","type":"Stadt"},"district":{"key":"07138","name":"Neuwied","type":"Landkreis"},"federalState":{"key":"07","name":"Rheinland-Pfalz"}},{"name":"Rodenbacher Str.","postalCode":"56567","locality":"Neuwied","municipality":{"key":"07138045","name":"Neuwied, Stadt","type":"Stadt"},"district":{"key":"07138","name":"Neuwied","type":"Landkreis"},"federalState":{"key":"07","name":"Rheinland-Pfalz"}},{"name":"Roderweg","postalCode":"56566","locality":"Neuwied","municipality":{"key":"07138045","name":"Neuwied, Stadt","type":"Stadt"},"district":{"key":"07138","name":"Neuwied","type":"Landkreis"},"federalState":{"key":"07","name":"Rheinland-Pfalz"}},{"name":"Roentgenstr.","postalCode":"56564","locality":"Neuwied","municipality":{"key":"07138045","name":"Neuwied, Stadt","type":"Stadt"},"district":{"key":"07138","name":"Neuwied","type":"Landkreis"},"federalState":{"key":"07","name":"Rheinland-Pfalz"}},{"name":"Römerstr.","postalCode":"56567","locality":"Neuwied","municipality":{"key":"07138045","name":"Neuwied, Stadt","type":"Stadt"},"district":{"key":"07138","name":"Neuwied","type":"Landkreis"},"federalState":{"key":"07","name":"Rheinland-Pfalz"}},{"name":"Römerwall","postalCode":"56567","locality":"Neuwied","municipality":{"key":"07138045","name":"Neuwied, Stadt","type":"Stadt"},"district":{"key":"07138","name":"Neuwied","type":"Landkreis"},"federalState":{"key":"07","name":"Rheinland-Pfalz"}},{"name":"Rommersdorfer Str.","postalCode":"56566","locality":"Neuwied","municipality":{"key":"07138045","name":"Neuwied, Stadt","type":"Stadt"},"district":{"key":"07138","name":"Neuwied","type":"Landkreis"},"federalState":{"key":"07","name":"Rheinland-Pfalz"}},{"name":"Rosengarten","postalCode":"56564","locality":"Neuwied","municipality":{"key":"07138045","name":"Neuwied, Stadt","type":"Stadt"},"district":{"key":"07138","name":"Neuwied","type":"Landkreis"},"federalState":{"key":"07","name":"Rheinland-Pfalz"}},{"name":"Rosenstr.","postalCode":"56566","locality":"Neuwied","municipality":{"key":"07138045","name":"Neuwied, Stadt","type":"Stadt"},"district":{"key":"07138","name":"Neuwied","type":"Landkreis"},"federalState":{"key":"07","name":"Rheinland-Pfalz"}},{"name":"Rosmarinweg","postalCode":"56566","locality":"Neuwied","municipality":{"key":"07138045","name":"Neuwied, Stadt","type":"Stadt"},"district":{"key":"07138","name":"Neuwied","type":"Landkreis"},"federalState":{"key":"07","name":"Rheinland-Pfalz"}},{"name":"Rostocker Str.","postalCode":"56566","locality":"Neuwied","municipality":{"key":"07138045","name":"Neuwied, Stadt","type":"Stadt"},"district":{"key":"07138","name":"Neuwied","type":"Landkreis"},"federalState":{"key":"07","name":"Rheinland-Pfalz"}},{"name":"Rubensstr.","postalCode":"56566","locality":"Neuwied","municipality":{"key":"07138045","name":"Neuwied, Stadt","type":"Stadt"},"district":{"key":"07138","name":"Neuwied","type":"Landkreis"},"federalState":{"key":"07","name":"Rheinland-Pfalz"}},{"name":"Sandstr.","postalCode":"56584","locality":"Meinborn","municipality":{"key":"07138042","name":"Meinborn","type":"Kreisangehörige_Gemeinde"},"district":{"key":"07138","name":"Neuwied","type":"Landkreis"},"federalState":{"key":"07","name":"Rheinland-Pfalz"}},{"name":"Stiegelsweg","postalCode":"56584","locality":"Meinborn","municipality":{"key":"07138042","name":"Meinborn","type":"Kreisangehörige_Gemeinde"},"district":{"key":"07138","name":"Neuwied","type":"Landkreis"},"federalState":{"key":"07","name":"Rheinland-Pfalz"}},{"name":"Tannenstr.","postalCode":"56584","locality":"Meinborn","municipality":{"key":"07138042","name":"Meinborn","type":"Kreisangehörige_Gemeinde"},"district":{"key":"07138","name":"Neuwied","type":"Landkreis"},"federalState":{"key":"07","name":"Rheinland-Pfalz"}},{"name":"Thielsbungerten","postalCode":"56584","locality":"Meinborn","municipality":{"key":"07138042","name":"Meinborn","type":"Kreisangehörige_Gemeinde"},"district":{"key":"07138","name":"Neuwied","type":"Landkreis"},"federalState":{"key":"07","name":"Rheinland-Pfalz"}},{"name":"Ubierstr.","postalCode":"56567","locality":"Neuwied","municipality":{"key":"07138045","name":"Neuwied, Stadt","type":"Stadt"},"district":{"key":"07138","name":"Neuwied","type":"Landkreis"},"federalState":{"key":"07","name":"Rheinland-Pfalz"}},{"name":"Unterbüngstr.","postalCode":"56566","locality":"Neuwied","municipality":{"key":"07138045","name":"Neuwied, Stadt","type":"Stadt"},"district":{"key":"07138","name":"Neuwied","type":"Landkreis"},"federalState":{"key":"07","name":"Rheinland-Pfalz"}},{"name":"Unterdorf","postalCode":"56564","locality":"Neuwied","municipality":{"key":"07138045","name":"Neuwied, Stadt","type":"Stadt"},"district":{"key":"07138","name":"Neuwied","type":"Landkreis"},"federalState":{"key":"07","name":"Rheinland-Pfalz"}},{"name":"Untere Fluraustr.","postalCode":"56567","locality":"Neuwied","municipality":{"key":"07138045","name":"Neuwied, Stadt","type":"Stadt"},"district":{"key":"07138","name":"Neuwied","type":"Landkreis"},"federalState":{"key":"07","name":"Rheinland-Pfalz"}},{"name":"Untere Görgengasse","postalCode":"56566","locality":"Neuwied","municipality":{"key":"07138045","name":"Neuwied, Stadt","type":"Stadt"},"district":{"key":"07138","name":"Neuwied","type":"Landkreis"},"federalState":{"key":"07","name":"Rheinland-Pfalz"}},{"name":"Unterer Grabenring","postalCode":"56566","locality":"Neuwied","municipality":{"key":"07138045","name":"Neuwied, Stadt","type":"Stadt"},"district":{"key":"07138","name":"Neuwied","type":"Landkreis"},"federalState":{"key":"07","name":"Rheinland-Pfalz"}},{"name":"Unterer Kümmelberg","postalCode":"56567","locality":"Neuwied","municipality":{"key":"07138045","name":"Neuwied, Stadt","type":"Stadt"},"district":{"key":"07138","name":"Neuwied","type":"Landkreis"},"federalState":{"key":"07","name":"Rheinland-Pfalz"}},{"name":"Untergasse","postalCode":"56566","locality":"Neuwied","municipality":{"key":"07138045","name":"Neuwied, Stadt","type":"Stadt"},"district":{"key":"07138","name":"Neuwied","type":"Landkreis"},"federalState":{"key":"07","name":"Rheinland-Pfalz"}},{"name":"Untergraben","postalCode":"56567","locality":"Neuwied","municipality":{"key":"07138045","name":"Neuwied, Stadt","type":"Stadt"},"district":{"key":"07138","name":"Neuwied","type":"Landkreis"},"federalState":{"key":"07","name":"Rheinland-Pfalz"}},{"name":"Unterm Flecken","postalCode":"56566","locality":"Neuwied","municipality":{"key":"07138045","name":"Neuwied, Stadt","type":"Stadt"},"district":{"key":"07138","name":"Neuwied","type":"Landkreis"},"federalState":{"key":"07","name":"Rheinland-Pfalz"}},{"name":"Uranusstr.","postalCode":"56566","locality":"Neuwied","municipality":{"key":"07138045","name":"Neuwied, Stadt","type":"Stadt"},"district":{"key":"07138","name":"Neuwied","type":"Landkreis"},"federalState":{"key":"07","name":"Rheinland-Pfalz"}},{"name":"Usedomstr.","postalCode":"56567","locality":"Neuwied","municipality":{"key":"07138045","name":"Neuwied, Stadt","type":"Stadt"},"district":{"key":"07138","name":"Neuwied","type":"Landkreis"},"federalState":{"key":"07","name":"Rheinland-Pfalz"}},{"name":"Veilchenstr.","postalCode":"56566","locality":"Neuwied","municipality":{"key":"07138045","name":"Neuwied, Stadt","type":"Stadt"},"district":{"key":"07138","name":"Neuwied","type":"Landkreis"},"federalState":{"key":"07","name":"Rheinland-Pfalz"}},{"name":"Venusstr.","postalCode":"56566","locality":"Neuwied","municipality":{"key":"07138045","name":"Neuwied, Stadt","type":"Stadt"},"district":{"key":"07138","name":"Neuwied","type":"Landkreis"},"federalState":{"key":"07","name":"Rheinland-Pfalz"}},{"name":"Vikunjas","postalCode":"56566","locality":"Neuwied","municipality":{"key":"07138045","name":"Neuwied, Stadt","type":"Stadt"},"district":{"key":"07138","name":"Neuwied","type":"Landkreis"},"federalState":{"key":"07","name":"Rheinland-Pfalz"}},{"name":"Virchowweg","postalCode":"56566","locality":"Neuwied","municipality":{"key":"07138045","name":"Neuwied, Stadt","type":"Stadt"},"district":{"key":"07138","name":"Neuwied","type":"Landkreis"},"federalState":{"key":"07","name":"Rheinland-Pfalz"}},{"name":"Vogteistr.","postalCode":"56567","locality":"Neuwied","municipality":{"key":"07138045","name":"Neuwied, Stadt","type":"Stadt"},"district":{"key":"07138","name":"Neuwied","type":"Landkreis"},"federalState":{"key":"07","name":"Rheinland-Pfalz"}},{"name":"Volberskroog","postalCode":"56566","locality":"Neuwied","municipality":{"key":"07138045","name":"Neuwied, Stadt","type":"Stadt"},"district":{"key":"07138","name":"Neuwied","type":"Landkreis"},"federalState":{"key":"07","name":"Rheinland-Pfalz"}},{"name":"Von-der-Leyen-Str.","postalCode":"56567","locality":"Neuwied","municipality":{"key":"07138045","name":"Neuwied, Stadt","type":"Stadt"},"district":{"key":"07138","name":"Neuwied","type":"Landkreis"},"federalState":{"key":"07","name":"Rheinland-Pfalz"}},{"name":"Von-Ebner-Eschenbach-Str.","postalCode":"56567","locality":"Neuwied","municipality":{"key":"07138045","name":"Neuwied, Stadt","type":"Stadt"},"district":{"key":"07138","name":"Neuwied","type":"Landkreis"},"federalState":{"key":"07","name":"Rheinland-Pfalz"}},{"name":"Von-Eichendorff-Str.","postalCode":"56567","locality":"Neuwied","municipality":{"key":"07138045","name":"Neuwied, Stadt","type":"Stadt"},"district":{"key":"07138","name":"Neuwied","type":"Landkreis"},"federalState":{"key":"07","name":"Rheinland-Pfalz"}},{"name":"Von-Runkel-Platz","postalCode":"56564","locality":"Neuwied","municipality":{"key":"07138045","name":"Neuwied, Stadt","type":"Stadt"},"district":{"key":"07138","name":"Neuwied","type":"Landkreis"},"federalState":{"key":"07","name":"Rheinland-Pfalz"}},{"name":"Von-Stauffenberg-Str.","postalCode":"56567","locality":"Neuwied","municipality":{"key":"07138045","name":"Neuwied, Stadt","type":"Stadt"},"district":{"key":"07138","name":"Neuwied","type":"Landkreis"},"federalState":{"key":"07","name":"Rheinland-Pfalz"}},{"name":"Vor dem Damm","postalCode":"56564","locality":"Neuwied","municipality":{"key":"07138045","name":"Neuwied, Stadt","type":"Stadt"},"district":{"key":"07138","name":"Neuwied","type":"Landkreis"},"federalState":{"key":"07","name":"Rheinland-Pfalz"}},{"name":"Wacholderweg","postalCode":"56566","locality":"Neuwied","municipality":{"key":"07138045","name":"Neuwied, Stadt","type":"Stadt"},"district":{"key":"07138","name":"Neuwied","type":"Landkreis"},"federalState":{"key":"07","name":"Rheinland-Pfalz"}},{"name":"Wagenhallenweg","postalCode":"56566","locality":"Neuwied","municipality":{"key":"07138045","name":"Neuwied, Stadt","type":"Stadt"},"district":{"key":"07138","name":"Neuwied","type":"Landkreis"},"federalState":{"key":"07","name":"Rheinland-Pfalz"}},{"name":"Waldblick","postalCode":"56567","locality":"Neuwied","municipality":{"key":"07138045","name":"Neuwied, Stadt","type":"Stadt"},"district":{"key":"07138","name":"Neuwied","type":"Landkreis"},"federalState":{"key":"07","name":"Rheinland-Pfalz"}},{"name":"Walderdorffstr.","postalCode":"56566","locality":"Neuwied","municipality":{"key":"07138045","name":"Neuwied, Stadt","type":"Stadt"},"district":{"key":"07138","name":"Neuwied","type":"Landkreis"},"federalState":{"key":"07","name":"Rheinland-Pfalz"}},{"name":"Waldstr.","postalCode":"56566","locality":"Neuwied","municipality":{"key":"07138045","name":"Neuwied, Stadt","type":"Stadt"},"district":{"key":"07138","name":"Neuwied","type":"Landkreis"},"federalState":{"key":"07","name":"Rheinland-Pfalz"}},{"name":"Wallbachstr.","postalCode":"56566","locality":"Neuwied","municipality":{"key":"07138045","name":"Neuwied, Stadt","type":"Stadt"},"district":{"key":"07138","name":"Neuwied","type":"Landkreis"},"federalState":{"key":"07","name":"Rheinland-Pfalz"}},{"name":"Wallstr.","postalCode":"56564","locality":"Neuwied","municipality":{"key":"07138045","name":"Neuwied, Stadt","type":"Stadt"},"district":{"key":"07138","name":"Neuwied","type":"Landkreis"},"federalState":{"key":"07","name":"Rheinland-Pfalz"}},{"name":"Wallwiese","postalCode":"56566","locality":"Neuwied","municipality":{"key":"07138045","name":"Neuwied, Stadt","type":"Stadt"},"district":{"key":"07138","name":"Neuwied","type":"Landkreis"},"federalState":{"key":"07","name":"Rheinland-Pfalz"}},{"name":"Wallwiesenweg","postalCode":"56566","locality":"Neuwied","municipality":{"key":"07138045","name":"Neuwied, Stadt","type":"Stadt"},"district":{"key":"07138","name":"Neuwied","type":"Landkreis"},"federalState":{"key":"07","name":"Rheinland-Pfalz"}},{"name":"Walther-Rathenau-Str.","postalCode":"56564","locality":"Neuwied","municipality":{"key":"07138045","name":"Neuwied, Stadt","type":"Stadt"},"district":{"key":"07138","name":"Neuwied","type":"Landkreis"},"federalState":{"key":"07","name":"Rheinland-Pfalz"}},{"name":"Wandplattensiedlung","postalCode":"56566","locality":"Neuwied","municipality":{"key":"07138045","name":"Neuwied, Stadt","type":"Stadt"},"district":{"key":"07138","name":"Neuwied","type":"Landkreis"},"federalState":{"key":"07","name":"Rheinland-Pfalz"}},{"name":"Wasemweg","postalCode":"56566","locality":"Neuwied","municipality":{"key":"07138045","name":"Neuwied, Stadt","type":"Stadt"},"district":{"key":"07138","name":"Neuwied","type":"Landkreis"},"federalState":{"key":"07","name":"Rheinland-Pfalz"}},{"name":"Wegscheide","postalCode":"56567","locality":"Neuwied","municipality":{"key":"07138045","name":"Neuwied, Stadt","type":"Stadt"},"district":{"key":"07138","name":"Neuwied","type":"Landkreis"},"federalState":{"key":"07","name":"Rheinland-Pfalz"}},{"name":"Weidenweg","postalCode":"56567","locality":"Neuwied","municipality":{"key":"07138045","name":"Neuwied, Stadt","type":"Stadt"},"district":{"key":"07138","name":"Neuwied","type":"Landkreis"},"federalState":{"key":"07","name":"Rheinland-Pfalz"}},{"name":"Weiherplatz","postalCode":"56567","locality":"Neuwied","municipality":{"key":"07138045","name":"Neuwied, Stadt","type":"Stadt"},"district":{"key":"07138","name":"Neuwied","type":"Landkreis"},"federalState":{"key":"07","name":"Rheinland-Pfalz"}},{"name":"Weiherstr.","postalCode":"56567","locality":"Neuwied","municipality":{"key":"07138045","name":"Neuwied, Stadt","type":"Stadt"},"district":{"key":"07138","name":"Neuwied","type":"Landkreis"},"federalState":{"key":"07","name":"Rheinland-Pfalz"}},{"name":"Weinbergstr.","postalCode":"56564","locality":"Neuwied","municipality":{"key":"07138045","name":"Neuwied, Stadt","type":"Stadt"},"district":{"key":"07138","name":"Neuwied","type":"Landkreis"},"federalState":{"key":"07","name":"Rheinland-Pfalz"}},{"name":"Weingartenstr.","postalCode":"56566","locality":"Neuwied","municipality":{"key":"07138045","name":"Neuwied, Stadt","type":"Stadt"},"district":{"key":"07138","name":"Neuwied","type":"Landkreis"},"federalState":{"key":"07","name":"Rheinland-Pfalz"}},{"name":"Weiser Str.","postalCode":"56566","locality":"Neuwied","municipality":{"key":"07138045","name":"Neuwied, Stadt","type":"Stadt"},"district":{"key":"07138","name":"Neuwied","type":"Landkreis"},"federalState":{"key":"07","name":"Rheinland-Pfalz"}},{"name":"Weiße Erde","postalCode":"56564","locality":"Neuwied","municipality":{"key":"07138045","name":"Neuwied, Stadt","type":"Stadt"},"district":{"key":"07138","name":"Neuwied","type":"Landkreis"},"federalState":{"key":"07","name":"Rheinland-Pfalz"}},{"name":"Weißenthurmer Str.","postalCode":"56564","locality":"Neuwied","municipality":{"key":"07138045","name":"Neuwied, Stadt","type":"Stadt"},"district":{"key":"07138","name":"Neuwied","type":"Landkreis"},"federalState":{"key":"07","name":"Rheinland-Pfalz"}},{"name":"Weißer Berg","postalCode":"56567","locality":"Neuwied","municipality":{"key":"07138045","name":"Neuwied, Stadt","type":"Stadt"},"district":{"key":"07138","name":"Neuwied","type":"Landkreis"},"federalState":{"key":"07","name":"Rheinland-Pfalz"}},{"name":"Werftstr.","postalCode":"56566","locality":"Neuwied","municipality":{"key":"07138045","name":"Neuwied, Stadt","type":"Stadt"},"district":{"key":"07138","name":"Neuwied","type":"Landkreis"},"federalState":{"key":"07","name":"Rheinland-Pfalz"}},{"name":"Werner-Egk-Str.","postalCode":"56566","locality":"Neuwied","municipality":{"key":"07138045","name":"Neuwied, Stadt","type":"Stadt"},"district":{"key":"07138","name":"Neuwied","type":"Landkreis"},"federalState":{"key":"07","name":"Rheinland-Pfalz"}},{"name":"Westpreußenstr.","postalCode":"56567","locality":"Neuwied","municipality":{"key":"07138045","name":"Neuwied, Stadt","type":"Stadt"},"district":{"key":"07138","name":"Neuwied","type":"Landkreis"},"federalState":{"key":"07","name":"Rheinland-Pfalz"}},{"name":"Wiechertweg","postalCode":"56566","locality":"Neuwied","municipality":{"key":"07138045","name":"Neuwied, Stadt","type":"Stadt"},"district":{"key":"07138","name":"Neuwied","type":"Landkreis"},"federalState":{"key":"07","name":"Rheinland-Pfalz"}},{"name":"Wiedbachstr.","postalCode":"56567","locality":"Neuwied","municipality":{"key":"07138045","name":"Neuwied, Stadt","type":"Stadt"},"district":{"key":"07138","name":"Neuwied","type":"Landkreis"},"federalState":{"key":"07","name":"Rheinland-Pfalz"}},{"name":"Wiedblick","postalCode":"56567","locality":"Neuwied","municipality":{"key":"07138045","name":"Neuwied, Stadt","type":"Stadt"},"district":{"key":"07138","name":"Neuwied","type":"Landkreis"},"federalState":{"key":"07","name":"Rheinland-Pfalz"}},{"name":"Wiedhöhenstr.","postalCode":"56567","locality":"Neuwied","municipality":{"key":"07138045","name":"Neuwied, Stadt","type":"Stadt"},"district":{"key":"07138","name":"Neuwied","type":"Landkreis"},"federalState":{"key":"07","name":"Rheinland-Pfalz"}},{"name":"Wiedpfad","postalCode":"56567","locality":"Neuwied","municipality":{"key":"07138045","name":"Neuwied, Stadt","type":"Stadt"},"district":{"key":"07138","name":"Neuwied","type":"Landkreis"},"federalState":{"key":"07","name":"Rheinland-Pfalz"}},{"name":"Wiedufer","postalCode":"56567","locality":"Neuwied","municipality":{"key":"07138045","name":"Neuwied, Stadt","type":"Stadt"},"district":{"key":"07138","name":"Neuwied","type":"Landkreis"},"federalState":{"key":"07","name":"Rheinland-Pfalz"}},{"name":"Wiesbadener Str.","postalCode":"56566","locality":"Neuwied","municipality":{"key":"07138045","name":"Neuwied, Stadt","type":"Stadt"},"district":{"key":"07138","name":"Neuwied","type":"Landkreis"},"federalState":{"key":"07","name":"Rheinland-Pfalz"}},{"name":"Wieselweg","postalCode":"56566","locality":"Neuwied","municipality":{"key":"07138045","name":"Neuwied, Stadt","type":"Stadt"},"district":{"key":"07138","name":"Neuwied","type":"Landkreis"},"federalState":{"key":"07","name":"Rheinland-Pfalz"}},{"name":"Wiesengärtenweg","postalCode":"56567","locality":"Neuwied","municipality":{"key":"07138045","name":"Neuwied, Stadt","type":"Stadt"},"district":{"key":"07138","name":"Neuwied","type":"Landkreis"},"federalState":{"key":"07","name":"Rheinland-Pfalz"}},{"name":"Wiesenstr.","postalCode":"56566","locality":"Neuwied","municipality":{"key":"07138045","name":"Neuwied, Stadt","type":"Stadt"},"district":{"key":"07138","name":"Neuwied","type":"Landkreis"},"federalState":{"key":"07","name":"Rheinland-Pfalz"}},{"name":"Wikingerstr.","postalCode":"56567","locality":"Neuwied","municipality":{"key":"07138045","name":"Neuwied, Stadt","type":"Stadt"},"district":{"key":"07138","name":"Neuwied","type":"Landkreis"},"federalState":{"key":"07","name":"Rheinland-Pfalz"}},{"name":"Wildkatzen, Dachs, Hörnchen","postalCode":"56566","locality":"Neuwied","municipality":{"key":"07138045","name":"Neuwied, Stadt","type":"Stadt"},"district":{"key":"07138","name":"Neuwied","type":"Landkreis"},"federalState":{"key":"07","name":"Rheinland-Pfalz"}},{"name":"Wilhelm-Busch-Str.","postalCode":"56567","locality":"Neuwied","municipality":{"key":"07138045","name":"Neuwied, Stadt","type":"Stadt"},"district":{"key":"07138","name":"Neuwied","type":"Landkreis"},"federalState":{"key":"07","name":"Rheinland-Pfalz"}},{"name":"Wilhelm-Hauff-Str.","postalCode":"56567","locality":"Neuwied","municipality":{"key":"07138045","name":"Neuwied, Stadt","type":"Stadt"},"district":{"key":"07138","name":"Neuwied","type":"Landkreis"},"federalState":{"key":"07","name":"Rheinland-Pfalz"}},{"name":"Wilhelm-Leuschner-Str.","postalCode":"56564","locality":"Neuwied","municipality":{"key":"07138045","name":"Neuwied, Stadt","type":"Stadt"},"district":{"key":"07138","name":"Neuwied","type":"Landkreis"},"federalState":{"key":"07","name":"Rheinland-Pfalz"}},{"name":"Wilhelm-Raabe-Str.","postalCode":"56567","locality":"Neuwied","municipality":{"key":"07138045","name":"Neuwied, Stadt","type":"Stadt"},"district":{"key":"07138","name":"Neuwied","type":"Landkreis"},"federalState":{"key":"07","name":"Rheinland-Pfalz"}},{"name":"Wilhelm-Schweizer-Str.","postalCode":"56564","locality":"Neuwied","municipality":{"key":"07138045","name":"Neuwied, Stadt","type":"Stadt"},"district":{"key":"07138","name":"Neuwied","type":"Landkreis"},"federalState":{"key":"07","name":"Rheinland-Pfalz"}},{"name":"Wilhelmstr.","postalCode":"56564","locality":"Neuwied","municipality":{"key":"07138045","name":"Neuwied, Stadt","type":"Stadt"},"district":{"key":"07138","name":"Neuwied","type":"Landkreis"},"federalState":{"key":"07","name":"Rheinland-Pfalz"}},{"name":"Willi-Brückner-Str.","postalCode":"56564","locality":"Neuwied","municipality":{"key":"07138045","name":"Neuwied, Stadt","type":"Stadt"},"district":{"key":"07138","name":"Neuwied","type":"Landkreis"},"federalState":{"key":"07","name":"Rheinland-Pfalz"}},{"name":"Willy-Brandt-Str.","postalCode":"56564","locality":"Neuwied","municipality":{"key":"07138045","name":"Neuwied, Stadt","type":"Stadt"},"district":{"key":"07138","name":"Neuwied","type":"Landkreis"},"federalState":{"key":"07","name":"Rheinland-Pfalz"}},{"name":"Windhauser Weg","postalCode":"56567","locality":"Neuwied","municipality":{"key":"07138045","name":"Neuwied, Stadt","type":"Stadt"},"district":{"key":"07138","name":"Neuwied","type":"Landkreis"},"federalState":{"key":"07","name":"Rheinland-Pfalz"}},{"name":"Windheuserpfad","postalCode":"56566","locality":"Neuwied","municipality":{"key":"07138045","name":"Neuwied, Stadt","type":"Stadt"},"district":{"key":"07138","name":"Neuwied","type":"Landkreis"},"federalState":{"key":"07","name":"Rheinland-Pfalz"}},{"name":"Wingertsbergstr.","postalCode":"56566","locality":"Neuwied","municipality":{"key":"07138045","name":"Neuwied, Stadt","type":"Stadt"},"district":{"key":"07138","name":"Neuwied","type":"Landkreis"},"federalState":{"key":"07","name":"Rheinland-Pfalz"}},{"name":"Wirtgenstr.","postalCode":"56564","locality":"Neuwied","municipality":{"key":"07138045","name":"Neuwied, Stadt","type":"Stadt"},"district":{"key":"07138","name":"Neuwied","type":"Landkreis"},"federalState":{"key":"07","name":"Rheinland-Pfalz"}},{"name":"Wölfe","postalCode":"56566","locality":"Neuwied","municipality":{"key":"07138045","name":"Neuwied, Stadt","type":"Stadt"},"district":{"key":"07138","name":"Neuwied","type":"Landkreis"},"federalState":{"key":"07","name":"Rheinland-Pfalz"}},{"name":"Zeilbäumerweg","postalCode":"56567","locality":"Neuwied","municipality":{"key":"07138045","name":"Neuwied, Stadt","type":"Stadt"},"district":{"key":"07138","name":"Neuwied","type":"Landkreis"},"federalState":{"key":"07","name":"Rheinland-Pfalz"}},{"name":"Zeisigpfad","postalCode":"56564","locality":"Neuwied","municipality":{"key":"07138045","name":"Neuwied, Stadt","type":"Stadt"},"district":{"key":"07138","name":"Neuwied","type":"Landkreis"},"federalState":{"key":"07","name":"Rheinland-Pfalz"}},{"name":"Zeppelinhof","postalCode":"56564","locality":"Neuwied","municipality":{"key":"07138045","name":"Neuwied, Stadt","type":"Stadt"},"district":{"key":"07138","name":"Neuwied","type":"Landkreis"},"federalState":{"key":"07","name":"Rheinland-Pfalz"}},{"name":"Zinzendorfstr.","postalCode":"56564","locality":"Neuwied","municipality":{"key":"07138045","name":"Neuwied, Stadt","type":"Stadt"},"district":{"key":"07138","name":"Neuwied","type":"Landkreis"},"federalState":{"key":"07","name":"Rheinland-Pfalz"}},{"name":"Zoppoter Str.","postalCode":"56566","locality":"Neuwied","municipality":{"key":"07138045","name":"Neuwied, Stadt","type":"Stadt"},"district":{"key":"07138","name":"Neuwied","type":"Landkreis"},"federalState":{"key":"07","name":"Rheinland-Pfalz"}},{"name":"Zu den Eichen","postalCode":"56567","locality":"Neuwied","municipality":{"key":"07138045","name":"Neuwied, Stadt","type":"Stadt"},"district":{"key":"07138","name":"Neuwied","type":"Landkreis"},"federalState":{"key":"07","name":"Rheinland-Pfalz"}},{"name":"Zum Aubachtal","postalCode":"56566","locality":"Neuwied","municipality":{"key":"07138045","name":"Neuwied, Stadt","type":"Stadt"},"district":{"key":"07138","name":"Neuwied","type":"Landkreis"},"federalState":{"key":"07","name":"Rheinland-Pfalz"}},{"name":"Zum Kuckucksberg","postalCode":"56567","locality":"Neuwied","municipality":{"key":"07138045","name":"Neuwied, Stadt","type":"Stadt"},"district":{"key":"07138","name":"Neuwied","type":"Landkreis"},"federalState":{"key":"07","name":"Rheinland-Pfalz"}},{"name":"Zum Stausee","postalCode":"56566","locality":"Neuwied","municipality":{"key":"07138045","name":"Neuwied, Stadt","type":"Stadt"},"district":{"key":"07138","name":"Neuwied","type":"Landkreis"},"federalState":{"key":"07","name":"Rheinland-Pfalz"}},{"name":"Über dem Aubach","postalCode":"56566","locality":"Neuwied","municipality":{"key":"07138045","name":"Neuwied, Stadt","type":"Stadt"},"district":{"key":"07138","name":"Neuwied","type":"Landkreis"},"federalState":{"key":"07","name":"Rheinland-Pfalz"}},]