[{"key":"10162234","name":"Allée du Château","postalCode":"1195","locality":"Dully","commune":{"key":"5855","name":"Dully","shortName":"Dully"},"district":{"key":"2228","name":"District de Nyon"},"canton":{"key":"22","code":"VD","name":"Vaud"},"status":"Real"},{"key":"10040679","name":"Chemin Champ-Soleil","postalCode":"1195","locality":"Dully","commune":{"key":"5855","name":"Dully","shortName":"Dully"},"district":{"key":"2228","name":"District de Nyon"},"canton":{"key":"22","code":"VD","name":"Vaud"},"status":"Real"},{"key":"10130381","name":"Chemin de la Dullive","postalCode":"1195","locality":"Dully","commune":{"key":"5855","name":"Dully","shortName":"Dully"},"district":{"key":"2228","name":"District de Nyon"},"canton":{"key":"22","code":"VD","name":"Vaud"},"status":"Real"},{"key":"10128708","name":"Chemin de la Rillette","postalCode":"1195","locality":"Dully","commune":{"key":"5855","name":"Dully","shortName":"Dully"},"district":{"key":"2228","name":"District de Nyon"},"canton":{"key":"22","code":"VD","name":"Vaud"},"status":"Real"},{"key":"10210107","name":"Chemin de Saint-Bonnet","postalCode":"1195","locality":"Dully","commune":{"key":"5855","name":"Dully","shortName":"Dully"},"district":{"key":"2228","name":"District de Nyon"},"canton":{"key":"22","code":"VD","name":"Vaud"},"status":"Real"},{"key":"10138327","name":"Chemin des Bugnons","postalCode":"1195","locality":"Dully","commune":{"key":"5855","name":"Dully","shortName":"Dully"},"district":{"key":"2228","name":"District de Nyon"},"canton":{"key":"22","code":"VD","name":"Vaud"},"status":"Real"},{"key":"10049907","name":"Chemin des Châtaigniers","postalCode":"1195","locality":"Dully","commune":{"key":"5855","name":"Dully","shortName":"Dully"},"district":{"key":"2228","name":"District de Nyon"},"canton":{"key":"22","code":"VD","name":"Vaud"},"status":"Real"},{"key":"10049909","name":"Chemin d'Es Combes","postalCode":"1195","locality":"Dully","commune":{"key":"5855","name":"Dully","shortName":"Dully"},"district":{"key":"2228","name":"District de Nyon"},"canton":{"key":"22","code":"VD","name":"Vaud"},"status":"Real"},{"key":"10138330","name":"Chemin des Gabions","postalCode":"1195","locality":"Dully","commune":{"key":"5855","name":"Dully","shortName":"Dully"},"district":{"key":"2228","name":"District de Nyon"},"canton":{"key":"22","code":"VD","name":"Vaud"},"status":"Real"},{"key":"10049910","name":"Chemin d'Es Grands-Champs","postalCode":"1195","locality":"Dully","commune":{"key":"5855","name":"Dully","shortName":"Dully"},"district":{"key":"2228","name":"District de Nyon"},"canton":{"key":"22","code":"VD","name":"Vaud"},"status":"Real"},{"key":"10138333","name":"Chemin des Magnolias","postalCode":"1195","locality":"Dully","commune":{"key":"5855","name":"Dully","shortName":"Dully"},"district":{"key":"2228","name":"District de Nyon"},"canton":{"key":"22","code":"VD","name":"Vaud"},"status":"Real"},{"key":"10107253","name":"Chemin d'Es Peccaudes","postalCode":"1195","locality":"Dully","commune":{"key":"5855","name":"Dully","shortName":"Dully"},"district":{"key":"2228","name":"District de Nyon"},"canton":{"key":"22","code":"VD","name":"Vaud"},"status":"Real"},{"key":"10138337","name":"Chemin des Vignes","postalCode":"1195","locality":"Dully","commune":{"key":"5855","name":"Dully","shortName":"Dully"},"district":{"key":"2228","name":"District de Nyon"},"canton":{"key":"22","code":"VD","name":"Vaud"},"status":"Real"},{"key":"10076376","name":"Chemin d'Es Vignettes","postalCode":"1195","locality":"Dully","commune":{"key":"5855","name":"Dully","shortName":"Dully"},"district":{"key":"2228","name":"District de Nyon"},"canton":{"key":"22","code":"VD","name":"Vaud"},"status":"Real"},{"key":"10138331","name":"Chemin du Lac","postalCode":"1195","locality":"Dully","commune":{"key":"5855","name":"Dully","shortName":"Dully"},"district":{"key":"2228","name":"District de Nyon"},"canton":{"key":"22","code":"VD","name":"Vaud"},"status":"Real"},{"key":"10112582","name":"Chemin Sous-les-Vignes","postalCode":"1195","locality":"Dully","commune":{"key":"5855","name":"Dully","shortName":"Dully"},"district":{"key":"2228","name":"District de Nyon"},"canton":{"key":"22","code":"VD","name":"Vaud"},"status":"Real"},{"key":"10040676","name":"Les Châtaigniers","postalCode":"1195","locality":"Dully","commune":{"key":"5855","name":"Dully","shortName":"Dully"},"district":{"key":"2228","name":"District de Nyon"},"canton":{"key":"22","code":"VD","name":"Vaud"},"status":"Real"},{"key":"10068737","name":"Les Vergers du Château","postalCode":"1195","locality":"Dully","commune":{"key":"5855","name":"Dully","shortName":"Dully"},"district":{"key":"2228","name":"District de Nyon"},"canton":{"key":"22","code":"VD","name":"Vaud"},"status":"Real"},{"key":"10107254","name":"Place du Village","postalCode":"1195","locality":"Dully","commune":{"key":"5855","name":"Dully","shortName":"Dully"},"district":{"key":"2228","name":"District de Nyon"},"canton":{"key":"22","code":"VD","name":"Vaud"},"status":"Real"},{"key":"10255397","name":"Raffaudex","postalCode":"1195","locality":"Dully","commune":{"key":"5855","name":"Dully","shortName":"Dully"},"district":{"key":"2228","name":"District de Nyon"},"canton":{"key":"22","code":"VD","name":"Vaud"},"status":"Real"},{"key":"10076377","name":"Route de Bursinel","postalCode":"1195","locality":"Dully","commune":{"key":"5855","name":"Dully","shortName":"Dully"},"district":{"key":"2228","name":"District de Nyon"},"canton":{"key":"22","code":"VD","name":"Vaud"},"status":"Real"},{"key":"10138334","name":"Route de l'Oche","postalCode":"1195","locality":"Dully","commune":{"key":"5855","name":"Dully","shortName":"Dully"},"district":{"key":"2228","name":"District de Nyon"},"canton":{"key":"22","code":"VD","name":"Vaud"},"status":"Real"},{"key":"10138332","name":"Route de Luins","postalCode":"1195","locality":"Dully","commune":{"key":"5855","name":"Dully","shortName":"Dully"},"district":{"key":"2228","name":"District de Nyon"},"canton":{"key":"22","code":"VD","name":"Vaud"},"status":"Real"},{"key":"10138329","name":"Route du Cugnet","postalCode":"1195","locality":"Dully","commune":{"key":"5855","name":"Dully","shortName":"Dully"},"district":{"key":"2228","name":"District de Nyon"},"canton":{"key":"22","code":"VD","name":"Vaud"},"status":"Real"},{"key":"10191685","name":"Route du Pralet","postalCode":"1195","locality":"Dully","commune":{"key":"5855","name":"Dully","shortName":"Dully"},"district":{"key":"2228","name":"District de Nyon"},"canton":{"key":"22","code":"VD","name":"Vaud"},"status":"Real"},{"key":"10138338","name":"Route du Village","postalCode":"1195","locality":"Dully","commune":{"key":"5855","name":"Dully","shortName":"Dully"},"district":{"key":"2228","name":"District de Nyon"},"canton":{"key":"22","code":"VD","name":"Vaud"},"status":"Real"},{"key":"10138336","name":"Saint-Bonnet","postalCode":"1195","locality":"Dully","commune":{"key":"5855","name":"Dully","shortName":"Dully"},"district":{"key":"2228","name":"District de Nyon"},"canton":{"key":"22","code":"VD","name":"Vaud"},"status":"Real"},]