[{"name":"Alemannenring","postalCode":"89437","locality":"Haunsheim","municipality":{"key":"09773137","name":"Haunsheim","type":"Kreisangehörige_Gemeinde"},"district":{"key":"09773","name":"Dillingen a.d.Donau","type":"Landkreis"},"federalState":{"key":"09","name":"Bayern"}},{"name":"Am Gabelacker","postalCode":"89437","locality":"Haunsheim","municipality":{"key":"09773137","name":"Haunsheim","type":"Kreisangehörige_Gemeinde"},"district":{"key":"09773","name":"Dillingen a.d.Donau","type":"Landkreis"},"federalState":{"key":"09","name":"Bayern"}},{"name":"Am Mühlstein","postalCode":"89437","locality":"Haunsheim","municipality":{"key":"09773137","name":"Haunsheim","type":"Kreisangehörige_Gemeinde"},"district":{"key":"09773","name":"Dillingen a.d.Donau","type":"Landkreis"},"federalState":{"key":"09","name":"Bayern"}},{"name":"Am Pfarrhof","postalCode":"89437","locality":"Haunsheim","municipality":{"key":"09773137","name":"Haunsheim","type":"Kreisangehörige_Gemeinde"},"district":{"key":"09773","name":"Dillingen a.d.Donau","type":"Landkreis"},"federalState":{"key":"09","name":"Bayern"}},{"name":"An der Schwärz","postalCode":"89437","locality":"Haunsheim","municipality":{"key":"09773137","name":"Haunsheim","type":"Kreisangehörige_Gemeinde"},"district":{"key":"09773","name":"Dillingen a.d.Donau","type":"Landkreis"},"federalState":{"key":"09","name":"Bayern"}},{"name":"An der Zwerg","postalCode":"89437","locality":"Haunsheim","municipality":{"key":"09773137","name":"Haunsheim","type":"Kreisangehörige_Gemeinde"},"district":{"key":"09773","name":"Dillingen a.d.Donau","type":"Landkreis"},"federalState":{"key":"09","name":"Bayern"}},{"name":"Anger","postalCode":"89437","locality":"Haunsheim","municipality":{"key":"09773137","name":"Haunsheim","type":"Kreisangehörige_Gemeinde"},"district":{"key":"09773","name":"Dillingen a.d.Donau","type":"Landkreis"},"federalState":{"key":"09","name":"Bayern"}},{"name":"Auf der Heide","postalCode":"89437","locality":"Haunsheim","municipality":{"key":"09773137","name":"Haunsheim","type":"Kreisangehörige_Gemeinde"},"district":{"key":"09773","name":"Dillingen a.d.Donau","type":"Landkreis"},"federalState":{"key":"09","name":"Bayern"}},{"name":"Auf der Schanz","postalCode":"89437","locality":"Haunsheim","municipality":{"key":"09773137","name":"Haunsheim","type":"Kreisangehörige_Gemeinde"},"district":{"key":"09773","name":"Dillingen a.d.Donau","type":"Landkreis"},"federalState":{"key":"09","name":"Bayern"}},{"name":"Bachstr.","postalCode":"89437","locality":"Haunsheim","municipality":{"key":"09773137","name":"Haunsheim","type":"Kreisangehörige_Gemeinde"},"district":{"key":"09773","name":"Dillingen a.d.Donau","type":"Landkreis"},"federalState":{"key":"09","name":"Bayern"}},{"name":"Bauerngasse","postalCode":"89437","locality":"Haunsheim","municipality":{"key":"09773137","name":"Haunsheim","type":"Kreisangehörige_Gemeinde"},"district":{"key":"09773","name":"Dillingen a.d.Donau","type":"Landkreis"},"federalState":{"key":"09","name":"Bayern"}},{"name":"Bergstr.","postalCode":"89437","locality":"Haunsheim","municipality":{"key":"09773137","name":"Haunsheim","type":"Kreisangehörige_Gemeinde"},"district":{"key":"09773","name":"Dillingen a.d.Donau","type":"Landkreis"},"federalState":{"key":"09","name":"Bayern"}},{"name":"Brühlstr.","postalCode":"89437","locality":"Haunsheim","municipality":{"key":"09773137","name":"Haunsheim","type":"Kreisangehörige_Gemeinde"},"district":{"key":"09773","name":"Dillingen a.d.Donau","type":"Landkreis"},"federalState":{"key":"09","name":"Bayern"}},{"name":"Bürgermeister-Schmid-Str.","postalCode":"89437","locality":"Haunsheim","municipality":{"key":"09773137","name":"Haunsheim","type":"Kreisangehörige_Gemeinde"},"district":{"key":"09773","name":"Dillingen a.d.Donau","type":"Landkreis"},"federalState":{"key":"09","name":"Bayern"}},{"name":"Canisiusstr.","postalCode":"89407","locality":"Dillingen a.d.Donau","municipality":{"key":"09773125","name":"Dillingen a.d.Donau, GKSt","type":"Große_Kreisstadt"},"district":{"key":"09773","name":"Dillingen a.d.Donau","type":"Landkreis"},"federalState":{"key":"09","name":"Bayern"}},{"name":"Carl-Benz-Str.","postalCode":"89407","locality":"Dillingen a.d.Donau","municipality":{"key":"09773125","name":"Dillingen a.d.Donau, GKSt","type":"Große_Kreisstadt"},"district":{"key":"09773","name":"Dillingen a.d.Donau","type":"Landkreis"},"federalState":{"key":"09","name":"Bayern"}},{"name":"Christastr.","postalCode":"89407","locality":"Dillingen a.d.Donau","municipality":{"key":"09773125","name":"Dillingen a.d.Donau, GKSt","type":"Große_Kreisstadt"},"district":{"key":"09773","name":"Dillingen a.d.Donau","type":"Landkreis"},"federalState":{"key":"09","name":"Bayern"}},{"name":"Christgartenstr.","postalCode":"89407","locality":"Dillingen a.d.Donau","municipality":{"key":"09773125","name":"Dillingen a.d.Donau, GKSt","type":"Große_Kreisstadt"},"district":{"key":"09773","name":"Dillingen a.d.Donau","type":"Landkreis"},"federalState":{"key":"09","name":"Bayern"}},{"name":"Christoph-von-Schmid-Str.","postalCode":"89407","locality":"Dillingen a.d.Donau","municipality":{"key":"09773125","name":"Dillingen a.d.Donau, GKSt","type":"Große_Kreisstadt"},"district":{"key":"09773","name":"Dillingen a.d.Donau","type":"Landkreis"},"federalState":{"key":"09","name":"Bayern"}},{"name":"Danziger Str.","postalCode":"89407","locality":"Dillingen a.d.Donau","municipality":{"key":"09773125","name":"Dillingen a.d.Donau, GKSt","type":"Große_Kreisstadt"},"district":{"key":"09773","name":"Dillingen a.d.Donau","type":"Landkreis"},"federalState":{"key":"09","name":"Bayern"}},{"name":"Deisenhofener Str.","postalCode":"89407","locality":"Dillingen a.d.Donau","municipality":{"key":"09773125","name":"Dillingen a.d.Donau, GKSt","type":"Große_Kreisstadt"},"district":{"key":"09773","name":"Dillingen a.d.Donau","type":"Landkreis"},"federalState":{"key":"09","name":"Bayern"}},{"name":"Deisenhofer Str.","postalCode":"89407","locality":"Dillingen a.d.Donau","municipality":{"key":"09773125","name":"Dillingen a.d.Donau, GKSt","type":"Große_Kreisstadt"},"district":{"key":"09773","name":"Dillingen a.d.Donau","type":"Landkreis"},"federalState":{"key":"09","name":"Bayern"}},{"name":"Demleitnerstr.","postalCode":"89407","locality":"Dillingen a.d.Donau","municipality":{"key":"09773125","name":"Dillingen a.d.Donau, GKSt","type":"Große_Kreisstadt"},"district":{"key":"09773","name":"Dillingen a.d.Donau","type":"Landkreis"},"federalState":{"key":"09","name":"Bayern"}},{"name":"Deuringerstr.","postalCode":"89407","locality":"Dillingen a.d.Donau","municipality":{"key":"09773125","name":"Dillingen a.d.Donau, GKSt","type":"Große_Kreisstadt"},"district":{"key":"09773","name":"Dillingen a.d.Donau","type":"Landkreis"},"federalState":{"key":"09","name":"Bayern"}},{"name":"Dietpaldstr.","postalCode":"89407","locality":"Dillingen a.d.Donau","municipality":{"key":"09773125","name":"Dillingen a.d.Donau, GKSt","type":"Große_Kreisstadt"},"district":{"key":"09773","name":"Dillingen a.d.Donau","type":"Landkreis"},"federalState":{"key":"09","name":"Bayern"}},{"name":"Dietrich-Bonhoeffer-Weg","postalCode":"89407","locality":"Dillingen a.d.Donau","municipality":{"key":"09773125","name":"Dillingen a.d.Donau, GKSt","type":"Große_Kreisstadt"},"district":{"key":"09773","name":"Dillingen a.d.Donau","type":"Landkreis"},"federalState":{"key":"09","name":"Bayern"}},{"name":"Dillinger Str.","postalCode":"89407","locality":"Dillingen a.d.Donau","municipality":{"key":"09773125","name":"Dillingen a.d.Donau, GKSt","type":"Große_Kreisstadt"},"district":{"key":"09773","name":"Dillingen a.d.Donau","type":"Landkreis"},"federalState":{"key":"09","name":"Bayern"}},{"name":"Doktor-Barbara-Renz-Weg","postalCode":"89407","locality":"Dillingen a.d.Donau","municipality":{"key":"09773125","name":"Dillingen a.d.Donau, GKSt","type":"Große_Kreisstadt"},"district":{"key":"09773","name":"Dillingen a.d.Donau","type":"Landkreis"},"federalState":{"key":"09","name":"Bayern"}},{"name":"Donauradweg","postalCode":"89407","locality":"Dillingen a.d.Donau","municipality":{"key":"09773125","name":"Dillingen a.d.Donau, GKSt","type":"Große_Kreisstadt"},"district":{"key":"09773","name":"Dillingen a.d.Donau","type":"Landkreis"},"federalState":{"key":"09","name":"Bayern"}},{"name":"Donaustr.","postalCode":"89407","locality":"Dillingen a.d.Donau","municipality":{"key":"09773125","name":"Dillingen a.d.Donau, GKSt","type":"Große_Kreisstadt"},"district":{"key":"09773","name":"Dillingen a.d.Donau","type":"Landkreis"},"federalState":{"key":"09","name":"Bayern"}},{"name":"Donauwörther Str.","postalCode":"89407","locality":"Dillingen a.d.Donau","municipality":{"key":"09773125","name":"Dillingen a.d.Donau, GKSt","type":"Große_Kreisstadt"},"district":{"key":"09773","name":"Dillingen a.d.Donau","type":"Landkreis"},"federalState":{"key":"09","name":"Bayern"}},{"name":"Donnersbergstr.","postalCode":"89407","locality":"Dillingen a.d.Donau","municipality":{"key":"09773125","name":"Dillingen a.d.Donau, GKSt","type":"Große_Kreisstadt"},"district":{"key":"09773","name":"Dillingen a.d.Donau","type":"Landkreis"},"federalState":{"key":"09","name":"Bayern"}},{"name":"Dorfplatz","postalCode":"89407","locality":"Dillingen a.d.Donau","municipality":{"key":"09773125","name":"Dillingen a.d.Donau, GKSt","type":"Große_Kreisstadt"},"district":{"key":"09773","name":"Dillingen a.d.Donau","type":"Landkreis"},"federalState":{"key":"09","name":"Bayern"}},{"name":"Dr.-Franz-Schuster-Str.","postalCode":"89407","locality":"Dillingen a.d.Donau","municipality":{"key":"09773125","name":"Dillingen a.d.Donau, GKSt","type":"Große_Kreisstadt"},"district":{"key":"09773","name":"Dillingen a.d.Donau","type":"Landkreis"},"federalState":{"key":"09","name":"Bayern"}},{"name":"Egaustr.","postalCode":"89407","locality":"Dillingen a.d.Donau","municipality":{"key":"09773125","name":"Dillingen a.d.Donau, GKSt","type":"Große_Kreisstadt"},"district":{"key":"09773","name":"Dillingen a.d.Donau","type":"Landkreis"},"federalState":{"key":"09","name":"Bayern"}},{"name":"Egerländer Str.","postalCode":"89407","locality":"Dillingen a.d.Donau","municipality":{"key":"09773125","name":"Dillingen a.d.Donau, GKSt","type":"Große_Kreisstadt"},"district":{"key":"09773","name":"Dillingen a.d.Donau","type":"Landkreis"},"federalState":{"key":"09","name":"Bayern"}},{"name":"Eibenweg","postalCode":"89407","locality":"Dillingen a.d.Donau","municipality":{"key":"09773125","name":"Dillingen a.d.Donau, GKSt","type":"Große_Kreisstadt"},"district":{"key":"09773","name":"Dillingen a.d.Donau","type":"Landkreis"},"federalState":{"key":"09","name":"Bayern"}},{"name":"Eichendorffstr.","postalCode":"89407","locality":"Dillingen a.d.Donau","municipality":{"key":"09773125","name":"Dillingen a.d.Donau, GKSt","type":"Große_Kreisstadt"},"district":{"key":"09773","name":"Dillingen a.d.Donau","type":"Landkreis"},"federalState":{"key":"09","name":"Bayern"}},{"name":"Eichenweg","postalCode":"89407","locality":"Dillingen a.d.Donau","municipality":{"key":"09773125","name":"Dillingen a.d.Donau, GKSt","type":"Große_Kreisstadt"},"district":{"key":"09773","name":"Dillingen a.d.Donau","type":"Landkreis"},"federalState":{"key":"09","name":"Bayern"}},{"name":"Eichwaldweg","postalCode":"89407","locality":"Dillingen a.d.Donau","municipality":{"key":"09773125","name":"Dillingen a.d.Donau, GKSt","type":"Große_Kreisstadt"},"district":{"key":"09773","name":"Dillingen a.d.Donau","type":"Landkreis"},"federalState":{"key":"09","name":"Bayern"}},{"name":"Einsteinstr.","postalCode":"89407","locality":"Dillingen a.d.Donau","municipality":{"key":"09773125","name":"Dillingen a.d.Donau, GKSt","type":"Große_Kreisstadt"},"district":{"key":"09773","name":"Dillingen a.d.Donau","type":"Landkreis"},"federalState":{"key":"09","name":"Bayern"}},{"name":"Eisengrabenweg","postalCode":"89407","locality":"Dillingen a.d.Donau","municipality":{"key":"09773125","name":"Dillingen a.d.Donau, GKSt","type":"Große_Kreisstadt"},"district":{"key":"09773","name":"Dillingen a.d.Donau","type":"Landkreis"},"federalState":{"key":"09","name":"Bayern"}},{"name":"Ellenhartstr.","postalCode":"89407","locality":"Dillingen a.d.Donau","municipality":{"key":"09773125","name":"Dillingen a.d.Donau, GKSt","type":"Große_Kreisstadt"},"district":{"key":"09773","name":"Dillingen a.d.Donau","type":"Landkreis"},"federalState":{"key":"09","name":"Bayern"}},{"name":"Entengasse","postalCode":"89407","locality":"Dillingen a.d.Donau","municipality":{"key":"09773125","name":"Dillingen a.d.Donau, GKSt","type":"Große_Kreisstadt"},"district":{"key":"09773","name":"Dillingen a.d.Donau","type":"Landkreis"},"federalState":{"key":"09","name":"Bayern"}},{"name":"Erlenweg","postalCode":"89407","locality":"Dillingen a.d.Donau","municipality":{"key":"09773125","name":"Dillingen a.d.Donau, GKSt","type":"Große_Kreisstadt"},"district":{"key":"09773","name":"Dillingen a.d.Donau","type":"Landkreis"},"federalState":{"key":"09","name":"Bayern"}},{"name":"Ernst-Kreuzer-Weg","postalCode":"89407","locality":"Dillingen a.d.Donau","municipality":{"key":"09773125","name":"Dillingen a.d.Donau, GKSt","type":"Große_Kreisstadt"},"district":{"key":"09773","name":"Dillingen a.d.Donau","type":"Landkreis"},"federalState":{"key":"09","name":"Bayern"}},{"name":"Erzbischof-Stimpfle-Str.","postalCode":"89407","locality":"Dillingen a.d.Donau","municipality":{"key":"09773125","name":"Dillingen a.d.Donau, GKSt","type":"Große_Kreisstadt"},"district":{"key":"09773","name":"Dillingen a.d.Donau","type":"Landkreis"},"federalState":{"key":"09","name":"Bayern"}},{"name":"Eschenweg","postalCode":"89407","locality":"Dillingen a.d.Donau","municipality":{"key":"09773125","name":"Dillingen a.d.Donau, GKSt","type":"Große_Kreisstadt"},"district":{"key":"09773","name":"Dillingen a.d.Donau","type":"Landkreis"},"federalState":{"key":"09","name":"Bayern"}},{"name":"Frauenriedhauser Str.","postalCode":"89437","locality":"Haunsheim","municipality":{"key":"09773137","name":"Haunsheim","type":"Kreisangehörige_Gemeinde"},"district":{"key":"09773","name":"Dillingen a.d.Donau","type":"Landkreis"},"federalState":{"key":"09","name":"Bayern"}},{"name":"Frühlingsstr.","postalCode":"89437","locality":"Haunsheim","municipality":{"key":"09773137","name":"Haunsheim","type":"Kreisangehörige_Gemeinde"},"district":{"key":"09773","name":"Dillingen a.d.Donau","type":"Landkreis"},"federalState":{"key":"09","name":"Bayern"}},{"name":"Gängle","postalCode":"89437","locality":"Haunsheim","municipality":{"key":"09773137","name":"Haunsheim","type":"Kreisangehörige_Gemeinde"},"district":{"key":"09773","name":"Dillingen a.d.Donau","type":"Landkreis"},"federalState":{"key":"09","name":"Bayern"}},{"name":"Gartenstr.","postalCode":"89437","locality":"Haunsheim","municipality":{"key":"09773137","name":"Haunsheim","type":"Kreisangehörige_Gemeinde"},"district":{"key":"09773","name":"Dillingen a.d.Donau","type":"Landkreis"},"federalState":{"key":"09","name":"Bayern"}},{"name":"Geizkoflerstr.","postalCode":"89437","locality":"Haunsheim","municipality":{"key":"09773137","name":"Haunsheim","type":"Kreisangehörige_Gemeinde"},"district":{"key":"09773","name":"Dillingen a.d.Donau","type":"Landkreis"},"federalState":{"key":"09","name":"Bayern"}},{"name":"Gundelfinger Weg","postalCode":"89437","locality":"Haunsheim","municipality":{"key":"09773137","name":"Haunsheim","type":"Kreisangehörige_Gemeinde"},"district":{"key":"09773","name":"Dillingen a.d.Donau","type":"Landkreis"},"federalState":{"key":"09","name":"Bayern"}},{"name":"Haldeweg","postalCode":"89437","locality":"Haunsheim","municipality":{"key":"09773137","name":"Haunsheim","type":"Kreisangehörige_Gemeinde"},"district":{"key":"09773","name":"Dillingen a.d.Donau","type":"Landkreis"},"federalState":{"key":"09","name":"Bayern"}},{"name":"Haunsheimer Weg","postalCode":"89437","locality":"Haunsheim","municipality":{"key":"09773137","name":"Haunsheim","type":"Kreisangehörige_Gemeinde"},"district":{"key":"09773","name":"Dillingen a.d.Donau","type":"Landkreis"},"federalState":{"key":"09","name":"Bayern"}},{"name":"Hauptstr.","postalCode":"89437","locality":"Haunsheim","municipality":{"key":"09773137","name":"Haunsheim","type":"Kreisangehörige_Gemeinde"},"district":{"key":"09773","name":"Dillingen a.d.Donau","type":"Landkreis"},"federalState":{"key":"09","name":"Bayern"}},{"name":"Heidestr.","postalCode":"89437","locality":"Haunsheim","municipality":{"key":"09773137","name":"Haunsheim","type":"Kreisangehörige_Gemeinde"},"district":{"key":"09773","name":"Dillingen a.d.Donau","type":"Landkreis"},"federalState":{"key":"09","name":"Bayern"}},{"name":"Hopfenstr.","postalCode":"89437","locality":"Haunsheim","municipality":{"key":"09773137","name":"Haunsheim","type":"Kreisangehörige_Gemeinde"},"district":{"key":"09773","name":"Dillingen a.d.Donau","type":"Landkreis"},"federalState":{"key":"09","name":"Bayern"}},{"name":"Im Brühl","postalCode":"89437","locality":"Haunsheim","municipality":{"key":"09773137","name":"Haunsheim","type":"Kreisangehörige_Gemeinde"},"district":{"key":"09773","name":"Dillingen a.d.Donau","type":"Landkreis"},"federalState":{"key":"09","name":"Bayern"}},{"name":"Juraweg","postalCode":"89437","locality":"Haunsheim","municipality":{"key":"09773137","name":"Haunsheim","type":"Kreisangehörige_Gemeinde"},"district":{"key":"09773","name":"Dillingen a.d.Donau","type":"Landkreis"},"federalState":{"key":"09","name":"Bayern"}},{"name":"Kapellenstr.","postalCode":"89437","locality":"Haunsheim","municipality":{"key":"09773137","name":"Haunsheim","type":"Kreisangehörige_Gemeinde"},"district":{"key":"09773","name":"Dillingen a.d.Donau","type":"Landkreis"},"federalState":{"key":"09","name":"Bayern"}},{"name":"Kellerstr.","postalCode":"89437","locality":"Haunsheim","municipality":{"key":"09773137","name":"Haunsheim","type":"Kreisangehörige_Gemeinde"},"district":{"key":"09773","name":"Dillingen a.d.Donau","type":"Landkreis"},"federalState":{"key":"09","name":"Bayern"}},{"name":"Keltenring","postalCode":"89437","locality":"Haunsheim","municipality":{"key":"09773137","name":"Haunsheim","type":"Kreisangehörige_Gemeinde"},"district":{"key":"09773","name":"Dillingen a.d.Donau","type":"Landkreis"},"federalState":{"key":"09","name":"Bayern"}},{"name":"Kiesweg","postalCode":"89437","locality":"Haunsheim","municipality":{"key":"09773137","name":"Haunsheim","type":"Kreisangehörige_Gemeinde"},"district":{"key":"09773","name":"Dillingen a.d.Donau","type":"Landkreis"},"federalState":{"key":"09","name":"Bayern"}},{"name":"Kirchplatz","postalCode":"89437","locality":"Haunsheim","municipality":{"key":"09773137","name":"Haunsheim","type":"Kreisangehörige_Gemeinde"},"district":{"key":"09773","name":"Dillingen a.d.Donau","type":"Landkreis"},"federalState":{"key":"09","name":"Bayern"}},{"name":"Klausenberg","postalCode":"89437","locality":"Haunsheim","municipality":{"key":"09773137","name":"Haunsheim","type":"Kreisangehörige_Gemeinde"},"district":{"key":"09773","name":"Dillingen a.d.Donau","type":"Landkreis"},"federalState":{"key":"09","name":"Bayern"}},{"name":"Krautgartenweg","postalCode":"89437","locality":"Haunsheim","municipality":{"key":"09773137","name":"Haunsheim","type":"Kreisangehörige_Gemeinde"},"district":{"key":"09773","name":"Dillingen a.d.Donau","type":"Landkreis"},"federalState":{"key":"09","name":"Bayern"}},{"name":"Lindenstr.","postalCode":"89437","locality":"Haunsheim","municipality":{"key":"09773137","name":"Haunsheim","type":"Kreisangehörige_Gemeinde"},"district":{"key":"09773","name":"Dillingen a.d.Donau","type":"Landkreis"},"federalState":{"key":"09","name":"Bayern"}},{"name":"Metzgergässle","postalCode":"89437","locality":"Haunsheim","municipality":{"key":"09773137","name":"Haunsheim","type":"Kreisangehörige_Gemeinde"},"district":{"key":"09773","name":"Dillingen a.d.Donau","type":"Landkreis"},"federalState":{"key":"09","name":"Bayern"}},{"name":"Mittelstr.","postalCode":"89437","locality":"Haunsheim","municipality":{"key":"09773137","name":"Haunsheim","type":"Kreisangehörige_Gemeinde"},"district":{"key":"09773","name":"Dillingen a.d.Donau","type":"Landkreis"},"federalState":{"key":"09","name":"Bayern"}},{"name":"Nachtweide","postalCode":"89407","locality":"Dillingen a.d.Donau","municipality":{"key":"09773125","name":"Dillingen a.d.Donau, GKSt","type":"Große_Kreisstadt"},"district":{"key":"09773","name":"Dillingen a.d.Donau","type":"Landkreis"},"federalState":{"key":"09","name":"Bayern"}},{"name":"Nachtweideweg","postalCode":"89407","locality":"Dillingen a.d.Donau","municipality":{"key":"09773125","name":"Dillingen a.d.Donau, GKSt","type":"Große_Kreisstadt"},"district":{"key":"09773","name":"Dillingen a.d.Donau","type":"Landkreis"},"federalState":{"key":"09","name":"Bayern"}},{"name":"Nelly-Sachs-Weg","postalCode":"89407","locality":"Dillingen a.d.Donau","municipality":{"key":"09773125","name":"Dillingen a.d.Donau, GKSt","type":"Große_Kreisstadt"},"district":{"key":"09773","name":"Dillingen a.d.Donau","type":"Landkreis"},"federalState":{"key":"09","name":"Bayern"}},{"name":"Neresheimer Str.","postalCode":"89407","locality":"Dillingen a.d.Donau","municipality":{"key":"09773125","name":"Dillingen a.d.Donau, GKSt","type":"Große_Kreisstadt"},"district":{"key":"09773","name":"Dillingen a.d.Donau","type":"Landkreis"},"federalState":{"key":"09","name":"Bayern"}},{"name":"Ortsstr.","postalCode":"89437","locality":"Haunsheim","municipality":{"key":"09773137","name":"Haunsheim","type":"Kreisangehörige_Gemeinde"},"district":{"key":"09773","name":"Dillingen a.d.Donau","type":"Landkreis"},"federalState":{"key":"09","name":"Bayern"}},{"name":"Ostendstr.","postalCode":"89437","locality":"Haunsheim","municipality":{"key":"09773137","name":"Haunsheim","type":"Kreisangehörige_Gemeinde"},"district":{"key":"09773","name":"Dillingen a.d.Donau","type":"Landkreis"},"federalState":{"key":"09","name":"Bayern"}},{"name":"Pfarrstr.","postalCode":"89437","locality":"Haunsheim","municipality":{"key":"09773137","name":"Haunsheim","type":"Kreisangehörige_Gemeinde"},"district":{"key":"09773","name":"Dillingen a.d.Donau","type":"Landkreis"},"federalState":{"key":"09","name":"Bayern"}},{"name":"Quellenweg","postalCode":"89437","locality":"Haunsheim","municipality":{"key":"09773137","name":"Haunsheim","type":"Kreisangehörige_Gemeinde"},"district":{"key":"09773","name":"Dillingen a.d.Donau","type":"Landkreis"},"federalState":{"key":"09","name":"Bayern"}},{"name":"Raiffeisenstr.","postalCode":"89437","locality":"Haunsheim","municipality":{"key":"09773137","name":"Haunsheim","type":"Kreisangehörige_Gemeinde"},"district":{"key":"09773","name":"Dillingen a.d.Donau","type":"Landkreis"},"federalState":{"key":"09","name":"Bayern"}},{"name":"Ringeisenstr.","postalCode":"89437","locality":"Haunsheim","municipality":{"key":"09773137","name":"Haunsheim","type":"Kreisangehörige_Gemeinde"},"district":{"key":"09773","name":"Dillingen a.d.Donau","type":"Landkreis"},"federalState":{"key":"09","name":"Bayern"}},{"name":"Sachsenhauser Str.","postalCode":"89437","locality":"Haunsheim","municipality":{"key":"09773137","name":"Haunsheim","type":"Kreisangehörige_Gemeinde"},"district":{"key":"09773","name":"Dillingen a.d.Donau","type":"Landkreis"},"federalState":{"key":"09","name":"Bayern"}},{"name":"Schlossäcker","postalCode":"89437","locality":"Haunsheim","municipality":{"key":"09773137","name":"Haunsheim","type":"Kreisangehörige_Gemeinde"},"district":{"key":"09773","name":"Dillingen a.d.Donau","type":"Landkreis"},"federalState":{"key":"09","name":"Bayern"}},{"name":"Schloßstr.","postalCode":"89437","locality":"Haunsheim","municipality":{"key":"09773137","name":"Haunsheim","type":"Kreisangehörige_Gemeinde"},"district":{"key":"09773","name":"Dillingen a.d.Donau","type":"Landkreis"},"federalState":{"key":"09","name":"Bayern"}},{"name":"Schulstr.","postalCode":"89437","locality":"Haunsheim","municipality":{"key":"09773137","name":"Haunsheim","type":"Kreisangehörige_Gemeinde"},"district":{"key":"09773","name":"Dillingen a.d.Donau","type":"Landkreis"},"federalState":{"key":"09","name":"Bayern"}},{"name":"Siedlerstr.","postalCode":"89437","locality":"Haunsheim","municipality":{"key":"09773137","name":"Haunsheim","type":"Kreisangehörige_Gemeinde"},"district":{"key":"09773","name":"Dillingen a.d.Donau","type":"Landkreis"},"federalState":{"key":"09","name":"Bayern"}},{"name":"St.-Georg-Str.","postalCode":"89437","locality":"Haunsheim","municipality":{"key":"09773137","name":"Haunsheim","type":"Kreisangehörige_Gemeinde"},"district":{"key":"09773","name":"Dillingen a.d.Donau","type":"Landkreis"},"federalState":{"key":"09","name":"Bayern"}},{"name":"Talstr.","postalCode":"89437","locality":"Haunsheim","municipality":{"key":"09773137","name":"Haunsheim","type":"Kreisangehörige_Gemeinde"},"district":{"key":"09773","name":"Dillingen a.d.Donau","type":"Landkreis"},"federalState":{"key":"09","name":"Bayern"}},{"name":"Ulrichstr.","postalCode":"89437","locality":"Haunsheim","municipality":{"key":"09773137","name":"Haunsheim","type":"Kreisangehörige_Gemeinde"},"district":{"key":"09773","name":"Dillingen a.d.Donau","type":"Landkreis"},"federalState":{"key":"09","name":"Bayern"}},{"name":"Vogteistr.","postalCode":"89407","locality":"Dillingen a.d.Donau","municipality":{"key":"09773125","name":"Dillingen a.d.Donau, GKSt","type":"Große_Kreisstadt"},"district":{"key":"09773","name":"Dillingen a.d.Donau","type":"Landkreis"},"federalState":{"key":"09","name":"Bayern"}},{"name":"Vorstadtstr.","postalCode":"89407","locality":"Dillingen a.d.Donau","municipality":{"key":"09773125","name":"Dillingen a.d.Donau, GKSt","type":"Große_Kreisstadt"},"district":{"key":"09773","name":"Dillingen a.d.Donau","type":"Landkreis"},"federalState":{"key":"09","name":"Bayern"}},{"name":"Weinberg","postalCode":"89437","locality":"Haunsheim","municipality":{"key":"09773137","name":"Haunsheim","type":"Kreisangehörige_Gemeinde"},"district":{"key":"09773","name":"Dillingen a.d.Donau","type":"Landkreis"},"federalState":{"key":"09","name":"Bayern"}},{"name":"Wellenstr.","postalCode":"89437","locality":"Haunsheim","municipality":{"key":"09773137","name":"Haunsheim","type":"Kreisangehörige_Gemeinde"},"district":{"key":"09773","name":"Dillingen a.d.Donau","type":"Landkreis"},"federalState":{"key":"09","name":"Bayern"}},{"name":"Westendstr.","postalCode":"89437","locality":"Haunsheim","municipality":{"key":"09773137","name":"Haunsheim","type":"Kreisangehörige_Gemeinde"},"district":{"key":"09773","name":"Dillingen a.d.Donau","type":"Landkreis"},"federalState":{"key":"09","name":"Bayern"}},{"name":"Wittislinger Str.","postalCode":"89437","locality":"Haunsheim","municipality":{"key":"09773137","name":"Haunsheim","type":"Kreisangehörige_Gemeinde"},"district":{"key":"09773","name":"Dillingen a.d.Donau","type":"Landkreis"},"federalState":{"key":"09","name":"Bayern"}},{"name":"Ziegelstr.","postalCode":"89407","locality":"Dillingen a.d.Donau","municipality":{"key":"09773125","name":"Dillingen a.d.Donau, GKSt","type":"Große_Kreisstadt"},"district":{"key":"09773","name":"Dillingen a.d.Donau","type":"Landkreis"},"federalState":{"key":"09","name":"Bayern"}},{"name":"Zollstr.","postalCode":"89407","locality":"Dillingen a.d.Donau","municipality":{"key":"09773125","name":"Dillingen a.d.Donau, GKSt","type":"Große_Kreisstadt"},"district":{"key":"09773","name":"Dillingen a.d.Donau","type":"Landkreis"},"federalState":{"key":"09","name":"Bayern"}},{"name":"Zuger Weg","postalCode":"89407","locality":"Dillingen a.d.Donau","municipality":{"key":"09773125","name":"Dillingen a.d.Donau, GKSt","type":"Große_Kreisstadt"},"district":{"key":"09773","name":"Dillingen a.d.Donau","type":"Landkreis"},"federalState":{"key":"09","name":"Bayern"}},{"name":"Zum Kreuzacker","postalCode":"89407","locality":"Dillingen a.d.Donau","municipality":{"key":"09773125","name":"Dillingen a.d.Donau, GKSt","type":"Große_Kreisstadt"},"district":{"key":"09773","name":"Dillingen a.d.Donau","type":"Landkreis"},"federalState":{"key":"09","name":"Bayern"}},{"name":"Zunhammerweg","postalCode":"89407","locality":"Dillingen a.d.Donau","municipality":{"key":"09773125","name":"Dillingen a.d.Donau, GKSt","type":"Große_Kreisstadt"},"district":{"key":"09773","name":"Dillingen a.d.Donau","type":"Landkreis"},"federalState":{"key":"09","name":"Bayern"}},{"name":"Zwergbachstr.","postalCode":"89407","locality":"Dillingen a.d.Donau","municipality":{"key":"09773125","name":"Dillingen a.d.Donau, GKSt","type":"Große_Kreisstadt"},"district":{"key":"09773","name":"Dillingen a.d.Donau","type":"Landkreis"},"federalState":{"key":"09","name":"Bayern"}},{"name":"Zwergstr.","postalCode":"89407","locality":"Dillingen a.d.Donau","municipality":{"key":"09773125","name":"Dillingen a.d.Donau, GKSt","type":"Große_Kreisstadt"},"district":{"key":"09773","name":"Dillingen a.d.Donau","type":"Landkreis"},"federalState":{"key":"09","name":"Bayern"}},{"name":"Ölberggasse","postalCode":"89407","locality":"Dillingen a.d.Donau","municipality":{"key":"09773125","name":"Dillingen a.d.Donau, GKSt","type":"Große_Kreisstadt"},"district":{"key":"09773","name":"Dillingen a.d.Donau","type":"Landkreis"},"federalState":{"key":"09","name":"Bayern"}},{"name":"Überaschungsweg (Sackgasse)","postalCode":"89407","locality":"Dillingen a.d.Donau","municipality":{"key":"09773125","name":"Dillingen a.d.Donau, GKSt","type":"Große_Kreisstadt"},"district":{"key":"09773","name":"Dillingen a.d.Donau","type":"Landkreis"},"federalState":{"key":"09","name":"Bayern"}},]