[{"name":"Aalweg","postalCode":"16515","locality":"Oranienburg","municipality":{"key":"12065256","name":"Oranienburg, Stadt","type":"Stadt"},"district":{"key":"12065","name":"Oberhavel","type":"Landkreis"},"federalState":{"key":"12","name":"Brandenburg"}},{"name":"Aderluch","postalCode":"16515","locality":"Oranienburg","municipality":{"key":"12065256","name":"Oranienburg, Stadt","type":"Stadt"},"district":{"key":"12065","name":"Oberhavel","type":"Landkreis"},"federalState":{"key":"12","name":"Brandenburg"}},{"name":"Adlerweg","postalCode":"16515","locality":"Oranienburg","municipality":{"key":"12065256","name":"Oranienburg, Stadt","type":"Stadt"},"district":{"key":"12065","name":"Oberhavel","type":"Landkreis"},"federalState":{"key":"12","name":"Brandenburg"}},{"name":"Adolf-Damaschke-Str.","postalCode":"16515","locality":"Oranienburg","municipality":{"key":"12065256","name":"Oranienburg, Stadt","type":"Stadt"},"district":{"key":"12065","name":"Oberhavel","type":"Landkreis"},"federalState":{"key":"12","name":"Brandenburg"}},{"name":"Adolf-Dechert-Str.","postalCode":"16515","locality":"Oranienburg","municipality":{"key":"12065256","name":"Oranienburg, Stadt","type":"Stadt"},"district":{"key":"12065","name":"Oberhavel","type":"Landkreis"},"federalState":{"key":"12","name":"Brandenburg"}},{"name":"Adolf-Mertens-Str.","postalCode":"16515","locality":"Oranienburg","municipality":{"key":"12065256","name":"Oranienburg, Stadt","type":"Stadt"},"district":{"key":"12065","name":"Oberhavel","type":"Landkreis"},"federalState":{"key":"12","name":"Brandenburg"}},{"name":"Agnetenstr.","postalCode":"16515","locality":"Oranienburg","municipality":{"key":"12065256","name":"Oranienburg, Stadt","type":"Stadt"},"district":{"key":"12065","name":"Oberhavel","type":"Landkreis"},"federalState":{"key":"12","name":"Brandenburg"}},{"name":"Ahornsteig","postalCode":"16515","locality":"Oranienburg","municipality":{"key":"12065256","name":"Oranienburg, Stadt","type":"Stadt"},"district":{"key":"12065","name":"Oberhavel","type":"Landkreis"},"federalState":{"key":"12","name":"Brandenburg"}},{"name":"Ahornweg","postalCode":"16515","locality":"Oranienburg","municipality":{"key":"12065256","name":"Oranienburg, Stadt","type":"Stadt"},"district":{"key":"12065","name":"Oberhavel","type":"Landkreis"},"federalState":{"key":"12","name":"Brandenburg"}},{"name":"Albert-Buchmann-Str.","postalCode":"16515","locality":"Oranienburg","municipality":{"key":"12065256","name":"Oranienburg, Stadt","type":"Stadt"},"district":{"key":"12065","name":"Oberhavel","type":"Landkreis"},"federalState":{"key":"12","name":"Brandenburg"}},{"name":"Allerstr.","postalCode":"16515","locality":"Oranienburg","municipality":{"key":"12065256","name":"Oranienburg, Stadt","type":"Stadt"},"district":{"key":"12065","name":"Oberhavel","type":"Landkreis"},"federalState":{"key":"12","name":"Brandenburg"}},{"name":"Alte Dorfstr.","postalCode":"16515","locality":"Oranienburg","municipality":{"key":"12065256","name":"Oranienburg, Stadt","type":"Stadt"},"district":{"key":"12065","name":"Oberhavel","type":"Landkreis"},"federalState":{"key":"12","name":"Brandenburg"}},{"name":"Altenburger Str.","postalCode":"16515","locality":"Oranienburg","municipality":{"key":"12065256","name":"Oranienburg, Stadt","type":"Stadt"},"district":{"key":"12065","name":"Oberhavel","type":"Landkreis"},"federalState":{"key":"12","name":"Brandenburg"}},{"name":"Alte Poststr.","postalCode":"16515","locality":"Oranienburg","municipality":{"key":"12065256","name":"Oranienburg, Stadt","type":"Stadt"},"district":{"key":"12065","name":"Oberhavel","type":"Landkreis"},"federalState":{"key":"12","name":"Brandenburg"}},{"name":"Alter Kiefernweg","postalCode":"16515","locality":"Oranienburg","municipality":{"key":"12065256","name":"Oranienburg, Stadt","type":"Stadt"},"district":{"key":"12065","name":"Oberhavel","type":"Landkreis"},"federalState":{"key":"12","name":"Brandenburg"}},{"name":"Amalienhof","postalCode":"16515","locality":"Oranienburg","municipality":{"key":"12065256","name":"Oranienburg, Stadt","type":"Stadt"},"district":{"key":"12065","name":"Oberhavel","type":"Landkreis"},"federalState":{"key":"12","name":"Brandenburg"}},{"name":"Am alten Bahnhof","postalCode":"16515","locality":"Oranienburg","municipality":{"key":"12065256","name":"Oranienburg, Stadt","type":"Stadt"},"district":{"key":"12065","name":"Oberhavel","type":"Landkreis"},"federalState":{"key":"12","name":"Brandenburg"}},{"name":"Am Anger","postalCode":"16515","locality":"Oranienburg","municipality":{"key":"12065256","name":"Oranienburg, Stadt","type":"Stadt"},"district":{"key":"12065","name":"Oberhavel","type":"Landkreis"},"federalState":{"key":"12","name":"Brandenburg"}},{"name":"Am Apfelbaum","postalCode":"16515","locality":"Oranienburg","municipality":{"key":"12065256","name":"Oranienburg, Stadt","type":"Stadt"},"district":{"key":"12065","name":"Oberhavel","type":"Landkreis"},"federalState":{"key":"12","name":"Brandenburg"}},{"name":"Ambachweg","postalCode":"16515","locality":"Oranienburg","municipality":{"key":"12065256","name":"Oranienburg, Stadt","type":"Stadt"},"district":{"key":"12065","name":"Oberhavel","type":"Landkreis"},"federalState":{"key":"12","name":"Brandenburg"}},{"name":"Am Bahndamm","postalCode":"16515","locality":"Oranienburg","municipality":{"key":"12065256","name":"Oranienburg, Stadt","type":"Stadt"},"district":{"key":"12065","name":"Oberhavel","type":"Landkreis"},"federalState":{"key":"12","name":"Brandenburg"}},{"name":"Am Biotop","postalCode":"16515","locality":"Oranienburg","municipality":{"key":"12065256","name":"Oranienburg, Stadt","type":"Stadt"},"district":{"key":"12065","name":"Oberhavel","type":"Landkreis"},"federalState":{"key":"12","name":"Brandenburg"}},{"name":"Am Bootshafen","postalCode":"16515","locality":"Oranienburg","municipality":{"key":"12065256","name":"Oranienburg, Stadt","type":"Stadt"},"district":{"key":"12065","name":"Oberhavel","type":"Landkreis"},"federalState":{"key":"12","name":"Brandenburg"}},{"name":"Am Bötzower Stadtgraben","postalCode":"16515","locality":"Oranienburg","municipality":{"key":"12065256","name":"Oranienburg, Stadt","type":"Stadt"},"district":{"key":"12065","name":"Oberhavel","type":"Landkreis"},"federalState":{"key":"12","name":"Brandenburg"}},{"name":"Am Dorfanger","postalCode":"16515","locality":"Oranienburg","municipality":{"key":"12065256","name":"Oranienburg, Stadt","type":"Stadt"},"district":{"key":"12065","name":"Oberhavel","type":"Landkreis"},"federalState":{"key":"12","name":"Brandenburg"}},{"name":"Am Feldrain","postalCode":"16515","locality":"Oranienburg","municipality":{"key":"12065256","name":"Oranienburg, Stadt","type":"Stadt"},"district":{"key":"12065","name":"Oberhavel","type":"Landkreis"},"federalState":{"key":"12","name":"Brandenburg"}},{"name":"Am Flöhnberg","postalCode":"16515","locality":"Oranienburg","municipality":{"key":"12065256","name":"Oranienburg, Stadt","type":"Stadt"},"district":{"key":"12065","name":"Oberhavel","type":"Landkreis"},"federalState":{"key":"12","name":"Brandenburg"}},{"name":"Am Forst","postalCode":"16515","locality":"Oranienburg","municipality":{"key":"12065256","name":"Oranienburg, Stadt","type":"Stadt"},"district":{"key":"12065","name":"Oberhavel","type":"Landkreis"},"federalState":{"key":"12","name":"Brandenburg"}},{"name":"Am Gleis","postalCode":"16515","locality":"Oranienburg","municipality":{"key":"12065256","name":"Oranienburg, Stadt","type":"Stadt"},"district":{"key":"12065","name":"Oberhavel","type":"Landkreis"},"federalState":{"key":"12","name":"Brandenburg"}},{"name":"Am Hag","postalCode":"16515","locality":"Oranienburg","municipality":{"key":"12065256","name":"Oranienburg, Stadt","type":"Stadt"},"district":{"key":"12065","name":"Oberhavel","type":"Landkreis"},"federalState":{"key":"12","name":"Brandenburg"}},{"name":"Am Havelbogen","postalCode":"16515","locality":"Oranienburg","municipality":{"key":"12065256","name":"Oranienburg, Stadt","type":"Stadt"},"district":{"key":"12065","name":"Oberhavel","type":"Landkreis"},"federalState":{"key":"12","name":"Brandenburg"}},{"name":"Am Heidering","postalCode":"16515","locality":"Oranienburg","municipality":{"key":"12065256","name":"Oranienburg, Stadt","type":"Stadt"},"district":{"key":"12065","name":"Oberhavel","type":"Landkreis"},"federalState":{"key":"12","name":"Brandenburg"}},{"name":"Am Kanal","postalCode":"16515","locality":"Oranienburg","municipality":{"key":"12065256","name":"Oranienburg, Stadt","type":"Stadt"},"district":{"key":"12065","name":"Oberhavel","type":"Landkreis"},"federalState":{"key":"12","name":"Brandenburg"}},{"name":"Am Kanalufer","postalCode":"16515","locality":"Oranienburg","municipality":{"key":"12065256","name":"Oranienburg, Stadt","type":"Stadt"},"district":{"key":"12065","name":"Oberhavel","type":"Landkreis"},"federalState":{"key":"12","name":"Brandenburg"}},{"name":"Am Keil","postalCode":"16515","locality":"Oranienburg","municipality":{"key":"12065256","name":"Oranienburg, Stadt","type":"Stadt"},"district":{"key":"12065","name":"Oberhavel","type":"Landkreis"},"federalState":{"key":"12","name":"Brandenburg"}},{"name":"Am Klinkerhafen","postalCode":"16515","locality":"Oranienburg","municipality":{"key":"12065256","name":"Oranienburg, Stadt","type":"Stadt"},"district":{"key":"12065","name":"Oberhavel","type":"Landkreis"},"federalState":{"key":"12","name":"Brandenburg"}},{"name":"Am Malzer Kanal","postalCode":"16515","locality":"Oranienburg","municipality":{"key":"12065256","name":"Oranienburg, Stadt","type":"Stadt"},"district":{"key":"12065","name":"Oberhavel","type":"Landkreis"},"federalState":{"key":"12","name":"Brandenburg"}},{"name":"Am Park","postalCode":"16515","locality":"Oranienburg","municipality":{"key":"12065256","name":"Oranienburg, Stadt","type":"Stadt"},"district":{"key":"12065","name":"Oberhavel","type":"Landkreis"},"federalState":{"key":"12","name":"Brandenburg"}},{"name":"Am Postberg","postalCode":"16515","locality":"Oranienburg","municipality":{"key":"12065256","name":"Oranienburg, Stadt","type":"Stadt"},"district":{"key":"12065","name":"Oberhavel","type":"Landkreis"},"federalState":{"key":"12","name":"Brandenburg"}},{"name":"Am Ring","postalCode":"16515","locality":"Oranienburg","municipality":{"key":"12065256","name":"Oranienburg, Stadt","type":"Stadt"},"district":{"key":"12065","name":"Oberhavel","type":"Landkreis"},"federalState":{"key":"12","name":"Brandenburg"}},{"name":"Am Schifffahrtsweg","postalCode":"16515","locality":"Oranienburg","municipality":{"key":"12065256","name":"Oranienburg, Stadt","type":"Stadt"},"district":{"key":"12065","name":"Oberhavel","type":"Landkreis"},"federalState":{"key":"12","name":"Brandenburg"}},{"name":"Am Schloßhafen","postalCode":"16515","locality":"Oranienburg","municipality":{"key":"12065256","name":"Oranienburg, Stadt","type":"Stadt"},"district":{"key":"12065","name":"Oberhavel","type":"Landkreis"},"federalState":{"key":"12","name":"Brandenburg"}},{"name":"Amselgasse","postalCode":"16515","locality":"Oranienburg","municipality":{"key":"12065256","name":"Oranienburg, Stadt","type":"Stadt"},"district":{"key":"12065","name":"Oberhavel","type":"Landkreis"},"federalState":{"key":"12","name":"Brandenburg"}},{"name":"Amselgrund","postalCode":"16515","locality":"Oranienburg","municipality":{"key":"12065256","name":"Oranienburg, Stadt","type":"Stadt"},"district":{"key":"12065","name":"Oberhavel","type":"Landkreis"},"federalState":{"key":"12","name":"Brandenburg"}},{"name":"Amselstr.","postalCode":"16515","locality":"Oranienburg","municipality":{"key":"12065256","name":"Oranienburg, Stadt","type":"Stadt"},"district":{"key":"12065","name":"Oberhavel","type":"Landkreis"},"federalState":{"key":"12","name":"Brandenburg"}},{"name":"Amselweg","postalCode":"16515","locality":"Oranienburg","municipality":{"key":"12065256","name":"Oranienburg, Stadt","type":"Stadt"},"district":{"key":"12065","name":"Oberhavel","type":"Landkreis"},"federalState":{"key":"12","name":"Brandenburg"}},{"name":"Am Strom","postalCode":"16515","locality":"Oranienburg","municipality":{"key":"12065256","name":"Oranienburg, Stadt","type":"Stadt"},"district":{"key":"12065","name":"Oberhavel","type":"Landkreis"},"federalState":{"key":"12","name":"Brandenburg"}},{"name":"Am Wald","postalCode":"16515","locality":"Oranienburg","municipality":{"key":"12065256","name":"Oranienburg, Stadt","type":"Stadt"},"district":{"key":"12065","name":"Oberhavel","type":"Landkreis"},"federalState":{"key":"12","name":"Brandenburg"}},{"name":"Am Wiesengrund","postalCode":"16515","locality":"Oranienburg","municipality":{"key":"12065256","name":"Oranienburg, Stadt","type":"Stadt"},"district":{"key":"12065","name":"Oberhavel","type":"Landkreis"},"federalState":{"key":"12","name":"Brandenburg"}},{"name":"Am Wolfsbusch","postalCode":"16515","locality":"Oranienburg","municipality":{"key":"12065256","name":"Oranienburg, Stadt","type":"Stadt"},"district":{"key":"12065","name":"Oberhavel","type":"Landkreis"},"federalState":{"key":"12","name":"Brandenburg"}},{"name":"Bachstelzenweg","postalCode":"16515","locality":"Oranienburg","municipality":{"key":"12065256","name":"Oranienburg, Stadt","type":"Stadt"},"district":{"key":"12065","name":"Oberhavel","type":"Landkreis"},"federalState":{"key":"12","name":"Brandenburg"}},{"name":"Bachstelzenwiese","postalCode":"16515","locality":"Oranienburg","municipality":{"key":"12065256","name":"Oranienburg, Stadt","type":"Stadt"},"district":{"key":"12065","name":"Oberhavel","type":"Landkreis"},"federalState":{"key":"12","name":"Brandenburg"}},{"name":"Bachstr.","postalCode":"16515","locality":"Oranienburg","municipality":{"key":"12065256","name":"Oranienburg, Stadt","type":"Stadt"},"district":{"key":"12065","name":"Oberhavel","type":"Landkreis"},"federalState":{"key":"12","name":"Brandenburg"}},{"name":"Badeweg","postalCode":"16515","locality":"Oranienburg","municipality":{"key":"12065256","name":"Oranienburg, Stadt","type":"Stadt"},"district":{"key":"12065","name":"Oberhavel","type":"Landkreis"},"federalState":{"key":"12","name":"Brandenburg"}},{"name":"Badstr.","postalCode":"16515","locality":"Oranienburg","municipality":{"key":"12065256","name":"Oranienburg, Stadt","type":"Stadt"},"district":{"key":"12065","name":"Oberhavel","type":"Landkreis"},"federalState":{"key":"12","name":"Brandenburg"}},{"name":"Bagnoletstr.","postalCode":"16515","locality":"Oranienburg","municipality":{"key":"12065256","name":"Oranienburg, Stadt","type":"Stadt"},"district":{"key":"12065","name":"Oberhavel","type":"Landkreis"},"federalState":{"key":"12","name":"Brandenburg"}},{"name":"Bahnhofstr.","postalCode":"16515","locality":"Oranienburg","municipality":{"key":"12065256","name":"Oranienburg, Stadt","type":"Stadt"},"district":{"key":"12065","name":"Oberhavel","type":"Landkreis"},"federalState":{"key":"12","name":"Brandenburg"}},{"name":"Bäkeweg","postalCode":"16515","locality":"Oranienburg","municipality":{"key":"12065256","name":"Oranienburg, Stadt","type":"Stadt"},"district":{"key":"12065","name":"Oberhavel","type":"Landkreis"},"federalState":{"key":"12","name":"Brandenburg"}},{"name":"Baltzerweg","postalCode":"16515","locality":"Oranienburg","municipality":{"key":"12065256","name":"Oranienburg, Stadt","type":"Stadt"},"district":{"key":"12065","name":"Oberhavel","type":"Landkreis"},"federalState":{"key":"12","name":"Brandenburg"}},{"name":"Bärenklauer Weg","postalCode":"16515","locality":"Oranienburg","municipality":{"key":"12065256","name":"Oranienburg, Stadt","type":"Stadt"},"district":{"key":"12065","name":"Oberhavel","type":"Landkreis"},"federalState":{"key":"12","name":"Brandenburg"}},{"name":"Bauernmarktchaussee","postalCode":"16515","locality":"Oranienburg","municipality":{"key":"12065256","name":"Oranienburg, Stadt","type":"Stadt"},"district":{"key":"12065","name":"Oberhavel","type":"Landkreis"},"federalState":{"key":"12","name":"Brandenburg"}},{"name":"Beethovenstr.","postalCode":"16515","locality":"Oranienburg","municipality":{"key":"12065256","name":"Oranienburg, Stadt","type":"Stadt"},"district":{"key":"12065","name":"Oberhavel","type":"Landkreis"},"federalState":{"key":"12","name":"Brandenburg"}},{"name":"Behringstr.","postalCode":"16515","locality":"Oranienburg","municipality":{"key":"12065256","name":"Oranienburg, Stadt","type":"Stadt"},"district":{"key":"12065","name":"Oberhavel","type":"Landkreis"},"federalState":{"key":"12","name":"Brandenburg"}},{"name":"Bergstr.","postalCode":"16515","locality":"Oranienburg","municipality":{"key":"12065256","name":"Oranienburg, Stadt","type":"Stadt"},"district":{"key":"12065","name":"Oberhavel","type":"Landkreis"},"federalState":{"key":"12","name":"Brandenburg"}},{"name":"Berliner Str.","postalCode":"16515","locality":"Oranienburg","municipality":{"key":"12065256","name":"Oranienburg, Stadt","type":"Stadt"},"district":{"key":"12065","name":"Oberhavel","type":"Landkreis"},"federalState":{"key":"12","name":"Brandenburg"}},{"name":"Berliner Weg","postalCode":"16515","locality":"Oranienburg","municipality":{"key":"12065256","name":"Oranienburg, Stadt","type":"Stadt"},"district":{"key":"12065","name":"Oberhavel","type":"Landkreis"},"federalState":{"key":"12","name":"Brandenburg"}},{"name":"Bernauer Str.","postalCode":"16515","locality":"Oranienburg","municipality":{"key":"12065256","name":"Oranienburg, Stadt","type":"Stadt"},"district":{"key":"12065","name":"Oberhavel","type":"Landkreis"},"federalState":{"key":"12","name":"Brandenburg"}},{"name":"Bernöwer Dorfstr.","postalCode":"16515","locality":"Oranienburg","municipality":{"key":"12065256","name":"Oranienburg, Stadt","type":"Stadt"},"district":{"key":"12065","name":"Oberhavel","type":"Landkreis"},"federalState":{"key":"12","name":"Brandenburg"}},{"name":"Bernöwer Str.","postalCode":"16515","locality":"Oranienburg","municipality":{"key":"12065256","name":"Oranienburg, Stadt","type":"Stadt"},"district":{"key":"12065","name":"Oberhavel","type":"Landkreis"},"federalState":{"key":"12","name":"Brandenburg"}},{"name":"Bertha-von-Suttner-Str.","postalCode":"16515","locality":"Oranienburg","municipality":{"key":"12065256","name":"Oranienburg, Stadt","type":"Stadt"},"district":{"key":"12065","name":"Oberhavel","type":"Landkreis"},"federalState":{"key":"12","name":"Brandenburg"}},{"name":"Bettina-von-Arnim-Str.","postalCode":"16515","locality":"Oranienburg","municipality":{"key":"12065256","name":"Oranienburg, Stadt","type":"Stadt"},"district":{"key":"12065","name":"Oberhavel","type":"Landkreis"},"federalState":{"key":"12","name":"Brandenburg"}},{"name":"Beuthnerweg","postalCode":"16515","locality":"Oranienburg","municipality":{"key":"12065256","name":"Oranienburg, Stadt","type":"Stadt"},"district":{"key":"12065","name":"Oberhavel","type":"Landkreis"},"federalState":{"key":"12","name":"Brandenburg"}},{"name":"Biberweg","postalCode":"16515","locality":"Oranienburg","municipality":{"key":"12065256","name":"Oranienburg, Stadt","type":"Stadt"},"district":{"key":"12065","name":"Oberhavel","type":"Landkreis"},"federalState":{"key":"12","name":"Brandenburg"}},{"name":"Billrothstr.","postalCode":"16515","locality":"Oranienburg","municipality":{"key":"12065256","name":"Oranienburg, Stadt","type":"Stadt"},"district":{"key":"12065","name":"Oberhavel","type":"Landkreis"},"federalState":{"key":"12","name":"Brandenburg"}},{"name":"Birkenallee","postalCode":"16515","locality":"Oranienburg","municipality":{"key":"12065256","name":"Oranienburg, Stadt","type":"Stadt"},"district":{"key":"12065","name":"Oberhavel","type":"Landkreis"},"federalState":{"key":"12","name":"Brandenburg"}},{"name":"Birkenchaussee","postalCode":"16515","locality":"Oranienburg","municipality":{"key":"12065256","name":"Oranienburg, Stadt","type":"Stadt"},"district":{"key":"12065","name":"Oberhavel","type":"Landkreis"},"federalState":{"key":"12","name":"Brandenburg"}},{"name":"Birkengrund","postalCode":"16515","locality":"Oranienburg","municipality":{"key":"12065256","name":"Oranienburg, Stadt","type":"Stadt"},"district":{"key":"12065","name":"Oberhavel","type":"Landkreis"},"federalState":{"key":"12","name":"Brandenburg"}},{"name":"Birkenpilzweg","postalCode":"16515","locality":"Oranienburg","municipality":{"key":"12065256","name":"Oranienburg, Stadt","type":"Stadt"},"district":{"key":"12065","name":"Oberhavel","type":"Landkreis"},"federalState":{"key":"12","name":"Brandenburg"}},{"name":"Birkenstr.","postalCode":"16515","locality":"Oranienburg","municipality":{"key":"12065256","name":"Oranienburg, Stadt","type":"Stadt"},"district":{"key":"12065","name":"Oberhavel","type":"Landkreis"},"federalState":{"key":"12","name":"Brandenburg"}},{"name":"Birkenwäldchen","postalCode":"16515","locality":"Oranienburg","municipality":{"key":"12065256","name":"Oranienburg, Stadt","type":"Stadt"},"district":{"key":"12065","name":"Oberhavel","type":"Landkreis"},"federalState":{"key":"12","name":"Brandenburg"}},{"name":"Birkenweg","postalCode":"16515","locality":"Oranienburg","municipality":{"key":"12065256","name":"Oranienburg, Stadt","type":"Stadt"},"district":{"key":"12065","name":"Oberhavel","type":"Landkreis"},"federalState":{"key":"12","name":"Brandenburg"}},{"name":"Birkenwerderweg","postalCode":"16515","locality":"Oranienburg","municipality":{"key":"12065256","name":"Oranienburg, Stadt","type":"Stadt"},"district":{"key":"12065","name":"Oberhavel","type":"Landkreis"},"federalState":{"key":"12","name":"Brandenburg"}},{"name":"Bisamweg","postalCode":"16515","locality":"Oranienburg","municipality":{"key":"12065256","name":"Oranienburg, Stadt","type":"Stadt"},"district":{"key":"12065","name":"Oberhavel","type":"Landkreis"},"federalState":{"key":"12","name":"Brandenburg"}},{"name":"Blankenburger Str.","postalCode":"16515","locality":"Oranienburg","municipality":{"key":"12065256","name":"Oranienburg, Stadt","type":"Stadt"},"district":{"key":"12065","name":"Oberhavel","type":"Landkreis"},"federalState":{"key":"12","name":"Brandenburg"}},{"name":"Blaues Wunder","postalCode":"16515","locality":"Oranienburg","municipality":{"key":"12065256","name":"Oranienburg, Stadt","type":"Stadt"},"district":{"key":"12065","name":"Oberhavel","type":"Landkreis"},"federalState":{"key":"12","name":"Brandenburg"}},{"name":"Blumenweg","postalCode":"16515","locality":"Oranienburg","municipality":{"key":"12065256","name":"Oranienburg, Stadt","type":"Stadt"},"district":{"key":"12065","name":"Oberhavel","type":"Landkreis"},"federalState":{"key":"12","name":"Brandenburg"}},{"name":"Blutgasse","postalCode":"16515","locality":"Oranienburg","municipality":{"key":"12065256","name":"Oranienburg, Stadt","type":"Stadt"},"district":{"key":"12065","name":"Oberhavel","type":"Landkreis"},"federalState":{"key":"12","name":"Brandenburg"}},{"name":"Boberstr.","postalCode":"16515","locality":"Oranienburg","municipality":{"key":"12065256","name":"Oranienburg, Stadt","type":"Stadt"},"district":{"key":"12065","name":"Oberhavel","type":"Landkreis"},"federalState":{"key":"12","name":"Brandenburg"}},{"name":"Bodestr.","postalCode":"16515","locality":"Oranienburg","municipality":{"key":"12065256","name":"Oranienburg, Stadt","type":"Stadt"},"district":{"key":"12065","name":"Oberhavel","type":"Landkreis"},"federalState":{"key":"12","name":"Brandenburg"}},{"name":"Bonner Str.","postalCode":"16515","locality":"Oranienburg","municipality":{"key":"12065256","name":"Oranienburg, Stadt","type":"Stadt"},"district":{"key":"12065","name":"Oberhavel","type":"Landkreis"},"federalState":{"key":"12","name":"Brandenburg"}},{"name":"Bötzower Platz","postalCode":"16515","locality":"Oranienburg","municipality":{"key":"12065256","name":"Oranienburg, Stadt","type":"Stadt"},"district":{"key":"12065","name":"Oberhavel","type":"Landkreis"},"federalState":{"key":"12","name":"Brandenburg"}},{"name":"Bötzower Stadtgraben","postalCode":"16515","locality":"Oranienburg","municipality":{"key":"12065256","name":"Oranienburg, Stadt","type":"Stadt"},"district":{"key":"12065","name":"Oberhavel","type":"Landkreis"},"federalState":{"key":"12","name":"Brandenburg"}},{"name":"Bötzower Weg","postalCode":"16515","locality":"Oranienburg","municipality":{"key":"12065256","name":"Oranienburg, Stadt","type":"Stadt"},"district":{"key":"12065","name":"Oberhavel","type":"Landkreis"},"federalState":{"key":"12","name":"Brandenburg"}},{"name":"Brahmsstr.","postalCode":"16515","locality":"Oranienburg","municipality":{"key":"12065256","name":"Oranienburg, Stadt","type":"Stadt"},"district":{"key":"12065","name":"Oberhavel","type":"Landkreis"},"federalState":{"key":"12","name":"Brandenburg"}},{"name":"Breite Str.","postalCode":"16515","locality":"Oranienburg","municipality":{"key":"12065256","name":"Oranienburg, Stadt","type":"Stadt"},"district":{"key":"12065","name":"Oberhavel","type":"Landkreis"},"federalState":{"key":"12","name":"Brandenburg"}},{"name":"Breitscheidstr.","postalCode":"16515","locality":"Oranienburg","municipality":{"key":"12065256","name":"Oranienburg, Stadt","type":"Stadt"},"district":{"key":"12065","name":"Oberhavel","type":"Landkreis"},"federalState":{"key":"12","name":"Brandenburg"}},{"name":"Brieseweg","postalCode":"16515","locality":"Oranienburg","municipality":{"key":"12065256","name":"Oranienburg, Stadt","type":"Stadt"},"district":{"key":"12065","name":"Oberhavel","type":"Landkreis"},"federalState":{"key":"12","name":"Brandenburg"}},{"name":"Brücke am Alten Krug","postalCode":"16515","locality":"Oranienburg","municipality":{"key":"12065256","name":"Oranienburg, Stadt","type":"Stadt"},"district":{"key":"12065","name":"Oberhavel","type":"Landkreis"},"federalState":{"key":"12","name":"Brandenburg"}},{"name":"Brücke am Elsenbusch","postalCode":"16515","locality":"Oranienburg","municipality":{"key":"12065256","name":"Oranienburg, Stadt","type":"Stadt"},"district":{"key":"12065","name":"Oberhavel","type":"Landkreis"},"federalState":{"key":"12","name":"Brandenburg"}},{"name":"Brucknerstr.","postalCode":"16515","locality":"Oranienburg","municipality":{"key":"12065256","name":"Oranienburg, Stadt","type":"Stadt"},"district":{"key":"12065","name":"Oberhavel","type":"Landkreis"},"federalState":{"key":"12","name":"Brandenburg"}},{"name":"Carl-Gustav-Hempel-Str.","postalCode":"16515","locality":"Oranienburg","municipality":{"key":"12065256","name":"Oranienburg, Stadt","type":"Stadt"},"district":{"key":"12065","name":"Oberhavel","type":"Landkreis"},"federalState":{"key":"12","name":"Brandenburg"}},{"name":"Chausseestr.","postalCode":"16515","locality":"Oranienburg","municipality":{"key":"12065256","name":"Oranienburg, Stadt","type":"Stadt"},"district":{"key":"12065","name":"Oberhavel","type":"Landkreis"},"federalState":{"key":"12","name":"Brandenburg"}},{"name":"Chopinstr.","postalCode":"16515","locality":"Oranienburg","municipality":{"key":"12065256","name":"Oranienburg, Stadt","type":"Stadt"},"district":{"key":"12065","name":"Oberhavel","type":"Landkreis"},"federalState":{"key":"12","name":"Brandenburg"}},{"name":"Clara-Zetkin-Str.","postalCode":"16515","locality":"Oranienburg","municipality":{"key":"12065256","name":"Oranienburg, Stadt","type":"Stadt"},"district":{"key":"12065","name":"Oberhavel","type":"Landkreis"},"federalState":{"key":"12","name":"Brandenburg"}},{"name":"Cranachstr.","postalCode":"16515","locality":"Oranienburg","municipality":{"key":"12065256","name":"Oranienburg, Stadt","type":"Stadt"},"district":{"key":"12065","name":"Oberhavel","type":"Landkreis"},"federalState":{"key":"12","name":"Brandenburg"}},{"name":"Dachsstr.","postalCode":"16515","locality":"Oranienburg","municipality":{"key":"12065256","name":"Oranienburg, Stadt","type":"Stadt"},"district":{"key":"12065","name":"Oberhavel","type":"Landkreis"},"federalState":{"key":"12","name":"Brandenburg"}},{"name":"Dachsweg","postalCode":"16515","locality":"Oranienburg","municipality":{"key":"12065256","name":"Oranienburg, Stadt","type":"Stadt"},"district":{"key":"12065","name":"Oberhavel","type":"Landkreis"},"federalState":{"key":"12","name":"Brandenburg"}},{"name":"Dahlienweg","postalCode":"16515","locality":"Oranienburg","municipality":{"key":"12065256","name":"Oranienburg, Stadt","type":"Stadt"},"district":{"key":"12065","name":"Oberhavel","type":"Landkreis"},"federalState":{"key":"12","name":"Brandenburg"}},{"name":"Dahmestr.","postalCode":"16515","locality":"Oranienburg","municipality":{"key":"12065256","name":"Oranienburg, Stadt","type":"Stadt"},"district":{"key":"12065","name":"Oberhavel","type":"Landkreis"},"federalState":{"key":"12","name":"Brandenburg"}},{"name":"Dameswalder Weg","postalCode":"16515","locality":"Oranienburg","municipality":{"key":"12065256","name":"Oranienburg, Stadt","type":"Stadt"},"district":{"key":"12065","name":"Oberhavel","type":"Landkreis"},"federalState":{"key":"12","name":"Brandenburg"}},{"name":"Der Heuweg","postalCode":"16515","locality":"Oranienburg","municipality":{"key":"12065256","name":"Oranienburg, Stadt","type":"Stadt"},"district":{"key":"12065","name":"Oberhavel","type":"Landkreis"},"federalState":{"key":"12","name":"Brandenburg"}},{"name":"Dianastr.","postalCode":"16515","locality":"Oranienburg","municipality":{"key":"12065256","name":"Oranienburg, Stadt","type":"Stadt"},"district":{"key":"12065","name":"Oberhavel","type":"Landkreis"},"federalState":{"key":"12","name":"Brandenburg"}},{"name":"Dimitroffstr.","postalCode":"16515","locality":"Oranienburg","municipality":{"key":"12065256","name":"Oranienburg, Stadt","type":"Stadt"},"district":{"key":"12065","name":"Oberhavel","type":"Landkreis"},"federalState":{"key":"12","name":"Brandenburg"}},{"name":"Donaustr.","postalCode":"16515","locality":"Oranienburg","municipality":{"key":"12065256","name":"Oranienburg, Stadt","type":"Stadt"},"district":{"key":"12065","name":"Oberhavel","type":"Landkreis"},"federalState":{"key":"12","name":"Brandenburg"}},{"name":"Dorfplatz","postalCode":"16515","locality":"Oranienburg","municipality":{"key":"12065256","name":"Oranienburg, Stadt","type":"Stadt"},"district":{"key":"12065","name":"Oberhavel","type":"Landkreis"},"federalState":{"key":"12","name":"Brandenburg"}},{"name":"Dr.-Heinrich-Byk-Str.","postalCode":"16515","locality":"Oranienburg","municipality":{"key":"12065256","name":"Oranienburg, Stadt","type":"Stadt"},"district":{"key":"12065","name":"Oberhavel","type":"Landkreis"},"federalState":{"key":"12","name":"Brandenburg"}},{"name":"Dr.-Kurt-Scharf-Str.","postalCode":"16515","locality":"Oranienburg","municipality":{"key":"12065256","name":"Oranienburg, Stadt","type":"Stadt"},"district":{"key":"12065","name":"Oberhavel","type":"Landkreis"},"federalState":{"key":"12","name":"Brandenburg"}},{"name":"Dr.-Kurt-Schumacher-Str.","postalCode":"16515","locality":"Oranienburg","municipality":{"key":"12065256","name":"Oranienburg, Stadt","type":"Stadt"},"district":{"key":"12065","name":"Oberhavel","type":"Landkreis"},"federalState":{"key":"12","name":"Brandenburg"}},{"name":"Dropebrücke","postalCode":"16515","locality":"Oranienburg","municipality":{"key":"12065256","name":"Oranienburg, Stadt","type":"Stadt"},"district":{"key":"12065","name":"Oberhavel","type":"Landkreis"},"federalState":{"key":"12","name":"Brandenburg"}},{"name":"Drosselgasse","postalCode":"16515","locality":"Oranienburg","municipality":{"key":"12065256","name":"Oranienburg, Stadt","type":"Stadt"},"district":{"key":"12065","name":"Oberhavel","type":"Landkreis"},"federalState":{"key":"12","name":"Brandenburg"}},{"name":"Drosselstr.","postalCode":"16515","locality":"Oranienburg","municipality":{"key":"12065256","name":"Oranienburg, Stadt","type":"Stadt"},"district":{"key":"12065","name":"Oberhavel","type":"Landkreis"},"federalState":{"key":"12","name":"Brandenburg"}},{"name":"Drosselweg","postalCode":"16515","locality":"Oranienburg","municipality":{"key":"12065256","name":"Oranienburg, Stadt","type":"Stadt"},"district":{"key":"12065","name":"Oberhavel","type":"Landkreis"},"federalState":{"key":"12","name":"Brandenburg"}},{"name":"Dulonstr.","postalCode":"16515","locality":"Oranienburg","municipality":{"key":"12065256","name":"Oranienburg, Stadt","type":"Stadt"},"district":{"key":"12065","name":"Oberhavel","type":"Landkreis"},"federalState":{"key":"12","name":"Brandenburg"}},{"name":"Dürerpromenade","postalCode":"16515","locality":"Oranienburg","municipality":{"key":"12065256","name":"Oranienburg, Stadt","type":"Stadt"},"district":{"key":"12065","name":"Oberhavel","type":"Landkreis"},"federalState":{"key":"12","name":"Brandenburg"}},{"name":"Eberswalder Str.","postalCode":"16515","locality":"Oranienburg","municipality":{"key":"12065256","name":"Oranienburg, Stadt","type":"Stadt"},"district":{"key":"12065","name":"Oberhavel","type":"Landkreis"},"federalState":{"key":"12","name":"Brandenburg"}},{"name":"Egerstr.","postalCode":"16515","locality":"Oranienburg","municipality":{"key":"12065256","name":"Oranienburg, Stadt","type":"Stadt"},"district":{"key":"12065","name":"Oberhavel","type":"Landkreis"},"federalState":{"key":"12","name":"Brandenburg"}},{"name":"Eichenallee","postalCode":"16515","locality":"Oranienburg","municipality":{"key":"12065256","name":"Oranienburg, Stadt","type":"Stadt"},"district":{"key":"12065","name":"Oberhavel","type":"Landkreis"},"federalState":{"key":"12","name":"Brandenburg"}},{"name":"Eichendorffstr.","postalCode":"16515","locality":"Oranienburg","municipality":{"key":"12065256","name":"Oranienburg, Stadt","type":"Stadt"},"district":{"key":"12065","name":"Oberhavel","type":"Landkreis"},"federalState":{"key":"12","name":"Brandenburg"}},{"name":"Eichendorffweg","postalCode":"16515","locality":"Oranienburg","municipality":{"key":"12065256","name":"Oranienburg, Stadt","type":"Stadt"},"district":{"key":"12065","name":"Oberhavel","type":"Landkreis"},"federalState":{"key":"12","name":"Brandenburg"}},{"name":"Eichenweg","postalCode":"16515","locality":"Oranienburg","municipality":{"key":"12065256","name":"Oranienburg, Stadt","type":"Stadt"},"district":{"key":"12065","name":"Oberhavel","type":"Landkreis"},"federalState":{"key":"12","name":"Brandenburg"}},{"name":"Eichenwegsiedlung","postalCode":"16515","locality":"Oranienburg","municipality":{"key":"12065256","name":"Oranienburg, Stadt","type":"Stadt"},"district":{"key":"12065","name":"Oberhavel","type":"Landkreis"},"federalState":{"key":"12","name":"Brandenburg"}},{"name":"Eichkatzweg","postalCode":"16515","locality":"Oranienburg","municipality":{"key":"12065256","name":"Oranienburg, Stadt","type":"Stadt"},"district":{"key":"12065","name":"Oberhavel","type":"Landkreis"},"federalState":{"key":"12","name":"Brandenburg"}},{"name":"Eisenacher Str.","postalCode":"16515","locality":"Oranienburg","municipality":{"key":"12065256","name":"Oranienburg, Stadt","type":"Stadt"},"district":{"key":"12065","name":"Oberhavel","type":"Landkreis"},"federalState":{"key":"12","name":"Brandenburg"}},{"name":"Eisvogelstr.","postalCode":"16515","locality":"Oranienburg","municipality":{"key":"12065256","name":"Oranienburg, Stadt","type":"Stadt"},"district":{"key":"12065","name":"Oberhavel","type":"Landkreis"},"federalState":{"key":"12","name":"Brandenburg"}},{"name":"Elbestr.","postalCode":"16515","locality":"Oranienburg","municipality":{"key":"12065256","name":"Oranienburg, Stadt","type":"Stadt"},"district":{"key":"12065","name":"Oberhavel","type":"Landkreis"},"federalState":{"key":"12","name":"Brandenburg"}},{"name":"Elisabethstr.","postalCode":"16515","locality":"Oranienburg","municipality":{"key":"12065256","name":"Oranienburg, Stadt","type":"Stadt"},"district":{"key":"12065","name":"Oberhavel","type":"Landkreis"},"federalState":{"key":"12","name":"Brandenburg"}},{"name":"Elise-Zorn-Str.","postalCode":"16515","locality":"Oranienburg","municipality":{"key":"12065256","name":"Oranienburg, Stadt","type":"Stadt"},"district":{"key":"12065","name":"Oberhavel","type":"Landkreis"},"federalState":{"key":"12","name":"Brandenburg"}},{"name":"Elsenweg","postalCode":"16515","locality":"Oranienburg","municipality":{"key":"12065256","name":"Oranienburg, Stadt","type":"Stadt"},"district":{"key":"12065","name":"Oberhavel","type":"Landkreis"},"federalState":{"key":"12","name":"Brandenburg"}},{"name":"Elsterweg","postalCode":"16515","locality":"Oranienburg","municipality":{"key":"12065256","name":"Oranienburg, Stadt","type":"Stadt"},"district":{"key":"12065","name":"Oberhavel","type":"Landkreis"},"federalState":{"key":"12","name":"Brandenburg"}},{"name":"Emil-Büge-Str.","postalCode":"16515","locality":"Oranienburg","municipality":{"key":"12065256","name":"Oranienburg, Stadt","type":"Stadt"},"district":{"key":"12065","name":"Oberhavel","type":"Landkreis"},"federalState":{"key":"12","name":"Brandenburg"}},{"name":"Emil-Polesky-Str.","postalCode":"16515","locality":"Oranienburg","municipality":{"key":"12065256","name":"Oranienburg, Stadt","type":"Stadt"},"district":{"key":"12065","name":"Oberhavel","type":"Landkreis"},"federalState":{"key":"12","name":"Brandenburg"}},{"name":"Emsstr.","postalCode":"16515","locality":"Oranienburg","municipality":{"key":"12065256","name":"Oranienburg, Stadt","type":"Stadt"},"district":{"key":"12065","name":"Oberhavel","type":"Landkreis"},"federalState":{"key":"12","name":"Brandenburg"}},{"name":"Erfurter Str.","postalCode":"16515","locality":"Oranienburg","municipality":{"key":"12065256","name":"Oranienburg, Stadt","type":"Stadt"},"district":{"key":"12065","name":"Oberhavel","type":"Landkreis"},"federalState":{"key":"12","name":"Brandenburg"}},{"name":"Eric-Collins-Str.","postalCode":"16515","locality":"Oranienburg","municipality":{"key":"12065256","name":"Oranienburg, Stadt","type":"Stadt"},"district":{"key":"12065","name":"Oberhavel","type":"Landkreis"},"federalState":{"key":"12","name":"Brandenburg"}},{"name":"Erich-Mühsam-Str.","postalCode":"16515","locality":"Oranienburg","municipality":{"key":"12065256","name":"Oranienburg, Stadt","type":"Stadt"},"district":{"key":"12065","name":"Oberhavel","type":"Landkreis"},"federalState":{"key":"12","name":"Brandenburg"}},{"name":"Erich-Schmidt-Str.","postalCode":"16515","locality":"Oranienburg","municipality":{"key":"12065256","name":"Oranienburg, Stadt","type":"Stadt"},"district":{"key":"12065","name":"Oberhavel","type":"Landkreis"},"federalState":{"key":"12","name":"Brandenburg"}},{"name":"Erich-Weinert-Str.","postalCode":"16515","locality":"Oranienburg","municipality":{"key":"12065256","name":"Oranienburg, Stadt","type":"Stadt"},"district":{"key":"12065","name":"Oberhavel","type":"Landkreis"},"federalState":{"key":"12","name":"Brandenburg"}},{"name":"Erikaweg","postalCode":"16515","locality":"Oranienburg","municipality":{"key":"12065256","name":"Oranienburg, Stadt","type":"Stadt"},"district":{"key":"12065","name":"Oberhavel","type":"Landkreis"},"federalState":{"key":"12","name":"Brandenburg"}},{"name":"Erlensteig","postalCode":"16515","locality":"Oranienburg","municipality":{"key":"12065256","name":"Oranienburg, Stadt","type":"Stadt"},"district":{"key":"12065","name":"Oberhavel","type":"Landkreis"},"federalState":{"key":"12","name":"Brandenburg"}},{"name":"Ernst-Schneller-Str.","postalCode":"16515","locality":"Oranienburg","municipality":{"key":"12065256","name":"Oranienburg, Stadt","type":"Stadt"},"district":{"key":"12065","name":"Oberhavel","type":"Landkreis"},"federalState":{"key":"12","name":"Brandenburg"}},{"name":"Ernst-Thälmann-Platz","postalCode":"16515","locality":"Oranienburg","municipality":{"key":"12065256","name":"Oranienburg, Stadt","type":"Stadt"},"district":{"key":"12065","name":"Oberhavel","type":"Landkreis"},"federalState":{"key":"12","name":"Brandenburg"}},{"name":"Ernst-Thälmann-Str.","postalCode":"16515","locality":"Oranienburg","municipality":{"key":"12065256","name":"Oranienburg, Stadt","type":"Stadt"},"district":{"key":"12065","name":"Oberhavel","type":"Landkreis"},"federalState":{"key":"12","name":"Brandenburg"}},{"name":"Erschießungsgraben","postalCode":"16515","locality":"Oranienburg","municipality":{"key":"12065256","name":"Oranienburg, Stadt","type":"Stadt"},"district":{"key":"12065","name":"Oberhavel","type":"Landkreis"},"federalState":{"key":"12","name":"Brandenburg"}},{"name":"Erzbergerstr.","postalCode":"16515","locality":"Oranienburg","municipality":{"key":"12065256","name":"Oranienburg, Stadt","type":"Stadt"},"district":{"key":"12065","name":"Oberhavel","type":"Landkreis"},"federalState":{"key":"12","name":"Brandenburg"}},{"name":"Eschenweg","postalCode":"16515","locality":"Oranienburg","municipality":{"key":"12065256","name":"Oranienburg, Stadt","type":"Stadt"},"district":{"key":"12065","name":"Oberhavel","type":"Landkreis"},"federalState":{"key":"12","name":"Brandenburg"}},{"name":"Esphorstweg","postalCode":"16515","locality":"Oranienburg","municipality":{"key":"12065256","name":"Oranienburg, Stadt","type":"Stadt"},"district":{"key":"12065","name":"Oberhavel","type":"Landkreis"},"federalState":{"key":"12","name":"Brandenburg"}},{"name":"Falkenberg-Str.","postalCode":"16515","locality":"Oranienburg","municipality":{"key":"12065256","name":"Oranienburg, Stadt","type":"Stadt"},"district":{"key":"12065","name":"Oberhavel","type":"Landkreis"},"federalState":{"key":"12","name":"Brandenburg"}},{"name":"Falkenstr.","postalCode":"16515","locality":"Oranienburg","municipality":{"key":"12065256","name":"Oranienburg, Stadt","type":"Stadt"},"district":{"key":"12065","name":"Oberhavel","type":"Landkreis"},"federalState":{"key":"12","name":"Brandenburg"}},{"name":"Falkenweg","postalCode":"16515","locality":"Oranienburg","municipality":{"key":"12065256","name":"Oranienburg, Stadt","type":"Stadt"},"district":{"key":"12065","name":"Oberhavel","type":"Landkreis"},"federalState":{"key":"12","name":"Brandenburg"}},{"name":"Fasanenstr.","postalCode":"16515","locality":"Oranienburg","municipality":{"key":"12065256","name":"Oranienburg, Stadt","type":"Stadt"},"district":{"key":"12065","name":"Oberhavel","type":"Landkreis"},"federalState":{"key":"12","name":"Brandenburg"}},{"name":"Feldstr.","postalCode":"16515","locality":"Oranienburg","municipality":{"key":"12065256","name":"Oranienburg, Stadt","type":"Stadt"},"district":{"key":"12065","name":"Oberhavel","type":"Landkreis"},"federalState":{"key":"12","name":"Brandenburg"}},{"name":"Feuerbachstr.","postalCode":"16515","locality":"Oranienburg","municipality":{"key":"12065256","name":"Oranienburg, Stadt","type":"Stadt"},"district":{"key":"12065","name":"Oberhavel","type":"Landkreis"},"federalState":{"key":"12","name":"Brandenburg"}},{"name":"Fichtengrunder Weg","postalCode":"16515","locality":"Oranienburg","municipality":{"key":"12065256","name":"Oranienburg, Stadt","type":"Stadt"},"district":{"key":"12065","name":"Oberhavel","type":"Landkreis"},"federalState":{"key":"12","name":"Brandenburg"}},{"name":"Fichtensteg","postalCode":"16515","locality":"Oranienburg","municipality":{"key":"12065256","name":"Oranienburg, Stadt","type":"Stadt"},"district":{"key":"12065","name":"Oberhavel","type":"Landkreis"},"federalState":{"key":"12","name":"Brandenburg"}},{"name":"Fichtenweg","postalCode":"16515","locality":"Oranienburg","municipality":{"key":"12065256","name":"Oranienburg, Stadt","type":"Stadt"},"district":{"key":"12065","name":"Oberhavel","type":"Landkreis"},"federalState":{"key":"12","name":"Brandenburg"}},{"name":"Finkensteg","postalCode":"16515","locality":"Oranienburg","municipality":{"key":"12065256","name":"Oranienburg, Stadt","type":"Stadt"},"district":{"key":"12065","name":"Oberhavel","type":"Landkreis"},"federalState":{"key":"12","name":"Brandenburg"}},{"name":"Finkensteig","postalCode":"16515","locality":"Oranienburg","municipality":{"key":"12065256","name":"Oranienburg, Stadt","type":"Stadt"},"district":{"key":"12065","name":"Oberhavel","type":"Landkreis"},"federalState":{"key":"12","name":"Brandenburg"}},{"name":"Finkenweg","postalCode":"16515","locality":"Oranienburg","municipality":{"key":"12065256","name":"Oranienburg, Stadt","type":"Stadt"},"district":{"key":"12065","name":"Oberhavel","type":"Landkreis"},"federalState":{"key":"12","name":"Brandenburg"}},{"name":"Finkstr.","postalCode":"16515","locality":"Oranienburg","municipality":{"key":"12065256","name":"Oranienburg, Stadt","type":"Stadt"},"district":{"key":"12065","name":"Oberhavel","type":"Landkreis"},"federalState":{"key":"12","name":"Brandenburg"}},{"name":"Fischerstr.","postalCode":"16515","locality":"Oranienburg","municipality":{"key":"12065256","name":"Oranienburg, Stadt","type":"Stadt"},"district":{"key":"12065","name":"Oberhavel","type":"Landkreis"},"federalState":{"key":"12","name":"Brandenburg"}},{"name":"Fischerweg","postalCode":"16515","locality":"Oranienburg","municipality":{"key":"12065256","name":"Oranienburg, Stadt","type":"Stadt"},"district":{"key":"12065","name":"Oberhavel","type":"Landkreis"},"federalState":{"key":"12","name":"Brandenburg"}},{"name":"Fliedersteg","postalCode":"16515","locality":"Oranienburg","municipality":{"key":"12065256","name":"Oranienburg, Stadt","type":"Stadt"},"district":{"key":"12065","name":"Oberhavel","type":"Landkreis"},"federalState":{"key":"12","name":"Brandenburg"}},{"name":"Fliederweg","postalCode":"16515","locality":"Oranienburg","municipality":{"key":"12065256","name":"Oranienburg, Stadt","type":"Stadt"},"district":{"key":"12065","name":"Oberhavel","type":"Landkreis"},"federalState":{"key":"12","name":"Brandenburg"}},{"name":"Florastr.","postalCode":"16515","locality":"Oranienburg","municipality":{"key":"12065256","name":"Oranienburg, Stadt","type":"Stadt"},"district":{"key":"12065","name":"Oberhavel","type":"Landkreis"},"federalState":{"key":"12","name":"Brandenburg"}},{"name":"Flotowstr.","postalCode":"16515","locality":"Oranienburg","municipality":{"key":"12065256","name":"Oranienburg, Stadt","type":"Stadt"},"district":{"key":"12065","name":"Oberhavel","type":"Landkreis"},"federalState":{"key":"12","name":"Brandenburg"}},{"name":"Försterstr.","postalCode":"16515","locality":"Oranienburg","municipality":{"key":"12065256","name":"Oranienburg, Stadt","type":"Stadt"},"district":{"key":"12065","name":"Oberhavel","type":"Landkreis"},"federalState":{"key":"12","name":"Brandenburg"}},{"name":"Försterweg","postalCode":"16515","locality":"Oranienburg","municipality":{"key":"12065256","name":"Oranienburg, Stadt","type":"Stadt"},"district":{"key":"12065","name":"Oberhavel","type":"Landkreis"},"federalState":{"key":"12","name":"Brandenburg"}},{"name":"Forstring","postalCode":"16515","locality":"Oranienburg","municipality":{"key":"12065256","name":"Oranienburg, Stadt","type":"Stadt"},"district":{"key":"12065","name":"Oberhavel","type":"Landkreis"},"federalState":{"key":"12","name":"Brandenburg"}},{"name":"Forststr.","postalCode":"16515","locality":"Oranienburg","municipality":{"key":"12065256","name":"Oranienburg, Stadt","type":"Stadt"},"district":{"key":"12065","name":"Oberhavel","type":"Landkreis"},"federalState":{"key":"12","name":"Brandenburg"}},{"name":"Forstweg","postalCode":"16515","locality":"Oranienburg","municipality":{"key":"12065256","name":"Oranienburg, Stadt","type":"Stadt"},"district":{"key":"12065","name":"Oberhavel","type":"Landkreis"},"federalState":{"key":"12","name":"Brandenburg"}},{"name":"Freiburger Str.","postalCode":"16515","locality":"Oranienburg","municipality":{"key":"12065256","name":"Oranienburg, Stadt","type":"Stadt"},"district":{"key":"12065","name":"Oberhavel","type":"Landkreis"},"federalState":{"key":"12","name":"Brandenburg"}},{"name":"Freienhagener Str.","postalCode":"16515","locality":"Oranienburg","municipality":{"key":"12065256","name":"Oranienburg, Stadt","type":"Stadt"},"district":{"key":"12065","name":"Oberhavel","type":"Landkreis"},"federalState":{"key":"12","name":"Brandenburg"}},{"name":"Freienhagener Weg","postalCode":"16515","locality":"Oranienburg","municipality":{"key":"12065256","name":"Oranienburg, Stadt","type":"Stadt"},"district":{"key":"12065","name":"Oberhavel","type":"Landkreis"},"federalState":{"key":"12","name":"Brandenburg"}},{"name":"Freienwalder Str.","postalCode":"16515","locality":"Oranienburg","municipality":{"key":"12065256","name":"Oranienburg, Stadt","type":"Stadt"},"district":{"key":"12065","name":"Oberhavel","type":"Landkreis"},"federalState":{"key":"12","name":"Brandenburg"}},{"name":"Freiheitsplatz","postalCode":"16515","locality":"Oranienburg","municipality":{"key":"12065256","name":"Oranienburg, Stadt","type":"Stadt"},"district":{"key":"12065","name":"Oberhavel","type":"Landkreis"},"federalState":{"key":"12","name":"Brandenburg"}},{"name":"Freiheitsweg","postalCode":"16515","locality":"Oranienburg","municipality":{"key":"12065256","name":"Oranienburg, Stadt","type":"Stadt"},"district":{"key":"12065","name":"Oberhavel","type":"Landkreis"},"federalState":{"key":"12","name":"Brandenburg"}},{"name":"Freilandweg","postalCode":"16515","locality":"Oranienburg","municipality":{"key":"12065256","name":"Oranienburg, Stadt","type":"Stadt"},"district":{"key":"12065","name":"Oberhavel","type":"Landkreis"},"federalState":{"key":"12","name":"Brandenburg"}},{"name":"Frieda-Glücksmann-Str.","postalCode":"16515","locality":"Oranienburg","municipality":{"key":"12065256","name":"Oranienburg, Stadt","type":"Stadt"},"district":{"key":"12065","name":"Oberhavel","type":"Landkreis"},"federalState":{"key":"12","name":"Brandenburg"}},{"name":"Friedensstr.","postalCode":"16515","locality":"Oranienburg","municipality":{"key":"12065256","name":"Oranienburg, Stadt","type":"Stadt"},"district":{"key":"12065","name":"Oberhavel","type":"Landkreis"},"federalState":{"key":"12","name":"Brandenburg"}},{"name":"Friedenthaler Weg","postalCode":"16515","locality":"Oranienburg","municipality":{"key":"12065256","name":"Oranienburg, Stadt","type":"Stadt"},"district":{"key":"12065","name":"Oberhavel","type":"Landkreis"},"federalState":{"key":"12","name":"Brandenburg"}},{"name":"Friedrich-Ebert-Str.","postalCode":"16515","locality":"Oranienburg","municipality":{"key":"12065256","name":"Oranienburg, Stadt","type":"Stadt"},"district":{"key":"12065","name":"Oberhavel","type":"Landkreis"},"federalState":{"key":"12","name":"Brandenburg"}},{"name":"Friedrich-Engels-Str.","postalCode":"16515","locality":"Oranienburg","municipality":{"key":"12065256","name":"Oranienburg, Stadt","type":"Stadt"},"district":{"key":"12065","name":"Oberhavel","type":"Landkreis"},"federalState":{"key":"12","name":"Brandenburg"}},{"name":"Friedrichrodaer Str.","postalCode":"16515","locality":"Oranienburg","municipality":{"key":"12065256","name":"Oranienburg, Stadt","type":"Stadt"},"district":{"key":"12065","name":"Oberhavel","type":"Landkreis"},"federalState":{"key":"12","name":"Brandenburg"}},{"name":"Friedrich-Siewert-Str.","postalCode":"16515","locality":"Oranienburg","municipality":{"key":"12065256","name":"Oranienburg, Stadt","type":"Stadt"},"district":{"key":"12065","name":"Oberhavel","type":"Landkreis"},"federalState":{"key":"12","name":"Brandenburg"}},{"name":"Friedrichsthaler Chaussee","postalCode":"16515","locality":"Oranienburg","municipality":{"key":"12065256","name":"Oranienburg, Stadt","type":"Stadt"},"district":{"key":"12065","name":"Oberhavel","type":"Landkreis"},"federalState":{"key":"12","name":"Brandenburg"}},{"name":"Friedrichsthaler Feldweg","postalCode":"16515","locality":"Oranienburg","municipality":{"key":"12065256","name":"Oranienburg, Stadt","type":"Stadt"},"district":{"key":"12065","name":"Oberhavel","type":"Landkreis"},"federalState":{"key":"12","name":"Brandenburg"}},{"name":"Friedrichsthaler Str.","postalCode":"16515","locality":"Oranienburg","municipality":{"key":"12065256","name":"Oranienburg, Stadt","type":"Stadt"},"district":{"key":"12065","name":"Oberhavel","type":"Landkreis"},"federalState":{"key":"12","name":"Brandenburg"}},{"name":"Friedrichsthaler Weg","postalCode":"16515","locality":"Oranienburg","municipality":{"key":"12065256","name":"Oranienburg, Stadt","type":"Stadt"},"district":{"key":"12065","name":"Oberhavel","type":"Landkreis"},"federalState":{"key":"12","name":"Brandenburg"}},{"name":"Friedrichstr.","postalCode":"16515","locality":"Oranienburg","municipality":{"key":"12065256","name":"Oranienburg, Stadt","type":"Stadt"},"district":{"key":"12065","name":"Oberhavel","type":"Landkreis"},"federalState":{"key":"12","name":"Brandenburg"}},{"name":"Friedrich-Wolf-Str.","postalCode":"16515","locality":"Oranienburg","municipality":{"key":"12065256","name":"Oranienburg, Stadt","type":"Stadt"},"district":{"key":"12065","name":"Oberhavel","type":"Landkreis"},"federalState":{"key":"12","name":"Brandenburg"}},{"name":"Fuchsstr.","postalCode":"16515","locality":"Oranienburg","municipality":{"key":"12065256","name":"Oranienburg, Stadt","type":"Stadt"},"district":{"key":"12065","name":"Oberhavel","type":"Landkreis"},"federalState":{"key":"12","name":"Brandenburg"}},{"name":"Galina-Romanowa-Str.","postalCode":"16515","locality":"Oranienburg","municipality":{"key":"12065256","name":"Oranienburg, Stadt","type":"Stadt"},"district":{"key":"12065","name":"Oberhavel","type":"Landkreis"},"federalState":{"key":"12","name":"Brandenburg"}},{"name":"Gang","postalCode":"16515","locality":"Oranienburg","municipality":{"key":"12065256","name":"Oranienburg, Stadt","type":"Stadt"},"district":{"key":"12065","name":"Oberhavel","type":"Landkreis"},"federalState":{"key":"12","name":"Brandenburg"}},{"name":"Gartenstr.","postalCode":"16515","locality":"Oranienburg","municipality":{"key":"12065256","name":"Oranienburg, Stadt","type":"Stadt"},"district":{"key":"12065","name":"Oberhavel","type":"Landkreis"},"federalState":{"key":"12","name":"Brandenburg"}},{"name":"Gartenweg","postalCode":"16515","locality":"Oranienburg","municipality":{"key":"12065256","name":"Oranienburg, Stadt","type":"Stadt"},"district":{"key":"12065","name":"Oberhavel","type":"Landkreis"},"federalState":{"key":"12","name":"Brandenburg"}},{"name":"Gärtnerweg","postalCode":"16515","locality":"Oranienburg","municipality":{"key":"12065256","name":"Oranienburg, Stadt","type":"Stadt"},"district":{"key":"12065","name":"Oberhavel","type":"Landkreis"},"federalState":{"key":"12","name":"Brandenburg"}},{"name":"Gebrüder-Grütter-Str.","postalCode":"16515","locality":"Oranienburg","municipality":{"key":"12065256","name":"Oranienburg, Stadt","type":"Stadt"},"district":{"key":"12065","name":"Oberhavel","type":"Landkreis"},"federalState":{"key":"12","name":"Brandenburg"}},{"name":"Geraer Str.","postalCode":"16515","locality":"Oranienburg","municipality":{"key":"12065256","name":"Oranienburg, Stadt","type":"Stadt"},"district":{"key":"12065","name":"Oberhavel","type":"Landkreis"},"federalState":{"key":"12","name":"Brandenburg"}},{"name":"Geranienstr.","postalCode":"16515","locality":"Oranienburg","municipality":{"key":"12065256","name":"Oranienburg, Stadt","type":"Stadt"},"district":{"key":"12065","name":"Oberhavel","type":"Landkreis"},"federalState":{"key":"12","name":"Brandenburg"}},{"name":"Germendorfer Allee","postalCode":"16515","locality":"Oranienburg","municipality":{"key":"12065256","name":"Oranienburg, Stadt","type":"Stadt"},"district":{"key":"12065","name":"Oberhavel","type":"Landkreis"},"federalState":{"key":"12","name":"Brandenburg"}},{"name":"Germendorfer Dorfstr.","postalCode":"16515","locality":"Oranienburg","municipality":{"key":"12065256","name":"Oranienburg, Stadt","type":"Stadt"},"district":{"key":"12065","name":"Oberhavel","type":"Landkreis"},"federalState":{"key":"12","name":"Brandenburg"}},{"name":"Geschkestr.","postalCode":"16515","locality":"Oranienburg","municipality":{"key":"12065256","name":"Oranienburg, Stadt","type":"Stadt"},"district":{"key":"12065","name":"Oberhavel","type":"Landkreis"},"federalState":{"key":"12","name":"Brandenburg"}},{"name":"Glashütte","postalCode":"16515","locality":"Oranienburg","municipality":{"key":"12065256","name":"Oranienburg, Stadt","type":"Stadt"},"district":{"key":"12065","name":"Oberhavel","type":"Landkreis"},"federalState":{"key":"12","name":"Brandenburg"}},{"name":"Glashütter Weg","postalCode":"16515","locality":"Oranienburg","municipality":{"key":"12065256","name":"Oranienburg, Stadt","type":"Stadt"},"district":{"key":"12065","name":"Oberhavel","type":"Landkreis"},"federalState":{"key":"12","name":"Brandenburg"}},{"name":"Gluckstr.","postalCode":"16515","locality":"Oranienburg","municipality":{"key":"12065256","name":"Oranienburg, Stadt","type":"Stadt"},"district":{"key":"12065","name":"Oberhavel","type":"Landkreis"},"federalState":{"key":"12","name":"Brandenburg"}},{"name":"Goetheallee","postalCode":"16515","locality":"Oranienburg","municipality":{"key":"12065256","name":"Oranienburg, Stadt","type":"Stadt"},"district":{"key":"12065","name":"Oberhavel","type":"Landkreis"},"federalState":{"key":"12","name":"Brandenburg"}},{"name":"Goethestr.","postalCode":"16515","locality":"Oranienburg","municipality":{"key":"12065256","name":"Oranienburg, Stadt","type":"Stadt"},"district":{"key":"12065","name":"Oberhavel","type":"Landkreis"},"federalState":{"key":"12","name":"Brandenburg"}},{"name":"Gorkistr.","postalCode":"16515","locality":"Oranienburg","municipality":{"key":"12065256","name":"Oranienburg, Stadt","type":"Stadt"},"district":{"key":"12065","name":"Oberhavel","type":"Landkreis"},"federalState":{"key":"12","name":"Brandenburg"}},{"name":"Gothaer Str.","postalCode":"16515","locality":"Oranienburg","municipality":{"key":"12065256","name":"Oranienburg, Stadt","type":"Stadt"},"district":{"key":"12065","name":"Oberhavel","type":"Landkreis"},"federalState":{"key":"12","name":"Brandenburg"}},{"name":"Grabenweg","postalCode":"16515","locality":"Oranienburg","municipality":{"key":"12065256","name":"Oranienburg, Stadt","type":"Stadt"},"district":{"key":"12065","name":"Oberhavel","type":"Landkreis"},"federalState":{"key":"12","name":"Brandenburg"}},{"name":"Grabowseebrücke","postalCode":"16515","locality":"Oranienburg","municipality":{"key":"12065256","name":"Oranienburg, Stadt","type":"Stadt"},"district":{"key":"12065","name":"Oberhavel","type":"Landkreis"},"federalState":{"key":"12","name":"Brandenburg"}},{"name":"Grabowseestr.","postalCode":"16515","locality":"Oranienburg","municipality":{"key":"12065256","name":"Oranienburg, Stadt","type":"Stadt"},"district":{"key":"12065","name":"Oberhavel","type":"Landkreis"},"federalState":{"key":"12","name":"Brandenburg"}},{"name":"Grabowseeweg","postalCode":"16515","locality":"Oranienburg","municipality":{"key":"12065256","name":"Oranienburg, Stadt","type":"Stadt"},"district":{"key":"12065","name":"Oberhavel","type":"Landkreis"},"federalState":{"key":"12","name":"Brandenburg"}},{"name":"Granseer Str.","postalCode":"16515","locality":"Oranienburg","municipality":{"key":"12065256","name":"Oranienburg, Stadt","type":"Stadt"},"district":{"key":"12065","name":"Oberhavel","type":"Landkreis"},"federalState":{"key":"12","name":"Brandenburg"}},{"name":"Grätzer Str.","postalCode":"16515","locality":"Oranienburg","municipality":{"key":"12065256","name":"Oranienburg, Stadt","type":"Stadt"},"district":{"key":"12065","name":"Oberhavel","type":"Landkreis"},"federalState":{"key":"12","name":"Brandenburg"}},{"name":"Grätzer Weg","postalCode":"16515","locality":"Oranienburg","municipality":{"key":"12065256","name":"Oranienburg, Stadt","type":"Stadt"},"district":{"key":"12065","name":"Oberhavel","type":"Landkreis"},"federalState":{"key":"12","name":"Brandenburg"}},{"name":"Grätzstr.","postalCode":"16515","locality":"Oranienburg","municipality":{"key":"12065256","name":"Oranienburg, Stadt","type":"Stadt"},"district":{"key":"12065","name":"Oberhavel","type":"Landkreis"},"federalState":{"key":"12","name":"Brandenburg"}},{"name":"Greifswalder Str.","postalCode":"16515","locality":"Oranienburg","municipality":{"key":"12065256","name":"Oranienburg, Stadt","type":"Stadt"},"district":{"key":"12065","name":"Oberhavel","type":"Landkreis"},"federalState":{"key":"12","name":"Brandenburg"}},{"name":"Grenzstr.","postalCode":"16515","locality":"Oranienburg","municipality":{"key":"12065256","name":"Oranienburg, Stadt","type":"Stadt"},"district":{"key":"12065","name":"Oberhavel","type":"Landkreis"},"federalState":{"key":"12","name":"Brandenburg"}},{"name":"Griegstr.","postalCode":"16515","locality":"Oranienburg","municipality":{"key":"12065256","name":"Oranienburg, Stadt","type":"Stadt"},"district":{"key":"12065","name":"Oberhavel","type":"Landkreis"},"federalState":{"key":"12","name":"Brandenburg"}},{"name":"Grottenweg","postalCode":"16515","locality":"Oranienburg","municipality":{"key":"12065256","name":"Oranienburg, Stadt","type":"Stadt"},"district":{"key":"12065","name":"Oberhavel","type":"Landkreis"},"federalState":{"key":"12","name":"Brandenburg"}},{"name":"Grüner Weg","postalCode":"16515","locality":"Oranienburg","municipality":{"key":"12065256","name":"Oranienburg, Stadt","type":"Stadt"},"district":{"key":"12065","name":"Oberhavel","type":"Landkreis"},"federalState":{"key":"12","name":"Brandenburg"}},{"name":"Grünewaldstr.","postalCode":"16515","locality":"Oranienburg","municipality":{"key":"12065256","name":"Oranienburg, Stadt","type":"Stadt"},"district":{"key":"12065","name":"Oberhavel","type":"Landkreis"},"federalState":{"key":"12","name":"Brandenburg"}},{"name":"Grünstr.","postalCode":"16515","locality":"Oranienburg","municipality":{"key":"12065256","name":"Oranienburg, Stadt","type":"Stadt"},"district":{"key":"12065","name":"Oberhavel","type":"Landkreis"},"federalState":{"key":"12","name":"Brandenburg"}},{"name":"Gutspark","postalCode":"16515","locality":"Oranienburg","municipality":{"key":"12065256","name":"Oranienburg, Stadt","type":"Stadt"},"district":{"key":"12065","name":"Oberhavel","type":"Landkreis"},"federalState":{"key":"12","name":"Brandenburg"}},{"name":"Gutsplatz","postalCode":"16515","locality":"Oranienburg","municipality":{"key":"12065256","name":"Oranienburg, Stadt","type":"Stadt"},"district":{"key":"12065","name":"Oberhavel","type":"Landkreis"},"federalState":{"key":"12","name":"Brandenburg"}},{"name":"Habichtweg","postalCode":"16515","locality":"Oranienburg","municipality":{"key":"12065256","name":"Oranienburg, Stadt","type":"Stadt"},"district":{"key":"12065","name":"Oberhavel","type":"Landkreis"},"federalState":{"key":"12","name":"Brandenburg"}},{"name":"Haller Str.","postalCode":"16515","locality":"Oranienburg","municipality":{"key":"12065256","name":"Oranienburg, Stadt","type":"Stadt"},"district":{"key":"12065","name":"Oberhavel","type":"Landkreis"},"federalState":{"key":"12","name":"Brandenburg"}},{"name":"Hallimaschweg","postalCode":"16515","locality":"Oranienburg","municipality":{"key":"12065256","name":"Oranienburg, Stadt","type":"Stadt"},"district":{"key":"12065","name":"Oberhavel","type":"Landkreis"},"federalState":{"key":"12","name":"Brandenburg"}},{"name":"Hammer Str.","postalCode":"16515","locality":"Oranienburg","municipality":{"key":"12065256","name":"Oranienburg, Stadt","type":"Stadt"},"district":{"key":"12065","name":"Oberhavel","type":"Landkreis"},"federalState":{"key":"12","name":"Brandenburg"}},{"name":"Händelstr.","postalCode":"16515","locality":"Oranienburg","municipality":{"key":"12065256","name":"Oranienburg, Stadt","type":"Stadt"},"district":{"key":"12065","name":"Oberhavel","type":"Landkreis"},"federalState":{"key":"12","name":"Brandenburg"}},{"name":"Hannah-Arendt-Str.","postalCode":"16515","locality":"Oranienburg","municipality":{"key":"12065256","name":"Oranienburg, Stadt","type":"Stadt"},"district":{"key":"12065","name":"Oberhavel","type":"Landkreis"},"federalState":{"key":"12","name":"Brandenburg"}},{"name":"Hans-Grade-Str.","postalCode":"16515","locality":"Oranienburg","municipality":{"key":"12065256","name":"Oranienburg, Stadt","type":"Stadt"},"district":{"key":"12065","name":"Oberhavel","type":"Landkreis"},"federalState":{"key":"12","name":"Brandenburg"}},{"name":"Hans-Loch-Str.","postalCode":"16515","locality":"Oranienburg","municipality":{"key":"12065256","name":"Oranienburg, Stadt","type":"Stadt"},"district":{"key":"12065","name":"Oberhavel","type":"Landkreis"},"federalState":{"key":"12","name":"Brandenburg"}},{"name":"Hans-von-Dohnanyi-Str.","postalCode":"16515","locality":"Oranienburg","municipality":{"key":"12065256","name":"Oranienburg, Stadt","type":"Stadt"},"district":{"key":"12065","name":"Oberhavel","type":"Landkreis"},"federalState":{"key":"12","name":"Brandenburg"}},{"name":"Hauptstr.","postalCode":"16515","locality":"Oranienburg","municipality":{"key":"12065256","name":"Oranienburg, Stadt","type":"Stadt"},"district":{"key":"12065","name":"Oberhavel","type":"Landkreis"},"federalState":{"key":"12","name":"Brandenburg"}},{"name":"Hauptweg","postalCode":"16515","locality":"Oranienburg","municipality":{"key":"12065256","name":"Oranienburg, Stadt","type":"Stadt"},"district":{"key":"12065","name":"Oberhavel","type":"Landkreis"},"federalState":{"key":"12","name":"Brandenburg"}},{"name":"Havelallee","postalCode":"16515","locality":"Oranienburg","municipality":{"key":"12065256","name":"Oranienburg, Stadt","type":"Stadt"},"district":{"key":"12065","name":"Oberhavel","type":"Landkreis"},"federalState":{"key":"12","name":"Brandenburg"}},{"name":"Havelaue","postalCode":"16515","locality":"Oranienburg","municipality":{"key":"12065256","name":"Oranienburg, Stadt","type":"Stadt"},"district":{"key":"12065","name":"Oberhavel","type":"Landkreis"},"federalState":{"key":"12","name":"Brandenburg"}},{"name":"Haveleck","postalCode":"16515","locality":"Oranienburg","municipality":{"key":"12065256","name":"Oranienburg, Stadt","type":"Stadt"},"district":{"key":"12065","name":"Oberhavel","type":"Landkreis"},"federalState":{"key":"12","name":"Brandenburg"}},{"name":"Havelhausener Weg","postalCode":"16515","locality":"Oranienburg","municipality":{"key":"12065256","name":"Oranienburg, Stadt","type":"Stadt"},"district":{"key":"12065","name":"Oberhavel","type":"Landkreis"},"federalState":{"key":"12","name":"Brandenburg"}},{"name":"Havelkorso","postalCode":"16515","locality":"Oranienburg","municipality":{"key":"12065256","name":"Oranienburg, Stadt","type":"Stadt"},"district":{"key":"12065","name":"Oberhavel","type":"Landkreis"},"federalState":{"key":"12","name":"Brandenburg"}},{"name":"Havelpromenade","postalCode":"16515","locality":"Oranienburg","municipality":{"key":"12065256","name":"Oranienburg, Stadt","type":"Stadt"},"district":{"key":"12065","name":"Oberhavel","type":"Landkreis"},"federalState":{"key":"12","name":"Brandenburg"}},{"name":"Havelstr.","postalCode":"16515","locality":"Oranienburg","municipality":{"key":"12065256","name":"Oranienburg, Stadt","type":"Stadt"},"district":{"key":"12065","name":"Oberhavel","type":"Landkreis"},"federalState":{"key":"12","name":"Brandenburg"}},{"name":"Havelufer","postalCode":"16515","locality":"Oranienburg","municipality":{"key":"12065256","name":"Oranienburg, Stadt","type":"Stadt"},"district":{"key":"12065","name":"Oberhavel","type":"Landkreis"},"federalState":{"key":"12","name":"Brandenburg"}},{"name":"Havelweg","postalCode":"16515","locality":"Oranienburg","municipality":{"key":"12065256","name":"Oranienburg, Stadt","type":"Stadt"},"district":{"key":"12065","name":"Oberhavel","type":"Landkreis"},"federalState":{"key":"12","name":"Brandenburg"}},{"name":"Havelweg ost","postalCode":"16515","locality":"Oranienburg","municipality":{"key":"12065256","name":"Oranienburg, Stadt","type":"Stadt"},"district":{"key":"12065","name":"Oberhavel","type":"Landkreis"},"federalState":{"key":"12","name":"Brandenburg"}},{"name":"Haydnstr.","postalCode":"16515","locality":"Oranienburg","municipality":{"key":"12065256","name":"Oranienburg, Stadt","type":"Stadt"},"district":{"key":"12065","name":"Oberhavel","type":"Landkreis"},"federalState":{"key":"12","name":"Brandenburg"}},{"name":"Hechtweg","postalCode":"16515","locality":"Oranienburg","municipality":{"key":"12065256","name":"Oranienburg, Stadt","type":"Stadt"},"district":{"key":"12065","name":"Oberhavel","type":"Landkreis"},"federalState":{"key":"12","name":"Brandenburg"}},{"name":"Heidelberger Platz","postalCode":"16515","locality":"Oranienburg","municipality":{"key":"12065256","name":"Oranienburg, Stadt","type":"Stadt"},"district":{"key":"12065","name":"Oberhavel","type":"Landkreis"},"federalState":{"key":"12","name":"Brandenburg"}},{"name":"Heidelberger Str.","postalCode":"16515","locality":"Oranienburg","municipality":{"key":"12065256","name":"Oranienburg, Stadt","type":"Stadt"},"district":{"key":"12065","name":"Oberhavel","type":"Landkreis"},"federalState":{"key":"12","name":"Brandenburg"}},{"name":"Heideluchstr.","postalCode":"16515","locality":"Oranienburg","municipality":{"key":"12065256","name":"Oranienburg, Stadt","type":"Stadt"},"district":{"key":"12065","name":"Oberhavel","type":"Landkreis"},"federalState":{"key":"12","name":"Brandenburg"}},{"name":"Heidesteig","postalCode":"16515","locality":"Oranienburg","municipality":{"key":"12065256","name":"Oranienburg, Stadt","type":"Stadt"},"district":{"key":"12065","name":"Oberhavel","type":"Landkreis"},"federalState":{"key":"12","name":"Brandenburg"}},{"name":"Heidestr.","postalCode":"16515","locality":"Oranienburg","municipality":{"key":"12065256","name":"Oranienburg, Stadt","type":"Stadt"},"district":{"key":"12065","name":"Oberhavel","type":"Landkreis"},"federalState":{"key":"12","name":"Brandenburg"}},{"name":"Heideweg","postalCode":"16515","locality":"Oranienburg","municipality":{"key":"12065256","name":"Oranienburg, Stadt","type":"Stadt"},"district":{"key":"12065","name":"Oberhavel","type":"Landkreis"},"federalState":{"key":"12","name":"Brandenburg"}},{"name":"Heinestr.","postalCode":"16515","locality":"Oranienburg","municipality":{"key":"12065256","name":"Oranienburg, Stadt","type":"Stadt"},"district":{"key":"12065","name":"Oberhavel","type":"Landkreis"},"federalState":{"key":"12","name":"Brandenburg"}},{"name":"Heinrich-Böll-Str.","postalCode":"16515","locality":"Oranienburg","municipality":{"key":"12065256","name":"Oranienburg, Stadt","type":"Stadt"},"district":{"key":"12065","name":"Oberhavel","type":"Landkreis"},"federalState":{"key":"12","name":"Brandenburg"}},{"name":"Heinrich-Grüber-Platz","postalCode":"16515","locality":"Oranienburg","municipality":{"key":"12065256","name":"Oranienburg, Stadt","type":"Stadt"},"district":{"key":"12065","name":"Oberhavel","type":"Landkreis"},"federalState":{"key":"12","name":"Brandenburg"}},{"name":"Heinrich-Heine-Allee","postalCode":"16515","locality":"Oranienburg","municipality":{"key":"12065256","name":"Oranienburg, Stadt","type":"Stadt"},"district":{"key":"12065","name":"Oberhavel","type":"Landkreis"},"federalState":{"key":"12","name":"Brandenburg"}},{"name":"Hellasstr.","postalCode":"16515","locality":"Oranienburg","municipality":{"key":"12065256","name":"Oranienburg, Stadt","type":"Stadt"},"district":{"key":"12065","name":"Oberhavel","type":"Landkreis"},"federalState":{"key":"12","name":"Brandenburg"}},{"name":"Hermann-Löns-Str.","postalCode":"16515","locality":"Oranienburg","municipality":{"key":"12065256","name":"Oranienburg, Stadt","type":"Stadt"},"district":{"key":"12065","name":"Oberhavel","type":"Landkreis"},"federalState":{"key":"12","name":"Brandenburg"}},{"name":"Hilda-Heinemann-Str.","postalCode":"16515","locality":"Oranienburg","municipality":{"key":"12065256","name":"Oranienburg, Stadt","type":"Stadt"},"district":{"key":"12065","name":"Oberhavel","type":"Landkreis"},"federalState":{"key":"12","name":"Brandenburg"}},{"name":"Hildburghausener Str.","postalCode":"16515","locality":"Oranienburg","municipality":{"key":"12065256","name":"Oranienburg, Stadt","type":"Stadt"},"district":{"key":"12065","name":"Oberhavel","type":"Landkreis"},"federalState":{"key":"12","name":"Brandenburg"}},{"name":"Hilde-Coppi-Weg","postalCode":"16515","locality":"Oranienburg","municipality":{"key":"12065256","name":"Oranienburg, Stadt","type":"Stadt"},"district":{"key":"12065","name":"Oberhavel","type":"Landkreis"},"federalState":{"key":"12","name":"Brandenburg"}},{"name":"Hildegard-Busse-Str.","postalCode":"16515","locality":"Oranienburg","municipality":{"key":"12065256","name":"Oranienburg, Stadt","type":"Stadt"},"district":{"key":"12065","name":"Oberhavel","type":"Landkreis"},"federalState":{"key":"12","name":"Brandenburg"}},{"name":"Hinter dem Schloßpark","postalCode":"16515","locality":"Oranienburg","municipality":{"key":"12065256","name":"Oranienburg, Stadt","type":"Stadt"},"district":{"key":"12065","name":"Oberhavel","type":"Landkreis"},"federalState":{"key":"12","name":"Brandenburg"}},{"name":"Hirschallee","postalCode":"16515","locality":"Oranienburg","municipality":{"key":"12065256","name":"Oranienburg, Stadt","type":"Stadt"},"district":{"key":"12065","name":"Oberhavel","type":"Landkreis"},"federalState":{"key":"12","name":"Brandenburg"}},{"name":"Hirtenweg","postalCode":"16515","locality":"Oranienburg","municipality":{"key":"12065256","name":"Oranienburg, Stadt","type":"Stadt"},"district":{"key":"12065","name":"Oberhavel","type":"Landkreis"},"federalState":{"key":"12","name":"Brandenburg"}},{"name":"Hohenbrucher Str.","postalCode":"16515","locality":"Oranienburg","municipality":{"key":"12065256","name":"Oranienburg, Stadt","type":"Stadt"},"district":{"key":"12065","name":"Oberhavel","type":"Landkreis"},"federalState":{"key":"12","name":"Brandenburg"}},{"name":"Holbeinstr.","postalCode":"16515","locality":"Oranienburg","municipality":{"key":"12065256","name":"Oranienburg, Stadt","type":"Stadt"},"district":{"key":"12065","name":"Oberhavel","type":"Landkreis"},"federalState":{"key":"12","name":"Brandenburg"}},{"name":"Hopfener Weg","postalCode":"16515","locality":"Oranienburg","municipality":{"key":"12065256","name":"Oranienburg, Stadt","type":"Stadt"},"district":{"key":"12065","name":"Oberhavel","type":"Landkreis"},"federalState":{"key":"12","name":"Brandenburg"}},{"name":"Hubertusstr.","postalCode":"16515","locality":"Oranienburg","municipality":{"key":"12065256","name":"Oranienburg, Stadt","type":"Stadt"},"district":{"key":"12065","name":"Oberhavel","type":"Landkreis"},"federalState":{"key":"12","name":"Brandenburg"}},{"name":"Humberstr.","postalCode":"16515","locality":"Oranienburg","municipality":{"key":"12065256","name":"Oranienburg, Stadt","type":"Stadt"},"district":{"key":"12065","name":"Oberhavel","type":"Landkreis"},"federalState":{"key":"12","name":"Brandenburg"}},{"name":"Humperdinckstr.","postalCode":"16515","locality":"Oranienburg","municipality":{"key":"12065256","name":"Oranienburg, Stadt","type":"Stadt"},"district":{"key":"12065","name":"Oberhavel","type":"Landkreis"},"federalState":{"key":"12","name":"Brandenburg"}},{"name":"Ida-Ihle-Str.","postalCode":"16515","locality":"Oranienburg","municipality":{"key":"12065256","name":"Oranienburg, Stadt","type":"Stadt"},"district":{"key":"12065","name":"Oberhavel","type":"Landkreis"},"federalState":{"key":"12","name":"Brandenburg"}},{"name":"Idenstr.","postalCode":"16515","locality":"Oranienburg","municipality":{"key":"12065256","name":"Oranienburg, Stadt","type":"Stadt"},"district":{"key":"12065","name":"Oberhavel","type":"Landkreis"},"federalState":{"key":"12","name":"Brandenburg"}},{"name":"Igelpfad","postalCode":"16515","locality":"Oranienburg","municipality":{"key":"12065256","name":"Oranienburg, Stadt","type":"Stadt"},"district":{"key":"12065","name":"Oberhavel","type":"Landkreis"},"federalState":{"key":"12","name":"Brandenburg"}},{"name":"Illerstr.","postalCode":"16515","locality":"Oranienburg","municipality":{"key":"12065256","name":"Oranienburg, Stadt","type":"Stadt"},"district":{"key":"12065","name":"Oberhavel","type":"Landkreis"},"federalState":{"key":"12","name":"Brandenburg"}},{"name":"Iltisweg","postalCode":"16515","locality":"Oranienburg","municipality":{"key":"12065256","name":"Oranienburg, Stadt","type":"Stadt"},"district":{"key":"12065","name":"Oberhavel","type":"Landkreis"},"federalState":{"key":"12","name":"Brandenburg"}},{"name":"Im Altlande","postalCode":"16515","locality":"Oranienburg","municipality":{"key":"12065256","name":"Oranienburg, Stadt","type":"Stadt"},"district":{"key":"12065","name":"Oberhavel","type":"Landkreis"},"federalState":{"key":"12","name":"Brandenburg"}},{"name":"Im Schmachtenhagener Felde","postalCode":"16515","locality":"Oranienburg","municipality":{"key":"12065256","name":"Oranienburg, Stadt","type":"Stadt"},"district":{"key":"12065","name":"Oberhavel","type":"Landkreis"},"federalState":{"key":"12","name":"Brandenburg"}},{"name":"Im Wensickendorfer Felde","postalCode":"16515","locality":"Oranienburg","municipality":{"key":"12065256","name":"Oranienburg, Stadt","type":"Stadt"},"district":{"key":"12065","name":"Oberhavel","type":"Landkreis"},"federalState":{"key":"12","name":"Brandenburg"}},{"name":"Im Zehlendorfer Felde","postalCode":"16515","locality":"Oranienburg","municipality":{"key":"12065256","name":"Oranienburg, Stadt","type":"Stadt"},"district":{"key":"12065","name":"Oberhavel","type":"Landkreis"},"federalState":{"key":"12","name":"Brandenburg"}},{"name":"Innsbrucker Str.","postalCode":"16515","locality":"Oranienburg","municipality":{"key":"12065256","name":"Oranienburg, Stadt","type":"Stadt"},"district":{"key":"12065","name":"Oberhavel","type":"Landkreis"},"federalState":{"key":"12","name":"Brandenburg"}},{"name":"Innstr.","postalCode":"16515","locality":"Oranienburg","municipality":{"key":"12065256","name":"Oranienburg, Stadt","type":"Stadt"},"district":{"key":"12065","name":"Oberhavel","type":"Landkreis"},"federalState":{"key":"12","name":"Brandenburg"}},{"name":"Inselstr.","postalCode":"16515","locality":"Oranienburg","municipality":{"key":"12065256","name":"Oranienburg, Stadt","type":"Stadt"},"district":{"key":"12065","name":"Oberhavel","type":"Landkreis"},"federalState":{"key":"12","name":"Brandenburg"}},{"name":"Inselweg","postalCode":"16515","locality":"Oranienburg","municipality":{"key":"12065256","name":"Oranienburg, Stadt","type":"Stadt"},"district":{"key":"12065","name":"Oberhavel","type":"Landkreis"},"federalState":{"key":"12","name":"Brandenburg"}},{"name":"Isarstr.","postalCode":"16515","locality":"Oranienburg","municipality":{"key":"12065256","name":"Oranienburg, Stadt","type":"Stadt"},"district":{"key":"12065","name":"Oberhavel","type":"Landkreis"},"federalState":{"key":"12","name":"Brandenburg"}},{"name":"Iserstr.","postalCode":"16515","locality":"Oranienburg","municipality":{"key":"12065256","name":"Oranienburg, Stadt","type":"Stadt"},"district":{"key":"12065","name":"Oberhavel","type":"Landkreis"},"federalState":{"key":"12","name":"Brandenburg"}},{"name":"Jägerstr.","postalCode":"16515","locality":"Oranienburg","municipality":{"key":"12065256","name":"Oranienburg, Stadt","type":"Stadt"},"district":{"key":"12065","name":"Oberhavel","type":"Landkreis"},"federalState":{"key":"12","name":"Brandenburg"}},{"name":"Jenaer Str.","postalCode":"16515","locality":"Oranienburg","municipality":{"key":"12065256","name":"Oranienburg, Stadt","type":"Stadt"},"district":{"key":"12065","name":"Oberhavel","type":"Landkreis"},"federalState":{"key":"12","name":"Brandenburg"}},{"name":"Jette-Bath-Str.","postalCode":"16515","locality":"Oranienburg","municipality":{"key":"12065256","name":"Oranienburg, Stadt","type":"Stadt"},"district":{"key":"12065","name":"Oberhavel","type":"Landkreis"},"federalState":{"key":"12","name":"Brandenburg"}},{"name":"Johannes-Rau-Str.","postalCode":"16515","locality":"Oranienburg","municipality":{"key":"12065256","name":"Oranienburg, Stadt","type":"Stadt"},"district":{"key":"12065","name":"Oberhavel","type":"Landkreis"},"federalState":{"key":"12","name":"Brandenburg"}},{"name":"Johann-Strauß-Str.","postalCode":"16515","locality":"Oranienburg","municipality":{"key":"12065256","name":"Oranienburg, Stadt","type":"Stadt"},"district":{"key":"12065","name":"Oberhavel","type":"Landkreis"},"federalState":{"key":"12","name":"Brandenburg"}},{"name":"Joliot-Curie-Str.","postalCode":"16515","locality":"Oranienburg","municipality":{"key":"12065256","name":"Oranienburg, Stadt","type":"Stadt"},"district":{"key":"12065","name":"Oberhavel","type":"Landkreis"},"federalState":{"key":"12","name":"Brandenburg"}},{"name":"Julius-Leber-Str.","postalCode":"16515","locality":"Oranienburg","municipality":{"key":"12065256","name":"Oranienburg, Stadt","type":"Stadt"},"district":{"key":"12065","name":"Oberhavel","type":"Landkreis"},"federalState":{"key":"12","name":"Brandenburg"}},{"name":"J.-W.-von-Goethe-Str.","postalCode":"16515","locality":"Oranienburg","municipality":{"key":"12065256","name":"Oranienburg, Stadt","type":"Stadt"},"district":{"key":"12065","name":"Oberhavel","type":"Landkreis"},"federalState":{"key":"12","name":"Brandenburg"}},{"name":"Kahlaer Str.","postalCode":"16515","locality":"Oranienburg","municipality":{"key":"12065256","name":"Oranienburg, Stadt","type":"Stadt"},"district":{"key":"12065","name":"Oberhavel","type":"Landkreis"},"federalState":{"key":"12","name":"Brandenburg"}},{"name":"Kanalstr.","postalCode":"16515","locality":"Oranienburg","municipality":{"key":"12065256","name":"Oranienburg, Stadt","type":"Stadt"},"district":{"key":"12065","name":"Oberhavel","type":"Landkreis"},"federalState":{"key":"12","name":"Brandenburg"}},{"name":"Karl-Liebknecht-Str.","postalCode":"16515","locality":"Oranienburg","municipality":{"key":"12065256","name":"Oranienburg, Stadt","type":"Stadt"},"district":{"key":"12065","name":"Oberhavel","type":"Landkreis"},"federalState":{"key":"12","name":"Brandenburg"}},{"name":"Karl-Marx-Platz","postalCode":"16515","locality":"Oranienburg","municipality":{"key":"12065256","name":"Oranienburg, Stadt","type":"Stadt"},"district":{"key":"12065","name":"Oberhavel","type":"Landkreis"},"federalState":{"key":"12","name":"Brandenburg"}},{"name":"Karl-Marx-Str.","postalCode":"16515","locality":"Oranienburg","municipality":{"key":"12065256","name":"Oranienburg, Stadt","type":"Stadt"},"district":{"key":"12065","name":"Oberhavel","type":"Landkreis"},"federalState":{"key":"12","name":"Brandenburg"}},{"name":"Karlstr.","postalCode":"16515","locality":"Oranienburg","municipality":{"key":"12065256","name":"Oranienburg, Stadt","type":"Stadt"},"district":{"key":"12065","name":"Oberhavel","type":"Landkreis"},"federalState":{"key":"12","name":"Brandenburg"}},{"name":"Karl-Willmann-Str.","postalCode":"16515","locality":"Oranienburg","municipality":{"key":"12065256","name":"Oranienburg, Stadt","type":"Stadt"},"district":{"key":"12065","name":"Oberhavel","type":"Landkreis"},"federalState":{"key":"12","name":"Brandenburg"}},{"name":"Kastaniensteig","postalCode":"16515","locality":"Oranienburg","municipality":{"key":"12065256","name":"Oranienburg, Stadt","type":"Stadt"},"district":{"key":"12065","name":"Oberhavel","type":"Landkreis"},"federalState":{"key":"12","name":"Brandenburg"}},{"name":"Kastanienweg","postalCode":"16515","locality":"Oranienburg","municipality":{"key":"12065256","name":"Oranienburg, Stadt","type":"Stadt"},"district":{"key":"12065","name":"Oberhavel","type":"Landkreis"},"federalState":{"key":"12","name":"Brandenburg"}},{"name":"Kavelgraben","postalCode":"16515","locality":"Oranienburg","municipality":{"key":"12065256","name":"Oranienburg, Stadt","type":"Stadt"},"district":{"key":"12065","name":"Oberhavel","type":"Landkreis"},"federalState":{"key":"12","name":"Brandenburg"}},{"name":"Keithstr.","postalCode":"16515","locality":"Oranienburg","municipality":{"key":"12065256","name":"Oranienburg, Stadt","type":"Stadt"},"district":{"key":"12065","name":"Oberhavel","type":"Landkreis"},"federalState":{"key":"12","name":"Brandenburg"}},{"name":"Kiebitzweg","postalCode":"16515","locality":"Oranienburg","municipality":{"key":"12065256","name":"Oranienburg, Stadt","type":"Stadt"},"district":{"key":"12065","name":"Oberhavel","type":"Landkreis"},"federalState":{"key":"12","name":"Brandenburg"}},{"name":"Kiefernstr.","postalCode":"16515","locality":"Oranienburg","municipality":{"key":"12065256","name":"Oranienburg, Stadt","type":"Stadt"},"district":{"key":"12065","name":"Oberhavel","type":"Landkreis"},"federalState":{"key":"12","name":"Brandenburg"}},{"name":"Kiefernweg","postalCode":"16515","locality":"Oranienburg","municipality":{"key":"12065256","name":"Oranienburg, Stadt","type":"Stadt"},"district":{"key":"12065","name":"Oberhavel","type":"Landkreis"},"federalState":{"key":"12","name":"Brandenburg"}},{"name":"Kienitzweg","postalCode":"16515","locality":"Oranienburg","municipality":{"key":"12065256","name":"Oranienburg, Stadt","type":"Stadt"},"district":{"key":"12065","name":"Oberhavel","type":"Landkreis"},"federalState":{"key":"12","name":"Brandenburg"}},{"name":"Kienweg","postalCode":"16515","locality":"Oranienburg","municipality":{"key":"12065256","name":"Oranienburg, Stadt","type":"Stadt"},"district":{"key":"12065","name":"Oberhavel","type":"Landkreis"},"federalState":{"key":"12","name":"Brandenburg"}},{"name":"Kirschallee","postalCode":"16515","locality":"Oranienburg","municipality":{"key":"12065256","name":"Oranienburg, Stadt","type":"Stadt"},"district":{"key":"12065","name":"Oberhavel","type":"Landkreis"},"federalState":{"key":"12","name":"Brandenburg"}},{"name":"Kitzbüheler Str.","postalCode":"16515","locality":"Oranienburg","municipality":{"key":"12065256","name":"Oranienburg, Stadt","type":"Stadt"},"district":{"key":"12065","name":"Oberhavel","type":"Landkreis"},"federalState":{"key":"12","name":"Brandenburg"}},{"name":"Klagenfurter Str.","postalCode":"16515","locality":"Oranienburg","municipality":{"key":"12065256","name":"Oranienburg, Stadt","type":"Stadt"},"district":{"key":"12065","name":"Oberhavel","type":"Landkreis"},"federalState":{"key":"12","name":"Brandenburg"}},{"name":"Kleiner Weg","postalCode":"16515","locality":"Oranienburg","municipality":{"key":"12065256","name":"Oranienburg, Stadt","type":"Stadt"},"district":{"key":"12065","name":"Oberhavel","type":"Landkreis"},"federalState":{"key":"12","name":"Brandenburg"}},{"name":"Kleine Str.","postalCode":"16515","locality":"Oranienburg","municipality":{"key":"12065256","name":"Oranienburg, Stadt","type":"Stadt"},"district":{"key":"12065","name":"Oberhavel","type":"Landkreis"},"federalState":{"key":"12","name":"Brandenburg"}},{"name":"Kleiststr.","postalCode":"16515","locality":"Oranienburg","municipality":{"key":"12065256","name":"Oranienburg, Stadt","type":"Stadt"},"district":{"key":"12065","name":"Oberhavel","type":"Landkreis"},"federalState":{"key":"12","name":"Brandenburg"}},{"name":"Kleistweg","postalCode":"16515","locality":"Oranienburg","municipality":{"key":"12065256","name":"Oranienburg, Stadt","type":"Stadt"},"district":{"key":"12065","name":"Oberhavel","type":"Landkreis"},"federalState":{"key":"12","name":"Brandenburg"}},{"name":"Knausstr.","postalCode":"16515","locality":"Oranienburg","municipality":{"key":"12065256","name":"Oranienburg, Stadt","type":"Stadt"},"district":{"key":"12065","name":"Oberhavel","type":"Landkreis"},"federalState":{"key":"12","name":"Brandenburg"}},{"name":"Koblenzer Str.","postalCode":"16515","locality":"Oranienburg","municipality":{"key":"12065256","name":"Oranienburg, Stadt","type":"Stadt"},"district":{"key":"12065","name":"Oberhavel","type":"Landkreis"},"federalState":{"key":"12","name":"Brandenburg"}},{"name":"Kölner Str.","postalCode":"16515","locality":"Oranienburg","municipality":{"key":"12065256","name":"Oranienburg, Stadt","type":"Stadt"},"district":{"key":"12065","name":"Oberhavel","type":"Landkreis"},"federalState":{"key":"12","name":"Brandenburg"}},{"name":"Kolonie Berg","postalCode":"16515","locality":"Oranienburg","municipality":{"key":"12065256","name":"Oranienburg, Stadt","type":"Stadt"},"district":{"key":"12065","name":"Oberhavel","type":"Landkreis"},"federalState":{"key":"12","name":"Brandenburg"}},{"name":"Koloniestr.","postalCode":"16515","locality":"Oranienburg","municipality":{"key":"12065256","name":"Oranienburg, Stadt","type":"Stadt"},"district":{"key":"12065","name":"Oberhavel","type":"Landkreis"},"federalState":{"key":"12","name":"Brandenburg"}},{"name":"Koppelweg","postalCode":"16515","locality":"Oranienburg","municipality":{"key":"12065256","name":"Oranienburg, Stadt","type":"Stadt"},"district":{"key":"12065","name":"Oberhavel","type":"Landkreis"},"federalState":{"key":"12","name":"Brandenburg"}},{"name":"Körnerweg","postalCode":"16515","locality":"Oranienburg","municipality":{"key":"12065256","name":"Oranienburg, Stadt","type":"Stadt"},"district":{"key":"12065","name":"Oberhavel","type":"Landkreis"},"federalState":{"key":"12","name":"Brandenburg"}},{"name":"Kösener Str.","postalCode":"16515","locality":"Oranienburg","municipality":{"key":"12065256","name":"Oranienburg, Stadt","type":"Stadt"},"district":{"key":"12065","name":"Oberhavel","type":"Landkreis"},"federalState":{"key":"12","name":"Brandenburg"}},{"name":"Krebststr.","postalCode":"16515","locality":"Oranienburg","municipality":{"key":"12065256","name":"Oranienburg, Stadt","type":"Stadt"},"district":{"key":"12065","name":"Oberhavel","type":"Landkreis"},"federalState":{"key":"12","name":"Brandenburg"}},{"name":"Kreckeweg","postalCode":"16515","locality":"Oranienburg","municipality":{"key":"12065256","name":"Oranienburg, Stadt","type":"Stadt"},"district":{"key":"12065","name":"Oberhavel","type":"Landkreis"},"federalState":{"key":"12","name":"Brandenburg"}},{"name":"Kremmener Allee","postalCode":"16515","locality":"Oranienburg","municipality":{"key":"12065256","name":"Oranienburg, Stadt","type":"Stadt"},"district":{"key":"12065","name":"Oberhavel","type":"Landkreis"},"federalState":{"key":"12","name":"Brandenburg"}},{"name":"Kremmener Str.","postalCode":"16515","locality":"Oranienburg","municipality":{"key":"12065256","name":"Oranienburg, Stadt","type":"Stadt"},"district":{"key":"12065","name":"Oberhavel","type":"Landkreis"},"federalState":{"key":"12","name":"Brandenburg"}},{"name":"Kreuzallee","postalCode":"16515","locality":"Oranienburg","municipality":{"key":"12065256","name":"Oranienburg, Stadt","type":"Stadt"},"district":{"key":"12065","name":"Oberhavel","type":"Landkreis"},"federalState":{"key":"12","name":"Brandenburg"}},{"name":"Kreuzbrucher Weg","postalCode":"16515","locality":"Oranienburg","municipality":{"key":"12065256","name":"Oranienburg, Stadt","type":"Stadt"},"district":{"key":"12065","name":"Oberhavel","type":"Landkreis"},"federalState":{"key":"12","name":"Brandenburg"}},{"name":"Kuckuckstr.","postalCode":"16515","locality":"Oranienburg","municipality":{"key":"12065256","name":"Oranienburg, Stadt","type":"Stadt"},"district":{"key":"12065","name":"Oberhavel","type":"Landkreis"},"federalState":{"key":"12","name":"Brandenburg"}},{"name":"Kuckucksweg","postalCode":"16515","locality":"Oranienburg","municipality":{"key":"12065256","name":"Oranienburg, Stadt","type":"Stadt"},"district":{"key":"12065","name":"Oberhavel","type":"Landkreis"},"federalState":{"key":"12","name":"Brandenburg"}},{"name":"Kufsteiner Str.","postalCode":"16515","locality":"Oranienburg","municipality":{"key":"12065256","name":"Oranienburg, Stadt","type":"Stadt"},"district":{"key":"12065","name":"Oberhavel","type":"Landkreis"},"federalState":{"key":"12","name":"Brandenburg"}},{"name":"Kuhbrücke","postalCode":"16515","locality":"Oranienburg","municipality":{"key":"12065256","name":"Oranienburg, Stadt","type":"Stadt"},"district":{"key":"12065","name":"Oberhavel","type":"Landkreis"},"federalState":{"key":"12","name":"Brandenburg"}},{"name":"Kuhbrückenweg","postalCode":"16515","locality":"Oranienburg","municipality":{"key":"12065256","name":"Oranienburg, Stadt","type":"Stadt"},"district":{"key":"12065","name":"Oberhavel","type":"Landkreis"},"federalState":{"key":"12","name":"Brandenburg"}},{"name":"Kurfürstenstr.","postalCode":"16515","locality":"Oranienburg","municipality":{"key":"12065256","name":"Oranienburg, Stadt","type":"Stadt"},"district":{"key":"12065","name":"Oberhavel","type":"Landkreis"},"federalState":{"key":"12","name":"Brandenburg"}},{"name":"Kurzer Weg","postalCode":"16515","locality":"Oranienburg","municipality":{"key":"12065256","name":"Oranienburg, Stadt","type":"Stadt"},"district":{"key":"12065","name":"Oberhavel","type":"Landkreis"},"federalState":{"key":"12","name":"Brandenburg"}},{"name":"Kurze Str.","postalCode":"16515","locality":"Oranienburg","municipality":{"key":"12065256","name":"Oranienburg, Stadt","type":"Stadt"},"district":{"key":"12065","name":"Oberhavel","type":"Landkreis"},"federalState":{"key":"12","name":"Brandenburg"}},{"name":"Lahnstr.","postalCode":"16515","locality":"Oranienburg","municipality":{"key":"12065256","name":"Oranienburg, Stadt","type":"Stadt"},"district":{"key":"12065","name":"Oberhavel","type":"Landkreis"},"federalState":{"key":"12","name":"Brandenburg"}},{"name":"Lärchenweg","postalCode":"16515","locality":"Oranienburg","municipality":{"key":"12065256","name":"Oranienburg, Stadt","type":"Stadt"},"district":{"key":"12065","name":"Oberhavel","type":"Landkreis"},"federalState":{"key":"12","name":"Brandenburg"}},{"name":"Leharstr.","postalCode":"16515","locality":"Oranienburg","municipality":{"key":"12065256","name":"Oranienburg, Stadt","type":"Stadt"},"district":{"key":"12065","name":"Oberhavel","type":"Landkreis"},"federalState":{"key":"12","name":"Brandenburg"}},{"name":"Lehnitzer Str.","postalCode":"16515","locality":"Oranienburg","municipality":{"key":"12065256","name":"Oranienburg, Stadt","type":"Stadt"},"district":{"key":"12065","name":"Oberhavel","type":"Landkreis"},"federalState":{"key":"12","name":"Brandenburg"}},{"name":"Lehnitzschleuse","postalCode":"16515","locality":"Oranienburg","municipality":{"key":"12065256","name":"Oranienburg, Stadt","type":"Stadt"},"district":{"key":"12065","name":"Oberhavel","type":"Landkreis"},"federalState":{"key":"12","name":"Brandenburg"}},{"name":"Lehnitzstr.","postalCode":"16515","locality":"Oranienburg","municipality":{"key":"12065256","name":"Oranienburg, Stadt","type":"Stadt"},"district":{"key":"12065","name":"Oberhavel","type":"Landkreis"},"federalState":{"key":"12","name":"Brandenburg"}},{"name":"Lerchensteg","postalCode":"16515","locality":"Oranienburg","municipality":{"key":"12065256","name":"Oranienburg, Stadt","type":"Stadt"},"district":{"key":"12065","name":"Oberhavel","type":"Landkreis"},"federalState":{"key":"12","name":"Brandenburg"}},{"name":"Lerchenstr.","postalCode":"16515","locality":"Oranienburg","municipality":{"key":"12065256","name":"Oranienburg, Stadt","type":"Stadt"},"district":{"key":"12065","name":"Oberhavel","type":"Landkreis"},"federalState":{"key":"12","name":"Brandenburg"}},{"name":"Lerchenweg","postalCode":"16515","locality":"Oranienburg","municipality":{"key":"12065256","name":"Oranienburg, Stadt","type":"Stadt"},"district":{"key":"12065","name":"Oberhavel","type":"Landkreis"},"federalState":{"key":"12","name":"Brandenburg"}},{"name":"Lessingallee","postalCode":"16515","locality":"Oranienburg","municipality":{"key":"12065256","name":"Oranienburg, Stadt","type":"Stadt"},"district":{"key":"12065","name":"Oberhavel","type":"Landkreis"},"federalState":{"key":"12","name":"Brandenburg"}},{"name":"Lessingstr.","postalCode":"16515","locality":"Oranienburg","municipality":{"key":"12065256","name":"Oranienburg, Stadt","type":"Stadt"},"district":{"key":"12065","name":"Oberhavel","type":"Landkreis"},"federalState":{"key":"12","name":"Brandenburg"}},{"name":"Leuschweg","postalCode":"16515","locality":"Oranienburg","municipality":{"key":"12065256","name":"Oranienburg, Stadt","type":"Stadt"},"district":{"key":"12065","name":"Oberhavel","type":"Landkreis"},"federalState":{"key":"12","name":"Brandenburg"}},{"name":"Lichtweg","postalCode":"16515","locality":"Oranienburg","municipality":{"key":"12065256","name":"Oranienburg, Stadt","type":"Stadt"},"district":{"key":"12065","name":"Oberhavel","type":"Landkreis"},"federalState":{"key":"12","name":"Brandenburg"}},{"name":"Liebenwalder Str.","postalCode":"16515","locality":"Oranienburg","municipality":{"key":"12065256","name":"Oranienburg, Stadt","type":"Stadt"},"district":{"key":"12065","name":"Oberhavel","type":"Landkreis"},"federalState":{"key":"12","name":"Brandenburg"}},{"name":"Liebigstr.","postalCode":"16515","locality":"Oranienburg","municipality":{"key":"12065256","name":"Oranienburg, Stadt","type":"Stadt"},"district":{"key":"12065","name":"Oberhavel","type":"Landkreis"},"federalState":{"key":"12","name":"Brandenburg"}},{"name":"Liegewiese","postalCode":"16515","locality":"Oranienburg","municipality":{"key":"12065256","name":"Oranienburg, Stadt","type":"Stadt"},"district":{"key":"12065","name":"Oberhavel","type":"Landkreis"},"federalState":{"key":"12","name":"Brandenburg"}},{"name":"Lilienweg","postalCode":"16515","locality":"Oranienburg","municipality":{"key":"12065256","name":"Oranienburg, Stadt","type":"Stadt"},"district":{"key":"12065","name":"Oberhavel","type":"Landkreis"},"federalState":{"key":"12","name":"Brandenburg"}},{"name":"Lindenallee","postalCode":"16515","locality":"Oranienburg","municipality":{"key":"12065256","name":"Oranienburg, Stadt","type":"Stadt"},"district":{"key":"12065","name":"Oberhavel","type":"Landkreis"},"federalState":{"key":"12","name":"Brandenburg"}},{"name":"Lindenring","postalCode":"16515","locality":"Oranienburg","municipality":{"key":"12065256","name":"Oranienburg, Stadt","type":"Stadt"},"district":{"key":"12065","name":"Oberhavel","type":"Landkreis"},"federalState":{"key":"12","name":"Brandenburg"}},{"name":"Lindensteig","postalCode":"16515","locality":"Oranienburg","municipality":{"key":"12065256","name":"Oranienburg, Stadt","type":"Stadt"},"district":{"key":"12065","name":"Oberhavel","type":"Landkreis"},"federalState":{"key":"12","name":"Brandenburg"}},{"name":"Lindenstr.","postalCode":"16515","locality":"Oranienburg","municipality":{"key":"12065256","name":"Oranienburg, Stadt","type":"Stadt"},"district":{"key":"12065","name":"Oberhavel","type":"Landkreis"},"federalState":{"key":"12","name":"Brandenburg"}},{"name":"Lindenweg","postalCode":"16515","locality":"Oranienburg","municipality":{"key":"12065256","name":"Oranienburg, Stadt","type":"Stadt"},"district":{"key":"12065","name":"Oberhavel","type":"Landkreis"},"federalState":{"key":"12","name":"Brandenburg"}},{"name":"Lippestr.","postalCode":"16515","locality":"Oranienburg","municipality":{"key":"12065256","name":"Oranienburg, Stadt","type":"Stadt"},"district":{"key":"12065","name":"Oberhavel","type":"Landkreis"},"federalState":{"key":"12","name":"Brandenburg"}},{"name":"Lisztstr.","postalCode":"16515","locality":"Oranienburg","municipality":{"key":"12065256","name":"Oranienburg, Stadt","type":"Stadt"},"district":{"key":"12065","name":"Oberhavel","type":"Landkreis"},"federalState":{"key":"12","name":"Brandenburg"}},{"name":"Lönsweg","postalCode":"16515","locality":"Oranienburg","municipality":{"key":"12065256","name":"Oranienburg, Stadt","type":"Stadt"},"district":{"key":"12065","name":"Oberhavel","type":"Landkreis"},"federalState":{"key":"12","name":"Brandenburg"}},{"name":"Lortzingstr.","postalCode":"16515","locality":"Oranienburg","municipality":{"key":"12065256","name":"Oranienburg, Stadt","type":"Stadt"},"district":{"key":"12065","name":"Oberhavel","type":"Landkreis"},"federalState":{"key":"12","name":"Brandenburg"}},{"name":"Louise-Henriette-Steg","postalCode":"16515","locality":"Oranienburg","municipality":{"key":"12065256","name":"Oranienburg, Stadt","type":"Stadt"},"district":{"key":"12065","name":"Oberhavel","type":"Landkreis"},"federalState":{"key":"12","name":"Brandenburg"}},{"name":"Lubowseeweg","postalCode":"16515","locality":"Oranienburg","municipality":{"key":"12065256","name":"Oranienburg, Stadt","type":"Stadt"},"district":{"key":"12065","name":"Oberhavel","type":"Landkreis"},"federalState":{"key":"12","name":"Brandenburg"}},{"name":"Luchgartenweg","postalCode":"16515","locality":"Oranienburg","municipality":{"key":"12065256","name":"Oranienburg, Stadt","type":"Stadt"},"district":{"key":"12065","name":"Oberhavel","type":"Landkreis"},"federalState":{"key":"12","name":"Brandenburg"}},{"name":"Luchsweg","postalCode":"16515","locality":"Oranienburg","municipality":{"key":"12065256","name":"Oranienburg, Stadt","type":"Stadt"},"district":{"key":"12065","name":"Oberhavel","type":"Landkreis"},"federalState":{"key":"12","name":"Brandenburg"}},{"name":"Luchweg","postalCode":"16515","locality":"Oranienburg","municipality":{"key":"12065256","name":"Oranienburg, Stadt","type":"Stadt"},"district":{"key":"12065","name":"Oberhavel","type":"Landkreis"},"federalState":{"key":"12","name":"Brandenburg"}},{"name":"Ludwigshafener Str.","postalCode":"16515","locality":"Oranienburg","municipality":{"key":"12065256","name":"Oranienburg, Stadt","type":"Stadt"},"district":{"key":"12065","name":"Oberhavel","type":"Landkreis"},"federalState":{"key":"12","name":"Brandenburg"}},{"name":"Luisenstr.","postalCode":"16515","locality":"Oranienburg","municipality":{"key":"12065256","name":"Oranienburg, Stadt","type":"Stadt"},"district":{"key":"12065","name":"Oberhavel","type":"Landkreis"},"federalState":{"key":"12","name":"Brandenburg"}},{"name":"Luisenweg","postalCode":"16515","locality":"Oranienburg","municipality":{"key":"12065256","name":"Oranienburg, Stadt","type":"Stadt"},"district":{"key":"12065","name":"Oberhavel","type":"Landkreis"},"federalState":{"key":"12","name":"Brandenburg"}},{"name":"Magnus-Hirschfeld-Str.","postalCode":"16515","locality":"Oranienburg","municipality":{"key":"12065256","name":"Oranienburg, Stadt","type":"Stadt"},"district":{"key":"12065","name":"Oberhavel","type":"Landkreis"},"federalState":{"key":"12","name":"Brandenburg"}},{"name":"Maiglöckchenweg","postalCode":"16515","locality":"Oranienburg","municipality":{"key":"12065256","name":"Oranienburg, Stadt","type":"Stadt"},"district":{"key":"12065","name":"Oberhavel","type":"Landkreis"},"federalState":{"key":"12","name":"Brandenburg"}},{"name":"Mainstr.","postalCode":"16515","locality":"Oranienburg","municipality":{"key":"12065256","name":"Oranienburg, Stadt","type":"Stadt"},"district":{"key":"12065","name":"Oberhavel","type":"Landkreis"},"federalState":{"key":"12","name":"Brandenburg"}},{"name":"Mainzer Str.","postalCode":"16515","locality":"Oranienburg","municipality":{"key":"12065256","name":"Oranienburg, Stadt","type":"Stadt"},"district":{"key":"12065","name":"Oberhavel","type":"Landkreis"},"federalState":{"key":"12","name":"Brandenburg"}},{"name":"Malzer Chaussee","postalCode":"16515","locality":"Oranienburg","municipality":{"key":"12065256","name":"Oranienburg, Stadt","type":"Stadt"},"district":{"key":"12065","name":"Oberhavel","type":"Landkreis"},"federalState":{"key":"12","name":"Brandenburg"}},{"name":"Malzer Dorfstr.","postalCode":"16515","locality":"Oranienburg","municipality":{"key":"12065256","name":"Oranienburg, Stadt","type":"Stadt"},"district":{"key":"12065","name":"Oberhavel","type":"Landkreis"},"federalState":{"key":"12","name":"Brandenburg"}},{"name":"Malzer Wald","postalCode":"16515","locality":"Oranienburg","municipality":{"key":"12065256","name":"Oranienburg, Stadt","type":"Stadt"},"district":{"key":"12065","name":"Oberhavel","type":"Landkreis"},"federalState":{"key":"12","name":"Brandenburg"}},{"name":"Malzer Weg","postalCode":"16515","locality":"Oranienburg","municipality":{"key":"12065256","name":"Oranienburg, Stadt","type":"Stadt"},"district":{"key":"12065","name":"Oberhavel","type":"Landkreis"},"federalState":{"key":"12","name":"Brandenburg"}},{"name":"Mannheimer Str.","postalCode":"16515","locality":"Oranienburg","municipality":{"key":"12065256","name":"Oranienburg, Stadt","type":"Stadt"},"district":{"key":"12065","name":"Oberhavel","type":"Landkreis"},"federalState":{"key":"12","name":"Brandenburg"}},{"name":"Marderweg","postalCode":"16515","locality":"Oranienburg","municipality":{"key":"12065256","name":"Oranienburg, Stadt","type":"Stadt"},"district":{"key":"12065","name":"Oberhavel","type":"Landkreis"},"federalState":{"key":"12","name":"Brandenburg"}},{"name":"Margeritenweg","postalCode":"16515","locality":"Oranienburg","municipality":{"key":"12065256","name":"Oranienburg, Stadt","type":"Stadt"},"district":{"key":"12065","name":"Oberhavel","type":"Landkreis"},"federalState":{"key":"12","name":"Brandenburg"}},{"name":"Marie-Bieber-Str.","postalCode":"16515","locality":"Oranienburg","municipality":{"key":"12065256","name":"Oranienburg, Stadt","type":"Stadt"},"district":{"key":"12065","name":"Oberhavel","type":"Landkreis"},"federalState":{"key":"12","name":"Brandenburg"}},{"name":"Maronenweg","postalCode":"16515","locality":"Oranienburg","municipality":{"key":"12065256","name":"Oranienburg, Stadt","type":"Stadt"},"district":{"key":"12065","name":"Oberhavel","type":"Landkreis"},"federalState":{"key":"12","name":"Brandenburg"}},{"name":"Martin-Luther-Str.","postalCode":"16515","locality":"Oranienburg","municipality":{"key":"12065256","name":"Oranienburg, Stadt","type":"Stadt"},"district":{"key":"12065","name":"Oberhavel","type":"Landkreis"},"federalState":{"key":"12","name":"Brandenburg"}},{"name":"Mathias-Thesen-Str.","postalCode":"16515","locality":"Oranienburg","municipality":{"key":"12065256","name":"Oranienburg, Stadt","type":"Stadt"},"district":{"key":"12065","name":"Oberhavel","type":"Landkreis"},"federalState":{"key":"12","name":"Brandenburg"}},{"name":"Meininger Str.","postalCode":"16515","locality":"Oranienburg","municipality":{"key":"12065256","name":"Oranienburg, Stadt","type":"Stadt"},"district":{"key":"12065","name":"Oberhavel","type":"Landkreis"},"federalState":{"key":"12","name":"Brandenburg"}},{"name":"Meisensteg","postalCode":"16515","locality":"Oranienburg","municipality":{"key":"12065256","name":"Oranienburg, Stadt","type":"Stadt"},"district":{"key":"12065","name":"Oberhavel","type":"Landkreis"},"federalState":{"key":"12","name":"Brandenburg"}},{"name":"Meisensteig","postalCode":"16515","locality":"Oranienburg","municipality":{"key":"12065256","name":"Oranienburg, Stadt","type":"Stadt"},"district":{"key":"12065","name":"Oberhavel","type":"Landkreis"},"federalState":{"key":"12","name":"Brandenburg"}},{"name":"Meisenweg","postalCode":"16515","locality":"Oranienburg","municipality":{"key":"12065256","name":"Oranienburg, Stadt","type":"Stadt"},"district":{"key":"12065","name":"Oberhavel","type":"Landkreis"},"federalState":{"key":"12","name":"Brandenburg"}},{"name":"Melanchthonstr.","postalCode":"16515","locality":"Oranienburg","municipality":{"key":"12065256","name":"Oranienburg, Stadt","type":"Stadt"},"district":{"key":"12065","name":"Oberhavel","type":"Landkreis"},"federalState":{"key":"12","name":"Brandenburg"}},{"name":"Melniker Str.","postalCode":"16515","locality":"Oranienburg","municipality":{"key":"12065256","name":"Oranienburg, Stadt","type":"Stadt"},"district":{"key":"12065","name":"Oberhavel","type":"Landkreis"},"federalState":{"key":"12","name":"Brandenburg"}},{"name":"Memelstr.","postalCode":"16515","locality":"Oranienburg","municipality":{"key":"12065256","name":"Oranienburg, Stadt","type":"Stadt"},"district":{"key":"12065","name":"Oberhavel","type":"Landkreis"},"federalState":{"key":"12","name":"Brandenburg"}},{"name":"Memhardtweg","postalCode":"16515","locality":"Oranienburg","municipality":{"key":"12065256","name":"Oranienburg, Stadt","type":"Stadt"},"district":{"key":"12065","name":"Oberhavel","type":"Landkreis"},"federalState":{"key":"12","name":"Brandenburg"}},{"name":"Mendelssohnstr.","postalCode":"16515","locality":"Oranienburg","municipality":{"key":"12065256","name":"Oranienburg, Stadt","type":"Stadt"},"district":{"key":"12065","name":"Oberhavel","type":"Landkreis"},"federalState":{"key":"12","name":"Brandenburg"}},{"name":"Menzelstr.","postalCode":"16515","locality":"Oranienburg","municipality":{"key":"12065256","name":"Oranienburg, Stadt","type":"Stadt"},"district":{"key":"12065","name":"Oberhavel","type":"Landkreis"},"federalState":{"key":"12","name":"Brandenburg"}},{"name":"Mierendorffstr.","postalCode":"16515","locality":"Oranienburg","municipality":{"key":"12065256","name":"Oranienburg, Stadt","type":"Stadt"},"district":{"key":"12065","name":"Oberhavel","type":"Landkreis"},"federalState":{"key":"12","name":"Brandenburg"}},{"name":"Millöckerweg","postalCode":"16515","locality":"Oranienburg","municipality":{"key":"12065256","name":"Oranienburg, Stadt","type":"Stadt"},"district":{"key":"12065","name":"Oberhavel","type":"Landkreis"},"federalState":{"key":"12","name":"Brandenburg"}},{"name":"Minibike","postalCode":"16515","locality":"Oranienburg","municipality":{"key":"12065256","name":"Oranienburg, Stadt","type":"Stadt"},"district":{"key":"12065","name":"Oberhavel","type":"Landkreis"},"federalState":{"key":"12","name":"Brandenburg"}},{"name":"Mittelstr.","postalCode":"16515","locality":"Oranienburg","municipality":{"key":"12065256","name":"Oranienburg, Stadt","type":"Stadt"},"district":{"key":"12065","name":"Oberhavel","type":"Landkreis"},"federalState":{"key":"12","name":"Brandenburg"}},{"name":"Mittelweg","postalCode":"16515","locality":"Oranienburg","municipality":{"key":"12065256","name":"Oranienburg, Stadt","type":"Stadt"},"district":{"key":"12065","name":"Oberhavel","type":"Landkreis"},"federalState":{"key":"12","name":"Brandenburg"}},{"name":"Mittlere Str.","postalCode":"16515","locality":"Oranienburg","municipality":{"key":"12065256","name":"Oranienburg, Stadt","type":"Stadt"},"district":{"key":"12065","name":"Oberhavel","type":"Landkreis"},"federalState":{"key":"12","name":"Brandenburg"}},{"name":"Morchelweg","postalCode":"16515","locality":"Oranienburg","municipality":{"key":"12065256","name":"Oranienburg, Stadt","type":"Stadt"},"district":{"key":"12065","name":"Oberhavel","type":"Landkreis"},"federalState":{"key":"12","name":"Brandenburg"}},{"name":"Mörikeweg","postalCode":"16515","locality":"Oranienburg","municipality":{"key":"12065256","name":"Oranienburg, Stadt","type":"Stadt"},"district":{"key":"12065","name":"Oberhavel","type":"Landkreis"},"federalState":{"key":"12","name":"Brandenburg"}},{"name":"Moselstr.","postalCode":"16515","locality":"Oranienburg","municipality":{"key":"12065256","name":"Oranienburg, Stadt","type":"Stadt"},"district":{"key":"12065","name":"Oberhavel","type":"Landkreis"},"federalState":{"key":"12","name":"Brandenburg"}},{"name":"Mozartstr.","postalCode":"16515","locality":"Oranienburg","municipality":{"key":"12065256","name":"Oranienburg, Stadt","type":"Stadt"},"district":{"key":"12065","name":"Oberhavel","type":"Landkreis"},"federalState":{"key":"12","name":"Brandenburg"}},{"name":"Mühlenbecker Weg","postalCode":"16515","locality":"Oranienburg","municipality":{"key":"12065256","name":"Oranienburg, Stadt","type":"Stadt"},"district":{"key":"12065","name":"Oberhavel","type":"Landkreis"},"federalState":{"key":"12","name":"Brandenburg"}},{"name":"Mühlenfeld","postalCode":"16515","locality":"Oranienburg","municipality":{"key":"12065256","name":"Oranienburg, Stadt","type":"Stadt"},"district":{"key":"12065","name":"Oberhavel","type":"Landkreis"},"federalState":{"key":"12","name":"Brandenburg"}},{"name":"Mühlensteig","postalCode":"16515","locality":"Oranienburg","municipality":{"key":"12065256","name":"Oranienburg, Stadt","type":"Stadt"},"district":{"key":"12065","name":"Oberhavel","type":"Landkreis"},"federalState":{"key":"12","name":"Brandenburg"}},{"name":"Mühlenstr.","postalCode":"16515","locality":"Oranienburg","municipality":{"key":"12065256","name":"Oranienburg, Stadt","type":"Stadt"},"district":{"key":"12065","name":"Oberhavel","type":"Landkreis"},"federalState":{"key":"12","name":"Brandenburg"}},{"name":"Mühlenweg","postalCode":"16515","locality":"Oranienburg","municipality":{"key":"12065256","name":"Oranienburg, Stadt","type":"Stadt"},"district":{"key":"12065","name":"Oberhavel","type":"Landkreis"},"federalState":{"key":"12","name":"Brandenburg"}},{"name":"Mühlhausener Str.","postalCode":"16515","locality":"Oranienburg","municipality":{"key":"12065256","name":"Oranienburg, Stadt","type":"Stadt"},"district":{"key":"12065","name":"Oberhavel","type":"Landkreis"},"federalState":{"key":"12","name":"Brandenburg"}},{"name":"Muldestr.","postalCode":"16515","locality":"Oranienburg","municipality":{"key":"12065256","name":"Oranienburg, Stadt","type":"Stadt"},"district":{"key":"12065","name":"Oberhavel","type":"Landkreis"},"federalState":{"key":"12","name":"Brandenburg"}},{"name":"Nachtigallstr.","postalCode":"16515","locality":"Oranienburg","municipality":{"key":"12065256","name":"Oranienburg, Stadt","type":"Stadt"},"district":{"key":"12065","name":"Oberhavel","type":"Landkreis"},"federalState":{"key":"12","name":"Brandenburg"}},{"name":"Nahestr.","postalCode":"16515","locality":"Oranienburg","municipality":{"key":"12065256","name":"Oranienburg, Stadt","type":"Stadt"},"district":{"key":"12065","name":"Oberhavel","type":"Landkreis"},"federalState":{"key":"12","name":"Brandenburg"}},{"name":"Narzissenweg","postalCode":"16515","locality":"Oranienburg","municipality":{"key":"12065256","name":"Oranienburg, Stadt","type":"Stadt"},"district":{"key":"12065","name":"Oberhavel","type":"Landkreis"},"federalState":{"key":"12","name":"Brandenburg"}},{"name":"Nassenheider Weg","postalCode":"16515","locality":"Oranienburg","municipality":{"key":"12065256","name":"Oranienburg, Stadt","type":"Stadt"},"district":{"key":"12065","name":"Oberhavel","type":"Landkreis"},"federalState":{"key":"12","name":"Brandenburg"}},{"name":"Naturlehrpfad","postalCode":"16515","locality":"Oranienburg","municipality":{"key":"12065256","name":"Oranienburg, Stadt","type":"Stadt"},"district":{"key":"12065","name":"Oberhavel","type":"Landkreis"},"federalState":{"key":"12","name":"Brandenburg"}},{"name":"Nauener Str.","postalCode":"16515","locality":"Oranienburg","municipality":{"key":"12065256","name":"Oranienburg, Stadt","type":"Stadt"},"district":{"key":"12065","name":"Oberhavel","type":"Landkreis"},"federalState":{"key":"12","name":"Brandenburg"}},{"name":"Naumburger Str.","postalCode":"16515","locality":"Oranienburg","municipality":{"key":"12065256","name":"Oranienburg, Stadt","type":"Stadt"},"district":{"key":"12065","name":"Oberhavel","type":"Landkreis"},"federalState":{"key":"12","name":"Brandenburg"}},{"name":"Neckarstr.","postalCode":"16515","locality":"Oranienburg","municipality":{"key":"12065256","name":"Oranienburg, Stadt","type":"Stadt"},"district":{"key":"12065","name":"Oberhavel","type":"Landkreis"},"federalState":{"key":"12","name":"Brandenburg"}},{"name":"Neißestr.","postalCode":"16515","locality":"Oranienburg","municipality":{"key":"12065256","name":"Oranienburg, Stadt","type":"Stadt"},"district":{"key":"12065","name":"Oberhavel","type":"Landkreis"},"federalState":{"key":"12","name":"Brandenburg"}},{"name":"Nelkensteig","postalCode":"16515","locality":"Oranienburg","municipality":{"key":"12065256","name":"Oranienburg, Stadt","type":"Stadt"},"district":{"key":"12065","name":"Oberhavel","type":"Landkreis"},"federalState":{"key":"12","name":"Brandenburg"}},{"name":"Nelkenweg","postalCode":"16515","locality":"Oranienburg","municipality":{"key":"12065256","name":"Oranienburg, Stadt","type":"Stadt"},"district":{"key":"12065","name":"Oberhavel","type":"Landkreis"},"federalState":{"key":"12","name":"Brandenburg"}},{"name":"Neptunstr.","postalCode":"16515","locality":"Oranienburg","municipality":{"key":"12065256","name":"Oranienburg, Stadt","type":"Stadt"},"district":{"key":"12065","name":"Oberhavel","type":"Landkreis"},"federalState":{"key":"12","name":"Brandenburg"}},{"name":"Neringstr.","postalCode":"16515","locality":"Oranienburg","municipality":{"key":"12065256","name":"Oranienburg, Stadt","type":"Stadt"},"district":{"key":"12065","name":"Oberhavel","type":"Landkreis"},"federalState":{"key":"12","name":"Brandenburg"}},{"name":"Nerzweg","postalCode":"16515","locality":"Oranienburg","municipality":{"key":"12065256","name":"Oranienburg, Stadt","type":"Stadt"},"district":{"key":"12065","name":"Oberhavel","type":"Landkreis"},"federalState":{"key":"12","name":"Brandenburg"}},{"name":"Netzestr.","postalCode":"16515","locality":"Oranienburg","municipality":{"key":"12065256","name":"Oranienburg, Stadt","type":"Stadt"},"district":{"key":"12065","name":"Oberhavel","type":"Landkreis"},"federalState":{"key":"12","name":"Brandenburg"}},{"name":"Neuer Weg","postalCode":"16515","locality":"Oranienburg","municipality":{"key":"12065256","name":"Oranienburg, Stadt","type":"Stadt"},"district":{"key":"12065","name":"Oberhavel","type":"Landkreis"},"federalState":{"key":"12","name":"Brandenburg"}},{"name":"Neuholländer Weg","postalCode":"16515","locality":"Oranienburg","municipality":{"key":"12065256","name":"Oranienburg, Stadt","type":"Stadt"},"district":{"key":"12065","name":"Oberhavel","type":"Landkreis"},"federalState":{"key":"12","name":"Brandenburg"}},{"name":"Neukirchener Str.","postalCode":"16515","locality":"Oranienburg","municipality":{"key":"12065256","name":"Oranienburg, Stadt","type":"Stadt"},"district":{"key":"12065","name":"Oberhavel","type":"Landkreis"},"federalState":{"key":"12","name":"Brandenburg"}},{"name":"Neuruppiner Str.","postalCode":"16515","locality":"Oranienburg","municipality":{"key":"12065256","name":"Oranienburg, Stadt","type":"Stadt"},"district":{"key":"12065","name":"Oberhavel","type":"Landkreis"},"federalState":{"key":"12","name":"Brandenburg"}},{"name":"Niemöllerstr.","postalCode":"16515","locality":"Oranienburg","municipality":{"key":"12065256","name":"Oranienburg, Stadt","type":"Stadt"},"district":{"key":"12065","name":"Oberhavel","type":"Landkreis"},"federalState":{"key":"12","name":"Brandenburg"}},{"name":"Nordweg","postalCode":"16515","locality":"Oranienburg","municipality":{"key":"12065256","name":"Oranienburg, Stadt","type":"Stadt"},"district":{"key":"12065","name":"Oberhavel","type":"Landkreis"},"federalState":{"key":"12","name":"Brandenburg"}},{"name":"Nutriaweg","postalCode":"16515","locality":"Oranienburg","municipality":{"key":"12065256","name":"Oranienburg, Stadt","type":"Stadt"},"district":{"key":"12065","name":"Oberhavel","type":"Landkreis"},"federalState":{"key":"12","name":"Brandenburg"}},{"name":"Oberhofer Str.","postalCode":"16515","locality":"Oranienburg","municipality":{"key":"12065256","name":"Oranienburg, Stadt","type":"Stadt"},"district":{"key":"12065","name":"Oberhavel","type":"Landkreis"},"federalState":{"key":"12","name":"Brandenburg"}},{"name":"Oberkrämerweg","postalCode":"16515","locality":"Oranienburg","municipality":{"key":"12065256","name":"Oranienburg, Stadt","type":"Stadt"},"district":{"key":"12065","name":"Oberhavel","type":"Landkreis"},"federalState":{"key":"12","name":"Brandenburg"}},{"name":"Oder-Havel-Kanal","postalCode":"16515","locality":"Oranienburg","municipality":{"key":"12065256","name":"Oranienburg, Stadt","type":"Stadt"},"district":{"key":"12065","name":"Oberhavel","type":"Landkreis"},"federalState":{"key":"12","name":"Brandenburg"}},{"name":"Oderstr.","postalCode":"16515","locality":"Oranienburg","municipality":{"key":"12065256","name":"Oranienburg, Stadt","type":"Stadt"},"district":{"key":"12065","name":"Oberhavel","type":"Landkreis"},"federalState":{"key":"12","name":"Brandenburg"}},{"name":"Oelschlägerstr.","postalCode":"16515","locality":"Oranienburg","municipality":{"key":"12065256","name":"Oranienburg, Stadt","type":"Stadt"},"district":{"key":"12065","name":"Oberhavel","type":"Landkreis"},"federalState":{"key":"12","name":"Brandenburg"}},{"name":"Ohrastr.","postalCode":"16515","locality":"Oranienburg","municipality":{"key":"12065256","name":"Oranienburg, Stadt","type":"Stadt"},"district":{"key":"12065","name":"Oberhavel","type":"Landkreis"},"federalState":{"key":"12","name":"Brandenburg"}},{"name":"Okerstr.","postalCode":"16515","locality":"Oranienburg","municipality":{"key":"12065256","name":"Oranienburg, Stadt","type":"Stadt"},"district":{"key":"12065","name":"Oberhavel","type":"Landkreis"},"federalState":{"key":"12","name":"Brandenburg"}},{"name":"Olof-Palme-Str.","postalCode":"16515","locality":"Oranienburg","municipality":{"key":"12065256","name":"Oranienburg, Stadt","type":"Stadt"},"district":{"key":"12065","name":"Oberhavel","type":"Landkreis"},"federalState":{"key":"12","name":"Brandenburg"}},{"name":"Orafolstr.","postalCode":"16515","locality":"Oranienburg","municipality":{"key":"12065256","name":"Oranienburg, Stadt","type":"Stadt"},"district":{"key":"12065","name":"Oberhavel","type":"Landkreis"},"federalState":{"key":"12","name":"Brandenburg"}},{"name":"Oraniaweg","postalCode":"16515","locality":"Oranienburg","municipality":{"key":"12065256","name":"Oranienburg, Stadt","type":"Stadt"},"district":{"key":"12065","name":"Oberhavel","type":"Landkreis"},"federalState":{"key":"12","name":"Brandenburg"}},{"name":"Oranienburger Chaussee","postalCode":"16515","locality":"Oranienburg","municipality":{"key":"12065256","name":"Oranienburg, Stadt","type":"Stadt"},"district":{"key":"12065","name":"Oberhavel","type":"Landkreis"},"federalState":{"key":"12","name":"Brandenburg"}},{"name":"Oranienburger Str.","postalCode":"16515","locality":"Oranienburg","municipality":{"key":"12065256","name":"Oranienburg, Stadt","type":"Stadt"},"district":{"key":"12065","name":"Oberhavel","type":"Landkreis"},"federalState":{"key":"12","name":"Brandenburg"}},{"name":"Oranienburger Weg","postalCode":"16515","locality":"Oranienburg","municipality":{"key":"12065256","name":"Oranienburg, Stadt","type":"Stadt"},"district":{"key":"12065","name":"Oberhavel","type":"Landkreis"},"federalState":{"key":"12","name":"Brandenburg"}},{"name":"Orlamünder Str.","postalCode":"16515","locality":"Oranienburg","municipality":{"key":"12065256","name":"Oranienburg, Stadt","type":"Stadt"},"district":{"key":"12065","name":"Oberhavel","type":"Landkreis"},"federalState":{"key":"12","name":"Brandenburg"}},{"name":"Ostweg","postalCode":"16515","locality":"Oranienburg","municipality":{"key":"12065256","name":"Oranienburg, Stadt","type":"Stadt"},"district":{"key":"12065","name":"Oberhavel","type":"Landkreis"},"federalState":{"key":"12","name":"Brandenburg"}},{"name":"Pankeweg","postalCode":"16515","locality":"Oranienburg","municipality":{"key":"12065256","name":"Oranienburg, Stadt","type":"Stadt"},"district":{"key":"12065","name":"Oberhavel","type":"Landkreis"},"federalState":{"key":"12","name":"Brandenburg"}},{"name":"Parkstr.","postalCode":"16515","locality":"Oranienburg","municipality":{"key":"12065256","name":"Oranienburg, Stadt","type":"Stadt"},"district":{"key":"12065","name":"Oberhavel","type":"Landkreis"},"federalState":{"key":"12","name":"Brandenburg"}},{"name":"Parkweg","postalCode":"16515","locality":"Oranienburg","municipality":{"key":"12065256","name":"Oranienburg, Stadt","type":"Stadt"},"district":{"key":"12065","name":"Oberhavel","type":"Landkreis"},"federalState":{"key":"12","name":"Brandenburg"}},{"name":"Pasewalker Str.","postalCode":"16515","locality":"Oranienburg","municipality":{"key":"12065256","name":"Oranienburg, Stadt","type":"Stadt"},"district":{"key":"12065","name":"Oberhavel","type":"Landkreis"},"federalState":{"key":"12","name":"Brandenburg"}},{"name":"Pasteurstr.","postalCode":"16515","locality":"Oranienburg","municipality":{"key":"12065256","name":"Oranienburg, Stadt","type":"Stadt"},"district":{"key":"12065","name":"Oberhavel","type":"Landkreis"},"federalState":{"key":"12","name":"Brandenburg"}},{"name":"Paul-Gerhardt-Str.","postalCode":"16515","locality":"Oranienburg","municipality":{"key":"12065256","name":"Oranienburg, Stadt","type":"Stadt"},"district":{"key":"12065","name":"Oberhavel","type":"Landkreis"},"federalState":{"key":"12","name":"Brandenburg"}},{"name":"Pawlowstr.","postalCode":"16515","locality":"Oranienburg","municipality":{"key":"12065256","name":"Oranienburg, Stadt","type":"Stadt"},"district":{"key":"12065","name":"Oberhavel","type":"Landkreis"},"federalState":{"key":"12","name":"Brandenburg"}},{"name":"Petscheltweg","postalCode":"16515","locality":"Oranienburg","municipality":{"key":"12065256","name":"Oranienburg, Stadt","type":"Stadt"},"district":{"key":"12065","name":"Oberhavel","type":"Landkreis"},"federalState":{"key":"12","name":"Brandenburg"}},{"name":"Pfifferlingsweg","postalCode":"16515","locality":"Oranienburg","municipality":{"key":"12065256","name":"Oranienburg, Stadt","type":"Stadt"},"district":{"key":"12065","name":"Oberhavel","type":"Landkreis"},"federalState":{"key":"12","name":"Brandenburg"}},{"name":"Pfingstrosenweg","postalCode":"16515","locality":"Oranienburg","municipality":{"key":"12065256","name":"Oranienburg, Stadt","type":"Stadt"},"district":{"key":"12065","name":"Oberhavel","type":"Landkreis"},"federalState":{"key":"12","name":"Brandenburg"}},{"name":"Pflaumenallee","postalCode":"16515","locality":"Oranienburg","municipality":{"key":"12065256","name":"Oranienburg, Stadt","type":"Stadt"},"district":{"key":"12065","name":"Oberhavel","type":"Landkreis"},"federalState":{"key":"12","name":"Brandenburg"}},{"name":"Pinnower Schleuse","postalCode":"16515","locality":"Oranienburg","municipality":{"key":"12065256","name":"Oranienburg, Stadt","type":"Stadt"},"district":{"key":"12065","name":"Oberhavel","type":"Landkreis"},"federalState":{"key":"12","name":"Brandenburg"}},{"name":"Pleißestr.","postalCode":"16515","locality":"Oranienburg","municipality":{"key":"12065256","name":"Oranienburg, Stadt","type":"Stadt"},"district":{"key":"12065","name":"Oberhavel","type":"Landkreis"},"federalState":{"key":"12","name":"Brandenburg"}},{"name":"Plötzensteg","postalCode":"16515","locality":"Oranienburg","municipality":{"key":"12065256","name":"Oranienburg, Stadt","type":"Stadt"},"district":{"key":"12065","name":"Oberhavel","type":"Landkreis"},"federalState":{"key":"12","name":"Brandenburg"}},{"name":"Poststr.","postalCode":"16515","locality":"Oranienburg","municipality":{"key":"12065256","name":"Oranienburg, Stadt","type":"Stadt"},"district":{"key":"12065","name":"Oberhavel","type":"Landkreis"},"federalState":{"key":"12","name":"Brandenburg"}},{"name":"Prenzlauer Str.","postalCode":"16515","locality":"Oranienburg","municipality":{"key":"12065256","name":"Oranienburg, Stadt","type":"Stadt"},"district":{"key":"12065","name":"Oberhavel","type":"Landkreis"},"federalState":{"key":"12","name":"Brandenburg"}},{"name":"Quedlinburger Str.","postalCode":"16515","locality":"Oranienburg","municipality":{"key":"12065256","name":"Oranienburg, Stadt","type":"Stadt"},"district":{"key":"12065","name":"Oberhavel","type":"Landkreis"},"federalState":{"key":"12","name":"Brandenburg"}},{"name":"Regerstr.","postalCode":"16515","locality":"Oranienburg","municipality":{"key":"12065256","name":"Oranienburg, Stadt","type":"Stadt"},"district":{"key":"12065","name":"Oberhavel","type":"Landkreis"},"federalState":{"key":"12","name":"Brandenburg"}},{"name":"Rehmater Weg","postalCode":"16515","locality":"Oranienburg","municipality":{"key":"12065256","name":"Oranienburg, Stadt","type":"Stadt"},"district":{"key":"12065","name":"Oberhavel","type":"Landkreis"},"federalState":{"key":"12","name":"Brandenburg"}},{"name":"Reicheltstr.","postalCode":"16515","locality":"Oranienburg","municipality":{"key":"12065256","name":"Oranienburg, Stadt","type":"Stadt"},"district":{"key":"12065","name":"Oberhavel","type":"Landkreis"},"federalState":{"key":"12","name":"Brandenburg"}},{"name":"Rennsteigstr.","postalCode":"16515","locality":"Oranienburg","municipality":{"key":"12065256","name":"Oranienburg, Stadt","type":"Stadt"},"district":{"key":"12065","name":"Oberhavel","type":"Landkreis"},"federalState":{"key":"12","name":"Brandenburg"}},{"name":"Rheinstr.","postalCode":"16515","locality":"Oranienburg","municipality":{"key":"12065256","name":"Oranienburg, Stadt","type":"Stadt"},"district":{"key":"12065","name":"Oberhavel","type":"Landkreis"},"federalState":{"key":"12","name":"Brandenburg"}},{"name":"Rhinweg","postalCode":"16515","locality":"Oranienburg","municipality":{"key":"12065256","name":"Oranienburg, Stadt","type":"Stadt"},"district":{"key":"12065","name":"Oberhavel","type":"Landkreis"},"federalState":{"key":"12","name":"Brandenburg"}},{"name":"Rhododendronweg","postalCode":"16515","locality":"Oranienburg","municipality":{"key":"12065256","name":"Oranienburg, Stadt","type":"Stadt"},"district":{"key":"12065","name":"Oberhavel","type":"Landkreis"},"federalState":{"key":"12","name":"Brandenburg"}},{"name":"Richard-Becker-Str.","postalCode":"16515","locality":"Oranienburg","municipality":{"key":"12065256","name":"Oranienburg, Stadt","type":"Stadt"},"district":{"key":"12065","name":"Oberhavel","type":"Landkreis"},"federalState":{"key":"12","name":"Brandenburg"}},{"name":"Richard-Wagner-Str.","postalCode":"16515","locality":"Oranienburg","municipality":{"key":"12065256","name":"Oranienburg, Stadt","type":"Stadt"},"district":{"key":"12065","name":"Oberhavel","type":"Landkreis"},"federalState":{"key":"12","name":"Brandenburg"}},{"name":"Ringelnatzstr.","postalCode":"16515","locality":"Oranienburg","municipality":{"key":"12065256","name":"Oranienburg, Stadt","type":"Stadt"},"district":{"key":"12065","name":"Oberhavel","type":"Landkreis"},"federalState":{"key":"12","name":"Brandenburg"}},{"name":"Ringstr.","postalCode":"16515","locality":"Oranienburg","municipality":{"key":"12065256","name":"Oranienburg, Stadt","type":"Stadt"},"district":{"key":"12065","name":"Oberhavel","type":"Landkreis"},"federalState":{"key":"12","name":"Brandenburg"}},{"name":"Robert-Koch-Str.","postalCode":"16515","locality":"Oranienburg","municipality":{"key":"12065256","name":"Oranienburg, Stadt","type":"Stadt"},"district":{"key":"12065","name":"Oberhavel","type":"Landkreis"},"federalState":{"key":"12","name":"Brandenburg"}},{"name":"Robinienweg","postalCode":"16515","locality":"Oranienburg","municipality":{"key":"12065256","name":"Oranienburg, Stadt","type":"Stadt"},"district":{"key":"12065","name":"Oberhavel","type":"Landkreis"},"federalState":{"key":"12","name":"Brandenburg"}},{"name":"Rohrwebereck","postalCode":"16515","locality":"Oranienburg","municipality":{"key":"12065256","name":"Oranienburg, Stadt","type":"Stadt"},"district":{"key":"12065","name":"Oberhavel","type":"Landkreis"},"federalState":{"key":"12","name":"Brandenburg"}},{"name":"Röntgenstr.","postalCode":"16515","locality":"Oranienburg","municipality":{"key":"12065256","name":"Oranienburg, Stadt","type":"Stadt"},"district":{"key":"12065","name":"Oberhavel","type":"Landkreis"},"federalState":{"key":"12","name":"Brandenburg"}},{"name":"Rosa-Broghammer-Str.","postalCode":"16515","locality":"Oranienburg","municipality":{"key":"12065256","name":"Oranienburg, Stadt","type":"Stadt"},"district":{"key":"12065","name":"Oberhavel","type":"Landkreis"},"federalState":{"key":"12","name":"Brandenburg"}},{"name":"Rosa-Luxemburg-Str.","postalCode":"16515","locality":"Oranienburg","municipality":{"key":"12065256","name":"Oranienburg, Stadt","type":"Stadt"},"district":{"key":"12065","name":"Oberhavel","type":"Landkreis"},"federalState":{"key":"12","name":"Brandenburg"}},{"name":"Roseggerweg","postalCode":"16515","locality":"Oranienburg","municipality":{"key":"12065256","name":"Oranienburg, Stadt","type":"Stadt"},"district":{"key":"12065","name":"Oberhavel","type":"Landkreis"},"federalState":{"key":"12","name":"Brandenburg"}},{"name":"Rosengarten","postalCode":"16515","locality":"Oranienburg","municipality":{"key":"12065256","name":"Oranienburg, Stadt","type":"Stadt"},"district":{"key":"12065","name":"Oberhavel","type":"Landkreis"},"federalState":{"key":"12","name":"Brandenburg"}},{"name":"Rosengasse","postalCode":"16515","locality":"Oranienburg","municipality":{"key":"12065256","name":"Oranienburg, Stadt","type":"Stadt"},"district":{"key":"12065","name":"Oberhavel","type":"Landkreis"},"federalState":{"key":"12","name":"Brandenburg"}},{"name":"Rosenweg","postalCode":"16515","locality":"Oranienburg","municipality":{"key":"12065256","name":"Oranienburg, Stadt","type":"Stadt"},"district":{"key":"12065","name":"Oberhavel","type":"Landkreis"},"federalState":{"key":"12","name":"Brandenburg"}},{"name":"Rosselstr.","postalCode":"16515","locality":"Oranienburg","municipality":{"key":"12065256","name":"Oranienburg, Stadt","type":"Stadt"},"district":{"key":"12065","name":"Oberhavel","type":"Landkreis"},"federalState":{"key":"12","name":"Brandenburg"}},{"name":"Rotkehlchenweg","postalCode":"16515","locality":"Oranienburg","municipality":{"key":"12065256","name":"Oranienburg, Stadt","type":"Stadt"},"district":{"key":"12065","name":"Oberhavel","type":"Landkreis"},"federalState":{"key":"12","name":"Brandenburg"}},{"name":"Rüdesheimer Str.","postalCode":"16515","locality":"Oranienburg","municipality":{"key":"12065256","name":"Oranienburg, Stadt","type":"Stadt"},"district":{"key":"12065","name":"Oberhavel","type":"Landkreis"},"federalState":{"key":"12","name":"Brandenburg"}},{"name":"Rudolf-Breitscheid-Str.","postalCode":"16515","locality":"Oranienburg","municipality":{"key":"12065256","name":"Oranienburg, Stadt","type":"Stadt"},"district":{"key":"12065","name":"Oberhavel","type":"Landkreis"},"federalState":{"key":"12","name":"Brandenburg"}},{"name":"Rudolf-Grosse-Str.","postalCode":"16515","locality":"Oranienburg","municipality":{"key":"12065256","name":"Oranienburg, Stadt","type":"Stadt"},"district":{"key":"12065","name":"Oberhavel","type":"Landkreis"},"federalState":{"key":"12","name":"Brandenburg"}},{"name":"Rudolstädter Str.","postalCode":"16515","locality":"Oranienburg","municipality":{"key":"12065256","name":"Oranienburg, Stadt","type":"Stadt"},"district":{"key":"12065","name":"Oberhavel","type":"Landkreis"},"federalState":{"key":"12","name":"Brandenburg"}},{"name":"Ruhrstr.","postalCode":"16515","locality":"Oranienburg","municipality":{"key":"12065256","name":"Oranienburg, Stadt","type":"Stadt"},"district":{"key":"12065","name":"Oberhavel","type":"Landkreis"},"federalState":{"key":"12","name":"Brandenburg"}},{"name":"Rungestr.","postalCode":"16515","locality":"Oranienburg","municipality":{"key":"12065256","name":"Oranienburg, Stadt","type":"Stadt"},"district":{"key":"12065","name":"Oberhavel","type":"Landkreis"},"federalState":{"key":"12","name":"Brandenburg"}},{"name":"Saalestr.","postalCode":"16515","locality":"Oranienburg","municipality":{"key":"12065256","name":"Oranienburg, Stadt","type":"Stadt"},"district":{"key":"12065","name":"Oberhavel","type":"Landkreis"},"federalState":{"key":"12","name":"Brandenburg"}},{"name":"Saalfelder Str.","postalCode":"16515","locality":"Oranienburg","municipality":{"key":"12065256","name":"Oranienburg, Stadt","type":"Stadt"},"district":{"key":"12065","name":"Oberhavel","type":"Landkreis"},"federalState":{"key":"12","name":"Brandenburg"}},{"name":"Saarbrückener Str.","postalCode":"16515","locality":"Oranienburg","municipality":{"key":"12065256","name":"Oranienburg, Stadt","type":"Stadt"},"district":{"key":"12065","name":"Oberhavel","type":"Landkreis"},"federalState":{"key":"12","name":"Brandenburg"}},{"name":"Saarlandstr.","postalCode":"16515","locality":"Oranienburg","municipality":{"key":"12065256","name":"Oranienburg, Stadt","type":"Stadt"},"district":{"key":"12065","name":"Oberhavel","type":"Landkreis"},"federalState":{"key":"12","name":"Brandenburg"}},{"name":"Saarstr.","postalCode":"16515","locality":"Oranienburg","municipality":{"key":"12065256","name":"Oranienburg, Stadt","type":"Stadt"},"district":{"key":"12065","name":"Oberhavel","type":"Landkreis"},"federalState":{"key":"12","name":"Brandenburg"}},{"name":"Sachsenhausener Str.","postalCode":"16515","locality":"Oranienburg","municipality":{"key":"12065256","name":"Oranienburg, Stadt","type":"Stadt"},"district":{"key":"12065","name":"Oberhavel","type":"Landkreis"},"federalState":{"key":"12","name":"Brandenburg"}},{"name":"Sanddornstr.","postalCode":"16515","locality":"Oranienburg","municipality":{"key":"12065256","name":"Oranienburg, Stadt","type":"Stadt"},"district":{"key":"12065","name":"Oberhavel","type":"Landkreis"},"federalState":{"key":"12","name":"Brandenburg"}},{"name":"Sandhausener Weg","postalCode":"16515","locality":"Oranienburg","municipality":{"key":"12065256","name":"Oranienburg, Stadt","type":"Stadt"},"district":{"key":"12065","name":"Oberhavel","type":"Landkreis"},"federalState":{"key":"12","name":"Brandenburg"}},{"name":"Sandstr.","postalCode":"16515","locality":"Oranienburg","municipality":{"key":"12065256","name":"Oranienburg, Stadt","type":"Stadt"},"district":{"key":"12065","name":"Oberhavel","type":"Landkreis"},"federalState":{"key":"12","name":"Brandenburg"}},{"name":"Sandstr. Nord","postalCode":"16515","locality":"Oranienburg","municipality":{"key":"12065256","name":"Oranienburg, Stadt","type":"Stadt"},"district":{"key":"12065","name":"Oberhavel","type":"Landkreis"},"federalState":{"key":"12","name":"Brandenburg"}},{"name":"Sauerbruchstr.","postalCode":"16515","locality":"Oranienburg","municipality":{"key":"12065256","name":"Oranienburg, Stadt","type":"Stadt"},"district":{"key":"12065","name":"Oberhavel","type":"Landkreis"},"federalState":{"key":"12","name":"Brandenburg"}},{"name":"Sawallstr.","postalCode":"16515","locality":"Oranienburg","municipality":{"key":"12065256","name":"Oranienburg, Stadt","type":"Stadt"},"district":{"key":"12065","name":"Oberhavel","type":"Landkreis"},"federalState":{"key":"12","name":"Brandenburg"}},{"name":"Schäferweg","postalCode":"16515","locality":"Oranienburg","municipality":{"key":"12065256","name":"Oranienburg, Stadt","type":"Stadt"},"district":{"key":"12065","name":"Oberhavel","type":"Landkreis"},"federalState":{"key":"12","name":"Brandenburg"}},{"name":"Scharrenstr.","postalCode":"16515","locality":"Oranienburg","municipality":{"key":"12065256","name":"Oranienburg, Stadt","type":"Stadt"},"district":{"key":"12065","name":"Oberhavel","type":"Landkreis"},"federalState":{"key":"12","name":"Brandenburg"}},{"name":"Schierker Str.","postalCode":"16515","locality":"Oranienburg","municipality":{"key":"12065256","name":"Oranienburg, Stadt","type":"Stadt"},"district":{"key":"12065","name":"Oberhavel","type":"Landkreis"},"federalState":{"key":"12","name":"Brandenburg"}},{"name":"Schillerstr.","postalCode":"16515","locality":"Oranienburg","municipality":{"key":"12065256","name":"Oranienburg, Stadt","type":"Stadt"},"district":{"key":"12065","name":"Oberhavel","type":"Landkreis"},"federalState":{"key":"12","name":"Brandenburg"}},{"name":"Schillerweg","postalCode":"16515","locality":"Oranienburg","municipality":{"key":"12065256","name":"Oranienburg, Stadt","type":"Stadt"},"district":{"key":"12065","name":"Oberhavel","type":"Landkreis"},"federalState":{"key":"12","name":"Brandenburg"}},{"name":"Schlegelweg","postalCode":"16515","locality":"Oranienburg","municipality":{"key":"12065256","name":"Oranienburg, Stadt","type":"Stadt"},"district":{"key":"12065","name":"Oberhavel","type":"Landkreis"},"federalState":{"key":"12","name":"Brandenburg"}},{"name":"Schloßplatz","postalCode":"16515","locality":"Oranienburg","municipality":{"key":"12065256","name":"Oranienburg, Stadt","type":"Stadt"},"district":{"key":"12065","name":"Oberhavel","type":"Landkreis"},"federalState":{"key":"12","name":"Brandenburg"}},{"name":"Schmachtenhagener Dorfstr.","postalCode":"16515","locality":"Oranienburg","municipality":{"key":"12065256","name":"Oranienburg, Stadt","type":"Stadt"},"district":{"key":"12065","name":"Oberhavel","type":"Landkreis"},"federalState":{"key":"12","name":"Brandenburg"}},{"name":"Schmachtenhagener Str.","postalCode":"16515","locality":"Oranienburg","municipality":{"key":"12065256","name":"Oranienburg, Stadt","type":"Stadt"},"district":{"key":"12065","name":"Oberhavel","type":"Landkreis"},"federalState":{"key":"12","name":"Brandenburg"}},{"name":"Schmalkaldener Str.","postalCode":"16515","locality":"Oranienburg","municipality":{"key":"12065256","name":"Oranienburg, Stadt","type":"Stadt"},"district":{"key":"12065","name":"Oberhavel","type":"Landkreis"},"federalState":{"key":"12","name":"Brandenburg"}},{"name":"Schreberweg","postalCode":"16515","locality":"Oranienburg","municipality":{"key":"12065256","name":"Oranienburg, Stadt","type":"Stadt"},"district":{"key":"12065","name":"Oberhavel","type":"Landkreis"},"federalState":{"key":"12","name":"Brandenburg"}},{"name":"Schubertstr.","postalCode":"16515","locality":"Oranienburg","municipality":{"key":"12065256","name":"Oranienburg, Stadt","type":"Stadt"},"district":{"key":"12065","name":"Oberhavel","type":"Landkreis"},"federalState":{"key":"12","name":"Brandenburg"}},{"name":"Schuhprüfstrecke","postalCode":"16515","locality":"Oranienburg","municipality":{"key":"12065256","name":"Oranienburg, Stadt","type":"Stadt"},"district":{"key":"12065","name":"Oberhavel","type":"Landkreis"},"federalState":{"key":"12","name":"Brandenburg"}},{"name":"Schulstr.","postalCode":"16515","locality":"Oranienburg","municipality":{"key":"12065256","name":"Oranienburg, Stadt","type":"Stadt"},"district":{"key":"12065","name":"Oberhavel","type":"Landkreis"},"federalState":{"key":"12","name":"Brandenburg"}},{"name":"Schumannstr.","postalCode":"16515","locality":"Oranienburg","municipality":{"key":"12065256","name":"Oranienburg, Stadt","type":"Stadt"},"district":{"key":"12065","name":"Oberhavel","type":"Landkreis"},"federalState":{"key":"12","name":"Brandenburg"}},{"name":"Schützenstr.","postalCode":"16515","locality":"Oranienburg","municipality":{"key":"12065256","name":"Oranienburg, Stadt","type":"Stadt"},"district":{"key":"12065","name":"Oberhavel","type":"Landkreis"},"federalState":{"key":"12","name":"Brandenburg"}},{"name":"Schwalbenstr.","postalCode":"16515","locality":"Oranienburg","municipality":{"key":"12065256","name":"Oranienburg, Stadt","type":"Stadt"},"district":{"key":"12065","name":"Oberhavel","type":"Landkreis"},"federalState":{"key":"12","name":"Brandenburg"}},{"name":"Schwanenweg","postalCode":"16515","locality":"Oranienburg","municipality":{"key":"12065256","name":"Oranienburg, Stadt","type":"Stadt"},"district":{"key":"12065","name":"Oberhavel","type":"Landkreis"},"federalState":{"key":"12","name":"Brandenburg"}},{"name":"Schwarzburger Str.","postalCode":"16515","locality":"Oranienburg","municipality":{"key":"12065256","name":"Oranienburg, Stadt","type":"Stadt"},"district":{"key":"12065","name":"Oberhavel","type":"Landkreis"},"federalState":{"key":"12","name":"Brandenburg"}},{"name":"Schwarzer Weg","postalCode":"16515","locality":"Oranienburg","municipality":{"key":"12065256","name":"Oranienburg, Stadt","type":"Stadt"},"district":{"key":"12065","name":"Oberhavel","type":"Landkreis"},"federalState":{"key":"12","name":"Brandenburg"}},{"name":"Schweizerhütte","postalCode":"16515","locality":"Oranienburg","municipality":{"key":"12065256","name":"Oranienburg, Stadt","type":"Stadt"},"district":{"key":"12065","name":"Oberhavel","type":"Landkreis"},"federalState":{"key":"12","name":"Brandenburg"}},{"name":"Sebastian-Bach-Promenade","postalCode":"16515","locality":"Oranienburg","municipality":{"key":"12065256","name":"Oranienburg, Stadt","type":"Stadt"},"district":{"key":"12065","name":"Oberhavel","type":"Landkreis"},"federalState":{"key":"12","name":"Brandenburg"}},{"name":"Seepromenade","postalCode":"16515","locality":"Oranienburg","municipality":{"key":"12065256","name":"Oranienburg, Stadt","type":"Stadt"},"district":{"key":"12065","name":"Oberhavel","type":"Landkreis"},"federalState":{"key":"12","name":"Brandenburg"}},{"name":"Selkestr.","postalCode":"16515","locality":"Oranienburg","municipality":{"key":"12065256","name":"Oranienburg, Stadt","type":"Stadt"},"district":{"key":"12065","name":"Oberhavel","type":"Landkreis"},"federalState":{"key":"12","name":"Brandenburg"}},{"name":"Semmelweisstr.","postalCode":"16515","locality":"Oranienburg","municipality":{"key":"12065256","name":"Oranienburg, Stadt","type":"Stadt"},"district":{"key":"12065","name":"Oberhavel","type":"Landkreis"},"federalState":{"key":"12","name":"Brandenburg"}},{"name":"Siegmund-Breitbart-Str.","postalCode":"16515","locality":"Oranienburg","municipality":{"key":"12065256","name":"Oranienburg, Stadt","type":"Stadt"},"district":{"key":"12065","name":"Oberhavel","type":"Landkreis"},"federalState":{"key":"12","name":"Brandenburg"}},{"name":"Siegstr.","postalCode":"16515","locality":"Oranienburg","municipality":{"key":"12065256","name":"Oranienburg, Stadt","type":"Stadt"},"district":{"key":"12065","name":"Oberhavel","type":"Landkreis"},"federalState":{"key":"12","name":"Brandenburg"}},{"name":"Simonsweg","postalCode":"16515","locality":"Oranienburg","municipality":{"key":"12065256","name":"Oranienburg, Stadt","type":"Stadt"},"district":{"key":"12065","name":"Oberhavel","type":"Landkreis"},"federalState":{"key":"12","name":"Brandenburg"}},{"name":"Sonneberger Str.","postalCode":"16515","locality":"Oranienburg","municipality":{"key":"12065256","name":"Oranienburg, Stadt","type":"Stadt"},"district":{"key":"12065","name":"Oberhavel","type":"Landkreis"},"federalState":{"key":"12","name":"Brandenburg"}},{"name":"Sophie-Scholl-Str.","postalCode":"16515","locality":"Oranienburg","municipality":{"key":"12065256","name":"Oranienburg, Stadt","type":"Stadt"},"district":{"key":"12065","name":"Oberhavel","type":"Landkreis"},"federalState":{"key":"12","name":"Brandenburg"}},{"name":"Spechtweg","postalCode":"16515","locality":"Oranienburg","municipality":{"key":"12065256","name":"Oranienburg, Stadt","type":"Stadt"},"district":{"key":"12065","name":"Oberhavel","type":"Landkreis"},"federalState":{"key":"12","name":"Brandenburg"}},{"name":"Sperlingsweg","postalCode":"16515","locality":"Oranienburg","municipality":{"key":"12065256","name":"Oranienburg, Stadt","type":"Stadt"},"district":{"key":"12065","name":"Oberhavel","type":"Landkreis"},"federalState":{"key":"12","name":"Brandenburg"}},{"name":"Speyerer Str.","postalCode":"16515","locality":"Oranienburg","municipality":{"key":"12065256","name":"Oranienburg, Stadt","type":"Stadt"},"district":{"key":"12065","name":"Oberhavel","type":"Landkreis"},"federalState":{"key":"12","name":"Brandenburg"}},{"name":"Spitzwegstr.","postalCode":"16515","locality":"Oranienburg","municipality":{"key":"12065256","name":"Oranienburg, Stadt","type":"Stadt"},"district":{"key":"12065","name":"Oberhavel","type":"Landkreis"},"federalState":{"key":"12","name":"Brandenburg"}},{"name":"Spreestr.","postalCode":"16515","locality":"Oranienburg","municipality":{"key":"12065256","name":"Oranienburg, Stadt","type":"Stadt"},"district":{"key":"12065","name":"Oberhavel","type":"Landkreis"},"federalState":{"key":"12","name":"Brandenburg"}},{"name":"Starstr.","postalCode":"16515","locality":"Oranienburg","municipality":{"key":"12065256","name":"Oranienburg, Stadt","type":"Stadt"},"district":{"key":"12065","name":"Oberhavel","type":"Landkreis"},"federalState":{"key":"12","name":"Brandenburg"}},{"name":"Stegeweg","postalCode":"16515","locality":"Oranienburg","municipality":{"key":"12065256","name":"Oranienburg, Stadt","type":"Stadt"},"district":{"key":"12065","name":"Oberhavel","type":"Landkreis"},"federalState":{"key":"12","name":"Brandenburg"}},{"name":"Steinpilzweg","postalCode":"16515","locality":"Oranienburg","municipality":{"key":"12065256","name":"Oranienburg, Stadt","type":"Stadt"},"district":{"key":"12065","name":"Oberhavel","type":"Landkreis"},"federalState":{"key":"12","name":"Brandenburg"}},{"name":"Tannengrund","postalCode":"16515","locality":"Oranienburg","municipality":{"key":"12065256","name":"Oranienburg, Stadt","type":"Stadt"},"district":{"key":"12065","name":"Oberhavel","type":"Landkreis"},"federalState":{"key":"12","name":"Brandenburg"}},{"name":"Tannenweg","postalCode":"16515","locality":"Oranienburg","municipality":{"key":"12065256","name":"Oranienburg, Stadt","type":"Stadt"},"district":{"key":"12065","name":"Oberhavel","type":"Landkreis"},"federalState":{"key":"12","name":"Brandenburg"}},{"name":"Teerofen","postalCode":"16515","locality":"Oranienburg","municipality":{"key":"12065256","name":"Oranienburg, Stadt","type":"Stadt"},"district":{"key":"12065","name":"Oberhavel","type":"Landkreis"},"federalState":{"key":"12","name":"Brandenburg"}},{"name":"Teichweg","postalCode":"16515","locality":"Oranienburg","municipality":{"key":"12065256","name":"Oranienburg, Stadt","type":"Stadt"},"district":{"key":"12065","name":"Oberhavel","type":"Landkreis"},"federalState":{"key":"12","name":"Brandenburg"}},{"name":"Teufelsseer Weg","postalCode":"16515","locality":"Oranienburg","municipality":{"key":"12065256","name":"Oranienburg, Stadt","type":"Stadt"},"district":{"key":"12065","name":"Oberhavel","type":"Landkreis"},"federalState":{"key":"12","name":"Brandenburg"}},{"name":"Thaerstr.","postalCode":"16515","locality":"Oranienburg","municipality":{"key":"12065256","name":"Oranienburg, Stadt","type":"Stadt"},"district":{"key":"12065","name":"Oberhavel","type":"Landkreis"},"federalState":{"key":"12","name":"Brandenburg"}},{"name":"Thalestr.","postalCode":"16515","locality":"Oranienburg","municipality":{"key":"12065256","name":"Oranienburg, Stadt","type":"Stadt"},"district":{"key":"12065","name":"Oberhavel","type":"Landkreis"},"federalState":{"key":"12","name":"Brandenburg"}},{"name":"Thälmannstr.","postalCode":"16515","locality":"Oranienburg","municipality":{"key":"12065256","name":"Oranienburg, Stadt","type":"Stadt"},"district":{"key":"12065","name":"Oberhavel","type":"Landkreis"},"federalState":{"key":"12","name":"Brandenburg"}},{"name":"Theodor-Neubauer-Str.","postalCode":"16515","locality":"Oranienburg","municipality":{"key":"12065256","name":"Oranienburg, Stadt","type":"Stadt"},"district":{"key":"12065","name":"Oberhavel","type":"Landkreis"},"federalState":{"key":"12","name":"Brandenburg"}},{"name":"Thomas-Müntzer-Str.","postalCode":"16515","locality":"Oranienburg","municipality":{"key":"12065256","name":"Oranienburg, Stadt","type":"Stadt"},"district":{"key":"12065","name":"Oberhavel","type":"Landkreis"},"federalState":{"key":"12","name":"Brandenburg"}},{"name":"Thomasstr.","postalCode":"16515","locality":"Oranienburg","municipality":{"key":"12065256","name":"Oranienburg, Stadt","type":"Stadt"},"district":{"key":"12065","name":"Oberhavel","type":"Landkreis"},"federalState":{"key":"12","name":"Brandenburg"}},{"name":"Thomastr.","postalCode":"16515","locality":"Oranienburg","municipality":{"key":"12065256","name":"Oranienburg, Stadt","type":"Stadt"},"district":{"key":"12065","name":"Oberhavel","type":"Landkreis"},"federalState":{"key":"12","name":"Brandenburg"}},{"name":"Tiergartensiedlung","postalCode":"16515","locality":"Oranienburg","municipality":{"key":"12065256","name":"Oranienburg, Stadt","type":"Stadt"},"district":{"key":"12065","name":"Oberhavel","type":"Landkreis"},"federalState":{"key":"12","name":"Brandenburg"}},{"name":"Tiergartenstr.","postalCode":"16515","locality":"Oranienburg","municipality":{"key":"12065256","name":"Oranienburg, Stadt","type":"Stadt"},"district":{"key":"12065","name":"Oberhavel","type":"Landkreis"},"federalState":{"key":"12","name":"Brandenburg"}},{"name":"Tiergartenweg","postalCode":"16515","locality":"Oranienburg","municipality":{"key":"12065256","name":"Oranienburg, Stadt","type":"Stadt"},"district":{"key":"12065","name":"Oberhavel","type":"Landkreis"},"federalState":{"key":"12","name":"Brandenburg"}},{"name":"Tongrubenweg","postalCode":"16515","locality":"Oranienburg","municipality":{"key":"12065256","name":"Oranienburg, Stadt","type":"Stadt"},"district":{"key":"12065","name":"Oberhavel","type":"Landkreis"},"federalState":{"key":"12","name":"Brandenburg"}},{"name":"Treidelweg","postalCode":"16515","locality":"Oranienburg","municipality":{"key":"12065256","name":"Oranienburg, Stadt","type":"Stadt"},"district":{"key":"12065","name":"Oberhavel","type":"Landkreis"},"federalState":{"key":"12","name":"Brandenburg"}},{"name":"Triftstr.","postalCode":"16515","locality":"Oranienburg","municipality":{"key":"12065256","name":"Oranienburg, Stadt","type":"Stadt"},"district":{"key":"12065","name":"Oberhavel","type":"Landkreis"},"federalState":{"key":"12","name":"Brandenburg"}},{"name":"Triftweg","postalCode":"16515","locality":"Oranienburg","municipality":{"key":"12065256","name":"Oranienburg, Stadt","type":"Stadt"},"district":{"key":"12065","name":"Oberhavel","type":"Landkreis"},"federalState":{"key":"12","name":"Brandenburg"}},{"name":"Tulpensteig","postalCode":"16515","locality":"Oranienburg","municipality":{"key":"12065256","name":"Oranienburg, Stadt","type":"Stadt"},"district":{"key":"12065","name":"Oberhavel","type":"Landkreis"},"federalState":{"key":"12","name":"Brandenburg"}},{"name":"Tulpenweg","postalCode":"16515","locality":"Oranienburg","municipality":{"key":"12065256","name":"Oranienburg, Stadt","type":"Stadt"},"district":{"key":"12065","name":"Oberhavel","type":"Landkreis"},"federalState":{"key":"12","name":"Brandenburg"}},{"name":"Uferpromenade","postalCode":"16515","locality":"Oranienburg","municipality":{"key":"12065256","name":"Oranienburg, Stadt","type":"Stadt"},"district":{"key":"12065","name":"Oberhavel","type":"Landkreis"},"federalState":{"key":"12","name":"Brandenburg"}},{"name":"Uferring","postalCode":"16515","locality":"Oranienburg","municipality":{"key":"12065256","name":"Oranienburg, Stadt","type":"Stadt"},"district":{"key":"12065","name":"Oberhavel","type":"Landkreis"},"federalState":{"key":"12","name":"Brandenburg"}},{"name":"Uferstr.","postalCode":"16515","locality":"Oranienburg","municipality":{"key":"12065256","name":"Oranienburg, Stadt","type":"Stadt"},"district":{"key":"12065","name":"Oberhavel","type":"Landkreis"},"federalState":{"key":"12","name":"Brandenburg"}},{"name":"Uferweg","postalCode":"16515","locality":"Oranienburg","municipality":{"key":"12065256","name":"Oranienburg, Stadt","type":"Stadt"},"district":{"key":"12065","name":"Oberhavel","type":"Landkreis"},"federalState":{"key":"12","name":"Brandenburg"}},{"name":"Uhlandstr.","postalCode":"16515","locality":"Oranienburg","municipality":{"key":"12065256","name":"Oranienburg, Stadt","type":"Stadt"},"district":{"key":"12065","name":"Oberhavel","type":"Landkreis"},"federalState":{"key":"12","name":"Brandenburg"}},{"name":"Ulmensteig","postalCode":"16515","locality":"Oranienburg","municipality":{"key":"12065256","name":"Oranienburg, Stadt","type":"Stadt"},"district":{"key":"12065","name":"Oberhavel","type":"Landkreis"},"federalState":{"key":"12","name":"Brandenburg"}},{"name":"Unter den Eichen","postalCode":"16515","locality":"Oranienburg","municipality":{"key":"12065256","name":"Oranienburg, Stadt","type":"Stadt"},"district":{"key":"12065","name":"Oberhavel","type":"Landkreis"},"federalState":{"key":"12","name":"Brandenburg"}},{"name":"Uppstallweg","postalCode":"16515","locality":"Oranienburg","municipality":{"key":"12065256","name":"Oranienburg, Stadt","type":"Stadt"},"district":{"key":"12065","name":"Oberhavel","type":"Landkreis"},"federalState":{"key":"12","name":"Brandenburg"}},{"name":"Urbanstr.","postalCode":"16515","locality":"Oranienburg","municipality":{"key":"12065256","name":"Oranienburg, Stadt","type":"Stadt"},"district":{"key":"12065","name":"Oberhavel","type":"Landkreis"},"federalState":{"key":"12","name":"Brandenburg"}},{"name":"Veilchenweg","postalCode":"16515","locality":"Oranienburg","municipality":{"key":"12065256","name":"Oranienburg, Stadt","type":"Stadt"},"district":{"key":"12065","name":"Oberhavel","type":"Landkreis"},"federalState":{"key":"12","name":"Brandenburg"}},{"name":"Veltener Str.","postalCode":"16515","locality":"Oranienburg","municipality":{"key":"12065256","name":"Oranienburg, Stadt","type":"Stadt"},"district":{"key":"12065","name":"Oberhavel","type":"Landkreis"},"federalState":{"key":"12","name":"Brandenburg"}},{"name":"Victoria-Str.","postalCode":"16515","locality":"Oranienburg","municipality":{"key":"12065256","name":"Oranienburg, Stadt","type":"Stadt"},"district":{"key":"12065","name":"Oberhavel","type":"Landkreis"},"federalState":{"key":"12","name":"Brandenburg"}},{"name":"Villacher Str.","postalCode":"16515","locality":"Oranienburg","municipality":{"key":"12065256","name":"Oranienburg, Stadt","type":"Stadt"},"district":{"key":"12065","name":"Oberhavel","type":"Landkreis"},"federalState":{"key":"12","name":"Brandenburg"}},{"name":"Virchowstr.","postalCode":"16515","locality":"Oranienburg","municipality":{"key":"12065256","name":"Oranienburg, Stadt","type":"Stadt"},"district":{"key":"12065","name":"Oberhavel","type":"Landkreis"},"federalState":{"key":"12","name":"Brandenburg"}},{"name":"Vischerstr.","postalCode":"16515","locality":"Oranienburg","municipality":{"key":"12065256","name":"Oranienburg, Stadt","type":"Stadt"},"district":{"key":"12065","name":"Oberhavel","type":"Landkreis"},"federalState":{"key":"12","name":"Brandenburg"}},{"name":"Vogelbeerweg","postalCode":"16515","locality":"Oranienburg","municipality":{"key":"12065256","name":"Oranienburg, Stadt","type":"Stadt"},"district":{"key":"12065","name":"Oberhavel","type":"Landkreis"},"federalState":{"key":"12","name":"Brandenburg"}},{"name":"Vogelweide","postalCode":"16515","locality":"Oranienburg","municipality":{"key":"12065256","name":"Oranienburg, Stadt","type":"Stadt"},"district":{"key":"12065","name":"Oberhavel","type":"Landkreis"},"federalState":{"key":"12","name":"Brandenburg"}},{"name":"Volkmarweg","postalCode":"16515","locality":"Oranienburg","municipality":{"key":"12065256","name":"Oranienburg, Stadt","type":"Stadt"},"district":{"key":"12065","name":"Oberhavel","type":"Landkreis"},"federalState":{"key":"12","name":"Brandenburg"}},{"name":"von-Thünen-Str.","postalCode":"16515","locality":"Oranienburg","municipality":{"key":"12065256","name":"Oranienburg, Stadt","type":"Stadt"},"district":{"key":"12065","name":"Oberhavel","type":"Landkreis"},"federalState":{"key":"12","name":"Brandenburg"}},{"name":"Vughter Str.","postalCode":"16515","locality":"Oranienburg","municipality":{"key":"12065256","name":"Oranienburg, Stadt","type":"Stadt"},"district":{"key":"12065","name":"Oberhavel","type":"Landkreis"},"federalState":{"key":"12","name":"Brandenburg"}},{"name":"Wacholderweg","postalCode":"16515","locality":"Oranienburg","municipality":{"key":"12065256","name":"Oranienburg, Stadt","type":"Stadt"},"district":{"key":"12065","name":"Oberhavel","type":"Landkreis"},"federalState":{"key":"12","name":"Brandenburg"}},{"name":"Wachtelstr.","postalCode":"16515","locality":"Oranienburg","municipality":{"key":"12065256","name":"Oranienburg, Stadt","type":"Stadt"},"district":{"key":"12065","name":"Oberhavel","type":"Landkreis"},"federalState":{"key":"12","name":"Brandenburg"}},{"name":"Waldallee","postalCode":"16515","locality":"Oranienburg","municipality":{"key":"12065256","name":"Oranienburg, Stadt","type":"Stadt"},"district":{"key":"12065","name":"Oberhavel","type":"Landkreis"},"federalState":{"key":"12","name":"Brandenburg"}},{"name":"Waldring","postalCode":"16515","locality":"Oranienburg","municipality":{"key":"12065256","name":"Oranienburg, Stadt","type":"Stadt"},"district":{"key":"12065","name":"Oberhavel","type":"Landkreis"},"federalState":{"key":"12","name":"Brandenburg"}},{"name":"Waldringstr.","postalCode":"16515","locality":"Oranienburg","municipality":{"key":"12065256","name":"Oranienburg, Stadt","type":"Stadt"},"district":{"key":"12065","name":"Oberhavel","type":"Landkreis"},"federalState":{"key":"12","name":"Brandenburg"}},{"name":"Waldstr.","postalCode":"16515","locality":"Oranienburg","municipality":{"key":"12065256","name":"Oranienburg, Stadt","type":"Stadt"},"district":{"key":"12065","name":"Oberhavel","type":"Landkreis"},"federalState":{"key":"12","name":"Brandenburg"}},{"name":"Waldweg","postalCode":"16515","locality":"Oranienburg","municipality":{"key":"12065256","name":"Oranienburg, Stadt","type":"Stadt"},"district":{"key":"12065","name":"Oberhavel","type":"Landkreis"},"federalState":{"key":"12","name":"Brandenburg"}},{"name":"Wallburgstr.","postalCode":"16515","locality":"Oranienburg","municipality":{"key":"12065256","name":"Oranienburg, Stadt","type":"Stadt"},"district":{"key":"12065","name":"Oberhavel","type":"Landkreis"},"federalState":{"key":"12","name":"Brandenburg"}},{"name":"Walther-Bothe-Str.","postalCode":"16515","locality":"Oranienburg","municipality":{"key":"12065256","name":"Oranienburg, Stadt","type":"Stadt"},"district":{"key":"12065","name":"Oberhavel","type":"Landkreis"},"federalState":{"key":"12","name":"Brandenburg"}},{"name":"Walther-Rathenau-Str.","postalCode":"16515","locality":"Oranienburg","municipality":{"key":"12065256","name":"Oranienburg, Stadt","type":"Stadt"},"district":{"key":"12065","name":"Oberhavel","type":"Landkreis"},"federalState":{"key":"12","name":"Brandenburg"}},{"name":"Wandlitzer Chaussee","postalCode":"16515","locality":"Oranienburg","municipality":{"key":"12065256","name":"Oranienburg, Stadt","type":"Stadt"},"district":{"key":"12065","name":"Oberhavel","type":"Landkreis"},"federalState":{"key":"12","name":"Brandenburg"}},{"name":"Warthestr.","postalCode":"16515","locality":"Oranienburg","municipality":{"key":"12065256","name":"Oranienburg, Stadt","type":"Stadt"},"district":{"key":"12065","name":"Oberhavel","type":"Landkreis"},"federalState":{"key":"12","name":"Brandenburg"}},{"name":"Wasserweg","postalCode":"16515","locality":"Oranienburg","municipality":{"key":"12065256","name":"Oranienburg, Stadt","type":"Stadt"},"district":{"key":"12065","name":"Oberhavel","type":"Landkreis"},"federalState":{"key":"12","name":"Brandenburg"}},{"name":"Weberstr.","postalCode":"16515","locality":"Oranienburg","municipality":{"key":"12065256","name":"Oranienburg, Stadt","type":"Stadt"},"district":{"key":"12065","name":"Oberhavel","type":"Landkreis"},"federalState":{"key":"12","name":"Brandenburg"}},{"name":"Weg an den Wiesen","postalCode":"16515","locality":"Oranienburg","municipality":{"key":"12065256","name":"Oranienburg, Stadt","type":"Stadt"},"district":{"key":"12065","name":"Oberhavel","type":"Landkreis"},"federalState":{"key":"12","name":"Brandenburg"}},{"name":"Weg zur Biberfarm","postalCode":"16515","locality":"Oranienburg","municipality":{"key":"12065256","name":"Oranienburg, Stadt","type":"Stadt"},"district":{"key":"12065","name":"Oberhavel","type":"Landkreis"},"federalState":{"key":"12","name":"Brandenburg"}},{"name":"Weichselstr.","postalCode":"16515","locality":"Oranienburg","municipality":{"key":"12065256","name":"Oranienburg, Stadt","type":"Stadt"},"district":{"key":"12065","name":"Oberhavel","type":"Landkreis"},"federalState":{"key":"12","name":"Brandenburg"}},{"name":"Weidensteig","postalCode":"16515","locality":"Oranienburg","municipality":{"key":"12065256","name":"Oranienburg, Stadt","type":"Stadt"},"district":{"key":"12065","name":"Oberhavel","type":"Landkreis"},"federalState":{"key":"12","name":"Brandenburg"}},{"name":"Weimarer Str.","postalCode":"16515","locality":"Oranienburg","municipality":{"key":"12065256","name":"Oranienburg, Stadt","type":"Stadt"},"district":{"key":"12065","name":"Oberhavel","type":"Landkreis"},"federalState":{"key":"12","name":"Brandenburg"}},{"name":"Weißenfelser Str.","postalCode":"16515","locality":"Oranienburg","municipality":{"key":"12065256","name":"Oranienburg, Stadt","type":"Stadt"},"district":{"key":"12065","name":"Oberhavel","type":"Landkreis"},"federalState":{"key":"12","name":"Brandenburg"}},{"name":"Weistritzstr.","postalCode":"16515","locality":"Oranienburg","municipality":{"key":"12065256","name":"Oranienburg, Stadt","type":"Stadt"},"district":{"key":"12065","name":"Oberhavel","type":"Landkreis"},"federalState":{"key":"12","name":"Brandenburg"}},{"name":"Wensickendorfer Chaussee","postalCode":"16515","locality":"Oranienburg","municipality":{"key":"12065256","name":"Oranienburg, Stadt","type":"Stadt"},"district":{"key":"12065","name":"Oberhavel","type":"Landkreis"},"federalState":{"key":"12","name":"Brandenburg"}},{"name":"Wensickendorfer Str.","postalCode":"16515","locality":"Oranienburg","municipality":{"key":"12065256","name":"Oranienburg, Stadt","type":"Stadt"},"district":{"key":"12065","name":"Oberhavel","type":"Landkreis"},"federalState":{"key":"12","name":"Brandenburg"}},{"name":"Wernigeroder Str.","postalCode":"16515","locality":"Oranienburg","municipality":{"key":"12065256","name":"Oranienburg, Stadt","type":"Stadt"},"district":{"key":"12065","name":"Oberhavel","type":"Landkreis"},"federalState":{"key":"12","name":"Brandenburg"}},{"name":"Werrastr.","postalCode":"16515","locality":"Oranienburg","municipality":{"key":"12065256","name":"Oranienburg, Stadt","type":"Stadt"},"district":{"key":"12065","name":"Oberhavel","type":"Landkreis"},"federalState":{"key":"12","name":"Brandenburg"}},{"name":"Weserstr.","postalCode":"16515","locality":"Oranienburg","municipality":{"key":"12065256","name":"Oranienburg, Stadt","type":"Stadt"},"district":{"key":"12065","name":"Oberhavel","type":"Landkreis"},"federalState":{"key":"12","name":"Brandenburg"}},{"name":"Westweg","postalCode":"16515","locality":"Oranienburg","municipality":{"key":"12065256","name":"Oranienburg, Stadt","type":"Stadt"},"district":{"key":"12065","name":"Oberhavel","type":"Landkreis"},"federalState":{"key":"12","name":"Brandenburg"}},{"name":"Wiesbadener Str.","postalCode":"16515","locality":"Oranienburg","municipality":{"key":"12065256","name":"Oranienburg, Stadt","type":"Stadt"},"district":{"key":"12065","name":"Oberhavel","type":"Landkreis"},"federalState":{"key":"12","name":"Brandenburg"}},{"name":"Wiesengrund","postalCode":"16515","locality":"Oranienburg","municipality":{"key":"12065256","name":"Oranienburg, Stadt","type":"Stadt"},"district":{"key":"12065","name":"Oberhavel","type":"Landkreis"},"federalState":{"key":"12","name":"Brandenburg"}},{"name":"Wiesenstr.","postalCode":"16515","locality":"Oranienburg","municipality":{"key":"12065256","name":"Oranienburg, Stadt","type":"Stadt"},"district":{"key":"12065","name":"Oberhavel","type":"Landkreis"},"federalState":{"key":"12","name":"Brandenburg"}},{"name":"Wiesenweg","postalCode":"16515","locality":"Oranienburg","municipality":{"key":"12065256","name":"Oranienburg, Stadt","type":"Stadt"},"district":{"key":"12065","name":"Oberhavel","type":"Landkreis"},"federalState":{"key":"12","name":"Brandenburg"}},{"name":"Wilhelm-Groß-Str.","postalCode":"16515","locality":"Oranienburg","municipality":{"key":"12065256","name":"Oranienburg, Stadt","type":"Stadt"},"district":{"key":"12065","name":"Oberhavel","type":"Landkreis"},"federalState":{"key":"12","name":"Brandenburg"}},{"name":"Wilhelm-Liebknecht-Str.","postalCode":"16515","locality":"Oranienburg","municipality":{"key":"12065256","name":"Oranienburg, Stadt","type":"Stadt"},"district":{"key":"12065","name":"Oberhavel","type":"Landkreis"},"federalState":{"key":"12","name":"Brandenburg"}},{"name":"Wilhelmsthal","postalCode":"16515","locality":"Oranienburg","municipality":{"key":"12065256","name":"Oranienburg, Stadt","type":"Stadt"},"district":{"key":"12065","name":"Oberhavel","type":"Landkreis"},"federalState":{"key":"12","name":"Brandenburg"}},{"name":"Wilhelmstr.","postalCode":"16515","locality":"Oranienburg","municipality":{"key":"12065256","name":"Oranienburg, Stadt","type":"Stadt"},"district":{"key":"12065","name":"Oberhavel","type":"Landkreis"},"federalState":{"key":"12","name":"Brandenburg"}},{"name":"Willy-Brandt-Str.","postalCode":"16515","locality":"Oranienburg","municipality":{"key":"12065256","name":"Oranienburg, Stadt","type":"Stadt"},"district":{"key":"12065","name":"Oberhavel","type":"Landkreis"},"federalState":{"key":"12","name":"Brandenburg"}},{"name":"Wittenberger Str.","postalCode":"16515","locality":"Oranienburg","municipality":{"key":"12065256","name":"Oranienburg, Stadt","type":"Stadt"},"district":{"key":"12065","name":"Oberhavel","type":"Landkreis"},"federalState":{"key":"12","name":"Brandenburg"}},{"name":"Wolfsweg","postalCode":"16515","locality":"Oranienburg","municipality":{"key":"12065256","name":"Oranienburg, Stadt","type":"Stadt"},"district":{"key":"12065","name":"Oberhavel","type":"Landkreis"},"federalState":{"key":"12","name":"Brandenburg"}},{"name":"Wormser Str.","postalCode":"16515","locality":"Oranienburg","municipality":{"key":"12065256","name":"Oranienburg, Stadt","type":"Stadt"},"district":{"key":"12065","name":"Oberhavel","type":"Landkreis"},"federalState":{"key":"12","name":"Brandenburg"}},{"name":"Wörthstr.","postalCode":"16515","locality":"Oranienburg","municipality":{"key":"12065256","name":"Oranienburg, Stadt","type":"Stadt"},"district":{"key":"12065","name":"Oberhavel","type":"Landkreis"},"federalState":{"key":"12","name":"Brandenburg"}},{"name":"Wupperstr.","postalCode":"16515","locality":"Oranienburg","municipality":{"key":"12065256","name":"Oranienburg, Stadt","type":"Stadt"},"district":{"key":"12065","name":"Oberhavel","type":"Landkreis"},"federalState":{"key":"12","name":"Brandenburg"}},{"name":"Wurzelweg","postalCode":"16515","locality":"Oranienburg","municipality":{"key":"12065256","name":"Oranienburg, Stadt","type":"Stadt"},"district":{"key":"12065","name":"Oberhavel","type":"Landkreis"},"federalState":{"key":"12","name":"Brandenburg"}},{"name":"Zanderweg","postalCode":"16515","locality":"Oranienburg","municipality":{"key":"12065256","name":"Oranienburg, Stadt","type":"Stadt"},"district":{"key":"12065","name":"Oberhavel","type":"Landkreis"},"federalState":{"key":"12","name":"Brandenburg"}},{"name":"Zehlendorfer Chaussee","postalCode":"16515","locality":"Oranienburg","municipality":{"key":"12065256","name":"Oranienburg, Stadt","type":"Stadt"},"district":{"key":"12065","name":"Oberhavel","type":"Landkreis"},"federalState":{"key":"12","name":"Brandenburg"}},{"name":"Zella-Mehliser-Str.","postalCode":"16515","locality":"Oranienburg","municipality":{"key":"12065256","name":"Oranienburg, Stadt","type":"Stadt"},"district":{"key":"12065","name":"Oberhavel","type":"Landkreis"},"federalState":{"key":"12","name":"Brandenburg"}},{"name":"Zeller Str.","postalCode":"16515","locality":"Oranienburg","municipality":{"key":"12065256","name":"Oranienburg, Stadt","type":"Stadt"},"district":{"key":"12065","name":"Oberhavel","type":"Landkreis"},"federalState":{"key":"12","name":"Brandenburg"}},{"name":"Ziegelweg","postalCode":"16515","locality":"Oranienburg","municipality":{"key":"12065256","name":"Oranienburg, Stadt","type":"Stadt"},"district":{"key":"12065","name":"Oberhavel","type":"Landkreis"},"federalState":{"key":"12","name":"Brandenburg"}},{"name":"Zühlsdorfer Str.","postalCode":"16515","locality":"Oranienburg","municipality":{"key":"12065256","name":"Oranienburg, Stadt","type":"Stadt"},"district":{"key":"12065","name":"Oberhavel","type":"Landkreis"},"federalState":{"key":"12","name":"Brandenburg"}},{"name":"Zum Bahndamm","postalCode":"16515","locality":"Oranienburg","municipality":{"key":"12065256","name":"Oranienburg, Stadt","type":"Stadt"},"district":{"key":"12065","name":"Oberhavel","type":"Landkreis"},"federalState":{"key":"12","name":"Brandenburg"}},{"name":"Zum Bahnhof","postalCode":"16515","locality":"Oranienburg","municipality":{"key":"12065256","name":"Oranienburg, Stadt","type":"Stadt"},"district":{"key":"12065","name":"Oberhavel","type":"Landkreis"},"federalState":{"key":"12","name":"Brandenburg"}},{"name":"Zum Seegestell","postalCode":"16515","locality":"Oranienburg","municipality":{"key":"12065256","name":"Oranienburg, Stadt","type":"Stadt"},"district":{"key":"12065","name":"Oberhavel","type":"Landkreis"},"federalState":{"key":"12","name":"Brandenburg"}},{"name":"Zum Weißen Haus","postalCode":"16515","locality":"Oranienburg","municipality":{"key":"12065256","name":"Oranienburg, Stadt","type":"Stadt"},"district":{"key":"12065","name":"Oberhavel","type":"Landkreis"},"federalState":{"key":"12","name":"Brandenburg"}},{"name":"Zur Dorfstr.","postalCode":"16515","locality":"Oranienburg","municipality":{"key":"12065256","name":"Oranienburg, Stadt","type":"Stadt"},"district":{"key":"12065","name":"Oberhavel","type":"Landkreis"},"federalState":{"key":"12","name":"Brandenburg"}},{"name":"Zur Rolle","postalCode":"16515","locality":"Oranienburg","municipality":{"key":"12065256","name":"Oranienburg, Stadt","type":"Stadt"},"district":{"key":"12065","name":"Oberhavel","type":"Landkreis"},"federalState":{"key":"12","name":"Brandenburg"}},{"name":"Zur Schnellen Havel","postalCode":"16515","locality":"Oranienburg","municipality":{"key":"12065256","name":"Oranienburg, Stadt","type":"Stadt"},"district":{"key":"12065","name":"Oberhavel","type":"Landkreis"},"federalState":{"key":"12","name":"Brandenburg"}},{"name":"Zur Tongrube","postalCode":"16515","locality":"Oranienburg","municipality":{"key":"12065256","name":"Oranienburg, Stadt","type":"Stadt"},"district":{"key":"12065","name":"Oberhavel","type":"Landkreis"},"federalState":{"key":"12","name":"Brandenburg"}},{"name":"Östliche Havelpromenade","postalCode":"16515","locality":"Oranienburg","municipality":{"key":"12065256","name":"Oranienburg, Stadt","type":"Stadt"},"district":{"key":"12065","name":"Oberhavel","type":"Landkreis"},"federalState":{"key":"12","name":"Brandenburg"}},]