[{"name":"Ackerstr.","postalCode":"19348","locality":"Perleberg","municipality":{"key":"12070296","name":"Perleberg, Stadt","type":"Stadt"},"district":{"key":"12070","name":"Prignitz","type":"Landkreis"},"federalState":{"key":"12","name":"Brandenburg"}},{"name":"Ahornweg","postalCode":"19348","locality":"Perleberg","municipality":{"key":"12070296","name":"Perleberg, Stadt","type":"Stadt"},"district":{"key":"12070","name":"Prignitz","type":"Landkreis"},"federalState":{"key":"12","name":"Brandenburg"}},{"name":"Akazienweg","postalCode":"19348","locality":"Perleberg","municipality":{"key":"12070296","name":"Perleberg, Stadt","type":"Stadt"},"district":{"key":"12070","name":"Prignitz","type":"Landkreis"},"federalState":{"key":"12","name":"Brandenburg"}},{"name":"Alpaka","postalCode":"19348","locality":"Perleberg","municipality":{"key":"12070296","name":"Perleberg, Stadt","type":"Stadt"},"district":{"key":"12070","name":"Prignitz","type":"Landkreis"},"federalState":{"key":"12","name":"Brandenburg"}},{"name":"Am alten Friedhof","postalCode":"19348","locality":"Perleberg","municipality":{"key":"12070296","name":"Perleberg, Stadt","type":"Stadt"},"district":{"key":"12070","name":"Prignitz","type":"Landkreis"},"federalState":{"key":"12","name":"Brandenburg"}},{"name":"Am alten Postweg","postalCode":"19348","locality":"Perleberg","municipality":{"key":"12070296","name":"Perleberg, Stadt","type":"Stadt"},"district":{"key":"12070","name":"Prignitz","type":"Landkreis"},"federalState":{"key":"12","name":"Brandenburg"}},{"name":"Am Bahnhof","postalCode":"19348","locality":"Perleberg","municipality":{"key":"12070296","name":"Perleberg, Stadt","type":"Stadt"},"district":{"key":"12070","name":"Prignitz","type":"Landkreis"},"federalState":{"key":"12","name":"Brandenburg"}},{"name":"Am Beyerteich","postalCode":"19348","locality":"Perleberg","municipality":{"key":"12070296","name":"Perleberg, Stadt","type":"Stadt"},"district":{"key":"12070","name":"Prignitz","type":"Landkreis"},"federalState":{"key":"12","name":"Brandenburg"}},{"name":"Am Hohen Ende","postalCode":"19348","locality":"Perleberg","municipality":{"key":"12070296","name":"Perleberg, Stadt","type":"Stadt"},"district":{"key":"12070","name":"Prignitz","type":"Landkreis"},"federalState":{"key":"12","name":"Brandenburg"}},{"name":"Amselweg","postalCode":"19348","locality":"Perleberg","municipality":{"key":"12070296","name":"Perleberg, Stadt","type":"Stadt"},"district":{"key":"12070","name":"Prignitz","type":"Landkreis"},"federalState":{"key":"12","name":"Brandenburg"}},{"name":"Am Wald","postalCode":"19348","locality":"Perleberg","municipality":{"key":"12070296","name":"Perleberg, Stadt","type":"Stadt"},"district":{"key":"12070","name":"Prignitz","type":"Landkreis"},"federalState":{"key":"12","name":"Brandenburg"}},{"name":"Am Waldrand","postalCode":"19348","locality":"Perleberg","municipality":{"key":"12070296","name":"Perleberg, Stadt","type":"Stadt"},"district":{"key":"12070","name":"Prignitz","type":"Landkreis"},"federalState":{"key":"12","name":"Brandenburg"}},{"name":"Am Wandrahmen","postalCode":"19348","locality":"Perleberg","municipality":{"key":"12070296","name":"Perleberg, Stadt","type":"Stadt"},"district":{"key":"12070","name":"Prignitz","type":"Landkreis"},"federalState":{"key":"12","name":"Brandenburg"}},{"name":"An den Eichen","postalCode":"19348","locality":"Perleberg","municipality":{"key":"12070296","name":"Perleberg, Stadt","type":"Stadt"},"district":{"key":"12070","name":"Prignitz","type":"Landkreis"},"federalState":{"key":"12","name":"Brandenburg"}},{"name":"An den Hufen","postalCode":"19348","locality":"Perleberg","municipality":{"key":"12070296","name":"Perleberg, Stadt","type":"Stadt"},"district":{"key":"12070","name":"Prignitz","type":"Landkreis"},"federalState":{"key":"12","name":"Brandenburg"}},{"name":"An der Bahn","postalCode":"19348","locality":"Perleberg","municipality":{"key":"12070296","name":"Perleberg, Stadt","type":"Stadt"},"district":{"key":"12070","name":"Prignitz","type":"Landkreis"},"federalState":{"key":"12","name":"Brandenburg"}},{"name":"An der Krippe","postalCode":"19348","locality":"Perleberg","municipality":{"key":"12070296","name":"Perleberg, Stadt","type":"Stadt"},"district":{"key":"12070","name":"Prignitz","type":"Landkreis"},"federalState":{"key":"12","name":"Brandenburg"}},{"name":"An der Nordbahn","postalCode":"19348","locality":"Perleberg","municipality":{"key":"12070296","name":"Perleberg, Stadt","type":"Stadt"},"district":{"key":"12070","name":"Prignitz","type":"Landkreis"},"federalState":{"key":"12","name":"Brandenburg"}},{"name":"An der Vorderheide","postalCode":"19348","locality":"Perleberg","municipality":{"key":"12070296","name":"Perleberg, Stadt","type":"Stadt"},"district":{"key":"12070","name":"Prignitz","type":"Landkreis"},"federalState":{"key":"12","name":"Brandenburg"}},{"name":"August-Bebel-Str.","postalCode":"19348","locality":"Perleberg","municipality":{"key":"12070296","name":"Perleberg, Stadt","type":"Stadt"},"district":{"key":"12070","name":"Prignitz","type":"Landkreis"},"federalState":{"key":"12","name":"Brandenburg"}},{"name":"Ausbau","postalCode":"19348","locality":"Perleberg","municipality":{"key":"12070296","name":"Perleberg, Stadt","type":"Stadt"},"district":{"key":"12070","name":"Prignitz","type":"Landkreis"},"federalState":{"key":"12","name":"Brandenburg"}},{"name":"Bäckerstr.","postalCode":"19348","locality":"Perleberg","municipality":{"key":"12070296","name":"Perleberg, Stadt","type":"Stadt"},"district":{"key":"12070","name":"Prignitz","type":"Landkreis"},"federalState":{"key":"12","name":"Brandenburg"}},{"name":"Bahnhofsplatz","postalCode":"19348","locality":"Perleberg","municipality":{"key":"12070296","name":"Perleberg, Stadt","type":"Stadt"},"district":{"key":"12070","name":"Prignitz","type":"Landkreis"},"federalState":{"key":"12","name":"Brandenburg"}},{"name":"Begehbare Vogelvoliere","postalCode":"19348","locality":"Perleberg","municipality":{"key":"12070296","name":"Perleberg, Stadt","type":"Stadt"},"district":{"key":"12070","name":"Prignitz","type":"Landkreis"},"federalState":{"key":"12","name":"Brandenburg"}},{"name":"Beguinenstr.","postalCode":"19348","locality":"Perleberg","municipality":{"key":"12070296","name":"Perleberg, Stadt","type":"Stadt"},"district":{"key":"12070","name":"Prignitz","type":"Landkreis"},"federalState":{"key":"12","name":"Brandenburg"}},{"name":"Beguinenwiese","postalCode":"19348","locality":"Perleberg","municipality":{"key":"12070296","name":"Perleberg, Stadt","type":"Stadt"},"district":{"key":"12070","name":"Prignitz","type":"Landkreis"},"federalState":{"key":"12","name":"Brandenburg"}},{"name":"Bergstr.","postalCode":"19348","locality":"Perleberg","municipality":{"key":"12070296","name":"Perleberg, Stadt","type":"Stadt"},"district":{"key":"12070","name":"Prignitz","type":"Landkreis"},"federalState":{"key":"12","name":"Brandenburg"}},{"name":"Berliner Str.","postalCode":"19348","locality":"Perleberg","municipality":{"key":"12070296","name":"Perleberg, Stadt","type":"Stadt"},"district":{"key":"12070","name":"Prignitz","type":"Landkreis"},"federalState":{"key":"12","name":"Brandenburg"}},{"name":"Berliner Weg","postalCode":"19348","locality":"Perleberg","municipality":{"key":"12070296","name":"Perleberg, Stadt","type":"Stadt"},"district":{"key":"12070","name":"Prignitz","type":"Landkreis"},"federalState":{"key":"12","name":"Brandenburg"}},{"name":"Birkenweg","postalCode":"19348","locality":"Perleberg","municipality":{"key":"12070296","name":"Perleberg, Stadt","type":"Stadt"},"district":{"key":"12070","name":"Prignitz","type":"Landkreis"},"federalState":{"key":"12","name":"Brandenburg"}},{"name":"Braunbären","postalCode":"19348","locality":"Perleberg","municipality":{"key":"12070296","name":"Perleberg, Stadt","type":"Stadt"},"district":{"key":"12070","name":"Prignitz","type":"Landkreis"},"federalState":{"key":"12","name":"Brandenburg"}},{"name":"Buchenweg","postalCode":"19348","locality":"Perleberg","municipality":{"key":"12070296","name":"Perleberg, Stadt","type":"Stadt"},"district":{"key":"12070","name":"Prignitz","type":"Landkreis"},"federalState":{"key":"12","name":"Brandenburg"}},{"name":"Buchholzer Chaussee","postalCode":"19348","locality":"Perleberg","municipality":{"key":"12070296","name":"Perleberg, Stadt","type":"Stadt"},"district":{"key":"12070","name":"Prignitz","type":"Landkreis"},"federalState":{"key":"12","name":"Brandenburg"}},{"name":"Burenziegen","postalCode":"19348","locality":"Perleberg","municipality":{"key":"12070296","name":"Perleberg, Stadt","type":"Stadt"},"district":{"key":"12070","name":"Prignitz","type":"Landkreis"},"federalState":{"key":"12","name":"Brandenburg"}},{"name":"Chausseestr.","postalCode":"16928","locality":"Groß Pankow (Prignitz)","municipality":{"key":"12070125","name":"Groß Pankow (Prignitz)","type":"Kreisangehörige_Gemeinde"},"district":{"key":"12070","name":"Prignitz","type":"Landkreis"},"federalState":{"key":"12","name":"Brandenburg"}},{"name":"Dachsweg","postalCode":"19348","locality":"Perleberg","municipality":{"key":"12070296","name":"Perleberg, Stadt","type":"Stadt"},"district":{"key":"12070","name":"Prignitz","type":"Landkreis"},"federalState":{"key":"12","name":"Brandenburg"}},{"name":"Damwild","postalCode":"19348","locality":"Perleberg","municipality":{"key":"12070296","name":"Perleberg, Stadt","type":"Stadt"},"district":{"key":"12070","name":"Prignitz","type":"Landkreis"},"federalState":{"key":"12","name":"Brandenburg"}},{"name":"Dergenthiner Str.","postalCode":"19348","locality":"Perleberg","municipality":{"key":"12070296","name":"Perleberg, Stadt","type":"Stadt"},"district":{"key":"12070","name":"Prignitz","type":"Landkreis"},"federalState":{"key":"12","name":"Brandenburg"}},{"name":"Dingo","postalCode":"19348","locality":"Perleberg","municipality":{"key":"12070296","name":"Perleberg, Stadt","type":"Stadt"},"district":{"key":"12070","name":"Prignitz","type":"Landkreis"},"federalState":{"key":"12","name":"Brandenburg"}},{"name":"Dobberziner Str.","postalCode":"19348","locality":"Perleberg","municipality":{"key":"12070296","name":"Perleberg, Stadt","type":"Stadt"},"district":{"key":"12070","name":"Prignitz","type":"Landkreis"},"federalState":{"key":"12","name":"Brandenburg"}},{"name":"Dorfplatz","postalCode":"19348","locality":"Perleberg","municipality":{"key":"12070296","name":"Perleberg, Stadt","type":"Stadt"},"district":{"key":"12070","name":"Prignitz","type":"Landkreis"},"federalState":{"key":"12","name":"Brandenburg"}},{"name":"Dorfstr.","postalCode":"19348","locality":"Perleberg","municipality":{"key":"12070296","name":"Perleberg, Stadt","type":"Stadt"},"district":{"key":"12070","name":"Prignitz","type":"Landkreis"},"federalState":{"key":"12","name":"Brandenburg"}},{"name":"Drosselweg","postalCode":"19348","locality":"Perleberg","municipality":{"key":"12070296","name":"Perleberg, Stadt","type":"Stadt"},"district":{"key":"12070","name":"Prignitz","type":"Landkreis"},"federalState":{"key":"12","name":"Brandenburg"}},{"name":"Eichenpromenade","postalCode":"19348","locality":"Perleberg","municipality":{"key":"12070296","name":"Perleberg, Stadt","type":"Stadt"},"district":{"key":"12070","name":"Prignitz","type":"Landkreis"},"federalState":{"key":"12","name":"Brandenburg"}},{"name":"Eichhölzer Weg","postalCode":"19348","locality":"Perleberg","municipality":{"key":"12070296","name":"Perleberg, Stadt","type":"Stadt"},"district":{"key":"12070","name":"Prignitz","type":"Landkreis"},"federalState":{"key":"12","name":"Brandenburg"}},{"name":"Erdmännchen","postalCode":"19348","locality":"Perleberg","municipality":{"key":"12070296","name":"Perleberg, Stadt","type":"Stadt"},"district":{"key":"12070","name":"Prignitz","type":"Landkreis"},"federalState":{"key":"12","name":"Brandenburg"}},{"name":"Ernst-Thälmann-Str.","postalCode":"19348","locality":"Perleberg","municipality":{"key":"12070296","name":"Perleberg, Stadt","type":"Stadt"},"district":{"key":"12070","name":"Prignitz","type":"Landkreis"},"federalState":{"key":"12","name":"Brandenburg"}},{"name":"Eschenhof","postalCode":"19348","locality":"Perleberg","municipality":{"key":"12070296","name":"Perleberg, Stadt","type":"Stadt"},"district":{"key":"12070","name":"Prignitz","type":"Landkreis"},"federalState":{"key":"12","name":"Brandenburg"}},{"name":"Esel","postalCode":"19348","locality":"Perleberg","municipality":{"key":"12070296","name":"Perleberg, Stadt","type":"Stadt"},"district":{"key":"12070","name":"Prignitz","type":"Landkreis"},"federalState":{"key":"12","name":"Brandenburg"}},{"name":"Eulenburg","postalCode":"19348","locality":"Perleberg","municipality":{"key":"12070296","name":"Perleberg, Stadt","type":"Stadt"},"district":{"key":"12070","name":"Prignitz","type":"Landkreis"},"federalState":{"key":"12","name":"Brandenburg"}},{"name":"Fasanerie","postalCode":"19348","locality":"Perleberg","municipality":{"key":"12070296","name":"Perleberg, Stadt","type":"Stadt"},"district":{"key":"12070","name":"Prignitz","type":"Landkreis"},"federalState":{"key":"12","name":"Brandenburg"}},{"name":"Feldstr.","postalCode":"19348","locality":"Perleberg","municipality":{"key":"12070296","name":"Perleberg, Stadt","type":"Stadt"},"district":{"key":"12070","name":"Prignitz","type":"Landkreis"},"federalState":{"key":"12","name":"Brandenburg"}},{"name":"Forsthaus","postalCode":"19348","locality":"Perleberg","municipality":{"key":"12070296","name":"Perleberg, Stadt","type":"Stadt"},"district":{"key":"12070","name":"Prignitz","type":"Landkreis"},"federalState":{"key":"12","name":"Brandenburg"}},{"name":"Franz-Grunick-Str.","postalCode":"19348","locality":"Perleberg","municipality":{"key":"12070296","name":"Perleberg, Stadt","type":"Stadt"},"district":{"key":"12070","name":"Prignitz","type":"Landkreis"},"federalState":{"key":"12","name":"Brandenburg"}},{"name":"Friedensstr.","postalCode":"19348","locality":"Perleberg","municipality":{"key":"12070296","name":"Perleberg, Stadt","type":"Stadt"},"district":{"key":"12070","name":"Prignitz","type":"Landkreis"},"federalState":{"key":"12","name":"Brandenburg"}},{"name":"Friedrich-Engels-Platz","postalCode":"19348","locality":"Perleberg","municipality":{"key":"12070296","name":"Perleberg, Stadt","type":"Stadt"},"district":{"key":"12070","name":"Prignitz","type":"Landkreis"},"federalState":{"key":"12","name":"Brandenburg"}},{"name":"Friedrichshof","postalCode":"19348","locality":"Perleberg","municipality":{"key":"12070296","name":"Perleberg, Stadt","type":"Stadt"},"district":{"key":"12070","name":"Prignitz","type":"Landkreis"},"federalState":{"key":"12","name":"Brandenburg"}},{"name":"Friedrichstr.","postalCode":"19348","locality":"Perleberg","municipality":{"key":"12070296","name":"Perleberg, Stadt","type":"Stadt"},"district":{"key":"12070","name":"Prignitz","type":"Landkreis"},"federalState":{"key":"12","name":"Brandenburg"}},{"name":"Gartenstr.","postalCode":"19348","locality":"Perleberg","municipality":{"key":"12070296","name":"Perleberg, Stadt","type":"Stadt"},"district":{"key":"12070","name":"Prignitz","type":"Landkreis"},"federalState":{"key":"12","name":"Brandenburg"}},{"name":"Gasse","postalCode":"19348","locality":"Perleberg","municipality":{"key":"12070296","name":"Perleberg, Stadt","type":"Stadt"},"district":{"key":"12070","name":"Prignitz","type":"Landkreis"},"federalState":{"key":"12","name":"Brandenburg"}},{"name":"Genossenschaftsstr.","postalCode":"19348","locality":"Perleberg","municipality":{"key":"12070296","name":"Perleberg, Stadt","type":"Stadt"},"district":{"key":"12070","name":"Prignitz","type":"Landkreis"},"federalState":{"key":"12","name":"Brandenburg"}},{"name":"Gertrudstr.","postalCode":"19348","locality":"Perleberg","municipality":{"key":"12070296","name":"Perleberg, Stadt","type":"Stadt"},"district":{"key":"12070","name":"Prignitz","type":"Landkreis"},"federalState":{"key":"12","name":"Brandenburg"}},{"name":"Goethe-Platz","postalCode":"19348","locality":"Perleberg","municipality":{"key":"12070296","name":"Perleberg, Stadt","type":"Stadt"},"district":{"key":"12070","name":"Prignitz","type":"Landkreis"},"federalState":{"key":"12","name":"Brandenburg"}},{"name":"Gottfried-Keller-Str.","postalCode":"19348","locality":"Perleberg","municipality":{"key":"12070296","name":"Perleberg, Stadt","type":"Stadt"},"district":{"key":"12070","name":"Prignitz","type":"Landkreis"},"federalState":{"key":"12","name":"Brandenburg"}},{"name":"Grabenstr.","postalCode":"19348","locality":"Perleberg","municipality":{"key":"12070296","name":"Perleberg, Stadt","type":"Stadt"},"district":{"key":"12070","name":"Prignitz","type":"Landkreis"},"federalState":{"key":"12","name":"Brandenburg"}},{"name":"Grahlplatz","postalCode":"19348","locality":"Perleberg","municipality":{"key":"12070296","name":"Perleberg, Stadt","type":"Stadt"},"district":{"key":"12070","name":"Prignitz","type":"Landkreis"},"federalState":{"key":"12","name":"Brandenburg"}},{"name":"Grahlstr.","postalCode":"19348","locality":"Perleberg","municipality":{"key":"12070296","name":"Perleberg, Stadt","type":"Stadt"},"district":{"key":"12070","name":"Prignitz","type":"Landkreis"},"federalState":{"key":"12","name":"Brandenburg"}},{"name":"Groß-Buchholzer-Str.","postalCode":"19348","locality":"Perleberg","municipality":{"key":"12070296","name":"Perleberg, Stadt","type":"Stadt"},"district":{"key":"12070","name":"Prignitz","type":"Landkreis"},"federalState":{"key":"12","name":"Brandenburg"}},{"name":"Großer Markt","postalCode":"19348","locality":"Perleberg","municipality":{"key":"12070296","name":"Perleberg, Stadt","type":"Stadt"},"district":{"key":"12070","name":"Prignitz","type":"Landkreis"},"federalState":{"key":"12","name":"Brandenburg"}},{"name":"Hagenstr.","postalCode":"19348","locality":"Perleberg","municipality":{"key":"12070296","name":"Perleberg, Stadt","type":"Stadt"},"district":{"key":"12070","name":"Prignitz","type":"Landkreis"},"federalState":{"key":"12","name":"Brandenburg"}},{"name":"Hamburger Chaussee","postalCode":"19348","locality":"Perleberg","municipality":{"key":"12070296","name":"Perleberg, Stadt","type":"Stadt"},"district":{"key":"12070","name":"Prignitz","type":"Landkreis"},"federalState":{"key":"12","name":"Brandenburg"}},{"name":"Hamburger Str.","postalCode":"19348","locality":"Perleberg","municipality":{"key":"12070296","name":"Perleberg, Stadt","type":"Stadt"},"district":{"key":"12070","name":"Prignitz","type":"Landkreis"},"federalState":{"key":"12","name":"Brandenburg"}},{"name":"Hasenwinkel","postalCode":"19348","locality":"Perleberg","municipality":{"key":"12070296","name":"Perleberg, Stadt","type":"Stadt"},"district":{"key":"12070","name":"Prignitz","type":"Landkreis"},"federalState":{"key":"12","name":"Brandenburg"}},{"name":"Heilige-Geist-Str.","postalCode":"19348","locality":"Perleberg","municipality":{"key":"12070296","name":"Perleberg, Stadt","type":"Stadt"},"district":{"key":"12070","name":"Prignitz","type":"Landkreis"},"federalState":{"key":"12","name":"Brandenburg"}},{"name":"Heinrich-Heine-Str.","postalCode":"19348","locality":"Perleberg","municipality":{"key":"12070296","name":"Perleberg, Stadt","type":"Stadt"},"district":{"key":"12070","name":"Prignitz","type":"Landkreis"},"federalState":{"key":"12","name":"Brandenburg"}},{"name":"Heinrich-von-Kleist-Str.","postalCode":"19348","locality":"Perleberg","municipality":{"key":"12070296","name":"Perleberg, Stadt","type":"Stadt"},"district":{"key":"12070","name":"Prignitz","type":"Landkreis"},"federalState":{"key":"12","name":"Brandenburg"}},{"name":"Hennigshofer Weg","postalCode":"19348","locality":"Perleberg","municipality":{"key":"12070296","name":"Perleberg, Stadt","type":"Stadt"},"district":{"key":"12070","name":"Prignitz","type":"Landkreis"},"federalState":{"key":"12","name":"Brandenburg"}},{"name":"Hopfenstr.","postalCode":"19348","locality":"Perleberg","municipality":{"key":"12070296","name":"Perleberg, Stadt","type":"Stadt"},"district":{"key":"12070","name":"Prignitz","type":"Landkreis"},"federalState":{"key":"12","name":"Brandenburg"}},{"name":"Hühner","postalCode":"19348","locality":"Perleberg","municipality":{"key":"12070296","name":"Perleberg, Stadt","type":"Stadt"},"district":{"key":"12070","name":"Prignitz","type":"Landkreis"},"federalState":{"key":"12","name":"Brandenburg"}},{"name":"Iltisweg","postalCode":"19348","locality":"Perleberg","municipality":{"key":"12070296","name":"Perleberg, Stadt","type":"Stadt"},"district":{"key":"12070","name":"Prignitz","type":"Landkreis"},"federalState":{"key":"12","name":"Brandenburg"}},{"name":"Industriestr.","postalCode":"19348","locality":"Perleberg","municipality":{"key":"12070296","name":"Perleberg, Stadt","type":"Stadt"},"district":{"key":"12070","name":"Prignitz","type":"Landkreis"},"federalState":{"key":"12","name":"Brandenburg"}},{"name":"Jahnstr.","postalCode":"19348","locality":"Perleberg","municipality":{"key":"12070296","name":"Perleberg, Stadt","type":"Stadt"},"district":{"key":"12070","name":"Prignitz","type":"Landkreis"},"federalState":{"key":"12","name":"Brandenburg"}},{"name":"Kaarster Str.","postalCode":"19348","locality":"Perleberg","municipality":{"key":"12070296","name":"Perleberg, Stadt","type":"Stadt"},"district":{"key":"12070","name":"Prignitz","type":"Landkreis"},"federalState":{"key":"12","name":"Brandenburg"}},{"name":"Känguru + Emu","postalCode":"19348","locality":"Perleberg","municipality":{"key":"12070296","name":"Perleberg, Stadt","type":"Stadt"},"district":{"key":"12070","name":"Prignitz","type":"Landkreis"},"federalState":{"key":"12","name":"Brandenburg"}},{"name":"Kaninchen + Minischweine","postalCode":"19348","locality":"Perleberg","municipality":{"key":"12070296","name":"Perleberg, Stadt","type":"Stadt"},"district":{"key":"12070","name":"Prignitz","type":"Landkreis"},"federalState":{"key":"12","name":"Brandenburg"}},{"name":"Karl-Achtel-Str.","postalCode":"19348","locality":"Perleberg","municipality":{"key":"12070296","name":"Perleberg, Stadt","type":"Stadt"},"district":{"key":"12070","name":"Prignitz","type":"Landkreis"},"federalState":{"key":"12","name":"Brandenburg"}},{"name":"Karl-Liebknecht-Str.","postalCode":"19348","locality":"Perleberg","municipality":{"key":"12070296","name":"Perleberg, Stadt","type":"Stadt"},"district":{"key":"12070","name":"Prignitz","type":"Landkreis"},"federalState":{"key":"12","name":"Brandenburg"}},{"name":"Karl-Marx-Str.","postalCode":"19348","locality":"Perleberg","municipality":{"key":"12070296","name":"Perleberg, Stadt","type":"Stadt"},"district":{"key":"12070","name":"Prignitz","type":"Landkreis"},"federalState":{"key":"12","name":"Brandenburg"}},{"name":"Karlstr.","postalCode":"19348","locality":"Perleberg","municipality":{"key":"12070296","name":"Perleberg, Stadt","type":"Stadt"},"district":{"key":"12070","name":"Prignitz","type":"Landkreis"},"federalState":{"key":"12","name":"Brandenburg"}},{"name":"Kastanienhof","postalCode":"19348","locality":"Perleberg","municipality":{"key":"12070296","name":"Perleberg, Stadt","type":"Stadt"},"district":{"key":"12070","name":"Prignitz","type":"Landkreis"},"federalState":{"key":"12","name":"Brandenburg"}},{"name":"Kattas","postalCode":"19348","locality":"Perleberg","municipality":{"key":"12070296","name":"Perleberg, Stadt","type":"Stadt"},"district":{"key":"12070","name":"Prignitz","type":"Landkreis"},"federalState":{"key":"12","name":"Brandenburg"}},{"name":"Kirchplatz","postalCode":"19348","locality":"Perleberg","municipality":{"key":"12070296","name":"Perleberg, Stadt","type":"Stadt"},"district":{"key":"12070","name":"Prignitz","type":"Landkreis"},"federalState":{"key":"12","name":"Brandenburg"}},{"name":"Kirchstr.","postalCode":"19348","locality":"Perleberg","municipality":{"key":"12070296","name":"Perleberg, Stadt","type":"Stadt"},"district":{"key":"12070","name":"Prignitz","type":"Landkreis"},"federalState":{"key":"12","name":"Brandenburg"}},{"name":"Kochstr.","postalCode":"19348","locality":"Perleberg","municipality":{"key":"12070296","name":"Perleberg, Stadt","type":"Stadt"},"district":{"key":"12070","name":"Prignitz","type":"Landkreis"},"federalState":{"key":"12","name":"Brandenburg"}},{"name":"Kolonie","postalCode":"19348","locality":"Perleberg","municipality":{"key":"12070296","name":"Perleberg, Stadt","type":"Stadt"},"district":{"key":"12070","name":"Prignitz","type":"Landkreis"},"federalState":{"key":"12","name":"Brandenburg"}},{"name":"Koloniestr.","postalCode":"19348","locality":"Perleberg","municipality":{"key":"12070296","name":"Perleberg, Stadt","type":"Stadt"},"district":{"key":"12070","name":"Prignitz","type":"Landkreis"},"federalState":{"key":"12","name":"Brandenburg"}},{"name":"Krämerstr.","postalCode":"19348","locality":"Perleberg","municipality":{"key":"12070296","name":"Perleberg, Stadt","type":"Stadt"},"district":{"key":"12070","name":"Prignitz","type":"Landkreis"},"federalState":{"key":"12","name":"Brandenburg"}},{"name":"Kronenkranich","postalCode":"19348","locality":"Perleberg","municipality":{"key":"12070296","name":"Perleberg, Stadt","type":"Stadt"},"district":{"key":"12070","name":"Prignitz","type":"Landkreis"},"federalState":{"key":"12","name":"Brandenburg"}},{"name":"Krumme Str.","postalCode":"19348","locality":"Perleberg","municipality":{"key":"12070296","name":"Perleberg, Stadt","type":"Stadt"},"district":{"key":"12070","name":"Prignitz","type":"Landkreis"},"federalState":{"key":"12","name":"Brandenburg"}},{"name":"Kurmärker Str.","postalCode":"19348","locality":"Perleberg","municipality":{"key":"12070296","name":"Perleberg, Stadt","type":"Stadt"},"district":{"key":"12070","name":"Prignitz","type":"Landkreis"},"federalState":{"key":"12","name":"Brandenburg"}},{"name":"Kurzer Weg","postalCode":"19348","locality":"Perleberg","municipality":{"key":"12070296","name":"Perleberg, Stadt","type":"Stadt"},"district":{"key":"12070","name":"Prignitz","type":"Landkreis"},"federalState":{"key":"12","name":"Brandenburg"}},{"name":"Lanzer Chaussee","postalCode":"19348","locality":"Perleberg","municipality":{"key":"12070296","name":"Perleberg, Stadt","type":"Stadt"},"district":{"key":"12070","name":"Prignitz","type":"Landkreis"},"federalState":{"key":"12","name":"Brandenburg"}},{"name":"Lärchenweg","postalCode":"19348","locality":"Perleberg","municipality":{"key":"12070296","name":"Perleberg, Stadt","type":"Stadt"},"district":{"key":"12070","name":"Prignitz","type":"Landkreis"},"federalState":{"key":"12","name":"Brandenburg"}},{"name":"Lehmkuhlenweg","postalCode":"19348","locality":"Perleberg","municipality":{"key":"12070296","name":"Perleberg, Stadt","type":"Stadt"},"district":{"key":"12070","name":"Prignitz","type":"Landkreis"},"federalState":{"key":"12","name":"Brandenburg"}},{"name":"Lenzener Str.","postalCode":"19348","locality":"Perleberg","municipality":{"key":"12070296","name":"Perleberg, Stadt","type":"Stadt"},"district":{"key":"12070","name":"Prignitz","type":"Landkreis"},"federalState":{"key":"12","name":"Brandenburg"}},{"name":"Lindenhof","postalCode":"19348","locality":"Perleberg","municipality":{"key":"12070296","name":"Perleberg, Stadt","type":"Stadt"},"district":{"key":"12070","name":"Prignitz","type":"Landkreis"},"federalState":{"key":"12","name":"Brandenburg"}},{"name":"Lindenstr.","postalCode":"19348","locality":"Perleberg","municipality":{"key":"12070296","name":"Perleberg, Stadt","type":"Stadt"},"district":{"key":"12070","name":"Prignitz","type":"Landkreis"},"federalState":{"key":"12","name":"Brandenburg"}},{"name":"Lindenweg","postalCode":"19348","locality":"Perleberg","municipality":{"key":"12070296","name":"Perleberg, Stadt","type":"Stadt"},"district":{"key":"12070","name":"Prignitz","type":"Landkreis"},"federalState":{"key":"12","name":"Brandenburg"}},{"name":"Lübzower Str.","postalCode":"19348","locality":"Perleberg","municipality":{"key":"12070296","name":"Perleberg, Stadt","type":"Stadt"},"district":{"key":"12070","name":"Prignitz","type":"Landkreis"},"federalState":{"key":"12","name":"Brandenburg"}},{"name":"Luchs","postalCode":"19348","locality":"Perleberg","municipality":{"key":"12070296","name":"Perleberg, Stadt","type":"Stadt"},"district":{"key":"12070","name":"Prignitz","type":"Landkreis"},"federalState":{"key":"12","name":"Brandenburg"}},{"name":"Marienplatz","postalCode":"19348","locality":"Perleberg","municipality":{"key":"12070296","name":"Perleberg, Stadt","type":"Stadt"},"district":{"key":"12070","name":"Prignitz","type":"Landkreis"},"federalState":{"key":"12","name":"Brandenburg"}},{"name":"Marienstr.","postalCode":"19348","locality":"Perleberg","municipality":{"key":"12070296","name":"Perleberg, Stadt","type":"Stadt"},"district":{"key":"12070","name":"Prignitz","type":"Landkreis"},"federalState":{"key":"12","name":"Brandenburg"}},{"name":"Marktgasse","postalCode":"19348","locality":"Perleberg","municipality":{"key":"12070296","name":"Perleberg, Stadt","type":"Stadt"},"district":{"key":"12070","name":"Prignitz","type":"Landkreis"},"federalState":{"key":"12","name":"Brandenburg"}},{"name":"Matthias-Hasse-Str.","postalCode":"19348","locality":"Perleberg","municipality":{"key":"12070296","name":"Perleberg, Stadt","type":"Stadt"},"district":{"key":"12070","name":"Prignitz","type":"Landkreis"},"federalState":{"key":"12","name":"Brandenburg"}},{"name":"Mauerstr.","postalCode":"19348","locality":"Perleberg","municipality":{"key":"12070296","name":"Perleberg, Stadt","type":"Stadt"},"district":{"key":"12070","name":"Prignitz","type":"Landkreis"},"federalState":{"key":"12","name":"Brandenburg"}},{"name":"Max-Viereck-Str.","postalCode":"19348","locality":"Perleberg","municipality":{"key":"12070296","name":"Perleberg, Stadt","type":"Stadt"},"district":{"key":"12070","name":"Prignitz","type":"Landkreis"},"federalState":{"key":"12","name":"Brandenburg"}},{"name":"Meerschweinchen","postalCode":"19348","locality":"Perleberg","municipality":{"key":"12070296","name":"Perleberg, Stadt","type":"Stadt"},"district":{"key":"12070","name":"Prignitz","type":"Landkreis"},"federalState":{"key":"12","name":"Brandenburg"}},{"name":"Meisenweg","postalCode":"19348","locality":"Perleberg","municipality":{"key":"12070296","name":"Perleberg, Stadt","type":"Stadt"},"district":{"key":"12070","name":"Prignitz","type":"Landkreis"},"federalState":{"key":"12","name":"Brandenburg"}},{"name":"Mergelkuhlenweg","postalCode":"19348","locality":"Perleberg","municipality":{"key":"12070296","name":"Perleberg, Stadt","type":"Stadt"},"district":{"key":"12070","name":"Prignitz","type":"Landkreis"},"federalState":{"key":"12","name":"Brandenburg"}},{"name":"Mönchort","postalCode":"19348","locality":"Perleberg","municipality":{"key":"12070296","name":"Perleberg, Stadt","type":"Stadt"},"district":{"key":"12070","name":"Prignitz","type":"Landkreis"},"federalState":{"key":"12","name":"Brandenburg"}},{"name":"Muflon","postalCode":"19348","locality":"Perleberg","municipality":{"key":"12070296","name":"Perleberg, Stadt","type":"Stadt"},"district":{"key":"12070","name":"Prignitz","type":"Landkreis"},"federalState":{"key":"12","name":"Brandenburg"}},{"name":"Mühlenausbau","postalCode":"19348","locality":"Perleberg","municipality":{"key":"12070296","name":"Perleberg, Stadt","type":"Stadt"},"district":{"key":"12070","name":"Prignitz","type":"Landkreis"},"federalState":{"key":"12","name":"Brandenburg"}},{"name":"Mühlenstr.","postalCode":"19348","locality":"Perleberg","municipality":{"key":"12070296","name":"Perleberg, Stadt","type":"Stadt"},"district":{"key":"12070","name":"Prignitz","type":"Landkreis"},"federalState":{"key":"12","name":"Brandenburg"}},{"name":"Mühlenweg","postalCode":"19348","locality":"Perleberg","municipality":{"key":"12070296","name":"Perleberg, Stadt","type":"Stadt"},"district":{"key":"12070","name":"Prignitz","type":"Landkreis"},"federalState":{"key":"12","name":"Brandenburg"}},{"name":"Nachtigallstr.","postalCode":"19348","locality":"Perleberg","municipality":{"key":"12070296","name":"Perleberg, Stadt","type":"Stadt"},"district":{"key":"12070","name":"Prignitz","type":"Landkreis"},"federalState":{"key":"12","name":"Brandenburg"}},{"name":"Nandu","postalCode":"19348","locality":"Perleberg","municipality":{"key":"12070296","name":"Perleberg, Stadt","type":"Stadt"},"district":{"key":"12070","name":"Prignitz","type":"Landkreis"},"federalState":{"key":"12","name":"Brandenburg"}},{"name":"Nasenbär","postalCode":"19348","locality":"Perleberg","municipality":{"key":"12070296","name":"Perleberg, Stadt","type":"Stadt"},"district":{"key":"12070","name":"Prignitz","type":"Landkreis"},"federalState":{"key":"12","name":"Brandenburg"}},{"name":"Nebeliner Str.","postalCode":"19348","locality":"Perleberg","municipality":{"key":"12070296","name":"Perleberg, Stadt","type":"Stadt"},"district":{"key":"12070","name":"Prignitz","type":"Landkreis"},"federalState":{"key":"12","name":"Brandenburg"}},{"name":"Neu Premsliner Str.","postalCode":"19348","locality":"Perleberg","municipality":{"key":"12070296","name":"Perleberg, Stadt","type":"Stadt"},"district":{"key":"12070","name":"Prignitz","type":"Landkreis"},"federalState":{"key":"12","name":"Brandenburg"}},{"name":"Neusser Str.","postalCode":"19348","locality":"Perleberg","municipality":{"key":"12070296","name":"Perleberg, Stadt","type":"Stadt"},"district":{"key":"12070","name":"Prignitz","type":"Landkreis"},"federalState":{"key":"12","name":"Brandenburg"}},{"name":"Norderstedter Str.","postalCode":"19348","locality":"Perleberg","municipality":{"key":"12070296","name":"Perleberg, Stadt","type":"Stadt"},"district":{"key":"12070","name":"Prignitz","type":"Landkreis"},"federalState":{"key":"12","name":"Brandenburg"}},{"name":"Ochsengasse","postalCode":"19348","locality":"Perleberg","municipality":{"key":"12070296","name":"Perleberg, Stadt","type":"Stadt"},"district":{"key":"12070","name":"Prignitz","type":"Landkreis"},"federalState":{"key":"12","name":"Brandenburg"}},{"name":"Papageien","postalCode":"19348","locality":"Perleberg","municipality":{"key":"12070296","name":"Perleberg, Stadt","type":"Stadt"},"district":{"key":"12070","name":"Prignitz","type":"Landkreis"},"federalState":{"key":"12","name":"Brandenburg"}},{"name":"Pappelweg","postalCode":"19348","locality":"Perleberg","municipality":{"key":"12070296","name":"Perleberg, Stadt","type":"Stadt"},"district":{"key":"12070","name":"Prignitz","type":"Landkreis"},"federalState":{"key":"12","name":"Brandenburg"}},{"name":"Parchimer Str.","postalCode":"19348","locality":"Perleberg","municipality":{"key":"12070296","name":"Perleberg, Stadt","type":"Stadt"},"district":{"key":"12070","name":"Prignitz","type":"Landkreis"},"federalState":{"key":"12","name":"Brandenburg"}},{"name":"Perleberger Str.","postalCode":"19348","locality":"Perleberg","municipality":{"key":"12070296","name":"Perleberg, Stadt","type":"Stadt"},"district":{"key":"12070","name":"Prignitz","type":"Landkreis"},"federalState":{"key":"12","name":"Brandenburg"}},{"name":"Perlhof","postalCode":"19348","locality":"Perleberg","municipality":{"key":"12070296","name":"Perleberg, Stadt","type":"Stadt"},"district":{"key":"12070","name":"Prignitz","type":"Landkreis"},"federalState":{"key":"12","name":"Brandenburg"}},{"name":"Pinneberger Str.","postalCode":"19348","locality":"Perleberg","municipality":{"key":"12070296","name":"Perleberg, Stadt","type":"Stadt"},"district":{"key":"12070","name":"Prignitz","type":"Landkreis"},"federalState":{"key":"12","name":"Brandenburg"}},{"name":"Platenhof","postalCode":"19348","locality":"Perleberg","municipality":{"key":"12070296","name":"Perleberg, Stadt","type":"Stadt"},"district":{"key":"12070","name":"Prignitz","type":"Landkreis"},"federalState":{"key":"12","name":"Brandenburg"}},{"name":"Polarfuchs","postalCode":"19348","locality":"Perleberg","municipality":{"key":"12070296","name":"Perleberg, Stadt","type":"Stadt"},"district":{"key":"12070","name":"Prignitz","type":"Landkreis"},"federalState":{"key":"12","name":"Brandenburg"}},{"name":"Poststr.","postalCode":"19348","locality":"Perleberg","municipality":{"key":"12070296","name":"Perleberg, Stadt","type":"Stadt"},"district":{"key":"12070","name":"Prignitz","type":"Landkreis"},"federalState":{"key":"12","name":"Brandenburg"}},{"name":"Postweg","postalCode":"19348","locality":"Perleberg","municipality":{"key":"12070296","name":"Perleberg, Stadt","type":"Stadt"},"district":{"key":"12070","name":"Prignitz","type":"Landkreis"},"federalState":{"key":"12","name":"Brandenburg"}},{"name":"Premsliner Str.","postalCode":"19348","locality":"Perleberg","municipality":{"key":"12070296","name":"Perleberg, Stadt","type":"Stadt"},"district":{"key":"12070","name":"Prignitz","type":"Landkreis"},"federalState":{"key":"12","name":"Brandenburg"}},{"name":"Pritzwalker Chaussee","postalCode":"19348","locality":"Perleberg","municipality":{"key":"12070296","name":"Perleberg, Stadt","type":"Stadt"},"district":{"key":"12070","name":"Prignitz","type":"Landkreis"},"federalState":{"key":"12","name":"Brandenburg"}},{"name":"Pritzwalker Str.","postalCode":"19348","locality":"Perleberg","municipality":{"key":"12070296","name":"Perleberg, Stadt","type":"Stadt"},"district":{"key":"12070","name":"Prignitz","type":"Landkreis"},"federalState":{"key":"12","name":"Brandenburg"}},{"name":"Puschkinstr.","postalCode":"19348","locality":"Perleberg","municipality":{"key":"12070296","name":"Perleberg, Stadt","type":"Stadt"},"district":{"key":"12070","name":"Prignitz","type":"Landkreis"},"federalState":{"key":"12","name":"Brandenburg"}},{"name":"Putlitzer Str.","postalCode":"19348","locality":"Perleberg","municipality":{"key":"12070296","name":"Perleberg, Stadt","type":"Stadt"},"district":{"key":"12070","name":"Prignitz","type":"Landkreis"},"federalState":{"key":"12","name":"Brandenburg"}},{"name":"Quitzower Damm","postalCode":"19348","locality":"Perleberg","municipality":{"key":"12070296","name":"Perleberg, Stadt","type":"Stadt"},"district":{"key":"12070","name":"Prignitz","type":"Landkreis"},"federalState":{"key":"12","name":"Brandenburg"}},{"name":"Quitzower Str.","postalCode":"19348","locality":"Perleberg","municipality":{"key":"12070296","name":"Perleberg, Stadt","type":"Stadt"},"district":{"key":"12070","name":"Prignitz","type":"Landkreis"},"federalState":{"key":"12","name":"Brandenburg"}},{"name":"Ravenslandstr.","postalCode":"19348","locality":"Perleberg","municipality":{"key":"12070296","name":"Perleberg, Stadt","type":"Stadt"},"district":{"key":"12070","name":"Prignitz","type":"Landkreis"},"federalState":{"key":"12","name":"Brandenburg"}},{"name":"Reetzer Str.","postalCode":"19348","locality":"Perleberg","municipality":{"key":"12070296","name":"Perleberg, Stadt","type":"Stadt"},"district":{"key":"12070","name":"Prignitz","type":"Landkreis"},"federalState":{"key":"12","name":"Brandenburg"}},{"name":"Rhesusaffen","postalCode":"19348","locality":"Perleberg","municipality":{"key":"12070296","name":"Perleberg, Stadt","type":"Stadt"},"district":{"key":"12070","name":"Prignitz","type":"Landkreis"},"federalState":{"key":"12","name":"Brandenburg"}},{"name":"Ritterstr.","postalCode":"19348","locality":"Perleberg","municipality":{"key":"12070296","name":"Perleberg, Stadt","type":"Stadt"},"district":{"key":"12070","name":"Prignitz","type":"Landkreis"},"federalState":{"key":"12","name":"Brandenburg"}},{"name":"Rohdeplatz","postalCode":"19348","locality":"Perleberg","municipality":{"key":"12070296","name":"Perleberg, Stadt","type":"Stadt"},"district":{"key":"12070","name":"Prignitz","type":"Landkreis"},"federalState":{"key":"12","name":"Brandenburg"}},{"name":"Rosa-Luxemburg-Str.","postalCode":"19348","locality":"Perleberg","municipality":{"key":"12070296","name":"Perleberg, Stadt","type":"Stadt"},"district":{"key":"12070","name":"Prignitz","type":"Landkreis"},"federalState":{"key":"12","name":"Brandenburg"}},{"name":"Rosenhagener Weg","postalCode":"19348","locality":"Perleberg","municipality":{"key":"12070296","name":"Perleberg, Stadt","type":"Stadt"},"district":{"key":"12070","name":"Prignitz","type":"Landkreis"},"federalState":{"key":"12","name":"Brandenburg"}},{"name":"Rosenhof","postalCode":"19348","locality":"Perleberg","municipality":{"key":"12070296","name":"Perleberg, Stadt","type":"Stadt"},"district":{"key":"12070","name":"Prignitz","type":"Landkreis"},"federalState":{"key":"12","name":"Brandenburg"}},{"name":"Rotwild","postalCode":"19348","locality":"Perleberg","municipality":{"key":"12070296","name":"Perleberg, Stadt","type":"Stadt"},"district":{"key":"12070","name":"Prignitz","type":"Landkreis"},"federalState":{"key":"12","name":"Brandenburg"}},{"name":"Rudolf-Breitscheid-Str.","postalCode":"19348","locality":"Perleberg","municipality":{"key":"12070296","name":"Perleberg, Stadt","type":"Stadt"},"district":{"key":"12070","name":"Prignitz","type":"Landkreis"},"federalState":{"key":"12","name":"Brandenburg"}},{"name":"Salzwedeler Str.","postalCode":"19348","locality":"Perleberg","municipality":{"key":"12070296","name":"Perleberg, Stadt","type":"Stadt"},"district":{"key":"12070","name":"Prignitz","type":"Landkreis"},"federalState":{"key":"12","name":"Brandenburg"}},{"name":"Sankt-Nikolai-Kirchplatz","postalCode":"19348","locality":"Perleberg","municipality":{"key":"12070296","name":"Perleberg, Stadt","type":"Stadt"},"district":{"key":"12070","name":"Prignitz","type":"Landkreis"},"federalState":{"key":"12","name":"Brandenburg"}},{"name":"Sankt-Nikolai-Kirchstr.","postalCode":"19348","locality":"Perleberg","municipality":{"key":"12070296","name":"Perleberg, Stadt","type":"Stadt"},"district":{"key":"12070","name":"Prignitz","type":"Landkreis"},"federalState":{"key":"12","name":"Brandenburg"}},{"name":"Schilder Str.","postalCode":"19348","locality":"Perleberg","municipality":{"key":"12070296","name":"Perleberg, Stadt","type":"Stadt"},"district":{"key":"12070","name":"Prignitz","type":"Landkreis"},"federalState":{"key":"12","name":"Brandenburg"}},{"name":"Schilder Weg","postalCode":"19348","locality":"Perleberg","municipality":{"key":"12070296","name":"Perleberg, Stadt","type":"Stadt"},"district":{"key":"12070","name":"Prignitz","type":"Landkreis"},"federalState":{"key":"12","name":"Brandenburg"}},{"name":"Schloßplatz","postalCode":"19348","locality":"Perleberg","municipality":{"key":"12070296","name":"Perleberg, Stadt","type":"Stadt"},"district":{"key":"12070","name":"Prignitz","type":"Landkreis"},"federalState":{"key":"12","name":"Brandenburg"}},{"name":"Schönfelder Str.","postalCode":"19348","locality":"Perleberg","municipality":{"key":"12070296","name":"Perleberg, Stadt","type":"Stadt"},"district":{"key":"12070","name":"Prignitz","type":"Landkreis"},"federalState":{"key":"12","name":"Brandenburg"}},{"name":"Schuhmarkt","postalCode":"19348","locality":"Perleberg","municipality":{"key":"12070296","name":"Perleberg, Stadt","type":"Stadt"},"district":{"key":"12070","name":"Prignitz","type":"Landkreis"},"federalState":{"key":"12","name":"Brandenburg"}},{"name":"Schuhstr.","postalCode":"19348","locality":"Perleberg","municipality":{"key":"12070296","name":"Perleberg, Stadt","type":"Stadt"},"district":{"key":"12070","name":"Prignitz","type":"Landkreis"},"federalState":{"key":"12","name":"Brandenburg"}},{"name":"Schulgang","postalCode":"19348","locality":"Perleberg","municipality":{"key":"12070296","name":"Perleberg, Stadt","type":"Stadt"},"district":{"key":"12070","name":"Prignitz","type":"Landkreis"},"federalState":{"key":"12","name":"Brandenburg"}},{"name":"Schwarzer Weg","postalCode":"19348","locality":"Perleberg","municipality":{"key":"12070296","name":"Perleberg, Stadt","type":"Stadt"},"district":{"key":"12070","name":"Prignitz","type":"Landkreis"},"federalState":{"key":"12","name":"Brandenburg"}},{"name":"Silger Weg","postalCode":"19348","locality":"Perleberg","municipality":{"key":"12070296","name":"Perleberg, Stadt","type":"Stadt"},"district":{"key":"12070","name":"Prignitz","type":"Landkreis"},"federalState":{"key":"12","name":"Brandenburg"}},{"name":"Sonnenweg","postalCode":"19348","locality":"Perleberg","municipality":{"key":"12070296","name":"Perleberg, Stadt","type":"Stadt"},"district":{"key":"12070","name":"Prignitz","type":"Landkreis"},"federalState":{"key":"12","name":"Brandenburg"}},{"name":"Sophiengrund","postalCode":"19348","locality":"Perleberg","municipality":{"key":"12070296","name":"Perleberg, Stadt","type":"Stadt"},"district":{"key":"12070","name":"Prignitz","type":"Landkreis"},"federalState":{"key":"12","name":"Brandenburg"}},{"name":"Sophienstr.","postalCode":"19348","locality":"Perleberg","municipality":{"key":"12070296","name":"Perleberg, Stadt","type":"Stadt"},"district":{"key":"12070","name":"Prignitz","type":"Landkreis"},"federalState":{"key":"12","name":"Brandenburg"}},{"name":"Stachelschwein","postalCode":"19348","locality":"Perleberg","municipality":{"key":"12070296","name":"Perleberg, Stadt","type":"Stadt"},"district":{"key":"12070","name":"Prignitz","type":"Landkreis"},"federalState":{"key":"12","name":"Brandenburg"}},{"name":"Steinbock","postalCode":"19348","locality":"Perleberg","municipality":{"key":"12070296","name":"Perleberg, Stadt","type":"Stadt"},"district":{"key":"12070","name":"Prignitz","type":"Landkreis"},"federalState":{"key":"12","name":"Brandenburg"}},{"name":"Storch","postalCode":"19348","locality":"Perleberg","municipality":{"key":"12070296","name":"Perleberg, Stadt","type":"Stadt"},"district":{"key":"12070","name":"Prignitz","type":"Landkreis"},"federalState":{"key":"12","name":"Brandenburg"}},{"name":"Streichelzoo","postalCode":"19348","locality":"Perleberg","municipality":{"key":"12070296","name":"Perleberg, Stadt","type":"Stadt"},"district":{"key":"12070","name":"Prignitz","type":"Landkreis"},"federalState":{"key":"12","name":"Brandenburg"}},{"name":"Sükower Str.","postalCode":"19348","locality":"Perleberg","municipality":{"key":"12070296","name":"Perleberg, Stadt","type":"Stadt"},"district":{"key":"12070","name":"Prignitz","type":"Landkreis"},"federalState":{"key":"12","name":"Brandenburg"}},{"name":"Tannenhof","postalCode":"19348","locality":"Perleberg","municipality":{"key":"12070296","name":"Perleberg, Stadt","type":"Stadt"},"district":{"key":"12070","name":"Prignitz","type":"Landkreis"},"federalState":{"key":"12","name":"Brandenburg"}},{"name":"Theodor-Fontane-Str.","postalCode":"19348","locality":"Perleberg","municipality":{"key":"12070296","name":"Perleberg, Stadt","type":"Stadt"},"district":{"key":"12070","name":"Prignitz","type":"Landkreis"},"federalState":{"key":"12","name":"Brandenburg"}},{"name":"Thomas-Müntzer-Str.","postalCode":"19348","locality":"Perleberg","municipality":{"key":"12070296","name":"Perleberg, Stadt","type":"Stadt"},"district":{"key":"12070","name":"Prignitz","type":"Landkreis"},"federalState":{"key":"12","name":"Brandenburg"}},{"name":"Tonkital","postalCode":"19348","locality":"Perleberg","municipality":{"key":"12070296","name":"Perleberg, Stadt","type":"Stadt"},"district":{"key":"12070","name":"Prignitz","type":"Landkreis"},"federalState":{"key":"12","name":"Brandenburg"}},{"name":"Totenkopfäffchen","postalCode":"19348","locality":"Perleberg","municipality":{"key":"12070296","name":"Perleberg, Stadt","type":"Stadt"},"district":{"key":"12070","name":"Prignitz","type":"Landkreis"},"federalState":{"key":"12","name":"Brandenburg"}},{"name":"Trampeltier","postalCode":"19348","locality":"Perleberg","municipality":{"key":"12070296","name":"Perleberg, Stadt","type":"Stadt"},"district":{"key":"12070","name":"Prignitz","type":"Landkreis"},"federalState":{"key":"12","name":"Brandenburg"}},{"name":"Uferstr.","postalCode":"19348","locality":"Perleberg","municipality":{"key":"12070296","name":"Perleberg, Stadt","type":"Stadt"},"district":{"key":"12070","name":"Prignitz","type":"Landkreis"},"federalState":{"key":"12","name":"Brandenburg"}},{"name":"Ulmenhof","postalCode":"19348","locality":"Perleberg","municipality":{"key":"12070296","name":"Perleberg, Stadt","type":"Stadt"},"district":{"key":"12070","name":"Prignitz","type":"Landkreis"},"federalState":{"key":"12","name":"Brandenburg"}},{"name":"Vogelvoliere","postalCode":"19348","locality":"Perleberg","municipality":{"key":"12070296","name":"Perleberg, Stadt","type":"Stadt"},"district":{"key":"12070","name":"Prignitz","type":"Landkreis"},"federalState":{"key":"12","name":"Brandenburg"}},{"name":"Voliere","postalCode":"19348","locality":"Perleberg","municipality":{"key":"12070296","name":"Perleberg, Stadt","type":"Stadt"},"district":{"key":"12070","name":"Prignitz","type":"Landkreis"},"federalState":{"key":"12","name":"Brandenburg"}},{"name":"Waldsiedlung","postalCode":"19348","locality":"Perleberg","municipality":{"key":"12070296","name":"Perleberg, Stadt","type":"Stadt"},"district":{"key":"12070","name":"Prignitz","type":"Landkreis"},"federalState":{"key":"12","name":"Brandenburg"}},{"name":"Waldstr.","postalCode":"19348","locality":"Perleberg","municipality":{"key":"12070296","name":"Perleberg, Stadt","type":"Stadt"},"district":{"key":"12070","name":"Prignitz","type":"Landkreis"},"federalState":{"key":"12","name":"Brandenburg"}},{"name":"Waldweg","postalCode":"19348","locality":"Perleberg","municipality":{"key":"12070296","name":"Perleberg, Stadt","type":"Stadt"},"district":{"key":"12070","name":"Prignitz","type":"Landkreis"},"federalState":{"key":"12","name":"Brandenburg"}},{"name":"Wassergang","postalCode":"19348","locality":"Perleberg","municipality":{"key":"12070296","name":"Perleberg, Stadt","type":"Stadt"},"district":{"key":"12070","name":"Prignitz","type":"Landkreis"},"federalState":{"key":"12","name":"Brandenburg"}},{"name":"Wassergeflügel","postalCode":"19348","locality":"Perleberg","municipality":{"key":"12070296","name":"Perleberg, Stadt","type":"Stadt"},"district":{"key":"12070","name":"Prignitz","type":"Landkreis"},"federalState":{"key":"12","name":"Brandenburg"}},{"name":"Wiesenweg","postalCode":"19348","locality":"Perleberg","municipality":{"key":"12070296","name":"Perleberg, Stadt","type":"Stadt"},"district":{"key":"12070","name":"Prignitz","type":"Landkreis"},"federalState":{"key":"12","name":"Brandenburg"}},{"name":"Wildscheine","postalCode":"19348","locality":"Perleberg","municipality":{"key":"12070296","name":"Perleberg, Stadt","type":"Stadt"},"district":{"key":"12070","name":"Prignitz","type":"Landkreis"},"federalState":{"key":"12","name":"Brandenburg"}},{"name":"Wilsnacker Chaussee","postalCode":"19348","locality":"Perleberg","municipality":{"key":"12070296","name":"Perleberg, Stadt","type":"Stadt"},"district":{"key":"12070","name":"Prignitz","type":"Landkreis"},"federalState":{"key":"12","name":"Brandenburg"}},{"name":"Wilsnacker Str.","postalCode":"19348","locality":"Perleberg","municipality":{"key":"12070296","name":"Perleberg, Stadt","type":"Stadt"},"district":{"key":"12070","name":"Prignitz","type":"Landkreis"},"federalState":{"key":"12","name":"Brandenburg"}},{"name":"Wisent","postalCode":"19348","locality":"Perleberg","municipality":{"key":"12070296","name":"Perleberg, Stadt","type":"Stadt"},"district":{"key":"12070","name":"Prignitz","type":"Landkreis"},"federalState":{"key":"12","name":"Brandenburg"}},{"name":"Wittenberger Chaussee","postalCode":"19348","locality":"Perleberg","municipality":{"key":"12070296","name":"Perleberg, Stadt","type":"Stadt"},"district":{"key":"12070","name":"Prignitz","type":"Landkreis"},"federalState":{"key":"12","name":"Brandenburg"}},{"name":"Wittenberger Str.","postalCode":"19348","locality":"Perleberg","municipality":{"key":"12070296","name":"Perleberg, Stadt","type":"Stadt"},"district":{"key":"12070","name":"Prignitz","type":"Landkreis"},"federalState":{"key":"12","name":"Brandenburg"}},{"name":"Wölfe","postalCode":"19348","locality":"Perleberg","municipality":{"key":"12070296","name":"Perleberg, Stadt","type":"Stadt"},"district":{"key":"12070","name":"Prignitz","type":"Landkreis"},"federalState":{"key":"12","name":"Brandenburg"}},{"name":"Wolfsweg","postalCode":"19348","locality":"Perleberg","municipality":{"key":"12070296","name":"Perleberg, Stadt","type":"Stadt"},"district":{"key":"12070","name":"Prignitz","type":"Landkreis"},"federalState":{"key":"12","name":"Brandenburg"}},{"name":"Wollweberstr.","postalCode":"19348","locality":"Perleberg","municipality":{"key":"12070296","name":"Perleberg, Stadt","type":"Stadt"},"district":{"key":"12070","name":"Prignitz","type":"Landkreis"},"federalState":{"key":"12","name":"Brandenburg"}},{"name":"Ziegelhof","postalCode":"19348","locality":"Perleberg","municipality":{"key":"12070296","name":"Perleberg, Stadt","type":"Stadt"},"district":{"key":"12070","name":"Prignitz","type":"Landkreis"},"federalState":{"key":"12","name":"Brandenburg"}},{"name":"Ziegelhofbrücke","postalCode":"19348","locality":"Perleberg","municipality":{"key":"12070296","name":"Perleberg, Stadt","type":"Stadt"},"district":{"key":"12070","name":"Prignitz","type":"Landkreis"},"federalState":{"key":"12","name":"Brandenburg"}},{"name":"Ziegelstr.","postalCode":"19348","locality":"Perleberg","municipality":{"key":"12070296","name":"Perleberg, Stadt","type":"Stadt"},"district":{"key":"12070","name":"Prignitz","type":"Landkreis"},"federalState":{"key":"12","name":"Brandenburg"}},{"name":"Ziegen","postalCode":"19348","locality":"Perleberg","municipality":{"key":"12070296","name":"Perleberg, Stadt","type":"Stadt"},"district":{"key":"12070","name":"Prignitz","type":"Landkreis"},"federalState":{"key":"12","name":"Brandenburg"}},{"name":"Zum Gewerbepark","postalCode":"19348","locality":"Perleberg","municipality":{"key":"12070296","name":"Perleberg, Stadt","type":"Stadt"},"district":{"key":"12070","name":"Prignitz","type":"Landkreis"},"federalState":{"key":"12","name":"Brandenburg"}},]