[{"name":"Am Backensteen","postalCode":"24392","locality":"Norderbrarup","municipality":{"key":"01059063","name":"Norderbrarup","type":"Kreisangehörige_Gemeinde"},"district":{"key":"01059","name":"Schleswig-Flensburg","type":"Kreis"},"federalState":{"key":"01","name":"Schleswig-Holstein"}},{"name":"Am Pastorat","postalCode":"24392","locality":"Norderbrarup","municipality":{"key":"01059063","name":"Norderbrarup","type":"Kreisangehörige_Gemeinde"},"district":{"key":"01059","name":"Schleswig-Flensburg","type":"Kreis"},"federalState":{"key":"01","name":"Schleswig-Holstein"}},{"name":"Birkenweg","postalCode":"24392","locality":"Norderbrarup","municipality":{"key":"01059063","name":"Norderbrarup","type":"Kreisangehörige_Gemeinde"},"district":{"key":"01059","name":"Schleswig-Flensburg","type":"Kreis"},"federalState":{"key":"01","name":"Schleswig-Holstein"}},{"name":"Fischerotter Str.","postalCode":"24392","locality":"Norderbrarup","municipality":{"key":"01059063","name":"Norderbrarup","type":"Kreisangehörige_Gemeinde"},"district":{"key":"01059","name":"Schleswig-Flensburg","type":"Kreis"},"federalState":{"key":"01","name":"Schleswig-Holstein"}},{"name":"Flaruper Str.","postalCode":"24392","locality":"Norderbrarup","municipality":{"key":"01059063","name":"Norderbrarup","type":"Kreisangehörige_Gemeinde"},"district":{"key":"01059","name":"Schleswig-Flensburg","type":"Kreis"},"federalState":{"key":"01","name":"Schleswig-Holstein"}},{"name":"Knüttelallee","postalCode":"24392","locality":"Norderbrarup","municipality":{"key":"01059063","name":"Norderbrarup","type":"Kreisangehörige_Gemeinde"},"district":{"key":"01059","name":"Schleswig-Flensburg","type":"Kreis"},"federalState":{"key":"01","name":"Schleswig-Holstein"}},{"name":"Kragdeel","postalCode":"24392","locality":"Norderbrarup","municipality":{"key":"01059063","name":"Norderbrarup","type":"Kreisangehörige_Gemeinde"},"district":{"key":"01059","name":"Schleswig-Flensburg","type":"Kreis"},"federalState":{"key":"01","name":"Schleswig-Holstein"}},{"name":"Lerchenfeld","postalCode":"24392","locality":"Norderbrarup","municipality":{"key":"01059063","name":"Norderbrarup","type":"Kreisangehörige_Gemeinde"},"district":{"key":"01059","name":"Schleswig-Flensburg","type":"Kreis"},"federalState":{"key":"01","name":"Schleswig-Holstein"}},{"name":"Neuer Weg","postalCode":"24392","locality":"Norderbrarup","municipality":{"key":"01059063","name":"Norderbrarup","type":"Kreisangehörige_Gemeinde"},"district":{"key":"01059","name":"Schleswig-Flensburg","type":"Kreis"},"federalState":{"key":"01","name":"Schleswig-Holstein"}},{"name":"Pastoratstoft","postalCode":"24392","locality":"Norderbrarup","municipality":{"key":"01059063","name":"Norderbrarup","type":"Kreisangehörige_Gemeinde"},"district":{"key":"01059","name":"Schleswig-Flensburg","type":"Kreis"},"federalState":{"key":"01","name":"Schleswig-Holstein"}},{"name":"Ruruper Str.","postalCode":"24392","locality":"Norderbrarup","municipality":{"key":"01059063","name":"Norderbrarup","type":"Kreisangehörige_Gemeinde"},"district":{"key":"01059","name":"Schleswig-Flensburg","type":"Kreis"},"federalState":{"key":"01","name":"Schleswig-Holstein"}},{"name":"Ziegeleistr.","postalCode":"24392","locality":"Norderbrarup","municipality":{"key":"01059063","name":"Norderbrarup","type":"Kreisangehörige_Gemeinde"},"district":{"key":"01059","name":"Schleswig-Flensburg","type":"Kreis"},"federalState":{"key":"01","name":"Schleswig-Holstein"}},]