[{"name":"Achterstr.","postalCode":"17139","locality":"Malchin","municipality":{"key":"13071092","name":"Malchin, Stadt","type":"Stadt"},"district":{"key":"13071","name":"Mecklenburgische Seenplatte","type":"Landkreis"},"federalState":{"key":"13","name":"Mecklenburg-Vorpommern"}},{"name":"Am Bäckergütl","postalCode":"94094","locality":"Malching","municipality":{"key":"09275132","name":"Malching","type":"Kreisangehörige_Gemeinde"},"district":{"key":"09275","name":"Passau","type":"Landkreis"},"federalState":{"key":"09","name":"Bayern"}},{"name":"Am Bahnhof","postalCode":"94094","locality":"Malching","municipality":{"key":"09275132","name":"Malching","type":"Kreisangehörige_Gemeinde"},"district":{"key":"09275","name":"Passau","type":"Landkreis"},"federalState":{"key":"09","name":"Bayern"}},{"name":"Am Bahnhofsberg","postalCode":"17139","locality":"Malchin","municipality":{"key":"13071092","name":"Malchin, Stadt","type":"Stadt"},"district":{"key":"13071","name":"Mecklenburgische Seenplatte","type":"Landkreis"},"federalState":{"key":"13","name":"Mecklenburg-Vorpommern"}},{"name":"Am Franzosenbruch","postalCode":"17139","locality":"Malchin","municipality":{"key":"13071092","name":"Malchin, Stadt","type":"Stadt"},"district":{"key":"13071","name":"Mecklenburgische Seenplatte","type":"Landkreis"},"federalState":{"key":"13","name":"Mecklenburg-Vorpommern"}},{"name":"Am Gasteig","postalCode":"94094","locality":"Malching","municipality":{"key":"09275132","name":"Malching","type":"Kreisangehörige_Gemeinde"},"district":{"key":"09275","name":"Passau","type":"Landkreis"},"federalState":{"key":"09","name":"Bayern"}},{"name":"Am Hafen","postalCode":"17139","locality":"Malchin","municipality":{"key":"13071092","name":"Malchin, Stadt","type":"Stadt"},"district":{"key":"13071","name":"Mecklenburgische Seenplatte","type":"Landkreis"},"federalState":{"key":"13","name":"Mecklenburg-Vorpommern"}},{"name":"Am Kanal","postalCode":"17139","locality":"Malchin","municipality":{"key":"13071092","name":"Malchin, Stadt","type":"Stadt"},"district":{"key":"13071","name":"Mecklenburgische Seenplatte","type":"Landkreis"},"federalState":{"key":"13","name":"Mecklenburg-Vorpommern"}},{"name":"Am Klampferberg","postalCode":"94094","locality":"Malching","municipality":{"key":"09275132","name":"Malching","type":"Kreisangehörige_Gemeinde"},"district":{"key":"09275","name":"Passau","type":"Landkreis"},"federalState":{"key":"09","name":"Bayern"}},{"name":"Am Kornbrink","postalCode":"17139","locality":"Malchin","municipality":{"key":"13071092","name":"Malchin, Stadt","type":"Stadt"},"district":{"key":"13071","name":"Mecklenburgische Seenplatte","type":"Landkreis"},"federalState":{"key":"13","name":"Mecklenburg-Vorpommern"}},{"name":"Am Leuschentiner Damm","postalCode":"17139","locality":"Malchin","municipality":{"key":"13071092","name":"Malchin, Stadt","type":"Stadt"},"district":{"key":"13071","name":"Mecklenburgische Seenplatte","type":"Landkreis"},"federalState":{"key":"13","name":"Mecklenburg-Vorpommern"}},{"name":"Am Leuschentiner Weg","postalCode":"17139","locality":"Malchin","municipality":{"key":"13071092","name":"Malchin, Stadt","type":"Stadt"},"district":{"key":"13071","name":"Mecklenburgische Seenplatte","type":"Landkreis"},"federalState":{"key":"13","name":"Mecklenburg-Vorpommern"}},{"name":"Am Markt","postalCode":"17139","locality":"Malchin","municipality":{"key":"13071092","name":"Malchin, Stadt","type":"Stadt"},"district":{"key":"13071","name":"Mecklenburgische Seenplatte","type":"Landkreis"},"federalState":{"key":"13","name":"Mecklenburg-Vorpommern"}},{"name":"Am Park","postalCode":"94094","locality":"Malching","municipality":{"key":"09275132","name":"Malching","type":"Kreisangehörige_Gemeinde"},"district":{"key":"09275","name":"Passau","type":"Landkreis"},"federalState":{"key":"09","name":"Bayern"}},{"name":"Am Rosengarten","postalCode":"17139","locality":"Malchin","municipality":{"key":"13071092","name":"Malchin, Stadt","type":"Stadt"},"district":{"key":"13071","name":"Mecklenburgische Seenplatte","type":"Landkreis"},"federalState":{"key":"13","name":"Mecklenburg-Vorpommern"}},{"name":"Amselweg","postalCode":"17139","locality":"Malchin","municipality":{"key":"13071092","name":"Malchin, Stadt","type":"Stadt"},"district":{"key":"13071","name":"Mecklenburgische Seenplatte","type":"Landkreis"},"federalState":{"key":"13","name":"Mecklenburg-Vorpommern"}},{"name":"Am Strauchwerder","postalCode":"17139","locality":"Malchin","municipality":{"key":"13071092","name":"Malchin, Stadt","type":"Stadt"},"district":{"key":"13071","name":"Mecklenburgische Seenplatte","type":"Landkreis"},"federalState":{"key":"13","name":"Mecklenburg-Vorpommern"}},{"name":"Amtsgerichtsplatz","postalCode":"17139","locality":"Malchin","municipality":{"key":"13071092","name":"Malchin, Stadt","type":"Stadt"},"district":{"key":"13071","name":"Mecklenburgische Seenplatte","type":"Landkreis"},"federalState":{"key":"13","name":"Mecklenburg-Vorpommern"}},{"name":"Am Wall","postalCode":"17139","locality":"Malchin","municipality":{"key":"13071092","name":"Malchin, Stadt","type":"Stadt"},"district":{"key":"13071","name":"Mecklenburgische Seenplatte","type":"Landkreis"},"federalState":{"key":"13","name":"Mecklenburg-Vorpommern"}},{"name":"Am Wasserturm","postalCode":"17139","locality":"Malchin","municipality":{"key":"13071092","name":"Malchin, Stadt","type":"Stadt"},"district":{"key":"13071","name":"Mecklenburgische Seenplatte","type":"Landkreis"},"federalState":{"key":"13","name":"Mecklenburg-Vorpommern"}},{"name":"Am Zachow","postalCode":"17139","locality":"Malchin","municipality":{"key":"13071092","name":"Malchin, Stadt","type":"Stadt"},"district":{"key":"13071","name":"Mecklenburgische Seenplatte","type":"Landkreis"},"federalState":{"key":"13","name":"Mecklenburg-Vorpommern"}},{"name":"An der Bleiche","postalCode":"17139","locality":"Malchin","municipality":{"key":"13071092","name":"Malchin, Stadt","type":"Stadt"},"district":{"key":"13071","name":"Mecklenburgische Seenplatte","type":"Landkreis"},"federalState":{"key":"13","name":"Mecklenburg-Vorpommern"}},{"name":"An der Mühlentorweide","postalCode":"17139","locality":"Malchin","municipality":{"key":"13071092","name":"Malchin, Stadt","type":"Stadt"},"district":{"key":"13071","name":"Mecklenburgische Seenplatte","type":"Landkreis"},"federalState":{"key":"13","name":"Mecklenburg-Vorpommern"}},{"name":"An der Ostpeene","postalCode":"17139","locality":"Malchin","municipality":{"key":"13071092","name":"Malchin, Stadt","type":"Stadt"},"district":{"key":"13071","name":"Mecklenburgische Seenplatte","type":"Landkreis"},"federalState":{"key":"13","name":"Mecklenburg-Vorpommern"}},{"name":"Bachweg","postalCode":"94094","locality":"Malching","municipality":{"key":"09275132","name":"Malching","type":"Kreisangehörige_Gemeinde"},"district":{"key":"09275","name":"Passau","type":"Landkreis"},"federalState":{"key":"09","name":"Bayern"}},{"name":"Bahnhofsstr.","postalCode":"17139","locality":"Malchin","municipality":{"key":"13071092","name":"Malchin, Stadt","type":"Stadt"},"district":{"key":"13071","name":"Mecklenburgische Seenplatte","type":"Landkreis"},"federalState":{"key":"13","name":"Mecklenburg-Vorpommern"}},{"name":"Bahnhofstr.","postalCode":"17139","locality":"Malchin","municipality":{"key":"13071092","name":"Malchin, Stadt","type":"Stadt"},"district":{"key":"13071","name":"Mecklenburgische Seenplatte","type":"Landkreis"},"federalState":{"key":"13","name":"Mecklenburg-Vorpommern"}},{"name":"Basedower Str.","postalCode":"17139","locality":"Malchin","municipality":{"key":"13071092","name":"Malchin, Stadt","type":"Stadt"},"district":{"key":"13071","name":"Mecklenburgische Seenplatte","type":"Landkreis"},"federalState":{"key":"13","name":"Mecklenburg-Vorpommern"}},{"name":"Biberger Str.","postalCode":"94094","locality":"Malching","municipality":{"key":"09275132","name":"Malching","type":"Kreisangehörige_Gemeinde"},"district":{"key":"09275","name":"Passau","type":"Landkreis"},"federalState":{"key":"09","name":"Bayern"}},{"name":"Birkenweg","postalCode":"94094","locality":"Malching","municipality":{"key":"09275132","name":"Malching","type":"Kreisangehörige_Gemeinde"},"district":{"key":"09275","name":"Passau","type":"Landkreis"},"federalState":{"key":"09","name":"Bayern"}},{"name":"Blumenstr.","postalCode":"17139","locality":"Malchin","municipality":{"key":"13071092","name":"Malchin, Stadt","type":"Stadt"},"district":{"key":"13071","name":"Mecklenburgische Seenplatte","type":"Landkreis"},"federalState":{"key":"13","name":"Mecklenburg-Vorpommern"}},{"name":"Breite Str.","postalCode":"17139","locality":"Malchin","municipality":{"key":"13071092","name":"Malchin, Stadt","type":"Stadt"},"district":{"key":"13071","name":"Mecklenburgische Seenplatte","type":"Landkreis"},"federalState":{"key":"13","name":"Mecklenburg-Vorpommern"}},{"name":"Brunnengasse","postalCode":"94094","locality":"Malching","municipality":{"key":"09275132","name":"Malching","type":"Kreisangehörige_Gemeinde"},"district":{"key":"09275","name":"Passau","type":"Landkreis"},"federalState":{"key":"09","name":"Bayern"}},{"name":"Bungalowsiedlung","postalCode":"17139","locality":"Malchin","municipality":{"key":"13071092","name":"Malchin, Stadt","type":"Stadt"},"district":{"key":"13071","name":"Mecklenburgische Seenplatte","type":"Landkreis"},"federalState":{"key":"13","name":"Mecklenburg-Vorpommern"}},{"name":"Bürgermeister-Faull-Str.","postalCode":"17139","locality":"Malchin","municipality":{"key":"13071092","name":"Malchin, Stadt","type":"Stadt"},"district":{"key":"13071","name":"Mecklenburgische Seenplatte","type":"Landkreis"},"federalState":{"key":"13","name":"Mecklenburg-Vorpommern"}},{"name":"Bürgermeister-Tretow-Str.","postalCode":"17139","locality":"Malchin","municipality":{"key":"13071092","name":"Malchin, Stadt","type":"Stadt"},"district":{"key":"13071","name":"Mecklenburgische Seenplatte","type":"Landkreis"},"federalState":{"key":"13","name":"Mecklenburg-Vorpommern"}},{"name":"Burgwallweg","postalCode":"17139","locality":"Malchin","municipality":{"key":"13071092","name":"Malchin, Stadt","type":"Stadt"},"district":{"key":"13071","name":"Mecklenburgische Seenplatte","type":"Landkreis"},"federalState":{"key":"13","name":"Mecklenburg-Vorpommern"}},{"name":"Deipwohrenstrat","postalCode":"17139","locality":"Malchin","municipality":{"key":"13071092","name":"Malchin, Stadt","type":"Stadt"},"district":{"key":"13071","name":"Mecklenburgische Seenplatte","type":"Landkreis"},"federalState":{"key":"13","name":"Mecklenburg-Vorpommern"}},{"name":"Dorfstr.","postalCode":"17139","locality":"Malchin","municipality":{"key":"13071092","name":"Malchin, Stadt","type":"Stadt"},"district":{"key":"13071","name":"Mecklenburgische Seenplatte","type":"Landkreis"},"federalState":{"key":"13","name":"Mecklenburg-Vorpommern"}},{"name":"Dorfstr. Gorschendorf","postalCode":"17139","locality":"Malchin","municipality":{"key":"13071092","name":"Malchin, Stadt","type":"Stadt"},"district":{"key":"13071","name":"Mecklenburgische Seenplatte","type":"Landkreis"},"federalState":{"key":"13","name":"Mecklenburg-Vorpommern"}},{"name":"Dorfstr. Scharpzow","postalCode":"17139","locality":"Malchin","municipality":{"key":"13071092","name":"Malchin, Stadt","type":"Stadt"},"district":{"key":"13071","name":"Mecklenburgische Seenplatte","type":"Landkreis"},"federalState":{"key":"13","name":"Mecklenburg-Vorpommern"}},{"name":"Drei-Kämpen-Weg","postalCode":"17139","locality":"Malchin","municipality":{"key":"13071092","name":"Malchin, Stadt","type":"Stadt"},"district":{"key":"13071","name":"Mecklenburgische Seenplatte","type":"Landkreis"},"federalState":{"key":"13","name":"Mecklenburg-Vorpommern"}},{"name":"Drosselweg","postalCode":"17139","locality":"Malchin","municipality":{"key":"13071092","name":"Malchin, Stadt","type":"Stadt"},"district":{"key":"13071","name":"Mecklenburgische Seenplatte","type":"Landkreis"},"federalState":{"key":"13","name":"Mecklenburg-Vorpommern"}},{"name":"Dr.-Wilhelm-Arnold-Str.","postalCode":"17139","locality":"Malchin","municipality":{"key":"13071092","name":"Malchin, Stadt","type":"Stadt"},"district":{"key":"13071","name":"Mecklenburgische Seenplatte","type":"Landkreis"},"federalState":{"key":"13","name":"Mecklenburg-Vorpommern"}},{"name":"Eichbergring","postalCode":"94094","locality":"Malching","municipality":{"key":"09275132","name":"Malching","type":"Kreisangehörige_Gemeinde"},"district":{"key":"09275","name":"Passau","type":"Landkreis"},"federalState":{"key":"09","name":"Bayern"}},{"name":"Fabrikstr.","postalCode":"17139","locality":"Malchin","municipality":{"key":"13071092","name":"Malchin, Stadt","type":"Stadt"},"district":{"key":"13071","name":"Mecklenburgische Seenplatte","type":"Landkreis"},"federalState":{"key":"13","name":"Mecklenburg-Vorpommern"}},{"name":"Feldstr.","postalCode":"17139","locality":"Malchin","municipality":{"key":"13071092","name":"Malchin, Stadt","type":"Stadt"},"district":{"key":"13071","name":"Mecklenburgische Seenplatte","type":"Landkreis"},"federalState":{"key":"13","name":"Mecklenburg-Vorpommern"}},{"name":"Finkensteig","postalCode":"17139","locality":"Malchin","municipality":{"key":"13071092","name":"Malchin, Stadt","type":"Stadt"},"district":{"key":"13071","name":"Mecklenburgische Seenplatte","type":"Landkreis"},"federalState":{"key":"13","name":"Mecklenburg-Vorpommern"}},{"name":"Fritz-Reuter-Platz","postalCode":"17139","locality":"Malchin","municipality":{"key":"13071092","name":"Malchin, Stadt","type":"Stadt"},"district":{"key":"13071","name":"Mecklenburgische Seenplatte","type":"Landkreis"},"federalState":{"key":"13","name":"Mecklenburg-Vorpommern"}},{"name":"Fronhamerstr.","postalCode":"94094","locality":"Malching","municipality":{"key":"09275132","name":"Malching","type":"Kreisangehörige_Gemeinde"},"district":{"key":"09275","name":"Passau","type":"Landkreis"},"federalState":{"key":"09","name":"Bayern"}},{"name":"Fuhrtsberg","postalCode":"17139","locality":"Malchin","municipality":{"key":"13071092","name":"Malchin, Stadt","type":"Stadt"},"district":{"key":"13071","name":"Mecklenburgische Seenplatte","type":"Landkreis"},"federalState":{"key":"13","name":"Mecklenburg-Vorpommern"}},{"name":"Gartenstr.","postalCode":"17139","locality":"Malchin","municipality":{"key":"13071092","name":"Malchin, Stadt","type":"Stadt"},"district":{"key":"13071","name":"Mecklenburgische Seenplatte","type":"Landkreis"},"federalState":{"key":"13","name":"Mecklenburg-Vorpommern"}},{"name":"Gielower Chaussee","postalCode":"17139","locality":"Malchin","municipality":{"key":"13071092","name":"Malchin, Stadt","type":"Stadt"},"district":{"key":"13071","name":"Mecklenburgische Seenplatte","type":"Landkreis"},"federalState":{"key":"13","name":"Mecklenburg-Vorpommern"}},{"name":"Goethestr.","postalCode":"17139","locality":"Malchin","municipality":{"key":"13071092","name":"Malchin, Stadt","type":"Stadt"},"district":{"key":"13071","name":"Mecklenburgische Seenplatte","type":"Landkreis"},"federalState":{"key":"13","name":"Mecklenburg-Vorpommern"}},{"name":"Gutspark","postalCode":"17139","locality":"Malchin","municipality":{"key":"13071092","name":"Malchin, Stadt","type":"Stadt"},"district":{"key":"13071","name":"Mecklenburgische Seenplatte","type":"Landkreis"},"federalState":{"key":"13","name":"Mecklenburg-Vorpommern"}},{"name":"Hauptstr.","postalCode":"94094","locality":"Malching","municipality":{"key":"09275132","name":"Malching","type":"Kreisangehörige_Gemeinde"},"district":{"key":"09275","name":"Passau","type":"Landkreis"},"federalState":{"key":"09","name":"Bayern"}},{"name":"Heinrich-Heine-Str.","postalCode":"17139","locality":"Malchin","municipality":{"key":"13071092","name":"Malchin, Stadt","type":"Stadt"},"district":{"key":"13071","name":"Mecklenburgische Seenplatte","type":"Landkreis"},"federalState":{"key":"13","name":"Mecklenburg-Vorpommern"}},{"name":"Hexenplatz","postalCode":"17139","locality":"Malchin","municipality":{"key":"13071092","name":"Malchin, Stadt","type":"Stadt"},"district":{"key":"13071","name":"Mecklenburgische Seenplatte","type":"Landkreis"},"federalState":{"key":"13","name":"Mecklenburg-Vorpommern"}},{"name":"Hunnenstr.","postalCode":"17139","locality":"Malchin","municipality":{"key":"13071092","name":"Malchin, Stadt","type":"Stadt"},"district":{"key":"13071","name":"Mecklenburgische Seenplatte","type":"Landkreis"},"federalState":{"key":"13","name":"Mecklenburg-Vorpommern"}},{"name":"Industriegelände","postalCode":"17139","locality":"Malchin","municipality":{"key":"13071092","name":"Malchin, Stadt","type":"Stadt"},"district":{"key":"13071","name":"Mecklenburgische Seenplatte","type":"Landkreis"},"federalState":{"key":"13","name":"Mecklenburg-Vorpommern"}},{"name":"Jettchenshof","postalCode":"17139","locality":"Malchin","municipality":{"key":"13071092","name":"Malchin, Stadt","type":"Stadt"},"district":{"key":"13071","name":"Mecklenburgische Seenplatte","type":"Landkreis"},"federalState":{"key":"13","name":"Mecklenburg-Vorpommern"}},{"name":"Kalensche-Mauer-Str.","postalCode":"17139","locality":"Malchin","municipality":{"key":"13071092","name":"Malchin, Stadt","type":"Stadt"},"district":{"key":"13071","name":"Mecklenburgische Seenplatte","type":"Landkreis"},"federalState":{"key":"13","name":"Mecklenburg-Vorpommern"}},{"name":"Kapellenweg","postalCode":"94094","locality":"Malching","municipality":{"key":"09275132","name":"Malching","type":"Kreisangehörige_Gemeinde"},"district":{"key":"09275","name":"Passau","type":"Landkreis"},"federalState":{"key":"09","name":"Bayern"}},{"name":"Karl-Dressel-Str.","postalCode":"17139","locality":"Malchin","municipality":{"key":"13071092","name":"Malchin, Stadt","type":"Stadt"},"district":{"key":"13071","name":"Mecklenburgische Seenplatte","type":"Landkreis"},"federalState":{"key":"13","name":"Mecklenburg-Vorpommern"}},{"name":"Katersteg","postalCode":"17139","locality":"Malchin","municipality":{"key":"13071092","name":"Malchin, Stadt","type":"Stadt"},"district":{"key":"13071","name":"Mecklenburgische Seenplatte","type":"Landkreis"},"federalState":{"key":"13","name":"Mecklenburg-Vorpommern"}},{"name":"Keltenring","postalCode":"94094","locality":"Malching","municipality":{"key":"09275132","name":"Malching","type":"Kreisangehörige_Gemeinde"},"district":{"key":"09275","name":"Passau","type":"Landkreis"},"federalState":{"key":"09","name":"Bayern"}},{"name":"Kirchstr.","postalCode":"17139","locality":"Malchin","municipality":{"key":"13071092","name":"Malchin, Stadt","type":"Stadt"},"district":{"key":"13071","name":"Mecklenburgische Seenplatte","type":"Landkreis"},"federalState":{"key":"13","name":"Mecklenburg-Vorpommern"}},{"name":"Kreuzstr.","postalCode":"17139","locality":"Malchin","municipality":{"key":"13071092","name":"Malchin, Stadt","type":"Stadt"},"district":{"key":"13071","name":"Mecklenburgische Seenplatte","type":"Landkreis"},"federalState":{"key":"13","name":"Mecklenburg-Vorpommern"}},{"name":"Lange Str.","postalCode":"17139","locality":"Malchin","municipality":{"key":"13071092","name":"Malchin, Stadt","type":"Stadt"},"district":{"key":"13071","name":"Mecklenburgische Seenplatte","type":"Landkreis"},"federalState":{"key":"13","name":"Mecklenburg-Vorpommern"}},{"name":"Leuschentiner Damm","postalCode":"17139","locality":"Malchin","municipality":{"key":"13071092","name":"Malchin, Stadt","type":"Stadt"},"district":{"key":"13071","name":"Mecklenburgische Seenplatte","type":"Landkreis"},"federalState":{"key":"13","name":"Mecklenburg-Vorpommern"}},{"name":"Lindenstr.","postalCode":"17139","locality":"Malchin","municipality":{"key":"13071092","name":"Malchin, Stadt","type":"Stadt"},"district":{"key":"13071","name":"Mecklenburgische Seenplatte","type":"Landkreis"},"federalState":{"key":"13","name":"Mecklenburg-Vorpommern"}},{"name":"Mühlbachstr.","postalCode":"94094","locality":"Malching","municipality":{"key":"09275132","name":"Malching","type":"Kreisangehörige_Gemeinde"},"district":{"key":"09275","name":"Passau","type":"Landkreis"},"federalState":{"key":"09","name":"Bayern"}},{"name":"Mühlenfeld","postalCode":"17139","locality":"Malchin","municipality":{"key":"13071092","name":"Malchin, Stadt","type":"Stadt"},"district":{"key":"13071","name":"Mecklenburgische Seenplatte","type":"Landkreis"},"federalState":{"key":"13","name":"Mecklenburg-Vorpommern"}},{"name":"Mühlenstr.","postalCode":"17139","locality":"Malchin","municipality":{"key":"13071092","name":"Malchin, Stadt","type":"Stadt"},"district":{"key":"13071","name":"Mecklenburgische Seenplatte","type":"Landkreis"},"federalState":{"key":"13","name":"Mecklenburg-Vorpommern"}},{"name":"Mühlentorsiedlung","postalCode":"17139","locality":"Malchin","municipality":{"key":"13071092","name":"Malchin, Stadt","type":"Stadt"},"district":{"key":"13071","name":"Mecklenburgische Seenplatte","type":"Landkreis"},"federalState":{"key":"13","name":"Mecklenburg-Vorpommern"}},{"name":"Neu Panstorf","postalCode":"17139","locality":"Malchin","municipality":{"key":"13071092","name":"Malchin, Stadt","type":"Stadt"},"district":{"key":"13071","name":"Mecklenburgische Seenplatte","type":"Landkreis"},"federalState":{"key":"13","name":"Mecklenburg-Vorpommern"}},{"name":"Parkstr.","postalCode":"17139","locality":"Malchin","municipality":{"key":"13071092","name":"Malchin, Stadt","type":"Stadt"},"district":{"key":"13071","name":"Mecklenburgische Seenplatte","type":"Landkreis"},"federalState":{"key":"13","name":"Mecklenburg-Vorpommern"}},{"name":"Passauer Str.","postalCode":"94094","locality":"Malching","municipality":{"key":"09275132","name":"Malching","type":"Kreisangehörige_Gemeinde"},"district":{"key":"09275","name":"Passau","type":"Landkreis"},"federalState":{"key":"09","name":"Bayern"}},{"name":"Pastinakelstr.","postalCode":"17139","locality":"Malchin","municipality":{"key":"13071092","name":"Malchin, Stadt","type":"Stadt"},"district":{"key":"13071","name":"Mecklenburgische Seenplatte","type":"Landkreis"},"federalState":{"key":"13","name":"Mecklenburg-Vorpommern"}},{"name":"Paumgartnerstr.","postalCode":"94094","locality":"Malching","municipality":{"key":"09275132","name":"Malching","type":"Kreisangehörige_Gemeinde"},"district":{"key":"09275","name":"Passau","type":"Landkreis"},"federalState":{"key":"09","name":"Bayern"}},{"name":"Peenestr.","postalCode":"17139","locality":"Malchin","municipality":{"key":"13071092","name":"Malchin, Stadt","type":"Stadt"},"district":{"key":"13071","name":"Mecklenburgische Seenplatte","type":"Landkreis"},"federalState":{"key":"13","name":"Mecklenburg-Vorpommern"}},{"name":"Petersilienstr.","postalCode":"17139","locality":"Malchin","municipality":{"key":"13071092","name":"Malchin, Stadt","type":"Stadt"},"district":{"key":"13071","name":"Mecklenburgische Seenplatte","type":"Landkreis"},"federalState":{"key":"13","name":"Mecklenburg-Vorpommern"}},{"name":"Pfarrer-Schanderl-Weg","postalCode":"94094","locality":"Malching","municipality":{"key":"09275132","name":"Malching","type":"Kreisangehörige_Gemeinde"},"district":{"key":"09275","name":"Passau","type":"Landkreis"},"federalState":{"key":"09","name":"Bayern"}},{"name":"Pinnow","postalCode":"17139","locality":"Malchin","municipality":{"key":"13071092","name":"Malchin, Stadt","type":"Stadt"},"district":{"key":"13071","name":"Mecklenburgische Seenplatte","type":"Landkreis"},"federalState":{"key":"13","name":"Mecklenburg-Vorpommern"}},{"name":"Pisedeer Damm","postalCode":"17139","locality":"Malchin","municipality":{"key":"13071092","name":"Malchin, Stadt","type":"Stadt"},"district":{"key":"13071","name":"Mecklenburgische Seenplatte","type":"Landkreis"},"federalState":{"key":"13","name":"Mecklenburg-Vorpommern"}},{"name":"Poststr.","postalCode":"17139","locality":"Malchin","municipality":{"key":"13071092","name":"Malchin, Stadt","type":"Stadt"},"district":{"key":"13071","name":"Mecklenburgische Seenplatte","type":"Landkreis"},"federalState":{"key":"13","name":"Mecklenburg-Vorpommern"}},{"name":"Puschkinstr.","postalCode":"17139","locality":"Malchin","municipality":{"key":"13071092","name":"Malchin, Stadt","type":"Stadt"},"district":{"key":"13071","name":"Mecklenburgische Seenplatte","type":"Landkreis"},"federalState":{"key":"13","name":"Mecklenburg-Vorpommern"}},{"name":"Reith","postalCode":"94094","locality":"Malching","municipality":{"key":"09275132","name":"Malching","type":"Kreisangehörige_Gemeinde"},"district":{"key":"09275","name":"Passau","type":"Landkreis"},"federalState":{"key":"09","name":"Bayern"}},{"name":"Rektor-Bülch-Str.","postalCode":"17139","locality":"Malchin","municipality":{"key":"13071092","name":"Malchin, Stadt","type":"Stadt"},"district":{"key":"13071","name":"Mecklenburgische Seenplatte","type":"Landkreis"},"federalState":{"key":"13","name":"Mecklenburg-Vorpommern"}},{"name":"Rempliner Hauptstr.","postalCode":"17139","locality":"Malchin","municipality":{"key":"13071092","name":"Malchin, Stadt","type":"Stadt"},"district":{"key":"13071","name":"Mecklenburgische Seenplatte","type":"Landkreis"},"federalState":{"key":"13","name":"Mecklenburg-Vorpommern"}},{"name":"Retzow","postalCode":"17139","locality":"Malchin","municipality":{"key":"13071092","name":"Malchin, Stadt","type":"Stadt"},"district":{"key":"13071","name":"Mecklenburgische Seenplatte","type":"Landkreis"},"federalState":{"key":"13","name":"Mecklenburg-Vorpommern"}},{"name":"Rosenstr.","postalCode":"17139","locality":"Malchin","municipality":{"key":"13071092","name":"Malchin, Stadt","type":"Stadt"},"district":{"key":"13071","name":"Mecklenburgische Seenplatte","type":"Landkreis"},"federalState":{"key":"13","name":"Mecklenburg-Vorpommern"}},{"name":"Rosmarinstr.","postalCode":"17139","locality":"Malchin","municipality":{"key":"13071092","name":"Malchin, Stadt","type":"Stadt"},"district":{"key":"13071","name":"Mecklenburgische Seenplatte","type":"Landkreis"},"federalState":{"key":"13","name":"Mecklenburg-Vorpommern"}},{"name":"Rudolf-Fritz-Str.","postalCode":"17139","locality":"Malchin","municipality":{"key":"13071092","name":"Malchin, Stadt","type":"Stadt"},"district":{"key":"13071","name":"Mecklenburgische Seenplatte","type":"Landkreis"},"federalState":{"key":"13","name":"Mecklenburg-Vorpommern"}},{"name":"Salem","postalCode":"17139","locality":"Malchin","municipality":{"key":"13071092","name":"Malchin, Stadt","type":"Stadt"},"district":{"key":"13071","name":"Mecklenburgische Seenplatte","type":"Landkreis"},"federalState":{"key":"13","name":"Mecklenburg-Vorpommern"}},{"name":"Scheunenstr.","postalCode":"17139","locality":"Malchin","municipality":{"key":"13071092","name":"Malchin, Stadt","type":"Stadt"},"district":{"key":"13071","name":"Mecklenburgische Seenplatte","type":"Landkreis"},"federalState":{"key":"13","name":"Mecklenburg-Vorpommern"}},{"name":"Schloßstr.","postalCode":"17139","locality":"Malchin","municipality":{"key":"13071092","name":"Malchin, Stadt","type":"Stadt"},"district":{"key":"13071","name":"Mecklenburgische Seenplatte","type":"Landkreis"},"federalState":{"key":"13","name":"Mecklenburg-Vorpommern"}},{"name":"Schratweg","postalCode":"17139","locality":"Malchin","municipality":{"key":"13071092","name":"Malchin, Stadt","type":"Stadt"},"district":{"key":"13071","name":"Mecklenburgische Seenplatte","type":"Landkreis"},"federalState":{"key":"13","name":"Mecklenburg-Vorpommern"}},{"name":"Schulstr.","postalCode":"17139","locality":"Malchin","municipality":{"key":"13071092","name":"Malchin, Stadt","type":"Stadt"},"district":{"key":"13071","name":"Mecklenburgische Seenplatte","type":"Landkreis"},"federalState":{"key":"13","name":"Mecklenburg-Vorpommern"}},{"name":"Schultetusstr.","postalCode":"17139","locality":"Malchin","municipality":{"key":"13071092","name":"Malchin, Stadt","type":"Stadt"},"district":{"key":"13071","name":"Mecklenburgische Seenplatte","type":"Landkreis"},"federalState":{"key":"13","name":"Mecklenburg-Vorpommern"}},{"name":"Schützenstr.","postalCode":"94094","locality":"Malching","municipality":{"key":"09275132","name":"Malching","type":"Kreisangehörige_Gemeinde"},"district":{"key":"09275","name":"Passau","type":"Landkreis"},"federalState":{"key":"09","name":"Bayern"}},{"name":"Schweriner Str.","postalCode":"17139","locality":"Malchin","municipality":{"key":"13071092","name":"Malchin, Stadt","type":"Stadt"},"district":{"key":"13071","name":"Mecklenburgische Seenplatte","type":"Landkreis"},"federalState":{"key":"13","name":"Mecklenburg-Vorpommern"}},{"name":"Stavenhagener Str.","postalCode":"17139","locality":"Malchin","municipality":{"key":"13071092","name":"Malchin, Stadt","type":"Stadt"},"district":{"key":"13071","name":"Mecklenburgische Seenplatte","type":"Landkreis"},"federalState":{"key":"13","name":"Mecklenburg-Vorpommern"}},{"name":"Steinstr.","postalCode":"17139","locality":"Malchin","municipality":{"key":"13071092","name":"Malchin, Stadt","type":"Stadt"},"district":{"key":"13071","name":"Mecklenburgische Seenplatte","type":"Landkreis"},"federalState":{"key":"13","name":"Mecklenburg-Vorpommern"}},{"name":"Steintor-Mauer-Str.","postalCode":"17139","locality":"Malchin","municipality":{"key":"13071092","name":"Malchin, Stadt","type":"Stadt"},"district":{"key":"13071","name":"Mecklenburgische Seenplatte","type":"Landkreis"},"federalState":{"key":"13","name":"Mecklenburg-Vorpommern"}},{"name":"Strelitzer Str.","postalCode":"17139","locality":"Malchin","municipality":{"key":"13071092","name":"Malchin, Stadt","type":"Stadt"},"district":{"key":"13071","name":"Mecklenburgische Seenplatte","type":"Landkreis"},"federalState":{"key":"13","name":"Mecklenburg-Vorpommern"}},{"name":"Strietfeld","postalCode":"17139","locality":"Malchin","municipality":{"key":"13071092","name":"Malchin, Stadt","type":"Stadt"},"district":{"key":"13071","name":"Mecklenburgische Seenplatte","type":"Landkreis"},"federalState":{"key":"13","name":"Mecklenburg-Vorpommern"}},{"name":"Teichberg","postalCode":"17139","locality":"Malchin","municipality":{"key":"13071092","name":"Malchin, Stadt","type":"Stadt"},"district":{"key":"13071","name":"Mecklenburgische Seenplatte","type":"Landkreis"},"federalState":{"key":"13","name":"Mecklenburg-Vorpommern"}},{"name":"Teichstr.","postalCode":"17139","locality":"Malchin","municipality":{"key":"13071092","name":"Malchin, Stadt","type":"Stadt"},"district":{"key":"13071","name":"Mecklenburgische Seenplatte","type":"Landkreis"},"federalState":{"key":"13","name":"Mecklenburg-Vorpommern"}},{"name":"Turnplatz","postalCode":"17139","locality":"Malchin","municipality":{"key":"13071092","name":"Malchin, Stadt","type":"Stadt"},"district":{"key":"13071","name":"Mecklenburgische Seenplatte","type":"Landkreis"},"federalState":{"key":"13","name":"Mecklenburg-Vorpommern"}},{"name":"Unkel-Bräsig-Straat","postalCode":"17139","locality":"Malchin","municipality":{"key":"13071092","name":"Malchin, Stadt","type":"Stadt"},"district":{"key":"13071","name":"Mecklenburgische Seenplatte","type":"Landkreis"},"federalState":{"key":"13","name":"Mecklenburg-Vorpommern"}},{"name":"Unkel-Bräsig-Strat","postalCode":"17139","locality":"Malchin","municipality":{"key":"13071092","name":"Malchin, Stadt","type":"Stadt"},"district":{"key":"13071","name":"Mecklenburgische Seenplatte","type":"Landkreis"},"federalState":{"key":"13","name":"Mecklenburg-Vorpommern"}},{"name":"Uns Hüsung","postalCode":"17139","locality":"Malchin","municipality":{"key":"13071092","name":"Malchin, Stadt","type":"Stadt"},"district":{"key":"13071","name":"Mecklenburgische Seenplatte","type":"Landkreis"},"federalState":{"key":"13","name":"Mecklenburg-Vorpommern"}},{"name":"Waldstr.","postalCode":"94094","locality":"Malching","municipality":{"key":"09275132","name":"Malching","type":"Kreisangehörige_Gemeinde"},"district":{"key":"09275","name":"Passau","type":"Landkreis"},"federalState":{"key":"09","name":"Bayern"}},{"name":"Waldweg","postalCode":"17139","locality":"Malchin","municipality":{"key":"13071092","name":"Malchin, Stadt","type":"Stadt"},"district":{"key":"13071","name":"Mecklenburgische Seenplatte","type":"Landkreis"},"federalState":{"key":"13","name":"Mecklenburg-Vorpommern"}},{"name":"Wallanlagen","postalCode":"17139","locality":"Malchin","municipality":{"key":"13071092","name":"Malchin, Stadt","type":"Stadt"},"district":{"key":"13071","name":"Mecklenburgische Seenplatte","type":"Landkreis"},"federalState":{"key":"13","name":"Mecklenburg-Vorpommern"}},{"name":"Walter-Block-Str.","postalCode":"17139","locality":"Malchin","municipality":{"key":"13071092","name":"Malchin, Stadt","type":"Stadt"},"district":{"key":"13071","name":"Mecklenburgische Seenplatte","type":"Landkreis"},"federalState":{"key":"13","name":"Mecklenburg-Vorpommern"}},{"name":"Warener Str.","postalCode":"17139","locality":"Malchin","municipality":{"key":"13071092","name":"Malchin, Stadt","type":"Stadt"},"district":{"key":"13071","name":"Mecklenburgische Seenplatte","type":"Landkreis"},"federalState":{"key":"13","name":"Mecklenburg-Vorpommern"}},{"name":"Wargentiner Str.","postalCode":"17139","locality":"Malchin","municipality":{"key":"13071092","name":"Malchin, Stadt","type":"Stadt"},"district":{"key":"13071","name":"Mecklenburgische Seenplatte","type":"Landkreis"},"federalState":{"key":"13","name":"Mecklenburg-Vorpommern"}},{"name":"Wedenhof","postalCode":"17139","locality":"Malchin","municipality":{"key":"13071092","name":"Malchin, Stadt","type":"Stadt"},"district":{"key":"13071","name":"Mecklenburgische Seenplatte","type":"Landkreis"},"federalState":{"key":"13","name":"Mecklenburg-Vorpommern"}},{"name":"Wendischhagen","postalCode":"17139","locality":"Malchin","municipality":{"key":"13071092","name":"Malchin, Stadt","type":"Stadt"},"district":{"key":"13071","name":"Mecklenburgische Seenplatte","type":"Landkreis"},"federalState":{"key":"13","name":"Mecklenburg-Vorpommern"}},{"name":"Wendischhägener Str.","postalCode":"17139","locality":"Malchin","municipality":{"key":"13071092","name":"Malchin, Stadt","type":"Stadt"},"district":{"key":"13071","name":"Mecklenburgische Seenplatte","type":"Landkreis"},"federalState":{"key":"13","name":"Mecklenburg-Vorpommern"}},{"name":"Wiesenstr.","postalCode":"17139","locality":"Malchin","municipality":{"key":"13071092","name":"Malchin, Stadt","type":"Stadt"},"district":{"key":"13071","name":"Mecklenburgische Seenplatte","type":"Landkreis"},"federalState":{"key":"13","name":"Mecklenburg-Vorpommern"}},{"name":"Wiesenweg","postalCode":"17139","locality":"Malchin","municipality":{"key":"13071092","name":"Malchin, Stadt","type":"Stadt"},"district":{"key":"13071","name":"Mecklenburgische Seenplatte","type":"Landkreis"},"federalState":{"key":"13","name":"Mecklenburg-Vorpommern"}},]