[{"name":"Am Bast","postalCode":"25335","locality":"Bokholt-Hanredder","municipality":{"key":"01056008","name":"Bokholt-Hanredder","type":"Kreisangehörige_Gemeinde"},"district":{"key":"01056","name":"Pinneberg","type":"Kreis"},"federalState":{"key":"01","name":"Schleswig-Holstein"}},{"name":"Am Grünen Wald","postalCode":"25335","locality":"Bokholt-Hanredder","municipality":{"key":"01056008","name":"Bokholt-Hanredder","type":"Kreisangehörige_Gemeinde"},"district":{"key":"01056","name":"Pinneberg","type":"Kreis"},"federalState":{"key":"01","name":"Schleswig-Holstein"}},{"name":"Bahnhofstr.","postalCode":"25335","locality":"Bokholt-Hanredder","municipality":{"key":"01056008","name":"Bokholt-Hanredder","type":"Kreisangehörige_Gemeinde"},"district":{"key":"01056","name":"Pinneberg","type":"Kreis"},"federalState":{"key":"01","name":"Schleswig-Holstein"}},{"name":"Birkenweg","postalCode":"25335","locality":"Bokholt-Hanredder","municipality":{"key":"01056008","name":"Bokholt-Hanredder","type":"Kreisangehörige_Gemeinde"},"district":{"key":"01056","name":"Pinneberg","type":"Kreis"},"federalState":{"key":"01","name":"Schleswig-Holstein"}},{"name":"Bokholter Damm","postalCode":"25335","locality":"Bokholt-Hanredder","municipality":{"key":"01056008","name":"Bokholt-Hanredder","type":"Kreisangehörige_Gemeinde"},"district":{"key":"01056","name":"Pinneberg","type":"Kreis"},"federalState":{"key":"01","name":"Schleswig-Holstein"}},{"name":"Christiansenweg","postalCode":"25421","locality":"Pinneberg","municipality":{"key":"01056039","name":"Pinneberg, Stadt","type":"Stadt"},"district":{"key":"01056","name":"Pinneberg","type":"Kreis"},"federalState":{"key":"01","name":"Schleswig-Holstein"}},{"name":"Clara-Bartram-Weg","postalCode":"25421","locality":"Pinneberg","municipality":{"key":"01056039","name":"Pinneberg, Stadt","type":"Stadt"},"district":{"key":"01056","name":"Pinneberg","type":"Kreis"},"federalState":{"key":"01","name":"Schleswig-Holstein"}},{"name":"Drosselgasse","postalCode":"25335","locality":"Bokholt-Hanredder","municipality":{"key":"01056008","name":"Bokholt-Hanredder","type":"Kreisangehörige_Gemeinde"},"district":{"key":"01056","name":"Pinneberg","type":"Kreis"},"federalState":{"key":"01","name":"Schleswig-Holstein"}},{"name":"Eichenring","postalCode":"25335","locality":"Bokholt-Hanredder","municipality":{"key":"01056008","name":"Bokholt-Hanredder","type":"Kreisangehörige_Gemeinde"},"district":{"key":"01056","name":"Pinneberg","type":"Kreis"},"federalState":{"key":"01","name":"Schleswig-Holstein"}},{"name":"Fasanenweg","postalCode":"25335","locality":"Bokholt-Hanredder","municipality":{"key":"01056008","name":"Bokholt-Hanredder","type":"Kreisangehörige_Gemeinde"},"district":{"key":"01056","name":"Pinneberg","type":"Kreis"},"federalState":{"key":"01","name":"Schleswig-Holstein"}},{"name":"Garteneck","postalCode":"25335","locality":"Bokholt-Hanredder","municipality":{"key":"01056008","name":"Bokholt-Hanredder","type":"Kreisangehörige_Gemeinde"},"district":{"key":"01056","name":"Pinneberg","type":"Kreis"},"federalState":{"key":"01","name":"Schleswig-Holstein"}},{"name":"Gartenkamp","postalCode":"25335","locality":"Bokholt-Hanredder","municipality":{"key":"01056008","name":"Bokholt-Hanredder","type":"Kreisangehörige_Gemeinde"},"district":{"key":"01056","name":"Pinneberg","type":"Kreis"},"federalState":{"key":"01","name":"Schleswig-Holstein"}},{"name":"Gartenweg","postalCode":"25335","locality":"Bokholt-Hanredder","municipality":{"key":"01056008","name":"Bokholt-Hanredder","type":"Kreisangehörige_Gemeinde"},"district":{"key":"01056","name":"Pinneberg","type":"Kreis"},"federalState":{"key":"01","name":"Schleswig-Holstein"}},{"name":"Hanredder","postalCode":"25335","locality":"Bokholt-Hanredder","municipality":{"key":"01056008","name":"Bokholt-Hanredder","type":"Kreisangehörige_Gemeinde"},"district":{"key":"01056","name":"Pinneberg","type":"Kreis"},"federalState":{"key":"01","name":"Schleswig-Holstein"}},{"name":"Hauptstr.","postalCode":"25335","locality":"Bokholt-Hanredder","municipality":{"key":"01056008","name":"Bokholt-Hanredder","type":"Kreisangehörige_Gemeinde"},"district":{"key":"01056","name":"Pinneberg","type":"Kreis"},"federalState":{"key":"01","name":"Schleswig-Holstein"}},{"name":"Hof Bokhorst","postalCode":"25335","locality":"Bokholt-Hanredder","municipality":{"key":"01056008","name":"Bokholt-Hanredder","type":"Kreisangehörige_Gemeinde"},"district":{"key":"01056","name":"Pinneberg","type":"Kreis"},"federalState":{"key":"01","name":"Schleswig-Holstein"}},{"name":"Igelweg","postalCode":"25421","locality":"Pinneberg","municipality":{"key":"01056039","name":"Pinneberg, Stadt","type":"Stadt"},"district":{"key":"01056","name":"Pinneberg","type":"Kreis"},"federalState":{"key":"01","name":"Schleswig-Holstein"}},{"name":"Im Bans","postalCode":"25421","locality":"Pinneberg","municipality":{"key":"01056039","name":"Pinneberg, Stadt","type":"Stadt"},"district":{"key":"01056","name":"Pinneberg","type":"Kreis"},"federalState":{"key":"01","name":"Schleswig-Holstein"}},{"name":"Im Hauen","postalCode":"25421","locality":"Pinneberg","municipality":{"key":"01056039","name":"Pinneberg, Stadt","type":"Stadt"},"district":{"key":"01056","name":"Pinneberg","type":"Kreis"},"federalState":{"key":"01","name":"Schleswig-Holstein"}},{"name":"Immanuel-Kant-Str.","postalCode":"25421","locality":"Pinneberg","municipality":{"key":"01056039","name":"Pinneberg, Stadt","type":"Stadt"},"district":{"key":"01056","name":"Pinneberg","type":"Kreis"},"federalState":{"key":"01","name":"Schleswig-Holstein"}},{"name":"Im Rosenfeld","postalCode":"25421","locality":"Pinneberg","municipality":{"key":"01056039","name":"Pinneberg, Stadt","type":"Stadt"},"district":{"key":"01056","name":"Pinneberg","type":"Kreis"},"federalState":{"key":"01","name":"Schleswig-Holstein"}},{"name":"Im Stook","postalCode":"25421","locality":"Pinneberg","municipality":{"key":"01056039","name":"Pinneberg, Stadt","type":"Stadt"},"district":{"key":"01056","name":"Pinneberg","type":"Kreis"},"federalState":{"key":"01","name":"Schleswig-Holstein"}},{"name":"In der Heide","postalCode":"25421","locality":"Pinneberg","municipality":{"key":"01056039","name":"Pinneberg, Stadt","type":"Stadt"},"district":{"key":"01056","name":"Pinneberg","type":"Kreis"},"federalState":{"key":"01","name":"Schleswig-Holstein"}},{"name":"In de Simp","postalCode":"25421","locality":"Pinneberg","municipality":{"key":"01056039","name":"Pinneberg, Stadt","type":"Stadt"},"district":{"key":"01056","name":"Pinneberg","type":"Kreis"},"federalState":{"key":"01","name":"Schleswig-Holstein"}},{"name":"Jägerkamp","postalCode":"25421","locality":"Pinneberg","municipality":{"key":"01056039","name":"Pinneberg, Stadt","type":"Stadt"},"district":{"key":"01056","name":"Pinneberg","type":"Kreis"},"federalState":{"key":"01","name":"Schleswig-Holstein"}},{"name":"Jansenallee","postalCode":"25421","locality":"Pinneberg","municipality":{"key":"01056039","name":"Pinneberg, Stadt","type":"Stadt"},"district":{"key":"01056","name":"Pinneberg","type":"Kreis"},"federalState":{"key":"01","name":"Schleswig-Holstein"}},{"name":"Jappopkamp","postalCode":"25421","locality":"Pinneberg","municipality":{"key":"01056039","name":"Pinneberg, Stadt","type":"Stadt"},"district":{"key":"01056","name":"Pinneberg","type":"Kreis"},"federalState":{"key":"01","name":"Schleswig-Holstein"}},{"name":"Jappopweg","postalCode":"25421","locality":"Pinneberg","municipality":{"key":"01056039","name":"Pinneberg, Stadt","type":"Stadt"},"district":{"key":"01056","name":"Pinneberg","type":"Kreis"},"federalState":{"key":"01","name":"Schleswig-Holstein"}},{"name":"Jappopweide","postalCode":"25421","locality":"Pinneberg","municipality":{"key":"01056039","name":"Pinneberg, Stadt","type":"Stadt"},"district":{"key":"01056","name":"Pinneberg","type":"Kreis"},"federalState":{"key":"01","name":"Schleswig-Holstein"}},{"name":"Jasminweg","postalCode":"25421","locality":"Pinneberg","municipality":{"key":"01056039","name":"Pinneberg, Stadt","type":"Stadt"},"district":{"key":"01056","name":"Pinneberg","type":"Kreis"},"federalState":{"key":"01","name":"Schleswig-Holstein"}},{"name":"Kortenhagen","postalCode":"25335","locality":"Bokholt-Hanredder","municipality":{"key":"01056008","name":"Bokholt-Hanredder","type":"Kreisangehörige_Gemeinde"},"district":{"key":"01056","name":"Pinneberg","type":"Kreis"},"federalState":{"key":"01","name":"Schleswig-Holstein"}},{"name":"Krittelmoor","postalCode":"25335","locality":"Bokholt-Hanredder","municipality":{"key":"01056008","name":"Bokholt-Hanredder","type":"Kreisangehörige_Gemeinde"},"district":{"key":"01056","name":"Pinneberg","type":"Kreis"},"federalState":{"key":"01","name":"Schleswig-Holstein"}},{"name":"Langenkamp","postalCode":"25421","locality":"Pinneberg","municipality":{"key":"01056039","name":"Pinneberg, Stadt","type":"Stadt"},"district":{"key":"01056","name":"Pinneberg","type":"Kreis"},"federalState":{"key":"01","name":"Schleswig-Holstein"}},{"name":"Lange Twiete","postalCode":"25421","locality":"Pinneberg","municipality":{"key":"01056039","name":"Pinneberg, Stadt","type":"Stadt"},"district":{"key":"01056","name":"Pinneberg","type":"Kreis"},"federalState":{"key":"01","name":"Schleswig-Holstein"}},{"name":"Lärchenweg","postalCode":"25421","locality":"Pinneberg","municipality":{"key":"01056039","name":"Pinneberg, Stadt","type":"Stadt"},"district":{"key":"01056","name":"Pinneberg","type":"Kreis"},"federalState":{"key":"01","name":"Schleswig-Holstein"}},{"name":"Leuschnerstr.","postalCode":"25421","locality":"Pinneberg","municipality":{"key":"01056039","name":"Pinneberg, Stadt","type":"Stadt"},"district":{"key":"01056","name":"Pinneberg","type":"Kreis"},"federalState":{"key":"01","name":"Schleswig-Holstein"}},{"name":"Ligusterweg","postalCode":"25421","locality":"Pinneberg","municipality":{"key":"01056039","name":"Pinneberg, Stadt","type":"Stadt"},"district":{"key":"01056","name":"Pinneberg","type":"Kreis"},"federalState":{"key":"01","name":"Schleswig-Holstein"}},{"name":"Lindenhof","postalCode":"25421","locality":"Pinneberg","municipality":{"key":"01056039","name":"Pinneberg, Stadt","type":"Stadt"},"district":{"key":"01056","name":"Pinneberg","type":"Kreis"},"federalState":{"key":"01","name":"Schleswig-Holstein"}},{"name":"Lindenstr.","postalCode":"25421","locality":"Pinneberg","municipality":{"key":"01056039","name":"Pinneberg, Stadt","type":"Stadt"},"district":{"key":"01056","name":"Pinneberg","type":"Kreis"},"federalState":{"key":"01","name":"Schleswig-Holstein"}},{"name":"Lohstr.","postalCode":"25421","locality":"Pinneberg","municipality":{"key":"01056039","name":"Pinneberg, Stadt","type":"Stadt"},"district":{"key":"01056","name":"Pinneberg","type":"Kreis"},"federalState":{"key":"01","name":"Schleswig-Holstein"}},{"name":"Ludwig-Meyn-Str.","postalCode":"25421","locality":"Pinneberg","municipality":{"key":"01056039","name":"Pinneberg, Stadt","type":"Stadt"},"district":{"key":"01056","name":"Pinneberg","type":"Kreis"},"federalState":{"key":"01","name":"Schleswig-Holstein"}},{"name":"Meisentwiete","postalCode":"25335","locality":"Bokholt-Hanredder","municipality":{"key":"01056008","name":"Bokholt-Hanredder","type":"Kreisangehörige_Gemeinde"},"district":{"key":"01056","name":"Pinneberg","type":"Kreis"},"federalState":{"key":"01","name":"Schleswig-Holstein"}},{"name":"Nedderfeld","postalCode":"25421","locality":"Pinneberg","municipality":{"key":"01056039","name":"Pinneberg, Stadt","type":"Stadt"},"district":{"key":"01056","name":"Pinneberg","type":"Kreis"},"federalState":{"key":"01","name":"Schleswig-Holstein"}},{"name":"Neue Str.","postalCode":"25421","locality":"Pinneberg","municipality":{"key":"01056039","name":"Pinneberg, Stadt","type":"Stadt"},"district":{"key":"01056","name":"Pinneberg","type":"Kreis"},"federalState":{"key":"01","name":"Schleswig-Holstein"}},{"name":"Nieland","postalCode":"25421","locality":"Pinneberg","municipality":{"key":"01056039","name":"Pinneberg, Stadt","type":"Stadt"},"district":{"key":"01056","name":"Pinneberg","type":"Kreis"},"federalState":{"key":"01","name":"Schleswig-Holstein"}},{"name":"Nienhöfener Str.","postalCode":"25421","locality":"Pinneberg","municipality":{"key":"01056039","name":"Pinneberg, Stadt","type":"Stadt"},"district":{"key":"01056","name":"Pinneberg","type":"Kreis"},"federalState":{"key":"01","name":"Schleswig-Holstein"}},{"name":"Nienkamp","postalCode":"25421","locality":"Pinneberg","municipality":{"key":"01056039","name":"Pinneberg, Stadt","type":"Stadt"},"district":{"key":"01056","name":"Pinneberg","type":"Kreis"},"federalState":{"key":"01","name":"Schleswig-Holstein"}},{"name":"Offenau","postalCode":"25335","locality":"Bokholt-Hanredder","municipality":{"key":"01056008","name":"Bokholt-Hanredder","type":"Kreisangehörige_Gemeinde"},"district":{"key":"01056","name":"Pinneberg","type":"Kreis"},"federalState":{"key":"01","name":"Schleswig-Holstein"}},{"name":"Pappelweg","postalCode":"25421","locality":"Pinneberg","municipality":{"key":"01056039","name":"Pinneberg, Stadt","type":"Stadt"},"district":{"key":"01056","name":"Pinneberg","type":"Kreis"},"federalState":{"key":"01","name":"Schleswig-Holstein"}},{"name":"Parkstr.","postalCode":"25421","locality":"Pinneberg","municipality":{"key":"01056039","name":"Pinneberg, Stadt","type":"Stadt"},"district":{"key":"01056","name":"Pinneberg","type":"Kreis"},"federalState":{"key":"01","name":"Schleswig-Holstein"}},{"name":"Paulstr.","postalCode":"25421","locality":"Pinneberg","municipality":{"key":"01056039","name":"Pinneberg, Stadt","type":"Stadt"},"district":{"key":"01056","name":"Pinneberg","type":"Kreis"},"federalState":{"key":"01","name":"Schleswig-Holstein"}},{"name":"Peinerweg","postalCode":"25421","locality":"Pinneberg","municipality":{"key":"01056039","name":"Pinneberg, Stadt","type":"Stadt"},"district":{"key":"01056","name":"Pinneberg","type":"Kreis"},"federalState":{"key":"01","name":"Schleswig-Holstein"}},{"name":"Perleberger Str.","postalCode":"25421","locality":"Pinneberg","municipality":{"key":"01056039","name":"Pinneberg, Stadt","type":"Stadt"},"district":{"key":"01056","name":"Pinneberg","type":"Kreis"},"federalState":{"key":"01","name":"Schleswig-Holstein"}},{"name":"Pestalozzistr.","postalCode":"25421","locality":"Pinneberg","municipality":{"key":"01056039","name":"Pinneberg, Stadt","type":"Stadt"},"district":{"key":"01056","name":"Pinneberg","type":"Kreis"},"federalState":{"key":"01","name":"Schleswig-Holstein"}},{"name":"Pinnaudamm","postalCode":"25421","locality":"Pinneberg","municipality":{"key":"01056039","name":"Pinneberg, Stadt","type":"Stadt"},"district":{"key":"01056","name":"Pinneberg","type":"Kreis"},"federalState":{"key":"01","name":"Schleswig-Holstein"}},{"name":"Platanenweg","postalCode":"25421","locality":"Pinneberg","municipality":{"key":"01056039","name":"Pinneberg, Stadt","type":"Stadt"},"district":{"key":"01056","name":"Pinneberg","type":"Kreis"},"federalState":{"key":"01","name":"Schleswig-Holstein"}},{"name":"Prisdorfer Str.","postalCode":"25421","locality":"Pinneberg","municipality":{"key":"01056039","name":"Pinneberg, Stadt","type":"Stadt"},"district":{"key":"01056","name":"Pinneberg","type":"Kreis"},"federalState":{"key":"01","name":"Schleswig-Holstein"}},{"name":"Quellenweg","postalCode":"25421","locality":"Pinneberg","municipality":{"key":"01056039","name":"Pinneberg, Stadt","type":"Stadt"},"district":{"key":"01056","name":"Pinneberg","type":"Kreis"},"federalState":{"key":"01","name":"Schleswig-Holstein"}},{"name":"Quickborner Str.","postalCode":"25421","locality":"Pinneberg","municipality":{"key":"01056039","name":"Pinneberg, Stadt","type":"Stadt"},"district":{"key":"01056","name":"Pinneberg","type":"Kreis"},"federalState":{"key":"01","name":"Schleswig-Holstein"}},{"name":"Redderkamp","postalCode":"25335","locality":"Bokholt-Hanredder","municipality":{"key":"01056008","name":"Bokholt-Hanredder","type":"Kreisangehörige_Gemeinde"},"district":{"key":"01056","name":"Pinneberg","type":"Kreis"},"federalState":{"key":"01","name":"Schleswig-Holstein"}},{"name":"Rosenhof","postalCode":"25335","locality":"Bokholt-Hanredder","municipality":{"key":"01056008","name":"Bokholt-Hanredder","type":"Kreisangehörige_Gemeinde"},"district":{"key":"01056","name":"Pinneberg","type":"Kreis"},"federalState":{"key":"01","name":"Schleswig-Holstein"}},{"name":"Sandweg","postalCode":"25335","locality":"Bokholt-Hanredder","municipality":{"key":"01056008","name":"Bokholt-Hanredder","type":"Kreisangehörige_Gemeinde"},"district":{"key":"01056","name":"Pinneberg","type":"Kreis"},"federalState":{"key":"01","name":"Schleswig-Holstein"}},{"name":"Schulstieg","postalCode":"25335","locality":"Bokholt-Hanredder","municipality":{"key":"01056008","name":"Bokholt-Hanredder","type":"Kreisangehörige_Gemeinde"},"district":{"key":"01056","name":"Pinneberg","type":"Kreis"},"federalState":{"key":"01","name":"Schleswig-Holstein"}},{"name":"Schulweg","postalCode":"25335","locality":"Bokholt-Hanredder","municipality":{"key":"01056008","name":"Bokholt-Hanredder","type":"Kreisangehörige_Gemeinde"},"district":{"key":"01056","name":"Pinneberg","type":"Kreis"},"federalState":{"key":"01","name":"Schleswig-Holstein"}},{"name":"Schützenweg","postalCode":"25335","locality":"Bokholt-Hanredder","municipality":{"key":"01056008","name":"Bokholt-Hanredder","type":"Kreisangehörige_Gemeinde"},"district":{"key":"01056","name":"Pinneberg","type":"Kreis"},"federalState":{"key":"01","name":"Schleswig-Holstein"}},{"name":"Tannenhof","postalCode":"25335","locality":"Bokholt-Hanredder","municipality":{"key":"01056008","name":"Bokholt-Hanredder","type":"Kreisangehörige_Gemeinde"},"district":{"key":"01056","name":"Pinneberg","type":"Kreis"},"federalState":{"key":"01","name":"Schleswig-Holstein"}},{"name":"Uhuweg","postalCode":"25335","locality":"Bokholt-Hanredder","municipality":{"key":"01056008","name":"Bokholt-Hanredder","type":"Kreisangehörige_Gemeinde"},"district":{"key":"01056","name":"Pinneberg","type":"Kreis"},"federalState":{"key":"01","name":"Schleswig-Holstein"}},{"name":"Vogt-Ramcke-Str.","postalCode":"25421","locality":"Pinneberg","municipality":{"key":"01056039","name":"Pinneberg, Stadt","type":"Stadt"},"district":{"key":"01056","name":"Pinneberg","type":"Kreis"},"federalState":{"key":"01","name":"Schleswig-Holstein"}},{"name":"Von-Ahlefeldt-Stieg","postalCode":"25421","locality":"Pinneberg","municipality":{"key":"01056039","name":"Pinneberg, Stadt","type":"Stadt"},"district":{"key":"01056","name":"Pinneberg","type":"Kreis"},"federalState":{"key":"01","name":"Schleswig-Holstein"}},{"name":"Voßbarg","postalCode":"25421","locality":"Pinneberg","municipality":{"key":"01056039","name":"Pinneberg, Stadt","type":"Stadt"},"district":{"key":"01056","name":"Pinneberg","type":"Kreis"},"federalState":{"key":"01","name":"Schleswig-Holstein"}},{"name":"Wiesengrund","postalCode":"25335","locality":"Bokholt-Hanredder","municipality":{"key":"01056008","name":"Bokholt-Hanredder","type":"Kreisangehörige_Gemeinde"},"district":{"key":"01056","name":"Pinneberg","type":"Kreis"},"federalState":{"key":"01","name":"Schleswig-Holstein"}},{"name":"Ziegeleiweg","postalCode":"25421","locality":"Pinneberg","municipality":{"key":"01056039","name":"Pinneberg, Stadt","type":"Stadt"},"district":{"key":"01056","name":"Pinneberg","type":"Kreis"},"federalState":{"key":"01","name":"Schleswig-Holstein"}},]