[{"name":"Alte Dorfstr.","postalCode":"27446","locality":"Farven","municipality":{"key":"03357014","name":"Farven","type":"Kreisangehörige_Gemeinde"},"district":{"key":"03357","name":"Rotenburg (Wümme)","type":"Landkreis"},"federalState":{"key":"03","name":"Niedersachsen"}},{"name":"Am Sportplatz","postalCode":"27446","locality":"Farven","municipality":{"key":"03357014","name":"Farven","type":"Kreisangehörige_Gemeinde"},"district":{"key":"03357","name":"Rotenburg (Wümme)","type":"Landkreis"},"federalState":{"key":"03","name":"Niedersachsen"}},{"name":"Am Stüh","postalCode":"27446","locality":"Farven","municipality":{"key":"03357014","name":"Farven","type":"Kreisangehörige_Gemeinde"},"district":{"key":"03357","name":"Rotenburg (Wümme)","type":"Landkreis"},"federalState":{"key":"03","name":"Niedersachsen"}},{"name":"Baaste","postalCode":"27446","locality":"Farven","municipality":{"key":"03357014","name":"Farven","type":"Kreisangehörige_Gemeinde"},"district":{"key":"03357","name":"Rotenburg (Wümme)","type":"Landkreis"},"federalState":{"key":"03","name":"Niedersachsen"}},{"name":"Baaster Berg","postalCode":"27446","locality":"Farven","municipality":{"key":"03357014","name":"Farven","type":"Kreisangehörige_Gemeinde"},"district":{"key":"03357","name":"Rotenburg (Wümme)","type":"Landkreis"},"federalState":{"key":"03","name":"Niedersachsen"}},{"name":"Bevertal","postalCode":"27446","locality":"Farven","municipality":{"key":"03357014","name":"Farven","type":"Kreisangehörige_Gemeinde"},"district":{"key":"03357","name":"Rotenburg (Wümme)","type":"Landkreis"},"federalState":{"key":"03","name":"Niedersachsen"}},{"name":"Buchenweg","postalCode":"27446","locality":"Farven","municipality":{"key":"03357014","name":"Farven","type":"Kreisangehörige_Gemeinde"},"district":{"key":"03357","name":"Rotenburg (Wümme)","type":"Landkreis"},"federalState":{"key":"03","name":"Niedersachsen"}},{"name":"Byhusener Str.","postalCode":"27446","locality":"Farven","municipality":{"key":"03357014","name":"Farven","type":"Kreisangehörige_Gemeinde"},"district":{"key":"03357","name":"Rotenburg (Wümme)","type":"Landkreis"},"federalState":{"key":"03","name":"Niedersachsen"}},{"name":"Dorfstr.","postalCode":"27446","locality":"Farven","municipality":{"key":"03357014","name":"Farven","type":"Kreisangehörige_Gemeinde"},"district":{"key":"03357","name":"Rotenburg (Wümme)","type":"Landkreis"},"federalState":{"key":"03","name":"Niedersachsen"}},{"name":"Eichenstr.","postalCode":"27446","locality":"Farven","municipality":{"key":"03357014","name":"Farven","type":"Kreisangehörige_Gemeinde"},"district":{"key":"03357","name":"Rotenburg (Wümme)","type":"Landkreis"},"federalState":{"key":"03","name":"Niedersachsen"}},{"name":"Farvener Str.","postalCode":"27446","locality":"Farven","municipality":{"key":"03357014","name":"Farven","type":"Kreisangehörige_Gemeinde"},"district":{"key":"03357","name":"Rotenburg (Wümme)","type":"Landkreis"},"federalState":{"key":"03","name":"Niedersachsen"}},{"name":"Fehrenbrucher Mühlenweg","postalCode":"27446","locality":"Farven","municipality":{"key":"03357014","name":"Farven","type":"Kreisangehörige_Gemeinde"},"district":{"key":"03357","name":"Rotenburg (Wümme)","type":"Landkreis"},"federalState":{"key":"03","name":"Niedersachsen"}},{"name":"Feldstr.","postalCode":"27446","locality":"Farven","municipality":{"key":"03357014","name":"Farven","type":"Kreisangehörige_Gemeinde"},"district":{"key":"03357","name":"Rotenburg (Wümme)","type":"Landkreis"},"federalState":{"key":"03","name":"Niedersachsen"}},{"name":"Hesedorfer Str.","postalCode":"27446","locality":"Farven","municipality":{"key":"03357014","name":"Farven","type":"Kreisangehörige_Gemeinde"},"district":{"key":"03357","name":"Rotenburg (Wümme)","type":"Landkreis"},"federalState":{"key":"03","name":"Niedersachsen"}},{"name":"Hinter dem Holzfeld","postalCode":"27446","locality":"Farven","municipality":{"key":"03357014","name":"Farven","type":"Kreisangehörige_Gemeinde"},"district":{"key":"03357","name":"Rotenburg (Wümme)","type":"Landkreis"},"federalState":{"key":"03","name":"Niedersachsen"}},{"name":"Holzfeld","postalCode":"27446","locality":"Farven","municipality":{"key":"03357014","name":"Farven","type":"Kreisangehörige_Gemeinde"},"district":{"key":"03357","name":"Rotenburg (Wümme)","type":"Landkreis"},"federalState":{"key":"03","name":"Niedersachsen"}},{"name":"Im Wiesengrund","postalCode":"27446","locality":"Farven","municipality":{"key":"03357014","name":"Farven","type":"Kreisangehörige_Gemeinde"},"district":{"key":"03357","name":"Rotenburg (Wümme)","type":"Landkreis"},"federalState":{"key":"03","name":"Niedersachsen"}},{"name":"Jeerenfeld","postalCode":"27446","locality":"Farven","municipality":{"key":"03357014","name":"Farven","type":"Kreisangehörige_Gemeinde"},"district":{"key":"03357","name":"Rotenburg (Wümme)","type":"Landkreis"},"federalState":{"key":"03","name":"Niedersachsen"}},{"name":"Kutenholzer Str.","postalCode":"27446","locality":"Farven","municipality":{"key":"03357014","name":"Farven","type":"Kreisangehörige_Gemeinde"},"district":{"key":"03357","name":"Rotenburg (Wümme)","type":"Landkreis"},"federalState":{"key":"03","name":"Niedersachsen"}},{"name":"Luneborn","postalCode":"27446","locality":"Farven","municipality":{"key":"03357014","name":"Farven","type":"Kreisangehörige_Gemeinde"},"district":{"key":"03357","name":"Rotenburg (Wümme)","type":"Landkreis"},"federalState":{"key":"03","name":"Niedersachsen"}},{"name":"Malstedter Str.","postalCode":"27446","locality":"Farven","municipality":{"key":"03357014","name":"Farven","type":"Kreisangehörige_Gemeinde"},"district":{"key":"03357","name":"Rotenburg (Wümme)","type":"Landkreis"},"federalState":{"key":"03","name":"Niedersachsen"}},{"name":"Sadersdorfer Str.","postalCode":"27446","locality":"Farven","municipality":{"key":"03357014","name":"Farven","type":"Kreisangehörige_Gemeinde"},"district":{"key":"03357","name":"Rotenburg (Wümme)","type":"Landkreis"},"federalState":{"key":"03","name":"Niedersachsen"}},{"name":"Schulstr.","postalCode":"27446","locality":"Farven","municipality":{"key":"03357014","name":"Farven","type":"Kreisangehörige_Gemeinde"},"district":{"key":"03357","name":"Rotenburg (Wümme)","type":"Landkreis"},"federalState":{"key":"03","name":"Niedersachsen"}},{"name":"Steinberg","postalCode":"27446","locality":"Farven","municipality":{"key":"03357014","name":"Farven","type":"Kreisangehörige_Gemeinde"},"district":{"key":"03357","name":"Rotenburg (Wümme)","type":"Landkreis"},"federalState":{"key":"03","name":"Niedersachsen"}},{"name":"Zum Born","postalCode":"27446","locality":"Farven","municipality":{"key":"03357014","name":"Farven","type":"Kreisangehörige_Gemeinde"},"district":{"key":"03357","name":"Rotenburg (Wümme)","type":"Landkreis"},"federalState":{"key":"03","name":"Niedersachsen"}},]