[{"name":"Achter de Kark","postalCode":"24568","locality":"Kaltenkirchen","municipality":{"key":"01060044","name":"Kaltenkirchen, Stadt","type":"Stadt"},"district":{"key":"01060","name":"Segeberg","type":"Kreis"},"federalState":{"key":"01","name":"Schleswig-Holstein"}},{"name":"Ahornstieg","postalCode":"24568","locality":"Kaltenkirchen","municipality":{"key":"01060044","name":"Kaltenkirchen, Stadt","type":"Stadt"},"district":{"key":"01060","name":"Segeberg","type":"Kreis"},"federalState":{"key":"01","name":"Schleswig-Holstein"}},{"name":"Ahornweg","postalCode":"57610","locality":"Altenkirchen (Westerwald)","municipality":{"key":"07132501","name":"Altenkirchen (Westerwald), Stadt","type":"Stadt"},"district":{"key":"07132","name":"Altenkirchen (Westerwald)","type":"Landkreis"},"federalState":{"key":"07","name":"Rheinland-Pfalz"}},{"name":"Albrecht-Dürer-Ring","postalCode":"24568","locality":"Kaltenkirchen","municipality":{"key":"01060044","name":"Kaltenkirchen, Stadt","type":"Stadt"},"district":{"key":"01060","name":"Segeberg","type":"Kreis"},"federalState":{"key":"01","name":"Schleswig-Holstein"}},{"name":"Allee","postalCode":"18556","locality":"Altenkirchen","municipality":{"key":"13073004","name":"Altenkirchen","type":"Kreisangehörige_Gemeinde"},"district":{"key":"13073","name":"Vorpommern-Rügen","type":"Landkreis"},"federalState":{"key":"13","name":"Mecklenburg-Vorpommern"}},{"name":"Almersbacher Str.","postalCode":"57610","locality":"Altenkirchen (Westerwald)","municipality":{"key":"07132501","name":"Altenkirchen (Westerwald), Stadt","type":"Stadt"},"district":{"key":"07132","name":"Altenkirchen (Westerwald)","type":"Landkreis"},"federalState":{"key":"07","name":"Rheinland-Pfalz"}},{"name":"Altenkirchener Chaussee","postalCode":"18556","locality":"Altenkirchen","municipality":{"key":"13073004","name":"Altenkirchen","type":"Kreisangehörige_Gemeinde"},"district":{"key":"13073","name":"Vorpommern-Rügen","type":"Landkreis"},"federalState":{"key":"13","name":"Mecklenburg-Vorpommern"}},{"name":"Alter Landweg","postalCode":"24568","locality":"Kaltenkirchen","municipality":{"key":"01060044","name":"Kaltenkirchen, Stadt","type":"Stadt"},"district":{"key":"01060","name":"Segeberg","type":"Kreis"},"federalState":{"key":"01","name":"Schleswig-Holstein"}},{"name":"Alvesloher Str.","postalCode":"24568","locality":"Kaltenkirchen","municipality":{"key":"01060044","name":"Kaltenkirchen, Stadt","type":"Stadt"},"district":{"key":"01060","name":"Segeberg","type":"Kreis"},"federalState":{"key":"01","name":"Schleswig-Holstein"}},{"name":"Am Bahnhof","postalCode":"24568","locality":"Kaltenkirchen","municipality":{"key":"01060044","name":"Kaltenkirchen, Stadt","type":"Stadt"},"district":{"key":"01060","name":"Segeberg","type":"Kreis"},"federalState":{"key":"01","name":"Schleswig-Holstein"}},{"name":"Am Dorn","postalCode":"57610","locality":"Altenkirchen (Westerwald)","municipality":{"key":"07132501","name":"Altenkirchen (Westerwald), Stadt","type":"Stadt"},"district":{"key":"07132","name":"Altenkirchen (Westerwald)","type":"Landkreis"},"federalState":{"key":"07","name":"Rheinland-Pfalz"}},{"name":"Am Ehrenhain","postalCode":"24568","locality":"Kaltenkirchen","municipality":{"key":"01060044","name":"Kaltenkirchen, Stadt","type":"Stadt"},"district":{"key":"01060","name":"Segeberg","type":"Kreis"},"federalState":{"key":"01","name":"Schleswig-Holstein"}},{"name":"Am Flottmoorpark","postalCode":"24568","locality":"Kaltenkirchen","municipality":{"key":"01060044","name":"Kaltenkirchen, Stadt","type":"Stadt"},"district":{"key":"01060","name":"Segeberg","type":"Kreis"},"federalState":{"key":"01","name":"Schleswig-Holstein"}},{"name":"Am Hofsrech","postalCode":"66903","locality":"Altenkirchen","municipality":{"key":"07336004","name":"Altenkirchen","type":"Kreisangehörige_Gemeinde"},"district":{"key":"07336","name":"Kusel","type":"Landkreis"},"federalState":{"key":"07","name":"Rheinland-Pfalz"}},{"name":"Am Hohenmoor","postalCode":"24568","locality":"Kaltenkirchen","municipality":{"key":"01060044","name":"Kaltenkirchen, Stadt","type":"Stadt"},"district":{"key":"01060","name":"Segeberg","type":"Kreis"},"federalState":{"key":"01","name":"Schleswig-Holstein"}},{"name":"Am Krankenhaus","postalCode":"24568","locality":"Kaltenkirchen","municipality":{"key":"01060044","name":"Kaltenkirchen, Stadt","type":"Stadt"},"district":{"key":"01060","name":"Segeberg","type":"Kreis"},"federalState":{"key":"01","name":"Schleswig-Holstein"}},{"name":"Am Kretelmoor","postalCode":"24568","locality":"Kaltenkirchen","municipality":{"key":"01060044","name":"Kaltenkirchen, Stadt","type":"Stadt"},"district":{"key":"01060","name":"Segeberg","type":"Kreis"},"federalState":{"key":"01","name":"Schleswig-Holstein"}},{"name":"Am Markt","postalCode":"24568","locality":"Kaltenkirchen","municipality":{"key":"01060044","name":"Kaltenkirchen, Stadt","type":"Stadt"},"district":{"key":"01060","name":"Segeberg","type":"Kreis"},"federalState":{"key":"01","name":"Schleswig-Holstein"}},{"name":"Am Mondsee","postalCode":"24568","locality":"Kaltenkirchen","municipality":{"key":"01060044","name":"Kaltenkirchen, Stadt","type":"Stadt"},"district":{"key":"01060","name":"Segeberg","type":"Kreis"},"federalState":{"key":"01","name":"Schleswig-Holstein"}},{"name":"Am Rapsfeld","postalCode":"24568","locality":"Kaltenkirchen","municipality":{"key":"01060044","name":"Kaltenkirchen, Stadt","type":"Stadt"},"district":{"key":"01060","name":"Segeberg","type":"Kreis"},"federalState":{"key":"01","name":"Schleswig-Holstein"}},{"name":"Am Rathausgarten","postalCode":"24568","locality":"Kaltenkirchen","municipality":{"key":"01060044","name":"Kaltenkirchen, Stadt","type":"Stadt"},"district":{"key":"01060","name":"Segeberg","type":"Kreis"},"federalState":{"key":"01","name":"Schleswig-Holstein"}},{"name":"Am Redder","postalCode":"24568","locality":"Kaltenkirchen","municipality":{"key":"01060044","name":"Kaltenkirchen, Stadt","type":"Stadt"},"district":{"key":"01060","name":"Segeberg","type":"Kreis"},"federalState":{"key":"01","name":"Schleswig-Holstein"}},{"name":"Am Schaafredder","postalCode":"24568","locality":"Kaltenkirchen","municipality":{"key":"01060044","name":"Kaltenkirchen, Stadt","type":"Stadt"},"district":{"key":"01060","name":"Segeberg","type":"Kreis"},"federalState":{"key":"01","name":"Schleswig-Holstein"}},{"name":"Am Teich","postalCode":"18556","locality":"Altenkirchen","municipality":{"key":"13073004","name":"Altenkirchen","type":"Kreisangehörige_Gemeinde"},"district":{"key":"13073","name":"Vorpommern-Rügen","type":"Landkreis"},"federalState":{"key":"13","name":"Mecklenburg-Vorpommern"}},{"name":"Am Voßberg","postalCode":"24568","locality":"Kaltenkirchen","municipality":{"key":"01060044","name":"Kaltenkirchen, Stadt","type":"Stadt"},"district":{"key":"01060","name":"Segeberg","type":"Kreis"},"federalState":{"key":"01","name":"Schleswig-Holstein"}},{"name":"Am Wald","postalCode":"18556","locality":"Altenkirchen","municipality":{"key":"13073004","name":"Altenkirchen","type":"Kreisangehörige_Gemeinde"},"district":{"key":"13073","name":"Vorpommern-Rügen","type":"Landkreis"},"federalState":{"key":"13","name":"Mecklenburg-Vorpommern"}},{"name":"Am Wasserwerk","postalCode":"24568","locality":"Kaltenkirchen","municipality":{"key":"01060044","name":"Kaltenkirchen, Stadt","type":"Stadt"},"district":{"key":"01060","name":"Segeberg","type":"Kreis"},"federalState":{"key":"01","name":"Schleswig-Holstein"}},{"name":"Am Weiher","postalCode":"24568","locality":"Kaltenkirchen","municipality":{"key":"01060044","name":"Kaltenkirchen, Stadt","type":"Stadt"},"district":{"key":"01060","name":"Segeberg","type":"Kreis"},"federalState":{"key":"01","name":"Schleswig-Holstein"}},{"name":"An der Kirche","postalCode":"18556","locality":"Altenkirchen","municipality":{"key":"13073004","name":"Altenkirchen","type":"Kreisangehörige_Gemeinde"},"district":{"key":"13073","name":"Vorpommern-Rügen","type":"Landkreis"},"federalState":{"key":"13","name":"Mecklenburg-Vorpommern"}},{"name":"An der Krückau","postalCode":"24568","locality":"Kaltenkirchen","municipality":{"key":"01060044","name":"Kaltenkirchen, Stadt","type":"Stadt"},"district":{"key":"01060","name":"Segeberg","type":"Kreis"},"federalState":{"key":"01","name":"Schleswig-Holstein"}},{"name":"An der Moorkoppel","postalCode":"24568","locality":"Kaltenkirchen","municipality":{"key":"01060044","name":"Kaltenkirchen, Stadt","type":"Stadt"},"district":{"key":"01060","name":"Segeberg","type":"Kreis"},"federalState":{"key":"01","name":"Schleswig-Holstein"}},{"name":"An der Ziegelhütte","postalCode":"57610","locality":"Altenkirchen (Westerwald)","municipality":{"key":"07132501","name":"Altenkirchen (Westerwald), Stadt","type":"Stadt"},"district":{"key":"07132","name":"Altenkirchen (Westerwald)","type":"Landkreis"},"federalState":{"key":"07","name":"Rheinland-Pfalz"}},{"name":"Anemonenweg","postalCode":"24568","locality":"Kaltenkirchen","municipality":{"key":"01060044","name":"Kaltenkirchen, Stadt","type":"Stadt"},"district":{"key":"01060","name":"Segeberg","type":"Kreis"},"federalState":{"key":"01","name":"Schleswig-Holstein"}},{"name":"Anne-Frank-Weg","postalCode":"24568","locality":"Kaltenkirchen","municipality":{"key":"01060044","name":"Kaltenkirchen, Stadt","type":"Stadt"},"district":{"key":"01060","name":"Segeberg","type":"Kreis"},"federalState":{"key":"01","name":"Schleswig-Holstein"}},{"name":"Annette-von-Droste-Hülshoff-Str.","postalCode":"24568","locality":"Kaltenkirchen","municipality":{"key":"01060044","name":"Kaltenkirchen, Stadt","type":"Stadt"},"district":{"key":"01060","name":"Segeberg","type":"Kreis"},"federalState":{"key":"01","name":"Schleswig-Holstein"}},{"name":"Auf dem Eichelchen","postalCode":"57610","locality":"Altenkirchen (Westerwald)","municipality":{"key":"07132501","name":"Altenkirchen (Westerwald), Stadt","type":"Stadt"},"district":{"key":"07132","name":"Altenkirchen (Westerwald)","type":"Landkreis"},"federalState":{"key":"07","name":"Rheinland-Pfalz"}},{"name":"Auf dem Kamp","postalCode":"24568","locality":"Kaltenkirchen","municipality":{"key":"01060044","name":"Kaltenkirchen, Stadt","type":"Stadt"},"district":{"key":"01060","name":"Segeberg","type":"Kreis"},"federalState":{"key":"01","name":"Schleswig-Holstein"}},{"name":"Auf dem Rähmchen","postalCode":"57610","locality":"Altenkirchen (Westerwald)","municipality":{"key":"07132501","name":"Altenkirchen (Westerwald), Stadt","type":"Stadt"},"district":{"key":"07132","name":"Altenkirchen (Westerwald)","type":"Landkreis"},"federalState":{"key":"07","name":"Rheinland-Pfalz"}},{"name":"Auf dem Steinchen","postalCode":"57610","locality":"Altenkirchen (Westerwald)","municipality":{"key":"07132501","name":"Altenkirchen (Westerwald), Stadt","type":"Stadt"},"district":{"key":"07132","name":"Altenkirchen (Westerwald)","type":"Landkreis"},"federalState":{"key":"07","name":"Rheinland-Pfalz"}},{"name":"Auf der Mauer","postalCode":"66903","locality":"Altenkirchen","municipality":{"key":"07336004","name":"Altenkirchen","type":"Kreisangehörige_Gemeinde"},"district":{"key":"07336","name":"Kusel","type":"Landkreis"},"federalState":{"key":"07","name":"Rheinland-Pfalz"}},{"name":"Auf Walgen","postalCode":"66903","locality":"Altenkirchen","municipality":{"key":"07336004","name":"Altenkirchen","type":"Kreisangehörige_Gemeinde"},"district":{"key":"07336","name":"Kusel","type":"Landkreis"},"federalState":{"key":"07","name":"Rheinland-Pfalz"}},{"name":"August-Horch-Str.","postalCode":"57610","locality":"Altenkirchen (Westerwald)","municipality":{"key":"07132501","name":"Altenkirchen (Westerwald), Stadt","type":"Stadt"},"district":{"key":"07132","name":"Altenkirchen (Westerwald)","type":"Landkreis"},"federalState":{"key":"07","name":"Rheinland-Pfalz"}},{"name":"B 256","postalCode":"57610","locality":"Altenkirchen (Westerwald)","municipality":{"key":"07132501","name":"Altenkirchen (Westerwald), Stadt","type":"Stadt"},"district":{"key":"07132","name":"Altenkirchen (Westerwald)","type":"Landkreis"},"federalState":{"key":"07","name":"Rheinland-Pfalz"}},{"name":"Bachstr.","postalCode":"24568","locality":"Kaltenkirchen","municipality":{"key":"01060044","name":"Kaltenkirchen, Stadt","type":"Stadt"},"district":{"key":"01060","name":"Segeberg","type":"Kreis"},"federalState":{"key":"01","name":"Schleswig-Holstein"}},{"name":"Bachstr.","postalCode":"57610","locality":"Altenkirchen (Westerwald)","municipality":{"key":"07132501","name":"Altenkirchen (Westerwald), Stadt","type":"Stadt"},"district":{"key":"07132","name":"Altenkirchen (Westerwald)","type":"Landkreis"},"federalState":{"key":"07","name":"Rheinland-Pfalz"}},{"name":"Bahnhofstr.","postalCode":"24568","locality":"Kaltenkirchen","municipality":{"key":"01060044","name":"Kaltenkirchen, Stadt","type":"Stadt"},"district":{"key":"01060","name":"Segeberg","type":"Kreis"},"federalState":{"key":"01","name":"Schleswig-Holstein"}},{"name":"Bahnhofstr.","postalCode":"57610","locality":"Altenkirchen (Westerwald)","municipality":{"key":"07132501","name":"Altenkirchen (Westerwald), Stadt","type":"Stadt"},"district":{"key":"07132","name":"Altenkirchen (Westerwald)","type":"Landkreis"},"federalState":{"key":"07","name":"Rheinland-Pfalz"}},{"name":"Barmstedter Str.","postalCode":"24568","locality":"Kaltenkirchen","municipality":{"key":"01060044","name":"Kaltenkirchen, Stadt","type":"Stadt"},"district":{"key":"01060","name":"Segeberg","type":"Kreis"},"federalState":{"key":"01","name":"Schleswig-Holstein"}},{"name":"Beethovenstr.","postalCode":"24568","locality":"Kaltenkirchen","municipality":{"key":"01060044","name":"Kaltenkirchen, Stadt","type":"Stadt"},"district":{"key":"01060","name":"Segeberg","type":"Kreis"},"federalState":{"key":"01","name":"Schleswig-Holstein"}},{"name":"Bergstr.","postalCode":"57610","locality":"Altenkirchen (Westerwald)","municipality":{"key":"07132501","name":"Altenkirchen (Westerwald), Stadt","type":"Stadt"},"district":{"key":"07132","name":"Altenkirchen (Westerwald)","type":"Landkreis"},"federalState":{"key":"07","name":"Rheinland-Pfalz"}},{"name":"Bergstr.","postalCode":"66903","locality":"Altenkirchen","municipality":{"key":"07336004","name":"Altenkirchen","type":"Kreisangehörige_Gemeinde"},"district":{"key":"07336","name":"Kusel","type":"Landkreis"},"federalState":{"key":"07","name":"Rheinland-Pfalz"}},{"name":"Berliner Ring","postalCode":"24568","locality":"Kaltenkirchen","municipality":{"key":"01060044","name":"Kaltenkirchen, Stadt","type":"Stadt"},"district":{"key":"01060","name":"Segeberg","type":"Kreis"},"federalState":{"key":"01","name":"Schleswig-Holstein"}},{"name":"Bertha-von-Suttner-Weg","postalCode":"24568","locality":"Kaltenkirchen","municipality":{"key":"01060044","name":"Kaltenkirchen, Stadt","type":"Stadt"},"district":{"key":"01060","name":"Segeberg","type":"Kreis"},"federalState":{"key":"01","name":"Schleswig-Holstein"}},{"name":"Bettina-von-Arnim-Str.","postalCode":"24568","locality":"Kaltenkirchen","municipality":{"key":"01060044","name":"Kaltenkirchen, Stadt","type":"Stadt"},"district":{"key":"01060","name":"Segeberg","type":"Kreis"},"federalState":{"key":"01","name":"Schleswig-Holstein"}},{"name":"Birkenweg","postalCode":"24568","locality":"Kaltenkirchen","municipality":{"key":"01060044","name":"Kaltenkirchen, Stadt","type":"Stadt"},"district":{"key":"01060","name":"Segeberg","type":"Kreis"},"federalState":{"key":"01","name":"Schleswig-Holstein"}},{"name":"Birkenweg","postalCode":"57610","locality":"Altenkirchen (Westerwald)","municipality":{"key":"07132501","name":"Altenkirchen (Westerwald), Stadt","type":"Stadt"},"district":{"key":"07132","name":"Altenkirchen (Westerwald)","type":"Landkreis"},"federalState":{"key":"07","name":"Rheinland-Pfalz"}},{"name":"Birkhuhnweg","postalCode":"24568","locality":"Kaltenkirchen","municipality":{"key":"01060044","name":"Kaltenkirchen, Stadt","type":"Stadt"},"district":{"key":"01060","name":"Segeberg","type":"Kreis"},"federalState":{"key":"01","name":"Schleswig-Holstein"}},{"name":"Bleichweg","postalCode":"57610","locality":"Altenkirchen (Westerwald)","municipality":{"key":"07132501","name":"Altenkirchen (Westerwald), Stadt","type":"Stadt"},"district":{"key":"07132","name":"Altenkirchen (Westerwald)","type":"Landkreis"},"federalState":{"key":"07","name":"Rheinland-Pfalz"}},{"name":"Bollingerstr.","postalCode":"66903","locality":"Altenkirchen","municipality":{"key":"07336004","name":"Altenkirchen","type":"Kreisangehörige_Gemeinde"},"district":{"key":"07336","name":"Kusel","type":"Landkreis"},"federalState":{"key":"07","name":"Rheinland-Pfalz"}},{"name":"Borsigstr.","postalCode":"24568","locality":"Kaltenkirchen","municipality":{"key":"01060044","name":"Kaltenkirchen, Stadt","type":"Stadt"},"district":{"key":"01060","name":"Segeberg","type":"Kreis"},"federalState":{"key":"01","name":"Schleswig-Holstein"}},{"name":"Brauerstr.","postalCode":"24568","locality":"Kaltenkirchen","municipality":{"key":"01060044","name":"Kaltenkirchen, Stadt","type":"Stadt"},"district":{"key":"01060","name":"Segeberg","type":"Kreis"},"federalState":{"key":"01","name":"Schleswig-Holstein"}},{"name":"Breitenbacher Str.","postalCode":"66903","locality":"Altenkirchen","municipality":{"key":"07336004","name":"Altenkirchen","type":"Kreisangehörige_Gemeinde"},"district":{"key":"07336","name":"Kusel","type":"Landkreis"},"federalState":{"key":"07","name":"Rheinland-Pfalz"}},{"name":"Brookring","postalCode":"24568","locality":"Kaltenkirchen","municipality":{"key":"01060044","name":"Kaltenkirchen, Stadt","type":"Stadt"},"district":{"key":"01060","name":"Segeberg","type":"Kreis"},"federalState":{"key":"01","name":"Schleswig-Holstein"}},{"name":"Brookweg","postalCode":"24568","locality":"Kaltenkirchen","municipality":{"key":"01060044","name":"Kaltenkirchen, Stadt","type":"Stadt"},"district":{"key":"01060","name":"Segeberg","type":"Kreis"},"federalState":{"key":"01","name":"Schleswig-Holstein"}},{"name":"Buchenweg","postalCode":"24568","locality":"Kaltenkirchen","municipality":{"key":"01060044","name":"Kaltenkirchen, Stadt","type":"Stadt"},"district":{"key":"01060","name":"Segeberg","type":"Kreis"},"federalState":{"key":"01","name":"Schleswig-Holstein"}},{"name":"Buchenweg","postalCode":"57610","locality":"Altenkirchen (Westerwald)","municipality":{"key":"07132501","name":"Altenkirchen (Westerwald), Stadt","type":"Stadt"},"district":{"key":"07132","name":"Altenkirchen (Westerwald)","type":"Landkreis"},"federalState":{"key":"07","name":"Rheinland-Pfalz"}},{"name":"Büchnerstr.","postalCode":"57610","locality":"Altenkirchen (Westerwald)","municipality":{"key":"07132501","name":"Altenkirchen (Westerwald), Stadt","type":"Stadt"},"district":{"key":"07132","name":"Altenkirchen (Westerwald)","type":"Landkreis"},"federalState":{"key":"07","name":"Rheinland-Pfalz"}},{"name":"Bürgermeister-Fehrs-Str.","postalCode":"24568","locality":"Kaltenkirchen","municipality":{"key":"01060044","name":"Kaltenkirchen, Stadt","type":"Stadt"},"district":{"key":"01060","name":"Segeberg","type":"Kreis"},"federalState":{"key":"01","name":"Schleswig-Holstein"}},{"name":"Bürgermeister-Klöckner-Weg","postalCode":"57610","locality":"Altenkirchen (Westerwald)","municipality":{"key":"07132501","name":"Altenkirchen (Westerwald), Stadt","type":"Stadt"},"district":{"key":"07132","name":"Altenkirchen (Westerwald)","type":"Landkreis"},"federalState":{"key":"07","name":"Rheinland-Pfalz"}},{"name":"Bürgermeister-Ströh-Platz","postalCode":"24568","locality":"Kaltenkirchen","municipality":{"key":"01060044","name":"Kaltenkirchen, Stadt","type":"Stadt"},"district":{"key":"01060","name":"Segeberg","type":"Kreis"},"federalState":{"key":"01","name":"Schleswig-Holstein"}},{"name":"Bürgermeister-Zobel-Ring","postalCode":"24568","locality":"Kaltenkirchen","municipality":{"key":"01060044","name":"Kaltenkirchen, Stadt","type":"Stadt"},"district":{"key":"01060","name":"Segeberg","type":"Kreis"},"federalState":{"key":"01","name":"Schleswig-Holstein"}},{"name":"Carl-Benz-Str.","postalCode":"24568","locality":"Kaltenkirchen","municipality":{"key":"01060044","name":"Kaltenkirchen, Stadt","type":"Stadt"},"district":{"key":"01060","name":"Segeberg","type":"Kreis"},"federalState":{"key":"01","name":"Schleswig-Holstein"}},{"name":"Christian-Rohlfs-Weg","postalCode":"24568","locality":"Kaltenkirchen","municipality":{"key":"01060044","name":"Kaltenkirchen, Stadt","type":"Stadt"},"district":{"key":"01060","name":"Segeberg","type":"Kreis"},"federalState":{"key":"01","name":"Schleswig-Holstein"}},{"name":"Clara-Schumann-Weg","postalCode":"24568","locality":"Kaltenkirchen","municipality":{"key":"01060044","name":"Kaltenkirchen, Stadt","type":"Stadt"},"district":{"key":"01060","name":"Segeberg","type":"Kreis"},"federalState":{"key":"01","name":"Schleswig-Holstein"}},{"name":"Dammweg","postalCode":"57610","locality":"Altenkirchen (Westerwald)","municipality":{"key":"07132501","name":"Altenkirchen (Westerwald), Stadt","type":"Stadt"},"district":{"key":"07132","name":"Altenkirchen (Westerwald)","type":"Landkreis"},"federalState":{"key":"07","name":"Rheinland-Pfalz"}},{"name":"Dieperzbergweg","postalCode":"57610","locality":"Altenkirchen (Westerwald)","municipality":{"key":"07132501","name":"Altenkirchen (Westerwald), Stadt","type":"Stadt"},"district":{"key":"07132","name":"Altenkirchen (Westerwald)","type":"Landkreis"},"federalState":{"key":"07","name":"Rheinland-Pfalz"}},{"name":"Dorfstr.","postalCode":"18556","locality":"Altenkirchen","municipality":{"key":"13073004","name":"Altenkirchen","type":"Kreisangehörige_Gemeinde"},"district":{"key":"13073","name":"Vorpommern-Rügen","type":"Landkreis"},"federalState":{"key":"13","name":"Mecklenburg-Vorpommern"}},{"name":"Dorfstr.","postalCode":"57610","locality":"Altenkirchen (Westerwald)","municipality":{"key":"07132501","name":"Altenkirchen (Westerwald), Stadt","type":"Stadt"},"district":{"key":"07132","name":"Altenkirchen (Westerwald)","type":"Landkreis"},"federalState":{"key":"07","name":"Rheinland-Pfalz"}},{"name":"Dramburger Str.","postalCode":"24568","locality":"Kaltenkirchen","municipality":{"key":"01060044","name":"Kaltenkirchen, Stadt","type":"Stadt"},"district":{"key":"01060","name":"Segeberg","type":"Kreis"},"federalState":{"key":"01","name":"Schleswig-Holstein"}},{"name":"Driescheider Weg","postalCode":"57610","locality":"Altenkirchen (Westerwald)","municipality":{"key":"07132501","name":"Altenkirchen (Westerwald), Stadt","type":"Stadt"},"district":{"key":"07132","name":"Altenkirchen (Westerwald)","type":"Landkreis"},"federalState":{"key":"07","name":"Rheinland-Pfalz"}},{"name":"Dr.-Osten-Str.","postalCode":"18556","locality":"Altenkirchen","municipality":{"key":"13073004","name":"Altenkirchen","type":"Kreisangehörige_Gemeinde"},"district":{"key":"13073","name":"Vorpommern-Rügen","type":"Landkreis"},"federalState":{"key":"13","name":"Mecklenburg-Vorpommern"}},{"name":"Ehrenhain","postalCode":"24568","locality":"Kaltenkirchen","municipality":{"key":"01060044","name":"Kaltenkirchen, Stadt","type":"Stadt"},"district":{"key":"01060","name":"Segeberg","type":"Kreis"},"federalState":{"key":"01","name":"Schleswig-Holstein"}},{"name":"Eichendorffstr.","postalCode":"57610","locality":"Altenkirchen (Westerwald)","municipality":{"key":"07132501","name":"Altenkirchen (Westerwald), Stadt","type":"Stadt"},"district":{"key":"07132","name":"Altenkirchen (Westerwald)","type":"Landkreis"},"federalState":{"key":"07","name":"Rheinland-Pfalz"}},{"name":"Eichenweg","postalCode":"24568","locality":"Kaltenkirchen","municipality":{"key":"01060044","name":"Kaltenkirchen, Stadt","type":"Stadt"},"district":{"key":"01060","name":"Segeberg","type":"Kreis"},"federalState":{"key":"01","name":"Schleswig-Holstein"}},{"name":"Elbinger Weg","postalCode":"24568","locality":"Kaltenkirchen","municipality":{"key":"01060044","name":"Kaltenkirchen, Stadt","type":"Stadt"},"district":{"key":"01060","name":"Segeberg","type":"Kreis"},"federalState":{"key":"01","name":"Schleswig-Holstein"}},{"name":"Elisabeth-Selbert-Str.","postalCode":"24568","locality":"Kaltenkirchen","municipality":{"key":"01060044","name":"Kaltenkirchen, Stadt","type":"Stadt"},"district":{"key":"01060","name":"Segeberg","type":"Kreis"},"federalState":{"key":"01","name":"Schleswig-Holstein"}},{"name":"Elsa-Brändström-Str.","postalCode":"24568","locality":"Kaltenkirchen","municipality":{"key":"01060044","name":"Kaltenkirchen, Stadt","type":"Stadt"},"district":{"key":"01060","name":"Segeberg","type":"Kreis"},"federalState":{"key":"01","name":"Schleswig-Holstein"}},{"name":"Else-Stapel-Str.","postalCode":"24568","locality":"Kaltenkirchen","municipality":{"key":"01060044","name":"Kaltenkirchen, Stadt","type":"Stadt"},"district":{"key":"01060","name":"Segeberg","type":"Kreis"},"federalState":{"key":"01","name":"Schleswig-Holstein"}},{"name":"Emanuel-Geibel-Weg","postalCode":"24568","locality":"Kaltenkirchen","municipality":{"key":"01060044","name":"Kaltenkirchen, Stadt","type":"Stadt"},"district":{"key":"01060","name":"Segeberg","type":"Kreis"},"federalState":{"key":"01","name":"Schleswig-Holstein"}},{"name":"Emil-Nolde-Weg","postalCode":"24568","locality":"Kaltenkirchen","municipality":{"key":"01060044","name":"Kaltenkirchen, Stadt","type":"Stadt"},"district":{"key":"01060","name":"Segeberg","type":"Kreis"},"federalState":{"key":"01","name":"Schleswig-Holstein"}},{"name":"Erikaweg","postalCode":"24568","locality":"Kaltenkirchen","municipality":{"key":"01060044","name":"Kaltenkirchen, Stadt","type":"Stadt"},"district":{"key":"01060","name":"Segeberg","type":"Kreis"},"federalState":{"key":"01","name":"Schleswig-Holstein"}},{"name":"Erlenweg","postalCode":"24568","locality":"Kaltenkirchen","municipality":{"key":"01060044","name":"Kaltenkirchen, Stadt","type":"Stadt"},"district":{"key":"01060","name":"Segeberg","type":"Kreis"},"federalState":{"key":"01","name":"Schleswig-Holstein"}},{"name":"Erlenweg","postalCode":"57610","locality":"Altenkirchen (Westerwald)","municipality":{"key":"07132501","name":"Altenkirchen (Westerwald), Stadt","type":"Stadt"},"district":{"key":"07132","name":"Altenkirchen (Westerwald)","type":"Landkreis"},"federalState":{"key":"07","name":"Rheinland-Pfalz"}},{"name":"Ernst-Thälmann-Str.","postalCode":"18556","locality":"Altenkirchen","municipality":{"key":"13073004","name":"Altenkirchen","type":"Kreisangehörige_Gemeinde"},"district":{"key":"13073","name":"Vorpommern-Rügen","type":"Landkreis"},"federalState":{"key":"13","name":"Mecklenburg-Vorpommern"}},{"name":"Eschenweg","postalCode":"24568","locality":"Kaltenkirchen","municipality":{"key":"01060044","name":"Kaltenkirchen, Stadt","type":"Stadt"},"district":{"key":"01060","name":"Segeberg","type":"Kreis"},"federalState":{"key":"01","name":"Schleswig-Holstein"}},{"name":"Falkenburger Stieg","postalCode":"24568","locality":"Kaltenkirchen","municipality":{"key":"01060044","name":"Kaltenkirchen, Stadt","type":"Stadt"},"district":{"key":"01060","name":"Segeberg","type":"Kreis"},"federalState":{"key":"01","name":"Schleswig-Holstein"}},{"name":"Falkenburger Str.","postalCode":"24568","locality":"Kaltenkirchen","municipality":{"key":"01060044","name":"Kaltenkirchen, Stadt","type":"Stadt"},"district":{"key":"01060","name":"Segeberg","type":"Kreis"},"federalState":{"key":"01","name":"Schleswig-Holstein"}},{"name":"Fasanenkamp","postalCode":"24568","locality":"Kaltenkirchen","municipality":{"key":"01060044","name":"Kaltenkirchen, Stadt","type":"Stadt"},"district":{"key":"01060","name":"Segeberg","type":"Kreis"},"federalState":{"key":"01","name":"Schleswig-Holstein"}},{"name":"Feldstr.","postalCode":"24568","locality":"Kaltenkirchen","municipality":{"key":"01060044","name":"Kaltenkirchen, Stadt","type":"Stadt"},"district":{"key":"01060","name":"Segeberg","type":"Kreis"},"federalState":{"key":"01","name":"Schleswig-Holstein"}},{"name":"Feldstr.","postalCode":"57610","locality":"Altenkirchen (Westerwald)","municipality":{"key":"07132501","name":"Altenkirchen (Westerwald), Stadt","type":"Stadt"},"district":{"key":"07132","name":"Altenkirchen (Westerwald)","type":"Landkreis"},"federalState":{"key":"07","name":"Rheinland-Pfalz"}},{"name":"Feldstr.","postalCode":"66903","locality":"Altenkirchen","municipality":{"key":"07336004","name":"Altenkirchen","type":"Kreisangehörige_Gemeinde"},"district":{"key":"07336","name":"Kusel","type":"Landkreis"},"federalState":{"key":"07","name":"Rheinland-Pfalz"}},{"name":"Feld- und Wiesenweg","postalCode":"57610","locality":"Altenkirchen (Westerwald)","municipality":{"key":"07132501","name":"Altenkirchen (Westerwald), Stadt","type":"Stadt"},"district":{"key":"07132","name":"Altenkirchen (Westerwald)","type":"Landkreis"},"federalState":{"key":"07","name":"Rheinland-Pfalz"}},{"name":"Finkenstieg","postalCode":"24568","locality":"Kaltenkirchen","municipality":{"key":"01060044","name":"Kaltenkirchen, Stadt","type":"Stadt"},"district":{"key":"01060","name":"Segeberg","type":"Kreis"},"federalState":{"key":"01","name":"Schleswig-Holstein"}},{"name":"Finkenweg","postalCode":"57610","locality":"Altenkirchen (Westerwald)","municipality":{"key":"07132501","name":"Altenkirchen (Westerwald), Stadt","type":"Stadt"},"district":{"key":"07132","name":"Altenkirchen (Westerwald)","type":"Landkreis"},"federalState":{"key":"07","name":"Rheinland-Pfalz"}},{"name":"Flottkamp","postalCode":"24568","locality":"Kaltenkirchen","municipality":{"key":"01060044","name":"Kaltenkirchen, Stadt","type":"Stadt"},"district":{"key":"01060","name":"Segeberg","type":"Kreis"},"federalState":{"key":"01","name":"Schleswig-Holstein"}},{"name":"Flottmoorpark","postalCode":"24568","locality":"Kaltenkirchen","municipality":{"key":"01060044","name":"Kaltenkirchen, Stadt","type":"Stadt"},"district":{"key":"01060","name":"Segeberg","type":"Kreis"},"federalState":{"key":"01","name":"Schleswig-Holstein"}},{"name":"Flottmoorring","postalCode":"24568","locality":"Kaltenkirchen","municipality":{"key":"01060044","name":"Kaltenkirchen, Stadt","type":"Stadt"},"district":{"key":"01060","name":"Segeberg","type":"Kreis"},"federalState":{"key":"01","name":"Schleswig-Holstein"}},{"name":"Flurstr.","postalCode":"66903","locality":"Altenkirchen","municipality":{"key":"07336004","name":"Altenkirchen","type":"Kreisangehörige_Gemeinde"},"district":{"key":"07336","name":"Kusel","type":"Landkreis"},"federalState":{"key":"07","name":"Rheinland-Pfalz"}},{"name":"Fontanestr.","postalCode":"57610","locality":"Altenkirchen (Westerwald)","municipality":{"key":"07132501","name":"Altenkirchen (Westerwald), Stadt","type":"Stadt"},"district":{"key":"07132","name":"Altenkirchen (Westerwald)","type":"Landkreis"},"federalState":{"key":"07","name":"Rheinland-Pfalz"}},{"name":"Frankfurter Str.","postalCode":"57610","locality":"Altenkirchen (Westerwald)","municipality":{"key":"07132501","name":"Altenkirchen (Westerwald), Stadt","type":"Stadt"},"district":{"key":"07132","name":"Altenkirchen (Westerwald)","type":"Landkreis"},"federalState":{"key":"07","name":"Rheinland-Pfalz"}},{"name":"Friedenstr.","postalCode":"24568","locality":"Kaltenkirchen","municipality":{"key":"01060044","name":"Kaltenkirchen, Stadt","type":"Stadt"},"district":{"key":"01060","name":"Segeberg","type":"Kreis"},"federalState":{"key":"01","name":"Schleswig-Holstein"}},{"name":"Friedhofstr.","postalCode":"66903","locality":"Altenkirchen","municipality":{"key":"07336004","name":"Altenkirchen","type":"Kreisangehörige_Gemeinde"},"district":{"key":"07336","name":"Kusel","type":"Landkreis"},"federalState":{"key":"07","name":"Rheinland-Pfalz"}},{"name":"Friedrich-Emmerich-Str.","postalCode":"57610","locality":"Altenkirchen (Westerwald)","municipality":{"key":"07132501","name":"Altenkirchen (Westerwald), Stadt","type":"Stadt"},"district":{"key":"07132","name":"Altenkirchen (Westerwald)","type":"Landkreis"},"federalState":{"key":"07","name":"Rheinland-Pfalz"}},{"name":"Friesenstr.","postalCode":"57610","locality":"Altenkirchen (Westerwald)","municipality":{"key":"07132501","name":"Altenkirchen (Westerwald), Stadt","type":"Stadt"},"district":{"key":"07132","name":"Altenkirchen (Westerwald)","type":"Landkreis"},"federalState":{"key":"07","name":"Rheinland-Pfalz"}},{"name":"Fritz-Reuter-Weg","postalCode":"24568","locality":"Kaltenkirchen","municipality":{"key":"01060044","name":"Kaltenkirchen, Stadt","type":"Stadt"},"district":{"key":"01060","name":"Segeberg","type":"Kreis"},"federalState":{"key":"01","name":"Schleswig-Holstein"}},{"name":"Fröbelweg","postalCode":"24568","locality":"Kaltenkirchen","municipality":{"key":"01060044","name":"Kaltenkirchen, Stadt","type":"Stadt"},"district":{"key":"01060","name":"Segeberg","type":"Kreis"},"federalState":{"key":"01","name":"Schleswig-Holstein"}},{"name":"Funkenberg","postalCode":"24568","locality":"Kaltenkirchen","municipality":{"key":"01060044","name":"Kaltenkirchen, Stadt","type":"Stadt"},"district":{"key":"01060","name":"Segeberg","type":"Kreis"},"federalState":{"key":"01","name":"Schleswig-Holstein"}},{"name":"Gänseblümchenweg","postalCode":"24568","locality":"Kaltenkirchen","municipality":{"key":"01060044","name":"Kaltenkirchen, Stadt","type":"Stadt"},"district":{"key":"01060","name":"Segeberg","type":"Kreis"},"federalState":{"key":"01","name":"Schleswig-Holstein"}},{"name":"Gartenstr.","postalCode":"57610","locality":"Altenkirchen (Westerwald)","municipality":{"key":"07132501","name":"Altenkirchen (Westerwald), Stadt","type":"Stadt"},"district":{"key":"07132","name":"Altenkirchen (Westerwald)","type":"Landkreis"},"federalState":{"key":"07","name":"Rheinland-Pfalz"}},{"name":"Gebrüder-Grimm-Str.","postalCode":"57610","locality":"Altenkirchen (Westerwald)","municipality":{"key":"07132501","name":"Altenkirchen (Westerwald), Stadt","type":"Stadt"},"district":{"key":"07132","name":"Altenkirchen (Westerwald)","type":"Landkreis"},"federalState":{"key":"07","name":"Rheinland-Pfalz"}},{"name":"Gerhart-Hauptmann-Str.","postalCode":"57610","locality":"Altenkirchen (Westerwald)","municipality":{"key":"07132501","name":"Altenkirchen (Westerwald), Stadt","type":"Stadt"},"district":{"key":"07132","name":"Altenkirchen (Westerwald)","type":"Landkreis"},"federalState":{"key":"07","name":"Rheinland-Pfalz"}},{"name":"Germannstr.","postalCode":"66903","locality":"Altenkirchen","municipality":{"key":"07336004","name":"Altenkirchen","type":"Kreisangehörige_Gemeinde"},"district":{"key":"07336","name":"Kusel","type":"Landkreis"},"federalState":{"key":"07","name":"Rheinland-Pfalz"}},{"name":"Ginsterweg","postalCode":"24568","locality":"Kaltenkirchen","municipality":{"key":"01060044","name":"Kaltenkirchen, Stadt","type":"Stadt"},"district":{"key":"01060","name":"Segeberg","type":"Kreis"},"federalState":{"key":"01","name":"Schleswig-Holstein"}},{"name":"Glockenblumenweg","postalCode":"24568","locality":"Kaltenkirchen","municipality":{"key":"01060044","name":"Kaltenkirchen, Stadt","type":"Stadt"},"district":{"key":"01060","name":"Segeberg","type":"Kreis"},"federalState":{"key":"01","name":"Schleswig-Holstein"}},{"name":"Glockengießerwall","postalCode":"24568","locality":"Kaltenkirchen","municipality":{"key":"01060044","name":"Kaltenkirchen, Stadt","type":"Stadt"},"district":{"key":"01060","name":"Segeberg","type":"Kreis"},"federalState":{"key":"01","name":"Schleswig-Holstein"}},{"name":"Glücksburger Str.","postalCode":"24568","locality":"Kaltenkirchen","municipality":{"key":"01060044","name":"Kaltenkirchen, Stadt","type":"Stadt"},"district":{"key":"01060","name":"Segeberg","type":"Kreis"},"federalState":{"key":"01","name":"Schleswig-Holstein"}},{"name":"Goethestr.","postalCode":"57610","locality":"Altenkirchen (Westerwald)","municipality":{"key":"07132501","name":"Altenkirchen (Westerwald), Stadt","type":"Stadt"},"district":{"key":"07132","name":"Altenkirchen (Westerwald)","type":"Landkreis"},"federalState":{"key":"07","name":"Rheinland-Pfalz"}},{"name":"Gorch-Fock-Weg","postalCode":"24568","locality":"Kaltenkirchen","municipality":{"key":"01060044","name":"Kaltenkirchen, Stadt","type":"Stadt"},"district":{"key":"01060","name":"Segeberg","type":"Kreis"},"federalState":{"key":"01","name":"Schleswig-Holstein"}},{"name":"Gothaer Str.","postalCode":"24568","locality":"Kaltenkirchen","municipality":{"key":"01060044","name":"Kaltenkirchen, Stadt","type":"Stadt"},"district":{"key":"01060","name":"Segeberg","type":"Kreis"},"federalState":{"key":"01","name":"Schleswig-Holstein"}},{"name":"Gottlieb-Daimler-Str.","postalCode":"24568","locality":"Kaltenkirchen","municipality":{"key":"01060044","name":"Kaltenkirchen, Stadt","type":"Stadt"},"district":{"key":"01060","name":"Segeberg","type":"Kreis"},"federalState":{"key":"01","name":"Schleswig-Holstein"}},{"name":"Grashofstr.","postalCode":"24568","locality":"Kaltenkirchen","municipality":{"key":"01060044","name":"Kaltenkirchen, Stadt","type":"Stadt"},"district":{"key":"01060","name":"Segeberg","type":"Kreis"},"federalState":{"key":"01","name":"Schleswig-Holstein"}},{"name":"Grenzweg","postalCode":"24568","locality":"Kaltenkirchen","municipality":{"key":"01060044","name":"Kaltenkirchen, Stadt","type":"Stadt"},"district":{"key":"01060","name":"Segeberg","type":"Kreis"},"federalState":{"key":"01","name":"Schleswig-Holstein"}},{"name":"Grundweg","postalCode":"24568","locality":"Kaltenkirchen","municipality":{"key":"01060044","name":"Kaltenkirchen, Stadt","type":"Stadt"},"district":{"key":"01060","name":"Segeberg","type":"Kreis"},"federalState":{"key":"01","name":"Schleswig-Holstein"}},{"name":"Gudderitz","postalCode":"18556","locality":"Altenkirchen","municipality":{"key":"13073004","name":"Altenkirchen","type":"Kreisangehörige_Gemeinde"},"district":{"key":"13073","name":"Vorpommern-Rügen","type":"Landkreis"},"federalState":{"key":"13","name":"Mecklenburg-Vorpommern"}},{"name":"Gustav-Meyer-Weg","postalCode":"24568","locality":"Kaltenkirchen","municipality":{"key":"01060044","name":"Kaltenkirchen, Stadt","type":"Stadt"},"district":{"key":"01060","name":"Segeberg","type":"Kreis"},"federalState":{"key":"01","name":"Schleswig-Holstein"}},{"name":"Hamburger Str.","postalCode":"24568","locality":"Kaltenkirchen","municipality":{"key":"01060044","name":"Kaltenkirchen, Stadt","type":"Stadt"},"district":{"key":"01060","name":"Segeberg","type":"Kreis"},"federalState":{"key":"01","name":"Schleswig-Holstein"}},{"name":"Heideweg","postalCode":"24568","locality":"Kaltenkirchen","municipality":{"key":"01060044","name":"Kaltenkirchen, Stadt","type":"Stadt"},"district":{"key":"01060","name":"Segeberg","type":"Kreis"},"federalState":{"key":"01","name":"Schleswig-Holstein"}},{"name":"Heidland","postalCode":"24568","locality":"Kaltenkirchen","municipality":{"key":"01060044","name":"Kaltenkirchen, Stadt","type":"Stadt"},"district":{"key":"01060","name":"Segeberg","type":"Kreis"},"federalState":{"key":"01","name":"Schleswig-Holstein"}},{"name":"Heimstr.","postalCode":"57610","locality":"Altenkirchen (Westerwald)","municipality":{"key":"07132501","name":"Altenkirchen (Westerwald), Stadt","type":"Stadt"},"district":{"key":"07132","name":"Altenkirchen (Westerwald)","type":"Landkreis"},"federalState":{"key":"07","name":"Rheinland-Pfalz"}},{"name":"Heinestr.","postalCode":"57610","locality":"Altenkirchen (Westerwald)","municipality":{"key":"07132501","name":"Altenkirchen (Westerwald), Stadt","type":"Stadt"},"district":{"key":"07132","name":"Altenkirchen (Westerwald)","type":"Landkreis"},"federalState":{"key":"07","name":"Rheinland-Pfalz"}},{"name":"Heinrich-Heine-Weg","postalCode":"24568","locality":"Kaltenkirchen","municipality":{"key":"01060044","name":"Kaltenkirchen, Stadt","type":"Stadt"},"district":{"key":"01060","name":"Segeberg","type":"Kreis"},"federalState":{"key":"01","name":"Schleswig-Holstein"}},{"name":"Helmenzer Str.","postalCode":"57610","locality":"Altenkirchen (Westerwald)","municipality":{"key":"07132501","name":"Altenkirchen (Westerwald), Stadt","type":"Stadt"},"district":{"key":"07132","name":"Altenkirchen (Westerwald)","type":"Landkreis"},"federalState":{"key":"07","name":"Rheinland-Pfalz"}},{"name":"Hermann-Löns-Str.","postalCode":"57610","locality":"Altenkirchen (Westerwald)","municipality":{"key":"07132501","name":"Altenkirchen (Westerwald), Stadt","type":"Stadt"},"district":{"key":"07132","name":"Altenkirchen (Westerwald)","type":"Landkreis"},"federalState":{"key":"07","name":"Rheinland-Pfalz"}},{"name":"Hermann-Löns-Weg","postalCode":"24568","locality":"Kaltenkirchen","municipality":{"key":"01060044","name":"Kaltenkirchen, Stadt","type":"Stadt"},"district":{"key":"01060","name":"Segeberg","type":"Kreis"},"federalState":{"key":"01","name":"Schleswig-Holstein"}},{"name":"Hertha-Petersen-Str.","postalCode":"24568","locality":"Kaltenkirchen","municipality":{"key":"01060044","name":"Kaltenkirchen, Stadt","type":"Stadt"},"district":{"key":"01060","name":"Segeberg","type":"Kreis"},"federalState":{"key":"01","name":"Schleswig-Holstein"}},{"name":"Heuweg","postalCode":"57610","locality":"Altenkirchen (Westerwald)","municipality":{"key":"07132501","name":"Altenkirchen (Westerwald), Stadt","type":"Stadt"},"district":{"key":"07132","name":"Altenkirchen (Westerwald)","type":"Landkreis"},"federalState":{"key":"07","name":"Rheinland-Pfalz"}},{"name":"Hinter der Düne","postalCode":"18556","locality":"Altenkirchen","municipality":{"key":"13073004","name":"Altenkirchen","type":"Kreisangehörige_Gemeinde"},"district":{"key":"13073","name":"Vorpommern-Rügen","type":"Landkreis"},"federalState":{"key":"13","name":"Mecklenburg-Vorpommern"}},{"name":"Hochstr.","postalCode":"57610","locality":"Altenkirchen (Westerwald)","municipality":{"key":"07132501","name":"Altenkirchen (Westerwald), Stadt","type":"Stadt"},"district":{"key":"07132","name":"Altenkirchen (Westerwald)","type":"Landkreis"},"federalState":{"key":"07","name":"Rheinland-Pfalz"}},{"name":"Höfchen","postalCode":"66903","locality":"Altenkirchen","municipality":{"key":"07336004","name":"Altenkirchen","type":"Kreisangehörige_Gemeinde"},"district":{"key":"07336","name":"Kusel","type":"Landkreis"},"federalState":{"key":"07","name":"Rheinland-Pfalz"}},{"name":"Hoffnungsthal","postalCode":"57610","locality":"Altenkirchen (Westerwald)","municipality":{"key":"07132501","name":"Altenkirchen (Westerwald), Stadt","type":"Stadt"},"district":{"key":"07132","name":"Altenkirchen (Westerwald)","type":"Landkreis"},"federalState":{"key":"07","name":"Rheinland-Pfalz"}},{"name":"Hofstr.","postalCode":"57610","locality":"Altenkirchen (Westerwald)","municipality":{"key":"07132501","name":"Altenkirchen (Westerwald), Stadt","type":"Stadt"},"district":{"key":"07132","name":"Altenkirchen (Westerwald)","type":"Landkreis"},"federalState":{"key":"07","name":"Rheinland-Pfalz"}},{"name":"Hofweg","postalCode":"24568","locality":"Kaltenkirchen","municipality":{"key":"01060044","name":"Kaltenkirchen, Stadt","type":"Stadt"},"district":{"key":"01060","name":"Segeberg","type":"Kreis"},"federalState":{"key":"01","name":"Schleswig-Holstein"}},{"name":"Hohenmoor","postalCode":"24568","locality":"Kaltenkirchen","municipality":{"key":"01060044","name":"Kaltenkirchen, Stadt","type":"Stadt"},"district":{"key":"01060","name":"Segeberg","type":"Kreis"},"federalState":{"key":"01","name":"Schleswig-Holstein"}},{"name":"Hohenmoorweg","postalCode":"24568","locality":"Kaltenkirchen","municipality":{"key":"01060044","name":"Kaltenkirchen, Stadt","type":"Stadt"},"district":{"key":"01060","name":"Segeberg","type":"Kreis"},"federalState":{"key":"01","name":"Schleswig-Holstein"}},{"name":"Hohlstr.","postalCode":"66903","locality":"Altenkirchen","municipality":{"key":"07336004","name":"Altenkirchen","type":"Kreisangehörige_Gemeinde"},"district":{"key":"07336","name":"Kusel","type":"Landkreis"},"federalState":{"key":"07","name":"Rheinland-Pfalz"}},{"name":"Holsteiner Stieg","postalCode":"24568","locality":"Kaltenkirchen","municipality":{"key":"01060044","name":"Kaltenkirchen, Stadt","type":"Stadt"},"district":{"key":"01060","name":"Segeberg","type":"Kreis"},"federalState":{"key":"01","name":"Schleswig-Holstein"}},{"name":"Holstenstr.","postalCode":"24568","locality":"Kaltenkirchen","municipality":{"key":"01060044","name":"Kaltenkirchen, Stadt","type":"Stadt"},"district":{"key":"01060","name":"Segeberg","type":"Kreis"},"federalState":{"key":"01","name":"Schleswig-Holstein"}},{"name":"Hühnerhecke","postalCode":"66903","locality":"Altenkirchen","municipality":{"key":"07336004","name":"Altenkirchen","type":"Kreisangehörige_Gemeinde"},"district":{"key":"07336","name":"Kusel","type":"Landkreis"},"federalState":{"key":"07","name":"Rheinland-Pfalz"}},{"name":"Hüttmannstr.","postalCode":"24568","locality":"Kaltenkirchen","municipality":{"key":"01060044","name":"Kaltenkirchen, Stadt","type":"Stadt"},"district":{"key":"01060","name":"Segeberg","type":"Kreis"},"federalState":{"key":"01","name":"Schleswig-Holstein"}},{"name":"Im Abendfrieden","postalCode":"24568","locality":"Kaltenkirchen","municipality":{"key":"01060044","name":"Kaltenkirchen, Stadt","type":"Stadt"},"district":{"key":"01060","name":"Segeberg","type":"Kreis"},"federalState":{"key":"01","name":"Schleswig-Holstein"}},{"name":"Im Brook","postalCode":"24568","locality":"Kaltenkirchen","municipality":{"key":"01060044","name":"Kaltenkirchen, Stadt","type":"Stadt"},"district":{"key":"01060","name":"Segeberg","type":"Kreis"},"federalState":{"key":"01","name":"Schleswig-Holstein"}},{"name":"Im Hähnchen","postalCode":"57610","locality":"Altenkirchen (Westerwald)","municipality":{"key":"07132501","name":"Altenkirchen (Westerwald), Stadt","type":"Stadt"},"district":{"key":"07132","name":"Altenkirchen (Westerwald)","type":"Landkreis"},"federalState":{"key":"07","name":"Rheinland-Pfalz"}},{"name":"Im Kortenthal","postalCode":"57610","locality":"Altenkirchen (Westerwald)","municipality":{"key":"07132501","name":"Altenkirchen (Westerwald), Stadt","type":"Stadt"},"district":{"key":"07132","name":"Altenkirchen (Westerwald)","type":"Landkreis"},"federalState":{"key":"07","name":"Rheinland-Pfalz"}},{"name":"Im Mühlberg","postalCode":"57610","locality":"Altenkirchen (Westerwald)","municipality":{"key":"07132501","name":"Altenkirchen (Westerwald), Stadt","type":"Stadt"},"district":{"key":"07132","name":"Altenkirchen (Westerwald)","type":"Landkreis"},"federalState":{"key":"07","name":"Rheinland-Pfalz"}},{"name":"Im Sonnenwinkel","postalCode":"24568","locality":"Kaltenkirchen","municipality":{"key":"01060044","name":"Kaltenkirchen, Stadt","type":"Stadt"},"district":{"key":"01060","name":"Segeberg","type":"Kreis"},"federalState":{"key":"01","name":"Schleswig-Holstein"}},{"name":"Im Spitzgarten","postalCode":"66903","locality":"Altenkirchen","municipality":{"key":"07336004","name":"Altenkirchen","type":"Kreisangehörige_Gemeinde"},"district":{"key":"07336","name":"Kusel","type":"Landkreis"},"federalState":{"key":"07","name":"Rheinland-Pfalz"}},{"name":"Im Staßweiler","postalCode":"66903","locality":"Altenkirchen","municipality":{"key":"07336004","name":"Altenkirchen","type":"Kreisangehörige_Gemeinde"},"district":{"key":"07336","name":"Kusel","type":"Landkreis"},"federalState":{"key":"07","name":"Rheinland-Pfalz"}},{"name":"Im Vogelsang","postalCode":"57610","locality":"Altenkirchen (Westerwald)","municipality":{"key":"07132501","name":"Altenkirchen (Westerwald), Stadt","type":"Stadt"},"district":{"key":"07132","name":"Altenkirchen (Westerwald)","type":"Landkreis"},"federalState":{"key":"07","name":"Rheinland-Pfalz"}},{"name":"Im Wolfsacker","postalCode":"57610","locality":"Altenkirchen (Westerwald)","municipality":{"key":"07132501","name":"Altenkirchen (Westerwald), Stadt","type":"Stadt"},"district":{"key":"07132","name":"Altenkirchen (Westerwald)","type":"Landkreis"},"federalState":{"key":"07","name":"Rheinland-Pfalz"}},{"name":"In den Gärten","postalCode":"57610","locality":"Altenkirchen (Westerwald)","municipality":{"key":"07132501","name":"Altenkirchen (Westerwald), Stadt","type":"Stadt"},"district":{"key":"07132","name":"Altenkirchen (Westerwald)","type":"Landkreis"},"federalState":{"key":"07","name":"Rheinland-Pfalz"}},{"name":"In der Bellersbach","postalCode":"57610","locality":"Altenkirchen (Westerwald)","municipality":{"key":"07132501","name":"Altenkirchen (Westerwald), Stadt","type":"Stadt"},"district":{"key":"07132","name":"Altenkirchen (Westerwald)","type":"Landkreis"},"federalState":{"key":"07","name":"Rheinland-Pfalz"}},{"name":"In der Malzdürre","postalCode":"57610","locality":"Altenkirchen (Westerwald)","municipality":{"key":"07132501","name":"Altenkirchen (Westerwald), Stadt","type":"Stadt"},"district":{"key":"07132","name":"Altenkirchen (Westerwald)","type":"Landkreis"},"federalState":{"key":"07","name":"Rheinland-Pfalz"}},{"name":"Johannisburger Str.","postalCode":"24568","locality":"Kaltenkirchen","municipality":{"key":"01060044","name":"Kaltenkirchen, Stadt","type":"Stadt"},"district":{"key":"01060","name":"Segeberg","type":"Kreis"},"federalState":{"key":"01","name":"Schleswig-Holstein"}},{"name":"Julius-Harder-Weg","postalCode":"18556","locality":"Altenkirchen","municipality":{"key":"13073004","name":"Altenkirchen","type":"Kreisangehörige_Gemeinde"},"district":{"key":"13073","name":"Vorpommern-Rügen","type":"Landkreis"},"federalState":{"key":"13","name":"Mecklenburg-Vorpommern"}},{"name":"Jungfernstieg","postalCode":"24568","locality":"Kaltenkirchen","municipality":{"key":"01060044","name":"Kaltenkirchen, Stadt","type":"Stadt"},"district":{"key":"01060","name":"Segeberg","type":"Kreis"},"federalState":{"key":"01","name":"Schleswig-Holstein"}},{"name":"Kallieser Stieg","postalCode":"24568","locality":"Kaltenkirchen","municipality":{"key":"01060044","name":"Kaltenkirchen, Stadt","type":"Stadt"},"district":{"key":"01060","name":"Segeberg","type":"Kreis"},"federalState":{"key":"01","name":"Schleswig-Holstein"}},{"name":"Kallieser Str.","postalCode":"24568","locality":"Kaltenkirchen","municipality":{"key":"01060044","name":"Kaltenkirchen, Stadt","type":"Stadt"},"district":{"key":"01060","name":"Segeberg","type":"Kreis"},"federalState":{"key":"01","name":"Schleswig-Holstein"}},{"name":"Kamper Weg","postalCode":"24568","locality":"Kaltenkirchen","municipality":{"key":"01060044","name":"Kaltenkirchen, Stadt","type":"Stadt"},"district":{"key":"01060","name":"Segeberg","type":"Kreis"},"federalState":{"key":"01","name":"Schleswig-Holstein"}},{"name":"Karl-Marx-Platz","postalCode":"18556","locality":"Altenkirchen","municipality":{"key":"13073004","name":"Altenkirchen","type":"Kreisangehörige_Gemeinde"},"district":{"key":"13073","name":"Vorpommern-Rügen","type":"Landkreis"},"federalState":{"key":"13","name":"Mecklenburg-Vorpommern"}},{"name":"Karlstr.","postalCode":"57610","locality":"Altenkirchen (Westerwald)","municipality":{"key":"07132501","name":"Altenkirchen (Westerwald), Stadt","type":"Stadt"},"district":{"key":"07132","name":"Altenkirchen (Westerwald)","type":"Landkreis"},"federalState":{"key":"07","name":"Rheinland-Pfalz"}},{"name":"Kastanienring","postalCode":"24568","locality":"Kaltenkirchen","municipality":{"key":"01060044","name":"Kaltenkirchen, Stadt","type":"Stadt"},"district":{"key":"01060","name":"Segeberg","type":"Kreis"},"federalState":{"key":"01","name":"Schleswig-Holstein"}},{"name":"Kastanienweg","postalCode":"57610","locality":"Altenkirchen (Westerwald)","municipality":{"key":"07132501","name":"Altenkirchen (Westerwald), Stadt","type":"Stadt"},"district":{"key":"07132","name":"Altenkirchen (Westerwald)","type":"Landkreis"},"federalState":{"key":"07","name":"Rheinland-Pfalz"}},{"name":"Kästnerstr.","postalCode":"57610","locality":"Altenkirchen (Westerwald)","municipality":{"key":"07132501","name":"Altenkirchen (Westerwald), Stadt","type":"Stadt"},"district":{"key":"07132","name":"Altenkirchen (Westerwald)","type":"Landkreis"},"federalState":{"key":"07","name":"Rheinland-Pfalz"}},{"name":"Käthe-Kollwitz-Weg","postalCode":"24568","locality":"Kaltenkirchen","municipality":{"key":"01060044","name":"Kaltenkirchen, Stadt","type":"Stadt"},"district":{"key":"01060","name":"Segeberg","type":"Kreis"},"federalState":{"key":"01","name":"Schleswig-Holstein"}},{"name":"Kiebitzweg","postalCode":"24568","locality":"Kaltenkirchen","municipality":{"key":"01060044","name":"Kaltenkirchen, Stadt","type":"Stadt"},"district":{"key":"01060","name":"Segeberg","type":"Kreis"},"federalState":{"key":"01","name":"Schleswig-Holstein"}},{"name":"Kiefernweg","postalCode":"24568","locality":"Kaltenkirchen","municipality":{"key":"01060044","name":"Kaltenkirchen, Stadt","type":"Stadt"},"district":{"key":"01060","name":"Segeberg","type":"Kreis"},"federalState":{"key":"01","name":"Schleswig-Holstein"}},{"name":"Kiefernweg","postalCode":"57610","locality":"Altenkirchen (Westerwald)","municipality":{"key":"07132501","name":"Altenkirchen (Westerwald), Stadt","type":"Stadt"},"district":{"key":"07132","name":"Altenkirchen (Westerwald)","type":"Landkreis"},"federalState":{"key":"07","name":"Rheinland-Pfalz"}},{"name":"Kieler Str.","postalCode":"24568","locality":"Kaltenkirchen","municipality":{"key":"01060044","name":"Kaltenkirchen, Stadt","type":"Stadt"},"district":{"key":"01060","name":"Segeberg","type":"Kreis"},"federalState":{"key":"01","name":"Schleswig-Holstein"}},{"name":"Kirchensteig","postalCode":"24568","locality":"Kaltenkirchen","municipality":{"key":"01060044","name":"Kaltenkirchen, Stadt","type":"Stadt"},"district":{"key":"01060","name":"Segeberg","type":"Kreis"},"federalState":{"key":"01","name":"Schleswig-Holstein"}},{"name":"Kirchenstr.","postalCode":"24568","locality":"Kaltenkirchen","municipality":{"key":"01060044","name":"Kaltenkirchen, Stadt","type":"Stadt"},"district":{"key":"01060","name":"Segeberg","type":"Kreis"},"federalState":{"key":"01","name":"Schleswig-Holstein"}},{"name":"Kirchstr.","postalCode":"57610","locality":"Altenkirchen (Westerwald)","municipality":{"key":"07132501","name":"Altenkirchen (Westerwald), Stadt","type":"Stadt"},"district":{"key":"07132","name":"Altenkirchen (Westerwald)","type":"Landkreis"},"federalState":{"key":"07","name":"Rheinland-Pfalz"}},{"name":"Kisdorfer Weg","postalCode":"24568","locality":"Kaltenkirchen","municipality":{"key":"01060044","name":"Kaltenkirchen, Stadt","type":"Stadt"},"district":{"key":"01060","name":"Segeberg","type":"Kreis"},"federalState":{"key":"01","name":"Schleswig-Holstein"}},{"name":"Klaus-Groth-Weg","postalCode":"24568","locality":"Kaltenkirchen","municipality":{"key":"01060044","name":"Kaltenkirchen, Stadt","type":"Stadt"},"district":{"key":"01060","name":"Segeberg","type":"Kreis"},"federalState":{"key":"01","name":"Schleswig-Holstein"}},{"name":"Kleine Str.","postalCode":"18556","locality":"Altenkirchen","municipality":{"key":"13073004","name":"Altenkirchen","type":"Kreisangehörige_Gemeinde"},"district":{"key":"13073","name":"Vorpommern-Rügen","type":"Landkreis"},"federalState":{"key":"13","name":"Mecklenburg-Vorpommern"}},{"name":"Klingelstr.","postalCode":"57610","locality":"Altenkirchen (Westerwald)","municipality":{"key":"07132501","name":"Altenkirchen (Westerwald), Stadt","type":"Stadt"},"district":{"key":"07132","name":"Altenkirchen (Westerwald)","type":"Landkreis"},"federalState":{"key":"07","name":"Rheinland-Pfalz"}},{"name":"Koblenzer Str.","postalCode":"57610","locality":"Altenkirchen (Westerwald)","municipality":{"key":"07132501","name":"Altenkirchen (Westerwald), Stadt","type":"Stadt"},"district":{"key":"07132","name":"Altenkirchen (Westerwald)","type":"Landkreis"},"federalState":{"key":"07","name":"Rheinland-Pfalz"}},{"name":"Kölner Str.","postalCode":"57610","locality":"Altenkirchen (Westerwald)","municipality":{"key":"07132501","name":"Altenkirchen (Westerwald), Stadt","type":"Stadt"},"district":{"key":"07132","name":"Altenkirchen (Westerwald)","type":"Landkreis"},"federalState":{"key":"07","name":"Rheinland-Pfalz"}},{"name":"Königstr.","postalCode":"24568","locality":"Kaltenkirchen","municipality":{"key":"01060044","name":"Kaltenkirchen, Stadt","type":"Stadt"},"district":{"key":"01060","name":"Segeberg","type":"Kreis"},"federalState":{"key":"01","name":"Schleswig-Holstein"}},{"name":"Konrad-Adenauer-Platz","postalCode":"57610","locality":"Altenkirchen (Westerwald)","municipality":{"key":"07132501","name":"Altenkirchen (Westerwald), Stadt","type":"Stadt"},"district":{"key":"07132","name":"Altenkirchen (Westerwald)","type":"Landkreis"},"federalState":{"key":"07","name":"Rheinland-Pfalz"}},{"name":"Krauser Baum","postalCode":"24568","locality":"Kaltenkirchen","municipality":{"key":"01060044","name":"Kaltenkirchen, Stadt","type":"Stadt"},"district":{"key":"01060","name":"Segeberg","type":"Kreis"},"federalState":{"key":"01","name":"Schleswig-Holstein"}},{"name":"Krückauring","postalCode":"24568","locality":"Kaltenkirchen","municipality":{"key":"01060044","name":"Kaltenkirchen, Stadt","type":"Stadt"},"district":{"key":"01060","name":"Segeberg","type":"Kreis"},"federalState":{"key":"01","name":"Schleswig-Holstein"}},{"name":"Kumpstr.","postalCode":"57610","locality":"Altenkirchen (Westerwald)","municipality":{"key":"07132501","name":"Altenkirchen (Westerwald), Stadt","type":"Stadt"},"district":{"key":"07132","name":"Altenkirchen (Westerwald)","type":"Landkreis"},"federalState":{"key":"07","name":"Rheinland-Pfalz"}},{"name":"Lakweg","postalCode":"24568","locality":"Kaltenkirchen","municipality":{"key":"01060044","name":"Kaltenkirchen, Stadt","type":"Stadt"},"district":{"key":"01060","name":"Segeberg","type":"Kreis"},"federalState":{"key":"01","name":"Schleswig-Holstein"}},{"name":"Lanckensburg","postalCode":"18556","locality":"Altenkirchen","municipality":{"key":"13073004","name":"Altenkirchen","type":"Kreisangehörige_Gemeinde"},"district":{"key":"13073","name":"Vorpommern-Rügen","type":"Landkreis"},"federalState":{"key":"13","name":"Mecklenburg-Vorpommern"}},{"name":"Lanckensburg-Ausbau","postalCode":"18556","locality":"Altenkirchen","municipality":{"key":"13073004","name":"Altenkirchen","type":"Kreisangehörige_Gemeinde"},"district":{"key":"13073","name":"Vorpommern-Rügen","type":"Landkreis"},"federalState":{"key":"13","name":"Mecklenburg-Vorpommern"}},{"name":"Landesjagdverband Schießstand","postalCode":"57610","locality":"Altenkirchen (Westerwald)","municipality":{"key":"07132501","name":"Altenkirchen (Westerwald), Stadt","type":"Stadt"},"district":{"key":"07132","name":"Altenkirchen (Westerwald)","type":"Landkreis"},"federalState":{"key":"07","name":"Rheinland-Pfalz"}},{"name":"Langenkamp","postalCode":"24568","locality":"Kaltenkirchen","municipality":{"key":"01060044","name":"Kaltenkirchen, Stadt","type":"Stadt"},"district":{"key":"01060","name":"Segeberg","type":"Kreis"},"federalState":{"key":"01","name":"Schleswig-Holstein"}},{"name":"Langstück","postalCode":"24568","locality":"Kaltenkirchen","municipality":{"key":"01060044","name":"Kaltenkirchen, Stadt","type":"Stadt"},"district":{"key":"01060","name":"Segeberg","type":"Kreis"},"federalState":{"key":"01","name":"Schleswig-Holstein"}},{"name":"Langwisch","postalCode":"24568","locality":"Kaltenkirchen","municipality":{"key":"01060044","name":"Kaltenkirchen, Stadt","type":"Stadt"},"district":{"key":"01060","name":"Segeberg","type":"Kreis"},"federalState":{"key":"01","name":"Schleswig-Holstein"}},{"name":"Lärchenweg","postalCode":"57610","locality":"Altenkirchen (Westerwald)","municipality":{"key":"07132501","name":"Altenkirchen (Westerwald), Stadt","type":"Stadt"},"district":{"key":"07132","name":"Altenkirchen (Westerwald)","type":"Landkreis"},"federalState":{"key":"07","name":"Rheinland-Pfalz"}},{"name":"Lauenburger Stieg","postalCode":"24568","locality":"Kaltenkirchen","municipality":{"key":"01060044","name":"Kaltenkirchen, Stadt","type":"Stadt"},"district":{"key":"01060","name":"Segeberg","type":"Kreis"},"federalState":{"key":"01","name":"Schleswig-Holstein"}},{"name":"Leibnizstr.","postalCode":"24568","locality":"Kaltenkirchen","municipality":{"key":"01060044","name":"Kaltenkirchen, Stadt","type":"Stadt"},"district":{"key":"01060","name":"Segeberg","type":"Kreis"},"federalState":{"key":"01","name":"Schleswig-Holstein"}},{"name":"Lessingstr.","postalCode":"57610","locality":"Altenkirchen (Westerwald)","municipality":{"key":"07132501","name":"Altenkirchen (Westerwald), Stadt","type":"Stadt"},"district":{"key":"07132","name":"Altenkirchen (Westerwald)","type":"Landkreis"},"federalState":{"key":"07","name":"Rheinland-Pfalz"}},{"name":"Leuzbacher Weg","postalCode":"57610","locality":"Altenkirchen (Westerwald)","municipality":{"key":"07132501","name":"Altenkirchen (Westerwald), Stadt","type":"Stadt"},"district":{"key":"07132","name":"Altenkirchen (Westerwald)","type":"Landkreis"},"federalState":{"key":"07","name":"Rheinland-Pfalz"}},{"name":"Libellenweg","postalCode":"24568","locality":"Kaltenkirchen","municipality":{"key":"01060044","name":"Kaltenkirchen, Stadt","type":"Stadt"},"district":{"key":"01060","name":"Segeberg","type":"Kreis"},"federalState":{"key":"01","name":"Schleswig-Holstein"}},{"name":"Lindenweg","postalCode":"24568","locality":"Kaltenkirchen","municipality":{"key":"01060044","name":"Kaltenkirchen, Stadt","type":"Stadt"},"district":{"key":"01060","name":"Segeberg","type":"Kreis"},"federalState":{"key":"01","name":"Schleswig-Holstein"}},{"name":"Lindenweg","postalCode":"57610","locality":"Altenkirchen (Westerwald)","municipality":{"key":"07132501","name":"Altenkirchen (Westerwald), Stadt","type":"Stadt"},"district":{"key":"07132","name":"Altenkirchen (Westerwald)","type":"Landkreis"},"federalState":{"key":"07","name":"Rheinland-Pfalz"}},{"name":"Lindrehm","postalCode":"24568","locality":"Kaltenkirchen","municipality":{"key":"01060044","name":"Kaltenkirchen, Stadt","type":"Stadt"},"district":{"key":"01060","name":"Segeberg","type":"Kreis"},"federalState":{"key":"01","name":"Schleswig-Holstein"}},{"name":"Lise-Meitner-Str.","postalCode":"57610","locality":"Altenkirchen (Westerwald)","municipality":{"key":"07132501","name":"Altenkirchen (Westerwald), Stadt","type":"Stadt"},"district":{"key":"07132","name":"Altenkirchen (Westerwald)","type":"Landkreis"},"federalState":{"key":"07","name":"Rheinland-Pfalz"}},{"name":"Lise-Meitner-Weg","postalCode":"24568","locality":"Kaltenkirchen","municipality":{"key":"01060044","name":"Kaltenkirchen, Stadt","type":"Stadt"},"district":{"key":"01060","name":"Segeberg","type":"Kreis"},"federalState":{"key":"01","name":"Schleswig-Holstein"}},{"name":"Lohmühlenweg","postalCode":"57610","locality":"Altenkirchen (Westerwald)","municipality":{"key":"07132501","name":"Altenkirchen (Westerwald), Stadt","type":"Stadt"},"district":{"key":"07132","name":"Altenkirchen (Westerwald)","type":"Landkreis"},"federalState":{"key":"07","name":"Rheinland-Pfalz"}},{"name":"Lortzingstr.","postalCode":"24568","locality":"Kaltenkirchen","municipality":{"key":"01060044","name":"Kaltenkirchen, Stadt","type":"Stadt"},"district":{"key":"01060","name":"Segeberg","type":"Kreis"},"federalState":{"key":"01","name":"Schleswig-Holstein"}},{"name":"Lovis-Corinth-Weg","postalCode":"24568","locality":"Kaltenkirchen","municipality":{"key":"01060044","name":"Kaltenkirchen, Stadt","type":"Stadt"},"district":{"key":"01060","name":"Segeberg","type":"Kreis"},"federalState":{"key":"01","name":"Schleswig-Holstein"}},{"name":"Löwenzahnweg","postalCode":"24568","locality":"Kaltenkirchen","municipality":{"key":"01060044","name":"Kaltenkirchen, Stadt","type":"Stadt"},"district":{"key":"01060","name":"Segeberg","type":"Kreis"},"federalState":{"key":"01","name":"Schleswig-Holstein"}},{"name":"Lucas-Cranach-Weg","postalCode":"24568","locality":"Kaltenkirchen","municipality":{"key":"01060044","name":"Kaltenkirchen, Stadt","type":"Stadt"},"district":{"key":"01060","name":"Segeberg","type":"Kreis"},"federalState":{"key":"01","name":"Schleswig-Holstein"}},{"name":"Ludwig-Jahn-Str.","postalCode":"57610","locality":"Altenkirchen (Westerwald)","municipality":{"key":"07132501","name":"Altenkirchen (Westerwald), Stadt","type":"Stadt"},"district":{"key":"07132","name":"Altenkirchen (Westerwald)","type":"Landkreis"},"federalState":{"key":"07","name":"Rheinland-Pfalz"}},{"name":"Ludwigstr.","postalCode":"66903","locality":"Altenkirchen","municipality":{"key":"07336004","name":"Altenkirchen","type":"Kreisangehörige_Gemeinde"},"district":{"key":"07336","name":"Kusel","type":"Landkreis"},"federalState":{"key":"07","name":"Rheinland-Pfalz"}},{"name":"Magreta-Brandt-Str.","postalCode":"24568","locality":"Kaltenkirchen","municipality":{"key":"01060044","name":"Kaltenkirchen, Stadt","type":"Stadt"},"district":{"key":"01060","name":"Segeberg","type":"Kreis"},"federalState":{"key":"01","name":"Schleswig-Holstein"}},{"name":"Malvenweg","postalCode":"24568","locality":"Kaltenkirchen","municipality":{"key":"01060044","name":"Kaltenkirchen, Stadt","type":"Stadt"},"district":{"key":"01060","name":"Segeberg","type":"Kreis"},"federalState":{"key":"01","name":"Schleswig-Holstein"}},{"name":"Margeritenweg","postalCode":"24568","locality":"Kaltenkirchen","municipality":{"key":"01060044","name":"Kaltenkirchen, Stadt","type":"Stadt"},"district":{"key":"01060","name":"Segeberg","type":"Kreis"},"federalState":{"key":"01","name":"Schleswig-Holstein"}},{"name":"Marie-Curie-Str.","postalCode":"24568","locality":"Kaltenkirchen","municipality":{"key":"01060044","name":"Kaltenkirchen, Stadt","type":"Stadt"},"district":{"key":"01060","name":"Segeberg","type":"Kreis"},"federalState":{"key":"01","name":"Schleswig-Holstein"}},{"name":"Marktplatz","postalCode":"24568","locality":"Kaltenkirchen","municipality":{"key":"01060044","name":"Kaltenkirchen, Stadt","type":"Stadt"},"district":{"key":"01060","name":"Segeberg","type":"Kreis"},"federalState":{"key":"01","name":"Schleswig-Holstein"}},{"name":"Marktstr.","postalCode":"18556","locality":"Altenkirchen","municipality":{"key":"13073004","name":"Altenkirchen","type":"Kreisangehörige_Gemeinde"},"district":{"key":"13073","name":"Vorpommern-Rügen","type":"Landkreis"},"federalState":{"key":"13","name":"Mecklenburg-Vorpommern"}},{"name":"Marktstr.","postalCode":"57610","locality":"Altenkirchen (Westerwald)","municipality":{"key":"07132501","name":"Altenkirchen (Westerwald), Stadt","type":"Stadt"},"district":{"key":"07132","name":"Altenkirchen (Westerwald)","type":"Landkreis"},"federalState":{"key":"07","name":"Rheinland-Pfalz"}},{"name":"Marschweg","postalCode":"24568","locality":"Kaltenkirchen","municipality":{"key":"01060044","name":"Kaltenkirchen, Stadt","type":"Stadt"},"district":{"key":"01060","name":"Segeberg","type":"Kreis"},"federalState":{"key":"01","name":"Schleswig-Holstein"}},{"name":"Mattchow","postalCode":"18556","locality":"Altenkirchen","municipality":{"key":"13073004","name":"Altenkirchen","type":"Kreisangehörige_Gemeinde"},"district":{"key":"13073","name":"Vorpommern-Rügen","type":"Landkreis"},"federalState":{"key":"13","name":"Mecklenburg-Vorpommern"}},{"name":"Max-Reimann-Str.","postalCode":"18556","locality":"Altenkirchen","municipality":{"key":"13073004","name":"Altenkirchen","type":"Kreisangehörige_Gemeinde"},"district":{"key":"13073","name":"Vorpommern-Rügen","type":"Landkreis"},"federalState":{"key":"13","name":"Mecklenburg-Vorpommern"}},{"name":"Maybachstr.","postalCode":"24568","locality":"Kaltenkirchen","municipality":{"key":"01060044","name":"Kaltenkirchen, Stadt","type":"Stadt"},"district":{"key":"01060","name":"Segeberg","type":"Kreis"},"federalState":{"key":"01","name":"Schleswig-Holstein"}},{"name":"Memeler Stieg","postalCode":"24568","locality":"Kaltenkirchen","municipality":{"key":"01060044","name":"Kaltenkirchen, Stadt","type":"Stadt"},"district":{"key":"01060","name":"Segeberg","type":"Kreis"},"federalState":{"key":"01","name":"Schleswig-Holstein"}},{"name":"Moorkaten","postalCode":"24568","locality":"Kaltenkirchen","municipality":{"key":"01060044","name":"Kaltenkirchen, Stadt","type":"Stadt"},"district":{"key":"01060","name":"Segeberg","type":"Kreis"},"federalState":{"key":"01","name":"Schleswig-Holstein"}},{"name":"Moorredder","postalCode":"24568","locality":"Kaltenkirchen","municipality":{"key":"01060044","name":"Kaltenkirchen, Stadt","type":"Stadt"},"district":{"key":"01060","name":"Segeberg","type":"Kreis"},"federalState":{"key":"01","name":"Schleswig-Holstein"}},{"name":"Mörikestr.","postalCode":"57610","locality":"Altenkirchen (Westerwald)","municipality":{"key":"07132501","name":"Altenkirchen (Westerwald), Stadt","type":"Stadt"},"district":{"key":"07132","name":"Altenkirchen (Westerwald)","type":"Landkreis"},"federalState":{"key":"07","name":"Rheinland-Pfalz"}},{"name":"Mühlengasse","postalCode":"57610","locality":"Altenkirchen (Westerwald)","municipality":{"key":"07132501","name":"Altenkirchen (Westerwald), Stadt","type":"Stadt"},"district":{"key":"07132","name":"Altenkirchen (Westerwald)","type":"Landkreis"},"federalState":{"key":"07","name":"Rheinland-Pfalz"}},{"name":"Mühlweg","postalCode":"66903","locality":"Altenkirchen","municipality":{"key":"07336004","name":"Altenkirchen","type":"Kreisangehörige_Gemeinde"},"district":{"key":"07336","name":"Kusel","type":"Landkreis"},"federalState":{"key":"07","name":"Rheinland-Pfalz"}},{"name":"Neidenburger Str.","postalCode":"24568","locality":"Kaltenkirchen","municipality":{"key":"01060044","name":"Kaltenkirchen, Stadt","type":"Stadt"},"district":{"key":"01060","name":"Segeberg","type":"Kreis"},"federalState":{"key":"01","name":"Schleswig-Holstein"}},{"name":"Neuer Weg","postalCode":"24568","locality":"Kaltenkirchen","municipality":{"key":"01060044","name":"Kaltenkirchen, Stadt","type":"Stadt"},"district":{"key":"01060","name":"Segeberg","type":"Kreis"},"federalState":{"key":"01","name":"Schleswig-Holstein"}},{"name":"Neuer Weg","postalCode":"66903","locality":"Altenkirchen","municipality":{"key":"07336004","name":"Altenkirchen","type":"Kreisangehörige_Gemeinde"},"district":{"key":"07336","name":"Kusel","type":"Landkreis"},"federalState":{"key":"07","name":"Rheinland-Pfalz"}},{"name":"Neue Str.","postalCode":"18556","locality":"Altenkirchen","municipality":{"key":"13073004","name":"Altenkirchen","type":"Kreisangehörige_Gemeinde"},"district":{"key":"13073","name":"Vorpommern-Rügen","type":"Landkreis"},"federalState":{"key":"13","name":"Mecklenburg-Vorpommern"}},{"name":"Nikolaus-Otto-Str.","postalCode":"24568","locality":"Kaltenkirchen","municipality":{"key":"01060044","name":"Kaltenkirchen, Stadt","type":"Stadt"},"district":{"key":"01060","name":"Segeberg","type":"Kreis"},"federalState":{"key":"01","name":"Schleswig-Holstein"}},{"name":"Norderstr.","postalCode":"24568","locality":"Kaltenkirchen","municipality":{"key":"01060044","name":"Kaltenkirchen, Stadt","type":"Stadt"},"district":{"key":"01060","name":"Segeberg","type":"Kreis"},"federalState":{"key":"01","name":"Schleswig-Holstein"}},{"name":"Oersdorfer Stieg","postalCode":"24568","locality":"Kaltenkirchen","municipality":{"key":"01060044","name":"Kaltenkirchen, Stadt","type":"Stadt"},"district":{"key":"01060","name":"Segeberg","type":"Kreis"},"federalState":{"key":"01","name":"Schleswig-Holstein"}},{"name":"Oersdorfer Weg","postalCode":"24568","locality":"Kaltenkirchen","municipality":{"key":"01060044","name":"Kaltenkirchen, Stadt","type":"Stadt"},"district":{"key":"01060","name":"Segeberg","type":"Kreis"},"federalState":{"key":"01","name":"Schleswig-Holstein"}},{"name":"Ohmbacher Weg","postalCode":"66903","locality":"Altenkirchen","municipality":{"key":"07336004","name":"Altenkirchen","type":"Kreisangehörige_Gemeinde"},"district":{"key":"07336","name":"Kusel","type":"Landkreis"},"federalState":{"key":"07","name":"Rheinland-Pfalz"}},{"name":"Oppelner Weg","postalCode":"24568","locality":"Kaltenkirchen","municipality":{"key":"01060044","name":"Kaltenkirchen, Stadt","type":"Stadt"},"district":{"key":"01060","name":"Segeberg","type":"Kreis"},"federalState":{"key":"01","name":"Schleswig-Holstein"}},{"name":"Ortelsburger Str.","postalCode":"24568","locality":"Kaltenkirchen","municipality":{"key":"01060044","name":"Kaltenkirchen, Stadt","type":"Stadt"},"district":{"key":"01060","name":"Segeberg","type":"Kreis"},"federalState":{"key":"01","name":"Schleswig-Holstein"}},{"name":"Ostpreußenring","postalCode":"24568","locality":"Kaltenkirchen","municipality":{"key":"01060044","name":"Kaltenkirchen, Stadt","type":"Stadt"},"district":{"key":"01060","name":"Segeberg","type":"Kreis"},"federalState":{"key":"01","name":"Schleswig-Holstein"}},{"name":"Otto-Modersohn-Weg","postalCode":"24568","locality":"Kaltenkirchen","municipality":{"key":"01060044","name":"Kaltenkirchen, Stadt","type":"Stadt"},"district":{"key":"01060","name":"Segeberg","type":"Kreis"},"federalState":{"key":"01","name":"Schleswig-Holstein"}},{"name":"Parc de Tarbes","postalCode":"57610","locality":"Altenkirchen (Westerwald)","municipality":{"key":"07132501","name":"Altenkirchen (Westerwald), Stadt","type":"Stadt"},"district":{"key":"07132","name":"Altenkirchen (Westerwald)","type":"Landkreis"},"federalState":{"key":"07","name":"Rheinland-Pfalz"}},{"name":"Parkstr.","postalCode":"57610","locality":"Altenkirchen (Westerwald)","municipality":{"key":"07132501","name":"Altenkirchen (Westerwald), Stadt","type":"Stadt"},"district":{"key":"07132","name":"Altenkirchen (Westerwald)","type":"Landkreis"},"federalState":{"key":"07","name":"Rheinland-Pfalz"}},{"name":"Pestalozzistr.","postalCode":"57610","locality":"Altenkirchen (Westerwald)","municipality":{"key":"07132501","name":"Altenkirchen (Westerwald), Stadt","type":"Stadt"},"district":{"key":"07132","name":"Altenkirchen (Westerwald)","type":"Landkreis"},"federalState":{"key":"07","name":"Rheinland-Pfalz"}},{"name":"Petersbachweg","postalCode":"57610","locality":"Altenkirchen (Westerwald)","municipality":{"key":"07132501","name":"Altenkirchen (Westerwald), Stadt","type":"Stadt"},"district":{"key":"07132","name":"Altenkirchen (Westerwald)","type":"Landkreis"},"federalState":{"key":"07","name":"Rheinland-Pfalz"}},{"name":"Pfützstr.","postalCode":"66903","locality":"Altenkirchen","municipality":{"key":"07336004","name":"Altenkirchen","type":"Kreisangehörige_Gemeinde"},"district":{"key":"07336","name":"Kusel","type":"Landkreis"},"federalState":{"key":"07","name":"Rheinland-Pfalz"}},{"name":"Philipp-Otto-Runge-Weg","postalCode":"24568","locality":"Kaltenkirchen","municipality":{"key":"01060044","name":"Kaltenkirchen, Stadt","type":"Stadt"},"district":{"key":"01060","name":"Segeberg","type":"Kreis"},"federalState":{"key":"01","name":"Schleswig-Holstein"}},{"name":"Philipp-Reis-Str.","postalCode":"57610","locality":"Altenkirchen (Westerwald)","municipality":{"key":"07132501","name":"Altenkirchen (Westerwald), Stadt","type":"Stadt"},"district":{"key":"07132","name":"Altenkirchen (Westerwald)","type":"Landkreis"},"federalState":{"key":"07","name":"Rheinland-Pfalz"}},{"name":"Pommernring","postalCode":"24568","locality":"Kaltenkirchen","municipality":{"key":"01060044","name":"Kaltenkirchen, Stadt","type":"Stadt"},"district":{"key":"01060","name":"Segeberg","type":"Kreis"},"federalState":{"key":"01","name":"Schleswig-Holstein"}},{"name":"Presenske","postalCode":"18556","locality":"Altenkirchen","municipality":{"key":"13073004","name":"Altenkirchen","type":"Kreisangehörige_Gemeinde"},"district":{"key":"13073","name":"Vorpommern-Rügen","type":"Landkreis"},"federalState":{"key":"13","name":"Mecklenburg-Vorpommern"}},{"name":"Prignitzer Weg","postalCode":"24568","locality":"Kaltenkirchen","municipality":{"key":"01060044","name":"Kaltenkirchen, Stadt","type":"Stadt"},"district":{"key":"01060","name":"Segeberg","type":"Kreis"},"federalState":{"key":"01","name":"Schleswig-Holstein"}},{"name":"Primelweg","postalCode":"24568","locality":"Kaltenkirchen","municipality":{"key":"01060044","name":"Kaltenkirchen, Stadt","type":"Stadt"},"district":{"key":"01060","name":"Segeberg","type":"Kreis"},"federalState":{"key":"01","name":"Schleswig-Holstein"}},{"name":"Professor-Ida-Ehre-Str.","postalCode":"24568","locality":"Kaltenkirchen","municipality":{"key":"01060044","name":"Kaltenkirchen, Stadt","type":"Stadt"},"district":{"key":"01060","name":"Segeberg","type":"Kreis"},"federalState":{"key":"01","name":"Schleswig-Holstein"}},{"name":"Putlitzer Str.","postalCode":"24568","locality":"Kaltenkirchen","municipality":{"key":"01060044","name":"Kaltenkirchen, Stadt","type":"Stadt"},"district":{"key":"01060","name":"Segeberg","type":"Kreis"},"federalState":{"key":"01","name":"Schleswig-Holstein"}},{"name":"Quengelstr.","postalCode":"57610","locality":"Altenkirchen (Westerwald)","municipality":{"key":"07132501","name":"Altenkirchen (Westerwald), Stadt","type":"Stadt"},"district":{"key":"07132","name":"Altenkirchen (Westerwald)","type":"Landkreis"},"federalState":{"key":"07","name":"Rheinland-Pfalz"}},{"name":"Radensweg","postalCode":"24568","locality":"Kaltenkirchen","municipality":{"key":"01060044","name":"Kaltenkirchen, Stadt","type":"Stadt"},"district":{"key":"01060","name":"Segeberg","type":"Kreis"},"federalState":{"key":"01","name":"Schleswig-Holstein"}},{"name":"Raiffeisenstr.","postalCode":"57610","locality":"Altenkirchen (Westerwald)","municipality":{"key":"07132501","name":"Altenkirchen (Westerwald), Stadt","type":"Stadt"},"district":{"key":"07132","name":"Altenkirchen (Westerwald)","type":"Landkreis"},"federalState":{"key":"07","name":"Rheinland-Pfalz"}},{"name":"Rathausstr.","postalCode":"57610","locality":"Altenkirchen (Westerwald)","municipality":{"key":"07132501","name":"Altenkirchen (Westerwald), Stadt","type":"Stadt"},"district":{"key":"07132","name":"Altenkirchen (Westerwald)","type":"Landkreis"},"federalState":{"key":"07","name":"Rheinland-Pfalz"}},{"name":"Ratzeburger Str.","postalCode":"24568","locality":"Kaltenkirchen","municipality":{"key":"01060044","name":"Kaltenkirchen, Stadt","type":"Stadt"},"district":{"key":"01060","name":"Segeberg","type":"Kreis"},"federalState":{"key":"01","name":"Schleswig-Holstein"}},{"name":"Richard-Tackx-Str.","postalCode":"24568","locality":"Kaltenkirchen","municipality":{"key":"01060044","name":"Kaltenkirchen, Stadt","type":"Stadt"},"district":{"key":"01060","name":"Segeberg","type":"Kreis"},"federalState":{"key":"01","name":"Schleswig-Holstein"}},{"name":"Ritterspornweg","postalCode":"24568","locality":"Kaltenkirchen","municipality":{"key":"01060044","name":"Kaltenkirchen, Stadt","type":"Stadt"},"district":{"key":"01060","name":"Segeberg","type":"Kreis"},"federalState":{"key":"01","name":"Schleswig-Holstein"}},{"name":"Rosenstieg","postalCode":"24568","locality":"Kaltenkirchen","municipality":{"key":"01060044","name":"Kaltenkirchen, Stadt","type":"Stadt"},"district":{"key":"01060","name":"Segeberg","type":"Kreis"},"federalState":{"key":"01","name":"Schleswig-Holstein"}},{"name":"Rosmarinweg","postalCode":"24568","locality":"Kaltenkirchen","municipality":{"key":"01060044","name":"Kaltenkirchen, Stadt","type":"Stadt"},"district":{"key":"01060","name":"Segeberg","type":"Kreis"},"federalState":{"key":"01","name":"Schleswig-Holstein"}},{"name":"Rostocker Str.","postalCode":"24568","locality":"Kaltenkirchen","municipality":{"key":"01060044","name":"Kaltenkirchen, Stadt","type":"Stadt"},"district":{"key":"01060","name":"Segeberg","type":"Kreis"},"federalState":{"key":"01","name":"Schleswig-Holstein"}},{"name":"Rudolf-Diesel-Str.","postalCode":"24568","locality":"Kaltenkirchen","municipality":{"key":"01060044","name":"Kaltenkirchen, Stadt","type":"Stadt"},"district":{"key":"01060","name":"Segeberg","type":"Kreis"},"federalState":{"key":"01","name":"Schleswig-Holstein"}},{"name":"Rudolf-Diesel-Str.","postalCode":"57610","locality":"Altenkirchen (Westerwald)","municipality":{"key":"07132501","name":"Altenkirchen (Westerwald), Stadt","type":"Stadt"},"district":{"key":"07132","name":"Altenkirchen (Westerwald)","type":"Landkreis"},"federalState":{"key":"07","name":"Rheinland-Pfalz"}},{"name":"Sanddornweg","postalCode":"24568","locality":"Kaltenkirchen","municipality":{"key":"01060044","name":"Kaltenkirchen, Stadt","type":"Stadt"},"district":{"key":"01060","name":"Segeberg","type":"Kreis"},"federalState":{"key":"01","name":"Schleswig-Holstein"}},{"name":"Saynstr.","postalCode":"57610","locality":"Altenkirchen (Westerwald)","municipality":{"key":"07132501","name":"Altenkirchen (Westerwald), Stadt","type":"Stadt"},"district":{"key":"07132","name":"Altenkirchen (Westerwald)","type":"Landkreis"},"federalState":{"key":"07","name":"Rheinland-Pfalz"}},{"name":"Schäferbrücke","postalCode":"24568","locality":"Kaltenkirchen","municipality":{"key":"01060044","name":"Kaltenkirchen, Stadt","type":"Stadt"},"district":{"key":"01060","name":"Segeberg","type":"Kreis"},"federalState":{"key":"01","name":"Schleswig-Holstein"}},{"name":"Schäferstieg","postalCode":"24568","locality":"Kaltenkirchen","municipality":{"key":"01060044","name":"Kaltenkirchen, Stadt","type":"Stadt"},"district":{"key":"01060","name":"Segeberg","type":"Kreis"},"federalState":{"key":"01","name":"Schleswig-Holstein"}},{"name":"Schillerstr.","postalCode":"57610","locality":"Altenkirchen (Westerwald)","municipality":{"key":"07132501","name":"Altenkirchen (Westerwald), Stadt","type":"Stadt"},"district":{"key":"07132","name":"Altenkirchen (Westerwald)","type":"Landkreis"},"federalState":{"key":"07","name":"Rheinland-Pfalz"}},{"name":"Schillerstr.","postalCode":"66903","locality":"Altenkirchen","municipality":{"key":"07336004","name":"Altenkirchen","type":"Kreisangehörige_Gemeinde"},"district":{"key":"07336","name":"Kusel","type":"Landkreis"},"federalState":{"key":"07","name":"Rheinland-Pfalz"}},{"name":"Schirnauweg","postalCode":"24568","locality":"Kaltenkirchen","municipality":{"key":"01060044","name":"Kaltenkirchen, Stadt","type":"Stadt"},"district":{"key":"01060","name":"Segeberg","type":"Kreis"},"federalState":{"key":"01","name":"Schleswig-Holstein"}},{"name":"Schlauer Weg","postalCode":"66903","locality":"Altenkirchen","municipality":{"key":"07336004","name":"Altenkirchen","type":"Kreisangehörige_Gemeinde"},"district":{"key":"07336","name":"Kusel","type":"Landkreis"},"federalState":{"key":"07","name":"Rheinland-Pfalz"}},{"name":"Schlehenweg","postalCode":"24568","locality":"Kaltenkirchen","municipality":{"key":"01060044","name":"Kaltenkirchen, Stadt","type":"Stadt"},"district":{"key":"01060","name":"Segeberg","type":"Kreis"},"federalState":{"key":"01","name":"Schleswig-Holstein"}},{"name":"Schloßweg","postalCode":"57610","locality":"Altenkirchen (Westerwald)","municipality":{"key":"07132501","name":"Altenkirchen (Westerwald), Stadt","type":"Stadt"},"district":{"key":"07132","name":"Altenkirchen (Westerwald)","type":"Landkreis"},"federalState":{"key":"07","name":"Rheinland-Pfalz"}},{"name":"Schmalfelder Str.","postalCode":"24568","locality":"Kaltenkirchen","municipality":{"key":"01060044","name":"Kaltenkirchen, Stadt","type":"Stadt"},"district":{"key":"01060","name":"Segeberg","type":"Kreis"},"federalState":{"key":"01","name":"Schleswig-Holstein"}},{"name":"Schöne Aussicht","postalCode":"24568","locality":"Kaltenkirchen","municipality":{"key":"01060044","name":"Kaltenkirchen, Stadt","type":"Stadt"},"district":{"key":"01060","name":"Segeberg","type":"Kreis"},"federalState":{"key":"01","name":"Schleswig-Holstein"}},{"name":"Schulstr.","postalCode":"18556","locality":"Altenkirchen","municipality":{"key":"13073004","name":"Altenkirchen","type":"Kreisangehörige_Gemeinde"},"district":{"key":"13073","name":"Vorpommern-Rügen","type":"Landkreis"},"federalState":{"key":"13","name":"Mecklenburg-Vorpommern"}},{"name":"Schulstr.","postalCode":"24568","locality":"Kaltenkirchen","municipality":{"key":"01060044","name":"Kaltenkirchen, Stadt","type":"Stadt"},"district":{"key":"01060","name":"Segeberg","type":"Kreis"},"federalState":{"key":"01","name":"Schleswig-Holstein"}},{"name":"Schulstr.","postalCode":"57610","locality":"Altenkirchen (Westerwald)","municipality":{"key":"07132501","name":"Altenkirchen (Westerwald), Stadt","type":"Stadt"},"district":{"key":"07132","name":"Altenkirchen (Westerwald)","type":"Landkreis"},"federalState":{"key":"07","name":"Rheinland-Pfalz"}},{"name":"Schulstr.","postalCode":"66903","locality":"Altenkirchen","municipality":{"key":"07336004","name":"Altenkirchen","type":"Kreisangehörige_Gemeinde"},"district":{"key":"07336","name":"Kusel","type":"Landkreis"},"federalState":{"key":"07","name":"Rheinland-Pfalz"}},{"name":"Schümannweg","postalCode":"24568","locality":"Kaltenkirchen","municipality":{"key":"01060044","name":"Kaltenkirchen, Stadt","type":"Stadt"},"district":{"key":"01060","name":"Segeberg","type":"Kreis"},"federalState":{"key":"01","name":"Schleswig-Holstein"}},{"name":"Schützenstr.","postalCode":"24568","locality":"Kaltenkirchen","municipality":{"key":"01060044","name":"Kaltenkirchen, Stadt","type":"Stadt"},"district":{"key":"01060","name":"Segeberg","type":"Kreis"},"federalState":{"key":"01","name":"Schleswig-Holstein"}},{"name":"Schützenstr.","postalCode":"57610","locality":"Altenkirchen (Westerwald)","municipality":{"key":"07132501","name":"Altenkirchen (Westerwald), Stadt","type":"Stadt"},"district":{"key":"07132","name":"Altenkirchen (Westerwald)","type":"Landkreis"},"federalState":{"key":"07","name":"Rheinland-Pfalz"}},{"name":"Schützenweg","postalCode":"57610","locality":"Altenkirchen (Westerwald)","municipality":{"key":"07132501","name":"Altenkirchen (Westerwald), Stadt","type":"Stadt"},"district":{"key":"07132","name":"Altenkirchen (Westerwald)","type":"Landkreis"},"federalState":{"key":"07","name":"Rheinland-Pfalz"}},{"name":"Schwalbenweg","postalCode":"24568","locality":"Kaltenkirchen","municipality":{"key":"01060044","name":"Kaltenkirchen, Stadt","type":"Stadt"},"district":{"key":"01060","name":"Segeberg","type":"Kreis"},"federalState":{"key":"01","name":"Schleswig-Holstein"}},{"name":"Schwalbenweg","postalCode":"57610","locality":"Altenkirchen (Westerwald)","municipality":{"key":"07132501","name":"Altenkirchen (Westerwald), Stadt","type":"Stadt"},"district":{"key":"07132","name":"Altenkirchen (Westerwald)","type":"Landkreis"},"federalState":{"key":"07","name":"Rheinland-Pfalz"}},{"name":"Seebeckstr.","postalCode":"24568","locality":"Kaltenkirchen","municipality":{"key":"01060044","name":"Kaltenkirchen, Stadt","type":"Stadt"},"district":{"key":"01060","name":"Segeberg","type":"Kreis"},"federalState":{"key":"01","name":"Schleswig-Holstein"}},{"name":"Sehrtenbachstr.","postalCode":"57610","locality":"Altenkirchen (Westerwald)","municipality":{"key":"07132501","name":"Altenkirchen (Westerwald), Stadt","type":"Stadt"},"district":{"key":"07132","name":"Altenkirchen (Westerwald)","type":"Landkreis"},"federalState":{"key":"07","name":"Rheinland-Pfalz"}},{"name":"Senefelder Str.","postalCode":"24568","locality":"Kaltenkirchen","municipality":{"key":"01060044","name":"Kaltenkirchen, Stadt","type":"Stadt"},"district":{"key":"01060","name":"Segeberg","type":"Kreis"},"federalState":{"key":"01","name":"Schleswig-Holstein"}},{"name":"Sibylla-Merian-Weg","postalCode":"24568","locality":"Kaltenkirchen","municipality":{"key":"01060044","name":"Kaltenkirchen, Stadt","type":"Stadt"},"district":{"key":"01060","name":"Segeberg","type":"Kreis"},"federalState":{"key":"01","name":"Schleswig-Holstein"}},{"name":"Siegener Str.","postalCode":"57610","locality":"Altenkirchen (Westerwald)","municipality":{"key":"07132501","name":"Altenkirchen (Westerwald), Stadt","type":"Stadt"},"district":{"key":"07132","name":"Altenkirchen (Westerwald)","type":"Landkreis"},"federalState":{"key":"07","name":"Rheinland-Pfalz"}},{"name":"Stadthallenweg","postalCode":"57610","locality":"Altenkirchen (Westerwald)","municipality":{"key":"07132501","name":"Altenkirchen (Westerwald), Stadt","type":"Stadt"},"district":{"key":"07132","name":"Altenkirchen (Westerwald)","type":"Landkreis"},"federalState":{"key":"07","name":"Rheinland-Pfalz"}},{"name":"Steenkamp","postalCode":"24568","locality":"Kaltenkirchen","municipality":{"key":"01060044","name":"Kaltenkirchen, Stadt","type":"Stadt"},"district":{"key":"01060","name":"Segeberg","type":"Kreis"},"federalState":{"key":"01","name":"Schleswig-Holstein"}},{"name":"Stine-Andresen-Weg","postalCode":"24568","locality":"Kaltenkirchen","municipality":{"key":"01060044","name":"Kaltenkirchen, Stadt","type":"Stadt"},"district":{"key":"01060","name":"Segeberg","type":"Kreis"},"federalState":{"key":"01","name":"Schleswig-Holstein"}},{"name":"Stralsunder Weg","postalCode":"24568","locality":"Kaltenkirchen","municipality":{"key":"01060044","name":"Kaltenkirchen, Stadt","type":"Stadt"},"district":{"key":"01060","name":"Segeberg","type":"Kreis"},"federalState":{"key":"01","name":"Schleswig-Holstein"}},{"name":"Str. des Friedens","postalCode":"18556","locality":"Altenkirchen","municipality":{"key":"13073004","name":"Altenkirchen","type":"Kreisangehörige_Gemeinde"},"district":{"key":"13073","name":"Vorpommern-Rügen","type":"Landkreis"},"federalState":{"key":"13","name":"Mecklenburg-Vorpommern"}},{"name":"Stubbenwiese","postalCode":"24568","locality":"Kaltenkirchen","municipality":{"key":"01060044","name":"Kaltenkirchen, Stadt","type":"Stadt"},"district":{"key":"01060","name":"Segeberg","type":"Kreis"},"federalState":{"key":"01","name":"Schleswig-Holstein"}},{"name":"St. Wendeler Str.","postalCode":"66903","locality":"Altenkirchen","municipality":{"key":"07336004","name":"Altenkirchen","type":"Kreisangehörige_Gemeinde"},"district":{"key":"07336","name":"Kusel","type":"Landkreis"},"federalState":{"key":"07","name":"Rheinland-Pfalz"}},{"name":"Süderstr.","postalCode":"24568","locality":"Kaltenkirchen","municipality":{"key":"01060044","name":"Kaltenkirchen, Stadt","type":"Stadt"},"district":{"key":"01060","name":"Segeberg","type":"Kreis"},"federalState":{"key":"01","name":"Schleswig-Holstein"}},{"name":"Talstr.","postalCode":"66903","locality":"Altenkirchen","municipality":{"key":"07336004","name":"Altenkirchen","type":"Kreisangehörige_Gemeinde"},"district":{"key":"07336","name":"Kusel","type":"Landkreis"},"federalState":{"key":"07","name":"Rheinland-Pfalz"}},{"name":"Tannenweg","postalCode":"24568","locality":"Kaltenkirchen","municipality":{"key":"01060044","name":"Kaltenkirchen, Stadt","type":"Stadt"},"district":{"key":"01060","name":"Segeberg","type":"Kreis"},"federalState":{"key":"01","name":"Schleswig-Holstein"}},{"name":"Tannenweg","postalCode":"57610","locality":"Altenkirchen (Westerwald)","municipality":{"key":"07132501","name":"Altenkirchen (Westerwald), Stadt","type":"Stadt"},"district":{"key":"07132","name":"Altenkirchen (Westerwald)","type":"Landkreis"},"federalState":{"key":"07","name":"Rheinland-Pfalz"}},{"name":"Teinsiek","postalCode":"24568","locality":"Kaltenkirchen","municipality":{"key":"01060044","name":"Kaltenkirchen, Stadt","type":"Stadt"},"district":{"key":"01060","name":"Segeberg","type":"Kreis"},"federalState":{"key":"01","name":"Schleswig-Holstein"}},{"name":"Theodor-Fliedner-Str.","postalCode":"57610","locality":"Altenkirchen (Westerwald)","municipality":{"key":"07132501","name":"Altenkirchen (Westerwald), Stadt","type":"Stadt"},"district":{"key":"07132","name":"Altenkirchen (Westerwald)","type":"Landkreis"},"federalState":{"key":"07","name":"Rheinland-Pfalz"}},{"name":"Theodor-Storm-Weg","postalCode":"24568","locality":"Kaltenkirchen","municipality":{"key":"01060044","name":"Kaltenkirchen, Stadt","type":"Stadt"},"district":{"key":"01060","name":"Segeberg","type":"Kreis"},"federalState":{"key":"01","name":"Schleswig-Holstein"}},{"name":"Therese-Giehse-Str.","postalCode":"24568","locality":"Kaltenkirchen","municipality":{"key":"01060044","name":"Kaltenkirchen, Stadt","type":"Stadt"},"district":{"key":"01060","name":"Segeberg","type":"Kreis"},"federalState":{"key":"01","name":"Schleswig-Holstein"}},{"name":"Treuburger Str.","postalCode":"24568","locality":"Kaltenkirchen","municipality":{"key":"01060044","name":"Kaltenkirchen, Stadt","type":"Stadt"},"district":{"key":"01060","name":"Segeberg","type":"Kreis"},"federalState":{"key":"01","name":"Schleswig-Holstein"}},{"name":"Tulpenweg","postalCode":"24568","locality":"Kaltenkirchen","municipality":{"key":"01060044","name":"Kaltenkirchen, Stadt","type":"Stadt"},"district":{"key":"01060","name":"Segeberg","type":"Kreis"},"federalState":{"key":"01","name":"Schleswig-Holstein"}},{"name":"Uhlandstr.","postalCode":"57610","locality":"Altenkirchen (Westerwald)","municipality":{"key":"07132501","name":"Altenkirchen (Westerwald), Stadt","type":"Stadt"},"district":{"key":"07132","name":"Altenkirchen (Westerwald)","type":"Landkreis"},"federalState":{"key":"07","name":"Rheinland-Pfalz"}},{"name":"Ulmenstieg","postalCode":"24568","locality":"Kaltenkirchen","municipality":{"key":"01060044","name":"Kaltenkirchen, Stadt","type":"Stadt"},"district":{"key":"01060","name":"Segeberg","type":"Kreis"},"federalState":{"key":"01","name":"Schleswig-Holstein"}},{"name":"Ulmenweg","postalCode":"57610","locality":"Altenkirchen (Westerwald)","municipality":{"key":"07132501","name":"Altenkirchen (Westerwald), Stadt","type":"Stadt"},"district":{"key":"07132","name":"Altenkirchen (Westerwald)","type":"Landkreis"},"federalState":{"key":"07","name":"Rheinland-Pfalz"}},{"name":"Umgehungsstr.","postalCode":"18556","locality":"Altenkirchen","municipality":{"key":"13073004","name":"Altenkirchen","type":"Kreisangehörige_Gemeinde"},"district":{"key":"13073","name":"Vorpommern-Rügen","type":"Landkreis"},"federalState":{"key":"13","name":"Mecklenburg-Vorpommern"}},{"name":"Verbindungsweg","postalCode":"57610","locality":"Altenkirchen (Westerwald)","municipality":{"key":"07132501","name":"Altenkirchen (Westerwald), Stadt","type":"Stadt"},"district":{"key":"07132","name":"Altenkirchen (Westerwald)","type":"Landkreis"},"federalState":{"key":"07","name":"Rheinland-Pfalz"}},{"name":"Virchower Str.","postalCode":"24568","locality":"Kaltenkirchen","municipality":{"key":"01060044","name":"Kaltenkirchen, Stadt","type":"Stadt"},"district":{"key":"01060","name":"Segeberg","type":"Kreis"},"federalState":{"key":"01","name":"Schleswig-Holstein"}},{"name":"Vogelbusch","postalCode":"24568","locality":"Kaltenkirchen","municipality":{"key":"01060044","name":"Kaltenkirchen, Stadt","type":"Stadt"},"district":{"key":"01060","name":"Segeberg","type":"Kreis"},"federalState":{"key":"01","name":"Schleswig-Holstein"}},{"name":"Von-Bodelschwingh-Str.","postalCode":"24568","locality":"Kaltenkirchen","municipality":{"key":"01060044","name":"Kaltenkirchen, Stadt","type":"Stadt"},"district":{"key":"01060","name":"Segeberg","type":"Kreis"},"federalState":{"key":"01","name":"Schleswig-Holstein"}},{"name":"Von-Kleist-Str.","postalCode":"57610","locality":"Altenkirchen (Westerwald)","municipality":{"key":"07132501","name":"Altenkirchen (Westerwald), Stadt","type":"Stadt"},"district":{"key":"07132","name":"Altenkirchen (Westerwald)","type":"Landkreis"},"federalState":{"key":"07","name":"Rheinland-Pfalz"}},{"name":"Voßkamp","postalCode":"24568","locality":"Kaltenkirchen","municipality":{"key":"01060044","name":"Kaltenkirchen, Stadt","type":"Stadt"},"district":{"key":"01060","name":"Segeberg","type":"Kreis"},"federalState":{"key":"01","name":"Schleswig-Holstein"}},{"name":"Wacholderweg","postalCode":"24568","locality":"Kaltenkirchen","municipality":{"key":"01060044","name":"Kaltenkirchen, Stadt","type":"Stadt"},"district":{"key":"01060","name":"Segeberg","type":"Kreis"},"federalState":{"key":"01","name":"Schleswig-Holstein"}},{"name":"Wagnerstr.","postalCode":"24568","locality":"Kaltenkirchen","municipality":{"key":"01060044","name":"Kaltenkirchen, Stadt","type":"Stadt"},"district":{"key":"01060","name":"Segeberg","type":"Kreis"},"federalState":{"key":"01","name":"Schleswig-Holstein"}},{"name":"Waldstr.","postalCode":"66903","locality":"Altenkirchen","municipality":{"key":"07336004","name":"Altenkirchen","type":"Kreisangehörige_Gemeinde"},"district":{"key":"07336","name":"Kusel","type":"Landkreis"},"federalState":{"key":"07","name":"Rheinland-Pfalz"}},{"name":"Wallstr.","postalCode":"57610","locality":"Altenkirchen (Westerwald)","municipality":{"key":"07132501","name":"Altenkirchen (Westerwald), Stadt","type":"Stadt"},"district":{"key":"07132","name":"Altenkirchen (Westerwald)","type":"Landkreis"},"federalState":{"key":"07","name":"Rheinland-Pfalz"}},{"name":"Walter-Flex-Weg","postalCode":"24568","locality":"Kaltenkirchen","municipality":{"key":"01060044","name":"Kaltenkirchen, Stadt","type":"Stadt"},"district":{"key":"01060","name":"Segeberg","type":"Kreis"},"federalState":{"key":"01","name":"Schleswig-Holstein"}},{"name":"Weberstr.","postalCode":"24568","locality":"Kaltenkirchen","municipality":{"key":"01060044","name":"Kaltenkirchen, Stadt","type":"Stadt"},"district":{"key":"01060","name":"Segeberg","type":"Kreis"},"federalState":{"key":"01","name":"Schleswig-Holstein"}},{"name":"Weidenstieg","postalCode":"24568","locality":"Kaltenkirchen","municipality":{"key":"01060044","name":"Kaltenkirchen, Stadt","type":"Stadt"},"district":{"key":"01060","name":"Segeberg","type":"Kreis"},"federalState":{"key":"01","name":"Schleswig-Holstein"}},{"name":"Weiß-Str.","postalCode":"66903","locality":"Altenkirchen","municipality":{"key":"07336004","name":"Altenkirchen","type":"Kreisangehörige_Gemeinde"},"district":{"key":"07336","name":"Kusel","type":"Landkreis"},"federalState":{"key":"07","name":"Rheinland-Pfalz"}},{"name":"Werner-Seelenbinder-Str.","postalCode":"18556","locality":"Altenkirchen","municipality":{"key":"13073004","name":"Altenkirchen","type":"Kreisangehörige_Gemeinde"},"district":{"key":"13073","name":"Vorpommern-Rügen","type":"Landkreis"},"federalState":{"key":"13","name":"Mecklenburg-Vorpommern"}},{"name":"Wiedstr.","postalCode":"57610","locality":"Altenkirchen (Westerwald)","municipality":{"key":"07132501","name":"Altenkirchen (Westerwald), Stadt","type":"Stadt"},"district":{"key":"07132","name":"Altenkirchen (Westerwald)","type":"Landkreis"},"federalState":{"key":"07","name":"Rheinland-Pfalz"}},{"name":"Wiesendamm","postalCode":"24568","locality":"Kaltenkirchen","municipality":{"key":"01060044","name":"Kaltenkirchen, Stadt","type":"Stadt"},"district":{"key":"01060","name":"Segeberg","type":"Kreis"},"federalState":{"key":"01","name":"Schleswig-Holstein"}},{"name":"Wiesengrund","postalCode":"24568","locality":"Kaltenkirchen","municipality":{"key":"01060044","name":"Kaltenkirchen, Stadt","type":"Stadt"},"district":{"key":"01060","name":"Segeberg","type":"Kreis"},"federalState":{"key":"01","name":"Schleswig-Holstein"}},{"name":"Wiesenhofstr.","postalCode":"24568","locality":"Kaltenkirchen","municipality":{"key":"01060044","name":"Kaltenkirchen, Stadt","type":"Stadt"},"district":{"key":"01060","name":"Segeberg","type":"Kreis"},"federalState":{"key":"01","name":"Schleswig-Holstein"}},{"name":"Wiesenstieg","postalCode":"24568","locality":"Kaltenkirchen","municipality":{"key":"01060044","name":"Kaltenkirchen, Stadt","type":"Stadt"},"district":{"key":"01060","name":"Segeberg","type":"Kreis"},"federalState":{"key":"01","name":"Schleswig-Holstein"}},{"name":"Wiesenstr.","postalCode":"57610","locality":"Altenkirchen (Westerwald)","municipality":{"key":"07132501","name":"Altenkirchen (Westerwald), Stadt","type":"Stadt"},"district":{"key":"07132","name":"Altenkirchen (Westerwald)","type":"Landkreis"},"federalState":{"key":"07","name":"Rheinland-Pfalz"}},{"name":"Wilhelm-Röntgen-Str.","postalCode":"24568","locality":"Kaltenkirchen","municipality":{"key":"01060044","name":"Kaltenkirchen, Stadt","type":"Stadt"},"district":{"key":"01060","name":"Segeberg","type":"Kreis"},"federalState":{"key":"01","name":"Schleswig-Holstein"}},{"name":"Wilhelmstr.","postalCode":"57610","locality":"Altenkirchen (Westerwald)","municipality":{"key":"07132501","name":"Altenkirchen (Westerwald), Stadt","type":"Stadt"},"district":{"key":"07132","name":"Altenkirchen (Westerwald)","type":"Landkreis"},"federalState":{"key":"07","name":"Rheinland-Pfalz"}},{"name":"Wischhörn","postalCode":"24568","locality":"Kaltenkirchen","municipality":{"key":"01060044","name":"Kaltenkirchen, Stadt","type":"Stadt"},"district":{"key":"01060","name":"Segeberg","type":"Kreis"},"federalState":{"key":"01","name":"Schleswig-Holstein"}},{"name":"Wulfskamp","postalCode":"24568","locality":"Kaltenkirchen","municipality":{"key":"01060044","name":"Kaltenkirchen, Stadt","type":"Stadt"},"district":{"key":"01060","name":"Segeberg","type":"Kreis"},"federalState":{"key":"01","name":"Schleswig-Holstein"}},{"name":"Zeisigring","postalCode":"24568","locality":"Kaltenkirchen","municipality":{"key":"01060044","name":"Kaltenkirchen, Stadt","type":"Stadt"},"district":{"key":"01060","name":"Segeberg","type":"Kreis"},"federalState":{"key":"01","name":"Schleswig-Holstein"}},{"name":"Ziegelweg","postalCode":"57610","locality":"Altenkirchen (Westerwald)","municipality":{"key":"07132501","name":"Altenkirchen (Westerwald), Stadt","type":"Stadt"},"district":{"key":"07132","name":"Altenkirchen (Westerwald)","type":"Landkreis"},"federalState":{"key":"07","name":"Rheinland-Pfalz"}},{"name":"Zimmerstr.","postalCode":"66903","locality":"Altenkirchen","municipality":{"key":"07336004","name":"Altenkirchen","type":"Kreisangehörige_Gemeinde"},"district":{"key":"07336","name":"Kusel","type":"Landkreis"},"federalState":{"key":"07","name":"Rheinland-Pfalz"}},{"name":"Zittkower Weg","postalCode":"18556","locality":"Altenkirchen","municipality":{"key":"13073004","name":"Altenkirchen","type":"Kreisangehörige_Gemeinde"},"district":{"key":"13073","name":"Vorpommern-Rügen","type":"Landkreis"},"federalState":{"key":"13","name":"Mecklenburg-Vorpommern"}},{"name":"Zum Hogfeld","postalCode":"24568","locality":"Kaltenkirchen","municipality":{"key":"01060044","name":"Kaltenkirchen, Stadt","type":"Stadt"},"district":{"key":"01060","name":"Segeberg","type":"Kreis"},"federalState":{"key":"01","name":"Schleswig-Holstein"}},{"name":"Zum Johannistal","postalCode":"57610","locality":"Altenkirchen (Westerwald)","municipality":{"key":"07132501","name":"Altenkirchen (Westerwald), Stadt","type":"Stadt"},"district":{"key":"07132","name":"Altenkirchen (Westerwald)","type":"Landkreis"},"federalState":{"key":"07","name":"Rheinland-Pfalz"}},{"name":"Zum Kirschgarten","postalCode":"18556","locality":"Altenkirchen","municipality":{"key":"13073004","name":"Altenkirchen","type":"Kreisangehörige_Gemeinde"},"district":{"key":"13073","name":"Vorpommern-Rügen","type":"Landkreis"},"federalState":{"key":"13","name":"Mecklenburg-Vorpommern"}},{"name":"Zum Löh","postalCode":"57610","locality":"Altenkirchen (Westerwald)","municipality":{"key":"07132501","name":"Altenkirchen (Westerwald), Stadt","type":"Stadt"},"district":{"key":"07132","name":"Altenkirchen (Westerwald)","type":"Landkreis"},"federalState":{"key":"07","name":"Rheinland-Pfalz"}},{"name":"Zum Pfarracker","postalCode":"57610","locality":"Altenkirchen (Westerwald)","municipality":{"key":"07132501","name":"Altenkirchen (Westerwald), Stadt","type":"Stadt"},"district":{"key":"07132","name":"Altenkirchen (Westerwald)","type":"Landkreis"},"federalState":{"key":"07","name":"Rheinland-Pfalz"}},{"name":"Zum Weyerdamm","postalCode":"57610","locality":"Altenkirchen (Westerwald)","municipality":{"key":"07132501","name":"Altenkirchen (Westerwald), Stadt","type":"Stadt"},"district":{"key":"07132","name":"Altenkirchen (Westerwald)","type":"Landkreis"},"federalState":{"key":"07","name":"Rheinland-Pfalz"}},{"name":"Zur Donitz","postalCode":"18556","locality":"Altenkirchen","municipality":{"key":"13073004","name":"Altenkirchen","type":"Kreisangehörige_Gemeinde"},"district":{"key":"13073","name":"Vorpommern-Rügen","type":"Landkreis"},"federalState":{"key":"13","name":"Mecklenburg-Vorpommern"}},{"name":"Ölfer Weg","postalCode":"57610","locality":"Altenkirchen (Westerwald)","municipality":{"key":"07132501","name":"Altenkirchen (Westerwald), Stadt","type":"Stadt"},"district":{"key":"07132","name":"Altenkirchen (Westerwald)","type":"Landkreis"},"federalState":{"key":"07","name":"Rheinland-Pfalz"}},]