[{"name":"Adam-Lattrell-Str.","postalCode":"76889","locality":"Schweigen-Rechtenbach","municipality":{"key":"07337071","name":"Schweigen-Rechtenbach","type":"Kreisangehörige_Gemeinde"},"district":{"key":"07337","name":"Südliche Weinstraße","type":"Landkreis"},"federalState":{"key":"07","name":"Rheinland-Pfalz"}},{"name":"Am Herdweg","postalCode":"76889","locality":"Schweigen-Rechtenbach","municipality":{"key":"07337071","name":"Schweigen-Rechtenbach","type":"Kreisangehörige_Gemeinde"},"district":{"key":"07337","name":"Südliche Weinstraße","type":"Landkreis"},"federalState":{"key":"07","name":"Rheinland-Pfalz"}},{"name":"Am Weiher","postalCode":"76889","locality":"Schweigen-Rechtenbach","municipality":{"key":"07337071","name":"Schweigen-Rechtenbach","type":"Kreisangehörige_Gemeinde"},"district":{"key":"07337","name":"Südliche Weinstraße","type":"Landkreis"},"federalState":{"key":"07","name":"Rheinland-Pfalz"}},{"name":"An der Schmalwiese","postalCode":"76889","locality":"Schweigen-Rechtenbach","municipality":{"key":"07337071","name":"Schweigen-Rechtenbach","type":"Kreisangehörige_Gemeinde"},"district":{"key":"07337","name":"Südliche Weinstraße","type":"Landkreis"},"federalState":{"key":"07","name":"Rheinland-Pfalz"}},{"name":"Bacchusstr.","postalCode":"76889","locality":"Schweigen-Rechtenbach","municipality":{"key":"07337071","name":"Schweigen-Rechtenbach","type":"Kreisangehörige_Gemeinde"},"district":{"key":"07337","name":"Südliche Weinstraße","type":"Landkreis"},"federalState":{"key":"07","name":"Rheinland-Pfalz"}},{"name":"Bergstr.","postalCode":"76889","locality":"Schweigen-Rechtenbach","municipality":{"key":"07337071","name":"Schweigen-Rechtenbach","type":"Kreisangehörige_Gemeinde"},"district":{"key":"07337","name":"Südliche Weinstraße","type":"Landkreis"},"federalState":{"key":"07","name":"Rheinland-Pfalz"}},{"name":"Blaukreutzweg","postalCode":"76889","locality":"Schweigen-Rechtenbach","municipality":{"key":"07337071","name":"Schweigen-Rechtenbach","type":"Kreisangehörige_Gemeinde"},"district":{"key":"07337","name":"Südliche Weinstraße","type":"Landkreis"},"federalState":{"key":"07","name":"Rheinland-Pfalz"}},{"name":"Blumenstr.","postalCode":"76889","locality":"Schweigen-Rechtenbach","municipality":{"key":"07337071","name":"Schweigen-Rechtenbach","type":"Kreisangehörige_Gemeinde"},"district":{"key":"07337","name":"Südliche Weinstraße","type":"Landkreis"},"federalState":{"key":"07","name":"Rheinland-Pfalz"}},{"name":"Buchbachweg","postalCode":"76889","locality":"Schweigen-Rechtenbach","municipality":{"key":"07337071","name":"Schweigen-Rechtenbach","type":"Kreisangehörige_Gemeinde"},"district":{"key":"07337","name":"Südliche Weinstraße","type":"Landkreis"},"federalState":{"key":"07","name":"Rheinland-Pfalz"}},{"name":"Burgunderstr.","postalCode":"76889","locality":"Schweigen-Rechtenbach","municipality":{"key":"07337071","name":"Schweigen-Rechtenbach","type":"Kreisangehörige_Gemeinde"},"district":{"key":"07337","name":"Südliche Weinstraße","type":"Landkreis"},"federalState":{"key":"07","name":"Rheinland-Pfalz"}},{"name":"Feuerwehrstr.","postalCode":"76889","locality":"Schweigen-Rechtenbach","municipality":{"key":"07337071","name":"Schweigen-Rechtenbach","type":"Kreisangehörige_Gemeinde"},"district":{"key":"07337","name":"Südliche Weinstraße","type":"Landkreis"},"federalState":{"key":"07","name":"Rheinland-Pfalz"}},{"name":"Flurstr.","postalCode":"76889","locality":"Schweigen-Rechtenbach","municipality":{"key":"07337071","name":"Schweigen-Rechtenbach","type":"Kreisangehörige_Gemeinde"},"district":{"key":"07337","name":"Südliche Weinstraße","type":"Landkreis"},"federalState":{"key":"07","name":"Rheinland-Pfalz"}},{"name":"Friedhofstr.","postalCode":"76889","locality":"Schweigen-Rechtenbach","municipality":{"key":"07337071","name":"Schweigen-Rechtenbach","type":"Kreisangehörige_Gemeinde"},"district":{"key":"07337","name":"Südliche Weinstraße","type":"Landkreis"},"federalState":{"key":"07","name":"Rheinland-Pfalz"}},{"name":"Gartenstr.","postalCode":"76889","locality":"Schweigen-Rechtenbach","municipality":{"key":"07337071","name":"Schweigen-Rechtenbach","type":"Kreisangehörige_Gemeinde"},"district":{"key":"07337","name":"Südliche Weinstraße","type":"Landkreis"},"federalState":{"key":"07","name":"Rheinland-Pfalz"}},{"name":"Guttenbergstr.","postalCode":"76889","locality":"Schweigen-Rechtenbach","municipality":{"key":"07337071","name":"Schweigen-Rechtenbach","type":"Kreisangehörige_Gemeinde"},"district":{"key":"07337","name":"Südliche Weinstraße","type":"Landkreis"},"federalState":{"key":"07","name":"Rheinland-Pfalz"}},{"name":"Hauptstr.","postalCode":"76889","locality":"Schweigen-Rechtenbach","municipality":{"key":"07337071","name":"Schweigen-Rechtenbach","type":"Kreisangehörige_Gemeinde"},"district":{"key":"07337","name":"Südliche Weinstraße","type":"Landkreis"},"federalState":{"key":"07","name":"Rheinland-Pfalz"}},{"name":"Heiligenbachweg","postalCode":"76889","locality":"Schweigen-Rechtenbach","municipality":{"key":"07337071","name":"Schweigen-Rechtenbach","type":"Kreisangehörige_Gemeinde"},"district":{"key":"07337","name":"Südliche Weinstraße","type":"Landkreis"},"federalState":{"key":"07","name":"Rheinland-Pfalz"}},{"name":"Hinterplatten","postalCode":"76889","locality":"Schweigen-Rechtenbach","municipality":{"key":"07337071","name":"Schweigen-Rechtenbach","type":"Kreisangehörige_Gemeinde"},"district":{"key":"07337","name":"Südliche Weinstraße","type":"Landkreis"},"federalState":{"key":"07","name":"Rheinland-Pfalz"}},{"name":"Höfelsstr.","postalCode":"76889","locality":"Schweigen-Rechtenbach","municipality":{"key":"07337071","name":"Schweigen-Rechtenbach","type":"Kreisangehörige_Gemeinde"},"district":{"key":"07337","name":"Südliche Weinstraße","type":"Landkreis"},"federalState":{"key":"07","name":"Rheinland-Pfalz"}},{"name":"Höhenstr.","postalCode":"76889","locality":"Schweigen-Rechtenbach","municipality":{"key":"07337071","name":"Schweigen-Rechtenbach","type":"Kreisangehörige_Gemeinde"},"district":{"key":"07337","name":"Südliche Weinstraße","type":"Landkreis"},"federalState":{"key":"07","name":"Rheinland-Pfalz"}},{"name":"Im Pfarrwingert","postalCode":"76889","locality":"Schweigen-Rechtenbach","municipality":{"key":"07337071","name":"Schweigen-Rechtenbach","type":"Kreisangehörige_Gemeinde"},"district":{"key":"07337","name":"Südliche Weinstraße","type":"Landkreis"},"federalState":{"key":"07","name":"Rheinland-Pfalz"}},{"name":"Karlsruher Str.","postalCode":"76889","locality":"Schweigen-Rechtenbach","municipality":{"key":"07337071","name":"Schweigen-Rechtenbach","type":"Kreisangehörige_Gemeinde"},"district":{"key":"07337","name":"Südliche Weinstraße","type":"Landkreis"},"federalState":{"key":"07","name":"Rheinland-Pfalz"}},{"name":"Kehrweg","postalCode":"76889","locality":"Schweigen-Rechtenbach","municipality":{"key":"07337071","name":"Schweigen-Rechtenbach","type":"Kreisangehörige_Gemeinde"},"district":{"key":"07337","name":"Südliche Weinstraße","type":"Landkreis"},"federalState":{"key":"07","name":"Rheinland-Pfalz"}},{"name":"Kirchstr.","postalCode":"76889","locality":"Schweigen-Rechtenbach","municipality":{"key":"07337071","name":"Schweigen-Rechtenbach","type":"Kreisangehörige_Gemeinde"},"district":{"key":"07337","name":"Südliche Weinstraße","type":"Landkreis"},"federalState":{"key":"07","name":"Rheinland-Pfalz"}},{"name":"Landrat-Hoffmann-Str.","postalCode":"76889","locality":"Schweigen-Rechtenbach","municipality":{"key":"07337071","name":"Schweigen-Rechtenbach","type":"Kreisangehörige_Gemeinde"},"district":{"key":"07337","name":"Südliche Weinstraße","type":"Landkreis"},"federalState":{"key":"07","name":"Rheinland-Pfalz"}},{"name":"Längelsstr.","postalCode":"76889","locality":"Schweigen-Rechtenbach","municipality":{"key":"07337071","name":"Schweigen-Rechtenbach","type":"Kreisangehörige_Gemeinde"},"district":{"key":"07337","name":"Südliche Weinstraße","type":"Landkreis"},"federalState":{"key":"07","name":"Rheinland-Pfalz"}},{"name":"Langenbergweg","postalCode":"76889","locality":"Schweigen-Rechtenbach","municipality":{"key":"07337071","name":"Schweigen-Rechtenbach","type":"Kreisangehörige_Gemeinde"},"district":{"key":"07337","name":"Südliche Weinstraße","type":"Landkreis"},"federalState":{"key":"07","name":"Rheinland-Pfalz"}},{"name":"Maastrichterweg","postalCode":"76889","locality":"Schweigen-Rechtenbach","municipality":{"key":"07337071","name":"Schweigen-Rechtenbach","type":"Kreisangehörige_Gemeinde"},"district":{"key":"07337","name":"Südliche Weinstraße","type":"Landkreis"},"federalState":{"key":"07","name":"Rheinland-Pfalz"}},{"name":"Martin-Luther-King-Str.","postalCode":"76889","locality":"Schweigen-Rechtenbach","municipality":{"key":"07337071","name":"Schweigen-Rechtenbach","type":"Kreisangehörige_Gemeinde"},"district":{"key":"07337","name":"Südliche Weinstraße","type":"Landkreis"},"federalState":{"key":"07","name":"Rheinland-Pfalz"}},{"name":"Müllerstr.","postalCode":"76889","locality":"Schweigen-Rechtenbach","municipality":{"key":"07337071","name":"Schweigen-Rechtenbach","type":"Kreisangehörige_Gemeinde"},"district":{"key":"07337","name":"Südliche Weinstraße","type":"Landkreis"},"federalState":{"key":"07","name":"Rheinland-Pfalz"}},{"name":"Nordring","postalCode":"76889","locality":"Schweigen-Rechtenbach","municipality":{"key":"07337071","name":"Schweigen-Rechtenbach","type":"Kreisangehörige_Gemeinde"},"district":{"key":"07337","name":"Südliche Weinstraße","type":"Landkreis"},"federalState":{"key":"07","name":"Rheinland-Pfalz"}},{"name":"Paulinerstr.","postalCode":"76889","locality":"Schweigen-Rechtenbach","municipality":{"key":"07337071","name":"Schweigen-Rechtenbach","type":"Kreisangehörige_Gemeinde"},"district":{"key":"07337","name":"Südliche Weinstraße","type":"Landkreis"},"federalState":{"key":"07","name":"Rheinland-Pfalz"}},{"name":"Rambergstr.","postalCode":"76889","locality":"Schweigen-Rechtenbach","municipality":{"key":"07337071","name":"Schweigen-Rechtenbach","type":"Kreisangehörige_Gemeinde"},"district":{"key":"07337","name":"Südliche Weinstraße","type":"Landkreis"},"federalState":{"key":"07","name":"Rheinland-Pfalz"}},{"name":"Rieslingstr.","postalCode":"76889","locality":"Schweigen-Rechtenbach","municipality":{"key":"07337071","name":"Schweigen-Rechtenbach","type":"Kreisangehörige_Gemeinde"},"district":{"key":"07337","name":"Südliche Weinstraße","type":"Landkreis"},"federalState":{"key":"07","name":"Rheinland-Pfalz"}},{"name":"Ringstr.","postalCode":"76889","locality":"Schweigen-Rechtenbach","municipality":{"key":"07337071","name":"Schweigen-Rechtenbach","type":"Kreisangehörige_Gemeinde"},"district":{"key":"07337","name":"Südliche Weinstraße","type":"Landkreis"},"federalState":{"key":"07","name":"Rheinland-Pfalz"}},{"name":"Rosenstr.","postalCode":"76889","locality":"Schweigen-Rechtenbach","municipality":{"key":"07337071","name":"Schweigen-Rechtenbach","type":"Kreisangehörige_Gemeinde"},"district":{"key":"07337","name":"Südliche Weinstraße","type":"Landkreis"},"federalState":{"key":"07","name":"Rheinland-Pfalz"}},{"name":"Ruländerstr.","postalCode":"76889","locality":"Schweigen-Rechtenbach","municipality":{"key":"07337071","name":"Schweigen-Rechtenbach","type":"Kreisangehörige_Gemeinde"},"district":{"key":"07337","name":"Südliche Weinstraße","type":"Landkreis"},"federalState":{"key":"07","name":"Rheinland-Pfalz"}},{"name":"Schulstr.","postalCode":"76889","locality":"Schweigen-Rechtenbach","municipality":{"key":"07337071","name":"Schweigen-Rechtenbach","type":"Kreisangehörige_Gemeinde"},"district":{"key":"07337","name":"Südliche Weinstraße","type":"Landkreis"},"federalState":{"key":"07","name":"Rheinland-Pfalz"}},{"name":"Schulweg","postalCode":"76889","locality":"Schweigen-Rechtenbach","municipality":{"key":"07337071","name":"Schweigen-Rechtenbach","type":"Kreisangehörige_Gemeinde"},"district":{"key":"07337","name":"Südliche Weinstraße","type":"Landkreis"},"federalState":{"key":"07","name":"Rheinland-Pfalz"}},{"name":"Silvanerstr.","postalCode":"76889","locality":"Schweigen-Rechtenbach","municipality":{"key":"07337071","name":"Schweigen-Rechtenbach","type":"Kreisangehörige_Gemeinde"},"district":{"key":"07337","name":"Südliche Weinstraße","type":"Landkreis"},"federalState":{"key":"07","name":"Rheinland-Pfalz"}},{"name":"Skulpturengarten","postalCode":"76889","locality":"Schweigen-Rechtenbach","municipality":{"key":"07337071","name":"Schweigen-Rechtenbach","type":"Kreisangehörige_Gemeinde"},"district":{"key":"07337","name":"Südliche Weinstraße","type":"Landkreis"},"federalState":{"key":"07","name":"Rheinland-Pfalz"}},{"name":"Sonnenberg","postalCode":"76889","locality":"Schweigen-Rechtenbach","municipality":{"key":"07337071","name":"Schweigen-Rechtenbach","type":"Kreisangehörige_Gemeinde"},"district":{"key":"07337","name":"Südliche Weinstraße","type":"Landkreis"},"federalState":{"key":"07","name":"Rheinland-Pfalz"}},{"name":"St. Urban-Platz","postalCode":"76889","locality":"Schweigen-Rechtenbach","municipality":{"key":"07337071","name":"Schweigen-Rechtenbach","type":"Kreisangehörige_Gemeinde"},"district":{"key":"07337","name":"Südliche Weinstraße","type":"Landkreis"},"federalState":{"key":"07","name":"Rheinland-Pfalz"}},{"name":"Südring","postalCode":"76889","locality":"Schweigen-Rechtenbach","municipality":{"key":"07337071","name":"Schweigen-Rechtenbach","type":"Kreisangehörige_Gemeinde"},"district":{"key":"07337","name":"Südliche Weinstraße","type":"Landkreis"},"federalState":{"key":"07","name":"Rheinland-Pfalz"}},{"name":"Talstr.","postalCode":"76889","locality":"Schweigen-Rechtenbach","municipality":{"key":"07337071","name":"Schweigen-Rechtenbach","type":"Kreisangehörige_Gemeinde"},"district":{"key":"07337","name":"Südliche Weinstraße","type":"Landkreis"},"federalState":{"key":"07","name":"Rheinland-Pfalz"}},{"name":"Theodor-Heuss-Str.","postalCode":"76889","locality":"Schweigen-Rechtenbach","municipality":{"key":"07337071","name":"Schweigen-Rechtenbach","type":"Kreisangehörige_Gemeinde"},"district":{"key":"07337","name":"Südliche Weinstraße","type":"Landkreis"},"federalState":{"key":"07","name":"Rheinland-Pfalz"}},{"name":"Traminerstr.","postalCode":"76889","locality":"Schweigen-Rechtenbach","municipality":{"key":"07337071","name":"Schweigen-Rechtenbach","type":"Kreisangehörige_Gemeinde"},"district":{"key":"07337","name":"Südliche Weinstraße","type":"Landkreis"},"federalState":{"key":"07","name":"Rheinland-Pfalz"}},{"name":"Waldstr.","postalCode":"76889","locality":"Schweigen-Rechtenbach","municipality":{"key":"07337071","name":"Schweigen-Rechtenbach","type":"Kreisangehörige_Gemeinde"},"district":{"key":"07337","name":"Südliche Weinstraße","type":"Landkreis"},"federalState":{"key":"07","name":"Rheinland-Pfalz"}},{"name":"Wasgaustr.","postalCode":"76889","locality":"Schweigen-Rechtenbach","municipality":{"key":"07337071","name":"Schweigen-Rechtenbach","type":"Kreisangehörige_Gemeinde"},"district":{"key":"07337","name":"Südliche Weinstraße","type":"Landkreis"},"federalState":{"key":"07","name":"Rheinland-Pfalz"}},{"name":"Weinstr.","postalCode":"76889","locality":"Schweigen-Rechtenbach","municipality":{"key":"07337071","name":"Schweigen-Rechtenbach","type":"Kreisangehörige_Gemeinde"},"district":{"key":"07337","name":"Südliche Weinstraße","type":"Landkreis"},"federalState":{"key":"07","name":"Rheinland-Pfalz"}},{"name":"Weißenburger Str.","postalCode":"76889","locality":"Schweigen-Rechtenbach","municipality":{"key":"07337071","name":"Schweigen-Rechtenbach","type":"Kreisangehörige_Gemeinde"},"district":{"key":"07337","name":"Südliche Weinstraße","type":"Landkreis"},"federalState":{"key":"07","name":"Rheinland-Pfalz"}},{"name":"Wiesenstr.","postalCode":"76889","locality":"Schweigen-Rechtenbach","municipality":{"key":"07337071","name":"Schweigen-Rechtenbach","type":"Kreisangehörige_Gemeinde"},"district":{"key":"07337","name":"Südliche Weinstraße","type":"Landkreis"},"federalState":{"key":"07","name":"Rheinland-Pfalz"}},{"name":"Zollstr.","postalCode":"76889","locality":"Schweigen-Rechtenbach","municipality":{"key":"07337071","name":"Schweigen-Rechtenbach","type":"Kreisangehörige_Gemeinde"},"district":{"key":"07337","name":"Südliche Weinstraße","type":"Landkreis"},"federalState":{"key":"07","name":"Rheinland-Pfalz"}},]