[{"name":"Am Meierhof","postalCode":"94142","locality":"Fürsteneck","municipality":{"key":"09272119","name":"Fürsteneck","type":"Kreisangehörige_Gemeinde"},"district":{"key":"09272","name":"Freyung-Grafenau","type":"Landkreis"},"federalState":{"key":"09","name":"Bayern"}},{"name":"Dorfstr.","postalCode":"94142","locality":"Fürsteneck","municipality":{"key":"09272119","name":"Fürsteneck","type":"Kreisangehörige_Gemeinde"},"district":{"key":"09272","name":"Freyung-Grafenau","type":"Landkreis"},"federalState":{"key":"09","name":"Bayern"}},{"name":"Firmianweg","postalCode":"94142","locality":"Fürsteneck","municipality":{"key":"09272119","name":"Fürsteneck","type":"Kreisangehörige_Gemeinde"},"district":{"key":"09272","name":"Freyung-Grafenau","type":"Landkreis"},"federalState":{"key":"09","name":"Bayern"}},{"name":"Gartenweg","postalCode":"94142","locality":"Fürsteneck","municipality":{"key":"09272119","name":"Fürsteneck","type":"Kreisangehörige_Gemeinde"},"district":{"key":"09272","name":"Freyung-Grafenau","type":"Landkreis"},"federalState":{"key":"09","name":"Bayern"}},{"name":"Guldensteig","postalCode":"94142","locality":"Fürsteneck","municipality":{"key":"09272119","name":"Fürsteneck","type":"Kreisangehörige_Gemeinde"},"district":{"key":"09272","name":"Freyung-Grafenau","type":"Landkreis"},"federalState":{"key":"09","name":"Bayern"}},{"name":"Hochwegen","postalCode":"94142","locality":"Fürsteneck","municipality":{"key":"09272119","name":"Fürsteneck","type":"Kreisangehörige_Gemeinde"},"district":{"key":"09272","name":"Freyung-Grafenau","type":"Landkreis"},"federalState":{"key":"09","name":"Bayern"}},{"name":"Kapellenhöhe","postalCode":"94142","locality":"Fürsteneck","municipality":{"key":"09272119","name":"Fürsteneck","type":"Kreisangehörige_Gemeinde"},"district":{"key":"09272","name":"Freyung-Grafenau","type":"Landkreis"},"federalState":{"key":"09","name":"Bayern"}},{"name":"Sonnenhang","postalCode":"94142","locality":"Fürsteneck","municipality":{"key":"09272119","name":"Fürsteneck","type":"Kreisangehörige_Gemeinde"},"district":{"key":"09272","name":"Freyung-Grafenau","type":"Landkreis"},"federalState":{"key":"09","name":"Bayern"}},{"name":"Sucherfeld","postalCode":"94142","locality":"Fürsteneck","municipality":{"key":"09272119","name":"Fürsteneck","type":"Kreisangehörige_Gemeinde"},"district":{"key":"09272","name":"Freyung-Grafenau","type":"Landkreis"},"federalState":{"key":"09","name":"Bayern"}},{"name":"Triftsteig","postalCode":"94142","locality":"Fürsteneck","municipality":{"key":"09272119","name":"Fürsteneck","type":"Kreisangehörige_Gemeinde"},"district":{"key":"09272","name":"Freyung-Grafenau","type":"Landkreis"},"federalState":{"key":"09","name":"Bayern"}},]