[{"key":"10213032","name":"Aeschgasse","postalCode":"4624","locality":"Härkingen","commune":{"key":"2402","name":"Härkingen","shortName":"Härkingen"},"district":{"key":"1101","name":"Bezirk Gäu"},"canton":{"key":"11","code":"SO","name":"Solothurn"},"status":"Real"},{"key":"10022918","name":"Aeschlimatt","postalCode":"4624","locality":"Härkingen","commune":{"key":"2402","name":"Härkingen","shortName":"Härkingen"},"district":{"key":"1101","name":"Bezirk Gäu"},"canton":{"key":"11","code":"SO","name":"Solothurn"},"status":"Real"},{"key":"10143692","name":"Ahornweg","postalCode":"4624","locality":"Härkingen","commune":{"key":"2402","name":"Härkingen","shortName":"Härkingen"},"district":{"key":"1101","name":"Bezirk Gäu"},"canton":{"key":"11","code":"SO","name":"Solothurn"},"status":"Real"},{"key":"10104425","name":"Altgraben","postalCode":"4624","locality":"Härkingen","commune":{"key":"2402","name":"Härkingen","shortName":"Härkingen"},"district":{"key":"1101","name":"Bezirk Gäu"},"canton":{"key":"11","code":"SO","name":"Solothurn"},"status":"Real"},{"key":"10198804","name":"Altgrabenweg","postalCode":"4624","locality":"Härkingen","commune":{"key":"2402","name":"Härkingen","shortName":"Härkingen"},"district":{"key":"1101","name":"Bezirk Gäu"},"canton":{"key":"11","code":"SO","name":"Solothurn"},"status":"Real"},{"key":"10134999","name":"Amselweg","postalCode":"4624","locality":"Härkingen","commune":{"key":"2402","name":"Härkingen","shortName":"Härkingen"},"district":{"key":"1101","name":"Bezirk Gäu"},"canton":{"key":"11","code":"SO","name":"Solothurn"},"status":"Real"},{"key":"10242650","name":"Autobahn A1","postalCode":"4624","locality":"Härkingen","commune":{"key":"2402","name":"Härkingen","shortName":"Härkingen"},"district":{"key":"1101","name":"Bezirk Gäu"},"canton":{"key":"11","code":"SO","name":"Solothurn"},"status":"Real"},{"key":"10242652","name":"Autobahn A2","postalCode":"4624","locality":"Härkingen","commune":{"key":"2402","name":"Härkingen","shortName":"Härkingen"},"district":{"key":"1101","name":"Bezirk Gäu"},"canton":{"key":"11","code":"SO","name":"Solothurn"},"status":"Real"},{"key":"10213036","name":"Bifang","postalCode":"4624","locality":"Härkingen","commune":{"key":"2402","name":"Härkingen","shortName":"Härkingen"},"district":{"key":"1101","name":"Bezirk Gäu"},"canton":{"key":"11","code":"SO","name":"Solothurn"},"status":"Real"},{"key":"10123600","name":"Birkenweg","postalCode":"4624","locality":"Härkingen","commune":{"key":"2402","name":"Härkingen","shortName":"Härkingen"},"district":{"key":"1101","name":"Bezirk Gäu"},"canton":{"key":"11","code":"SO","name":"Solothurn"},"status":"Real"},{"key":"10128807","name":"Bläsihof","postalCode":"4624","locality":"Härkingen","commune":{"key":"2402","name":"Härkingen","shortName":"Härkingen"},"district":{"key":"1101","name":"Bezirk Gäu"},"canton":{"key":"11","code":"SO","name":"Solothurn"},"status":"Real"},{"key":"10091952","name":"Boningerstrasse","postalCode":"4624","locality":"Härkingen","commune":{"key":"2402","name":"Härkingen","shortName":"Härkingen"},"district":{"key":"1101","name":"Bezirk Gäu"},"canton":{"key":"11","code":"SO","name":"Solothurn"},"status":"Real"},{"key":"10213040","name":"Bremdacker","postalCode":"4624","locality":"Härkingen","commune":{"key":"2402","name":"Härkingen","shortName":"Härkingen"},"district":{"key":"1101","name":"Bezirk Gäu"},"canton":{"key":"11","code":"SO","name":"Solothurn"},"status":"Real"},{"key":"10213044","name":"Buchenrain","postalCode":"4624","locality":"Härkingen","commune":{"key":"2402","name":"Härkingen","shortName":"Härkingen"},"district":{"key":"1101","name":"Bezirk Gäu"},"canton":{"key":"11","code":"SO","name":"Solothurn"},"status":"Real"},{"key":"10213048","name":"Buchenrainweg","postalCode":"4624","locality":"Härkingen","commune":{"key":"2402","name":"Härkingen","shortName":"Härkingen"},"district":{"key":"1101","name":"Bezirk Gäu"},"canton":{"key":"11","code":"SO","name":"Solothurn"},"status":"Real"},{"key":"10128811","name":"Buchsweg","postalCode":"4624","locality":"Härkingen","commune":{"key":"2402","name":"Härkingen","shortName":"Härkingen"},"district":{"key":"1101","name":"Bezirk Gäu"},"canton":{"key":"11","code":"SO","name":"Solothurn"},"status":"Real"},{"key":"10213052","name":"Bummelweg","postalCode":"4624","locality":"Härkingen","commune":{"key":"2402","name":"Härkingen","shortName":"Härkingen"},"district":{"key":"1101","name":"Bezirk Gäu"},"canton":{"key":"11","code":"SO","name":"Solothurn"},"status":"Real"},{"key":"10055369","name":"Bündenweg","postalCode":"4624","locality":"Härkingen","commune":{"key":"2402","name":"Härkingen","shortName":"Härkingen"},"district":{"key":"1101","name":"Bezirk Gäu"},"canton":{"key":"11","code":"SO","name":"Solothurn"},"status":"Real"},{"key":"10071546","name":"Bürgerweg","postalCode":"4624","locality":"Härkingen","commune":{"key":"2402","name":"Härkingen","shortName":"Härkingen"},"district":{"key":"1101","name":"Bezirk Gäu"},"canton":{"key":"11","code":"SO","name":"Solothurn"},"status":"Real"},{"key":"10022919","name":"Cheesturmweg","postalCode":"4624","locality":"Härkingen","commune":{"key":"2402","name":"Härkingen","shortName":"Härkingen"},"district":{"key":"1101","name":"Bezirk Gäu"},"canton":{"key":"11","code":"SO","name":"Solothurn"},"status":"Real"},{"key":"10091769","name":"Chesslerweg","postalCode":"4624","locality":"Härkingen","commune":{"key":"2402","name":"Härkingen","shortName":"Härkingen"},"district":{"key":"1101","name":"Bezirk Gäu"},"canton":{"key":"11","code":"SO","name":"Solothurn"},"status":"Real"},{"key":"10128808","name":"Chilchmatt","postalCode":"4624","locality":"Härkingen","commune":{"key":"2402","name":"Härkingen","shortName":"Härkingen"},"district":{"key":"1101","name":"Bezirk Gäu"},"canton":{"key":"11","code":"SO","name":"Solothurn"},"status":"Real"},{"key":"10213056","name":"Chropfdubeweg","postalCode":"4624","locality":"Härkingen","commune":{"key":"2402","name":"Härkingen","shortName":"Härkingen"},"district":{"key":"1101","name":"Bezirk Gäu"},"canton":{"key":"11","code":"SO","name":"Solothurn"},"status":"Real"},{"key":"10022920","name":"Dingerten","postalCode":"4624","locality":"Härkingen","commune":{"key":"2402","name":"Härkingen","shortName":"Härkingen"},"district":{"key":"1101","name":"Bezirk Gäu"},"canton":{"key":"11","code":"SO","name":"Solothurn"},"status":"Real"},{"key":"10213060","name":"Dolderbannweg","postalCode":"4624","locality":"Härkingen","commune":{"key":"2402","name":"Härkingen","shortName":"Härkingen"},"district":{"key":"1101","name":"Bezirk Gäu"},"canton":{"key":"11","code":"SO","name":"Solothurn"},"status":"Real"},{"key":"10213064","name":"Dreierweg","postalCode":"4624","locality":"Härkingen","commune":{"key":"2402","name":"Härkingen","shortName":"Härkingen"},"district":{"key":"1101","name":"Bezirk Gäu"},"canton":{"key":"11","code":"SO","name":"Solothurn"},"status":"Real"},{"key":"10141941","name":"Egerkingerstrasse","postalCode":"4624","locality":"Härkingen","commune":{"key":"2402","name":"Härkingen","shortName":"Härkingen"},"district":{"key":"1101","name":"Bezirk Gäu"},"canton":{"key":"11","code":"SO","name":"Solothurn"},"status":"Real"},{"key":"10123603","name":"Eichenweg","postalCode":"4624","locality":"Härkingen","commune":{"key":"2402","name":"Härkingen","shortName":"Härkingen"},"district":{"key":"1101","name":"Bezirk Gäu"},"canton":{"key":"11","code":"SO","name":"Solothurn"},"status":"Real"},{"key":"10213068","name":"Eichweg","postalCode":"4624","locality":"Härkingen","commune":{"key":"2402","name":"Härkingen","shortName":"Härkingen"},"district":{"key":"1101","name":"Bezirk Gäu"},"canton":{"key":"11","code":"SO","name":"Solothurn"},"status":"Real"},{"key":"10121097","name":"Erlenweg","postalCode":"4624","locality":"Härkingen","commune":{"key":"2402","name":"Härkingen","shortName":"Härkingen"},"district":{"key":"1101","name":"Bezirk Gäu"},"canton":{"key":"11","code":"SO","name":"Solothurn"},"status":"Real"},{"key":"10128809","name":"Fliederweg","postalCode":"4624","locality":"Härkingen","commune":{"key":"2402","name":"Härkingen","shortName":"Härkingen"},"district":{"key":"1101","name":"Bezirk Gäu"},"canton":{"key":"11","code":"SO","name":"Solothurn"},"status":"Real"},{"key":"10055370","name":"Fröschengasse","postalCode":"4624","locality":"Härkingen","commune":{"key":"2402","name":"Härkingen","shortName":"Härkingen"},"district":{"key":"1101","name":"Bezirk Gäu"},"canton":{"key":"11","code":"SO","name":"Solothurn"},"status":"Real"},{"key":"10201480","name":"Fröschenrain","postalCode":"4624","locality":"Härkingen","commune":{"key":"2402","name":"Härkingen","shortName":"Härkingen"},"district":{"key":"1101","name":"Bezirk Gäu"},"canton":{"key":"11","code":"SO","name":"Solothurn"},"status":"Real"},{"key":"10213072","name":"Fuchsweg","postalCode":"4624","locality":"Härkingen","commune":{"key":"2402","name":"Härkingen","shortName":"Härkingen"},"district":{"key":"1101","name":"Bezirk Gäu"},"canton":{"key":"11","code":"SO","name":"Solothurn"},"status":"Real"},{"key":"10091953","name":"Fulenbacherstrasse","postalCode":"4624","locality":"Härkingen","commune":{"key":"2402","name":"Härkingen","shortName":"Härkingen"},"district":{"key":"1101","name":"Bezirk Gäu"},"canton":{"key":"11","code":"SO","name":"Solothurn"},"status":"Real"},{"key":"10213076","name":"Gaisenacker","postalCode":"4624","locality":"Härkingen","commune":{"key":"2402","name":"Härkingen","shortName":"Härkingen"},"district":{"key":"1101","name":"Bezirk Gäu"},"canton":{"key":"11","code":"SO","name":"Solothurn"},"status":"Real"},{"key":"10213080","name":"Gedenksteinweg","postalCode":"4624","locality":"Härkingen","commune":{"key":"2402","name":"Härkingen","shortName":"Härkingen"},"district":{"key":"1101","name":"Bezirk Gäu"},"canton":{"key":"11","code":"SO","name":"Solothurn"},"status":"Real"},{"key":"10186282","name":"Gehren","postalCode":"4624","locality":"Härkingen","commune":{"key":"2402","name":"Härkingen","shortName":"Härkingen"},"district":{"key":"1101","name":"Bezirk Gäu"},"canton":{"key":"11","code":"SO","name":"Solothurn"},"status":"Real"},{"key":"10195217","name":"Gerberaweg","postalCode":"4624","locality":"Härkingen","commune":{"key":"2402","name":"Härkingen","shortName":"Härkingen"},"district":{"key":"1101","name":"Bezirk Gäu"},"canton":{"key":"11","code":"SO","name":"Solothurn"},"status":"Real"},{"key":"10022921","name":"Gunzgerstrasse","postalCode":"4624","locality":"Härkingen","commune":{"key":"2402","name":"Härkingen","shortName":"Härkingen"},"district":{"key":"1101","name":"Bezirk Gäu"},"canton":{"key":"11","code":"SO","name":"Solothurn"},"status":"Real"},{"key":"10213084","name":"Gunzgerweg","postalCode":"4624","locality":"Härkingen","commune":{"key":"2402","name":"Härkingen","shortName":"Härkingen"},"district":{"key":"1101","name":"Bezirk Gäu"},"canton":{"key":"11","code":"SO","name":"Solothurn"},"status":"Real"},{"key":"10123605","name":"Güssacker","postalCode":"4624","locality":"Härkingen","commune":{"key":"2402","name":"Härkingen","shortName":"Härkingen"},"district":{"key":"1101","name":"Bezirk Gäu"},"canton":{"key":"11","code":"SO","name":"Solothurn"},"status":"Real"},{"key":"10022923","name":"Häberlig","postalCode":"4624","locality":"Härkingen","commune":{"key":"2402","name":"Härkingen","shortName":"Härkingen"},"district":{"key":"1101","name":"Bezirk Gäu"},"canton":{"key":"11","code":"SO","name":"Solothurn"},"status":"Real"},{"key":"10213088","name":"Hagrosenweg","postalCode":"4624","locality":"Härkingen","commune":{"key":"2402","name":"Härkingen","shortName":"Härkingen"},"district":{"key":"1101","name":"Bezirk Gäu"},"canton":{"key":"11","code":"SO","name":"Solothurn"},"status":"Real"},{"key":"10213092","name":"Hardgässli","postalCode":"4624","locality":"Härkingen","commune":{"key":"2402","name":"Härkingen","shortName":"Härkingen"},"district":{"key":"1101","name":"Bezirk Gäu"},"canton":{"key":"11","code":"SO","name":"Solothurn"},"status":"Real"},{"key":"10213096","name":"Hardgraben","postalCode":"4624","locality":"Härkingen","commune":{"key":"2402","name":"Härkingen","shortName":"Härkingen"},"district":{"key":"1101","name":"Bezirk Gäu"},"canton":{"key":"11","code":"SO","name":"Solothurn"},"status":"Real"},{"key":"10213098","name":"Hardweg","postalCode":"4624","locality":"Härkingen","commune":{"key":"2402","name":"Härkingen","shortName":"Härkingen"},"district":{"key":"1101","name":"Bezirk Gäu"},"canton":{"key":"11","code":"SO","name":"Solothurn"},"status":"Real"},{"key":"10213106","name":"Hasenweg","postalCode":"4624","locality":"Härkingen","commune":{"key":"2402","name":"Härkingen","shortName":"Härkingen"},"district":{"key":"1101","name":"Bezirk Gäu"},"canton":{"key":"11","code":"SO","name":"Solothurn"},"status":"Real"},{"key":"10180265","name":"Hauptgasse","postalCode":"4624","locality":"Härkingen","commune":{"key":"2402","name":"Härkingen","shortName":"Härkingen"},"district":{"key":"1101","name":"Bezirk Gäu"},"canton":{"key":"11","code":"SO","name":"Solothurn"},"status":"Real"},{"key":"10117044","name":"Hausmatten","postalCode":"4624","locality":"Härkingen","commune":{"key":"2402","name":"Härkingen","shortName":"Härkingen"},"district":{"key":"1101","name":"Bezirk Gäu"},"canton":{"key":"11","code":"SO","name":"Solothurn"},"status":"Real"},{"key":"10022922","name":"Hodler","postalCode":"4624","locality":"Härkingen","commune":{"key":"2402","name":"Härkingen","shortName":"Härkingen"},"district":{"key":"1101","name":"Bezirk Gäu"},"canton":{"key":"11","code":"SO","name":"Solothurn"},"status":"Real"},{"key":"10186494","name":"Höhenweg","postalCode":"4624","locality":"Härkingen","commune":{"key":"2402","name":"Härkingen","shortName":"Härkingen"},"district":{"key":"1101","name":"Bezirk Gäu"},"canton":{"key":"11","code":"SO","name":"Solothurn"},"status":"Real"},{"key":"10213110","name":"Holzbeerliweg","postalCode":"4624","locality":"Härkingen","commune":{"key":"2402","name":"Härkingen","shortName":"Härkingen"},"district":{"key":"1101","name":"Bezirk Gäu"},"canton":{"key":"11","code":"SO","name":"Solothurn"},"status":"Real"},{"key":"10055087","name":"Hubel","postalCode":"4624","locality":"Härkingen","commune":{"key":"2402","name":"Härkingen","shortName":"Härkingen"},"district":{"key":"1101","name":"Bezirk Gäu"},"canton":{"key":"11","code":"SO","name":"Solothurn"},"status":"Real"},{"key":"10213114","name":"Hubelweg","postalCode":"4624","locality":"Härkingen","commune":{"key":"2402","name":"Härkingen","shortName":"Härkingen"},"district":{"key":"1101","name":"Bezirk Gäu"},"canton":{"key":"11","code":"SO","name":"Solothurn"},"status":"Real"},{"key":"10188255","name":"Im Egge","postalCode":"4624","locality":"Härkingen","commune":{"key":"2402","name":"Härkingen","shortName":"Härkingen"},"district":{"key":"1101","name":"Bezirk Gäu"},"canton":{"key":"11","code":"SO","name":"Solothurn"},"status":"Real"},{"key":"10114185","name":"Im Feld","postalCode":"4624","locality":"Härkingen","commune":{"key":"2402","name":"Härkingen","shortName":"Härkingen"},"district":{"key":"1101","name":"Bezirk Gäu"},"canton":{"key":"11","code":"SO","name":"Solothurn"},"status":"Real"},{"key":"10213117","name":"Im Grund","postalCode":"4624","locality":"Härkingen","commune":{"key":"2402","name":"Härkingen","shortName":"Härkingen"},"district":{"key":"1101","name":"Bezirk Gäu"},"canton":{"key":"11","code":"SO","name":"Solothurn"},"status":"Real"},{"key":"10134998","name":"Im Winkel","postalCode":"4624","locality":"Härkingen","commune":{"key":"2402","name":"Härkingen","shortName":"Härkingen"},"district":{"key":"1101","name":"Bezirk Gäu"},"canton":{"key":"11","code":"SO","name":"Solothurn"},"status":"Real"},{"key":"10212097","name":"Jägerweg","postalCode":"4624","locality":"Härkingen","commune":{"key":"2402","name":"Härkingen","shortName":"Härkingen"},"district":{"key":"1101","name":"Bezirk Gäu"},"canton":{"key":"11","code":"SO","name":"Solothurn"},"status":"Real"},{"key":"10194210","name":"Kirchweg","postalCode":"4624","locality":"Härkingen","commune":{"key":"2402","name":"Härkingen","shortName":"Härkingen"},"district":{"key":"1101","name":"Bezirk Gäu"},"canton":{"key":"11","code":"SO","name":"Solothurn"},"status":"Real"},{"key":"10213124","name":"Kriegeler","postalCode":"4624","locality":"Härkingen","commune":{"key":"2402","name":"Härkingen","shortName":"Härkingen"},"district":{"key":"1101","name":"Bezirk Gäu"},"canton":{"key":"11","code":"SO","name":"Solothurn"},"status":"Real"},{"key":"10022924","name":"Lammweg","postalCode":"4624","locality":"Härkingen","commune":{"key":"2402","name":"Härkingen","shortName":"Härkingen"},"district":{"key":"1101","name":"Bezirk Gäu"},"canton":{"key":"11","code":"SO","name":"Solothurn"},"status":"Real"},{"key":"10055371","name":"Länggasse","postalCode":"4624","locality":"Härkingen","commune":{"key":"2402","name":"Härkingen","shortName":"Härkingen"},"district":{"key":"1101","name":"Bezirk Gäu"},"canton":{"key":"11","code":"SO","name":"Solothurn"},"status":"Real"},{"key":"10213128","name":"Lärchenweg","postalCode":"4624","locality":"Härkingen","commune":{"key":"2402","name":"Härkingen","shortName":"Härkingen"},"district":{"key":"1101","name":"Bezirk Gäu"},"canton":{"key":"11","code":"SO","name":"Solothurn"},"status":"Real"},{"key":"10189127","name":"Lerchenbühl","postalCode":"4624","locality":"Härkingen","commune":{"key":"2402","name":"Härkingen","shortName":"Härkingen"},"district":{"key":"1101","name":"Bezirk Gäu"},"canton":{"key":"11","code":"SO","name":"Solothurn"},"status":"Real"},{"key":"10123601","name":"Lindenweg","postalCode":"4624","locality":"Härkingen","commune":{"key":"2402","name":"Härkingen","shortName":"Härkingen"},"district":{"key":"1101","name":"Bezirk Gäu"},"canton":{"key":"11","code":"SO","name":"Solothurn"},"status":"Real"},{"key":"10091954","name":"Lischmatt","postalCode":"4624","locality":"Härkingen","commune":{"key":"2402","name":"Härkingen","shortName":"Härkingen"},"district":{"key":"1101","name":"Bezirk Gäu"},"canton":{"key":"11","code":"SO","name":"Solothurn"},"status":"Real"},{"key":"10186283","name":"Lochgässli","postalCode":"4624","locality":"Härkingen","commune":{"key":"2402","name":"Härkingen","shortName":"Härkingen"},"district":{"key":"1101","name":"Bezirk Gäu"},"canton":{"key":"11","code":"SO","name":"Solothurn"},"status":"Real"},{"key":"10022925","name":"Lochmatten","postalCode":"4624","locality":"Härkingen","commune":{"key":"2402","name":"Härkingen","shortName":"Härkingen"},"district":{"key":"1101","name":"Bezirk Gäu"},"canton":{"key":"11","code":"SO","name":"Solothurn"},"status":"Real"},{"key":"10213132","name":"Mohnweg","postalCode":"4624","locality":"Härkingen","commune":{"key":"2402","name":"Härkingen","shortName":"Härkingen"},"district":{"key":"1101","name":"Bezirk Gäu"},"canton":{"key":"11","code":"SO","name":"Solothurn"},"status":"Real"},{"key":"10071547","name":"Nesslergraben","postalCode":"4624","locality":"Härkingen","commune":{"key":"2402","name":"Härkingen","shortName":"Härkingen"},"district":{"key":"1101","name":"Bezirk Gäu"},"canton":{"key":"11","code":"SO","name":"Solothurn"},"status":"Real"},{"key":"10091955","name":"Neuendörferstrasse","postalCode":"4624","locality":"Härkingen","commune":{"key":"2402","name":"Härkingen","shortName":"Härkingen"},"district":{"key":"1101","name":"Bezirk Gäu"},"canton":{"key":"11","code":"SO","name":"Solothurn"},"status":"Real"},{"key":"10213135","name":"Neuweg","postalCode":"4624","locality":"Härkingen","commune":{"key":"2402","name":"Härkingen","shortName":"Härkingen"},"district":{"key":"1101","name":"Bezirk Gäu"},"canton":{"key":"11","code":"SO","name":"Solothurn"},"status":"Real"},{"key":"10213138","name":"Oberer Fulenbachergrenzweg","postalCode":"4624","locality":"Härkingen","commune":{"key":"2402","name":"Härkingen","shortName":"Härkingen"},"district":{"key":"1101","name":"Bezirk Gäu"},"canton":{"key":"11","code":"SO","name":"Solothurn"},"status":"Real"},{"key":"10123602","name":"Pfannenstiel","postalCode":"4624","locality":"Härkingen","commune":{"key":"2402","name":"Härkingen","shortName":"Härkingen"},"district":{"key":"1101","name":"Bezirk Gäu"},"canton":{"key":"11","code":"SO","name":"Solothurn"},"status":"Real"},{"key":"10055372","name":"Postweg","postalCode":"4624","locality":"Härkingen","commune":{"key":"2402","name":"Härkingen","shortName":"Härkingen"},"district":{"key":"1101","name":"Bezirk Gäu"},"canton":{"key":"11","code":"SO","name":"Solothurn"},"status":"Real"},{"key":"10022926","name":"Rainweg","postalCode":"4624","locality":"Härkingen","commune":{"key":"2402","name":"Härkingen","shortName":"Härkingen"},"district":{"key":"1101","name":"Bezirk Gäu"},"canton":{"key":"11","code":"SO","name":"Solothurn"},"status":"Real"},{"key":"10213142","name":"Ringweg","postalCode":"4624","locality":"Härkingen","commune":{"key":"2402","name":"Härkingen","shortName":"Härkingen"},"district":{"key":"1101","name":"Bezirk Gäu"},"canton":{"key":"11","code":"SO","name":"Solothurn"},"status":"Real"},{"key":"10115800","name":"Risweg","postalCode":"4624","locality":"Härkingen","commune":{"key":"2402","name":"Härkingen","shortName":"Härkingen"},"district":{"key":"1101","name":"Bezirk Gäu"},"canton":{"key":"11","code":"SO","name":"Solothurn"},"status":"Real"},{"key":"10122066","name":"Römerweg","postalCode":"4624","locality":"Härkingen","commune":{"key":"2402","name":"Härkingen","shortName":"Härkingen"},"district":{"key":"1101","name":"Bezirk Gäu"},"canton":{"key":"11","code":"SO","name":"Solothurn"},"status":"Real"},{"key":"10136809","name":"Rosenweg","postalCode":"4624","locality":"Härkingen","commune":{"key":"2402","name":"Härkingen","shortName":"Härkingen"},"district":{"key":"1101","name":"Bezirk Gäu"},"canton":{"key":"11","code":"SO","name":"Solothurn"},"status":"Real"},{"key":"10071548","name":"Rüebliweg","postalCode":"4624","locality":"Härkingen","commune":{"key":"2402","name":"Härkingen","shortName":"Härkingen"},"district":{"key":"1101","name":"Bezirk Gäu"},"canton":{"key":"11","code":"SO","name":"Solothurn"},"status":"Real"},{"key":"10158710","name":"Russmatten","postalCode":"4624","locality":"Härkingen","commune":{"key":"2402","name":"Härkingen","shortName":"Härkingen"},"district":{"key":"1101","name":"Bezirk Gäu"},"canton":{"key":"11","code":"SO","name":"Solothurn"},"status":"Real"},{"key":"10133409","name":"Russmattenstich","postalCode":"4624","locality":"Härkingen","commune":{"key":"2402","name":"Härkingen","shortName":"Härkingen"},"district":{"key":"1101","name":"Bezirk Gäu"},"canton":{"key":"11","code":"SO","name":"Solothurn"},"status":"Real"},{"key":"10213146","name":"Russmattring","postalCode":"4624","locality":"Härkingen","commune":{"key":"2402","name":"Härkingen","shortName":"Härkingen"},"district":{"key":"1101","name":"Bezirk Gäu"},"canton":{"key":"11","code":"SO","name":"Solothurn"},"status":"Real"},{"key":"10213150","name":"Rüttirandweg","postalCode":"4624","locality":"Härkingen","commune":{"key":"2402","name":"Härkingen","shortName":"Härkingen"},"district":{"key":"1101","name":"Bezirk Gäu"},"canton":{"key":"11","code":"SO","name":"Solothurn"},"status":"Real"},{"key":"10213153","name":"Rüttiweg","postalCode":"4624","locality":"Härkingen","commune":{"key":"2402","name":"Härkingen","shortName":"Härkingen"},"district":{"key":"1101","name":"Bezirk Gäu"},"canton":{"key":"11","code":"SO","name":"Solothurn"},"status":"Real"},{"key":"10022927","name":"Schlossrain","postalCode":"4624","locality":"Härkingen","commune":{"key":"2402","name":"Härkingen","shortName":"Härkingen"},"district":{"key":"1101","name":"Bezirk Gäu"},"canton":{"key":"11","code":"SO","name":"Solothurn"},"status":"Real"},{"key":"10022928","name":"Schützenweg","postalCode":"4624","locality":"Härkingen","commune":{"key":"2402","name":"Härkingen","shortName":"Härkingen"},"district":{"key":"1101","name":"Bezirk Gäu"},"canton":{"key":"11","code":"SO","name":"Solothurn"},"status":"Real"},{"key":"10213161","name":"Steinrisi","postalCode":"4624","locality":"Härkingen","commune":{"key":"2402","name":"Härkingen","shortName":"Härkingen"},"district":{"key":"1101","name":"Bezirk Gäu"},"canton":{"key":"11","code":"SO","name":"Solothurn"},"status":"Real"},{"key":"10213165","name":"Stelzmatt","postalCode":"4624","locality":"Härkingen","commune":{"key":"2402","name":"Härkingen","shortName":"Härkingen"},"district":{"key":"1101","name":"Bezirk Gäu"},"canton":{"key":"11","code":"SO","name":"Solothurn"},"status":"Real"},{"key":"10213157","name":"St. Johann","postalCode":"4624","locality":"Härkingen","commune":{"key":"2402","name":"Härkingen","shortName":"Härkingen"},"district":{"key":"1101","name":"Bezirk Gäu"},"canton":{"key":"11","code":"SO","name":"Solothurn"},"status":"Real"},{"key":"10213169","name":"Stöckacker","postalCode":"4624","locality":"Härkingen","commune":{"key":"2402","name":"Härkingen","shortName":"Härkingen"},"district":{"key":"1101","name":"Bezirk Gäu"},"canton":{"key":"11","code":"SO","name":"Solothurn"},"status":"Real"},{"key":"10213173","name":"Storchenweg","postalCode":"4624","locality":"Härkingen","commune":{"key":"2402","name":"Härkingen","shortName":"Härkingen"},"district":{"key":"1101","name":"Bezirk Gäu"},"canton":{"key":"11","code":"SO","name":"Solothurn"},"status":"Real"},{"key":"10213177","name":"Studerweg","postalCode":"4624","locality":"Härkingen","commune":{"key":"2402","name":"Härkingen","shortName":"Härkingen"},"district":{"key":"1101","name":"Bezirk Gäu"},"canton":{"key":"11","code":"SO","name":"Solothurn"},"status":"Real"},{"key":"10091770","name":"Teuffelerweg","postalCode":"4624","locality":"Härkingen","commune":{"key":"2402","name":"Härkingen","shortName":"Härkingen"},"district":{"key":"1101","name":"Bezirk Gäu"},"canton":{"key":"11","code":"SO","name":"Solothurn"},"status":"Real"},{"key":"10149723","name":"Untere Allmend","postalCode":"4624","locality":"Härkingen","commune":{"key":"2402","name":"Härkingen","shortName":"Härkingen"},"district":{"key":"1101","name":"Bezirk Gäu"},"canton":{"key":"11","code":"SO","name":"Solothurn"},"status":"Real"},{"key":"10213181","name":"Unterer Fulenbachergrenzweg","postalCode":"4624","locality":"Härkingen","commune":{"key":"2402","name":"Härkingen","shortName":"Härkingen"},"district":{"key":"1101","name":"Bezirk Gäu"},"canton":{"key":"11","code":"SO","name":"Solothurn"},"status":"Real"},{"key":"10186284","name":"Usserdorf","postalCode":"4624","locality":"Härkingen","commune":{"key":"2402","name":"Härkingen","shortName":"Härkingen"},"district":{"key":"1101","name":"Bezirk Gäu"},"canton":{"key":"11","code":"SO","name":"Solothurn"},"status":"Real"},{"key":"10104426","name":"Wachtelweg","postalCode":"4624","locality":"Härkingen","commune":{"key":"2402","name":"Härkingen","shortName":"Härkingen"},"district":{"key":"1101","name":"Bezirk Gäu"},"canton":{"key":"11","code":"SO","name":"Solothurn"},"status":"Real"},{"key":"10213186","name":"Wasserlochweg","postalCode":"4624","locality":"Härkingen","commune":{"key":"2402","name":"Härkingen","shortName":"Härkingen"},"district":{"key":"1101","name":"Bezirk Gäu"},"canton":{"key":"11","code":"SO","name":"Solothurn"},"status":"Real"},{"key":"10213190","name":"Welschmatt","postalCode":"4624","locality":"Härkingen","commune":{"key":"2402","name":"Härkingen","shortName":"Härkingen"},"district":{"key":"1101","name":"Bezirk Gäu"},"canton":{"key":"11","code":"SO","name":"Solothurn"},"status":"Real"},{"key":"10091956","name":"Wolfwilerweg","postalCode":"4624","locality":"Härkingen","commune":{"key":"2402","name":"Härkingen","shortName":"Härkingen"},"district":{"key":"1101","name":"Bezirk Gäu"},"canton":{"key":"11","code":"SO","name":"Solothurn"},"status":"Real"},]