[{"key":"10172874","name":"Chemin de la Pouette","postalCode":"1356","locality":"Les Clées","commune":{"key":"5750","name":"Les Clées","shortName":"Les Clées"},"district":{"key":"2224","name":"District du Jura-Nord vaudois"},"canton":{"key":"22","code":"VD","name":"Vaud"},"status":"Real"},{"key":"10246703","name":"Crêt Blanc","postalCode":"1356","locality":"Les Clées","commune":{"key":"5750","name":"Les Clées","shortName":"Les Clées"},"district":{"key":"2224","name":"District du Jura-Nord vaudois"},"canton":{"key":"22","code":"VD","name":"Vaud"},"status":"Real"},{"key":"10167819","name":"Impasse du Château","postalCode":"1356","locality":"Les Clées","commune":{"key":"5750","name":"Les Clées","shortName":"Les Clées"},"district":{"key":"2224","name":"District du Jura-Nord vaudois"},"canton":{"key":"22","code":"VD","name":"Vaud"},"status":"Real"},{"key":"10174305","name":"La Marjolaine","postalCode":"1356","locality":"Les Clées","commune":{"key":"5750","name":"Les Clées","shortName":"Les Clées"},"district":{"key":"2224","name":"District du Jura-Nord vaudois"},"canton":{"key":"22","code":"VD","name":"Vaud"},"status":"Real"},{"key":"10167557","name":"Le Château","postalCode":"1356","locality":"Les Clées","commune":{"key":"5750","name":"Les Clées","shortName":"Les Clées"},"district":{"key":"2224","name":"District du Jura-Nord vaudois"},"canton":{"key":"22","code":"VD","name":"Vaud"},"status":"Real"},{"key":"10183547","name":"Les Crosets","postalCode":"1356","locality":"Les Clées","commune":{"key":"5750","name":"Les Clées","shortName":"Les Clées"},"district":{"key":"2224","name":"District du Jura-Nord vaudois"},"canton":{"key":"22","code":"VD","name":"Vaud"},"status":"Real"},{"key":"10175083","name":"Les Pontets","postalCode":"1356","locality":"Les Clées","commune":{"key":"5750","name":"Les Clées","shortName":"Les Clées"},"district":{"key":"2224","name":"District du Jura-Nord vaudois"},"canton":{"key":"22","code":"VD","name":"Vaud"},"status":"Real"},{"key":"10167821","name":"Le Tillot","postalCode":"1356","locality":"Les Clées","commune":{"key":"5750","name":"Les Clées","shortName":"Les Clées"},"district":{"key":"2224","name":"District du Jura-Nord vaudois"},"canton":{"key":"22","code":"VD","name":"Vaud"},"status":"Real"},{"key":"10172875","name":"Place de la Ville","postalCode":"1356","locality":"Les Clées","commune":{"key":"5750","name":"Les Clées","shortName":"Les Clées"},"district":{"key":"2224","name":"District du Jura-Nord vaudois"},"canton":{"key":"22","code":"VD","name":"Vaud"},"status":"Real"},{"key":"10167558","name":"Vers la Scie","postalCode":"1356","locality":"Les Clées","commune":{"key":"5750","name":"Les Clées","shortName":"Les Clées"},"district":{"key":"2224","name":"District du Jura-Nord vaudois"},"canton":{"key":"22","code":"VD","name":"Vaud"},"status":"Real"},{"key":"10040917","name":"Vers-le-Pont","postalCode":"1356","locality":"Les Clées","commune":{"key":"5750","name":"Les Clées","shortName":"Les Clées"},"district":{"key":"2224","name":"District du Jura-Nord vaudois"},"canton":{"key":"22","code":"VD","name":"Vaud"},"status":"Real"},]