[{"name":"Ahornweg","postalCode":"83567","locality":"Unterreit","municipality":{"key":"09183147","name":"Unterreit","type":"Kreisangehörige_Gemeinde"},"district":{"key":"09183","name":"Mühldorf a.Inn","type":"Landkreis"},"federalState":{"key":"09","name":"Bayern"}},{"name":"Am Haselnussberg","postalCode":"83567","locality":"Unterreit","municipality":{"key":"09183147","name":"Unterreit","type":"Kreisangehörige_Gemeinde"},"district":{"key":"09183","name":"Mühldorf a.Inn","type":"Landkreis"},"federalState":{"key":"09","name":"Bayern"}},{"name":"Am Rathaus","postalCode":"83567","locality":"Unterreit","municipality":{"key":"09183147","name":"Unterreit","type":"Kreisangehörige_Gemeinde"},"district":{"key":"09183","name":"Mühldorf a.Inn","type":"Landkreis"},"federalState":{"key":"09","name":"Bayern"}},{"name":"Au im Wald","postalCode":"83567","locality":"Unterreit","municipality":{"key":"09183147","name":"Unterreit","type":"Kreisangehörige_Gemeinde"},"district":{"key":"09183","name":"Mühldorf a.Inn","type":"Landkreis"},"federalState":{"key":"09","name":"Bayern"}},{"name":"Birkenweg","postalCode":"83567","locality":"Unterreit","municipality":{"key":"09183147","name":"Unterreit","type":"Kreisangehörige_Gemeinde"},"district":{"key":"09183","name":"Mühldorf a.Inn","type":"Landkreis"},"federalState":{"key":"09","name":"Bayern"}},{"name":"Eichenweg","postalCode":"83567","locality":"Unterreit","municipality":{"key":"09183147","name":"Unterreit","type":"Kreisangehörige_Gemeinde"},"district":{"key":"09183","name":"Mühldorf a.Inn","type":"Landkreis"},"federalState":{"key":"09","name":"Bayern"}},{"name":"Einharting","postalCode":"83567","locality":"Unterreit","municipality":{"key":"09183147","name":"Unterreit","type":"Kreisangehörige_Gemeinde"},"district":{"key":"09183","name":"Mühldorf a.Inn","type":"Landkreis"},"federalState":{"key":"09","name":"Bayern"}},{"name":"Hauptstr.","postalCode":"83567","locality":"Unterreit","municipality":{"key":"09183147","name":"Unterreit","type":"Kreisangehörige_Gemeinde"},"district":{"key":"09183","name":"Mühldorf a.Inn","type":"Landkreis"},"federalState":{"key":"09","name":"Bayern"}},{"name":"Hochleiten","postalCode":"83567","locality":"Unterreit","municipality":{"key":"09183147","name":"Unterreit","type":"Kreisangehörige_Gemeinde"},"district":{"key":"09183","name":"Mühldorf a.Inn","type":"Landkreis"},"federalState":{"key":"09","name":"Bayern"}},{"name":"Hub","postalCode":"83567","locality":"Unterreit","municipality":{"key":"09183147","name":"Unterreit","type":"Kreisangehörige_Gemeinde"},"district":{"key":"09183","name":"Mühldorf a.Inn","type":"Landkreis"},"federalState":{"key":"09","name":"Bayern"}},{"name":"Kiefernweg","postalCode":"83567","locality":"Unterreit","municipality":{"key":"09183147","name":"Unterreit","type":"Kreisangehörige_Gemeinde"},"district":{"key":"09183","name":"Mühldorf a.Inn","type":"Landkreis"},"federalState":{"key":"09","name":"Bayern"}},{"name":"Klosterweg","postalCode":"83567","locality":"Unterreit","municipality":{"key":"09183147","name":"Unterreit","type":"Kreisangehörige_Gemeinde"},"district":{"key":"09183","name":"Mühldorf a.Inn","type":"Landkreis"},"federalState":{"key":"09","name":"Bayern"}},{"name":"Krabbeltunnel","postalCode":"83567","locality":"Unterreit","municipality":{"key":"09183147","name":"Unterreit","type":"Kreisangehörige_Gemeinde"},"district":{"key":"09183","name":"Mühldorf a.Inn","type":"Landkreis"},"federalState":{"key":"09","name":"Bayern"}},{"name":"Lärchenweg","postalCode":"83567","locality":"Unterreit","municipality":{"key":"09183147","name":"Unterreit","type":"Kreisangehörige_Gemeinde"},"district":{"key":"09183","name":"Mühldorf a.Inn","type":"Landkreis"},"federalState":{"key":"09","name":"Bayern"}},{"name":"Lindenweg","postalCode":"83567","locality":"Unterreit","municipality":{"key":"09183147","name":"Unterreit","type":"Kreisangehörige_Gemeinde"},"district":{"key":"09183","name":"Mühldorf a.Inn","type":"Landkreis"},"federalState":{"key":"09","name":"Bayern"}},{"name":"Steinbichl","postalCode":"83567","locality":"Unterreit","municipality":{"key":"09183147","name":"Unterreit","type":"Kreisangehörige_Gemeinde"},"district":{"key":"09183","name":"Mühldorf a.Inn","type":"Landkreis"},"federalState":{"key":"09","name":"Bayern"}},{"name":"Wang","postalCode":"83567","locality":"Unterreit","municipality":{"key":"09183147","name":"Unterreit","type":"Kreisangehörige_Gemeinde"},"district":{"key":"09183","name":"Mühldorf a.Inn","type":"Landkreis"},"federalState":{"key":"09","name":"Bayern"}},{"name":"Wanger Str.","postalCode":"83567","locality":"Unterreit","municipality":{"key":"09183147","name":"Unterreit","type":"Kreisangehörige_Gemeinde"},"district":{"key":"09183","name":"Mühldorf a.Inn","type":"Landkreis"},"federalState":{"key":"09","name":"Bayern"}},{"name":"Wasserburger Str.","postalCode":"83567","locality":"Unterreit","municipality":{"key":"09183147","name":"Unterreit","type":"Kreisangehörige_Gemeinde"},"district":{"key":"09183","name":"Mühldorf a.Inn","type":"Landkreis"},"federalState":{"key":"09","name":"Bayern"}},{"name":"Westen","postalCode":"83567","locality":"Unterreit","municipality":{"key":"09183147","name":"Unterreit","type":"Kreisangehörige_Gemeinde"},"district":{"key":"09183","name":"Mühldorf a.Inn","type":"Landkreis"},"federalState":{"key":"09","name":"Bayern"}},{"name":"Ägidiusweg","postalCode":"83567","locality":"Unterreit","municipality":{"key":"09183147","name":"Unterreit","type":"Kreisangehörige_Gemeinde"},"district":{"key":"09183","name":"Mühldorf a.Inn","type":"Landkreis"},"federalState":{"key":"09","name":"Bayern"}},]