[{"name":"Am Büschele","postalCode":"07907","locality":"Oettersdorf","municipality":{"key":"16075076","name":"Oettersdorf","type":"Kreisangehörige_Gemeinde"},"district":{"key":"16075","name":"Saale-Orla-Kreis","type":"Landkreis"},"federalState":{"key":"16","name":"Thüringen"}},{"name":"Am Sportplatz","postalCode":"07907","locality":"Oettersdorf","municipality":{"key":"16075076","name":"Oettersdorf","type":"Kreisangehörige_Gemeinde"},"district":{"key":"16075","name":"Saale-Orla-Kreis","type":"Landkreis"},"federalState":{"key":"16","name":"Thüringen"}},{"name":"Am Teich","postalCode":"07907","locality":"Oettersdorf","municipality":{"key":"16075076","name":"Oettersdorf","type":"Kreisangehörige_Gemeinde"},"district":{"key":"16075","name":"Saale-Orla-Kreis","type":"Landkreis"},"federalState":{"key":"16","name":"Thüringen"}},{"name":"Anger","postalCode":"07907","locality":"Oettersdorf","municipality":{"key":"16075076","name":"Oettersdorf","type":"Kreisangehörige_Gemeinde"},"district":{"key":"16075","name":"Saale-Orla-Kreis","type":"Landkreis"},"federalState":{"key":"16","name":"Thüringen"}},{"name":"Beundenweg","postalCode":"07907","locality":"Oettersdorf","municipality":{"key":"16075076","name":"Oettersdorf","type":"Kreisangehörige_Gemeinde"},"district":{"key":"16075","name":"Saale-Orla-Kreis","type":"Landkreis"},"federalState":{"key":"16","name":"Thüringen"}},{"name":"Florian-Geyer-Siedlung","postalCode":"07907","locality":"Oettersdorf","municipality":{"key":"16075076","name":"Oettersdorf","type":"Kreisangehörige_Gemeinde"},"district":{"key":"16075","name":"Saale-Orla-Kreis","type":"Landkreis"},"federalState":{"key":"16","name":"Thüringen"}},{"name":"Görkwitzer Weg","postalCode":"07907","locality":"Oettersdorf","municipality":{"key":"16075076","name":"Oettersdorf","type":"Kreisangehörige_Gemeinde"},"district":{"key":"16075","name":"Saale-Orla-Kreis","type":"Landkreis"},"federalState":{"key":"16","name":"Thüringen"}},{"name":"Holzmühle","postalCode":"07907","locality":"Oettersdorf","municipality":{"key":"16075076","name":"Oettersdorf","type":"Kreisangehörige_Gemeinde"},"district":{"key":"16075","name":"Saale-Orla-Kreis","type":"Landkreis"},"federalState":{"key":"16","name":"Thüringen"}},{"name":"Lindenweg","postalCode":"07907","locality":"Oettersdorf","municipality":{"key":"16075076","name":"Oettersdorf","type":"Kreisangehörige_Gemeinde"},"district":{"key":"16075","name":"Saale-Orla-Kreis","type":"Landkreis"},"federalState":{"key":"16","name":"Thüringen"}},{"name":"Löhmaer Weg","postalCode":"07907","locality":"Oettersdorf","municipality":{"key":"16075076","name":"Oettersdorf","type":"Kreisangehörige_Gemeinde"},"district":{"key":"16075","name":"Saale-Orla-Kreis","type":"Landkreis"},"federalState":{"key":"16","name":"Thüringen"}},{"name":"Nordstr.","postalCode":"07907","locality":"Oettersdorf","municipality":{"key":"16075076","name":"Oettersdorf","type":"Kreisangehörige_Gemeinde"},"district":{"key":"16075","name":"Saale-Orla-Kreis","type":"Landkreis"},"federalState":{"key":"16","name":"Thüringen"}},{"name":"Pörmitzer Weg","postalCode":"07907","locality":"Oettersdorf","municipality":{"key":"16075076","name":"Oettersdorf","type":"Kreisangehörige_Gemeinde"},"district":{"key":"16075","name":"Saale-Orla-Kreis","type":"Landkreis"},"federalState":{"key":"16","name":"Thüringen"}},{"name":"Schleizer Str.","postalCode":"07907","locality":"Oettersdorf","municipality":{"key":"16075076","name":"Oettersdorf","type":"Kreisangehörige_Gemeinde"},"district":{"key":"16075","name":"Saale-Orla-Kreis","type":"Landkreis"},"federalState":{"key":"16","name":"Thüringen"}},{"name":"Triemsdorf","postalCode":"07907","locality":"Oettersdorf","municipality":{"key":"16075076","name":"Oettersdorf","type":"Kreisangehörige_Gemeinde"},"district":{"key":"16075","name":"Saale-Orla-Kreis","type":"Landkreis"},"federalState":{"key":"16","name":"Thüringen"}},{"name":"Werner-Seelenbinder-Str.","postalCode":"07907","locality":"Oettersdorf","municipality":{"key":"16075076","name":"Oettersdorf","type":"Kreisangehörige_Gemeinde"},"district":{"key":"16075","name":"Saale-Orla-Kreis","type":"Landkreis"},"federalState":{"key":"16","name":"Thüringen"}},{"name":"Wiesenstr.","postalCode":"07907","locality":"Oettersdorf","municipality":{"key":"16075076","name":"Oettersdorf","type":"Kreisangehörige_Gemeinde"},"district":{"key":"16075","name":"Saale-Orla-Kreis","type":"Landkreis"},"federalState":{"key":"16","name":"Thüringen"}},{"name":"Ziegelei","postalCode":"07907","locality":"Oettersdorf","municipality":{"key":"16075076","name":"Oettersdorf","type":"Kreisangehörige_Gemeinde"},"district":{"key":"16075","name":"Saale-Orla-Kreis","type":"Landkreis"},"federalState":{"key":"16","name":"Thüringen"}},]