[{"name":"Alte Str.","postalCode":"95195","locality":"Röslau","municipality":{"key":"09479145","name":"Röslau","type":"Kreisangehörige_Gemeinde"},"district":{"key":"09479","name":"Wunsiedel i.Fichtelgebirge","type":"Landkreis"},"federalState":{"key":"09","name":"Bayern"}},{"name":"Am Dieserbach","postalCode":"95195","locality":"Röslau","municipality":{"key":"09479145","name":"Röslau","type":"Kreisangehörige_Gemeinde"},"district":{"key":"09479","name":"Wunsiedel i.Fichtelgebirge","type":"Landkreis"},"federalState":{"key":"09","name":"Bayern"}},{"name":"Am Hopfen","postalCode":"95195","locality":"Röslau","municipality":{"key":"09479145","name":"Röslau","type":"Kreisangehörige_Gemeinde"},"district":{"key":"09479","name":"Wunsiedel i.Fichtelgebirge","type":"Landkreis"},"federalState":{"key":"09","name":"Bayern"}},{"name":"Am Industriepark","postalCode":"95195","locality":"Röslau","municipality":{"key":"09479145","name":"Röslau","type":"Kreisangehörige_Gemeinde"},"district":{"key":"09479","name":"Wunsiedel i.Fichtelgebirge","type":"Landkreis"},"federalState":{"key":"09","name":"Bayern"}},{"name":"Am Mühlgraben","postalCode":"95195","locality":"Röslau","municipality":{"key":"09479145","name":"Röslau","type":"Kreisangehörige_Gemeinde"},"district":{"key":"09479","name":"Wunsiedel i.Fichtelgebirge","type":"Landkreis"},"federalState":{"key":"09","name":"Bayern"}},{"name":"Am Pfarrweiher","postalCode":"95195","locality":"Röslau","municipality":{"key":"09479145","name":"Röslau","type":"Kreisangehörige_Gemeinde"},"district":{"key":"09479","name":"Wunsiedel i.Fichtelgebirge","type":"Landkreis"},"federalState":{"key":"09","name":"Bayern"}},{"name":"Am Rotholz","postalCode":"95195","locality":"Röslau","municipality":{"key":"09479145","name":"Röslau","type":"Kreisangehörige_Gemeinde"},"district":{"key":"09479","name":"Wunsiedel i.Fichtelgebirge","type":"Landkreis"},"federalState":{"key":"09","name":"Bayern"}},{"name":"Anger","postalCode":"95195","locality":"Röslau","municipality":{"key":"09479145","name":"Röslau","type":"Kreisangehörige_Gemeinde"},"district":{"key":"09479","name":"Wunsiedel i.Fichtelgebirge","type":"Landkreis"},"federalState":{"key":"09","name":"Bayern"}},{"name":"Asternstr.","postalCode":"95195","locality":"Röslau","municipality":{"key":"09479145","name":"Röslau","type":"Kreisangehörige_Gemeinde"},"district":{"key":"09479","name":"Wunsiedel i.Fichtelgebirge","type":"Landkreis"},"federalState":{"key":"09","name":"Bayern"}},{"name":"Bahnhofstr.","postalCode":"95195","locality":"Röslau","municipality":{"key":"09479145","name":"Röslau","type":"Kreisangehörige_Gemeinde"},"district":{"key":"09479","name":"Wunsiedel i.Fichtelgebirge","type":"Landkreis"},"federalState":{"key":"09","name":"Bayern"}},{"name":"Bergstr.","postalCode":"95195","locality":"Röslau","municipality":{"key":"09479145","name":"Röslau","type":"Kreisangehörige_Gemeinde"},"district":{"key":"09479","name":"Wunsiedel i.Fichtelgebirge","type":"Landkreis"},"federalState":{"key":"09","name":"Bayern"}},{"name":"Bibersbach","postalCode":"95195","locality":"Röslau","municipality":{"key":"09479145","name":"Röslau","type":"Kreisangehörige_Gemeinde"},"district":{"key":"09479","name":"Wunsiedel i.Fichtelgebirge","type":"Landkreis"},"federalState":{"key":"09","name":"Bayern"}},{"name":"Blumenstr.","postalCode":"95195","locality":"Röslau","municipality":{"key":"09479145","name":"Röslau","type":"Kreisangehörige_Gemeinde"},"district":{"key":"09479","name":"Wunsiedel i.Fichtelgebirge","type":"Landkreis"},"federalState":{"key":"09","name":"Bayern"}},{"name":"Bödlas","postalCode":"95195","locality":"Röslau","municipality":{"key":"09479145","name":"Röslau","type":"Kreisangehörige_Gemeinde"},"district":{"key":"09479","name":"Wunsiedel i.Fichtelgebirge","type":"Landkreis"},"federalState":{"key":"09","name":"Bayern"}},{"name":"Brückenstr.","postalCode":"95195","locality":"Röslau","municipality":{"key":"09479145","name":"Röslau","type":"Kreisangehörige_Gemeinde"},"district":{"key":"09479","name":"Wunsiedel i.Fichtelgebirge","type":"Landkreis"},"federalState":{"key":"09","name":"Bayern"}},{"name":"Dahlienstr.","postalCode":"95195","locality":"Röslau","municipality":{"key":"09479145","name":"Röslau","type":"Kreisangehörige_Gemeinde"},"district":{"key":"09479","name":"Wunsiedel i.Fichtelgebirge","type":"Landkreis"},"federalState":{"key":"09","name":"Bayern"}},{"name":"Dammstr.","postalCode":"95195","locality":"Röslau","municipality":{"key":"09479145","name":"Röslau","type":"Kreisangehörige_Gemeinde"},"district":{"key":"09479","name":"Wunsiedel i.Fichtelgebirge","type":"Landkreis"},"federalState":{"key":"09","name":"Bayern"}},{"name":"Dürnberg","postalCode":"95195","locality":"Röslau","municipality":{"key":"09479145","name":"Röslau","type":"Kreisangehörige_Gemeinde"},"district":{"key":"09479","name":"Wunsiedel i.Fichtelgebirge","type":"Landkreis"},"federalState":{"key":"09","name":"Bayern"}},{"name":"Ebertstr.","postalCode":"95195","locality":"Röslau","municipality":{"key":"09479145","name":"Röslau","type":"Kreisangehörige_Gemeinde"},"district":{"key":"09479","name":"Wunsiedel i.Fichtelgebirge","type":"Landkreis"},"federalState":{"key":"09","name":"Bayern"}},{"name":"Egerstr.","postalCode":"95195","locality":"Röslau","municipality":{"key":"09479145","name":"Röslau","type":"Kreisangehörige_Gemeinde"},"district":{"key":"09479","name":"Wunsiedel i.Fichtelgebirge","type":"Landkreis"},"federalState":{"key":"09","name":"Bayern"}},{"name":"Eisnerstr.","postalCode":"95195","locality":"Röslau","municipality":{"key":"09479145","name":"Röslau","type":"Kreisangehörige_Gemeinde"},"district":{"key":"09479","name":"Wunsiedel i.Fichtelgebirge","type":"Landkreis"},"federalState":{"key":"09","name":"Bayern"}},{"name":"Erlenweg","postalCode":"95195","locality":"Röslau","municipality":{"key":"09479145","name":"Röslau","type":"Kreisangehörige_Gemeinde"},"district":{"key":"09479","name":"Wunsiedel i.Fichtelgebirge","type":"Landkreis"},"federalState":{"key":"09","name":"Bayern"}},{"name":"Fliederstr.","postalCode":"95195","locality":"Röslau","municipality":{"key":"09479145","name":"Röslau","type":"Kreisangehörige_Gemeinde"},"district":{"key":"09479","name":"Wunsiedel i.Fichtelgebirge","type":"Landkreis"},"federalState":{"key":"09","name":"Bayern"}},{"name":"Gartenstr.","postalCode":"95195","locality":"Röslau","municipality":{"key":"09479145","name":"Röslau","type":"Kreisangehörige_Gemeinde"},"district":{"key":"09479","name":"Wunsiedel i.Fichtelgebirge","type":"Landkreis"},"federalState":{"key":"09","name":"Bayern"}},{"name":"Gebrüder-Bongard-Str.","postalCode":"95195","locality":"Röslau","municipality":{"key":"09479145","name":"Röslau","type":"Kreisangehörige_Gemeinde"},"district":{"key":"09479","name":"Wunsiedel i.Fichtelgebirge","type":"Landkreis"},"federalState":{"key":"09","name":"Bayern"}},{"name":"Grün","postalCode":"95195","locality":"Röslau","municipality":{"key":"09479145","name":"Röslau","type":"Kreisangehörige_Gemeinde"},"district":{"key":"09479","name":"Wunsiedel i.Fichtelgebirge","type":"Landkreis"},"federalState":{"key":"09","name":"Bayern"}},{"name":"Hans-Widmann-Str.","postalCode":"95195","locality":"Röslau","municipality":{"key":"09479145","name":"Röslau","type":"Kreisangehörige_Gemeinde"},"district":{"key":"09479","name":"Wunsiedel i.Fichtelgebirge","type":"Landkreis"},"federalState":{"key":"09","name":"Bayern"}},{"name":"Hauenstein","postalCode":"95195","locality":"Röslau","municipality":{"key":"09479145","name":"Röslau","type":"Kreisangehörige_Gemeinde"},"district":{"key":"09479","name":"Wunsiedel i.Fichtelgebirge","type":"Landkreis"},"federalState":{"key":"09","name":"Bayern"}},{"name":"Hauptstr.","postalCode":"95195","locality":"Röslau","municipality":{"key":"09479145","name":"Röslau","type":"Kreisangehörige_Gemeinde"},"district":{"key":"09479","name":"Wunsiedel i.Fichtelgebirge","type":"Landkreis"},"federalState":{"key":"09","name":"Bayern"}},{"name":"Heimstättenstr.","postalCode":"95195","locality":"Röslau","municipality":{"key":"09479145","name":"Röslau","type":"Kreisangehörige_Gemeinde"},"district":{"key":"09479","name":"Wunsiedel i.Fichtelgebirge","type":"Landkreis"},"federalState":{"key":"09","name":"Bayern"}},{"name":"Hirtbergstr.","postalCode":"95195","locality":"Röslau","municipality":{"key":"09479145","name":"Röslau","type":"Kreisangehörige_Gemeinde"},"district":{"key":"09479","name":"Wunsiedel i.Fichtelgebirge","type":"Landkreis"},"federalState":{"key":"09","name":"Bayern"}},{"name":"Hofer Str.","postalCode":"95195","locality":"Röslau","municipality":{"key":"09479145","name":"Röslau","type":"Kreisangehörige_Gemeinde"},"district":{"key":"09479","name":"Wunsiedel i.Fichtelgebirge","type":"Landkreis"},"federalState":{"key":"09","name":"Bayern"}},{"name":"Johannesstr.","postalCode":"95195","locality":"Röslau","municipality":{"key":"09479145","name":"Röslau","type":"Kreisangehörige_Gemeinde"},"district":{"key":"09479","name":"Wunsiedel i.Fichtelgebirge","type":"Landkreis"},"federalState":{"key":"09","name":"Bayern"}},{"name":"Kirchberg","postalCode":"95195","locality":"Röslau","municipality":{"key":"09479145","name":"Röslau","type":"Kreisangehörige_Gemeinde"},"district":{"key":"09479","name":"Wunsiedel i.Fichtelgebirge","type":"Landkreis"},"federalState":{"key":"09","name":"Bayern"}},{"name":"Kirchgasse","postalCode":"95195","locality":"Röslau","municipality":{"key":"09479145","name":"Röslau","type":"Kreisangehörige_Gemeinde"},"district":{"key":"09479","name":"Wunsiedel i.Fichtelgebirge","type":"Landkreis"},"federalState":{"key":"09","name":"Bayern"}},{"name":"Lindenstr.","postalCode":"95195","locality":"Röslau","municipality":{"key":"09479145","name":"Röslau","type":"Kreisangehörige_Gemeinde"},"district":{"key":"09479","name":"Wunsiedel i.Fichtelgebirge","type":"Landkreis"},"federalState":{"key":"09","name":"Bayern"}},{"name":"Ludwigsfelder Str.","postalCode":"95195","locality":"Röslau","municipality":{"key":"09479145","name":"Röslau","type":"Kreisangehörige_Gemeinde"},"district":{"key":"09479","name":"Wunsiedel i.Fichtelgebirge","type":"Landkreis"},"federalState":{"key":"09","name":"Bayern"}},{"name":"Marktplatz","postalCode":"95195","locality":"Röslau","municipality":{"key":"09479145","name":"Röslau","type":"Kreisangehörige_Gemeinde"},"district":{"key":"09479","name":"Wunsiedel i.Fichtelgebirge","type":"Landkreis"},"federalState":{"key":"09","name":"Bayern"}},{"name":"Narzissenweg","postalCode":"95195","locality":"Röslau","municipality":{"key":"09479145","name":"Röslau","type":"Kreisangehörige_Gemeinde"},"district":{"key":"09479","name":"Wunsiedel i.Fichtelgebirge","type":"Landkreis"},"federalState":{"key":"09","name":"Bayern"}},{"name":"Nelkenweg","postalCode":"95195","locality":"Röslau","municipality":{"key":"09479145","name":"Röslau","type":"Kreisangehörige_Gemeinde"},"district":{"key":"09479","name":"Wunsiedel i.Fichtelgebirge","type":"Landkreis"},"federalState":{"key":"09","name":"Bayern"}},{"name":"Neue Str.","postalCode":"95195","locality":"Röslau","municipality":{"key":"09479145","name":"Röslau","type":"Kreisangehörige_Gemeinde"},"district":{"key":"09479","name":"Wunsiedel i.Fichtelgebirge","type":"Landkreis"},"federalState":{"key":"09","name":"Bayern"}},{"name":"Oskar-Böttcher-Str.","postalCode":"95195","locality":"Röslau","municipality":{"key":"09479145","name":"Röslau","type":"Kreisangehörige_Gemeinde"},"district":{"key":"09479","name":"Wunsiedel i.Fichtelgebirge","type":"Landkreis"},"federalState":{"key":"09","name":"Bayern"}},{"name":"Peuntweg","postalCode":"95195","locality":"Röslau","municipality":{"key":"09479145","name":"Röslau","type":"Kreisangehörige_Gemeinde"},"district":{"key":"09479","name":"Wunsiedel i.Fichtelgebirge","type":"Landkreis"},"federalState":{"key":"09","name":"Bayern"}},{"name":"Porzellanstr.","postalCode":"95195","locality":"Röslau","municipality":{"key":"09479145","name":"Röslau","type":"Kreisangehörige_Gemeinde"},"district":{"key":"09479","name":"Wunsiedel i.Fichtelgebirge","type":"Landkreis"},"federalState":{"key":"09","name":"Bayern"}},{"name":"Ringstr.","postalCode":"95195","locality":"Röslau","municipality":{"key":"09479145","name":"Röslau","type":"Kreisangehörige_Gemeinde"},"district":{"key":"09479","name":"Wunsiedel i.Fichtelgebirge","type":"Landkreis"},"federalState":{"key":"09","name":"Bayern"}},{"name":"Rosenstr.","postalCode":"95195","locality":"Röslau","municipality":{"key":"09479145","name":"Röslau","type":"Kreisangehörige_Gemeinde"},"district":{"key":"09479","name":"Wunsiedel i.Fichtelgebirge","type":"Landkreis"},"federalState":{"key":"09","name":"Bayern"}},{"name":"Schillerstr.","postalCode":"95195","locality":"Röslau","municipality":{"key":"09479145","name":"Röslau","type":"Kreisangehörige_Gemeinde"},"district":{"key":"09479","name":"Wunsiedel i.Fichtelgebirge","type":"Landkreis"},"federalState":{"key":"09","name":"Bayern"}},{"name":"Schulgasse","postalCode":"95195","locality":"Röslau","municipality":{"key":"09479145","name":"Röslau","type":"Kreisangehörige_Gemeinde"},"district":{"key":"09479","name":"Wunsiedel i.Fichtelgebirge","type":"Landkreis"},"federalState":{"key":"09","name":"Bayern"}},{"name":"Siebensternstr.","postalCode":"95195","locality":"Röslau","municipality":{"key":"09479145","name":"Röslau","type":"Kreisangehörige_Gemeinde"},"district":{"key":"09479","name":"Wunsiedel i.Fichtelgebirge","type":"Landkreis"},"federalState":{"key":"09","name":"Bayern"}},{"name":"Striegelweg","postalCode":"95195","locality":"Röslau","municipality":{"key":"09479145","name":"Röslau","type":"Kreisangehörige_Gemeinde"},"district":{"key":"09479","name":"Wunsiedel i.Fichtelgebirge","type":"Landkreis"},"federalState":{"key":"09","name":"Bayern"}},{"name":"Thusmühle","postalCode":"95195","locality":"Röslau","municipality":{"key":"09479145","name":"Röslau","type":"Kreisangehörige_Gemeinde"},"district":{"key":"09479","name":"Wunsiedel i.Fichtelgebirge","type":"Landkreis"},"federalState":{"key":"09","name":"Bayern"}},{"name":"Thusstr.","postalCode":"95195","locality":"Röslau","municipality":{"key":"09479145","name":"Röslau","type":"Kreisangehörige_Gemeinde"},"district":{"key":"09479","name":"Wunsiedel i.Fichtelgebirge","type":"Landkreis"},"federalState":{"key":"09","name":"Bayern"}},{"name":"Tulpenstr.","postalCode":"95195","locality":"Röslau","municipality":{"key":"09479145","name":"Röslau","type":"Kreisangehörige_Gemeinde"},"district":{"key":"09479","name":"Wunsiedel i.Fichtelgebirge","type":"Landkreis"},"federalState":{"key":"09","name":"Bayern"}},{"name":"Veilchenweg","postalCode":"95195","locality":"Röslau","municipality":{"key":"09479145","name":"Röslau","type":"Kreisangehörige_Gemeinde"},"district":{"key":"09479","name":"Wunsiedel i.Fichtelgebirge","type":"Landkreis"},"federalState":{"key":"09","name":"Bayern"}},{"name":"Waldrandsiedlung","postalCode":"95195","locality":"Röslau","municipality":{"key":"09479145","name":"Röslau","type":"Kreisangehörige_Gemeinde"},"district":{"key":"09479","name":"Wunsiedel i.Fichtelgebirge","type":"Landkreis"},"federalState":{"key":"09","name":"Bayern"}},{"name":"Waldstr.","postalCode":"95195","locality":"Röslau","municipality":{"key":"09479145","name":"Röslau","type":"Kreisangehörige_Gemeinde"},"district":{"key":"09479","name":"Wunsiedel i.Fichtelgebirge","type":"Landkreis"},"federalState":{"key":"09","name":"Bayern"}},{"name":"Weißenstädter Str.","postalCode":"95195","locality":"Röslau","municipality":{"key":"09479145","name":"Röslau","type":"Kreisangehörige_Gemeinde"},"district":{"key":"09479","name":"Wunsiedel i.Fichtelgebirge","type":"Landkreis"},"federalState":{"key":"09","name":"Bayern"}},{"name":"Wunsiedler Str.","postalCode":"95195","locality":"Röslau","municipality":{"key":"09479145","name":"Röslau","type":"Kreisangehörige_Gemeinde"},"district":{"key":"09479","name":"Wunsiedel i.Fichtelgebirge","type":"Landkreis"},"federalState":{"key":"09","name":"Bayern"}},{"name":"Zinnleitenweg","postalCode":"95195","locality":"Röslau","municipality":{"key":"09479145","name":"Röslau","type":"Kreisangehörige_Gemeinde"},"district":{"key":"09479","name":"Wunsiedel i.Fichtelgebirge","type":"Landkreis"},"federalState":{"key":"09","name":"Bayern"}},]