[{"name":"Ahornplatzweg","postalCode":"77740","locality":"Bad Peterstal-Griesbach","municipality":{"key":"08317008","name":"Bad Peterstal-Griesbach","type":"Kreisangehörige_Gemeinde"},"district":{"key":"08317","name":"Ortenaukreis","type":"Landkreis"},"federalState":{"key":"08","name":"Baden-Württemberg"}},{"name":"Alter Littweg","postalCode":"77740","locality":"Bad Peterstal-Griesbach","municipality":{"key":"08317008","name":"Bad Peterstal-Griesbach","type":"Kreisangehörige_Gemeinde"},"district":{"key":"08317","name":"Ortenaukreis","type":"Landkreis"},"federalState":{"key":"08","name":"Baden-Württemberg"}},{"name":"Alte Str.","postalCode":"77740","locality":"Bad Peterstal-Griesbach","municipality":{"key":"08317008","name":"Bad Peterstal-Griesbach","type":"Kreisangehörige_Gemeinde"},"district":{"key":"08317","name":"Ortenaukreis","type":"Landkreis"},"federalState":{"key":"08","name":"Baden-Württemberg"}},{"name":"Am Ackerköpfle","postalCode":"77740","locality":"Bad Peterstal-Griesbach","municipality":{"key":"08317008","name":"Bad Peterstal-Griesbach","type":"Kreisangehörige_Gemeinde"},"district":{"key":"08317","name":"Ortenaukreis","type":"Landkreis"},"federalState":{"key":"08","name":"Baden-Württemberg"}},{"name":"Am Eckenacker","postalCode":"77740","locality":"Bad Peterstal-Griesbach","municipality":{"key":"08317008","name":"Bad Peterstal-Griesbach","type":"Kreisangehörige_Gemeinde"},"district":{"key":"08317","name":"Ortenaukreis","type":"Landkreis"},"federalState":{"key":"08","name":"Baden-Württemberg"}},{"name":"Am Eichwäldle","postalCode":"77740","locality":"Bad Peterstal-Griesbach","municipality":{"key":"08317008","name":"Bad Peterstal-Griesbach","type":"Kreisangehörige_Gemeinde"},"district":{"key":"08317","name":"Ortenaukreis","type":"Landkreis"},"federalState":{"key":"08","name":"Baden-Württemberg"}},{"name":"Am Rain","postalCode":"77740","locality":"Bad Peterstal-Griesbach","municipality":{"key":"08317008","name":"Bad Peterstal-Griesbach","type":"Kreisangehörige_Gemeinde"},"district":{"key":"08317","name":"Ortenaukreis","type":"Landkreis"},"federalState":{"key":"08","name":"Baden-Württemberg"}},{"name":"Am Sportplatz","postalCode":"77740","locality":"Bad Peterstal-Griesbach","municipality":{"key":"08317008","name":"Bad Peterstal-Griesbach","type":"Kreisangehörige_Gemeinde"},"district":{"key":"08317","name":"Ortenaukreis","type":"Landkreis"},"federalState":{"key":"08","name":"Baden-Württemberg"}},{"name":"Bahnhofstr.","postalCode":"77740","locality":"Bad Peterstal-Griesbach","municipality":{"key":"08317008","name":"Bad Peterstal-Griesbach","type":"Kreisangehörige_Gemeinde"},"district":{"key":"08317","name":"Ortenaukreis","type":"Landkreis"},"federalState":{"key":"08","name":"Baden-Württemberg"}},{"name":"Birkenstr.","postalCode":"77740","locality":"Bad Peterstal-Griesbach","municipality":{"key":"08317008","name":"Bad Peterstal-Griesbach","type":"Kreisangehörige_Gemeinde"},"district":{"key":"08317","name":"Ortenaukreis","type":"Landkreis"},"federalState":{"key":"08","name":"Baden-Württemberg"}},{"name":"Blöcherweg","postalCode":"77740","locality":"Bad Peterstal-Griesbach","municipality":{"key":"08317008","name":"Bad Peterstal-Griesbach","type":"Kreisangehörige_Gemeinde"},"district":{"key":"08317","name":"Ortenaukreis","type":"Landkreis"},"federalState":{"key":"08","name":"Baden-Württemberg"}},{"name":"Breitenbergstr.","postalCode":"77740","locality":"Bad Peterstal-Griesbach","municipality":{"key":"08317008","name":"Bad Peterstal-Griesbach","type":"Kreisangehörige_Gemeinde"},"district":{"key":"08317","name":"Ortenaukreis","type":"Landkreis"},"federalState":{"key":"08","name":"Baden-Württemberg"}},{"name":"Brunnenweg","postalCode":"77740","locality":"Bad Peterstal-Griesbach","municipality":{"key":"08317008","name":"Bad Peterstal-Griesbach","type":"Kreisangehörige_Gemeinde"},"district":{"key":"08317","name":"Ortenaukreis","type":"Landkreis"},"federalState":{"key":"08","name":"Baden-Württemberg"}},{"name":"Buchebelweg","postalCode":"77740","locality":"Bad Peterstal-Griesbach","municipality":{"key":"08317008","name":"Bad Peterstal-Griesbach","type":"Kreisangehörige_Gemeinde"},"district":{"key":"08317","name":"Ortenaukreis","type":"Landkreis"},"federalState":{"key":"08","name":"Baden-Württemberg"}},{"name":"Buchenweg","postalCode":"77740","locality":"Bad Peterstal-Griesbach","municipality":{"key":"08317008","name":"Bad Peterstal-Griesbach","type":"Kreisangehörige_Gemeinde"},"district":{"key":"08317","name":"Ortenaukreis","type":"Landkreis"},"federalState":{"key":"08","name":"Baden-Württemberg"}},{"name":"Bühlhofweg","postalCode":"77740","locality":"Bad Peterstal-Griesbach","municipality":{"key":"08317008","name":"Bad Peterstal-Griesbach","type":"Kreisangehörige_Gemeinde"},"district":{"key":"08317","name":"Ortenaukreis","type":"Landkreis"},"federalState":{"key":"08","name":"Baden-Württemberg"}},{"name":"Dissenhofweg","postalCode":"77740","locality":"Bad Peterstal-Griesbach","municipality":{"key":"08317008","name":"Bad Peterstal-Griesbach","type":"Kreisangehörige_Gemeinde"},"district":{"key":"08317","name":"Ortenaukreis","type":"Landkreis"},"federalState":{"key":"08","name":"Baden-Württemberg"}},{"name":"Döttelbach","postalCode":"77740","locality":"Bad Peterstal-Griesbach","municipality":{"key":"08317008","name":"Bad Peterstal-Griesbach","type":"Kreisangehörige_Gemeinde"},"district":{"key":"08317","name":"Ortenaukreis","type":"Landkreis"},"federalState":{"key":"08","name":"Baden-Württemberg"}},{"name":"Eichbühlstr.","postalCode":"77740","locality":"Bad Peterstal-Griesbach","municipality":{"key":"08317008","name":"Bad Peterstal-Griesbach","type":"Kreisangehörige_Gemeinde"},"district":{"key":"08317","name":"Ortenaukreis","type":"Landkreis"},"federalState":{"key":"08","name":"Baden-Württemberg"}},{"name":"Engelberg","postalCode":"77740","locality":"Bad Peterstal-Griesbach","municipality":{"key":"08317008","name":"Bad Peterstal-Griesbach","type":"Kreisangehörige_Gemeinde"},"district":{"key":"08317","name":"Ortenaukreis","type":"Landkreis"},"federalState":{"key":"08","name":"Baden-Württemberg"}},{"name":"Eselsrankweg","postalCode":"77740","locality":"Bad Peterstal-Griesbach","municipality":{"key":"08317008","name":"Bad Peterstal-Griesbach","type":"Kreisangehörige_Gemeinde"},"district":{"key":"08317","name":"Ortenaukreis","type":"Landkreis"},"federalState":{"key":"08","name":"Baden-Württemberg"}},{"name":"Feimeckweg","postalCode":"77740","locality":"Bad Peterstal-Griesbach","municipality":{"key":"08317008","name":"Bad Peterstal-Griesbach","type":"Kreisangehörige_Gemeinde"},"district":{"key":"08317","name":"Ortenaukreis","type":"Landkreis"},"federalState":{"key":"08","name":"Baden-Württemberg"}},{"name":"Forsthausstr.","postalCode":"77740","locality":"Bad Peterstal-Griesbach","municipality":{"key":"08317008","name":"Bad Peterstal-Griesbach","type":"Kreisangehörige_Gemeinde"},"district":{"key":"08317","name":"Ortenaukreis","type":"Landkreis"},"federalState":{"key":"08","name":"Baden-Württemberg"}},{"name":"Freiersbach","postalCode":"77740","locality":"Bad Peterstal-Griesbach","municipality":{"key":"08317008","name":"Bad Peterstal-Griesbach","type":"Kreisangehörige_Gemeinde"},"district":{"key":"08317","name":"Ortenaukreis","type":"Landkreis"},"federalState":{"key":"08","name":"Baden-Württemberg"}},{"name":"Gabersrankweg","postalCode":"77740","locality":"Bad Peterstal-Griesbach","municipality":{"key":"08317008","name":"Bad Peterstal-Griesbach","type":"Kreisangehörige_Gemeinde"},"district":{"key":"08317","name":"Ortenaukreis","type":"Landkreis"},"federalState":{"key":"08","name":"Baden-Württemberg"}},{"name":"Gaislochweg","postalCode":"77740","locality":"Bad Peterstal-Griesbach","municipality":{"key":"08317008","name":"Bad Peterstal-Griesbach","type":"Kreisangehörige_Gemeinde"},"district":{"key":"08317","name":"Ortenaukreis","type":"Landkreis"},"federalState":{"key":"08","name":"Baden-Württemberg"}},{"name":"Güterbahnhof","postalCode":"77740","locality":"Bad Peterstal-Griesbach","municipality":{"key":"08317008","name":"Bad Peterstal-Griesbach","type":"Kreisangehörige_Gemeinde"},"district":{"key":"08317","name":"Ortenaukreis","type":"Landkreis"},"federalState":{"key":"08","name":"Baden-Württemberg"}},{"name":"Haldenweg","postalCode":"77740","locality":"Bad Peterstal-Griesbach","municipality":{"key":"08317008","name":"Bad Peterstal-Griesbach","type":"Kreisangehörige_Gemeinde"},"district":{"key":"08317","name":"Ortenaukreis","type":"Landkreis"},"federalState":{"key":"08","name":"Baden-Württemberg"}},{"name":"Harmersbächleweg","postalCode":"77740","locality":"Bad Peterstal-Griesbach","municipality":{"key":"08317008","name":"Bad Peterstal-Griesbach","type":"Kreisangehörige_Gemeinde"},"district":{"key":"08317","name":"Ortenaukreis","type":"Landkreis"},"federalState":{"key":"08","name":"Baden-Württemberg"}},{"name":"Hauptweg","postalCode":"77740","locality":"Bad Peterstal-Griesbach","municipality":{"key":"08317008","name":"Bad Peterstal-Griesbach","type":"Kreisangehörige_Gemeinde"},"district":{"key":"08317","name":"Ortenaukreis","type":"Landkreis"},"federalState":{"key":"08","name":"Baden-Württemberg"}},{"name":"Heidenbühl","postalCode":"77740","locality":"Bad Peterstal-Griesbach","municipality":{"key":"08317008","name":"Bad Peterstal-Griesbach","type":"Kreisangehörige_Gemeinde"},"district":{"key":"08317","name":"Ortenaukreis","type":"Landkreis"},"federalState":{"key":"08","name":"Baden-Württemberg"}},{"name":"Hermersbergweg","postalCode":"77740","locality":"Bad Peterstal-Griesbach","municipality":{"key":"08317008","name":"Bad Peterstal-Griesbach","type":"Kreisangehörige_Gemeinde"},"district":{"key":"08317","name":"Ortenaukreis","type":"Landkreis"},"federalState":{"key":"08","name":"Baden-Württemberg"}},{"name":"Hinterberg","postalCode":"77740","locality":"Bad Peterstal-Griesbach","municipality":{"key":"08317008","name":"Bad Peterstal-Griesbach","type":"Kreisangehörige_Gemeinde"},"district":{"key":"08317","name":"Ortenaukreis","type":"Landkreis"},"federalState":{"key":"08","name":"Baden-Württemberg"}},{"name":"Holchen","postalCode":"77740","locality":"Bad Peterstal-Griesbach","municipality":{"key":"08317008","name":"Bad Peterstal-Griesbach","type":"Kreisangehörige_Gemeinde"},"district":{"key":"08317","name":"Ortenaukreis","type":"Landkreis"},"federalState":{"key":"08","name":"Baden-Württemberg"}},{"name":"Hundskopfsträßle","postalCode":"77740","locality":"Bad Peterstal-Griesbach","municipality":{"key":"08317008","name":"Bad Peterstal-Griesbach","type":"Kreisangehörige_Gemeinde"},"district":{"key":"08317","name":"Ortenaukreis","type":"Landkreis"},"federalState":{"key":"08","name":"Baden-Württemberg"}},{"name":"Hüslihadweg","postalCode":"77740","locality":"Bad Peterstal-Griesbach","municipality":{"key":"08317008","name":"Bad Peterstal-Griesbach","type":"Kreisangehörige_Gemeinde"},"district":{"key":"08317","name":"Ortenaukreis","type":"Landkreis"},"federalState":{"key":"08","name":"Baden-Württemberg"}},{"name":"Im Löchle","postalCode":"77740","locality":"Bad Peterstal-Griesbach","municipality":{"key":"08317008","name":"Bad Peterstal-Griesbach","type":"Kreisangehörige_Gemeinde"},"district":{"key":"08317","name":"Ortenaukreis","type":"Landkreis"},"federalState":{"key":"08","name":"Baden-Württemberg"}},{"name":"In den Gassen","postalCode":"77740","locality":"Bad Peterstal-Griesbach","municipality":{"key":"08317008","name":"Bad Peterstal-Griesbach","type":"Kreisangehörige_Gemeinde"},"district":{"key":"08317","name":"Ortenaukreis","type":"Landkreis"},"federalState":{"key":"08","name":"Baden-Württemberg"}},{"name":"Jägersteig","postalCode":"77740","locality":"Bad Peterstal-Griesbach","municipality":{"key":"08317008","name":"Bad Peterstal-Griesbach","type":"Kreisangehörige_Gemeinde"},"district":{"key":"08317","name":"Ortenaukreis","type":"Landkreis"},"federalState":{"key":"08","name":"Baden-Württemberg"}},{"name":"Kapellenstr.","postalCode":"77740","locality":"Bad Peterstal-Griesbach","municipality":{"key":"08317008","name":"Bad Peterstal-Griesbach","type":"Kreisangehörige_Gemeinde"},"district":{"key":"08317","name":"Ortenaukreis","type":"Landkreis"},"federalState":{"key":"08","name":"Baden-Württemberg"}},{"name":"Kilchlochweg","postalCode":"77740","locality":"Bad Peterstal-Griesbach","municipality":{"key":"08317008","name":"Bad Peterstal-Griesbach","type":"Kreisangehörige_Gemeinde"},"district":{"key":"08317","name":"Ortenaukreis","type":"Landkreis"},"federalState":{"key":"08","name":"Baden-Württemberg"}},{"name":"Kilmeckweg","postalCode":"77740","locality":"Bad Peterstal-Griesbach","municipality":{"key":"08317008","name":"Bad Peterstal-Griesbach","type":"Kreisangehörige_Gemeinde"},"district":{"key":"08317","name":"Ortenaukreis","type":"Landkreis"},"federalState":{"key":"08","name":"Baden-Württemberg"}},{"name":"Kirchbergweg","postalCode":"77740","locality":"Bad Peterstal-Griesbach","municipality":{"key":"08317008","name":"Bad Peterstal-Griesbach","type":"Kreisangehörige_Gemeinde"},"district":{"key":"08317","name":"Ortenaukreis","type":"Landkreis"},"federalState":{"key":"08","name":"Baden-Württemberg"}},{"name":"Klagsteinweg","postalCode":"77740","locality":"Bad Peterstal-Griesbach","municipality":{"key":"08317008","name":"Bad Peterstal-Griesbach","type":"Kreisangehörige_Gemeinde"},"district":{"key":"08317","name":"Ortenaukreis","type":"Landkreis"},"federalState":{"key":"08","name":"Baden-Württemberg"}},{"name":"Kniebisstr.","postalCode":"77740","locality":"Bad Peterstal-Griesbach","municipality":{"key":"08317008","name":"Bad Peterstal-Griesbach","type":"Kreisangehörige_Gemeinde"},"district":{"key":"08317","name":"Ortenaukreis","type":"Landkreis"},"federalState":{"key":"08","name":"Baden-Württemberg"}},{"name":"Köpfleweg","postalCode":"77740","locality":"Bad Peterstal-Griesbach","municipality":{"key":"08317008","name":"Bad Peterstal-Griesbach","type":"Kreisangehörige_Gemeinde"},"district":{"key":"08317","name":"Ortenaukreis","type":"Landkreis"},"federalState":{"key":"08","name":"Baden-Württemberg"}},{"name":"Kostspring","postalCode":"77740","locality":"Bad Peterstal-Griesbach","municipality":{"key":"08317008","name":"Bad Peterstal-Griesbach","type":"Kreisangehörige_Gemeinde"},"district":{"key":"08317","name":"Ortenaukreis","type":"Landkreis"},"federalState":{"key":"08","name":"Baden-Württemberg"}},{"name":"Kurhausweg","postalCode":"77740","locality":"Bad Peterstal-Griesbach","municipality":{"key":"08317008","name":"Bad Peterstal-Griesbach","type":"Kreisangehörige_Gemeinde"},"district":{"key":"08317","name":"Ortenaukreis","type":"Landkreis"},"federalState":{"key":"08","name":"Baden-Württemberg"}},{"name":"Lärchenweg","postalCode":"77740","locality":"Bad Peterstal-Griesbach","municipality":{"key":"08317008","name":"Bad Peterstal-Griesbach","type":"Kreisangehörige_Gemeinde"},"district":{"key":"08317","name":"Ortenaukreis","type":"Landkreis"},"federalState":{"key":"08","name":"Baden-Württemberg"}},{"name":"Laubweg","postalCode":"77740","locality":"Bad Peterstal-Griesbach","municipality":{"key":"08317008","name":"Bad Peterstal-Griesbach","type":"Kreisangehörige_Gemeinde"},"district":{"key":"08317","name":"Ortenaukreis","type":"Landkreis"},"federalState":{"key":"08","name":"Baden-Württemberg"}},{"name":"Leopoldstr.","postalCode":"77740","locality":"Bad Peterstal-Griesbach","municipality":{"key":"08317008","name":"Bad Peterstal-Griesbach","type":"Kreisangehörige_Gemeinde"},"district":{"key":"08317","name":"Ortenaukreis","type":"Landkreis"},"federalState":{"key":"08","name":"Baden-Württemberg"}},{"name":"Lindenstr.","postalCode":"77740","locality":"Bad Peterstal-Griesbach","municipality":{"key":"08317008","name":"Bad Peterstal-Griesbach","type":"Kreisangehörige_Gemeinde"},"district":{"key":"08317","name":"Ortenaukreis","type":"Landkreis"},"federalState":{"key":"08","name":"Baden-Württemberg"}},{"name":"Littweg","postalCode":"77740","locality":"Bad Peterstal-Griesbach","municipality":{"key":"08317008","name":"Bad Peterstal-Griesbach","type":"Kreisangehörige_Gemeinde"},"district":{"key":"08317","name":"Ortenaukreis","type":"Landkreis"},"federalState":{"key":"08","name":"Baden-Württemberg"}},{"name":"Lutherweg","postalCode":"77740","locality":"Bad Peterstal-Griesbach","municipality":{"key":"08317008","name":"Bad Peterstal-Griesbach","type":"Kreisangehörige_Gemeinde"},"district":{"key":"08317","name":"Ortenaukreis","type":"Landkreis"},"federalState":{"key":"08","name":"Baden-Württemberg"}},{"name":"Maierslochweg","postalCode":"77740","locality":"Bad Peterstal-Griesbach","municipality":{"key":"08317008","name":"Bad Peterstal-Griesbach","type":"Kreisangehörige_Gemeinde"},"district":{"key":"08317","name":"Ortenaukreis","type":"Landkreis"},"federalState":{"key":"08","name":"Baden-Württemberg"}},{"name":"Mittlerer Brandweg","postalCode":"77740","locality":"Bad Peterstal-Griesbach","municipality":{"key":"08317008","name":"Bad Peterstal-Griesbach","type":"Kreisangehörige_Gemeinde"},"district":{"key":"08317","name":"Ortenaukreis","type":"Landkreis"},"federalState":{"key":"08","name":"Baden-Württemberg"}},{"name":"Mülbenhangweg","postalCode":"77740","locality":"Bad Peterstal-Griesbach","municipality":{"key":"08317008","name":"Bad Peterstal-Griesbach","type":"Kreisangehörige_Gemeinde"},"district":{"key":"08317","name":"Ortenaukreis","type":"Landkreis"},"federalState":{"key":"08","name":"Baden-Württemberg"}},{"name":"Neuer Höhenweg","postalCode":"77740","locality":"Bad Peterstal-Griesbach","municipality":{"key":"08317008","name":"Bad Peterstal-Griesbach","type":"Kreisangehörige_Gemeinde"},"district":{"key":"08317","name":"Ortenaukreis","type":"Landkreis"},"federalState":{"key":"08","name":"Baden-Württemberg"}},{"name":"Neuer Katzenbuckelweg","postalCode":"77740","locality":"Bad Peterstal-Griesbach","municipality":{"key":"08317008","name":"Bad Peterstal-Griesbach","type":"Kreisangehörige_Gemeinde"},"district":{"key":"08317","name":"Ortenaukreis","type":"Landkreis"},"federalState":{"key":"08","name":"Baden-Württemberg"}},{"name":"Neuer Weg","postalCode":"77740","locality":"Bad Peterstal-Griesbach","municipality":{"key":"08317008","name":"Bad Peterstal-Griesbach","type":"Kreisangehörige_Gemeinde"},"district":{"key":"08317","name":"Ortenaukreis","type":"Landkreis"},"federalState":{"key":"08","name":"Baden-Württemberg"}},{"name":"Oberer Urselsteinweg","postalCode":"77740","locality":"Bad Peterstal-Griesbach","municipality":{"key":"08317008","name":"Bad Peterstal-Griesbach","type":"Kreisangehörige_Gemeinde"},"district":{"key":"08317","name":"Ortenaukreis","type":"Landkreis"},"federalState":{"key":"08","name":"Baden-Württemberg"}},{"name":"Palmspring","postalCode":"77740","locality":"Bad Peterstal-Griesbach","municipality":{"key":"08317008","name":"Bad Peterstal-Griesbach","type":"Kreisangehörige_Gemeinde"},"district":{"key":"08317","name":"Ortenaukreis","type":"Landkreis"},"federalState":{"key":"08","name":"Baden-Württemberg"}},{"name":"Pionierweg","postalCode":"77740","locality":"Bad Peterstal-Griesbach","municipality":{"key":"08317008","name":"Bad Peterstal-Griesbach","type":"Kreisangehörige_Gemeinde"},"district":{"key":"08317","name":"Ortenaukreis","type":"Landkreis"},"federalState":{"key":"08","name":"Baden-Württemberg"}},{"name":"Renchtalstr.","postalCode":"77740","locality":"Bad Peterstal-Griesbach","municipality":{"key":"08317008","name":"Bad Peterstal-Griesbach","type":"Kreisangehörige_Gemeinde"},"district":{"key":"08317","name":"Ortenaukreis","type":"Landkreis"},"federalState":{"key":"08","name":"Baden-Württemberg"}},{"name":"Rohrenbach","postalCode":"77740","locality":"Bad Peterstal-Griesbach","municipality":{"key":"08317008","name":"Bad Peterstal-Griesbach","type":"Kreisangehörige_Gemeinde"},"district":{"key":"08317","name":"Ortenaukreis","type":"Landkreis"},"federalState":{"key":"08","name":"Baden-Württemberg"}},{"name":"Rollwasenweg","postalCode":"77740","locality":"Bad Peterstal-Griesbach","municipality":{"key":"08317008","name":"Bad Peterstal-Griesbach","type":"Kreisangehörige_Gemeinde"},"district":{"key":"08317","name":"Ortenaukreis","type":"Landkreis"},"federalState":{"key":"08","name":"Baden-Württemberg"}},{"name":"Rossecklestr.","postalCode":"77740","locality":"Bad Peterstal-Griesbach","municipality":{"key":"08317008","name":"Bad Peterstal-Griesbach","type":"Kreisangehörige_Gemeinde"},"district":{"key":"08317","name":"Ortenaukreis","type":"Landkreis"},"federalState":{"key":"08","name":"Baden-Württemberg"}},{"name":"Sackgasse","postalCode":"77740","locality":"Bad Peterstal-Griesbach","municipality":{"key":"08317008","name":"Bad Peterstal-Griesbach","type":"Kreisangehörige_Gemeinde"},"district":{"key":"08317","name":"Ortenaukreis","type":"Landkreis"},"federalState":{"key":"08","name":"Baden-Württemberg"}},{"name":"Schrofenriesweg","postalCode":"77740","locality":"Bad Peterstal-Griesbach","municipality":{"key":"08317008","name":"Bad Peterstal-Griesbach","type":"Kreisangehörige_Gemeinde"},"district":{"key":"08317","name":"Ortenaukreis","type":"Landkreis"},"federalState":{"key":"08","name":"Baden-Württemberg"}},{"name":"Schwarzwaldstr.","postalCode":"77740","locality":"Bad Peterstal-Griesbach","municipality":{"key":"08317008","name":"Bad Peterstal-Griesbach","type":"Kreisangehörige_Gemeinde"},"district":{"key":"08317","name":"Ortenaukreis","type":"Landkreis"},"federalState":{"key":"08","name":"Baden-Württemberg"}},{"name":"Schwimmbadstr.","postalCode":"77740","locality":"Bad Peterstal-Griesbach","municipality":{"key":"08317008","name":"Bad Peterstal-Griesbach","type":"Kreisangehörige_Gemeinde"},"district":{"key":"08317","name":"Ortenaukreis","type":"Landkreis"},"federalState":{"key":"08","name":"Baden-Württemberg"}},{"name":"Sexauersträßle","postalCode":"77740","locality":"Bad Peterstal-Griesbach","municipality":{"key":"08317008","name":"Bad Peterstal-Griesbach","type":"Kreisangehörige_Gemeinde"},"district":{"key":"08317","name":"Ortenaukreis","type":"Landkreis"},"federalState":{"key":"08","name":"Baden-Württemberg"}},{"name":"Silbereckweg","postalCode":"77740","locality":"Bad Peterstal-Griesbach","municipality":{"key":"08317008","name":"Bad Peterstal-Griesbach","type":"Kreisangehörige_Gemeinde"},"district":{"key":"08317","name":"Ortenaukreis","type":"Landkreis"},"federalState":{"key":"08","name":"Baden-Württemberg"}},{"name":"Sonnhalde","postalCode":"77740","locality":"Bad Peterstal-Griesbach","municipality":{"key":"08317008","name":"Bad Peterstal-Griesbach","type":"Kreisangehörige_Gemeinde"},"district":{"key":"08317","name":"Ortenaukreis","type":"Landkreis"},"federalState":{"key":"08","name":"Baden-Württemberg"}},{"name":"Spinnersberg","postalCode":"77740","locality":"Bad Peterstal-Griesbach","municipality":{"key":"08317008","name":"Bad Peterstal-Griesbach","type":"Kreisangehörige_Gemeinde"},"district":{"key":"08317","name":"Ortenaukreis","type":"Landkreis"},"federalState":{"key":"08","name":"Baden-Württemberg"}},{"name":"Stegerlesweg","postalCode":"77740","locality":"Bad Peterstal-Griesbach","municipality":{"key":"08317008","name":"Bad Peterstal-Griesbach","type":"Kreisangehörige_Gemeinde"},"district":{"key":"08317","name":"Ortenaukreis","type":"Landkreis"},"federalState":{"key":"08","name":"Baden-Württemberg"}},{"name":"Stöckmatt","postalCode":"77740","locality":"Bad Peterstal-Griesbach","municipality":{"key":"08317008","name":"Bad Peterstal-Griesbach","type":"Kreisangehörige_Gemeinde"},"district":{"key":"08317","name":"Ortenaukreis","type":"Landkreis"},"federalState":{"key":"08","name":"Baden-Württemberg"}},{"name":"Tannenweg","postalCode":"77740","locality":"Bad Peterstal-Griesbach","municipality":{"key":"08317008","name":"Bad Peterstal-Griesbach","type":"Kreisangehörige_Gemeinde"},"district":{"key":"08317","name":"Ortenaukreis","type":"Landkreis"},"federalState":{"key":"08","name":"Baden-Württemberg"}},{"name":"Thomasberg","postalCode":"77740","locality":"Bad Peterstal-Griesbach","municipality":{"key":"08317008","name":"Bad Peterstal-Griesbach","type":"Kreisangehörige_Gemeinde"},"district":{"key":"08317","name":"Ortenaukreis","type":"Landkreis"},"federalState":{"key":"08","name":"Baden-Württemberg"}},{"name":"Unteres Seebene Strässle","postalCode":"77740","locality":"Bad Peterstal-Griesbach","municipality":{"key":"08317008","name":"Bad Peterstal-Griesbach","type":"Kreisangehörige_Gemeinde"},"district":{"key":"08317","name":"Ortenaukreis","type":"Landkreis"},"federalState":{"key":"08","name":"Baden-Württemberg"}},{"name":"Unteres Seebenesträßle","postalCode":"77740","locality":"Bad Peterstal-Griesbach","municipality":{"key":"08317008","name":"Bad Peterstal-Griesbach","type":"Kreisangehörige_Gemeinde"},"district":{"key":"08317","name":"Ortenaukreis","type":"Landkreis"},"federalState":{"key":"08","name":"Baden-Württemberg"}},{"name":"Waltersweg","postalCode":"77740","locality":"Bad Peterstal-Griesbach","municipality":{"key":"08317008","name":"Bad Peterstal-Griesbach","type":"Kreisangehörige_Gemeinde"},"district":{"key":"08317","name":"Ortenaukreis","type":"Landkreis"},"federalState":{"key":"08","name":"Baden-Württemberg"}},{"name":"Wasserweg","postalCode":"77740","locality":"Bad Peterstal-Griesbach","municipality":{"key":"08317008","name":"Bad Peterstal-Griesbach","type":"Kreisangehörige_Gemeinde"},"district":{"key":"08317","name":"Ortenaukreis","type":"Landkreis"},"federalState":{"key":"08","name":"Baden-Württemberg"}},{"name":"Weiherplatz","postalCode":"77740","locality":"Bad Peterstal-Griesbach","municipality":{"key":"08317008","name":"Bad Peterstal-Griesbach","type":"Kreisangehörige_Gemeinde"},"district":{"key":"08317","name":"Ortenaukreis","type":"Landkreis"},"federalState":{"key":"08","name":"Baden-Württemberg"}},{"name":"Weiherplatzweg","postalCode":"77740","locality":"Bad Peterstal-Griesbach","municipality":{"key":"08317008","name":"Bad Peterstal-Griesbach","type":"Kreisangehörige_Gemeinde"},"district":{"key":"08317","name":"Ortenaukreis","type":"Landkreis"},"federalState":{"key":"08","name":"Baden-Württemberg"}},{"name":"Wildschapbachstr.","postalCode":"77740","locality":"Bad Peterstal-Griesbach","municipality":{"key":"08317008","name":"Bad Peterstal-Griesbach","type":"Kreisangehörige_Gemeinde"},"district":{"key":"08317","name":"Ortenaukreis","type":"Landkreis"},"federalState":{"key":"08","name":"Baden-Württemberg"}},{"name":"Wilhelmstr.","postalCode":"77740","locality":"Bad Peterstal-Griesbach","municipality":{"key":"08317008","name":"Bad Peterstal-Griesbach","type":"Kreisangehörige_Gemeinde"},"district":{"key":"08317","name":"Ortenaukreis","type":"Landkreis"},"federalState":{"key":"08","name":"Baden-Württemberg"}},{"name":"Winterbergweg","postalCode":"77740","locality":"Bad Peterstal-Griesbach","municipality":{"key":"08317008","name":"Bad Peterstal-Griesbach","type":"Kreisangehörige_Gemeinde"},"district":{"key":"08317","name":"Ortenaukreis","type":"Landkreis"},"federalState":{"key":"08","name":"Baden-Württemberg"}},{"name":"Zellhaldweg","postalCode":"77740","locality":"Bad Peterstal-Griesbach","municipality":{"key":"08317008","name":"Bad Peterstal-Griesbach","type":"Kreisangehörige_Gemeinde"},"district":{"key":"08317","name":"Ortenaukreis","type":"Landkreis"},"federalState":{"key":"08","name":"Baden-Württemberg"}},{"name":"Überkopfweg","postalCode":"77740","locality":"Bad Peterstal-Griesbach","municipality":{"key":"08317008","name":"Bad Peterstal-Griesbach","type":"Kreisangehörige_Gemeinde"},"district":{"key":"08317","name":"Ortenaukreis","type":"Landkreis"},"federalState":{"key":"08","name":"Baden-Württemberg"}},{"name":"Überskopf","postalCode":"77740","locality":"Bad Peterstal-Griesbach","municipality":{"key":"08317008","name":"Bad Peterstal-Griesbach","type":"Kreisangehörige_Gemeinde"},"district":{"key":"08317","name":"Ortenaukreis","type":"Landkreis"},"federalState":{"key":"08","name":"Baden-Württemberg"}},]