[{"name":"Aichholzhofweg","postalCode":"71554","locality":"Weissach im Tal","municipality":{"key":"08119083","name":"Weissach im Tal","type":"Kreisangehörige_Gemeinde"},"district":{"key":"08119","name":"Rems-Murr-Kreis","type":"Landkreis"},"federalState":{"key":"08","name":"Baden-Württemberg"}},{"name":"Allmendweg","postalCode":"71554","locality":"Weissach im Tal","municipality":{"key":"08119083","name":"Weissach im Tal","type":"Kreisangehörige_Gemeinde"},"district":{"key":"08119","name":"Rems-Murr-Kreis","type":"Landkreis"},"federalState":{"key":"08","name":"Baden-Württemberg"}},{"name":"Allmersbacher Str.","postalCode":"71554","locality":"Weissach im Tal","municipality":{"key":"08119083","name":"Weissach im Tal","type":"Kreisangehörige_Gemeinde"},"district":{"key":"08119","name":"Rems-Murr-Kreis","type":"Landkreis"},"federalState":{"key":"08","name":"Baden-Württemberg"}},{"name":"Alter Kirchweg","postalCode":"71554","locality":"Weissach im Tal","municipality":{"key":"08119083","name":"Weissach im Tal","type":"Kreisangehörige_Gemeinde"},"district":{"key":"08119","name":"Rems-Murr-Kreis","type":"Landkreis"},"federalState":{"key":"08","name":"Baden-Württemberg"}},{"name":"Alte Ziegeleistr.","postalCode":"71554","locality":"Weissach im Tal","municipality":{"key":"08119083","name":"Weissach im Tal","type":"Kreisangehörige_Gemeinde"},"district":{"key":"08119","name":"Rems-Murr-Kreis","type":"Landkreis"},"federalState":{"key":"08","name":"Baden-Württemberg"}},{"name":"Althau","postalCode":"71554","locality":"Weissach im Tal","municipality":{"key":"08119083","name":"Weissach im Tal","type":"Kreisangehörige_Gemeinde"},"district":{"key":"08119","name":"Rems-Murr-Kreis","type":"Landkreis"},"federalState":{"key":"08","name":"Baden-Württemberg"}},{"name":"Am Brüdenrain","postalCode":"71554","locality":"Weissach im Tal","municipality":{"key":"08119083","name":"Weissach im Tal","type":"Kreisangehörige_Gemeinde"},"district":{"key":"08119","name":"Rems-Murr-Kreis","type":"Landkreis"},"federalState":{"key":"08","name":"Baden-Württemberg"}},{"name":"Am Krummacker","postalCode":"71554","locality":"Weissach im Tal","municipality":{"key":"08119083","name":"Weissach im Tal","type":"Kreisangehörige_Gemeinde"},"district":{"key":"08119","name":"Rems-Murr-Kreis","type":"Landkreis"},"federalState":{"key":"08","name":"Baden-Württemberg"}},{"name":"Am Safrain","postalCode":"71554","locality":"Weissach im Tal","municipality":{"key":"08119083","name":"Weissach im Tal","type":"Kreisangehörige_Gemeinde"},"district":{"key":"08119","name":"Rems-Murr-Kreis","type":"Landkreis"},"federalState":{"key":"08","name":"Baden-Württemberg"}},{"name":"Amselstr.","postalCode":"71554","locality":"Weissach im Tal","municipality":{"key":"08119083","name":"Weissach im Tal","type":"Kreisangehörige_Gemeinde"},"district":{"key":"08119","name":"Rems-Murr-Kreis","type":"Landkreis"},"federalState":{"key":"08","name":"Baden-Württemberg"}},{"name":"Am Sommerrain","postalCode":"71554","locality":"Weissach im Tal","municipality":{"key":"08119083","name":"Weissach im Tal","type":"Kreisangehörige_Gemeinde"},"district":{"key":"08119","name":"Rems-Murr-Kreis","type":"Landkreis"},"federalState":{"key":"08","name":"Baden-Württemberg"}},{"name":"An der Tongrube","postalCode":"71554","locality":"Weissach im Tal","municipality":{"key":"08119083","name":"Weissach im Tal","type":"Kreisangehörige_Gemeinde"},"district":{"key":"08119","name":"Rems-Murr-Kreis","type":"Landkreis"},"federalState":{"key":"08","name":"Baden-Württemberg"}},{"name":"Bachstr.","postalCode":"71554","locality":"Weissach im Tal","municipality":{"key":"08119083","name":"Weissach im Tal","type":"Kreisangehörige_Gemeinde"},"district":{"key":"08119","name":"Rems-Murr-Kreis","type":"Landkreis"},"federalState":{"key":"08","name":"Baden-Württemberg"}},{"name":"Backnanger Str.","postalCode":"71554","locality":"Weissach im Tal","municipality":{"key":"08119083","name":"Weissach im Tal","type":"Kreisangehörige_Gemeinde"},"district":{"key":"08119","name":"Rems-Murr-Kreis","type":"Landkreis"},"federalState":{"key":"08","name":"Baden-Württemberg"}},{"name":"Beethovenstr.","postalCode":"71554","locality":"Weissach im Tal","municipality":{"key":"08119083","name":"Weissach im Tal","type":"Kreisangehörige_Gemeinde"},"district":{"key":"08119","name":"Rems-Murr-Kreis","type":"Landkreis"},"federalState":{"key":"08","name":"Baden-Württemberg"}},{"name":"Bei der langen Brücke","postalCode":"71554","locality":"Weissach im Tal","municipality":{"key":"08119083","name":"Weissach im Tal","type":"Kreisangehörige_Gemeinde"},"district":{"key":"08119","name":"Rems-Murr-Kreis","type":"Landkreis"},"federalState":{"key":"08","name":"Baden-Württemberg"}},{"name":"Bergklinge","postalCode":"71554","locality":"Weissach im Tal","municipality":{"key":"08119083","name":"Weissach im Tal","type":"Kreisangehörige_Gemeinde"},"district":{"key":"08119","name":"Rems-Murr-Kreis","type":"Landkreis"},"federalState":{"key":"08","name":"Baden-Württemberg"}},{"name":"Bergweg","postalCode":"71554","locality":"Weissach im Tal","municipality":{"key":"08119083","name":"Weissach im Tal","type":"Kreisangehörige_Gemeinde"},"district":{"key":"08119","name":"Rems-Murr-Kreis","type":"Landkreis"},"federalState":{"key":"08","name":"Baden-Württemberg"}},{"name":"Bildäcker","postalCode":"71554","locality":"Weissach im Tal","municipality":{"key":"08119083","name":"Weissach im Tal","type":"Kreisangehörige_Gemeinde"},"district":{"key":"08119","name":"Rems-Murr-Kreis","type":"Landkreis"},"federalState":{"key":"08","name":"Baden-Württemberg"}},{"name":"Blumenstr.","postalCode":"71554","locality":"Weissach im Tal","municipality":{"key":"08119083","name":"Weissach im Tal","type":"Kreisangehörige_Gemeinde"},"district":{"key":"08119","name":"Rems-Murr-Kreis","type":"Landkreis"},"federalState":{"key":"08","name":"Baden-Württemberg"}},{"name":"Brechergäßle","postalCode":"71554","locality":"Weissach im Tal","municipality":{"key":"08119083","name":"Weissach im Tal","type":"Kreisangehörige_Gemeinde"},"district":{"key":"08119","name":"Rems-Murr-Kreis","type":"Landkreis"},"federalState":{"key":"08","name":"Baden-Württemberg"}},{"name":"Bruckäcker","postalCode":"71554","locality":"Weissach im Tal","municipality":{"key":"08119083","name":"Weissach im Tal","type":"Kreisangehörige_Gemeinde"},"district":{"key":"08119","name":"Rems-Murr-Kreis","type":"Landkreis"},"federalState":{"key":"08","name":"Baden-Württemberg"}},{"name":"Brückenstr.","postalCode":"71554","locality":"Weissach im Tal","municipality":{"key":"08119083","name":"Weissach im Tal","type":"Kreisangehörige_Gemeinde"},"district":{"key":"08119","name":"Rems-Murr-Kreis","type":"Landkreis"},"federalState":{"key":"08","name":"Baden-Württemberg"}},{"name":"Brüdenbachbrücke","postalCode":"71554","locality":"Weissach im Tal","municipality":{"key":"08119083","name":"Weissach im Tal","type":"Kreisangehörige_Gemeinde"},"district":{"key":"08119","name":"Rems-Murr-Kreis","type":"Landkreis"},"federalState":{"key":"08","name":"Baden-Württemberg"}},{"name":"Brüdener Str.","postalCode":"71554","locality":"Weissach im Tal","municipality":{"key":"08119083","name":"Weissach im Tal","type":"Kreisangehörige_Gemeinde"},"district":{"key":"08119","name":"Rems-Murr-Kreis","type":"Landkreis"},"federalState":{"key":"08","name":"Baden-Württemberg"}},{"name":"Brüdenwiesen","postalCode":"71554","locality":"Weissach im Tal","municipality":{"key":"08119083","name":"Weissach im Tal","type":"Kreisangehörige_Gemeinde"},"district":{"key":"08119","name":"Rems-Murr-Kreis","type":"Landkreis"},"federalState":{"key":"08","name":"Baden-Württemberg"}},{"name":"Brühlweg","postalCode":"71554","locality":"Weissach im Tal","municipality":{"key":"08119083","name":"Weissach im Tal","type":"Kreisangehörige_Gemeinde"},"district":{"key":"08119","name":"Rems-Murr-Kreis","type":"Landkreis"},"federalState":{"key":"08","name":"Baden-Württemberg"}},{"name":"Brunnenstr.","postalCode":"71554","locality":"Weissach im Tal","municipality":{"key":"08119083","name":"Weissach im Tal","type":"Kreisangehörige_Gemeinde"},"district":{"key":"08119","name":"Rems-Murr-Kreis","type":"Landkreis"},"federalState":{"key":"08","name":"Baden-Württemberg"}},{"name":"Buchenweg","postalCode":"71554","locality":"Weissach im Tal","municipality":{"key":"08119083","name":"Weissach im Tal","type":"Kreisangehörige_Gemeinde"},"district":{"key":"08119","name":"Rems-Murr-Kreis","type":"Landkreis"},"federalState":{"key":"08","name":"Baden-Württemberg"}},{"name":"Burgunderweg","postalCode":"71554","locality":"Weissach im Tal","municipality":{"key":"08119083","name":"Weissach im Tal","type":"Kreisangehörige_Gemeinde"},"district":{"key":"08119","name":"Rems-Murr-Kreis","type":"Landkreis"},"federalState":{"key":"08","name":"Baden-Württemberg"}},{"name":"Cottenweiler Str.","postalCode":"71554","locality":"Weissach im Tal","municipality":{"key":"08119083","name":"Weissach im Tal","type":"Kreisangehörige_Gemeinde"},"district":{"key":"08119","name":"Rems-Murr-Kreis","type":"Landkreis"},"federalState":{"key":"08","name":"Baden-Württemberg"}},{"name":"Dahlienweg","postalCode":"71554","locality":"Weissach im Tal","municipality":{"key":"08119083","name":"Weissach im Tal","type":"Kreisangehörige_Gemeinde"},"district":{"key":"08119","name":"Rems-Murr-Kreis","type":"Landkreis"},"federalState":{"key":"08","name":"Baden-Württemberg"}},{"name":"Dreifaltigkeitsweg","postalCode":"71554","locality":"Weissach im Tal","municipality":{"key":"08119083","name":"Weissach im Tal","type":"Kreisangehörige_Gemeinde"},"district":{"key":"08119","name":"Rems-Murr-Kreis","type":"Landkreis"},"federalState":{"key":"08","name":"Baden-Württemberg"}},{"name":"Drosselstr.","postalCode":"71554","locality":"Weissach im Tal","municipality":{"key":"08119083","name":"Weissach im Tal","type":"Kreisangehörige_Gemeinde"},"district":{"key":"08119","name":"Rems-Murr-Kreis","type":"Landkreis"},"federalState":{"key":"08","name":"Baden-Württemberg"}},{"name":"Ebniseestr.","postalCode":"71554","locality":"Weissach im Tal","municipality":{"key":"08119083","name":"Weissach im Tal","type":"Kreisangehörige_Gemeinde"},"district":{"key":"08119","name":"Rems-Murr-Kreis","type":"Landkreis"},"federalState":{"key":"08","name":"Baden-Württemberg"}},{"name":"Egelsee","postalCode":"71554","locality":"Weissach im Tal","municipality":{"key":"08119083","name":"Weissach im Tal","type":"Kreisangehörige_Gemeinde"},"district":{"key":"08119","name":"Rems-Murr-Kreis","type":"Landkreis"},"federalState":{"key":"08","name":"Baden-Württemberg"}},{"name":"Ehemaliger Vicinalweg","postalCode":"71554","locality":"Weissach im Tal","municipality":{"key":"08119083","name":"Weissach im Tal","type":"Kreisangehörige_Gemeinde"},"district":{"key":"08119","name":"Rems-Murr-Kreis","type":"Landkreis"},"federalState":{"key":"08","name":"Baden-Württemberg"}},{"name":"Eichhalde","postalCode":"71554","locality":"Weissach im Tal","municipality":{"key":"08119083","name":"Weissach im Tal","type":"Kreisangehörige_Gemeinde"},"district":{"key":"08119","name":"Rems-Murr-Kreis","type":"Landkreis"},"federalState":{"key":"08","name":"Baden-Württemberg"}},{"name":"Einsteinstr.","postalCode":"71554","locality":"Weissach im Tal","municipality":{"key":"08119083","name":"Weissach im Tal","type":"Kreisangehörige_Gemeinde"},"district":{"key":"08119","name":"Rems-Murr-Kreis","type":"Landkreis"},"federalState":{"key":"08","name":"Baden-Württemberg"}},{"name":"Elsterstr.","postalCode":"71554","locality":"Weissach im Tal","municipality":{"key":"08119083","name":"Weissach im Tal","type":"Kreisangehörige_Gemeinde"},"district":{"key":"08119","name":"Rems-Murr-Kreis","type":"Landkreis"},"federalState":{"key":"08","name":"Baden-Württemberg"}},{"name":"Erlenweg","postalCode":"71554","locality":"Weissach im Tal","municipality":{"key":"08119083","name":"Weissach im Tal","type":"Kreisangehörige_Gemeinde"},"district":{"key":"08119","name":"Rems-Murr-Kreis","type":"Landkreis"},"federalState":{"key":"08","name":"Baden-Württemberg"}},{"name":"Eschenweg","postalCode":"71554","locality":"Weissach im Tal","municipality":{"key":"08119083","name":"Weissach im Tal","type":"Kreisangehörige_Gemeinde"},"district":{"key":"08119","name":"Rems-Murr-Kreis","type":"Landkreis"},"federalState":{"key":"08","name":"Baden-Württemberg"}},{"name":"Falkenstr.","postalCode":"71554","locality":"Weissach im Tal","municipality":{"key":"08119083","name":"Weissach im Tal","type":"Kreisangehörige_Gemeinde"},"district":{"key":"08119","name":"Rems-Murr-Kreis","type":"Landkreis"},"federalState":{"key":"08","name":"Baden-Württemberg"}},{"name":"Finkenweg","postalCode":"71554","locality":"Weissach im Tal","municipality":{"key":"08119083","name":"Weissach im Tal","type":"Kreisangehörige_Gemeinde"},"district":{"key":"08119","name":"Rems-Murr-Kreis","type":"Landkreis"},"federalState":{"key":"08","name":"Baden-Württemberg"}},{"name":"Forchenweg","postalCode":"71554","locality":"Weissach im Tal","municipality":{"key":"08119083","name":"Weissach im Tal","type":"Kreisangehörige_Gemeinde"},"district":{"key":"08119","name":"Rems-Murr-Kreis","type":"Landkreis"},"federalState":{"key":"08","name":"Baden-Württemberg"}},{"name":"Forsthausbrücke","postalCode":"71554","locality":"Weissach im Tal","municipality":{"key":"08119083","name":"Weissach im Tal","type":"Kreisangehörige_Gemeinde"},"district":{"key":"08119","name":"Rems-Murr-Kreis","type":"Landkreis"},"federalState":{"key":"08","name":"Baden-Württemberg"}},{"name":"Forststr.","postalCode":"71554","locality":"Weissach im Tal","municipality":{"key":"08119083","name":"Weissach im Tal","type":"Kreisangehörige_Gemeinde"},"district":{"key":"08119","name":"Rems-Murr-Kreis","type":"Landkreis"},"federalState":{"key":"08","name":"Baden-Württemberg"}},{"name":"Friedensstr.","postalCode":"71554","locality":"Weissach im Tal","municipality":{"key":"08119083","name":"Weissach im Tal","type":"Kreisangehörige_Gemeinde"},"district":{"key":"08119","name":"Rems-Murr-Kreis","type":"Landkreis"},"federalState":{"key":"08","name":"Baden-Württemberg"}},{"name":"Friedhofstr.","postalCode":"71554","locality":"Weissach im Tal","municipality":{"key":"08119083","name":"Weissach im Tal","type":"Kreisangehörige_Gemeinde"},"district":{"key":"08119","name":"Rems-Murr-Kreis","type":"Landkreis"},"federalState":{"key":"08","name":"Baden-Württemberg"}},{"name":"Gartenstr.","postalCode":"71554","locality":"Weissach im Tal","municipality":{"key":"08119083","name":"Weissach im Tal","type":"Kreisangehörige_Gemeinde"},"district":{"key":"08119","name":"Rems-Murr-Kreis","type":"Landkreis"},"federalState":{"key":"08","name":"Baden-Württemberg"}},{"name":"Georg-Elser-Weg","postalCode":"71554","locality":"Weissach im Tal","municipality":{"key":"08119083","name":"Weissach im Tal","type":"Kreisangehörige_Gemeinde"},"district":{"key":"08119","name":"Rems-Murr-Kreis","type":"Landkreis"},"federalState":{"key":"08","name":"Baden-Württemberg"}},{"name":"Ginsterhalde","postalCode":"71554","locality":"Weissach im Tal","municipality":{"key":"08119083","name":"Weissach im Tal","type":"Kreisangehörige_Gemeinde"},"district":{"key":"08119","name":"Rems-Murr-Kreis","type":"Landkreis"},"federalState":{"key":"08","name":"Baden-Württemberg"}},{"name":"Goethestr.","postalCode":"71554","locality":"Weissach im Tal","municipality":{"key":"08119083","name":"Weissach im Tal","type":"Kreisangehörige_Gemeinde"},"district":{"key":"08119","name":"Rems-Murr-Kreis","type":"Landkreis"},"federalState":{"key":"08","name":"Baden-Württemberg"}},{"name":"Goldammerweg","postalCode":"71554","locality":"Weissach im Tal","municipality":{"key":"08119083","name":"Weissach im Tal","type":"Kreisangehörige_Gemeinde"},"district":{"key":"08119","name":"Rems-Murr-Kreis","type":"Landkreis"},"federalState":{"key":"08","name":"Baden-Württemberg"}},{"name":"Grabengärten","postalCode":"71554","locality":"Weissach im Tal","municipality":{"key":"08119083","name":"Weissach im Tal","type":"Kreisangehörige_Gemeinde"},"district":{"key":"08119","name":"Rems-Murr-Kreis","type":"Landkreis"},"federalState":{"key":"08","name":"Baden-Württemberg"}},{"name":"Grasmuldenweg","postalCode":"71554","locality":"Weissach im Tal","municipality":{"key":"08119083","name":"Weissach im Tal","type":"Kreisangehörige_Gemeinde"},"district":{"key":"08119","name":"Rems-Murr-Kreis","type":"Landkreis"},"federalState":{"key":"08","name":"Baden-Württemberg"}},{"name":"Hart","postalCode":"71554","locality":"Weissach im Tal","municipality":{"key":"08119083","name":"Weissach im Tal","type":"Kreisangehörige_Gemeinde"},"district":{"key":"08119","name":"Rems-Murr-Kreis","type":"Landkreis"},"federalState":{"key":"08","name":"Baden-Württemberg"}},{"name":"Hartweg","postalCode":"71554","locality":"Weissach im Tal","municipality":{"key":"08119083","name":"Weissach im Tal","type":"Kreisangehörige_Gemeinde"},"district":{"key":"08119","name":"Rems-Murr-Kreis","type":"Landkreis"},"federalState":{"key":"08","name":"Baden-Württemberg"}},{"name":"Hauffstr.","postalCode":"71554","locality":"Weissach im Tal","municipality":{"key":"08119083","name":"Weissach im Tal","type":"Kreisangehörige_Gemeinde"},"district":{"key":"08119","name":"Rems-Murr-Kreis","type":"Landkreis"},"federalState":{"key":"08","name":"Baden-Württemberg"}},{"name":"Hebbelstr.","postalCode":"71554","locality":"Weissach im Tal","municipality":{"key":"08119083","name":"Weissach im Tal","type":"Kreisangehörige_Gemeinde"},"district":{"key":"08119","name":"Rems-Murr-Kreis","type":"Landkreis"},"federalState":{"key":"08","name":"Baden-Württemberg"}},{"name":"Heininger Str.","postalCode":"71554","locality":"Weissach im Tal","municipality":{"key":"08119083","name":"Weissach im Tal","type":"Kreisangehörige_Gemeinde"},"district":{"key":"08119","name":"Rems-Murr-Kreis","type":"Landkreis"},"federalState":{"key":"08","name":"Baden-Württemberg"}},{"name":"Herrenwiesen","postalCode":"71554","locality":"Weissach im Tal","municipality":{"key":"08119083","name":"Weissach im Tal","type":"Kreisangehörige_Gemeinde"},"district":{"key":"08119","name":"Rems-Murr-Kreis","type":"Landkreis"},"federalState":{"key":"08","name":"Baden-Württemberg"}},{"name":"Heutensbacher Str.","postalCode":"71554","locality":"Weissach im Tal","municipality":{"key":"08119083","name":"Weissach im Tal","type":"Kreisangehörige_Gemeinde"},"district":{"key":"08119","name":"Rems-Murr-Kreis","type":"Landkreis"},"federalState":{"key":"08","name":"Baden-Württemberg"}},{"name":"Hohenstaufenstr.","postalCode":"71554","locality":"Weissach im Tal","municipality":{"key":"08119083","name":"Weissach im Tal","type":"Kreisangehörige_Gemeinde"},"district":{"key":"08119","name":"Rems-Murr-Kreis","type":"Landkreis"},"federalState":{"key":"08","name":"Baden-Württemberg"}},{"name":"Höhenweg","postalCode":"71554","locality":"Weissach im Tal","municipality":{"key":"08119083","name":"Weissach im Tal","type":"Kreisangehörige_Gemeinde"},"district":{"key":"08119","name":"Rems-Murr-Kreis","type":"Landkreis"},"federalState":{"key":"08","name":"Baden-Württemberg"}},{"name":"Hohholzstr.","postalCode":"71554","locality":"Weissach im Tal","municipality":{"key":"08119083","name":"Weissach im Tal","type":"Kreisangehörige_Gemeinde"},"district":{"key":"08119","name":"Rems-Murr-Kreis","type":"Landkreis"},"federalState":{"key":"08","name":"Baden-Württemberg"}},{"name":"Hohnweiler Str.","postalCode":"71554","locality":"Weissach im Tal","municipality":{"key":"08119083","name":"Weissach im Tal","type":"Kreisangehörige_Gemeinde"},"district":{"key":"08119","name":"Rems-Murr-Kreis","type":"Landkreis"},"federalState":{"key":"08","name":"Baden-Württemberg"}},{"name":"Hölderlinstr.","postalCode":"71554","locality":"Weissach im Tal","municipality":{"key":"08119083","name":"Weissach im Tal","type":"Kreisangehörige_Gemeinde"},"district":{"key":"08119","name":"Rems-Murr-Kreis","type":"Landkreis"},"federalState":{"key":"08","name":"Baden-Württemberg"}},{"name":"Hügelstr.","postalCode":"71554","locality":"Weissach im Tal","municipality":{"key":"08119083","name":"Weissach im Tal","type":"Kreisangehörige_Gemeinde"},"district":{"key":"08119","name":"Rems-Murr-Kreis","type":"Landkreis"},"federalState":{"key":"08","name":"Baden-Württemberg"}},{"name":"Humboldtstr.","postalCode":"71554","locality":"Weissach im Tal","municipality":{"key":"08119083","name":"Weissach im Tal","type":"Kreisangehörige_Gemeinde"},"district":{"key":"08119","name":"Rems-Murr-Kreis","type":"Landkreis"},"federalState":{"key":"08","name":"Baden-Württemberg"}},{"name":"Im Blütengarten","postalCode":"71554","locality":"Weissach im Tal","municipality":{"key":"08119083","name":"Weissach im Tal","type":"Kreisangehörige_Gemeinde"},"district":{"key":"08119","name":"Rems-Murr-Kreis","type":"Landkreis"},"federalState":{"key":"08","name":"Baden-Württemberg"}},{"name":"Im Flieder","postalCode":"71554","locality":"Weissach im Tal","municipality":{"key":"08119083","name":"Weissach im Tal","type":"Kreisangehörige_Gemeinde"},"district":{"key":"08119","name":"Rems-Murr-Kreis","type":"Landkreis"},"federalState":{"key":"08","name":"Baden-Württemberg"}},{"name":"Im Hagenreissach","postalCode":"71554","locality":"Weissach im Tal","municipality":{"key":"08119083","name":"Weissach im Tal","type":"Kreisangehörige_Gemeinde"},"district":{"key":"08119","name":"Rems-Murr-Kreis","type":"Landkreis"},"federalState":{"key":"08","name":"Baden-Württemberg"}},{"name":"Im Hartfeld","postalCode":"71554","locality":"Weissach im Tal","municipality":{"key":"08119083","name":"Weissach im Tal","type":"Kreisangehörige_Gemeinde"},"district":{"key":"08119","name":"Rems-Murr-Kreis","type":"Landkreis"},"federalState":{"key":"08","name":"Baden-Württemberg"}},{"name":"Im Käsbühl","postalCode":"71554","locality":"Weissach im Tal","municipality":{"key":"08119083","name":"Weissach im Tal","type":"Kreisangehörige_Gemeinde"},"district":{"key":"08119","name":"Rems-Murr-Kreis","type":"Landkreis"},"federalState":{"key":"08","name":"Baden-Württemberg"}},{"name":"Im Kugelhof","postalCode":"71554","locality":"Weissach im Tal","municipality":{"key":"08119083","name":"Weissach im Tal","type":"Kreisangehörige_Gemeinde"},"district":{"key":"08119","name":"Rems-Murr-Kreis","type":"Landkreis"},"federalState":{"key":"08","name":"Baden-Württemberg"}},{"name":"Im Wiesengrund","postalCode":"71554","locality":"Weissach im Tal","municipality":{"key":"08119083","name":"Weissach im Tal","type":"Kreisangehörige_Gemeinde"},"district":{"key":"08119","name":"Rems-Murr-Kreis","type":"Landkreis"},"federalState":{"key":"08","name":"Baden-Württemberg"}},{"name":"Im Wiesental","postalCode":"71554","locality":"Weissach im Tal","municipality":{"key":"08119083","name":"Weissach im Tal","type":"Kreisangehörige_Gemeinde"},"district":{"key":"08119","name":"Rems-Murr-Kreis","type":"Landkreis"},"federalState":{"key":"08","name":"Baden-Württemberg"}},{"name":"In den Bubwiesen","postalCode":"71554","locality":"Weissach im Tal","municipality":{"key":"08119083","name":"Weissach im Tal","type":"Kreisangehörige_Gemeinde"},"district":{"key":"08119","name":"Rems-Murr-Kreis","type":"Landkreis"},"federalState":{"key":"08","name":"Baden-Württemberg"}},{"name":"In den Gassenäckern","postalCode":"71554","locality":"Weissach im Tal","municipality":{"key":"08119083","name":"Weissach im Tal","type":"Kreisangehörige_Gemeinde"},"district":{"key":"08119","name":"Rems-Murr-Kreis","type":"Landkreis"},"federalState":{"key":"08","name":"Baden-Württemberg"}},{"name":"In den Hauswiesen","postalCode":"71554","locality":"Weissach im Tal","municipality":{"key":"08119083","name":"Weissach im Tal","type":"Kreisangehörige_Gemeinde"},"district":{"key":"08119","name":"Rems-Murr-Kreis","type":"Landkreis"},"federalState":{"key":"08","name":"Baden-Württemberg"}},{"name":"In den Heiligenwiesen","postalCode":"71554","locality":"Weissach im Tal","municipality":{"key":"08119083","name":"Weissach im Tal","type":"Kreisangehörige_Gemeinde"},"district":{"key":"08119","name":"Rems-Murr-Kreis","type":"Landkreis"},"federalState":{"key":"08","name":"Baden-Württemberg"}},{"name":"In den Huzelgärten","postalCode":"71554","locality":"Weissach im Tal","municipality":{"key":"08119083","name":"Weissach im Tal","type":"Kreisangehörige_Gemeinde"},"district":{"key":"08119","name":"Rems-Murr-Kreis","type":"Landkreis"},"federalState":{"key":"08","name":"Baden-Württemberg"}},{"name":"In den Keckenwiesen","postalCode":"71554","locality":"Weissach im Tal","municipality":{"key":"08119083","name":"Weissach im Tal","type":"Kreisangehörige_Gemeinde"},"district":{"key":"08119","name":"Rems-Murr-Kreis","type":"Landkreis"},"federalState":{"key":"08","name":"Baden-Württemberg"}},{"name":"In den Rohrwiesen","postalCode":"71554","locality":"Weissach im Tal","municipality":{"key":"08119083","name":"Weissach im Tal","type":"Kreisangehörige_Gemeinde"},"district":{"key":"08119","name":"Rems-Murr-Kreis","type":"Landkreis"},"federalState":{"key":"08","name":"Baden-Württemberg"}},{"name":"In den Schelmenäckern","postalCode":"71554","locality":"Weissach im Tal","municipality":{"key":"08119083","name":"Weissach im Tal","type":"Kreisangehörige_Gemeinde"},"district":{"key":"08119","name":"Rems-Murr-Kreis","type":"Landkreis"},"federalState":{"key":"08","name":"Baden-Württemberg"}},{"name":"In der Au","postalCode":"71554","locality":"Weissach im Tal","municipality":{"key":"08119083","name":"Weissach im Tal","type":"Kreisangehörige_Gemeinde"},"district":{"key":"08119","name":"Rems-Murr-Kreis","type":"Landkreis"},"federalState":{"key":"08","name":"Baden-Württemberg"}},{"name":"In der Zangershalde","postalCode":"71554","locality":"Weissach im Tal","municipality":{"key":"08119083","name":"Weissach im Tal","type":"Kreisangehörige_Gemeinde"},"district":{"key":"08119","name":"Rems-Murr-Kreis","type":"Landkreis"},"federalState":{"key":"08","name":"Baden-Württemberg"}},{"name":"Ipfweg","postalCode":"71554","locality":"Weissach im Tal","municipality":{"key":"08119083","name":"Weissach im Tal","type":"Kreisangehörige_Gemeinde"},"district":{"key":"08119","name":"Rems-Murr-Kreis","type":"Landkreis"},"federalState":{"key":"08","name":"Baden-Württemberg"}},{"name":"Jägerhalde","postalCode":"71554","locality":"Weissach im Tal","municipality":{"key":"08119083","name":"Weissach im Tal","type":"Kreisangehörige_Gemeinde"},"district":{"key":"08119","name":"Rems-Murr-Kreis","type":"Landkreis"},"federalState":{"key":"08","name":"Baden-Württemberg"}},{"name":"Jahnstr.","postalCode":"71554","locality":"Weissach im Tal","municipality":{"key":"08119083","name":"Weissach im Tal","type":"Kreisangehörige_Gemeinde"},"district":{"key":"08119","name":"Rems-Murr-Kreis","type":"Landkreis"},"federalState":{"key":"08","name":"Baden-Württemberg"}},{"name":"Käfig","postalCode":"71554","locality":"Weissach im Tal","municipality":{"key":"08119083","name":"Weissach im Tal","type":"Kreisangehörige_Gemeinde"},"district":{"key":"08119","name":"Rems-Murr-Kreis","type":"Landkreis"},"federalState":{"key":"08","name":"Baden-Württemberg"}},{"name":"Kammerhof","postalCode":"71554","locality":"Weissach im Tal","municipality":{"key":"08119083","name":"Weissach im Tal","type":"Kreisangehörige_Gemeinde"},"district":{"key":"08119","name":"Rems-Murr-Kreis","type":"Landkreis"},"federalState":{"key":"08","name":"Baden-Württemberg"}},{"name":"Kammerhofweg","postalCode":"71554","locality":"Weissach im Tal","municipality":{"key":"08119083","name":"Weissach im Tal","type":"Kreisangehörige_Gemeinde"},"district":{"key":"08119","name":"Rems-Murr-Kreis","type":"Landkreis"},"federalState":{"key":"08","name":"Baden-Württemberg"}},{"name":"Käsbühlstr.","postalCode":"71554","locality":"Weissach im Tal","municipality":{"key":"08119083","name":"Weissach im Tal","type":"Kreisangehörige_Gemeinde"},"district":{"key":"08119","name":"Rems-Murr-Kreis","type":"Landkreis"},"federalState":{"key":"08","name":"Baden-Württemberg"}},{"name":"Kelterweg","postalCode":"71554","locality":"Weissach im Tal","municipality":{"key":"08119083","name":"Weissach im Tal","type":"Kreisangehörige_Gemeinde"},"district":{"key":"08119","name":"Rems-Murr-Kreis","type":"Landkreis"},"federalState":{"key":"08","name":"Baden-Württemberg"}},{"name":"Kelterweinberge","postalCode":"71554","locality":"Weissach im Tal","municipality":{"key":"08119083","name":"Weissach im Tal","type":"Kreisangehörige_Gemeinde"},"district":{"key":"08119","name":"Rems-Murr-Kreis","type":"Landkreis"},"federalState":{"key":"08","name":"Baden-Württemberg"}},{"name":"Keplerstr.","postalCode":"71554","locality":"Weissach im Tal","municipality":{"key":"08119083","name":"Weissach im Tal","type":"Kreisangehörige_Gemeinde"},"district":{"key":"08119","name":"Rems-Murr-Kreis","type":"Landkreis"},"federalState":{"key":"08","name":"Baden-Württemberg"}},{"name":"Kercherweg","postalCode":"71554","locality":"Weissach im Tal","municipality":{"key":"08119083","name":"Weissach im Tal","type":"Kreisangehörige_Gemeinde"},"district":{"key":"08119","name":"Rems-Murr-Kreis","type":"Landkreis"},"federalState":{"key":"08","name":"Baden-Württemberg"}},{"name":"Kernerstr.","postalCode":"71554","locality":"Weissach im Tal","municipality":{"key":"08119083","name":"Weissach im Tal","type":"Kreisangehörige_Gemeinde"},"district":{"key":"08119","name":"Rems-Murr-Kreis","type":"Landkreis"},"federalState":{"key":"08","name":"Baden-Württemberg"}},{"name":"Kirchberg","postalCode":"71554","locality":"Weissach im Tal","municipality":{"key":"08119083","name":"Weissach im Tal","type":"Kreisangehörige_Gemeinde"},"district":{"key":"08119","name":"Rems-Murr-Kreis","type":"Landkreis"},"federalState":{"key":"08","name":"Baden-Württemberg"}},{"name":"Krokusstr.","postalCode":"71554","locality":"Weissach im Tal","municipality":{"key":"08119083","name":"Weissach im Tal","type":"Kreisangehörige_Gemeinde"},"district":{"key":"08119","name":"Rems-Murr-Kreis","type":"Landkreis"},"federalState":{"key":"08","name":"Baden-Württemberg"}},{"name":"Lange Brücke","postalCode":"71554","locality":"Weissach im Tal","municipality":{"key":"08119083","name":"Weissach im Tal","type":"Kreisangehörige_Gemeinde"},"district":{"key":"08119","name":"Rems-Murr-Kreis","type":"Landkreis"},"federalState":{"key":"08","name":"Baden-Württemberg"}},{"name":"Langwiesenstr.","postalCode":"71554","locality":"Weissach im Tal","municipality":{"key":"08119083","name":"Weissach im Tal","type":"Kreisangehörige_Gemeinde"},"district":{"key":"08119","name":"Rems-Murr-Kreis","type":"Landkreis"},"federalState":{"key":"08","name":"Baden-Württemberg"}},{"name":"Lerchenstr.","postalCode":"71554","locality":"Weissach im Tal","municipality":{"key":"08119083","name":"Weissach im Tal","type":"Kreisangehörige_Gemeinde"},"district":{"key":"08119","name":"Rems-Murr-Kreis","type":"Landkreis"},"federalState":{"key":"08","name":"Baden-Württemberg"}},{"name":"Lessingstr.","postalCode":"71554","locality":"Weissach im Tal","municipality":{"key":"08119083","name":"Weissach im Tal","type":"Kreisangehörige_Gemeinde"},"district":{"key":"08119","name":"Rems-Murr-Kreis","type":"Landkreis"},"federalState":{"key":"08","name":"Baden-Württemberg"}},{"name":"Liebigstr.","postalCode":"71554","locality":"Weissach im Tal","municipality":{"key":"08119083","name":"Weissach im Tal","type":"Kreisangehörige_Gemeinde"},"district":{"key":"08119","name":"Rems-Murr-Kreis","type":"Landkreis"},"federalState":{"key":"08","name":"Baden-Württemberg"}},{"name":"Lilienweg","postalCode":"71554","locality":"Weissach im Tal","municipality":{"key":"08119083","name":"Weissach im Tal","type":"Kreisangehörige_Gemeinde"},"district":{"key":"08119","name":"Rems-Murr-Kreis","type":"Landkreis"},"federalState":{"key":"08","name":"Baden-Württemberg"}},{"name":"Lindenplatz","postalCode":"71554","locality":"Weissach im Tal","municipality":{"key":"08119083","name":"Weissach im Tal","type":"Kreisangehörige_Gemeinde"},"district":{"key":"08119","name":"Rems-Murr-Kreis","type":"Landkreis"},"federalState":{"key":"08","name":"Baden-Württemberg"}},{"name":"Lindenweg","postalCode":"71554","locality":"Weissach im Tal","municipality":{"key":"08119083","name":"Weissach im Tal","type":"Kreisangehörige_Gemeinde"},"district":{"key":"08119","name":"Rems-Murr-Kreis","type":"Landkreis"},"federalState":{"key":"08","name":"Baden-Württemberg"}},{"name":"Lommatzscher Str.","postalCode":"71554","locality":"Weissach im Tal","municipality":{"key":"08119083","name":"Weissach im Tal","type":"Kreisangehörige_Gemeinde"},"district":{"key":"08119","name":"Rems-Murr-Kreis","type":"Landkreis"},"federalState":{"key":"08","name":"Baden-Württemberg"}},{"name":"Lutzenbergstr.","postalCode":"71554","locality":"Weissach im Tal","municipality":{"key":"08119083","name":"Weissach im Tal","type":"Kreisangehörige_Gemeinde"},"district":{"key":"08119","name":"Rems-Murr-Kreis","type":"Landkreis"},"federalState":{"key":"08","name":"Baden-Württemberg"}},{"name":"Marktplatz","postalCode":"71554","locality":"Weissach im Tal","municipality":{"key":"08119083","name":"Weissach im Tal","type":"Kreisangehörige_Gemeinde"},"district":{"key":"08119","name":"Rems-Murr-Kreis","type":"Landkreis"},"federalState":{"key":"08","name":"Baden-Württemberg"}},{"name":"Martin-Luther-Weg","postalCode":"71554","locality":"Weissach im Tal","municipality":{"key":"08119083","name":"Weissach im Tal","type":"Kreisangehörige_Gemeinde"},"district":{"key":"08119","name":"Rems-Murr-Kreis","type":"Landkreis"},"federalState":{"key":"08","name":"Baden-Württemberg"}},{"name":"Mauergässle","postalCode":"71554","locality":"Weissach im Tal","municipality":{"key":"08119083","name":"Weissach im Tal","type":"Kreisangehörige_Gemeinde"},"district":{"key":"08119","name":"Rems-Murr-Kreis","type":"Landkreis"},"federalState":{"key":"08","name":"Baden-Württemberg"}},{"name":"Mauerweg","postalCode":"71554","locality":"Weissach im Tal","municipality":{"key":"08119083","name":"Weissach im Tal","type":"Kreisangehörige_Gemeinde"},"district":{"key":"08119","name":"Rems-Murr-Kreis","type":"Landkreis"},"federalState":{"key":"08","name":"Baden-Württemberg"}},{"name":"Max-Eyth-Str.","postalCode":"71554","locality":"Weissach im Tal","municipality":{"key":"08119083","name":"Weissach im Tal","type":"Kreisangehörige_Gemeinde"},"district":{"key":"08119","name":"Rems-Murr-Kreis","type":"Landkreis"},"federalState":{"key":"08","name":"Baden-Württemberg"}},{"name":"Meisenstr.","postalCode":"71554","locality":"Weissach im Tal","municipality":{"key":"08119083","name":"Weissach im Tal","type":"Kreisangehörige_Gemeinde"},"district":{"key":"08119","name":"Rems-Murr-Kreis","type":"Landkreis"},"federalState":{"key":"08","name":"Baden-Württemberg"}},{"name":"Mörikestr.","postalCode":"71554","locality":"Weissach im Tal","municipality":{"key":"08119083","name":"Weissach im Tal","type":"Kreisangehörige_Gemeinde"},"district":{"key":"08119","name":"Rems-Murr-Kreis","type":"Landkreis"},"federalState":{"key":"08","name":"Baden-Württemberg"}},{"name":"Mozartstr.","postalCode":"71554","locality":"Weissach im Tal","municipality":{"key":"08119083","name":"Weissach im Tal","type":"Kreisangehörige_Gemeinde"},"district":{"key":"08119","name":"Rems-Murr-Kreis","type":"Landkreis"},"federalState":{"key":"08","name":"Baden-Württemberg"}},{"name":"Mühlhalde","postalCode":"71554","locality":"Weissach im Tal","municipality":{"key":"08119083","name":"Weissach im Tal","type":"Kreisangehörige_Gemeinde"},"district":{"key":"08119","name":"Rems-Murr-Kreis","type":"Landkreis"},"federalState":{"key":"08","name":"Baden-Württemberg"}},{"name":"Mühlrainwegle","postalCode":"71554","locality":"Weissach im Tal","municipality":{"key":"08119083","name":"Weissach im Tal","type":"Kreisangehörige_Gemeinde"},"district":{"key":"08119","name":"Rems-Murr-Kreis","type":"Landkreis"},"federalState":{"key":"08","name":"Baden-Württemberg"}},{"name":"Mühlweg","postalCode":"71554","locality":"Weissach im Tal","municipality":{"key":"08119083","name":"Weissach im Tal","type":"Kreisangehörige_Gemeinde"},"district":{"key":"08119","name":"Rems-Murr-Kreis","type":"Landkreis"},"federalState":{"key":"08","name":"Baden-Württemberg"}},{"name":"Nachtigallenstr.","postalCode":"71554","locality":"Weissach im Tal","municipality":{"key":"08119083","name":"Weissach im Tal","type":"Kreisangehörige_Gemeinde"},"district":{"key":"08119","name":"Rems-Murr-Kreis","type":"Landkreis"},"federalState":{"key":"08","name":"Baden-Württemberg"}},{"name":"Narzissenweg","postalCode":"71554","locality":"Weissach im Tal","municipality":{"key":"08119083","name":"Weissach im Tal","type":"Kreisangehörige_Gemeinde"},"district":{"key":"08119","name":"Rems-Murr-Kreis","type":"Landkreis"},"federalState":{"key":"08","name":"Baden-Württemberg"}},{"name":"Nelkenweg","postalCode":"71554","locality":"Weissach im Tal","municipality":{"key":"08119083","name":"Weissach im Tal","type":"Kreisangehörige_Gemeinde"},"district":{"key":"08119","name":"Rems-Murr-Kreis","type":"Landkreis"},"federalState":{"key":"08","name":"Baden-Württemberg"}},{"name":"Neuffenstr.","postalCode":"71554","locality":"Weissach im Tal","municipality":{"key":"08119083","name":"Weissach im Tal","type":"Kreisangehörige_Gemeinde"},"district":{"key":"08119","name":"Rems-Murr-Kreis","type":"Landkreis"},"federalState":{"key":"08","name":"Baden-Württemberg"}},{"name":"Oberweissacher Str.","postalCode":"71554","locality":"Weissach im Tal","municipality":{"key":"08119083","name":"Weissach im Tal","type":"Kreisangehörige_Gemeinde"},"district":{"key":"08119","name":"Rems-Murr-Kreis","type":"Landkreis"},"federalState":{"key":"08","name":"Baden-Württemberg"}},{"name":"Rechbergstr.","postalCode":"71554","locality":"Weissach im Tal","municipality":{"key":"08119083","name":"Weissach im Tal","type":"Kreisangehörige_Gemeinde"},"district":{"key":"08119","name":"Rems-Murr-Kreis","type":"Landkreis"},"federalState":{"key":"08","name":"Baden-Württemberg"}},{"name":"Rieslingweg","postalCode":"71554","locality":"Weissach im Tal","municipality":{"key":"08119083","name":"Weissach im Tal","type":"Kreisangehörige_Gemeinde"},"district":{"key":"08119","name":"Rems-Murr-Kreis","type":"Landkreis"},"federalState":{"key":"08","name":"Baden-Württemberg"}},{"name":"Ringstr.","postalCode":"71554","locality":"Weissach im Tal","municipality":{"key":"08119083","name":"Weissach im Tal","type":"Kreisangehörige_Gemeinde"},"district":{"key":"08119","name":"Rems-Murr-Kreis","type":"Landkreis"},"federalState":{"key":"08","name":"Baden-Württemberg"}},{"name":"Rosenhain","postalCode":"71554","locality":"Weissach im Tal","municipality":{"key":"08119083","name":"Weissach im Tal","type":"Kreisangehörige_Gemeinde"},"district":{"key":"08119","name":"Rems-Murr-Kreis","type":"Landkreis"},"federalState":{"key":"08","name":"Baden-Württemberg"}},{"name":"Sandäcker","postalCode":"71554","locality":"Weissach im Tal","municipality":{"key":"08119083","name":"Weissach im Tal","type":"Kreisangehörige_Gemeinde"},"district":{"key":"08119","name":"Rems-Murr-Kreis","type":"Landkreis"},"federalState":{"key":"08","name":"Baden-Württemberg"}},{"name":"Sandberg","postalCode":"71554","locality":"Weissach im Tal","municipality":{"key":"08119083","name":"Weissach im Tal","type":"Kreisangehörige_Gemeinde"},"district":{"key":"08119","name":"Rems-Murr-Kreis","type":"Landkreis"},"federalState":{"key":"08","name":"Baden-Württemberg"}},{"name":"Sandfeld","postalCode":"71554","locality":"Weissach im Tal","municipality":{"key":"08119083","name":"Weissach im Tal","type":"Kreisangehörige_Gemeinde"},"district":{"key":"08119","name":"Rems-Murr-Kreis","type":"Landkreis"},"federalState":{"key":"08","name":"Baden-Württemberg"}},{"name":"Schillerstr.","postalCode":"71554","locality":"Weissach im Tal","municipality":{"key":"08119083","name":"Weissach im Tal","type":"Kreisangehörige_Gemeinde"},"district":{"key":"08119","name":"Rems-Murr-Kreis","type":"Landkreis"},"federalState":{"key":"08","name":"Baden-Württemberg"}},{"name":"Schönblick","postalCode":"71554","locality":"Weissach im Tal","municipality":{"key":"08119083","name":"Weissach im Tal","type":"Kreisangehörige_Gemeinde"},"district":{"key":"08119","name":"Rems-Murr-Kreis","type":"Landkreis"},"federalState":{"key":"08","name":"Baden-Württemberg"}},{"name":"Schulweg","postalCode":"71554","locality":"Weissach im Tal","municipality":{"key":"08119083","name":"Weissach im Tal","type":"Kreisangehörige_Gemeinde"},"district":{"key":"08119","name":"Rems-Murr-Kreis","type":"Landkreis"},"federalState":{"key":"08","name":"Baden-Württemberg"}},{"name":"Schwabstr.","postalCode":"71554","locality":"Weissach im Tal","municipality":{"key":"08119083","name":"Weissach im Tal","type":"Kreisangehörige_Gemeinde"},"district":{"key":"08119","name":"Rems-Murr-Kreis","type":"Landkreis"},"federalState":{"key":"08","name":"Baden-Württemberg"}},{"name":"Schwalbenweg","postalCode":"71554","locality":"Weissach im Tal","municipality":{"key":"08119083","name":"Weissach im Tal","type":"Kreisangehörige_Gemeinde"},"district":{"key":"08119","name":"Rems-Murr-Kreis","type":"Landkreis"},"federalState":{"key":"08","name":"Baden-Württemberg"}},{"name":"Seeberg","postalCode":"71554","locality":"Weissach im Tal","municipality":{"key":"08119083","name":"Weissach im Tal","type":"Kreisangehörige_Gemeinde"},"district":{"key":"08119","name":"Rems-Murr-Kreis","type":"Landkreis"},"federalState":{"key":"08","name":"Baden-Württemberg"}},{"name":"Seegutstr.","postalCode":"71554","locality":"Weissach im Tal","municipality":{"key":"08119083","name":"Weissach im Tal","type":"Kreisangehörige_Gemeinde"},"district":{"key":"08119","name":"Rems-Murr-Kreis","type":"Landkreis"},"federalState":{"key":"08","name":"Baden-Württemberg"}},{"name":"Seestr.","postalCode":"71554","locality":"Weissach im Tal","municipality":{"key":"08119083","name":"Weissach im Tal","type":"Kreisangehörige_Gemeinde"},"district":{"key":"08119","name":"Rems-Murr-Kreis","type":"Landkreis"},"federalState":{"key":"08","name":"Baden-Württemberg"}},{"name":"Silcherstr.","postalCode":"71554","locality":"Weissach im Tal","municipality":{"key":"08119083","name":"Weissach im Tal","type":"Kreisangehörige_Gemeinde"},"district":{"key":"08119","name":"Rems-Murr-Kreis","type":"Landkreis"},"federalState":{"key":"08","name":"Baden-Württemberg"}},{"name":"Silvanerweg","postalCode":"71554","locality":"Weissach im Tal","municipality":{"key":"08119083","name":"Weissach im Tal","type":"Kreisangehörige_Gemeinde"},"district":{"key":"08119","name":"Rems-Murr-Kreis","type":"Landkreis"},"federalState":{"key":"08","name":"Baden-Württemberg"}},{"name":"Sommerhalde","postalCode":"71554","locality":"Weissach im Tal","municipality":{"key":"08119083","name":"Weissach im Tal","type":"Kreisangehörige_Gemeinde"},"district":{"key":"08119","name":"Rems-Murr-Kreis","type":"Landkreis"},"federalState":{"key":"08","name":"Baden-Württemberg"}},{"name":"Sonnenblick","postalCode":"71554","locality":"Weissach im Tal","municipality":{"key":"08119083","name":"Weissach im Tal","type":"Kreisangehörige_Gemeinde"},"district":{"key":"08119","name":"Rems-Murr-Kreis","type":"Landkreis"},"federalState":{"key":"08","name":"Baden-Württemberg"}},{"name":"Spatzenhofweg","postalCode":"71554","locality":"Weissach im Tal","municipality":{"key":"08119083","name":"Weissach im Tal","type":"Kreisangehörige_Gemeinde"},"district":{"key":"08119","name":"Rems-Murr-Kreis","type":"Landkreis"},"federalState":{"key":"08","name":"Baden-Württemberg"}},{"name":"Spechtstr.","postalCode":"71554","locality":"Weissach im Tal","municipality":{"key":"08119083","name":"Weissach im Tal","type":"Kreisangehörige_Gemeinde"},"district":{"key":"08119","name":"Rems-Murr-Kreis","type":"Landkreis"},"federalState":{"key":"08","name":"Baden-Württemberg"}},{"name":"Starenweg","postalCode":"71554","locality":"Weissach im Tal","municipality":{"key":"08119083","name":"Weissach im Tal","type":"Kreisangehörige_Gemeinde"},"district":{"key":"08119","name":"Rems-Murr-Kreis","type":"Landkreis"},"federalState":{"key":"08","name":"Baden-Württemberg"}},{"name":"Steigstr.","postalCode":"71554","locality":"Weissach im Tal","municipality":{"key":"08119083","name":"Weissach im Tal","type":"Kreisangehörige_Gemeinde"},"district":{"key":"08119","name":"Rems-Murr-Kreis","type":"Landkreis"},"federalState":{"key":"08","name":"Baden-Württemberg"}},{"name":"Stuifenstr.","postalCode":"71554","locality":"Weissach im Tal","municipality":{"key":"08119083","name":"Weissach im Tal","type":"Kreisangehörige_Gemeinde"},"district":{"key":"08119","name":"Rems-Murr-Kreis","type":"Landkreis"},"federalState":{"key":"08","name":"Baden-Württemberg"}},{"name":"Stuttgarter Str.","postalCode":"71554","locality":"Weissach im Tal","municipality":{"key":"08119083","name":"Weissach im Tal","type":"Kreisangehörige_Gemeinde"},"district":{"key":"08119","name":"Rems-Murr-Kreis","type":"Landkreis"},"federalState":{"key":"08","name":"Baden-Württemberg"}},{"name":"Täferhalde","postalCode":"71554","locality":"Weissach im Tal","municipality":{"key":"08119083","name":"Weissach im Tal","type":"Kreisangehörige_Gemeinde"},"district":{"key":"08119","name":"Rems-Murr-Kreis","type":"Landkreis"},"federalState":{"key":"08","name":"Baden-Württemberg"}},{"name":"Talstr.","postalCode":"71554","locality":"Weissach im Tal","municipality":{"key":"08119083","name":"Weissach im Tal","type":"Kreisangehörige_Gemeinde"},"district":{"key":"08119","name":"Rems-Murr-Kreis","type":"Landkreis"},"federalState":{"key":"08","name":"Baden-Württemberg"}},{"name":"Tannenstr.","postalCode":"71554","locality":"Weissach im Tal","municipality":{"key":"08119083","name":"Weissach im Tal","type":"Kreisangehörige_Gemeinde"},"district":{"key":"08119","name":"Rems-Murr-Kreis","type":"Landkreis"},"federalState":{"key":"08","name":"Baden-Württemberg"}},{"name":"Teckstr.","postalCode":"71554","locality":"Weissach im Tal","municipality":{"key":"08119083","name":"Weissach im Tal","type":"Kreisangehörige_Gemeinde"},"district":{"key":"08119","name":"Rems-Murr-Kreis","type":"Landkreis"},"federalState":{"key":"08","name":"Baden-Württemberg"}},{"name":"Teichstr.","postalCode":"71554","locality":"Weissach im Tal","municipality":{"key":"08119083","name":"Weissach im Tal","type":"Kreisangehörige_Gemeinde"},"district":{"key":"08119","name":"Rems-Murr-Kreis","type":"Landkreis"},"federalState":{"key":"08","name":"Baden-Württemberg"}},{"name":"Totengässle","postalCode":"71554","locality":"Weissach im Tal","municipality":{"key":"08119083","name":"Weissach im Tal","type":"Kreisangehörige_Gemeinde"},"district":{"key":"08119","name":"Rems-Murr-Kreis","type":"Landkreis"},"federalState":{"key":"08","name":"Baden-Württemberg"}},{"name":"Trollingerweg","postalCode":"71554","locality":"Weissach im Tal","municipality":{"key":"08119083","name":"Weissach im Tal","type":"Kreisangehörige_Gemeinde"},"district":{"key":"08119","name":"Rems-Murr-Kreis","type":"Landkreis"},"federalState":{"key":"08","name":"Baden-Württemberg"}},{"name":"Tulpenstr.","postalCode":"71554","locality":"Weissach im Tal","municipality":{"key":"08119083","name":"Weissach im Tal","type":"Kreisangehörige_Gemeinde"},"district":{"key":"08119","name":"Rems-Murr-Kreis","type":"Landkreis"},"federalState":{"key":"08","name":"Baden-Württemberg"}},{"name":"Uhlandstr.","postalCode":"71554","locality":"Weissach im Tal","municipality":{"key":"08119083","name":"Weissach im Tal","type":"Kreisangehörige_Gemeinde"},"district":{"key":"08119","name":"Rems-Murr-Kreis","type":"Landkreis"},"federalState":{"key":"08","name":"Baden-Württemberg"}},{"name":"Unterm Kamin","postalCode":"71554","locality":"Weissach im Tal","municipality":{"key":"08119083","name":"Weissach im Tal","type":"Kreisangehörige_Gemeinde"},"district":{"key":"08119","name":"Rems-Murr-Kreis","type":"Landkreis"},"federalState":{"key":"08","name":"Baden-Württemberg"}},{"name":"Unterweissacher Str.","postalCode":"71554","locality":"Weissach im Tal","municipality":{"key":"08119083","name":"Weissach im Tal","type":"Kreisangehörige_Gemeinde"},"district":{"key":"08119","name":"Rems-Murr-Kreis","type":"Landkreis"},"federalState":{"key":"08","name":"Baden-Württemberg"}},{"name":"Waldweg","postalCode":"71554","locality":"Weissach im Tal","municipality":{"key":"08119083","name":"Weissach im Tal","type":"Kreisangehörige_Gemeinde"},"district":{"key":"08119","name":"Rems-Murr-Kreis","type":"Landkreis"},"federalState":{"key":"08","name":"Baden-Württemberg"}},{"name":"Wannenfeld","postalCode":"71554","locality":"Weissach im Tal","municipality":{"key":"08119083","name":"Weissach im Tal","type":"Kreisangehörige_Gemeinde"},"district":{"key":"08119","name":"Rems-Murr-Kreis","type":"Landkreis"},"federalState":{"key":"08","name":"Baden-Württemberg"}},{"name":"Wannengrund","postalCode":"71554","locality":"Weissach im Tal","municipality":{"key":"08119083","name":"Weissach im Tal","type":"Kreisangehörige_Gemeinde"},"district":{"key":"08119","name":"Rems-Murr-Kreis","type":"Landkreis"},"federalState":{"key":"08","name":"Baden-Württemberg"}},{"name":"Wasengärten","postalCode":"71554","locality":"Weissach im Tal","municipality":{"key":"08119083","name":"Weissach im Tal","type":"Kreisangehörige_Gemeinde"},"district":{"key":"08119","name":"Rems-Murr-Kreis","type":"Landkreis"},"federalState":{"key":"08","name":"Baden-Württemberg"}},{"name":"Wattenweiler Str.","postalCode":"71554","locality":"Weissach im Tal","municipality":{"key":"08119083","name":"Weissach im Tal","type":"Kreisangehörige_Gemeinde"},"district":{"key":"08119","name":"Rems-Murr-Kreis","type":"Landkreis"},"federalState":{"key":"08","name":"Baden-Württemberg"}},{"name":"Wefzgenhölzlesweg","postalCode":"71554","locality":"Weissach im Tal","municipality":{"key":"08119083","name":"Weissach im Tal","type":"Kreisangehörige_Gemeinde"},"district":{"key":"08119","name":"Rems-Murr-Kreis","type":"Landkreis"},"federalState":{"key":"08","name":"Baden-Württemberg"}},{"name":"Wegwiesenweg","postalCode":"71554","locality":"Weissach im Tal","municipality":{"key":"08119083","name":"Weissach im Tal","type":"Kreisangehörige_Gemeinde"},"district":{"key":"08119","name":"Rems-Murr-Kreis","type":"Landkreis"},"federalState":{"key":"08","name":"Baden-Württemberg"}},{"name":"Weidenweg","postalCode":"71554","locality":"Weissach im Tal","municipality":{"key":"08119083","name":"Weissach im Tal","type":"Kreisangehörige_Gemeinde"},"district":{"key":"08119","name":"Rems-Murr-Kreis","type":"Landkreis"},"federalState":{"key":"08","name":"Baden-Württemberg"}},{"name":"Weissachstr.","postalCode":"71554","locality":"Weissach im Tal","municipality":{"key":"08119083","name":"Weissach im Tal","type":"Kreisangehörige_Gemeinde"},"district":{"key":"08119","name":"Rems-Murr-Kreis","type":"Landkreis"},"federalState":{"key":"08","name":"Baden-Württemberg"}},{"name":"Welzgraben","postalCode":"71554","locality":"Weissach im Tal","municipality":{"key":"08119083","name":"Weissach im Tal","type":"Kreisangehörige_Gemeinde"},"district":{"key":"08119","name":"Rems-Murr-Kreis","type":"Landkreis"},"federalState":{"key":"08","name":"Baden-Württemberg"}},{"name":"Welzheimer Str.","postalCode":"71554","locality":"Weissach im Tal","municipality":{"key":"08119083","name":"Weissach im Tal","type":"Kreisangehörige_Gemeinde"},"district":{"key":"08119","name":"Rems-Murr-Kreis","type":"Landkreis"},"federalState":{"key":"08","name":"Baden-Württemberg"}},{"name":"Wengertweg","postalCode":"71554","locality":"Weissach im Tal","municipality":{"key":"08119083","name":"Weissach im Tal","type":"Kreisangehörige_Gemeinde"},"district":{"key":"08119","name":"Rems-Murr-Kreis","type":"Landkreis"},"federalState":{"key":"08","name":"Baden-Württemberg"}},{"name":"Zedernweg","postalCode":"71554","locality":"Weissach im Tal","municipality":{"key":"08119083","name":"Weissach im Tal","type":"Kreisangehörige_Gemeinde"},"district":{"key":"08119","name":"Rems-Murr-Kreis","type":"Landkreis"},"federalState":{"key":"08","name":"Baden-Württemberg"}},{"name":"Ährenweg","postalCode":"71554","locality":"Weissach im Tal","municipality":{"key":"08119083","name":"Weissach im Tal","type":"Kreisangehörige_Gemeinde"},"district":{"key":"08119","name":"Rems-Murr-Kreis","type":"Landkreis"},"federalState":{"key":"08","name":"Baden-Württemberg"}},]