[{"name":"10. Schneise","postalCode":"35394","locality":"Gießen","municipality":{"key":"06531005","name":"Gießen, Universitätsstadt","type":"Stadt"},"district":{"key":"06531","name":"Gießen","type":"Landkreis"},"federalState":{"key":"06","name":"Hessen"}},{"name":"11. Schneise","postalCode":"35394","locality":"Gießen","municipality":{"key":"06531005","name":"Gießen, Universitätsstadt","type":"Stadt"},"district":{"key":"06531","name":"Gießen","type":"Landkreis"},"federalState":{"key":"06","name":"Hessen"}},{"name":"12. Schneise","postalCode":"35394","locality":"Gießen","municipality":{"key":"06531005","name":"Gießen, Universitätsstadt","type":"Stadt"},"district":{"key":"06531","name":"Gießen","type":"Landkreis"},"federalState":{"key":"06","name":"Hessen"}},{"name":"13. Schneise","postalCode":"35394","locality":"Gießen","municipality":{"key":"06531005","name":"Gießen, Universitätsstadt","type":"Stadt"},"district":{"key":"06531","name":"Gießen","type":"Landkreis"},"federalState":{"key":"06","name":"Hessen"}},{"name":"1. Schneise","postalCode":"35394","locality":"Gießen","municipality":{"key":"06531005","name":"Gießen, Universitätsstadt","type":"Stadt"},"district":{"key":"06531","name":"Gießen","type":"Landkreis"},"federalState":{"key":"06","name":"Hessen"}},{"name":"2. Schneise","postalCode":"35394","locality":"Gießen","municipality":{"key":"06531005","name":"Gießen, Universitätsstadt","type":"Stadt"},"district":{"key":"06531","name":"Gießen","type":"Landkreis"},"federalState":{"key":"06","name":"Hessen"}},{"name":"3. Schneise","postalCode":"35394","locality":"Gießen","municipality":{"key":"06531005","name":"Gießen, Universitätsstadt","type":"Stadt"},"district":{"key":"06531","name":"Gießen","type":"Landkreis"},"federalState":{"key":"06","name":"Hessen"}},{"name":"4. Schneise","postalCode":"35394","locality":"Gießen","municipality":{"key":"06531005","name":"Gießen, Universitätsstadt","type":"Stadt"},"district":{"key":"06531","name":"Gießen","type":"Landkreis"},"federalState":{"key":"06","name":"Hessen"}},{"name":"5. Schneise","postalCode":"35394","locality":"Gießen","municipality":{"key":"06531005","name":"Gießen, Universitätsstadt","type":"Stadt"},"district":{"key":"06531","name":"Gießen","type":"Landkreis"},"federalState":{"key":"06","name":"Hessen"}},{"name":"6. Schneise","postalCode":"35394","locality":"Gießen","municipality":{"key":"06531005","name":"Gießen, Universitätsstadt","type":"Stadt"},"district":{"key":"06531","name":"Gießen","type":"Landkreis"},"federalState":{"key":"06","name":"Hessen"}},{"name":"7. Schneise","postalCode":"35394","locality":"Gießen","municipality":{"key":"06531005","name":"Gießen, Universitätsstadt","type":"Stadt"},"district":{"key":"06531","name":"Gießen","type":"Landkreis"},"federalState":{"key":"06","name":"Hessen"}},{"name":"8. Schneise","postalCode":"35394","locality":"Gießen","municipality":{"key":"06531005","name":"Gießen, Universitätsstadt","type":"Stadt"},"district":{"key":"06531","name":"Gießen","type":"Landkreis"},"federalState":{"key":"06","name":"Hessen"}},{"name":"9. Schneise","postalCode":"35394","locality":"Gießen","municipality":{"key":"06531005","name":"Gießen, Universitätsstadt","type":"Stadt"},"district":{"key":"06531","name":"Gießen","type":"Landkreis"},"federalState":{"key":"06","name":"Hessen"}},{"name":"Adolf-Wieber-Str.","postalCode":"35321","locality":"Laubach","municipality":{"key":"06531010","name":"Laubach, Stadt","type":"Stadt"},"district":{"key":"06531","name":"Gießen","type":"Landkreis"},"federalState":{"key":"06","name":"Hessen"}},{"name":"Ahornweg","postalCode":"35321","locality":"Laubach","municipality":{"key":"06531010","name":"Laubach, Stadt","type":"Stadt"},"district":{"key":"06531","name":"Gießen","type":"Landkreis"},"federalState":{"key":"06","name":"Hessen"}},{"name":"Alfred-Funk-Str.","postalCode":"35321","locality":"Laubach","municipality":{"key":"06531010","name":"Laubach, Stadt","type":"Stadt"},"district":{"key":"06531","name":"Gießen","type":"Landkreis"},"federalState":{"key":"06","name":"Hessen"}},{"name":"Alsfelder Str.","postalCode":"35321","locality":"Laubach","municipality":{"key":"06531010","name":"Laubach, Stadt","type":"Stadt"},"district":{"key":"06531","name":"Gießen","type":"Landkreis"},"federalState":{"key":"06","name":"Hessen"}},{"name":"Altenhainer Str.","postalCode":"35321","locality":"Laubach","municipality":{"key":"06531010","name":"Laubach, Stadt","type":"Stadt"},"district":{"key":"06531","name":"Gießen","type":"Landkreis"},"federalState":{"key":"06","name":"Hessen"}},{"name":"Alter Bahndamm","postalCode":"35321","locality":"Laubach","municipality":{"key":"06531010","name":"Laubach, Stadt","type":"Stadt"},"district":{"key":"06531","name":"Gießen","type":"Landkreis"},"federalState":{"key":"06","name":"Hessen"}},{"name":"Alterkülzer Str.","postalCode":"56288","locality":"Laubach","municipality":{"key":"07140079","name":"Laubach","type":"Kreisangehörige_Gemeinde"},"district":{"key":"07140","name":"Rhein-Hunsrück-Kreis","type":"Landkreis"},"federalState":{"key":"07","name":"Rheinland-Pfalz"}},{"name":"Alter Weg","postalCode":"56759","locality":"Laubach","municipality":{"key":"07135052","name":"Laubach","type":"Kreisangehörige_Gemeinde"},"district":{"key":"07135","name":"Cochem-Zell","type":"Landkreis"},"federalState":{"key":"07","name":"Rheinland-Pfalz"}},{"name":"Am Äckerchen","postalCode":"66869","locality":"Blaubach","municipality":{"key":"07336006","name":"Blaubach","type":"Kreisangehörige_Gemeinde"},"district":{"key":"07336","name":"Kusel","type":"Landkreis"},"federalState":{"key":"07","name":"Rheinland-Pfalz"}},{"name":"Am Altenrod","postalCode":"35321","locality":"Laubach","municipality":{"key":"06531010","name":"Laubach, Stadt","type":"Stadt"},"district":{"key":"06531","name":"Gießen","type":"Landkreis"},"federalState":{"key":"06","name":"Hessen"}},{"name":"Am Beerberg","postalCode":"35321","locality":"Laubach","municipality":{"key":"06531010","name":"Laubach, Stadt","type":"Stadt"},"district":{"key":"06531","name":"Gießen","type":"Landkreis"},"federalState":{"key":"06","name":"Hessen"}},{"name":"Am Berg","postalCode":"35321","locality":"Laubach","municipality":{"key":"06531010","name":"Laubach, Stadt","type":"Stadt"},"district":{"key":"06531","name":"Gießen","type":"Landkreis"},"federalState":{"key":"06","name":"Hessen"}},{"name":"Am Breiten Stein","postalCode":"35321","locality":"Laubach","municipality":{"key":"06531010","name":"Laubach, Stadt","type":"Stadt"},"district":{"key":"06531","name":"Gießen","type":"Landkreis"},"federalState":{"key":"06","name":"Hessen"}},{"name":"Am Brückenberg","postalCode":"35321","locality":"Laubach","municipality":{"key":"06531010","name":"Laubach, Stadt","type":"Stadt"},"district":{"key":"06531","name":"Gießen","type":"Landkreis"},"federalState":{"key":"06","name":"Hessen"}},{"name":"Am Bürgelgrund","postalCode":"35321","locality":"Laubach","municipality":{"key":"06531010","name":"Laubach, Stadt","type":"Stadt"},"district":{"key":"06531","name":"Gießen","type":"Landkreis"},"federalState":{"key":"06","name":"Hessen"}},{"name":"Am Eselspfad","postalCode":"35321","locality":"Laubach","municipality":{"key":"06531010","name":"Laubach, Stadt","type":"Stadt"},"district":{"key":"06531","name":"Gießen","type":"Landkreis"},"federalState":{"key":"06","name":"Hessen"}},{"name":"Am Galgenberg","postalCode":"35321","locality":"Laubach","municipality":{"key":"06531010","name":"Laubach, Stadt","type":"Stadt"},"district":{"key":"06531","name":"Gießen","type":"Landkreis"},"federalState":{"key":"06","name":"Hessen"}},{"name":"Am Giebel","postalCode":"35321","locality":"Laubach","municipality":{"key":"06531010","name":"Laubach, Stadt","type":"Stadt"},"district":{"key":"06531","name":"Gießen","type":"Landkreis"},"federalState":{"key":"06","name":"Hessen"}},{"name":"Am Glocklappen","postalCode":"35321","locality":"Laubach","municipality":{"key":"06531010","name":"Laubach, Stadt","type":"Stadt"},"district":{"key":"06531","name":"Gießen","type":"Landkreis"},"federalState":{"key":"06","name":"Hessen"}},{"name":"Am Gonterskircher Weg","postalCode":"35321","locality":"Laubach","municipality":{"key":"06531010","name":"Laubach, Stadt","type":"Stadt"},"district":{"key":"06531","name":"Gießen","type":"Landkreis"},"federalState":{"key":"06","name":"Hessen"}},{"name":"Am Hain","postalCode":"35321","locality":"Laubach","municipality":{"key":"06531010","name":"Laubach, Stadt","type":"Stadt"},"district":{"key":"06531","name":"Gießen","type":"Landkreis"},"federalState":{"key":"06","name":"Hessen"}},{"name":"Am Hainberg","postalCode":"35321","locality":"Laubach","municipality":{"key":"06531010","name":"Laubach, Stadt","type":"Stadt"},"district":{"key":"06531","name":"Gießen","type":"Landkreis"},"federalState":{"key":"06","name":"Hessen"}},{"name":"Am Haingraben","postalCode":"35321","locality":"Laubach","municipality":{"key":"06531010","name":"Laubach, Stadt","type":"Stadt"},"district":{"key":"06531","name":"Gießen","type":"Landkreis"},"federalState":{"key":"06","name":"Hessen"}},{"name":"Am Heiligenstock","postalCode":"35321","locality":"Laubach","municipality":{"key":"06531010","name":"Laubach, Stadt","type":"Stadt"},"district":{"key":"06531","name":"Gießen","type":"Landkreis"},"federalState":{"key":"06","name":"Hessen"}},{"name":"Am Hellenberg","postalCode":"35321","locality":"Laubach","municipality":{"key":"06531010","name":"Laubach, Stadt","type":"Stadt"},"district":{"key":"06531","name":"Gießen","type":"Landkreis"},"federalState":{"key":"06","name":"Hessen"}},{"name":"Am Hetzberg","postalCode":"35321","locality":"Laubach","municipality":{"key":"06531010","name":"Laubach, Stadt","type":"Stadt"},"district":{"key":"06531","name":"Gießen","type":"Landkreis"},"federalState":{"key":"06","name":"Hessen"}},{"name":"Am Hutsberg","postalCode":"35321","locality":"Laubach","municipality":{"key":"06531010","name":"Laubach, Stadt","type":"Stadt"},"district":{"key":"06531","name":"Gießen","type":"Landkreis"},"federalState":{"key":"06","name":"Hessen"}},{"name":"Am Leuchtfaß","postalCode":"35321","locality":"Laubach","municipality":{"key":"06531010","name":"Laubach, Stadt","type":"Stadt"},"district":{"key":"06531","name":"Gießen","type":"Landkreis"},"federalState":{"key":"06","name":"Hessen"}},{"name":"Am Neuen Weg","postalCode":"66869","locality":"Blaubach","municipality":{"key":"07336006","name":"Blaubach","type":"Kreisangehörige_Gemeinde"},"district":{"key":"07336","name":"Kusel","type":"Landkreis"},"federalState":{"key":"07","name":"Rheinland-Pfalz"}},{"name":"Am Preßberg","postalCode":"35321","locality":"Laubach","municipality":{"key":"06531010","name":"Laubach, Stadt","type":"Stadt"},"district":{"key":"06531","name":"Gießen","type":"Landkreis"},"federalState":{"key":"06","name":"Hessen"}},{"name":"Am Ramsberg","postalCode":"35321","locality":"Laubach","municipality":{"key":"06531010","name":"Laubach, Stadt","type":"Stadt"},"district":{"key":"06531","name":"Gießen","type":"Landkreis"},"federalState":{"key":"06","name":"Hessen"}},{"name":"Am Riethenberg","postalCode":"35321","locality":"Laubach","municipality":{"key":"06531010","name":"Laubach, Stadt","type":"Stadt"},"district":{"key":"06531","name":"Gießen","type":"Landkreis"},"federalState":{"key":"06","name":"Hessen"}},{"name":"Am Rotacker","postalCode":"35321","locality":"Laubach","municipality":{"key":"06531010","name":"Laubach, Stadt","type":"Stadt"},"district":{"key":"06531","name":"Gießen","type":"Landkreis"},"federalState":{"key":"06","name":"Hessen"}},{"name":"Am Sänges","postalCode":"35321","locality":"Laubach","municipality":{"key":"06531010","name":"Laubach, Stadt","type":"Stadt"},"district":{"key":"06531","name":"Gießen","type":"Landkreis"},"federalState":{"key":"06","name":"Hessen"}},{"name":"Am Schloßpark","postalCode":"35321","locality":"Laubach","municipality":{"key":"06531010","name":"Laubach, Stadt","type":"Stadt"},"district":{"key":"06531","name":"Gießen","type":"Landkreis"},"federalState":{"key":"06","name":"Hessen"}},{"name":"Amselweg","postalCode":"35321","locality":"Laubach","municipality":{"key":"06531010","name":"Laubach, Stadt","type":"Stadt"},"district":{"key":"06531","name":"Gießen","type":"Landkreis"},"federalState":{"key":"06","name":"Hessen"}},{"name":"Am Silbach","postalCode":"35321","locality":"Laubach","municipality":{"key":"06531010","name":"Laubach, Stadt","type":"Stadt"},"district":{"key":"06531","name":"Gießen","type":"Landkreis"},"federalState":{"key":"06","name":"Hessen"}},{"name":"Am Sportplatz","postalCode":"56759","locality":"Laubach","municipality":{"key":"07135052","name":"Laubach","type":"Kreisangehörige_Gemeinde"},"district":{"key":"07135","name":"Cochem-Zell","type":"Landkreis"},"federalState":{"key":"07","name":"Rheinland-Pfalz"}},{"name":"Am Tannenberg","postalCode":"35321","locality":"Laubach","municipality":{"key":"06531010","name":"Laubach, Stadt","type":"Stadt"},"district":{"key":"06531","name":"Gießen","type":"Landkreis"},"federalState":{"key":"06","name":"Hessen"}},{"name":"Am Tiefenweg","postalCode":"56288","locality":"Laubach","municipality":{"key":"07140079","name":"Laubach","type":"Kreisangehörige_Gemeinde"},"district":{"key":"07140","name":"Rhein-Hunsrück-Kreis","type":"Landkreis"},"federalState":{"key":"07","name":"Rheinland-Pfalz"}},{"name":"Am Trisch","postalCode":"35321","locality":"Laubach","municipality":{"key":"06531010","name":"Laubach, Stadt","type":"Stadt"},"district":{"key":"06531","name":"Gießen","type":"Landkreis"},"federalState":{"key":"06","name":"Hessen"}},{"name":"Am Wäldchen","postalCode":"35321","locality":"Laubach","municipality":{"key":"06531010","name":"Laubach, Stadt","type":"Stadt"},"district":{"key":"06531","name":"Gießen","type":"Landkreis"},"federalState":{"key":"06","name":"Hessen"}},{"name":"Am Wallgraben","postalCode":"56288","locality":"Laubach","municipality":{"key":"07140079","name":"Laubach","type":"Kreisangehörige_Gemeinde"},"district":{"key":"07140","name":"Rhein-Hunsrück-Kreis","type":"Landkreis"},"federalState":{"key":"07","name":"Rheinland-Pfalz"}},{"name":"Am Weinberg","postalCode":"35321","locality":"Laubach","municipality":{"key":"06531010","name":"Laubach, Stadt","type":"Stadt"},"district":{"key":"06531","name":"Gießen","type":"Landkreis"},"federalState":{"key":"06","name":"Hessen"}},{"name":"Am Weingarten","postalCode":"35321","locality":"Laubach","municipality":{"key":"06531010","name":"Laubach, Stadt","type":"Stadt"},"district":{"key":"06531","name":"Gießen","type":"Landkreis"},"federalState":{"key":"06","name":"Hessen"}},{"name":"Am Wieslappen","postalCode":"35321","locality":"Laubach","municipality":{"key":"06531010","name":"Laubach, Stadt","type":"Stadt"},"district":{"key":"06531","name":"Gießen","type":"Landkreis"},"federalState":{"key":"06","name":"Hessen"}},{"name":"An der Beune","postalCode":"35321","locality":"Laubach","municipality":{"key":"06531010","name":"Laubach, Stadt","type":"Stadt"},"district":{"key":"06531","name":"Gießen","type":"Landkreis"},"federalState":{"key":"06","name":"Hessen"}},{"name":"An der Hohl","postalCode":"35321","locality":"Laubach","municipality":{"key":"06531010","name":"Laubach, Stadt","type":"Stadt"},"district":{"key":"06531","name":"Gießen","type":"Landkreis"},"federalState":{"key":"06","name":"Hessen"}},{"name":"An der Kirche","postalCode":"35321","locality":"Laubach","municipality":{"key":"06531010","name":"Laubach, Stadt","type":"Stadt"},"district":{"key":"06531","name":"Gießen","type":"Landkreis"},"federalState":{"key":"06","name":"Hessen"}},{"name":"An der Lauter","postalCode":"35321","locality":"Laubach","municipality":{"key":"06531010","name":"Laubach, Stadt","type":"Stadt"},"district":{"key":"06531","name":"Gießen","type":"Landkreis"},"federalState":{"key":"06","name":"Hessen"}},{"name":"Bachstr.","postalCode":"35321","locality":"Laubach","municipality":{"key":"06531010","name":"Laubach, Stadt","type":"Stadt"},"district":{"key":"06531","name":"Gießen","type":"Landkreis"},"federalState":{"key":"06","name":"Hessen"}},{"name":"Bahnhofstr.","postalCode":"35321","locality":"Laubach","municipality":{"key":"06531010","name":"Laubach, Stadt","type":"Stadt"},"district":{"key":"06531","name":"Gießen","type":"Landkreis"},"federalState":{"key":"06","name":"Hessen"}},{"name":"Bahnhofstr.","postalCode":"56759","locality":"Laubach","municipality":{"key":"07135052","name":"Laubach","type":"Kreisangehörige_Gemeinde"},"district":{"key":"07135","name":"Cochem-Zell","type":"Landkreis"},"federalState":{"key":"07","name":"Rheinland-Pfalz"}},{"name":"Basaltstr.","postalCode":"56759","locality":"Laubach","municipality":{"key":"07135052","name":"Laubach","type":"Kreisangehörige_Gemeinde"},"district":{"key":"07135","name":"Cochem-Zell","type":"Landkreis"},"federalState":{"key":"07","name":"Rheinland-Pfalz"}},{"name":"Baumgartenstr.","postalCode":"35321","locality":"Laubach","municipality":{"key":"06531010","name":"Laubach, Stadt","type":"Stadt"},"district":{"key":"06531","name":"Gießen","type":"Landkreis"},"federalState":{"key":"06","name":"Hessen"}},{"name":"Baumkircher Str.","postalCode":"35321","locality":"Laubach","municipality":{"key":"06531010","name":"Laubach, Stadt","type":"Stadt"},"district":{"key":"06531","name":"Gießen","type":"Landkreis"},"federalState":{"key":"06","name":"Hessen"}},{"name":"Beergartenstr.","postalCode":"35321","locality":"Laubach","municipality":{"key":"06531010","name":"Laubach, Stadt","type":"Stadt"},"district":{"key":"06531","name":"Gießen","type":"Landkreis"},"federalState":{"key":"06","name":"Hessen"}},{"name":"Beethovenstr.","postalCode":"35321","locality":"Laubach","municipality":{"key":"06531010","name":"Laubach, Stadt","type":"Stadt"},"district":{"key":"06531","name":"Gießen","type":"Landkreis"},"federalState":{"key":"06","name":"Hessen"}},{"name":"Bergstr.","postalCode":"35321","locality":"Laubach","municipality":{"key":"06531010","name":"Laubach, Stadt","type":"Stadt"},"district":{"key":"06531","name":"Gießen","type":"Landkreis"},"federalState":{"key":"06","name":"Hessen"}},{"name":"Bergstr.","postalCode":"56759","locality":"Laubach","municipality":{"key":"07135052","name":"Laubach","type":"Kreisangehörige_Gemeinde"},"district":{"key":"07135","name":"Cochem-Zell","type":"Landkreis"},"federalState":{"key":"07","name":"Rheinland-Pfalz"}},{"name":"Berliner Str.","postalCode":"35321","locality":"Laubach","municipality":{"key":"06531010","name":"Laubach, Stadt","type":"Stadt"},"district":{"key":"06531","name":"Gießen","type":"Landkreis"},"federalState":{"key":"06","name":"Hessen"}},{"name":"Betzenröder Str.","postalCode":"35321","locality":"Laubach","municipality":{"key":"06531010","name":"Laubach, Stadt","type":"Stadt"},"district":{"key":"06531","name":"Gießen","type":"Landkreis"},"federalState":{"key":"06","name":"Hessen"}},{"name":"Bingmühle","postalCode":"35321","locality":"Laubach","municipality":{"key":"06531010","name":"Laubach, Stadt","type":"Stadt"},"district":{"key":"06531","name":"Gießen","type":"Landkreis"},"federalState":{"key":"06","name":"Hessen"}},{"name":"Birkenstr.","postalCode":"35321","locality":"Laubach","municipality":{"key":"06531010","name":"Laubach, Stadt","type":"Stadt"},"district":{"key":"06531","name":"Gießen","type":"Landkreis"},"federalState":{"key":"06","name":"Hessen"}},{"name":"Birkenstr.","postalCode":"56288","locality":"Laubach","municipality":{"key":"07140079","name":"Laubach","type":"Kreisangehörige_Gemeinde"},"district":{"key":"07140","name":"Rhein-Hunsrück-Kreis","type":"Landkreis"},"federalState":{"key":"07","name":"Rheinland-Pfalz"}},{"name":"Blaubacher Str.","postalCode":"66869","locality":"Blaubach","municipality":{"key":"07336006","name":"Blaubach","type":"Kreisangehörige_Gemeinde"},"district":{"key":"07336","name":"Kusel","type":"Landkreis"},"federalState":{"key":"07","name":"Rheinland-Pfalz"}},{"name":"Bogenstr.","postalCode":"35321","locality":"Laubach","municipality":{"key":"06531010","name":"Laubach, Stadt","type":"Stadt"},"district":{"key":"06531","name":"Gießen","type":"Landkreis"},"federalState":{"key":"06","name":"Hessen"}},{"name":"Brahmsstr.","postalCode":"35321","locality":"Laubach","municipality":{"key":"06531010","name":"Laubach, Stadt","type":"Stadt"},"district":{"key":"06531","name":"Gießen","type":"Landkreis"},"federalState":{"key":"06","name":"Hessen"}},{"name":"Breslauer Str.","postalCode":"35321","locality":"Laubach","municipality":{"key":"06531010","name":"Laubach, Stadt","type":"Stadt"},"district":{"key":"06531","name":"Gießen","type":"Landkreis"},"federalState":{"key":"06","name":"Hessen"}},{"name":"Bubacher Str.","postalCode":"56288","locality":"Laubach","municipality":{"key":"07140079","name":"Laubach","type":"Kreisangehörige_Gemeinde"},"district":{"key":"07140","name":"Rhein-Hunsrück-Kreis","type":"Landkreis"},"federalState":{"key":"07","name":"Rheinland-Pfalz"}},{"name":"Buchenweg","postalCode":"35321","locality":"Laubach","municipality":{"key":"06531010","name":"Laubach, Stadt","type":"Stadt"},"district":{"key":"06531","name":"Gießen","type":"Landkreis"},"federalState":{"key":"06","name":"Hessen"}},{"name":"Buderusstr.","postalCode":"35321","locality":"Laubach","municipality":{"key":"06531010","name":"Laubach, Stadt","type":"Stadt"},"district":{"key":"06531","name":"Gießen","type":"Landkreis"},"federalState":{"key":"06","name":"Hessen"}},{"name":"Bürgelweg","postalCode":"35321","locality":"Laubach","municipality":{"key":"06531010","name":"Laubach, Stadt","type":"Stadt"},"district":{"key":"06531","name":"Gießen","type":"Landkreis"},"federalState":{"key":"06","name":"Hessen"}},{"name":"Burgstr.","postalCode":"35321","locality":"Laubach","municipality":{"key":"06531010","name":"Laubach, Stadt","type":"Stadt"},"district":{"key":"06531","name":"Gießen","type":"Landkreis"},"federalState":{"key":"06","name":"Hessen"}},{"name":"Cafégäßchen","postalCode":"35321","locality":"Laubach","municipality":{"key":"06531010","name":"Laubach, Stadt","type":"Stadt"},"district":{"key":"06531","name":"Gießen","type":"Landkreis"},"federalState":{"key":"06","name":"Hessen"}},{"name":"Carl-Barnas-Str.","postalCode":"35321","locality":"Laubach","municipality":{"key":"06531010","name":"Laubach, Stadt","type":"Stadt"},"district":{"key":"06531","name":"Gießen","type":"Landkreis"},"federalState":{"key":"06","name":"Hessen"}},{"name":"Cervinusstr.","postalCode":"35321","locality":"Laubach","municipality":{"key":"06531010","name":"Laubach, Stadt","type":"Stadt"},"district":{"key":"06531","name":"Gießen","type":"Landkreis"},"federalState":{"key":"06","name":"Hessen"}},{"name":"Danziger Str.","postalCode":"35321","locality":"Laubach","municipality":{"key":"06531010","name":"Laubach, Stadt","type":"Stadt"},"district":{"key":"06531","name":"Gießen","type":"Landkreis"},"federalState":{"key":"06","name":"Hessen"}},{"name":"Dexionstr.","postalCode":"35321","locality":"Laubach","municipality":{"key":"06531010","name":"Laubach, Stadt","type":"Stadt"},"district":{"key":"06531","name":"Gießen","type":"Landkreis"},"federalState":{"key":"06","name":"Hessen"}},{"name":"Dörnbachstr.","postalCode":"35321","locality":"Laubach","municipality":{"key":"06531010","name":"Laubach, Stadt","type":"Stadt"},"district":{"key":"06531","name":"Gießen","type":"Landkreis"},"federalState":{"key":"06","name":"Hessen"}},{"name":"Dörrenbergweg","postalCode":"35321","locality":"Laubach","municipality":{"key":"06531010","name":"Laubach, Stadt","type":"Stadt"},"district":{"key":"06531","name":"Gießen","type":"Landkreis"},"federalState":{"key":"06","name":"Hessen"}},{"name":"Eichenweg","postalCode":"35321","locality":"Laubach","municipality":{"key":"06531010","name":"Laubach, Stadt","type":"Stadt"},"district":{"key":"06531","name":"Gießen","type":"Landkreis"},"federalState":{"key":"06","name":"Hessen"}},{"name":"Eichgartenweg","postalCode":"35321","locality":"Laubach","municipality":{"key":"06531010","name":"Laubach, Stadt","type":"Stadt"},"district":{"key":"06531","name":"Gießen","type":"Landkreis"},"federalState":{"key":"06","name":"Hessen"}},{"name":"Eifelstr.","postalCode":"56759","locality":"Laubach","municipality":{"key":"07135052","name":"Laubach","type":"Kreisangehörige_Gemeinde"},"district":{"key":"07135","name":"Cochem-Zell","type":"Landkreis"},"federalState":{"key":"07","name":"Rheinland-Pfalz"}},{"name":"Eisenbergstr.","postalCode":"35321","locality":"Laubach","municipality":{"key":"06531010","name":"Laubach, Stadt","type":"Stadt"},"district":{"key":"06531","name":"Gießen","type":"Landkreis"},"federalState":{"key":"06","name":"Hessen"}},{"name":"Engelshäuser Berg","postalCode":"35321","locality":"Laubach","municipality":{"key":"06531010","name":"Laubach, Stadt","type":"Stadt"},"district":{"key":"06531","name":"Gießen","type":"Landkreis"},"federalState":{"key":"06","name":"Hessen"}},{"name":"Erlenweg","postalCode":"35321","locality":"Laubach","municipality":{"key":"06531010","name":"Laubach, Stadt","type":"Stadt"},"district":{"key":"06531","name":"Gießen","type":"Landkreis"},"federalState":{"key":"06","name":"Hessen"}},{"name":"Erzweg","postalCode":"35321","locality":"Laubach","municipality":{"key":"06531010","name":"Laubach, Stadt","type":"Stadt"},"district":{"key":"06531","name":"Gießen","type":"Landkreis"},"federalState":{"key":"06","name":"Hessen"}},{"name":"Felix-Klipstein-Weg","postalCode":"35321","locality":"Laubach","municipality":{"key":"06531010","name":"Laubach, Stadt","type":"Stadt"},"district":{"key":"06531","name":"Gießen","type":"Landkreis"},"federalState":{"key":"06","name":"Hessen"}},{"name":"Finkenweg","postalCode":"35321","locality":"Laubach","municipality":{"key":"06531010","name":"Laubach, Stadt","type":"Stadt"},"district":{"key":"06531","name":"Gießen","type":"Landkreis"},"federalState":{"key":"06","name":"Hessen"}},{"name":"Förstergasse","postalCode":"35321","locality":"Laubach","municipality":{"key":"06531010","name":"Laubach, Stadt","type":"Stadt"},"district":{"key":"06531","name":"Gießen","type":"Landkreis"},"federalState":{"key":"06","name":"Hessen"}},{"name":"Freienseener Str.","postalCode":"35321","locality":"Laubach","municipality":{"key":"06531010","name":"Laubach, Stadt","type":"Stadt"},"district":{"key":"06531","name":"Gießen","type":"Landkreis"},"federalState":{"key":"06","name":"Hessen"}},{"name":"Friedberger Str.","postalCode":"35321","locality":"Laubach","municipality":{"key":"06531010","name":"Laubach, Stadt","type":"Stadt"},"district":{"key":"06531","name":"Gießen","type":"Landkreis"},"federalState":{"key":"06","name":"Hessen"}},{"name":"Friedel-Münch-Str.","postalCode":"35321","locality":"Laubach","municipality":{"key":"06531010","name":"Laubach, Stadt","type":"Stadt"},"district":{"key":"06531","name":"Gießen","type":"Landkreis"},"federalState":{"key":"06","name":"Hessen"}},{"name":"Friedhofsweg","postalCode":"35321","locality":"Laubach","municipality":{"key":"06531010","name":"Laubach, Stadt","type":"Stadt"},"district":{"key":"06531","name":"Gießen","type":"Landkreis"},"federalState":{"key":"06","name":"Hessen"}},{"name":"Friedrich-Kellner-Str.","postalCode":"35321","locality":"Laubach","municipality":{"key":"06531010","name":"Laubach, Stadt","type":"Stadt"},"district":{"key":"06531","name":"Gießen","type":"Landkreis"},"federalState":{"key":"06","name":"Hessen"}},{"name":"Friedrichshütte","postalCode":"35321","locality":"Laubach","municipality":{"key":"06531010","name":"Laubach, Stadt","type":"Stadt"},"district":{"key":"06531","name":"Gießen","type":"Landkreis"},"federalState":{"key":"06","name":"Hessen"}},{"name":"Friedrichstr.","postalCode":"35321","locality":"Laubach","municipality":{"key":"06531010","name":"Laubach, Stadt","type":"Stadt"},"district":{"key":"06531","name":"Gießen","type":"Landkreis"},"federalState":{"key":"06","name":"Hessen"}},{"name":"Gartenstr.","postalCode":"35321","locality":"Laubach","municipality":{"key":"06531010","name":"Laubach, Stadt","type":"Stadt"},"district":{"key":"06531","name":"Gießen","type":"Landkreis"},"federalState":{"key":"06","name":"Hessen"}},{"name":"Gartenstr.","postalCode":"56288","locality":"Laubach","municipality":{"key":"07140079","name":"Laubach","type":"Kreisangehörige_Gemeinde"},"district":{"key":"07140","name":"Rhein-Hunsrück-Kreis","type":"Landkreis"},"federalState":{"key":"07","name":"Rheinland-Pfalz"}},{"name":"Gartenstr.","postalCode":"56759","locality":"Laubach","municipality":{"key":"07135052","name":"Laubach","type":"Kreisangehörige_Gemeinde"},"district":{"key":"07135","name":"Cochem-Zell","type":"Landkreis"},"federalState":{"key":"07","name":"Rheinland-Pfalz"}},{"name":"Gartenstr.","postalCode":"66869","locality":"Blaubach","municipality":{"key":"07336006","name":"Blaubach","type":"Kreisangehörige_Gemeinde"},"district":{"key":"07336","name":"Kusel","type":"Landkreis"},"federalState":{"key":"07","name":"Rheinland-Pfalz"}},{"name":"Gerhart-Hauptmann-Str.","postalCode":"35321","locality":"Laubach","municipality":{"key":"06531010","name":"Laubach, Stadt","type":"Stadt"},"district":{"key":"06531","name":"Gießen","type":"Landkreis"},"federalState":{"key":"06","name":"Hessen"}},{"name":"Gießener Str.","postalCode":"35321","locality":"Laubach","municipality":{"key":"06531010","name":"Laubach, Stadt","type":"Stadt"},"district":{"key":"06531","name":"Gießen","type":"Landkreis"},"federalState":{"key":"06","name":"Hessen"}},{"name":"Glashüttenweg","postalCode":"35321","locality":"Laubach","municipality":{"key":"06531010","name":"Laubach, Stadt","type":"Stadt"},"district":{"key":"06531","name":"Gießen","type":"Landkreis"},"federalState":{"key":"06","name":"Hessen"}},{"name":"Göbelsgasse","postalCode":"35321","locality":"Laubach","municipality":{"key":"06531010","name":"Laubach, Stadt","type":"Stadt"},"district":{"key":"06531","name":"Gießen","type":"Landkreis"},"federalState":{"key":"06","name":"Hessen"}},{"name":"Goethestr.","postalCode":"35321","locality":"Laubach","municipality":{"key":"06531010","name":"Laubach, Stadt","type":"Stadt"},"district":{"key":"06531","name":"Gießen","type":"Landkreis"},"federalState":{"key":"06","name":"Hessen"}},{"name":"Grünberger Str.","postalCode":"35321","locality":"Laubach","municipality":{"key":"06531010","name":"Laubach, Stadt","type":"Stadt"},"district":{"key":"06531","name":"Gießen","type":"Landkreis"},"federalState":{"key":"06","name":"Hessen"}},{"name":"Grundweg","postalCode":"35321","locality":"Laubach","municipality":{"key":"06531010","name":"Laubach, Stadt","type":"Stadt"},"district":{"key":"06531","name":"Gießen","type":"Landkreis"},"federalState":{"key":"06","name":"Hessen"}},{"name":"Grünemannsgasse","postalCode":"35321","locality":"Laubach","municipality":{"key":"06531010","name":"Laubach, Stadt","type":"Stadt"},"district":{"key":"06531","name":"Gießen","type":"Landkreis"},"federalState":{"key":"06","name":"Hessen"}},{"name":"Grünes Meer","postalCode":"35321","locality":"Laubach","municipality":{"key":"06531010","name":"Laubach, Stadt","type":"Stadt"},"district":{"key":"06531","name":"Gießen","type":"Landkreis"},"federalState":{"key":"06","name":"Hessen"}},{"name":"Haingasse","postalCode":"35321","locality":"Laubach","municipality":{"key":"06531010","name":"Laubach, Stadt","type":"Stadt"},"district":{"key":"06531","name":"Gießen","type":"Landkreis"},"federalState":{"key":"06","name":"Hessen"}},{"name":"Hauptstr.","postalCode":"35321","locality":"Laubach","municipality":{"key":"06531010","name":"Laubach, Stadt","type":"Stadt"},"district":{"key":"06531","name":"Gießen","type":"Landkreis"},"federalState":{"key":"06","name":"Hessen"}},{"name":"Hauptstr.","postalCode":"56759","locality":"Laubach","municipality":{"key":"07135052","name":"Laubach","type":"Kreisangehörige_Gemeinde"},"district":{"key":"07135","name":"Cochem-Zell","type":"Landkreis"},"federalState":{"key":"07","name":"Rheinland-Pfalz"}},{"name":"Heerstr.","postalCode":"35321","locality":"Laubach","municipality":{"key":"06531010","name":"Laubach, Stadt","type":"Stadt"},"district":{"key":"06531","name":"Gießen","type":"Landkreis"},"federalState":{"key":"06","name":"Hessen"}},{"name":"Heidstr.","postalCode":"35321","locality":"Laubach","municipality":{"key":"06531010","name":"Laubach, Stadt","type":"Stadt"},"district":{"key":"06531","name":"Gießen","type":"Landkreis"},"federalState":{"key":"06","name":"Hessen"}},{"name":"Helle","postalCode":"35321","locality":"Laubach","municipality":{"key":"06531010","name":"Laubach, Stadt","type":"Stadt"},"district":{"key":"06531","name":"Gießen","type":"Landkreis"},"federalState":{"key":"06","name":"Hessen"}},{"name":"Hellengartenweg","postalCode":"35321","locality":"Laubach","municipality":{"key":"06531010","name":"Laubach, Stadt","type":"Stadt"},"district":{"key":"06531","name":"Gießen","type":"Landkreis"},"federalState":{"key":"06","name":"Hessen"}},{"name":"Herrenhausgasse","postalCode":"35321","locality":"Laubach","municipality":{"key":"06531010","name":"Laubach, Stadt","type":"Stadt"},"district":{"key":"06531","name":"Gießen","type":"Landkreis"},"federalState":{"key":"06","name":"Hessen"}},{"name":"Herrenweg","postalCode":"35321","locality":"Laubach","municipality":{"key":"06531010","name":"Laubach, Stadt","type":"Stadt"},"district":{"key":"06531","name":"Gießen","type":"Landkreis"},"federalState":{"key":"06","name":"Hessen"}},{"name":"Hessenbrückenhof","postalCode":"35321","locality":"Laubach","municipality":{"key":"06531010","name":"Laubach, Stadt","type":"Stadt"},"district":{"key":"06531","name":"Gießen","type":"Landkreis"},"federalState":{"key":"06","name":"Hessen"}},{"name":"Hinter dem Hof","postalCode":"35321","locality":"Laubach","municipality":{"key":"06531010","name":"Laubach, Stadt","type":"Stadt"},"district":{"key":"06531","name":"Gießen","type":"Landkreis"},"federalState":{"key":"06","name":"Hessen"}},{"name":"Hochfelderstr.","postalCode":"56759","locality":"Laubach","municipality":{"key":"07135052","name":"Laubach","type":"Kreisangehörige_Gemeinde"},"district":{"key":"07135","name":"Cochem-Zell","type":"Landkreis"},"federalState":{"key":"07","name":"Rheinland-Pfalz"}},{"name":"Hofdrieschweg","postalCode":"35321","locality":"Laubach","municipality":{"key":"06531010","name":"Laubach, Stadt","type":"Stadt"},"district":{"key":"06531","name":"Gießen","type":"Landkreis"},"federalState":{"key":"06","name":"Hessen"}},{"name":"Höhenstr.","postalCode":"35321","locality":"Laubach","municipality":{"key":"06531010","name":"Laubach, Stadt","type":"Stadt"},"district":{"key":"06531","name":"Gießen","type":"Landkreis"},"federalState":{"key":"06","name":"Hessen"}},{"name":"Hohlweg","postalCode":"56759","locality":"Laubach","municipality":{"key":"07135052","name":"Laubach","type":"Kreisangehörige_Gemeinde"},"district":{"key":"07135","name":"Cochem-Zell","type":"Landkreis"},"federalState":{"key":"07","name":"Rheinland-Pfalz"}},{"name":"Holzberg","postalCode":"35321","locality":"Laubach","municipality":{"key":"06531010","name":"Laubach, Stadt","type":"Stadt"},"district":{"key":"06531","name":"Gießen","type":"Landkreis"},"federalState":{"key":"06","name":"Hessen"}},{"name":"Horloffstr.","postalCode":"35321","locality":"Laubach","municipality":{"key":"06531010","name":"Laubach, Stadt","type":"Stadt"},"district":{"key":"06531","name":"Gießen","type":"Landkreis"},"federalState":{"key":"06","name":"Hessen"}},{"name":"Horner Str.","postalCode":"56288","locality":"Laubach","municipality":{"key":"07140079","name":"Laubach","type":"Kreisangehörige_Gemeinde"},"district":{"key":"07140","name":"Rhein-Hunsrück-Kreis","type":"Landkreis"},"federalState":{"key":"07","name":"Rheinland-Pfalz"}},{"name":"Hungener Str.","postalCode":"35321","locality":"Laubach","municipality":{"key":"06531010","name":"Laubach, Stadt","type":"Stadt"},"district":{"key":"06531","name":"Gießen","type":"Landkreis"},"federalState":{"key":"06","name":"Hessen"}},{"name":"Im Alten Hof","postalCode":"35321","locality":"Laubach","municipality":{"key":"06531010","name":"Laubach, Stadt","type":"Stadt"},"district":{"key":"06531","name":"Gießen","type":"Landkreis"},"federalState":{"key":"06","name":"Hessen"}},{"name":"Im Hain","postalCode":"35321","locality":"Laubach","municipality":{"key":"06531010","name":"Laubach, Stadt","type":"Stadt"},"district":{"key":"06531","name":"Gießen","type":"Landkreis"},"federalState":{"key":"06","name":"Hessen"}},{"name":"Im Herrengarten","postalCode":"35321","locality":"Laubach","municipality":{"key":"06531010","name":"Laubach, Stadt","type":"Stadt"},"district":{"key":"06531","name":"Gießen","type":"Landkreis"},"federalState":{"key":"06","name":"Hessen"}},{"name":"Im Katzengraben","postalCode":"35321","locality":"Laubach","municipality":{"key":"06531010","name":"Laubach, Stadt","type":"Stadt"},"district":{"key":"06531","name":"Gießen","type":"Landkreis"},"federalState":{"key":"06","name":"Hessen"}},{"name":"Im Mühlfeld","postalCode":"35321","locality":"Laubach","municipality":{"key":"06531010","name":"Laubach, Stadt","type":"Stadt"},"district":{"key":"06531","name":"Gießen","type":"Landkreis"},"federalState":{"key":"06","name":"Hessen"}},{"name":"Im Röhrbach","postalCode":"66869","locality":"Blaubach","municipality":{"key":"07336006","name":"Blaubach","type":"Kreisangehörige_Gemeinde"},"district":{"key":"07336","name":"Kusel","type":"Landkreis"},"federalState":{"key":"07","name":"Rheinland-Pfalz"}},{"name":"In den Bruchwiesen","postalCode":"35321","locality":"Laubach","municipality":{"key":"06531010","name":"Laubach, Stadt","type":"Stadt"},"district":{"key":"06531","name":"Gießen","type":"Landkreis"},"federalState":{"key":"06","name":"Hessen"}},{"name":"In den Höfen","postalCode":"35321","locality":"Laubach","municipality":{"key":"06531010","name":"Laubach, Stadt","type":"Stadt"},"district":{"key":"06531","name":"Gießen","type":"Landkreis"},"federalState":{"key":"06","name":"Hessen"}},{"name":"In den Possewiese","postalCode":"56288","locality":"Laubach","municipality":{"key":"07140079","name":"Laubach","type":"Kreisangehörige_Gemeinde"},"district":{"key":"07140","name":"Rhein-Hunsrück-Kreis","type":"Landkreis"},"federalState":{"key":"07","name":"Rheinland-Pfalz"}},{"name":"In der Gombach","postalCode":"35321","locality":"Laubach","municipality":{"key":"06531010","name":"Laubach, Stadt","type":"Stadt"},"district":{"key":"06531","name":"Gießen","type":"Landkreis"},"federalState":{"key":"06","name":"Hessen"}},{"name":"In der Grube","postalCode":"35321","locality":"Laubach","municipality":{"key":"06531010","name":"Laubach, Stadt","type":"Stadt"},"district":{"key":"06531","name":"Gießen","type":"Landkreis"},"federalState":{"key":"06","name":"Hessen"}},{"name":"In der Hohl","postalCode":"66869","locality":"Blaubach","municipality":{"key":"07336006","name":"Blaubach","type":"Kreisangehörige_Gemeinde"},"district":{"key":"07336","name":"Kusel","type":"Landkreis"},"federalState":{"key":"07","name":"Rheinland-Pfalz"}},{"name":"In der Kaul","postalCode":"56759","locality":"Laubach","municipality":{"key":"07135052","name":"Laubach","type":"Kreisangehörige_Gemeinde"},"district":{"key":"07135","name":"Cochem-Zell","type":"Landkreis"},"federalState":{"key":"07","name":"Rheinland-Pfalz"}},{"name":"In der Lautenbach","postalCode":"35321","locality":"Laubach","municipality":{"key":"06531010","name":"Laubach, Stadt","type":"Stadt"},"district":{"key":"06531","name":"Gießen","type":"Landkreis"},"federalState":{"key":"06","name":"Hessen"}},{"name":"In der Steinbach","postalCode":"35321","locality":"Laubach","municipality":{"key":"06531010","name":"Laubach, Stadt","type":"Stadt"},"district":{"key":"06531","name":"Gießen","type":"Landkreis"},"federalState":{"key":"06","name":"Hessen"}},{"name":"Jägerhausstr.","postalCode":"35321","locality":"Laubach","municipality":{"key":"06531010","name":"Laubach, Stadt","type":"Stadt"},"district":{"key":"06531","name":"Gießen","type":"Landkreis"},"federalState":{"key":"06","name":"Hessen"}},{"name":"Johann-Sebastian-Bach-Str.","postalCode":"35321","locality":"Laubach","municipality":{"key":"06531010","name":"Laubach, Stadt","type":"Stadt"},"district":{"key":"06531","name":"Gießen","type":"Landkreis"},"federalState":{"key":"06","name":"Hessen"}},{"name":"Kaiserstr.","postalCode":"35321","locality":"Laubach","municipality":{"key":"06531010","name":"Laubach, Stadt","type":"Stadt"},"district":{"key":"06531","name":"Gießen","type":"Landkreis"},"federalState":{"key":"06","name":"Hessen"}},{"name":"Kalenborner Weg","postalCode":"56759","locality":"Laubach","municipality":{"key":"07135052","name":"Laubach","type":"Kreisangehörige_Gemeinde"},"district":{"key":"07135","name":"Cochem-Zell","type":"Landkreis"},"federalState":{"key":"07","name":"Rheinland-Pfalz"}},{"name":"Kastanienweg","postalCode":"35321","locality":"Laubach","municipality":{"key":"06531010","name":"Laubach, Stadt","type":"Stadt"},"district":{"key":"06531","name":"Gießen","type":"Landkreis"},"federalState":{"key":"06","name":"Hessen"}},{"name":"Kastellauner Str.","postalCode":"56288","locality":"Laubach","municipality":{"key":"07140079","name":"Laubach","type":"Kreisangehörige_Gemeinde"},"district":{"key":"07140","name":"Rhein-Hunsrück-Kreis","type":"Landkreis"},"federalState":{"key":"07","name":"Rheinland-Pfalz"}},{"name":"Kirchgasse","postalCode":"35321","locality":"Laubach","municipality":{"key":"06531010","name":"Laubach, Stadt","type":"Stadt"},"district":{"key":"06531","name":"Gießen","type":"Landkreis"},"federalState":{"key":"06","name":"Hessen"}},{"name":"Kirchplatz","postalCode":"35321","locality":"Laubach","municipality":{"key":"06531010","name":"Laubach, Stadt","type":"Stadt"},"district":{"key":"06531","name":"Gießen","type":"Landkreis"},"federalState":{"key":"06","name":"Hessen"}},{"name":"Kirchstr.","postalCode":"56759","locality":"Laubach","municipality":{"key":"07135052","name":"Laubach","type":"Kreisangehörige_Gemeinde"},"district":{"key":"07135","name":"Cochem-Zell","type":"Landkreis"},"federalState":{"key":"07","name":"Rheinland-Pfalz"}},{"name":"Klostergasse","postalCode":"35321","locality":"Laubach","municipality":{"key":"06531010","name":"Laubach, Stadt","type":"Stadt"},"district":{"key":"06531","name":"Gießen","type":"Landkreis"},"federalState":{"key":"06","name":"Hessen"}},{"name":"Koblenzer Str.","postalCode":"56288","locality":"Laubach","municipality":{"key":"07140079","name":"Laubach","type":"Kreisangehörige_Gemeinde"},"district":{"key":"07140","name":"Rhein-Hunsrück-Kreis","type":"Landkreis"},"federalState":{"key":"07","name":"Rheinland-Pfalz"}},{"name":"Köllersgarten","postalCode":"35321","locality":"Laubach","municipality":{"key":"06531010","name":"Laubach, Stadt","type":"Stadt"},"district":{"key":"06531","name":"Gießen","type":"Landkreis"},"federalState":{"key":"06","name":"Hessen"}},{"name":"Königsberger Str.","postalCode":"35321","locality":"Laubach","municipality":{"key":"06531010","name":"Laubach, Stadt","type":"Stadt"},"district":{"key":"06531","name":"Gießen","type":"Landkreis"},"federalState":{"key":"06","name":"Hessen"}},{"name":"Kreuzplatz","postalCode":"35321","locality":"Laubach","municipality":{"key":"06531010","name":"Laubach, Stadt","type":"Stadt"},"district":{"key":"06531","name":"Gießen","type":"Landkreis"},"federalState":{"key":"06","name":"Hessen"}},{"name":"Kreuzseener Weg","postalCode":"35321","locality":"Laubach","municipality":{"key":"06531010","name":"Laubach, Stadt","type":"Stadt"},"district":{"key":"06531","name":"Gießen","type":"Landkreis"},"federalState":{"key":"06","name":"Hessen"}},{"name":"Kringelweg","postalCode":"56759","locality":"Laubach","municipality":{"key":"07135052","name":"Laubach","type":"Kreisangehörige_Gemeinde"},"district":{"key":"07135","name":"Cochem-Zell","type":"Landkreis"},"federalState":{"key":"07","name":"Rheinland-Pfalz"}},{"name":"Kühnsgasse","postalCode":"35321","locality":"Laubach","municipality":{"key":"06531010","name":"Laubach, Stadt","type":"Stadt"},"district":{"key":"06531","name":"Gießen","type":"Landkreis"},"federalState":{"key":"06","name":"Hessen"}},{"name":"Kurze Hohl","postalCode":"35321","locality":"Laubach","municipality":{"key":"06531010","name":"Laubach, Stadt","type":"Stadt"},"district":{"key":"06531","name":"Gießen","type":"Landkreis"},"federalState":{"key":"06","name":"Hessen"}},{"name":"Kuseler Str.","postalCode":"66869","locality":"Blaubach","municipality":{"key":"07336006","name":"Blaubach","type":"Kreisangehörige_Gemeinde"},"district":{"key":"07336","name":"Kusel","type":"Landkreis"},"federalState":{"key":"07","name":"Rheinland-Pfalz"}},{"name":"Lange Hohl","postalCode":"35321","locality":"Laubach","municipality":{"key":"06531010","name":"Laubach, Stadt","type":"Stadt"},"district":{"key":"06531","name":"Gießen","type":"Landkreis"},"federalState":{"key":"06","name":"Hessen"}},{"name":"Langenheckenweg","postalCode":"35321","locality":"Laubach","municipality":{"key":"06531010","name":"Laubach, Stadt","type":"Stadt"},"district":{"key":"06531","name":"Gießen","type":"Landkreis"},"federalState":{"key":"06","name":"Hessen"}},{"name":"Lärchenstr.","postalCode":"35321","locality":"Laubach","municipality":{"key":"06531010","name":"Laubach, Stadt","type":"Stadt"},"district":{"key":"06531","name":"Gießen","type":"Landkreis"},"federalState":{"key":"06","name":"Hessen"}},{"name":"Lardenbacher Weg","postalCode":"35321","locality":"Laubach","municipality":{"key":"06531010","name":"Laubach, Stadt","type":"Stadt"},"district":{"key":"06531","name":"Gießen","type":"Landkreis"},"federalState":{"key":"06","name":"Hessen"}},{"name":"Laubacher Str.","postalCode":"35321","locality":"Laubach","municipality":{"key":"06531010","name":"Laubach, Stadt","type":"Stadt"},"district":{"key":"06531","name":"Gießen","type":"Landkreis"},"federalState":{"key":"06","name":"Hessen"}},{"name":"Laubacher Wald","postalCode":"35321","locality":"Laubach","municipality":{"key":"06531010","name":"Laubach, Stadt","type":"Stadt"},"district":{"key":"06531","name":"Gießen","type":"Landkreis"},"federalState":{"key":"06","name":"Hessen"}},{"name":"Lauterer Str.","postalCode":"35321","locality":"Laubach","municipality":{"key":"06531010","name":"Laubach, Stadt","type":"Stadt"},"district":{"key":"06531","name":"Gießen","type":"Landkreis"},"federalState":{"key":"06","name":"Hessen"}},{"name":"Lautertalstr.","postalCode":"35321","locality":"Laubach","municipality":{"key":"06531010","name":"Laubach, Stadt","type":"Stadt"},"district":{"key":"06531","name":"Gießen","type":"Landkreis"},"federalState":{"key":"06","name":"Hessen"}},{"name":"Lessingstr.","postalCode":"35321","locality":"Laubach","municipality":{"key":"06531010","name":"Laubach, Stadt","type":"Stadt"},"district":{"key":"06531","name":"Gießen","type":"Landkreis"},"federalState":{"key":"06","name":"Hessen"}},{"name":"Licher Str.","postalCode":"35321","locality":"Laubach","municipality":{"key":"06531010","name":"Laubach, Stadt","type":"Stadt"},"district":{"key":"06531","name":"Gießen","type":"Landkreis"},"federalState":{"key":"06","name":"Hessen"}},{"name":"Lindenstr.","postalCode":"35321","locality":"Laubach","municipality":{"key":"06531010","name":"Laubach, Stadt","type":"Stadt"},"district":{"key":"06531","name":"Gießen","type":"Landkreis"},"federalState":{"key":"06","name":"Hessen"}},{"name":"Lindenweg","postalCode":"35321","locality":"Laubach","municipality":{"key":"06531010","name":"Laubach, Stadt","type":"Stadt"},"district":{"key":"06531","name":"Gießen","type":"Landkreis"},"federalState":{"key":"06","name":"Hessen"}},{"name":"Lindenweg","postalCode":"56288","locality":"Laubach","municipality":{"key":"07140079","name":"Laubach","type":"Kreisangehörige_Gemeinde"},"district":{"key":"07140","name":"Rhein-Hunsrück-Kreis","type":"Landkreis"},"federalState":{"key":"07","name":"Rheinland-Pfalz"}},{"name":"Lippe","postalCode":"35321","locality":"Laubach","municipality":{"key":"06531010","name":"Laubach, Stadt","type":"Stadt"},"district":{"key":"06531","name":"Gießen","type":"Landkreis"},"federalState":{"key":"06","name":"Hessen"}},{"name":"Löbergasse","postalCode":"35321","locality":"Laubach","municipality":{"key":"06531010","name":"Laubach, Stadt","type":"Stadt"},"district":{"key":"06531","name":"Gießen","type":"Landkreis"},"federalState":{"key":"06","name":"Hessen"}},{"name":"Löbsackmühle","postalCode":"35321","locality":"Laubach","municipality":{"key":"06531010","name":"Laubach, Stadt","type":"Stadt"},"district":{"key":"06531","name":"Gießen","type":"Landkreis"},"federalState":{"key":"06","name":"Hessen"}},{"name":"Männchesgasse","postalCode":"35321","locality":"Laubach","municipality":{"key":"06531010","name":"Laubach, Stadt","type":"Stadt"},"district":{"key":"06531","name":"Gießen","type":"Landkreis"},"federalState":{"key":"06","name":"Hessen"}},{"name":"Marburger Str.","postalCode":"35321","locality":"Laubach","municipality":{"key":"06531010","name":"Laubach, Stadt","type":"Stadt"},"district":{"key":"06531","name":"Gießen","type":"Landkreis"},"federalState":{"key":"06","name":"Hessen"}},{"name":"Marktplatz","postalCode":"35321","locality":"Laubach","municipality":{"key":"06531010","name":"Laubach, Stadt","type":"Stadt"},"district":{"key":"06531","name":"Gießen","type":"Landkreis"},"federalState":{"key":"06","name":"Hessen"}},{"name":"Matzenberg","postalCode":"66869","locality":"Blaubach","municipality":{"key":"07336006","name":"Blaubach","type":"Kreisangehörige_Gemeinde"},"district":{"key":"07336","name":"Kusel","type":"Landkreis"},"federalState":{"key":"07","name":"Rheinland-Pfalz"}},{"name":"Mauerweg","postalCode":"66869","locality":"Blaubach","municipality":{"key":"07336006","name":"Blaubach","type":"Kreisangehörige_Gemeinde"},"district":{"key":"07336","name":"Kusel","type":"Landkreis"},"federalState":{"key":"07","name":"Rheinland-Pfalz"}},{"name":"Meisenweg","postalCode":"35321","locality":"Laubach","municipality":{"key":"06531010","name":"Laubach, Stadt","type":"Stadt"},"district":{"key":"06531","name":"Gießen","type":"Landkreis"},"federalState":{"key":"06","name":"Hessen"}},{"name":"Mittelgasse","postalCode":"35321","locality":"Laubach","municipality":{"key":"06531010","name":"Laubach, Stadt","type":"Stadt"},"district":{"key":"06531","name":"Gießen","type":"Landkreis"},"federalState":{"key":"06","name":"Hessen"}},{"name":"Mittelstr.","postalCode":"56759","locality":"Laubach","municipality":{"key":"07135052","name":"Laubach","type":"Kreisangehörige_Gemeinde"},"district":{"key":"07135","name":"Cochem-Zell","type":"Landkreis"},"federalState":{"key":"07","name":"Rheinland-Pfalz"}},{"name":"Mönchsgasse","postalCode":"35321","locality":"Laubach","municipality":{"key":"06531010","name":"Laubach, Stadt","type":"Stadt"},"district":{"key":"06531","name":"Gießen","type":"Landkreis"},"federalState":{"key":"06","name":"Hessen"}},{"name":"Mühlgasse","postalCode":"35321","locality":"Laubach","municipality":{"key":"06531010","name":"Laubach, Stadt","type":"Stadt"},"district":{"key":"06531","name":"Gießen","type":"Landkreis"},"federalState":{"key":"06","name":"Hessen"}},{"name":"Mühlweg","postalCode":"35321","locality":"Laubach","municipality":{"key":"06531010","name":"Laubach, Stadt","type":"Stadt"},"district":{"key":"06531","name":"Gießen","type":"Landkreis"},"federalState":{"key":"06","name":"Hessen"}},{"name":"Mühlwiese","postalCode":"35321","locality":"Laubach","municipality":{"key":"06531010","name":"Laubach, Stadt","type":"Stadt"},"district":{"key":"06531","name":"Gießen","type":"Landkreis"},"federalState":{"key":"06","name":"Hessen"}},{"name":"Münsterer Str.","postalCode":"35321","locality":"Laubach","municipality":{"key":"06531010","name":"Laubach, Stadt","type":"Stadt"},"district":{"key":"06531","name":"Gießen","type":"Landkreis"},"federalState":{"key":"06","name":"Hessen"}},{"name":"Neuer Weg","postalCode":"35321","locality":"Laubach","municipality":{"key":"06531010","name":"Laubach, Stadt","type":"Stadt"},"district":{"key":"06531","name":"Gießen","type":"Landkreis"},"federalState":{"key":"06","name":"Hessen"}},{"name":"Neugasse","postalCode":"35321","locality":"Laubach","municipality":{"key":"06531010","name":"Laubach, Stadt","type":"Stadt"},"district":{"key":"06531","name":"Gießen","type":"Landkreis"},"federalState":{"key":"06","name":"Hessen"}},{"name":"Nußbergweg","postalCode":"35321","locality":"Laubach","municipality":{"key":"06531010","name":"Laubach, Stadt","type":"Stadt"},"district":{"key":"06531","name":"Gießen","type":"Landkreis"},"federalState":{"key":"06","name":"Hessen"}},{"name":"Ober Bongerten","postalCode":"56759","locality":"Laubach","municipality":{"key":"07135052","name":"Laubach","type":"Kreisangehörige_Gemeinde"},"district":{"key":"07135","name":"Cochem-Zell","type":"Landkreis"},"federalState":{"key":"07","name":"Rheinland-Pfalz"}},{"name":"Obere Langgasse","postalCode":"35321","locality":"Laubach","municipality":{"key":"06531010","name":"Laubach, Stadt","type":"Stadt"},"district":{"key":"06531","name":"Gießen","type":"Landkreis"},"federalState":{"key":"06","name":"Hessen"}},{"name":"Obergasse","postalCode":"35321","locality":"Laubach","municipality":{"key":"06531010","name":"Laubach, Stadt","type":"Stadt"},"district":{"key":"06531","name":"Gießen","type":"Landkreis"},"federalState":{"key":"06","name":"Hessen"}},{"name":"Oberpforte","postalCode":"35321","locality":"Laubach","municipality":{"key":"06531010","name":"Laubach, Stadt","type":"Stadt"},"district":{"key":"06531","name":"Gießen","type":"Landkreis"},"federalState":{"key":"06","name":"Hessen"}},{"name":"Oberseener Weg","postalCode":"35321","locality":"Laubach","municipality":{"key":"06531010","name":"Laubach, Stadt","type":"Stadt"},"district":{"key":"06531","name":"Gießen","type":"Landkreis"},"federalState":{"key":"06","name":"Hessen"}},{"name":"Ortsberingweg","postalCode":"35321","locality":"Laubach","municipality":{"key":"06531010","name":"Laubach, Stadt","type":"Stadt"},"district":{"key":"06531","name":"Gießen","type":"Landkreis"},"federalState":{"key":"06","name":"Hessen"}},{"name":"Osterwiesenweg","postalCode":"35321","locality":"Laubach","municipality":{"key":"06531010","name":"Laubach, Stadt","type":"Stadt"},"district":{"key":"06531","name":"Gießen","type":"Landkreis"},"federalState":{"key":"06","name":"Hessen"}},{"name":"Pappelstr.","postalCode":"35321","locality":"Laubach","municipality":{"key":"06531010","name":"Laubach, Stadt","type":"Stadt"},"district":{"key":"06531","name":"Gießen","type":"Landkreis"},"federalState":{"key":"06","name":"Hessen"}},{"name":"Parkstr.","postalCode":"35321","locality":"Laubach","municipality":{"key":"06531010","name":"Laubach, Stadt","type":"Stadt"},"district":{"key":"06531","name":"Gießen","type":"Landkreis"},"federalState":{"key":"06","name":"Hessen"}},{"name":"Pfarrhof","postalCode":"35321","locality":"Laubach","municipality":{"key":"06531010","name":"Laubach, Stadt","type":"Stadt"},"district":{"key":"06531","name":"Gießen","type":"Landkreis"},"federalState":{"key":"06","name":"Hessen"}},{"name":"Pfarrstr.","postalCode":"35321","locality":"Laubach","municipality":{"key":"06531010","name":"Laubach, Stadt","type":"Stadt"},"district":{"key":"06531","name":"Gießen","type":"Landkreis"},"federalState":{"key":"06","name":"Hessen"}},{"name":"Philipp-Reis-Str.","postalCode":"35321","locality":"Laubach","municipality":{"key":"06531010","name":"Laubach, Stadt","type":"Stadt"},"district":{"key":"06531","name":"Gießen","type":"Landkreis"},"federalState":{"key":"06","name":"Hessen"}},{"name":"Posener Str.","postalCode":"35321","locality":"Laubach","municipality":{"key":"06531010","name":"Laubach, Stadt","type":"Stadt"},"district":{"key":"06531","name":"Gießen","type":"Landkreis"},"federalState":{"key":"06","name":"Hessen"}},{"name":"Quellenstr.","postalCode":"35321","locality":"Laubach","municipality":{"key":"06531010","name":"Laubach, Stadt","type":"Stadt"},"district":{"key":"06531","name":"Gießen","type":"Landkreis"},"federalState":{"key":"06","name":"Hessen"}},{"name":"Raiffeisenstr.","postalCode":"35321","locality":"Laubach","municipality":{"key":"06531010","name":"Laubach, Stadt","type":"Stadt"},"district":{"key":"06531","name":"Gießen","type":"Landkreis"},"federalState":{"key":"06","name":"Hessen"}},{"name":"Raiffeisenstr.","postalCode":"56288","locality":"Laubach","municipality":{"key":"07140079","name":"Laubach","type":"Kreisangehörige_Gemeinde"},"district":{"key":"07140","name":"Rhein-Hunsrück-Kreis","type":"Landkreis"},"federalState":{"key":"07","name":"Rheinland-Pfalz"}},{"name":"Richard-Wagner-Str.","postalCode":"35321","locality":"Laubach","municipality":{"key":"06531010","name":"Laubach, Stadt","type":"Stadt"},"district":{"key":"06531","name":"Gießen","type":"Landkreis"},"federalState":{"key":"06","name":"Hessen"}},{"name":"Riedstr.","postalCode":"35321","locality":"Laubach","municipality":{"key":"06531010","name":"Laubach, Stadt","type":"Stadt"},"district":{"key":"06531","name":"Gießen","type":"Landkreis"},"federalState":{"key":"06","name":"Hessen"}},{"name":"Riedweg","postalCode":"35321","locality":"Laubach","municipality":{"key":"06531010","name":"Laubach, Stadt","type":"Stadt"},"district":{"key":"06531","name":"Gießen","type":"Landkreis"},"federalState":{"key":"06","name":"Hessen"}},{"name":"Ringstr.","postalCode":"56759","locality":"Laubach","municipality":{"key":"07135052","name":"Laubach","type":"Kreisangehörige_Gemeinde"},"district":{"key":"07135","name":"Cochem-Zell","type":"Landkreis"},"federalState":{"key":"07","name":"Rheinland-Pfalz"}},{"name":"Ringweg","postalCode":"35321","locality":"Laubach","municipality":{"key":"06531010","name":"Laubach, Stadt","type":"Stadt"},"district":{"key":"06531","name":"Gießen","type":"Landkreis"},"federalState":{"key":"06","name":"Hessen"}},{"name":"Rinnstr.","postalCode":"35321","locality":"Laubach","municipality":{"key":"06531010","name":"Laubach, Stadt","type":"Stadt"},"district":{"key":"06531","name":"Gießen","type":"Landkreis"},"federalState":{"key":"06","name":"Hessen"}},{"name":"Rodweg","postalCode":"35321","locality":"Laubach","municipality":{"key":"06531010","name":"Laubach, Stadt","type":"Stadt"},"district":{"key":"06531","name":"Gießen","type":"Landkreis"},"federalState":{"key":"06","name":"Hessen"}},{"name":"Römheldstr.","postalCode":"35321","locality":"Laubach","municipality":{"key":"06531010","name":"Laubach, Stadt","type":"Stadt"},"district":{"key":"06531","name":"Gießen","type":"Landkreis"},"federalState":{"key":"06","name":"Hessen"}},{"name":"Rupertisstr.","postalCode":"35321","locality":"Laubach","municipality":{"key":"06531010","name":"Laubach, Stadt","type":"Stadt"},"district":{"key":"06531","name":"Gießen","type":"Landkreis"},"federalState":{"key":"06","name":"Hessen"}},{"name":"Ruppertsburger Str.","postalCode":"35321","locality":"Laubach","municipality":{"key":"06531010","name":"Laubach, Stadt","type":"Stadt"},"district":{"key":"06531","name":"Gießen","type":"Landkreis"},"federalState":{"key":"06","name":"Hessen"}},{"name":"Schauerweg","postalCode":"56759","locality":"Laubach","municipality":{"key":"07135052","name":"Laubach","type":"Kreisangehörige_Gemeinde"},"district":{"key":"07135","name":"Cochem-Zell","type":"Landkreis"},"federalState":{"key":"07","name":"Rheinland-Pfalz"}},{"name":"Schieferstr.","postalCode":"56759","locality":"Laubach","municipality":{"key":"07135052","name":"Laubach","type":"Kreisangehörige_Gemeinde"},"district":{"key":"07135","name":"Cochem-Zell","type":"Landkreis"},"federalState":{"key":"07","name":"Rheinland-Pfalz"}},{"name":"Schillerstr.","postalCode":"35321","locality":"Laubach","municipality":{"key":"06531010","name":"Laubach, Stadt","type":"Stadt"},"district":{"key":"06531","name":"Gießen","type":"Landkreis"},"federalState":{"key":"06","name":"Hessen"}},{"name":"Schinderhannespfad","postalCode":"56288","locality":"Laubach","municipality":{"key":"07140079","name":"Laubach","type":"Kreisangehörige_Gemeinde"},"district":{"key":"07140","name":"Rhein-Hunsrück-Kreis","type":"Landkreis"},"federalState":{"key":"07","name":"Rheinland-Pfalz"}},{"name":"Schloßgasse","postalCode":"35321","locality":"Laubach","municipality":{"key":"06531010","name":"Laubach, Stadt","type":"Stadt"},"district":{"key":"06531","name":"Gießen","type":"Landkreis"},"federalState":{"key":"06","name":"Hessen"}},{"name":"Schloßpark Laubach","postalCode":"35321","locality":"Laubach","municipality":{"key":"06531010","name":"Laubach, Stadt","type":"Stadt"},"district":{"key":"06531","name":"Gießen","type":"Landkreis"},"federalState":{"key":"06","name":"Hessen"}},{"name":"Schmelzweg","postalCode":"35321","locality":"Laubach","municipality":{"key":"06531010","name":"Laubach, Stadt","type":"Stadt"},"district":{"key":"06531","name":"Gießen","type":"Landkreis"},"federalState":{"key":"06","name":"Hessen"}},{"name":"Schottener Str.","postalCode":"35321","locality":"Laubach","municipality":{"key":"06531010","name":"Laubach, Stadt","type":"Stadt"},"district":{"key":"06531","name":"Gießen","type":"Landkreis"},"federalState":{"key":"06","name":"Hessen"}},{"name":"Schulstr.","postalCode":"35321","locality":"Laubach","municipality":{"key":"06531010","name":"Laubach, Stadt","type":"Stadt"},"district":{"key":"06531","name":"Gießen","type":"Landkreis"},"federalState":{"key":"06","name":"Hessen"}},{"name":"Schulstr.","postalCode":"66869","locality":"Blaubach","municipality":{"key":"07336006","name":"Blaubach","type":"Kreisangehörige_Gemeinde"},"district":{"key":"07336","name":"Kusel","type":"Landkreis"},"federalState":{"key":"07","name":"Rheinland-Pfalz"}},{"name":"Schutzbacher Weg","postalCode":"35321","locality":"Laubach","municipality":{"key":"06531010","name":"Laubach, Stadt","type":"Stadt"},"district":{"key":"06531","name":"Gießen","type":"Landkreis"},"federalState":{"key":"06","name":"Hessen"}},{"name":"Sebastian-Kneipp-Steg","postalCode":"35321","locality":"Laubach","municipality":{"key":"06531010","name":"Laubach, Stadt","type":"Stadt"},"district":{"key":"06531","name":"Gießen","type":"Landkreis"},"federalState":{"key":"06","name":"Hessen"}},{"name":"Seentalstr.","postalCode":"35321","locality":"Laubach","municipality":{"key":"06531010","name":"Laubach, Stadt","type":"Stadt"},"district":{"key":"06531","name":"Gießen","type":"Landkreis"},"federalState":{"key":"06","name":"Hessen"}},{"name":"Simmerner Str.","postalCode":"56288","locality":"Laubach","municipality":{"key":"07140079","name":"Laubach","type":"Kreisangehörige_Gemeinde"},"district":{"key":"07140","name":"Rhein-Hunsrück-Kreis","type":"Landkreis"},"federalState":{"key":"07","name":"Rheinland-Pfalz"}},{"name":"Spesenrother Str.","postalCode":"56288","locality":"Laubach","municipality":{"key":"07140079","name":"Laubach","type":"Kreisangehörige_Gemeinde"},"district":{"key":"07140","name":"Rhein-Hunsrück-Kreis","type":"Landkreis"},"federalState":{"key":"07","name":"Rheinland-Pfalz"}},{"name":"Steeggasse","postalCode":"35321","locality":"Laubach","municipality":{"key":"06531010","name":"Laubach, Stadt","type":"Stadt"},"district":{"key":"06531","name":"Gießen","type":"Landkreis"},"federalState":{"key":"06","name":"Hessen"}},{"name":"Steinesmühle","postalCode":"35321","locality":"Laubach","municipality":{"key":"06531010","name":"Laubach, Stadt","type":"Stadt"},"district":{"key":"06531","name":"Gießen","type":"Landkreis"},"federalState":{"key":"06","name":"Hessen"}},{"name":"Steinesstr.","postalCode":"35321","locality":"Laubach","municipality":{"key":"06531010","name":"Laubach, Stadt","type":"Stadt"},"district":{"key":"06531","name":"Gießen","type":"Landkreis"},"federalState":{"key":"06","name":"Hessen"}},{"name":"Steinweg","postalCode":"35321","locality":"Laubach","municipality":{"key":"06531010","name":"Laubach, Stadt","type":"Stadt"},"district":{"key":"06531","name":"Gießen","type":"Landkreis"},"federalState":{"key":"06","name":"Hessen"}},{"name":"Stettiner Str.","postalCode":"35321","locality":"Laubach","municipality":{"key":"06531010","name":"Laubach, Stadt","type":"Stadt"},"district":{"key":"06531","name":"Gießen","type":"Landkreis"},"federalState":{"key":"06","name":"Hessen"}},{"name":"Stiftstr.","postalCode":"35321","locality":"Laubach","municipality":{"key":"06531010","name":"Laubach, Stadt","type":"Stadt"},"district":{"key":"06531","name":"Gießen","type":"Landkreis"},"federalState":{"key":"06","name":"Hessen"}},{"name":"Talstr.","postalCode":"35321","locality":"Laubach","municipality":{"key":"06531010","name":"Laubach, Stadt","type":"Stadt"},"district":{"key":"06531","name":"Gießen","type":"Landkreis"},"federalState":{"key":"06","name":"Hessen"}},{"name":"Tannenweg","postalCode":"35321","locality":"Laubach","municipality":{"key":"06531010","name":"Laubach, Stadt","type":"Stadt"},"district":{"key":"06531","name":"Gießen","type":"Landkreis"},"federalState":{"key":"06","name":"Hessen"}},{"name":"Tiefenhof","postalCode":"35321","locality":"Laubach","municipality":{"key":"06531010","name":"Laubach, Stadt","type":"Stadt"},"district":{"key":"06531","name":"Gießen","type":"Landkreis"},"federalState":{"key":"06","name":"Hessen"}},{"name":"Tiefgarage","postalCode":"35321","locality":"Laubach","municipality":{"key":"06531010","name":"Laubach, Stadt","type":"Stadt"},"district":{"key":"06531","name":"Gießen","type":"Landkreis"},"federalState":{"key":"06","name":"Hessen"}},{"name":"Tunnelstr.","postalCode":"35321","locality":"Laubach","municipality":{"key":"06531010","name":"Laubach, Stadt","type":"Stadt"},"district":{"key":"06531","name":"Gießen","type":"Landkreis"},"federalState":{"key":"06","name":"Hessen"}},{"name":"Turnhallenstr.","postalCode":"35321","locality":"Laubach","municipality":{"key":"06531010","name":"Laubach, Stadt","type":"Stadt"},"district":{"key":"06531","name":"Gießen","type":"Landkreis"},"federalState":{"key":"06","name":"Hessen"}},{"name":"Untere Langgasse","postalCode":"35321","locality":"Laubach","municipality":{"key":"06531010","name":"Laubach, Stadt","type":"Stadt"},"district":{"key":"06531","name":"Gießen","type":"Landkreis"},"federalState":{"key":"06","name":"Hessen"}},{"name":"Untergasse","postalCode":"35321","locality":"Laubach","municipality":{"key":"06531010","name":"Laubach, Stadt","type":"Stadt"},"district":{"key":"06531","name":"Gießen","type":"Landkreis"},"federalState":{"key":"06","name":"Hessen"}},{"name":"Unterm Steinberg","postalCode":"35321","locality":"Laubach","municipality":{"key":"06531010","name":"Laubach, Stadt","type":"Stadt"},"district":{"key":"06531","name":"Gießen","type":"Landkreis"},"federalState":{"key":"06","name":"Hessen"}},{"name":"Unterpforte","postalCode":"35321","locality":"Laubach","municipality":{"key":"06531010","name":"Laubach, Stadt","type":"Stadt"},"district":{"key":"06531","name":"Gießen","type":"Landkreis"},"federalState":{"key":"06","name":"Hessen"}},{"name":"Villinger Str.","postalCode":"35321","locality":"Laubach","municipality":{"key":"06531010","name":"Laubach, Stadt","type":"Stadt"},"district":{"key":"06531","name":"Gießen","type":"Landkreis"},"federalState":{"key":"06","name":"Hessen"}},{"name":"Vogelsbergstr.","postalCode":"35321","locality":"Laubach","municipality":{"key":"06531010","name":"Laubach, Stadt","type":"Stadt"},"district":{"key":"06531","name":"Gießen","type":"Landkreis"},"federalState":{"key":"06","name":"Hessen"}},{"name":"Vor dem Stachenrod","postalCode":"35321","locality":"Laubach","municipality":{"key":"06531010","name":"Laubach, Stadt","type":"Stadt"},"district":{"key":"06531","name":"Gießen","type":"Landkreis"},"federalState":{"key":"06","name":"Hessen"}},{"name":"Vor dem Weingarten","postalCode":"35321","locality":"Laubach","municipality":{"key":"06531010","name":"Laubach, Stadt","type":"Stadt"},"district":{"key":"06531","name":"Gießen","type":"Landkreis"},"federalState":{"key":"06","name":"Hessen"}},{"name":"Vor den Betten","postalCode":"35321","locality":"Laubach","municipality":{"key":"06531010","name":"Laubach, Stadt","type":"Stadt"},"district":{"key":"06531","name":"Gießen","type":"Landkreis"},"federalState":{"key":"06","name":"Hessen"}},{"name":"Waldstr.","postalCode":"35321","locality":"Laubach","municipality":{"key":"06531010","name":"Laubach, Stadt","type":"Stadt"},"district":{"key":"06531","name":"Gießen","type":"Landkreis"},"federalState":{"key":"06","name":"Hessen"}},{"name":"Walkmühle","postalCode":"35321","locality":"Laubach","municipality":{"key":"06531010","name":"Laubach, Stadt","type":"Stadt"},"district":{"key":"06531","name":"Gießen","type":"Landkreis"},"federalState":{"key":"06","name":"Hessen"}},{"name":"Walkweg","postalCode":"35321","locality":"Laubach","municipality":{"key":"06531010","name":"Laubach, Stadt","type":"Stadt"},"district":{"key":"06531","name":"Gießen","type":"Landkreis"},"federalState":{"key":"06","name":"Hessen"}},{"name":"Wallerweg","postalCode":"35321","locality":"Laubach","municipality":{"key":"06531010","name":"Laubach, Stadt","type":"Stadt"},"district":{"key":"06531","name":"Gießen","type":"Landkreis"},"federalState":{"key":"06","name":"Hessen"}},{"name":"Wallstr.","postalCode":"35321","locality":"Laubach","municipality":{"key":"06531010","name":"Laubach, Stadt","type":"Stadt"},"district":{"key":"06531","name":"Gießen","type":"Landkreis"},"federalState":{"key":"06","name":"Hessen"}},{"name":"Weinberggasse","postalCode":"35321","locality":"Laubach","municipality":{"key":"06531010","name":"Laubach, Stadt","type":"Stadt"},"district":{"key":"06531","name":"Gießen","type":"Landkreis"},"federalState":{"key":"06","name":"Hessen"}},{"name":"Weingartenstr.","postalCode":"35321","locality":"Laubach","municipality":{"key":"06531010","name":"Laubach, Stadt","type":"Stadt"},"district":{"key":"06531","name":"Gießen","type":"Landkreis"},"federalState":{"key":"06","name":"Hessen"}},{"name":"Wetterfelder Str.","postalCode":"35321","locality":"Laubach","municipality":{"key":"06531010","name":"Laubach, Stadt","type":"Stadt"},"district":{"key":"06531","name":"Gießen","type":"Landkreis"},"federalState":{"key":"06","name":"Hessen"}},{"name":"Wettergasse","postalCode":"35321","locality":"Laubach","municipality":{"key":"06531010","name":"Laubach, Stadt","type":"Stadt"},"district":{"key":"06531","name":"Gießen","type":"Landkreis"},"federalState":{"key":"06","name":"Hessen"}},{"name":"Wiesenstr.","postalCode":"35321","locality":"Laubach","municipality":{"key":"06531010","name":"Laubach, Stadt","type":"Stadt"},"district":{"key":"06531","name":"Gießen","type":"Landkreis"},"federalState":{"key":"06","name":"Hessen"}},{"name":"Wiesenweg","postalCode":"56759","locality":"Laubach","municipality":{"key":"07135052","name":"Laubach","type":"Kreisangehörige_Gemeinde"},"district":{"key":"07135","name":"Cochem-Zell","type":"Landkreis"},"federalState":{"key":"07","name":"Rheinland-Pfalz"}},{"name":"Wildemannsgasse","postalCode":"35321","locality":"Laubach","municipality":{"key":"06531010","name":"Laubach, Stadt","type":"Stadt"},"district":{"key":"06531","name":"Gießen","type":"Landkreis"},"federalState":{"key":"06","name":"Hessen"}},{"name":"Wilhelmstr.","postalCode":"35321","locality":"Laubach","municipality":{"key":"06531010","name":"Laubach, Stadt","type":"Stadt"},"district":{"key":"06531","name":"Gießen","type":"Landkreis"},"federalState":{"key":"06","name":"Hessen"}},{"name":"Wintergasse","postalCode":"35321","locality":"Laubach","municipality":{"key":"06531010","name":"Laubach, Stadt","type":"Stadt"},"district":{"key":"06531","name":"Gießen","type":"Landkreis"},"federalState":{"key":"06","name":"Hessen"}},{"name":"Wohnfelder Str.","postalCode":"35321","locality":"Laubach","municipality":{"key":"06531010","name":"Laubach, Stadt","type":"Stadt"},"district":{"key":"06531","name":"Gießen","type":"Landkreis"},"federalState":{"key":"06","name":"Hessen"}},{"name":"Wohnpark Gullringen","postalCode":"35321","locality":"Laubach","municipality":{"key":"06531010","name":"Laubach, Stadt","type":"Stadt"},"district":{"key":"06531","name":"Gießen","type":"Landkreis"},"federalState":{"key":"06","name":"Hessen"}},{"name":"Zum Schlegel","postalCode":"35321","locality":"Laubach","municipality":{"key":"06531010","name":"Laubach, Stadt","type":"Stadt"},"district":{"key":"06531","name":"Gießen","type":"Landkreis"},"federalState":{"key":"06","name":"Hessen"}},{"name":"Zum Sportplatz","postalCode":"35321","locality":"Laubach","municipality":{"key":"06531010","name":"Laubach, Stadt","type":"Stadt"},"district":{"key":"06531","name":"Gießen","type":"Landkreis"},"federalState":{"key":"06","name":"Hessen"}},{"name":"Zum Tiergärtner Teich","postalCode":"35321","locality":"Laubach","municipality":{"key":"06531010","name":"Laubach, Stadt","type":"Stadt"},"district":{"key":"06531","name":"Gießen","type":"Landkreis"},"federalState":{"key":"06","name":"Hessen"}},{"name":"zur Helle","postalCode":"35321","locality":"Laubach","municipality":{"key":"06531010","name":"Laubach, Stadt","type":"Stadt"},"district":{"key":"06531","name":"Gießen","type":"Landkreis"},"federalState":{"key":"06","name":"Hessen"}},{"name":"Über der Seife","postalCode":"35398","locality":"Gießen","municipality":{"key":"06531005","name":"Gießen, Universitätsstadt","type":"Stadt"},"district":{"key":"06531","name":"Gießen","type":"Landkreis"},"federalState":{"key":"06","name":"Hessen"}},]