[{"name":"Brunnenstr.","postalCode":"54533","locality":"Oberöfflingen","municipality":{"key":"07231100","name":"Oberöfflingen","type":"Kreisangehörige_Gemeinde"},"district":{"key":"07231","name":"Bernkastel-Wittlich","type":"Landkreis"},"federalState":{"key":"07","name":"Rheinland-Pfalz"}},{"name":"Eschweilerweg","postalCode":"54533","locality":"Oberöfflingen","municipality":{"key":"07231100","name":"Oberöfflingen","type":"Kreisangehörige_Gemeinde"},"district":{"key":"07231","name":"Bernkastel-Wittlich","type":"Landkreis"},"federalState":{"key":"07","name":"Rheinland-Pfalz"}},{"name":"Im Bungert","postalCode":"54533","locality":"Oberöfflingen","municipality":{"key":"07231100","name":"Oberöfflingen","type":"Kreisangehörige_Gemeinde"},"district":{"key":"07231","name":"Bernkastel-Wittlich","type":"Landkreis"},"federalState":{"key":"07","name":"Rheinland-Pfalz"}},{"name":"Im Kirchgarten","postalCode":"54533","locality":"Oberöfflingen","municipality":{"key":"07231100","name":"Oberöfflingen","type":"Kreisangehörige_Gemeinde"},"district":{"key":"07231","name":"Bernkastel-Wittlich","type":"Landkreis"},"federalState":{"key":"07","name":"Rheinland-Pfalz"}},{"name":"Mauritiusweg","postalCode":"54533","locality":"Oberöfflingen","municipality":{"key":"07231100","name":"Oberöfflingen","type":"Kreisangehörige_Gemeinde"},"district":{"key":"07231","name":"Bernkastel-Wittlich","type":"Landkreis"},"federalState":{"key":"07","name":"Rheinland-Pfalz"}},{"name":"Neustr.","postalCode":"54533","locality":"Oberöfflingen","municipality":{"key":"07231100","name":"Oberöfflingen","type":"Kreisangehörige_Gemeinde"},"district":{"key":"07231","name":"Bernkastel-Wittlich","type":"Landkreis"},"federalState":{"key":"07","name":"Rheinland-Pfalz"}},{"name":"Schulweg","postalCode":"54533","locality":"Oberöfflingen","municipality":{"key":"07231100","name":"Oberöfflingen","type":"Kreisangehörige_Gemeinde"},"district":{"key":"07231","name":"Bernkastel-Wittlich","type":"Landkreis"},"federalState":{"key":"07","name":"Rheinland-Pfalz"}},{"name":"Stautderweg","postalCode":"54533","locality":"Oberöfflingen","municipality":{"key":"07231100","name":"Oberöfflingen","type":"Kreisangehörige_Gemeinde"},"district":{"key":"07231","name":"Bernkastel-Wittlich","type":"Landkreis"},"federalState":{"key":"07","name":"Rheinland-Pfalz"}},{"name":"Ufflinger Weg","postalCode":"54533","locality":"Oberöfflingen","municipality":{"key":"07231100","name":"Oberöfflingen","type":"Kreisangehörige_Gemeinde"},"district":{"key":"07231","name":"Bernkastel-Wittlich","type":"Landkreis"},"federalState":{"key":"07","name":"Rheinland-Pfalz"}},{"name":"Waldweg","postalCode":"54533","locality":"Oberöfflingen","municipality":{"key":"07231100","name":"Oberöfflingen","type":"Kreisangehörige_Gemeinde"},"district":{"key":"07231","name":"Bernkastel-Wittlich","type":"Landkreis"},"federalState":{"key":"07","name":"Rheinland-Pfalz"}},{"name":"Zum Jungischt","postalCode":"54533","locality":"Oberöfflingen","municipality":{"key":"07231100","name":"Oberöfflingen","type":"Kreisangehörige_Gemeinde"},"district":{"key":"07231","name":"Bernkastel-Wittlich","type":"Landkreis"},"federalState":{"key":"07","name":"Rheinland-Pfalz"}},{"name":"Zum Rosenberg","postalCode":"54533","locality":"Oberöfflingen","municipality":{"key":"07231100","name":"Oberöfflingen","type":"Kreisangehörige_Gemeinde"},"district":{"key":"07231","name":"Bernkastel-Wittlich","type":"Landkreis"},"federalState":{"key":"07","name":"Rheinland-Pfalz"}},{"name":"Zur Biederburg","postalCode":"54533","locality":"Oberöfflingen","municipality":{"key":"07231100","name":"Oberöfflingen","type":"Kreisangehörige_Gemeinde"},"district":{"key":"07231","name":"Bernkastel-Wittlich","type":"Landkreis"},"federalState":{"key":"07","name":"Rheinland-Pfalz"}},]