[{"code":"41101","district":{"code":"411","name":"Perg","key":"411"},"federalProvince":{"name":"Oberösterreich","key":"4"},"postalCode":"4320","name":"Allerheiligen im Mühlkreis","multiplePostalCodes":true,"key":"41101","status":"None"},{"code":"41102","district":{"code":"411","name":"Perg","key":"411"},"federalProvince":{"name":"Oberösterreich","key":"4"},"postalCode":"4341","name":"Arbing","multiplePostalCodes":true,"key":"41102","status":"None"},{"code":"41103","district":{"code":"411","name":"Perg","key":"411"},"federalProvince":{"name":"Oberösterreich","key":"4"},"postalCode":"4342","name":"Baumgartenberg","multiplePostalCodes":true,"key":"41103","status":"MarketTown"},{"code":"41104","district":{"code":"411","name":"Perg","key":"411"},"federalProvince":{"name":"Oberösterreich","key":"4"},"postalCode":"4371","name":"Dimbach","multiplePostalCodes":false,"key":"41104","status":"MarketTown"},{"code":"41105","district":{"code":"411","name":"Perg","key":"411"},"federalProvince":{"name":"Oberösterreich","key":"4"},"postalCode":"4360","name":"Grein","multiplePostalCodes":false,"key":"41105","status":"UrbanMunicipality"},{"code":"41106","district":{"code":"411","name":"Perg","key":"411"},"federalProvince":{"name":"Oberösterreich","key":"4"},"postalCode":"4223","name":"Katsdorf","multiplePostalCodes":true,"key":"41106","status":"None"},{"code":"41107","district":{"code":"411","name":"Perg","key":"411"},"federalProvince":{"name":"Oberösterreich","key":"4"},"postalCode":"4352","name":"Klam","multiplePostalCodes":false,"key":"41107","status":"MarketTown"},{"code":"41108","district":{"code":"411","name":"Perg","key":"411"},"federalProvince":{"name":"Oberösterreich","key":"4"},"postalCode":"4362","name":"Bad Kreuzen","multiplePostalCodes":true,"key":"41108","status":"MarketTown"},{"code":"41109","district":{"code":"411","name":"Perg","key":"411"},"federalProvince":{"name":"Oberösterreich","key":"4"},"postalCode":"4222","name":"Langenstein","multiplePostalCodes":true,"key":"41109","status":"None"},{"code":"41110","district":{"code":"411","name":"Perg","key":"411"},"federalProvince":{"name":"Oberösterreich","key":"4"},"postalCode":"4225","name":"Luftenberg an der Donau","multiplePostalCodes":true,"key":"41110","status":"MarketTown"},{"code":"41111","district":{"code":"411","name":"Perg","key":"411"},"federalProvince":{"name":"Oberösterreich","key":"4"},"postalCode":"4310","name":"Mauthausen","multiplePostalCodes":true,"key":"41111","status":"MarketTown"},{"code":"41112","district":{"code":"411","name":"Perg","key":"411"},"federalProvince":{"name":"Oberösterreich","key":"4"},"postalCode":"4343","name":"Mitterkirchen im Machland","multiplePostalCodes":false,"key":"41112","status":"MarketTown"},{"code":"41113","district":{"code":"411","name":"Perg","key":"411"},"federalProvince":{"name":"Oberösterreich","key":"4"},"postalCode":"4323","name":"Münzbach","multiplePostalCodes":true,"key":"41113","status":"MarketTown"},{"code":"41114","district":{"code":"411","name":"Perg","key":"411"},"federalProvince":{"name":"Oberösterreich","key":"4"},"postalCode":"4331","name":"Naarn im Machlande","multiplePostalCodes":true,"key":"41114","status":"MarketTown"},{"code":"41115","district":{"code":"411","name":"Perg","key":"411"},"federalProvince":{"name":"Oberösterreich","key":"4"},"postalCode":"4363","name":"Pabneukirchen","multiplePostalCodes":true,"key":"41115","status":"MarketTown"},{"code":"41116","district":{"code":"411","name":"Perg","key":"411"},"federalProvince":{"name":"Oberösterreich","key":"4"},"postalCode":"4320","name":"Perg","multiplePostalCodes":false,"key":"41116","status":"UrbanMunicipality"},{"code":"41117","district":{"code":"411","name":"Perg","key":"411"},"federalProvince":{"name":"Oberösterreich","key":"4"},"postalCode":"4324","name":"Rechberg","multiplePostalCodes":false,"key":"41117","status":"None"},{"code":"41118","district":{"code":"411","name":"Perg","key":"411"},"federalProvince":{"name":"Oberösterreich","key":"4"},"postalCode":"4312","name":"Ried in der Riedmark","multiplePostalCodes":true,"key":"41118","status":"MarketTown"},{"code":"41119","district":{"code":"411","name":"Perg","key":"411"},"federalProvince":{"name":"Oberösterreich","key":"4"},"postalCode":"4372","name":"St. Georgen am Walde","multiplePostalCodes":true,"key":"41119","status":"MarketTown"},{"code":"41120","district":{"code":"411","name":"Perg","key":"411"},"federalProvince":{"name":"Oberösterreich","key":"4"},"postalCode":"4222","name":"St. Georgen an der Gusen","multiplePostalCodes":true,"key":"41120","status":"MarketTown"},{"code":"41121","district":{"code":"411","name":"Perg","key":"411"},"federalProvince":{"name":"Oberösterreich","key":"4"},"postalCode":"4381","name":"St. Nikola an der Donau","multiplePostalCodes":true,"key":"41121","status":"MarketTown"},{"code":"41122","district":{"code":"411","name":"Perg","key":"411"},"federalProvince":{"name":"Oberösterreich","key":"4"},"postalCode":"4364","name":"St. Thomas am Blasenstein","multiplePostalCodes":true,"key":"41122","status":"MarketTown"},{"code":"41123","district":{"code":"411","name":"Perg","key":"411"},"federalProvince":{"name":"Oberösterreich","key":"4"},"postalCode":"4351","name":"Saxen","multiplePostalCodes":true,"key":"41123","status":"MarketTown"},{"code":"41124","district":{"code":"411","name":"Perg","key":"411"},"federalProvince":{"name":"Oberösterreich","key":"4"},"postalCode":"4311","name":"Schwertberg","multiplePostalCodes":true,"key":"41124","status":"MarketTown"},{"code":"41125","district":{"code":"411","name":"Perg","key":"411"},"federalProvince":{"name":"Oberösterreich","key":"4"},"postalCode":"4391","name":"Waldhausen im Strudengau","multiplePostalCodes":true,"key":"41125","status":"MarketTown"},{"code":"41126","district":{"code":"411","name":"Perg","key":"411"},"federalProvince":{"name":"Oberösterreich","key":"4"},"postalCode":"4322","name":"Windhaag bei Perg","multiplePostalCodes":true,"key":"41126","status":"None"}]