[{"name":"Achtern Diek","postalCode":"26486","locality":"Wangerooge","municipality":{"key":"03455021","name":"Wangerooge, Nordseebad","type":"Kreisangehörige_Gemeinde"},"district":{"key":"03455","name":"Friesland","type":"Landkreis"},"federalState":{"key":"03","name":"Niedersachsen"}},{"name":"Am alten Deich","postalCode":"26486","locality":"Wangerooge","municipality":{"key":"03455021","name":"Wangerooge, Nordseebad","type":"Kreisangehörige_Gemeinde"},"district":{"key":"03455","name":"Friesland","type":"Landkreis"},"federalState":{"key":"03","name":"Niedersachsen"}},{"name":"Am Dorfdeich Süd","postalCode":"26486","locality":"Wangerooge","municipality":{"key":"03455021","name":"Wangerooge, Nordseebad","type":"Kreisangehörige_Gemeinde"},"district":{"key":"03455","name":"Friesland","type":"Landkreis"},"federalState":{"key":"03","name":"Niedersachsen"}},{"name":"Am Wattenmeer","postalCode":"26486","locality":"Wangerooge","municipality":{"key":"03455021","name":"Wangerooge, Nordseebad","type":"Kreisangehörige_Gemeinde"},"district":{"key":"03455","name":"Friesland","type":"Landkreis"},"federalState":{"key":"03","name":"Niedersachsen"}},{"name":"Anton-Günther-Str.","postalCode":"26486","locality":"Wangerooge","municipality":{"key":"03455021","name":"Wangerooge, Nordseebad","type":"Kreisangehörige_Gemeinde"},"district":{"key":"03455","name":"Friesland","type":"Landkreis"},"federalState":{"key":"03","name":"Niedersachsen"}},{"name":"Bahnhofstr.","postalCode":"26486","locality":"Wangerooge","municipality":{"key":"03455021","name":"Wangerooge, Nordseebad","type":"Kreisangehörige_Gemeinde"},"district":{"key":"03455","name":"Friesland","type":"Landkreis"},"federalState":{"key":"03","name":"Niedersachsen"}},{"name":"Bootsweg","postalCode":"26486","locality":"Wangerooge","municipality":{"key":"03455021","name":"Wangerooge, Nordseebad","type":"Kreisangehörige_Gemeinde"},"district":{"key":"03455","name":"Friesland","type":"Landkreis"},"federalState":{"key":"03","name":"Niedersachsen"}},{"name":"Carstensstr.","postalCode":"26486","locality":"Wangerooge","municipality":{"key":"03455021","name":"Wangerooge, Nordseebad","type":"Kreisangehörige_Gemeinde"},"district":{"key":"03455","name":"Friesland","type":"Landkreis"},"federalState":{"key":"03","name":"Niedersachsen"}},{"name":"Charlottenstr.","postalCode":"26486","locality":"Wangerooge","municipality":{"key":"03455021","name":"Wangerooge, Nordseebad","type":"Kreisangehörige_Gemeinde"},"district":{"key":"03455","name":"Friesland","type":"Landkreis"},"federalState":{"key":"03","name":"Niedersachsen"}},{"name":"Christian-Janßen-Str.","postalCode":"26486","locality":"Wangerooge","municipality":{"key":"03455021","name":"Wangerooge, Nordseebad","type":"Kreisangehörige_Gemeinde"},"district":{"key":"03455","name":"Friesland","type":"Landkreis"},"federalState":{"key":"03","name":"Niedersachsen"}},{"name":"Damenpfad","postalCode":"26486","locality":"Wangerooge","municipality":{"key":"03455021","name":"Wangerooge, Nordseebad","type":"Kreisangehörige_Gemeinde"},"district":{"key":"03455","name":"Friesland","type":"Landkreis"},"federalState":{"key":"03","name":"Niedersachsen"}},{"name":"Dorfplatz","postalCode":"26486","locality":"Wangerooge","municipality":{"key":"03455021","name":"Wangerooge, Nordseebad","type":"Kreisangehörige_Gemeinde"},"district":{"key":"03455","name":"Friesland","type":"Landkreis"},"federalState":{"key":"03","name":"Niedersachsen"}},{"name":"Elisabeth-Anna-Str.","postalCode":"26486","locality":"Wangerooge","municipality":{"key":"03455021","name":"Wangerooge, Nordseebad","type":"Kreisangehörige_Gemeinde"},"district":{"key":"03455","name":"Friesland","type":"Landkreis"},"federalState":{"key":"03","name":"Niedersachsen"}},{"name":"Friedrich-August-Str.","postalCode":"26486","locality":"Wangerooge","municipality":{"key":"03455021","name":"Wangerooge, Nordseebad","type":"Kreisangehörige_Gemeinde"},"district":{"key":"03455","name":"Friesland","type":"Landkreis"},"federalState":{"key":"03","name":"Niedersachsen"}},{"name":"Friesenstr.","postalCode":"26486","locality":"Wangerooge","municipality":{"key":"03455021","name":"Wangerooge, Nordseebad","type":"Kreisangehörige_Gemeinde"},"district":{"key":"03455","name":"Friesland","type":"Landkreis"},"federalState":{"key":"03","name":"Niedersachsen"}},{"name":"Fußweg zum Westen","postalCode":"26486","locality":"Wangerooge","municipality":{"key":"03455021","name":"Wangerooge, Nordseebad","type":"Kreisangehörige_Gemeinde"},"district":{"key":"03455","name":"Friesland","type":"Landkreis"},"federalState":{"key":"03","name":"Niedersachsen"}},{"name":"Herrenpfad","postalCode":"26486","locality":"Wangerooge","municipality":{"key":"03455021","name":"Wangerooge, Nordseebad","type":"Kreisangehörige_Gemeinde"},"district":{"key":"03455","name":"Friesland","type":"Landkreis"},"federalState":{"key":"03","name":"Niedersachsen"}},{"name":"Hindenburgplatz","postalCode":"26486","locality":"Wangerooge","municipality":{"key":"03455021","name":"Wangerooge, Nordseebad","type":"Kreisangehörige_Gemeinde"},"district":{"key":"03455","name":"Friesland","type":"Landkreis"},"federalState":{"key":"03","name":"Niedersachsen"}},{"name":"Im Dorfgroden","postalCode":"26486","locality":"Wangerooge","municipality":{"key":"03455021","name":"Wangerooge, Nordseebad","type":"Kreisangehörige_Gemeinde"},"district":{"key":"03455","name":"Friesland","type":"Landkreis"},"federalState":{"key":"03","name":"Niedersachsen"}},{"name":"Im Westen","postalCode":"26486","locality":"Wangerooge","municipality":{"key":"03455021","name":"Wangerooge, Nordseebad","type":"Kreisangehörige_Gemeinde"},"district":{"key":"03455","name":"Friesland","type":"Landkreis"},"federalState":{"key":"03","name":"Niedersachsen"}},{"name":"In den Osterdünen","postalCode":"26486","locality":"Wangerooge","municipality":{"key":"03455021","name":"Wangerooge, Nordseebad","type":"Kreisangehörige_Gemeinde"},"district":{"key":"03455","name":"Friesland","type":"Landkreis"},"federalState":{"key":"03","name":"Niedersachsen"}},{"name":"Jadehörn","postalCode":"26486","locality":"Wangerooge","municipality":{"key":"03455021","name":"Wangerooge, Nordseebad","type":"Kreisangehörige_Gemeinde"},"district":{"key":"03455","name":"Friesland","type":"Landkreis"},"federalState":{"key":"03","name":"Niedersachsen"}},{"name":"Jadestr.","postalCode":"26486","locality":"Wangerooge","municipality":{"key":"03455021","name":"Wangerooge, Nordseebad","type":"Kreisangehörige_Gemeinde"},"district":{"key":"03455","name":"Friesland","type":"Landkreis"},"federalState":{"key":"03","name":"Niedersachsen"}},{"name":"Kapitän-Wittenberg-Str.","postalCode":"26486","locality":"Wangerooge","municipality":{"key":"03455021","name":"Wangerooge, Nordseebad","type":"Kreisangehörige_Gemeinde"},"district":{"key":"03455","name":"Friesland","type":"Landkreis"},"federalState":{"key":"03","name":"Niedersachsen"}},{"name":"Nikolausstr.","postalCode":"26486","locality":"Wangerooge","municipality":{"key":"03455021","name":"Wangerooge, Nordseebad","type":"Kreisangehörige_Gemeinde"},"district":{"key":"03455","name":"Friesland","type":"Landkreis"},"federalState":{"key":"03","name":"Niedersachsen"}},{"name":"Peterstr.","postalCode":"26486","locality":"Wangerooge","municipality":{"key":"03455021","name":"Wangerooge, Nordseebad","type":"Kreisangehörige_Gemeinde"},"district":{"key":"03455","name":"Friesland","type":"Landkreis"},"federalState":{"key":"03","name":"Niedersachsen"}},{"name":"Richthofenstr.","postalCode":"26486","locality":"Wangerooge","municipality":{"key":"03455021","name":"Wangerooge, Nordseebad","type":"Kreisangehörige_Gemeinde"},"district":{"key":"03455","name":"Friesland","type":"Landkreis"},"federalState":{"key":"03","name":"Niedersachsen"}},{"name":"Robbenstr.","postalCode":"26486","locality":"Wangerooge","municipality":{"key":"03455021","name":"Wangerooge, Nordseebad","type":"Kreisangehörige_Gemeinde"},"district":{"key":"03455","name":"Friesland","type":"Landkreis"},"federalState":{"key":"03","name":"Niedersachsen"}},{"name":"Rosengarten","postalCode":"26486","locality":"Wangerooge","municipality":{"key":"03455021","name":"Wangerooge, Nordseebad","type":"Kreisangehörige_Gemeinde"},"district":{"key":"03455","name":"Friesland","type":"Landkreis"},"federalState":{"key":"03","name":"Niedersachsen"}},{"name":"Rösingstr.","postalCode":"26486","locality":"Wangerooge","municipality":{"key":"03455021","name":"Wangerooge, Nordseebad","type":"Kreisangehörige_Gemeinde"},"district":{"key":"03455","name":"Friesland","type":"Landkreis"},"federalState":{"key":"03","name":"Niedersachsen"}},{"name":"Schulstr.","postalCode":"26486","locality":"Wangerooge","municipality":{"key":"03455021","name":"Wangerooge, Nordseebad","type":"Kreisangehörige_Gemeinde"},"district":{"key":"03455","name":"Friesland","type":"Landkreis"},"federalState":{"key":"03","name":"Niedersachsen"}},{"name":"Siedlerstr.","postalCode":"26486","locality":"Wangerooge","municipality":{"key":"03455021","name":"Wangerooge, Nordseebad","type":"Kreisangehörige_Gemeinde"},"district":{"key":"03455","name":"Friesland","type":"Landkreis"},"federalState":{"key":"03","name":"Niedersachsen"}},{"name":"Steingarten","postalCode":"26486","locality":"Wangerooge","municipality":{"key":"03455021","name":"Wangerooge, Nordseebad","type":"Kreisangehörige_Gemeinde"},"district":{"key":"03455","name":"Friesland","type":"Landkreis"},"federalState":{"key":"03","name":"Niedersachsen"}},{"name":"Teichgarten","postalCode":"26486","locality":"Wangerooge","municipality":{"key":"03455021","name":"Wangerooge, Nordseebad","type":"Kreisangehörige_Gemeinde"},"district":{"key":"03455","name":"Friesland","type":"Landkreis"},"federalState":{"key":"03","name":"Niedersachsen"}},{"name":"Tuunpad","postalCode":"26486","locality":"Wangerooge","municipality":{"key":"03455021","name":"Wangerooge, Nordseebad","type":"Kreisangehörige_Gemeinde"},"district":{"key":"03455","name":"Friesland","type":"Landkreis"},"federalState":{"key":"03","name":"Niedersachsen"}},{"name":"Westingstr.","postalCode":"26486","locality":"Wangerooge","municipality":{"key":"03455021","name":"Wangerooge, Nordseebad","type":"Kreisangehörige_Gemeinde"},"district":{"key":"03455","name":"Friesland","type":"Landkreis"},"federalState":{"key":"03","name":"Niedersachsen"}},{"name":"Zedeliusstr.","postalCode":"26486","locality":"Wangerooge","municipality":{"key":"03455021","name":"Wangerooge, Nordseebad","type":"Kreisangehörige_Gemeinde"},"district":{"key":"03455","name":"Friesland","type":"Landkreis"},"federalState":{"key":"03","name":"Niedersachsen"}},]