[{"name":"Am Kesselgraben","postalCode":"90616","locality":"Neuhof a.d.Zenn","municipality":{"key":"09575152","name":"Neuhof a.d.Zenn, M","type":"Markt"},"district":{"key":"09575","name":"Neustadt a.d.Aisch-Bad Windsheim","type":"Landkreis"},"federalState":{"key":"09","name":"Bayern"}},{"name":"Am Lämmerranken","postalCode":"90616","locality":"Neuhof a.d.Zenn","municipality":{"key":"09575152","name":"Neuhof a.d.Zenn, M","type":"Markt"},"district":{"key":"09575","name":"Neustadt a.d.Aisch-Bad Windsheim","type":"Landkreis"},"federalState":{"key":"09","name":"Bayern"}},{"name":"Am Silberbuck","postalCode":"90616","locality":"Neuhof a.d.Zenn","municipality":{"key":"09575152","name":"Neuhof a.d.Zenn, M","type":"Markt"},"district":{"key":"09575","name":"Neustadt a.d.Aisch-Bad Windsheim","type":"Landkreis"},"federalState":{"key":"09","name":"Bayern"}},{"name":"Am Torbuck","postalCode":"90616","locality":"Neuhof a.d.Zenn","municipality":{"key":"09575152","name":"Neuhof a.d.Zenn, M","type":"Markt"},"district":{"key":"09575","name":"Neustadt a.d.Aisch-Bad Windsheim","type":"Landkreis"},"federalState":{"key":"09","name":"Bayern"}},{"name":"Am Zeilberg","postalCode":"90616","locality":"Neuhof a.d.Zenn","municipality":{"key":"09575152","name":"Neuhof a.d.Zenn, M","type":"Markt"},"district":{"key":"09575","name":"Neustadt a.d.Aisch-Bad Windsheim","type":"Landkreis"},"federalState":{"key":"09","name":"Bayern"}},{"name":"An der Leiten","postalCode":"90616","locality":"Neuhof a.d.Zenn","municipality":{"key":"09575152","name":"Neuhof a.d.Zenn, M","type":"Markt"},"district":{"key":"09575","name":"Neustadt a.d.Aisch-Bad Windsheim","type":"Landkreis"},"federalState":{"key":"09","name":"Bayern"}},{"name":"Ansbacher Str.","postalCode":"90616","locality":"Neuhof a.d.Zenn","municipality":{"key":"09575152","name":"Neuhof a.d.Zenn, M","type":"Markt"},"district":{"key":"09575","name":"Neustadt a.d.Aisch-Bad Windsheim","type":"Landkreis"},"federalState":{"key":"09","name":"Bayern"}},{"name":"Birkenstr.","postalCode":"90616","locality":"Neuhof a.d.Zenn","municipality":{"key":"09575152","name":"Neuhof a.d.Zenn, M","type":"Markt"},"district":{"key":"09575","name":"Neustadt a.d.Aisch-Bad Windsheim","type":"Landkreis"},"federalState":{"key":"09","name":"Bayern"}},{"name":"Blumenstr.","postalCode":"90616","locality":"Neuhof a.d.Zenn","municipality":{"key":"09575152","name":"Neuhof a.d.Zenn, M","type":"Markt"},"district":{"key":"09575","name":"Neustadt a.d.Aisch-Bad Windsheim","type":"Landkreis"},"federalState":{"key":"09","name":"Bayern"}},{"name":"Brunnenleite","postalCode":"90616","locality":"Neuhof a.d.Zenn","municipality":{"key":"09575152","name":"Neuhof a.d.Zenn, M","type":"Markt"},"district":{"key":"09575","name":"Neustadt a.d.Aisch-Bad Windsheim","type":"Landkreis"},"federalState":{"key":"09","name":"Bayern"}},{"name":"Eichenmühle","postalCode":"90616","locality":"Neuhof a.d.Zenn","municipality":{"key":"09575152","name":"Neuhof a.d.Zenn, M","type":"Markt"},"district":{"key":"09575","name":"Neustadt a.d.Aisch-Bad Windsheim","type":"Landkreis"},"federalState":{"key":"09","name":"Bayern"}},{"name":"Hauptstr.","postalCode":"90616","locality":"Neuhof a.d.Zenn","municipality":{"key":"09575152","name":"Neuhof a.d.Zenn, M","type":"Markt"},"district":{"key":"09575","name":"Neustadt a.d.Aisch-Bad Windsheim","type":"Landkreis"},"federalState":{"key":"09","name":"Bayern"}},{"name":"Heineken Boulevard","postalCode":"90616","locality":"Neuhof a.d.Zenn","municipality":{"key":"09575152","name":"Neuhof a.d.Zenn, M","type":"Markt"},"district":{"key":"09575","name":"Neustadt a.d.Aisch-Bad Windsheim","type":"Landkreis"},"federalState":{"key":"09","name":"Bayern"}},{"name":"Hochstr.","postalCode":"90616","locality":"Neuhof a.d.Zenn","municipality":{"key":"09575152","name":"Neuhof a.d.Zenn, M","type":"Markt"},"district":{"key":"09575","name":"Neustadt a.d.Aisch-Bad Windsheim","type":"Landkreis"},"federalState":{"key":"09","name":"Bayern"}},{"name":"Holzgarten","postalCode":"90616","locality":"Neuhof a.d.Zenn","municipality":{"key":"09575152","name":"Neuhof a.d.Zenn, M","type":"Markt"},"district":{"key":"09575","name":"Neustadt a.d.Aisch-Bad Windsheim","type":"Landkreis"},"federalState":{"key":"09","name":"Bayern"}},{"name":"Im Weizenfeld","postalCode":"90616","locality":"Neuhof a.d.Zenn","municipality":{"key":"09575152","name":"Neuhof a.d.Zenn, M","type":"Markt"},"district":{"key":"09575","name":"Neustadt a.d.Aisch-Bad Windsheim","type":"Landkreis"},"federalState":{"key":"09","name":"Bayern"}},{"name":"Industriestr.","postalCode":"90616","locality":"Neuhof a.d.Zenn","municipality":{"key":"09575152","name":"Neuhof a.d.Zenn, M","type":"Markt"},"district":{"key":"09575","name":"Neustadt a.d.Aisch-Bad Windsheim","type":"Landkreis"},"federalState":{"key":"09","name":"Bayern"}},{"name":"Kornblumenweg","postalCode":"90616","locality":"Neuhof a.d.Zenn","municipality":{"key":"09575152","name":"Neuhof a.d.Zenn, M","type":"Markt"},"district":{"key":"09575","name":"Neustadt a.d.Aisch-Bad Windsheim","type":"Landkreis"},"federalState":{"key":"09","name":"Bayern"}},{"name":"Lilienstr.","postalCode":"90616","locality":"Neuhof a.d.Zenn","municipality":{"key":"09575152","name":"Neuhof a.d.Zenn, M","type":"Markt"},"district":{"key":"09575","name":"Neustadt a.d.Aisch-Bad Windsheim","type":"Landkreis"},"federalState":{"key":"09","name":"Bayern"}},{"name":"Lindenstr.","postalCode":"90616","locality":"Neuhof a.d.Zenn","municipality":{"key":"09575152","name":"Neuhof a.d.Zenn, M","type":"Markt"},"district":{"key":"09575","name":"Neustadt a.d.Aisch-Bad Windsheim","type":"Landkreis"},"federalState":{"key":"09","name":"Bayern"}},{"name":"Marktplatz","postalCode":"90616","locality":"Neuhof a.d.Zenn","municipality":{"key":"09575152","name":"Neuhof a.d.Zenn, M","type":"Markt"},"district":{"key":"09575","name":"Neustadt a.d.Aisch-Bad Windsheim","type":"Landkreis"},"federalState":{"key":"09","name":"Bayern"}},{"name":"Mögelheuweg","postalCode":"90616","locality":"Neuhof a.d.Zenn","municipality":{"key":"09575152","name":"Neuhof a.d.Zenn, M","type":"Markt"},"district":{"key":"09575","name":"Neustadt a.d.Aisch-Bad Windsheim","type":"Landkreis"},"federalState":{"key":"09","name":"Bayern"}},{"name":"Neuselingsbach","postalCode":"90616","locality":"Neuhof a.d.Zenn","municipality":{"key":"09575152","name":"Neuhof a.d.Zenn, M","type":"Markt"},"district":{"key":"09575","name":"Neustadt a.d.Aisch-Bad Windsheim","type":"Landkreis"},"federalState":{"key":"09","name":"Bayern"}},{"name":"Ochsenweg","postalCode":"90616","locality":"Neuhof a.d.Zenn","municipality":{"key":"09575152","name":"Neuhof a.d.Zenn, M","type":"Markt"},"district":{"key":"09575","name":"Neustadt a.d.Aisch-Bad Windsheim","type":"Landkreis"},"federalState":{"key":"09","name":"Bayern"}},{"name":"Ringstr.","postalCode":"90616","locality":"Neuhof a.d.Zenn","municipality":{"key":"09575152","name":"Neuhof a.d.Zenn, M","type":"Markt"},"district":{"key":"09575","name":"Neustadt a.d.Aisch-Bad Windsheim","type":"Landkreis"},"federalState":{"key":"09","name":"Bayern"}},{"name":"Rosenau","postalCode":"90616","locality":"Neuhof a.d.Zenn","municipality":{"key":"09575152","name":"Neuhof a.d.Zenn, M","type":"Markt"},"district":{"key":"09575","name":"Neustadt a.d.Aisch-Bad Windsheim","type":"Landkreis"},"federalState":{"key":"09","name":"Bayern"}},{"name":"Rosenstr.","postalCode":"90616","locality":"Neuhof a.d.Zenn","municipality":{"key":"09575152","name":"Neuhof a.d.Zenn, M","type":"Markt"},"district":{"key":"09575","name":"Neustadt a.d.Aisch-Bad Windsheim","type":"Landkreis"},"federalState":{"key":"09","name":"Bayern"}},{"name":"Schloßstr.","postalCode":"90616","locality":"Neuhof a.d.Zenn","municipality":{"key":"09575152","name":"Neuhof a.d.Zenn, M","type":"Markt"},"district":{"key":"09575","name":"Neustadt a.d.Aisch-Bad Windsheim","type":"Landkreis"},"federalState":{"key":"09","name":"Bayern"}},{"name":"Schulstr.","postalCode":"90616","locality":"Neuhof a.d.Zenn","municipality":{"key":"09575152","name":"Neuhof a.d.Zenn, M","type":"Markt"},"district":{"key":"09575","name":"Neustadt a.d.Aisch-Bad Windsheim","type":"Landkreis"},"federalState":{"key":"09","name":"Bayern"}},{"name":"Sudetenstr.","postalCode":"90616","locality":"Neuhof a.d.Zenn","municipality":{"key":"09575152","name":"Neuhof a.d.Zenn, M","type":"Markt"},"district":{"key":"09575","name":"Neustadt a.d.Aisch-Bad Windsheim","type":"Landkreis"},"federalState":{"key":"09","name":"Bayern"}},{"name":"Ziegelbuck","postalCode":"90616","locality":"Neuhof a.d.Zenn","municipality":{"key":"09575152","name":"Neuhof a.d.Zenn, M","type":"Markt"},"district":{"key":"09575","name":"Neustadt a.d.Aisch-Bad Windsheim","type":"Landkreis"},"federalState":{"key":"09","name":"Bayern"}},]