[{"name":"Adalbert-Stifter-Str.","postalCode":"53721","locality":"Siegburg","municipality":{"key":"05382060","name":"Siegburg, Stadt","type":"Stadt"},"district":{"key":"05382","name":"Rhein-Sieg-Kreis","type":"Kreis"},"federalState":{"key":"05","name":"Nordrhein-Westfalen"}},{"name":"Adolf-Kolping-Platz","postalCode":"53721","locality":"Siegburg","municipality":{"key":"05382060","name":"Siegburg, Stadt","type":"Stadt"},"district":{"key":"05382","name":"Rhein-Sieg-Kreis","type":"Kreis"},"federalState":{"key":"05","name":"Nordrhein-Westfalen"}},{"name":"Aggerstr.","postalCode":"53721","locality":"Siegburg","municipality":{"key":"05382060","name":"Siegburg, Stadt","type":"Stadt"},"district":{"key":"05382","name":"Rhein-Sieg-Kreis","type":"Kreis"},"federalState":{"key":"05","name":"Nordrhein-Westfalen"}},{"name":"Ahornweg","postalCode":"53721","locality":"Siegburg","municipality":{"key":"05382060","name":"Siegburg, Stadt","type":"Stadt"},"district":{"key":"05382","name":"Rhein-Sieg-Kreis","type":"Kreis"},"federalState":{"key":"05","name":"Nordrhein-Westfalen"}},{"name":"Akazienweg","postalCode":"53721","locality":"Siegburg","municipality":{"key":"05382060","name":"Siegburg, Stadt","type":"Stadt"},"district":{"key":"05382","name":"Rhein-Sieg-Kreis","type":"Kreis"},"federalState":{"key":"05","name":"Nordrhein-Westfalen"}},{"name":"Albert-Schweitzer-Str.","postalCode":"53721","locality":"Siegburg","municipality":{"key":"05382060","name":"Siegburg, Stadt","type":"Stadt"},"district":{"key":"05382","name":"Rhein-Sieg-Kreis","type":"Kreis"},"federalState":{"key":"05","name":"Nordrhein-Westfalen"}},{"name":"Albertstr.","postalCode":"53721","locality":"Siegburg","municipality":{"key":"05382060","name":"Siegburg, Stadt","type":"Stadt"},"district":{"key":"05382","name":"Rhein-Sieg-Kreis","type":"Kreis"},"federalState":{"key":"05","name":"Nordrhein-Westfalen"}},{"name":"Alfred-Keller-Str.","postalCode":"53721","locality":"Siegburg","municipality":{"key":"05382060","name":"Siegburg, Stadt","type":"Stadt"},"district":{"key":"05382","name":"Rhein-Sieg-Kreis","type":"Kreis"},"federalState":{"key":"05","name":"Nordrhein-Westfalen"}},{"name":"Alleestr.","postalCode":"53721","locality":"Siegburg","municipality":{"key":"05382060","name":"Siegburg, Stadt","type":"Stadt"},"district":{"key":"05382","name":"Rhein-Sieg-Kreis","type":"Kreis"},"federalState":{"key":"05","name":"Nordrhein-Westfalen"}},{"name":"Alte Lohmarer Str.","postalCode":"53721","locality":"Siegburg","municipality":{"key":"05382060","name":"Siegburg, Stadt","type":"Stadt"},"district":{"key":"05382","name":"Rhein-Sieg-Kreis","type":"Kreis"},"federalState":{"key":"05","name":"Nordrhein-Westfalen"}},{"name":"Alte Poststr.","postalCode":"53721","locality":"Siegburg","municipality":{"key":"05382060","name":"Siegburg, Stadt","type":"Stadt"},"district":{"key":"05382","name":"Rhein-Sieg-Kreis","type":"Kreis"},"federalState":{"key":"05","name":"Nordrhein-Westfalen"}},{"name":"Alter Grenzweg","postalCode":"53721","locality":"Siegburg","municipality":{"key":"05382060","name":"Siegburg, Stadt","type":"Stadt"},"district":{"key":"05382","name":"Rhein-Sieg-Kreis","type":"Kreis"},"federalState":{"key":"05","name":"Nordrhein-Westfalen"}},{"name":"Alter Kirchweg","postalCode":"53721","locality":"Siegburg","municipality":{"key":"05382060","name":"Siegburg, Stadt","type":"Stadt"},"district":{"key":"05382","name":"Rhein-Sieg-Kreis","type":"Kreis"},"federalState":{"key":"05","name":"Nordrhein-Westfalen"}},{"name":"Am Abtshof","postalCode":"53721","locality":"Siegburg","municipality":{"key":"05382060","name":"Siegburg, Stadt","type":"Stadt"},"district":{"key":"05382","name":"Rhein-Sieg-Kreis","type":"Kreis"},"federalState":{"key":"05","name":"Nordrhein-Westfalen"}},{"name":"Am Auelsbach","postalCode":"53721","locality":"Siegburg","municipality":{"key":"05382060","name":"Siegburg, Stadt","type":"Stadt"},"district":{"key":"05382","name":"Rhein-Sieg-Kreis","type":"Kreis"},"federalState":{"key":"05","name":"Nordrhein-Westfalen"}},{"name":"Am Bertrams Weiher","postalCode":"53721","locality":"Siegburg","municipality":{"key":"05382060","name":"Siegburg, Stadt","type":"Stadt"},"district":{"key":"05382","name":"Rhein-Sieg-Kreis","type":"Kreis"},"federalState":{"key":"05","name":"Nordrhein-Westfalen"}},{"name":"Am Beuhof","postalCode":"53721","locality":"Siegburg","municipality":{"key":"05382060","name":"Siegburg, Stadt","type":"Stadt"},"district":{"key":"05382","name":"Rhein-Sieg-Kreis","type":"Kreis"},"federalState":{"key":"05","name":"Nordrhein-Westfalen"}},{"name":"Am Bildstock","postalCode":"53721","locality":"Siegburg","municipality":{"key":"05382060","name":"Siegburg, Stadt","type":"Stadt"},"district":{"key":"05382","name":"Rhein-Sieg-Kreis","type":"Kreis"},"federalState":{"key":"05","name":"Nordrhein-Westfalen"}},{"name":"Am Breitschoß","postalCode":"53721","locality":"Siegburg","municipality":{"key":"05382060","name":"Siegburg, Stadt","type":"Stadt"},"district":{"key":"05382","name":"Rhein-Sieg-Kreis","type":"Kreis"},"federalState":{"key":"05","name":"Nordrhein-Westfalen"}},{"name":"Am Broichshäuschen","postalCode":"53721","locality":"Siegburg","municipality":{"key":"05382060","name":"Siegburg, Stadt","type":"Stadt"},"district":{"key":"05382","name":"Rhein-Sieg-Kreis","type":"Kreis"},"federalState":{"key":"05","name":"Nordrhein-Westfalen"}},{"name":"Am Brungshof","postalCode":"53721","locality":"Siegburg","municipality":{"key":"05382060","name":"Siegburg, Stadt","type":"Stadt"},"district":{"key":"05382","name":"Rhein-Sieg-Kreis","type":"Kreis"},"federalState":{"key":"05","name":"Nordrhein-Westfalen"}},{"name":"Am Grafenkreuz","postalCode":"53721","locality":"Siegburg","municipality":{"key":"05382060","name":"Siegburg, Stadt","type":"Stadt"},"district":{"key":"05382","name":"Rhein-Sieg-Kreis","type":"Kreis"},"federalState":{"key":"05","name":"Nordrhein-Westfalen"}},{"name":"Am Heckershof","postalCode":"53721","locality":"Siegburg","municipality":{"key":"05382060","name":"Siegburg, Stadt","type":"Stadt"},"district":{"key":"05382","name":"Rhein-Sieg-Kreis","type":"Kreis"},"federalState":{"key":"05","name":"Nordrhein-Westfalen"}},{"name":"Am Herrengarten","postalCode":"53721","locality":"Siegburg","municipality":{"key":"05382060","name":"Siegburg, Stadt","type":"Stadt"},"district":{"key":"05382","name":"Rhein-Sieg-Kreis","type":"Kreis"},"federalState":{"key":"05","name":"Nordrhein-Westfalen"}},{"name":"Am Hügel","postalCode":"53721","locality":"Siegburg","municipality":{"key":"05382060","name":"Siegburg, Stadt","type":"Stadt"},"district":{"key":"05382","name":"Rhein-Sieg-Kreis","type":"Kreis"},"federalState":{"key":"05","name":"Nordrhein-Westfalen"}},{"name":"Am Hülsenhof","postalCode":"53721","locality":"Siegburg","municipality":{"key":"05382060","name":"Siegburg, Stadt","type":"Stadt"},"district":{"key":"05382","name":"Rhein-Sieg-Kreis","type":"Kreis"},"federalState":{"key":"05","name":"Nordrhein-Westfalen"}},{"name":"Am ICE-Tunnel","postalCode":"53721","locality":"Siegburg","municipality":{"key":"05382060","name":"Siegburg, Stadt","type":"Stadt"},"district":{"key":"05382","name":"Rhein-Sieg-Kreis","type":"Kreis"},"federalState":{"key":"05","name":"Nordrhein-Westfalen"}},{"name":"Am Kannenofen","postalCode":"53721","locality":"Siegburg","municipality":{"key":"05382060","name":"Siegburg, Stadt","type":"Stadt"},"district":{"key":"05382","name":"Rhein-Sieg-Kreis","type":"Kreis"},"federalState":{"key":"05","name":"Nordrhein-Westfalen"}},{"name":"Am Kieferntopf","postalCode":"53721","locality":"Siegburg","municipality":{"key":"05382060","name":"Siegburg, Stadt","type":"Stadt"},"district":{"key":"05382","name":"Rhein-Sieg-Kreis","type":"Kreis"},"federalState":{"key":"05","name":"Nordrhein-Westfalen"}},{"name":"Am Klinkenberger Hof","postalCode":"53721","locality":"Siegburg","municipality":{"key":"05382060","name":"Siegburg, Stadt","type":"Stadt"},"district":{"key":"05382","name":"Rhein-Sieg-Kreis","type":"Kreis"},"federalState":{"key":"05","name":"Nordrhein-Westfalen"}},{"name":"Am Kreuztor","postalCode":"53721","locality":"Siegburg","municipality":{"key":"05382060","name":"Siegburg, Stadt","type":"Stadt"},"district":{"key":"05382","name":"Rhein-Sieg-Kreis","type":"Kreis"},"federalState":{"key":"05","name":"Nordrhein-Westfalen"}},{"name":"Am Park","postalCode":"53721","locality":"Siegburg","municipality":{"key":"05382060","name":"Siegburg, Stadt","type":"Stadt"},"district":{"key":"05382","name":"Rhein-Sieg-Kreis","type":"Kreis"},"federalState":{"key":"05","name":"Nordrhein-Westfalen"}},{"name":"Am Pfahlweiher","postalCode":"53721","locality":"Siegburg","municipality":{"key":"05382060","name":"Siegburg, Stadt","type":"Stadt"},"district":{"key":"05382","name":"Rhein-Sieg-Kreis","type":"Kreis"},"federalState":{"key":"05","name":"Nordrhein-Westfalen"}},{"name":"Am Reiterhof","postalCode":"53721","locality":"Siegburg","municipality":{"key":"05382060","name":"Siegburg, Stadt","type":"Stadt"},"district":{"key":"05382","name":"Rhein-Sieg-Kreis","type":"Kreis"},"federalState":{"key":"05","name":"Nordrhein-Westfalen"}},{"name":"Am Rosenhügel","postalCode":"53721","locality":"Siegburg","municipality":{"key":"05382060","name":"Siegburg, Stadt","type":"Stadt"},"district":{"key":"05382","name":"Rhein-Sieg-Kreis","type":"Kreis"},"federalState":{"key":"05","name":"Nordrhein-Westfalen"}},{"name":"Am Schiefelhof","postalCode":"53721","locality":"Siegburg","municipality":{"key":"05382060","name":"Siegburg, Stadt","type":"Stadt"},"district":{"key":"05382","name":"Rhein-Sieg-Kreis","type":"Kreis"},"federalState":{"key":"05","name":"Nordrhein-Westfalen"}},{"name":"Amselsteg","postalCode":"53721","locality":"Siegburg","municipality":{"key":"05382060","name":"Siegburg, Stadt","type":"Stadt"},"district":{"key":"05382","name":"Rhein-Sieg-Kreis","type":"Kreis"},"federalState":{"key":"05","name":"Nordrhein-Westfalen"}},{"name":"Am Sonnenhang","postalCode":"53721","locality":"Siegburg","municipality":{"key":"05382060","name":"Siegburg, Stadt","type":"Stadt"},"district":{"key":"05382","name":"Rhein-Sieg-Kreis","type":"Kreis"},"federalState":{"key":"05","name":"Nordrhein-Westfalen"}},{"name":"Am Stadion","postalCode":"53721","locality":"Siegburg","municipality":{"key":"05382060","name":"Siegburg, Stadt","type":"Stadt"},"district":{"key":"05382","name":"Rhein-Sieg-Kreis","type":"Kreis"},"federalState":{"key":"05","name":"Nordrhein-Westfalen"}},{"name":"Am Stadtwald","postalCode":"53721","locality":"Siegburg","municipality":{"key":"05382060","name":"Siegburg, Stadt","type":"Stadt"},"district":{"key":"05382","name":"Rhein-Sieg-Kreis","type":"Kreis"},"federalState":{"key":"05","name":"Nordrhein-Westfalen"}},{"name":"Am Stallberg","postalCode":"53721","locality":"Siegburg","municipality":{"key":"05382060","name":"Siegburg, Stadt","type":"Stadt"},"district":{"key":"05382","name":"Rhein-Sieg-Kreis","type":"Kreis"},"federalState":{"key":"05","name":"Nordrhein-Westfalen"}},{"name":"Am Steinbruch","postalCode":"53721","locality":"Siegburg","municipality":{"key":"05382060","name":"Siegburg, Stadt","type":"Stadt"},"district":{"key":"05382","name":"Rhein-Sieg-Kreis","type":"Kreis"},"federalState":{"key":"05","name":"Nordrhein-Westfalen"}},{"name":"Am Tannenhof","postalCode":"53721","locality":"Siegburg","municipality":{"key":"05382060","name":"Siegburg, Stadt","type":"Stadt"},"district":{"key":"05382","name":"Rhein-Sieg-Kreis","type":"Kreis"},"federalState":{"key":"05","name":"Nordrhein-Westfalen"}},{"name":"Am Trerichsweiher","postalCode":"53721","locality":"Siegburg","municipality":{"key":"05382060","name":"Siegburg, Stadt","type":"Stadt"},"district":{"key":"05382","name":"Rhein-Sieg-Kreis","type":"Kreis"},"federalState":{"key":"05","name":"Nordrhein-Westfalen"}},{"name":"Am Turm","postalCode":"53721","locality":"Siegburg","municipality":{"key":"05382060","name":"Siegburg, Stadt","type":"Stadt"},"district":{"key":"05382","name":"Rhein-Sieg-Kreis","type":"Kreis"},"federalState":{"key":"05","name":"Nordrhein-Westfalen"}},{"name":"Am Uhlenhorst","postalCode":"53721","locality":"Siegburg","municipality":{"key":"05382060","name":"Siegburg, Stadt","type":"Stadt"},"district":{"key":"05382","name":"Rhein-Sieg-Kreis","type":"Kreis"},"federalState":{"key":"05","name":"Nordrhein-Westfalen"}},{"name":"Am Waltersgarten","postalCode":"53721","locality":"Siegburg","municipality":{"key":"05382060","name":"Siegburg, Stadt","type":"Stadt"},"district":{"key":"05382","name":"Rhein-Sieg-Kreis","type":"Kreis"},"federalState":{"key":"05","name":"Nordrhein-Westfalen"}},{"name":"Am Weyergarten","postalCode":"53721","locality":"Siegburg","municipality":{"key":"05382060","name":"Siegburg, Stadt","type":"Stadt"},"district":{"key":"05382","name":"Rhein-Sieg-Kreis","type":"Kreis"},"federalState":{"key":"05","name":"Nordrhein-Westfalen"}},{"name":"Am Zemmerhof","postalCode":"53721","locality":"Siegburg","municipality":{"key":"05382060","name":"Siegburg, Stadt","type":"Stadt"},"district":{"key":"05382","name":"Rhein-Sieg-Kreis","type":"Kreis"},"federalState":{"key":"05","name":"Nordrhein-Westfalen"}},{"name":"An den 6 Bäumchen","postalCode":"53721","locality":"Siegburg","municipality":{"key":"05382060","name":"Siegburg, Stadt","type":"Stadt"},"district":{"key":"05382","name":"Rhein-Sieg-Kreis","type":"Kreis"},"federalState":{"key":"05","name":"Nordrhein-Westfalen"}},{"name":"Bachstr.","postalCode":"53721","locality":"Siegburg","municipality":{"key":"05382060","name":"Siegburg, Stadt","type":"Stadt"},"district":{"key":"05382","name":"Rhein-Sieg-Kreis","type":"Kreis"},"federalState":{"key":"05","name":"Nordrhein-Westfalen"}},{"name":"Bahnhofstr.","postalCode":"53721","locality":"Siegburg","municipality":{"key":"05382060","name":"Siegburg, Stadt","type":"Stadt"},"district":{"key":"05382","name":"Rhein-Sieg-Kreis","type":"Kreis"},"federalState":{"key":"05","name":"Nordrhein-Westfalen"}},{"name":"Bambergstr.","postalCode":"53721","locality":"Siegburg","municipality":{"key":"05382060","name":"Siegburg, Stadt","type":"Stadt"},"district":{"key":"05382","name":"Rhein-Sieg-Kreis","type":"Kreis"},"federalState":{"key":"05","name":"Nordrhein-Westfalen"}},{"name":"Barbarastr.","postalCode":"53721","locality":"Siegburg","municipality":{"key":"05382060","name":"Siegburg, Stadt","type":"Stadt"},"district":{"key":"05382","name":"Rhein-Sieg-Kreis","type":"Kreis"},"federalState":{"key":"05","name":"Nordrhein-Westfalen"}},{"name":"Barbarossastr.","postalCode":"53721","locality":"Siegburg","municipality":{"key":"05382060","name":"Siegburg, Stadt","type":"Stadt"},"district":{"key":"05382","name":"Rhein-Sieg-Kreis","type":"Kreis"},"federalState":{"key":"05","name":"Nordrhein-Westfalen"}},{"name":"Baumschulallee","postalCode":"53721","locality":"Siegburg","municipality":{"key":"05382060","name":"Siegburg, Stadt","type":"Stadt"},"district":{"key":"05382","name":"Rhein-Sieg-Kreis","type":"Kreis"},"federalState":{"key":"05","name":"Nordrhein-Westfalen"}},{"name":"Beethovenstr.","postalCode":"53721","locality":"Siegburg","municipality":{"key":"05382060","name":"Siegburg, Stadt","type":"Stadt"},"district":{"key":"05382","name":"Rhein-Sieg-Kreis","type":"Kreis"},"federalState":{"key":"05","name":"Nordrhein-Westfalen"}},{"name":"Bergstr.","postalCode":"53721","locality":"Siegburg","municipality":{"key":"05382060","name":"Siegburg, Stadt","type":"Stadt"},"district":{"key":"05382","name":"Rhein-Sieg-Kreis","type":"Kreis"},"federalState":{"key":"05","name":"Nordrhein-Westfalen"}},{"name":"Berliner Platz","postalCode":"53721","locality":"Siegburg","municipality":{"key":"05382060","name":"Siegburg, Stadt","type":"Stadt"},"district":{"key":"05382","name":"Rhein-Sieg-Kreis","type":"Kreis"},"federalState":{"key":"05","name":"Nordrhein-Westfalen"}},{"name":"Bernhardstr.","postalCode":"53721","locality":"Siegburg","municipality":{"key":"05382060","name":"Siegburg, Stadt","type":"Stadt"},"district":{"key":"05382","name":"Rhein-Sieg-Kreis","type":"Kreis"},"federalState":{"key":"05","name":"Nordrhein-Westfalen"}},{"name":"Bertramstr.","postalCode":"53721","locality":"Siegburg","municipality":{"key":"05382060","name":"Siegburg, Stadt","type":"Stadt"},"district":{"key":"05382","name":"Rhein-Sieg-Kreis","type":"Kreis"},"federalState":{"key":"05","name":"Nordrhein-Westfalen"}},{"name":"Birkenweg","postalCode":"53721","locality":"Siegburg","municipality":{"key":"05382060","name":"Siegburg, Stadt","type":"Stadt"},"district":{"key":"05382","name":"Rhein-Sieg-Kreis","type":"Kreis"},"federalState":{"key":"05","name":"Nordrhein-Westfalen"}},{"name":"Bismarckstr.","postalCode":"53721","locality":"Siegburg","municipality":{"key":"05382060","name":"Siegburg, Stadt","type":"Stadt"},"district":{"key":"05382","name":"Rhein-Sieg-Kreis","type":"Kreis"},"federalState":{"key":"05","name":"Nordrhein-Westfalen"}},{"name":"Bitzer Weg","postalCode":"53721","locality":"Siegburg","municipality":{"key":"05382060","name":"Siegburg, Stadt","type":"Stadt"},"district":{"key":"05382","name":"Rhein-Sieg-Kreis","type":"Kreis"},"federalState":{"key":"05","name":"Nordrhein-Westfalen"}},{"name":"Bleibachtalstr.","postalCode":"53721","locality":"Siegburg","municipality":{"key":"05382060","name":"Siegburg, Stadt","type":"Stadt"},"district":{"key":"05382","name":"Rhein-Sieg-Kreis","type":"Kreis"},"federalState":{"key":"05","name":"Nordrhein-Westfalen"}},{"name":"Blücherstr.","postalCode":"53721","locality":"Siegburg","municipality":{"key":"05382060","name":"Siegburg, Stadt","type":"Stadt"},"district":{"key":"05382","name":"Rhein-Sieg-Kreis","type":"Kreis"},"federalState":{"key":"05","name":"Nordrhein-Westfalen"}},{"name":"Bonner Str.","postalCode":"53721","locality":"Siegburg","municipality":{"key":"05382060","name":"Siegburg, Stadt","type":"Stadt"},"district":{"key":"05382","name":"Rhein-Sieg-Kreis","type":"Kreis"},"federalState":{"key":"05","name":"Nordrhein-Westfalen"}},{"name":"Brandstr.","postalCode":"53721","locality":"Siegburg","municipality":{"key":"05382060","name":"Siegburg, Stadt","type":"Stadt"},"district":{"key":"05382","name":"Rhein-Sieg-Kreis","type":"Kreis"},"federalState":{"key":"05","name":"Nordrhein-Westfalen"}},{"name":"Braschosser Str.","postalCode":"53721","locality":"Siegburg","municipality":{"key":"05382060","name":"Siegburg, Stadt","type":"Stadt"},"district":{"key":"05382","name":"Rhein-Sieg-Kreis","type":"Kreis"},"federalState":{"key":"05","name":"Nordrhein-Westfalen"}},{"name":"Breite Str.","postalCode":"53721","locality":"Siegburg","municipality":{"key":"05382060","name":"Siegburg, Stadt","type":"Stadt"},"district":{"key":"05382","name":"Rhein-Sieg-Kreis","type":"Kreis"},"federalState":{"key":"05","name":"Nordrhein-Westfalen"}},{"name":"Breslauer Str.","postalCode":"53721","locality":"Siegburg","municipality":{"key":"05382060","name":"Siegburg, Stadt","type":"Stadt"},"district":{"key":"05382","name":"Rhein-Sieg-Kreis","type":"Kreis"},"federalState":{"key":"05","name":"Nordrhein-Westfalen"}},{"name":"Brückbergstr.","postalCode":"53721","locality":"Siegburg","municipality":{"key":"05382060","name":"Siegburg, Stadt","type":"Stadt"},"district":{"key":"05382","name":"Rhein-Sieg-Kreis","type":"Kreis"},"federalState":{"key":"05","name":"Nordrhein-Westfalen"}},{"name":"Brucknerstr.","postalCode":"53721","locality":"Siegburg","municipality":{"key":"05382060","name":"Siegburg, Stadt","type":"Stadt"},"district":{"key":"05382","name":"Rhein-Sieg-Kreis","type":"Kreis"},"federalState":{"key":"05","name":"Nordrhein-Westfalen"}},{"name":"Brüder-Busch-Str.","postalCode":"53721","locality":"Siegburg","municipality":{"key":"05382060","name":"Siegburg, Stadt","type":"Stadt"},"district":{"key":"05382","name":"Rhein-Sieg-Kreis","type":"Kreis"},"federalState":{"key":"05","name":"Nordrhein-Westfalen"}},{"name":"Brunnenweg","postalCode":"53721","locality":"Siegburg","municipality":{"key":"05382060","name":"Siegburg, Stadt","type":"Stadt"},"district":{"key":"05382","name":"Rhein-Sieg-Kreis","type":"Kreis"},"federalState":{"key":"05","name":"Nordrhein-Westfalen"}},{"name":"Buchenweg","postalCode":"53721","locality":"Siegburg","municipality":{"key":"05382060","name":"Siegburg, Stadt","type":"Stadt"},"district":{"key":"05382","name":"Rhein-Sieg-Kreis","type":"Kreis"},"federalState":{"key":"05","name":"Nordrhein-Westfalen"}},{"name":"Bunzlauer Str.","postalCode":"53721","locality":"Siegburg","municipality":{"key":"05382060","name":"Siegburg, Stadt","type":"Stadt"},"district":{"key":"05382","name":"Rhein-Sieg-Kreis","type":"Kreis"},"federalState":{"key":"05","name":"Nordrhein-Westfalen"}},{"name":"Burggasse","postalCode":"53721","locality":"Siegburg","municipality":{"key":"05382060","name":"Siegburg, Stadt","type":"Stadt"},"district":{"key":"05382","name":"Rhein-Sieg-Kreis","type":"Kreis"},"federalState":{"key":"05","name":"Nordrhein-Westfalen"}},{"name":"Camille-Koerner-Str.","postalCode":"53721","locality":"Siegburg","municipality":{"key":"05382060","name":"Siegburg, Stadt","type":"Stadt"},"district":{"key":"05382","name":"Rhein-Sieg-Kreis","type":"Kreis"},"federalState":{"key":"05","name":"Nordrhein-Westfalen"}},{"name":"Carl-Friedrich-Peters-Str.","postalCode":"53721","locality":"Siegburg","municipality":{"key":"05382060","name":"Siegburg, Stadt","type":"Stadt"},"district":{"key":"05382","name":"Rhein-Sieg-Kreis","type":"Kreis"},"federalState":{"key":"05","name":"Nordrhein-Westfalen"}},{"name":"Carl-Schurz-Str.","postalCode":"53721","locality":"Siegburg","municipality":{"key":"05382060","name":"Siegburg, Stadt","type":"Stadt"},"district":{"key":"05382","name":"Rhein-Sieg-Kreis","type":"Kreis"},"federalState":{"key":"05","name":"Nordrhein-Westfalen"}},{"name":"Carlstr.","postalCode":"53721","locality":"Siegburg","municipality":{"key":"05382060","name":"Siegburg, Stadt","type":"Stadt"},"district":{"key":"05382","name":"Rhein-Sieg-Kreis","type":"Kreis"},"federalState":{"key":"05","name":"Nordrhein-Westfalen"}},{"name":"Cecilienstr.","postalCode":"53721","locality":"Siegburg","municipality":{"key":"05382060","name":"Siegburg, Stadt","type":"Stadt"},"district":{"key":"05382","name":"Rhein-Sieg-Kreis","type":"Kreis"},"federalState":{"key":"05","name":"Nordrhein-Westfalen"}},{"name":"Chemie-Faser-Allee","postalCode":"53721","locality":"Siegburg","municipality":{"key":"05382060","name":"Siegburg, Stadt","type":"Stadt"},"district":{"key":"05382","name":"Rhein-Sieg-Kreis","type":"Kreis"},"federalState":{"key":"05","name":"Nordrhein-Westfalen"}},{"name":"Dammstr.","postalCode":"53721","locality":"Siegburg","municipality":{"key":"05382060","name":"Siegburg, Stadt","type":"Stadt"},"district":{"key":"05382","name":"Rhein-Sieg-Kreis","type":"Kreis"},"federalState":{"key":"05","name":"Nordrhein-Westfalen"}},{"name":"Deichhaus","postalCode":"53721","locality":"Siegburg","municipality":{"key":"05382060","name":"Siegburg, Stadt","type":"Stadt"},"district":{"key":"05382","name":"Rhein-Sieg-Kreis","type":"Kreis"},"federalState":{"key":"05","name":"Nordrhein-Westfalen"}},{"name":"Deichhaus-Aue","postalCode":"53721","locality":"Siegburg","municipality":{"key":"05382060","name":"Siegburg, Stadt","type":"Stadt"},"district":{"key":"05382","name":"Rhein-Sieg-Kreis","type":"Kreis"},"federalState":{"key":"05","name":"Nordrhein-Westfalen"}},{"name":"Derenbachstr.","postalCode":"53721","locality":"Siegburg","municipality":{"key":"05382060","name":"Siegburg, Stadt","type":"Stadt"},"district":{"key":"05382","name":"Rhein-Sieg-Kreis","type":"Kreis"},"federalState":{"key":"05","name":"Nordrhein-Westfalen"}},{"name":"Deutzer-Hof-Str.","postalCode":"53721","locality":"Siegburg","municipality":{"key":"05382060","name":"Siegburg, Stadt","type":"Stadt"},"district":{"key":"05382","name":"Rhein-Sieg-Kreis","type":"Kreis"},"federalState":{"key":"05","name":"Nordrhein-Westfalen"}},{"name":"Dohkaule","postalCode":"53721","locality":"Siegburg","municipality":{"key":"05382060","name":"Siegburg, Stadt","type":"Stadt"},"district":{"key":"05382","name":"Rhein-Sieg-Kreis","type":"Kreis"},"federalState":{"key":"05","name":"Nordrhein-Westfalen"}},{"name":"Drachenfelsstr.","postalCode":"53721","locality":"Siegburg","municipality":{"key":"05382060","name":"Siegburg, Stadt","type":"Stadt"},"district":{"key":"05382","name":"Rhein-Sieg-Kreis","type":"Kreis"},"federalState":{"key":"05","name":"Nordrhein-Westfalen"}},{"name":"Drieschgasse","postalCode":"53721","locality":"Siegburg","municipality":{"key":"05382060","name":"Siegburg, Stadt","type":"Stadt"},"district":{"key":"05382","name":"Rhein-Sieg-Kreis","type":"Kreis"},"federalState":{"key":"05","name":"Nordrhein-Westfalen"}},{"name":"Droste-Hülshoff-Str.","postalCode":"53721","locality":"Siegburg","municipality":{"key":"05382060","name":"Siegburg, Stadt","type":"Stadt"},"district":{"key":"05382","name":"Rhein-Sieg-Kreis","type":"Kreis"},"federalState":{"key":"05","name":"Nordrhein-Westfalen"}},{"name":"Ebereschenweg","postalCode":"53721","locality":"Siegburg","municipality":{"key":"05382060","name":"Siegburg, Stadt","type":"Stadt"},"district":{"key":"05382","name":"Rhein-Sieg-Kreis","type":"Kreis"},"federalState":{"key":"05","name":"Nordrhein-Westfalen"}},{"name":"Efeuweg","postalCode":"53721","locality":"Siegburg","municipality":{"key":"05382060","name":"Siegburg, Stadt","type":"Stadt"},"district":{"key":"05382","name":"Rhein-Sieg-Kreis","type":"Kreis"},"federalState":{"key":"05","name":"Nordrhein-Westfalen"}},{"name":"Ehrenstr.","postalCode":"53721","locality":"Siegburg","municipality":{"key":"05382060","name":"Siegburg, Stadt","type":"Stadt"},"district":{"key":"05382","name":"Rhein-Sieg-Kreis","type":"Kreis"},"federalState":{"key":"05","name":"Nordrhein-Westfalen"}},{"name":"Eibenweg","postalCode":"53721","locality":"Siegburg","municipality":{"key":"05382060","name":"Siegburg, Stadt","type":"Stadt"},"district":{"key":"05382","name":"Rhein-Sieg-Kreis","type":"Kreis"},"federalState":{"key":"05","name":"Nordrhein-Westfalen"}},{"name":"Eichendorffstr.","postalCode":"53721","locality":"Siegburg","municipality":{"key":"05382060","name":"Siegburg, Stadt","type":"Stadt"},"district":{"key":"05382","name":"Rhein-Sieg-Kreis","type":"Kreis"},"federalState":{"key":"05","name":"Nordrhein-Westfalen"}},{"name":"Elisabethstr.","postalCode":"53721","locality":"Siegburg","municipality":{"key":"05382060","name":"Siegburg, Stadt","type":"Stadt"},"district":{"key":"05382","name":"Rhein-Sieg-Kreis","type":"Kreis"},"federalState":{"key":"05","name":"Nordrhein-Westfalen"}},{"name":"Elsternsteg","postalCode":"53721","locality":"Siegburg","municipality":{"key":"05382060","name":"Siegburg, Stadt","type":"Stadt"},"district":{"key":"05382","name":"Rhein-Sieg-Kreis","type":"Kreis"},"federalState":{"key":"05","name":"Nordrhein-Westfalen"}},{"name":"Erlenweg","postalCode":"53721","locality":"Siegburg","municipality":{"key":"05382060","name":"Siegburg, Stadt","type":"Stadt"},"district":{"key":"05382","name":"Rhein-Sieg-Kreis","type":"Kreis"},"federalState":{"key":"05","name":"Nordrhein-Westfalen"}},{"name":"Ernststr.","postalCode":"53721","locality":"Siegburg","municipality":{"key":"05382060","name":"Siegburg, Stadt","type":"Stadt"},"district":{"key":"05382","name":"Rhein-Sieg-Kreis","type":"Kreis"},"federalState":{"key":"05","name":"Nordrhein-Westfalen"}},{"name":"Farnweg","postalCode":"53721","locality":"Siegburg","municipality":{"key":"05382060","name":"Siegburg, Stadt","type":"Stadt"},"district":{"key":"05382","name":"Rhein-Sieg-Kreis","type":"Kreis"},"federalState":{"key":"05","name":"Nordrhein-Westfalen"}},{"name":"Fasanenfeld","postalCode":"53721","locality":"Siegburg","municipality":{"key":"05382060","name":"Siegburg, Stadt","type":"Stadt"},"district":{"key":"05382","name":"Rhein-Sieg-Kreis","type":"Kreis"},"federalState":{"key":"05","name":"Nordrhein-Westfalen"}},{"name":"Feldzeugmeisterweg","postalCode":"53721","locality":"Siegburg","municipality":{"key":"05382060","name":"Siegburg, Stadt","type":"Stadt"},"district":{"key":"05382","name":"Rhein-Sieg-Kreis","type":"Kreis"},"federalState":{"key":"05","name":"Nordrhein-Westfalen"}},{"name":"Fichtenweg","postalCode":"53721","locality":"Siegburg","municipality":{"key":"05382060","name":"Siegburg, Stadt","type":"Stadt"},"district":{"key":"05382","name":"Rhein-Sieg-Kreis","type":"Kreis"},"federalState":{"key":"05","name":"Nordrhein-Westfalen"}},{"name":"Finkenweg","postalCode":"53721","locality":"Siegburg","municipality":{"key":"05382060","name":"Siegburg, Stadt","type":"Stadt"},"district":{"key":"05382","name":"Rhein-Sieg-Kreis","type":"Kreis"},"federalState":{"key":"05","name":"Nordrhein-Westfalen"}},{"name":"Flachsweg","postalCode":"53721","locality":"Siegburg","municipality":{"key":"05382060","name":"Siegburg, Stadt","type":"Stadt"},"district":{"key":"05382","name":"Rhein-Sieg-Kreis","type":"Kreis"},"federalState":{"key":"05","name":"Nordrhein-Westfalen"}},{"name":"Fliederweg","postalCode":"53721","locality":"Siegburg","municipality":{"key":"05382060","name":"Siegburg, Stadt","type":"Stadt"},"district":{"key":"05382","name":"Rhein-Sieg-Kreis","type":"Kreis"},"federalState":{"key":"05","name":"Nordrhein-Westfalen"}},{"name":"Flögerstr.","postalCode":"53721","locality":"Siegburg","municipality":{"key":"05382060","name":"Siegburg, Stadt","type":"Stadt"},"district":{"key":"05382","name":"Rhein-Sieg-Kreis","type":"Kreis"},"federalState":{"key":"05","name":"Nordrhein-Westfalen"}},{"name":"Frankfurter Str.","postalCode":"53721","locality":"Siegburg","municipality":{"key":"05382060","name":"Siegburg, Stadt","type":"Stadt"},"district":{"key":"05382","name":"Rhein-Sieg-Kreis","type":"Kreis"},"federalState":{"key":"05","name":"Nordrhein-Westfalen"}},{"name":"Franziskanerweg","postalCode":"53721","locality":"Siegburg","municipality":{"key":"05382060","name":"Siegburg, Stadt","type":"Stadt"},"district":{"key":"05382","name":"Rhein-Sieg-Kreis","type":"Kreis"},"federalState":{"key":"05","name":"Nordrhein-Westfalen"}},{"name":"Freiheit","postalCode":"53721","locality":"Siegburg","municipality":{"key":"05382060","name":"Siegburg, Stadt","type":"Stadt"},"district":{"key":"05382","name":"Rhein-Sieg-Kreis","type":"Kreis"},"federalState":{"key":"05","name":"Nordrhein-Westfalen"}},{"name":"Friedensplatz","postalCode":"53721","locality":"Siegburg","municipality":{"key":"05382060","name":"Siegburg, Stadt","type":"Stadt"},"district":{"key":"05382","name":"Rhein-Sieg-Kreis","type":"Kreis"},"federalState":{"key":"05","name":"Nordrhein-Westfalen"}},{"name":"Friedensstr.","postalCode":"53721","locality":"Siegburg","municipality":{"key":"05382060","name":"Siegburg, Stadt","type":"Stadt"},"district":{"key":"05382","name":"Rhein-Sieg-Kreis","type":"Kreis"},"federalState":{"key":"05","name":"Nordrhein-Westfalen"}},{"name":"Friedrich-Ebert-Str.","postalCode":"53721","locality":"Siegburg","municipality":{"key":"05382060","name":"Siegburg, Stadt","type":"Stadt"},"district":{"key":"05382","name":"Rhein-Sieg-Kreis","type":"Kreis"},"federalState":{"key":"05","name":"Nordrhein-Westfalen"}},{"name":"Fuchsweg","postalCode":"53721","locality":"Siegburg","municipality":{"key":"05382060","name":"Siegburg, Stadt","type":"Stadt"},"district":{"key":"05382","name":"Rhein-Sieg-Kreis","type":"Kreis"},"federalState":{"key":"05","name":"Nordrhein-Westfalen"}},{"name":"Gartenstr.","postalCode":"53721","locality":"Siegburg","municipality":{"key":"05382060","name":"Siegburg, Stadt","type":"Stadt"},"district":{"key":"05382","name":"Rhein-Sieg-Kreis","type":"Kreis"},"federalState":{"key":"05","name":"Nordrhein-Westfalen"}},{"name":"Geisbergstr.","postalCode":"53721","locality":"Siegburg","municipality":{"key":"05382060","name":"Siegburg, Stadt","type":"Stadt"},"district":{"key":"05382","name":"Rhein-Sieg-Kreis","type":"Kreis"},"federalState":{"key":"05","name":"Nordrhein-Westfalen"}},{"name":"Georgstr.","postalCode":"53721","locality":"Siegburg","municipality":{"key":"05382060","name":"Siegburg, Stadt","type":"Stadt"},"district":{"key":"05382","name":"Rhein-Sieg-Kreis","type":"Kreis"},"federalState":{"key":"05","name":"Nordrhein-Westfalen"}},{"name":"Gerhart-Hauptmann-Weg","postalCode":"53721","locality":"Siegburg","municipality":{"key":"05382060","name":"Siegburg, Stadt","type":"Stadt"},"district":{"key":"05382","name":"Rhein-Sieg-Kreis","type":"Kreis"},"federalState":{"key":"05","name":"Nordrhein-Westfalen"}},{"name":"Ginsterweg","postalCode":"53721","locality":"Siegburg","municipality":{"key":"05382060","name":"Siegburg, Stadt","type":"Stadt"},"district":{"key":"05382","name":"Rhein-Sieg-Kreis","type":"Kreis"},"federalState":{"key":"05","name":"Nordrhein-Westfalen"}},{"name":"Gneisenaustr.","postalCode":"53721","locality":"Siegburg","municipality":{"key":"05382060","name":"Siegburg, Stadt","type":"Stadt"},"district":{"key":"05382","name":"Rhein-Sieg-Kreis","type":"Kreis"},"federalState":{"key":"05","name":"Nordrhein-Westfalen"}},{"name":"Goethestr.","postalCode":"53721","locality":"Siegburg","municipality":{"key":"05382060","name":"Siegburg, Stadt","type":"Stadt"},"district":{"key":"05382","name":"Rhein-Sieg-Kreis","type":"Kreis"},"federalState":{"key":"05","name":"Nordrhein-Westfalen"}},{"name":"Gottfried-Kinkel-Str.","postalCode":"53721","locality":"Siegburg","municipality":{"key":"05382060","name":"Siegburg, Stadt","type":"Stadt"},"district":{"key":"05382","name":"Rhein-Sieg-Kreis","type":"Kreis"},"federalState":{"key":"05","name":"Nordrhein-Westfalen"}},{"name":"Gottliebstr.","postalCode":"53721","locality":"Siegburg","municipality":{"key":"05382060","name":"Siegburg, Stadt","type":"Stadt"},"district":{"key":"05382","name":"Rhein-Sieg-Kreis","type":"Kreis"},"federalState":{"key":"05","name":"Nordrhein-Westfalen"}},{"name":"Grimmelsgasse","postalCode":"53721","locality":"Siegburg","municipality":{"key":"05382060","name":"Siegburg, Stadt","type":"Stadt"},"district":{"key":"05382","name":"Rhein-Sieg-Kreis","type":"Kreis"},"federalState":{"key":"05","name":"Nordrhein-Westfalen"}},{"name":"Grüner Weg","postalCode":"53721","locality":"Siegburg","municipality":{"key":"05382060","name":"Siegburg, Stadt","type":"Stadt"},"district":{"key":"05382","name":"Rhein-Sieg-Kreis","type":"Kreis"},"federalState":{"key":"05","name":"Nordrhein-Westfalen"}},{"name":"Guardastr.","postalCode":"53721","locality":"Siegburg","municipality":{"key":"05382060","name":"Siegburg, Stadt","type":"Stadt"},"district":{"key":"05382","name":"Rhein-Sieg-Kreis","type":"Kreis"},"federalState":{"key":"05","name":"Nordrhein-Westfalen"}},{"name":"Hagebuttenweg","postalCode":"53721","locality":"Siegburg","municipality":{"key":"05382060","name":"Siegburg, Stadt","type":"Stadt"},"district":{"key":"05382","name":"Rhein-Sieg-Kreis","type":"Kreis"},"federalState":{"key":"05","name":"Nordrhein-Westfalen"}},{"name":"Händelstr.","postalCode":"53721","locality":"Siegburg","municipality":{"key":"05382060","name":"Siegburg, Stadt","type":"Stadt"},"district":{"key":"05382","name":"Rhein-Sieg-Kreis","type":"Kreis"},"federalState":{"key":"05","name":"Nordrhein-Westfalen"}},{"name":"Hansenstr.","postalCode":"53721","locality":"Siegburg","municipality":{"key":"05382060","name":"Siegburg, Stadt","type":"Stadt"},"district":{"key":"05382","name":"Rhein-Sieg-Kreis","type":"Kreis"},"federalState":{"key":"05","name":"Nordrhein-Westfalen"}},{"name":"Haselnußweg","postalCode":"53721","locality":"Siegburg","municipality":{"key":"05382060","name":"Siegburg, Stadt","type":"Stadt"},"district":{"key":"05382","name":"Rhein-Sieg-Kreis","type":"Kreis"},"federalState":{"key":"05","name":"Nordrhein-Westfalen"}},{"name":"Haufeld","postalCode":"53721","locality":"Siegburg","municipality":{"key":"05382060","name":"Siegburg, Stadt","type":"Stadt"},"district":{"key":"05382","name":"Rhein-Sieg-Kreis","type":"Kreis"},"federalState":{"key":"05","name":"Nordrhein-Westfalen"}},{"name":"Hauptstr.","postalCode":"53721","locality":"Siegburg","municipality":{"key":"05382060","name":"Siegburg, Stadt","type":"Stadt"},"district":{"key":"05382","name":"Rhein-Sieg-Kreis","type":"Kreis"},"federalState":{"key":"05","name":"Nordrhein-Westfalen"}},{"name":"Haus Derenbach","postalCode":"53721","locality":"Siegburg","municipality":{"key":"05382060","name":"Siegburg, Stadt","type":"Stadt"},"district":{"key":"05382","name":"Rhein-Sieg-Kreis","type":"Kreis"},"federalState":{"key":"05","name":"Nordrhein-Westfalen"}},{"name":"Haydnstr.","postalCode":"53721","locality":"Siegburg","municipality":{"key":"05382060","name":"Siegburg, Stadt","type":"Stadt"},"district":{"key":"05382","name":"Rhein-Sieg-Kreis","type":"Kreis"},"federalState":{"key":"05","name":"Nordrhein-Westfalen"}},{"name":"Heiderbitze","postalCode":"53721","locality":"Siegburg","municipality":{"key":"05382060","name":"Siegburg, Stadt","type":"Stadt"},"district":{"key":"05382","name":"Rhein-Sieg-Kreis","type":"Kreis"},"federalState":{"key":"05","name":"Nordrhein-Westfalen"}},{"name":"Heideweg","postalCode":"53721","locality":"Siegburg","municipality":{"key":"05382060","name":"Siegburg, Stadt","type":"Stadt"},"district":{"key":"05382","name":"Rhein-Sieg-Kreis","type":"Kreis"},"federalState":{"key":"05","name":"Nordrhein-Westfalen"}},{"name":"Heinrichstr.","postalCode":"53721","locality":"Siegburg","municipality":{"key":"05382060","name":"Siegburg, Stadt","type":"Stadt"},"district":{"key":"05382","name":"Rhein-Sieg-Kreis","type":"Kreis"},"federalState":{"key":"05","name":"Nordrhein-Westfalen"}},{"name":"Heppekausenstr.","postalCode":"53721","locality":"Siegburg","municipality":{"key":"05382060","name":"Siegburg, Stadt","type":"Stadt"},"district":{"key":"05382","name":"Rhein-Sieg-Kreis","type":"Kreis"},"federalState":{"key":"05","name":"Nordrhein-Westfalen"}},{"name":"Hermann-Löns-Str.","postalCode":"53721","locality":"Siegburg","municipality":{"key":"05382060","name":"Siegburg, Stadt","type":"Stadt"},"district":{"key":"05382","name":"Rhein-Sieg-Kreis","type":"Kreis"},"federalState":{"key":"05","name":"Nordrhein-Westfalen"}},{"name":"Herrengartenstr.","postalCode":"53721","locality":"Siegburg","municipality":{"key":"05382060","name":"Siegburg, Stadt","type":"Stadt"},"district":{"key":"05382","name":"Rhein-Sieg-Kreis","type":"Kreis"},"federalState":{"key":"05","name":"Nordrhein-Westfalen"}},{"name":"Hirschbergstr.","postalCode":"53721","locality":"Siegburg","municipality":{"key":"05382060","name":"Siegburg, Stadt","type":"Stadt"},"district":{"key":"05382","name":"Rhein-Sieg-Kreis","type":"Kreis"},"federalState":{"key":"05","name":"Nordrhein-Westfalen"}},{"name":"Hochhausener Weg","postalCode":"53721","locality":"Siegburg","municipality":{"key":"05382060","name":"Siegburg, Stadt","type":"Stadt"},"district":{"key":"05382","name":"Rhein-Sieg-Kreis","type":"Kreis"},"federalState":{"key":"05","name":"Nordrhein-Westfalen"}},{"name":"Hochstr.","postalCode":"53721","locality":"Siegburg","municipality":{"key":"05382060","name":"Siegburg, Stadt","type":"Stadt"},"district":{"key":"05382","name":"Rhein-Sieg-Kreis","type":"Kreis"},"federalState":{"key":"05","name":"Nordrhein-Westfalen"}},{"name":"Höhenweg","postalCode":"53721","locality":"Siegburg","municipality":{"key":"05382060","name":"Siegburg, Stadt","type":"Stadt"},"district":{"key":"05382","name":"Rhein-Sieg-Kreis","type":"Kreis"},"federalState":{"key":"05","name":"Nordrhein-Westfalen"}},{"name":"Hohenzollernstr.","postalCode":"53721","locality":"Siegburg","municipality":{"key":"05382060","name":"Siegburg, Stadt","type":"Stadt"},"district":{"key":"05382","name":"Rhein-Sieg-Kreis","type":"Kreis"},"federalState":{"key":"05","name":"Nordrhein-Westfalen"}},{"name":"Hohlweg","postalCode":"53721","locality":"Siegburg","municipality":{"key":"05382060","name":"Siegburg, Stadt","type":"Stadt"},"district":{"key":"05382","name":"Rhein-Sieg-Kreis","type":"Kreis"},"federalState":{"key":"05","name":"Nordrhein-Westfalen"}},{"name":"Hollesbitze","postalCode":"53721","locality":"Siegburg","municipality":{"key":"05382060","name":"Siegburg, Stadt","type":"Stadt"},"district":{"key":"05382","name":"Rhein-Sieg-Kreis","type":"Kreis"},"federalState":{"key":"05","name":"Nordrhein-Westfalen"}},{"name":"Holunderweg","postalCode":"53721","locality":"Siegburg","municipality":{"key":"05382060","name":"Siegburg, Stadt","type":"Stadt"},"district":{"key":"05382","name":"Rhein-Sieg-Kreis","type":"Kreis"},"federalState":{"key":"05","name":"Nordrhein-Westfalen"}},{"name":"Hopfengartenstr.","postalCode":"53721","locality":"Siegburg","municipality":{"key":"05382060","name":"Siegburg, Stadt","type":"Stadt"},"district":{"key":"05382","name":"Rhein-Sieg-Kreis","type":"Kreis"},"federalState":{"key":"05","name":"Nordrhein-Westfalen"}},{"name":"Hubertusstr.","postalCode":"53721","locality":"Siegburg","municipality":{"key":"05382060","name":"Siegburg, Stadt","type":"Stadt"},"district":{"key":"05382","name":"Rhein-Sieg-Kreis","type":"Kreis"},"federalState":{"key":"05","name":"Nordrhein-Westfalen"}},{"name":"Humperdinckstr.","postalCode":"53721","locality":"Siegburg","municipality":{"key":"05382060","name":"Siegburg, Stadt","type":"Stadt"},"district":{"key":"05382","name":"Rhein-Sieg-Kreis","type":"Kreis"},"federalState":{"key":"05","name":"Nordrhein-Westfalen"}},{"name":"Hünenstr.","postalCode":"53721","locality":"Siegburg","municipality":{"key":"05382060","name":"Siegburg, Stadt","type":"Stadt"},"district":{"key":"05382","name":"Rhein-Sieg-Kreis","type":"Kreis"},"federalState":{"key":"05","name":"Nordrhein-Westfalen"}},{"name":"Hüttenweg","postalCode":"53721","locality":"Siegburg","municipality":{"key":"05382060","name":"Siegburg, Stadt","type":"Stadt"},"district":{"key":"05382","name":"Rhein-Sieg-Kreis","type":"Kreis"},"federalState":{"key":"05","name":"Nordrhein-Westfalen"}},{"name":"Ilse-Hollweg-Brücke","postalCode":"53721","locality":"Siegburg","municipality":{"key":"05382060","name":"Siegburg, Stadt","type":"Stadt"},"district":{"key":"05382","name":"Rhein-Sieg-Kreis","type":"Kreis"},"federalState":{"key":"05","name":"Nordrhein-Westfalen"}},{"name":"Ilse-Hollweg-Str.","postalCode":"53721","locality":"Siegburg","municipality":{"key":"05382060","name":"Siegburg, Stadt","type":"Stadt"},"district":{"key":"05382","name":"Rhein-Sieg-Kreis","type":"Kreis"},"federalState":{"key":"05","name":"Nordrhein-Westfalen"}},{"name":"Im Alten Garten","postalCode":"53721","locality":"Siegburg","municipality":{"key":"05382060","name":"Siegburg, Stadt","type":"Stadt"},"district":{"key":"05382","name":"Rhein-Sieg-Kreis","type":"Kreis"},"federalState":{"key":"05","name":"Nordrhein-Westfalen"}},{"name":"Im Bruchgarten","postalCode":"53721","locality":"Siegburg","municipality":{"key":"05382060","name":"Siegburg, Stadt","type":"Stadt"},"district":{"key":"05382","name":"Rhein-Sieg-Kreis","type":"Kreis"},"federalState":{"key":"05","name":"Nordrhein-Westfalen"}},{"name":"Im Donnerschlag","postalCode":"53721","locality":"Siegburg","municipality":{"key":"05382060","name":"Siegburg, Stadt","type":"Stadt"},"district":{"key":"05382","name":"Rhein-Sieg-Kreis","type":"Kreis"},"federalState":{"key":"05","name":"Nordrhein-Westfalen"}},{"name":"Im Höfgen","postalCode":"53721","locality":"Siegburg","municipality":{"key":"05382060","name":"Siegburg, Stadt","type":"Stadt"},"district":{"key":"05382","name":"Rhein-Sieg-Kreis","type":"Kreis"},"federalState":{"key":"05","name":"Nordrhein-Westfalen"}},{"name":"Im Hollesgarten","postalCode":"53721","locality":"Siegburg","municipality":{"key":"05382060","name":"Siegburg, Stadt","type":"Stadt"},"district":{"key":"05382","name":"Rhein-Sieg-Kreis","type":"Kreis"},"federalState":{"key":"05","name":"Nordrhein-Westfalen"}},{"name":"Im Klausgarten","postalCode":"53721","locality":"Siegburg","municipality":{"key":"05382060","name":"Siegburg, Stadt","type":"Stadt"},"district":{"key":"05382","name":"Rhein-Sieg-Kreis","type":"Kreis"},"federalState":{"key":"05","name":"Nordrhein-Westfalen"}},{"name":"Im Mittelfeld","postalCode":"53721","locality":"Siegburg","municipality":{"key":"05382060","name":"Siegburg, Stadt","type":"Stadt"},"district":{"key":"05382","name":"Rhein-Sieg-Kreis","type":"Kreis"},"federalState":{"key":"05","name":"Nordrhein-Westfalen"}},{"name":"Im Profgarten","postalCode":"53721","locality":"Siegburg","municipality":{"key":"05382060","name":"Siegburg, Stadt","type":"Stadt"},"district":{"key":"05382","name":"Rhein-Sieg-Kreis","type":"Kreis"},"federalState":{"key":"05","name":"Nordrhein-Westfalen"}},{"name":"Im Rothenbruch","postalCode":"53721","locality":"Siegburg","municipality":{"key":"05382060","name":"Siegburg, Stadt","type":"Stadt"},"district":{"key":"05382","name":"Rhein-Sieg-Kreis","type":"Kreis"},"federalState":{"key":"05","name":"Nordrhein-Westfalen"}},{"name":"Im Sommerfeld","postalCode":"53721","locality":"Siegburg","municipality":{"key":"05382060","name":"Siegburg, Stadt","type":"Stadt"},"district":{"key":"05382","name":"Rhein-Sieg-Kreis","type":"Kreis"},"federalState":{"key":"05","name":"Nordrhein-Westfalen"}},{"name":"Im Spargelfeld","postalCode":"53721","locality":"Siegburg","municipality":{"key":"05382060","name":"Siegburg, Stadt","type":"Stadt"},"district":{"key":"05382","name":"Rhein-Sieg-Kreis","type":"Kreis"},"federalState":{"key":"05","name":"Nordrhein-Westfalen"}},{"name":"Im Springchen","postalCode":"53721","locality":"Siegburg","municipality":{"key":"05382060","name":"Siegburg, Stadt","type":"Stadt"},"district":{"key":"05382","name":"Rhein-Sieg-Kreis","type":"Kreis"},"federalState":{"key":"05","name":"Nordrhein-Westfalen"}},{"name":"Im Urnenfeld","postalCode":"53721","locality":"Siegburg","municipality":{"key":"05382060","name":"Siegburg, Stadt","type":"Stadt"},"district":{"key":"05382","name":"Rhein-Sieg-Kreis","type":"Kreis"},"federalState":{"key":"05","name":"Nordrhein-Westfalen"}},{"name":"Im Weingartsberg","postalCode":"53721","locality":"Siegburg","municipality":{"key":"05382060","name":"Siegburg, Stadt","type":"Stadt"},"district":{"key":"05382","name":"Rhein-Sieg-Kreis","type":"Kreis"},"federalState":{"key":"05","name":"Nordrhein-Westfalen"}},{"name":"In den Hecken","postalCode":"53721","locality":"Siegburg","municipality":{"key":"05382060","name":"Siegburg, Stadt","type":"Stadt"},"district":{"key":"05382","name":"Rhein-Sieg-Kreis","type":"Kreis"},"federalState":{"key":"05","name":"Nordrhein-Westfalen"}},{"name":"In der Hardt","postalCode":"53721","locality":"Siegburg","municipality":{"key":"05382060","name":"Siegburg, Stadt","type":"Stadt"},"district":{"key":"05382","name":"Rhein-Sieg-Kreis","type":"Kreis"},"federalState":{"key":"05","name":"Nordrhein-Westfalen"}},{"name":"In der Höhnerlaach","postalCode":"53721","locality":"Siegburg","municipality":{"key":"05382060","name":"Siegburg, Stadt","type":"Stadt"},"district":{"key":"05382","name":"Rhein-Sieg-Kreis","type":"Kreis"},"federalState":{"key":"05","name":"Nordrhein-Westfalen"}},{"name":"In der Kehreswiese","postalCode":"53721","locality":"Siegburg","municipality":{"key":"05382060","name":"Siegburg, Stadt","type":"Stadt"},"district":{"key":"05382","name":"Rhein-Sieg-Kreis","type":"Kreis"},"federalState":{"key":"05","name":"Nordrhein-Westfalen"}},{"name":"In der Memm","postalCode":"53721","locality":"Siegburg","municipality":{"key":"05382060","name":"Siegburg, Stadt","type":"Stadt"},"district":{"key":"05382","name":"Rhein-Sieg-Kreis","type":"Kreis"},"federalState":{"key":"05","name":"Nordrhein-Westfalen"}},{"name":"Industriestr.","postalCode":"53721","locality":"Siegburg","municipality":{"key":"05382060","name":"Siegburg, Stadt","type":"Stadt"},"district":{"key":"05382","name":"Rhein-Sieg-Kreis","type":"Kreis"},"federalState":{"key":"05","name":"Nordrhein-Westfalen"}},{"name":"Isaac-Bürger-Str.","postalCode":"53721","locality":"Siegburg","municipality":{"key":"05382060","name":"Siegburg, Stadt","type":"Stadt"},"district":{"key":"05382","name":"Rhein-Sieg-Kreis","type":"Kreis"},"federalState":{"key":"05","name":"Nordrhein-Westfalen"}},{"name":"Jägerstr.","postalCode":"53721","locality":"Siegburg","municipality":{"key":"05382060","name":"Siegburg, Stadt","type":"Stadt"},"district":{"key":"05382","name":"Rhein-Sieg-Kreis","type":"Kreis"},"federalState":{"key":"05","name":"Nordrhein-Westfalen"}},{"name":"Jahnstr.","postalCode":"53721","locality":"Siegburg","municipality":{"key":"05382060","name":"Siegburg, Stadt","type":"Stadt"},"district":{"key":"05382","name":"Rhein-Sieg-Kreis","type":"Kreis"},"federalState":{"key":"05","name":"Nordrhein-Westfalen"}},{"name":"Jakobstr.","postalCode":"53721","locality":"Siegburg","municipality":{"key":"05382060","name":"Siegburg, Stadt","type":"Stadt"},"district":{"key":"05382","name":"Rhein-Sieg-Kreis","type":"Kreis"},"federalState":{"key":"05","name":"Nordrhein-Westfalen"}},{"name":"Jean-Bück-Str.","postalCode":"53721","locality":"Siegburg","municipality":{"key":"05382060","name":"Siegburg, Stadt","type":"Stadt"},"district":{"key":"05382","name":"Rhein-Sieg-Kreis","type":"Kreis"},"federalState":{"key":"05","name":"Nordrhein-Westfalen"}},{"name":"Jean-Dohle-Str.","postalCode":"53721","locality":"Siegburg","municipality":{"key":"05382060","name":"Siegburg, Stadt","type":"Stadt"},"district":{"key":"05382","name":"Rhein-Sieg-Kreis","type":"Kreis"},"federalState":{"key":"05","name":"Nordrhein-Westfalen"}},{"name":"Johannesstr.","postalCode":"53721","locality":"Siegburg","municipality":{"key":"05382060","name":"Siegburg, Stadt","type":"Stadt"},"district":{"key":"05382","name":"Rhein-Sieg-Kreis","type":"Kreis"},"federalState":{"key":"05","name":"Nordrhein-Westfalen"}},{"name":"Josef-Bethan-Str.","postalCode":"53721","locality":"Siegburg","municipality":{"key":"05382060","name":"Siegburg, Stadt","type":"Stadt"},"district":{"key":"05382","name":"Rhein-Sieg-Kreis","type":"Kreis"},"federalState":{"key":"05","name":"Nordrhein-Westfalen"}},{"name":"Josef-Dietzgen-Str.","postalCode":"53721","locality":"Siegburg","municipality":{"key":"05382060","name":"Siegburg, Stadt","type":"Stadt"},"district":{"key":"05382","name":"Rhein-Sieg-Kreis","type":"Kreis"},"federalState":{"key":"05","name":"Nordrhein-Westfalen"}},{"name":"Josef-Mohr-Str.","postalCode":"53721","locality":"Siegburg","municipality":{"key":"05382060","name":"Siegburg, Stadt","type":"Stadt"},"district":{"key":"05382","name":"Rhein-Sieg-Kreis","type":"Kreis"},"federalState":{"key":"05","name":"Nordrhein-Westfalen"}},{"name":"Josefstr.","postalCode":"53721","locality":"Siegburg","municipality":{"key":"05382060","name":"Siegburg, Stadt","type":"Stadt"},"district":{"key":"05382","name":"Rhein-Sieg-Kreis","type":"Kreis"},"federalState":{"key":"05","name":"Nordrhein-Westfalen"}},{"name":"Junkersbusch","postalCode":"53721","locality":"Siegburg","municipality":{"key":"05382060","name":"Siegburg, Stadt","type":"Stadt"},"district":{"key":"05382","name":"Rhein-Sieg-Kreis","type":"Kreis"},"federalState":{"key":"05","name":"Nordrhein-Westfalen"}},{"name":"Kaiserstr.","postalCode":"53721","locality":"Siegburg","municipality":{"key":"05382060","name":"Siegburg, Stadt","type":"Stadt"},"district":{"key":"05382","name":"Rhein-Sieg-Kreis","type":"Kreis"},"federalState":{"key":"05","name":"Nordrhein-Westfalen"}},{"name":"Kaiser-Wilhelm-Platz","postalCode":"53721","locality":"Siegburg","municipality":{"key":"05382060","name":"Siegburg, Stadt","type":"Stadt"},"district":{"key":"05382","name":"Rhein-Sieg-Kreis","type":"Kreis"},"federalState":{"key":"05","name":"Nordrhein-Westfalen"}},{"name":"Kaldauer Str.","postalCode":"53721","locality":"Siegburg","municipality":{"key":"05382060","name":"Siegburg, Stadt","type":"Stadt"},"district":{"key":"05382","name":"Rhein-Sieg-Kreis","type":"Kreis"},"federalState":{"key":"05","name":"Nordrhein-Westfalen"}},{"name":"Kapellenstr.","postalCode":"53721","locality":"Siegburg","municipality":{"key":"05382060","name":"Siegburg, Stadt","type":"Stadt"},"district":{"key":"05382","name":"Rhein-Sieg-Kreis","type":"Kreis"},"federalState":{"key":"05","name":"Nordrhein-Westfalen"}},{"name":"Kastanienstr.","postalCode":"53721","locality":"Siegburg","municipality":{"key":"05382060","name":"Siegburg, Stadt","type":"Stadt"},"district":{"key":"05382","name":"Rhein-Sieg-Kreis","type":"Kreis"},"federalState":{"key":"05","name":"Nordrhein-Westfalen"}},{"name":"Katharinenstr.","postalCode":"53721","locality":"Siegburg","municipality":{"key":"05382060","name":"Siegburg, Stadt","type":"Stadt"},"district":{"key":"05382","name":"Rhein-Sieg-Kreis","type":"Kreis"},"federalState":{"key":"05","name":"Nordrhein-Westfalen"}},{"name":"Kellerswiese","postalCode":"53721","locality":"Siegburg","municipality":{"key":"05382060","name":"Siegburg, Stadt","type":"Stadt"},"district":{"key":"05382","name":"Rhein-Sieg-Kreis","type":"Kreis"},"federalState":{"key":"05","name":"Nordrhein-Westfalen"}},{"name":"Kempstr.","postalCode":"53721","locality":"Siegburg","municipality":{"key":"05382060","name":"Siegburg, Stadt","type":"Stadt"},"district":{"key":"05382","name":"Rhein-Sieg-Kreis","type":"Kreis"},"federalState":{"key":"05","name":"Nordrhein-Westfalen"}},{"name":"Kiefernweg","postalCode":"53721","locality":"Siegburg","municipality":{"key":"05382060","name":"Siegburg, Stadt","type":"Stadt"},"district":{"key":"05382","name":"Rhein-Sieg-Kreis","type":"Kreis"},"federalState":{"key":"05","name":"Nordrhein-Westfalen"}},{"name":"Kleiberg","postalCode":"53721","locality":"Siegburg","municipality":{"key":"05382060","name":"Siegburg, Stadt","type":"Stadt"},"district":{"key":"05382","name":"Rhein-Sieg-Kreis","type":"Kreis"},"federalState":{"key":"05","name":"Nordrhein-Westfalen"}},{"name":"Kningelbach","postalCode":"53721","locality":"Siegburg","municipality":{"key":"05382060","name":"Siegburg, Stadt","type":"Stadt"},"district":{"key":"05382","name":"Rhein-Sieg-Kreis","type":"Kreis"},"federalState":{"key":"05","name":"Nordrhein-Westfalen"}},{"name":"Knütgenstr.","postalCode":"53721","locality":"Siegburg","municipality":{"key":"05382060","name":"Siegburg, Stadt","type":"Stadt"},"district":{"key":"05382","name":"Rhein-Sieg-Kreis","type":"Kreis"},"federalState":{"key":"05","name":"Nordrhein-Westfalen"}},{"name":"Königsberger Str.","postalCode":"53721","locality":"Siegburg","municipality":{"key":"05382060","name":"Siegburg, Stadt","type":"Stadt"},"district":{"key":"05382","name":"Rhein-Sieg-Kreis","type":"Kreis"},"federalState":{"key":"05","name":"Nordrhein-Westfalen"}},{"name":"Konrad-Adenauer-Allee","postalCode":"53721","locality":"Siegburg","municipality":{"key":"05382060","name":"Siegburg, Stadt","type":"Stadt"},"district":{"key":"05382","name":"Rhein-Sieg-Kreis","type":"Kreis"},"federalState":{"key":"05","name":"Nordrhein-Westfalen"}},{"name":"Kornblumenweg","postalCode":"53721","locality":"Siegburg","municipality":{"key":"05382060","name":"Siegburg, Stadt","type":"Stadt"},"district":{"key":"05382","name":"Rhein-Sieg-Kreis","type":"Kreis"},"federalState":{"key":"05","name":"Nordrhein-Westfalen"}},{"name":"Kreuzstr.","postalCode":"53721","locality":"Siegburg","municipality":{"key":"05382060","name":"Siegburg, Stadt","type":"Stadt"},"district":{"key":"05382","name":"Rhein-Sieg-Kreis","type":"Kreis"},"federalState":{"key":"05","name":"Nordrhein-Westfalen"}},{"name":"Kronprinzenstr.","postalCode":"53721","locality":"Siegburg","municipality":{"key":"05382060","name":"Siegburg, Stadt","type":"Stadt"},"district":{"key":"05382","name":"Rhein-Sieg-Kreis","type":"Kreis"},"federalState":{"key":"05","name":"Nordrhein-Westfalen"}},{"name":"Kümpelersbitze","postalCode":"53721","locality":"Siegburg","municipality":{"key":"05382060","name":"Siegburg, Stadt","type":"Stadt"},"district":{"key":"05382","name":"Rhein-Sieg-Kreis","type":"Kreis"},"federalState":{"key":"05","name":"Nordrhein-Westfalen"}},{"name":"Lambertstr.","postalCode":"53721","locality":"Siegburg","municipality":{"key":"05382060","name":"Siegburg, Stadt","type":"Stadt"},"district":{"key":"05382","name":"Rhein-Sieg-Kreis","type":"Kreis"},"federalState":{"key":"05","name":"Nordrhein-Westfalen"}},{"name":"Lendersbergstr.","postalCode":"53721","locality":"Siegburg","municipality":{"key":"05382060","name":"Siegburg, Stadt","type":"Stadt"},"district":{"key":"05382","name":"Rhein-Sieg-Kreis","type":"Kreis"},"federalState":{"key":"05","name":"Nordrhein-Westfalen"}},{"name":"Leo-Faustmann-Str.","postalCode":"53721","locality":"Siegburg","municipality":{"key":"05382060","name":"Siegburg, Stadt","type":"Stadt"},"district":{"key":"05382","name":"Rhein-Sieg-Kreis","type":"Kreis"},"federalState":{"key":"05","name":"Nordrhein-Westfalen"}},{"name":"Leonhardstr.","postalCode":"53721","locality":"Siegburg","municipality":{"key":"05382060","name":"Siegburg, Stadt","type":"Stadt"},"district":{"key":"05382","name":"Rhein-Sieg-Kreis","type":"Kreis"},"federalState":{"key":"05","name":"Nordrhein-Westfalen"}},{"name":"Lerchenweg","postalCode":"53721","locality":"Siegburg","municipality":{"key":"05382060","name":"Siegburg, Stadt","type":"Stadt"},"district":{"key":"05382","name":"Rhein-Sieg-Kreis","type":"Kreis"},"federalState":{"key":"05","name":"Nordrhein-Westfalen"}},{"name":"Lessingstr.","postalCode":"53721","locality":"Siegburg","municipality":{"key":"05382060","name":"Siegburg, Stadt","type":"Stadt"},"district":{"key":"05382","name":"Rhein-Sieg-Kreis","type":"Kreis"},"federalState":{"key":"05","name":"Nordrhein-Westfalen"}},{"name":"Liegnitzstr.","postalCode":"53721","locality":"Siegburg","municipality":{"key":"05382060","name":"Siegburg, Stadt","type":"Stadt"},"district":{"key":"05382","name":"Rhein-Sieg-Kreis","type":"Kreis"},"federalState":{"key":"05","name":"Nordrhein-Westfalen"}},{"name":"Lindenstr.","postalCode":"53721","locality":"Siegburg","municipality":{"key":"05382060","name":"Siegburg, Stadt","type":"Stadt"},"district":{"key":"05382","name":"Rhein-Sieg-Kreis","type":"Kreis"},"federalState":{"key":"05","name":"Nordrhein-Westfalen"}},{"name":"Litzmannstr.","postalCode":"53721","locality":"Siegburg","municipality":{"key":"05382060","name":"Siegburg, Stadt","type":"Stadt"},"district":{"key":"05382","name":"Rhein-Sieg-Kreis","type":"Kreis"},"federalState":{"key":"05","name":"Nordrhein-Westfalen"}},{"name":"Lohrbergstr.","postalCode":"53721","locality":"Siegburg","municipality":{"key":"05382060","name":"Siegburg, Stadt","type":"Stadt"},"district":{"key":"05382","name":"Rhein-Sieg-Kreis","type":"Kreis"},"federalState":{"key":"05","name":"Nordrhein-Westfalen"}},{"name":"Löwenburgstr.","postalCode":"53721","locality":"Siegburg","municipality":{"key":"05382060","name":"Siegburg, Stadt","type":"Stadt"},"district":{"key":"05382","name":"Rhein-Sieg-Kreis","type":"Kreis"},"federalState":{"key":"05","name":"Nordrhein-Westfalen"}},{"name":"Ludwigstr.","postalCode":"53721","locality":"Siegburg","municipality":{"key":"05382060","name":"Siegburg, Stadt","type":"Stadt"},"district":{"key":"05382","name":"Rhein-Sieg-Kreis","type":"Kreis"},"federalState":{"key":"05","name":"Nordrhein-Westfalen"}},{"name":"Luisenstr.","postalCode":"53721","locality":"Siegburg","municipality":{"key":"05382060","name":"Siegburg, Stadt","type":"Stadt"},"district":{"key":"05382","name":"Rhein-Sieg-Kreis","type":"Kreis"},"federalState":{"key":"05","name":"Nordrhein-Westfalen"}},{"name":"Mahlgasse","postalCode":"53721","locality":"Siegburg","municipality":{"key":"05382060","name":"Siegburg, Stadt","type":"Stadt"},"district":{"key":"05382","name":"Rhein-Sieg-Kreis","type":"Kreis"},"federalState":{"key":"05","name":"Nordrhein-Westfalen"}},{"name":"Mahrstr.","postalCode":"53721","locality":"Siegburg","municipality":{"key":"05382060","name":"Siegburg, Stadt","type":"Stadt"},"district":{"key":"05382","name":"Rhein-Sieg-Kreis","type":"Kreis"},"federalState":{"key":"05","name":"Nordrhein-Westfalen"}},{"name":"Marcel-Charpantier-Str.","postalCode":"53721","locality":"Siegburg","municipality":{"key":"05382060","name":"Siegburg, Stadt","type":"Stadt"},"district":{"key":"05382","name":"Rhein-Sieg-Kreis","type":"Kreis"},"federalState":{"key":"05","name":"Nordrhein-Westfalen"}},{"name":"Marienhofstr.","postalCode":"53721","locality":"Siegburg","municipality":{"key":"05382060","name":"Siegburg, Stadt","type":"Stadt"},"district":{"key":"05382","name":"Rhein-Sieg-Kreis","type":"Kreis"},"federalState":{"key":"05","name":"Nordrhein-Westfalen"}},{"name":"Marienstr.","postalCode":"53721","locality":"Siegburg","municipality":{"key":"05382060","name":"Siegburg, Stadt","type":"Stadt"},"district":{"key":"05382","name":"Rhein-Sieg-Kreis","type":"Kreis"},"federalState":{"key":"05","name":"Nordrhein-Westfalen"}},{"name":"Martin-Opitz-Str.","postalCode":"53721","locality":"Siegburg","municipality":{"key":"05382060","name":"Siegburg, Stadt","type":"Stadt"},"district":{"key":"05382","name":"Rhein-Sieg-Kreis","type":"Kreis"},"federalState":{"key":"05","name":"Nordrhein-Westfalen"}},{"name":"Michaelstr.","postalCode":"53721","locality":"Siegburg","municipality":{"key":"05382060","name":"Siegburg, Stadt","type":"Stadt"},"district":{"key":"05382","name":"Rhein-Sieg-Kreis","type":"Kreis"},"federalState":{"key":"05","name":"Nordrhein-Westfalen"}},{"name":"Mittelstr.","postalCode":"53721","locality":"Siegburg","municipality":{"key":"05382060","name":"Siegburg, Stadt","type":"Stadt"},"district":{"key":"05382","name":"Rhein-Sieg-Kreis","type":"Kreis"},"federalState":{"key":"05","name":"Nordrhein-Westfalen"}},{"name":"Moltkestr.","postalCode":"53721","locality":"Siegburg","municipality":{"key":"05382060","name":"Siegburg, Stadt","type":"Stadt"},"district":{"key":"05382","name":"Rhein-Sieg-Kreis","type":"Kreis"},"federalState":{"key":"05","name":"Nordrhein-Westfalen"}},{"name":"Mozartstr.","postalCode":"53721","locality":"Siegburg","municipality":{"key":"05382060","name":"Siegburg, Stadt","type":"Stadt"},"district":{"key":"05382","name":"Rhein-Sieg-Kreis","type":"Kreis"},"federalState":{"key":"05","name":"Nordrhein-Westfalen"}},{"name":"Mühlengrabenstr.","postalCode":"53721","locality":"Siegburg","municipality":{"key":"05382060","name":"Siegburg, Stadt","type":"Stadt"},"district":{"key":"05382","name":"Rhein-Sieg-Kreis","type":"Kreis"},"federalState":{"key":"05","name":"Nordrhein-Westfalen"}},{"name":"Mühlenhofweg","postalCode":"53721","locality":"Siegburg","municipality":{"key":"05382060","name":"Siegburg, Stadt","type":"Stadt"},"district":{"key":"05382","name":"Rhein-Sieg-Kreis","type":"Kreis"},"federalState":{"key":"05","name":"Nordrhein-Westfalen"}},{"name":"Mühlenstr.","postalCode":"53721","locality":"Siegburg","municipality":{"key":"05382060","name":"Siegburg, Stadt","type":"Stadt"},"district":{"key":"05382","name":"Rhein-Sieg-Kreis","type":"Kreis"},"federalState":{"key":"05","name":"Nordrhein-Westfalen"}},{"name":"Münchshecke","postalCode":"53721","locality":"Siegburg","municipality":{"key":"05382060","name":"Siegburg, Stadt","type":"Stadt"},"district":{"key":"05382","name":"Rhein-Sieg-Kreis","type":"Kreis"},"federalState":{"key":"05","name":"Nordrhein-Westfalen"}},{"name":"Müschbungert","postalCode":"53721","locality":"Siegburg","municipality":{"key":"05382060","name":"Siegburg, Stadt","type":"Stadt"},"district":{"key":"05382","name":"Rhein-Sieg-Kreis","type":"Kreis"},"federalState":{"key":"05","name":"Nordrhein-Westfalen"}},{"name":"Nachtigallenweg","postalCode":"53721","locality":"Siegburg","municipality":{"key":"05382060","name":"Siegburg, Stadt","type":"Stadt"},"district":{"key":"05382","name":"Rhein-Sieg-Kreis","type":"Kreis"},"federalState":{"key":"05","name":"Nordrhein-Westfalen"}},{"name":"Neuenhof","postalCode":"53721","locality":"Siegburg","municipality":{"key":"05382060","name":"Siegburg, Stadt","type":"Stadt"},"district":{"key":"05382","name":"Rhein-Sieg-Kreis","type":"Kreis"},"federalState":{"key":"05","name":"Nordrhein-Westfalen"}},{"name":"Nordstr.","postalCode":"53721","locality":"Siegburg","municipality":{"key":"05382060","name":"Siegburg, Stadt","type":"Stadt"},"district":{"key":"05382","name":"Rhein-Sieg-Kreis","type":"Kreis"},"federalState":{"key":"05","name":"Nordrhein-Westfalen"}},{"name":"Nußbaumbitze","postalCode":"53721","locality":"Siegburg","municipality":{"key":"05382060","name":"Siegburg, Stadt","type":"Stadt"},"district":{"key":"05382","name":"Rhein-Sieg-Kreis","type":"Kreis"},"federalState":{"key":"05","name":"Nordrhein-Westfalen"}},{"name":"Ober dem Mülldorfer Fahr","postalCode":"53721","locality":"Siegburg","municipality":{"key":"05382060","name":"Siegburg, Stadt","type":"Stadt"},"district":{"key":"05382","name":"Rhein-Sieg-Kreis","type":"Kreis"},"federalState":{"key":"05","name":"Nordrhein-Westfalen"}},{"name":"Orestiadastr.","postalCode":"53721","locality":"Siegburg","municipality":{"key":"05382060","name":"Siegburg, Stadt","type":"Stadt"},"district":{"key":"05382","name":"Rhein-Sieg-Kreis","type":"Kreis"},"federalState":{"key":"05","name":"Nordrhein-Westfalen"}},{"name":"Oststr.","postalCode":"53721","locality":"Siegburg","municipality":{"key":"05382060","name":"Siegburg, Stadt","type":"Stadt"},"district":{"key":"05382","name":"Rhein-Sieg-Kreis","type":"Kreis"},"federalState":{"key":"05","name":"Nordrhein-Westfalen"}},{"name":"Pappelallee","postalCode":"53721","locality":"Siegburg","municipality":{"key":"05382060","name":"Siegburg, Stadt","type":"Stadt"},"district":{"key":"05382","name":"Rhein-Sieg-Kreis","type":"Kreis"},"federalState":{"key":"05","name":"Nordrhein-Westfalen"}},{"name":"Passage Kaiserstr.","postalCode":"53721","locality":"Siegburg","municipality":{"key":"05382060","name":"Siegburg, Stadt","type":"Stadt"},"district":{"key":"05382","name":"Rhein-Sieg-Kreis","type":"Kreis"},"federalState":{"key":"05","name":"Nordrhein-Westfalen"}},{"name":"Paul-Moog-Str.","postalCode":"53721","locality":"Siegburg","municipality":{"key":"05382060","name":"Siegburg, Stadt","type":"Stadt"},"district":{"key":"05382","name":"Rhein-Sieg-Kreis","type":"Kreis"},"federalState":{"key":"05","name":"Nordrhein-Westfalen"}},{"name":"Petersbergstr.","postalCode":"53721","locality":"Siegburg","municipality":{"key":"05382060","name":"Siegburg, Stadt","type":"Stadt"},"district":{"key":"05382","name":"Rhein-Sieg-Kreis","type":"Kreis"},"federalState":{"key":"05","name":"Nordrhein-Westfalen"}},{"name":"Peterstr.","postalCode":"53721","locality":"Siegburg","municipality":{"key":"05382060","name":"Siegburg, Stadt","type":"Stadt"},"district":{"key":"05382","name":"Rhein-Sieg-Kreis","type":"Kreis"},"federalState":{"key":"05","name":"Nordrhein-Westfalen"}},{"name":"Pferdewiese","postalCode":"53721","locality":"Siegburg","municipality":{"key":"05382060","name":"Siegburg, Stadt","type":"Stadt"},"district":{"key":"05382","name":"Rhein-Sieg-Kreis","type":"Kreis"},"federalState":{"key":"05","name":"Nordrhein-Westfalen"}},{"name":"Pilgrimsweg","postalCode":"53721","locality":"Siegburg","municipality":{"key":"05382060","name":"Siegburg, Stadt","type":"Stadt"},"district":{"key":"05382","name":"Rhein-Sieg-Kreis","type":"Kreis"},"federalState":{"key":"05","name":"Nordrhein-Westfalen"}},{"name":"Platanenweg","postalCode":"53721","locality":"Siegburg","municipality":{"key":"05382060","name":"Siegburg, Stadt","type":"Stadt"},"district":{"key":"05382","name":"Rhein-Sieg-Kreis","type":"Kreis"},"federalState":{"key":"05","name":"Nordrhein-Westfalen"}},{"name":"Pleiser Hecke","postalCode":"53721","locality":"Siegburg","municipality":{"key":"05382060","name":"Siegburg, Stadt","type":"Stadt"},"district":{"key":"05382","name":"Rhein-Sieg-Kreis","type":"Kreis"},"federalState":{"key":"05","name":"Nordrhein-Westfalen"}},{"name":"Rektor-Dresen-Str.","postalCode":"53721","locality":"Siegburg","municipality":{"key":"05382060","name":"Siegburg, Stadt","type":"Stadt"},"district":{"key":"05382","name":"Rhein-Sieg-Kreis","type":"Kreis"},"federalState":{"key":"05","name":"Nordrhein-Westfalen"}},{"name":"Riembergstr.","postalCode":"53721","locality":"Siegburg","municipality":{"key":"05382060","name":"Siegburg, Stadt","type":"Stadt"},"district":{"key":"05382","name":"Rhein-Sieg-Kreis","type":"Kreis"},"federalState":{"key":"05","name":"Nordrhein-Westfalen"}},{"name":"Rilkestr.","postalCode":"53721","locality":"Siegburg","municipality":{"key":"05382060","name":"Siegburg, Stadt","type":"Stadt"},"district":{"key":"05382","name":"Rhein-Sieg-Kreis","type":"Kreis"},"federalState":{"key":"05","name":"Nordrhein-Westfalen"}},{"name":"Ringstr.","postalCode":"53721","locality":"Siegburg","municipality":{"key":"05382060","name":"Siegburg, Stadt","type":"Stadt"},"district":{"key":"05382","name":"Rhein-Sieg-Kreis","type":"Kreis"},"federalState":{"key":"05","name":"Nordrhein-Westfalen"}},{"name":"Robert-Koch-Str.","postalCode":"53721","locality":"Siegburg","municipality":{"key":"05382060","name":"Siegburg, Stadt","type":"Stadt"},"district":{"key":"05382","name":"Rhein-Sieg-Kreis","type":"Kreis"},"federalState":{"key":"05","name":"Nordrhein-Westfalen"}},{"name":"Römerstr.","postalCode":"53721","locality":"Siegburg","municipality":{"key":"05382060","name":"Siegburg, Stadt","type":"Stadt"},"district":{"key":"05382","name":"Rhein-Sieg-Kreis","type":"Kreis"},"federalState":{"key":"05","name":"Nordrhein-Westfalen"}},{"name":"Roonstr.","postalCode":"53721","locality":"Siegburg","municipality":{"key":"05382060","name":"Siegburg, Stadt","type":"Stadt"},"district":{"key":"05382","name":"Rhein-Sieg-Kreis","type":"Kreis"},"federalState":{"key":"05","name":"Nordrhein-Westfalen"}},{"name":"Rosenweg","postalCode":"53721","locality":"Siegburg","municipality":{"key":"05382060","name":"Siegburg, Stadt","type":"Stadt"},"district":{"key":"05382","name":"Rhein-Sieg-Kreis","type":"Kreis"},"federalState":{"key":"05","name":"Nordrhein-Westfalen"}},{"name":"Rotdornweg","postalCode":"53721","locality":"Siegburg","municipality":{"key":"05382060","name":"Siegburg, Stadt","type":"Stadt"},"district":{"key":"05382","name":"Rhein-Sieg-Kreis","type":"Kreis"},"federalState":{"key":"05","name":"Nordrhein-Westfalen"}},{"name":"Rothenbacher Str.","postalCode":"53721","locality":"Siegburg","municipality":{"key":"05382060","name":"Siegburg, Stadt","type":"Stadt"},"district":{"key":"05382","name":"Rhein-Sieg-Kreis","type":"Kreis"},"federalState":{"key":"05","name":"Nordrhein-Westfalen"}},{"name":"Roth's Gasse","postalCode":"53721","locality":"Siegburg","municipality":{"key":"05382060","name":"Siegburg, Stadt","type":"Stadt"},"district":{"key":"05382","name":"Rhein-Sieg-Kreis","type":"Kreis"},"federalState":{"key":"05","name":"Nordrhein-Westfalen"}},{"name":"Rüdemichweg","postalCode":"53721","locality":"Siegburg","municipality":{"key":"05382060","name":"Siegburg, Stadt","type":"Stadt"},"district":{"key":"05382","name":"Rhein-Sieg-Kreis","type":"Kreis"},"federalState":{"key":"05","name":"Nordrhein-Westfalen"}},{"name":"Rüsterstr.","postalCode":"53721","locality":"Siegburg","municipality":{"key":"05382060","name":"Siegburg, Stadt","type":"Stadt"},"district":{"key":"05382","name":"Rhein-Sieg-Kreis","type":"Kreis"},"federalState":{"key":"05","name":"Nordrhein-Westfalen"}},{"name":"Sanddornweg","postalCode":"53721","locality":"Siegburg","municipality":{"key":"05382060","name":"Siegburg, Stadt","type":"Stadt"},"district":{"key":"05382","name":"Rhein-Sieg-Kreis","type":"Kreis"},"federalState":{"key":"05","name":"Nordrhein-Westfalen"}},{"name":"Sandweg","postalCode":"53721","locality":"Siegburg","municipality":{"key":"05382060","name":"Siegburg, Stadt","type":"Stadt"},"district":{"key":"05382","name":"Rhein-Sieg-Kreis","type":"Kreis"},"federalState":{"key":"05","name":"Nordrhein-Westfalen"}},{"name":"Scharnhorststr.","postalCode":"53721","locality":"Siegburg","municipality":{"key":"05382060","name":"Siegburg, Stadt","type":"Stadt"},"district":{"key":"05382","name":"Rhein-Sieg-Kreis","type":"Kreis"},"federalState":{"key":"05","name":"Nordrhein-Westfalen"}},{"name":"Scherbenberg","postalCode":"53721","locality":"Siegburg","municipality":{"key":"05382060","name":"Siegburg, Stadt","type":"Stadt"},"district":{"key":"05382","name":"Rhein-Sieg-Kreis","type":"Kreis"},"federalState":{"key":"05","name":"Nordrhein-Westfalen"}},{"name":"Schilfweg","postalCode":"53721","locality":"Siegburg","municipality":{"key":"05382060","name":"Siegburg, Stadt","type":"Stadt"},"district":{"key":"05382","name":"Rhein-Sieg-Kreis","type":"Kreis"},"federalState":{"key":"05","name":"Nordrhein-Westfalen"}},{"name":"Schillerstr.","postalCode":"53721","locality":"Siegburg","municipality":{"key":"05382060","name":"Siegburg, Stadt","type":"Stadt"},"district":{"key":"05382","name":"Rhein-Sieg-Kreis","type":"Kreis"},"federalState":{"key":"05","name":"Nordrhein-Westfalen"}},{"name":"Schlehdornweg","postalCode":"53721","locality":"Siegburg","municipality":{"key":"05382060","name":"Siegburg, Stadt","type":"Stadt"},"district":{"key":"05382","name":"Rhein-Sieg-Kreis","type":"Kreis"},"federalState":{"key":"05","name":"Nordrhein-Westfalen"}},{"name":"Schnepfenweg","postalCode":"53721","locality":"Siegburg","municipality":{"key":"05382060","name":"Siegburg, Stadt","type":"Stadt"},"district":{"key":"05382","name":"Rhein-Sieg-Kreis","type":"Kreis"},"federalState":{"key":"05","name":"Nordrhein-Westfalen"}},{"name":"Schubertstr.","postalCode":"53721","locality":"Siegburg","municipality":{"key":"05382060","name":"Siegburg, Stadt","type":"Stadt"},"district":{"key":"05382","name":"Rhein-Sieg-Kreis","type":"Kreis"},"federalState":{"key":"05","name":"Nordrhein-Westfalen"}},{"name":"Schumannstr.","postalCode":"53721","locality":"Siegburg","municipality":{"key":"05382060","name":"Siegburg, Stadt","type":"Stadt"},"district":{"key":"05382","name":"Rhein-Sieg-Kreis","type":"Kreis"},"federalState":{"key":"05","name":"Nordrhein-Westfalen"}},{"name":"Schützenstr.","postalCode":"53721","locality":"Siegburg","municipality":{"key":"05382060","name":"Siegburg, Stadt","type":"Stadt"},"district":{"key":"05382","name":"Rhein-Sieg-Kreis","type":"Kreis"},"federalState":{"key":"05","name":"Nordrhein-Westfalen"}},{"name":"Schwalbensteg","postalCode":"53721","locality":"Siegburg","municipality":{"key":"05382060","name":"Siegburg, Stadt","type":"Stadt"},"district":{"key":"05382","name":"Rhein-Sieg-Kreis","type":"Kreis"},"federalState":{"key":"05","name":"Nordrhein-Westfalen"}},{"name":"Schwarzdornweg","postalCode":"53721","locality":"Siegburg","municipality":{"key":"05382060","name":"Siegburg, Stadt","type":"Stadt"},"district":{"key":"05382","name":"Rhein-Sieg-Kreis","type":"Kreis"},"federalState":{"key":"05","name":"Nordrhein-Westfalen"}},{"name":"Schwarzer Weg","postalCode":"53721","locality":"Siegburg","municipality":{"key":"05382060","name":"Siegburg, Stadt","type":"Stadt"},"district":{"key":"05382","name":"Rhein-Sieg-Kreis","type":"Kreis"},"federalState":{"key":"05","name":"Nordrhein-Westfalen"}},{"name":"Seehofstr.","postalCode":"53721","locality":"Siegburg","municipality":{"key":"05382060","name":"Siegburg, Stadt","type":"Stadt"},"district":{"key":"05382","name":"Rhein-Sieg-Kreis","type":"Kreis"},"federalState":{"key":"05","name":"Nordrhein-Westfalen"}},{"name":"Seidenbergstr.","postalCode":"53721","locality":"Siegburg","municipality":{"key":"05382060","name":"Siegburg, Stadt","type":"Stadt"},"district":{"key":"05382","name":"Rhein-Sieg-Kreis","type":"Kreis"},"federalState":{"key":"05","name":"Nordrhein-Westfalen"}},{"name":"Selcukstr.","postalCode":"53721","locality":"Siegburg","municipality":{"key":"05382060","name":"Siegburg, Stadt","type":"Stadt"},"district":{"key":"05382","name":"Rhein-Sieg-Kreis","type":"Kreis"},"federalState":{"key":"05","name":"Nordrhein-Westfalen"}},{"name":"Seligenthaler Str.","postalCode":"53721","locality":"Siegburg","municipality":{"key":"05382060","name":"Siegburg, Stadt","type":"Stadt"},"district":{"key":"05382","name":"Rhein-Sieg-Kreis","type":"Kreis"},"federalState":{"key":"05","name":"Nordrhein-Westfalen"}},{"name":"Seydlitzstr.","postalCode":"53721","locality":"Siegburg","municipality":{"key":"05382060","name":"Siegburg, Stadt","type":"Stadt"},"district":{"key":"05382","name":"Rhein-Sieg-Kreis","type":"Kreis"},"federalState":{"key":"05","name":"Nordrhein-Westfalen"}},{"name":"Siegdamm","postalCode":"53721","locality":"Siegburg","municipality":{"key":"05382060","name":"Siegburg, Stadt","type":"Stadt"},"district":{"key":"05382","name":"Rhein-Sieg-Kreis","type":"Kreis"},"federalState":{"key":"05","name":"Nordrhein-Westfalen"}},{"name":"Siegenhardt","postalCode":"53721","locality":"Siegburg","municipality":{"key":"05382060","name":"Siegburg, Stadt","type":"Stadt"},"district":{"key":"05382","name":"Rhein-Sieg-Kreis","type":"Kreis"},"federalState":{"key":"05","name":"Nordrhein-Westfalen"}},{"name":"Siegfeldstr.","postalCode":"53721","locality":"Siegburg","municipality":{"key":"05382060","name":"Siegburg, Stadt","type":"Stadt"},"district":{"key":"05382","name":"Rhein-Sieg-Kreis","type":"Kreis"},"federalState":{"key":"05","name":"Nordrhein-Westfalen"}},{"name":"Siegstr.","postalCode":"53721","locality":"Siegburg","municipality":{"key":"05382060","name":"Siegburg, Stadt","type":"Stadt"},"district":{"key":"05382","name":"Rhein-Sieg-Kreis","type":"Kreis"},"federalState":{"key":"05","name":"Nordrhein-Westfalen"}},{"name":"Siegtalblick","postalCode":"53721","locality":"Siegburg","municipality":{"key":"05382060","name":"Siegburg, Stadt","type":"Stadt"},"district":{"key":"05382","name":"Rhein-Sieg-Kreis","type":"Kreis"},"federalState":{"key":"05","name":"Nordrhein-Westfalen"}},{"name":"Sonnenstr.","postalCode":"53721","locality":"Siegburg","municipality":{"key":"05382060","name":"Siegburg, Stadt","type":"Stadt"},"district":{"key":"05382","name":"Rhein-Sieg-Kreis","type":"Kreis"},"federalState":{"key":"05","name":"Nordrhein-Westfalen"}},{"name":"Starck'scher Park","postalCode":"53721","locality":"Siegburg","municipality":{"key":"05382060","name":"Siegburg, Stadt","type":"Stadt"},"district":{"key":"05382","name":"Rhein-Sieg-Kreis","type":"Kreis"},"federalState":{"key":"05","name":"Nordrhein-Westfalen"}},{"name":"Steinbahn","postalCode":"53721","locality":"Siegburg","municipality":{"key":"05382060","name":"Siegburg, Stadt","type":"Stadt"},"district":{"key":"05382","name":"Rhein-Sieg-Kreis","type":"Kreis"},"federalState":{"key":"05","name":"Nordrhein-Westfalen"}},{"name":"Steinwiese","postalCode":"53721","locality":"Siegburg","municipality":{"key":"05382060","name":"Siegburg, Stadt","type":"Stadt"},"district":{"key":"05382","name":"Rhein-Sieg-Kreis","type":"Kreis"},"federalState":{"key":"05","name":"Nordrhein-Westfalen"}},{"name":"Stenzelbergstr.","postalCode":"53721","locality":"Siegburg","municipality":{"key":"05382060","name":"Siegburg, Stadt","type":"Stadt"},"district":{"key":"05382","name":"Rhein-Sieg-Kreis","type":"Kreis"},"federalState":{"key":"05","name":"Nordrhein-Westfalen"}},{"name":"Stoßdorfer Weg","postalCode":"53721","locality":"Siegburg","municipality":{"key":"05382060","name":"Siegburg, Stadt","type":"Stadt"},"district":{"key":"05382","name":"Rhein-Sieg-Kreis","type":"Kreis"},"federalState":{"key":"05","name":"Nordrhein-Westfalen"}},{"name":"Südstr.","postalCode":"53721","locality":"Siegburg","municipality":{"key":"05382060","name":"Siegburg, Stadt","type":"Stadt"},"district":{"key":"05382","name":"Rhein-Sieg-Kreis","type":"Kreis"},"federalState":{"key":"05","name":"Nordrhein-Westfalen"}},{"name":"Talsperrenstr.","postalCode":"53721","locality":"Siegburg","municipality":{"key":"05382060","name":"Siegburg, Stadt","type":"Stadt"},"district":{"key":"05382","name":"Rhein-Sieg-Kreis","type":"Kreis"},"federalState":{"key":"05","name":"Nordrhein-Westfalen"}},{"name":"Taubenstr.","postalCode":"53721","locality":"Siegburg","municipality":{"key":"05382060","name":"Siegburg, Stadt","type":"Stadt"},"district":{"key":"05382","name":"Rhein-Sieg-Kreis","type":"Kreis"},"federalState":{"key":"05","name":"Nordrhein-Westfalen"}},{"name":"Theodor-Heuss-Str.","postalCode":"53721","locality":"Siegburg","municipality":{"key":"05382060","name":"Siegburg, Stadt","type":"Stadt"},"district":{"key":"05382","name":"Rhein-Sieg-Kreis","type":"Kreis"},"federalState":{"key":"05","name":"Nordrhein-Westfalen"}},{"name":"Theodor-Körner-Str.","postalCode":"53721","locality":"Siegburg","municipality":{"key":"05382060","name":"Siegburg, Stadt","type":"Stadt"},"district":{"key":"05382","name":"Rhein-Sieg-Kreis","type":"Kreis"},"federalState":{"key":"05","name":"Nordrhein-Westfalen"}},{"name":"Tierbungertstr.","postalCode":"53721","locality":"Siegburg","municipality":{"key":"05382060","name":"Siegburg, Stadt","type":"Stadt"},"district":{"key":"05382","name":"Rhein-Sieg-Kreis","type":"Kreis"},"federalState":{"key":"05","name":"Nordrhein-Westfalen"}},{"name":"Tönnisbergstr.","postalCode":"53721","locality":"Siegburg","municipality":{"key":"05382060","name":"Siegburg, Stadt","type":"Stadt"},"district":{"key":"05382","name":"Rhein-Sieg-Kreis","type":"Kreis"},"federalState":{"key":"05","name":"Nordrhein-Westfalen"}},{"name":"Töpferstr.","postalCode":"53721","locality":"Siegburg","municipality":{"key":"05382060","name":"Siegburg, Stadt","type":"Stadt"},"district":{"key":"05382","name":"Rhein-Sieg-Kreis","type":"Kreis"},"federalState":{"key":"05","name":"Nordrhein-Westfalen"}},{"name":"Torbitze","postalCode":"53721","locality":"Siegburg","municipality":{"key":"05382060","name":"Siegburg, Stadt","type":"Stadt"},"district":{"key":"05382","name":"Rhein-Sieg-Kreis","type":"Kreis"},"federalState":{"key":"05","name":"Nordrhein-Westfalen"}},{"name":"Turmweg","postalCode":"53721","locality":"Siegburg","municipality":{"key":"05382060","name":"Siegburg, Stadt","type":"Stadt"},"district":{"key":"05382","name":"Rhein-Sieg-Kreis","type":"Kreis"},"federalState":{"key":"05","name":"Nordrhein-Westfalen"}},{"name":"Uhlrather Str.","postalCode":"53721","locality":"Siegburg","municipality":{"key":"05382060","name":"Siegburg, Stadt","type":"Stadt"},"district":{"key":"05382","name":"Rhein-Sieg-Kreis","type":"Kreis"},"federalState":{"key":"05","name":"Nordrhein-Westfalen"}},{"name":"Ulmenweg","postalCode":"53721","locality":"Siegburg","municipality":{"key":"05382060","name":"Siegburg, Stadt","type":"Stadt"},"district":{"key":"05382","name":"Rhein-Sieg-Kreis","type":"Kreis"},"federalState":{"key":"05","name":"Nordrhein-Westfalen"}},{"name":"Viehtrift","postalCode":"53721","locality":"Siegburg","municipality":{"key":"05382060","name":"Siegburg, Stadt","type":"Stadt"},"district":{"key":"05382","name":"Rhein-Sieg-Kreis","type":"Kreis"},"federalState":{"key":"05","name":"Nordrhein-Westfalen"}},{"name":"Viktoriastr.","postalCode":"53721","locality":"Siegburg","municipality":{"key":"05382060","name":"Siegburg, Stadt","type":"Stadt"},"district":{"key":"05382","name":"Rhein-Sieg-Kreis","type":"Kreis"},"federalState":{"key":"05","name":"Nordrhein-Westfalen"}},{"name":"Von-Stephan-Str.","postalCode":"53721","locality":"Siegburg","municipality":{"key":"05382060","name":"Siegburg, Stadt","type":"Stadt"},"district":{"key":"05382","name":"Rhein-Sieg-Kreis","type":"Kreis"},"federalState":{"key":"05","name":"Nordrhein-Westfalen"}},{"name":"Wahnbachtalstr.","postalCode":"53721","locality":"Siegburg","municipality":{"key":"05382060","name":"Siegburg, Stadt","type":"Stadt"},"district":{"key":"05382","name":"Rhein-Sieg-Kreis","type":"Kreis"},"federalState":{"key":"05","name":"Nordrhein-Westfalen"}},{"name":"Waldstr.","postalCode":"53721","locality":"Siegburg","municipality":{"key":"05382060","name":"Siegburg, Stadt","type":"Stadt"},"district":{"key":"05382","name":"Rhein-Sieg-Kreis","type":"Kreis"},"federalState":{"key":"05","name":"Nordrhein-Westfalen"}},{"name":"Walnußweg","postalCode":"53721","locality":"Siegburg","municipality":{"key":"05382060","name":"Siegburg, Stadt","type":"Stadt"},"district":{"key":"05382","name":"Rhein-Sieg-Kreis","type":"Kreis"},"federalState":{"key":"05","name":"Nordrhein-Westfalen"}},{"name":"Weidenweg","postalCode":"53721","locality":"Siegburg","municipality":{"key":"05382060","name":"Siegburg, Stadt","type":"Stadt"},"district":{"key":"05382","name":"Rhein-Sieg-Kreis","type":"Kreis"},"federalState":{"key":"05","name":"Nordrhein-Westfalen"}},{"name":"Weierstr.","postalCode":"53721","locality":"Siegburg","municipality":{"key":"05382060","name":"Siegburg, Stadt","type":"Stadt"},"district":{"key":"05382","name":"Rhein-Sieg-Kreis","type":"Kreis"},"federalState":{"key":"05","name":"Nordrhein-Westfalen"}},{"name":"Weilbergstr.","postalCode":"53721","locality":"Siegburg","municipality":{"key":"05382060","name":"Siegburg, Stadt","type":"Stadt"},"district":{"key":"05382","name":"Rhein-Sieg-Kreis","type":"Kreis"},"federalState":{"key":"05","name":"Nordrhein-Westfalen"}},{"name":"Weißdornweg","postalCode":"53721","locality":"Siegburg","municipality":{"key":"05382060","name":"Siegburg, Stadt","type":"Stadt"},"district":{"key":"05382","name":"Rhein-Sieg-Kreis","type":"Kreis"},"federalState":{"key":"05","name":"Nordrhein-Westfalen"}},{"name":"Wellenstr.","postalCode":"53721","locality":"Siegburg","municipality":{"key":"05382060","name":"Siegburg, Stadt","type":"Stadt"},"district":{"key":"05382","name":"Rhein-Sieg-Kreis","type":"Kreis"},"federalState":{"key":"05","name":"Nordrhein-Westfalen"}},{"name":"Wiesenweg","postalCode":"53721","locality":"Siegburg","municipality":{"key":"05382060","name":"Siegburg, Stadt","type":"Stadt"},"district":{"key":"05382","name":"Rhein-Sieg-Kreis","type":"Kreis"},"federalState":{"key":"05","name":"Nordrhein-Westfalen"}},{"name":"Wilhelm-Ostwald-Str.","postalCode":"53721","locality":"Siegburg","municipality":{"key":"05382060","name":"Siegburg, Stadt","type":"Stadt"},"district":{"key":"05382","name":"Rhein-Sieg-Kreis","type":"Kreis"},"federalState":{"key":"05","name":"Nordrhein-Westfalen"}},{"name":"Wilhelmstr.","postalCode":"53721","locality":"Siegburg","municipality":{"key":"05382060","name":"Siegburg, Stadt","type":"Stadt"},"district":{"key":"05382","name":"Rhein-Sieg-Kreis","type":"Kreis"},"federalState":{"key":"05","name":"Nordrhein-Westfalen"}},{"name":"Willi-Stroß-Weg","postalCode":"53721","locality":"Siegburg","municipality":{"key":"05382060","name":"Siegburg, Stadt","type":"Stadt"},"district":{"key":"05382","name":"Rhein-Sieg-Kreis","type":"Kreis"},"federalState":{"key":"05","name":"Nordrhein-Westfalen"}},{"name":"Winterberger Str.","postalCode":"53721","locality":"Siegburg","municipality":{"key":"05382060","name":"Siegburg, Stadt","type":"Stadt"},"district":{"key":"05382","name":"Rhein-Sieg-Kreis","type":"Kreis"},"federalState":{"key":"05","name":"Nordrhein-Westfalen"}},{"name":"Wolkenburgstr.","postalCode":"53721","locality":"Siegburg","municipality":{"key":"05382060","name":"Siegburg, Stadt","type":"Stadt"},"district":{"key":"05382","name":"Rhein-Sieg-Kreis","type":"Kreis"},"federalState":{"key":"05","name":"Nordrhein-Westfalen"}},{"name":"Wolsdorfer Str.","postalCode":"53721","locality":"Siegburg","municipality":{"key":"05382060","name":"Siegburg, Stadt","type":"Stadt"},"district":{"key":"05382","name":"Rhein-Sieg-Kreis","type":"Kreis"},"federalState":{"key":"05","name":"Nordrhein-Westfalen"}},{"name":"Yuzawa-Weg","postalCode":"53721","locality":"Siegburg","municipality":{"key":"05382060","name":"Siegburg, Stadt","type":"Stadt"},"district":{"key":"05382","name":"Rhein-Sieg-Kreis","type":"Kreis"},"federalState":{"key":"05","name":"Nordrhein-Westfalen"}},{"name":"Zeithstr.","postalCode":"53721","locality":"Siegburg","municipality":{"key":"05382060","name":"Siegburg, Stadt","type":"Stadt"},"district":{"key":"05382","name":"Rhein-Sieg-Kreis","type":"Kreis"},"federalState":{"key":"05","name":"Nordrhein-Westfalen"}},{"name":"Zeughausstr.","postalCode":"53721","locality":"Siegburg","municipality":{"key":"05382060","name":"Siegburg, Stadt","type":"Stadt"},"district":{"key":"05382","name":"Rhein-Sieg-Kreis","type":"Kreis"},"federalState":{"key":"05","name":"Nordrhein-Westfalen"}},{"name":"Zissendorfer Weg","postalCode":"53721","locality":"Siegburg","municipality":{"key":"05382060","name":"Siegburg, Stadt","type":"Stadt"},"district":{"key":"05382","name":"Rhein-Sieg-Kreis","type":"Kreis"},"federalState":{"key":"05","name":"Nordrhein-Westfalen"}},{"name":"Zum Baumgarten","postalCode":"53721","locality":"Siegburg","municipality":{"key":"05382060","name":"Siegburg, Stadt","type":"Stadt"},"district":{"key":"05382","name":"Rhein-Sieg-Kreis","type":"Kreis"},"federalState":{"key":"05","name":"Nordrhein-Westfalen"}},{"name":"Zum Hohen Ufer","postalCode":"53721","locality":"Siegburg","municipality":{"key":"05382060","name":"Siegburg, Stadt","type":"Stadt"},"district":{"key":"05382","name":"Rhein-Sieg-Kreis","type":"Kreis"},"federalState":{"key":"05","name":"Nordrhein-Westfalen"}},{"name":"Zum Jelsloch","postalCode":"53721","locality":"Siegburg","municipality":{"key":"05382060","name":"Siegburg, Stadt","type":"Stadt"},"district":{"key":"05382","name":"Rhein-Sieg-Kreis","type":"Kreis"},"federalState":{"key":"05","name":"Nordrhein-Westfalen"}},{"name":"Zum Mühlenberg","postalCode":"53721","locality":"Siegburg","municipality":{"key":"05382060","name":"Siegburg, Stadt","type":"Stadt"},"district":{"key":"05382","name":"Rhein-Sieg-Kreis","type":"Kreis"},"federalState":{"key":"05","name":"Nordrhein-Westfalen"}},{"name":"Zur alten Fähre","postalCode":"53721","locality":"Siegburg","municipality":{"key":"05382060","name":"Siegburg, Stadt","type":"Stadt"},"district":{"key":"05382","name":"Rhein-Sieg-Kreis","type":"Kreis"},"federalState":{"key":"05","name":"Nordrhein-Westfalen"}},{"name":"Zur Rhein-Sieg-Halle","postalCode":"53721","locality":"Siegburg","municipality":{"key":"05382060","name":"Siegburg, Stadt","type":"Stadt"},"district":{"key":"05382","name":"Rhein-Sieg-Kreis","type":"Kreis"},"federalState":{"key":"05","name":"Nordrhein-Westfalen"}},{"name":"Ölbergstr.","postalCode":"53721","locality":"Siegburg","municipality":{"key":"05382060","name":"Siegburg, Stadt","type":"Stadt"},"district":{"key":"05382","name":"Rhein-Sieg-Kreis","type":"Kreis"},"federalState":{"key":"05","name":"Nordrhein-Westfalen"}},]