[{"name":"Albstr.","postalCode":"72145","locality":"Hirrlingen","municipality":{"key":"08416018","name":"Hirrlingen","type":"Kreisangehörige_Gemeinde"},"district":{"key":"08416","name":"Tübingen","type":"Landkreis"},"federalState":{"key":"08","name":"Baden-Württemberg"}},{"name":"Alexanderstr.","postalCode":"72145","locality":"Hirrlingen","municipality":{"key":"08416018","name":"Hirrlingen","type":"Kreisangehörige_Gemeinde"},"district":{"key":"08416","name":"Tübingen","type":"Landkreis"},"federalState":{"key":"08","name":"Baden-Württemberg"}},{"name":"Am Bibis","postalCode":"72145","locality":"Hirrlingen","municipality":{"key":"08416018","name":"Hirrlingen","type":"Kreisangehörige_Gemeinde"},"district":{"key":"08416","name":"Tübingen","type":"Landkreis"},"federalState":{"key":"08","name":"Baden-Württemberg"}},{"name":"Auf dem Ried","postalCode":"72145","locality":"Hirrlingen","municipality":{"key":"08416018","name":"Hirrlingen","type":"Kreisangehörige_Gemeinde"},"district":{"key":"08416","name":"Tübingen","type":"Landkreis"},"federalState":{"key":"08","name":"Baden-Württemberg"}},{"name":"Auf der Dray","postalCode":"72145","locality":"Hirrlingen","municipality":{"key":"08416018","name":"Hirrlingen","type":"Kreisangehörige_Gemeinde"},"district":{"key":"08416","name":"Tübingen","type":"Landkreis"},"federalState":{"key":"08","name":"Baden-Württemberg"}},{"name":"Auf der Gasse","postalCode":"72145","locality":"Hirrlingen","municipality":{"key":"08416018","name":"Hirrlingen","type":"Kreisangehörige_Gemeinde"},"district":{"key":"08416","name":"Tübingen","type":"Landkreis"},"federalState":{"key":"08","name":"Baden-Württemberg"}},{"name":"Bei der Gärtnerei","postalCode":"72145","locality":"Hirrlingen","municipality":{"key":"08416018","name":"Hirrlingen","type":"Kreisangehörige_Gemeinde"},"district":{"key":"08416","name":"Tübingen","type":"Landkreis"},"federalState":{"key":"08","name":"Baden-Württemberg"}},{"name":"Beim Schloß","postalCode":"72145","locality":"Hirrlingen","municipality":{"key":"08416018","name":"Hirrlingen","type":"Kreisangehörige_Gemeinde"},"district":{"key":"08416","name":"Tübingen","type":"Landkreis"},"federalState":{"key":"08","name":"Baden-Württemberg"}},{"name":"Bergstr.","postalCode":"72145","locality":"Hirrlingen","municipality":{"key":"08416018","name":"Hirrlingen","type":"Kreisangehörige_Gemeinde"},"district":{"key":"08416","name":"Tübingen","type":"Landkreis"},"federalState":{"key":"08","name":"Baden-Württemberg"}},{"name":"Bietenhauser Str.","postalCode":"72145","locality":"Hirrlingen","municipality":{"key":"08416018","name":"Hirrlingen","type":"Kreisangehörige_Gemeinde"},"district":{"key":"08416","name":"Tübingen","type":"Landkreis"},"federalState":{"key":"08","name":"Baden-Württemberg"}},{"name":"Birkenstr.","postalCode":"72145","locality":"Hirrlingen","municipality":{"key":"08416018","name":"Hirrlingen","type":"Kreisangehörige_Gemeinde"},"district":{"key":"08416","name":"Tübingen","type":"Landkreis"},"federalState":{"key":"08","name":"Baden-Württemberg"}},{"name":"Blumenstr.","postalCode":"72145","locality":"Hirrlingen","municipality":{"key":"08416018","name":"Hirrlingen","type":"Kreisangehörige_Gemeinde"},"district":{"key":"08416","name":"Tübingen","type":"Landkreis"},"federalState":{"key":"08","name":"Baden-Württemberg"}},{"name":"Brunnenstr.","postalCode":"72145","locality":"Hirrlingen","municipality":{"key":"08416018","name":"Hirrlingen","type":"Kreisangehörige_Gemeinde"},"district":{"key":"08416","name":"Tübingen","type":"Landkreis"},"federalState":{"key":"08","name":"Baden-Württemberg"}},{"name":"Buchenstr.","postalCode":"72145","locality":"Hirrlingen","municipality":{"key":"08416018","name":"Hirrlingen","type":"Kreisangehörige_Gemeinde"},"district":{"key":"08416","name":"Tübingen","type":"Landkreis"},"federalState":{"key":"08","name":"Baden-Württemberg"}},{"name":"Calwerstr.","postalCode":"72070","locality":"Tübingen","municipality":{"key":"08416041","name":"Tübingen, Universitätsstadt","type":"Große_Kreisstadt"},"district":{"key":"08416","name":"Tübingen","type":"Landkreis"},"federalState":{"key":"08","name":"Baden-Württemberg"}},{"name":"Calwerstr.","postalCode":"72076","locality":"Tübingen","municipality":{"key":"08416041","name":"Tübingen, Universitätsstadt","type":"Große_Kreisstadt"},"district":{"key":"08416","name":"Tübingen","type":"Landkreis"},"federalState":{"key":"08","name":"Baden-Württemberg"}},{"name":"Carlo-Steeb-Str.","postalCode":"72074","locality":"Tübingen","municipality":{"key":"08416041","name":"Tübingen, Universitätsstadt","type":"Große_Kreisstadt"},"district":{"key":"08416","name":"Tübingen","type":"Landkreis"},"federalState":{"key":"08","name":"Baden-Württemberg"}},{"name":"Cezanneweg","postalCode":"72072","locality":"Tübingen","municipality":{"key":"08416041","name":"Tübingen, Universitätsstadt","type":"Große_Kreisstadt"},"district":{"key":"08416","name":"Tübingen","type":"Landkreis"},"federalState":{"key":"08","name":"Baden-Württemberg"}},{"name":"Charlottenstr.","postalCode":"72070","locality":"Tübingen","municipality":{"key":"08416041","name":"Tübingen, Universitätsstadt","type":"Große_Kreisstadt"},"district":{"key":"08416","name":"Tübingen","type":"Landkreis"},"federalState":{"key":"08","name":"Baden-Württemberg"}},{"name":"Christian-Laupp-Str.","postalCode":"72072","locality":"Tübingen","municipality":{"key":"08416041","name":"Tübingen, Universitätsstadt","type":"Große_Kreisstadt"},"district":{"key":"08416","name":"Tübingen","type":"Landkreis"},"federalState":{"key":"08","name":"Baden-Württemberg"}},{"name":"Christophstr.","postalCode":"72072","locality":"Tübingen","municipality":{"key":"08416041","name":"Tübingen, Universitätsstadt","type":"Große_Kreisstadt"},"district":{"key":"08416","name":"Tübingen","type":"Landkreis"},"federalState":{"key":"08","name":"Baden-Württemberg"}},{"name":"Clara-Zetkin-Str.","postalCode":"72074","locality":"Tübingen","municipality":{"key":"08416041","name":"Tübingen, Universitätsstadt","type":"Große_Kreisstadt"},"district":{"key":"08416","name":"Tübingen","type":"Landkreis"},"federalState":{"key":"08","name":"Baden-Württemberg"}},{"name":"Clinicumsgasse","postalCode":"72070","locality":"Tübingen","municipality":{"key":"08416041","name":"Tübingen, Universitätsstadt","type":"Große_Kreisstadt"},"district":{"key":"08416","name":"Tübingen","type":"Landkreis"},"federalState":{"key":"08","name":"Baden-Württemberg"}},{"name":"Closenweg","postalCode":"72072","locality":"Tübingen","municipality":{"key":"08416041","name":"Tübingen, Universitätsstadt","type":"Große_Kreisstadt"},"district":{"key":"08416","name":"Tübingen","type":"Landkreis"},"federalState":{"key":"08","name":"Baden-Württemberg"}},{"name":"Closen Weg","postalCode":"72072","locality":"Tübingen","municipality":{"key":"08416041","name":"Tübingen, Universitätsstadt","type":"Große_Kreisstadt"},"district":{"key":"08416","name":"Tübingen","type":"Landkreis"},"federalState":{"key":"08","name":"Baden-Württemberg"}},{"name":"Clubhaus-Garten","postalCode":"72074","locality":"Tübingen","municipality":{"key":"08416041","name":"Tübingen, Universitätsstadt","type":"Große_Kreisstadt"},"district":{"key":"08416","name":"Tübingen","type":"Landkreis"},"federalState":{"key":"08","name":"Baden-Württemberg"}},{"name":"Collegiumsgasse","postalCode":"72070","locality":"Tübingen","municipality":{"key":"08416041","name":"Tübingen, Universitätsstadt","type":"Große_Kreisstadt"},"district":{"key":"08416","name":"Tübingen","type":"Landkreis"},"federalState":{"key":"08","name":"Baden-Württemberg"}},{"name":"Corrensstr.","postalCode":"72076","locality":"Tübingen","municipality":{"key":"08416041","name":"Tübingen, Universitätsstadt","type":"Große_Kreisstadt"},"district":{"key":"08416","name":"Tübingen","type":"Landkreis"},"federalState":{"key":"08","name":"Baden-Württemberg"}},{"name":"Cottaweg","postalCode":"72070","locality":"Tübingen","municipality":{"key":"08416041","name":"Tübingen, Universitätsstadt","type":"Große_Kreisstadt"},"district":{"key":"08416","name":"Tübingen","type":"Landkreis"},"federalState":{"key":"08","name":"Baden-Württemberg"}},{"name":"Cranachweg","postalCode":"72076","locality":"Tübingen","municipality":{"key":"08416041","name":"Tübingen, Universitätsstadt","type":"Große_Kreisstadt"},"district":{"key":"08416","name":"Tübingen","type":"Landkreis"},"federalState":{"key":"08","name":"Baden-Württemberg"}},{"name":"Dahlienweg","postalCode":"72145","locality":"Hirrlingen","municipality":{"key":"08416018","name":"Hirrlingen","type":"Kreisangehörige_Gemeinde"},"district":{"key":"08416","name":"Tübingen","type":"Landkreis"},"federalState":{"key":"08","name":"Baden-Württemberg"}},{"name":"Drosselweg","postalCode":"72145","locality":"Hirrlingen","municipality":{"key":"08416018","name":"Hirrlingen","type":"Kreisangehörige_Gemeinde"},"district":{"key":"08416","name":"Tübingen","type":"Landkreis"},"federalState":{"key":"08","name":"Baden-Württemberg"}},{"name":"Eichenbergstr.","postalCode":"72145","locality":"Hirrlingen","municipality":{"key":"08416018","name":"Hirrlingen","type":"Kreisangehörige_Gemeinde"},"district":{"key":"08416","name":"Tübingen","type":"Landkreis"},"federalState":{"key":"08","name":"Baden-Württemberg"}},{"name":"Eichenstr.","postalCode":"72145","locality":"Hirrlingen","municipality":{"key":"08416018","name":"Hirrlingen","type":"Kreisangehörige_Gemeinde"},"district":{"key":"08416","name":"Tübingen","type":"Landkreis"},"federalState":{"key":"08","name":"Baden-Württemberg"}},{"name":"Erlenweg","postalCode":"72145","locality":"Hirrlingen","municipality":{"key":"08416018","name":"Hirrlingen","type":"Kreisangehörige_Gemeinde"},"district":{"key":"08416","name":"Tübingen","type":"Landkreis"},"federalState":{"key":"08","name":"Baden-Württemberg"}},{"name":"Felbenstr.","postalCode":"72145","locality":"Hirrlingen","municipality":{"key":"08416018","name":"Hirrlingen","type":"Kreisangehörige_Gemeinde"},"district":{"key":"08416","name":"Tübingen","type":"Landkreis"},"federalState":{"key":"08","name":"Baden-Württemberg"}},{"name":"Fichtenweg","postalCode":"72145","locality":"Hirrlingen","municipality":{"key":"08416018","name":"Hirrlingen","type":"Kreisangehörige_Gemeinde"},"district":{"key":"08416","name":"Tübingen","type":"Landkreis"},"federalState":{"key":"08","name":"Baden-Württemberg"}},{"name":"Fliederweg","postalCode":"72145","locality":"Hirrlingen","municipality":{"key":"08416018","name":"Hirrlingen","type":"Kreisangehörige_Gemeinde"},"district":{"key":"08416","name":"Tübingen","type":"Landkreis"},"federalState":{"key":"08","name":"Baden-Württemberg"}},{"name":"Frauenhof","postalCode":"72145","locality":"Hirrlingen","municipality":{"key":"08416018","name":"Hirrlingen","type":"Kreisangehörige_Gemeinde"},"district":{"key":"08416","name":"Tübingen","type":"Landkreis"},"federalState":{"key":"08","name":"Baden-Württemberg"}},{"name":"Frommenhauser Str.","postalCode":"72145","locality":"Hirrlingen","municipality":{"key":"08416018","name":"Hirrlingen","type":"Kreisangehörige_Gemeinde"},"district":{"key":"08416","name":"Tübingen","type":"Landkreis"},"federalState":{"key":"08","name":"Baden-Württemberg"}},{"name":"Gartenstr.","postalCode":"72145","locality":"Hirrlingen","municipality":{"key":"08416018","name":"Hirrlingen","type":"Kreisangehörige_Gemeinde"},"district":{"key":"08416","name":"Tübingen","type":"Landkreis"},"federalState":{"key":"08","name":"Baden-Württemberg"}},{"name":"Goethestr.","postalCode":"72145","locality":"Hirrlingen","municipality":{"key":"08416018","name":"Hirrlingen","type":"Kreisangehörige_Gemeinde"},"district":{"key":"08416","name":"Tübingen","type":"Landkreis"},"federalState":{"key":"08","name":"Baden-Württemberg"}},{"name":"Grabenstr.","postalCode":"72145","locality":"Hirrlingen","municipality":{"key":"08416018","name":"Hirrlingen","type":"Kreisangehörige_Gemeinde"},"district":{"key":"08416","name":"Tübingen","type":"Landkreis"},"federalState":{"key":"08","name":"Baden-Württemberg"}},{"name":"Hafenmarkt","postalCode":"72145","locality":"Hirrlingen","municipality":{"key":"08416018","name":"Hirrlingen","type":"Kreisangehörige_Gemeinde"},"district":{"key":"08416","name":"Tübingen","type":"Landkreis"},"federalState":{"key":"08","name":"Baden-Württemberg"}},{"name":"Harbachweg","postalCode":"72145","locality":"Hirrlingen","municipality":{"key":"08416018","name":"Hirrlingen","type":"Kreisangehörige_Gemeinde"},"district":{"key":"08416","name":"Tübingen","type":"Landkreis"},"federalState":{"key":"08","name":"Baden-Württemberg"}},{"name":"Hauffstr.","postalCode":"72145","locality":"Hirrlingen","municipality":{"key":"08416018","name":"Hirrlingen","type":"Kreisangehörige_Gemeinde"},"district":{"key":"08416","name":"Tübingen","type":"Landkreis"},"federalState":{"key":"08","name":"Baden-Württemberg"}},{"name":"Hechinger Str.","postalCode":"72145","locality":"Hirrlingen","municipality":{"key":"08416018","name":"Hirrlingen","type":"Kreisangehörige_Gemeinde"},"district":{"key":"08416","name":"Tübingen","type":"Landkreis"},"federalState":{"key":"08","name":"Baden-Württemberg"}},{"name":"Hegelstr.","postalCode":"72145","locality":"Hirrlingen","municipality":{"key":"08416018","name":"Hirrlingen","type":"Kreisangehörige_Gemeinde"},"district":{"key":"08416","name":"Tübingen","type":"Landkreis"},"federalState":{"key":"08","name":"Baden-Württemberg"}},{"name":"Hinter dem Lehen","postalCode":"72145","locality":"Hirrlingen","municipality":{"key":"08416018","name":"Hirrlingen","type":"Kreisangehörige_Gemeinde"},"district":{"key":"08416","name":"Tübingen","type":"Landkreis"},"federalState":{"key":"08","name":"Baden-Württemberg"}},{"name":"Hirrlinger Mühlen","postalCode":"72145","locality":"Hirrlingen","municipality":{"key":"08416018","name":"Hirrlingen","type":"Kreisangehörige_Gemeinde"},"district":{"key":"08416","name":"Tübingen","type":"Landkreis"},"federalState":{"key":"08","name":"Baden-Württemberg"}},{"name":"Hirschstr.","postalCode":"72145","locality":"Hirrlingen","municipality":{"key":"08416018","name":"Hirrlingen","type":"Kreisangehörige_Gemeinde"},"district":{"key":"08416","name":"Tübingen","type":"Landkreis"},"federalState":{"key":"08","name":"Baden-Württemberg"}},{"name":"Hölderlinstr.","postalCode":"72145","locality":"Hirrlingen","municipality":{"key":"08416018","name":"Hirrlingen","type":"Kreisangehörige_Gemeinde"},"district":{"key":"08416","name":"Tübingen","type":"Landkreis"},"federalState":{"key":"08","name":"Baden-Württemberg"}},{"name":"Ilgenlochweg","postalCode":"72074","locality":"Tübingen","municipality":{"key":"08416041","name":"Tübingen, Universitätsstadt","type":"Große_Kreisstadt"},"district":{"key":"08416","name":"Tübingen","type":"Landkreis"},"federalState":{"key":"08","name":"Baden-Württemberg"}},{"name":"Im Alten Rauns","postalCode":"72072","locality":"Tübingen","municipality":{"key":"08416041","name":"Tübingen, Universitätsstadt","type":"Große_Kreisstadt"},"district":{"key":"08416","name":"Tübingen","type":"Landkreis"},"federalState":{"key":"08","name":"Baden-Württemberg"}},{"name":"Im Bangert","postalCode":"72072","locality":"Tübingen","municipality":{"key":"08416041","name":"Tübingen, Universitätsstadt","type":"Große_Kreisstadt"},"district":{"key":"08416","name":"Tübingen","type":"Landkreis"},"federalState":{"key":"08","name":"Baden-Württemberg"}},{"name":"Im Brühl","postalCode":"72074","locality":"Tübingen","municipality":{"key":"08416041","name":"Tübingen, Universitätsstadt","type":"Große_Kreisstadt"},"district":{"key":"08416","name":"Tübingen","type":"Landkreis"},"federalState":{"key":"08","name":"Baden-Württemberg"}},{"name":"Im Buckenloh","postalCode":"72070","locality":"Tübingen","municipality":{"key":"08416041","name":"Tübingen, Universitätsstadt","type":"Große_Kreisstadt"},"district":{"key":"08416","name":"Tübingen","type":"Landkreis"},"federalState":{"key":"08","name":"Baden-Württemberg"}},{"name":"Im Feuerhägle","postalCode":"72072","locality":"Tübingen","municipality":{"key":"08416041","name":"Tübingen, Universitätsstadt","type":"Große_Kreisstadt"},"district":{"key":"08416","name":"Tübingen","type":"Landkreis"},"federalState":{"key":"08","name":"Baden-Württemberg"}},{"name":"Im Grotthaus","postalCode":"72072","locality":"Tübingen","municipality":{"key":"08416041","name":"Tübingen, Universitätsstadt","type":"Große_Kreisstadt"},"district":{"key":"08416","name":"Tübingen","type":"Landkreis"},"federalState":{"key":"08","name":"Baden-Württemberg"}},{"name":"Im Hag","postalCode":"72072","locality":"Tübingen","municipality":{"key":"08416041","name":"Tübingen, Universitätsstadt","type":"Große_Kreisstadt"},"district":{"key":"08416","name":"Tübingen","type":"Landkreis"},"federalState":{"key":"08","name":"Baden-Württemberg"}},{"name":"Im Höfle","postalCode":"72074","locality":"Tübingen","municipality":{"key":"08416041","name":"Tübingen, Universitätsstadt","type":"Große_Kreisstadt"},"district":{"key":"08416","name":"Tübingen","type":"Landkreis"},"federalState":{"key":"08","name":"Baden-Württemberg"}},{"name":"Im Hofstrütle","postalCode":"72074","locality":"Tübingen","municipality":{"key":"08416041","name":"Tübingen, Universitätsstadt","type":"Große_Kreisstadt"},"district":{"key":"08416","name":"Tübingen","type":"Landkreis"},"federalState":{"key":"08","name":"Baden-Württemberg"}},{"name":"Im Hölderle","postalCode":"72070","locality":"Tübingen","municipality":{"key":"08416041","name":"Tübingen, Universitätsstadt","type":"Große_Kreisstadt"},"district":{"key":"08416","name":"Tübingen","type":"Landkreis"},"federalState":{"key":"08","name":"Baden-Württemberg"}},{"name":"Im Hopfengarten","postalCode":"72076","locality":"Tübingen","municipality":{"key":"08416041","name":"Tübingen, Universitätsstadt","type":"Große_Kreisstadt"},"district":{"key":"08416","name":"Tübingen","type":"Landkreis"},"federalState":{"key":"08","name":"Baden-Württemberg"}},{"name":"Im Käppele","postalCode":"72072","locality":"Tübingen","municipality":{"key":"08416041","name":"Tübingen, Universitätsstadt","type":"Große_Kreisstadt"},"district":{"key":"08416","name":"Tübingen","type":"Landkreis"},"federalState":{"key":"08","name":"Baden-Württemberg"}},{"name":"Im Keltergarten","postalCode":"72070","locality":"Tübingen","municipality":{"key":"08416041","name":"Tübingen, Universitätsstadt","type":"Große_Kreisstadt"},"district":{"key":"08416","name":"Tübingen","type":"Landkreis"},"federalState":{"key":"08","name":"Baden-Württemberg"}},{"name":"Im Kleeacker","postalCode":"72072","locality":"Tübingen","municipality":{"key":"08416041","name":"Tübingen, Universitätsstadt","type":"Große_Kreisstadt"},"district":{"key":"08416","name":"Tübingen","type":"Landkreis"},"federalState":{"key":"08","name":"Baden-Württemberg"}},{"name":"Im Kleinen Feldle","postalCode":"72072","locality":"Tübingen","municipality":{"key":"08416041","name":"Tübingen, Universitätsstadt","type":"Große_Kreisstadt"},"district":{"key":"08416","name":"Tübingen","type":"Landkreis"},"federalState":{"key":"08","name":"Baden-Württemberg"}},{"name":"Im Läninger","postalCode":"72072","locality":"Tübingen","municipality":{"key":"08416041","name":"Tübingen, Universitätsstadt","type":"Große_Kreisstadt"},"district":{"key":"08416","name":"Tübingen","type":"Landkreis"},"federalState":{"key":"08","name":"Baden-Württemberg"}},{"name":"Im Mühlgärtle","postalCode":"72072","locality":"Tübingen","municipality":{"key":"08416041","name":"Tübingen, Universitätsstadt","type":"Große_Kreisstadt"},"district":{"key":"08416","name":"Tübingen","type":"Landkreis"},"federalState":{"key":"08","name":"Baden-Württemberg"}},{"name":"Im Öschle","postalCode":"72070","locality":"Tübingen","municipality":{"key":"08416041","name":"Tübingen, Universitätsstadt","type":"Große_Kreisstadt"},"district":{"key":"08416","name":"Tübingen","type":"Landkreis"},"federalState":{"key":"08","name":"Baden-Württemberg"}},{"name":"Im Reutele","postalCode":"72070","locality":"Tübingen","municipality":{"key":"08416041","name":"Tübingen, Universitätsstadt","type":"Große_Kreisstadt"},"district":{"key":"08416","name":"Tübingen","type":"Landkreis"},"federalState":{"key":"08","name":"Baden-Württemberg"}},{"name":"Im Rosenwinkel","postalCode":"72070","locality":"Tübingen","municipality":{"key":"08416041","name":"Tübingen, Universitätsstadt","type":"Große_Kreisstadt"},"district":{"key":"08416","name":"Tübingen","type":"Landkreis"},"federalState":{"key":"08","name":"Baden-Württemberg"}},{"name":"Im Roßnagel","postalCode":"72072","locality":"Tübingen","municipality":{"key":"08416041","name":"Tübingen, Universitätsstadt","type":"Große_Kreisstadt"},"district":{"key":"08416","name":"Tübingen","type":"Landkreis"},"federalState":{"key":"08","name":"Baden-Württemberg"}},{"name":"Im Rotbad","postalCode":"72076","locality":"Tübingen","municipality":{"key":"08416041","name":"Tübingen, Universitätsstadt","type":"Große_Kreisstadt"},"district":{"key":"08416","name":"Tübingen","type":"Landkreis"},"federalState":{"key":"08","name":"Baden-Württemberg"}},{"name":"Im Schelmen","postalCode":"72072","locality":"Tübingen","municipality":{"key":"08416041","name":"Tübingen, Universitätsstadt","type":"Große_Kreisstadt"},"district":{"key":"08416","name":"Tübingen","type":"Landkreis"},"federalState":{"key":"08","name":"Baden-Württemberg"}},{"name":"Im Schönblick","postalCode":"72076","locality":"Tübingen","municipality":{"key":"08416041","name":"Tübingen, Universitätsstadt","type":"Große_Kreisstadt"},"district":{"key":"08416","name":"Tübingen","type":"Landkreis"},"federalState":{"key":"08","name":"Baden-Württemberg"}},{"name":"Im Schwärzlocher Täle","postalCode":"72070","locality":"Tübingen","municipality":{"key":"08416041","name":"Tübingen, Universitätsstadt","type":"Große_Kreisstadt"},"district":{"key":"08416","name":"Tübingen","type":"Landkreis"},"federalState":{"key":"08","name":"Baden-Württemberg"}},{"name":"Im Steinriegel","postalCode":"72072","locality":"Tübingen","municipality":{"key":"08416041","name":"Tübingen, Universitätsstadt","type":"Große_Kreisstadt"},"district":{"key":"08416","name":"Tübingen","type":"Landkreis"},"federalState":{"key":"08","name":"Baden-Württemberg"}},{"name":"Im Tannengrund","postalCode":"72072","locality":"Tübingen","municipality":{"key":"08416041","name":"Tübingen, Universitätsstadt","type":"Große_Kreisstadt"},"district":{"key":"08416","name":"Tübingen","type":"Landkreis"},"federalState":{"key":"08","name":"Baden-Württemberg"}},{"name":"Im Wägner","postalCode":"72070","locality":"Tübingen","municipality":{"key":"08416041","name":"Tübingen, Universitätsstadt","type":"Große_Kreisstadt"},"district":{"key":"08416","name":"Tübingen","type":"Landkreis"},"federalState":{"key":"08","name":"Baden-Württemberg"}},{"name":"Im Weiher","postalCode":"72074","locality":"Tübingen","municipality":{"key":"08416041","name":"Tübingen, Universitätsstadt","type":"Große_Kreisstadt"},"district":{"key":"08416","name":"Tübingen","type":"Landkreis"},"federalState":{"key":"08","name":"Baden-Württemberg"}},{"name":"Im Winkelrain","postalCode":"72076","locality":"Tübingen","municipality":{"key":"08416041","name":"Tübingen, Universitätsstadt","type":"Große_Kreisstadt"},"district":{"key":"08416","name":"Tübingen","type":"Landkreis"},"federalState":{"key":"08","name":"Baden-Württemberg"}},{"name":"Im Zwinger","postalCode":"72070","locality":"Tübingen","municipality":{"key":"08416041","name":"Tübingen, Universitätsstadt","type":"Große_Kreisstadt"},"district":{"key":"08416","name":"Tübingen","type":"Landkreis"},"federalState":{"key":"08","name":"Baden-Württemberg"}},{"name":"In den Fischergärten","postalCode":"72074","locality":"Tübingen","municipality":{"key":"08416041","name":"Tübingen, Universitätsstadt","type":"Große_Kreisstadt"},"district":{"key":"08416","name":"Tübingen","type":"Landkreis"},"federalState":{"key":"08","name":"Baden-Württemberg"}},{"name":"In den Kreuzäckern","postalCode":"72072","locality":"Tübingen","municipality":{"key":"08416041","name":"Tübingen, Universitätsstadt","type":"Große_Kreisstadt"},"district":{"key":"08416","name":"Tübingen","type":"Landkreis"},"federalState":{"key":"08","name":"Baden-Württemberg"}},{"name":"In der Breite","postalCode":"72074","locality":"Tübingen","municipality":{"key":"08416041","name":"Tübingen, Universitätsstadt","type":"Große_Kreisstadt"},"district":{"key":"08416","name":"Tübingen","type":"Landkreis"},"federalState":{"key":"08","name":"Baden-Württemberg"}},{"name":"In der Gass","postalCode":"72074","locality":"Tübingen","municipality":{"key":"08416041","name":"Tübingen, Universitätsstadt","type":"Große_Kreisstadt"},"district":{"key":"08416","name":"Tübingen","type":"Landkreis"},"federalState":{"key":"08","name":"Baden-Württemberg"}},{"name":"In der Weißheit","postalCode":"72074","locality":"Tübingen","municipality":{"key":"08416041","name":"Tübingen, Universitätsstadt","type":"Große_Kreisstadt"},"district":{"key":"08416","name":"Tübingen","type":"Landkreis"},"federalState":{"key":"08","name":"Baden-Württemberg"}},{"name":"Indianersteg","postalCode":"72072","locality":"Tübingen","municipality":{"key":"08416041","name":"Tübingen, Universitätsstadt","type":"Große_Kreisstadt"},"district":{"key":"08416","name":"Tübingen","type":"Landkreis"},"federalState":{"key":"08","name":"Baden-Württemberg"}},{"name":"Industriestr.","postalCode":"72070","locality":"Tübingen","municipality":{"key":"08416041","name":"Tübingen, Universitätsstadt","type":"Große_Kreisstadt"},"district":{"key":"08416","name":"Tübingen","type":"Landkreis"},"federalState":{"key":"08","name":"Baden-Württemberg"}},{"name":"Integrata-Park","postalCode":"72070","locality":"Tübingen","municipality":{"key":"08416041","name":"Tübingen, Universitätsstadt","type":"Große_Kreisstadt"},"district":{"key":"08416","name":"Tübingen","type":"Landkreis"},"federalState":{"key":"08","name":"Baden-Württemberg"}},{"name":"Isoldenstr.","postalCode":"72072","locality":"Tübingen","municipality":{"key":"08416041","name":"Tübingen, Universitätsstadt","type":"Große_Kreisstadt"},"district":{"key":"08416","name":"Tübingen","type":"Landkreis"},"federalState":{"key":"08","name":"Baden-Württemberg"}},{"name":"Jägerstr.","postalCode":"72145","locality":"Hirrlingen","municipality":{"key":"08416018","name":"Hirrlingen","type":"Kreisangehörige_Gemeinde"},"district":{"key":"08416","name":"Tübingen","type":"Landkreis"},"federalState":{"key":"08","name":"Baden-Württemberg"}},{"name":"Kirchstr.","postalCode":"72145","locality":"Hirrlingen","municipality":{"key":"08416018","name":"Hirrlingen","type":"Kreisangehörige_Gemeinde"},"district":{"key":"08416","name":"Tübingen","type":"Landkreis"},"federalState":{"key":"08","name":"Baden-Württemberg"}},{"name":"Kronenstr.","postalCode":"72145","locality":"Hirrlingen","municipality":{"key":"08416018","name":"Hirrlingen","type":"Kreisangehörige_Gemeinde"},"district":{"key":"08416","name":"Tübingen","type":"Landkreis"},"federalState":{"key":"08","name":"Baden-Württemberg"}},{"name":"Küferstr.","postalCode":"72145","locality":"Hirrlingen","municipality":{"key":"08416018","name":"Hirrlingen","type":"Kreisangehörige_Gemeinde"},"district":{"key":"08416","name":"Tübingen","type":"Landkreis"},"federalState":{"key":"08","name":"Baden-Württemberg"}},{"name":"Lehenstr.","postalCode":"72145","locality":"Hirrlingen","municipality":{"key":"08416018","name":"Hirrlingen","type":"Kreisangehörige_Gemeinde"},"district":{"key":"08416","name":"Tübingen","type":"Landkreis"},"federalState":{"key":"08","name":"Baden-Württemberg"}},{"name":"Lindenstr.","postalCode":"72145","locality":"Hirrlingen","municipality":{"key":"08416018","name":"Hirrlingen","type":"Kreisangehörige_Gemeinde"},"district":{"key":"08416","name":"Tübingen","type":"Landkreis"},"federalState":{"key":"08","name":"Baden-Württemberg"}},{"name":"Loshaldenstr.","postalCode":"72145","locality":"Hirrlingen","municipality":{"key":"08416018","name":"Hirrlingen","type":"Kreisangehörige_Gemeinde"},"district":{"key":"08416","name":"Tübingen","type":"Landkreis"},"federalState":{"key":"08","name":"Baden-Württemberg"}},{"name":"Marienstr.","postalCode":"72145","locality":"Hirrlingen","municipality":{"key":"08416018","name":"Hirrlingen","type":"Kreisangehörige_Gemeinde"},"district":{"key":"08416","name":"Tübingen","type":"Landkreis"},"federalState":{"key":"08","name":"Baden-Württemberg"}},{"name":"Marktstr.","postalCode":"72145","locality":"Hirrlingen","municipality":{"key":"08416018","name":"Hirrlingen","type":"Kreisangehörige_Gemeinde"},"district":{"key":"08416","name":"Tübingen","type":"Landkreis"},"federalState":{"key":"08","name":"Baden-Württemberg"}},{"name":"Meisenweg","postalCode":"72145","locality":"Hirrlingen","municipality":{"key":"08416018","name":"Hirrlingen","type":"Kreisangehörige_Gemeinde"},"district":{"key":"08416","name":"Tübingen","type":"Landkreis"},"federalState":{"key":"08","name":"Baden-Württemberg"}},{"name":"Mörikestr.","postalCode":"72145","locality":"Hirrlingen","municipality":{"key":"08416018","name":"Hirrlingen","type":"Kreisangehörige_Gemeinde"},"district":{"key":"08416","name":"Tübingen","type":"Landkreis"},"federalState":{"key":"08","name":"Baden-Württemberg"}},{"name":"Nadelgehölze","postalCode":"72076","locality":"Tübingen","municipality":{"key":"08416041","name":"Tübingen, Universitätsstadt","type":"Große_Kreisstadt"},"district":{"key":"08416","name":"Tübingen","type":"Landkreis"},"federalState":{"key":"08","name":"Baden-Württemberg"}},{"name":"Nägelestr.","postalCode":"72074","locality":"Tübingen","municipality":{"key":"08416041","name":"Tübingen, Universitätsstadt","type":"Große_Kreisstadt"},"district":{"key":"08416","name":"Tübingen","type":"Landkreis"},"federalState":{"key":"08","name":"Baden-Württemberg"}},{"name":"Narzissenweg","postalCode":"72072","locality":"Tübingen","municipality":{"key":"08416041","name":"Tübingen, Universitätsstadt","type":"Große_Kreisstadt"},"district":{"key":"08416","name":"Tübingen","type":"Landkreis"},"federalState":{"key":"08","name":"Baden-Württemberg"}},{"name":"Nauklerstr.","postalCode":"72074","locality":"Tübingen","municipality":{"key":"08416041","name":"Tübingen, Universitätsstadt","type":"Große_Kreisstadt"},"district":{"key":"08416","name":"Tübingen","type":"Landkreis"},"federalState":{"key":"08","name":"Baden-Württemberg"}},{"name":"Nauklerstr.","postalCode":"72076","locality":"Tübingen","municipality":{"key":"08416041","name":"Tübingen, Universitätsstadt","type":"Große_Kreisstadt"},"district":{"key":"08416","name":"Tübingen","type":"Landkreis"},"federalState":{"key":"08","name":"Baden-Württemberg"}},{"name":"Neckaraue","postalCode":"72072","locality":"Tübingen","municipality":{"key":"08416041","name":"Tübingen, Universitätsstadt","type":"Große_Kreisstadt"},"district":{"key":"08416","name":"Tübingen","type":"Landkreis"},"federalState":{"key":"08","name":"Baden-Württemberg"}},{"name":"Neckarbad","postalCode":"72070","locality":"Tübingen","municipality":{"key":"08416041","name":"Tübingen, Universitätsstadt","type":"Große_Kreisstadt"},"district":{"key":"08416","name":"Tübingen","type":"Landkreis"},"federalState":{"key":"08","name":"Baden-Württemberg"}},{"name":"Neckarhalde","postalCode":"72070","locality":"Tübingen","municipality":{"key":"08416041","name":"Tübingen, Universitätsstadt","type":"Große_Kreisstadt"},"district":{"key":"08416","name":"Tübingen","type":"Landkreis"},"federalState":{"key":"08","name":"Baden-Württemberg"}},{"name":"Neckarsulmer Str.","postalCode":"72072","locality":"Tübingen","municipality":{"key":"08416041","name":"Tübingen, Universitätsstadt","type":"Große_Kreisstadt"},"district":{"key":"08416","name":"Tübingen","type":"Landkreis"},"federalState":{"key":"08","name":"Baden-Württemberg"}},{"name":"Nelkenweg","postalCode":"72072","locality":"Tübingen","municipality":{"key":"08416041","name":"Tübingen, Universitätsstadt","type":"Große_Kreisstadt"},"district":{"key":"08416","name":"Tübingen","type":"Landkreis"},"federalState":{"key":"08","name":"Baden-Württemberg"}},{"name":"Nestelesallee","postalCode":"72074","locality":"Tübingen","municipality":{"key":"08416041","name":"Tübingen, Universitätsstadt","type":"Große_Kreisstadt"},"district":{"key":"08416","name":"Tübingen","type":"Landkreis"},"federalState":{"key":"08","name":"Baden-Württemberg"}},{"name":"Neuäckerweg","postalCode":"72072","locality":"Tübingen","municipality":{"key":"08416041","name":"Tübingen, Universitätsstadt","type":"Große_Kreisstadt"},"district":{"key":"08416","name":"Tübingen","type":"Landkreis"},"federalState":{"key":"08","name":"Baden-Württemberg"}},{"name":"Neue Ackersteige","postalCode":"72072","locality":"Tübingen","municipality":{"key":"08416041","name":"Tübingen, Universitätsstadt","type":"Große_Kreisstadt"},"district":{"key":"08416","name":"Tübingen","type":"Landkreis"},"federalState":{"key":"08","name":"Baden-Württemberg"}},{"name":"Neuer Jägerweg","postalCode":"72076","locality":"Tübingen","municipality":{"key":"08416041","name":"Tübingen, Universitätsstadt","type":"Große_Kreisstadt"},"district":{"key":"08416","name":"Tübingen","type":"Landkreis"},"federalState":{"key":"08","name":"Baden-Württemberg"}},{"name":"Neue Str.","postalCode":"72070","locality":"Tübingen","municipality":{"key":"08416041","name":"Tübingen, Universitätsstadt","type":"Große_Kreisstadt"},"district":{"key":"08416","name":"Tübingen","type":"Landkreis"},"federalState":{"key":"08","name":"Baden-Württemberg"}},{"name":"Neuffenstr.","postalCode":"72072","locality":"Tübingen","municipality":{"key":"08416041","name":"Tübingen, Universitätsstadt","type":"Große_Kreisstadt"},"district":{"key":"08416","name":"Tübingen","type":"Landkreis"},"federalState":{"key":"08","name":"Baden-Württemberg"}},{"name":"Neugäßle","postalCode":"72070","locality":"Tübingen","municipality":{"key":"08416041","name":"Tübingen, Universitätsstadt","type":"Große_Kreisstadt"},"district":{"key":"08416","name":"Tübingen","type":"Landkreis"},"federalState":{"key":"08","name":"Baden-Württemberg"}},{"name":"Neuhalde","postalCode":"72070","locality":"Tübingen","municipality":{"key":"08416041","name":"Tübingen, Universitätsstadt","type":"Große_Kreisstadt"},"district":{"key":"08416","name":"Tübingen","type":"Landkreis"},"federalState":{"key":"08","name":"Baden-Württemberg"}},{"name":"Neuhaldenstr.","postalCode":"72074","locality":"Tübingen","municipality":{"key":"08416041","name":"Tübingen, Universitätsstadt","type":"Große_Kreisstadt"},"district":{"key":"08416","name":"Tübingen","type":"Landkreis"},"federalState":{"key":"08","name":"Baden-Württemberg"}},{"name":"Neustadtgasse","postalCode":"72070","locality":"Tübingen","municipality":{"key":"08416041","name":"Tübingen, Universitätsstadt","type":"Große_Kreisstadt"},"district":{"key":"08416","name":"Tübingen","type":"Landkreis"},"federalState":{"key":"08","name":"Baden-Württemberg"}},{"name":"Niethammerstr.","postalCode":"72076","locality":"Tübingen","municipality":{"key":"08416041","name":"Tübingen, Universitätsstadt","type":"Große_Kreisstadt"},"district":{"key":"08416","name":"Tübingen","type":"Landkreis"},"federalState":{"key":"08","name":"Baden-Württemberg"}},{"name":"Nonnengasse","postalCode":"72070","locality":"Tübingen","municipality":{"key":"08416041","name":"Tübingen, Universitätsstadt","type":"Große_Kreisstadt"},"district":{"key":"08416","name":"Tübingen","type":"Landkreis"},"federalState":{"key":"08","name":"Baden-Württemberg"}},{"name":"Nordring","postalCode":"72074","locality":"Tübingen","municipality":{"key":"08416041","name":"Tübingen, Universitätsstadt","type":"Große_Kreisstadt"},"district":{"key":"08416","name":"Tübingen","type":"Landkreis"},"federalState":{"key":"08","name":"Baden-Württemberg"}},{"name":"Nordring","postalCode":"72076","locality":"Tübingen","municipality":{"key":"08416041","name":"Tübingen, Universitätsstadt","type":"Große_Kreisstadt"},"district":{"key":"08416","name":"Tübingen","type":"Landkreis"},"federalState":{"key":"08","name":"Baden-Württemberg"}},{"name":"Nürtinger Str.","postalCode":"72074","locality":"Tübingen","municipality":{"key":"08416041","name":"Tübingen, Universitätsstadt","type":"Große_Kreisstadt"},"district":{"key":"08416","name":"Tübingen","type":"Landkreis"},"federalState":{"key":"08","name":"Baden-Württemberg"}},{"name":"Nußbaumweg","postalCode":"72070","locality":"Tübingen","municipality":{"key":"08416041","name":"Tübingen, Universitätsstadt","type":"Große_Kreisstadt"},"district":{"key":"08416","name":"Tübingen","type":"Landkreis"},"federalState":{"key":"08","name":"Baden-Württemberg"}},{"name":"Ob dem Himmelreich","postalCode":"72074","locality":"Tübingen","municipality":{"key":"08416041","name":"Tübingen, Universitätsstadt","type":"Große_Kreisstadt"},"district":{"key":"08416","name":"Tübingen","type":"Landkreis"},"federalState":{"key":"08","name":"Baden-Württemberg"}},{"name":"Ob dem Viehweidle","postalCode":"72076","locality":"Tübingen","municipality":{"key":"08416041","name":"Tübingen, Universitätsstadt","type":"Große_Kreisstadt"},"district":{"key":"08416","name":"Tübingen","type":"Landkreis"},"federalState":{"key":"08","name":"Baden-Württemberg"}},{"name":"Ob der Ammer","postalCode":"72070","locality":"Tübingen","municipality":{"key":"08416041","name":"Tübingen, Universitätsstadt","type":"Große_Kreisstadt"},"district":{"key":"08416","name":"Tübingen","type":"Landkreis"},"federalState":{"key":"08","name":"Baden-Württemberg"}},{"name":"Ob der Grafenhalde","postalCode":"72076","locality":"Tübingen","municipality":{"key":"08416041","name":"Tübingen, Universitätsstadt","type":"Große_Kreisstadt"},"district":{"key":"08416","name":"Tübingen","type":"Landkreis"},"federalState":{"key":"08","name":"Baden-Württemberg"}},{"name":"Obere Gasse","postalCode":"72070","locality":"Tübingen","municipality":{"key":"08416041","name":"Tübingen, Universitätsstadt","type":"Große_Kreisstadt"},"district":{"key":"08416","name":"Tübingen","type":"Landkreis"},"federalState":{"key":"08","name":"Baden-Württemberg"}},{"name":"Obere Haldenstr.","postalCode":"72074","locality":"Tübingen","municipality":{"key":"08416041","name":"Tübingen, Universitätsstadt","type":"Große_Kreisstadt"},"district":{"key":"08416","name":"Tübingen","type":"Landkreis"},"federalState":{"key":"08","name":"Baden-Württemberg"}},{"name":"Obere Heulandsteige","postalCode":"72076","locality":"Tübingen","municipality":{"key":"08416041","name":"Tübingen, Universitätsstadt","type":"Große_Kreisstadt"},"district":{"key":"08416","name":"Tübingen","type":"Landkreis"},"federalState":{"key":"08","name":"Baden-Württemberg"}},{"name":"Oberer Fichtenwaldweg","postalCode":"72070","locality":"Tübingen","municipality":{"key":"08416041","name":"Tübingen, Universitätsstadt","type":"Große_Kreisstadt"},"district":{"key":"08416","name":"Tübingen","type":"Landkreis"},"federalState":{"key":"08","name":"Baden-Württemberg"}},{"name":"Oberer Holzackerweg","postalCode":"72070","locality":"Tübingen","municipality":{"key":"08416041","name":"Tübingen, Universitätsstadt","type":"Große_Kreisstadt"},"district":{"key":"08416","name":"Tübingen","type":"Landkreis"},"federalState":{"key":"08","name":"Baden-Württemberg"}},{"name":"Oberer Mauernweg","postalCode":"72070","locality":"Tübingen","municipality":{"key":"08416041","name":"Tübingen, Universitätsstadt","type":"Große_Kreisstadt"},"district":{"key":"08416","name":"Tübingen","type":"Landkreis"},"federalState":{"key":"08","name":"Baden-Württemberg"}},{"name":"Oberer Ramshaldeweg","postalCode":"72072","locality":"Tübingen","municipality":{"key":"08416041","name":"Tübingen, Universitätsstadt","type":"Große_Kreisstadt"},"district":{"key":"08416","name":"Tübingen","type":"Landkreis"},"federalState":{"key":"08","name":"Baden-Württemberg"}},{"name":"Oberer Roter-Rain-Weg","postalCode":"72076","locality":"Tübingen","municipality":{"key":"08416041","name":"Tübingen, Universitätsstadt","type":"Große_Kreisstadt"},"district":{"key":"08416","name":"Tübingen","type":"Landkreis"},"federalState":{"key":"08","name":"Baden-Württemberg"}},{"name":"Oberer Sandklingenweg","postalCode":"72070","locality":"Tübingen","municipality":{"key":"08416041","name":"Tübingen, Universitätsstadt","type":"Große_Kreisstadt"},"district":{"key":"08416","name":"Tübingen","type":"Landkreis"},"federalState":{"key":"08","name":"Baden-Württemberg"}},{"name":"Oberer Schachbaumweg","postalCode":"72076","locality":"Tübingen","municipality":{"key":"08416041","name":"Tübingen, Universitätsstadt","type":"Große_Kreisstadt"},"district":{"key":"08416","name":"Tübingen","type":"Landkreis"},"federalState":{"key":"08","name":"Baden-Württemberg"}},{"name":"Oberer Talweg","postalCode":"72070","locality":"Tübingen","municipality":{"key":"08416041","name":"Tübingen, Universitätsstadt","type":"Große_Kreisstadt"},"district":{"key":"08416","name":"Tübingen","type":"Landkreis"},"federalState":{"key":"08","name":"Baden-Württemberg"}},{"name":"Oberer Weg","postalCode":"72070","locality":"Tübingen","municipality":{"key":"08416041","name":"Tübingen, Universitätsstadt","type":"Große_Kreisstadt"},"district":{"key":"08416","name":"Tübingen","type":"Landkreis"},"federalState":{"key":"08","name":"Baden-Württemberg"}},{"name":"Oberer Wiesenweg","postalCode":"72072","locality":"Tübingen","municipality":{"key":"08416041","name":"Tübingen, Universitätsstadt","type":"Große_Kreisstadt"},"district":{"key":"08416","name":"Tübingen","type":"Landkreis"},"federalState":{"key":"08","name":"Baden-Württemberg"}},{"name":"Obere Schillerstr.","postalCode":"72076","locality":"Tübingen","municipality":{"key":"08416041","name":"Tübingen, Universitätsstadt","type":"Große_Kreisstadt"},"district":{"key":"08416","name":"Tübingen","type":"Landkreis"},"federalState":{"key":"08","name":"Baden-Württemberg"}},{"name":"Obergärtenweg","postalCode":"72070","locality":"Tübingen","municipality":{"key":"08416041","name":"Tübingen, Universitätsstadt","type":"Große_Kreisstadt"},"district":{"key":"08416","name":"Tübingen","type":"Landkreis"},"federalState":{"key":"08","name":"Baden-Württemberg"}},{"name":"Obstschützenhäusleweg","postalCode":"72072","locality":"Tübingen","municipality":{"key":"08416041","name":"Tübingen, Universitätsstadt","type":"Große_Kreisstadt"},"district":{"key":"08416","name":"Tübingen","type":"Landkreis"},"federalState":{"key":"08","name":"Baden-Württemberg"}},{"name":"Olgahainweg","postalCode":"72074","locality":"Tübingen","municipality":{"key":"08416041","name":"Tübingen, Universitätsstadt","type":"Große_Kreisstadt"},"district":{"key":"08416","name":"Tübingen","type":"Landkreis"},"federalState":{"key":"08","name":"Baden-Württemberg"}},{"name":"Olgastr.","postalCode":"72074","locality":"Tübingen","municipality":{"key":"08416041","name":"Tübingen, Universitätsstadt","type":"Große_Kreisstadt"},"district":{"key":"08416","name":"Tübingen","type":"Landkreis"},"federalState":{"key":"08","name":"Baden-Württemberg"}},{"name":"Osianderstr.","postalCode":"72076","locality":"Tübingen","municipality":{"key":"08416041","name":"Tübingen, Universitätsstadt","type":"Große_Kreisstadt"},"district":{"key":"08416","name":"Tübingen","type":"Landkreis"},"federalState":{"key":"08","name":"Baden-Württemberg"}},{"name":"Ostendstr.","postalCode":"72074","locality":"Tübingen","municipality":{"key":"08416041","name":"Tübingen, Universitätsstadt","type":"Große_Kreisstadt"},"district":{"key":"08416","name":"Tübingen","type":"Landkreis"},"federalState":{"key":"08","name":"Baden-Württemberg"}},{"name":"Otfried-Müller-Str.","postalCode":"72076","locality":"Tübingen","municipality":{"key":"08416041","name":"Tübingen, Universitätsstadt","type":"Große_Kreisstadt"},"district":{"key":"08416","name":"Tübingen","type":"Landkreis"},"federalState":{"key":"08","name":"Baden-Württemberg"}},{"name":"Otterfurt","postalCode":"72072","locality":"Tübingen","municipality":{"key":"08416041","name":"Tübingen, Universitätsstadt","type":"Große_Kreisstadt"},"district":{"key":"08416","name":"Tübingen","type":"Landkreis"},"federalState":{"key":"08","name":"Baden-Württemberg"}},{"name":"Otto-Erbe-Weg","postalCode":"72070","locality":"Tübingen","municipality":{"key":"08416041","name":"Tübingen, Universitätsstadt","type":"Große_Kreisstadt"},"district":{"key":"08416","name":"Tübingen","type":"Landkreis"},"federalState":{"key":"08","name":"Baden-Württemberg"}},{"name":"Pappelweg","postalCode":"72145","locality":"Hirrlingen","municipality":{"key":"08416018","name":"Hirrlingen","type":"Kreisangehörige_Gemeinde"},"district":{"key":"08416","name":"Tübingen","type":"Landkreis"},"federalState":{"key":"08","name":"Baden-Württemberg"}},{"name":"Quellgasse","postalCode":"72070","locality":"Tübingen","municipality":{"key":"08416041","name":"Tübingen, Universitätsstadt","type":"Große_Kreisstadt"},"district":{"key":"08416","name":"Tübingen","type":"Landkreis"},"federalState":{"key":"08","name":"Baden-Württemberg"}},{"name":"Quenstedtstr.","postalCode":"72076","locality":"Tübingen","municipality":{"key":"08416041","name":"Tübingen, Universitätsstadt","type":"Große_Kreisstadt"},"district":{"key":"08416","name":"Tübingen","type":"Landkreis"},"federalState":{"key":"08","name":"Baden-Württemberg"}},{"name":"Querstr.","postalCode":"72074","locality":"Tübingen","municipality":{"key":"08416041","name":"Tübingen, Universitätsstadt","type":"Große_Kreisstadt"},"district":{"key":"08416","name":"Tübingen","type":"Landkreis"},"federalState":{"key":"08","name":"Baden-Württemberg"}},{"name":"Rammertstr.","postalCode":"72145","locality":"Hirrlingen","municipality":{"key":"08416018","name":"Hirrlingen","type":"Kreisangehörige_Gemeinde"},"district":{"key":"08416","name":"Tübingen","type":"Landkreis"},"federalState":{"key":"08","name":"Baden-Württemberg"}},{"name":"Rangendinger Str.","postalCode":"72145","locality":"Hirrlingen","municipality":{"key":"08416018","name":"Hirrlingen","type":"Kreisangehörige_Gemeinde"},"district":{"key":"08416","name":"Tübingen","type":"Landkreis"},"federalState":{"key":"08","name":"Baden-Württemberg"}},{"name":"Riedstr.","postalCode":"72145","locality":"Hirrlingen","municipality":{"key":"08416018","name":"Hirrlingen","type":"Kreisangehörige_Gemeinde"},"district":{"key":"08416","name":"Tübingen","type":"Landkreis"},"federalState":{"key":"08","name":"Baden-Württemberg"}},{"name":"Römerweg","postalCode":"72145","locality":"Hirrlingen","municipality":{"key":"08416018","name":"Hirrlingen","type":"Kreisangehörige_Gemeinde"},"district":{"key":"08416","name":"Tübingen","type":"Landkreis"},"federalState":{"key":"08","name":"Baden-Württemberg"}},{"name":"Rosenstr.","postalCode":"72145","locality":"Hirrlingen","municipality":{"key":"08416018","name":"Hirrlingen","type":"Kreisangehörige_Gemeinde"},"district":{"key":"08416","name":"Tübingen","type":"Landkreis"},"federalState":{"key":"08","name":"Baden-Württemberg"}},{"name":"Rottenburger Str.","postalCode":"72145","locality":"Hirrlingen","municipality":{"key":"08416018","name":"Hirrlingen","type":"Kreisangehörige_Gemeinde"},"district":{"key":"08416","name":"Tübingen","type":"Landkreis"},"federalState":{"key":"08","name":"Baden-Württemberg"}},{"name":"Schillerstr.","postalCode":"72145","locality":"Hirrlingen","municipality":{"key":"08416018","name":"Hirrlingen","type":"Kreisangehörige_Gemeinde"},"district":{"key":"08416","name":"Tübingen","type":"Landkreis"},"federalState":{"key":"08","name":"Baden-Württemberg"}},{"name":"Schloßhof","postalCode":"72145","locality":"Hirrlingen","municipality":{"key":"08416018","name":"Hirrlingen","type":"Kreisangehörige_Gemeinde"},"district":{"key":"08416","name":"Tübingen","type":"Landkreis"},"federalState":{"key":"08","name":"Baden-Württemberg"}},{"name":"Schulstr.","postalCode":"72145","locality":"Hirrlingen","municipality":{"key":"08416018","name":"Hirrlingen","type":"Kreisangehörige_Gemeinde"},"district":{"key":"08416","name":"Tübingen","type":"Landkreis"},"federalState":{"key":"08","name":"Baden-Württemberg"}},{"name":"Schützenstr.","postalCode":"72145","locality":"Hirrlingen","municipality":{"key":"08416018","name":"Hirrlingen","type":"Kreisangehörige_Gemeinde"},"district":{"key":"08416","name":"Tübingen","type":"Landkreis"},"federalState":{"key":"08","name":"Baden-Württemberg"}},{"name":"Silcherstr.","postalCode":"72145","locality":"Hirrlingen","municipality":{"key":"08416018","name":"Hirrlingen","type":"Kreisangehörige_Gemeinde"},"district":{"key":"08416","name":"Tübingen","type":"Landkreis"},"federalState":{"key":"08","name":"Baden-Württemberg"}},{"name":"Spitalstr.","postalCode":"72145","locality":"Hirrlingen","municipality":{"key":"08416018","name":"Hirrlingen","type":"Kreisangehörige_Gemeinde"},"district":{"key":"08416","name":"Tübingen","type":"Landkreis"},"federalState":{"key":"08","name":"Baden-Württemberg"}},{"name":"Starzelstr.","postalCode":"72145","locality":"Hirrlingen","municipality":{"key":"08416018","name":"Hirrlingen","type":"Kreisangehörige_Gemeinde"},"district":{"key":"08416","name":"Tübingen","type":"Landkreis"},"federalState":{"key":"08","name":"Baden-Württemberg"}},{"name":"Talstr.","postalCode":"72145","locality":"Hirrlingen","municipality":{"key":"08416018","name":"Hirrlingen","type":"Kreisangehörige_Gemeinde"},"district":{"key":"08416","name":"Tübingen","type":"Landkreis"},"federalState":{"key":"08","name":"Baden-Württemberg"}},{"name":"Tannbuschweg","postalCode":"72145","locality":"Hirrlingen","municipality":{"key":"08416018","name":"Hirrlingen","type":"Kreisangehörige_Gemeinde"},"district":{"key":"08416","name":"Tübingen","type":"Landkreis"},"federalState":{"key":"08","name":"Baden-Württemberg"}},{"name":"Uhlandstr.","postalCode":"72145","locality":"Hirrlingen","municipality":{"key":"08416018","name":"Hirrlingen","type":"Kreisangehörige_Gemeinde"},"district":{"key":"08416","name":"Tübingen","type":"Landkreis"},"federalState":{"key":"08","name":"Baden-Württemberg"}},{"name":"Voräckerstr.","postalCode":"72145","locality":"Hirrlingen","municipality":{"key":"08416018","name":"Hirrlingen","type":"Kreisangehörige_Gemeinde"},"district":{"key":"08416","name":"Tübingen","type":"Landkreis"},"federalState":{"key":"08","name":"Baden-Württemberg"}},{"name":"Wagnerstr.","postalCode":"72145","locality":"Hirrlingen","municipality":{"key":"08416018","name":"Hirrlingen","type":"Kreisangehörige_Gemeinde"},"district":{"key":"08416","name":"Tübingen","type":"Landkreis"},"federalState":{"key":"08","name":"Baden-Württemberg"}},{"name":"Waldstr.","postalCode":"72145","locality":"Hirrlingen","municipality":{"key":"08416018","name":"Hirrlingen","type":"Kreisangehörige_Gemeinde"},"district":{"key":"08416","name":"Tübingen","type":"Landkreis"},"federalState":{"key":"08","name":"Baden-Württemberg"}},{"name":"Weberstr.","postalCode":"72145","locality":"Hirrlingen","municipality":{"key":"08416018","name":"Hirrlingen","type":"Kreisangehörige_Gemeinde"},"district":{"key":"08416","name":"Tübingen","type":"Landkreis"},"federalState":{"key":"08","name":"Baden-Württemberg"}},{"name":"Weidenstr.","postalCode":"72145","locality":"Hirrlingen","municipality":{"key":"08416018","name":"Hirrlingen","type":"Kreisangehörige_Gemeinde"},"district":{"key":"08416","name":"Tübingen","type":"Landkreis"},"federalState":{"key":"08","name":"Baden-Württemberg"}},{"name":"Weihergärtle","postalCode":"72145","locality":"Hirrlingen","municipality":{"key":"08416018","name":"Hirrlingen","type":"Kreisangehörige_Gemeinde"},"district":{"key":"08416","name":"Tübingen","type":"Landkreis"},"federalState":{"key":"08","name":"Baden-Württemberg"}},{"name":"Weiherweg","postalCode":"72145","locality":"Hirrlingen","municipality":{"key":"08416018","name":"Hirrlingen","type":"Kreisangehörige_Gemeinde"},"district":{"key":"08416","name":"Tübingen","type":"Landkreis"},"federalState":{"key":"08","name":"Baden-Württemberg"}},{"name":"Wiesenäckerstr.","postalCode":"72145","locality":"Hirrlingen","municipality":{"key":"08416018","name":"Hirrlingen","type":"Kreisangehörige_Gemeinde"},"district":{"key":"08416","name":"Tübingen","type":"Landkreis"},"federalState":{"key":"08","name":"Baden-Württemberg"}},{"name":"Wiesenstr.","postalCode":"72145","locality":"Hirrlingen","municipality":{"key":"08416018","name":"Hirrlingen","type":"Kreisangehörige_Gemeinde"},"district":{"key":"08416","name":"Tübingen","type":"Landkreis"},"federalState":{"key":"08","name":"Baden-Württemberg"}},{"name":"Wilhelmstr.","postalCode":"72145","locality":"Hirrlingen","municipality":{"key":"08416018","name":"Hirrlingen","type":"Kreisangehörige_Gemeinde"},"district":{"key":"08416","name":"Tübingen","type":"Landkreis"},"federalState":{"key":"08","name":"Baden-Württemberg"}},{"name":"Zankerbrücke","postalCode":"72070","locality":"Tübingen","municipality":{"key":"08416041","name":"Tübingen, Universitätsstadt","type":"Große_Kreisstadt"},"district":{"key":"08416","name":"Tübingen","type":"Landkreis"},"federalState":{"key":"08","name":"Baden-Württemberg"}},{"name":"Zehntscheuerweg","postalCode":"72070","locality":"Tübingen","municipality":{"key":"08416041","name":"Tübingen, Universitätsstadt","type":"Große_Kreisstadt"},"district":{"key":"08416","name":"Tübingen","type":"Landkreis"},"federalState":{"key":"08","name":"Baden-Württemberg"}},{"name":"Zeppelinstr.","postalCode":"72070","locality":"Tübingen","municipality":{"key":"08416041","name":"Tübingen, Universitätsstadt","type":"Große_Kreisstadt"},"district":{"key":"08416","name":"Tübingen","type":"Landkreis"},"federalState":{"key":"08","name":"Baden-Württemberg"}},{"name":"Zeughausgarten","postalCode":"72074","locality":"Tübingen","municipality":{"key":"08416041","name":"Tübingen, Universitätsstadt","type":"Große_Kreisstadt"},"district":{"key":"08416","name":"Tübingen","type":"Landkreis"},"federalState":{"key":"08","name":"Baden-Württemberg"}},{"name":"Ziegelhäuslesweg","postalCode":"72074","locality":"Tübingen","municipality":{"key":"08416041","name":"Tübingen, Universitätsstadt","type":"Große_Kreisstadt"},"district":{"key":"08416","name":"Tübingen","type":"Landkreis"},"federalState":{"key":"08","name":"Baden-Württemberg"}},{"name":"Ziegelhüttestr.","postalCode":"72072","locality":"Tübingen","municipality":{"key":"08416041","name":"Tübingen, Universitätsstadt","type":"Große_Kreisstadt"},"district":{"key":"08416","name":"Tübingen","type":"Landkreis"},"federalState":{"key":"08","name":"Baden-Württemberg"}},{"name":"Zollernstr.","postalCode":"72074","locality":"Tübingen","municipality":{"key":"08416041","name":"Tübingen, Universitätsstadt","type":"Große_Kreisstadt"},"district":{"key":"08416","name":"Tübingen","type":"Landkreis"},"federalState":{"key":"08","name":"Baden-Württemberg"}},{"name":"Zum Katzenloch","postalCode":"72070","locality":"Tübingen","municipality":{"key":"08416041","name":"Tübingen, Universitätsstadt","type":"Große_Kreisstadt"},"district":{"key":"08416","name":"Tübingen","type":"Landkreis"},"federalState":{"key":"08","name":"Baden-Württemberg"}},{"name":"Zürcher Str.","postalCode":"72072","locality":"Tübingen","municipality":{"key":"08416041","name":"Tübingen, Universitätsstadt","type":"Große_Kreisstadt"},"district":{"key":"08416","name":"Tübingen","type":"Landkreis"},"federalState":{"key":"08","name":"Baden-Württemberg"}},{"name":"Zwehrenbühl","postalCode":"72076","locality":"Tübingen","municipality":{"key":"08416041","name":"Tübingen, Universitätsstadt","type":"Große_Kreisstadt"},"district":{"key":"08416","name":"Tübingen","type":"Landkreis"},"federalState":{"key":"08","name":"Baden-Württemberg"}},{"name":"Zwehrenbühlstr.","postalCode":"72070","locality":"Tübingen","municipality":{"key":"08416041","name":"Tübingen, Universitätsstadt","type":"Große_Kreisstadt"},"district":{"key":"08416","name":"Tübingen","type":"Landkreis"},"federalState":{"key":"08","name":"Baden-Württemberg"}},{"name":"Zwerggasse","postalCode":"72072","locality":"Tübingen","municipality":{"key":"08416041","name":"Tübingen, Universitätsstadt","type":"Große_Kreisstadt"},"district":{"key":"08416","name":"Tübingen","type":"Landkreis"},"federalState":{"key":"08","name":"Baden-Württemberg"}},{"name":"Zwingerstr.","postalCode":"72070","locality":"Tübingen","municipality":{"key":"08416041","name":"Tübingen, Universitätsstadt","type":"Große_Kreisstadt"},"district":{"key":"08416","name":"Tübingen","type":"Landkreis"},"federalState":{"key":"08","name":"Baden-Württemberg"}},{"name":"Öhler","postalCode":"72076","locality":"Tübingen","municipality":{"key":"08416041","name":"Tübingen, Universitätsstadt","type":"Große_Kreisstadt"},"district":{"key":"08416","name":"Tübingen","type":"Landkreis"},"federalState":{"key":"08","name":"Baden-Württemberg"}},{"name":"Öhlerweg","postalCode":"72076","locality":"Tübingen","municipality":{"key":"08416041","name":"Tübingen, Universitätsstadt","type":"Große_Kreisstadt"},"district":{"key":"08416","name":"Tübingen","type":"Landkreis"},"federalState":{"key":"08","name":"Baden-Württemberg"}},{"name":"Ökologische Abteilung","postalCode":"72076","locality":"Tübingen","municipality":{"key":"08416041","name":"Tübingen, Universitätsstadt","type":"Große_Kreisstadt"},"district":{"key":"08416","name":"Tübingen","type":"Landkreis"},"federalState":{"key":"08","name":"Baden-Württemberg"}},{"name":"Ölmühlenweg","postalCode":"72072","locality":"Tübingen","municipality":{"key":"08416041","name":"Tübingen, Universitätsstadt","type":"Große_Kreisstadt"},"district":{"key":"08416","name":"Tübingen","type":"Landkreis"},"federalState":{"key":"08","name":"Baden-Württemberg"}},{"name":"Österbergstr.","postalCode":"72074","locality":"Tübingen","municipality":{"key":"08416041","name":"Tübingen, Universitätsstadt","type":"Große_Kreisstadt"},"district":{"key":"08416","name":"Tübingen","type":"Landkreis"},"federalState":{"key":"08","name":"Baden-Württemberg"}},]