[{"name":"Auf der Hill","postalCode":"54518","locality":"Hupperath","municipality":{"key":"07231062","name":"Hupperath","type":"Kreisangehörige_Gemeinde"},"district":{"key":"07231","name":"Bernkastel-Wittlich","type":"Landkreis"},"federalState":{"key":"07","name":"Rheinland-Pfalz"}},{"name":"Auf der Lay","postalCode":"54518","locality":"Hupperath","municipality":{"key":"07231062","name":"Hupperath","type":"Kreisangehörige_Gemeinde"},"district":{"key":"07231","name":"Bernkastel-Wittlich","type":"Landkreis"},"federalState":{"key":"07","name":"Rheinland-Pfalz"}},{"name":"Auf der Sonnseit","postalCode":"54518","locality":"Hupperath","municipality":{"key":"07231062","name":"Hupperath","type":"Kreisangehörige_Gemeinde"},"district":{"key":"07231","name":"Bernkastel-Wittlich","type":"Landkreis"},"federalState":{"key":"07","name":"Rheinland-Pfalz"}},{"name":"Auf Scharlatz","postalCode":"54518","locality":"Hupperath","municipality":{"key":"07231062","name":"Hupperath","type":"Kreisangehörige_Gemeinde"},"district":{"key":"07231","name":"Bernkastel-Wittlich","type":"Landkreis"},"federalState":{"key":"07","name":"Rheinland-Pfalz"}},{"name":"Bergweilerstr.","postalCode":"54518","locality":"Hupperath","municipality":{"key":"07231062","name":"Hupperath","type":"Kreisangehörige_Gemeinde"},"district":{"key":"07231","name":"Bernkastel-Wittlich","type":"Landkreis"},"federalState":{"key":"07","name":"Rheinland-Pfalz"}},{"name":"Bienenauer Bach","postalCode":"54518","locality":"Hupperath","municipality":{"key":"07231062","name":"Hupperath","type":"Kreisangehörige_Gemeinde"},"district":{"key":"07231","name":"Bernkastel-Wittlich","type":"Landkreis"},"federalState":{"key":"07","name":"Rheinland-Pfalz"}},{"name":"Bitburger Str.","postalCode":"54518","locality":"Hupperath","municipality":{"key":"07231062","name":"Hupperath","type":"Kreisangehörige_Gemeinde"},"district":{"key":"07231","name":"Bernkastel-Wittlich","type":"Landkreis"},"federalState":{"key":"07","name":"Rheinland-Pfalz"}},{"name":"Brunnenstr.","postalCode":"54518","locality":"Hupperath","municipality":{"key":"07231062","name":"Hupperath","type":"Kreisangehörige_Gemeinde"},"district":{"key":"07231","name":"Bernkastel-Wittlich","type":"Landkreis"},"federalState":{"key":"07","name":"Rheinland-Pfalz"}},{"name":"Feldstr.","postalCode":"54518","locality":"Hupperath","municipality":{"key":"07231062","name":"Hupperath","type":"Kreisangehörige_Gemeinde"},"district":{"key":"07231","name":"Bernkastel-Wittlich","type":"Landkreis"},"federalState":{"key":"07","name":"Rheinland-Pfalz"}},{"name":"Hubertusstr.","postalCode":"54518","locality":"Hupperath","municipality":{"key":"07231062","name":"Hupperath","type":"Kreisangehörige_Gemeinde"},"district":{"key":"07231","name":"Bernkastel-Wittlich","type":"Landkreis"},"federalState":{"key":"07","name":"Rheinland-Pfalz"}},{"name":"Hupperather Schneise","postalCode":"54518","locality":"Hupperath","municipality":{"key":"07231062","name":"Hupperath","type":"Kreisangehörige_Gemeinde"},"district":{"key":"07231","name":"Bernkastel-Wittlich","type":"Landkreis"},"federalState":{"key":"07","name":"Rheinland-Pfalz"}},{"name":"Im Gemeindegarten","postalCode":"54518","locality":"Hupperath","municipality":{"key":"07231062","name":"Hupperath","type":"Kreisangehörige_Gemeinde"},"district":{"key":"07231","name":"Bernkastel-Wittlich","type":"Landkreis"},"federalState":{"key":"07","name":"Rheinland-Pfalz"}},{"name":"Im Hohlweg","postalCode":"54518","locality":"Hupperath","municipality":{"key":"07231062","name":"Hupperath","type":"Kreisangehörige_Gemeinde"},"district":{"key":"07231","name":"Bernkastel-Wittlich","type":"Landkreis"},"federalState":{"key":"07","name":"Rheinland-Pfalz"}},{"name":"Ranzenmühle","postalCode":"54518","locality":"Hupperath","municipality":{"key":"07231062","name":"Hupperath","type":"Kreisangehörige_Gemeinde"},"district":{"key":"07231","name":"Bernkastel-Wittlich","type":"Landkreis"},"federalState":{"key":"07","name":"Rheinland-Pfalz"}},{"name":"Schulstr.","postalCode":"54518","locality":"Hupperath","municipality":{"key":"07231062","name":"Hupperath","type":"Kreisangehörige_Gemeinde"},"district":{"key":"07231","name":"Bernkastel-Wittlich","type":"Landkreis"},"federalState":{"key":"07","name":"Rheinland-Pfalz"}},{"name":"Schusterberg","postalCode":"54518","locality":"Hupperath","municipality":{"key":"07231062","name":"Hupperath","type":"Kreisangehörige_Gemeinde"},"district":{"key":"07231","name":"Bernkastel-Wittlich","type":"Landkreis"},"federalState":{"key":"07","name":"Rheinland-Pfalz"}},{"name":"Steingraben","postalCode":"54518","locality":"Hupperath","municipality":{"key":"07231062","name":"Hupperath","type":"Kreisangehörige_Gemeinde"},"district":{"key":"07231","name":"Bernkastel-Wittlich","type":"Landkreis"},"federalState":{"key":"07","name":"Rheinland-Pfalz"}},{"name":"Wiesenstr.","postalCode":"54518","locality":"Hupperath","municipality":{"key":"07231062","name":"Hupperath","type":"Kreisangehörige_Gemeinde"},"district":{"key":"07231","name":"Bernkastel-Wittlich","type":"Landkreis"},"federalState":{"key":"07","name":"Rheinland-Pfalz"}},{"name":"Wittlicher Str.","postalCode":"54518","locality":"Hupperath","municipality":{"key":"07231062","name":"Hupperath","type":"Kreisangehörige_Gemeinde"},"district":{"key":"07231","name":"Bernkastel-Wittlich","type":"Landkreis"},"federalState":{"key":"07","name":"Rheinland-Pfalz"}},]