[{"name":"11 Kilometerweg","postalCode":"37431","locality":"Harz (Landkreis Göttingen)","municipality":{"key":"03159501","name":"Harz (Landkreis Göttingen), gemfr. Geb.","type":"Gemeindefreies_Gebiet_Unbewohnt"},"district":{"key":"03159","name":"Göttingen","type":"Landkreis"},"federalState":{"key":"03","name":"Niedersachsen"}},{"name":"13.November-Weg","postalCode":"37520","locality":"Harz (Landkreis Göttingen)","municipality":{"key":"03159501","name":"Harz (Landkreis Göttingen), gemfr. Geb.","type":"Gemeindefreies_Gebiet_Unbewohnt"},"district":{"key":"03159","name":"Göttingen","type":"Landkreis"},"federalState":{"key":"03","name":"Niedersachsen"}},{"name":"Adolf-Kolping-Ring","postalCode":"37434","locality":"Bilshausen","municipality":{"key":"03159005","name":"Bilshausen","type":"Kreisangehörige_Gemeinde"},"district":{"key":"03159","name":"Göttingen","type":"Landkreis"},"federalState":{"key":"03","name":"Niedersachsen"}},{"name":"An der Reeke","postalCode":"37434","locality":"Bilshausen","municipality":{"key":"03159005","name":"Bilshausen","type":"Kreisangehörige_Gemeinde"},"district":{"key":"03159","name":"Göttingen","type":"Landkreis"},"federalState":{"key":"03","name":"Niedersachsen"}},{"name":"An der Rhume","postalCode":"37434","locality":"Bilshausen","municipality":{"key":"03159005","name":"Bilshausen","type":"Kreisangehörige_Gemeinde"},"district":{"key":"03159","name":"Göttingen","type":"Landkreis"},"federalState":{"key":"03","name":"Niedersachsen"}},{"name":"Auf dem Klimp","postalCode":"37434","locality":"Bilshausen","municipality":{"key":"03159005","name":"Bilshausen","type":"Kreisangehörige_Gemeinde"},"district":{"key":"03159","name":"Göttingen","type":"Landkreis"},"federalState":{"key":"03","name":"Niedersachsen"}},{"name":"Auf dem Osterberg","postalCode":"37434","locality":"Bilshausen","municipality":{"key":"03159005","name":"Bilshausen","type":"Kreisangehörige_Gemeinde"},"district":{"key":"03159","name":"Göttingen","type":"Landkreis"},"federalState":{"key":"03","name":"Niedersachsen"}},{"name":"Auf der Winsche","postalCode":"37434","locality":"Bilshausen","municipality":{"key":"03159005","name":"Bilshausen","type":"Kreisangehörige_Gemeinde"},"district":{"key":"03159","name":"Göttingen","type":"Landkreis"},"federalState":{"key":"03","name":"Niedersachsen"}},{"name":"Bahnhofstr.","postalCode":"37434","locality":"Bilshausen","municipality":{"key":"03159005","name":"Bilshausen","type":"Kreisangehörige_Gemeinde"},"district":{"key":"03159","name":"Göttingen","type":"Landkreis"},"federalState":{"key":"03","name":"Niedersachsen"}},{"name":"Baumpark Bilshausen","postalCode":"37434","locality":"Bilshausen","municipality":{"key":"03159005","name":"Bilshausen","type":"Kreisangehörige_Gemeinde"},"district":{"key":"03159","name":"Göttingen","type":"Landkreis"},"federalState":{"key":"03","name":"Niedersachsen"}},{"name":"Beerengrund","postalCode":"37434","locality":"Bilshausen","municipality":{"key":"03159005","name":"Bilshausen","type":"Kreisangehörige_Gemeinde"},"district":{"key":"03159","name":"Göttingen","type":"Landkreis"},"federalState":{"key":"03","name":"Niedersachsen"}},{"name":"Bodenseer Str.","postalCode":"37434","locality":"Bilshausen","municipality":{"key":"03159005","name":"Bilshausen","type":"Kreisangehörige_Gemeinde"},"district":{"key":"03159","name":"Göttingen","type":"Landkreis"},"federalState":{"key":"03","name":"Niedersachsen"}},{"name":"Breslauer Str.","postalCode":"37434","locality":"Bilshausen","municipality":{"key":"03159005","name":"Bilshausen","type":"Kreisangehörige_Gemeinde"},"district":{"key":"03159","name":"Göttingen","type":"Landkreis"},"federalState":{"key":"03","name":"Niedersachsen"}},{"name":"Calsowstr.","postalCode":"37085","locality":"Göttingen","municipality":{"key":"03159016","name":"Göttingen, Stadt","type":"Stadt"},"district":{"key":"03159","name":"Göttingen","type":"Landkreis"},"federalState":{"key":"03","name":"Niedersachsen"}},{"name":"Carl-Giesecke-Str.","postalCode":"37079","locality":"Göttingen","municipality":{"key":"03159016","name":"Göttingen, Stadt","type":"Stadt"},"district":{"key":"03159","name":"Göttingen","type":"Landkreis"},"federalState":{"key":"03","name":"Niedersachsen"}},{"name":"Carl-Mahr-Str.","postalCode":"37073","locality":"Göttingen","municipality":{"key":"03159016","name":"Göttingen, Stadt","type":"Stadt"},"district":{"key":"03159","name":"Göttingen","type":"Landkreis"},"federalState":{"key":"03","name":"Niedersachsen"}},{"name":"Carl-Zeiss-Str.","postalCode":"37081","locality":"Göttingen","municipality":{"key":"03159016","name":"Göttingen, Stadt","type":"Stadt"},"district":{"key":"03159","name":"Göttingen","type":"Landkreis"},"federalState":{"key":"03","name":"Niedersachsen"}},{"name":"Caroline-Schelling-Eck","postalCode":"37085","locality":"Göttingen","municipality":{"key":"03159016","name":"Göttingen, Stadt","type":"Stadt"},"district":{"key":"03159","name":"Göttingen","type":"Landkreis"},"federalState":{"key":"03","name":"Niedersachsen"}},{"name":"Caseliusplatz","postalCode":"37077","locality":"Göttingen","municipality":{"key":"03159016","name":"Göttingen, Stadt","type":"Stadt"},"district":{"key":"03159","name":"Göttingen","type":"Landkreis"},"federalState":{"key":"03","name":"Niedersachsen"}},{"name":"Charlottenburger Str.","postalCode":"37085","locality":"Göttingen","municipality":{"key":"03159016","name":"Göttingen, Stadt","type":"Stadt"},"district":{"key":"03159","name":"Göttingen","type":"Landkreis"},"federalState":{"key":"03","name":"Niedersachsen"}},{"name":"Cheltenhampark","postalCode":"37085","locality":"Göttingen","municipality":{"key":"03159016","name":"Göttingen, Stadt","type":"Stadt"},"district":{"key":"03159","name":"Göttingen","type":"Landkreis"},"federalState":{"key":"03","name":"Niedersachsen"}},{"name":"Chemnitzer Str.","postalCode":"37085","locality":"Göttingen","municipality":{"key":"03159016","name":"Göttingen, Stadt","type":"Stadt"},"district":{"key":"03159","name":"Göttingen","type":"Landkreis"},"federalState":{"key":"03","name":"Niedersachsen"}},{"name":"Christian-Eberwein-Str.","postalCode":"37077","locality":"Göttingen","municipality":{"key":"03159016","name":"Göttingen, Stadt","type":"Stadt"},"district":{"key":"03159","name":"Göttingen","type":"Landkreis"},"federalState":{"key":"03","name":"Niedersachsen"}},{"name":"Christian-Gottlob-Heyne-Ufer","postalCode":"37073","locality":"Göttingen","municipality":{"key":"03159016","name":"Göttingen, Stadt","type":"Stadt"},"district":{"key":"03159","name":"Göttingen","type":"Landkreis"},"federalState":{"key":"03","name":"Niedersachsen"}},{"name":"Christianshöhe","postalCode":"37085","locality":"Göttingen","municipality":{"key":"03159016","name":"Göttingen, Stadt","type":"Stadt"},"district":{"key":"03159","name":"Göttingen","type":"Landkreis"},"federalState":{"key":"03","name":"Niedersachsen"}},{"name":"Christophorusweg","postalCode":"37075","locality":"Göttingen","municipality":{"key":"03159016","name":"Göttingen, Stadt","type":"Stadt"},"district":{"key":"03159","name":"Göttingen","type":"Landkreis"},"federalState":{"key":"03","name":"Niedersachsen"}},{"name":"Clausbergweg","postalCode":"37520","locality":"Harz (Landkreis Göttingen)","municipality":{"key":"03159501","name":"Harz (Landkreis Göttingen), gemfr. Geb.","type":"Gemeindefreies_Gebiet_Unbewohnt"},"district":{"key":"03159","name":"Göttingen","type":"Landkreis"},"federalState":{"key":"03","name":"Niedersachsen"}},{"name":"Claus-Hartung-Eck","postalCode":"37083","locality":"Göttingen","municipality":{"key":"03159016","name":"Göttingen, Stadt","type":"Stadt"},"district":{"key":"03159","name":"Göttingen","type":"Landkreis"},"federalState":{"key":"03","name":"Niedersachsen"}},{"name":"Cramerstr.","postalCode":"37073","locality":"Göttingen","municipality":{"key":"03159016","name":"Göttingen, Stadt","type":"Stadt"},"district":{"key":"03159","name":"Göttingen","type":"Landkreis"},"federalState":{"key":"03","name":"Niedersachsen"}},{"name":"Däbelweg","postalCode":"37081","locality":"Göttingen","municipality":{"key":"03159016","name":"Göttingen, Stadt","type":"Stadt"},"district":{"key":"03159","name":"Göttingen","type":"Landkreis"},"federalState":{"key":"03","name":"Niedersachsen"}},{"name":"Dahlmannstr.","postalCode":"37073","locality":"Göttingen","municipality":{"key":"03159016","name":"Göttingen, Stadt","type":"Stadt"},"district":{"key":"03159","name":"Göttingen","type":"Landkreis"},"federalState":{"key":"03","name":"Niedersachsen"}},{"name":"Dahlmannstr.","postalCode":"37085","locality":"Göttingen","municipality":{"key":"03159016","name":"Göttingen, Stadt","type":"Stadt"},"district":{"key":"03159","name":"Göttingen","type":"Landkreis"},"federalState":{"key":"03","name":"Niedersachsen"}},{"name":"Daimlerstr.","postalCode":"37075","locality":"Göttingen","municipality":{"key":"03159016","name":"Göttingen, Stadt","type":"Stadt"},"district":{"key":"03159","name":"Göttingen","type":"Landkreis"},"federalState":{"key":"03","name":"Niedersachsen"}},{"name":"Damm","postalCode":"37075","locality":"Göttingen","municipality":{"key":"03159016","name":"Göttingen, Stadt","type":"Stadt"},"district":{"key":"03159","name":"Göttingen","type":"Landkreis"},"federalState":{"key":"03","name":"Niedersachsen"}},{"name":"Danziger Str.","postalCode":"37083","locality":"Göttingen","municipality":{"key":"03159016","name":"Göttingen, Stadt","type":"Stadt"},"district":{"key":"03159","name":"Göttingen","type":"Landkreis"},"federalState":{"key":"03","name":"Niedersachsen"}},{"name":"David-Hilbert-Str.","postalCode":"37085","locality":"Göttingen","municipality":{"key":"03159016","name":"Göttingen, Stadt","type":"Stadt"},"district":{"key":"03159","name":"Göttingen","type":"Landkreis"},"federalState":{"key":"03","name":"Niedersachsen"}},{"name":"Dawesbreite","postalCode":"37079","locality":"Göttingen","municipality":{"key":"03159016","name":"Göttingen, Stadt","type":"Stadt"},"district":{"key":"03159","name":"Göttingen","type":"Landkreis"},"federalState":{"key":"03","name":"Niedersachsen"}},{"name":"Deisterstr.","postalCode":"37081","locality":"Göttingen","municipality":{"key":"03159016","name":"Göttingen, Stadt","type":"Stadt"},"district":{"key":"03159","name":"Göttingen","type":"Landkreis"},"federalState":{"key":"03","name":"Niedersachsen"}},{"name":"Delbeeke","postalCode":"37079","locality":"Göttingen","municipality":{"key":"03159016","name":"Göttingen, Stadt","type":"Stadt"},"district":{"key":"03159","name":"Göttingen","type":"Landkreis"},"federalState":{"key":"03","name":"Niedersachsen"}},{"name":"Deneweg","postalCode":"37079","locality":"Göttingen","municipality":{"key":"03159016","name":"Göttingen, Stadt","type":"Stadt"},"district":{"key":"03159","name":"Göttingen","type":"Landkreis"},"federalState":{"key":"03","name":"Niedersachsen"}},{"name":"Den-Haag-Str.","postalCode":"37079","locality":"Göttingen","municipality":{"key":"03159016","name":"Göttingen, Stadt","type":"Stadt"},"district":{"key":"03159","name":"Göttingen","type":"Landkreis"},"federalState":{"key":"03","name":"Niedersachsen"}},{"name":"Deppoldshausen","postalCode":"37077","locality":"Göttingen","municipality":{"key":"03159016","name":"Göttingen, Stadt","type":"Stadt"},"district":{"key":"03159","name":"Göttingen","type":"Landkreis"},"federalState":{"key":"03","name":"Niedersachsen"}},{"name":"Dermeckestr.","postalCode":"37075","locality":"Göttingen","municipality":{"key":"03159016","name":"Göttingen, Stadt","type":"Stadt"},"district":{"key":"03159","name":"Göttingen","type":"Landkreis"},"federalState":{"key":"03","name":"Niedersachsen"}},{"name":"Dienstköpfestr.","postalCode":"37077","locality":"Göttingen","municipality":{"key":"03159016","name":"Göttingen, Stadt","type":"Stadt"},"district":{"key":"03159","name":"Göttingen","type":"Landkreis"},"federalState":{"key":"03","name":"Niedersachsen"}},{"name":"Dingelstädter Weg","postalCode":"37085","locality":"Göttingen","municipality":{"key":"03159016","name":"Göttingen, Stadt","type":"Stadt"},"district":{"key":"03159","name":"Göttingen","type":"Landkreis"},"federalState":{"key":"03","name":"Niedersachsen"}},{"name":"Distelweg","postalCode":"37077","locality":"Göttingen","municipality":{"key":"03159016","name":"Göttingen, Stadt","type":"Stadt"},"district":{"key":"03159","name":"Göttingen","type":"Landkreis"},"federalState":{"key":"03","name":"Niedersachsen"}},{"name":"Distelweg","postalCode":"37520","locality":"Harz (Landkreis Göttingen)","municipality":{"key":"03159501","name":"Harz (Landkreis Göttingen), gemfr. Geb.","type":"Gemeindefreies_Gebiet_Unbewohnt"},"district":{"key":"03159","name":"Göttingen","type":"Landkreis"},"federalState":{"key":"03","name":"Niedersachsen"}},{"name":"Domänenweg","postalCode":"37079","locality":"Göttingen","municipality":{"key":"03159016","name":"Göttingen, Stadt","type":"Stadt"},"district":{"key":"03159","name":"Göttingen","type":"Landkreis"},"federalState":{"key":"03","name":"Niedersachsen"}},{"name":"Dorothea-Schlözer-Bogen","postalCode":"37085","locality":"Göttingen","municipality":{"key":"03159016","name":"Göttingen, Stadt","type":"Stadt"},"district":{"key":"03159","name":"Göttingen","type":"Landkreis"},"federalState":{"key":"03","name":"Niedersachsen"}},{"name":"Dransfelder Rampe","postalCode":"37081","locality":"Göttingen","municipality":{"key":"03159016","name":"Göttingen, Stadt","type":"Stadt"},"district":{"key":"03159","name":"Göttingen","type":"Landkreis"},"federalState":{"key":"03","name":"Niedersachsen"}},{"name":"Dransfelder Str.","postalCode":"37079","locality":"Göttingen","municipality":{"key":"03159016","name":"Göttingen, Stadt","type":"Stadt"},"district":{"key":"03159","name":"Göttingen","type":"Landkreis"},"federalState":{"key":"03","name":"Niedersachsen"}},{"name":"Drei Brunnen","postalCode":"37077","locality":"Göttingen","municipality":{"key":"03159016","name":"Göttingen, Stadt","type":"Stadt"},"district":{"key":"03159","name":"Göttingen","type":"Landkreis"},"federalState":{"key":"03","name":"Niedersachsen"}},{"name":"Dresdener Str.","postalCode":"37085","locality":"Göttingen","municipality":{"key":"03159016","name":"Göttingen, Stadt","type":"Stadt"},"district":{"key":"03159","name":"Göttingen","type":"Landkreis"},"federalState":{"key":"03","name":"Niedersachsen"}},{"name":"Drosselstieg","postalCode":"37085","locality":"Göttingen","municipality":{"key":"03159016","name":"Göttingen, Stadt","type":"Stadt"},"district":{"key":"03159","name":"Göttingen","type":"Landkreis"},"federalState":{"key":"03","name":"Niedersachsen"}},{"name":"Droste-Hülshoff-Eck","postalCode":"37085","locality":"Göttingen","municipality":{"key":"03159016","name":"Göttingen, Stadt","type":"Stadt"},"district":{"key":"03159","name":"Göttingen","type":"Landkreis"},"federalState":{"key":"03","name":"Niedersachsen"}},{"name":"Dublinstr.","postalCode":"37079","locality":"Göttingen","municipality":{"key":"03159016","name":"Göttingen, Stadt","type":"Stadt"},"district":{"key":"03159","name":"Göttingen","type":"Landkreis"},"federalState":{"key":"03","name":"Niedersachsen"}},{"name":"Duderstädter Landstr.","postalCode":"37083","locality":"Göttingen","municipality":{"key":"03159016","name":"Göttingen, Stadt","type":"Stadt"},"district":{"key":"03159","name":"Göttingen","type":"Landkreis"},"federalState":{"key":"03","name":"Niedersachsen"}},{"name":"Dürrstr.","postalCode":"37083","locality":"Göttingen","municipality":{"key":"03159016","name":"Göttingen, Stadt","type":"Stadt"},"district":{"key":"03159","name":"Göttingen","type":"Landkreis"},"federalState":{"key":"03","name":"Niedersachsen"}},{"name":"Düstere-Eichen-Weg","postalCode":"37073","locality":"Göttingen","municipality":{"key":"03159016","name":"Göttingen, Stadt","type":"Stadt"},"district":{"key":"03159","name":"Göttingen","type":"Landkreis"},"federalState":{"key":"03","name":"Niedersachsen"}},{"name":"Düstertalweg","postalCode":"37431","locality":"Harz (Landkreis Göttingen)","municipality":{"key":"03159501","name":"Harz (Landkreis Göttingen), gemfr. Geb.","type":"Gemeindefreies_Gebiet_Unbewohnt"},"district":{"key":"03159","name":"Göttingen","type":"Landkreis"},"federalState":{"key":"03","name":"Niedersachsen"}},{"name":"Eichenweg","postalCode":"37434","locality":"Bilshausen","municipality":{"key":"03159005","name":"Bilshausen","type":"Kreisangehörige_Gemeinde"},"district":{"key":"03159","name":"Göttingen","type":"Landkreis"},"federalState":{"key":"03","name":"Niedersachsen"}},{"name":"Fabrikstr.","postalCode":"37434","locality":"Bilshausen","municipality":{"key":"03159005","name":"Bilshausen","type":"Kreisangehörige_Gemeinde"},"district":{"key":"03159","name":"Göttingen","type":"Landkreis"},"federalState":{"key":"03","name":"Niedersachsen"}},{"name":"Feldstr.","postalCode":"37434","locality":"Bilshausen","municipality":{"key":"03159005","name":"Bilshausen","type":"Kreisangehörige_Gemeinde"},"district":{"key":"03159","name":"Göttingen","type":"Landkreis"},"federalState":{"key":"03","name":"Niedersachsen"}},{"name":"Friedenstr.","postalCode":"37434","locality":"Bilshausen","municipality":{"key":"03159005","name":"Bilshausen","type":"Kreisangehörige_Gemeinde"},"district":{"key":"03159","name":"Göttingen","type":"Landkreis"},"federalState":{"key":"03","name":"Niedersachsen"}},{"name":"Gartenstr.","postalCode":"37434","locality":"Bilshausen","municipality":{"key":"03159005","name":"Bilshausen","type":"Kreisangehörige_Gemeinde"},"district":{"key":"03159","name":"Göttingen","type":"Landkreis"},"federalState":{"key":"03","name":"Niedersachsen"}},{"name":"Haferstr.","postalCode":"37434","locality":"Bilshausen","municipality":{"key":"03159005","name":"Bilshausen","type":"Kreisangehörige_Gemeinde"},"district":{"key":"03159","name":"Göttingen","type":"Landkreis"},"federalState":{"key":"03","name":"Niedersachsen"}},{"name":"Haldessenweg","postalCode":"37434","locality":"Bilshausen","municipality":{"key":"03159005","name":"Bilshausen","type":"Kreisangehörige_Gemeinde"},"district":{"key":"03159","name":"Göttingen","type":"Landkreis"},"federalState":{"key":"03","name":"Niedersachsen"}},{"name":"Hauptstr.","postalCode":"37434","locality":"Bilshausen","municipality":{"key":"03159005","name":"Bilshausen","type":"Kreisangehörige_Gemeinde"},"district":{"key":"03159","name":"Göttingen","type":"Landkreis"},"federalState":{"key":"03","name":"Niedersachsen"}},{"name":"Heiligenstädter Str.","postalCode":"37434","locality":"Bilshausen","municipality":{"key":"03159005","name":"Bilshausen","type":"Kreisangehörige_Gemeinde"},"district":{"key":"03159","name":"Göttingen","type":"Landkreis"},"federalState":{"key":"03","name":"Niedersachsen"}},{"name":"Hessenbergweg","postalCode":"37434","locality":"Bilshausen","municipality":{"key":"03159005","name":"Bilshausen","type":"Kreisangehörige_Gemeinde"},"district":{"key":"03159","name":"Göttingen","type":"Landkreis"},"federalState":{"key":"03","name":"Niedersachsen"}},{"name":"Höherbergblick","postalCode":"37434","locality":"Bilshausen","municipality":{"key":"03159005","name":"Bilshausen","type":"Kreisangehörige_Gemeinde"},"district":{"key":"03159","name":"Göttingen","type":"Landkreis"},"federalState":{"key":"03","name":"Niedersachsen"}},{"name":"Hoher Weg","postalCode":"37434","locality":"Bilshausen","municipality":{"key":"03159005","name":"Bilshausen","type":"Kreisangehörige_Gemeinde"},"district":{"key":"03159","name":"Göttingen","type":"Landkreis"},"federalState":{"key":"03","name":"Niedersachsen"}},{"name":"Im Alten Felde","postalCode":"37434","locality":"Bilshausen","municipality":{"key":"03159005","name":"Bilshausen","type":"Kreisangehörige_Gemeinde"},"district":{"key":"03159","name":"Göttingen","type":"Landkreis"},"federalState":{"key":"03","name":"Niedersachsen"}},{"name":"Im Osterbachsfelde","postalCode":"37434","locality":"Bilshausen","municipality":{"key":"03159005","name":"Bilshausen","type":"Kreisangehörige_Gemeinde"},"district":{"key":"03159","name":"Göttingen","type":"Landkreis"},"federalState":{"key":"03","name":"Niedersachsen"}},{"name":"Im Steinfelde","postalCode":"37434","locality":"Bilshausen","municipality":{"key":"03159005","name":"Bilshausen","type":"Kreisangehörige_Gemeinde"},"district":{"key":"03159","name":"Göttingen","type":"Landkreis"},"federalState":{"key":"03","name":"Niedersachsen"}},{"name":"Jagdhausweg","postalCode":"37520","locality":"Harz (Landkreis Göttingen)","municipality":{"key":"03159501","name":"Harz (Landkreis Göttingen), gemfr. Geb.","type":"Gemeindefreies_Gebiet_Unbewohnt"},"district":{"key":"03159","name":"Göttingen","type":"Landkreis"},"federalState":{"key":"03","name":"Niedersachsen"}},{"name":"Jägerstieg","postalCode":"37075","locality":"Göttingen","municipality":{"key":"03159016","name":"Göttingen, Stadt","type":"Stadt"},"district":{"key":"03159","name":"Göttingen","type":"Landkreis"},"federalState":{"key":"03","name":"Niedersachsen"}},{"name":"Jahnstr.","postalCode":"37073","locality":"Göttingen","municipality":{"key":"03159016","name":"Göttingen, Stadt","type":"Stadt"},"district":{"key":"03159","name":"Göttingen","type":"Landkreis"},"federalState":{"key":"03","name":"Niedersachsen"}},{"name":"Jakob-Henle-Str.","postalCode":"37075","locality":"Göttingen","municipality":{"key":"03159016","name":"Göttingen, Stadt","type":"Stadt"},"district":{"key":"03159","name":"Göttingen","type":"Landkreis"},"federalState":{"key":"03","name":"Niedersachsen"}},{"name":"James-Franck-Ring","postalCode":"37077","locality":"Göttingen","municipality":{"key":"03159016","name":"Göttingen, Stadt","type":"Stadt"},"district":{"key":"03159","name":"Göttingen","type":"Landkreis"},"federalState":{"key":"03","name":"Niedersachsen"}},{"name":"James-Graf-von-Moltke-Weg","postalCode":"37085","locality":"Göttingen","municipality":{"key":"03159016","name":"Göttingen, Stadt","type":"Stadt"},"district":{"key":"03159","name":"Göttingen","type":"Landkreis"},"federalState":{"key":"03","name":"Niedersachsen"}},{"name":"Janckeweg","postalCode":"37431","locality":"Harz (Landkreis Göttingen)","municipality":{"key":"03159501","name":"Harz (Landkreis Göttingen), gemfr. Geb.","type":"Gemeindefreies_Gebiet_Unbewohnt"},"district":{"key":"03159","name":"Göttingen","type":"Landkreis"},"federalState":{"key":"03","name":"Niedersachsen"}},{"name":"Jenaer Str.","postalCode":"37085","locality":"Göttingen","municipality":{"key":"03159016","name":"Göttingen, Stadt","type":"Stadt"},"district":{"key":"03159","name":"Göttingen","type":"Landkreis"},"federalState":{"key":"03","name":"Niedersachsen"}},{"name":"Jheringstr.","postalCode":"37081","locality":"Göttingen","municipality":{"key":"03159016","name":"Göttingen, Stadt","type":"Stadt"},"district":{"key":"03159","name":"Göttingen","type":"Landkreis"},"federalState":{"key":"03","name":"Niedersachsen"}},{"name":"Jobs-Böse-Str.","postalCode":"37085","locality":"Göttingen","municipality":{"key":"03159016","name":"Göttingen, Stadt","type":"Stadt"},"district":{"key":"03159","name":"Göttingen","type":"Landkreis"},"federalState":{"key":"03","name":"Niedersachsen"}},{"name":"Jochen-Brandi-Platz","postalCode":"37081","locality":"Göttingen","municipality":{"key":"03159016","name":"Göttingen, Stadt","type":"Stadt"},"district":{"key":"03159","name":"Göttingen","type":"Landkreis"},"federalState":{"key":"03","name":"Niedersachsen"}},{"name":"Johann-Heinrich-Voß-Weg","postalCode":"37085","locality":"Göttingen","municipality":{"key":"03159016","name":"Göttingen, Stadt","type":"Stadt"},"district":{"key":"03159","name":"Göttingen","type":"Landkreis"},"federalState":{"key":"03","name":"Niedersachsen"}},{"name":"Johann-Prinzhausen-Weg","postalCode":"37083","locality":"Göttingen","municipality":{"key":"03159016","name":"Göttingen, Stadt","type":"Stadt"},"district":{"key":"03159","name":"Göttingen","type":"Landkreis"},"federalState":{"key":"03","name":"Niedersachsen"}},{"name":"Jonaplatz","postalCode":"37081","locality":"Göttingen","municipality":{"key":"03159016","name":"Göttingen, Stadt","type":"Stadt"},"district":{"key":"03159","name":"Göttingen","type":"Landkreis"},"federalState":{"key":"03","name":"Niedersachsen"}},{"name":"Jüdenstr.","postalCode":"37073","locality":"Göttingen","municipality":{"key":"03159016","name":"Göttingen, Stadt","type":"Stadt"},"district":{"key":"03159","name":"Göttingen","type":"Landkreis"},"federalState":{"key":"03","name":"Niedersachsen"}},{"name":"Jugendwerkstatt-Weg","postalCode":"37520","locality":"Harz (Landkreis Göttingen)","municipality":{"key":"03159501","name":"Harz (Landkreis Göttingen), gemfr. Geb.","type":"Gemeindefreies_Gebiet_Unbewohnt"},"district":{"key":"03159","name":"Göttingen","type":"Landkreis"},"federalState":{"key":"03","name":"Niedersachsen"}},{"name":"Julia-Lermontowa-Weg","postalCode":"37077","locality":"Göttingen","municipality":{"key":"03159016","name":"Göttingen, Stadt","type":"Stadt"},"district":{"key":"03159","name":"Göttingen","type":"Landkreis"},"federalState":{"key":"03","name":"Niedersachsen"}},{"name":"Julius-Leber-Weg","postalCode":"37085","locality":"Göttingen","municipality":{"key":"03159016","name":"Göttingen, Stadt","type":"Stadt"},"district":{"key":"03159","name":"Göttingen","type":"Landkreis"},"federalState":{"key":"03","name":"Niedersachsen"}},{"name":"Jupiterweg","postalCode":"37077","locality":"Göttingen","municipality":{"key":"03159016","name":"Göttingen, Stadt","type":"Stadt"},"district":{"key":"03159","name":"Göttingen","type":"Landkreis"},"federalState":{"key":"03","name":"Niedersachsen"}},{"name":"Justus-von-Liebig-Weg","postalCode":"37077","locality":"Göttingen","municipality":{"key":"03159016","name":"Göttingen, Stadt","type":"Stadt"},"district":{"key":"03159","name":"Göttingen","type":"Landkreis"},"federalState":{"key":"03","name":"Niedersachsen"}},{"name":"Jutta-Limbach-Str.","postalCode":"37073","locality":"Göttingen","municipality":{"key":"03159016","name":"Göttingen, Stadt","type":"Stadt"},"district":{"key":"03159","name":"Göttingen","type":"Landkreis"},"federalState":{"key":"03","name":"Niedersachsen"}},{"name":"Kapellenweg","postalCode":"37434","locality":"Bilshausen","municipality":{"key":"03159005","name":"Bilshausen","type":"Kreisangehörige_Gemeinde"},"district":{"key":"03159","name":"Göttingen","type":"Landkreis"},"federalState":{"key":"03","name":"Niedersachsen"}},{"name":"Kirchstr.","postalCode":"37434","locality":"Bilshausen","municipality":{"key":"03159005","name":"Bilshausen","type":"Kreisangehörige_Gemeinde"},"district":{"key":"03159","name":"Göttingen","type":"Landkreis"},"federalState":{"key":"03","name":"Niedersachsen"}},{"name":"Kleine Bahnhofstr.","postalCode":"37434","locality":"Bilshausen","municipality":{"key":"03159005","name":"Bilshausen","type":"Kreisangehörige_Gemeinde"},"district":{"key":"03159","name":"Göttingen","type":"Landkreis"},"federalState":{"key":"03","name":"Niedersachsen"}},{"name":"Klingenberg","postalCode":"37434","locality":"Bilshausen","municipality":{"key":"03159005","name":"Bilshausen","type":"Kreisangehörige_Gemeinde"},"district":{"key":"03159","name":"Göttingen","type":"Landkreis"},"federalState":{"key":"03","name":"Niedersachsen"}},{"name":"Königsberger Str.","postalCode":"37434","locality":"Bilshausen","municipality":{"key":"03159005","name":"Bilshausen","type":"Kreisangehörige_Gemeinde"},"district":{"key":"03159","name":"Göttingen","type":"Landkreis"},"federalState":{"key":"03","name":"Niedersachsen"}},{"name":"Lindenstr.","postalCode":"37434","locality":"Bilshausen","municipality":{"key":"03159005","name":"Bilshausen","type":"Kreisangehörige_Gemeinde"},"district":{"key":"03159","name":"Göttingen","type":"Landkreis"},"federalState":{"key":"03","name":"Niedersachsen"}},{"name":"Mühlenstr.","postalCode":"37434","locality":"Bilshausen","municipality":{"key":"03159005","name":"Bilshausen","type":"Kreisangehörige_Gemeinde"},"district":{"key":"03159","name":"Göttingen","type":"Landkreis"},"federalState":{"key":"03","name":"Niedersachsen"}},{"name":"Nachtigallshof","postalCode":"37077","locality":"Göttingen","municipality":{"key":"03159016","name":"Göttingen, Stadt","type":"Stadt"},"district":{"key":"03159","name":"Göttingen","type":"Landkreis"},"federalState":{"key":"03","name":"Niedersachsen"}},{"name":"Narzissenweg","postalCode":"37081","locality":"Göttingen","municipality":{"key":"03159016","name":"Göttingen, Stadt","type":"Stadt"},"district":{"key":"03159","name":"Göttingen","type":"Landkreis"},"federalState":{"key":"03","name":"Niedersachsen"}},{"name":"Nasser Weg","postalCode":"37520","locality":"Harz (Landkreis Göttingen)","municipality":{"key":"03159501","name":"Harz (Landkreis Göttingen), gemfr. Geb.","type":"Gemeindefreies_Gebiet_Unbewohnt"},"district":{"key":"03159","name":"Göttingen","type":"Landkreis"},"federalState":{"key":"03","name":"Niedersachsen"}},{"name":"Naturfreundeweg","postalCode":"37079","locality":"Göttingen","municipality":{"key":"03159016","name":"Göttingen, Stadt","type":"Stadt"},"district":{"key":"03159","name":"Göttingen","type":"Landkreis"},"federalState":{"key":"03","name":"Niedersachsen"}},{"name":"Nelkenwinkel","postalCode":"37081","locality":"Göttingen","municipality":{"key":"03159016","name":"Göttingen, Stadt","type":"Stadt"},"district":{"key":"03159","name":"Göttingen","type":"Landkreis"},"federalState":{"key":"03","name":"Niedersachsen"}},{"name":"Neptunweg","postalCode":"37077","locality":"Göttingen","municipality":{"key":"03159016","name":"Göttingen, Stadt","type":"Stadt"},"district":{"key":"03159","name":"Göttingen","type":"Landkreis"},"federalState":{"key":"03","name":"Niedersachsen"}},{"name":"Nesselweg","postalCode":"37077","locality":"Göttingen","municipality":{"key":"03159016","name":"Göttingen, Stadt","type":"Stadt"},"district":{"key":"03159","name":"Göttingen","type":"Landkreis"},"federalState":{"key":"03","name":"Niedersachsen"}},{"name":"Nesselweg","postalCode":"37431","locality":"Harz (Landkreis Göttingen)","municipality":{"key":"03159501","name":"Harz (Landkreis Göttingen), gemfr. Geb.","type":"Gemeindefreies_Gebiet_Unbewohnt"},"district":{"key":"03159","name":"Göttingen","type":"Landkreis"},"federalState":{"key":"03","name":"Niedersachsen"}},{"name":"Neuer Bekweg","postalCode":"37079","locality":"Göttingen","municipality":{"key":"03159016","name":"Göttingen, Stadt","type":"Stadt"},"district":{"key":"03159","name":"Göttingen","type":"Landkreis"},"federalState":{"key":"03","name":"Niedersachsen"}},{"name":"Neuer Weg","postalCode":"37081","locality":"Göttingen","municipality":{"key":"03159016","name":"Göttingen, Stadt","type":"Stadt"},"district":{"key":"03159","name":"Göttingen","type":"Landkreis"},"federalState":{"key":"03","name":"Niedersachsen"}},{"name":"Neustadt","postalCode":"37073","locality":"Göttingen","municipality":{"key":"03159016","name":"Göttingen, Stadt","type":"Stadt"},"district":{"key":"03159","name":"Göttingen","type":"Landkreis"},"federalState":{"key":"03","name":"Niedersachsen"}},{"name":"Nientalweg","postalCode":"37431","locality":"Harz (Landkreis Göttingen)","municipality":{"key":"03159501","name":"Harz (Landkreis Göttingen), gemfr. Geb.","type":"Gemeindefreies_Gebiet_Unbewohnt"},"district":{"key":"03159","name":"Göttingen","type":"Landkreis"},"federalState":{"key":"03","name":"Niedersachsen"}},{"name":"Nikolaikirchhof","postalCode":"37073","locality":"Göttingen","municipality":{"key":"03159016","name":"Göttingen, Stadt","type":"Stadt"},"district":{"key":"03159","name":"Göttingen","type":"Landkreis"},"federalState":{"key":"03","name":"Niedersachsen"}},{"name":"Nikolaistr.","postalCode":"37073","locality":"Göttingen","municipality":{"key":"03159016","name":"Göttingen, Stadt","type":"Stadt"},"district":{"key":"03159","name":"Göttingen","type":"Landkreis"},"federalState":{"key":"03","name":"Niedersachsen"}},{"name":"Nikolausberger Weg","postalCode":"37073","locality":"Göttingen","municipality":{"key":"03159016","name":"Göttingen, Stadt","type":"Stadt"},"district":{"key":"03159","name":"Göttingen","type":"Landkreis"},"federalState":{"key":"03","name":"Niedersachsen"}},{"name":"Nikolausberger Weg","postalCode":"37075","locality":"Göttingen","municipality":{"key":"03159016","name":"Göttingen, Stadt","type":"Stadt"},"district":{"key":"03159","name":"Göttingen","type":"Landkreis"},"federalState":{"key":"03","name":"Niedersachsen"}},{"name":"Nonnenstieg","postalCode":"37075","locality":"Göttingen","municipality":{"key":"03159016","name":"Göttingen, Stadt","type":"Stadt"},"district":{"key":"03159","name":"Göttingen","type":"Landkreis"},"federalState":{"key":"03","name":"Niedersachsen"}},{"name":"Nordhäuser Weg","postalCode":"37085","locality":"Göttingen","municipality":{"key":"03159016","name":"Göttingen, Stadt","type":"Stadt"},"district":{"key":"03159","name":"Göttingen","type":"Landkreis"},"federalState":{"key":"03","name":"Niedersachsen"}},{"name":"Nordhoffstr.","postalCode":"37077","locality":"Göttingen","municipality":{"key":"03159016","name":"Göttingen, Stadt","type":"Stadt"},"district":{"key":"03159","name":"Göttingen","type":"Landkreis"},"federalState":{"key":"03","name":"Niedersachsen"}},{"name":"Nordstadtpark","postalCode":"37075","locality":"Göttingen","municipality":{"key":"03159016","name":"Göttingen, Stadt","type":"Stadt"},"district":{"key":"03159","name":"Göttingen","type":"Landkreis"},"federalState":{"key":"03","name":"Niedersachsen"}},{"name":"Nußanger","postalCode":"37079","locality":"Göttingen","municipality":{"key":"03159016","name":"Göttingen, Stadt","type":"Stadt"},"district":{"key":"03159","name":"Göttingen","type":"Landkreis"},"federalState":{"key":"03","name":"Niedersachsen"}},{"name":"Oershäuser Str.","postalCode":"37434","locality":"Bilshausen","municipality":{"key":"03159005","name":"Bilshausen","type":"Kreisangehörige_Gemeinde"},"district":{"key":"03159","name":"Göttingen","type":"Landkreis"},"federalState":{"key":"03","name":"Niedersachsen"}},{"name":"Osteroder Str.","postalCode":"37434","locality":"Bilshausen","municipality":{"key":"03159005","name":"Bilshausen","type":"Kreisangehörige_Gemeinde"},"district":{"key":"03159","name":"Göttingen","type":"Landkreis"},"federalState":{"key":"03","name":"Niedersachsen"}},{"name":"Ostlandweg","postalCode":"37434","locality":"Bilshausen","municipality":{"key":"03159005","name":"Bilshausen","type":"Kreisangehörige_Gemeinde"},"district":{"key":"03159","name":"Göttingen","type":"Landkreis"},"federalState":{"key":"03","name":"Niedersachsen"}},{"name":"Pastor-Unterberg-Str.","postalCode":"37434","locality":"Bilshausen","municipality":{"key":"03159005","name":"Bilshausen","type":"Kreisangehörige_Gemeinde"},"district":{"key":"03159","name":"Göttingen","type":"Landkreis"},"federalState":{"key":"03","name":"Niedersachsen"}},{"name":"Pfarrer-Opielka-Str.","postalCode":"37434","locality":"Bilshausen","municipality":{"key":"03159005","name":"Bilshausen","type":"Kreisangehörige_Gemeinde"},"district":{"key":"03159","name":"Göttingen","type":"Landkreis"},"federalState":{"key":"03","name":"Niedersachsen"}},{"name":"Pfarrer-Rudolph-Str.","postalCode":"37434","locality":"Bilshausen","municipality":{"key":"03159005","name":"Bilshausen","type":"Kreisangehörige_Gemeinde"},"district":{"key":"03159","name":"Göttingen","type":"Landkreis"},"federalState":{"key":"03","name":"Niedersachsen"}},{"name":"Pfarrstr.","postalCode":"37434","locality":"Bilshausen","municipality":{"key":"03159005","name":"Bilshausen","type":"Kreisangehörige_Gemeinde"},"district":{"key":"03159","name":"Göttingen","type":"Landkreis"},"federalState":{"key":"03","name":"Niedersachsen"}},{"name":"Quarztalweg","postalCode":"37520","locality":"Harz (Landkreis Göttingen)","municipality":{"key":"03159501","name":"Harz (Landkreis Göttingen), gemfr. Geb.","type":"Gemeindefreies_Gebiet_Unbewohnt"},"district":{"key":"03159","name":"Göttingen","type":"Landkreis"},"federalState":{"key":"03","name":"Niedersachsen"}},{"name":"Quitschenköpfe","postalCode":"37431","locality":"Harz (Landkreis Göttingen)","municipality":{"key":"03159501","name":"Harz (Landkreis Göttingen), gemfr. Geb.","type":"Gemeindefreies_Gebiet_Unbewohnt"},"district":{"key":"03159","name":"Göttingen","type":"Landkreis"},"federalState":{"key":"03","name":"Niedersachsen"}},{"name":"Quitschenweg","postalCode":"37520","locality":"Harz (Landkreis Göttingen)","municipality":{"key":"03159501","name":"Harz (Landkreis Göttingen), gemfr. Geb.","type":"Gemeindefreies_Gebiet_Unbewohnt"},"district":{"key":"03159","name":"Göttingen","type":"Landkreis"},"federalState":{"key":"03","name":"Niedersachsen"}},{"name":"Ritterstr.","postalCode":"37434","locality":"Bilshausen","municipality":{"key":"03159005","name":"Bilshausen","type":"Kreisangehörige_Gemeinde"},"district":{"key":"03159","name":"Göttingen","type":"Landkreis"},"federalState":{"key":"03","name":"Niedersachsen"}},{"name":"Rosenstr.","postalCode":"37434","locality":"Bilshausen","municipality":{"key":"03159005","name":"Bilshausen","type":"Kreisangehörige_Gemeinde"},"district":{"key":"03159","name":"Göttingen","type":"Landkreis"},"federalState":{"key":"03","name":"Niedersachsen"}},{"name":"Sandgraben","postalCode":"37434","locality":"Bilshausen","municipality":{"key":"03159005","name":"Bilshausen","type":"Kreisangehörige_Gemeinde"},"district":{"key":"03159","name":"Göttingen","type":"Landkreis"},"federalState":{"key":"03","name":"Niedersachsen"}},{"name":"Sandweg","postalCode":"37434","locality":"Bilshausen","municipality":{"key":"03159005","name":"Bilshausen","type":"Kreisangehörige_Gemeinde"},"district":{"key":"03159","name":"Göttingen","type":"Landkreis"},"federalState":{"key":"03","name":"Niedersachsen"}},{"name":"Schulstr.","postalCode":"37434","locality":"Bilshausen","municipality":{"key":"03159005","name":"Bilshausen","type":"Kreisangehörige_Gemeinde"},"district":{"key":"03159","name":"Göttingen","type":"Landkreis"},"federalState":{"key":"03","name":"Niedersachsen"}},{"name":"Schützenweg","postalCode":"37434","locality":"Bilshausen","municipality":{"key":"03159005","name":"Bilshausen","type":"Kreisangehörige_Gemeinde"},"district":{"key":"03159","name":"Göttingen","type":"Landkreis"},"federalState":{"key":"03","name":"Niedersachsen"}},{"name":"Siekweg","postalCode":"37434","locality":"Bilshausen","municipality":{"key":"03159005","name":"Bilshausen","type":"Kreisangehörige_Gemeinde"},"district":{"key":"03159","name":"Göttingen","type":"Landkreis"},"federalState":{"key":"03","name":"Niedersachsen"}},{"name":"St.-Bernardus-Str.","postalCode":"37434","locality":"Bilshausen","municipality":{"key":"03159005","name":"Bilshausen","type":"Kreisangehörige_Gemeinde"},"district":{"key":"03159","name":"Göttingen","type":"Landkreis"},"federalState":{"key":"03","name":"Niedersachsen"}},{"name":"St.-Vinzenz-Str.","postalCode":"37434","locality":"Bilshausen","municipality":{"key":"03159005","name":"Bilshausen","type":"Kreisangehörige_Gemeinde"},"district":{"key":"03159","name":"Göttingen","type":"Landkreis"},"federalState":{"key":"03","name":"Niedersachsen"}},{"name":"Teichstr.","postalCode":"37434","locality":"Bilshausen","municipality":{"key":"03159005","name":"Bilshausen","type":"Kreisangehörige_Gemeinde"},"district":{"key":"03159","name":"Göttingen","type":"Landkreis"},"federalState":{"key":"03","name":"Niedersachsen"}},{"name":"Uferweg","postalCode":"37077","locality":"Göttingen","municipality":{"key":"03159016","name":"Göttingen, Stadt","type":"Stadt"},"district":{"key":"03159","name":"Göttingen","type":"Landkreis"},"federalState":{"key":"03","name":"Niedersachsen"}},{"name":"Uhlenloch","postalCode":"37077","locality":"Göttingen","municipality":{"key":"03159016","name":"Göttingen, Stadt","type":"Stadt"},"district":{"key":"03159","name":"Göttingen","type":"Landkreis"},"federalState":{"key":"03","name":"Niedersachsen"}},{"name":"Ulmenweg","postalCode":"37077","locality":"Göttingen","municipality":{"key":"03159016","name":"Göttingen, Stadt","type":"Stadt"},"district":{"key":"03159","name":"Göttingen","type":"Landkreis"},"federalState":{"key":"03","name":"Niedersachsen"}},{"name":"Ulmer Weg","postalCode":"37520","locality":"Harz (Landkreis Göttingen)","municipality":{"key":"03159501","name":"Harz (Landkreis Göttingen), gemfr. Geb.","type":"Gemeindefreies_Gebiet_Unbewohnt"},"district":{"key":"03159","name":"Göttingen","type":"Landkreis"},"federalState":{"key":"03","name":"Niedersachsen"}},{"name":"Ulrichstal","postalCode":"37445","locality":"Harz (Landkreis Göttingen)","municipality":{"key":"03159501","name":"Harz (Landkreis Göttingen), gemfr. Geb.","type":"Gemeindefreies_Gebiet_Unbewohnt"},"district":{"key":"03159","name":"Göttingen","type":"Landkreis"},"federalState":{"key":"03","name":"Niedersachsen"}},{"name":"Ulrich-Venzlaff-Str.","postalCode":"37081","locality":"Göttingen","municipality":{"key":"03159016","name":"Göttingen, Stadt","type":"Stadt"},"district":{"key":"03159","name":"Göttingen","type":"Landkreis"},"federalState":{"key":"03","name":"Niedersachsen"}},{"name":"Ulrideshuser Str.","postalCode":"37077","locality":"Göttingen","municipality":{"key":"03159016","name":"Göttingen, Stadt","type":"Stadt"},"district":{"key":"03159","name":"Göttingen","type":"Landkreis"},"federalState":{"key":"03","name":"Niedersachsen"}},{"name":"Ulrike-von-Heynitz-Str.","postalCode":"37073","locality":"Göttingen","municipality":{"key":"03159016","name":"Göttingen, Stadt","type":"Stadt"},"district":{"key":"03159","name":"Göttingen","type":"Landkreis"},"federalState":{"key":"03","name":"Niedersachsen"}},{"name":"Unter dem Kloster","postalCode":"37077","locality":"Göttingen","municipality":{"key":"03159016","name":"Göttingen, Stadt","type":"Stadt"},"district":{"key":"03159","name":"Göttingen","type":"Landkreis"},"federalState":{"key":"03","name":"Niedersachsen"}},{"name":"Unter dem Schmalberg","postalCode":"37079","locality":"Göttingen","municipality":{"key":"03159016","name":"Göttingen, Stadt","type":"Stadt"},"district":{"key":"03159","name":"Göttingen","type":"Landkreis"},"federalState":{"key":"03","name":"Niedersachsen"}},{"name":"Unter den Linden","postalCode":"37085","locality":"Göttingen","municipality":{"key":"03159016","name":"Göttingen, Stadt","type":"Stadt"},"district":{"key":"03159","name":"Göttingen","type":"Landkreis"},"federalState":{"key":"03","name":"Niedersachsen"}},{"name":"Unter der Brunnenbreite","postalCode":"37079","locality":"Göttingen","municipality":{"key":"03159016","name":"Göttingen, Stadt","type":"Stadt"},"district":{"key":"03159","name":"Göttingen","type":"Landkreis"},"federalState":{"key":"03","name":"Niedersachsen"}},{"name":"Unter der Pfalz","postalCode":"37079","locality":"Göttingen","municipality":{"key":"03159016","name":"Göttingen, Stadt","type":"Stadt"},"district":{"key":"03159","name":"Göttingen","type":"Landkreis"},"federalState":{"key":"03","name":"Niedersachsen"}},{"name":"Unter der Rodebreite","postalCode":"37079","locality":"Göttingen","municipality":{"key":"03159016","name":"Göttingen, Stadt","type":"Stadt"},"district":{"key":"03159","name":"Göttingen","type":"Landkreis"},"federalState":{"key":"03","name":"Niedersachsen"}},{"name":"Untere Dorfstr.","postalCode":"37083","locality":"Göttingen","municipality":{"key":"03159016","name":"Göttingen, Stadt","type":"Stadt"},"district":{"key":"03159","name":"Göttingen","type":"Landkreis"},"federalState":{"key":"03","name":"Niedersachsen"}},{"name":"Untere Karspüle","postalCode":"37073","locality":"Göttingen","municipality":{"key":"03159016","name":"Göttingen, Stadt","type":"Stadt"},"district":{"key":"03159","name":"Göttingen","type":"Landkreis"},"federalState":{"key":"03","name":"Niedersachsen"}},{"name":"Untere Lindenbreite","postalCode":"37077","locality":"Göttingen","municipality":{"key":"03159016","name":"Göttingen, Stadt","type":"Stadt"},"district":{"key":"03159","name":"Göttingen","type":"Landkreis"},"federalState":{"key":"03","name":"Niedersachsen"}},{"name":"Untere-Masch-Str.","postalCode":"37073","locality":"Göttingen","municipality":{"key":"03159016","name":"Göttingen, Stadt","type":"Stadt"},"district":{"key":"03159","name":"Göttingen","type":"Landkreis"},"federalState":{"key":"03","name":"Niedersachsen"}},{"name":"Unterer Elstalsweg","postalCode":"37079","locality":"Göttingen","municipality":{"key":"03159016","name":"Göttingen, Stadt","type":"Stadt"},"district":{"key":"03159","name":"Göttingen","type":"Landkreis"},"federalState":{"key":"03","name":"Niedersachsen"}},{"name":"Unterer Heustellenweg","postalCode":"37079","locality":"Göttingen","municipality":{"key":"03159016","name":"Göttingen, Stadt","type":"Stadt"},"district":{"key":"03159","name":"Göttingen","type":"Landkreis"},"federalState":{"key":"03","name":"Niedersachsen"}},{"name":"Unterer Mittelbergsweg","postalCode":"37079","locality":"Göttingen","municipality":{"key":"03159016","name":"Göttingen, Stadt","type":"Stadt"},"district":{"key":"03159","name":"Göttingen","type":"Landkreis"},"federalState":{"key":"03","name":"Niedersachsen"}},{"name":"Unterer Reekenweg","postalCode":"37079","locality":"Göttingen","municipality":{"key":"03159016","name":"Göttingen, Stadt","type":"Stadt"},"district":{"key":"03159","name":"Göttingen","type":"Landkreis"},"federalState":{"key":"03","name":"Niedersachsen"}},{"name":"Unterer Teichtalsweg","postalCode":"37412","locality":"Harz (Landkreis Göttingen)","municipality":{"key":"03159501","name":"Harz (Landkreis Göttingen), gemfr. Geb.","type":"Gemeindefreies_Gebiet_Unbewohnt"},"district":{"key":"03159","name":"Göttingen","type":"Landkreis"},"federalState":{"key":"03","name":"Niedersachsen"}},{"name":"Unterer Weg","postalCode":"37079","locality":"Göttingen","municipality":{"key":"03159016","name":"Göttingen, Stadt","type":"Stadt"},"district":{"key":"03159","name":"Göttingen","type":"Landkreis"},"federalState":{"key":"03","name":"Niedersachsen"}},{"name":"Unterfeldring","postalCode":"37083","locality":"Göttingen","municipality":{"key":"03159016","name":"Göttingen, Stadt","type":"Stadt"},"district":{"key":"03159","name":"Göttingen","type":"Landkreis"},"federalState":{"key":"03","name":"Niedersachsen"}},{"name":"Unterm Hagen","postalCode":"37079","locality":"Göttingen","municipality":{"key":"03159016","name":"Göttingen, Stadt","type":"Stadt"},"district":{"key":"03159","name":"Göttingen","type":"Landkreis"},"federalState":{"key":"03","name":"Niedersachsen"}},{"name":"Unterm Hoppenberge","postalCode":"37079","locality":"Göttingen","municipality":{"key":"03159016","name":"Göttingen, Stadt","type":"Stadt"},"district":{"key":"03159","name":"Göttingen","type":"Landkreis"},"federalState":{"key":"03","name":"Niedersachsen"}},{"name":"Uranusweg","postalCode":"37077","locality":"Göttingen","municipality":{"key":"03159016","name":"Göttingen, Stadt","type":"Stadt"},"district":{"key":"03159","name":"Göttingen","type":"Landkreis"},"federalState":{"key":"03","name":"Niedersachsen"}},{"name":"Vor dem Thore","postalCode":"37434","locality":"Bilshausen","municipality":{"key":"03159005","name":"Bilshausen","type":"Kreisangehörige_Gemeinde"},"district":{"key":"03159","name":"Göttingen","type":"Landkreis"},"federalState":{"key":"03","name":"Niedersachsen"}},{"name":"Westerberg","postalCode":"37434","locality":"Bilshausen","municipality":{"key":"03159005","name":"Bilshausen","type":"Kreisangehörige_Gemeinde"},"district":{"key":"03159","name":"Göttingen","type":"Landkreis"},"federalState":{"key":"03","name":"Niedersachsen"}},{"name":"Wiesenweg","postalCode":"37434","locality":"Bilshausen","municipality":{"key":"03159005","name":"Bilshausen","type":"Kreisangehörige_Gemeinde"},"district":{"key":"03159","name":"Göttingen","type":"Landkreis"},"federalState":{"key":"03","name":"Niedersachsen"}},{"name":"Worbiser Str.","postalCode":"37434","locality":"Bilshausen","municipality":{"key":"03159005","name":"Bilshausen","type":"Kreisangehörige_Gemeinde"},"district":{"key":"03159","name":"Göttingen","type":"Landkreis"},"federalState":{"key":"03","name":"Niedersachsen"}},{"name":"Zacharias-Kempe-Eck","postalCode":"37079","locality":"Göttingen","municipality":{"key":"03159016","name":"Göttingen, Stadt","type":"Stadt"},"district":{"key":"03159","name":"Göttingen","type":"Landkreis"},"federalState":{"key":"03","name":"Niedersachsen"}},{"name":"Zedernweg","postalCode":"37077","locality":"Göttingen","municipality":{"key":"03159016","name":"Göttingen, Stadt","type":"Stadt"},"district":{"key":"03159","name":"Göttingen","type":"Landkreis"},"federalState":{"key":"03","name":"Niedersachsen"}},{"name":"Zehntscheuerstr.","postalCode":"37081","locality":"Göttingen","municipality":{"key":"03159016","name":"Göttingen, Stadt","type":"Stadt"},"district":{"key":"03159","name":"Göttingen","type":"Landkreis"},"federalState":{"key":"03","name":"Niedersachsen"}},{"name":"Zeppelinstr.","postalCode":"37083","locality":"Göttingen","municipality":{"key":"03159016","name":"Göttingen, Stadt","type":"Stadt"},"district":{"key":"03159","name":"Göttingen","type":"Landkreis"},"federalState":{"key":"03","name":"Niedersachsen"}},{"name":"Zieglerskopfweg","postalCode":"37431","locality":"Harz (Landkreis Göttingen)","municipality":{"key":"03159501","name":"Harz (Landkreis Göttingen), gemfr. Geb.","type":"Gemeindefreies_Gebiet_Unbewohnt"},"district":{"key":"03159","name":"Göttingen","type":"Landkreis"},"federalState":{"key":"03","name":"Niedersachsen"}},{"name":"Zierkirschenallee","postalCode":"37081","locality":"Göttingen","municipality":{"key":"03159016","name":"Göttingen, Stadt","type":"Stadt"},"district":{"key":"03159","name":"Göttingen","type":"Landkreis"},"federalState":{"key":"03","name":"Niedersachsen"}},{"name":"Zimmermannstr.","postalCode":"37075","locality":"Göttingen","municipality":{"key":"03159016","name":"Göttingen, Stadt","type":"Stadt"},"district":{"key":"03159","name":"Göttingen","type":"Landkreis"},"federalState":{"key":"03","name":"Niedersachsen"}},{"name":"Zimmermannsweg","postalCode":"37520","locality":"Harz (Landkreis Göttingen)","municipality":{"key":"03159501","name":"Harz (Landkreis Göttingen), gemfr. Geb.","type":"Gemeindefreies_Gebiet_Unbewohnt"},"district":{"key":"03159","name":"Göttingen","type":"Landkreis"},"federalState":{"key":"03","name":"Niedersachsen"}},{"name":"Zollstock","postalCode":"37081","locality":"Göttingen","municipality":{"key":"03159016","name":"Göttingen, Stadt","type":"Stadt"},"district":{"key":"03159","name":"Göttingen","type":"Landkreis"},"federalState":{"key":"03","name":"Niedersachsen"}},{"name":"Zorger Weg","postalCode":"37445","locality":"Harz (Landkreis Göttingen)","municipality":{"key":"03159501","name":"Harz (Landkreis Göttingen), gemfr. Geb.","type":"Gemeindefreies_Gebiet_Unbewohnt"},"district":{"key":"03159","name":"Göttingen","type":"Landkreis"},"federalState":{"key":"03","name":"Niedersachsen"}},{"name":"Zum Gallbühl","postalCode":"37079","locality":"Göttingen","municipality":{"key":"03159016","name":"Göttingen, Stadt","type":"Stadt"},"district":{"key":"03159","name":"Göttingen","type":"Landkreis"},"federalState":{"key":"03","name":"Niedersachsen"}},{"name":"Zum Hohen Brunnen","postalCode":"37075","locality":"Göttingen","municipality":{"key":"03159016","name":"Göttingen, Stadt","type":"Stadt"},"district":{"key":"03159","name":"Göttingen","type":"Landkreis"},"federalState":{"key":"03","name":"Niedersachsen"}},{"name":"Zum Kartoffelstein","postalCode":"37075","locality":"Göttingen","municipality":{"key":"03159016","name":"Göttingen, Stadt","type":"Stadt"},"district":{"key":"03159","name":"Göttingen","type":"Landkreis"},"federalState":{"key":"03","name":"Niedersachsen"}},{"name":"Zum Kuhberg","postalCode":"37079","locality":"Göttingen","municipality":{"key":"03159016","name":"Göttingen, Stadt","type":"Stadt"},"district":{"key":"03159","name":"Göttingen","type":"Landkreis"},"federalState":{"key":"03","name":"Niedersachsen"}},{"name":"Zum Kuhlenberg","postalCode":"37079","locality":"Göttingen","municipality":{"key":"03159016","name":"Göttingen, Stadt","type":"Stadt"},"district":{"key":"03159","name":"Göttingen","type":"Landkreis"},"federalState":{"key":"03","name":"Niedersachsen"}},{"name":"Zum Kükenberg","postalCode":"37079","locality":"Göttingen","municipality":{"key":"03159016","name":"Göttingen, Stadt","type":"Stadt"},"district":{"key":"03159","name":"Göttingen","type":"Landkreis"},"federalState":{"key":"03","name":"Niedersachsen"}},{"name":"Zum Leineufer","postalCode":"37081","locality":"Göttingen","municipality":{"key":"03159016","name":"Göttingen, Stadt","type":"Stadt"},"district":{"key":"03159","name":"Göttingen","type":"Landkreis"},"federalState":{"key":"03","name":"Niedersachsen"}},{"name":"Zum Loh","postalCode":"37079","locality":"Göttingen","municipality":{"key":"03159016","name":"Göttingen, Stadt","type":"Stadt"},"district":{"key":"03159","name":"Göttingen","type":"Landkreis"},"federalState":{"key":"03","name":"Niedersachsen"}},{"name":"Zum Ortloh","postalCode":"37077","locality":"Göttingen","municipality":{"key":"03159016","name":"Göttingen, Stadt","type":"Stadt"},"district":{"key":"03159","name":"Göttingen","type":"Landkreis"},"federalState":{"key":"03","name":"Niedersachsen"}},{"name":"Zum Rischen","postalCode":"37079","locality":"Göttingen","municipality":{"key":"03159016","name":"Göttingen, Stadt","type":"Stadt"},"district":{"key":"03159","name":"Göttingen","type":"Landkreis"},"federalState":{"key":"03","name":"Niedersachsen"}},{"name":"Zum Sommerberg","postalCode":"37079","locality":"Göttingen","municipality":{"key":"03159016","name":"Göttingen, Stadt","type":"Stadt"},"district":{"key":"03159","name":"Göttingen","type":"Landkreis"},"federalState":{"key":"03","name":"Niedersachsen"}},{"name":"Zum Sonsfelde","postalCode":"37079","locality":"Göttingen","municipality":{"key":"03159016","name":"Göttingen, Stadt","type":"Stadt"},"district":{"key":"03159","name":"Göttingen","type":"Landkreis"},"federalState":{"key":"03","name":"Niedersachsen"}},{"name":"Zum Umsetzer","postalCode":"37520","locality":"Harz (Landkreis Göttingen)","municipality":{"key":"03159501","name":"Harz (Landkreis Göttingen), gemfr. Geb.","type":"Gemeindefreies_Gebiet_Unbewohnt"},"district":{"key":"03159","name":"Göttingen","type":"Landkreis"},"federalState":{"key":"03","name":"Niedersachsen"}},{"name":"Zur Akelei","postalCode":"37077","locality":"Göttingen","municipality":{"key":"03159016","name":"Göttingen, Stadt","type":"Stadt"},"district":{"key":"03159","name":"Göttingen","type":"Landkreis"},"federalState":{"key":"03","name":"Niedersachsen"}},{"name":"Zur Hohen Warte","postalCode":"37077","locality":"Göttingen","municipality":{"key":"03159016","name":"Göttingen, Stadt","type":"Stadt"},"district":{"key":"03159","name":"Göttingen","type":"Landkreis"},"federalState":{"key":"03","name":"Niedersachsen"}},{"name":"Zur Quelle","postalCode":"37079","locality":"Göttingen","municipality":{"key":"03159016","name":"Göttingen, Stadt","type":"Stadt"},"district":{"key":"03159","name":"Göttingen","type":"Landkreis"},"federalState":{"key":"03","name":"Niedersachsen"}},{"name":"Zur Scharfmühle","postalCode":"37083","locality":"Göttingen","municipality":{"key":"03159016","name":"Göttingen, Stadt","type":"Stadt"},"district":{"key":"03159","name":"Göttingen","type":"Landkreis"},"federalState":{"key":"03","name":"Niedersachsen"}},{"name":"Äbtissinnenweg","postalCode":"37079","locality":"Göttingen","municipality":{"key":"03159016","name":"Göttingen, Stadt","type":"Stadt"},"district":{"key":"03159","name":"Göttingen","type":"Landkreis"},"federalState":{"key":"03","name":"Niedersachsen"}},{"name":"Über der Trift","postalCode":"37434","locality":"Bilshausen","municipality":{"key":"03159005","name":"Bilshausen","type":"Kreisangehörige_Gemeinde"},"district":{"key":"03159","name":"Göttingen","type":"Landkreis"},"federalState":{"key":"03","name":"Niedersachsen"}},]