[{"name":"Albertshofen","postalCode":"92355","locality":"Velburg","municipality":{"key":"09373167","name":"Velburg, St","type":"Stadt"},"district":{"key":"09373","name":"Neumarkt i.d.OPf.","type":"Landkreis"},"federalState":{"key":"09","name":"Bayern"}},{"name":"Allersburg","postalCode":"92355","locality":"Velburg","municipality":{"key":"09373167","name":"Velburg, St","type":"Stadt"},"district":{"key":"09373","name":"Neumarkt i.d.OPf.","type":"Landkreis"},"federalState":{"key":"09","name":"Bayern"}},{"name":"Alte Seubersdorfer Str.","postalCode":"92355","locality":"Velburg","municipality":{"key":"09373167","name":"Velburg, St","type":"Stadt"},"district":{"key":"09373","name":"Neumarkt i.d.OPf.","type":"Landkreis"},"federalState":{"key":"09","name":"Bayern"}},{"name":"Am Anger","postalCode":"92355","locality":"Velburg","municipality":{"key":"09373167","name":"Velburg, St","type":"Stadt"},"district":{"key":"09373","name":"Neumarkt i.d.OPf.","type":"Landkreis"},"federalState":{"key":"09","name":"Bayern"}},{"name":"Am Bierweg","postalCode":"92355","locality":"Velburg","municipality":{"key":"09373167","name":"Velburg, St","type":"Stadt"},"district":{"key":"09373","name":"Neumarkt i.d.OPf.","type":"Landkreis"},"federalState":{"key":"09","name":"Bayern"}},{"name":"Am Eichelberg","postalCode":"92355","locality":"Velburg","municipality":{"key":"09373167","name":"Velburg, St","type":"Stadt"},"district":{"key":"09373","name":"Neumarkt i.d.OPf.","type":"Landkreis"},"federalState":{"key":"09","name":"Bayern"}},{"name":"Am Finkenherd","postalCode":"92355","locality":"Velburg","municipality":{"key":"09373167","name":"Velburg, St","type":"Stadt"},"district":{"key":"09373","name":"Neumarkt i.d.OPf.","type":"Landkreis"},"federalState":{"key":"09","name":"Bayern"}},{"name":"Am Herzogsberg","postalCode":"92355","locality":"Velburg","municipality":{"key":"09373167","name":"Velburg, St","type":"Stadt"},"district":{"key":"09373","name":"Neumarkt i.d.OPf.","type":"Landkreis"},"federalState":{"key":"09","name":"Bayern"}},{"name":"Am hohen Kreuz","postalCode":"92355","locality":"Velburg","municipality":{"key":"09373167","name":"Velburg, St","type":"Stadt"},"district":{"key":"09373","name":"Neumarkt i.d.OPf.","type":"Landkreis"},"federalState":{"key":"09","name":"Bayern"}},{"name":"Am Kreuzwinkel","postalCode":"92355","locality":"Velburg","municipality":{"key":"09373167","name":"Velburg, St","type":"Stadt"},"district":{"key":"09373","name":"Neumarkt i.d.OPf.","type":"Landkreis"},"federalState":{"key":"09","name":"Bayern"}},{"name":"Am Ring","postalCode":"92355","locality":"Velburg","municipality":{"key":"09373167","name":"Velburg, St","type":"Stadt"},"district":{"key":"09373","name":"Neumarkt i.d.OPf.","type":"Landkreis"},"federalState":{"key":"09","name":"Bayern"}},{"name":"Am Rötel","postalCode":"92355","locality":"Velburg","municipality":{"key":"09373167","name":"Velburg, St","type":"Stadt"},"district":{"key":"09373","name":"Neumarkt i.d.OPf.","type":"Landkreis"},"federalState":{"key":"09","name":"Bayern"}},{"name":"Am Sandacker","postalCode":"92355","locality":"Velburg","municipality":{"key":"09373167","name":"Velburg, St","type":"Stadt"},"district":{"key":"09373","name":"Neumarkt i.d.OPf.","type":"Landkreis"},"federalState":{"key":"09","name":"Bayern"}},{"name":"Amselweg","postalCode":"92355","locality":"Velburg","municipality":{"key":"09373167","name":"Velburg, St","type":"Stadt"},"district":{"key":"09373","name":"Neumarkt i.d.OPf.","type":"Landkreis"},"federalState":{"key":"09","name":"Bayern"}},{"name":"Am Vogelherd","postalCode":"92355","locality":"Velburg","municipality":{"key":"09373167","name":"Velburg, St","type":"Stadt"},"district":{"key":"09373","name":"Neumarkt i.d.OPf.","type":"Landkreis"},"federalState":{"key":"09","name":"Bayern"}},{"name":"An der Trift","postalCode":"92355","locality":"Velburg","municipality":{"key":"09373167","name":"Velburg, St","type":"Stadt"},"district":{"key":"09373","name":"Neumarkt i.d.OPf.","type":"Landkreis"},"federalState":{"key":"09","name":"Bayern"}},{"name":"Bachstr.","postalCode":"92355","locality":"Velburg","municipality":{"key":"09373167","name":"Velburg, St","type":"Stadt"},"district":{"key":"09373","name":"Neumarkt i.d.OPf.","type":"Landkreis"},"federalState":{"key":"09","name":"Bayern"}},{"name":"Bergstr.","postalCode":"92355","locality":"Velburg","municipality":{"key":"09373167","name":"Velburg, St","type":"Stadt"},"district":{"key":"09373","name":"Neumarkt i.d.OPf.","type":"Landkreis"},"federalState":{"key":"09","name":"Bayern"}},{"name":"Bernla","postalCode":"92355","locality":"Velburg","municipality":{"key":"09373167","name":"Velburg, St","type":"Stadt"},"district":{"key":"09373","name":"Neumarkt i.d.OPf.","type":"Landkreis"},"federalState":{"key":"09","name":"Bayern"}},{"name":"Birkenweg","postalCode":"92355","locality":"Velburg","municipality":{"key":"09373167","name":"Velburg, St","type":"Stadt"},"district":{"key":"09373","name":"Neumarkt i.d.OPf.","type":"Landkreis"},"federalState":{"key":"09","name":"Bayern"}},{"name":"Bockenbergweg (KM)","postalCode":"92355","locality":"Velburg","municipality":{"key":"09373167","name":"Velburg, St","type":"Stadt"},"district":{"key":"09373","name":"Neumarkt i.d.OPf.","type":"Landkreis"},"federalState":{"key":"09","name":"Bayern"}},{"name":"Bogenhofer Weg","postalCode":"92355","locality":"Velburg","municipality":{"key":"09373167","name":"Velburg, St","type":"Stadt"},"district":{"key":"09373","name":"Neumarkt i.d.OPf.","type":"Landkreis"},"federalState":{"key":"09","name":"Bayern"}},{"name":"Bolzplatz Freudenricht","postalCode":"92355","locality":"Velburg","municipality":{"key":"09373167","name":"Velburg, St","type":"Stadt"},"district":{"key":"09373","name":"Neumarkt i.d.OPf.","type":"Landkreis"},"federalState":{"key":"09","name":"Bayern"}},{"name":"Brunnenholzweg","postalCode":"92355","locality":"Velburg","municipality":{"key":"09373167","name":"Velburg, St","type":"Stadt"},"district":{"key":"09373","name":"Neumarkt i.d.OPf.","type":"Landkreis"},"federalState":{"key":"09","name":"Bayern"}},{"name":"Brunnenplatz","postalCode":"92355","locality":"Velburg","municipality":{"key":"09373167","name":"Velburg, St","type":"Stadt"},"district":{"key":"09373","name":"Neumarkt i.d.OPf.","type":"Landkreis"},"federalState":{"key":"09","name":"Bayern"}},{"name":"Buchenweg","postalCode":"92355","locality":"Velburg","municipality":{"key":"09373167","name":"Velburg, St","type":"Stadt"},"district":{"key":"09373","name":"Neumarkt i.d.OPf.","type":"Landkreis"},"federalState":{"key":"09","name":"Bayern"}},{"name":"Burgstr.","postalCode":"92355","locality":"Velburg","municipality":{"key":"09373167","name":"Velburg, St","type":"Stadt"},"district":{"key":"09373","name":"Neumarkt i.d.OPf.","type":"Landkreis"},"federalState":{"key":"09","name":"Bayern"}},{"name":"Christoph-Probst-Str.","postalCode":"92348","locality":"Berg b.Neumarkt i.d.OPf.","municipality":{"key":"09373113","name":"Berg b.Neumarkt i.d.OPf.","type":"Kreisangehörige_Gemeinde"},"district":{"key":"09373","name":"Neumarkt i.d.OPf.","type":"Landkreis"},"federalState":{"key":"09","name":"Bayern"}},{"name":"Dantersdorf","postalCode":"92355","locality":"Velburg","municipality":{"key":"09373167","name":"Velburg, St","type":"Stadt"},"district":{"key":"09373","name":"Neumarkt i.d.OPf.","type":"Landkreis"},"federalState":{"key":"09","name":"Bayern"}},{"name":"Dantersdorfer Weg","postalCode":"92355","locality":"Velburg","municipality":{"key":"09373167","name":"Velburg, St","type":"Stadt"},"district":{"key":"09373","name":"Neumarkt i.d.OPf.","type":"Landkreis"},"federalState":{"key":"09","name":"Bayern"}},{"name":"Deusmauer","postalCode":"92355","locality":"Velburg","municipality":{"key":"09373167","name":"Velburg, St","type":"Stadt"},"district":{"key":"09373","name":"Neumarkt i.d.OPf.","type":"Landkreis"},"federalState":{"key":"09","name":"Bayern"}},{"name":"Deusmauerer Str.","postalCode":"92355","locality":"Velburg","municipality":{"key":"09373167","name":"Velburg, St","type":"Stadt"},"district":{"key":"09373","name":"Neumarkt i.d.OPf.","type":"Landkreis"},"federalState":{"key":"09","name":"Bayern"}},{"name":"Diesenhof","postalCode":"92355","locality":"Velburg","municipality":{"key":"09373167","name":"Velburg, St","type":"Stadt"},"district":{"key":"09373","name":"Neumarkt i.d.OPf.","type":"Landkreis"},"federalState":{"key":"09","name":"Bayern"}},{"name":"Dorfstr.","postalCode":"92355","locality":"Velburg","municipality":{"key":"09373167","name":"Velburg, St","type":"Stadt"},"district":{"key":"09373","name":"Neumarkt i.d.OPf.","type":"Landkreis"},"federalState":{"key":"09","name":"Bayern"}},{"name":"Dr.-Ludwig-Str.","postalCode":"92355","locality":"Velburg","municipality":{"key":"09373167","name":"Velburg, St","type":"Stadt"},"district":{"key":"09373","name":"Neumarkt i.d.OPf.","type":"Landkreis"},"federalState":{"key":"09","name":"Bayern"}},{"name":"Drosselweg","postalCode":"92355","locality":"Velburg","municipality":{"key":"09373167","name":"Velburg, St","type":"Stadt"},"district":{"key":"09373","name":"Neumarkt i.d.OPf.","type":"Landkreis"},"federalState":{"key":"09","name":"Bayern"}},{"name":"Dürnbergweg","postalCode":"92355","locality":"Velburg","municipality":{"key":"09373167","name":"Velburg, St","type":"Stadt"},"district":{"key":"09373","name":"Neumarkt i.d.OPf.","type":"Landkreis"},"federalState":{"key":"09","name":"Bayern"}},{"name":"Dürrnbergweg","postalCode":"92355","locality":"Velburg","municipality":{"key":"09373167","name":"Velburg, St","type":"Stadt"},"district":{"key":"09373","name":"Neumarkt i.d.OPf.","type":"Landkreis"},"federalState":{"key":"09","name":"Bayern"}},{"name":"Eichelangerweg","postalCode":"92355","locality":"Velburg","municipality":{"key":"09373167","name":"Velburg, St","type":"Stadt"},"district":{"key":"09373","name":"Neumarkt i.d.OPf.","type":"Landkreis"},"federalState":{"key":"09","name":"Bayern"}},{"name":"Eremiten-Müller-Weg","postalCode":"92355","locality":"Velburg","municipality":{"key":"09373167","name":"Velburg, St","type":"Stadt"},"district":{"key":"09373","name":"Neumarkt i.d.OPf.","type":"Landkreis"},"federalState":{"key":"09","name":"Bayern"}},{"name":"Erlengraben","postalCode":"92355","locality":"Velburg","municipality":{"key":"09373167","name":"Velburg, St","type":"Stadt"},"district":{"key":"09373","name":"Neumarkt i.d.OPf.","type":"Landkreis"},"federalState":{"key":"09","name":"Bayern"}},{"name":"Espanweg","postalCode":"92355","locality":"Velburg","municipality":{"key":"09373167","name":"Velburg, St","type":"Stadt"},"district":{"key":"09373","name":"Neumarkt i.d.OPf.","type":"Landkreis"},"federalState":{"key":"09","name":"Bayern"}},{"name":"Falkenweg","postalCode":"92355","locality":"Velburg","municipality":{"key":"09373167","name":"Velburg, St","type":"Stadt"},"district":{"key":"09373","name":"Neumarkt i.d.OPf.","type":"Landkreis"},"federalState":{"key":"09","name":"Bayern"}},{"name":"Freudenricht","postalCode":"92355","locality":"Velburg","municipality":{"key":"09373167","name":"Velburg, St","type":"Stadt"},"district":{"key":"09373","name":"Neumarkt i.d.OPf.","type":"Landkreis"},"federalState":{"key":"09","name":"Bayern"}},{"name":"Fuchsschlag","postalCode":"92355","locality":"Velburg","municipality":{"key":"09373167","name":"Velburg, St","type":"Stadt"},"district":{"key":"09373","name":"Neumarkt i.d.OPf.","type":"Landkreis"},"federalState":{"key":"09","name":"Bayern"}},{"name":"Fürstenweg","postalCode":"92355","locality":"Velburg","municipality":{"key":"09373167","name":"Velburg, St","type":"Stadt"},"district":{"key":"09373","name":"Neumarkt i.d.OPf.","type":"Landkreis"},"federalState":{"key":"09","name":"Bayern"}},{"name":"Furtweg","postalCode":"92355","locality":"Velburg","municipality":{"key":"09373167","name":"Velburg, St","type":"Stadt"},"district":{"key":"09373","name":"Neumarkt i.d.OPf.","type":"Landkreis"},"federalState":{"key":"09","name":"Bayern"}},{"name":"Gänsanger","postalCode":"92355","locality":"Velburg","municipality":{"key":"09373167","name":"Velburg, St","type":"Stadt"},"district":{"key":"09373","name":"Neumarkt i.d.OPf.","type":"Landkreis"},"federalState":{"key":"09","name":"Bayern"}},{"name":"Gartenstr.","postalCode":"92355","locality":"Velburg","municipality":{"key":"09373167","name":"Velburg, St","type":"Stadt"},"district":{"key":"09373","name":"Neumarkt i.d.OPf.","type":"Landkreis"},"federalState":{"key":"09","name":"Bayern"}},{"name":"Geroldseer Str.","postalCode":"92355","locality":"Velburg","municipality":{"key":"09373167","name":"Velburg, St","type":"Stadt"},"district":{"key":"09373","name":"Neumarkt i.d.OPf.","type":"Landkreis"},"federalState":{"key":"09","name":"Bayern"}},{"name":"Gewerbegebiet Nord","postalCode":"92355","locality":"Velburg","municipality":{"key":"09373167","name":"Velburg, St","type":"Stadt"},"district":{"key":"09373","name":"Neumarkt i.d.OPf.","type":"Landkreis"},"federalState":{"key":"09","name":"Bayern"}},{"name":"Griffenwanger Str.","postalCode":"92355","locality":"Velburg","municipality":{"key":"09373167","name":"Velburg, St","type":"Stadt"},"district":{"key":"09373","name":"Neumarkt i.d.OPf.","type":"Landkreis"},"federalState":{"key":"09","name":"Bayern"}},{"name":"Grünthaler Weg","postalCode":"92355","locality":"Velburg","municipality":{"key":"09373167","name":"Velburg, St","type":"Stadt"},"district":{"key":"09373","name":"Neumarkt i.d.OPf.","type":"Landkreis"},"federalState":{"key":"09","name":"Bayern"}},{"name":"Günchinger Str.","postalCode":"92355","locality":"Velburg","municipality":{"key":"09373167","name":"Velburg, St","type":"Stadt"},"district":{"key":"09373","name":"Neumarkt i.d.OPf.","type":"Landkreis"},"federalState":{"key":"09","name":"Bayern"}},{"name":"Haagweg","postalCode":"92355","locality":"Velburg","municipality":{"key":"09373167","name":"Velburg, St","type":"Stadt"},"district":{"key":"09373","name":"Neumarkt i.d.OPf.","type":"Landkreis"},"federalState":{"key":"09","name":"Bayern"}},{"name":"Habsberg","postalCode":"92355","locality":"Velburg","municipality":{"key":"09373167","name":"Velburg, St","type":"Stadt"},"district":{"key":"09373","name":"Neumarkt i.d.OPf.","type":"Landkreis"},"federalState":{"key":"09","name":"Bayern"}},{"name":"Hainstr.","postalCode":"92355","locality":"Velburg","municipality":{"key":"09373167","name":"Velburg, St","type":"Stadt"},"district":{"key":"09373","name":"Neumarkt i.d.OPf.","type":"Landkreis"},"federalState":{"key":"09","name":"Bayern"}},{"name":"Hammerstr.","postalCode":"92355","locality":"Velburg","municipality":{"key":"09373167","name":"Velburg, St","type":"Stadt"},"district":{"key":"09373","name":"Neumarkt i.d.OPf.","type":"Landkreis"},"federalState":{"key":"09","name":"Bayern"}},{"name":"Handollweg","postalCode":"92355","locality":"Velburg","municipality":{"key":"09373167","name":"Velburg, St","type":"Stadt"},"district":{"key":"09373","name":"Neumarkt i.d.OPf.","type":"Landkreis"},"federalState":{"key":"09","name":"Bayern"}},{"name":"Harenzhofen","postalCode":"92355","locality":"Velburg","municipality":{"key":"09373167","name":"Velburg, St","type":"Stadt"},"district":{"key":"09373","name":"Neumarkt i.d.OPf.","type":"Landkreis"},"federalState":{"key":"09","name":"Bayern"}},{"name":"Hauptstr.","postalCode":"92355","locality":"Velburg","municipality":{"key":"09373167","name":"Velburg, St","type":"Stadt"},"district":{"key":"09373","name":"Neumarkt i.d.OPf.","type":"Landkreis"},"federalState":{"key":"09","name":"Bayern"}},{"name":"Helfenbergstr.","postalCode":"92355","locality":"Velburg","municipality":{"key":"09373167","name":"Velburg, St","type":"Stadt"},"district":{"key":"09373","name":"Neumarkt i.d.OPf.","type":"Landkreis"},"federalState":{"key":"09","name":"Bayern"}},{"name":"Heuweg","postalCode":"92355","locality":"Velburg","municipality":{"key":"09373167","name":"Velburg, St","type":"Stadt"},"district":{"key":"09373","name":"Neumarkt i.d.OPf.","type":"Landkreis"},"federalState":{"key":"09","name":"Bayern"}},{"name":"Hilzhofener Str.","postalCode":"92355","locality":"Velburg","municipality":{"key":"09373167","name":"Velburg, St","type":"Stadt"},"district":{"key":"09373","name":"Neumarkt i.d.OPf.","type":"Landkreis"},"federalState":{"key":"09","name":"Bayern"}},{"name":"Hinterer Markt","postalCode":"92355","locality":"Velburg","municipality":{"key":"09373167","name":"Velburg, St","type":"Stadt"},"district":{"key":"09373","name":"Neumarkt i.d.OPf.","type":"Landkreis"},"federalState":{"key":"09","name":"Bayern"}},{"name":"Hofweg","postalCode":"92355","locality":"Velburg","municipality":{"key":"09373167","name":"Velburg, St","type":"Stadt"},"district":{"key":"09373","name":"Neumarkt i.d.OPf.","type":"Landkreis"},"federalState":{"key":"09","name":"Bayern"}},{"name":"Hohenbergstr.","postalCode":"92355","locality":"Velburg","municipality":{"key":"09373167","name":"Velburg, St","type":"Stadt"},"district":{"key":"09373","name":"Neumarkt i.d.OPf.","type":"Landkreis"},"federalState":{"key":"09","name":"Bayern"}},{"name":"Hollerstettener Str.","postalCode":"92355","locality":"Velburg","municipality":{"key":"09373167","name":"Velburg, St","type":"Stadt"},"district":{"key":"09373","name":"Neumarkt i.d.OPf.","type":"Landkreis"},"federalState":{"key":"09","name":"Bayern"}},{"name":"Hollerstr.","postalCode":"92355","locality":"Velburg","municipality":{"key":"09373167","name":"Velburg, St","type":"Stadt"},"district":{"key":"09373","name":"Neumarkt i.d.OPf.","type":"Landkreis"},"federalState":{"key":"09","name":"Bayern"}},{"name":"Ignaz-Brunner-Str.","postalCode":"92355","locality":"Velburg","municipality":{"key":"09373167","name":"Velburg, St","type":"Stadt"},"district":{"key":"09373","name":"Neumarkt i.d.OPf.","type":"Landkreis"},"federalState":{"key":"09","name":"Bayern"}},{"name":"Jakobistr.","postalCode":"92348","locality":"Berg b.Neumarkt i.d.OPf.","municipality":{"key":"09373113","name":"Berg b.Neumarkt i.d.OPf.","type":"Kreisangehörige_Gemeinde"},"district":{"key":"09373","name":"Neumarkt i.d.OPf.","type":"Landkreis"},"federalState":{"key":"09","name":"Bayern"}},{"name":"Johannesstr.","postalCode":"92348","locality":"Berg b.Neumarkt i.d.OPf.","municipality":{"key":"09373113","name":"Berg b.Neumarkt i.d.OPf.","type":"Kreisangehörige_Gemeinde"},"district":{"key":"09373","name":"Neumarkt i.d.OPf.","type":"Landkreis"},"federalState":{"key":"09","name":"Bayern"}},{"name":"Josef-v.-Lehmeier-Str.","postalCode":"92348","locality":"Berg b.Neumarkt i.d.OPf.","municipality":{"key":"09373113","name":"Berg b.Neumarkt i.d.OPf.","type":"Kreisangehörige_Gemeinde"},"district":{"key":"09373","name":"Neumarkt i.d.OPf.","type":"Landkreis"},"federalState":{"key":"09","name":"Bayern"}},{"name":"Jurastr.","postalCode":"92348","locality":"Berg b.Neumarkt i.d.OPf.","municipality":{"key":"09373113","name":"Berg b.Neumarkt i.d.OPf.","type":"Kreisangehörige_Gemeinde"},"district":{"key":"09373","name":"Neumarkt i.d.OPf.","type":"Landkreis"},"federalState":{"key":"09","name":"Bayern"}},{"name":"Kalvarienbergstr.","postalCode":"92355","locality":"Velburg","municipality":{"key":"09373167","name":"Velburg, St","type":"Stadt"},"district":{"key":"09373","name":"Neumarkt i.d.OPf.","type":"Landkreis"},"federalState":{"key":"09","name":"Bayern"}},{"name":"Kapellenweg","postalCode":"92355","locality":"Velburg","municipality":{"key":"09373167","name":"Velburg, St","type":"Stadt"},"district":{"key":"09373","name":"Neumarkt i.d.OPf.","type":"Landkreis"},"federalState":{"key":"09","name":"Bayern"}},{"name":"Kirchenwinner Str.","postalCode":"92355","locality":"Velburg","municipality":{"key":"09373167","name":"Velburg, St","type":"Stadt"},"district":{"key":"09373","name":"Neumarkt i.d.OPf.","type":"Landkreis"},"federalState":{"key":"09","name":"Bayern"}},{"name":"Kirchplatz","postalCode":"92355","locality":"Velburg","municipality":{"key":"09373167","name":"Velburg, St","type":"Stadt"},"district":{"key":"09373","name":"Neumarkt i.d.OPf.","type":"Landkreis"},"federalState":{"key":"09","name":"Bayern"}},{"name":"Kittenseer Str.","postalCode":"92355","locality":"Velburg","municipality":{"key":"09373167","name":"Velburg, St","type":"Stadt"},"district":{"key":"09373","name":"Neumarkt i.d.OPf.","type":"Landkreis"},"federalState":{"key":"09","name":"Bayern"}},{"name":"Kolpingstr.","postalCode":"92355","locality":"Velburg","municipality":{"key":"09373167","name":"Velburg, St","type":"Stadt"},"district":{"key":"09373","name":"Neumarkt i.d.OPf.","type":"Landkreis"},"federalState":{"key":"09","name":"Bayern"}},{"name":"Laaberweg","postalCode":"92355","locality":"Velburg","municipality":{"key":"09373167","name":"Velburg, St","type":"Stadt"},"district":{"key":"09373","name":"Neumarkt i.d.OPf.","type":"Landkreis"},"federalState":{"key":"09","name":"Bayern"}},{"name":"Lengenfelder Str.","postalCode":"92355","locality":"Velburg","municipality":{"key":"09373167","name":"Velburg, St","type":"Stadt"},"district":{"key":"09373","name":"Neumarkt i.d.OPf.","type":"Landkreis"},"federalState":{"key":"09","name":"Bayern"}},{"name":"Lerchenweg","postalCode":"92355","locality":"Velburg","municipality":{"key":"09373167","name":"Velburg, St","type":"Stadt"},"district":{"key":"09373","name":"Neumarkt i.d.OPf.","type":"Landkreis"},"federalState":{"key":"09","name":"Bayern"}},{"name":"Lindenstr.","postalCode":"92355","locality":"Velburg","municipality":{"key":"09373167","name":"Velburg, St","type":"Stadt"},"district":{"key":"09373","name":"Neumarkt i.d.OPf.","type":"Landkreis"},"federalState":{"key":"09","name":"Bayern"}},{"name":"Lüßweg","postalCode":"92355","locality":"Velburg","municipality":{"key":"09373167","name":"Velburg, St","type":"Stadt"},"district":{"key":"09373","name":"Neumarkt i.d.OPf.","type":"Landkreis"},"federalState":{"key":"09","name":"Bayern"}},{"name":"Lutzmannsteiner Str.","postalCode":"92355","locality":"Velburg","municipality":{"key":"09373167","name":"Velburg, St","type":"Stadt"},"district":{"key":"09373","name":"Neumarkt i.d.OPf.","type":"Landkreis"},"federalState":{"key":"09","name":"Bayern"}},{"name":"Mantlach","postalCode":"92355","locality":"Velburg","municipality":{"key":"09373167","name":"Velburg, St","type":"Stadt"},"district":{"key":"09373","name":"Neumarkt i.d.OPf.","type":"Landkreis"},"federalState":{"key":"09","name":"Bayern"}},{"name":"Mantlacher Weg","postalCode":"92355","locality":"Velburg","municipality":{"key":"09373167","name":"Velburg, St","type":"Stadt"},"district":{"key":"09373","name":"Neumarkt i.d.OPf.","type":"Landkreis"},"federalState":{"key":"09","name":"Bayern"}},{"name":"Mantlachtrail01(KM)","postalCode":"92355","locality":"Velburg","municipality":{"key":"09373167","name":"Velburg, St","type":"Stadt"},"district":{"key":"09373","name":"Neumarkt i.d.OPf.","type":"Landkreis"},"federalState":{"key":"09","name":"Bayern"}},{"name":"Meisenweg","postalCode":"92355","locality":"Velburg","municipality":{"key":"09373167","name":"Velburg, St","type":"Stadt"},"district":{"key":"09373","name":"Neumarkt i.d.OPf.","type":"Landkreis"},"federalState":{"key":"09","name":"Bayern"}},{"name":"Moorweg","postalCode":"92355","locality":"Velburg","municipality":{"key":"09373167","name":"Velburg, St","type":"Stadt"},"district":{"key":"09373","name":"Neumarkt i.d.OPf.","type":"Landkreis"},"federalState":{"key":"09","name":"Bayern"}},{"name":"Mühlstr.","postalCode":"92355","locality":"Velburg","municipality":{"key":"09373167","name":"Velburg, St","type":"Stadt"},"district":{"key":"09373","name":"Neumarkt i.d.OPf.","type":"Landkreis"},"federalState":{"key":"09","name":"Bayern"}},{"name":"Neumarkter Str.","postalCode":"92355","locality":"Velburg","municipality":{"key":"09373167","name":"Velburg, St","type":"Stadt"},"district":{"key":"09373","name":"Neumarkt i.d.OPf.","type":"Landkreis"},"federalState":{"key":"09","name":"Bayern"}},{"name":"NM 1","postalCode":"92355","locality":"Velburg","municipality":{"key":"09373167","name":"Velburg, St","type":"Stadt"},"district":{"key":"09373","name":"Neumarkt i.d.OPf.","type":"Landkreis"},"federalState":{"key":"09","name":"Bayern"}},{"name":"Obere Gasse","postalCode":"92355","locality":"Velburg","municipality":{"key":"09373167","name":"Velburg, St","type":"Stadt"},"district":{"key":"09373","name":"Neumarkt i.d.OPf.","type":"Landkreis"},"federalState":{"key":"09","name":"Bayern"}},{"name":"Oberweickenhof","postalCode":"92355","locality":"Velburg","municipality":{"key":"09373167","name":"Velburg, St","type":"Stadt"},"district":{"key":"09373","name":"Neumarkt i.d.OPf.","type":"Landkreis"},"federalState":{"key":"09","name":"Bayern"}},{"name":"Ortsstr.","postalCode":"92355","locality":"Velburg","municipality":{"key":"09373167","name":"Velburg, St","type":"Stadt"},"district":{"key":"09373","name":"Neumarkt i.d.OPf.","type":"Landkreis"},"federalState":{"key":"09","name":"Bayern"}},{"name":"Ostermühle","postalCode":"92355","locality":"Velburg","municipality":{"key":"09373167","name":"Velburg, St","type":"Stadt"},"district":{"key":"09373","name":"Neumarkt i.d.OPf.","type":"Landkreis"},"federalState":{"key":"09","name":"Bayern"}},{"name":"Ostermühlstr.","postalCode":"92355","locality":"Velburg","municipality":{"key":"09373167","name":"Velburg, St","type":"Stadt"},"district":{"key":"09373","name":"Neumarkt i.d.OPf.","type":"Landkreis"},"federalState":{"key":"09","name":"Bayern"}},{"name":"Ottfried-Schmidt-Str.","postalCode":"92355","locality":"Velburg","municipality":{"key":"09373167","name":"Velburg, St","type":"Stadt"},"district":{"key":"09373","name":"Neumarkt i.d.OPf.","type":"Landkreis"},"federalState":{"key":"09","name":"Bayern"}},{"name":"Parsberger Str.","postalCode":"92355","locality":"Velburg","municipality":{"key":"09373167","name":"Velburg, St","type":"Stadt"},"district":{"key":"09373","name":"Neumarkt i.d.OPf.","type":"Landkreis"},"federalState":{"key":"09","name":"Bayern"}},{"name":"Pfarrweg","postalCode":"92355","locality":"Velburg","municipality":{"key":"09373167","name":"Velburg, St","type":"Stadt"},"district":{"key":"09373","name":"Neumarkt i.d.OPf.","type":"Landkreis"},"federalState":{"key":"09","name":"Bayern"}},{"name":"Pielenhofener Str.","postalCode":"92355","locality":"Velburg","municipality":{"key":"09373167","name":"Velburg, St","type":"Stadt"},"district":{"key":"09373","name":"Neumarkt i.d.OPf.","type":"Landkreis"},"federalState":{"key":"09","name":"Bayern"}},{"name":"Prönsdorf","postalCode":"92355","locality":"Velburg","municipality":{"key":"09373167","name":"Velburg, St","type":"Stadt"},"district":{"key":"09373","name":"Neumarkt i.d.OPf.","type":"Landkreis"},"federalState":{"key":"09","name":"Bayern"}},{"name":"Reichertswinn","postalCode":"92355","locality":"Velburg","municipality":{"key":"09373167","name":"Velburg, St","type":"Stadt"},"district":{"key":"09373","name":"Neumarkt i.d.OPf.","type":"Landkreis"},"federalState":{"key":"09","name":"Bayern"}},{"name":"Richterhofweg","postalCode":"92355","locality":"Velburg","municipality":{"key":"09373167","name":"Velburg, St","type":"Stadt"},"district":{"key":"09373","name":"Neumarkt i.d.OPf.","type":"Landkreis"},"federalState":{"key":"09","name":"Bayern"}},{"name":"Ringstr.","postalCode":"92355","locality":"Velburg","municipality":{"key":"09373167","name":"Velburg, St","type":"Stadt"},"district":{"key":"09373","name":"Neumarkt i.d.OPf.","type":"Landkreis"},"federalState":{"key":"09","name":"Bayern"}},{"name":"Rosa-Sucher-Str.","postalCode":"92355","locality":"Velburg","municipality":{"key":"09373167","name":"Velburg, St","type":"Stadt"},"district":{"key":"09373","name":"Neumarkt i.d.OPf.","type":"Landkreis"},"federalState":{"key":"09","name":"Bayern"}},{"name":"Rosengasse","postalCode":"92355","locality":"Velburg","municipality":{"key":"09373167","name":"Velburg, St","type":"Stadt"},"district":{"key":"09373","name":"Neumarkt i.d.OPf.","type":"Landkreis"},"federalState":{"key":"09","name":"Bayern"}},{"name":"Sankt-Anna-Weg","postalCode":"92355","locality":"Velburg","municipality":{"key":"09373167","name":"Velburg, St","type":"Stadt"},"district":{"key":"09373","name":"Neumarkt i.d.OPf.","type":"Landkreis"},"federalState":{"key":"09","name":"Bayern"}},{"name":"Sankt Colomann","postalCode":"92355","locality":"Velburg","municipality":{"key":"09373167","name":"Velburg, St","type":"Stadt"},"district":{"key":"09373","name":"Neumarkt i.d.OPf.","type":"Landkreis"},"federalState":{"key":"09","name":"Bayern"}},{"name":"Sankt-Leonhard-Weg","postalCode":"92355","locality":"Velburg","municipality":{"key":"09373167","name":"Velburg, St","type":"Stadt"},"district":{"key":"09373","name":"Neumarkt i.d.OPf.","type":"Landkreis"},"federalState":{"key":"09","name":"Bayern"}},{"name":"Sankt-Margareta-Str.","postalCode":"92355","locality":"Velburg","municipality":{"key":"09373167","name":"Velburg, St","type":"Stadt"},"district":{"key":"09373","name":"Neumarkt i.d.OPf.","type":"Landkreis"},"federalState":{"key":"09","name":"Bayern"}},{"name":"Sankt-Martin-Str.","postalCode":"92355","locality":"Velburg","municipality":{"key":"09373167","name":"Velburg, St","type":"Stadt"},"district":{"key":"09373","name":"Neumarkt i.d.OPf.","type":"Landkreis"},"federalState":{"key":"09","name":"Bayern"}},{"name":"Schafhof","postalCode":"92355","locality":"Velburg","municipality":{"key":"09373167","name":"Velburg, St","type":"Stadt"},"district":{"key":"09373","name":"Neumarkt i.d.OPf.","type":"Landkreis"},"federalState":{"key":"09","name":"Bayern"}},{"name":"Schanzweg","postalCode":"92355","locality":"Velburg","municipality":{"key":"09373167","name":"Velburg, St","type":"Stadt"},"district":{"key":"09373","name":"Neumarkt i.d.OPf.","type":"Landkreis"},"federalState":{"key":"09","name":"Bayern"}},{"name":"Schlüsselgrund","postalCode":"92355","locality":"Velburg","municipality":{"key":"09373167","name":"Velburg, St","type":"Stadt"},"district":{"key":"09373","name":"Neumarkt i.d.OPf.","type":"Landkreis"},"federalState":{"key":"09","name":"Bayern"}},{"name":"Schmiedgasse","postalCode":"92355","locality":"Velburg","municipality":{"key":"09373167","name":"Velburg, St","type":"Stadt"},"district":{"key":"09373","name":"Neumarkt i.d.OPf.","type":"Landkreis"},"federalState":{"key":"09","name":"Bayern"}},{"name":"Schützenstr.","postalCode":"92355","locality":"Velburg","municipality":{"key":"09373167","name":"Velburg, St","type":"Stadt"},"district":{"key":"09373","name":"Neumarkt i.d.OPf.","type":"Landkreis"},"federalState":{"key":"09","name":"Bayern"}},{"name":"Schwalbenweg","postalCode":"92355","locality":"Velburg","municipality":{"key":"09373167","name":"Velburg, St","type":"Stadt"},"district":{"key":"09373","name":"Neumarkt i.d.OPf.","type":"Landkreis"},"federalState":{"key":"09","name":"Bayern"}},{"name":"Seestr.","postalCode":"92355","locality":"Velburg","municipality":{"key":"09373167","name":"Velburg, St","type":"Stadt"},"district":{"key":"09373","name":"Neumarkt i.d.OPf.","type":"Landkreis"},"federalState":{"key":"09","name":"Bayern"}},{"name":"Siebentalweg","postalCode":"92355","locality":"Velburg","municipality":{"key":"09373167","name":"Velburg, St","type":"Stadt"},"district":{"key":"09373","name":"Neumarkt i.d.OPf.","type":"Landkreis"},"federalState":{"key":"09","name":"Bayern"}},{"name":"Sommertshof","postalCode":"92355","locality":"Velburg","municipality":{"key":"09373167","name":"Velburg, St","type":"Stadt"},"district":{"key":"09373","name":"Neumarkt i.d.OPf.","type":"Landkreis"},"federalState":{"key":"09","name":"Bayern"}},{"name":"Sperberweg","postalCode":"92355","locality":"Velburg","municipality":{"key":"09373167","name":"Velburg, St","type":"Stadt"},"district":{"key":"09373","name":"Neumarkt i.d.OPf.","type":"Landkreis"},"federalState":{"key":"09","name":"Bayern"}},{"name":"Stadtplatz","postalCode":"92355","locality":"Velburg","municipality":{"key":"09373167","name":"Velburg, St","type":"Stadt"},"district":{"key":"09373","name":"Neumarkt i.d.OPf.","type":"Landkreis"},"federalState":{"key":"09","name":"Bayern"}},{"name":"St.-Martin-Str.","postalCode":"92355","locality":"Velburg","municipality":{"key":"09373167","name":"Velburg, St","type":"Stadt"},"district":{"key":"09373","name":"Neumarkt i.d.OPf.","type":"Landkreis"},"federalState":{"key":"09","name":"Bayern"}},{"name":"Tillystr.","postalCode":"92355","locality":"Velburg","municipality":{"key":"09373167","name":"Velburg, St","type":"Stadt"},"district":{"key":"09373","name":"Neumarkt i.d.OPf.","type":"Landkreis"},"federalState":{"key":"09","name":"Bayern"}},{"name":"Untere Gasse","postalCode":"92355","locality":"Velburg","municipality":{"key":"09373167","name":"Velburg, St","type":"Stadt"},"district":{"key":"09373","name":"Neumarkt i.d.OPf.","type":"Landkreis"},"federalState":{"key":"09","name":"Bayern"}},{"name":"Velburger Weg","postalCode":"92355","locality":"Velburg","municipality":{"key":"09373167","name":"Velburg, St","type":"Stadt"},"district":{"key":"09373","name":"Neumarkt i.d.OPf.","type":"Landkreis"},"federalState":{"key":"09","name":"Bayern"}},{"name":"Veldorfer Str.","postalCode":"92355","locality":"Velburg","municipality":{"key":"09373167","name":"Velburg, St","type":"Stadt"},"district":{"key":"09373","name":"Neumarkt i.d.OPf.","type":"Landkreis"},"federalState":{"key":"09","name":"Bayern"}},{"name":"Verbindungsweg (km)","postalCode":"92355","locality":"Velburg","municipality":{"key":"09373167","name":"Velburg, St","type":"Stadt"},"district":{"key":"09373","name":"Neumarkt i.d.OPf.","type":"Landkreis"},"federalState":{"key":"09","name":"Bayern"}},{"name":"Verbindungsweg (KM)","postalCode":"92355","locality":"Velburg","municipality":{"key":"09373167","name":"Velburg, St","type":"Stadt"},"district":{"key":"09373","name":"Neumarkt i.d.OPf.","type":"Landkreis"},"federalState":{"key":"09","name":"Bayern"}},{"name":"Vogelbrunn","postalCode":"92355","locality":"Velburg","municipality":{"key":"09373167","name":"Velburg, St","type":"Stadt"},"district":{"key":"09373","name":"Neumarkt i.d.OPf.","type":"Landkreis"},"federalState":{"key":"09","name":"Bayern"}},{"name":"Vogelbrunner Str.","postalCode":"92355","locality":"Velburg","municipality":{"key":"09373167","name":"Velburg, St","type":"Stadt"},"district":{"key":"09373","name":"Neumarkt i.d.OPf.","type":"Landkreis"},"federalState":{"key":"09","name":"Bayern"}},{"name":"Waldlehrpfad Velburg","postalCode":"92355","locality":"Velburg","municipality":{"key":"09373167","name":"Velburg, St","type":"Stadt"},"district":{"key":"09373","name":"Neumarkt i.d.OPf.","type":"Landkreis"},"federalState":{"key":"09","name":"Bayern"}},{"name":"Waldweg (KM)","postalCode":"92355","locality":"Velburg","municipality":{"key":"09373167","name":"Velburg, St","type":"Stadt"},"district":{"key":"09373","name":"Neumarkt i.d.OPf.","type":"Landkreis"},"federalState":{"key":"09","name":"Bayern"}},{"name":"Weihergasse","postalCode":"92355","locality":"Velburg","municipality":{"key":"09373167","name":"Velburg, St","type":"Stadt"},"district":{"key":"09373","name":"Neumarkt i.d.OPf.","type":"Landkreis"},"federalState":{"key":"09","name":"Bayern"}},{"name":"Weihermühle","postalCode":"92355","locality":"Velburg","municipality":{"key":"09373167","name":"Velburg, St","type":"Stadt"},"district":{"key":"09373","name":"Neumarkt i.d.OPf.","type":"Landkreis"},"federalState":{"key":"09","name":"Bayern"}},{"name":"Weikenhammer","postalCode":"92355","locality":"Velburg","municipality":{"key":"09373167","name":"Velburg, St","type":"Stadt"},"district":{"key":"09373","name":"Neumarkt i.d.OPf.","type":"Landkreis"},"federalState":{"key":"09","name":"Bayern"}},{"name":"Wiesenweg (KM)","postalCode":"92355","locality":"Velburg","municipality":{"key":"09373167","name":"Velburg, St","type":"Stadt"},"district":{"key":"09373","name":"Neumarkt i.d.OPf.","type":"Landkreis"},"federalState":{"key":"09","name":"Bayern"}},{"name":"Windberg","postalCode":"92355","locality":"Velburg","municipality":{"key":"09373167","name":"Velburg, St","type":"Stadt"},"district":{"key":"09373","name":"Neumarkt i.d.OPf.","type":"Landkreis"},"federalState":{"key":"09","name":"Bayern"}},{"name":"Windbergstr.","postalCode":"92355","locality":"Velburg","municipality":{"key":"09373167","name":"Velburg, St","type":"Stadt"},"district":{"key":"09373","name":"Neumarkt i.d.OPf.","type":"Landkreis"},"federalState":{"key":"09","name":"Bayern"}},{"name":"Wispeckweg","postalCode":"92355","locality":"Velburg","municipality":{"key":"09373167","name":"Velburg, St","type":"Stadt"},"district":{"key":"09373","name":"Neumarkt i.d.OPf.","type":"Landkreis"},"federalState":{"key":"09","name":"Bayern"}},{"name":"Wolfganger Str.","postalCode":"92355","locality":"Velburg","municipality":{"key":"09373167","name":"Velburg, St","type":"Stadt"},"district":{"key":"09373","name":"Neumarkt i.d.OPf.","type":"Landkreis"},"federalState":{"key":"09","name":"Bayern"}},{"name":"Ziegelhüttenstr.","postalCode":"92355","locality":"Velburg","municipality":{"key":"09373167","name":"Velburg, St","type":"Stadt"},"district":{"key":"09373","name":"Neumarkt i.d.OPf.","type":"Landkreis"},"federalState":{"key":"09","name":"Bayern"}},{"name":"Zieglerweg","postalCode":"92355","locality":"Velburg","municipality":{"key":"09373167","name":"Velburg, St","type":"Stadt"},"district":{"key":"09373","name":"Neumarkt i.d.OPf.","type":"Landkreis"},"federalState":{"key":"09","name":"Bayern"}},{"name":"Zum Pilgram","postalCode":"92355","locality":"Velburg","municipality":{"key":"09373167","name":"Velburg, St","type":"Stadt"},"district":{"key":"09373","name":"Neumarkt i.d.OPf.","type":"Landkreis"},"federalState":{"key":"09","name":"Bayern"}},{"name":"Zum Setzer","postalCode":"92355","locality":"Velburg","municipality":{"key":"09373167","name":"Velburg, St","type":"Stadt"},"district":{"key":"09373","name":"Neumarkt i.d.OPf.","type":"Landkreis"},"federalState":{"key":"09","name":"Bayern"}},{"name":"Zum Sperlasberg","postalCode":"92355","locality":"Velburg","municipality":{"key":"09373167","name":"Velburg, St","type":"Stadt"},"district":{"key":"09373","name":"Neumarkt i.d.OPf.","type":"Landkreis"},"federalState":{"key":"09","name":"Bayern"}},{"name":"Zum Stadtturm","postalCode":"92355","locality":"Velburg","municipality":{"key":"09373167","name":"Velburg, St","type":"Stadt"},"district":{"key":"09373","name":"Neumarkt i.d.OPf.","type":"Landkreis"},"federalState":{"key":"09","name":"Bayern"}},{"name":"Zum Wasserhäusl","postalCode":"92355","locality":"Velburg","municipality":{"key":"09373167","name":"Velburg, St","type":"Stadt"},"district":{"key":"09373","name":"Neumarkt i.d.OPf.","type":"Landkreis"},"federalState":{"key":"09","name":"Bayern"}},{"name":"Zur Adelburg","postalCode":"92355","locality":"Velburg","municipality":{"key":"09373167","name":"Velburg, St","type":"Stadt"},"district":{"key":"09373","name":"Neumarkt i.d.OPf.","type":"Landkreis"},"federalState":{"key":"09","name":"Bayern"}},{"name":"Zur Wolfsgrube","postalCode":"92355","locality":"Velburg","municipality":{"key":"09373167","name":"Velburg, St","type":"Stadt"},"district":{"key":"09373","name":"Neumarkt i.d.OPf.","type":"Landkreis"},"federalState":{"key":"09","name":"Bayern"}},]