[{"name":"Ahornweg","postalCode":"61184","locality":"Karben","municipality":{"key":"06440012","name":"Karben, Stadt","type":"Stadt"},"district":{"key":"06440","name":"Wetteraukreis","type":"Landkreis"},"federalState":{"key":"06","name":"Hessen"}},{"name":"Albert-Schweitzer-Str.","postalCode":"61184","locality":"Karben","municipality":{"key":"06440012","name":"Karben, Stadt","type":"Stadt"},"district":{"key":"06440","name":"Wetteraukreis","type":"Landkreis"},"federalState":{"key":"06","name":"Hessen"}},{"name":"Altebergweg","postalCode":"61184","locality":"Karben","municipality":{"key":"06440012","name":"Karben, Stadt","type":"Stadt"},"district":{"key":"06440","name":"Wetteraukreis","type":"Landkreis"},"federalState":{"key":"06","name":"Hessen"}},{"name":"Alte Gärtnerei","postalCode":"61184","locality":"Karben","municipality":{"key":"06440012","name":"Karben, Stadt","type":"Stadt"},"district":{"key":"06440","name":"Wetteraukreis","type":"Landkreis"},"federalState":{"key":"06","name":"Hessen"}},{"name":"Alte Haingasse","postalCode":"61184","locality":"Karben","municipality":{"key":"06440012","name":"Karben, Stadt","type":"Stadt"},"district":{"key":"06440","name":"Wetteraukreis","type":"Landkreis"},"federalState":{"key":"06","name":"Hessen"}},{"name":"Alte Heerstr.","postalCode":"61184","locality":"Karben","municipality":{"key":"06440012","name":"Karben, Stadt","type":"Stadt"},"district":{"key":"06440","name":"Wetteraukreis","type":"Landkreis"},"federalState":{"key":"06","name":"Hessen"}},{"name":"Alte Str.","postalCode":"61184","locality":"Karben","municipality":{"key":"06440012","name":"Karben, Stadt","type":"Stadt"},"district":{"key":"06440","name":"Wetteraukreis","type":"Landkreis"},"federalState":{"key":"06","name":"Hessen"}},{"name":"Altkönigstr.","postalCode":"61184","locality":"Karben","municipality":{"key":"06440012","name":"Karben, Stadt","type":"Stadt"},"district":{"key":"06440","name":"Wetteraukreis","type":"Landkreis"},"federalState":{"key":"06","name":"Hessen"}},{"name":"Am Alten Sportplatz","postalCode":"61184","locality":"Karben","municipality":{"key":"06440012","name":"Karben, Stadt","type":"Stadt"},"district":{"key":"06440","name":"Wetteraukreis","type":"Landkreis"},"federalState":{"key":"06","name":"Hessen"}},{"name":"Am Breul","postalCode":"61184","locality":"Karben","municipality":{"key":"06440012","name":"Karben, Stadt","type":"Stadt"},"district":{"key":"06440","name":"Wetteraukreis","type":"Landkreis"},"federalState":{"key":"06","name":"Hessen"}},{"name":"Am Dicken Turm","postalCode":"61184","locality":"Karben","municipality":{"key":"06440012","name":"Karben, Stadt","type":"Stadt"},"district":{"key":"06440","name":"Wetteraukreis","type":"Landkreis"},"federalState":{"key":"06","name":"Hessen"}},{"name":"Am Fliederbusch","postalCode":"61184","locality":"Karben","municipality":{"key":"06440012","name":"Karben, Stadt","type":"Stadt"},"district":{"key":"06440","name":"Wetteraukreis","type":"Landkreis"},"federalState":{"key":"06","name":"Hessen"}},{"name":"Am Großen Stein","postalCode":"61184","locality":"Karben","municipality":{"key":"06440012","name":"Karben, Stadt","type":"Stadt"},"district":{"key":"06440","name":"Wetteraukreis","type":"Landkreis"},"federalState":{"key":"06","name":"Hessen"}},{"name":"Am Hain","postalCode":"61184","locality":"Karben","municipality":{"key":"06440012","name":"Karben, Stadt","type":"Stadt"},"district":{"key":"06440","name":"Wetteraukreis","type":"Landkreis"},"federalState":{"key":"06","name":"Hessen"}},{"name":"Am Hang","postalCode":"61184","locality":"Karben","municipality":{"key":"06440012","name":"Karben, Stadt","type":"Stadt"},"district":{"key":"06440","name":"Wetteraukreis","type":"Landkreis"},"federalState":{"key":"06","name":"Hessen"}},{"name":"Am Hellenberg","postalCode":"61184","locality":"Karben","municipality":{"key":"06440012","name":"Karben, Stadt","type":"Stadt"},"district":{"key":"06440","name":"Wetteraukreis","type":"Landkreis"},"federalState":{"key":"06","name":"Hessen"}},{"name":"Am Heroldsrain","postalCode":"61184","locality":"Karben","municipality":{"key":"06440012","name":"Karben, Stadt","type":"Stadt"},"district":{"key":"06440","name":"Wetteraukreis","type":"Landkreis"},"federalState":{"key":"06","name":"Hessen"}},{"name":"Am Hochholz","postalCode":"61184","locality":"Karben","municipality":{"key":"06440012","name":"Karben, Stadt","type":"Stadt"},"district":{"key":"06440","name":"Wetteraukreis","type":"Landkreis"},"federalState":{"key":"06","name":"Hessen"}},{"name":"Am Kirchfeld","postalCode":"61184","locality":"Karben","municipality":{"key":"06440012","name":"Karben, Stadt","type":"Stadt"},"district":{"key":"06440","name":"Wetteraukreis","type":"Landkreis"},"federalState":{"key":"06","name":"Hessen"}},{"name":"Am Kirschenberg","postalCode":"61184","locality":"Karben","municipality":{"key":"06440012","name":"Karben, Stadt","type":"Stadt"},"district":{"key":"06440","name":"Wetteraukreis","type":"Landkreis"},"federalState":{"key":"06","name":"Hessen"}},{"name":"Am Lindenbaum","postalCode":"61184","locality":"Karben","municipality":{"key":"06440012","name":"Karben, Stadt","type":"Stadt"},"district":{"key":"06440","name":"Wetteraukreis","type":"Landkreis"},"federalState":{"key":"06","name":"Hessen"}},{"name":"Am Ludwigsbrunnen","postalCode":"61184","locality":"Karben","municipality":{"key":"06440012","name":"Karben, Stadt","type":"Stadt"},"district":{"key":"06440","name":"Wetteraukreis","type":"Landkreis"},"federalState":{"key":"06","name":"Hessen"}},{"name":"Am Mühlweg","postalCode":"61184","locality":"Karben","municipality":{"key":"06440012","name":"Karben, Stadt","type":"Stadt"},"district":{"key":"06440","name":"Wetteraukreis","type":"Landkreis"},"federalState":{"key":"06","name":"Hessen"}},{"name":"Am Park","postalCode":"61184","locality":"Karben","municipality":{"key":"06440012","name":"Karben, Stadt","type":"Stadt"},"district":{"key":"06440","name":"Wetteraukreis","type":"Landkreis"},"federalState":{"key":"06","name":"Hessen"}},{"name":"Am Petershof","postalCode":"61184","locality":"Karben","municipality":{"key":"06440012","name":"Karben, Stadt","type":"Stadt"},"district":{"key":"06440","name":"Wetteraukreis","type":"Landkreis"},"federalState":{"key":"06","name":"Hessen"}},{"name":"Am Rollgraben","postalCode":"61184","locality":"Karben","municipality":{"key":"06440012","name":"Karben, Stadt","type":"Stadt"},"district":{"key":"06440","name":"Wetteraukreis","type":"Landkreis"},"federalState":{"key":"06","name":"Hessen"}},{"name":"Am Römerkastell","postalCode":"61184","locality":"Karben","municipality":{"key":"06440012","name":"Karben, Stadt","type":"Stadt"},"district":{"key":"06440","name":"Wetteraukreis","type":"Landkreis"},"federalState":{"key":"06","name":"Hessen"}},{"name":"Am Sand","postalCode":"61184","locality":"Karben","municipality":{"key":"06440012","name":"Karben, Stadt","type":"Stadt"},"district":{"key":"06440","name":"Wetteraukreis","type":"Landkreis"},"federalState":{"key":"06","name":"Hessen"}},{"name":"Am Schloß","postalCode":"61184","locality":"Karben","municipality":{"key":"06440012","name":"Karben, Stadt","type":"Stadt"},"district":{"key":"06440","name":"Wetteraukreis","type":"Landkreis"},"federalState":{"key":"06","name":"Hessen"}},{"name":"Am Sonnenberg","postalCode":"61184","locality":"Karben","municipality":{"key":"06440012","name":"Karben, Stadt","type":"Stadt"},"district":{"key":"06440","name":"Wetteraukreis","type":"Landkreis"},"federalState":{"key":"06","name":"Hessen"}},{"name":"Am Spitzacker","postalCode":"61184","locality":"Karben","municipality":{"key":"06440012","name":"Karben, Stadt","type":"Stadt"},"district":{"key":"06440","name":"Wetteraukreis","type":"Landkreis"},"federalState":{"key":"06","name":"Hessen"}},{"name":"Am Straßberg","postalCode":"61184","locality":"Karben","municipality":{"key":"06440012","name":"Karben, Stadt","type":"Stadt"},"district":{"key":"06440","name":"Wetteraukreis","type":"Landkreis"},"federalState":{"key":"06","name":"Hessen"}},{"name":"Am Tiefen Born","postalCode":"61184","locality":"Karben","municipality":{"key":"06440012","name":"Karben, Stadt","type":"Stadt"},"district":{"key":"06440","name":"Wetteraukreis","type":"Landkreis"},"federalState":{"key":"06","name":"Hessen"}},{"name":"Amtskellerstr.","postalCode":"61184","locality":"Karben","municipality":{"key":"06440012","name":"Karben, Stadt","type":"Stadt"},"district":{"key":"06440","name":"Wetteraukreis","type":"Landkreis"},"federalState":{"key":"06","name":"Hessen"}},{"name":"Am Warthweg","postalCode":"61184","locality":"Karben","municipality":{"key":"06440012","name":"Karben, Stadt","type":"Stadt"},"district":{"key":"06440","name":"Wetteraukreis","type":"Landkreis"},"federalState":{"key":"06","name":"Hessen"}},{"name":"Am Weißen Stein","postalCode":"61184","locality":"Karben","municipality":{"key":"06440012","name":"Karben, Stadt","type":"Stadt"},"district":{"key":"06440","name":"Wetteraukreis","type":"Landkreis"},"federalState":{"key":"06","name":"Hessen"}},{"name":"Am Wiesenrain","postalCode":"61184","locality":"Karben","municipality":{"key":"06440012","name":"Karben, Stadt","type":"Stadt"},"district":{"key":"06440","name":"Wetteraukreis","type":"Landkreis"},"federalState":{"key":"06","name":"Hessen"}},{"name":"An der Hochburg","postalCode":"61184","locality":"Karben","municipality":{"key":"06440012","name":"Karben, Stadt","type":"Stadt"},"district":{"key":"06440","name":"Wetteraukreis","type":"Landkreis"},"federalState":{"key":"06","name":"Hessen"}},{"name":"Arnsburger Str.","postalCode":"61184","locality":"Karben","municipality":{"key":"06440012","name":"Karben, Stadt","type":"Stadt"},"district":{"key":"06440","name":"Wetteraukreis","type":"Landkreis"},"federalState":{"key":"06","name":"Hessen"}},{"name":"Assenheimer Str.","postalCode":"61184","locality":"Karben","municipality":{"key":"06440012","name":"Karben, Stadt","type":"Stadt"},"district":{"key":"06440","name":"Wetteraukreis","type":"Landkreis"},"federalState":{"key":"06","name":"Hessen"}},{"name":"Auf dem Berg","postalCode":"61184","locality":"Karben","municipality":{"key":"06440012","name":"Karben, Stadt","type":"Stadt"},"district":{"key":"06440","name":"Wetteraukreis","type":"Landkreis"},"federalState":{"key":"06","name":"Hessen"}},{"name":"Auf den Ellern","postalCode":"61184","locality":"Karben","municipality":{"key":"06440012","name":"Karben, Stadt","type":"Stadt"},"district":{"key":"06440","name":"Wetteraukreis","type":"Landkreis"},"federalState":{"key":"06","name":"Hessen"}},{"name":"Auf der Warte","postalCode":"61184","locality":"Karben","municipality":{"key":"06440012","name":"Karben, Stadt","type":"Stadt"},"district":{"key":"06440","name":"Wetteraukreis","type":"Landkreis"},"federalState":{"key":"06","name":"Hessen"}},{"name":"August-Bebel-Str.","postalCode":"61184","locality":"Karben","municipality":{"key":"06440012","name":"Karben, Stadt","type":"Stadt"},"district":{"key":"06440","name":"Wetteraukreis","type":"Landkreis"},"federalState":{"key":"06","name":"Hessen"}},{"name":"August-Buß-Weg","postalCode":"61184","locality":"Karben","municipality":{"key":"06440012","name":"Karben, Stadt","type":"Stadt"},"district":{"key":"06440","name":"Wetteraukreis","type":"Landkreis"},"federalState":{"key":"06","name":"Hessen"}},{"name":"Außerhalb","postalCode":"61184","locality":"Karben","municipality":{"key":"06440012","name":"Karben, Stadt","type":"Stadt"},"district":{"key":"06440","name":"Wetteraukreis","type":"Landkreis"},"federalState":{"key":"06","name":"Hessen"}},{"name":"Bäckergasse","postalCode":"61184","locality":"Karben","municipality":{"key":"06440012","name":"Karben, Stadt","type":"Stadt"},"district":{"key":"06440","name":"Wetteraukreis","type":"Landkreis"},"federalState":{"key":"06","name":"Hessen"}},{"name":"Bahnhofstr.","postalCode":"61184","locality":"Karben","municipality":{"key":"06440012","name":"Karben, Stadt","type":"Stadt"},"district":{"key":"06440","name":"Wetteraukreis","type":"Landkreis"},"federalState":{"key":"06","name":"Hessen"}},{"name":"Bahnstr.","postalCode":"61184","locality":"Karben","municipality":{"key":"06440012","name":"Karben, Stadt","type":"Stadt"},"district":{"key":"06440","name":"Wetteraukreis","type":"Landkreis"},"federalState":{"key":"06","name":"Hessen"}},{"name":"Berenger Str.","postalCode":"61184","locality":"Karben","municipality":{"key":"06440012","name":"Karben, Stadt","type":"Stadt"},"district":{"key":"06440","name":"Wetteraukreis","type":"Landkreis"},"federalState":{"key":"06","name":"Hessen"}},{"name":"Bergstr.","postalCode":"61184","locality":"Karben","municipality":{"key":"06440012","name":"Karben, Stadt","type":"Stadt"},"district":{"key":"06440","name":"Wetteraukreis","type":"Landkreis"},"federalState":{"key":"06","name":"Hessen"}},{"name":"Berliner Str.","postalCode":"61184","locality":"Karben","municipality":{"key":"06440012","name":"Karben, Stadt","type":"Stadt"},"district":{"key":"06440","name":"Wetteraukreis","type":"Landkreis"},"federalState":{"key":"06","name":"Hessen"}},{"name":"Bindweidgraben","postalCode":"61184","locality":"Karben","municipality":{"key":"06440012","name":"Karben, Stadt","type":"Stadt"},"district":{"key":"06440","name":"Wetteraukreis","type":"Landkreis"},"federalState":{"key":"06","name":"Hessen"}},{"name":"Bindweidring","postalCode":"61184","locality":"Karben","municipality":{"key":"06440012","name":"Karben, Stadt","type":"Stadt"},"district":{"key":"06440","name":"Wetteraukreis","type":"Landkreis"},"federalState":{"key":"06","name":"Hessen"}},{"name":"Birkenweg","postalCode":"61184","locality":"Karben","municipality":{"key":"06440012","name":"Karben, Stadt","type":"Stadt"},"district":{"key":"06440","name":"Wetteraukreis","type":"Landkreis"},"federalState":{"key":"06","name":"Hessen"}},{"name":"Bismarckstr.","postalCode":"61184","locality":"Karben","municipality":{"key":"06440012","name":"Karben, Stadt","type":"Stadt"},"district":{"key":"06440","name":"Wetteraukreis","type":"Landkreis"},"federalState":{"key":"06","name":"Hessen"}},{"name":"Bogenstr.","postalCode":"61184","locality":"Karben","municipality":{"key":"06440012","name":"Karben, Stadt","type":"Stadt"},"district":{"key":"06440","name":"Wetteraukreis","type":"Landkreis"},"federalState":{"key":"06","name":"Hessen"}},{"name":"Bornmühle","postalCode":"61184","locality":"Karben","municipality":{"key":"06440012","name":"Karben, Stadt","type":"Stadt"},"district":{"key":"06440","name":"Wetteraukreis","type":"Landkreis"},"federalState":{"key":"06","name":"Hessen"}},{"name":"Bornweg","postalCode":"61184","locality":"Karben","municipality":{"key":"06440012","name":"Karben, Stadt","type":"Stadt"},"district":{"key":"06440","name":"Wetteraukreis","type":"Landkreis"},"federalState":{"key":"06","name":"Hessen"}},{"name":"Bornwiesenweg","postalCode":"61184","locality":"Karben","municipality":{"key":"06440012","name":"Karben, Stadt","type":"Stadt"},"district":{"key":"06440","name":"Wetteraukreis","type":"Landkreis"},"federalState":{"key":"06","name":"Hessen"}},{"name":"Brauweg","postalCode":"61184","locality":"Karben","municipality":{"key":"06440012","name":"Karben, Stadt","type":"Stadt"},"district":{"key":"06440","name":"Wetteraukreis","type":"Landkreis"},"federalState":{"key":"06","name":"Hessen"}},{"name":"Breslauer Str.","postalCode":"61184","locality":"Karben","municipality":{"key":"06440012","name":"Karben, Stadt","type":"Stadt"},"district":{"key":"06440","name":"Wetteraukreis","type":"Landkreis"},"federalState":{"key":"06","name":"Hessen"}},{"name":"Brunnenstr.","postalCode":"61184","locality":"Karben","municipality":{"key":"06440012","name":"Karben, Stadt","type":"Stadt"},"district":{"key":"06440","name":"Wetteraukreis","type":"Landkreis"},"federalState":{"key":"06","name":"Hessen"}},{"name":"Buchenweg","postalCode":"61184","locality":"Karben","municipality":{"key":"06440012","name":"Karben, Stadt","type":"Stadt"},"district":{"key":"06440","name":"Wetteraukreis","type":"Landkreis"},"federalState":{"key":"06","name":"Hessen"}},{"name":"Büdesheimer Str.","postalCode":"61184","locality":"Karben","municipality":{"key":"06440012","name":"Karben, Stadt","type":"Stadt"},"district":{"key":"06440","name":"Wetteraukreis","type":"Landkreis"},"federalState":{"key":"06","name":"Hessen"}},{"name":"Büdesheimer Weg","postalCode":"61184","locality":"Karben","municipality":{"key":"06440012","name":"Karben, Stadt","type":"Stadt"},"district":{"key":"06440","name":"Wetteraukreis","type":"Landkreis"},"federalState":{"key":"06","name":"Hessen"}},{"name":"Burg-Gräfenröder-Str.","postalCode":"61184","locality":"Karben","municipality":{"key":"06440012","name":"Karben, Stadt","type":"Stadt"},"district":{"key":"06440","name":"Wetteraukreis","type":"Landkreis"},"federalState":{"key":"06","name":"Hessen"}},{"name":"Burgstr.","postalCode":"61184","locality":"Karben","municipality":{"key":"06440012","name":"Karben, Stadt","type":"Stadt"},"district":{"key":"06440","name":"Wetteraukreis","type":"Landkreis"},"federalState":{"key":"06","name":"Hessen"}},{"name":"Chattenweg","postalCode":"61184","locality":"Karben","municipality":{"key":"06440012","name":"Karben, Stadt","type":"Stadt"},"district":{"key":"06440","name":"Wetteraukreis","type":"Landkreis"},"federalState":{"key":"06","name":"Hessen"}},{"name":"Christinenstr.","postalCode":"61184","locality":"Karben","municipality":{"key":"06440012","name":"Karben, Stadt","type":"Stadt"},"district":{"key":"06440","name":"Wetteraukreis","type":"Landkreis"},"federalState":{"key":"06","name":"Hessen"}},{"name":"Danziger Str.","postalCode":"61184","locality":"Karben","municipality":{"key":"06440012","name":"Karben, Stadt","type":"Stadt"},"district":{"key":"06440","name":"Wetteraukreis","type":"Landkreis"},"federalState":{"key":"06","name":"Hessen"}},{"name":"Detlev-Engel-Platz","postalCode":"61184","locality":"Karben","municipality":{"key":"06440012","name":"Karben, Stadt","type":"Stadt"},"district":{"key":"06440","name":"Wetteraukreis","type":"Landkreis"},"federalState":{"key":"06","name":"Hessen"}},{"name":"Deutschherrenweg","postalCode":"61184","locality":"Karben","municipality":{"key":"06440012","name":"Karben, Stadt","type":"Stadt"},"district":{"key":"06440","name":"Wetteraukreis","type":"Landkreis"},"federalState":{"key":"06","name":"Hessen"}},{"name":"Die Fuchslöcher","postalCode":"61184","locality":"Karben","municipality":{"key":"06440012","name":"Karben, Stadt","type":"Stadt"},"district":{"key":"06440","name":"Wetteraukreis","type":"Landkreis"},"federalState":{"key":"06","name":"Hessen"}},{"name":"Die Mauergärten","postalCode":"61184","locality":"Karben","municipality":{"key":"06440012","name":"Karben, Stadt","type":"Stadt"},"district":{"key":"06440","name":"Wetteraukreis","type":"Landkreis"},"federalState":{"key":"06","name":"Hessen"}},{"name":"Dieselstr.","postalCode":"61184","locality":"Karben","municipality":{"key":"06440012","name":"Karben, Stadt","type":"Stadt"},"district":{"key":"06440","name":"Wetteraukreis","type":"Landkreis"},"federalState":{"key":"06","name":"Hessen"}},{"name":"Dorfelder Str.","postalCode":"61184","locality":"Karben","municipality":{"key":"06440012","name":"Karben, Stadt","type":"Stadt"},"district":{"key":"06440","name":"Wetteraukreis","type":"Landkreis"},"federalState":{"key":"06","name":"Hessen"}},{"name":"Dornbachweg","postalCode":"61184","locality":"Karben","municipality":{"key":"06440012","name":"Karben, Stadt","type":"Stadt"},"district":{"key":"06440","name":"Wetteraukreis","type":"Landkreis"},"federalState":{"key":"06","name":"Hessen"}},{"name":"Dortelweiler Str.","postalCode":"61184","locality":"Karben","municipality":{"key":"06440012","name":"Karben, Stadt","type":"Stadt"},"district":{"key":"06440","name":"Wetteraukreis","type":"Landkreis"},"federalState":{"key":"06","name":"Hessen"}},{"name":"Eckhardsgraben","postalCode":"61184","locality":"Karben","municipality":{"key":"06440012","name":"Karben, Stadt","type":"Stadt"},"district":{"key":"06440","name":"Wetteraukreis","type":"Landkreis"},"federalState":{"key":"06","name":"Hessen"}},{"name":"Egerländer Str.","postalCode":"61184","locality":"Karben","municipality":{"key":"06440012","name":"Karben, Stadt","type":"Stadt"},"district":{"key":"06440","name":"Wetteraukreis","type":"Landkreis"},"federalState":{"key":"06","name":"Hessen"}},{"name":"Egerstr.","postalCode":"61184","locality":"Karben","municipality":{"key":"06440012","name":"Karben, Stadt","type":"Stadt"},"district":{"key":"06440","name":"Wetteraukreis","type":"Landkreis"},"federalState":{"key":"06","name":"Hessen"}},{"name":"Eichendorffstr.","postalCode":"61184","locality":"Karben","municipality":{"key":"06440012","name":"Karben, Stadt","type":"Stadt"},"district":{"key":"06440","name":"Wetteraukreis","type":"Landkreis"},"federalState":{"key":"06","name":"Hessen"}},{"name":"Eifelweg","postalCode":"61184","locality":"Karben","municipality":{"key":"06440012","name":"Karben, Stadt","type":"Stadt"},"district":{"key":"06440","name":"Wetteraukreis","type":"Landkreis"},"federalState":{"key":"06","name":"Hessen"}},{"name":"Einsiedelweg","postalCode":"61184","locality":"Karben","municipality":{"key":"06440012","name":"Karben, Stadt","type":"Stadt"},"district":{"key":"06440","name":"Wetteraukreis","type":"Landkreis"},"federalState":{"key":"06","name":"Hessen"}},{"name":"Elisabethenstr.","postalCode":"61184","locality":"Karben","municipality":{"key":"06440012","name":"Karben, Stadt","type":"Stadt"},"district":{"key":"06440","name":"Wetteraukreis","type":"Landkreis"},"federalState":{"key":"06","name":"Hessen"}},{"name":"Ellernstr.","postalCode":"61184","locality":"Karben","municipality":{"key":"06440012","name":"Karben, Stadt","type":"Stadt"},"district":{"key":"06440","name":"Wetteraukreis","type":"Landkreis"},"federalState":{"key":"06","name":"Hessen"}},{"name":"Erich-Kästner-Str.","postalCode":"61184","locality":"Karben","municipality":{"key":"06440012","name":"Karben, Stadt","type":"Stadt"},"district":{"key":"06440","name":"Wetteraukreis","type":"Landkreis"},"federalState":{"key":"06","name":"Hessen"}},{"name":"Erlenweg","postalCode":"61184","locality":"Karben","municipality":{"key":"06440012","name":"Karben, Stadt","type":"Stadt"},"district":{"key":"06440","name":"Wetteraukreis","type":"Landkreis"},"federalState":{"key":"06","name":"Hessen"}},{"name":"Ernst-Reuter-Str.","postalCode":"61184","locality":"Karben","municipality":{"key":"06440012","name":"Karben, Stadt","type":"Stadt"},"district":{"key":"06440","name":"Wetteraukreis","type":"Landkreis"},"federalState":{"key":"06","name":"Hessen"}},{"name":"Falkensteinstr.","postalCode":"61184","locality":"Karben","municipality":{"key":"06440012","name":"Karben, Stadt","type":"Stadt"},"district":{"key":"06440","name":"Wetteraukreis","type":"Landkreis"},"federalState":{"key":"06","name":"Hessen"}},{"name":"Falkenweg","postalCode":"61184","locality":"Karben","municipality":{"key":"06440012","name":"Karben, Stadt","type":"Stadt"},"district":{"key":"06440","name":"Wetteraukreis","type":"Landkreis"},"federalState":{"key":"06","name":"Hessen"}},{"name":"Feldbergstr.","postalCode":"61184","locality":"Karben","municipality":{"key":"06440012","name":"Karben, Stadt","type":"Stadt"},"district":{"key":"06440","name":"Wetteraukreis","type":"Landkreis"},"federalState":{"key":"06","name":"Hessen"}},{"name":"Feldcheshol","postalCode":"61184","locality":"Karben","municipality":{"key":"06440012","name":"Karben, Stadt","type":"Stadt"},"district":{"key":"06440","name":"Wetteraukreis","type":"Landkreis"},"federalState":{"key":"06","name":"Hessen"}},{"name":"Feldstr.","postalCode":"61184","locality":"Karben","municipality":{"key":"06440012","name":"Karben, Stadt","type":"Stadt"},"district":{"key":"06440","name":"Wetteraukreis","type":"Landkreis"},"federalState":{"key":"06","name":"Hessen"}},{"name":"Feldweidweg","postalCode":"61184","locality":"Karben","municipality":{"key":"06440012","name":"Karben, Stadt","type":"Stadt"},"district":{"key":"06440","name":"Wetteraukreis","type":"Landkreis"},"federalState":{"key":"06","name":"Hessen"}},{"name":"Felix-von-Gruner-Str.","postalCode":"61184","locality":"Karben","municipality":{"key":"06440012","name":"Karben, Stadt","type":"Stadt"},"district":{"key":"06440","name":"Wetteraukreis","type":"Landkreis"},"federalState":{"key":"06","name":"Hessen"}},{"name":"Flurstr.","postalCode":"61184","locality":"Karben","municipality":{"key":"06440012","name":"Karben, Stadt","type":"Stadt"},"district":{"key":"06440","name":"Wetteraukreis","type":"Landkreis"},"federalState":{"key":"06","name":"Hessen"}},{"name":"Forsthausstr.","postalCode":"61184","locality":"Karben","municipality":{"key":"06440012","name":"Karben, Stadt","type":"Stadt"},"district":{"key":"06440","name":"Wetteraukreis","type":"Landkreis"},"federalState":{"key":"06","name":"Hessen"}},{"name":"Forsthausweg","postalCode":"61184","locality":"Karben","municipality":{"key":"06440012","name":"Karben, Stadt","type":"Stadt"},"district":{"key":"06440","name":"Wetteraukreis","type":"Landkreis"},"federalState":{"key":"06","name":"Hessen"}},{"name":"Frankenweg","postalCode":"61184","locality":"Karben","municipality":{"key":"06440012","name":"Karben, Stadt","type":"Stadt"},"district":{"key":"06440","name":"Wetteraukreis","type":"Landkreis"},"federalState":{"key":"06","name":"Hessen"}},{"name":"Frankfurter Str.","postalCode":"61184","locality":"Karben","municipality":{"key":"06440012","name":"Karben, Stadt","type":"Stadt"},"district":{"key":"06440","name":"Wetteraukreis","type":"Landkreis"},"federalState":{"key":"06","name":"Hessen"}},{"name":"Freiherr-vom-Stein-Str.","postalCode":"61184","locality":"Karben","municipality":{"key":"06440012","name":"Karben, Stadt","type":"Stadt"},"district":{"key":"06440","name":"Wetteraukreis","type":"Landkreis"},"federalState":{"key":"06","name":"Hessen"}},{"name":"Freihofstr.","postalCode":"61184","locality":"Karben","municipality":{"key":"06440012","name":"Karben, Stadt","type":"Stadt"},"district":{"key":"06440","name":"Wetteraukreis","type":"Landkreis"},"federalState":{"key":"06","name":"Hessen"}},{"name":"Friedberger Str.","postalCode":"61184","locality":"Karben","municipality":{"key":"06440012","name":"Karben, Stadt","type":"Stadt"},"district":{"key":"06440","name":"Wetteraukreis","type":"Landkreis"},"federalState":{"key":"06","name":"Hessen"}},{"name":"Friedensstr.","postalCode":"61184","locality":"Karben","municipality":{"key":"06440012","name":"Karben, Stadt","type":"Stadt"},"district":{"key":"06440","name":"Wetteraukreis","type":"Landkreis"},"federalState":{"key":"06","name":"Hessen"}},{"name":"Friedhofsweg","postalCode":"61184","locality":"Karben","municipality":{"key":"06440012","name":"Karben, Stadt","type":"Stadt"},"district":{"key":"06440","name":"Wetteraukreis","type":"Landkreis"},"federalState":{"key":"06","name":"Hessen"}},{"name":"Friedrich-Ebert-Str.","postalCode":"61184","locality":"Karben","municipality":{"key":"06440012","name":"Karben, Stadt","type":"Stadt"},"district":{"key":"06440","name":"Wetteraukreis","type":"Landkreis"},"federalState":{"key":"06","name":"Hessen"}},{"name":"Fuhrweg","postalCode":"61184","locality":"Karben","municipality":{"key":"06440012","name":"Karben, Stadt","type":"Stadt"},"district":{"key":"06440","name":"Wetteraukreis","type":"Landkreis"},"federalState":{"key":"06","name":"Hessen"}},{"name":"Fuldaer Weg","postalCode":"61184","locality":"Karben","municipality":{"key":"06440012","name":"Karben, Stadt","type":"Stadt"},"district":{"key":"06440","name":"Wetteraukreis","type":"Landkreis"},"federalState":{"key":"06","name":"Hessen"}},{"name":"Gartenstr.","postalCode":"61184","locality":"Karben","municipality":{"key":"06440012","name":"Karben, Stadt","type":"Stadt"},"district":{"key":"06440","name":"Wetteraukreis","type":"Landkreis"},"federalState":{"key":"06","name":"Hessen"}},{"name":"Gastespitzweg","postalCode":"61184","locality":"Karben","municipality":{"key":"06440012","name":"Karben, Stadt","type":"Stadt"},"district":{"key":"06440","name":"Wetteraukreis","type":"Landkreis"},"federalState":{"key":"06","name":"Hessen"}},{"name":"Geleitsweg","postalCode":"61184","locality":"Karben","municipality":{"key":"06440012","name":"Karben, Stadt","type":"Stadt"},"district":{"key":"06440","name":"Wetteraukreis","type":"Landkreis"},"federalState":{"key":"06","name":"Hessen"}},{"name":"Georg-Büchner-Str.","postalCode":"61184","locality":"Karben","municipality":{"key":"06440012","name":"Karben, Stadt","type":"Stadt"},"district":{"key":"06440","name":"Wetteraukreis","type":"Landkreis"},"federalState":{"key":"06","name":"Hessen"}},{"name":"Geringsweg","postalCode":"61184","locality":"Karben","municipality":{"key":"06440012","name":"Karben, Stadt","type":"Stadt"},"district":{"key":"06440","name":"Wetteraukreis","type":"Landkreis"},"federalState":{"key":"06","name":"Hessen"}},{"name":"Goerdelerstr.","postalCode":"61184","locality":"Karben","municipality":{"key":"06440012","name":"Karben, Stadt","type":"Stadt"},"district":{"key":"06440","name":"Wetteraukreis","type":"Landkreis"},"federalState":{"key":"06","name":"Hessen"}},{"name":"Goethestr.","postalCode":"61184","locality":"Karben","municipality":{"key":"06440012","name":"Karben, Stadt","type":"Stadt"},"district":{"key":"06440","name":"Wetteraukreis","type":"Landkreis"},"federalState":{"key":"06","name":"Hessen"}},{"name":"Grenzhöfe","postalCode":"61184","locality":"Karben","municipality":{"key":"06440012","name":"Karben, Stadt","type":"Stadt"},"district":{"key":"06440","name":"Wetteraukreis","type":"Landkreis"},"federalState":{"key":"06","name":"Hessen"}},{"name":"Grenzweg","postalCode":"61184","locality":"Karben","municipality":{"key":"06440012","name":"Karben, Stadt","type":"Stadt"},"district":{"key":"06440","name":"Wetteraukreis","type":"Landkreis"},"federalState":{"key":"06","name":"Hessen"}},{"name":"Gronauer Str.","postalCode":"61184","locality":"Karben","municipality":{"key":"06440012","name":"Karben, Stadt","type":"Stadt"},"district":{"key":"06440","name":"Wetteraukreis","type":"Landkreis"},"federalState":{"key":"06","name":"Hessen"}},{"name":"Gronauer Weg","postalCode":"61184","locality":"Karben","municipality":{"key":"06440012","name":"Karben, Stadt","type":"Stadt"},"district":{"key":"06440","name":"Wetteraukreis","type":"Landkreis"},"federalState":{"key":"06","name":"Hessen"}},{"name":"Großgasse","postalCode":"61184","locality":"Karben","municipality":{"key":"06440012","name":"Karben, Stadt","type":"Stadt"},"district":{"key":"06440","name":"Wetteraukreis","type":"Landkreis"},"federalState":{"key":"06","name":"Hessen"}},{"name":"Gutenbergstr.","postalCode":"61184","locality":"Karben","municipality":{"key":"06440012","name":"Karben, Stadt","type":"Stadt"},"district":{"key":"06440","name":"Wetteraukreis","type":"Landkreis"},"federalState":{"key":"06","name":"Hessen"}},{"name":"Hainbuchenstr.","postalCode":"61184","locality":"Karben","municipality":{"key":"06440012","name":"Karben, Stadt","type":"Stadt"},"district":{"key":"06440","name":"Wetteraukreis","type":"Landkreis"},"federalState":{"key":"06","name":"Hessen"}},{"name":"Haingasse","postalCode":"61184","locality":"Karben","municipality":{"key":"06440012","name":"Karben, Stadt","type":"Stadt"},"district":{"key":"06440","name":"Wetteraukreis","type":"Landkreis"},"federalState":{"key":"06","name":"Hessen"}},{"name":"Haingraben","postalCode":"61184","locality":"Karben","municipality":{"key":"06440012","name":"Karben, Stadt","type":"Stadt"},"district":{"key":"06440","name":"Wetteraukreis","type":"Landkreis"},"federalState":{"key":"06","name":"Hessen"}},{"name":"Hanauer Str.","postalCode":"61184","locality":"Karben","municipality":{"key":"06440012","name":"Karben, Stadt","type":"Stadt"},"district":{"key":"06440","name":"Wetteraukreis","type":"Landkreis"},"federalState":{"key":"06","name":"Hessen"}},{"name":"Hauptstr.","postalCode":"61184","locality":"Karben","municipality":{"key":"06440012","name":"Karben, Stadt","type":"Stadt"},"district":{"key":"06440","name":"Wetteraukreis","type":"Landkreis"},"federalState":{"key":"06","name":"Hessen"}},{"name":"Heidegasse","postalCode":"61184","locality":"Karben","municipality":{"key":"06440012","name":"Karben, Stadt","type":"Stadt"},"district":{"key":"06440","name":"Wetteraukreis","type":"Landkreis"},"federalState":{"key":"06","name":"Hessen"}},{"name":"Heilighäuser Ring","postalCode":"61184","locality":"Karben","municipality":{"key":"06440012","name":"Karben, Stadt","type":"Stadt"},"district":{"key":"06440","name":"Wetteraukreis","type":"Landkreis"},"federalState":{"key":"06","name":"Hessen"}},{"name":"Heinrich-Steih-Str.","postalCode":"61184","locality":"Karben","municipality":{"key":"06440012","name":"Karben, Stadt","type":"Stadt"},"district":{"key":"06440","name":"Wetteraukreis","type":"Landkreis"},"federalState":{"key":"06","name":"Hessen"}},{"name":"Heinrich-Walter-Str.","postalCode":"61184","locality":"Karben","municipality":{"key":"06440012","name":"Karben, Stadt","type":"Stadt"},"district":{"key":"06440","name":"Wetteraukreis","type":"Landkreis"},"federalState":{"key":"06","name":"Hessen"}},{"name":"Heitzhöfer Str.","postalCode":"61184","locality":"Karben","municipality":{"key":"06440012","name":"Karben, Stadt","type":"Stadt"},"district":{"key":"06440","name":"Wetteraukreis","type":"Landkreis"},"federalState":{"key":"06","name":"Hessen"}},{"name":"Heldenberger Str.","postalCode":"61184","locality":"Karben","municipality":{"key":"06440012","name":"Karben, Stadt","type":"Stadt"},"district":{"key":"06440","name":"Wetteraukreis","type":"Landkreis"},"federalState":{"key":"06","name":"Hessen"}},{"name":"Heldenberger Weg","postalCode":"61184","locality":"Karben","municipality":{"key":"06440012","name":"Karben, Stadt","type":"Stadt"},"district":{"key":"06440","name":"Wetteraukreis","type":"Landkreis"},"federalState":{"key":"06","name":"Hessen"}},{"name":"Herrnwiesenweg","postalCode":"61184","locality":"Karben","municipality":{"key":"06440012","name":"Karben, Stadt","type":"Stadt"},"district":{"key":"06440","name":"Wetteraukreis","type":"Landkreis"},"federalState":{"key":"06","name":"Hessen"}},{"name":"Hessenring","postalCode":"61184","locality":"Karben","municipality":{"key":"06440012","name":"Karben, Stadt","type":"Stadt"},"district":{"key":"06440","name":"Wetteraukreis","type":"Landkreis"},"federalState":{"key":"06","name":"Hessen"}},{"name":"Hirschbacher Str.","postalCode":"61184","locality":"Karben","municipality":{"key":"06440012","name":"Karben, Stadt","type":"Stadt"},"district":{"key":"06440","name":"Wetteraukreis","type":"Landkreis"},"federalState":{"key":"06","name":"Hessen"}},{"name":"Hochholzweg","postalCode":"61184","locality":"Karben","municipality":{"key":"06440012","name":"Karben, Stadt","type":"Stadt"},"district":{"key":"06440","name":"Wetteraukreis","type":"Landkreis"},"federalState":{"key":"06","name":"Hessen"}},{"name":"Höfer Weg","postalCode":"61184","locality":"Karben","municipality":{"key":"06440012","name":"Karben, Stadt","type":"Stadt"},"district":{"key":"06440","name":"Wetteraukreis","type":"Landkreis"},"federalState":{"key":"06","name":"Hessen"}},{"name":"Höhenweg","postalCode":"61184","locality":"Karben","municipality":{"key":"06440012","name":"Karben, Stadt","type":"Stadt"},"district":{"key":"06440","name":"Wetteraukreis","type":"Landkreis"},"federalState":{"key":"06","name":"Hessen"}},{"name":"Holtzmannstr.","postalCode":"61184","locality":"Karben","municipality":{"key":"06440012","name":"Karben, Stadt","type":"Stadt"},"district":{"key":"06440","name":"Wetteraukreis","type":"Landkreis"},"federalState":{"key":"06","name":"Hessen"}},{"name":"Holunderweg","postalCode":"61184","locality":"Karben","municipality":{"key":"06440012","name":"Karben, Stadt","type":"Stadt"},"district":{"key":"06440","name":"Wetteraukreis","type":"Landkreis"},"federalState":{"key":"06","name":"Hessen"}},{"name":"Homburger Str.","postalCode":"61184","locality":"Karben","municipality":{"key":"06440012","name":"Karben, Stadt","type":"Stadt"},"district":{"key":"06440","name":"Wetteraukreis","type":"Landkreis"},"federalState":{"key":"06","name":"Hessen"}},{"name":"Hügelstr.","postalCode":"61184","locality":"Karben","municipality":{"key":"06440012","name":"Karben, Stadt","type":"Stadt"},"district":{"key":"06440","name":"Wetteraukreis","type":"Landkreis"},"federalState":{"key":"06","name":"Hessen"}},{"name":"Ilbenstädter Str.","postalCode":"61184","locality":"Karben","municipality":{"key":"06440012","name":"Karben, Stadt","type":"Stadt"},"district":{"key":"06440","name":"Wetteraukreis","type":"Landkreis"},"federalState":{"key":"06","name":"Hessen"}},{"name":"Im Niederfeld","postalCode":"61184","locality":"Karben","municipality":{"key":"06440012","name":"Karben, Stadt","type":"Stadt"},"district":{"key":"06440","name":"Wetteraukreis","type":"Landkreis"},"federalState":{"key":"06","name":"Hessen"}},{"name":"Im Rosengarten","postalCode":"61184","locality":"Karben","municipality":{"key":"06440012","name":"Karben, Stadt","type":"Stadt"},"district":{"key":"06440","name":"Wetteraukreis","type":"Landkreis"},"federalState":{"key":"06","name":"Hessen"}},{"name":"Im Sauerborn","postalCode":"61184","locality":"Karben","municipality":{"key":"06440012","name":"Karben, Stadt","type":"Stadt"},"district":{"key":"06440","name":"Wetteraukreis","type":"Landkreis"},"federalState":{"key":"06","name":"Hessen"}},{"name":"In den Obergärten","postalCode":"61184","locality":"Karben","municipality":{"key":"06440012","name":"Karben, Stadt","type":"Stadt"},"district":{"key":"06440","name":"Wetteraukreis","type":"Landkreis"},"federalState":{"key":"06","name":"Hessen"}},{"name":"Industriestr.","postalCode":"61184","locality":"Karben","municipality":{"key":"06440012","name":"Karben, Stadt","type":"Stadt"},"district":{"key":"06440","name":"Wetteraukreis","type":"Landkreis"},"federalState":{"key":"06","name":"Hessen"}},{"name":"Jahnstr.","postalCode":"61184","locality":"Karben","municipality":{"key":"06440012","name":"Karben, Stadt","type":"Stadt"},"district":{"key":"06440","name":"Wetteraukreis","type":"Landkreis"},"federalState":{"key":"06","name":"Hessen"}},{"name":"Justus-Liebig-Str.","postalCode":"61184","locality":"Karben","municipality":{"key":"06440012","name":"Karben, Stadt","type":"Stadt"},"district":{"key":"06440","name":"Wetteraukreis","type":"Landkreis"},"federalState":{"key":"06","name":"Hessen"}},{"name":"Kaicher Waldweg","postalCode":"61184","locality":"Karben","municipality":{"key":"06440012","name":"Karben, Stadt","type":"Stadt"},"district":{"key":"06440","name":"Wetteraukreis","type":"Landkreis"},"federalState":{"key":"06","name":"Hessen"}},{"name":"Kaicher Weg","postalCode":"61184","locality":"Karben","municipality":{"key":"06440012","name":"Karben, Stadt","type":"Stadt"},"district":{"key":"06440","name":"Wetteraukreis","type":"Landkreis"},"federalState":{"key":"06","name":"Hessen"}},{"name":"Kantstr.","postalCode":"61184","locality":"Karben","municipality":{"key":"06440012","name":"Karben, Stadt","type":"Stadt"},"district":{"key":"06440","name":"Wetteraukreis","type":"Landkreis"},"federalState":{"key":"06","name":"Hessen"}},{"name":"Karbener Rosenhang","postalCode":"61184","locality":"Karben","municipality":{"key":"06440012","name":"Karben, Stadt","type":"Stadt"},"district":{"key":"06440","name":"Wetteraukreis","type":"Landkreis"},"federalState":{"key":"06","name":"Hessen"}},{"name":"Karbener Weg","postalCode":"61184","locality":"Karben","municipality":{"key":"06440012","name":"Karben, Stadt","type":"Stadt"},"district":{"key":"06440","name":"Wetteraukreis","type":"Landkreis"},"federalState":{"key":"06","name":"Hessen"}},{"name":"Karl-Liebknecht-Str.","postalCode":"61184","locality":"Karben","municipality":{"key":"06440012","name":"Karben, Stadt","type":"Stadt"},"district":{"key":"06440","name":"Wetteraukreis","type":"Landkreis"},"federalState":{"key":"06","name":"Hessen"}},{"name":"Karlsbader Str.","postalCode":"61184","locality":"Karben","municipality":{"key":"06440012","name":"Karben, Stadt","type":"Stadt"},"district":{"key":"06440","name":"Wetteraukreis","type":"Landkreis"},"federalState":{"key":"06","name":"Hessen"}},{"name":"Kastanienweg","postalCode":"61184","locality":"Karben","municipality":{"key":"06440012","name":"Karben, Stadt","type":"Stadt"},"district":{"key":"06440","name":"Wetteraukreis","type":"Landkreis"},"federalState":{"key":"06","name":"Hessen"}},{"name":"Kendelgasse","postalCode":"61184","locality":"Karben","municipality":{"key":"06440012","name":"Karben, Stadt","type":"Stadt"},"district":{"key":"06440","name":"Wetteraukreis","type":"Landkreis"},"federalState":{"key":"06","name":"Hessen"}},{"name":"Kiefernweg","postalCode":"61184","locality":"Karben","municipality":{"key":"06440012","name":"Karben, Stadt","type":"Stadt"},"district":{"key":"06440","name":"Wetteraukreis","type":"Landkreis"},"federalState":{"key":"06","name":"Hessen"}},{"name":"Kirchgasse","postalCode":"61184","locality":"Karben","municipality":{"key":"06440012","name":"Karben, Stadt","type":"Stadt"},"district":{"key":"06440","name":"Wetteraukreis","type":"Landkreis"},"federalState":{"key":"06","name":"Hessen"}},{"name":"Klärchenweg","postalCode":"61184","locality":"Karben","municipality":{"key":"06440012","name":"Karben, Stadt","type":"Stadt"},"district":{"key":"06440","name":"Wetteraukreis","type":"Landkreis"},"federalState":{"key":"06","name":"Hessen"}},{"name":"Kleingasse","postalCode":"61184","locality":"Karben","municipality":{"key":"06440012","name":"Karben, Stadt","type":"Stadt"},"district":{"key":"06440","name":"Wetteraukreis","type":"Landkreis"},"federalState":{"key":"06","name":"Hessen"}},{"name":"Klein-Karbener-Str.","postalCode":"61184","locality":"Karben","municipality":{"key":"06440012","name":"Karben, Stadt","type":"Stadt"},"district":{"key":"06440","name":"Wetteraukreis","type":"Landkreis"},"federalState":{"key":"06","name":"Hessen"}},{"name":"Klingelwiesenweg","postalCode":"61184","locality":"Karben","municipality":{"key":"06440012","name":"Karben, Stadt","type":"Stadt"},"district":{"key":"06440","name":"Wetteraukreis","type":"Landkreis"},"federalState":{"key":"06","name":"Hessen"}},{"name":"Königsberger Str.","postalCode":"61184","locality":"Karben","municipality":{"key":"06440012","name":"Karben, Stadt","type":"Stadt"},"district":{"key":"06440","name":"Wetteraukreis","type":"Landkreis"},"federalState":{"key":"06","name":"Hessen"}},{"name":"Kornblumenweg","postalCode":"61184","locality":"Karben","municipality":{"key":"06440012","name":"Karben, Stadt","type":"Stadt"},"district":{"key":"06440","name":"Wetteraukreis","type":"Landkreis"},"federalState":{"key":"06","name":"Hessen"}},{"name":"Krnover Platz","postalCode":"61184","locality":"Karben","municipality":{"key":"06440012","name":"Karben, Stadt","type":"Stadt"},"district":{"key":"06440","name":"Wetteraukreis","type":"Landkreis"},"federalState":{"key":"06","name":"Hessen"}},{"name":"Kurt-Schumacher-Str.","postalCode":"61184","locality":"Karben","municipality":{"key":"06440012","name":"Karben, Stadt","type":"Stadt"},"district":{"key":"06440","name":"Wetteraukreis","type":"Landkreis"},"federalState":{"key":"06","name":"Hessen"}},{"name":"Lärchenweg","postalCode":"61184","locality":"Karben","municipality":{"key":"06440012","name":"Karben, Stadt","type":"Stadt"},"district":{"key":"06440","name":"Wetteraukreis","type":"Landkreis"},"federalState":{"key":"06","name":"Hessen"}},{"name":"Lea-Weinberg-Str.","postalCode":"61184","locality":"Karben","municipality":{"key":"06440012","name":"Karben, Stadt","type":"Stadt"},"district":{"key":"06440","name":"Wetteraukreis","type":"Landkreis"},"federalState":{"key":"06","name":"Hessen"}},{"name":"Lessingstr.","postalCode":"61184","locality":"Karben","municipality":{"key":"06440012","name":"Karben, Stadt","type":"Stadt"},"district":{"key":"06440","name":"Wetteraukreis","type":"Landkreis"},"federalState":{"key":"06","name":"Hessen"}},{"name":"Limesstr.","postalCode":"61184","locality":"Karben","municipality":{"key":"06440012","name":"Karben, Stadt","type":"Stadt"},"district":{"key":"06440","name":"Wetteraukreis","type":"Landkreis"},"federalState":{"key":"06","name":"Hessen"}},{"name":"Lindenplatz","postalCode":"61184","locality":"Karben","municipality":{"key":"06440012","name":"Karben, Stadt","type":"Stadt"},"district":{"key":"06440","name":"Wetteraukreis","type":"Landkreis"},"federalState":{"key":"06","name":"Hessen"}},{"name":"Lindenstr.","postalCode":"61184","locality":"Karben","municipality":{"key":"06440012","name":"Karben, Stadt","type":"Stadt"},"district":{"key":"06440","name":"Wetteraukreis","type":"Landkreis"},"federalState":{"key":"06","name":"Hessen"}},{"name":"Lindenweg","postalCode":"61184","locality":"Karben","municipality":{"key":"06440012","name":"Karben, Stadt","type":"Stadt"},"district":{"key":"06440","name":"Wetteraukreis","type":"Landkreis"},"federalState":{"key":"06","name":"Hessen"}},{"name":"Lohgasse","postalCode":"61184","locality":"Karben","municipality":{"key":"06440012","name":"Karben, Stadt","type":"Stadt"},"district":{"key":"06440","name":"Wetteraukreis","type":"Landkreis"},"federalState":{"key":"06","name":"Hessen"}},{"name":"Lorscher Weg","postalCode":"61184","locality":"Karben","municipality":{"key":"06440012","name":"Karben, Stadt","type":"Stadt"},"district":{"key":"06440","name":"Wetteraukreis","type":"Landkreis"},"federalState":{"key":"06","name":"Hessen"}},{"name":"Löwengasse","postalCode":"61184","locality":"Karben","municipality":{"key":"06440012","name":"Karben, Stadt","type":"Stadt"},"district":{"key":"06440","name":"Wetteraukreis","type":"Landkreis"},"federalState":{"key":"06","name":"Hessen"}},{"name":"Ludwigsbrunnen","postalCode":"61184","locality":"Karben","municipality":{"key":"06440012","name":"Karben, Stadt","type":"Stadt"},"district":{"key":"06440","name":"Wetteraukreis","type":"Landkreis"},"federalState":{"key":"06","name":"Hessen"}},{"name":"Ludwigstr.","postalCode":"61184","locality":"Karben","municipality":{"key":"06440012","name":"Karben, Stadt","type":"Stadt"},"district":{"key":"06440","name":"Wetteraukreis","type":"Landkreis"},"federalState":{"key":"06","name":"Hessen"}},{"name":"Luisenstr.","postalCode":"61184","locality":"Karben","municipality":{"key":"06440012","name":"Karben, Stadt","type":"Stadt"},"district":{"key":"06440","name":"Wetteraukreis","type":"Landkreis"},"federalState":{"key":"06","name":"Hessen"}},{"name":"Luisenthaler Str.","postalCode":"61184","locality":"Karben","municipality":{"key":"06440012","name":"Karben, Stadt","type":"Stadt"},"district":{"key":"06440","name":"Wetteraukreis","type":"Landkreis"},"federalState":{"key":"06","name":"Hessen"}},{"name":"Marienbader Str.","postalCode":"61184","locality":"Karben","municipality":{"key":"06440012","name":"Karben, Stadt","type":"Stadt"},"district":{"key":"06440","name":"Wetteraukreis","type":"Landkreis"},"federalState":{"key":"06","name":"Hessen"}},{"name":"Marienstr.","postalCode":"61184","locality":"Karben","municipality":{"key":"06440012","name":"Karben, Stadt","type":"Stadt"},"district":{"key":"06440","name":"Wetteraukreis","type":"Landkreis"},"federalState":{"key":"06","name":"Hessen"}},{"name":"Martin-Luther-Str.","postalCode":"61184","locality":"Karben","municipality":{"key":"06440012","name":"Karben, Stadt","type":"Stadt"},"district":{"key":"06440","name":"Wetteraukreis","type":"Landkreis"},"federalState":{"key":"06","name":"Hessen"}},{"name":"Martins-Kirchgasse","postalCode":"61184","locality":"Karben","municipality":{"key":"06440012","name":"Karben, Stadt","type":"Stadt"},"district":{"key":"06440","name":"Wetteraukreis","type":"Landkreis"},"federalState":{"key":"06","name":"Hessen"}},{"name":"Max-Planck-Str.","postalCode":"61184","locality":"Karben","municipality":{"key":"06440012","name":"Karben, Stadt","type":"Stadt"},"district":{"key":"06440","name":"Wetteraukreis","type":"Landkreis"},"federalState":{"key":"06","name":"Hessen"}},{"name":"Mittelgasse","postalCode":"61184","locality":"Karben","municipality":{"key":"06440012","name":"Karben, Stadt","type":"Stadt"},"district":{"key":"06440","name":"Wetteraukreis","type":"Landkreis"},"federalState":{"key":"06","name":"Hessen"}},{"name":"Mittelweg","postalCode":"61184","locality":"Karben","municipality":{"key":"06440012","name":"Karben, Stadt","type":"Stadt"},"district":{"key":"06440","name":"Wetteraukreis","type":"Landkreis"},"federalState":{"key":"06","name":"Hessen"}},{"name":"Mühlgasse","postalCode":"61184","locality":"Karben","municipality":{"key":"06440012","name":"Karben, Stadt","type":"Stadt"},"district":{"key":"06440","name":"Wetteraukreis","type":"Landkreis"},"federalState":{"key":"06","name":"Hessen"}},{"name":"Naumburger Weg","postalCode":"61184","locality":"Karben","municipality":{"key":"06440012","name":"Karben, Stadt","type":"Stadt"},"district":{"key":"06440","name":"Wetteraukreis","type":"Landkreis"},"federalState":{"key":"06","name":"Hessen"}},{"name":"Neugasse","postalCode":"61184","locality":"Karben","municipality":{"key":"06440012","name":"Karben, Stadt","type":"Stadt"},"district":{"key":"06440","name":"Wetteraukreis","type":"Landkreis"},"federalState":{"key":"06","name":"Hessen"}},{"name":"Neumühle","postalCode":"61184","locality":"Karben","municipality":{"key":"06440012","name":"Karben, Stadt","type":"Stadt"},"district":{"key":"06440","name":"Wetteraukreis","type":"Landkreis"},"federalState":{"key":"06","name":"Hessen"}},{"name":"Niddastr.","postalCode":"61184","locality":"Karben","municipality":{"key":"06440012","name":"Karben, Stadt","type":"Stadt"},"district":{"key":"06440","name":"Wetteraukreis","type":"Landkreis"},"federalState":{"key":"06","name":"Hessen"}},{"name":"Nieder-Wöllstädter Str.","postalCode":"61184","locality":"Karben","municipality":{"key":"06440012","name":"Karben, Stadt","type":"Stadt"},"district":{"key":"06440","name":"Wetteraukreis","type":"Landkreis"},"federalState":{"key":"06","name":"Hessen"}},{"name":"Nordumgehung Karben","postalCode":"61184","locality":"Karben","municipality":{"key":"06440012","name":"Karben, Stadt","type":"Stadt"},"district":{"key":"06440","name":"Wetteraukreis","type":"Landkreis"},"federalState":{"key":"06","name":"Hessen"}},{"name":"Nordweg","postalCode":"61184","locality":"Karben","municipality":{"key":"06440012","name":"Karben, Stadt","type":"Stadt"},"district":{"key":"06440","name":"Wetteraukreis","type":"Landkreis"},"federalState":{"key":"06","name":"Hessen"}},{"name":"Ober-Erlenbacher-Str.","postalCode":"61184","locality":"Karben","municipality":{"key":"06440012","name":"Karben, Stadt","type":"Stadt"},"district":{"key":"06440","name":"Wetteraukreis","type":"Landkreis"},"federalState":{"key":"06","name":"Hessen"}},{"name":"Obergasse","postalCode":"61184","locality":"Karben","municipality":{"key":"06440012","name":"Karben, Stadt","type":"Stadt"},"district":{"key":"06440","name":"Wetteraukreis","type":"Landkreis"},"federalState":{"key":"06","name":"Hessen"}},{"name":"Oberpetterweiler Weg","postalCode":"61184","locality":"Karben","municipality":{"key":"06440012","name":"Karben, Stadt","type":"Stadt"},"district":{"key":"06440","name":"Wetteraukreis","type":"Landkreis"},"federalState":{"key":"06","name":"Hessen"}},{"name":"Oberpforte","postalCode":"61184","locality":"Karben","municipality":{"key":"06440012","name":"Karben, Stadt","type":"Stadt"},"district":{"key":"06440","name":"Wetteraukreis","type":"Landkreis"},"federalState":{"key":"06","name":"Hessen"}},{"name":"Odenwaldstr.","postalCode":"61184","locality":"Karben","municipality":{"key":"06440012","name":"Karben, Stadt","type":"Stadt"},"district":{"key":"06440","name":"Wetteraukreis","type":"Landkreis"},"federalState":{"key":"06","name":"Hessen"}},{"name":"Pappelweg","postalCode":"61184","locality":"Karben","municipality":{"key":"06440012","name":"Karben, Stadt","type":"Stadt"},"district":{"key":"06440","name":"Wetteraukreis","type":"Landkreis"},"federalState":{"key":"06","name":"Hessen"}},{"name":"Parkstr.","postalCode":"61184","locality":"Karben","municipality":{"key":"06440012","name":"Karben, Stadt","type":"Stadt"},"district":{"key":"06440","name":"Wetteraukreis","type":"Landkreis"},"federalState":{"key":"06","name":"Hessen"}},{"name":"Pestalozzistr.","postalCode":"61184","locality":"Karben","municipality":{"key":"06440012","name":"Karben, Stadt","type":"Stadt"},"district":{"key":"06440","name":"Wetteraukreis","type":"Landkreis"},"federalState":{"key":"06","name":"Hessen"}},{"name":"Peter-Geibel-Str.","postalCode":"61184","locality":"Karben","municipality":{"key":"06440012","name":"Karben, Stadt","type":"Stadt"},"district":{"key":"06440","name":"Wetteraukreis","type":"Landkreis"},"federalState":{"key":"06","name":"Hessen"}},{"name":"Petterweiler Str.","postalCode":"61184","locality":"Karben","municipality":{"key":"06440012","name":"Karben, Stadt","type":"Stadt"},"district":{"key":"06440","name":"Wetteraukreis","type":"Landkreis"},"federalState":{"key":"06","name":"Hessen"}},{"name":"Petterweiler Weg","postalCode":"61184","locality":"Karben","municipality":{"key":"06440012","name":"Karben, Stadt","type":"Stadt"},"district":{"key":"06440","name":"Wetteraukreis","type":"Landkreis"},"federalState":{"key":"06","name":"Hessen"}},{"name":"Pfaffenlochweg","postalCode":"61184","locality":"Karben","municipality":{"key":"06440012","name":"Karben, Stadt","type":"Stadt"},"district":{"key":"06440","name":"Wetteraukreis","type":"Landkreis"},"federalState":{"key":"06","name":"Hessen"}},{"name":"Pfarrer-Flick-Str.","postalCode":"61184","locality":"Karben","municipality":{"key":"06440012","name":"Karben, Stadt","type":"Stadt"},"district":{"key":"06440","name":"Wetteraukreis","type":"Landkreis"},"federalState":{"key":"06","name":"Hessen"}},{"name":"Pfarrgasse","postalCode":"61184","locality":"Karben","municipality":{"key":"06440012","name":"Karben, Stadt","type":"Stadt"},"district":{"key":"06440","name":"Wetteraukreis","type":"Landkreis"},"federalState":{"key":"06","name":"Hessen"}},{"name":"Pfeilsweg","postalCode":"61184","locality":"Karben","municipality":{"key":"06440012","name":"Karben, Stadt","type":"Stadt"},"district":{"key":"06440","name":"Wetteraukreis","type":"Landkreis"},"federalState":{"key":"06","name":"Hessen"}},{"name":"Philipp-Reis-Str.","postalCode":"61184","locality":"Karben","municipality":{"key":"06440012","name":"Karben, Stadt","type":"Stadt"},"district":{"key":"06440","name":"Wetteraukreis","type":"Landkreis"},"federalState":{"key":"06","name":"Hessen"}},{"name":"Platanenweg","postalCode":"61184","locality":"Karben","municipality":{"key":"06440012","name":"Karben, Stadt","type":"Stadt"},"district":{"key":"06440","name":"Wetteraukreis","type":"Landkreis"},"federalState":{"key":"06","name":"Hessen"}},{"name":"Quellenstr.","postalCode":"61184","locality":"Karben","municipality":{"key":"06440012","name":"Karben, Stadt","type":"Stadt"},"district":{"key":"06440","name":"Wetteraukreis","type":"Landkreis"},"federalState":{"key":"06","name":"Hessen"}},{"name":"Querstr.","postalCode":"61184","locality":"Karben","municipality":{"key":"06440012","name":"Karben, Stadt","type":"Stadt"},"district":{"key":"06440","name":"Wetteraukreis","type":"Landkreis"},"federalState":{"key":"06","name":"Hessen"}},{"name":"Raiffeisenstr.","postalCode":"61184","locality":"Karben","municipality":{"key":"06440012","name":"Karben, Stadt","type":"Stadt"},"district":{"key":"06440","name":"Wetteraukreis","type":"Landkreis"},"federalState":{"key":"06","name":"Hessen"}},{"name":"Ramonville Str.","postalCode":"61184","locality":"Karben","municipality":{"key":"06440012","name":"Karben, Stadt","type":"Stadt"},"district":{"key":"06440","name":"Wetteraukreis","type":"Landkreis"},"federalState":{"key":"06","name":"Hessen"}},{"name":"Rathausplatz","postalCode":"61184","locality":"Karben","municipality":{"key":"06440012","name":"Karben, Stadt","type":"Stadt"},"district":{"key":"06440","name":"Wetteraukreis","type":"Landkreis"},"federalState":{"key":"06","name":"Hessen"}},{"name":"Rathausstr.","postalCode":"61184","locality":"Karben","municipality":{"key":"06440012","name":"Karben, Stadt","type":"Stadt"},"district":{"key":"06440","name":"Wetteraukreis","type":"Landkreis"},"federalState":{"key":"06","name":"Hessen"}},{"name":"Rathenaustr.","postalCode":"61184","locality":"Karben","municipality":{"key":"06440012","name":"Karben, Stadt","type":"Stadt"},"district":{"key":"06440","name":"Wetteraukreis","type":"Landkreis"},"federalState":{"key":"06","name":"Hessen"}},{"name":"Reichenberger Str.","postalCode":"61184","locality":"Karben","municipality":{"key":"06440012","name":"Karben, Stadt","type":"Stadt"},"district":{"key":"06440","name":"Wetteraukreis","type":"Landkreis"},"federalState":{"key":"06","name":"Hessen"}},{"name":"Rendeler Str.","postalCode":"61184","locality":"Karben","municipality":{"key":"06440012","name":"Karben, Stadt","type":"Stadt"},"district":{"key":"06440","name":"Wetteraukreis","type":"Landkreis"},"federalState":{"key":"06","name":"Hessen"}},{"name":"Rhönstr.","postalCode":"61184","locality":"Karben","municipality":{"key":"06440012","name":"Karben, Stadt","type":"Stadt"},"district":{"key":"06440","name":"Wetteraukreis","type":"Landkreis"},"federalState":{"key":"06","name":"Hessen"}},{"name":"Riedmühle","postalCode":"61184","locality":"Karben","municipality":{"key":"06440012","name":"Karben, Stadt","type":"Stadt"},"district":{"key":"06440","name":"Wetteraukreis","type":"Landkreis"},"federalState":{"key":"06","name":"Hessen"}},{"name":"Riedmühlstr.","postalCode":"61184","locality":"Karben","municipality":{"key":"06440012","name":"Karben, Stadt","type":"Stadt"},"district":{"key":"06440","name":"Wetteraukreis","type":"Landkreis"},"federalState":{"key":"06","name":"Hessen"}},{"name":"Rittergasse","postalCode":"61184","locality":"Karben","municipality":{"key":"06440012","name":"Karben, Stadt","type":"Stadt"},"district":{"key":"06440","name":"Wetteraukreis","type":"Landkreis"},"federalState":{"key":"06","name":"Hessen"}},{"name":"Robert-Blum-Str.","postalCode":"61184","locality":"Karben","municipality":{"key":"06440012","name":"Karben, Stadt","type":"Stadt"},"district":{"key":"06440","name":"Wetteraukreis","type":"Landkreis"},"federalState":{"key":"06","name":"Hessen"}},{"name":"Robert-Bosch-Str.","postalCode":"61184","locality":"Karben","municipality":{"key":"06440012","name":"Karben, Stadt","type":"Stadt"},"district":{"key":"06440","name":"Wetteraukreis","type":"Landkreis"},"federalState":{"key":"06","name":"Hessen"}},{"name":"Robert-Koch-Str.","postalCode":"61184","locality":"Karben","municipality":{"key":"06440012","name":"Karben, Stadt","type":"Stadt"},"district":{"key":"06440","name":"Wetteraukreis","type":"Landkreis"},"federalState":{"key":"06","name":"Hessen"}},{"name":"Röderweg","postalCode":"61184","locality":"Karben","municipality":{"key":"06440012","name":"Karben, Stadt","type":"Stadt"},"district":{"key":"06440","name":"Wetteraukreis","type":"Landkreis"},"federalState":{"key":"06","name":"Hessen"}},{"name":"Rodheimer Str.","postalCode":"61184","locality":"Karben","municipality":{"key":"06440012","name":"Karben, Stadt","type":"Stadt"},"district":{"key":"06440","name":"Wetteraukreis","type":"Landkreis"},"federalState":{"key":"06","name":"Hessen"}},{"name":"Rodheimer Weg","postalCode":"61184","locality":"Karben","municipality":{"key":"06440012","name":"Karben, Stadt","type":"Stadt"},"district":{"key":"06440","name":"Wetteraukreis","type":"Landkreis"},"federalState":{"key":"06","name":"Hessen"}},{"name":"Römergasse","postalCode":"61184","locality":"Karben","municipality":{"key":"06440012","name":"Karben, Stadt","type":"Stadt"},"district":{"key":"06440","name":"Wetteraukreis","type":"Landkreis"},"federalState":{"key":"06","name":"Hessen"}},{"name":"Saalburgstr.","postalCode":"61184","locality":"Karben","municipality":{"key":"06440012","name":"Karben, Stadt","type":"Stadt"},"district":{"key":"06440","name":"Wetteraukreis","type":"Landkreis"},"federalState":{"key":"06","name":"Hessen"}},{"name":"Sackgasse","postalCode":"61184","locality":"Karben","municipality":{"key":"06440012","name":"Karben, Stadt","type":"Stadt"},"district":{"key":"06440","name":"Wetteraukreis","type":"Landkreis"},"federalState":{"key":"06","name":"Hessen"}},{"name":"Sandkaute","postalCode":"61184","locality":"Karben","municipality":{"key":"06440012","name":"Karben, Stadt","type":"Stadt"},"district":{"key":"06440","name":"Wetteraukreis","type":"Landkreis"},"federalState":{"key":"06","name":"Hessen"}},{"name":"Sauerbornstr.","postalCode":"61184","locality":"Karben","municipality":{"key":"06440012","name":"Karben, Stadt","type":"Stadt"},"district":{"key":"06440","name":"Wetteraukreis","type":"Landkreis"},"federalState":{"key":"06","name":"Hessen"}},{"name":"Scheidweg","postalCode":"61184","locality":"Karben","municipality":{"key":"06440012","name":"Karben, Stadt","type":"Stadt"},"district":{"key":"06440","name":"Wetteraukreis","type":"Landkreis"},"federalState":{"key":"06","name":"Hessen"}},{"name":"Schillerstr.","postalCode":"61184","locality":"Karben","municipality":{"key":"06440012","name":"Karben, Stadt","type":"Stadt"},"district":{"key":"06440","name":"Wetteraukreis","type":"Landkreis"},"federalState":{"key":"06","name":"Hessen"}},{"name":"Schlinkenweg","postalCode":"61184","locality":"Karben","municipality":{"key":"06440012","name":"Karben, Stadt","type":"Stadt"},"district":{"key":"06440","name":"Wetteraukreis","type":"Landkreis"},"federalState":{"key":"06","name":"Hessen"}},{"name":"Schloßstr.","postalCode":"61184","locality":"Karben","municipality":{"key":"06440012","name":"Karben, Stadt","type":"Stadt"},"district":{"key":"06440","name":"Wetteraukreis","type":"Landkreis"},"federalState":{"key":"06","name":"Hessen"}},{"name":"Schöne Aussicht","postalCode":"61184","locality":"Karben","municipality":{"key":"06440012","name":"Karben, Stadt","type":"Stadt"},"district":{"key":"06440","name":"Wetteraukreis","type":"Landkreis"},"federalState":{"key":"06","name":"Hessen"}},{"name":"Schulstr.","postalCode":"61184","locality":"Karben","municipality":{"key":"06440012","name":"Karben, Stadt","type":"Stadt"},"district":{"key":"06440","name":"Wetteraukreis","type":"Landkreis"},"federalState":{"key":"06","name":"Hessen"}},{"name":"Schultheisenwiese","postalCode":"61184","locality":"Karben","municipality":{"key":"06440012","name":"Karben, Stadt","type":"Stadt"},"district":{"key":"06440","name":"Wetteraukreis","type":"Landkreis"},"federalState":{"key":"06","name":"Hessen"}},{"name":"Schwengelgasse","postalCode":"61184","locality":"Karben","municipality":{"key":"06440012","name":"Karben, Stadt","type":"Stadt"},"district":{"key":"06440","name":"Wetteraukreis","type":"Landkreis"},"federalState":{"key":"06","name":"Hessen"}},{"name":"Selzerbachweg","postalCode":"61184","locality":"Karben","municipality":{"key":"06440012","name":"Karben, Stadt","type":"Stadt"},"district":{"key":"06440","name":"Wetteraukreis","type":"Landkreis"},"federalState":{"key":"06","name":"Hessen"}},{"name":"Siedlerstr.","postalCode":"61184","locality":"Karben","municipality":{"key":"06440012","name":"Karben, Stadt","type":"Stadt"},"district":{"key":"06440","name":"Wetteraukreis","type":"Landkreis"},"federalState":{"key":"06","name":"Hessen"}},{"name":"Siesmayerstr.","postalCode":"61184","locality":"Karben","municipality":{"key":"06440012","name":"Karben, Stadt","type":"Stadt"},"district":{"key":"06440","name":"Wetteraukreis","type":"Landkreis"},"federalState":{"key":"06","name":"Hessen"}},{"name":"Silberwiesenweg","postalCode":"61184","locality":"Karben","municipality":{"key":"06440012","name":"Karben, Stadt","type":"Stadt"},"district":{"key":"06440","name":"Wetteraukreis","type":"Landkreis"},"federalState":{"key":"06","name":"Hessen"}},{"name":"Skulpturenpark","postalCode":"61184","locality":"Karben","municipality":{"key":"06440012","name":"Karben, Stadt","type":"Stadt"},"district":{"key":"06440","name":"Wetteraukreis","type":"Landkreis"},"federalState":{"key":"06","name":"Hessen"}},{"name":"Sohlweg","postalCode":"61184","locality":"Karben","municipality":{"key":"06440012","name":"Karben, Stadt","type":"Stadt"},"district":{"key":"06440","name":"Wetteraukreis","type":"Landkreis"},"federalState":{"key":"06","name":"Hessen"}},{"name":"Solmser Weg","postalCode":"61184","locality":"Karben","municipality":{"key":"06440012","name":"Karben, Stadt","type":"Stadt"},"district":{"key":"06440","name":"Wetteraukreis","type":"Landkreis"},"federalState":{"key":"06","name":"Hessen"}},{"name":"Sonnenblick","postalCode":"61184","locality":"Karben","municipality":{"key":"06440012","name":"Karben, Stadt","type":"Stadt"},"district":{"key":"06440","name":"Wetteraukreis","type":"Landkreis"},"federalState":{"key":"06","name":"Hessen"}},{"name":"Spessartstr.","postalCode":"61184","locality":"Karben","municipality":{"key":"06440012","name":"Karben, Stadt","type":"Stadt"},"district":{"key":"06440","name":"Wetteraukreis","type":"Landkreis"},"federalState":{"key":"06","name":"Hessen"}},{"name":"Stammwaldweg","postalCode":"61184","locality":"Karben","municipality":{"key":"06440012","name":"Karben, Stadt","type":"Stadt"},"district":{"key":"06440","name":"Wetteraukreis","type":"Landkreis"},"federalState":{"key":"06","name":"Hessen"}},{"name":"Stauffenbergstr.","postalCode":"61184","locality":"Karben","municipality":{"key":"06440012","name":"Karben, Stadt","type":"Stadt"},"district":{"key":"06440","name":"Wetteraukreis","type":"Landkreis"},"federalState":{"key":"06","name":"Hessen"}},{"name":"St.-Egrève-Str.","postalCode":"61184","locality":"Karben","municipality":{"key":"06440012","name":"Karben, Stadt","type":"Stadt"},"district":{"key":"06440","name":"Wetteraukreis","type":"Landkreis"},"federalState":{"key":"06","name":"Hessen"}},{"name":"Steingasse","postalCode":"61184","locality":"Karben","municipality":{"key":"06440012","name":"Karben, Stadt","type":"Stadt"},"district":{"key":"06440","name":"Wetteraukreis","type":"Landkreis"},"federalState":{"key":"06","name":"Hessen"}},{"name":"Stettiner Str.","postalCode":"61184","locality":"Karben","municipality":{"key":"06440012","name":"Karben, Stadt","type":"Stadt"},"district":{"key":"06440","name":"Wetteraukreis","type":"Landkreis"},"federalState":{"key":"06","name":"Hessen"}},{"name":"Stiel","postalCode":"61184","locality":"Karben","municipality":{"key":"06440012","name":"Karben, Stadt","type":"Stadt"},"district":{"key":"06440","name":"Wetteraukreis","type":"Landkreis"},"federalState":{"key":"06","name":"Hessen"}},{"name":"Strackgasse","postalCode":"61184","locality":"Karben","municipality":{"key":"06440012","name":"Karben, Stadt","type":"Stadt"},"district":{"key":"06440","name":"Wetteraukreis","type":"Landkreis"},"federalState":{"key":"06","name":"Hessen"}},{"name":"Stresemannstr.","postalCode":"61184","locality":"Karben","municipality":{"key":"06440012","name":"Karben, Stadt","type":"Stadt"},"district":{"key":"06440","name":"Wetteraukreis","type":"Landkreis"},"federalState":{"key":"06","name":"Hessen"}},{"name":"Sudetenstr.","postalCode":"61184","locality":"Karben","municipality":{"key":"06440012","name":"Karben, Stadt","type":"Stadt"},"district":{"key":"06440","name":"Wetteraukreis","type":"Landkreis"},"federalState":{"key":"06","name":"Hessen"}},{"name":"Talblick","postalCode":"61184","locality":"Karben","municipality":{"key":"06440012","name":"Karben, Stadt","type":"Stadt"},"district":{"key":"06440","name":"Wetteraukreis","type":"Landkreis"},"federalState":{"key":"06","name":"Hessen"}},{"name":"Tannenweg","postalCode":"61184","locality":"Karben","municipality":{"key":"06440012","name":"Karben, Stadt","type":"Stadt"},"district":{"key":"06440","name":"Wetteraukreis","type":"Landkreis"},"federalState":{"key":"06","name":"Hessen"}},{"name":"Taunusblick","postalCode":"61184","locality":"Karben","municipality":{"key":"06440012","name":"Karben, Stadt","type":"Stadt"},"district":{"key":"06440","name":"Wetteraukreis","type":"Landkreis"},"federalState":{"key":"06","name":"Hessen"}},{"name":"Taunusstr.","postalCode":"61184","locality":"Karben","municipality":{"key":"06440012","name":"Karben, Stadt","type":"Stadt"},"district":{"key":"06440","name":"Wetteraukreis","type":"Landkreis"},"federalState":{"key":"06","name":"Hessen"}},{"name":"Theodor-Heuss-Str.","postalCode":"61184","locality":"Karben","municipality":{"key":"06440012","name":"Karben, Stadt","type":"Stadt"},"district":{"key":"06440","name":"Wetteraukreis","type":"Landkreis"},"federalState":{"key":"06","name":"Hessen"}},{"name":"Tränkgasse","postalCode":"61184","locality":"Karben","municipality":{"key":"06440012","name":"Karben, Stadt","type":"Stadt"},"district":{"key":"06440","name":"Wetteraukreis","type":"Landkreis"},"federalState":{"key":"06","name":"Hessen"}},{"name":"Tulpenweg","postalCode":"61184","locality":"Karben","municipality":{"key":"06440012","name":"Karben, Stadt","type":"Stadt"},"district":{"key":"06440","name":"Wetteraukreis","type":"Landkreis"},"federalState":{"key":"06","name":"Hessen"}},{"name":"Uhlandstr.","postalCode":"61184","locality":"Karben","municipality":{"key":"06440012","name":"Karben, Stadt","type":"Stadt"},"district":{"key":"06440","name":"Wetteraukreis","type":"Landkreis"},"federalState":{"key":"06","name":"Hessen"}},{"name":"Ulmenweg","postalCode":"61184","locality":"Karben","municipality":{"key":"06440012","name":"Karben, Stadt","type":"Stadt"},"district":{"key":"06440","name":"Wetteraukreis","type":"Landkreis"},"federalState":{"key":"06","name":"Hessen"}},{"name":"Untere Baumwiese","postalCode":"61184","locality":"Karben","municipality":{"key":"06440012","name":"Karben, Stadt","type":"Stadt"},"district":{"key":"06440","name":"Wetteraukreis","type":"Landkreis"},"federalState":{"key":"06","name":"Hessen"}},{"name":"Untergasse","postalCode":"61184","locality":"Karben","municipality":{"key":"06440012","name":"Karben, Stadt","type":"Stadt"},"district":{"key":"06440","name":"Wetteraukreis","type":"Landkreis"},"federalState":{"key":"06","name":"Hessen"}},{"name":"Vilbeler Str.","postalCode":"61184","locality":"Karben","municipality":{"key":"06440012","name":"Karben, Stadt","type":"Stadt"},"district":{"key":"06440","name":"Wetteraukreis","type":"Landkreis"},"federalState":{"key":"06","name":"Hessen"}},{"name":"Vogelsbergstr.","postalCode":"61184","locality":"Karben","municipality":{"key":"06440012","name":"Karben, Stadt","type":"Stadt"},"district":{"key":"06440","name":"Wetteraukreis","type":"Landkreis"},"federalState":{"key":"06","name":"Hessen"}},{"name":"Wächtergasse","postalCode":"61184","locality":"Karben","municipality":{"key":"06440012","name":"Karben, Stadt","type":"Stadt"},"district":{"key":"06440","name":"Wetteraukreis","type":"Landkreis"},"federalState":{"key":"06","name":"Hessen"}},{"name":"Waldhohlweg","postalCode":"61184","locality":"Karben","municipality":{"key":"06440012","name":"Karben, Stadt","type":"Stadt"},"district":{"key":"06440","name":"Wetteraukreis","type":"Landkreis"},"federalState":{"key":"06","name":"Hessen"}},{"name":"Waldstr.","postalCode":"61184","locality":"Karben","municipality":{"key":"06440012","name":"Karben, Stadt","type":"Stadt"},"district":{"key":"06440","name":"Wetteraukreis","type":"Landkreis"},"federalState":{"key":"06","name":"Hessen"}},{"name":"Walter-Rohmeis-Str.","postalCode":"61184","locality":"Karben","municipality":{"key":"06440012","name":"Karben, Stadt","type":"Stadt"},"district":{"key":"06440","name":"Wetteraukreis","type":"Landkreis"},"federalState":{"key":"06","name":"Hessen"}},{"name":"Wasserweg","postalCode":"61184","locality":"Karben","municipality":{"key":"06440012","name":"Karben, Stadt","type":"Stadt"},"district":{"key":"06440","name":"Wetteraukreis","type":"Landkreis"},"federalState":{"key":"06","name":"Hessen"}},{"name":"Weingartenstr.","postalCode":"61184","locality":"Karben","municipality":{"key":"06440012","name":"Karben, Stadt","type":"Stadt"},"district":{"key":"06440","name":"Wetteraukreis","type":"Landkreis"},"federalState":{"key":"06","name":"Hessen"}},{"name":"Weißenburgstr.","postalCode":"61184","locality":"Karben","municipality":{"key":"06440012","name":"Karben, Stadt","type":"Stadt"},"district":{"key":"06440","name":"Wetteraukreis","type":"Landkreis"},"federalState":{"key":"06","name":"Hessen"}},{"name":"Westerwaldstr.","postalCode":"61184","locality":"Karben","municipality":{"key":"06440012","name":"Karben, Stadt","type":"Stadt"},"district":{"key":"06440","name":"Wetteraukreis","type":"Landkreis"},"federalState":{"key":"06","name":"Hessen"}},{"name":"Westliche Ringstr.","postalCode":"61184","locality":"Karben","municipality":{"key":"06440012","name":"Karben, Stadt","type":"Stadt"},"district":{"key":"06440","name":"Wetteraukreis","type":"Landkreis"},"federalState":{"key":"06","name":"Hessen"}},{"name":"Wetterauer Str.","postalCode":"61184","locality":"Karben","municipality":{"key":"06440012","name":"Karben, Stadt","type":"Stadt"},"district":{"key":"06440","name":"Wetteraukreis","type":"Landkreis"},"federalState":{"key":"06","name":"Hessen"}},{"name":"Wiesenstr.","postalCode":"61184","locality":"Karben","municipality":{"key":"06440012","name":"Karben, Stadt","type":"Stadt"},"district":{"key":"06440","name":"Wetteraukreis","type":"Landkreis"},"federalState":{"key":"06","name":"Hessen"}},{"name":"Wilhelm-Busch-Str.","postalCode":"61184","locality":"Karben","municipality":{"key":"06440012","name":"Karben, Stadt","type":"Stadt"},"district":{"key":"06440","name":"Wetteraukreis","type":"Landkreis"},"federalState":{"key":"06","name":"Hessen"}},{"name":"Wilhelmstr.","postalCode":"61184","locality":"Karben","municipality":{"key":"06440012","name":"Karben, Stadt","type":"Stadt"},"district":{"key":"06440","name":"Wetteraukreis","type":"Landkreis"},"federalState":{"key":"06","name":"Hessen"}},{"name":"Wingertweg","postalCode":"61184","locality":"Karben","municipality":{"key":"06440012","name":"Karben, Stadt","type":"Stadt"},"district":{"key":"06440","name":"Wetteraukreis","type":"Landkreis"},"federalState":{"key":"06","name":"Hessen"}},{"name":"Ysenburger Str.","postalCode":"61184","locality":"Karben","municipality":{"key":"06440012","name":"Karben, Stadt","type":"Stadt"},"district":{"key":"06440","name":"Wetteraukreis","type":"Landkreis"},"federalState":{"key":"06","name":"Hessen"}},{"name":"Zingelweg","postalCode":"61184","locality":"Karben","municipality":{"key":"06440012","name":"Karben, Stadt","type":"Stadt"},"district":{"key":"06440","name":"Wetteraukreis","type":"Landkreis"},"federalState":{"key":"06","name":"Hessen"}},{"name":"Zum Schelmenrod","postalCode":"61184","locality":"Karben","municipality":{"key":"06440012","name":"Karben, Stadt","type":"Stadt"},"district":{"key":"06440","name":"Wetteraukreis","type":"Landkreis"},"federalState":{"key":"06","name":"Hessen"}},{"name":"Östliche Ringstr.","postalCode":"61184","locality":"Karben","municipality":{"key":"06440012","name":"Karben, Stadt","type":"Stadt"},"district":{"key":"06440","name":"Wetteraukreis","type":"Landkreis"},"federalState":{"key":"06","name":"Hessen"}},{"name":"Über dem Fuhrweg","postalCode":"61184","locality":"Karben","municipality":{"key":"06440012","name":"Karben, Stadt","type":"Stadt"},"district":{"key":"06440","name":"Wetteraukreis","type":"Landkreis"},"federalState":{"key":"06","name":"Hessen"}},]