[{"key":"10196630","name":"Aebnistrasse","postalCode":"8915","locality":"Hausen am Albis","commune":{"key":"4","name":"Hausen am Albis","shortName":"Hausen am Albis"},"district":{"key":"101","name":"Bezirk Affoltern"},"canton":{"key":"1","code":"ZH","name":"Zürich"},"status":"Real"},{"key":"10173814","name":"Aeugsterstrasse","postalCode":"8915","locality":"Hausen am Albis","commune":{"key":"4","name":"Hausen am Albis","shortName":"Hausen am Albis"},"district":{"key":"101","name":"Bezirk Affoltern"},"canton":{"key":"1","code":"ZH","name":"Zürich"},"status":"Real"},{"key":"10197400","name":"Albisbrunn","postalCode":"8915","locality":"Hausen am Albis","commune":{"key":"4","name":"Hausen am Albis","shortName":"Hausen am Albis"},"district":{"key":"101","name":"Bezirk Affoltern"},"canton":{"key":"1","code":"ZH","name":"Zürich"},"status":"Real"},{"key":"10197212","name":"Albisbrunnweg","postalCode":"8915","locality":"Hausen am Albis","commune":{"key":"4","name":"Hausen am Albis","shortName":"Hausen am Albis"},"district":{"key":"101","name":"Bezirk Affoltern"},"canton":{"key":"1","code":"ZH","name":"Zürich"},"status":"Real"},{"key":"10062159","name":"Albishof","postalCode":"8915","locality":"Hausen am Albis","commune":{"key":"4","name":"Hausen am Albis","shortName":"Hausen am Albis"},"district":{"key":"101","name":"Bezirk Affoltern"},"canton":{"key":"1","code":"ZH","name":"Zürich"},"status":"Real"},{"key":"10003032","name":"Albishorn","postalCode":"8915","locality":"Hausen am Albis","commune":{"key":"4","name":"Hausen am Albis","shortName":"Hausen am Albis"},"district":{"key":"101","name":"Bezirk Affoltern"},"canton":{"key":"1","code":"ZH","name":"Zürich"},"status":"Real"},{"key":"10197213","name":"Albishornstrasse","postalCode":"8915","locality":"Hausen am Albis","commune":{"key":"4","name":"Hausen am Albis","shortName":"Hausen am Albis"},"district":{"key":"101","name":"Bezirk Affoltern"},"canton":{"key":"1","code":"ZH","name":"Zürich"},"status":"Real"},{"key":"10240305","name":"Albishornweg","postalCode":"8915","locality":"Hausen am Albis","commune":{"key":"4","name":"Hausen am Albis","shortName":"Hausen am Albis"},"district":{"key":"101","name":"Bezirk Affoltern"},"canton":{"key":"1","code":"ZH","name":"Zürich"},"status":"Real"},{"key":"10197214","name":"Albispassstrasse","postalCode":"8915","locality":"Hausen am Albis","commune":{"key":"4","name":"Hausen am Albis","shortName":"Hausen am Albis"},"district":{"key":"101","name":"Bezirk Affoltern"},"canton":{"key":"1","code":"ZH","name":"Zürich"},"status":"Real"},{"key":"10079581","name":"Albisstrasse","postalCode":"8915","locality":"Hausen am Albis","commune":{"key":"4","name":"Hausen am Albis","shortName":"Hausen am Albis"},"district":{"key":"101","name":"Bezirk Affoltern"},"canton":{"key":"1","code":"ZH","name":"Zürich"},"status":"Real"},{"key":"10197215","name":"Alte Stäpferstrasse","postalCode":"8915","locality":"Hausen am Albis","commune":{"key":"4","name":"Hausen am Albis","shortName":"Hausen am Albis"},"district":{"key":"101","name":"Bezirk Affoltern"},"canton":{"key":"1","code":"ZH","name":"Zürich"},"status":"Real"},{"key":"10003033","name":"Bachstrasse","postalCode":"8915","locality":"Hausen am Albis","commune":{"key":"4","name":"Hausen am Albis","shortName":"Hausen am Albis"},"district":{"key":"101","name":"Bezirk Affoltern"},"canton":{"key":"1","code":"ZH","name":"Zürich"},"status":"Real"},{"key":"10197217","name":"Bärenhölzliweg","postalCode":"8915","locality":"Hausen am Albis","commune":{"key":"4","name":"Hausen am Albis","shortName":"Hausen am Albis"},"district":{"key":"101","name":"Bezirk Affoltern"},"canton":{"key":"1","code":"ZH","name":"Zürich"},"status":"Real"},{"key":"10240303","name":"Berg","postalCode":"8915","locality":"Hausen am Albis","commune":{"key":"4","name":"Hausen am Albis","shortName":"Hausen am Albis"},"district":{"key":"101","name":"Bezirk Affoltern"},"canton":{"key":"1","code":"ZH","name":"Zürich"},"status":"Real"},{"key":"10067589","name":"Bergmattstrasse","postalCode":"8915","locality":"Hausen am Albis","commune":{"key":"4","name":"Hausen am Albis","shortName":"Hausen am Albis"},"district":{"key":"101","name":"Bezirk Affoltern"},"canton":{"key":"1","code":"ZH","name":"Zürich"},"status":"Real"},{"key":"10130057","name":"Bergstrasse","postalCode":"8915","locality":"Hausen am Albis","commune":{"key":"4","name":"Hausen am Albis","shortName":"Hausen am Albis"},"district":{"key":"101","name":"Bezirk Affoltern"},"canton":{"key":"1","code":"ZH","name":"Zürich"},"status":"Real"},{"key":"10003034","name":"Bifangstrasse","postalCode":"8915","locality":"Hausen am Albis","commune":{"key":"4","name":"Hausen am Albis","shortName":"Hausen am Albis"},"district":{"key":"101","name":"Bezirk Affoltern"},"canton":{"key":"1","code":"ZH","name":"Zürich"},"status":"Real"},{"key":"10197219","name":"Buechrainweg","postalCode":"8915","locality":"Hausen am Albis","commune":{"key":"4","name":"Hausen am Albis","shortName":"Hausen am Albis"},"district":{"key":"101","name":"Bezirk Affoltern"},"canton":{"key":"1","code":"ZH","name":"Zürich"},"status":"Real"},{"key":"10107990","name":"Chileweg","postalCode":"8915","locality":"Hausen am Albis","commune":{"key":"4","name":"Hausen am Albis","shortName":"Hausen am Albis"},"district":{"key":"101","name":"Bezirk Affoltern"},"canton":{"key":"1","code":"ZH","name":"Zürich"},"status":"Real"},{"key":"10003035","name":"Chratzstrasse","postalCode":"8915","locality":"Hausen am Albis","commune":{"key":"4","name":"Hausen am Albis","shortName":"Hausen am Albis"},"district":{"key":"101","name":"Bezirk Affoltern"},"canton":{"key":"1","code":"ZH","name":"Zürich"},"status":"Real"},{"key":"10197220","name":"Chrebsbachweg","postalCode":"8915","locality":"Hausen am Albis","commune":{"key":"4","name":"Hausen am Albis","shortName":"Hausen am Albis"},"district":{"key":"101","name":"Bezirk Affoltern"},"canton":{"key":"1","code":"ZH","name":"Zürich"},"status":"Real"},{"key":"10197221","name":"Chruzelestrasse","postalCode":"8915","locality":"Hausen am Albis","commune":{"key":"4","name":"Hausen am Albis","shortName":"Hausen am Albis"},"district":{"key":"101","name":"Bezirk Affoltern"},"canton":{"key":"1","code":"ZH","name":"Zürich"},"status":"Real"},{"key":"10197222","name":"Chruzeleweg","postalCode":"8915","locality":"Hausen am Albis","commune":{"key":"4","name":"Hausen am Albis","shortName":"Hausen am Albis"},"district":{"key":"101","name":"Bezirk Affoltern"},"canton":{"key":"1","code":"ZH","name":"Zürich"},"status":"Real"},{"key":"10170606","name":"Chrüzrain","postalCode":"8915","locality":"Hausen am Albis","commune":{"key":"4","name":"Hausen am Albis","shortName":"Hausen am Albis"},"district":{"key":"101","name":"Bezirk Affoltern"},"canton":{"key":"1","code":"ZH","name":"Zürich"},"status":"Real"},{"key":"10197223","name":"Chrüzrainweg","postalCode":"8915","locality":"Hausen am Albis","commune":{"key":"4","name":"Hausen am Albis","shortName":"Hausen am Albis"},"district":{"key":"101","name":"Bezirk Affoltern"},"canton":{"key":"1","code":"ZH","name":"Zürich"},"status":"Real"},{"key":"10067590","name":"Ebertswilerstrasse","postalCode":"8915","locality":"Hausen am Albis","commune":{"key":"4","name":"Hausen am Albis","shortName":"Hausen am Albis"},"district":{"key":"101","name":"Bezirk Affoltern"},"canton":{"key":"1","code":"ZH","name":"Zürich"},"status":"Real"},{"key":"10240307","name":"Fäderenplätz","postalCode":"8915","locality":"Hausen am Albis","commune":{"key":"4","name":"Hausen am Albis","shortName":"Hausen am Albis"},"district":{"key":"101","name":"Bezirk Affoltern"},"canton":{"key":"1","code":"ZH","name":"Zürich"},"status":"Real"},{"key":"10187502","name":"Farbüel","postalCode":"8915","locality":"Hausen am Albis","commune":{"key":"4","name":"Hausen am Albis","shortName":"Hausen am Albis"},"district":{"key":"101","name":"Bezirk Affoltern"},"canton":{"key":"1","code":"ZH","name":"Zürich"},"status":"Real"},{"key":"10201714","name":"Fellibachweg","postalCode":"8915","locality":"Hausen am Albis","commune":{"key":"4","name":"Hausen am Albis","shortName":"Hausen am Albis"},"district":{"key":"101","name":"Bezirk Affoltern"},"canton":{"key":"1","code":"ZH","name":"Zürich"},"status":"Real"},{"key":"10198017","name":"Flugplatz","postalCode":"8915","locality":"Hausen am Albis","commune":{"key":"4","name":"Hausen am Albis","shortName":"Hausen am Albis"},"district":{"key":"101","name":"Bezirk Affoltern"},"canton":{"key":"1","code":"ZH","name":"Zürich"},"status":"Real"},{"key":"10197225","name":"Forchholzstrasse","postalCode":"8915","locality":"Hausen am Albis","commune":{"key":"4","name":"Hausen am Albis","shortName":"Hausen am Albis"},"district":{"key":"101","name":"Bezirk Affoltern"},"canton":{"key":"1","code":"ZH","name":"Zürich"},"status":"Real"},{"key":"10164457","name":"Fuchsmatt","postalCode":"8915","locality":"Hausen am Albis","commune":{"key":"4","name":"Hausen am Albis","shortName":"Hausen am Albis"},"district":{"key":"101","name":"Bezirk Affoltern"},"canton":{"key":"1","code":"ZH","name":"Zürich"},"status":"Real"},{"key":"10197226","name":"Fuchsmattweg","postalCode":"8915","locality":"Hausen am Albis","commune":{"key":"4","name":"Hausen am Albis","shortName":"Hausen am Albis"},"district":{"key":"101","name":"Bezirk Affoltern"},"canton":{"key":"1","code":"ZH","name":"Zürich"},"status":"Real"},{"key":"10164458","name":"Geissweid","postalCode":"8915","locality":"Hausen am Albis","commune":{"key":"4","name":"Hausen am Albis","shortName":"Hausen am Albis"},"district":{"key":"101","name":"Bezirk Affoltern"},"canton":{"key":"1","code":"ZH","name":"Zürich"},"status":"Real"},{"key":"10003036","name":"Gomweg","postalCode":"8915","locality":"Hausen am Albis","commune":{"key":"4","name":"Hausen am Albis","shortName":"Hausen am Albis"},"district":{"key":"101","name":"Bezirk Affoltern"},"canton":{"key":"1","code":"ZH","name":"Zürich"},"status":"Real"},{"key":"10003037","name":"Grindlen","postalCode":"8915","locality":"Hausen am Albis","commune":{"key":"4","name":"Hausen am Albis","shortName":"Hausen am Albis"},"district":{"key":"101","name":"Bezirk Affoltern"},"canton":{"key":"1","code":"ZH","name":"Zürich"},"status":"Real"},{"key":"10197227","name":"Grossmoosstrasse","postalCode":"8915","locality":"Hausen am Albis","commune":{"key":"4","name":"Hausen am Albis","shortName":"Hausen am Albis"},"district":{"key":"101","name":"Bezirk Affoltern"},"canton":{"key":"1","code":"ZH","name":"Zürich"},"status":"Real"},{"key":"10106405","name":"Grossrain","postalCode":"8915","locality":"Hausen am Albis","commune":{"key":"4","name":"Hausen am Albis","shortName":"Hausen am Albis"},"district":{"key":"101","name":"Bezirk Affoltern"},"canton":{"key":"1","code":"ZH","name":"Zürich"},"status":"Real"},{"key":"10197228","name":"Grossrainstrasse","postalCode":"8915","locality":"Hausen am Albis","commune":{"key":"4","name":"Hausen am Albis","shortName":"Hausen am Albis"},"district":{"key":"101","name":"Bezirk Affoltern"},"canton":{"key":"1","code":"ZH","name":"Zürich"},"status":"Real"},{"key":"10062160","name":"Grünau","postalCode":"8915","locality":"Hausen am Albis","commune":{"key":"4","name":"Hausen am Albis","shortName":"Hausen am Albis"},"district":{"key":"101","name":"Bezirk Affoltern"},"canton":{"key":"1","code":"ZH","name":"Zürich"},"status":"Real"},{"key":"10240299","name":"Gwandlen","postalCode":"8915","locality":"Hausen am Albis","commune":{"key":"4","name":"Hausen am Albis","shortName":"Hausen am Albis"},"district":{"key":"101","name":"Bezirk Affoltern"},"canton":{"key":"1","code":"ZH","name":"Zürich"},"status":"Real"},{"key":"10197230","name":"Hanslimattweg","postalCode":"8915","locality":"Hausen am Albis","commune":{"key":"4","name":"Hausen am Albis","shortName":"Hausen am Albis"},"district":{"key":"101","name":"Bezirk Affoltern"},"canton":{"key":"1","code":"ZH","name":"Zürich"},"status":"Real"},{"key":"10240306","name":"Heerenplätz","postalCode":"8915","locality":"Hausen am Albis","commune":{"key":"4","name":"Hausen am Albis","shortName":"Hausen am Albis"},"district":{"key":"101","name":"Bezirk Affoltern"},"canton":{"key":"1","code":"ZH","name":"Zürich"},"status":"Real"},{"key":"10003038","name":"Heischerstrasse","postalCode":"8915","locality":"Hausen am Albis","commune":{"key":"4","name":"Hausen am Albis","shortName":"Hausen am Albis"},"district":{"key":"101","name":"Bezirk Affoltern"},"canton":{"key":"1","code":"ZH","name":"Zürich"},"status":"Real"},{"key":"10197231","name":"Herrenmattweg","postalCode":"8915","locality":"Hausen am Albis","commune":{"key":"4","name":"Hausen am Albis","shortName":"Hausen am Albis"},"district":{"key":"101","name":"Bezirk Affoltern"},"canton":{"key":"1","code":"ZH","name":"Zürich"},"status":"Real"},{"key":"10067591","name":"Hinteralbis","postalCode":"8915","locality":"Hausen am Albis","commune":{"key":"4","name":"Hausen am Albis","shortName":"Hausen am Albis"},"district":{"key":"101","name":"Bezirk Affoltern"},"canton":{"key":"1","code":"ZH","name":"Zürich"},"status":"Real"},{"key":"10240300","name":"Hirzenmoos","postalCode":"8915","locality":"Hausen am Albis","commune":{"key":"4","name":"Hausen am Albis","shortName":"Hausen am Albis"},"district":{"key":"101","name":"Bezirk Affoltern"},"canton":{"key":"1","code":"ZH","name":"Zürich"},"status":"Real"},{"key":"10079583","name":"Hofmattweg","postalCode":"8915","locality":"Hausen am Albis","commune":{"key":"4","name":"Hausen am Albis","shortName":"Hausen am Albis"},"district":{"key":"101","name":"Bezirk Affoltern"},"canton":{"key":"1","code":"ZH","name":"Zürich"},"status":"Real"},{"key":"10003039","name":"Hotzenmattstrasse","postalCode":"8915","locality":"Hausen am Albis","commune":{"key":"4","name":"Hausen am Albis","shortName":"Hausen am Albis"},"district":{"key":"101","name":"Bezirk Affoltern"},"canton":{"key":"1","code":"ZH","name":"Zürich"},"status":"Real"},{"key":"10079591","name":"Husertalstrasse","postalCode":"8915","locality":"Hausen am Albis","commune":{"key":"4","name":"Hausen am Albis","shortName":"Hausen am Albis"},"district":{"key":"101","name":"Bezirk Affoltern"},"canton":{"key":"1","code":"ZH","name":"Zürich"},"status":"Real"},{"key":"10079584","name":"Husmattstrasse","postalCode":"8915","locality":"Hausen am Albis","commune":{"key":"4","name":"Hausen am Albis","shortName":"Hausen am Albis"},"district":{"key":"101","name":"Bezirk Affoltern"},"canton":{"key":"1","code":"ZH","name":"Zürich"},"status":"Real"},{"key":"10067592","name":"Husmattweg","postalCode":"8915","locality":"Hausen am Albis","commune":{"key":"4","name":"Hausen am Albis","shortName":"Hausen am Albis"},"district":{"key":"101","name":"Bezirk Affoltern"},"canton":{"key":"1","code":"ZH","name":"Zürich"},"status":"Real"},{"key":"10197233","name":"Ibachstrasse","postalCode":"8915","locality":"Hausen am Albis","commune":{"key":"4","name":"Hausen am Albis","shortName":"Hausen am Albis"},"district":{"key":"101","name":"Bezirk Affoltern"},"canton":{"key":"1","code":"ZH","name":"Zürich"},"status":"Real"},{"key":"10173819","name":"Ibech","postalCode":"8915","locality":"Hausen am Albis","commune":{"key":"4","name":"Hausen am Albis","shortName":"Hausen am Albis"},"district":{"key":"101","name":"Bezirk Affoltern"},"canton":{"key":"1","code":"ZH","name":"Zürich"},"status":"Real"},{"key":"10003040","name":"Im Graben","postalCode":"8915","locality":"Hausen am Albis","commune":{"key":"4","name":"Hausen am Albis","shortName":"Hausen am Albis"},"district":{"key":"101","name":"Bezirk Affoltern"},"canton":{"key":"1","code":"ZH","name":"Zürich"},"status":"Real"},{"key":"10115057","name":"In der Rüti","postalCode":"8915","locality":"Hausen am Albis","commune":{"key":"4","name":"Hausen am Albis","shortName":"Hausen am Albis"},"district":{"key":"101","name":"Bezirk Affoltern"},"canton":{"key":"1","code":"ZH","name":"Zürich"},"status":"Real"},{"key":"10055573","name":"Jakob-Zürrer-Strasse","postalCode":"8915","locality":"Hausen am Albis","commune":{"key":"4","name":"Hausen am Albis","shortName":"Hausen am Albis"},"district":{"key":"101","name":"Bezirk Affoltern"},"canton":{"key":"1","code":"ZH","name":"Zürich"},"status":"Real"},{"key":"10210562","name":"Jonenbachstrasse","postalCode":"8915","locality":"Hausen am Albis","commune":{"key":"4","name":"Hausen am Albis","shortName":"Hausen am Albis"},"district":{"key":"101","name":"Bezirk Affoltern"},"canton":{"key":"1","code":"ZH","name":"Zürich"},"status":"Real"},{"key":"10197234","name":"Jonenbachweg","postalCode":"8915","locality":"Hausen am Albis","commune":{"key":"4","name":"Hausen am Albis","shortName":"Hausen am Albis"},"district":{"key":"101","name":"Bezirk Affoltern"},"canton":{"key":"1","code":"ZH","name":"Zürich"},"status":"Real"},{"key":"10197235","name":"Jörenweg","postalCode":"8915","locality":"Hausen am Albis","commune":{"key":"4","name":"Hausen am Albis","shortName":"Hausen am Albis"},"district":{"key":"101","name":"Bezirk Affoltern"},"canton":{"key":"1","code":"ZH","name":"Zürich"},"status":"Real"},{"key":"10183507","name":"Juchweg","postalCode":"8915","locality":"Hausen am Albis","commune":{"key":"4","name":"Hausen am Albis","shortName":"Hausen am Albis"},"district":{"key":"101","name":"Bezirk Affoltern"},"canton":{"key":"1","code":"ZH","name":"Zürich"},"status":"Real"},{"key":"10197360","name":"Kanalweg","postalCode":"8915","locality":"Hausen am Albis","commune":{"key":"4","name":"Hausen am Albis","shortName":"Hausen am Albis"},"district":{"key":"101","name":"Bezirk Affoltern"},"canton":{"key":"1","code":"ZH","name":"Zürich"},"status":"Real"},{"key":"10003042","name":"Kindergartenweg","postalCode":"8915","locality":"Hausen am Albis","commune":{"key":"4","name":"Hausen am Albis","shortName":"Hausen am Albis"},"district":{"key":"101","name":"Bezirk Affoltern"},"canton":{"key":"1","code":"ZH","name":"Zürich"},"status":"Real"},{"key":"10201715","name":"Kläristrasse","postalCode":"8915","locality":"Hausen am Albis","commune":{"key":"4","name":"Hausen am Albis","shortName":"Hausen am Albis"},"district":{"key":"101","name":"Bezirk Affoltern"},"canton":{"key":"1","code":"ZH","name":"Zürich"},"status":"Real"},{"key":"10201716","name":"Lärchenstrasse","postalCode":"8915","locality":"Hausen am Albis","commune":{"key":"4","name":"Hausen am Albis","shortName":"Hausen am Albis"},"district":{"key":"101","name":"Bezirk Affoltern"},"canton":{"key":"1","code":"ZH","name":"Zürich"},"status":"Real"},{"key":"10197236","name":"Linerenweg","postalCode":"8915","locality":"Hausen am Albis","commune":{"key":"4","name":"Hausen am Albis","shortName":"Hausen am Albis"},"district":{"key":"101","name":"Bezirk Affoltern"},"canton":{"key":"1","code":"ZH","name":"Zürich"},"status":"Real"},{"key":"10079585","name":"Luegislandstrasse","postalCode":"8915","locality":"Hausen am Albis","commune":{"key":"4","name":"Hausen am Albis","shortName":"Hausen am Albis"},"district":{"key":"101","name":"Bezirk Affoltern"},"canton":{"key":"1","code":"ZH","name":"Zürich"},"status":"Real"},{"key":"10201717","name":"Mattliweg","postalCode":"8915","locality":"Hausen am Albis","commune":{"key":"4","name":"Hausen am Albis","shortName":"Hausen am Albis"},"district":{"key":"101","name":"Bezirk Affoltern"},"canton":{"key":"1","code":"ZH","name":"Zürich"},"status":"Real"},{"key":"10106406","name":"Mittelalbis","postalCode":"8915","locality":"Hausen am Albis","commune":{"key":"4","name":"Hausen am Albis","shortName":"Hausen am Albis"},"district":{"key":"101","name":"Bezirk Affoltern"},"canton":{"key":"1","code":"ZH","name":"Zürich"},"status":"Real"},{"key":"10055574","name":"Mitteldorfweg","postalCode":"8915","locality":"Hausen am Albis","commune":{"key":"4","name":"Hausen am Albis","shortName":"Hausen am Albis"},"district":{"key":"101","name":"Bezirk Affoltern"},"canton":{"key":"1","code":"ZH","name":"Zürich"},"status":"Real"},{"key":"10201718","name":"Mittlere Bergstrasse","postalCode":"8915","locality":"Hausen am Albis","commune":{"key":"4","name":"Hausen am Albis","shortName":"Hausen am Albis"},"district":{"key":"101","name":"Bezirk Affoltern"},"canton":{"key":"1","code":"ZH","name":"Zürich"},"status":"Real"},{"key":"10062161","name":"Mönchbüel","postalCode":"8915","locality":"Hausen am Albis","commune":{"key":"4","name":"Hausen am Albis","shortName":"Hausen am Albis"},"district":{"key":"101","name":"Bezirk Affoltern"},"canton":{"key":"1","code":"ZH","name":"Zürich"},"status":"Real"},{"key":"10201719","name":"Mönchbüelweg","postalCode":"8915","locality":"Hausen am Albis","commune":{"key":"4","name":"Hausen am Albis","shortName":"Hausen am Albis"},"district":{"key":"101","name":"Bezirk Affoltern"},"canton":{"key":"1","code":"ZH","name":"Zürich"},"status":"Real"},{"key":"10003044","name":"Mülimatt","postalCode":"8915","locality":"Hausen am Albis","commune":{"key":"4","name":"Hausen am Albis","shortName":"Hausen am Albis"},"district":{"key":"101","name":"Bezirk Affoltern"},"canton":{"key":"1","code":"ZH","name":"Zürich"},"status":"Real"},{"key":"10055575","name":"Müllistrasse","postalCode":"8915","locality":"Hausen am Albis","commune":{"key":"4","name":"Hausen am Albis","shortName":"Hausen am Albis"},"district":{"key":"101","name":"Bezirk Affoltern"},"canton":{"key":"1","code":"ZH","name":"Zürich"},"status":"Real"},{"key":"10079586","name":"Müseggstrasse","postalCode":"8915","locality":"Hausen am Albis","commune":{"key":"4","name":"Hausen am Albis","shortName":"Hausen am Albis"},"district":{"key":"101","name":"Bezirk Affoltern"},"canton":{"key":"1","code":"ZH","name":"Zürich"},"status":"Real"},{"key":"10111666","name":"Müseggweg","postalCode":"8915","locality":"Hausen am Albis","commune":{"key":"4","name":"Hausen am Albis","shortName":"Hausen am Albis"},"district":{"key":"101","name":"Bezirk Affoltern"},"canton":{"key":"1","code":"ZH","name":"Zürich"},"status":"Real"},{"key":"10067594","name":"Neuhus","postalCode":"8915","locality":"Hausen am Albis","commune":{"key":"4","name":"Hausen am Albis","shortName":"Hausen am Albis"},"district":{"key":"101","name":"Bezirk Affoltern"},"canton":{"key":"1","code":"ZH","name":"Zürich"},"status":"Real"},{"key":"10003045","name":"Oberalbis","postalCode":"8915","locality":"Hausen am Albis","commune":{"key":"4","name":"Hausen am Albis","shortName":"Hausen am Albis"},"district":{"key":"101","name":"Bezirk Affoltern"},"canton":{"key":"1","code":"ZH","name":"Zürich"},"status":"Real"},{"key":"10099734","name":"Oberalbisstrasse","postalCode":"8915","locality":"Hausen am Albis","commune":{"key":"4","name":"Hausen am Albis","shortName":"Hausen am Albis"},"district":{"key":"101","name":"Bezirk Affoltern"},"canton":{"key":"1","code":"ZH","name":"Zürich"},"status":"Real"},{"key":"10197237","name":"Obere Bergstrasse","postalCode":"8915","locality":"Hausen am Albis","commune":{"key":"4","name":"Hausen am Albis","shortName":"Hausen am Albis"},"district":{"key":"101","name":"Bezirk Affoltern"},"canton":{"key":"1","code":"ZH","name":"Zürich"},"status":"Real"},{"key":"10003046","name":"Oberheischerstrasse","postalCode":"8915","locality":"Hausen am Albis","commune":{"key":"4","name":"Hausen am Albis","shortName":"Hausen am Albis"},"district":{"key":"101","name":"Bezirk Affoltern"},"canton":{"key":"1","code":"ZH","name":"Zürich"},"status":"Real"},{"key":"10197361","name":"Panoramaweg","postalCode":"8915","locality":"Hausen am Albis","commune":{"key":"4","name":"Hausen am Albis","shortName":"Hausen am Albis"},"district":{"key":"101","name":"Bezirk Affoltern"},"canton":{"key":"1","code":"ZH","name":"Zürich"},"status":"Real"},{"key":"10197362","name":"Paradiesweg","postalCode":"8915","locality":"Hausen am Albis","commune":{"key":"4","name":"Hausen am Albis","shortName":"Hausen am Albis"},"district":{"key":"101","name":"Bezirk Affoltern"},"canton":{"key":"1","code":"ZH","name":"Zürich"},"status":"Real"},{"key":"10197364","name":"Pfamattweg","postalCode":"8915","locality":"Hausen am Albis","commune":{"key":"4","name":"Hausen am Albis","shortName":"Hausen am Albis"},"district":{"key":"101","name":"Bezirk Affoltern"},"canton":{"key":"1","code":"ZH","name":"Zürich"},"status":"Real"},{"key":"10197365","name":"Pfisterbodenstrasse","postalCode":"8915","locality":"Hausen am Albis","commune":{"key":"4","name":"Hausen am Albis","shortName":"Hausen am Albis"},"district":{"key":"101","name":"Bezirk Affoltern"},"canton":{"key":"1","code":"ZH","name":"Zürich"},"status":"Real"},{"key":"10079587","name":"Pilatusstrasse","postalCode":"8915","locality":"Hausen am Albis","commune":{"key":"4","name":"Hausen am Albis","shortName":"Hausen am Albis"},"district":{"key":"101","name":"Bezirk Affoltern"},"canton":{"key":"1","code":"ZH","name":"Zürich"},"status":"Real"},{"key":"10067595","name":"Rebbergstrasse","postalCode":"8915","locality":"Hausen am Albis","commune":{"key":"4","name":"Hausen am Albis","shortName":"Hausen am Albis"},"district":{"key":"101","name":"Bezirk Affoltern"},"canton":{"key":"1","code":"ZH","name":"Zürich"},"status":"Real"},{"key":"10173820","name":"Reppischtalstrasse","postalCode":"8915","locality":"Hausen am Albis","commune":{"key":"4","name":"Hausen am Albis","shortName":"Hausen am Albis"},"district":{"key":"101","name":"Bezirk Affoltern"},"canton":{"key":"1","code":"ZH","name":"Zürich"},"status":"Real"},{"key":"10197366","name":"Reto-Götschi-Weg","postalCode":"8915","locality":"Hausen am Albis","commune":{"key":"4","name":"Hausen am Albis","shortName":"Hausen am Albis"},"district":{"key":"101","name":"Bezirk Affoltern"},"canton":{"key":"1","code":"ZH","name":"Zürich"},"status":"Real"},{"key":"10003047","name":"Riedmatt","postalCode":"8915","locality":"Hausen am Albis","commune":{"key":"4","name":"Hausen am Albis","shortName":"Hausen am Albis"},"district":{"key":"101","name":"Bezirk Affoltern"},"canton":{"key":"1","code":"ZH","name":"Zürich"},"status":"Real"},{"key":"10054187","name":"Rifferswilerstrasse","postalCode":"8915","locality":"Hausen am Albis","commune":{"key":"4","name":"Hausen am Albis","shortName":"Hausen am Albis"},"district":{"key":"101","name":"Bezirk Affoltern"},"canton":{"key":"1","code":"ZH","name":"Zürich"},"status":"Real"},{"key":"10106407","name":"Rigiblickstrasse","postalCode":"8915","locality":"Hausen am Albis","commune":{"key":"4","name":"Hausen am Albis","shortName":"Hausen am Albis"},"district":{"key":"101","name":"Bezirk Affoltern"},"canton":{"key":"1","code":"ZH","name":"Zürich"},"status":"Real"},{"key":"10079588","name":"Rosrainstrasse","postalCode":"8915","locality":"Hausen am Albis","commune":{"key":"4","name":"Hausen am Albis","shortName":"Hausen am Albis"},"district":{"key":"101","name":"Bezirk Affoltern"},"canton":{"key":"1","code":"ZH","name":"Zürich"},"status":"Real"},{"key":"10153881","name":"Sagirain","postalCode":"8915","locality":"Hausen am Albis","commune":{"key":"4","name":"Hausen am Albis","shortName":"Hausen am Albis"},"district":{"key":"101","name":"Bezirk Affoltern"},"canton":{"key":"1","code":"ZH","name":"Zürich"},"status":"Real"},{"key":"10003048","name":"Sagiweg","postalCode":"8915","locality":"Hausen am Albis","commune":{"key":"4","name":"Hausen am Albis","shortName":"Hausen am Albis"},"district":{"key":"101","name":"Bezirk Affoltern"},"canton":{"key":"1","code":"ZH","name":"Zürich"},"status":"Real"},{"key":"10062162","name":"Schonau","postalCode":"8915","locality":"Hausen am Albis","commune":{"key":"4","name":"Hausen am Albis","shortName":"Hausen am Albis"},"district":{"key":"101","name":"Bezirk Affoltern"},"canton":{"key":"1","code":"ZH","name":"Zürich"},"status":"Real"},{"key":"10197240","name":"Schonaustrasse","postalCode":"8915","locality":"Hausen am Albis","commune":{"key":"4","name":"Hausen am Albis","shortName":"Hausen am Albis"},"district":{"key":"101","name":"Bezirk Affoltern"},"canton":{"key":"1","code":"ZH","name":"Zürich"},"status":"Real"},{"key":"10175860","name":"Schöneggstrasse","postalCode":"8915","locality":"Hausen am Albis","commune":{"key":"4","name":"Hausen am Albis","shortName":"Hausen am Albis"},"district":{"key":"101","name":"Bezirk Affoltern"},"canton":{"key":"1","code":"ZH","name":"Zürich"},"status":"Real"},{"key":"10182079","name":"Schulhausstrasse","postalCode":"8915","locality":"Hausen am Albis","commune":{"key":"4","name":"Hausen am Albis","shortName":"Hausen am Albis"},"district":{"key":"101","name":"Bezirk Affoltern"},"canton":{"key":"1","code":"ZH","name":"Zürich"},"status":"Real"},{"key":"10173821","name":"Schürmatt","postalCode":"8915","locality":"Hausen am Albis","commune":{"key":"4","name":"Hausen am Albis","shortName":"Hausen am Albis"},"district":{"key":"101","name":"Bezirk Affoltern"},"canton":{"key":"1","code":"ZH","name":"Zürich"},"status":"Real"},{"key":"10197369","name":"Schützenhausstrasse","postalCode":"8915","locality":"Hausen am Albis","commune":{"key":"4","name":"Hausen am Albis","shortName":"Hausen am Albis"},"district":{"key":"101","name":"Bezirk Affoltern"},"canton":{"key":"1","code":"ZH","name":"Zürich"},"status":"Real"},{"key":"10003049","name":"Seeboden","postalCode":"8915","locality":"Hausen am Albis","commune":{"key":"4","name":"Hausen am Albis","shortName":"Hausen am Albis"},"district":{"key":"101","name":"Bezirk Affoltern"},"canton":{"key":"1","code":"ZH","name":"Zürich"},"status":"Real"},{"key":"10197241","name":"Seebodenstrasse","postalCode":"8915","locality":"Hausen am Albis","commune":{"key":"4","name":"Hausen am Albis","shortName":"Hausen am Albis"},"district":{"key":"101","name":"Bezirk Affoltern"},"canton":{"key":"1","code":"ZH","name":"Zürich"},"status":"Real"},{"key":"10003050","name":"Seebrig","postalCode":"8915","locality":"Hausen am Albis","commune":{"key":"4","name":"Hausen am Albis","shortName":"Hausen am Albis"},"district":{"key":"101","name":"Bezirk Affoltern"},"canton":{"key":"1","code":"ZH","name":"Zürich"},"status":"Real"},{"key":"10003051","name":"Seebrigstrasse","postalCode":"8915","locality":"Hausen am Albis","commune":{"key":"4","name":"Hausen am Albis","shortName":"Hausen am Albis"},"district":{"key":"101","name":"Bezirk Affoltern"},"canton":{"key":"1","code":"ZH","name":"Zürich"},"status":"Real"},{"key":"10173822","name":"Seematt","postalCode":"8915","locality":"Hausen am Albis","commune":{"key":"4","name":"Hausen am Albis","shortName":"Hausen am Albis"},"district":{"key":"101","name":"Bezirk Affoltern"},"canton":{"key":"1","code":"ZH","name":"Zürich"},"status":"Real"},{"key":"10197371","name":"Seeweg","postalCode":"8915","locality":"Hausen am Albis","commune":{"key":"4","name":"Hausen am Albis","shortName":"Hausen am Albis"},"district":{"key":"101","name":"Bezirk Affoltern"},"canton":{"key":"1","code":"ZH","name":"Zürich"},"status":"Real"},{"key":"10197372","name":"Sennhütteweg","postalCode":"8915","locality":"Hausen am Albis","commune":{"key":"4","name":"Hausen am Albis","shortName":"Hausen am Albis"},"district":{"key":"101","name":"Bezirk Affoltern"},"canton":{"key":"1","code":"ZH","name":"Zürich"},"status":"Real"},{"key":"10197373","name":"Sibnerweg","postalCode":"8915","locality":"Hausen am Albis","commune":{"key":"4","name":"Hausen am Albis","shortName":"Hausen am Albis"},"district":{"key":"101","name":"Bezirk Affoltern"},"canton":{"key":"1","code":"ZH","name":"Zürich"},"status":"Real"},{"key":"10197375","name":"Spinnerweg","postalCode":"8915","locality":"Hausen am Albis","commune":{"key":"4","name":"Hausen am Albis","shortName":"Hausen am Albis"},"district":{"key":"101","name":"Bezirk Affoltern"},"canton":{"key":"1","code":"ZH","name":"Zürich"},"status":"Real"},{"key":"10173823","name":"Spitzgupfacherweg","postalCode":"8915","locality":"Hausen am Albis","commune":{"key":"4","name":"Hausen am Albis","shortName":"Hausen am Albis"},"district":{"key":"101","name":"Bezirk Affoltern"},"canton":{"key":"1","code":"ZH","name":"Zürich"},"status":"Real"},{"key":"10197376","name":"Stäpferstrasse","postalCode":"8915","locality":"Hausen am Albis","commune":{"key":"4","name":"Hausen am Albis","shortName":"Hausen am Albis"},"district":{"key":"101","name":"Bezirk Affoltern"},"canton":{"key":"1","code":"ZH","name":"Zürich"},"status":"Real"},{"key":"10111916","name":"Steinächerstrasse","postalCode":"8915","locality":"Hausen am Albis","commune":{"key":"4","name":"Hausen am Albis","shortName":"Hausen am Albis"},"district":{"key":"101","name":"Bezirk Affoltern"},"canton":{"key":"1","code":"ZH","name":"Zürich"},"status":"Real"},{"key":"10197377","name":"Stotzweg","postalCode":"8915","locality":"Hausen am Albis","commune":{"key":"4","name":"Hausen am Albis","shortName":"Hausen am Albis"},"district":{"key":"101","name":"Bezirk Affoltern"},"canton":{"key":"1","code":"ZH","name":"Zürich"},"status":"Real"},{"key":"10173824","name":"Sunehof","postalCode":"8915","locality":"Hausen am Albis","commune":{"key":"4","name":"Hausen am Albis","shortName":"Hausen am Albis"},"district":{"key":"101","name":"Bezirk Affoltern"},"canton":{"key":"1","code":"ZH","name":"Zürich"},"status":"Real"},{"key":"10209799","name":"Törlenmatt","postalCode":"8915","locality":"Hausen am Albis","commune":{"key":"4","name":"Hausen am Albis","shortName":"Hausen am Albis"},"district":{"key":"101","name":"Bezirk Affoltern"},"canton":{"key":"1","code":"ZH","name":"Zürich"},"status":"Real"},{"key":"10197378","name":"Törlenmattstrasse","postalCode":"8915","locality":"Hausen am Albis","commune":{"key":"4","name":"Hausen am Albis","shortName":"Hausen am Albis"},"district":{"key":"101","name":"Bezirk Affoltern"},"canton":{"key":"1","code":"ZH","name":"Zürich"},"status":"Real"},{"key":"10079589","name":"Tüfenbach","postalCode":"8915","locality":"Hausen am Albis","commune":{"key":"4","name":"Hausen am Albis","shortName":"Hausen am Albis"},"district":{"key":"101","name":"Bezirk Affoltern"},"canton":{"key":"1","code":"ZH","name":"Zürich"},"status":"Real"},{"key":"10197379","name":"Tüfenbachstrasse","postalCode":"8915","locality":"Hausen am Albis","commune":{"key":"4","name":"Hausen am Albis","shortName":"Hausen am Albis"},"district":{"key":"101","name":"Bezirk Affoltern"},"canton":{"key":"1","code":"ZH","name":"Zürich"},"status":"Real"},{"key":"10121289","name":"Türlen","postalCode":"8915","locality":"Hausen am Albis","commune":{"key":"4","name":"Hausen am Albis","shortName":"Hausen am Albis"},"district":{"key":"101","name":"Bezirk Affoltern"},"canton":{"key":"1","code":"ZH","name":"Zürich"},"status":"Real"},{"key":"10173825","name":"Türlen Camping","postalCode":"8915","locality":"Hausen am Albis","commune":{"key":"4","name":"Hausen am Albis","shortName":"Hausen am Albis"},"district":{"key":"101","name":"Bezirk Affoltern"},"canton":{"key":"1","code":"ZH","name":"Zürich"},"status":"Real"},{"key":"10111920","name":"Unterdorf","postalCode":"8915","locality":"Hausen am Albis","commune":{"key":"4","name":"Hausen am Albis","shortName":"Hausen am Albis"},"district":{"key":"101","name":"Bezirk Affoltern"},"canton":{"key":"1","code":"ZH","name":"Zürich"},"status":"Real"},{"key":"10197380","name":"Untere Huserholzstrasse","postalCode":"8915","locality":"Hausen am Albis","commune":{"key":"4","name":"Hausen am Albis","shortName":"Hausen am Albis"},"district":{"key":"101","name":"Bezirk Affoltern"},"canton":{"key":"1","code":"ZH","name":"Zürich"},"status":"Real"},{"key":"10196631","name":"Unterseebrigstrasse","postalCode":"8915","locality":"Hausen am Albis","commune":{"key":"4","name":"Hausen am Albis","shortName":"Hausen am Albis"},"district":{"key":"101","name":"Bezirk Affoltern"},"canton":{"key":"1","code":"ZH","name":"Zürich"},"status":"Real"},{"key":"10196633","name":"Verbindungsweg","postalCode":"8915","locality":"Hausen am Albis","commune":{"key":"4","name":"Hausen am Albis","shortName":"Hausen am Albis"},"district":{"key":"101","name":"Bezirk Affoltern"},"canton":{"key":"1","code":"ZH","name":"Zürich"},"status":"Real"},{"key":"10003052","name":"Vollenweid","postalCode":"8915","locality":"Hausen am Albis","commune":{"key":"4","name":"Hausen am Albis","shortName":"Hausen am Albis"},"district":{"key":"101","name":"Bezirk Affoltern"},"canton":{"key":"1","code":"ZH","name":"Zürich"},"status":"Real"},{"key":"10197243","name":"Vollenweidstrasse","postalCode":"8915","locality":"Hausen am Albis","commune":{"key":"4","name":"Hausen am Albis","shortName":"Hausen am Albis"},"district":{"key":"101","name":"Bezirk Affoltern"},"canton":{"key":"1","code":"ZH","name":"Zürich"},"status":"Real"},{"key":"10003053","name":"Weid","postalCode":"8915","locality":"Hausen am Albis","commune":{"key":"4","name":"Hausen am Albis","shortName":"Hausen am Albis"},"district":{"key":"101","name":"Bezirk Affoltern"},"canton":{"key":"1","code":"ZH","name":"Zürich"},"status":"Real"},{"key":"10197247","name":"Weidstrasse","postalCode":"8915","locality":"Hausen am Albis","commune":{"key":"4","name":"Hausen am Albis","shortName":"Hausen am Albis"},"district":{"key":"101","name":"Bezirk Affoltern"},"canton":{"key":"1","code":"ZH","name":"Zürich"},"status":"Real"},{"key":"10240301","name":"Weidwiesenweg","postalCode":"8915","locality":"Hausen am Albis","commune":{"key":"4","name":"Hausen am Albis","shortName":"Hausen am Albis"},"district":{"key":"101","name":"Bezirk Affoltern"},"canton":{"key":"1","code":"ZH","name":"Zürich"},"status":"Real"},{"key":"10118552","name":"Weisbrod-Areal","postalCode":"8915","locality":"Hausen am Albis","commune":{"key":"4","name":"Hausen am Albis","shortName":"Hausen am Albis"},"district":{"key":"101","name":"Bezirk Affoltern"},"canton":{"key":"1","code":"ZH","name":"Zürich"},"status":"Real"},{"key":"10197382","name":"Wigarteweg","postalCode":"8915","locality":"Hausen am Albis","commune":{"key":"4","name":"Hausen am Albis","shortName":"Hausen am Albis"},"district":{"key":"101","name":"Bezirk Affoltern"},"canton":{"key":"1","code":"ZH","name":"Zürich"},"status":"Real"},{"key":"10054188","name":"Winkelweg","postalCode":"8915","locality":"Hausen am Albis","commune":{"key":"4","name":"Hausen am Albis","shortName":"Hausen am Albis"},"district":{"key":"101","name":"Bezirk Affoltern"},"canton":{"key":"1","code":"ZH","name":"Zürich"},"status":"Real"},{"key":"10197249","name":"Winterhaldenstrasse","postalCode":"8915","locality":"Hausen am Albis","commune":{"key":"4","name":"Hausen am Albis","shortName":"Hausen am Albis"},"district":{"key":"101","name":"Bezirk Affoltern"},"canton":{"key":"1","code":"ZH","name":"Zürich"},"status":"Real"},{"key":"10197250","name":"Winterrütistrasse","postalCode":"8915","locality":"Hausen am Albis","commune":{"key":"4","name":"Hausen am Albis","shortName":"Hausen am Albis"},"district":{"key":"101","name":"Bezirk Affoltern"},"canton":{"key":"1","code":"ZH","name":"Zürich"},"status":"Real"},{"key":"10079590","name":"Zugerstrasse","postalCode":"8915","locality":"Hausen am Albis","commune":{"key":"4","name":"Hausen am Albis","shortName":"Hausen am Albis"},"district":{"key":"101","name":"Bezirk Affoltern"},"canton":{"key":"1","code":"ZH","name":"Zürich"},"status":"Real"},{"key":"10197251","name":"Zürihölzlistrasse","postalCode":"8915","locality":"Hausen am Albis","commune":{"key":"4","name":"Hausen am Albis","shortName":"Hausen am Albis"},"district":{"key":"101","name":"Bezirk Affoltern"},"canton":{"key":"1","code":"ZH","name":"Zürich"},"status":"Real"},]