[{"name":"An de Möhl","postalCode":"24977","locality":"Westerholz","municipality":{"key":"01059178","name":"Westerholz","type":"Kreisangehörige_Gemeinde"},"district":{"key":"01059","name":"Schleswig-Flensburg","type":"Kreis"},"federalState":{"key":"01","name":"Schleswig-Holstein"}},{"name":"Appelhoff","postalCode":"24977","locality":"Westerholz","municipality":{"key":"01059178","name":"Westerholz","type":"Kreisangehörige_Gemeinde"},"district":{"key":"01059","name":"Schleswig-Flensburg","type":"Kreis"},"federalState":{"key":"01","name":"Schleswig-Holstein"}},{"name":"Erich-Heckel-Weg","postalCode":"24977","locality":"Westerholz","municipality":{"key":"01059178","name":"Westerholz","type":"Kreisangehörige_Gemeinde"},"district":{"key":"01059","name":"Schleswig-Flensburg","type":"Kreis"},"federalState":{"key":"01","name":"Schleswig-Holstein"}},{"name":"Fördestr.","postalCode":"24977","locality":"Westerholz","municipality":{"key":"01059178","name":"Westerholz","type":"Kreisangehörige_Gemeinde"},"district":{"key":"01059","name":"Schleswig-Flensburg","type":"Kreis"},"federalState":{"key":"01","name":"Schleswig-Holstein"}},{"name":"Hafflücke","postalCode":"24977","locality":"Westerholz","municipality":{"key":"01059178","name":"Westerholz","type":"Kreisangehörige_Gemeinde"},"district":{"key":"01059","name":"Schleswig-Flensburg","type":"Kreis"},"federalState":{"key":"01","name":"Schleswig-Holstein"}},{"name":"Haffstr.","postalCode":"24977","locality":"Westerholz","municipality":{"key":"01059178","name":"Westerholz","type":"Kreisangehörige_Gemeinde"},"district":{"key":"01059","name":"Schleswig-Flensburg","type":"Kreis"},"federalState":{"key":"01","name":"Schleswig-Holstein"}},{"name":"Krögerkoppel","postalCode":"24977","locality":"Westerholz","municipality":{"key":"01059178","name":"Westerholz","type":"Kreisangehörige_Gemeinde"},"district":{"key":"01059","name":"Schleswig-Flensburg","type":"Kreis"},"federalState":{"key":"01","name":"Schleswig-Holstein"}},{"name":"Kummle","postalCode":"24977","locality":"Westerholz","municipality":{"key":"01059178","name":"Westerholz","type":"Kreisangehörige_Gemeinde"},"district":{"key":"01059","name":"Schleswig-Flensburg","type":"Kreis"},"federalState":{"key":"01","name":"Schleswig-Holstein"}},{"name":"Lundsmoor","postalCode":"24977","locality":"Westerholz","municipality":{"key":"01059178","name":"Westerholz","type":"Kreisangehörige_Gemeinde"},"district":{"key":"01059","name":"Schleswig-Flensburg","type":"Kreis"},"federalState":{"key":"01","name":"Schleswig-Holstein"}},{"name":"Petersilienstr.","postalCode":"24977","locality":"Westerholz","municipality":{"key":"01059178","name":"Westerholz","type":"Kreisangehörige_Gemeinde"},"district":{"key":"01059","name":"Schleswig-Flensburg","type":"Kreis"},"federalState":{"key":"01","name":"Schleswig-Holstein"}},{"name":"Poseby","postalCode":"24977","locality":"Westerholz","municipality":{"key":"01059178","name":"Westerholz","type":"Kreisangehörige_Gemeinde"},"district":{"key":"01059","name":"Schleswig-Flensburg","type":"Kreis"},"federalState":{"key":"01","name":"Schleswig-Holstein"}},{"name":"Schulstr.","postalCode":"24977","locality":"Westerholz","municipality":{"key":"01059178","name":"Westerholz","type":"Kreisangehörige_Gemeinde"},"district":{"key":"01059","name":"Schleswig-Flensburg","type":"Kreis"},"federalState":{"key":"01","name":"Schleswig-Holstein"}},{"name":"Sonnholm","postalCode":"24977","locality":"Westerholz","municipality":{"key":"01059178","name":"Westerholz","type":"Kreisangehörige_Gemeinde"},"district":{"key":"01059","name":"Schleswig-Flensburg","type":"Kreis"},"federalState":{"key":"01","name":"Schleswig-Holstein"}},{"name":"Zu den Lücken","postalCode":"24977","locality":"Westerholz","municipality":{"key":"01059178","name":"Westerholz","type":"Kreisangehörige_Gemeinde"},"district":{"key":"01059","name":"Schleswig-Flensburg","type":"Kreis"},"federalState":{"key":"01","name":"Schleswig-Holstein"}},]