[{"key":"10188101","name":"Ahornstrasse","postalCode":"4127","locality":"Birsfelden","commune":{"key":"2770","name":"Muttenz","shortName":"Muttenz"},"district":{"key":"1301","name":"Bezirk Arlesheim"},"canton":{"key":"13","code":"BL","name":"Basel-Landschaft"},"status":"Real"},{"key":"10142384","name":"Alpenrosenweg","postalCode":"4127","locality":"Birsfelden","commune":{"key":"2770","name":"Muttenz","shortName":"Muttenz"},"district":{"key":"1301","name":"Bezirk Arlesheim"},"canton":{"key":"13","code":"BL","name":"Basel-Landschaft"},"status":"Real"},{"key":"10086369","name":"Amselstrasse","postalCode":"4127","locality":"Birsfelden","commune":{"key":"2770","name":"Muttenz","shortName":"Muttenz"},"district":{"key":"1301","name":"Bezirk Arlesheim"},"canton":{"key":"13","code":"BL","name":"Basel-Landschaft"},"status":"Real"},{"key":"10016999","name":"Am Stausee","postalCode":"4127","locality":"Birsfelden","commune":{"key":"2770","name":"Muttenz","shortName":"Muttenz"},"district":{"key":"1301","name":"Bezirk Arlesheim"},"canton":{"key":"13","code":"BL","name":"Basel-Landschaft"},"status":"Real"},{"key":"10142340","name":"Asternweg","postalCode":"4127","locality":"Birsfelden","commune":{"key":"2770","name":"Muttenz","shortName":"Muttenz"},"district":{"key":"1301","name":"Bezirk Arlesheim"},"canton":{"key":"13","code":"BL","name":"Basel-Landschaft"},"status":"Real"},{"key":"10142331","name":"Auf der Alp","postalCode":"4127","locality":"Birsfelden","commune":{"key":"2770","name":"Muttenz","shortName":"Muttenz"},"district":{"key":"1301","name":"Bezirk Arlesheim"},"canton":{"key":"13","code":"BL","name":"Basel-Landschaft"},"status":"Real"},{"key":"10142986","name":"Auhafen","postalCode":"4127","locality":"Birsfelden","commune":{"key":"2770","name":"Muttenz","shortName":"Muttenz"},"district":{"key":"1301","name":"Bezirk Arlesheim"},"canton":{"key":"13","code":"BL","name":"Basel-Landschaft"},"status":"Real"},{"key":"10111644","name":"Auhafenstrasse","postalCode":"4127","locality":"Birsfelden","commune":{"key":"2770","name":"Muttenz","shortName":"Muttenz"},"district":{"key":"1301","name":"Bezirk Arlesheim"},"canton":{"key":"13","code":"BL","name":"Basel-Landschaft"},"status":"Real"},{"key":"10179796","name":"Bärengasse","postalCode":"4127","locality":"Birsfelden","commune":{"key":"2770","name":"Muttenz","shortName":"Muttenz"},"district":{"key":"1301","name":"Bezirk Arlesheim"},"canton":{"key":"13","code":"BL","name":"Basel-Landschaft"},"status":"Real"},{"key":"10017000","name":"Baslerstrasse","postalCode":"4127","locality":"Birsfelden","commune":{"key":"2770","name":"Muttenz","shortName":"Muttenz"},"district":{"key":"1301","name":"Bezirk Arlesheim"},"canton":{"key":"13","code":"BL","name":"Basel-Landschaft"},"status":"Real"},{"key":"10017001","name":"Baumgartenweg","postalCode":"4127","locality":"Birsfelden","commune":{"key":"2770","name":"Muttenz","shortName":"Muttenz"},"district":{"key":"1301","name":"Bezirk Arlesheim"},"canton":{"key":"13","code":"BL","name":"Basel-Landschaft"},"status":"Real"},{"key":"10142383","name":"Begonienweg","postalCode":"4127","locality":"Birsfelden","commune":{"key":"2770","name":"Muttenz","shortName":"Muttenz"},"district":{"key":"1301","name":"Bezirk Arlesheim"},"canton":{"key":"13","code":"BL","name":"Basel-Landschaft"},"status":"Real"},{"key":"10063273","name":"Bettingerstrasse","postalCode":"4127","locality":"Birsfelden","commune":{"key":"2770","name":"Muttenz","shortName":"Muttenz"},"district":{"key":"1301","name":"Bezirk Arlesheim"},"canton":{"key":"13","code":"BL","name":"Basel-Landschaft"},"status":"Real"},{"key":"10120334","name":"Birkenstrasse","postalCode":"4127","locality":"Birsfelden","commune":{"key":"2770","name":"Muttenz","shortName":"Muttenz"},"district":{"key":"1301","name":"Bezirk Arlesheim"},"canton":{"key":"13","code":"BL","name":"Basel-Landschaft"},"status":"Real"},{"key":"10086370","name":"Birseckstrasse","postalCode":"4127","locality":"Birsfelden","commune":{"key":"2770","name":"Muttenz","shortName":"Muttenz"},"district":{"key":"1301","name":"Bezirk Arlesheim"},"canton":{"key":"13","code":"BL","name":"Basel-Landschaft"},"status":"Real"},{"key":"10017002","name":"Birsquai","postalCode":"4127","locality":"Birsfelden","commune":{"key":"2770","name":"Muttenz","shortName":"Muttenz"},"district":{"key":"1301","name":"Bezirk Arlesheim"},"canton":{"key":"13","code":"BL","name":"Basel-Landschaft"},"status":"Real"},{"key":"10110492","name":"Birsstegweg","postalCode":"4127","locality":"Birsfelden","commune":{"key":"2770","name":"Muttenz","shortName":"Muttenz"},"district":{"key":"1301","name":"Bezirk Arlesheim"},"canton":{"key":"13","code":"BL","name":"Basel-Landschaft"},"status":"Real"},{"key":"10063274","name":"Blauenstrasse","postalCode":"4127","locality":"Birsfelden","commune":{"key":"2770","name":"Muttenz","shortName":"Muttenz"},"district":{"key":"1301","name":"Bezirk Arlesheim"},"canton":{"key":"13","code":"BL","name":"Basel-Landschaft"},"status":"Real"},{"key":"10017005","name":"Bölchenstrasse","postalCode":"4127","locality":"Birsfelden","commune":{"key":"2770","name":"Muttenz","shortName":"Muttenz"},"district":{"key":"1301","name":"Bezirk Arlesheim"},"canton":{"key":"13","code":"BL","name":"Basel-Landschaft"},"status":"Real"},{"key":"10086371","name":"Bruderholzstrasse","postalCode":"4127","locality":"Birsfelden","commune":{"key":"2770","name":"Muttenz","shortName":"Muttenz"},"district":{"key":"1301","name":"Bezirk Arlesheim"},"canton":{"key":"13","code":"BL","name":"Basel-Landschaft"},"status":"Real"},{"key":"10017003","name":"Buchenstrasse","postalCode":"4127","locality":"Birsfelden","commune":{"key":"2770","name":"Muttenz","shortName":"Muttenz"},"district":{"key":"1301","name":"Bezirk Arlesheim"},"canton":{"key":"13","code":"BL","name":"Basel-Landschaft"},"status":"Real"},{"key":"10017004","name":"Burenweg","postalCode":"4127","locality":"Birsfelden","commune":{"key":"2770","name":"Muttenz","shortName":"Muttenz"},"district":{"key":"1301","name":"Bezirk Arlesheim"},"canton":{"key":"13","code":"BL","name":"Basel-Landschaft"},"status":"Real"},{"key":"10063275","name":"Bürklinstrasse","postalCode":"4127","locality":"Birsfelden","commune":{"key":"2770","name":"Muttenz","shortName":"Muttenz"},"district":{"key":"1301","name":"Bezirk Arlesheim"},"canton":{"key":"13","code":"BL","name":"Basel-Landschaft"},"status":"Real"},{"key":"10086372","name":"Chrischonastrasse","postalCode":"4127","locality":"Birsfelden","commune":{"key":"2770","name":"Muttenz","shortName":"Muttenz"},"district":{"key":"1301","name":"Bezirk Arlesheim"},"canton":{"key":"13","code":"BL","name":"Basel-Landschaft"},"status":"Real"},{"key":"10142338","name":"Dahlienweg","postalCode":"4127","locality":"Birsfelden","commune":{"key":"2770","name":"Muttenz","shortName":"Muttenz"},"district":{"key":"1301","name":"Bezirk Arlesheim"},"canton":{"key":"13","code":"BL","name":"Basel-Landschaft"},"status":"Real"},{"key":"10017006","name":"Dinkelbergstrasse","postalCode":"4127","locality":"Birsfelden","commune":{"key":"2770","name":"Muttenz","shortName":"Muttenz"},"district":{"key":"1301","name":"Bezirk Arlesheim"},"canton":{"key":"13","code":"BL","name":"Basel-Landschaft"},"status":"Real"},{"key":"10017007","name":"Drosselstrasse","postalCode":"4127","locality":"Birsfelden","commune":{"key":"2770","name":"Muttenz","shortName":"Muttenz"},"district":{"key":"1301","name":"Bezirk Arlesheim"},"canton":{"key":"13","code":"BL","name":"Basel-Landschaft"},"status":"Real"},{"key":"10142339","name":"Edelweissweg","postalCode":"4127","locality":"Birsfelden","commune":{"key":"2770","name":"Muttenz","shortName":"Muttenz"},"district":{"key":"1301","name":"Bezirk Arlesheim"},"canton":{"key":"13","code":"BL","name":"Basel-Landschaft"},"status":"Real"},{"key":"10018099","name":"Eichenstrasse","postalCode":"4127","locality":"Birsfelden","commune":{"key":"2770","name":"Muttenz","shortName":"Muttenz"},"district":{"key":"1301","name":"Bezirk Arlesheim"},"canton":{"key":"13","code":"BL","name":"Basel-Landschaft"},"status":"Real"},{"key":"10142353","name":"Enzianweg","postalCode":"4127","locality":"Birsfelden","commune":{"key":"2770","name":"Muttenz","shortName":"Muttenz"},"district":{"key":"1301","name":"Bezirk Arlesheim"},"canton":{"key":"13","code":"BL","name":"Basel-Landschaft"},"status":"Real"},{"key":"10086373","name":"Erlenstrasse","postalCode":"4127","locality":"Birsfelden","commune":{"key":"2770","name":"Muttenz","shortName":"Muttenz"},"district":{"key":"1301","name":"Bezirk Arlesheim"},"canton":{"key":"13","code":"BL","name":"Basel-Landschaft"},"status":"Real"},{"key":"10017159","name":"Falkenstrasse","postalCode":"4127","locality":"Birsfelden","commune":{"key":"2770","name":"Muttenz","shortName":"Muttenz"},"district":{"key":"1301","name":"Bezirk Arlesheim"},"canton":{"key":"13","code":"BL","name":"Basel-Landschaft"},"status":"Real"},{"key":"10063547","name":"Fasanenstrasse","postalCode":"4127","locality":"Birsfelden","commune":{"key":"2770","name":"Muttenz","shortName":"Muttenz"},"district":{"key":"1301","name":"Bezirk Arlesheim"},"canton":{"key":"13","code":"BL","name":"Basel-Landschaft"},"status":"Real"},{"key":"10018100","name":"Fichtenweg","postalCode":"4127","locality":"Birsfelden","commune":{"key":"2770","name":"Muttenz","shortName":"Muttenz"},"district":{"key":"1301","name":"Bezirk Arlesheim"},"canton":{"key":"13","code":"BL","name":"Basel-Landschaft"},"status":"Real"},{"key":"10062507","name":"Finkenstrasse","postalCode":"4127","locality":"Birsfelden","commune":{"key":"2770","name":"Muttenz","shortName":"Muttenz"},"district":{"key":"1301","name":"Bezirk Arlesheim"},"canton":{"key":"13","code":"BL","name":"Basel-Landschaft"},"status":"Real"},{"key":"10177178","name":"Florastrasse","postalCode":"4127","locality":"Birsfelden","commune":{"key":"2770","name":"Muttenz","shortName":"Muttenz"},"district":{"key":"1301","name":"Bezirk Arlesheim"},"canton":{"key":"13","code":"BL","name":"Basel-Landschaft"},"status":"Real"},{"key":"10103037","name":"Föhrenweg","postalCode":"4127","locality":"Birsfelden","commune":{"key":"2770","name":"Muttenz","shortName":"Muttenz"},"district":{"key":"1301","name":"Bezirk Arlesheim"},"canton":{"key":"13","code":"BL","name":"Basel-Landschaft"},"status":"Real"},{"key":"10174848","name":"Freulerstrasse","postalCode":"4127","locality":"Birsfelden","commune":{"key":"2770","name":"Muttenz","shortName":"Muttenz"},"district":{"key":"1301","name":"Bezirk Arlesheim"},"canton":{"key":"13","code":"BL","name":"Basel-Landschaft"},"status":"Real"},{"key":"10056235","name":"Freulerstrasse","postalCode":"4127","locality":"Birsfelden","commune":{"key":"2770","name":"Muttenz","shortName":"Muttenz"},"district":{"key":"1301","name":"Bezirk Arlesheim"},"canton":{"key":"13","code":"BL","name":"Basel-Landschaft"},"status":"Real"},{"key":"10086374","name":"Friedensgasse","postalCode":"4127","locality":"Birsfelden","commune":{"key":"2770","name":"Muttenz","shortName":"Muttenz"},"district":{"key":"1301","name":"Bezirk Arlesheim"},"canton":{"key":"13","code":"BL","name":"Basel-Landschaft"},"status":"Real"},{"key":"10018101","name":"Friedhofstrasse","postalCode":"4127","locality":"Birsfelden","commune":{"key":"2770","name":"Muttenz","shortName":"Muttenz"},"district":{"key":"1301","name":"Bezirk Arlesheim"},"canton":{"key":"13","code":"BL","name":"Basel-Landschaft"},"status":"Real"},{"key":"10116687","name":"Fröschenweg","postalCode":"4127","locality":"Birsfelden","commune":{"key":"2770","name":"Muttenz","shortName":"Muttenz"},"district":{"key":"1301","name":"Bezirk Arlesheim"},"canton":{"key":"13","code":"BL","name":"Basel-Landschaft"},"status":"Real"},{"key":"10018102","name":"Gartenstrasse","postalCode":"4127","locality":"Birsfelden","commune":{"key":"2770","name":"Muttenz","shortName":"Muttenz"},"district":{"key":"1301","name":"Bezirk Arlesheim"},"canton":{"key":"13","code":"BL","name":"Basel-Landschaft"},"status":"Real"},{"key":"10018103","name":"Gempenstrasse","postalCode":"4127","locality":"Birsfelden","commune":{"key":"2770","name":"Muttenz","shortName":"Muttenz"},"district":{"key":"1301","name":"Bezirk Arlesheim"},"canton":{"key":"13","code":"BL","name":"Basel-Landschaft"},"status":"Real"},{"key":"10142386","name":"Geranienweg","postalCode":"4127","locality":"Birsfelden","commune":{"key":"2770","name":"Muttenz","shortName":"Muttenz"},"district":{"key":"1301","name":"Bezirk Arlesheim"},"canton":{"key":"13","code":"BL","name":"Basel-Landschaft"},"status":"Real"},{"key":"10056236","name":"Hafenstrasse","postalCode":"4127","locality":"Birsfelden","commune":{"key":"2770","name":"Muttenz","shortName":"Muttenz"},"district":{"key":"1301","name":"Bezirk Arlesheim"},"canton":{"key":"13","code":"BL","name":"Basel-Landschaft"},"status":"Real"},{"key":"10086375","name":"Hagnauweg","postalCode":"4127","locality":"Birsfelden","commune":{"key":"2770","name":"Muttenz","shortName":"Muttenz"},"district":{"key":"1301","name":"Bezirk Arlesheim"},"canton":{"key":"13","code":"BL","name":"Basel-Landschaft"},"status":"Real"},{"key":"10179797","name":"Hardstrasse","postalCode":"4127","locality":"Birsfelden","commune":{"key":"2770","name":"Muttenz","shortName":"Muttenz"},"district":{"key":"1301","name":"Bezirk Arlesheim"},"canton":{"key":"13","code":"BL","name":"Basel-Landschaft"},"status":"Real"},{"key":"10056237","name":"Hauptstrasse","postalCode":"4127","locality":"Birsfelden","commune":{"key":"2770","name":"Muttenz","shortName":"Muttenz"},"district":{"key":"1301","name":"Bezirk Arlesheim"},"canton":{"key":"13","code":"BL","name":"Basel-Landschaft"},"status":"Real"},{"key":"10120335","name":"Hofstrasse","postalCode":"4127","locality":"Birsfelden","commune":{"key":"2770","name":"Muttenz","shortName":"Muttenz"},"district":{"key":"1301","name":"Bezirk Arlesheim"},"canton":{"key":"13","code":"BL","name":"Basel-Landschaft"},"status":"Real"},{"key":"10063548","name":"Im Lerchengarten","postalCode":"4127","locality":"Birsfelden","commune":{"key":"2770","name":"Muttenz","shortName":"Muttenz"},"district":{"key":"1301","name":"Bezirk Arlesheim"},"canton":{"key":"13","code":"BL","name":"Basel-Landschaft"},"status":"Real"},{"key":"10086376","name":"Kirchstrasse","postalCode":"4127","locality":"Birsfelden","commune":{"key":"2770","name":"Muttenz","shortName":"Muttenz"},"district":{"key":"1301","name":"Bezirk Arlesheim"},"canton":{"key":"13","code":"BL","name":"Basel-Landschaft"},"status":"Real"},{"key":"10017184","name":"Klünenfeldstrasse","postalCode":"4127","locality":"Birsfelden","commune":{"key":"2770","name":"Muttenz","shortName":"Muttenz"},"district":{"key":"1301","name":"Bezirk Arlesheim"},"canton":{"key":"13","code":"BL","name":"Basel-Landschaft"},"status":"Real"},{"key":"10142094","name":"Krokusweg","postalCode":"4127","locality":"Birsfelden","commune":{"key":"2770","name":"Muttenz","shortName":"Muttenz"},"district":{"key":"1301","name":"Bezirk Arlesheim"},"canton":{"key":"13","code":"BL","name":"Basel-Landschaft"},"status":"Real"},{"key":"10190873","name":"Lachmattstrasse","postalCode":"4127","locality":"Birsfelden","commune":{"key":"2770","name":"Muttenz","shortName":"Muttenz"},"district":{"key":"1301","name":"Bezirk Arlesheim"},"canton":{"key":"13","code":"BL","name":"Basel-Landschaft"},"status":"Real"},{"key":"10110493","name":"Langenhagstrasse","postalCode":"4127","locality":"Birsfelden","commune":{"key":"2770","name":"Muttenz","shortName":"Muttenz"},"district":{"key":"1301","name":"Bezirk Arlesheim"},"canton":{"key":"13","code":"BL","name":"Basel-Landschaft"},"status":"Real"},{"key":"10118302","name":"Lärchengartenstrasse","postalCode":"4127","locality":"Birsfelden","commune":{"key":"2770","name":"Muttenz","shortName":"Muttenz"},"district":{"key":"1301","name":"Bezirk Arlesheim"},"canton":{"key":"13","code":"BL","name":"Basel-Landschaft"},"status":"Real"},{"key":"10018104","name":"Lavaterstrasse","postalCode":"4127","locality":"Birsfelden","commune":{"key":"2770","name":"Muttenz","shortName":"Muttenz"},"district":{"key":"1301","name":"Bezirk Arlesheim"},"canton":{"key":"13","code":"BL","name":"Basel-Landschaft"},"status":"Real"},{"key":"10063549","name":"Liestalerstrasse","postalCode":"4127","locality":"Birsfelden","commune":{"key":"2770","name":"Muttenz","shortName":"Muttenz"},"district":{"key":"1301","name":"Bezirk Arlesheim"},"canton":{"key":"13","code":"BL","name":"Basel-Landschaft"},"status":"Real"},{"key":"10142381","name":"Lilienweg","postalCode":"4127","locality":"Birsfelden","commune":{"key":"2770","name":"Muttenz","shortName":"Muttenz"},"district":{"key":"1301","name":"Bezirk Arlesheim"},"canton":{"key":"13","code":"BL","name":"Basel-Landschaft"},"status":"Real"},{"key":"10103038","name":"Lindenstrasse","postalCode":"4127","locality":"Birsfelden","commune":{"key":"2770","name":"Muttenz","shortName":"Muttenz"},"district":{"key":"1301","name":"Bezirk Arlesheim"},"canton":{"key":"13","code":"BL","name":"Basel-Landschaft"},"status":"Real"},{"key":"10142343","name":"Lindenweg","postalCode":"4127","locality":"Birsfelden","commune":{"key":"2770","name":"Muttenz","shortName":"Muttenz"},"district":{"key":"1301","name":"Bezirk Arlesheim"},"canton":{"key":"13","code":"BL","name":"Basel-Landschaft"},"status":"Real"},{"key":"10142380","name":"Marie Lotz-Promenade","postalCode":"4127","locality":"Birsfelden","commune":{"key":"2770","name":"Muttenz","shortName":"Muttenz"},"district":{"key":"1301","name":"Bezirk Arlesheim"},"canton":{"key":"13","code":"BL","name":"Basel-Landschaft"},"status":"Real"},{"key":"10142970","name":"Meisenstrasse","postalCode":"4127","locality":"Birsfelden","commune":{"key":"2770","name":"Muttenz","shortName":"Muttenz"},"district":{"key":"1301","name":"Bezirk Arlesheim"},"canton":{"key":"13","code":"BL","name":"Basel-Landschaft"},"status":"Real"},{"key":"10175699","name":"Muttenzerstrasse","postalCode":"4127","locality":"Birsfelden","commune":{"key":"2770","name":"Muttenz","shortName":"Muttenz"},"district":{"key":"1301","name":"Bezirk Arlesheim"},"canton":{"key":"13","code":"BL","name":"Basel-Landschaft"},"status":"Real"},{"key":"10017187","name":"Muttenzerstrasse","postalCode":"4127","locality":"Birsfelden","commune":{"key":"2770","name":"Muttenz","shortName":"Muttenz"},"district":{"key":"1301","name":"Bezirk Arlesheim"},"canton":{"key":"13","code":"BL","name":"Basel-Landschaft"},"status":"Real"},{"key":"10142334","name":"Narzissenweg","postalCode":"4127","locality":"Birsfelden","commune":{"key":"2770","name":"Muttenz","shortName":"Muttenz"},"district":{"key":"1301","name":"Bezirk Arlesheim"},"canton":{"key":"13","code":"BL","name":"Basel-Landschaft"},"status":"Real"},{"key":"10154152","name":"Obere Hard","postalCode":"4127","locality":"Birsfelden","commune":{"key":"2770","name":"Muttenz","shortName":"Muttenz"},"district":{"key":"1301","name":"Bezirk Arlesheim"},"canton":{"key":"13","code":"BL","name":"Basel-Landschaft"},"status":"Real"},{"key":"10142341","name":"Parkweg","postalCode":"4127","locality":"Birsfelden","commune":{"key":"2770","name":"Muttenz","shortName":"Muttenz"},"district":{"key":"1301","name":"Bezirk Arlesheim"},"canton":{"key":"13","code":"BL","name":"Basel-Landschaft"},"status":"Real"},{"key":"10018105","name":"Passwangstrasse","postalCode":"4127","locality":"Birsfelden","commune":{"key":"2770","name":"Muttenz","shortName":"Muttenz"},"district":{"key":"1301","name":"Bezirk Arlesheim"},"canton":{"key":"13","code":"BL","name":"Basel-Landschaft"},"status":"Real"},{"key":"10018106","name":"Prattelerstrasse","postalCode":"4127","locality":"Birsfelden","commune":{"key":"2770","name":"Muttenz","shortName":"Muttenz"},"district":{"key":"1301","name":"Bezirk Arlesheim"},"canton":{"key":"13","code":"BL","name":"Basel-Landschaft"},"status":"Real"},{"key":"10142385","name":"Primelweg","postalCode":"4127","locality":"Birsfelden","commune":{"key":"2770","name":"Muttenz","shortName":"Muttenz"},"district":{"key":"1301","name":"Bezirk Arlesheim"},"canton":{"key":"13","code":"BL","name":"Basel-Landschaft"},"status":"Real"},{"key":"10142382","name":"Promenadenweg","postalCode":"4127","locality":"Birsfelden","commune":{"key":"2770","name":"Muttenz","shortName":"Muttenz"},"district":{"key":"1301","name":"Bezirk Arlesheim"},"canton":{"key":"13","code":"BL","name":"Basel-Landschaft"},"status":"Real"},{"key":"10086377","name":"Rebackerstrasse","postalCode":"4127","locality":"Birsfelden","commune":{"key":"2770","name":"Muttenz","shortName":"Muttenz"},"district":{"key":"1301","name":"Bezirk Arlesheim"},"canton":{"key":"13","code":"BL","name":"Basel-Landschaft"},"status":"Real"},{"key":"10153829","name":"Rebackerweg","postalCode":"4127","locality":"Birsfelden","commune":{"key":"2770","name":"Muttenz","shortName":"Muttenz"},"district":{"key":"1301","name":"Bezirk Arlesheim"},"canton":{"key":"13","code":"BL","name":"Basel-Landschaft"},"status":"Real"},{"key":"10142363","name":"Redingbrücke","postalCode":"4127","locality":"Birsfelden","commune":{"key":"2770","name":"Muttenz","shortName":"Muttenz"},"district":{"key":"1301","name":"Bezirk Arlesheim"},"canton":{"key":"13","code":"BL","name":"Basel-Landschaft"},"status":"Real"},{"key":"10056238","name":"Rheinfelderstrasse","postalCode":"4127","locality":"Birsfelden","commune":{"key":"2770","name":"Muttenz","shortName":"Muttenz"},"district":{"key":"1301","name":"Bezirk Arlesheim"},"canton":{"key":"13","code":"BL","name":"Basel-Landschaft"},"status":"Real"},{"key":"10056277","name":"Rheinfelderstrasse","postalCode":"4127","locality":"Birsfelden","commune":{"key":"2770","name":"Muttenz","shortName":"Muttenz"},"district":{"key":"1301","name":"Bezirk Arlesheim"},"canton":{"key":"13","code":"BL","name":"Basel-Landschaft"},"status":"Real"},{"key":"10063550","name":"Rheinparkstrasse","postalCode":"4127","locality":"Birsfelden","commune":{"key":"2770","name":"Muttenz","shortName":"Muttenz"},"district":{"key":"1301","name":"Bezirk Arlesheim"},"canton":{"key":"13","code":"BL","name":"Basel-Landschaft"},"status":"Real"},{"key":"10018107","name":"Rheinstrasse","postalCode":"4127","locality":"Birsfelden","commune":{"key":"2770","name":"Muttenz","shortName":"Muttenz"},"district":{"key":"1301","name":"Bezirk Arlesheim"},"canton":{"key":"13","code":"BL","name":"Basel-Landschaft"},"status":"Real"},{"key":"10018108","name":"Riehenstrasse","postalCode":"4127","locality":"Birsfelden","commune":{"key":"2770","name":"Muttenz","shortName":"Muttenz"},"district":{"key":"1301","name":"Bezirk Arlesheim"},"canton":{"key":"13","code":"BL","name":"Basel-Landschaft"},"status":"Real"},{"key":"10056239","name":"Rosenstrasse","postalCode":"4127","locality":"Birsfelden","commune":{"key":"2770","name":"Muttenz","shortName":"Muttenz"},"district":{"key":"1301","name":"Bezirk Arlesheim"},"canton":{"key":"13","code":"BL","name":"Basel-Landschaft"},"status":"Real"},{"key":"10142397","name":"Rosenweg","postalCode":"4127","locality":"Birsfelden","commune":{"key":"2770","name":"Muttenz","shortName":"Muttenz"},"district":{"key":"1301","name":"Bezirk Arlesheim"},"canton":{"key":"13","code":"BL","name":"Basel-Landschaft"},"status":"Real"},{"key":"10018109","name":"Rührbergstrasse","postalCode":"4127","locality":"Birsfelden","commune":{"key":"2770","name":"Muttenz","shortName":"Muttenz"},"district":{"key":"1301","name":"Bezirk Arlesheim"},"canton":{"key":"13","code":"BL","name":"Basel-Landschaft"},"status":"Real"},{"key":"10087451","name":"Rüttihardstrasse","postalCode":"4127","locality":"Birsfelden","commune":{"key":"2770","name":"Muttenz","shortName":"Muttenz"},"district":{"key":"1301","name":"Bezirk Arlesheim"},"canton":{"key":"13","code":"BL","name":"Basel-Landschaft"},"status":"Real"},{"key":"10188148","name":"Salinenstrasse","postalCode":"4127","locality":"Birsfelden","commune":{"key":"2770","name":"Muttenz","shortName":"Muttenz"},"district":{"key":"1301","name":"Bezirk Arlesheim"},"canton":{"key":"13","code":"BL","name":"Basel-Landschaft"},"status":"Real"},{"key":"10018110","name":"Salmenstrasse","postalCode":"4127","locality":"Birsfelden","commune":{"key":"2770","name":"Muttenz","shortName":"Muttenz"},"district":{"key":"1301","name":"Bezirk Arlesheim"},"canton":{"key":"13","code":"BL","name":"Basel-Landschaft"},"status":"Real"},{"key":"10063551","name":"Schillerstrasse","postalCode":"4127","locality":"Birsfelden","commune":{"key":"2770","name":"Muttenz","shortName":"Muttenz"},"district":{"key":"1301","name":"Bezirk Arlesheim"},"canton":{"key":"13","code":"BL","name":"Basel-Landschaft"},"status":"Real"},{"key":"10153830","name":"Schleusenweg","postalCode":"4127","locality":"Birsfelden","commune":{"key":"2770","name":"Muttenz","shortName":"Muttenz"},"district":{"key":"1301","name":"Bezirk Arlesheim"},"canton":{"key":"13","code":"BL","name":"Basel-Landschaft"},"status":"Real"},{"key":"10174831","name":"Schulstrasse","postalCode":"4127","locality":"Birsfelden","commune":{"key":"2770","name":"Muttenz","shortName":"Muttenz"},"district":{"key":"1301","name":"Bezirk Arlesheim"},"canton":{"key":"13","code":"BL","name":"Basel-Landschaft"},"status":"Real"},{"key":"10056240","name":"Schützenstrasse","postalCode":"4127","locality":"Birsfelden","commune":{"key":"2770","name":"Muttenz","shortName":"Muttenz"},"district":{"key":"1301","name":"Bezirk Arlesheim"},"canton":{"key":"13","code":"BL","name":"Basel-Landschaft"},"status":"Real"},{"key":"10018111","name":"Sonnenbergstrasse","postalCode":"4127","locality":"Birsfelden","commune":{"key":"2770","name":"Muttenz","shortName":"Muttenz"},"district":{"key":"1301","name":"Bezirk Arlesheim"},"canton":{"key":"13","code":"BL","name":"Basel-Landschaft"},"status":"Real"},{"key":"10142392","name":"Sportplatzweg","postalCode":"4127","locality":"Birsfelden","commune":{"key":"2770","name":"Muttenz","shortName":"Muttenz"},"district":{"key":"1301","name":"Bezirk Arlesheim"},"canton":{"key":"13","code":"BL","name":"Basel-Landschaft"},"status":"Real"},{"key":"10142959","name":"Starenstrasse","postalCode":"4127","locality":"Birsfelden","commune":{"key":"2770","name":"Muttenz","shortName":"Muttenz"},"district":{"key":"1301","name":"Bezirk Arlesheim"},"canton":{"key":"13","code":"BL","name":"Basel-Landschaft"},"status":"Real"},{"key":"10087452","name":"Sternenfeldstrasse","postalCode":"4127","locality":"Birsfelden","commune":{"key":"2770","name":"Muttenz","shortName":"Muttenz"},"district":{"key":"1301","name":"Bezirk Arlesheim"},"canton":{"key":"13","code":"BL","name":"Basel-Landschaft"},"status":"Real"},{"key":"10142391","name":"Stierackerweg","postalCode":"4127","locality":"Birsfelden","commune":{"key":"2770","name":"Muttenz","shortName":"Muttenz"},"district":{"key":"1301","name":"Bezirk Arlesheim"},"canton":{"key":"13","code":"BL","name":"Basel-Landschaft"},"status":"Real"},{"key":"10142337","name":"Tulpenweg","postalCode":"4127","locality":"Birsfelden","commune":{"key":"2770","name":"Muttenz","shortName":"Muttenz"},"district":{"key":"1301","name":"Bezirk Arlesheim"},"canton":{"key":"13","code":"BL","name":"Basel-Landschaft"},"status":"Real"},{"key":"10056241","name":"Turnerstrasse","postalCode":"4127","locality":"Birsfelden","commune":{"key":"2770","name":"Muttenz","shortName":"Muttenz"},"district":{"key":"1301","name":"Bezirk Arlesheim"},"canton":{"key":"13","code":"BL","name":"Basel-Landschaft"},"status":"Real"},{"key":"10018112","name":"Ulmenstrasse","postalCode":"4127","locality":"Birsfelden","commune":{"key":"2770","name":"Muttenz","shortName":"Muttenz"},"district":{"key":"1301","name":"Bezirk Arlesheim"},"canton":{"key":"13","code":"BL","name":"Basel-Landschaft"},"status":"Real"},{"key":"10154072","name":"Untere Hard","postalCode":"4127","locality":"Birsfelden","commune":{"key":"2770","name":"Muttenz","shortName":"Muttenz"},"district":{"key":"1301","name":"Bezirk Arlesheim"},"canton":{"key":"13","code":"BL","name":"Basel-Landschaft"},"status":"Real"},{"key":"10142095","name":"Veilchenweg","postalCode":"4127","locality":"Birsfelden","commune":{"key":"2770","name":"Muttenz","shortName":"Muttenz"},"district":{"key":"1301","name":"Bezirk Arlesheim"},"canton":{"key":"13","code":"BL","name":"Basel-Landschaft"},"status":"Real"},{"key":"10120336","name":"Vordere Birsstrasse","postalCode":"4127","locality":"Birsfelden","commune":{"key":"2770","name":"Muttenz","shortName":"Muttenz"},"district":{"key":"1301","name":"Bezirk Arlesheim"},"canton":{"key":"13","code":"BL","name":"Basel-Landschaft"},"status":"Real"},{"key":"10018319","name":"Waldhaus","postalCode":"4127","locality":"Birsfelden","commune":{"key":"2770","name":"Muttenz","shortName":"Muttenz"},"district":{"key":"1301","name":"Bezirk Arlesheim"},"canton":{"key":"13","code":"BL","name":"Basel-Landschaft"},"status":"Real"},{"key":"10103523","name":"Wartenbergstrasse","postalCode":"4127","locality":"Birsfelden","commune":{"key":"2770","name":"Muttenz","shortName":"Muttenz"},"district":{"key":"1301","name":"Bezirk Arlesheim"},"canton":{"key":"13","code":"BL","name":"Basel-Landschaft"},"status":"Real"},{"key":"10056242","name":"Weidenweg","postalCode":"4127","locality":"Birsfelden","commune":{"key":"2770","name":"Muttenz","shortName":"Muttenz"},"district":{"key":"1301","name":"Bezirk Arlesheim"},"canton":{"key":"13","code":"BL","name":"Basel-Landschaft"},"status":"Real"},{"key":"10142390","name":"Zinnienweg","postalCode":"4127","locality":"Birsfelden","commune":{"key":"2770","name":"Muttenz","shortName":"Muttenz"},"district":{"key":"1301","name":"Bezirk Arlesheim"},"canton":{"key":"13","code":"BL","name":"Basel-Landschaft"},"status":"Real"},{"key":"10087453","name":"Zwinglistrasse","postalCode":"4127","locality":"Birsfelden","commune":{"key":"2770","name":"Muttenz","shortName":"Muttenz"},"district":{"key":"1301","name":"Bezirk Arlesheim"},"canton":{"key":"13","code":"BL","name":"Basel-Landschaft"},"status":"Real"},]