[{"key":"10059526","name":"Chemin Armand-DUFAUX","postalCode":"1245","locality":"Collonge-Bellerive","commune":{"key":"6616","name":"Collonge-Bellerive","shortName":"Collonge-Bellerive"},"district":{"key":"2500","name":"Canton de Genève"},"canton":{"key":"25","code":"GE","name":"Genève"},"status":"Real"},{"key":"10047785","name":"Chemin de Blemant","postalCode":"1245","locality":"Collonge-Bellerive","commune":{"key":"6616","name":"Collonge-Bellerive","shortName":"Collonge-Bellerive"},"district":{"key":"2500","name":"Canton de Genève"},"canton":{"key":"25","code":"GE","name":"Genève"},"status":"Real"},{"key":"10083766","name":"Chemin de Bois-Caran","postalCode":"1245","locality":"Collonge-Bellerive","commune":{"key":"6616","name":"Collonge-Bellerive","shortName":"Collonge-Bellerive"},"district":{"key":"2500","name":"Canton de Genève"},"canton":{"key":"25","code":"GE","name":"Genève"},"status":"Real"},{"key":"10075154","name":"Chemin de Contamines-sous-Cherre","postalCode":"1245","locality":"Collonge-Bellerive","commune":{"key":"6616","name":"Collonge-Bellerive","shortName":"Collonge-Bellerive"},"district":{"key":"2500","name":"Canton de Genève"},"canton":{"key":"25","code":"GE","name":"Genève"},"status":"Real"},{"key":"10115965","name":"Chemin de la Carna","postalCode":"1245","locality":"Collonge-Bellerive","commune":{"key":"6616","name":"Collonge-Bellerive","shortName":"Collonge-Bellerive"},"district":{"key":"2500","name":"Canton de Genève"},"canton":{"key":"25","code":"GE","name":"Genève"},"status":"Real"},{"key":"10103098","name":"Chemin de la Gabiule","postalCode":"1245","locality":"Collonge-Bellerive","commune":{"key":"6616","name":"Collonge-Bellerive","shortName":"Collonge-Bellerive"},"district":{"key":"2500","name":"Canton de Genève"},"canton":{"key":"25","code":"GE","name":"Genève"},"status":"Real"},{"key":"10102583","name":"Chemin de la Savonnière","postalCode":"1245","locality":"Collonge-Bellerive","commune":{"key":"6616","name":"Collonge-Bellerive","shortName":"Collonge-Bellerive"},"district":{"key":"2500","name":"Canton de Genève"},"canton":{"key":"25","code":"GE","name":"Genève"},"status":"Real"},{"key":"10047788","name":"Chemin de la Tire","postalCode":"1245","locality":"Collonge-Bellerive","commune":{"key":"6616","name":"Collonge-Bellerive","shortName":"Collonge-Bellerive"},"district":{"key":"2500","name":"Canton de Genève"},"canton":{"key":"25","code":"GE","name":"Genève"},"status":"Real"},{"key":"10103099","name":"Chemin de la Vigneraie","postalCode":"1245","locality":"Collonge-Bellerive","commune":{"key":"6616","name":"Collonge-Bellerive","shortName":"Collonge-Bellerive"},"district":{"key":"2500","name":"Canton de Genève"},"canton":{"key":"25","code":"GE","name":"Genève"},"status":"Real"},{"key":"10083767","name":"Chemin de Mancy","postalCode":"1245","locality":"Collonge-Bellerive","commune":{"key":"6616","name":"Collonge-Bellerive","shortName":"Collonge-Bellerive"},"district":{"key":"2500","name":"Canton de Genève"},"canton":{"key":"25","code":"GE","name":"Genève"},"status":"Real"},{"key":"10047786","name":"Chemin de Marly","postalCode":"1245","locality":"Collonge-Bellerive","commune":{"key":"6616","name":"Collonge-Bellerive","shortName":"Collonge-Bellerive"},"district":{"key":"2500","name":"Canton de Genève"},"canton":{"key":"25","code":"GE","name":"Genève"},"status":"Real"},{"key":"10047787","name":"Chemin de Mornex","postalCode":"1245","locality":"Collonge-Bellerive","commune":{"key":"6616","name":"Collonge-Bellerive","shortName":"Collonge-Bellerive"},"district":{"key":"2500","name":"Canton de Genève"},"canton":{"key":"25","code":"GE","name":"Genève"},"status":"Real"},{"key":"10106219","name":"Chemin de Relion","postalCode":"1245","locality":"Collonge-Bellerive","commune":{"key":"6616","name":"Collonge-Bellerive","shortName":"Collonge-Bellerive"},"district":{"key":"2500","name":"Canton de Genève"},"canton":{"key":"25","code":"GE","name":"Genève"},"status":"Real"},{"key":"10102327","name":"Chemin de Saint-Maurice","postalCode":"1245","locality":"Collonge-Bellerive","commune":{"key":"6616","name":"Collonge-Bellerive","shortName":"Collonge-Bellerive"},"district":{"key":"2500","name":"Canton de Genève"},"canton":{"key":"25","code":"GE","name":"Genève"},"status":"Real"},{"key":"10177264","name":"Chemin des Bacounis","postalCode":"1245","locality":"Collonge-Bellerive","commune":{"key":"6616","name":"Collonge-Bellerive","shortName":"Collonge-Bellerive"},"district":{"key":"2500","name":"Canton de Genève"},"canton":{"key":"25","code":"GE","name":"Genève"},"status":"Real"},{"key":"10222049","name":"Chemin des Bûchilles","postalCode":"1245","locality":"Collonge-Bellerive","commune":{"key":"6616","name":"Collonge-Bellerive","shortName":"Collonge-Bellerive"},"district":{"key":"2500","name":"Canton de Genève"},"canton":{"key":"25","code":"GE","name":"Genève"},"status":"Real"},{"key":"10191826","name":"Chemin des Ecureuils-Doret","postalCode":"1245","locality":"Collonge-Bellerive","commune":{"key":"6616","name":"Collonge-Bellerive","shortName":"Collonge-Bellerive"},"district":{"key":"2500","name":"Canton de Genève"},"canton":{"key":"25","code":"GE","name":"Genève"},"status":"Real"},{"key":"10083771","name":"Chemin des Halbrans","postalCode":"1245","locality":"Collonge-Bellerive","commune":{"key":"6616","name":"Collonge-Bellerive","shortName":"Collonge-Bellerive"},"district":{"key":"2500","name":"Canton de Genève"},"canton":{"key":"25","code":"GE","name":"Genève"},"status":"Real"},{"key":"10049049","name":"Chemin de Sous-Caran","postalCode":"1245","locality":"Collonge-Bellerive","commune":{"key":"6616","name":"Collonge-Bellerive","shortName":"Collonge-Bellerive"},"district":{"key":"2500","name":"Canton de Genève"},"canton":{"key":"25","code":"GE","name":"Genève"},"status":"Real"},{"key":"10103097","name":"Chemin de Sous-Cherre","postalCode":"1245","locality":"Collonge-Bellerive","commune":{"key":"6616","name":"Collonge-Bellerive","shortName":"Collonge-Bellerive"},"district":{"key":"2500","name":"Canton de Genève"},"canton":{"key":"25","code":"GE","name":"Genève"},"status":"Real"},{"key":"10047789","name":"Chemin des Ramiers","postalCode":"1245","locality":"Collonge-Bellerive","commune":{"key":"6616","name":"Collonge-Bellerive","shortName":"Collonge-Bellerive"},"district":{"key":"2500","name":"Canton de Genève"},"canton":{"key":"25","code":"GE","name":"Genève"},"status":"Real"},{"key":"10083772","name":"Chemin des Six-Bouleaux","postalCode":"1245","locality":"Collonge-Bellerive","commune":{"key":"6616","name":"Collonge-Bellerive","shortName":"Collonge-Bellerive"},"district":{"key":"2500","name":"Canton de Genève"},"canton":{"key":"25","code":"GE","name":"Genève"},"status":"Real"},{"key":"10083773","name":"Chemin des Usses","postalCode":"1245","locality":"Collonge-Bellerive","commune":{"key":"6616","name":"Collonge-Bellerive","shortName":"Collonge-Bellerive"},"district":{"key":"2500","name":"Canton de Genève"},"canton":{"key":"25","code":"GE","name":"Genève"},"status":"Real"},{"key":"10074963","name":"Chemin du Château-de-Bellerive","postalCode":"1245","locality":"Collonge-Bellerive","commune":{"key":"6616","name":"Collonge-Bellerive","shortName":"Collonge-Bellerive"},"district":{"key":"2500","name":"Canton de Genève"},"canton":{"key":"25","code":"GE","name":"Genève"},"status":"Real"},{"key":"10047790","name":"Chemin du Fosseau","postalCode":"1245","locality":"Collonge-Bellerive","commune":{"key":"6616","name":"Collonge-Bellerive","shortName":"Collonge-Bellerive"},"district":{"key":"2500","name":"Canton de Genève"},"canton":{"key":"25","code":"GE","name":"Genève"},"status":"Real"},{"key":"10115035","name":"Chemin du Grand-Clos","postalCode":"1245","locality":"Collonge-Bellerive","commune":{"key":"6616","name":"Collonge-Bellerive","shortName":"Collonge-Bellerive"},"district":{"key":"2500","name":"Canton de Genève"},"canton":{"key":"25","code":"GE","name":"Genève"},"status":"Real"},{"key":"10130047","name":"Chemin du Milieu","postalCode":"1245","locality":"Collonge-Bellerive","commune":{"key":"6616","name":"Collonge-Bellerive","shortName":"Collonge-Bellerive"},"district":{"key":"2500","name":"Canton de Genève"},"canton":{"key":"25","code":"GE","name":"Genève"},"status":"Real"},{"key":"10102584","name":"Chemin du Nantet","postalCode":"1245","locality":"Collonge-Bellerive","commune":{"key":"6616","name":"Collonge-Bellerive","shortName":"Collonge-Bellerive"},"district":{"key":"2500","name":"Canton de Genève"},"canton":{"key":"25","code":"GE","name":"Genève"},"status":"Real"},{"key":"10047791","name":"Chemin du Notaire","postalCode":"1245","locality":"Collonge-Bellerive","commune":{"key":"6616","name":"Collonge-Bellerive","shortName":"Collonge-Bellerive"},"district":{"key":"2500","name":"Canton de Genève"},"canton":{"key":"25","code":"GE","name":"Genève"},"status":"Real"},{"key":"10178016","name":"Chemin du Port-Bleu","postalCode":"1245","locality":"Collonge-Bellerive","commune":{"key":"6616","name":"Collonge-Bellerive","shortName":"Collonge-Bellerive"},"district":{"key":"2500","name":"Canton de Genève"},"canton":{"key":"25","code":"GE","name":"Genève"},"status":"Real"},{"key":"10075155","name":"Chemin du Port-de-Bellerive","postalCode":"1245","locality":"Collonge-Bellerive","commune":{"key":"6616","name":"Collonge-Bellerive","shortName":"Collonge-Bellerive"},"district":{"key":"2500","name":"Canton de Genève"},"canton":{"key":"25","code":"GE","name":"Genève"},"status":"Real"},{"key":"10102585","name":"Chemin du Pré-d'Orsat","postalCode":"1245","locality":"Collonge-Bellerive","commune":{"key":"6616","name":"Collonge-Bellerive","shortName":"Collonge-Bellerive"},"district":{"key":"2500","name":"Canton de Genève"},"canton":{"key":"25","code":"GE","name":"Genève"},"status":"Real"},{"key":"10222055","name":"Chemin du Recordet","postalCode":"1245","locality":"Collonge-Bellerive","commune":{"key":"6616","name":"Collonge-Bellerive","shortName":"Collonge-Bellerive"},"district":{"key":"2500","name":"Canton de Genève"},"canton":{"key":"25","code":"GE","name":"Genève"},"status":"Real"},{"key":"10048043","name":"Chemin du Tattolet","postalCode":"1245","locality":"Collonge-Bellerive","commune":{"key":"6616","name":"Collonge-Bellerive","shortName":"Collonge-Bellerive"},"district":{"key":"2500","name":"Canton de Genève"},"canton":{"key":"25","code":"GE","name":"Genève"},"status":"Real"},{"key":"10106221","name":"Chemin du Vent-Debout","postalCode":"1245","locality":"Collonge-Bellerive","commune":{"key":"6616","name":"Collonge-Bellerive","shortName":"Collonge-Bellerive"},"district":{"key":"2500","name":"Canton de Genève"},"canton":{"key":"25","code":"GE","name":"Genève"},"status":"Real"},{"key":"10059525","name":"Route d'Hermance","postalCode":"1245","locality":"Collonge-Bellerive","commune":{"key":"6616","name":"Collonge-Bellerive","shortName":"Collonge-Bellerive"},"district":{"key":"2500","name":"Canton de Genève"},"canton":{"key":"25","code":"GE","name":"Genève"},"status":"Real"},]