[{"name":"Bäckerstr.","postalCode":"88499","locality":"Emeringen","municipality":{"key":"08425035","name":"Emeringen","type":"Kreisangehörige_Gemeinde"},"district":{"key":"08425","name":"Alb-Donau-Kreis","type":"Landkreis"},"federalState":{"key":"08","name":"Baden-Württemberg"}},{"name":"Bei den Buchen","postalCode":"88499","locality":"Emeringen","municipality":{"key":"08425035","name":"Emeringen","type":"Kreisangehörige_Gemeinde"},"district":{"key":"08425","name":"Alb-Donau-Kreis","type":"Landkreis"},"federalState":{"key":"08","name":"Baden-Württemberg"}},{"name":"Bei der Linde","postalCode":"88499","locality":"Emeringen","municipality":{"key":"08425035","name":"Emeringen","type":"Kreisangehörige_Gemeinde"},"district":{"key":"08425","name":"Alb-Donau-Kreis","type":"Landkreis"},"federalState":{"key":"08","name":"Baden-Württemberg"}},{"name":"Brunnenstr.","postalCode":"88499","locality":"Emeringen","municipality":{"key":"08425035","name":"Emeringen","type":"Kreisangehörige_Gemeinde"},"district":{"key":"08425","name":"Alb-Donau-Kreis","type":"Landkreis"},"federalState":{"key":"08","name":"Baden-Württemberg"}},{"name":"Kirchstr.","postalCode":"88499","locality":"Emeringen","municipality":{"key":"08425035","name":"Emeringen","type":"Kreisangehörige_Gemeinde"},"district":{"key":"08425","name":"Alb-Donau-Kreis","type":"Landkreis"},"federalState":{"key":"08","name":"Baden-Württemberg"}},{"name":"Lange Str.","postalCode":"88499","locality":"Emeringen","municipality":{"key":"08425035","name":"Emeringen","type":"Kreisangehörige_Gemeinde"},"district":{"key":"08425","name":"Alb-Donau-Kreis","type":"Landkreis"},"federalState":{"key":"08","name":"Baden-Württemberg"}},{"name":"Lederstr.","postalCode":"88499","locality":"Emeringen","municipality":{"key":"08425035","name":"Emeringen","type":"Kreisangehörige_Gemeinde"},"district":{"key":"08425","name":"Alb-Donau-Kreis","type":"Landkreis"},"federalState":{"key":"08","name":"Baden-Württemberg"}},{"name":"Prälatenweg","postalCode":"88499","locality":"Emeringen","municipality":{"key":"08425035","name":"Emeringen","type":"Kreisangehörige_Gemeinde"},"district":{"key":"08425","name":"Alb-Donau-Kreis","type":"Landkreis"},"federalState":{"key":"08","name":"Baden-Württemberg"}},{"name":"Stampfenwiesenweg","postalCode":"88499","locality":"Emeringen","municipality":{"key":"08425035","name":"Emeringen","type":"Kreisangehörige_Gemeinde"},"district":{"key":"08425","name":"Alb-Donau-Kreis","type":"Landkreis"},"federalState":{"key":"08","name":"Baden-Württemberg"}},{"name":"Unterwilzinger Str.","postalCode":"88499","locality":"Emeringen","municipality":{"key":"08425035","name":"Emeringen","type":"Kreisangehörige_Gemeinde"},"district":{"key":"08425","name":"Alb-Donau-Kreis","type":"Landkreis"},"federalState":{"key":"08","name":"Baden-Württemberg"}},{"name":"Westerwiesen","postalCode":"88499","locality":"Emeringen","municipality":{"key":"08425035","name":"Emeringen","type":"Kreisangehörige_Gemeinde"},"district":{"key":"08425","name":"Alb-Donau-Kreis","type":"Landkreis"},"federalState":{"key":"08","name":"Baden-Württemberg"}},]