[{"key":"10176519","name":"Ampelstrasse","postalCode":"8265","locality":"Mammern","commune":{"key":"4826","name":"Mammern","shortName":"Mammern"},"district":{"key":"2012","name":"Bezirk Frauenfeld"},"canton":{"key":"20","code":"TG","name":"Thurgau"},"status":"Real"},{"key":"10215382","name":"Bachweg","postalCode":"8265","locality":"Mammern","commune":{"key":"4826","name":"Mammern","shortName":"Mammern"},"district":{"key":"2012","name":"Bezirk Frauenfeld"},"canton":{"key":"20","code":"TG","name":"Thurgau"},"status":"Real"},{"key":"10038410","name":"Bahnhofstrasse","postalCode":"8265","locality":"Mammern","commune":{"key":"4826","name":"Mammern","shortName":"Mammern"},"district":{"key":"2012","name":"Bezirk Frauenfeld"},"canton":{"key":"20","code":"TG","name":"Thurgau"},"status":"Real"},{"key":"10183815","name":"Bildacker","postalCode":"8265","locality":"Mammern","commune":{"key":"4826","name":"Mammern","shortName":"Mammern"},"district":{"key":"2012","name":"Bezirk Frauenfeld"},"canton":{"key":"20","code":"TG","name":"Thurgau"},"status":"Real"},{"key":"10070911","name":"Breitestrasse","postalCode":"8265","locality":"Mammern","commune":{"key":"4826","name":"Mammern","shortName":"Mammern"},"district":{"key":"2012","name":"Bezirk Frauenfeld"},"canton":{"key":"20","code":"TG","name":"Thurgau"},"status":"Real"},{"key":"10202420","name":"Chrummenacker","postalCode":"8265","locality":"Mammern","commune":{"key":"4826","name":"Mammern","shortName":"Mammern"},"district":{"key":"2012","name":"Bezirk Frauenfeld"},"canton":{"key":"20","code":"TG","name":"Thurgau"},"status":"Real"},{"key":"10215383","name":"Chuehörnli","postalCode":"8265","locality":"Mammern","commune":{"key":"4826","name":"Mammern","shortName":"Mammern"},"district":{"key":"2012","name":"Bezirk Frauenfeld"},"canton":{"key":"20","code":"TG","name":"Thurgau"},"status":"Real"},{"key":"10165192","name":"Dr. A. O. Fleisch-Strasse","postalCode":"8265","locality":"Mammern","commune":{"key":"4826","name":"Mammern","shortName":"Mammern"},"district":{"key":"2012","name":"Bezirk Frauenfeld"},"canton":{"key":"20","code":"TG","name":"Thurgau"},"status":"Real"},{"key":"10070912","name":"Freienstein","postalCode":"8265","locality":"Mammern","commune":{"key":"4826","name":"Mammern","shortName":"Mammern"},"district":{"key":"2012","name":"Bezirk Frauenfeld"},"canton":{"key":"20","code":"TG","name":"Thurgau"},"status":"Real"},{"key":"10204405","name":"Fridliweg","postalCode":"8265","locality":"Mammern","commune":{"key":"4826","name":"Mammern","shortName":"Mammern"},"district":{"key":"2012","name":"Bezirk Frauenfeld"},"canton":{"key":"20","code":"TG","name":"Thurgau"},"status":"Real"},{"key":"10059350","name":"Friedberg","postalCode":"8265","locality":"Mammern","commune":{"key":"4826","name":"Mammern","shortName":"Mammern"},"district":{"key":"2012","name":"Bezirk Frauenfeld"},"canton":{"key":"20","code":"TG","name":"Thurgau"},"status":"Real"},{"key":"10038411","name":"Guldifussstrasse","postalCode":"8265","locality":"Mammern","commune":{"key":"4826","name":"Mammern","shortName":"Mammern"},"district":{"key":"2012","name":"Bezirk Frauenfeld"},"canton":{"key":"20","code":"TG","name":"Thurgau"},"status":"Real"},{"key":"10125494","name":"Haldestrasse","postalCode":"8265","locality":"Mammern","commune":{"key":"4826","name":"Mammern","shortName":"Mammern"},"district":{"key":"2012","name":"Bezirk Frauenfeld"},"canton":{"key":"20","code":"TG","name":"Thurgau"},"status":"Real"},{"key":"10203796","name":"Hanharterholz","postalCode":"8265","locality":"Mammern","commune":{"key":"4826","name":"Mammern","shortName":"Mammern"},"district":{"key":"2012","name":"Bezirk Frauenfeld"},"canton":{"key":"20","code":"TG","name":"Thurgau"},"status":"Real"},{"key":"10097147","name":"Hauptstrasse","postalCode":"8265","locality":"Mammern","commune":{"key":"4826","name":"Mammern","shortName":"Mammern"},"district":{"key":"2012","name":"Bezirk Frauenfeld"},"canton":{"key":"20","code":"TG","name":"Thurgau"},"status":"Real"},{"key":"10038412","name":"Hechlerstrasse","postalCode":"8265","locality":"Mammern","commune":{"key":"4826","name":"Mammern","shortName":"Mammern"},"district":{"key":"2012","name":"Bezirk Frauenfeld"},"canton":{"key":"20","code":"TG","name":"Thurgau"},"status":"Real"},{"key":"10038413","name":"Huebackerstrasse","postalCode":"8265","locality":"Mammern","commune":{"key":"4826","name":"Mammern","shortName":"Mammern"},"district":{"key":"2012","name":"Bezirk Frauenfeld"},"canton":{"key":"20","code":"TG","name":"Thurgau"},"status":"Real"},{"key":"10097148","name":"Huebgartenstrasse","postalCode":"8265","locality":"Mammern","commune":{"key":"4826","name":"Mammern","shortName":"Mammern"},"district":{"key":"2012","name":"Bezirk Frauenfeld"},"canton":{"key":"20","code":"TG","name":"Thurgau"},"status":"Real"},{"key":"10070913","name":"Huebstrasse","postalCode":"8265","locality":"Mammern","commune":{"key":"4826","name":"Mammern","shortName":"Mammern"},"district":{"key":"2012","name":"Bezirk Frauenfeld"},"canton":{"key":"20","code":"TG","name":"Thurgau"},"status":"Real"},{"key":"10097146","name":"Im Buck","postalCode":"8265","locality":"Mammern","commune":{"key":"4826","name":"Mammern","shortName":"Mammern"},"district":{"key":"2012","name":"Bezirk Frauenfeld"},"canton":{"key":"20","code":"TG","name":"Thurgau"},"status":"Real"},{"key":"10038414","name":"Klingeneggstrasse","postalCode":"8265","locality":"Mammern","commune":{"key":"4826","name":"Mammern","shortName":"Mammern"},"district":{"key":"2012","name":"Bezirk Frauenfeld"},"canton":{"key":"20","code":"TG","name":"Thurgau"},"status":"Real"},{"key":"10059351","name":"Langhorn","postalCode":"8265","locality":"Mammern","commune":{"key":"4826","name":"Mammern","shortName":"Mammern"},"district":{"key":"2012","name":"Bezirk Frauenfeld"},"canton":{"key":"20","code":"TG","name":"Thurgau"},"status":"Real"},{"key":"10038415","name":"Liebenfelsstrasse","postalCode":"8265","locality":"Mammern","commune":{"key":"4826","name":"Mammern","shortName":"Mammern"},"district":{"key":"2012","name":"Bezirk Frauenfeld"},"canton":{"key":"20","code":"TG","name":"Thurgau"},"status":"Real"},{"key":"10070914","name":"Moosackerstrasse","postalCode":"8265","locality":"Mammern","commune":{"key":"4826","name":"Mammern","shortName":"Mammern"},"district":{"key":"2012","name":"Bezirk Frauenfeld"},"canton":{"key":"20","code":"TG","name":"Thurgau"},"status":"Real"},{"key":"10097149","name":"Müligartenstrasse","postalCode":"8265","locality":"Mammern","commune":{"key":"4826","name":"Mammern","shortName":"Mammern"},"district":{"key":"2012","name":"Bezirk Frauenfeld"},"canton":{"key":"20","code":"TG","name":"Thurgau"},"status":"Real"},{"key":"10038416","name":"Oberhofstrasse","postalCode":"8265","locality":"Mammern","commune":{"key":"4826","name":"Mammern","shortName":"Mammern"},"district":{"key":"2012","name":"Bezirk Frauenfeld"},"canton":{"key":"20","code":"TG","name":"Thurgau"},"status":"Real"},{"key":"10070915","name":"Ringstrasse","postalCode":"8265","locality":"Mammern","commune":{"key":"4826","name":"Mammern","shortName":"Mammern"},"district":{"key":"2012","name":"Bezirk Frauenfeld"},"canton":{"key":"20","code":"TG","name":"Thurgau"},"status":"Real"},{"key":"10038417","name":"Rollirain","postalCode":"8265","locality":"Mammern","commune":{"key":"4826","name":"Mammern","shortName":"Mammern"},"district":{"key":"2012","name":"Bezirk Frauenfeld"},"canton":{"key":"20","code":"TG","name":"Thurgau"},"status":"Real"},{"key":"10059352","name":"Seefried","postalCode":"8265","locality":"Mammern","commune":{"key":"4826","name":"Mammern","shortName":"Mammern"},"district":{"key":"2012","name":"Bezirk Frauenfeld"},"canton":{"key":"20","code":"TG","name":"Thurgau"},"status":"Real"},{"key":"10038418","name":"Seehaldenstrasse","postalCode":"8265","locality":"Mammern","commune":{"key":"4826","name":"Mammern","shortName":"Mammern"},"district":{"key":"2012","name":"Bezirk Frauenfeld"},"canton":{"key":"20","code":"TG","name":"Thurgau"},"status":"Real"},{"key":"10038419","name":"Seestrasse","postalCode":"8265","locality":"Mammern","commune":{"key":"4826","name":"Mammern","shortName":"Mammern"},"district":{"key":"2012","name":"Bezirk Frauenfeld"},"canton":{"key":"20","code":"TG","name":"Thurgau"},"status":"Real"},{"key":"10059353","name":"Seewiesen","postalCode":"8265","locality":"Mammern","commune":{"key":"4826","name":"Mammern","shortName":"Mammern"},"district":{"key":"2012","name":"Bezirk Frauenfeld"},"canton":{"key":"20","code":"TG","name":"Thurgau"},"status":"Real"},{"key":"10097151","name":"Spannacker","postalCode":"8265","locality":"Mammern","commune":{"key":"4826","name":"Mammern","shortName":"Mammern"},"district":{"key":"2012","name":"Bezirk Frauenfeld"},"canton":{"key":"20","code":"TG","name":"Thurgau"},"status":"Real"},{"key":"10203798","name":"Stöörebärgerholz","postalCode":"8265","locality":"Mammern","commune":{"key":"4826","name":"Mammern","shortName":"Mammern"},"district":{"key":"2012","name":"Bezirk Frauenfeld"},"canton":{"key":"20","code":"TG","name":"Thurgau"},"status":"Real"},{"key":"10176521","name":"Störenbergstrasse","postalCode":"8265","locality":"Mammern","commune":{"key":"4826","name":"Mammern","shortName":"Mammern"},"district":{"key":"2012","name":"Bezirk Frauenfeld"},"canton":{"key":"20","code":"TG","name":"Thurgau"},"status":"Real"},{"key":"10189571","name":"Torggelstrasse","postalCode":"8265","locality":"Mammern","commune":{"key":"4826","name":"Mammern","shortName":"Mammern"},"district":{"key":"2012","name":"Bezirk Frauenfeld"},"canton":{"key":"20","code":"TG","name":"Thurgau"},"status":"Real"},{"key":"10251770","name":"Tuubemüli","postalCode":"8265","locality":"Mammern","commune":{"key":"4826","name":"Mammern","shortName":"Mammern"},"district":{"key":"2012","name":"Bezirk Frauenfeld"},"canton":{"key":"20","code":"TG","name":"Thurgau"},"status":"Real"},{"key":"10110477","name":"Werkhofstrasse","postalCode":"8265","locality":"Mammern","commune":{"key":"4826","name":"Mammern","shortName":"Mammern"},"district":{"key":"2012","name":"Bezirk Frauenfeld"},"canton":{"key":"20","code":"TG","name":"Thurgau"},"status":"Real"},{"key":"10176520","name":"Zur Neuburg","postalCode":"8265","locality":"Mammern","commune":{"key":"4826","name":"Mammern","shortName":"Mammern"},"district":{"key":"2012","name":"Bezirk Frauenfeld"},"canton":{"key":"20","code":"TG","name":"Thurgau"},"status":"Real"},]