[{"name":"Adam und Eva Weg","postalCode":"91788","locality":"Pappenheim","municipality":{"key":"09577158","name":"Pappenheim, St","type":"Stadt"},"district":{"key":"09577","name":"Weißenburg-Gunzenhausen","type":"Landkreis"},"federalState":{"key":"09","name":"Bayern"}},{"name":"Am Auer Bichl","postalCode":"91788","locality":"Pappenheim","municipality":{"key":"09577158","name":"Pappenheim, St","type":"Stadt"},"district":{"key":"09577","name":"Weißenburg-Gunzenhausen","type":"Landkreis"},"federalState":{"key":"09","name":"Bayern"}},{"name":"Am Hals","postalCode":"91788","locality":"Pappenheim","municipality":{"key":"09577158","name":"Pappenheim, St","type":"Stadt"},"district":{"key":"09577","name":"Weißenburg-Gunzenhausen","type":"Landkreis"},"federalState":{"key":"09","name":"Bayern"}},{"name":"Am Krautgarten","postalCode":"91788","locality":"Pappenheim","municipality":{"key":"09577158","name":"Pappenheim, St","type":"Stadt"},"district":{"key":"09577","name":"Weißenburg-Gunzenhausen","type":"Landkreis"},"federalState":{"key":"09","name":"Bayern"}},{"name":"Am Krummacker","postalCode":"91788","locality":"Pappenheim","municipality":{"key":"09577158","name":"Pappenheim, St","type":"Stadt"},"district":{"key":"09577","name":"Weißenburg-Gunzenhausen","type":"Landkreis"},"federalState":{"key":"09","name":"Bayern"}},{"name":"Am Mühlberg","postalCode":"91788","locality":"Pappenheim","municipality":{"key":"09577158","name":"Pappenheim, St","type":"Stadt"},"district":{"key":"09577","name":"Weißenburg-Gunzenhausen","type":"Landkreis"},"federalState":{"key":"09","name":"Bayern"}},{"name":"Am Solenturm","postalCode":"91788","locality":"Pappenheim","municipality":{"key":"09577158","name":"Pappenheim, St","type":"Stadt"},"district":{"key":"09577","name":"Weißenburg-Gunzenhausen","type":"Landkreis"},"federalState":{"key":"09","name":"Bayern"}},{"name":"Am Solnhofer Weg","postalCode":"91788","locality":"Pappenheim","municipality":{"key":"09577158","name":"Pappenheim, St","type":"Stadt"},"district":{"key":"09577","name":"Weißenburg-Gunzenhausen","type":"Landkreis"},"federalState":{"key":"09","name":"Bayern"}},{"name":"Am Wasserturm","postalCode":"91788","locality":"Pappenheim","municipality":{"key":"09577158","name":"Pappenheim, St","type":"Stadt"},"district":{"key":"09577","name":"Weißenburg-Gunzenhausen","type":"Landkreis"},"federalState":{"key":"09","name":"Bayern"}},{"name":"Am Weinberg","postalCode":"91788","locality":"Pappenheim","municipality":{"key":"09577158","name":"Pappenheim, St","type":"Stadt"},"district":{"key":"09577","name":"Weißenburg-Gunzenhausen","type":"Landkreis"},"federalState":{"key":"09","name":"Bayern"}},{"name":"An der Altmühlbrücke","postalCode":"91788","locality":"Pappenheim","municipality":{"key":"09577158","name":"Pappenheim, St","type":"Stadt"},"district":{"key":"09577","name":"Weißenburg-Gunzenhausen","type":"Landkreis"},"federalState":{"key":"09","name":"Bayern"}},{"name":"An der Eisengrube","postalCode":"91788","locality":"Pappenheim","municipality":{"key":"09577158","name":"Pappenheim, St","type":"Stadt"},"district":{"key":"09577","name":"Weißenburg-Gunzenhausen","type":"Landkreis"},"federalState":{"key":"09","name":"Bayern"}},{"name":"An der Sommerleite","postalCode":"91788","locality":"Pappenheim","municipality":{"key":"09577158","name":"Pappenheim, St","type":"Stadt"},"district":{"key":"09577","name":"Weißenburg-Gunzenhausen","type":"Landkreis"},"federalState":{"key":"09","name":"Bayern"}},{"name":"An der Stöß","postalCode":"91788","locality":"Pappenheim","municipality":{"key":"09577158","name":"Pappenheim, St","type":"Stadt"},"district":{"key":"09577","name":"Weißenburg-Gunzenhausen","type":"Landkreis"},"federalState":{"key":"09","name":"Bayern"}},{"name":"Auf der Lach","postalCode":"91788","locality":"Pappenheim","municipality":{"key":"09577158","name":"Pappenheim, St","type":"Stadt"},"district":{"key":"09577","name":"Weißenburg-Gunzenhausen","type":"Landkreis"},"federalState":{"key":"09","name":"Bayern"}},{"name":"Badweg","postalCode":"91788","locality":"Pappenheim","municipality":{"key":"09577158","name":"Pappenheim, St","type":"Stadt"},"district":{"key":"09577","name":"Weißenburg-Gunzenhausen","type":"Landkreis"},"federalState":{"key":"09","name":"Bayern"}},{"name":"Bahnhofstr.","postalCode":"91788","locality":"Pappenheim","municipality":{"key":"09577158","name":"Pappenheim, St","type":"Stadt"},"district":{"key":"09577","name":"Weißenburg-Gunzenhausen","type":"Landkreis"},"federalState":{"key":"09","name":"Bayern"}},{"name":"Bahnweg","postalCode":"91788","locality":"Pappenheim","municipality":{"key":"09577158","name":"Pappenheim, St","type":"Stadt"},"district":{"key":"09577","name":"Weißenburg-Gunzenhausen","type":"Landkreis"},"federalState":{"key":"09","name":"Bayern"}},{"name":"Bauhofstr.","postalCode":"91788","locality":"Pappenheim","municipality":{"key":"09577158","name":"Pappenheim, St","type":"Stadt"},"district":{"key":"09577","name":"Weißenburg-Gunzenhausen","type":"Landkreis"},"federalState":{"key":"09","name":"Bayern"}},{"name":"Beckstr.","postalCode":"91788","locality":"Pappenheim","municipality":{"key":"09577158","name":"Pappenheim, St","type":"Stadt"},"district":{"key":"09577","name":"Weißenburg-Gunzenhausen","type":"Landkreis"},"federalState":{"key":"09","name":"Bayern"}},{"name":"Bgm.-Oppel-Str.","postalCode":"91788","locality":"Pappenheim","municipality":{"key":"09577158","name":"Pappenheim, St","type":"Stadt"},"district":{"key":"09577","name":"Weißenburg-Gunzenhausen","type":"Landkreis"},"federalState":{"key":"09","name":"Bayern"}},{"name":"Brünnleinweg","postalCode":"91788","locality":"Pappenheim","municipality":{"key":"09577158","name":"Pappenheim, St","type":"Stadt"},"district":{"key":"09577","name":"Weißenburg-Gunzenhausen","type":"Landkreis"},"federalState":{"key":"09","name":"Bayern"}},{"name":"Brunnmühlgasse","postalCode":"91788","locality":"Pappenheim","municipality":{"key":"09577158","name":"Pappenheim, St","type":"Stadt"},"district":{"key":"09577","name":"Weißenburg-Gunzenhausen","type":"Landkreis"},"federalState":{"key":"09","name":"Bayern"}},{"name":"Buchauer Platz","postalCode":"91788","locality":"Pappenheim","municipality":{"key":"09577158","name":"Pappenheim, St","type":"Stadt"},"district":{"key":"09577","name":"Weißenburg-Gunzenhausen","type":"Landkreis"},"federalState":{"key":"09","name":"Bayern"}},{"name":"Bürgermeister-Rachinger-Str.","postalCode":"91788","locality":"Pappenheim","municipality":{"key":"09577158","name":"Pappenheim, St","type":"Stadt"},"district":{"key":"09577","name":"Weißenburg-Gunzenhausen","type":"Landkreis"},"federalState":{"key":"09","name":"Bayern"}},{"name":"Bürgermeister-Rukwid-Str.","postalCode":"91788","locality":"Pappenheim","municipality":{"key":"09577158","name":"Pappenheim, St","type":"Stadt"},"district":{"key":"09577","name":"Weißenburg-Gunzenhausen","type":"Landkreis"},"federalState":{"key":"09","name":"Bayern"}},{"name":"Charlotte-Nestler-Str.","postalCode":"91788","locality":"Pappenheim","municipality":{"key":"09577158","name":"Pappenheim, St","type":"Stadt"},"district":{"key":"09577","name":"Weißenburg-Gunzenhausen","type":"Landkreis"},"federalState":{"key":"09","name":"Bayern"}},{"name":"Dechantshof","postalCode":"91788","locality":"Pappenheim","municipality":{"key":"09577158","name":"Pappenheim, St","type":"Stadt"},"district":{"key":"09577","name":"Weißenburg-Gunzenhausen","type":"Landkreis"},"federalState":{"key":"09","name":"Bayern"}},{"name":"Deisingerstr.","postalCode":"91788","locality":"Pappenheim","municipality":{"key":"09577158","name":"Pappenheim, St","type":"Stadt"},"district":{"key":"09577","name":"Weißenburg-Gunzenhausen","type":"Landkreis"},"federalState":{"key":"09","name":"Bayern"}},{"name":"Dr.-Dr.-Bertha-Kipfmüller-Str.","postalCode":"91788","locality":"Pappenheim","municipality":{"key":"09577158","name":"Pappenheim, St","type":"Stadt"},"district":{"key":"09577","name":"Weißenburg-Gunzenhausen","type":"Landkreis"},"federalState":{"key":"09","name":"Bayern"}},{"name":"Dr.-Wilhelm-Kraft-Weg","postalCode":"91788","locality":"Pappenheim","municipality":{"key":"09577158","name":"Pappenheim, St","type":"Stadt"},"district":{"key":"09577","name":"Weißenburg-Gunzenhausen","type":"Landkreis"},"federalState":{"key":"09","name":"Bayern"}},{"name":"Finstergasse","postalCode":"91788","locality":"Pappenheim","municipality":{"key":"09577158","name":"Pappenheim, St","type":"Stadt"},"district":{"key":"09577","name":"Weißenburg-Gunzenhausen","type":"Landkreis"},"federalState":{"key":"09","name":"Bayern"}},{"name":"Friedensstr.","postalCode":"91788","locality":"Pappenheim","municipality":{"key":"09577158","name":"Pappenheim, St","type":"Stadt"},"district":{"key":"09577","name":"Weißenburg-Gunzenhausen","type":"Landkreis"},"federalState":{"key":"09","name":"Bayern"}},{"name":"Fuchsberg","postalCode":"91788","locality":"Pappenheim","municipality":{"key":"09577158","name":"Pappenheim, St","type":"Stadt"},"district":{"key":"09577","name":"Weißenburg-Gunzenhausen","type":"Landkreis"},"federalState":{"key":"09","name":"Bayern"}},{"name":"Fuchsenweg","postalCode":"91788","locality":"Pappenheim","municipality":{"key":"09577158","name":"Pappenheim, St","type":"Stadt"},"district":{"key":"09577","name":"Weißenburg-Gunzenhausen","type":"Landkreis"},"federalState":{"key":"09","name":"Bayern"}},{"name":"Göhrener Str.","postalCode":"91788","locality":"Pappenheim","municipality":{"key":"09577158","name":"Pappenheim, St","type":"Stadt"},"district":{"key":"09577","name":"Weißenburg-Gunzenhausen","type":"Landkreis"},"federalState":{"key":"09","name":"Bayern"}},{"name":"Graf-Carl-Str.","postalCode":"91788","locality":"Pappenheim","municipality":{"key":"09577158","name":"Pappenheim, St","type":"Stadt"},"district":{"key":"09577","name":"Weißenburg-Gunzenhausen","type":"Landkreis"},"federalState":{"key":"09","name":"Bayern"}},{"name":"Hauptstr.","postalCode":"91788","locality":"Pappenheim","municipality":{"key":"09577158","name":"Pappenheim, St","type":"Stadt"},"district":{"key":"09577","name":"Weißenburg-Gunzenhausen","type":"Landkreis"},"federalState":{"key":"09","name":"Bayern"}},{"name":"Helmut-Gollwitzer-Weg","postalCode":"91788","locality":"Pappenheim","municipality":{"key":"09577158","name":"Pappenheim, St","type":"Stadt"},"district":{"key":"09577","name":"Weißenburg-Gunzenhausen","type":"Landkreis"},"federalState":{"key":"09","name":"Bayern"}},{"name":"Hutgasse","postalCode":"91788","locality":"Pappenheim","municipality":{"key":"09577158","name":"Pappenheim, St","type":"Stadt"},"district":{"key":"09577","name":"Weißenburg-Gunzenhausen","type":"Landkreis"},"federalState":{"key":"09","name":"Bayern"}},{"name":"Kirchenfeldstr.","postalCode":"91788","locality":"Pappenheim","municipality":{"key":"09577158","name":"Pappenheim, St","type":"Stadt"},"district":{"key":"09577","name":"Weißenburg-Gunzenhausen","type":"Landkreis"},"federalState":{"key":"09","name":"Bayern"}},{"name":"Kirchengasse","postalCode":"91788","locality":"Pappenheim","municipality":{"key":"09577158","name":"Pappenheim, St","type":"Stadt"},"district":{"key":"09577","name":"Weißenburg-Gunzenhausen","type":"Landkreis"},"federalState":{"key":"09","name":"Bayern"}},{"name":"Kirchgarten","postalCode":"91788","locality":"Pappenheim","municipality":{"key":"09577158","name":"Pappenheim, St","type":"Stadt"},"district":{"key":"09577","name":"Weißenburg-Gunzenhausen","type":"Landkreis"},"federalState":{"key":"09","name":"Bayern"}},{"name":"Kirchweihplatz","postalCode":"91788","locality":"Pappenheim","municipality":{"key":"09577158","name":"Pappenheim, St","type":"Stadt"},"district":{"key":"09577","name":"Weißenburg-Gunzenhausen","type":"Landkreis"},"federalState":{"key":"09","name":"Bayern"}},{"name":"Klosterstr.","postalCode":"91788","locality":"Pappenheim","municipality":{"key":"09577158","name":"Pappenheim, St","type":"Stadt"},"district":{"key":"09577","name":"Weißenburg-Gunzenhausen","type":"Landkreis"},"federalState":{"key":"09","name":"Bayern"}},{"name":"Kuhbuck","postalCode":"91788","locality":"Pappenheim","municipality":{"key":"09577158","name":"Pappenheim, St","type":"Stadt"},"district":{"key":"09577","name":"Weißenburg-Gunzenhausen","type":"Landkreis"},"federalState":{"key":"09","name":"Bayern"}},{"name":"Lachgartenweg","postalCode":"91788","locality":"Pappenheim","municipality":{"key":"09577158","name":"Pappenheim, St","type":"Stadt"},"district":{"key":"09577","name":"Weißenburg-Gunzenhausen","type":"Landkreis"},"federalState":{"key":"09","name":"Bayern"}},{"name":"Lange Linie","postalCode":"91788","locality":"Pappenheim","municipality":{"key":"09577158","name":"Pappenheim, St","type":"Stadt"},"district":{"key":"09577","name":"Weißenburg-Gunzenhausen","type":"Landkreis"},"federalState":{"key":"09","name":"Bayern"}},{"name":"Langenaltheimer Str.","postalCode":"91788","locality":"Pappenheim","municipality":{"key":"09577158","name":"Pappenheim, St","type":"Stadt"},"district":{"key":"09577","name":"Weißenburg-Gunzenhausen","type":"Landkreis"},"federalState":{"key":"09","name":"Bayern"}},{"name":"Marktplatz","postalCode":"91788","locality":"Pappenheim","municipality":{"key":"09577158","name":"Pappenheim, St","type":"Stadt"},"district":{"key":"09577","name":"Weißenburg-Gunzenhausen","type":"Landkreis"},"federalState":{"key":"09","name":"Bayern"}},{"name":"Max-Klemm-Str.","postalCode":"91788","locality":"Pappenheim","municipality":{"key":"09577158","name":"Pappenheim, St","type":"Stadt"},"district":{"key":"09577","name":"Weißenburg-Gunzenhausen","type":"Landkreis"},"federalState":{"key":"09","name":"Bayern"}},{"name":"Meiergasse","postalCode":"91788","locality":"Pappenheim","municipality":{"key":"09577158","name":"Pappenheim, St","type":"Stadt"},"district":{"key":"09577","name":"Weißenburg-Gunzenhausen","type":"Landkreis"},"federalState":{"key":"09","name":"Bayern"}},{"name":"Mittelmarterhof","postalCode":"91788","locality":"Pappenheim","municipality":{"key":"09577158","name":"Pappenheim, St","type":"Stadt"},"district":{"key":"09577","name":"Weißenburg-Gunzenhausen","type":"Landkreis"},"federalState":{"key":"09","name":"Bayern"}},{"name":"Nähe Frankenschotter","postalCode":"91788","locality":"Pappenheim","municipality":{"key":"09577158","name":"Pappenheim, St","type":"Stadt"},"district":{"key":"09577","name":"Weißenburg-Gunzenhausen","type":"Landkreis"},"federalState":{"key":"09","name":"Bayern"}},{"name":"Neusiedlerstr.","postalCode":"91788","locality":"Pappenheim","municipality":{"key":"09577158","name":"Pappenheim, St","type":"Stadt"},"district":{"key":"09577","name":"Weißenburg-Gunzenhausen","type":"Landkreis"},"federalState":{"key":"09","name":"Bayern"}},{"name":"Niederländersteig","postalCode":"91788","locality":"Pappenheim","municipality":{"key":"09577158","name":"Pappenheim, St","type":"Stadt"},"district":{"key":"09577","name":"Weißenburg-Gunzenhausen","type":"Landkreis"},"federalState":{"key":"09","name":"Bayern"}},{"name":"Niederpappenheimer Str.","postalCode":"91788","locality":"Pappenheim","municipality":{"key":"09577158","name":"Pappenheim, St","type":"Stadt"},"district":{"key":"09577","name":"Weißenburg-Gunzenhausen","type":"Landkreis"},"federalState":{"key":"09","name":"Bayern"}},{"name":"Obere Bergstr.","postalCode":"91788","locality":"Pappenheim","municipality":{"key":"09577158","name":"Pappenheim, St","type":"Stadt"},"district":{"key":"09577","name":"Weißenburg-Gunzenhausen","type":"Landkreis"},"federalState":{"key":"09","name":"Bayern"}},{"name":"Ochsenharter Triebweg","postalCode":"91788","locality":"Pappenheim","municipality":{"key":"09577158","name":"Pappenheim, St","type":"Stadt"},"district":{"key":"09577","name":"Weißenburg-Gunzenhausen","type":"Landkreis"},"federalState":{"key":"09","name":"Bayern"}},{"name":"Osterdorf","postalCode":"91788","locality":"Pappenheim","municipality":{"key":"09577158","name":"Pappenheim, St","type":"Stadt"},"district":{"key":"09577","name":"Weißenburg-Gunzenhausen","type":"Landkreis"},"federalState":{"key":"09","name":"Bayern"}},{"name":"Papiermühle","postalCode":"91788","locality":"Pappenheim","municipality":{"key":"09577158","name":"Pappenheim, St","type":"Stadt"},"district":{"key":"09577","name":"Weißenburg-Gunzenhausen","type":"Landkreis"},"federalState":{"key":"09","name":"Bayern"}},{"name":"Peterleinsbuck","postalCode":"91788","locality":"Pappenheim","municipality":{"key":"09577158","name":"Pappenheim, St","type":"Stadt"},"district":{"key":"09577","name":"Weißenburg-Gunzenhausen","type":"Landkreis"},"federalState":{"key":"09","name":"Bayern"}},{"name":"Pfeiferleite","postalCode":"91788","locality":"Pappenheim","municipality":{"key":"09577158","name":"Pappenheim, St","type":"Stadt"},"district":{"key":"09577","name":"Weißenburg-Gunzenhausen","type":"Landkreis"},"federalState":{"key":"09","name":"Bayern"}},{"name":"Rosengasse","postalCode":"91788","locality":"Pappenheim","municipality":{"key":"09577158","name":"Pappenheim, St","type":"Stadt"},"district":{"key":"09577","name":"Weißenburg-Gunzenhausen","type":"Landkreis"},"federalState":{"key":"09","name":"Bayern"}},{"name":"Schlesienstr.","postalCode":"91788","locality":"Pappenheim","municipality":{"key":"09577158","name":"Pappenheim, St","type":"Stadt"},"district":{"key":"09577","name":"Weißenburg-Gunzenhausen","type":"Landkreis"},"federalState":{"key":"09","name":"Bayern"}},{"name":"Schneckleinsberg","postalCode":"91788","locality":"Pappenheim","municipality":{"key":"09577158","name":"Pappenheim, St","type":"Stadt"},"district":{"key":"09577","name":"Weißenburg-Gunzenhausen","type":"Landkreis"},"federalState":{"key":"09","name":"Bayern"}},{"name":"Schulstr.","postalCode":"91788","locality":"Pappenheim","municipality":{"key":"09577158","name":"Pappenheim, St","type":"Stadt"},"district":{"key":"09577","name":"Weißenburg-Gunzenhausen","type":"Landkreis"},"federalState":{"key":"09","name":"Bayern"}},{"name":"Schützenstr.","postalCode":"91788","locality":"Pappenheim","municipality":{"key":"09577158","name":"Pappenheim, St","type":"Stadt"},"district":{"key":"09577","name":"Weißenburg-Gunzenhausen","type":"Landkreis"},"federalState":{"key":"09","name":"Bayern"}},{"name":"Sommerkellerweg","postalCode":"91788","locality":"Pappenheim","municipality":{"key":"09577158","name":"Pappenheim, St","type":"Stadt"},"district":{"key":"09577","name":"Weißenburg-Gunzenhausen","type":"Landkreis"},"federalState":{"key":"09","name":"Bayern"}},{"name":"Sophie-Hoechstetter-Weg","postalCode":"91788","locality":"Pappenheim","municipality":{"key":"09577158","name":"Pappenheim, St","type":"Stadt"},"district":{"key":"09577","name":"Weißenburg-Gunzenhausen","type":"Landkreis"},"federalState":{"key":"09","name":"Bayern"}},{"name":"Sportplatzweg","postalCode":"91788","locality":"Pappenheim","municipality":{"key":"09577158","name":"Pappenheim, St","type":"Stadt"},"district":{"key":"09577","name":"Weißenburg-Gunzenhausen","type":"Landkreis"},"federalState":{"key":"09","name":"Bayern"}},{"name":"Stadtmühle","postalCode":"91788","locality":"Pappenheim","municipality":{"key":"09577158","name":"Pappenheim, St","type":"Stadt"},"district":{"key":"09577","name":"Weißenburg-Gunzenhausen","type":"Landkreis"},"federalState":{"key":"09","name":"Bayern"}},{"name":"Stadtparkstr.","postalCode":"91788","locality":"Pappenheim","municipality":{"key":"09577158","name":"Pappenheim, St","type":"Stadt"},"district":{"key":"09577","name":"Weißenburg-Gunzenhausen","type":"Landkreis"},"federalState":{"key":"09","name":"Bayern"}},{"name":"Stadtvogteigasse","postalCode":"91788","locality":"Pappenheim","municipality":{"key":"09577158","name":"Pappenheim, St","type":"Stadt"},"district":{"key":"09577","name":"Weißenburg-Gunzenhausen","type":"Landkreis"},"federalState":{"key":"09","name":"Bayern"}},{"name":"Stelzergasse","postalCode":"91788","locality":"Pappenheim","municipality":{"key":"09577158","name":"Pappenheim, St","type":"Stadt"},"district":{"key":"09577","name":"Weißenburg-Gunzenhausen","type":"Landkreis"},"federalState":{"key":"09","name":"Bayern"}},{"name":"Sundweg","postalCode":"91788","locality":"Pappenheim","municipality":{"key":"09577158","name":"Pappenheim, St","type":"Stadt"},"district":{"key":"09577","name":"Weißenburg-Gunzenhausen","type":"Landkreis"},"federalState":{"key":"09","name":"Bayern"}},{"name":"Wehrwiesenstr.","postalCode":"91788","locality":"Pappenheim","municipality":{"key":"09577158","name":"Pappenheim, St","type":"Stadt"},"district":{"key":"09577","name":"Weißenburg-Gunzenhausen","type":"Landkreis"},"federalState":{"key":"09","name":"Bayern"}},{"name":"Weinbergweg","postalCode":"91788","locality":"Pappenheim","municipality":{"key":"09577158","name":"Pappenheim, St","type":"Stadt"},"district":{"key":"09577","name":"Weißenburg-Gunzenhausen","type":"Landkreis"},"federalState":{"key":"09","name":"Bayern"}},{"name":"Weißenburger Str.","postalCode":"91788","locality":"Pappenheim","municipality":{"key":"09577158","name":"Pappenheim, St","type":"Stadt"},"district":{"key":"09577","name":"Weißenburg-Gunzenhausen","type":"Landkreis"},"federalState":{"key":"09","name":"Bayern"}},{"name":"Wespenpfad","postalCode":"91788","locality":"Pappenheim","municipality":{"key":"09577158","name":"Pappenheim, St","type":"Stadt"},"district":{"key":"09577","name":"Weißenburg-Gunzenhausen","type":"Landkreis"},"federalState":{"key":"09","name":"Bayern"}},{"name":"Wolfstalstrecke","postalCode":"91788","locality":"Pappenheim","municipality":{"key":"09577158","name":"Pappenheim, St","type":"Stadt"},"district":{"key":"09577","name":"Weißenburg-Gunzenhausen","type":"Landkreis"},"federalState":{"key":"09","name":"Bayern"}},{"name":"Zimmern","postalCode":"91788","locality":"Pappenheim","municipality":{"key":"09577158","name":"Pappenheim, St","type":"Stadt"},"district":{"key":"09577","name":"Weißenburg-Gunzenhausen","type":"Landkreis"},"federalState":{"key":"09","name":"Bayern"}},{"name":"Zum Hofgarten","postalCode":"91788","locality":"Pappenheim","municipality":{"key":"09577158","name":"Pappenheim, St","type":"Stadt"},"district":{"key":"09577","name":"Weißenburg-Gunzenhausen","type":"Landkreis"},"federalState":{"key":"09","name":"Bayern"}},]