[{"name":"Achalmstr.","postalCode":"73207","locality":"Plochingen","municipality":{"key":"08116056","name":"Plochingen, Stadt","type":"Stadt"},"district":{"key":"08116","name":"Esslingen","type":"Landkreis"},"federalState":{"key":"08","name":"Baden-Württemberg"}},{"name":"Alter Bergweg","postalCode":"73207","locality":"Plochingen","municipality":{"key":"08116056","name":"Plochingen, Stadt","type":"Stadt"},"district":{"key":"08116","name":"Esslingen","type":"Landkreis"},"federalState":{"key":"08","name":"Baden-Württemberg"}},{"name":"Am Aussichtsturm","postalCode":"73207","locality":"Plochingen","municipality":{"key":"08116056","name":"Plochingen, Stadt","type":"Stadt"},"district":{"key":"08116","name":"Esslingen","type":"Landkreis"},"federalState":{"key":"08","name":"Baden-Württemberg"}},{"name":"Am Bruckenbach","postalCode":"73207","locality":"Plochingen","municipality":{"key":"08116056","name":"Plochingen, Stadt","type":"Stadt"},"district":{"key":"08116","name":"Esslingen","type":"Landkreis"},"federalState":{"key":"08","name":"Baden-Württemberg"}},{"name":"Am Filswehr","postalCode":"73207","locality":"Plochingen","municipality":{"key":"08116056","name":"Plochingen, Stadt","type":"Stadt"},"district":{"key":"08116","name":"Esslingen","type":"Landkreis"},"federalState":{"key":"08","name":"Baden-Württemberg"}},{"name":"Am Neckardamm","postalCode":"73207","locality":"Plochingen","municipality":{"key":"08116056","name":"Plochingen, Stadt","type":"Stadt"},"district":{"key":"08116","name":"Esslingen","type":"Landkreis"},"federalState":{"key":"08","name":"Baden-Württemberg"}},{"name":"Amselweg","postalCode":"73207","locality":"Plochingen","municipality":{"key":"08116056","name":"Plochingen, Stadt","type":"Stadt"},"district":{"key":"08116","name":"Esslingen","type":"Landkreis"},"federalState":{"key":"08","name":"Baden-Württemberg"}},{"name":"Am Stumpenhof","postalCode":"73207","locality":"Plochingen","municipality":{"key":"08116056","name":"Plochingen, Stadt","type":"Stadt"},"district":{"key":"08116","name":"Esslingen","type":"Landkreis"},"federalState":{"key":"08","name":"Baden-Württemberg"}},{"name":"Anne-Frank-Weg","postalCode":"73207","locality":"Plochingen","municipality":{"key":"08116056","name":"Plochingen, Stadt","type":"Stadt"},"district":{"key":"08116","name":"Esslingen","type":"Landkreis"},"federalState":{"key":"08","name":"Baden-Württemberg"}},{"name":"Arbeitsdienstweg","postalCode":"73207","locality":"Plochingen","municipality":{"key":"08116056","name":"Plochingen, Stadt","type":"Stadt"},"district":{"key":"08116","name":"Esslingen","type":"Landkreis"},"federalState":{"key":"08","name":"Baden-Württemberg"}},{"name":"Bahnhofstr.","postalCode":"73207","locality":"Plochingen","municipality":{"key":"08116056","name":"Plochingen, Stadt","type":"Stadt"},"district":{"key":"08116","name":"Esslingen","type":"Landkreis"},"federalState":{"key":"08","name":"Baden-Württemberg"}},{"name":"Beethovenstr.","postalCode":"73207","locality":"Plochingen","municipality":{"key":"08116056","name":"Plochingen, Stadt","type":"Stadt"},"district":{"key":"08116","name":"Esslingen","type":"Landkreis"},"federalState":{"key":"08","name":"Baden-Württemberg"}},{"name":"Bergstr.","postalCode":"73207","locality":"Plochingen","municipality":{"key":"08116056","name":"Plochingen, Stadt","type":"Stadt"},"district":{"key":"08116","name":"Esslingen","type":"Landkreis"},"federalState":{"key":"08","name":"Baden-Württemberg"}},{"name":"Bismarckstr.","postalCode":"73207","locality":"Plochingen","municipality":{"key":"08116056","name":"Plochingen, Stadt","type":"Stadt"},"district":{"key":"08116","name":"Esslingen","type":"Landkreis"},"federalState":{"key":"08","name":"Baden-Württemberg"}},{"name":"Brahmsweg","postalCode":"73207","locality":"Plochingen","municipality":{"key":"08116056","name":"Plochingen, Stadt","type":"Stadt"},"district":{"key":"08116","name":"Esslingen","type":"Landkreis"},"federalState":{"key":"08","name":"Baden-Württemberg"}},{"name":"Brühlstr.","postalCode":"73207","locality":"Plochingen","municipality":{"key":"08116056","name":"Plochingen, Stadt","type":"Stadt"},"district":{"key":"08116","name":"Esslingen","type":"Landkreis"},"federalState":{"key":"08","name":"Baden-Württemberg"}},{"name":"Bühleichenweg","postalCode":"73207","locality":"Plochingen","municipality":{"key":"08116056","name":"Plochingen, Stadt","type":"Stadt"},"district":{"key":"08116","name":"Esslingen","type":"Landkreis"},"federalState":{"key":"08","name":"Baden-Württemberg"}},{"name":"Burgstr.","postalCode":"73207","locality":"Plochingen","municipality":{"key":"08116056","name":"Plochingen, Stadt","type":"Stadt"},"district":{"key":"08116","name":"Esslingen","type":"Landkreis"},"federalState":{"key":"08","name":"Baden-Württemberg"}},{"name":"Carl-Orff-Weg","postalCode":"73207","locality":"Plochingen","municipality":{"key":"08116056","name":"Plochingen, Stadt","type":"Stadt"},"district":{"key":"08116","name":"Esslingen","type":"Landkreis"},"federalState":{"key":"08","name":"Baden-Württemberg"}},{"name":"Ceramtec-Platz","postalCode":"73207","locality":"Plochingen","municipality":{"key":"08116056","name":"Plochingen, Stadt","type":"Stadt"},"district":{"key":"08116","name":"Esslingen","type":"Landkreis"},"federalState":{"key":"08","name":"Baden-Württemberg"}},{"name":"Donauschwabenweg","postalCode":"73207","locality":"Plochingen","municipality":{"key":"08116056","name":"Plochingen, Stadt","type":"Stadt"},"district":{"key":"08116","name":"Esslingen","type":"Landkreis"},"federalState":{"key":"08","name":"Baden-Württemberg"}},{"name":"Ebeneweg","postalCode":"73207","locality":"Plochingen","municipality":{"key":"08116056","name":"Plochingen, Stadt","type":"Stadt"},"district":{"key":"08116","name":"Esslingen","type":"Landkreis"},"federalState":{"key":"08","name":"Baden-Württemberg"}},{"name":"Einsteinweg","postalCode":"73207","locality":"Plochingen","municipality":{"key":"08116056","name":"Plochingen, Stadt","type":"Stadt"},"district":{"key":"08116","name":"Esslingen","type":"Landkreis"},"federalState":{"key":"08","name":"Baden-Württemberg"}},{"name":"Eisenbahnstr.","postalCode":"73207","locality":"Plochingen","municipality":{"key":"08116056","name":"Plochingen, Stadt","type":"Stadt"},"district":{"key":"08116","name":"Esslingen","type":"Landkreis"},"federalState":{"key":"08","name":"Baden-Württemberg"}},{"name":"Ernst-Sachs-Str.","postalCode":"73207","locality":"Plochingen","municipality":{"key":"08116056","name":"Plochingen, Stadt","type":"Stadt"},"district":{"key":"08116","name":"Esslingen","type":"Landkreis"},"federalState":{"key":"08","name":"Baden-Württemberg"}},{"name":"Esslinger Str.","postalCode":"73207","locality":"Plochingen","municipality":{"key":"08116056","name":"Plochingen, Stadt","type":"Stadt"},"district":{"key":"08116","name":"Esslingen","type":"Landkreis"},"federalState":{"key":"08","name":"Baden-Württemberg"}},{"name":"Fabrikstr.","postalCode":"73207","locality":"Plochingen","municipality":{"key":"08116056","name":"Plochingen, Stadt","type":"Stadt"},"district":{"key":"08116","name":"Esslingen","type":"Landkreis"},"federalState":{"key":"08","name":"Baden-Württemberg"}},{"name":"Filssteg","postalCode":"73207","locality":"Plochingen","municipality":{"key":"08116056","name":"Plochingen, Stadt","type":"Stadt"},"district":{"key":"08116","name":"Esslingen","type":"Landkreis"},"federalState":{"key":"08","name":"Baden-Württemberg"}},{"name":"Filsweg","postalCode":"73207","locality":"Plochingen","municipality":{"key":"08116056","name":"Plochingen, Stadt","type":"Stadt"},"district":{"key":"08116","name":"Esslingen","type":"Landkreis"},"federalState":{"key":"08","name":"Baden-Württemberg"}},{"name":"Franz-Öchsle-Str.","postalCode":"73207","locality":"Plochingen","municipality":{"key":"08116056","name":"Plochingen, Stadt","type":"Stadt"},"district":{"key":"08116","name":"Esslingen","type":"Landkreis"},"federalState":{"key":"08","name":"Baden-Württemberg"}},{"name":"Friedrichstr.","postalCode":"73207","locality":"Plochingen","municipality":{"key":"08116056","name":"Plochingen, Stadt","type":"Stadt"},"district":{"key":"08116","name":"Esslingen","type":"Landkreis"},"federalState":{"key":"08","name":"Baden-Württemberg"}},{"name":"Gablenberg","postalCode":"73207","locality":"Plochingen","municipality":{"key":"08116056","name":"Plochingen, Stadt","type":"Stadt"},"district":{"key":"08116","name":"Esslingen","type":"Landkreis"},"federalState":{"key":"08","name":"Baden-Württemberg"}},{"name":"Gaierleshauweg","postalCode":"73207","locality":"Plochingen","municipality":{"key":"08116056","name":"Plochingen, Stadt","type":"Stadt"},"district":{"key":"08116","name":"Esslingen","type":"Landkreis"},"federalState":{"key":"08","name":"Baden-Württemberg"}},{"name":"Gartenstr.","postalCode":"73207","locality":"Plochingen","municipality":{"key":"08116056","name":"Plochingen, Stadt","type":"Stadt"},"district":{"key":"08116","name":"Esslingen","type":"Landkreis"},"federalState":{"key":"08","name":"Baden-Württemberg"}},{"name":"Geschwister-Scholl-Str.","postalCode":"73207","locality":"Plochingen","municipality":{"key":"08116056","name":"Plochingen, Stadt","type":"Stadt"},"district":{"key":"08116","name":"Esslingen","type":"Landkreis"},"federalState":{"key":"08","name":"Baden-Württemberg"}},{"name":"Gewand Hermannsberg","postalCode":"73207","locality":"Plochingen","municipality":{"key":"08116056","name":"Plochingen, Stadt","type":"Stadt"},"district":{"key":"08116","name":"Esslingen","type":"Landkreis"},"federalState":{"key":"08","name":"Baden-Württemberg"}},{"name":"Goethestr.","postalCode":"73207","locality":"Plochingen","municipality":{"key":"08116056","name":"Plochingen, Stadt","type":"Stadt"},"district":{"key":"08116","name":"Esslingen","type":"Landkreis"},"federalState":{"key":"08","name":"Baden-Württemberg"}},{"name":"Grenzweg","postalCode":"73207","locality":"Plochingen","municipality":{"key":"08116056","name":"Plochingen, Stadt","type":"Stadt"},"district":{"key":"08116","name":"Esslingen","type":"Landkreis"},"federalState":{"key":"08","name":"Baden-Württemberg"}},{"name":"Grieshaberweg","postalCode":"73207","locality":"Plochingen","municipality":{"key":"08116056","name":"Plochingen, Stadt","type":"Stadt"},"district":{"key":"08116","name":"Esslingen","type":"Landkreis"},"federalState":{"key":"08","name":"Baden-Württemberg"}},{"name":"Häfnergasse","postalCode":"73207","locality":"Plochingen","municipality":{"key":"08116056","name":"Plochingen, Stadt","type":"Stadt"},"district":{"key":"08116","name":"Esslingen","type":"Landkreis"},"federalState":{"key":"08","name":"Baden-Württemberg"}},{"name":"Hagenäckerweg","postalCode":"73207","locality":"Plochingen","municipality":{"key":"08116056","name":"Plochingen, Stadt","type":"Stadt"},"district":{"key":"08116","name":"Esslingen","type":"Landkreis"},"federalState":{"key":"08","name":"Baden-Württemberg"}},{"name":"Haldenweg","postalCode":"73207","locality":"Plochingen","municipality":{"key":"08116056","name":"Plochingen, Stadt","type":"Stadt"},"district":{"key":"08116","name":"Esslingen","type":"Landkreis"},"federalState":{"key":"08","name":"Baden-Württemberg"}},{"name":"Hermannsbergweg","postalCode":"73207","locality":"Plochingen","municipality":{"key":"08116056","name":"Plochingen, Stadt","type":"Stadt"},"district":{"key":"08116","name":"Esslingen","type":"Landkreis"},"federalState":{"key":"08","name":"Baden-Württemberg"}},{"name":"Hermannstr.","postalCode":"73207","locality":"Plochingen","municipality":{"key":"08116056","name":"Plochingen, Stadt","type":"Stadt"},"district":{"key":"08116","name":"Esslingen","type":"Landkreis"},"federalState":{"key":"08","name":"Baden-Württemberg"}},{"name":"Hindenburgstr.","postalCode":"73207","locality":"Plochingen","municipality":{"key":"08116056","name":"Plochingen, Stadt","type":"Stadt"},"district":{"key":"08116","name":"Esslingen","type":"Landkreis"},"federalState":{"key":"08","name":"Baden-Württemberg"}},{"name":"Hohenstaufenstr.","postalCode":"73207","locality":"Plochingen","municipality":{"key":"08116056","name":"Plochingen, Stadt","type":"Stadt"},"district":{"key":"08116","name":"Esslingen","type":"Landkreis"},"federalState":{"key":"08","name":"Baden-Württemberg"}},{"name":"Hohenzollernstr.","postalCode":"73207","locality":"Plochingen","municipality":{"key":"08116056","name":"Plochingen, Stadt","type":"Stadt"},"district":{"key":"08116","name":"Esslingen","type":"Landkreis"},"federalState":{"key":"08","name":"Baden-Württemberg"}},{"name":"Im Bruckenwasen","postalCode":"73207","locality":"Plochingen","municipality":{"key":"08116056","name":"Plochingen, Stadt","type":"Stadt"},"district":{"key":"08116","name":"Esslingen","type":"Landkreis"},"federalState":{"key":"08","name":"Baden-Württemberg"}},{"name":"Im Burris","postalCode":"73207","locality":"Plochingen","municipality":{"key":"08116056","name":"Plochingen, Stadt","type":"Stadt"},"district":{"key":"08116","name":"Esslingen","type":"Landkreis"},"federalState":{"key":"08","name":"Baden-Württemberg"}},{"name":"Im Kranich","postalCode":"73207","locality":"Plochingen","municipality":{"key":"08116056","name":"Plochingen, Stadt","type":"Stadt"},"district":{"key":"08116","name":"Esslingen","type":"Landkreis"},"federalState":{"key":"08","name":"Baden-Württemberg"}},{"name":"Johanniterstr.","postalCode":"73207","locality":"Plochingen","municipality":{"key":"08116056","name":"Plochingen, Stadt","type":"Stadt"},"district":{"key":"08116","name":"Esslingen","type":"Landkreis"},"federalState":{"key":"08","name":"Baden-Württemberg"}},{"name":"Karlstr.","postalCode":"73207","locality":"Plochingen","municipality":{"key":"08116056","name":"Plochingen, Stadt","type":"Stadt"},"district":{"key":"08116","name":"Esslingen","type":"Landkreis"},"federalState":{"key":"08","name":"Baden-Württemberg"}},{"name":"Käthe-Kollwitz-Weg","postalCode":"73207","locality":"Plochingen","municipality":{"key":"08116056","name":"Plochingen, Stadt","type":"Stadt"},"district":{"key":"08116","name":"Esslingen","type":"Landkreis"},"federalState":{"key":"08","name":"Baden-Württemberg"}},{"name":"Keplerweg","postalCode":"73207","locality":"Plochingen","municipality":{"key":"08116056","name":"Plochingen, Stadt","type":"Stadt"},"district":{"key":"08116","name":"Esslingen","type":"Landkreis"},"federalState":{"key":"08","name":"Baden-Württemberg"}},{"name":"Kirchberg","postalCode":"73207","locality":"Plochingen","municipality":{"key":"08116056","name":"Plochingen, Stadt","type":"Stadt"},"district":{"key":"08116","name":"Esslingen","type":"Landkreis"},"federalState":{"key":"08","name":"Baden-Württemberg"}},{"name":"Kornbergweg","postalCode":"73207","locality":"Plochingen","municipality":{"key":"08116056","name":"Plochingen, Stadt","type":"Stadt"},"district":{"key":"08116","name":"Esslingen","type":"Landkreis"},"federalState":{"key":"08","name":"Baden-Württemberg"}},{"name":"Kreuzstr.","postalCode":"73207","locality":"Plochingen","municipality":{"key":"08116056","name":"Plochingen, Stadt","type":"Stadt"},"district":{"key":"08116","name":"Esslingen","type":"Landkreis"},"federalState":{"key":"08","name":"Baden-Württemberg"}},{"name":"Kulturpark Dettinger","postalCode":"73207","locality":"Plochingen","municipality":{"key":"08116056","name":"Plochingen, Stadt","type":"Stadt"},"district":{"key":"08116","name":"Esslingen","type":"Landkreis"},"federalState":{"key":"08","name":"Baden-Württemberg"}},{"name":"Landschaftspark Bruckenwasen","postalCode":"73207","locality":"Plochingen","municipality":{"key":"08116056","name":"Plochingen, Stadt","type":"Stadt"},"district":{"key":"08116","name":"Esslingen","type":"Landkreis"},"federalState":{"key":"08","name":"Baden-Württemberg"}},{"name":"Landskrona Weg","postalCode":"73207","locality":"Plochingen","municipality":{"key":"08116056","name":"Plochingen, Stadt","type":"Stadt"},"district":{"key":"08116","name":"Esslingen","type":"Landkreis"},"federalState":{"key":"08","name":"Baden-Württemberg"}},{"name":"Lettenackerstr.","postalCode":"73207","locality":"Plochingen","municipality":{"key":"08116056","name":"Plochingen, Stadt","type":"Stadt"},"district":{"key":"08116","name":"Esslingen","type":"Landkreis"},"federalState":{"key":"08","name":"Baden-Württemberg"}},{"name":"Lisztstr.","postalCode":"73207","locality":"Plochingen","municipality":{"key":"08116056","name":"Plochingen, Stadt","type":"Stadt"},"district":{"key":"08116","name":"Esslingen","type":"Landkreis"},"federalState":{"key":"08","name":"Baden-Württemberg"}},{"name":"Luckauer Weg","postalCode":"73207","locality":"Plochingen","municipality":{"key":"08116056","name":"Plochingen, Stadt","type":"Stadt"},"district":{"key":"08116","name":"Esslingen","type":"Landkreis"},"federalState":{"key":"08","name":"Baden-Württemberg"}},{"name":"Marquardtstr.","postalCode":"73207","locality":"Plochingen","municipality":{"key":"08116056","name":"Plochingen, Stadt","type":"Stadt"},"district":{"key":"08116","name":"Esslingen","type":"Landkreis"},"federalState":{"key":"08","name":"Baden-Württemberg"}},{"name":"Max-Eyth-Weg","postalCode":"73207","locality":"Plochingen","municipality":{"key":"08116056","name":"Plochingen, Stadt","type":"Stadt"},"district":{"key":"08116","name":"Esslingen","type":"Landkreis"},"federalState":{"key":"08","name":"Baden-Württemberg"}},{"name":"Mittlere Dickne","postalCode":"73207","locality":"Plochingen","municipality":{"key":"08116056","name":"Plochingen, Stadt","type":"Stadt"},"district":{"key":"08116","name":"Esslingen","type":"Landkreis"},"federalState":{"key":"08","name":"Baden-Württemberg"}},{"name":"Moltkestr.","postalCode":"73207","locality":"Plochingen","municipality":{"key":"08116056","name":"Plochingen, Stadt","type":"Stadt"},"district":{"key":"08116","name":"Esslingen","type":"Landkreis"},"federalState":{"key":"08","name":"Baden-Württemberg"}},{"name":"Mozartstr.","postalCode":"73207","locality":"Plochingen","municipality":{"key":"08116056","name":"Plochingen, Stadt","type":"Stadt"},"district":{"key":"08116","name":"Esslingen","type":"Landkreis"},"federalState":{"key":"08","name":"Baden-Württemberg"}},{"name":"Mühlgärtenweg","postalCode":"73207","locality":"Plochingen","municipality":{"key":"08116056","name":"Plochingen, Stadt","type":"Stadt"},"district":{"key":"08116","name":"Esslingen","type":"Landkreis"},"federalState":{"key":"08","name":"Baden-Württemberg"}},{"name":"Mühlhaldenweg","postalCode":"73207","locality":"Plochingen","municipality":{"key":"08116056","name":"Plochingen, Stadt","type":"Stadt"},"district":{"key":"08116","name":"Esslingen","type":"Landkreis"},"federalState":{"key":"08","name":"Baden-Württemberg"}},{"name":"Neckarstr.","postalCode":"73207","locality":"Plochingen","municipality":{"key":"08116056","name":"Plochingen, Stadt","type":"Stadt"},"district":{"key":"08116","name":"Esslingen","type":"Landkreis"},"federalState":{"key":"08","name":"Baden-Württemberg"}},{"name":"Neuffenstr.","postalCode":"73207","locality":"Plochingen","municipality":{"key":"08116056","name":"Plochingen, Stadt","type":"Stadt"},"district":{"key":"08116","name":"Esslingen","type":"Landkreis"},"federalState":{"key":"08","name":"Baden-Württemberg"}},{"name":"Obere Dickne","postalCode":"73207","locality":"Plochingen","municipality":{"key":"08116056","name":"Plochingen, Stadt","type":"Stadt"},"district":{"key":"08116","name":"Esslingen","type":"Landkreis"},"federalState":{"key":"08","name":"Baden-Württemberg"}},{"name":"Oberer Balkeshauweg","postalCode":"73207","locality":"Plochingen","municipality":{"key":"08116056","name":"Plochingen, Stadt","type":"Stadt"},"district":{"key":"08116","name":"Esslingen","type":"Landkreis"},"federalState":{"key":"08","name":"Baden-Württemberg"}},{"name":"Oberer Haldenweg","postalCode":"73207","locality":"Plochingen","municipality":{"key":"08116056","name":"Plochingen, Stadt","type":"Stadt"},"district":{"key":"08116","name":"Esslingen","type":"Landkreis"},"federalState":{"key":"08","name":"Baden-Württemberg"}},{"name":"Oroszlány Weg","postalCode":"73207","locality":"Plochingen","municipality":{"key":"08116056","name":"Plochingen, Stadt","type":"Stadt"},"district":{"key":"08116","name":"Esslingen","type":"Landkreis"},"federalState":{"key":"08","name":"Baden-Württemberg"}},{"name":"Oskar-Schlemmer-Weg","postalCode":"73207","locality":"Plochingen","municipality":{"key":"08116056","name":"Plochingen, Stadt","type":"Stadt"},"district":{"key":"08116","name":"Esslingen","type":"Landkreis"},"federalState":{"key":"08","name":"Baden-Württemberg"}},{"name":"Ostdeutsche Str.","postalCode":"73207","locality":"Plochingen","municipality":{"key":"08116056","name":"Plochingen, Stadt","type":"Stadt"},"district":{"key":"08116","name":"Esslingen","type":"Landkreis"},"federalState":{"key":"08","name":"Baden-Württemberg"}},{"name":"Otto-Konz-Brücke","postalCode":"73207","locality":"Plochingen","municipality":{"key":"08116056","name":"Plochingen, Stadt","type":"Stadt"},"district":{"key":"08116","name":"Esslingen","type":"Landkreis"},"federalState":{"key":"08","name":"Baden-Württemberg"}},{"name":"Otto-Löffler-Weg","postalCode":"73207","locality":"Plochingen","municipality":{"key":"08116056","name":"Plochingen, Stadt","type":"Stadt"},"district":{"key":"08116","name":"Esslingen","type":"Landkreis"},"federalState":{"key":"08","name":"Baden-Württemberg"}},{"name":"Otto-Wurster-Anlage","postalCode":"73207","locality":"Plochingen","municipality":{"key":"08116056","name":"Plochingen, Stadt","type":"Stadt"},"district":{"key":"08116","name":"Esslingen","type":"Landkreis"},"federalState":{"key":"08","name":"Baden-Württemberg"}},{"name":"Panoramaplatz","postalCode":"73207","locality":"Plochingen","municipality":{"key":"08116056","name":"Plochingen, Stadt","type":"Stadt"},"district":{"key":"08116","name":"Esslingen","type":"Landkreis"},"federalState":{"key":"08","name":"Baden-Württemberg"}},{"name":"Panoramastr.","postalCode":"73207","locality":"Plochingen","municipality":{"key":"08116056","name":"Plochingen, Stadt","type":"Stadt"},"district":{"key":"08116","name":"Esslingen","type":"Landkreis"},"federalState":{"key":"08","name":"Baden-Württemberg"}},{"name":"Pfostenbergweg","postalCode":"73207","locality":"Plochingen","municipality":{"key":"08116056","name":"Plochingen, Stadt","type":"Stadt"},"district":{"key":"08116","name":"Esslingen","type":"Landkreis"},"federalState":{"key":"08","name":"Baden-Württemberg"}},{"name":"Quittenweg","postalCode":"73733","locality":"Esslingen am Neckar","municipality":{"key":"08116019","name":"Esslingen am Neckar, Stadt","type":"Große_Kreisstadt"},"district":{"key":"08116","name":"Esslingen","type":"Landkreis"},"federalState":{"key":"08","name":"Baden-Württemberg"}},{"name":"Raunerweg","postalCode":"73207","locality":"Plochingen","municipality":{"key":"08116056","name":"Plochingen, Stadt","type":"Stadt"},"district":{"key":"08116","name":"Esslingen","type":"Landkreis"},"federalState":{"key":"08","name":"Baden-Württemberg"}},{"name":"Rechbergstr.","postalCode":"73207","locality":"Plochingen","municipality":{"key":"08116056","name":"Plochingen, Stadt","type":"Stadt"},"district":{"key":"08116","name":"Esslingen","type":"Landkreis"},"federalState":{"key":"08","name":"Baden-Württemberg"}},{"name":"Richard-Wagner-Str.","postalCode":"73207","locality":"Plochingen","municipality":{"key":"08116056","name":"Plochingen, Stadt","type":"Stadt"},"district":{"key":"08116","name":"Esslingen","type":"Landkreis"},"federalState":{"key":"08","name":"Baden-Württemberg"}},{"name":"Rosensteinweg","postalCode":"73207","locality":"Plochingen","municipality":{"key":"08116056","name":"Plochingen, Stadt","type":"Stadt"},"district":{"key":"08116","name":"Esslingen","type":"Landkreis"},"federalState":{"key":"08","name":"Baden-Württemberg"}},{"name":"Roßbergstr.","postalCode":"73207","locality":"Plochingen","municipality":{"key":"08116056","name":"Plochingen, Stadt","type":"Stadt"},"district":{"key":"08116","name":"Esslingen","type":"Landkreis"},"federalState":{"key":"08","name":"Baden-Württemberg"}},{"name":"Roter Weg","postalCode":"73207","locality":"Plochingen","municipality":{"key":"08116056","name":"Plochingen, Stadt","type":"Stadt"},"district":{"key":"08116","name":"Esslingen","type":"Landkreis"},"federalState":{"key":"08","name":"Baden-Württemberg"}},{"name":"Sachsenweg","postalCode":"73207","locality":"Plochingen","municipality":{"key":"08116056","name":"Plochingen, Stadt","type":"Stadt"},"district":{"key":"08116","name":"Esslingen","type":"Landkreis"},"federalState":{"key":"08","name":"Baden-Württemberg"}},{"name":"Schillerstr.","postalCode":"73207","locality":"Plochingen","municipality":{"key":"08116056","name":"Plochingen, Stadt","type":"Stadt"},"district":{"key":"08116","name":"Esslingen","type":"Landkreis"},"federalState":{"key":"08","name":"Baden-Württemberg"}},{"name":"Schlesierweg","postalCode":"73207","locality":"Plochingen","municipality":{"key":"08116056","name":"Plochingen, Stadt","type":"Stadt"},"district":{"key":"08116","name":"Esslingen","type":"Landkreis"},"federalState":{"key":"08","name":"Baden-Württemberg"}},{"name":"Schnaitwiesenweg","postalCode":"73207","locality":"Plochingen","municipality":{"key":"08116056","name":"Plochingen, Stadt","type":"Stadt"},"district":{"key":"08116","name":"Esslingen","type":"Landkreis"},"federalState":{"key":"08","name":"Baden-Württemberg"}},{"name":"Schorndorfer Str.","postalCode":"73207","locality":"Plochingen","municipality":{"key":"08116056","name":"Plochingen, Stadt","type":"Stadt"},"district":{"key":"08116","name":"Esslingen","type":"Landkreis"},"federalState":{"key":"08","name":"Baden-Württemberg"}},{"name":"Schubertweg","postalCode":"73207","locality":"Plochingen","municipality":{"key":"08116056","name":"Plochingen, Stadt","type":"Stadt"},"district":{"key":"08116","name":"Esslingen","type":"Landkreis"},"federalState":{"key":"08","name":"Baden-Württemberg"}},{"name":"Schulstr.","postalCode":"73207","locality":"Plochingen","municipality":{"key":"08116056","name":"Plochingen, Stadt","type":"Stadt"},"district":{"key":"08116","name":"Esslingen","type":"Landkreis"},"federalState":{"key":"08","name":"Baden-Württemberg"}},{"name":"Siegenbergstr.","postalCode":"73207","locality":"Plochingen","municipality":{"key":"08116056","name":"Plochingen, Stadt","type":"Stadt"},"district":{"key":"08116","name":"Esslingen","type":"Landkreis"},"federalState":{"key":"08","name":"Baden-Württemberg"}},{"name":"Silcherstr.","postalCode":"73207","locality":"Plochingen","municipality":{"key":"08116056","name":"Plochingen, Stadt","type":"Stadt"},"district":{"key":"08116","name":"Esslingen","type":"Landkreis"},"federalState":{"key":"08","name":"Baden-Württemberg"}},{"name":"Spitzäcker","postalCode":"73207","locality":"Plochingen","municipality":{"key":"08116056","name":"Plochingen, Stadt","type":"Stadt"},"district":{"key":"08116","name":"Esslingen","type":"Landkreis"},"federalState":{"key":"08","name":"Baden-Württemberg"}},{"name":"Steffelesweg","postalCode":"73207","locality":"Plochingen","municipality":{"key":"08116056","name":"Plochingen, Stadt","type":"Stadt"},"district":{"key":"08116","name":"Esslingen","type":"Landkreis"},"federalState":{"key":"08","name":"Baden-Württemberg"}},{"name":"Steinhardtsweg","postalCode":"73207","locality":"Plochingen","municipality":{"key":"08116056","name":"Plochingen, Stadt","type":"Stadt"},"district":{"key":"08116","name":"Esslingen","type":"Landkreis"},"federalState":{"key":"08","name":"Baden-Württemberg"}},{"name":"Stellebrunnensträßle","postalCode":"73207","locality":"Plochingen","municipality":{"key":"08116056","name":"Plochingen, Stadt","type":"Stadt"},"district":{"key":"08116","name":"Esslingen","type":"Landkreis"},"federalState":{"key":"08","name":"Baden-Württemberg"}},{"name":"Stückelbergweg","postalCode":"73207","locality":"Plochingen","municipality":{"key":"08116056","name":"Plochingen, Stadt","type":"Stadt"},"district":{"key":"08116","name":"Esslingen","type":"Landkreis"},"federalState":{"key":"08","name":"Baden-Württemberg"}},{"name":"Stuifenstr.","postalCode":"73207","locality":"Plochingen","municipality":{"key":"08116056","name":"Plochingen, Stadt","type":"Stadt"},"district":{"key":"08116","name":"Esslingen","type":"Landkreis"},"federalState":{"key":"08","name":"Baden-Württemberg"}},{"name":"Stumpenhof","postalCode":"73207","locality":"Plochingen","municipality":{"key":"08116056","name":"Plochingen, Stadt","type":"Stadt"},"district":{"key":"08116","name":"Esslingen","type":"Landkreis"},"federalState":{"key":"08","name":"Baden-Württemberg"}},{"name":"Sudetenweg","postalCode":"73207","locality":"Plochingen","municipality":{"key":"08116056","name":"Plochingen, Stadt","type":"Stadt"},"district":{"key":"08116","name":"Esslingen","type":"Landkreis"},"federalState":{"key":"08","name":"Baden-Württemberg"}},{"name":"Talweg","postalCode":"73207","locality":"Plochingen","municipality":{"key":"08116056","name":"Plochingen, Stadt","type":"Stadt"},"district":{"key":"08116","name":"Esslingen","type":"Landkreis"},"federalState":{"key":"08","name":"Baden-Württemberg"}},{"name":"Tannenstr.","postalCode":"73207","locality":"Plochingen","municipality":{"key":"08116056","name":"Plochingen, Stadt","type":"Stadt"},"district":{"key":"08116","name":"Esslingen","type":"Landkreis"},"federalState":{"key":"08","name":"Baden-Württemberg"}},{"name":"Tanzplatzweg","postalCode":"73207","locality":"Plochingen","municipality":{"key":"08116056","name":"Plochingen, Stadt","type":"Stadt"},"district":{"key":"08116","name":"Esslingen","type":"Landkreis"},"federalState":{"key":"08","name":"Baden-Württemberg"}},{"name":"Teckplatz","postalCode":"73207","locality":"Plochingen","municipality":{"key":"08116056","name":"Plochingen, Stadt","type":"Stadt"},"district":{"key":"08116","name":"Esslingen","type":"Landkreis"},"federalState":{"key":"08","name":"Baden-Württemberg"}},{"name":"Teckstr.","postalCode":"73207","locality":"Plochingen","municipality":{"key":"08116056","name":"Plochingen, Stadt","type":"Stadt"},"district":{"key":"08116","name":"Esslingen","type":"Landkreis"},"federalState":{"key":"08","name":"Baden-Württemberg"}},{"name":"Thüringer Str.","postalCode":"73207","locality":"Plochingen","municipality":{"key":"08116056","name":"Plochingen, Stadt","type":"Stadt"},"district":{"key":"08116","name":"Esslingen","type":"Landkreis"},"federalState":{"key":"08","name":"Baden-Württemberg"}},{"name":"Ulmer Str.","postalCode":"73207","locality":"Plochingen","municipality":{"key":"08116056","name":"Plochingen, Stadt","type":"Stadt"},"district":{"key":"08116","name":"Esslingen","type":"Landkreis"},"federalState":{"key":"08","name":"Baden-Württemberg"}},{"name":"Untere Dickne","postalCode":"73207","locality":"Plochingen","municipality":{"key":"08116056","name":"Plochingen, Stadt","type":"Stadt"},"district":{"key":"08116","name":"Esslingen","type":"Landkreis"},"federalState":{"key":"08","name":"Baden-Württemberg"}},{"name":"Unterer Balkeshauweg","postalCode":"73207","locality":"Plochingen","municipality":{"key":"08116056","name":"Plochingen, Stadt","type":"Stadt"},"district":{"key":"08116","name":"Esslingen","type":"Landkreis"},"federalState":{"key":"08","name":"Baden-Württemberg"}},{"name":"Unterer Haldenweg","postalCode":"73207","locality":"Plochingen","municipality":{"key":"08116056","name":"Plochingen, Stadt","type":"Stadt"},"district":{"key":"08116","name":"Esslingen","type":"Landkreis"},"federalState":{"key":"08","name":"Baden-Württemberg"}},{"name":"Unterm Regenturm","postalCode":"73207","locality":"Plochingen","municipality":{"key":"08116056","name":"Plochingen, Stadt","type":"Stadt"},"district":{"key":"08116","name":"Esslingen","type":"Landkreis"},"federalState":{"key":"08","name":"Baden-Württemberg"}},{"name":"Urbanstr.","postalCode":"73207","locality":"Plochingen","municipality":{"key":"08116056","name":"Plochingen, Stadt","type":"Stadt"},"district":{"key":"08116","name":"Esslingen","type":"Landkreis"},"federalState":{"key":"08","name":"Baden-Württemberg"}},{"name":"Veilchenweg","postalCode":"73730","locality":"Esslingen am Neckar","municipality":{"key":"08116019","name":"Esslingen am Neckar, Stadt","type":"Große_Kreisstadt"},"district":{"key":"08116","name":"Esslingen","type":"Landkreis"},"federalState":{"key":"08","name":"Baden-Württemberg"}},{"name":"Viehgasse","postalCode":"73733","locality":"Esslingen am Neckar","municipality":{"key":"08116019","name":"Esslingen am Neckar, Stadt","type":"Große_Kreisstadt"},"district":{"key":"08116","name":"Esslingen","type":"Landkreis"},"federalState":{"key":"08","name":"Baden-Württemberg"}},{"name":"Vogelsangbrücke","postalCode":"73728","locality":"Esslingen am Neckar","municipality":{"key":"08116019","name":"Esslingen am Neckar, Stadt","type":"Große_Kreisstadt"},"district":{"key":"08116","name":"Esslingen","type":"Landkreis"},"federalState":{"key":"08","name":"Baden-Württemberg"}},{"name":"Vogelsangbrücke","postalCode":"73734","locality":"Esslingen am Neckar","municipality":{"key":"08116019","name":"Esslingen am Neckar, Stadt","type":"Große_Kreisstadt"},"district":{"key":"08116","name":"Esslingen","type":"Landkreis"},"federalState":{"key":"08","name":"Baden-Württemberg"}},{"name":"Vogelsangstr.","postalCode":"73728","locality":"Esslingen am Neckar","municipality":{"key":"08116019","name":"Esslingen am Neckar, Stadt","type":"Große_Kreisstadt"},"district":{"key":"08116","name":"Esslingen","type":"Landkreis"},"federalState":{"key":"08","name":"Baden-Württemberg"}},{"name":"Volker-Boehringer-Weg","postalCode":"73732","locality":"Esslingen am Neckar","municipality":{"key":"08116019","name":"Esslingen am Neckar, Stadt","type":"Große_Kreisstadt"},"district":{"key":"08116","name":"Esslingen","type":"Landkreis"},"federalState":{"key":"08","name":"Baden-Württemberg"}},{"name":"Wasserbergweg","postalCode":"73207","locality":"Plochingen","municipality":{"key":"08116056","name":"Plochingen, Stadt","type":"Stadt"},"district":{"key":"08116","name":"Esslingen","type":"Landkreis"},"federalState":{"key":"08","name":"Baden-Württemberg"}},{"name":"Weiherstr.","postalCode":"73207","locality":"Plochingen","municipality":{"key":"08116056","name":"Plochingen, Stadt","type":"Stadt"},"district":{"key":"08116","name":"Esslingen","type":"Landkreis"},"federalState":{"key":"08","name":"Baden-Württemberg"}},{"name":"Werrenweg","postalCode":"73207","locality":"Plochingen","municipality":{"key":"08116056","name":"Plochingen, Stadt","type":"Stadt"},"district":{"key":"08116","name":"Esslingen","type":"Landkreis"},"federalState":{"key":"08","name":"Baden-Württemberg"}},{"name":"Widdumstr.","postalCode":"73207","locality":"Plochingen","municipality":{"key":"08116056","name":"Plochingen, Stadt","type":"Stadt"},"district":{"key":"08116","name":"Esslingen","type":"Landkreis"},"federalState":{"key":"08","name":"Baden-Württemberg"}},{"name":"Wiesbrunnenstr.","postalCode":"73207","locality":"Plochingen","municipality":{"key":"08116056","name":"Plochingen, Stadt","type":"Stadt"},"district":{"key":"08116","name":"Esslingen","type":"Landkreis"},"federalState":{"key":"08","name":"Baden-Württemberg"}},{"name":"Wilhelmstr.","postalCode":"73207","locality":"Plochingen","municipality":{"key":"08116056","name":"Plochingen, Stadt","type":"Stadt"},"district":{"key":"08116","name":"Esslingen","type":"Landkreis"},"federalState":{"key":"08","name":"Baden-Württemberg"}},{"name":"Zehntgasse","postalCode":"73207","locality":"Plochingen","municipality":{"key":"08116056","name":"Plochingen, Stadt","type":"Stadt"},"district":{"key":"08116","name":"Esslingen","type":"Landkreis"},"federalState":{"key":"08","name":"Baden-Württemberg"}},{"name":"Zwettler Weg","postalCode":"73207","locality":"Plochingen","municipality":{"key":"08116056","name":"Plochingen, Stadt","type":"Stadt"},"district":{"key":"08116","name":"Esslingen","type":"Landkreis"},"federalState":{"key":"08","name":"Baden-Württemberg"}},]