[{"name":"Adalbert-Stifter-Str.","postalCode":"73326","locality":"Deggingen","municipality":{"key":"08117014","name":"Deggingen","type":"Kreisangehörige_Gemeinde"},"district":{"key":"08117","name":"Göppingen","type":"Landkreis"},"federalState":{"key":"08","name":"Baden-Württemberg"}},{"name":"Adlerweg","postalCode":"73326","locality":"Deggingen","municipality":{"key":"08117014","name":"Deggingen","type":"Kreisangehörige_Gemeinde"},"district":{"key":"08117","name":"Göppingen","type":"Landkreis"},"federalState":{"key":"08","name":"Baden-Württemberg"}},{"name":"Ahornweg","postalCode":"73326","locality":"Deggingen","municipality":{"key":"08117014","name":"Deggingen","type":"Kreisangehörige_Gemeinde"},"district":{"key":"08117","name":"Göppingen","type":"Landkreis"},"federalState":{"key":"08","name":"Baden-Württemberg"}},{"name":"Albert-Rauscher-Weg","postalCode":"73326","locality":"Deggingen","municipality":{"key":"08117014","name":"Deggingen","type":"Kreisangehörige_Gemeinde"},"district":{"key":"08117","name":"Göppingen","type":"Landkreis"},"federalState":{"key":"08","name":"Baden-Württemberg"}},{"name":"Albstr.","postalCode":"86751","locality":"Mönchsdeggingen","municipality":{"key":"09779184","name":"Mönchsdeggingen","type":"Kreisangehörige_Gemeinde"},"district":{"key":"09779","name":"Donau-Ries","type":"Landkreis"},"federalState":{"key":"09","name":"Bayern"}},{"name":"Alemanenstr.","postalCode":"86751","locality":"Mönchsdeggingen","municipality":{"key":"09779184","name":"Mönchsdeggingen","type":"Kreisangehörige_Gemeinde"},"district":{"key":"09779","name":"Donau-Ries","type":"Landkreis"},"federalState":{"key":"09","name":"Bayern"}},{"name":"Alleenweg","postalCode":"73326","locality":"Deggingen","municipality":{"key":"08117014","name":"Deggingen","type":"Kreisangehörige_Gemeinde"},"district":{"key":"08117","name":"Göppingen","type":"Landkreis"},"federalState":{"key":"08","name":"Baden-Württemberg"}},{"name":"Almarinstr.","postalCode":"86751","locality":"Mönchsdeggingen","municipality":{"key":"09779184","name":"Mönchsdeggingen","type":"Kreisangehörige_Gemeinde"},"district":{"key":"09779","name":"Donau-Ries","type":"Landkreis"},"federalState":{"key":"09","name":"Bayern"}},{"name":"Alter Postweg","postalCode":"73326","locality":"Deggingen","municipality":{"key":"08117014","name":"Deggingen","type":"Kreisangehörige_Gemeinde"},"district":{"key":"08117","name":"Göppingen","type":"Landkreis"},"federalState":{"key":"08","name":"Baden-Württemberg"}},{"name":"Am Buchberg","postalCode":"86751","locality":"Mönchsdeggingen","municipality":{"key":"09779184","name":"Mönchsdeggingen","type":"Kreisangehörige_Gemeinde"},"district":{"key":"09779","name":"Donau-Ries","type":"Landkreis"},"federalState":{"key":"09","name":"Bayern"}},{"name":"Am Haarberg","postalCode":"73326","locality":"Deggingen","municipality":{"key":"08117014","name":"Deggingen","type":"Kreisangehörige_Gemeinde"},"district":{"key":"08117","name":"Göppingen","type":"Landkreis"},"federalState":{"key":"08","name":"Baden-Württemberg"}},{"name":"Am Kanal","postalCode":"79805","locality":"Eggingen","municipality":{"key":"08337124","name":"Eggingen","type":"Kreisangehörige_Gemeinde"},"district":{"key":"08337","name":"Waldshut","type":"Landkreis"},"federalState":{"key":"08","name":"Baden-Württemberg"}},{"name":"Am Kuhstein","postalCode":"86751","locality":"Mönchsdeggingen","municipality":{"key":"09779184","name":"Mönchsdeggingen","type":"Kreisangehörige_Gemeinde"},"district":{"key":"09779","name":"Donau-Ries","type":"Landkreis"},"federalState":{"key":"09","name":"Bayern"}},{"name":"Am Osterbuch","postalCode":"73326","locality":"Deggingen","municipality":{"key":"08117014","name":"Deggingen","type":"Kreisangehörige_Gemeinde"},"district":{"key":"08117","name":"Göppingen","type":"Landkreis"},"federalState":{"key":"08","name":"Baden-Württemberg"}},{"name":"Am Park","postalCode":"73326","locality":"Deggingen","municipality":{"key":"08117014","name":"Deggingen","type":"Kreisangehörige_Gemeinde"},"district":{"key":"08117","name":"Göppingen","type":"Landkreis"},"federalState":{"key":"08","name":"Baden-Württemberg"}},{"name":"Am Riesblick","postalCode":"86751","locality":"Mönchsdeggingen","municipality":{"key":"09779184","name":"Mönchsdeggingen","type":"Kreisangehörige_Gemeinde"},"district":{"key":"09779","name":"Donau-Ries","type":"Landkreis"},"federalState":{"key":"09","name":"Bayern"}},{"name":"Amselweg","postalCode":"79805","locality":"Eggingen","municipality":{"key":"08337124","name":"Eggingen","type":"Kreisangehörige_Gemeinde"},"district":{"key":"08337","name":"Waldshut","type":"Landkreis"},"federalState":{"key":"08","name":"Baden-Württemberg"}},{"name":"Am Sportplatz","postalCode":"79805","locality":"Eggingen","municipality":{"key":"08337124","name":"Eggingen","type":"Kreisangehörige_Gemeinde"},"district":{"key":"08337","name":"Waldshut","type":"Landkreis"},"federalState":{"key":"08","name":"Baden-Württemberg"}},{"name":"Am Weigoldsberg","postalCode":"73326","locality":"Deggingen","municipality":{"key":"08117014","name":"Deggingen","type":"Kreisangehörige_Gemeinde"},"district":{"key":"08117","name":"Göppingen","type":"Landkreis"},"federalState":{"key":"08","name":"Baden-Württemberg"}},{"name":"Am Wiesenrain","postalCode":"73326","locality":"Deggingen","municipality":{"key":"08117014","name":"Deggingen","type":"Kreisangehörige_Gemeinde"},"district":{"key":"08117","name":"Göppingen","type":"Landkreis"},"federalState":{"key":"08","name":"Baden-Württemberg"}},{"name":"An der Steige","postalCode":"79805","locality":"Eggingen","municipality":{"key":"08337124","name":"Eggingen","type":"Kreisangehörige_Gemeinde"},"district":{"key":"08337","name":"Waldshut","type":"Landkreis"},"federalState":{"key":"08","name":"Baden-Württemberg"}},{"name":"Anton-Hilbert-Str.","postalCode":"79805","locality":"Eggingen","municipality":{"key":"08337124","name":"Eggingen","type":"Kreisangehörige_Gemeinde"},"district":{"key":"08337","name":"Waldshut","type":"Landkreis"},"federalState":{"key":"08","name":"Baden-Württemberg"}},{"name":"Ave-Maria-Weg","postalCode":"73326","locality":"Deggingen","municipality":{"key":"08117014","name":"Deggingen","type":"Kreisangehörige_Gemeinde"},"district":{"key":"08117","name":"Göppingen","type":"Landkreis"},"federalState":{"key":"08","name":"Baden-Württemberg"}},{"name":"Bachlingenweg","postalCode":"73326","locality":"Deggingen","municipality":{"key":"08117014","name":"Deggingen","type":"Kreisangehörige_Gemeinde"},"district":{"key":"08117","name":"Göppingen","type":"Landkreis"},"federalState":{"key":"08","name":"Baden-Württemberg"}},{"name":"Badstr.","postalCode":"73342","locality":"Deggingen","municipality":{"key":"08117014","name":"Deggingen","type":"Kreisangehörige_Gemeinde"},"district":{"key":"08117","name":"Göppingen","type":"Landkreis"},"federalState":{"key":"08","name":"Baden-Württemberg"}},{"name":"Badstr.","postalCode":"79805","locality":"Eggingen","municipality":{"key":"08337124","name":"Eggingen","type":"Kreisangehörige_Gemeinde"},"district":{"key":"08337","name":"Waldshut","type":"Landkreis"},"federalState":{"key":"08","name":"Baden-Württemberg"}},{"name":"Bahnhofstr.","postalCode":"73326","locality":"Deggingen","municipality":{"key":"08117014","name":"Deggingen","type":"Kreisangehörige_Gemeinde"},"district":{"key":"08117","name":"Göppingen","type":"Landkreis"},"federalState":{"key":"08","name":"Baden-Württemberg"}},{"name":"Bahnhofstr.","postalCode":"79805","locality":"Eggingen","municipality":{"key":"08337124","name":"Eggingen","type":"Kreisangehörige_Gemeinde"},"district":{"key":"08337","name":"Waldshut","type":"Landkreis"},"federalState":{"key":"08","name":"Baden-Württemberg"}},{"name":"Bergäcker","postalCode":"79805","locality":"Eggingen","municipality":{"key":"08337124","name":"Eggingen","type":"Kreisangehörige_Gemeinde"},"district":{"key":"08337","name":"Waldshut","type":"Landkreis"},"federalState":{"key":"08","name":"Baden-Württemberg"}},{"name":"Bergstr.","postalCode":"79805","locality":"Eggingen","municipality":{"key":"08337124","name":"Eggingen","type":"Kreisangehörige_Gemeinde"},"district":{"key":"08337","name":"Waldshut","type":"Landkreis"},"federalState":{"key":"08","name":"Baden-Württemberg"}},{"name":"Bernecker Steige","postalCode":"73326","locality":"Deggingen","municipality":{"key":"08117014","name":"Deggingen","type":"Kreisangehörige_Gemeinde"},"district":{"key":"08117","name":"Göppingen","type":"Landkreis"},"federalState":{"key":"08","name":"Baden-Württemberg"}},{"name":"Bernhardusstr.","postalCode":"73326","locality":"Deggingen","municipality":{"key":"08117014","name":"Deggingen","type":"Kreisangehörige_Gemeinde"},"district":{"key":"08117","name":"Göppingen","type":"Landkreis"},"federalState":{"key":"08","name":"Baden-Württemberg"}},{"name":"Bettelgasse","postalCode":"73326","locality":"Deggingen","municipality":{"key":"08117014","name":"Deggingen","type":"Kreisangehörige_Gemeinde"},"district":{"key":"08117","name":"Göppingen","type":"Landkreis"},"federalState":{"key":"08","name":"Baden-Württemberg"}},{"name":"Beurenweg","postalCode":"73326","locality":"Deggingen","municipality":{"key":"08117014","name":"Deggingen","type":"Kreisangehörige_Gemeinde"},"district":{"key":"08117","name":"Göppingen","type":"Landkreis"},"federalState":{"key":"08","name":"Baden-Württemberg"}},{"name":"Binsenweg","postalCode":"73326","locality":"Deggingen","municipality":{"key":"08117014","name":"Deggingen","type":"Kreisangehörige_Gemeinde"},"district":{"key":"08117","name":"Göppingen","type":"Landkreis"},"federalState":{"key":"08","name":"Baden-Württemberg"}},{"name":"Birkenweg","postalCode":"73326","locality":"Deggingen","municipality":{"key":"08117014","name":"Deggingen","type":"Kreisangehörige_Gemeinde"},"district":{"key":"08117","name":"Göppingen","type":"Landkreis"},"federalState":{"key":"08","name":"Baden-Württemberg"}},{"name":"Birkenweg","postalCode":"79805","locality":"Eggingen","municipality":{"key":"08337124","name":"Eggingen","type":"Kreisangehörige_Gemeinde"},"district":{"key":"08337","name":"Waldshut","type":"Landkreis"},"federalState":{"key":"08","name":"Baden-Württemberg"}},{"name":"Blumenstr.","postalCode":"73326","locality":"Deggingen","municipality":{"key":"08117014","name":"Deggingen","type":"Kreisangehörige_Gemeinde"},"district":{"key":"08117","name":"Göppingen","type":"Landkreis"},"federalState":{"key":"08","name":"Baden-Württemberg"}},{"name":"Böhringer Str.","postalCode":"73326","locality":"Deggingen","municipality":{"key":"08117014","name":"Deggingen","type":"Kreisangehörige_Gemeinde"},"district":{"key":"08117","name":"Göppingen","type":"Landkreis"},"federalState":{"key":"08","name":"Baden-Württemberg"}},{"name":"Bonndorfer Str.","postalCode":"79805","locality":"Eggingen","municipality":{"key":"08337124","name":"Eggingen","type":"Kreisangehörige_Gemeinde"},"district":{"key":"08337","name":"Waldshut","type":"Landkreis"},"federalState":{"key":"08","name":"Baden-Württemberg"}},{"name":"Breiteweg","postalCode":"79805","locality":"Eggingen","municipality":{"key":"08337124","name":"Eggingen","type":"Kreisangehörige_Gemeinde"},"district":{"key":"08337","name":"Waldshut","type":"Landkreis"},"federalState":{"key":"08","name":"Baden-Württemberg"}},{"name":"Bronnwiesenstr.","postalCode":"73326","locality":"Deggingen","municipality":{"key":"08117014","name":"Deggingen","type":"Kreisangehörige_Gemeinde"},"district":{"key":"08117","name":"Göppingen","type":"Landkreis"},"federalState":{"key":"08","name":"Baden-Württemberg"}},{"name":"Brühlstr.","postalCode":"73326","locality":"Deggingen","municipality":{"key":"08117014","name":"Deggingen","type":"Kreisangehörige_Gemeinde"},"district":{"key":"08117","name":"Göppingen","type":"Landkreis"},"federalState":{"key":"08","name":"Baden-Württemberg"}},{"name":"Brunnenweg","postalCode":"73326","locality":"Deggingen","municipality":{"key":"08117014","name":"Deggingen","type":"Kreisangehörige_Gemeinde"},"district":{"key":"08117","name":"Göppingen","type":"Landkreis"},"federalState":{"key":"08","name":"Baden-Württemberg"}},{"name":"Buchenweg","postalCode":"73326","locality":"Deggingen","municipality":{"key":"08117014","name":"Deggingen","type":"Kreisangehörige_Gemeinde"},"district":{"key":"08117","name":"Göppingen","type":"Landkreis"},"federalState":{"key":"08","name":"Baden-Württemberg"}},{"name":"Buchhaldenweg","postalCode":"73326","locality":"Deggingen","municipality":{"key":"08117014","name":"Deggingen","type":"Kreisangehörige_Gemeinde"},"district":{"key":"08117","name":"Göppingen","type":"Landkreis"},"federalState":{"key":"08","name":"Baden-Württemberg"}},{"name":"Bürgerstr.","postalCode":"79805","locality":"Eggingen","municipality":{"key":"08337124","name":"Eggingen","type":"Kreisangehörige_Gemeinde"},"district":{"key":"08337","name":"Waldshut","type":"Landkreis"},"federalState":{"key":"08","name":"Baden-Württemberg"}},{"name":"Burghaldenweg","postalCode":"79805","locality":"Eggingen","municipality":{"key":"08337124","name":"Eggingen","type":"Kreisangehörige_Gemeinde"},"district":{"key":"08337","name":"Waldshut","type":"Landkreis"},"federalState":{"key":"08","name":"Baden-Württemberg"}},{"name":"Burgsteige","postalCode":"73326","locality":"Deggingen","municipality":{"key":"08117014","name":"Deggingen","type":"Kreisangehörige_Gemeinde"},"district":{"key":"08117","name":"Göppingen","type":"Landkreis"},"federalState":{"key":"08","name":"Baden-Württemberg"}},{"name":"Canisiusweg","postalCode":"73326","locality":"Deggingen","municipality":{"key":"08117014","name":"Deggingen","type":"Kreisangehörige_Gemeinde"},"district":{"key":"08117","name":"Göppingen","type":"Landkreis"},"federalState":{"key":"08","name":"Baden-Württemberg"}},{"name":"Degginger Str.","postalCode":"73326","locality":"Deggingen","municipality":{"key":"08117014","name":"Deggingen","type":"Kreisangehörige_Gemeinde"},"district":{"key":"08117","name":"Göppingen","type":"Landkreis"},"federalState":{"key":"08","name":"Baden-Württemberg"}},{"name":"Ditzenbacher Str.","postalCode":"73326","locality":"Deggingen","municipality":{"key":"08117014","name":"Deggingen","type":"Kreisangehörige_Gemeinde"},"district":{"key":"08117","name":"Göppingen","type":"Landkreis"},"federalState":{"key":"08","name":"Baden-Württemberg"}},{"name":"Dürrentalweg","postalCode":"73326","locality":"Deggingen","municipality":{"key":"08117014","name":"Deggingen","type":"Kreisangehörige_Gemeinde"},"district":{"key":"08117","name":"Göppingen","type":"Landkreis"},"federalState":{"key":"08","name":"Baden-Württemberg"}},{"name":"Eichelestr.","postalCode":"73326","locality":"Deggingen","municipality":{"key":"08117014","name":"Deggingen","type":"Kreisangehörige_Gemeinde"},"district":{"key":"08117","name":"Göppingen","type":"Landkreis"},"federalState":{"key":"08","name":"Baden-Württemberg"}},{"name":"Eisbrunn Rundweg","postalCode":"86751","locality":"Mönchsdeggingen","municipality":{"key":"09779184","name":"Mönchsdeggingen","type":"Kreisangehörige_Gemeinde"},"district":{"key":"09779","name":"Donau-Ries","type":"Landkreis"},"federalState":{"key":"09","name":"Bayern"}},{"name":"Elschentalweg","postalCode":"73326","locality":"Deggingen","municipality":{"key":"08117014","name":"Deggingen","type":"Kreisangehörige_Gemeinde"},"district":{"key":"08117","name":"Göppingen","type":"Landkreis"},"federalState":{"key":"08","name":"Baden-Württemberg"}},{"name":"Erlenbachweg","postalCode":"73326","locality":"Deggingen","municipality":{"key":"08117014","name":"Deggingen","type":"Kreisangehörige_Gemeinde"},"district":{"key":"08117","name":"Göppingen","type":"Landkreis"},"federalState":{"key":"08","name":"Baden-Württemberg"}},{"name":"Erlenwasenweg","postalCode":"73326","locality":"Deggingen","municipality":{"key":"08117014","name":"Deggingen","type":"Kreisangehörige_Gemeinde"},"district":{"key":"08117","name":"Göppingen","type":"Landkreis"},"federalState":{"key":"08","name":"Baden-Württemberg"}},{"name":"Erlenweg","postalCode":"73326","locality":"Deggingen","municipality":{"key":"08117014","name":"Deggingen","type":"Kreisangehörige_Gemeinde"},"district":{"key":"08117","name":"Göppingen","type":"Landkreis"},"federalState":{"key":"08","name":"Baden-Württemberg"}},{"name":"Eschenweg","postalCode":"73326","locality":"Deggingen","municipality":{"key":"08117014","name":"Deggingen","type":"Kreisangehörige_Gemeinde"},"district":{"key":"08117","name":"Göppingen","type":"Landkreis"},"federalState":{"key":"08","name":"Baden-Württemberg"}},{"name":"Fabrikstr.","postalCode":"73326","locality":"Deggingen","municipality":{"key":"08117014","name":"Deggingen","type":"Kreisangehörige_Gemeinde"},"district":{"key":"08117","name":"Göppingen","type":"Landkreis"},"federalState":{"key":"08","name":"Baden-Württemberg"}},{"name":"Filsstr.","postalCode":"73326","locality":"Deggingen","municipality":{"key":"08117014","name":"Deggingen","type":"Kreisangehörige_Gemeinde"},"district":{"key":"08117","name":"Göppingen","type":"Landkreis"},"federalState":{"key":"08","name":"Baden-Württemberg"}},{"name":"Finkenweg","postalCode":"73326","locality":"Deggingen","municipality":{"key":"08117014","name":"Deggingen","type":"Kreisangehörige_Gemeinde"},"district":{"key":"08117","name":"Göppingen","type":"Landkreis"},"federalState":{"key":"08","name":"Baden-Württemberg"}},{"name":"Finkenweg","postalCode":"79805","locality":"Eggingen","municipality":{"key":"08337124","name":"Eggingen","type":"Kreisangehörige_Gemeinde"},"district":{"key":"08337","name":"Waldshut","type":"Landkreis"},"federalState":{"key":"08","name":"Baden-Württemberg"}},{"name":"Fischbachstr.","postalCode":"73326","locality":"Deggingen","municipality":{"key":"08117014","name":"Deggingen","type":"Kreisangehörige_Gemeinde"},"district":{"key":"08117","name":"Göppingen","type":"Landkreis"},"federalState":{"key":"08","name":"Baden-Württemberg"}},{"name":"Fischergasse","postalCode":"73326","locality":"Deggingen","municipality":{"key":"08117014","name":"Deggingen","type":"Kreisangehörige_Gemeinde"},"district":{"key":"08117","name":"Göppingen","type":"Landkreis"},"federalState":{"key":"08","name":"Baden-Württemberg"}},{"name":"Fliederweg","postalCode":"73326","locality":"Deggingen","municipality":{"key":"08117014","name":"Deggingen","type":"Kreisangehörige_Gemeinde"},"district":{"key":"08117","name":"Göppingen","type":"Landkreis"},"federalState":{"key":"08","name":"Baden-Württemberg"}},{"name":"Forellenweg","postalCode":"79805","locality":"Eggingen","municipality":{"key":"08337124","name":"Eggingen","type":"Kreisangehörige_Gemeinde"},"district":{"key":"08337","name":"Waldshut","type":"Landkreis"},"federalState":{"key":"08","name":"Baden-Württemberg"}},{"name":"Forststr.","postalCode":"73326","locality":"Deggingen","municipality":{"key":"08117014","name":"Deggingen","type":"Kreisangehörige_Gemeinde"},"district":{"key":"08117","name":"Göppingen","type":"Landkreis"},"federalState":{"key":"08","name":"Baden-Württemberg"}},{"name":"Friedhofstr.","postalCode":"73326","locality":"Deggingen","municipality":{"key":"08117014","name":"Deggingen","type":"Kreisangehörige_Gemeinde"},"district":{"key":"08117","name":"Göppingen","type":"Landkreis"},"federalState":{"key":"08","name":"Baden-Württemberg"}},{"name":"Furtweg","postalCode":"73326","locality":"Deggingen","municipality":{"key":"08117014","name":"Deggingen","type":"Kreisangehörige_Gemeinde"},"district":{"key":"08117","name":"Göppingen","type":"Landkreis"},"federalState":{"key":"08","name":"Baden-Württemberg"}},{"name":"f.w","postalCode":"73326","locality":"Deggingen","municipality":{"key":"08117014","name":"Deggingen","type":"Kreisangehörige_Gemeinde"},"district":{"key":"08117","name":"Göppingen","type":"Landkreis"},"federalState":{"key":"08","name":"Baden-Württemberg"}},{"name":"Galgenbergweg","postalCode":"73326","locality":"Deggingen","municipality":{"key":"08117014","name":"Deggingen","type":"Kreisangehörige_Gemeinde"},"district":{"key":"08117","name":"Göppingen","type":"Landkreis"},"federalState":{"key":"08","name":"Baden-Württemberg"}},{"name":"Gartenstr.","postalCode":"73326","locality":"Deggingen","municipality":{"key":"08117014","name":"Deggingen","type":"Kreisangehörige_Gemeinde"},"district":{"key":"08117","name":"Göppingen","type":"Landkreis"},"federalState":{"key":"08","name":"Baden-Württemberg"}},{"name":"Gartenstr.","postalCode":"79805","locality":"Eggingen","municipality":{"key":"08337124","name":"Eggingen","type":"Kreisangehörige_Gemeinde"},"district":{"key":"08337","name":"Waldshut","type":"Landkreis"},"federalState":{"key":"08","name":"Baden-Württemberg"}},{"name":"Geislinger Str.","postalCode":"73326","locality":"Deggingen","municipality":{"key":"08117014","name":"Deggingen","type":"Kreisangehörige_Gemeinde"},"district":{"key":"08117","name":"Göppingen","type":"Landkreis"},"federalState":{"key":"08","name":"Baden-Württemberg"}},{"name":"Georg-Elser-Str.","postalCode":"73326","locality":"Deggingen","municipality":{"key":"08117014","name":"Deggingen","type":"Kreisangehörige_Gemeinde"},"district":{"key":"08117","name":"Göppingen","type":"Landkreis"},"federalState":{"key":"08","name":"Baden-Württemberg"}},{"name":"Gründleweg","postalCode":"79805","locality":"Eggingen","municipality":{"key":"08337124","name":"Eggingen","type":"Kreisangehörige_Gemeinde"},"district":{"key":"08337","name":"Waldshut","type":"Landkreis"},"federalState":{"key":"08","name":"Baden-Württemberg"}},{"name":"Grünwiesen","postalCode":"79805","locality":"Eggingen","municipality":{"key":"08337124","name":"Eggingen","type":"Kreisangehörige_Gemeinde"},"district":{"key":"08337","name":"Waldshut","type":"Landkreis"},"federalState":{"key":"08","name":"Baden-Württemberg"}},{"name":"Haldenweg","postalCode":"73326","locality":"Deggingen","municipality":{"key":"08117014","name":"Deggingen","type":"Kreisangehörige_Gemeinde"},"district":{"key":"08117","name":"Göppingen","type":"Landkreis"},"federalState":{"key":"08","name":"Baden-Württemberg"}},{"name":"Hallauer Str.","postalCode":"79805","locality":"Eggingen","municipality":{"key":"08337124","name":"Eggingen","type":"Kreisangehörige_Gemeinde"},"district":{"key":"08337","name":"Waldshut","type":"Landkreis"},"federalState":{"key":"08","name":"Baden-Württemberg"}},{"name":"Hauffstr.","postalCode":"73326","locality":"Deggingen","municipality":{"key":"08117014","name":"Deggingen","type":"Kreisangehörige_Gemeinde"},"district":{"key":"08117","name":"Göppingen","type":"Landkreis"},"federalState":{"key":"08","name":"Baden-Württemberg"}},{"name":"Hauptstr.","postalCode":"73326","locality":"Deggingen","municipality":{"key":"08117014","name":"Deggingen","type":"Kreisangehörige_Gemeinde"},"district":{"key":"08117","name":"Göppingen","type":"Landkreis"},"federalState":{"key":"08","name":"Baden-Württemberg"}},{"name":"Heidelstr.","postalCode":"79805","locality":"Eggingen","municipality":{"key":"08337124","name":"Eggingen","type":"Kreisangehörige_Gemeinde"},"district":{"key":"08337","name":"Waldshut","type":"Landkreis"},"federalState":{"key":"08","name":"Baden-Württemberg"}},{"name":"Hindenburgstr.","postalCode":"73326","locality":"Deggingen","municipality":{"key":"08117014","name":"Deggingen","type":"Kreisangehörige_Gemeinde"},"district":{"key":"08117","name":"Göppingen","type":"Landkreis"},"federalState":{"key":"08","name":"Baden-Württemberg"}},{"name":"Hochweg","postalCode":"86751","locality":"Mönchsdeggingen","municipality":{"key":"09779184","name":"Mönchsdeggingen","type":"Kreisangehörige_Gemeinde"},"district":{"key":"09779","name":"Donau-Ries","type":"Landkreis"},"federalState":{"key":"09","name":"Bayern"}},{"name":"Hofackerstr.","postalCode":"73326","locality":"Deggingen","municipality":{"key":"08117014","name":"Deggingen","type":"Kreisangehörige_Gemeinde"},"district":{"key":"08117","name":"Göppingen","type":"Landkreis"},"federalState":{"key":"08","name":"Baden-Württemberg"}},{"name":"Hohentalweg","postalCode":"73326","locality":"Deggingen","municipality":{"key":"08117014","name":"Deggingen","type":"Kreisangehörige_Gemeinde"},"district":{"key":"08117","name":"Göppingen","type":"Landkreis"},"federalState":{"key":"08","name":"Baden-Württemberg"}},{"name":"Holderäcker","postalCode":"73326","locality":"Deggingen","municipality":{"key":"08117014","name":"Deggingen","type":"Kreisangehörige_Gemeinde"},"district":{"key":"08117","name":"Göppingen","type":"Landkreis"},"federalState":{"key":"08","name":"Baden-Württemberg"}},{"name":"Hölderlinweg","postalCode":"73326","locality":"Deggingen","municipality":{"key":"08117014","name":"Deggingen","type":"Kreisangehörige_Gemeinde"},"district":{"key":"08117","name":"Göppingen","type":"Landkreis"},"federalState":{"key":"08","name":"Baden-Württemberg"}},{"name":"Hornteichweg","postalCode":"73326","locality":"Deggingen","municipality":{"key":"08117014","name":"Deggingen","type":"Kreisangehörige_Gemeinde"},"district":{"key":"08117","name":"Göppingen","type":"Landkreis"},"federalState":{"key":"08","name":"Baden-Württemberg"}},{"name":"Im Brühl","postalCode":"86751","locality":"Mönchsdeggingen","municipality":{"key":"09779184","name":"Mönchsdeggingen","type":"Kreisangehörige_Gemeinde"},"district":{"key":"09779","name":"Donau-Ries","type":"Landkreis"},"federalState":{"key":"09","name":"Bayern"}},{"name":"Im Eichholz","postalCode":"73326","locality":"Deggingen","municipality":{"key":"08117014","name":"Deggingen","type":"Kreisangehörige_Gemeinde"},"district":{"key":"08117","name":"Göppingen","type":"Landkreis"},"federalState":{"key":"08","name":"Baden-Württemberg"}},{"name":"Im Hof","postalCode":"73326","locality":"Deggingen","municipality":{"key":"08117014","name":"Deggingen","type":"Kreisangehörige_Gemeinde"},"district":{"key":"08117","name":"Göppingen","type":"Landkreis"},"federalState":{"key":"08","name":"Baden-Württemberg"}},{"name":"Im Obstgarten","postalCode":"73326","locality":"Deggingen","municipality":{"key":"08117014","name":"Deggingen","type":"Kreisangehörige_Gemeinde"},"district":{"key":"08117","name":"Göppingen","type":"Landkreis"},"federalState":{"key":"08","name":"Baden-Württemberg"}},{"name":"Im Schönbrunnen","postalCode":"79805","locality":"Eggingen","municipality":{"key":"08337124","name":"Eggingen","type":"Kreisangehörige_Gemeinde"},"district":{"key":"08337","name":"Waldshut","type":"Landkreis"},"federalState":{"key":"08","name":"Baden-Württemberg"}},{"name":"Im Winkel","postalCode":"79805","locality":"Eggingen","municipality":{"key":"08337124","name":"Eggingen","type":"Kreisangehörige_Gemeinde"},"district":{"key":"08337","name":"Waldshut","type":"Landkreis"},"federalState":{"key":"08","name":"Baden-Württemberg"}},{"name":"In den Lichsen","postalCode":"73326","locality":"Deggingen","municipality":{"key":"08117014","name":"Deggingen","type":"Kreisangehörige_Gemeinde"},"district":{"key":"08117","name":"Göppingen","type":"Landkreis"},"federalState":{"key":"08","name":"Baden-Württemberg"}},{"name":"In den Reben","postalCode":"79805","locality":"Eggingen","municipality":{"key":"08337124","name":"Eggingen","type":"Kreisangehörige_Gemeinde"},"district":{"key":"08337","name":"Waldshut","type":"Landkreis"},"federalState":{"key":"08","name":"Baden-Württemberg"}},{"name":"In der Fuchtel","postalCode":"86751","locality":"Mönchsdeggingen","municipality":{"key":"09779184","name":"Mönchsdeggingen","type":"Kreisangehörige_Gemeinde"},"district":{"key":"09779","name":"Donau-Ries","type":"Landkreis"},"federalState":{"key":"09","name":"Bayern"}},{"name":"In der Scher","postalCode":"86751","locality":"Mönchsdeggingen","municipality":{"key":"09779184","name":"Mönchsdeggingen","type":"Kreisangehörige_Gemeinde"},"district":{"key":"09779","name":"Donau-Ries","type":"Landkreis"},"federalState":{"key":"09","name":"Bayern"}},{"name":"Industriestr.","postalCode":"79805","locality":"Eggingen","municipality":{"key":"08337124","name":"Eggingen","type":"Kreisangehörige_Gemeinde"},"district":{"key":"08337","name":"Waldshut","type":"Landkreis"},"federalState":{"key":"08","name":"Baden-Württemberg"}},{"name":"Jägersteig","postalCode":"73326","locality":"Deggingen","municipality":{"key":"08117014","name":"Deggingen","type":"Kreisangehörige_Gemeinde"},"district":{"key":"08117","name":"Göppingen","type":"Landkreis"},"federalState":{"key":"08","name":"Baden-Württemberg"}},{"name":"Jahnstr.","postalCode":"73326","locality":"Deggingen","municipality":{"key":"08117014","name":"Deggingen","type":"Kreisangehörige_Gemeinde"},"district":{"key":"08117","name":"Göppingen","type":"Landkreis"},"federalState":{"key":"08","name":"Baden-Württemberg"}},{"name":"Jurastr.","postalCode":"86751","locality":"Mönchsdeggingen","municipality":{"key":"09779184","name":"Mönchsdeggingen","type":"Kreisangehörige_Gemeinde"},"district":{"key":"09779","name":"Donau-Ries","type":"Landkreis"},"federalState":{"key":"09","name":"Bayern"}},{"name":"Kapellensteig","postalCode":"73326","locality":"Deggingen","municipality":{"key":"08117014","name":"Deggingen","type":"Kreisangehörige_Gemeinde"},"district":{"key":"08117","name":"Göppingen","type":"Landkreis"},"federalState":{"key":"08","name":"Baden-Württemberg"}},{"name":"Kaplaneigasse","postalCode":"73326","locality":"Deggingen","municipality":{"key":"08117014","name":"Deggingen","type":"Kreisangehörige_Gemeinde"},"district":{"key":"08117","name":"Göppingen","type":"Landkreis"},"federalState":{"key":"08","name":"Baden-Württemberg"}},{"name":"Karl-Armbruster-Str.","postalCode":"79805","locality":"Eggingen","municipality":{"key":"08337124","name":"Eggingen","type":"Kreisangehörige_Gemeinde"},"district":{"key":"08337","name":"Waldshut","type":"Landkreis"},"federalState":{"key":"08","name":"Baden-Württemberg"}},{"name":"Kirchplatz","postalCode":"73326","locality":"Deggingen","municipality":{"key":"08117014","name":"Deggingen","type":"Kreisangehörige_Gemeinde"},"district":{"key":"08117","name":"Göppingen","type":"Landkreis"},"federalState":{"key":"08","name":"Baden-Württemberg"}},{"name":"Kirchweg","postalCode":"79805","locality":"Eggingen","municipality":{"key":"08337124","name":"Eggingen","type":"Kreisangehörige_Gemeinde"},"district":{"key":"08337","name":"Waldshut","type":"Landkreis"},"federalState":{"key":"08","name":"Baden-Württemberg"}},{"name":"Kohlhausträßchen","postalCode":"73326","locality":"Deggingen","municipality":{"key":"08117014","name":"Deggingen","type":"Kreisangehörige_Gemeinde"},"district":{"key":"08117","name":"Göppingen","type":"Landkreis"},"federalState":{"key":"08","name":"Baden-Württemberg"}},{"name":"Königstr.","postalCode":"73326","locality":"Deggingen","municipality":{"key":"08117014","name":"Deggingen","type":"Kreisangehörige_Gemeinde"},"district":{"key":"08117","name":"Göppingen","type":"Landkreis"},"federalState":{"key":"08","name":"Baden-Württemberg"}},{"name":"Kreuzäckerweg","postalCode":"73326","locality":"Deggingen","municipality":{"key":"08117014","name":"Deggingen","type":"Kreisangehörige_Gemeinde"},"district":{"key":"08117","name":"Göppingen","type":"Landkreis"},"federalState":{"key":"08","name":"Baden-Württemberg"}},{"name":"Kronengässle","postalCode":"73326","locality":"Deggingen","municipality":{"key":"08117014","name":"Deggingen","type":"Kreisangehörige_Gemeinde"},"district":{"key":"08117","name":"Göppingen","type":"Landkreis"},"federalState":{"key":"08","name":"Baden-Württemberg"}},{"name":"Kühtrieb","postalCode":"73326","locality":"Deggingen","municipality":{"key":"08117014","name":"Deggingen","type":"Kreisangehörige_Gemeinde"},"district":{"key":"08117","name":"Göppingen","type":"Landkreis"},"federalState":{"key":"08","name":"Baden-Württemberg"}},{"name":"Kurhausstr.","postalCode":"73342","locality":"Deggingen","municipality":{"key":"08117014","name":"Deggingen","type":"Kreisangehörige_Gemeinde"},"district":{"key":"08117","name":"Göppingen","type":"Landkreis"},"federalState":{"key":"08","name":"Baden-Württemberg"}},{"name":"Kurpark","postalCode":"73326","locality":"Deggingen","municipality":{"key":"08117014","name":"Deggingen","type":"Kreisangehörige_Gemeinde"},"district":{"key":"08117","name":"Göppingen","type":"Landkreis"},"federalState":{"key":"08","name":"Baden-Württemberg"}},{"name":"Landhausweg","postalCode":"73326","locality":"Deggingen","municipality":{"key":"08117014","name":"Deggingen","type":"Kreisangehörige_Gemeinde"},"district":{"key":"08117","name":"Göppingen","type":"Landkreis"},"federalState":{"key":"08","name":"Baden-Württemberg"}},{"name":"Lautenbachstr.","postalCode":"73326","locality":"Deggingen","municipality":{"key":"08117014","name":"Deggingen","type":"Kreisangehörige_Gemeinde"},"district":{"key":"08117","name":"Göppingen","type":"Landkreis"},"federalState":{"key":"08","name":"Baden-Württemberg"}},{"name":"Lindenstr.","postalCode":"73326","locality":"Deggingen","municipality":{"key":"08117014","name":"Deggingen","type":"Kreisangehörige_Gemeinde"},"district":{"key":"08117","name":"Göppingen","type":"Landkreis"},"federalState":{"key":"08","name":"Baden-Württemberg"}},{"name":"Lindenweg","postalCode":"79805","locality":"Eggingen","municipality":{"key":"08337124","name":"Eggingen","type":"Kreisangehörige_Gemeinde"},"district":{"key":"08337","name":"Waldshut","type":"Landkreis"},"federalState":{"key":"08","name":"Baden-Württemberg"}},{"name":"Martinsring","postalCode":"73326","locality":"Deggingen","municipality":{"key":"08117014","name":"Deggingen","type":"Kreisangehörige_Gemeinde"},"district":{"key":"08117","name":"Göppingen","type":"Landkreis"},"federalState":{"key":"08","name":"Baden-Württemberg"}},{"name":"Mettinger Str.","postalCode":"79805","locality":"Eggingen","municipality":{"key":"08337124","name":"Eggingen","type":"Kreisangehörige_Gemeinde"},"district":{"key":"08337","name":"Waldshut","type":"Landkreis"},"federalState":{"key":"08","name":"Baden-Württemberg"}},{"name":"Michelfeldweg","postalCode":"73326","locality":"Deggingen","municipality":{"key":"08117014","name":"Deggingen","type":"Kreisangehörige_Gemeinde"},"district":{"key":"08117","name":"Göppingen","type":"Landkreis"},"federalState":{"key":"08","name":"Baden-Württemberg"}},{"name":"Mörikestr.","postalCode":"73326","locality":"Deggingen","municipality":{"key":"08117014","name":"Deggingen","type":"Kreisangehörige_Gemeinde"},"district":{"key":"08117","name":"Göppingen","type":"Landkreis"},"federalState":{"key":"08","name":"Baden-Württemberg"}},{"name":"Mozartstr.","postalCode":"73326","locality":"Deggingen","municipality":{"key":"08117014","name":"Deggingen","type":"Kreisangehörige_Gemeinde"},"district":{"key":"08117","name":"Göppingen","type":"Landkreis"},"federalState":{"key":"08","name":"Baden-Württemberg"}},{"name":"Mühlackerstr.","postalCode":"73326","locality":"Deggingen","municipality":{"key":"08117014","name":"Deggingen","type":"Kreisangehörige_Gemeinde"},"district":{"key":"08117","name":"Göppingen","type":"Landkreis"},"federalState":{"key":"08","name":"Baden-Württemberg"}},{"name":"Mühlenweg","postalCode":"79805","locality":"Eggingen","municipality":{"key":"08337124","name":"Eggingen","type":"Kreisangehörige_Gemeinde"},"district":{"key":"08337","name":"Waldshut","type":"Landkreis"},"federalState":{"key":"08","name":"Baden-Württemberg"}},{"name":"Mühlstr.","postalCode":"73326","locality":"Deggingen","municipality":{"key":"08117014","name":"Deggingen","type":"Kreisangehörige_Gemeinde"},"district":{"key":"08117","name":"Göppingen","type":"Landkreis"},"federalState":{"key":"08","name":"Baden-Württemberg"}},{"name":"Mühlstr.","postalCode":"86751","locality":"Mönchsdeggingen","municipality":{"key":"09779184","name":"Mönchsdeggingen","type":"Kreisangehörige_Gemeinde"},"district":{"key":"09779","name":"Donau-Ries","type":"Landkreis"},"federalState":{"key":"09","name":"Bayern"}},{"name":"Nordalb","postalCode":"73326","locality":"Deggingen","municipality":{"key":"08117014","name":"Deggingen","type":"Kreisangehörige_Gemeinde"},"district":{"key":"08117","name":"Göppingen","type":"Landkreis"},"federalState":{"key":"08","name":"Baden-Württemberg"}},{"name":"Nordalbstr.","postalCode":"73326","locality":"Deggingen","municipality":{"key":"08117014","name":"Deggingen","type":"Kreisangehörige_Gemeinde"},"district":{"key":"08117","name":"Göppingen","type":"Landkreis"},"federalState":{"key":"08","name":"Baden-Württemberg"}},{"name":"Obere Bergäcker","postalCode":"79805","locality":"Eggingen","municipality":{"key":"08337124","name":"Eggingen","type":"Kreisangehörige_Gemeinde"},"district":{"key":"08337","name":"Waldshut","type":"Landkreis"},"federalState":{"key":"08","name":"Baden-Württemberg"}},{"name":"Obere Morgen","postalCode":"73326","locality":"Deggingen","municipality":{"key":"08117014","name":"Deggingen","type":"Kreisangehörige_Gemeinde"},"district":{"key":"08117","name":"Göppingen","type":"Landkreis"},"federalState":{"key":"08","name":"Baden-Württemberg"}},{"name":"obere Ostlandstr.","postalCode":"73326","locality":"Deggingen","municipality":{"key":"08117014","name":"Deggingen","type":"Kreisangehörige_Gemeinde"},"district":{"key":"08117","name":"Göppingen","type":"Landkreis"},"federalState":{"key":"08","name":"Baden-Württemberg"}},{"name":"Obere Ostlandstr.","postalCode":"73326","locality":"Deggingen","municipality":{"key":"08117014","name":"Deggingen","type":"Kreisangehörige_Gemeinde"},"district":{"key":"08117","name":"Göppingen","type":"Landkreis"},"federalState":{"key":"08","name":"Baden-Württemberg"}},{"name":"Oberer Ölbachweg","postalCode":"73326","locality":"Deggingen","municipality":{"key":"08117014","name":"Deggingen","type":"Kreisangehörige_Gemeinde"},"district":{"key":"08117","name":"Göppingen","type":"Landkreis"},"federalState":{"key":"08","name":"Baden-Württemberg"}},{"name":"Orchideenweg","postalCode":"73326","locality":"Deggingen","municipality":{"key":"08117014","name":"Deggingen","type":"Kreisangehörige_Gemeinde"},"district":{"key":"08117","name":"Göppingen","type":"Landkreis"},"federalState":{"key":"08","name":"Baden-Württemberg"}},{"name":"Osterbuch","postalCode":"73326","locality":"Deggingen","municipality":{"key":"08117014","name":"Deggingen","type":"Kreisangehörige_Gemeinde"},"district":{"key":"08117","name":"Göppingen","type":"Landkreis"},"federalState":{"key":"08","name":"Baden-Württemberg"}},{"name":"Panoramastr.","postalCode":"73326","locality":"Deggingen","municipality":{"key":"08117014","name":"Deggingen","type":"Kreisangehörige_Gemeinde"},"district":{"key":"08117","name":"Göppingen","type":"Landkreis"},"federalState":{"key":"08","name":"Baden-Württemberg"}},{"name":"Quarzmühlenweg","postalCode":"79761","locality":"Waldshut-Tiengen","municipality":{"key":"08337126","name":"Waldshut-Tiengen, Stadt","type":"Große_Kreisstadt"},"district":{"key":"08337","name":"Waldshut","type":"Landkreis"},"federalState":{"key":"08","name":"Baden-Württemberg"}},{"name":"Querweg","postalCode":"79761","locality":"Waldshut-Tiengen","municipality":{"key":"08337126","name":"Waldshut-Tiengen, Stadt","type":"Große_Kreisstadt"},"district":{"key":"08337","name":"Waldshut","type":"Landkreis"},"federalState":{"key":"08","name":"Baden-Württemberg"}},{"name":"Radgäßle","postalCode":"73326","locality":"Deggingen","municipality":{"key":"08117014","name":"Deggingen","type":"Kreisangehörige_Gemeinde"},"district":{"key":"08117","name":"Göppingen","type":"Landkreis"},"federalState":{"key":"08","name":"Baden-Württemberg"}},{"name":"Raiffeisenstr.","postalCode":"86751","locality":"Mönchsdeggingen","municipality":{"key":"09779184","name":"Mönchsdeggingen","type":"Kreisangehörige_Gemeinde"},"district":{"key":"09779","name":"Donau-Ries","type":"Landkreis"},"federalState":{"key":"09","name":"Bayern"}},{"name":"Rassbacherweg","postalCode":"79805","locality":"Eggingen","municipality":{"key":"08337124","name":"Eggingen","type":"Kreisangehörige_Gemeinde"},"district":{"key":"08337","name":"Waldshut","type":"Landkreis"},"federalState":{"key":"08","name":"Baden-Württemberg"}},{"name":"Rassbacher Weg","postalCode":"79805","locality":"Eggingen","municipality":{"key":"08337124","name":"Eggingen","type":"Kreisangehörige_Gemeinde"},"district":{"key":"08337","name":"Waldshut","type":"Landkreis"},"federalState":{"key":"08","name":"Baden-Württemberg"}},{"name":"Rathausstr.","postalCode":"79805","locality":"Eggingen","municipality":{"key":"08337124","name":"Eggingen","type":"Kreisangehörige_Gemeinde"},"district":{"key":"08337","name":"Waldshut","type":"Landkreis"},"federalState":{"key":"08","name":"Baden-Württemberg"}},{"name":"Reichenbachstr.","postalCode":"73326","locality":"Deggingen","municipality":{"key":"08117014","name":"Deggingen","type":"Kreisangehörige_Gemeinde"},"district":{"key":"08117","name":"Göppingen","type":"Landkreis"},"federalState":{"key":"08","name":"Baden-Württemberg"}},{"name":"Riedgartenstr.","postalCode":"73326","locality":"Deggingen","municipality":{"key":"08117014","name":"Deggingen","type":"Kreisangehörige_Gemeinde"},"district":{"key":"08117","name":"Göppingen","type":"Landkreis"},"federalState":{"key":"08","name":"Baden-Württemberg"}},{"name":"Riegelstr.","postalCode":"73326","locality":"Deggingen","municipality":{"key":"08117014","name":"Deggingen","type":"Kreisangehörige_Gemeinde"},"district":{"key":"08117","name":"Göppingen","type":"Landkreis"},"federalState":{"key":"08","name":"Baden-Württemberg"}},{"name":"Römerstr.","postalCode":"86751","locality":"Mönchsdeggingen","municipality":{"key":"09779184","name":"Mönchsdeggingen","type":"Kreisangehörige_Gemeinde"},"district":{"key":"09779","name":"Donau-Ries","type":"Landkreis"},"federalState":{"key":"09","name":"Bayern"}},{"name":"Rosenweg","postalCode":"73326","locality":"Deggingen","municipality":{"key":"08117014","name":"Deggingen","type":"Kreisangehörige_Gemeinde"},"district":{"key":"08117","name":"Göppingen","type":"Landkreis"},"federalState":{"key":"08","name":"Baden-Württemberg"}},{"name":"Schelzelweg","postalCode":"73326","locality":"Deggingen","municipality":{"key":"08117014","name":"Deggingen","type":"Kreisangehörige_Gemeinde"},"district":{"key":"08117","name":"Göppingen","type":"Landkreis"},"federalState":{"key":"08","name":"Baden-Württemberg"}},{"name":"Schillerstr.","postalCode":"73326","locality":"Deggingen","municipality":{"key":"08117014","name":"Deggingen","type":"Kreisangehörige_Gemeinde"},"district":{"key":"08117","name":"Göppingen","type":"Landkreis"},"federalState":{"key":"08","name":"Baden-Württemberg"}},{"name":"Schlater Str.","postalCode":"73326","locality":"Deggingen","municipality":{"key":"08117014","name":"Deggingen","type":"Kreisangehörige_Gemeinde"},"district":{"key":"08117","name":"Göppingen","type":"Landkreis"},"federalState":{"key":"08","name":"Baden-Württemberg"}},{"name":"Schlesierstr.","postalCode":"86751","locality":"Mönchsdeggingen","municipality":{"key":"09779184","name":"Mönchsdeggingen","type":"Kreisangehörige_Gemeinde"},"district":{"key":"09779","name":"Donau-Ries","type":"Landkreis"},"federalState":{"key":"09","name":"Bayern"}},{"name":"Schloßhalde","postalCode":"73326","locality":"Deggingen","municipality":{"key":"08117014","name":"Deggingen","type":"Kreisangehörige_Gemeinde"},"district":{"key":"08117","name":"Göppingen","type":"Landkreis"},"federalState":{"key":"08","name":"Baden-Württemberg"}},{"name":"Schlözelweg","postalCode":"73326","locality":"Deggingen","municipality":{"key":"08117014","name":"Deggingen","type":"Kreisangehörige_Gemeinde"},"district":{"key":"08117","name":"Göppingen","type":"Landkreis"},"federalState":{"key":"08","name":"Baden-Württemberg"}},{"name":"Schmellengäßle","postalCode":"73326","locality":"Deggingen","municipality":{"key":"08117014","name":"Deggingen","type":"Kreisangehörige_Gemeinde"},"district":{"key":"08117","name":"Göppingen","type":"Landkreis"},"federalState":{"key":"08","name":"Baden-Württemberg"}},{"name":"Schmellenweg","postalCode":"73326","locality":"Deggingen","municipality":{"key":"08117014","name":"Deggingen","type":"Kreisangehörige_Gemeinde"},"district":{"key":"08117","name":"Göppingen","type":"Landkreis"},"federalState":{"key":"08","name":"Baden-Württemberg"}},{"name":"Schmiedgasse","postalCode":"73326","locality":"Deggingen","municipality":{"key":"08117014","name":"Deggingen","type":"Kreisangehörige_Gemeinde"},"district":{"key":"08117","name":"Göppingen","type":"Landkreis"},"federalState":{"key":"08","name":"Baden-Württemberg"}},{"name":"Schönblickstr.","postalCode":"73326","locality":"Deggingen","municipality":{"key":"08117014","name":"Deggingen","type":"Kreisangehörige_Gemeinde"},"district":{"key":"08117","name":"Göppingen","type":"Landkreis"},"federalState":{"key":"08","name":"Baden-Württemberg"}},{"name":"Schulstr.","postalCode":"73326","locality":"Deggingen","municipality":{"key":"08117014","name":"Deggingen","type":"Kreisangehörige_Gemeinde"},"district":{"key":"08117","name":"Göppingen","type":"Landkreis"},"federalState":{"key":"08","name":"Baden-Württemberg"}},{"name":"Schulstr.","postalCode":"79805","locality":"Eggingen","municipality":{"key":"08337124","name":"Eggingen","type":"Kreisangehörige_Gemeinde"},"district":{"key":"08337","name":"Waldshut","type":"Landkreis"},"federalState":{"key":"08","name":"Baden-Württemberg"}},{"name":"Sennenbachstr.","postalCode":"73326","locality":"Deggingen","municipality":{"key":"08117014","name":"Deggingen","type":"Kreisangehörige_Gemeinde"},"district":{"key":"08117","name":"Göppingen","type":"Landkreis"},"federalState":{"key":"08","name":"Baden-Württemberg"}},{"name":"Silcherstr.","postalCode":"73326","locality":"Deggingen","municipality":{"key":"08117014","name":"Deggingen","type":"Kreisangehörige_Gemeinde"},"district":{"key":"08117","name":"Göppingen","type":"Landkreis"},"federalState":{"key":"08","name":"Baden-Württemberg"}},{"name":"Sommerbergstaffel","postalCode":"73326","locality":"Deggingen","municipality":{"key":"08117014","name":"Deggingen","type":"Kreisangehörige_Gemeinde"},"district":{"key":"08117","name":"Göppingen","type":"Landkreis"},"federalState":{"key":"08","name":"Baden-Württemberg"}},{"name":"Sommerbergstr.","postalCode":"73326","locality":"Deggingen","municipality":{"key":"08117014","name":"Deggingen","type":"Kreisangehörige_Gemeinde"},"district":{"key":"08117","name":"Göppingen","type":"Landkreis"},"federalState":{"key":"08","name":"Baden-Württemberg"}},{"name":"Sonnenhalde","postalCode":"73326","locality":"Deggingen","municipality":{"key":"08117014","name":"Deggingen","type":"Kreisangehörige_Gemeinde"},"district":{"key":"08117","name":"Göppingen","type":"Landkreis"},"federalState":{"key":"08","name":"Baden-Württemberg"}},{"name":"Steigäckerweg","postalCode":"73326","locality":"Deggingen","municipality":{"key":"08117014","name":"Deggingen","type":"Kreisangehörige_Gemeinde"},"district":{"key":"08117","name":"Göppingen","type":"Landkreis"},"federalState":{"key":"08","name":"Baden-Württemberg"}},{"name":"Sterngasse","postalCode":"73326","locality":"Deggingen","municipality":{"key":"08117014","name":"Deggingen","type":"Kreisangehörige_Gemeinde"},"district":{"key":"08117","name":"Göppingen","type":"Landkreis"},"federalState":{"key":"08","name":"Baden-Württemberg"}},{"name":"Stockackerweg","postalCode":"79805","locality":"Eggingen","municipality":{"key":"08337124","name":"Eggingen","type":"Kreisangehörige_Gemeinde"},"district":{"key":"08337","name":"Waldshut","type":"Landkreis"},"federalState":{"key":"08","name":"Baden-Württemberg"}},{"name":"Stöckleweg","postalCode":"79805","locality":"Eggingen","municipality":{"key":"08337124","name":"Eggingen","type":"Kreisangehörige_Gemeinde"},"district":{"key":"08337","name":"Waldshut","type":"Landkreis"},"federalState":{"key":"08","name":"Baden-Württemberg"}},{"name":"Strasselteichweg","postalCode":"73326","locality":"Deggingen","municipality":{"key":"08117014","name":"Deggingen","type":"Kreisangehörige_Gemeinde"},"district":{"key":"08117","name":"Göppingen","type":"Landkreis"},"federalState":{"key":"08","name":"Baden-Württemberg"}},{"name":"Striezelweg","postalCode":"73326","locality":"Deggingen","municipality":{"key":"08117014","name":"Deggingen","type":"Kreisangehörige_Gemeinde"},"district":{"key":"08117","name":"Göppingen","type":"Landkreis"},"federalState":{"key":"08","name":"Baden-Württemberg"}},{"name":"Stühlinger Str.","postalCode":"79805","locality":"Eggingen","municipality":{"key":"08337124","name":"Eggingen","type":"Kreisangehörige_Gemeinde"},"district":{"key":"08337","name":"Waldshut","type":"Landkreis"},"federalState":{"key":"08","name":"Baden-Württemberg"}},{"name":"Sudetenstr.","postalCode":"73326","locality":"Deggingen","municipality":{"key":"08117014","name":"Deggingen","type":"Kreisangehörige_Gemeinde"},"district":{"key":"08117","name":"Göppingen","type":"Landkreis"},"federalState":{"key":"08","name":"Baden-Württemberg"}},{"name":"Sudetenstr.","postalCode":"86751","locality":"Mönchsdeggingen","municipality":{"key":"09779184","name":"Mönchsdeggingen","type":"Kreisangehörige_Gemeinde"},"district":{"key":"09779","name":"Donau-Ries","type":"Landkreis"},"federalState":{"key":"09","name":"Bayern"}},{"name":"Talblick","postalCode":"79805","locality":"Eggingen","municipality":{"key":"08337124","name":"Eggingen","type":"Kreisangehörige_Gemeinde"},"district":{"key":"08337","name":"Waldshut","type":"Landkreis"},"federalState":{"key":"08","name":"Baden-Württemberg"}},{"name":"Tälesbahnradweg","postalCode":"73326","locality":"Deggingen","municipality":{"key":"08117014","name":"Deggingen","type":"Kreisangehörige_Gemeinde"},"district":{"key":"08117","name":"Göppingen","type":"Landkreis"},"federalState":{"key":"08","name":"Baden-Württemberg"}},{"name":"Totensteige","postalCode":"73326","locality":"Deggingen","municipality":{"key":"08117014","name":"Deggingen","type":"Kreisangehörige_Gemeinde"},"district":{"key":"08117","name":"Göppingen","type":"Landkreis"},"federalState":{"key":"08","name":"Baden-Württemberg"}},{"name":"Tulpenweg","postalCode":"73326","locality":"Deggingen","municipality":{"key":"08117014","name":"Deggingen","type":"Kreisangehörige_Gemeinde"},"district":{"key":"08117","name":"Göppingen","type":"Landkreis"},"federalState":{"key":"08","name":"Baden-Württemberg"}},{"name":"Uhlandstr.","postalCode":"73326","locality":"Deggingen","municipality":{"key":"08117014","name":"Deggingen","type":"Kreisangehörige_Gemeinde"},"district":{"key":"08117","name":"Göppingen","type":"Landkreis"},"federalState":{"key":"08","name":"Baden-Württemberg"}},{"name":"Ulmenstr.","postalCode":"73326","locality":"Deggingen","municipality":{"key":"08117014","name":"Deggingen","type":"Kreisangehörige_Gemeinde"},"district":{"key":"08117","name":"Göppingen","type":"Landkreis"},"federalState":{"key":"08","name":"Baden-Württemberg"}},{"name":"Ulrich-Schweizer-Str.","postalCode":"73326","locality":"Deggingen","municipality":{"key":"08117014","name":"Deggingen","type":"Kreisangehörige_Gemeinde"},"district":{"key":"08117","name":"Göppingen","type":"Landkreis"},"federalState":{"key":"08","name":"Baden-Württemberg"}},{"name":"Untere Ostlandstr.","postalCode":"73326","locality":"Deggingen","municipality":{"key":"08117014","name":"Deggingen","type":"Kreisangehörige_Gemeinde"},"district":{"key":"08117","name":"Göppingen","type":"Landkreis"},"federalState":{"key":"08","name":"Baden-Württemberg"}},{"name":"Unterer Mittelbuckweg","postalCode":"79805","locality":"Eggingen","municipality":{"key":"08337124","name":"Eggingen","type":"Kreisangehörige_Gemeinde"},"district":{"key":"08337","name":"Waldshut","type":"Landkreis"},"federalState":{"key":"08","name":"Baden-Württemberg"}},{"name":"Unterer Ölbachweg","postalCode":"73326","locality":"Deggingen","municipality":{"key":"08117014","name":"Deggingen","type":"Kreisangehörige_Gemeinde"},"district":{"key":"08117","name":"Göppingen","type":"Landkreis"},"federalState":{"key":"08","name":"Baden-Württemberg"}},{"name":"Von-Kilian-Str.","postalCode":"79761","locality":"Waldshut-Tiengen","municipality":{"key":"08337126","name":"Waldshut-Tiengen, Stadt","type":"Große_Kreisstadt"},"district":{"key":"08337","name":"Waldshut","type":"Landkreis"},"federalState":{"key":"08","name":"Baden-Württemberg"}},{"name":"Von-Opel-Str.","postalCode":"79761","locality":"Waldshut-Tiengen","municipality":{"key":"08337126","name":"Waldshut-Tiengen, Stadt","type":"Große_Kreisstadt"},"district":{"key":"08337","name":"Waldshut","type":"Landkreis"},"federalState":{"key":"08","name":"Baden-Württemberg"}},{"name":"Wacholderweg","postalCode":"73326","locality":"Deggingen","municipality":{"key":"08117014","name":"Deggingen","type":"Kreisangehörige_Gemeinde"},"district":{"key":"08117","name":"Göppingen","type":"Landkreis"},"federalState":{"key":"08","name":"Baden-Württemberg"}},{"name":"Waldshuter Str.","postalCode":"79805","locality":"Eggingen","municipality":{"key":"08337124","name":"Eggingen","type":"Kreisangehörige_Gemeinde"},"district":{"key":"08337","name":"Waldshut","type":"Landkreis"},"federalState":{"key":"08","name":"Baden-Württemberg"}},{"name":"Waldweg","postalCode":"73326","locality":"Deggingen","municipality":{"key":"08117014","name":"Deggingen","type":"Kreisangehörige_Gemeinde"},"district":{"key":"08117","name":"Göppingen","type":"Landkreis"},"federalState":{"key":"08","name":"Baden-Württemberg"}},{"name":"Wasserbergsteige","postalCode":"73326","locality":"Deggingen","municipality":{"key":"08117014","name":"Deggingen","type":"Kreisangehörige_Gemeinde"},"district":{"key":"08117","name":"Göppingen","type":"Landkreis"},"federalState":{"key":"08","name":"Baden-Württemberg"}},{"name":"Wasserbergweg","postalCode":"73326","locality":"Deggingen","municipality":{"key":"08117014","name":"Deggingen","type":"Kreisangehörige_Gemeinde"},"district":{"key":"08117","name":"Göppingen","type":"Landkreis"},"federalState":{"key":"08","name":"Baden-Württemberg"}},{"name":"Weiherstr.","postalCode":"73326","locality":"Deggingen","municipality":{"key":"08117014","name":"Deggingen","type":"Kreisangehörige_Gemeinde"},"district":{"key":"08117","name":"Göppingen","type":"Landkreis"},"federalState":{"key":"08","name":"Baden-Württemberg"}},{"name":"Weisstannenkopf","postalCode":"79805","locality":"Eggingen","municipality":{"key":"08337124","name":"Eggingen","type":"Kreisangehörige_Gemeinde"},"district":{"key":"08337","name":"Waldshut","type":"Landkreis"},"federalState":{"key":"08","name":"Baden-Württemberg"}},{"name":"Wengenweg","postalCode":"73326","locality":"Deggingen","municipality":{"key":"08117014","name":"Deggingen","type":"Kreisangehörige_Gemeinde"},"district":{"key":"08117","name":"Göppingen","type":"Landkreis"},"federalState":{"key":"08","name":"Baden-Württemberg"}},{"name":"Winterhalde","postalCode":"73326","locality":"Deggingen","municipality":{"key":"08117014","name":"Deggingen","type":"Kreisangehörige_Gemeinde"},"district":{"key":"08117","name":"Göppingen","type":"Landkreis"},"federalState":{"key":"08","name":"Baden-Württemberg"}},{"name":"Winterweg","postalCode":"79805","locality":"Eggingen","municipality":{"key":"08337124","name":"Eggingen","type":"Kreisangehörige_Gemeinde"},"district":{"key":"08337","name":"Waldshut","type":"Landkreis"},"federalState":{"key":"08","name":"Baden-Württemberg"}},{"name":"Wutachweg","postalCode":"79805","locality":"Eggingen","municipality":{"key":"08337124","name":"Eggingen","type":"Kreisangehörige_Gemeinde"},"district":{"key":"08337","name":"Waldshut","type":"Landkreis"},"federalState":{"key":"08","name":"Baden-Württemberg"}},{"name":"Ziswingen","postalCode":"86751","locality":"Mönchsdeggingen","municipality":{"key":"09779184","name":"Mönchsdeggingen","type":"Kreisangehörige_Gemeinde"},"district":{"key":"09779","name":"Donau-Ries","type":"Landkreis"},"federalState":{"key":"09","name":"Bayern"}},{"name":"Äuleweg","postalCode":"79761","locality":"Waldshut-Tiengen","municipality":{"key":"08337126","name":"Waldshut-Tiengen, Stadt","type":"Große_Kreisstadt"},"district":{"key":"08337","name":"Waldshut","type":"Landkreis"},"federalState":{"key":"08","name":"Baden-Württemberg"}},{"name":"Öschweg","postalCode":"73326","locality":"Deggingen","municipality":{"key":"08117014","name":"Deggingen","type":"Kreisangehörige_Gemeinde"},"district":{"key":"08117","name":"Göppingen","type":"Landkreis"},"federalState":{"key":"08","name":"Baden-Württemberg"}},{"name":"Übertal","postalCode":"79761","locality":"Waldshut-Tiengen","municipality":{"key":"08337126","name":"Waldshut-Tiengen, Stadt","type":"Große_Kreisstadt"},"district":{"key":"08337","name":"Waldshut","type":"Landkreis"},"federalState":{"key":"08","name":"Baden-Württemberg"}},]