[{"name":"Aachener Str.","postalCode":"06796","locality":"Sandersdorf-Brehna","municipality":{"key":"15082340","name":"Sandersdorf-Brehna, Stadt","type":"Stadt"},"district":{"key":"15082","name":"Anhalt-Bitterfeld","type":"Landkreis"},"federalState":{"key":"15","name":"Sachsen-Anhalt"}},{"name":"Ahornweg","postalCode":"06792","locality":"Sandersdorf-Brehna","municipality":{"key":"15082340","name":"Sandersdorf-Brehna, Stadt","type":"Stadt"},"district":{"key":"15082","name":"Anhalt-Bitterfeld","type":"Landkreis"},"federalState":{"key":"15","name":"Sachsen-Anhalt"}},{"name":"Akazienweg","postalCode":"06792","locality":"Sandersdorf-Brehna","municipality":{"key":"15082340","name":"Sandersdorf-Brehna, Stadt","type":"Stadt"},"district":{"key":"15082","name":"Anhalt-Bitterfeld","type":"Landkreis"},"federalState":{"key":"15","name":"Sachsen-Anhalt"}},{"name":"Alte Schmiede","postalCode":"06792","locality":"Sandersdorf-Brehna","municipality":{"key":"15082340","name":"Sandersdorf-Brehna, Stadt","type":"Stadt"},"district":{"key":"15082","name":"Anhalt-Bitterfeld","type":"Landkreis"},"federalState":{"key":"15","name":"Sachsen-Anhalt"}},{"name":"Altes Gut","postalCode":"06792","locality":"Sandersdorf-Brehna","municipality":{"key":"15082340","name":"Sandersdorf-Brehna, Stadt","type":"Stadt"},"district":{"key":"15082","name":"Anhalt-Bitterfeld","type":"Landkreis"},"federalState":{"key":"15","name":"Sachsen-Anhalt"}},{"name":"Am Anger","postalCode":"06792","locality":"Sandersdorf-Brehna","municipality":{"key":"15082340","name":"Sandersdorf-Brehna, Stadt","type":"Stadt"},"district":{"key":"15082","name":"Anhalt-Bitterfeld","type":"Landkreis"},"federalState":{"key":"15","name":"Sachsen-Anhalt"}},{"name":"Am Dorfteich","postalCode":"06792","locality":"Sandersdorf-Brehna","municipality":{"key":"15082340","name":"Sandersdorf-Brehna, Stadt","type":"Stadt"},"district":{"key":"15082","name":"Anhalt-Bitterfeld","type":"Landkreis"},"federalState":{"key":"15","name":"Sachsen-Anhalt"}},{"name":"Am Goitzscherand","postalCode":"06809","locality":"Sandersdorf-Brehna","municipality":{"key":"15082340","name":"Sandersdorf-Brehna, Stadt","type":"Stadt"},"district":{"key":"15082","name":"Anhalt-Bitterfeld","type":"Landkreis"},"federalState":{"key":"15","name":"Sachsen-Anhalt"}},{"name":"Am grünen Feld","postalCode":"06792","locality":"Sandersdorf-Brehna","municipality":{"key":"15082340","name":"Sandersdorf-Brehna, Stadt","type":"Stadt"},"district":{"key":"15082","name":"Anhalt-Bitterfeld","type":"Landkreis"},"federalState":{"key":"15","name":"Sachsen-Anhalt"}},{"name":"Am Markt","postalCode":"06792","locality":"Sandersdorf-Brehna","municipality":{"key":"15082340","name":"Sandersdorf-Brehna, Stadt","type":"Stadt"},"district":{"key":"15082","name":"Anhalt-Bitterfeld","type":"Landkreis"},"federalState":{"key":"15","name":"Sachsen-Anhalt"}},{"name":"Am Molkereiteich","postalCode":"06809","locality":"Sandersdorf-Brehna","municipality":{"key":"15082340","name":"Sandersdorf-Brehna, Stadt","type":"Stadt"},"district":{"key":"15082","name":"Anhalt-Bitterfeld","type":"Landkreis"},"federalState":{"key":"15","name":"Sachsen-Anhalt"}},{"name":"Am Schrebergarten","postalCode":"06792","locality":"Sandersdorf-Brehna","municipality":{"key":"15082340","name":"Sandersdorf-Brehna, Stadt","type":"Stadt"},"district":{"key":"15082","name":"Anhalt-Bitterfeld","type":"Landkreis"},"federalState":{"key":"15","name":"Sachsen-Anhalt"}},{"name":"Am Schützenplatz","postalCode":"06796","locality":"Sandersdorf-Brehna","municipality":{"key":"15082340","name":"Sandersdorf-Brehna, Stadt","type":"Stadt"},"district":{"key":"15082","name":"Anhalt-Bitterfeld","type":"Landkreis"},"federalState":{"key":"15","name":"Sachsen-Anhalt"}},{"name":"Am See","postalCode":"06792","locality":"Sandersdorf-Brehna","municipality":{"key":"15082340","name":"Sandersdorf-Brehna, Stadt","type":"Stadt"},"district":{"key":"15082","name":"Anhalt-Bitterfeld","type":"Landkreis"},"federalState":{"key":"15","name":"Sachsen-Anhalt"}},{"name":"Amselstieg","postalCode":"06792","locality":"Sandersdorf-Brehna","municipality":{"key":"15082340","name":"Sandersdorf-Brehna, Stadt","type":"Stadt"},"district":{"key":"15082","name":"Anhalt-Bitterfeld","type":"Landkreis"},"federalState":{"key":"15","name":"Sachsen-Anhalt"}},{"name":"Am Sportplatz","postalCode":"06792","locality":"Sandersdorf-Brehna","municipality":{"key":"15082340","name":"Sandersdorf-Brehna, Stadt","type":"Stadt"},"district":{"key":"15082","name":"Anhalt-Bitterfeld","type":"Landkreis"},"federalState":{"key":"15","name":"Sachsen-Anhalt"}},{"name":"Am Sportplatz","postalCode":"06809","locality":"Sandersdorf-Brehna","municipality":{"key":"15082340","name":"Sandersdorf-Brehna, Stadt","type":"Stadt"},"district":{"key":"15082","name":"Anhalt-Bitterfeld","type":"Landkreis"},"federalState":{"key":"15","name":"Sachsen-Anhalt"}},{"name":"Am Sportzentrum","postalCode":"06792","locality":"Sandersdorf-Brehna","municipality":{"key":"15082340","name":"Sandersdorf-Brehna, Stadt","type":"Stadt"},"district":{"key":"15082","name":"Anhalt-Bitterfeld","type":"Landkreis"},"federalState":{"key":"15","name":"Sachsen-Anhalt"}},{"name":"Am Waldesrand","postalCode":"06792","locality":"Sandersdorf-Brehna","municipality":{"key":"15082340","name":"Sandersdorf-Brehna, Stadt","type":"Stadt"},"district":{"key":"15082","name":"Anhalt-Bitterfeld","type":"Landkreis"},"federalState":{"key":"15","name":"Sachsen-Anhalt"}},{"name":"Am Waldesrand","postalCode":"06809","locality":"Sandersdorf-Brehna","municipality":{"key":"15082340","name":"Sandersdorf-Brehna, Stadt","type":"Stadt"},"district":{"key":"15082","name":"Anhalt-Bitterfeld","type":"Landkreis"},"federalState":{"key":"15","name":"Sachsen-Anhalt"}},{"name":"An den Linden","postalCode":"06792","locality":"Sandersdorf-Brehna","municipality":{"key":"15082340","name":"Sandersdorf-Brehna, Stadt","type":"Stadt"},"district":{"key":"15082","name":"Anhalt-Bitterfeld","type":"Landkreis"},"federalState":{"key":"15","name":"Sachsen-Anhalt"}},{"name":"An der B 100","postalCode":"06796","locality":"Sandersdorf-Brehna","municipality":{"key":"15082340","name":"Sandersdorf-Brehna, Stadt","type":"Stadt"},"district":{"key":"15082","name":"Anhalt-Bitterfeld","type":"Landkreis"},"federalState":{"key":"15","name":"Sachsen-Anhalt"}},{"name":"An der Brehnaer Str.","postalCode":"06794","locality":"Sandersdorf-Brehna","municipality":{"key":"15082340","name":"Sandersdorf-Brehna, Stadt","type":"Stadt"},"district":{"key":"15082","name":"Anhalt-Bitterfeld","type":"Landkreis"},"federalState":{"key":"15","name":"Sachsen-Anhalt"}},{"name":"An der Festwiese","postalCode":"06792","locality":"Sandersdorf-Brehna","municipality":{"key":"15082340","name":"Sandersdorf-Brehna, Stadt","type":"Stadt"},"district":{"key":"15082","name":"Anhalt-Bitterfeld","type":"Landkreis"},"federalState":{"key":"15","name":"Sachsen-Anhalt"}},{"name":"An der Kirche","postalCode":"06792","locality":"Sandersdorf-Brehna","municipality":{"key":"15082340","name":"Sandersdorf-Brehna, Stadt","type":"Stadt"},"district":{"key":"15082","name":"Anhalt-Bitterfeld","type":"Landkreis"},"federalState":{"key":"15","name":"Sachsen-Anhalt"}},{"name":"An der Mühle","postalCode":"06792","locality":"Sandersdorf-Brehna","municipality":{"key":"15082340","name":"Sandersdorf-Brehna, Stadt","type":"Stadt"},"district":{"key":"15082","name":"Anhalt-Bitterfeld","type":"Landkreis"},"federalState":{"key":"15","name":"Sachsen-Anhalt"}},{"name":"An der Richard","postalCode":"06792","locality":"Sandersdorf-Brehna","municipality":{"key":"15082340","name":"Sandersdorf-Brehna, Stadt","type":"Stadt"},"district":{"key":"15082","name":"Anhalt-Bitterfeld","type":"Landkreis"},"federalState":{"key":"15","name":"Sachsen-Anhalt"}},{"name":"An der Schule","postalCode":"06792","locality":"Sandersdorf-Brehna","municipality":{"key":"15082340","name":"Sandersdorf-Brehna, Stadt","type":"Stadt"},"district":{"key":"15082","name":"Anhalt-Bitterfeld","type":"Landkreis"},"federalState":{"key":"15","name":"Sachsen-Anhalt"}},{"name":"Angerstr.","postalCode":"06792","locality":"Sandersdorf-Brehna","municipality":{"key":"15082340","name":"Sandersdorf-Brehna, Stadt","type":"Stadt"},"district":{"key":"15082","name":"Anhalt-Bitterfeld","type":"Landkreis"},"federalState":{"key":"15","name":"Sachsen-Anhalt"}},{"name":"Angerstr.","postalCode":"06809","locality":"Sandersdorf-Brehna","municipality":{"key":"15082340","name":"Sandersdorf-Brehna, Stadt","type":"Stadt"},"district":{"key":"15082","name":"Anhalt-Bitterfeld","type":"Landkreis"},"federalState":{"key":"15","name":"Sachsen-Anhalt"}},{"name":"Anne-Frank-Str.","postalCode":"06792","locality":"Sandersdorf-Brehna","municipality":{"key":"15082340","name":"Sandersdorf-Brehna, Stadt","type":"Stadt"},"district":{"key":"15082","name":"Anhalt-Bitterfeld","type":"Landkreis"},"federalState":{"key":"15","name":"Sachsen-Anhalt"}},{"name":"Asternweg","postalCode":"06809","locality":"Sandersdorf-Brehna","municipality":{"key":"15082340","name":"Sandersdorf-Brehna, Stadt","type":"Stadt"},"district":{"key":"15082","name":"Anhalt-Bitterfeld","type":"Landkreis"},"federalState":{"key":"15","name":"Sachsen-Anhalt"}},{"name":"Auf der Sonnenseite","postalCode":"06792","locality":"Sandersdorf-Brehna","municipality":{"key":"15082340","name":"Sandersdorf-Brehna, Stadt","type":"Stadt"},"district":{"key":"15082","name":"Anhalt-Bitterfeld","type":"Landkreis"},"federalState":{"key":"15","name":"Sachsen-Anhalt"}},{"name":"August-Bebel-Platz","postalCode":"06792","locality":"Sandersdorf-Brehna","municipality":{"key":"15082340","name":"Sandersdorf-Brehna, Stadt","type":"Stadt"},"district":{"key":"15082","name":"Anhalt-Bitterfeld","type":"Landkreis"},"federalState":{"key":"15","name":"Sachsen-Anhalt"}},{"name":"August-Bebel-Ring","postalCode":"06796","locality":"Sandersdorf-Brehna","municipality":{"key":"15082340","name":"Sandersdorf-Brehna, Stadt","type":"Stadt"},"district":{"key":"15082","name":"Anhalt-Bitterfeld","type":"Landkreis"},"federalState":{"key":"15","name":"Sachsen-Anhalt"}},{"name":"August-Bebel-Str.","postalCode":"06792","locality":"Sandersdorf-Brehna","municipality":{"key":"15082340","name":"Sandersdorf-Brehna, Stadt","type":"Stadt"},"district":{"key":"15082","name":"Anhalt-Bitterfeld","type":"Landkreis"},"federalState":{"key":"15","name":"Sachsen-Anhalt"}},{"name":"August-Bebel-Str.","postalCode":"06809","locality":"Sandersdorf-Brehna","municipality":{"key":"15082340","name":"Sandersdorf-Brehna, Stadt","type":"Stadt"},"district":{"key":"15082","name":"Anhalt-Bitterfeld","type":"Landkreis"},"federalState":{"key":"15","name":"Sachsen-Anhalt"}},{"name":"Bachstr.","postalCode":"06792","locality":"Sandersdorf-Brehna","municipality":{"key":"15082340","name":"Sandersdorf-Brehna, Stadt","type":"Stadt"},"district":{"key":"15082","name":"Anhalt-Bitterfeld","type":"Landkreis"},"federalState":{"key":"15","name":"Sachsen-Anhalt"}},{"name":"Badstr.","postalCode":"06796","locality":"Sandersdorf-Brehna","municipality":{"key":"15082340","name":"Sandersdorf-Brehna, Stadt","type":"Stadt"},"district":{"key":"15082","name":"Anhalt-Bitterfeld","type":"Landkreis"},"federalState":{"key":"15","name":"Sachsen-Anhalt"}},{"name":"Bahnhofsbaracke","postalCode":"06792","locality":"Sandersdorf-Brehna","municipality":{"key":"15082340","name":"Sandersdorf-Brehna, Stadt","type":"Stadt"},"district":{"key":"15082","name":"Anhalt-Bitterfeld","type":"Landkreis"},"federalState":{"key":"15","name":"Sachsen-Anhalt"}},{"name":"Bahnhofstr.","postalCode":"06792","locality":"Sandersdorf-Brehna","municipality":{"key":"15082340","name":"Sandersdorf-Brehna, Stadt","type":"Stadt"},"district":{"key":"15082","name":"Anhalt-Bitterfeld","type":"Landkreis"},"federalState":{"key":"15","name":"Sachsen-Anhalt"}},{"name":"Bahnhofstr.","postalCode":"06796","locality":"Sandersdorf-Brehna","municipality":{"key":"15082340","name":"Sandersdorf-Brehna, Stadt","type":"Stadt"},"district":{"key":"15082","name":"Anhalt-Bitterfeld","type":"Landkreis"},"federalState":{"key":"15","name":"Sachsen-Anhalt"}},{"name":"Bahnhofstr.","postalCode":"06809","locality":"Sandersdorf-Brehna","municipality":{"key":"15082340","name":"Sandersdorf-Brehna, Stadt","type":"Stadt"},"district":{"key":"15082","name":"Anhalt-Bitterfeld","type":"Landkreis"},"federalState":{"key":"15","name":"Sachsen-Anhalt"}},{"name":"Bahnstr.","postalCode":"06809","locality":"Sandersdorf-Brehna","municipality":{"key":"15082340","name":"Sandersdorf-Brehna, Stadt","type":"Stadt"},"district":{"key":"15082","name":"Anhalt-Bitterfeld","type":"Landkreis"},"federalState":{"key":"15","name":"Sachsen-Anhalt"}},{"name":"Bahnweg","postalCode":"06809","locality":"Sandersdorf-Brehna","municipality":{"key":"15082340","name":"Sandersdorf-Brehna, Stadt","type":"Stadt"},"district":{"key":"15082","name":"Anhalt-Bitterfeld","type":"Landkreis"},"federalState":{"key":"15","name":"Sachsen-Anhalt"}},{"name":"Baumschulenweg","postalCode":"06792","locality":"Sandersdorf-Brehna","municipality":{"key":"15082340","name":"Sandersdorf-Brehna, Stadt","type":"Stadt"},"district":{"key":"15082","name":"Anhalt-Bitterfeld","type":"Landkreis"},"federalState":{"key":"15","name":"Sachsen-Anhalt"}},{"name":"Beethovenweg","postalCode":"06792","locality":"Sandersdorf-Brehna","municipality":{"key":"15082340","name":"Sandersdorf-Brehna, Stadt","type":"Stadt"},"district":{"key":"15082","name":"Anhalt-Bitterfeld","type":"Landkreis"},"federalState":{"key":"15","name":"Sachsen-Anhalt"}},{"name":"Bergmannswinkel","postalCode":"06792","locality":"Sandersdorf-Brehna","municipality":{"key":"15082340","name":"Sandersdorf-Brehna, Stadt","type":"Stadt"},"district":{"key":"15082","name":"Anhalt-Bitterfeld","type":"Landkreis"},"federalState":{"key":"15","name":"Sachsen-Anhalt"}},{"name":"Berliner Str.","postalCode":"06796","locality":"Sandersdorf-Brehna","municipality":{"key":"15082340","name":"Sandersdorf-Brehna, Stadt","type":"Stadt"},"district":{"key":"15082","name":"Anhalt-Bitterfeld","type":"Landkreis"},"federalState":{"key":"15","name":"Sachsen-Anhalt"}},{"name":"Beyersdorfer Str.","postalCode":"06794","locality":"Sandersdorf-Brehna","municipality":{"key":"15082340","name":"Sandersdorf-Brehna, Stadt","type":"Stadt"},"district":{"key":"15082","name":"Anhalt-Bitterfeld","type":"Landkreis"},"federalState":{"key":"15","name":"Sachsen-Anhalt"}},{"name":"Birkenweg","postalCode":"06792","locality":"Sandersdorf-Brehna","municipality":{"key":"15082340","name":"Sandersdorf-Brehna, Stadt","type":"Stadt"},"district":{"key":"15082","name":"Anhalt-Bitterfeld","type":"Landkreis"},"federalState":{"key":"15","name":"Sachsen-Anhalt"}},{"name":"Bitterfelder Str.","postalCode":"06792","locality":"Sandersdorf-Brehna","municipality":{"key":"15082340","name":"Sandersdorf-Brehna, Stadt","type":"Stadt"},"district":{"key":"15082","name":"Anhalt-Bitterfeld","type":"Landkreis"},"federalState":{"key":"15","name":"Sachsen-Anhalt"}},{"name":"Bitterfelder Str.","postalCode":"06796","locality":"Sandersdorf-Brehna","municipality":{"key":"15082340","name":"Sandersdorf-Brehna, Stadt","type":"Stadt"},"district":{"key":"15082","name":"Anhalt-Bitterfeld","type":"Landkreis"},"federalState":{"key":"15","name":"Sachsen-Anhalt"}},{"name":"Brehnaer Str.","postalCode":"06792","locality":"Sandersdorf-Brehna","municipality":{"key":"15082340","name":"Sandersdorf-Brehna, Stadt","type":"Stadt"},"district":{"key":"15082","name":"Anhalt-Bitterfeld","type":"Landkreis"},"federalState":{"key":"15","name":"Sachsen-Anhalt"}},{"name":"Brehnaer Str.","postalCode":"06809","locality":"Sandersdorf-Brehna","municipality":{"key":"15082340","name":"Sandersdorf-Brehna, Stadt","type":"Stadt"},"district":{"key":"15082","name":"Anhalt-Bitterfeld","type":"Landkreis"},"federalState":{"key":"15","name":"Sachsen-Anhalt"}},{"name":"Brentanostr.","postalCode":"06792","locality":"Sandersdorf-Brehna","municipality":{"key":"15082340","name":"Sandersdorf-Brehna, Stadt","type":"Stadt"},"district":{"key":"15082","name":"Anhalt-Bitterfeld","type":"Landkreis"},"federalState":{"key":"15","name":"Sachsen-Anhalt"}},{"name":"Brombeerweg","postalCode":"06792","locality":"Sandersdorf-Brehna","municipality":{"key":"15082340","name":"Sandersdorf-Brehna, Stadt","type":"Stadt"},"district":{"key":"15082","name":"Anhalt-Bitterfeld","type":"Landkreis"},"federalState":{"key":"15","name":"Sachsen-Anhalt"}},{"name":"Buchenweg","postalCode":"06792","locality":"Sandersdorf-Brehna","municipality":{"key":"15082340","name":"Sandersdorf-Brehna, Stadt","type":"Stadt"},"district":{"key":"15082","name":"Anhalt-Bitterfeld","type":"Landkreis"},"federalState":{"key":"15","name":"Sachsen-Anhalt"}},{"name":"Charlottenweg","postalCode":"06792","locality":"Sandersdorf-Brehna","municipality":{"key":"15082340","name":"Sandersdorf-Brehna, Stadt","type":"Stadt"},"district":{"key":"15082","name":"Anhalt-Bitterfeld","type":"Landkreis"},"federalState":{"key":"15","name":"Sachsen-Anhalt"}},{"name":"Chausseestr.","postalCode":"06809","locality":"Sandersdorf-Brehna","municipality":{"key":"15082340","name":"Sandersdorf-Brehna, Stadt","type":"Stadt"},"district":{"key":"15082","name":"Anhalt-Bitterfeld","type":"Landkreis"},"federalState":{"key":"15","name":"Sachsen-Anhalt"}},{"name":"Delitzscher Str.","postalCode":"06792","locality":"Sandersdorf-Brehna","municipality":{"key":"15082340","name":"Sandersdorf-Brehna, Stadt","type":"Stadt"},"district":{"key":"15082","name":"Anhalt-Bitterfeld","type":"Landkreis"},"federalState":{"key":"15","name":"Sachsen-Anhalt"}},{"name":"Delitzscher Str.","postalCode":"06796","locality":"Sandersdorf-Brehna","municipality":{"key":"15082340","name":"Sandersdorf-Brehna, Stadt","type":"Stadt"},"district":{"key":"15082","name":"Anhalt-Bitterfeld","type":"Landkreis"},"federalState":{"key":"15","name":"Sachsen-Anhalt"}},{"name":"Dorfplatz","postalCode":"06792","locality":"Sandersdorf-Brehna","municipality":{"key":"15082340","name":"Sandersdorf-Brehna, Stadt","type":"Stadt"},"district":{"key":"15082","name":"Anhalt-Bitterfeld","type":"Landkreis"},"federalState":{"key":"15","name":"Sachsen-Anhalt"}},{"name":"Dorfplatz","postalCode":"06794","locality":"Sandersdorf-Brehna","municipality":{"key":"15082340","name":"Sandersdorf-Brehna, Stadt","type":"Stadt"},"district":{"key":"15082","name":"Anhalt-Bitterfeld","type":"Landkreis"},"federalState":{"key":"15","name":"Sachsen-Anhalt"}},{"name":"Dorfstr.","postalCode":"06792","locality":"Sandersdorf-Brehna","municipality":{"key":"15082340","name":"Sandersdorf-Brehna, Stadt","type":"Stadt"},"district":{"key":"15082","name":"Anhalt-Bitterfeld","type":"Landkreis"},"federalState":{"key":"15","name":"Sachsen-Anhalt"}},{"name":"Drosselweg","postalCode":"06792","locality":"Sandersdorf-Brehna","municipality":{"key":"15082340","name":"Sandersdorf-Brehna, Stadt","type":"Stadt"},"district":{"key":"15082","name":"Anhalt-Bitterfeld","type":"Landkreis"},"federalState":{"key":"15","name":"Sachsen-Anhalt"}},{"name":"Eigenheimstr.","postalCode":"06792","locality":"Sandersdorf-Brehna","municipality":{"key":"15082340","name":"Sandersdorf-Brehna, Stadt","type":"Stadt"},"district":{"key":"15082","name":"Anhalt-Bitterfeld","type":"Landkreis"},"federalState":{"key":"15","name":"Sachsen-Anhalt"}},{"name":"Ernst-Borsbach-Str.","postalCode":"06792","locality":"Sandersdorf-Brehna","municipality":{"key":"15082340","name":"Sandersdorf-Brehna, Stadt","type":"Stadt"},"district":{"key":"15082","name":"Anhalt-Bitterfeld","type":"Landkreis"},"federalState":{"key":"15","name":"Sachsen-Anhalt"}},{"name":"Ernst-Thälmann-Str.","postalCode":"06796","locality":"Sandersdorf-Brehna","municipality":{"key":"15082340","name":"Sandersdorf-Brehna, Stadt","type":"Stadt"},"district":{"key":"15082","name":"Anhalt-Bitterfeld","type":"Landkreis"},"federalState":{"key":"15","name":"Sachsen-Anhalt"}},{"name":"Ernst-Thälmann-Str.","postalCode":"06809","locality":"Sandersdorf-Brehna","municipality":{"key":"15082340","name":"Sandersdorf-Brehna, Stadt","type":"Stadt"},"district":{"key":"15082","name":"Anhalt-Bitterfeld","type":"Landkreis"},"federalState":{"key":"15","name":"Sachsen-Anhalt"}},{"name":"Extertaler Ring","postalCode":"06792","locality":"Sandersdorf-Brehna","municipality":{"key":"15082340","name":"Sandersdorf-Brehna, Stadt","type":"Stadt"},"district":{"key":"15082","name":"Anhalt-Bitterfeld","type":"Landkreis"},"federalState":{"key":"15","name":"Sachsen-Anhalt"}},{"name":"Fasanenkippe","postalCode":"06792","locality":"Sandersdorf-Brehna","municipality":{"key":"15082340","name":"Sandersdorf-Brehna, Stadt","type":"Stadt"},"district":{"key":"15082","name":"Anhalt-Bitterfeld","type":"Landkreis"},"federalState":{"key":"15","name":"Sachsen-Anhalt"}},{"name":"Fasanenweg","postalCode":"06792","locality":"Sandersdorf-Brehna","municipality":{"key":"15082340","name":"Sandersdorf-Brehna, Stadt","type":"Stadt"},"district":{"key":"15082","name":"Anhalt-Bitterfeld","type":"Landkreis"},"federalState":{"key":"15","name":"Sachsen-Anhalt"}},{"name":"Feldrain","postalCode":"06792","locality":"Sandersdorf-Brehna","municipality":{"key":"15082340","name":"Sandersdorf-Brehna, Stadt","type":"Stadt"},"district":{"key":"15082","name":"Anhalt-Bitterfeld","type":"Landkreis"},"federalState":{"key":"15","name":"Sachsen-Anhalt"}},{"name":"Feldstr.","postalCode":"06792","locality":"Sandersdorf-Brehna","municipality":{"key":"15082340","name":"Sandersdorf-Brehna, Stadt","type":"Stadt"},"district":{"key":"15082","name":"Anhalt-Bitterfeld","type":"Landkreis"},"federalState":{"key":"15","name":"Sachsen-Anhalt"}},{"name":"Feldstr.","postalCode":"06809","locality":"Sandersdorf-Brehna","municipality":{"key":"15082340","name":"Sandersdorf-Brehna, Stadt","type":"Stadt"},"district":{"key":"15082","name":"Anhalt-Bitterfeld","type":"Landkreis"},"federalState":{"key":"15","name":"Sachsen-Anhalt"}},{"name":"Feldweg","postalCode":"06792","locality":"Sandersdorf-Brehna","municipality":{"key":"15082340","name":"Sandersdorf-Brehna, Stadt","type":"Stadt"},"district":{"key":"15082","name":"Anhalt-Bitterfeld","type":"Landkreis"},"federalState":{"key":"15","name":"Sachsen-Anhalt"}},{"name":"Fichtestr.","postalCode":"06792","locality":"Sandersdorf-Brehna","municipality":{"key":"15082340","name":"Sandersdorf-Brehna, Stadt","type":"Stadt"},"district":{"key":"15082","name":"Anhalt-Bitterfeld","type":"Landkreis"},"federalState":{"key":"15","name":"Sachsen-Anhalt"}},{"name":"Finkenhain","postalCode":"06792","locality":"Sandersdorf-Brehna","municipality":{"key":"15082340","name":"Sandersdorf-Brehna, Stadt","type":"Stadt"},"district":{"key":"15082","name":"Anhalt-Bitterfeld","type":"Landkreis"},"federalState":{"key":"15","name":"Sachsen-Anhalt"}},{"name":"Finnhüttenweg","postalCode":"06809","locality":"Sandersdorf-Brehna","municipality":{"key":"15082340","name":"Sandersdorf-Brehna, Stadt","type":"Stadt"},"district":{"key":"15082","name":"Anhalt-Bitterfeld","type":"Landkreis"},"federalState":{"key":"15","name":"Sachsen-Anhalt"}},{"name":"Fliederweg","postalCode":"06792","locality":"Sandersdorf-Brehna","municipality":{"key":"15082340","name":"Sandersdorf-Brehna, Stadt","type":"Stadt"},"district":{"key":"15082","name":"Anhalt-Bitterfeld","type":"Landkreis"},"federalState":{"key":"15","name":"Sachsen-Anhalt"}},{"name":"Franz-Weise-Str.","postalCode":"06792","locality":"Sandersdorf-Brehna","municipality":{"key":"15082340","name":"Sandersdorf-Brehna, Stadt","type":"Stadt"},"district":{"key":"15082","name":"Anhalt-Bitterfeld","type":"Landkreis"},"federalState":{"key":"15","name":"Sachsen-Anhalt"}},{"name":"Freiheit","postalCode":"06796","locality":"Sandersdorf-Brehna","municipality":{"key":"15082340","name":"Sandersdorf-Brehna, Stadt","type":"Stadt"},"district":{"key":"15082","name":"Anhalt-Bitterfeld","type":"Landkreis"},"federalState":{"key":"15","name":"Sachsen-Anhalt"}},{"name":"Freiligrathstr.","postalCode":"06792","locality":"Sandersdorf-Brehna","municipality":{"key":"15082340","name":"Sandersdorf-Brehna, Stadt","type":"Stadt"},"district":{"key":"15082","name":"Anhalt-Bitterfeld","type":"Landkreis"},"federalState":{"key":"15","name":"Sachsen-Anhalt"}},{"name":"Friedensplatz","postalCode":"06794","locality":"Sandersdorf-Brehna","municipality":{"key":"15082340","name":"Sandersdorf-Brehna, Stadt","type":"Stadt"},"district":{"key":"15082","name":"Anhalt-Bitterfeld","type":"Landkreis"},"federalState":{"key":"15","name":"Sachsen-Anhalt"}},{"name":"Friedensstr.","postalCode":"06792","locality":"Sandersdorf-Brehna","municipality":{"key":"15082340","name":"Sandersdorf-Brehna, Stadt","type":"Stadt"},"district":{"key":"15082","name":"Anhalt-Bitterfeld","type":"Landkreis"},"federalState":{"key":"15","name":"Sachsen-Anhalt"}},{"name":"Friedhofsweg","postalCode":"06796","locality":"Sandersdorf-Brehna","municipality":{"key":"15082340","name":"Sandersdorf-Brehna, Stadt","type":"Stadt"},"district":{"key":"15082","name":"Anhalt-Bitterfeld","type":"Landkreis"},"federalState":{"key":"15","name":"Sachsen-Anhalt"}},{"name":"Friedrich-Ebert-Str.","postalCode":"06792","locality":"Sandersdorf-Brehna","municipality":{"key":"15082340","name":"Sandersdorf-Brehna, Stadt","type":"Stadt"},"district":{"key":"15082","name":"Anhalt-Bitterfeld","type":"Landkreis"},"federalState":{"key":"15","name":"Sachsen-Anhalt"}},{"name":"Friedrich-Ebert-Str.","postalCode":"06809","locality":"Sandersdorf-Brehna","municipality":{"key":"15082340","name":"Sandersdorf-Brehna, Stadt","type":"Stadt"},"district":{"key":"15082","name":"Anhalt-Bitterfeld","type":"Landkreis"},"federalState":{"key":"15","name":"Sachsen-Anhalt"}},{"name":"Fritz-Reuter-Str.","postalCode":"06792","locality":"Sandersdorf-Brehna","municipality":{"key":"15082340","name":"Sandersdorf-Brehna, Stadt","type":"Stadt"},"district":{"key":"15082","name":"Anhalt-Bitterfeld","type":"Landkreis"},"federalState":{"key":"15","name":"Sachsen-Anhalt"}},{"name":"Gartenstadt","postalCode":"06796","locality":"Sandersdorf-Brehna","municipality":{"key":"15082340","name":"Sandersdorf-Brehna, Stadt","type":"Stadt"},"district":{"key":"15082","name":"Anhalt-Bitterfeld","type":"Landkreis"},"federalState":{"key":"15","name":"Sachsen-Anhalt"}},{"name":"Gartenstr.","postalCode":"06792","locality":"Sandersdorf-Brehna","municipality":{"key":"15082340","name":"Sandersdorf-Brehna, Stadt","type":"Stadt"},"district":{"key":"15082","name":"Anhalt-Bitterfeld","type":"Landkreis"},"federalState":{"key":"15","name":"Sachsen-Anhalt"}},{"name":"Gartenstr.","postalCode":"06809","locality":"Sandersdorf-Brehna","municipality":{"key":"15082340","name":"Sandersdorf-Brehna, Stadt","type":"Stadt"},"district":{"key":"15082","name":"Anhalt-Bitterfeld","type":"Landkreis"},"federalState":{"key":"15","name":"Sachsen-Anhalt"}},{"name":"Genossenschaftsstr.","postalCode":"06809","locality":"Sandersdorf-Brehna","municipality":{"key":"15082340","name":"Sandersdorf-Brehna, Stadt","type":"Stadt"},"district":{"key":"15082","name":"Anhalt-Bitterfeld","type":"Landkreis"},"federalState":{"key":"15","name":"Sachsen-Anhalt"}},{"name":"Ginsterweg","postalCode":"06792","locality":"Sandersdorf-Brehna","municipality":{"key":"15082340","name":"Sandersdorf-Brehna, Stadt","type":"Stadt"},"district":{"key":"15082","name":"Anhalt-Bitterfeld","type":"Landkreis"},"federalState":{"key":"15","name":"Sachsen-Anhalt"}},{"name":"Glebitzscher Str.","postalCode":"06792","locality":"Sandersdorf-Brehna","municipality":{"key":"15082340","name":"Sandersdorf-Brehna, Stadt","type":"Stadt"},"district":{"key":"15082","name":"Anhalt-Bitterfeld","type":"Landkreis"},"federalState":{"key":"15","name":"Sachsen-Anhalt"}},{"name":"Glebitzscher Str.","postalCode":"06794","locality":"Sandersdorf-Brehna","municipality":{"key":"15082340","name":"Sandersdorf-Brehna, Stadt","type":"Stadt"},"district":{"key":"15082","name":"Anhalt-Bitterfeld","type":"Landkreis"},"federalState":{"key":"15","name":"Sachsen-Anhalt"}},{"name":"Glebitzscher Str.","postalCode":"06796","locality":"Sandersdorf-Brehna","municipality":{"key":"15082340","name":"Sandersdorf-Brehna, Stadt","type":"Stadt"},"district":{"key":"15082","name":"Anhalt-Bitterfeld","type":"Landkreis"},"federalState":{"key":"15","name":"Sachsen-Anhalt"}},{"name":"Glück-Auf-Siedlung","postalCode":"06792","locality":"Sandersdorf-Brehna","municipality":{"key":"15082340","name":"Sandersdorf-Brehna, Stadt","type":"Stadt"},"district":{"key":"15082","name":"Anhalt-Bitterfeld","type":"Landkreis"},"federalState":{"key":"15","name":"Sachsen-Anhalt"}},{"name":"Goethestr.","postalCode":"06792","locality":"Sandersdorf-Brehna","municipality":{"key":"15082340","name":"Sandersdorf-Brehna, Stadt","type":"Stadt"},"district":{"key":"15082","name":"Anhalt-Bitterfeld","type":"Landkreis"},"federalState":{"key":"15","name":"Sachsen-Anhalt"}},{"name":"Goethestr.","postalCode":"06796","locality":"Sandersdorf-Brehna","municipality":{"key":"15082340","name":"Sandersdorf-Brehna, Stadt","type":"Stadt"},"district":{"key":"15082","name":"Anhalt-Bitterfeld","type":"Landkreis"},"federalState":{"key":"15","name":"Sachsen-Anhalt"}},{"name":"Gördenitzer Weg","postalCode":"06796","locality":"Sandersdorf-Brehna","municipality":{"key":"15082340","name":"Sandersdorf-Brehna, Stadt","type":"Stadt"},"district":{"key":"15082","name":"Anhalt-Bitterfeld","type":"Landkreis"},"federalState":{"key":"15","name":"Sachsen-Anhalt"}},{"name":"Greppiner Str.","postalCode":"06792","locality":"Sandersdorf-Brehna","municipality":{"key":"15082340","name":"Sandersdorf-Brehna, Stadt","type":"Stadt"},"district":{"key":"15082","name":"Anhalt-Bitterfeld","type":"Landkreis"},"federalState":{"key":"15","name":"Sachsen-Anhalt"}},{"name":"Gretchenweg","postalCode":"06809","locality":"Sandersdorf-Brehna","municipality":{"key":"15082340","name":"Sandersdorf-Brehna, Stadt","type":"Stadt"},"district":{"key":"15082","name":"Anhalt-Bitterfeld","type":"Landkreis"},"federalState":{"key":"15","name":"Sachsen-Anhalt"}},{"name":"Große Gasse","postalCode":"06792","locality":"Sandersdorf-Brehna","municipality":{"key":"15082340","name":"Sandersdorf-Brehna, Stadt","type":"Stadt"},"district":{"key":"15082","name":"Anhalt-Bitterfeld","type":"Landkreis"},"federalState":{"key":"15","name":"Sachsen-Anhalt"}},{"name":"Großzöberitzer Str.","postalCode":"06794","locality":"Sandersdorf-Brehna","municipality":{"key":"15082340","name":"Sandersdorf-Brehna, Stadt","type":"Stadt"},"district":{"key":"15082","name":"Anhalt-Bitterfeld","type":"Landkreis"},"federalState":{"key":"15","name":"Sachsen-Anhalt"}},{"name":"Grünstr.","postalCode":"06792","locality":"Sandersdorf-Brehna","municipality":{"key":"15082340","name":"Sandersdorf-Brehna, Stadt","type":"Stadt"},"district":{"key":"15082","name":"Anhalt-Bitterfeld","type":"Landkreis"},"federalState":{"key":"15","name":"Sachsen-Anhalt"}},{"name":"Hallesche Str.","postalCode":"06796","locality":"Sandersdorf-Brehna","municipality":{"key":"15082340","name":"Sandersdorf-Brehna, Stadt","type":"Stadt"},"district":{"key":"15082","name":"Anhalt-Bitterfeld","type":"Landkreis"},"federalState":{"key":"15","name":"Sachsen-Anhalt"}},{"name":"Hallesche Str.","postalCode":"06809","locality":"Sandersdorf-Brehna","municipality":{"key":"15082340","name":"Sandersdorf-Brehna, Stadt","type":"Stadt"},"district":{"key":"15082","name":"Anhalt-Bitterfeld","type":"Landkreis"},"federalState":{"key":"15","name":"Sachsen-Anhalt"}},{"name":"Hauptstr.","postalCode":"06792","locality":"Sandersdorf-Brehna","municipality":{"key":"15082340","name":"Sandersdorf-Brehna, Stadt","type":"Stadt"},"district":{"key":"15082","name":"Anhalt-Bitterfeld","type":"Landkreis"},"federalState":{"key":"15","name":"Sachsen-Anhalt"}},{"name":"Hauptstr.","postalCode":"06809","locality":"Sandersdorf-Brehna","municipality":{"key":"15082340","name":"Sandersdorf-Brehna, Stadt","type":"Stadt"},"district":{"key":"15082","name":"Anhalt-Bitterfeld","type":"Landkreis"},"federalState":{"key":"15","name":"Sachsen-Anhalt"}},{"name":"Heideloher Str.","postalCode":"06792","locality":"Sandersdorf-Brehna","municipality":{"key":"15082340","name":"Sandersdorf-Brehna, Stadt","type":"Stadt"},"district":{"key":"15082","name":"Anhalt-Bitterfeld","type":"Landkreis"},"federalState":{"key":"15","name":"Sachsen-Anhalt"}},{"name":"Heinrich-Heine-Ring","postalCode":"06809","locality":"Sandersdorf-Brehna","municipality":{"key":"15082340","name":"Sandersdorf-Brehna, Stadt","type":"Stadt"},"district":{"key":"15082","name":"Anhalt-Bitterfeld","type":"Landkreis"},"federalState":{"key":"15","name":"Sachsen-Anhalt"}},{"name":"Heinrich-Heine-Str.","postalCode":"06792","locality":"Sandersdorf-Brehna","municipality":{"key":"15082340","name":"Sandersdorf-Brehna, Stadt","type":"Stadt"},"district":{"key":"15082","name":"Anhalt-Bitterfeld","type":"Landkreis"},"federalState":{"key":"15","name":"Sachsen-Anhalt"}},{"name":"Heinrich-Hertz-Str.","postalCode":"06796","locality":"Sandersdorf-Brehna","municipality":{"key":"15082340","name":"Sandersdorf-Brehna, Stadt","type":"Stadt"},"district":{"key":"15082","name":"Anhalt-Bitterfeld","type":"Landkreis"},"federalState":{"key":"15","name":"Sachsen-Anhalt"}},{"name":"Heinrich-Richter-Str.","postalCode":"06792","locality":"Sandersdorf-Brehna","municipality":{"key":"15082340","name":"Sandersdorf-Brehna, Stadt","type":"Stadt"},"district":{"key":"15082","name":"Anhalt-Bitterfeld","type":"Landkreis"},"federalState":{"key":"15","name":"Sachsen-Anhalt"}},{"name":"Herderstr.","postalCode":"06792","locality":"Sandersdorf-Brehna","municipality":{"key":"15082340","name":"Sandersdorf-Brehna, Stadt","type":"Stadt"},"district":{"key":"15082","name":"Anhalt-Bitterfeld","type":"Landkreis"},"federalState":{"key":"15","name":"Sachsen-Anhalt"}},{"name":"Herderstr.","postalCode":"06796","locality":"Sandersdorf-Brehna","municipality":{"key":"15082340","name":"Sandersdorf-Brehna, Stadt","type":"Stadt"},"district":{"key":"15082","name":"Anhalt-Bitterfeld","type":"Landkreis"},"federalState":{"key":"15","name":"Sachsen-Anhalt"}},{"name":"Hermann-Schlittgen-Str.","postalCode":"06809","locality":"Sandersdorf-Brehna","municipality":{"key":"15082340","name":"Sandersdorf-Brehna, Stadt","type":"Stadt"},"district":{"key":"15082","name":"Anhalt-Bitterfeld","type":"Landkreis"},"federalState":{"key":"15","name":"Sachsen-Anhalt"}},{"name":"Hintere Dorfstr.","postalCode":"06794","locality":"Sandersdorf-Brehna","municipality":{"key":"15082340","name":"Sandersdorf-Brehna, Stadt","type":"Stadt"},"district":{"key":"15082","name":"Anhalt-Bitterfeld","type":"Landkreis"},"federalState":{"key":"15","name":"Sachsen-Anhalt"}},{"name":"Historischer Park","postalCode":"06796","locality":"Sandersdorf-Brehna","municipality":{"key":"15082340","name":"Sandersdorf-Brehna, Stadt","type":"Stadt"},"district":{"key":"15082","name":"Anhalt-Bitterfeld","type":"Landkreis"},"federalState":{"key":"15","name":"Sachsen-Anhalt"}},{"name":"Hohlweg","postalCode":"06796","locality":"Sandersdorf-Brehna","municipality":{"key":"15082340","name":"Sandersdorf-Brehna, Stadt","type":"Stadt"},"district":{"key":"15082","name":"Anhalt-Bitterfeld","type":"Landkreis"},"federalState":{"key":"15","name":"Sachsen-Anhalt"}},{"name":"Holunderweg","postalCode":"06792","locality":"Sandersdorf-Brehna","municipality":{"key":"15082340","name":"Sandersdorf-Brehna, Stadt","type":"Stadt"},"district":{"key":"15082","name":"Anhalt-Bitterfeld","type":"Landkreis"},"federalState":{"key":"15","name":"Sachsen-Anhalt"}},{"name":"Hugo-Lützner-Str.","postalCode":"06792","locality":"Sandersdorf-Brehna","municipality":{"key":"15082340","name":"Sandersdorf-Brehna, Stadt","type":"Stadt"},"district":{"key":"15082","name":"Anhalt-Bitterfeld","type":"Landkreis"},"federalState":{"key":"15","name":"Sachsen-Anhalt"}},{"name":"Immergrünweg","postalCode":"06792","locality":"Sandersdorf-Brehna","municipality":{"key":"15082340","name":"Sandersdorf-Brehna, Stadt","type":"Stadt"},"district":{"key":"15082","name":"Anhalt-Bitterfeld","type":"Landkreis"},"federalState":{"key":"15","name":"Sachsen-Anhalt"}},{"name":"Innere Dorfstr.","postalCode":"06792","locality":"Sandersdorf-Brehna","municipality":{"key":"15082340","name":"Sandersdorf-Brehna, Stadt","type":"Stadt"},"district":{"key":"15082","name":"Anhalt-Bitterfeld","type":"Landkreis"},"federalState":{"key":"15","name":"Sachsen-Anhalt"}},{"name":"Johannes-Brahms-Weg","postalCode":"06796","locality":"Sandersdorf-Brehna","municipality":{"key":"15082340","name":"Sandersdorf-Brehna, Stadt","type":"Stadt"},"district":{"key":"15082","name":"Anhalt-Bitterfeld","type":"Landkreis"},"federalState":{"key":"15","name":"Sachsen-Anhalt"}},{"name":"Joseph-Haydn-Weg","postalCode":"06796","locality":"Sandersdorf-Brehna","municipality":{"key":"15082340","name":"Sandersdorf-Brehna, Stadt","type":"Stadt"},"district":{"key":"15082","name":"Anhalt-Bitterfeld","type":"Landkreis"},"federalState":{"key":"15","name":"Sachsen-Anhalt"}},{"name":"Kantweg","postalCode":"06792","locality":"Sandersdorf-Brehna","municipality":{"key":"15082340","name":"Sandersdorf-Brehna, Stadt","type":"Stadt"},"district":{"key":"15082","name":"Anhalt-Bitterfeld","type":"Landkreis"},"federalState":{"key":"15","name":"Sachsen-Anhalt"}},{"name":"Karl-Liebknecht-Str.","postalCode":"06792","locality":"Sandersdorf-Brehna","municipality":{"key":"15082340","name":"Sandersdorf-Brehna, Stadt","type":"Stadt"},"district":{"key":"15082","name":"Anhalt-Bitterfeld","type":"Landkreis"},"federalState":{"key":"15","name":"Sachsen-Anhalt"}},{"name":"Karl-Liebknecht-Str.","postalCode":"06809","locality":"Sandersdorf-Brehna","municipality":{"key":"15082340","name":"Sandersdorf-Brehna, Stadt","type":"Stadt"},"district":{"key":"15082","name":"Anhalt-Bitterfeld","type":"Landkreis"},"federalState":{"key":"15","name":"Sachsen-Anhalt"}},{"name":"Karl-Marx-Str.","postalCode":"06792","locality":"Sandersdorf-Brehna","municipality":{"key":"15082340","name":"Sandersdorf-Brehna, Stadt","type":"Stadt"},"district":{"key":"15082","name":"Anhalt-Bitterfeld","type":"Landkreis"},"federalState":{"key":"15","name":"Sachsen-Anhalt"}},{"name":"Karl-Marx-Str.","postalCode":"06794","locality":"Sandersdorf-Brehna","municipality":{"key":"15082340","name":"Sandersdorf-Brehna, Stadt","type":"Stadt"},"district":{"key":"15082","name":"Anhalt-Bitterfeld","type":"Landkreis"},"federalState":{"key":"15","name":"Sachsen-Anhalt"}},{"name":"Kiefernweg","postalCode":"06809","locality":"Sandersdorf-Brehna","municipality":{"key":"15082340","name":"Sandersdorf-Brehna, Stadt","type":"Stadt"},"district":{"key":"15082","name":"Anhalt-Bitterfeld","type":"Landkreis"},"federalState":{"key":"15","name":"Sachsen-Anhalt"}},{"name":"Kirchplatz","postalCode":"06792","locality":"Sandersdorf-Brehna","municipality":{"key":"15082340","name":"Sandersdorf-Brehna, Stadt","type":"Stadt"},"district":{"key":"15082","name":"Anhalt-Bitterfeld","type":"Landkreis"},"federalState":{"key":"15","name":"Sachsen-Anhalt"}},{"name":"Kirchplatz","postalCode":"06809","locality":"Sandersdorf-Brehna","municipality":{"key":"15082340","name":"Sandersdorf-Brehna, Stadt","type":"Stadt"},"district":{"key":"15082","name":"Anhalt-Bitterfeld","type":"Landkreis"},"federalState":{"key":"15","name":"Sachsen-Anhalt"}},{"name":"Kirchstr.","postalCode":"06794","locality":"Sandersdorf-Brehna","municipality":{"key":"15082340","name":"Sandersdorf-Brehna, Stadt","type":"Stadt"},"district":{"key":"15082","name":"Anhalt-Bitterfeld","type":"Landkreis"},"federalState":{"key":"15","name":"Sachsen-Anhalt"}},{"name":"Kirchstr.","postalCode":"06809","locality":"Sandersdorf-Brehna","municipality":{"key":"15082340","name":"Sandersdorf-Brehna, Stadt","type":"Stadt"},"district":{"key":"15082","name":"Anhalt-Bitterfeld","type":"Landkreis"},"federalState":{"key":"15","name":"Sachsen-Anhalt"}},{"name":"Kirchweg","postalCode":"06792","locality":"Sandersdorf-Brehna","municipality":{"key":"15082340","name":"Sandersdorf-Brehna, Stadt","type":"Stadt"},"district":{"key":"15082","name":"Anhalt-Bitterfeld","type":"Landkreis"},"federalState":{"key":"15","name":"Sachsen-Anhalt"}},{"name":"Kirschallee","postalCode":"06809","locality":"Sandersdorf-Brehna","municipality":{"key":"15082340","name":"Sandersdorf-Brehna, Stadt","type":"Stadt"},"district":{"key":"15082","name":"Anhalt-Bitterfeld","type":"Landkreis"},"federalState":{"key":"15","name":"Sachsen-Anhalt"}},{"name":"Kitzendorfer Platz","postalCode":"06796","locality":"Sandersdorf-Brehna","municipality":{"key":"15082340","name":"Sandersdorf-Brehna, Stadt","type":"Stadt"},"district":{"key":"15082","name":"Anhalt-Bitterfeld","type":"Landkreis"},"federalState":{"key":"15","name":"Sachsen-Anhalt"}},{"name":"Kleiner Park","postalCode":"06796","locality":"Sandersdorf-Brehna","municipality":{"key":"15082340","name":"Sandersdorf-Brehna, Stadt","type":"Stadt"},"district":{"key":"15082","name":"Anhalt-Bitterfeld","type":"Landkreis"},"federalState":{"key":"15","name":"Sachsen-Anhalt"}},{"name":"Köckernsche Str.","postalCode":"06792","locality":"Sandersdorf-Brehna","municipality":{"key":"15082340","name":"Sandersdorf-Brehna, Stadt","type":"Stadt"},"district":{"key":"15082","name":"Anhalt-Bitterfeld","type":"Landkreis"},"federalState":{"key":"15","name":"Sachsen-Anhalt"}},{"name":"Köckernsche Str.","postalCode":"06794","locality":"Sandersdorf-Brehna","municipality":{"key":"15082340","name":"Sandersdorf-Brehna, Stadt","type":"Stadt"},"district":{"key":"15082","name":"Anhalt-Bitterfeld","type":"Landkreis"},"federalState":{"key":"15","name":"Sachsen-Anhalt"}},{"name":"Kurzer Weg","postalCode":"06792","locality":"Sandersdorf-Brehna","municipality":{"key":"15082340","name":"Sandersdorf-Brehna, Stadt","type":"Stadt"},"district":{"key":"15082","name":"Anhalt-Bitterfeld","type":"Landkreis"},"federalState":{"key":"15","name":"Sachsen-Anhalt"}},{"name":"Kurze Str.","postalCode":"06792","locality":"Sandersdorf-Brehna","municipality":{"key":"15082340","name":"Sandersdorf-Brehna, Stadt","type":"Stadt"},"district":{"key":"15082","name":"Anhalt-Bitterfeld","type":"Landkreis"},"federalState":{"key":"15","name":"Sachsen-Anhalt"}},{"name":"Kurze Str.","postalCode":"06809","locality":"Sandersdorf-Brehna","municipality":{"key":"15082340","name":"Sandersdorf-Brehna, Stadt","type":"Stadt"},"district":{"key":"15082","name":"Anhalt-Bitterfeld","type":"Landkreis"},"federalState":{"key":"15","name":"Sachsen-Anhalt"}},{"name":"Lange Str.","postalCode":"06809","locality":"Sandersdorf-Brehna","municipality":{"key":"15082340","name":"Sandersdorf-Brehna, Stadt","type":"Stadt"},"district":{"key":"15082","name":"Anhalt-Bitterfeld","type":"Landkreis"},"federalState":{"key":"15","name":"Sachsen-Anhalt"}},{"name":"Lessingstr.","postalCode":"06792","locality":"Sandersdorf-Brehna","municipality":{"key":"15082340","name":"Sandersdorf-Brehna, Stadt","type":"Stadt"},"district":{"key":"15082","name":"Anhalt-Bitterfeld","type":"Landkreis"},"federalState":{"key":"15","name":"Sachsen-Anhalt"}},{"name":"Lindenplatz","postalCode":"06792","locality":"Sandersdorf-Brehna","municipality":{"key":"15082340","name":"Sandersdorf-Brehna, Stadt","type":"Stadt"},"district":{"key":"15082","name":"Anhalt-Bitterfeld","type":"Landkreis"},"federalState":{"key":"15","name":"Sachsen-Anhalt"}},{"name":"Lindenstr.","postalCode":"06792","locality":"Sandersdorf-Brehna","municipality":{"key":"15082340","name":"Sandersdorf-Brehna, Stadt","type":"Stadt"},"district":{"key":"15082","name":"Anhalt-Bitterfeld","type":"Landkreis"},"federalState":{"key":"15","name":"Sachsen-Anhalt"}},{"name":"Lindenstr.","postalCode":"06809","locality":"Sandersdorf-Brehna","municipality":{"key":"15082340","name":"Sandersdorf-Brehna, Stadt","type":"Stadt"},"district":{"key":"15082","name":"Anhalt-Bitterfeld","type":"Landkreis"},"federalState":{"key":"15","name":"Sachsen-Anhalt"}},{"name":"Liselotte-Rückert-Str.","postalCode":"06792","locality":"Sandersdorf-Brehna","municipality":{"key":"15082340","name":"Sandersdorf-Brehna, Stadt","type":"Stadt"},"district":{"key":"15082","name":"Anhalt-Bitterfeld","type":"Landkreis"},"federalState":{"key":"15","name":"Sachsen-Anhalt"}},{"name":"Luisenweg","postalCode":"06792","locality":"Sandersdorf-Brehna","municipality":{"key":"15082340","name":"Sandersdorf-Brehna, Stadt","type":"Stadt"},"district":{"key":"15082","name":"Anhalt-Bitterfeld","type":"Landkreis"},"federalState":{"key":"15","name":"Sachsen-Anhalt"}},{"name":"Lupinenweg","postalCode":"06792","locality":"Sandersdorf-Brehna","municipality":{"key":"15082340","name":"Sandersdorf-Brehna, Stadt","type":"Stadt"},"district":{"key":"15082","name":"Anhalt-Bitterfeld","type":"Landkreis"},"federalState":{"key":"15","name":"Sachsen-Anhalt"}},{"name":"Lutherplatz","postalCode":"06792","locality":"Sandersdorf-Brehna","municipality":{"key":"15082340","name":"Sandersdorf-Brehna, Stadt","type":"Stadt"},"district":{"key":"15082","name":"Anhalt-Bitterfeld","type":"Landkreis"},"federalState":{"key":"15","name":"Sachsen-Anhalt"}},{"name":"Marienstr.","postalCode":"06792","locality":"Sandersdorf-Brehna","municipality":{"key":"15082340","name":"Sandersdorf-Brehna, Stadt","type":"Stadt"},"district":{"key":"15082","name":"Anhalt-Bitterfeld","type":"Landkreis"},"federalState":{"key":"15","name":"Sachsen-Anhalt"}},{"name":"Marienweg","postalCode":"06792","locality":"Sandersdorf-Brehna","municipality":{"key":"15082340","name":"Sandersdorf-Brehna, Stadt","type":"Stadt"},"district":{"key":"15082","name":"Anhalt-Bitterfeld","type":"Landkreis"},"federalState":{"key":"15","name":"Sachsen-Anhalt"}},{"name":"Markt","postalCode":"06796","locality":"Sandersdorf-Brehna","municipality":{"key":"15082340","name":"Sandersdorf-Brehna, Stadt","type":"Stadt"},"district":{"key":"15082","name":"Anhalt-Bitterfeld","type":"Landkreis"},"federalState":{"key":"15","name":"Sachsen-Anhalt"}},{"name":"Max-Planck-Str.","postalCode":"06796","locality":"Sandersdorf-Brehna","municipality":{"key":"15082340","name":"Sandersdorf-Brehna, Stadt","type":"Stadt"},"district":{"key":"15082","name":"Anhalt-Bitterfeld","type":"Landkreis"},"federalState":{"key":"15","name":"Sachsen-Anhalt"}},{"name":"Meisenweg","postalCode":"06792","locality":"Sandersdorf-Brehna","municipality":{"key":"15082340","name":"Sandersdorf-Brehna, Stadt","type":"Stadt"},"district":{"key":"15082","name":"Anhalt-Bitterfeld","type":"Landkreis"},"federalState":{"key":"15","name":"Sachsen-Anhalt"}},{"name":"Melanchthonstr.","postalCode":"06792","locality":"Sandersdorf-Brehna","municipality":{"key":"15082340","name":"Sandersdorf-Brehna, Stadt","type":"Stadt"},"district":{"key":"15082","name":"Anhalt-Bitterfeld","type":"Landkreis"},"federalState":{"key":"15","name":"Sachsen-Anhalt"}},{"name":"Mittelstr.","postalCode":"06792","locality":"Sandersdorf-Brehna","municipality":{"key":"15082340","name":"Sandersdorf-Brehna, Stadt","type":"Stadt"},"district":{"key":"15082","name":"Anhalt-Bitterfeld","type":"Landkreis"},"federalState":{"key":"15","name":"Sachsen-Anhalt"}},{"name":"Mittelweg","postalCode":"06792","locality":"Sandersdorf-Brehna","municipality":{"key":"15082340","name":"Sandersdorf-Brehna, Stadt","type":"Stadt"},"district":{"key":"15082","name":"Anhalt-Bitterfeld","type":"Landkreis"},"federalState":{"key":"15","name":"Sachsen-Anhalt"}},{"name":"Mittelweg","postalCode":"06809","locality":"Sandersdorf-Brehna","municipality":{"key":"15082340","name":"Sandersdorf-Brehna, Stadt","type":"Stadt"},"district":{"key":"15082","name":"Anhalt-Bitterfeld","type":"Landkreis"},"federalState":{"key":"15","name":"Sachsen-Anhalt"}},{"name":"Mozartweg","postalCode":"06792","locality":"Sandersdorf-Brehna","municipality":{"key":"15082340","name":"Sandersdorf-Brehna, Stadt","type":"Stadt"},"district":{"key":"15082","name":"Anhalt-Bitterfeld","type":"Landkreis"},"federalState":{"key":"15","name":"Sachsen-Anhalt"}},{"name":"Mühlenweg","postalCode":"06794","locality":"Sandersdorf-Brehna","municipality":{"key":"15082340","name":"Sandersdorf-Brehna, Stadt","type":"Stadt"},"district":{"key":"15082","name":"Anhalt-Bitterfeld","type":"Landkreis"},"federalState":{"key":"15","name":"Sachsen-Anhalt"}},{"name":"Mühlenweg","postalCode":"06809","locality":"Sandersdorf-Brehna","municipality":{"key":"15082340","name":"Sandersdorf-Brehna, Stadt","type":"Stadt"},"district":{"key":"15082","name":"Anhalt-Bitterfeld","type":"Landkreis"},"federalState":{"key":"15","name":"Sachsen-Anhalt"}},{"name":"Mühlstr.","postalCode":"06792","locality":"Sandersdorf-Brehna","municipality":{"key":"15082340","name":"Sandersdorf-Brehna, Stadt","type":"Stadt"},"district":{"key":"15082","name":"Anhalt-Bitterfeld","type":"Landkreis"},"federalState":{"key":"15","name":"Sachsen-Anhalt"}},{"name":"Mühlstr.","postalCode":"06809","locality":"Sandersdorf-Brehna","municipality":{"key":"15082340","name":"Sandersdorf-Brehna, Stadt","type":"Stadt"},"district":{"key":"15082","name":"Anhalt-Bitterfeld","type":"Landkreis"},"federalState":{"key":"15","name":"Sachsen-Anhalt"}},{"name":"Mühlweg","postalCode":"06809","locality":"Sandersdorf-Brehna","municipality":{"key":"15082340","name":"Sandersdorf-Brehna, Stadt","type":"Stadt"},"district":{"key":"15082","name":"Anhalt-Bitterfeld","type":"Landkreis"},"federalState":{"key":"15","name":"Sachsen-Anhalt"}},{"name":"Münchener Str.","postalCode":"06796","locality":"Sandersdorf-Brehna","municipality":{"key":"15082340","name":"Sandersdorf-Brehna, Stadt","type":"Stadt"},"district":{"key":"15082","name":"Anhalt-Bitterfeld","type":"Landkreis"},"federalState":{"key":"15","name":"Sachsen-Anhalt"}},{"name":"Musikantenweg","postalCode":"06796","locality":"Sandersdorf-Brehna","municipality":{"key":"15082340","name":"Sandersdorf-Brehna, Stadt","type":"Stadt"},"district":{"key":"15082","name":"Anhalt-Bitterfeld","type":"Landkreis"},"federalState":{"key":"15","name":"Sachsen-Anhalt"}},{"name":"Nelkenweg","postalCode":"06809","locality":"Sandersdorf-Brehna","municipality":{"key":"15082340","name":"Sandersdorf-Brehna, Stadt","type":"Stadt"},"district":{"key":"15082","name":"Anhalt-Bitterfeld","type":"Landkreis"},"federalState":{"key":"15","name":"Sachsen-Anhalt"}},{"name":"Neuer Weg","postalCode":"06792","locality":"Sandersdorf-Brehna","municipality":{"key":"15082340","name":"Sandersdorf-Brehna, Stadt","type":"Stadt"},"district":{"key":"15082","name":"Anhalt-Bitterfeld","type":"Landkreis"},"federalState":{"key":"15","name":"Sachsen-Anhalt"}},{"name":"Neue Str.","postalCode":"06792","locality":"Sandersdorf-Brehna","municipality":{"key":"15082340","name":"Sandersdorf-Brehna, Stadt","type":"Stadt"},"district":{"key":"15082","name":"Anhalt-Bitterfeld","type":"Landkreis"},"federalState":{"key":"15","name":"Sachsen-Anhalt"}},{"name":"Neue Str.","postalCode":"06796","locality":"Sandersdorf-Brehna","municipality":{"key":"15082340","name":"Sandersdorf-Brehna, Stadt","type":"Stadt"},"district":{"key":"15082","name":"Anhalt-Bitterfeld","type":"Landkreis"},"federalState":{"key":"15","name":"Sachsen-Anhalt"}},{"name":"Neuland-Str.","postalCode":"06792","locality":"Sandersdorf-Brehna","municipality":{"key":"15082340","name":"Sandersdorf-Brehna, Stadt","type":"Stadt"},"district":{"key":"15082","name":"Anhalt-Bitterfeld","type":"Landkreis"},"federalState":{"key":"15","name":"Sachsen-Anhalt"}},{"name":"Nordstr.","postalCode":"06792","locality":"Sandersdorf-Brehna","municipality":{"key":"15082340","name":"Sandersdorf-Brehna, Stadt","type":"Stadt"},"district":{"key":"15082","name":"Anhalt-Bitterfeld","type":"Landkreis"},"federalState":{"key":"15","name":"Sachsen-Anhalt"}},{"name":"Obere Schwemme","postalCode":"06796","locality":"Sandersdorf-Brehna","municipality":{"key":"15082340","name":"Sandersdorf-Brehna, Stadt","type":"Stadt"},"district":{"key":"15082","name":"Anhalt-Bitterfeld","type":"Landkreis"},"federalState":{"key":"15","name":"Sachsen-Anhalt"}},{"name":"Otto-Hahn-Str.","postalCode":"06796","locality":"Sandersdorf-Brehna","municipality":{"key":"15082340","name":"Sandersdorf-Brehna, Stadt","type":"Stadt"},"district":{"key":"15082","name":"Anhalt-Bitterfeld","type":"Landkreis"},"federalState":{"key":"15","name":"Sachsen-Anhalt"}},{"name":"Otto-Lilienthal-Str.","postalCode":"06796","locality":"Sandersdorf-Brehna","municipality":{"key":"15082340","name":"Sandersdorf-Brehna, Stadt","type":"Stadt"},"district":{"key":"15082","name":"Anhalt-Bitterfeld","type":"Landkreis"},"federalState":{"key":"15","name":"Sachsen-Anhalt"}},{"name":"Otto-Wolff-Str.","postalCode":"06796","locality":"Sandersdorf-Brehna","municipality":{"key":"15082340","name":"Sandersdorf-Brehna, Stadt","type":"Stadt"},"district":{"key":"15082","name":"Anhalt-Bitterfeld","type":"Landkreis"},"federalState":{"key":"15","name":"Sachsen-Anhalt"}},{"name":"Pappelallee","postalCode":"06796","locality":"Sandersdorf-Brehna","municipality":{"key":"15082340","name":"Sandersdorf-Brehna, Stadt","type":"Stadt"},"district":{"key":"15082","name":"Anhalt-Bitterfeld","type":"Landkreis"},"federalState":{"key":"15","name":"Sachsen-Anhalt"}},{"name":"Paul-Schiebel-Str.","postalCode":"06792","locality":"Sandersdorf-Brehna","municipality":{"key":"15082340","name":"Sandersdorf-Brehna, Stadt","type":"Stadt"},"district":{"key":"15082","name":"Anhalt-Bitterfeld","type":"Landkreis"},"federalState":{"key":"15","name":"Sachsen-Anhalt"}},{"name":"Paul-Schiebel-Str.","postalCode":"06809","locality":"Sandersdorf-Brehna","municipality":{"key":"15082340","name":"Sandersdorf-Brehna, Stadt","type":"Stadt"},"district":{"key":"15082","name":"Anhalt-Bitterfeld","type":"Landkreis"},"federalState":{"key":"15","name":"Sachsen-Anhalt"}},{"name":"Pestalozzistr.","postalCode":"06792","locality":"Sandersdorf-Brehna","municipality":{"key":"15082340","name":"Sandersdorf-Brehna, Stadt","type":"Stadt"},"district":{"key":"15082","name":"Anhalt-Bitterfeld","type":"Landkreis"},"federalState":{"key":"15","name":"Sachsen-Anhalt"}},{"name":"Pestalozzistr.","postalCode":"06796","locality":"Sandersdorf-Brehna","municipality":{"key":"15082340","name":"Sandersdorf-Brehna, Stadt","type":"Stadt"},"district":{"key":"15082","name":"Anhalt-Bitterfeld","type":"Landkreis"},"federalState":{"key":"15","name":"Sachsen-Anhalt"}},{"name":"Petersrodaer Str.","postalCode":"06809","locality":"Sandersdorf-Brehna","municipality":{"key":"15082340","name":"Sandersdorf-Brehna, Stadt","type":"Stadt"},"district":{"key":"15082","name":"Anhalt-Bitterfeld","type":"Landkreis"},"federalState":{"key":"15","name":"Sachsen-Anhalt"}},{"name":"Pfarrplatz","postalCode":"06809","locality":"Sandersdorf-Brehna","municipality":{"key":"15082340","name":"Sandersdorf-Brehna, Stadt","type":"Stadt"},"district":{"key":"15082","name":"Anhalt-Bitterfeld","type":"Landkreis"},"federalState":{"key":"15","name":"Sachsen-Anhalt"}},{"name":"Pferdekoppel","postalCode":"06792","locality":"Sandersdorf-Brehna","municipality":{"key":"15082340","name":"Sandersdorf-Brehna, Stadt","type":"Stadt"},"district":{"key":"15082","name":"Anhalt-Bitterfeld","type":"Landkreis"},"federalState":{"key":"15","name":"Sachsen-Anhalt"}},{"name":"Pfingstanger","postalCode":"06792","locality":"Sandersdorf-Brehna","municipality":{"key":"15082340","name":"Sandersdorf-Brehna, Stadt","type":"Stadt"},"district":{"key":"15082","name":"Anhalt-Bitterfeld","type":"Landkreis"},"federalState":{"key":"15","name":"Sachsen-Anhalt"}},{"name":"Pfortegasse","postalCode":"06796","locality":"Sandersdorf-Brehna","municipality":{"key":"15082340","name":"Sandersdorf-Brehna, Stadt","type":"Stadt"},"district":{"key":"15082","name":"Anhalt-Bitterfeld","type":"Landkreis"},"federalState":{"key":"15","name":"Sachsen-Anhalt"}},{"name":"Platz der Deutschen Einheit","postalCode":"06792","locality":"Sandersdorf-Brehna","municipality":{"key":"15082340","name":"Sandersdorf-Brehna, Stadt","type":"Stadt"},"district":{"key":"15082","name":"Anhalt-Bitterfeld","type":"Landkreis"},"federalState":{"key":"15","name":"Sachsen-Anhalt"}},{"name":"Platz des Friedens","postalCode":"06792","locality":"Sandersdorf-Brehna","municipality":{"key":"15082340","name":"Sandersdorf-Brehna, Stadt","type":"Stadt"},"district":{"key":"15082","name":"Anhalt-Bitterfeld","type":"Landkreis"},"federalState":{"key":"15","name":"Sachsen-Anhalt"}},{"name":"Pohritzscher-Weg","postalCode":"06796","locality":"Sandersdorf-Brehna","municipality":{"key":"15082340","name":"Sandersdorf-Brehna, Stadt","type":"Stadt"},"district":{"key":"15082","name":"Anhalt-Bitterfeld","type":"Landkreis"},"federalState":{"key":"15","name":"Sachsen-Anhalt"}},{"name":"Poststr.","postalCode":"06792","locality":"Sandersdorf-Brehna","municipality":{"key":"15082340","name":"Sandersdorf-Brehna, Stadt","type":"Stadt"},"district":{"key":"15082","name":"Anhalt-Bitterfeld","type":"Landkreis"},"federalState":{"key":"15","name":"Sachsen-Anhalt"}},{"name":"Poststr.","postalCode":"06809","locality":"Sandersdorf-Brehna","municipality":{"key":"15082340","name":"Sandersdorf-Brehna, Stadt","type":"Stadt"},"district":{"key":"15082","name":"Anhalt-Bitterfeld","type":"Landkreis"},"federalState":{"key":"15","name":"Sachsen-Anhalt"}},{"name":"Quergasse","postalCode":"06792","locality":"Sandersdorf-Brehna","municipality":{"key":"15082340","name":"Sandersdorf-Brehna, Stadt","type":"Stadt"},"district":{"key":"15082","name":"Anhalt-Bitterfeld","type":"Landkreis"},"federalState":{"key":"15","name":"Sachsen-Anhalt"}},{"name":"Querstr.","postalCode":"06792","locality":"Sandersdorf-Brehna","municipality":{"key":"15082340","name":"Sandersdorf-Brehna, Stadt","type":"Stadt"},"district":{"key":"15082","name":"Anhalt-Bitterfeld","type":"Landkreis"},"federalState":{"key":"15","name":"Sachsen-Anhalt"}},{"name":"Quetzer Str.","postalCode":"06794","locality":"Sandersdorf-Brehna","municipality":{"key":"15082340","name":"Sandersdorf-Brehna, Stadt","type":"Stadt"},"district":{"key":"15082","name":"Anhalt-Bitterfeld","type":"Landkreis"},"federalState":{"key":"15","name":"Sachsen-Anhalt"}},{"name":"Quetzer Weg","postalCode":"06796","locality":"Sandersdorf-Brehna","municipality":{"key":"15082340","name":"Sandersdorf-Brehna, Stadt","type":"Stadt"},"district":{"key":"15082","name":"Anhalt-Bitterfeld","type":"Landkreis"},"federalState":{"key":"15","name":"Sachsen-Anhalt"}},{"name":"Rainer-Lemoine-Allee","postalCode":"06792","locality":"Sandersdorf-Brehna","municipality":{"key":"15082340","name":"Sandersdorf-Brehna, Stadt","type":"Stadt"},"district":{"key":"15082","name":"Anhalt-Bitterfeld","type":"Landkreis"},"federalState":{"key":"15","name":"Sachsen-Anhalt"}},{"name":"Ramsiner Str.","postalCode":"06792","locality":"Sandersdorf-Brehna","municipality":{"key":"15082340","name":"Sandersdorf-Brehna, Stadt","type":"Stadt"},"district":{"key":"15082","name":"Anhalt-Bitterfeld","type":"Landkreis"},"federalState":{"key":"15","name":"Sachsen-Anhalt"}},{"name":"Ramsiner Str.","postalCode":"06794","locality":"Sandersdorf-Brehna","municipality":{"key":"15082340","name":"Sandersdorf-Brehna, Stadt","type":"Stadt"},"district":{"key":"15082","name":"Anhalt-Bitterfeld","type":"Landkreis"},"federalState":{"key":"15","name":"Sachsen-Anhalt"}},{"name":"Randsiedlung","postalCode":"06809","locality":"Sandersdorf-Brehna","municipality":{"key":"15082340","name":"Sandersdorf-Brehna, Stadt","type":"Stadt"},"district":{"key":"15082","name":"Anhalt-Bitterfeld","type":"Landkreis"},"federalState":{"key":"15","name":"Sachsen-Anhalt"}},{"name":"Rathausgasse","postalCode":"06796","locality":"Sandersdorf-Brehna","municipality":{"key":"15082340","name":"Sandersdorf-Brehna, Stadt","type":"Stadt"},"district":{"key":"15082","name":"Anhalt-Bitterfeld","type":"Landkreis"},"federalState":{"key":"15","name":"Sachsen-Anhalt"}},{"name":"Renneritzer Str.","postalCode":"06792","locality":"Sandersdorf-Brehna","municipality":{"key":"15082340","name":"Sandersdorf-Brehna, Stadt","type":"Stadt"},"district":{"key":"15082","name":"Anhalt-Bitterfeld","type":"Landkreis"},"federalState":{"key":"15","name":"Sachsen-Anhalt"}},{"name":"Rheinstr.","postalCode":"06796","locality":"Sandersdorf-Brehna","municipality":{"key":"15082340","name":"Sandersdorf-Brehna, Stadt","type":"Stadt"},"district":{"key":"15082","name":"Anhalt-Bitterfeld","type":"Landkreis"},"federalState":{"key":"15","name":"Sachsen-Anhalt"}},{"name":"Richard-Wagner-Weg","postalCode":"06796","locality":"Sandersdorf-Brehna","municipality":{"key":"15082340","name":"Sandersdorf-Brehna, Stadt","type":"Stadt"},"district":{"key":"15082","name":"Anhalt-Bitterfeld","type":"Landkreis"},"federalState":{"key":"15","name":"Sachsen-Anhalt"}},{"name":"Ring der Chemiearbeiter","postalCode":"06792","locality":"Sandersdorf-Brehna","municipality":{"key":"15082340","name":"Sandersdorf-Brehna, Stadt","type":"Stadt"},"district":{"key":"15082","name":"Anhalt-Bitterfeld","type":"Landkreis"},"federalState":{"key":"15","name":"Sachsen-Anhalt"}},{"name":"Robert-Schumann-Weg","postalCode":"06796","locality":"Sandersdorf-Brehna","municipality":{"key":"15082340","name":"Sandersdorf-Brehna, Stadt","type":"Stadt"},"district":{"key":"15082","name":"Anhalt-Bitterfeld","type":"Landkreis"},"federalState":{"key":"15","name":"Sachsen-Anhalt"}},{"name":"Roitzscher Str.","postalCode":"06792","locality":"Sandersdorf-Brehna","municipality":{"key":"15082340","name":"Sandersdorf-Brehna, Stadt","type":"Stadt"},"district":{"key":"15082","name":"Anhalt-Bitterfeld","type":"Landkreis"},"federalState":{"key":"15","name":"Sachsen-Anhalt"}},{"name":"Roitzscher Str.","postalCode":"06794","locality":"Sandersdorf-Brehna","municipality":{"key":"15082340","name":"Sandersdorf-Brehna, Stadt","type":"Stadt"},"district":{"key":"15082","name":"Anhalt-Bitterfeld","type":"Landkreis"},"federalState":{"key":"15","name":"Sachsen-Anhalt"}},{"name":"Roitzscher Str.","postalCode":"06796","locality":"Sandersdorf-Brehna","municipality":{"key":"15082340","name":"Sandersdorf-Brehna, Stadt","type":"Stadt"},"district":{"key":"15082","name":"Anhalt-Bitterfeld","type":"Landkreis"},"federalState":{"key":"15","name":"Sachsen-Anhalt"}},{"name":"Rosenweg","postalCode":"06792","locality":"Sandersdorf-Brehna","municipality":{"key":"15082340","name":"Sandersdorf-Brehna, Stadt","type":"Stadt"},"district":{"key":"15082","name":"Anhalt-Bitterfeld","type":"Landkreis"},"federalState":{"key":"15","name":"Sachsen-Anhalt"}},{"name":"Rosenweg","postalCode":"06809","locality":"Sandersdorf-Brehna","municipality":{"key":"15082340","name":"Sandersdorf-Brehna, Stadt","type":"Stadt"},"district":{"key":"15082","name":"Anhalt-Bitterfeld","type":"Landkreis"},"federalState":{"key":"15","name":"Sachsen-Anhalt"}},{"name":"Rudolf-Diesel-Str.","postalCode":"06796","locality":"Sandersdorf-Brehna","municipality":{"key":"15082340","name":"Sandersdorf-Brehna, Stadt","type":"Stadt"},"district":{"key":"15082","name":"Anhalt-Bitterfeld","type":"Landkreis"},"federalState":{"key":"15","name":"Sachsen-Anhalt"}},{"name":"Rüsterbrücke","postalCode":"06809","locality":"Sandersdorf-Brehna","municipality":{"key":"15082340","name":"Sandersdorf-Brehna, Stadt","type":"Stadt"},"district":{"key":"15082","name":"Anhalt-Bitterfeld","type":"Landkreis"},"federalState":{"key":"15","name":"Sachsen-Anhalt"}},{"name":"Saarstr.","postalCode":"06809","locality":"Sandersdorf-Brehna","municipality":{"key":"15082340","name":"Sandersdorf-Brehna, Stadt","type":"Stadt"},"district":{"key":"15082","name":"Anhalt-Bitterfeld","type":"Landkreis"},"federalState":{"key":"15","name":"Sachsen-Anhalt"}},{"name":"Sandersdorfer Str.","postalCode":"06792","locality":"Sandersdorf-Brehna","municipality":{"key":"15082340","name":"Sandersdorf-Brehna, Stadt","type":"Stadt"},"district":{"key":"15082","name":"Anhalt-Bitterfeld","type":"Landkreis"},"federalState":{"key":"15","name":"Sachsen-Anhalt"}},{"name":"Schelleweg","postalCode":"06809","locality":"Sandersdorf-Brehna","municipality":{"key":"15082340","name":"Sandersdorf-Brehna, Stadt","type":"Stadt"},"district":{"key":"15082","name":"Anhalt-Bitterfeld","type":"Landkreis"},"federalState":{"key":"15","name":"Sachsen-Anhalt"}},{"name":"Schillerstr.","postalCode":"06792","locality":"Sandersdorf-Brehna","municipality":{"key":"15082340","name":"Sandersdorf-Brehna, Stadt","type":"Stadt"},"district":{"key":"15082","name":"Anhalt-Bitterfeld","type":"Landkreis"},"federalState":{"key":"15","name":"Sachsen-Anhalt"}},{"name":"Schillerstr.","postalCode":"06796","locality":"Sandersdorf-Brehna","municipality":{"key":"15082340","name":"Sandersdorf-Brehna, Stadt","type":"Stadt"},"district":{"key":"15082","name":"Anhalt-Bitterfeld","type":"Landkreis"},"federalState":{"key":"15","name":"Sachsen-Anhalt"}},{"name":"Schlippe","postalCode":"06792","locality":"Sandersdorf-Brehna","municipality":{"key":"15082340","name":"Sandersdorf-Brehna, Stadt","type":"Stadt"},"district":{"key":"15082","name":"Anhalt-Bitterfeld","type":"Landkreis"},"federalState":{"key":"15","name":"Sachsen-Anhalt"}},{"name":"Schluppe","postalCode":"06809","locality":"Sandersdorf-Brehna","municipality":{"key":"15082340","name":"Sandersdorf-Brehna, Stadt","type":"Stadt"},"district":{"key":"15082","name":"Anhalt-Bitterfeld","type":"Landkreis"},"federalState":{"key":"15","name":"Sachsen-Anhalt"}},{"name":"Schulplatz","postalCode":"06794","locality":"Sandersdorf-Brehna","municipality":{"key":"15082340","name":"Sandersdorf-Brehna, Stadt","type":"Stadt"},"district":{"key":"15082","name":"Anhalt-Bitterfeld","type":"Landkreis"},"federalState":{"key":"15","name":"Sachsen-Anhalt"}},{"name":"Schulstr.","postalCode":"06792","locality":"Sandersdorf-Brehna","municipality":{"key":"15082340","name":"Sandersdorf-Brehna, Stadt","type":"Stadt"},"district":{"key":"15082","name":"Anhalt-Bitterfeld","type":"Landkreis"},"federalState":{"key":"15","name":"Sachsen-Anhalt"}},{"name":"Schützenplatz","postalCode":"06796","locality":"Sandersdorf-Brehna","municipality":{"key":"15082340","name":"Sandersdorf-Brehna, Stadt","type":"Stadt"},"district":{"key":"15082","name":"Anhalt-Bitterfeld","type":"Landkreis"},"federalState":{"key":"15","name":"Sachsen-Anhalt"}},{"name":"Schwarzer Weg","postalCode":"06792","locality":"Sandersdorf-Brehna","municipality":{"key":"15082340","name":"Sandersdorf-Brehna, Stadt","type":"Stadt"},"district":{"key":"15082","name":"Anhalt-Bitterfeld","type":"Landkreis"},"federalState":{"key":"15","name":"Sachsen-Anhalt"}},{"name":"Seestr.","postalCode":"06792","locality":"Sandersdorf-Brehna","municipality":{"key":"15082340","name":"Sandersdorf-Brehna, Stadt","type":"Stadt"},"district":{"key":"15082","name":"Anhalt-Bitterfeld","type":"Landkreis"},"federalState":{"key":"15","name":"Sachsen-Anhalt"}},{"name":"Seitenstr.","postalCode":"06809","locality":"Sandersdorf-Brehna","municipality":{"key":"15082340","name":"Sandersdorf-Brehna, Stadt","type":"Stadt"},"district":{"key":"15082","name":"Anhalt-Bitterfeld","type":"Landkreis"},"federalState":{"key":"15","name":"Sachsen-Anhalt"}},{"name":"Serbitzer Ring","postalCode":"06796","locality":"Sandersdorf-Brehna","municipality":{"key":"15082340","name":"Sandersdorf-Brehna, Stadt","type":"Stadt"},"district":{"key":"15082","name":"Anhalt-Bitterfeld","type":"Landkreis"},"federalState":{"key":"15","name":"Sachsen-Anhalt"}},{"name":"Siedlung","postalCode":"06794","locality":"Sandersdorf-Brehna","municipality":{"key":"15082340","name":"Sandersdorf-Brehna, Stadt","type":"Stadt"},"district":{"key":"15082","name":"Anhalt-Bitterfeld","type":"Landkreis"},"federalState":{"key":"15","name":"Sachsen-Anhalt"}},{"name":"Siedlungsstr.","postalCode":"06792","locality":"Sandersdorf-Brehna","municipality":{"key":"15082340","name":"Sandersdorf-Brehna, Stadt","type":"Stadt"},"district":{"key":"15082","name":"Anhalt-Bitterfeld","type":"Landkreis"},"federalState":{"key":"15","name":"Sachsen-Anhalt"}},{"name":"Spickendorfer Weg","postalCode":"06796","locality":"Sandersdorf-Brehna","municipality":{"key":"15082340","name":"Sandersdorf-Brehna, Stadt","type":"Stadt"},"district":{"key":"15082","name":"Anhalt-Bitterfeld","type":"Landkreis"},"federalState":{"key":"15","name":"Sachsen-Anhalt"}},{"name":"Stakendorfer Str.","postalCode":"06792","locality":"Sandersdorf-Brehna","municipality":{"key":"15082340","name":"Sandersdorf-Brehna, Stadt","type":"Stadt"},"district":{"key":"15082","name":"Anhalt-Bitterfeld","type":"Landkreis"},"federalState":{"key":"15","name":"Sachsen-Anhalt"}},{"name":"Stöcklitzer Str.","postalCode":"06809","locality":"Sandersdorf-Brehna","municipality":{"key":"15082340","name":"Sandersdorf-Brehna, Stadt","type":"Stadt"},"district":{"key":"15082","name":"Anhalt-Bitterfeld","type":"Landkreis"},"federalState":{"key":"15","name":"Sachsen-Anhalt"}},{"name":"Str. der Bauarbeiter","postalCode":"06792","locality":"Sandersdorf-Brehna","municipality":{"key":"15082340","name":"Sandersdorf-Brehna, Stadt","type":"Stadt"},"district":{"key":"15082","name":"Anhalt-Bitterfeld","type":"Landkreis"},"federalState":{"key":"15","name":"Sachsen-Anhalt"}},{"name":"Str. der Freiheit","postalCode":"06792","locality":"Sandersdorf-Brehna","municipality":{"key":"15082340","name":"Sandersdorf-Brehna, Stadt","type":"Stadt"},"district":{"key":"15082","name":"Anhalt-Bitterfeld","type":"Landkreis"},"federalState":{"key":"15","name":"Sachsen-Anhalt"}},{"name":"Str. der Freundschaft","postalCode":"06792","locality":"Sandersdorf-Brehna","municipality":{"key":"15082340","name":"Sandersdorf-Brehna, Stadt","type":"Stadt"},"district":{"key":"15082","name":"Anhalt-Bitterfeld","type":"Landkreis"},"federalState":{"key":"15","name":"Sachsen-Anhalt"}},{"name":"Str. der Freundschaft","postalCode":"06809","locality":"Sandersdorf-Brehna","municipality":{"key":"15082340","name":"Sandersdorf-Brehna, Stadt","type":"Stadt"},"district":{"key":"15082","name":"Anhalt-Bitterfeld","type":"Landkreis"},"federalState":{"key":"15","name":"Sachsen-Anhalt"}},{"name":"Str. der Jugend","postalCode":"06792","locality":"Sandersdorf-Brehna","municipality":{"key":"15082340","name":"Sandersdorf-Brehna, Stadt","type":"Stadt"},"district":{"key":"15082","name":"Anhalt-Bitterfeld","type":"Landkreis"},"federalState":{"key":"15","name":"Sachsen-Anhalt"}},{"name":"Str. der Neuen Zeit","postalCode":"06792","locality":"Sandersdorf-Brehna","municipality":{"key":"15082340","name":"Sandersdorf-Brehna, Stadt","type":"Stadt"},"district":{"key":"15082","name":"Anhalt-Bitterfeld","type":"Landkreis"},"federalState":{"key":"15","name":"Sachsen-Anhalt"}},{"name":"Str. des Friedens","postalCode":"06792","locality":"Sandersdorf-Brehna","municipality":{"key":"15082340","name":"Sandersdorf-Brehna, Stadt","type":"Stadt"},"district":{"key":"15082","name":"Anhalt-Bitterfeld","type":"Landkreis"},"federalState":{"key":"15","name":"Sachsen-Anhalt"}},{"name":"Str. des Friedens","postalCode":"06809","locality":"Sandersdorf-Brehna","municipality":{"key":"15082340","name":"Sandersdorf-Brehna, Stadt","type":"Stadt"},"district":{"key":"15082","name":"Anhalt-Bitterfeld","type":"Landkreis"},"federalState":{"key":"15","name":"Sachsen-Anhalt"}},{"name":"Südstr.","postalCode":"06792","locality":"Sandersdorf-Brehna","municipality":{"key":"15082340","name":"Sandersdorf-Brehna, Stadt","type":"Stadt"},"district":{"key":"15082","name":"Anhalt-Bitterfeld","type":"Landkreis"},"federalState":{"key":"15","name":"Sachsen-Anhalt"}},{"name":"Südstr.","postalCode":"06809","locality":"Sandersdorf-Brehna","municipality":{"key":"15082340","name":"Sandersdorf-Brehna, Stadt","type":"Stadt"},"district":{"key":"15082","name":"Anhalt-Bitterfeld","type":"Landkreis"},"federalState":{"key":"15","name":"Sachsen-Anhalt"}},{"name":"Tauchmanns Mühle","postalCode":"06796","locality":"Sandersdorf-Brehna","municipality":{"key":"15082340","name":"Sandersdorf-Brehna, Stadt","type":"Stadt"},"district":{"key":"15082","name":"Anhalt-Bitterfeld","type":"Landkreis"},"federalState":{"key":"15","name":"Sachsen-Anhalt"}},{"name":"Teichstr.","postalCode":"06792","locality":"Sandersdorf-Brehna","municipality":{"key":"15082340","name":"Sandersdorf-Brehna, Stadt","type":"Stadt"},"district":{"key":"15082","name":"Anhalt-Bitterfeld","type":"Landkreis"},"federalState":{"key":"15","name":"Sachsen-Anhalt"}},{"name":"Teichstr.","postalCode":"06794","locality":"Sandersdorf-Brehna","municipality":{"key":"15082340","name":"Sandersdorf-Brehna, Stadt","type":"Stadt"},"district":{"key":"15082","name":"Anhalt-Bitterfeld","type":"Landkreis"},"federalState":{"key":"15","name":"Sachsen-Anhalt"}},{"name":"Teichstr.","postalCode":"06809","locality":"Sandersdorf-Brehna","municipality":{"key":"15082340","name":"Sandersdorf-Brehna, Stadt","type":"Stadt"},"district":{"key":"15082","name":"Anhalt-Bitterfeld","type":"Landkreis"},"federalState":{"key":"15","name":"Sachsen-Anhalt"}},{"name":"Thalheimer Str.","postalCode":"06792","locality":"Sandersdorf-Brehna","municipality":{"key":"15082340","name":"Sandersdorf-Brehna, Stadt","type":"Stadt"},"district":{"key":"15082","name":"Anhalt-Bitterfeld","type":"Landkreis"},"federalState":{"key":"15","name":"Sachsen-Anhalt"}},{"name":"Thälmannplatz","postalCode":"06792","locality":"Sandersdorf-Brehna","municipality":{"key":"15082340","name":"Sandersdorf-Brehna, Stadt","type":"Stadt"},"district":{"key":"15082","name":"Anhalt-Bitterfeld","type":"Landkreis"},"federalState":{"key":"15","name":"Sachsen-Anhalt"}},{"name":"Theodorplatz","postalCode":"06809","locality":"Sandersdorf-Brehna","municipality":{"key":"15082340","name":"Sandersdorf-Brehna, Stadt","type":"Stadt"},"district":{"key":"15082","name":"Anhalt-Bitterfeld","type":"Landkreis"},"federalState":{"key":"15","name":"Sachsen-Anhalt"}},{"name":"Theodor-Storm-Str.","postalCode":"06796","locality":"Sandersdorf-Brehna","municipality":{"key":"15082340","name":"Sandersdorf-Brehna, Stadt","type":"Stadt"},"district":{"key":"15082","name":"Anhalt-Bitterfeld","type":"Landkreis"},"federalState":{"key":"15","name":"Sachsen-Anhalt"}},{"name":"Theodor-Storm-Str.","postalCode":"06809","locality":"Sandersdorf-Brehna","municipality":{"key":"15082340","name":"Sandersdorf-Brehna, Stadt","type":"Stadt"},"district":{"key":"15082","name":"Anhalt-Bitterfeld","type":"Landkreis"},"federalState":{"key":"15","name":"Sachsen-Anhalt"}},{"name":"Theodorstr.","postalCode":"06809","locality":"Sandersdorf-Brehna","municipality":{"key":"15082340","name":"Sandersdorf-Brehna, Stadt","type":"Stadt"},"district":{"key":"15082","name":"Anhalt-Bitterfeld","type":"Landkreis"},"federalState":{"key":"15","name":"Sachsen-Anhalt"}},{"name":"Thiemendorfer Str.","postalCode":"06796","locality":"Sandersdorf-Brehna","municipality":{"key":"15082340","name":"Sandersdorf-Brehna, Stadt","type":"Stadt"},"district":{"key":"15082","name":"Anhalt-Bitterfeld","type":"Landkreis"},"federalState":{"key":"15","name":"Sachsen-Anhalt"}},{"name":"Thomas-Müntzer-Siedlung","postalCode":"06796","locality":"Sandersdorf-Brehna","municipality":{"key":"15082340","name":"Sandersdorf-Brehna, Stadt","type":"Stadt"},"district":{"key":"15082","name":"Anhalt-Bitterfeld","type":"Landkreis"},"federalState":{"key":"15","name":"Sachsen-Anhalt"}},{"name":"Thomas-Müntzer-Str.","postalCode":"06794","locality":"Sandersdorf-Brehna","municipality":{"key":"15082340","name":"Sandersdorf-Brehna, Stadt","type":"Stadt"},"district":{"key":"15082","name":"Anhalt-Bitterfeld","type":"Landkreis"},"federalState":{"key":"15","name":"Sachsen-Anhalt"}},{"name":"Tornaer Platz","postalCode":"06796","locality":"Sandersdorf-Brehna","municipality":{"key":"15082340","name":"Sandersdorf-Brehna, Stadt","type":"Stadt"},"district":{"key":"15082","name":"Anhalt-Bitterfeld","type":"Landkreis"},"federalState":{"key":"15","name":"Sachsen-Anhalt"}},{"name":"Triftweg","postalCode":"06809","locality":"Sandersdorf-Brehna","municipality":{"key":"15082340","name":"Sandersdorf-Brehna, Stadt","type":"Stadt"},"district":{"key":"15082","name":"Anhalt-Bitterfeld","type":"Landkreis"},"federalState":{"key":"15","name":"Sachsen-Anhalt"}},{"name":"Tulpenweg","postalCode":"06809","locality":"Sandersdorf-Brehna","municipality":{"key":"15082340","name":"Sandersdorf-Brehna, Stadt","type":"Stadt"},"district":{"key":"15082","name":"Anhalt-Bitterfeld","type":"Landkreis"},"federalState":{"key":"15","name":"Sachsen-Anhalt"}},{"name":"Uhlandstr.","postalCode":"06792","locality":"Sandersdorf-Brehna","municipality":{"key":"15082340","name":"Sandersdorf-Brehna, Stadt","type":"Stadt"},"district":{"key":"15082","name":"Anhalt-Bitterfeld","type":"Landkreis"},"federalState":{"key":"15","name":"Sachsen-Anhalt"}},{"name":"Umgehungsstr.","postalCode":"06796","locality":"Sandersdorf-Brehna","municipality":{"key":"15082340","name":"Sandersdorf-Brehna, Stadt","type":"Stadt"},"district":{"key":"15082","name":"Anhalt-Bitterfeld","type":"Landkreis"},"federalState":{"key":"15","name":"Sachsen-Anhalt"}},{"name":"Umgehungsstr.","postalCode":"06809","locality":"Sandersdorf-Brehna","municipality":{"key":"15082340","name":"Sandersdorf-Brehna, Stadt","type":"Stadt"},"district":{"key":"15082","name":"Anhalt-Bitterfeld","type":"Landkreis"},"federalState":{"key":"15","name":"Sachsen-Anhalt"}},{"name":"Untere Schwemme","postalCode":"06796","locality":"Sandersdorf-Brehna","municipality":{"key":"15082340","name":"Sandersdorf-Brehna, Stadt","type":"Stadt"},"district":{"key":"15082","name":"Anhalt-Bitterfeld","type":"Landkreis"},"federalState":{"key":"15","name":"Sachsen-Anhalt"}},{"name":"Uthmannstr.","postalCode":"06792","locality":"Sandersdorf-Brehna","municipality":{"key":"15082340","name":"Sandersdorf-Brehna, Stadt","type":"Stadt"},"district":{"key":"15082","name":"Anhalt-Bitterfeld","type":"Landkreis"},"federalState":{"key":"15","name":"Sachsen-Anhalt"}},{"name":"Vogelallee","postalCode":"06792","locality":"Sandersdorf-Brehna","municipality":{"key":"15082340","name":"Sandersdorf-Brehna, Stadt","type":"Stadt"},"district":{"key":"15082","name":"Anhalt-Bitterfeld","type":"Landkreis"},"federalState":{"key":"15","name":"Sachsen-Anhalt"}},{"name":"Wagnerweg","postalCode":"06792","locality":"Sandersdorf-Brehna","municipality":{"key":"15082340","name":"Sandersdorf-Brehna, Stadt","type":"Stadt"},"district":{"key":"15082","name":"Anhalt-Bitterfeld","type":"Landkreis"},"federalState":{"key":"15","name":"Sachsen-Anhalt"}},{"name":"Walther-Rathenau-Str.","postalCode":"06792","locality":"Sandersdorf-Brehna","municipality":{"key":"15082340","name":"Sandersdorf-Brehna, Stadt","type":"Stadt"},"district":{"key":"15082","name":"Anhalt-Bitterfeld","type":"Landkreis"},"federalState":{"key":"15","name":"Sachsen-Anhalt"}},{"name":"Walther-Rathenau-Str.","postalCode":"06809","locality":"Sandersdorf-Brehna","municipality":{"key":"15082340","name":"Sandersdorf-Brehna, Stadt","type":"Stadt"},"district":{"key":"15082","name":"Anhalt-Bitterfeld","type":"Landkreis"},"federalState":{"key":"15","name":"Sachsen-Anhalt"}},{"name":"Weißdornweg","postalCode":"06792","locality":"Sandersdorf-Brehna","municipality":{"key":"15082340","name":"Sandersdorf-Brehna, Stadt","type":"Stadt"},"district":{"key":"15082","name":"Anhalt-Bitterfeld","type":"Landkreis"},"federalState":{"key":"15","name":"Sachsen-Anhalt"}},{"name":"Wendeplatz","postalCode":"06809","locality":"Sandersdorf-Brehna","municipality":{"key":"15082340","name":"Sandersdorf-Brehna, Stadt","type":"Stadt"},"district":{"key":"15082","name":"Anhalt-Bitterfeld","type":"Landkreis"},"federalState":{"key":"15","name":"Sachsen-Anhalt"}},{"name":"Werner-von-Siemens-Str.","postalCode":"06796","locality":"Sandersdorf-Brehna","municipality":{"key":"15082340","name":"Sandersdorf-Brehna, Stadt","type":"Stadt"},"district":{"key":"15082","name":"Anhalt-Bitterfeld","type":"Landkreis"},"federalState":{"key":"15","name":"Sachsen-Anhalt"}},{"name":"Weststr.","postalCode":"06809","locality":"Sandersdorf-Brehna","municipality":{"key":"15082340","name":"Sandersdorf-Brehna, Stadt","type":"Stadt"},"district":{"key":"15082","name":"Anhalt-Bitterfeld","type":"Landkreis"},"federalState":{"key":"15","name":"Sachsen-Anhalt"}},{"name":"Wiesewitzer Platz","postalCode":"06796","locality":"Sandersdorf-Brehna","municipality":{"key":"15082340","name":"Sandersdorf-Brehna, Stadt","type":"Stadt"},"district":{"key":"15082","name":"Anhalt-Bitterfeld","type":"Landkreis"},"federalState":{"key":"15","name":"Sachsen-Anhalt"}},{"name":"Wilhelm-Külz-Str.","postalCode":"06796","locality":"Sandersdorf-Brehna","municipality":{"key":"15082340","name":"Sandersdorf-Brehna, Stadt","type":"Stadt"},"district":{"key":"15082","name":"Anhalt-Bitterfeld","type":"Landkreis"},"federalState":{"key":"15","name":"Sachsen-Anhalt"}},{"name":"Winkelgasse","postalCode":"06796","locality":"Sandersdorf-Brehna","municipality":{"key":"15082340","name":"Sandersdorf-Brehna, Stadt","type":"Stadt"},"district":{"key":"15082","name":"Anhalt-Bitterfeld","type":"Landkreis"},"federalState":{"key":"15","name":"Sachsen-Anhalt"}},{"name":"Wolfener Str.","postalCode":"06792","locality":"Sandersdorf-Brehna","municipality":{"key":"15082340","name":"Sandersdorf-Brehna, Stadt","type":"Stadt"},"district":{"key":"15082","name":"Anhalt-Bitterfeld","type":"Landkreis"},"federalState":{"key":"15","name":"Sachsen-Anhalt"}},{"name":"Zaascher Str.","postalCode":"06809","locality":"Sandersdorf-Brehna","municipality":{"key":"15082340","name":"Sandersdorf-Brehna, Stadt","type":"Stadt"},"district":{"key":"15082","name":"Anhalt-Bitterfeld","type":"Landkreis"},"federalState":{"key":"15","name":"Sachsen-Anhalt"}},{"name":"Zennewitzer Platz","postalCode":"06796","locality":"Sandersdorf-Brehna","municipality":{"key":"15082340","name":"Sandersdorf-Brehna, Stadt","type":"Stadt"},"district":{"key":"15082","name":"Anhalt-Bitterfeld","type":"Landkreis"},"federalState":{"key":"15","name":"Sachsen-Anhalt"}},{"name":"Zennewitzer Str.","postalCode":"06796","locality":"Sandersdorf-Brehna","municipality":{"key":"15082340","name":"Sandersdorf-Brehna, Stadt","type":"Stadt"},"district":{"key":"15082","name":"Anhalt-Bitterfeld","type":"Landkreis"},"federalState":{"key":"15","name":"Sachsen-Anhalt"}},{"name":"Zimmerplan","postalCode":"06796","locality":"Sandersdorf-Brehna","municipality":{"key":"15082340","name":"Sandersdorf-Brehna, Stadt","type":"Stadt"},"district":{"key":"15082","name":"Anhalt-Bitterfeld","type":"Landkreis"},"federalState":{"key":"15","name":"Sachsen-Anhalt"}},{"name":"Zörbiger Str.","postalCode":"06792","locality":"Sandersdorf-Brehna","municipality":{"key":"15082340","name":"Sandersdorf-Brehna, Stadt","type":"Stadt"},"district":{"key":"15082","name":"Anhalt-Bitterfeld","type":"Landkreis"},"federalState":{"key":"15","name":"Sachsen-Anhalt"}},{"name":"Zörbiger Str.","postalCode":"06794","locality":"Sandersdorf-Brehna","municipality":{"key":"15082340","name":"Sandersdorf-Brehna, Stadt","type":"Stadt"},"district":{"key":"15082","name":"Anhalt-Bitterfeld","type":"Landkreis"},"federalState":{"key":"15","name":"Sachsen-Anhalt"}},{"name":"Zscherndorfer Str.","postalCode":"06792","locality":"Sandersdorf-Brehna","municipality":{"key":"15082340","name":"Sandersdorf-Brehna, Stadt","type":"Stadt"},"district":{"key":"15082","name":"Anhalt-Bitterfeld","type":"Landkreis"},"federalState":{"key":"15","name":"Sachsen-Anhalt"}},{"name":"Zscherndorfer Str.","postalCode":"06809","locality":"Sandersdorf-Brehna","municipality":{"key":"15082340","name":"Sandersdorf-Brehna, Stadt","type":"Stadt"},"district":{"key":"15082","name":"Anhalt-Bitterfeld","type":"Landkreis"},"federalState":{"key":"15","name":"Sachsen-Anhalt"}},{"name":"Zum Südufer","postalCode":"06809","locality":"Sandersdorf-Brehna","municipality":{"key":"15082340","name":"Sandersdorf-Brehna, Stadt","type":"Stadt"},"district":{"key":"15082","name":"Anhalt-Bitterfeld","type":"Landkreis"},"federalState":{"key":"15","name":"Sachsen-Anhalt"}},{"name":"Zur neuen Siedlung","postalCode":"06792","locality":"Sandersdorf-Brehna","municipality":{"key":"15082340","name":"Sandersdorf-Brehna, Stadt","type":"Stadt"},"district":{"key":"15082","name":"Anhalt-Bitterfeld","type":"Landkreis"},"federalState":{"key":"15","name":"Sachsen-Anhalt"}},]