[{"key":"10080669","name":"Aebifeld","postalCode":"3208","locality":"Gurbrü","commune":{"key":"665","name":"Gurbrü","shortName":"Gurbrü"},"district":{"key":"246","name":"Verwaltungskreis Bern-Mittelland"},"canton":{"key":"2","code":"BE","name":"Bern / Berne"},"status":"Real"},{"key":"10005406","name":"Alte Hauptstrasse","postalCode":"3208","locality":"Gurbrü","commune":{"key":"665","name":"Gurbrü","shortName":"Gurbrü"},"district":{"key":"246","name":"Verwaltungskreis Bern-Mittelland"},"canton":{"key":"2","code":"BE","name":"Bern / Berne"},"status":"Real"},{"key":"10175672","name":"Beim Wald","postalCode":"3208","locality":"Gurbrü","commune":{"key":"665","name":"Gurbrü","shortName":"Gurbrü"},"district":{"key":"246","name":"Verwaltungskreis Bern-Mittelland"},"canton":{"key":"2","code":"BE","name":"Bern / Berne"},"status":"Real"},{"key":"10005407","name":"Breitfeld","postalCode":"3208","locality":"Gurbrü","commune":{"key":"665","name":"Gurbrü","shortName":"Gurbrü"},"district":{"key":"246","name":"Verwaltungskreis Bern-Mittelland"},"canton":{"key":"2","code":"BE","name":"Bern / Berne"},"status":"Real"},{"key":"10221144","name":"Bruedersmatt","postalCode":"3208","locality":"Gurbrü","commune":{"key":"665","name":"Gurbrü","shortName":"Gurbrü"},"district":{"key":"246","name":"Verwaltungskreis Bern-Mittelland"},"canton":{"key":"2","code":"BE","name":"Bern / Berne"},"status":"Real"},{"key":"10104716","name":"Eggen","postalCode":"3208","locality":"Gurbrü","commune":{"key":"665","name":"Gurbrü","shortName":"Gurbrü"},"district":{"key":"246","name":"Verwaltungskreis Bern-Mittelland"},"canton":{"key":"2","code":"BE","name":"Bern / Berne"},"status":"Real"},{"key":"10112438","name":"Gässli","postalCode":"3208","locality":"Gurbrü","commune":{"key":"665","name":"Gurbrü","shortName":"Gurbrü"},"district":{"key":"246","name":"Verwaltungskreis Bern-Mittelland"},"canton":{"key":"2","code":"BE","name":"Bern / Berne"},"status":"Real"},{"key":"10221148","name":"Grütze","postalCode":"3208","locality":"Gurbrü","commune":{"key":"665","name":"Gurbrü","shortName":"Gurbrü"},"district":{"key":"246","name":"Verwaltungskreis Bern-Mittelland"},"canton":{"key":"2","code":"BE","name":"Bern / Berne"},"status":"Real"},{"key":"10180631","name":"Hauptstrasse","postalCode":"3208","locality":"Gurbrü","commune":{"key":"665","name":"Gurbrü","shortName":"Gurbrü"},"district":{"key":"246","name":"Verwaltungskreis Bern-Mittelland"},"canton":{"key":"2","code":"BE","name":"Bern / Berne"},"status":"Real"},{"key":"10059233","name":"Lindenhof","postalCode":"3208","locality":"Gurbrü","commune":{"key":"665","name":"Gurbrü","shortName":"Gurbrü"},"district":{"key":"246","name":"Verwaltungskreis Bern-Mittelland"},"canton":{"key":"2","code":"BE","name":"Bern / Berne"},"status":"Real"},{"key":"10124663","name":"Milchgässli","postalCode":"3208","locality":"Gurbrü","commune":{"key":"665","name":"Gurbrü","shortName":"Gurbrü"},"district":{"key":"246","name":"Verwaltungskreis Bern-Mittelland"},"canton":{"key":"2","code":"BE","name":"Bern / Berne"},"status":"Real"},{"key":"10005409","name":"Mühlegässli","postalCode":"3208","locality":"Gurbrü","commune":{"key":"665","name":"Gurbrü","shortName":"Gurbrü"},"district":{"key":"246","name":"Verwaltungskreis Bern-Mittelland"},"canton":{"key":"2","code":"BE","name":"Bern / Berne"},"status":"Real"},{"key":"10005410","name":"Oberdorf","postalCode":"3208","locality":"Gurbrü","commune":{"key":"665","name":"Gurbrü","shortName":"Gurbrü"},"district":{"key":"246","name":"Verwaltungskreis Bern-Mittelland"},"canton":{"key":"2","code":"BE","name":"Bern / Berne"},"status":"Real"},{"key":"10005411","name":"Sämelismatt","postalCode":"3208","locality":"Gurbrü","commune":{"key":"665","name":"Gurbrü","shortName":"Gurbrü"},"district":{"key":"246","name":"Verwaltungskreis Bern-Mittelland"},"canton":{"key":"2","code":"BE","name":"Bern / Berne"},"status":"Real"},{"key":"10221152","name":"Sand","postalCode":"3208","locality":"Gurbrü","commune":{"key":"665","name":"Gurbrü","shortName":"Gurbrü"},"district":{"key":"246","name":"Verwaltungskreis Bern-Mittelland"},"canton":{"key":"2","code":"BE","name":"Bern / Berne"},"status":"Real"},{"key":"10221157","name":"Sandacher","postalCode":"3208","locality":"Gurbrü","commune":{"key":"665","name":"Gurbrü","shortName":"Gurbrü"},"district":{"key":"246","name":"Verwaltungskreis Bern-Mittelland"},"canton":{"key":"2","code":"BE","name":"Bern / Berne"},"status":"Real"},{"key":"10080670","name":"Schafacher","postalCode":"3208","locality":"Gurbrü","commune":{"key":"665","name":"Gurbrü","shortName":"Gurbrü"},"district":{"key":"246","name":"Verwaltungskreis Bern-Mittelland"},"canton":{"key":"2","code":"BE","name":"Bern / Berne"},"status":"Real"},{"key":"10221161","name":"Stägmatt","postalCode":"3208","locality":"Gurbrü","commune":{"key":"665","name":"Gurbrü","shortName":"Gurbrü"},"district":{"key":"246","name":"Verwaltungskreis Bern-Mittelland"},"canton":{"key":"2","code":"BE","name":"Bern / Berne"},"status":"Real"},{"key":"10005412","name":"Unterdorf","postalCode":"3208","locality":"Gurbrü","commune":{"key":"665","name":"Gurbrü","shortName":"Gurbrü"},"district":{"key":"246","name":"Verwaltungskreis Bern-Mittelland"},"canton":{"key":"2","code":"BE","name":"Bern / Berne"},"status":"Real"},]