[{"name":"Am Apfelweg","postalCode":"14554","locality":"Seddiner See","municipality":{"key":"12069596","name":"Seddiner See","type":"Kreisangehörige_Gemeinde"},"district":{"key":"12069","name":"Potsdam-Mittelmark","type":"Landkreis"},"federalState":{"key":"12","name":"Brandenburg"}},{"name":"Am Birnenweg","postalCode":"14554","locality":"Seddiner See","municipality":{"key":"12069596","name":"Seddiner See","type":"Kreisangehörige_Gemeinde"},"district":{"key":"12069","name":"Potsdam-Mittelmark","type":"Landkreis"},"federalState":{"key":"12","name":"Brandenburg"}},{"name":"Am Fenn","postalCode":"14554","locality":"Seddiner See","municipality":{"key":"12069596","name":"Seddiner See","type":"Kreisangehörige_Gemeinde"},"district":{"key":"12069","name":"Potsdam-Mittelmark","type":"Landkreis"},"federalState":{"key":"12","name":"Brandenburg"}},{"name":"Am Fuchsbau","postalCode":"14554","locality":"Seddiner See","municipality":{"key":"12069596","name":"Seddiner See","type":"Kreisangehörige_Gemeinde"},"district":{"key":"12069","name":"Potsdam-Mittelmark","type":"Landkreis"},"federalState":{"key":"12","name":"Brandenburg"}},{"name":"Am Hügel","postalCode":"14554","locality":"Seddiner See","municipality":{"key":"12069596","name":"Seddiner See","type":"Kreisangehörige_Gemeinde"},"district":{"key":"12069","name":"Potsdam-Mittelmark","type":"Landkreis"},"federalState":{"key":"12","name":"Brandenburg"}},{"name":"Am Kirschweg","postalCode":"14554","locality":"Seddiner See","municipality":{"key":"12069596","name":"Seddiner See","type":"Kreisangehörige_Gemeinde"},"district":{"key":"12069","name":"Potsdam-Mittelmark","type":"Landkreis"},"federalState":{"key":"12","name":"Brandenburg"}},{"name":"Am Lindenweg","postalCode":"14554","locality":"Seddiner See","municipality":{"key":"12069596","name":"Seddiner See","type":"Kreisangehörige_Gemeinde"},"district":{"key":"12069","name":"Potsdam-Mittelmark","type":"Landkreis"},"federalState":{"key":"12","name":"Brandenburg"}},{"name":"Am Milchberg","postalCode":"14554","locality":"Seddiner See","municipality":{"key":"12069596","name":"Seddiner See","type":"Kreisangehörige_Gemeinde"},"district":{"key":"12069","name":"Potsdam-Mittelmark","type":"Landkreis"},"federalState":{"key":"12","name":"Brandenburg"}},{"name":"Am Mirabellenweg","postalCode":"14554","locality":"Seddiner See","municipality":{"key":"12069596","name":"Seddiner See","type":"Kreisangehörige_Gemeinde"},"district":{"key":"12069","name":"Potsdam-Mittelmark","type":"Landkreis"},"federalState":{"key":"12","name":"Brandenburg"}},{"name":"Am Mühlenberg","postalCode":"14554","locality":"Seddiner See","municipality":{"key":"12069596","name":"Seddiner See","type":"Kreisangehörige_Gemeinde"},"district":{"key":"12069","name":"Potsdam-Mittelmark","type":"Landkreis"},"federalState":{"key":"12","name":"Brandenburg"}},{"name":"Am Quittenweg","postalCode":"14554","locality":"Seddiner See","municipality":{"key":"12069596","name":"Seddiner See","type":"Kreisangehörige_Gemeinde"},"district":{"key":"12069","name":"Potsdam-Mittelmark","type":"Landkreis"},"federalState":{"key":"12","name":"Brandenburg"}},{"name":"Am Sanddornweg","postalCode":"14554","locality":"Seddiner See","municipality":{"key":"12069596","name":"Seddiner See","type":"Kreisangehörige_Gemeinde"},"district":{"key":"12069","name":"Potsdam-Mittelmark","type":"Landkreis"},"federalState":{"key":"12","name":"Brandenburg"}},{"name":"Am Seehügel","postalCode":"14554","locality":"Seddiner See","municipality":{"key":"12069596","name":"Seddiner See","type":"Kreisangehörige_Gemeinde"},"district":{"key":"12069","name":"Potsdam-Mittelmark","type":"Landkreis"},"federalState":{"key":"12","name":"Brandenburg"}},{"name":"Am Waldessaum","postalCode":"14554","locality":"Seddiner See","municipality":{"key":"12069596","name":"Seddiner See","type":"Kreisangehörige_Gemeinde"},"district":{"key":"12069","name":"Potsdam-Mittelmark","type":"Landkreis"},"federalState":{"key":"12","name":"Brandenburg"}},{"name":"Bahnhofstr.","postalCode":"14554","locality":"Seddiner See","municipality":{"key":"12069596","name":"Seddiner See","type":"Kreisangehörige_Gemeinde"},"district":{"key":"12069","name":"Potsdam-Mittelmark","type":"Landkreis"},"federalState":{"key":"12","name":"Brandenburg"}},{"name":"Beelitzer Str.","postalCode":"14554","locality":"Seddiner See","municipality":{"key":"12069596","name":"Seddiner See","type":"Kreisangehörige_Gemeinde"},"district":{"key":"12069","name":"Potsdam-Mittelmark","type":"Landkreis"},"federalState":{"key":"12","name":"Brandenburg"}},{"name":"Birkenweg","postalCode":"14554","locality":"Seddiner See","municipality":{"key":"12069596","name":"Seddiner See","type":"Kreisangehörige_Gemeinde"},"district":{"key":"12069","name":"Potsdam-Mittelmark","type":"Landkreis"},"federalState":{"key":"12","name":"Brandenburg"}},{"name":"Blumesiedlung","postalCode":"14554","locality":"Seddiner See","municipality":{"key":"12069596","name":"Seddiner See","type":"Kreisangehörige_Gemeinde"},"district":{"key":"12069","name":"Potsdam-Mittelmark","type":"Landkreis"},"federalState":{"key":"12","name":"Brandenburg"}},{"name":"Breitenbachplatz","postalCode":"14554","locality":"Seddiner See","municipality":{"key":"12069596","name":"Seddiner See","type":"Kreisangehörige_Gemeinde"},"district":{"key":"12069","name":"Potsdam-Mittelmark","type":"Landkreis"},"federalState":{"key":"12","name":"Brandenburg"}},{"name":"Dorfstr.","postalCode":"14554","locality":"Seddiner See","municipality":{"key":"12069596","name":"Seddiner See","type":"Kreisangehörige_Gemeinde"},"district":{"key":"12069","name":"Potsdam-Mittelmark","type":"Landkreis"},"federalState":{"key":"12","name":"Brandenburg"}},{"name":"Dr.-Albert-Schweitzer-Str.","postalCode":"14554","locality":"Seddiner See","municipality":{"key":"12069596","name":"Seddiner See","type":"Kreisangehörige_Gemeinde"},"district":{"key":"12069","name":"Potsdam-Mittelmark","type":"Landkreis"},"federalState":{"key":"12","name":"Brandenburg"}},{"name":"Dr.-Stapff-Str.","postalCode":"14554","locality":"Seddiner See","municipality":{"key":"12069596","name":"Seddiner See","type":"Kreisangehörige_Gemeinde"},"district":{"key":"12069","name":"Potsdam-Mittelmark","type":"Landkreis"},"federalState":{"key":"12","name":"Brandenburg"}},{"name":"Ebereschenring","postalCode":"14554","locality":"Seddiner See","municipality":{"key":"12069596","name":"Seddiner See","type":"Kreisangehörige_Gemeinde"},"district":{"key":"12069","name":"Potsdam-Mittelmark","type":"Landkreis"},"federalState":{"key":"12","name":"Brandenburg"}},{"name":"Eichenweg","postalCode":"14554","locality":"Seddiner See","municipality":{"key":"12069596","name":"Seddiner See","type":"Kreisangehörige_Gemeinde"},"district":{"key":"12069","name":"Potsdam-Mittelmark","type":"Landkreis"},"federalState":{"key":"12","name":"Brandenburg"}},{"name":"Erikaweg","postalCode":"14554","locality":"Seddiner See","municipality":{"key":"12069596","name":"Seddiner See","type":"Kreisangehörige_Gemeinde"},"district":{"key":"12069","name":"Potsdam-Mittelmark","type":"Landkreis"},"federalState":{"key":"12","name":"Brandenburg"}},{"name":"Ernst-Kamieth-Platz","postalCode":"14554","locality":"Seddiner See","municipality":{"key":"12069596","name":"Seddiner See","type":"Kreisangehörige_Gemeinde"},"district":{"key":"12069","name":"Potsdam-Mittelmark","type":"Landkreis"},"federalState":{"key":"12","name":"Brandenburg"}},{"name":"Fenn","postalCode":"14554","locality":"Seddiner See","municipality":{"key":"12069596","name":"Seddiner See","type":"Kreisangehörige_Gemeinde"},"district":{"key":"12069","name":"Potsdam-Mittelmark","type":"Landkreis"},"federalState":{"key":"12","name":"Brandenburg"}},{"name":"Fennweg","postalCode":"14554","locality":"Seddiner See","municipality":{"key":"12069596","name":"Seddiner See","type":"Kreisangehörige_Gemeinde"},"district":{"key":"12069","name":"Potsdam-Mittelmark","type":"Landkreis"},"federalState":{"key":"12","name":"Brandenburg"}},{"name":"Findlingsgarten","postalCode":"14554","locality":"Seddiner See","municipality":{"key":"12069596","name":"Seddiner See","type":"Kreisangehörige_Gemeinde"},"district":{"key":"12069","name":"Potsdam-Mittelmark","type":"Landkreis"},"federalState":{"key":"12","name":"Brandenburg"}},{"name":"Fischergasse","postalCode":"14554","locality":"Seddiner See","municipality":{"key":"12069596","name":"Seddiner See","type":"Kreisangehörige_Gemeinde"},"district":{"key":"12069","name":"Potsdam-Mittelmark","type":"Landkreis"},"federalState":{"key":"12","name":"Brandenburg"}},{"name":"Friedhofsgasse","postalCode":"14554","locality":"Seddiner See","municipality":{"key":"12069596","name":"Seddiner See","type":"Kreisangehörige_Gemeinde"},"district":{"key":"12069","name":"Potsdam-Mittelmark","type":"Landkreis"},"federalState":{"key":"12","name":"Brandenburg"}},{"name":"Friedhofstr.","postalCode":"14554","locality":"Seddiner See","municipality":{"key":"12069596","name":"Seddiner See","type":"Kreisangehörige_Gemeinde"},"district":{"key":"12069","name":"Potsdam-Mittelmark","type":"Landkreis"},"federalState":{"key":"12","name":"Brandenburg"}},{"name":"Gewerbestr.","postalCode":"14554","locality":"Seddiner See","municipality":{"key":"12069596","name":"Seddiner See","type":"Kreisangehörige_Gemeinde"},"district":{"key":"12069","name":"Potsdam-Mittelmark","type":"Landkreis"},"federalState":{"key":"12","name":"Brandenburg"}},{"name":"Hainbuchenstr.","postalCode":"14554","locality":"Seddiner See","municipality":{"key":"12069596","name":"Seddiner See","type":"Kreisangehörige_Gemeinde"},"district":{"key":"12069","name":"Potsdam-Mittelmark","type":"Landkreis"},"federalState":{"key":"12","name":"Brandenburg"}},{"name":"Hans-Beimler-Str.","postalCode":"14554","locality":"Seddiner See","municipality":{"key":"12069596","name":"Seddiner See","type":"Kreisangehörige_Gemeinde"},"district":{"key":"12069","name":"Potsdam-Mittelmark","type":"Landkreis"},"federalState":{"key":"12","name":"Brandenburg"}},{"name":"Hauptstr.","postalCode":"14554","locality":"Seddiner See","municipality":{"key":"12069596","name":"Seddiner See","type":"Kreisangehörige_Gemeinde"},"district":{"key":"12069","name":"Potsdam-Mittelmark","type":"Landkreis"},"federalState":{"key":"12","name":"Brandenburg"}},{"name":"Im Winkel","postalCode":"14554","locality":"Seddiner See","municipality":{"key":"12069596","name":"Seddiner See","type":"Kreisangehörige_Gemeinde"},"district":{"key":"12069","name":"Potsdam-Mittelmark","type":"Landkreis"},"federalState":{"key":"12","name":"Brandenburg"}},{"name":"Kähnsdorfer Str.","postalCode":"14554","locality":"Seddiner See","municipality":{"key":"12069596","name":"Seddiner See","type":"Kreisangehörige_Gemeinde"},"district":{"key":"12069","name":"Potsdam-Mittelmark","type":"Landkreis"},"federalState":{"key":"12","name":"Brandenburg"}},{"name":"Kähnsdorfer Weg","postalCode":"14554","locality":"Seddiner See","municipality":{"key":"12069596","name":"Seddiner See","type":"Kreisangehörige_Gemeinde"},"district":{"key":"12069","name":"Potsdam-Mittelmark","type":"Landkreis"},"federalState":{"key":"12","name":"Brandenburg"}},{"name":"Karl-Marx-Str.","postalCode":"14554","locality":"Seddiner See","municipality":{"key":"12069596","name":"Seddiner See","type":"Kreisangehörige_Gemeinde"},"district":{"key":"12069","name":"Potsdam-Mittelmark","type":"Landkreis"},"federalState":{"key":"12","name":"Brandenburg"}},{"name":"Kiefernwald","postalCode":"14554","locality":"Seddiner See","municipality":{"key":"12069596","name":"Seddiner See","type":"Kreisangehörige_Gemeinde"},"district":{"key":"12069","name":"Potsdam-Mittelmark","type":"Landkreis"},"federalState":{"key":"12","name":"Brandenburg"}},{"name":"Kiefernweg","postalCode":"14554","locality":"Seddiner See","municipality":{"key":"12069596","name":"Seddiner See","type":"Kreisangehörige_Gemeinde"},"district":{"key":"12069","name":"Potsdam-Mittelmark","type":"Landkreis"},"federalState":{"key":"12","name":"Brandenburg"}},{"name":"Kirchplatz","postalCode":"14554","locality":"Seddiner See","municipality":{"key":"12069596","name":"Seddiner See","type":"Kreisangehörige_Gemeinde"},"district":{"key":"12069","name":"Potsdam-Mittelmark","type":"Landkreis"},"federalState":{"key":"12","name":"Brandenburg"}},{"name":"Kornblumenweg","postalCode":"14554","locality":"Seddiner See","municipality":{"key":"12069596","name":"Seddiner See","type":"Kreisangehörige_Gemeinde"},"district":{"key":"12069","name":"Potsdam-Mittelmark","type":"Landkreis"},"federalState":{"key":"12","name":"Brandenburg"}},{"name":"Kornstr.","postalCode":"14554","locality":"Seddiner See","municipality":{"key":"12069596","name":"Seddiner See","type":"Kreisangehörige_Gemeinde"},"district":{"key":"12069","name":"Potsdam-Mittelmark","type":"Landkreis"},"federalState":{"key":"12","name":"Brandenburg"}},{"name":"Krumme Str.","postalCode":"14554","locality":"Seddiner See","municipality":{"key":"12069596","name":"Seddiner See","type":"Kreisangehörige_Gemeinde"},"district":{"key":"12069","name":"Potsdam-Mittelmark","type":"Landkreis"},"federalState":{"key":"12","name":"Brandenburg"}},{"name":"Kunersdorfer Str.","postalCode":"14554","locality":"Seddiner See","municipality":{"key":"12069596","name":"Seddiner See","type":"Kreisangehörige_Gemeinde"},"district":{"key":"12069","name":"Potsdam-Mittelmark","type":"Landkreis"},"federalState":{"key":"12","name":"Brandenburg"}},{"name":"Ladestr.","postalCode":"14554","locality":"Seddiner See","municipality":{"key":"12069596","name":"Seddiner See","type":"Kreisangehörige_Gemeinde"},"district":{"key":"12069","name":"Potsdam-Mittelmark","type":"Landkreis"},"federalState":{"key":"12","name":"Brandenburg"}},{"name":"Lärchenweg","postalCode":"14554","locality":"Seddiner See","municipality":{"key":"12069596","name":"Seddiner See","type":"Kreisangehörige_Gemeinde"},"district":{"key":"12069","name":"Potsdam-Mittelmark","type":"Landkreis"},"federalState":{"key":"12","name":"Brandenburg"}},{"name":"Leipziger Str.","postalCode":"14554","locality":"Seddiner See","municipality":{"key":"12069596","name":"Seddiner See","type":"Kreisangehörige_Gemeinde"},"district":{"key":"12069","name":"Potsdam-Mittelmark","type":"Landkreis"},"federalState":{"key":"12","name":"Brandenburg"}},{"name":"Pappelallee","postalCode":"14554","locality":"Seddiner See","municipality":{"key":"12069596","name":"Seddiner See","type":"Kreisangehörige_Gemeinde"},"district":{"key":"12069","name":"Potsdam-Mittelmark","type":"Landkreis"},"federalState":{"key":"12","name":"Brandenburg"}},{"name":"Park Lesende Kinder","postalCode":"14554","locality":"Seddiner See","municipality":{"key":"12069596","name":"Seddiner See","type":"Kreisangehörige_Gemeinde"},"district":{"key":"12069","name":"Potsdam-Mittelmark","type":"Landkreis"},"federalState":{"key":"12","name":"Brandenburg"}},{"name":"Rauher Berg","postalCode":"14554","locality":"Seddiner See","municipality":{"key":"12069596","name":"Seddiner See","type":"Kreisangehörige_Gemeinde"},"district":{"key":"12069","name":"Potsdam-Mittelmark","type":"Landkreis"},"federalState":{"key":"12","name":"Brandenburg"}},{"name":"Rottstockweg","postalCode":"14554","locality":"Seddiner See","municipality":{"key":"12069596","name":"Seddiner See","type":"Kreisangehörige_Gemeinde"},"district":{"key":"12069","name":"Potsdam-Mittelmark","type":"Landkreis"},"federalState":{"key":"12","name":"Brandenburg"}},{"name":"Rüdigerweg","postalCode":"14554","locality":"Seddiner See","municipality":{"key":"12069596","name":"Seddiner See","type":"Kreisangehörige_Gemeinde"},"district":{"key":"12069","name":"Potsdam-Mittelmark","type":"Landkreis"},"federalState":{"key":"12","name":"Brandenburg"}},{"name":"Schlunkendorfer Str.","postalCode":"14554","locality":"Seddiner See","municipality":{"key":"12069596","name":"Seddiner See","type":"Kreisangehörige_Gemeinde"},"district":{"key":"12069","name":"Potsdam-Mittelmark","type":"Landkreis"},"federalState":{"key":"12","name":"Brandenburg"}},{"name":"Schmerberggestell","postalCode":"14554","locality":"Seddiner See","municipality":{"key":"12069596","name":"Seddiner See","type":"Kreisangehörige_Gemeinde"},"district":{"key":"12069","name":"Potsdam-Mittelmark","type":"Landkreis"},"federalState":{"key":"12","name":"Brandenburg"}},{"name":"Schmiedestr.","postalCode":"14554","locality":"Seddiner See","municipality":{"key":"12069596","name":"Seddiner See","type":"Kreisangehörige_Gemeinde"},"district":{"key":"12069","name":"Potsdam-Mittelmark","type":"Landkreis"},"federalState":{"key":"12","name":"Brandenburg"}},{"name":"Schuppesiedlung","postalCode":"14554","locality":"Seddiner See","municipality":{"key":"12069596","name":"Seddiner See","type":"Kreisangehörige_Gemeinde"},"district":{"key":"12069","name":"Potsdam-Mittelmark","type":"Landkreis"},"federalState":{"key":"12","name":"Brandenburg"}},{"name":"Schwarzer Weg","postalCode":"14554","locality":"Seddiner See","municipality":{"key":"12069596","name":"Seddiner See","type":"Kreisangehörige_Gemeinde"},"district":{"key":"12069","name":"Potsdam-Mittelmark","type":"Landkreis"},"federalState":{"key":"12","name":"Brandenburg"}},{"name":"Seeweg","postalCode":"14554","locality":"Seddiner See","municipality":{"key":"12069596","name":"Seddiner See","type":"Kreisangehörige_Gemeinde"},"district":{"key":"12069","name":"Potsdam-Mittelmark","type":"Landkreis"},"federalState":{"key":"12","name":"Brandenburg"}},{"name":"Stückener Str.","postalCode":"14554","locality":"Seddiner See","municipality":{"key":"12069596","name":"Seddiner See","type":"Kreisangehörige_Gemeinde"},"district":{"key":"12069","name":"Potsdam-Mittelmark","type":"Landkreis"},"federalState":{"key":"12","name":"Brandenburg"}},{"name":"Thielenstr.","postalCode":"14554","locality":"Seddiner See","municipality":{"key":"12069596","name":"Seddiner See","type":"Kreisangehörige_Gemeinde"},"district":{"key":"12069","name":"Potsdam-Mittelmark","type":"Landkreis"},"federalState":{"key":"12","name":"Brandenburg"}},{"name":"Trift","postalCode":"14554","locality":"Seddiner See","municipality":{"key":"12069596","name":"Seddiner See","type":"Kreisangehörige_Gemeinde"},"district":{"key":"12069","name":"Potsdam-Mittelmark","type":"Landkreis"},"federalState":{"key":"12","name":"Brandenburg"}},{"name":"Waldeck","postalCode":"14554","locality":"Seddiner See","municipality":{"key":"12069596","name":"Seddiner See","type":"Kreisangehörige_Gemeinde"},"district":{"key":"12069","name":"Potsdam-Mittelmark","type":"Landkreis"},"federalState":{"key":"12","name":"Brandenburg"}},{"name":"Waldesruh","postalCode":"14554","locality":"Seddiner See","municipality":{"key":"12069596","name":"Seddiner See","type":"Kreisangehörige_Gemeinde"},"district":{"key":"12069","name":"Potsdam-Mittelmark","type":"Landkreis"},"federalState":{"key":"12","name":"Brandenburg"}},{"name":"Waldstr.","postalCode":"14554","locality":"Seddiner See","municipality":{"key":"12069596","name":"Seddiner See","type":"Kreisangehörige_Gemeinde"},"district":{"key":"12069","name":"Potsdam-Mittelmark","type":"Landkreis"},"federalState":{"key":"12","name":"Brandenburg"}},{"name":"Waldweg","postalCode":"14554","locality":"Seddiner See","municipality":{"key":"12069596","name":"Seddiner See","type":"Kreisangehörige_Gemeinde"},"district":{"key":"12069","name":"Potsdam-Mittelmark","type":"Landkreis"},"federalState":{"key":"12","name":"Brandenburg"}},{"name":"Weg zum Wasserturm","postalCode":"14554","locality":"Seddiner See","municipality":{"key":"12069596","name":"Seddiner See","type":"Kreisangehörige_Gemeinde"},"district":{"key":"12069","name":"Potsdam-Mittelmark","type":"Landkreis"},"federalState":{"key":"12","name":"Brandenburg"}},{"name":"Weinbergstr.","postalCode":"14554","locality":"Seddiner See","municipality":{"key":"12069596","name":"Seddiner See","type":"Kreisangehörige_Gemeinde"},"district":{"key":"12069","name":"Potsdam-Mittelmark","type":"Landkreis"},"federalState":{"key":"12","name":"Brandenburg"}},{"name":"Wiesenweg","postalCode":"14554","locality":"Seddiner See","municipality":{"key":"12069596","name":"Seddiner See","type":"Kreisangehörige_Gemeinde"},"district":{"key":"12069","name":"Potsdam-Mittelmark","type":"Landkreis"},"federalState":{"key":"12","name":"Brandenburg"}},{"name":"Zum Sportplatz","postalCode":"14554","locality":"Seddiner See","municipality":{"key":"12069596","name":"Seddiner See","type":"Kreisangehörige_Gemeinde"},"district":{"key":"12069","name":"Potsdam-Mittelmark","type":"Landkreis"},"federalState":{"key":"12","name":"Brandenburg"}},]