[{"key":"10116252","name":"Altmoos","postalCode":"6287","locality":"Aesch LU","commune":{"key":"1021","name":"Aesch (LU)","shortName":"Aesch (LU)"},"district":{"key":"313","name":"Wahlkreis Hochdorf"},"canton":{"key":"3","code":"LU","name":"Luzern"},"status":"Real"},{"key":"10110299","name":"Am See","postalCode":"6287","locality":"Aesch LU","commune":{"key":"1021","name":"Aesch (LU)","shortName":"Aesch (LU)"},"district":{"key":"313","name":"Wahlkreis Hochdorf"},"canton":{"key":"3","code":"LU","name":"Luzern"},"status":"Real"},{"key":"10123193","name":"Ausserbirg","postalCode":"6287","locality":"Aesch LU","commune":{"key":"1021","name":"Aesch (LU)","shortName":"Aesch (LU)"},"district":{"key":"313","name":"Wahlkreis Hochdorf"},"canton":{"key":"3","code":"LU","name":"Luzern"},"status":"Real"},{"key":"10015772","name":"Bachmatt","postalCode":"6287","locality":"Aesch LU","commune":{"key":"1021","name":"Aesch (LU)","shortName":"Aesch (LU)"},"district":{"key":"313","name":"Wahlkreis Hochdorf"},"canton":{"key":"3","code":"LU","name":"Luzern"},"status":"Real"},{"key":"10015773","name":"Bachweg","postalCode":"6287","locality":"Aesch LU","commune":{"key":"1021","name":"Aesch (LU)","shortName":"Aesch (LU)"},"district":{"key":"313","name":"Wahlkreis Hochdorf"},"canton":{"key":"3","code":"LU","name":"Luzern"},"status":"Real"},{"key":"10064704","name":"Berghof","postalCode":"6287","locality":"Aesch LU","commune":{"key":"1021","name":"Aesch (LU)","shortName":"Aesch (LU)"},"district":{"key":"313","name":"Wahlkreis Hochdorf"},"canton":{"key":"3","code":"LU","name":"Luzern"},"status":"Real"},{"key":"10123254","name":"Birkenweg","postalCode":"6287","locality":"Aesch LU","commune":{"key":"1021","name":"Aesch (LU)","shortName":"Aesch (LU)"},"district":{"key":"313","name":"Wahlkreis Hochdorf"},"canton":{"key":"3","code":"LU","name":"Luzern"},"status":"Real"},{"key":"10184361","name":"Buchenweg","postalCode":"6287","locality":"Aesch LU","commune":{"key":"1021","name":"Aesch (LU)","shortName":"Aesch (LU)"},"district":{"key":"313","name":"Wahlkreis Hochdorf"},"canton":{"key":"3","code":"LU","name":"Luzern"},"status":"Real"},{"key":"10015774","name":"Buistrasse","postalCode":"6287","locality":"Aesch LU","commune":{"key":"1021","name":"Aesch (LU)","shortName":"Aesch (LU)"},"district":{"key":"313","name":"Wahlkreis Hochdorf"},"canton":{"key":"3","code":"LU","name":"Luzern"},"status":"Real"},{"key":"10064705","name":"Burghölzli","postalCode":"6287","locality":"Aesch LU","commune":{"key":"1021","name":"Aesch (LU)","shortName":"Aesch (LU)"},"district":{"key":"313","name":"Wahlkreis Hochdorf"},"canton":{"key":"3","code":"LU","name":"Luzern"},"status":"Real"},{"key":"10015775","name":"Burgmatte","postalCode":"6287","locality":"Aesch LU","commune":{"key":"1021","name":"Aesch (LU)","shortName":"Aesch (LU)"},"district":{"key":"313","name":"Wahlkreis Hochdorf"},"canton":{"key":"3","code":"LU","name":"Luzern"},"status":"Real"},{"key":"10015776","name":"Donaustrasse","postalCode":"6287","locality":"Aesch LU","commune":{"key":"1021","name":"Aesch (LU)","shortName":"Aesch (LU)"},"district":{"key":"313","name":"Wahlkreis Hochdorf"},"canton":{"key":"3","code":"LU","name":"Luzern"},"status":"Real"},{"key":"10015777","name":"Dorfweg","postalCode":"6287","locality":"Aesch LU","commune":{"key":"1021","name":"Aesch (LU)","shortName":"Aesch (LU)"},"district":{"key":"313","name":"Wahlkreis Hochdorf"},"canton":{"key":"3","code":"LU","name":"Luzern"},"status":"Real"},{"key":"10015778","name":"Egg","postalCode":"6287","locality":"Aesch LU","commune":{"key":"1021","name":"Aesch (LU)","shortName":"Aesch (LU)"},"district":{"key":"313","name":"Wahlkreis Hochdorf"},"canton":{"key":"3","code":"LU","name":"Luzern"},"status":"Real"},{"key":"10180716","name":"Eggstrasse","postalCode":"6287","locality":"Aesch LU","commune":{"key":"1021","name":"Aesch (LU)","shortName":"Aesch (LU)"},"district":{"key":"313","name":"Wahlkreis Hochdorf"},"canton":{"key":"3","code":"LU","name":"Luzern"},"status":"Real"},{"key":"10256506","name":"Eggwald","postalCode":"6287","locality":"Aesch LU","commune":{"key":"1021","name":"Aesch (LU)","shortName":"Aesch (LU)"},"district":{"key":"313","name":"Wahlkreis Hochdorf"},"canton":{"key":"3","code":"LU","name":"Luzern"},"status":"Real"},{"key":"10118638","name":"Elvis-Presley-Weg","postalCode":"6287","locality":"Aesch LU","commune":{"key":"1021","name":"Aesch (LU)","shortName":"Aesch (LU)"},"district":{"key":"313","name":"Wahlkreis Hochdorf"},"canton":{"key":"3","code":"LU","name":"Luzern"},"status":"Real"},{"key":"10064706","name":"Ess","postalCode":"6287","locality":"Aesch LU","commune":{"key":"1021","name":"Aesch (LU)","shortName":"Aesch (LU)"},"district":{"key":"313","name":"Wahlkreis Hochdorf"},"canton":{"key":"3","code":"LU","name":"Luzern"},"status":"Real"},{"key":"10189689","name":"Fahrwangenstrasse","postalCode":"6287","locality":"Aesch LU","commune":{"key":"1021","name":"Aesch (LU)","shortName":"Aesch (LU)"},"district":{"key":"313","name":"Wahlkreis Hochdorf"},"canton":{"key":"3","code":"LU","name":"Luzern"},"status":"Real"},{"key":"10208845","name":"Feldweg","postalCode":"6287","locality":"Aesch LU","commune":{"key":"1021","name":"Aesch (LU)","shortName":"Aesch (LU)"},"district":{"key":"313","name":"Wahlkreis Hochdorf"},"canton":{"key":"3","code":"LU","name":"Luzern"},"status":"Real"},{"key":"10110300","name":"Fildistrasse","postalCode":"6287","locality":"Aesch LU","commune":{"key":"1021","name":"Aesch (LU)","shortName":"Aesch (LU)"},"district":{"key":"313","name":"Wahlkreis Hochdorf"},"canton":{"key":"3","code":"LU","name":"Luzern"},"status":"Real"},{"key":"10064707","name":"Fildiweg","postalCode":"6287","locality":"Aesch LU","commune":{"key":"1021","name":"Aesch (LU)","shortName":"Aesch (LU)"},"district":{"key":"313","name":"Wahlkreis Hochdorf"},"canton":{"key":"3","code":"LU","name":"Luzern"},"status":"Real"},{"key":"10161997","name":"Gigennagelstrasse","postalCode":"6287","locality":"Aesch LU","commune":{"key":"1021","name":"Aesch (LU)","shortName":"Aesch (LU)"},"district":{"key":"313","name":"Wahlkreis Hochdorf"},"canton":{"key":"3","code":"LU","name":"Luzern"},"status":"Real"},{"key":"10085408","name":"Grossacherstrasse","postalCode":"6287","locality":"Aesch LU","commune":{"key":"1021","name":"Aesch (LU)","shortName":"Aesch (LU)"},"district":{"key":"313","name":"Wahlkreis Hochdorf"},"canton":{"key":"3","code":"LU","name":"Luzern"},"status":"Real"},{"key":"10184362","name":"Grossacker","postalCode":"6287","locality":"Aesch LU","commune":{"key":"1021","name":"Aesch (LU)","shortName":"Aesch (LU)"},"district":{"key":"313","name":"Wahlkreis Hochdorf"},"canton":{"key":"3","code":"LU","name":"Luzern"},"status":"Real"},{"key":"10144903","name":"Gut Waldhof","postalCode":"6287","locality":"Aesch LU","commune":{"key":"1021","name":"Aesch (LU)","shortName":"Aesch (LU)"},"district":{"key":"313","name":"Wahlkreis Hochdorf"},"canton":{"key":"3","code":"LU","name":"Luzern"},"status":"Real"},{"key":"10015779","name":"Haldenstrasse","postalCode":"6287","locality":"Aesch LU","commune":{"key":"1021","name":"Aesch (LU)","shortName":"Aesch (LU)"},"district":{"key":"313","name":"Wahlkreis Hochdorf"},"canton":{"key":"3","code":"LU","name":"Luzern"},"status":"Real"},{"key":"10105365","name":"Hauptstrasse","postalCode":"6287","locality":"Aesch LU","commune":{"key":"1021","name":"Aesch (LU)","shortName":"Aesch (LU)"},"district":{"key":"313","name":"Wahlkreis Hochdorf"},"canton":{"key":"3","code":"LU","name":"Luzern"},"status":"Real"},{"key":"10010202","name":"Honeriweid","postalCode":"6287","locality":"Aesch LU","commune":{"key":"1021","name":"Aesch (LU)","shortName":"Aesch (LU)"},"district":{"key":"313","name":"Wahlkreis Hochdorf"},"canton":{"key":"3","code":"LU","name":"Luzern"},"status":"Real"},{"key":"10085409","name":"Honeriweid","postalCode":"6287","locality":"Aesch LU","commune":{"key":"1021","name":"Aesch (LU)","shortName":"Aesch (LU)"},"district":{"key":"313","name":"Wahlkreis Hochdorf"},"canton":{"key":"3","code":"LU","name":"Luzern"},"status":"Real"},{"key":"10054635","name":"Im Feld","postalCode":"6287","locality":"Aesch LU","commune":{"key":"1021","name":"Aesch (LU)","shortName":"Aesch (LU)"},"district":{"key":"313","name":"Wahlkreis Hochdorf"},"canton":{"key":"3","code":"LU","name":"Luzern"},"status":"Real"},{"key":"10015780","name":"Im Vogelsang","postalCode":"6287","locality":"Aesch LU","commune":{"key":"1021","name":"Aesch (LU)","shortName":"Aesch (LU)"},"district":{"key":"313","name":"Wahlkreis Hochdorf"},"canton":{"key":"3","code":"LU","name":"Luzern"},"status":"Real"},{"key":"10015781","name":"Kapfmatt","postalCode":"6287","locality":"Aesch LU","commune":{"key":"1021","name":"Aesch (LU)","shortName":"Aesch (LU)"},"district":{"key":"313","name":"Wahlkreis Hochdorf"},"canton":{"key":"3","code":"LU","name":"Luzern"},"status":"Real"},{"key":"10184363","name":"Käppeliacher","postalCode":"6287","locality":"Aesch LU","commune":{"key":"1021","name":"Aesch (LU)","shortName":"Aesch (LU)"},"district":{"key":"313","name":"Wahlkreis Hochdorf"},"canton":{"key":"3","code":"LU","name":"Luzern"},"status":"Real"},{"key":"10064709","name":"Käppelistrasse","postalCode":"6287","locality":"Aesch LU","commune":{"key":"1021","name":"Aesch (LU)","shortName":"Aesch (LU)"},"district":{"key":"313","name":"Wahlkreis Hochdorf"},"canton":{"key":"3","code":"LU","name":"Luzern"},"status":"Real"},{"key":"10064708","name":"Kirchgasse","postalCode":"6287","locality":"Aesch LU","commune":{"key":"1021","name":"Aesch (LU)","shortName":"Aesch (LU)"},"district":{"key":"313","name":"Wahlkreis Hochdorf"},"canton":{"key":"3","code":"LU","name":"Luzern"},"status":"Real"},{"key":"10103874","name":"Klingelmatt","postalCode":"6287","locality":"Aesch LU","commune":{"key":"1021","name":"Aesch (LU)","shortName":"Aesch (LU)"},"district":{"key":"313","name":"Wahlkreis Hochdorf"},"canton":{"key":"3","code":"LU","name":"Luzern"},"status":"Real"},{"key":"10151875","name":"Klingelmattstrasse","postalCode":"6287","locality":"Aesch LU","commune":{"key":"1021","name":"Aesch (LU)","shortName":"Aesch (LU)"},"district":{"key":"313","name":"Wahlkreis Hochdorf"},"canton":{"key":"3","code":"LU","name":"Luzern"},"status":"Real"},{"key":"10130388","name":"Klingelmattweg","postalCode":"6287","locality":"Aesch LU","commune":{"key":"1021","name":"Aesch (LU)","shortName":"Aesch (LU)"},"district":{"key":"313","name":"Wahlkreis Hochdorf"},"canton":{"key":"3","code":"LU","name":"Luzern"},"status":"Real"},{"key":"10015782","name":"Klosterhof","postalCode":"6287","locality":"Aesch LU","commune":{"key":"1021","name":"Aesch (LU)","shortName":"Aesch (LU)"},"district":{"key":"313","name":"Wahlkreis Hochdorf"},"canton":{"key":"3","code":"LU","name":"Luzern"},"status":"Real"},{"key":"10085410","name":"Kreuzmatt","postalCode":"6287","locality":"Aesch LU","commune":{"key":"1021","name":"Aesch (LU)","shortName":"Aesch (LU)"},"district":{"key":"313","name":"Wahlkreis Hochdorf"},"canton":{"key":"3","code":"LU","name":"Luzern"},"status":"Real"},{"key":"10010179","name":"Kreuzplatz","postalCode":"6287","locality":"Aesch LU","commune":{"key":"1021","name":"Aesch (LU)","shortName":"Aesch (LU)"},"district":{"key":"313","name":"Wahlkreis Hochdorf"},"canton":{"key":"3","code":"LU","name":"Luzern"},"status":"Real"},{"key":"10085411","name":"Lädergasse","postalCode":"6287","locality":"Aesch LU","commune":{"key":"1021","name":"Aesch (LU)","shortName":"Aesch (LU)"},"district":{"key":"313","name":"Wahlkreis Hochdorf"},"canton":{"key":"3","code":"LU","name":"Luzern"},"status":"Real"},{"key":"10010180","name":"Langmatt","postalCode":"6287","locality":"Aesch LU","commune":{"key":"1021","name":"Aesch (LU)","shortName":"Aesch (LU)"},"district":{"key":"313","name":"Wahlkreis Hochdorf"},"canton":{"key":"3","code":"LU","name":"Luzern"},"status":"Real"},{"key":"10191464","name":"Moosmatten","postalCode":"6287","locality":"Aesch LU","commune":{"key":"1021","name":"Aesch (LU)","shortName":"Aesch (LU)"},"district":{"key":"313","name":"Wahlkreis Hochdorf"},"canton":{"key":"3","code":"LU","name":"Luzern"},"status":"Real"},{"key":"10010181","name":"Moosstrasse","postalCode":"6287","locality":"Aesch LU","commune":{"key":"1021","name":"Aesch (LU)","shortName":"Aesch (LU)"},"district":{"key":"313","name":"Wahlkreis Hochdorf"},"canton":{"key":"3","code":"LU","name":"Luzern"},"status":"Real"},{"key":"10206039","name":"Moosweg","postalCode":"6287","locality":"Aesch LU","commune":{"key":"1021","name":"Aesch (LU)","shortName":"Aesch (LU)"},"district":{"key":"313","name":"Wahlkreis Hochdorf"},"canton":{"key":"3","code":"LU","name":"Luzern"},"status":"Real"},{"key":"10010182","name":"Mosenstrasse","postalCode":"6287","locality":"Aesch LU","commune":{"key":"1021","name":"Aesch (LU)","shortName":"Aesch (LU)"},"district":{"key":"313","name":"Wahlkreis Hochdorf"},"canton":{"key":"3","code":"LU","name":"Luzern"},"status":"Real"},{"key":"10010183","name":"Mühle","postalCode":"6287","locality":"Aesch LU","commune":{"key":"1021","name":"Aesch (LU)","shortName":"Aesch (LU)"},"district":{"key":"313","name":"Wahlkreis Hochdorf"},"canton":{"key":"3","code":"LU","name":"Luzern"},"status":"Real"},{"key":"10117052","name":"Neumatt","postalCode":"6287","locality":"Aesch LU","commune":{"key":"1021","name":"Aesch (LU)","shortName":"Aesch (LU)"},"district":{"key":"313","name":"Wahlkreis Hochdorf"},"canton":{"key":"3","code":"LU","name":"Luzern"},"status":"Real"},{"key":"10010184","name":"Oberer Vogelsang","postalCode":"6287","locality":"Aesch LU","commune":{"key":"1021","name":"Aesch (LU)","shortName":"Aesch (LU)"},"district":{"key":"313","name":"Wahlkreis Hochdorf"},"canton":{"key":"3","code":"LU","name":"Luzern"},"status":"Real"},{"key":"10187247","name":"Panoramastrasse","postalCode":"6287","locality":"Aesch LU","commune":{"key":"1021","name":"Aesch (LU)","shortName":"Aesch (LU)"},"district":{"key":"313","name":"Wahlkreis Hochdorf"},"canton":{"key":"3","code":"LU","name":"Luzern"},"status":"Real"},{"key":"10085412","name":"Panoramaweg","postalCode":"6287","locality":"Aesch LU","commune":{"key":"1021","name":"Aesch (LU)","shortName":"Aesch (LU)"},"district":{"key":"313","name":"Wahlkreis Hochdorf"},"canton":{"key":"3","code":"LU","name":"Luzern"},"status":"Real"},{"key":"10184364","name":"Rebacker","postalCode":"6287","locality":"Aesch LU","commune":{"key":"1021","name":"Aesch (LU)","shortName":"Aesch (LU)"},"district":{"key":"313","name":"Wahlkreis Hochdorf"},"canton":{"key":"3","code":"LU","name":"Luzern"},"status":"Real"},{"key":"10010185","name":"Roodigstrasse","postalCode":"6287","locality":"Aesch LU","commune":{"key":"1021","name":"Aesch (LU)","shortName":"Aesch (LU)"},"district":{"key":"313","name":"Wahlkreis Hochdorf"},"canton":{"key":"3","code":"LU","name":"Luzern"},"status":"Real"},{"key":"10010186","name":"Rosenweg","postalCode":"6287","locality":"Aesch LU","commune":{"key":"1021","name":"Aesch (LU)","shortName":"Aesch (LU)"},"district":{"key":"313","name":"Wahlkreis Hochdorf"},"canton":{"key":"3","code":"LU","name":"Luzern"},"status":"Real"},{"key":"10207601","name":"Schandstrasse","postalCode":"6287","locality":"Aesch LU","commune":{"key":"1021","name":"Aesch (LU)","shortName":"Aesch (LU)"},"district":{"key":"313","name":"Wahlkreis Hochdorf"},"canton":{"key":"3","code":"LU","name":"Luzern"},"status":"Real"},{"key":"10105366","name":"Schongauerstrasse","postalCode":"6287","locality":"Aesch LU","commune":{"key":"1021","name":"Aesch (LU)","shortName":"Aesch (LU)"},"district":{"key":"313","name":"Wahlkreis Hochdorf"},"canton":{"key":"3","code":"LU","name":"Luzern"},"status":"Real"},{"key":"10173938","name":"Schürmattstrasse","postalCode":"6287","locality":"Aesch LU","commune":{"key":"1021","name":"Aesch (LU)","shortName":"Aesch (LU)"},"district":{"key":"313","name":"Wahlkreis Hochdorf"},"canton":{"key":"3","code":"LU","name":"Luzern"},"status":"Real"},{"key":"10085413","name":"Seehalde","postalCode":"6287","locality":"Aesch LU","commune":{"key":"1021","name":"Aesch (LU)","shortName":"Aesch (LU)"},"district":{"key":"313","name":"Wahlkreis Hochdorf"},"canton":{"key":"3","code":"LU","name":"Luzern"},"status":"Real"},{"key":"10244045","name":"Seematt","postalCode":"6287","locality":"Aesch LU","commune":{"key":"1021","name":"Aesch (LU)","shortName":"Aesch (LU)"},"district":{"key":"313","name":"Wahlkreis Hochdorf"},"canton":{"key":"3","code":"LU","name":"Luzern"},"status":"Real"},{"key":"10010188","name":"Sonnhalde","postalCode":"6287","locality":"Aesch LU","commune":{"key":"1021","name":"Aesch (LU)","shortName":"Aesch (LU)"},"district":{"key":"313","name":"Wahlkreis Hochdorf"},"canton":{"key":"3","code":"LU","name":"Luzern"},"status":"Real"},{"key":"10256505","name":"Stollen","postalCode":"6287","locality":"Aesch LU","commune":{"key":"1021","name":"Aesch (LU)","shortName":"Aesch (LU)"},"district":{"key":"313","name":"Wahlkreis Hochdorf"},"canton":{"key":"3","code":"LU","name":"Luzern"},"status":"Real"},{"key":"10110301","name":"Tellimatt","postalCode":"6287","locality":"Aesch LU","commune":{"key":"1021","name":"Aesch (LU)","shortName":"Aesch (LU)"},"district":{"key":"313","name":"Wahlkreis Hochdorf"},"canton":{"key":"3","code":"LU","name":"Luzern"},"status":"Real"},{"key":"10085414","name":"Tellimatthof","postalCode":"6287","locality":"Aesch LU","commune":{"key":"1021","name":"Aesch (LU)","shortName":"Aesch (LU)"},"district":{"key":"313","name":"Wahlkreis Hochdorf"},"canton":{"key":"3","code":"LU","name":"Luzern"},"status":"Real"},{"key":"10139643","name":"Tellimattstrasse","postalCode":"6287","locality":"Aesch LU","commune":{"key":"1021","name":"Aesch (LU)","shortName":"Aesch (LU)"},"district":{"key":"313","name":"Wahlkreis Hochdorf"},"canton":{"key":"3","code":"LU","name":"Luzern"},"status":"Real"},{"key":"10064710","name":"Tellimattweg","postalCode":"6287","locality":"Aesch LU","commune":{"key":"1021","name":"Aesch (LU)","shortName":"Aesch (LU)"},"district":{"key":"313","name":"Wahlkreis Hochdorf"},"canton":{"key":"3","code":"LU","name":"Luzern"},"status":"Real"},{"key":"10010189","name":"Unterdorf","postalCode":"6287","locality":"Aesch LU","commune":{"key":"1021","name":"Aesch (LU)","shortName":"Aesch (LU)"},"district":{"key":"313","name":"Wahlkreis Hochdorf"},"canton":{"key":"3","code":"LU","name":"Luzern"},"status":"Real"},{"key":"10184365","name":"Vogelsang","postalCode":"6287","locality":"Aesch LU","commune":{"key":"1021","name":"Aesch (LU)","shortName":"Aesch (LU)"},"district":{"key":"313","name":"Wahlkreis Hochdorf"},"canton":{"key":"3","code":"LU","name":"Luzern"},"status":"Real"},{"key":"10198719","name":"Vorderbui","postalCode":"6287","locality":"Aesch LU","commune":{"key":"1021","name":"Aesch (LU)","shortName":"Aesch (LU)"},"district":{"key":"313","name":"Wahlkreis Hochdorf"},"canton":{"key":"3","code":"LU","name":"Luzern"},"status":"Real"},{"key":"10010190","name":"Vorderdorf","postalCode":"6287","locality":"Aesch LU","commune":{"key":"1021","name":"Aesch (LU)","shortName":"Aesch (LU)"},"district":{"key":"313","name":"Wahlkreis Hochdorf"},"canton":{"key":"3","code":"LU","name":"Luzern"},"status":"Real"},{"key":"10012772","name":"Waldegg","postalCode":"6287","locality":"Aesch LU","commune":{"key":"1021","name":"Aesch (LU)","shortName":"Aesch (LU)"},"district":{"key":"313","name":"Wahlkreis Hochdorf"},"canton":{"key":"3","code":"LU","name":"Luzern"},"status":"Real"},{"key":"10174265","name":"Zielacherstrasse","postalCode":"6287","locality":"Aesch LU","commune":{"key":"1021","name":"Aesch (LU)","shortName":"Aesch (LU)"},"district":{"key":"313","name":"Wahlkreis Hochdorf"},"canton":{"key":"3","code":"LU","name":"Luzern"},"status":"Real"},{"key":"10118386","name":"Zollhaus","postalCode":"6287","locality":"Aesch LU","commune":{"key":"1021","name":"Aesch (LU)","shortName":"Aesch (LU)"},"district":{"key":"313","name":"Wahlkreis Hochdorf"},"canton":{"key":"3","code":"LU","name":"Luzern"},"status":"Real"},]