[{"name":"Alte Bahnstrecke","postalCode":"56204","locality":"Hillscheid","municipality":{"key":"07143031","name":"Hillscheid","type":"Kreisangehörige_Gemeinde"},"district":{"key":"07143","name":"Westerwaldkreis","type":"Landkreis"},"federalState":{"key":"07","name":"Rheinland-Pfalz"}},{"name":"Am Alten Bahnhof","postalCode":"56204","locality":"Hillscheid","municipality":{"key":"07143031","name":"Hillscheid","type":"Kreisangehörige_Gemeinde"},"district":{"key":"07143","name":"Westerwaldkreis","type":"Landkreis"},"federalState":{"key":"07","name":"Rheinland-Pfalz"}},{"name":"Am Hang","postalCode":"56204","locality":"Hillscheid","municipality":{"key":"07143031","name":"Hillscheid","type":"Kreisangehörige_Gemeinde"},"district":{"key":"07143","name":"Westerwaldkreis","type":"Landkreis"},"federalState":{"key":"07","name":"Rheinland-Pfalz"}},{"name":"Am Hartzberg","postalCode":"56204","locality":"Hillscheid","municipality":{"key":"07143031","name":"Hillscheid","type":"Kreisangehörige_Gemeinde"},"district":{"key":"07143","name":"Westerwaldkreis","type":"Landkreis"},"federalState":{"key":"07","name":"Rheinland-Pfalz"}},{"name":"Am Limes","postalCode":"56204","locality":"Hillscheid","municipality":{"key":"07143031","name":"Hillscheid","type":"Kreisangehörige_Gemeinde"},"district":{"key":"07143","name":"Westerwaldkreis","type":"Landkreis"},"federalState":{"key":"07","name":"Rheinland-Pfalz"}},{"name":"Am Lübersch","postalCode":"56204","locality":"Hillscheid","municipality":{"key":"07143031","name":"Hillscheid","type":"Kreisangehörige_Gemeinde"},"district":{"key":"07143","name":"Westerwaldkreis","type":"Landkreis"},"federalState":{"key":"07","name":"Rheinland-Pfalz"}},{"name":"Am Sorchem","postalCode":"56204","locality":"Hillscheid","municipality":{"key":"07143031","name":"Hillscheid","type":"Kreisangehörige_Gemeinde"},"district":{"key":"07143","name":"Westerwaldkreis","type":"Landkreis"},"federalState":{"key":"07","name":"Rheinland-Pfalz"}},{"name":"Am Waldsportplatz","postalCode":"56204","locality":"Hillscheid","municipality":{"key":"07143031","name":"Hillscheid","type":"Kreisangehörige_Gemeinde"},"district":{"key":"07143","name":"Westerwaldkreis","type":"Landkreis"},"federalState":{"key":"07","name":"Rheinland-Pfalz"}},{"name":"Bahnhofstr.","postalCode":"56204","locality":"Hillscheid","municipality":{"key":"07143031","name":"Hillscheid","type":"Kreisangehörige_Gemeinde"},"district":{"key":"07143","name":"Westerwaldkreis","type":"Landkreis"},"federalState":{"key":"07","name":"Rheinland-Pfalz"}},{"name":"Bergstr.","postalCode":"56204","locality":"Hillscheid","municipality":{"key":"07143031","name":"Hillscheid","type":"Kreisangehörige_Gemeinde"},"district":{"key":"07143","name":"Westerwaldkreis","type":"Landkreis"},"federalState":{"key":"07","name":"Rheinland-Pfalz"}},{"name":"Birkenweg","postalCode":"56204","locality":"Hillscheid","municipality":{"key":"07143031","name":"Hillscheid","type":"Kreisangehörige_Gemeinde"},"district":{"key":"07143","name":"Westerwaldkreis","type":"Landkreis"},"federalState":{"key":"07","name":"Rheinland-Pfalz"}},{"name":"Brunnenweg","postalCode":"56204","locality":"Hillscheid","municipality":{"key":"07143031","name":"Hillscheid","type":"Kreisangehörige_Gemeinde"},"district":{"key":"07143","name":"Westerwaldkreis","type":"Landkreis"},"federalState":{"key":"07","name":"Rheinland-Pfalz"}},{"name":"Eichenweg","postalCode":"56204","locality":"Hillscheid","municipality":{"key":"07143031","name":"Hillscheid","type":"Kreisangehörige_Gemeinde"},"district":{"key":"07143","name":"Westerwaldkreis","type":"Landkreis"},"federalState":{"key":"07","name":"Rheinland-Pfalz"}},{"name":"Emser Str.","postalCode":"56204","locality":"Hillscheid","municipality":{"key":"07143031","name":"Hillscheid","type":"Kreisangehörige_Gemeinde"},"district":{"key":"07143","name":"Westerwaldkreis","type":"Landkreis"},"federalState":{"key":"07","name":"Rheinland-Pfalz"}},{"name":"Franz-Schubert-Str.","postalCode":"56204","locality":"Hillscheid","municipality":{"key":"07143031","name":"Hillscheid","type":"Kreisangehörige_Gemeinde"},"district":{"key":"07143","name":"Westerwaldkreis","type":"Landkreis"},"federalState":{"key":"07","name":"Rheinland-Pfalz"}},{"name":"Freiherr-vom-Stein-Str.","postalCode":"56204","locality":"Hillscheid","municipality":{"key":"07143031","name":"Hillscheid","type":"Kreisangehörige_Gemeinde"},"district":{"key":"07143","name":"Westerwaldkreis","type":"Landkreis"},"federalState":{"key":"07","name":"Rheinland-Pfalz"}},{"name":"Gartenstr.","postalCode":"56204","locality":"Hillscheid","municipality":{"key":"07143031","name":"Hillscheid","type":"Kreisangehörige_Gemeinde"},"district":{"key":"07143","name":"Westerwaldkreis","type":"Landkreis"},"federalState":{"key":"07","name":"Rheinland-Pfalz"}},{"name":"Goethestr.","postalCode":"56204","locality":"Hillscheid","municipality":{"key":"07143031","name":"Hillscheid","type":"Kreisangehörige_Gemeinde"},"district":{"key":"07143","name":"Westerwaldkreis","type":"Landkreis"},"federalState":{"key":"07","name":"Rheinland-Pfalz"}},{"name":"Hauptstr.","postalCode":"56204","locality":"Hillscheid","municipality":{"key":"07143031","name":"Hillscheid","type":"Kreisangehörige_Gemeinde"},"district":{"key":"07143","name":"Westerwaldkreis","type":"Landkreis"},"federalState":{"key":"07","name":"Rheinland-Pfalz"}},{"name":"Hof Hüttenhügel","postalCode":"56204","locality":"Hillscheid","municipality":{"key":"07143031","name":"Hillscheid","type":"Kreisangehörige_Gemeinde"},"district":{"key":"07143","name":"Westerwaldkreis","type":"Landkreis"},"federalState":{"key":"07","name":"Rheinland-Pfalz"}},{"name":"Höhenstr.","postalCode":"56204","locality":"Hillscheid","municipality":{"key":"07143031","name":"Hillscheid","type":"Kreisangehörige_Gemeinde"},"district":{"key":"07143","name":"Westerwaldkreis","type":"Landkreis"},"federalState":{"key":"07","name":"Rheinland-Pfalz"}},{"name":"Höhrer Str.","postalCode":"56204","locality":"Hillscheid","municipality":{"key":"07143031","name":"Hillscheid","type":"Kreisangehörige_Gemeinde"},"district":{"key":"07143","name":"Westerwaldkreis","type":"Landkreis"},"federalState":{"key":"07","name":"Rheinland-Pfalz"}},{"name":"Hubertusstr.","postalCode":"56204","locality":"Hillscheid","municipality":{"key":"07143031","name":"Hillscheid","type":"Kreisangehörige_Gemeinde"},"district":{"key":"07143","name":"Westerwaldkreis","type":"Landkreis"},"federalState":{"key":"07","name":"Rheinland-Pfalz"}},{"name":"Huffert","postalCode":"56204","locality":"Hillscheid","municipality":{"key":"07143031","name":"Hillscheid","type":"Kreisangehörige_Gemeinde"},"district":{"key":"07143","name":"Westerwaldkreis","type":"Landkreis"},"federalState":{"key":"07","name":"Rheinland-Pfalz"}},{"name":"Ignatius-Lötschert-Str.","postalCode":"56204","locality":"Hillscheid","municipality":{"key":"07143031","name":"Hillscheid","type":"Kreisangehörige_Gemeinde"},"district":{"key":"07143","name":"Westerwaldkreis","type":"Landkreis"},"federalState":{"key":"07","name":"Rheinland-Pfalz"}},{"name":"Im Kühlbach","postalCode":"56204","locality":"Hillscheid","municipality":{"key":"07143031","name":"Hillscheid","type":"Kreisangehörige_Gemeinde"},"district":{"key":"07143","name":"Westerwaldkreis","type":"Landkreis"},"federalState":{"key":"07","name":"Rheinland-Pfalz"}},{"name":"Im Niederfeld","postalCode":"56204","locality":"Hillscheid","municipality":{"key":"07143031","name":"Hillscheid","type":"Kreisangehörige_Gemeinde"},"district":{"key":"07143","name":"Westerwaldkreis","type":"Landkreis"},"federalState":{"key":"07","name":"Rheinland-Pfalz"}},{"name":"Im Ohndorf","postalCode":"56204","locality":"Hillscheid","municipality":{"key":"07143031","name":"Hillscheid","type":"Kreisangehörige_Gemeinde"},"district":{"key":"07143","name":"Westerwaldkreis","type":"Landkreis"},"federalState":{"key":"07","name":"Rheinland-Pfalz"}},{"name":"Im Rötchen","postalCode":"56204","locality":"Hillscheid","municipality":{"key":"07143031","name":"Hillscheid","type":"Kreisangehörige_Gemeinde"},"district":{"key":"07143","name":"Westerwaldkreis","type":"Landkreis"},"federalState":{"key":"07","name":"Rheinland-Pfalz"}},{"name":"In den Buchen","postalCode":"56204","locality":"Hillscheid","municipality":{"key":"07143031","name":"Hillscheid","type":"Kreisangehörige_Gemeinde"},"district":{"key":"07143","name":"Westerwaldkreis","type":"Landkreis"},"federalState":{"key":"07","name":"Rheinland-Pfalz"}},{"name":"In den Gärten","postalCode":"56204","locality":"Hillscheid","municipality":{"key":"07143031","name":"Hillscheid","type":"Kreisangehörige_Gemeinde"},"district":{"key":"07143","name":"Westerwaldkreis","type":"Landkreis"},"federalState":{"key":"07","name":"Rheinland-Pfalz"}},{"name":"Jägerpfad","postalCode":"56204","locality":"Hillscheid","municipality":{"key":"07143031","name":"Hillscheid","type":"Kreisangehörige_Gemeinde"},"district":{"key":"07143","name":"Westerwaldkreis","type":"Landkreis"},"federalState":{"key":"07","name":"Rheinland-Pfalz"}},{"name":"Jahnstr.","postalCode":"56204","locality":"Hillscheid","municipality":{"key":"07143031","name":"Hillscheid","type":"Kreisangehörige_Gemeinde"},"district":{"key":"07143","name":"Westerwaldkreis","type":"Landkreis"},"federalState":{"key":"07","name":"Rheinland-Pfalz"}},{"name":"Johann-Theodor-Kleudgen-Str.","postalCode":"56204","locality":"Hillscheid","municipality":{"key":"07143031","name":"Hillscheid","type":"Kreisangehörige_Gemeinde"},"district":{"key":"07143","name":"Westerwaldkreis","type":"Landkreis"},"federalState":{"key":"07","name":"Rheinland-Pfalz"}},{"name":"Kastanienweg","postalCode":"56204","locality":"Hillscheid","municipality":{"key":"07143031","name":"Hillscheid","type":"Kreisangehörige_Gemeinde"},"district":{"key":"07143","name":"Westerwaldkreis","type":"Landkreis"},"federalState":{"key":"07","name":"Rheinland-Pfalz"}},{"name":"Kiefernweg","postalCode":"56204","locality":"Hillscheid","municipality":{"key":"07143031","name":"Hillscheid","type":"Kreisangehörige_Gemeinde"},"district":{"key":"07143","name":"Westerwaldkreis","type":"Landkreis"},"federalState":{"key":"07","name":"Rheinland-Pfalz"}},{"name":"Kirchstr.","postalCode":"56204","locality":"Hillscheid","municipality":{"key":"07143031","name":"Hillscheid","type":"Kreisangehörige_Gemeinde"},"district":{"key":"07143","name":"Westerwaldkreis","type":"Landkreis"},"federalState":{"key":"07","name":"Rheinland-Pfalz"}},{"name":"Kirmesplatz","postalCode":"56204","locality":"Hillscheid","municipality":{"key":"07143031","name":"Hillscheid","type":"Kreisangehörige_Gemeinde"},"district":{"key":"07143","name":"Westerwaldkreis","type":"Landkreis"},"federalState":{"key":"07","name":"Rheinland-Pfalz"}},{"name":"Kolpingstr.","postalCode":"56204","locality":"Hillscheid","municipality":{"key":"07143031","name":"Hillscheid","type":"Kreisangehörige_Gemeinde"},"district":{"key":"07143","name":"Westerwaldkreis","type":"Landkreis"},"federalState":{"key":"07","name":"Rheinland-Pfalz"}},{"name":"Lindenstr.","postalCode":"56204","locality":"Hillscheid","municipality":{"key":"07143031","name":"Hillscheid","type":"Kreisangehörige_Gemeinde"},"district":{"key":"07143","name":"Westerwaldkreis","type":"Landkreis"},"federalState":{"key":"07","name":"Rheinland-Pfalz"}},{"name":"Mittelstr.","postalCode":"56204","locality":"Hillscheid","municipality":{"key":"07143031","name":"Hillscheid","type":"Kreisangehörige_Gemeinde"},"district":{"key":"07143","name":"Westerwaldkreis","type":"Landkreis"},"federalState":{"key":"07","name":"Rheinland-Pfalz"}},{"name":"Pfarrer-Keil-Str.","postalCode":"56204","locality":"Hillscheid","municipality":{"key":"07143031","name":"Hillscheid","type":"Kreisangehörige_Gemeinde"},"district":{"key":"07143","name":"Westerwaldkreis","type":"Landkreis"},"federalState":{"key":"07","name":"Rheinland-Pfalz"}},{"name":"Querstr.","postalCode":"56204","locality":"Hillscheid","municipality":{"key":"07143031","name":"Hillscheid","type":"Kreisangehörige_Gemeinde"},"district":{"key":"07143","name":"Westerwaldkreis","type":"Landkreis"},"federalState":{"key":"07","name":"Rheinland-Pfalz"}},{"name":"Raiffeisenstr.","postalCode":"56204","locality":"Hillscheid","municipality":{"key":"07143031","name":"Hillscheid","type":"Kreisangehörige_Gemeinde"},"district":{"key":"07143","name":"Westerwaldkreis","type":"Landkreis"},"federalState":{"key":"07","name":"Rheinland-Pfalz"}},{"name":"Rheinstr.","postalCode":"56204","locality":"Hillscheid","municipality":{"key":"07143031","name":"Hillscheid","type":"Kreisangehörige_Gemeinde"},"district":{"key":"07143","name":"Westerwaldkreis","type":"Landkreis"},"federalState":{"key":"07","name":"Rheinland-Pfalz"}},{"name":"Ringstr.","postalCode":"56204","locality":"Hillscheid","municipality":{"key":"07143031","name":"Hillscheid","type":"Kreisangehörige_Gemeinde"},"district":{"key":"07143","name":"Westerwaldkreis","type":"Landkreis"},"federalState":{"key":"07","name":"Rheinland-Pfalz"}},{"name":"Römerstr.","postalCode":"56204","locality":"Hillscheid","municipality":{"key":"07143031","name":"Hillscheid","type":"Kreisangehörige_Gemeinde"},"district":{"key":"07143","name":"Westerwaldkreis","type":"Landkreis"},"federalState":{"key":"07","name":"Rheinland-Pfalz"}},{"name":"Rosenweg","postalCode":"56204","locality":"Hillscheid","municipality":{"key":"07143031","name":"Hillscheid","type":"Kreisangehörige_Gemeinde"},"district":{"key":"07143","name":"Westerwaldkreis","type":"Landkreis"},"federalState":{"key":"07","name":"Rheinland-Pfalz"}},{"name":"Schulstr.","postalCode":"56204","locality":"Hillscheid","municipality":{"key":"07143031","name":"Hillscheid","type":"Kreisangehörige_Gemeinde"},"district":{"key":"07143","name":"Westerwaldkreis","type":"Landkreis"},"federalState":{"key":"07","name":"Rheinland-Pfalz"}},{"name":"Schwarzer Weg","postalCode":"56204","locality":"Hillscheid","municipality":{"key":"07143031","name":"Hillscheid","type":"Kreisangehörige_Gemeinde"},"district":{"key":"07143","name":"Westerwaldkreis","type":"Landkreis"},"federalState":{"key":"07","name":"Rheinland-Pfalz"}},{"name":"Sonnenweg","postalCode":"56204","locality":"Hillscheid","municipality":{"key":"07143031","name":"Hillscheid","type":"Kreisangehörige_Gemeinde"},"district":{"key":"07143","name":"Westerwaldkreis","type":"Landkreis"},"federalState":{"key":"07","name":"Rheinland-Pfalz"}},{"name":"Talweg","postalCode":"56204","locality":"Hillscheid","municipality":{"key":"07143031","name":"Hillscheid","type":"Kreisangehörige_Gemeinde"},"district":{"key":"07143","name":"Westerwaldkreis","type":"Landkreis"},"federalState":{"key":"07","name":"Rheinland-Pfalz"}},{"name":"Unter dem Dorf","postalCode":"56204","locality":"Hillscheid","municipality":{"key":"07143031","name":"Hillscheid","type":"Kreisangehörige_Gemeinde"},"district":{"key":"07143","name":"Westerwaldkreis","type":"Landkreis"},"federalState":{"key":"07","name":"Rheinland-Pfalz"}},{"name":"Waldstr.","postalCode":"56204","locality":"Hillscheid","municipality":{"key":"07143031","name":"Hillscheid","type":"Kreisangehörige_Gemeinde"},"district":{"key":"07143","name":"Westerwaldkreis","type":"Landkreis"},"federalState":{"key":"07","name":"Rheinland-Pfalz"}},{"name":"Wiesenstr.","postalCode":"56204","locality":"Hillscheid","municipality":{"key":"07143031","name":"Hillscheid","type":"Kreisangehörige_Gemeinde"},"district":{"key":"07143","name":"Westerwaldkreis","type":"Landkreis"},"federalState":{"key":"07","name":"Rheinland-Pfalz"}},{"name":"Zum Hartzberg","postalCode":"56204","locality":"Hillscheid","municipality":{"key":"07143031","name":"Hillscheid","type":"Kreisangehörige_Gemeinde"},"district":{"key":"07143","name":"Westerwaldkreis","type":"Landkreis"},"federalState":{"key":"07","name":"Rheinland-Pfalz"}},]