[{"key":"10175101","name":"Chemin de Champ-Bise","postalCode":"1195","locality":"Bursinel","commune":{"key":"5852","name":"Bursinel","shortName":"Bursinel"},"district":{"key":"2228","name":"District de Nyon"},"canton":{"key":"22","code":"VD","name":"Vaud"},"status":"Real"},{"key":"10045679","name":"Chemin de Chavannes","postalCode":"1195","locality":"Bursinel","commune":{"key":"5852","name":"Bursinel","shortName":"Bursinel"},"district":{"key":"2228","name":"District de Nyon"},"canton":{"key":"22","code":"VD","name":"Vaud"},"status":"Real"},{"key":"10169350","name":"Chemin de la Chaumière","postalCode":"1195","locality":"Bursinel","commune":{"key":"5852","name":"Bursinel","shortName":"Bursinel"},"district":{"key":"2228","name":"District de Nyon"},"canton":{"key":"22","code":"VD","name":"Vaud"},"status":"Real"},{"key":"10175102","name":"Chemin de l'Horizon","postalCode":"1195","locality":"Bursinel","commune":{"key":"5852","name":"Bursinel","shortName":"Bursinel"},"district":{"key":"2228","name":"District de Nyon"},"canton":{"key":"22","code":"VD","name":"Vaud"},"status":"Real"},{"key":"10175103","name":"Chemin des Peccaudes","postalCode":"1195","locality":"Bursinel","commune":{"key":"5852","name":"Bursinel","shortName":"Bursinel"},"district":{"key":"2228","name":"District de Nyon"},"canton":{"key":"22","code":"VD","name":"Vaud"},"status":"Real"},{"key":"10045683","name":"Chemin des Tattes","postalCode":"1195","locality":"Bursinel","commune":{"key":"5852","name":"Bursinel","shortName":"Bursinel"},"district":{"key":"2228","name":"District de Nyon"},"canton":{"key":"22","code":"VD","name":"Vaud"},"status":"Real"},{"key":"10170393","name":"Chemin des Vergers","postalCode":"1195","locality":"Bursinel","commune":{"key":"5852","name":"Bursinel","shortName":"Bursinel"},"district":{"key":"2228","name":"District de Nyon"},"canton":{"key":"22","code":"VD","name":"Vaud"},"status":"Real"},{"key":"10190127","name":"Chemin du Bochet","postalCode":"1195","locality":"Bursinel","commune":{"key":"5852","name":"Bursinel","shortName":"Bursinel"},"district":{"key":"2228","name":"District de Nyon"},"canton":{"key":"22","code":"VD","name":"Vaud"},"status":"Real"},{"key":"10104475","name":"Chemin du Lignage","postalCode":"1195","locality":"Bursinel","commune":{"key":"5852","name":"Bursinel","shortName":"Bursinel"},"district":{"key":"2228","name":"District de Nyon"},"canton":{"key":"22","code":"VD","name":"Vaud"},"status":"Real"},{"key":"10166601","name":"Chemin du Vieux-Lignage","postalCode":"1195","locality":"Bursinel","commune":{"key":"5852","name":"Bursinel","shortName":"Bursinel"},"district":{"key":"2228","name":"District de Nyon"},"canton":{"key":"22","code":"VD","name":"Vaud"},"status":"Real"},{"key":"10104474","name":"Chemin En Convers","postalCode":"1195","locality":"Bursinel","commune":{"key":"5852","name":"Bursinel","shortName":"Bursinel"},"district":{"key":"2228","name":"District de Nyon"},"canton":{"key":"22","code":"VD","name":"Vaud"},"status":"Real"},{"key":"10068585","name":"La Baraude","postalCode":"1195","locality":"Bursinel","commune":{"key":"5852","name":"Bursinel","shortName":"Bursinel"},"district":{"key":"2228","name":"District de Nyon"},"canton":{"key":"22","code":"VD","name":"Vaud"},"status":"Real"},{"key":"10191682","name":"L'Oujonnet","postalCode":"1195","locality":"Bursinel","commune":{"key":"5852","name":"Bursinel","shortName":"Bursinel"},"district":{"key":"2228","name":"District de Nyon"},"canton":{"key":"22","code":"VD","name":"Vaud"},"status":"Real"},{"key":"10161150","name":"Route de la Broillette","postalCode":"1195","locality":"Bursinel","commune":{"key":"5852","name":"Bursinel","shortName":"Bursinel"},"district":{"key":"2228","name":"District de Nyon"},"canton":{"key":"22","code":"VD","name":"Vaud"},"status":"Real"},{"key":"10104476","name":"Route de la Gare","postalCode":"1195","locality":"Bursinel","commune":{"key":"5852","name":"Bursinel","shortName":"Bursinel"},"district":{"key":"2228","name":"District de Nyon"},"canton":{"key":"22","code":"VD","name":"Vaud"},"status":"Real"},{"key":"10160885","name":"Route de Suisse","postalCode":"1195","locality":"Bursinel","commune":{"key":"5852","name":"Bursinel","shortName":"Bursinel"},"district":{"key":"2228","name":"District de Nyon"},"canton":{"key":"22","code":"VD","name":"Vaud"},"status":"Real"},{"key":"10121748","name":"Route du Château","postalCode":"1195","locality":"Bursinel","commune":{"key":"5852","name":"Bursinel","shortName":"Bursinel"},"district":{"key":"2228","name":"District de Nyon"},"canton":{"key":"22","code":"VD","name":"Vaud"},"status":"Real"},{"key":"10161148","name":"Route du Chemin Neuf","postalCode":"1195","locality":"Bursinel","commune":{"key":"5852","name":"Bursinel","shortName":"Bursinel"},"district":{"key":"2228","name":"District de Nyon"},"canton":{"key":"22","code":"VD","name":"Vaud"},"status":"Real"},{"key":"10122897","name":"Route du Village","postalCode":"1195","locality":"Bursinel","commune":{"key":"5852","name":"Bursinel","shortName":"Bursinel"},"district":{"key":"2228","name":"District de Nyon"},"canton":{"key":"22","code":"VD","name":"Vaud"},"status":"Real"},{"key":"10068468","name":"Sur l'Oujonnet","postalCode":"1195","locality":"Bursinel","commune":{"key":"5852","name":"Bursinel","shortName":"Bursinel"},"district":{"key":"2228","name":"District de Nyon"},"canton":{"key":"22","code":"VD","name":"Vaud"},"status":"Real"},]