[{"name":"Am Haischbachtal","postalCode":"07646","locality":"Lippersdorf-Erdmannsdorf","municipality":{"key":"16074053","name":"Lippersdorf-Erdmannsdorf","type":"Kreisangehörige_Gemeinde"},"district":{"key":"16074","name":"Saale-Holzland-Kreis","type":"Landkreis"},"federalState":{"key":"16","name":"Thüringen"}},{"name":"Am Kirchberg","postalCode":"07646","locality":"Lippersdorf-Erdmannsdorf","municipality":{"key":"16074053","name":"Lippersdorf-Erdmannsdorf","type":"Kreisangehörige_Gemeinde"},"district":{"key":"16074","name":"Saale-Holzland-Kreis","type":"Landkreis"},"federalState":{"key":"16","name":"Thüringen"}},{"name":"Am Sommerberg","postalCode":"07646","locality":"Lippersdorf-Erdmannsdorf","municipality":{"key":"16074053","name":"Lippersdorf-Erdmannsdorf","type":"Kreisangehörige_Gemeinde"},"district":{"key":"16074","name":"Saale-Holzland-Kreis","type":"Landkreis"},"federalState":{"key":"16","name":"Thüringen"}},{"name":"Dreckiger Weg","postalCode":"07646","locality":"Lippersdorf-Erdmannsdorf","municipality":{"key":"16074053","name":"Lippersdorf-Erdmannsdorf","type":"Kreisangehörige_Gemeinde"},"district":{"key":"16074","name":"Saale-Holzland-Kreis","type":"Landkreis"},"federalState":{"key":"16","name":"Thüringen"}},{"name":"Im Oelsnitzgrund","postalCode":"07646","locality":"Lippersdorf-Erdmannsdorf","municipality":{"key":"16074053","name":"Lippersdorf-Erdmannsdorf","type":"Kreisangehörige_Gemeinde"},"district":{"key":"16074","name":"Saale-Holzland-Kreis","type":"Landkreis"},"federalState":{"key":"16","name":"Thüringen"}},{"name":"Kirchgasse","postalCode":"07646","locality":"Lippersdorf-Erdmannsdorf","municipality":{"key":"16074053","name":"Lippersdorf-Erdmannsdorf","type":"Kreisangehörige_Gemeinde"},"district":{"key":"16074","name":"Saale-Holzland-Kreis","type":"Landkreis"},"federalState":{"key":"16","name":"Thüringen"}},{"name":"Lindenstr.","postalCode":"07646","locality":"Lippersdorf-Erdmannsdorf","municipality":{"key":"16074053","name":"Lippersdorf-Erdmannsdorf","type":"Kreisangehörige_Gemeinde"},"district":{"key":"16074","name":"Saale-Holzland-Kreis","type":"Landkreis"},"federalState":{"key":"16","name":"Thüringen"}},{"name":"Mühlgasse","postalCode":"07646","locality":"Lippersdorf-Erdmannsdorf","municipality":{"key":"16074053","name":"Lippersdorf-Erdmannsdorf","type":"Kreisangehörige_Gemeinde"},"district":{"key":"16074","name":"Saale-Holzland-Kreis","type":"Landkreis"},"federalState":{"key":"16","name":"Thüringen"}},{"name":"Oelsnitztal","postalCode":"07646","locality":"Lippersdorf-Erdmannsdorf","municipality":{"key":"16074053","name":"Lippersdorf-Erdmannsdorf","type":"Kreisangehörige_Gemeinde"},"district":{"key":"16074","name":"Saale-Holzland-Kreis","type":"Landkreis"},"federalState":{"key":"16","name":"Thüringen"}},{"name":"Rodaer Str.","postalCode":"07646","locality":"Lippersdorf-Erdmannsdorf","municipality":{"key":"16074053","name":"Lippersdorf-Erdmannsdorf","type":"Kreisangehörige_Gemeinde"},"district":{"key":"16074","name":"Saale-Holzland-Kreis","type":"Landkreis"},"federalState":{"key":"16","name":"Thüringen"}},{"name":"Schulgasse","postalCode":"07646","locality":"Lippersdorf-Erdmannsdorf","municipality":{"key":"16074053","name":"Lippersdorf-Erdmannsdorf","type":"Kreisangehörige_Gemeinde"},"district":{"key":"16074","name":"Saale-Holzland-Kreis","type":"Landkreis"},"federalState":{"key":"16","name":"Thüringen"}},{"name":"Tälerweg","postalCode":"07646","locality":"Lippersdorf-Erdmannsdorf","municipality":{"key":"16074053","name":"Lippersdorf-Erdmannsdorf","type":"Kreisangehörige_Gemeinde"},"district":{"key":"16074","name":"Saale-Holzland-Kreis","type":"Landkreis"},"federalState":{"key":"16","name":"Thüringen"}},{"name":"Zur Scheune","postalCode":"07646","locality":"Lippersdorf-Erdmannsdorf","municipality":{"key":"16074053","name":"Lippersdorf-Erdmannsdorf","type":"Kreisangehörige_Gemeinde"},"district":{"key":"16074","name":"Saale-Holzland-Kreis","type":"Landkreis"},"federalState":{"key":"16","name":"Thüringen"}},]