[{"name":"Aarweg","postalCode":"35745","locality":"Herborn","municipality":{"key":"06532012","name":"Herborn, Stadt","type":"Stadt"},"district":{"key":"06532","name":"Lahn-Dill-Kreis","type":"Landkreis"},"federalState":{"key":"06","name":"Hessen"}},{"name":"Adalbert-Stifter-Weg","postalCode":"35745","locality":"Herborn","municipality":{"key":"06532012","name":"Herborn, Stadt","type":"Stadt"},"district":{"key":"06532","name":"Lahn-Dill-Kreis","type":"Landkreis"},"federalState":{"key":"06","name":"Hessen"}},{"name":"Adlerstr.","postalCode":"35745","locality":"Herborn","municipality":{"key":"06532012","name":"Herborn, Stadt","type":"Stadt"},"district":{"key":"06532","name":"Lahn-Dill-Kreis","type":"Landkreis"},"federalState":{"key":"06","name":"Hessen"}},{"name":"Alsbachblick","postalCode":"35745","locality":"Herborn","municipality":{"key":"06532012","name":"Herborn, Stadt","type":"Stadt"},"district":{"key":"06532","name":"Lahn-Dill-Kreis","type":"Landkreis"},"federalState":{"key":"06","name":"Hessen"}},{"name":"Alsbachstr.","postalCode":"35745","locality":"Herborn","municipality":{"key":"06532012","name":"Herborn, Stadt","type":"Stadt"},"district":{"key":"06532","name":"Lahn-Dill-Kreis","type":"Landkreis"},"federalState":{"key":"06","name":"Hessen"}},{"name":"Alstedstr.","postalCode":"35745","locality":"Herborn","municipality":{"key":"06532012","name":"Herborn, Stadt","type":"Stadt"},"district":{"key":"06532","name":"Lahn-Dill-Kreis","type":"Landkreis"},"federalState":{"key":"06","name":"Hessen"}},{"name":"Alte Beilsteiner Str.","postalCode":"35745","locality":"Herborn","municipality":{"key":"06532012","name":"Herborn, Stadt","type":"Stadt"},"district":{"key":"06532","name":"Lahn-Dill-Kreis","type":"Landkreis"},"federalState":{"key":"06","name":"Hessen"}},{"name":"Alte Dorfstr.","postalCode":"35745","locality":"Herborn","municipality":{"key":"06532012","name":"Herborn, Stadt","type":"Stadt"},"district":{"key":"06532","name":"Lahn-Dill-Kreis","type":"Landkreis"},"federalState":{"key":"06","name":"Hessen"}},{"name":"Alte Hauptstr.","postalCode":"35745","locality":"Herborn","municipality":{"key":"06532012","name":"Herborn, Stadt","type":"Stadt"},"district":{"key":"06532","name":"Lahn-Dill-Kreis","type":"Landkreis"},"federalState":{"key":"06","name":"Hessen"}},{"name":"Alte Leipziger Str.","postalCode":"35745","locality":"Herborn","municipality":{"key":"06532012","name":"Herborn, Stadt","type":"Stadt"},"district":{"key":"06532","name":"Lahn-Dill-Kreis","type":"Landkreis"},"federalState":{"key":"06","name":"Hessen"}},{"name":"Alte Marburger Str.","postalCode":"35745","locality":"Herborn","municipality":{"key":"06532012","name":"Herborn, Stadt","type":"Stadt"},"district":{"key":"06532","name":"Lahn-Dill-Kreis","type":"Landkreis"},"federalState":{"key":"06","name":"Hessen"}},{"name":"Alte Poststr.","postalCode":"35745","locality":"Herborn","municipality":{"key":"06532012","name":"Herborn, Stadt","type":"Stadt"},"district":{"key":"06532","name":"Lahn-Dill-Kreis","type":"Landkreis"},"federalState":{"key":"06","name":"Hessen"}},{"name":"Alter Auweg","postalCode":"35745","locality":"Herborn","municipality":{"key":"06532012","name":"Herborn, Stadt","type":"Stadt"},"district":{"key":"06532","name":"Lahn-Dill-Kreis","type":"Landkreis"},"federalState":{"key":"06","name":"Hessen"}},{"name":"Alter Bahnhofsweg","postalCode":"35745","locality":"Herborn","municipality":{"key":"06532012","name":"Herborn, Stadt","type":"Stadt"},"district":{"key":"06532","name":"Lahn-Dill-Kreis","type":"Landkreis"},"federalState":{"key":"06","name":"Hessen"}},{"name":"Alter Kirchweg","postalCode":"35745","locality":"Herborn","municipality":{"key":"06532012","name":"Herborn, Stadt","type":"Stadt"},"district":{"key":"06532","name":"Lahn-Dill-Kreis","type":"Landkreis"},"federalState":{"key":"06","name":"Hessen"}},{"name":"Alter Weg","postalCode":"35745","locality":"Herborn","municipality":{"key":"06532012","name":"Herborn, Stadt","type":"Stadt"},"district":{"key":"06532","name":"Lahn-Dill-Kreis","type":"Landkreis"},"federalState":{"key":"06","name":"Hessen"}},{"name":"Althusiusweg","postalCode":"35745","locality":"Herborn","municipality":{"key":"06532012","name":"Herborn, Stadt","type":"Stadt"},"district":{"key":"06532","name":"Lahn-Dill-Kreis","type":"Landkreis"},"federalState":{"key":"06","name":"Hessen"}},{"name":"Am Apfelsberg","postalCode":"35745","locality":"Herborn","municipality":{"key":"06532012","name":"Herborn, Stadt","type":"Stadt"},"district":{"key":"06532","name":"Lahn-Dill-Kreis","type":"Landkreis"},"federalState":{"key":"06","name":"Hessen"}},{"name":"Am Bahnhof","postalCode":"35745","locality":"Herborn","municipality":{"key":"06532012","name":"Herborn, Stadt","type":"Stadt"},"district":{"key":"06532","name":"Lahn-Dill-Kreis","type":"Landkreis"},"federalState":{"key":"06","name":"Hessen"}},{"name":"Am Birkenhof","postalCode":"35745","locality":"Herborn","municipality":{"key":"06532012","name":"Herborn, Stadt","type":"Stadt"},"district":{"key":"06532","name":"Lahn-Dill-Kreis","type":"Landkreis"},"federalState":{"key":"06","name":"Hessen"}},{"name":"Am Bürgerhaus","postalCode":"35745","locality":"Herborn","municipality":{"key":"06532012","name":"Herborn, Stadt","type":"Stadt"},"district":{"key":"06532","name":"Lahn-Dill-Kreis","type":"Landkreis"},"federalState":{"key":"06","name":"Hessen"}},{"name":"Amdorfstr.","postalCode":"35745","locality":"Herborn","municipality":{"key":"06532012","name":"Herborn, Stadt","type":"Stadt"},"district":{"key":"06532","name":"Lahn-Dill-Kreis","type":"Landkreis"},"federalState":{"key":"06","name":"Hessen"}},{"name":"Am Ehrenmal","postalCode":"35745","locality":"Herborn","municipality":{"key":"06532012","name":"Herborn, Stadt","type":"Stadt"},"district":{"key":"06532","name":"Lahn-Dill-Kreis","type":"Landkreis"},"federalState":{"key":"06","name":"Hessen"}},{"name":"Am Eichelberg","postalCode":"35745","locality":"Herborn","municipality":{"key":"06532012","name":"Herborn, Stadt","type":"Stadt"},"district":{"key":"06532","name":"Lahn-Dill-Kreis","type":"Landkreis"},"federalState":{"key":"06","name":"Hessen"}},{"name":"Am Friedhof","postalCode":"35745","locality":"Herborn","municipality":{"key":"06532012","name":"Herborn, Stadt","type":"Stadt"},"district":{"key":"06532","name":"Lahn-Dill-Kreis","type":"Landkreis"},"federalState":{"key":"06","name":"Hessen"}},{"name":"Am Galgenberg","postalCode":"35745","locality":"Herborn","municipality":{"key":"06532012","name":"Herborn, Stadt","type":"Stadt"},"district":{"key":"06532","name":"Lahn-Dill-Kreis","type":"Landkreis"},"federalState":{"key":"06","name":"Hessen"}},{"name":"Am Gerichtsköppel","postalCode":"35745","locality":"Herborn","municipality":{"key":"06532012","name":"Herborn, Stadt","type":"Stadt"},"district":{"key":"06532","name":"Lahn-Dill-Kreis","type":"Landkreis"},"federalState":{"key":"06","name":"Hessen"}},{"name":"Am Hang","postalCode":"35745","locality":"Herborn","municipality":{"key":"06532012","name":"Herborn, Stadt","type":"Stadt"},"district":{"key":"06532","name":"Lahn-Dill-Kreis","type":"Landkreis"},"federalState":{"key":"06","name":"Hessen"}},{"name":"Am Harker","postalCode":"35745","locality":"Herborn","municipality":{"key":"06532012","name":"Herborn, Stadt","type":"Stadt"},"district":{"key":"06532","name":"Lahn-Dill-Kreis","type":"Landkreis"},"federalState":{"key":"06","name":"Hessen"}},{"name":"Am Hasengarten","postalCode":"35745","locality":"Herborn","municipality":{"key":"06532012","name":"Herborn, Stadt","type":"Stadt"},"district":{"key":"06532","name":"Lahn-Dill-Kreis","type":"Landkreis"},"federalState":{"key":"06","name":"Hessen"}},{"name":"Am Heiligenborn","postalCode":"35745","locality":"Herborn","municipality":{"key":"06532012","name":"Herborn, Stadt","type":"Stadt"},"district":{"key":"06532","name":"Lahn-Dill-Kreis","type":"Landkreis"},"federalState":{"key":"06","name":"Hessen"}},{"name":"Am Heisterberg","postalCode":"35745","locality":"Herborn","municipality":{"key":"06532012","name":"Herborn, Stadt","type":"Stadt"},"district":{"key":"06532","name":"Lahn-Dill-Kreis","type":"Landkreis"},"federalState":{"key":"06","name":"Hessen"}},{"name":"Am Heller","postalCode":"35745","locality":"Herborn","municipality":{"key":"06532012","name":"Herborn, Stadt","type":"Stadt"},"district":{"key":"06532","name":"Lahn-Dill-Kreis","type":"Landkreis"},"federalState":{"key":"06","name":"Hessen"}},{"name":"Am Heubach","postalCode":"35745","locality":"Herborn","municipality":{"key":"06532012","name":"Herborn, Stadt","type":"Stadt"},"district":{"key":"06532","name":"Lahn-Dill-Kreis","type":"Landkreis"},"federalState":{"key":"06","name":"Hessen"}},{"name":"Am Hintersand","postalCode":"35745","locality":"Herborn","municipality":{"key":"06532012","name":"Herborn, Stadt","type":"Stadt"},"district":{"key":"06532","name":"Lahn-Dill-Kreis","type":"Landkreis"},"federalState":{"key":"06","name":"Hessen"}},{"name":"Am Hohen Rain","postalCode":"35745","locality":"Herborn","municipality":{"key":"06532012","name":"Herborn, Stadt","type":"Stadt"},"district":{"key":"06532","name":"Lahn-Dill-Kreis","type":"Landkreis"},"federalState":{"key":"06","name":"Hessen"}},{"name":"Am Hohlweg","postalCode":"35745","locality":"Herborn","municipality":{"key":"06532012","name":"Herborn, Stadt","type":"Stadt"},"district":{"key":"06532","name":"Lahn-Dill-Kreis","type":"Landkreis"},"federalState":{"key":"06","name":"Hessen"}},{"name":"Am Hörbach","postalCode":"35745","locality":"Herborn","municipality":{"key":"06532012","name":"Herborn, Stadt","type":"Stadt"},"district":{"key":"06532","name":"Lahn-Dill-Kreis","type":"Landkreis"},"federalState":{"key":"06","name":"Hessen"}},{"name":"Am Horeth","postalCode":"35745","locality":"Herborn","municipality":{"key":"06532012","name":"Herborn, Stadt","type":"Stadt"},"district":{"key":"06532","name":"Lahn-Dill-Kreis","type":"Landkreis"},"federalState":{"key":"06","name":"Hessen"}},{"name":"Am Hundacker","postalCode":"35745","locality":"Herborn","municipality":{"key":"06532012","name":"Herborn, Stadt","type":"Stadt"},"district":{"key":"06532","name":"Lahn-Dill-Kreis","type":"Landkreis"},"federalState":{"key":"06","name":"Hessen"}},{"name":"Am Jahntempel","postalCode":"35745","locality":"Herborn","municipality":{"key":"06532012","name":"Herborn, Stadt","type":"Stadt"},"district":{"key":"06532","name":"Lahn-Dill-Kreis","type":"Landkreis"},"federalState":{"key":"06","name":"Hessen"}},{"name":"Am Jakob-Müller-Platz","postalCode":"35745","locality":"Herborn","municipality":{"key":"06532012","name":"Herborn, Stadt","type":"Stadt"},"district":{"key":"06532","name":"Lahn-Dill-Kreis","type":"Landkreis"},"federalState":{"key":"06","name":"Hessen"}},{"name":"Am Kirchberg","postalCode":"35745","locality":"Herborn","municipality":{"key":"06532012","name":"Herborn, Stadt","type":"Stadt"},"district":{"key":"06532","name":"Lahn-Dill-Kreis","type":"Landkreis"},"federalState":{"key":"06","name":"Hessen"}},{"name":"Am Kramberg","postalCode":"35745","locality":"Herborn","municipality":{"key":"06532012","name":"Herborn, Stadt","type":"Stadt"},"district":{"key":"06532","name":"Lahn-Dill-Kreis","type":"Landkreis"},"federalState":{"key":"06","name":"Hessen"}},{"name":"Am Mangolsgrund","postalCode":"35745","locality":"Herborn","municipality":{"key":"06532012","name":"Herborn, Stadt","type":"Stadt"},"district":{"key":"06532","name":"Lahn-Dill-Kreis","type":"Landkreis"},"federalState":{"key":"06","name":"Hessen"}},{"name":"Am Mühlgraben","postalCode":"35745","locality":"Herborn","municipality":{"key":"06532012","name":"Herborn, Stadt","type":"Stadt"},"district":{"key":"06532","name":"Lahn-Dill-Kreis","type":"Landkreis"},"federalState":{"key":"06","name":"Hessen"}},{"name":"Am Rehbach","postalCode":"35745","locality":"Herborn","municipality":{"key":"06532012","name":"Herborn, Stadt","type":"Stadt"},"district":{"key":"06532","name":"Lahn-Dill-Kreis","type":"Landkreis"},"federalState":{"key":"06","name":"Hessen"}},{"name":"Am Reuterberg","postalCode":"35745","locality":"Herborn","municipality":{"key":"06532012","name":"Herborn, Stadt","type":"Stadt"},"district":{"key":"06532","name":"Lahn-Dill-Kreis","type":"Landkreis"},"federalState":{"key":"06","name":"Hessen"}},{"name":"Am Schießberg","postalCode":"35745","locality":"Herborn","municipality":{"key":"06532012","name":"Herborn, Stadt","type":"Stadt"},"district":{"key":"06532","name":"Lahn-Dill-Kreis","type":"Landkreis"},"federalState":{"key":"06","name":"Hessen"}},{"name":"Am Schindköppel","postalCode":"35745","locality":"Herborn","municipality":{"key":"06532012","name":"Herborn, Stadt","type":"Stadt"},"district":{"key":"06532","name":"Lahn-Dill-Kreis","type":"Landkreis"},"federalState":{"key":"06","name":"Hessen"}},{"name":"Bachstr.","postalCode":"35745","locality":"Herborn","municipality":{"key":"06532012","name":"Herborn, Stadt","type":"Stadt"},"district":{"key":"06532","name":"Lahn-Dill-Kreis","type":"Landkreis"},"federalState":{"key":"06","name":"Hessen"}},{"name":"Bachweg","postalCode":"55758","locality":"Herborn","municipality":{"key":"07134038","name":"Herborn","type":"Kreisangehörige_Gemeinde"},"district":{"key":"07134","name":"Birkenfeld","type":"Landkreis"},"federalState":{"key":"07","name":"Rheinland-Pfalz"}},{"name":"Backhausweg","postalCode":"35745","locality":"Herborn","municipality":{"key":"06532012","name":"Herborn, Stadt","type":"Stadt"},"district":{"key":"06532","name":"Lahn-Dill-Kreis","type":"Landkreis"},"federalState":{"key":"06","name":"Hessen"}},{"name":"Bahnhofstr.","postalCode":"35745","locality":"Herborn","municipality":{"key":"06532012","name":"Herborn, Stadt","type":"Stadt"},"district":{"key":"06532","name":"Lahn-Dill-Kreis","type":"Landkreis"},"federalState":{"key":"06","name":"Hessen"}},{"name":"Bahnhofsweg","postalCode":"35745","locality":"Herborn","municipality":{"key":"06532012","name":"Herborn, Stadt","type":"Stadt"},"district":{"key":"06532","name":"Lahn-Dill-Kreis","type":"Landkreis"},"federalState":{"key":"06","name":"Hessen"}},{"name":"Baumgartenstr.","postalCode":"35745","locality":"Herborn","municipality":{"key":"06532012","name":"Herborn, Stadt","type":"Stadt"},"district":{"key":"06532","name":"Lahn-Dill-Kreis","type":"Landkreis"},"federalState":{"key":"06","name":"Hessen"}},{"name":"Baumweg","postalCode":"35745","locality":"Herborn","municipality":{"key":"06532012","name":"Herborn, Stadt","type":"Stadt"},"district":{"key":"06532","name":"Lahn-Dill-Kreis","type":"Landkreis"},"federalState":{"key":"06","name":"Hessen"}},{"name":"Beethovenstr.","postalCode":"35745","locality":"Herborn","municipality":{"key":"06532012","name":"Herborn, Stadt","type":"Stadt"},"district":{"key":"06532","name":"Lahn-Dill-Kreis","type":"Landkreis"},"federalState":{"key":"06","name":"Hessen"}},{"name":"Bergstr.","postalCode":"35745","locality":"Herborn","municipality":{"key":"06532012","name":"Herborn, Stadt","type":"Stadt"},"district":{"key":"06532","name":"Lahn-Dill-Kreis","type":"Landkreis"},"federalState":{"key":"06","name":"Hessen"}},{"name":"Bergwiese","postalCode":"35745","locality":"Herborn","municipality":{"key":"06532012","name":"Herborn, Stadt","type":"Stadt"},"district":{"key":"06532","name":"Lahn-Dill-Kreis","type":"Landkreis"},"federalState":{"key":"06","name":"Hessen"}},{"name":"Berkenhoffstr.","postalCode":"35745","locality":"Herborn","municipality":{"key":"06532012","name":"Herborn, Stadt","type":"Stadt"},"district":{"key":"06532","name":"Lahn-Dill-Kreis","type":"Landkreis"},"federalState":{"key":"06","name":"Hessen"}},{"name":"Berliner Str.","postalCode":"35745","locality":"Herborn","municipality":{"key":"06532012","name":"Herborn, Stadt","type":"Stadt"},"district":{"key":"06532","name":"Lahn-Dill-Kreis","type":"Landkreis"},"federalState":{"key":"06","name":"Hessen"}},{"name":"Bierbachstr.","postalCode":"35745","locality":"Herborn","municipality":{"key":"06532012","name":"Herborn, Stadt","type":"Stadt"},"district":{"key":"06532","name":"Lahn-Dill-Kreis","type":"Landkreis"},"federalState":{"key":"06","name":"Hessen"}},{"name":"Birkenweg","postalCode":"35745","locality":"Herborn","municipality":{"key":"06532012","name":"Herborn, Stadt","type":"Stadt"},"district":{"key":"06532","name":"Lahn-Dill-Kreis","type":"Landkreis"},"federalState":{"key":"06","name":"Hessen"}},{"name":"Bitzenstr.","postalCode":"35745","locality":"Herborn","municipality":{"key":"06532012","name":"Herborn, Stadt","type":"Stadt"},"district":{"key":"06532","name":"Lahn-Dill-Kreis","type":"Landkreis"},"federalState":{"key":"06","name":"Hessen"}},{"name":"Bleichgarten","postalCode":"35745","locality":"Herborn","municipality":{"key":"06532012","name":"Herborn, Stadt","type":"Stadt"},"district":{"key":"06532","name":"Lahn-Dill-Kreis","type":"Landkreis"},"federalState":{"key":"06","name":"Hessen"}},{"name":"Blumenstr.","postalCode":"35745","locality":"Herborn","municipality":{"key":"06532012","name":"Herborn, Stadt","type":"Stadt"},"district":{"key":"06532","name":"Lahn-Dill-Kreis","type":"Landkreis"},"federalState":{"key":"06","name":"Hessen"}},{"name":"Bogenstr.","postalCode":"35745","locality":"Herborn","municipality":{"key":"06532012","name":"Herborn, Stadt","type":"Stadt"},"district":{"key":"06532","name":"Lahn-Dill-Kreis","type":"Landkreis"},"federalState":{"key":"06","name":"Hessen"}},{"name":"Bornweg","postalCode":"35745","locality":"Herborn","municipality":{"key":"06532012","name":"Herborn, Stadt","type":"Stadt"},"district":{"key":"06532","name":"Lahn-Dill-Kreis","type":"Landkreis"},"federalState":{"key":"06","name":"Hessen"}},{"name":"Bornwiesenstr.","postalCode":"35745","locality":"Herborn","municipality":{"key":"06532012","name":"Herborn, Stadt","type":"Stadt"},"district":{"key":"06532","name":"Lahn-Dill-Kreis","type":"Landkreis"},"federalState":{"key":"06","name":"Hessen"}},{"name":"Böseborn","postalCode":"35745","locality":"Herborn","municipality":{"key":"06532012","name":"Herborn, Stadt","type":"Stadt"},"district":{"key":"06532","name":"Lahn-Dill-Kreis","type":"Landkreis"},"federalState":{"key":"06","name":"Hessen"}},{"name":"Bräunstr.","postalCode":"35745","locality":"Herborn","municipality":{"key":"06532012","name":"Herborn, Stadt","type":"Stadt"},"district":{"key":"06532","name":"Lahn-Dill-Kreis","type":"Landkreis"},"federalState":{"key":"06","name":"Hessen"}},{"name":"Breiter Weg","postalCode":"35745","locality":"Herborn","municipality":{"key":"06532012","name":"Herborn, Stadt","type":"Stadt"},"district":{"key":"06532","name":"Lahn-Dill-Kreis","type":"Landkreis"},"federalState":{"key":"06","name":"Hessen"}},{"name":"Breiter Winkel","postalCode":"35745","locality":"Herborn","municipality":{"key":"06532012","name":"Herborn, Stadt","type":"Stadt"},"district":{"key":"06532","name":"Lahn-Dill-Kreis","type":"Landkreis"},"federalState":{"key":"06","name":"Hessen"}},{"name":"Breitscheider Str.","postalCode":"35745","locality":"Herborn","municipality":{"key":"06532012","name":"Herborn, Stadt","type":"Stadt"},"district":{"key":"06532","name":"Lahn-Dill-Kreis","type":"Landkreis"},"federalState":{"key":"06","name":"Hessen"}},{"name":"Breslauer Str.","postalCode":"35745","locality":"Herborn","municipality":{"key":"06532012","name":"Herborn, Stadt","type":"Stadt"},"district":{"key":"06532","name":"Lahn-Dill-Kreis","type":"Landkreis"},"federalState":{"key":"06","name":"Hessen"}},{"name":"Brückenstr.","postalCode":"35745","locality":"Herborn","municipality":{"key":"06532012","name":"Herborn, Stadt","type":"Stadt"},"district":{"key":"06532","name":"Lahn-Dill-Kreis","type":"Landkreis"},"federalState":{"key":"06","name":"Hessen"}},{"name":"Brühlstr.","postalCode":"35745","locality":"Herborn","municipality":{"key":"06532012","name":"Herborn, Stadt","type":"Stadt"},"district":{"key":"06532","name":"Lahn-Dill-Kreis","type":"Landkreis"},"federalState":{"key":"06","name":"Hessen"}},{"name":"Brunnenstr.","postalCode":"35745","locality":"Herborn","municipality":{"key":"06532012","name":"Herborn, Stadt","type":"Stadt"},"district":{"key":"06532","name":"Lahn-Dill-Kreis","type":"Landkreis"},"federalState":{"key":"06","name":"Hessen"}},{"name":"Buchenstr.","postalCode":"35745","locality":"Herborn","municipality":{"key":"06532012","name":"Herborn, Stadt","type":"Stadt"},"district":{"key":"06532","name":"Lahn-Dill-Kreis","type":"Landkreis"},"federalState":{"key":"06","name":"Hessen"}},{"name":"Buchhelle","postalCode":"35745","locality":"Herborn","municipality":{"key":"06532012","name":"Herborn, Stadt","type":"Stadt"},"district":{"key":"06532","name":"Lahn-Dill-Kreis","type":"Landkreis"},"federalState":{"key":"06","name":"Hessen"}},{"name":"Burgberg","postalCode":"35745","locality":"Herborn","municipality":{"key":"06532012","name":"Herborn, Stadt","type":"Stadt"},"district":{"key":"06532","name":"Lahn-Dill-Kreis","type":"Landkreis"},"federalState":{"key":"06","name":"Hessen"}},{"name":"Burger Hauptstr.","postalCode":"35745","locality":"Herborn","municipality":{"key":"06532012","name":"Herborn, Stadt","type":"Stadt"},"district":{"key":"06532","name":"Lahn-Dill-Kreis","type":"Landkreis"},"federalState":{"key":"06","name":"Hessen"}},{"name":"Burger Landstr.","postalCode":"35745","locality":"Herborn","municipality":{"key":"06532012","name":"Herborn, Stadt","type":"Stadt"},"district":{"key":"06532","name":"Lahn-Dill-Kreis","type":"Landkreis"},"federalState":{"key":"06","name":"Hessen"}},{"name":"Burger Str.","postalCode":"35745","locality":"Herborn","municipality":{"key":"06532012","name":"Herborn, Stadt","type":"Stadt"},"district":{"key":"06532","name":"Lahn-Dill-Kreis","type":"Landkreis"},"federalState":{"key":"06","name":"Hessen"}},{"name":"Burgstr.","postalCode":"35745","locality":"Herborn","municipality":{"key":"06532012","name":"Herborn, Stadt","type":"Stadt"},"district":{"key":"06532","name":"Lahn-Dill-Kreis","type":"Landkreis"},"federalState":{"key":"06","name":"Hessen"}},{"name":"Bussardweg","postalCode":"35745","locality":"Herborn","municipality":{"key":"06532012","name":"Herborn, Stadt","type":"Stadt"},"district":{"key":"06532","name":"Lahn-Dill-Kreis","type":"Landkreis"},"federalState":{"key":"06","name":"Hessen"}},{"name":"Chaldäergasse","postalCode":"35745","locality":"Herborn","municipality":{"key":"06532012","name":"Herborn, Stadt","type":"Stadt"},"district":{"key":"06532","name":"Lahn-Dill-Kreis","type":"Landkreis"},"federalState":{"key":"06","name":"Hessen"}},{"name":"Comeniusstr.","postalCode":"35745","locality":"Herborn","municipality":{"key":"06532012","name":"Herborn, Stadt","type":"Stadt"},"district":{"key":"06532","name":"Lahn-Dill-Kreis","type":"Landkreis"},"federalState":{"key":"06","name":"Hessen"}},{"name":"Conradis Winkel","postalCode":"35745","locality":"Herborn","municipality":{"key":"06532012","name":"Herborn, Stadt","type":"Stadt"},"district":{"key":"06532","name":"Lahn-Dill-Kreis","type":"Landkreis"},"federalState":{"key":"06","name":"Hessen"}},{"name":"Corvinusweg","postalCode":"35745","locality":"Herborn","municipality":{"key":"06532012","name":"Herborn, Stadt","type":"Stadt"},"district":{"key":"06532","name":"Lahn-Dill-Kreis","type":"Landkreis"},"federalState":{"key":"06","name":"Hessen"}},{"name":"Danziger Platz","postalCode":"35745","locality":"Herborn","municipality":{"key":"06532012","name":"Herborn, Stadt","type":"Stadt"},"district":{"key":"06532","name":"Lahn-Dill-Kreis","type":"Landkreis"},"federalState":{"key":"06","name":"Hessen"}},{"name":"Dernbacher Weg","postalCode":"35745","locality":"Herborn","municipality":{"key":"06532012","name":"Herborn, Stadt","type":"Stadt"},"district":{"key":"06532","name":"Lahn-Dill-Kreis","type":"Landkreis"},"federalState":{"key":"06","name":"Hessen"}},{"name":"Diesterwegstr.","postalCode":"35745","locality":"Herborn","municipality":{"key":"06532012","name":"Herborn, Stadt","type":"Stadt"},"district":{"key":"06532","name":"Lahn-Dill-Kreis","type":"Landkreis"},"federalState":{"key":"06","name":"Hessen"}},{"name":"Dillstr.","postalCode":"35745","locality":"Herborn","municipality":{"key":"06532012","name":"Herborn, Stadt","type":"Stadt"},"district":{"key":"06532","name":"Lahn-Dill-Kreis","type":"Landkreis"},"federalState":{"key":"06","name":"Hessen"}},{"name":"Dollenbergstr.","postalCode":"35745","locality":"Herborn","municipality":{"key":"06532012","name":"Herborn, Stadt","type":"Stadt"},"district":{"key":"06532","name":"Lahn-Dill-Kreis","type":"Landkreis"},"federalState":{"key":"06","name":"Hessen"}},{"name":"Dometzwies","postalCode":"35745","locality":"Herborn","municipality":{"key":"06532012","name":"Herborn, Stadt","type":"Stadt"},"district":{"key":"06532","name":"Lahn-Dill-Kreis","type":"Landkreis"},"federalState":{"key":"06","name":"Hessen"}},{"name":"Dompfaffweg","postalCode":"35745","locality":"Herborn","municipality":{"key":"06532012","name":"Herborn, Stadt","type":"Stadt"},"district":{"key":"06532","name":"Lahn-Dill-Kreis","type":"Landkreis"},"federalState":{"key":"06","name":"Hessen"}},{"name":"Dorfring","postalCode":"35745","locality":"Herborn","municipality":{"key":"06532012","name":"Herborn, Stadt","type":"Stadt"},"district":{"key":"06532","name":"Lahn-Dill-Kreis","type":"Landkreis"},"federalState":{"key":"06","name":"Hessen"}},{"name":"Dorfstr.","postalCode":"35745","locality":"Herborn","municipality":{"key":"06532012","name":"Herborn, Stadt","type":"Stadt"},"district":{"key":"06532","name":"Lahn-Dill-Kreis","type":"Landkreis"},"federalState":{"key":"06","name":"Hessen"}},{"name":"Döringweg","postalCode":"35745","locality":"Herborn","municipality":{"key":"06532012","name":"Herborn, Stadt","type":"Stadt"},"district":{"key":"06532","name":"Lahn-Dill-Kreis","type":"Landkreis"},"federalState":{"key":"06","name":"Hessen"}},{"name":"Dreihäusergasse","postalCode":"35745","locality":"Herborn","municipality":{"key":"06532012","name":"Herborn, Stadt","type":"Stadt"},"district":{"key":"06532","name":"Lahn-Dill-Kreis","type":"Landkreis"},"federalState":{"key":"06","name":"Hessen"}},{"name":"Dresdener Str.","postalCode":"35745","locality":"Herborn","municipality":{"key":"06532012","name":"Herborn, Stadt","type":"Stadt"},"district":{"key":"06532","name":"Lahn-Dill-Kreis","type":"Landkreis"},"federalState":{"key":"06","name":"Hessen"}},{"name":"Dr.-Großkopf-Str.","postalCode":"35745","locality":"Herborn","municipality":{"key":"06532012","name":"Herborn, Stadt","type":"Stadt"},"district":{"key":"06532","name":"Lahn-Dill-Kreis","type":"Landkreis"},"federalState":{"key":"06","name":"Hessen"}},{"name":"Driedorfer Str.","postalCode":"35745","locality":"Herborn","municipality":{"key":"06532012","name":"Herborn, Stadt","type":"Stadt"},"district":{"key":"06532","name":"Lahn-Dill-Kreis","type":"Landkreis"},"federalState":{"key":"06","name":"Hessen"}},{"name":"Drosselweg","postalCode":"35745","locality":"Herborn","municipality":{"key":"06532012","name":"Herborn, Stadt","type":"Stadt"},"district":{"key":"06532","name":"Lahn-Dill-Kreis","type":"Landkreis"},"federalState":{"key":"06","name":"Hessen"}},{"name":"Dr.-Siegfried-Str.","postalCode":"35745","locality":"Herborn","municipality":{"key":"06532012","name":"Herborn, Stadt","type":"Stadt"},"district":{"key":"06532","name":"Lahn-Dill-Kreis","type":"Landkreis"},"federalState":{"key":"06","name":"Hessen"}},{"name":"Eberstalstr.","postalCode":"35745","locality":"Herborn","municipality":{"key":"06532012","name":"Herborn, Stadt","type":"Stadt"},"district":{"key":"06532","name":"Lahn-Dill-Kreis","type":"Landkreis"},"federalState":{"key":"06","name":"Hessen"}},{"name":"Eckstr.","postalCode":"35745","locality":"Herborn","municipality":{"key":"06532012","name":"Herborn, Stadt","type":"Stadt"},"district":{"key":"06532","name":"Lahn-Dill-Kreis","type":"Landkreis"},"federalState":{"key":"06","name":"Hessen"}},{"name":"Egerlandstr.","postalCode":"35745","locality":"Herborn","municipality":{"key":"06532012","name":"Herborn, Stadt","type":"Stadt"},"district":{"key":"06532","name":"Lahn-Dill-Kreis","type":"Landkreis"},"federalState":{"key":"06","name":"Hessen"}},{"name":"Ehemaliger Friedhof der Stadt Herborn","postalCode":"35745","locality":"Herborn","municipality":{"key":"06532012","name":"Herborn, Stadt","type":"Stadt"},"district":{"key":"06532","name":"Lahn-Dill-Kreis","type":"Landkreis"},"federalState":{"key":"06","name":"Hessen"}},{"name":"Eichendorffhöhe","postalCode":"35745","locality":"Herborn","municipality":{"key":"06532012","name":"Herborn, Stadt","type":"Stadt"},"district":{"key":"06532","name":"Lahn-Dill-Kreis","type":"Landkreis"},"federalState":{"key":"06","name":"Hessen"}},{"name":"Eichenstr.","postalCode":"35745","locality":"Herborn","municipality":{"key":"06532012","name":"Herborn, Stadt","type":"Stadt"},"district":{"key":"06532","name":"Lahn-Dill-Kreis","type":"Landkreis"},"federalState":{"key":"06","name":"Hessen"}},{"name":"Eichenweg","postalCode":"35745","locality":"Herborn","municipality":{"key":"06532012","name":"Herborn, Stadt","type":"Stadt"},"district":{"key":"06532","name":"Lahn-Dill-Kreis","type":"Landkreis"},"federalState":{"key":"06","name":"Hessen"}},{"name":"Eiserner Steg","postalCode":"35745","locality":"Herborn","municipality":{"key":"06532012","name":"Herborn, Stadt","type":"Stadt"},"district":{"key":"06532","name":"Lahn-Dill-Kreis","type":"Landkreis"},"federalState":{"key":"06","name":"Hessen"}},{"name":"Elkersberg","postalCode":"35745","locality":"Herborn","municipality":{"key":"06532012","name":"Herborn, Stadt","type":"Stadt"},"district":{"key":"06532","name":"Lahn-Dill-Kreis","type":"Landkreis"},"federalState":{"key":"06","name":"Hessen"}},{"name":"Elsterweg","postalCode":"35745","locality":"Herborn","municipality":{"key":"06532012","name":"Herborn, Stadt","type":"Stadt"},"district":{"key":"06532","name":"Lahn-Dill-Kreis","type":"Landkreis"},"federalState":{"key":"06","name":"Hessen"}},{"name":"Erdbacher Str.","postalCode":"35745","locality":"Herborn","municipality":{"key":"06532012","name":"Herborn, Stadt","type":"Stadt"},"district":{"key":"06532","name":"Lahn-Dill-Kreis","type":"Landkreis"},"federalState":{"key":"06","name":"Hessen"}},{"name":"Erich-Weyl-Str.","postalCode":"35745","locality":"Herborn","municipality":{"key":"06532012","name":"Herborn, Stadt","type":"Stadt"},"district":{"key":"06532","name":"Lahn-Dill-Kreis","type":"Landkreis"},"federalState":{"key":"06","name":"Hessen"}},{"name":"Essenbachstr.","postalCode":"35745","locality":"Herborn","municipality":{"key":"06532012","name":"Herborn, Stadt","type":"Stadt"},"district":{"key":"06532","name":"Lahn-Dill-Kreis","type":"Landkreis"},"federalState":{"key":"06","name":"Hessen"}},{"name":"Fahlerstr.","postalCode":"35745","locality":"Herborn","municipality":{"key":"06532012","name":"Herborn, Stadt","type":"Stadt"},"district":{"key":"06532","name":"Lahn-Dill-Kreis","type":"Landkreis"},"federalState":{"key":"06","name":"Hessen"}},{"name":"Falkenweg","postalCode":"35745","locality":"Herborn","municipality":{"key":"06532012","name":"Herborn, Stadt","type":"Stadt"},"district":{"key":"06532","name":"Lahn-Dill-Kreis","type":"Landkreis"},"federalState":{"key":"06","name":"Hessen"}},{"name":"Fasanenweg","postalCode":"35745","locality":"Herborn","municipality":{"key":"06532012","name":"Herborn, Stadt","type":"Stadt"},"district":{"key":"06532","name":"Lahn-Dill-Kreis","type":"Landkreis"},"federalState":{"key":"06","name":"Hessen"}},{"name":"Feldstr.","postalCode":"35745","locality":"Herborn","municipality":{"key":"06532012","name":"Herborn, Stadt","type":"Stadt"},"district":{"key":"06532","name":"Lahn-Dill-Kreis","type":"Landkreis"},"federalState":{"key":"06","name":"Hessen"}},{"name":"Fernblick","postalCode":"35745","locality":"Herborn","municipality":{"key":"06532012","name":"Herborn, Stadt","type":"Stadt"},"district":{"key":"06532","name":"Lahn-Dill-Kreis","type":"Landkreis"},"federalState":{"key":"06","name":"Hessen"}},{"name":"Finkenweg","postalCode":"35745","locality":"Herborn","municipality":{"key":"06532012","name":"Herborn, Stadt","type":"Stadt"},"district":{"key":"06532","name":"Lahn-Dill-Kreis","type":"Landkreis"},"federalState":{"key":"06","name":"Hessen"}},{"name":"Forsthausstr.","postalCode":"35745","locality":"Herborn","municipality":{"key":"06532012","name":"Herborn, Stadt","type":"Stadt"},"district":{"key":"06532","name":"Lahn-Dill-Kreis","type":"Landkreis"},"federalState":{"key":"06","name":"Hessen"}},{"name":"Franz-Gruber-Str.","postalCode":"35745","locality":"Herborn","municipality":{"key":"06532012","name":"Herborn, Stadt","type":"Stadt"},"district":{"key":"06532","name":"Lahn-Dill-Kreis","type":"Landkreis"},"federalState":{"key":"06","name":"Hessen"}},{"name":"Franzosenweg","postalCode":"35745","locality":"Herborn","municipality":{"key":"06532012","name":"Herborn, Stadt","type":"Stadt"},"district":{"key":"06532","name":"Lahn-Dill-Kreis","type":"Landkreis"},"federalState":{"key":"06","name":"Hessen"}},{"name":"Franzstr.","postalCode":"35745","locality":"Herborn","municipality":{"key":"06532012","name":"Herborn, Stadt","type":"Stadt"},"district":{"key":"06532","name":"Lahn-Dill-Kreis","type":"Landkreis"},"federalState":{"key":"06","name":"Hessen"}},{"name":"Freiherr-vom-Stein-Str.","postalCode":"35745","locality":"Herborn","municipality":{"key":"06532012","name":"Herborn, Stadt","type":"Stadt"},"district":{"key":"06532","name":"Lahn-Dill-Kreis","type":"Landkreis"},"federalState":{"key":"06","name":"Hessen"}},{"name":"Friedhofstr.","postalCode":"35745","locality":"Herborn","municipality":{"key":"06532012","name":"Herborn, Stadt","type":"Stadt"},"district":{"key":"06532","name":"Lahn-Dill-Kreis","type":"Landkreis"},"federalState":{"key":"06","name":"Hessen"}},{"name":"Friedhofsweg","postalCode":"35745","locality":"Herborn","municipality":{"key":"06532012","name":"Herborn, Stadt","type":"Stadt"},"district":{"key":"06532","name":"Lahn-Dill-Kreis","type":"Landkreis"},"federalState":{"key":"06","name":"Hessen"}},{"name":"Friedrich-Birkendahl-Str.","postalCode":"35745","locality":"Herborn","municipality":{"key":"06532012","name":"Herborn, Stadt","type":"Stadt"},"district":{"key":"06532","name":"Lahn-Dill-Kreis","type":"Landkreis"},"federalState":{"key":"06","name":"Hessen"}},{"name":"Friedrich-Ebert-Str.","postalCode":"35745","locality":"Herborn","municipality":{"key":"06532012","name":"Herborn, Stadt","type":"Stadt"},"district":{"key":"06532","name":"Lahn-Dill-Kreis","type":"Landkreis"},"federalState":{"key":"06","name":"Hessen"}},{"name":"Friedrichstr.","postalCode":"35745","locality":"Herborn","municipality":{"key":"06532012","name":"Herborn, Stadt","type":"Stadt"},"district":{"key":"06532","name":"Lahn-Dill-Kreis","type":"Landkreis"},"federalState":{"key":"06","name":"Hessen"}},{"name":"Fritz-Bender-Str.","postalCode":"35745","locality":"Herborn","municipality":{"key":"06532012","name":"Herborn, Stadt","type":"Stadt"},"district":{"key":"06532","name":"Lahn-Dill-Kreis","type":"Landkreis"},"federalState":{"key":"06","name":"Hessen"}},{"name":"Fritz-Jung-Str.","postalCode":"35745","locality":"Herborn","municipality":{"key":"06532012","name":"Herborn, Stadt","type":"Stadt"},"district":{"key":"06532","name":"Lahn-Dill-Kreis","type":"Landkreis"},"federalState":{"key":"06","name":"Hessen"}},{"name":"Funkenbergstr.","postalCode":"35745","locality":"Herborn","municipality":{"key":"06532012","name":"Herborn, Stadt","type":"Stadt"},"district":{"key":"06532","name":"Lahn-Dill-Kreis","type":"Landkreis"},"federalState":{"key":"06","name":"Hessen"}},{"name":"Gänsweide","postalCode":"35745","locality":"Herborn","municipality":{"key":"06532012","name":"Herborn, Stadt","type":"Stadt"},"district":{"key":"06532","name":"Lahn-Dill-Kreis","type":"Landkreis"},"federalState":{"key":"06","name":"Hessen"}},{"name":"Gartenstr.","postalCode":"35745","locality":"Herborn","municipality":{"key":"06532012","name":"Herborn, Stadt","type":"Stadt"},"district":{"key":"06532","name":"Lahn-Dill-Kreis","type":"Landkreis"},"federalState":{"key":"06","name":"Hessen"}},{"name":"Gartenstr.","postalCode":"55758","locality":"Herborn","municipality":{"key":"07134038","name":"Herborn","type":"Kreisangehörige_Gemeinde"},"district":{"key":"07134","name":"Birkenfeld","type":"Landkreis"},"federalState":{"key":"07","name":"Rheinland-Pfalz"}},{"name":"Gartentalstr.","postalCode":"35745","locality":"Herborn","municipality":{"key":"06532012","name":"Herborn, Stadt","type":"Stadt"},"district":{"key":"06532","name":"Lahn-Dill-Kreis","type":"Landkreis"},"federalState":{"key":"06","name":"Hessen"}},{"name":"Gartenweg","postalCode":"35745","locality":"Herborn","municipality":{"key":"06532012","name":"Herborn, Stadt","type":"Stadt"},"district":{"key":"06532","name":"Lahn-Dill-Kreis","type":"Landkreis"},"federalState":{"key":"06","name":"Hessen"}},{"name":"Geisbergstr.","postalCode":"35745","locality":"Herborn","municipality":{"key":"06532012","name":"Herborn, Stadt","type":"Stadt"},"district":{"key":"06532","name":"Lahn-Dill-Kreis","type":"Landkreis"},"federalState":{"key":"06","name":"Hessen"}},{"name":"Gemeindeweg","postalCode":"35745","locality":"Herborn","municipality":{"key":"06532012","name":"Herborn, Stadt","type":"Stadt"},"district":{"key":"06532","name":"Lahn-Dill-Kreis","type":"Landkreis"},"federalState":{"key":"06","name":"Hessen"}},{"name":"Georgstr.","postalCode":"35745","locality":"Herborn","municipality":{"key":"06532012","name":"Herborn, Stadt","type":"Stadt"},"district":{"key":"06532","name":"Lahn-Dill-Kreis","type":"Landkreis"},"federalState":{"key":"06","name":"Hessen"}},{"name":"Gewenn","postalCode":"35745","locality":"Herborn","municipality":{"key":"06532012","name":"Herborn, Stadt","type":"Stadt"},"district":{"key":"06532","name":"Lahn-Dill-Kreis","type":"Landkreis"},"federalState":{"key":"06","name":"Hessen"}},{"name":"Gießereistr.","postalCode":"35745","locality":"Herborn","municipality":{"key":"06532012","name":"Herborn, Stadt","type":"Stadt"},"district":{"key":"06532","name":"Lahn-Dill-Kreis","type":"Landkreis"},"federalState":{"key":"06","name":"Hessen"}},{"name":"Goethestr.","postalCode":"35745","locality":"Herborn","municipality":{"key":"06532012","name":"Herborn, Stadt","type":"Stadt"},"district":{"key":"06532","name":"Lahn-Dill-Kreis","type":"Landkreis"},"federalState":{"key":"06","name":"Hessen"}},{"name":"Goldammerweg","postalCode":"35745","locality":"Herborn","municipality":{"key":"06532012","name":"Herborn, Stadt","type":"Stadt"},"district":{"key":"06532","name":"Lahn-Dill-Kreis","type":"Landkreis"},"federalState":{"key":"06","name":"Hessen"}},{"name":"Greifensteiner Weg","postalCode":"35745","locality":"Herborn","municipality":{"key":"06532012","name":"Herborn, Stadt","type":"Stadt"},"district":{"key":"06532","name":"Lahn-Dill-Kreis","type":"Landkreis"},"federalState":{"key":"06","name":"Hessen"}},{"name":"Grimmstr.","postalCode":"35745","locality":"Herborn","municipality":{"key":"06532012","name":"Herborn, Stadt","type":"Stadt"},"district":{"key":"06532","name":"Lahn-Dill-Kreis","type":"Landkreis"},"federalState":{"key":"06","name":"Hessen"}},{"name":"Große Ringstr.","postalCode":"35745","locality":"Herborn","municipality":{"key":"06532012","name":"Herborn, Stadt","type":"Stadt"},"district":{"key":"06532","name":"Lahn-Dill-Kreis","type":"Landkreis"},"federalState":{"key":"06","name":"Hessen"}},{"name":"Grubweg","postalCode":"35745","locality":"Herborn","municipality":{"key":"06532012","name":"Herborn, Stadt","type":"Stadt"},"district":{"key":"06532","name":"Lahn-Dill-Kreis","type":"Landkreis"},"federalState":{"key":"06","name":"Hessen"}},{"name":"Grundstr.","postalCode":"35745","locality":"Herborn","municipality":{"key":"06532012","name":"Herborn, Stadt","type":"Stadt"},"district":{"key":"06532","name":"Lahn-Dill-Kreis","type":"Landkreis"},"federalState":{"key":"06","name":"Hessen"}},{"name":"Grüner Weg","postalCode":"35745","locality":"Herborn","municipality":{"key":"06532012","name":"Herborn, Stadt","type":"Stadt"},"district":{"key":"06532","name":"Lahn-Dill-Kreis","type":"Landkreis"},"federalState":{"key":"06","name":"Hessen"}},{"name":"Grüne Wiesenstr.","postalCode":"35745","locality":"Herborn","municipality":{"key":"06532012","name":"Herborn, Stadt","type":"Stadt"},"district":{"key":"06532","name":"Lahn-Dill-Kreis","type":"Landkreis"},"federalState":{"key":"06","name":"Hessen"}},{"name":"Guntersdorfer Str.","postalCode":"35745","locality":"Herborn","municipality":{"key":"06532012","name":"Herborn, Stadt","type":"Stadt"},"district":{"key":"06532","name":"Lahn-Dill-Kreis","type":"Landkreis"},"federalState":{"key":"06","name":"Hessen"}},{"name":"Gusternhainer Str.","postalCode":"35745","locality":"Herborn","municipality":{"key":"06532012","name":"Herborn, Stadt","type":"Stadt"},"district":{"key":"06532","name":"Lahn-Dill-Kreis","type":"Landkreis"},"federalState":{"key":"06","name":"Hessen"}},{"name":"Gutenbergstr.","postalCode":"35745","locality":"Herborn","municipality":{"key":"06532012","name":"Herborn, Stadt","type":"Stadt"},"district":{"key":"06532","name":"Lahn-Dill-Kreis","type":"Landkreis"},"federalState":{"key":"06","name":"Hessen"}},{"name":"Haarstr.","postalCode":"35745","locality":"Herborn","municipality":{"key":"06532012","name":"Herborn, Stadt","type":"Stadt"},"district":{"key":"06532","name":"Lahn-Dill-Kreis","type":"Landkreis"},"federalState":{"key":"06","name":"Hessen"}},{"name":"Habichtsweg","postalCode":"35745","locality":"Herborn","municipality":{"key":"06532012","name":"Herborn, Stadt","type":"Stadt"},"district":{"key":"06532","name":"Lahn-Dill-Kreis","type":"Landkreis"},"federalState":{"key":"06","name":"Hessen"}},{"name":"Haierweg","postalCode":"35745","locality":"Herborn","municipality":{"key":"06532012","name":"Herborn, Stadt","type":"Stadt"},"district":{"key":"06532","name":"Lahn-Dill-Kreis","type":"Landkreis"},"federalState":{"key":"06","name":"Hessen"}},{"name":"Hainbuchenweg","postalCode":"35745","locality":"Herborn","municipality":{"key":"06532012","name":"Herborn, Stadt","type":"Stadt"},"district":{"key":"06532","name":"Lahn-Dill-Kreis","type":"Landkreis"},"federalState":{"key":"06","name":"Hessen"}},{"name":"Hainstr.","postalCode":"35745","locality":"Herborn","municipality":{"key":"06532012","name":"Herborn, Stadt","type":"Stadt"},"district":{"key":"06532","name":"Lahn-Dill-Kreis","type":"Landkreis"},"federalState":{"key":"06","name":"Hessen"}},{"name":"Hainstück","postalCode":"35745","locality":"Herborn","municipality":{"key":"06532012","name":"Herborn, Stadt","type":"Stadt"},"district":{"key":"06532","name":"Lahn-Dill-Kreis","type":"Landkreis"},"federalState":{"key":"06","name":"Hessen"}},{"name":"Hammerweg","postalCode":"35745","locality":"Herborn","municipality":{"key":"06532012","name":"Herborn, Stadt","type":"Stadt"},"district":{"key":"06532","name":"Lahn-Dill-Kreis","type":"Landkreis"},"federalState":{"key":"06","name":"Hessen"}},{"name":"Händelstr.","postalCode":"35745","locality":"Herborn","municipality":{"key":"06532012","name":"Herborn, Stadt","type":"Stadt"},"district":{"key":"06532","name":"Lahn-Dill-Kreis","type":"Landkreis"},"federalState":{"key":"06","name":"Hessen"}},{"name":"Hardtstr.","postalCode":"35745","locality":"Herborn","municipality":{"key":"06532012","name":"Herborn, Stadt","type":"Stadt"},"district":{"key":"06532","name":"Lahn-Dill-Kreis","type":"Landkreis"},"federalState":{"key":"06","name":"Hessen"}},{"name":"Haubachswinkel","postalCode":"35745","locality":"Herborn","municipality":{"key":"06532012","name":"Herborn, Stadt","type":"Stadt"},"district":{"key":"06532","name":"Lahn-Dill-Kreis","type":"Landkreis"},"federalState":{"key":"06","name":"Hessen"}},{"name":"Hauptstr.","postalCode":"35745","locality":"Herborn","municipality":{"key":"06532012","name":"Herborn, Stadt","type":"Stadt"},"district":{"key":"06532","name":"Lahn-Dill-Kreis","type":"Landkreis"},"federalState":{"key":"06","name":"Hessen"}},{"name":"Hauptstr.","postalCode":"55758","locality":"Herborn","municipality":{"key":"07134038","name":"Herborn","type":"Kreisangehörige_Gemeinde"},"district":{"key":"07134","name":"Birkenfeld","type":"Landkreis"},"federalState":{"key":"07","name":"Rheinland-Pfalz"}},{"name":"Haydnstr.","postalCode":"35745","locality":"Herborn","municipality":{"key":"06532012","name":"Herborn, Stadt","type":"Stadt"},"district":{"key":"06532","name":"Lahn-Dill-Kreis","type":"Landkreis"},"federalState":{"key":"06","name":"Hessen"}},{"name":"Heiligkreuzstr.","postalCode":"35745","locality":"Herborn","municipality":{"key":"06532012","name":"Herborn, Stadt","type":"Stadt"},"district":{"key":"06532","name":"Lahn-Dill-Kreis","type":"Landkreis"},"federalState":{"key":"06","name":"Hessen"}},{"name":"Heinrichstr.","postalCode":"35745","locality":"Herborn","municipality":{"key":"06532012","name":"Herborn, Stadt","type":"Stadt"},"district":{"key":"06532","name":"Lahn-Dill-Kreis","type":"Landkreis"},"federalState":{"key":"06","name":"Hessen"}},{"name":"Heinrich-von-Kleist-Weg","postalCode":"35745","locality":"Herborn","municipality":{"key":"06532012","name":"Herborn, Stadt","type":"Stadt"},"district":{"key":"06532","name":"Lahn-Dill-Kreis","type":"Landkreis"},"federalState":{"key":"06","name":"Hessen"}},{"name":"Herborner Berg","postalCode":"35745","locality":"Herborn","municipality":{"key":"06532012","name":"Herborn, Stadt","type":"Stadt"},"district":{"key":"06532","name":"Lahn-Dill-Kreis","type":"Landkreis"},"federalState":{"key":"06","name":"Hessen"}},{"name":"Herborner Str.","postalCode":"35745","locality":"Herborn","municipality":{"key":"06532012","name":"Herborn, Stadt","type":"Stadt"},"district":{"key":"06532","name":"Lahn-Dill-Kreis","type":"Landkreis"},"federalState":{"key":"06","name":"Hessen"}},{"name":"Herborner Weg","postalCode":"35745","locality":"Herborn","municipality":{"key":"06532012","name":"Herborn, Stadt","type":"Stadt"},"district":{"key":"06532","name":"Lahn-Dill-Kreis","type":"Landkreis"},"federalState":{"key":"06","name":"Hessen"}},{"name":"Hessenweg","postalCode":"35745","locality":"Herborn","municipality":{"key":"06532012","name":"Herborn, Stadt","type":"Stadt"},"district":{"key":"06532","name":"Lahn-Dill-Kreis","type":"Landkreis"},"federalState":{"key":"06","name":"Hessen"}},{"name":"Heuacker","postalCode":"55758","locality":"Herborn","municipality":{"key":"07134038","name":"Herborn","type":"Kreisangehörige_Gemeinde"},"district":{"key":"07134","name":"Birkenfeld","type":"Landkreis"},"federalState":{"key":"07","name":"Rheinland-Pfalz"}},{"name":"Hindenburgstr.","postalCode":"35745","locality":"Herborn","municipality":{"key":"06532012","name":"Herborn, Stadt","type":"Stadt"},"district":{"key":"06532","name":"Lahn-Dill-Kreis","type":"Landkreis"},"federalState":{"key":"06","name":"Hessen"}},{"name":"Hinter der Kirche","postalCode":"35745","locality":"Herborn","municipality":{"key":"06532012","name":"Herborn, Stadt","type":"Stadt"},"district":{"key":"06532","name":"Lahn-Dill-Kreis","type":"Landkreis"},"federalState":{"key":"06","name":"Hessen"}},{"name":"Hintere Hardt","postalCode":"35745","locality":"Herborn","municipality":{"key":"06532012","name":"Herborn, Stadt","type":"Stadt"},"district":{"key":"06532","name":"Lahn-Dill-Kreis","type":"Landkreis"},"federalState":{"key":"06","name":"Hessen"}},{"name":"Hinterm Holz","postalCode":"35745","locality":"Herborn","municipality":{"key":"06532012","name":"Herborn, Stadt","type":"Stadt"},"district":{"key":"06532","name":"Lahn-Dill-Kreis","type":"Landkreis"},"federalState":{"key":"06","name":"Hessen"}},{"name":"Hinterthal","postalCode":"35745","locality":"Herborn","municipality":{"key":"06532012","name":"Herborn, Stadt","type":"Stadt"},"district":{"key":"06532","name":"Lahn-Dill-Kreis","type":"Landkreis"},"federalState":{"key":"06","name":"Hessen"}},{"name":"Hirschberger Str.","postalCode":"35745","locality":"Herborn","municipality":{"key":"06532012","name":"Herborn, Stadt","type":"Stadt"},"district":{"key":"06532","name":"Lahn-Dill-Kreis","type":"Landkreis"},"federalState":{"key":"06","name":"Hessen"}},{"name":"Hof der Hohen Schule","postalCode":"35745","locality":"Herborn","municipality":{"key":"06532012","name":"Herborn, Stadt","type":"Stadt"},"district":{"key":"06532","name":"Lahn-Dill-Kreis","type":"Landkreis"},"federalState":{"key":"06","name":"Hessen"}},{"name":"Hoffmannstr.","postalCode":"35745","locality":"Herborn","municipality":{"key":"06532012","name":"Herborn, Stadt","type":"Stadt"},"district":{"key":"06532","name":"Lahn-Dill-Kreis","type":"Landkreis"},"federalState":{"key":"06","name":"Hessen"}},{"name":"Hofstr.","postalCode":"35745","locality":"Herborn","municipality":{"key":"06532012","name":"Herborn, Stadt","type":"Stadt"},"district":{"key":"06532","name":"Lahn-Dill-Kreis","type":"Landkreis"},"federalState":{"key":"06","name":"Hessen"}},{"name":"Hofweg","postalCode":"35745","locality":"Herborn","municipality":{"key":"06532012","name":"Herborn, Stadt","type":"Stadt"},"district":{"key":"06532","name":"Lahn-Dill-Kreis","type":"Landkreis"},"federalState":{"key":"06","name":"Hessen"}},{"name":"Höhenweg","postalCode":"35745","locality":"Herborn","municipality":{"key":"06532012","name":"Herborn, Stadt","type":"Stadt"},"district":{"key":"06532","name":"Lahn-Dill-Kreis","type":"Landkreis"},"federalState":{"key":"06","name":"Hessen"}},{"name":"Hohe Rainstr.","postalCode":"35745","locality":"Herborn","municipality":{"key":"06532012","name":"Herborn, Stadt","type":"Stadt"},"district":{"key":"06532","name":"Lahn-Dill-Kreis","type":"Landkreis"},"federalState":{"key":"06","name":"Hessen"}},{"name":"Hohe Str.","postalCode":"35745","locality":"Herborn","municipality":{"key":"06532012","name":"Herborn, Stadt","type":"Stadt"},"district":{"key":"06532","name":"Lahn-Dill-Kreis","type":"Landkreis"},"federalState":{"key":"06","name":"Hessen"}},{"name":"Hohlstr.","postalCode":"35745","locality":"Herborn","municipality":{"key":"06532012","name":"Herborn, Stadt","type":"Stadt"},"district":{"key":"06532","name":"Lahn-Dill-Kreis","type":"Landkreis"},"federalState":{"key":"06","name":"Hessen"}},{"name":"Holocaust-Denkmal","postalCode":"35745","locality":"Herborn","municipality":{"key":"06532012","name":"Herborn, Stadt","type":"Stadt"},"district":{"key":"06532","name":"Lahn-Dill-Kreis","type":"Landkreis"},"federalState":{"key":"06","name":"Hessen"}},{"name":"Holzmarkt","postalCode":"35745","locality":"Herborn","municipality":{"key":"06532012","name":"Herborn, Stadt","type":"Stadt"},"district":{"key":"06532","name":"Lahn-Dill-Kreis","type":"Landkreis"},"federalState":{"key":"06","name":"Hessen"}},{"name":"Hombergstr.","postalCode":"35745","locality":"Herborn","municipality":{"key":"06532012","name":"Herborn, Stadt","type":"Stadt"},"district":{"key":"06532","name":"Lahn-Dill-Kreis","type":"Landkreis"},"federalState":{"key":"06","name":"Hessen"}},{"name":"Horchweg","postalCode":"35745","locality":"Herborn","municipality":{"key":"06532012","name":"Herborn, Stadt","type":"Stadt"},"district":{"key":"06532","name":"Lahn-Dill-Kreis","type":"Landkreis"},"federalState":{"key":"06","name":"Hessen"}},{"name":"Hüttenweg","postalCode":"35745","locality":"Herborn","municipality":{"key":"06532012","name":"Herborn, Stadt","type":"Stadt"},"district":{"key":"06532","name":"Lahn-Dill-Kreis","type":"Landkreis"},"federalState":{"key":"06","name":"Hessen"}},{"name":"Im Alten Garten","postalCode":"35745","locality":"Herborn","municipality":{"key":"06532012","name":"Herborn, Stadt","type":"Stadt"},"district":{"key":"06532","name":"Lahn-Dill-Kreis","type":"Landkreis"},"federalState":{"key":"06","name":"Hessen"}},{"name":"Im Ambachtal","postalCode":"35745","locality":"Herborn","municipality":{"key":"06532012","name":"Herborn, Stadt","type":"Stadt"},"district":{"key":"06532","name":"Lahn-Dill-Kreis","type":"Landkreis"},"federalState":{"key":"06","name":"Hessen"}},{"name":"Im Bächel","postalCode":"35745","locality":"Herborn","municipality":{"key":"06532012","name":"Herborn, Stadt","type":"Stadt"},"district":{"key":"06532","name":"Lahn-Dill-Kreis","type":"Landkreis"},"federalState":{"key":"06","name":"Hessen"}},{"name":"Im Beilsbach","postalCode":"35745","locality":"Herborn","municipality":{"key":"06532012","name":"Herborn, Stadt","type":"Stadt"},"district":{"key":"06532","name":"Lahn-Dill-Kreis","type":"Landkreis"},"federalState":{"key":"06","name":"Hessen"}},{"name":"Im Breiten Boden","postalCode":"35745","locality":"Herborn","municipality":{"key":"06532012","name":"Herborn, Stadt","type":"Stadt"},"district":{"key":"06532","name":"Lahn-Dill-Kreis","type":"Landkreis"},"federalState":{"key":"06","name":"Hessen"}},{"name":"Im Dillfeld","postalCode":"35745","locality":"Herborn","municipality":{"key":"06532012","name":"Herborn, Stadt","type":"Stadt"},"district":{"key":"06532","name":"Lahn-Dill-Kreis","type":"Landkreis"},"federalState":{"key":"06","name":"Hessen"}},{"name":"Im Ellerswerth","postalCode":"35745","locality":"Herborn","municipality":{"key":"06532012","name":"Herborn, Stadt","type":"Stadt"},"district":{"key":"06532","name":"Lahn-Dill-Kreis","type":"Landkreis"},"federalState":{"key":"06","name":"Hessen"}},{"name":"Im Forstgrund","postalCode":"35745","locality":"Herborn","municipality":{"key":"06532012","name":"Herborn, Stadt","type":"Stadt"},"district":{"key":"06532","name":"Lahn-Dill-Kreis","type":"Landkreis"},"federalState":{"key":"06","name":"Hessen"}},{"name":"Im Gäßchen","postalCode":"35745","locality":"Herborn","municipality":{"key":"06532012","name":"Herborn, Stadt","type":"Stadt"},"district":{"key":"06532","name":"Lahn-Dill-Kreis","type":"Landkreis"},"federalState":{"key":"06","name":"Hessen"}},{"name":"Im Grübchen","postalCode":"35745","locality":"Herborn","municipality":{"key":"06532012","name":"Herborn, Stadt","type":"Stadt"},"district":{"key":"06532","name":"Lahn-Dill-Kreis","type":"Landkreis"},"federalState":{"key":"06","name":"Hessen"}},{"name":"Im Grund","postalCode":"35745","locality":"Herborn","municipality":{"key":"06532012","name":"Herborn, Stadt","type":"Stadt"},"district":{"key":"06532","name":"Lahn-Dill-Kreis","type":"Landkreis"},"federalState":{"key":"06","name":"Hessen"}},{"name":"Im Heiligen Floß","postalCode":"35745","locality":"Herborn","municipality":{"key":"06532012","name":"Herborn, Stadt","type":"Stadt"},"district":{"key":"06532","name":"Lahn-Dill-Kreis","type":"Landkreis"},"federalState":{"key":"06","name":"Hessen"}},{"name":"Im Hesbach","postalCode":"35745","locality":"Herborn","municipality":{"key":"06532012","name":"Herborn, Stadt","type":"Stadt"},"district":{"key":"06532","name":"Lahn-Dill-Kreis","type":"Landkreis"},"federalState":{"key":"06","name":"Hessen"}},{"name":"Im Höfchen","postalCode":"35745","locality":"Herborn","municipality":{"key":"06532012","name":"Herborn, Stadt","type":"Stadt"},"district":{"key":"06532","name":"Lahn-Dill-Kreis","type":"Landkreis"},"federalState":{"key":"06","name":"Hessen"}},{"name":"Im Oberdorf","postalCode":"35745","locality":"Herborn","municipality":{"key":"06532012","name":"Herborn, Stadt","type":"Stadt"},"district":{"key":"06532","name":"Lahn-Dill-Kreis","type":"Landkreis"},"federalState":{"key":"06","name":"Hessen"}},{"name":"Im Weyertchen","postalCode":"35745","locality":"Herborn","municipality":{"key":"06532012","name":"Herborn, Stadt","type":"Stadt"},"district":{"key":"06532","name":"Lahn-Dill-Kreis","type":"Landkreis"},"federalState":{"key":"06","name":"Hessen"}},{"name":"Im Wieschen","postalCode":"35745","locality":"Herborn","municipality":{"key":"06532012","name":"Herborn, Stadt","type":"Stadt"},"district":{"key":"06532","name":"Lahn-Dill-Kreis","type":"Landkreis"},"federalState":{"key":"06","name":"Hessen"}},{"name":"Im Winkelgarten","postalCode":"35745","locality":"Herborn","municipality":{"key":"06532012","name":"Herborn, Stadt","type":"Stadt"},"district":{"key":"06532","name":"Lahn-Dill-Kreis","type":"Landkreis"},"federalState":{"key":"06","name":"Hessen"}},{"name":"In der Au","postalCode":"35745","locality":"Herborn","municipality":{"key":"06532012","name":"Herborn, Stadt","type":"Stadt"},"district":{"key":"06532","name":"Lahn-Dill-Kreis","type":"Landkreis"},"federalState":{"key":"06","name":"Hessen"}},{"name":"In der Bitz","postalCode":"35745","locality":"Herborn","municipality":{"key":"06532012","name":"Herborn, Stadt","type":"Stadt"},"district":{"key":"06532","name":"Lahn-Dill-Kreis","type":"Landkreis"},"federalState":{"key":"06","name":"Hessen"}},{"name":"In der Neuwies","postalCode":"35745","locality":"Herborn","municipality":{"key":"06532012","name":"Herborn, Stadt","type":"Stadt"},"district":{"key":"06532","name":"Lahn-Dill-Kreis","type":"Landkreis"},"federalState":{"key":"06","name":"Hessen"}},{"name":"Industriestr.","postalCode":"35745","locality":"Herborn","municipality":{"key":"06532012","name":"Herborn, Stadt","type":"Stadt"},"district":{"key":"06532","name":"Lahn-Dill-Kreis","type":"Landkreis"},"federalState":{"key":"06","name":"Hessen"}},{"name":"Jägerhausstr.","postalCode":"35745","locality":"Herborn","municipality":{"key":"06532012","name":"Herborn, Stadt","type":"Stadt"},"district":{"key":"06532","name":"Lahn-Dill-Kreis","type":"Landkreis"},"federalState":{"key":"06","name":"Hessen"}},{"name":"Jahnstr.","postalCode":"35745","locality":"Herborn","municipality":{"key":"06532012","name":"Herborn, Stadt","type":"Stadt"},"district":{"key":"06532","name":"Lahn-Dill-Kreis","type":"Landkreis"},"federalState":{"key":"06","name":"Hessen"}},{"name":"Jens-Trocha-Park","postalCode":"35745","locality":"Herborn","municipality":{"key":"06532012","name":"Herborn, Stadt","type":"Stadt"},"district":{"key":"06532","name":"Lahn-Dill-Kreis","type":"Landkreis"},"federalState":{"key":"06","name":"Hessen"}},{"name":"Johann-Daniel-Leers-Weg","postalCode":"35745","locality":"Herborn","municipality":{"key":"06532012","name":"Herborn, Stadt","type":"Stadt"},"district":{"key":"06532","name":"Lahn-Dill-Kreis","type":"Landkreis"},"federalState":{"key":"06","name":"Hessen"}},{"name":"Johannisbergstr.","postalCode":"35745","locality":"Herborn","municipality":{"key":"06532012","name":"Herborn, Stadt","type":"Stadt"},"district":{"key":"06532","name":"Lahn-Dill-Kreis","type":"Landkreis"},"federalState":{"key":"06","name":"Hessen"}},{"name":"Johannmichels Winkel","postalCode":"35745","locality":"Herborn","municipality":{"key":"06532012","name":"Herborn, Stadt","type":"Stadt"},"district":{"key":"06532","name":"Lahn-Dill-Kreis","type":"Landkreis"},"federalState":{"key":"06","name":"Hessen"}},{"name":"Johann-Piscator-Weg","postalCode":"35745","locality":"Herborn","municipality":{"key":"06532012","name":"Herborn, Stadt","type":"Stadt"},"district":{"key":"06532","name":"Lahn-Dill-Kreis","type":"Landkreis"},"federalState":{"key":"06","name":"Hessen"}},{"name":"Johann-Steubing-Weg","postalCode":"35745","locality":"Herborn","municipality":{"key":"06532012","name":"Herborn, Stadt","type":"Stadt"},"district":{"key":"06532","name":"Lahn-Dill-Kreis","type":"Landkreis"},"federalState":{"key":"06","name":"Hessen"}},{"name":"Junostr.","postalCode":"35745","locality":"Herborn","municipality":{"key":"06532012","name":"Herborn, Stadt","type":"Stadt"},"district":{"key":"06532","name":"Lahn-Dill-Kreis","type":"Landkreis"},"federalState":{"key":"06","name":"Hessen"}},{"name":"Kaiserstr.","postalCode":"35745","locality":"Herborn","municipality":{"key":"06532012","name":"Herborn, Stadt","type":"Stadt"},"district":{"key":"06532","name":"Lahn-Dill-Kreis","type":"Landkreis"},"federalState":{"key":"06","name":"Hessen"}},{"name":"Kallenbachstr.","postalCode":"35745","locality":"Herborn","municipality":{"key":"06532012","name":"Herborn, Stadt","type":"Stadt"},"district":{"key":"06532","name":"Lahn-Dill-Kreis","type":"Landkreis"},"federalState":{"key":"06","name":"Hessen"}},{"name":"Kallenbachswäldchen","postalCode":"35745","locality":"Herborn","municipality":{"key":"06532012","name":"Herborn, Stadt","type":"Stadt"},"district":{"key":"06532","name":"Lahn-Dill-Kreis","type":"Landkreis"},"federalState":{"key":"06","name":"Hessen"}},{"name":"Karlsbader Str.","postalCode":"35745","locality":"Herborn","municipality":{"key":"06532012","name":"Herborn, Stadt","type":"Stadt"},"district":{"key":"06532","name":"Lahn-Dill-Kreis","type":"Landkreis"},"federalState":{"key":"06","name":"Hessen"}},{"name":"Karlstr.","postalCode":"35745","locality":"Herborn","municipality":{"key":"06532012","name":"Herborn, Stadt","type":"Stadt"},"district":{"key":"06532","name":"Lahn-Dill-Kreis","type":"Landkreis"},"federalState":{"key":"06","name":"Hessen"}},{"name":"Keltenpfad","postalCode":"35745","locality":"Herborn","municipality":{"key":"06532012","name":"Herborn, Stadt","type":"Stadt"},"district":{"key":"06532","name":"Lahn-Dill-Kreis","type":"Landkreis"},"federalState":{"key":"06","name":"Hessen"}},{"name":"Kempfelder Str.","postalCode":"55758","locality":"Herborn","municipality":{"key":"07134038","name":"Herborn","type":"Kreisangehörige_Gemeinde"},"district":{"key":"07134","name":"Birkenfeld","type":"Landkreis"},"federalState":{"key":"07","name":"Rheinland-Pfalz"}},{"name":"Kiefernweg","postalCode":"35745","locality":"Herborn","municipality":{"key":"06532012","name":"Herborn, Stadt","type":"Stadt"},"district":{"key":"06532","name":"Lahn-Dill-Kreis","type":"Landkreis"},"federalState":{"key":"06","name":"Hessen"}},{"name":"Kirchberg","postalCode":"35745","locality":"Herborn","municipality":{"key":"06532012","name":"Herborn, Stadt","type":"Stadt"},"district":{"key":"06532","name":"Lahn-Dill-Kreis","type":"Landkreis"},"federalState":{"key":"06","name":"Hessen"}},{"name":"Kirchfeld","postalCode":"35745","locality":"Herborn","municipality":{"key":"06532012","name":"Herborn, Stadt","type":"Stadt"},"district":{"key":"06532","name":"Lahn-Dill-Kreis","type":"Landkreis"},"federalState":{"key":"06","name":"Hessen"}},{"name":"Kirchgangswinkel","postalCode":"35745","locality":"Herborn","municipality":{"key":"06532012","name":"Herborn, Stadt","type":"Stadt"},"district":{"key":"06532","name":"Lahn-Dill-Kreis","type":"Landkreis"},"federalState":{"key":"06","name":"Hessen"}},{"name":"Kirchstr.","postalCode":"35745","locality":"Herborn","municipality":{"key":"06532012","name":"Herborn, Stadt","type":"Stadt"},"district":{"key":"06532","name":"Lahn-Dill-Kreis","type":"Landkreis"},"federalState":{"key":"06","name":"Hessen"}},{"name":"Kissweg","postalCode":"35745","locality":"Herborn","municipality":{"key":"06532012","name":"Herborn, Stadt","type":"Stadt"},"district":{"key":"06532","name":"Lahn-Dill-Kreis","type":"Landkreis"},"federalState":{"key":"06","name":"Hessen"}},{"name":"Kleiberweg","postalCode":"35745","locality":"Herborn","municipality":{"key":"06532012","name":"Herborn, Stadt","type":"Stadt"},"district":{"key":"06532","name":"Lahn-Dill-Kreis","type":"Landkreis"},"federalState":{"key":"06","name":"Hessen"}},{"name":"Kleine Gasse","postalCode":"35745","locality":"Herborn","municipality":{"key":"06532012","name":"Herborn, Stadt","type":"Stadt"},"district":{"key":"06532","name":"Lahn-Dill-Kreis","type":"Landkreis"},"federalState":{"key":"06","name":"Hessen"}},{"name":"Kleine Haar","postalCode":"35745","locality":"Herborn","municipality":{"key":"06532012","name":"Herborn, Stadt","type":"Stadt"},"district":{"key":"06532","name":"Lahn-Dill-Kreis","type":"Landkreis"},"federalState":{"key":"06","name":"Hessen"}},{"name":"Kleine Ringstr.","postalCode":"35745","locality":"Herborn","municipality":{"key":"06532012","name":"Herborn, Stadt","type":"Stadt"},"district":{"key":"06532","name":"Lahn-Dill-Kreis","type":"Landkreis"},"federalState":{"key":"06","name":"Hessen"}},{"name":"Kleiner Mühlenwinkel","postalCode":"35745","locality":"Herborn","municipality":{"key":"06532012","name":"Herborn, Stadt","type":"Stadt"},"district":{"key":"06532","name":"Lahn-Dill-Kreis","type":"Landkreis"},"federalState":{"key":"06","name":"Hessen"}},{"name":"Kochs Grund","postalCode":"35745","locality":"Herborn","municipality":{"key":"06532012","name":"Herborn, Stadt","type":"Stadt"},"district":{"key":"06532","name":"Lahn-Dill-Kreis","type":"Landkreis"},"federalState":{"key":"06","name":"Hessen"}},{"name":"Köhlerstr.","postalCode":"35745","locality":"Herborn","municipality":{"key":"06532012","name":"Herborn, Stadt","type":"Stadt"},"district":{"key":"06532","name":"Lahn-Dill-Kreis","type":"Landkreis"},"federalState":{"key":"06","name":"Hessen"}},{"name":"Königsberger Str.","postalCode":"35745","locality":"Herborn","municipality":{"key":"06532012","name":"Herborn, Stadt","type":"Stadt"},"district":{"key":"06532","name":"Lahn-Dill-Kreis","type":"Landkreis"},"federalState":{"key":"06","name":"Hessen"}},{"name":"Konrad-Adenauer-Str.","postalCode":"35745","locality":"Herborn","municipality":{"key":"06532012","name":"Herborn, Stadt","type":"Stadt"},"district":{"key":"06532","name":"Lahn-Dill-Kreis","type":"Landkreis"},"federalState":{"key":"06","name":"Hessen"}},{"name":"Kornmarkt","postalCode":"35745","locality":"Herborn","municipality":{"key":"06532012","name":"Herborn, Stadt","type":"Stadt"},"district":{"key":"06532","name":"Lahn-Dill-Kreis","type":"Landkreis"},"federalState":{"key":"06","name":"Hessen"}},{"name":"Krankenhauspark Vitos","postalCode":"35745","locality":"Herborn","municipality":{"key":"06532012","name":"Herborn, Stadt","type":"Stadt"},"district":{"key":"06532","name":"Lahn-Dill-Kreis","type":"Landkreis"},"federalState":{"key":"06","name":"Hessen"}},{"name":"Kreuzweg","postalCode":"35745","locality":"Herborn","municipality":{"key":"06532012","name":"Herborn, Stadt","type":"Stadt"},"district":{"key":"06532","name":"Lahn-Dill-Kreis","type":"Landkreis"},"federalState":{"key":"06","name":"Hessen"}},{"name":"Kupferweg","postalCode":"55758","locality":"Herborn","municipality":{"key":"07134038","name":"Herborn","type":"Kreisangehörige_Gemeinde"},"district":{"key":"07134","name":"Birkenfeld","type":"Landkreis"},"federalState":{"key":"07","name":"Rheinland-Pfalz"}},{"name":"Kutscherhof","postalCode":"35745","locality":"Herborn","municipality":{"key":"06532012","name":"Herborn, Stadt","type":"Stadt"},"district":{"key":"06532","name":"Lahn-Dill-Kreis","type":"Landkreis"},"federalState":{"key":"06","name":"Hessen"}},{"name":"Lange Grundstr.","postalCode":"35745","locality":"Herborn","municipality":{"key":"06532012","name":"Herborn, Stadt","type":"Stadt"},"district":{"key":"06532","name":"Lahn-Dill-Kreis","type":"Landkreis"},"federalState":{"key":"06","name":"Hessen"}},{"name":"Lange Str.","postalCode":"35745","locality":"Herborn","municipality":{"key":"06532012","name":"Herborn, Stadt","type":"Stadt"},"district":{"key":"06532","name":"Lahn-Dill-Kreis","type":"Landkreis"},"federalState":{"key":"06","name":"Hessen"}},{"name":"Langwiesenstr.","postalCode":"35745","locality":"Herborn","municipality":{"key":"06532012","name":"Herborn, Stadt","type":"Stadt"},"district":{"key":"06532","name":"Lahn-Dill-Kreis","type":"Landkreis"},"federalState":{"key":"06","name":"Hessen"}},{"name":"Leipziger Str.","postalCode":"35745","locality":"Herborn","municipality":{"key":"06532012","name":"Herborn, Stadt","type":"Stadt"},"district":{"key":"06532","name":"Lahn-Dill-Kreis","type":"Landkreis"},"federalState":{"key":"06","name":"Hessen"}},{"name":"Lerchenweg","postalCode":"35745","locality":"Herborn","municipality":{"key":"06532012","name":"Herborn, Stadt","type":"Stadt"},"district":{"key":"06532","name":"Lahn-Dill-Kreis","type":"Landkreis"},"federalState":{"key":"06","name":"Hessen"}},{"name":"Lindenstr.","postalCode":"35745","locality":"Herborn","municipality":{"key":"06532012","name":"Herborn, Stadt","type":"Stadt"},"district":{"key":"06532","name":"Lahn-Dill-Kreis","type":"Landkreis"},"federalState":{"key":"06","name":"Hessen"}},{"name":"Lindenweg","postalCode":"35745","locality":"Herborn","municipality":{"key":"06532012","name":"Herborn, Stadt","type":"Stadt"},"district":{"key":"06532","name":"Lahn-Dill-Kreis","type":"Landkreis"},"federalState":{"key":"06","name":"Hessen"}},{"name":"Littau","postalCode":"35745","locality":"Herborn","municipality":{"key":"06532012","name":"Herborn, Stadt","type":"Stadt"},"district":{"key":"06532","name":"Lahn-Dill-Kreis","type":"Landkreis"},"federalState":{"key":"06","name":"Hessen"}},{"name":"Lütsch","postalCode":"35745","locality":"Herborn","municipality":{"key":"06532012","name":"Herborn, Stadt","type":"Stadt"},"district":{"key":"06532","name":"Lahn-Dill-Kreis","type":"Landkreis"},"federalState":{"key":"06","name":"Hessen"}},{"name":"Marburger Str.","postalCode":"35745","locality":"Herborn","municipality":{"key":"06532012","name":"Herborn, Stadt","type":"Stadt"},"district":{"key":"06532","name":"Lahn-Dill-Kreis","type":"Landkreis"},"federalState":{"key":"06","name":"Hessen"}},{"name":"Marienburgstr.","postalCode":"35745","locality":"Herborn","municipality":{"key":"06532012","name":"Herborn, Stadt","type":"Stadt"},"district":{"key":"06532","name":"Lahn-Dill-Kreis","type":"Landkreis"},"federalState":{"key":"06","name":"Hessen"}},{"name":"Marktplatz","postalCode":"35745","locality":"Herborn","municipality":{"key":"06532012","name":"Herborn, Stadt","type":"Stadt"},"district":{"key":"06532","name":"Lahn-Dill-Kreis","type":"Landkreis"},"federalState":{"key":"06","name":"Hessen"}},{"name":"Meisenweg","postalCode":"35745","locality":"Herborn","municipality":{"key":"06532012","name":"Herborn, Stadt","type":"Stadt"},"district":{"key":"06532","name":"Lahn-Dill-Kreis","type":"Landkreis"},"federalState":{"key":"06","name":"Hessen"}},{"name":"Memeler Str.","postalCode":"35745","locality":"Herborn","municipality":{"key":"06532012","name":"Herborn, Stadt","type":"Stadt"},"district":{"key":"06532","name":"Lahn-Dill-Kreis","type":"Landkreis"},"federalState":{"key":"06","name":"Hessen"}},{"name":"Merkenbachstr.","postalCode":"35745","locality":"Herborn","municipality":{"key":"06532012","name":"Herborn, Stadt","type":"Stadt"},"district":{"key":"06532","name":"Lahn-Dill-Kreis","type":"Landkreis"},"federalState":{"key":"06","name":"Hessen"}},{"name":"Meynardweg","postalCode":"35745","locality":"Herborn","municipality":{"key":"06532012","name":"Herborn, Stadt","type":"Stadt"},"district":{"key":"06532","name":"Lahn-Dill-Kreis","type":"Landkreis"},"federalState":{"key":"06","name":"Hessen"}},{"name":"Mittelfeldstr.","postalCode":"35745","locality":"Herborn","municipality":{"key":"06532012","name":"Herborn, Stadt","type":"Stadt"},"district":{"key":"06532","name":"Lahn-Dill-Kreis","type":"Landkreis"},"federalState":{"key":"06","name":"Hessen"}},{"name":"Mittelstr.","postalCode":"35745","locality":"Herborn","municipality":{"key":"06532012","name":"Herborn, Stadt","type":"Stadt"},"district":{"key":"06532","name":"Lahn-Dill-Kreis","type":"Landkreis"},"federalState":{"key":"06","name":"Hessen"}},{"name":"Mozartstr.","postalCode":"35745","locality":"Herborn","municipality":{"key":"06532012","name":"Herborn, Stadt","type":"Stadt"},"district":{"key":"06532","name":"Lahn-Dill-Kreis","type":"Landkreis"},"federalState":{"key":"06","name":"Hessen"}},{"name":"Mühlbach","postalCode":"35745","locality":"Herborn","municipality":{"key":"06532012","name":"Herborn, Stadt","type":"Stadt"},"district":{"key":"06532","name":"Lahn-Dill-Kreis","type":"Landkreis"},"federalState":{"key":"06","name":"Hessen"}},{"name":"Mühlbachswinkel","postalCode":"35745","locality":"Herborn","municipality":{"key":"06532012","name":"Herborn, Stadt","type":"Stadt"},"district":{"key":"06532","name":"Lahn-Dill-Kreis","type":"Landkreis"},"federalState":{"key":"06","name":"Hessen"}},{"name":"Mühlenweg","postalCode":"35745","locality":"Herborn","municipality":{"key":"06532012","name":"Herborn, Stadt","type":"Stadt"},"district":{"key":"06532","name":"Lahn-Dill-Kreis","type":"Landkreis"},"federalState":{"key":"06","name":"Hessen"}},{"name":"Mühlgasse","postalCode":"35745","locality":"Herborn","municipality":{"key":"06532012","name":"Herborn, Stadt","type":"Stadt"},"district":{"key":"06532","name":"Lahn-Dill-Kreis","type":"Landkreis"},"federalState":{"key":"06","name":"Hessen"}},{"name":"Mühlpfad","postalCode":"35745","locality":"Herborn","municipality":{"key":"06532012","name":"Herborn, Stadt","type":"Stadt"},"district":{"key":"06532","name":"Lahn-Dill-Kreis","type":"Landkreis"},"federalState":{"key":"06","name":"Hessen"}},{"name":"Mühlring","postalCode":"35745","locality":"Herborn","municipality":{"key":"06532012","name":"Herborn, Stadt","type":"Stadt"},"district":{"key":"06532","name":"Lahn-Dill-Kreis","type":"Landkreis"},"federalState":{"key":"06","name":"Hessen"}},{"name":"Nachtigallenweg","postalCode":"35745","locality":"Herborn","municipality":{"key":"06532012","name":"Herborn, Stadt","type":"Stadt"},"district":{"key":"06532","name":"Lahn-Dill-Kreis","type":"Landkreis"},"federalState":{"key":"06","name":"Hessen"}},{"name":"Nassaustr.","postalCode":"35745","locality":"Herborn","municipality":{"key":"06532012","name":"Herborn, Stadt","type":"Stadt"},"district":{"key":"06532","name":"Lahn-Dill-Kreis","type":"Landkreis"},"federalState":{"key":"06","name":"Hessen"}},{"name":"Neuer Weg","postalCode":"35745","locality":"Herborn","municipality":{"key":"06532012","name":"Herborn, Stadt","type":"Stadt"},"district":{"key":"06532","name":"Lahn-Dill-Kreis","type":"Landkreis"},"federalState":{"key":"06","name":"Hessen"}},{"name":"Neuer Weg","postalCode":"55758","locality":"Herborn","municipality":{"key":"07134038","name":"Herborn","type":"Kreisangehörige_Gemeinde"},"district":{"key":"07134","name":"Birkenfeld","type":"Landkreis"},"federalState":{"key":"07","name":"Rheinland-Pfalz"}},{"name":"Neue Schulstr.","postalCode":"35745","locality":"Herborn","municipality":{"key":"06532012","name":"Herborn, Stadt","type":"Stadt"},"district":{"key":"06532","name":"Lahn-Dill-Kreis","type":"Landkreis"},"federalState":{"key":"06","name":"Hessen"}},{"name":"Neue Str.","postalCode":"35745","locality":"Herborn","municipality":{"key":"06532012","name":"Herborn, Stadt","type":"Stadt"},"district":{"key":"06532","name":"Lahn-Dill-Kreis","type":"Landkreis"},"federalState":{"key":"06","name":"Hessen"}},{"name":"Obere Johannisbergstr.","postalCode":"35745","locality":"Herborn","municipality":{"key":"06532012","name":"Herborn, Stadt","type":"Stadt"},"district":{"key":"06532","name":"Lahn-Dill-Kreis","type":"Landkreis"},"federalState":{"key":"06","name":"Hessen"}},{"name":"Obere Weitzbergstr.","postalCode":"35745","locality":"Herborn","municipality":{"key":"06532012","name":"Herborn, Stadt","type":"Stadt"},"district":{"key":"06532","name":"Lahn-Dill-Kreis","type":"Landkreis"},"federalState":{"key":"06","name":"Hessen"}},{"name":"Olevianweg","postalCode":"35745","locality":"Herborn","municipality":{"key":"06532012","name":"Herborn, Stadt","type":"Stadt"},"district":{"key":"06532","name":"Lahn-Dill-Kreis","type":"Landkreis"},"federalState":{"key":"06","name":"Hessen"}},{"name":"Oppelner Str.","postalCode":"35745","locality":"Herborn","municipality":{"key":"06532012","name":"Herborn, Stadt","type":"Stadt"},"district":{"key":"06532","name":"Lahn-Dill-Kreis","type":"Landkreis"},"federalState":{"key":"06","name":"Hessen"}},{"name":"Oranienstr.","postalCode":"35745","locality":"Herborn","municipality":{"key":"06532012","name":"Herborn, Stadt","type":"Stadt"},"district":{"key":"06532","name":"Lahn-Dill-Kreis","type":"Landkreis"},"federalState":{"key":"06","name":"Hessen"}},{"name":"Oststr.","postalCode":"35745","locality":"Herborn","municipality":{"key":"06532012","name":"Herborn, Stadt","type":"Stadt"},"district":{"key":"06532","name":"Lahn-Dill-Kreis","type":"Landkreis"},"federalState":{"key":"06","name":"Hessen"}},{"name":"Ottostr.","postalCode":"35745","locality":"Herborn","municipality":{"key":"06532012","name":"Herborn, Stadt","type":"Stadt"},"district":{"key":"06532","name":"Lahn-Dill-Kreis","type":"Landkreis"},"federalState":{"key":"06","name":"Hessen"}},{"name":"Otto-Wels-Str.","postalCode":"35745","locality":"Herborn","municipality":{"key":"06532012","name":"Herborn, Stadt","type":"Stadt"},"district":{"key":"06532","name":"Lahn-Dill-Kreis","type":"Landkreis"},"federalState":{"key":"06","name":"Hessen"}},{"name":"Panoramablick","postalCode":"35745","locality":"Herborn","municipality":{"key":"06532012","name":"Herborn, Stadt","type":"Stadt"},"district":{"key":"06532","name":"Lahn-Dill-Kreis","type":"Landkreis"},"federalState":{"key":"06","name":"Hessen"}},{"name":"Panzerstr.","postalCode":"35745","locality":"Herborn","municipality":{"key":"06532012","name":"Herborn, Stadt","type":"Stadt"},"district":{"key":"06532","name":"Lahn-Dill-Kreis","type":"Landkreis"},"federalState":{"key":"06","name":"Hessen"}},{"name":"Pertuis-Platz","postalCode":"35745","locality":"Herborn","municipality":{"key":"06532012","name":"Herborn, Stadt","type":"Stadt"},"district":{"key":"06532","name":"Lahn-Dill-Kreis","type":"Landkreis"},"federalState":{"key":"06","name":"Hessen"}},{"name":"Pirolweg","postalCode":"35745","locality":"Herborn","municipality":{"key":"06532012","name":"Herborn, Stadt","type":"Stadt"},"district":{"key":"06532","name":"Lahn-Dill-Kreis","type":"Landkreis"},"federalState":{"key":"06","name":"Hessen"}},{"name":"Poststr.","postalCode":"35745","locality":"Herborn","municipality":{"key":"06532012","name":"Herborn, Stadt","type":"Stadt"},"district":{"key":"06532","name":"Lahn-Dill-Kreis","type":"Landkreis"},"federalState":{"key":"06","name":"Hessen"}},{"name":"Professor-Sell-Str.","postalCode":"35745","locality":"Herborn","municipality":{"key":"06532012","name":"Herborn, Stadt","type":"Stadt"},"district":{"key":"06532","name":"Lahn-Dill-Kreis","type":"Landkreis"},"federalState":{"key":"06","name":"Hessen"}},{"name":"Rathausstr.","postalCode":"35745","locality":"Herborn","municipality":{"key":"06532012","name":"Herborn, Stadt","type":"Stadt"},"district":{"key":"06532","name":"Lahn-Dill-Kreis","type":"Landkreis"},"federalState":{"key":"06","name":"Hessen"}},{"name":"Rathauswinkel","postalCode":"35745","locality":"Herborn","municipality":{"key":"06532012","name":"Herborn, Stadt","type":"Stadt"},"district":{"key":"06532","name":"Lahn-Dill-Kreis","type":"Landkreis"},"federalState":{"key":"06","name":"Hessen"}},{"name":"Regerstr.","postalCode":"35745","locality":"Herborn","municipality":{"key":"06532012","name":"Herborn, Stadt","type":"Stadt"},"district":{"key":"06532","name":"Lahn-Dill-Kreis","type":"Landkreis"},"federalState":{"key":"06","name":"Hessen"}},{"name":"Reinhards Berg","postalCode":"35745","locality":"Herborn","municipality":{"key":"06532012","name":"Herborn, Stadt","type":"Stadt"},"district":{"key":"06532","name":"Lahn-Dill-Kreis","type":"Landkreis"},"federalState":{"key":"06","name":"Hessen"}},{"name":"Ringofenstr.","postalCode":"35745","locality":"Herborn","municipality":{"key":"06532012","name":"Herborn, Stadt","type":"Stadt"},"district":{"key":"06532","name":"Lahn-Dill-Kreis","type":"Landkreis"},"federalState":{"key":"06","name":"Hessen"}},{"name":"Ringstr.","postalCode":"35745","locality":"Herborn","municipality":{"key":"06532012","name":"Herborn, Stadt","type":"Stadt"},"district":{"key":"06532","name":"Lahn-Dill-Kreis","type":"Landkreis"},"federalState":{"key":"06","name":"Hessen"}},{"name":"Robert-Koch-Weg","postalCode":"35745","locality":"Herborn","municipality":{"key":"06532012","name":"Herborn, Stadt","type":"Stadt"},"district":{"key":"06532","name":"Lahn-Dill-Kreis","type":"Landkreis"},"federalState":{"key":"06","name":"Hessen"}},{"name":"Rosenwäldchen","postalCode":"35745","locality":"Herborn","municipality":{"key":"06532012","name":"Herborn, Stadt","type":"Stadt"},"district":{"key":"06532","name":"Lahn-Dill-Kreis","type":"Landkreis"},"federalState":{"key":"06","name":"Hessen"}},{"name":"Roter Weg","postalCode":"35745","locality":"Herborn","municipality":{"key":"06532012","name":"Herborn, Stadt","type":"Stadt"},"district":{"key":"06532","name":"Lahn-Dill-Kreis","type":"Landkreis"},"federalState":{"key":"06","name":"Hessen"}},{"name":"Rothebaumstr.","postalCode":"35745","locality":"Herborn","municipality":{"key":"06532012","name":"Herborn, Stadt","type":"Stadt"},"district":{"key":"06532","name":"Lahn-Dill-Kreis","type":"Landkreis"},"federalState":{"key":"06","name":"Hessen"}},{"name":"Rother Str.","postalCode":"35745","locality":"Herborn","municipality":{"key":"06532012","name":"Herborn, Stadt","type":"Stadt"},"district":{"key":"06532","name":"Lahn-Dill-Kreis","type":"Landkreis"},"federalState":{"key":"06","name":"Hessen"}},{"name":"Sandweg","postalCode":"35745","locality":"Herborn","municipality":{"key":"06532012","name":"Herborn, Stadt","type":"Stadt"},"district":{"key":"06532","name":"Lahn-Dill-Kreis","type":"Landkreis"},"federalState":{"key":"06","name":"Hessen"}},{"name":"Schäbelstr.","postalCode":"35745","locality":"Herborn","municipality":{"key":"06532012","name":"Herborn, Stadt","type":"Stadt"},"district":{"key":"06532","name":"Lahn-Dill-Kreis","type":"Landkreis"},"federalState":{"key":"06","name":"Hessen"}},{"name":"Scheidtstr.","postalCode":"35745","locality":"Herborn","municipality":{"key":"06532012","name":"Herborn, Stadt","type":"Stadt"},"district":{"key":"06532","name":"Lahn-Dill-Kreis","type":"Landkreis"},"federalState":{"key":"06","name":"Hessen"}},{"name":"Schillerhöhe","postalCode":"35745","locality":"Herborn","municipality":{"key":"06532012","name":"Herborn, Stadt","type":"Stadt"},"district":{"key":"06532","name":"Lahn-Dill-Kreis","type":"Landkreis"},"federalState":{"key":"06","name":"Hessen"}},{"name":"Schillerstr.","postalCode":"35745","locality":"Herborn","municipality":{"key":"06532012","name":"Herborn, Stadt","type":"Stadt"},"district":{"key":"06532","name":"Lahn-Dill-Kreis","type":"Landkreis"},"federalState":{"key":"06","name":"Hessen"}},{"name":"Schlangenpfad","postalCode":"35745","locality":"Herborn","municipality":{"key":"06532012","name":"Herborn, Stadt","type":"Stadt"},"district":{"key":"06532","name":"Lahn-Dill-Kreis","type":"Landkreis"},"federalState":{"key":"06","name":"Hessen"}},{"name":"Schlehenweg","postalCode":"35745","locality":"Herborn","municipality":{"key":"06532012","name":"Herborn, Stadt","type":"Stadt"},"district":{"key":"06532","name":"Lahn-Dill-Kreis","type":"Landkreis"},"federalState":{"key":"06","name":"Hessen"}},{"name":"Schlesische Str.","postalCode":"35745","locality":"Herborn","municipality":{"key":"06532012","name":"Herborn, Stadt","type":"Stadt"},"district":{"key":"06532","name":"Lahn-Dill-Kreis","type":"Landkreis"},"federalState":{"key":"06","name":"Hessen"}},{"name":"Schlinkenweg","postalCode":"35745","locality":"Herborn","municipality":{"key":"06532012","name":"Herborn, Stadt","type":"Stadt"},"district":{"key":"06532","name":"Lahn-Dill-Kreis","type":"Landkreis"},"federalState":{"key":"06","name":"Hessen"}},{"name":"Schloßberg","postalCode":"35745","locality":"Herborn","municipality":{"key":"06532012","name":"Herborn, Stadt","type":"Stadt"},"district":{"key":"06532","name":"Lahn-Dill-Kreis","type":"Landkreis"},"federalState":{"key":"06","name":"Hessen"}},{"name":"Schloßstr.","postalCode":"35745","locality":"Herborn","municipality":{"key":"06532012","name":"Herborn, Stadt","type":"Stadt"},"district":{"key":"06532","name":"Lahn-Dill-Kreis","type":"Landkreis"},"federalState":{"key":"06","name":"Hessen"}},{"name":"Schmalbachstr.","postalCode":"35745","locality":"Herborn","municipality":{"key":"06532012","name":"Herborn, Stadt","type":"Stadt"},"district":{"key":"06532","name":"Lahn-Dill-Kreis","type":"Landkreis"},"federalState":{"key":"06","name":"Hessen"}},{"name":"Schmalbachtal","postalCode":"35745","locality":"Herborn","municipality":{"key":"06532012","name":"Herborn, Stadt","type":"Stadt"},"district":{"key":"06532","name":"Lahn-Dill-Kreis","type":"Landkreis"},"federalState":{"key":"06","name":"Hessen"}},{"name":"Schmaler Weg","postalCode":"35745","locality":"Herborn","municipality":{"key":"06532012","name":"Herborn, Stadt","type":"Stadt"},"district":{"key":"06532","name":"Lahn-Dill-Kreis","type":"Landkreis"},"federalState":{"key":"06","name":"Hessen"}},{"name":"Schönbacher Hauptstr.","postalCode":"35745","locality":"Herborn","municipality":{"key":"06532012","name":"Herborn, Stadt","type":"Stadt"},"district":{"key":"06532","name":"Lahn-Dill-Kreis","type":"Landkreis"},"federalState":{"key":"06","name":"Hessen"}},{"name":"Schönbacher Str.","postalCode":"35745","locality":"Herborn","municipality":{"key":"06532012","name":"Herborn, Stadt","type":"Stadt"},"district":{"key":"06532","name":"Lahn-Dill-Kreis","type":"Landkreis"},"federalState":{"key":"06","name":"Hessen"}},{"name":"Schöne Aussicht","postalCode":"35745","locality":"Herborn","municipality":{"key":"06532012","name":"Herborn, Stadt","type":"Stadt"},"district":{"key":"06532","name":"Lahn-Dill-Kreis","type":"Landkreis"},"federalState":{"key":"06","name":"Hessen"}},{"name":"Schramms Hof","postalCode":"35745","locality":"Herborn","municipality":{"key":"06532012","name":"Herborn, Stadt","type":"Stadt"},"district":{"key":"06532","name":"Lahn-Dill-Kreis","type":"Landkreis"},"federalState":{"key":"06","name":"Hessen"}},{"name":"Schrammweg","postalCode":"35745","locality":"Herborn","municipality":{"key":"06532012","name":"Herborn, Stadt","type":"Stadt"},"district":{"key":"06532","name":"Lahn-Dill-Kreis","type":"Landkreis"},"federalState":{"key":"06","name":"Hessen"}},{"name":"Schubertstr.","postalCode":"35745","locality":"Herborn","municipality":{"key":"06532012","name":"Herborn, Stadt","type":"Stadt"},"district":{"key":"06532","name":"Lahn-Dill-Kreis","type":"Landkreis"},"federalState":{"key":"06","name":"Hessen"}},{"name":"Schuhmarkt","postalCode":"35745","locality":"Herborn","municipality":{"key":"06532012","name":"Herborn, Stadt","type":"Stadt"},"district":{"key":"06532","name":"Lahn-Dill-Kreis","type":"Landkreis"},"federalState":{"key":"06","name":"Hessen"}},{"name":"Schulberg","postalCode":"35745","locality":"Herborn","municipality":{"key":"06532012","name":"Herborn, Stadt","type":"Stadt"},"district":{"key":"06532","name":"Lahn-Dill-Kreis","type":"Landkreis"},"federalState":{"key":"06","name":"Hessen"}},{"name":"Schulhofstr.","postalCode":"35745","locality":"Herborn","municipality":{"key":"06532012","name":"Herborn, Stadt","type":"Stadt"},"district":{"key":"06532","name":"Lahn-Dill-Kreis","type":"Landkreis"},"federalState":{"key":"06","name":"Hessen"}},{"name":"Schulstr.","postalCode":"35745","locality":"Herborn","municipality":{"key":"06532012","name":"Herborn, Stadt","type":"Stadt"},"district":{"key":"06532","name":"Lahn-Dill-Kreis","type":"Landkreis"},"federalState":{"key":"06","name":"Hessen"}},{"name":"Schumannstr.","postalCode":"35745","locality":"Herborn","municipality":{"key":"06532012","name":"Herborn, Stadt","type":"Stadt"},"district":{"key":"06532","name":"Lahn-Dill-Kreis","type":"Landkreis"},"federalState":{"key":"06","name":"Hessen"}},{"name":"Schützenpfad","postalCode":"35745","locality":"Herborn","municipality":{"key":"06532012","name":"Herborn, Stadt","type":"Stadt"},"district":{"key":"06532","name":"Lahn-Dill-Kreis","type":"Landkreis"},"federalState":{"key":"06","name":"Hessen"}},{"name":"Schwalbenweg","postalCode":"35745","locality":"Herborn","municipality":{"key":"06532012","name":"Herborn, Stadt","type":"Stadt"},"district":{"key":"06532","name":"Lahn-Dill-Kreis","type":"Landkreis"},"federalState":{"key":"06","name":"Hessen"}},{"name":"Schwerstr.","postalCode":"35745","locality":"Herborn","municipality":{"key":"06532012","name":"Herborn, Stadt","type":"Stadt"},"district":{"key":"06532","name":"Lahn-Dill-Kreis","type":"Landkreis"},"federalState":{"key":"06","name":"Hessen"}},{"name":"Sedanstr.","postalCode":"35745","locality":"Herborn","municipality":{"key":"06532012","name":"Herborn, Stadt","type":"Stadt"},"district":{"key":"06532","name":"Lahn-Dill-Kreis","type":"Landkreis"},"federalState":{"key":"06","name":"Hessen"}},{"name":"Seelbachstr.","postalCode":"35745","locality":"Herborn","municipality":{"key":"06532012","name":"Herborn, Stadt","type":"Stadt"},"district":{"key":"06532","name":"Lahn-Dill-Kreis","type":"Landkreis"},"federalState":{"key":"06","name":"Hessen"}},{"name":"Seydlitzstr.","postalCode":"35745","locality":"Herborn","municipality":{"key":"06532012","name":"Herborn, Stadt","type":"Stadt"},"district":{"key":"06532","name":"Lahn-Dill-Kreis","type":"Landkreis"},"federalState":{"key":"06","name":"Hessen"}},{"name":"Sinner Landstr.","postalCode":"35745","locality":"Herborn","municipality":{"key":"06532012","name":"Herborn, Stadt","type":"Stadt"},"district":{"key":"06532","name":"Lahn-Dill-Kreis","type":"Landkreis"},"federalState":{"key":"06","name":"Hessen"}},{"name":"Sinner Str.","postalCode":"35745","locality":"Herborn","municipality":{"key":"06532012","name":"Herborn, Stadt","type":"Stadt"},"district":{"key":"06532","name":"Lahn-Dill-Kreis","type":"Landkreis"},"federalState":{"key":"06","name":"Hessen"}},{"name":"Sonnenweg","postalCode":"35745","locality":"Herborn","municipality":{"key":"06532012","name":"Herborn, Stadt","type":"Stadt"},"district":{"key":"06532","name":"Lahn-Dill-Kreis","type":"Landkreis"},"federalState":{"key":"06","name":"Hessen"}},{"name":"Sperberweg","postalCode":"35745","locality":"Herborn","municipality":{"key":"06532012","name":"Herborn, Stadt","type":"Stadt"},"district":{"key":"06532","name":"Lahn-Dill-Kreis","type":"Landkreis"},"federalState":{"key":"06","name":"Hessen"}},{"name":"Sperlingsweg","postalCode":"35745","locality":"Herborn","municipality":{"key":"06532012","name":"Herborn, Stadt","type":"Stadt"},"district":{"key":"06532","name":"Lahn-Dill-Kreis","type":"Landkreis"},"federalState":{"key":"06","name":"Hessen"}},{"name":"Stadionstr.","postalCode":"35745","locality":"Herborn","municipality":{"key":"06532012","name":"Herborn, Stadt","type":"Stadt"},"district":{"key":"06532","name":"Lahn-Dill-Kreis","type":"Landkreis"},"federalState":{"key":"06","name":"Hessen"}},{"name":"Stadtpark \"Alter Friedhof\"","postalCode":"35745","locality":"Herborn","municipality":{"key":"06532012","name":"Herborn, Stadt","type":"Stadt"},"district":{"key":"06532","name":"Lahn-Dill-Kreis","type":"Landkreis"},"federalState":{"key":"06","name":"Hessen"}},{"name":"Steinbergstr.","postalCode":"35745","locality":"Herborn","municipality":{"key":"06532012","name":"Herborn, Stadt","type":"Stadt"},"district":{"key":"06532","name":"Lahn-Dill-Kreis","type":"Landkreis"},"federalState":{"key":"06","name":"Hessen"}},{"name":"Steinheckstr.","postalCode":"35745","locality":"Herborn","municipality":{"key":"06532012","name":"Herborn, Stadt","type":"Stadt"},"district":{"key":"06532","name":"Lahn-Dill-Kreis","type":"Landkreis"},"federalState":{"key":"06","name":"Hessen"}},{"name":"Steinseite","postalCode":"35745","locality":"Herborn","municipality":{"key":"06532012","name":"Herborn, Stadt","type":"Stadt"},"district":{"key":"06532","name":"Lahn-Dill-Kreis","type":"Landkreis"},"federalState":{"key":"06","name":"Hessen"}},{"name":"Steinseiter Weg","postalCode":"35745","locality":"Herborn","municipality":{"key":"06532012","name":"Herborn, Stadt","type":"Stadt"},"district":{"key":"06532","name":"Lahn-Dill-Kreis","type":"Landkreis"},"federalState":{"key":"06","name":"Hessen"}},{"name":"Steintalstr.","postalCode":"35745","locality":"Herborn","municipality":{"key":"06532012","name":"Herborn, Stadt","type":"Stadt"},"district":{"key":"06532","name":"Lahn-Dill-Kreis","type":"Landkreis"},"federalState":{"key":"06","name":"Hessen"}},{"name":"Steioffs Winkel","postalCode":"35745","locality":"Herborn","municipality":{"key":"06532012","name":"Herborn, Stadt","type":"Stadt"},"district":{"key":"06532","name":"Lahn-Dill-Kreis","type":"Landkreis"},"federalState":{"key":"06","name":"Hessen"}},{"name":"Stettiner Str.","postalCode":"35745","locality":"Herborn","municipality":{"key":"06532012","name":"Herborn, Stadt","type":"Stadt"},"district":{"key":"06532","name":"Lahn-Dill-Kreis","type":"Landkreis"},"federalState":{"key":"06","name":"Hessen"}},{"name":"Stockweg","postalCode":"35745","locality":"Herborn","municipality":{"key":"06532012","name":"Herborn, Stadt","type":"Stadt"},"district":{"key":"06532","name":"Lahn-Dill-Kreis","type":"Landkreis"},"federalState":{"key":"06","name":"Hessen"}},{"name":"Sudetenstr.","postalCode":"35745","locality":"Herborn","municipality":{"key":"06532012","name":"Herborn, Stadt","type":"Stadt"},"district":{"key":"06532","name":"Lahn-Dill-Kreis","type":"Landkreis"},"federalState":{"key":"06","name":"Hessen"}},{"name":"Südhangstr.","postalCode":"35745","locality":"Herborn","municipality":{"key":"06532012","name":"Herborn, Stadt","type":"Stadt"},"district":{"key":"06532","name":"Lahn-Dill-Kreis","type":"Landkreis"},"federalState":{"key":"06","name":"Hessen"}},{"name":"Talblick","postalCode":"35745","locality":"Herborn","municipality":{"key":"06532012","name":"Herborn, Stadt","type":"Stadt"},"district":{"key":"06532","name":"Lahn-Dill-Kreis","type":"Landkreis"},"federalState":{"key":"06","name":"Hessen"}},{"name":"Talblick / An der Seite","postalCode":"35745","locality":"Herborn","municipality":{"key":"06532012","name":"Herborn, Stadt","type":"Stadt"},"district":{"key":"06532","name":"Lahn-Dill-Kreis","type":"Landkreis"},"federalState":{"key":"06","name":"Hessen"}},{"name":"Talerwinkel","postalCode":"35745","locality":"Herborn","municipality":{"key":"06532012","name":"Herborn, Stadt","type":"Stadt"},"district":{"key":"06532","name":"Lahn-Dill-Kreis","type":"Landkreis"},"federalState":{"key":"06","name":"Hessen"}},{"name":"Talstr.","postalCode":"35745","locality":"Herborn","municipality":{"key":"06532012","name":"Herborn, Stadt","type":"Stadt"},"district":{"key":"06532","name":"Lahn-Dill-Kreis","type":"Landkreis"},"federalState":{"key":"06","name":"Hessen"}},{"name":"Tannenstr.","postalCode":"35745","locality":"Herborn","municipality":{"key":"06532012","name":"Herborn, Stadt","type":"Stadt"},"district":{"key":"06532","name":"Lahn-Dill-Kreis","type":"Landkreis"},"federalState":{"key":"06","name":"Hessen"}},{"name":"Tannenweg","postalCode":"35745","locality":"Herborn","municipality":{"key":"06532012","name":"Herborn, Stadt","type":"Stadt"},"district":{"key":"06532","name":"Lahn-Dill-Kreis","type":"Landkreis"},"federalState":{"key":"06","name":"Hessen"}},{"name":"Theresienstr.","postalCode":"35745","locality":"Herborn","municipality":{"key":"06532012","name":"Herborn, Stadt","type":"Stadt"},"district":{"key":"06532","name":"Lahn-Dill-Kreis","type":"Landkreis"},"federalState":{"key":"06","name":"Hessen"}},{"name":"Tilsiter Str.","postalCode":"35745","locality":"Herborn","municipality":{"key":"06532012","name":"Herborn, Stadt","type":"Stadt"},"district":{"key":"06532","name":"Lahn-Dill-Kreis","type":"Landkreis"},"federalState":{"key":"06","name":"Hessen"}},{"name":"Treib","postalCode":"55758","locality":"Herborn","municipality":{"key":"07134038","name":"Herborn","type":"Kreisangehörige_Gemeinde"},"district":{"key":"07134","name":"Birkenfeld","type":"Landkreis"},"federalState":{"key":"07","name":"Rheinland-Pfalz"}},{"name":"Tropps Winkel","postalCode":"35745","locality":"Herborn","municipality":{"key":"06532012","name":"Herborn, Stadt","type":"Stadt"},"district":{"key":"06532","name":"Lahn-Dill-Kreis","type":"Landkreis"},"federalState":{"key":"06","name":"Hessen"}},{"name":"Turmstr.","postalCode":"35745","locality":"Herborn","municipality":{"key":"06532012","name":"Herborn, Stadt","type":"Stadt"},"district":{"key":"06532","name":"Lahn-Dill-Kreis","type":"Landkreis"},"federalState":{"key":"06","name":"Hessen"}},{"name":"Uckersdorfer Hauptstr.","postalCode":"35745","locality":"Herborn","municipality":{"key":"06532012","name":"Herborn, Stadt","type":"Stadt"},"district":{"key":"06532","name":"Lahn-Dill-Kreis","type":"Landkreis"},"federalState":{"key":"06","name":"Hessen"}},{"name":"Uckersdorfer Str.","postalCode":"35745","locality":"Herborn","municipality":{"key":"06532012","name":"Herborn, Stadt","type":"Stadt"},"district":{"key":"06532","name":"Lahn-Dill-Kreis","type":"Landkreis"},"federalState":{"key":"06","name":"Hessen"}},{"name":"Uckersdorfer Weg","postalCode":"35745","locality":"Herborn","municipality":{"key":"06532012","name":"Herborn, Stadt","type":"Stadt"},"district":{"key":"06532","name":"Lahn-Dill-Kreis","type":"Landkreis"},"federalState":{"key":"06","name":"Hessen"}},{"name":"Unter der Turnhalle","postalCode":"35745","locality":"Herborn","municipality":{"key":"06532012","name":"Herborn, Stadt","type":"Stadt"},"district":{"key":"06532","name":"Lahn-Dill-Kreis","type":"Landkreis"},"federalState":{"key":"06","name":"Hessen"}},{"name":"Unterdorfstr.","postalCode":"35745","locality":"Herborn","municipality":{"key":"06532012","name":"Herborn, Stadt","type":"Stadt"},"district":{"key":"06532","name":"Lahn-Dill-Kreis","type":"Landkreis"},"federalState":{"key":"06","name":"Hessen"}},{"name":"Untere Grundseite","postalCode":"35745","locality":"Herborn","municipality":{"key":"06532012","name":"Herborn, Stadt","type":"Stadt"},"district":{"key":"06532","name":"Lahn-Dill-Kreis","type":"Landkreis"},"federalState":{"key":"06","name":"Hessen"}},{"name":"Untere Johannisbergstr.","postalCode":"35745","locality":"Herborn","municipality":{"key":"06532012","name":"Herborn, Stadt","type":"Stadt"},"district":{"key":"06532","name":"Lahn-Dill-Kreis","type":"Landkreis"},"federalState":{"key":"06","name":"Hessen"}},{"name":"Untere Weitzbergstr.","postalCode":"35745","locality":"Herborn","municipality":{"key":"06532012","name":"Herborn, Stadt","type":"Stadt"},"district":{"key":"06532","name":"Lahn-Dill-Kreis","type":"Landkreis"},"federalState":{"key":"06","name":"Hessen"}},{"name":"Unterm Damel","postalCode":"35745","locality":"Herborn","municipality":{"key":"06532012","name":"Herborn, Stadt","type":"Stadt"},"district":{"key":"06532","name":"Lahn-Dill-Kreis","type":"Landkreis"},"federalState":{"key":"06","name":"Hessen"}},{"name":"Unterm Grabersberg","postalCode":"35745","locality":"Herborn","municipality":{"key":"06532012","name":"Herborn, Stadt","type":"Stadt"},"district":{"key":"06532","name":"Lahn-Dill-Kreis","type":"Landkreis"},"federalState":{"key":"06","name":"Hessen"}},{"name":"Vitos-Gelände","postalCode":"35745","locality":"Herborn","municipality":{"key":"06532012","name":"Herborn, Stadt","type":"Stadt"},"district":{"key":"06532","name":"Lahn-Dill-Kreis","type":"Landkreis"},"federalState":{"key":"06","name":"Hessen"}},{"name":"Vogelsang","postalCode":"35745","locality":"Herborn","municipality":{"key":"06532012","name":"Herborn, Stadt","type":"Stadt"},"district":{"key":"06532","name":"Lahn-Dill-Kreis","type":"Landkreis"},"federalState":{"key":"06","name":"Hessen"}},{"name":"Vor der Dahl","postalCode":"35745","locality":"Herborn","municipality":{"key":"06532012","name":"Herborn, Stadt","type":"Stadt"},"district":{"key":"06532","name":"Lahn-Dill-Kreis","type":"Landkreis"},"federalState":{"key":"06","name":"Hessen"}},{"name":"Vor der Grube","postalCode":"35745","locality":"Herborn","municipality":{"key":"06532012","name":"Herborn, Stadt","type":"Stadt"},"district":{"key":"06532","name":"Lahn-Dill-Kreis","type":"Landkreis"},"federalState":{"key":"06","name":"Hessen"}},{"name":"Vor der Hardt","postalCode":"35745","locality":"Herborn","municipality":{"key":"06532012","name":"Herborn, Stadt","type":"Stadt"},"district":{"key":"06532","name":"Lahn-Dill-Kreis","type":"Landkreis"},"federalState":{"key":"06","name":"Hessen"}},{"name":"Vor der Kirche","postalCode":"35745","locality":"Herborn","municipality":{"key":"06532012","name":"Herborn, Stadt","type":"Stadt"},"district":{"key":"06532","name":"Lahn-Dill-Kreis","type":"Landkreis"},"federalState":{"key":"06","name":"Hessen"}},{"name":"Vor der Ley","postalCode":"35745","locality":"Herborn","municipality":{"key":"06532012","name":"Herborn, Stadt","type":"Stadt"},"district":{"key":"06532","name":"Lahn-Dill-Kreis","type":"Landkreis"},"federalState":{"key":"06","name":"Hessen"}},{"name":"Vorm Grabersberg","postalCode":"35745","locality":"Herborn","municipality":{"key":"06532012","name":"Herborn, Stadt","type":"Stadt"},"district":{"key":"06532","name":"Lahn-Dill-Kreis","type":"Landkreis"},"federalState":{"key":"06","name":"Hessen"}},{"name":"Vorm Homberg","postalCode":"35745","locality":"Herborn","municipality":{"key":"06532012","name":"Herborn, Stadt","type":"Stadt"},"district":{"key":"06532","name":"Lahn-Dill-Kreis","type":"Landkreis"},"federalState":{"key":"06","name":"Hessen"}},{"name":"Wabachsweg","postalCode":"35745","locality":"Herborn","municipality":{"key":"06532012","name":"Herborn, Stadt","type":"Stadt"},"district":{"key":"06532","name":"Lahn-Dill-Kreis","type":"Landkreis"},"federalState":{"key":"06","name":"Hessen"}},{"name":"Wäldchenstr.","postalCode":"35745","locality":"Herborn","municipality":{"key":"06532012","name":"Herborn, Stadt","type":"Stadt"},"district":{"key":"06532","name":"Lahn-Dill-Kreis","type":"Landkreis"},"federalState":{"key":"06","name":"Hessen"}},{"name":"Waldstr.","postalCode":"35745","locality":"Herborn","municipality":{"key":"06532012","name":"Herborn, Stadt","type":"Stadt"},"district":{"key":"06532","name":"Lahn-Dill-Kreis","type":"Landkreis"},"federalState":{"key":"06","name":"Hessen"}},{"name":"Waldweg","postalCode":"55758","locality":"Herborn","municipality":{"key":"07134038","name":"Herborn","type":"Kreisangehörige_Gemeinde"},"district":{"key":"07134","name":"Birkenfeld","type":"Landkreis"},"federalState":{"key":"07","name":"Rheinland-Pfalz"}},{"name":"Walkmühlenweg","postalCode":"35745","locality":"Herborn","municipality":{"key":"06532012","name":"Herborn, Stadt","type":"Stadt"},"district":{"key":"06532","name":"Lahn-Dill-Kreis","type":"Landkreis"},"federalState":{"key":"06","name":"Hessen"}},{"name":"Walter-Schwahn-Str.","postalCode":"35745","locality":"Herborn","municipality":{"key":"06532012","name":"Herborn, Stadt","type":"Stadt"},"district":{"key":"06532","name":"Lahn-Dill-Kreis","type":"Landkreis"},"federalState":{"key":"06","name":"Hessen"}},{"name":"Walther-Rathenau-Str.","postalCode":"35745","locality":"Herborn","municipality":{"key":"06532012","name":"Herborn, Stadt","type":"Stadt"},"district":{"key":"06532","name":"Lahn-Dill-Kreis","type":"Landkreis"},"federalState":{"key":"06","name":"Hessen"}},{"name":"Weidenweg","postalCode":"35745","locality":"Herborn","municipality":{"key":"06532012","name":"Herborn, Stadt","type":"Stadt"},"district":{"key":"06532","name":"Lahn-Dill-Kreis","type":"Landkreis"},"federalState":{"key":"06","name":"Hessen"}},{"name":"Weiherstr.","postalCode":"35745","locality":"Herborn","municipality":{"key":"06532012","name":"Herborn, Stadt","type":"Stadt"},"district":{"key":"06532","name":"Lahn-Dill-Kreis","type":"Landkreis"},"federalState":{"key":"06","name":"Hessen"}},{"name":"Weilburger Str.","postalCode":"35745","locality":"Herborn","municipality":{"key":"06532012","name":"Herborn, Stadt","type":"Stadt"},"district":{"key":"06532","name":"Lahn-Dill-Kreis","type":"Landkreis"},"federalState":{"key":"06","name":"Hessen"}},{"name":"Weinbergstr.","postalCode":"35745","locality":"Herborn","municipality":{"key":"06532012","name":"Herborn, Stadt","type":"Stadt"},"district":{"key":"06532","name":"Lahn-Dill-Kreis","type":"Landkreis"},"federalState":{"key":"06","name":"Hessen"}},{"name":"Weißdornweg","postalCode":"35745","locality":"Herborn","municipality":{"key":"06532012","name":"Herborn, Stadt","type":"Stadt"},"district":{"key":"06532","name":"Lahn-Dill-Kreis","type":"Landkreis"},"federalState":{"key":"06","name":"Hessen"}},{"name":"Westerwaldblick","postalCode":"35745","locality":"Herborn","municipality":{"key":"06532012","name":"Herborn, Stadt","type":"Stadt"},"district":{"key":"06532","name":"Lahn-Dill-Kreis","type":"Landkreis"},"federalState":{"key":"06","name":"Hessen"}},{"name":"Westerwaldquerbahn","postalCode":"35745","locality":"Herborn","municipality":{"key":"06532012","name":"Herborn, Stadt","type":"Stadt"},"district":{"key":"06532","name":"Lahn-Dill-Kreis","type":"Landkreis"},"federalState":{"key":"06","name":"Hessen"}},{"name":"Westerwaldstr.","postalCode":"35745","locality":"Herborn","municipality":{"key":"06532012","name":"Herborn, Stadt","type":"Stadt"},"district":{"key":"06532","name":"Lahn-Dill-Kreis","type":"Landkreis"},"federalState":{"key":"06","name":"Hessen"}},{"name":"Wiesenstr.","postalCode":"35745","locality":"Herborn","municipality":{"key":"06532012","name":"Herborn, Stadt","type":"Stadt"},"district":{"key":"06532","name":"Lahn-Dill-Kreis","type":"Landkreis"},"federalState":{"key":"06","name":"Hessen"}},{"name":"Wiesenweg","postalCode":"35745","locality":"Herborn","municipality":{"key":"06532012","name":"Herborn, Stadt","type":"Stadt"},"district":{"key":"06532","name":"Lahn-Dill-Kreis","type":"Landkreis"},"federalState":{"key":"06","name":"Hessen"}},{"name":"Wiesenweg","postalCode":"55758","locality":"Herborn","municipality":{"key":"07134038","name":"Herborn","type":"Kreisangehörige_Gemeinde"},"district":{"key":"07134","name":"Birkenfeld","type":"Landkreis"},"federalState":{"key":"07","name":"Rheinland-Pfalz"}},{"name":"Wilhelminenstr.","postalCode":"35745","locality":"Herborn","municipality":{"key":"06532012","name":"Herborn, Stadt","type":"Stadt"},"district":{"key":"06532","name":"Lahn-Dill-Kreis","type":"Landkreis"},"federalState":{"key":"06","name":"Hessen"}},{"name":"Wilhelmstr.","postalCode":"35745","locality":"Herborn","municipality":{"key":"06532012","name":"Herborn, Stadt","type":"Stadt"},"district":{"key":"06532","name":"Lahn-Dill-Kreis","type":"Landkreis"},"federalState":{"key":"06","name":"Hessen"}},{"name":"Wilhelm-Thielmann-Weg","postalCode":"35745","locality":"Herborn","municipality":{"key":"06532012","name":"Herborn, Stadt","type":"Stadt"},"district":{"key":"06532","name":"Lahn-Dill-Kreis","type":"Landkreis"},"federalState":{"key":"06","name":"Hessen"}},{"name":"Willy-Brandt-Str.","postalCode":"35745","locality":"Herborn","municipality":{"key":"06532012","name":"Herborn, Stadt","type":"Stadt"},"district":{"key":"06532","name":"Lahn-Dill-Kreis","type":"Landkreis"},"federalState":{"key":"06","name":"Hessen"}},{"name":"Windelbachweg","postalCode":"35745","locality":"Herborn","municipality":{"key":"06532012","name":"Herborn, Stadt","type":"Stadt"},"district":{"key":"06532","name":"Lahn-Dill-Kreis","type":"Landkreis"},"federalState":{"key":"06","name":"Hessen"}},{"name":"Zeisigweg","postalCode":"35745","locality":"Herborn","municipality":{"key":"06532012","name":"Herborn, Stadt","type":"Stadt"},"district":{"key":"06532","name":"Lahn-Dill-Kreis","type":"Landkreis"},"federalState":{"key":"06","name":"Hessen"}},{"name":"Zelterstr.","postalCode":"35745","locality":"Herborn","municipality":{"key":"06532012","name":"Herborn, Stadt","type":"Stadt"},"district":{"key":"06532","name":"Lahn-Dill-Kreis","type":"Landkreis"},"federalState":{"key":"06","name":"Hessen"}},{"name":"Zepperweg","postalCode":"35745","locality":"Herborn","municipality":{"key":"06532012","name":"Herborn, Stadt","type":"Stadt"},"district":{"key":"06532","name":"Lahn-Dill-Kreis","type":"Landkreis"},"federalState":{"key":"06","name":"Hessen"}},{"name":"Zufahrt","postalCode":"35745","locality":"Herborn","municipality":{"key":"06532012","name":"Herborn, Stadt","type":"Stadt"},"district":{"key":"06532","name":"Lahn-Dill-Kreis","type":"Landkreis"},"federalState":{"key":"06","name":"Hessen"}},{"name":"Zum Flugplatz","postalCode":"35745","locality":"Herborn","municipality":{"key":"06532012","name":"Herborn, Stadt","type":"Stadt"},"district":{"key":"06532","name":"Lahn-Dill-Kreis","type":"Landkreis"},"federalState":{"key":"06","name":"Hessen"}},{"name":"Zum Gutshof","postalCode":"35745","locality":"Herborn","municipality":{"key":"06532012","name":"Herborn, Stadt","type":"Stadt"},"district":{"key":"06532","name":"Lahn-Dill-Kreis","type":"Landkreis"},"federalState":{"key":"06","name":"Hessen"}},{"name":"Zum Hirtenborn","postalCode":"35745","locality":"Herborn","municipality":{"key":"06532012","name":"Herborn, Stadt","type":"Stadt"},"district":{"key":"06532","name":"Lahn-Dill-Kreis","type":"Landkreis"},"federalState":{"key":"06","name":"Hessen"}},{"name":"Zum Rehberg","postalCode":"35745","locality":"Herborn","municipality":{"key":"06532012","name":"Herborn, Stadt","type":"Stadt"},"district":{"key":"06532","name":"Lahn-Dill-Kreis","type":"Landkreis"},"federalState":{"key":"06","name":"Hessen"}},{"name":"Zum Roten Stein","postalCode":"35745","locality":"Herborn","municipality":{"key":"06532012","name":"Herborn, Stadt","type":"Stadt"},"district":{"key":"06532","name":"Lahn-Dill-Kreis","type":"Landkreis"},"federalState":{"key":"06","name":"Hessen"}},{"name":"Zum Schützenhaus","postalCode":"35745","locality":"Herborn","municipality":{"key":"06532012","name":"Herborn, Stadt","type":"Stadt"},"district":{"key":"06532","name":"Lahn-Dill-Kreis","type":"Landkreis"},"federalState":{"key":"06","name":"Hessen"}},{"name":"Zum Wachtgipfel","postalCode":"35745","locality":"Herborn","municipality":{"key":"06532012","name":"Herborn, Stadt","type":"Stadt"},"district":{"key":"06532","name":"Lahn-Dill-Kreis","type":"Landkreis"},"federalState":{"key":"06","name":"Hessen"}},{"name":"Zur Dorfmitte","postalCode":"35745","locality":"Herborn","municipality":{"key":"06532012","name":"Herborn, Stadt","type":"Stadt"},"district":{"key":"06532","name":"Lahn-Dill-Kreis","type":"Landkreis"},"federalState":{"key":"06","name":"Hessen"}},{"name":"Zur Grünen Flur","postalCode":"35745","locality":"Herborn","municipality":{"key":"06532012","name":"Herborn, Stadt","type":"Stadt"},"district":{"key":"06532","name":"Lahn-Dill-Kreis","type":"Landkreis"},"federalState":{"key":"06","name":"Hessen"}},{"name":"Zur Hohe Hell","postalCode":"35745","locality":"Herborn","municipality":{"key":"06532012","name":"Herborn, Stadt","type":"Stadt"},"district":{"key":"06532","name":"Lahn-Dill-Kreis","type":"Landkreis"},"federalState":{"key":"06","name":"Hessen"}},{"name":"Zur Sandgrub","postalCode":"35745","locality":"Herborn","municipality":{"key":"06532012","name":"Herborn, Stadt","type":"Stadt"},"district":{"key":"06532","name":"Lahn-Dill-Kreis","type":"Landkreis"},"federalState":{"key":"06","name":"Hessen"}},{"name":"Zur Steinkaut","postalCode":"35745","locality":"Herborn","municipality":{"key":"06532012","name":"Herborn, Stadt","type":"Stadt"},"district":{"key":"06532","name":"Lahn-Dill-Kreis","type":"Landkreis"},"federalState":{"key":"06","name":"Hessen"}},{"name":"Zur Turnhalle","postalCode":"35745","locality":"Herborn","municipality":{"key":"06532012","name":"Herborn, Stadt","type":"Stadt"},"district":{"key":"06532","name":"Lahn-Dill-Kreis","type":"Landkreis"},"federalState":{"key":"06","name":"Hessen"}},]