[{"name":"Alte Dorfstr.","postalCode":"23936","locality":"Testorf-Steinfort","municipality":{"key":"13074077","name":"Testorf-Steinfort","type":"Kreisangehörige_Gemeinde"},"district":{"key":"13074","name":"Nordwestmecklenburg","type":"Landkreis"},"federalState":{"key":"13","name":"Mecklenburg-Vorpommern"}},{"name":"Am Dorfteich","postalCode":"23936","locality":"Testorf-Steinfort","municipality":{"key":"13074077","name":"Testorf-Steinfort","type":"Kreisangehörige_Gemeinde"},"district":{"key":"13074","name":"Nordwestmecklenburg","type":"Landkreis"},"federalState":{"key":"13","name":"Mecklenburg-Vorpommern"}},{"name":"Am Schloßteich","postalCode":"23936","locality":"Testorf-Steinfort","municipality":{"key":"13074077","name":"Testorf-Steinfort","type":"Kreisangehörige_Gemeinde"},"district":{"key":"13074","name":"Nordwestmecklenburg","type":"Landkreis"},"federalState":{"key":"13","name":"Mecklenburg-Vorpommern"}},{"name":"Dorfstr.","postalCode":"23936","locality":"Testorf-Steinfort","municipality":{"key":"13074077","name":"Testorf-Steinfort","type":"Kreisangehörige_Gemeinde"},"district":{"key":"13074","name":"Nordwestmecklenburg","type":"Landkreis"},"federalState":{"key":"13","name":"Mecklenburg-Vorpommern"}},{"name":"Eichenweg","postalCode":"23936","locality":"Testorf-Steinfort","municipality":{"key":"13074077","name":"Testorf-Steinfort","type":"Kreisangehörige_Gemeinde"},"district":{"key":"13074","name":"Nordwestmecklenburg","type":"Landkreis"},"federalState":{"key":"13","name":"Mecklenburg-Vorpommern"}},{"name":"Grevesmühlener Str.","postalCode":"23936","locality":"Testorf-Steinfort","municipality":{"key":"13074077","name":"Testorf-Steinfort","type":"Kreisangehörige_Gemeinde"},"district":{"key":"13074","name":"Nordwestmecklenburg","type":"Landkreis"},"federalState":{"key":"13","name":"Mecklenburg-Vorpommern"}},{"name":"Hauptstr.","postalCode":"23936","locality":"Testorf-Steinfort","municipality":{"key":"13074077","name":"Testorf-Steinfort","type":"Kreisangehörige_Gemeinde"},"district":{"key":"13074","name":"Nordwestmecklenburg","type":"Landkreis"},"federalState":{"key":"13","name":"Mecklenburg-Vorpommern"}},{"name":"Kastanienallee","postalCode":"23936","locality":"Testorf-Steinfort","municipality":{"key":"13074077","name":"Testorf-Steinfort","type":"Kreisangehörige_Gemeinde"},"district":{"key":"13074","name":"Nordwestmecklenburg","type":"Landkreis"},"federalState":{"key":"13","name":"Mecklenburg-Vorpommern"}},{"name":"Kirchsteig","postalCode":"23936","locality":"Testorf-Steinfort","municipality":{"key":"13074077","name":"Testorf-Steinfort","type":"Kreisangehörige_Gemeinde"},"district":{"key":"13074","name":"Nordwestmecklenburg","type":"Landkreis"},"federalState":{"key":"13","name":"Mecklenburg-Vorpommern"}},{"name":"Landstr.","postalCode":"23936","locality":"Testorf-Steinfort","municipality":{"key":"13074077","name":"Testorf-Steinfort","type":"Kreisangehörige_Gemeinde"},"district":{"key":"13074","name":"Nordwestmecklenburg","type":"Landkreis"},"federalState":{"key":"13","name":"Mecklenburg-Vorpommern"}},{"name":"Lindenallee","postalCode":"23936","locality":"Testorf-Steinfort","municipality":{"key":"13074077","name":"Testorf-Steinfort","type":"Kreisangehörige_Gemeinde"},"district":{"key":"13074","name":"Nordwestmecklenburg","type":"Landkreis"},"federalState":{"key":"13","name":"Mecklenburg-Vorpommern"}},{"name":"Mecklenburger Str.","postalCode":"23936","locality":"Testorf-Steinfort","municipality":{"key":"13074077","name":"Testorf-Steinfort","type":"Kreisangehörige_Gemeinde"},"district":{"key":"13074","name":"Nordwestmecklenburg","type":"Landkreis"},"federalState":{"key":"13","name":"Mecklenburg-Vorpommern"}},{"name":"Parkweg","postalCode":"23936","locality":"Testorf-Steinfort","municipality":{"key":"13074077","name":"Testorf-Steinfort","type":"Kreisangehörige_Gemeinde"},"district":{"key":"13074","name":"Nordwestmecklenburg","type":"Landkreis"},"federalState":{"key":"13","name":"Mecklenburg-Vorpommern"}},{"name":"Schloßstr.","postalCode":"23936","locality":"Testorf-Steinfort","municipality":{"key":"13074077","name":"Testorf-Steinfort","type":"Kreisangehörige_Gemeinde"},"district":{"key":"13074","name":"Nordwestmecklenburg","type":"Landkreis"},"federalState":{"key":"13","name":"Mecklenburg-Vorpommern"}},{"name":"Sperlingslust","postalCode":"23936","locality":"Testorf-Steinfort","municipality":{"key":"13074077","name":"Testorf-Steinfort","type":"Kreisangehörige_Gemeinde"},"district":{"key":"13074","name":"Nordwestmecklenburg","type":"Landkreis"},"federalState":{"key":"13","name":"Mecklenburg-Vorpommern"}},{"name":"Steinforter Str.","postalCode":"23936","locality":"Testorf-Steinfort","municipality":{"key":"13074077","name":"Testorf-Steinfort","type":"Kreisangehörige_Gemeinde"},"district":{"key":"13074","name":"Nordwestmecklenburg","type":"Landkreis"},"federalState":{"key":"13","name":"Mecklenburg-Vorpommern"}},{"name":"Waldweg","postalCode":"23936","locality":"Testorf-Steinfort","municipality":{"key":"13074077","name":"Testorf-Steinfort","type":"Kreisangehörige_Gemeinde"},"district":{"key":"13074","name":"Nordwestmecklenburg","type":"Landkreis"},"federalState":{"key":"13","name":"Mecklenburg-Vorpommern"}},{"name":"Weidenweg","postalCode":"23936","locality":"Testorf-Steinfort","municipality":{"key":"13074077","name":"Testorf-Steinfort","type":"Kreisangehörige_Gemeinde"},"district":{"key":"13074","name":"Nordwestmecklenburg","type":"Landkreis"},"federalState":{"key":"13","name":"Mecklenburg-Vorpommern"}},{"name":"Wismarsche Str.","postalCode":"23936","locality":"Testorf-Steinfort","municipality":{"key":"13074077","name":"Testorf-Steinfort","type":"Kreisangehörige_Gemeinde"},"district":{"key":"13074","name":"Nordwestmecklenburg","type":"Landkreis"},"federalState":{"key":"13","name":"Mecklenburg-Vorpommern"}},]