[{"name":"1. Gersthof","postalCode":"99718","locality":"Greußen","municipality":{"key":"16065089","name":"Greußen, Stadt","type":"Stadt"},"district":{"key":"16065","name":"Kyffhäuserkreis","type":"Landkreis"},"federalState":{"key":"16","name":"Thüringen"}},{"name":"2. Gersthof","postalCode":"99718","locality":"Greußen","municipality":{"key":"16065089","name":"Greußen, Stadt","type":"Stadt"},"district":{"key":"16065","name":"Kyffhäuserkreis","type":"Landkreis"},"federalState":{"key":"16","name":"Thüringen"}},{"name":"Adam-Stegerwald-Str.","postalCode":"97259","locality":"Greußenheim","municipality":{"key":"09679141","name":"Greußenheim","type":"Kreisangehörige_Gemeinde"},"district":{"key":"09679","name":"Würzburg","type":"Landkreis"},"federalState":{"key":"09","name":"Bayern"}},{"name":"Ahornweg","postalCode":"99718","locality":"Greußen","municipality":{"key":"16065089","name":"Greußen, Stadt","type":"Stadt"},"district":{"key":"16065","name":"Kyffhäuserkreis","type":"Landkreis"},"federalState":{"key":"16","name":"Thüringen"}},{"name":"Alte Hauptstr.","postalCode":"99718","locality":"Greußen","municipality":{"key":"16065089","name":"Greußen, Stadt","type":"Stadt"},"district":{"key":"16065","name":"Kyffhäuserkreis","type":"Landkreis"},"federalState":{"key":"16","name":"Thüringen"}},{"name":"Alte Müntzer-Siedlung","postalCode":"99718","locality":"Greußen","municipality":{"key":"16065089","name":"Greußen, Stadt","type":"Stadt"},"district":{"key":"16065","name":"Kyffhäuserkreis","type":"Landkreis"},"federalState":{"key":"16","name":"Thüringen"}},{"name":"Alter Wasserlauf","postalCode":"99718","locality":"Greußen","municipality":{"key":"16065089","name":"Greußen, Stadt","type":"Stadt"},"district":{"key":"16065","name":"Kyffhäuserkreis","type":"Landkreis"},"federalState":{"key":"16","name":"Thüringen"}},{"name":"Am Angerteich","postalCode":"99718","locality":"Greußen","municipality":{"key":"16065089","name":"Greußen, Stadt","type":"Stadt"},"district":{"key":"16065","name":"Kyffhäuserkreis","type":"Landkreis"},"federalState":{"key":"16","name":"Thüringen"}},{"name":"Am Bach","postalCode":"99718","locality":"Greußen","municipality":{"key":"16065089","name":"Greußen, Stadt","type":"Stadt"},"district":{"key":"16065","name":"Kyffhäuserkreis","type":"Landkreis"},"federalState":{"key":"16","name":"Thüringen"}},{"name":"Am Bad","postalCode":"99718","locality":"Greußen","municipality":{"key":"16065089","name":"Greußen, Stadt","type":"Stadt"},"district":{"key":"16065","name":"Kyffhäuserkreis","type":"Landkreis"},"federalState":{"key":"16","name":"Thüringen"}},{"name":"Am Borngelände","postalCode":"99718","locality":"Greußen","municipality":{"key":"16065089","name":"Greußen, Stadt","type":"Stadt"},"district":{"key":"16065","name":"Kyffhäuserkreis","type":"Landkreis"},"federalState":{"key":"16","name":"Thüringen"}},{"name":"Am Dorfanger","postalCode":"99713","locality":"Greußen","municipality":{"key":"16065089","name":"Greußen, Stadt","type":"Stadt"},"district":{"key":"16065","name":"Kyffhäuserkreis","type":"Landkreis"},"federalState":{"key":"16","name":"Thüringen"}},{"name":"Am Eselsweg","postalCode":"97259","locality":"Greußenheim","municipality":{"key":"09679141","name":"Greußenheim","type":"Kreisangehörige_Gemeinde"},"district":{"key":"09679","name":"Würzburg","type":"Landkreis"},"federalState":{"key":"09","name":"Bayern"}},{"name":"Am Grollbach","postalCode":"99718","locality":"Greußen","municipality":{"key":"16065089","name":"Greußen, Stadt","type":"Stadt"},"district":{"key":"16065","name":"Kyffhäuserkreis","type":"Landkreis"},"federalState":{"key":"16","name":"Thüringen"}},{"name":"Am Hofegarten","postalCode":"99718","locality":"Greußen","municipality":{"key":"16065089","name":"Greußen, Stadt","type":"Stadt"},"district":{"key":"16065","name":"Kyffhäuserkreis","type":"Landkreis"},"federalState":{"key":"16","name":"Thüringen"}},{"name":"Am Karlsplatz","postalCode":"99718","locality":"Greußen","municipality":{"key":"16065089","name":"Greußen, Stadt","type":"Stadt"},"district":{"key":"16065","name":"Kyffhäuserkreis","type":"Landkreis"},"federalState":{"key":"16","name":"Thüringen"}},{"name":"Am Kirchberg","postalCode":"99718","locality":"Greußen","municipality":{"key":"16065089","name":"Greußen, Stadt","type":"Stadt"},"district":{"key":"16065","name":"Kyffhäuserkreis","type":"Landkreis"},"federalState":{"key":"16","name":"Thüringen"}},{"name":"Am Kirchbogen","postalCode":"99718","locality":"Greußen","municipality":{"key":"16065089","name":"Greußen, Stadt","type":"Stadt"},"district":{"key":"16065","name":"Kyffhäuserkreis","type":"Landkreis"},"federalState":{"key":"16","name":"Thüringen"}},{"name":"Am Markt","postalCode":"99718","locality":"Greußen","municipality":{"key":"16065089","name":"Greußen, Stadt","type":"Stadt"},"district":{"key":"16065","name":"Kyffhäuserkreis","type":"Landkreis"},"federalState":{"key":"16","name":"Thüringen"}},{"name":"Am Plan","postalCode":"99718","locality":"Greußen","municipality":{"key":"16065089","name":"Greußen, Stadt","type":"Stadt"},"district":{"key":"16065","name":"Kyffhäuserkreis","type":"Landkreis"},"federalState":{"key":"16","name":"Thüringen"}},{"name":"Am Sportplatz","postalCode":"99718","locality":"Greußen","municipality":{"key":"16065089","name":"Greußen, Stadt","type":"Stadt"},"district":{"key":"16065","name":"Kyffhäuserkreis","type":"Landkreis"},"federalState":{"key":"16","name":"Thüringen"}},{"name":"Am Sumpfbach","postalCode":"99718","locality":"Greußen","municipality":{"key":"16065089","name":"Greußen, Stadt","type":"Stadt"},"district":{"key":"16065","name":"Kyffhäuserkreis","type":"Landkreis"},"federalState":{"key":"16","name":"Thüringen"}},{"name":"Am Waidhof","postalCode":"99718","locality":"Greußen","municipality":{"key":"16065089","name":"Greußen, Stadt","type":"Stadt"},"district":{"key":"16065","name":"Kyffhäuserkreis","type":"Landkreis"},"federalState":{"key":"16","name":"Thüringen"}},{"name":"Am Weinberg","postalCode":"99718","locality":"Greußen","municipality":{"key":"16065089","name":"Greußen, Stadt","type":"Stadt"},"district":{"key":"16065","name":"Kyffhäuserkreis","type":"Landkreis"},"federalState":{"key":"16","name":"Thüringen"}},{"name":"Am Wirbelbach","postalCode":"99718","locality":"Greußen","municipality":{"key":"16065089","name":"Greußen, Stadt","type":"Stadt"},"district":{"key":"16065","name":"Kyffhäuserkreis","type":"Landkreis"},"federalState":{"key":"16","name":"Thüringen"}},{"name":"Am Zwinger","postalCode":"99718","locality":"Greußen","municipality":{"key":"16065089","name":"Greußen, Stadt","type":"Stadt"},"district":{"key":"16065","name":"Kyffhäuserkreis","type":"Landkreis"},"federalState":{"key":"16","name":"Thüringen"}},{"name":"An der Point","postalCode":"97259","locality":"Greußenheim","municipality":{"key":"09679141","name":"Greußenheim","type":"Kreisangehörige_Gemeinde"},"district":{"key":"09679","name":"Würzburg","type":"Landkreis"},"federalState":{"key":"09","name":"Bayern"}},{"name":"An der Trift","postalCode":"99718","locality":"Greußen","municipality":{"key":"16065089","name":"Greußen, Stadt","type":"Stadt"},"district":{"key":"16065","name":"Kyffhäuserkreis","type":"Landkreis"},"federalState":{"key":"16","name":"Thüringen"}},{"name":"Anlagen","postalCode":"99718","locality":"Greußen","municipality":{"key":"16065089","name":"Greußen, Stadt","type":"Stadt"},"district":{"key":"16065","name":"Kyffhäuserkreis","type":"Landkreis"},"federalState":{"key":"16","name":"Thüringen"}},{"name":"August-Klemm-Str.","postalCode":"99718","locality":"Greußen","municipality":{"key":"16065089","name":"Greußen, Stadt","type":"Stadt"},"district":{"key":"16065","name":"Kyffhäuserkreis","type":"Landkreis"},"federalState":{"key":"16","name":"Thüringen"}},{"name":"Bachgasse","postalCode":"97259","locality":"Greußenheim","municipality":{"key":"09679141","name":"Greußenheim","type":"Kreisangehörige_Gemeinde"},"district":{"key":"09679","name":"Würzburg","type":"Landkreis"},"federalState":{"key":"09","name":"Bayern"}},{"name":"Bachmühle","postalCode":"99718","locality":"Greußen","municipality":{"key":"16065089","name":"Greußen, Stadt","type":"Stadt"},"district":{"key":"16065","name":"Kyffhäuserkreis","type":"Landkreis"},"federalState":{"key":"16","name":"Thüringen"}},{"name":"Bäckerstr.","postalCode":"97259","locality":"Greußenheim","municipality":{"key":"09679141","name":"Greußenheim","type":"Kreisangehörige_Gemeinde"},"district":{"key":"09679","name":"Würzburg","type":"Landkreis"},"federalState":{"key":"09","name":"Bayern"}},{"name":"Bahnhofstr.","postalCode":"99718","locality":"Greußen","municipality":{"key":"16065089","name":"Greußen, Stadt","type":"Stadt"},"district":{"key":"16065","name":"Kyffhäuserkreis","type":"Landkreis"},"federalState":{"key":"16","name":"Thüringen"}},{"name":"Bahnhofstr.","postalCode":"99718","locality":"Westgreußen","municipality":{"key":"16065079","name":"Westgreußen","type":"Kreisangehörige_Gemeinde"},"district":{"key":"16065","name":"Kyffhäuserkreis","type":"Landkreis"},"federalState":{"key":"16","name":"Thüringen"}},{"name":"Bayernstr.","postalCode":"97259","locality":"Greußenheim","municipality":{"key":"09679141","name":"Greußenheim","type":"Kreisangehörige_Gemeinde"},"district":{"key":"09679","name":"Würzburg","type":"Landkreis"},"federalState":{"key":"09","name":"Bayern"}},{"name":"Bergstr.","postalCode":"97259","locality":"Greußenheim","municipality":{"key":"09679141","name":"Greußenheim","type":"Kreisangehörige_Gemeinde"},"district":{"key":"09679","name":"Würzburg","type":"Landkreis"},"federalState":{"key":"09","name":"Bayern"}},{"name":"Bergstr.","postalCode":"99718","locality":"Greußen","municipality":{"key":"16065089","name":"Greußen, Stadt","type":"Stadt"},"district":{"key":"16065","name":"Kyffhäuserkreis","type":"Landkreis"},"federalState":{"key":"16","name":"Thüringen"}},{"name":"Berliner Gasse","postalCode":"99718","locality":"Greußen","municipality":{"key":"16065089","name":"Greußen, Stadt","type":"Stadt"},"district":{"key":"16065","name":"Kyffhäuserkreis","type":"Landkreis"},"federalState":{"key":"16","name":"Thüringen"}},{"name":"Birkenfelder Str.","postalCode":"97259","locality":"Greußenheim","municipality":{"key":"09679141","name":"Greußenheim","type":"Kreisangehörige_Gemeinde"},"district":{"key":"09679","name":"Würzburg","type":"Landkreis"},"federalState":{"key":"09","name":"Bayern"}},{"name":"Blumenstr.","postalCode":"97259","locality":"Greußenheim","municipality":{"key":"09679141","name":"Greußenheim","type":"Kreisangehörige_Gemeinde"},"district":{"key":"09679","name":"Würzburg","type":"Landkreis"},"federalState":{"key":"09","name":"Bayern"}},{"name":"Brauhausviertel","postalCode":"99718","locality":"Greußen","municipality":{"key":"16065089","name":"Greußen, Stadt","type":"Stadt"},"district":{"key":"16065","name":"Kyffhäuserkreis","type":"Landkreis"},"federalState":{"key":"16","name":"Thüringen"}},{"name":"Brühl","postalCode":"99718","locality":"Greußen","municipality":{"key":"16065089","name":"Greußen, Stadt","type":"Stadt"},"district":{"key":"16065","name":"Kyffhäuserkreis","type":"Landkreis"},"federalState":{"key":"16","name":"Thüringen"}},{"name":"Brunnengasse","postalCode":"97259","locality":"Greußenheim","municipality":{"key":"09679141","name":"Greußenheim","type":"Kreisangehörige_Gemeinde"},"district":{"key":"09679","name":"Würzburg","type":"Landkreis"},"federalState":{"key":"09","name":"Bayern"}},{"name":"Dorfstr.","postalCode":"99718","locality":"Greußen","municipality":{"key":"16065089","name":"Greußen, Stadt","type":"Stadt"},"district":{"key":"16065","name":"Kyffhäuserkreis","type":"Landkreis"},"federalState":{"key":"16","name":"Thüringen"}},{"name":"Dorfstr.","postalCode":"99718","locality":"Westgreußen","municipality":{"key":"16065079","name":"Westgreußen","type":"Kreisangehörige_Gemeinde"},"district":{"key":"16065","name":"Kyffhäuserkreis","type":"Landkreis"},"federalState":{"key":"16","name":"Thüringen"}},{"name":"Erfurter Str.","postalCode":"99718","locality":"Greußen","municipality":{"key":"16065089","name":"Greußen, Stadt","type":"Stadt"},"district":{"key":"16065","name":"Kyffhäuserkreis","type":"Landkreis"},"federalState":{"key":"16","name":"Thüringen"}},{"name":"Ernst-Thälmann-Str.","postalCode":"99718","locality":"Greußen","municipality":{"key":"16065089","name":"Greußen, Stadt","type":"Stadt"},"district":{"key":"16065","name":"Kyffhäuserkreis","type":"Landkreis"},"federalState":{"key":"16","name":"Thüringen"}},{"name":"Feldgarten","postalCode":"99718","locality":"Greußen","municipality":{"key":"16065089","name":"Greußen, Stadt","type":"Stadt"},"district":{"key":"16065","name":"Kyffhäuserkreis","type":"Landkreis"},"federalState":{"key":"16","name":"Thüringen"}},{"name":"Flattig","postalCode":"99718","locality":"Westgreußen","municipality":{"key":"16065079","name":"Westgreußen","type":"Kreisangehörige_Gemeinde"},"district":{"key":"16065","name":"Kyffhäuserkreis","type":"Landkreis"},"federalState":{"key":"16","name":"Thüringen"}},{"name":"Flattigstr.","postalCode":"99718","locality":"Greußen","municipality":{"key":"16065089","name":"Greußen, Stadt","type":"Stadt"},"district":{"key":"16065","name":"Kyffhäuserkreis","type":"Landkreis"},"federalState":{"key":"16","name":"Thüringen"}},{"name":"Frankenstr.","postalCode":"97259","locality":"Greußenheim","municipality":{"key":"09679141","name":"Greußenheim","type":"Kreisangehörige_Gemeinde"},"district":{"key":"09679","name":"Würzburg","type":"Landkreis"},"federalState":{"key":"09","name":"Bayern"}},{"name":"Franz-Fleischer-Str.","postalCode":"97259","locality":"Greußenheim","municipality":{"key":"09679141","name":"Greußenheim","type":"Kreisangehörige_Gemeinde"},"district":{"key":"09679","name":"Würzburg","type":"Landkreis"},"federalState":{"key":"09","name":"Bayern"}},{"name":"Friedenstr.","postalCode":"97259","locality":"Greußenheim","municipality":{"key":"09679141","name":"Greußenheim","type":"Kreisangehörige_Gemeinde"},"district":{"key":"09679","name":"Würzburg","type":"Landkreis"},"federalState":{"key":"09","name":"Bayern"}},{"name":"Friedhofstr.","postalCode":"97259","locality":"Greußenheim","municipality":{"key":"09679141","name":"Greußenheim","type":"Kreisangehörige_Gemeinde"},"district":{"key":"09679","name":"Würzburg","type":"Landkreis"},"federalState":{"key":"09","name":"Bayern"}},{"name":"Friedrich-von-Hardenberg-Str.","postalCode":"99718","locality":"Greußen","municipality":{"key":"16065089","name":"Greußen, Stadt","type":"Stadt"},"district":{"key":"16065","name":"Kyffhäuserkreis","type":"Landkreis"},"federalState":{"key":"16","name":"Thüringen"}},{"name":"Frühlingstr.","postalCode":"97259","locality":"Greußenheim","municipality":{"key":"09679141","name":"Greußenheim","type":"Kreisangehörige_Gemeinde"},"district":{"key":"09679","name":"Würzburg","type":"Landkreis"},"federalState":{"key":"09","name":"Bayern"}},{"name":"Fuhrwerksgasse","postalCode":"99718","locality":"Greußen","municipality":{"key":"16065089","name":"Greußen, Stadt","type":"Stadt"},"district":{"key":"16065","name":"Kyffhäuserkreis","type":"Landkreis"},"federalState":{"key":"16","name":"Thüringen"}},{"name":"Futterstr.","postalCode":"99718","locality":"Greußen","municipality":{"key":"16065089","name":"Greußen, Stadt","type":"Stadt"},"district":{"key":"16065","name":"Kyffhäuserkreis","type":"Landkreis"},"federalState":{"key":"16","name":"Thüringen"}},{"name":"Gartenstr.","postalCode":"97259","locality":"Greußenheim","municipality":{"key":"09679141","name":"Greußenheim","type":"Kreisangehörige_Gemeinde"},"district":{"key":"09679","name":"Würzburg","type":"Landkreis"},"federalState":{"key":"09","name":"Bayern"}},{"name":"Geschwister-Scholl-Str.","postalCode":"99718","locality":"Greußen","municipality":{"key":"16065089","name":"Greußen, Stadt","type":"Stadt"},"district":{"key":"16065","name":"Kyffhäuserkreis","type":"Landkreis"},"federalState":{"key":"16","name":"Thüringen"}},{"name":"Greußen-Ebeleben-Keulaer Eisenbahn","postalCode":"99718","locality":"Greußen","municipality":{"key":"16065089","name":"Greußen, Stadt","type":"Stadt"},"district":{"key":"16065","name":"Kyffhäuserkreis","type":"Landkreis"},"federalState":{"key":"16","name":"Thüringen"}},{"name":"Greußener Str.","postalCode":"99718","locality":"Greußen","municipality":{"key":"16065089","name":"Greußen, Stadt","type":"Stadt"},"district":{"key":"16065","name":"Kyffhäuserkreis","type":"Landkreis"},"federalState":{"key":"16","name":"Thüringen"}},{"name":"Greußener Tor","postalCode":"99718","locality":"Greußen","municipality":{"key":"16065089","name":"Greußen, Stadt","type":"Stadt"},"district":{"key":"16065","name":"Kyffhäuserkreis","type":"Landkreis"},"federalState":{"key":"16","name":"Thüringen"}},{"name":"Grüninger Str.","postalCode":"99718","locality":"Greußen","municipality":{"key":"16065089","name":"Greußen, Stadt","type":"Stadt"},"district":{"key":"16065","name":"Kyffhäuserkreis","type":"Landkreis"},"federalState":{"key":"16","name":"Thüringen"}},{"name":"Händelstr.","postalCode":"97259","locality":"Greußenheim","municipality":{"key":"09679141","name":"Greußenheim","type":"Kreisangehörige_Gemeinde"},"district":{"key":"09679","name":"Würzburg","type":"Landkreis"},"federalState":{"key":"09","name":"Bayern"}},{"name":"Hasselwegsgraben","postalCode":"99718","locality":"Greußen","municipality":{"key":"16065089","name":"Greußen, Stadt","type":"Stadt"},"district":{"key":"16065","name":"Kyffhäuserkreis","type":"Landkreis"},"federalState":{"key":"16","name":"Thüringen"}},{"name":"Hauptstr.","postalCode":"97259","locality":"Greußenheim","municipality":{"key":"09679141","name":"Greußenheim","type":"Kreisangehörige_Gemeinde"},"district":{"key":"09679","name":"Würzburg","type":"Landkreis"},"federalState":{"key":"09","name":"Bayern"}},{"name":"Hauptstr.","postalCode":"99713","locality":"Greußen","municipality":{"key":"16065089","name":"Greußen, Stadt","type":"Stadt"},"district":{"key":"16065","name":"Kyffhäuserkreis","type":"Landkreis"},"federalState":{"key":"16","name":"Thüringen"}},{"name":"Hauptstr.","postalCode":"99718","locality":"Westgreußen","municipality":{"key":"16065079","name":"Westgreußen","type":"Kreisangehörige_Gemeinde"},"district":{"key":"16065","name":"Kyffhäuserkreis","type":"Landkreis"},"federalState":{"key":"16","name":"Thüringen"}},{"name":"Heinrich-Horn-Platz","postalCode":"97259","locality":"Greußenheim","municipality":{"key":"09679141","name":"Greußenheim","type":"Kreisangehörige_Gemeinde"},"district":{"key":"09679","name":"Würzburg","type":"Landkreis"},"federalState":{"key":"09","name":"Bayern"}},{"name":"Heinrich-König-Str.","postalCode":"99718","locality":"Greußen","municipality":{"key":"16065089","name":"Greußen, Stadt","type":"Stadt"},"district":{"key":"16065","name":"Kyffhäuserkreis","type":"Landkreis"},"federalState":{"key":"16","name":"Thüringen"}},{"name":"Helbeeck","postalCode":"99718","locality":"Greußen","municipality":{"key":"16065089","name":"Greußen, Stadt","type":"Stadt"},"district":{"key":"16065","name":"Kyffhäuserkreis","type":"Landkreis"},"federalState":{"key":"16","name":"Thüringen"}},{"name":"Helbeweg","postalCode":"99718","locality":"Greußen","municipality":{"key":"16065089","name":"Greußen, Stadt","type":"Stadt"},"district":{"key":"16065","name":"Kyffhäuserkreis","type":"Landkreis"},"federalState":{"key":"16","name":"Thüringen"}},{"name":"Hermann-Hesse-Str.","postalCode":"99718","locality":"Greußen","municipality":{"key":"16065089","name":"Greußen, Stadt","type":"Stadt"},"district":{"key":"16065","name":"Kyffhäuserkreis","type":"Landkreis"},"federalState":{"key":"16","name":"Thüringen"}},{"name":"Herrenstr.","postalCode":"99718","locality":"Greußen","municipality":{"key":"16065089","name":"Greußen, Stadt","type":"Stadt"},"district":{"key":"16065","name":"Kyffhäuserkreis","type":"Landkreis"},"federalState":{"key":"16","name":"Thüringen"}},{"name":"Hessengasse","postalCode":"97259","locality":"Greußenheim","municipality":{"key":"09679141","name":"Greußenheim","type":"Kreisangehörige_Gemeinde"},"district":{"key":"09679","name":"Würzburg","type":"Landkreis"},"federalState":{"key":"09","name":"Bayern"}},{"name":"Hessenweg","postalCode":"99718","locality":"Greußen","municipality":{"key":"16065089","name":"Greußen, Stadt","type":"Stadt"},"district":{"key":"16065","name":"Kyffhäuserkreis","type":"Landkreis"},"federalState":{"key":"16","name":"Thüringen"}},{"name":"Hinter den Wänden","postalCode":"99718","locality":"Greußen","municipality":{"key":"16065089","name":"Greußen, Stadt","type":"Stadt"},"district":{"key":"16065","name":"Kyffhäuserkreis","type":"Landkreis"},"federalState":{"key":"16","name":"Thüringen"}},{"name":"Hinter der Ziegelhütte","postalCode":"99718","locality":"Greußen","municipality":{"key":"16065089","name":"Greußen, Stadt","type":"Stadt"},"district":{"key":"16065","name":"Kyffhäuserkreis","type":"Landkreis"},"federalState":{"key":"16","name":"Thüringen"}},{"name":"Hintere Str.","postalCode":"99713","locality":"Greußen","municipality":{"key":"16065089","name":"Greußen, Stadt","type":"Stadt"},"district":{"key":"16065","name":"Kyffhäuserkreis","type":"Landkreis"},"federalState":{"key":"16","name":"Thüringen"}},{"name":"Hintergasse","postalCode":"99718","locality":"Greußen","municipality":{"key":"16065089","name":"Greußen, Stadt","type":"Stadt"},"district":{"key":"16065","name":"Kyffhäuserkreis","type":"Landkreis"},"federalState":{"key":"16","name":"Thüringen"}},{"name":"Hohenebraer Str.","postalCode":"99718","locality":"Greußen","municipality":{"key":"16065089","name":"Greußen, Stadt","type":"Stadt"},"district":{"key":"16065","name":"Kyffhäuserkreis","type":"Landkreis"},"federalState":{"key":"16","name":"Thüringen"}},{"name":"Holzengler Hauptstr.","postalCode":"99718","locality":"Greußen","municipality":{"key":"16065089","name":"Greußen, Stadt","type":"Stadt"},"district":{"key":"16065","name":"Kyffhäuserkreis","type":"Landkreis"},"federalState":{"key":"16","name":"Thüringen"}},{"name":"Holzengler Kirchstr.","postalCode":"99718","locality":"Greußen","municipality":{"key":"16065089","name":"Greußen, Stadt","type":"Stadt"},"district":{"key":"16065","name":"Kyffhäuserkreis","type":"Landkreis"},"federalState":{"key":"16","name":"Thüringen"}},{"name":"Hühnerberg","postalCode":"99718","locality":"Greußen","municipality":{"key":"16065089","name":"Greußen, Stadt","type":"Stadt"},"district":{"key":"16065","name":"Kyffhäuserkreis","type":"Landkreis"},"federalState":{"key":"16","name":"Thüringen"}},{"name":"Im Kittel","postalCode":"99718","locality":"Greußen","municipality":{"key":"16065089","name":"Greußen, Stadt","type":"Stadt"},"district":{"key":"16065","name":"Kyffhäuserkreis","type":"Landkreis"},"federalState":{"key":"16","name":"Thüringen"}},{"name":"Jägerstr.","postalCode":"97259","locality":"Greußenheim","municipality":{"key":"09679141","name":"Greußenheim","type":"Kreisangehörige_Gemeinde"},"district":{"key":"09679","name":"Würzburg","type":"Landkreis"},"federalState":{"key":"09","name":"Bayern"}},{"name":"Julius-Echter-Str.","postalCode":"97259","locality":"Greußenheim","municipality":{"key":"09679141","name":"Greußenheim","type":"Kreisangehörige_Gemeinde"},"district":{"key":"09679","name":"Würzburg","type":"Landkreis"},"federalState":{"key":"09","name":"Bayern"}},{"name":"Kapellenweg","postalCode":"97259","locality":"Greußenheim","municipality":{"key":"09679141","name":"Greußenheim","type":"Kreisangehörige_Gemeinde"},"district":{"key":"09679","name":"Würzburg","type":"Landkreis"},"federalState":{"key":"09","name":"Bayern"}},{"name":"Kapellstr.","postalCode":"99718","locality":"Greußen","municipality":{"key":"16065089","name":"Greußen, Stadt","type":"Stadt"},"district":{"key":"16065","name":"Kyffhäuserkreis","type":"Landkreis"},"federalState":{"key":"16","name":"Thüringen"}},{"name":"Karlsplatz","postalCode":"99718","locality":"Greußen","municipality":{"key":"16065089","name":"Greußen, Stadt","type":"Stadt"},"district":{"key":"16065","name":"Kyffhäuserkreis","type":"Landkreis"},"federalState":{"key":"16","name":"Thüringen"}},{"name":"Kiesgasse","postalCode":"97259","locality":"Greußenheim","municipality":{"key":"09679141","name":"Greußenheim","type":"Kreisangehörige_Gemeinde"},"district":{"key":"09679","name":"Würzburg","type":"Landkreis"},"federalState":{"key":"09","name":"Bayern"}},{"name":"Kirchberg","postalCode":"99718","locality":"Greußen","municipality":{"key":"16065089","name":"Greußen, Stadt","type":"Stadt"},"district":{"key":"16065","name":"Kyffhäuserkreis","type":"Landkreis"},"federalState":{"key":"16","name":"Thüringen"}},{"name":"Kirchengler Hauptstr.","postalCode":"99718","locality":"Greußen","municipality":{"key":"16065089","name":"Greußen, Stadt","type":"Stadt"},"district":{"key":"16065","name":"Kyffhäuserkreis","type":"Landkreis"},"federalState":{"key":"16","name":"Thüringen"}},{"name":"Kirchengler Str.","postalCode":"99718","locality":"Greußen","municipality":{"key":"16065089","name":"Greußen, Stadt","type":"Stadt"},"district":{"key":"16065","name":"Kyffhäuserkreis","type":"Landkreis"},"federalState":{"key":"16","name":"Thüringen"}},{"name":"Kirchengler Zinsweg","postalCode":"99718","locality":"Greußen","municipality":{"key":"16065089","name":"Greußen, Stadt","type":"Stadt"},"district":{"key":"16065","name":"Kyffhäuserkreis","type":"Landkreis"},"federalState":{"key":"16","name":"Thüringen"}},{"name":"Kirchgasse","postalCode":"99718","locality":"Greußen","municipality":{"key":"16065089","name":"Greußen, Stadt","type":"Stadt"},"district":{"key":"16065","name":"Kyffhäuserkreis","type":"Landkreis"},"federalState":{"key":"16","name":"Thüringen"}},{"name":"Kirchplatz","postalCode":"97259","locality":"Greußenheim","municipality":{"key":"09679141","name":"Greußenheim","type":"Kreisangehörige_Gemeinde"},"district":{"key":"09679","name":"Würzburg","type":"Landkreis"},"federalState":{"key":"09","name":"Bayern"}},{"name":"Kirchplatz","postalCode":"99718","locality":"Greußen","municipality":{"key":"16065089","name":"Greußen, Stadt","type":"Stadt"},"district":{"key":"16065","name":"Kyffhäuserkreis","type":"Landkreis"},"federalState":{"key":"16","name":"Thüringen"}},{"name":"Kirchstr.","postalCode":"99718","locality":"Greußen","municipality":{"key":"16065089","name":"Greußen, Stadt","type":"Stadt"},"district":{"key":"16065","name":"Kyffhäuserkreis","type":"Landkreis"},"federalState":{"key":"16","name":"Thüringen"}},{"name":"Kirschweg","postalCode":"99718","locality":"Greußen","municipality":{"key":"16065089","name":"Greußen, Stadt","type":"Stadt"},"district":{"key":"16065","name":"Kyffhäuserkreis","type":"Landkreis"},"federalState":{"key":"16","name":"Thüringen"}},{"name":"Klingenstr.","postalCode":"99718","locality":"Greußen","municipality":{"key":"16065089","name":"Greußen, Stadt","type":"Stadt"},"district":{"key":"16065","name":"Kyffhäuserkreis","type":"Landkreis"},"federalState":{"key":"16","name":"Thüringen"}},{"name":"Klingerstr.","postalCode":"99718","locality":"Westgreußen","municipality":{"key":"16065079","name":"Westgreußen","type":"Kreisangehörige_Gemeinde"},"district":{"key":"16065","name":"Kyffhäuserkreis","type":"Landkreis"},"federalState":{"key":"16","name":"Thüringen"}},{"name":"Kreuzwegstr.","postalCode":"97259","locality":"Greußenheim","municipality":{"key":"09679141","name":"Greußenheim","type":"Kreisangehörige_Gemeinde"},"district":{"key":"09679","name":"Würzburg","type":"Landkreis"},"federalState":{"key":"09","name":"Bayern"}},{"name":"Krumme Gasse","postalCode":"99718","locality":"Greußen","municipality":{"key":"16065089","name":"Greußen, Stadt","type":"Stadt"},"district":{"key":"16065","name":"Kyffhäuserkreis","type":"Landkreis"},"federalState":{"key":"16","name":"Thüringen"}},{"name":"Lange Str.","postalCode":"99718","locality":"Greußen","municipality":{"key":"16065089","name":"Greußen, Stadt","type":"Stadt"},"district":{"key":"16065","name":"Kyffhäuserkreis","type":"Landkreis"},"federalState":{"key":"16","name":"Thüringen"}},{"name":"Leinacher Str.","postalCode":"97259","locality":"Greußenheim","municipality":{"key":"09679141","name":"Greußenheim","type":"Kreisangehörige_Gemeinde"},"district":{"key":"09679","name":"Würzburg","type":"Landkreis"},"federalState":{"key":"09","name":"Bayern"}},{"name":"Leitergasse","postalCode":"99718","locality":"Greußen","municipality":{"key":"16065089","name":"Greußen, Stadt","type":"Stadt"},"district":{"key":"16065","name":"Kyffhäuserkreis","type":"Landkreis"},"federalState":{"key":"16","name":"Thüringen"}},{"name":"Lerchenstr.","postalCode":"97259","locality":"Greußenheim","municipality":{"key":"09679141","name":"Greußenheim","type":"Kreisangehörige_Gemeinde"},"district":{"key":"09679","name":"Würzburg","type":"Landkreis"},"federalState":{"key":"09","name":"Bayern"}},{"name":"Lindenstr.","postalCode":"99718","locality":"Greußen","municipality":{"key":"16065089","name":"Greußen, Stadt","type":"Stadt"},"district":{"key":"16065","name":"Kyffhäuserkreis","type":"Landkreis"},"federalState":{"key":"16","name":"Thüringen"}},{"name":"Malteserstr.","postalCode":"97259","locality":"Greußenheim","municipality":{"key":"09679141","name":"Greußenheim","type":"Kreisangehörige_Gemeinde"},"district":{"key":"09679","name":"Würzburg","type":"Landkreis"},"federalState":{"key":"09","name":"Bayern"}},{"name":"Manhardtsgasse","postalCode":"99718","locality":"Greußen","municipality":{"key":"16065089","name":"Greußen, Stadt","type":"Stadt"},"district":{"key":"16065","name":"Kyffhäuserkreis","type":"Landkreis"},"federalState":{"key":"16","name":"Thüringen"}},{"name":"Marienstr.","postalCode":"99718","locality":"Greußen","municipality":{"key":"16065089","name":"Greußen, Stadt","type":"Stadt"},"district":{"key":"16065","name":"Kyffhäuserkreis","type":"Landkreis"},"federalState":{"key":"16","name":"Thüringen"}},{"name":"Markt","postalCode":"99718","locality":"Greußen","municipality":{"key":"16065089","name":"Greußen, Stadt","type":"Stadt"},"district":{"key":"16065","name":"Kyffhäuserkreis","type":"Landkreis"},"federalState":{"key":"16","name":"Thüringen"}},{"name":"Molkereistr.","postalCode":"99718","locality":"Greußen","municipality":{"key":"16065089","name":"Greußen, Stadt","type":"Stadt"},"district":{"key":"16065","name":"Kyffhäuserkreis","type":"Landkreis"},"federalState":{"key":"16","name":"Thüringen"}},{"name":"Mühlenweg","postalCode":"97259","locality":"Greußenheim","municipality":{"key":"09679141","name":"Greußenheim","type":"Kreisangehörige_Gemeinde"},"district":{"key":"09679","name":"Würzburg","type":"Landkreis"},"federalState":{"key":"09","name":"Bayern"}},{"name":"Mühlgasse","postalCode":"99718","locality":"Greußen","municipality":{"key":"16065089","name":"Greußen, Stadt","type":"Stadt"},"district":{"key":"16065","name":"Kyffhäuserkreis","type":"Landkreis"},"federalState":{"key":"16","name":"Thüringen"}},{"name":"Mühltal","postalCode":"99718","locality":"Greußen","municipality":{"key":"16065089","name":"Greußen, Stadt","type":"Stadt"},"district":{"key":"16065","name":"Kyffhäuserkreis","type":"Landkreis"},"federalState":{"key":"16","name":"Thüringen"}},{"name":"Neue Str.","postalCode":"99718","locality":"Greußen","municipality":{"key":"16065089","name":"Greußen, Stadt","type":"Stadt"},"district":{"key":"16065","name":"Kyffhäuserkreis","type":"Landkreis"},"federalState":{"key":"16","name":"Thüringen"}},{"name":"Neustadt","postalCode":"99718","locality":"Greußen","municipality":{"key":"16065089","name":"Greußen, Stadt","type":"Stadt"},"district":{"key":"16065","name":"Kyffhäuserkreis","type":"Landkreis"},"federalState":{"key":"16","name":"Thüringen"}},{"name":"Niedertopfstedter Str.","postalCode":"99718","locality":"Greußen","municipality":{"key":"16065089","name":"Greußen, Stadt","type":"Stadt"},"district":{"key":"16065","name":"Kyffhäuserkreis","type":"Landkreis"},"federalState":{"key":"16","name":"Thüringen"}},{"name":"Nordhäuser Str.","postalCode":"99718","locality":"Greußen","municipality":{"key":"16065089","name":"Greußen, Stadt","type":"Stadt"},"district":{"key":"16065","name":"Kyffhäuserkreis","type":"Landkreis"},"federalState":{"key":"16","name":"Thüringen"}},{"name":"Ottenhäuser Str.","postalCode":"99718","locality":"Greußen","municipality":{"key":"16065089","name":"Greußen, Stadt","type":"Stadt"},"district":{"key":"16065","name":"Kyffhäuserkreis","type":"Landkreis"},"federalState":{"key":"16","name":"Thüringen"}},{"name":"Otterstedter Str.","postalCode":"99718","locality":"Greußen","municipality":{"key":"16065089","name":"Greußen, Stadt","type":"Stadt"},"district":{"key":"16065","name":"Kyffhäuserkreis","type":"Landkreis"},"federalState":{"key":"16","name":"Thüringen"}},{"name":"Panzerstr.","postalCode":"99718","locality":"Greußen","municipality":{"key":"16065089","name":"Greußen, Stadt","type":"Stadt"},"district":{"key":"16065","name":"Kyffhäuserkreis","type":"Landkreis"},"federalState":{"key":"16","name":"Thüringen"}},{"name":"Paul-Lürmann-Str.","postalCode":"99718","locality":"Greußen","municipality":{"key":"16065089","name":"Greußen, Stadt","type":"Stadt"},"district":{"key":"16065","name":"Kyffhäuserkreis","type":"Landkreis"},"federalState":{"key":"16","name":"Thüringen"}},{"name":"Pfarrgasse","postalCode":"97259","locality":"Greußenheim","municipality":{"key":"09679141","name":"Greußenheim","type":"Kreisangehörige_Gemeinde"},"district":{"key":"09679","name":"Würzburg","type":"Landkreis"},"federalState":{"key":"09","name":"Bayern"}},{"name":"Promenade","postalCode":"99718","locality":"Greußen","municipality":{"key":"16065089","name":"Greußen, Stadt","type":"Stadt"},"district":{"key":"16065","name":"Kyffhäuserkreis","type":"Landkreis"},"federalState":{"key":"16","name":"Thüringen"}},{"name":"Raiffeisenstr.","postalCode":"97259","locality":"Greußenheim","municipality":{"key":"09679141","name":"Greußenheim","type":"Kreisangehörige_Gemeinde"},"district":{"key":"09679","name":"Würzburg","type":"Landkreis"},"federalState":{"key":"09","name":"Bayern"}},{"name":"Rathausgasse","postalCode":"99718","locality":"Greußen","municipality":{"key":"16065089","name":"Greußen, Stadt","type":"Stadt"},"district":{"key":"16065","name":"Kyffhäuserkreis","type":"Landkreis"},"federalState":{"key":"16","name":"Thüringen"}},{"name":"Riedstr.","postalCode":"99718","locality":"Greußen","municipality":{"key":"16065089","name":"Greußen, Stadt","type":"Stadt"},"district":{"key":"16065","name":"Kyffhäuserkreis","type":"Landkreis"},"federalState":{"key":"16","name":"Thüringen"}},{"name":"Ringstr.","postalCode":"99718","locality":"Greußen","municipality":{"key":"16065089","name":"Greußen, Stadt","type":"Stadt"},"district":{"key":"16065","name":"Kyffhäuserkreis","type":"Landkreis"},"federalState":{"key":"16","name":"Thüringen"}},{"name":"Ritterstr.","postalCode":"99718","locality":"Greußen","municipality":{"key":"16065089","name":"Greußen, Stadt","type":"Stadt"},"district":{"key":"16065","name":"Kyffhäuserkreis","type":"Landkreis"},"federalState":{"key":"16","name":"Thüringen"}},{"name":"Robert-Koch-Str.","postalCode":"99718","locality":"Greußen","municipality":{"key":"16065089","name":"Greußen, Stadt","type":"Stadt"},"district":{"key":"16065","name":"Kyffhäuserkreis","type":"Landkreis"},"federalState":{"key":"16","name":"Thüringen"}},{"name":"Rohnstedter Str.","postalCode":"99718","locality":"Westgreußen","municipality":{"key":"16065079","name":"Westgreußen","type":"Kreisangehörige_Gemeinde"},"district":{"key":"16065","name":"Kyffhäuserkreis","type":"Landkreis"},"federalState":{"key":"16","name":"Thüringen"}},{"name":"Rosenpark Engel Universelles Leben","postalCode":"97259","locality":"Greußenheim","municipality":{"key":"09679141","name":"Greußenheim","type":"Kreisangehörige_Gemeinde"},"district":{"key":"09679","name":"Würzburg","type":"Landkreis"},"federalState":{"key":"09","name":"Bayern"}},{"name":"Rotdornweg","postalCode":"99718","locality":"Greußen","municipality":{"key":"16065089","name":"Greußen, Stadt","type":"Stadt"},"district":{"key":"16065","name":"Kyffhäuserkreis","type":"Landkreis"},"federalState":{"key":"16","name":"Thüringen"}},{"name":"Rothenfelser Str.","postalCode":"97259","locality":"Greußenheim","municipality":{"key":"09679141","name":"Greußenheim","type":"Kreisangehörige_Gemeinde"},"district":{"key":"09679","name":"Würzburg","type":"Landkreis"},"federalState":{"key":"09","name":"Bayern"}},{"name":"Röthenweg","postalCode":"97259","locality":"Greußenheim","municipality":{"key":"09679141","name":"Greußenheim","type":"Kreisangehörige_Gemeinde"},"district":{"key":"09679","name":"Würzburg","type":"Landkreis"},"federalState":{"key":"09","name":"Bayern"}},{"name":"Schenkstr.","postalCode":"99718","locality":"Westgreußen","municipality":{"key":"16065079","name":"Westgreußen","type":"Kreisangehörige_Gemeinde"},"district":{"key":"16065","name":"Kyffhäuserkreis","type":"Landkreis"},"federalState":{"key":"16","name":"Thüringen"}},{"name":"Schleifweg","postalCode":"99718","locality":"Greußen","municipality":{"key":"16065089","name":"Greußen, Stadt","type":"Stadt"},"district":{"key":"16065","name":"Kyffhäuserkreis","type":"Landkreis"},"federalState":{"key":"16","name":"Thüringen"}},{"name":"Schlossallee","postalCode":"99718","locality":"Greußen","municipality":{"key":"16065089","name":"Greußen, Stadt","type":"Stadt"},"district":{"key":"16065","name":"Kyffhäuserkreis","type":"Landkreis"},"federalState":{"key":"16","name":"Thüringen"}},{"name":"Schlössergasse","postalCode":"99718","locality":"Greußen","municipality":{"key":"16065089","name":"Greußen, Stadt","type":"Stadt"},"district":{"key":"16065","name":"Kyffhäuserkreis","type":"Landkreis"},"federalState":{"key":"16","name":"Thüringen"}},{"name":"Schlosspark","postalCode":"99718","locality":"Greußen","municipality":{"key":"16065089","name":"Greußen, Stadt","type":"Stadt"},"district":{"key":"16065","name":"Kyffhäuserkreis","type":"Landkreis"},"federalState":{"key":"16","name":"Thüringen"}},{"name":"Schulgasse","postalCode":"99718","locality":"Greußen","municipality":{"key":"16065089","name":"Greußen, Stadt","type":"Stadt"},"district":{"key":"16065","name":"Kyffhäuserkreis","type":"Landkreis"},"federalState":{"key":"16","name":"Thüringen"}},{"name":"Schulstr.","postalCode":"97259","locality":"Greußenheim","municipality":{"key":"09679141","name":"Greußenheim","type":"Kreisangehörige_Gemeinde"},"district":{"key":"09679","name":"Würzburg","type":"Landkreis"},"federalState":{"key":"09","name":"Bayern"}},{"name":"Schulstr.","postalCode":"99718","locality":"Greußen","municipality":{"key":"16065089","name":"Greußen, Stadt","type":"Stadt"},"district":{"key":"16065","name":"Kyffhäuserkreis","type":"Landkreis"},"federalState":{"key":"16","name":"Thüringen"}},{"name":"Schulstr.","postalCode":"99718","locality":"Westgreußen","municipality":{"key":"16065079","name":"Westgreußen","type":"Kreisangehörige_Gemeinde"},"district":{"key":"16065","name":"Kyffhäuserkreis","type":"Landkreis"},"federalState":{"key":"16","name":"Thüringen"}},{"name":"Schulweg","postalCode":"99718","locality":"Greußen","municipality":{"key":"16065089","name":"Greußen, Stadt","type":"Stadt"},"district":{"key":"16065","name":"Kyffhäuserkreis","type":"Landkreis"},"federalState":{"key":"16","name":"Thüringen"}},{"name":"Schwarzburger Str.","postalCode":"99718","locality":"Greußen","municipality":{"key":"16065089","name":"Greußen, Stadt","type":"Stadt"},"district":{"key":"16065","name":"Kyffhäuserkreis","type":"Landkreis"},"federalState":{"key":"16","name":"Thüringen"}},{"name":"Silberrasen","postalCode":"99718","locality":"Greußen","municipality":{"key":"16065089","name":"Greußen, Stadt","type":"Stadt"},"district":{"key":"16065","name":"Kyffhäuserkreis","type":"Landkreis"},"federalState":{"key":"16","name":"Thüringen"}},{"name":"Sonnenstr.","postalCode":"97259","locality":"Greußenheim","municipality":{"key":"09679141","name":"Greußenheim","type":"Kreisangehörige_Gemeinde"},"district":{"key":"09679","name":"Würzburg","type":"Landkreis"},"federalState":{"key":"09","name":"Bayern"}},{"name":"Sorge","postalCode":"99718","locality":"Greußen","municipality":{"key":"16065089","name":"Greußen, Stadt","type":"Stadt"},"district":{"key":"16065","name":"Kyffhäuserkreis","type":"Landkreis"},"federalState":{"key":"16","name":"Thüringen"}},{"name":"Spessartstr.","postalCode":"97259","locality":"Greußenheim","municipality":{"key":"09679141","name":"Greußenheim","type":"Kreisangehörige_Gemeinde"},"district":{"key":"09679","name":"Würzburg","type":"Landkreis"},"federalState":{"key":"09","name":"Bayern"}},{"name":"Stangenweg","postalCode":"99718","locality":"Greußen","municipality":{"key":"16065089","name":"Greußen, Stadt","type":"Stadt"},"district":{"key":"16065","name":"Kyffhäuserkreis","type":"Landkreis"},"federalState":{"key":"16","name":"Thüringen"}},{"name":"Steingraben","postalCode":"99718","locality":"Greußen","municipality":{"key":"16065089","name":"Greußen, Stadt","type":"Stadt"},"district":{"key":"16065","name":"Kyffhäuserkreis","type":"Landkreis"},"federalState":{"key":"16","name":"Thüringen"}},{"name":"Steinweg","postalCode":"99718","locality":"Greußen","municipality":{"key":"16065089","name":"Greußen, Stadt","type":"Stadt"},"district":{"key":"16065","name":"Kyffhäuserkreis","type":"Landkreis"},"federalState":{"key":"16","name":"Thüringen"}},{"name":"Str. der DSF","postalCode":"99718","locality":"Greußen","municipality":{"key":"16065089","name":"Greußen, Stadt","type":"Stadt"},"district":{"key":"16065","name":"Kyffhäuserkreis","type":"Landkreis"},"federalState":{"key":"16","name":"Thüringen"}},{"name":"Str. des Aufbaus","postalCode":"99718","locality":"Greußen","municipality":{"key":"16065089","name":"Greußen, Stadt","type":"Stadt"},"district":{"key":"16065","name":"Kyffhäuserkreis","type":"Landkreis"},"federalState":{"key":"16","name":"Thüringen"}},{"name":"Str. des Aufbaus","postalCode":"99718","locality":"Westgreußen","municipality":{"key":"16065079","name":"Westgreußen","type":"Kreisangehörige_Gemeinde"},"district":{"key":"16065","name":"Kyffhäuserkreis","type":"Landkreis"},"federalState":{"key":"16","name":"Thüringen"}},{"name":"Sudetenstr.","postalCode":"97259","locality":"Greußenheim","municipality":{"key":"09679141","name":"Greußenheim","type":"Kreisangehörige_Gemeinde"},"district":{"key":"09679","name":"Würzburg","type":"Landkreis"},"federalState":{"key":"09","name":"Bayern"}},{"name":"Thomas-Müntzer-Siedlung","postalCode":"99718","locality":"Greußen","municipality":{"key":"16065089","name":"Greußen, Stadt","type":"Stadt"},"district":{"key":"16065","name":"Kyffhäuserkreis","type":"Landkreis"},"federalState":{"key":"16","name":"Thüringen"}},{"name":"Töpfergasse","postalCode":"99718","locality":"Greußen","municipality":{"key":"16065089","name":"Greußen, Stadt","type":"Stadt"},"district":{"key":"16065","name":"Kyffhäuserkreis","type":"Landkreis"},"federalState":{"key":"16","name":"Thüringen"}},{"name":"Uettinger Str.","postalCode":"97259","locality":"Greußenheim","municipality":{"key":"09679141","name":"Greußenheim","type":"Kreisangehörige_Gemeinde"},"district":{"key":"09679","name":"Würzburg","type":"Landkreis"},"federalState":{"key":"09","name":"Bayern"}},{"name":"Vor dem Warthügel","postalCode":"99718","locality":"Greußen","municipality":{"key":"16065089","name":"Greußen, Stadt","type":"Stadt"},"district":{"key":"16065","name":"Kyffhäuserkreis","type":"Landkreis"},"federalState":{"key":"16","name":"Thüringen"}},{"name":"Wagnerstr.","postalCode":"97259","locality":"Greußenheim","municipality":{"key":"09679141","name":"Greußenheim","type":"Kreisangehörige_Gemeinde"},"district":{"key":"09679","name":"Würzburg","type":"Landkreis"},"federalState":{"key":"09","name":"Bayern"}},{"name":"Waidberg","postalCode":"99718","locality":"Greußen","municipality":{"key":"16065089","name":"Greußen, Stadt","type":"Stadt"},"district":{"key":"16065","name":"Kyffhäuserkreis","type":"Landkreis"},"federalState":{"key":"16","name":"Thüringen"}},{"name":"Waidhof","postalCode":"99718","locality":"Greußen","municipality":{"key":"16065089","name":"Greußen, Stadt","type":"Stadt"},"district":{"key":"16065","name":"Kyffhäuserkreis","type":"Landkreis"},"federalState":{"key":"16","name":"Thüringen"}},{"name":"Warthügel Veranstaltungsgelände","postalCode":"99718","locality":"Greußen","municipality":{"key":"16065089","name":"Greußen, Stadt","type":"Stadt"},"district":{"key":"16065","name":"Kyffhäuserkreis","type":"Landkreis"},"federalState":{"key":"16","name":"Thüringen"}},{"name":"Wasserthalebener Str.","postalCode":"99718","locality":"Greußen","municipality":{"key":"16065089","name":"Greußen, Stadt","type":"Stadt"},"district":{"key":"16065","name":"Kyffhäuserkreis","type":"Landkreis"},"federalState":{"key":"16","name":"Thüringen"}},{"name":"Weg zur Winkelmühle","postalCode":"99718","locality":"Greußen","municipality":{"key":"16065089","name":"Greußen, Stadt","type":"Stadt"},"district":{"key":"16065","name":"Kyffhäuserkreis","type":"Landkreis"},"federalState":{"key":"16","name":"Thüringen"}},{"name":"Weinbergstr.","postalCode":"97259","locality":"Greußenheim","municipality":{"key":"09679141","name":"Greußenheim","type":"Kreisangehörige_Gemeinde"},"district":{"key":"09679","name":"Würzburg","type":"Landkreis"},"federalState":{"key":"09","name":"Bayern"}},{"name":"Wenigenehricher Hauptstr.","postalCode":"99718","locality":"Greußen","municipality":{"key":"16065089","name":"Greußen, Stadt","type":"Stadt"},"district":{"key":"16065","name":"Kyffhäuserkreis","type":"Landkreis"},"federalState":{"key":"16","name":"Thüringen"}},{"name":"Westerengler Hauptstr.","postalCode":"99718","locality":"Greußen","municipality":{"key":"16065089","name":"Greußen, Stadt","type":"Stadt"},"district":{"key":"16065","name":"Kyffhäuserkreis","type":"Landkreis"},"federalState":{"key":"16","name":"Thüringen"}},{"name":"Westgreußener Str.","postalCode":"99718","locality":"Westgreußen","municipality":{"key":"16065079","name":"Westgreußen","type":"Kreisangehörige_Gemeinde"},"district":{"key":"16065","name":"Kyffhäuserkreis","type":"Landkreis"},"federalState":{"key":"16","name":"Thüringen"}},{"name":"Würzburger Str.","postalCode":"97259","locality":"Greußenheim","municipality":{"key":"09679141","name":"Greußenheim","type":"Kreisangehörige_Gemeinde"},"district":{"key":"09679","name":"Würzburg","type":"Landkreis"},"federalState":{"key":"09","name":"Bayern"}},{"name":"Ziesengasse","postalCode":"99718","locality":"Greußen","municipality":{"key":"16065089","name":"Greußen, Stadt","type":"Stadt"},"district":{"key":"16065","name":"Kyffhäuserkreis","type":"Landkreis"},"federalState":{"key":"16","name":"Thüringen"}},{"name":"Zinsweg","postalCode":"99718","locality":"Greußen","municipality":{"key":"16065089","name":"Greußen, Stadt","type":"Stadt"},"district":{"key":"16065","name":"Kyffhäuserkreis","type":"Landkreis"},"federalState":{"key":"16","name":"Thüringen"}},{"name":"Zum Alten Bahnhof","postalCode":"99718","locality":"Greußen","municipality":{"key":"16065089","name":"Greußen, Stadt","type":"Stadt"},"district":{"key":"16065","name":"Kyffhäuserkreis","type":"Landkreis"},"federalState":{"key":"16","name":"Thüringen"}},{"name":"Zum Groll","postalCode":"99718","locality":"Greußen","municipality":{"key":"16065089","name":"Greußen, Stadt","type":"Stadt"},"district":{"key":"16065","name":"Kyffhäuserkreis","type":"Landkreis"},"federalState":{"key":"16","name":"Thüringen"}},{"name":"Zum Rodensberg","postalCode":"99718","locality":"Greußen","municipality":{"key":"16065089","name":"Greußen, Stadt","type":"Stadt"},"district":{"key":"16065","name":"Kyffhäuserkreis","type":"Landkreis"},"federalState":{"key":"16","name":"Thüringen"}},]