[{"name":"Altenburgblick","postalCode":"55444","locality":"Waldlaubersheim","municipality":{"key":"07133108","name":"Waldlaubersheim","type":"Kreisangehörige_Gemeinde"},"district":{"key":"07133","name":"Bad Kreuznach","type":"Landkreis"},"federalState":{"key":"07","name":"Rheinland-Pfalz"}},{"name":"Am Domberg","postalCode":"55444","locality":"Waldlaubersheim","municipality":{"key":"07133108","name":"Waldlaubersheim","type":"Kreisangehörige_Gemeinde"},"district":{"key":"07133","name":"Bad Kreuznach","type":"Landkreis"},"federalState":{"key":"07","name":"Rheinland-Pfalz"}},{"name":"Am Heideloch","postalCode":"55444","locality":"Waldlaubersheim","municipality":{"key":"07133108","name":"Waldlaubersheim","type":"Kreisangehörige_Gemeinde"},"district":{"key":"07133","name":"Bad Kreuznach","type":"Landkreis"},"federalState":{"key":"07","name":"Rheinland-Pfalz"}},{"name":"Am Mühlweg","postalCode":"55444","locality":"Waldlaubersheim","municipality":{"key":"07133108","name":"Waldlaubersheim","type":"Kreisangehörige_Gemeinde"},"district":{"key":"07133","name":"Bad Kreuznach","type":"Landkreis"},"federalState":{"key":"07","name":"Rheinland-Pfalz"}},{"name":"Am Sportplatz","postalCode":"55444","locality":"Waldlaubersheim","municipality":{"key":"07133108","name":"Waldlaubersheim","type":"Kreisangehörige_Gemeinde"},"district":{"key":"07133","name":"Bad Kreuznach","type":"Landkreis"},"federalState":{"key":"07","name":"Rheinland-Pfalz"}},{"name":"Auf der Kirchwiese","postalCode":"55444","locality":"Waldlaubersheim","municipality":{"key":"07133108","name":"Waldlaubersheim","type":"Kreisangehörige_Gemeinde"},"district":{"key":"07133","name":"Bad Kreuznach","type":"Landkreis"},"federalState":{"key":"07","name":"Rheinland-Pfalz"}},{"name":"Auf Hardt","postalCode":"55444","locality":"Waldlaubersheim","municipality":{"key":"07133108","name":"Waldlaubersheim","type":"Kreisangehörige_Gemeinde"},"district":{"key":"07133","name":"Bad Kreuznach","type":"Landkreis"},"federalState":{"key":"07","name":"Rheinland-Pfalz"}},{"name":"Bachgasse","postalCode":"55444","locality":"Waldlaubersheim","municipality":{"key":"07133108","name":"Waldlaubersheim","type":"Kreisangehörige_Gemeinde"},"district":{"key":"07133","name":"Bad Kreuznach","type":"Landkreis"},"federalState":{"key":"07","name":"Rheinland-Pfalz"}},{"name":"Berliner Str.","postalCode":"55444","locality":"Waldlaubersheim","municipality":{"key":"07133108","name":"Waldlaubersheim","type":"Kreisangehörige_Gemeinde"},"district":{"key":"07133","name":"Bad Kreuznach","type":"Landkreis"},"federalState":{"key":"07","name":"Rheinland-Pfalz"}},{"name":"Beunde","postalCode":"55444","locality":"Waldlaubersheim","municipality":{"key":"07133108","name":"Waldlaubersheim","type":"Kreisangehörige_Gemeinde"},"district":{"key":"07133","name":"Bad Kreuznach","type":"Landkreis"},"federalState":{"key":"07","name":"Rheinland-Pfalz"}},{"name":"Binger Str.","postalCode":"55444","locality":"Waldlaubersheim","municipality":{"key":"07133108","name":"Waldlaubersheim","type":"Kreisangehörige_Gemeinde"},"district":{"key":"07133","name":"Bad Kreuznach","type":"Landkreis"},"federalState":{"key":"07","name":"Rheinland-Pfalz"}},{"name":"Binger Weg","postalCode":"55444","locality":"Waldlaubersheim","municipality":{"key":"07133108","name":"Waldlaubersheim","type":"Kreisangehörige_Gemeinde"},"district":{"key":"07133","name":"Bad Kreuznach","type":"Landkreis"},"federalState":{"key":"07","name":"Rheinland-Pfalz"}},{"name":"Brunnengasse","postalCode":"55444","locality":"Waldlaubersheim","municipality":{"key":"07133108","name":"Waldlaubersheim","type":"Kreisangehörige_Gemeinde"},"district":{"key":"07133","name":"Bad Kreuznach","type":"Landkreis"},"federalState":{"key":"07","name":"Rheinland-Pfalz"}},{"name":"Carl-Schurz-Str.","postalCode":"55543","locality":"Bad Kreuznach","municipality":{"key":"07133006","name":"Bad Kreuznach, Stadt","type":"Stadt"},"district":{"key":"07133","name":"Bad Kreuznach","type":"Landkreis"},"federalState":{"key":"07","name":"Rheinland-Pfalz"}},{"name":"Carl-Spitzweg-Str.","postalCode":"55543","locality":"Bad Kreuznach","municipality":{"key":"07133006","name":"Bad Kreuznach, Stadt","type":"Stadt"},"district":{"key":"07133","name":"Bad Kreuznach","type":"Landkreis"},"federalState":{"key":"07","name":"Rheinland-Pfalz"}},{"name":"Carl-Zeiss-Str.","postalCode":"55543","locality":"Bad Kreuznach","municipality":{"key":"07133006","name":"Bad Kreuznach, Stadt","type":"Stadt"},"district":{"key":"07133","name":"Bad Kreuznach","type":"Landkreis"},"federalState":{"key":"07","name":"Rheinland-Pfalz"}},{"name":"Carmerstr.","postalCode":"55543","locality":"Bad Kreuznach","municipality":{"key":"07133006","name":"Bad Kreuznach, Stadt","type":"Stadt"},"district":{"key":"07133","name":"Bad Kreuznach","type":"Landkreis"},"federalState":{"key":"07","name":"Rheinland-Pfalz"}},{"name":"Cauerstr.","postalCode":"55543","locality":"Bad Kreuznach","municipality":{"key":"07133006","name":"Bad Kreuznach, Stadt","type":"Stadt"},"district":{"key":"07133","name":"Bad Kreuznach","type":"Landkreis"},"federalState":{"key":"07","name":"Rheinland-Pfalz"}},{"name":"Cecilienhöhe","postalCode":"55543","locality":"Bad Kreuznach","municipality":{"key":"07133006","name":"Bad Kreuznach, Stadt","type":"Stadt"},"district":{"key":"07133","name":"Bad Kreuznach","type":"Landkreis"},"federalState":{"key":"07","name":"Rheinland-Pfalz"}},{"name":"Charles-de-Gaulle-Str.","postalCode":"55543","locality":"Bad Kreuznach","municipality":{"key":"07133006","name":"Bad Kreuznach, Stadt","type":"Stadt"},"district":{"key":"07133","name":"Bad Kreuznach","type":"Landkreis"},"federalState":{"key":"07","name":"Rheinland-Pfalz"}},{"name":"Charles-de-Gaulle-Str.","postalCode":"55545","locality":"Bad Kreuznach","municipality":{"key":"07133006","name":"Bad Kreuznach, Stadt","type":"Stadt"},"district":{"key":"07133","name":"Bad Kreuznach","type":"Landkreis"},"federalState":{"key":"07","name":"Rheinland-Pfalz"}},{"name":"Corneliusstr.","postalCode":"55545","locality":"Bad Kreuznach","municipality":{"key":"07133006","name":"Bad Kreuznach, Stadt","type":"Stadt"},"district":{"key":"07133","name":"Bad Kreuznach","type":"Landkreis"},"federalState":{"key":"07","name":"Rheinland-Pfalz"}},{"name":"Danziger Str.","postalCode":"55444","locality":"Waldlaubersheim","municipality":{"key":"07133108","name":"Waldlaubersheim","type":"Kreisangehörige_Gemeinde"},"district":{"key":"07133","name":"Bad Kreuznach","type":"Landkreis"},"federalState":{"key":"07","name":"Rheinland-Pfalz"}},{"name":"Enggasse","postalCode":"55444","locality":"Waldlaubersheim","municipality":{"key":"07133108","name":"Waldlaubersheim","type":"Kreisangehörige_Gemeinde"},"district":{"key":"07133","name":"Bad Kreuznach","type":"Landkreis"},"federalState":{"key":"07","name":"Rheinland-Pfalz"}},{"name":"Falkensteinstr.","postalCode":"55545","locality":"Bad Kreuznach","municipality":{"key":"07133006","name":"Bad Kreuznach, Stadt","type":"Stadt"},"district":{"key":"07133","name":"Bad Kreuznach","type":"Landkreis"},"federalState":{"key":"07","name":"Rheinland-Pfalz"}},{"name":"Falkenweg","postalCode":"55583","locality":"Bad Kreuznach","municipality":{"key":"07133006","name":"Bad Kreuznach, Stadt","type":"Stadt"},"district":{"key":"07133","name":"Bad Kreuznach","type":"Landkreis"},"federalState":{"key":"07","name":"Rheinland-Pfalz"}},{"name":"Felix-Wankel-Str.","postalCode":"55545","locality":"Bad Kreuznach","municipality":{"key":"07133006","name":"Bad Kreuznach, Stadt","type":"Stadt"},"district":{"key":"07133","name":"Bad Kreuznach","type":"Landkreis"},"federalState":{"key":"07","name":"Rheinland-Pfalz"}},{"name":"Ferdinand-Porsche-Str.","postalCode":"55543","locality":"Bad Kreuznach","municipality":{"key":"07133006","name":"Bad Kreuznach, Stadt","type":"Stadt"},"district":{"key":"07133","name":"Bad Kreuznach","type":"Landkreis"},"federalState":{"key":"07","name":"Rheinland-Pfalz"}},{"name":"Finkenweg","postalCode":"55583","locality":"Bad Kreuznach","municipality":{"key":"07133006","name":"Bad Kreuznach, Stadt","type":"Stadt"},"district":{"key":"07133","name":"Bad Kreuznach","type":"Landkreis"},"federalState":{"key":"07","name":"Rheinland-Pfalz"}},{"name":"Fischergasse","postalCode":"55545","locality":"Bad Kreuznach","municipality":{"key":"07133006","name":"Bad Kreuznach, Stadt","type":"Stadt"},"district":{"key":"07133","name":"Bad Kreuznach","type":"Landkreis"},"federalState":{"key":"07","name":"Rheinland-Pfalz"}},{"name":"Fischerplatz","postalCode":"55545","locality":"Bad Kreuznach","municipality":{"key":"07133006","name":"Bad Kreuznach, Stadt","type":"Stadt"},"district":{"key":"07133","name":"Bad Kreuznach","type":"Landkreis"},"federalState":{"key":"07","name":"Rheinland-Pfalz"}},{"name":"Fontanestr.","postalCode":"55543","locality":"Bad Kreuznach","municipality":{"key":"07133006","name":"Bad Kreuznach, Stadt","type":"Stadt"},"district":{"key":"07133","name":"Bad Kreuznach","type":"Landkreis"},"federalState":{"key":"07","name":"Rheinland-Pfalz"}},{"name":"Forsthausweg","postalCode":"55543","locality":"Bad Kreuznach","municipality":{"key":"07133006","name":"Bad Kreuznach, Stadt","type":"Stadt"},"district":{"key":"07133","name":"Bad Kreuznach","type":"Landkreis"},"federalState":{"key":"07","name":"Rheinland-Pfalz"}},{"name":"Forstmeister-Gräff-Str.","postalCode":"55543","locality":"Bad Kreuznach","municipality":{"key":"07133006","name":"Bad Kreuznach, Stadt","type":"Stadt"},"district":{"key":"07133","name":"Bad Kreuznach","type":"Landkreis"},"federalState":{"key":"07","name":"Rheinland-Pfalz"}},{"name":"Frankenstr.","postalCode":"55545","locality":"Bad Kreuznach","municipality":{"key":"07133006","name":"Bad Kreuznach, Stadt","type":"Stadt"},"district":{"key":"07133","name":"Bad Kreuznach","type":"Landkreis"},"federalState":{"key":"07","name":"Rheinland-Pfalz"}},{"name":"Frankfurter Str.","postalCode":"55545","locality":"Bad Kreuznach","municipality":{"key":"07133006","name":"Bad Kreuznach, Stadt","type":"Stadt"},"district":{"key":"07133","name":"Bad Kreuznach","type":"Landkreis"},"federalState":{"key":"07","name":"Rheinland-Pfalz"}},{"name":"Franz-Eichenauer-Str.","postalCode":"55543","locality":"Bad Kreuznach","municipality":{"key":"07133006","name":"Bad Kreuznach, Stadt","type":"Stadt"},"district":{"key":"07133","name":"Bad Kreuznach","type":"Landkreis"},"federalState":{"key":"07","name":"Rheinland-Pfalz"}},{"name":"Franziska-Puricelli-Str.","postalCode":"55543","locality":"Bad Kreuznach","municipality":{"key":"07133006","name":"Bad Kreuznach, Stadt","type":"Stadt"},"district":{"key":"07133","name":"Bad Kreuznach","type":"Landkreis"},"federalState":{"key":"07","name":"Rheinland-Pfalz"}},{"name":"Franz-Marc-Str.","postalCode":"55543","locality":"Bad Kreuznach","municipality":{"key":"07133006","name":"Bad Kreuznach, Stadt","type":"Stadt"},"district":{"key":"07133","name":"Bad Kreuznach","type":"Landkreis"},"federalState":{"key":"07","name":"Rheinland-Pfalz"}},{"name":"Franz-Schubert-Str.","postalCode":"55583","locality":"Bad Kreuznach","municipality":{"key":"07133006","name":"Bad Kreuznach, Stadt","type":"Stadt"},"district":{"key":"07133","name":"Bad Kreuznach","type":"Landkreis"},"federalState":{"key":"07","name":"Rheinland-Pfalz"}},{"name":"Franz-von-Sickingen-Str.","postalCode":"55583","locality":"Bad Kreuznach","municipality":{"key":"07133006","name":"Bad Kreuznach, Stadt","type":"Stadt"},"district":{"key":"07133","name":"Bad Kreuznach","type":"Landkreis"},"federalState":{"key":"07","name":"Rheinland-Pfalz"}},{"name":"Freiherr-vom-Stein-Str.","postalCode":"55543","locality":"Bad Kreuznach","municipality":{"key":"07133006","name":"Bad Kreuznach, Stadt","type":"Stadt"},"district":{"key":"07133","name":"Bad Kreuznach","type":"Landkreis"},"federalState":{"key":"07","name":"Rheinland-Pfalz"}},{"name":"Frenzenberg","postalCode":"55545","locality":"Bad Kreuznach","municipality":{"key":"07133006","name":"Bad Kreuznach, Stadt","type":"Stadt"},"district":{"key":"07133","name":"Bad Kreuznach","type":"Landkreis"},"federalState":{"key":"07","name":"Rheinland-Pfalz"}},{"name":"Friedensbrücke","postalCode":"55583","locality":"Bad Kreuznach","municipality":{"key":"07133006","name":"Bad Kreuznach, Stadt","type":"Stadt"},"district":{"key":"07133","name":"Bad Kreuznach","type":"Landkreis"},"federalState":{"key":"07","name":"Rheinland-Pfalz"}},{"name":"Friedensstr.","postalCode":"55583","locality":"Bad Kreuznach","municipality":{"key":"07133006","name":"Bad Kreuznach, Stadt","type":"Stadt"},"district":{"key":"07133","name":"Bad Kreuznach","type":"Landkreis"},"federalState":{"key":"07","name":"Rheinland-Pfalz"}},{"name":"Friedhofsweg","postalCode":"55545","locality":"Bad Kreuznach","municipality":{"key":"07133006","name":"Bad Kreuznach, Stadt","type":"Stadt"},"district":{"key":"07133","name":"Bad Kreuznach","type":"Landkreis"},"federalState":{"key":"07","name":"Rheinland-Pfalz"}},{"name":"Friedrichstr.","postalCode":"55543","locality":"Bad Kreuznach","municipality":{"key":"07133006","name":"Bad Kreuznach, Stadt","type":"Stadt"},"district":{"key":"07133","name":"Bad Kreuznach","type":"Landkreis"},"federalState":{"key":"07","name":"Rheinland-Pfalz"}},{"name":"Füllscheuer","postalCode":"55543","locality":"Bad Kreuznach","municipality":{"key":"07133006","name":"Bad Kreuznach, Stadt","type":"Stadt"},"district":{"key":"07133","name":"Bad Kreuznach","type":"Landkreis"},"federalState":{"key":"07","name":"Rheinland-Pfalz"}},{"name":"Gänsweide","postalCode":"55444","locality":"Waldlaubersheim","municipality":{"key":"07133108","name":"Waldlaubersheim","type":"Kreisangehörige_Gemeinde"},"district":{"key":"07133","name":"Bad Kreuznach","type":"Landkreis"},"federalState":{"key":"07","name":"Rheinland-Pfalz"}},{"name":"Genheimer Str.","postalCode":"55444","locality":"Waldlaubersheim","municipality":{"key":"07133108","name":"Waldlaubersheim","type":"Kreisangehörige_Gemeinde"},"district":{"key":"07133","name":"Bad Kreuznach","type":"Landkreis"},"federalState":{"key":"07","name":"Rheinland-Pfalz"}},{"name":"Hellerweg","postalCode":"55444","locality":"Waldlaubersheim","municipality":{"key":"07133108","name":"Waldlaubersheim","type":"Kreisangehörige_Gemeinde"},"district":{"key":"07133","name":"Bad Kreuznach","type":"Landkreis"},"federalState":{"key":"07","name":"Rheinland-Pfalz"}},{"name":"Hintergasse","postalCode":"55444","locality":"Waldlaubersheim","municipality":{"key":"07133108","name":"Waldlaubersheim","type":"Kreisangehörige_Gemeinde"},"district":{"key":"07133","name":"Bad Kreuznach","type":"Landkreis"},"federalState":{"key":"07","name":"Rheinland-Pfalz"}},{"name":"Im Brühl","postalCode":"55444","locality":"Waldlaubersheim","municipality":{"key":"07133108","name":"Waldlaubersheim","type":"Kreisangehörige_Gemeinde"},"district":{"key":"07133","name":"Bad Kreuznach","type":"Landkreis"},"federalState":{"key":"07","name":"Rheinland-Pfalz"}},{"name":"Im Dammental","postalCode":"55444","locality":"Waldlaubersheim","municipality":{"key":"07133108","name":"Waldlaubersheim","type":"Kreisangehörige_Gemeinde"},"district":{"key":"07133","name":"Bad Kreuznach","type":"Landkreis"},"federalState":{"key":"07","name":"Rheinland-Pfalz"}},{"name":"Im Füllkeller","postalCode":"55444","locality":"Waldlaubersheim","municipality":{"key":"07133108","name":"Waldlaubersheim","type":"Kreisangehörige_Gemeinde"},"district":{"key":"07133","name":"Bad Kreuznach","type":"Landkreis"},"federalState":{"key":"07","name":"Rheinland-Pfalz"}},{"name":"Im Mittelpfad","postalCode":"55444","locality":"Waldlaubersheim","municipality":{"key":"07133108","name":"Waldlaubersheim","type":"Kreisangehörige_Gemeinde"},"district":{"key":"07133","name":"Bad Kreuznach","type":"Landkreis"},"federalState":{"key":"07","name":"Rheinland-Pfalz"}},{"name":"Im Otterberg","postalCode":"55444","locality":"Waldlaubersheim","municipality":{"key":"07133108","name":"Waldlaubersheim","type":"Kreisangehörige_Gemeinde"},"district":{"key":"07133","name":"Bad Kreuznach","type":"Landkreis"},"federalState":{"key":"07","name":"Rheinland-Pfalz"}},{"name":"Im Schlossgarten","postalCode":"55444","locality":"Waldlaubersheim","municipality":{"key":"07133108","name":"Waldlaubersheim","type":"Kreisangehörige_Gemeinde"},"district":{"key":"07133","name":"Bad Kreuznach","type":"Landkreis"},"federalState":{"key":"07","name":"Rheinland-Pfalz"}},{"name":"Im Schlosshof","postalCode":"55444","locality":"Waldlaubersheim","municipality":{"key":"07133108","name":"Waldlaubersheim","type":"Kreisangehörige_Gemeinde"},"district":{"key":"07133","name":"Bad Kreuznach","type":"Landkreis"},"federalState":{"key":"07","name":"Rheinland-Pfalz"}},{"name":"Im Winkel","postalCode":"55444","locality":"Waldlaubersheim","municipality":{"key":"07133108","name":"Waldlaubersheim","type":"Kreisangehörige_Gemeinde"},"district":{"key":"07133","name":"Bad Kreuznach","type":"Landkreis"},"federalState":{"key":"07","name":"Rheinland-Pfalz"}},{"name":"In der Mulde","postalCode":"55444","locality":"Waldlaubersheim","municipality":{"key":"07133108","name":"Waldlaubersheim","type":"Kreisangehörige_Gemeinde"},"district":{"key":"07133","name":"Bad Kreuznach","type":"Landkreis"},"federalState":{"key":"07","name":"Rheinland-Pfalz"}},{"name":"Jahnstr.","postalCode":"55583","locality":"Bad Kreuznach","municipality":{"key":"07133006","name":"Bad Kreuznach, Stadt","type":"Stadt"},"district":{"key":"07133","name":"Bad Kreuznach","type":"Landkreis"},"federalState":{"key":"07","name":"Rheinland-Pfalz"}},{"name":"Jahrmarktsbrücke","postalCode":"55543","locality":"Bad Kreuznach","municipality":{"key":"07133006","name":"Bad Kreuznach, Stadt","type":"Stadt"},"district":{"key":"07133","name":"Bad Kreuznach","type":"Landkreis"},"federalState":{"key":"07","name":"Rheinland-Pfalz"}},{"name":"Jahrmarktsbrücke","postalCode":"55545","locality":"Bad Kreuznach","municipality":{"key":"07133006","name":"Bad Kreuznach, Stadt","type":"Stadt"},"district":{"key":"07133","name":"Bad Kreuznach","type":"Landkreis"},"federalState":{"key":"07","name":"Rheinland-Pfalz"}},{"name":"Jean-Winckler-Str.","postalCode":"55543","locality":"Bad Kreuznach","municipality":{"key":"07133006","name":"Bad Kreuznach, Stadt","type":"Stadt"},"district":{"key":"07133","name":"Bad Kreuznach","type":"Landkreis"},"federalState":{"key":"07","name":"Rheinland-Pfalz"}},{"name":"Johannes-Kaup-Str.","postalCode":"55543","locality":"Bad Kreuznach","municipality":{"key":"07133006","name":"Bad Kreuznach, Stadt","type":"Stadt"},"district":{"key":"07133","name":"Bad Kreuznach","type":"Landkreis"},"federalState":{"key":"07","name":"Rheinland-Pfalz"}},{"name":"Johannisstr.","postalCode":"55545","locality":"Bad Kreuznach","municipality":{"key":"07133006","name":"Bad Kreuznach, Stadt","type":"Stadt"},"district":{"key":"07133","name":"Bad Kreuznach","type":"Landkreis"},"federalState":{"key":"07","name":"Rheinland-Pfalz"}},{"name":"Johann-Sebastian-Bach-Str.","postalCode":"55543","locality":"Bad Kreuznach","municipality":{"key":"07133006","name":"Bad Kreuznach, Stadt","type":"Stadt"},"district":{"key":"07133","name":"Bad Kreuznach","type":"Landkreis"},"federalState":{"key":"07","name":"Rheinland-Pfalz"}},{"name":"John-F.-Kennedy-Str.","postalCode":"55543","locality":"Bad Kreuznach","municipality":{"key":"07133006","name":"Bad Kreuznach, Stadt","type":"Stadt"},"district":{"key":"07133","name":"Bad Kreuznach","type":"Landkreis"},"federalState":{"key":"07","name":"Rheinland-Pfalz"}},{"name":"Johrmarktsbrick","postalCode":"55543","locality":"Bad Kreuznach","municipality":{"key":"07133006","name":"Bad Kreuznach, Stadt","type":"Stadt"},"district":{"key":"07133","name":"Bad Kreuznach","type":"Landkreis"},"federalState":{"key":"07","name":"Rheinland-Pfalz"}},{"name":"Josef-Förster-Str.","postalCode":"55545","locality":"Bad Kreuznach","municipality":{"key":"07133006","name":"Bad Kreuznach, Stadt","type":"Stadt"},"district":{"key":"07133","name":"Bad Kreuznach","type":"Landkreis"},"federalState":{"key":"07","name":"Rheinland-Pfalz"}},{"name":"Josef-Schneider-Str.","postalCode":"55543","locality":"Bad Kreuznach","municipality":{"key":"07133006","name":"Bad Kreuznach, Stadt","type":"Stadt"},"district":{"key":"07133","name":"Bad Kreuznach","type":"Landkreis"},"federalState":{"key":"07","name":"Rheinland-Pfalz"}},{"name":"Jungstr.","postalCode":"55543","locality":"Bad Kreuznach","municipality":{"key":"07133006","name":"Bad Kreuznach, Stadt","type":"Stadt"},"district":{"key":"07133","name":"Bad Kreuznach","type":"Landkreis"},"federalState":{"key":"07","name":"Rheinland-Pfalz"}},{"name":"Junkerstr.","postalCode":"55545","locality":"Bad Kreuznach","municipality":{"key":"07133006","name":"Bad Kreuznach, Stadt","type":"Stadt"},"district":{"key":"07133","name":"Bad Kreuznach","type":"Landkreis"},"federalState":{"key":"07","name":"Rheinland-Pfalz"}},{"name":"Jupiterstr.","postalCode":"55545","locality":"Bad Kreuznach","municipality":{"key":"07133006","name":"Bad Kreuznach, Stadt","type":"Stadt"},"district":{"key":"07133","name":"Bad Kreuznach","type":"Landkreis"},"federalState":{"key":"07","name":"Rheinland-Pfalz"}},{"name":"Kolberger Weg","postalCode":"55444","locality":"Waldlaubersheim","municipality":{"key":"07133108","name":"Waldlaubersheim","type":"Kreisangehörige_Gemeinde"},"district":{"key":"07133","name":"Bad Kreuznach","type":"Landkreis"},"federalState":{"key":"07","name":"Rheinland-Pfalz"}},{"name":"Königsberger Str.","postalCode":"55444","locality":"Waldlaubersheim","municipality":{"key":"07133108","name":"Waldlaubersheim","type":"Kreisangehörige_Gemeinde"},"district":{"key":"07133","name":"Bad Kreuznach","type":"Landkreis"},"federalState":{"key":"07","name":"Rheinland-Pfalz"}},{"name":"Lämmergasse","postalCode":"55545","locality":"Bad Kreuznach","municipality":{"key":"07133006","name":"Bad Kreuznach, Stadt","type":"Stadt"},"district":{"key":"07133","name":"Bad Kreuznach","type":"Landkreis"},"federalState":{"key":"07","name":"Rheinland-Pfalz"}},{"name":"Landfuhrbrücke","postalCode":"55543","locality":"Bad Kreuznach","municipality":{"key":"07133006","name":"Bad Kreuznach, Stadt","type":"Stadt"},"district":{"key":"07133","name":"Bad Kreuznach","type":"Landkreis"},"federalState":{"key":"07","name":"Rheinland-Pfalz"}},{"name":"Langenlonsheimer Str.","postalCode":"55545","locality":"Bad Kreuznach","municipality":{"key":"07133006","name":"Bad Kreuznach, Stadt","type":"Stadt"},"district":{"key":"07133","name":"Bad Kreuznach","type":"Landkreis"},"federalState":{"key":"07","name":"Rheinland-Pfalz"}},{"name":"Langobardenstr.","postalCode":"55545","locality":"Bad Kreuznach","municipality":{"key":"07133006","name":"Bad Kreuznach, Stadt","type":"Stadt"},"district":{"key":"07133","name":"Bad Kreuznach","type":"Landkreis"},"federalState":{"key":"07","name":"Rheinland-Pfalz"}},{"name":"Laurentiusstr.","postalCode":"55545","locality":"Bad Kreuznach","municipality":{"key":"07133006","name":"Bad Kreuznach, Stadt","type":"Stadt"},"district":{"key":"07133","name":"Bad Kreuznach","type":"Landkreis"},"federalState":{"key":"07","name":"Rheinland-Pfalz"}},{"name":"Ledderhoser Weg","postalCode":"55543","locality":"Bad Kreuznach","municipality":{"key":"07133006","name":"Bad Kreuznach, Stadt","type":"Stadt"},"district":{"key":"07133","name":"Bad Kreuznach","type":"Landkreis"},"federalState":{"key":"07","name":"Rheinland-Pfalz"}},{"name":"Lenbachweg","postalCode":"55543","locality":"Bad Kreuznach","municipality":{"key":"07133006","name":"Bad Kreuznach, Stadt","type":"Stadt"},"district":{"key":"07133","name":"Bad Kreuznach","type":"Landkreis"},"federalState":{"key":"07","name":"Rheinland-Pfalz"}},{"name":"Lessingstr.","postalCode":"55543","locality":"Bad Kreuznach","municipality":{"key":"07133006","name":"Bad Kreuznach, Stadt","type":"Stadt"},"district":{"key":"07133","name":"Bad Kreuznach","type":"Landkreis"},"federalState":{"key":"07","name":"Rheinland-Pfalz"}},{"name":"Letzter Galgenberger Weg","postalCode":"55543","locality":"Bad Kreuznach","municipality":{"key":"07133006","name":"Bad Kreuznach, Stadt","type":"Stadt"},"district":{"key":"07133","name":"Bad Kreuznach","type":"Landkreis"},"federalState":{"key":"07","name":"Rheinland-Pfalz"}},{"name":"Liegnitzer Str.","postalCode":"55543","locality":"Bad Kreuznach","municipality":{"key":"07133006","name":"Bad Kreuznach, Stadt","type":"Stadt"},"district":{"key":"07133","name":"Bad Kreuznach","type":"Landkreis"},"federalState":{"key":"07","name":"Rheinland-Pfalz"}},{"name":"Lina-Hilger-Str.","postalCode":"55543","locality":"Bad Kreuznach","municipality":{"key":"07133006","name":"Bad Kreuznach, Stadt","type":"Stadt"},"district":{"key":"07133","name":"Bad Kreuznach","type":"Landkreis"},"federalState":{"key":"07","name":"Rheinland-Pfalz"}},{"name":"Lindelstr.","postalCode":"55545","locality":"Bad Kreuznach","municipality":{"key":"07133006","name":"Bad Kreuznach, Stadt","type":"Stadt"},"district":{"key":"07133","name":"Bad Kreuznach","type":"Landkreis"},"federalState":{"key":"07","name":"Rheinland-Pfalz"}},{"name":"Lindenallee","postalCode":"55583","locality":"Bad Kreuznach","municipality":{"key":"07133006","name":"Bad Kreuznach, Stadt","type":"Stadt"},"district":{"key":"07133","name":"Bad Kreuznach","type":"Landkreis"},"federalState":{"key":"07","name":"Rheinland-Pfalz"}},{"name":"Lisztstr.","postalCode":"55543","locality":"Bad Kreuznach","municipality":{"key":"07133006","name":"Bad Kreuznach, Stadt","type":"Stadt"},"district":{"key":"07133","name":"Bad Kreuznach","type":"Landkreis"},"federalState":{"key":"07","name":"Rheinland-Pfalz"}},{"name":"Lohrer Hof","postalCode":"55545","locality":"Bad Kreuznach","municipality":{"key":"07133006","name":"Bad Kreuznach, Stadt","type":"Stadt"},"district":{"key":"07133","name":"Bad Kreuznach","type":"Landkreis"},"federalState":{"key":"07","name":"Rheinland-Pfalz"}},{"name":"Lohrer Mühle","postalCode":"55545","locality":"Bad Kreuznach","municipality":{"key":"07133006","name":"Bad Kreuznach, Stadt","type":"Stadt"},"district":{"key":"07133","name":"Bad Kreuznach","type":"Landkreis"},"federalState":{"key":"07","name":"Rheinland-Pfalz"}},{"name":"Lucas-Cranach-Str.","postalCode":"55543","locality":"Bad Kreuznach","municipality":{"key":"07133006","name":"Bad Kreuznach, Stadt","type":"Stadt"},"district":{"key":"07133","name":"Bad Kreuznach","type":"Landkreis"},"federalState":{"key":"07","name":"Rheinland-Pfalz"}},{"name":"Ludwig-Kientzler-Str.","postalCode":"55543","locality":"Bad Kreuznach","municipality":{"key":"07133006","name":"Bad Kreuznach, Stadt","type":"Stadt"},"district":{"key":"07133","name":"Bad Kreuznach","type":"Landkreis"},"federalState":{"key":"07","name":"Rheinland-Pfalz"}},{"name":"Luisenstr.","postalCode":"55583","locality":"Bad Kreuznach","municipality":{"key":"07133006","name":"Bad Kreuznach, Stadt","type":"Stadt"},"district":{"key":"07133","name":"Bad Kreuznach","type":"Landkreis"},"federalState":{"key":"07","name":"Rheinland-Pfalz"}},{"name":"Magister-Faust-Gasse","postalCode":"55545","locality":"Bad Kreuznach","municipality":{"key":"07133006","name":"Bad Kreuznach, Stadt","type":"Stadt"},"district":{"key":"07133","name":"Bad Kreuznach","type":"Landkreis"},"federalState":{"key":"07","name":"Rheinland-Pfalz"}},{"name":"Mainzer Str.","postalCode":"55545","locality":"Bad Kreuznach","municipality":{"key":"07133006","name":"Bad Kreuznach, Stadt","type":"Stadt"},"district":{"key":"07133","name":"Bad Kreuznach","type":"Landkreis"},"federalState":{"key":"07","name":"Rheinland-Pfalz"}},{"name":"Maler-Faber-Str.","postalCode":"55545","locality":"Bad Kreuznach","municipality":{"key":"07133006","name":"Bad Kreuznach, Stadt","type":"Stadt"},"district":{"key":"07133","name":"Bad Kreuznach","type":"Landkreis"},"federalState":{"key":"07","name":"Rheinland-Pfalz"}},{"name":"Maler-Müller-Str.","postalCode":"55545","locality":"Bad Kreuznach","municipality":{"key":"07133006","name":"Bad Kreuznach, Stadt","type":"Stadt"},"district":{"key":"07133","name":"Bad Kreuznach","type":"Landkreis"},"federalState":{"key":"07","name":"Rheinland-Pfalz"}},{"name":"Mannheimer Str.","postalCode":"55543","locality":"Bad Kreuznach","municipality":{"key":"07133006","name":"Bad Kreuznach, Stadt","type":"Stadt"},"district":{"key":"07133","name":"Bad Kreuznach","type":"Landkreis"},"federalState":{"key":"07","name":"Rheinland-Pfalz"}},{"name":"Mannheimer Str.","postalCode":"55545","locality":"Bad Kreuznach","municipality":{"key":"07133006","name":"Bad Kreuznach, Stadt","type":"Stadt"},"district":{"key":"07133","name":"Bad Kreuznach","type":"Landkreis"},"federalState":{"key":"07","name":"Rheinland-Pfalz"}},{"name":"Manteuffelstr.","postalCode":"55543","locality":"Bad Kreuznach","municipality":{"key":"07133006","name":"Bad Kreuznach, Stadt","type":"Stadt"},"district":{"key":"07133","name":"Bad Kreuznach","type":"Landkreis"},"federalState":{"key":"07","name":"Rheinland-Pfalz"}},{"name":"Märchenhain","postalCode":"55583","locality":"Bad Kreuznach","municipality":{"key":"07133006","name":"Bad Kreuznach, Stadt","type":"Stadt"},"district":{"key":"07133","name":"Bad Kreuznach","type":"Landkreis"},"federalState":{"key":"07","name":"Rheinland-Pfalz"}},{"name":"Margot-Pottlitzer-Strauß-Str.","postalCode":"55543","locality":"Bad Kreuznach","municipality":{"key":"07133006","name":"Bad Kreuznach, Stadt","type":"Stadt"},"district":{"key":"07133","name":"Bad Kreuznach","type":"Landkreis"},"federalState":{"key":"07","name":"Rheinland-Pfalz"}},{"name":"Marienburger Str.","postalCode":"55543","locality":"Bad Kreuznach","municipality":{"key":"07133006","name":"Bad Kreuznach, Stadt","type":"Stadt"},"district":{"key":"07133","name":"Bad Kreuznach","type":"Landkreis"},"federalState":{"key":"07","name":"Rheinland-Pfalz"}},{"name":"Märkische Str.","postalCode":"55543","locality":"Bad Kreuznach","municipality":{"key":"07133006","name":"Bad Kreuznach, Stadt","type":"Stadt"},"district":{"key":"07133","name":"Bad Kreuznach","type":"Landkreis"},"federalState":{"key":"07","name":"Rheinland-Pfalz"}},{"name":"Marktstr.","postalCode":"55545","locality":"Bad Kreuznach","municipality":{"key":"07133006","name":"Bad Kreuznach, Stadt","type":"Stadt"},"district":{"key":"07133","name":"Bad Kreuznach","type":"Landkreis"},"federalState":{"key":"07","name":"Rheinland-Pfalz"}},{"name":"Martinsblick","postalCode":"55545","locality":"Bad Kreuznach","municipality":{"key":"07133006","name":"Bad Kreuznach, Stadt","type":"Stadt"},"district":{"key":"07133","name":"Bad Kreuznach","type":"Landkreis"},"federalState":{"key":"07","name":"Rheinland-Pfalz"}},{"name":"Mathildenstr.","postalCode":"55543","locality":"Bad Kreuznach","municipality":{"key":"07133006","name":"Bad Kreuznach, Stadt","type":"Stadt"},"district":{"key":"07133","name":"Bad Kreuznach","type":"Landkreis"},"federalState":{"key":"07","name":"Rheinland-Pfalz"}},{"name":"Matthias-Grünewald-Str.","postalCode":"55543","locality":"Bad Kreuznach","municipality":{"key":"07133006","name":"Bad Kreuznach, Stadt","type":"Stadt"},"district":{"key":"07133","name":"Bad Kreuznach","type":"Landkreis"},"federalState":{"key":"07","name":"Rheinland-Pfalz"}},{"name":"Max-Ernst-Str.","postalCode":"55543","locality":"Bad Kreuznach","municipality":{"key":"07133006","name":"Bad Kreuznach, Stadt","type":"Stadt"},"district":{"key":"07133","name":"Bad Kreuznach","type":"Landkreis"},"federalState":{"key":"07","name":"Rheinland-Pfalz"}},{"name":"Maximus-Urbanus-Str.","postalCode":"55545","locality":"Bad Kreuznach","municipality":{"key":"07133006","name":"Bad Kreuznach, Stadt","type":"Stadt"},"district":{"key":"07133","name":"Bad Kreuznach","type":"Landkreis"},"federalState":{"key":"07","name":"Rheinland-Pfalz"}},{"name":"Max-Liebermann-Str.","postalCode":"55543","locality":"Bad Kreuznach","municipality":{"key":"07133006","name":"Bad Kreuznach, Stadt","type":"Stadt"},"district":{"key":"07133","name":"Bad Kreuznach","type":"Landkreis"},"federalState":{"key":"07","name":"Rheinland-Pfalz"}},{"name":"Max-Planck-Str.","postalCode":"55545","locality":"Bad Kreuznach","municipality":{"key":"07133006","name":"Bad Kreuznach, Stadt","type":"Stadt"},"district":{"key":"07133","name":"Bad Kreuznach","type":"Landkreis"},"federalState":{"key":"07","name":"Rheinland-Pfalz"}},{"name":"Max-Slevogt-Str.","postalCode":"55543","locality":"Bad Kreuznach","municipality":{"key":"07133006","name":"Bad Kreuznach, Stadt","type":"Stadt"},"district":{"key":"07133","name":"Bad Kreuznach","type":"Landkreis"},"federalState":{"key":"07","name":"Rheinland-Pfalz"}},{"name":"Memeler Str.","postalCode":"55543","locality":"Bad Kreuznach","municipality":{"key":"07133006","name":"Bad Kreuznach, Stadt","type":"Stadt"},"district":{"key":"07133","name":"Bad Kreuznach","type":"Landkreis"},"federalState":{"key":"07","name":"Rheinland-Pfalz"}},{"name":"Merowingerstr.","postalCode":"55545","locality":"Bad Kreuznach","municipality":{"key":"07133006","name":"Bad Kreuznach, Stadt","type":"Stadt"},"district":{"key":"07133","name":"Bad Kreuznach","type":"Landkreis"},"federalState":{"key":"07","name":"Rheinland-Pfalz"}},{"name":"Metzgergasse","postalCode":"55545","locality":"Bad Kreuznach","municipality":{"key":"07133006","name":"Bad Kreuznach, Stadt","type":"Stadt"},"district":{"key":"07133","name":"Bad Kreuznach","type":"Landkreis"},"federalState":{"key":"07","name":"Rheinland-Pfalz"}},{"name":"Michel-Mort-Gasse","postalCode":"55545","locality":"Bad Kreuznach","municipality":{"key":"07133006","name":"Bad Kreuznach, Stadt","type":"Stadt"},"district":{"key":"07133","name":"Bad Kreuznach","type":"Landkreis"},"federalState":{"key":"07","name":"Rheinland-Pfalz"}},{"name":"Milchgasse","postalCode":"55545","locality":"Bad Kreuznach","municipality":{"key":"07133006","name":"Bad Kreuznach, Stadt","type":"Stadt"},"district":{"key":"07133","name":"Bad Kreuznach","type":"Landkreis"},"federalState":{"key":"07","name":"Rheinland-Pfalz"}},{"name":"Mittlerer Flurweg","postalCode":"55543","locality":"Bad Kreuznach","municipality":{"key":"07133006","name":"Bad Kreuznach, Stadt","type":"Stadt"},"district":{"key":"07133","name":"Bad Kreuznach","type":"Landkreis"},"federalState":{"key":"07","name":"Rheinland-Pfalz"}},{"name":"Mittlerer Galgenberger Weg","postalCode":"55543","locality":"Bad Kreuznach","municipality":{"key":"07133006","name":"Bad Kreuznach, Stadt","type":"Stadt"},"district":{"key":"07133","name":"Bad Kreuznach","type":"Landkreis"},"federalState":{"key":"07","name":"Rheinland-Pfalz"}},{"name":"Möbusstr.","postalCode":"55543","locality":"Bad Kreuznach","municipality":{"key":"07133006","name":"Bad Kreuznach, Stadt","type":"Stadt"},"district":{"key":"07133","name":"Bad Kreuznach","type":"Landkreis"},"federalState":{"key":"07","name":"Rheinland-Pfalz"}},{"name":"Moltkestr.","postalCode":"55543","locality":"Bad Kreuznach","municipality":{"key":"07133006","name":"Bad Kreuznach, Stadt","type":"Stadt"},"district":{"key":"07133","name":"Bad Kreuznach","type":"Landkreis"},"federalState":{"key":"07","name":"Rheinland-Pfalz"}},{"name":"Mönchberg","postalCode":"55545","locality":"Bad Kreuznach","municipality":{"key":"07133006","name":"Bad Kreuznach, Stadt","type":"Stadt"},"district":{"key":"07133","name":"Bad Kreuznach","type":"Landkreis"},"federalState":{"key":"07","name":"Rheinland-Pfalz"}},{"name":"Mönchstr.","postalCode":"55545","locality":"Bad Kreuznach","municipality":{"key":"07133006","name":"Bad Kreuznach, Stadt","type":"Stadt"},"district":{"key":"07133","name":"Bad Kreuznach","type":"Landkreis"},"federalState":{"key":"07","name":"Rheinland-Pfalz"}},{"name":"Mörikestr.","postalCode":"55543","locality":"Bad Kreuznach","municipality":{"key":"07133006","name":"Bad Kreuznach, Stadt","type":"Stadt"},"district":{"key":"07133","name":"Bad Kreuznach","type":"Landkreis"},"federalState":{"key":"07","name":"Rheinland-Pfalz"}},{"name":"Mozartstr.","postalCode":"55543","locality":"Bad Kreuznach","municipality":{"key":"07133006","name":"Bad Kreuznach, Stadt","type":"Stadt"},"district":{"key":"07133","name":"Bad Kreuznach","type":"Landkreis"},"federalState":{"key":"07","name":"Rheinland-Pfalz"}},{"name":"Mozartstr.","postalCode":"55583","locality":"Bad Kreuznach","municipality":{"key":"07133006","name":"Bad Kreuznach, Stadt","type":"Stadt"},"district":{"key":"07133","name":"Bad Kreuznach","type":"Landkreis"},"federalState":{"key":"07","name":"Rheinland-Pfalz"}},{"name":"Mühlenstr.","postalCode":"55543","locality":"Bad Kreuznach","municipality":{"key":"07133006","name":"Bad Kreuznach, Stadt","type":"Stadt"},"district":{"key":"07133","name":"Bad Kreuznach","type":"Landkreis"},"federalState":{"key":"07","name":"Rheinland-Pfalz"}},{"name":"Mühlweg","postalCode":"55545","locality":"Bad Kreuznach","municipality":{"key":"07133006","name":"Bad Kreuznach, Stadt","type":"Stadt"},"district":{"key":"07133","name":"Bad Kreuznach","type":"Landkreis"},"federalState":{"key":"07","name":"Rheinland-Pfalz"}},{"name":"Müller-Thurgauweg","postalCode":"55583","locality":"Bad Kreuznach","municipality":{"key":"07133006","name":"Bad Kreuznach, Stadt","type":"Stadt"},"district":{"key":"07133","name":"Bad Kreuznach","type":"Landkreis"},"federalState":{"key":"07","name":"Rheinland-Pfalz"}},{"name":"Nur Autobahnmeisterei","postalCode":"55444","locality":"Waldlaubersheim","municipality":{"key":"07133108","name":"Waldlaubersheim","type":"Kreisangehörige_Gemeinde"},"district":{"key":"07133","name":"Bad Kreuznach","type":"Landkreis"},"federalState":{"key":"07","name":"Rheinland-Pfalz"}},{"name":"Oberbürgermeister-Buß-Str.","postalCode":"55543","locality":"Bad Kreuznach","municipality":{"key":"07133006","name":"Bad Kreuznach, Stadt","type":"Stadt"},"district":{"key":"07133","name":"Bad Kreuznach","type":"Landkreis"},"federalState":{"key":"07","name":"Rheinland-Pfalz"}},{"name":"Obere Flotz","postalCode":"55543","locality":"Bad Kreuznach","municipality":{"key":"07133006","name":"Bad Kreuznach, Stadt","type":"Stadt"},"district":{"key":"07133","name":"Bad Kreuznach","type":"Landkreis"},"federalState":{"key":"07","name":"Rheinland-Pfalz"}},{"name":"Obere Gartenstr.","postalCode":"55545","locality":"Bad Kreuznach","municipality":{"key":"07133006","name":"Bad Kreuznach, Stadt","type":"Stadt"},"district":{"key":"07133","name":"Bad Kreuznach","type":"Landkreis"},"federalState":{"key":"07","name":"Rheinland-Pfalz"}},{"name":"Oberer Monauweg","postalCode":"55543","locality":"Bad Kreuznach","municipality":{"key":"07133006","name":"Bad Kreuznach, Stadt","type":"Stadt"},"district":{"key":"07133","name":"Bad Kreuznach","type":"Landkreis"},"federalState":{"key":"07","name":"Rheinland-Pfalz"}},{"name":"Oberer Mühlweg","postalCode":"55545","locality":"Bad Kreuznach","municipality":{"key":"07133006","name":"Bad Kreuznach, Stadt","type":"Stadt"},"district":{"key":"07133","name":"Bad Kreuznach","type":"Landkreis"},"federalState":{"key":"07","name":"Rheinland-Pfalz"}},{"name":"Oceanus-Str.","postalCode":"55545","locality":"Bad Kreuznach","municipality":{"key":"07133006","name":"Bad Kreuznach, Stadt","type":"Stadt"},"district":{"key":"07133","name":"Bad Kreuznach","type":"Landkreis"},"federalState":{"key":"07","name":"Rheinland-Pfalz"}},{"name":"Oligsberg","postalCode":"55543","locality":"Bad Kreuznach","municipality":{"key":"07133006","name":"Bad Kreuznach, Stadt","type":"Stadt"},"district":{"key":"07133","name":"Bad Kreuznach","type":"Landkreis"},"federalState":{"key":"07","name":"Rheinland-Pfalz"}},{"name":"Oranienpark","postalCode":"55543","locality":"Bad Kreuznach","municipality":{"key":"07133006","name":"Bad Kreuznach, Stadt","type":"Stadt"},"district":{"key":"07133","name":"Bad Kreuznach","type":"Landkreis"},"federalState":{"key":"07","name":"Rheinland-Pfalz"}},{"name":"Oranienstr.","postalCode":"55543","locality":"Bad Kreuznach","municipality":{"key":"07133006","name":"Bad Kreuznach, Stadt","type":"Stadt"},"district":{"key":"07133","name":"Bad Kreuznach","type":"Landkreis"},"federalState":{"key":"07","name":"Rheinland-Pfalz"}},{"name":"Orffstr.","postalCode":"55543","locality":"Bad Kreuznach","municipality":{"key":"07133006","name":"Bad Kreuznach, Stadt","type":"Stadt"},"district":{"key":"07133","name":"Bad Kreuznach","type":"Landkreis"},"federalState":{"key":"07","name":"Rheinland-Pfalz"}},{"name":"Ortegaweg","postalCode":"55543","locality":"Bad Kreuznach","municipality":{"key":"07133006","name":"Bad Kreuznach, Stadt","type":"Stadt"},"district":{"key":"07133","name":"Bad Kreuznach","type":"Landkreis"},"federalState":{"key":"07","name":"Rheinland-Pfalz"}},{"name":"Otto-Hersing-Str.","postalCode":"55545","locality":"Bad Kreuznach","municipality":{"key":"07133006","name":"Bad Kreuznach, Stadt","type":"Stadt"},"district":{"key":"07133","name":"Bad Kreuznach","type":"Landkreis"},"federalState":{"key":"07","name":"Rheinland-Pfalz"}},{"name":"Otto-Meffert-Str.","postalCode":"55543","locality":"Bad Kreuznach","municipality":{"key":"07133006","name":"Bad Kreuznach, Stadt","type":"Stadt"},"district":{"key":"07133","name":"Bad Kreuznach","type":"Landkreis"},"federalState":{"key":"07","name":"Rheinland-Pfalz"}},{"name":"Pappelweg","postalCode":"55543","locality":"Bad Kreuznach","municipality":{"key":"07133006","name":"Bad Kreuznach, Stadt","type":"Stadt"},"district":{"key":"07133","name":"Bad Kreuznach","type":"Landkreis"},"federalState":{"key":"07","name":"Rheinland-Pfalz"}},{"name":"Park der Sinne","postalCode":"55543","locality":"Bad Kreuznach","municipality":{"key":"07133006","name":"Bad Kreuznach, Stadt","type":"Stadt"},"district":{"key":"07133","name":"Bad Kreuznach","type":"Landkreis"},"federalState":{"key":"07","name":"Rheinland-Pfalz"}},{"name":"Parkstr.","postalCode":"55545","locality":"Bad Kreuznach","municipality":{"key":"07133006","name":"Bad Kreuznach, Stadt","type":"Stadt"},"district":{"key":"07133","name":"Bad Kreuznach","type":"Landkreis"},"federalState":{"key":"07","name":"Rheinland-Pfalz"}},{"name":"Paul-Barberot-Str.","postalCode":"55543","locality":"Bad Kreuznach","municipality":{"key":"07133006","name":"Bad Kreuznach, Stadt","type":"Stadt"},"district":{"key":"07133","name":"Bad Kreuznach","type":"Landkreis"},"federalState":{"key":"07","name":"Rheinland-Pfalz"}},{"name":"Paul-Hindemith-Str.","postalCode":"55543","locality":"Bad Kreuznach","municipality":{"key":"07133006","name":"Bad Kreuznach, Stadt","type":"Stadt"},"district":{"key":"07133","name":"Bad Kreuznach","type":"Landkreis"},"federalState":{"key":"07","name":"Rheinland-Pfalz"}},{"name":"Paul-Klee-Str.","postalCode":"55543","locality":"Bad Kreuznach","municipality":{"key":"07133006","name":"Bad Kreuznach, Stadt","type":"Stadt"},"district":{"key":"07133","name":"Bad Kreuznach","type":"Landkreis"},"federalState":{"key":"07","name":"Rheinland-Pfalz"}},{"name":"Paul Schneider Weg","postalCode":"55545","locality":"Bad Kreuznach","municipality":{"key":"07133006","name":"Bad Kreuznach, Stadt","type":"Stadt"},"district":{"key":"07133","name":"Bad Kreuznach","type":"Landkreis"},"federalState":{"key":"07","name":"Rheinland-Pfalz"}},{"name":"Pestalozzistr.","postalCode":"55543","locality":"Bad Kreuznach","municipality":{"key":"07133006","name":"Bad Kreuznach, Stadt","type":"Stadt"},"district":{"key":"07133","name":"Bad Kreuznach","type":"Landkreis"},"federalState":{"key":"07","name":"Rheinland-Pfalz"}},{"name":"Peter-Fink-Str.","postalCode":"55543","locality":"Bad Kreuznach","municipality":{"key":"07133006","name":"Bad Kreuznach, Stadt","type":"Stadt"},"district":{"key":"07133","name":"Bad Kreuznach","type":"Landkreis"},"federalState":{"key":"07","name":"Rheinland-Pfalz"}},{"name":"Petersgasse","postalCode":"55545","locality":"Bad Kreuznach","municipality":{"key":"07133006","name":"Bad Kreuznach, Stadt","type":"Stadt"},"district":{"key":"07133","name":"Bad Kreuznach","type":"Landkreis"},"federalState":{"key":"07","name":"Rheinland-Pfalz"}},{"name":"Pfalzsprung","postalCode":"55543","locality":"Bad Kreuznach","municipality":{"key":"07133006","name":"Bad Kreuznach, Stadt","type":"Stadt"},"district":{"key":"07133","name":"Bad Kreuznach","type":"Landkreis"},"federalState":{"key":"07","name":"Rheinland-Pfalz"}},{"name":"Pfalzstr.","postalCode":"55543","locality":"Bad Kreuznach","municipality":{"key":"07133006","name":"Bad Kreuznach, Stadt","type":"Stadt"},"district":{"key":"07133","name":"Bad Kreuznach","type":"Landkreis"},"federalState":{"key":"07","name":"Rheinland-Pfalz"}},{"name":"Pfalzstr.","postalCode":"55583","locality":"Bad Kreuznach","municipality":{"key":"07133006","name":"Bad Kreuznach, Stadt","type":"Stadt"},"district":{"key":"07133","name":"Bad Kreuznach","type":"Landkreis"},"federalState":{"key":"07","name":"Rheinland-Pfalz"}},{"name":"Pfarrer-Dr.-Nagel-Weg","postalCode":"55583","locality":"Bad Kreuznach","municipality":{"key":"07133006","name":"Bad Kreuznach, Stadt","type":"Stadt"},"district":{"key":"07133","name":"Bad Kreuznach","type":"Landkreis"},"federalState":{"key":"07","name":"Rheinland-Pfalz"}},{"name":"Pfarrer-Zimmermann-Weg","postalCode":"55583","locality":"Bad Kreuznach","municipality":{"key":"07133006","name":"Bad Kreuznach, Stadt","type":"Stadt"},"district":{"key":"07133","name":"Bad Kreuznach","type":"Landkreis"},"federalState":{"key":"07","name":"Rheinland-Pfalz"}},{"name":"Pfarrgarten","postalCode":"55545","locality":"Bad Kreuznach","municipality":{"key":"07133006","name":"Bad Kreuznach, Stadt","type":"Stadt"},"district":{"key":"07133","name":"Bad Kreuznach","type":"Landkreis"},"federalState":{"key":"07","name":"Rheinland-Pfalz"}},{"name":"Pfingstwiese","postalCode":"55545","locality":"Bad Kreuznach","municipality":{"key":"07133006","name":"Bad Kreuznach, Stadt","type":"Stadt"},"district":{"key":"07133","name":"Bad Kreuznach","type":"Landkreis"},"federalState":{"key":"07","name":"Rheinland-Pfalz"}},{"name":"Pfitznerstr.","postalCode":"55543","locality":"Bad Kreuznach","municipality":{"key":"07133006","name":"Bad Kreuznach, Stadt","type":"Stadt"},"district":{"key":"07133","name":"Bad Kreuznach","type":"Landkreis"},"federalState":{"key":"07","name":"Rheinland-Pfalz"}},{"name":"Philippstr.","postalCode":"55543","locality":"Bad Kreuznach","municipality":{"key":"07133006","name":"Bad Kreuznach, Stadt","type":"Stadt"},"district":{"key":"07133","name":"Bad Kreuznach","type":"Landkreis"},"federalState":{"key":"07","name":"Rheinland-Pfalz"}},{"name":"Planiger Str.","postalCode":"55543","locality":"Bad Kreuznach","municipality":{"key":"07133006","name":"Bad Kreuznach, Stadt","type":"Stadt"},"district":{"key":"07133","name":"Bad Kreuznach","type":"Landkreis"},"federalState":{"key":"07","name":"Rheinland-Pfalz"}},{"name":"Platz der ehemaligen Synagoge","postalCode":"55543","locality":"Bad Kreuznach","municipality":{"key":"07133006","name":"Bad Kreuznach, Stadt","type":"Stadt"},"district":{"key":"07133","name":"Bad Kreuznach","type":"Landkreis"},"federalState":{"key":"07","name":"Rheinland-Pfalz"}},{"name":"Pommernstr.","postalCode":"55545","locality":"Bad Kreuznach","municipality":{"key":"07133006","name":"Bad Kreuznach, Stadt","type":"Stadt"},"district":{"key":"07133","name":"Bad Kreuznach","type":"Landkreis"},"federalState":{"key":"07","name":"Rheinland-Pfalz"}},{"name":"Portugieserweg","postalCode":"55583","locality":"Bad Kreuznach","municipality":{"key":"07133006","name":"Bad Kreuznach, Stadt","type":"Stadt"},"district":{"key":"07133","name":"Bad Kreuznach","type":"Landkreis"},"federalState":{"key":"07","name":"Rheinland-Pfalz"}},{"name":"Poststr.","postalCode":"55545","locality":"Bad Kreuznach","municipality":{"key":"07133006","name":"Bad Kreuznach, Stadt","type":"Stadt"},"district":{"key":"07133","name":"Bad Kreuznach","type":"Landkreis"},"federalState":{"key":"07","name":"Rheinland-Pfalz"}},{"name":"Potsdamer Str.","postalCode":"55543","locality":"Bad Kreuznach","municipality":{"key":"07133006","name":"Bad Kreuznach, Stadt","type":"Stadt"},"district":{"key":"07133","name":"Bad Kreuznach","type":"Landkreis"},"federalState":{"key":"07","name":"Rheinland-Pfalz"}},{"name":"Potthoffstr.","postalCode":"55545","locality":"Bad Kreuznach","municipality":{"key":"07133006","name":"Bad Kreuznach, Stadt","type":"Stadt"},"district":{"key":"07133","name":"Bad Kreuznach","type":"Landkreis"},"federalState":{"key":"07","name":"Rheinland-Pfalz"}},{"name":"Pouilly-Brücke","postalCode":"55583","locality":"Bad Kreuznach","municipality":{"key":"07133006","name":"Bad Kreuznach, Stadt","type":"Stadt"},"district":{"key":"07133","name":"Bad Kreuznach","type":"Landkreis"},"federalState":{"key":"07","name":"Rheinland-Pfalz"}},{"name":"Prinz-Friedrich-Karl-Str.","postalCode":"55543","locality":"Bad Kreuznach","municipality":{"key":"07133006","name":"Bad Kreuznach, Stadt","type":"Stadt"},"district":{"key":"07133","name":"Bad Kreuznach","type":"Landkreis"},"federalState":{"key":"07","name":"Rheinland-Pfalz"}},{"name":"Rossweg","postalCode":"55444","locality":"Waldlaubersheim","municipality":{"key":"07133108","name":"Waldlaubersheim","type":"Kreisangehörige_Gemeinde"},"district":{"key":"07133","name":"Bad Kreuznach","type":"Landkreis"},"federalState":{"key":"07","name":"Rheinland-Pfalz"}},{"name":"Rother Weg","postalCode":"55444","locality":"Waldlaubersheim","municipality":{"key":"07133108","name":"Waldlaubersheim","type":"Kreisangehörige_Gemeinde"},"district":{"key":"07133","name":"Bad Kreuznach","type":"Landkreis"},"federalState":{"key":"07","name":"Rheinland-Pfalz"}},{"name":"Rümmelsheimer Weg","postalCode":"55444","locality":"Waldlaubersheim","municipality":{"key":"07133108","name":"Waldlaubersheim","type":"Kreisangehörige_Gemeinde"},"district":{"key":"07133","name":"Bad Kreuznach","type":"Landkreis"},"federalState":{"key":"07","name":"Rheinland-Pfalz"}},{"name":"Schmiedegasse","postalCode":"55444","locality":"Waldlaubersheim","municipality":{"key":"07133108","name":"Waldlaubersheim","type":"Kreisangehörige_Gemeinde"},"district":{"key":"07133","name":"Bad Kreuznach","type":"Landkreis"},"federalState":{"key":"07","name":"Rheinland-Pfalz"}},{"name":"Schulstr.","postalCode":"55444","locality":"Waldlaubersheim","municipality":{"key":"07133108","name":"Waldlaubersheim","type":"Kreisangehörige_Gemeinde"},"district":{"key":"07133","name":"Bad Kreuznach","type":"Landkreis"},"federalState":{"key":"07","name":"Rheinland-Pfalz"}},{"name":"Stettiner Str.","postalCode":"55444","locality":"Waldlaubersheim","municipality":{"key":"07133108","name":"Waldlaubersheim","type":"Kreisangehörige_Gemeinde"},"district":{"key":"07133","name":"Bad Kreuznach","type":"Landkreis"},"federalState":{"key":"07","name":"Rheinland-Pfalz"}},{"name":"Talstr.","postalCode":"55545","locality":"Bad Kreuznach","municipality":{"key":"07133006","name":"Bad Kreuznach, Stadt","type":"Stadt"},"district":{"key":"07133","name":"Bad Kreuznach","type":"Landkreis"},"federalState":{"key":"07","name":"Rheinland-Pfalz"}},{"name":"Tannenwäldchen","postalCode":"55543","locality":"Bad Kreuznach","municipality":{"key":"07133006","name":"Bad Kreuznach, Stadt","type":"Stadt"},"district":{"key":"07133","name":"Bad Kreuznach","type":"Landkreis"},"federalState":{"key":"07","name":"Rheinland-Pfalz"}},{"name":"Tannenweg","postalCode":"55545","locality":"Bad Kreuznach","municipality":{"key":"07133006","name":"Bad Kreuznach, Stadt","type":"Stadt"},"district":{"key":"07133","name":"Bad Kreuznach","type":"Landkreis"},"federalState":{"key":"07","name":"Rheinland-Pfalz"}},{"name":"Teutonenstr.","postalCode":"55545","locality":"Bad Kreuznach","municipality":{"key":"07133006","name":"Bad Kreuznach, Stadt","type":"Stadt"},"district":{"key":"07133","name":"Bad Kreuznach","type":"Landkreis"},"federalState":{"key":"07","name":"Rheinland-Pfalz"}},{"name":"Thorner Str.","postalCode":"55543","locality":"Bad Kreuznach","municipality":{"key":"07133006","name":"Bad Kreuznach, Stadt","type":"Stadt"},"district":{"key":"07133","name":"Bad Kreuznach","type":"Landkreis"},"federalState":{"key":"07","name":"Rheinland-Pfalz"}},{"name":"Tilgesbrunnenstr.","postalCode":"55543","locality":"Bad Kreuznach","municipality":{"key":"07133006","name":"Bad Kreuznach, Stadt","type":"Stadt"},"district":{"key":"07133","name":"Bad Kreuznach","type":"Landkreis"},"federalState":{"key":"07","name":"Rheinland-Pfalz"}},{"name":"Tilgesbrunner Weg","postalCode":"55543","locality":"Bad Kreuznach","municipality":{"key":"07133006","name":"Bad Kreuznach, Stadt","type":"Stadt"},"district":{"key":"07133","name":"Bad Kreuznach","type":"Landkreis"},"federalState":{"key":"07","name":"Rheinland-Pfalz"}},{"name":"Tilsiter Str.","postalCode":"55543","locality":"Bad Kreuznach","municipality":{"key":"07133006","name":"Bad Kreuznach, Stadt","type":"Stadt"},"district":{"key":"07133","name":"Bad Kreuznach","type":"Landkreis"},"federalState":{"key":"07","name":"Rheinland-Pfalz"}},{"name":"Töpferstr.","postalCode":"55543","locality":"Bad Kreuznach","municipality":{"key":"07133006","name":"Bad Kreuznach, Stadt","type":"Stadt"},"district":{"key":"07133","name":"Bad Kreuznach","type":"Landkreis"},"federalState":{"key":"07","name":"Rheinland-Pfalz"}},{"name":"Traminerstr.","postalCode":"55543","locality":"Bad Kreuznach","municipality":{"key":"07133006","name":"Bad Kreuznach, Stadt","type":"Stadt"},"district":{"key":"07133","name":"Bad Kreuznach","type":"Landkreis"},"federalState":{"key":"07","name":"Rheinland-Pfalz"}},{"name":"Traubenstr.","postalCode":"55543","locality":"Bad Kreuznach","municipality":{"key":"07133006","name":"Bad Kreuznach, Stadt","type":"Stadt"},"district":{"key":"07133","name":"Bad Kreuznach","type":"Landkreis"},"federalState":{"key":"07","name":"Rheinland-Pfalz"}},{"name":"Triftstr.","postalCode":"55583","locality":"Bad Kreuznach","municipality":{"key":"07133006","name":"Bad Kreuznach, Stadt","type":"Stadt"},"district":{"key":"07133","name":"Bad Kreuznach","type":"Landkreis"},"federalState":{"key":"07","name":"Rheinland-Pfalz"}},{"name":"Turmstr.","postalCode":"55583","locality":"Bad Kreuznach","municipality":{"key":"07133006","name":"Bad Kreuznach, Stadt","type":"Stadt"},"district":{"key":"07133","name":"Bad Kreuznach","type":"Landkreis"},"federalState":{"key":"07","name":"Rheinland-Pfalz"}},{"name":"Uhlandstr.","postalCode":"55543","locality":"Bad Kreuznach","municipality":{"key":"07133006","name":"Bad Kreuznach, Stadt","type":"Stadt"},"district":{"key":"07133","name":"Bad Kreuznach","type":"Landkreis"},"federalState":{"key":"07","name":"Rheinland-Pfalz"}},{"name":"Ulmenweg","postalCode":"55543","locality":"Bad Kreuznach","municipality":{"key":"07133006","name":"Bad Kreuznach, Stadt","type":"Stadt"},"district":{"key":"07133","name":"Bad Kreuznach","type":"Landkreis"},"federalState":{"key":"07","name":"Rheinland-Pfalz"}},{"name":"Ulrich-von-Hutten-Str.","postalCode":"55583","locality":"Bad Kreuznach","municipality":{"key":"07133006","name":"Bad Kreuznach, Stadt","type":"Stadt"},"district":{"key":"07133","name":"Bad Kreuznach","type":"Landkreis"},"federalState":{"key":"07","name":"Rheinland-Pfalz"}},{"name":"Unter den Gärten","postalCode":"55545","locality":"Bad Kreuznach","municipality":{"key":"07133006","name":"Bad Kreuznach, Stadt","type":"Stadt"},"district":{"key":"07133","name":"Bad Kreuznach","type":"Landkreis"},"federalState":{"key":"07","name":"Rheinland-Pfalz"}},{"name":"Unter den Linden","postalCode":"55545","locality":"Bad Kreuznach","municipality":{"key":"07133006","name":"Bad Kreuznach, Stadt","type":"Stadt"},"district":{"key":"07133","name":"Bad Kreuznach","type":"Landkreis"},"federalState":{"key":"07","name":"Rheinland-Pfalz"}},{"name":"Unter der Bastei","postalCode":"55583","locality":"Bad Kreuznach","municipality":{"key":"07133006","name":"Bad Kreuznach, Stadt","type":"Stadt"},"district":{"key":"07133","name":"Bad Kreuznach","type":"Landkreis"},"federalState":{"key":"07","name":"Rheinland-Pfalz"}},{"name":"Viktoria Platz","postalCode":"55444","locality":"Waldlaubersheim","municipality":{"key":"07133108","name":"Waldlaubersheim","type":"Kreisangehörige_Gemeinde"},"district":{"key":"07133","name":"Bad Kreuznach","type":"Landkreis"},"federalState":{"key":"07","name":"Rheinland-Pfalz"}},{"name":"Vor der Pforte","postalCode":"55444","locality":"Waldlaubersheim","municipality":{"key":"07133108","name":"Waldlaubersheim","type":"Kreisangehörige_Gemeinde"},"district":{"key":"07133","name":"Bad Kreuznach","type":"Landkreis"},"federalState":{"key":"07","name":"Rheinland-Pfalz"}},{"name":"Waldstr.","postalCode":"55444","locality":"Waldlaubersheim","municipality":{"key":"07133108","name":"Waldlaubersheim","type":"Kreisangehörige_Gemeinde"},"district":{"key":"07133","name":"Bad Kreuznach","type":"Landkreis"},"federalState":{"key":"07","name":"Rheinland-Pfalz"}},{"name":"Windesheimer Str.","postalCode":"55444","locality":"Waldlaubersheim","municipality":{"key":"07133108","name":"Waldlaubersheim","type":"Kreisangehörige_Gemeinde"},"district":{"key":"07133","name":"Bad Kreuznach","type":"Landkreis"},"federalState":{"key":"07","name":"Rheinland-Pfalz"}},{"name":"Zehntbrückerstr.","postalCode":"55545","locality":"Bad Kreuznach","municipality":{"key":"07133006","name":"Bad Kreuznach, Stadt","type":"Stadt"},"district":{"key":"07133","name":"Bad Kreuznach","type":"Landkreis"},"federalState":{"key":"07","name":"Rheinland-Pfalz"}},{"name":"Zelterstr.","postalCode":"55545","locality":"Bad Kreuznach","municipality":{"key":"07133006","name":"Bad Kreuznach, Stadt","type":"Stadt"},"district":{"key":"07133","name":"Bad Kreuznach","type":"Landkreis"},"federalState":{"key":"07","name":"Rheinland-Pfalz"}},{"name":"Zum Klotz","postalCode":"55545","locality":"Bad Kreuznach","municipality":{"key":"07133006","name":"Bad Kreuznach, Stadt","type":"Stadt"},"district":{"key":"07133","name":"Bad Kreuznach","type":"Landkreis"},"federalState":{"key":"07","name":"Rheinland-Pfalz"}},{"name":"Zum Neuhof","postalCode":"55545","locality":"Bad Kreuznach","municipality":{"key":"07133006","name":"Bad Kreuznach, Stadt","type":"Stadt"},"district":{"key":"07133","name":"Bad Kreuznach","type":"Landkreis"},"federalState":{"key":"07","name":"Rheinland-Pfalz"}},{"name":"Zum Wacholder","postalCode":"55583","locality":"Bad Kreuznach","municipality":{"key":"07133006","name":"Bad Kreuznach, Stadt","type":"Stadt"},"district":{"key":"07133","name":"Bad Kreuznach","type":"Landkreis"},"federalState":{"key":"07","name":"Rheinland-Pfalz"}},{"name":"Zum Weihergrund","postalCode":"55545","locality":"Bad Kreuznach","municipality":{"key":"07133006","name":"Bad Kreuznach, Stadt","type":"Stadt"},"district":{"key":"07133","name":"Bad Kreuznach","type":"Landkreis"},"federalState":{"key":"07","name":"Rheinland-Pfalz"}},{"name":"Zur Alsenz","postalCode":"55583","locality":"Bad Kreuznach","municipality":{"key":"07133006","name":"Bad Kreuznach, Stadt","type":"Stadt"},"district":{"key":"07133","name":"Bad Kreuznach","type":"Landkreis"},"federalState":{"key":"07","name":"Rheinland-Pfalz"}},{"name":"Zur Klaster","postalCode":"55545","locality":"Bad Kreuznach","municipality":{"key":"07133006","name":"Bad Kreuznach, Stadt","type":"Stadt"},"district":{"key":"07133","name":"Bad Kreuznach","type":"Landkreis"},"federalState":{"key":"07","name":"Rheinland-Pfalz"}},{"name":"Zur Rosenhecke","postalCode":"55545","locality":"Bad Kreuznach","municipality":{"key":"07133006","name":"Bad Kreuznach, Stadt","type":"Stadt"},"district":{"key":"07133","name":"Bad Kreuznach","type":"Landkreis"},"federalState":{"key":"07","name":"Rheinland-Pfalz"}},{"name":"Zweiter Galgenberger Weg","postalCode":"55543","locality":"Bad Kreuznach","municipality":{"key":"07133006","name":"Bad Kreuznach, Stadt","type":"Stadt"},"district":{"key":"07133","name":"Bad Kreuznach","type":"Landkreis"},"federalState":{"key":"07","name":"Rheinland-Pfalz"}},{"name":"Zwischen den Birken","postalCode":"55545","locality":"Bad Kreuznach","municipality":{"key":"07133006","name":"Bad Kreuznach, Stadt","type":"Stadt"},"district":{"key":"07133","name":"Bad Kreuznach","type":"Landkreis"},"federalState":{"key":"07","name":"Rheinland-Pfalz"}},{"name":"Ärmelgasse","postalCode":"55444","locality":"Waldlaubersheim","municipality":{"key":"07133108","name":"Waldlaubersheim","type":"Kreisangehörige_Gemeinde"},"district":{"key":"07133","name":"Bad Kreuznach","type":"Landkreis"},"federalState":{"key":"07","name":"Rheinland-Pfalz"}},]