[{"key":"10201078","name":"Ad. Meier-Strasse","postalCode":"8424","locality":"Embrach","commune":{"key":"56","name":"Embrach","shortName":"Embrach"},"district":{"key":"103","name":"Bezirk Bülach"},"canton":{"key":"1","code":"ZH","name":"Zürich"},"status":"Real"},{"key":"10201079","name":"Alte Bülacherstrasse","postalCode":"8424","locality":"Embrach","commune":{"key":"56","name":"Embrach","shortName":"Embrach"},"district":{"key":"103","name":"Bezirk Bülach"},"canton":{"key":"1","code":"ZH","name":"Zürich"},"status":"Real"},{"key":"10113341","name":"Alte Hardstrasse","postalCode":"8424","locality":"Embrach","commune":{"key":"56","name":"Embrach","shortName":"Embrach"},"district":{"key":"103","name":"Bezirk Bülach"},"canton":{"key":"1","code":"ZH","name":"Zürich"},"status":"Real"},{"key":"10084160","name":"Alte Rheinstrasse","postalCode":"8424","locality":"Embrach","commune":{"key":"56","name":"Embrach","shortName":"Embrach"},"district":{"key":"103","name":"Bezirk Bülach"},"canton":{"key":"1","code":"ZH","name":"Zürich"},"status":"Real"},{"key":"10201081","name":"Alter Pflanzschulweg","postalCode":"8424","locality":"Embrach","commune":{"key":"56","name":"Embrach","shortName":"Embrach"},"district":{"key":"103","name":"Bezirk Bülach"},"canton":{"key":"1","code":"ZH","name":"Zürich"},"status":"Real"},{"key":"10002375","name":"Alte Schützenhausstrasse","postalCode":"8424","locality":"Embrach","commune":{"key":"56","name":"Embrach","shortName":"Embrach"},"district":{"key":"103","name":"Bezirk Bülach"},"canton":{"key":"1","code":"ZH","name":"Zürich"},"status":"Real"},{"key":"10191575","name":"Althaus","postalCode":"8425","locality":"Oberembrach","commune":{"key":"65","name":"Oberembrach","shortName":"Oberembrach"},"district":{"key":"103","name":"Bezirk Bülach"},"canton":{"key":"1","code":"ZH","name":"Zürich"},"status":"Real"},{"key":"10182088","name":"Amtshausgasse","postalCode":"8424","locality":"Embrach","commune":{"key":"56","name":"Embrach","shortName":"Embrach"},"district":{"key":"103","name":"Bezirk Bülach"},"canton":{"key":"1","code":"ZH","name":"Zürich"},"status":"Real"},{"key":"10163905","name":"Aspstrasse","postalCode":"8425","locality":"Oberembrach","commune":{"key":"65","name":"Oberembrach","shortName":"Oberembrach"},"district":{"key":"103","name":"Bezirk Bülach"},"canton":{"key":"1","code":"ZH","name":"Zürich"},"status":"Real"},{"key":"10112340","name":"Austrasse","postalCode":"8424","locality":"Embrach","commune":{"key":"56","name":"Embrach","shortName":"Embrach"},"district":{"key":"103","name":"Bezirk Bülach"},"canton":{"key":"1","code":"ZH","name":"Zürich"},"status":"Real"},{"key":"10110324","name":"Bachackerweg","postalCode":"8425","locality":"Oberembrach","commune":{"key":"65","name":"Oberembrach","shortName":"Oberembrach"},"district":{"key":"103","name":"Bezirk Bülach"},"canton":{"key":"1","code":"ZH","name":"Zürich"},"status":"Real"},{"key":"10057242","name":"Bacheggweg","postalCode":"8424","locality":"Embrach","commune":{"key":"56","name":"Embrach","shortName":"Embrach"},"district":{"key":"103","name":"Bezirk Bülach"},"canton":{"key":"1","code":"ZH","name":"Zürich"},"status":"Real"},{"key":"10003638","name":"Bächlistrasse","postalCode":"8425","locality":"Oberembrach","commune":{"key":"65","name":"Oberembrach","shortName":"Oberembrach"},"district":{"key":"103","name":"Bezirk Bülach"},"canton":{"key":"1","code":"ZH","name":"Zürich"},"status":"Real"},{"key":"10242356","name":"Bächliweg","postalCode":"8424","locality":"Embrach","commune":{"key":"56","name":"Embrach","shortName":"Embrach"},"district":{"key":"103","name":"Bezirk Bülach"},"canton":{"key":"1","code":"ZH","name":"Zürich"},"status":"Real"},{"key":"10163906","name":"Bächliweg","postalCode":"8425","locality":"Oberembrach","commune":{"key":"65","name":"Oberembrach","shortName":"Oberembrach"},"district":{"key":"103","name":"Bezirk Bülach"},"canton":{"key":"1","code":"ZH","name":"Zürich"},"status":"Real"},{"key":"10055647","name":"Bahnstrasse","postalCode":"8424","locality":"Embrach","commune":{"key":"56","name":"Embrach","shortName":"Embrach"},"district":{"key":"103","name":"Bezirk Bülach"},"canton":{"key":"1","code":"ZH","name":"Zürich"},"status":"Real"},{"key":"10242359","name":"Bahnweg","postalCode":"8424","locality":"Embrach","commune":{"key":"56","name":"Embrach","shortName":"Embrach"},"district":{"key":"103","name":"Bezirk Bülach"},"canton":{"key":"1","code":"ZH","name":"Zürich"},"status":"Real"},{"key":"10153870","name":"Baltsbergstrasse","postalCode":"8424","locality":"Embrach","commune":{"key":"56","name":"Embrach","shortName":"Embrach"},"district":{"key":"103","name":"Bezirk Bülach"},"canton":{"key":"1","code":"ZH","name":"Zürich"},"status":"Real"},{"key":"10084161","name":"Bankstrasse","postalCode":"8424","locality":"Embrach","commune":{"key":"56","name":"Embrach","shortName":"Embrach"},"district":{"key":"103","name":"Bezirk Bülach"},"canton":{"key":"1","code":"ZH","name":"Zürich"},"status":"Real"},{"key":"10002376","name":"Berghof","postalCode":"8424","locality":"Embrach","commune":{"key":"56","name":"Embrach","shortName":"Embrach"},"district":{"key":"103","name":"Bezirk Bülach"},"canton":{"key":"1","code":"ZH","name":"Zürich"},"status":"Real"},{"key":"10201082","name":"Bergliweg","postalCode":"8424","locality":"Embrach","commune":{"key":"56","name":"Embrach","shortName":"Embrach"},"district":{"key":"103","name":"Bezirk Bülach"},"canton":{"key":"1","code":"ZH","name":"Zürich"},"status":"Real"},{"key":"10110326","name":"Bergliweg","postalCode":"8425","locality":"Oberembrach","commune":{"key":"65","name":"Oberembrach","shortName":"Oberembrach"},"district":{"key":"103","name":"Bezirk Bülach"},"canton":{"key":"1","code":"ZH","name":"Zürich"},"status":"Real"},{"key":"10002377","name":"Bergstrasse","postalCode":"8424","locality":"Embrach","commune":{"key":"56","name":"Embrach","shortName":"Embrach"},"district":{"key":"103","name":"Bezirk Bülach"},"canton":{"key":"1","code":"ZH","name":"Zürich"},"status":"Real"},{"key":"10083883","name":"Bergstrasse","postalCode":"8425","locality":"Oberembrach","commune":{"key":"65","name":"Oberembrach","shortName":"Oberembrach"},"district":{"key":"103","name":"Bezirk Bülach"},"canton":{"key":"1","code":"ZH","name":"Zürich"},"status":"Real"},{"key":"10201083","name":"Betzental","postalCode":"8424","locality":"Embrach","commune":{"key":"56","name":"Embrach","shortName":"Embrach"},"district":{"key":"103","name":"Bezirk Bülach"},"canton":{"key":"1","code":"ZH","name":"Zürich"},"status":"Real"},{"key":"10099758","name":"Betzentalstrasse","postalCode":"8424","locality":"Embrach","commune":{"key":"56","name":"Embrach","shortName":"Embrach"},"district":{"key":"103","name":"Bezirk Bülach"},"canton":{"key":"1","code":"ZH","name":"Zürich"},"status":"Real"},{"key":"10242360","name":"Betzentalweg","postalCode":"8424","locality":"Embrach","commune":{"key":"56","name":"Embrach","shortName":"Embrach"},"district":{"key":"103","name":"Bezirk Bülach"},"canton":{"key":"1","code":"ZH","name":"Zürich"},"status":"Real"},{"key":"10201084","name":"Bilgweg","postalCode":"8424","locality":"Embrach","commune":{"key":"56","name":"Embrach","shortName":"Embrach"},"district":{"key":"103","name":"Bezirk Bülach"},"canton":{"key":"1","code":"ZH","name":"Zürich"},"status":"Real"},{"key":"10201085","name":"Birchlistrasse","postalCode":"8424","locality":"Embrach","commune":{"key":"56","name":"Embrach","shortName":"Embrach"},"district":{"key":"103","name":"Bezirk Bülach"},"canton":{"key":"1","code":"ZH","name":"Zürich"},"status":"Real"},{"key":"10002378","name":"Blauenweg","postalCode":"8424","locality":"Embrach","commune":{"key":"56","name":"Embrach","shortName":"Embrach"},"district":{"key":"103","name":"Bezirk Bülach"},"canton":{"key":"1","code":"ZH","name":"Zürich"},"status":"Real"},{"key":"10017583","name":"Bläutschistrasse","postalCode":"8425","locality":"Oberembrach","commune":{"key":"65","name":"Oberembrach","shortName":"Oberembrach"},"district":{"key":"103","name":"Bezirk Bülach"},"canton":{"key":"1","code":"ZH","name":"Zürich"},"status":"Real"},{"key":"10201086","name":"Blindensteig","postalCode":"8424","locality":"Embrach","commune":{"key":"56","name":"Embrach","shortName":"Embrach"},"district":{"key":"103","name":"Bezirk Bülach"},"canton":{"key":"1","code":"ZH","name":"Zürich"},"status":"Real"},{"key":"10110325","name":"Bodenacherstrasse","postalCode":"8425","locality":"Oberembrach","commune":{"key":"65","name":"Oberembrach","shortName":"Oberembrach"},"district":{"key":"103","name":"Bezirk Bülach"},"canton":{"key":"1","code":"ZH","name":"Zürich"},"status":"Real"},{"key":"10017584","name":"Bölweg","postalCode":"8425","locality":"Oberembrach","commune":{"key":"65","name":"Oberembrach","shortName":"Oberembrach"},"district":{"key":"103","name":"Bezirk Bülach"},"canton":{"key":"1","code":"ZH","name":"Zürich"},"status":"Real"},{"key":"10010878","name":"Brandstrasse","postalCode":"8425","locality":"Oberembrach","commune":{"key":"65","name":"Oberembrach","shortName":"Oberembrach"},"district":{"key":"103","name":"Bezirk Bülach"},"canton":{"key":"1","code":"ZH","name":"Zürich"},"status":"Real"},{"key":"10002379","name":"Brandweg","postalCode":"8424","locality":"Embrach","commune":{"key":"56","name":"Embrach","shortName":"Embrach"},"district":{"key":"103","name":"Bezirk Bülach"},"canton":{"key":"1","code":"ZH","name":"Zürich"},"status":"Real"},{"key":"10084162","name":"Breitestrasse","postalCode":"8424","locality":"Embrach","commune":{"key":"56","name":"Embrach","shortName":"Embrach"},"district":{"key":"103","name":"Bezirk Bülach"},"canton":{"key":"1","code":"ZH","name":"Zürich"},"status":"Real"},{"key":"10201087","name":"Brunnensteig","postalCode":"8424","locality":"Embrach","commune":{"key":"56","name":"Embrach","shortName":"Embrach"},"district":{"key":"103","name":"Bezirk Bülach"},"canton":{"key":"1","code":"ZH","name":"Zürich"},"status":"Real"},{"key":"10010879","name":"Brüttemerstrasse","postalCode":"8425","locality":"Oberembrach","commune":{"key":"65","name":"Oberembrach","shortName":"Oberembrach"},"district":{"key":"103","name":"Bezirk Bülach"},"canton":{"key":"1","code":"ZH","name":"Zürich"},"status":"Real"},{"key":"10088201","name":"Buckwiesenstrasse","postalCode":"8425","locality":"Oberembrach","commune":{"key":"65","name":"Oberembrach","shortName":"Oberembrach"},"district":{"key":"103","name":"Bezirk Bülach"},"canton":{"key":"1","code":"ZH","name":"Zürich"},"status":"Real"},{"key":"10088202","name":"Buechholzweg","postalCode":"8425","locality":"Oberembrach","commune":{"key":"65","name":"Oberembrach","shortName":"Oberembrach"},"district":{"key":"103","name":"Bezirk Bülach"},"canton":{"key":"1","code":"ZH","name":"Zürich"},"status":"Real"},{"key":"10110330","name":"Buechwinkelweg","postalCode":"8425","locality":"Oberembrach","commune":{"key":"65","name":"Oberembrach","shortName":"Oberembrach"},"district":{"key":"103","name":"Bezirk Bülach"},"canton":{"key":"1","code":"ZH","name":"Zürich"},"status":"Real"},{"key":"10010880","name":"Büelerzelgstrasse","postalCode":"8425","locality":"Oberembrach","commune":{"key":"65","name":"Oberembrach","shortName":"Oberembrach"},"district":{"key":"103","name":"Bezirk Bülach"},"canton":{"key":"1","code":"ZH","name":"Zürich"},"status":"Real"},{"key":"10003639","name":"Bühlhof","postalCode":"8425","locality":"Oberembrach","commune":{"key":"65","name":"Oberembrach","shortName":"Oberembrach"},"district":{"key":"103","name":"Bezirk Bülach"},"canton":{"key":"1","code":"ZH","name":"Zürich"},"status":"Real"},{"key":"10010881","name":"Bühlhofstrasse","postalCode":"8425","locality":"Oberembrach","commune":{"key":"65","name":"Oberembrach","shortName":"Oberembrach"},"district":{"key":"103","name":"Bezirk Bülach"},"canton":{"key":"1","code":"ZH","name":"Zürich"},"status":"Real"},{"key":"10171629","name":"Bühlhofweg","postalCode":"8425","locality":"Oberembrach","commune":{"key":"65","name":"Oberembrach","shortName":"Oberembrach"},"district":{"key":"103","name":"Bezirk Bülach"},"canton":{"key":"1","code":"ZH","name":"Zürich"},"status":"Real"},{"key":"10055648","name":"Bülacherstrasse","postalCode":"8424","locality":"Embrach","commune":{"key":"56","name":"Embrach","shortName":"Embrach"},"district":{"key":"103","name":"Bezirk Bülach"},"canton":{"key":"1","code":"ZH","name":"Zürich"},"status":"Real"},{"key":"10200170","name":"Bülibergstrasse","postalCode":"8424","locality":"Embrach","commune":{"key":"56","name":"Embrach","shortName":"Embrach"},"district":{"key":"103","name":"Bezirk Bülach"},"canton":{"key":"1","code":"ZH","name":"Zürich"},"status":"Real"},{"key":"10110331","name":"Bungertstrasse","postalCode":"8425","locality":"Oberembrach","commune":{"key":"65","name":"Oberembrach","shortName":"Oberembrach"},"district":{"key":"103","name":"Bezirk Bülach"},"canton":{"key":"1","code":"ZH","name":"Zürich"},"status":"Real"},{"key":"10010882","name":"Burenrietstrasse","postalCode":"8425","locality":"Oberembrach","commune":{"key":"65","name":"Oberembrach","shortName":"Oberembrach"},"district":{"key":"103","name":"Bezirk Bülach"},"canton":{"key":"1","code":"ZH","name":"Zürich"},"status":"Real"},{"key":"10116770","name":"Burghof","postalCode":"8424","locality":"Embrach","commune":{"key":"56","name":"Embrach","shortName":"Embrach"},"district":{"key":"103","name":"Bezirk Bülach"},"canton":{"key":"1","code":"ZH","name":"Zürich"},"status":"Real"},{"key":"10242361","name":"Burghofstrasse","postalCode":"8424","locality":"Embrach","commune":{"key":"56","name":"Embrach","shortName":"Embrach"},"district":{"key":"103","name":"Bezirk Bülach"},"canton":{"key":"1","code":"ZH","name":"Zürich"},"status":"Real"},{"key":"10110332","name":"Burgihaustrasse","postalCode":"8425","locality":"Oberembrach","commune":{"key":"65","name":"Oberembrach","shortName":"Oberembrach"},"district":{"key":"103","name":"Bezirk Bülach"},"canton":{"key":"1","code":"ZH","name":"Zürich"},"status":"Real"},{"key":"10201088","name":"Burgweg","postalCode":"8424","locality":"Embrach","commune":{"key":"56","name":"Embrach","shortName":"Embrach"},"district":{"key":"103","name":"Bezirk Bülach"},"canton":{"key":"1","code":"ZH","name":"Zürich"},"status":"Real"},{"key":"10010884","name":"Chellerbüelstrasse","postalCode":"8425","locality":"Oberembrach","commune":{"key":"65","name":"Oberembrach","shortName":"Oberembrach"},"district":{"key":"103","name":"Bezirk Bülach"},"canton":{"key":"1","code":"ZH","name":"Zürich"},"status":"Real"},{"key":"10201089","name":"Chilchweg","postalCode":"8424","locality":"Embrach","commune":{"key":"56","name":"Embrach","shortName":"Embrach"},"district":{"key":"103","name":"Bezirk Bülach"},"canton":{"key":"1","code":"ZH","name":"Zürich"},"status":"Real"},{"key":"10201090","name":"Chimenhof","postalCode":"8424","locality":"Embrach","commune":{"key":"56","name":"Embrach","shortName":"Embrach"},"district":{"key":"103","name":"Bezirk Bülach"},"canton":{"key":"1","code":"ZH","name":"Zürich"},"status":"Real"},{"key":"10170476","name":"Chimenhofstrasse","postalCode":"8424","locality":"Embrach","commune":{"key":"56","name":"Embrach","shortName":"Embrach"},"district":{"key":"103","name":"Bezirk Bülach"},"canton":{"key":"1","code":"ZH","name":"Zürich"},"status":"Real"},{"key":"10201091","name":"Chleeägertenstrasse","postalCode":"8424","locality":"Embrach","commune":{"key":"56","name":"Embrach","shortName":"Embrach"},"district":{"key":"103","name":"Bezirk Bülach"},"canton":{"key":"1","code":"ZH","name":"Zürich"},"status":"Real"},{"key":"10110334","name":"Chliächerliweg","postalCode":"8425","locality":"Oberembrach","commune":{"key":"65","name":"Oberembrach","shortName":"Oberembrach"},"district":{"key":"103","name":"Bezirk Bülach"},"canton":{"key":"1","code":"ZH","name":"Zürich"},"status":"Real"},{"key":"10163907","name":"Chliacherstrasse","postalCode":"8425","locality":"Oberembrach","commune":{"key":"65","name":"Oberembrach","shortName":"Oberembrach"},"district":{"key":"103","name":"Bezirk Bülach"},"canton":{"key":"1","code":"ZH","name":"Zürich"},"status":"Real"},{"key":"10002380","name":"Chliweg","postalCode":"8424","locality":"Embrach","commune":{"key":"56","name":"Embrach","shortName":"Embrach"},"district":{"key":"103","name":"Bezirk Bülach"},"canton":{"key":"1","code":"ZH","name":"Zürich"},"status":"Real"},{"key":"10201092","name":"Chlostergumpenweg","postalCode":"8424","locality":"Embrach","commune":{"key":"56","name":"Embrach","shortName":"Embrach"},"district":{"key":"103","name":"Bezirk Bülach"},"canton":{"key":"1","code":"ZH","name":"Zürich"},"status":"Real"},{"key":"10010887","name":"Cholholzstrasse","postalCode":"8425","locality":"Oberembrach","commune":{"key":"65","name":"Oberembrach","shortName":"Oberembrach"},"district":{"key":"103","name":"Bezirk Bülach"},"canton":{"key":"1","code":"ZH","name":"Zürich"},"status":"Real"},{"key":"10201093","name":"Cholplatzstrasse","postalCode":"8424","locality":"Embrach","commune":{"key":"56","name":"Embrach","shortName":"Embrach"},"district":{"key":"103","name":"Bezirk Bülach"},"canton":{"key":"1","code":"ZH","name":"Zürich"},"status":"Real"},{"key":"10191754","name":"Chorherrengasse","postalCode":"8424","locality":"Embrach","commune":{"key":"56","name":"Embrach","shortName":"Embrach"},"district":{"key":"103","name":"Bezirk Bülach"},"canton":{"key":"1","code":"ZH","name":"Zürich"},"status":"Real"},{"key":"10017569","name":"Chruckenholzweg","postalCode":"8425","locality":"Oberembrach","commune":{"key":"65","name":"Oberembrach","shortName":"Oberembrach"},"district":{"key":"103","name":"Bezirk Bülach"},"canton":{"key":"1","code":"ZH","name":"Zürich"},"status":"Real"},{"key":"10175565","name":"Chüngstrasse","postalCode":"8424","locality":"Embrach","commune":{"key":"56","name":"Embrach","shortName":"Embrach"},"district":{"key":"103","name":"Bezirk Bülach"},"canton":{"key":"1","code":"ZH","name":"Zürich"},"status":"Real"},{"key":"10201094","name":"Chüngweg","postalCode":"8424","locality":"Embrach","commune":{"key":"56","name":"Embrach","shortName":"Embrach"},"district":{"key":"103","name":"Bezirk Bülach"},"canton":{"key":"1","code":"ZH","name":"Zürich"},"status":"Real"},{"key":"10057243","name":"Dammweg","postalCode":"8424","locality":"Embrach","commune":{"key":"56","name":"Embrach","shortName":"Embrach"},"district":{"key":"103","name":"Bezirk Bülach"},"canton":{"key":"1","code":"ZH","name":"Zürich"},"status":"Real"},{"key":"10057244","name":"Dorfstrasse","postalCode":"8424","locality":"Embrach","commune":{"key":"56","name":"Embrach","shortName":"Embrach"},"district":{"key":"103","name":"Bezirk Bülach"},"canton":{"key":"1","code":"ZH","name":"Zürich"},"status":"Real"},{"key":"10168390","name":"Dürstentalstrasse","postalCode":"8425","locality":"Oberembrach","commune":{"key":"65","name":"Oberembrach","shortName":"Oberembrach"},"district":{"key":"103","name":"Bezirk Bülach"},"canton":{"key":"1","code":"ZH","name":"Zürich"},"status":"Real"},{"key":"10002381","name":"Ebnetstrasse","postalCode":"8424","locality":"Embrach","commune":{"key":"56","name":"Embrach","shortName":"Embrach"},"district":{"key":"103","name":"Bezirk Bülach"},"canton":{"key":"1","code":"ZH","name":"Zürich"},"status":"Real"},{"key":"10110336","name":"Edlibuckstrasse","postalCode":"8425","locality":"Oberembrach","commune":{"key":"65","name":"Oberembrach","shortName":"Oberembrach"},"district":{"key":"103","name":"Bezirk Bülach"},"canton":{"key":"1","code":"ZH","name":"Zürich"},"status":"Real"},{"key":"10110338","name":"Eichenstrasse","postalCode":"8425","locality":"Oberembrach","commune":{"key":"65","name":"Oberembrach","shortName":"Oberembrach"},"district":{"key":"103","name":"Bezirk Bülach"},"canton":{"key":"1","code":"ZH","name":"Zürich"},"status":"Real"},{"key":"10080695","name":"Eichenweg","postalCode":"8424","locality":"Embrach","commune":{"key":"56","name":"Embrach","shortName":"Embrach"},"district":{"key":"103","name":"Bezirk Bülach"},"canton":{"key":"1","code":"ZH","name":"Zürich"},"status":"Real"},{"key":"10163908","name":"Eigelhartenstrasse","postalCode":"8425","locality":"Oberembrach","commune":{"key":"65","name":"Oberembrach","shortName":"Oberembrach"},"district":{"key":"103","name":"Bezirk Bülach"},"canton":{"key":"1","code":"ZH","name":"Zürich"},"status":"Real"},{"key":"10061751","name":"Eigen","postalCode":"8425","locality":"Oberembrach","commune":{"key":"65","name":"Oberembrach","shortName":"Oberembrach"},"district":{"key":"103","name":"Bezirk Bülach"},"canton":{"key":"1","code":"ZH","name":"Zürich"},"status":"Real"},{"key":"10171630","name":"Eigenstrasse","postalCode":"8425","locality":"Oberembrach","commune":{"key":"65","name":"Oberembrach","shortName":"Oberembrach"},"district":{"key":"103","name":"Bezirk Bülach"},"canton":{"key":"1","code":"ZH","name":"Zürich"},"status":"Real"},{"key":"10003640","name":"Eigentalstrasse","postalCode":"8425","locality":"Oberembrach","commune":{"key":"65","name":"Oberembrach","shortName":"Oberembrach"},"district":{"key":"103","name":"Bezirk Bülach"},"canton":{"key":"1","code":"ZH","name":"Zürich"},"status":"Real"},{"key":"10163909","name":"Eigletenstrasse","postalCode":"8425","locality":"Oberembrach","commune":{"key":"65","name":"Oberembrach","shortName":"Oberembrach"},"district":{"key":"103","name":"Bezirk Bülach"},"canton":{"key":"1","code":"ZH","name":"Zürich"},"status":"Real"},{"key":"10079666","name":"Embracherstrasse","postalCode":"8425","locality":"Oberembrach","commune":{"key":"65","name":"Oberembrach","shortName":"Oberembrach"},"district":{"key":"103","name":"Bezirk Bülach"},"canton":{"key":"1","code":"ZH","name":"Zürich"},"status":"Real"},{"key":"10002374","name":"Embraport","postalCode":"8424","locality":"Embrach","commune":{"key":"56","name":"Embrach","shortName":"Embrach"},"district":{"key":"103","name":"Bezirk Bülach"},"canton":{"key":"1","code":"ZH","name":"Zürich"},"status":"Real"},{"key":"10244213","name":"Ennerlochweg","postalCode":"8425","locality":"Oberembrach","commune":{"key":"65","name":"Oberembrach","shortName":"Oberembrach"},"district":{"key":"103","name":"Bezirk Bülach"},"canton":{"key":"1","code":"ZH","name":"Zürich"},"status":"Real"},{"key":"10201095","name":"Ennerzelgstrasse","postalCode":"8424","locality":"Embrach","commune":{"key":"56","name":"Embrach","shortName":"Embrach"},"district":{"key":"103","name":"Bezirk Bülach"},"canton":{"key":"1","code":"ZH","name":"Zürich"},"status":"Real"},{"key":"10242362","name":"Erlenweg","postalCode":"8424","locality":"Embrach","commune":{"key":"56","name":"Embrach","shortName":"Embrach"},"district":{"key":"103","name":"Bezirk Bülach"},"canton":{"key":"1","code":"ZH","name":"Zürich"},"status":"Real"},{"key":"10002382","name":"Fabrikstrasse","postalCode":"8424","locality":"Embrach","commune":{"key":"56","name":"Embrach","shortName":"Embrach"},"district":{"key":"103","name":"Bezirk Bülach"},"canton":{"key":"1","code":"ZH","name":"Zürich"},"status":"Real"},{"key":"10088203","name":"Federlochstrasse","postalCode":"8425","locality":"Oberembrach","commune":{"key":"65","name":"Oberembrach","shortName":"Oberembrach"},"district":{"key":"103","name":"Bezirk Bülach"},"canton":{"key":"1","code":"ZH","name":"Zürich"},"status":"Real"},{"key":"10002383","name":"Fehrenweg","postalCode":"8424","locality":"Embrach","commune":{"key":"56","name":"Embrach","shortName":"Embrach"},"district":{"key":"103","name":"Bezirk Bülach"},"canton":{"key":"1","code":"ZH","name":"Zürich"},"status":"Real"},{"key":"10201097","name":"Feldstrasse","postalCode":"8424","locality":"Embrach","commune":{"key":"56","name":"Embrach","shortName":"Embrach"},"district":{"key":"103","name":"Bezirk Bülach"},"canton":{"key":"1","code":"ZH","name":"Zürich"},"status":"Real"},{"key":"10242363","name":"Felixweg","postalCode":"8424","locality":"Embrach","commune":{"key":"56","name":"Embrach","shortName":"Embrach"},"district":{"key":"103","name":"Bezirk Bülach"},"canton":{"key":"1","code":"ZH","name":"Zürich"},"status":"Real"},{"key":"10242364","name":"Felsenweg","postalCode":"8424","locality":"Embrach","commune":{"key":"56","name":"Embrach","shortName":"Embrach"},"district":{"key":"103","name":"Bezirk Bülach"},"canton":{"key":"1","code":"ZH","name":"Zürich"},"status":"Real"},{"key":"10171631","name":"Forenfeldstrasse","postalCode":"8425","locality":"Oberembrach","commune":{"key":"65","name":"Oberembrach","shortName":"Oberembrach"},"district":{"key":"103","name":"Bezirk Bülach"},"canton":{"key":"1","code":"ZH","name":"Zürich"},"status":"Real"},{"key":"10201099","name":"Förrlibuckweg","postalCode":"8424","locality":"Embrach","commune":{"key":"56","name":"Embrach","shortName":"Embrach"},"district":{"key":"103","name":"Bezirk Bülach"},"canton":{"key":"1","code":"ZH","name":"Zürich"},"status":"Real"},{"key":"10201100","name":"Freienhof","postalCode":"8424","locality":"Embrach","commune":{"key":"56","name":"Embrach","shortName":"Embrach"},"district":{"key":"103","name":"Bezirk Bülach"},"canton":{"key":"1","code":"ZH","name":"Zürich"},"status":"Real"},{"key":"10203555","name":"Freienhof-Rietli","postalCode":"8424","locality":"Embrach","commune":{"key":"56","name":"Embrach","shortName":"Embrach"},"district":{"key":"103","name":"Bezirk Bülach"},"canton":{"key":"1","code":"ZH","name":"Zürich"},"status":"Real"},{"key":"10153871","name":"Freienhofstrasse","postalCode":"8424","locality":"Embrach","commune":{"key":"56","name":"Embrach","shortName":"Embrach"},"district":{"key":"103","name":"Bezirk Bülach"},"canton":{"key":"1","code":"ZH","name":"Zürich"},"status":"Real"},{"key":"10201101","name":"Fuchsrainstrasse","postalCode":"8424","locality":"Embrach","commune":{"key":"56","name":"Embrach","shortName":"Embrach"},"district":{"key":"103","name":"Bezirk Bülach"},"canton":{"key":"1","code":"ZH","name":"Zürich"},"status":"Real"},{"key":"10201102","name":"Gaisnäpperweg","postalCode":"8424","locality":"Embrach","commune":{"key":"56","name":"Embrach","shortName":"Embrach"},"district":{"key":"103","name":"Bezirk Bülach"},"canton":{"key":"1","code":"ZH","name":"Zürich"},"status":"Real"},{"key":"10173585","name":"Gheiweg","postalCode":"8425","locality":"Oberembrach","commune":{"key":"65","name":"Oberembrach","shortName":"Oberembrach"},"district":{"key":"103","name":"Bezirk Bülach"},"canton":{"key":"1","code":"ZH","name":"Zürich"},"status":"Real"},{"key":"10173586","name":"Gräblerbachstrasse","postalCode":"8425","locality":"Oberembrach","commune":{"key":"65","name":"Oberembrach","shortName":"Oberembrach"},"district":{"key":"103","name":"Bezirk Bülach"},"canton":{"key":"1","code":"ZH","name":"Zürich"},"status":"Real"},{"key":"10017573","name":"Grossacherstrasse","postalCode":"8425","locality":"Oberembrach","commune":{"key":"65","name":"Oberembrach","shortName":"Oberembrach"},"district":{"key":"103","name":"Bezirk Bülach"},"canton":{"key":"1","code":"ZH","name":"Zürich"},"status":"Real"},{"key":"10017574","name":"Grosszelgstrasse","postalCode":"8425","locality":"Oberembrach","commune":{"key":"65","name":"Oberembrach","shortName":"Oberembrach"},"district":{"key":"103","name":"Bezirk Bülach"},"canton":{"key":"1","code":"ZH","name":"Zürich"},"status":"Real"},{"key":"10080696","name":"Grundstrasse","postalCode":"8424","locality":"Embrach","commune":{"key":"56","name":"Embrach","shortName":"Embrach"},"district":{"key":"103","name":"Bezirk Bülach"},"canton":{"key":"1","code":"ZH","name":"Zürich"},"status":"Real"},{"key":"10201103","name":"Guldenberg","postalCode":"8424","locality":"Embrach","commune":{"key":"56","name":"Embrach","shortName":"Embrach"},"district":{"key":"103","name":"Bezirk Bülach"},"canton":{"key":"1","code":"ZH","name":"Zürich"},"status":"Real"},{"key":"10153872","name":"Guldenbergstrasse","postalCode":"8424","locality":"Embrach","commune":{"key":"56","name":"Embrach","shortName":"Embrach"},"district":{"key":"103","name":"Bezirk Bülach"},"canton":{"key":"1","code":"ZH","name":"Zürich"},"status":"Real"},{"key":"10173587","name":"Gulsterstrasse","postalCode":"8425","locality":"Oberembrach","commune":{"key":"65","name":"Oberembrach","shortName":"Oberembrach"},"district":{"key":"103","name":"Bezirk Bülach"},"canton":{"key":"1","code":"ZH","name":"Zürich"},"status":"Real"},{"key":"10057245","name":"Haldenstrasse","postalCode":"8424","locality":"Embrach","commune":{"key":"56","name":"Embrach","shortName":"Embrach"},"district":{"key":"103","name":"Bezirk Bülach"},"canton":{"key":"1","code":"ZH","name":"Zürich"},"status":"Real"},{"key":"10110951","name":"Haldenstrasse","postalCode":"8425","locality":"Oberembrach","commune":{"key":"65","name":"Oberembrach","shortName":"Oberembrach"},"district":{"key":"103","name":"Bezirk Bülach"},"canton":{"key":"1","code":"ZH","name":"Zürich"},"status":"Real"},{"key":"10188022","name":"Haldenweg","postalCode":"8425","locality":"Oberembrach","commune":{"key":"65","name":"Oberembrach","shortName":"Oberembrach"},"district":{"key":"103","name":"Bezirk Bülach"},"canton":{"key":"1","code":"ZH","name":"Zürich"},"status":"Real"},{"key":"10242365","name":"Hallerweg","postalCode":"8424","locality":"Embrach","commune":{"key":"56","name":"Embrach","shortName":"Embrach"},"district":{"key":"103","name":"Bezirk Bülach"},"canton":{"key":"1","code":"ZH","name":"Zürich"},"status":"Real"},{"key":"10201104","name":"Handforrenweg","postalCode":"8424","locality":"Embrach","commune":{"key":"56","name":"Embrach","shortName":"Embrach"},"district":{"key":"103","name":"Bezirk Bülach"},"canton":{"key":"1","code":"ZH","name":"Zürich"},"status":"Real"},{"key":"10153873","name":"Hardhofstrasse","postalCode":"8424","locality":"Embrach","commune":{"key":"56","name":"Embrach","shortName":"Embrach"},"district":{"key":"103","name":"Bezirk Bülach"},"canton":{"key":"1","code":"ZH","name":"Zürich"},"status":"Real"},{"key":"10201105","name":"Hardrütistrasse","postalCode":"8424","locality":"Embrach","commune":{"key":"56","name":"Embrach","shortName":"Embrach"},"district":{"key":"103","name":"Bezirk Bülach"},"canton":{"key":"1","code":"ZH","name":"Zürich"},"status":"Real"},{"key":"10201106","name":"Hardrütiweg","postalCode":"8424","locality":"Embrach","commune":{"key":"56","name":"Embrach","shortName":"Embrach"},"district":{"key":"103","name":"Bezirk Bülach"},"canton":{"key":"1","code":"ZH","name":"Zürich"},"status":"Real"},{"key":"10002384","name":"Hardsteig","postalCode":"8424","locality":"Embrach","commune":{"key":"56","name":"Embrach","shortName":"Embrach"},"district":{"key":"103","name":"Bezirk Bülach"},"canton":{"key":"1","code":"ZH","name":"Zürich"},"status":"Real"},{"key":"10080697","name":"Hardstrasse","postalCode":"8424","locality":"Embrach","commune":{"key":"56","name":"Embrach","shortName":"Embrach"},"district":{"key":"103","name":"Bezirk Bülach"},"canton":{"key":"1","code":"ZH","name":"Zürich"},"status":"Real"},{"key":"10242366","name":"Haselbachweg","postalCode":"8424","locality":"Embrach","commune":{"key":"56","name":"Embrach","shortName":"Embrach"},"district":{"key":"103","name":"Bezirk Bülach"},"canton":{"key":"1","code":"ZH","name":"Zürich"},"status":"Real"},{"key":"10201107","name":"Haselweg","postalCode":"8424","locality":"Embrach","commune":{"key":"56","name":"Embrach","shortName":"Embrach"},"district":{"key":"103","name":"Bezirk Bülach"},"canton":{"key":"1","code":"ZH","name":"Zürich"},"status":"Real"},{"key":"10201108","name":"Hasentanzstrasse","postalCode":"8424","locality":"Embrach","commune":{"key":"56","name":"Embrach","shortName":"Embrach"},"district":{"key":"103","name":"Bezirk Bülach"},"canton":{"key":"1","code":"ZH","name":"Zürich"},"status":"Real"},{"key":"10002385","name":"Haumühlestrasse","postalCode":"8424","locality":"Embrach","commune":{"key":"56","name":"Embrach","shortName":"Embrach"},"district":{"key":"103","name":"Bezirk Bülach"},"canton":{"key":"1","code":"ZH","name":"Zürich"},"status":"Real"},{"key":"10201109","name":"Haumühleweg","postalCode":"8424","locality":"Embrach","commune":{"key":"56","name":"Embrach","shortName":"Embrach"},"district":{"key":"103","name":"Bezirk Bülach"},"canton":{"key":"1","code":"ZH","name":"Zürich"},"status":"Real"},{"key":"10003641","name":"Hausen","postalCode":"8425","locality":"Oberembrach","commune":{"key":"65","name":"Oberembrach","shortName":"Oberembrach"},"district":{"key":"103","name":"Bezirk Bülach"},"canton":{"key":"1","code":"ZH","name":"Zürich"},"status":"Real"},{"key":"10002386","name":"Heidegghof","postalCode":"8424","locality":"Embrach","commune":{"key":"56","name":"Embrach","shortName":"Embrach"},"district":{"key":"103","name":"Bezirk Bülach"},"canton":{"key":"1","code":"ZH","name":"Zürich"},"status":"Real"},{"key":"10201110","name":"Heideggstrasse","postalCode":"8424","locality":"Embrach","commune":{"key":"56","name":"Embrach","shortName":"Embrach"},"district":{"key":"103","name":"Bezirk Bülach"},"canton":{"key":"1","code":"ZH","name":"Zürich"},"status":"Real"},{"key":"10003642","name":"Hellbrunn","postalCode":"8425","locality":"Oberembrach","commune":{"key":"65","name":"Oberembrach","shortName":"Oberembrach"},"district":{"key":"103","name":"Bezirk Bülach"},"canton":{"key":"1","code":"ZH","name":"Zürich"},"status":"Real"},{"key":"10173588","name":"Hertistrasse","postalCode":"8425","locality":"Oberembrach","commune":{"key":"65","name":"Oberembrach","shortName":"Oberembrach"},"district":{"key":"103","name":"Bezirk Bülach"},"canton":{"key":"1","code":"ZH","name":"Zürich"},"status":"Real"},{"key":"10109321","name":"Hintergass","postalCode":"8424","locality":"Embrach","commune":{"key":"56","name":"Embrach","shortName":"Embrach"},"district":{"key":"103","name":"Bezirk Bülach"},"canton":{"key":"1","code":"ZH","name":"Zürich"},"status":"Real"},{"key":"10079667","name":"Hinterhagstrasse","postalCode":"8425","locality":"Oberembrach","commune":{"key":"65","name":"Oberembrach","shortName":"Oberembrach"},"district":{"key":"103","name":"Bezirk Bülach"},"canton":{"key":"1","code":"ZH","name":"Zürich"},"status":"Real"},{"key":"10017575","name":"Hinterrütistrasse","postalCode":"8425","locality":"Oberembrach","commune":{"key":"65","name":"Oberembrach","shortName":"Oberembrach"},"district":{"key":"103","name":"Bezirk Bülach"},"canton":{"key":"1","code":"ZH","name":"Zürich"},"status":"Real"},{"key":"10173956","name":"Hofpüntstrasse","postalCode":"8425","locality":"Oberembrach","commune":{"key":"65","name":"Oberembrach","shortName":"Oberembrach"},"district":{"key":"103","name":"Bezirk Bülach"},"canton":{"key":"1","code":"ZH","name":"Zürich"},"status":"Real"},{"key":"10173957","name":"Höhenstrasse","postalCode":"8425","locality":"Oberembrach","commune":{"key":"65","name":"Oberembrach","shortName":"Oberembrach"},"district":{"key":"103","name":"Bezirk Bülach"},"canton":{"key":"1","code":"ZH","name":"Zürich"},"status":"Real"},{"key":"10201111","name":"Höhenweg","postalCode":"8424","locality":"Embrach","commune":{"key":"56","name":"Embrach","shortName":"Embrach"},"district":{"key":"103","name":"Bezirk Bülach"},"canton":{"key":"1","code":"ZH","name":"Zürich"},"status":"Real"},{"key":"10110339","name":"Holzrütistrasse","postalCode":"8425","locality":"Oberembrach","commune":{"key":"65","name":"Oberembrach","shortName":"Oberembrach"},"district":{"key":"103","name":"Bezirk Bülach"},"canton":{"key":"1","code":"ZH","name":"Zürich"},"status":"Real"},{"key":"10201112","name":"Holzstudenstrasse","postalCode":"8424","locality":"Embrach","commune":{"key":"56","name":"Embrach","shortName":"Embrach"},"district":{"key":"103","name":"Bezirk Bülach"},"canton":{"key":"1","code":"ZH","name":"Zürich"},"status":"Real"},{"key":"10201113","name":"Holzwisstrasse","postalCode":"8424","locality":"Embrach","commune":{"key":"56","name":"Embrach","shortName":"Embrach"},"district":{"key":"103","name":"Bezirk Bülach"},"canton":{"key":"1","code":"ZH","name":"Zürich"},"status":"Real"},{"key":"10054302","name":"Hueb","postalCode":"8425","locality":"Oberembrach","commune":{"key":"65","name":"Oberembrach","shortName":"Oberembrach"},"district":{"key":"103","name":"Bezirk Bülach"},"canton":{"key":"1","code":"ZH","name":"Zürich"},"status":"Real"},{"key":"10201114","name":"Hüenerenstrasse","postalCode":"8424","locality":"Embrach","commune":{"key":"56","name":"Embrach","shortName":"Embrach"},"district":{"key":"103","name":"Bezirk Bülach"},"canton":{"key":"1","code":"ZH","name":"Zürich"},"status":"Real"},{"key":"10080698","name":"Hungerbühlstrasse","postalCode":"8424","locality":"Embrach","commune":{"key":"56","name":"Embrach","shortName":"Embrach"},"district":{"key":"103","name":"Bezirk Bülach"},"canton":{"key":"1","code":"ZH","name":"Zürich"},"status":"Real"},{"key":"10242367","name":"Hungerbühlweg","postalCode":"8424","locality":"Embrach","commune":{"key":"56","name":"Embrach","shortName":"Embrach"},"district":{"key":"103","name":"Bezirk Bülach"},"canton":{"key":"1","code":"ZH","name":"Zürich"},"status":"Real"},{"key":"10053207","name":"Husacher","postalCode":"8424","locality":"Embrach","commune":{"key":"56","name":"Embrach","shortName":"Embrach"},"district":{"key":"103","name":"Bezirk Bülach"},"canton":{"key":"1","code":"ZH","name":"Zürich"},"status":"Real"},{"key":"10242368","name":"Husacherweg","postalCode":"8424","locality":"Embrach","commune":{"key":"56","name":"Embrach","shortName":"Embrach"},"district":{"key":"103","name":"Bezirk Bülach"},"canton":{"key":"1","code":"ZH","name":"Zürich"},"status":"Real"},{"key":"10201115","name":"Huswisstrasse","postalCode":"8424","locality":"Embrach","commune":{"key":"56","name":"Embrach","shortName":"Embrach"},"district":{"key":"103","name":"Bezirk Bülach"},"canton":{"key":"1","code":"ZH","name":"Zürich"},"status":"Real"},{"key":"10017576","name":"Ibruchstrasse","postalCode":"8425","locality":"Oberembrach","commune":{"key":"65","name":"Oberembrach","shortName":"Oberembrach"},"district":{"key":"103","name":"Bezirk Bülach"},"canton":{"key":"1","code":"ZH","name":"Zürich"},"status":"Real"},{"key":"10173958","name":"Ifangstrasse","postalCode":"8425","locality":"Oberembrach","commune":{"key":"65","name":"Oberembrach","shortName":"Oberembrach"},"district":{"key":"103","name":"Bezirk Bülach"},"canton":{"key":"1","code":"ZH","name":"Zürich"},"status":"Real"},{"key":"10110347","name":"Igelhölzliweg","postalCode":"8425","locality":"Oberembrach","commune":{"key":"65","name":"Oberembrach","shortName":"Oberembrach"},"district":{"key":"103","name":"Bezirk Bülach"},"canton":{"key":"1","code":"ZH","name":"Zürich"},"status":"Real"},{"key":"10002387","name":"Illingerstrasse","postalCode":"8424","locality":"Embrach","commune":{"key":"56","name":"Embrach","shortName":"Embrach"},"district":{"key":"103","name":"Bezirk Bülach"},"canton":{"key":"1","code":"ZH","name":"Zürich"},"status":"Real"},{"key":"10002388","name":"Illingerweg","postalCode":"8424","locality":"Embrach","commune":{"key":"56","name":"Embrach","shortName":"Embrach"},"district":{"key":"103","name":"Bezirk Bülach"},"canton":{"key":"1","code":"ZH","name":"Zürich"},"status":"Real"},{"key":"10057246","name":"Im Amtsacker","postalCode":"8424","locality":"Embrach","commune":{"key":"56","name":"Embrach","shortName":"Embrach"},"district":{"key":"103","name":"Bezirk Bülach"},"canton":{"key":"1","code":"ZH","name":"Zürich"},"status":"Real"},{"key":"10248109","name":"Im Bungert","postalCode":"8424","locality":"Embrach","commune":{"key":"56","name":"Embrach","shortName":"Embrach"},"district":{"key":"103","name":"Bezirk Bülach"},"canton":{"key":"1","code":"ZH","name":"Zürich"},"status":"Real"},{"key":"10002389","name":"Im Chängel","postalCode":"8424","locality":"Embrach","commune":{"key":"56","name":"Embrach","shortName":"Embrach"},"district":{"key":"103","name":"Bezirk Bülach"},"canton":{"key":"1","code":"ZH","name":"Zürich"},"status":"Real"},{"key":"10128125","name":"Im Feld","postalCode":"8424","locality":"Embrach","commune":{"key":"56","name":"Embrach","shortName":"Embrach"},"district":{"key":"103","name":"Bezirk Bülach"},"canton":{"key":"1","code":"ZH","name":"Zürich"},"status":"Real"},{"key":"10200171","name":"Im Gässli","postalCode":"8424","locality":"Embrach","commune":{"key":"56","name":"Embrach","shortName":"Embrach"},"district":{"key":"103","name":"Bezirk Bülach"},"canton":{"key":"1","code":"ZH","name":"Zürich"},"status":"Real"},{"key":"10184657","name":"Im Grund","postalCode":"8424","locality":"Embrach","commune":{"key":"56","name":"Embrach","shortName":"Embrach"},"district":{"key":"103","name":"Bezirk Bülach"},"canton":{"key":"1","code":"ZH","name":"Zürich"},"status":"Real"},{"key":"10002390","name":"Im Gstein","postalCode":"8424","locality":"Embrach","commune":{"key":"56","name":"Embrach","shortName":"Embrach"},"district":{"key":"103","name":"Bezirk Bülach"},"canton":{"key":"1","code":"ZH","name":"Zürich"},"status":"Real"},{"key":"10057247","name":"Im Haller","postalCode":"8424","locality":"Embrach","commune":{"key":"56","name":"Embrach","shortName":"Embrach"},"district":{"key":"103","name":"Bezirk Bülach"},"canton":{"key":"1","code":"ZH","name":"Zürich"},"status":"Real"},{"key":"10061752","name":"Im Higgi","postalCode":"8425","locality":"Oberembrach","commune":{"key":"65","name":"Oberembrach","shortName":"Oberembrach"},"district":{"key":"103","name":"Bezirk Bülach"},"canton":{"key":"1","code":"ZH","name":"Zürich"},"status":"Real"},{"key":"10189855","name":"Im langen Baum","postalCode":"8424","locality":"Embrach","commune":{"key":"56","name":"Embrach","shortName":"Embrach"},"district":{"key":"103","name":"Bezirk Bülach"},"canton":{"key":"1","code":"ZH","name":"Zürich"},"status":"Real"},{"key":"10003643","name":"Im Mühlacher","postalCode":"8425","locality":"Oberembrach","commune":{"key":"65","name":"Oberembrach","shortName":"Oberembrach"},"district":{"key":"103","name":"Bezirk Bülach"},"canton":{"key":"1","code":"ZH","name":"Zürich"},"status":"Real"},{"key":"10057248","name":"In der Halde","postalCode":"8424","locality":"Embrach","commune":{"key":"56","name":"Embrach","shortName":"Embrach"},"district":{"key":"103","name":"Bezirk Bülach"},"canton":{"key":"1","code":"ZH","name":"Zürich"},"status":"Real"},{"key":"10002392","name":"Industriestrasse","postalCode":"8424","locality":"Embrach","commune":{"key":"56","name":"Embrach","shortName":"Embrach"},"district":{"key":"103","name":"Bezirk Bülach"},"canton":{"key":"1","code":"ZH","name":"Zürich"},"status":"Real"},{"key":"10002391","name":"In Langwise","postalCode":"8424","locality":"Embrach","commune":{"key":"56","name":"Embrach","shortName":"Embrach"},"district":{"key":"103","name":"Bezirk Bülach"},"canton":{"key":"1","code":"ZH","name":"Zürich"},"status":"Real"},{"key":"10173959","name":"Innerrainstrasse","postalCode":"8425","locality":"Oberembrach","commune":{"key":"65","name":"Oberembrach","shortName":"Oberembrach"},"district":{"key":"103","name":"Bezirk Bülach"},"canton":{"key":"1","code":"ZH","name":"Zürich"},"status":"Real"},{"key":"10080699","name":"Irchelstrasse","postalCode":"8424","locality":"Embrach","commune":{"key":"56","name":"Embrach","shortName":"Embrach"},"district":{"key":"103","name":"Bezirk Bülach"},"canton":{"key":"1","code":"ZH","name":"Zürich"},"status":"Real"},{"key":"10201116","name":"Ischlagstrasse","postalCode":"8424","locality":"Embrach","commune":{"key":"56","name":"Embrach","shortName":"Embrach"},"district":{"key":"103","name":"Bezirk Bülach"},"canton":{"key":"1","code":"ZH","name":"Zürich"},"status":"Real"},{"key":"10201117","name":"Jagdhüttenweg","postalCode":"8424","locality":"Embrach","commune":{"key":"56","name":"Embrach","shortName":"Embrach"},"district":{"key":"103","name":"Bezirk Bülach"},"canton":{"key":"1","code":"ZH","name":"Zürich"},"status":"Real"},{"key":"10003644","name":"Jakob Bosshart-Strasse","postalCode":"8425","locality":"Oberembrach","commune":{"key":"65","name":"Oberembrach","shortName":"Oberembrach"},"district":{"key":"103","name":"Bezirk Bülach"},"canton":{"key":"1","code":"ZH","name":"Zürich"},"status":"Real"},{"key":"10108798","name":"Jakob-Bosshart-Strasse","postalCode":"8424","locality":"Embrach","commune":{"key":"56","name":"Embrach","shortName":"Embrach"},"district":{"key":"103","name":"Bezirk Bülach"},"canton":{"key":"1","code":"ZH","name":"Zürich"},"status":"Real"},{"key":"10201118","name":"Jung Haustrasse","postalCode":"8424","locality":"Embrach","commune":{"key":"56","name":"Embrach","shortName":"Embrach"},"district":{"key":"103","name":"Bezirk Bülach"},"canton":{"key":"1","code":"ZH","name":"Zürich"},"status":"Real"},{"key":"10173960","name":"Junkerstrasse","postalCode":"8425","locality":"Oberembrach","commune":{"key":"65","name":"Oberembrach","shortName":"Oberembrach"},"district":{"key":"103","name":"Bezirk Bülach"},"canton":{"key":"1","code":"ZH","name":"Zürich"},"status":"Real"},{"key":"10201119","name":"Kappellenweg","postalCode":"8424","locality":"Embrach","commune":{"key":"56","name":"Embrach","shortName":"Embrach"},"district":{"key":"103","name":"Bezirk Bülach"},"canton":{"key":"1","code":"ZH","name":"Zürich"},"status":"Real"},{"key":"10201120","name":"Kellerbühlweg","postalCode":"8424","locality":"Embrach","commune":{"key":"56","name":"Embrach","shortName":"Embrach"},"district":{"key":"103","name":"Bezirk Bülach"},"canton":{"key":"1","code":"ZH","name":"Zürich"},"status":"Real"},{"key":"10002393","name":"Kellersackerstrasse","postalCode":"8424","locality":"Embrach","commune":{"key":"56","name":"Embrach","shortName":"Embrach"},"district":{"key":"103","name":"Bezirk Bülach"},"canton":{"key":"1","code":"ZH","name":"Zürich"},"status":"Real"},{"key":"10080700","name":"Kindergartenweg","postalCode":"8424","locality":"Embrach","commune":{"key":"56","name":"Embrach","shortName":"Embrach"},"district":{"key":"103","name":"Bezirk Bülach"},"canton":{"key":"1","code":"ZH","name":"Zürich"},"status":"Real"},{"key":"10201121","name":"Kohlholzstrasse","postalCode":"8424","locality":"Embrach","commune":{"key":"56","name":"Embrach","shortName":"Embrach"},"district":{"key":"103","name":"Bezirk Bülach"},"canton":{"key":"1","code":"ZH","name":"Zürich"},"status":"Real"},{"key":"10057249","name":"Kratzstrasse","postalCode":"8424","locality":"Embrach","commune":{"key":"56","name":"Embrach","shortName":"Embrach"},"district":{"key":"103","name":"Bezirk Bülach"},"canton":{"key":"1","code":"ZH","name":"Zürich"},"status":"Real"},{"key":"10079668","name":"Kratzstrasse","postalCode":"8425","locality":"Oberembrach","commune":{"key":"65","name":"Oberembrach","shortName":"Oberembrach"},"district":{"key":"103","name":"Bezirk Bülach"},"canton":{"key":"1","code":"ZH","name":"Zürich"},"status":"Real"},{"key":"10173961","name":"Kratzweg","postalCode":"8425","locality":"Oberembrach","commune":{"key":"65","name":"Oberembrach","shortName":"Oberembrach"},"district":{"key":"103","name":"Bezirk Bülach"},"canton":{"key":"1","code":"ZH","name":"Zürich"},"status":"Real"},{"key":"10201122","name":"Kyburgerweg","postalCode":"8424","locality":"Embrach","commune":{"key":"56","name":"Embrach","shortName":"Embrach"},"district":{"key":"103","name":"Bezirk Bülach"},"canton":{"key":"1","code":"ZH","name":"Zürich"},"status":"Real"},{"key":"10002394","name":"Lagerhausweg","postalCode":"8424","locality":"Embrach","commune":{"key":"56","name":"Embrach","shortName":"Embrach"},"district":{"key":"103","name":"Bezirk Bülach"},"canton":{"key":"1","code":"ZH","name":"Zürich"},"status":"Real"},{"key":"10017577","name":"Ländiweg","postalCode":"8425","locality":"Oberembrach","commune":{"key":"65","name":"Oberembrach","shortName":"Oberembrach"},"district":{"key":"103","name":"Bezirk Bülach"},"canton":{"key":"1","code":"ZH","name":"Zürich"},"status":"Real"},{"key":"10080701","name":"Langackerstrasse","postalCode":"8424","locality":"Embrach","commune":{"key":"56","name":"Embrach","shortName":"Embrach"},"district":{"key":"103","name":"Bezirk Bülach"},"canton":{"key":"1","code":"ZH","name":"Zürich"},"status":"Real"},{"key":"10017578","name":"Langäckerstrasse","postalCode":"8425","locality":"Oberembrach","commune":{"key":"65","name":"Oberembrach","shortName":"Oberembrach"},"district":{"key":"103","name":"Bezirk Bülach"},"canton":{"key":"1","code":"ZH","name":"Zürich"},"status":"Real"},{"key":"10242369","name":"Langackerweg","postalCode":"8424","locality":"Embrach","commune":{"key":"56","name":"Embrach","shortName":"Embrach"},"district":{"key":"103","name":"Bezirk Bülach"},"canton":{"key":"1","code":"ZH","name":"Zürich"},"status":"Real"},{"key":"10173962","name":"Längistrasse","postalCode":"8425","locality":"Oberembrach","commune":{"key":"65","name":"Oberembrach","shortName":"Oberembrach"},"district":{"key":"103","name":"Bezirk Bülach"},"canton":{"key":"1","code":"ZH","name":"Zürich"},"status":"Real"},{"key":"10201123","name":"Lärchenweg","postalCode":"8424","locality":"Embrach","commune":{"key":"56","name":"Embrach","shortName":"Embrach"},"district":{"key":"103","name":"Bezirk Bülach"},"canton":{"key":"1","code":"ZH","name":"Zürich"},"status":"Real"},{"key":"10173963","name":"Lättenstrasse","postalCode":"8425","locality":"Oberembrach","commune":{"key":"65","name":"Oberembrach","shortName":"Oberembrach"},"district":{"key":"103","name":"Bezirk Bülach"},"canton":{"key":"1","code":"ZH","name":"Zürich"},"status":"Real"},{"key":"10110349","name":"Lerchenbüelstrasse","postalCode":"8425","locality":"Oberembrach","commune":{"key":"65","name":"Oberembrach","shortName":"Oberembrach"},"district":{"key":"103","name":"Bezirk Bülach"},"canton":{"key":"1","code":"ZH","name":"Zürich"},"status":"Real"},{"key":"10002395","name":"Lochackerstrasse","postalCode":"8424","locality":"Embrach","commune":{"key":"56","name":"Embrach","shortName":"Embrach"},"district":{"key":"103","name":"Bezirk Bülach"},"canton":{"key":"1","code":"ZH","name":"Zürich"},"status":"Real"},{"key":"10017579","name":"Lochstrasse","postalCode":"8425","locality":"Oberembrach","commune":{"key":"65","name":"Oberembrach","shortName":"Oberembrach"},"district":{"key":"103","name":"Bezirk Bülach"},"canton":{"key":"1","code":"ZH","name":"Zürich"},"status":"Real"},{"key":"10054303","name":"Looren","postalCode":"8425","locality":"Oberembrach","commune":{"key":"65","name":"Oberembrach","shortName":"Oberembrach"},"district":{"key":"103","name":"Bezirk Bülach"},"canton":{"key":"1","code":"ZH","name":"Zürich"},"status":"Real"},{"key":"10017581","name":"Loorenstrasse","postalCode":"8425","locality":"Oberembrach","commune":{"key":"65","name":"Oberembrach","shortName":"Oberembrach"},"district":{"key":"103","name":"Bezirk Bülach"},"canton":{"key":"1","code":"ZH","name":"Zürich"},"status":"Real"},{"key":"10201124","name":"Looweg","postalCode":"8424","locality":"Embrach","commune":{"key":"56","name":"Embrach","shortName":"Embrach"},"district":{"key":"103","name":"Bezirk Bülach"},"canton":{"key":"1","code":"ZH","name":"Zürich"},"status":"Real"},{"key":"10116776","name":"Madlikon","postalCode":"8425","locality":"Oberembrach","commune":{"key":"65","name":"Oberembrach","shortName":"Oberembrach"},"district":{"key":"103","name":"Bezirk Bülach"},"canton":{"key":"1","code":"ZH","name":"Zürich"},"status":"Real"},{"key":"10017582","name":"Madlikonerstrasse","postalCode":"8425","locality":"Oberembrach","commune":{"key":"65","name":"Oberembrach","shortName":"Oberembrach"},"district":{"key":"103","name":"Bezirk Bülach"},"canton":{"key":"1","code":"ZH","name":"Zürich"},"status":"Real"},{"key":"10242370","name":"Mattenweg","postalCode":"8424","locality":"Embrach","commune":{"key":"56","name":"Embrach","shortName":"Embrach"},"district":{"key":"103","name":"Bezirk Bülach"},"canton":{"key":"1","code":"ZH","name":"Zürich"},"status":"Real"},{"key":"10201125","name":"Meierhölzliweg","postalCode":"8424","locality":"Embrach","commune":{"key":"56","name":"Embrach","shortName":"Embrach"},"district":{"key":"103","name":"Bezirk Bülach"},"canton":{"key":"1","code":"ZH","name":"Zürich"},"status":"Real"},{"key":"10201126","name":"Meiliweg","postalCode":"8424","locality":"Embrach","commune":{"key":"56","name":"Embrach","shortName":"Embrach"},"district":{"key":"103","name":"Bezirk Bülach"},"canton":{"key":"1","code":"ZH","name":"Zürich"},"status":"Real"},{"key":"10201127","name":"Mettlenstrasse","postalCode":"8424","locality":"Embrach","commune":{"key":"56","name":"Embrach","shortName":"Embrach"},"district":{"key":"103","name":"Bezirk Bülach"},"canton":{"key":"1","code":"ZH","name":"Zürich"},"status":"Real"},{"key":"10017585","name":"Mettlenstrasse","postalCode":"8425","locality":"Oberembrach","commune":{"key":"65","name":"Oberembrach","shortName":"Oberembrach"},"district":{"key":"103","name":"Bezirk Bülach"},"canton":{"key":"1","code":"ZH","name":"Zürich"},"status":"Real"},{"key":"10110350","name":"Mettlenweg","postalCode":"8425","locality":"Oberembrach","commune":{"key":"65","name":"Oberembrach","shortName":"Oberembrach"},"district":{"key":"103","name":"Bezirk Bülach"},"canton":{"key":"1","code":"ZH","name":"Zürich"},"status":"Real"},{"key":"10110356","name":"Mooswiesenstrasse","postalCode":"8425","locality":"Oberembrach","commune":{"key":"65","name":"Oberembrach","shortName":"Oberembrach"},"district":{"key":"103","name":"Bezirk Bülach"},"canton":{"key":"1","code":"ZH","name":"Zürich"},"status":"Real"},{"key":"10003645","name":"Mühlberg","postalCode":"8425","locality":"Oberembrach","commune":{"key":"65","name":"Oberembrach","shortName":"Oberembrach"},"district":{"key":"103","name":"Bezirk Bülach"},"canton":{"key":"1","code":"ZH","name":"Zürich"},"status":"Real"},{"key":"10017586","name":"Mühlbergstrasse","postalCode":"8425","locality":"Oberembrach","commune":{"key":"65","name":"Oberembrach","shortName":"Oberembrach"},"district":{"key":"103","name":"Bezirk Bülach"},"canton":{"key":"1","code":"ZH","name":"Zürich"},"status":"Real"},{"key":"10088204","name":"Mühlbergweg","postalCode":"8425","locality":"Oberembrach","commune":{"key":"65","name":"Oberembrach","shortName":"Oberembrach"},"district":{"key":"103","name":"Bezirk Bülach"},"canton":{"key":"1","code":"ZH","name":"Zürich"},"status":"Real"},{"key":"10003646","name":"Mühlestrasse","postalCode":"8425","locality":"Oberembrach","commune":{"key":"65","name":"Oberembrach","shortName":"Oberembrach"},"district":{"key":"103","name":"Bezirk Bülach"},"canton":{"key":"1","code":"ZH","name":"Zürich"},"status":"Real"},{"key":"10110359","name":"Müsenweg","postalCode":"8425","locality":"Oberembrach","commune":{"key":"65","name":"Oberembrach","shortName":"Oberembrach"},"district":{"key":"103","name":"Bezirk Bülach"},"canton":{"key":"1","code":"ZH","name":"Zürich"},"status":"Real"},{"key":"10003647","name":"Neugutstrasse","postalCode":"8425","locality":"Oberembrach","commune":{"key":"65","name":"Oberembrach","shortName":"Oberembrach"},"district":{"key":"103","name":"Bezirk Bülach"},"canton":{"key":"1","code":"ZH","name":"Zürich"},"status":"Real"},{"key":"10120770","name":"Neumoosstrasse","postalCode":"8424","locality":"Embrach","commune":{"key":"56","name":"Embrach","shortName":"Embrach"},"district":{"key":"103","name":"Bezirk Bülach"},"canton":{"key":"1","code":"ZH","name":"Zürich"},"status":"Real"},{"key":"10061753","name":"Neuwisstrasse","postalCode":"8425","locality":"Oberembrach","commune":{"key":"65","name":"Oberembrach","shortName":"Oberembrach"},"district":{"key":"103","name":"Bezirk Bülach"},"canton":{"key":"1","code":"ZH","name":"Zürich"},"status":"Real"},{"key":"10057250","name":"Nordstrasse","postalCode":"8424","locality":"Embrach","commune":{"key":"56","name":"Embrach","shortName":"Embrach"},"district":{"key":"103","name":"Bezirk Bülach"},"canton":{"key":"1","code":"ZH","name":"Zürich"},"status":"Real"},{"key":"10201128","name":"Oberalmetweg","postalCode":"8424","locality":"Embrach","commune":{"key":"56","name":"Embrach","shortName":"Embrach"},"district":{"key":"103","name":"Bezirk Bülach"},"canton":{"key":"1","code":"ZH","name":"Zürich"},"status":"Real"},{"key":"10191755","name":"Oberdorfstrasse","postalCode":"8424","locality":"Embrach","commune":{"key":"56","name":"Embrach","shortName":"Embrach"},"district":{"key":"103","name":"Bezirk Bülach"},"canton":{"key":"1","code":"ZH","name":"Zürich"},"status":"Real"},{"key":"10079669","name":"Obere Rebbergstrasse","postalCode":"8425","locality":"Oberembrach","commune":{"key":"65","name":"Oberembrach","shortName":"Oberembrach"},"district":{"key":"103","name":"Bezirk Bülach"},"canton":{"key":"1","code":"ZH","name":"Zürich"},"status":"Real"},{"key":"10242371","name":"Oberfeldstrasse","postalCode":"8424","locality":"Embrach","commune":{"key":"56","name":"Embrach","shortName":"Embrach"},"district":{"key":"103","name":"Bezirk Bülach"},"canton":{"key":"1","code":"ZH","name":"Zürich"},"status":"Real"},{"key":"10201349","name":"Oberhaldenweg","postalCode":"8424","locality":"Embrach","commune":{"key":"56","name":"Embrach","shortName":"Embrach"},"district":{"key":"103","name":"Bezirk Bülach"},"canton":{"key":"1","code":"ZH","name":"Zürich"},"status":"Real"},{"key":"10017587","name":"Oberholzweg","postalCode":"8425","locality":"Oberembrach","commune":{"key":"65","name":"Oberembrach","shortName":"Oberembrach"},"district":{"key":"103","name":"Bezirk Bülach"},"canton":{"key":"1","code":"ZH","name":"Zürich"},"status":"Real"},{"key":"10110952","name":"Obermettmenstetten","postalCode":"8425","locality":"Oberembrach","commune":{"key":"65","name":"Oberembrach","shortName":"Oberembrach"},"district":{"key":"103","name":"Bezirk Bülach"},"canton":{"key":"1","code":"ZH","name":"Zürich"},"status":"Real"},{"key":"10017589","name":"Obermettmenstettenstrasse","postalCode":"8425","locality":"Oberembrach","commune":{"key":"65","name":"Oberembrach","shortName":"Oberembrach"},"district":{"key":"103","name":"Bezirk Bülach"},"canton":{"key":"1","code":"ZH","name":"Zürich"},"status":"Real"},{"key":"10080702","name":"Obermühleweg","postalCode":"8424","locality":"Embrach","commune":{"key":"56","name":"Embrach","shortName":"Embrach"},"district":{"key":"103","name":"Bezirk Bülach"},"canton":{"key":"1","code":"ZH","name":"Zürich"},"status":"Real"},{"key":"10017590","name":"Obertiliweg","postalCode":"8425","locality":"Oberembrach","commune":{"key":"65","name":"Oberembrach","shortName":"Oberembrach"},"district":{"key":"103","name":"Bezirk Bülach"},"canton":{"key":"1","code":"ZH","name":"Zürich"},"status":"Real"},{"key":"10110211","name":"Oberwagenburg","postalCode":"8425","locality":"Oberembrach","commune":{"key":"65","name":"Oberembrach","shortName":"Oberembrach"},"district":{"key":"103","name":"Bezirk Bülach"},"canton":{"key":"1","code":"ZH","name":"Zürich"},"status":"Real"},{"key":"10201351","name":"Oberwaldstrasse","postalCode":"8424","locality":"Embrach","commune":{"key":"56","name":"Embrach","shortName":"Embrach"},"district":{"key":"103","name":"Bezirk Bülach"},"canton":{"key":"1","code":"ZH","name":"Zürich"},"status":"Real"},{"key":"10079670","name":"Obstgartenstrasse","postalCode":"8425","locality":"Oberembrach","commune":{"key":"65","name":"Oberembrach","shortName":"Oberembrach"},"district":{"key":"103","name":"Bezirk Bülach"},"canton":{"key":"1","code":"ZH","name":"Zürich"},"status":"Real"},{"key":"10173964","name":"Ofengupfweg","postalCode":"8425","locality":"Oberembrach","commune":{"key":"65","name":"Oberembrach","shortName":"Oberembrach"},"district":{"key":"103","name":"Bezirk Bülach"},"canton":{"key":"1","code":"ZH","name":"Zürich"},"status":"Real"},{"key":"10054304","name":"Paradies","postalCode":"8425","locality":"Oberembrach","commune":{"key":"65","name":"Oberembrach","shortName":"Oberembrach"},"district":{"key":"103","name":"Bezirk Bülach"},"canton":{"key":"1","code":"ZH","name":"Zürich"},"status":"Real"},{"key":"10187946","name":"Paradiesstrasse","postalCode":"8425","locality":"Oberembrach","commune":{"key":"65","name":"Oberembrach","shortName":"Oberembrach"},"district":{"key":"103","name":"Bezirk Bülach"},"canton":{"key":"1","code":"ZH","name":"Zürich"},"status":"Real"},{"key":"10002396","name":"Pfarrhausstrasse","postalCode":"8424","locality":"Embrach","commune":{"key":"56","name":"Embrach","shortName":"Embrach"},"district":{"key":"103","name":"Bezirk Bülach"},"canton":{"key":"1","code":"ZH","name":"Zürich"},"status":"Real"},{"key":"10201352","name":"Pflanzschulstrasse","postalCode":"8424","locality":"Embrach","commune":{"key":"56","name":"Embrach","shortName":"Embrach"},"district":{"key":"103","name":"Bezirk Bülach"},"canton":{"key":"1","code":"ZH","name":"Zürich"},"status":"Real"},{"key":"10115539","name":"Pfungenerstrasse","postalCode":"8425","locality":"Oberembrach","commune":{"key":"65","name":"Oberembrach","shortName":"Oberembrach"},"district":{"key":"103","name":"Bezirk Bülach"},"canton":{"key":"1","code":"ZH","name":"Zürich"},"status":"Real"},{"key":"10201353","name":"Plattenstrasse","postalCode":"8424","locality":"Embrach","commune":{"key":"56","name":"Embrach","shortName":"Embrach"},"district":{"key":"103","name":"Bezirk Bülach"},"canton":{"key":"1","code":"ZH","name":"Zürich"},"status":"Real"},{"key":"10201354","name":"Plattenweiherstrasse","postalCode":"8424","locality":"Embrach","commune":{"key":"56","name":"Embrach","shortName":"Embrach"},"district":{"key":"103","name":"Bezirk Bülach"},"canton":{"key":"1","code":"ZH","name":"Zürich"},"status":"Real"},{"key":"10201355","name":"Postweg","postalCode":"8424","locality":"Embrach","commune":{"key":"56","name":"Embrach","shortName":"Embrach"},"district":{"key":"103","name":"Bezirk Bülach"},"canton":{"key":"1","code":"ZH","name":"Zürich"},"status":"Real"},{"key":"10003648","name":"Püntenhofstrasse","postalCode":"8425","locality":"Oberembrach","commune":{"key":"65","name":"Oberembrach","shortName":"Oberembrach"},"district":{"key":"103","name":"Bezirk Bülach"},"canton":{"key":"1","code":"ZH","name":"Zürich"},"status":"Real"},{"key":"10173965","name":"Püntliweg","postalCode":"8425","locality":"Oberembrach","commune":{"key":"65","name":"Oberembrach","shortName":"Oberembrach"},"district":{"key":"103","name":"Bezirk Bülach"},"canton":{"key":"1","code":"ZH","name":"Zürich"},"status":"Real"},{"key":"10116771","name":"Querstrasse","postalCode":"8424","locality":"Embrach","commune":{"key":"56","name":"Embrach","shortName":"Embrach"},"district":{"key":"103","name":"Bezirk Bülach"},"canton":{"key":"1","code":"ZH","name":"Zürich"},"status":"Real"},{"key":"10110916","name":"Rebbergstrasse","postalCode":"8424","locality":"Embrach","commune":{"key":"56","name":"Embrach","shortName":"Embrach"},"district":{"key":"103","name":"Bezirk Bülach"},"canton":{"key":"1","code":"ZH","name":"Zürich"},"status":"Real"},{"key":"10003649","name":"Rebbergstrasse","postalCode":"8425","locality":"Oberembrach","commune":{"key":"65","name":"Oberembrach","shortName":"Oberembrach"},"district":{"key":"103","name":"Bezirk Bülach"},"canton":{"key":"1","code":"ZH","name":"Zürich"},"status":"Real"},{"key":"10173966","name":"Rebenstrasse","postalCode":"8425","locality":"Oberembrach","commune":{"key":"65","name":"Oberembrach","shortName":"Oberembrach"},"district":{"key":"103","name":"Bezirk Bülach"},"canton":{"key":"1","code":"ZH","name":"Zürich"},"status":"Real"},{"key":"10079671","name":"Rebhalde","postalCode":"8425","locality":"Oberembrach","commune":{"key":"65","name":"Oberembrach","shortName":"Oberembrach"},"district":{"key":"103","name":"Bezirk Bülach"},"canton":{"key":"1","code":"ZH","name":"Zürich"},"status":"Real"},{"key":"10169670","name":"Rebhaldenstrasse","postalCode":"8425","locality":"Oberembrach","commune":{"key":"65","name":"Oberembrach","shortName":"Oberembrach"},"district":{"key":"103","name":"Bezirk Bülach"},"canton":{"key":"1","code":"ZH","name":"Zürich"},"status":"Real"},{"key":"10088205","name":"Rehweg","postalCode":"8425","locality":"Oberembrach","commune":{"key":"65","name":"Oberembrach","shortName":"Oberembrach"},"district":{"key":"103","name":"Bezirk Bülach"},"canton":{"key":"1","code":"ZH","name":"Zürich"},"status":"Real"},{"key":"10080703","name":"Rheinstrasse","postalCode":"8424","locality":"Embrach","commune":{"key":"56","name":"Embrach","shortName":"Embrach"},"district":{"key":"103","name":"Bezirk Bülach"},"canton":{"key":"1","code":"ZH","name":"Zürich"},"status":"Real"},{"key":"10061754","name":"Riethof","postalCode":"8425","locality":"Oberembrach","commune":{"key":"65","name":"Oberembrach","shortName":"Oberembrach"},"district":{"key":"103","name":"Bezirk Bülach"},"canton":{"key":"1","code":"ZH","name":"Zürich"},"status":"Real"},{"key":"10002397","name":"Rietweg","postalCode":"8424","locality":"Embrach","commune":{"key":"56","name":"Embrach","shortName":"Embrach"},"district":{"key":"103","name":"Bezirk Bülach"},"canton":{"key":"1","code":"ZH","name":"Zürich"},"status":"Real"},{"key":"10201356","name":"Ringstrasse","postalCode":"8424","locality":"Embrach","commune":{"key":"56","name":"Embrach","shortName":"Embrach"},"district":{"key":"103","name":"Bezirk Bülach"},"canton":{"key":"1","code":"ZH","name":"Zürich"},"status":"Real"},{"key":"10002398","name":"Roggenfeldstrasse","postalCode":"8424","locality":"Embrach","commune":{"key":"56","name":"Embrach","shortName":"Embrach"},"district":{"key":"103","name":"Bezirk Bülach"},"canton":{"key":"1","code":"ZH","name":"Zürich"},"status":"Real"},{"key":"10088207","name":"Römerstrasse","postalCode":"8425","locality":"Oberembrach","commune":{"key":"65","name":"Oberembrach","shortName":"Oberembrach"},"district":{"key":"103","name":"Bezirk Bülach"},"canton":{"key":"1","code":"ZH","name":"Zürich"},"status":"Real"},{"key":"10117343","name":"Römerweg","postalCode":"8424","locality":"Embrach","commune":{"key":"56","name":"Embrach","shortName":"Embrach"},"district":{"key":"103","name":"Bezirk Bülach"},"canton":{"key":"1","code":"ZH","name":"Zürich"},"status":"Real"},{"key":"10088208","name":"Rooswiesenstrasse","postalCode":"8425","locality":"Oberembrach","commune":{"key":"65","name":"Oberembrach","shortName":"Oberembrach"},"district":{"key":"103","name":"Bezirk Bülach"},"canton":{"key":"1","code":"ZH","name":"Zürich"},"status":"Real"},{"key":"10201357","name":"Rorbaserhaagstrasse","postalCode":"8424","locality":"Embrach","commune":{"key":"56","name":"Embrach","shortName":"Embrach"},"district":{"key":"103","name":"Bezirk Bülach"},"canton":{"key":"1","code":"ZH","name":"Zürich"},"status":"Real"},{"key":"10175878","name":"Rorbaserweg","postalCode":"8424","locality":"Embrach","commune":{"key":"56","name":"Embrach","shortName":"Embrach"},"district":{"key":"103","name":"Bezirk Bülach"},"canton":{"key":"1","code":"ZH","name":"Zürich"},"status":"Real"},{"key":"10002399","name":"Rosenweg","postalCode":"8424","locality":"Embrach","commune":{"key":"56","name":"Embrach","shortName":"Embrach"},"district":{"key":"103","name":"Bezirk Bülach"},"canton":{"key":"1","code":"ZH","name":"Zürich"},"status":"Real"},{"key":"10051389","name":"Rötelsteinstrasse","postalCode":"8425","locality":"Oberembrach","commune":{"key":"65","name":"Oberembrach","shortName":"Oberembrach"},"district":{"key":"103","name":"Bezirk Bülach"},"canton":{"key":"1","code":"ZH","name":"Zürich"},"status":"Real"},{"key":"10003650","name":"Rothenfluh","postalCode":"8425","locality":"Oberembrach","commune":{"key":"65","name":"Oberembrach","shortName":"Oberembrach"},"district":{"key":"103","name":"Bezirk Bülach"},"canton":{"key":"1","code":"ZH","name":"Zürich"},"status":"Real"},{"key":"10051390","name":"Rothenfluhstrasse","postalCode":"8425","locality":"Oberembrach","commune":{"key":"65","name":"Oberembrach","shortName":"Oberembrach"},"district":{"key":"103","name":"Bezirk Bülach"},"canton":{"key":"1","code":"ZH","name":"Zürich"},"status":"Real"},{"key":"10088209","name":"Rundenbuckstrasse","postalCode":"8425","locality":"Oberembrach","commune":{"key":"65","name":"Oberembrach","shortName":"Oberembrach"},"district":{"key":"103","name":"Bezirk Bülach"},"canton":{"key":"1","code":"ZH","name":"Zürich"},"status":"Real"},{"key":"10242372","name":"Rütenenweg","postalCode":"8424","locality":"Embrach","commune":{"key":"56","name":"Embrach","shortName":"Embrach"},"district":{"key":"103","name":"Bezirk Bülach"},"canton":{"key":"1","code":"ZH","name":"Zürich"},"status":"Real"},{"key":"10242373","name":"Rütibodenweg","postalCode":"8424","locality":"Embrach","commune":{"key":"56","name":"Embrach","shortName":"Embrach"},"district":{"key":"103","name":"Bezirk Bülach"},"canton":{"key":"1","code":"ZH","name":"Zürich"},"status":"Real"},{"key":"10051391","name":"Rütistrasse","postalCode":"8425","locality":"Oberembrach","commune":{"key":"65","name":"Oberembrach","shortName":"Oberembrach"},"district":{"key":"103","name":"Bezirk Bülach"},"canton":{"key":"1","code":"ZH","name":"Zürich"},"status":"Real"},{"key":"10051392","name":"Salstrasse","postalCode":"8425","locality":"Oberembrach","commune":{"key":"65","name":"Oberembrach","shortName":"Oberembrach"},"district":{"key":"103","name":"Bezirk Bülach"},"canton":{"key":"1","code":"ZH","name":"Zürich"},"status":"Real"},{"key":"10051394","name":"Salweg","postalCode":"8425","locality":"Oberembrach","commune":{"key":"65","name":"Oberembrach","shortName":"Oberembrach"},"district":{"key":"103","name":"Bezirk Bülach"},"canton":{"key":"1","code":"ZH","name":"Zürich"},"status":"Real"},{"key":"10201358","name":"Schachenweg","postalCode":"8424","locality":"Embrach","commune":{"key":"56","name":"Embrach","shortName":"Embrach"},"district":{"key":"103","name":"Bezirk Bülach"},"canton":{"key":"1","code":"ZH","name":"Zürich"},"status":"Real"},{"key":"10242374","name":"Schärenwisweg","postalCode":"8424","locality":"Embrach","commune":{"key":"56","name":"Embrach","shortName":"Embrach"},"district":{"key":"103","name":"Bezirk Bülach"},"canton":{"key":"1","code":"ZH","name":"Zürich"},"status":"Real"},{"key":"10106326","name":"Schauberg","postalCode":"8425","locality":"Oberembrach","commune":{"key":"65","name":"Oberembrach","shortName":"Oberembrach"},"district":{"key":"103","name":"Bezirk Bülach"},"canton":{"key":"1","code":"ZH","name":"Zürich"},"status":"Real"},{"key":"10051693","name":"Schaubergstrasse","postalCode":"8425","locality":"Oberembrach","commune":{"key":"65","name":"Oberembrach","shortName":"Oberembrach"},"district":{"key":"103","name":"Bezirk Bülach"},"canton":{"key":"1","code":"ZH","name":"Zürich"},"status":"Real"},{"key":"10247782","name":"Schaubergweg","postalCode":"8425","locality":"Oberembrach","commune":{"key":"65","name":"Oberembrach","shortName":"Oberembrach"},"district":{"key":"103","name":"Bezirk Bülach"},"canton":{"key":"1","code":"ZH","name":"Zürich"},"status":"Real"},{"key":"10201359","name":"Scheidweg","postalCode":"8424","locality":"Embrach","commune":{"key":"56","name":"Embrach","shortName":"Embrach"},"district":{"key":"103","name":"Bezirk Bülach"},"canton":{"key":"1","code":"ZH","name":"Zürich"},"status":"Real"},{"key":"10201360","name":"Schilfweg","postalCode":"8424","locality":"Embrach","commune":{"key":"56","name":"Embrach","shortName":"Embrach"},"district":{"key":"103","name":"Bezirk Bülach"},"canton":{"key":"1","code":"ZH","name":"Zürich"},"status":"Real"},{"key":"10088210","name":"Schlangenweg","postalCode":"8425","locality":"Oberembrach","commune":{"key":"65","name":"Oberembrach","shortName":"Oberembrach"},"district":{"key":"103","name":"Bezirk Bülach"},"canton":{"key":"1","code":"ZH","name":"Zürich"},"status":"Real"},{"key":"10242375","name":"Schlatterhagweg","postalCode":"8424","locality":"Embrach","commune":{"key":"56","name":"Embrach","shortName":"Embrach"},"district":{"key":"103","name":"Bezirk Bülach"},"canton":{"key":"1","code":"ZH","name":"Zürich"},"status":"Real"},{"key":"10051698","name":"Schlossbuckstrasse","postalCode":"8425","locality":"Oberembrach","commune":{"key":"65","name":"Oberembrach","shortName":"Oberembrach"},"district":{"key":"103","name":"Bezirk Bülach"},"canton":{"key":"1","code":"ZH","name":"Zürich"},"status":"Real"},{"key":"10201361","name":"Schlosserweg","postalCode":"8424","locality":"Embrach","commune":{"key":"56","name":"Embrach","shortName":"Embrach"},"district":{"key":"103","name":"Bezirk Bülach"},"canton":{"key":"1","code":"ZH","name":"Zürich"},"status":"Real"},{"key":"10242376","name":"Schlossweg","postalCode":"8424","locality":"Embrach","commune":{"key":"56","name":"Embrach","shortName":"Embrach"},"district":{"key":"103","name":"Bezirk Bülach"},"canton":{"key":"1","code":"ZH","name":"Zürich"},"status":"Real"},{"key":"10088211","name":"Schlüechtiweg","postalCode":"8425","locality":"Oberembrach","commune":{"key":"65","name":"Oberembrach","shortName":"Oberembrach"},"district":{"key":"103","name":"Bezirk Bülach"},"canton":{"key":"1","code":"ZH","name":"Zürich"},"status":"Real"},{"key":"10003651","name":"Schmerbreiti","postalCode":"8425","locality":"Oberembrach","commune":{"key":"65","name":"Oberembrach","shortName":"Oberembrach"},"district":{"key":"103","name":"Bezirk Bülach"},"canton":{"key":"1","code":"ZH","name":"Zürich"},"status":"Real"},{"key":"10051699","name":"Schmerbreitistrasse","postalCode":"8425","locality":"Oberembrach","commune":{"key":"65","name":"Oberembrach","shortName":"Oberembrach"},"district":{"key":"103","name":"Bezirk Bülach"},"canton":{"key":"1","code":"ZH","name":"Zürich"},"status":"Real"},{"key":"10051700","name":"Schmidhaldenstrasse","postalCode":"8425","locality":"Oberembrach","commune":{"key":"65","name":"Oberembrach","shortName":"Oberembrach"},"district":{"key":"103","name":"Bezirk Bülach"},"canton":{"key":"1","code":"ZH","name":"Zürich"},"status":"Real"},{"key":"10201362","name":"Schuepisstrasse","postalCode":"8424","locality":"Embrach","commune":{"key":"56","name":"Embrach","shortName":"Embrach"},"district":{"key":"103","name":"Bezirk Bülach"},"canton":{"key":"1","code":"ZH","name":"Zürich"},"status":"Real"},{"key":"10088212","name":"Schülerstrasse","postalCode":"8425","locality":"Oberembrach","commune":{"key":"65","name":"Oberembrach","shortName":"Oberembrach"},"district":{"key":"103","name":"Bezirk Bülach"},"canton":{"key":"1","code":"ZH","name":"Zürich"},"status":"Real"},{"key":"10201363","name":"Schulweg","postalCode":"8424","locality":"Embrach","commune":{"key":"56","name":"Embrach","shortName":"Embrach"},"district":{"key":"103","name":"Bezirk Bülach"},"canton":{"key":"1","code":"ZH","name":"Zürich"},"status":"Real"},{"key":"10002400","name":"Schützenhausstrasse","postalCode":"8424","locality":"Embrach","commune":{"key":"56","name":"Embrach","shortName":"Embrach"},"district":{"key":"103","name":"Bezirk Bülach"},"canton":{"key":"1","code":"ZH","name":"Zürich"},"status":"Real"},{"key":"10057251","name":"Schützenmauerstrasse","postalCode":"8424","locality":"Embrach","commune":{"key":"56","name":"Embrach","shortName":"Embrach"},"district":{"key":"103","name":"Bezirk Bülach"},"canton":{"key":"1","code":"ZH","name":"Zürich"},"status":"Real"},{"key":"10242377","name":"Schützenmauerweg","postalCode":"8424","locality":"Embrach","commune":{"key":"56","name":"Embrach","shortName":"Embrach"},"district":{"key":"103","name":"Bezirk Bülach"},"canton":{"key":"1","code":"ZH","name":"Zürich"},"status":"Real"},{"key":"10051701","name":"Schweizistrasse","postalCode":"8425","locality":"Oberembrach","commune":{"key":"65","name":"Oberembrach","shortName":"Oberembrach"},"district":{"key":"103","name":"Bezirk Bülach"},"canton":{"key":"1","code":"ZH","name":"Zürich"},"status":"Real"},{"key":"10201364","name":"Sechsweg","postalCode":"8424","locality":"Embrach","commune":{"key":"56","name":"Embrach","shortName":"Embrach"},"district":{"key":"103","name":"Bezirk Bülach"},"canton":{"key":"1","code":"ZH","name":"Zürich"},"status":"Real"},{"key":"10051706","name":"Seewadelstrasse","postalCode":"8425","locality":"Oberembrach","commune":{"key":"65","name":"Oberembrach","shortName":"Oberembrach"},"district":{"key":"103","name":"Bezirk Bülach"},"canton":{"key":"1","code":"ZH","name":"Zürich"},"status":"Real"},{"key":"10201365","name":"Sibenjutenstrasse","postalCode":"8424","locality":"Embrach","commune":{"key":"56","name":"Embrach","shortName":"Embrach"},"district":{"key":"103","name":"Bezirk Bülach"},"canton":{"key":"1","code":"ZH","name":"Zürich"},"status":"Real"},{"key":"10051714","name":"Silberbergstrasse","postalCode":"8425","locality":"Oberembrach","commune":{"key":"65","name":"Oberembrach","shortName":"Oberembrach"},"district":{"key":"103","name":"Bezirk Bülach"},"canton":{"key":"1","code":"ZH","name":"Zürich"},"status":"Real"},{"key":"10079672","name":"Sonnenberg","postalCode":"8425","locality":"Oberembrach","commune":{"key":"65","name":"Oberembrach","shortName":"Oberembrach"},"district":{"key":"103","name":"Bezirk Bülach"},"canton":{"key":"1","code":"ZH","name":"Zürich"},"status":"Real"},{"key":"10080704","name":"Sonnenbergstrasse","postalCode":"8424","locality":"Embrach","commune":{"key":"56","name":"Embrach","shortName":"Embrach"},"district":{"key":"103","name":"Bezirk Bülach"},"canton":{"key":"1","code":"ZH","name":"Zürich"},"status":"Real"},{"key":"10088213","name":"Sonnenbergstrasse","postalCode":"8425","locality":"Oberembrach","commune":{"key":"65","name":"Oberembrach","shortName":"Oberembrach"},"district":{"key":"103","name":"Bezirk Bülach"},"canton":{"key":"1","code":"ZH","name":"Zürich"},"status":"Real"},{"key":"10059982","name":"Sonnenbergweg","postalCode":"8425","locality":"Oberembrach","commune":{"key":"65","name":"Oberembrach","shortName":"Oberembrach"},"district":{"key":"103","name":"Bezirk Bülach"},"canton":{"key":"1","code":"ZH","name":"Zürich"},"status":"Real"},{"key":"10122230","name":"Sonnenbühl","postalCode":"8425","locality":"Oberembrach","commune":{"key":"65","name":"Oberembrach","shortName":"Oberembrach"},"district":{"key":"103","name":"Bezirk Bülach"},"canton":{"key":"1","code":"ZH","name":"Zürich"},"status":"Real"},{"key":"10088214","name":"Sonnenbühlstrasse","postalCode":"8425","locality":"Oberembrach","commune":{"key":"65","name":"Oberembrach","shortName":"Oberembrach"},"district":{"key":"103","name":"Bezirk Bülach"},"canton":{"key":"1","code":"ZH","name":"Zürich"},"status":"Real"},{"key":"10200172","name":"Spechtstrasse","postalCode":"8424","locality":"Embrach","commune":{"key":"56","name":"Embrach","shortName":"Embrach"},"district":{"key":"103","name":"Bezirk Bülach"},"canton":{"key":"1","code":"ZH","name":"Zürich"},"status":"Real"},{"key":"10088215","name":"Spitzacherstrasse","postalCode":"8425","locality":"Oberembrach","commune":{"key":"65","name":"Oberembrach","shortName":"Oberembrach"},"district":{"key":"103","name":"Bezirk Bülach"},"canton":{"key":"1","code":"ZH","name":"Zürich"},"status":"Real"},{"key":"10201366","name":"Stampfenbachweg","postalCode":"8424","locality":"Embrach","commune":{"key":"56","name":"Embrach","shortName":"Embrach"},"district":{"key":"103","name":"Bezirk Bülach"},"canton":{"key":"1","code":"ZH","name":"Zürich"},"status":"Real"},{"key":"10201367","name":"Stapfenweg","postalCode":"8424","locality":"Embrach","commune":{"key":"56","name":"Embrach","shortName":"Embrach"},"district":{"key":"103","name":"Bezirk Bülach"},"canton":{"key":"1","code":"ZH","name":"Zürich"},"status":"Real"},{"key":"10002401","name":"Stationsstrasse","postalCode":"8424","locality":"Embrach","commune":{"key":"56","name":"Embrach","shortName":"Embrach"},"district":{"key":"103","name":"Bezirk Bülach"},"canton":{"key":"1","code":"ZH","name":"Zürich"},"status":"Real"},{"key":"10017591","name":"Steichelweg","postalCode":"8425","locality":"Oberembrach","commune":{"key":"65","name":"Oberembrach","shortName":"Oberembrach"},"district":{"key":"103","name":"Bezirk Bülach"},"canton":{"key":"1","code":"ZH","name":"Zürich"},"status":"Real"},{"key":"10002402","name":"Steinackerweg","postalCode":"8424","locality":"Embrach","commune":{"key":"56","name":"Embrach","shortName":"Embrach"},"district":{"key":"103","name":"Bezirk Bülach"},"canton":{"key":"1","code":"ZH","name":"Zürich"},"status":"Real"},{"key":"10080705","name":"Steinhaldenstrasse","postalCode":"8424","locality":"Embrach","commune":{"key":"56","name":"Embrach","shortName":"Embrach"},"district":{"key":"103","name":"Bezirk Bülach"},"canton":{"key":"1","code":"ZH","name":"Zürich"},"status":"Real"},{"key":"10003652","name":"Steinmüri","postalCode":"8425","locality":"Oberembrach","commune":{"key":"65","name":"Oberembrach","shortName":"Oberembrach"},"district":{"key":"103","name":"Bezirk Bülach"},"canton":{"key":"1","code":"ZH","name":"Zürich"},"status":"Real"},{"key":"10110917","name":"Sterneggweg","postalCode":"8424","locality":"Embrach","commune":{"key":"56","name":"Embrach","shortName":"Embrach"},"district":{"key":"103","name":"Bezirk Bülach"},"canton":{"key":"1","code":"ZH","name":"Zürich"},"status":"Real"},{"key":"10003653","name":"Stiegen","postalCode":"8425","locality":"Oberembrach","commune":{"key":"65","name":"Oberembrach","shortName":"Oberembrach"},"district":{"key":"103","name":"Bezirk Bülach"},"canton":{"key":"1","code":"ZH","name":"Zürich"},"status":"Real"},{"key":"10088216","name":"Stiegenstrasse","postalCode":"8425","locality":"Oberembrach","commune":{"key":"65","name":"Oberembrach","shortName":"Oberembrach"},"district":{"key":"103","name":"Bezirk Bülach"},"canton":{"key":"1","code":"ZH","name":"Zürich"},"status":"Real"},{"key":"10242378","name":"Stifelweg","postalCode":"8424","locality":"Embrach","commune":{"key":"56","name":"Embrach","shortName":"Embrach"},"district":{"key":"103","name":"Bezirk Bülach"},"canton":{"key":"1","code":"ZH","name":"Zürich"},"status":"Real"},{"key":"10242379","name":"Stuhlwisenweg","postalCode":"8424","locality":"Embrach","commune":{"key":"56","name":"Embrach","shortName":"Embrach"},"district":{"key":"103","name":"Bezirk Bülach"},"canton":{"key":"1","code":"ZH","name":"Zürich"},"status":"Real"},{"key":"10017592","name":"Stumpenstrasse","postalCode":"8425","locality":"Oberembrach","commune":{"key":"65","name":"Oberembrach","shortName":"Oberembrach"},"district":{"key":"103","name":"Bezirk Bülach"},"canton":{"key":"1","code":"ZH","name":"Zürich"},"status":"Real"},{"key":"10201370","name":"Talegg","postalCode":"8424","locality":"Embrach","commune":{"key":"56","name":"Embrach","shortName":"Embrach"},"district":{"key":"103","name":"Bezirk Bülach"},"canton":{"key":"1","code":"ZH","name":"Zürich"},"status":"Real"},{"key":"10002403","name":"Taleggstrasse","postalCode":"8424","locality":"Embrach","commune":{"key":"56","name":"Embrach","shortName":"Embrach"},"district":{"key":"103","name":"Bezirk Bülach"},"canton":{"key":"1","code":"ZH","name":"Zürich"},"status":"Real"},{"key":"10002404","name":"Tannenstrasse","postalCode":"8424","locality":"Embrach","commune":{"key":"56","name":"Embrach","shortName":"Embrach"},"district":{"key":"103","name":"Bezirk Bülach"},"canton":{"key":"1","code":"ZH","name":"Zürich"},"status":"Real"},{"key":"10201371","name":"Tannenweg","postalCode":"8424","locality":"Embrach","commune":{"key":"56","name":"Embrach","shortName":"Embrach"},"district":{"key":"103","name":"Bezirk Bülach"},"canton":{"key":"1","code":"ZH","name":"Zürich"},"status":"Real"},{"key":"10174419","name":"Tannholzweg","postalCode":"8424","locality":"Embrach","commune":{"key":"56","name":"Embrach","shortName":"Embrach"},"district":{"key":"103","name":"Bezirk Bülach"},"canton":{"key":"1","code":"ZH","name":"Zürich"},"status":"Real"},{"key":"10017593","name":"Tessinerweg","postalCode":"8425","locality":"Oberembrach","commune":{"key":"65","name":"Oberembrach","shortName":"Oberembrach"},"district":{"key":"103","name":"Bezirk Bülach"},"canton":{"key":"1","code":"ZH","name":"Zürich"},"status":"Real"},{"key":"10201372","name":"Tischstrasse","postalCode":"8424","locality":"Embrach","commune":{"key":"56","name":"Embrach","shortName":"Embrach"},"district":{"key":"103","name":"Bezirk Bülach"},"canton":{"key":"1","code":"ZH","name":"Zürich"},"status":"Real"},{"key":"10201373","name":"Tobelstrasse","postalCode":"8424","locality":"Embrach","commune":{"key":"56","name":"Embrach","shortName":"Embrach"},"district":{"key":"103","name":"Bezirk Bülach"},"canton":{"key":"1","code":"ZH","name":"Zürich"},"status":"Real"},{"key":"10201374","name":"Töpferweg","postalCode":"8424","locality":"Embrach","commune":{"key":"56","name":"Embrach","shortName":"Embrach"},"district":{"key":"103","name":"Bezirk Bülach"},"canton":{"key":"1","code":"ZH","name":"Zürich"},"status":"Real"},{"key":"10201375","name":"Tössblickstrasse","postalCode":"8424","locality":"Embrach","commune":{"key":"56","name":"Embrach","shortName":"Embrach"},"district":{"key":"103","name":"Bezirk Bülach"},"canton":{"key":"1","code":"ZH","name":"Zürich"},"status":"Real"},{"key":"10110953","name":"Trinenmoos","postalCode":"8425","locality":"Oberembrach","commune":{"key":"65","name":"Oberembrach","shortName":"Oberembrach"},"district":{"key":"103","name":"Bezirk Bülach"},"canton":{"key":"1","code":"ZH","name":"Zürich"},"status":"Real"},{"key":"10088217","name":"Trinenmoosstrasse","postalCode":"8425","locality":"Oberembrach","commune":{"key":"65","name":"Oberembrach","shortName":"Oberembrach"},"district":{"key":"103","name":"Bezirk Bülach"},"canton":{"key":"1","code":"ZH","name":"Zürich"},"status":"Real"},{"key":"10017594","name":"Tüfbachstrasse","postalCode":"8425","locality":"Oberembrach","commune":{"key":"65","name":"Oberembrach","shortName":"Oberembrach"},"district":{"key":"103","name":"Bezirk Bülach"},"canton":{"key":"1","code":"ZH","name":"Zürich"},"status":"Real"},{"key":"10201376","name":"Tunnelweg","postalCode":"8424","locality":"Embrach","commune":{"key":"56","name":"Embrach","shortName":"Embrach"},"district":{"key":"103","name":"Bezirk Bülach"},"canton":{"key":"1","code":"ZH","name":"Zürich"},"status":"Real"},{"key":"10201377","name":"Ulmenstrasse","postalCode":"8424","locality":"Embrach","commune":{"key":"56","name":"Embrach","shortName":"Embrach"},"district":{"key":"103","name":"Bezirk Bülach"},"canton":{"key":"1","code":"ZH","name":"Zürich"},"status":"Real"},{"key":"10201378","name":"Unholzweg","postalCode":"8424","locality":"Embrach","commune":{"key":"56","name":"Embrach","shortName":"Embrach"},"district":{"key":"103","name":"Bezirk Bülach"},"canton":{"key":"1","code":"ZH","name":"Zürich"},"status":"Real"},{"key":"10201379","name":"Unteralmetweg","postalCode":"8424","locality":"Embrach","commune":{"key":"56","name":"Embrach","shortName":"Embrach"},"district":{"key":"103","name":"Bezirk Bülach"},"canton":{"key":"1","code":"ZH","name":"Zürich"},"status":"Real"},{"key":"10088218","name":"Untere Brandstrasse","postalCode":"8425","locality":"Oberembrach","commune":{"key":"65","name":"Oberembrach","shortName":"Oberembrach"},"district":{"key":"103","name":"Bezirk Bülach"},"canton":{"key":"1","code":"ZH","name":"Zürich"},"status":"Real"},{"key":"10080706","name":"Unterhaldenweg","postalCode":"8424","locality":"Embrach","commune":{"key":"56","name":"Embrach","shortName":"Embrach"},"district":{"key":"103","name":"Bezirk Bülach"},"canton":{"key":"1","code":"ZH","name":"Zürich"},"status":"Real"},{"key":"10079673","name":"Untermettmenstetten","postalCode":"8425","locality":"Oberembrach","commune":{"key":"65","name":"Oberembrach","shortName":"Oberembrach"},"district":{"key":"103","name":"Bezirk Bülach"},"canton":{"key":"1","code":"ZH","name":"Zürich"},"status":"Real"},{"key":"10061756","name":"Unterwagenburg","postalCode":"8425","locality":"Oberembrach","commune":{"key":"65","name":"Oberembrach","shortName":"Oberembrach"},"district":{"key":"103","name":"Bezirk Bülach"},"canton":{"key":"1","code":"ZH","name":"Zürich"},"status":"Real"},{"key":"10088229","name":"Unterwagenburgstrasse","postalCode":"8425","locality":"Oberembrach","commune":{"key":"65","name":"Oberembrach","shortName":"Oberembrach"},"district":{"key":"103","name":"Bezirk Bülach"},"canton":{"key":"1","code":"ZH","name":"Zürich"},"status":"Real"},{"key":"10201380","name":"Unterwisenstrasse","postalCode":"8424","locality":"Embrach","commune":{"key":"56","name":"Embrach","shortName":"Embrach"},"district":{"key":"103","name":"Bezirk Bülach"},"canton":{"key":"1","code":"ZH","name":"Zürich"},"status":"Real"},{"key":"10003654","name":"Vorbühlstrasse","postalCode":"8425","locality":"Oberembrach","commune":{"key":"65","name":"Oberembrach","shortName":"Oberembrach"},"district":{"key":"103","name":"Bezirk Bülach"},"canton":{"key":"1","code":"ZH","name":"Zürich"},"status":"Real"},{"key":"10201381","name":"Vordere Hüenerenstrasse","postalCode":"8424","locality":"Embrach","commune":{"key":"56","name":"Embrach","shortName":"Embrach"},"district":{"key":"103","name":"Bezirk Bülach"},"canton":{"key":"1","code":"ZH","name":"Zürich"},"status":"Real"},{"key":"10017595","name":"Vorderholzweg","postalCode":"8425","locality":"Oberembrach","commune":{"key":"65","name":"Oberembrach","shortName":"Oberembrach"},"district":{"key":"103","name":"Bezirk Bülach"},"canton":{"key":"1","code":"ZH","name":"Zürich"},"status":"Real"},{"key":"10106352","name":"Waldeggstrasse","postalCode":"8424","locality":"Embrach","commune":{"key":"56","name":"Embrach","shortName":"Embrach"},"district":{"key":"103","name":"Bezirk Bülach"},"canton":{"key":"1","code":"ZH","name":"Zürich"},"status":"Real"},{"key":"10201382","name":"Waldeggweg","postalCode":"8424","locality":"Embrach","commune":{"key":"56","name":"Embrach","shortName":"Embrach"},"district":{"key":"103","name":"Bezirk Bülach"},"canton":{"key":"1","code":"ZH","name":"Zürich"},"status":"Real"},{"key":"10088231","name":"Waldhüttenstrasse","postalCode":"8425","locality":"Oberembrach","commune":{"key":"65","name":"Oberembrach","shortName":"Oberembrach"},"district":{"key":"103","name":"Bezirk Bülach"},"canton":{"key":"1","code":"ZH","name":"Zürich"},"status":"Real"},{"key":"10201383","name":"Warpelstrasse","postalCode":"8424","locality":"Embrach","commune":{"key":"56","name":"Embrach","shortName":"Embrach"},"district":{"key":"103","name":"Bezirk Bülach"},"canton":{"key":"1","code":"ZH","name":"Zürich"},"status":"Real"},{"key":"10201384","name":"Wasserfallweg","postalCode":"8424","locality":"Embrach","commune":{"key":"56","name":"Embrach","shortName":"Embrach"},"district":{"key":"103","name":"Bezirk Bülach"},"canton":{"key":"1","code":"ZH","name":"Zürich"},"status":"Real"},{"key":"10244211","name":"Wegackerweg","postalCode":"8425","locality":"Oberembrach","commune":{"key":"65","name":"Oberembrach","shortName":"Oberembrach"},"district":{"key":"103","name":"Bezirk Bülach"},"canton":{"key":"1","code":"ZH","name":"Zürich"},"status":"Real"},{"key":"10173967","name":"Weidlirainstrasse","postalCode":"8425","locality":"Oberembrach","commune":{"key":"65","name":"Oberembrach","shortName":"Oberembrach"},"district":{"key":"103","name":"Bezirk Bülach"},"canton":{"key":"1","code":"ZH","name":"Zürich"},"status":"Real"},{"key":"10018267","name":"Weidstrasse","postalCode":"8425","locality":"Oberembrach","commune":{"key":"65","name":"Oberembrach","shortName":"Oberembrach"},"district":{"key":"103","name":"Bezirk Bülach"},"canton":{"key":"1","code":"ZH","name":"Zürich"},"status":"Real"},{"key":"10244212","name":"Weidweg","postalCode":"8425","locality":"Oberembrach","commune":{"key":"65","name":"Oberembrach","shortName":"Oberembrach"},"district":{"key":"103","name":"Bezirk Bülach"},"canton":{"key":"1","code":"ZH","name":"Zürich"},"status":"Real"},{"key":"10054305","name":"Weinberg","postalCode":"8425","locality":"Oberembrach","commune":{"key":"65","name":"Oberembrach","shortName":"Oberembrach"},"district":{"key":"103","name":"Bezirk Bülach"},"canton":{"key":"1","code":"ZH","name":"Zürich"},"status":"Real"},{"key":"10184658","name":"Wildbachstrasse","postalCode":"8424","locality":"Embrach","commune":{"key":"56","name":"Embrach","shortName":"Embrach"},"district":{"key":"103","name":"Bezirk Bülach"},"canton":{"key":"1","code":"ZH","name":"Zürich"},"status":"Real"},{"key":"10018268","name":"Wildbachstrasse","postalCode":"8425","locality":"Oberembrach","commune":{"key":"65","name":"Oberembrach","shortName":"Oberembrach"},"district":{"key":"103","name":"Bezirk Bülach"},"canton":{"key":"1","code":"ZH","name":"Zürich"},"status":"Real"},{"key":"10200217","name":"Wildbachweg","postalCode":"8424","locality":"Embrach","commune":{"key":"56","name":"Embrach","shortName":"Embrach"},"district":{"key":"103","name":"Bezirk Bülach"},"canton":{"key":"1","code":"ZH","name":"Zürich"},"status":"Real"},{"key":"10002405","name":"Wingertstrasse","postalCode":"8424","locality":"Embrach","commune":{"key":"56","name":"Embrach","shortName":"Embrach"},"district":{"key":"103","name":"Bezirk Bülach"},"canton":{"key":"1","code":"ZH","name":"Zürich"},"status":"Real"},{"key":"10115527","name":"Winkelwiese","postalCode":"8424","locality":"Embrach","commune":{"key":"56","name":"Embrach","shortName":"Embrach"},"district":{"key":"103","name":"Bezirk Bülach"},"canton":{"key":"1","code":"ZH","name":"Zürich"},"status":"Real"},{"key":"10200130","name":"Winkelwiesenstrasse","postalCode":"8424","locality":"Embrach","commune":{"key":"56","name":"Embrach","shortName":"Embrach"},"district":{"key":"103","name":"Bezirk Bülach"},"canton":{"key":"1","code":"ZH","name":"Zürich"},"status":"Real"},{"key":"10002406","name":"Winklerstrasse","postalCode":"8424","locality":"Embrach","commune":{"key":"56","name":"Embrach","shortName":"Embrach"},"district":{"key":"103","name":"Bezirk Bülach"},"canton":{"key":"1","code":"ZH","name":"Zürich"},"status":"Real"},{"key":"10201385","name":"Winterthurerstrasse","postalCode":"8424","locality":"Embrach","commune":{"key":"56","name":"Embrach","shortName":"Embrach"},"district":{"key":"103","name":"Bezirk Bülach"},"canton":{"key":"1","code":"ZH","name":"Zürich"},"status":"Real"},{"key":"10201386","name":"Wissbuckstrasse","postalCode":"8424","locality":"Embrach","commune":{"key":"56","name":"Embrach","shortName":"Embrach"},"district":{"key":"103","name":"Bezirk Bülach"},"canton":{"key":"1","code":"ZH","name":"Zürich"},"status":"Real"},{"key":"10201387","name":"Wurzelhaldenstrasse","postalCode":"8424","locality":"Embrach","commune":{"key":"56","name":"Embrach","shortName":"Embrach"},"district":{"key":"103","name":"Bezirk Bülach"},"canton":{"key":"1","code":"ZH","name":"Zürich"},"status":"Real"},{"key":"10201388","name":"Zaunweg","postalCode":"8424","locality":"Embrach","commune":{"key":"56","name":"Embrach","shortName":"Embrach"},"district":{"key":"103","name":"Bezirk Bülach"},"canton":{"key":"1","code":"ZH","name":"Zürich"},"status":"Real"},{"key":"10189856","name":"Zelgenweg","postalCode":"8424","locality":"Embrach","commune":{"key":"56","name":"Embrach","shortName":"Embrach"},"district":{"key":"103","name":"Bezirk Bülach"},"canton":{"key":"1","code":"ZH","name":"Zürich"},"status":"Real"},{"key":"10018273","name":"Zelgli","postalCode":"8425","locality":"Oberembrach","commune":{"key":"65","name":"Oberembrach","shortName":"Oberembrach"},"district":{"key":"103","name":"Bezirk Bülach"},"canton":{"key":"1","code":"ZH","name":"Zürich"},"status":"Real"},{"key":"10242380","name":"Zelgliweg","postalCode":"8424","locality":"Embrach","commune":{"key":"56","name":"Embrach","shortName":"Embrach"},"district":{"key":"103","name":"Bezirk Bülach"},"canton":{"key":"1","code":"ZH","name":"Zürich"},"status":"Real"},{"key":"10201389","name":"Zelgstrasse","postalCode":"8424","locality":"Embrach","commune":{"key":"56","name":"Embrach","shortName":"Embrach"},"district":{"key":"103","name":"Bezirk Bülach"},"canton":{"key":"1","code":"ZH","name":"Zürich"},"status":"Real"},{"key":"10201390","name":"Ziegelhütte","postalCode":"8424","locality":"Embrach","commune":{"key":"56","name":"Embrach","shortName":"Embrach"},"district":{"key":"103","name":"Bezirk Bülach"},"canton":{"key":"1","code":"ZH","name":"Zürich"},"status":"Real"},{"key":"10108799","name":"Ziegelhüttenweg","postalCode":"8424","locality":"Embrach","commune":{"key":"56","name":"Embrach","shortName":"Embrach"},"district":{"key":"103","name":"Bezirk Bülach"},"canton":{"key":"1","code":"ZH","name":"Zürich"},"status":"Real"},{"key":"10201391","name":"Zilstrasse","postalCode":"8424","locality":"Embrach","commune":{"key":"56","name":"Embrach","shortName":"Embrach"},"district":{"key":"103","name":"Bezirk Bülach"},"canton":{"key":"1","code":"ZH","name":"Zürich"},"status":"Real"},{"key":"10012746","name":"Zinggenstrasse","postalCode":"8425","locality":"Oberembrach","commune":{"key":"65","name":"Oberembrach","shortName":"Oberembrach"},"district":{"key":"103","name":"Bezirk Bülach"},"canton":{"key":"1","code":"ZH","name":"Zürich"},"status":"Real"},{"key":"10057252","name":"Zürcherstrasse","postalCode":"8424","locality":"Embrach","commune":{"key":"56","name":"Embrach","shortName":"Embrach"},"district":{"key":"103","name":"Bezirk Bülach"},"canton":{"key":"1","code":"ZH","name":"Zürich"},"status":"Real"},{"key":"10088200","name":"Ärgetenstrasse","postalCode":"8425","locality":"Oberembrach","commune":{"key":"65","name":"Oberembrach","shortName":"Oberembrach"},"district":{"key":"103","name":"Bezirk Bülach"},"canton":{"key":"1","code":"ZH","name":"Zürich"},"status":"Real"},]