[{"key":"10257078","name":"Bahnhofweg","postalCode":"3926","locality":"Embd","commune":{"key":"6283","name":"Embd","shortName":"Embd"},"district":{"key":"2313","name":"Bezirk Visp"},"canton":{"key":"23","code":"VS","name":"Valais / Wallis"},"status":"Real"},{"key":"10257048","name":"Derfjiweg","postalCode":"3926","locality":"Embd","commune":{"key":"6283","name":"Embd","shortName":"Embd"},"district":{"key":"2313","name":"Bezirk Visp"},"canton":{"key":"23","code":"VS","name":"Valais / Wallis"},"status":"Real"},{"key":"10257081","name":"Dorfbachweg","postalCode":"3926","locality":"Embd","commune":{"key":"6283","name":"Embd","shortName":"Embd"},"district":{"key":"2313","name":"Bezirk Visp"},"canton":{"key":"23","code":"VS","name":"Valais / Wallis"},"status":"Real"},{"key":"10257049","name":"Ebnetweg","postalCode":"3926","locality":"Embd","commune":{"key":"6283","name":"Embd","shortName":"Embd"},"district":{"key":"2313","name":"Bezirk Visp"},"canton":{"key":"23","code":"VS","name":"Valais / Wallis"},"status":"Real"},{"key":"10257060","name":"Embdbachweg","postalCode":"3926","locality":"Embd","commune":{"key":"6283","name":"Embd","shortName":"Embd"},"district":{"key":"2313","name":"Bezirk Visp"},"canton":{"key":"23","code":"VS","name":"Valais / Wallis"},"status":"Real"},{"key":"10257046","name":"Embdstrasse","postalCode":"3926","locality":"Embd","commune":{"key":"6283","name":"Embd","shortName":"Embd"},"district":{"key":"2313","name":"Bezirk Visp"},"canton":{"key":"23","code":"VS","name":"Valais / Wallis"},"status":"Real"},{"key":"10257044","name":"Fluhstrasse","postalCode":"3926","locality":"Embd","commune":{"key":"6283","name":"Embd","shortName":"Embd"},"district":{"key":"2313","name":"Bezirk Visp"},"canton":{"key":"23","code":"VS","name":"Valais / Wallis"},"status":"Real"},{"key":"10257053","name":"Fr√ºmacherweg","postalCode":"3926","locality":"Embd","commune":{"key":"6283","name":"Embd","shortName":"Embd"},"district":{"key":"2313","name":"Bezirk Visp"},"canton":{"key":"23","code":"VS","name":"Valais / Wallis"},"status":"Real"},{"key":"10257063","name":"Geissweg","postalCode":"3926","locality":"Embd","commune":{"key":"6283","name":"Embd","shortName":"Embd"},"district":{"key":"2313","name":"Bezirk Visp"},"canton":{"key":"23","code":"VS","name":"Valais / Wallis"},"status":"Real"},{"key":"10257064","name":"Grossbergweg","postalCode":"3926","locality":"Embd","commune":{"key":"6283","name":"Embd","shortName":"Embd"},"district":{"key":"2313","name":"Bezirk Visp"},"canton":{"key":"23","code":"VS","name":"Valais / Wallis"},"status":"Real"},{"key":"10257065","name":"Grosssteinweg","postalCode":"3926","locality":"Embd","commune":{"key":"6283","name":"Embd","shortName":"Embd"},"district":{"key":"2313","name":"Bezirk Visp"},"canton":{"key":"23","code":"VS","name":"Valais / Wallis"},"status":"Real"},{"key":"10257066","name":"Haselweg","postalCode":"3926","locality":"Embd","commune":{"key":"6283","name":"Embd","shortName":"Embd"},"district":{"key":"2313","name":"Bezirk Visp"},"canton":{"key":"23","code":"VS","name":"Valais / Wallis"},"status":"Real"},{"key":"10257080","name":"Kapellenstrasse","postalCode":"3926","locality":"Embd","commune":{"key":"6283","name":"Embd","shortName":"Embd"},"district":{"key":"2313","name":"Bezirk Visp"},"canton":{"key":"23","code":"VS","name":"Valais / Wallis"},"status":"Real"},{"key":"10257058","name":"Kirchweg","postalCode":"3926","locality":"Embd","commune":{"key":"6283","name":"Embd","shortName":"Embd"},"district":{"key":"2313","name":"Bezirk Visp"},"canton":{"key":"23","code":"VS","name":"Valais / Wallis"},"status":"Real"},{"key":"10257051","name":"Rafgartenstrasse","postalCode":"3926","locality":"Embd","commune":{"key":"6283","name":"Embd","shortName":"Embd"},"district":{"key":"2313","name":"Bezirk Visp"},"canton":{"key":"23","code":"VS","name":"Valais / Wallis"},"status":"Real"},{"key":"10257062","name":"Rebweg","postalCode":"3926","locality":"Embd","commune":{"key":"6283","name":"Embd","shortName":"Embd"},"district":{"key":"2313","name":"Bezirk Visp"},"canton":{"key":"23","code":"VS","name":"Valais / Wallis"},"status":"Real"},{"key":"10257054","name":"Rormattenstrasse","postalCode":"3926","locality":"Embd","commune":{"key":"6283","name":"Embd","shortName":"Embd"},"district":{"key":"2313","name":"Bezirk Visp"},"canton":{"key":"23","code":"VS","name":"Valais / Wallis"},"status":"Real"},{"key":"10257079","name":"Rotfluhweg","postalCode":"3926","locality":"Embd","commune":{"key":"6283","name":"Embd","shortName":"Embd"},"district":{"key":"2313","name":"Bezirk Visp"},"canton":{"key":"23","code":"VS","name":"Valais / Wallis"},"status":"Real"},{"key":"10257056","name":"Schalbweg","postalCode":"3926","locality":"Embd","commune":{"key":"6283","name":"Embd","shortName":"Embd"},"district":{"key":"2313","name":"Bezirk Visp"},"canton":{"key":"23","code":"VS","name":"Valais / Wallis"},"status":"Real"},{"key":"10257057","name":"Trogackerweg","postalCode":"3926","locality":"Embd","commune":{"key":"6283","name":"Embd","shortName":"Embd"},"district":{"key":"2313","name":"Bezirk Visp"},"canton":{"key":"23","code":"VS","name":"Valais / Wallis"},"status":"Real"},{"key":"10257061","name":"Unterschalbweg","postalCode":"3926","locality":"Embd","commune":{"key":"6283","name":"Embd","shortName":"Embd"},"district":{"key":"2313","name":"Bezirk Visp"},"canton":{"key":"23","code":"VS","name":"Valais / Wallis"},"status":"Real"},]