[{"name":"Abt-Molitor-Str.","postalCode":"48653","locality":"Coesfeld","municipality":{"key":"05558012","name":"Coesfeld, Stadt","type":"Stadt"},"district":{"key":"05558","name":"Coesfeld","type":"Kreis"},"federalState":{"key":"05","name":"Nordrhein-Westfalen"}},{"name":"Adelgonda-Wolbring-Weg","postalCode":"48653","locality":"Coesfeld","municipality":{"key":"05558012","name":"Coesfeld, Stadt","type":"Stadt"},"district":{"key":"05558","name":"Coesfeld","type":"Kreis"},"federalState":{"key":"05","name":"Nordrhein-Westfalen"}},{"name":"Adolf-Meyer-Str.","postalCode":"48653","locality":"Coesfeld","municipality":{"key":"05558012","name":"Coesfeld, Stadt","type":"Stadt"},"district":{"key":"05558","name":"Coesfeld","type":"Kreis"},"federalState":{"key":"05","name":"Nordrhein-Westfalen"}},{"name":"Agnes-Miegel-Str.","postalCode":"48653","locality":"Coesfeld","municipality":{"key":"05558012","name":"Coesfeld, Stadt","type":"Stadt"},"district":{"key":"05558","name":"Coesfeld","type":"Kreis"},"federalState":{"key":"05","name":"Nordrhein-Westfalen"}},{"name":"Ahornweg","postalCode":"48653","locality":"Coesfeld","municipality":{"key":"05558012","name":"Coesfeld, Stadt","type":"Stadt"},"district":{"key":"05558","name":"Coesfeld","type":"Kreis"},"federalState":{"key":"05","name":"Nordrhein-Westfalen"}},{"name":"Akazienweg","postalCode":"48653","locality":"Coesfeld","municipality":{"key":"05558012","name":"Coesfeld, Stadt","type":"Stadt"},"district":{"key":"05558","name":"Coesfeld","type":"Kreis"},"federalState":{"key":"05","name":"Nordrhein-Westfalen"}},{"name":"Alexanderstr.","postalCode":"48653","locality":"Coesfeld","municipality":{"key":"05558012","name":"Coesfeld, Stadt","type":"Stadt"},"district":{"key":"05558","name":"Coesfeld","type":"Kreis"},"federalState":{"key":"05","name":"Nordrhein-Westfalen"}},{"name":"Alice-Salomon-Weg","postalCode":"48653","locality":"Coesfeld","municipality":{"key":"05558012","name":"Coesfeld, Stadt","type":"Stadt"},"district":{"key":"05558","name":"Coesfeld","type":"Kreis"},"federalState":{"key":"05","name":"Nordrhein-Westfalen"}},{"name":"Alte Kirchstr.","postalCode":"48653","locality":"Coesfeld","municipality":{"key":"05558012","name":"Coesfeld, Stadt","type":"Stadt"},"district":{"key":"05558","name":"Coesfeld","type":"Kreis"},"federalState":{"key":"05","name":"Nordrhein-Westfalen"}},{"name":"Alte Münsterstr.","postalCode":"48653","locality":"Coesfeld","municipality":{"key":"05558012","name":"Coesfeld, Stadt","type":"Stadt"},"district":{"key":"05558","name":"Coesfeld","type":"Kreis"},"federalState":{"key":"05","name":"Nordrhein-Westfalen"}},{"name":"Alter Kirchplatz","postalCode":"48653","locality":"Coesfeld","municipality":{"key":"05558012","name":"Coesfeld, Stadt","type":"Stadt"},"district":{"key":"05558","name":"Coesfeld","type":"Kreis"},"federalState":{"key":"05","name":"Nordrhein-Westfalen"}},{"name":"Alter Kirchweg","postalCode":"48653","locality":"Coesfeld","municipality":{"key":"05558012","name":"Coesfeld, Stadt","type":"Stadt"},"district":{"key":"05558","name":"Coesfeld","type":"Kreis"},"federalState":{"key":"05","name":"Nordrhein-Westfalen"}},{"name":"Am Ächterott","postalCode":"48653","locality":"Coesfeld","municipality":{"key":"05558012","name":"Coesfeld, Stadt","type":"Stadt"},"district":{"key":"05558","name":"Coesfeld","type":"Kreis"},"federalState":{"key":"05","name":"Nordrhein-Westfalen"}},{"name":"Am Alten Freibad","postalCode":"48653","locality":"Coesfeld","municipality":{"key":"05558012","name":"Coesfeld, Stadt","type":"Stadt"},"district":{"key":"05558","name":"Coesfeld","type":"Kreis"},"federalState":{"key":"05","name":"Nordrhein-Westfalen"}},{"name":"Am Berkelbogen","postalCode":"48653","locality":"Coesfeld","municipality":{"key":"05558012","name":"Coesfeld, Stadt","type":"Stadt"},"district":{"key":"05558","name":"Coesfeld","type":"Kreis"},"federalState":{"key":"05","name":"Nordrhein-Westfalen"}},{"name":"Am Bühlbach","postalCode":"48653","locality":"Coesfeld","municipality":{"key":"05558012","name":"Coesfeld, Stadt","type":"Stadt"},"district":{"key":"05558","name":"Coesfeld","type":"Kreis"},"federalState":{"key":"05","name":"Nordrhein-Westfalen"}},{"name":"Am Eiskeller","postalCode":"48653","locality":"Coesfeld","municipality":{"key":"05558012","name":"Coesfeld, Stadt","type":"Stadt"},"district":{"key":"05558","name":"Coesfeld","type":"Kreis"},"federalState":{"key":"05","name":"Nordrhein-Westfalen"}},{"name":"Am Fredesteen","postalCode":"48653","locality":"Coesfeld","municipality":{"key":"05558012","name":"Coesfeld, Stadt","type":"Stadt"},"district":{"key":"05558","name":"Coesfeld","type":"Kreis"},"federalState":{"key":"05","name":"Nordrhein-Westfalen"}},{"name":"Am Haus Lette","postalCode":"48653","locality":"Coesfeld","municipality":{"key":"05558012","name":"Coesfeld, Stadt","type":"Stadt"},"district":{"key":"05558","name":"Coesfeld","type":"Kreis"},"federalState":{"key":"05","name":"Nordrhein-Westfalen"}},{"name":"Am Honigbach","postalCode":"48653","locality":"Coesfeld","municipality":{"key":"05558012","name":"Coesfeld, Stadt","type":"Stadt"},"district":{"key":"05558","name":"Coesfeld","type":"Kreis"},"federalState":{"key":"05","name":"Nordrhein-Westfalen"}},{"name":"Am Isinghove","postalCode":"48653","locality":"Coesfeld","municipality":{"key":"05558012","name":"Coesfeld, Stadt","type":"Stadt"},"district":{"key":"05558","name":"Coesfeld","type":"Kreis"},"federalState":{"key":"05","name":"Nordrhein-Westfalen"}},{"name":"Am Kupferhammer","postalCode":"48653","locality":"Coesfeld","municipality":{"key":"05558012","name":"Coesfeld, Stadt","type":"Stadt"},"district":{"key":"05558","name":"Coesfeld","type":"Kreis"},"federalState":{"key":"05","name":"Nordrhein-Westfalen"}},{"name":"Am Monenberg","postalCode":"48653","locality":"Coesfeld","municipality":{"key":"05558012","name":"Coesfeld, Stadt","type":"Stadt"},"district":{"key":"05558","name":"Coesfeld","type":"Kreis"},"federalState":{"key":"05","name":"Nordrhein-Westfalen"}},{"name":"Am Morgenesch","postalCode":"48653","locality":"Coesfeld","municipality":{"key":"05558012","name":"Coesfeld, Stadt","type":"Stadt"},"district":{"key":"05558","name":"Coesfeld","type":"Kreis"},"federalState":{"key":"05","name":"Nordrhein-Westfalen"}},{"name":"Am Niesing","postalCode":"48653","locality":"Coesfeld","municipality":{"key":"05558012","name":"Coesfeld, Stadt","type":"Stadt"},"district":{"key":"05558","name":"Coesfeld","type":"Kreis"},"federalState":{"key":"05","name":"Nordrhein-Westfalen"}},{"name":"Am Ravelin","postalCode":"48653","locality":"Coesfeld","municipality":{"key":"05558012","name":"Coesfeld, Stadt","type":"Stadt"},"district":{"key":"05558","name":"Coesfeld","type":"Kreis"},"federalState":{"key":"05","name":"Nordrhein-Westfalen"}},{"name":"Am Roßkamp","postalCode":"48653","locality":"Coesfeld","municipality":{"key":"05558012","name":"Coesfeld, Stadt","type":"Stadt"},"district":{"key":"05558","name":"Coesfeld","type":"Kreis"},"federalState":{"key":"05","name":"Nordrhein-Westfalen"}},{"name":"Am Roten Baum","postalCode":"48653","locality":"Coesfeld","municipality":{"key":"05558012","name":"Coesfeld, Stadt","type":"Stadt"},"district":{"key":"05558","name":"Coesfeld","type":"Kreis"},"federalState":{"key":"05","name":"Nordrhein-Westfalen"}},{"name":"Am Rullenweg","postalCode":"48653","locality":"Coesfeld","municipality":{"key":"05558012","name":"Coesfeld, Stadt","type":"Stadt"},"district":{"key":"05558","name":"Coesfeld","type":"Kreis"},"federalState":{"key":"05","name":"Nordrhein-Westfalen"}},{"name":"Amselweg","postalCode":"48653","locality":"Coesfeld","municipality":{"key":"05558012","name":"Coesfeld, Stadt","type":"Stadt"},"district":{"key":"05558","name":"Coesfeld","type":"Kreis"},"federalState":{"key":"05","name":"Nordrhein-Westfalen"}},{"name":"Am Sonnenhang","postalCode":"48653","locality":"Coesfeld","municipality":{"key":"05558012","name":"Coesfeld, Stadt","type":"Stadt"},"district":{"key":"05558","name":"Coesfeld","type":"Kreis"},"federalState":{"key":"05","name":"Nordrhein-Westfalen"}},{"name":"Am Steckinghof","postalCode":"48653","locality":"Coesfeld","municipality":{"key":"05558012","name":"Coesfeld, Stadt","type":"Stadt"},"district":{"key":"05558","name":"Coesfeld","type":"Kreis"},"federalState":{"key":"05","name":"Nordrhein-Westfalen"}},{"name":"Am Stockkamp","postalCode":"48653","locality":"Coesfeld","municipality":{"key":"05558012","name":"Coesfeld, Stadt","type":"Stadt"},"district":{"key":"05558","name":"Coesfeld","type":"Kreis"},"federalState":{"key":"05","name":"Nordrhein-Westfalen"}},{"name":"Am Teigelkamp","postalCode":"48653","locality":"Coesfeld","municipality":{"key":"05558012","name":"Coesfeld, Stadt","type":"Stadt"},"district":{"key":"05558","name":"Coesfeld","type":"Kreis"},"federalState":{"key":"05","name":"Nordrhein-Westfalen"}},{"name":"Am Theater","postalCode":"48653","locality":"Coesfeld","municipality":{"key":"05558012","name":"Coesfeld, Stadt","type":"Stadt"},"district":{"key":"05558","name":"Coesfeld","type":"Kreis"},"federalState":{"key":"05","name":"Nordrhein-Westfalen"}},{"name":"Am Tüskenbach","postalCode":"48653","locality":"Coesfeld","municipality":{"key":"05558012","name":"Coesfeld, Stadt","type":"Stadt"},"district":{"key":"05558","name":"Coesfeld","type":"Kreis"},"federalState":{"key":"05","name":"Nordrhein-Westfalen"}},{"name":"Am Wasserturm","postalCode":"48653","locality":"Coesfeld","municipality":{"key":"05558012","name":"Coesfeld, Stadt","type":"Stadt"},"district":{"key":"05558","name":"Coesfeld","type":"Kreis"},"federalState":{"key":"05","name":"Nordrhein-Westfalen"}},{"name":"Am Weißen Kreuz","postalCode":"48653","locality":"Coesfeld","municipality":{"key":"05558012","name":"Coesfeld, Stadt","type":"Stadt"},"district":{"key":"05558","name":"Coesfeld","type":"Kreis"},"federalState":{"key":"05","name":"Nordrhein-Westfalen"}},{"name":"Am Wietkamp","postalCode":"48653","locality":"Coesfeld","municipality":{"key":"05558012","name":"Coesfeld, Stadt","type":"Stadt"},"district":{"key":"05558","name":"Coesfeld","type":"Kreis"},"federalState":{"key":"05","name":"Nordrhein-Westfalen"}},{"name":"An der Fegetasche","postalCode":"48653","locality":"Coesfeld","municipality":{"key":"05558012","name":"Coesfeld, Stadt","type":"Stadt"},"district":{"key":"05558","name":"Coesfeld","type":"Kreis"},"federalState":{"key":"05","name":"Nordrhein-Westfalen"}},{"name":"An der Georgskapelle","postalCode":"48653","locality":"Coesfeld","municipality":{"key":"05558012","name":"Coesfeld, Stadt","type":"Stadt"},"district":{"key":"05558","name":"Coesfeld","type":"Kreis"},"federalState":{"key":"05","name":"Nordrhein-Westfalen"}},{"name":"An der Klinke","postalCode":"48653","locality":"Coesfeld","municipality":{"key":"05558012","name":"Coesfeld, Stadt","type":"Stadt"},"district":{"key":"05558","name":"Coesfeld","type":"Kreis"},"federalState":{"key":"05","name":"Nordrhein-Westfalen"}},{"name":"An der Marienburg","postalCode":"48653","locality":"Coesfeld","municipality":{"key":"05558012","name":"Coesfeld, Stadt","type":"Stadt"},"district":{"key":"05558","name":"Coesfeld","type":"Kreis"},"federalState":{"key":"05","name":"Nordrhein-Westfalen"}},{"name":"An der Weide","postalCode":"48653","locality":"Coesfeld","municipality":{"key":"05558012","name":"Coesfeld, Stadt","type":"Stadt"},"district":{"key":"05558","name":"Coesfeld","type":"Kreis"},"federalState":{"key":"05","name":"Nordrhein-Westfalen"}},{"name":"Anlohstr.","postalCode":"48653","locality":"Coesfeld","municipality":{"key":"05558012","name":"Coesfeld, Stadt","type":"Stadt"},"district":{"key":"05558","name":"Coesfeld","type":"Kreis"},"federalState":{"key":"05","name":"Nordrhein-Westfalen"}},{"name":"Antoniusstr.","postalCode":"48653","locality":"Coesfeld","municipality":{"key":"05558012","name":"Coesfeld, Stadt","type":"Stadt"},"district":{"key":"05558","name":"Coesfeld","type":"Kreis"},"federalState":{"key":"05","name":"Nordrhein-Westfalen"}},{"name":"Auf der Bleiche","postalCode":"48653","locality":"Coesfeld","municipality":{"key":"05558012","name":"Coesfeld, Stadt","type":"Stadt"},"district":{"key":"05558","name":"Coesfeld","type":"Kreis"},"federalState":{"key":"05","name":"Nordrhein-Westfalen"}},{"name":"Auf der Hengte","postalCode":"48653","locality":"Coesfeld","municipality":{"key":"05558012","name":"Coesfeld, Stadt","type":"Stadt"},"district":{"key":"05558","name":"Coesfeld","type":"Kreis"},"federalState":{"key":"05","name":"Nordrhein-Westfalen"}},{"name":"Aulkestr.","postalCode":"48653","locality":"Coesfeld","municipality":{"key":"05558012","name":"Coesfeld, Stadt","type":"Stadt"},"district":{"key":"05558","name":"Coesfeld","type":"Kreis"},"federalState":{"key":"05","name":"Nordrhein-Westfalen"}},{"name":"Baakenesch","postalCode":"48653","locality":"Coesfeld","municipality":{"key":"05558012","name":"Coesfeld, Stadt","type":"Stadt"},"district":{"key":"05558","name":"Coesfeld","type":"Kreis"},"federalState":{"key":"05","name":"Nordrhein-Westfalen"}},{"name":"Bachstr.","postalCode":"48653","locality":"Coesfeld","municipality":{"key":"05558012","name":"Coesfeld, Stadt","type":"Stadt"},"district":{"key":"05558","name":"Coesfeld","type":"Kreis"},"federalState":{"key":"05","name":"Nordrhein-Westfalen"}},{"name":"Bagers Weg","postalCode":"48653","locality":"Coesfeld","municipality":{"key":"05558012","name":"Coesfeld, Stadt","type":"Stadt"},"district":{"key":"05558","name":"Coesfeld","type":"Kreis"},"federalState":{"key":"05","name":"Nordrhein-Westfalen"}},{"name":"Bahlhorngasse","postalCode":"48653","locality":"Coesfeld","municipality":{"key":"05558012","name":"Coesfeld, Stadt","type":"Stadt"},"district":{"key":"05558","name":"Coesfeld","type":"Kreis"},"federalState":{"key":"05","name":"Nordrhein-Westfalen"}},{"name":"Bahnhofsallee","postalCode":"48653","locality":"Coesfeld","municipality":{"key":"05558012","name":"Coesfeld, Stadt","type":"Stadt"},"district":{"key":"05558","name":"Coesfeld","type":"Kreis"},"federalState":{"key":"05","name":"Nordrhein-Westfalen"}},{"name":"Bahnhofstr.","postalCode":"48653","locality":"Coesfeld","municipality":{"key":"05558012","name":"Coesfeld, Stadt","type":"Stadt"},"district":{"key":"05558","name":"Coesfeld","type":"Kreis"},"federalState":{"key":"05","name":"Nordrhein-Westfalen"}},{"name":"Bahnweg","postalCode":"48653","locality":"Coesfeld","municipality":{"key":"05558012","name":"Coesfeld, Stadt","type":"Stadt"},"district":{"key":"05558","name":"Coesfeld","type":"Kreis"},"federalState":{"key":"05","name":"Nordrhein-Westfalen"}},{"name":"Basteiring","postalCode":"48653","locality":"Coesfeld","municipality":{"key":"05558012","name":"Coesfeld, Stadt","type":"Stadt"},"district":{"key":"05558","name":"Coesfeld","type":"Kreis"},"federalState":{"key":"05","name":"Nordrhein-Westfalen"}},{"name":"Baurat-Wolters-Str.","postalCode":"48653","locality":"Coesfeld","municipality":{"key":"05558012","name":"Coesfeld, Stadt","type":"Stadt"},"district":{"key":"05558","name":"Coesfeld","type":"Kreis"},"federalState":{"key":"05","name":"Nordrhein-Westfalen"}},{"name":"Beguinenstr.","postalCode":"48653","locality":"Coesfeld","municipality":{"key":"05558012","name":"Coesfeld, Stadt","type":"Stadt"},"district":{"key":"05558","name":"Coesfeld","type":"Kreis"},"federalState":{"key":"05","name":"Nordrhein-Westfalen"}},{"name":"Beikel","postalCode":"48653","locality":"Coesfeld","municipality":{"key":"05558012","name":"Coesfeld, Stadt","type":"Stadt"},"district":{"key":"05558","name":"Coesfeld","type":"Kreis"},"federalState":{"key":"05","name":"Nordrhein-Westfalen"}},{"name":"Bergallee","postalCode":"48653","locality":"Coesfeld","municipality":{"key":"05558012","name":"Coesfeld, Stadt","type":"Stadt"},"district":{"key":"05558","name":"Coesfeld","type":"Kreis"},"federalState":{"key":"05","name":"Nordrhein-Westfalen"}},{"name":"Bergmanns Weg","postalCode":"48653","locality":"Coesfeld","municipality":{"key":"05558012","name":"Coesfeld, Stadt","type":"Stadt"},"district":{"key":"05558","name":"Coesfeld","type":"Kreis"},"federalState":{"key":"05","name":"Nordrhein-Westfalen"}},{"name":"Bergstiege","postalCode":"48653","locality":"Coesfeld","municipality":{"key":"05558012","name":"Coesfeld, Stadt","type":"Stadt"},"district":{"key":"05558","name":"Coesfeld","type":"Kreis"},"federalState":{"key":"05","name":"Nordrhein-Westfalen"}},{"name":"Bergstr.","postalCode":"48653","locality":"Coesfeld","municipality":{"key":"05558012","name":"Coesfeld, Stadt","type":"Stadt"},"district":{"key":"05558","name":"Coesfeld","type":"Kreis"},"federalState":{"key":"05","name":"Nordrhein-Westfalen"}},{"name":"Berkelwiese","postalCode":"48653","locality":"Coesfeld","municipality":{"key":"05558012","name":"Coesfeld, Stadt","type":"Stadt"},"district":{"key":"05558","name":"Coesfeld","type":"Kreis"},"federalState":{"key":"05","name":"Nordrhein-Westfalen"}},{"name":"Bernhardstr.","postalCode":"48653","locality":"Coesfeld","municipality":{"key":"05558012","name":"Coesfeld, Stadt","type":"Stadt"},"district":{"key":"05558","name":"Coesfeld","type":"Kreis"},"federalState":{"key":"05","name":"Nordrhein-Westfalen"}},{"name":"Bernhard-von-Galen-Str.","postalCode":"48653","locality":"Coesfeld","municipality":{"key":"05558012","name":"Coesfeld, Stadt","type":"Stadt"},"district":{"key":"05558","name":"Coesfeld","type":"Kreis"},"federalState":{"key":"05","name":"Nordrhein-Westfalen"}},{"name":"Berningweg","postalCode":"48653","locality":"Coesfeld","municipality":{"key":"05558012","name":"Coesfeld, Stadt","type":"Stadt"},"district":{"key":"05558","name":"Coesfeld","type":"Kreis"},"federalState":{"key":"05","name":"Nordrhein-Westfalen"}},{"name":"Billerbecker Str.","postalCode":"48653","locality":"Coesfeld","municipality":{"key":"05558012","name":"Coesfeld, Stadt","type":"Stadt"},"district":{"key":"05558","name":"Coesfeld","type":"Kreis"},"federalState":{"key":"05","name":"Nordrhein-Westfalen"}},{"name":"Billweg","postalCode":"48653","locality":"Coesfeld","municipality":{"key":"05558012","name":"Coesfeld, Stadt","type":"Stadt"},"district":{"key":"05558","name":"Coesfeld","type":"Kreis"},"federalState":{"key":"05","name":"Nordrhein-Westfalen"}},{"name":"Birkenweg","postalCode":"48653","locality":"Coesfeld","municipality":{"key":"05558012","name":"Coesfeld, Stadt","type":"Stadt"},"district":{"key":"05558","name":"Coesfeld","type":"Kreis"},"federalState":{"key":"05","name":"Nordrhein-Westfalen"}},{"name":"Bischofsmühle","postalCode":"48653","locality":"Coesfeld","municipality":{"key":"05558012","name":"Coesfeld, Stadt","type":"Stadt"},"district":{"key":"05558","name":"Coesfeld","type":"Kreis"},"federalState":{"key":"05","name":"Nordrhein-Westfalen"}},{"name":"Bleichgraben","postalCode":"48653","locality":"Coesfeld","municipality":{"key":"05558012","name":"Coesfeld, Stadt","type":"Stadt"},"district":{"key":"05558","name":"Coesfeld","type":"Kreis"},"federalState":{"key":"05","name":"Nordrhein-Westfalen"}},{"name":"Blomenesch","postalCode":"48653","locality":"Coesfeld","municipality":{"key":"05558012","name":"Coesfeld, Stadt","type":"Stadt"},"district":{"key":"05558","name":"Coesfeld","type":"Kreis"},"federalState":{"key":"05","name":"Nordrhein-Westfalen"}},{"name":"Borkener Str.","postalCode":"48653","locality":"Coesfeld","municipality":{"key":"05558012","name":"Coesfeld, Stadt","type":"Stadt"},"district":{"key":"05558","name":"Coesfeld","type":"Kreis"},"federalState":{"key":"05","name":"Nordrhein-Westfalen"}},{"name":"Boschstr.","postalCode":"48653","locality":"Coesfeld","municipality":{"key":"05558012","name":"Coesfeld, Stadt","type":"Stadt"},"district":{"key":"05558","name":"Coesfeld","type":"Kreis"},"federalState":{"key":"05","name":"Nordrhein-Westfalen"}},{"name":"Bösings Kamp","postalCode":"48653","locality":"Coesfeld","municipality":{"key":"05558012","name":"Coesfeld, Stadt","type":"Stadt"},"district":{"key":"05558","name":"Coesfeld","type":"Kreis"},"federalState":{"key":"05","name":"Nordrhein-Westfalen"}},{"name":"Breiter Weg","postalCode":"48653","locality":"Coesfeld","municipality":{"key":"05558012","name":"Coesfeld, Stadt","type":"Stadt"},"district":{"key":"05558","name":"Coesfeld","type":"Kreis"},"federalState":{"key":"05","name":"Nordrhein-Westfalen"}},{"name":"Breslauer Str.","postalCode":"48653","locality":"Coesfeld","municipality":{"key":"05558012","name":"Coesfeld, Stadt","type":"Stadt"},"district":{"key":"05558","name":"Coesfeld","type":"Kreis"},"federalState":{"key":"05","name":"Nordrhein-Westfalen"}},{"name":"Breykamp","postalCode":"48653","locality":"Coesfeld","municipality":{"key":"05558012","name":"Coesfeld, Stadt","type":"Stadt"},"district":{"key":"05558","name":"Coesfeld","type":"Kreis"},"federalState":{"key":"05","name":"Nordrhein-Westfalen"}},{"name":"Brinker Bach","postalCode":"48653","locality":"Coesfeld","municipality":{"key":"05558012","name":"Coesfeld, Stadt","type":"Stadt"},"district":{"key":"05558","name":"Coesfeld","type":"Kreis"},"federalState":{"key":"05","name":"Nordrhein-Westfalen"}},{"name":"Brinker Ring","postalCode":"48653","locality":"Coesfeld","municipality":{"key":"05558012","name":"Coesfeld, Stadt","type":"Stadt"},"district":{"key":"05558","name":"Coesfeld","type":"Kreis"},"federalState":{"key":"05","name":"Nordrhein-Westfalen"}},{"name":"Brockhuesweg","postalCode":"48653","locality":"Coesfeld","municipality":{"key":"05558012","name":"Coesfeld, Stadt","type":"Stadt"},"district":{"key":"05558","name":"Coesfeld","type":"Kreis"},"federalState":{"key":"05","name":"Nordrhein-Westfalen"}},{"name":"Bruchstr.","postalCode":"48653","locality":"Coesfeld","municipality":{"key":"05558012","name":"Coesfeld, Stadt","type":"Stadt"},"district":{"key":"05558","name":"Coesfeld","type":"Kreis"},"federalState":{"key":"05","name":"Nordrhein-Westfalen"}},{"name":"Buchenweg","postalCode":"48653","locality":"Coesfeld","municipality":{"key":"05558012","name":"Coesfeld, Stadt","type":"Stadt"},"district":{"key":"05558","name":"Coesfeld","type":"Kreis"},"federalState":{"key":"05","name":"Nordrhein-Westfalen"}},{"name":"Buchholzweg","postalCode":"48653","locality":"Coesfeld","municipality":{"key":"05558012","name":"Coesfeld, Stadt","type":"Stadt"},"district":{"key":"05558","name":"Coesfeld","type":"Kreis"},"federalState":{"key":"05","name":"Nordrhein-Westfalen"}},{"name":"Buddenkamp","postalCode":"48653","locality":"Coesfeld","municipality":{"key":"05558012","name":"Coesfeld, Stadt","type":"Stadt"},"district":{"key":"05558","name":"Coesfeld","type":"Kreis"},"federalState":{"key":"05","name":"Nordrhein-Westfalen"}},{"name":"Buesweg","postalCode":"48653","locality":"Coesfeld","municipality":{"key":"05558012","name":"Coesfeld, Stadt","type":"Stadt"},"district":{"key":"05558","name":"Coesfeld","type":"Kreis"},"federalState":{"key":"05","name":"Nordrhein-Westfalen"}},{"name":"Buningweg","postalCode":"48653","locality":"Coesfeld","municipality":{"key":"05558012","name":"Coesfeld, Stadt","type":"Stadt"},"district":{"key":"05558","name":"Coesfeld","type":"Kreis"},"federalState":{"key":"05","name":"Nordrhein-Westfalen"}},{"name":"Burenstock","postalCode":"48653","locality":"Coesfeld","municipality":{"key":"05558012","name":"Coesfeld, Stadt","type":"Stadt"},"district":{"key":"05558","name":"Coesfeld","type":"Kreis"},"federalState":{"key":"05","name":"Nordrhein-Westfalen"}},{"name":"Burghof","postalCode":"48653","locality":"Coesfeld","municipality":{"key":"05558012","name":"Coesfeld, Stadt","type":"Stadt"},"district":{"key":"05558","name":"Coesfeld","type":"Kreis"},"federalState":{"key":"05","name":"Nordrhein-Westfalen"}},{"name":"Burgring","postalCode":"48653","locality":"Coesfeld","municipality":{"key":"05558012","name":"Coesfeld, Stadt","type":"Stadt"},"district":{"key":"05558","name":"Coesfeld","type":"Kreis"},"federalState":{"key":"05","name":"Nordrhein-Westfalen"}},{"name":"Burgwall","postalCode":"48653","locality":"Coesfeld","municipality":{"key":"05558012","name":"Coesfeld, Stadt","type":"Stadt"},"district":{"key":"05558","name":"Coesfeld","type":"Kreis"},"federalState":{"key":"05","name":"Nordrhein-Westfalen"}},{"name":"Christine-Teusch-Weg","postalCode":"48653","locality":"Coesfeld","municipality":{"key":"05558012","name":"Coesfeld, Stadt","type":"Stadt"},"district":{"key":"05558","name":"Coesfeld","type":"Kreis"},"federalState":{"key":"05","name":"Nordrhein-Westfalen"}},{"name":"Citadelle","postalCode":"48653","locality":"Coesfeld","municipality":{"key":"05558012","name":"Coesfeld, Stadt","type":"Stadt"},"district":{"key":"05558","name":"Coesfeld","type":"Kreis"},"federalState":{"key":"05","name":"Nordrhein-Westfalen"}},{"name":"Clemensstr.","postalCode":"48653","locality":"Coesfeld","municipality":{"key":"05558012","name":"Coesfeld, Stadt","type":"Stadt"},"district":{"key":"05558","name":"Coesfeld","type":"Kreis"},"federalState":{"key":"05","name":"Nordrhein-Westfalen"}},{"name":"Coesfelder Berg","postalCode":"48653","locality":"Coesfeld","municipality":{"key":"05558012","name":"Coesfeld, Stadt","type":"Stadt"},"district":{"key":"05558","name":"Coesfeld","type":"Kreis"},"federalState":{"key":"05","name":"Nordrhein-Westfalen"}},{"name":"Coesfelder Str.","postalCode":"48653","locality":"Coesfeld","municipality":{"key":"05558012","name":"Coesfeld, Stadt","type":"Stadt"},"district":{"key":"05558","name":"Coesfeld","type":"Kreis"},"federalState":{"key":"05","name":"Nordrhein-Westfalen"}},{"name":"Cronestr.","postalCode":"48653","locality":"Coesfeld","municipality":{"key":"05558012","name":"Coesfeld, Stadt","type":"Stadt"},"district":{"key":"05558","name":"Coesfeld","type":"Kreis"},"federalState":{"key":"05","name":"Nordrhein-Westfalen"}},{"name":"Curiestr.","postalCode":"48653","locality":"Coesfeld","municipality":{"key":"05558012","name":"Coesfeld, Stadt","type":"Stadt"},"district":{"key":"05558","name":"Coesfeld","type":"Kreis"},"federalState":{"key":"05","name":"Nordrhein-Westfalen"}},{"name":"Darfelder Weg","postalCode":"48653","locality":"Coesfeld","municipality":{"key":"05558012","name":"Coesfeld, Stadt","type":"Stadt"},"district":{"key":"05558","name":"Coesfeld","type":"Kreis"},"federalState":{"key":"05","name":"Nordrhein-Westfalen"}},{"name":"Daruper Str.","postalCode":"48653","locality":"Coesfeld","municipality":{"key":"05558012","name":"Coesfeld, Stadt","type":"Stadt"},"district":{"key":"05558","name":"Coesfeld","type":"Kreis"},"federalState":{"key":"05","name":"Nordrhein-Westfalen"}},{"name":"Davidstr.","postalCode":"48653","locality":"Coesfeld","municipality":{"key":"05558012","name":"Coesfeld, Stadt","type":"Stadt"},"district":{"key":"05558","name":"Coesfeld","type":"Kreis"},"federalState":{"key":"05","name":"Nordrhein-Westfalen"}},{"name":"De-Bilt-Allee","postalCode":"48653","locality":"Coesfeld","municipality":{"key":"05558012","name":"Coesfeld, Stadt","type":"Stadt"},"district":{"key":"05558","name":"Coesfeld","type":"Kreis"},"federalState":{"key":"05","name":"Nordrhein-Westfalen"}},{"name":"Deipe Stegge","postalCode":"48653","locality":"Coesfeld","municipality":{"key":"05558012","name":"Coesfeld, Stadt","type":"Stadt"},"district":{"key":"05558","name":"Coesfeld","type":"Kreis"},"federalState":{"key":"05","name":"Nordrhein-Westfalen"}},{"name":"Diekmanns Wätken","postalCode":"48653","locality":"Coesfeld","municipality":{"key":"05558012","name":"Coesfeld, Stadt","type":"Stadt"},"district":{"key":"05558","name":"Coesfeld","type":"Kreis"},"federalState":{"key":"05","name":"Nordrhein-Westfalen"}},{"name":"Dieselstr.","postalCode":"48653","locality":"Coesfeld","municipality":{"key":"05558012","name":"Coesfeld, Stadt","type":"Stadt"},"district":{"key":"05558","name":"Coesfeld","type":"Kreis"},"federalState":{"key":"05","name":"Nordrhein-Westfalen"}},{"name":"Drachters Weg","postalCode":"48653","locality":"Coesfeld","municipality":{"key":"05558012","name":"Coesfeld, Stadt","type":"Stadt"},"district":{"key":"05558","name":"Coesfeld","type":"Kreis"},"federalState":{"key":"05","name":"Nordrhein-Westfalen"}},{"name":"Dreischkamp","postalCode":"48653","locality":"Coesfeld","municipality":{"key":"05558012","name":"Coesfeld, Stadt","type":"Stadt"},"district":{"key":"05558","name":"Coesfeld","type":"Kreis"},"federalState":{"key":"05","name":"Nordrhein-Westfalen"}},{"name":"Droste-Hülshoff-Weg","postalCode":"48653","locality":"Coesfeld","municipality":{"key":"05558012","name":"Coesfeld, Stadt","type":"Stadt"},"district":{"key":"05558","name":"Coesfeld","type":"Kreis"},"federalState":{"key":"05","name":"Nordrhein-Westfalen"}},{"name":"Druffels Weg","postalCode":"48653","locality":"Coesfeld","municipality":{"key":"05558012","name":"Coesfeld, Stadt","type":"Stadt"},"district":{"key":"05558","name":"Coesfeld","type":"Kreis"},"federalState":{"key":"05","name":"Nordrhein-Westfalen"}},{"name":"Dülmener Str.","postalCode":"48653","locality":"Coesfeld","municipality":{"key":"05558012","name":"Coesfeld, Stadt","type":"Stadt"},"district":{"key":"05558","name":"Coesfeld","type":"Kreis"},"federalState":{"key":"05","name":"Nordrhein-Westfalen"}},{"name":"Edith-Stein-Weg","postalCode":"48653","locality":"Coesfeld","municipality":{"key":"05558012","name":"Coesfeld, Stadt","type":"Stadt"},"district":{"key":"05558","name":"Coesfeld","type":"Kreis"},"federalState":{"key":"05","name":"Nordrhein-Westfalen"}},{"name":"Eichendorffstr.","postalCode":"48653","locality":"Coesfeld","municipality":{"key":"05558012","name":"Coesfeld, Stadt","type":"Stadt"},"district":{"key":"05558","name":"Coesfeld","type":"Kreis"},"federalState":{"key":"05","name":"Nordrhein-Westfalen"}},{"name":"Eleonore-Pollmeyer-Str.","postalCode":"48653","locality":"Coesfeld","municipality":{"key":"05558012","name":"Coesfeld, Stadt","type":"Stadt"},"district":{"key":"05558","name":"Coesfeld","type":"Kreis"},"federalState":{"key":"05","name":"Nordrhein-Westfalen"}},{"name":"Elisabeth-Kühling-Weg","postalCode":"48653","locality":"Coesfeld","municipality":{"key":"05558012","name":"Coesfeld, Stadt","type":"Stadt"},"district":{"key":"05558","name":"Coesfeld","type":"Kreis"},"federalState":{"key":"05","name":"Nordrhein-Westfalen"}},{"name":"Elisabeth-Selbert-Weg","postalCode":"48653","locality":"Coesfeld","municipality":{"key":"05558012","name":"Coesfeld, Stadt","type":"Stadt"},"district":{"key":"05558","name":"Coesfeld","type":"Kreis"},"federalState":{"key":"05","name":"Nordrhein-Westfalen"}},{"name":"Elsriete","postalCode":"48653","locality":"Coesfeld","municipality":{"key":"05558012","name":"Coesfeld, Stadt","type":"Stadt"},"district":{"key":"05558","name":"Coesfeld","type":"Kreis"},"federalState":{"key":"05","name":"Nordrhein-Westfalen"}},{"name":"Enzianweg","postalCode":"48653","locality":"Coesfeld","municipality":{"key":"05558012","name":"Coesfeld, Stadt","type":"Stadt"},"district":{"key":"05558","name":"Coesfeld","type":"Kreis"},"federalState":{"key":"05","name":"Nordrhein-Westfalen"}},{"name":"Erbdrostenweg","postalCode":"48653","locality":"Coesfeld","municipality":{"key":"05558012","name":"Coesfeld, Stadt","type":"Stadt"},"district":{"key":"05558","name":"Coesfeld","type":"Kreis"},"federalState":{"key":"05","name":"Nordrhein-Westfalen"}},{"name":"Erlenweg","postalCode":"48653","locality":"Coesfeld","municipality":{"key":"05558012","name":"Coesfeld, Stadt","type":"Stadt"},"district":{"key":"05558","name":"Coesfeld","type":"Kreis"},"federalState":{"key":"05","name":"Nordrhein-Westfalen"}},{"name":"Eschenweg","postalCode":"48653","locality":"Coesfeld","municipality":{"key":"05558012","name":"Coesfeld, Stadt","type":"Stadt"},"district":{"key":"05558","name":"Coesfeld","type":"Kreis"},"federalState":{"key":"05","name":"Nordrhein-Westfalen"}},{"name":"Eschstr.","postalCode":"48653","locality":"Coesfeld","municipality":{"key":"05558012","name":"Coesfeld, Stadt","type":"Stadt"},"district":{"key":"05558","name":"Coesfeld","type":"Kreis"},"federalState":{"key":"05","name":"Nordrhein-Westfalen"}},{"name":"Evertsweg","postalCode":"48653","locality":"Coesfeld","municipality":{"key":"05558012","name":"Coesfeld, Stadt","type":"Stadt"},"district":{"key":"05558","name":"Coesfeld","type":"Kreis"},"federalState":{"key":"05","name":"Nordrhein-Westfalen"}},{"name":"Fabrikgasse","postalCode":"48653","locality":"Coesfeld","municipality":{"key":"05558012","name":"Coesfeld, Stadt","type":"Stadt"},"district":{"key":"05558","name":"Coesfeld","type":"Kreis"},"federalState":{"key":"05","name":"Nordrhein-Westfalen"}},{"name":"Feldweg","postalCode":"48653","locality":"Coesfeld","municipality":{"key":"05558012","name":"Coesfeld, Stadt","type":"Stadt"},"district":{"key":"05558","name":"Coesfeld","type":"Kreis"},"federalState":{"key":"05","name":"Nordrhein-Westfalen"}},{"name":"Flamschen","postalCode":"48653","locality":"Coesfeld","municipality":{"key":"05558012","name":"Coesfeld, Stadt","type":"Stadt"},"district":{"key":"05558","name":"Coesfeld","type":"Kreis"},"federalState":{"key":"05","name":"Nordrhein-Westfalen"}},{"name":"Flamschener Weg","postalCode":"48653","locality":"Coesfeld","municipality":{"key":"05558012","name":"Coesfeld, Stadt","type":"Stadt"},"district":{"key":"05558","name":"Coesfeld","type":"Kreis"},"federalState":{"key":"05","name":"Nordrhein-Westfalen"}},{"name":"Florianstr.","postalCode":"48653","locality":"Coesfeld","municipality":{"key":"05558012","name":"Coesfeld, Stadt","type":"Stadt"},"district":{"key":"05558","name":"Coesfeld","type":"Kreis"},"federalState":{"key":"05","name":"Nordrhein-Westfalen"}},{"name":"Forellenweg","postalCode":"48653","locality":"Coesfeld","municipality":{"key":"05558012","name":"Coesfeld, Stadt","type":"Stadt"},"district":{"key":"05558","name":"Coesfeld","type":"Kreis"},"federalState":{"key":"05","name":"Nordrhein-Westfalen"}},{"name":"Franz-Darpe-Str.","postalCode":"48653","locality":"Coesfeld","municipality":{"key":"05558012","name":"Coesfeld, Stadt","type":"Stadt"},"district":{"key":"05558","name":"Coesfeld","type":"Kreis"},"federalState":{"key":"05","name":"Nordrhein-Westfalen"}},{"name":"Franz-Rohls-Platz","postalCode":"48653","locality":"Coesfeld","municipality":{"key":"05558012","name":"Coesfeld, Stadt","type":"Stadt"},"district":{"key":"05558","name":"Coesfeld","type":"Kreis"},"federalState":{"key":"05","name":"Nordrhein-Westfalen"}},{"name":"Friedensweg","postalCode":"48653","locality":"Coesfeld","municipality":{"key":"05558012","name":"Coesfeld, Stadt","type":"Stadt"},"district":{"key":"05558","name":"Coesfeld","type":"Kreis"},"federalState":{"key":"05","name":"Nordrhein-Westfalen"}},{"name":"Friedhofsallee","postalCode":"48653","locality":"Coesfeld","municipality":{"key":"05558012","name":"Coesfeld, Stadt","type":"Stadt"},"district":{"key":"05558","name":"Coesfeld","type":"Kreis"},"federalState":{"key":"05","name":"Nordrhein-Westfalen"}},{"name":"Friedrich-Ebert-Str.","postalCode":"48653","locality":"Coesfeld","municipality":{"key":"05558012","name":"Coesfeld, Stadt","type":"Stadt"},"district":{"key":"05558","name":"Coesfeld","type":"Kreis"},"federalState":{"key":"05","name":"Nordrhein-Westfalen"}},{"name":"Fürstenbusch","postalCode":"48653","locality":"Coesfeld","municipality":{"key":"05558012","name":"Coesfeld, Stadt","type":"Stadt"},"district":{"key":"05558","name":"Coesfeld","type":"Kreis"},"federalState":{"key":"05","name":"Nordrhein-Westfalen"}},{"name":"Gartenstr.","postalCode":"48653","locality":"Coesfeld","municipality":{"key":"05558012","name":"Coesfeld, Stadt","type":"Stadt"},"district":{"key":"05558","name":"Coesfeld","type":"Kreis"},"federalState":{"key":"05","name":"Nordrhein-Westfalen"}},{"name":"Geer","postalCode":"48653","locality":"Coesfeld","municipality":{"key":"05558012","name":"Coesfeld, Stadt","type":"Stadt"},"district":{"key":"05558","name":"Coesfeld","type":"Kreis"},"federalState":{"key":"05","name":"Nordrhein-Westfalen"}},{"name":"Gemeindeplatz","postalCode":"48653","locality":"Coesfeld","municipality":{"key":"05558012","name":"Coesfeld, Stadt","type":"Stadt"},"district":{"key":"05558","name":"Coesfeld","type":"Kreis"},"federalState":{"key":"05","name":"Nordrhein-Westfalen"}},{"name":"Gerhart-Hauptmann-Str.","postalCode":"48653","locality":"Coesfeld","municipality":{"key":"05558012","name":"Coesfeld, Stadt","type":"Stadt"},"district":{"key":"05558","name":"Coesfeld","type":"Kreis"},"federalState":{"key":"05","name":"Nordrhein-Westfalen"}},{"name":"Gerichtsring","postalCode":"48653","locality":"Coesfeld","municipality":{"key":"05558012","name":"Coesfeld, Stadt","type":"Stadt"},"district":{"key":"05558","name":"Coesfeld","type":"Kreis"},"federalState":{"key":"05","name":"Nordrhein-Westfalen"}},{"name":"Gerichtswall","postalCode":"48653","locality":"Coesfeld","municipality":{"key":"05558012","name":"Coesfeld, Stadt","type":"Stadt"},"district":{"key":"05558","name":"Coesfeld","type":"Kreis"},"federalState":{"key":"05","name":"Nordrhein-Westfalen"}},{"name":"Gerlever Weg","postalCode":"48653","locality":"Coesfeld","municipality":{"key":"05558012","name":"Coesfeld, Stadt","type":"Stadt"},"district":{"key":"05558","name":"Coesfeld","type":"Kreis"},"federalState":{"key":"05","name":"Nordrhein-Westfalen"}},{"name":"Gottfriedweg","postalCode":"48653","locality":"Coesfeld","municipality":{"key":"05558012","name":"Coesfeld, Stadt","type":"Stadt"},"district":{"key":"05558","name":"Coesfeld","type":"Kreis"},"federalState":{"key":"05","name":"Nordrhein-Westfalen"}},{"name":"Goxel","postalCode":"48653","locality":"Coesfeld","municipality":{"key":"05558012","name":"Coesfeld, Stadt","type":"Stadt"},"district":{"key":"05558","name":"Coesfeld","type":"Kreis"},"federalState":{"key":"05","name":"Nordrhein-Westfalen"}},{"name":"Grenzweg","postalCode":"48653","locality":"Coesfeld","municipality":{"key":"05558012","name":"Coesfeld, Stadt","type":"Stadt"},"district":{"key":"05558","name":"Coesfeld","type":"Kreis"},"federalState":{"key":"05","name":"Nordrhein-Westfalen"}},{"name":"Grimpingstr.","postalCode":"48653","locality":"Coesfeld","municipality":{"key":"05558012","name":"Coesfeld, Stadt","type":"Stadt"},"district":{"key":"05558","name":"Coesfeld","type":"Kreis"},"federalState":{"key":"05","name":"Nordrhein-Westfalen"}},{"name":"Großer Kreuzweg","postalCode":"48653","locality":"Coesfeld","municipality":{"key":"05558012","name":"Coesfeld, Stadt","type":"Stadt"},"district":{"key":"05558","name":"Coesfeld","type":"Kreis"},"federalState":{"key":"05","name":"Nordrhein-Westfalen"}},{"name":"Große Viehstr.","postalCode":"48653","locality":"Coesfeld","municipality":{"key":"05558012","name":"Coesfeld, Stadt","type":"Stadt"},"district":{"key":"05558","name":"Coesfeld","type":"Kreis"},"federalState":{"key":"05","name":"Nordrhein-Westfalen"}},{"name":"Grüner Weg","postalCode":"48653","locality":"Coesfeld","municipality":{"key":"05558012","name":"Coesfeld, Stadt","type":"Stadt"},"district":{"key":"05558","name":"Coesfeld","type":"Kreis"},"federalState":{"key":"05","name":"Nordrhein-Westfalen"}},{"name":"Grüner Winkel","postalCode":"48653","locality":"Coesfeld","municipality":{"key":"05558012","name":"Coesfeld, Stadt","type":"Stadt"},"district":{"key":"05558","name":"Coesfeld","type":"Kreis"},"federalState":{"key":"05","name":"Nordrhein-Westfalen"}},{"name":"Gutenbergstr.","postalCode":"48653","locality":"Coesfeld","municipality":{"key":"05558012","name":"Coesfeld, Stadt","type":"Stadt"},"district":{"key":"05558","name":"Coesfeld","type":"Kreis"},"federalState":{"key":"05","name":"Nordrhein-Westfalen"}},{"name":"Hamms Gasse","postalCode":"48653","locality":"Coesfeld","municipality":{"key":"05558012","name":"Coesfeld, Stadt","type":"Stadt"},"district":{"key":"05558","name":"Coesfeld","type":"Kreis"},"federalState":{"key":"05","name":"Nordrhein-Westfalen"}},{"name":"Hansestr.","postalCode":"48653","locality":"Coesfeld","municipality":{"key":"05558012","name":"Coesfeld, Stadt","type":"Stadt"},"district":{"key":"05558","name":"Coesfeld","type":"Kreis"},"federalState":{"key":"05","name":"Nordrhein-Westfalen"}},{"name":"Harle","postalCode":"48653","locality":"Coesfeld","municipality":{"key":"05558012","name":"Coesfeld, Stadt","type":"Stadt"},"district":{"key":"05558","name":"Coesfeld","type":"Kreis"},"federalState":{"key":"05","name":"Nordrhein-Westfalen"}},{"name":"Haselweg","postalCode":"48653","locality":"Coesfeld","municipality":{"key":"05558012","name":"Coesfeld, Stadt","type":"Stadt"},"district":{"key":"05558","name":"Coesfeld","type":"Kreis"},"federalState":{"key":"05","name":"Nordrhein-Westfalen"}},{"name":"Hasenleck","postalCode":"48653","locality":"Coesfeld","municipality":{"key":"05558012","name":"Coesfeld, Stadt","type":"Stadt"},"district":{"key":"05558","name":"Coesfeld","type":"Kreis"},"federalState":{"key":"05","name":"Nordrhein-Westfalen"}},{"name":"Haugen Kamp","postalCode":"48653","locality":"Coesfeld","municipality":{"key":"05558012","name":"Coesfeld, Stadt","type":"Stadt"},"district":{"key":"05558","name":"Coesfeld","type":"Kreis"},"federalState":{"key":"05","name":"Nordrhein-Westfalen"}},{"name":"Heideweg","postalCode":"48653","locality":"Coesfeld","municipality":{"key":"05558012","name":"Coesfeld, Stadt","type":"Stadt"},"district":{"key":"05558","name":"Coesfeld","type":"Kreis"},"federalState":{"key":"05","name":"Nordrhein-Westfalen"}},{"name":"Hemingkamp","postalCode":"48653","locality":"Coesfeld","municipality":{"key":"05558012","name":"Coesfeld, Stadt","type":"Stadt"},"district":{"key":"05558","name":"Coesfeld","type":"Kreis"},"federalState":{"key":"05","name":"Nordrhein-Westfalen"}},{"name":"Hengtekamp","postalCode":"48653","locality":"Coesfeld","municipality":{"key":"05558012","name":"Coesfeld, Stadt","type":"Stadt"},"district":{"key":"05558","name":"Coesfeld","type":"Kreis"},"federalState":{"key":"05","name":"Nordrhein-Westfalen"}},{"name":"Hengtering","postalCode":"48653","locality":"Coesfeld","municipality":{"key":"05558012","name":"Coesfeld, Stadt","type":"Stadt"},"district":{"key":"05558","name":"Coesfeld","type":"Kreis"},"federalState":{"key":"05","name":"Nordrhein-Westfalen"}},{"name":"Hengtestr.","postalCode":"48653","locality":"Coesfeld","municipality":{"key":"05558012","name":"Coesfeld, Stadt","type":"Stadt"},"district":{"key":"05558","name":"Coesfeld","type":"Kreis"},"federalState":{"key":"05","name":"Nordrhein-Westfalen"}},{"name":"Hengteweg","postalCode":"48653","locality":"Coesfeld","municipality":{"key":"05558012","name":"Coesfeld, Stadt","type":"Stadt"},"district":{"key":"05558","name":"Coesfeld","type":"Kreis"},"federalState":{"key":"05","name":"Nordrhein-Westfalen"}},{"name":"Hermann-Löns-Weg","postalCode":"48653","locality":"Coesfeld","municipality":{"key":"05558012","name":"Coesfeld, Stadt","type":"Stadt"},"district":{"key":"05558","name":"Coesfeld","type":"Kreis"},"federalState":{"key":"05","name":"Nordrhein-Westfalen"}},{"name":"Hermannstr.","postalCode":"48653","locality":"Coesfeld","municipality":{"key":"05558012","name":"Coesfeld, Stadt","type":"Stadt"},"district":{"key":"05558","name":"Coesfeld","type":"Kreis"},"federalState":{"key":"05","name":"Nordrhein-Westfalen"}},{"name":"Hexenweg","postalCode":"48653","locality":"Coesfeld","municipality":{"key":"05558012","name":"Coesfeld, Stadt","type":"Stadt"},"district":{"key":"05558","name":"Coesfeld","type":"Kreis"},"federalState":{"key":"05","name":"Nordrhein-Westfalen"}},{"name":"Hinterstr.","postalCode":"48653","locality":"Coesfeld","municipality":{"key":"05558012","name":"Coesfeld, Stadt","type":"Stadt"},"district":{"key":"05558","name":"Coesfeld","type":"Kreis"},"federalState":{"key":"05","name":"Nordrhein-Westfalen"}},{"name":"Hoffschlägerweg","postalCode":"48653","locality":"Coesfeld","municipality":{"key":"05558012","name":"Coesfeld, Stadt","type":"Stadt"},"district":{"key":"05558","name":"Coesfeld","type":"Kreis"},"federalState":{"key":"05","name":"Nordrhein-Westfalen"}},{"name":"Hohe Lucht","postalCode":"48653","locality":"Coesfeld","municipality":{"key":"05558012","name":"Coesfeld, Stadt","type":"Stadt"},"district":{"key":"05558","name":"Coesfeld","type":"Kreis"},"federalState":{"key":"05","name":"Nordrhein-Westfalen"}},{"name":"Hohes Feld","postalCode":"48653","locality":"Coesfeld","municipality":{"key":"05558012","name":"Coesfeld, Stadt","type":"Stadt"},"district":{"key":"05558","name":"Coesfeld","type":"Kreis"},"federalState":{"key":"05","name":"Nordrhein-Westfalen"}},{"name":"Hölkers Kamp","postalCode":"48653","locality":"Coesfeld","municipality":{"key":"05558012","name":"Coesfeld, Stadt","type":"Stadt"},"district":{"key":"05558","name":"Coesfeld","type":"Kreis"},"federalState":{"key":"05","name":"Nordrhein-Westfalen"}},{"name":"Höltene Klinke","postalCode":"48653","locality":"Coesfeld","municipality":{"key":"05558012","name":"Coesfeld, Stadt","type":"Stadt"},"district":{"key":"05558","name":"Coesfeld","type":"Kreis"},"federalState":{"key":"05","name":"Nordrhein-Westfalen"}},{"name":"Höltings Weg","postalCode":"48653","locality":"Coesfeld","municipality":{"key":"05558012","name":"Coesfeld, Stadt","type":"Stadt"},"district":{"key":"05558","name":"Coesfeld","type":"Kreis"},"federalState":{"key":"05","name":"Nordrhein-Westfalen"}},{"name":"Holtwicker Str.","postalCode":"48653","locality":"Coesfeld","municipality":{"key":"05558012","name":"Coesfeld, Stadt","type":"Stadt"},"district":{"key":"05558","name":"Coesfeld","type":"Kreis"},"federalState":{"key":"05","name":"Nordrhein-Westfalen"}},{"name":"Holzweg","postalCode":"48653","locality":"Coesfeld","municipality":{"key":"05558012","name":"Coesfeld, Stadt","type":"Stadt"},"district":{"key":"05558","name":"Coesfeld","type":"Kreis"},"federalState":{"key":"05","name":"Nordrhein-Westfalen"}},{"name":"Hornebachweg","postalCode":"48653","locality":"Coesfeld","municipality":{"key":"05558012","name":"Coesfeld, Stadt","type":"Stadt"},"district":{"key":"05558","name":"Coesfeld","type":"Kreis"},"federalState":{"key":"05","name":"Nordrhein-Westfalen"}},{"name":"Hornestiege","postalCode":"48653","locality":"Coesfeld","municipality":{"key":"05558012","name":"Coesfeld, Stadt","type":"Stadt"},"district":{"key":"05558","name":"Coesfeld","type":"Kreis"},"federalState":{"key":"05","name":"Nordrhein-Westfalen"}},{"name":"Horstesch","postalCode":"48653","locality":"Coesfeld","municipality":{"key":"05558012","name":"Coesfeld, Stadt","type":"Stadt"},"district":{"key":"05558","name":"Coesfeld","type":"Kreis"},"federalState":{"key":"05","name":"Nordrhein-Westfalen"}},{"name":"Hüppelswicker Weg","postalCode":"48653","locality":"Coesfeld","municipality":{"key":"05558012","name":"Coesfeld, Stadt","type":"Stadt"},"district":{"key":"05558","name":"Coesfeld","type":"Kreis"},"federalState":{"key":"05","name":"Nordrhein-Westfalen"}},{"name":"Im Eichengrund","postalCode":"48653","locality":"Coesfeld","municipality":{"key":"05558012","name":"Coesfeld, Stadt","type":"Stadt"},"district":{"key":"05558","name":"Coesfeld","type":"Kreis"},"federalState":{"key":"05","name":"Nordrhein-Westfalen"}},{"name":"Im Großen Esch","postalCode":"48653","locality":"Coesfeld","municipality":{"key":"05558012","name":"Coesfeld, Stadt","type":"Stadt"},"district":{"key":"05558","name":"Coesfeld","type":"Kreis"},"federalState":{"key":"05","name":"Nordrhein-Westfalen"}},{"name":"Im Nonnenkamp","postalCode":"48653","locality":"Coesfeld","municipality":{"key":"05558012","name":"Coesfeld, Stadt","type":"Stadt"},"district":{"key":"05558","name":"Coesfeld","type":"Kreis"},"federalState":{"key":"05","name":"Nordrhein-Westfalen"}},{"name":"Im Ried","postalCode":"48653","locality":"Coesfeld","municipality":{"key":"05558012","name":"Coesfeld, Stadt","type":"Stadt"},"district":{"key":"05558","name":"Coesfeld","type":"Kreis"},"federalState":{"key":"05","name":"Nordrhein-Westfalen"}},{"name":"Im Sanden","postalCode":"48653","locality":"Coesfeld","municipality":{"key":"05558012","name":"Coesfeld, Stadt","type":"Stadt"},"district":{"key":"05558","name":"Coesfeld","type":"Kreis"},"federalState":{"key":"05","name":"Nordrhein-Westfalen"}},{"name":"Im Sonnenschein","postalCode":"48653","locality":"Coesfeld","municipality":{"key":"05558012","name":"Coesfeld, Stadt","type":"Stadt"},"district":{"key":"05558","name":"Coesfeld","type":"Kreis"},"federalState":{"key":"05","name":"Nordrhein-Westfalen"}},{"name":"Indehell","postalCode":"48653","locality":"Coesfeld","municipality":{"key":"05558012","name":"Coesfeld, Stadt","type":"Stadt"},"district":{"key":"05558","name":"Coesfeld","type":"Kreis"},"federalState":{"key":"05","name":"Nordrhein-Westfalen"}},{"name":"In den Kämpen","postalCode":"48653","locality":"Coesfeld","municipality":{"key":"05558012","name":"Coesfeld, Stadt","type":"Stadt"},"district":{"key":"05558","name":"Coesfeld","type":"Kreis"},"federalState":{"key":"05","name":"Nordrhein-Westfalen"}},{"name":"Industriestr.","postalCode":"48653","locality":"Coesfeld","municipality":{"key":"05558012","name":"Coesfeld, Stadt","type":"Stadt"},"district":{"key":"05558","name":"Coesfeld","type":"Kreis"},"federalState":{"key":"05","name":"Nordrhein-Westfalen"}},{"name":"Isfelder Weg","postalCode":"48653","locality":"Coesfeld","municipality":{"key":"05558012","name":"Coesfeld, Stadt","type":"Stadt"},"district":{"key":"05558","name":"Coesfeld","type":"Kreis"},"federalState":{"key":"05","name":"Nordrhein-Westfalen"}},{"name":"Isselweg","postalCode":"48653","locality":"Coesfeld","municipality":{"key":"05558012","name":"Coesfeld, Stadt","type":"Stadt"},"district":{"key":"05558","name":"Coesfeld","type":"Kreis"},"federalState":{"key":"05","name":"Nordrhein-Westfalen"}},{"name":"Jacobistr.","postalCode":"48653","locality":"Coesfeld","municipality":{"key":"05558012","name":"Coesfeld, Stadt","type":"Stadt"},"district":{"key":"05558","name":"Coesfeld","type":"Kreis"},"federalState":{"key":"05","name":"Nordrhein-Westfalen"}},{"name":"Jakobiberg","postalCode":"48653","locality":"Coesfeld","municipality":{"key":"05558012","name":"Coesfeld, Stadt","type":"Stadt"},"district":{"key":"05558","name":"Coesfeld","type":"Kreis"},"federalState":{"key":"05","name":"Nordrhein-Westfalen"}},{"name":"Jakobiring","postalCode":"48653","locality":"Coesfeld","municipality":{"key":"05558012","name":"Coesfeld, Stadt","type":"Stadt"},"district":{"key":"05558","name":"Coesfeld","type":"Kreis"},"federalState":{"key":"05","name":"Nordrhein-Westfalen"}},{"name":"Jakobiwall","postalCode":"48653","locality":"Coesfeld","municipality":{"key":"05558012","name":"Coesfeld, Stadt","type":"Stadt"},"district":{"key":"05558","name":"Coesfeld","type":"Kreis"},"federalState":{"key":"05","name":"Nordrhein-Westfalen"}},{"name":"Jansborgweg","postalCode":"48653","locality":"Coesfeld","municipality":{"key":"05558012","name":"Coesfeld, Stadt","type":"Stadt"},"district":{"key":"05558","name":"Coesfeld","type":"Kreis"},"federalState":{"key":"05","name":"Nordrhein-Westfalen"}},{"name":"Jansweg","postalCode":"48653","locality":"Coesfeld","municipality":{"key":"05558012","name":"Coesfeld, Stadt","type":"Stadt"},"district":{"key":"05558","name":"Coesfeld","type":"Kreis"},"federalState":{"key":"05","name":"Nordrhein-Westfalen"}},{"name":"Jodenstr.","postalCode":"48653","locality":"Coesfeld","municipality":{"key":"05558012","name":"Coesfeld, Stadt","type":"Stadt"},"district":{"key":"05558","name":"Coesfeld","type":"Kreis"},"federalState":{"key":"05","name":"Nordrhein-Westfalen"}},{"name":"Josefstr.","postalCode":"48653","locality":"Coesfeld","municipality":{"key":"05558012","name":"Coesfeld, Stadt","type":"Stadt"},"district":{"key":"05558","name":"Coesfeld","type":"Kreis"},"federalState":{"key":"05","name":"Nordrhein-Westfalen"}},{"name":"Kalksbecker Weg","postalCode":"48653","locality":"Coesfeld","municipality":{"key":"05558012","name":"Coesfeld, Stadt","type":"Stadt"},"district":{"key":"05558","name":"Coesfeld","type":"Kreis"},"federalState":{"key":"05","name":"Nordrhein-Westfalen"}},{"name":"Kalte","postalCode":"48653","locality":"Coesfeld","municipality":{"key":"05558012","name":"Coesfeld, Stadt","type":"Stadt"},"district":{"key":"05558","name":"Coesfeld","type":"Kreis"},"federalState":{"key":"05","name":"Nordrhein-Westfalen"}},{"name":"Kapellenweg","postalCode":"48653","locality":"Coesfeld","municipality":{"key":"05558012","name":"Coesfeld, Stadt","type":"Stadt"},"district":{"key":"05558","name":"Coesfeld","type":"Kreis"},"federalState":{"key":"05","name":"Nordrhein-Westfalen"}},{"name":"Kappenberg","postalCode":"48653","locality":"Coesfeld","municipality":{"key":"05558012","name":"Coesfeld, Stadt","type":"Stadt"},"district":{"key":"05558","name":"Coesfeld","type":"Kreis"},"federalState":{"key":"05","name":"Nordrhein-Westfalen"}},{"name":"Kapuzinerstr.","postalCode":"48653","locality":"Coesfeld","municipality":{"key":"05558012","name":"Coesfeld, Stadt","type":"Stadt"},"district":{"key":"05558","name":"Coesfeld","type":"Kreis"},"federalState":{"key":"05","name":"Nordrhein-Westfalen"}},{"name":"Karlstr.","postalCode":"48653","locality":"Coesfeld","municipality":{"key":"05558012","name":"Coesfeld, Stadt","type":"Stadt"},"district":{"key":"05558","name":"Coesfeld","type":"Kreis"},"federalState":{"key":"05","name":"Nordrhein-Westfalen"}},{"name":"Kastanienweg","postalCode":"48653","locality":"Coesfeld","municipality":{"key":"05558012","name":"Coesfeld, Stadt","type":"Stadt"},"district":{"key":"05558","name":"Coesfeld","type":"Kreis"},"federalState":{"key":"05","name":"Nordrhein-Westfalen"}},{"name":"Katthagen","postalCode":"48653","locality":"Coesfeld","municipality":{"key":"05558012","name":"Coesfeld, Stadt","type":"Stadt"},"district":{"key":"05558","name":"Coesfeld","type":"Kreis"},"federalState":{"key":"05","name":"Nordrhein-Westfalen"}},{"name":"Kellerstr.","postalCode":"48653","locality":"Coesfeld","municipality":{"key":"05558012","name":"Coesfeld, Stadt","type":"Stadt"},"district":{"key":"05558","name":"Coesfeld","type":"Kreis"},"federalState":{"key":"05","name":"Nordrhein-Westfalen"}},{"name":"Kettelerstr.","postalCode":"48653","locality":"Coesfeld","municipality":{"key":"05558012","name":"Coesfeld, Stadt","type":"Stadt"},"district":{"key":"05558","name":"Coesfeld","type":"Kreis"},"federalState":{"key":"05","name":"Nordrhein-Westfalen"}},{"name":"Kiebitzweide","postalCode":"48653","locality":"Coesfeld","municipality":{"key":"05558012","name":"Coesfeld, Stadt","type":"Stadt"},"district":{"key":"05558","name":"Coesfeld","type":"Kreis"},"federalState":{"key":"05","name":"Nordrhein-Westfalen"}},{"name":"Kiefernweg","postalCode":"48653","locality":"Coesfeld","municipality":{"key":"05558012","name":"Coesfeld, Stadt","type":"Stadt"},"district":{"key":"05558","name":"Coesfeld","type":"Kreis"},"federalState":{"key":"05","name":"Nordrhein-Westfalen"}},{"name":"Kirchstr.","postalCode":"48653","locality":"Coesfeld","municipality":{"key":"05558012","name":"Coesfeld, Stadt","type":"Stadt"},"district":{"key":"05558","name":"Coesfeld","type":"Kreis"},"federalState":{"key":"05","name":"Nordrhein-Westfalen"}},{"name":"Kleine Heide","postalCode":"48653","locality":"Coesfeld","municipality":{"key":"05558012","name":"Coesfeld, Stadt","type":"Stadt"},"district":{"key":"05558","name":"Coesfeld","type":"Kreis"},"federalState":{"key":"05","name":"Nordrhein-Westfalen"}},{"name":"Kleine Viehstr.","postalCode":"48653","locality":"Coesfeld","municipality":{"key":"05558012","name":"Coesfeld, Stadt","type":"Stadt"},"district":{"key":"05558","name":"Coesfeld","type":"Kreis"},"federalState":{"key":"05","name":"Nordrhein-Westfalen"}},{"name":"Klein-Heßling-Str.","postalCode":"48653","locality":"Coesfeld","municipality":{"key":"05558012","name":"Coesfeld, Stadt","type":"Stadt"},"district":{"key":"05558","name":"Coesfeld","type":"Kreis"},"federalState":{"key":"05","name":"Nordrhein-Westfalen"}},{"name":"Klinkenberg","postalCode":"48653","locality":"Coesfeld","municipality":{"key":"05558012","name":"Coesfeld, Stadt","type":"Stadt"},"district":{"key":"05558","name":"Coesfeld","type":"Kreis"},"federalState":{"key":"05","name":"Nordrhein-Westfalen"}},{"name":"Klinkenhagen","postalCode":"48653","locality":"Coesfeld","municipality":{"key":"05558012","name":"Coesfeld, Stadt","type":"Stadt"},"district":{"key":"05558","name":"Coesfeld","type":"Kreis"},"federalState":{"key":"05","name":"Nordrhein-Westfalen"}},{"name":"Klosterstr.","postalCode":"48653","locality":"Coesfeld","municipality":{"key":"05558012","name":"Coesfeld, Stadt","type":"Stadt"},"district":{"key":"05558","name":"Coesfeld","type":"Kreis"},"federalState":{"key":"05","name":"Nordrhein-Westfalen"}},{"name":"Klutenweg","postalCode":"48653","locality":"Coesfeld","municipality":{"key":"05558012","name":"Coesfeld, Stadt","type":"Stadt"},"district":{"key":"05558","name":"Coesfeld","type":"Kreis"},"federalState":{"key":"05","name":"Nordrhein-Westfalen"}},{"name":"Knüppelstiege","postalCode":"48653","locality":"Coesfeld","municipality":{"key":"05558012","name":"Coesfeld, Stadt","type":"Stadt"},"district":{"key":"05558","name":"Coesfeld","type":"Kreis"},"federalState":{"key":"05","name":"Nordrhein-Westfalen"}},{"name":"Köbbinghof","postalCode":"48653","locality":"Coesfeld","municipality":{"key":"05558012","name":"Coesfeld, Stadt","type":"Stadt"},"district":{"key":"05558","name":"Coesfeld","type":"Kreis"},"federalState":{"key":"05","name":"Nordrhein-Westfalen"}},{"name":"Kolpingstr.","postalCode":"48653","locality":"Coesfeld","municipality":{"key":"05558012","name":"Coesfeld, Stadt","type":"Stadt"},"district":{"key":"05558","name":"Coesfeld","type":"Kreis"},"federalState":{"key":"05","name":"Nordrhein-Westfalen"}},{"name":"Konrad-Adenauer-Ring","postalCode":"48653","locality":"Coesfeld","municipality":{"key":"05558012","name":"Coesfeld, Stadt","type":"Stadt"},"district":{"key":"05558","name":"Coesfeld","type":"Kreis"},"federalState":{"key":"05","name":"Nordrhein-Westfalen"}},{"name":"Krassens Wätken","postalCode":"48653","locality":"Coesfeld","municipality":{"key":"05558012","name":"Coesfeld, Stadt","type":"Stadt"},"district":{"key":"05558","name":"Coesfeld","type":"Kreis"},"federalState":{"key":"05","name":"Nordrhein-Westfalen"}},{"name":"Kreienkamp","postalCode":"48653","locality":"Coesfeld","municipality":{"key":"05558012","name":"Coesfeld, Stadt","type":"Stadt"},"district":{"key":"05558","name":"Coesfeld","type":"Kreis"},"federalState":{"key":"05","name":"Nordrhein-Westfalen"}},{"name":"Kreuzstr.","postalCode":"48653","locality":"Coesfeld","municipality":{"key":"05558012","name":"Coesfeld, Stadt","type":"Stadt"},"district":{"key":"05558","name":"Coesfeld","type":"Kreis"},"federalState":{"key":"05","name":"Nordrhein-Westfalen"}},{"name":"Kriegerehrenmal","postalCode":"48653","locality":"Coesfeld","municipality":{"key":"05558012","name":"Coesfeld, Stadt","type":"Stadt"},"district":{"key":"05558","name":"Coesfeld","type":"Kreis"},"federalState":{"key":"05","name":"Nordrhein-Westfalen"}},{"name":"Kuchenstr.","postalCode":"48653","locality":"Coesfeld","municipality":{"key":"05558012","name":"Coesfeld, Stadt","type":"Stadt"},"district":{"key":"05558","name":"Coesfeld","type":"Kreis"},"federalState":{"key":"05","name":"Nordrhein-Westfalen"}},{"name":"Kupferstr.","postalCode":"48653","locality":"Coesfeld","municipality":{"key":"05558012","name":"Coesfeld, Stadt","type":"Stadt"},"district":{"key":"05558","name":"Coesfeld","type":"Kreis"},"federalState":{"key":"05","name":"Nordrhein-Westfalen"}},{"name":"Kurze Str.","postalCode":"48653","locality":"Coesfeld","municipality":{"key":"05558012","name":"Coesfeld, Stadt","type":"Stadt"},"district":{"key":"05558","name":"Coesfeld","type":"Kreis"},"federalState":{"key":"05","name":"Nordrhein-Westfalen"}},{"name":"Landweg","postalCode":"48653","locality":"Coesfeld","municipality":{"key":"05558012","name":"Coesfeld, Stadt","type":"Stadt"},"district":{"key":"05558","name":"Coesfeld","type":"Kreis"},"federalState":{"key":"05","name":"Nordrhein-Westfalen"}},{"name":"Lange Stiege","postalCode":"48653","locality":"Coesfeld","municipality":{"key":"05558012","name":"Coesfeld, Stadt","type":"Stadt"},"district":{"key":"05558","name":"Coesfeld","type":"Kreis"},"federalState":{"key":"05","name":"Nordrhein-Westfalen"}},{"name":"Lärchenweg","postalCode":"48653","locality":"Coesfeld","municipality":{"key":"05558012","name":"Coesfeld, Stadt","type":"Stadt"},"district":{"key":"05558","name":"Coesfeld","type":"Kreis"},"federalState":{"key":"05","name":"Nordrhein-Westfalen"}},{"name":"Laurentiusstr.","postalCode":"48653","locality":"Coesfeld","municipality":{"key":"05558012","name":"Coesfeld, Stadt","type":"Stadt"},"district":{"key":"05558","name":"Coesfeld","type":"Kreis"},"federalState":{"key":"05","name":"Nordrhein-Westfalen"}},{"name":"Leisweg","postalCode":"48653","locality":"Coesfeld","municipality":{"key":"05558012","name":"Coesfeld, Stadt","type":"Stadt"},"district":{"key":"05558","name":"Coesfeld","type":"Kreis"},"federalState":{"key":"05","name":"Nordrhein-Westfalen"}},{"name":"Letter Berg","postalCode":"48653","locality":"Coesfeld","municipality":{"key":"05558012","name":"Coesfeld, Stadt","type":"Stadt"},"district":{"key":"05558","name":"Coesfeld","type":"Kreis"},"federalState":{"key":"05","name":"Nordrhein-Westfalen"}},{"name":"Letter Bruch","postalCode":"48653","locality":"Coesfeld","municipality":{"key":"05558012","name":"Coesfeld, Stadt","type":"Stadt"},"district":{"key":"05558","name":"Coesfeld","type":"Kreis"},"federalState":{"key":"05","name":"Nordrhein-Westfalen"}},{"name":"Letter Bülten","postalCode":"48653","locality":"Coesfeld","municipality":{"key":"05558012","name":"Coesfeld, Stadt","type":"Stadt"},"district":{"key":"05558","name":"Coesfeld","type":"Kreis"},"federalState":{"key":"05","name":"Nordrhein-Westfalen"}},{"name":"Letter Esch","postalCode":"48653","locality":"Coesfeld","municipality":{"key":"05558012","name":"Coesfeld, Stadt","type":"Stadt"},"district":{"key":"05558","name":"Coesfeld","type":"Kreis"},"federalState":{"key":"05","name":"Nordrhein-Westfalen"}},{"name":"Letter Str.","postalCode":"48653","locality":"Coesfeld","municipality":{"key":"05558012","name":"Coesfeld, Stadt","type":"Stadt"},"district":{"key":"05558","name":"Coesfeld","type":"Kreis"},"federalState":{"key":"05","name":"Nordrhein-Westfalen"}},{"name":"Lilienbecke","postalCode":"48653","locality":"Coesfeld","municipality":{"key":"05558012","name":"Coesfeld, Stadt","type":"Stadt"},"district":{"key":"05558","name":"Coesfeld","type":"Kreis"},"federalState":{"key":"05","name":"Nordrhein-Westfalen"}},{"name":"Lindenallee","postalCode":"48653","locality":"Coesfeld","municipality":{"key":"05558012","name":"Coesfeld, Stadt","type":"Stadt"},"district":{"key":"05558","name":"Coesfeld","type":"Kreis"},"federalState":{"key":"05","name":"Nordrhein-Westfalen"}},{"name":"Lindenstr.","postalCode":"48653","locality":"Coesfeld","municipality":{"key":"05558012","name":"Coesfeld, Stadt","type":"Stadt"},"district":{"key":"05558","name":"Coesfeld","type":"Kreis"},"federalState":{"key":"05","name":"Nordrhein-Westfalen"}},{"name":"Lise-Meitner-Weg","postalCode":"48653","locality":"Coesfeld","municipality":{"key":"05558012","name":"Coesfeld, Stadt","type":"Stadt"},"district":{"key":"05558","name":"Coesfeld","type":"Kreis"},"federalState":{"key":"05","name":"Nordrhein-Westfalen"}},{"name":"Loburger Kamp","postalCode":"48653","locality":"Coesfeld","municipality":{"key":"05558012","name":"Coesfeld, Stadt","type":"Stadt"},"district":{"key":"05558","name":"Coesfeld","type":"Kreis"},"federalState":{"key":"05","name":"Nordrhein-Westfalen"}},{"name":"Loburger Str.","postalCode":"48653","locality":"Coesfeld","municipality":{"key":"05558012","name":"Coesfeld, Stadt","type":"Stadt"},"district":{"key":"05558","name":"Coesfeld","type":"Kreis"},"federalState":{"key":"05","name":"Nordrhein-Westfalen"}},{"name":"Loddeallee","postalCode":"48653","locality":"Coesfeld","municipality":{"key":"05558012","name":"Coesfeld, Stadt","type":"Stadt"},"district":{"key":"05558","name":"Coesfeld","type":"Kreis"},"federalState":{"key":"05","name":"Nordrhein-Westfalen"}},{"name":"Lohburger Str.","postalCode":"48653","locality":"Coesfeld","municipality":{"key":"05558012","name":"Coesfeld, Stadt","type":"Stadt"},"district":{"key":"05558","name":"Coesfeld","type":"Kreis"},"federalState":{"key":"05","name":"Nordrhein-Westfalen"}},{"name":"Lohmannweg","postalCode":"48653","locality":"Coesfeld","municipality":{"key":"05558012","name":"Coesfeld, Stadt","type":"Stadt"},"district":{"key":"05558","name":"Coesfeld","type":"Kreis"},"federalState":{"key":"05","name":"Nordrhein-Westfalen"}},{"name":"Lübbesmeyerweg","postalCode":"48653","locality":"Coesfeld","municipality":{"key":"05558012","name":"Coesfeld, Stadt","type":"Stadt"},"district":{"key":"05558","name":"Coesfeld","type":"Kreis"},"federalState":{"key":"05","name":"Nordrhein-Westfalen"}},{"name":"Ludgeri-Schulplatz","postalCode":"48653","locality":"Coesfeld","municipality":{"key":"05558012","name":"Coesfeld, Stadt","type":"Stadt"},"district":{"key":"05558","name":"Coesfeld","type":"Kreis"},"federalState":{"key":"05","name":"Nordrhein-Westfalen"}},{"name":"Ludgerusstr.","postalCode":"48653","locality":"Coesfeld","municipality":{"key":"05558012","name":"Coesfeld, Stadt","type":"Stadt"},"district":{"key":"05558","name":"Coesfeld","type":"Kreis"},"federalState":{"key":"05","name":"Nordrhein-Westfalen"}},{"name":"Magdalenen Str.","postalCode":"48653","locality":"Coesfeld","municipality":{"key":"05558012","name":"Coesfeld, Stadt","type":"Stadt"},"district":{"key":"05558","name":"Coesfeld","type":"Kreis"},"federalState":{"key":"05","name":"Nordrhein-Westfalen"}},{"name":"Maria-Lenfers-Weg","postalCode":"48653","locality":"Coesfeld","municipality":{"key":"05558012","name":"Coesfeld, Stadt","type":"Stadt"},"district":{"key":"05558","name":"Coesfeld","type":"Kreis"},"federalState":{"key":"05","name":"Nordrhein-Westfalen"}},{"name":"Marienburg","postalCode":"48653","locality":"Coesfeld","municipality":{"key":"05558012","name":"Coesfeld, Stadt","type":"Stadt"},"district":{"key":"05558","name":"Coesfeld","type":"Kreis"},"federalState":{"key":"05","name":"Nordrhein-Westfalen"}},{"name":"Marienburger Str.","postalCode":"48653","locality":"Coesfeld","municipality":{"key":"05558012","name":"Coesfeld, Stadt","type":"Stadt"},"district":{"key":"05558","name":"Coesfeld","type":"Kreis"},"federalState":{"key":"05","name":"Nordrhein-Westfalen"}},{"name":"Marienring","postalCode":"48653","locality":"Coesfeld","municipality":{"key":"05558012","name":"Coesfeld, Stadt","type":"Stadt"},"district":{"key":"05558","name":"Coesfeld","type":"Kreis"},"federalState":{"key":"05","name":"Nordrhein-Westfalen"}},{"name":"Markenweg","postalCode":"48653","locality":"Coesfeld","municipality":{"key":"05558012","name":"Coesfeld, Stadt","type":"Stadt"},"district":{"key":"05558","name":"Coesfeld","type":"Kreis"},"federalState":{"key":"05","name":"Nordrhein-Westfalen"}},{"name":"Meddingheide","postalCode":"48653","locality":"Coesfeld","municipality":{"key":"05558012","name":"Coesfeld, Stadt","type":"Stadt"},"district":{"key":"05558","name":"Coesfeld","type":"Kreis"},"federalState":{"key":"05","name":"Nordrhein-Westfalen"}},{"name":"Meerkuhle","postalCode":"48653","locality":"Coesfeld","municipality":{"key":"05558012","name":"Coesfeld, Stadt","type":"Stadt"},"district":{"key":"05558","name":"Coesfeld","type":"Kreis"},"federalState":{"key":"05","name":"Nordrhein-Westfalen"}},{"name":"Meinertstr.","postalCode":"48653","locality":"Coesfeld","municipality":{"key":"05558012","name":"Coesfeld, Stadt","type":"Stadt"},"district":{"key":"05558","name":"Coesfeld","type":"Kreis"},"federalState":{"key":"05","name":"Nordrhein-Westfalen"}},{"name":"Melkweg","postalCode":"48653","locality":"Coesfeld","municipality":{"key":"05558012","name":"Coesfeld, Stadt","type":"Stadt"},"district":{"key":"05558","name":"Coesfeld","type":"Kreis"},"federalState":{"key":"05","name":"Nordrhein-Westfalen"}},{"name":"Millenkamp","postalCode":"48653","locality":"Coesfeld","municipality":{"key":"05558012","name":"Coesfeld, Stadt","type":"Stadt"},"district":{"key":"05558","name":"Coesfeld","type":"Kreis"},"federalState":{"key":"05","name":"Nordrhein-Westfalen"}},{"name":"Mittelstr.","postalCode":"48653","locality":"Coesfeld","municipality":{"key":"05558012","name":"Coesfeld, Stadt","type":"Stadt"},"district":{"key":"05558","name":"Coesfeld","type":"Kreis"},"federalState":{"key":"05","name":"Nordrhein-Westfalen"}},{"name":"Mühlenblick","postalCode":"48653","locality":"Coesfeld","municipality":{"key":"05558012","name":"Coesfeld, Stadt","type":"Stadt"},"district":{"key":"05558","name":"Coesfeld","type":"Kreis"},"federalState":{"key":"05","name":"Nordrhein-Westfalen"}},{"name":"Mühlenesch","postalCode":"48653","locality":"Coesfeld","municipality":{"key":"05558012","name":"Coesfeld, Stadt","type":"Stadt"},"district":{"key":"05558","name":"Coesfeld","type":"Kreis"},"federalState":{"key":"05","name":"Nordrhein-Westfalen"}},{"name":"Mühlenplatz","postalCode":"48653","locality":"Coesfeld","municipality":{"key":"05558012","name":"Coesfeld, Stadt","type":"Stadt"},"district":{"key":"05558","name":"Coesfeld","type":"Kreis"},"federalState":{"key":"05","name":"Nordrhein-Westfalen"}},{"name":"Mühlenstr.","postalCode":"48653","locality":"Coesfeld","municipality":{"key":"05558012","name":"Coesfeld, Stadt","type":"Stadt"},"district":{"key":"05558","name":"Coesfeld","type":"Kreis"},"federalState":{"key":"05","name":"Nordrhein-Westfalen"}},{"name":"Münstersteinweg","postalCode":"48653","locality":"Coesfeld","municipality":{"key":"05558012","name":"Coesfeld, Stadt","type":"Stadt"},"district":{"key":"05558","name":"Coesfeld","type":"Kreis"},"federalState":{"key":"05","name":"Nordrhein-Westfalen"}},{"name":"Münsterstr.","postalCode":"48653","locality":"Coesfeld","municipality":{"key":"05558012","name":"Coesfeld, Stadt","type":"Stadt"},"district":{"key":"05558","name":"Coesfeld","type":"Kreis"},"federalState":{"key":"05","name":"Nordrhein-Westfalen"}},{"name":"Natz-Thier-Weg","postalCode":"48653","locality":"Coesfeld","municipality":{"key":"05558012","name":"Coesfeld, Stadt","type":"Stadt"},"district":{"key":"05558","name":"Coesfeld","type":"Kreis"},"federalState":{"key":"05","name":"Nordrhein-Westfalen"}},{"name":"Neumühle","postalCode":"48653","locality":"Coesfeld","municipality":{"key":"05558012","name":"Coesfeld, Stadt","type":"Stadt"},"district":{"key":"05558","name":"Coesfeld","type":"Kreis"},"federalState":{"key":"05","name":"Nordrhein-Westfalen"}},{"name":"Neustr.","postalCode":"48653","locality":"Coesfeld","municipality":{"key":"05558012","name":"Coesfeld, Stadt","type":"Stadt"},"district":{"key":"05558","name":"Coesfeld","type":"Kreis"},"federalState":{"key":"05","name":"Nordrhein-Westfalen"}},{"name":"Neutorstr.","postalCode":"48653","locality":"Coesfeld","municipality":{"key":"05558012","name":"Coesfeld, Stadt","type":"Stadt"},"district":{"key":"05558","name":"Coesfeld","type":"Kreis"},"federalState":{"key":"05","name":"Nordrhein-Westfalen"}},{"name":"Niemergs Weide","postalCode":"48653","locality":"Coesfeld","municipality":{"key":"05558012","name":"Coesfeld, Stadt","type":"Stadt"},"district":{"key":"05558","name":"Coesfeld","type":"Kreis"},"federalState":{"key":"05","name":"Nordrhein-Westfalen"}},{"name":"Nikolaus-Groß-Str.","postalCode":"48653","locality":"Coesfeld","municipality":{"key":"05558012","name":"Coesfeld, Stadt","type":"Stadt"},"district":{"key":"05558","name":"Coesfeld","type":"Kreis"},"federalState":{"key":"05","name":"Nordrhein-Westfalen"}},{"name":"Nininghove","postalCode":"48653","locality":"Coesfeld","municipality":{"key":"05558012","name":"Coesfeld, Stadt","type":"Stadt"},"district":{"key":"05558","name":"Coesfeld","type":"Kreis"},"federalState":{"key":"05","name":"Nordrhein-Westfalen"}},{"name":"Norbertweg","postalCode":"48653","locality":"Coesfeld","municipality":{"key":"05558012","name":"Coesfeld, Stadt","type":"Stadt"},"district":{"key":"05558","name":"Coesfeld","type":"Kreis"},"federalState":{"key":"05","name":"Nordrhein-Westfalen"}},{"name":"Oldendorper Weg","postalCode":"48653","locality":"Coesfeld","municipality":{"key":"05558012","name":"Coesfeld, Stadt","type":"Stadt"},"district":{"key":"05558","name":"Coesfeld","type":"Kreis"},"federalState":{"key":"05","name":"Nordrhein-Westfalen"}},{"name":"Osterwicker Str.","postalCode":"48653","locality":"Coesfeld","municipality":{"key":"05558012","name":"Coesfeld, Stadt","type":"Stadt"},"district":{"key":"05558","name":"Coesfeld","type":"Kreis"},"federalState":{"key":"05","name":"Nordrhein-Westfalen"}},{"name":"Osthellenweg","postalCode":"48653","locality":"Coesfeld","municipality":{"key":"05558012","name":"Coesfeld, Stadt","type":"Stadt"},"district":{"key":"05558","name":"Coesfeld","type":"Kreis"},"federalState":{"key":"05","name":"Nordrhein-Westfalen"}},{"name":"Otterkamp","postalCode":"48653","locality":"Coesfeld","municipality":{"key":"05558012","name":"Coesfeld, Stadt","type":"Stadt"},"district":{"key":"05558","name":"Coesfeld","type":"Kreis"},"federalState":{"key":"05","name":"Nordrhein-Westfalen"}},{"name":"Ottoweg","postalCode":"48653","locality":"Coesfeld","municipality":{"key":"05558012","name":"Coesfeld, Stadt","type":"Stadt"},"district":{"key":"05558","name":"Coesfeld","type":"Kreis"},"federalState":{"key":"05","name":"Nordrhein-Westfalen"}},{"name":"Overhagenweg","postalCode":"48653","locality":"Coesfeld","municipality":{"key":"05558012","name":"Coesfeld, Stadt","type":"Stadt"},"district":{"key":"05558","name":"Coesfeld","type":"Kreis"},"federalState":{"key":"05","name":"Nordrhein-Westfalen"}},{"name":"Panningweg","postalCode":"48653","locality":"Coesfeld","municipality":{"key":"05558012","name":"Coesfeld, Stadt","type":"Stadt"},"district":{"key":"05558","name":"Coesfeld","type":"Kreis"},"federalState":{"key":"05","name":"Nordrhein-Westfalen"}},{"name":"Paradiesweg","postalCode":"48653","locality":"Coesfeld","municipality":{"key":"05558012","name":"Coesfeld, Stadt","type":"Stadt"},"district":{"key":"05558","name":"Coesfeld","type":"Kreis"},"federalState":{"key":"05","name":"Nordrhein-Westfalen"}},{"name":"Pascherhook","postalCode":"48653","locality":"Coesfeld","municipality":{"key":"05558012","name":"Coesfeld, Stadt","type":"Stadt"},"district":{"key":"05558","name":"Coesfeld","type":"Kreis"},"federalState":{"key":"05","name":"Nordrhein-Westfalen"}},{"name":"Paßstiege","postalCode":"48653","locality":"Coesfeld","municipality":{"key":"05558012","name":"Coesfeld, Stadt","type":"Stadt"},"district":{"key":"05558","name":"Coesfeld","type":"Kreis"},"federalState":{"key":"05","name":"Nordrhein-Westfalen"}},{"name":"Peilsweg","postalCode":"48653","locality":"Coesfeld","municipality":{"key":"05558012","name":"Coesfeld, Stadt","type":"Stadt"},"district":{"key":"05558","name":"Coesfeld","type":"Kreis"},"federalState":{"key":"05","name":"Nordrhein-Westfalen"}},{"name":"Pfarrer-Kersting-Weg","postalCode":"48653","locality":"Coesfeld","municipality":{"key":"05558012","name":"Coesfeld, Stadt","type":"Stadt"},"district":{"key":"05558","name":"Coesfeld","type":"Kreis"},"federalState":{"key":"05","name":"Nordrhein-Westfalen"}},{"name":"Pfauengasse","postalCode":"48653","locality":"Coesfeld","municipality":{"key":"05558012","name":"Coesfeld, Stadt","type":"Stadt"},"district":{"key":"05558","name":"Coesfeld","type":"Kreis"},"federalState":{"key":"05","name":"Nordrhein-Westfalen"}},{"name":"Philosophenweg","postalCode":"48653","locality":"Coesfeld","municipality":{"key":"05558012","name":"Coesfeld, Stadt","type":"Stadt"},"district":{"key":"05558","name":"Coesfeld","type":"Kreis"},"federalState":{"key":"05","name":"Nordrhein-Westfalen"}},{"name":"Pictoriusstr.","postalCode":"48653","locality":"Coesfeld","municipality":{"key":"05558012","name":"Coesfeld, Stadt","type":"Stadt"},"district":{"key":"05558","name":"Coesfeld","type":"Kreis"},"federalState":{"key":"05","name":"Nordrhein-Westfalen"}},{"name":"Platanenweg","postalCode":"48653","locality":"Coesfeld","municipality":{"key":"05558012","name":"Coesfeld, Stadt","type":"Stadt"},"district":{"key":"05558","name":"Coesfeld","type":"Kreis"},"federalState":{"key":"05","name":"Nordrhein-Westfalen"}},{"name":"Plerguerstr.","postalCode":"48653","locality":"Coesfeld","municipality":{"key":"05558012","name":"Coesfeld, Stadt","type":"Stadt"},"district":{"key":"05558","name":"Coesfeld","type":"Kreis"},"federalState":{"key":"05","name":"Nordrhein-Westfalen"}},{"name":"Poststr.","postalCode":"48653","locality":"Coesfeld","municipality":{"key":"05558012","name":"Coesfeld, Stadt","type":"Stadt"},"district":{"key":"05558","name":"Coesfeld","type":"Kreis"},"federalState":{"key":"05","name":"Nordrhein-Westfalen"}},{"name":"Prüllageweg","postalCode":"48653","locality":"Coesfeld","municipality":{"key":"05558012","name":"Coesfeld, Stadt","type":"Stadt"},"district":{"key":"05558","name":"Coesfeld","type":"Kreis"},"federalState":{"key":"05","name":"Nordrhein-Westfalen"}},{"name":"Puheweg","postalCode":"48653","locality":"Coesfeld","municipality":{"key":"05558012","name":"Coesfeld, Stadt","type":"Stadt"},"district":{"key":"05558","name":"Coesfeld","type":"Kreis"},"federalState":{"key":"05","name":"Nordrhein-Westfalen"}},{"name":"Pumpengasse","postalCode":"48653","locality":"Coesfeld","municipality":{"key":"05558012","name":"Coesfeld, Stadt","type":"Stadt"},"district":{"key":"05558","name":"Coesfeld","type":"Kreis"},"federalState":{"key":"05","name":"Nordrhein-Westfalen"}},{"name":"Querstr.","postalCode":"48653","locality":"Coesfeld","municipality":{"key":"05558012","name":"Coesfeld, Stadt","type":"Stadt"},"district":{"key":"05558","name":"Coesfeld","type":"Kreis"},"federalState":{"key":"05","name":"Nordrhein-Westfalen"}},{"name":"Raiffeisenstr.","postalCode":"48653","locality":"Coesfeld","municipality":{"key":"05558012","name":"Coesfeld, Stadt","type":"Stadt"},"district":{"key":"05558","name":"Coesfeld","type":"Kreis"},"federalState":{"key":"05","name":"Nordrhein-Westfalen"}},{"name":"Reiningstr.","postalCode":"48653","locality":"Coesfeld","municipality":{"key":"05558012","name":"Coesfeld, Stadt","type":"Stadt"},"district":{"key":"05558","name":"Coesfeld","type":"Kreis"},"federalState":{"key":"05","name":"Nordrhein-Westfalen"}},{"name":"Reismannstr.","postalCode":"48653","locality":"Coesfeld","municipality":{"key":"05558012","name":"Coesfeld, Stadt","type":"Stadt"},"district":{"key":"05558","name":"Coesfeld","type":"Kreis"},"federalState":{"key":"05","name":"Nordrhein-Westfalen"}},{"name":"Rekener Postweg","postalCode":"48653","locality":"Coesfeld","municipality":{"key":"05558012","name":"Coesfeld, Stadt","type":"Stadt"},"district":{"key":"05558","name":"Coesfeld","type":"Kreis"},"federalState":{"key":"05","name":"Nordrhein-Westfalen"}},{"name":"Rekener Str.","postalCode":"48653","locality":"Coesfeld","municipality":{"key":"05558012","name":"Coesfeld, Stadt","type":"Stadt"},"district":{"key":"05558","name":"Coesfeld","type":"Kreis"},"federalState":{"key":"05","name":"Nordrhein-Westfalen"}},{"name":"Rendelesweg","postalCode":"48653","locality":"Coesfeld","municipality":{"key":"05558012","name":"Coesfeld, Stadt","type":"Stadt"},"district":{"key":"05558","name":"Coesfeld","type":"Kreis"},"federalState":{"key":"05","name":"Nordrhein-Westfalen"}},{"name":"Richteringhove","postalCode":"48653","locality":"Coesfeld","municipality":{"key":"05558012","name":"Coesfeld, Stadt","type":"Stadt"},"district":{"key":"05558","name":"Coesfeld","type":"Kreis"},"federalState":{"key":"05","name":"Nordrhein-Westfalen"}},{"name":"Richters Weg","postalCode":"48653","locality":"Coesfeld","municipality":{"key":"05558012","name":"Coesfeld, Stadt","type":"Stadt"},"district":{"key":"05558","name":"Coesfeld","type":"Kreis"},"federalState":{"key":"05","name":"Nordrhein-Westfalen"}},{"name":"Rietmannweg","postalCode":"48653","locality":"Coesfeld","municipality":{"key":"05558012","name":"Coesfeld, Stadt","type":"Stadt"},"district":{"key":"05558","name":"Coesfeld","type":"Kreis"},"federalState":{"key":"05","name":"Nordrhein-Westfalen"}},{"name":"Ritterstr.","postalCode":"48653","locality":"Coesfeld","municipality":{"key":"05558012","name":"Coesfeld, Stadt","type":"Stadt"},"district":{"key":"05558","name":"Coesfeld","type":"Kreis"},"federalState":{"key":"05","name":"Nordrhein-Westfalen"}},{"name":"Ronden-Buschen-Weg","postalCode":"48653","locality":"Coesfeld","municipality":{"key":"05558012","name":"Coesfeld, Stadt","type":"Stadt"},"district":{"key":"05558","name":"Coesfeld","type":"Kreis"},"federalState":{"key":"05","name":"Nordrhein-Westfalen"}},{"name":"Rosenstr.","postalCode":"48653","locality":"Coesfeld","municipality":{"key":"05558012","name":"Coesfeld, Stadt","type":"Stadt"},"district":{"key":"05558","name":"Coesfeld","type":"Kreis"},"federalState":{"key":"05","name":"Nordrhein-Westfalen"}},{"name":"Rosenwinkel","postalCode":"48653","locality":"Coesfeld","municipality":{"key":"05558012","name":"Coesfeld, Stadt","type":"Stadt"},"district":{"key":"05558","name":"Coesfeld","type":"Kreis"},"federalState":{"key":"05","name":"Nordrhein-Westfalen"}},{"name":"Rostocker Str.","postalCode":"48653","locality":"Coesfeld","municipality":{"key":"05558012","name":"Coesfeld, Stadt","type":"Stadt"},"district":{"key":"05558","name":"Coesfeld","type":"Kreis"},"federalState":{"key":"05","name":"Nordrhein-Westfalen"}},{"name":"Rotdornweg","postalCode":"48653","locality":"Coesfeld","municipality":{"key":"05558012","name":"Coesfeld, Stadt","type":"Stadt"},"district":{"key":"05558","name":"Coesfeld","type":"Kreis"},"federalState":{"key":"05","name":"Nordrhein-Westfalen"}},{"name":"Rottkamp","postalCode":"48653","locality":"Coesfeld","municipality":{"key":"05558012","name":"Coesfeld, Stadt","type":"Stadt"},"district":{"key":"05558","name":"Coesfeld","type":"Kreis"},"federalState":{"key":"05","name":"Nordrhein-Westfalen"}},{"name":"Rulandweg","postalCode":"48653","locality":"Coesfeld","municipality":{"key":"05558012","name":"Coesfeld, Stadt","type":"Stadt"},"district":{"key":"05558","name":"Coesfeld","type":"Kreis"},"federalState":{"key":"05","name":"Nordrhein-Westfalen"}},{"name":"Sandgrube","postalCode":"48653","locality":"Coesfeld","municipality":{"key":"05558012","name":"Coesfeld, Stadt","type":"Stadt"},"district":{"key":"05558","name":"Coesfeld","type":"Kreis"},"federalState":{"key":"05","name":"Nordrhein-Westfalen"}},{"name":"Schlesienstr.","postalCode":"48653","locality":"Coesfeld","municipality":{"key":"05558012","name":"Coesfeld, Stadt","type":"Stadt"},"district":{"key":"05558","name":"Coesfeld","type":"Kreis"},"federalState":{"key":"05","name":"Nordrhein-Westfalen"}},{"name":"Schlosspark","postalCode":"48653","locality":"Coesfeld","municipality":{"key":"05558012","name":"Coesfeld, Stadt","type":"Stadt"},"district":{"key":"05558","name":"Coesfeld","type":"Kreis"},"federalState":{"key":"05","name":"Nordrhein-Westfalen"}},{"name":"Schorlemerstr.","postalCode":"48653","locality":"Coesfeld","municipality":{"key":"05558012","name":"Coesfeld, Stadt","type":"Stadt"},"district":{"key":"05558","name":"Coesfeld","type":"Kreis"},"federalState":{"key":"05","name":"Nordrhein-Westfalen"}},{"name":"Schützenring","postalCode":"48653","locality":"Coesfeld","municipality":{"key":"05558012","name":"Coesfeld, Stadt","type":"Stadt"},"district":{"key":"05558","name":"Coesfeld","type":"Kreis"},"federalState":{"key":"05","name":"Nordrhein-Westfalen"}},{"name":"Schützenwall","postalCode":"48653","locality":"Coesfeld","municipality":{"key":"05558012","name":"Coesfeld, Stadt","type":"Stadt"},"district":{"key":"05558","name":"Coesfeld","type":"Kreis"},"federalState":{"key":"05","name":"Nordrhein-Westfalen"}},{"name":"Schwanekamp","postalCode":"48653","locality":"Coesfeld","municipality":{"key":"05558012","name":"Coesfeld, Stadt","type":"Stadt"},"district":{"key":"05558","name":"Coesfeld","type":"Kreis"},"federalState":{"key":"05","name":"Nordrhein-Westfalen"}},{"name":"Seminarstr.","postalCode":"48653","locality":"Coesfeld","municipality":{"key":"05558012","name":"Coesfeld, Stadt","type":"Stadt"},"district":{"key":"05558","name":"Coesfeld","type":"Kreis"},"federalState":{"key":"05","name":"Nordrhein-Westfalen"}},{"name":"Sirksfeld","postalCode":"48653","locality":"Coesfeld","municipality":{"key":"05558012","name":"Coesfeld, Stadt","type":"Stadt"},"district":{"key":"05558","name":"Coesfeld","type":"Kreis"},"federalState":{"key":"05","name":"Nordrhein-Westfalen"}},{"name":"Sitterstiege","postalCode":"48653","locality":"Coesfeld","municipality":{"key":"05558012","name":"Coesfeld, Stadt","type":"Stadt"},"district":{"key":"05558","name":"Coesfeld","type":"Kreis"},"federalState":{"key":"05","name":"Nordrhein-Westfalen"}},{"name":"Sökelandstr.","postalCode":"48653","locality":"Coesfeld","municipality":{"key":"05558012","name":"Coesfeld, Stadt","type":"Stadt"},"district":{"key":"05558","name":"Coesfeld","type":"Kreis"},"federalState":{"key":"05","name":"Nordrhein-Westfalen"}},{"name":"Sommerkamp","postalCode":"48653","locality":"Coesfeld","municipality":{"key":"05558012","name":"Coesfeld, Stadt","type":"Stadt"},"district":{"key":"05558","name":"Coesfeld","type":"Kreis"},"federalState":{"key":"05","name":"Nordrhein-Westfalen"}},{"name":"Sophie-Scholl-Weg","postalCode":"48653","locality":"Coesfeld","municipality":{"key":"05558012","name":"Coesfeld, Stadt","type":"Stadt"},"district":{"key":"05558","name":"Coesfeld","type":"Kreis"},"federalState":{"key":"05","name":"Nordrhein-Westfalen"}},{"name":"Stadtbusch","postalCode":"48653","locality":"Coesfeld","municipality":{"key":"05558012","name":"Coesfeld, Stadt","type":"Stadt"},"district":{"key":"05558","name":"Coesfeld","type":"Kreis"},"federalState":{"key":"05","name":"Nordrhein-Westfalen"}},{"name":"Stadthagen","postalCode":"48653","locality":"Coesfeld","municipality":{"key":"05558012","name":"Coesfeld, Stadt","type":"Stadt"},"district":{"key":"05558","name":"Coesfeld","type":"Kreis"},"federalState":{"key":"05","name":"Nordrhein-Westfalen"}},{"name":"Stadtpark","postalCode":"48653","locality":"Coesfeld","municipality":{"key":"05558012","name":"Coesfeld, Stadt","type":"Stadt"},"district":{"key":"05558","name":"Coesfeld","type":"Kreis"},"federalState":{"key":"05","name":"Nordrhein-Westfalen"}},{"name":"Stadtwaldallee","postalCode":"48653","locality":"Coesfeld","municipality":{"key":"05558012","name":"Coesfeld, Stadt","type":"Stadt"},"district":{"key":"05558","name":"Coesfeld","type":"Kreis"},"federalState":{"key":"05","name":"Nordrhein-Westfalen"}},{"name":"Steillweg","postalCode":"48653","locality":"Coesfeld","municipality":{"key":"05558012","name":"Coesfeld, Stadt","type":"Stadt"},"district":{"key":"05558","name":"Coesfeld","type":"Kreis"},"federalState":{"key":"05","name":"Nordrhein-Westfalen"}},{"name":"Steinbickerstr.","postalCode":"48653","locality":"Coesfeld","municipality":{"key":"05558012","name":"Coesfeld, Stadt","type":"Stadt"},"district":{"key":"05558","name":"Coesfeld","type":"Kreis"},"federalState":{"key":"05","name":"Nordrhein-Westfalen"}},{"name":"Stevede","postalCode":"48653","locality":"Coesfeld","municipality":{"key":"05558012","name":"Coesfeld, Stadt","type":"Stadt"},"district":{"key":"05558","name":"Coesfeld","type":"Kreis"},"federalState":{"key":"05","name":"Nordrhein-Westfalen"}},{"name":"Steveder Weg","postalCode":"48653","locality":"Coesfeld","municipality":{"key":"05558012","name":"Coesfeld, Stadt","type":"Stadt"},"district":{"key":"05558","name":"Coesfeld","type":"Kreis"},"federalState":{"key":"05","name":"Nordrhein-Westfalen"}},{"name":"Stockum","postalCode":"48653","locality":"Coesfeld","municipality":{"key":"05558012","name":"Coesfeld, Stadt","type":"Stadt"},"district":{"key":"05558","name":"Coesfeld","type":"Kreis"},"federalState":{"key":"05","name":"Nordrhein-Westfalen"}},{"name":"Stripperhook","postalCode":"48653","locality":"Coesfeld","municipality":{"key":"05558012","name":"Coesfeld, Stadt","type":"Stadt"},"district":{"key":"05558","name":"Coesfeld","type":"Kreis"},"federalState":{"key":"05","name":"Nordrhein-Westfalen"}},{"name":"Strobandtstr.","postalCode":"48653","locality":"Coesfeld","municipality":{"key":"05558012","name":"Coesfeld, Stadt","type":"Stadt"},"district":{"key":"05558","name":"Coesfeld","type":"Kreis"},"federalState":{"key":"05","name":"Nordrhein-Westfalen"}},{"name":"Südring","postalCode":"48653","locality":"Coesfeld","municipality":{"key":"05558012","name":"Coesfeld, Stadt","type":"Stadt"},"district":{"key":"05558","name":"Coesfeld","type":"Kreis"},"federalState":{"key":"05","name":"Nordrhein-Westfalen"}},{"name":"Südwall","postalCode":"48653","locality":"Coesfeld","municipality":{"key":"05558012","name":"Coesfeld, Stadt","type":"Stadt"},"district":{"key":"05558","name":"Coesfeld","type":"Kreis"},"federalState":{"key":"05","name":"Nordrhein-Westfalen"}},{"name":"Sülwerklinke","postalCode":"48653","locality":"Coesfeld","municipality":{"key":"05558012","name":"Coesfeld, Stadt","type":"Stadt"},"district":{"key":"05558","name":"Coesfeld","type":"Kreis"},"federalState":{"key":"05","name":"Nordrhein-Westfalen"}},{"name":"Süringstr.","postalCode":"48653","locality":"Coesfeld","municipality":{"key":"05558012","name":"Coesfeld, Stadt","type":"Stadt"},"district":{"key":"05558","name":"Coesfeld","type":"Kreis"},"federalState":{"key":"05","name":"Nordrhein-Westfalen"}},{"name":"Teichweg","postalCode":"48653","locality":"Coesfeld","municipality":{"key":"05558012","name":"Coesfeld, Stadt","type":"Stadt"},"district":{"key":"05558","name":"Coesfeld","type":"Kreis"},"federalState":{"key":"05","name":"Nordrhein-Westfalen"}},{"name":"Thors Hagen","postalCode":"48653","locality":"Coesfeld","municipality":{"key":"05558012","name":"Coesfeld, Stadt","type":"Stadt"},"district":{"key":"05558","name":"Coesfeld","type":"Kreis"},"federalState":{"key":"05","name":"Nordrhein-Westfalen"}},{"name":"Timmerweg","postalCode":"48653","locality":"Coesfeld","municipality":{"key":"05558012","name":"Coesfeld, Stadt","type":"Stadt"},"district":{"key":"05558","name":"Coesfeld","type":"Kreis"},"federalState":{"key":"05","name":"Nordrhein-Westfalen"}},{"name":"Timphorst","postalCode":"48653","locality":"Coesfeld","municipality":{"key":"05558012","name":"Coesfeld, Stadt","type":"Stadt"},"district":{"key":"05558","name":"Coesfeld","type":"Kreis"},"federalState":{"key":"05","name":"Nordrhein-Westfalen"}},{"name":"Tungerloh-Capellen","postalCode":"48653","locality":"Coesfeld","municipality":{"key":"05558012","name":"Coesfeld, Stadt","type":"Stadt"},"district":{"key":"05558","name":"Coesfeld","type":"Kreis"},"federalState":{"key":"05","name":"Nordrhein-Westfalen"}},{"name":"Tütenkuhlenweg","postalCode":"48653","locality":"Coesfeld","municipality":{"key":"05558012","name":"Coesfeld, Stadt","type":"Stadt"},"district":{"key":"05558","name":"Coesfeld","type":"Kreis"},"federalState":{"key":"05","name":"Nordrhein-Westfalen"}},{"name":"Ulmenweg","postalCode":"48653","locality":"Coesfeld","municipality":{"key":"05558012","name":"Coesfeld, Stadt","type":"Stadt"},"district":{"key":"05558","name":"Coesfeld","type":"Kreis"},"federalState":{"key":"05","name":"Nordrhein-Westfalen"}},{"name":"Van-Delden-Str.","postalCode":"48653","locality":"Coesfeld","municipality":{"key":"05558012","name":"Coesfeld, Stadt","type":"Stadt"},"district":{"key":"05558","name":"Coesfeld","type":"Kreis"},"federalState":{"key":"05","name":"Nordrhein-Westfalen"}},{"name":"Veltmannweg","postalCode":"48653","locality":"Coesfeld","municipality":{"key":"05558012","name":"Coesfeld, Stadt","type":"Stadt"},"district":{"key":"05558","name":"Coesfeld","type":"Kreis"},"federalState":{"key":"05","name":"Nordrhein-Westfalen"}},{"name":"Vikarien-Diek","postalCode":"48653","locality":"Coesfeld","municipality":{"key":"05558012","name":"Coesfeld, Stadt","type":"Stadt"},"district":{"key":"05558","name":"Coesfeld","type":"Kreis"},"federalState":{"key":"05","name":"Nordrhein-Westfalen"}},{"name":"Vogelkamp","postalCode":"48653","locality":"Coesfeld","municipality":{"key":"05558012","name":"Coesfeld, Stadt","type":"Stadt"},"district":{"key":"05558","name":"Coesfeld","type":"Kreis"},"federalState":{"key":"05","name":"Nordrhein-Westfalen"}},{"name":"Vogelsang","postalCode":"48653","locality":"Coesfeld","municipality":{"key":"05558012","name":"Coesfeld, Stadt","type":"Stadt"},"district":{"key":"05558","name":"Coesfeld","type":"Kreis"},"federalState":{"key":"05","name":"Nordrhein-Westfalen"}},{"name":"Vogelsberg","postalCode":"48653","locality":"Coesfeld","municipality":{"key":"05558012","name":"Coesfeld, Stadt","type":"Stadt"},"district":{"key":"05558","name":"Coesfeld","type":"Kreis"},"federalState":{"key":"05","name":"Nordrhein-Westfalen"}},{"name":"Völkers Röttchen","postalCode":"48653","locality":"Coesfeld","municipality":{"key":"05558012","name":"Coesfeld, Stadt","type":"Stadt"},"district":{"key":"05558","name":"Coesfeld","type":"Kreis"},"federalState":{"key":"05","name":"Nordrhein-Westfalen"}},{"name":"Wagenfeldweg","postalCode":"48653","locality":"Coesfeld","municipality":{"key":"05558012","name":"Coesfeld, Stadt","type":"Stadt"},"district":{"key":"05558","name":"Coesfeld","type":"Kreis"},"federalState":{"key":"05","name":"Nordrhein-Westfalen"}},{"name":"Wahrkamp","postalCode":"48653","locality":"Coesfeld","municipality":{"key":"05558012","name":"Coesfeld, Stadt","type":"Stadt"},"district":{"key":"05558","name":"Coesfeld","type":"Kreis"},"federalState":{"key":"05","name":"Nordrhein-Westfalen"}},{"name":"Waldstr.","postalCode":"48653","locality":"Coesfeld","municipality":{"key":"05558012","name":"Coesfeld, Stadt","type":"Stadt"},"district":{"key":"05558","name":"Coesfeld","type":"Kreis"},"federalState":{"key":"05","name":"Nordrhein-Westfalen"}},{"name":"Walkenbrückenstr.","postalCode":"48653","locality":"Coesfeld","municipality":{"key":"05558012","name":"Coesfeld, Stadt","type":"Stadt"},"district":{"key":"05558","name":"Coesfeld","type":"Kreis"},"federalState":{"key":"05","name":"Nordrhein-Westfalen"}},{"name":"Waterfohr","postalCode":"48653","locality":"Coesfeld","municipality":{"key":"05558012","name":"Coesfeld, Stadt","type":"Stadt"},"district":{"key":"05558","name":"Coesfeld","type":"Kreis"},"federalState":{"key":"05","name":"Nordrhein-Westfalen"}},{"name":"Weberstr.","postalCode":"48653","locality":"Coesfeld","municipality":{"key":"05558012","name":"Coesfeld, Stadt","type":"Stadt"},"district":{"key":"05558","name":"Coesfeld","type":"Kreis"},"federalState":{"key":"05","name":"Nordrhein-Westfalen"}},{"name":"Wenneberg","postalCode":"48653","locality":"Coesfeld","municipality":{"key":"05558012","name":"Coesfeld, Stadt","type":"Stadt"},"district":{"key":"05558","name":"Coesfeld","type":"Kreis"},"federalState":{"key":"05","name":"Nordrhein-Westfalen"}},{"name":"Wertchenstr.","postalCode":"48653","locality":"Coesfeld","municipality":{"key":"05558012","name":"Coesfeld, Stadt","type":"Stadt"},"district":{"key":"05558","name":"Coesfeld","type":"Kreis"},"federalState":{"key":"05","name":"Nordrhein-Westfalen"}},{"name":"Wesselingstr.","postalCode":"48653","locality":"Coesfeld","municipality":{"key":"05558012","name":"Coesfeld, Stadt","type":"Stadt"},"district":{"key":"05558","name":"Coesfeld","type":"Kreis"},"federalState":{"key":"05","name":"Nordrhein-Westfalen"}},{"name":"Weßlings Kamp","postalCode":"48653","locality":"Coesfeld","municipality":{"key":"05558012","name":"Coesfeld, Stadt","type":"Stadt"},"district":{"key":"05558","name":"Coesfeld","type":"Kreis"},"federalState":{"key":"05","name":"Nordrhein-Westfalen"}},{"name":"Wester Esch","postalCode":"48653","locality":"Coesfeld","municipality":{"key":"05558012","name":"Coesfeld, Stadt","type":"Stadt"},"district":{"key":"05558","name":"Coesfeld","type":"Kreis"},"federalState":{"key":"05","name":"Nordrhein-Westfalen"}},{"name":"Wetmarstr.","postalCode":"48653","locality":"Coesfeld","municipality":{"key":"05558012","name":"Coesfeld, Stadt","type":"Stadt"},"district":{"key":"05558","name":"Coesfeld","type":"Kreis"},"federalState":{"key":"05","name":"Nordrhein-Westfalen"}},{"name":"Wibbeltweg","postalCode":"48653","locality":"Coesfeld","municipality":{"key":"05558012","name":"Coesfeld, Stadt","type":"Stadt"},"district":{"key":"05558","name":"Coesfeld","type":"Kreis"},"federalState":{"key":"05","name":"Nordrhein-Westfalen"}},{"name":"Wiedauer Weg","postalCode":"48653","locality":"Coesfeld","municipality":{"key":"05558012","name":"Coesfeld, Stadt","type":"Stadt"},"district":{"key":"05558","name":"Coesfeld","type":"Kreis"},"federalState":{"key":"05","name":"Nordrhein-Westfalen"}},{"name":"Wienhörsterbach","postalCode":"48653","locality":"Coesfeld","municipality":{"key":"05558012","name":"Coesfeld, Stadt","type":"Stadt"},"district":{"key":"05558","name":"Coesfeld","type":"Kreis"},"federalState":{"key":"05","name":"Nordrhein-Westfalen"}},{"name":"Wiesenstr.","postalCode":"48653","locality":"Coesfeld","municipality":{"key":"05558012","name":"Coesfeld, Stadt","type":"Stadt"},"district":{"key":"05558","name":"Coesfeld","type":"Kreis"},"federalState":{"key":"05","name":"Nordrhein-Westfalen"}},{"name":"Wietbusch","postalCode":"48653","locality":"Coesfeld","municipality":{"key":"05558012","name":"Coesfeld, Stadt","type":"Stadt"},"district":{"key":"05558","name":"Coesfeld","type":"Kreis"},"federalState":{"key":"05","name":"Nordrhein-Westfalen"}},{"name":"Wildbahn","postalCode":"48653","locality":"Coesfeld","municipality":{"key":"05558012","name":"Coesfeld, Stadt","type":"Stadt"},"district":{"key":"05558","name":"Coesfeld","type":"Kreis"},"federalState":{"key":"05","name":"Nordrhein-Westfalen"}},{"name":"Wilhelmstr.","postalCode":"48653","locality":"Coesfeld","municipality":{"key":"05558012","name":"Coesfeld, Stadt","type":"Stadt"},"district":{"key":"05558","name":"Coesfeld","type":"Kreis"},"federalState":{"key":"05","name":"Nordrhein-Westfalen"}},{"name":"Winkelstr.","postalCode":"48653","locality":"Coesfeld","municipality":{"key":"05558012","name":"Coesfeld, Stadt","type":"Stadt"},"district":{"key":"05558","name":"Coesfeld","type":"Kreis"},"federalState":{"key":"05","name":"Nordrhein-Westfalen"}},{"name":"Wittenfeld","postalCode":"48653","locality":"Coesfeld","municipality":{"key":"05558012","name":"Coesfeld, Stadt","type":"Stadt"},"district":{"key":"05558","name":"Coesfeld","type":"Kreis"},"federalState":{"key":"05","name":"Nordrhein-Westfalen"}},{"name":"Witte Sand","postalCode":"48653","locality":"Coesfeld","municipality":{"key":"05558012","name":"Coesfeld, Stadt","type":"Stadt"},"district":{"key":"05558","name":"Coesfeld","type":"Kreis"},"federalState":{"key":"05","name":"Nordrhein-Westfalen"}},{"name":"Wulferhook","postalCode":"48653","locality":"Coesfeld","municipality":{"key":"05558012","name":"Coesfeld, Stadt","type":"Stadt"},"district":{"key":"05558","name":"Coesfeld","type":"Kreis"},"federalState":{"key":"05","name":"Nordrhein-Westfalen"}},{"name":"Wulferhooksweg","postalCode":"48653","locality":"Coesfeld","municipality":{"key":"05558012","name":"Coesfeld, Stadt","type":"Stadt"},"district":{"key":"05558","name":"Coesfeld","type":"Kreis"},"federalState":{"key":"05","name":"Nordrhein-Westfalen"}},{"name":"Zapfeweg","postalCode":"48653","locality":"Coesfeld","municipality":{"key":"05558012","name":"Coesfeld, Stadt","type":"Stadt"},"district":{"key":"05558","name":"Coesfeld","type":"Kreis"},"federalState":{"key":"05","name":"Nordrhein-Westfalen"}},{"name":"Zum Bülten","postalCode":"48653","locality":"Coesfeld","municipality":{"key":"05558012","name":"Coesfeld, Stadt","type":"Stadt"},"district":{"key":"05558","name":"Coesfeld","type":"Kreis"},"federalState":{"key":"05","name":"Nordrhein-Westfalen"}},{"name":"Zur Alten Weberei","postalCode":"48653","locality":"Coesfeld","municipality":{"key":"05558012","name":"Coesfeld, Stadt","type":"Stadt"},"district":{"key":"05558","name":"Coesfeld","type":"Kreis"},"federalState":{"key":"05","name":"Nordrhein-Westfalen"}},{"name":"Zur Gräfte","postalCode":"48653","locality":"Coesfeld","municipality":{"key":"05558012","name":"Coesfeld, Stadt","type":"Stadt"},"district":{"key":"05558","name":"Coesfeld","type":"Kreis"},"federalState":{"key":"05","name":"Nordrhein-Westfalen"}},{"name":"Zur Hasenkapelle","postalCode":"48653","locality":"Coesfeld","municipality":{"key":"05558012","name":"Coesfeld, Stadt","type":"Stadt"},"district":{"key":"05558","name":"Coesfeld","type":"Kreis"},"federalState":{"key":"05","name":"Nordrhein-Westfalen"}},{"name":"Zur Höhe","postalCode":"48653","locality":"Coesfeld","municipality":{"key":"05558012","name":"Coesfeld, Stadt","type":"Stadt"},"district":{"key":"05558","name":"Coesfeld","type":"Kreis"},"federalState":{"key":"05","name":"Nordrhein-Westfalen"}},{"name":"Zur Schanze","postalCode":"48653","locality":"Coesfeld","municipality":{"key":"05558012","name":"Coesfeld, Stadt","type":"Stadt"},"district":{"key":"05558","name":"Coesfeld","type":"Kreis"},"federalState":{"key":"05","name":"Nordrhein-Westfalen"}},{"name":"Zur Stegge","postalCode":"48653","locality":"Coesfeld","municipality":{"key":"05558012","name":"Coesfeld, Stadt","type":"Stadt"},"district":{"key":"05558","name":"Coesfeld","type":"Kreis"},"federalState":{"key":"05","name":"Nordrhein-Westfalen"}},{"name":"Zur Windmühle","postalCode":"48653","locality":"Coesfeld","municipality":{"key":"05558012","name":"Coesfeld, Stadt","type":"Stadt"},"district":{"key":"05558","name":"Coesfeld","type":"Kreis"},"federalState":{"key":"05","name":"Nordrhein-Westfalen"}},{"name":"Zu Thiemanns Kuhle","postalCode":"48653","locality":"Coesfeld","municipality":{"key":"05558012","name":"Coesfeld, Stadt","type":"Stadt"},"district":{"key":"05558","name":"Coesfeld","type":"Kreis"},"federalState":{"key":"05","name":"Nordrhein-Westfalen"}},]