[{"name":"Bundesstr.","postalCode":"56477","locality":"Zehnhausen bei Rennerod","municipality":{"key":"07143315","name":"Zehnhausen bei Rennerod","type":"Kreisangehörige_Gemeinde"},"district":{"key":"07143","name":"Westerwaldkreis","type":"Landkreis"},"federalState":{"key":"07","name":"Rheinland-Pfalz"}},{"name":"Gartenweg","postalCode":"56477","locality":"Zehnhausen bei Rennerod","municipality":{"key":"07143315","name":"Zehnhausen bei Rennerod","type":"Kreisangehörige_Gemeinde"},"district":{"key":"07143","name":"Westerwaldkreis","type":"Landkreis"},"federalState":{"key":"07","name":"Rheinland-Pfalz"}},{"name":"Hauptstr.","postalCode":"56477","locality":"Zehnhausen bei Rennerod","municipality":{"key":"07143315","name":"Zehnhausen bei Rennerod","type":"Kreisangehörige_Gemeinde"},"district":{"key":"07143","name":"Westerwaldkreis","type":"Landkreis"},"federalState":{"key":"07","name":"Rheinland-Pfalz"}},{"name":"Hochstr.","postalCode":"56477","locality":"Zehnhausen bei Rennerod","municipality":{"key":"07143315","name":"Zehnhausen bei Rennerod","type":"Kreisangehörige_Gemeinde"},"district":{"key":"07143","name":"Westerwaldkreis","type":"Landkreis"},"federalState":{"key":"07","name":"Rheinland-Pfalz"}},{"name":"Im Neuen Garten","postalCode":"56477","locality":"Zehnhausen bei Rennerod","municipality":{"key":"07143315","name":"Zehnhausen bei Rennerod","type":"Kreisangehörige_Gemeinde"},"district":{"key":"07143","name":"Westerwaldkreis","type":"Landkreis"},"federalState":{"key":"07","name":"Rheinland-Pfalz"}},{"name":"Ringstr.","postalCode":"56477","locality":"Zehnhausen bei Rennerod","municipality":{"key":"07143315","name":"Zehnhausen bei Rennerod","type":"Kreisangehörige_Gemeinde"},"district":{"key":"07143","name":"Westerwaldkreis","type":"Landkreis"},"federalState":{"key":"07","name":"Rheinland-Pfalz"}},{"name":"Schulstr.","postalCode":"56477","locality":"Zehnhausen bei Rennerod","municipality":{"key":"07143315","name":"Zehnhausen bei Rennerod","type":"Kreisangehörige_Gemeinde"},"district":{"key":"07143","name":"Westerwaldkreis","type":"Landkreis"},"federalState":{"key":"07","name":"Rheinland-Pfalz"}},{"name":"Tannenweg","postalCode":"56477","locality":"Zehnhausen bei Rennerod","municipality":{"key":"07143315","name":"Zehnhausen bei Rennerod","type":"Kreisangehörige_Gemeinde"},"district":{"key":"07143","name":"Westerwaldkreis","type":"Landkreis"},"federalState":{"key":"07","name":"Rheinland-Pfalz"}},{"name":"Vor dem Berg","postalCode":"56477","locality":"Zehnhausen bei Rennerod","municipality":{"key":"07143315","name":"Zehnhausen bei Rennerod","type":"Kreisangehörige_Gemeinde"},"district":{"key":"07143","name":"Westerwaldkreis","type":"Landkreis"},"federalState":{"key":"07","name":"Rheinland-Pfalz"}},{"name":"Vor dem Schorn","postalCode":"56477","locality":"Zehnhausen bei Rennerod","municipality":{"key":"07143315","name":"Zehnhausen bei Rennerod","type":"Kreisangehörige_Gemeinde"},"district":{"key":"07143","name":"Westerwaldkreis","type":"Landkreis"},"federalState":{"key":"07","name":"Rheinland-Pfalz"}},{"name":"Westend","postalCode":"56477","locality":"Zehnhausen bei Rennerod","municipality":{"key":"07143315","name":"Zehnhausen bei Rennerod","type":"Kreisangehörige_Gemeinde"},"district":{"key":"07143","name":"Westerwaldkreis","type":"Landkreis"},"federalState":{"key":"07","name":"Rheinland-Pfalz"}},{"name":"Wiesenstr.","postalCode":"56477","locality":"Zehnhausen bei Rennerod","municipality":{"key":"07143315","name":"Zehnhausen bei Rennerod","type":"Kreisangehörige_Gemeinde"},"district":{"key":"07143","name":"Westerwaldkreis","type":"Landkreis"},"federalState":{"key":"07","name":"Rheinland-Pfalz"}},]