[{"name":"Agathaweg","postalCode":"57489","locality":"Drolshagen","municipality":{"key":"05966008","name":"Drolshagen, Stadt","type":"Stadt"},"district":{"key":"05966","name":"Olpe","type":"Kreis"},"federalState":{"key":"05","name":"Nordrhein-Westfalen"}},{"name":"Ahornweg","postalCode":"57489","locality":"Drolshagen","municipality":{"key":"05966008","name":"Drolshagen, Stadt","type":"Stadt"},"district":{"key":"05966","name":"Olpe","type":"Kreis"},"federalState":{"key":"05","name":"Nordrhein-Westfalen"}},{"name":"Alleenradweg Aggertalbahn","postalCode":"57489","locality":"Drolshagen","municipality":{"key":"05966008","name":"Drolshagen, Stadt","type":"Stadt"},"district":{"key":"05966","name":"Olpe","type":"Kreis"},"federalState":{"key":"05","name":"Nordrhein-Westfalen"}},{"name":"Aloisiusweg","postalCode":"57489","locality":"Drolshagen","municipality":{"key":"05966008","name":"Drolshagen, Stadt","type":"Stadt"},"district":{"key":"05966","name":"Olpe","type":"Kreis"},"federalState":{"key":"05","name":"Nordrhein-Westfalen"}},{"name":"Alperscheider Weg","postalCode":"57489","locality":"Drolshagen","municipality":{"key":"05966008","name":"Drolshagen, Stadt","type":"Stadt"},"district":{"key":"05966","name":"Olpe","type":"Kreis"},"federalState":{"key":"05","name":"Nordrhein-Westfalen"}},{"name":"Alte Dorfstr.","postalCode":"57489","locality":"Drolshagen","municipality":{"key":"05966008","name":"Drolshagen, Stadt","type":"Stadt"},"district":{"key":"05966","name":"Olpe","type":"Kreis"},"federalState":{"key":"05","name":"Nordrhein-Westfalen"}},{"name":"Alte Landstr.","postalCode":"57489","locality":"Drolshagen","municipality":{"key":"05966008","name":"Drolshagen, Stadt","type":"Stadt"},"district":{"key":"05966","name":"Olpe","type":"Kreis"},"federalState":{"key":"05","name":"Nordrhein-Westfalen"}},{"name":"Am Apfelhof","postalCode":"57489","locality":"Drolshagen","municipality":{"key":"05966008","name":"Drolshagen, Stadt","type":"Stadt"},"district":{"key":"05966","name":"Olpe","type":"Kreis"},"federalState":{"key":"05","name":"Nordrhein-Westfalen"}},{"name":"Am Bahnhof","postalCode":"57489","locality":"Drolshagen","municipality":{"key":"05966008","name":"Drolshagen, Stadt","type":"Stadt"},"district":{"key":"05966","name":"Olpe","type":"Kreis"},"federalState":{"key":"05","name":"Nordrhein-Westfalen"}},{"name":"Am Bauckhahn","postalCode":"57489","locality":"Drolshagen","municipality":{"key":"05966008","name":"Drolshagen, Stadt","type":"Stadt"},"district":{"key":"05966","name":"Olpe","type":"Kreis"},"federalState":{"key":"05","name":"Nordrhein-Westfalen"}},{"name":"Am Bogen","postalCode":"57489","locality":"Drolshagen","municipality":{"key":"05966008","name":"Drolshagen, Stadt","type":"Stadt"},"district":{"key":"05966","name":"Olpe","type":"Kreis"},"federalState":{"key":"05","name":"Nordrhein-Westfalen"}},{"name":"Am Bremerhof","postalCode":"57489","locality":"Drolshagen","municipality":{"key":"05966008","name":"Drolshagen, Stadt","type":"Stadt"},"district":{"key":"05966","name":"Olpe","type":"Kreis"},"federalState":{"key":"05","name":"Nordrhein-Westfalen"}},{"name":"Am Bubengarten","postalCode":"57489","locality":"Drolshagen","municipality":{"key":"05966008","name":"Drolshagen, Stadt","type":"Stadt"},"district":{"key":"05966","name":"Olpe","type":"Kreis"},"federalState":{"key":"05","name":"Nordrhein-Westfalen"}},{"name":"Am Buscheid","postalCode":"57489","locality":"Drolshagen","municipality":{"key":"05966008","name":"Drolshagen, Stadt","type":"Stadt"},"district":{"key":"05966","name":"Olpe","type":"Kreis"},"federalState":{"key":"05","name":"Nordrhein-Westfalen"}},{"name":"Am Dorfe","postalCode":"57489","locality":"Drolshagen","municipality":{"key":"05966008","name":"Drolshagen, Stadt","type":"Stadt"},"district":{"key":"05966","name":"Olpe","type":"Kreis"},"federalState":{"key":"05","name":"Nordrhein-Westfalen"}},{"name":"Am Eckerberg","postalCode":"57489","locality":"Drolshagen","municipality":{"key":"05966008","name":"Drolshagen, Stadt","type":"Stadt"},"district":{"key":"05966","name":"Olpe","type":"Kreis"},"federalState":{"key":"05","name":"Nordrhein-Westfalen"}},{"name":"Am Eichenbaum","postalCode":"57489","locality":"Drolshagen","municipality":{"key":"05966008","name":"Drolshagen, Stadt","type":"Stadt"},"district":{"key":"05966","name":"Olpe","type":"Kreis"},"federalState":{"key":"05","name":"Nordrhein-Westfalen"}},{"name":"Am Eickenhahn","postalCode":"57489","locality":"Drolshagen","municipality":{"key":"05966008","name":"Drolshagen, Stadt","type":"Stadt"},"district":{"key":"05966","name":"Olpe","type":"Kreis"},"federalState":{"key":"05","name":"Nordrhein-Westfalen"}},{"name":"Am Flachsberg","postalCode":"57489","locality":"Drolshagen","municipality":{"key":"05966008","name":"Drolshagen, Stadt","type":"Stadt"},"district":{"key":"05966","name":"Olpe","type":"Kreis"},"federalState":{"key":"05","name":"Nordrhein-Westfalen"}},{"name":"Am Frohnen Wenden","postalCode":"57489","locality":"Drolshagen","municipality":{"key":"05966008","name":"Drolshagen, Stadt","type":"Stadt"},"district":{"key":"05966","name":"Olpe","type":"Kreis"},"federalState":{"key":"05","name":"Nordrhein-Westfalen"}},{"name":"Am Garten","postalCode":"57489","locality":"Drolshagen","municipality":{"key":"05966008","name":"Drolshagen, Stadt","type":"Stadt"},"district":{"key":"05966","name":"Olpe","type":"Kreis"},"federalState":{"key":"05","name":"Nordrhein-Westfalen"}},{"name":"Am Gielenstein","postalCode":"57489","locality":"Drolshagen","municipality":{"key":"05966008","name":"Drolshagen, Stadt","type":"Stadt"},"district":{"key":"05966","name":"Olpe","type":"Kreis"},"federalState":{"key":"05","name":"Nordrhein-Westfalen"}},{"name":"Am Hain","postalCode":"57489","locality":"Drolshagen","municipality":{"key":"05966008","name":"Drolshagen, Stadt","type":"Stadt"},"district":{"key":"05966","name":"Olpe","type":"Kreis"},"federalState":{"key":"05","name":"Nordrhein-Westfalen"}},{"name":"Am Hang","postalCode":"57489","locality":"Drolshagen","municipality":{"key":"05966008","name":"Drolshagen, Stadt","type":"Stadt"},"district":{"key":"05966","name":"Olpe","type":"Kreis"},"federalState":{"key":"05","name":"Nordrhein-Westfalen"}},{"name":"Am Hebberg","postalCode":"57489","locality":"Drolshagen","municipality":{"key":"05966008","name":"Drolshagen, Stadt","type":"Stadt"},"district":{"key":"05966","name":"Olpe","type":"Kreis"},"federalState":{"key":"05","name":"Nordrhein-Westfalen"}},{"name":"Am Heile","postalCode":"57489","locality":"Drolshagen","municipality":{"key":"05966008","name":"Drolshagen, Stadt","type":"Stadt"},"district":{"key":"05966","name":"Olpe","type":"Kreis"},"federalState":{"key":"05","name":"Nordrhein-Westfalen"}},{"name":"Am Heliken","postalCode":"57489","locality":"Drolshagen","municipality":{"key":"05966008","name":"Drolshagen, Stadt","type":"Stadt"},"district":{"key":"05966","name":"Olpe","type":"Kreis"},"federalState":{"key":"05","name":"Nordrhein-Westfalen"}},{"name":"Am Hepper","postalCode":"57489","locality":"Drolshagen","municipality":{"key":"05966008","name":"Drolshagen, Stadt","type":"Stadt"},"district":{"key":"05966","name":"Olpe","type":"Kreis"},"federalState":{"key":"05","name":"Nordrhein-Westfalen"}},{"name":"Am Herpelbach","postalCode":"57489","locality":"Drolshagen","municipality":{"key":"05966008","name":"Drolshagen, Stadt","type":"Stadt"},"district":{"key":"05966","name":"Olpe","type":"Kreis"},"federalState":{"key":"05","name":"Nordrhein-Westfalen"}},{"name":"Am Hofgarten","postalCode":"57489","locality":"Drolshagen","municipality":{"key":"05966008","name":"Drolshagen, Stadt","type":"Stadt"},"district":{"key":"05966","name":"Olpe","type":"Kreis"},"federalState":{"key":"05","name":"Nordrhein-Westfalen"}},{"name":"Am Höhwege","postalCode":"57489","locality":"Drolshagen","municipality":{"key":"05966008","name":"Drolshagen, Stadt","type":"Stadt"},"district":{"key":"05966","name":"Olpe","type":"Kreis"},"federalState":{"key":"05","name":"Nordrhein-Westfalen"}},{"name":"Am Hovestadt","postalCode":"57489","locality":"Drolshagen","municipality":{"key":"05966008","name":"Drolshagen, Stadt","type":"Stadt"},"district":{"key":"05966","name":"Olpe","type":"Kreis"},"federalState":{"key":"05","name":"Nordrhein-Westfalen"}},{"name":"Am Hüsterberg","postalCode":"57489","locality":"Drolshagen","municipality":{"key":"05966008","name":"Drolshagen, Stadt","type":"Stadt"},"district":{"key":"05966","name":"Olpe","type":"Kreis"},"federalState":{"key":"05","name":"Nordrhein-Westfalen"}},{"name":"Am Hütteberg","postalCode":"57489","locality":"Drolshagen","municipality":{"key":"05966008","name":"Drolshagen, Stadt","type":"Stadt"},"district":{"key":"05966","name":"Olpe","type":"Kreis"},"federalState":{"key":"05","name":"Nordrhein-Westfalen"}},{"name":"Am Köpfchen","postalCode":"57489","locality":"Drolshagen","municipality":{"key":"05966008","name":"Drolshagen, Stadt","type":"Stadt"},"district":{"key":"05966","name":"Olpe","type":"Kreis"},"federalState":{"key":"05","name":"Nordrhein-Westfalen"}},{"name":"Am Kreuzberg","postalCode":"57489","locality":"Drolshagen","municipality":{"key":"05966008","name":"Drolshagen, Stadt","type":"Stadt"},"district":{"key":"05966","name":"Olpe","type":"Kreis"},"federalState":{"key":"05","name":"Nordrhein-Westfalen"}},{"name":"Am Langen Stück","postalCode":"57489","locality":"Drolshagen","municipality":{"key":"05966008","name":"Drolshagen, Stadt","type":"Stadt"},"district":{"key":"05966","name":"Olpe","type":"Kreis"},"federalState":{"key":"05","name":"Nordrhein-Westfalen"}},{"name":"Am Lindenberg","postalCode":"57489","locality":"Drolshagen","municipality":{"key":"05966008","name":"Drolshagen, Stadt","type":"Stadt"},"district":{"key":"05966","name":"Olpe","type":"Kreis"},"federalState":{"key":"05","name":"Nordrhein-Westfalen"}},{"name":"Am Lußnacken","postalCode":"57489","locality":"Drolshagen","municipality":{"key":"05966008","name":"Drolshagen, Stadt","type":"Stadt"},"district":{"key":"05966","name":"Olpe","type":"Kreis"},"federalState":{"key":"05","name":"Nordrhein-Westfalen"}},{"name":"Am Markhagen","postalCode":"57489","locality":"Drolshagen","municipality":{"key":"05966008","name":"Drolshagen, Stadt","type":"Stadt"},"district":{"key":"05966","name":"Olpe","type":"Kreis"},"federalState":{"key":"05","name":"Nordrhein-Westfalen"}},{"name":"Am Nocken","postalCode":"57489","locality":"Drolshagen","municipality":{"key":"05966008","name":"Drolshagen, Stadt","type":"Stadt"},"district":{"key":"05966","name":"Olpe","type":"Kreis"},"federalState":{"key":"05","name":"Nordrhein-Westfalen"}},{"name":"Am Pädchen","postalCode":"57489","locality":"Drolshagen","municipality":{"key":"05966008","name":"Drolshagen, Stadt","type":"Stadt"},"district":{"key":"05966","name":"Olpe","type":"Kreis"},"federalState":{"key":"05","name":"Nordrhein-Westfalen"}},{"name":"Am Papenberg","postalCode":"57489","locality":"Drolshagen","municipality":{"key":"05966008","name":"Drolshagen, Stadt","type":"Stadt"},"district":{"key":"05966","name":"Olpe","type":"Kreis"},"federalState":{"key":"05","name":"Nordrhein-Westfalen"}},{"name":"Am Rummelsberg","postalCode":"57489","locality":"Drolshagen","municipality":{"key":"05966008","name":"Drolshagen, Stadt","type":"Stadt"},"district":{"key":"05966","name":"Olpe","type":"Kreis"},"federalState":{"key":"05","name":"Nordrhein-Westfalen"}},{"name":"Am Sassenhof","postalCode":"57489","locality":"Drolshagen","municipality":{"key":"05966008","name":"Drolshagen, Stadt","type":"Stadt"},"district":{"key":"05966","name":"Olpe","type":"Kreis"},"federalState":{"key":"05","name":"Nordrhein-Westfalen"}},{"name":"Am Schlotstück","postalCode":"57489","locality":"Drolshagen","municipality":{"key":"05966008","name":"Drolshagen, Stadt","type":"Stadt"},"district":{"key":"05966","name":"Olpe","type":"Kreis"},"federalState":{"key":"05","name":"Nordrhein-Westfalen"}},{"name":"Am Schmand","postalCode":"57489","locality":"Drolshagen","municipality":{"key":"05966008","name":"Drolshagen, Stadt","type":"Stadt"},"district":{"key":"05966","name":"Olpe","type":"Kreis"},"federalState":{"key":"05","name":"Nordrhein-Westfalen"}},{"name":"Amselweg","postalCode":"57489","locality":"Drolshagen","municipality":{"key":"05966008","name":"Drolshagen, Stadt","type":"Stadt"},"district":{"key":"05966","name":"Olpe","type":"Kreis"},"federalState":{"key":"05","name":"Nordrhein-Westfalen"}},{"name":"Am Sessenhahn","postalCode":"57489","locality":"Drolshagen","municipality":{"key":"05966008","name":"Drolshagen, Stadt","type":"Stadt"},"district":{"key":"05966","name":"Olpe","type":"Kreis"},"federalState":{"key":"05","name":"Nordrhein-Westfalen"}},{"name":"Am Sonnenhang","postalCode":"57489","locality":"Drolshagen","municipality":{"key":"05966008","name":"Drolshagen, Stadt","type":"Stadt"},"district":{"key":"05966","name":"Olpe","type":"Kreis"},"federalState":{"key":"05","name":"Nordrhein-Westfalen"}},{"name":"Bahnhofstr.","postalCode":"57489","locality":"Drolshagen","municipality":{"key":"05966008","name":"Drolshagen, Stadt","type":"Stadt"},"district":{"key":"05966","name":"Olpe","type":"Kreis"},"federalState":{"key":"05","name":"Nordrhein-Westfalen"}},{"name":"Belmicker Weg","postalCode":"57489","locality":"Drolshagen","municipality":{"key":"05966008","name":"Drolshagen, Stadt","type":"Stadt"},"district":{"key":"05966","name":"Olpe","type":"Kreis"},"federalState":{"key":"05","name":"Nordrhein-Westfalen"}},{"name":"Benolper Str.","postalCode":"57489","locality":"Drolshagen","municipality":{"key":"05966008","name":"Drolshagen, Stadt","type":"Stadt"},"district":{"key":"05966","name":"Olpe","type":"Kreis"},"federalState":{"key":"05","name":"Nordrhein-Westfalen"}},{"name":"Bergstr.","postalCode":"57489","locality":"Drolshagen","municipality":{"key":"05966008","name":"Drolshagen, Stadt","type":"Stadt"},"district":{"key":"05966","name":"Olpe","type":"Kreis"},"federalState":{"key":"05","name":"Nordrhein-Westfalen"}},{"name":"Birkenweg","postalCode":"57489","locality":"Drolshagen","municipality":{"key":"05966008","name":"Drolshagen, Stadt","type":"Stadt"},"district":{"key":"05966","name":"Olpe","type":"Kreis"},"federalState":{"key":"05","name":"Nordrhein-Westfalen"}},{"name":"Blumenweg","postalCode":"57489","locality":"Drolshagen","municipality":{"key":"05966008","name":"Drolshagen, Stadt","type":"Stadt"},"district":{"key":"05966","name":"Olpe","type":"Kreis"},"federalState":{"key":"05","name":"Nordrhein-Westfalen"}},{"name":"Börschstr.","postalCode":"57489","locality":"Drolshagen","municipality":{"key":"05966008","name":"Drolshagen, Stadt","type":"Stadt"},"district":{"key":"05966","name":"Olpe","type":"Kreis"},"federalState":{"key":"05","name":"Nordrhein-Westfalen"}},{"name":"Brachtpetalstr.","postalCode":"57489","locality":"Drolshagen","municipality":{"key":"05966008","name":"Drolshagen, Stadt","type":"Stadt"},"district":{"key":"05966","name":"Olpe","type":"Kreis"},"federalState":{"key":"05","name":"Nordrhein-Westfalen"}},{"name":"Brandenburger Str.","postalCode":"57489","locality":"Drolshagen","municipality":{"key":"05966008","name":"Drolshagen, Stadt","type":"Stadt"},"district":{"key":"05966","name":"Olpe","type":"Kreis"},"federalState":{"key":"05","name":"Nordrhein-Westfalen"}},{"name":"Breitehardt","postalCode":"57489","locality":"Drolshagen","municipality":{"key":"05966008","name":"Drolshagen, Stadt","type":"Stadt"},"district":{"key":"05966","name":"Olpe","type":"Kreis"},"federalState":{"key":"05","name":"Nordrhein-Westfalen"}},{"name":"Breites Stück","postalCode":"57489","locality":"Drolshagen","municipality":{"key":"05966008","name":"Drolshagen, Stadt","type":"Stadt"},"district":{"key":"05966","name":"Olpe","type":"Kreis"},"federalState":{"key":"05","name":"Nordrhein-Westfalen"}},{"name":"Breite Wende","postalCode":"57489","locality":"Drolshagen","municipality":{"key":"05966008","name":"Drolshagen, Stadt","type":"Stadt"},"district":{"key":"05966","name":"Olpe","type":"Kreis"},"federalState":{"key":"05","name":"Nordrhein-Westfalen"}},{"name":"Brombeerweg","postalCode":"57489","locality":"Drolshagen","municipality":{"key":"05966008","name":"Drolshagen, Stadt","type":"Stadt"},"district":{"key":"05966","name":"Olpe","type":"Kreis"},"federalState":{"key":"05","name":"Nordrhein-Westfalen"}},{"name":"Brückstr.","postalCode":"57489","locality":"Drolshagen","municipality":{"key":"05966008","name":"Drolshagen, Stadt","type":"Stadt"},"district":{"key":"05966","name":"Olpe","type":"Kreis"},"federalState":{"key":"05","name":"Nordrhein-Westfalen"}},{"name":"Brunnenstr.","postalCode":"57489","locality":"Drolshagen","municipality":{"key":"05966008","name":"Drolshagen, Stadt","type":"Stadt"},"district":{"key":"05966","name":"Olpe","type":"Kreis"},"federalState":{"key":"05","name":"Nordrhein-Westfalen"}},{"name":"Buchenweg","postalCode":"57489","locality":"Drolshagen","municipality":{"key":"05966008","name":"Drolshagen, Stadt","type":"Stadt"},"district":{"key":"05966","name":"Olpe","type":"Kreis"},"federalState":{"key":"05","name":"Nordrhein-Westfalen"}},{"name":"Buchfinkenweg","postalCode":"57489","locality":"Drolshagen","municipality":{"key":"05966008","name":"Drolshagen, Stadt","type":"Stadt"},"district":{"key":"05966","name":"Olpe","type":"Kreis"},"federalState":{"key":"05","name":"Nordrhein-Westfalen"}},{"name":"Buchhagen","postalCode":"57489","locality":"Drolshagen","municipality":{"key":"05966008","name":"Drolshagen, Stadt","type":"Stadt"},"district":{"key":"05966","name":"Olpe","type":"Kreis"},"federalState":{"key":"05","name":"Nordrhein-Westfalen"}},{"name":"Buchhagener Weg","postalCode":"57489","locality":"Drolshagen","municipality":{"key":"05966008","name":"Drolshagen, Stadt","type":"Stadt"},"district":{"key":"05966","name":"Olpe","type":"Kreis"},"federalState":{"key":"05","name":"Nordrhein-Westfalen"}},{"name":"Bühren","postalCode":"57489","locality":"Drolshagen","municipality":{"key":"05966008","name":"Drolshagen, Stadt","type":"Stadt"},"district":{"key":"05966","name":"Olpe","type":"Kreis"},"federalState":{"key":"05","name":"Nordrhein-Westfalen"}},{"name":"Christine-Koch-Str.","postalCode":"57489","locality":"Drolshagen","municipality":{"key":"05966008","name":"Drolshagen, Stadt","type":"Stadt"},"district":{"key":"05966","name":"Olpe","type":"Kreis"},"federalState":{"key":"05","name":"Nordrhein-Westfalen"}},{"name":"Clemensstr.","postalCode":"57489","locality":"Drolshagen","municipality":{"key":"05966008","name":"Drolshagen, Stadt","type":"Stadt"},"district":{"key":"05966","name":"Olpe","type":"Kreis"},"federalState":{"key":"05","name":"Nordrhein-Westfalen"}},{"name":"Dechant-Fischer-Str.","postalCode":"57489","locality":"Drolshagen","municipality":{"key":"05966008","name":"Drolshagen, Stadt","type":"Stadt"},"district":{"key":"05966","name":"Olpe","type":"Kreis"},"federalState":{"key":"05","name":"Nordrhein-Westfalen"}},{"name":"Dohlenweg","postalCode":"57489","locality":"Drolshagen","municipality":{"key":"05966008","name":"Drolshagen, Stadt","type":"Stadt"},"district":{"key":"05966","name":"Olpe","type":"Kreis"},"federalState":{"key":"05","name":"Nordrhein-Westfalen"}},{"name":"Dorfplatz","postalCode":"57489","locality":"Drolshagen","municipality":{"key":"05966008","name":"Drolshagen, Stadt","type":"Stadt"},"district":{"key":"05966","name":"Olpe","type":"Kreis"},"federalState":{"key":"05","name":"Nordrhein-Westfalen"}},{"name":"Dreieckweg","postalCode":"57489","locality":"Drolshagen","municipality":{"key":"05966008","name":"Drolshagen, Stadt","type":"Stadt"},"district":{"key":"05966","name":"Olpe","type":"Kreis"},"federalState":{"key":"05","name":"Nordrhein-Westfalen"}},{"name":"Drosselweg","postalCode":"57489","locality":"Drolshagen","municipality":{"key":"05966008","name":"Drolshagen, Stadt","type":"Stadt"},"district":{"key":"05966","name":"Olpe","type":"Kreis"},"federalState":{"key":"05","name":"Nordrhein-Westfalen"}},{"name":"Dumicker Str.","postalCode":"57489","locality":"Drolshagen","municipality":{"key":"05966008","name":"Drolshagen, Stadt","type":"Stadt"},"district":{"key":"05966","name":"Olpe","type":"Kreis"},"federalState":{"key":"05","name":"Nordrhein-Westfalen"}},{"name":"Eichendorffstr.","postalCode":"57489","locality":"Drolshagen","municipality":{"key":"05966008","name":"Drolshagen, Stadt","type":"Stadt"},"district":{"key":"05966","name":"Olpe","type":"Kreis"},"federalState":{"key":"05","name":"Nordrhein-Westfalen"}},{"name":"Eichenermühle","postalCode":"57489","locality":"Drolshagen","municipality":{"key":"05966008","name":"Drolshagen, Stadt","type":"Stadt"},"district":{"key":"05966","name":"Olpe","type":"Kreis"},"federalState":{"key":"05","name":"Nordrhein-Westfalen"}},{"name":"Eichener Str.","postalCode":"57489","locality":"Drolshagen","municipality":{"key":"05966008","name":"Drolshagen, Stadt","type":"Stadt"},"district":{"key":"05966","name":"Olpe","type":"Kreis"},"federalState":{"key":"05","name":"Nordrhein-Westfalen"}},{"name":"Elsternweg","postalCode":"57489","locality":"Drolshagen","municipality":{"key":"05966008","name":"Drolshagen, Stadt","type":"Stadt"},"district":{"key":"05966","name":"Olpe","type":"Kreis"},"federalState":{"key":"05","name":"Nordrhein-Westfalen"}},{"name":"Engelbertstr.","postalCode":"57489","locality":"Drolshagen","municipality":{"key":"05966008","name":"Drolshagen, Stadt","type":"Stadt"},"district":{"key":"05966","name":"Olpe","type":"Kreis"},"federalState":{"key":"05","name":"Nordrhein-Westfalen"}},{"name":"Ennert","postalCode":"57489","locality":"Drolshagen","municipality":{"key":"05966008","name":"Drolshagen, Stadt","type":"Stadt"},"district":{"key":"05966","name":"Olpe","type":"Kreis"},"federalState":{"key":"05","name":"Nordrhein-Westfalen"}},{"name":"Fasanenweg","postalCode":"57489","locality":"Drolshagen","municipality":{"key":"05966008","name":"Drolshagen, Stadt","type":"Stadt"},"district":{"key":"05966","name":"Olpe","type":"Kreis"},"federalState":{"key":"05","name":"Nordrhein-Westfalen"}},{"name":"Feldstr.","postalCode":"57489","locality":"Drolshagen","municipality":{"key":"05966008","name":"Drolshagen, Stadt","type":"Stadt"},"district":{"key":"05966","name":"Olpe","type":"Kreis"},"federalState":{"key":"05","name":"Nordrhein-Westfalen"}},{"name":"Finkenweg","postalCode":"57489","locality":"Drolshagen","municipality":{"key":"05966008","name":"Drolshagen, Stadt","type":"Stadt"},"district":{"key":"05966","name":"Olpe","type":"Kreis"},"federalState":{"key":"05","name":"Nordrhein-Westfalen"}},{"name":"Finkestr.","postalCode":"57489","locality":"Drolshagen","municipality":{"key":"05966008","name":"Drolshagen, Stadt","type":"Stadt"},"district":{"key":"05966","name":"Olpe","type":"Kreis"},"federalState":{"key":"05","name":"Nordrhein-Westfalen"}},{"name":"Florianstr.","postalCode":"57489","locality":"Drolshagen","municipality":{"key":"05966008","name":"Drolshagen, Stadt","type":"Stadt"},"district":{"key":"05966","name":"Olpe","type":"Kreis"},"federalState":{"key":"05","name":"Nordrhein-Westfalen"}},{"name":"Fontanestr.","postalCode":"57489","locality":"Drolshagen","municipality":{"key":"05966008","name":"Drolshagen, Stadt","type":"Stadt"},"district":{"key":"05966","name":"Olpe","type":"Kreis"},"federalState":{"key":"05","name":"Nordrhein-Westfalen"}},{"name":"Franz-Hitze-Str.","postalCode":"57489","locality":"Drolshagen","municipality":{"key":"05966008","name":"Drolshagen, Stadt","type":"Stadt"},"district":{"key":"05966","name":"Olpe","type":"Kreis"},"federalState":{"key":"05","name":"Nordrhein-Westfalen"}},{"name":"Franziskusstr.","postalCode":"57489","locality":"Drolshagen","municipality":{"key":"05966008","name":"Drolshagen, Stadt","type":"Stadt"},"district":{"key":"05966","name":"Olpe","type":"Kreis"},"federalState":{"key":"05","name":"Nordrhein-Westfalen"}},{"name":"Frenkhauserhöh","postalCode":"57489","locality":"Drolshagen","municipality":{"key":"05966008","name":"Drolshagen, Stadt","type":"Stadt"},"district":{"key":"05966","name":"Olpe","type":"Kreis"},"federalState":{"key":"05","name":"Nordrhein-Westfalen"}},{"name":"Gänsereitplatz","postalCode":"57489","locality":"Drolshagen","municipality":{"key":"05966008","name":"Drolshagen, Stadt","type":"Stadt"},"district":{"key":"05966","name":"Olpe","type":"Kreis"},"federalState":{"key":"05","name":"Nordrhein-Westfalen"}},{"name":"Gartenstr.","postalCode":"57489","locality":"Drolshagen","municipality":{"key":"05966008","name":"Drolshagen, Stadt","type":"Stadt"},"district":{"key":"05966","name":"Olpe","type":"Kreis"},"federalState":{"key":"05","name":"Nordrhein-Westfalen"}},{"name":"Gelslinger Weg","postalCode":"57489","locality":"Drolshagen","municipality":{"key":"05966008","name":"Drolshagen, Stadt","type":"Stadt"},"district":{"key":"05966","name":"Olpe","type":"Kreis"},"federalState":{"key":"05","name":"Nordrhein-Westfalen"}},{"name":"Gerberstr.","postalCode":"57489","locality":"Drolshagen","municipality":{"key":"05966008","name":"Drolshagen, Stadt","type":"Stadt"},"district":{"key":"05966","name":"Olpe","type":"Kreis"},"federalState":{"key":"05","name":"Nordrhein-Westfalen"}},{"name":"Gerhardusstr.","postalCode":"57489","locality":"Drolshagen","municipality":{"key":"05966008","name":"Drolshagen, Stadt","type":"Stadt"},"district":{"key":"05966","name":"Olpe","type":"Kreis"},"federalState":{"key":"05","name":"Nordrhein-Westfalen"}},{"name":"Germinghauser Weg","postalCode":"57489","locality":"Drolshagen","municipality":{"key":"05966008","name":"Drolshagen, Stadt","type":"Stadt"},"district":{"key":"05966","name":"Olpe","type":"Kreis"},"federalState":{"key":"05","name":"Nordrhein-Westfalen"}},{"name":"Ginsterweg","postalCode":"57489","locality":"Drolshagen","municipality":{"key":"05966008","name":"Drolshagen, Stadt","type":"Stadt"},"district":{"key":"05966","name":"Olpe","type":"Kreis"},"federalState":{"key":"05","name":"Nordrhein-Westfalen"}},{"name":"Goethestr.","postalCode":"57489","locality":"Drolshagen","municipality":{"key":"05966008","name":"Drolshagen, Stadt","type":"Stadt"},"district":{"key":"05966","name":"Olpe","type":"Kreis"},"federalState":{"key":"05","name":"Nordrhein-Westfalen"}},{"name":"Gördesweg","postalCode":"57489","locality":"Drolshagen","municipality":{"key":"05966008","name":"Drolshagen, Stadt","type":"Stadt"},"district":{"key":"05966","name":"Olpe","type":"Kreis"},"federalState":{"key":"05","name":"Nordrhein-Westfalen"}},{"name":"Grabweg","postalCode":"57489","locality":"Drolshagen","municipality":{"key":"05966008","name":"Drolshagen, Stadt","type":"Stadt"},"district":{"key":"05966","name":"Olpe","type":"Kreis"},"federalState":{"key":"05","name":"Nordrhein-Westfalen"}},{"name":"Gräfin-Sayn-Str.","postalCode":"57489","locality":"Drolshagen","municipality":{"key":"05966008","name":"Drolshagen, Stadt","type":"Stadt"},"district":{"key":"05966","name":"Olpe","type":"Kreis"},"federalState":{"key":"05","name":"Nordrhein-Westfalen"}},{"name":"Grimmestr.","postalCode":"57489","locality":"Drolshagen","municipality":{"key":"05966008","name":"Drolshagen, Stadt","type":"Stadt"},"district":{"key":"05966","name":"Olpe","type":"Kreis"},"federalState":{"key":"05","name":"Nordrhein-Westfalen"}},{"name":"Grüner Weg","postalCode":"57489","locality":"Drolshagen","municipality":{"key":"05966008","name":"Drolshagen, Stadt","type":"Stadt"},"district":{"key":"05966","name":"Olpe","type":"Kreis"},"federalState":{"key":"05","name":"Nordrhein-Westfalen"}},{"name":"Häckelchen","postalCode":"57489","locality":"Drolshagen","municipality":{"key":"05966008","name":"Drolshagen, Stadt","type":"Stadt"},"district":{"key":"05966","name":"Olpe","type":"Kreis"},"federalState":{"key":"05","name":"Nordrhein-Westfalen"}},{"name":"Hagener Str.","postalCode":"57489","locality":"Drolshagen","municipality":{"key":"05966008","name":"Drolshagen, Stadt","type":"Stadt"},"district":{"key":"05966","name":"Olpe","type":"Kreis"},"federalState":{"key":"05","name":"Nordrhein-Westfalen"}},{"name":"Hansaweg","postalCode":"57489","locality":"Drolshagen","municipality":{"key":"05966008","name":"Drolshagen, Stadt","type":"Stadt"},"district":{"key":"05966","name":"Olpe","type":"Kreis"},"federalState":{"key":"05","name":"Nordrhein-Westfalen"}},{"name":"Hatzfeldstr.","postalCode":"57489","locality":"Drolshagen","municipality":{"key":"05966008","name":"Drolshagen, Stadt","type":"Stadt"},"district":{"key":"05966","name":"Olpe","type":"Kreis"},"federalState":{"key":"05","name":"Nordrhein-Westfalen"}},{"name":"Hauptmannstr.","postalCode":"57489","locality":"Drolshagen","municipality":{"key":"05966008","name":"Drolshagen, Stadt","type":"Stadt"},"district":{"key":"05966","name":"Olpe","type":"Kreis"},"federalState":{"key":"05","name":"Nordrhein-Westfalen"}},{"name":"Hauptstr.","postalCode":"57489","locality":"Drolshagen","municipality":{"key":"05966008","name":"Drolshagen, Stadt","type":"Stadt"},"district":{"key":"05966","name":"Olpe","type":"Kreis"},"federalState":{"key":"05","name":"Nordrhein-Westfalen"}},{"name":"Heerstr.","postalCode":"57489","locality":"Drolshagen","municipality":{"key":"05966008","name":"Drolshagen, Stadt","type":"Stadt"},"district":{"key":"05966","name":"Olpe","type":"Kreis"},"federalState":{"key":"05","name":"Nordrhein-Westfalen"}},{"name":"Heiderhof","postalCode":"57489","locality":"Drolshagen","municipality":{"key":"05966008","name":"Drolshagen, Stadt","type":"Stadt"},"district":{"key":"05966","name":"Olpe","type":"Kreis"},"federalState":{"key":"05","name":"Nordrhein-Westfalen"}},{"name":"Heidnocken","postalCode":"57489","locality":"Drolshagen","municipality":{"key":"05966008","name":"Drolshagen, Stadt","type":"Stadt"},"district":{"key":"05966","name":"Olpe","type":"Kreis"},"federalState":{"key":"05","name":"Nordrhein-Westfalen"}},{"name":"Heinrich-Bone-Str.","postalCode":"57489","locality":"Drolshagen","municipality":{"key":"05966008","name":"Drolshagen, Stadt","type":"Stadt"},"district":{"key":"05966","name":"Olpe","type":"Kreis"},"federalState":{"key":"05","name":"Nordrhein-Westfalen"}},{"name":"Hellinghausstr.","postalCode":"57489","locality":"Drolshagen","municipality":{"key":"05966008","name":"Drolshagen, Stadt","type":"Stadt"},"district":{"key":"05966","name":"Olpe","type":"Kreis"},"federalState":{"key":"05","name":"Nordrhein-Westfalen"}},{"name":"Herrnscheider Weg","postalCode":"57489","locality":"Drolshagen","municipality":{"key":"05966008","name":"Drolshagen, Stadt","type":"Stadt"},"district":{"key":"05966","name":"Olpe","type":"Kreis"},"federalState":{"key":"05","name":"Nordrhein-Westfalen"}},{"name":"Höhenweg","postalCode":"57489","locality":"Drolshagen","municipality":{"key":"05966008","name":"Drolshagen, Stadt","type":"Stadt"},"district":{"key":"05966","name":"Olpe","type":"Kreis"},"federalState":{"key":"05","name":"Nordrhein-Westfalen"}},{"name":"Höherhaus","postalCode":"57489","locality":"Drolshagen","municipality":{"key":"05966008","name":"Drolshagen, Stadt","type":"Stadt"},"district":{"key":"05966","name":"Olpe","type":"Kreis"},"federalState":{"key":"05","name":"Nordrhein-Westfalen"}},{"name":"Holunderweg","postalCode":"57489","locality":"Drolshagen","municipality":{"key":"05966008","name":"Drolshagen, Stadt","type":"Stadt"},"district":{"key":"05966","name":"Olpe","type":"Kreis"},"federalState":{"key":"05","name":"Nordrhein-Westfalen"}},{"name":"Homborgstr.","postalCode":"57489","locality":"Drolshagen","municipality":{"key":"05966008","name":"Drolshagen, Stadt","type":"Stadt"},"district":{"key":"05966","name":"Olpe","type":"Kreis"},"federalState":{"key":"05","name":"Nordrhein-Westfalen"}},{"name":"Hühnerseifen","postalCode":"57489","locality":"Drolshagen","municipality":{"key":"05966008","name":"Drolshagen, Stadt","type":"Stadt"},"district":{"key":"05966","name":"Olpe","type":"Kreis"},"federalState":{"key":"05","name":"Nordrhein-Westfalen"}},{"name":"Humboldtstr.","postalCode":"57489","locality":"Drolshagen","municipality":{"key":"05966008","name":"Drolshagen, Stadt","type":"Stadt"},"district":{"key":"05966","name":"Olpe","type":"Kreis"},"federalState":{"key":"05","name":"Nordrhein-Westfalen"}},{"name":"Hundhausener Str.","postalCode":"57489","locality":"Drolshagen","municipality":{"key":"05966008","name":"Drolshagen, Stadt","type":"Stadt"},"district":{"key":"05966","name":"Olpe","type":"Kreis"},"federalState":{"key":"05","name":"Nordrhein-Westfalen"}},{"name":"Hüppcherhammer","postalCode":"57489","locality":"Drolshagen","municipality":{"key":"05966008","name":"Drolshagen, Stadt","type":"Stadt"},"district":{"key":"05966","name":"Olpe","type":"Kreis"},"federalState":{"key":"05","name":"Nordrhein-Westfalen"}},{"name":"Hustert","postalCode":"57489","locality":"Drolshagen","municipality":{"key":"05966008","name":"Drolshagen, Stadt","type":"Stadt"},"district":{"key":"05966","name":"Olpe","type":"Kreis"},"federalState":{"key":"05","name":"Nordrhein-Westfalen"}},{"name":"Im Brauck","postalCode":"57489","locality":"Drolshagen","municipality":{"key":"05966008","name":"Drolshagen, Stadt","type":"Stadt"},"district":{"key":"05966","name":"Olpe","type":"Kreis"},"federalState":{"key":"05","name":"Nordrhein-Westfalen"}},{"name":"Im Buchhagen","postalCode":"57489","locality":"Drolshagen","municipality":{"key":"05966008","name":"Drolshagen, Stadt","type":"Stadt"},"district":{"key":"05966","name":"Olpe","type":"Kreis"},"federalState":{"key":"05","name":"Nordrhein-Westfalen"}},{"name":"Im Ellseifen","postalCode":"57489","locality":"Drolshagen","municipality":{"key":"05966008","name":"Drolshagen, Stadt","type":"Stadt"},"district":{"key":"05966","name":"Olpe","type":"Kreis"},"federalState":{"key":"05","name":"Nordrhein-Westfalen"}},{"name":"Im Hahn","postalCode":"57489","locality":"Drolshagen","municipality":{"key":"05966008","name":"Drolshagen, Stadt","type":"Stadt"},"district":{"key":"05966","name":"Olpe","type":"Kreis"},"federalState":{"key":"05","name":"Nordrhein-Westfalen"}},{"name":"Im Herrnscheid","postalCode":"57489","locality":"Drolshagen","municipality":{"key":"05966008","name":"Drolshagen, Stadt","type":"Stadt"},"district":{"key":"05966","name":"Olpe","type":"Kreis"},"federalState":{"key":"05","name":"Nordrhein-Westfalen"}},{"name":"Im Höfchen","postalCode":"57489","locality":"Drolshagen","municipality":{"key":"05966008","name":"Drolshagen, Stadt","type":"Stadt"},"district":{"key":"05966","name":"Olpe","type":"Kreis"},"federalState":{"key":"05","name":"Nordrhein-Westfalen"}},{"name":"Im Kreuzseifen","postalCode":"57489","locality":"Drolshagen","municipality":{"key":"05966008","name":"Drolshagen, Stadt","type":"Stadt"},"district":{"key":"05966","name":"Olpe","type":"Kreis"},"federalState":{"key":"05","name":"Nordrhein-Westfalen"}},{"name":"Im neuen Garten","postalCode":"57489","locality":"Drolshagen","municipality":{"key":"05966008","name":"Drolshagen, Stadt","type":"Stadt"},"district":{"key":"05966","name":"Olpe","type":"Kreis"},"federalState":{"key":"05","name":"Nordrhein-Westfalen"}},{"name":"Im Öhlchen","postalCode":"57489","locality":"Drolshagen","municipality":{"key":"05966008","name":"Drolshagen, Stadt","type":"Stadt"},"district":{"key":"05966","name":"Olpe","type":"Kreis"},"federalState":{"key":"05","name":"Nordrhein-Westfalen"}},{"name":"Im Ohle","postalCode":"57489","locality":"Drolshagen","municipality":{"key":"05966008","name":"Drolshagen, Stadt","type":"Stadt"},"district":{"key":"05966","name":"Olpe","type":"Kreis"},"federalState":{"key":"05","name":"Nordrhein-Westfalen"}},{"name":"Im Strautsiepen","postalCode":"57489","locality":"Drolshagen","municipality":{"key":"05966008","name":"Drolshagen, Stadt","type":"Stadt"},"district":{"key":"05966","name":"Olpe","type":"Kreis"},"federalState":{"key":"05","name":"Nordrhein-Westfalen"}},{"name":"Im Tiergarten","postalCode":"57489","locality":"Drolshagen","municipality":{"key":"05966008","name":"Drolshagen, Stadt","type":"Stadt"},"district":{"key":"05966","name":"Olpe","type":"Kreis"},"federalState":{"key":"05","name":"Nordrhein-Westfalen"}},{"name":"Im Wäldchen","postalCode":"57489","locality":"Drolshagen","municipality":{"key":"05966008","name":"Drolshagen, Stadt","type":"Stadt"},"district":{"key":"05966","name":"Olpe","type":"Kreis"},"federalState":{"key":"05","name":"Nordrhein-Westfalen"}},{"name":"Im Weiler","postalCode":"57489","locality":"Drolshagen","municipality":{"key":"05966008","name":"Drolshagen, Stadt","type":"Stadt"},"district":{"key":"05966","name":"Olpe","type":"Kreis"},"federalState":{"key":"05","name":"Nordrhein-Westfalen"}},{"name":"Im Wiesengrund","postalCode":"57489","locality":"Drolshagen","municipality":{"key":"05966008","name":"Drolshagen, Stadt","type":"Stadt"},"district":{"key":"05966","name":"Olpe","type":"Kreis"},"federalState":{"key":"05","name":"Nordrhein-Westfalen"}},{"name":"Im Wiesenkamp","postalCode":"57489","locality":"Drolshagen","municipality":{"key":"05966008","name":"Drolshagen, Stadt","type":"Stadt"},"district":{"key":"05966","name":"Olpe","type":"Kreis"},"federalState":{"key":"05","name":"Nordrhein-Westfalen"}},{"name":"Im Wohld","postalCode":"57489","locality":"Drolshagen","municipality":{"key":"05966008","name":"Drolshagen, Stadt","type":"Stadt"},"district":{"key":"05966","name":"Olpe","type":"Kreis"},"federalState":{"key":"05","name":"Nordrhein-Westfalen"}},{"name":"In den Helden","postalCode":"57489","locality":"Drolshagen","municipality":{"key":"05966008","name":"Drolshagen, Stadt","type":"Stadt"},"district":{"key":"05966","name":"Olpe","type":"Kreis"},"federalState":{"key":"05","name":"Nordrhein-Westfalen"}},{"name":"In der Fuhr","postalCode":"57489","locality":"Drolshagen","municipality":{"key":"05966008","name":"Drolshagen, Stadt","type":"Stadt"},"district":{"key":"05966","name":"Olpe","type":"Kreis"},"federalState":{"key":"05","name":"Nordrhein-Westfalen"}},{"name":"In der Höh","postalCode":"57489","locality":"Drolshagen","municipality":{"key":"05966008","name":"Drolshagen, Stadt","type":"Stadt"},"district":{"key":"05966","name":"Olpe","type":"Kreis"},"federalState":{"key":"05","name":"Nordrhein-Westfalen"}},{"name":"In der Hützenau","postalCode":"57489","locality":"Drolshagen","municipality":{"key":"05966008","name":"Drolshagen, Stadt","type":"Stadt"},"district":{"key":"05966","name":"Olpe","type":"Kreis"},"federalState":{"key":"05","name":"Nordrhein-Westfalen"}},{"name":"In der Kuhle","postalCode":"57489","locality":"Drolshagen","municipality":{"key":"05966008","name":"Drolshagen, Stadt","type":"Stadt"},"district":{"key":"05966","name":"Olpe","type":"Kreis"},"federalState":{"key":"05","name":"Nordrhein-Westfalen"}},{"name":"In der Schlade","postalCode":"57489","locality":"Drolshagen","municipality":{"key":"05966008","name":"Drolshagen, Stadt","type":"Stadt"},"district":{"key":"05966","name":"Olpe","type":"Kreis"},"federalState":{"key":"05","name":"Nordrhein-Westfalen"}},{"name":"In der Sengenau","postalCode":"57489","locality":"Drolshagen","municipality":{"key":"05966008","name":"Drolshagen, Stadt","type":"Stadt"},"district":{"key":"05966","name":"Olpe","type":"Kreis"},"federalState":{"key":"05","name":"Nordrhein-Westfalen"}},{"name":"In der Trift","postalCode":"57489","locality":"Drolshagen","municipality":{"key":"05966008","name":"Drolshagen, Stadt","type":"Stadt"},"district":{"key":"05966","name":"Olpe","type":"Kreis"},"federalState":{"key":"05","name":"Nordrhein-Westfalen"}},{"name":"In der Wünne","postalCode":"57489","locality":"Drolshagen","municipality":{"key":"05966008","name":"Drolshagen, Stadt","type":"Stadt"},"district":{"key":"05966","name":"Olpe","type":"Kreis"},"federalState":{"key":"05","name":"Nordrhein-Westfalen"}},{"name":"Jahnstr.","postalCode":"57462","locality":"Olpe","municipality":{"key":"05966024","name":"Olpe, Stadt","type":"Stadt"},"district":{"key":"05966","name":"Olpe","type":"Kreis"},"federalState":{"key":"05","name":"Nordrhein-Westfalen"}},{"name":"Jahnstr.","postalCode":"88284","locality":"Wolpertswende","municipality":{"key":"08436087","name":"Wolpertswende","type":"Kreisangehörige_Gemeinde"},"district":{"key":"08436","name":"Ravensburg","type":"Landkreis"},"federalState":{"key":"08","name":"Baden-Württemberg"}},{"name":"Jenaer Str.","postalCode":"57462","locality":"Olpe","municipality":{"key":"05966024","name":"Olpe, Stadt","type":"Stadt"},"district":{"key":"05966","name":"Olpe","type":"Kreis"},"federalState":{"key":"05","name":"Nordrhein-Westfalen"}},{"name":"Jockgrimstr.","postalCode":"01833","locality":"Stolpen","municipality":{"key":"14628380","name":"Stolpen, Stadt","type":"Stadt"},"district":{"key":"14628","name":"Sächsische Schweiz-Osterzgebirge","type":"Landkreis"},"federalState":{"key":"14","name":"Sachsen"}},{"name":"Johann-Bergmann-Weg","postalCode":"57462","locality":"Olpe","municipality":{"key":"05966024","name":"Olpe, Stadt","type":"Stadt"},"district":{"key":"05966","name":"Olpe","type":"Kreis"},"federalState":{"key":"05","name":"Nordrhein-Westfalen"}},{"name":"Johannes-Hatzfeld-Str.","postalCode":"57462","locality":"Olpe","municipality":{"key":"05966024","name":"Olpe, Stadt","type":"Stadt"},"district":{"key":"05966","name":"Olpe","type":"Kreis"},"federalState":{"key":"05","name":"Nordrhein-Westfalen"}},{"name":"Johannesweg","postalCode":"57462","locality":"Olpe","municipality":{"key":"05966024","name":"Olpe, Stadt","type":"Stadt"},"district":{"key":"05966","name":"Olpe","type":"Kreis"},"federalState":{"key":"05","name":"Nordrhein-Westfalen"}},{"name":"Johann-Georg-Manskopf-Str.","postalCode":"57462","locality":"Olpe","municipality":{"key":"05966024","name":"Olpe, Stadt","type":"Stadt"},"district":{"key":"05966","name":"Olpe","type":"Kreis"},"federalState":{"key":"05","name":"Nordrhein-Westfalen"}},{"name":"Johann-Sebastian-Bach-Weg","postalCode":"88284","locality":"Wolpertswende","municipality":{"key":"08436087","name":"Wolpertswende","type":"Kreisangehörige_Gemeinde"},"district":{"key":"08436","name":"Ravensburg","type":"Landkreis"},"federalState":{"key":"08","name":"Baden-Württemberg"}},{"name":"Johann-Strauß-Weg","postalCode":"88284","locality":"Wolpertswende","municipality":{"key":"08436087","name":"Wolpertswende","type":"Kreisangehörige_Gemeinde"},"district":{"key":"08436","name":"Ravensburg","type":"Landkreis"},"federalState":{"key":"08","name":"Baden-Württemberg"}},{"name":"Johann-Trinn-Str.","postalCode":"57462","locality":"Olpe","municipality":{"key":"05966024","name":"Olpe, Stadt","type":"Stadt"},"district":{"key":"05966","name":"Olpe","type":"Kreis"},"federalState":{"key":"05","name":"Nordrhein-Westfalen"}},{"name":"Josef-Schmelzer-Weg","postalCode":"57462","locality":"Olpe","municipality":{"key":"05966024","name":"Olpe, Stadt","type":"Stadt"},"district":{"key":"05966","name":"Olpe","type":"Kreis"},"federalState":{"key":"05","name":"Nordrhein-Westfalen"}},{"name":"Josefstr.","postalCode":"57462","locality":"Olpe","municipality":{"key":"05966024","name":"Olpe, Stadt","type":"Stadt"},"district":{"key":"05966","name":"Olpe","type":"Kreis"},"federalState":{"key":"05","name":"Nordrhein-Westfalen"}},{"name":"Jugendherberge Biggesee","postalCode":"57462","locality":"Olpe","municipality":{"key":"05966024","name":"Olpe, Stadt","type":"Stadt"},"district":{"key":"05966","name":"Olpe","type":"Kreis"},"federalState":{"key":"05","name":"Nordrhein-Westfalen"}},{"name":"Jungfernhöh","postalCode":"57462","locality":"Olpe","municipality":{"key":"05966024","name":"Olpe, Stadt","type":"Stadt"},"district":{"key":"05966","name":"Olpe","type":"Kreis"},"federalState":{"key":"05","name":"Nordrhein-Westfalen"}},{"name":"Kampstr.","postalCode":"57489","locality":"Drolshagen","municipality":{"key":"05966008","name":"Drolshagen, Stadt","type":"Stadt"},"district":{"key":"05966","name":"Olpe","type":"Kreis"},"federalState":{"key":"05","name":"Nordrhein-Westfalen"}},{"name":"Kapellenweg","postalCode":"57489","locality":"Drolshagen","municipality":{"key":"05966008","name":"Drolshagen, Stadt","type":"Stadt"},"district":{"key":"05966","name":"Olpe","type":"Kreis"},"federalState":{"key":"05","name":"Nordrhein-Westfalen"}},{"name":"Kastanienweg","postalCode":"57489","locality":"Drolshagen","municipality":{"key":"05966008","name":"Drolshagen, Stadt","type":"Stadt"},"district":{"key":"05966","name":"Olpe","type":"Kreis"},"federalState":{"key":"05","name":"Nordrhein-Westfalen"}},{"name":"Kirchhoffstr.","postalCode":"57489","locality":"Drolshagen","municipality":{"key":"05966008","name":"Drolshagen, Stadt","type":"Stadt"},"district":{"key":"05966","name":"Olpe","type":"Kreis"},"federalState":{"key":"05","name":"Nordrhein-Westfalen"}},{"name":"Kirchplatz","postalCode":"57489","locality":"Drolshagen","municipality":{"key":"05966008","name":"Drolshagen, Stadt","type":"Stadt"},"district":{"key":"05966","name":"Olpe","type":"Kreis"},"federalState":{"key":"05","name":"Nordrhein-Westfalen"}},{"name":"Kirchweg","postalCode":"57489","locality":"Drolshagen","municipality":{"key":"05966008","name":"Drolshagen, Stadt","type":"Stadt"},"district":{"key":"05966","name":"Olpe","type":"Kreis"},"federalState":{"key":"05","name":"Nordrhein-Westfalen"}},{"name":"Klosterhof","postalCode":"57489","locality":"Drolshagen","municipality":{"key":"05966008","name":"Drolshagen, Stadt","type":"Stadt"},"district":{"key":"05966","name":"Olpe","type":"Kreis"},"federalState":{"key":"05","name":"Nordrhein-Westfalen"}},{"name":"Köbbinghausen","postalCode":"57489","locality":"Drolshagen","municipality":{"key":"05966008","name":"Drolshagen, Stadt","type":"Stadt"},"district":{"key":"05966","name":"Olpe","type":"Kreis"},"federalState":{"key":"05","name":"Nordrhein-Westfalen"}},{"name":"Kölner Str.","postalCode":"57489","locality":"Drolshagen","municipality":{"key":"05966008","name":"Drolshagen, Stadt","type":"Stadt"},"district":{"key":"05966","name":"Olpe","type":"Kreis"},"federalState":{"key":"05","name":"Nordrhein-Westfalen"}},{"name":"Kolpingstr.","postalCode":"57489","locality":"Drolshagen","municipality":{"key":"05966008","name":"Drolshagen, Stadt","type":"Stadt"},"district":{"key":"05966","name":"Olpe","type":"Kreis"},"federalState":{"key":"05","name":"Nordrhein-Westfalen"}},{"name":"Krummer Weg","postalCode":"57489","locality":"Drolshagen","municipality":{"key":"05966008","name":"Drolshagen, Stadt","type":"Stadt"},"district":{"key":"05966","name":"Olpe","type":"Kreis"},"federalState":{"key":"05","name":"Nordrhein-Westfalen"}},{"name":"Kückelburg","postalCode":"57489","locality":"Drolshagen","municipality":{"key":"05966008","name":"Drolshagen, Stadt","type":"Stadt"},"district":{"key":"05966","name":"Olpe","type":"Kreis"},"federalState":{"key":"05","name":"Nordrhein-Westfalen"}},{"name":"Kurkölner Str.","postalCode":"57489","locality":"Drolshagen","municipality":{"key":"05966008","name":"Drolshagen, Stadt","type":"Stadt"},"district":{"key":"05966","name":"Olpe","type":"Kreis"},"federalState":{"key":"05","name":"Nordrhein-Westfalen"}},{"name":"Kurzer Weg","postalCode":"57489","locality":"Drolshagen","municipality":{"key":"05966008","name":"Drolshagen, Stadt","type":"Stadt"},"district":{"key":"05966","name":"Olpe","type":"Kreis"},"federalState":{"key":"05","name":"Nordrhein-Westfalen"}},{"name":"Landstr.","postalCode":"57489","locality":"Drolshagen","municipality":{"key":"05966008","name":"Drolshagen, Stadt","type":"Stadt"},"district":{"key":"05966","name":"Olpe","type":"Kreis"},"federalState":{"key":"05","name":"Nordrhein-Westfalen"}},{"name":"Lärchenweg","postalCode":"57489","locality":"Drolshagen","municipality":{"key":"05966008","name":"Drolshagen, Stadt","type":"Stadt"},"district":{"key":"05966","name":"Olpe","type":"Kreis"},"federalState":{"key":"05","name":"Nordrhein-Westfalen"}},{"name":"Lessingstr.","postalCode":"57489","locality":"Drolshagen","municipality":{"key":"05966008","name":"Drolshagen, Stadt","type":"Stadt"},"district":{"key":"05966","name":"Olpe","type":"Kreis"},"federalState":{"key":"05","name":"Nordrhein-Westfalen"}},{"name":"Lindenstr.","postalCode":"57489","locality":"Drolshagen","municipality":{"key":"05966008","name":"Drolshagen, Stadt","type":"Stadt"},"district":{"key":"05966","name":"Olpe","type":"Kreis"},"federalState":{"key":"05","name":"Nordrhein-Westfalen"}},{"name":"Listerstr.","postalCode":"57489","locality":"Drolshagen","municipality":{"key":"05966008","name":"Drolshagen, Stadt","type":"Stadt"},"district":{"key":"05966","name":"Olpe","type":"Kreis"},"federalState":{"key":"05","name":"Nordrhein-Westfalen"}},{"name":"Lohwiese","postalCode":"57489","locality":"Drolshagen","municipality":{"key":"05966008","name":"Drolshagen, Stadt","type":"Stadt"},"district":{"key":"05966","name":"Olpe","type":"Kreis"},"federalState":{"key":"05","name":"Nordrhein-Westfalen"}},{"name":"Lönsstr.","postalCode":"57489","locality":"Drolshagen","municipality":{"key":"05966008","name":"Drolshagen, Stadt","type":"Stadt"},"district":{"key":"05966","name":"Olpe","type":"Kreis"},"federalState":{"key":"05","name":"Nordrhein-Westfalen"}},{"name":"Lüttemicke","postalCode":"57489","locality":"Drolshagen","municipality":{"key":"05966008","name":"Drolshagen, Stadt","type":"Stadt"},"district":{"key":"05966","name":"Olpe","type":"Kreis"},"federalState":{"key":"05","name":"Nordrhein-Westfalen"}},{"name":"Lüttjenhan","postalCode":"57489","locality":"Drolshagen","municipality":{"key":"05966008","name":"Drolshagen, Stadt","type":"Stadt"},"district":{"key":"05966","name":"Olpe","type":"Kreis"},"federalState":{"key":"05","name":"Nordrhein-Westfalen"}},{"name":"Märkische Str.","postalCode":"57489","locality":"Drolshagen","municipality":{"key":"05966008","name":"Drolshagen, Stadt","type":"Stadt"},"district":{"key":"05966","name":"Olpe","type":"Kreis"},"federalState":{"key":"05","name":"Nordrhein-Westfalen"}},{"name":"Marktplatz","postalCode":"57489","locality":"Drolshagen","municipality":{"key":"05966008","name":"Drolshagen, Stadt","type":"Stadt"},"district":{"key":"05966","name":"Olpe","type":"Kreis"},"federalState":{"key":"05","name":"Nordrhein-Westfalen"}},{"name":"Meisenweg","postalCode":"57489","locality":"Drolshagen","municipality":{"key":"05966008","name":"Drolshagen, Stadt","type":"Stadt"},"district":{"key":"05966","name":"Olpe","type":"Kreis"},"federalState":{"key":"05","name":"Nordrhein-Westfalen"}},{"name":"Mini Bike Park","postalCode":"57489","locality":"Drolshagen","municipality":{"key":"05966008","name":"Drolshagen, Stadt","type":"Stadt"},"district":{"key":"05966","name":"Olpe","type":"Kreis"},"federalState":{"key":"05","name":"Nordrhein-Westfalen"}},{"name":"Mittelweg","postalCode":"57489","locality":"Drolshagen","municipality":{"key":"05966008","name":"Drolshagen, Stadt","type":"Stadt"},"district":{"key":"05966","name":"Olpe","type":"Kreis"},"federalState":{"key":"05","name":"Nordrhein-Westfalen"}},{"name":"Nachtigallenweg","postalCode":"57489","locality":"Drolshagen","municipality":{"key":"05966008","name":"Drolshagen, Stadt","type":"Stadt"},"district":{"key":"05966","name":"Olpe","type":"Kreis"},"federalState":{"key":"05","name":"Nordrhein-Westfalen"}},{"name":"Napoleonstr.","postalCode":"57489","locality":"Drolshagen","municipality":{"key":"05966008","name":"Drolshagen, Stadt","type":"Stadt"},"district":{"key":"05966","name":"Olpe","type":"Kreis"},"federalState":{"key":"05","name":"Nordrhein-Westfalen"}},{"name":"Norbert-Scheele-Str.","postalCode":"57489","locality":"Drolshagen","municipality":{"key":"05966008","name":"Drolshagen, Stadt","type":"Stadt"},"district":{"key":"05966","name":"Olpe","type":"Kreis"},"federalState":{"key":"05","name":"Nordrhein-Westfalen"}},{"name":"Ober der Sengenau","postalCode":"57489","locality":"Drolshagen","municipality":{"key":"05966008","name":"Drolshagen, Stadt","type":"Stadt"},"district":{"key":"05966","name":"Olpe","type":"Kreis"},"federalState":{"key":"05","name":"Nordrhein-Westfalen"}},{"name":"Oberm Brinke","postalCode":"57489","locality":"Drolshagen","municipality":{"key":"05966008","name":"Drolshagen, Stadt","type":"Stadt"},"district":{"key":"05966","name":"Olpe","type":"Kreis"},"federalState":{"key":"05","name":"Nordrhein-Westfalen"}},{"name":"Oberm Garten","postalCode":"57489","locality":"Drolshagen","municipality":{"key":"05966008","name":"Drolshagen, Stadt","type":"Stadt"},"district":{"key":"05966","name":"Olpe","type":"Kreis"},"federalState":{"key":"05","name":"Nordrhein-Westfalen"}},{"name":"Olper Str.","postalCode":"57489","locality":"Drolshagen","municipality":{"key":"05966008","name":"Drolshagen, Stadt","type":"Stadt"},"district":{"key":"05966","name":"Olpe","type":"Kreis"},"federalState":{"key":"05","name":"Nordrhein-Westfalen"}},{"name":"Op'm Stupper","postalCode":"57489","locality":"Drolshagen","municipality":{"key":"05966008","name":"Drolshagen, Stadt","type":"Stadt"},"district":{"key":"05966","name":"Olpe","type":"Kreis"},"federalState":{"key":"05","name":"Nordrhein-Westfalen"}},{"name":"Otzemicker Weg","postalCode":"57489","locality":"Drolshagen","municipality":{"key":"05966008","name":"Drolshagen, Stadt","type":"Stadt"},"district":{"key":"05966","name":"Olpe","type":"Kreis"},"federalState":{"key":"05","name":"Nordrhein-Westfalen"}},{"name":"Pater-Kruse-Weg","postalCode":"57489","locality":"Drolshagen","municipality":{"key":"05966008","name":"Drolshagen, Stadt","type":"Stadt"},"district":{"key":"05966","name":"Olpe","type":"Kreis"},"federalState":{"key":"05","name":"Nordrhein-Westfalen"}},{"name":"Piewickweg","postalCode":"57489","locality":"Drolshagen","municipality":{"key":"05966008","name":"Drolshagen, Stadt","type":"Stadt"},"district":{"key":"05966","name":"Olpe","type":"Kreis"},"federalState":{"key":"05","name":"Nordrhein-Westfalen"}},{"name":"Postweg","postalCode":"57489","locality":"Drolshagen","municipality":{"key":"05966008","name":"Drolshagen, Stadt","type":"Stadt"},"district":{"key":"05966","name":"Olpe","type":"Kreis"},"federalState":{"key":"05","name":"Nordrhein-Westfalen"}},{"name":"Potzenhof","postalCode":"57489","locality":"Drolshagen","municipality":{"key":"05966008","name":"Drolshagen, Stadt","type":"Stadt"},"district":{"key":"05966","name":"Olpe","type":"Kreis"},"federalState":{"key":"05","name":"Nordrhein-Westfalen"}},{"name":"Prof.-Rüsche-Str.","postalCode":"57489","locality":"Drolshagen","municipality":{"key":"05966008","name":"Drolshagen, Stadt","type":"Stadt"},"district":{"key":"05966","name":"Olpe","type":"Kreis"},"federalState":{"key":"05","name":"Nordrhein-Westfalen"}},{"name":"Querstr.","postalCode":"19372","locality":"Stolpe","municipality":{"key":"13076129","name":"Stolpe","type":"Kreisangehörige_Gemeinde"},"district":{"key":"13076","name":"Ludwigslust-Parchim","type":"Landkreis"},"federalState":{"key":"13","name":"Mecklenburg-Vorpommern"}},{"name":"Raiffeisenstr.","postalCode":"57489","locality":"Drolshagen","municipality":{"key":"05966008","name":"Drolshagen, Stadt","type":"Stadt"},"district":{"key":"05966","name":"Olpe","type":"Kreis"},"federalState":{"key":"05","name":"Nordrhein-Westfalen"}},{"name":"Rheinlandstr.","postalCode":"57489","locality":"Drolshagen","municipality":{"key":"05966008","name":"Drolshagen, Stadt","type":"Stadt"},"district":{"key":"05966","name":"Olpe","type":"Kreis"},"federalState":{"key":"05","name":"Nordrhein-Westfalen"}},{"name":"Rohlandweg","postalCode":"57489","locality":"Drolshagen","municipality":{"key":"05966008","name":"Drolshagen, Stadt","type":"Stadt"},"district":{"key":"05966","name":"Olpe","type":"Kreis"},"federalState":{"key":"05","name":"Nordrhein-Westfalen"}},{"name":"Rosenthaler Weg","postalCode":"57489","locality":"Drolshagen","municipality":{"key":"05966008","name":"Drolshagen, Stadt","type":"Stadt"},"district":{"key":"05966","name":"Olpe","type":"Kreis"},"federalState":{"key":"05","name":"Nordrhein-Westfalen"}},{"name":"Rosenweg","postalCode":"57489","locality":"Drolshagen","municipality":{"key":"05966008","name":"Drolshagen, Stadt","type":"Stadt"},"district":{"key":"05966","name":"Olpe","type":"Kreis"},"federalState":{"key":"05","name":"Nordrhein-Westfalen"}},{"name":"Rosestr.","postalCode":"57489","locality":"Drolshagen","municipality":{"key":"05966008","name":"Drolshagen, Stadt","type":"Stadt"},"district":{"key":"05966","name":"Olpe","type":"Kreis"},"federalState":{"key":"05","name":"Nordrhein-Westfalen"}},{"name":"Rother Weg","postalCode":"57489","locality":"Drolshagen","municipality":{"key":"05966008","name":"Drolshagen, Stadt","type":"Stadt"},"district":{"key":"05966","name":"Olpe","type":"Kreis"},"federalState":{"key":"05","name":"Nordrhein-Westfalen"}},{"name":"Schillerstr.","postalCode":"57489","locality":"Drolshagen","municipality":{"key":"05966008","name":"Drolshagen, Stadt","type":"Stadt"},"district":{"key":"05966","name":"Olpe","type":"Kreis"},"federalState":{"key":"05","name":"Nordrhein-Westfalen"}},{"name":"Schlenke","postalCode":"57489","locality":"Drolshagen","municipality":{"key":"05966008","name":"Drolshagen, Stadt","type":"Stadt"},"district":{"key":"05966","name":"Olpe","type":"Kreis"},"federalState":{"key":"05","name":"Nordrhein-Westfalen"}},{"name":"Schulweg","postalCode":"57489","locality":"Drolshagen","municipality":{"key":"05966008","name":"Drolshagen, Stadt","type":"Stadt"},"district":{"key":"05966","name":"Olpe","type":"Kreis"},"federalState":{"key":"05","name":"Nordrhein-Westfalen"}},{"name":"Schürholzer Str.","postalCode":"57489","locality":"Drolshagen","municipality":{"key":"05966008","name":"Drolshagen, Stadt","type":"Stadt"},"district":{"key":"05966","name":"Olpe","type":"Kreis"},"federalState":{"key":"05","name":"Nordrhein-Westfalen"}},{"name":"Schützenbruch","postalCode":"57489","locality":"Drolshagen","municipality":{"key":"05966008","name":"Drolshagen, Stadt","type":"Stadt"},"district":{"key":"05966","name":"Olpe","type":"Kreis"},"federalState":{"key":"05","name":"Nordrhein-Westfalen"}},{"name":"Schützenplatz Iseringhausen","postalCode":"57489","locality":"Drolshagen","municipality":{"key":"05966008","name":"Drolshagen, Stadt","type":"Stadt"},"district":{"key":"05966","name":"Olpe","type":"Kreis"},"federalState":{"key":"05","name":"Nordrhein-Westfalen"}},{"name":"Schützenstr.","postalCode":"57489","locality":"Drolshagen","municipality":{"key":"05966008","name":"Drolshagen, Stadt","type":"Stadt"},"district":{"key":"05966","name":"Olpe","type":"Kreis"},"federalState":{"key":"05","name":"Nordrhein-Westfalen"}},{"name":"Schwalbenweg","postalCode":"57489","locality":"Drolshagen","municipality":{"key":"05966008","name":"Drolshagen, Stadt","type":"Stadt"},"district":{"key":"05966","name":"Olpe","type":"Kreis"},"federalState":{"key":"05","name":"Nordrhein-Westfalen"}},{"name":"Schwester-Huberta-Weg","postalCode":"57489","locality":"Drolshagen","municipality":{"key":"05966008","name":"Drolshagen, Stadt","type":"Stadt"},"district":{"key":"05966","name":"Olpe","type":"Kreis"},"federalState":{"key":"05","name":"Nordrhein-Westfalen"}},{"name":"Seeblick","postalCode":"57489","locality":"Drolshagen","municipality":{"key":"05966008","name":"Drolshagen, Stadt","type":"Stadt"},"district":{"key":"05966","name":"Olpe","type":"Kreis"},"federalState":{"key":"05","name":"Nordrhein-Westfalen"}},{"name":"Seestr.","postalCode":"57489","locality":"Drolshagen","municipality":{"key":"05966008","name":"Drolshagen, Stadt","type":"Stadt"},"district":{"key":"05966","name":"Olpe","type":"Kreis"},"federalState":{"key":"05","name":"Nordrhein-Westfalen"}},{"name":"Sendschotter Weg","postalCode":"57489","locality":"Drolshagen","municipality":{"key":"05966008","name":"Drolshagen, Stadt","type":"Stadt"},"district":{"key":"05966","name":"Olpe","type":"Kreis"},"federalState":{"key":"05","name":"Nordrhein-Westfalen"}},{"name":"Sengenauer Weg","postalCode":"57489","locality":"Drolshagen","municipality":{"key":"05966008","name":"Drolshagen, Stadt","type":"Stadt"},"district":{"key":"05966","name":"Olpe","type":"Kreis"},"federalState":{"key":"05","name":"Nordrhein-Westfalen"}},{"name":"Simonspike","postalCode":"57489","locality":"Drolshagen","municipality":{"key":"05966008","name":"Drolshagen, Stadt","type":"Stadt"},"district":{"key":"05966","name":"Olpe","type":"Kreis"},"federalState":{"key":"05","name":"Nordrhein-Westfalen"}},{"name":"Sonnenstr.","postalCode":"57489","locality":"Drolshagen","municipality":{"key":"05966008","name":"Drolshagen, Stadt","type":"Stadt"},"district":{"key":"05966","name":"Olpe","type":"Kreis"},"federalState":{"key":"05","name":"Nordrhein-Westfalen"}},{"name":"Spechtweg","postalCode":"57489","locality":"Drolshagen","municipality":{"key":"05966008","name":"Drolshagen, Stadt","type":"Stadt"},"district":{"key":"05966","name":"Olpe","type":"Kreis"},"federalState":{"key":"05","name":"Nordrhein-Westfalen"}},{"name":"Stadtpark Lohmühle","postalCode":"57489","locality":"Drolshagen","municipality":{"key":"05966008","name":"Drolshagen, Stadt","type":"Stadt"},"district":{"key":"05966","name":"Olpe","type":"Kreis"},"federalState":{"key":"05","name":"Nordrhein-Westfalen"}},{"name":"Starenweg","postalCode":"57489","locality":"Drolshagen","municipality":{"key":"05966008","name":"Drolshagen, Stadt","type":"Stadt"},"district":{"key":"05966","name":"Olpe","type":"Kreis"},"federalState":{"key":"05","name":"Nordrhein-Westfalen"}},{"name":"Stengemicke","postalCode":"57489","locality":"Drolshagen","municipality":{"key":"05966008","name":"Drolshagen, Stadt","type":"Stadt"},"district":{"key":"05966","name":"Olpe","type":"Kreis"},"federalState":{"key":"05","name":"Nordrhein-Westfalen"}},{"name":"Stockhagen","postalCode":"57489","locality":"Drolshagen","municipality":{"key":"05966008","name":"Drolshagen, Stadt","type":"Stadt"},"district":{"key":"05966","name":"Olpe","type":"Kreis"},"federalState":{"key":"05","name":"Nordrhein-Westfalen"}},{"name":"Stuckenfeld","postalCode":"57489","locality":"Drolshagen","municipality":{"key":"05966008","name":"Drolshagen, Stadt","type":"Stadt"},"district":{"key":"05966","name":"Olpe","type":"Kreis"},"federalState":{"key":"05","name":"Nordrhein-Westfalen"}},{"name":"Südstr.","postalCode":"57489","locality":"Drolshagen","municipality":{"key":"05966008","name":"Drolshagen, Stadt","type":"Stadt"},"district":{"key":"05966","name":"Olpe","type":"Kreis"},"federalState":{"key":"05","name":"Nordrhein-Westfalen"}},{"name":"Talblick","postalCode":"57489","locality":"Drolshagen","municipality":{"key":"05966008","name":"Drolshagen, Stadt","type":"Stadt"},"district":{"key":"05966","name":"Olpe","type":"Kreis"},"federalState":{"key":"05","name":"Nordrhein-Westfalen"}},{"name":"Talerweg","postalCode":"57489","locality":"Drolshagen","municipality":{"key":"05966008","name":"Drolshagen, Stadt","type":"Stadt"},"district":{"key":"05966","name":"Olpe","type":"Kreis"},"federalState":{"key":"05","name":"Nordrhein-Westfalen"}},{"name":"Talstr.","postalCode":"57489","locality":"Drolshagen","municipality":{"key":"05966008","name":"Drolshagen, Stadt","type":"Stadt"},"district":{"key":"05966","name":"Olpe","type":"Kreis"},"federalState":{"key":"05","name":"Nordrhein-Westfalen"}},{"name":"Tannenweg","postalCode":"57489","locality":"Drolshagen","municipality":{"key":"05966008","name":"Drolshagen, Stadt","type":"Stadt"},"district":{"key":"05966","name":"Olpe","type":"Kreis"},"federalState":{"key":"05","name":"Nordrhein-Westfalen"}},{"name":"Tiggesweg","postalCode":"57489","locality":"Drolshagen","municipality":{"key":"05966008","name":"Drolshagen, Stadt","type":"Stadt"},"district":{"key":"05966","name":"Olpe","type":"Kreis"},"federalState":{"key":"05","name":"Nordrhein-Westfalen"}},{"name":"Unter den Fichten","postalCode":"57489","locality":"Drolshagen","municipality":{"key":"05966008","name":"Drolshagen, Stadt","type":"Stadt"},"district":{"key":"05966","name":"Olpe","type":"Kreis"},"federalState":{"key":"05","name":"Nordrhein-Westfalen"}},{"name":"Unter der Löwe","postalCode":"57489","locality":"Drolshagen","municipality":{"key":"05966008","name":"Drolshagen, Stadt","type":"Stadt"},"district":{"key":"05966","name":"Olpe","type":"Kreis"},"federalState":{"key":"05","name":"Nordrhein-Westfalen"}},{"name":"Unter der Schule","postalCode":"57489","locality":"Drolshagen","municipality":{"key":"05966008","name":"Drolshagen, Stadt","type":"Stadt"},"district":{"key":"05966","name":"Olpe","type":"Kreis"},"federalState":{"key":"05","name":"Nordrhein-Westfalen"}},{"name":"Unterdorf","postalCode":"57489","locality":"Drolshagen","municipality":{"key":"05966008","name":"Drolshagen, Stadt","type":"Stadt"},"district":{"key":"05966","name":"Olpe","type":"Kreis"},"federalState":{"key":"05","name":"Nordrhein-Westfalen"}},{"name":"Unterm Auwer","postalCode":"57489","locality":"Drolshagen","municipality":{"key":"05966008","name":"Drolshagen, Stadt","type":"Stadt"},"district":{"key":"05966","name":"Olpe","type":"Kreis"},"federalState":{"key":"05","name":"Nordrhein-Westfalen"}},{"name":"Unterm Espen","postalCode":"57489","locality":"Drolshagen","municipality":{"key":"05966008","name":"Drolshagen, Stadt","type":"Stadt"},"district":{"key":"05966","name":"Olpe","type":"Kreis"},"federalState":{"key":"05","name":"Nordrhein-Westfalen"}},{"name":"Unterm Feuerteich","postalCode":"57489","locality":"Drolshagen","municipality":{"key":"05966008","name":"Drolshagen, Stadt","type":"Stadt"},"district":{"key":"05966","name":"Olpe","type":"Kreis"},"federalState":{"key":"05","name":"Nordrhein-Westfalen"}},{"name":"Unterm Gallenlöh","postalCode":"57489","locality":"Drolshagen","municipality":{"key":"05966008","name":"Drolshagen, Stadt","type":"Stadt"},"district":{"key":"05966","name":"Olpe","type":"Kreis"},"federalState":{"key":"05","name":"Nordrhein-Westfalen"}},{"name":"Unterm Hölzchen","postalCode":"57489","locality":"Drolshagen","municipality":{"key":"05966008","name":"Drolshagen, Stadt","type":"Stadt"},"district":{"key":"05966","name":"Olpe","type":"Kreis"},"federalState":{"key":"05","name":"Nordrhein-Westfalen"}},{"name":"Unterm Schmierhagen","postalCode":"57489","locality":"Drolshagen","municipality":{"key":"05966008","name":"Drolshagen, Stadt","type":"Stadt"},"district":{"key":"05966","name":"Olpe","type":"Kreis"},"federalState":{"key":"05","name":"Nordrhein-Westfalen"}},{"name":"Unterm Timmerberg","postalCode":"57489","locality":"Drolshagen","municipality":{"key":"05966008","name":"Drolshagen, Stadt","type":"Stadt"},"district":{"key":"05966","name":"Olpe","type":"Kreis"},"federalState":{"key":"05","name":"Nordrhein-Westfalen"}},{"name":"Vikar-Wächter-Weg","postalCode":"57489","locality":"Drolshagen","municipality":{"key":"05966008","name":"Drolshagen, Stadt","type":"Stadt"},"district":{"key":"05966","name":"Olpe","type":"Kreis"},"federalState":{"key":"05","name":"Nordrhein-Westfalen"}},{"name":"Vor der Birke","postalCode":"57489","locality":"Drolshagen","municipality":{"key":"05966008","name":"Drolshagen, Stadt","type":"Stadt"},"district":{"key":"05966","name":"Olpe","type":"Kreis"},"federalState":{"key":"05","name":"Nordrhein-Westfalen"}},{"name":"Vor der Scheibe","postalCode":"57489","locality":"Drolshagen","municipality":{"key":"05966008","name":"Drolshagen, Stadt","type":"Stadt"},"district":{"key":"05966","name":"Olpe","type":"Kreis"},"federalState":{"key":"05","name":"Nordrhein-Westfalen"}},{"name":"Vorm Bahnhof","postalCode":"57489","locality":"Drolshagen","municipality":{"key":"05966008","name":"Drolshagen, Stadt","type":"Stadt"},"district":{"key":"05966","name":"Olpe","type":"Kreis"},"federalState":{"key":"05","name":"Nordrhein-Westfalen"}},{"name":"Vorm Bruch","postalCode":"57489","locality":"Drolshagen","municipality":{"key":"05966008","name":"Drolshagen, Stadt","type":"Stadt"},"district":{"key":"05966","name":"Olpe","type":"Kreis"},"federalState":{"key":"05","name":"Nordrhein-Westfalen"}},{"name":"Vorm Heiensiepen","postalCode":"57489","locality":"Drolshagen","municipality":{"key":"05966008","name":"Drolshagen, Stadt","type":"Stadt"},"district":{"key":"05966","name":"Olpe","type":"Kreis"},"federalState":{"key":"05","name":"Nordrhein-Westfalen"}},{"name":"Vorm Hofe","postalCode":"57489","locality":"Drolshagen","municipality":{"key":"05966008","name":"Drolshagen, Stadt","type":"Stadt"},"district":{"key":"05966","name":"Olpe","type":"Kreis"},"federalState":{"key":"05","name":"Nordrhein-Westfalen"}},{"name":"Vorm Löh","postalCode":"57489","locality":"Drolshagen","municipality":{"key":"05966008","name":"Drolshagen, Stadt","type":"Stadt"},"district":{"key":"05966","name":"Olpe","type":"Kreis"},"federalState":{"key":"05","name":"Nordrhein-Westfalen"}},{"name":"Voßhölzchen","postalCode":"57489","locality":"Drolshagen","municipality":{"key":"05966008","name":"Drolshagen, Stadt","type":"Stadt"},"district":{"key":"05966","name":"Olpe","type":"Kreis"},"federalState":{"key":"05","name":"Nordrhein-Westfalen"}},{"name":"Waldweg","postalCode":"57489","locality":"Drolshagen","municipality":{"key":"05966008","name":"Drolshagen, Stadt","type":"Stadt"},"district":{"key":"05966","name":"Olpe","type":"Kreis"},"federalState":{"key":"05","name":"Nordrhein-Westfalen"}},{"name":"Weinfeld","postalCode":"57489","locality":"Drolshagen","municipality":{"key":"05966008","name":"Drolshagen, Stadt","type":"Stadt"},"district":{"key":"05966","name":"Olpe","type":"Kreis"},"federalState":{"key":"05","name":"Nordrhein-Westfalen"}},{"name":"Weißdornstr.","postalCode":"57489","locality":"Drolshagen","municipality":{"key":"05966008","name":"Drolshagen, Stadt","type":"Stadt"},"district":{"key":"05966","name":"Olpe","type":"Kreis"},"federalState":{"key":"05","name":"Nordrhein-Westfalen"}},{"name":"Weststr.","postalCode":"57489","locality":"Drolshagen","municipality":{"key":"05966008","name":"Drolshagen, Stadt","type":"Stadt"},"district":{"key":"05966","name":"Olpe","type":"Kreis"},"federalState":{"key":"05","name":"Nordrhein-Westfalen"}},{"name":"Wiesenstr.","postalCode":"57489","locality":"Drolshagen","municipality":{"key":"05966008","name":"Drolshagen, Stadt","type":"Stadt"},"district":{"key":"05966","name":"Olpe","type":"Kreis"},"federalState":{"key":"05","name":"Nordrhein-Westfalen"}},{"name":"Wiggerhof","postalCode":"57489","locality":"Drolshagen","municipality":{"key":"05966008","name":"Drolshagen, Stadt","type":"Stadt"},"district":{"key":"05966","name":"Olpe","type":"Kreis"},"federalState":{"key":"05","name":"Nordrhein-Westfalen"}},{"name":"Wilhelm-Busch-Weg","postalCode":"57489","locality":"Drolshagen","municipality":{"key":"05966008","name":"Drolshagen, Stadt","type":"Stadt"},"district":{"key":"05966","name":"Olpe","type":"Kreis"},"federalState":{"key":"05","name":"Nordrhein-Westfalen"}},{"name":"Wintersohl","postalCode":"57489","locality":"Drolshagen","municipality":{"key":"05966008","name":"Drolshagen, Stadt","type":"Stadt"},"district":{"key":"05966","name":"Olpe","type":"Kreis"},"federalState":{"key":"05","name":"Nordrhein-Westfalen"}},{"name":"Wintersohler Str.","postalCode":"57489","locality":"Drolshagen","municipality":{"key":"05966008","name":"Drolshagen, Stadt","type":"Stadt"},"district":{"key":"05966","name":"Olpe","type":"Kreis"},"federalState":{"key":"05","name":"Nordrhein-Westfalen"}},{"name":"Zipperlingssiepen","postalCode":"57489","locality":"Drolshagen","municipality":{"key":"05966008","name":"Drolshagen, Stadt","type":"Stadt"},"district":{"key":"05966","name":"Olpe","type":"Kreis"},"federalState":{"key":"05","name":"Nordrhein-Westfalen"}},{"name":"Zum Bildstock","postalCode":"57489","locality":"Drolshagen","municipality":{"key":"05966008","name":"Drolshagen, Stadt","type":"Stadt"},"district":{"key":"05966","name":"Olpe","type":"Kreis"},"federalState":{"key":"05","name":"Nordrhein-Westfalen"}},{"name":"Zum Buchenwald","postalCode":"57489","locality":"Drolshagen","municipality":{"key":"05966008","name":"Drolshagen, Stadt","type":"Stadt"},"district":{"key":"05966","name":"Olpe","type":"Kreis"},"federalState":{"key":"05","name":"Nordrhein-Westfalen"}},{"name":"Zum Eckkamp","postalCode":"57489","locality":"Drolshagen","municipality":{"key":"05966008","name":"Drolshagen, Stadt","type":"Stadt"},"district":{"key":"05966","name":"Olpe","type":"Kreis"},"federalState":{"key":"05","name":"Nordrhein-Westfalen"}},{"name":"Zum Höchsten","postalCode":"57489","locality":"Drolshagen","municipality":{"key":"05966008","name":"Drolshagen, Stadt","type":"Stadt"},"district":{"key":"05966","name":"Olpe","type":"Kreis"},"federalState":{"key":"05","name":"Nordrhein-Westfalen"}},{"name":"Zum Knapp","postalCode":"57489","locality":"Drolshagen","municipality":{"key":"05966008","name":"Drolshagen, Stadt","type":"Stadt"},"district":{"key":"05966","name":"Olpe","type":"Kreis"},"federalState":{"key":"05","name":"Nordrhein-Westfalen"}},{"name":"Zum Laufhagen","postalCode":"57489","locality":"Drolshagen","municipality":{"key":"05966008","name":"Drolshagen, Stadt","type":"Stadt"},"district":{"key":"05966","name":"Olpe","type":"Kreis"},"federalState":{"key":"05","name":"Nordrhein-Westfalen"}},{"name":"Zum Listersee","postalCode":"57489","locality":"Drolshagen","municipality":{"key":"05966008","name":"Drolshagen, Stadt","type":"Stadt"},"district":{"key":"05966","name":"Olpe","type":"Kreis"},"federalState":{"key":"05","name":"Nordrhein-Westfalen"}},{"name":"Zum Oberdorf","postalCode":"57489","locality":"Drolshagen","municipality":{"key":"05966008","name":"Drolshagen, Stadt","type":"Stadt"},"district":{"key":"05966","name":"Olpe","type":"Kreis"},"federalState":{"key":"05","name":"Nordrhein-Westfalen"}},{"name":"Zum Schlagbaum","postalCode":"57489","locality":"Drolshagen","municipality":{"key":"05966008","name":"Drolshagen, Stadt","type":"Stadt"},"district":{"key":"05966","name":"Olpe","type":"Kreis"},"federalState":{"key":"05","name":"Nordrhein-Westfalen"}},{"name":"Zum Springer","postalCode":"57489","locality":"Drolshagen","municipality":{"key":"05966008","name":"Drolshagen, Stadt","type":"Stadt"},"district":{"key":"05966","name":"Olpe","type":"Kreis"},"federalState":{"key":"05","name":"Nordrhein-Westfalen"}},{"name":"Zum Wiesental","postalCode":"57489","locality":"Drolshagen","municipality":{"key":"05966008","name":"Drolshagen, Stadt","type":"Stadt"},"district":{"key":"05966","name":"Olpe","type":"Kreis"},"federalState":{"key":"05","name":"Nordrhein-Westfalen"}},{"name":"Zur alten Kapelle","postalCode":"57489","locality":"Drolshagen","municipality":{"key":"05966008","name":"Drolshagen, Stadt","type":"Stadt"},"district":{"key":"05966","name":"Olpe","type":"Kreis"},"federalState":{"key":"05","name":"Nordrhein-Westfalen"}},{"name":"Zur Beichel","postalCode":"57489","locality":"Drolshagen","municipality":{"key":"05966008","name":"Drolshagen, Stadt","type":"Stadt"},"district":{"key":"05966","name":"Olpe","type":"Kreis"},"federalState":{"key":"05","name":"Nordrhein-Westfalen"}},{"name":"Zur Bitze","postalCode":"57489","locality":"Drolshagen","municipality":{"key":"05966008","name":"Drolshagen, Stadt","type":"Stadt"},"district":{"key":"05966","name":"Olpe","type":"Kreis"},"federalState":{"key":"05","name":"Nordrhein-Westfalen"}},{"name":"Zur Burg","postalCode":"57489","locality":"Drolshagen","municipality":{"key":"05966008","name":"Drolshagen, Stadt","type":"Stadt"},"district":{"key":"05966","name":"Olpe","type":"Kreis"},"federalState":{"key":"05","name":"Nordrhein-Westfalen"}},{"name":"Zur Deitmicke","postalCode":"57489","locality":"Drolshagen","municipality":{"key":"05966008","name":"Drolshagen, Stadt","type":"Stadt"},"district":{"key":"05966","name":"Olpe","type":"Kreis"},"federalState":{"key":"05","name":"Nordrhein-Westfalen"}},{"name":"Zur Delle","postalCode":"57489","locality":"Drolshagen","municipality":{"key":"05966008","name":"Drolshagen, Stadt","type":"Stadt"},"district":{"key":"05966","name":"Olpe","type":"Kreis"},"federalState":{"key":"05","name":"Nordrhein-Westfalen"}},{"name":"Zur Eulenbuche","postalCode":"57489","locality":"Drolshagen","municipality":{"key":"05966008","name":"Drolshagen, Stadt","type":"Stadt"},"district":{"key":"05966","name":"Olpe","type":"Kreis"},"federalState":{"key":"05","name":"Nordrhein-Westfalen"}},{"name":"Zur Hofwiese","postalCode":"57489","locality":"Drolshagen","municipality":{"key":"05966008","name":"Drolshagen, Stadt","type":"Stadt"},"district":{"key":"05966","name":"Olpe","type":"Kreis"},"federalState":{"key":"05","name":"Nordrhein-Westfalen"}},{"name":"Zur Klauert","postalCode":"57489","locality":"Drolshagen","municipality":{"key":"05966008","name":"Drolshagen, Stadt","type":"Stadt"},"district":{"key":"05966","name":"Olpe","type":"Kreis"},"federalState":{"key":"05","name":"Nordrhein-Westfalen"}},{"name":"Zur Rehpicke","postalCode":"57489","locality":"Drolshagen","municipality":{"key":"05966008","name":"Drolshagen, Stadt","type":"Stadt"},"district":{"key":"05966","name":"Olpe","type":"Kreis"},"federalState":{"key":"05","name":"Nordrhein-Westfalen"}},{"name":"Zur Schlade","postalCode":"57489","locality":"Drolshagen","municipality":{"key":"05966008","name":"Drolshagen, Stadt","type":"Stadt"},"district":{"key":"05966","name":"Olpe","type":"Kreis"},"federalState":{"key":"05","name":"Nordrhein-Westfalen"}},{"name":"Zur Silberkuhle","postalCode":"57489","locality":"Drolshagen","municipality":{"key":"05966008","name":"Drolshagen, Stadt","type":"Stadt"},"district":{"key":"05966","name":"Olpe","type":"Kreis"},"federalState":{"key":"05","name":"Nordrhein-Westfalen"}},{"name":"Zur Stuwicke","postalCode":"57489","locality":"Drolshagen","municipality":{"key":"05966008","name":"Drolshagen, Stadt","type":"Stadt"},"district":{"key":"05966","name":"Olpe","type":"Kreis"},"federalState":{"key":"05","name":"Nordrhein-Westfalen"}},{"name":"Zur Vogelstange","postalCode":"57489","locality":"Drolshagen","municipality":{"key":"05966008","name":"Drolshagen, Stadt","type":"Stadt"},"district":{"key":"05966","name":"Olpe","type":"Kreis"},"federalState":{"key":"05","name":"Nordrhein-Westfalen"}},{"name":"Zur Wahlert","postalCode":"57489","locality":"Drolshagen","municipality":{"key":"05966008","name":"Drolshagen, Stadt","type":"Stadt"},"district":{"key":"05966","name":"Olpe","type":"Kreis"},"federalState":{"key":"05","name":"Nordrhein-Westfalen"}},{"name":"Überm See","postalCode":"57462","locality":"Olpe","municipality":{"key":"05966024","name":"Olpe, Stadt","type":"Stadt"},"district":{"key":"05966","name":"Olpe","type":"Kreis"},"federalState":{"key":"05","name":"Nordrhein-Westfalen"}},{"name":"Üggelmicke","postalCode":"57462","locality":"Olpe","municipality":{"key":"05966024","name":"Olpe, Stadt","type":"Stadt"},"district":{"key":"05966","name":"Olpe","type":"Kreis"},"federalState":{"key":"05","name":"Nordrhein-Westfalen"}},]