[{"name":"An der Massermühle","postalCode":"98746","locality":"Katzhütte","municipality":{"key":"16073037","name":"Katzhütte","type":"Kreisangehörige_Gemeinde"},"district":{"key":"16073","name":"Saalfeld-Rudolstadt","type":"Landkreis"},"federalState":{"key":"16","name":"Thüringen"}},{"name":"Bahnhofstr.","postalCode":"98746","locality":"Katzhütte","municipality":{"key":"16073037","name":"Katzhütte","type":"Kreisangehörige_Gemeinde"},"district":{"key":"16073","name":"Saalfeld-Rudolstadt","type":"Landkreis"},"federalState":{"key":"16","name":"Thüringen"}},{"name":"Baustr.","postalCode":"98746","locality":"Katzhütte","municipality":{"key":"16073037","name":"Katzhütte","type":"Kreisangehörige_Gemeinde"},"district":{"key":"16073","name":"Saalfeld-Rudolstadt","type":"Landkreis"},"federalState":{"key":"16","name":"Thüringen"}},{"name":"Blößenweg","postalCode":"98746","locality":"Katzhütte","municipality":{"key":"16073037","name":"Katzhütte","type":"Kreisangehörige_Gemeinde"},"district":{"key":"16073","name":"Saalfeld-Rudolstadt","type":"Landkreis"},"federalState":{"key":"16","name":"Thüringen"}},{"name":"Eisfelder Str.","postalCode":"98746","locality":"Katzhütte","municipality":{"key":"16073037","name":"Katzhütte","type":"Kreisangehörige_Gemeinde"},"district":{"key":"16073","name":"Saalfeld-Rudolstadt","type":"Landkreis"},"federalState":{"key":"16","name":"Thüringen"}},{"name":"Großbreitenbacher Str.","postalCode":"98746","locality":"Katzhütte","municipality":{"key":"16073037","name":"Katzhütte","type":"Kreisangehörige_Gemeinde"},"district":{"key":"16073","name":"Saalfeld-Rudolstadt","type":"Landkreis"},"federalState":{"key":"16","name":"Thüringen"}},{"name":"Herrenweg","postalCode":"98746","locality":"Katzhütte","municipality":{"key":"16073037","name":"Katzhütte","type":"Kreisangehörige_Gemeinde"},"district":{"key":"16073","name":"Saalfeld-Rudolstadt","type":"Landkreis"},"federalState":{"key":"16","name":"Thüringen"}},{"name":"Höllenweg","postalCode":"98746","locality":"Katzhütte","municipality":{"key":"16073037","name":"Katzhütte","type":"Kreisangehörige_Gemeinde"},"district":{"key":"16073","name":"Saalfeld-Rudolstadt","type":"Landkreis"},"federalState":{"key":"16","name":"Thüringen"}},{"name":"Macholdshiebsweg","postalCode":"98746","locality":"Katzhütte","municipality":{"key":"16073037","name":"Katzhütte","type":"Kreisangehörige_Gemeinde"},"district":{"key":"16073","name":"Saalfeld-Rudolstadt","type":"Landkreis"},"federalState":{"key":"16","name":"Thüringen"}},{"name":"Masserberger Str.","postalCode":"98746","locality":"Katzhütte","municipality":{"key":"16073037","name":"Katzhütte","type":"Kreisangehörige_Gemeinde"},"district":{"key":"16073","name":"Saalfeld-Rudolstadt","type":"Landkreis"},"federalState":{"key":"16","name":"Thüringen"}},{"name":"Neuhäuser Str.","postalCode":"98746","locality":"Katzhütte","municipality":{"key":"16073037","name":"Katzhütte","type":"Kreisangehörige_Gemeinde"},"district":{"key":"16073","name":"Saalfeld-Rudolstadt","type":"Landkreis"},"federalState":{"key":"16","name":"Thüringen"}},{"name":"Oberhammer","postalCode":"98746","locality":"Katzhütte","municipality":{"key":"16073037","name":"Katzhütte","type":"Kreisangehörige_Gemeinde"},"district":{"key":"16073","name":"Saalfeld-Rudolstadt","type":"Landkreis"},"federalState":{"key":"16","name":"Thüringen"}},{"name":"Oelzer Str.","postalCode":"98746","locality":"Katzhütte","municipality":{"key":"16073037","name":"Katzhütte","type":"Kreisangehörige_Gemeinde"},"district":{"key":"16073","name":"Saalfeld-Rudolstadt","type":"Landkreis"},"federalState":{"key":"16","name":"Thüringen"}},{"name":"Schillersteig","postalCode":"98746","locality":"Katzhütte","municipality":{"key":"16073037","name":"Katzhütte","type":"Kreisangehörige_Gemeinde"},"district":{"key":"16073","name":"Saalfeld-Rudolstadt","type":"Landkreis"},"federalState":{"key":"16","name":"Thüringen"}},{"name":"Schwarzburger Str.","postalCode":"98746","locality":"Katzhütte","municipality":{"key":"16073037","name":"Katzhütte","type":"Kreisangehörige_Gemeinde"},"district":{"key":"16073","name":"Saalfeld-Rudolstadt","type":"Landkreis"},"federalState":{"key":"16","name":"Thüringen"}},{"name":"Tal der weißen Schwarza","postalCode":"98746","locality":"Katzhütte","municipality":{"key":"16073037","name":"Katzhütte","type":"Kreisangehörige_Gemeinde"},"district":{"key":"16073","name":"Saalfeld-Rudolstadt","type":"Landkreis"},"federalState":{"key":"16","name":"Thüringen"}},]