[{"name":"Am Stockbrunnen","postalCode":"66978","locality":"Donsieders","municipality":{"key":"07340007","name":"Donsieders","type":"Kreisangehörige_Gemeinde"},"district":{"key":"07340","name":"Südwestpfalz","type":"Landkreis"},"federalState":{"key":"07","name":"Rheinland-Pfalz"}},{"name":"Biebermühle","postalCode":"66978","locality":"Donsieders","municipality":{"key":"07340007","name":"Donsieders","type":"Kreisangehörige_Gemeinde"},"district":{"key":"07340","name":"Südwestpfalz","type":"Landkreis"},"federalState":{"key":"07","name":"Rheinland-Pfalz"}},{"name":"Burgalber Str.","postalCode":"66978","locality":"Donsieders","municipality":{"key":"07340007","name":"Donsieders","type":"Kreisangehörige_Gemeinde"},"district":{"key":"07340","name":"Südwestpfalz","type":"Landkreis"},"federalState":{"key":"07","name":"Rheinland-Pfalz"}},{"name":"Clauser Str.","postalCode":"66978","locality":"Donsieders","municipality":{"key":"07340007","name":"Donsieders","type":"Kreisangehörige_Gemeinde"},"district":{"key":"07340","name":"Südwestpfalz","type":"Landkreis"},"federalState":{"key":"07","name":"Rheinland-Pfalz"}},{"name":"Flurstr.","postalCode":"66978","locality":"Donsieders","municipality":{"key":"07340007","name":"Donsieders","type":"Kreisangehörige_Gemeinde"},"district":{"key":"07340","name":"Südwestpfalz","type":"Landkreis"},"federalState":{"key":"07","name":"Rheinland-Pfalz"}},{"name":"Friedenstr.","postalCode":"66978","locality":"Donsieders","municipality":{"key":"07340007","name":"Donsieders","type":"Kreisangehörige_Gemeinde"},"district":{"key":"07340","name":"Südwestpfalz","type":"Landkreis"},"federalState":{"key":"07","name":"Rheinland-Pfalz"}},{"name":"Gartenstr.","postalCode":"66978","locality":"Donsieders","municipality":{"key":"07340007","name":"Donsieders","type":"Kreisangehörige_Gemeinde"},"district":{"key":"07340","name":"Südwestpfalz","type":"Landkreis"},"federalState":{"key":"07","name":"Rheinland-Pfalz"}},{"name":"Hauptstr.","postalCode":"66978","locality":"Donsieders","municipality":{"key":"07340007","name":"Donsieders","type":"Kreisangehörige_Gemeinde"},"district":{"key":"07340","name":"Südwestpfalz","type":"Landkreis"},"federalState":{"key":"07","name":"Rheinland-Pfalz"}},{"name":"Höhgasse","postalCode":"66978","locality":"Donsieders","municipality":{"key":"07340007","name":"Donsieders","type":"Kreisangehörige_Gemeinde"},"district":{"key":"07340","name":"Südwestpfalz","type":"Landkreis"},"federalState":{"key":"07","name":"Rheinland-Pfalz"}},{"name":"Höhstr.","postalCode":"66978","locality":"Donsieders","municipality":{"key":"07340007","name":"Donsieders","type":"Kreisangehörige_Gemeinde"},"district":{"key":"07340","name":"Südwestpfalz","type":"Landkreis"},"federalState":{"key":"07","name":"Rheinland-Pfalz"}},{"name":"Im Scheibelt","postalCode":"66978","locality":"Donsieders","municipality":{"key":"07340007","name":"Donsieders","type":"Kreisangehörige_Gemeinde"},"district":{"key":"07340","name":"Südwestpfalz","type":"Landkreis"},"federalState":{"key":"07","name":"Rheinland-Pfalz"}},{"name":"Mühlfeldstr.","postalCode":"66978","locality":"Donsieders","municipality":{"key":"07340007","name":"Donsieders","type":"Kreisangehörige_Gemeinde"},"district":{"key":"07340","name":"Südwestpfalz","type":"Landkreis"},"federalState":{"key":"07","name":"Rheinland-Pfalz"}},{"name":"Ringstr.","postalCode":"66978","locality":"Donsieders","municipality":{"key":"07340007","name":"Donsieders","type":"Kreisangehörige_Gemeinde"},"district":{"key":"07340","name":"Südwestpfalz","type":"Landkreis"},"federalState":{"key":"07","name":"Rheinland-Pfalz"}},{"name":"Rosenberger Weg","postalCode":"66978","locality":"Donsieders","municipality":{"key":"07340007","name":"Donsieders","type":"Kreisangehörige_Gemeinde"},"district":{"key":"07340","name":"Südwestpfalz","type":"Landkreis"},"federalState":{"key":"07","name":"Rheinland-Pfalz"}},{"name":"Schillerstr.","postalCode":"66978","locality":"Donsieders","municipality":{"key":"07340007","name":"Donsieders","type":"Kreisangehörige_Gemeinde"},"district":{"key":"07340","name":"Südwestpfalz","type":"Landkreis"},"federalState":{"key":"07","name":"Rheinland-Pfalz"}},{"name":"Schulstr.","postalCode":"66978","locality":"Donsieders","municipality":{"key":"07340007","name":"Donsieders","type":"Kreisangehörige_Gemeinde"},"district":{"key":"07340","name":"Südwestpfalz","type":"Landkreis"},"federalState":{"key":"07","name":"Rheinland-Pfalz"}},{"name":"Sonnenbergstr.","postalCode":"66978","locality":"Donsieders","municipality":{"key":"07340007","name":"Donsieders","type":"Kreisangehörige_Gemeinde"},"district":{"key":"07340","name":"Südwestpfalz","type":"Landkreis"},"federalState":{"key":"07","name":"Rheinland-Pfalz"}},{"name":"Triftstr.","postalCode":"66978","locality":"Donsieders","municipality":{"key":"07340007","name":"Donsieders","type":"Kreisangehörige_Gemeinde"},"district":{"key":"07340","name":"Südwestpfalz","type":"Landkreis"},"federalState":{"key":"07","name":"Rheinland-Pfalz"}},{"name":"Wiesenstr.","postalCode":"66978","locality":"Donsieders","municipality":{"key":"07340007","name":"Donsieders","type":"Kreisangehörige_Gemeinde"},"district":{"key":"07340","name":"Südwestpfalz","type":"Landkreis"},"federalState":{"key":"07","name":"Rheinland-Pfalz"}},]