[{"key":"10047635","name":"Chemin Bellevue","postalCode":"1971","locality":"Grimisuat","commune":{"key":"6263","name":"Grimisuat","shortName":"Grimisuat"},"district":{"key":"2312","name":"District de Sion"},"canton":{"key":"23","code":"VS","name":"Valais / Wallis"},"status":"Real"},{"key":"10135186","name":"Chemin de Béléjo","postalCode":"1971","locality":"Grimisuat","commune":{"key":"6263","name":"Grimisuat","shortName":"Grimisuat"},"district":{"key":"2312","name":"District de Sion"},"canton":{"key":"23","code":"VS","name":"Valais / Wallis"},"status":"Real"},{"key":"10193415","name":"Chemin de Bendolla","postalCode":"1971","locality":"Grimisuat","commune":{"key":"6263","name":"Grimisuat","shortName":"Grimisuat"},"district":{"key":"2312","name":"District de Sion"},"canton":{"key":"23","code":"VS","name":"Valais / Wallis"},"status":"Real"},{"key":"10192824","name":"Chemin de Champs Devant","postalCode":"1971","locality":"Champlan (Grimisuat)","commune":{"key":"6263","name":"Grimisuat","shortName":"Grimisuat"},"district":{"key":"2312","name":"District de Sion"},"canton":{"key":"23","code":"VS","name":"Valais / Wallis"},"status":"Real"},{"key":"10075734","name":"Chemin de Clagarins","postalCode":"1971","locality":"Champlan (Grimisuat)","commune":{"key":"6263","name":"Grimisuat","shortName":"Grimisuat"},"district":{"key":"2312","name":"District de Sion"},"canton":{"key":"23","code":"VS","name":"Valais / Wallis"},"status":"Real"},{"key":"10123695","name":"Chemin de Coudrine","postalCode":"1971","locality":"Grimisuat","commune":{"key":"6263","name":"Grimisuat","shortName":"Grimisuat"},"district":{"key":"2312","name":"District de Sion"},"canton":{"key":"23","code":"VS","name":"Valais / Wallis"},"status":"Real"},{"key":"10118982","name":"Chemin de la Cotzette","postalCode":"1971","locality":"Champlan (Grimisuat)","commune":{"key":"6263","name":"Grimisuat","shortName":"Grimisuat"},"district":{"key":"2312","name":"District de Sion"},"canton":{"key":"23","code":"VS","name":"Valais / Wallis"},"status":"Real"},{"key":"10047639","name":"Chemin de l'Etang Long","postalCode":"1971","locality":"Grimisuat","commune":{"key":"6263","name":"Grimisuat","shortName":"Grimisuat"},"district":{"key":"2312","name":"District de Sion"},"canton":{"key":"23","code":"VS","name":"Valais / Wallis"},"status":"Real"},{"key":"10197208","name":"Chemin de Nautze","postalCode":"1971","locality":"Grimisuat","commune":{"key":"6263","name":"Grimisuat","shortName":"Grimisuat"},"district":{"key":"2312","name":"District de Sion"},"canton":{"key":"23","code":"VS","name":"Valais / Wallis"},"status":"Real"},{"key":"10047636","name":"Chemin de Pierrabesse","postalCode":"1971","locality":"Grimisuat","commune":{"key":"6263","name":"Grimisuat","shortName":"Grimisuat"},"district":{"key":"2312","name":"District de Sion"},"canton":{"key":"23","code":"VS","name":"Valais / Wallis"},"status":"Real"},{"key":"10150717","name":"Chemin de Planson","postalCode":"1971","locality":"Champlan (Grimisuat)","commune":{"key":"6263","name":"Grimisuat","shortName":"Grimisuat"},"district":{"key":"2312","name":"District de Sion"},"canton":{"key":"23","code":"VS","name":"Valais / Wallis"},"status":"Real"},{"key":"10047637","name":"Chemin de Quitton","postalCode":"1971","locality":"Grimisuat","commune":{"key":"6263","name":"Grimisuat","shortName":"Grimisuat"},"district":{"key":"2312","name":"District de Sion"},"canton":{"key":"23","code":"VS","name":"Valais / Wallis"},"status":"Real"},{"key":"10196198","name":"Chemin de Réchy","postalCode":"1971","locality":"Grimisuat","commune":{"key":"6263","name":"Grimisuat","shortName":"Grimisuat"},"district":{"key":"2312","name":"District de Sion"},"canton":{"key":"23","code":"VS","name":"Valais / Wallis"},"status":"Real"},{"key":"10133415","name":"Chemin de Revouire","postalCode":"1971","locality":"Grimisuat","commune":{"key":"6263","name":"Grimisuat","shortName":"Grimisuat"},"district":{"key":"2312","name":"District de Sion"},"canton":{"key":"23","code":"VS","name":"Valais / Wallis"},"status":"Real"},{"key":"10196340","name":"Chemin des Bosquets","postalCode":"1971","locality":"Champlan (Grimisuat)","commune":{"key":"6263","name":"Grimisuat","shortName":"Grimisuat"},"district":{"key":"2312","name":"District de Sion"},"canton":{"key":"23","code":"VS","name":"Valais / Wallis"},"status":"Real"},{"key":"10075735","name":"Chemin des Chênes","postalCode":"1971","locality":"Grimisuat","commune":{"key":"6263","name":"Grimisuat","shortName":"Grimisuat"},"district":{"key":"2312","name":"District de Sion"},"canton":{"key":"23","code":"VS","name":"Valais / Wallis"},"status":"Real"},{"key":"10149253","name":"Chemin des Ecouennes","postalCode":"1971","locality":"Grimisuat","commune":{"key":"6263","name":"Grimisuat","shortName":"Grimisuat"},"district":{"key":"2312","name":"District de Sion"},"canton":{"key":"23","code":"VS","name":"Valais / Wallis"},"status":"Real"},{"key":"10098510","name":"Chemin des Fahires","postalCode":"1971","locality":"Grimisuat","commune":{"key":"6263","name":"Grimisuat","shortName":"Grimisuat"},"district":{"key":"2312","name":"District de Sion"},"canton":{"key":"23","code":"VS","name":"Valais / Wallis"},"status":"Real"},{"key":"10142939","name":"Chemin de Singline","postalCode":"1971","locality":"Grimisuat","commune":{"key":"6263","name":"Grimisuat","shortName":"Grimisuat"},"district":{"key":"2312","name":"District de Sion"},"canton":{"key":"23","code":"VS","name":"Valais / Wallis"},"status":"Real"},{"key":"10183446","name":"Chemin des Pins","postalCode":"1971","locality":"Grimisuat","commune":{"key":"6263","name":"Grimisuat","shortName":"Grimisuat"},"district":{"key":"2312","name":"District de Sion"},"canton":{"key":"23","code":"VS","name":"Valais / Wallis"},"status":"Real"},{"key":"10194894","name":"Chemin des Prisses","postalCode":"1971","locality":"Grimisuat","commune":{"key":"6263","name":"Grimisuat","shortName":"Grimisuat"},"district":{"key":"2312","name":"District de Sion"},"canton":{"key":"23","code":"VS","name":"Valais / Wallis"},"status":"Real"},{"key":"10047640","name":"Chemin des Rayes","postalCode":"1971","locality":"Champlan (Grimisuat)","commune":{"key":"6263","name":"Grimisuat","shortName":"Grimisuat"},"district":{"key":"2312","name":"District de Sion"},"canton":{"key":"23","code":"VS","name":"Valais / Wallis"},"status":"Real"},{"key":"10193871","name":"Chemin des Tsâbloz","postalCode":"1971","locality":"Grimisuat","commune":{"key":"6263","name":"Grimisuat","shortName":"Grimisuat"},"district":{"key":"2312","name":"District de Sion"},"canton":{"key":"23","code":"VS","name":"Valais / Wallis"},"status":"Real"},{"key":"10098509","name":"Chemin de Sussempy","postalCode":"1971","locality":"Grimisuat","commune":{"key":"6263","name":"Grimisuat","shortName":"Grimisuat"},"district":{"key":"2312","name":"District de Sion"},"canton":{"key":"23","code":"VS","name":"Valais / Wallis"},"status":"Real"},{"key":"10098511","name":"Chemin des Versannes","postalCode":"1971","locality":"Grimisuat","commune":{"key":"6263","name":"Grimisuat","shortName":"Grimisuat"},"district":{"key":"2312","name":"District de Sion"},"canton":{"key":"23","code":"VS","name":"Valais / Wallis"},"status":"Real"},{"key":"10048331","name":"Chemin des Vignes","postalCode":"1971","locality":"Champlan (Grimisuat)","commune":{"key":"6263","name":"Grimisuat","shortName":"Grimisuat"},"district":{"key":"2312","name":"District de Sion"},"canton":{"key":"23","code":"VS","name":"Valais / Wallis"},"status":"Real"},{"key":"10201437","name":"Chemin de Zarzé","postalCode":"1971","locality":"Grimisuat","commune":{"key":"6263","name":"Grimisuat","shortName":"Grimisuat"},"district":{"key":"2312","name":"District de Sion"},"canton":{"key":"23","code":"VS","name":"Valais / Wallis"},"status":"Real"},{"key":"10047638","name":"Chemin de Zavuisse","postalCode":"1971","locality":"Grimisuat","commune":{"key":"6263","name":"Grimisuat","shortName":"Grimisuat"},"district":{"key":"2312","name":"District de Sion"},"canton":{"key":"23","code":"VS","name":"Valais / Wallis"},"status":"Real"},{"key":"10196196","name":"Chemin du Chasselas","postalCode":"1971","locality":"Champlan (Grimisuat)","commune":{"key":"6263","name":"Grimisuat","shortName":"Grimisuat"},"district":{"key":"2312","name":"District de Sion"},"canton":{"key":"23","code":"VS","name":"Valais / Wallis"},"status":"Real"},{"key":"10075736","name":"Chemin du Home","postalCode":"1971","locality":"Grimisuat","commune":{"key":"6263","name":"Grimisuat","shortName":"Grimisuat"},"district":{"key":"2312","name":"District de Sion"},"canton":{"key":"23","code":"VS","name":"Valais / Wallis"},"status":"Real"},{"key":"10196199","name":"Chemin du Plateau","postalCode":"1971","locality":"Champlan (Grimisuat)","commune":{"key":"6263","name":"Grimisuat","shortName":"Grimisuat"},"district":{"key":"2312","name":"District de Sion"},"canton":{"key":"23","code":"VS","name":"Valais / Wallis"},"status":"Real"},{"key":"10048332","name":"Chemin du Point de Vue","postalCode":"1971","locality":"Champlan (Grimisuat)","commune":{"key":"6263","name":"Grimisuat","shortName":"Grimisuat"},"district":{"key":"2312","name":"District de Sion"},"canton":{"key":"23","code":"VS","name":"Valais / Wallis"},"status":"Real"},{"key":"10098775","name":"Chemin du Postillon","postalCode":"1971","locality":"Champlan (Grimisuat)","commune":{"key":"6263","name":"Grimisuat","shortName":"Grimisuat"},"district":{"key":"2312","name":"District de Sion"},"canton":{"key":"23","code":"VS","name":"Valais / Wallis"},"status":"Real"},{"key":"10134630","name":"Chemin du Ranch","postalCode":"1971","locality":"Grimisuat","commune":{"key":"6263","name":"Grimisuat","shortName":"Grimisuat"},"district":{"key":"2312","name":"District de Sion"},"canton":{"key":"23","code":"VS","name":"Valais / Wallis"},"status":"Real"},{"key":"10123697","name":"Chemin du Réservoir","postalCode":"1971","locality":"Grimisuat","commune":{"key":"6263","name":"Grimisuat","shortName":"Grimisuat"},"district":{"key":"2312","name":"District de Sion"},"canton":{"key":"23","code":"VS","name":"Valais / Wallis"},"status":"Real"},{"key":"10048315","name":"Chemin du Ruchili","postalCode":"1971","locality":"Grimisuat","commune":{"key":"6263","name":"Grimisuat","shortName":"Grimisuat"},"district":{"key":"2312","name":"District de Sion"},"canton":{"key":"23","code":"VS","name":"Valais / Wallis"},"status":"Real"},{"key":"10061141","name":"Chemin du Scex","postalCode":"1971","locality":"Champlan (Grimisuat)","commune":{"key":"6263","name":"Grimisuat","shortName":"Grimisuat"},"district":{"key":"2312","name":"District de Sion"},"canton":{"key":"23","code":"VS","name":"Valais / Wallis"},"status":"Real"},{"key":"10136436","name":"Chemin du Vignoble","postalCode":"1971","locality":"Grimisuat","commune":{"key":"6263","name":"Grimisuat","shortName":"Grimisuat"},"district":{"key":"2312","name":"District de Sion"},"canton":{"key":"23","code":"VS","name":"Valais / Wallis"},"status":"Real"},{"key":"10098508","name":"Chemin Grand Zavuisse","postalCode":"1971","locality":"Grimisuat","commune":{"key":"6263","name":"Grimisuat","shortName":"Grimisuat"},"district":{"key":"2312","name":"District de Sion"},"canton":{"key":"23","code":"VS","name":"Valais / Wallis"},"status":"Real"},{"key":"10105088","name":"Combes d'En Bas","postalCode":"1971","locality":"Grimisuat","commune":{"key":"6263","name":"Grimisuat","shortName":"Grimisuat"},"district":{"key":"2312","name":"District de Sion"},"canton":{"key":"23","code":"VS","name":"Valais / Wallis"},"status":"Real"},{"key":"10048316","name":"Place Mgr Gabriel Balet","postalCode":"1971","locality":"Grimisuat","commune":{"key":"6263","name":"Grimisuat","shortName":"Grimisuat"},"district":{"key":"2312","name":"District de Sion"},"canton":{"key":"23","code":"VS","name":"Valais / Wallis"},"status":"Real"},{"key":"10075737","name":"Route d'Arbaz","postalCode":"1971","locality":"Grimisuat","commune":{"key":"6263","name":"Grimisuat","shortName":"Grimisuat"},"district":{"key":"2312","name":"District de Sion"},"canton":{"key":"23","code":"VS","name":"Valais / Wallis"},"status":"Real"},{"key":"10043382","name":"Route d'Argnou","postalCode":"1971","locality":"Grimisuat","commune":{"key":"6263","name":"Grimisuat","shortName":"Grimisuat"},"district":{"key":"2312","name":"District de Sion"},"canton":{"key":"23","code":"VS","name":"Valais / Wallis"},"status":"Real"},{"key":"10130232","name":"Route d'Ayent","postalCode":"1971","locality":"Grimisuat","commune":{"key":"6263","name":"Grimisuat","shortName":"Grimisuat"},"district":{"key":"2312","name":"District de Sion"},"canton":{"key":"23","code":"VS","name":"Valais / Wallis"},"status":"Real"},{"key":"10048317","name":"Route de Comolire","postalCode":"1971","locality":"Grimisuat","commune":{"key":"6263","name":"Grimisuat","shortName":"Grimisuat"},"district":{"key":"2312","name":"District de Sion"},"canton":{"key":"23","code":"VS","name":"Valais / Wallis"},"status":"Real"},{"key":"10127708","name":"Route de Drône","postalCode":"1971","locality":"Grimisuat","commune":{"key":"6263","name":"Grimisuat","shortName":"Grimisuat"},"district":{"key":"2312","name":"District de Sion"},"canton":{"key":"23","code":"VS","name":"Valais / Wallis"},"status":"Real"},{"key":"10048319","name":"Route de la Coua","postalCode":"1971","locality":"Grimisuat","commune":{"key":"6263","name":"Grimisuat","shortName":"Grimisuat"},"district":{"key":"2312","name":"District de Sion"},"canton":{"key":"23","code":"VS","name":"Valais / Wallis"},"status":"Real"},{"key":"10106470","name":"Route de la Crettaz","postalCode":"1971","locality":"Champlan (Grimisuat)","commune":{"key":"6263","name":"Grimisuat","shortName":"Grimisuat"},"district":{"key":"2312","name":"District de Sion"},"canton":{"key":"23","code":"VS","name":"Valais / Wallis"},"status":"Real"},{"key":"10098513","name":"Route de la Roua","postalCode":"1971","locality":"Grimisuat","commune":{"key":"6263","name":"Grimisuat","shortName":"Grimisuat"},"district":{"key":"2312","name":"District de Sion"},"canton":{"key":"23","code":"VS","name":"Valais / Wallis"},"status":"Real"},{"key":"10048318","name":"Route de l'Epiny","postalCode":"1971","locality":"Grimisuat","commune":{"key":"6263","name":"Grimisuat","shortName":"Grimisuat"},"district":{"key":"2312","name":"District de Sion"},"canton":{"key":"23","code":"VS","name":"Valais / Wallis"},"status":"Real"},{"key":"10127707","name":"Route de l'Etannet","postalCode":"1971","locality":"Grimisuat","commune":{"key":"6263","name":"Grimisuat","shortName":"Grimisuat"},"district":{"key":"2312","name":"District de Sion"},"canton":{"key":"23","code":"VS","name":"Valais / Wallis"},"status":"Real"},{"key":"10135184","name":"Route de l'Ormeau","postalCode":"1971","locality":"Champlan (Grimisuat)","commune":{"key":"6263","name":"Grimisuat","shortName":"Grimisuat"},"district":{"key":"2312","name":"District de Sion"},"canton":{"key":"23","code":"VS","name":"Valais / Wallis"},"status":"Real"},{"key":"10135184","name":"Route de l'Ormeau","postalCode":"1971","locality":"Grimisuat","commune":{"key":"6263","name":"Grimisuat","shortName":"Grimisuat"},"district":{"key":"2312","name":"District de Sion"},"canton":{"key":"23","code":"VS","name":"Valais / Wallis"},"status":"Real"},{"key":"10135190","name":"Route de Molignon","postalCode":"1971","locality":"Champlan (Grimisuat)","commune":{"key":"6263","name":"Grimisuat","shortName":"Grimisuat"},"district":{"key":"2312","name":"District de Sion"},"canton":{"key":"23","code":"VS","name":"Valais / Wallis"},"status":"Real"},{"key":"10135189","name":"Route de Pierrapartiaz","postalCode":"1971","locality":"Grimisuat","commune":{"key":"6263","name":"Grimisuat","shortName":"Grimisuat"},"district":{"key":"2312","name":"District de Sion"},"canton":{"key":"23","code":"VS","name":"Valais / Wallis"},"status":"Real"},{"key":"10098512","name":"Route de Pradelaman","postalCode":"1971","locality":"Grimisuat","commune":{"key":"6263","name":"Grimisuat","shortName":"Grimisuat"},"district":{"key":"2312","name":"District de Sion"},"canton":{"key":"23","code":"VS","name":"Valais / Wallis"},"status":"Real"},{"key":"10136726","name":"Route de Savièse","postalCode":"1971","locality":"Grimisuat","commune":{"key":"6263","name":"Grimisuat","shortName":"Grimisuat"},"district":{"key":"2312","name":"District de Sion"},"canton":{"key":"23","code":"VS","name":"Valais / Wallis"},"status":"Real"},{"key":"10236317","name":"Route des Bézé","postalCode":"1971","locality":"Grimisuat","commune":{"key":"6263","name":"Grimisuat","shortName":"Grimisuat"},"district":{"key":"2312","name":"District de Sion"},"canton":{"key":"23","code":"VS","name":"Valais / Wallis"},"status":"Real"},{"key":"10115847","name":"Route des Combes","postalCode":"1971","locality":"Grimisuat","commune":{"key":"6263","name":"Grimisuat","shortName":"Grimisuat"},"district":{"key":"2312","name":"District de Sion"},"canton":{"key":"23","code":"VS","name":"Valais / Wallis"},"status":"Real"},{"key":"10048320","name":"Route des Crêtes","postalCode":"1971","locality":"Grimisuat","commune":{"key":"6263","name":"Grimisuat","shortName":"Grimisuat"},"district":{"key":"2312","name":"District de Sion"},"canton":{"key":"23","code":"VS","name":"Valais / Wallis"},"status":"Real"},{"key":"10048321","name":"Route des Fauchards","postalCode":"1971","locality":"Grimisuat","commune":{"key":"6263","name":"Grimisuat","shortName":"Grimisuat"},"district":{"key":"2312","name":"District de Sion"},"canton":{"key":"23","code":"VS","name":"Valais / Wallis"},"status":"Real"},{"key":"10098771","name":"Route des Grandpraz","postalCode":"1971","locality":"Grimisuat","commune":{"key":"6263","name":"Grimisuat","shortName":"Grimisuat"},"district":{"key":"2312","name":"District de Sion"},"canton":{"key":"23","code":"VS","name":"Valais / Wallis"},"status":"Real"},{"key":"10097852","name":"Route de Sion","postalCode":"1971","locality":"Champlan (Grimisuat)","commune":{"key":"6263","name":"Grimisuat","shortName":"Grimisuat"},"district":{"key":"2312","name":"District de Sion"},"canton":{"key":"23","code":"VS","name":"Valais / Wallis"},"status":"Real"},{"key":"10115602","name":"Route des Mocatés","postalCode":"1971","locality":"Champlan (Grimisuat)","commune":{"key":"6263","name":"Grimisuat","shortName":"Grimisuat"},"district":{"key":"2312","name":"District de Sion"},"canton":{"key":"23","code":"VS","name":"Valais / Wallis"},"status":"Real"},{"key":"10183447","name":"Route de St-Raphaël","postalCode":"1971","locality":"Champlan (Grimisuat)","commune":{"key":"6263","name":"Grimisuat","shortName":"Grimisuat"},"district":{"key":"2312","name":"District de Sion"},"canton":{"key":"23","code":"VS","name":"Valais / Wallis"},"status":"Real"},{"key":"10075738","name":"Route du Cimetière","postalCode":"1971","locality":"Grimisuat","commune":{"key":"6263","name":"Grimisuat","shortName":"Grimisuat"},"district":{"key":"2312","name":"District de Sion"},"canton":{"key":"23","code":"VS","name":"Valais / Wallis"},"status":"Real"},{"key":"10152586","name":"Route du Crou","postalCode":"1971","locality":"Grimisuat","commune":{"key":"6263","name":"Grimisuat","shortName":"Grimisuat"},"district":{"key":"2312","name":"District de Sion"},"canton":{"key":"23","code":"VS","name":"Valais / Wallis"},"status":"Real"},{"key":"10236321","name":"Routes des Cibles","postalCode":"1971","locality":"Grimisuat","commune":{"key":"6263","name":"Grimisuat","shortName":"Grimisuat"},"district":{"key":"2312","name":"District de Sion"},"canton":{"key":"23","code":"VS","name":"Valais / Wallis"},"status":"Real"},{"key":"10048323","name":"Rue Centrale","postalCode":"1971","locality":"Grimisuat","commune":{"key":"6263","name":"Grimisuat","shortName":"Grimisuat"},"district":{"key":"2312","name":"District de Sion"},"canton":{"key":"23","code":"VS","name":"Valais / Wallis"},"status":"Real"},{"key":"10048324","name":"Rue de Coméraz","postalCode":"1971","locality":"Champlan (Grimisuat)","commune":{"key":"6263","name":"Grimisuat","shortName":"Grimisuat"},"district":{"key":"2312","name":"District de Sion"},"canton":{"key":"23","code":"VS","name":"Valais / Wallis"},"status":"Real"},{"key":"10048324","name":"Rue de Coméraz","postalCode":"1971","locality":"Grimisuat","commune":{"key":"6263","name":"Grimisuat","shortName":"Grimisuat"},"district":{"key":"2312","name":"District de Sion"},"canton":{"key":"23","code":"VS","name":"Valais / Wallis"},"status":"Real"},{"key":"10189221","name":"Rue de la Luitte","postalCode":"1971","locality":"Grimisuat","commune":{"key":"6263","name":"Grimisuat","shortName":"Grimisuat"},"district":{"key":"2312","name":"District de Sion"},"canton":{"key":"23","code":"VS","name":"Valais / Wallis"},"status":"Real"},{"key":"10098773","name":"Rue de l'Ecole","postalCode":"1971","locality":"Champlan (Grimisuat)","commune":{"key":"6263","name":"Grimisuat","shortName":"Grimisuat"},"district":{"key":"2312","name":"District de Sion"},"canton":{"key":"23","code":"VS","name":"Valais / Wallis"},"status":"Real"},{"key":"10183448","name":"Rue de l'Etang","postalCode":"1971","locality":"Grimisuat","commune":{"key":"6263","name":"Grimisuat","shortName":"Grimisuat"},"district":{"key":"2312","name":"District de Sion"},"canton":{"key":"23","code":"VS","name":"Valais / Wallis"},"status":"Real"},{"key":"10135206","name":"Rue de Périget","postalCode":"1971","locality":"Grimisuat","commune":{"key":"6263","name":"Grimisuat","shortName":"Grimisuat"},"district":{"key":"2312","name":"District de Sion"},"canton":{"key":"23","code":"VS","name":"Valais / Wallis"},"status":"Real"},{"key":"10150565","name":"Rue de Pranoé","postalCode":"1971","locality":"Grimisuat","commune":{"key":"6263","name":"Grimisuat","shortName":"Grimisuat"},"district":{"key":"2312","name":"District de Sion"},"canton":{"key":"23","code":"VS","name":"Valais / Wallis"},"status":"Real"},{"key":"10075739","name":"Rue de Pranoud","postalCode":"1971","locality":"Champlan (Grimisuat)","commune":{"key":"6263","name":"Grimisuat","shortName":"Grimisuat"},"district":{"key":"2312","name":"District de Sion"},"canton":{"key":"23","code":"VS","name":"Valais / Wallis"},"status":"Real"},{"key":"10152671","name":"Rue des Condémines","postalCode":"1971","locality":"Grimisuat","commune":{"key":"6263","name":"Grimisuat","shortName":"Grimisuat"},"district":{"key":"2312","name":"District de Sion"},"canton":{"key":"23","code":"VS","name":"Valais / Wallis"},"status":"Real"},{"key":"10048327","name":"Rue des Dailles","postalCode":"1971","locality":"Grimisuat","commune":{"key":"6263","name":"Grimisuat","shortName":"Grimisuat"},"district":{"key":"2312","name":"District de Sion"},"canton":{"key":"23","code":"VS","name":"Valais / Wallis"},"status":"Real"},{"key":"10098774","name":"Rue des Fermes","postalCode":"1971","locality":"Champlan (Grimisuat)","commune":{"key":"6263","name":"Grimisuat","shortName":"Grimisuat"},"district":{"key":"2312","name":"District de Sion"},"canton":{"key":"23","code":"VS","name":"Valais / Wallis"},"status":"Real"},{"key":"10048333","name":"Rue des Grandchamps","postalCode":"1971","locality":"Champlan (Grimisuat)","commune":{"key":"6263","name":"Grimisuat","shortName":"Grimisuat"},"district":{"key":"2312","name":"District de Sion"},"canton":{"key":"23","code":"VS","name":"Valais / Wallis"},"status":"Real"},{"key":"10135188","name":"Rue des Granges","postalCode":"1971","locality":"Grimisuat","commune":{"key":"6263","name":"Grimisuat","shortName":"Grimisuat"},"district":{"key":"2312","name":"District de Sion"},"canton":{"key":"23","code":"VS","name":"Valais / Wallis"},"status":"Real"},{"key":"10048325","name":"Rue de Sonvillaz","postalCode":"1971","locality":"Grimisuat","commune":{"key":"6263","name":"Grimisuat","shortName":"Grimisuat"},"district":{"key":"2312","name":"District de Sion"},"canton":{"key":"23","code":"VS","name":"Valais / Wallis"},"status":"Real"},{"key":"10061139","name":"Rue des Places","postalCode":"1971","locality":"Champlan (Grimisuat)","commune":{"key":"6263","name":"Grimisuat","shortName":"Grimisuat"},"district":{"key":"2312","name":"District de Sion"},"canton":{"key":"23","code":"VS","name":"Valais / Wallis"},"status":"Real"},{"key":"10048326","name":"Rue de Surgat","postalCode":"1971","locality":"Grimisuat","commune":{"key":"6263","name":"Grimisuat","shortName":"Grimisuat"},"district":{"key":"2312","name":"District de Sion"},"canton":{"key":"23","code":"VS","name":"Valais / Wallis"},"status":"Real"},{"key":"10193769","name":"Rue des Vernys","postalCode":"1971","locality":"Grimisuat","commune":{"key":"6263","name":"Grimisuat","shortName":"Grimisuat"},"district":{"key":"2312","name":"District de Sion"},"canton":{"key":"23","code":"VS","name":"Valais / Wallis"},"status":"Real"},{"key":"10135183","name":"Rue du Bassin","postalCode":"1971","locality":"Champlan (Grimisuat)","commune":{"key":"6263","name":"Grimisuat","shortName":"Grimisuat"},"district":{"key":"2312","name":"District de Sion"},"canton":{"key":"23","code":"VS","name":"Valais / Wallis"},"status":"Real"},{"key":"10125514","name":"Rue du Centre Scolaire","postalCode":"1971","locality":"Grimisuat","commune":{"key":"6263","name":"Grimisuat","shortName":"Grimisuat"},"district":{"key":"2312","name":"District de Sion"},"canton":{"key":"23","code":"VS","name":"Valais / Wallis"},"status":"Real"},{"key":"10097853","name":"Rue du Château","postalCode":"1971","locality":"Grimisuat","commune":{"key":"6263","name":"Grimisuat","shortName":"Grimisuat"},"district":{"key":"2312","name":"District de Sion"},"canton":{"key":"23","code":"VS","name":"Valais / Wallis"},"status":"Real"},{"key":"10048328","name":"Rue du Golf","postalCode":"1971","locality":"Grimisuat","commune":{"key":"6263","name":"Grimisuat","shortName":"Grimisuat"},"district":{"key":"2312","name":"District de Sion"},"canton":{"key":"23","code":"VS","name":"Valais / Wallis"},"status":"Real"},{"key":"10061140","name":"Rue du Grand Pont","postalCode":"1971","locality":"Grimisuat","commune":{"key":"6263","name":"Grimisuat","shortName":"Grimisuat"},"district":{"key":"2312","name":"District de Sion"},"canton":{"key":"23","code":"VS","name":"Valais / Wallis"},"status":"Real"},]