[{"name":"2","postalCode":"04758","locality":"Cavertitz","municipality":{"key":"14730050","name":"Cavertitz","type":"Kreisangehörige_Gemeinde"},"district":{"key":"14730","name":"Nordsachsen","type":"Landkreis"},"federalState":{"key":"14","name":"Sachsen"}},{"name":"400m Laufbahn","postalCode":"52353","locality":"Düren","municipality":{"key":"05358008","name":"Düren, Stadt","type":"Stadt"},"district":{"key":"05358","name":"Düren","type":"Kreis"},"federalState":{"key":"05","name":"Nordrhein-Westfalen"}},{"name":"Agricolastr.","postalCode":"52445","locality":"Titz","municipality":{"key":"05358056","name":"Titz","type":"Kreisangehörige_Gemeinde"},"district":{"key":"05358","name":"Düren","type":"Kreis"},"federalState":{"key":"05","name":"Nordrhein-Westfalen"}},{"name":"Alte Dorfstr.","postalCode":"04509","locality":"Krostitz","municipality":{"key":"14730150","name":"Krostitz","type":"Kreisangehörige_Gemeinde"},"district":{"key":"14730","name":"Nordsachsen","type":"Landkreis"},"federalState":{"key":"14","name":"Sachsen"}},{"name":"Alter Schulhof","postalCode":"52445","locality":"Titz","municipality":{"key":"05358056","name":"Titz","type":"Kreisangehörige_Gemeinde"},"district":{"key":"05358","name":"Düren","type":"Kreis"},"federalState":{"key":"05","name":"Nordrhein-Westfalen"}},{"name":"Alte Salzstr.","postalCode":"04509","locality":"Krostitz","municipality":{"key":"14730150","name":"Krostitz","type":"Kreisangehörige_Gemeinde"},"district":{"key":"14730","name":"Nordsachsen","type":"Landkreis"},"federalState":{"key":"14","name":"Sachsen"}},{"name":"Altstr.","postalCode":"04758","locality":"Cavertitz","municipality":{"key":"14730050","name":"Cavertitz","type":"Kreisangehörige_Gemeinde"},"district":{"key":"14730","name":"Nordsachsen","type":"Landkreis"},"federalState":{"key":"14","name":"Sachsen"}},{"name":"Am Anger","postalCode":"04758","locality":"Cavertitz","municipality":{"key":"14730050","name":"Cavertitz","type":"Kreisangehörige_Gemeinde"},"district":{"key":"14730","name":"Nordsachsen","type":"Landkreis"},"federalState":{"key":"14","name":"Sachsen"}},{"name":"Am Anger","postalCode":"18528","locality":"Parchtitz","municipality":{"key":"13073063","name":"Parchtitz","type":"Kreisangehörige_Gemeinde"},"district":{"key":"13073","name":"Vorpommern-Rügen","type":"Landkreis"},"federalState":{"key":"13","name":"Mecklenburg-Vorpommern"}},{"name":"Am Bahndamm","postalCode":"04509","locality":"Krostitz","municipality":{"key":"14730150","name":"Krostitz","type":"Kreisangehörige_Gemeinde"},"district":{"key":"14730","name":"Nordsachsen","type":"Landkreis"},"federalState":{"key":"14","name":"Sachsen"}},{"name":"Am Bahndamm","postalCode":"52445","locality":"Titz","municipality":{"key":"05358056","name":"Titz","type":"Kreisangehörige_Gemeinde"},"district":{"key":"05358","name":"Düren","type":"Kreis"},"federalState":{"key":"05","name":"Nordrhein-Westfalen"}},{"name":"Am Bahnhof","postalCode":"04509","locality":"Krostitz","municipality":{"key":"14730150","name":"Krostitz","type":"Kreisangehörige_Gemeinde"},"district":{"key":"14730","name":"Nordsachsen","type":"Landkreis"},"federalState":{"key":"14","name":"Sachsen"}},{"name":"Am Bahnhof","postalCode":"52445","locality":"Titz","municipality":{"key":"05358056","name":"Titz","type":"Kreisangehörige_Gemeinde"},"district":{"key":"05358","name":"Düren","type":"Kreis"},"federalState":{"key":"05","name":"Nordrhein-Westfalen"}},{"name":"Am Brunnen","postalCode":"04509","locality":"Krostitz","municipality":{"key":"14730150","name":"Krostitz","type":"Kreisangehörige_Gemeinde"},"district":{"key":"14730","name":"Nordsachsen","type":"Landkreis"},"federalState":{"key":"14","name":"Sachsen"}},{"name":"Am Dorfteich","postalCode":"04509","locality":"Krostitz","municipality":{"key":"14730150","name":"Krostitz","type":"Kreisangehörige_Gemeinde"},"district":{"key":"14730","name":"Nordsachsen","type":"Landkreis"},"federalState":{"key":"14","name":"Sachsen"}},{"name":"Am Drenkerweg","postalCode":"52445","locality":"Titz","municipality":{"key":"05358056","name":"Titz","type":"Kreisangehörige_Gemeinde"},"district":{"key":"05358","name":"Düren","type":"Kreis"},"federalState":{"key":"05","name":"Nordrhein-Westfalen"}},{"name":"Amelner Str.","postalCode":"52445","locality":"Titz","municipality":{"key":"05358056","name":"Titz","type":"Kreisangehörige_Gemeinde"},"district":{"key":"05358","name":"Düren","type":"Kreis"},"federalState":{"key":"05","name":"Nordrhein-Westfalen"}},{"name":"Am End","postalCode":"52445","locality":"Titz","municipality":{"key":"05358056","name":"Titz","type":"Kreisangehörige_Gemeinde"},"district":{"key":"05358","name":"Düren","type":"Kreis"},"federalState":{"key":"05","name":"Nordrhein-Westfalen"}},{"name":"Am Entenberg","postalCode":"04758","locality":"Cavertitz","municipality":{"key":"14730050","name":"Cavertitz","type":"Kreisangehörige_Gemeinde"},"district":{"key":"14730","name":"Nordsachsen","type":"Landkreis"},"federalState":{"key":"14","name":"Sachsen"}},{"name":"Am Finkelbach","postalCode":"52445","locality":"Titz","municipality":{"key":"05358056","name":"Titz","type":"Kreisangehörige_Gemeinde"},"district":{"key":"05358","name":"Düren","type":"Kreis"},"federalState":{"key":"05","name":"Nordrhein-Westfalen"}},{"name":"Am Gutshaus","postalCode":"18528","locality":"Parchtitz","municipality":{"key":"13073063","name":"Parchtitz","type":"Kreisangehörige_Gemeinde"},"district":{"key":"13073","name":"Vorpommern-Rügen","type":"Landkreis"},"federalState":{"key":"13","name":"Mecklenburg-Vorpommern"}},{"name":"Am Hang","postalCode":"04758","locality":"Cavertitz","municipality":{"key":"14730050","name":"Cavertitz","type":"Kreisangehörige_Gemeinde"},"district":{"key":"14730","name":"Nordsachsen","type":"Landkreis"},"federalState":{"key":"14","name":"Sachsen"}},{"name":"Am Lindholz","postalCode":"04758","locality":"Cavertitz","municipality":{"key":"14730050","name":"Cavertitz","type":"Kreisangehörige_Gemeinde"},"district":{"key":"14730","name":"Nordsachsen","type":"Landkreis"},"federalState":{"key":"14","name":"Sachsen"}},{"name":"Am Lober","postalCode":"04509","locality":"Krostitz","municipality":{"key":"14730150","name":"Krostitz","type":"Kreisangehörige_Gemeinde"},"district":{"key":"14730","name":"Nordsachsen","type":"Landkreis"},"federalState":{"key":"14","name":"Sachsen"}},{"name":"Am Mühlenpfad","postalCode":"52445","locality":"Titz","municipality":{"key":"05358056","name":"Titz","type":"Kreisangehörige_Gemeinde"},"district":{"key":"05358","name":"Düren","type":"Kreis"},"federalState":{"key":"05","name":"Nordrhein-Westfalen"}},{"name":"Am Petershof","postalCode":"52445","locality":"Titz","municipality":{"key":"05358056","name":"Titz","type":"Kreisangehörige_Gemeinde"},"district":{"key":"05358","name":"Düren","type":"Kreis"},"federalState":{"key":"05","name":"Nordrhein-Westfalen"}},{"name":"Am Ring","postalCode":"04509","locality":"Krostitz","municipality":{"key":"14730150","name":"Krostitz","type":"Kreisangehörige_Gemeinde"},"district":{"key":"14730","name":"Nordsachsen","type":"Landkreis"},"federalState":{"key":"14","name":"Sachsen"}},{"name":"Am Rosenweg","postalCode":"18528","locality":"Parchtitz","municipality":{"key":"13073063","name":"Parchtitz","type":"Kreisangehörige_Gemeinde"},"district":{"key":"13073","name":"Vorpommern-Rügen","type":"Landkreis"},"federalState":{"key":"13","name":"Mecklenburg-Vorpommern"}},{"name":"Am Ruhwaß","postalCode":"18528","locality":"Parchtitz","municipality":{"key":"13073063","name":"Parchtitz","type":"Kreisangehörige_Gemeinde"},"district":{"key":"13073","name":"Vorpommern-Rügen","type":"Landkreis"},"federalState":{"key":"13","name":"Mecklenburg-Vorpommern"}},{"name":"Am Rundling","postalCode":"04509","locality":"Krostitz","municipality":{"key":"14730150","name":"Krostitz","type":"Kreisangehörige_Gemeinde"},"district":{"key":"14730","name":"Nordsachsen","type":"Landkreis"},"federalState":{"key":"14","name":"Sachsen"}},{"name":"Amselweg","postalCode":"04509","locality":"Krostitz","municipality":{"key":"14730150","name":"Krostitz","type":"Kreisangehörige_Gemeinde"},"district":{"key":"14730","name":"Nordsachsen","type":"Landkreis"},"federalState":{"key":"14","name":"Sachsen"}},{"name":"Am Sportplatz","postalCode":"04509","locality":"Krostitz","municipality":{"key":"14730150","name":"Krostitz","type":"Kreisangehörige_Gemeinde"},"district":{"key":"14730","name":"Nordsachsen","type":"Landkreis"},"federalState":{"key":"14","name":"Sachsen"}},{"name":"Am Sportplatz","postalCode":"04758","locality":"Cavertitz","municipality":{"key":"14730050","name":"Cavertitz","type":"Kreisangehörige_Gemeinde"},"district":{"key":"14730","name":"Nordsachsen","type":"Landkreis"},"federalState":{"key":"14","name":"Sachsen"}},{"name":"Am Strengebach","postalCode":"04509","locality":"Krostitz","municipality":{"key":"14730150","name":"Krostitz","type":"Kreisangehörige_Gemeinde"},"district":{"key":"14730","name":"Nordsachsen","type":"Landkreis"},"federalState":{"key":"14","name":"Sachsen"}},{"name":"Am Wäldchen","postalCode":"52445","locality":"Titz","municipality":{"key":"05358056","name":"Titz","type":"Kreisangehörige_Gemeinde"},"district":{"key":"05358","name":"Düren","type":"Kreis"},"federalState":{"key":"05","name":"Nordrhein-Westfalen"}},{"name":"Am Waldhof","postalCode":"04758","locality":"Cavertitz","municipality":{"key":"14730050","name":"Cavertitz","type":"Kreisangehörige_Gemeinde"},"district":{"key":"14730","name":"Nordsachsen","type":"Landkreis"},"federalState":{"key":"14","name":"Sachsen"}},{"name":"Am Wiesenhang","postalCode":"04758","locality":"Cavertitz","municipality":{"key":"14730050","name":"Cavertitz","type":"Kreisangehörige_Gemeinde"},"district":{"key":"14730","name":"Nordsachsen","type":"Landkreis"},"federalState":{"key":"14","name":"Sachsen"}},{"name":"Am Winkel","postalCode":"04758","locality":"Cavertitz","municipality":{"key":"14730050","name":"Cavertitz","type":"Kreisangehörige_Gemeinde"},"district":{"key":"14730","name":"Nordsachsen","type":"Landkreis"},"federalState":{"key":"14","name":"Sachsen"}},{"name":"An den Leinewiesen","postalCode":"04509","locality":"Krostitz","municipality":{"key":"14730150","name":"Krostitz","type":"Kreisangehörige_Gemeinde"},"district":{"key":"14730","name":"Nordsachsen","type":"Landkreis"},"federalState":{"key":"14","name":"Sachsen"}},{"name":"An den Teichen","postalCode":"52445","locality":"Titz","municipality":{"key":"05358056","name":"Titz","type":"Kreisangehörige_Gemeinde"},"district":{"key":"05358","name":"Düren","type":"Kreis"},"federalState":{"key":"05","name":"Nordrhein-Westfalen"}},{"name":"An der Dahle","postalCode":"04758","locality":"Cavertitz","municipality":{"key":"14730050","name":"Cavertitz","type":"Kreisangehörige_Gemeinde"},"district":{"key":"14730","name":"Nordsachsen","type":"Landkreis"},"federalState":{"key":"14","name":"Sachsen"}},{"name":"An der Vogelstange","postalCode":"52445","locality":"Titz","municipality":{"key":"05358056","name":"Titz","type":"Kreisangehörige_Gemeinde"},"district":{"key":"05358","name":"Düren","type":"Kreis"},"federalState":{"key":"05","name":"Nordrhein-Westfalen"}},{"name":"An Haus Behr","postalCode":"52445","locality":"Titz","municipality":{"key":"05358056","name":"Titz","type":"Kreisangehörige_Gemeinde"},"district":{"key":"05358","name":"Düren","type":"Kreis"},"federalState":{"key":"05","name":"Nordrhein-Westfalen"}},{"name":"Antoniusstr.","postalCode":"52445","locality":"Titz","municipality":{"key":"05358056","name":"Titz","type":"Kreisangehörige_Gemeinde"},"district":{"key":"05358","name":"Düren","type":"Kreis"},"federalState":{"key":"05","name":"Nordrhein-Westfalen"}},{"name":"Apfelallee","postalCode":"04758","locality":"Cavertitz","municipality":{"key":"14730050","name":"Cavertitz","type":"Kreisangehörige_Gemeinde"},"district":{"key":"14730","name":"Nordsachsen","type":"Landkreis"},"federalState":{"key":"14","name":"Sachsen"}},{"name":"Auf dem Berg","postalCode":"04758","locality":"Cavertitz","municipality":{"key":"14730050","name":"Cavertitz","type":"Kreisangehörige_Gemeinde"},"district":{"key":"14730","name":"Nordsachsen","type":"Landkreis"},"federalState":{"key":"14","name":"Sachsen"}},{"name":"Auf dem Hof","postalCode":"52445","locality":"Titz","municipality":{"key":"05358056","name":"Titz","type":"Kreisangehörige_Gemeinde"},"district":{"key":"05358","name":"Düren","type":"Kreis"},"federalState":{"key":"05","name":"Nordrhein-Westfalen"}},{"name":"August-Bebel-Ring","postalCode":"04509","locality":"Krostitz","municipality":{"key":"14730150","name":"Krostitz","type":"Kreisangehörige_Gemeinde"},"district":{"key":"14730","name":"Nordsachsen","type":"Landkreis"},"federalState":{"key":"14","name":"Sachsen"}},{"name":"August-Bebel-Str.","postalCode":"04758","locality":"Cavertitz","municipality":{"key":"14730050","name":"Cavertitz","type":"Kreisangehörige_Gemeinde"},"district":{"key":"14730","name":"Nordsachsen","type":"Landkreis"},"federalState":{"key":"14","name":"Sachsen"}},{"name":"Auststr.","postalCode":"04509","locality":"Krostitz","municipality":{"key":"14730150","name":"Krostitz","type":"Kreisangehörige_Gemeinde"},"district":{"key":"14730","name":"Nordsachsen","type":"Landkreis"},"federalState":{"key":"14","name":"Sachsen"}},{"name":"Bachstr.","postalCode":"52445","locality":"Titz","municipality":{"key":"05358056","name":"Titz","type":"Kreisangehörige_Gemeinde"},"district":{"key":"05358","name":"Düren","type":"Kreis"},"federalState":{"key":"05","name":"Nordrhein-Westfalen"}},{"name":"Badstube","postalCode":"04758","locality":"Cavertitz","municipality":{"key":"14730050","name":"Cavertitz","type":"Kreisangehörige_Gemeinde"},"district":{"key":"14730","name":"Nordsachsen","type":"Landkreis"},"federalState":{"key":"14","name":"Sachsen"}},{"name":"Bahnhofstr.","postalCode":"04509","locality":"Krostitz","municipality":{"key":"14730150","name":"Krostitz","type":"Kreisangehörige_Gemeinde"},"district":{"key":"14730","name":"Nordsachsen","type":"Landkreis"},"federalState":{"key":"14","name":"Sachsen"}},{"name":"Bedburger Str.","postalCode":"52445","locality":"Titz","municipality":{"key":"05358056","name":"Titz","type":"Kreisangehörige_Gemeinde"},"district":{"key":"05358","name":"Düren","type":"Kreis"},"federalState":{"key":"05","name":"Nordrhein-Westfalen"}},{"name":"Beethovenstr.","postalCode":"52445","locality":"Titz","municipality":{"key":"05358056","name":"Titz","type":"Kreisangehörige_Gemeinde"},"district":{"key":"05358","name":"Düren","type":"Kreis"},"federalState":{"key":"05","name":"Nordrhein-Westfalen"}},{"name":"Bergstr.","postalCode":"04758","locality":"Cavertitz","municipality":{"key":"14730050","name":"Cavertitz","type":"Kreisangehörige_Gemeinde"},"district":{"key":"14730","name":"Nordsachsen","type":"Landkreis"},"federalState":{"key":"14","name":"Sachsen"}},{"name":"Bergstr.","postalCode":"52445","locality":"Titz","municipality":{"key":"05358056","name":"Titz","type":"Kreisangehörige_Gemeinde"},"district":{"key":"05358","name":"Düren","type":"Kreis"},"federalState":{"key":"05","name":"Nordrhein-Westfalen"}},{"name":"Bettenhover Trift","postalCode":"52445","locality":"Titz","municipality":{"key":"05358056","name":"Titz","type":"Kreisangehörige_Gemeinde"},"district":{"key":"05358","name":"Düren","type":"Kreis"},"federalState":{"key":"05","name":"Nordrhein-Westfalen"}},{"name":"Beudener Str.","postalCode":"04509","locality":"Krostitz","municipality":{"key":"14730150","name":"Krostitz","type":"Kreisangehörige_Gemeinde"},"district":{"key":"14730","name":"Nordsachsen","type":"Landkreis"},"federalState":{"key":"14","name":"Sachsen"}},{"name":"Birkenweg","postalCode":"04758","locality":"Cavertitz","municipality":{"key":"14730050","name":"Cavertitz","type":"Kreisangehörige_Gemeinde"},"district":{"key":"14730","name":"Nordsachsen","type":"Landkreis"},"federalState":{"key":"14","name":"Sachsen"}},{"name":"Birkenweg","postalCode":"52445","locality":"Titz","municipality":{"key":"05358056","name":"Titz","type":"Kreisangehörige_Gemeinde"},"district":{"key":"05358","name":"Düren","type":"Kreis"},"federalState":{"key":"05","name":"Nordrhein-Westfalen"}},{"name":"Blumenstr.","postalCode":"04758","locality":"Cavertitz","municipality":{"key":"14730050","name":"Cavertitz","type":"Kreisangehörige_Gemeinde"},"district":{"key":"14730","name":"Nordsachsen","type":"Landkreis"},"federalState":{"key":"14","name":"Sachsen"}},{"name":"Bogenbrücke","postalCode":"04758","locality":"Cavertitz","municipality":{"key":"14730050","name":"Cavertitz","type":"Kreisangehörige_Gemeinde"},"district":{"key":"14730","name":"Nordsachsen","type":"Landkreis"},"federalState":{"key":"14","name":"Sachsen"}},{"name":"Boldevitz","postalCode":"18528","locality":"Parchtitz","municipality":{"key":"13073063","name":"Parchtitz","type":"Kreisangehörige_Gemeinde"},"district":{"key":"13073","name":"Vorpommern-Rügen","type":"Landkreis"},"federalState":{"key":"13","name":"Mecklenburg-Vorpommern"}},{"name":"Boslarer Str.","postalCode":"52445","locality":"Titz","municipality":{"key":"05358056","name":"Titz","type":"Kreisangehörige_Gemeinde"},"district":{"key":"05358","name":"Düren","type":"Kreis"},"federalState":{"key":"05","name":"Nordrhein-Westfalen"}},{"name":"Brahmsweg","postalCode":"52445","locality":"Titz","municipality":{"key":"05358056","name":"Titz","type":"Kreisangehörige_Gemeinde"},"district":{"key":"05358","name":"Düren","type":"Kreis"},"federalState":{"key":"05","name":"Nordrhein-Westfalen"}},{"name":"Brauereigasse","postalCode":"04758","locality":"Cavertitz","municipality":{"key":"14730050","name":"Cavertitz","type":"Kreisangehörige_Gemeinde"},"district":{"key":"14730","name":"Nordsachsen","type":"Landkreis"},"federalState":{"key":"14","name":"Sachsen"}},{"name":"Brauereistr.","postalCode":"04509","locality":"Krostitz","municipality":{"key":"14730150","name":"Krostitz","type":"Kreisangehörige_Gemeinde"},"district":{"key":"14730","name":"Nordsachsen","type":"Landkreis"},"federalState":{"key":"14","name":"Sachsen"}},{"name":"Buchenhof","postalCode":"52445","locality":"Titz","municipality":{"key":"05358056","name":"Titz","type":"Kreisangehörige_Gemeinde"},"district":{"key":"05358","name":"Düren","type":"Kreis"},"federalState":{"key":"05","name":"Nordrhein-Westfalen"}},{"name":"Bungsstr.","postalCode":"52445","locality":"Titz","municipality":{"key":"05358056","name":"Titz","type":"Kreisangehörige_Gemeinde"},"district":{"key":"05358","name":"Düren","type":"Kreis"},"federalState":{"key":"05","name":"Nordrhein-Westfalen"}},{"name":"Burgstr.","postalCode":"52445","locality":"Titz","municipality":{"key":"05358056","name":"Titz","type":"Kreisangehörige_Gemeinde"},"district":{"key":"05358","name":"Düren","type":"Kreis"},"federalState":{"key":"05","name":"Nordrhein-Westfalen"}},{"name":"Cäcilienweg","postalCode":"52445","locality":"Titz","municipality":{"key":"05358056","name":"Titz","type":"Kreisangehörige_Gemeinde"},"district":{"key":"05358","name":"Düren","type":"Kreis"},"federalState":{"key":"05","name":"Nordrhein-Westfalen"}},{"name":"Claudiusstr.","postalCode":"52445","locality":"Titz","municipality":{"key":"05358056","name":"Titz","type":"Kreisangehörige_Gemeinde"},"district":{"key":"05358","name":"Düren","type":"Kreis"},"federalState":{"key":"05","name":"Nordrhein-Westfalen"}},{"name":"Corneliusstr.","postalCode":"52445","locality":"Titz","municipality":{"key":"05358056","name":"Titz","type":"Kreisangehörige_Gemeinde"},"district":{"key":"05358","name":"Düren","type":"Kreis"},"federalState":{"key":"05","name":"Nordrhein-Westfalen"}},{"name":"Dackweiler-Siedlung","postalCode":"52445","locality":"Titz","municipality":{"key":"05358056","name":"Titz","type":"Kreisangehörige_Gemeinde"},"district":{"key":"05358","name":"Düren","type":"Kreis"},"federalState":{"key":"05","name":"Nordrhein-Westfalen"}},{"name":"Dackweilerstr.","postalCode":"52445","locality":"Titz","municipality":{"key":"05358056","name":"Titz","type":"Kreisangehörige_Gemeinde"},"district":{"key":"05358","name":"Düren","type":"Kreis"},"federalState":{"key":"05","name":"Nordrhein-Westfalen"}},{"name":"Dahlener Str.","postalCode":"04758","locality":"Cavertitz","municipality":{"key":"14730050","name":"Cavertitz","type":"Kreisangehörige_Gemeinde"},"district":{"key":"14730","name":"Nordsachsen","type":"Landkreis"},"federalState":{"key":"14","name":"Sachsen"}},{"name":"Dahlener Weg","postalCode":"04758","locality":"Cavertitz","municipality":{"key":"14730050","name":"Cavertitz","type":"Kreisangehörige_Gemeinde"},"district":{"key":"14730","name":"Nordsachsen","type":"Landkreis"},"federalState":{"key":"14","name":"Sachsen"}},{"name":"Delitzscher Str.","postalCode":"04509","locality":"Krostitz","municipality":{"key":"14730150","name":"Krostitz","type":"Kreisangehörige_Gemeinde"},"district":{"key":"14730","name":"Nordsachsen","type":"Landkreis"},"federalState":{"key":"14","name":"Sachsen"}},{"name":"Denkmalstr.","postalCode":"52445","locality":"Titz","municipality":{"key":"05358056","name":"Titz","type":"Kreisangehörige_Gemeinde"},"district":{"key":"05358","name":"Düren","type":"Kreis"},"federalState":{"key":"05","name":"Nordrhein-Westfalen"}},{"name":"Der Breite Weg","postalCode":"52445","locality":"Titz","municipality":{"key":"05358056","name":"Titz","type":"Kreisangehörige_Gemeinde"},"district":{"key":"05358","name":"Düren","type":"Kreis"},"federalState":{"key":"05","name":"Nordrhein-Westfalen"}},{"name":"Dorfmitte","postalCode":"04509","locality":"Krostitz","municipality":{"key":"14730150","name":"Krostitz","type":"Kreisangehörige_Gemeinde"},"district":{"key":"14730","name":"Nordsachsen","type":"Landkreis"},"federalState":{"key":"14","name":"Sachsen"}},{"name":"Dorfplatz","postalCode":"04509","locality":"Krostitz","municipality":{"key":"14730150","name":"Krostitz","type":"Kreisangehörige_Gemeinde"},"district":{"key":"14730","name":"Nordsachsen","type":"Landkreis"},"federalState":{"key":"14","name":"Sachsen"}},{"name":"Dorfplatz","postalCode":"04758","locality":"Cavertitz","municipality":{"key":"14730050","name":"Cavertitz","type":"Kreisangehörige_Gemeinde"},"district":{"key":"14730","name":"Nordsachsen","type":"Landkreis"},"federalState":{"key":"14","name":"Sachsen"}},{"name":"Dorfstr.","postalCode":"04509","locality":"Krostitz","municipality":{"key":"14730150","name":"Krostitz","type":"Kreisangehörige_Gemeinde"},"district":{"key":"14730","name":"Nordsachsen","type":"Landkreis"},"federalState":{"key":"14","name":"Sachsen"}},{"name":"Dorfstr.","postalCode":"04758","locality":"Cavertitz","municipality":{"key":"14730050","name":"Cavertitz","type":"Kreisangehörige_Gemeinde"},"district":{"key":"14730","name":"Nordsachsen","type":"Landkreis"},"federalState":{"key":"14","name":"Sachsen"}},{"name":"Dorfstr.","postalCode":"18528","locality":"Parchtitz","municipality":{"key":"13073063","name":"Parchtitz","type":"Kreisangehörige_Gemeinde"},"district":{"key":"13073","name":"Vorpommern-Rügen","type":"Landkreis"},"federalState":{"key":"13","name":"Mecklenburg-Vorpommern"}},{"name":"Dreikuttener Weg","postalCode":"04758","locality":"Cavertitz","municipality":{"key":"14730050","name":"Cavertitz","type":"Kreisangehörige_Gemeinde"},"district":{"key":"14730","name":"Nordsachsen","type":"Landkreis"},"federalState":{"key":"14","name":"Sachsen"}},{"name":"Dr.-Gustav-Möhring-Str.","postalCode":"52445","locality":"Titz","municipality":{"key":"05358056","name":"Titz","type":"Kreisangehörige_Gemeinde"},"district":{"key":"05358","name":"Düren","type":"Kreis"},"federalState":{"key":"05","name":"Nordrhein-Westfalen"}},{"name":"Drosselgasse","postalCode":"04509","locality":"Krostitz","municipality":{"key":"14730150","name":"Krostitz","type":"Kreisangehörige_Gemeinde"},"district":{"key":"14730","name":"Nordsachsen","type":"Landkreis"},"federalState":{"key":"14","name":"Sachsen"}},{"name":"Droste-Hülshoff-Str.","postalCode":"52445","locality":"Titz","municipality":{"key":"05358056","name":"Titz","type":"Kreisangehörige_Gemeinde"},"district":{"key":"05358","name":"Düren","type":"Kreis"},"federalState":{"key":"05","name":"Nordrhein-Westfalen"}},{"name":"Dübener Landstr.","postalCode":"04509","locality":"Krostitz","municipality":{"key":"14730150","name":"Krostitz","type":"Kreisangehörige_Gemeinde"},"district":{"key":"14730","name":"Nordsachsen","type":"Landkreis"},"federalState":{"key":"14","name":"Sachsen"}},{"name":"Dübener Str.","postalCode":"04509","locality":"Krostitz","municipality":{"key":"14730150","name":"Krostitz","type":"Kreisangehörige_Gemeinde"},"district":{"key":"14730","name":"Nordsachsen","type":"Landkreis"},"federalState":{"key":"14","name":"Sachsen"}},{"name":"Dürener Str.","postalCode":"52445","locality":"Titz","municipality":{"key":"05358056","name":"Titz","type":"Kreisangehörige_Gemeinde"},"district":{"key":"05358","name":"Düren","type":"Kreis"},"federalState":{"key":"05","name":"Nordrhein-Westfalen"}},{"name":"Ehrenplatz","postalCode":"52445","locality":"Titz","municipality":{"key":"05358056","name":"Titz","type":"Kreisangehörige_Gemeinde"},"district":{"key":"05358","name":"Düren","type":"Kreis"},"federalState":{"key":"05","name":"Nordrhein-Westfalen"}},{"name":"Ehrenstr.","postalCode":"52445","locality":"Titz","municipality":{"key":"05358056","name":"Titz","type":"Kreisangehörige_Gemeinde"},"district":{"key":"05358","name":"Düren","type":"Kreis"},"federalState":{"key":"05","name":"Nordrhein-Westfalen"}},{"name":"Eilenburger Str.","postalCode":"04509","locality":"Krostitz","municipality":{"key":"14730150","name":"Krostitz","type":"Kreisangehörige_Gemeinde"},"district":{"key":"14730","name":"Nordsachsen","type":"Landkreis"},"federalState":{"key":"14","name":"Sachsen"}},{"name":"Einsteinstr.","postalCode":"52445","locality":"Titz","municipality":{"key":"05358056","name":"Titz","type":"Kreisangehörige_Gemeinde"},"district":{"key":"05358","name":"Düren","type":"Kreis"},"federalState":{"key":"05","name":"Nordrhein-Westfalen"}},{"name":"Eintrachtstr.","postalCode":"52445","locality":"Titz","municipality":{"key":"05358056","name":"Titz","type":"Kreisangehörige_Gemeinde"},"district":{"key":"05358","name":"Düren","type":"Kreis"},"federalState":{"key":"05","name":"Nordrhein-Westfalen"}},{"name":"Eisenbahnstr.","postalCode":"04509","locality":"Krostitz","municipality":{"key":"14730150","name":"Krostitz","type":"Kreisangehörige_Gemeinde"},"district":{"key":"14730","name":"Nordsachsen","type":"Landkreis"},"federalState":{"key":"14","name":"Sachsen"}},{"name":"Erdgasse","postalCode":"52445","locality":"Titz","municipality":{"key":"05358056","name":"Titz","type":"Kreisangehörige_Gemeinde"},"district":{"key":"05358","name":"Düren","type":"Kreis"},"federalState":{"key":"05","name":"Nordrhein-Westfalen"}},{"name":"Erkelenzer Str.","postalCode":"52445","locality":"Titz","municipality":{"key":"05358056","name":"Titz","type":"Kreisangehörige_Gemeinde"},"district":{"key":"05358","name":"Düren","type":"Kreis"},"federalState":{"key":"05","name":"Nordrhein-Westfalen"}},{"name":"Erkelenzer Weg","postalCode":"52445","locality":"Titz","municipality":{"key":"05358056","name":"Titz","type":"Kreisangehörige_Gemeinde"},"district":{"key":"05358","name":"Düren","type":"Kreis"},"federalState":{"key":"05","name":"Nordrhein-Westfalen"}},{"name":"Ernst-Thälmann-Siedlung","postalCode":"04509","locality":"Krostitz","municipality":{"key":"14730150","name":"Krostitz","type":"Kreisangehörige_Gemeinde"},"district":{"key":"14730","name":"Nordsachsen","type":"Landkreis"},"federalState":{"key":"14","name":"Sachsen"}},{"name":"Ernst-Thälmann-Str.","postalCode":"04758","locality":"Cavertitz","municipality":{"key":"14730050","name":"Cavertitz","type":"Kreisangehörige_Gemeinde"},"district":{"key":"14730","name":"Nordsachsen","type":"Landkreis"},"federalState":{"key":"14","name":"Sachsen"}},{"name":"Feldstr.","postalCode":"04758","locality":"Cavertitz","municipality":{"key":"14730050","name":"Cavertitz","type":"Kreisangehörige_Gemeinde"},"district":{"key":"14730","name":"Nordsachsen","type":"Landkreis"},"federalState":{"key":"14","name":"Sachsen"}},{"name":"Feldweg","postalCode":"04509","locality":"Krostitz","municipality":{"key":"14730150","name":"Krostitz","type":"Kreisangehörige_Gemeinde"},"district":{"key":"14730","name":"Nordsachsen","type":"Landkreis"},"federalState":{"key":"14","name":"Sachsen"}},{"name":"Finkenweg","postalCode":"04509","locality":"Krostitz","municipality":{"key":"14730150","name":"Krostitz","type":"Kreisangehörige_Gemeinde"},"district":{"key":"14730","name":"Nordsachsen","type":"Landkreis"},"federalState":{"key":"14","name":"Sachsen"}},{"name":"Fliederweg","postalCode":"52445","locality":"Titz","municipality":{"key":"05358056","name":"Titz","type":"Kreisangehörige_Gemeinde"},"district":{"key":"05358","name":"Düren","type":"Kreis"},"federalState":{"key":"05","name":"Nordrhein-Westfalen"}},{"name":"Flügel-A","postalCode":"04758","locality":"Cavertitz","municipality":{"key":"14730050","name":"Cavertitz","type":"Kreisangehörige_Gemeinde"},"district":{"key":"14730","name":"Nordsachsen","type":"Landkreis"},"federalState":{"key":"14","name":"Sachsen"}},{"name":"Flügel-B","postalCode":"04758","locality":"Cavertitz","municipality":{"key":"14730050","name":"Cavertitz","type":"Kreisangehörige_Gemeinde"},"district":{"key":"14730","name":"Nordsachsen","type":"Landkreis"},"federalState":{"key":"14","name":"Sachsen"}},{"name":"Flügel-F","postalCode":"04758","locality":"Cavertitz","municipality":{"key":"14730050","name":"Cavertitz","type":"Kreisangehörige_Gemeinde"},"district":{"key":"14730","name":"Nordsachsen","type":"Landkreis"},"federalState":{"key":"14","name":"Sachsen"}},{"name":"Flügel-N","postalCode":"04758","locality":"Cavertitz","municipality":{"key":"14730050","name":"Cavertitz","type":"Kreisangehörige_Gemeinde"},"district":{"key":"14730","name":"Nordsachsen","type":"Landkreis"},"federalState":{"key":"14","name":"Sachsen"}},{"name":"Flügel-O","postalCode":"04758","locality":"Cavertitz","municipality":{"key":"14730050","name":"Cavertitz","type":"Kreisangehörige_Gemeinde"},"district":{"key":"14730","name":"Nordsachsen","type":"Landkreis"},"federalState":{"key":"14","name":"Sachsen"}},{"name":"Fontanestr.","postalCode":"52445","locality":"Titz","municipality":{"key":"05358056","name":"Titz","type":"Kreisangehörige_Gemeinde"},"district":{"key":"05358","name":"Düren","type":"Kreis"},"federalState":{"key":"05","name":"Nordrhein-Westfalen"}},{"name":"Frankenstr.","postalCode":"52445","locality":"Titz","municipality":{"key":"05358056","name":"Titz","type":"Kreisangehörige_Gemeinde"},"district":{"key":"05358","name":"Düren","type":"Kreis"},"federalState":{"key":"05","name":"Nordrhein-Westfalen"}},{"name":"Friedensstr.","postalCode":"04509","locality":"Krostitz","municipality":{"key":"14730150","name":"Krostitz","type":"Kreisangehörige_Gemeinde"},"district":{"key":"14730","name":"Nordsachsen","type":"Landkreis"},"federalState":{"key":"14","name":"Sachsen"}},{"name":"Friedensstr.","postalCode":"04758","locality":"Cavertitz","municipality":{"key":"14730050","name":"Cavertitz","type":"Kreisangehörige_Gemeinde"},"district":{"key":"14730","name":"Nordsachsen","type":"Landkreis"},"federalState":{"key":"14","name":"Sachsen"}},{"name":"Friedenstr.","postalCode":"04758","locality":"Cavertitz","municipality":{"key":"14730050","name":"Cavertitz","type":"Kreisangehörige_Gemeinde"},"district":{"key":"14730","name":"Nordsachsen","type":"Landkreis"},"federalState":{"key":"14","name":"Sachsen"}},{"name":"Friedhofstr.","postalCode":"52445","locality":"Titz","municipality":{"key":"05358056","name":"Titz","type":"Kreisangehörige_Gemeinde"},"district":{"key":"05358","name":"Düren","type":"Kreis"},"federalState":{"key":"05","name":"Nordrhein-Westfalen"}},{"name":"F-Weg","postalCode":"04758","locality":"Cavertitz","municipality":{"key":"14730050","name":"Cavertitz","type":"Kreisangehörige_Gemeinde"},"district":{"key":"14730","name":"Nordsachsen","type":"Landkreis"},"federalState":{"key":"14","name":"Sachsen"}},{"name":"Garagenweg","postalCode":"52445","locality":"Titz","municipality":{"key":"05358056","name":"Titz","type":"Kreisangehörige_Gemeinde"},"district":{"key":"05358","name":"Düren","type":"Kreis"},"federalState":{"key":"05","name":"Nordrhein-Westfalen"}},{"name":"Gartenstr.","postalCode":"04509","locality":"Krostitz","municipality":{"key":"14730150","name":"Krostitz","type":"Kreisangehörige_Gemeinde"},"district":{"key":"14730","name":"Nordsachsen","type":"Landkreis"},"federalState":{"key":"14","name":"Sachsen"}},{"name":"Gartenstr.","postalCode":"52445","locality":"Titz","municipality":{"key":"05358056","name":"Titz","type":"Kreisangehörige_Gemeinde"},"district":{"key":"05358","name":"Düren","type":"Kreis"},"federalState":{"key":"05","name":"Nordrhein-Westfalen"}},{"name":"Gereonstr.","postalCode":"52445","locality":"Titz","municipality":{"key":"05358056","name":"Titz","type":"Kreisangehörige_Gemeinde"},"district":{"key":"05358","name":"Düren","type":"Kreis"},"federalState":{"key":"05","name":"Nordrhein-Westfalen"}},{"name":"Gevelsdorfer Str.","postalCode":"52445","locality":"Titz","municipality":{"key":"05358056","name":"Titz","type":"Kreisangehörige_Gemeinde"},"district":{"key":"05358","name":"Düren","type":"Kreis"},"federalState":{"key":"05","name":"Nordrhein-Westfalen"}},{"name":"Gingster Str.","postalCode":"18528","locality":"Parchtitz","municipality":{"key":"13073063","name":"Parchtitz","type":"Kreisangehörige_Gemeinde"},"district":{"key":"13073","name":"Vorpommern-Rügen","type":"Landkreis"},"federalState":{"key":"13","name":"Mecklenburg-Vorpommern"}},{"name":"Ginnstr.","postalCode":"52445","locality":"Titz","municipality":{"key":"05358056","name":"Titz","type":"Kreisangehörige_Gemeinde"},"district":{"key":"05358","name":"Düren","type":"Kreis"},"federalState":{"key":"05","name":"Nordrhein-Westfalen"}},{"name":"Goethestr.","postalCode":"52445","locality":"Titz","municipality":{"key":"05358056","name":"Titz","type":"Kreisangehörige_Gemeinde"},"district":{"key":"05358","name":"Düren","type":"Kreis"},"federalState":{"key":"05","name":"Nordrhein-Westfalen"}},{"name":"Grabenweg","postalCode":"52445","locality":"Titz","municipality":{"key":"05358056","name":"Titz","type":"Kreisangehörige_Gemeinde"},"district":{"key":"05358","name":"Düren","type":"Kreis"},"federalState":{"key":"05","name":"Nordrhein-Westfalen"}},{"name":"Grade Eiche","postalCode":"52445","locality":"Titz","municipality":{"key":"05358056","name":"Titz","type":"Kreisangehörige_Gemeinde"},"district":{"key":"05358","name":"Düren","type":"Kreis"},"federalState":{"key":"05","name":"Nordrhein-Westfalen"}},{"name":"Grevenbroicher Str.","postalCode":"52445","locality":"Titz","municipality":{"key":"05358056","name":"Titz","type":"Kreisangehörige_Gemeinde"},"district":{"key":"05358","name":"Düren","type":"Kreis"},"federalState":{"key":"05","name":"Nordrhein-Westfalen"}},{"name":"Güstener Str.","postalCode":"52445","locality":"Titz","municipality":{"key":"05358056","name":"Titz","type":"Kreisangehörige_Gemeinde"},"district":{"key":"05358","name":"Düren","type":"Kreis"},"federalState":{"key":"05","name":"Nordrhein-Westfalen"}},{"name":"Gutshof","postalCode":"04758","locality":"Cavertitz","municipality":{"key":"14730050","name":"Cavertitz","type":"Kreisangehörige_Gemeinde"},"district":{"key":"14730","name":"Nordsachsen","type":"Landkreis"},"federalState":{"key":"14","name":"Sachsen"}},{"name":"G-Weg","postalCode":"04758","locality":"Cavertitz","municipality":{"key":"14730050","name":"Cavertitz","type":"Kreisangehörige_Gemeinde"},"district":{"key":"14730","name":"Nordsachsen","type":"Landkreis"},"federalState":{"key":"14","name":"Sachsen"}},{"name":"Hahnenkamp","postalCode":"52445","locality":"Titz","municipality":{"key":"05358056","name":"Titz","type":"Kreisangehörige_Gemeinde"},"district":{"key":"05358","name":"Düren","type":"Kreis"},"federalState":{"key":"05","name":"Nordrhein-Westfalen"}},{"name":"Händelstr.","postalCode":"52445","locality":"Titz","municipality":{"key":"05358056","name":"Titz","type":"Kreisangehörige_Gemeinde"},"district":{"key":"05358","name":"Düren","type":"Kreis"},"federalState":{"key":"05","name":"Nordrhein-Westfalen"}},{"name":"Hasselsweiler Str.","postalCode":"52445","locality":"Titz","municipality":{"key":"05358056","name":"Titz","type":"Kreisangehörige_Gemeinde"},"district":{"key":"05358","name":"Düren","type":"Kreis"},"federalState":{"key":"05","name":"Nordrhein-Westfalen"}},{"name":"Hauptstr.","postalCode":"04509","locality":"Krostitz","municipality":{"key":"14730150","name":"Krostitz","type":"Kreisangehörige_Gemeinde"},"district":{"key":"14730","name":"Nordsachsen","type":"Landkreis"},"federalState":{"key":"14","name":"Sachsen"}},{"name":"Hauptstr.","postalCode":"04758","locality":"Cavertitz","municipality":{"key":"14730050","name":"Cavertitz","type":"Kreisangehörige_Gemeinde"},"district":{"key":"14730","name":"Nordsachsen","type":"Landkreis"},"federalState":{"key":"14","name":"Sachsen"}},{"name":"Hauptstr.","postalCode":"18528","locality":"Parchtitz","municipality":{"key":"13073063","name":"Parchtitz","type":"Kreisangehörige_Gemeinde"},"district":{"key":"13073","name":"Vorpommern-Rügen","type":"Landkreis"},"federalState":{"key":"13","name":"Mecklenburg-Vorpommern"}},{"name":"Hauptstr.","postalCode":"52445","locality":"Titz","municipality":{"key":"05358056","name":"Titz","type":"Kreisangehörige_Gemeinde"},"district":{"key":"05358","name":"Düren","type":"Kreis"},"federalState":{"key":"05","name":"Nordrhein-Westfalen"}},{"name":"Heerbahn","postalCode":"52445","locality":"Titz","municipality":{"key":"05358056","name":"Titz","type":"Kreisangehörige_Gemeinde"},"district":{"key":"05358","name":"Düren","type":"Kreis"},"federalState":{"key":"05","name":"Nordrhein-Westfalen"}},{"name":"Heidestr.","postalCode":"04758","locality":"Cavertitz","municipality":{"key":"14730050","name":"Cavertitz","type":"Kreisangehörige_Gemeinde"},"district":{"key":"14730","name":"Nordsachsen","type":"Landkreis"},"federalState":{"key":"14","name":"Sachsen"}},{"name":"Heinestr.","postalCode":"52445","locality":"Titz","municipality":{"key":"05358056","name":"Titz","type":"Kreisangehörige_Gemeinde"},"district":{"key":"05358","name":"Düren","type":"Kreis"},"federalState":{"key":"05","name":"Nordrhein-Westfalen"}},{"name":"Herderstr.","postalCode":"52445","locality":"Titz","municipality":{"key":"05358056","name":"Titz","type":"Kreisangehörige_Gemeinde"},"district":{"key":"05358","name":"Düren","type":"Kreis"},"federalState":{"key":"05","name":"Nordrhein-Westfalen"}},{"name":"Hilchenbacher Str.","postalCode":"04509","locality":"Krostitz","municipality":{"key":"14730150","name":"Krostitz","type":"Kreisangehörige_Gemeinde"},"district":{"key":"14730","name":"Nordsachsen","type":"Landkreis"},"federalState":{"key":"14","name":"Sachsen"}},{"name":"Hinter den Gärten","postalCode":"52445","locality":"Titz","municipality":{"key":"05358056","name":"Titz","type":"Kreisangehörige_Gemeinde"},"district":{"key":"05358","name":"Düren","type":"Kreis"},"federalState":{"key":"05","name":"Nordrhein-Westfalen"}},{"name":"Hofeholz","postalCode":"04758","locality":"Cavertitz","municipality":{"key":"14730050","name":"Cavertitz","type":"Kreisangehörige_Gemeinde"},"district":{"key":"14730","name":"Nordsachsen","type":"Landkreis"},"federalState":{"key":"14","name":"Sachsen"}},{"name":"Hofstr.","postalCode":"18528","locality":"Parchtitz","municipality":{"key":"13073063","name":"Parchtitz","type":"Kreisangehörige_Gemeinde"},"district":{"key":"13073","name":"Vorpommern-Rügen","type":"Landkreis"},"federalState":{"key":"13","name":"Mecklenburg-Vorpommern"}},{"name":"Hohenossiger Str.","postalCode":"04509","locality":"Krostitz","municipality":{"key":"14730150","name":"Krostitz","type":"Kreisangehörige_Gemeinde"},"district":{"key":"14730","name":"Nordsachsen","type":"Landkreis"},"federalState":{"key":"14","name":"Sachsen"}},{"name":"Hohenrodaer Str.","postalCode":"04509","locality":"Krostitz","municipality":{"key":"14730150","name":"Krostitz","type":"Kreisangehörige_Gemeinde"},"district":{"key":"14730","name":"Nordsachsen","type":"Landkreis"},"federalState":{"key":"14","name":"Sachsen"}},{"name":"Hohe Str.","postalCode":"52445","locality":"Titz","municipality":{"key":"05358056","name":"Titz","type":"Kreisangehörige_Gemeinde"},"district":{"key":"05358","name":"Düren","type":"Kreis"},"federalState":{"key":"05","name":"Nordrhein-Westfalen"}},{"name":"Hohlweg","postalCode":"52445","locality":"Titz","municipality":{"key":"05358056","name":"Titz","type":"Kreisangehörige_Gemeinde"},"district":{"key":"05358","name":"Düren","type":"Kreis"},"federalState":{"key":"05","name":"Nordrhein-Westfalen"}},{"name":"Hölderlinstr.","postalCode":"52445","locality":"Titz","municipality":{"key":"05358056","name":"Titz","type":"Kreisangehörige_Gemeinde"},"district":{"key":"05358","name":"Düren","type":"Kreis"},"federalState":{"key":"05","name":"Nordrhein-Westfalen"}},{"name":"Holzgracht","postalCode":"52445","locality":"Titz","municipality":{"key":"05358056","name":"Titz","type":"Kreisangehörige_Gemeinde"},"district":{"key":"05358","name":"Düren","type":"Kreis"},"federalState":{"key":"05","name":"Nordrhein-Westfalen"}},{"name":"Holzstr.","postalCode":"04758","locality":"Cavertitz","municipality":{"key":"14730050","name":"Cavertitz","type":"Kreisangehörige_Gemeinde"},"district":{"key":"14730","name":"Nordsachsen","type":"Landkreis"},"federalState":{"key":"14","name":"Sachsen"}},{"name":"Holzweilerstr.","postalCode":"52445","locality":"Titz","municipality":{"key":"05358056","name":"Titz","type":"Kreisangehörige_Gemeinde"},"district":{"key":"05358","name":"Düren","type":"Kreis"},"federalState":{"key":"05","name":"Nordrhein-Westfalen"}},{"name":"Hompescher Str.","postalCode":"52445","locality":"Titz","municipality":{"key":"05358056","name":"Titz","type":"Kreisangehörige_Gemeinde"},"district":{"key":"05358","name":"Düren","type":"Kreis"},"federalState":{"key":"05","name":"Nordrhein-Westfalen"}},{"name":"Hottorfer Str.","postalCode":"52445","locality":"Titz","municipality":{"key":"05358056","name":"Titz","type":"Kreisangehörige_Gemeinde"},"district":{"key":"05358","name":"Düren","type":"Kreis"},"federalState":{"key":"05","name":"Nordrhein-Westfalen"}},{"name":"Hunsrück","postalCode":"04758","locality":"Cavertitz","municipality":{"key":"14730050","name":"Cavertitz","type":"Kreisangehörige_Gemeinde"},"district":{"key":"14730","name":"Nordsachsen","type":"Landkreis"},"federalState":{"key":"14","name":"Sachsen"}},{"name":"Huppelrather Str.","postalCode":"52445","locality":"Titz","municipality":{"key":"05358056","name":"Titz","type":"Kreisangehörige_Gemeinde"},"district":{"key":"05358","name":"Düren","type":"Kreis"},"federalState":{"key":"05","name":"Nordrhein-Westfalen"}},{"name":"Im Feldgarten","postalCode":"52445","locality":"Titz","municipality":{"key":"05358056","name":"Titz","type":"Kreisangehörige_Gemeinde"},"district":{"key":"05358","name":"Düren","type":"Kreis"},"federalState":{"key":"05","name":"Nordrhein-Westfalen"}},{"name":"Im Grüntal","postalCode":"52445","locality":"Titz","municipality":{"key":"05358056","name":"Titz","type":"Kreisangehörige_Gemeinde"},"district":{"key":"05358","name":"Düren","type":"Kreis"},"federalState":{"key":"05","name":"Nordrhein-Westfalen"}},{"name":"Im Kamp","postalCode":"52445","locality":"Titz","municipality":{"key":"05358056","name":"Titz","type":"Kreisangehörige_Gemeinde"},"district":{"key":"05358","name":"Düren","type":"Kreis"},"federalState":{"key":"05","name":"Nordrhein-Westfalen"}},{"name":"Im Lindental","postalCode":"52445","locality":"Titz","municipality":{"key":"05358056","name":"Titz","type":"Kreisangehörige_Gemeinde"},"district":{"key":"05358","name":"Düren","type":"Kreis"},"federalState":{"key":"05","name":"Nordrhein-Westfalen"}},{"name":"Im Mühlfelde","postalCode":"04509","locality":"Krostitz","municipality":{"key":"14730150","name":"Krostitz","type":"Kreisangehörige_Gemeinde"},"district":{"key":"14730","name":"Nordsachsen","type":"Landkreis"},"federalState":{"key":"14","name":"Sachsen"}},{"name":"Im Wiesengrund","postalCode":"04509","locality":"Krostitz","municipality":{"key":"14730150","name":"Krostitz","type":"Kreisangehörige_Gemeinde"},"district":{"key":"14730","name":"Nordsachsen","type":"Landkreis"},"federalState":{"key":"14","name":"Sachsen"}},{"name":"Im Wiesengrund","postalCode":"52445","locality":"Titz","municipality":{"key":"05358056","name":"Titz","type":"Kreisangehörige_Gemeinde"},"district":{"key":"05358","name":"Düren","type":"Kreis"},"federalState":{"key":"05","name":"Nordrhein-Westfalen"}},{"name":"Im Winkel","postalCode":"04509","locality":"Krostitz","municipality":{"key":"14730150","name":"Krostitz","type":"Kreisangehörige_Gemeinde"},"district":{"key":"14730","name":"Nordsachsen","type":"Landkreis"},"federalState":{"key":"14","name":"Sachsen"}},{"name":"Irmundusweg","postalCode":"52445","locality":"Titz","municipality":{"key":"05358056","name":"Titz","type":"Kreisangehörige_Gemeinde"},"district":{"key":"05358","name":"Düren","type":"Kreis"},"federalState":{"key":"05","name":"Nordrhein-Westfalen"}},{"name":"Isenkroidter Str.","postalCode":"52445","locality":"Titz","municipality":{"key":"05358056","name":"Titz","type":"Kreisangehörige_Gemeinde"},"district":{"key":"05358","name":"Düren","type":"Kreis"},"federalState":{"key":"05","name":"Nordrhein-Westfalen"}},{"name":"Jahnstr.","postalCode":"52445","locality":"Titz","municipality":{"key":"05358056","name":"Titz","type":"Kreisangehörige_Gemeinde"},"district":{"key":"05358","name":"Düren","type":"Kreis"},"federalState":{"key":"05","name":"Nordrhein-Westfalen"}},{"name":"Josefstr.","postalCode":"52445","locality":"Titz","municipality":{"key":"05358056","name":"Titz","type":"Kreisangehörige_Gemeinde"},"district":{"key":"05358","name":"Düren","type":"Kreis"},"federalState":{"key":"05","name":"Nordrhein-Westfalen"}},{"name":"Jülicher Str.","postalCode":"52445","locality":"Titz","municipality":{"key":"05358056","name":"Titz","type":"Kreisangehörige_Gemeinde"},"district":{"key":"05358","name":"Düren","type":"Kreis"},"federalState":{"key":"05","name":"Nordrhein-Westfalen"}},{"name":"Kaiserstr.","postalCode":"52445","locality":"Titz","municipality":{"key":"05358056","name":"Titz","type":"Kreisangehörige_Gemeinde"},"district":{"key":"05358","name":"Düren","type":"Kreis"},"federalState":{"key":"05","name":"Nordrhein-Westfalen"}},{"name":"Kalrather Gasse","postalCode":"52445","locality":"Titz","municipality":{"key":"05358056","name":"Titz","type":"Kreisangehörige_Gemeinde"},"district":{"key":"05358","name":"Düren","type":"Kreis"},"federalState":{"key":"05","name":"Nordrhein-Westfalen"}},{"name":"Kalrather Str.","postalCode":"52445","locality":"Titz","municipality":{"key":"05358056","name":"Titz","type":"Kreisangehörige_Gemeinde"},"district":{"key":"05358","name":"Düren","type":"Kreis"},"federalState":{"key":"05","name":"Nordrhein-Westfalen"}},{"name":"Kämmereiweg","postalCode":"04509","locality":"Krostitz","municipality":{"key":"14730150","name":"Krostitz","type":"Kreisangehörige_Gemeinde"},"district":{"key":"14730","name":"Nordsachsen","type":"Landkreis"},"federalState":{"key":"14","name":"Sachsen"}},{"name":"Kampgasse","postalCode":"52445","locality":"Titz","municipality":{"key":"05358056","name":"Titz","type":"Kreisangehörige_Gemeinde"},"district":{"key":"05358","name":"Düren","type":"Kreis"},"federalState":{"key":"05","name":"Nordrhein-Westfalen"}},{"name":"Kapellenstr.","postalCode":"52445","locality":"Titz","municipality":{"key":"05358056","name":"Titz","type":"Kreisangehörige_Gemeinde"},"district":{"key":"05358","name":"Düren","type":"Kreis"},"federalState":{"key":"05","name":"Nordrhein-Westfalen"}},{"name":"Karl-Liebknecht-Str.","postalCode":"04509","locality":"Krostitz","municipality":{"key":"14730150","name":"Krostitz","type":"Kreisangehörige_Gemeinde"},"district":{"key":"14730","name":"Nordsachsen","type":"Landkreis"},"federalState":{"key":"14","name":"Sachsen"}},{"name":"Kastanienweg","postalCode":"52445","locality":"Titz","municipality":{"key":"05358056","name":"Titz","type":"Kreisangehörige_Gemeinde"},"district":{"key":"05358","name":"Düren","type":"Kreis"},"federalState":{"key":"05","name":"Nordrhein-Westfalen"}},{"name":"Kasterstr.","postalCode":"52445","locality":"Titz","municipality":{"key":"05358056","name":"Titz","type":"Kreisangehörige_Gemeinde"},"district":{"key":"05358","name":"Düren","type":"Kreis"},"federalState":{"key":"05","name":"Nordrhein-Westfalen"}},{"name":"Katharinastr.","postalCode":"52445","locality":"Titz","municipality":{"key":"05358056","name":"Titz","type":"Kreisangehörige_Gemeinde"},"district":{"key":"05358","name":"Düren","type":"Kreis"},"federalState":{"key":"05","name":"Nordrhein-Westfalen"}},{"name":"Katzemer Str.","postalCode":"52445","locality":"Titz","municipality":{"key":"05358056","name":"Titz","type":"Kreisangehörige_Gemeinde"},"district":{"key":"05358","name":"Düren","type":"Kreis"},"federalState":{"key":"05","name":"Nordrhein-Westfalen"}},{"name":"Keltenstr.","postalCode":"52445","locality":"Titz","municipality":{"key":"05358056","name":"Titz","type":"Kreisangehörige_Gemeinde"},"district":{"key":"05358","name":"Düren","type":"Kreis"},"federalState":{"key":"05","name":"Nordrhein-Westfalen"}},{"name":"Kirchhertener Str.","postalCode":"52445","locality":"Titz","municipality":{"key":"05358056","name":"Titz","type":"Kreisangehörige_Gemeinde"},"district":{"key":"05358","name":"Düren","type":"Kreis"},"federalState":{"key":"05","name":"Nordrhein-Westfalen"}},{"name":"Kirchpfad","postalCode":"52445","locality":"Titz","municipality":{"key":"05358056","name":"Titz","type":"Kreisangehörige_Gemeinde"},"district":{"key":"05358","name":"Düren","type":"Kreis"},"federalState":{"key":"05","name":"Nordrhein-Westfalen"}},{"name":"Kirchstr.","postalCode":"04758","locality":"Cavertitz","municipality":{"key":"14730050","name":"Cavertitz","type":"Kreisangehörige_Gemeinde"},"district":{"key":"14730","name":"Nordsachsen","type":"Landkreis"},"federalState":{"key":"14","name":"Sachsen"}},{"name":"Kirchweg","postalCode":"04509","locality":"Krostitz","municipality":{"key":"14730150","name":"Krostitz","type":"Kreisangehörige_Gemeinde"},"district":{"key":"14730","name":"Nordsachsen","type":"Landkreis"},"federalState":{"key":"14","name":"Sachsen"}},{"name":"Kirchweg","postalCode":"52445","locality":"Titz","municipality":{"key":"05358056","name":"Titz","type":"Kreisangehörige_Gemeinde"},"district":{"key":"05358","name":"Düren","type":"Kreis"},"federalState":{"key":"05","name":"Nordrhein-Westfalen"}},{"name":"Klasend","postalCode":"52445","locality":"Titz","municipality":{"key":"05358056","name":"Titz","type":"Kreisangehörige_Gemeinde"},"district":{"key":"05358","name":"Düren","type":"Kreis"},"federalState":{"key":"05","name":"Nordrhein-Westfalen"}},{"name":"Kleinbahnstr.","postalCode":"04509","locality":"Krostitz","municipality":{"key":"14730150","name":"Krostitz","type":"Kreisangehörige_Gemeinde"},"district":{"key":"14730","name":"Nordsachsen","type":"Landkreis"},"federalState":{"key":"14","name":"Sachsen"}},{"name":"Klein-Thiem","postalCode":"04758","locality":"Cavertitz","municipality":{"key":"14730050","name":"Cavertitz","type":"Kreisangehörige_Gemeinde"},"district":{"key":"14730","name":"Nordsachsen","type":"Landkreis"},"federalState":{"key":"14","name":"Sachsen"}},{"name":"Klingenhainer Str.","postalCode":"04758","locality":"Cavertitz","municipality":{"key":"14730050","name":"Cavertitz","type":"Kreisangehörige_Gemeinde"},"district":{"key":"14730","name":"Nordsachsen","type":"Landkreis"},"federalState":{"key":"14","name":"Sachsen"}},{"name":"Klosterstr.","postalCode":"52445","locality":"Titz","municipality":{"key":"05358056","name":"Titz","type":"Kreisangehörige_Gemeinde"},"district":{"key":"05358","name":"Düren","type":"Kreis"},"federalState":{"key":"05","name":"Nordrhein-Westfalen"}},{"name":"Kölner Str.","postalCode":"52445","locality":"Titz","municipality":{"key":"05358056","name":"Titz","type":"Kreisangehörige_Gemeinde"},"district":{"key":"05358","name":"Düren","type":"Kreis"},"federalState":{"key":"05","name":"Nordrhein-Westfalen"}},{"name":"Kornblumenweg","postalCode":"52445","locality":"Titz","municipality":{"key":"05358056","name":"Titz","type":"Kreisangehörige_Gemeinde"},"district":{"key":"05358","name":"Düren","type":"Kreis"},"federalState":{"key":"05","name":"Nordrhein-Westfalen"}},{"name":"Körnerstr.","postalCode":"04509","locality":"Krostitz","municipality":{"key":"14730150","name":"Krostitz","type":"Kreisangehörige_Gemeinde"},"district":{"key":"14730","name":"Nordsachsen","type":"Landkreis"},"federalState":{"key":"14","name":"Sachsen"}},{"name":"Krähenweg","postalCode":"04509","locality":"Krostitz","municipality":{"key":"14730150","name":"Krostitz","type":"Kreisangehörige_Gemeinde"},"district":{"key":"14730","name":"Nordsachsen","type":"Landkreis"},"federalState":{"key":"14","name":"Sachsen"}},{"name":"Kreuzstr.","postalCode":"52445","locality":"Titz","municipality":{"key":"05358056","name":"Titz","type":"Kreisangehörige_Gemeinde"},"district":{"key":"05358","name":"Düren","type":"Kreis"},"federalState":{"key":"05","name":"Nordrhein-Westfalen"}},{"name":"Kroschstr.","postalCode":"52445","locality":"Titz","municipality":{"key":"05358056","name":"Titz","type":"Kreisangehörige_Gemeinde"},"district":{"key":"05358","name":"Düren","type":"Kreis"},"federalState":{"key":"05","name":"Nordrhein-Westfalen"}},{"name":"Krumme Eiche","postalCode":"52445","locality":"Titz","municipality":{"key":"05358056","name":"Titz","type":"Kreisangehörige_Gemeinde"},"district":{"key":"05358","name":"Düren","type":"Kreis"},"federalState":{"key":"05","name":"Nordrhein-Westfalen"}},{"name":"Krummer Weg","postalCode":"52445","locality":"Titz","municipality":{"key":"05358056","name":"Titz","type":"Kreisangehörige_Gemeinde"},"district":{"key":"05358","name":"Düren","type":"Kreis"},"federalState":{"key":"05","name":"Nordrhein-Westfalen"}},{"name":"K-Weg","postalCode":"04758","locality":"Cavertitz","municipality":{"key":"14730050","name":"Cavertitz","type":"Kreisangehörige_Gemeinde"},"district":{"key":"14730","name":"Nordsachsen","type":"Landkreis"},"federalState":{"key":"14","name":"Sachsen"}},{"name":"Ladestr.","postalCode":"04509","locality":"Krostitz","municipality":{"key":"14730150","name":"Krostitz","type":"Kreisangehörige_Gemeinde"},"district":{"key":"14730","name":"Nordsachsen","type":"Landkreis"},"federalState":{"key":"14","name":"Sachsen"}},{"name":"Landstr.","postalCode":"52445","locality":"Titz","municipality":{"key":"05358056","name":"Titz","type":"Kreisangehörige_Gemeinde"},"district":{"key":"05358","name":"Düren","type":"Kreis"},"federalState":{"key":"05","name":"Nordrhein-Westfalen"}},{"name":"Landwehr","postalCode":"52445","locality":"Titz","municipality":{"key":"05358056","name":"Titz","type":"Kreisangehörige_Gemeinde"},"district":{"key":"05358","name":"Düren","type":"Kreis"},"federalState":{"key":"05","name":"Nordrhein-Westfalen"}},{"name":"Lehmstr.","postalCode":"04758","locality":"Cavertitz","municipality":{"key":"14730050","name":"Cavertitz","type":"Kreisangehörige_Gemeinde"},"district":{"key":"14730","name":"Nordsachsen","type":"Landkreis"},"federalState":{"key":"14","name":"Sachsen"}},{"name":"Leineweg","postalCode":"04509","locality":"Krostitz","municipality":{"key":"14730150","name":"Krostitz","type":"Kreisangehörige_Gemeinde"},"district":{"key":"14730","name":"Nordsachsen","type":"Landkreis"},"federalState":{"key":"14","name":"Sachsen"}},{"name":"Leipziger Str.","postalCode":"04509","locality":"Krostitz","municipality":{"key":"14730150","name":"Krostitz","type":"Kreisangehörige_Gemeinde"},"district":{"key":"14730","name":"Nordsachsen","type":"Landkreis"},"federalState":{"key":"14","name":"Sachsen"}},{"name":"Lerchenweg","postalCode":"04509","locality":"Krostitz","municipality":{"key":"14730150","name":"Krostitz","type":"Kreisangehörige_Gemeinde"},"district":{"key":"14730","name":"Nordsachsen","type":"Landkreis"},"federalState":{"key":"14","name":"Sachsen"}},{"name":"Lessingstr.","postalCode":"52445","locality":"Titz","municipality":{"key":"05358056","name":"Titz","type":"Kreisangehörige_Gemeinde"},"district":{"key":"05358","name":"Düren","type":"Kreis"},"federalState":{"key":"05","name":"Nordrhein-Westfalen"}},{"name":"Licher Str.","postalCode":"52445","locality":"Titz","municipality":{"key":"05358056","name":"Titz","type":"Kreisangehörige_Gemeinde"},"district":{"key":"05358","name":"Düren","type":"Kreis"},"federalState":{"key":"05","name":"Nordrhein-Westfalen"}},{"name":"Lindenhof","postalCode":"52445","locality":"Titz","municipality":{"key":"05358056","name":"Titz","type":"Kreisangehörige_Gemeinde"},"district":{"key":"05358","name":"Düren","type":"Kreis"},"federalState":{"key":"05","name":"Nordrhein-Westfalen"}},{"name":"Lindenstr.","postalCode":"52445","locality":"Titz","municipality":{"key":"05358056","name":"Titz","type":"Kreisangehörige_Gemeinde"},"district":{"key":"05358","name":"Düren","type":"Kreis"},"federalState":{"key":"05","name":"Nordrhein-Westfalen"}},{"name":"Linnicher Str.","postalCode":"52445","locality":"Titz","municipality":{"key":"05358056","name":"Titz","type":"Kreisangehörige_Gemeinde"},"district":{"key":"05358","name":"Düren","type":"Kreis"},"federalState":{"key":"05","name":"Nordrhein-Westfalen"}},{"name":"Lisztstr.","postalCode":"52445","locality":"Titz","municipality":{"key":"05358056","name":"Titz","type":"Kreisangehörige_Gemeinde"},"district":{"key":"05358","name":"Düren","type":"Kreis"},"federalState":{"key":"05","name":"Nordrhein-Westfalen"}},{"name":"Lommertzheimstr.","postalCode":"52445","locality":"Titz","municipality":{"key":"05358056","name":"Titz","type":"Kreisangehörige_Gemeinde"},"district":{"key":"05358","name":"Düren","type":"Kreis"},"federalState":{"key":"05","name":"Nordrhein-Westfalen"}},{"name":"Lönsstr.","postalCode":"52445","locality":"Titz","municipality":{"key":"05358056","name":"Titz","type":"Kreisangehörige_Gemeinde"},"district":{"key":"05358","name":"Düren","type":"Kreis"},"federalState":{"key":"05","name":"Nordrhein-Westfalen"}},{"name":"Lövenicher Weg","postalCode":"52445","locality":"Titz","municipality":{"key":"05358056","name":"Titz","type":"Kreisangehörige_Gemeinde"},"district":{"key":"05358","name":"Düren","type":"Kreis"},"federalState":{"key":"05","name":"Nordrhein-Westfalen"}},{"name":"Lövenstr.","postalCode":"52445","locality":"Titz","municipality":{"key":"05358056","name":"Titz","type":"Kreisangehörige_Gemeinde"},"district":{"key":"05358","name":"Düren","type":"Kreis"},"federalState":{"key":"05","name":"Nordrhein-Westfalen"}},{"name":"Maarstr.","postalCode":"52445","locality":"Titz","municipality":{"key":"05358056","name":"Titz","type":"Kreisangehörige_Gemeinde"},"district":{"key":"05358","name":"Düren","type":"Kreis"},"federalState":{"key":"05","name":"Nordrhein-Westfalen"}},{"name":"Malefinkbachstr.","postalCode":"52445","locality":"Titz","municipality":{"key":"05358056","name":"Titz","type":"Kreisangehörige_Gemeinde"},"district":{"key":"05358","name":"Düren","type":"Kreis"},"federalState":{"key":"05","name":"Nordrhein-Westfalen"}},{"name":"Malsener Str.","postalCode":"04758","locality":"Cavertitz","municipality":{"key":"14730050","name":"Cavertitz","type":"Kreisangehörige_Gemeinde"},"district":{"key":"14730","name":"Nordsachsen","type":"Landkreis"},"federalState":{"key":"14","name":"Sachsen"}},{"name":"Marienstr.","postalCode":"52445","locality":"Titz","municipality":{"key":"05358056","name":"Titz","type":"Kreisangehörige_Gemeinde"},"district":{"key":"05358","name":"Düren","type":"Kreis"},"federalState":{"key":"05","name":"Nordrhein-Westfalen"}},{"name":"Mark","postalCode":"04758","locality":"Cavertitz","municipality":{"key":"14730050","name":"Cavertitz","type":"Kreisangehörige_Gemeinde"},"district":{"key":"14730","name":"Nordsachsen","type":"Landkreis"},"federalState":{"key":"14","name":"Sachsen"}},{"name":"Markt","postalCode":"52445","locality":"Titz","municipality":{"key":"05358056","name":"Titz","type":"Kreisangehörige_Gemeinde"},"district":{"key":"05358","name":"Düren","type":"Kreis"},"federalState":{"key":"05","name":"Nordrhein-Westfalen"}},{"name":"Marktstr.","postalCode":"52445","locality":"Titz","municipality":{"key":"05358056","name":"Titz","type":"Kreisangehörige_Gemeinde"},"district":{"key":"05358","name":"Düren","type":"Kreis"},"federalState":{"key":"05","name":"Nordrhein-Westfalen"}},{"name":"Mathildenhof","postalCode":"52445","locality":"Titz","municipality":{"key":"05358056","name":"Titz","type":"Kreisangehörige_Gemeinde"},"district":{"key":"05358","name":"Düren","type":"Kreis"},"federalState":{"key":"05","name":"Nordrhein-Westfalen"}},{"name":"Matthiasstr.","postalCode":"52445","locality":"Titz","municipality":{"key":"05358056","name":"Titz","type":"Kreisangehörige_Gemeinde"},"district":{"key":"05358","name":"Düren","type":"Kreis"},"federalState":{"key":"05","name":"Nordrhein-Westfalen"}},{"name":"Meerhöfe","postalCode":"52445","locality":"Titz","municipality":{"key":"05358056","name":"Titz","type":"Kreisangehörige_Gemeinde"},"district":{"key":"05358","name":"Düren","type":"Kreis"},"federalState":{"key":"05","name":"Nordrhein-Westfalen"}},{"name":"Meisenring","postalCode":"04509","locality":"Krostitz","municipality":{"key":"14730150","name":"Krostitz","type":"Kreisangehörige_Gemeinde"},"district":{"key":"14730","name":"Nordsachsen","type":"Landkreis"},"federalState":{"key":"14","name":"Sachsen"}},{"name":"Minartzstr.","postalCode":"52445","locality":"Titz","municipality":{"key":"05358056","name":"Titz","type":"Kreisangehörige_Gemeinde"},"district":{"key":"05358","name":"Düren","type":"Kreis"},"federalState":{"key":"05","name":"Nordrhein-Westfalen"}},{"name":"Mittelstr.","postalCode":"04509","locality":"Krostitz","municipality":{"key":"14730150","name":"Krostitz","type":"Kreisangehörige_Gemeinde"},"district":{"key":"14730","name":"Nordsachsen","type":"Landkreis"},"federalState":{"key":"14","name":"Sachsen"}},{"name":"Mittelstr.","postalCode":"52445","locality":"Titz","municipality":{"key":"05358056","name":"Titz","type":"Kreisangehörige_Gemeinde"},"district":{"key":"05358","name":"Düren","type":"Kreis"},"federalState":{"key":"05","name":"Nordrhein-Westfalen"}},{"name":"Mocherwitzer Str.","postalCode":"04509","locality":"Krostitz","municipality":{"key":"14730150","name":"Krostitz","type":"Kreisangehörige_Gemeinde"},"district":{"key":"14730","name":"Nordsachsen","type":"Landkreis"},"federalState":{"key":"14","name":"Sachsen"}},{"name":"Möhlaer Str.","postalCode":"04758","locality":"Cavertitz","municipality":{"key":"14730050","name":"Cavertitz","type":"Kreisangehörige_Gemeinde"},"district":{"key":"14730","name":"Nordsachsen","type":"Landkreis"},"federalState":{"key":"14","name":"Sachsen"}},{"name":"Molkereistr.","postalCode":"04509","locality":"Krostitz","municipality":{"key":"14730150","name":"Krostitz","type":"Kreisangehörige_Gemeinde"},"district":{"key":"14730","name":"Nordsachsen","type":"Landkreis"},"federalState":{"key":"14","name":"Sachsen"}},{"name":"Mörickestr.","postalCode":"52445","locality":"Titz","municipality":{"key":"05358056","name":"Titz","type":"Kreisangehörige_Gemeinde"},"district":{"key":"05358","name":"Düren","type":"Kreis"},"federalState":{"key":"05","name":"Nordrhein-Westfalen"}},{"name":"Mozartstr.","postalCode":"52445","locality":"Titz","municipality":{"key":"05358056","name":"Titz","type":"Kreisangehörige_Gemeinde"},"district":{"key":"05358","name":"Düren","type":"Kreis"},"federalState":{"key":"05","name":"Nordrhein-Westfalen"}},{"name":"Muglitz","postalCode":"18528","locality":"Parchtitz","municipality":{"key":"13073063","name":"Parchtitz","type":"Kreisangehörige_Gemeinde"},"district":{"key":"13073","name":"Vorpommern-Rügen","type":"Landkreis"},"federalState":{"key":"13","name":"Mecklenburg-Vorpommern"}},{"name":"Muglitzer Weg","postalCode":"18528","locality":"Parchtitz","municipality":{"key":"13073063","name":"Parchtitz","type":"Kreisangehörige_Gemeinde"},"district":{"key":"13073","name":"Vorpommern-Rügen","type":"Landkreis"},"federalState":{"key":"13","name":"Mecklenburg-Vorpommern"}},{"name":"Mühlberger Str.","postalCode":"04758","locality":"Cavertitz","municipality":{"key":"14730050","name":"Cavertitz","type":"Kreisangehörige_Gemeinde"},"district":{"key":"14730","name":"Nordsachsen","type":"Landkreis"},"federalState":{"key":"14","name":"Sachsen"}},{"name":"Mühlendriesch","postalCode":"52445","locality":"Titz","municipality":{"key":"05358056","name":"Titz","type":"Kreisangehörige_Gemeinde"},"district":{"key":"05358","name":"Düren","type":"Kreis"},"federalState":{"key":"05","name":"Nordrhein-Westfalen"}},{"name":"Mühlenend","postalCode":"52445","locality":"Titz","municipality":{"key":"05358056","name":"Titz","type":"Kreisangehörige_Gemeinde"},"district":{"key":"05358","name":"Düren","type":"Kreis"},"federalState":{"key":"05","name":"Nordrhein-Westfalen"}},{"name":"Mühlenstr.","postalCode":"52445","locality":"Titz","municipality":{"key":"05358056","name":"Titz","type":"Kreisangehörige_Gemeinde"},"district":{"key":"05358","name":"Düren","type":"Kreis"},"federalState":{"key":"05","name":"Nordrhein-Westfalen"}},{"name":"Mühlenweg","postalCode":"04758","locality":"Cavertitz","municipality":{"key":"14730050","name":"Cavertitz","type":"Kreisangehörige_Gemeinde"},"district":{"key":"14730","name":"Nordsachsen","type":"Landkreis"},"federalState":{"key":"14","name":"Sachsen"}},{"name":"Mühlweg","postalCode":"04509","locality":"Krostitz","municipality":{"key":"14730150","name":"Krostitz","type":"Kreisangehörige_Gemeinde"},"district":{"key":"14730","name":"Nordsachsen","type":"Landkreis"},"federalState":{"key":"14","name":"Sachsen"}},{"name":"Müntzer Str.","postalCode":"52445","locality":"Titz","municipality":{"key":"05358056","name":"Titz","type":"Kreisangehörige_Gemeinde"},"district":{"key":"05358","name":"Düren","type":"Kreis"},"federalState":{"key":"05","name":"Nordrhein-Westfalen"}},{"name":"Müntzer Weg","postalCode":"52445","locality":"Titz","municipality":{"key":"05358056","name":"Titz","type":"Kreisangehörige_Gemeinde"},"district":{"key":"05358","name":"Düren","type":"Kreis"},"federalState":{"key":"05","name":"Nordrhein-Westfalen"}},{"name":"Mutschlenaer Str.","postalCode":"04509","locality":"Krostitz","municipality":{"key":"14730150","name":"Krostitz","type":"Kreisangehörige_Gemeinde"},"district":{"key":"14730","name":"Nordsachsen","type":"Landkreis"},"federalState":{"key":"14","name":"Sachsen"}},{"name":"M-Weg","postalCode":"04758","locality":"Cavertitz","municipality":{"key":"14730050","name":"Cavertitz","type":"Kreisangehörige_Gemeinde"},"district":{"key":"14730","name":"Nordsachsen","type":"Landkreis"},"federalState":{"key":"14","name":"Sachsen"}},{"name":"Nelly-Sachs-Str.","postalCode":"52445","locality":"Titz","municipality":{"key":"05358056","name":"Titz","type":"Kreisangehörige_Gemeinde"},"district":{"key":"05358","name":"Düren","type":"Kreis"},"federalState":{"key":"05","name":"Nordrhein-Westfalen"}},{"name":"Neubauernweg","postalCode":"04509","locality":"Krostitz","municipality":{"key":"14730150","name":"Krostitz","type":"Kreisangehörige_Gemeinde"},"district":{"key":"14730","name":"Nordsachsen","type":"Landkreis"},"federalState":{"key":"14","name":"Sachsen"}},{"name":"Neuer Weg","postalCode":"04758","locality":"Cavertitz","municipality":{"key":"14730050","name":"Cavertitz","type":"Kreisangehörige_Gemeinde"},"district":{"key":"14730","name":"Nordsachsen","type":"Landkreis"},"federalState":{"key":"14","name":"Sachsen"}},{"name":"Neue Str.","postalCode":"04758","locality":"Cavertitz","municipality":{"key":"14730050","name":"Cavertitz","type":"Kreisangehörige_Gemeinde"},"district":{"key":"14730","name":"Nordsachsen","type":"Landkreis"},"federalState":{"key":"14","name":"Sachsen"}},{"name":"Neu-Spiel","postalCode":"52445","locality":"Titz","municipality":{"key":"05358056","name":"Titz","type":"Kreisangehörige_Gemeinde"},"district":{"key":"05358","name":"Düren","type":"Kreis"},"federalState":{"key":"05","name":"Nordrhein-Westfalen"}},{"name":"Nordstr.","postalCode":"04509","locality":"Krostitz","municipality":{"key":"14730150","name":"Krostitz","type":"Kreisangehörige_Gemeinde"},"district":{"key":"14730","name":"Nordsachsen","type":"Landkreis"},"federalState":{"key":"14","name":"Sachsen"}},{"name":"Nordstr.","postalCode":"52445","locality":"Titz","municipality":{"key":"05358056","name":"Titz","type":"Kreisangehörige_Gemeinde"},"district":{"key":"05358","name":"Düren","type":"Kreis"},"federalState":{"key":"05","name":"Nordrhein-Westfalen"}},{"name":"N-Weg","postalCode":"04758","locality":"Cavertitz","municipality":{"key":"14730050","name":"Cavertitz","type":"Kreisangehörige_Gemeinde"},"district":{"key":"14730","name":"Nordsachsen","type":"Landkreis"},"federalState":{"key":"14","name":"Sachsen"}},{"name":"Oberer Randweg","postalCode":"52445","locality":"Titz","municipality":{"key":"05358056","name":"Titz","type":"Kreisangehörige_Gemeinde"},"district":{"key":"05358","name":"Düren","type":"Kreis"},"federalState":{"key":"05","name":"Nordrhein-Westfalen"}},{"name":"Obstweg","postalCode":"52445","locality":"Titz","municipality":{"key":"05358056","name":"Titz","type":"Kreisangehörige_Gemeinde"},"district":{"key":"05358","name":"Düren","type":"Kreis"},"federalState":{"key":"05","name":"Nordrhein-Westfalen"}},{"name":"Olganitzer Str.","postalCode":"04758","locality":"Cavertitz","municipality":{"key":"14730050","name":"Cavertitz","type":"Kreisangehörige_Gemeinde"},"district":{"key":"14730","name":"Nordsachsen","type":"Landkreis"},"federalState":{"key":"14","name":"Sachsen"}},{"name":"Ophertener Str.","postalCode":"52445","locality":"Titz","municipality":{"key":"05358056","name":"Titz","type":"Kreisangehörige_Gemeinde"},"district":{"key":"05358","name":"Düren","type":"Kreis"},"federalState":{"key":"05","name":"Nordrhein-Westfalen"}},{"name":"Oststr.","postalCode":"04509","locality":"Krostitz","municipality":{"key":"14730150","name":"Krostitz","type":"Kreisangehörige_Gemeinde"},"district":{"key":"14730","name":"Nordsachsen","type":"Landkreis"},"federalState":{"key":"14","name":"Sachsen"}},{"name":"Oststr.","postalCode":"52445","locality":"Titz","municipality":{"key":"05358056","name":"Titz","type":"Kreisangehörige_Gemeinde"},"district":{"key":"05358","name":"Düren","type":"Kreis"},"federalState":{"key":"05","name":"Nordrhein-Westfalen"}},{"name":"Palmesholzer Weg","postalCode":"52445","locality":"Titz","municipality":{"key":"05358056","name":"Titz","type":"Kreisangehörige_Gemeinde"},"district":{"key":"05358","name":"Düren","type":"Kreis"},"federalState":{"key":"05","name":"Nordrhein-Westfalen"}},{"name":"Parkstr.","postalCode":"04509","locality":"Krostitz","municipality":{"key":"14730150","name":"Krostitz","type":"Kreisangehörige_Gemeinde"},"district":{"key":"14730","name":"Nordsachsen","type":"Landkreis"},"federalState":{"key":"14","name":"Sachsen"}},{"name":"Pfarrgasse","postalCode":"04509","locality":"Krostitz","municipality":{"key":"14730150","name":"Krostitz","type":"Kreisangehörige_Gemeinde"},"district":{"key":"14730","name":"Nordsachsen","type":"Landkreis"},"federalState":{"key":"14","name":"Sachsen"}},{"name":"Pfarrhausstr.","postalCode":"52445","locality":"Titz","municipality":{"key":"05358056","name":"Titz","type":"Kreisangehörige_Gemeinde"},"district":{"key":"05358","name":"Düren","type":"Kreis"},"federalState":{"key":"05","name":"Nordrhein-Westfalen"}},{"name":"Pfarrweg","postalCode":"04758","locality":"Cavertitz","municipality":{"key":"14730050","name":"Cavertitz","type":"Kreisangehörige_Gemeinde"},"district":{"key":"14730","name":"Nordsachsen","type":"Landkreis"},"federalState":{"key":"14","name":"Sachsen"}},{"name":"Pfarrweg","postalCode":"52445","locality":"Titz","municipality":{"key":"05358056","name":"Titz","type":"Kreisangehörige_Gemeinde"},"district":{"key":"05358","name":"Düren","type":"Kreis"},"federalState":{"key":"05","name":"Nordrhein-Westfalen"}},{"name":"Platvitz","postalCode":"18528","locality":"Parchtitz","municipality":{"key":"13073063","name":"Parchtitz","type":"Kreisangehörige_Gemeinde"},"district":{"key":"13073","name":"Vorpommern-Rügen","type":"Landkreis"},"federalState":{"key":"13","name":"Mecklenburg-Vorpommern"}},{"name":"Platz","postalCode":"52445","locality":"Titz","municipality":{"key":"05358056","name":"Titz","type":"Kreisangehörige_Gemeinde"},"district":{"key":"05358","name":"Düren","type":"Kreis"},"federalState":{"key":"05","name":"Nordrhein-Westfalen"}},{"name":"Platz der Jugend","postalCode":"04509","locality":"Krostitz","municipality":{"key":"14730150","name":"Krostitz","type":"Kreisangehörige_Gemeinde"},"district":{"key":"14730","name":"Nordsachsen","type":"Landkreis"},"federalState":{"key":"14","name":"Sachsen"}},{"name":"Poststr.","postalCode":"52445","locality":"Titz","municipality":{"key":"05358056","name":"Titz","type":"Kreisangehörige_Gemeinde"},"district":{"key":"05358","name":"Düren","type":"Kreis"},"federalState":{"key":"05","name":"Nordrhein-Westfalen"}},{"name":"Prämienstr.","postalCode":"52445","locality":"Titz","municipality":{"key":"05358056","name":"Titz","type":"Kreisangehörige_Gemeinde"},"district":{"key":"05358","name":"Düren","type":"Kreis"},"federalState":{"key":"05","name":"Nordrhein-Westfalen"}},{"name":"Priesterstr.","postalCode":"04509","locality":"Krostitz","municipality":{"key":"14730150","name":"Krostitz","type":"Kreisangehörige_Gemeinde"},"district":{"key":"14730","name":"Nordsachsen","type":"Landkreis"},"federalState":{"key":"14","name":"Sachsen"}},{"name":"Pröttitzer Str.","postalCode":"04509","locality":"Krostitz","municipality":{"key":"14730150","name":"Krostitz","type":"Kreisangehörige_Gemeinde"},"district":{"key":"14730","name":"Nordsachsen","type":"Landkreis"},"federalState":{"key":"14","name":"Sachsen"}},{"name":"Quirinusstr.","postalCode":"52353","locality":"Düren","municipality":{"key":"05358008","name":"Düren, Stadt","type":"Stadt"},"district":{"key":"05358","name":"Düren","type":"Kreis"},"federalState":{"key":"05","name":"Nordrhein-Westfalen"}},{"name":"Raiffeisenstr.","postalCode":"52445","locality":"Titz","municipality":{"key":"05358056","name":"Titz","type":"Kreisangehörige_Gemeinde"},"district":{"key":"05358","name":"Düren","type":"Kreis"},"federalState":{"key":"05","name":"Nordrhein-Westfalen"}},{"name":"Ralshovener Str.","postalCode":"52445","locality":"Titz","municipality":{"key":"05358056","name":"Titz","type":"Kreisangehörige_Gemeinde"},"district":{"key":"05358","name":"Düren","type":"Kreis"},"federalState":{"key":"05","name":"Nordrhein-Westfalen"}},{"name":"Reischvitz","postalCode":"18528","locality":"Parchtitz","municipality":{"key":"13073063","name":"Parchtitz","type":"Kreisangehörige_Gemeinde"},"district":{"key":"13073","name":"Vorpommern-Rügen","type":"Landkreis"},"federalState":{"key":"13","name":"Mecklenburg-Vorpommern"}},{"name":"Reitweg F","postalCode":"04758","locality":"Cavertitz","municipality":{"key":"14730050","name":"Cavertitz","type":"Kreisangehörige_Gemeinde"},"district":{"key":"14730","name":"Nordsachsen","type":"Landkreis"},"federalState":{"key":"14","name":"Sachsen"}},{"name":"Reudnitzer Str.","postalCode":"04758","locality":"Cavertitz","municipality":{"key":"14730050","name":"Cavertitz","type":"Kreisangehörige_Gemeinde"},"district":{"key":"14730","name":"Nordsachsen","type":"Landkreis"},"federalState":{"key":"14","name":"Sachsen"}},{"name":"Reudnitzer Waldstr.","postalCode":"04758","locality":"Cavertitz","municipality":{"key":"14730050","name":"Cavertitz","type":"Kreisangehörige_Gemeinde"},"district":{"key":"14730","name":"Nordsachsen","type":"Landkreis"},"federalState":{"key":"14","name":"Sachsen"}},{"name":"Rilkestr.","postalCode":"52445","locality":"Titz","municipality":{"key":"05358056","name":"Titz","type":"Kreisangehörige_Gemeinde"},"district":{"key":"05358","name":"Düren","type":"Kreis"},"federalState":{"key":"05","name":"Nordrhein-Westfalen"}},{"name":"Römerstr.","postalCode":"52445","locality":"Titz","municipality":{"key":"05358056","name":"Titz","type":"Kreisangehörige_Gemeinde"},"district":{"key":"05358","name":"Düren","type":"Kreis"},"federalState":{"key":"05","name":"Nordrhein-Westfalen"}},{"name":"Rommeler Weg","postalCode":"52445","locality":"Titz","municipality":{"key":"05358056","name":"Titz","type":"Kreisangehörige_Gemeinde"},"district":{"key":"05358","name":"Düren","type":"Kreis"},"federalState":{"key":"05","name":"Nordrhein-Westfalen"}},{"name":"Rosa-Luxemburg-Str.","postalCode":"04509","locality":"Krostitz","municipality":{"key":"14730150","name":"Krostitz","type":"Kreisangehörige_Gemeinde"},"district":{"key":"14730","name":"Nordsachsen","type":"Landkreis"},"federalState":{"key":"14","name":"Sachsen"}},{"name":"Rosenweg","postalCode":"52445","locality":"Titz","municipality":{"key":"05358056","name":"Titz","type":"Kreisangehörige_Gemeinde"},"district":{"key":"05358","name":"Düren","type":"Kreis"},"federalState":{"key":"05","name":"Nordrhein-Westfalen"}},{"name":"Roter Weg","postalCode":"04509","locality":"Krostitz","municipality":{"key":"14730150","name":"Krostitz","type":"Kreisangehörige_Gemeinde"},"district":{"key":"14730","name":"Nordsachsen","type":"Landkreis"},"federalState":{"key":"14","name":"Sachsen"}},{"name":"Schillerstr.","postalCode":"52445","locality":"Titz","municipality":{"key":"05358056","name":"Titz","type":"Kreisangehörige_Gemeinde"},"district":{"key":"05358","name":"Düren","type":"Kreis"},"federalState":{"key":"05","name":"Nordrhein-Westfalen"}},{"name":"Schmannewitzer Str.","postalCode":"04758","locality":"Cavertitz","municipality":{"key":"14730050","name":"Cavertitz","type":"Kreisangehörige_Gemeinde"},"district":{"key":"14730","name":"Nordsachsen","type":"Landkreis"},"federalState":{"key":"14","name":"Sachsen"}},{"name":"Schrebereck","postalCode":"04509","locality":"Krostitz","municipality":{"key":"14730150","name":"Krostitz","type":"Kreisangehörige_Gemeinde"},"district":{"key":"14730","name":"Nordsachsen","type":"Landkreis"},"federalState":{"key":"14","name":"Sachsen"}},{"name":"Schulhof","postalCode":"04758","locality":"Cavertitz","municipality":{"key":"14730050","name":"Cavertitz","type":"Kreisangehörige_Gemeinde"},"district":{"key":"14730","name":"Nordsachsen","type":"Landkreis"},"federalState":{"key":"14","name":"Sachsen"}},{"name":"Schulstr.","postalCode":"04509","locality":"Krostitz","municipality":{"key":"14730150","name":"Krostitz","type":"Kreisangehörige_Gemeinde"},"district":{"key":"14730","name":"Nordsachsen","type":"Landkreis"},"federalState":{"key":"14","name":"Sachsen"}},{"name":"Schulstr.","postalCode":"04758","locality":"Cavertitz","municipality":{"key":"14730050","name":"Cavertitz","type":"Kreisangehörige_Gemeinde"},"district":{"key":"14730","name":"Nordsachsen","type":"Landkreis"},"federalState":{"key":"14","name":"Sachsen"}},{"name":"Schulstr.","postalCode":"52445","locality":"Titz","municipality":{"key":"05358056","name":"Titz","type":"Kreisangehörige_Gemeinde"},"district":{"key":"05358","name":"Düren","type":"Kreis"},"federalState":{"key":"05","name":"Nordrhein-Westfalen"}},{"name":"Schulweg","postalCode":"04758","locality":"Cavertitz","municipality":{"key":"14730050","name":"Cavertitz","type":"Kreisangehörige_Gemeinde"},"district":{"key":"14730","name":"Nordsachsen","type":"Landkreis"},"federalState":{"key":"14","name":"Sachsen"}},{"name":"Schwarzer Weg","postalCode":"04509","locality":"Krostitz","municipality":{"key":"14730150","name":"Krostitz","type":"Kreisangehörige_Gemeinde"},"district":{"key":"14730","name":"Nordsachsen","type":"Landkreis"},"federalState":{"key":"14","name":"Sachsen"}},{"name":"Seitenstr.","postalCode":"04509","locality":"Krostitz","municipality":{"key":"14730150","name":"Krostitz","type":"Kreisangehörige_Gemeinde"},"district":{"key":"14730","name":"Nordsachsen","type":"Landkreis"},"federalState":{"key":"14","name":"Sachsen"}},{"name":"Serrester Weg","postalCode":"52445","locality":"Titz","municipality":{"key":"05358056","name":"Titz","type":"Kreisangehörige_Gemeinde"},"district":{"key":"05358","name":"Düren","type":"Kreis"},"federalState":{"key":"05","name":"Nordrhein-Westfalen"}},{"name":"Sevenicher Weg","postalCode":"52445","locality":"Titz","municipality":{"key":"05358056","name":"Titz","type":"Kreisangehörige_Gemeinde"},"district":{"key":"05358","name":"Düren","type":"Kreis"},"federalState":{"key":"05","name":"Nordrhein-Westfalen"}},{"name":"Sommerseite","postalCode":"04758","locality":"Cavertitz","municipality":{"key":"14730050","name":"Cavertitz","type":"Kreisangehörige_Gemeinde"},"district":{"key":"14730","name":"Nordsachsen","type":"Landkreis"},"federalState":{"key":"14","name":"Sachsen"}},{"name":"Sörnewitzer Str.","postalCode":"04758","locality":"Cavertitz","municipality":{"key":"14730050","name":"Cavertitz","type":"Kreisangehörige_Gemeinde"},"district":{"key":"14730","name":"Nordsachsen","type":"Landkreis"},"federalState":{"key":"14","name":"Sachsen"}},{"name":"Spatenschneise","postalCode":"04758","locality":"Cavertitz","municipality":{"key":"14730050","name":"Cavertitz","type":"Kreisangehörige_Gemeinde"},"district":{"key":"14730","name":"Nordsachsen","type":"Landkreis"},"federalState":{"key":"14","name":"Sachsen"}},{"name":"Spatenweg","postalCode":"04758","locality":"Cavertitz","municipality":{"key":"14730050","name":"Cavertitz","type":"Kreisangehörige_Gemeinde"},"district":{"key":"14730","name":"Nordsachsen","type":"Landkreis"},"federalState":{"key":"14","name":"Sachsen"}},{"name":"Sperlings Eck","postalCode":"04509","locality":"Krostitz","municipality":{"key":"14730150","name":"Krostitz","type":"Kreisangehörige_Gemeinde"},"district":{"key":"14730","name":"Nordsachsen","type":"Landkreis"},"federalState":{"key":"14","name":"Sachsen"}},{"name":"Spieler Weg","postalCode":"52445","locality":"Titz","municipality":{"key":"05358056","name":"Titz","type":"Kreisangehörige_Gemeinde"},"district":{"key":"05358","name":"Düren","type":"Kreis"},"federalState":{"key":"05","name":"Nordrhein-Westfalen"}},{"name":"Steinweg","postalCode":"04509","locality":"Krostitz","municipality":{"key":"14730150","name":"Krostitz","type":"Kreisangehörige_Gemeinde"},"district":{"key":"14730","name":"Nordsachsen","type":"Landkreis"},"federalState":{"key":"14","name":"Sachsen"}},{"name":"Stockenend","postalCode":"52445","locality":"Titz","municipality":{"key":"05358056","name":"Titz","type":"Kreisangehörige_Gemeinde"},"district":{"key":"05358","name":"Düren","type":"Kreis"},"federalState":{"key":"05","name":"Nordrhein-Westfalen"}},{"name":"Str. der Einheit","postalCode":"04758","locality":"Cavertitz","municipality":{"key":"14730050","name":"Cavertitz","type":"Kreisangehörige_Gemeinde"},"district":{"key":"14730","name":"Nordsachsen","type":"Landkreis"},"federalState":{"key":"14","name":"Sachsen"}},{"name":"Strehlaer Str.","postalCode":"04758","locality":"Cavertitz","municipality":{"key":"14730050","name":"Cavertitz","type":"Kreisangehörige_Gemeinde"},"district":{"key":"14730","name":"Nordsachsen","type":"Landkreis"},"federalState":{"key":"14","name":"Sachsen"}},{"name":"Stuhlweg","postalCode":"04758","locality":"Cavertitz","municipality":{"key":"14730050","name":"Cavertitz","type":"Kreisangehörige_Gemeinde"},"district":{"key":"14730","name":"Nordsachsen","type":"Landkreis"},"federalState":{"key":"14","name":"Sachsen"}},{"name":"Südstr.","postalCode":"04509","locality":"Krostitz","municipality":{"key":"14730150","name":"Krostitz","type":"Kreisangehörige_Gemeinde"},"district":{"key":"14730","name":"Nordsachsen","type":"Landkreis"},"federalState":{"key":"14","name":"Sachsen"}},{"name":"Täubchenweg","postalCode":"04509","locality":"Krostitz","municipality":{"key":"14730150","name":"Krostitz","type":"Kreisangehörige_Gemeinde"},"district":{"key":"14730","name":"Nordsachsen","type":"Landkreis"},"federalState":{"key":"14","name":"Sachsen"}},{"name":"Theodor-Storm-Str.","postalCode":"52445","locality":"Titz","municipality":{"key":"05358056","name":"Titz","type":"Kreisangehörige_Gemeinde"},"district":{"key":"05358","name":"Düren","type":"Kreis"},"federalState":{"key":"05","name":"Nordrhein-Westfalen"}},{"name":"Thomas-Mann-Str.","postalCode":"52445","locality":"Titz","municipality":{"key":"05358056","name":"Titz","type":"Kreisangehörige_Gemeinde"},"district":{"key":"05358","name":"Düren","type":"Kreis"},"federalState":{"key":"05","name":"Nordrhein-Westfalen"}},{"name":"Titzer Str.","postalCode":"52445","locality":"Titz","municipality":{"key":"05358056","name":"Titz","type":"Kreisangehörige_Gemeinde"},"district":{"key":"05358","name":"Düren","type":"Kreis"},"federalState":{"key":"05","name":"Nordrhein-Westfalen"}},{"name":"Treptitzer Str.","postalCode":"04758","locality":"Cavertitz","municipality":{"key":"14730050","name":"Cavertitz","type":"Kreisangehörige_Gemeinde"},"district":{"key":"14730","name":"Nordsachsen","type":"Landkreis"},"federalState":{"key":"14","name":"Sachsen"}},{"name":"Turnerstr.","postalCode":"04509","locality":"Krostitz","municipality":{"key":"14730150","name":"Krostitz","type":"Kreisangehörige_Gemeinde"},"district":{"key":"14730","name":"Nordsachsen","type":"Landkreis"},"federalState":{"key":"14","name":"Sachsen"}},{"name":"Uhlandstr.","postalCode":"52445","locality":"Titz","municipality":{"key":"05358056","name":"Titz","type":"Kreisangehörige_Gemeinde"},"district":{"key":"05358","name":"Düren","type":"Kreis"},"federalState":{"key":"05","name":"Nordrhein-Westfalen"}},{"name":"Ulmenweg","postalCode":"52445","locality":"Titz","municipality":{"key":"05358056","name":"Titz","type":"Kreisangehörige_Gemeinde"},"district":{"key":"05358","name":"Düren","type":"Kreis"},"federalState":{"key":"05","name":"Nordrhein-Westfalen"}},{"name":"Urbanstr.","postalCode":"52445","locality":"Titz","municipality":{"key":"05358056","name":"Titz","type":"Kreisangehörige_Gemeinde"},"district":{"key":"05358","name":"Düren","type":"Kreis"},"federalState":{"key":"05","name":"Nordrhein-Westfalen"}},{"name":"Velderstr.","postalCode":"52445","locality":"Titz","municipality":{"key":"05358056","name":"Titz","type":"Kreisangehörige_Gemeinde"},"district":{"key":"05358","name":"Düren","type":"Kreis"},"federalState":{"key":"05","name":"Nordrhein-Westfalen"}},{"name":"Von-Hasselt-Str.","postalCode":"52445","locality":"Titz","municipality":{"key":"05358056","name":"Titz","type":"Kreisangehörige_Gemeinde"},"district":{"key":"05358","name":"Düren","type":"Kreis"},"federalState":{"key":"05","name":"Nordrhein-Westfalen"}},{"name":"Von-Kleist-Str.","postalCode":"52445","locality":"Titz","municipality":{"key":"05358056","name":"Titz","type":"Kreisangehörige_Gemeinde"},"district":{"key":"05358","name":"Düren","type":"Kreis"},"federalState":{"key":"05","name":"Nordrhein-Westfalen"}},{"name":"Von-Leerodt-Str.","postalCode":"52445","locality":"Titz","municipality":{"key":"05358056","name":"Titz","type":"Kreisangehörige_Gemeinde"},"district":{"key":"05358","name":"Düren","type":"Kreis"},"federalState":{"key":"05","name":"Nordrhein-Westfalen"}},{"name":"Wagnerweg","postalCode":"52445","locality":"Titz","municipality":{"key":"05358056","name":"Titz","type":"Kreisangehörige_Gemeinde"},"district":{"key":"05358","name":"Düren","type":"Kreis"},"federalState":{"key":"05","name":"Nordrhein-Westfalen"}},{"name":"Waldstr.","postalCode":"04509","locality":"Krostitz","municipality":{"key":"14730150","name":"Krostitz","type":"Kreisangehörige_Gemeinde"},"district":{"key":"14730","name":"Nordsachsen","type":"Landkreis"},"federalState":{"key":"14","name":"Sachsen"}},{"name":"Waldstr.","postalCode":"04758","locality":"Cavertitz","municipality":{"key":"14730050","name":"Cavertitz","type":"Kreisangehörige_Gemeinde"},"district":{"key":"14730","name":"Nordsachsen","type":"Landkreis"},"federalState":{"key":"14","name":"Sachsen"}},{"name":"Wallstr.","postalCode":"52445","locality":"Titz","municipality":{"key":"05358056","name":"Titz","type":"Kreisangehörige_Gemeinde"},"district":{"key":"05358","name":"Düren","type":"Kreis"},"federalState":{"key":"05","name":"Nordrhein-Westfalen"}},{"name":"Walrafstr.","postalCode":"52445","locality":"Titz","municipality":{"key":"05358056","name":"Titz","type":"Kreisangehörige_Gemeinde"},"district":{"key":"05358","name":"Düren","type":"Kreis"},"federalState":{"key":"05","name":"Nordrhein-Westfalen"}},{"name":"Wechselpfad","postalCode":"52445","locality":"Titz","municipality":{"key":"05358056","name":"Titz","type":"Kreisangehörige_Gemeinde"},"district":{"key":"05358","name":"Düren","type":"Kreis"},"federalState":{"key":"05","name":"Nordrhein-Westfalen"}},{"name":"Weidenstr.","postalCode":"52445","locality":"Titz","municipality":{"key":"05358056","name":"Titz","type":"Kreisangehörige_Gemeinde"},"district":{"key":"05358","name":"Düren","type":"Kreis"},"federalState":{"key":"05","name":"Nordrhein-Westfalen"}},{"name":"Weinbergstr.","postalCode":"04758","locality":"Cavertitz","municipality":{"key":"14730050","name":"Cavertitz","type":"Kreisangehörige_Gemeinde"},"district":{"key":"14730","name":"Nordsachsen","type":"Landkreis"},"federalState":{"key":"14","name":"Sachsen"}},{"name":"Westend","postalCode":"52445","locality":"Titz","municipality":{"key":"05358056","name":"Titz","type":"Kreisangehörige_Gemeinde"},"district":{"key":"05358","name":"Düren","type":"Kreis"},"federalState":{"key":"05","name":"Nordrhein-Westfalen"}},{"name":"Weststr.","postalCode":"04509","locality":"Krostitz","municipality":{"key":"14730150","name":"Krostitz","type":"Kreisangehörige_Gemeinde"},"district":{"key":"14730","name":"Nordsachsen","type":"Landkreis"},"federalState":{"key":"14","name":"Sachsen"}},{"name":"Wielandstr.","postalCode":"52445","locality":"Titz","municipality":{"key":"05358056","name":"Titz","type":"Kreisangehörige_Gemeinde"},"district":{"key":"05358","name":"Düren","type":"Kreis"},"federalState":{"key":"05","name":"Nordrhein-Westfalen"}},{"name":"Wiesenstr.","postalCode":"04509","locality":"Krostitz","municipality":{"key":"14730150","name":"Krostitz","type":"Kreisangehörige_Gemeinde"},"district":{"key":"14730","name":"Nordsachsen","type":"Landkreis"},"federalState":{"key":"14","name":"Sachsen"}},{"name":"Wiesenstr.","postalCode":"52445","locality":"Titz","municipality":{"key":"05358056","name":"Titz","type":"Kreisangehörige_Gemeinde"},"district":{"key":"05358","name":"Düren","type":"Kreis"},"federalState":{"key":"05","name":"Nordrhein-Westfalen"}},{"name":"Wiesenweg","postalCode":"04758","locality":"Cavertitz","municipality":{"key":"14730050","name":"Cavertitz","type":"Kreisangehörige_Gemeinde"},"district":{"key":"14730","name":"Nordsachsen","type":"Landkreis"},"federalState":{"key":"14","name":"Sachsen"}},{"name":"Wiesenweg","postalCode":"18528","locality":"Parchtitz","municipality":{"key":"13073063","name":"Parchtitz","type":"Kreisangehörige_Gemeinde"},"district":{"key":"13073","name":"Vorpommern-Rügen","type":"Landkreis"},"federalState":{"key":"13","name":"Mecklenburg-Vorpommern"}},{"name":"Willihof","postalCode":"18528","locality":"Parchtitz","municipality":{"key":"13073063","name":"Parchtitz","type":"Kreisangehörige_Gemeinde"},"district":{"key":"13073","name":"Vorpommern-Rügen","type":"Landkreis"},"federalState":{"key":"13","name":"Mecklenburg-Vorpommern"}},{"name":"Windmühlenweg","postalCode":"04758","locality":"Cavertitz","municipality":{"key":"14730050","name":"Cavertitz","type":"Kreisangehörige_Gemeinde"},"district":{"key":"14730","name":"Nordsachsen","type":"Landkreis"},"federalState":{"key":"14","name":"Sachsen"}},{"name":"Winkel","postalCode":"04758","locality":"Cavertitz","municipality":{"key":"14730050","name":"Cavertitz","type":"Kreisangehörige_Gemeinde"},"district":{"key":"14730","name":"Nordsachsen","type":"Landkreis"},"federalState":{"key":"14","name":"Sachsen"}},{"name":"Winterseite","postalCode":"04758","locality":"Cavertitz","municipality":{"key":"14730050","name":"Cavertitz","type":"Kreisangehörige_Gemeinde"},"district":{"key":"14730","name":"Nordsachsen","type":"Landkreis"},"federalState":{"key":"14","name":"Sachsen"}},{"name":"Wohlauer Str.","postalCode":"04758","locality":"Cavertitz","municipality":{"key":"14730050","name":"Cavertitz","type":"Kreisangehörige_Gemeinde"},"district":{"key":"14730","name":"Nordsachsen","type":"Landkreis"},"federalState":{"key":"14","name":"Sachsen"}},{"name":"Yorckstr.","postalCode":"52351","locality":"Düren","municipality":{"key":"05358008","name":"Düren, Stadt","type":"Stadt"},"district":{"key":"05358","name":"Düren","type":"Kreis"},"federalState":{"key":"05","name":"Nordrhein-Westfalen"}},{"name":"Zeuckritzer Str.","postalCode":"04758","locality":"Cavertitz","municipality":{"key":"14730050","name":"Cavertitz","type":"Kreisangehörige_Gemeinde"},"district":{"key":"14730","name":"Nordsachsen","type":"Landkreis"},"federalState":{"key":"14","name":"Sachsen"}},{"name":"Zum Bungalowdorf","postalCode":"04758","locality":"Cavertitz","municipality":{"key":"14730050","name":"Cavertitz","type":"Kreisangehörige_Gemeinde"},"district":{"key":"14730","name":"Nordsachsen","type":"Landkreis"},"federalState":{"key":"14","name":"Sachsen"}},{"name":"Zum Königstal","postalCode":"52445","locality":"Titz","municipality":{"key":"05358056","name":"Titz","type":"Kreisangehörige_Gemeinde"},"district":{"key":"05358","name":"Düren","type":"Kreis"},"federalState":{"key":"05","name":"Nordrhein-Westfalen"}},{"name":"Zum Sevenicher Kreuz","postalCode":"52445","locality":"Titz","municipality":{"key":"05358056","name":"Titz","type":"Kreisangehörige_Gemeinde"},"district":{"key":"05358","name":"Düren","type":"Kreis"},"federalState":{"key":"05","name":"Nordrhein-Westfalen"}},{"name":"Zur Düppelsmühle","postalCode":"52445","locality":"Titz","municipality":{"key":"05358056","name":"Titz","type":"Kreisangehörige_Gemeinde"},"district":{"key":"05358","name":"Düren","type":"Kreis"},"federalState":{"key":"05","name":"Nordrhein-Westfalen"}},{"name":"Zur goldenen Aue","postalCode":"04509","locality":"Krostitz","municipality":{"key":"14730150","name":"Krostitz","type":"Kreisangehörige_Gemeinde"},"district":{"key":"14730","name":"Nordsachsen","type":"Landkreis"},"federalState":{"key":"14","name":"Sachsen"}},{"name":"Zur Klause","postalCode":"04509","locality":"Krostitz","municipality":{"key":"14730150","name":"Krostitz","type":"Kreisangehörige_Gemeinde"},"district":{"key":"14730","name":"Nordsachsen","type":"Landkreis"},"federalState":{"key":"14","name":"Sachsen"}},]