[{"name":"Alte Auerbacher Str.","postalCode":"08304","locality":"Schönheide","municipality":{"key":"14521540","name":"Schönheide","type":"Kreisangehörige_Gemeinde"},"district":{"key":"14521","name":"Erzgebirgskreis","type":"Landkreis"},"federalState":{"key":"14","name":"Sachsen"}},{"name":"Alte Rautenkranzer Str.","postalCode":"08304","locality":"Schönheide","municipality":{"key":"14521540","name":"Schönheide","type":"Kreisangehörige_Gemeinde"},"district":{"key":"14521","name":"Erzgebirgskreis","type":"Landkreis"},"federalState":{"key":"14","name":"Sachsen"}},{"name":"Alter Friedhof","postalCode":"08304","locality":"Schönheide","municipality":{"key":"14521540","name":"Schönheide","type":"Kreisangehörige_Gemeinde"},"district":{"key":"14521","name":"Erzgebirgskreis","type":"Landkreis"},"federalState":{"key":"14","name":"Sachsen"}},{"name":"Alte Schnarrtanner Str.","postalCode":"08304","locality":"Schönheide","municipality":{"key":"14521540","name":"Schönheide","type":"Kreisangehörige_Gemeinde"},"district":{"key":"14521","name":"Erzgebirgskreis","type":"Landkreis"},"federalState":{"key":"14","name":"Sachsen"}},{"name":"Am Filzbach","postalCode":"08304","locality":"Schönheide","municipality":{"key":"14521540","name":"Schönheide","type":"Kreisangehörige_Gemeinde"},"district":{"key":"14521","name":"Erzgebirgskreis","type":"Landkreis"},"federalState":{"key":"14","name":"Sachsen"}},{"name":"Am Fuchsstein","postalCode":"08304","locality":"Schönheide","municipality":{"key":"14521540","name":"Schönheide","type":"Kreisangehörige_Gemeinde"},"district":{"key":"14521","name":"Erzgebirgskreis","type":"Landkreis"},"federalState":{"key":"14","name":"Sachsen"}},{"name":"Am Vogelherd","postalCode":"08304","locality":"Schönheide","municipality":{"key":"14521540","name":"Schönheide","type":"Kreisangehörige_Gemeinde"},"district":{"key":"14521","name":"Erzgebirgskreis","type":"Landkreis"},"federalState":{"key":"14","name":"Sachsen"}},{"name":"Angerstr.","postalCode":"08304","locality":"Schönheide","municipality":{"key":"14521540","name":"Schönheide","type":"Kreisangehörige_Gemeinde"},"district":{"key":"14521","name":"Erzgebirgskreis","type":"Landkreis"},"federalState":{"key":"14","name":"Sachsen"}},{"name":"Apothekengässchen","postalCode":"08304","locality":"Schönheide","municipality":{"key":"14521540","name":"Schönheide","type":"Kreisangehörige_Gemeinde"},"district":{"key":"14521","name":"Erzgebirgskreis","type":"Landkreis"},"federalState":{"key":"14","name":"Sachsen"}},{"name":"Auerbacher Str.","postalCode":"08304","locality":"Schönheide","municipality":{"key":"14521540","name":"Schönheide","type":"Kreisangehörige_Gemeinde"},"district":{"key":"14521","name":"Erzgebirgskreis","type":"Landkreis"},"federalState":{"key":"14","name":"Sachsen"}},{"name":"Berggasse","postalCode":"08304","locality":"Schönheide","municipality":{"key":"14521540","name":"Schönheide","type":"Kreisangehörige_Gemeinde"},"district":{"key":"14521","name":"Erzgebirgskreis","type":"Landkreis"},"federalState":{"key":"14","name":"Sachsen"}},{"name":"Bernhardtweg","postalCode":"08304","locality":"Schönheide","municipality":{"key":"14521540","name":"Schönheide","type":"Kreisangehörige_Gemeinde"},"district":{"key":"14521","name":"Erzgebirgskreis","type":"Landkreis"},"federalState":{"key":"14","name":"Sachsen"}},{"name":"Brückenstr.","postalCode":"08304","locality":"Schönheide","municipality":{"key":"14521540","name":"Schönheide","type":"Kreisangehörige_Gemeinde"},"district":{"key":"14521","name":"Erzgebirgskreis","type":"Landkreis"},"federalState":{"key":"14","name":"Sachsen"}},{"name":"Butterbergweg","postalCode":"08304","locality":"Schönheide","municipality":{"key":"14521540","name":"Schönheide","type":"Kreisangehörige_Gemeinde"},"district":{"key":"14521","name":"Erzgebirgskreis","type":"Landkreis"},"federalState":{"key":"14","name":"Sachsen"}},{"name":"Carolagrüner Str.","postalCode":"08304","locality":"Schönheide","municipality":{"key":"14521540","name":"Schönheide","type":"Kreisangehörige_Gemeinde"},"district":{"key":"14521","name":"Erzgebirgskreis","type":"Landkreis"},"federalState":{"key":"14","name":"Sachsen"}},{"name":"Eibenstocker Str.","postalCode":"08304","locality":"Schönheide","municipality":{"key":"14521540","name":"Schönheide","type":"Kreisangehörige_Gemeinde"},"district":{"key":"14521","name":"Erzgebirgskreis","type":"Landkreis"},"federalState":{"key":"14","name":"Sachsen"}},{"name":"Fabrikgasse","postalCode":"08304","locality":"Schönheide","municipality":{"key":"14521540","name":"Schönheide","type":"Kreisangehörige_Gemeinde"},"district":{"key":"14521","name":"Erzgebirgskreis","type":"Landkreis"},"federalState":{"key":"14","name":"Sachsen"}},{"name":"Fichtigweg","postalCode":"08304","locality":"Schönheide","municipality":{"key":"14521540","name":"Schönheide","type":"Kreisangehörige_Gemeinde"},"district":{"key":"14521","name":"Erzgebirgskreis","type":"Landkreis"},"federalState":{"key":"14","name":"Sachsen"}},{"name":"Flachengässchen","postalCode":"08304","locality":"Schönheide","municipality":{"key":"14521540","name":"Schönheide","type":"Kreisangehörige_Gemeinde"},"district":{"key":"14521","name":"Erzgebirgskreis","type":"Landkreis"},"federalState":{"key":"14","name":"Sachsen"}},{"name":"Flächenweg","postalCode":"08304","locality":"Schönheide","municipality":{"key":"14521540","name":"Schönheide","type":"Kreisangehörige_Gemeinde"},"district":{"key":"14521","name":"Erzgebirgskreis","type":"Landkreis"},"federalState":{"key":"14","name":"Sachsen"}},{"name":"Flügelweg","postalCode":"08304","locality":"Schönheide","municipality":{"key":"14521540","name":"Schönheide","type":"Kreisangehörige_Gemeinde"},"district":{"key":"14521","name":"Erzgebirgskreis","type":"Landkreis"},"federalState":{"key":"14","name":"Sachsen"}},{"name":"Forststr.","postalCode":"08304","locality":"Schönheide","municipality":{"key":"14521540","name":"Schönheide","type":"Kreisangehörige_Gemeinde"},"district":{"key":"14521","name":"Erzgebirgskreis","type":"Landkreis"},"federalState":{"key":"14","name":"Sachsen"}},{"name":"Gartenweg","postalCode":"08304","locality":"Schönheide","municipality":{"key":"14521540","name":"Schönheide","type":"Kreisangehörige_Gemeinde"},"district":{"key":"14521","name":"Erzgebirgskreis","type":"Landkreis"},"federalState":{"key":"14","name":"Sachsen"}},{"name":"Gießereistr.","postalCode":"08304","locality":"Schönheide","municipality":{"key":"14521540","name":"Schönheide","type":"Kreisangehörige_Gemeinde"},"district":{"key":"14521","name":"Erzgebirgskreis","type":"Landkreis"},"federalState":{"key":"14","name":"Sachsen"}},{"name":"Grasesteig","postalCode":"08304","locality":"Schönheide","municipality":{"key":"14521540","name":"Schönheide","type":"Kreisangehörige_Gemeinde"},"district":{"key":"14521","name":"Erzgebirgskreis","type":"Landkreis"},"federalState":{"key":"14","name":"Sachsen"}},{"name":"Gule","postalCode":"08304","locality":"Schönheide","municipality":{"key":"14521540","name":"Schönheide","type":"Kreisangehörige_Gemeinde"},"district":{"key":"14521","name":"Erzgebirgskreis","type":"Landkreis"},"federalState":{"key":"14","name":"Sachsen"}},{"name":"Hahnenhausweg","postalCode":"08304","locality":"Schönheide","municipality":{"key":"14521540","name":"Schönheide","type":"Kreisangehörige_Gemeinde"},"district":{"key":"14521","name":"Erzgebirgskreis","type":"Landkreis"},"federalState":{"key":"14","name":"Sachsen"}},{"name":"Hammerkogel","postalCode":"08304","locality":"Schönheide","municipality":{"key":"14521540","name":"Schönheide","type":"Kreisangehörige_Gemeinde"},"district":{"key":"14521","name":"Erzgebirgskreis","type":"Landkreis"},"federalState":{"key":"14","name":"Sachsen"}},{"name":"Hammerkogel (o.)","postalCode":"08304","locality":"Schönheide","municipality":{"key":"14521540","name":"Schönheide","type":"Kreisangehörige_Gemeinde"},"district":{"key":"14521","name":"Erzgebirgskreis","type":"Landkreis"},"federalState":{"key":"14","name":"Sachsen"}},{"name":"Hauptstr.","postalCode":"08304","locality":"Schönheide","municipality":{"key":"14521540","name":"Schönheide","type":"Kreisangehörige_Gemeinde"},"district":{"key":"14521","name":"Erzgebirgskreis","type":"Landkreis"},"federalState":{"key":"14","name":"Sachsen"}},{"name":"Hauptstr. (Schwangasse)","postalCode":"08304","locality":"Schönheide","municipality":{"key":"14521540","name":"Schönheide","type":"Kreisangehörige_Gemeinde"},"district":{"key":"14521","name":"Erzgebirgskreis","type":"Landkreis"},"federalState":{"key":"14","name":"Sachsen"}},{"name":"Heiterer Blick","postalCode":"08304","locality":"Schönheide","municipality":{"key":"14521540","name":"Schönheide","type":"Kreisangehörige_Gemeinde"},"district":{"key":"14521","name":"Erzgebirgskreis","type":"Landkreis"},"federalState":{"key":"14","name":"Sachsen"}},{"name":"Hoher Bergweg","postalCode":"08304","locality":"Schönheide","municipality":{"key":"14521540","name":"Schönheide","type":"Kreisangehörige_Gemeinde"},"district":{"key":"14521","name":"Erzgebirgskreis","type":"Landkreis"},"federalState":{"key":"14","name":"Sachsen"}},{"name":"Kalterbrunnenweg","postalCode":"08304","locality":"Schönheide","municipality":{"key":"14521540","name":"Schönheide","type":"Kreisangehörige_Gemeinde"},"district":{"key":"14521","name":"Erzgebirgskreis","type":"Landkreis"},"federalState":{"key":"14","name":"Sachsen"}},{"name":"Kirchsteig","postalCode":"08304","locality":"Schönheide","municipality":{"key":"14521540","name":"Schönheide","type":"Kreisangehörige_Gemeinde"},"district":{"key":"14521","name":"Erzgebirgskreis","type":"Landkreis"},"federalState":{"key":"14","name":"Sachsen"}},{"name":"Kurze Gasse","postalCode":"08304","locality":"Schönheide","municipality":{"key":"14521540","name":"Schönheide","type":"Kreisangehörige_Gemeinde"},"district":{"key":"14521","name":"Erzgebirgskreis","type":"Landkreis"},"federalState":{"key":"14","name":"Sachsen"}},{"name":"Laubbergweg","postalCode":"08304","locality":"Schönheide","municipality":{"key":"14521540","name":"Schönheide","type":"Kreisangehörige_Gemeinde"},"district":{"key":"14521","name":"Erzgebirgskreis","type":"Landkreis"},"federalState":{"key":"14","name":"Sachsen"}},{"name":"Lenkensweg","postalCode":"08304","locality":"Schönheide","municipality":{"key":"14521540","name":"Schönheide","type":"Kreisangehörige_Gemeinde"},"district":{"key":"14521","name":"Erzgebirgskreis","type":"Landkreis"},"federalState":{"key":"14","name":"Sachsen"}},{"name":"Lindenstr.","postalCode":"08304","locality":"Schönheide","municipality":{"key":"14521540","name":"Schönheide","type":"Kreisangehörige_Gemeinde"},"district":{"key":"14521","name":"Erzgebirgskreis","type":"Landkreis"},"federalState":{"key":"14","name":"Sachsen"}},{"name":"Mittelstr.","postalCode":"08304","locality":"Schönheide","municipality":{"key":"14521540","name":"Schönheide","type":"Kreisangehörige_Gemeinde"},"district":{"key":"14521","name":"Erzgebirgskreis","type":"Landkreis"},"federalState":{"key":"14","name":"Sachsen"}},{"name":"Muldenstr.","postalCode":"08304","locality":"Schönheide","municipality":{"key":"14521540","name":"Schönheide","type":"Kreisangehörige_Gemeinde"},"district":{"key":"14521","name":"Erzgebirgskreis","type":"Landkreis"},"federalState":{"key":"14","name":"Sachsen"}},{"name":"Nasser Brückenweg","postalCode":"08304","locality":"Schönheide","municipality":{"key":"14521540","name":"Schönheide","type":"Kreisangehörige_Gemeinde"},"district":{"key":"14521","name":"Erzgebirgskreis","type":"Landkreis"},"federalState":{"key":"14","name":"Sachsen"}},{"name":"Neuer Unterstützengrüner Bahnhofsweg","postalCode":"08304","locality":"Schönheide","municipality":{"key":"14521540","name":"Schönheide","type":"Kreisangehörige_Gemeinde"},"district":{"key":"14521","name":"Erzgebirgskreis","type":"Landkreis"},"federalState":{"key":"14","name":"Sachsen"}},{"name":"Neuheider Str.","postalCode":"08304","locality":"Schönheide","municipality":{"key":"14521540","name":"Schönheide","type":"Kreisangehörige_Gemeinde"},"district":{"key":"14521","name":"Erzgebirgskreis","type":"Landkreis"},"federalState":{"key":"14","name":"Sachsen"}},{"name":"Neuheider Weg","postalCode":"08304","locality":"Schönheide","municipality":{"key":"14521540","name":"Schönheide","type":"Kreisangehörige_Gemeinde"},"district":{"key":"14521","name":"Erzgebirgskreis","type":"Landkreis"},"federalState":{"key":"14","name":"Sachsen"}},{"name":"Oberer Wernesgrüner Weg","postalCode":"08304","locality":"Schönheide","municipality":{"key":"14521540","name":"Schönheide","type":"Kreisangehörige_Gemeinde"},"district":{"key":"14521","name":"Erzgebirgskreis","type":"Landkreis"},"federalState":{"key":"14","name":"Sachsen"}},{"name":"Obere Str.","postalCode":"08304","locality":"Schönheide","municipality":{"key":"14521540","name":"Schönheide","type":"Kreisangehörige_Gemeinde"},"district":{"key":"14521","name":"Erzgebirgskreis","type":"Landkreis"},"federalState":{"key":"14","name":"Sachsen"}},{"name":"Paradies","postalCode":"08304","locality":"Schönheide","municipality":{"key":"14521540","name":"Schönheide","type":"Kreisangehörige_Gemeinde"},"district":{"key":"14521","name":"Erzgebirgskreis","type":"Landkreis"},"federalState":{"key":"14","name":"Sachsen"}},{"name":"Pechhüttenflügel","postalCode":"08304","locality":"Schönheide","municipality":{"key":"14521540","name":"Schönheide","type":"Kreisangehörige_Gemeinde"},"district":{"key":"14521","name":"Erzgebirgskreis","type":"Landkreis"},"federalState":{"key":"14","name":"Sachsen"}},{"name":"Pechhüttenweg","postalCode":"08304","locality":"Schönheide","municipality":{"key":"14521540","name":"Schönheide","type":"Kreisangehörige_Gemeinde"},"district":{"key":"14521","name":"Erzgebirgskreis","type":"Landkreis"},"federalState":{"key":"14","name":"Sachsen"}},{"name":"Postgasse","postalCode":"08304","locality":"Schönheide","municipality":{"key":"14521540","name":"Schönheide","type":"Kreisangehörige_Gemeinde"},"district":{"key":"14521","name":"Erzgebirgskreis","type":"Landkreis"},"federalState":{"key":"14","name":"Sachsen"}},{"name":"Postpark","postalCode":"08304","locality":"Schönheide","municipality":{"key":"14521540","name":"Schönheide","type":"Kreisangehörige_Gemeinde"},"district":{"key":"14521","name":"Erzgebirgskreis","type":"Landkreis"},"federalState":{"key":"14","name":"Sachsen"}},{"name":"Quergasse","postalCode":"08304","locality":"Schönheide","municipality":{"key":"14521540","name":"Schönheide","type":"Kreisangehörige_Gemeinde"},"district":{"key":"14521","name":"Erzgebirgskreis","type":"Landkreis"},"federalState":{"key":"14","name":"Sachsen"}},{"name":"Rathausberg","postalCode":"08304","locality":"Schönheide","municipality":{"key":"14521540","name":"Schönheide","type":"Kreisangehörige_Gemeinde"},"district":{"key":"14521","name":"Erzgebirgskreis","type":"Landkreis"},"federalState":{"key":"14","name":"Sachsen"}},{"name":"Rautenkranzer Weg","postalCode":"08304","locality":"Schönheide","municipality":{"key":"14521540","name":"Schönheide","type":"Kreisangehörige_Gemeinde"},"district":{"key":"14521","name":"Erzgebirgskreis","type":"Landkreis"},"federalState":{"key":"14","name":"Sachsen"}},{"name":"Ruhsteinweg","postalCode":"08304","locality":"Schönheide","municipality":{"key":"14521540","name":"Schönheide","type":"Kreisangehörige_Gemeinde"},"district":{"key":"14521","name":"Erzgebirgskreis","type":"Landkreis"},"federalState":{"key":"14","name":"Sachsen"}},{"name":"Schneeberger Str.","postalCode":"08304","locality":"Schönheide","municipality":{"key":"14521540","name":"Schönheide","type":"Kreisangehörige_Gemeinde"},"district":{"key":"14521","name":"Erzgebirgskreis","type":"Landkreis"},"federalState":{"key":"14","name":"Sachsen"}},{"name":"Schönheider Str.","postalCode":"08304","locality":"Schönheide","municipality":{"key":"14521540","name":"Schönheide","type":"Kreisangehörige_Gemeinde"},"district":{"key":"14521","name":"Erzgebirgskreis","type":"Landkreis"},"federalState":{"key":"14","name":"Sachsen"}},{"name":"Schulgasse","postalCode":"08304","locality":"Schönheide","municipality":{"key":"14521540","name":"Schönheide","type":"Kreisangehörige_Gemeinde"},"district":{"key":"14521","name":"Erzgebirgskreis","type":"Landkreis"},"federalState":{"key":"14","name":"Sachsen"}},{"name":"Schwarzwinkel","postalCode":"08304","locality":"Schönheide","municipality":{"key":"14521540","name":"Schönheide","type":"Kreisangehörige_Gemeinde"},"district":{"key":"14521","name":"Erzgebirgskreis","type":"Landkreis"},"federalState":{"key":"14","name":"Sachsen"}},{"name":"Silberbachweg","postalCode":"08304","locality":"Schönheide","municipality":{"key":"14521540","name":"Schönheide","type":"Kreisangehörige_Gemeinde"},"district":{"key":"14521","name":"Erzgebirgskreis","type":"Landkreis"},"federalState":{"key":"14","name":"Sachsen"}},{"name":"Stangenberg","postalCode":"08304","locality":"Schönheide","municipality":{"key":"14521540","name":"Schönheide","type":"Kreisangehörige_Gemeinde"},"district":{"key":"14521","name":"Erzgebirgskreis","type":"Landkreis"},"federalState":{"key":"14","name":"Sachsen"}},{"name":"Str. der Einheit","postalCode":"08304","locality":"Schönheide","municipality":{"key":"14521540","name":"Schönheide","type":"Kreisangehörige_Gemeinde"},"district":{"key":"14521","name":"Erzgebirgskreis","type":"Landkreis"},"federalState":{"key":"14","name":"Sachsen"}},{"name":"Streuobstwiese","postalCode":"08304","locality":"Schönheide","municipality":{"key":"14521540","name":"Schönheide","type":"Kreisangehörige_Gemeinde"},"district":{"key":"14521","name":"Erzgebirgskreis","type":"Landkreis"},"federalState":{"key":"14","name":"Sachsen"}},{"name":"Stützengrüner Str.","postalCode":"08304","locality":"Schönheide","municipality":{"key":"14521540","name":"Schönheide","type":"Kreisangehörige_Gemeinde"},"district":{"key":"14521","name":"Erzgebirgskreis","type":"Landkreis"},"federalState":{"key":"14","name":"Sachsen"}},{"name":"Suddelweg","postalCode":"08304","locality":"Schönheide","municipality":{"key":"14521540","name":"Schönheide","type":"Kreisangehörige_Gemeinde"},"district":{"key":"14521","name":"Erzgebirgskreis","type":"Landkreis"},"federalState":{"key":"14","name":"Sachsen"}},{"name":"Tannbachweg","postalCode":"08304","locality":"Schönheide","municipality":{"key":"14521540","name":"Schönheide","type":"Kreisangehörige_Gemeinde"},"district":{"key":"14521","name":"Erzgebirgskreis","type":"Landkreis"},"federalState":{"key":"14","name":"Sachsen"}},{"name":"Tannenbachweg","postalCode":"08304","locality":"Schönheide","municipality":{"key":"14521540","name":"Schönheide","type":"Kreisangehörige_Gemeinde"},"district":{"key":"14521","name":"Erzgebirgskreis","type":"Landkreis"},"federalState":{"key":"14","name":"Sachsen"}},{"name":"Unterer Wernesgrüner Weg","postalCode":"08304","locality":"Schönheide","municipality":{"key":"14521540","name":"Schönheide","type":"Kreisangehörige_Gemeinde"},"district":{"key":"14521","name":"Erzgebirgskreis","type":"Landkreis"},"federalState":{"key":"14","name":"Sachsen"}},{"name":"Vogelsgrüner Weg","postalCode":"08304","locality":"Schönheide","municipality":{"key":"14521540","name":"Schönheide","type":"Kreisangehörige_Gemeinde"},"district":{"key":"14521","name":"Erzgebirgskreis","type":"Landkreis"},"federalState":{"key":"14","name":"Sachsen"}},{"name":"Waldstr.","postalCode":"08304","locality":"Schönheide","municipality":{"key":"14521540","name":"Schönheide","type":"Kreisangehörige_Gemeinde"},"district":{"key":"14521","name":"Erzgebirgskreis","type":"Landkreis"},"federalState":{"key":"14","name":"Sachsen"}},{"name":"Webersberg","postalCode":"08304","locality":"Schönheide","municipality":{"key":"14521540","name":"Schönheide","type":"Kreisangehörige_Gemeinde"},"district":{"key":"14521","name":"Erzgebirgskreis","type":"Landkreis"},"federalState":{"key":"14","name":"Sachsen"}},{"name":"Webersbergweg","postalCode":"08304","locality":"Schönheide","municipality":{"key":"14521540","name":"Schönheide","type":"Kreisangehörige_Gemeinde"},"district":{"key":"14521","name":"Erzgebirgskreis","type":"Landkreis"},"federalState":{"key":"14","name":"Sachsen"}},{"name":"Weidmannsweg","postalCode":"08304","locality":"Schönheide","municipality":{"key":"14521540","name":"Schönheide","type":"Kreisangehörige_Gemeinde"},"district":{"key":"14521","name":"Erzgebirgskreis","type":"Landkreis"},"federalState":{"key":"14","name":"Sachsen"}},{"name":"Weitersweg","postalCode":"08304","locality":"Schönheide","municipality":{"key":"14521540","name":"Schönheide","type":"Kreisangehörige_Gemeinde"},"district":{"key":"14521","name":"Erzgebirgskreis","type":"Landkreis"},"federalState":{"key":"14","name":"Sachsen"}},{"name":"Wiesenstr.","postalCode":"08304","locality":"Schönheide","municipality":{"key":"14521540","name":"Schönheide","type":"Kreisangehörige_Gemeinde"},"district":{"key":"14521","name":"Erzgebirgskreis","type":"Landkreis"},"federalState":{"key":"14","name":"Sachsen"}},{"name":"Wilzschhaus","postalCode":"08304","locality":"Schönheide","municipality":{"key":"14521540","name":"Schönheide","type":"Kreisangehörige_Gemeinde"},"district":{"key":"14521","name":"Erzgebirgskreis","type":"Landkreis"},"federalState":{"key":"14","name":"Sachsen"}},{"name":"Windmühlenweg","postalCode":"08304","locality":"Schönheide","municipality":{"key":"14521540","name":"Schönheide","type":"Kreisangehörige_Gemeinde"},"district":{"key":"14521","name":"Erzgebirgskreis","type":"Landkreis"},"federalState":{"key":"14","name":"Sachsen"}},{"name":"Ziegenleithe","postalCode":"08304","locality":"Schönheide","municipality":{"key":"14521540","name":"Schönheide","type":"Kreisangehörige_Gemeinde"},"district":{"key":"14521","name":"Erzgebirgskreis","type":"Landkreis"},"federalState":{"key":"14","name":"Sachsen"}},]