[{"name":"Ahornstr.","postalCode":"27449","locality":"Kutenholz","municipality":{"key":"03359031","name":"Kutenholz","type":"Kreisangehörige_Gemeinde"},"district":{"key":"03359","name":"Stade","type":"Landkreis"},"federalState":{"key":"03","name":"Niedersachsen"}},{"name":"Alma-Rogge-Str.","postalCode":"27449","locality":"Kutenholz","municipality":{"key":"03359031","name":"Kutenholz","type":"Kreisangehörige_Gemeinde"},"district":{"key":"03359","name":"Stade","type":"Landkreis"},"federalState":{"key":"03","name":"Niedersachsen"}},{"name":"Alte Schmiedestr.","postalCode":"27449","locality":"Kutenholz","municipality":{"key":"03359031","name":"Kutenholz","type":"Kreisangehörige_Gemeinde"},"district":{"key":"03359","name":"Stade","type":"Landkreis"},"federalState":{"key":"03","name":"Niedersachsen"}},{"name":"Am Ackerrain","postalCode":"27449","locality":"Kutenholz","municipality":{"key":"03359031","name":"Kutenholz","type":"Kreisangehörige_Gemeinde"},"district":{"key":"03359","name":"Stade","type":"Landkreis"},"federalState":{"key":"03","name":"Niedersachsen"}},{"name":"Am Bahnhof","postalCode":"27449","locality":"Kutenholz","municipality":{"key":"03359031","name":"Kutenholz","type":"Kreisangehörige_Gemeinde"},"district":{"key":"03359","name":"Stade","type":"Landkreis"},"federalState":{"key":"03","name":"Niedersachsen"}},{"name":"Am Eggerkamp","postalCode":"27449","locality":"Kutenholz","municipality":{"key":"03359031","name":"Kutenholz","type":"Kreisangehörige_Gemeinde"},"district":{"key":"03359","name":"Stade","type":"Landkreis"},"federalState":{"key":"03","name":"Niedersachsen"}},{"name":"Am Eichenkamp","postalCode":"27449","locality":"Kutenholz","municipality":{"key":"03359031","name":"Kutenholz","type":"Kreisangehörige_Gemeinde"},"district":{"key":"03359","name":"Stade","type":"Landkreis"},"federalState":{"key":"03","name":"Niedersachsen"}},{"name":"Am Fischteich","postalCode":"27449","locality":"Kutenholz","municipality":{"key":"03359031","name":"Kutenholz","type":"Kreisangehörige_Gemeinde"},"district":{"key":"03359","name":"Stade","type":"Landkreis"},"federalState":{"key":"03","name":"Niedersachsen"}},{"name":"Am Junkernkamp","postalCode":"27449","locality":"Kutenholz","municipality":{"key":"03359031","name":"Kutenholz","type":"Kreisangehörige_Gemeinde"},"district":{"key":"03359","name":"Stade","type":"Landkreis"},"federalState":{"key":"03","name":"Niedersachsen"}},{"name":"Am neuen Sportplatz","postalCode":"27449","locality":"Kutenholz","municipality":{"key":"03359031","name":"Kutenholz","type":"Kreisangehörige_Gemeinde"},"district":{"key":"03359","name":"Stade","type":"Landkreis"},"federalState":{"key":"03","name":"Niedersachsen"}},{"name":"An der Kirche","postalCode":"27449","locality":"Kutenholz","municipality":{"key":"03359031","name":"Kutenholz","type":"Kreisangehörige_Gemeinde"},"district":{"key":"03359","name":"Stade","type":"Landkreis"},"federalState":{"key":"03","name":"Niedersachsen"}},{"name":"Apfelstieg","postalCode":"27449","locality":"Kutenholz","municipality":{"key":"03359031","name":"Kutenholz","type":"Kreisangehörige_Gemeinde"},"district":{"key":"03359","name":"Stade","type":"Landkreis"},"federalState":{"key":"03","name":"Niedersachsen"}},{"name":"Auf dem Hollen","postalCode":"27449","locality":"Kutenholz","municipality":{"key":"03359031","name":"Kutenholz","type":"Kreisangehörige_Gemeinde"},"district":{"key":"03359","name":"Stade","type":"Landkreis"},"federalState":{"key":"03","name":"Niedersachsen"}},{"name":"Auf dem Krüschen","postalCode":"27449","locality":"Kutenholz","municipality":{"key":"03359031","name":"Kutenholz","type":"Kreisangehörige_Gemeinde"},"district":{"key":"03359","name":"Stade","type":"Landkreis"},"federalState":{"key":"03","name":"Niedersachsen"}},{"name":"Bahnhofweg","postalCode":"27449","locality":"Kutenholz","municipality":{"key":"03359031","name":"Kutenholz","type":"Kreisangehörige_Gemeinde"},"district":{"key":"03359","name":"Stade","type":"Landkreis"},"federalState":{"key":"03","name":"Niedersachsen"}},{"name":"Binnenweide","postalCode":"27449","locality":"Kutenholz","municipality":{"key":"03359031","name":"Kutenholz","type":"Kreisangehörige_Gemeinde"},"district":{"key":"03359","name":"Stade","type":"Landkreis"},"federalState":{"key":"03","name":"Niedersachsen"}},{"name":"Birkenweg","postalCode":"27449","locality":"Kutenholz","municipality":{"key":"03359031","name":"Kutenholz","type":"Kreisangehörige_Gemeinde"},"district":{"key":"03359","name":"Stade","type":"Landkreis"},"federalState":{"key":"03","name":"Niedersachsen"}},{"name":"Brester Str.","postalCode":"27449","locality":"Kutenholz","municipality":{"key":"03359031","name":"Kutenholz","type":"Kreisangehörige_Gemeinde"},"district":{"key":"03359","name":"Stade","type":"Landkreis"},"federalState":{"key":"03","name":"Niedersachsen"}},{"name":"Brinkstr.","postalCode":"27449","locality":"Kutenholz","municipality":{"key":"03359031","name":"Kutenholz","type":"Kreisangehörige_Gemeinde"},"district":{"key":"03359","name":"Stade","type":"Landkreis"},"federalState":{"key":"03","name":"Niedersachsen"}},{"name":"Bruchweg","postalCode":"27449","locality":"Kutenholz","municipality":{"key":"03359031","name":"Kutenholz","type":"Kreisangehörige_Gemeinde"},"district":{"key":"03359","name":"Stade","type":"Landkreis"},"federalState":{"key":"03","name":"Niedersachsen"}},{"name":"Buchenstr.","postalCode":"27449","locality":"Kutenholz","municipality":{"key":"03359031","name":"Kutenholz","type":"Kreisangehörige_Gemeinde"},"district":{"key":"03359","name":"Stade","type":"Landkreis"},"federalState":{"key":"03","name":"Niedersachsen"}},{"name":"Camper Str.","postalCode":"21680","locality":"Stade","municipality":{"key":"03359038","name":"Stade, Hansestadt","type":"Stadt"},"district":{"key":"03359","name":"Stade","type":"Landkreis"},"federalState":{"key":"03","name":"Niedersachsen"}},{"name":"Carl-Benz-Str.","postalCode":"21684","locality":"Stade","municipality":{"key":"03359038","name":"Stade, Hansestadt","type":"Stadt"},"district":{"key":"03359","name":"Stade","type":"Landkreis"},"federalState":{"key":"03","name":"Niedersachsen"}},{"name":"Carl-Diercke-Park","postalCode":"21682","locality":"Stade","municipality":{"key":"03359038","name":"Stade, Hansestadt","type":"Stadt"},"district":{"key":"03359","name":"Stade","type":"Landkreis"},"federalState":{"key":"03","name":"Niedersachsen"}},{"name":"Carl-Goerdeler-Weg","postalCode":"21684","locality":"Stade","municipality":{"key":"03359038","name":"Stade, Hansestadt","type":"Stadt"},"district":{"key":"03359","name":"Stade","type":"Landkreis"},"federalState":{"key":"03","name":"Niedersachsen"}},{"name":"Carl-von-Ossietzky-Weg","postalCode":"21684","locality":"Stade","municipality":{"key":"03359038","name":"Stade, Hansestadt","type":"Stadt"},"district":{"key":"03359","name":"Stade","type":"Landkreis"},"federalState":{"key":"03","name":"Niedersachsen"}},{"name":"Casmannstr.","postalCode":"21680","locality":"Stade","municipality":{"key":"03359038","name":"Stade, Hansestadt","type":"Stadt"},"district":{"key":"03359","name":"Stade","type":"Landkreis"},"federalState":{"key":"03","name":"Niedersachsen"}},{"name":"Celler Str.","postalCode":"21680","locality":"Stade","municipality":{"key":"03359038","name":"Stade, Hansestadt","type":"Stadt"},"district":{"key":"03359","name":"Stade","type":"Landkreis"},"federalState":{"key":"03","name":"Niedersachsen"}},{"name":"Chaukenstr.","postalCode":"21680","locality":"Stade","municipality":{"key":"03359038","name":"Stade, Hansestadt","type":"Stadt"},"district":{"key":"03359","name":"Stade","type":"Landkreis"},"federalState":{"key":"03","name":"Niedersachsen"}},{"name":"Cheruskerweg","postalCode":"21680","locality":"Stade","municipality":{"key":"03359038","name":"Stade, Hansestadt","type":"Stadt"},"district":{"key":"03359","name":"Stade","type":"Landkreis"},"federalState":{"key":"03","name":"Niedersachsen"}},{"name":"Christian-Reichert-Str.","postalCode":"55271","locality":"Stadecken-Elsheim","municipality":{"key":"07339057","name":"Stadecken-Elsheim","type":"Kreisangehörige_Gemeinde"},"district":{"key":"07339","name":"Mainz-Bingen","type":"Landkreis"},"federalState":{"key":"07","name":"Rheinland-Pfalz"}},{"name":"Christophorusweg","postalCode":"21683","locality":"Stade","municipality":{"key":"03359038","name":"Stade, Hansestadt","type":"Stadt"},"district":{"key":"03359","name":"Stade","type":"Landkreis"},"federalState":{"key":"03","name":"Niedersachsen"}},{"name":"Clara-Schumannstr.","postalCode":"55271","locality":"Stadecken-Elsheim","municipality":{"key":"07339057","name":"Stadecken-Elsheim","type":"Kreisangehörige_Gemeinde"},"district":{"key":"07339","name":"Mainz-Bingen","type":"Landkreis"},"federalState":{"key":"07","name":"Rheinland-Pfalz"}},{"name":"Claus-von-Stauffenberg-Weg","postalCode":"21684","locality":"Stade","municipality":{"key":"03359038","name":"Stade, Hansestadt","type":"Stadt"},"district":{"key":"03359","name":"Stade","type":"Landkreis"},"federalState":{"key":"03","name":"Niedersachsen"}},{"name":"Cosmae-Kirchhof","postalCode":"21682","locality":"Stade","municipality":{"key":"03359038","name":"Stade, Hansestadt","type":"Stadt"},"district":{"key":"03359","name":"Stade","type":"Landkreis"},"federalState":{"key":"03","name":"Niedersachsen"}},{"name":"Cranzer Str.","postalCode":"21680","locality":"Stade","municipality":{"key":"03359038","name":"Stade, Hansestadt","type":"Stadt"},"district":{"key":"03359","name":"Stade","type":"Landkreis"},"federalState":{"key":"03","name":"Niedersachsen"}},{"name":"Diedrich-Speckmann-Str.","postalCode":"27449","locality":"Kutenholz","municipality":{"key":"03359031","name":"Kutenholz","type":"Kreisangehörige_Gemeinde"},"district":{"key":"03359","name":"Stade","type":"Landkreis"},"federalState":{"key":"03","name":"Niedersachsen"}},{"name":"Dorfstr.","postalCode":"27449","locality":"Kutenholz","municipality":{"key":"03359031","name":"Kutenholz","type":"Kreisangehörige_Gemeinde"},"district":{"key":"03359","name":"Stade","type":"Landkreis"},"federalState":{"key":"03","name":"Niedersachsen"}},{"name":"Drosselstieg","postalCode":"27449","locality":"Kutenholz","municipality":{"key":"03359031","name":"Kutenholz","type":"Kreisangehörige_Gemeinde"},"district":{"key":"03359","name":"Stade","type":"Landkreis"},"federalState":{"key":"03","name":"Niedersachsen"}},{"name":"Eichenweg","postalCode":"27449","locality":"Kutenholz","municipality":{"key":"03359031","name":"Kutenholz","type":"Kreisangehörige_Gemeinde"},"district":{"key":"03359","name":"Stade","type":"Landkreis"},"federalState":{"key":"03","name":"Niedersachsen"}},{"name":"Erlenbruch","postalCode":"27449","locality":"Kutenholz","municipality":{"key":"03359031","name":"Kutenholz","type":"Kreisangehörige_Gemeinde"},"district":{"key":"03359","name":"Stade","type":"Landkreis"},"federalState":{"key":"03","name":"Niedersachsen"}},{"name":"Etzhornweg","postalCode":"27449","locality":"Kutenholz","municipality":{"key":"03359031","name":"Kutenholz","type":"Kreisangehörige_Gemeinde"},"district":{"key":"03359","name":"Stade","type":"Landkreis"},"federalState":{"key":"03","name":"Niedersachsen"}},{"name":"Farvener Weg","postalCode":"27449","locality":"Kutenholz","municipality":{"key":"03359031","name":"Kutenholz","type":"Kreisangehörige_Gemeinde"},"district":{"key":"03359","name":"Stade","type":"Landkreis"},"federalState":{"key":"03","name":"Niedersachsen"}},{"name":"Feldstr.","postalCode":"27449","locality":"Kutenholz","municipality":{"key":"03359031","name":"Kutenholz","type":"Kreisangehörige_Gemeinde"},"district":{"key":"03359","name":"Stade","type":"Landkreis"},"federalState":{"key":"03","name":"Niedersachsen"}},{"name":"Fredenbecker Str.","postalCode":"27449","locality":"Kutenholz","municipality":{"key":"03359031","name":"Kutenholz","type":"Kreisangehörige_Gemeinde"},"district":{"key":"03359","name":"Stade","type":"Landkreis"},"federalState":{"key":"03","name":"Niedersachsen"}},{"name":"Fritz-Reuter-Str.","postalCode":"27449","locality":"Kutenholz","municipality":{"key":"03359031","name":"Kutenholz","type":"Kreisangehörige_Gemeinde"},"district":{"key":"03359","name":"Stade","type":"Landkreis"},"federalState":{"key":"03","name":"Niedersachsen"}},{"name":"Gartenstr.","postalCode":"27449","locality":"Kutenholz","municipality":{"key":"03359031","name":"Kutenholz","type":"Kreisangehörige_Gemeinde"},"district":{"key":"03359","name":"Stade","type":"Landkreis"},"federalState":{"key":"03","name":"Niedersachsen"}},{"name":"Grasselweg","postalCode":"27449","locality":"Kutenholz","municipality":{"key":"03359031","name":"Kutenholz","type":"Kreisangehörige_Gemeinde"},"district":{"key":"03359","name":"Stade","type":"Landkreis"},"federalState":{"key":"03","name":"Niedersachsen"}},{"name":"Hauptstr.","postalCode":"27449","locality":"Kutenholz","municipality":{"key":"03359031","name":"Kutenholz","type":"Kreisangehörige_Gemeinde"},"district":{"key":"03359","name":"Stade","type":"Landkreis"},"federalState":{"key":"03","name":"Niedersachsen"}},{"name":"Heckenweg","postalCode":"27449","locality":"Kutenholz","municipality":{"key":"03359031","name":"Kutenholz","type":"Kreisangehörige_Gemeinde"},"district":{"key":"03359","name":"Stade","type":"Landkreis"},"federalState":{"key":"03","name":"Niedersachsen"}},{"name":"Heerloge","postalCode":"27449","locality":"Kutenholz","municipality":{"key":"03359031","name":"Kutenholz","type":"Kreisangehörige_Gemeinde"},"district":{"key":"03359","name":"Stade","type":"Landkreis"},"federalState":{"key":"03","name":"Niedersachsen"}},{"name":"Heidestr.","postalCode":"27449","locality":"Kutenholz","municipality":{"key":"03359031","name":"Kutenholz","type":"Kreisangehörige_Gemeinde"},"district":{"key":"03359","name":"Stade","type":"Landkreis"},"federalState":{"key":"03","name":"Niedersachsen"}},{"name":"Hermann-Löns-Platz","postalCode":"27449","locality":"Kutenholz","municipality":{"key":"03359031","name":"Kutenholz","type":"Kreisangehörige_Gemeinde"},"district":{"key":"03359","name":"Stade","type":"Landkreis"},"federalState":{"key":"03","name":"Niedersachsen"}},{"name":"Höchststadt","postalCode":"27449","locality":"Kutenholz","municipality":{"key":"03359031","name":"Kutenholz","type":"Kreisangehörige_Gemeinde"},"district":{"key":"03359","name":"Stade","type":"Landkreis"},"federalState":{"key":"03","name":"Niedersachsen"}},{"name":"Hohenmoor","postalCode":"27449","locality":"Kutenholz","municipality":{"key":"03359031","name":"Kutenholz","type":"Kreisangehörige_Gemeinde"},"district":{"key":"03359","name":"Stade","type":"Landkreis"},"federalState":{"key":"03","name":"Niedersachsen"}},{"name":"Hörnweg","postalCode":"27449","locality":"Kutenholz","municipality":{"key":"03359031","name":"Kutenholz","type":"Kreisangehörige_Gemeinde"},"district":{"key":"03359","name":"Stade","type":"Landkreis"},"federalState":{"key":"03","name":"Niedersachsen"}},{"name":"Im Bokel","postalCode":"27449","locality":"Kutenholz","municipality":{"key":"03359031","name":"Kutenholz","type":"Kreisangehörige_Gemeinde"},"district":{"key":"03359","name":"Stade","type":"Landkreis"},"federalState":{"key":"03","name":"Niedersachsen"}},{"name":"Im Dänsch","postalCode":"27449","locality":"Kutenholz","municipality":{"key":"03359031","name":"Kutenholz","type":"Kreisangehörige_Gemeinde"},"district":{"key":"03359","name":"Stade","type":"Landkreis"},"federalState":{"key":"03","name":"Niedersachsen"}},{"name":"Im Dreieck","postalCode":"27449","locality":"Kutenholz","municipality":{"key":"03359031","name":"Kutenholz","type":"Kreisangehörige_Gemeinde"},"district":{"key":"03359","name":"Stade","type":"Landkreis"},"federalState":{"key":"03","name":"Niedersachsen"}},{"name":"Im Ellerbusch","postalCode":"27449","locality":"Kutenholz","municipality":{"key":"03359031","name":"Kutenholz","type":"Kreisangehörige_Gemeinde"},"district":{"key":"03359","name":"Stade","type":"Landkreis"},"federalState":{"key":"03","name":"Niedersachsen"}},{"name":"Im Kühl","postalCode":"27449","locality":"Kutenholz","municipality":{"key":"03359031","name":"Kutenholz","type":"Kreisangehörige_Gemeinde"},"district":{"key":"03359","name":"Stade","type":"Landkreis"},"federalState":{"key":"03","name":"Niedersachsen"}},{"name":"Im Lakum","postalCode":"27449","locality":"Kutenholz","municipality":{"key":"03359031","name":"Kutenholz","type":"Kreisangehörige_Gemeinde"},"district":{"key":"03359","name":"Stade","type":"Landkreis"},"federalState":{"key":"03","name":"Niedersachsen"}},{"name":"Im Neuwerk","postalCode":"27449","locality":"Kutenholz","municipality":{"key":"03359031","name":"Kutenholz","type":"Kreisangehörige_Gemeinde"},"district":{"key":"03359","name":"Stade","type":"Landkreis"},"federalState":{"key":"03","name":"Niedersachsen"}},{"name":"Im Wiesengrund","postalCode":"27449","locality":"Kutenholz","municipality":{"key":"03359031","name":"Kutenholz","type":"Kreisangehörige_Gemeinde"},"district":{"key":"03359","name":"Stade","type":"Landkreis"},"federalState":{"key":"03","name":"Niedersachsen"}},{"name":"In der Bült","postalCode":"27449","locality":"Kutenholz","municipality":{"key":"03359031","name":"Kutenholz","type":"Kreisangehörige_Gemeinde"},"district":{"key":"03359","name":"Stade","type":"Landkreis"},"federalState":{"key":"03","name":"Niedersachsen"}},{"name":"Jahnstr.","postalCode":"21680","locality":"Stade","municipality":{"key":"03359038","name":"Stade, Hansestadt","type":"Stadt"},"district":{"key":"03359","name":"Stade","type":"Landkreis"},"federalState":{"key":"03","name":"Niedersachsen"}},{"name":"Jobelmannstr.","postalCode":"21680","locality":"Stade","municipality":{"key":"03359038","name":"Stade, Hansestadt","type":"Stadt"},"district":{"key":"03359","name":"Stade","type":"Landkreis"},"federalState":{"key":"03","name":"Niedersachsen"}},{"name":"Johannisburger Str.","postalCode":"21680","locality":"Stade","municipality":{"key":"03359038","name":"Stade, Hansestadt","type":"Stadt"},"district":{"key":"03359","name":"Stade","type":"Landkreis"},"federalState":{"key":"03","name":"Niedersachsen"}},{"name":"Johannisstr.","postalCode":"21682","locality":"Stade","municipality":{"key":"03359038","name":"Stade, Hansestadt","type":"Stadt"},"district":{"key":"03359","name":"Stade","type":"Landkreis"},"federalState":{"key":"03","name":"Niedersachsen"}},{"name":"Jorker Str.","postalCode":"21680","locality":"Stade","municipality":{"key":"03359038","name":"Stade, Hansestadt","type":"Stadt"},"district":{"key":"03359","name":"Stade","type":"Landkreis"},"federalState":{"key":"03","name":"Niedersachsen"}},{"name":"Julius-Leber-Weg","postalCode":"21684","locality":"Stade","municipality":{"key":"03359038","name":"Stade, Hansestadt","type":"Stadt"},"district":{"key":"03359","name":"Stade","type":"Landkreis"},"federalState":{"key":"03","name":"Niedersachsen"}},{"name":"Justus-Delbrück-Weg","postalCode":"21684","locality":"Stade","municipality":{"key":"03359038","name":"Stade, Hansestadt","type":"Stadt"},"district":{"key":"03359","name":"Stade","type":"Landkreis"},"federalState":{"key":"03","name":"Niedersachsen"}},{"name":"Kirchenstr.","postalCode":"27449","locality":"Kutenholz","municipality":{"key":"03359031","name":"Kutenholz","type":"Kreisangehörige_Gemeinde"},"district":{"key":"03359","name":"Stade","type":"Landkreis"},"federalState":{"key":"03","name":"Niedersachsen"}},{"name":"Kreethof","postalCode":"27449","locality":"Kutenholz","municipality":{"key":"03359031","name":"Kutenholz","type":"Kreisangehörige_Gemeinde"},"district":{"key":"03359","name":"Stade","type":"Landkreis"},"federalState":{"key":"03","name":"Niedersachsen"}},{"name":"Ladestr.","postalCode":"27449","locality":"Kutenholz","municipality":{"key":"03359031","name":"Kutenholz","type":"Kreisangehörige_Gemeinde"},"district":{"key":"03359","name":"Stade","type":"Landkreis"},"federalState":{"key":"03","name":"Niedersachsen"}},{"name":"Landstr.","postalCode":"27449","locality":"Kutenholz","municipality":{"key":"03359031","name":"Kutenholz","type":"Kreisangehörige_Gemeinde"},"district":{"key":"03359","name":"Stade","type":"Landkreis"},"federalState":{"key":"03","name":"Niedersachsen"}},{"name":"Langes Feld","postalCode":"27449","locality":"Kutenholz","municipality":{"key":"03359031","name":"Kutenholz","type":"Kreisangehörige_Gemeinde"},"district":{"key":"03359","name":"Stade","type":"Landkreis"},"federalState":{"key":"03","name":"Niedersachsen"}},{"name":"Lange Str.","postalCode":"27449","locality":"Kutenholz","municipality":{"key":"03359031","name":"Kutenholz","type":"Kreisangehörige_Gemeinde"},"district":{"key":"03359","name":"Stade","type":"Landkreis"},"federalState":{"key":"03","name":"Niedersachsen"}},{"name":"Lindenstr.","postalCode":"27449","locality":"Kutenholz","municipality":{"key":"03359031","name":"Kutenholz","type":"Kreisangehörige_Gemeinde"},"district":{"key":"03359","name":"Stade","type":"Landkreis"},"federalState":{"key":"03","name":"Niedersachsen"}},{"name":"Lustgang","postalCode":"27449","locality":"Kutenholz","municipality":{"key":"03359031","name":"Kutenholz","type":"Kreisangehörige_Gemeinde"},"district":{"key":"03359","name":"Stade","type":"Landkreis"},"federalState":{"key":"03","name":"Niedersachsen"}},{"name":"Mühlenweg","postalCode":"27449","locality":"Kutenholz","municipality":{"key":"03359031","name":"Kutenholz","type":"Kreisangehörige_Gemeinde"},"district":{"key":"03359","name":"Stade","type":"Landkreis"},"federalState":{"key":"03","name":"Niedersachsen"}},{"name":"Nachtigallenweg","postalCode":"21682","locality":"Stade","municipality":{"key":"03359038","name":"Stade, Hansestadt","type":"Stadt"},"district":{"key":"03359","name":"Stade","type":"Landkreis"},"federalState":{"key":"03","name":"Niedersachsen"}},{"name":"Nagelstiftsweg","postalCode":"21682","locality":"Stade","municipality":{"key":"03359038","name":"Stade, Hansestadt","type":"Stadt"},"district":{"key":"03359","name":"Stade","type":"Landkreis"},"federalState":{"key":"03","name":"Niedersachsen"}},{"name":"Neidenburger Weg","postalCode":"21680","locality":"Stade","municipality":{"key":"03359038","name":"Stade, Hansestadt","type":"Stadt"},"district":{"key":"03359","name":"Stade","type":"Landkreis"},"federalState":{"key":"03","name":"Niedersachsen"}},{"name":"Nelkenweg","postalCode":"21684","locality":"Stade","municipality":{"key":"03359038","name":"Stade, Hansestadt","type":"Stadt"},"district":{"key":"03359","name":"Stade","type":"Landkreis"},"federalState":{"key":"03","name":"Niedersachsen"}},{"name":"Nettelbeckweg","postalCode":"21680","locality":"Stade","municipality":{"key":"03359038","name":"Stade, Hansestadt","type":"Stadt"},"district":{"key":"03359","name":"Stade","type":"Landkreis"},"federalState":{"key":"03","name":"Niedersachsen"}},{"name":"Neubourgstr.","postalCode":"21682","locality":"Stade","municipality":{"key":"03359038","name":"Stade, Hansestadt","type":"Stadt"},"district":{"key":"03359","name":"Stade","type":"Landkreis"},"federalState":{"key":"03","name":"Niedersachsen"}},{"name":"Neuenfelder Str.","postalCode":"21680","locality":"Stade","municipality":{"key":"03359038","name":"Stade, Hansestadt","type":"Stadt"},"district":{"key":"03359","name":"Stade","type":"Landkreis"},"federalState":{"key":"03","name":"Niedersachsen"}},{"name":"Neue-Stücken-Feld","postalCode":"21684","locality":"Stade","municipality":{"key":"03359038","name":"Stade, Hansestadt","type":"Stadt"},"district":{"key":"03359","name":"Stade","type":"Landkreis"},"federalState":{"key":"03","name":"Niedersachsen"}},{"name":"Neugasse","postalCode":"55271","locality":"Stadecken-Elsheim","municipality":{"key":"07339057","name":"Stadecken-Elsheim","type":"Kreisangehörige_Gemeinde"},"district":{"key":"07339","name":"Mainz-Bingen","type":"Landkreis"},"federalState":{"key":"07","name":"Rheinland-Pfalz"}},{"name":"Neu-Schnee","postalCode":"21683","locality":"Stade","municipality":{"key":"03359038","name":"Stade, Hansestadt","type":"Stadt"},"district":{"key":"03359","name":"Stade","type":"Landkreis"},"federalState":{"key":"03","name":"Niedersachsen"}},{"name":"Nicolaus-Dreyer-Str.","postalCode":"21683","locality":"Stade","municipality":{"key":"03359038","name":"Stade, Hansestadt","type":"Stadt"},"district":{"key":"03359","name":"Stade","type":"Landkreis"},"federalState":{"key":"03","name":"Niedersachsen"}},{"name":"Nikolaus-Otto-Str.","postalCode":"21684","locality":"Stade","municipality":{"key":"03359038","name":"Stade, Hansestadt","type":"Stadt"},"district":{"key":"03359","name":"Stade","type":"Landkreis"},"federalState":{"key":"03","name":"Niedersachsen"}},{"name":"Norderstr.","postalCode":"21683","locality":"Stade","municipality":{"key":"03359038","name":"Stade, Hansestadt","type":"Stadt"},"district":{"key":"03359","name":"Stade","type":"Landkreis"},"federalState":{"key":"03","name":"Niedersachsen"}},{"name":"Normannenstr.","postalCode":"21680","locality":"Stade","municipality":{"key":"03359038","name":"Stade, Hansestadt","type":"Stadt"},"district":{"key":"03359","name":"Stade","type":"Landkreis"},"federalState":{"key":"03","name":"Niedersachsen"}},{"name":"Osterkampstr.","postalCode":"27449","locality":"Kutenholz","municipality":{"key":"03359031","name":"Kutenholz","type":"Kreisangehörige_Gemeinde"},"district":{"key":"03359","name":"Stade","type":"Landkreis"},"federalState":{"key":"03","name":"Niedersachsen"}},{"name":"Ostlandring","postalCode":"27449","locality":"Kutenholz","municipality":{"key":"03359031","name":"Kutenholz","type":"Kreisangehörige_Gemeinde"},"district":{"key":"03359","name":"Stade","type":"Landkreis"},"federalState":{"key":"03","name":"Niedersachsen"}},{"name":"Ostpreußenring","postalCode":"27449","locality":"Kutenholz","municipality":{"key":"03359031","name":"Kutenholz","type":"Kreisangehörige_Gemeinde"},"district":{"key":"03359","name":"Stade","type":"Landkreis"},"federalState":{"key":"03","name":"Niedersachsen"}},{"name":"Pappelweg","postalCode":"27449","locality":"Kutenholz","municipality":{"key":"03359031","name":"Kutenholz","type":"Kreisangehörige_Gemeinde"},"district":{"key":"03359","name":"Stade","type":"Landkreis"},"federalState":{"key":"03","name":"Niedersachsen"}},{"name":"Querweg","postalCode":"27449","locality":"Kutenholz","municipality":{"key":"03359031","name":"Kutenholz","type":"Kreisangehörige_Gemeinde"},"district":{"key":"03359","name":"Stade","type":"Landkreis"},"federalState":{"key":"03","name":"Niedersachsen"}},{"name":"Raiffeisenstr.","postalCode":"27449","locality":"Kutenholz","municipality":{"key":"03359031","name":"Kutenholz","type":"Kreisangehörige_Gemeinde"},"district":{"key":"03359","name":"Stade","type":"Landkreis"},"federalState":{"key":"03","name":"Niedersachsen"}},{"name":"Rohrweg","postalCode":"27449","locality":"Kutenholz","municipality":{"key":"03359031","name":"Kutenholz","type":"Kreisangehörige_Gemeinde"},"district":{"key":"03359","name":"Stade","type":"Landkreis"},"federalState":{"key":"03","name":"Niedersachsen"}},{"name":"Rosenstr.","postalCode":"27449","locality":"Kutenholz","municipality":{"key":"03359031","name":"Kutenholz","type":"Kreisangehörige_Gemeinde"},"district":{"key":"03359","name":"Stade","type":"Landkreis"},"federalState":{"key":"03","name":"Niedersachsen"}},{"name":"Rotdornweg","postalCode":"27449","locality":"Kutenholz","municipality":{"key":"03359031","name":"Kutenholz","type":"Kreisangehörige_Gemeinde"},"district":{"key":"03359","name":"Stade","type":"Landkreis"},"federalState":{"key":"03","name":"Niedersachsen"}},{"name":"Rübenkamp","postalCode":"27449","locality":"Kutenholz","municipality":{"key":"03359031","name":"Kutenholz","type":"Kreisangehörige_Gemeinde"},"district":{"key":"03359","name":"Stade","type":"Landkreis"},"federalState":{"key":"03","name":"Niedersachsen"}},{"name":"Sadersdorfer Str.","postalCode":"27449","locality":"Kutenholz","municipality":{"key":"03359031","name":"Kutenholz","type":"Kreisangehörige_Gemeinde"},"district":{"key":"03359","name":"Stade","type":"Landkreis"},"federalState":{"key":"03","name":"Niedersachsen"}},{"name":"Schäferstieg","postalCode":"27449","locality":"Kutenholz","municipality":{"key":"03359031","name":"Kutenholz","type":"Kreisangehörige_Gemeinde"},"district":{"key":"03359","name":"Stade","type":"Landkreis"},"federalState":{"key":"03","name":"Niedersachsen"}},{"name":"Schulstr.","postalCode":"27449","locality":"Kutenholz","municipality":{"key":"03359031","name":"Kutenholz","type":"Kreisangehörige_Gemeinde"},"district":{"key":"03359","name":"Stade","type":"Landkreis"},"federalState":{"key":"03","name":"Niedersachsen"}},{"name":"Schützenstr.","postalCode":"27449","locality":"Kutenholz","municipality":{"key":"03359031","name":"Kutenholz","type":"Kreisangehörige_Gemeinde"},"district":{"key":"03359","name":"Stade","type":"Landkreis"},"federalState":{"key":"03","name":"Niedersachsen"}},{"name":"Sportplatzweg","postalCode":"27449","locality":"Kutenholz","municipality":{"key":"03359031","name":"Kutenholz","type":"Kreisangehörige_Gemeinde"},"district":{"key":"03359","name":"Stade","type":"Landkreis"},"federalState":{"key":"03","name":"Niedersachsen"}},{"name":"Stader Str.","postalCode":"27449","locality":"Kutenholz","municipality":{"key":"03359031","name":"Kutenholz","type":"Kreisangehörige_Gemeinde"},"district":{"key":"03359","name":"Stade","type":"Landkreis"},"federalState":{"key":"03","name":"Niedersachsen"}},{"name":"Steile Gosse","postalCode":"27449","locality":"Kutenholz","municipality":{"key":"03359031","name":"Kutenholz","type":"Kreisangehörige_Gemeinde"},"district":{"key":"03359","name":"Stade","type":"Landkreis"},"federalState":{"key":"03","name":"Niedersachsen"}},{"name":"Suerfeld","postalCode":"27449","locality":"Kutenholz","municipality":{"key":"03359031","name":"Kutenholz","type":"Kreisangehörige_Gemeinde"},"district":{"key":"03359","name":"Stade","type":"Landkreis"},"federalState":{"key":"03","name":"Niedersachsen"}},{"name":"Tannenweg","postalCode":"27449","locality":"Kutenholz","municipality":{"key":"03359031","name":"Kutenholz","type":"Kreisangehörige_Gemeinde"},"district":{"key":"03359","name":"Stade","type":"Landkreis"},"federalState":{"key":"03","name":"Niedersachsen"}},{"name":"Teichstr.","postalCode":"27449","locality":"Kutenholz","municipality":{"key":"03359031","name":"Kutenholz","type":"Kreisangehörige_Gemeinde"},"district":{"key":"03359","name":"Stade","type":"Landkreis"},"federalState":{"key":"03","name":"Niedersachsen"}},{"name":"Theodor-Storm-Str.","postalCode":"27449","locality":"Kutenholz","municipality":{"key":"03359031","name":"Kutenholz","type":"Kreisangehörige_Gemeinde"},"district":{"key":"03359","name":"Stade","type":"Landkreis"},"federalState":{"key":"03","name":"Niedersachsen"}},{"name":"Trift","postalCode":"27449","locality":"Kutenholz","municipality":{"key":"03359031","name":"Kutenholz","type":"Kreisangehörige_Gemeinde"},"district":{"key":"03359","name":"Stade","type":"Landkreis"},"federalState":{"key":"03","name":"Niedersachsen"}},{"name":"Tulpenstieg","postalCode":"27449","locality":"Kutenholz","municipality":{"key":"03359031","name":"Kutenholz","type":"Kreisangehörige_Gemeinde"},"district":{"key":"03359","name":"Stade","type":"Landkreis"},"federalState":{"key":"03","name":"Niedersachsen"}},{"name":"Ulmenstr.","postalCode":"27449","locality":"Kutenholz","municipality":{"key":"03359031","name":"Kutenholz","type":"Kreisangehörige_Gemeinde"},"district":{"key":"03359","name":"Stade","type":"Landkreis"},"federalState":{"key":"03","name":"Niedersachsen"}},{"name":"Verenfeldstr.","postalCode":"27449","locality":"Kutenholz","municipality":{"key":"03359031","name":"Kutenholz","type":"Kreisangehörige_Gemeinde"},"district":{"key":"03359","name":"Stade","type":"Landkreis"},"federalState":{"key":"03","name":"Niedersachsen"}},{"name":"Wedeler Str.","postalCode":"27449","locality":"Kutenholz","municipality":{"key":"03359031","name":"Kutenholz","type":"Kreisangehörige_Gemeinde"},"district":{"key":"03359","name":"Stade","type":"Landkreis"},"federalState":{"key":"03","name":"Niedersachsen"}},{"name":"Westerfelde","postalCode":"27449","locality":"Kutenholz","municipality":{"key":"03359031","name":"Kutenholz","type":"Kreisangehörige_Gemeinde"},"district":{"key":"03359","name":"Stade","type":"Landkreis"},"federalState":{"key":"03","name":"Niedersachsen"}},{"name":"Wiesenrain","postalCode":"27449","locality":"Kutenholz","municipality":{"key":"03359031","name":"Kutenholz","type":"Kreisangehörige_Gemeinde"},"district":{"key":"03359","name":"Stade","type":"Landkreis"},"federalState":{"key":"03","name":"Niedersachsen"}},{"name":"Wiesenstr.","postalCode":"27449","locality":"Kutenholz","municipality":{"key":"03359031","name":"Kutenholz","type":"Kreisangehörige_Gemeinde"},"district":{"key":"03359","name":"Stade","type":"Landkreis"},"federalState":{"key":"03","name":"Niedersachsen"}},{"name":"Wiesenweg","postalCode":"27449","locality":"Kutenholz","municipality":{"key":"03359031","name":"Kutenholz","type":"Kreisangehörige_Gemeinde"},"district":{"key":"03359","name":"Stade","type":"Landkreis"},"federalState":{"key":"03","name":"Niedersachsen"}},{"name":"Ystadweg","postalCode":"21682","locality":"Stade","municipality":{"key":"03359038","name":"Stade, Hansestadt","type":"Stadt"},"district":{"key":"03359","name":"Stade","type":"Landkreis"},"federalState":{"key":"03","name":"Niedersachsen"}},{"name":"Zum Bullhof","postalCode":"27449","locality":"Kutenholz","municipality":{"key":"03359031","name":"Kutenholz","type":"Kreisangehörige_Gemeinde"},"district":{"key":"03359","name":"Stade","type":"Landkreis"},"federalState":{"key":"03","name":"Niedersachsen"}},{"name":"Zur Loge","postalCode":"27449","locality":"Kutenholz","municipality":{"key":"03359031","name":"Kutenholz","type":"Kreisangehörige_Gemeinde"},"district":{"key":"03359","name":"Stade","type":"Landkreis"},"federalState":{"key":"03","name":"Niedersachsen"}},{"name":"Über den Burgwiesen","postalCode":"21682","locality":"Stade","municipality":{"key":"03359038","name":"Stade, Hansestadt","type":"Stadt"},"district":{"key":"03359","name":"Stade","type":"Landkreis"},"federalState":{"key":"03","name":"Niedersachsen"}},]