[{"name":"Am Anger","postalCode":"82387","locality":"Antdorf","municipality":{"key":"09190113","name":"Antdorf","type":"Kreisangehörige_Gemeinde"},"district":{"key":"09190","name":"Weilheim-Schongau","type":"Landkreis"},"federalState":{"key":"09","name":"Bayern"}},{"name":"Am Höhenstein","postalCode":"82387","locality":"Antdorf","municipality":{"key":"09190113","name":"Antdorf","type":"Kreisangehörige_Gemeinde"},"district":{"key":"09190","name":"Weilheim-Schongau","type":"Landkreis"},"federalState":{"key":"09","name":"Bayern"}},{"name":"Am Sportplatz","postalCode":"82387","locality":"Antdorf","municipality":{"key":"09190113","name":"Antdorf","type":"Kreisangehörige_Gemeinde"},"district":{"key":"09190","name":"Weilheim-Schongau","type":"Landkreis"},"federalState":{"key":"09","name":"Bayern"}},{"name":"Antdorfer Str.","postalCode":"82387","locality":"Antdorf","municipality":{"key":"09190113","name":"Antdorf","type":"Kreisangehörige_Gemeinde"},"district":{"key":"09190","name":"Weilheim-Schongau","type":"Landkreis"},"federalState":{"key":"09","name":"Bayern"}},{"name":"Auf der Lug","postalCode":"82387","locality":"Antdorf","municipality":{"key":"09190113","name":"Antdorf","type":"Kreisangehörige_Gemeinde"},"district":{"key":"09190","name":"Weilheim-Schongau","type":"Landkreis"},"federalState":{"key":"09","name":"Bayern"}},{"name":"Auf der Mauer","postalCode":"82387","locality":"Antdorf","municipality":{"key":"09190113","name":"Antdorf","type":"Kreisangehörige_Gemeinde"},"district":{"key":"09190","name":"Weilheim-Schongau","type":"Landkreis"},"federalState":{"key":"09","name":"Bayern"}},{"name":"Bonifatiusweg","postalCode":"82387","locality":"Antdorf","municipality":{"key":"09190113","name":"Antdorf","type":"Kreisangehörige_Gemeinde"},"district":{"key":"09190","name":"Weilheim-Schongau","type":"Landkreis"},"federalState":{"key":"09","name":"Bayern"}},{"name":"Breunetsried","postalCode":"82387","locality":"Antdorf","municipality":{"key":"09190113","name":"Antdorf","type":"Kreisangehörige_Gemeinde"},"district":{"key":"09190","name":"Weilheim-Schongau","type":"Landkreis"},"federalState":{"key":"09","name":"Bayern"}},{"name":"Dorfstr.","postalCode":"82387","locality":"Antdorf","municipality":{"key":"09190113","name":"Antdorf","type":"Kreisangehörige_Gemeinde"},"district":{"key":"09190","name":"Weilheim-Schongau","type":"Landkreis"},"federalState":{"key":"09","name":"Bayern"}},{"name":"Elilandstr.","postalCode":"82387","locality":"Antdorf","municipality":{"key":"09190113","name":"Antdorf","type":"Kreisangehörige_Gemeinde"},"district":{"key":"09190","name":"Weilheim-Schongau","type":"Landkreis"},"federalState":{"key":"09","name":"Bayern"}},{"name":"Frauenrain","postalCode":"82387","locality":"Antdorf","municipality":{"key":"09190113","name":"Antdorf","type":"Kreisangehörige_Gemeinde"},"district":{"key":"09190","name":"Weilheim-Schongau","type":"Landkreis"},"federalState":{"key":"09","name":"Bayern"}},{"name":"Habacher Str.","postalCode":"82387","locality":"Antdorf","municipality":{"key":"09190113","name":"Antdorf","type":"Kreisangehörige_Gemeinde"},"district":{"key":"09190","name":"Weilheim-Schongau","type":"Landkreis"},"federalState":{"key":"09","name":"Bayern"}},{"name":"Hauptstr.","postalCode":"82387","locality":"Antdorf","municipality":{"key":"09190113","name":"Antdorf","type":"Kreisangehörige_Gemeinde"},"district":{"key":"09190","name":"Weilheim-Schongau","type":"Landkreis"},"federalState":{"key":"09","name":"Bayern"}},{"name":"Heimgartenstr.","postalCode":"82387","locality":"Antdorf","municipality":{"key":"09190113","name":"Antdorf","type":"Kreisangehörige_Gemeinde"},"district":{"key":"09190","name":"Weilheim-Schongau","type":"Landkreis"},"federalState":{"key":"09","name":"Bayern"}},{"name":"Herzogstandstr.","postalCode":"82387","locality":"Antdorf","municipality":{"key":"09190113","name":"Antdorf","type":"Kreisangehörige_Gemeinde"},"district":{"key":"09190","name":"Weilheim-Schongau","type":"Landkreis"},"federalState":{"key":"09","name":"Bayern"}},{"name":"Iffeldorfer Str.","postalCode":"82387","locality":"Antdorf","municipality":{"key":"09190113","name":"Antdorf","type":"Kreisangehörige_Gemeinde"},"district":{"key":"09190","name":"Weilheim-Schongau","type":"Landkreis"},"federalState":{"key":"09","name":"Bayern"}},{"name":"Im Seefeld","postalCode":"82387","locality":"Antdorf","municipality":{"key":"09190113","name":"Antdorf","type":"Kreisangehörige_Gemeinde"},"district":{"key":"09190","name":"Weilheim-Schongau","type":"Landkreis"},"federalState":{"key":"09","name":"Bayern"}},{"name":"Jochbergstr.","postalCode":"82387","locality":"Antdorf","municipality":{"key":"09190113","name":"Antdorf","type":"Kreisangehörige_Gemeinde"},"district":{"key":"09190","name":"Weilheim-Schongau","type":"Landkreis"},"federalState":{"key":"09","name":"Bayern"}},{"name":"Kirchplatz","postalCode":"82387","locality":"Antdorf","municipality":{"key":"09190113","name":"Antdorf","type":"Kreisangehörige_Gemeinde"},"district":{"key":"09190","name":"Weilheim-Schongau","type":"Landkreis"},"federalState":{"key":"09","name":"Bayern"}},{"name":"Kirnbergweg","postalCode":"82387","locality":"Antdorf","municipality":{"key":"09190113","name":"Antdorf","type":"Kreisangehörige_Gemeinde"},"district":{"key":"09190","name":"Weilheim-Schongau","type":"Landkreis"},"federalState":{"key":"09","name":"Bayern"}},{"name":"Lantfriedstr.","postalCode":"82387","locality":"Antdorf","municipality":{"key":"09190113","name":"Antdorf","type":"Kreisangehörige_Gemeinde"},"district":{"key":"09190","name":"Weilheim-Schongau","type":"Landkreis"},"federalState":{"key":"09","name":"Bayern"}},{"name":"Lindenstr.","postalCode":"82387","locality":"Antdorf","municipality":{"key":"09190113","name":"Antdorf","type":"Kreisangehörige_Gemeinde"},"district":{"key":"09190","name":"Weilheim-Schongau","type":"Landkreis"},"federalState":{"key":"09","name":"Bayern"}},{"name":"Obersiffelhofen","postalCode":"82387","locality":"Antdorf","municipality":{"key":"09190113","name":"Antdorf","type":"Kreisangehörige_Gemeinde"},"district":{"key":"09190","name":"Weilheim-Schongau","type":"Landkreis"},"federalState":{"key":"09","name":"Bayern"}},{"name":"Penzberger Str.","postalCode":"82387","locality":"Antdorf","municipality":{"key":"09190113","name":"Antdorf","type":"Kreisangehörige_Gemeinde"},"district":{"key":"09190","name":"Weilheim-Schongau","type":"Landkreis"},"federalState":{"key":"09","name":"Bayern"}},{"name":"Rosenweg","postalCode":"82387","locality":"Antdorf","municipality":{"key":"09190113","name":"Antdorf","type":"Kreisangehörige_Gemeinde"},"district":{"key":"09190","name":"Weilheim-Schongau","type":"Landkreis"},"federalState":{"key":"09","name":"Bayern"}},{"name":"Saumergasse","postalCode":"82387","locality":"Antdorf","municipality":{"key":"09190113","name":"Antdorf","type":"Kreisangehörige_Gemeinde"},"district":{"key":"09190","name":"Weilheim-Schongau","type":"Landkreis"},"federalState":{"key":"09","name":"Bayern"}},{"name":"Schleierweg","postalCode":"82387","locality":"Antdorf","municipality":{"key":"09190113","name":"Antdorf","type":"Kreisangehörige_Gemeinde"},"district":{"key":"09190","name":"Weilheim-Schongau","type":"Landkreis"},"federalState":{"key":"09","name":"Bayern"}},{"name":"Siffelhofener Str.","postalCode":"82387","locality":"Antdorf","municipality":{"key":"09190113","name":"Antdorf","type":"Kreisangehörige_Gemeinde"},"district":{"key":"09190","name":"Weilheim-Schongau","type":"Landkreis"},"federalState":{"key":"09","name":"Bayern"}},{"name":"Südstr.","postalCode":"82387","locality":"Antdorf","municipality":{"key":"09190113","name":"Antdorf","type":"Kreisangehörige_Gemeinde"},"district":{"key":"09190","name":"Weilheim-Schongau","type":"Landkreis"},"federalState":{"key":"09","name":"Bayern"}},{"name":"Untergasse","postalCode":"82387","locality":"Antdorf","municipality":{"key":"09190113","name":"Antdorf","type":"Kreisangehörige_Gemeinde"},"district":{"key":"09190","name":"Weilheim-Schongau","type":"Landkreis"},"federalState":{"key":"09","name":"Bayern"}},{"name":"Untersiffelhofen","postalCode":"82387","locality":"Antdorf","municipality":{"key":"09190113","name":"Antdorf","type":"Kreisangehörige_Gemeinde"},"district":{"key":"09190","name":"Weilheim-Schongau","type":"Landkreis"},"federalState":{"key":"09","name":"Bayern"}},{"name":"Waldramstr.","postalCode":"82387","locality":"Antdorf","municipality":{"key":"09190113","name":"Antdorf","type":"Kreisangehörige_Gemeinde"},"district":{"key":"09190","name":"Weilheim-Schongau","type":"Landkreis"},"federalState":{"key":"09","name":"Bayern"}},{"name":"Weilheimer Str.","postalCode":"82387","locality":"Antdorf","municipality":{"key":"09190113","name":"Antdorf","type":"Kreisangehörige_Gemeinde"},"district":{"key":"09190","name":"Weilheim-Schongau","type":"Landkreis"},"federalState":{"key":"09","name":"Bayern"}},]