[{"name":"Am Laberinger Feld","postalCode":"83361","locality":"Kienberg","municipality":{"key":"09189126","name":"Kienberg","type":"Kreisangehörige_Gemeinde"},"district":{"key":"09189","name":"Traunstein","type":"Landkreis"},"federalState":{"key":"09","name":"Bayern"}},{"name":"Am Wirtsfeld","postalCode":"83361","locality":"Kienberg","municipality":{"key":"09189126","name":"Kienberg","type":"Kreisangehörige_Gemeinde"},"district":{"key":"09189","name":"Traunstein","type":"Landkreis"},"federalState":{"key":"09","name":"Bayern"}},{"name":"Bergweg","postalCode":"83361","locality":"Kienberg","municipality":{"key":"09189126","name":"Kienberg","type":"Kreisangehörige_Gemeinde"},"district":{"key":"09189","name":"Traunstein","type":"Landkreis"},"federalState":{"key":"09","name":"Bayern"}},{"name":"Birkenweg","postalCode":"83361","locality":"Kienberg","municipality":{"key":"09189126","name":"Kienberg","type":"Kreisangehörige_Gemeinde"},"district":{"key":"09189","name":"Traunstein","type":"Landkreis"},"federalState":{"key":"09","name":"Bayern"}},{"name":"Chiemseestr.","postalCode":"83278","locality":"Traunstein","municipality":{"key":"09189155","name":"Traunstein, GKSt","type":"Große_Kreisstadt"},"district":{"key":"09189","name":"Traunstein","type":"Landkreis"},"federalState":{"key":"09","name":"Bayern"}},{"name":"Crailsheimstr.","postalCode":"83278","locality":"Traunstein","municipality":{"key":"09189155","name":"Traunstein, GKSt","type":"Große_Kreisstadt"},"district":{"key":"09189","name":"Traunstein","type":"Landkreis"},"federalState":{"key":"09","name":"Bayern"}},{"name":"Dambergstr.","postalCode":"83278","locality":"Traunstein","municipality":{"key":"09189155","name":"Traunstein, GKSt","type":"Große_Kreisstadt"},"district":{"key":"09189","name":"Traunstein","type":"Landkreis"},"federalState":{"key":"09","name":"Bayern"}},{"name":"Dorfstr.","postalCode":"83278","locality":"Traunstein","municipality":{"key":"09189155","name":"Traunstein, GKSt","type":"Große_Kreisstadt"},"district":{"key":"09189","name":"Traunstein","type":"Landkreis"},"federalState":{"key":"09","name":"Bayern"}},{"name":"Eichenstr.","postalCode":"83361","locality":"Kienberg","municipality":{"key":"09189126","name":"Kienberg","type":"Kreisangehörige_Gemeinde"},"district":{"key":"09189","name":"Traunstein","type":"Landkreis"},"federalState":{"key":"09","name":"Bayern"}},{"name":"Emertshamer Str.","postalCode":"83361","locality":"Kienberg","municipality":{"key":"09189126","name":"Kienberg","type":"Kreisangehörige_Gemeinde"},"district":{"key":"09189","name":"Traunstein","type":"Landkreis"},"federalState":{"key":"09","name":"Bayern"}},{"name":"Falkensteinstr.","postalCode":"83278","locality":"Traunstein","municipality":{"key":"09189155","name":"Traunstein, GKSt","type":"Große_Kreisstadt"},"district":{"key":"09189","name":"Traunstein","type":"Landkreis"},"federalState":{"key":"09","name":"Bayern"}},{"name":"Felsenstr.","postalCode":"83278","locality":"Traunstein","municipality":{"key":"09189155","name":"Traunstein, GKSt","type":"Große_Kreisstadt"},"district":{"key":"09189","name":"Traunstein","type":"Landkreis"},"federalState":{"key":"09","name":"Bayern"}},{"name":"Flurstr.","postalCode":"83278","locality":"Traunstein","municipality":{"key":"09189155","name":"Traunstein, GKSt","type":"Große_Kreisstadt"},"district":{"key":"09189","name":"Traunstein","type":"Landkreis"},"federalState":{"key":"09","name":"Bayern"}},{"name":"Forstmeierstr.","postalCode":"83278","locality":"Traunstein","municipality":{"key":"09189155","name":"Traunstein, GKSt","type":"Große_Kreisstadt"},"district":{"key":"09189","name":"Traunstein","type":"Landkreis"},"federalState":{"key":"09","name":"Bayern"}},{"name":"Franz-Xaver-Steber-Str.","postalCode":"83278","locality":"Traunstein","municipality":{"key":"09189155","name":"Traunstein, GKSt","type":"Große_Kreisstadt"},"district":{"key":"09189","name":"Traunstein","type":"Landkreis"},"federalState":{"key":"09","name":"Bayern"}},{"name":"Fritz-Bechtold-Str.","postalCode":"83278","locality":"Traunstein","municipality":{"key":"09189155","name":"Traunstein, GKSt","type":"Große_Kreisstadt"},"district":{"key":"09189","name":"Traunstein","type":"Landkreis"},"federalState":{"key":"09","name":"Bayern"}},{"name":"Frühlingstr.","postalCode":"83278","locality":"Traunstein","municipality":{"key":"09189155","name":"Traunstein, GKSt","type":"Große_Kreisstadt"},"district":{"key":"09189","name":"Traunstein","type":"Landkreis"},"federalState":{"key":"09","name":"Bayern"}},{"name":"Fuchsgrube","postalCode":"83278","locality":"Traunstein","municipality":{"key":"09189155","name":"Traunstein, GKSt","type":"Große_Kreisstadt"},"district":{"key":"09189","name":"Traunstein","type":"Landkreis"},"federalState":{"key":"09","name":"Bayern"}},{"name":"Größinger Ring","postalCode":"83361","locality":"Kienberg","municipality":{"key":"09189126","name":"Kienberg","type":"Kreisangehörige_Gemeinde"},"district":{"key":"09189","name":"Traunstein","type":"Landkreis"},"federalState":{"key":"09","name":"Bayern"}},{"name":"Hangweg","postalCode":"83361","locality":"Kienberg","municipality":{"key":"09189126","name":"Kienberg","type":"Kreisangehörige_Gemeinde"},"district":{"key":"09189","name":"Traunstein","type":"Landkreis"},"federalState":{"key":"09","name":"Bayern"}},{"name":"Hölltaler Str.","postalCode":"83361","locality":"Kienberg","municipality":{"key":"09189126","name":"Kienberg","type":"Kreisangehörige_Gemeinde"},"district":{"key":"09189","name":"Traunstein","type":"Landkreis"},"federalState":{"key":"09","name":"Bayern"}},{"name":"Holzhauser Feld","postalCode":"83361","locality":"Kienberg","municipality":{"key":"09189126","name":"Kienberg","type":"Kreisangehörige_Gemeinde"},"district":{"key":"09189","name":"Traunstein","type":"Landkreis"},"federalState":{"key":"09","name":"Bayern"}},{"name":"Illerstr.","postalCode":"83278","locality":"Traunstein","municipality":{"key":"09189155","name":"Traunstein, GKSt","type":"Große_Kreisstadt"},"district":{"key":"09189","name":"Traunstein","type":"Landkreis"},"federalState":{"key":"09","name":"Bayern"}},{"name":"Innstr.","postalCode":"83278","locality":"Traunstein","municipality":{"key":"09189155","name":"Traunstein, GKSt","type":"Große_Kreisstadt"},"district":{"key":"09189","name":"Traunstein","type":"Landkreis"},"federalState":{"key":"09","name":"Bayern"}},{"name":"Irlach","postalCode":"83278","locality":"Traunstein","municipality":{"key":"09189155","name":"Traunstein, GKSt","type":"Große_Kreisstadt"},"district":{"key":"09189","name":"Traunstein","type":"Landkreis"},"federalState":{"key":"09","name":"Bayern"}},{"name":"Irlbergstr.","postalCode":"83278","locality":"Traunstein","municipality":{"key":"09189155","name":"Traunstein, GKSt","type":"Große_Kreisstadt"},"district":{"key":"09189","name":"Traunstein","type":"Landkreis"},"federalState":{"key":"09","name":"Bayern"}},{"name":"Isarstr.","postalCode":"83278","locality":"Traunstein","municipality":{"key":"09189155","name":"Traunstein, GKSt","type":"Große_Kreisstadt"},"district":{"key":"09189","name":"Traunstein","type":"Landkreis"},"federalState":{"key":"09","name":"Bayern"}},{"name":"Jahnstr.","postalCode":"83278","locality":"Traunstein","municipality":{"key":"09189155","name":"Traunstein, GKSt","type":"Große_Kreisstadt"},"district":{"key":"09189","name":"Traunstein","type":"Landkreis"},"federalState":{"key":"09","name":"Bayern"}},{"name":"Johann-Joseph-Wagner-Str.","postalCode":"83278","locality":"Traunstein","municipality":{"key":"09189155","name":"Traunstein, GKSt","type":"Große_Kreisstadt"},"district":{"key":"09189","name":"Traunstein","type":"Landkreis"},"federalState":{"key":"09","name":"Bayern"}},{"name":"Josefstr.","postalCode":"83278","locality":"Traunstein","municipality":{"key":"09189155","name":"Traunstein, GKSt","type":"Große_Kreisstadt"},"district":{"key":"09189","name":"Traunstein","type":"Landkreis"},"federalState":{"key":"09","name":"Bayern"}},{"name":"Kiefernweg","postalCode":"83361","locality":"Kienberg","municipality":{"key":"09189126","name":"Kienberg","type":"Kreisangehörige_Gemeinde"},"district":{"key":"09189","name":"Traunstein","type":"Landkreis"},"federalState":{"key":"09","name":"Bayern"}},{"name":"Kienberger Str.","postalCode":"83361","locality":"Kienberg","municipality":{"key":"09189126","name":"Kienberg","type":"Kreisangehörige_Gemeinde"},"district":{"key":"09189","name":"Traunstein","type":"Landkreis"},"federalState":{"key":"09","name":"Bayern"}},{"name":"Kirchenweg","postalCode":"83361","locality":"Kienberg","municipality":{"key":"09189126","name":"Kienberg","type":"Kreisangehörige_Gemeinde"},"district":{"key":"09189","name":"Traunstein","type":"Landkreis"},"federalState":{"key":"09","name":"Bayern"}},{"name":"Klaraweg","postalCode":"83361","locality":"Kienberg","municipality":{"key":"09189126","name":"Kienberg","type":"Kreisangehörige_Gemeinde"},"district":{"key":"09189","name":"Traunstein","type":"Landkreis"},"federalState":{"key":"09","name":"Bayern"}},{"name":"Kunostr.","postalCode":"83361","locality":"Kienberg","municipality":{"key":"09189126","name":"Kienberg","type":"Kreisangehörige_Gemeinde"},"district":{"key":"09189","name":"Traunstein","type":"Landkreis"},"federalState":{"key":"09","name":"Bayern"}},{"name":"Lindenstr.","postalCode":"83361","locality":"Kienberg","municipality":{"key":"09189126","name":"Kienberg","type":"Kreisangehörige_Gemeinde"},"district":{"key":"09189","name":"Traunstein","type":"Landkreis"},"federalState":{"key":"09","name":"Bayern"}},{"name":"Max-Humpl-Str.","postalCode":"83361","locality":"Kienberg","municipality":{"key":"09189126","name":"Kienberg","type":"Kreisangehörige_Gemeinde"},"district":{"key":"09189","name":"Traunstein","type":"Landkreis"},"federalState":{"key":"09","name":"Bayern"}},{"name":"Michael-Steinberger-Str.","postalCode":"83361","locality":"Kienberg","municipality":{"key":"09189126","name":"Kienberg","type":"Kreisangehörige_Gemeinde"},"district":{"key":"09189","name":"Traunstein","type":"Landkreis"},"federalState":{"key":"09","name":"Bayern"}},{"name":"Mühlweg","postalCode":"83361","locality":"Kienberg","municipality":{"key":"09189126","name":"Kienberg","type":"Kreisangehörige_Gemeinde"},"district":{"key":"09189","name":"Traunstein","type":"Landkreis"},"federalState":{"key":"09","name":"Bayern"}},{"name":"Neuhauserweg","postalCode":"83361","locality":"Kienberg","municipality":{"key":"09189126","name":"Kienberg","type":"Kreisangehörige_Gemeinde"},"district":{"key":"09189","name":"Traunstein","type":"Landkreis"},"federalState":{"key":"09","name":"Bayern"}},{"name":"Ortmaringer Str.","postalCode":"83361","locality":"Kienberg","municipality":{"key":"09189126","name":"Kienberg","type":"Kreisangehörige_Gemeinde"},"district":{"key":"09189","name":"Traunstein","type":"Landkreis"},"federalState":{"key":"09","name":"Bayern"}},{"name":"Otto-Heichele-Str.","postalCode":"83361","locality":"Kienberg","municipality":{"key":"09189126","name":"Kienberg","type":"Kreisangehörige_Gemeinde"},"district":{"key":"09189","name":"Traunstein","type":"Landkreis"},"federalState":{"key":"09","name":"Bayern"}},{"name":"Pappelstr.","postalCode":"83361","locality":"Kienberg","municipality":{"key":"09189126","name":"Kienberg","type":"Kreisangehörige_Gemeinde"},"district":{"key":"09189","name":"Traunstein","type":"Landkreis"},"federalState":{"key":"09","name":"Bayern"}},{"name":"Perreiterstr.","postalCode":"83361","locality":"Kienberg","municipality":{"key":"09189126","name":"Kienberg","type":"Kreisangehörige_Gemeinde"},"district":{"key":"09189","name":"Traunstein","type":"Landkreis"},"federalState":{"key":"09","name":"Bayern"}},{"name":"Pfarrer-Voglmeier-Str.","postalCode":"83361","locality":"Kienberg","municipality":{"key":"09189126","name":"Kienberg","type":"Kreisangehörige_Gemeinde"},"district":{"key":"09189","name":"Traunstein","type":"Landkreis"},"federalState":{"key":"09","name":"Bayern"}},{"name":"Pößmoos","postalCode":"83361","locality":"Kienberg","municipality":{"key":"09189126","name":"Kienberg","type":"Kreisangehörige_Gemeinde"},"district":{"key":"09189","name":"Traunstein","type":"Landkreis"},"federalState":{"key":"09","name":"Bayern"}},{"name":"Rauschbergstr.","postalCode":"83278","locality":"Traunstein","municipality":{"key":"09189155","name":"Traunstein, GKSt","type":"Große_Kreisstadt"},"district":{"key":"09189","name":"Traunstein","type":"Landkreis"},"federalState":{"key":"09","name":"Bayern"}},{"name":"Reichsberger Str.","postalCode":"83278","locality":"Traunstein","municipality":{"key":"09189155","name":"Traunstein, GKSt","type":"Große_Kreisstadt"},"district":{"key":"09189","name":"Traunstein","type":"Landkreis"},"federalState":{"key":"09","name":"Bayern"}},{"name":"Reifelbergstr.","postalCode":"83278","locality":"Traunstein","municipality":{"key":"09189155","name":"Traunstein, GKSt","type":"Große_Kreisstadt"},"district":{"key":"09189","name":"Traunstein","type":"Landkreis"},"federalState":{"key":"09","name":"Bayern"}},{"name":"Reiffenstuelstr.","postalCode":"83278","locality":"Traunstein","municipality":{"key":"09189155","name":"Traunstein, GKSt","type":"Große_Kreisstadt"},"district":{"key":"09189","name":"Traunstein","type":"Landkreis"},"federalState":{"key":"09","name":"Bayern"}},{"name":"Roitwalchen","postalCode":"83278","locality":"Traunstein","municipality":{"key":"09189155","name":"Traunstein, GKSt","type":"Große_Kreisstadt"},"district":{"key":"09189","name":"Traunstein","type":"Landkreis"},"federalState":{"key":"09","name":"Bayern"}},{"name":"Römerstr.","postalCode":"83278","locality":"Traunstein","municipality":{"key":"09189155","name":"Traunstein, GKSt","type":"Große_Kreisstadt"},"district":{"key":"09189","name":"Traunstein","type":"Landkreis"},"federalState":{"key":"09","name":"Bayern"}},{"name":"Rosenheimer Str.","postalCode":"83278","locality":"Traunstein","municipality":{"key":"09189155","name":"Traunstein, GKSt","type":"Große_Kreisstadt"},"district":{"key":"09189","name":"Traunstein","type":"Landkreis"},"federalState":{"key":"09","name":"Bayern"}},{"name":"Rosenstr.","postalCode":"83278","locality":"Traunstein","municipality":{"key":"09189155","name":"Traunstein, GKSt","type":"Große_Kreisstadt"},"district":{"key":"09189","name":"Traunstein","type":"Landkreis"},"federalState":{"key":"09","name":"Bayern"}},{"name":"Rundweg","postalCode":"83278","locality":"Traunstein","municipality":{"key":"09189155","name":"Traunstein, GKSt","type":"Große_Kreisstadt"},"district":{"key":"09189","name":"Traunstein","type":"Landkreis"},"federalState":{"key":"09","name":"Bayern"}},{"name":"Rupertistr.","postalCode":"83278","locality":"Traunstein","municipality":{"key":"09189155","name":"Traunstein, GKSt","type":"Große_Kreisstadt"},"district":{"key":"09189","name":"Traunstein","type":"Landkreis"},"federalState":{"key":"09","name":"Bayern"}},{"name":"Rupprechtstr.","postalCode":"83278","locality":"Traunstein","municipality":{"key":"09189155","name":"Traunstein, GKSt","type":"Große_Kreisstadt"},"district":{"key":"09189","name":"Traunstein","type":"Landkreis"},"federalState":{"key":"09","name":"Bayern"}},{"name":"Schnaitseer Str.","postalCode":"83361","locality":"Kienberg","municipality":{"key":"09189126","name":"Kienberg","type":"Kreisangehörige_Gemeinde"},"district":{"key":"09189","name":"Traunstein","type":"Landkreis"},"federalState":{"key":"09","name":"Bayern"}},{"name":"Schranklstr.","postalCode":"83361","locality":"Kienberg","municipality":{"key":"09189126","name":"Kienberg","type":"Kreisangehörige_Gemeinde"},"district":{"key":"09189","name":"Traunstein","type":"Landkreis"},"federalState":{"key":"09","name":"Bayern"}},{"name":"Sonnau","postalCode":"83361","locality":"Kienberg","municipality":{"key":"09189126","name":"Kienberg","type":"Kreisangehörige_Gemeinde"},"district":{"key":"09189","name":"Traunstein","type":"Landkreis"},"federalState":{"key":"09","name":"Bayern"}},{"name":"Sonnenleite","postalCode":"83361","locality":"Kienberg","municipality":{"key":"09189126","name":"Kienberg","type":"Kreisangehörige_Gemeinde"},"district":{"key":"09189","name":"Traunstein","type":"Landkreis"},"federalState":{"key":"09","name":"Bayern"}},{"name":"Stalleicherweg","postalCode":"83361","locality":"Kienberg","municipality":{"key":"09189126","name":"Kienberg","type":"Kreisangehörige_Gemeinde"},"district":{"key":"09189","name":"Traunstein","type":"Landkreis"},"federalState":{"key":"09","name":"Bayern"}},{"name":"Trostberger Str.","postalCode":"83361","locality":"Kienberg","municipality":{"key":"09189126","name":"Kienberg","type":"Kreisangehörige_Gemeinde"},"district":{"key":"09189","name":"Traunstein","type":"Landkreis"},"federalState":{"key":"09","name":"Bayern"}},{"name":"Uhlandstr.","postalCode":"83278","locality":"Traunstein","municipality":{"key":"09189155","name":"Traunstein, GKSt","type":"Große_Kreisstadt"},"district":{"key":"09189","name":"Traunstein","type":"Landkreis"},"federalState":{"key":"09","name":"Bayern"}},{"name":"Unternbergstr.","postalCode":"83278","locality":"Traunstein","municipality":{"key":"09189155","name":"Traunstein, GKSt","type":"Große_Kreisstadt"},"district":{"key":"09189","name":"Traunstein","type":"Landkreis"},"federalState":{"key":"09","name":"Bayern"}},{"name":"Vachendorfer Ring","postalCode":"83278","locality":"Traunstein","municipality":{"key":"09189155","name":"Traunstein, GKSt","type":"Große_Kreisstadt"},"district":{"key":"09189","name":"Traunstein","type":"Landkreis"},"federalState":{"key":"09","name":"Bayern"}},{"name":"Vonfichtstr.","postalCode":"83278","locality":"Traunstein","municipality":{"key":"09189155","name":"Traunstein, GKSt","type":"Große_Kreisstadt"},"district":{"key":"09189","name":"Traunstein","type":"Landkreis"},"federalState":{"key":"09","name":"Bayern"}},{"name":"Waldstr.","postalCode":"83278","locality":"Traunstein","municipality":{"key":"09189155","name":"Traunstein, GKSt","type":"Große_Kreisstadt"},"district":{"key":"09189","name":"Traunstein","type":"Landkreis"},"federalState":{"key":"09","name":"Bayern"}},{"name":"Wartbergfeldstr.","postalCode":"83278","locality":"Traunstein","municipality":{"key":"09189155","name":"Traunstein, GKSt","type":"Große_Kreisstadt"},"district":{"key":"09189","name":"Traunstein","type":"Landkreis"},"federalState":{"key":"09","name":"Bayern"}},{"name":"Wasserburger Str.","postalCode":"83278","locality":"Traunstein","municipality":{"key":"09189155","name":"Traunstein, GKSt","type":"Große_Kreisstadt"},"district":{"key":"09189","name":"Traunstein","type":"Landkreis"},"federalState":{"key":"09","name":"Bayern"}},{"name":"Watzmannstr.","postalCode":"83278","locality":"Traunstein","municipality":{"key":"09189155","name":"Traunstein, GKSt","type":"Große_Kreisstadt"},"district":{"key":"09189","name":"Traunstein","type":"Landkreis"},"federalState":{"key":"09","name":"Bayern"}},{"name":"Weckerlestr.","postalCode":"83278","locality":"Traunstein","municipality":{"key":"09189155","name":"Traunstein, GKSt","type":"Große_Kreisstadt"},"district":{"key":"09189","name":"Traunstein","type":"Landkreis"},"federalState":{"key":"09","name":"Bayern"}},{"name":"Weinleite","postalCode":"83278","locality":"Traunstein","municipality":{"key":"09189155","name":"Traunstein, GKSt","type":"Große_Kreisstadt"},"district":{"key":"09189","name":"Traunstein","type":"Landkreis"},"federalState":{"key":"09","name":"Bayern"}},{"name":"Wesselinger Str.","postalCode":"83278","locality":"Traunstein","municipality":{"key":"09189155","name":"Traunstein, GKSt","type":"Große_Kreisstadt"},"district":{"key":"09189","name":"Traunstein","type":"Landkreis"},"federalState":{"key":"09","name":"Bayern"}},{"name":"Wiesenweg","postalCode":"83278","locality":"Traunstein","municipality":{"key":"09189155","name":"Traunstein, GKSt","type":"Große_Kreisstadt"},"district":{"key":"09189","name":"Traunstein","type":"Landkreis"},"federalState":{"key":"09","name":"Bayern"}},{"name":"Willy-Merkl-Str.","postalCode":"83278","locality":"Traunstein","municipality":{"key":"09189155","name":"Traunstein, GKSt","type":"Große_Kreisstadt"},"district":{"key":"09189","name":"Traunstein","type":"Landkreis"},"federalState":{"key":"09","name":"Bayern"}},{"name":"Windschnur","postalCode":"83278","locality":"Traunstein","municipality":{"key":"09189155","name":"Traunstein, GKSt","type":"Große_Kreisstadt"},"district":{"key":"09189","name":"Traunstein","type":"Landkreis"},"federalState":{"key":"09","name":"Bayern"}},{"name":"Winkelpainerstr.","postalCode":"83278","locality":"Traunstein","municipality":{"key":"09189155","name":"Traunstein, GKSt","type":"Große_Kreisstadt"},"district":{"key":"09189","name":"Traunstein","type":"Landkreis"},"federalState":{"key":"09","name":"Bayern"}},{"name":"Wispaurstr.","postalCode":"83278","locality":"Traunstein","municipality":{"key":"09189155","name":"Traunstein, GKSt","type":"Große_Kreisstadt"},"district":{"key":"09189","name":"Traunstein","type":"Landkreis"},"federalState":{"key":"09","name":"Bayern"}},{"name":"Wochinger Spitz","postalCode":"83278","locality":"Traunstein","municipality":{"key":"09189155","name":"Traunstein, GKSt","type":"Große_Kreisstadt"},"district":{"key":"09189","name":"Traunstein","type":"Landkreis"},"federalState":{"key":"09","name":"Bayern"}},{"name":"Wolkersdorfer Str.","postalCode":"83278","locality":"Traunstein","municipality":{"key":"09189155","name":"Traunstein, GKSt","type":"Große_Kreisstadt"},"district":{"key":"09189","name":"Traunstein","type":"Landkreis"},"federalState":{"key":"09","name":"Bayern"}},{"name":"Zeppelinstr.","postalCode":"83278","locality":"Traunstein","municipality":{"key":"09189155","name":"Traunstein, GKSt","type":"Große_Kreisstadt"},"district":{"key":"09189","name":"Traunstein","type":"Landkreis"},"federalState":{"key":"09","name":"Bayern"}},{"name":"Zirnbergerstr.","postalCode":"83278","locality":"Traunstein","municipality":{"key":"09189155","name":"Traunstein, GKSt","type":"Große_Kreisstadt"},"district":{"key":"09189","name":"Traunstein","type":"Landkreis"},"federalState":{"key":"09","name":"Bayern"}},{"name":"Zwieselstr.","postalCode":"83278","locality":"Traunstein","municipality":{"key":"09189155","name":"Traunstein, GKSt","type":"Große_Kreisstadt"},"district":{"key":"09189","name":"Traunstein","type":"Landkreis"},"federalState":{"key":"09","name":"Bayern"}},{"name":"Äußere Rosenheimer Str.","postalCode":"83278","locality":"Traunstein","municipality":{"key":"09189155","name":"Traunstein, GKSt","type":"Große_Kreisstadt"},"district":{"key":"09189","name":"Traunstein","type":"Landkreis"},"federalState":{"key":"09","name":"Bayern"}},{"name":"Öttinger Gasse","postalCode":"83278","locality":"Traunstein","municipality":{"key":"09189155","name":"Traunstein, GKSt","type":"Große_Kreisstadt"},"district":{"key":"09189","name":"Traunstein","type":"Landkreis"},"federalState":{"key":"09","name":"Bayern"}},]