[{"key":"10121247","name":"Bachstrasse","postalCode":"3931","locality":"Lalden","commune":{"key":"6286","name":"Lalden","shortName":"Lalden"},"district":{"key":"2313","name":"Bezirk Visp"},"canton":{"key":"23","code":"VS","name":"Valais / Wallis"},"status":"Real"},{"key":"10047183","name":"Dorfstrasse","postalCode":"3931","locality":"Lalden","commune":{"key":"6286","name":"Lalden","shortName":"Lalden"},"district":{"key":"2313","name":"Bezirk Visp"},"canton":{"key":"23","code":"VS","name":"Valais / Wallis"},"status":"Real"},{"key":"10073603","name":"Gewerbestrasse","postalCode":"3931","locality":"Lalden","commune":{"key":"6286","name":"Lalden","shortName":"Lalden"},"district":{"key":"2313","name":"Bezirk Visp"},"canton":{"key":"23","code":"VS","name":"Valais / Wallis"},"status":"Real"},{"key":"10138344","name":"Hofeldweg","postalCode":"3931","locality":"Lalden","commune":{"key":"6286","name":"Lalden","shortName":"Lalden"},"district":{"key":"2313","name":"Bezirk Visp"},"canton":{"key":"23","code":"VS","name":"Valais / Wallis"},"status":"Real"},{"key":"10047184","name":"Hohfeldstrasse","postalCode":"3931","locality":"Lalden","commune":{"key":"6286","name":"Lalden","shortName":"Lalden"},"district":{"key":"2313","name":"Bezirk Visp"},"canton":{"key":"23","code":"VS","name":"Valais / Wallis"},"status":"Real"},{"key":"10190651","name":"Kanalstrasse","postalCode":"3931","locality":"Lalden","commune":{"key":"6286","name":"Lalden","shortName":"Lalden"},"district":{"key":"2313","name":"Bezirk Visp"},"canton":{"key":"23","code":"VS","name":"Valais / Wallis"},"status":"Real"},{"key":"10178373","name":"Kirchweg","postalCode":"3931","locality":"Lalden","commune":{"key":"6286","name":"Lalden","shortName":"Lalden"},"district":{"key":"2313","name":"Bezirk Visp"},"canton":{"key":"23","code":"VS","name":"Valais / Wallis"},"status":"Real"},{"key":"10073606","name":"Sandstrasse","postalCode":"3931","locality":"Lalden","commune":{"key":"6286","name":"Lalden","shortName":"Lalden"},"district":{"key":"2313","name":"Bezirk Visp"},"canton":{"key":"23","code":"VS","name":"Valais / Wallis"},"status":"Real"},{"key":"10184589","name":"Schulhausstrasse","postalCode":"3931","locality":"Lalden","commune":{"key":"6286","name":"Lalden","shortName":"Lalden"},"district":{"key":"2313","name":"Bezirk Visp"},"canton":{"key":"23","code":"VS","name":"Valais / Wallis"},"status":"Real"},{"key":"10098887","name":"Steingasse","postalCode":"3931","locality":"Lalden","commune":{"key":"6286","name":"Lalden","shortName":"Lalden"},"district":{"key":"2313","name":"Bezirk Visp"},"canton":{"key":"23","code":"VS","name":"Valais / Wallis"},"status":"Real"},]