[{"name":"Altweichelau","postalCode":"92545","locality":"Niedermurach","municipality":{"key":"09376148","name":"Niedermurach","type":"Kreisangehörige_Gemeinde"},"district":{"key":"09376","name":"Schwandorf","type":"Landkreis"},"federalState":{"key":"09","name":"Bayern"}},{"name":"Am Hammer","postalCode":"92545","locality":"Niedermurach","municipality":{"key":"09376148","name":"Niedermurach","type":"Kreisangehörige_Gemeinde"},"district":{"key":"09376","name":"Schwandorf","type":"Landkreis"},"federalState":{"key":"09","name":"Bayern"}},{"name":"Am Kalvarienberg","postalCode":"92545","locality":"Niedermurach","municipality":{"key":"09376148","name":"Niedermurach","type":"Kreisangehörige_Gemeinde"},"district":{"key":"09376","name":"Schwandorf","type":"Landkreis"},"federalState":{"key":"09","name":"Bayern"}},{"name":"Am Tradl","postalCode":"92545","locality":"Niedermurach","municipality":{"key":"09376148","name":"Niedermurach","type":"Kreisangehörige_Gemeinde"},"district":{"key":"09376","name":"Schwandorf","type":"Landkreis"},"federalState":{"key":"09","name":"Bayern"}},{"name":"Am Wolfsbach","postalCode":"92545","locality":"Niedermurach","municipality":{"key":"09376148","name":"Niedermurach","type":"Kreisangehörige_Gemeinde"},"district":{"key":"09376","name":"Schwandorf","type":"Landkreis"},"federalState":{"key":"09","name":"Bayern"}},{"name":"Brauhausgasse","postalCode":"92545","locality":"Niedermurach","municipality":{"key":"09376148","name":"Niedermurach","type":"Kreisangehörige_Gemeinde"},"district":{"key":"09376","name":"Schwandorf","type":"Landkreis"},"federalState":{"key":"09","name":"Bayern"}},{"name":"Brünnlweg","postalCode":"92545","locality":"Niedermurach","municipality":{"key":"09376148","name":"Niedermurach","type":"Kreisangehörige_Gemeinde"},"district":{"key":"09376","name":"Schwandorf","type":"Landkreis"},"federalState":{"key":"09","name":"Bayern"}},{"name":"Celsiusstr.","postalCode":"92421","locality":"Schwandorf","municipality":{"key":"09376161","name":"Schwandorf, GKSt","type":"Große_Kreisstadt"},"district":{"key":"09376","name":"Schwandorf","type":"Landkreis"},"federalState":{"key":"09","name":"Bayern"}},{"name":"Charlottenhof","postalCode":"92421","locality":"Schwandorf","municipality":{"key":"09376161","name":"Schwandorf, GKSt","type":"Große_Kreisstadt"},"district":{"key":"09376","name":"Schwandorf","type":"Landkreis"},"federalState":{"key":"09","name":"Bayern"}},{"name":"Dietersdorfer Str.","postalCode":"92545","locality":"Niedermurach","municipality":{"key":"09376148","name":"Niedermurach","type":"Kreisangehörige_Gemeinde"},"district":{"key":"09376","name":"Schwandorf","type":"Landkreis"},"federalState":{"key":"09","name":"Bayern"}},{"name":"Dorfstr.","postalCode":"92545","locality":"Niedermurach","municipality":{"key":"09376148","name":"Niedermurach","type":"Kreisangehörige_Gemeinde"},"district":{"key":"09376","name":"Schwandorf","type":"Landkreis"},"federalState":{"key":"09","name":"Bayern"}},{"name":"Enzelsberg","postalCode":"92545","locality":"Niedermurach","municipality":{"key":"09376148","name":"Niedermurach","type":"Kreisangehörige_Gemeinde"},"district":{"key":"09376","name":"Schwandorf","type":"Landkreis"},"federalState":{"key":"09","name":"Bayern"}},{"name":"Fuchsenhöhe","postalCode":"92545","locality":"Niedermurach","municipality":{"key":"09376148","name":"Niedermurach","type":"Kreisangehörige_Gemeinde"},"district":{"key":"09376","name":"Schwandorf","type":"Landkreis"},"federalState":{"key":"09","name":"Bayern"}},{"name":"Gabelsberger Str.","postalCode":"92421","locality":"Schwandorf","municipality":{"key":"09376161","name":"Schwandorf, GKSt","type":"Große_Kreisstadt"},"district":{"key":"09376","name":"Schwandorf","type":"Landkreis"},"federalState":{"key":"09","name":"Bayern"}},{"name":"Gaisbergstr.","postalCode":"92421","locality":"Schwandorf","municipality":{"key":"09376161","name":"Schwandorf, GKSt","type":"Große_Kreisstadt"},"district":{"key":"09376","name":"Schwandorf","type":"Landkreis"},"federalState":{"key":"09","name":"Bayern"}},{"name":"Galgengasse","postalCode":"92421","locality":"Schwandorf","municipality":{"key":"09376161","name":"Schwandorf, GKSt","type":"Große_Kreisstadt"},"district":{"key":"09376","name":"Schwandorf","type":"Landkreis"},"federalState":{"key":"09","name":"Bayern"}},{"name":"Galileistr.","postalCode":"92421","locality":"Schwandorf","municipality":{"key":"09376161","name":"Schwandorf, GKSt","type":"Große_Kreisstadt"},"district":{"key":"09376","name":"Schwandorf","type":"Landkreis"},"federalState":{"key":"09","name":"Bayern"}},{"name":"Galvanistr.","postalCode":"92421","locality":"Schwandorf","municipality":{"key":"09376161","name":"Schwandorf, GKSt","type":"Große_Kreisstadt"},"district":{"key":"09376","name":"Schwandorf","type":"Landkreis"},"federalState":{"key":"09","name":"Bayern"}},{"name":"Ganghoferstr.","postalCode":"92421","locality":"Schwandorf","municipality":{"key":"09376161","name":"Schwandorf, GKSt","type":"Große_Kreisstadt"},"district":{"key":"09376","name":"Schwandorf","type":"Landkreis"},"federalState":{"key":"09","name":"Bayern"}},{"name":"Garrstr.","postalCode":"92421","locality":"Schwandorf","municipality":{"key":"09376161","name":"Schwandorf, GKSt","type":"Große_Kreisstadt"},"district":{"key":"09376","name":"Schwandorf","type":"Landkreis"},"federalState":{"key":"09","name":"Bayern"}},{"name":"Gartenackerstr.","postalCode":"92421","locality":"Schwandorf","municipality":{"key":"09376161","name":"Schwandorf, GKSt","type":"Große_Kreisstadt"},"district":{"key":"09376","name":"Schwandorf","type":"Landkreis"},"federalState":{"key":"09","name":"Bayern"}},{"name":"Gartenstr.","postalCode":"92421","locality":"Schwandorf","municipality":{"key":"09376161","name":"Schwandorf, GKSt","type":"Große_Kreisstadt"},"district":{"key":"09376","name":"Schwandorf","type":"Landkreis"},"federalState":{"key":"09","name":"Bayern"}},{"name":"Gärtnerstr.","postalCode":"92421","locality":"Schwandorf","municipality":{"key":"09376161","name":"Schwandorf, GKSt","type":"Große_Kreisstadt"},"district":{"key":"09376","name":"Schwandorf","type":"Landkreis"},"federalState":{"key":"09","name":"Bayern"}},{"name":"Gebrüder-Grimm-Str.","postalCode":"92421","locality":"Schwandorf","municipality":{"key":"09376161","name":"Schwandorf, GKSt","type":"Große_Kreisstadt"},"district":{"key":"09376","name":"Schwandorf","type":"Landkreis"},"federalState":{"key":"09","name":"Bayern"}},{"name":"Georg-Feldmeier-Str.","postalCode":"92421","locality":"Schwandorf","municipality":{"key":"09376161","name":"Schwandorf, GKSt","type":"Große_Kreisstadt"},"district":{"key":"09376","name":"Schwandorf","type":"Landkreis"},"federalState":{"key":"09","name":"Bayern"}},{"name":"Georg-Schambeck-Str.","postalCode":"92421","locality":"Schwandorf","municipality":{"key":"09376161","name":"Schwandorf, GKSt","type":"Große_Kreisstadt"},"district":{"key":"09376","name":"Schwandorf","type":"Landkreis"},"federalState":{"key":"09","name":"Bayern"}},{"name":"Geranienweg","postalCode":"92421","locality":"Schwandorf","municipality":{"key":"09376161","name":"Schwandorf, GKSt","type":"Große_Kreisstadt"},"district":{"key":"09376","name":"Schwandorf","type":"Landkreis"},"federalState":{"key":"09","name":"Bayern"}},{"name":"Geschwister-Scholl-Str.","postalCode":"92421","locality":"Schwandorf","municipality":{"key":"09376161","name":"Schwandorf, GKSt","type":"Große_Kreisstadt"},"district":{"key":"09376","name":"Schwandorf","type":"Landkreis"},"federalState":{"key":"09","name":"Bayern"}},{"name":"Gibachtstr.","postalCode":"92421","locality":"Schwandorf","municipality":{"key":"09376161","name":"Schwandorf, GKSt","type":"Große_Kreisstadt"},"district":{"key":"09376","name":"Schwandorf","type":"Landkreis"},"federalState":{"key":"09","name":"Bayern"}},{"name":"Ginsterweg","postalCode":"92421","locality":"Schwandorf","municipality":{"key":"09376161","name":"Schwandorf, GKSt","type":"Große_Kreisstadt"},"district":{"key":"09376","name":"Schwandorf","type":"Landkreis"},"federalState":{"key":"09","name":"Bayern"}},{"name":"Gladiolenstr.","postalCode":"92421","locality":"Schwandorf","municipality":{"key":"09376161","name":"Schwandorf, GKSt","type":"Große_Kreisstadt"},"district":{"key":"09376","name":"Schwandorf","type":"Landkreis"},"federalState":{"key":"09","name":"Bayern"}},{"name":"Glätzlstr.","postalCode":"92421","locality":"Schwandorf","municipality":{"key":"09376161","name":"Schwandorf, GKSt","type":"Große_Kreisstadt"},"district":{"key":"09376","name":"Schwandorf","type":"Landkreis"},"federalState":{"key":"09","name":"Bayern"}},{"name":"Gleiwitzer Str.","postalCode":"92421","locality":"Schwandorf","municipality":{"key":"09376161","name":"Schwandorf, GKSt","type":"Große_Kreisstadt"},"district":{"key":"09376","name":"Schwandorf","type":"Landkreis"},"federalState":{"key":"09","name":"Bayern"}},{"name":"Goethestr.","postalCode":"92421","locality":"Schwandorf","municipality":{"key":"09376161","name":"Schwandorf, GKSt","type":"Große_Kreisstadt"},"district":{"key":"09376","name":"Schwandorf","type":"Landkreis"},"federalState":{"key":"09","name":"Bayern"}},{"name":"Gögglbacher Ring","postalCode":"92421","locality":"Schwandorf","municipality":{"key":"09376161","name":"Schwandorf, GKSt","type":"Große_Kreisstadt"},"district":{"key":"09376","name":"Schwandorf","type":"Landkreis"},"federalState":{"key":"09","name":"Bayern"}},{"name":"Goldregenstr.","postalCode":"92421","locality":"Schwandorf","municipality":{"key":"09376161","name":"Schwandorf, GKSt","type":"Große_Kreisstadt"},"district":{"key":"09376","name":"Schwandorf","type":"Landkreis"},"federalState":{"key":"09","name":"Bayern"}},{"name":"Goldsternstr.","postalCode":"92421","locality":"Schwandorf","municipality":{"key":"09376161","name":"Schwandorf, GKSt","type":"Große_Kreisstadt"},"district":{"key":"09376","name":"Schwandorf","type":"Landkreis"},"federalState":{"key":"09","name":"Bayern"}},{"name":"Grabenweg","postalCode":"92421","locality":"Schwandorf","municipality":{"key":"09376161","name":"Schwandorf, GKSt","type":"Große_Kreisstadt"},"district":{"key":"09376","name":"Schwandorf","type":"Landkreis"},"federalState":{"key":"09","name":"Bayern"}},{"name":"Graf-von-Stauffenberg-Str.","postalCode":"92421","locality":"Schwandorf","municipality":{"key":"09376161","name":"Schwandorf, GKSt","type":"Große_Kreisstadt"},"district":{"key":"09376","name":"Schwandorf","type":"Landkreis"},"federalState":{"key":"09","name":"Bayern"}},{"name":"Grain","postalCode":"92421","locality":"Schwandorf","municipality":{"key":"09376161","name":"Schwandorf, GKSt","type":"Große_Kreisstadt"},"district":{"key":"09376","name":"Schwandorf","type":"Landkreis"},"federalState":{"key":"09","name":"Bayern"}},{"name":"Grieslweg","postalCode":"92421","locality":"Schwandorf","municipality":{"key":"09376161","name":"Schwandorf, GKSt","type":"Große_Kreisstadt"},"district":{"key":"09376","name":"Schwandorf","type":"Landkreis"},"federalState":{"key":"09","name":"Bayern"}},{"name":"Grillparzerplatz","postalCode":"92421","locality":"Schwandorf","municipality":{"key":"09376161","name":"Schwandorf, GKSt","type":"Große_Kreisstadt"},"district":{"key":"09376","name":"Schwandorf","type":"Landkreis"},"federalState":{"key":"09","name":"Bayern"}},{"name":"Grünstr.","postalCode":"92421","locality":"Schwandorf","municipality":{"key":"09376161","name":"Schwandorf, GKSt","type":"Große_Kreisstadt"},"district":{"key":"09376","name":"Schwandorf","type":"Landkreis"},"federalState":{"key":"09","name":"Bayern"}},{"name":"Grünwaldstr.","postalCode":"92421","locality":"Schwandorf","municipality":{"key":"09376161","name":"Schwandorf, GKSt","type":"Große_Kreisstadt"},"district":{"key":"09376","name":"Schwandorf","type":"Landkreis"},"federalState":{"key":"09","name":"Bayern"}},{"name":"Guerickestr.","postalCode":"92421","locality":"Schwandorf","municipality":{"key":"09376161","name":"Schwandorf, GKSt","type":"Große_Kreisstadt"},"district":{"key":"09376","name":"Schwandorf","type":"Landkreis"},"federalState":{"key":"09","name":"Bayern"}},{"name":"Gustav-Hertz-Str.","postalCode":"92421","locality":"Schwandorf","municipality":{"key":"09376161","name":"Schwandorf, GKSt","type":"Große_Kreisstadt"},"district":{"key":"09376","name":"Schwandorf","type":"Landkreis"},"federalState":{"key":"09","name":"Bayern"}},{"name":"Güterhallenstr.","postalCode":"92421","locality":"Schwandorf","municipality":{"key":"09376161","name":"Schwandorf, GKSt","type":"Große_Kreisstadt"},"district":{"key":"09376","name":"Schwandorf","type":"Landkreis"},"federalState":{"key":"09","name":"Bayern"}},{"name":"Heideweg","postalCode":"92545","locality":"Niedermurach","municipality":{"key":"09376148","name":"Niedermurach","type":"Kreisangehörige_Gemeinde"},"district":{"key":"09376","name":"Schwandorf","type":"Landkreis"},"federalState":{"key":"09","name":"Bayern"}},{"name":"Höflarn","postalCode":"92545","locality":"Niedermurach","municipality":{"key":"09376148","name":"Niedermurach","type":"Kreisangehörige_Gemeinde"},"district":{"key":"09376","name":"Schwandorf","type":"Landkreis"},"federalState":{"key":"09","name":"Bayern"}},{"name":"Iferweg","postalCode":"92421","locality":"Schwandorf","municipality":{"key":"09376161","name":"Schwandorf, GKSt","type":"Große_Kreisstadt"},"district":{"key":"09376","name":"Schwandorf","type":"Landkreis"},"federalState":{"key":"09","name":"Bayern"}},{"name":"Im Bründl","postalCode":"92421","locality":"Schwandorf","municipality":{"key":"09376161","name":"Schwandorf, GKSt","type":"Große_Kreisstadt"},"district":{"key":"09376","name":"Schwandorf","type":"Landkreis"},"federalState":{"key":"09","name":"Bayern"}},{"name":"Im Freihöfl","postalCode":"92421","locality":"Schwandorf","municipality":{"key":"09376161","name":"Schwandorf, GKSt","type":"Große_Kreisstadt"},"district":{"key":"09376","name":"Schwandorf","type":"Landkreis"},"federalState":{"key":"09","name":"Bayern"}},{"name":"Imkerstr.","postalCode":"92421","locality":"Schwandorf","municipality":{"key":"09376161","name":"Schwandorf, GKSt","type":"Große_Kreisstadt"},"district":{"key":"09376","name":"Schwandorf","type":"Landkreis"},"federalState":{"key":"09","name":"Bayern"}},{"name":"In der Flur","postalCode":"92421","locality":"Schwandorf","municipality":{"key":"09376161","name":"Schwandorf, GKSt","type":"Große_Kreisstadt"},"district":{"key":"09376","name":"Schwandorf","type":"Landkreis"},"federalState":{"key":"09","name":"Bayern"}},{"name":"In der Trift","postalCode":"92421","locality":"Schwandorf","municipality":{"key":"09376161","name":"Schwandorf, GKSt","type":"Große_Kreisstadt"},"district":{"key":"09376","name":"Schwandorf","type":"Landkreis"},"federalState":{"key":"09","name":"Bayern"}},{"name":"Industriestr.","postalCode":"92421","locality":"Schwandorf","municipality":{"key":"09376161","name":"Schwandorf, GKSt","type":"Große_Kreisstadt"},"district":{"key":"09376","name":"Schwandorf","type":"Landkreis"},"federalState":{"key":"09","name":"Bayern"}},{"name":"Irisstr.","postalCode":"92421","locality":"Schwandorf","municipality":{"key":"09376161","name":"Schwandorf, GKSt","type":"Große_Kreisstadt"},"district":{"key":"09376","name":"Schwandorf","type":"Landkreis"},"federalState":{"key":"09","name":"Bayern"}},{"name":"Irlachinger Str.","postalCode":"92421","locality":"Schwandorf","municipality":{"key":"09376161","name":"Schwandorf, GKSt","type":"Große_Kreisstadt"},"district":{"key":"09376","name":"Schwandorf","type":"Landkreis"},"federalState":{"key":"09","name":"Bayern"}},{"name":"Irlbach","postalCode":"92421","locality":"Schwandorf","municipality":{"key":"09376161","name":"Schwandorf, GKSt","type":"Große_Kreisstadt"},"district":{"key":"09376","name":"Schwandorf","type":"Landkreis"},"federalState":{"key":"09","name":"Bayern"}},{"name":"Jakobsweg","postalCode":"92545","locality":"Niedermurach","municipality":{"key":"09376148","name":"Niedermurach","type":"Kreisangehörige_Gemeinde"},"district":{"key":"09376","name":"Schwandorf","type":"Landkreis"},"federalState":{"key":"09","name":"Bayern"}},{"name":"Kapellenweg","postalCode":"92545","locality":"Niedermurach","municipality":{"key":"09376148","name":"Niedermurach","type":"Kreisangehörige_Gemeinde"},"district":{"key":"09376","name":"Schwandorf","type":"Landkreis"},"federalState":{"key":"09","name":"Bayern"}},{"name":"Lampartstr.","postalCode":"92421","locality":"Schwandorf","municipality":{"key":"09376161","name":"Schwandorf, GKSt","type":"Große_Kreisstadt"},"district":{"key":"09376","name":"Schwandorf","type":"Landkreis"},"federalState":{"key":"09","name":"Bayern"}},{"name":"Lange Str.","postalCode":"92421","locality":"Schwandorf","municipality":{"key":"09376161","name":"Schwandorf, GKSt","type":"Große_Kreisstadt"},"district":{"key":"09376","name":"Schwandorf","type":"Landkreis"},"federalState":{"key":"09","name":"Bayern"}},{"name":"Laubstr.","postalCode":"92421","locality":"Schwandorf","municipality":{"key":"09376161","name":"Schwandorf, GKSt","type":"Große_Kreisstadt"},"district":{"key":"09376","name":"Schwandorf","type":"Landkreis"},"federalState":{"key":"09","name":"Bayern"}},{"name":"Leite","postalCode":"92421","locality":"Schwandorf","municipality":{"key":"09376161","name":"Schwandorf, GKSt","type":"Große_Kreisstadt"},"district":{"key":"09376","name":"Schwandorf","type":"Landkreis"},"federalState":{"key":"09","name":"Bayern"}},{"name":"Leitlstr.","postalCode":"92421","locality":"Schwandorf","municipality":{"key":"09376161","name":"Schwandorf, GKSt","type":"Große_Kreisstadt"},"district":{"key":"09376","name":"Schwandorf","type":"Landkreis"},"federalState":{"key":"09","name":"Bayern"}},{"name":"Lenzstr.","postalCode":"92421","locality":"Schwandorf","municipality":{"key":"09376161","name":"Schwandorf, GKSt","type":"Große_Kreisstadt"},"district":{"key":"09376","name":"Schwandorf","type":"Landkreis"},"federalState":{"key":"09","name":"Bayern"}},{"name":"Lerchenstr.","postalCode":"92421","locality":"Schwandorf","municipality":{"key":"09376161","name":"Schwandorf, GKSt","type":"Große_Kreisstadt"},"district":{"key":"09376","name":"Schwandorf","type":"Landkreis"},"federalState":{"key":"09","name":"Bayern"}},{"name":"Lessingstr.","postalCode":"92421","locality":"Schwandorf","municipality":{"key":"09376161","name":"Schwandorf, GKSt","type":"Große_Kreisstadt"},"district":{"key":"09376","name":"Schwandorf","type":"Landkreis"},"federalState":{"key":"09","name":"Bayern"}},{"name":"Lettenstr.","postalCode":"92421","locality":"Schwandorf","municipality":{"key":"09376161","name":"Schwandorf, GKSt","type":"Große_Kreisstadt"},"district":{"key":"09376","name":"Schwandorf","type":"Landkreis"},"federalState":{"key":"09","name":"Bayern"}},{"name":"Libellenstr.","postalCode":"92421","locality":"Schwandorf","municipality":{"key":"09376161","name":"Schwandorf, GKSt","type":"Große_Kreisstadt"},"district":{"key":"09376","name":"Schwandorf","type":"Landkreis"},"federalState":{"key":"09","name":"Bayern"}},{"name":"Liebigstr.","postalCode":"92421","locality":"Schwandorf","municipality":{"key":"09376161","name":"Schwandorf, GKSt","type":"Große_Kreisstadt"},"district":{"key":"09376","name":"Schwandorf","type":"Landkreis"},"federalState":{"key":"09","name":"Bayern"}},{"name":"Lilienstr.","postalCode":"92421","locality":"Schwandorf","municipality":{"key":"09376161","name":"Schwandorf, GKSt","type":"Große_Kreisstadt"},"district":{"key":"09376","name":"Schwandorf","type":"Landkreis"},"federalState":{"key":"09","name":"Bayern"}},{"name":"Lilienthalstr.","postalCode":"92421","locality":"Schwandorf","municipality":{"key":"09376161","name":"Schwandorf, GKSt","type":"Große_Kreisstadt"},"district":{"key":"09376","name":"Schwandorf","type":"Landkreis"},"federalState":{"key":"09","name":"Bayern"}},{"name":"Lindenlohe","postalCode":"92421","locality":"Schwandorf","municipality":{"key":"09376161","name":"Schwandorf, GKSt","type":"Große_Kreisstadt"},"district":{"key":"09376","name":"Schwandorf","type":"Landkreis"},"federalState":{"key":"09","name":"Bayern"}},{"name":"Lindenloher Str.","postalCode":"92421","locality":"Schwandorf","municipality":{"key":"09376161","name":"Schwandorf, GKSt","type":"Große_Kreisstadt"},"district":{"key":"09376","name":"Schwandorf","type":"Landkreis"},"federalState":{"key":"09","name":"Bayern"}},{"name":"Lindenstr.","postalCode":"92421","locality":"Schwandorf","municipality":{"key":"09376161","name":"Schwandorf, GKSt","type":"Große_Kreisstadt"},"district":{"key":"09376","name":"Schwandorf","type":"Landkreis"},"federalState":{"key":"09","name":"Bayern"}},{"name":"Lohbachstr.","postalCode":"92421","locality":"Schwandorf","municipality":{"key":"09376161","name":"Schwandorf, GKSt","type":"Große_Kreisstadt"},"district":{"key":"09376","name":"Schwandorf","type":"Landkreis"},"federalState":{"key":"09","name":"Bayern"}},{"name":"Lohstr.","postalCode":"92421","locality":"Schwandorf","municipality":{"key":"09376161","name":"Schwandorf, GKSt","type":"Große_Kreisstadt"},"district":{"key":"09376","name":"Schwandorf","type":"Landkreis"},"federalState":{"key":"09","name":"Bayern"}},{"name":"Loisnitzer Weg","postalCode":"92421","locality":"Schwandorf","municipality":{"key":"09376161","name":"Schwandorf, GKSt","type":"Große_Kreisstadt"},"district":{"key":"09376","name":"Schwandorf","type":"Landkreis"},"federalState":{"key":"09","name":"Bayern"}},{"name":"Löllstr.","postalCode":"92421","locality":"Schwandorf","municipality":{"key":"09376161","name":"Schwandorf, GKSt","type":"Große_Kreisstadt"},"district":{"key":"09376","name":"Schwandorf","type":"Landkreis"},"federalState":{"key":"09","name":"Bayern"}},{"name":"Lönsstr.","postalCode":"92421","locality":"Schwandorf","municipality":{"key":"09376161","name":"Schwandorf, GKSt","type":"Große_Kreisstadt"},"district":{"key":"09376","name":"Schwandorf","type":"Landkreis"},"federalState":{"key":"09","name":"Bayern"}},{"name":"Luberstr.","postalCode":"92421","locality":"Schwandorf","municipality":{"key":"09376161","name":"Schwandorf, GKSt","type":"Große_Kreisstadt"},"district":{"key":"09376","name":"Schwandorf","type":"Landkreis"},"federalState":{"key":"09","name":"Bayern"}},{"name":"Ludwig-Pirzer-Str.","postalCode":"92421","locality":"Schwandorf","municipality":{"key":"09376161","name":"Schwandorf, GKSt","type":"Große_Kreisstadt"},"district":{"key":"09376","name":"Schwandorf","type":"Landkreis"},"federalState":{"key":"09","name":"Bayern"}},{"name":"Ludwig-Thoma-Platz","postalCode":"92421","locality":"Schwandorf","municipality":{"key":"09376161","name":"Schwandorf, GKSt","type":"Große_Kreisstadt"},"district":{"key":"09376","name":"Schwandorf","type":"Landkreis"},"federalState":{"key":"09","name":"Bayern"}},{"name":"Mantlarner Str.","postalCode":"92545","locality":"Niedermurach","municipality":{"key":"09376148","name":"Niedermurach","type":"Kreisangehörige_Gemeinde"},"district":{"key":"09376","name":"Schwandorf","type":"Landkreis"},"federalState":{"key":"09","name":"Bayern"}},{"name":"Mühlweg","postalCode":"92545","locality":"Niedermurach","municipality":{"key":"09376148","name":"Niedermurach","type":"Kreisangehörige_Gemeinde"},"district":{"key":"09376","name":"Schwandorf","type":"Landkreis"},"federalState":{"key":"09","name":"Bayern"}},{"name":"Naabecker Str.","postalCode":"92421","locality":"Schwandorf","municipality":{"key":"09376161","name":"Schwandorf, GKSt","type":"Große_Kreisstadt"},"district":{"key":"09376","name":"Schwandorf","type":"Landkreis"},"federalState":{"key":"09","name":"Bayern"}},{"name":"Naabstr.","postalCode":"92421","locality":"Schwandorf","municipality":{"key":"09376161","name":"Schwandorf, GKSt","type":"Große_Kreisstadt"},"district":{"key":"09376","name":"Schwandorf","type":"Landkreis"},"federalState":{"key":"09","name":"Bayern"}},{"name":"Naabuferstr.","postalCode":"92421","locality":"Schwandorf","municipality":{"key":"09376161","name":"Schwandorf, GKSt","type":"Große_Kreisstadt"},"district":{"key":"09376","name":"Schwandorf","type":"Landkreis"},"federalState":{"key":"09","name":"Bayern"}},{"name":"Nagelschmiedgasse","postalCode":"92421","locality":"Schwandorf","municipality":{"key":"09376161","name":"Schwandorf, GKSt","type":"Große_Kreisstadt"},"district":{"key":"09376","name":"Schwandorf","type":"Landkreis"},"federalState":{"key":"09","name":"Bayern"}},{"name":"Nansenstr.","postalCode":"92421","locality":"Schwandorf","municipality":{"key":"09376161","name":"Schwandorf, GKSt","type":"Große_Kreisstadt"},"district":{"key":"09376","name":"Schwandorf","type":"Landkreis"},"federalState":{"key":"09","name":"Bayern"}},{"name":"Nariskerstr.","postalCode":"92421","locality":"Schwandorf","municipality":{"key":"09376161","name":"Schwandorf, GKSt","type":"Große_Kreisstadt"},"district":{"key":"09376","name":"Schwandorf","type":"Landkreis"},"federalState":{"key":"09","name":"Bayern"}},{"name":"Narzissenstr.","postalCode":"92421","locality":"Schwandorf","municipality":{"key":"09376161","name":"Schwandorf, GKSt","type":"Große_Kreisstadt"},"district":{"key":"09376","name":"Schwandorf","type":"Landkreis"},"federalState":{"key":"09","name":"Bayern"}},{"name":"Nattermooser Str.","postalCode":"92421","locality":"Schwandorf","municipality":{"key":"09376161","name":"Schwandorf, GKSt","type":"Große_Kreisstadt"},"district":{"key":"09376","name":"Schwandorf","type":"Landkreis"},"federalState":{"key":"09","name":"Bayern"}},{"name":"Nattermoosstr.","postalCode":"92421","locality":"Schwandorf","municipality":{"key":"09376161","name":"Schwandorf, GKSt","type":"Große_Kreisstadt"},"district":{"key":"09376","name":"Schwandorf","type":"Landkreis"},"federalState":{"key":"09","name":"Bayern"}},{"name":"Neißer Str.","postalCode":"92421","locality":"Schwandorf","municipality":{"key":"09376161","name":"Schwandorf, GKSt","type":"Große_Kreisstadt"},"district":{"key":"09376","name":"Schwandorf","type":"Landkreis"},"federalState":{"key":"09","name":"Bayern"}},{"name":"Nelkenstr.","postalCode":"92421","locality":"Schwandorf","municipality":{"key":"09376161","name":"Schwandorf, GKSt","type":"Große_Kreisstadt"},"district":{"key":"09376","name":"Schwandorf","type":"Landkreis"},"federalState":{"key":"09","name":"Bayern"}},{"name":"Neue Gasse","postalCode":"92421","locality":"Schwandorf","municipality":{"key":"09376161","name":"Schwandorf, GKSt","type":"Große_Kreisstadt"},"district":{"key":"09376","name":"Schwandorf","type":"Landkreis"},"federalState":{"key":"09","name":"Bayern"}},{"name":"Neumayrstr.","postalCode":"92421","locality":"Schwandorf","municipality":{"key":"09376161","name":"Schwandorf, GKSt","type":"Große_Kreisstadt"},"district":{"key":"09376","name":"Schwandorf","type":"Landkreis"},"federalState":{"key":"09","name":"Bayern"}},{"name":"Neuried","postalCode":"92421","locality":"Schwandorf","municipality":{"key":"09376161","name":"Schwandorf, GKSt","type":"Große_Kreisstadt"},"district":{"key":"09376","name":"Schwandorf","type":"Landkreis"},"federalState":{"key":"09","name":"Bayern"}},{"name":"Neurieder Str.","postalCode":"92421","locality":"Schwandorf","municipality":{"key":"09376161","name":"Schwandorf, GKSt","type":"Große_Kreisstadt"},"district":{"key":"09376","name":"Schwandorf","type":"Landkreis"},"federalState":{"key":"09","name":"Bayern"}},{"name":"Niederhofer Str.","postalCode":"92421","locality":"Schwandorf","municipality":{"key":"09376161","name":"Schwandorf, GKSt","type":"Große_Kreisstadt"},"district":{"key":"09376","name":"Schwandorf","type":"Landkreis"},"federalState":{"key":"09","name":"Bayern"}},{"name":"Nörthestr.","postalCode":"92421","locality":"Schwandorf","municipality":{"key":"09376161","name":"Schwandorf, GKSt","type":"Große_Kreisstadt"},"district":{"key":"09376","name":"Schwandorf","type":"Landkreis"},"federalState":{"key":"09","name":"Bayern"}},{"name":"Nürnberger Str.","postalCode":"92421","locality":"Schwandorf","municipality":{"key":"09376161","name":"Schwandorf, GKSt","type":"Große_Kreisstadt"},"district":{"key":"09376","name":"Schwandorf","type":"Landkreis"},"federalState":{"key":"09","name":"Bayern"}},{"name":"Nußbaumstr.","postalCode":"92421","locality":"Schwandorf","municipality":{"key":"09376161","name":"Schwandorf, GKSt","type":"Große_Kreisstadt"},"district":{"key":"09376","name":"Schwandorf","type":"Landkreis"},"federalState":{"key":"09","name":"Bayern"}},{"name":"Oberviechtacher Str.","postalCode":"92545","locality":"Niedermurach","municipality":{"key":"09376148","name":"Niedermurach","type":"Kreisangehörige_Gemeinde"},"district":{"key":"09376","name":"Schwandorf","type":"Landkreis"},"federalState":{"key":"09","name":"Bayern"}},{"name":"Ortenburgring","postalCode":"92545","locality":"Niedermurach","municipality":{"key":"09376148","name":"Niedermurach","type":"Kreisangehörige_Gemeinde"},"district":{"key":"09376","name":"Schwandorf","type":"Landkreis"},"federalState":{"key":"09","name":"Bayern"}},{"name":"Pertolzhofener Str.","postalCode":"92545","locality":"Niedermurach","municipality":{"key":"09376148","name":"Niedermurach","type":"Kreisangehörige_Gemeinde"},"district":{"key":"09376","name":"Schwandorf","type":"Landkreis"},"federalState":{"key":"09","name":"Bayern"}},{"name":"Quellweg","postalCode":"92421","locality":"Schwandorf","municipality":{"key":"09376161","name":"Schwandorf, GKSt","type":"Große_Kreisstadt"},"district":{"key":"09376","name":"Schwandorf","type":"Landkreis"},"federalState":{"key":"09","name":"Bayern"}},{"name":"Rottendorf","postalCode":"92545","locality":"Niedermurach","municipality":{"key":"09376148","name":"Niedermurach","type":"Kreisangehörige_Gemeinde"},"district":{"key":"09376","name":"Schwandorf","type":"Landkreis"},"federalState":{"key":"09","name":"Bayern"}},{"name":"Rottendorfer Str.","postalCode":"92545","locality":"Niedermurach","municipality":{"key":"09376148","name":"Niedermurach","type":"Kreisangehörige_Gemeinde"},"district":{"key":"09376","name":"Schwandorf","type":"Landkreis"},"federalState":{"key":"09","name":"Bayern"}},{"name":"Schulstr.","postalCode":"92545","locality":"Niedermurach","municipality":{"key":"09376148","name":"Niedermurach","type":"Kreisangehörige_Gemeinde"},"district":{"key":"09376","name":"Schwandorf","type":"Landkreis"},"federalState":{"key":"09","name":"Bayern"}},{"name":"Siedlungsstr.","postalCode":"92545","locality":"Niedermurach","municipality":{"key":"09376148","name":"Niedermurach","type":"Kreisangehörige_Gemeinde"},"district":{"key":"09376","name":"Schwandorf","type":"Landkreis"},"federalState":{"key":"09","name":"Bayern"}},{"name":"Talblick","postalCode":"92545","locality":"Niedermurach","municipality":{"key":"09376148","name":"Niedermurach","type":"Kreisangehörige_Gemeinde"},"district":{"key":"09376","name":"Schwandorf","type":"Landkreis"},"federalState":{"key":"09","name":"Bayern"}},{"name":"Teunzer Str.","postalCode":"92545","locality":"Niedermurach","municipality":{"key":"09376148","name":"Niedermurach","type":"Kreisangehörige_Gemeinde"},"district":{"key":"09376","name":"Schwandorf","type":"Landkreis"},"federalState":{"key":"09","name":"Bayern"}},{"name":"unsicher","postalCode":"92545","locality":"Niedermurach","municipality":{"key":"09376148","name":"Niedermurach","type":"Kreisangehörige_Gemeinde"},"district":{"key":"09376","name":"Schwandorf","type":"Landkreis"},"federalState":{"key":"09","name":"Bayern"}},{"name":"Voggendorf","postalCode":"92545","locality":"Niedermurach","municipality":{"key":"09376148","name":"Niedermurach","type":"Kreisangehörige_Gemeinde"},"district":{"key":"09376","name":"Schwandorf","type":"Landkreis"},"federalState":{"key":"09","name":"Bayern"}},{"name":"Wagnerner Str.","postalCode":"92545","locality":"Niedermurach","municipality":{"key":"09376148","name":"Niedermurach","type":"Kreisangehörige_Gemeinde"},"district":{"key":"09376","name":"Schwandorf","type":"Landkreis"},"federalState":{"key":"09","name":"Bayern"}},{"name":"Zankendorf","postalCode":"92545","locality":"Niedermurach","municipality":{"key":"09376148","name":"Niedermurach","type":"Kreisangehörige_Gemeinde"},"district":{"key":"09376","name":"Schwandorf","type":"Landkreis"},"federalState":{"key":"09","name":"Bayern"}},{"name":"Ziegelweg","postalCode":"92545","locality":"Niedermurach","municipality":{"key":"09376148","name":"Niedermurach","type":"Kreisangehörige_Gemeinde"},"district":{"key":"09376","name":"Schwandorf","type":"Landkreis"},"federalState":{"key":"09","name":"Bayern"}},]