[{"name":"Adolf-Kolping-Str.","postalCode":"96176","locality":"Pfarrweisach","municipality":{"key":"09674184","name":"Pfarrweisach","type":"Kreisangehörige_Gemeinde"},"district":{"key":"09674","name":"Haßberge","type":"Landkreis"},"federalState":{"key":"09","name":"Bayern"}},{"name":"Am Bauhof","postalCode":"96176","locality":"Pfarrweisach","municipality":{"key":"09674184","name":"Pfarrweisach","type":"Kreisangehörige_Gemeinde"},"district":{"key":"09674","name":"Haßberge","type":"Landkreis"},"federalState":{"key":"09","name":"Bayern"}},{"name":"Am Hang","postalCode":"96176","locality":"Pfarrweisach","municipality":{"key":"09674184","name":"Pfarrweisach","type":"Kreisangehörige_Gemeinde"},"district":{"key":"09674","name":"Haßberge","type":"Landkreis"},"federalState":{"key":"09","name":"Bayern"}},{"name":"Am Kayertal","postalCode":"96176","locality":"Pfarrweisach","municipality":{"key":"09674184","name":"Pfarrweisach","type":"Kreisangehörige_Gemeinde"},"district":{"key":"09674","name":"Haßberge","type":"Landkreis"},"federalState":{"key":"09","name":"Bayern"}},{"name":"Am Steiner Heid","postalCode":"96176","locality":"Pfarrweisach","municipality":{"key":"09674184","name":"Pfarrweisach","type":"Kreisangehörige_Gemeinde"},"district":{"key":"09674","name":"Haßberge","type":"Landkreis"},"federalState":{"key":"09","name":"Bayern"}},{"name":"Bahnhofstr.","postalCode":"96176","locality":"Pfarrweisach","municipality":{"key":"09674184","name":"Pfarrweisach","type":"Kreisangehörige_Gemeinde"},"district":{"key":"09674","name":"Haßberge","type":"Landkreis"},"federalState":{"key":"09","name":"Bayern"}},{"name":"Bergleite","postalCode":"96176","locality":"Pfarrweisach","municipality":{"key":"09674184","name":"Pfarrweisach","type":"Kreisangehörige_Gemeinde"},"district":{"key":"09674","name":"Haßberge","type":"Landkreis"},"federalState":{"key":"09","name":"Bayern"}},{"name":"Dr.-Klöpfel-Str.","postalCode":"96176","locality":"Pfarrweisach","municipality":{"key":"09674184","name":"Pfarrweisach","type":"Kreisangehörige_Gemeinde"},"district":{"key":"09674","name":"Haßberge","type":"Landkreis"},"federalState":{"key":"09","name":"Bayern"}},{"name":"Eberner Höhe","postalCode":"96176","locality":"Pfarrweisach","municipality":{"key":"09674184","name":"Pfarrweisach","type":"Kreisangehörige_Gemeinde"},"district":{"key":"09674","name":"Haßberge","type":"Landkreis"},"federalState":{"key":"09","name":"Bayern"}},{"name":"Ecke","postalCode":"96176","locality":"Pfarrweisach","municipality":{"key":"09674184","name":"Pfarrweisach","type":"Kreisangehörige_Gemeinde"},"district":{"key":"09674","name":"Haßberge","type":"Landkreis"},"federalState":{"key":"09","name":"Bayern"}},{"name":"Forstweg","postalCode":"96176","locality":"Pfarrweisach","municipality":{"key":"09674184","name":"Pfarrweisach","type":"Kreisangehörige_Gemeinde"},"district":{"key":"09674","name":"Haßberge","type":"Landkreis"},"federalState":{"key":"09","name":"Bayern"}},{"name":"Gustav-Fuchs-Str.","postalCode":"96176","locality":"Pfarrweisach","municipality":{"key":"09674184","name":"Pfarrweisach","type":"Kreisangehörige_Gemeinde"},"district":{"key":"09674","name":"Haßberge","type":"Landkreis"},"federalState":{"key":"09","name":"Bayern"}},{"name":"Hauptstr.","postalCode":"96176","locality":"Pfarrweisach","municipality":{"key":"09674184","name":"Pfarrweisach","type":"Kreisangehörige_Gemeinde"},"district":{"key":"09674","name":"Haßberge","type":"Landkreis"},"federalState":{"key":"09","name":"Bayern"}},{"name":"Im Spargelfeld","postalCode":"31626","locality":"Haßbergen","municipality":{"key":"03256011","name":"Haßbergen","type":"Kreisangehörige_Gemeinde"},"district":{"key":"03256","name":"Nienburg (Weser)","type":"Landkreis"},"federalState":{"key":"03","name":"Niedersachsen"}},{"name":"Im stillen Winkel","postalCode":"31626","locality":"Haßbergen","municipality":{"key":"03256011","name":"Haßbergen","type":"Kreisangehörige_Gemeinde"},"district":{"key":"03256","name":"Nienburg (Weser)","type":"Landkreis"},"federalState":{"key":"03","name":"Niedersachsen"}},{"name":"In der Weide","postalCode":"31626","locality":"Haßbergen","municipality":{"key":"03256011","name":"Haßbergen","type":"Kreisangehörige_Gemeinde"},"district":{"key":"03256","name":"Nienburg (Weser)","type":"Landkreis"},"federalState":{"key":"03","name":"Niedersachsen"}},{"name":"Karlsberg","postalCode":"96176","locality":"Pfarrweisach","municipality":{"key":"09674184","name":"Pfarrweisach","type":"Kreisangehörige_Gemeinde"},"district":{"key":"09674","name":"Haßberge","type":"Landkreis"},"federalState":{"key":"09","name":"Bayern"}},{"name":"Kellerstr.","postalCode":"96176","locality":"Pfarrweisach","municipality":{"key":"09674184","name":"Pfarrweisach","type":"Kreisangehörige_Gemeinde"},"district":{"key":"09674","name":"Haßberge","type":"Landkreis"},"federalState":{"key":"09","name":"Bayern"}},{"name":"Kirchplatz","postalCode":"96176","locality":"Pfarrweisach","municipality":{"key":"09674184","name":"Pfarrweisach","type":"Kreisangehörige_Gemeinde"},"district":{"key":"09674","name":"Haßberge","type":"Landkreis"},"federalState":{"key":"09","name":"Bayern"}},{"name":"Kleeberg","postalCode":"96176","locality":"Pfarrweisach","municipality":{"key":"09674184","name":"Pfarrweisach","type":"Kreisangehörige_Gemeinde"},"district":{"key":"09674","name":"Haßberge","type":"Landkreis"},"federalState":{"key":"09","name":"Bayern"}},{"name":"Lerchenweg","postalCode":"96176","locality":"Pfarrweisach","municipality":{"key":"09674184","name":"Pfarrweisach","type":"Kreisangehörige_Gemeinde"},"district":{"key":"09674","name":"Haßberge","type":"Landkreis"},"federalState":{"key":"09","name":"Bayern"}},{"name":"Mehlgrund","postalCode":"96176","locality":"Pfarrweisach","municipality":{"key":"09674184","name":"Pfarrweisach","type":"Kreisangehörige_Gemeinde"},"district":{"key":"09674","name":"Haßberge","type":"Landkreis"},"federalState":{"key":"09","name":"Bayern"}},{"name":"Mühlenweg","postalCode":"96176","locality":"Pfarrweisach","municipality":{"key":"09674184","name":"Pfarrweisach","type":"Kreisangehörige_Gemeinde"},"district":{"key":"09674","name":"Haßberge","type":"Landkreis"},"federalState":{"key":"09","name":"Bayern"}},{"name":"Pfarräcker","postalCode":"96176","locality":"Pfarrweisach","municipality":{"key":"09674184","name":"Pfarrweisach","type":"Kreisangehörige_Gemeinde"},"district":{"key":"09674","name":"Haßberge","type":"Landkreis"},"federalState":{"key":"09","name":"Bayern"}},{"name":"Pfarrgasse","postalCode":"96176","locality":"Pfarrweisach","municipality":{"key":"09674184","name":"Pfarrweisach","type":"Kreisangehörige_Gemeinde"},"district":{"key":"09674","name":"Haßberge","type":"Landkreis"},"federalState":{"key":"09","name":"Bayern"}},{"name":"Ringstr.","postalCode":"96176","locality":"Pfarrweisach","municipality":{"key":"09674184","name":"Pfarrweisach","type":"Kreisangehörige_Gemeinde"},"district":{"key":"09674","name":"Haßberge","type":"Landkreis"},"federalState":{"key":"09","name":"Bayern"}},{"name":"Sagenpfad","postalCode":"96176","locality":"Pfarrweisach","municipality":{"key":"09674184","name":"Pfarrweisach","type":"Kreisangehörige_Gemeinde"},"district":{"key":"09674","name":"Haßberge","type":"Landkreis"},"federalState":{"key":"09","name":"Bayern"}},{"name":"Salomonsberg","postalCode":"96176","locality":"Pfarrweisach","municipality":{"key":"09674184","name":"Pfarrweisach","type":"Kreisangehörige_Gemeinde"},"district":{"key":"09674","name":"Haßberge","type":"Landkreis"},"federalState":{"key":"09","name":"Bayern"}},{"name":"Schulstr.","postalCode":"96176","locality":"Pfarrweisach","municipality":{"key":"09674184","name":"Pfarrweisach","type":"Kreisangehörige_Gemeinde"},"district":{"key":"09674","name":"Haßberge","type":"Landkreis"},"federalState":{"key":"09","name":"Bayern"}},{"name":"Schützenstr.","postalCode":"96176","locality":"Pfarrweisach","municipality":{"key":"09674184","name":"Pfarrweisach","type":"Kreisangehörige_Gemeinde"},"district":{"key":"09674","name":"Haßberge","type":"Landkreis"},"federalState":{"key":"09","name":"Bayern"}},{"name":"Weserstr.","postalCode":"31626","locality":"Haßbergen","municipality":{"key":"03256011","name":"Haßbergen","type":"Kreisangehörige_Gemeinde"},"district":{"key":"03256","name":"Nienburg (Weser)","type":"Landkreis"},"federalState":{"key":"03","name":"Niedersachsen"}},{"name":"Wiesenweg","postalCode":"31626","locality":"Haßbergen","municipality":{"key":"03256011","name":"Haßbergen","type":"Kreisangehörige_Gemeinde"},"district":{"key":"03256","name":"Nienburg (Weser)","type":"Landkreis"},"federalState":{"key":"03","name":"Niedersachsen"}},{"name":"Ziegeleistr.","postalCode":"31626","locality":"Haßbergen","municipality":{"key":"03256011","name":"Haßbergen","type":"Kreisangehörige_Gemeinde"},"district":{"key":"03256","name":"Nienburg (Weser)","type":"Landkreis"},"federalState":{"key":"03","name":"Niedersachsen"}},{"name":"Zu den Moorkämpen","postalCode":"31626","locality":"Haßbergen","municipality":{"key":"03256011","name":"Haßbergen","type":"Kreisangehörige_Gemeinde"},"district":{"key":"03256","name":"Nienburg (Weser)","type":"Landkreis"},"federalState":{"key":"03","name":"Niedersachsen"}},{"name":"Zur Mehrzweckhalle","postalCode":"31626","locality":"Haßbergen","municipality":{"key":"03256011","name":"Haßbergen","type":"Kreisangehörige_Gemeinde"},"district":{"key":"03256","name":"Nienburg (Weser)","type":"Landkreis"},"federalState":{"key":"03","name":"Niedersachsen"}},]