[{"name":"Am Hohrech","postalCode":"66503","locality":"Dellfeld","municipality":{"key":"07340207","name":"Dellfeld","type":"Kreisangehörige_Gemeinde"},"district":{"key":"07340","name":"Südwestpfalz","type":"Landkreis"},"federalState":{"key":"07","name":"Rheinland-Pfalz"}},{"name":"Amselstr.","postalCode":"66503","locality":"Dellfeld","municipality":{"key":"07340207","name":"Dellfeld","type":"Kreisangehörige_Gemeinde"},"district":{"key":"07340","name":"Südwestpfalz","type":"Landkreis"},"federalState":{"key":"07","name":"Rheinland-Pfalz"}},{"name":"Aschbachstr.","postalCode":"66503","locality":"Dellfeld","municipality":{"key":"07340207","name":"Dellfeld","type":"Kreisangehörige_Gemeinde"},"district":{"key":"07340","name":"Südwestpfalz","type":"Landkreis"},"federalState":{"key":"07","name":"Rheinland-Pfalz"}},{"name":"Bahnhofstr.","postalCode":"66503","locality":"Dellfeld","municipality":{"key":"07340207","name":"Dellfeld","type":"Kreisangehörige_Gemeinde"},"district":{"key":"07340","name":"Südwestpfalz","type":"Landkreis"},"federalState":{"key":"07","name":"Rheinland-Pfalz"}},{"name":"Bergstr.","postalCode":"66503","locality":"Dellfeld","municipality":{"key":"07340207","name":"Dellfeld","type":"Kreisangehörige_Gemeinde"},"district":{"key":"07340","name":"Südwestpfalz","type":"Landkreis"},"federalState":{"key":"07","name":"Rheinland-Pfalz"}},{"name":"Birkenallee","postalCode":"66503","locality":"Dellfeld","municipality":{"key":"07340207","name":"Dellfeld","type":"Kreisangehörige_Gemeinde"},"district":{"key":"07340","name":"Südwestpfalz","type":"Landkreis"},"federalState":{"key":"07","name":"Rheinland-Pfalz"}},{"name":"Drosselstr.","postalCode":"66503","locality":"Dellfeld","municipality":{"key":"07340207","name":"Dellfeld","type":"Kreisangehörige_Gemeinde"},"district":{"key":"07340","name":"Südwestpfalz","type":"Landkreis"},"federalState":{"key":"07","name":"Rheinland-Pfalz"}},{"name":"Felsstr.","postalCode":"66503","locality":"Dellfeld","municipality":{"key":"07340207","name":"Dellfeld","type":"Kreisangehörige_Gemeinde"},"district":{"key":"07340","name":"Südwestpfalz","type":"Landkreis"},"federalState":{"key":"07","name":"Rheinland-Pfalz"}},{"name":"Finkenstr.","postalCode":"66503","locality":"Dellfeld","municipality":{"key":"07340207","name":"Dellfeld","type":"Kreisangehörige_Gemeinde"},"district":{"key":"07340","name":"Südwestpfalz","type":"Landkreis"},"federalState":{"key":"07","name":"Rheinland-Pfalz"}},{"name":"Flurstr.","postalCode":"66503","locality":"Dellfeld","municipality":{"key":"07340207","name":"Dellfeld","type":"Kreisangehörige_Gemeinde"},"district":{"key":"07340","name":"Südwestpfalz","type":"Landkreis"},"federalState":{"key":"07","name":"Rheinland-Pfalz"}},{"name":"Friedhofstr.","postalCode":"66503","locality":"Dellfeld","municipality":{"key":"07340207","name":"Dellfeld","type":"Kreisangehörige_Gemeinde"},"district":{"key":"07340","name":"Südwestpfalz","type":"Landkreis"},"federalState":{"key":"07","name":"Rheinland-Pfalz"}},{"name":"Fritz-Glahn-Str.","postalCode":"66503","locality":"Dellfeld","municipality":{"key":"07340207","name":"Dellfeld","type":"Kreisangehörige_Gemeinde"},"district":{"key":"07340","name":"Südwestpfalz","type":"Landkreis"},"federalState":{"key":"07","name":"Rheinland-Pfalz"}},{"name":"Hauptstr.","postalCode":"66503","locality":"Dellfeld","municipality":{"key":"07340207","name":"Dellfeld","type":"Kreisangehörige_Gemeinde"},"district":{"key":"07340","name":"Südwestpfalz","type":"Landkreis"},"federalState":{"key":"07","name":"Rheinland-Pfalz"}},{"name":"Hintergasse","postalCode":"66503","locality":"Dellfeld","municipality":{"key":"07340207","name":"Dellfeld","type":"Kreisangehörige_Gemeinde"},"district":{"key":"07340","name":"Südwestpfalz","type":"Landkreis"},"federalState":{"key":"07","name":"Rheinland-Pfalz"}},{"name":"Hubstr.","postalCode":"66503","locality":"Dellfeld","municipality":{"key":"07340207","name":"Dellfeld","type":"Kreisangehörige_Gemeinde"},"district":{"key":"07340","name":"Südwestpfalz","type":"Landkreis"},"federalState":{"key":"07","name":"Rheinland-Pfalz"}},{"name":"Jakob-Stock-Str.","postalCode":"66503","locality":"Dellfeld","municipality":{"key":"07340207","name":"Dellfeld","type":"Kreisangehörige_Gemeinde"},"district":{"key":"07340","name":"Südwestpfalz","type":"Landkreis"},"federalState":{"key":"07","name":"Rheinland-Pfalz"}},{"name":"Julius-Schnoeder-Str.","postalCode":"66503","locality":"Dellfeld","municipality":{"key":"07340207","name":"Dellfeld","type":"Kreisangehörige_Gemeinde"},"district":{"key":"07340","name":"Südwestpfalz","type":"Landkreis"},"federalState":{"key":"07","name":"Rheinland-Pfalz"}},{"name":"Kleinbachstr.","postalCode":"66503","locality":"Dellfeld","municipality":{"key":"07340207","name":"Dellfeld","type":"Kreisangehörige_Gemeinde"},"district":{"key":"07340","name":"Südwestpfalz","type":"Landkreis"},"federalState":{"key":"07","name":"Rheinland-Pfalz"}},{"name":"Lerchenstr.","postalCode":"66503","locality":"Dellfeld","municipality":{"key":"07340207","name":"Dellfeld","type":"Kreisangehörige_Gemeinde"},"district":{"key":"07340","name":"Südwestpfalz","type":"Landkreis"},"federalState":{"key":"07","name":"Rheinland-Pfalz"}},{"name":"Mittelgasse","postalCode":"66503","locality":"Dellfeld","municipality":{"key":"07340207","name":"Dellfeld","type":"Kreisangehörige_Gemeinde"},"district":{"key":"07340","name":"Südwestpfalz","type":"Landkreis"},"federalState":{"key":"07","name":"Rheinland-Pfalz"}},{"name":"Ringstr.","postalCode":"66503","locality":"Dellfeld","municipality":{"key":"07340207","name":"Dellfeld","type":"Kreisangehörige_Gemeinde"},"district":{"key":"07340","name":"Südwestpfalz","type":"Landkreis"},"federalState":{"key":"07","name":"Rheinland-Pfalz"}},{"name":"Schlauweg","postalCode":"66503","locality":"Dellfeld","municipality":{"key":"07340207","name":"Dellfeld","type":"Kreisangehörige_Gemeinde"},"district":{"key":"07340","name":"Südwestpfalz","type":"Landkreis"},"federalState":{"key":"07","name":"Rheinland-Pfalz"}},{"name":"Schulstr.","postalCode":"66503","locality":"Dellfeld","municipality":{"key":"07340207","name":"Dellfeld","type":"Kreisangehörige_Gemeinde"},"district":{"key":"07340","name":"Südwestpfalz","type":"Landkreis"},"federalState":{"key":"07","name":"Rheinland-Pfalz"}},{"name":"Stambacher Weg","postalCode":"66503","locality":"Dellfeld","municipality":{"key":"07340207","name":"Dellfeld","type":"Kreisangehörige_Gemeinde"},"district":{"key":"07340","name":"Südwestpfalz","type":"Landkreis"},"federalState":{"key":"07","name":"Rheinland-Pfalz"}},{"name":"Vordergasse","postalCode":"66503","locality":"Dellfeld","municipality":{"key":"07340207","name":"Dellfeld","type":"Kreisangehörige_Gemeinde"},"district":{"key":"07340","name":"Südwestpfalz","type":"Landkreis"},"federalState":{"key":"07","name":"Rheinland-Pfalz"}},{"name":"Wachetelstr.","postalCode":"66503","locality":"Dellfeld","municipality":{"key":"07340207","name":"Dellfeld","type":"Kreisangehörige_Gemeinde"},"district":{"key":"07340","name":"Südwestpfalz","type":"Landkreis"},"federalState":{"key":"07","name":"Rheinland-Pfalz"}},{"name":"Wachtelstr.","postalCode":"66503","locality":"Dellfeld","municipality":{"key":"07340207","name":"Dellfeld","type":"Kreisangehörige_Gemeinde"},"district":{"key":"07340","name":"Südwestpfalz","type":"Landkreis"},"federalState":{"key":"07","name":"Rheinland-Pfalz"}},{"name":"Weihersweg","postalCode":"66503","locality":"Dellfeld","municipality":{"key":"07340207","name":"Dellfeld","type":"Kreisangehörige_Gemeinde"},"district":{"key":"07340","name":"Südwestpfalz","type":"Landkreis"},"federalState":{"key":"07","name":"Rheinland-Pfalz"}},{"name":"Ziegelhütte","postalCode":"66503","locality":"Dellfeld","municipality":{"key":"07340207","name":"Dellfeld","type":"Kreisangehörige_Gemeinde"},"district":{"key":"07340","name":"Südwestpfalz","type":"Landkreis"},"federalState":{"key":"07","name":"Rheinland-Pfalz"}},{"name":"Zweibrückerstr.","postalCode":"66503","locality":"Dellfeld","municipality":{"key":"07340207","name":"Dellfeld","type":"Kreisangehörige_Gemeinde"},"district":{"key":"07340","name":"Südwestpfalz","type":"Landkreis"},"federalState":{"key":"07","name":"Rheinland-Pfalz"}},]