[{"name":"Allgäustr.","postalCode":"87496","locality":"Untrasried","municipality":{"key":"09777176","name":"Untrasried","type":"Kreisangehörige_Gemeinde"},"district":{"key":"09777","name":"Ostallgäu","type":"Landkreis"},"federalState":{"key":"09","name":"Bayern"}},{"name":"Am Freibad","postalCode":"87496","locality":"Untrasried","municipality":{"key":"09777176","name":"Untrasried","type":"Kreisangehörige_Gemeinde"},"district":{"key":"09777","name":"Ostallgäu","type":"Landkreis"},"federalState":{"key":"09","name":"Bayern"}},{"name":"Am Grünten","postalCode":"87496","locality":"Untrasried","municipality":{"key":"09777176","name":"Untrasried","type":"Kreisangehörige_Gemeinde"},"district":{"key":"09777","name":"Ostallgäu","type":"Landkreis"},"federalState":{"key":"09","name":"Bayern"}},{"name":"Am Kalvarienberg","postalCode":"87496","locality":"Untrasried","municipality":{"key":"09777176","name":"Untrasried","type":"Kreisangehörige_Gemeinde"},"district":{"key":"09777","name":"Ostallgäu","type":"Landkreis"},"federalState":{"key":"09","name":"Bayern"}},{"name":"Amselweg","postalCode":"87496","locality":"Untrasried","municipality":{"key":"09777176","name":"Untrasried","type":"Kreisangehörige_Gemeinde"},"district":{"key":"09777","name":"Ostallgäu","type":"Landkreis"},"federalState":{"key":"09","name":"Bayern"}},{"name":"Am Sonnenhang","postalCode":"87496","locality":"Untrasried","municipality":{"key":"09777176","name":"Untrasried","type":"Kreisangehörige_Gemeinde"},"district":{"key":"09777","name":"Ostallgäu","type":"Landkreis"},"federalState":{"key":"09","name":"Bayern"}},{"name":"Am Sportplatz","postalCode":"87496","locality":"Untrasried","municipality":{"key":"09777176","name":"Untrasried","type":"Kreisangehörige_Gemeinde"},"district":{"key":"09777","name":"Ostallgäu","type":"Landkreis"},"federalState":{"key":"09","name":"Bayern"}},{"name":"Bergstr.","postalCode":"87496","locality":"Untrasried","municipality":{"key":"09777176","name":"Untrasried","type":"Kreisangehörige_Gemeinde"},"district":{"key":"09777","name":"Ostallgäu","type":"Landkreis"},"federalState":{"key":"09","name":"Bayern"}},{"name":"Birkenweg","postalCode":"87496","locality":"Untrasried","municipality":{"key":"09777176","name":"Untrasried","type":"Kreisangehörige_Gemeinde"},"district":{"key":"09777","name":"Ostallgäu","type":"Landkreis"},"federalState":{"key":"09","name":"Bayern"}},{"name":"Buchweg","postalCode":"87496","locality":"Untrasried","municipality":{"key":"09777176","name":"Untrasried","type":"Kreisangehörige_Gemeinde"},"district":{"key":"09777","name":"Ostallgäu","type":"Landkreis"},"federalState":{"key":"09","name":"Bayern"}},{"name":"Bürgermeister-Hafner-Str.","postalCode":"87496","locality":"Untrasried","municipality":{"key":"09777176","name":"Untrasried","type":"Kreisangehörige_Gemeinde"},"district":{"key":"09777","name":"Ostallgäu","type":"Landkreis"},"federalState":{"key":"09","name":"Bayern"}},{"name":"Bürgermeister-Mayrhans-Str.","postalCode":"87496","locality":"Untrasried","municipality":{"key":"09777176","name":"Untrasried","type":"Kreisangehörige_Gemeinde"},"district":{"key":"09777","name":"Ostallgäu","type":"Landkreis"},"federalState":{"key":"09","name":"Bayern"}},{"name":"Dorfstr.","postalCode":"87496","locality":"Untrasried","municipality":{"key":"09777176","name":"Untrasried","type":"Kreisangehörige_Gemeinde"},"district":{"key":"09777","name":"Ostallgäu","type":"Landkreis"},"federalState":{"key":"09","name":"Bayern"}},{"name":"Frohnenberg","postalCode":"87496","locality":"Untrasried","municipality":{"key":"09777176","name":"Untrasried","type":"Kreisangehörige_Gemeinde"},"district":{"key":"09777","name":"Ostallgäu","type":"Landkreis"},"federalState":{"key":"09","name":"Bayern"}},{"name":"Hauptstr.","postalCode":"87496","locality":"Untrasried","municipality":{"key":"09777176","name":"Untrasried","type":"Kreisangehörige_Gemeinde"},"district":{"key":"09777","name":"Ostallgäu","type":"Landkreis"},"federalState":{"key":"09","name":"Bayern"}},{"name":"Höhenweg","postalCode":"87496","locality":"Untrasried","municipality":{"key":"09777176","name":"Untrasried","type":"Kreisangehörige_Gemeinde"},"district":{"key":"09777","name":"Ostallgäu","type":"Landkreis"},"federalState":{"key":"09","name":"Bayern"}},{"name":"Im Mittelösch","postalCode":"87496","locality":"Untrasried","municipality":{"key":"09777176","name":"Untrasried","type":"Kreisangehörige_Gemeinde"},"district":{"key":"09777","name":"Ostallgäu","type":"Landkreis"},"federalState":{"key":"09","name":"Bayern"}},{"name":"Im Schlattes","postalCode":"87496","locality":"Untrasried","municipality":{"key":"09777176","name":"Untrasried","type":"Kreisangehörige_Gemeinde"},"district":{"key":"09777","name":"Ostallgäu","type":"Landkreis"},"federalState":{"key":"09","name":"Bayern"}},{"name":"Kastanienweg","postalCode":"87496","locality":"Untrasried","municipality":{"key":"09777176","name":"Untrasried","type":"Kreisangehörige_Gemeinde"},"district":{"key":"09777","name":"Ostallgäu","type":"Landkreis"},"federalState":{"key":"09","name":"Bayern"}},{"name":"Kemptener Str.","postalCode":"87496","locality":"Untrasried","municipality":{"key":"09777176","name":"Untrasried","type":"Kreisangehörige_Gemeinde"},"district":{"key":"09777","name":"Ostallgäu","type":"Landkreis"},"federalState":{"key":"09","name":"Bayern"}},{"name":"Maxengäßle","postalCode":"87496","locality":"Untrasried","municipality":{"key":"09777176","name":"Untrasried","type":"Kreisangehörige_Gemeinde"},"district":{"key":"09777","name":"Ostallgäu","type":"Landkreis"},"federalState":{"key":"09","name":"Bayern"}},{"name":"Niederwang","postalCode":"87496","locality":"Untrasried","municipality":{"key":"09777176","name":"Untrasried","type":"Kreisangehörige_Gemeinde"},"district":{"key":"09777","name":"Ostallgäu","type":"Landkreis"},"federalState":{"key":"09","name":"Bayern"}},{"name":"Osterwalder Str.","postalCode":"87496","locality":"Untrasried","municipality":{"key":"09777176","name":"Untrasried","type":"Kreisangehörige_Gemeinde"},"district":{"key":"09777","name":"Ostallgäu","type":"Landkreis"},"federalState":{"key":"09","name":"Bayern"}},{"name":"Pfarrgasse","postalCode":"87496","locality":"Untrasried","municipality":{"key":"09777176","name":"Untrasried","type":"Kreisangehörige_Gemeinde"},"district":{"key":"09777","name":"Ostallgäu","type":"Landkreis"},"federalState":{"key":"09","name":"Bayern"}},{"name":"Raiffeisenweg","postalCode":"87496","locality":"Untrasried","municipality":{"key":"09777176","name":"Untrasried","type":"Kreisangehörige_Gemeinde"},"district":{"key":"09777","name":"Ostallgäu","type":"Landkreis"},"federalState":{"key":"09","name":"Bayern"}},{"name":"Riedleweg","postalCode":"87496","locality":"Untrasried","municipality":{"key":"09777176","name":"Untrasried","type":"Kreisangehörige_Gemeinde"},"district":{"key":"09777","name":"Ostallgäu","type":"Landkreis"},"federalState":{"key":"09","name":"Bayern"}},{"name":"Schulweg","postalCode":"87496","locality":"Untrasried","municipality":{"key":"09777176","name":"Untrasried","type":"Kreisangehörige_Gemeinde"},"district":{"key":"09777","name":"Ostallgäu","type":"Landkreis"},"federalState":{"key":"09","name":"Bayern"}},{"name":"Sohlerweg","postalCode":"87496","locality":"Untrasried","municipality":{"key":"09777176","name":"Untrasried","type":"Kreisangehörige_Gemeinde"},"district":{"key":"09777","name":"Ostallgäu","type":"Landkreis"},"federalState":{"key":"09","name":"Bayern"}},{"name":"Weihermühleweg","postalCode":"87496","locality":"Untrasried","municipality":{"key":"09777176","name":"Untrasried","type":"Kreisangehörige_Gemeinde"},"district":{"key":"09777","name":"Ostallgäu","type":"Landkreis"},"federalState":{"key":"09","name":"Bayern"}},{"name":"Wiesenweg","postalCode":"87496","locality":"Untrasried","municipality":{"key":"09777176","name":"Untrasried","type":"Kreisangehörige_Gemeinde"},"district":{"key":"09777","name":"Ostallgäu","type":"Landkreis"},"federalState":{"key":"09","name":"Bayern"}},{"name":"Zunftweg","postalCode":"87496","locality":"Untrasried","municipality":{"key":"09777176","name":"Untrasried","type":"Kreisangehörige_Gemeinde"},"district":{"key":"09777","name":"Ostallgäu","type":"Landkreis"},"federalState":{"key":"09","name":"Bayern"}},]