[{"name":"Adalbert-Färber-Str.","postalCode":"72469","locality":"Meßstetten","municipality":{"key":"08417044","name":"Meßstetten, Stadt","type":"Stadt"},"district":{"key":"08417","name":"Zollernalbkreis","type":"Landkreis"},"federalState":{"key":"08","name":"Baden-Württemberg"}},{"name":"Adolf-Groz-Str.","postalCode":"72469","locality":"Meßstetten","municipality":{"key":"08417044","name":"Meßstetten, Stadt","type":"Stadt"},"district":{"key":"08417","name":"Zollernalbkreis","type":"Landkreis"},"federalState":{"key":"08","name":"Baden-Württemberg"}},{"name":"Ahornstr.","postalCode":"72469","locality":"Meßstetten","municipality":{"key":"08417044","name":"Meßstetten, Stadt","type":"Stadt"},"district":{"key":"08417","name":"Zollernalbkreis","type":"Landkreis"},"federalState":{"key":"08","name":"Baden-Württemberg"}},{"name":"Albrechtstr.","postalCode":"72469","locality":"Meßstetten","municipality":{"key":"08417044","name":"Meßstetten, Stadt","type":"Stadt"},"district":{"key":"08417","name":"Zollernalbkreis","type":"Landkreis"},"federalState":{"key":"08","name":"Baden-Württemberg"}},{"name":"Albstr.","postalCode":"72469","locality":"Meßstetten","municipality":{"key":"08417044","name":"Meßstetten, Stadt","type":"Stadt"},"district":{"key":"08417","name":"Zollernalbkreis","type":"Landkreis"},"federalState":{"key":"08","name":"Baden-Württemberg"}},{"name":"Alemannenstr.","postalCode":"72469","locality":"Meßstetten","municipality":{"key":"08417044","name":"Meßstetten, Stadt","type":"Stadt"},"district":{"key":"08417","name":"Zollernalbkreis","type":"Landkreis"},"federalState":{"key":"08","name":"Baden-Württemberg"}},{"name":"Alte Auchten","postalCode":"72469","locality":"Meßstetten","municipality":{"key":"08417044","name":"Meßstetten, Stadt","type":"Stadt"},"district":{"key":"08417","name":"Zollernalbkreis","type":"Landkreis"},"federalState":{"key":"08","name":"Baden-Württemberg"}},{"name":"Alter Hauweg","postalCode":"72469","locality":"Meßstetten","municipality":{"key":"08417044","name":"Meßstetten, Stadt","type":"Stadt"},"district":{"key":"08417","name":"Zollernalbkreis","type":"Landkreis"},"federalState":{"key":"08","name":"Baden-Württemberg"}},{"name":"Am Berg","postalCode":"72469","locality":"Meßstetten","municipality":{"key":"08417044","name":"Meßstetten, Stadt","type":"Stadt"},"district":{"key":"08417","name":"Zollernalbkreis","type":"Landkreis"},"federalState":{"key":"08","name":"Baden-Württemberg"}},{"name":"Am Brunnen","postalCode":"72469","locality":"Meßstetten","municipality":{"key":"08417044","name":"Meßstetten, Stadt","type":"Stadt"},"district":{"key":"08417","name":"Zollernalbkreis","type":"Landkreis"},"federalState":{"key":"08","name":"Baden-Württemberg"}},{"name":"Am Hartheimer Weg","postalCode":"72469","locality":"Meßstetten","municipality":{"key":"08417044","name":"Meßstetten, Stadt","type":"Stadt"},"district":{"key":"08417","name":"Zollernalbkreis","type":"Landkreis"},"federalState":{"key":"08","name":"Baden-Württemberg"}},{"name":"Am Hasenbrunnen","postalCode":"72469","locality":"Meßstetten","municipality":{"key":"08417044","name":"Meßstetten, Stadt","type":"Stadt"},"district":{"key":"08417","name":"Zollernalbkreis","type":"Landkreis"},"federalState":{"key":"08","name":"Baden-Württemberg"}},{"name":"Am Mühlkanal","postalCode":"72469","locality":"Meßstetten","municipality":{"key":"08417044","name":"Meßstetten, Stadt","type":"Stadt"},"district":{"key":"08417","name":"Zollernalbkreis","type":"Landkreis"},"federalState":{"key":"08","name":"Baden-Württemberg"}},{"name":"Am Ödertal","postalCode":"72469","locality":"Meßstetten","municipality":{"key":"08417044","name":"Meßstetten, Stadt","type":"Stadt"},"district":{"key":"08417","name":"Zollernalbkreis","type":"Landkreis"},"federalState":{"key":"08","name":"Baden-Württemberg"}},{"name":"Am Rain","postalCode":"72469","locality":"Meßstetten","municipality":{"key":"08417044","name":"Meßstetten, Stadt","type":"Stadt"},"district":{"key":"08417","name":"Zollernalbkreis","type":"Landkreis"},"federalState":{"key":"08","name":"Baden-Württemberg"}},{"name":"Am Rauhen Bühl","postalCode":"72469","locality":"Meßstetten","municipality":{"key":"08417044","name":"Meßstetten, Stadt","type":"Stadt"},"district":{"key":"08417","name":"Zollernalbkreis","type":"Landkreis"},"federalState":{"key":"08","name":"Baden-Württemberg"}},{"name":"Am Ringenstall","postalCode":"72469","locality":"Meßstetten","municipality":{"key":"08417044","name":"Meßstetten, Stadt","type":"Stadt"},"district":{"key":"08417","name":"Zollernalbkreis","type":"Landkreis"},"federalState":{"key":"08","name":"Baden-Württemberg"}},{"name":"Am Scheibenbühl","postalCode":"72469","locality":"Meßstetten","municipality":{"key":"08417044","name":"Meßstetten, Stadt","type":"Stadt"},"district":{"key":"08417","name":"Zollernalbkreis","type":"Landkreis"},"federalState":{"key":"08","name":"Baden-Württemberg"}},{"name":"Am Schlössle","postalCode":"72469","locality":"Meßstetten","municipality":{"key":"08417044","name":"Meßstetten, Stadt","type":"Stadt"},"district":{"key":"08417","name":"Zollernalbkreis","type":"Landkreis"},"federalState":{"key":"08","name":"Baden-Württemberg"}},{"name":"Amselweg","postalCode":"72469","locality":"Meßstetten","municipality":{"key":"08417044","name":"Meßstetten, Stadt","type":"Stadt"},"district":{"key":"08417","name":"Zollernalbkreis","type":"Landkreis"},"federalState":{"key":"08","name":"Baden-Württemberg"}},{"name":"Am Sickersberg","postalCode":"72469","locality":"Meßstetten","municipality":{"key":"08417044","name":"Meßstetten, Stadt","type":"Stadt"},"district":{"key":"08417","name":"Zollernalbkreis","type":"Landkreis"},"federalState":{"key":"08","name":"Baden-Württemberg"}},{"name":"Am Südhang","postalCode":"72469","locality":"Meßstetten","municipality":{"key":"08417044","name":"Meßstetten, Stadt","type":"Stadt"},"district":{"key":"08417","name":"Zollernalbkreis","type":"Landkreis"},"federalState":{"key":"08","name":"Baden-Württemberg"}},{"name":"Am Täle","postalCode":"72469","locality":"Meßstetten","municipality":{"key":"08417044","name":"Meßstetten, Stadt","type":"Stadt"},"district":{"key":"08417","name":"Zollernalbkreis","type":"Landkreis"},"federalState":{"key":"08","name":"Baden-Württemberg"}},{"name":"Am Weichenwang","postalCode":"72469","locality":"Meßstetten","municipality":{"key":"08417044","name":"Meßstetten, Stadt","type":"Stadt"},"district":{"key":"08417","name":"Zollernalbkreis","type":"Landkreis"},"federalState":{"key":"08","name":"Baden-Württemberg"}},{"name":"An der Bittenhalde","postalCode":"72469","locality":"Meßstetten","municipality":{"key":"08417044","name":"Meßstetten, Stadt","type":"Stadt"},"district":{"key":"08417","name":"Zollernalbkreis","type":"Landkreis"},"federalState":{"key":"08","name":"Baden-Württemberg"}},{"name":"An der Halde","postalCode":"72469","locality":"Meßstetten","municipality":{"key":"08417044","name":"Meßstetten, Stadt","type":"Stadt"},"district":{"key":"08417","name":"Zollernalbkreis","type":"Landkreis"},"federalState":{"key":"08","name":"Baden-Württemberg"}},{"name":"An der Seite","postalCode":"72469","locality":"Meßstetten","municipality":{"key":"08417044","name":"Meßstetten, Stadt","type":"Stadt"},"district":{"key":"08417","name":"Zollernalbkreis","type":"Landkreis"},"federalState":{"key":"08","name":"Baden-Württemberg"}},{"name":"Andertal","postalCode":"72469","locality":"Meßstetten","municipality":{"key":"08417044","name":"Meßstetten, Stadt","type":"Stadt"},"district":{"key":"08417","name":"Zollernalbkreis","type":"Landkreis"},"federalState":{"key":"08","name":"Baden-Württemberg"}},{"name":"Appentalstr.","postalCode":"72469","locality":"Meßstetten","municipality":{"key":"08417044","name":"Meßstetten, Stadt","type":"Stadt"},"district":{"key":"08417","name":"Zollernalbkreis","type":"Landkreis"},"federalState":{"key":"08","name":"Baden-Württemberg"}},{"name":"Artlishalde","postalCode":"72469","locality":"Meßstetten","municipality":{"key":"08417044","name":"Meßstetten, Stadt","type":"Stadt"},"district":{"key":"08417","name":"Zollernalbkreis","type":"Landkreis"},"federalState":{"key":"08","name":"Baden-Württemberg"}},{"name":"Auf Breiten","postalCode":"72469","locality":"Meßstetten","municipality":{"key":"08417044","name":"Meßstetten, Stadt","type":"Stadt"},"district":{"key":"08417","name":"Zollernalbkreis","type":"Landkreis"},"federalState":{"key":"08","name":"Baden-Württemberg"}},{"name":"Auf dem Lau","postalCode":"72469","locality":"Meßstetten","municipality":{"key":"08417044","name":"Meßstetten, Stadt","type":"Stadt"},"district":{"key":"08417","name":"Zollernalbkreis","type":"Landkreis"},"federalState":{"key":"08","name":"Baden-Württemberg"}},{"name":"Auf Steinen","postalCode":"72469","locality":"Meßstetten","municipality":{"key":"08417044","name":"Meßstetten, Stadt","type":"Stadt"},"district":{"key":"08417","name":"Zollernalbkreis","type":"Landkreis"},"federalState":{"key":"08","name":"Baden-Württemberg"}},{"name":"Auf Strangen","postalCode":"72469","locality":"Meßstetten","municipality":{"key":"08417044","name":"Meßstetten, Stadt","type":"Stadt"},"district":{"key":"08417","name":"Zollernalbkreis","type":"Landkreis"},"federalState":{"key":"08","name":"Baden-Württemberg"}},{"name":"Auf Wyhlen","postalCode":"72469","locality":"Meßstetten","municipality":{"key":"08417044","name":"Meßstetten, Stadt","type":"Stadt"},"district":{"key":"08417","name":"Zollernalbkreis","type":"Landkreis"},"federalState":{"key":"08","name":"Baden-Württemberg"}},{"name":"Bachstr.","postalCode":"72469","locality":"Meßstetten","municipality":{"key":"08417044","name":"Meßstetten, Stadt","type":"Stadt"},"district":{"key":"08417","name":"Zollernalbkreis","type":"Landkreis"},"federalState":{"key":"08","name":"Baden-Württemberg"}},{"name":"Baienbergweg","postalCode":"72469","locality":"Meßstetten","municipality":{"key":"08417044","name":"Meßstetten, Stadt","type":"Stadt"},"district":{"key":"08417","name":"Zollernalbkreis","type":"Landkreis"},"federalState":{"key":"08","name":"Baden-Württemberg"}},{"name":"Balinger Str.","postalCode":"72469","locality":"Meßstetten","municipality":{"key":"08417044","name":"Meßstetten, Stadt","type":"Stadt"},"district":{"key":"08417","name":"Zollernalbkreis","type":"Landkreis"},"federalState":{"key":"08","name":"Baden-Württemberg"}},{"name":"Bärastr.","postalCode":"72469","locality":"Meßstetten","municipality":{"key":"08417044","name":"Meßstetten, Stadt","type":"Stadt"},"district":{"key":"08417","name":"Zollernalbkreis","type":"Landkreis"},"federalState":{"key":"08","name":"Baden-Württemberg"}},{"name":"Bei den Linden","postalCode":"72469","locality":"Meßstetten","municipality":{"key":"08417044","name":"Meßstetten, Stadt","type":"Stadt"},"district":{"key":"08417","name":"Zollernalbkreis","type":"Landkreis"},"federalState":{"key":"08","name":"Baden-Württemberg"}},{"name":"Bergsteige","postalCode":"72469","locality":"Meßstetten","municipality":{"key":"08417044","name":"Meßstetten, Stadt","type":"Stadt"},"district":{"key":"08417","name":"Zollernalbkreis","type":"Landkreis"},"federalState":{"key":"08","name":"Baden-Württemberg"}},{"name":"Bergstr.","postalCode":"72469","locality":"Meßstetten","municipality":{"key":"08417044","name":"Meßstetten, Stadt","type":"Stadt"},"district":{"key":"08417","name":"Zollernalbkreis","type":"Landkreis"},"federalState":{"key":"08","name":"Baden-Württemberg"}},{"name":"Biesstr.","postalCode":"72469","locality":"Meßstetten","municipality":{"key":"08417044","name":"Meßstetten, Stadt","type":"Stadt"},"district":{"key":"08417","name":"Zollernalbkreis","type":"Landkreis"},"federalState":{"key":"08","name":"Baden-Württemberg"}},{"name":"Birkenstr.","postalCode":"72469","locality":"Meßstetten","municipality":{"key":"08417044","name":"Meßstetten, Stadt","type":"Stadt"},"district":{"key":"08417","name":"Zollernalbkreis","type":"Landkreis"},"federalState":{"key":"08","name":"Baden-Württemberg"}},{"name":"Blumenstr.","postalCode":"72469","locality":"Meßstetten","municipality":{"key":"08417044","name":"Meßstetten, Stadt","type":"Stadt"},"district":{"key":"08417","name":"Zollernalbkreis","type":"Landkreis"},"federalState":{"key":"08","name":"Baden-Württemberg"}},{"name":"Blumersbergstr.","postalCode":"72469","locality":"Meßstetten","municipality":{"key":"08417044","name":"Meßstetten, Stadt","type":"Stadt"},"district":{"key":"08417","name":"Zollernalbkreis","type":"Landkreis"},"federalState":{"key":"08","name":"Baden-Württemberg"}},{"name":"Bögle","postalCode":"72469","locality":"Meßstetten","municipality":{"key":"08417044","name":"Meßstetten, Stadt","type":"Stadt"},"district":{"key":"08417","name":"Zollernalbkreis","type":"Landkreis"},"federalState":{"key":"08","name":"Baden-Württemberg"}},{"name":"Böglestr.","postalCode":"72469","locality":"Meßstetten","municipality":{"key":"08417044","name":"Meßstetten, Stadt","type":"Stadt"},"district":{"key":"08417","name":"Zollernalbkreis","type":"Landkreis"},"federalState":{"key":"08","name":"Baden-Württemberg"}},{"name":"Bolgasse","postalCode":"72469","locality":"Meßstetten","municipality":{"key":"08417044","name":"Meßstetten, Stadt","type":"Stadt"},"district":{"key":"08417","name":"Zollernalbkreis","type":"Landkreis"},"federalState":{"key":"08","name":"Baden-Württemberg"}},{"name":"Breitenstr.","postalCode":"72469","locality":"Meßstetten","municipality":{"key":"08417044","name":"Meßstetten, Stadt","type":"Stadt"},"district":{"key":"08417","name":"Zollernalbkreis","type":"Landkreis"},"federalState":{"key":"08","name":"Baden-Württemberg"}},{"name":"Breslauer Str.","postalCode":"72469","locality":"Meßstetten","municipality":{"key":"08417044","name":"Meßstetten, Stadt","type":"Stadt"},"district":{"key":"08417","name":"Zollernalbkreis","type":"Landkreis"},"federalState":{"key":"08","name":"Baden-Württemberg"}},{"name":"Brückenstr.","postalCode":"72469","locality":"Meßstetten","municipality":{"key":"08417044","name":"Meßstetten, Stadt","type":"Stadt"},"district":{"key":"08417","name":"Zollernalbkreis","type":"Landkreis"},"federalState":{"key":"08","name":"Baden-Württemberg"}},{"name":"Brühl","postalCode":"72469","locality":"Meßstetten","municipality":{"key":"08417044","name":"Meßstetten, Stadt","type":"Stadt"},"district":{"key":"08417","name":"Zollernalbkreis","type":"Landkreis"},"federalState":{"key":"08","name":"Baden-Württemberg"}},{"name":"Brühlgäßle","postalCode":"72469","locality":"Meßstetten","municipality":{"key":"08417044","name":"Meßstetten, Stadt","type":"Stadt"},"district":{"key":"08417","name":"Zollernalbkreis","type":"Landkreis"},"federalState":{"key":"08","name":"Baden-Württemberg"}},{"name":"Brühlstr.","postalCode":"72469","locality":"Meßstetten","municipality":{"key":"08417044","name":"Meßstetten, Stadt","type":"Stadt"},"district":{"key":"08417","name":"Zollernalbkreis","type":"Landkreis"},"federalState":{"key":"08","name":"Baden-Württemberg"}},{"name":"Brunnenstr.","postalCode":"72469","locality":"Meßstetten","municipality":{"key":"08417044","name":"Meßstetten, Stadt","type":"Stadt"},"district":{"key":"08417","name":"Zollernalbkreis","type":"Landkreis"},"federalState":{"key":"08","name":"Baden-Württemberg"}},{"name":"Brunnenwiesen","postalCode":"72469","locality":"Meßstetten","municipality":{"key":"08417044","name":"Meßstetten, Stadt","type":"Stadt"},"district":{"key":"08417","name":"Zollernalbkreis","type":"Landkreis"},"federalState":{"key":"08","name":"Baden-Württemberg"}},{"name":"Buchen","postalCode":"72469","locality":"Meßstetten","municipality":{"key":"08417044","name":"Meßstetten, Stadt","type":"Stadt"},"district":{"key":"08417","name":"Zollernalbkreis","type":"Landkreis"},"federalState":{"key":"08","name":"Baden-Württemberg"}},{"name":"Buchkrautweg","postalCode":"72469","locality":"Meßstetten","municipality":{"key":"08417044","name":"Meßstetten, Stadt","type":"Stadt"},"district":{"key":"08417","name":"Zollernalbkreis","type":"Landkreis"},"federalState":{"key":"08","name":"Baden-Württemberg"}},{"name":"Buchstr.","postalCode":"72469","locality":"Meßstetten","municipality":{"key":"08417044","name":"Meßstetten, Stadt","type":"Stadt"},"district":{"key":"08417","name":"Zollernalbkreis","type":"Landkreis"},"federalState":{"key":"08","name":"Baden-Württemberg"}},{"name":"Bühlstr.","postalCode":"72469","locality":"Meßstetten","municipality":{"key":"08417044","name":"Meßstetten, Stadt","type":"Stadt"},"district":{"key":"08417","name":"Zollernalbkreis","type":"Landkreis"},"federalState":{"key":"08","name":"Baden-Württemberg"}},{"name":"Burg","postalCode":"72469","locality":"Meßstetten","municipality":{"key":"08417044","name":"Meßstetten, Stadt","type":"Stadt"},"district":{"key":"08417","name":"Zollernalbkreis","type":"Landkreis"},"federalState":{"key":"08","name":"Baden-Württemberg"}},{"name":"Burgsteige","postalCode":"72469","locality":"Meßstetten","municipality":{"key":"08417044","name":"Meßstetten, Stadt","type":"Stadt"},"district":{"key":"08417","name":"Zollernalbkreis","type":"Landkreis"},"federalState":{"key":"08","name":"Baden-Württemberg"}},{"name":"Burtelstr.","postalCode":"72469","locality":"Meßstetten","municipality":{"key":"08417044","name":"Meßstetten, Stadt","type":"Stadt"},"district":{"key":"08417","name":"Zollernalbkreis","type":"Landkreis"},"federalState":{"key":"08","name":"Baden-Württemberg"}},{"name":"Carl-Benz-Str.","postalCode":"72469","locality":"Meßstetten","municipality":{"key":"08417044","name":"Meßstetten, Stadt","type":"Stadt"},"district":{"key":"08417","name":"Zollernalbkreis","type":"Landkreis"},"federalState":{"key":"08","name":"Baden-Württemberg"}},{"name":"Chemnitzer Str.","postalCode":"72469","locality":"Meßstetten","municipality":{"key":"08417044","name":"Meßstetten, Stadt","type":"Stadt"},"district":{"key":"08417","name":"Zollernalbkreis","type":"Landkreis"},"federalState":{"key":"08","name":"Baden-Württemberg"}},{"name":"Dachsbauweg","postalCode":"72469","locality":"Meßstetten","municipality":{"key":"08417044","name":"Meßstetten, Stadt","type":"Stadt"},"district":{"key":"08417","name":"Zollernalbkreis","type":"Landkreis"},"federalState":{"key":"08","name":"Baden-Württemberg"}},{"name":"Danziger Str.","postalCode":"72469","locality":"Meßstetten","municipality":{"key":"08417044","name":"Meßstetten, Stadt","type":"Stadt"},"district":{"key":"08417","name":"Zollernalbkreis","type":"Landkreis"},"federalState":{"key":"08","name":"Baden-Württemberg"}},{"name":"Donautalstr.","postalCode":"72469","locality":"Meßstetten","municipality":{"key":"08417044","name":"Meßstetten, Stadt","type":"Stadt"},"district":{"key":"08417","name":"Zollernalbkreis","type":"Landkreis"},"federalState":{"key":"08","name":"Baden-Württemberg"}},{"name":"Dorfplatz","postalCode":"72469","locality":"Meßstetten","municipality":{"key":"08417044","name":"Meßstetten, Stadt","type":"Stadt"},"district":{"key":"08417","name":"Zollernalbkreis","type":"Landkreis"},"federalState":{"key":"08","name":"Baden-Württemberg"}},{"name":"Dorfstr.","postalCode":"72469","locality":"Meßstetten","municipality":{"key":"08417044","name":"Meßstetten, Stadt","type":"Stadt"},"district":{"key":"08417","name":"Zollernalbkreis","type":"Landkreis"},"federalState":{"key":"08","name":"Baden-Württemberg"}},{"name":"Drosselweg","postalCode":"72469","locality":"Meßstetten","municipality":{"key":"08417044","name":"Meßstetten, Stadt","type":"Stadt"},"district":{"key":"08417","name":"Zollernalbkreis","type":"Landkreis"},"federalState":{"key":"08","name":"Baden-Württemberg"}},{"name":"Ebinger Str.","postalCode":"72469","locality":"Meßstetten","municipality":{"key":"08417044","name":"Meßstetten, Stadt","type":"Stadt"},"district":{"key":"08417","name":"Zollernalbkreis","type":"Landkreis"},"federalState":{"key":"08","name":"Baden-Württemberg"}},{"name":"Eckenbergstr.","postalCode":"72469","locality":"Meßstetten","municipality":{"key":"08417044","name":"Meßstetten, Stadt","type":"Stadt"},"district":{"key":"08417","name":"Zollernalbkreis","type":"Landkreis"},"federalState":{"key":"08","name":"Baden-Württemberg"}},{"name":"Eduard-Mörike-Weg","postalCode":"72469","locality":"Meßstetten","municipality":{"key":"08417044","name":"Meßstetten, Stadt","type":"Stadt"},"district":{"key":"08417","name":"Zollernalbkreis","type":"Landkreis"},"federalState":{"key":"08","name":"Baden-Württemberg"}},{"name":"Eichenstr.","postalCode":"72469","locality":"Meßstetten","municipality":{"key":"08417044","name":"Meßstetten, Stadt","type":"Stadt"},"district":{"key":"08417","name":"Zollernalbkreis","type":"Landkreis"},"federalState":{"key":"08","name":"Baden-Württemberg"}},{"name":"Eichhalde","postalCode":"72469","locality":"Meßstetten","municipality":{"key":"08417044","name":"Meßstetten, Stadt","type":"Stadt"},"district":{"key":"08417","name":"Zollernalbkreis","type":"Landkreis"},"federalState":{"key":"08","name":"Baden-Württemberg"}},{"name":"Ellenstr.","postalCode":"72469","locality":"Meßstetten","municipality":{"key":"08417044","name":"Meßstetten, Stadt","type":"Stadt"},"district":{"key":"08417","name":"Zollernalbkreis","type":"Landkreis"},"federalState":{"key":"08","name":"Baden-Württemberg"}},{"name":"Engeweg","postalCode":"72469","locality":"Meßstetten","municipality":{"key":"08417044","name":"Meßstetten, Stadt","type":"Stadt"},"district":{"key":"08417","name":"Zollernalbkreis","type":"Landkreis"},"federalState":{"key":"08","name":"Baden-Württemberg"}},{"name":"Enzianstr.","postalCode":"72469","locality":"Meßstetten","municipality":{"key":"08417044","name":"Meßstetten, Stadt","type":"Stadt"},"district":{"key":"08417","name":"Zollernalbkreis","type":"Landkreis"},"federalState":{"key":"08","name":"Baden-Württemberg"}},{"name":"Erlenstr.","postalCode":"72469","locality":"Meßstetten","municipality":{"key":"08417044","name":"Meßstetten, Stadt","type":"Stadt"},"district":{"key":"08417","name":"Zollernalbkreis","type":"Landkreis"},"federalState":{"key":"08","name":"Baden-Württemberg"}},{"name":"Eugenstr.","postalCode":"72469","locality":"Meßstetten","municipality":{"key":"08417044","name":"Meßstetten, Stadt","type":"Stadt"},"district":{"key":"08417","name":"Zollernalbkreis","type":"Landkreis"},"federalState":{"key":"08","name":"Baden-Württemberg"}},{"name":"Eugenwegle","postalCode":"72469","locality":"Meßstetten","municipality":{"key":"08417044","name":"Meßstetten, Stadt","type":"Stadt"},"district":{"key":"08417","name":"Zollernalbkreis","type":"Landkreis"},"federalState":{"key":"08","name":"Baden-Württemberg"}},{"name":"Eyachtalstr.","postalCode":"72469","locality":"Meßstetten","municipality":{"key":"08417044","name":"Meßstetten, Stadt","type":"Stadt"},"district":{"key":"08417","name":"Zollernalbkreis","type":"Landkreis"},"federalState":{"key":"08","name":"Baden-Württemberg"}},{"name":"Felseleweg","postalCode":"72469","locality":"Meßstetten","municipality":{"key":"08417044","name":"Meßstetten, Stadt","type":"Stadt"},"district":{"key":"08417","name":"Zollernalbkreis","type":"Landkreis"},"federalState":{"key":"08","name":"Baden-Württemberg"}},{"name":"Ferdinand-Steinbeis-Str.","postalCode":"72469","locality":"Meßstetten","municipality":{"key":"08417044","name":"Meßstetten, Stadt","type":"Stadt"},"district":{"key":"08417","name":"Zollernalbkreis","type":"Landkreis"},"federalState":{"key":"08","name":"Baden-Württemberg"}},{"name":"Fichtenstr.","postalCode":"72469","locality":"Meßstetten","municipality":{"key":"08417044","name":"Meßstetten, Stadt","type":"Stadt"},"district":{"key":"08417","name":"Zollernalbkreis","type":"Landkreis"},"federalState":{"key":"08","name":"Baden-Württemberg"}},{"name":"Finkenweg","postalCode":"72469","locality":"Meßstetten","municipality":{"key":"08417044","name":"Meßstetten, Stadt","type":"Stadt"},"district":{"key":"08417","name":"Zollernalbkreis","type":"Landkreis"},"federalState":{"key":"08","name":"Baden-Württemberg"}},{"name":"Fliederstr.","postalCode":"72469","locality":"Meßstetten","municipality":{"key":"08417044","name":"Meßstetten, Stadt","type":"Stadt"},"district":{"key":"08417","name":"Zollernalbkreis","type":"Landkreis"},"federalState":{"key":"08","name":"Baden-Württemberg"}},{"name":"Forstweg","postalCode":"72469","locality":"Meßstetten","municipality":{"key":"08417044","name":"Meßstetten, Stadt","type":"Stadt"},"district":{"key":"08417","name":"Zollernalbkreis","type":"Landkreis"},"federalState":{"key":"08","name":"Baden-Württemberg"}},{"name":"Freihofstr.","postalCode":"72469","locality":"Meßstetten","municipality":{"key":"08417044","name":"Meßstetten, Stadt","type":"Stadt"},"district":{"key":"08417","name":"Zollernalbkreis","type":"Landkreis"},"federalState":{"key":"08","name":"Baden-Württemberg"}},{"name":"Friedhofstr.","postalCode":"72469","locality":"Meßstetten","municipality":{"key":"08417044","name":"Meßstetten, Stadt","type":"Stadt"},"district":{"key":"08417","name":"Zollernalbkreis","type":"Landkreis"},"federalState":{"key":"08","name":"Baden-Württemberg"}},{"name":"Friedrich-Hölderlin-Weg","postalCode":"72469","locality":"Meßstetten","municipality":{"key":"08417044","name":"Meßstetten, Stadt","type":"Stadt"},"district":{"key":"08417","name":"Zollernalbkreis","type":"Landkreis"},"federalState":{"key":"08","name":"Baden-Württemberg"}},{"name":"Friedrich-List-Str.","postalCode":"72469","locality":"Meßstetten","municipality":{"key":"08417044","name":"Meßstetten, Stadt","type":"Stadt"},"district":{"key":"08417","name":"Zollernalbkreis","type":"Landkreis"},"federalState":{"key":"08","name":"Baden-Württemberg"}},{"name":"Friedrich-Schiller-Str.","postalCode":"72469","locality":"Meßstetten","municipality":{"key":"08417044","name":"Meßstetten, Stadt","type":"Stadt"},"district":{"key":"08417","name":"Zollernalbkreis","type":"Landkreis"},"federalState":{"key":"08","name":"Baden-Württemberg"}},{"name":"Friedrich-Silcher-Str.","postalCode":"72469","locality":"Meßstetten","municipality":{"key":"08417044","name":"Meßstetten, Stadt","type":"Stadt"},"district":{"key":"08417","name":"Zollernalbkreis","type":"Landkreis"},"federalState":{"key":"08","name":"Baden-Württemberg"}},{"name":"Friedrichstr.","postalCode":"72469","locality":"Meßstetten","municipality":{"key":"08417044","name":"Meßstetten, Stadt","type":"Stadt"},"district":{"key":"08417","name":"Zollernalbkreis","type":"Landkreis"},"federalState":{"key":"08","name":"Baden-Württemberg"}},{"name":"Friedrich-Wilhelm-Raiffeisen-Str.","postalCode":"72469","locality":"Meßstetten","municipality":{"key":"08417044","name":"Meßstetten, Stadt","type":"Stadt"},"district":{"key":"08417","name":"Zollernalbkreis","type":"Landkreis"},"federalState":{"key":"08","name":"Baden-Württemberg"}},{"name":"Fritz-Bodmer-Weg","postalCode":"72469","locality":"Meßstetten","municipality":{"key":"08417044","name":"Meßstetten, Stadt","type":"Stadt"},"district":{"key":"08417","name":"Zollernalbkreis","type":"Landkreis"},"federalState":{"key":"08","name":"Baden-Württemberg"}},{"name":"Fürholzerstr.","postalCode":"72469","locality":"Meßstetten","municipality":{"key":"08417044","name":"Meßstetten, Stadt","type":"Stadt"},"district":{"key":"08417","name":"Zollernalbkreis","type":"Landkreis"},"federalState":{"key":"08","name":"Baden-Württemberg"}},{"name":"Gartenstr.","postalCode":"72469","locality":"Meßstetten","municipality":{"key":"08417044","name":"Meßstetten, Stadt","type":"Stadt"},"district":{"key":"08417","name":"Zollernalbkreis","type":"Landkreis"},"federalState":{"key":"08","name":"Baden-Württemberg"}},{"name":"Georgstr.","postalCode":"72469","locality":"Meßstetten","municipality":{"key":"08417044","name":"Meßstetten, Stadt","type":"Stadt"},"district":{"key":"08417","name":"Zollernalbkreis","type":"Landkreis"},"federalState":{"key":"08","name":"Baden-Württemberg"}},{"name":"German-Götz-Str.","postalCode":"72469","locality":"Meßstetten","municipality":{"key":"08417044","name":"Meßstetten, Stadt","type":"Stadt"},"district":{"key":"08417","name":"Zollernalbkreis","type":"Landkreis"},"federalState":{"key":"08","name":"Baden-Württemberg"}},{"name":"Geyerbad","postalCode":"72469","locality":"Meßstetten","municipality":{"key":"08417044","name":"Meßstetten, Stadt","type":"Stadt"},"district":{"key":"08417","name":"Zollernalbkreis","type":"Landkreis"},"federalState":{"key":"08","name":"Baden-Württemberg"}},{"name":"Gleiwitzer Str.","postalCode":"72469","locality":"Meßstetten","municipality":{"key":"08417044","name":"Meßstetten, Stadt","type":"Stadt"},"district":{"key":"08417","name":"Zollernalbkreis","type":"Landkreis"},"federalState":{"key":"08","name":"Baden-Württemberg"}},{"name":"Goethestr.","postalCode":"72469","locality":"Meßstetten","municipality":{"key":"08417044","name":"Meßstetten, Stadt","type":"Stadt"},"district":{"key":"08417","name":"Zollernalbkreis","type":"Landkreis"},"federalState":{"key":"08","name":"Baden-Württemberg"}},{"name":"Gottlieb-Daimler-Str.","postalCode":"72469","locality":"Meßstetten","municipality":{"key":"08417044","name":"Meßstetten, Stadt","type":"Stadt"},"district":{"key":"08417","name":"Zollernalbkreis","type":"Landkreis"},"federalState":{"key":"08","name":"Baden-Württemberg"}},{"name":"Gräbelesbergweg","postalCode":"72469","locality":"Meßstetten","municipality":{"key":"08417044","name":"Meßstetten, Stadt","type":"Stadt"},"district":{"key":"08417","name":"Zollernalbkreis","type":"Landkreis"},"federalState":{"key":"08","name":"Baden-Württemberg"}},{"name":"Grenzweg","postalCode":"72469","locality":"Meßstetten","municipality":{"key":"08417044","name":"Meßstetten, Stadt","type":"Stadt"},"district":{"key":"08417","name":"Zollernalbkreis","type":"Landkreis"},"federalState":{"key":"08","name":"Baden-Württemberg"}},{"name":"Grundstr.","postalCode":"72469","locality":"Meßstetten","municipality":{"key":"08417044","name":"Meßstetten, Stadt","type":"Stadt"},"district":{"key":"08417","name":"Zollernalbkreis","type":"Landkreis"},"federalState":{"key":"08","name":"Baden-Württemberg"}},{"name":"Gustav-Schwab-Str.","postalCode":"72469","locality":"Meßstetten","municipality":{"key":"08417044","name":"Meßstetten, Stadt","type":"Stadt"},"district":{"key":"08417","name":"Zollernalbkreis","type":"Landkreis"},"federalState":{"key":"08","name":"Baden-Württemberg"}},{"name":"Haldenstr.","postalCode":"72469","locality":"Meßstetten","municipality":{"key":"08417044","name":"Meßstetten, Stadt","type":"Stadt"},"district":{"key":"08417","name":"Zollernalbkreis","type":"Landkreis"},"federalState":{"key":"08","name":"Baden-Württemberg"}},{"name":"Hangergasse","postalCode":"72469","locality":"Meßstetten","municipality":{"key":"08417044","name":"Meßstetten, Stadt","type":"Stadt"},"district":{"key":"08417","name":"Zollernalbkreis","type":"Landkreis"},"federalState":{"key":"08","name":"Baden-Württemberg"}},{"name":"Harrgart","postalCode":"72469","locality":"Meßstetten","municipality":{"key":"08417044","name":"Meßstetten, Stadt","type":"Stadt"},"district":{"key":"08417","name":"Zollernalbkreis","type":"Landkreis"},"federalState":{"key":"08","name":"Baden-Württemberg"}},{"name":"Hartheimer Str.","postalCode":"72469","locality":"Meßstetten","municipality":{"key":"08417044","name":"Meßstetten, Stadt","type":"Stadt"},"district":{"key":"08417","name":"Zollernalbkreis","type":"Landkreis"},"federalState":{"key":"08","name":"Baden-Württemberg"}},{"name":"Haselsteige","postalCode":"72469","locality":"Meßstetten","municipality":{"key":"08417044","name":"Meßstetten, Stadt","type":"Stadt"},"district":{"key":"08417","name":"Zollernalbkreis","type":"Landkreis"},"federalState":{"key":"08","name":"Baden-Württemberg"}},{"name":"Hasenweg","postalCode":"72469","locality":"Meßstetten","municipality":{"key":"08417044","name":"Meßstetten, Stadt","type":"Stadt"},"district":{"key":"08417","name":"Zollernalbkreis","type":"Landkreis"},"federalState":{"key":"08","name":"Baden-Württemberg"}},{"name":"Hauptstr.","postalCode":"72469","locality":"Meßstetten","municipality":{"key":"08417044","name":"Meßstetten, Stadt","type":"Stadt"},"district":{"key":"08417","name":"Zollernalbkreis","type":"Landkreis"},"federalState":{"key":"08","name":"Baden-Württemberg"}},{"name":"Hausener Str.","postalCode":"72469","locality":"Meßstetten","municipality":{"key":"08417044","name":"Meßstetten, Stadt","type":"Stadt"},"district":{"key":"08417","name":"Zollernalbkreis","type":"Landkreis"},"federalState":{"key":"08","name":"Baden-Württemberg"}},{"name":"Heersbergstr.","postalCode":"72469","locality":"Meßstetten","municipality":{"key":"08417044","name":"Meßstetten, Stadt","type":"Stadt"},"district":{"key":"08417","name":"Zollernalbkreis","type":"Landkreis"},"federalState":{"key":"08","name":"Baden-Württemberg"}},{"name":"Heimbergstr.","postalCode":"72469","locality":"Meßstetten","municipality":{"key":"08417044","name":"Meßstetten, Stadt","type":"Stadt"},"district":{"key":"08417","name":"Zollernalbkreis","type":"Landkreis"},"federalState":{"key":"08","name":"Baden-Württemberg"}},{"name":"Heinrich-Heine-Str.","postalCode":"72469","locality":"Meßstetten","municipality":{"key":"08417044","name":"Meßstetten, Stadt","type":"Stadt"},"district":{"key":"08417","name":"Zollernalbkreis","type":"Landkreis"},"federalState":{"key":"08","name":"Baden-Württemberg"}},{"name":"Heinstetter Str.","postalCode":"72469","locality":"Meßstetten","municipality":{"key":"08417044","name":"Meßstetten, Stadt","type":"Stadt"},"district":{"key":"08417","name":"Zollernalbkreis","type":"Landkreis"},"federalState":{"key":"08","name":"Baden-Württemberg"}},{"name":"Hermann-Hesse-Str.","postalCode":"72469","locality":"Meßstetten","municipality":{"key":"08417044","name":"Meßstetten, Stadt","type":"Stadt"},"district":{"key":"08417","name":"Zollernalbkreis","type":"Landkreis"},"federalState":{"key":"08","name":"Baden-Württemberg"}},{"name":"Heselweg","postalCode":"72469","locality":"Meßstetten","municipality":{"key":"08417044","name":"Meßstetten, Stadt","type":"Stadt"},"district":{"key":"08417","name":"Zollernalbkreis","type":"Landkreis"},"federalState":{"key":"08","name":"Baden-Württemberg"}},{"name":"Heubergstr.","postalCode":"72469","locality":"Meßstetten","municipality":{"key":"08417044","name":"Meßstetten, Stadt","type":"Stadt"},"district":{"key":"08417","name":"Zollernalbkreis","type":"Landkreis"},"federalState":{"key":"08","name":"Baden-Württemberg"}},{"name":"Hindenburgstr.","postalCode":"72469","locality":"Meßstetten","municipality":{"key":"08417044","name":"Meßstetten, Stadt","type":"Stadt"},"district":{"key":"08417","name":"Zollernalbkreis","type":"Landkreis"},"federalState":{"key":"08","name":"Baden-Württemberg"}},{"name":"Hinter Brunnen","postalCode":"72469","locality":"Meßstetten","municipality":{"key":"08417044","name":"Meßstetten, Stadt","type":"Stadt"},"district":{"key":"08417","name":"Zollernalbkreis","type":"Landkreis"},"federalState":{"key":"08","name":"Baden-Württemberg"}},{"name":"Hinter Burg","postalCode":"72469","locality":"Meßstetten","municipality":{"key":"08417044","name":"Meßstetten, Stadt","type":"Stadt"},"district":{"key":"08417","name":"Zollernalbkreis","type":"Landkreis"},"federalState":{"key":"08","name":"Baden-Württemberg"}},{"name":"Hintere Gasse","postalCode":"72469","locality":"Meßstetten","municipality":{"key":"08417044","name":"Meßstetten, Stadt","type":"Stadt"},"district":{"key":"08417","name":"Zollernalbkreis","type":"Landkreis"},"federalState":{"key":"08","name":"Baden-Württemberg"}},{"name":"Hintere Lehr","postalCode":"72469","locality":"Meßstetten","municipality":{"key":"08417044","name":"Meßstetten, Stadt","type":"Stadt"},"district":{"key":"08417","name":"Zollernalbkreis","type":"Landkreis"},"federalState":{"key":"08","name":"Baden-Württemberg"}},{"name":"Hinterwiese","postalCode":"72469","locality":"Meßstetten","municipality":{"key":"08417044","name":"Meßstetten, Stadt","type":"Stadt"},"district":{"key":"08417","name":"Zollernalbkreis","type":"Landkreis"},"federalState":{"key":"08","name":"Baden-Württemberg"}},{"name":"Hirtenweg","postalCode":"72469","locality":"Meßstetten","municipality":{"key":"08417044","name":"Meßstetten, Stadt","type":"Stadt"},"district":{"key":"08417","name":"Zollernalbkreis","type":"Landkreis"},"federalState":{"key":"08","name":"Baden-Württemberg"}},{"name":"Hochalbpfad","postalCode":"72469","locality":"Meßstetten","municipality":{"key":"08417044","name":"Meßstetten, Stadt","type":"Stadt"},"district":{"key":"08417","name":"Zollernalbkreis","type":"Landkreis"},"federalState":{"key":"08","name":"Baden-Württemberg"}},{"name":"Hofenstr.","postalCode":"72469","locality":"Meßstetten","municipality":{"key":"08417044","name":"Meßstetten, Stadt","type":"Stadt"},"district":{"key":"08417","name":"Zollernalbkreis","type":"Landkreis"},"federalState":{"key":"08","name":"Baden-Württemberg"}},{"name":"Hohenbergstr.","postalCode":"72469","locality":"Meßstetten","municipality":{"key":"08417044","name":"Meßstetten, Stadt","type":"Stadt"},"district":{"key":"08417","name":"Zollernalbkreis","type":"Landkreis"},"federalState":{"key":"08","name":"Baden-Württemberg"}},{"name":"Höhenweg","postalCode":"72469","locality":"Meßstetten","municipality":{"key":"08417044","name":"Meßstetten, Stadt","type":"Stadt"},"district":{"key":"08417","name":"Zollernalbkreis","type":"Landkreis"},"federalState":{"key":"08","name":"Baden-Württemberg"}},{"name":"Hohlgasse","postalCode":"72469","locality":"Meßstetten","municipality":{"key":"08417044","name":"Meßstetten, Stadt","type":"Stadt"},"district":{"key":"08417","name":"Zollernalbkreis","type":"Landkreis"},"federalState":{"key":"08","name":"Baden-Württemberg"}},{"name":"Hohlweg","postalCode":"72469","locality":"Meßstetten","municipality":{"key":"08417044","name":"Meßstetten, Stadt","type":"Stadt"},"district":{"key":"08417","name":"Zollernalbkreis","type":"Landkreis"},"federalState":{"key":"08","name":"Baden-Württemberg"}},{"name":"Hohnerstr.","postalCode":"72469","locality":"Meßstetten","municipality":{"key":"08417044","name":"Meßstetten, Stadt","type":"Stadt"},"district":{"key":"08417","name":"Zollernalbkreis","type":"Landkreis"},"federalState":{"key":"08","name":"Baden-Württemberg"}},{"name":"Holderstr.","postalCode":"72469","locality":"Meßstetten","municipality":{"key":"08417044","name":"Meßstetten, Stadt","type":"Stadt"},"district":{"key":"08417","name":"Zollernalbkreis","type":"Landkreis"},"federalState":{"key":"08","name":"Baden-Württemberg"}},{"name":"Hörnlestr.","postalCode":"72469","locality":"Meßstetten","municipality":{"key":"08417044","name":"Meßstetten, Stadt","type":"Stadt"},"district":{"key":"08417","name":"Zollernalbkreis","type":"Landkreis"},"federalState":{"key":"08","name":"Baden-Württemberg"}},{"name":"Hossinger Str.","postalCode":"72469","locality":"Meßstetten","municipality":{"key":"08417044","name":"Meßstetten, Stadt","type":"Stadt"},"district":{"key":"08417","name":"Zollernalbkreis","type":"Landkreis"},"federalState":{"key":"08","name":"Baden-Württemberg"}},{"name":"Hülbgässle","postalCode":"72469","locality":"Meßstetten","municipality":{"key":"08417044","name":"Meßstetten, Stadt","type":"Stadt"},"district":{"key":"08417","name":"Zollernalbkreis","type":"Landkreis"},"federalState":{"key":"08","name":"Baden-Württemberg"}},{"name":"Im Grund","postalCode":"72469","locality":"Meßstetten","municipality":{"key":"08417044","name":"Meßstetten, Stadt","type":"Stadt"},"district":{"key":"08417","name":"Zollernalbkreis","type":"Landkreis"},"federalState":{"key":"08","name":"Baden-Württemberg"}},{"name":"Im Hof","postalCode":"72469","locality":"Meßstetten","municipality":{"key":"08417044","name":"Meßstetten, Stadt","type":"Stadt"},"district":{"key":"08417","name":"Zollernalbkreis","type":"Landkreis"},"federalState":{"key":"08","name":"Baden-Württemberg"}},{"name":"Im Kleegarten","postalCode":"72469","locality":"Meßstetten","municipality":{"key":"08417044","name":"Meßstetten, Stadt","type":"Stadt"},"district":{"key":"08417","name":"Zollernalbkreis","type":"Landkreis"},"federalState":{"key":"08","name":"Baden-Württemberg"}},{"name":"Im Krautgärtle","postalCode":"72469","locality":"Meßstetten","municipality":{"key":"08417044","name":"Meßstetten, Stadt","type":"Stadt"},"district":{"key":"08417","name":"Zollernalbkreis","type":"Landkreis"},"federalState":{"key":"08","name":"Baden-Württemberg"}},{"name":"Im Oberdorf","postalCode":"72469","locality":"Meßstetten","municipality":{"key":"08417044","name":"Meßstetten, Stadt","type":"Stadt"},"district":{"key":"08417","name":"Zollernalbkreis","type":"Landkreis"},"federalState":{"key":"08","name":"Baden-Württemberg"}},{"name":"In der Breite","postalCode":"72469","locality":"Meßstetten","municipality":{"key":"08417044","name":"Meßstetten, Stadt","type":"Stadt"},"district":{"key":"08417","name":"Zollernalbkreis","type":"Landkreis"},"federalState":{"key":"08","name":"Baden-Württemberg"}},{"name":"Jägerstr.","postalCode":"72469","locality":"Meßstetten","municipality":{"key":"08417044","name":"Meßstetten, Stadt","type":"Stadt"},"district":{"key":"08417","name":"Zollernalbkreis","type":"Landkreis"},"federalState":{"key":"08","name":"Baden-Württemberg"}},{"name":"Jahnstr.","postalCode":"72469","locality":"Meßstetten","municipality":{"key":"08417044","name":"Meßstetten, Stadt","type":"Stadt"},"district":{"key":"08417","name":"Zollernalbkreis","type":"Landkreis"},"federalState":{"key":"08","name":"Baden-Württemberg"}},{"name":"Johannesstr.","postalCode":"72469","locality":"Meßstetten","municipality":{"key":"08417044","name":"Meßstetten, Stadt","type":"Stadt"},"district":{"key":"08417","name":"Zollernalbkreis","type":"Landkreis"},"federalState":{"key":"08","name":"Baden-Württemberg"}},{"name":"Jurastr.","postalCode":"72469","locality":"Meßstetten","municipality":{"key":"08417044","name":"Meßstetten, Stadt","type":"Stadt"},"district":{"key":"08417","name":"Zollernalbkreis","type":"Landkreis"},"federalState":{"key":"08","name":"Baden-Württemberg"}},{"name":"Justinus-Kerner-Str.","postalCode":"72469","locality":"Meßstetten","municipality":{"key":"08417044","name":"Meßstetten, Stadt","type":"Stadt"},"district":{"key":"08417","name":"Zollernalbkreis","type":"Landkreis"},"federalState":{"key":"08","name":"Baden-Württemberg"}},{"name":"Kapellstr.","postalCode":"72469","locality":"Meßstetten","municipality":{"key":"08417044","name":"Meßstetten, Stadt","type":"Stadt"},"district":{"key":"08417","name":"Zollernalbkreis","type":"Landkreis"},"federalState":{"key":"08","name":"Baden-Württemberg"}},{"name":"Kapfstr.","postalCode":"72469","locality":"Meßstetten","municipality":{"key":"08417044","name":"Meßstetten, Stadt","type":"Stadt"},"district":{"key":"08417","name":"Zollernalbkreis","type":"Landkreis"},"federalState":{"key":"08","name":"Baden-Württemberg"}},{"name":"Karl-Bohnenberger-Str.","postalCode":"72469","locality":"Meßstetten","municipality":{"key":"08417044","name":"Meßstetten, Stadt","type":"Stadt"},"district":{"key":"08417","name":"Zollernalbkreis","type":"Landkreis"},"federalState":{"key":"08","name":"Baden-Württemberg"}},{"name":"Karlstr.","postalCode":"72469","locality":"Meßstetten","municipality":{"key":"08417044","name":"Meßstetten, Stadt","type":"Stadt"},"district":{"key":"08417","name":"Zollernalbkreis","type":"Landkreis"},"federalState":{"key":"08","name":"Baden-Württemberg"}},{"name":"Katzensteig","postalCode":"72469","locality":"Meßstetten","municipality":{"key":"08417044","name":"Meßstetten, Stadt","type":"Stadt"},"district":{"key":"08417","name":"Zollernalbkreis","type":"Landkreis"},"federalState":{"key":"08","name":"Baden-Württemberg"}},{"name":"Katzensteige","postalCode":"72469","locality":"Meßstetten","municipality":{"key":"08417044","name":"Meßstetten, Stadt","type":"Stadt"},"district":{"key":"08417","name":"Zollernalbkreis","type":"Landkreis"},"federalState":{"key":"08","name":"Baden-Württemberg"}},{"name":"Kehlenstr.","postalCode":"72469","locality":"Meßstetten","municipality":{"key":"08417044","name":"Meßstetten, Stadt","type":"Stadt"},"district":{"key":"08417","name":"Zollernalbkreis","type":"Landkreis"},"federalState":{"key":"08","name":"Baden-Württemberg"}},{"name":"Keltenstr.","postalCode":"72469","locality":"Meßstetten","municipality":{"key":"08417044","name":"Meßstetten, Stadt","type":"Stadt"},"district":{"key":"08417","name":"Zollernalbkreis","type":"Landkreis"},"federalState":{"key":"08","name":"Baden-Württemberg"}},{"name":"Kirchgässle","postalCode":"72469","locality":"Meßstetten","municipality":{"key":"08417044","name":"Meßstetten, Stadt","type":"Stadt"},"district":{"key":"08417","name":"Zollernalbkreis","type":"Landkreis"},"federalState":{"key":"08","name":"Baden-Württemberg"}},{"name":"Kirchhalde","postalCode":"72469","locality":"Meßstetten","municipality":{"key":"08417044","name":"Meßstetten, Stadt","type":"Stadt"},"district":{"key":"08417","name":"Zollernalbkreis","type":"Landkreis"},"federalState":{"key":"08","name":"Baden-Württemberg"}},{"name":"Kirchstr.","postalCode":"72469","locality":"Meßstetten","municipality":{"key":"08417044","name":"Meßstetten, Stadt","type":"Stadt"},"district":{"key":"08417","name":"Zollernalbkreis","type":"Landkreis"},"federalState":{"key":"08","name":"Baden-Württemberg"}},{"name":"Kohlraisleweg","postalCode":"72469","locality":"Meßstetten","municipality":{"key":"08417044","name":"Meßstetten, Stadt","type":"Stadt"},"district":{"key":"08417","name":"Zollernalbkreis","type":"Landkreis"},"federalState":{"key":"08","name":"Baden-Württemberg"}},{"name":"Königsberger Str.","postalCode":"72469","locality":"Meßstetten","municipality":{"key":"08417044","name":"Meßstetten, Stadt","type":"Stadt"},"district":{"key":"08417","name":"Zollernalbkreis","type":"Landkreis"},"federalState":{"key":"08","name":"Baden-Württemberg"}},{"name":"Konradstr.","postalCode":"72469","locality":"Meßstetten","municipality":{"key":"08417044","name":"Meßstetten, Stadt","type":"Stadt"},"district":{"key":"08417","name":"Zollernalbkreis","type":"Landkreis"},"federalState":{"key":"08","name":"Baden-Württemberg"}},{"name":"Kreuzbühlstr.","postalCode":"72469","locality":"Meßstetten","municipality":{"key":"08417044","name":"Meßstetten, Stadt","type":"Stadt"},"district":{"key":"08417","name":"Zollernalbkreis","type":"Landkreis"},"federalState":{"key":"08","name":"Baden-Württemberg"}},{"name":"Kriegäckerstr.","postalCode":"72469","locality":"Meßstetten","municipality":{"key":"08417044","name":"Meßstetten, Stadt","type":"Stadt"},"district":{"key":"08417","name":"Zollernalbkreis","type":"Landkreis"},"federalState":{"key":"08","name":"Baden-Württemberg"}},{"name":"Kurzensteige","postalCode":"72469","locality":"Meßstetten","municipality":{"key":"08417044","name":"Meßstetten, Stadt","type":"Stadt"},"district":{"key":"08417","name":"Zollernalbkreis","type":"Landkreis"},"federalState":{"key":"08","name":"Baden-Württemberg"}},{"name":"Kurze Str.","postalCode":"72469","locality":"Meßstetten","municipality":{"key":"08417044","name":"Meßstetten, Stadt","type":"Stadt"},"district":{"key":"08417","name":"Zollernalbkreis","type":"Landkreis"},"federalState":{"key":"08","name":"Baden-Württemberg"}},{"name":"Lammweg","postalCode":"72469","locality":"Meßstetten","municipality":{"key":"08417044","name":"Meßstetten, Stadt","type":"Stadt"},"district":{"key":"08417","name":"Zollernalbkreis","type":"Landkreis"},"federalState":{"key":"08","name":"Baden-Württemberg"}},{"name":"Landhausstr.","postalCode":"72469","locality":"Meßstetten","municipality":{"key":"08417044","name":"Meßstetten, Stadt","type":"Stadt"},"district":{"key":"08417","name":"Zollernalbkreis","type":"Landkreis"},"federalState":{"key":"08","name":"Baden-Württemberg"}},{"name":"Laubenbergstr.","postalCode":"72469","locality":"Meßstetten","municipality":{"key":"08417044","name":"Meßstetten, Stadt","type":"Stadt"},"district":{"key":"08417","name":"Zollernalbkreis","type":"Landkreis"},"federalState":{"key":"08","name":"Baden-Württemberg"}},{"name":"Lauenstr.","postalCode":"72469","locality":"Meßstetten","municipality":{"key":"08417044","name":"Meßstetten, Stadt","type":"Stadt"},"district":{"key":"08417","name":"Zollernalbkreis","type":"Landkreis"},"federalState":{"key":"08","name":"Baden-Württemberg"}},{"name":"Laufener Weg","postalCode":"72469","locality":"Meßstetten","municipality":{"key":"08417044","name":"Meßstetten, Stadt","type":"Stadt"},"district":{"key":"08417","name":"Zollernalbkreis","type":"Landkreis"},"federalState":{"key":"08","name":"Baden-Württemberg"}},{"name":"Leopoldstr.","postalCode":"72469","locality":"Meßstetten","municipality":{"key":"08417044","name":"Meßstetten, Stadt","type":"Stadt"},"district":{"key":"08417","name":"Zollernalbkreis","type":"Landkreis"},"federalState":{"key":"08","name":"Baden-Württemberg"}},{"name":"Lerchenweg","postalCode":"72469","locality":"Meßstetten","municipality":{"key":"08417044","name":"Meßstetten, Stadt","type":"Stadt"},"district":{"key":"08417","name":"Zollernalbkreis","type":"Landkreis"},"federalState":{"key":"08","name":"Baden-Württemberg"}},{"name":"Lindenstr.","postalCode":"72469","locality":"Meßstetten","municipality":{"key":"08417044","name":"Meßstetten, Stadt","type":"Stadt"},"district":{"key":"08417","name":"Zollernalbkreis","type":"Landkreis"},"federalState":{"key":"08","name":"Baden-Württemberg"}},{"name":"Lochbrunnenstr.","postalCode":"72469","locality":"Meßstetten","municipality":{"key":"08417044","name":"Meßstetten, Stadt","type":"Stadt"},"district":{"key":"08417","name":"Zollernalbkreis","type":"Landkreis"},"federalState":{"key":"08","name":"Baden-Württemberg"}},{"name":"Lochenstr.","postalCode":"72469","locality":"Meßstetten","municipality":{"key":"08417044","name":"Meßstetten, Stadt","type":"Stadt"},"district":{"key":"08417","name":"Zollernalbkreis","type":"Landkreis"},"federalState":{"key":"08","name":"Baden-Württemberg"}},{"name":"Ludwigstr.","postalCode":"72469","locality":"Meßstetten","municipality":{"key":"08417044","name":"Meßstetten, Stadt","type":"Stadt"},"district":{"key":"08417","name":"Zollernalbkreis","type":"Landkreis"},"federalState":{"key":"08","name":"Baden-Württemberg"}},{"name":"Ludwig-Uhland-Str.","postalCode":"72469","locality":"Meßstetten","municipality":{"key":"08417044","name":"Meßstetten, Stadt","type":"Stadt"},"district":{"key":"08417","name":"Zollernalbkreis","type":"Landkreis"},"federalState":{"key":"08","name":"Baden-Württemberg"}},{"name":"Manuelesgässle","postalCode":"72469","locality":"Meßstetten","municipality":{"key":"08417044","name":"Meßstetten, Stadt","type":"Stadt"},"district":{"key":"08417","name":"Zollernalbkreis","type":"Landkreis"},"federalState":{"key":"08","name":"Baden-Württemberg"}},{"name":"Marienstr.","postalCode":"72469","locality":"Meßstetten","municipality":{"key":"08417044","name":"Meßstetten, Stadt","type":"Stadt"},"district":{"key":"08417","name":"Zollernalbkreis","type":"Landkreis"},"federalState":{"key":"08","name":"Baden-Württemberg"}},{"name":"Märklinstr.","postalCode":"72469","locality":"Meßstetten","municipality":{"key":"08417044","name":"Meßstetten, Stadt","type":"Stadt"},"district":{"key":"08417","name":"Zollernalbkreis","type":"Landkreis"},"federalState":{"key":"08","name":"Baden-Württemberg"}},{"name":"Marktstr.","postalCode":"72469","locality":"Meßstetten","municipality":{"key":"08417044","name":"Meßstetten, Stadt","type":"Stadt"},"district":{"key":"08417","name":"Zollernalbkreis","type":"Landkreis"},"federalState":{"key":"08","name":"Baden-Württemberg"}},{"name":"Matthias-Koch-Str.","postalCode":"72469","locality":"Meßstetten","municipality":{"key":"08417044","name":"Meßstetten, Stadt","type":"Stadt"},"district":{"key":"08417","name":"Zollernalbkreis","type":"Landkreis"},"federalState":{"key":"08","name":"Baden-Württemberg"}},{"name":"Mattias-Koch-Weg","postalCode":"72469","locality":"Meßstetten","municipality":{"key":"08417044","name":"Meßstetten, Stadt","type":"Stadt"},"district":{"key":"08417","name":"Zollernalbkreis","type":"Landkreis"},"federalState":{"key":"08","name":"Baden-Württemberg"}},{"name":"Mauersteige","postalCode":"72469","locality":"Meßstetten","municipality":{"key":"08417044","name":"Meßstetten, Stadt","type":"Stadt"},"district":{"key":"08417","name":"Zollernalbkreis","type":"Landkreis"},"federalState":{"key":"08","name":"Baden-Württemberg"}},{"name":"Max-Eyth-Str.","postalCode":"72469","locality":"Meßstetten","municipality":{"key":"08417044","name":"Meßstetten, Stadt","type":"Stadt"},"district":{"key":"08417","name":"Zollernalbkreis","type":"Landkreis"},"federalState":{"key":"08","name":"Baden-Württemberg"}},{"name":"Mehlbeerweg","postalCode":"72469","locality":"Meßstetten","municipality":{"key":"08417044","name":"Meßstetten, Stadt","type":"Stadt"},"district":{"key":"08417","name":"Zollernalbkreis","type":"Landkreis"},"federalState":{"key":"08","name":"Baden-Württemberg"}},{"name":"Meßstetter Str.","postalCode":"72469","locality":"Meßstetten","municipality":{"key":"08417044","name":"Meßstetten, Stadt","type":"Stadt"},"district":{"key":"08417","name":"Zollernalbkreis","type":"Landkreis"},"federalState":{"key":"08","name":"Baden-Württemberg"}},{"name":"Michelfelder Str.","postalCode":"72469","locality":"Meßstetten","municipality":{"key":"08417044","name":"Meßstetten, Stadt","type":"Stadt"},"district":{"key":"08417","name":"Zollernalbkreis","type":"Landkreis"},"federalState":{"key":"08","name":"Baden-Württemberg"}},{"name":"Mozartstr.","postalCode":"72469","locality":"Meßstetten","municipality":{"key":"08417044","name":"Meßstetten, Stadt","type":"Stadt"},"district":{"key":"08417","name":"Zollernalbkreis","type":"Landkreis"},"federalState":{"key":"08","name":"Baden-Württemberg"}},{"name":"Mühlstr.","postalCode":"72469","locality":"Meßstetten","municipality":{"key":"08417044","name":"Meßstetten, Stadt","type":"Stadt"},"district":{"key":"08417","name":"Zollernalbkreis","type":"Landkreis"},"federalState":{"key":"08","name":"Baden-Württemberg"}},{"name":"Muhrweg","postalCode":"72469","locality":"Meßstetten","municipality":{"key":"08417044","name":"Meßstetten, Stadt","type":"Stadt"},"district":{"key":"08417","name":"Zollernalbkreis","type":"Landkreis"},"federalState":{"key":"08","name":"Baden-Württemberg"}},{"name":"Nackstr.","postalCode":"72469","locality":"Meßstetten","municipality":{"key":"08417044","name":"Meßstetten, Stadt","type":"Stadt"},"district":{"key":"08417","name":"Zollernalbkreis","type":"Landkreis"},"federalState":{"key":"08","name":"Baden-Württemberg"}},{"name":"Nelkenstr.","postalCode":"72469","locality":"Meßstetten","municipality":{"key":"08417044","name":"Meßstetten, Stadt","type":"Stadt"},"district":{"key":"08417","name":"Zollernalbkreis","type":"Landkreis"},"federalState":{"key":"08","name":"Baden-Württemberg"}},{"name":"Neuer Weg","postalCode":"72469","locality":"Meßstetten","municipality":{"key":"08417044","name":"Meßstetten, Stadt","type":"Stadt"},"district":{"key":"08417","name":"Zollernalbkreis","type":"Landkreis"},"federalState":{"key":"08","name":"Baden-Württemberg"}},{"name":"Neue Str.","postalCode":"72469","locality":"Meßstetten","municipality":{"key":"08417044","name":"Meßstetten, Stadt","type":"Stadt"},"district":{"key":"08417","name":"Zollernalbkreis","type":"Landkreis"},"federalState":{"key":"08","name":"Baden-Württemberg"}},{"name":"Nikolausweg","postalCode":"72469","locality":"Meßstetten","municipality":{"key":"08417044","name":"Meßstetten, Stadt","type":"Stadt"},"district":{"key":"08417","name":"Zollernalbkreis","type":"Landkreis"},"federalState":{"key":"08","name":"Baden-Württemberg"}},{"name":"Nusplinger Str.","postalCode":"72469","locality":"Meßstetten","municipality":{"key":"08417044","name":"Meßstetten, Stadt","type":"Stadt"},"district":{"key":"08417","name":"Zollernalbkreis","type":"Landkreis"},"federalState":{"key":"08","name":"Baden-Württemberg"}},{"name":"Nusplinger Weg","postalCode":"72469","locality":"Meßstetten","municipality":{"key":"08417044","name":"Meßstetten, Stadt","type":"Stadt"},"district":{"key":"08417","name":"Zollernalbkreis","type":"Landkreis"},"federalState":{"key":"08","name":"Baden-Württemberg"}},{"name":"Ob dem Beurental","postalCode":"72469","locality":"Meßstetten","municipality":{"key":"08417044","name":"Meßstetten, Stadt","type":"Stadt"},"district":{"key":"08417","name":"Zollernalbkreis","type":"Landkreis"},"federalState":{"key":"08","name":"Baden-Württemberg"}},{"name":"Oberdigisheimer Str.","postalCode":"72469","locality":"Meßstetten","municipality":{"key":"08417044","name":"Meßstetten, Stadt","type":"Stadt"},"district":{"key":"08417","name":"Zollernalbkreis","type":"Landkreis"},"federalState":{"key":"08","name":"Baden-Württemberg"}},{"name":"Obere Hirtengasse","postalCode":"72469","locality":"Meßstetten","municipality":{"key":"08417044","name":"Meßstetten, Stadt","type":"Stadt"},"district":{"key":"08417","name":"Zollernalbkreis","type":"Landkreis"},"federalState":{"key":"08","name":"Baden-Württemberg"}},{"name":"Obere Lehr","postalCode":"72469","locality":"Meßstetten","municipality":{"key":"08417044","name":"Meßstetten, Stadt","type":"Stadt"},"district":{"key":"08417","name":"Zollernalbkreis","type":"Landkreis"},"federalState":{"key":"08","name":"Baden-Württemberg"}},{"name":"Obere Steinrinne","postalCode":"72469","locality":"Meßstetten","municipality":{"key":"08417044","name":"Meßstetten, Stadt","type":"Stadt"},"district":{"key":"08417","name":"Zollernalbkreis","type":"Landkreis"},"federalState":{"key":"08","name":"Baden-Württemberg"}},{"name":"Obere Talstr.","postalCode":"72469","locality":"Meßstetten","municipality":{"key":"08417044","name":"Meßstetten, Stadt","type":"Stadt"},"district":{"key":"08417","name":"Zollernalbkreis","type":"Landkreis"},"federalState":{"key":"08","name":"Baden-Württemberg"}},{"name":"Ober Greut","postalCode":"72469","locality":"Meßstetten","municipality":{"key":"08417044","name":"Meßstetten, Stadt","type":"Stadt"},"district":{"key":"08417","name":"Zollernalbkreis","type":"Landkreis"},"federalState":{"key":"08","name":"Baden-Württemberg"}},{"name":"Oskar-Wettstein-Str.","postalCode":"72469","locality":"Meßstetten","municipality":{"key":"08417044","name":"Meßstetten, Stadt","type":"Stadt"},"district":{"key":"08417","name":"Zollernalbkreis","type":"Landkreis"},"federalState":{"key":"08","name":"Baden-Württemberg"}},{"name":"Ostlandstr.","postalCode":"72469","locality":"Meßstetten","municipality":{"key":"08417044","name":"Meßstetten, Stadt","type":"Stadt"},"district":{"key":"08417","name":"Zollernalbkreis","type":"Landkreis"},"federalState":{"key":"08","name":"Baden-Württemberg"}},{"name":"Panoramastr.","postalCode":"72469","locality":"Meßstetten","municipality":{"key":"08417044","name":"Meßstetten, Stadt","type":"Stadt"},"district":{"key":"08417","name":"Zollernalbkreis","type":"Landkreis"},"federalState":{"key":"08","name":"Baden-Württemberg"}},{"name":"Paradiesstr.","postalCode":"72469","locality":"Meßstetten","municipality":{"key":"08417044","name":"Meßstetten, Stadt","type":"Stadt"},"district":{"key":"08417","name":"Zollernalbkreis","type":"Landkreis"},"federalState":{"key":"08","name":"Baden-Württemberg"}},{"name":"Poststr.","postalCode":"72469","locality":"Meßstetten","municipality":{"key":"08417044","name":"Meßstetten, Stadt","type":"Stadt"},"district":{"key":"08417","name":"Zollernalbkreis","type":"Landkreis"},"federalState":{"key":"08","name":"Baden-Württemberg"}},{"name":"Rathausgasse","postalCode":"72469","locality":"Meßstetten","municipality":{"key":"08417044","name":"Meßstetten, Stadt","type":"Stadt"},"district":{"key":"08417","name":"Zollernalbkreis","type":"Landkreis"},"federalState":{"key":"08","name":"Baden-Württemberg"}},{"name":"Rathfelderstr.","postalCode":"72469","locality":"Meßstetten","municipality":{"key":"08417044","name":"Meßstetten, Stadt","type":"Stadt"},"district":{"key":"08417","name":"Zollernalbkreis","type":"Landkreis"},"federalState":{"key":"08","name":"Baden-Württemberg"}},{"name":"Rehbühl","postalCode":"72469","locality":"Meßstetten","municipality":{"key":"08417044","name":"Meßstetten, Stadt","type":"Stadt"},"district":{"key":"08417","name":"Zollernalbkreis","type":"Landkreis"},"federalState":{"key":"08","name":"Baden-Württemberg"}},{"name":"Riedstr.","postalCode":"72469","locality":"Meßstetten","municipality":{"key":"08417044","name":"Meßstetten, Stadt","type":"Stadt"},"district":{"key":"08417","name":"Zollernalbkreis","type":"Landkreis"},"federalState":{"key":"08","name":"Baden-Württemberg"}},{"name":"Riedwiesen","postalCode":"72469","locality":"Meßstetten","municipality":{"key":"08417044","name":"Meßstetten, Stadt","type":"Stadt"},"district":{"key":"08417","name":"Zollernalbkreis","type":"Landkreis"},"federalState":{"key":"08","name":"Baden-Württemberg"}},{"name":"Robert-Bosch-Str.","postalCode":"72469","locality":"Meßstetten","municipality":{"key":"08417044","name":"Meßstetten, Stadt","type":"Stadt"},"district":{"key":"08417","name":"Zollernalbkreis","type":"Landkreis"},"federalState":{"key":"08","name":"Baden-Württemberg"}},{"name":"Römerstr.","postalCode":"72469","locality":"Meßstetten","municipality":{"key":"08417044","name":"Meßstetten, Stadt","type":"Stadt"},"district":{"key":"08417","name":"Zollernalbkreis","type":"Landkreis"},"federalState":{"key":"08","name":"Baden-Württemberg"}},{"name":"Rosenstr.","postalCode":"72469","locality":"Meßstetten","municipality":{"key":"08417044","name":"Meßstetten, Stadt","type":"Stadt"},"district":{"key":"08417","name":"Zollernalbkreis","type":"Landkreis"},"federalState":{"key":"08","name":"Baden-Württemberg"}},{"name":"Rosslaubweg","postalCode":"72469","locality":"Meßstetten","municipality":{"key":"08417044","name":"Meßstetten, Stadt","type":"Stadt"},"district":{"key":"08417","name":"Zollernalbkreis","type":"Landkreis"},"federalState":{"key":"08","name":"Baden-Württemberg"}},{"name":"Rotdornweg","postalCode":"72469","locality":"Meßstetten","municipality":{"key":"08417044","name":"Meßstetten, Stadt","type":"Stadt"},"district":{"key":"08417","name":"Zollernalbkreis","type":"Landkreis"},"federalState":{"key":"08","name":"Baden-Württemberg"}},{"name":"Rudolf-Diesel-Str.","postalCode":"72469","locality":"Meßstetten","municipality":{"key":"08417044","name":"Meßstetten, Stadt","type":"Stadt"},"district":{"key":"08417","name":"Zollernalbkreis","type":"Landkreis"},"federalState":{"key":"08","name":"Baden-Württemberg"}},{"name":"Rudolfweg","postalCode":"72469","locality":"Meßstetten","municipality":{"key":"08417044","name":"Meßstetten, Stadt","type":"Stadt"},"district":{"key":"08417","name":"Zollernalbkreis","type":"Landkreis"},"federalState":{"key":"08","name":"Baden-Württemberg"}},{"name":"Sanettastr.","postalCode":"72469","locality":"Meßstetten","municipality":{"key":"08417044","name":"Meßstetten, Stadt","type":"Stadt"},"district":{"key":"08417","name":"Zollernalbkreis","type":"Landkreis"},"federalState":{"key":"08","name":"Baden-Württemberg"}},{"name":"Schalksburgstr.","postalCode":"72469","locality":"Meßstetten","municipality":{"key":"08417044","name":"Meßstetten, Stadt","type":"Stadt"},"district":{"key":"08417","name":"Zollernalbkreis","type":"Landkreis"},"federalState":{"key":"08","name":"Baden-Württemberg"}},{"name":"Scheibengasse","postalCode":"72469","locality":"Meßstetten","municipality":{"key":"08417044","name":"Meßstetten, Stadt","type":"Stadt"},"district":{"key":"08417","name":"Zollernalbkreis","type":"Landkreis"},"federalState":{"key":"08","name":"Baden-Württemberg"}},{"name":"Schelmenwasenstr.","postalCode":"72469","locality":"Meßstetten","municipality":{"key":"08417044","name":"Meßstetten, Stadt","type":"Stadt"},"district":{"key":"08417","name":"Zollernalbkreis","type":"Landkreis"},"federalState":{"key":"08","name":"Baden-Württemberg"}},{"name":"Schlehenweg","postalCode":"72469","locality":"Meßstetten","municipality":{"key":"08417044","name":"Meßstetten, Stadt","type":"Stadt"},"district":{"key":"08417","name":"Zollernalbkreis","type":"Landkreis"},"federalState":{"key":"08","name":"Baden-Württemberg"}},{"name":"Schlichemstr.","postalCode":"72469","locality":"Meßstetten","municipality":{"key":"08417044","name":"Meßstetten, Stadt","type":"Stadt"},"district":{"key":"08417","name":"Zollernalbkreis","type":"Landkreis"},"federalState":{"key":"08","name":"Baden-Württemberg"}},{"name":"Schlichemwanderweg","postalCode":"72469","locality":"Meßstetten","municipality":{"key":"08417044","name":"Meßstetten, Stadt","type":"Stadt"},"district":{"key":"08417","name":"Zollernalbkreis","type":"Landkreis"},"federalState":{"key":"08","name":"Baden-Württemberg"}},{"name":"Schlucht","postalCode":"72469","locality":"Meßstetten","municipality":{"key":"08417044","name":"Meßstetten, Stadt","type":"Stadt"},"district":{"key":"08417","name":"Zollernalbkreis","type":"Landkreis"},"federalState":{"key":"08","name":"Baden-Württemberg"}},{"name":"Schönfeldstr.","postalCode":"72469","locality":"Meßstetten","municipality":{"key":"08417044","name":"Meßstetten, Stadt","type":"Stadt"},"district":{"key":"08417","name":"Zollernalbkreis","type":"Landkreis"},"federalState":{"key":"08","name":"Baden-Württemberg"}},{"name":"Schulacker","postalCode":"72469","locality":"Meßstetten","municipality":{"key":"08417044","name":"Meßstetten, Stadt","type":"Stadt"},"district":{"key":"08417","name":"Zollernalbkreis","type":"Landkreis"},"federalState":{"key":"08","name":"Baden-Württemberg"}},{"name":"Schulstr.","postalCode":"72469","locality":"Meßstetten","municipality":{"key":"08417044","name":"Meßstetten, Stadt","type":"Stadt"},"district":{"key":"08417","name":"Zollernalbkreis","type":"Landkreis"},"federalState":{"key":"08","name":"Baden-Württemberg"}},{"name":"Schwalbenweg","postalCode":"72469","locality":"Meßstetten","municipality":{"key":"08417044","name":"Meßstetten, Stadt","type":"Stadt"},"district":{"key":"08417","name":"Zollernalbkreis","type":"Landkreis"},"federalState":{"key":"08","name":"Baden-Württemberg"}},{"name":"Seyren","postalCode":"72469","locality":"Meßstetten","municipality":{"key":"08417044","name":"Meßstetten, Stadt","type":"Stadt"},"district":{"key":"08417","name":"Zollernalbkreis","type":"Landkreis"},"federalState":{"key":"08","name":"Baden-Württemberg"}},{"name":"Silberdistelstr.","postalCode":"72469","locality":"Meßstetten","municipality":{"key":"08417044","name":"Meßstetten, Stadt","type":"Stadt"},"district":{"key":"08417","name":"Zollernalbkreis","type":"Landkreis"},"federalState":{"key":"08","name":"Baden-Württemberg"}},{"name":"Skistr.","postalCode":"72469","locality":"Meßstetten","municipality":{"key":"08417044","name":"Meßstetten, Stadt","type":"Stadt"},"district":{"key":"08417","name":"Zollernalbkreis","type":"Landkreis"},"federalState":{"key":"08","name":"Baden-Württemberg"}},{"name":"Sommerhalde","postalCode":"72469","locality":"Meßstetten","municipality":{"key":"08417044","name":"Meßstetten, Stadt","type":"Stadt"},"district":{"key":"08417","name":"Zollernalbkreis","type":"Landkreis"},"federalState":{"key":"08","name":"Baden-Württemberg"}},{"name":"Sonnenweg","postalCode":"72469","locality":"Meßstetten","municipality":{"key":"08417044","name":"Meßstetten, Stadt","type":"Stadt"},"district":{"key":"08417","name":"Zollernalbkreis","type":"Landkreis"},"federalState":{"key":"08","name":"Baden-Württemberg"}},{"name":"Steigweg","postalCode":"72469","locality":"Meßstetten","municipality":{"key":"08417044","name":"Meßstetten, Stadt","type":"Stadt"},"district":{"key":"08417","name":"Zollernalbkreis","type":"Landkreis"},"federalState":{"key":"08","name":"Baden-Württemberg"}},{"name":"Steinstr.","postalCode":"72469","locality":"Meßstetten","municipality":{"key":"08417044","name":"Meßstetten, Stadt","type":"Stadt"},"district":{"key":"08417","name":"Zollernalbkreis","type":"Landkreis"},"federalState":{"key":"08","name":"Baden-Württemberg"}},{"name":"Südhangweg","postalCode":"72469","locality":"Meßstetten","municipality":{"key":"08417044","name":"Meßstetten, Stadt","type":"Stadt"},"district":{"key":"08417","name":"Zollernalbkreis","type":"Landkreis"},"federalState":{"key":"08","name":"Baden-Württemberg"}},{"name":"Talwiesen","postalCode":"72469","locality":"Meßstetten","municipality":{"key":"08417044","name":"Meßstetten, Stadt","type":"Stadt"},"district":{"key":"08417","name":"Zollernalbkreis","type":"Landkreis"},"federalState":{"key":"08","name":"Baden-Württemberg"}},{"name":"Thomaslochstr.","postalCode":"72469","locality":"Meßstetten","municipality":{"key":"08417044","name":"Meßstetten, Stadt","type":"Stadt"},"district":{"key":"08417","name":"Zollernalbkreis","type":"Landkreis"},"federalState":{"key":"08","name":"Baden-Württemberg"}},{"name":"Tieringer Str.","postalCode":"72469","locality":"Meßstetten","municipality":{"key":"08417044","name":"Meßstetten, Stadt","type":"Stadt"},"district":{"key":"08417","name":"Zollernalbkreis","type":"Landkreis"},"federalState":{"key":"08","name":"Baden-Württemberg"}},{"name":"Tulpenstr.","postalCode":"72469","locality":"Meßstetten","municipality":{"key":"08417044","name":"Meßstetten, Stadt","type":"Stadt"},"district":{"key":"08417","name":"Zollernalbkreis","type":"Landkreis"},"federalState":{"key":"08","name":"Baden-Württemberg"}},{"name":"Unter der Steig","postalCode":"72469","locality":"Meßstetten","municipality":{"key":"08417044","name":"Meßstetten, Stadt","type":"Stadt"},"district":{"key":"08417","name":"Zollernalbkreis","type":"Landkreis"},"federalState":{"key":"08","name":"Baden-Württemberg"}},{"name":"Unterdigisheimer Str.","postalCode":"72469","locality":"Meßstetten","municipality":{"key":"08417044","name":"Meßstetten, Stadt","type":"Stadt"},"district":{"key":"08417","name":"Zollernalbkreis","type":"Landkreis"},"federalState":{"key":"08","name":"Baden-Württemberg"}},{"name":"Unterdorfstr.","postalCode":"72469","locality":"Meßstetten","municipality":{"key":"08417044","name":"Meßstetten, Stadt","type":"Stadt"},"district":{"key":"08417","name":"Zollernalbkreis","type":"Landkreis"},"federalState":{"key":"08","name":"Baden-Württemberg"}},{"name":"Untere Hirtengasse","postalCode":"72469","locality":"Meßstetten","municipality":{"key":"08417044","name":"Meßstetten, Stadt","type":"Stadt"},"district":{"key":"08417","name":"Zollernalbkreis","type":"Landkreis"},"federalState":{"key":"08","name":"Baden-Württemberg"}},{"name":"Untere Steinrinne","postalCode":"72469","locality":"Meßstetten","municipality":{"key":"08417044","name":"Meßstetten, Stadt","type":"Stadt"},"district":{"key":"08417","name":"Zollernalbkreis","type":"Landkreis"},"federalState":{"key":"08","name":"Baden-Württemberg"}},{"name":"Untere Talstr.","postalCode":"72469","locality":"Meßstetten","municipality":{"key":"08417044","name":"Meßstetten, Stadt","type":"Stadt"},"district":{"key":"08417","name":"Zollernalbkreis","type":"Landkreis"},"federalState":{"key":"08","name":"Baden-Württemberg"}},{"name":"Untere Wiesen","postalCode":"72469","locality":"Meßstetten","municipality":{"key":"08417044","name":"Meßstetten, Stadt","type":"Stadt"},"district":{"key":"08417","name":"Zollernalbkreis","type":"Landkreis"},"federalState":{"key":"08","name":"Baden-Württemberg"}},{"name":"Unter Palmen","postalCode":"72469","locality":"Meßstetten","municipality":{"key":"08417044","name":"Meßstetten, Stadt","type":"Stadt"},"district":{"key":"08417","name":"Zollernalbkreis","type":"Landkreis"},"federalState":{"key":"08","name":"Baden-Württemberg"}},{"name":"Victor-von-Scheffel-Weg","postalCode":"72469","locality":"Meßstetten","municipality":{"key":"08417044","name":"Meßstetten, Stadt","type":"Stadt"},"district":{"key":"08417","name":"Zollernalbkreis","type":"Landkreis"},"federalState":{"key":"08","name":"Baden-Württemberg"}},{"name":"Wagnerstr.","postalCode":"72469","locality":"Meßstetten","municipality":{"key":"08417044","name":"Meßstetten, Stadt","type":"Stadt"},"district":{"key":"08417","name":"Zollernalbkreis","type":"Landkreis"},"federalState":{"key":"08","name":"Baden-Württemberg"}},{"name":"Waldlehrpfad","postalCode":"72469","locality":"Meßstetten","municipality":{"key":"08417044","name":"Meßstetten, Stadt","type":"Stadt"},"district":{"key":"08417","name":"Zollernalbkreis","type":"Landkreis"},"federalState":{"key":"08","name":"Baden-Württemberg"}},{"name":"Waldstr.","postalCode":"72469","locality":"Meßstetten","municipality":{"key":"08417044","name":"Meßstetten, Stadt","type":"Stadt"},"district":{"key":"08417","name":"Zollernalbkreis","type":"Landkreis"},"federalState":{"key":"08","name":"Baden-Württemberg"}},{"name":"Wannenweg","postalCode":"72469","locality":"Meßstetten","municipality":{"key":"08417044","name":"Meßstetten, Stadt","type":"Stadt"},"district":{"key":"08417","name":"Zollernalbkreis","type":"Landkreis"},"federalState":{"key":"08","name":"Baden-Württemberg"}},{"name":"Wasserscheide","postalCode":"72469","locality":"Meßstetten","municipality":{"key":"08417044","name":"Meßstetten, Stadt","type":"Stadt"},"district":{"key":"08417","name":"Zollernalbkreis","type":"Landkreis"},"federalState":{"key":"08","name":"Baden-Württemberg"}},{"name":"Weißdornweg","postalCode":"72469","locality":"Meßstetten","municipality":{"key":"08417044","name":"Meßstetten, Stadt","type":"Stadt"},"district":{"key":"08417","name":"Zollernalbkreis","type":"Landkreis"},"federalState":{"key":"08","name":"Baden-Württemberg"}},{"name":"Widumstr.","postalCode":"72469","locality":"Meßstetten","municipality":{"key":"08417044","name":"Meßstetten, Stadt","type":"Stadt"},"district":{"key":"08417","name":"Zollernalbkreis","type":"Landkreis"},"federalState":{"key":"08","name":"Baden-Württemberg"}},{"name":"Wiesenstr.","postalCode":"72469","locality":"Meßstetten","municipality":{"key":"08417044","name":"Meßstetten, Stadt","type":"Stadt"},"district":{"key":"08417","name":"Zollernalbkreis","type":"Landkreis"},"federalState":{"key":"08","name":"Baden-Württemberg"}},{"name":"Wildensteinstr.","postalCode":"72469","locality":"Meßstetten","municipality":{"key":"08417044","name":"Meßstetten, Stadt","type":"Stadt"},"district":{"key":"08417","name":"Zollernalbkreis","type":"Landkreis"},"federalState":{"key":"08","name":"Baden-Württemberg"}},{"name":"Wilhelm-Hauff-Weg","postalCode":"72469","locality":"Meßstetten","municipality":{"key":"08417044","name":"Meßstetten, Stadt","type":"Stadt"},"district":{"key":"08417","name":"Zollernalbkreis","type":"Landkreis"},"federalState":{"key":"08","name":"Baden-Württemberg"}},{"name":"Wilhelmstr.","postalCode":"72469","locality":"Meßstetten","municipality":{"key":"08417044","name":"Meßstetten, Stadt","type":"Stadt"},"district":{"key":"08417","name":"Zollernalbkreis","type":"Landkreis"},"federalState":{"key":"08","name":"Baden-Württemberg"}},{"name":"Wilhelm-Wendel-Weg","postalCode":"72469","locality":"Meßstetten","municipality":{"key":"08417044","name":"Meßstetten, Stadt","type":"Stadt"},"district":{"key":"08417","name":"Zollernalbkreis","type":"Landkreis"},"federalState":{"key":"08","name":"Baden-Württemberg"}},{"name":"Wirkerstr.","postalCode":"72469","locality":"Meßstetten","municipality":{"key":"08417044","name":"Meßstetten, Stadt","type":"Stadt"},"district":{"key":"08417","name":"Zollernalbkreis","type":"Landkreis"},"federalState":{"key":"08","name":"Baden-Württemberg"}},{"name":"Wirtschaftsweg","postalCode":"72469","locality":"Meßstetten","municipality":{"key":"08417044","name":"Meßstetten, Stadt","type":"Stadt"},"district":{"key":"08417","name":"Zollernalbkreis","type":"Landkreis"},"federalState":{"key":"08","name":"Baden-Württemberg"}},{"name":"Wolfensteige","postalCode":"72469","locality":"Meßstetten","municipality":{"key":"08417044","name":"Meßstetten, Stadt","type":"Stadt"},"district":{"key":"08417","name":"Zollernalbkreis","type":"Landkreis"},"federalState":{"key":"08","name":"Baden-Württemberg"}},{"name":"Wolfhalde","postalCode":"72469","locality":"Meßstetten","municipality":{"key":"08417044","name":"Meßstetten, Stadt","type":"Stadt"},"district":{"key":"08417","name":"Zollernalbkreis","type":"Landkreis"},"federalState":{"key":"08","name":"Baden-Württemberg"}},{"name":"Würzbergweg","postalCode":"72469","locality":"Meßstetten","municipality":{"key":"08417044","name":"Meßstetten, Stadt","type":"Stadt"},"district":{"key":"08417","name":"Zollernalbkreis","type":"Landkreis"},"federalState":{"key":"08","name":"Baden-Württemberg"}},{"name":"Zeppelinstr.","postalCode":"72469","locality":"Meßstetten","municipality":{"key":"08417044","name":"Meßstetten, Stadt","type":"Stadt"},"district":{"key":"08417","name":"Zollernalbkreis","type":"Landkreis"},"federalState":{"key":"08","name":"Baden-Württemberg"}},{"name":"Zeurengasse","postalCode":"72469","locality":"Meßstetten","municipality":{"key":"08417044","name":"Meßstetten, Stadt","type":"Stadt"},"district":{"key":"08417","name":"Zollernalbkreis","type":"Landkreis"},"federalState":{"key":"08","name":"Baden-Württemberg"}},{"name":"Zollernstr.","postalCode":"72469","locality":"Meßstetten","municipality":{"key":"08417044","name":"Meßstetten, Stadt","type":"Stadt"},"district":{"key":"08417","name":"Zollernalbkreis","type":"Landkreis"},"federalState":{"key":"08","name":"Baden-Württemberg"}},{"name":"Zum Berg","postalCode":"72469","locality":"Meßstetten","municipality":{"key":"08417044","name":"Meßstetten, Stadt","type":"Stadt"},"district":{"key":"08417","name":"Zollernalbkreis","type":"Landkreis"},"federalState":{"key":"08","name":"Baden-Württemberg"}},{"name":"Zum Riedhof","postalCode":"72469","locality":"Meßstetten","municipality":{"key":"08417044","name":"Meßstetten, Stadt","type":"Stadt"},"district":{"key":"08417","name":"Zollernalbkreis","type":"Landkreis"},"federalState":{"key":"08","name":"Baden-Württemberg"}},{"name":"Öschlestr.","postalCode":"72469","locality":"Meßstetten","municipality":{"key":"08417044","name":"Meßstetten, Stadt","type":"Stadt"},"district":{"key":"08417","name":"Zollernalbkreis","type":"Landkreis"},"federalState":{"key":"08","name":"Baden-Württemberg"}},]