[{"key":"10133754","name":"Alte Strasse","postalCode":"3816","locality":"Burglauenen","commune":{"key":"576","name":"Grindelwald","shortName":"Grindelwald"},"district":{"key":"250","name":"Verwaltungskreis Interlaken-Oberhasli"},"canton":{"key":"2","code":"BE","name":"Bern / Berne"},"status":"Real"},{"key":"10147601","name":"Bachmattenstrasse","postalCode":"3782","locality":"Lauenen b. Gstaad","commune":{"key":"842","name":"Lauenen","shortName":"Lauenen"},"district":{"key":"248","name":"Verwaltungskreis Obersimmental-Saanen"},"canton":{"key":"2","code":"BE","name":"Bern / Berne"},"status":"Real"},{"key":"10133770","name":"Badrainweg","postalCode":"3816","locality":"Burglauenen","commune":{"key":"576","name":"Grindelwald","shortName":"Grindelwald"},"district":{"key":"250","name":"Verwaltungskreis Interlaken-Oberhasli"},"canton":{"key":"2","code":"BE","name":"Bern / Berne"},"status":"Real"},{"key":"10149675","name":"Bärbachweg","postalCode":"3816","locality":"Burglauenen","commune":{"key":"576","name":"Grindelwald","shortName":"Grindelwald"},"district":{"key":"250","name":"Verwaltungskreis Interlaken-Oberhasli"},"canton":{"key":"2","code":"BE","name":"Bern / Berne"},"status":"Real"},{"key":"10148455","name":"Beim See","postalCode":"3816","locality":"Burglauenen","commune":{"key":"576","name":"Grindelwald","shortName":"Grindelwald"},"district":{"key":"250","name":"Verwaltungskreis Interlaken-Oberhasli"},"canton":{"key":"2","code":"BE","name":"Bern / Berne"},"status":"Real"},{"key":"10156760","name":"Bieribodenstrasse","postalCode":"3782","locality":"Lauenen b. Gstaad","commune":{"key":"842","name":"Lauenen","shortName":"Lauenen"},"district":{"key":"248","name":"Verwaltungskreis Obersimmental-Saanen"},"canton":{"key":"2","code":"BE","name":"Bern / Berne"},"status":"Real"},{"key":"10156762","name":"Blatterliweg","postalCode":"3782","locality":"Lauenen b. Gstaad","commune":{"key":"842","name":"Lauenen","shortName":"Lauenen"},"district":{"key":"248","name":"Verwaltungskreis Obersimmental-Saanen"},"canton":{"key":"2","code":"BE","name":"Bern / Berne"},"status":"Real"},{"key":"10156800","name":"Bodenstrasse","postalCode":"3782","locality":"Lauenen b. Gstaad","commune":{"key":"842","name":"Lauenen","shortName":"Lauenen"},"district":{"key":"248","name":"Verwaltungskreis Obersimmental-Saanen"},"canton":{"key":"2","code":"BE","name":"Bern / Berne"},"status":"Real"},{"key":"10197102","name":"Brüchliweg","postalCode":"3782","locality":"Lauenen b. Gstaad","commune":{"key":"842","name":"Lauenen","shortName":"Lauenen"},"district":{"key":"248","name":"Verwaltungskreis Obersimmental-Saanen"},"canton":{"key":"2","code":"BE","name":"Bern / Berne"},"status":"Real"},{"key":"10156801","name":"Brüschenweg","postalCode":"3782","locality":"Lauenen b. Gstaad","commune":{"key":"842","name":"Lauenen","shortName":"Lauenen"},"district":{"key":"248","name":"Verwaltungskreis Obersimmental-Saanen"},"canton":{"key":"2","code":"BE","name":"Bern / Berne"},"status":"Real"},{"key":"10147602","name":"Büeliweg","postalCode":"3782","locality":"Lauenen b. Gstaad","commune":{"key":"842","name":"Lauenen","shortName":"Lauenen"},"district":{"key":"248","name":"Verwaltungskreis Obersimmental-Saanen"},"canton":{"key":"2","code":"BE","name":"Bern / Berne"},"status":"Real"},{"key":"10147605","name":"Chämelistrasse","postalCode":"3782","locality":"Lauenen b. Gstaad","commune":{"key":"842","name":"Lauenen","shortName":"Lauenen"},"district":{"key":"248","name":"Verwaltungskreis Obersimmental-Saanen"},"canton":{"key":"2","code":"BE","name":"Bern / Berne"},"status":"Real"},{"key":"10140781","name":"Cholisbielweg","postalCode":"3816","locality":"Burglauenen","commune":{"key":"576","name":"Grindelwald","shortName":"Grindelwald"},"district":{"key":"250","name":"Verwaltungskreis Interlaken-Oberhasli"},"canton":{"key":"2","code":"BE","name":"Bern / Berne"},"status":"Real"},{"key":"10249564","name":"Chrachenmad","postalCode":"3816","locality":"Burglauenen","commune":{"key":"576","name":"Grindelwald","shortName":"Grindelwald"},"district":{"key":"250","name":"Verwaltungskreis Interlaken-Oberhasli"},"canton":{"key":"2","code":"BE","name":"Bern / Berne"},"status":"Real"},{"key":"10147873","name":"Dorfstrasse","postalCode":"3782","locality":"Lauenen b. Gstaad","commune":{"key":"842","name":"Lauenen","shortName":"Lauenen"},"district":{"key":"248","name":"Verwaltungskreis Obersimmental-Saanen"},"canton":{"key":"2","code":"BE","name":"Bern / Berne"},"status":"Real"},{"key":"10221298","name":"Feissenberg","postalCode":"3782","locality":"Lauenen b. Gstaad","commune":{"key":"842","name":"Lauenen","shortName":"Lauenen"},"district":{"key":"248","name":"Verwaltungskreis Obersimmental-Saanen"},"canton":{"key":"2","code":"BE","name":"Bern / Berne"},"status":"Real"},{"key":"10147606","name":"Gelten","postalCode":"3782","locality":"Lauenen b. Gstaad","commune":{"key":"842","name":"Lauenen","shortName":"Lauenen"},"district":{"key":"248","name":"Verwaltungskreis Obersimmental-Saanen"},"canton":{"key":"2","code":"BE","name":"Bern / Berne"},"status":"Real"},{"key":"10133276","name":"Gietliweg","postalCode":"3816","locality":"Burglauenen","commune":{"key":"576","name":"Grindelwald","shortName":"Grindelwald"},"district":{"key":"250","name":"Verwaltungskreis Interlaken-Oberhasli"},"canton":{"key":"2","code":"BE","name":"Bern / Berne"},"status":"Real"},{"key":"10147874","name":"Grabenstrasse","postalCode":"3782","locality":"Lauenen b. Gstaad","commune":{"key":"842","name":"Lauenen","shortName":"Lauenen"},"district":{"key":"248","name":"Verwaltungskreis Obersimmental-Saanen"},"canton":{"key":"2","code":"BE","name":"Bern / Berne"},"status":"Real"},{"key":"10133278","name":"Grindelwaldstrasse","postalCode":"3816","locality":"Burglauenen","commune":{"key":"576","name":"Grindelwald","shortName":"Grindelwald"},"district":{"key":"250","name":"Verwaltungskreis Interlaken-Oberhasli"},"canton":{"key":"2","code":"BE","name":"Bern / Berne"},"status":"Real"},{"key":"10147875","name":"Grünbühlstrasse","postalCode":"3782","locality":"Lauenen b. Gstaad","commune":{"key":"842","name":"Lauenen","shortName":"Lauenen"},"district":{"key":"248","name":"Verwaltungskreis Obersimmental-Saanen"},"canton":{"key":"2","code":"BE","name":"Bern / Berne"},"status":"Real"},{"key":"10143862","name":"Gschwendstrasse","postalCode":"3782","locality":"Lauenen b. Gstaad","commune":{"key":"842","name":"Lauenen","shortName":"Lauenen"},"district":{"key":"248","name":"Verwaltungskreis Obersimmental-Saanen"},"canton":{"key":"2","code":"BE","name":"Bern / Berne"},"status":"Real"},{"key":"10133776","name":"Hänislehenweg","postalCode":"3816","locality":"Burglauenen","commune":{"key":"576","name":"Grindelwald","shortName":"Grindelwald"},"district":{"key":"250","name":"Verwaltungskreis Interlaken-Oberhasli"},"canton":{"key":"2","code":"BE","name":"Bern / Berne"},"status":"Real"},{"key":"10143863","name":"Heimweidstrasse","postalCode":"3782","locality":"Lauenen b. Gstaad","commune":{"key":"842","name":"Lauenen","shortName":"Lauenen"},"district":{"key":"248","name":"Verwaltungskreis Obersimmental-Saanen"},"canton":{"key":"2","code":"BE","name":"Bern / Berne"},"status":"Real"},{"key":"10147609","name":"Hinterseestrasse","postalCode":"3782","locality":"Lauenen b. Gstaad","commune":{"key":"842","name":"Lauenen","shortName":"Lauenen"},"district":{"key":"248","name":"Verwaltungskreis Obersimmental-Saanen"},"canton":{"key":"2","code":"BE","name":"Bern / Berne"},"status":"Real"},{"key":"10140784","name":"Horlauenenstrasse","postalCode":"3816","locality":"Burglauenen","commune":{"key":"576","name":"Grindelwald","shortName":"Grindelwald"},"district":{"key":"250","name":"Verwaltungskreis Interlaken-Oberhasli"},"canton":{"key":"2","code":"BE","name":"Bern / Berne"},"status":"Real"},{"key":"10143864","name":"Kirchstrasse","postalCode":"3782","locality":"Lauenen b. Gstaad","commune":{"key":"842","name":"Lauenen","shortName":"Lauenen"},"district":{"key":"248","name":"Verwaltungskreis Obersimmental-Saanen"},"canton":{"key":"2","code":"BE","name":"Bern / Berne"},"status":"Real"},{"key":"10188268","name":"Ländteweg","postalCode":"3800","locality":"Sundlauenen","commune":{"key":"571","name":"Beatenberg","shortName":"Beatenberg"},"district":{"key":"250","name":"Verwaltungskreis Interlaken-Oberhasli"},"canton":{"key":"2","code":"BE","name":"Bern / Berne"},"status":"Real"},{"key":"10221302","name":"Längebodeweg","postalCode":"3782","locality":"Lauenen b. Gstaad","commune":{"key":"842","name":"Lauenen","shortName":"Lauenen"},"district":{"key":"248","name":"Verwaltungskreis Obersimmental-Saanen"},"canton":{"key":"2","code":"BE","name":"Bern / Berne"},"status":"Real"},{"key":"10147876","name":"Lauenenseestrasse","postalCode":"3782","locality":"Lauenen b. Gstaad","commune":{"key":"842","name":"Lauenen","shortName":"Lauenen"},"district":{"key":"248","name":"Verwaltungskreis Obersimmental-Saanen"},"canton":{"key":"2","code":"BE","name":"Bern / Berne"},"status":"Real"},{"key":"10147877","name":"Lauenenstrasse","postalCode":"3782","locality":"Lauenen b. Gstaad","commune":{"key":"842","name":"Lauenen","shortName":"Lauenen"},"district":{"key":"248","name":"Verwaltungskreis Obersimmental-Saanen"},"canton":{"key":"2","code":"BE","name":"Bern / Berne"},"status":"Real"},{"key":"10147878","name":"Mittlere Fangstrasse","postalCode":"3782","locality":"Lauenen b. Gstaad","commune":{"key":"842","name":"Lauenen","shortName":"Lauenen"},"district":{"key":"248","name":"Verwaltungskreis Obersimmental-Saanen"},"canton":{"key":"2","code":"BE","name":"Bern / Berne"},"status":"Real"},{"key":"10221306","name":"Moosfangstrasse","postalCode":"3782","locality":"Lauenen b. Gstaad","commune":{"key":"842","name":"Lauenen","shortName":"Lauenen"},"district":{"key":"248","name":"Verwaltungskreis Obersimmental-Saanen"},"canton":{"key":"2","code":"BE","name":"Bern / Berne"},"status":"Real"},{"key":"10157058","name":"Moosstrasse","postalCode":"3782","locality":"Lauenen b. Gstaad","commune":{"key":"842","name":"Lauenen","shortName":"Lauenen"},"district":{"key":"248","name":"Verwaltungskreis Obersimmental-Saanen"},"canton":{"key":"2","code":"BE","name":"Bern / Berne"},"status":"Real"},{"key":"10147879","name":"Mühlestrasse","postalCode":"3782","locality":"Lauenen b. Gstaad","commune":{"key":"842","name":"Lauenen","shortName":"Lauenen"},"district":{"key":"248","name":"Verwaltungskreis Obersimmental-Saanen"},"canton":{"key":"2","code":"BE","name":"Bern / Berne"},"status":"Real"},{"key":"10157059","name":"Obere Fangstrasse","postalCode":"3782","locality":"Lauenen b. Gstaad","commune":{"key":"842","name":"Lauenen","shortName":"Lauenen"},"district":{"key":"248","name":"Verwaltungskreis Obersimmental-Saanen"},"canton":{"key":"2","code":"BE","name":"Bern / Berne"},"status":"Real"},{"key":"10174521","name":"Oberländerweg","postalCode":"3800","locality":"Sundlauenen","commune":{"key":"571","name":"Beatenberg","shortName":"Beatenberg"},"district":{"key":"250","name":"Verwaltungskreis Interlaken-Oberhasli"},"canton":{"key":"2","code":"BE","name":"Bern / Berne"},"status":"Real"},{"key":"10147610","name":"Pfrundstrasse","postalCode":"3782","locality":"Lauenen b. Gstaad","commune":{"key":"842","name":"Lauenen","shortName":"Lauenen"},"district":{"key":"248","name":"Verwaltungskreis Obersimmental-Saanen"},"canton":{"key":"2","code":"BE","name":"Bern / Berne"},"status":"Real"},{"key":"10147611","name":"Rohrweg","postalCode":"3782","locality":"Lauenen b. Gstaad","commune":{"key":"842","name":"Lauenen","shortName":"Lauenen"},"district":{"key":"248","name":"Verwaltungskreis Obersimmental-Saanen"},"canton":{"key":"2","code":"BE","name":"Bern / Berne"},"status":"Real"},{"key":"10247477","name":"Ruchenbühlstrasse","postalCode":"3800","locality":"Sundlauenen","commune":{"key":"571","name":"Beatenberg","shortName":"Beatenberg"},"district":{"key":"250","name":"Verwaltungskreis Interlaken-Oberhasli"},"canton":{"key":"2","code":"BE","name":"Bern / Berne"},"status":"Real"},{"key":"10157060","name":"Sattelweg","postalCode":"3782","locality":"Lauenen b. Gstaad","commune":{"key":"842","name":"Lauenen","shortName":"Lauenen"},"district":{"key":"248","name":"Verwaltungskreis Obersimmental-Saanen"},"canton":{"key":"2","code":"BE","name":"Bern / Berne"},"status":"Real"},{"key":"10149670","name":"Schafeyweg","postalCode":"3816","locality":"Burglauenen","commune":{"key":"576","name":"Grindelwald","shortName":"Grindelwald"},"district":{"key":"250","name":"Verwaltungskreis Interlaken-Oberhasli"},"canton":{"key":"2","code":"BE","name":"Bern / Berne"},"status":"Real"},{"key":"10150878","name":"Schindelbodenweg","postalCode":"3816","locality":"Burglauenen","commune":{"key":"576","name":"Grindelwald","shortName":"Grindelwald"},"district":{"key":"250","name":"Verwaltungskreis Interlaken-Oberhasli"},"canton":{"key":"2","code":"BE","name":"Bern / Berne"},"status":"Real"},{"key":"10148262","name":"Schlupf","postalCode":"3816","locality":"Burglauenen","commune":{"key":"576","name":"Grindelwald","shortName":"Grindelwald"},"district":{"key":"250","name":"Verwaltungskreis Interlaken-Oberhasli"},"canton":{"key":"2","code":"BE","name":"Bern / Berne"},"status":"Real"},{"key":"10143865","name":"Schönenbodenweg","postalCode":"3782","locality":"Lauenen b. Gstaad","commune":{"key":"842","name":"Lauenen","shortName":"Lauenen"},"district":{"key":"248","name":"Verwaltungskreis Obersimmental-Saanen"},"canton":{"key":"2","code":"BE","name":"Bern / Berne"},"status":"Real"},{"key":"10143866","name":"Schönhaltenstrasse","postalCode":"3782","locality":"Lauenen b. Gstaad","commune":{"key":"842","name":"Lauenen","shortName":"Lauenen"},"district":{"key":"248","name":"Verwaltungskreis Obersimmental-Saanen"},"canton":{"key":"2","code":"BE","name":"Bern / Berne"},"status":"Real"},{"key":"10247479","name":"Schwendiweg","postalCode":"3800","locality":"Sundlauenen","commune":{"key":"571","name":"Beatenberg","shortName":"Beatenberg"},"district":{"key":"250","name":"Verwaltungskreis Interlaken-Oberhasli"},"canton":{"key":"2","code":"BE","name":"Bern / Berne"},"status":"Real"},{"key":"10143867","name":"Sitestrasse","postalCode":"3782","locality":"Lauenen b. Gstaad","commune":{"key":"842","name":"Lauenen","shortName":"Lauenen"},"district":{"key":"248","name":"Verwaltungskreis Obersimmental-Saanen"},"canton":{"key":"2","code":"BE","name":"Bern / Berne"},"status":"Real"},{"key":"10221311","name":"Soderseggweg","postalCode":"3782","locality":"Lauenen b. Gstaad","commune":{"key":"842","name":"Lauenen","shortName":"Lauenen"},"district":{"key":"248","name":"Verwaltungskreis Obersimmental-Saanen"},"canton":{"key":"2","code":"BE","name":"Bern / Berne"},"status":"Real"},{"key":"10147612","name":"Sonnige Lauenenstrasse","postalCode":"3782","locality":"Lauenen b. Gstaad","commune":{"key":"842","name":"Lauenen","shortName":"Lauenen"},"district":{"key":"248","name":"Verwaltungskreis Obersimmental-Saanen"},"canton":{"key":"2","code":"BE","name":"Bern / Berne"},"status":"Real"},{"key":"10147613","name":"Spittelweg","postalCode":"3782","locality":"Lauenen b. Gstaad","commune":{"key":"842","name":"Lauenen","shortName":"Lauenen"},"district":{"key":"248","name":"Verwaltungskreis Obersimmental-Saanen"},"canton":{"key":"2","code":"BE","name":"Bern / Berne"},"status":"Real"},{"key":"10005193","name":"Staatsstrasse","postalCode":"3800","locality":"Sundlauenen","commune":{"key":"571","name":"Beatenberg","shortName":"Beatenberg"},"district":{"key":"250","name":"Verwaltungskreis Interlaken-Oberhasli"},"canton":{"key":"2","code":"BE","name":"Bern / Berne"},"status":"Real"},{"key":"10221314","name":"Stierentungel","postalCode":"3782","locality":"Lauenen b. Gstaad","commune":{"key":"842","name":"Lauenen","shortName":"Lauenen"},"district":{"key":"248","name":"Verwaltungskreis Obersimmental-Saanen"},"canton":{"key":"2","code":"BE","name":"Bern / Berne"},"status":"Real"},{"key":"10143868","name":"Stutzstrasse","postalCode":"3782","locality":"Lauenen b. Gstaad","commune":{"key":"842","name":"Lauenen","shortName":"Lauenen"},"district":{"key":"248","name":"Verwaltungskreis Obersimmental-Saanen"},"canton":{"key":"2","code":"BE","name":"Bern / Berne"},"status":"Real"},{"key":"10150884","name":"Sulligerweidweg","postalCode":"3816","locality":"Burglauenen","commune":{"key":"576","name":"Grindelwald","shortName":"Grindelwald"},"district":{"key":"250","name":"Verwaltungskreis Interlaken-Oberhasli"},"canton":{"key":"2","code":"BE","name":"Bern / Berne"},"status":"Real"},{"key":"10147614","name":"Suttenstrasse","postalCode":"3782","locality":"Lauenen b. Gstaad","commune":{"key":"842","name":"Lauenen","shortName":"Lauenen"},"district":{"key":"248","name":"Verwaltungskreis Obersimmental-Saanen"},"canton":{"key":"2","code":"BE","name":"Bern / Berne"},"status":"Real"},{"key":"10147880","name":"Tannlistrasse","postalCode":"3782","locality":"Lauenen b. Gstaad","commune":{"key":"842","name":"Lauenen","shortName":"Lauenen"},"district":{"key":"248","name":"Verwaltungskreis Obersimmental-Saanen"},"canton":{"key":"2","code":"BE","name":"Bern / Berne"},"status":"Real"},{"key":"10120153","name":"Tirolerweid","postalCode":"3816","locality":"Burglauenen","commune":{"key":"576","name":"Grindelwald","shortName":"Grindelwald"},"district":{"key":"250","name":"Verwaltungskreis Interlaken-Oberhasli"},"canton":{"key":"2","code":"BE","name":"Bern / Berne"},"status":"Real"},{"key":"10147881","name":"Trüttlisbergweg","postalCode":"3782","locality":"Lauenen b. Gstaad","commune":{"key":"842","name":"Lauenen","shortName":"Lauenen"},"district":{"key":"248","name":"Verwaltungskreis Obersimmental-Saanen"},"canton":{"key":"2","code":"BE","name":"Bern / Berne"},"status":"Real"},{"key":"10143869","name":"Trüttlistrasse","postalCode":"3782","locality":"Lauenen b. Gstaad","commune":{"key":"842","name":"Lauenen","shortName":"Lauenen"},"district":{"key":"248","name":"Verwaltungskreis Obersimmental-Saanen"},"canton":{"key":"2","code":"BE","name":"Bern / Berne"},"status":"Real"},{"key":"10147882","name":"Trüttliweg","postalCode":"3782","locality":"Lauenen b. Gstaad","commune":{"key":"842","name":"Lauenen","shortName":"Lauenen"},"district":{"key":"248","name":"Verwaltungskreis Obersimmental-Saanen"},"canton":{"key":"2","code":"BE","name":"Bern / Berne"},"status":"Real"},{"key":"10119757","name":"Tschingeleystrasse","postalCode":"3816","locality":"Burglauenen","commune":{"key":"576","name":"Grindelwald","shortName":"Grindelwald"},"district":{"key":"250","name":"Verwaltungskreis Interlaken-Oberhasli"},"canton":{"key":"2","code":"BE","name":"Bern / Berne"},"status":"Real"},{"key":"10157061","name":"Tüffistrasse","postalCode":"3782","locality":"Lauenen b. Gstaad","commune":{"key":"842","name":"Lauenen","shortName":"Lauenen"},"district":{"key":"248","name":"Verwaltungskreis Obersimmental-Saanen"},"canton":{"key":"2","code":"BE","name":"Bern / Berne"},"status":"Real"},{"key":"10221320","name":"Tungel","postalCode":"3782","locality":"Lauenen b. Gstaad","commune":{"key":"842","name":"Lauenen","shortName":"Lauenen"},"district":{"key":"248","name":"Verwaltungskreis Obersimmental-Saanen"},"canton":{"key":"2","code":"BE","name":"Bern / Berne"},"status":"Real"},{"key":"10147883","name":"Untere Fangstrasse","postalCode":"3782","locality":"Lauenen b. Gstaad","commune":{"key":"842","name":"Lauenen","shortName":"Lauenen"},"district":{"key":"248","name":"Verwaltungskreis Obersimmental-Saanen"},"canton":{"key":"2","code":"BE","name":"Bern / Berne"},"status":"Real"},{"key":"10143870","name":"Wolfeggstrasse","postalCode":"3782","locality":"Lauenen b. Gstaad","commune":{"key":"842","name":"Lauenen","shortName":"Lauenen"},"district":{"key":"248","name":"Verwaltungskreis Obersimmental-Saanen"},"canton":{"key":"2","code":"BE","name":"Bern / Berne"},"status":"Real"},]