[{"name":"Abtskamp","postalCode":"31719","locality":"Wiedensahl","municipality":{"key":"03257037","name":"Wiedensahl, Flecken","type":"Kreisangehörige_Gemeinde"},"district":{"key":"03257","name":"Schaumburg","type":"Landkreis"},"federalState":{"key":"03","name":"Niedersachsen"}},{"name":"Bahnhofstr.","postalCode":"31719","locality":"Wiedensahl","municipality":{"key":"03257037","name":"Wiedensahl, Flecken","type":"Kreisangehörige_Gemeinde"},"district":{"key":"03257","name":"Schaumburg","type":"Landkreis"},"federalState":{"key":"03","name":"Niedersachsen"}},{"name":"Hauptstr.","postalCode":"31719","locality":"Wiedensahl","municipality":{"key":"03257037","name":"Wiedensahl, Flecken","type":"Kreisangehörige_Gemeinde"},"district":{"key":"03257","name":"Schaumburg","type":"Landkreis"},"federalState":{"key":"03","name":"Niedersachsen"}},{"name":"Hinter dem Sahl","postalCode":"31719","locality":"Wiedensahl","municipality":{"key":"03257037","name":"Wiedensahl, Flecken","type":"Kreisangehörige_Gemeinde"},"district":{"key":"03257","name":"Schaumburg","type":"Landkreis"},"federalState":{"key":"03","name":"Niedersachsen"}},{"name":"Hinter den Höfen","postalCode":"31719","locality":"Wiedensahl","municipality":{"key":"03257037","name":"Wiedensahl, Flecken","type":"Kreisangehörige_Gemeinde"},"district":{"key":"03257","name":"Schaumburg","type":"Landkreis"},"federalState":{"key":"03","name":"Niedersachsen"}},{"name":"In der Hespe","postalCode":"31719","locality":"Wiedensahl","municipality":{"key":"03257037","name":"Wiedensahl, Flecken","type":"Kreisangehörige_Gemeinde"},"district":{"key":"03257","name":"Schaumburg","type":"Landkreis"},"federalState":{"key":"03","name":"Niedersachsen"}},{"name":"Mühlenweg","postalCode":"31719","locality":"Wiedensahl","municipality":{"key":"03257037","name":"Wiedensahl, Flecken","type":"Kreisangehörige_Gemeinde"},"district":{"key":"03257","name":"Schaumburg","type":"Landkreis"},"federalState":{"key":"03","name":"Niedersachsen"}},{"name":"Riemenstr.","postalCode":"31719","locality":"Wiedensahl","municipality":{"key":"03257037","name":"Wiedensahl, Flecken","type":"Kreisangehörige_Gemeinde"},"district":{"key":"03257","name":"Schaumburg","type":"Landkreis"},"federalState":{"key":"03","name":"Niedersachsen"}},{"name":"Rosenkamp","postalCode":"31719","locality":"Wiedensahl","municipality":{"key":"03257037","name":"Wiedensahl, Flecken","type":"Kreisangehörige_Gemeinde"},"district":{"key":"03257","name":"Schaumburg","type":"Landkreis"},"federalState":{"key":"03","name":"Niedersachsen"}},{"name":"Schierenbrink","postalCode":"31719","locality":"Wiedensahl","municipality":{"key":"03257037","name":"Wiedensahl, Flecken","type":"Kreisangehörige_Gemeinde"},"district":{"key":"03257","name":"Schaumburg","type":"Landkreis"},"federalState":{"key":"03","name":"Niedersachsen"}},{"name":"Schützenstr.","postalCode":"31719","locality":"Wiedensahl","municipality":{"key":"03257037","name":"Wiedensahl, Flecken","type":"Kreisangehörige_Gemeinde"},"district":{"key":"03257","name":"Schaumburg","type":"Landkreis"},"federalState":{"key":"03","name":"Niedersachsen"}},{"name":"Steinkamp","postalCode":"31719","locality":"Wiedensahl","municipality":{"key":"03257037","name":"Wiedensahl, Flecken","type":"Kreisangehörige_Gemeinde"},"district":{"key":"03257","name":"Schaumburg","type":"Landkreis"},"federalState":{"key":"03","name":"Niedersachsen"}},{"name":"Wehmland","postalCode":"31719","locality":"Wiedensahl","municipality":{"key":"03257037","name":"Wiedensahl, Flecken","type":"Kreisangehörige_Gemeinde"},"district":{"key":"03257","name":"Schaumburg","type":"Landkreis"},"federalState":{"key":"03","name":"Niedersachsen"}},{"name":"Wiedensahler Str.","postalCode":"31719","locality":"Wiedensahl","municipality":{"key":"03257037","name":"Wiedensahl, Flecken","type":"Kreisangehörige_Gemeinde"},"district":{"key":"03257","name":"Schaumburg","type":"Landkreis"},"federalState":{"key":"03","name":"Niedersachsen"}},{"name":"Wilhelm-Busch-Str.","postalCode":"31719","locality":"Wiedensahl","municipality":{"key":"03257037","name":"Wiedensahl, Flecken","type":"Kreisangehörige_Gemeinde"},"district":{"key":"03257","name":"Schaumburg","type":"Landkreis"},"federalState":{"key":"03","name":"Niedersachsen"}},]