[{"name":"An der Leite","postalCode":"97511","locality":"Lülsfeld","municipality":{"key":"09678153","name":"Lülsfeld","type":"Kreisangehörige_Gemeinde"},"district":{"key":"09678","name":"Schweinfurt","type":"Landkreis"},"federalState":{"key":"09","name":"Bayern"}},{"name":"An der Weidach","postalCode":"97511","locality":"Lülsfeld","municipality":{"key":"09678153","name":"Lülsfeld","type":"Kreisangehörige_Gemeinde"},"district":{"key":"09678","name":"Schweinfurt","type":"Landkreis"},"federalState":{"key":"09","name":"Bayern"}},{"name":"Bimbacher Str.","postalCode":"97511","locality":"Lülsfeld","municipality":{"key":"09678153","name":"Lülsfeld","type":"Kreisangehörige_Gemeinde"},"district":{"key":"09678","name":"Schweinfurt","type":"Landkreis"},"federalState":{"key":"09","name":"Bayern"}},{"name":"Brünnauer Str.","postalCode":"97511","locality":"Lülsfeld","municipality":{"key":"09678153","name":"Lülsfeld","type":"Kreisangehörige_Gemeinde"},"district":{"key":"09678","name":"Schweinfurt","type":"Landkreis"},"federalState":{"key":"09","name":"Bayern"}},{"name":"Carl-Orff-Str.","postalCode":"97421","locality":"Schweinfurt","municipality":{"key":"09662000","name":"Schweinfurt","type":"Kreisfreie_Stadt"},"district":{"key":"09662","name":"Schweinfurt","type":"Kreisfreie_Stadt"},"federalState":{"key":"09","name":"Bayern"}},{"name":"Carl-Spitzweg-Str.","postalCode":"97422","locality":"Schweinfurt","municipality":{"key":"09662000","name":"Schweinfurt","type":"Kreisfreie_Stadt"},"district":{"key":"09662","name":"Schweinfurt","type":"Kreisfreie_Stadt"},"federalState":{"key":"09","name":"Bayern"}},{"name":"Celtesstr.","postalCode":"97422","locality":"Schweinfurt","municipality":{"key":"09662000","name":"Schweinfurt","type":"Kreisfreie_Stadt"},"district":{"key":"09662","name":"Schweinfurt","type":"Kreisfreie_Stadt"},"federalState":{"key":"09","name":"Bayern"}},{"name":"Châteaudun-Park","postalCode":"97421","locality":"Schweinfurt","municipality":{"key":"09662000","name":"Schweinfurt","type":"Kreisfreie_Stadt"},"district":{"key":"09662","name":"Schweinfurt","type":"Kreisfreie_Stadt"},"federalState":{"key":"09","name":"Bayern"}},{"name":"Christoph-Krebs-Str.","postalCode":"97422","locality":"Schweinfurt","municipality":{"key":"09662000","name":"Schweinfurt","type":"Kreisfreie_Stadt"},"district":{"key":"09662","name":"Schweinfurt","type":"Kreisfreie_Stadt"},"federalState":{"key":"09","name":"Bayern"}},{"name":"Coloradostr.","postalCode":"97424","locality":"Schweinfurt","municipality":{"key":"09662000","name":"Schweinfurt","type":"Kreisfreie_Stadt"},"district":{"key":"09662","name":"Schweinfurt","type":"Kreisfreie_Stadt"},"federalState":{"key":"09","name":"Bayern"}},{"name":"Cramerstr.","postalCode":"97421","locality":"Schweinfurt","municipality":{"key":"09662000","name":"Schweinfurt","type":"Kreisfreie_Stadt"},"district":{"key":"09662","name":"Schweinfurt","type":"Kreisfreie_Stadt"},"federalState":{"key":"09","name":"Bayern"}},{"name":"Cuspinianstr.","postalCode":"97422","locality":"Schweinfurt","municipality":{"key":"09662000","name":"Schweinfurt","type":"Kreisfreie_Stadt"},"district":{"key":"09662","name":"Schweinfurt","type":"Kreisfreie_Stadt"},"federalState":{"key":"09","name":"Bayern"}},{"name":"Damaschkeplatz","postalCode":"97421","locality":"Schweinfurt","municipality":{"key":"09662000","name":"Schweinfurt","type":"Kreisfreie_Stadt"},"district":{"key":"09662","name":"Schweinfurt","type":"Kreisfreie_Stadt"},"federalState":{"key":"09","name":"Bayern"}},{"name":"Damaschkestr.","postalCode":"97421","locality":"Schweinfurt","municipality":{"key":"09662000","name":"Schweinfurt","type":"Kreisfreie_Stadt"},"district":{"key":"09662","name":"Schweinfurt","type":"Kreisfreie_Stadt"},"federalState":{"key":"09","name":"Bayern"}},{"name":"Danzigstr.","postalCode":"97424","locality":"Schweinfurt","municipality":{"key":"09662000","name":"Schweinfurt","type":"Kreisfreie_Stadt"},"district":{"key":"09662","name":"Schweinfurt","type":"Kreisfreie_Stadt"},"federalState":{"key":"09","name":"Bayern"}},{"name":"Degnerstr.","postalCode":"97421","locality":"Schweinfurt","municipality":{"key":"09662000","name":"Schweinfurt","type":"Kreisfreie_Stadt"},"district":{"key":"09662","name":"Schweinfurt","type":"Kreisfreie_Stadt"},"federalState":{"key":"09","name":"Bayern"}},{"name":"Deutschfeldstr.","postalCode":"97422","locality":"Schweinfurt","municipality":{"key":"09662000","name":"Schweinfurt","type":"Kreisfreie_Stadt"},"district":{"key":"09662","name":"Schweinfurt","type":"Kreisfreie_Stadt"},"federalState":{"key":"09","name":"Bayern"}},{"name":"Deutschhöfer Str.","postalCode":"97421","locality":"Schweinfurt","municipality":{"key":"09662000","name":"Schweinfurt","type":"Kreisfreie_Stadt"},"district":{"key":"09662","name":"Schweinfurt","type":"Kreisfreie_Stadt"},"federalState":{"key":"09","name":"Bayern"}},{"name":"Deutschhöfer Str.","postalCode":"97422","locality":"Schweinfurt","municipality":{"key":"09662000","name":"Schweinfurt","type":"Kreisfreie_Stadt"},"district":{"key":"09662","name":"Schweinfurt","type":"Kreisfreie_Stadt"},"federalState":{"key":"09","name":"Bayern"}},{"name":"Dittelbrunner Str.","postalCode":"97422","locality":"Schweinfurt","municipality":{"key":"09662000","name":"Schweinfurt","type":"Kreisfreie_Stadt"},"district":{"key":"09662","name":"Schweinfurt","type":"Kreisfreie_Stadt"},"federalState":{"key":"09","name":"Bayern"}},{"name":"Drosselstr.","postalCode":"97422","locality":"Schweinfurt","municipality":{"key":"09662000","name":"Schweinfurt","type":"Kreisfreie_Stadt"},"district":{"key":"09662","name":"Schweinfurt","type":"Kreisfreie_Stadt"},"federalState":{"key":"09","name":"Bayern"}},{"name":"Ebersbergstr.","postalCode":"97422","locality":"Schweinfurt","municipality":{"key":"09662000","name":"Schweinfurt","type":"Kreisfreie_Stadt"},"district":{"key":"09662","name":"Schweinfurt","type":"Kreisfreie_Stadt"},"federalState":{"key":"09","name":"Bayern"}},{"name":"Ebrachweg","postalCode":"97422","locality":"Schweinfurt","municipality":{"key":"09662000","name":"Schweinfurt","type":"Kreisfreie_Stadt"},"district":{"key":"09662","name":"Schweinfurt","type":"Kreisfreie_Stadt"},"federalState":{"key":"09","name":"Bayern"}},{"name":"Edmund-Habermann-Str.","postalCode":"97422","locality":"Schweinfurt","municipality":{"key":"09662000","name":"Schweinfurt","type":"Kreisfreie_Stadt"},"district":{"key":"09662","name":"Schweinfurt","type":"Kreisfreie_Stadt"},"federalState":{"key":"09","name":"Bayern"}},{"name":"Edmund-Hornung-Str.","postalCode":"97424","locality":"Schweinfurt","municipality":{"key":"09662000","name":"Schweinfurt","type":"Kreisfreie_Stadt"},"district":{"key":"09662","name":"Schweinfurt","type":"Kreisfreie_Stadt"},"federalState":{"key":"09","name":"Bayern"}},{"name":"Eichendorffstr.","postalCode":"97422","locality":"Schweinfurt","municipality":{"key":"09662000","name":"Schweinfurt","type":"Kreisfreie_Stadt"},"district":{"key":"09662","name":"Schweinfurt","type":"Kreisfreie_Stadt"},"federalState":{"key":"09","name":"Bayern"}},{"name":"Eilastr.","postalCode":"97422","locality":"Schweinfurt","municipality":{"key":"09662000","name":"Schweinfurt","type":"Kreisfreie_Stadt"},"district":{"key":"09662","name":"Schweinfurt","type":"Kreisfreie_Stadt"},"federalState":{"key":"09","name":"Bayern"}},{"name":"Einsteinstr.","postalCode":"97424","locality":"Schweinfurt","municipality":{"key":"09662000","name":"Schweinfurt","type":"Kreisfreie_Stadt"},"district":{"key":"09662","name":"Schweinfurt","type":"Kreisfreie_Stadt"},"federalState":{"key":"09","name":"Bayern"}},{"name":"Elsa-Brändström-Str.","postalCode":"97422","locality":"Schweinfurt","municipality":{"key":"09662000","name":"Schweinfurt","type":"Kreisfreie_Stadt"},"district":{"key":"09662","name":"Schweinfurt","type":"Kreisfreie_Stadt"},"federalState":{"key":"09","name":"Bayern"}},{"name":"Elsterstr.","postalCode":"97422","locality":"Schweinfurt","municipality":{"key":"09662000","name":"Schweinfurt","type":"Kreisfreie_Stadt"},"district":{"key":"09662","name":"Schweinfurt","type":"Kreisfreie_Stadt"},"federalState":{"key":"09","name":"Bayern"}},{"name":"Engelbert-Fries-Str.","postalCode":"97424","locality":"Schweinfurt","municipality":{"key":"09662000","name":"Schweinfurt","type":"Kreisfreie_Stadt"},"district":{"key":"09662","name":"Schweinfurt","type":"Kreisfreie_Stadt"},"federalState":{"key":"09","name":"Bayern"}},{"name":"Erich-Kästner-Str.","postalCode":"97422","locality":"Schweinfurt","municipality":{"key":"09662000","name":"Schweinfurt","type":"Kreisfreie_Stadt"},"district":{"key":"09662","name":"Schweinfurt","type":"Kreisfreie_Stadt"},"federalState":{"key":"09","name":"Bayern"}},{"name":"Ernst-Herrmann-Str.","postalCode":"97422","locality":"Schweinfurt","municipality":{"key":"09662000","name":"Schweinfurt","type":"Kreisfreie_Stadt"},"district":{"key":"09662","name":"Schweinfurt","type":"Kreisfreie_Stadt"},"federalState":{"key":"09","name":"Bayern"}},{"name":"Ernst-Reuter-Str.","postalCode":"97424","locality":"Schweinfurt","municipality":{"key":"09662000","name":"Schweinfurt","type":"Kreisfreie_Stadt"},"district":{"key":"09662","name":"Schweinfurt","type":"Kreisfreie_Stadt"},"federalState":{"key":"09","name":"Bayern"}},{"name":"Ernst-Sachs-Str.","postalCode":"97424","locality":"Schweinfurt","municipality":{"key":"09662000","name":"Schweinfurt","type":"Kreisfreie_Stadt"},"district":{"key":"09662","name":"Schweinfurt","type":"Kreisfreie_Stadt"},"federalState":{"key":"09","name":"Bayern"}},{"name":"Eschenweg","postalCode":"97422","locality":"Schweinfurt","municipality":{"key":"09662000","name":"Schweinfurt","type":"Kreisfreie_Stadt"},"district":{"key":"09662","name":"Schweinfurt","type":"Kreisfreie_Stadt"},"federalState":{"key":"09","name":"Bayern"}},{"name":"Euerbacher Str.","postalCode":"97424","locality":"Schweinfurt","municipality":{"key":"09662000","name":"Schweinfurt","type":"Kreisfreie_Stadt"},"district":{"key":"09662","name":"Schweinfurt","type":"Kreisfreie_Stadt"},"federalState":{"key":"09","name":"Bayern"}},{"name":"Europa-Allee","postalCode":"97424","locality":"Schweinfurt","municipality":{"key":"09662000","name":"Schweinfurt","type":"Kreisfreie_Stadt"},"district":{"key":"09662","name":"Schweinfurt","type":"Kreisfreie_Stadt"},"federalState":{"key":"09","name":"Bayern"}},{"name":"Frankenwinheimer Str.","postalCode":"97511","locality":"Lülsfeld","municipality":{"key":"09678153","name":"Lülsfeld","type":"Kreisangehörige_Gemeinde"},"district":{"key":"09678","name":"Schweinfurt","type":"Landkreis"},"federalState":{"key":"09","name":"Bayern"}},{"name":"Gerolzhöfer Str.","postalCode":"97511","locality":"Lülsfeld","municipality":{"key":"09678153","name":"Lülsfeld","type":"Kreisangehörige_Gemeinde"},"district":{"key":"09678","name":"Schweinfurt","type":"Landkreis"},"federalState":{"key":"09","name":"Bayern"}},{"name":"Hauptstr.","postalCode":"97511","locality":"Lülsfeld","municipality":{"key":"09678153","name":"Lülsfeld","type":"Kreisangehörige_Gemeinde"},"district":{"key":"09678","name":"Schweinfurt","type":"Landkreis"},"federalState":{"key":"09","name":"Bayern"}},{"name":"Ignaz-Schön-Str.","postalCode":"97421","locality":"Schweinfurt","municipality":{"key":"09662000","name":"Schweinfurt","type":"Kreisfreie_Stadt"},"district":{"key":"09662","name":"Schweinfurt","type":"Kreisfreie_Stadt"},"federalState":{"key":"09","name":"Bayern"}},{"name":"Ilmenbergstr.","postalCode":"97422","locality":"Schweinfurt","municipality":{"key":"09662000","name":"Schweinfurt","type":"Kreisfreie_Stadt"},"district":{"key":"09662","name":"Schweinfurt","type":"Kreisfreie_Stadt"},"federalState":{"key":"09","name":"Bayern"}},{"name":"Im Grund","postalCode":"97422","locality":"Schweinfurt","municipality":{"key":"09662000","name":"Schweinfurt","type":"Kreisfreie_Stadt"},"district":{"key":"09662","name":"Schweinfurt","type":"Kreisfreie_Stadt"},"federalState":{"key":"09","name":"Bayern"}},{"name":"Im II. Wehr","postalCode":"97424","locality":"Schweinfurt","municipality":{"key":"09662000","name":"Schweinfurt","type":"Kreisfreie_Stadt"},"district":{"key":"09662","name":"Schweinfurt","type":"Kreisfreie_Stadt"},"federalState":{"key":"09","name":"Bayern"}},{"name":"Im I. Wehr","postalCode":"97424","locality":"Schweinfurt","municipality":{"key":"09662000","name":"Schweinfurt","type":"Kreisfreie_Stadt"},"district":{"key":"09662","name":"Schweinfurt","type":"Kreisfreie_Stadt"},"federalState":{"key":"09","name":"Bayern"}},{"name":"Im Steinach","postalCode":"97424","locality":"Schweinfurt","municipality":{"key":"09662000","name":"Schweinfurt","type":"Kreisfreie_Stadt"},"district":{"key":"09662","name":"Schweinfurt","type":"Kreisfreie_Stadt"},"federalState":{"key":"09","name":"Bayern"}},{"name":"Ina-Seidel-Str.","postalCode":"97422","locality":"Schweinfurt","municipality":{"key":"09662000","name":"Schweinfurt","type":"Kreisfreie_Stadt"},"district":{"key":"09662","name":"Schweinfurt","type":"Kreisfreie_Stadt"},"federalState":{"key":"09","name":"Bayern"}},{"name":"In den Maingärten","postalCode":"97422","locality":"Schweinfurt","municipality":{"key":"09662000","name":"Schweinfurt","type":"Kreisfreie_Stadt"},"district":{"key":"09662","name":"Schweinfurt","type":"Kreisfreie_Stadt"},"federalState":{"key":"09","name":"Bayern"}},{"name":"Isi-Huber-Str.","postalCode":"97424","locality":"Schweinfurt","municipality":{"key":"09662000","name":"Schweinfurt","type":"Kreisfreie_Stadt"},"district":{"key":"09662","name":"Schweinfurt","type":"Kreisfreie_Stadt"},"federalState":{"key":"09","name":"Bayern"}},{"name":"Järkendorfer Str.","postalCode":"97511","locality":"Lülsfeld","municipality":{"key":"09678153","name":"Lülsfeld","type":"Kreisangehörige_Gemeinde"},"district":{"key":"09678","name":"Schweinfurt","type":"Landkreis"},"federalState":{"key":"09","name":"Bayern"}},{"name":"Kirchplatz","postalCode":"97511","locality":"Lülsfeld","municipality":{"key":"09678153","name":"Lülsfeld","type":"Kreisangehörige_Gemeinde"},"district":{"key":"09678","name":"Schweinfurt","type":"Landkreis"},"federalState":{"key":"09","name":"Bayern"}},{"name":"Kirchweg","postalCode":"97511","locality":"Lülsfeld","municipality":{"key":"09678153","name":"Lülsfeld","type":"Kreisangehörige_Gemeinde"},"district":{"key":"09678","name":"Schweinfurt","type":"Landkreis"},"federalState":{"key":"09","name":"Bayern"}},{"name":"Landwehr","postalCode":"97424","locality":"Schweinfurt","municipality":{"key":"09662000","name":"Schweinfurt","type":"Kreisfreie_Stadt"},"district":{"key":"09662","name":"Schweinfurt","type":"Kreisfreie_Stadt"},"federalState":{"key":"09","name":"Bayern"}},{"name":"Landwehrstr.","postalCode":"97421","locality":"Schweinfurt","municipality":{"key":"09662000","name":"Schweinfurt","type":"Kreisfreie_Stadt"},"district":{"key":"09662","name":"Schweinfurt","type":"Kreisfreie_Stadt"},"federalState":{"key":"09","name":"Bayern"}},{"name":"Lange Schränke","postalCode":"97422","locality":"Schweinfurt","municipality":{"key":"09662000","name":"Schweinfurt","type":"Kreisfreie_Stadt"},"district":{"key":"09662","name":"Schweinfurt","type":"Kreisfreie_Stadt"},"federalState":{"key":"09","name":"Bayern"}},{"name":"Leibnizstr.","postalCode":"97421","locality":"Schweinfurt","municipality":{"key":"09662000","name":"Schweinfurt","type":"Kreisfreie_Stadt"},"district":{"key":"09662","name":"Schweinfurt","type":"Kreisfreie_Stadt"},"federalState":{"key":"09","name":"Bayern"}},{"name":"Leislerstr.","postalCode":"97422","locality":"Schweinfurt","municipality":{"key":"09662000","name":"Schweinfurt","type":"Kreisfreie_Stadt"},"district":{"key":"09662","name":"Schweinfurt","type":"Kreisfreie_Stadt"},"federalState":{"key":"09","name":"Bayern"}},{"name":"Lessingstr.","postalCode":"97421","locality":"Schweinfurt","municipality":{"key":"09662000","name":"Schweinfurt","type":"Kreisfreie_Stadt"},"district":{"key":"09662","name":"Schweinfurt","type":"Kreisfreie_Stadt"},"federalState":{"key":"09","name":"Bayern"}},{"name":"Lettenleite","postalCode":"97422","locality":"Schweinfurt","municipality":{"key":"09662000","name":"Schweinfurt","type":"Kreisfreie_Stadt"},"district":{"key":"09662","name":"Schweinfurt","type":"Kreisfreie_Stadt"},"federalState":{"key":"09","name":"Bayern"}},{"name":"Liegnitzstr.","postalCode":"97424","locality":"Schweinfurt","municipality":{"key":"09662000","name":"Schweinfurt","type":"Kreisfreie_Stadt"},"district":{"key":"09662","name":"Schweinfurt","type":"Kreisfreie_Stadt"},"federalState":{"key":"09","name":"Bayern"}},{"name":"Lindenbrunnenweg","postalCode":"97422","locality":"Schweinfurt","municipality":{"key":"09662000","name":"Schweinfurt","type":"Kreisfreie_Stadt"},"district":{"key":"09662","name":"Schweinfurt","type":"Kreisfreie_Stadt"},"federalState":{"key":"09","name":"Bayern"}},{"name":"Lindenstr.","postalCode":"97424","locality":"Schweinfurt","municipality":{"key":"09662000","name":"Schweinfurt","type":"Kreisfreie_Stadt"},"district":{"key":"09662","name":"Schweinfurt","type":"Kreisfreie_Stadt"},"federalState":{"key":"09","name":"Bayern"}},{"name":"Linsengasse","postalCode":"97421","locality":"Schweinfurt","municipality":{"key":"09662000","name":"Schweinfurt","type":"Kreisfreie_Stadt"},"district":{"key":"09662","name":"Schweinfurt","type":"Kreisfreie_Stadt"},"federalState":{"key":"09","name":"Bayern"}},{"name":"Lortzingstr.","postalCode":"97421","locality":"Schweinfurt","municipality":{"key":"09662000","name":"Schweinfurt","type":"Kreisfreie_Stadt"},"district":{"key":"09662","name":"Schweinfurt","type":"Kreisfreie_Stadt"},"federalState":{"key":"09","name":"Bayern"}},{"name":"Lucas-Cranach-Str.","postalCode":"97422","locality":"Schweinfurt","municipality":{"key":"09662000","name":"Schweinfurt","type":"Kreisfreie_Stadt"},"district":{"key":"09662","name":"Schweinfurt","type":"Kreisfreie_Stadt"},"federalState":{"key":"09","name":"Bayern"}},{"name":"Lüderitzstr.","postalCode":"97422","locality":"Schweinfurt","municipality":{"key":"09662000","name":"Schweinfurt","type":"Kreisfreie_Stadt"},"district":{"key":"09662","name":"Schweinfurt","type":"Kreisfreie_Stadt"},"federalState":{"key":"09","name":"Bayern"}},{"name":"Ludwig-Erhard-Str.","postalCode":"97422","locality":"Schweinfurt","municipality":{"key":"09662000","name":"Schweinfurt","type":"Kreisfreie_Stadt"},"district":{"key":"09662","name":"Schweinfurt","type":"Kreisfreie_Stadt"},"federalState":{"key":"09","name":"Bayern"}},{"name":"Ludwig-Krug-Str.","postalCode":"97424","locality":"Schweinfurt","municipality":{"key":"09662000","name":"Schweinfurt","type":"Kreisfreie_Stadt"},"district":{"key":"09662","name":"Schweinfurt","type":"Kreisfreie_Stadt"},"federalState":{"key":"09","name":"Bayern"}},{"name":"Ludwig-Richter-Weg","postalCode":"97422","locality":"Schweinfurt","municipality":{"key":"09662000","name":"Schweinfurt","type":"Kreisfreie_Stadt"},"district":{"key":"09662","name":"Schweinfurt","type":"Kreisfreie_Stadt"},"federalState":{"key":"09","name":"Bayern"}},{"name":"Ludwigsbrücke","postalCode":"97424","locality":"Schweinfurt","municipality":{"key":"09662000","name":"Schweinfurt","type":"Kreisfreie_Stadt"},"district":{"key":"09662","name":"Schweinfurt","type":"Kreisfreie_Stadt"},"federalState":{"key":"09","name":"Bayern"}},{"name":"Ludwigstr.","postalCode":"97421","locality":"Schweinfurt","municipality":{"key":"09662000","name":"Schweinfurt","type":"Kreisfreie_Stadt"},"district":{"key":"09662","name":"Schweinfurt","type":"Kreisfreie_Stadt"},"federalState":{"key":"09","name":"Bayern"}},{"name":"Ludwig-Thoma-Str.","postalCode":"97422","locality":"Schweinfurt","municipality":{"key":"09662000","name":"Schweinfurt","type":"Kreisfreie_Stadt"},"district":{"key":"09662","name":"Schweinfurt","type":"Kreisfreie_Stadt"},"federalState":{"key":"09","name":"Bayern"}},{"name":"Luitpoldstr.","postalCode":"97421","locality":"Schweinfurt","municipality":{"key":"09662000","name":"Schweinfurt","type":"Kreisfreie_Stadt"},"district":{"key":"09662","name":"Schweinfurt","type":"Kreisfreie_Stadt"},"federalState":{"key":"09","name":"Bayern"}},{"name":"Luitpoldstr.","postalCode":"97424","locality":"Schweinfurt","municipality":{"key":"09662000","name":"Schweinfurt","type":"Kreisfreie_Stadt"},"district":{"key":"09662","name":"Schweinfurt","type":"Kreisfreie_Stadt"},"federalState":{"key":"09","name":"Bayern"}},{"name":"Mühlweg","postalCode":"97511","locality":"Lülsfeld","municipality":{"key":"09678153","name":"Lülsfeld","type":"Kreisangehörige_Gemeinde"},"district":{"key":"09678","name":"Schweinfurt","type":"Landkreis"},"federalState":{"key":"09","name":"Bayern"}},{"name":"Nachtigallenweg","postalCode":"97422","locality":"Schweinfurt","municipality":{"key":"09662000","name":"Schweinfurt","type":"Kreisfreie_Stadt"},"district":{"key":"09662","name":"Schweinfurt","type":"Kreisfreie_Stadt"},"federalState":{"key":"09","name":"Bayern"}},{"name":"Nelly-Sachs-Str.","postalCode":"97422","locality":"Schweinfurt","municipality":{"key":"09662000","name":"Schweinfurt","type":"Kreisfreie_Stadt"},"district":{"key":"09662","name":"Schweinfurt","type":"Kreisfreie_Stadt"},"federalState":{"key":"09","name":"Bayern"}},{"name":"Neue Gasse","postalCode":"97421","locality":"Schweinfurt","municipality":{"key":"09662000","name":"Schweinfurt","type":"Kreisfreie_Stadt"},"district":{"key":"09662","name":"Schweinfurt","type":"Kreisfreie_Stadt"},"federalState":{"key":"09","name":"Bayern"}},{"name":"Neue Leite","postalCode":"97422","locality":"Schweinfurt","municipality":{"key":"09662000","name":"Schweinfurt","type":"Kreisfreie_Stadt"},"district":{"key":"09662","name":"Schweinfurt","type":"Kreisfreie_Stadt"},"federalState":{"key":"09","name":"Bayern"}},{"name":"Neuschwangerstr.","postalCode":"97422","locality":"Schweinfurt","municipality":{"key":"09662000","name":"Schweinfurt","type":"Kreisfreie_Stadt"},"district":{"key":"09662","name":"Schweinfurt","type":"Kreisfreie_Stadt"},"federalState":{"key":"09","name":"Bayern"}},{"name":"Neutorstr.","postalCode":"97421","locality":"Schweinfurt","municipality":{"key":"09662000","name":"Schweinfurt","type":"Kreisfreie_Stadt"},"district":{"key":"09662","name":"Schweinfurt","type":"Kreisfreie_Stadt"},"federalState":{"key":"09","name":"Bayern"}},{"name":"Niederwerrner Str.","postalCode":"97421","locality":"Schweinfurt","municipality":{"key":"09662000","name":"Schweinfurt","type":"Kreisfreie_Stadt"},"district":{"key":"09662","name":"Schweinfurt","type":"Kreisfreie_Stadt"},"federalState":{"key":"09","name":"Bayern"}},{"name":"Niederwerrner Str.","postalCode":"97424","locality":"Schweinfurt","municipality":{"key":"09662000","name":"Schweinfurt","type":"Kreisfreie_Stadt"},"district":{"key":"09662","name":"Schweinfurt","type":"Kreisfreie_Stadt"},"federalState":{"key":"09","name":"Bayern"}},{"name":"Nikolaus-Hofmann-Str.","postalCode":"97421","locality":"Schweinfurt","municipality":{"key":"09662000","name":"Schweinfurt","type":"Kreisfreie_Stadt"},"district":{"key":"09662","name":"Schweinfurt","type":"Kreisfreie_Stadt"},"federalState":{"key":"09","name":"Bayern"}},{"name":"Nordendstr.","postalCode":"97422","locality":"Schweinfurt","municipality":{"key":"09662000","name":"Schweinfurt","type":"Kreisfreie_Stadt"},"district":{"key":"09662","name":"Schweinfurt","type":"Kreisfreie_Stadt"},"federalState":{"key":"09","name":"Bayern"}},{"name":"Nußbergstr.","postalCode":"97422","locality":"Schweinfurt","municipality":{"key":"09662000","name":"Schweinfurt","type":"Kreisfreie_Stadt"},"district":{"key":"09662","name":"Schweinfurt","type":"Kreisfreie_Stadt"},"federalState":{"key":"09","name":"Bayern"}},{"name":"Nußgasse","postalCode":"97421","locality":"Schweinfurt","municipality":{"key":"09662000","name":"Schweinfurt","type":"Kreisfreie_Stadt"},"district":{"key":"09662","name":"Schweinfurt","type":"Kreisfreie_Stadt"},"federalState":{"key":"09","name":"Bayern"}},{"name":"Nutzweg","postalCode":"97424","locality":"Schweinfurt","municipality":{"key":"09662000","name":"Schweinfurt","type":"Kreisfreie_Stadt"},"district":{"key":"09662","name":"Schweinfurt","type":"Kreisfreie_Stadt"},"federalState":{"key":"09","name":"Bayern"}},{"name":"Obere Str.","postalCode":"97421","locality":"Schweinfurt","municipality":{"key":"09662000","name":"Schweinfurt","type":"Kreisfreie_Stadt"},"district":{"key":"09662","name":"Schweinfurt","type":"Kreisfreie_Stadt"},"federalState":{"key":"09","name":"Bayern"}},{"name":"Oskar-von-Miller-Str.","postalCode":"97424","locality":"Schweinfurt","municipality":{"key":"09662000","name":"Schweinfurt","type":"Kreisfreie_Stadt"},"district":{"key":"09662","name":"Schweinfurt","type":"Kreisfreie_Stadt"},"federalState":{"key":"09","name":"Bayern"}},{"name":"Osterlänge","postalCode":"97421","locality":"Schweinfurt","municipality":{"key":"09662000","name":"Schweinfurt","type":"Kreisfreie_Stadt"},"district":{"key":"09662","name":"Schweinfurt","type":"Kreisfreie_Stadt"},"federalState":{"key":"09","name":"Bayern"}},{"name":"Ottostr.","postalCode":"97421","locality":"Schweinfurt","municipality":{"key":"09662000","name":"Schweinfurt","type":"Kreisfreie_Stadt"},"district":{"key":"09662","name":"Schweinfurt","type":"Kreisfreie_Stadt"},"federalState":{"key":"09","name":"Bayern"}},{"name":"Paul-Gerhardt-Str.","postalCode":"97421","locality":"Schweinfurt","municipality":{"key":"09662000","name":"Schweinfurt","type":"Kreisfreie_Stadt"},"district":{"key":"09662","name":"Schweinfurt","type":"Kreisfreie_Stadt"},"federalState":{"key":"09","name":"Bayern"}},{"name":"Paul-Gerhardt-Str.","postalCode":"97424","locality":"Schweinfurt","municipality":{"key":"09662000","name":"Schweinfurt","type":"Kreisfreie_Stadt"},"district":{"key":"09662","name":"Schweinfurt","type":"Kreisfreie_Stadt"},"federalState":{"key":"09","name":"Bayern"}},{"name":"Paul-Klee-Str.","postalCode":"97422","locality":"Schweinfurt","municipality":{"key":"09662000","name":"Schweinfurt","type":"Kreisfreie_Stadt"},"district":{"key":"09662","name":"Schweinfurt","type":"Kreisfreie_Stadt"},"federalState":{"key":"09","name":"Bayern"}},{"name":"Paul-Rosa-Str.","postalCode":"97422","locality":"Schweinfurt","municipality":{"key":"09662000","name":"Schweinfurt","type":"Kreisfreie_Stadt"},"district":{"key":"09662","name":"Schweinfurt","type":"Kreisfreie_Stadt"},"federalState":{"key":"09","name":"Bayern"}},{"name":"Paul-Rummert-Ring","postalCode":"97421","locality":"Schweinfurt","municipality":{"key":"09662000","name":"Schweinfurt","type":"Kreisfreie_Stadt"},"district":{"key":"09662","name":"Schweinfurt","type":"Kreisfreie_Stadt"},"federalState":{"key":"09","name":"Bayern"}},{"name":"Pestalozzistr.","postalCode":"97421","locality":"Schweinfurt","municipality":{"key":"09662000","name":"Schweinfurt","type":"Kreisfreie_Stadt"},"district":{"key":"09662","name":"Schweinfurt","type":"Kreisfreie_Stadt"},"federalState":{"key":"09","name":"Bayern"}},{"name":"Peter-Krammer-Str.","postalCode":"97424","locality":"Schweinfurt","municipality":{"key":"09662000","name":"Schweinfurt","type":"Kreisfreie_Stadt"},"district":{"key":"09662","name":"Schweinfurt","type":"Kreisfreie_Stadt"},"federalState":{"key":"09","name":"Bayern"}},{"name":"Pfarrgasse","postalCode":"97424","locality":"Schweinfurt","municipality":{"key":"09662000","name":"Schweinfurt","type":"Kreisfreie_Stadt"},"district":{"key":"09662","name":"Schweinfurt","type":"Kreisfreie_Stadt"},"federalState":{"key":"09","name":"Bayern"}},{"name":"Pfarrgraben","postalCode":"97424","locality":"Schweinfurt","municipality":{"key":"09662000","name":"Schweinfurt","type":"Kreisfreie_Stadt"},"district":{"key":"09662","name":"Schweinfurt","type":"Kreisfreie_Stadt"},"federalState":{"key":"09","name":"Bayern"}},{"name":"Pfister-Park","postalCode":"97424","locality":"Schweinfurt","municipality":{"key":"09662000","name":"Schweinfurt","type":"Kreisfreie_Stadt"},"district":{"key":"09662","name":"Schweinfurt","type":"Kreisfreie_Stadt"},"federalState":{"key":"09","name":"Bayern"}},{"name":"Pfisterplatz","postalCode":"97424","locality":"Schweinfurt","municipality":{"key":"09662000","name":"Schweinfurt","type":"Kreisfreie_Stadt"},"district":{"key":"09662","name":"Schweinfurt","type":"Kreisfreie_Stadt"},"federalState":{"key":"09","name":"Bayern"}},{"name":"Philosophengang","postalCode":"97421","locality":"Schweinfurt","municipality":{"key":"09662000","name":"Schweinfurt","type":"Kreisfreie_Stadt"},"district":{"key":"09662","name":"Schweinfurt","type":"Kreisfreie_Stadt"},"federalState":{"key":"09","name":"Bayern"}},{"name":"Pirolweg","postalCode":"97422","locality":"Schweinfurt","municipality":{"key":"09662000","name":"Schweinfurt","type":"Kreisfreie_Stadt"},"district":{"key":"09662","name":"Schweinfurt","type":"Kreisfreie_Stadt"},"federalState":{"key":"09","name":"Bayern"}},{"name":"Quellenweg","postalCode":"97422","locality":"Schweinfurt","municipality":{"key":"09662000","name":"Schweinfurt","type":"Kreisfreie_Stadt"},"district":{"key":"09662","name":"Schweinfurt","type":"Kreisfreie_Stadt"},"federalState":{"key":"09","name":"Bayern"}},{"name":"Rimbacher Str.","postalCode":"97511","locality":"Lülsfeld","municipality":{"key":"09678153","name":"Lülsfeld","type":"Kreisangehörige_Gemeinde"},"district":{"key":"09678","name":"Schweinfurt","type":"Landkreis"},"federalState":{"key":"09","name":"Bayern"}},{"name":"Schallfelder Str.","postalCode":"97511","locality":"Lülsfeld","municipality":{"key":"09678153","name":"Lülsfeld","type":"Kreisangehörige_Gemeinde"},"district":{"key":"09678","name":"Schweinfurt","type":"Landkreis"},"federalState":{"key":"09","name":"Bayern"}},{"name":"Seeweg","postalCode":"97511","locality":"Lülsfeld","municipality":{"key":"09678153","name":"Lülsfeld","type":"Kreisangehörige_Gemeinde"},"district":{"key":"09678","name":"Schweinfurt","type":"Landkreis"},"federalState":{"key":"09","name":"Bayern"}},{"name":"Tannenweg","postalCode":"97422","locality":"Schweinfurt","municipality":{"key":"09662000","name":"Schweinfurt","type":"Kreisfreie_Stadt"},"district":{"key":"09662","name":"Schweinfurt","type":"Kreisfreie_Stadt"},"federalState":{"key":"09","name":"Bayern"}},{"name":"Tauberweg","postalCode":"97422","locality":"Schweinfurt","municipality":{"key":"09662000","name":"Schweinfurt","type":"Kreisfreie_Stadt"},"district":{"key":"09662","name":"Schweinfurt","type":"Kreisfreie_Stadt"},"federalState":{"key":"09","name":"Bayern"}},{"name":"Teilberg","postalCode":"97422","locality":"Schweinfurt","municipality":{"key":"09662000","name":"Schweinfurt","type":"Kreisfreie_Stadt"},"district":{"key":"09662","name":"Schweinfurt","type":"Kreisfreie_Stadt"},"federalState":{"key":"09","name":"Bayern"}},{"name":"Texasstr.","postalCode":"97424","locality":"Schweinfurt","municipality":{"key":"09662000","name":"Schweinfurt","type":"Kreisfreie_Stadt"},"district":{"key":"09662","name":"Schweinfurt","type":"Kreisfreie_Stadt"},"federalState":{"key":"09","name":"Bayern"}},{"name":"Theodor-Fischer-Platz","postalCode":"97421","locality":"Schweinfurt","municipality":{"key":"09662000","name":"Schweinfurt","type":"Kreisfreie_Stadt"},"district":{"key":"09662","name":"Schweinfurt","type":"Kreisfreie_Stadt"},"federalState":{"key":"09","name":"Bayern"}},{"name":"Theodor-Heuss-Str.","postalCode":"97422","locality":"Schweinfurt","municipality":{"key":"09662000","name":"Schweinfurt","type":"Kreisfreie_Stadt"},"district":{"key":"09662","name":"Schweinfurt","type":"Kreisfreie_Stadt"},"federalState":{"key":"09","name":"Bayern"}},{"name":"Theresienstr.","postalCode":"97421","locality":"Schweinfurt","municipality":{"key":"09662000","name":"Schweinfurt","type":"Kreisfreie_Stadt"},"district":{"key":"09662","name":"Schweinfurt","type":"Kreisfreie_Stadt"},"federalState":{"key":"09","name":"Bayern"}},{"name":"Theuerbrünnleinsweg","postalCode":"97422","locality":"Schweinfurt","municipality":{"key":"09662000","name":"Schweinfurt","type":"Kreisfreie_Stadt"},"district":{"key":"09662","name":"Schweinfurt","type":"Kreisfreie_Stadt"},"federalState":{"key":"09","name":"Bayern"}},{"name":"Thomas-Mann-Str.","postalCode":"97422","locality":"Schweinfurt","municipality":{"key":"09662000","name":"Schweinfurt","type":"Kreisfreie_Stadt"},"district":{"key":"09662","name":"Schweinfurt","type":"Kreisfreie_Stadt"},"federalState":{"key":"09","name":"Bayern"}},{"name":"Thomas-Mann-Str.","postalCode":"97424","locality":"Schweinfurt","municipality":{"key":"09662000","name":"Schweinfurt","type":"Kreisfreie_Stadt"},"district":{"key":"09662","name":"Schweinfurt","type":"Kreisfreie_Stadt"},"federalState":{"key":"09","name":"Bayern"}},{"name":"Thulbaweg","postalCode":"97422","locality":"Schweinfurt","municipality":{"key":"09662000","name":"Schweinfurt","type":"Kreisfreie_Stadt"},"district":{"key":"09662","name":"Schweinfurt","type":"Kreisfreie_Stadt"},"federalState":{"key":"09","name":"Bayern"}},{"name":"Tilman-Riemenschneider-Str.","postalCode":"97422","locality":"Schweinfurt","municipality":{"key":"09662000","name":"Schweinfurt","type":"Kreisfreie_Stadt"},"district":{"key":"09662","name":"Schweinfurt","type":"Kreisfreie_Stadt"},"federalState":{"key":"09","name":"Bayern"}},{"name":"Tilsitstr.","postalCode":"97424","locality":"Schweinfurt","municipality":{"key":"09662000","name":"Schweinfurt","type":"Kreisfreie_Stadt"},"district":{"key":"09662","name":"Schweinfurt","type":"Kreisfreie_Stadt"},"federalState":{"key":"09","name":"Bayern"}},{"name":"Turnierweg","postalCode":"97422","locality":"Schweinfurt","municipality":{"key":"09662000","name":"Schweinfurt","type":"Kreisfreie_Stadt"},"district":{"key":"09662","name":"Schweinfurt","type":"Kreisfreie_Stadt"},"federalState":{"key":"09","name":"Bayern"}},{"name":"Uhlandstr.","postalCode":"97421","locality":"Schweinfurt","municipality":{"key":"09662000","name":"Schweinfurt","type":"Kreisfreie_Stadt"},"district":{"key":"09662","name":"Schweinfurt","type":"Kreisfreie_Stadt"},"federalState":{"key":"09","name":"Bayern"}},{"name":"Ulmenweg","postalCode":"97422","locality":"Schweinfurt","municipality":{"key":"09662000","name":"Schweinfurt","type":"Kreisfreie_Stadt"},"district":{"key":"09662","name":"Schweinfurt","type":"Kreisfreie_Stadt"},"federalState":{"key":"09","name":"Bayern"}},{"name":"Unterer Kiliansberg","postalCode":"97422","locality":"Schweinfurt","municipality":{"key":"09662000","name":"Schweinfurt","type":"Kreisfreie_Stadt"},"district":{"key":"09662","name":"Schweinfurt","type":"Kreisfreie_Stadt"},"federalState":{"key":"09","name":"Bayern"}},{"name":"Unterer Kleinflürleinsweg","postalCode":"97424","locality":"Schweinfurt","municipality":{"key":"09662000","name":"Schweinfurt","type":"Kreisfreie_Stadt"},"district":{"key":"09662","name":"Schweinfurt","type":"Kreisfreie_Stadt"},"federalState":{"key":"09","name":"Bayern"}},{"name":"Veit-Stoß-Str.","postalCode":"97422","locality":"Schweinfurt","municipality":{"key":"09662000","name":"Schweinfurt","type":"Kreisfreie_Stadt"},"district":{"key":"09662","name":"Schweinfurt","type":"Kreisfreie_Stadt"},"federalState":{"key":"09","name":"Bayern"}},{"name":"Voitstr.","postalCode":"97422","locality":"Schweinfurt","municipality":{"key":"09662000","name":"Schweinfurt","type":"Kreisfreie_Stadt"},"district":{"key":"09662","name":"Schweinfurt","type":"Kreisfreie_Stadt"},"federalState":{"key":"09","name":"Bayern"}},{"name":"Vorderer Kindleinsweg","postalCode":"97424","locality":"Schweinfurt","municipality":{"key":"09662000","name":"Schweinfurt","type":"Kreisfreie_Stadt"},"district":{"key":"09662","name":"Schweinfurt","type":"Kreisfreie_Stadt"},"federalState":{"key":"09","name":"Bayern"}},{"name":"Walter-Flex-Str.","postalCode":"97421","locality":"Schweinfurt","municipality":{"key":"09662000","name":"Schweinfurt","type":"Kreisfreie_Stadt"},"district":{"key":"09662","name":"Schweinfurt","type":"Kreisfreie_Stadt"},"federalState":{"key":"09","name":"Bayern"}},{"name":"Walther-von-der-Vogelweide-Str.","postalCode":"97422","locality":"Schweinfurt","municipality":{"key":"09662000","name":"Schweinfurt","type":"Kreisfreie_Stadt"},"district":{"key":"09662","name":"Schweinfurt","type":"Kreisfreie_Stadt"},"federalState":{"key":"09","name":"Bayern"}},{"name":"Wehranlagen","postalCode":"97424","locality":"Schweinfurt","municipality":{"key":"09662000","name":"Schweinfurt","type":"Kreisfreie_Stadt"},"district":{"key":"09662","name":"Schweinfurt","type":"Kreisfreie_Stadt"},"federalState":{"key":"09","name":"Bayern"}},{"name":"Weingartenweg","postalCode":"97422","locality":"Schweinfurt","municipality":{"key":"09662000","name":"Schweinfurt","type":"Kreisfreie_Stadt"},"district":{"key":"09662","name":"Schweinfurt","type":"Kreisfreie_Stadt"},"federalState":{"key":"09","name":"Bayern"}},{"name":"Weisachweg","postalCode":"97422","locality":"Schweinfurt","municipality":{"key":"09662000","name":"Schweinfurt","type":"Kreisfreie_Stadt"},"district":{"key":"09662","name":"Schweinfurt","type":"Kreisfreie_Stadt"},"federalState":{"key":"09","name":"Bayern"}},{"name":"Weißmainweg","postalCode":"97422","locality":"Schweinfurt","municipality":{"key":"09662000","name":"Schweinfurt","type":"Kreisfreie_Stadt"},"district":{"key":"09662","name":"Schweinfurt","type":"Kreisfreie_Stadt"},"federalState":{"key":"09","name":"Bayern"}},{"name":"Wenkheimer Gäßchen","postalCode":"97421","locality":"Schweinfurt","municipality":{"key":"09662000","name":"Schweinfurt","type":"Kreisfreie_Stadt"},"district":{"key":"09662","name":"Schweinfurt","type":"Kreisfreie_Stadt"},"federalState":{"key":"09","name":"Bayern"}},{"name":"Werkstr.","postalCode":"97424","locality":"Schweinfurt","municipality":{"key":"09662000","name":"Schweinfurt","type":"Kreisfreie_Stadt"},"district":{"key":"09662","name":"Schweinfurt","type":"Kreisfreie_Stadt"},"federalState":{"key":"09","name":"Bayern"}},{"name":"Wernweg","postalCode":"97424","locality":"Schweinfurt","municipality":{"key":"09662000","name":"Schweinfurt","type":"Kreisfreie_Stadt"},"district":{"key":"09662","name":"Schweinfurt","type":"Kreisfreie_Stadt"},"federalState":{"key":"09","name":"Bayern"}},{"name":"Wiesengasse","postalCode":"97424","locality":"Schweinfurt","municipality":{"key":"09662000","name":"Schweinfurt","type":"Kreisfreie_Stadt"},"district":{"key":"09662","name":"Schweinfurt","type":"Kreisfreie_Stadt"},"federalState":{"key":"09","name":"Bayern"}},{"name":"Wildbergstr.","postalCode":"97422","locality":"Schweinfurt","municipality":{"key":"09662000","name":"Schweinfurt","type":"Kreisfreie_Stadt"},"district":{"key":"09662","name":"Schweinfurt","type":"Kreisfreie_Stadt"},"federalState":{"key":"09","name":"Bayern"}},{"name":"Wildpark an den Eichen","postalCode":"97422","locality":"Schweinfurt","municipality":{"key":"09662000","name":"Schweinfurt","type":"Kreisfreie_Stadt"},"district":{"key":"09662","name":"Schweinfurt","type":"Kreisfreie_Stadt"},"federalState":{"key":"09","name":"Bayern"}},{"name":"Wilhelm-Bechert-Str.","postalCode":"97424","locality":"Schweinfurt","municipality":{"key":"09662000","name":"Schweinfurt","type":"Kreisfreie_Stadt"},"district":{"key":"09662","name":"Schweinfurt","type":"Kreisfreie_Stadt"},"federalState":{"key":"09","name":"Bayern"}},{"name":"Wilhelm-Busch-Str.","postalCode":"97424","locality":"Schweinfurt","municipality":{"key":"09662000","name":"Schweinfurt","type":"Kreisfreie_Stadt"},"district":{"key":"09662","name":"Schweinfurt","type":"Kreisfreie_Stadt"},"federalState":{"key":"09","name":"Bayern"}},{"name":"Wilhelm-Georg-Str.","postalCode":"97424","locality":"Schweinfurt","municipality":{"key":"09662000","name":"Schweinfurt","type":"Kreisfreie_Stadt"},"district":{"key":"09662","name":"Schweinfurt","type":"Kreisfreie_Stadt"},"federalState":{"key":"09","name":"Bayern"}},{"name":"Wilhelm-Höpflinger-Str.","postalCode":"97424","locality":"Schweinfurt","municipality":{"key":"09662000","name":"Schweinfurt","type":"Kreisfreie_Stadt"},"district":{"key":"09662","name":"Schweinfurt","type":"Kreisfreie_Stadt"},"federalState":{"key":"09","name":"Bayern"}},{"name":"Wilhelm-Kohlhoff-Str.","postalCode":"97424","locality":"Schweinfurt","municipality":{"key":"09662000","name":"Schweinfurt","type":"Kreisfreie_Stadt"},"district":{"key":"09662","name":"Schweinfurt","type":"Kreisfreie_Stadt"},"federalState":{"key":"09","name":"Bayern"}},{"name":"Wilhelm-Leibl-Weg","postalCode":"97422","locality":"Schweinfurt","municipality":{"key":"09662000","name":"Schweinfurt","type":"Kreisfreie_Stadt"},"district":{"key":"09662","name":"Schweinfurt","type":"Kreisfreie_Stadt"},"federalState":{"key":"09","name":"Bayern"}},{"name":"Wilhelm-Leuschner-Str.","postalCode":"97421","locality":"Schweinfurt","municipality":{"key":"09662000","name":"Schweinfurt","type":"Kreisfreie_Stadt"},"district":{"key":"09662","name":"Schweinfurt","type":"Kreisfreie_Stadt"},"federalState":{"key":"09","name":"Bayern"}},{"name":"Wilhelmstr.","postalCode":"97421","locality":"Schweinfurt","municipality":{"key":"09662000","name":"Schweinfurt","type":"Kreisfreie_Stadt"},"district":{"key":"09662","name":"Schweinfurt","type":"Kreisfreie_Stadt"},"federalState":{"key":"09","name":"Bayern"}},{"name":"Wilhelm-Zinn-Str.","postalCode":"97424","locality":"Schweinfurt","municipality":{"key":"09662000","name":"Schweinfurt","type":"Kreisfreie_Stadt"},"district":{"key":"09662","name":"Schweinfurt","type":"Kreisfreie_Stadt"},"federalState":{"key":"09","name":"Bayern"}},{"name":"Willi-Kaidel-Str.","postalCode":"97424","locality":"Schweinfurt","municipality":{"key":"09662000","name":"Schweinfurt","type":"Kreisfreie_Stadt"},"district":{"key":"09662","name":"Schweinfurt","type":"Kreisfreie_Stadt"},"federalState":{"key":"09","name":"Bayern"}},{"name":"Willstr.","postalCode":"97422","locality":"Schweinfurt","municipality":{"key":"09662000","name":"Schweinfurt","type":"Kreisfreie_Stadt"},"district":{"key":"09662","name":"Schweinfurt","type":"Kreisfreie_Stadt"},"federalState":{"key":"09","name":"Bayern"}},{"name":"Willy-Brandt-Str.","postalCode":"97422","locality":"Schweinfurt","municipality":{"key":"09662000","name":"Schweinfurt","type":"Kreisfreie_Stadt"},"district":{"key":"09662","name":"Schweinfurt","type":"Kreisfreie_Stadt"},"federalState":{"key":"09","name":"Bayern"}},{"name":"Wingertstr.","postalCode":"97422","locality":"Schweinfurt","municipality":{"key":"09662000","name":"Schweinfurt","type":"Kreisfreie_Stadt"},"district":{"key":"09662","name":"Schweinfurt","type":"Kreisfreie_Stadt"},"federalState":{"key":"09","name":"Bayern"}},{"name":"Wirsingstr.","postalCode":"97424","locality":"Schweinfurt","municipality":{"key":"09662000","name":"Schweinfurt","type":"Kreisfreie_Stadt"},"district":{"key":"09662","name":"Schweinfurt","type":"Kreisfreie_Stadt"},"federalState":{"key":"09","name":"Bayern"}},{"name":"Wohlfahrtstr.","postalCode":"97424","locality":"Schweinfurt","municipality":{"key":"09662000","name":"Schweinfurt","type":"Kreisfreie_Stadt"},"district":{"key":"09662","name":"Schweinfurt","type":"Kreisfreie_Stadt"},"federalState":{"key":"09","name":"Bayern"}},{"name":"Wolfsgasse","postalCode":"97421","locality":"Schweinfurt","municipality":{"key":"09662000","name":"Schweinfurt","type":"Kreisfreie_Stadt"},"district":{"key":"09662","name":"Schweinfurt","type":"Kreisfreie_Stadt"},"federalState":{"key":"09","name":"Bayern"}},{"name":"Wörnitzweg","postalCode":"97422","locality":"Schweinfurt","municipality":{"key":"09662000","name":"Schweinfurt","type":"Kreisfreie_Stadt"},"district":{"key":"09662","name":"Schweinfurt","type":"Kreisfreie_Stadt"},"federalState":{"key":"09","name":"Bayern"}},{"name":"Würzburger Str.","postalCode":"97424","locality":"Schweinfurt","municipality":{"key":"09662000","name":"Schweinfurt","type":"Kreisfreie_Stadt"},"district":{"key":"09662","name":"Schweinfurt","type":"Kreisfreie_Stadt"},"federalState":{"key":"09","name":"Bayern"}},{"name":"Wüstenfeldstr.","postalCode":"97424","locality":"Schweinfurt","municipality":{"key":"09662000","name":"Schweinfurt","type":"Kreisfreie_Stadt"},"district":{"key":"09662","name":"Schweinfurt","type":"Kreisfreie_Stadt"},"federalState":{"key":"09","name":"Bayern"}},{"name":"Zabelsteinstr.","postalCode":"97422","locality":"Schweinfurt","municipality":{"key":"09662000","name":"Schweinfurt","type":"Kreisfreie_Stadt"},"district":{"key":"09662","name":"Schweinfurt","type":"Kreisfreie_Stadt"},"federalState":{"key":"09","name":"Bayern"}},{"name":"Zehntstr.","postalCode":"97421","locality":"Schweinfurt","municipality":{"key":"09662000","name":"Schweinfurt","type":"Kreisfreie_Stadt"},"district":{"key":"09662","name":"Schweinfurt","type":"Kreisfreie_Stadt"},"federalState":{"key":"09","name":"Bayern"}},{"name":"Zeisigstr.","postalCode":"97422","locality":"Schweinfurt","municipality":{"key":"09662000","name":"Schweinfurt","type":"Kreisfreie_Stadt"},"district":{"key":"09662","name":"Schweinfurt","type":"Kreisfreie_Stadt"},"federalState":{"key":"09","name":"Bayern"}},{"name":"Zeller Str.","postalCode":"97422","locality":"Schweinfurt","municipality":{"key":"09662000","name":"Schweinfurt","type":"Kreisfreie_Stadt"},"district":{"key":"09662","name":"Schweinfurt","type":"Kreisfreie_Stadt"},"federalState":{"key":"09","name":"Bayern"}},{"name":"Zeppelinstr.","postalCode":"97424","locality":"Schweinfurt","municipality":{"key":"09662000","name":"Schweinfurt","type":"Kreisfreie_Stadt"},"district":{"key":"09662","name":"Schweinfurt","type":"Kreisfreie_Stadt"},"federalState":{"key":"09","name":"Bayern"}},{"name":"Zigeunerlandwehr","postalCode":"97424","locality":"Schweinfurt","municipality":{"key":"09662000","name":"Schweinfurt","type":"Kreisfreie_Stadt"},"district":{"key":"09662","name":"Schweinfurt","type":"Kreisfreie_Stadt"},"federalState":{"key":"09","name":"Bayern"}},{"name":"Zürch","postalCode":"97421","locality":"Schweinfurt","municipality":{"key":"09662000","name":"Schweinfurt","type":"Kreisfreie_Stadt"},"district":{"key":"09662","name":"Schweinfurt","type":"Kreisfreie_Stadt"},"federalState":{"key":"09","name":"Bayern"}},{"name":"Zur Hölle","postalCode":"97422","locality":"Schweinfurt","municipality":{"key":"09662000","name":"Schweinfurt","type":"Kreisfreie_Stadt"},"district":{"key":"09662","name":"Schweinfurt","type":"Kreisfreie_Stadt"},"federalState":{"key":"09","name":"Bayern"}},{"name":"Zur Wasserleitung","postalCode":"97422","locality":"Schweinfurt","municipality":{"key":"09662000","name":"Schweinfurt","type":"Kreisfreie_Stadt"},"district":{"key":"09662","name":"Schweinfurt","type":"Kreisfreie_Stadt"},"federalState":{"key":"09","name":"Bayern"}},{"name":"Zwinger","postalCode":"97421","locality":"Schweinfurt","municipality":{"key":"09662000","name":"Schweinfurt","type":"Kreisfreie_Stadt"},"district":{"key":"09662","name":"Schweinfurt","type":"Kreisfreie_Stadt"},"federalState":{"key":"09","name":"Bayern"}},]