[{"name":"Adlergasse","postalCode":"77723","locality":"Gengenbach","municipality":{"key":"08317034","name":"Gengenbach, Stadt","type":"Stadt"},"district":{"key":"08317","name":"Ortenaukreis","type":"Landkreis"},"federalState":{"key":"08","name":"Baden-Württemberg"}},{"name":"Ahornstr.","postalCode":"77723","locality":"Gengenbach","municipality":{"key":"08317034","name":"Gengenbach, Stadt","type":"Stadt"},"district":{"key":"08317","name":"Ortenaukreis","type":"Landkreis"},"federalState":{"key":"08","name":"Baden-Württemberg"}},{"name":"Alte Landstr.","postalCode":"77723","locality":"Gengenbach","municipality":{"key":"08317034","name":"Gengenbach, Stadt","type":"Stadt"},"district":{"key":"08317","name":"Ortenaukreis","type":"Landkreis"},"federalState":{"key":"08","name":"Baden-Württemberg"}},{"name":"Alter Diebsweg","postalCode":"77723","locality":"Gengenbach","municipality":{"key":"08317034","name":"Gengenbach, Stadt","type":"Stadt"},"district":{"key":"08317","name":"Ortenaukreis","type":"Landkreis"},"federalState":{"key":"08","name":"Baden-Württemberg"}},{"name":"Alter Spitalweg","postalCode":"77723","locality":"Gengenbach","municipality":{"key":"08317034","name":"Gengenbach, Stadt","type":"Stadt"},"district":{"key":"08317","name":"Ortenaukreis","type":"Landkreis"},"federalState":{"key":"08","name":"Baden-Württemberg"}},{"name":"Am Amselberg","postalCode":"77723","locality":"Gengenbach","municipality":{"key":"08317034","name":"Gengenbach, Stadt","type":"Stadt"},"district":{"key":"08317","name":"Ortenaukreis","type":"Landkreis"},"federalState":{"key":"08","name":"Baden-Württemberg"}},{"name":"Am Brestenberg","postalCode":"77723","locality":"Gengenbach","municipality":{"key":"08317034","name":"Gengenbach, Stadt","type":"Stadt"},"district":{"key":"08317","name":"Ortenaukreis","type":"Landkreis"},"federalState":{"key":"08","name":"Baden-Württemberg"}},{"name":"Am Buchrain","postalCode":"77723","locality":"Gengenbach","municipality":{"key":"08317034","name":"Gengenbach, Stadt","type":"Stadt"},"district":{"key":"08317","name":"Ortenaukreis","type":"Landkreis"},"federalState":{"key":"08","name":"Baden-Württemberg"}},{"name":"Am Eckle","postalCode":"77723","locality":"Gengenbach","municipality":{"key":"08317034","name":"Gengenbach, Stadt","type":"Stadt"},"district":{"key":"08317","name":"Ortenaukreis","type":"Landkreis"},"federalState":{"key":"08","name":"Baden-Württemberg"}},{"name":"Am Felseneck","postalCode":"77723","locality":"Gengenbach","municipality":{"key":"08317034","name":"Gengenbach, Stadt","type":"Stadt"},"district":{"key":"08317","name":"Ortenaukreis","type":"Landkreis"},"federalState":{"key":"08","name":"Baden-Württemberg"}},{"name":"Am Hofberg","postalCode":"77723","locality":"Gengenbach","municipality":{"key":"08317034","name":"Gengenbach, Stadt","type":"Stadt"},"district":{"key":"08317","name":"Ortenaukreis","type":"Landkreis"},"federalState":{"key":"08","name":"Baden-Württemberg"}},{"name":"Am Kapellenberg","postalCode":"77723","locality":"Gengenbach","municipality":{"key":"08317034","name":"Gengenbach, Stadt","type":"Stadt"},"district":{"key":"08317","name":"Ortenaukreis","type":"Landkreis"},"federalState":{"key":"08","name":"Baden-Württemberg"}},{"name":"Am Knotzbühl","postalCode":"77723","locality":"Gengenbach","municipality":{"key":"08317034","name":"Gengenbach, Stadt","type":"Stadt"},"district":{"key":"08317","name":"Ortenaukreis","type":"Landkreis"},"federalState":{"key":"08","name":"Baden-Württemberg"}},{"name":"Am Krähenäckerle","postalCode":"77723","locality":"Gengenbach","municipality":{"key":"08317034","name":"Gengenbach, Stadt","type":"Stadt"},"district":{"key":"08317","name":"Ortenaukreis","type":"Landkreis"},"federalState":{"key":"08","name":"Baden-Württemberg"}},{"name":"Am Nollenköpfle","postalCode":"77723","locality":"Gengenbach","municipality":{"key":"08317034","name":"Gengenbach, Stadt","type":"Stadt"},"district":{"key":"08317","name":"Ortenaukreis","type":"Landkreis"},"federalState":{"key":"08","name":"Baden-Württemberg"}},{"name":"Am Schelmenbach","postalCode":"77723","locality":"Gengenbach","municipality":{"key":"08317034","name":"Gengenbach, Stadt","type":"Stadt"},"district":{"key":"08317","name":"Ortenaukreis","type":"Landkreis"},"federalState":{"key":"08","name":"Baden-Württemberg"}},{"name":"Am Stelzenberg","postalCode":"77723","locality":"Gengenbach","municipality":{"key":"08317034","name":"Gengenbach, Stadt","type":"Stadt"},"district":{"key":"08317","name":"Ortenaukreis","type":"Landkreis"},"federalState":{"key":"08","name":"Baden-Württemberg"}},{"name":"Am Winzerkeller","postalCode":"77723","locality":"Gengenbach","municipality":{"key":"08317034","name":"Gengenbach, Stadt","type":"Stadt"},"district":{"key":"08317","name":"Ortenaukreis","type":"Landkreis"},"federalState":{"key":"08","name":"Baden-Württemberg"}},{"name":"Am Wolfshag","postalCode":"77723","locality":"Gengenbach","municipality":{"key":"08317034","name":"Gengenbach, Stadt","type":"Stadt"},"district":{"key":"08317","name":"Ortenaukreis","type":"Landkreis"},"federalState":{"key":"08","name":"Baden-Württemberg"}},{"name":"An der Schneckenmatt","postalCode":"77723","locality":"Gengenbach","municipality":{"key":"08317034","name":"Gengenbach, Stadt","type":"Stadt"},"district":{"key":"08317","name":"Ortenaukreis","type":"Landkreis"},"federalState":{"key":"08","name":"Baden-Württemberg"}},{"name":"Arboretum Kornebene","postalCode":"77723","locality":"Gengenbach","municipality":{"key":"08317034","name":"Gengenbach, Stadt","type":"Stadt"},"district":{"key":"08317","name":"Ortenaukreis","type":"Landkreis"},"federalState":{"key":"08","name":"Baden-Württemberg"}},{"name":"Auf dem Abtsberg","postalCode":"77723","locality":"Gengenbach","municipality":{"key":"08317034","name":"Gengenbach, Stadt","type":"Stadt"},"district":{"key":"08317","name":"Ortenaukreis","type":"Landkreis"},"federalState":{"key":"08","name":"Baden-Württemberg"}},{"name":"Auf dem Bergle","postalCode":"77723","locality":"Gengenbach","municipality":{"key":"08317034","name":"Gengenbach, Stadt","type":"Stadt"},"district":{"key":"08317","name":"Ortenaukreis","type":"Landkreis"},"federalState":{"key":"08","name":"Baden-Württemberg"}},{"name":"Auf der Bünd","postalCode":"77723","locality":"Gengenbach","municipality":{"key":"08317034","name":"Gengenbach, Stadt","type":"Stadt"},"district":{"key":"08317","name":"Ortenaukreis","type":"Landkreis"},"federalState":{"key":"08","name":"Baden-Württemberg"}},{"name":"Bahnhofstr.","postalCode":"77723","locality":"Gengenbach","municipality":{"key":"08317034","name":"Gengenbach, Stadt","type":"Stadt"},"district":{"key":"08317","name":"Ortenaukreis","type":"Landkreis"},"federalState":{"key":"08","name":"Baden-Württemberg"}},{"name":"Baumgarten","postalCode":"77723","locality":"Gengenbach","municipality":{"key":"08317034","name":"Gengenbach, Stadt","type":"Stadt"},"district":{"key":"08317","name":"Ortenaukreis","type":"Landkreis"},"federalState":{"key":"08","name":"Baden-Württemberg"}},{"name":"Benedikt-von-Nursia-Str.","postalCode":"77723","locality":"Gengenbach","municipality":{"key":"08317034","name":"Gengenbach, Stadt","type":"Stadt"},"district":{"key":"08317","name":"Ortenaukreis","type":"Landkreis"},"federalState":{"key":"08","name":"Baden-Württemberg"}},{"name":"Bergach","postalCode":"77723","locality":"Gengenbach","municipality":{"key":"08317034","name":"Gengenbach, Stadt","type":"Stadt"},"district":{"key":"08317","name":"Ortenaukreis","type":"Landkreis"},"federalState":{"key":"08","name":"Baden-Württemberg"}},{"name":"Berghauptener Str.","postalCode":"77723","locality":"Gengenbach","municipality":{"key":"08317034","name":"Gengenbach, Stadt","type":"Stadt"},"district":{"key":"08317","name":"Ortenaukreis","type":"Landkreis"},"federalState":{"key":"08","name":"Baden-Württemberg"}},{"name":"Bildtannweg","postalCode":"77723","locality":"Gengenbach","municipality":{"key":"08317034","name":"Gengenbach, Stadt","type":"Stadt"},"district":{"key":"08317","name":"Ortenaukreis","type":"Landkreis"},"federalState":{"key":"08","name":"Baden-Württemberg"}},{"name":"Binzmattstr.","postalCode":"77723","locality":"Gengenbach","municipality":{"key":"08317034","name":"Gengenbach, Stadt","type":"Stadt"},"district":{"key":"08317","name":"Ortenaukreis","type":"Landkreis"},"federalState":{"key":"08","name":"Baden-Württemberg"}},{"name":"Birkenkopfweg","postalCode":"77723","locality":"Gengenbach","municipality":{"key":"08317034","name":"Gengenbach, Stadt","type":"Stadt"},"district":{"key":"08317","name":"Ortenaukreis","type":"Landkreis"},"federalState":{"key":"08","name":"Baden-Württemberg"}},{"name":"Birkenstr.","postalCode":"77723","locality":"Gengenbach","municipality":{"key":"08317034","name":"Gengenbach, Stadt","type":"Stadt"},"district":{"key":"08317","name":"Ortenaukreis","type":"Landkreis"},"federalState":{"key":"08","name":"Baden-Württemberg"}},{"name":"Blitzleweg","postalCode":"77723","locality":"Gengenbach","municipality":{"key":"08317034","name":"Gengenbach, Stadt","type":"Stadt"},"district":{"key":"08317","name":"Ortenaukreis","type":"Landkreis"},"federalState":{"key":"08","name":"Baden-Württemberg"}},{"name":"Blumenfeldstr.","postalCode":"77723","locality":"Gengenbach","municipality":{"key":"08317034","name":"Gengenbach, Stadt","type":"Stadt"},"district":{"key":"08317","name":"Ortenaukreis","type":"Landkreis"},"federalState":{"key":"08","name":"Baden-Württemberg"}},{"name":"Brambachstr.","postalCode":"77723","locality":"Gengenbach","municipality":{"key":"08317034","name":"Gengenbach, Stadt","type":"Stadt"},"district":{"key":"08317","name":"Ortenaukreis","type":"Landkreis"},"federalState":{"key":"08","name":"Baden-Württemberg"}},{"name":"Brombeermatt","postalCode":"77723","locality":"Gengenbach","municipality":{"key":"08317034","name":"Gengenbach, Stadt","type":"Stadt"},"district":{"key":"08317","name":"Ortenaukreis","type":"Landkreis"},"federalState":{"key":"08","name":"Baden-Württemberg"}},{"name":"Brückenhäuserstr.","postalCode":"77723","locality":"Gengenbach","municipality":{"key":"08317034","name":"Gengenbach, Stadt","type":"Stadt"},"district":{"key":"08317","name":"Ortenaukreis","type":"Landkreis"},"federalState":{"key":"08","name":"Baden-Württemberg"}},{"name":"Carl-Isenmann-Str.","postalCode":"77723","locality":"Gengenbach","municipality":{"key":"08317034","name":"Gengenbach, Stadt","type":"Stadt"},"district":{"key":"08317","name":"Ortenaukreis","type":"Landkreis"},"federalState":{"key":"08","name":"Baden-Württemberg"}},{"name":"Dantersbach","postalCode":"77723","locality":"Gengenbach","municipality":{"key":"08317034","name":"Gengenbach, Stadt","type":"Stadt"},"district":{"key":"08317","name":"Ortenaukreis","type":"Landkreis"},"federalState":{"key":"08","name":"Baden-Württemberg"}},{"name":"Diebsweg","postalCode":"77723","locality":"Gengenbach","municipality":{"key":"08317034","name":"Gengenbach, Stadt","type":"Stadt"},"district":{"key":"08317","name":"Ortenaukreis","type":"Landkreis"},"federalState":{"key":"08","name":"Baden-Württemberg"}},{"name":"Drosselweg","postalCode":"77723","locality":"Gengenbach","municipality":{"key":"08317034","name":"Gengenbach, Stadt","type":"Stadt"},"district":{"key":"08317","name":"Ortenaukreis","type":"Landkreis"},"federalState":{"key":"08","name":"Baden-Württemberg"}},{"name":"Eichbergblick","postalCode":"77723","locality":"Gengenbach","municipality":{"key":"08317034","name":"Gengenbach, Stadt","type":"Stadt"},"district":{"key":"08317","name":"Ortenaukreis","type":"Landkreis"},"federalState":{"key":"08","name":"Baden-Württemberg"}},{"name":"Eichenstr.","postalCode":"77723","locality":"Gengenbach","municipality":{"key":"08317034","name":"Gengenbach, Stadt","type":"Stadt"},"district":{"key":"08317","name":"Ortenaukreis","type":"Landkreis"},"federalState":{"key":"08","name":"Baden-Württemberg"}},{"name":"Eichwaldweg","postalCode":"77723","locality":"Gengenbach","municipality":{"key":"08317034","name":"Gengenbach, Stadt","type":"Stadt"},"district":{"key":"08317","name":"Ortenaukreis","type":"Landkreis"},"federalState":{"key":"08","name":"Baden-Württemberg"}},{"name":"Einachstr.","postalCode":"77723","locality":"Gengenbach","municipality":{"key":"08317034","name":"Gengenbach, Stadt","type":"Stadt"},"district":{"key":"08317","name":"Ortenaukreis","type":"Landkreis"},"federalState":{"key":"08","name":"Baden-Württemberg"}},{"name":"Eugen-Klaussner-Str.","postalCode":"77723","locality":"Gengenbach","municipality":{"key":"08317034","name":"Gengenbach, Stadt","type":"Stadt"},"district":{"key":"08317","name":"Ortenaukreis","type":"Landkreis"},"federalState":{"key":"08","name":"Baden-Württemberg"}},{"name":"Festplatz Santis Claus","postalCode":"77723","locality":"Gengenbach","municipality":{"key":"08317034","name":"Gengenbach, Stadt","type":"Stadt"},"district":{"key":"08317","name":"Ortenaukreis","type":"Landkreis"},"federalState":{"key":"08","name":"Baden-Württemberg"}},{"name":"Feuergasse","postalCode":"77723","locality":"Gengenbach","municipality":{"key":"08317034","name":"Gengenbach, Stadt","type":"Stadt"},"district":{"key":"08317","name":"Ortenaukreis","type":"Landkreis"},"federalState":{"key":"08","name":"Baden-Württemberg"}},{"name":"Flößerstr.","postalCode":"77723","locality":"Gengenbach","municipality":{"key":"08317034","name":"Gengenbach, Stadt","type":"Stadt"},"district":{"key":"08317","name":"Ortenaukreis","type":"Landkreis"},"federalState":{"key":"08","name":"Baden-Württemberg"}},{"name":"Fohrenbühlweg","postalCode":"77723","locality":"Gengenbach","municipality":{"key":"08317034","name":"Gengenbach, Stadt","type":"Stadt"},"district":{"key":"08317","name":"Ortenaukreis","type":"Landkreis"},"federalState":{"key":"08","name":"Baden-Württemberg"}},{"name":"Franz-Beer-Str.","postalCode":"77723","locality":"Gengenbach","municipality":{"key":"08317034","name":"Gengenbach, Stadt","type":"Stadt"},"district":{"key":"08317","name":"Ortenaukreis","type":"Landkreis"},"federalState":{"key":"08","name":"Baden-Württemberg"}},{"name":"Friedenstr.","postalCode":"77723","locality":"Gengenbach","municipality":{"key":"08317034","name":"Gengenbach, Stadt","type":"Stadt"},"district":{"key":"08317","name":"Ortenaukreis","type":"Landkreis"},"federalState":{"key":"08","name":"Baden-Württemberg"}},{"name":"Friedhofweg","postalCode":"77723","locality":"Gengenbach","municipality":{"key":"08317034","name":"Gengenbach, Stadt","type":"Stadt"},"district":{"key":"08317","name":"Ortenaukreis","type":"Landkreis"},"federalState":{"key":"08","name":"Baden-Württemberg"}},{"name":"Friedrichstr.","postalCode":"77723","locality":"Gengenbach","municipality":{"key":"08317034","name":"Gengenbach, Stadt","type":"Stadt"},"district":{"key":"08317","name":"Ortenaukreis","type":"Landkreis"},"federalState":{"key":"08","name":"Baden-Württemberg"}},{"name":"Fünfzigpfennigweg","postalCode":"77723","locality":"Gengenbach","municipality":{"key":"08317034","name":"Gengenbach, Stadt","type":"Stadt"},"district":{"key":"08317","name":"Ortenaukreis","type":"Landkreis"},"federalState":{"key":"08","name":"Baden-Württemberg"}},{"name":"Fußbach","postalCode":"77723","locality":"Gengenbach","municipality":{"key":"08317034","name":"Gengenbach, Stadt","type":"Stadt"},"district":{"key":"08317","name":"Ortenaukreis","type":"Landkreis"},"federalState":{"key":"08","name":"Baden-Württemberg"}},{"name":"Gänsbühl","postalCode":"77723","locality":"Gengenbach","municipality":{"key":"08317034","name":"Gengenbach, Stadt","type":"Stadt"},"district":{"key":"08317","name":"Ortenaukreis","type":"Landkreis"},"federalState":{"key":"08","name":"Baden-Württemberg"}},{"name":"Gartenstr.","postalCode":"77723","locality":"Gengenbach","municipality":{"key":"08317034","name":"Gengenbach, Stadt","type":"Stadt"},"district":{"key":"08317","name":"Ortenaukreis","type":"Landkreis"},"federalState":{"key":"08","name":"Baden-Württemberg"}},{"name":"Grimmelshausenstr.","postalCode":"77723","locality":"Gengenbach","municipality":{"key":"08317034","name":"Gengenbach, Stadt","type":"Stadt"},"district":{"key":"08317","name":"Ortenaukreis","type":"Landkreis"},"federalState":{"key":"08","name":"Baden-Württemberg"}},{"name":"Grünstr.","postalCode":"77723","locality":"Gengenbach","municipality":{"key":"08317034","name":"Gengenbach, Stadt","type":"Stadt"},"district":{"key":"08317","name":"Ortenaukreis","type":"Landkreis"},"federalState":{"key":"08","name":"Baden-Württemberg"}},{"name":"Hansjakobstr.","postalCode":"77723","locality":"Gengenbach","municipality":{"key":"08317034","name":"Gengenbach, Stadt","type":"Stadt"},"district":{"key":"08317","name":"Ortenaukreis","type":"Landkreis"},"federalState":{"key":"08","name":"Baden-Württemberg"}},{"name":"Hasenwaldweg","postalCode":"77723","locality":"Gengenbach","municipality":{"key":"08317034","name":"Gengenbach, Stadt","type":"Stadt"},"district":{"key":"08317","name":"Ortenaukreis","type":"Landkreis"},"federalState":{"key":"08","name":"Baden-Württemberg"}},{"name":"Hauptstr.","postalCode":"77723","locality":"Gengenbach","municipality":{"key":"08317034","name":"Gengenbach, Stadt","type":"Stadt"},"district":{"key":"08317","name":"Ortenaukreis","type":"Landkreis"},"federalState":{"key":"08","name":"Baden-Württemberg"}},{"name":"Hausmatt","postalCode":"77723","locality":"Gengenbach","municipality":{"key":"08317034","name":"Gengenbach, Stadt","type":"Stadt"},"district":{"key":"08317","name":"Ortenaukreis","type":"Landkreis"},"federalState":{"key":"08","name":"Baden-Württemberg"}},{"name":"Heidengrabenweg","postalCode":"77723","locality":"Gengenbach","municipality":{"key":"08317034","name":"Gengenbach, Stadt","type":"Stadt"},"district":{"key":"08317","name":"Ortenaukreis","type":"Landkreis"},"federalState":{"key":"08","name":"Baden-Württemberg"}},{"name":"Herbstweg","postalCode":"77723","locality":"Gengenbach","municipality":{"key":"08317034","name":"Gengenbach, Stadt","type":"Stadt"},"district":{"key":"08317","name":"Ortenaukreis","type":"Landkreis"},"federalState":{"key":"08","name":"Baden-Württemberg"}},{"name":"Herzenbachsattelweg","postalCode":"77723","locality":"Gengenbach","municipality":{"key":"08317034","name":"Gengenbach, Stadt","type":"Stadt"},"district":{"key":"08317","name":"Ortenaukreis","type":"Landkreis"},"federalState":{"key":"08","name":"Baden-Württemberg"}},{"name":"Hinterdorfstr.","postalCode":"77723","locality":"Gengenbach","municipality":{"key":"08317034","name":"Gengenbach, Stadt","type":"Stadt"},"district":{"key":"08317","name":"Ortenaukreis","type":"Landkreis"},"federalState":{"key":"08","name":"Baden-Württemberg"}},{"name":"Hochkopfweg","postalCode":"77723","locality":"Gengenbach","municipality":{"key":"08317034","name":"Gengenbach, Stadt","type":"Stadt"},"district":{"key":"08317","name":"Ortenaukreis","type":"Landkreis"},"federalState":{"key":"08","name":"Baden-Württemberg"}},{"name":"Holzbohlenweg","postalCode":"77723","locality":"Gengenbach","municipality":{"key":"08317034","name":"Gengenbach, Stadt","type":"Stadt"},"district":{"key":"08317","name":"Ortenaukreis","type":"Landkreis"},"federalState":{"key":"08","name":"Baden-Württemberg"}},{"name":"Holzeckweg","postalCode":"77723","locality":"Gengenbach","municipality":{"key":"08317034","name":"Gengenbach, Stadt","type":"Stadt"},"district":{"key":"08317","name":"Ortenaukreis","type":"Landkreis"},"federalState":{"key":"08","name":"Baden-Württemberg"}},{"name":"Hubstr.","postalCode":"77723","locality":"Gengenbach","municipality":{"key":"08317034","name":"Gengenbach, Stadt","type":"Stadt"},"district":{"key":"08317","name":"Ortenaukreis","type":"Landkreis"},"federalState":{"key":"08","name":"Baden-Württemberg"}},{"name":"Iltiswandweg","postalCode":"77723","locality":"Gengenbach","municipality":{"key":"08317034","name":"Gengenbach, Stadt","type":"Stadt"},"district":{"key":"08317","name":"Ortenaukreis","type":"Landkreis"},"federalState":{"key":"08","name":"Baden-Württemberg"}},{"name":"Im Fischerfeld","postalCode":"77723","locality":"Gengenbach","municipality":{"key":"08317034","name":"Gengenbach, Stadt","type":"Stadt"},"district":{"key":"08317","name":"Ortenaukreis","type":"Landkreis"},"federalState":{"key":"08","name":"Baden-Württemberg"}},{"name":"Im Roßgraben","postalCode":"77723","locality":"Gengenbach","municipality":{"key":"08317034","name":"Gengenbach, Stadt","type":"Stadt"},"district":{"key":"08317","name":"Ortenaukreis","type":"Landkreis"},"federalState":{"key":"08","name":"Baden-Württemberg"}},{"name":"Im Sägegrün","postalCode":"77723","locality":"Gengenbach","municipality":{"key":"08317034","name":"Gengenbach, Stadt","type":"Stadt"},"district":{"key":"08317","name":"Ortenaukreis","type":"Landkreis"},"federalState":{"key":"08","name":"Baden-Württemberg"}},{"name":"In den Wiesen","postalCode":"77723","locality":"Gengenbach","municipality":{"key":"08317034","name":"Gengenbach, Stadt","type":"Stadt"},"district":{"key":"08317","name":"Ortenaukreis","type":"Landkreis"},"federalState":{"key":"08","name":"Baden-Württemberg"}},{"name":"In der Börsiglache","postalCode":"77723","locality":"Gengenbach","municipality":{"key":"08317034","name":"Gengenbach, Stadt","type":"Stadt"},"district":{"key":"08317","name":"Ortenaukreis","type":"Landkreis"},"federalState":{"key":"08","name":"Baden-Württemberg"}},{"name":"In der Bösch","postalCode":"77723","locality":"Gengenbach","municipality":{"key":"08317034","name":"Gengenbach, Stadt","type":"Stadt"},"district":{"key":"08317","name":"Ortenaukreis","type":"Landkreis"},"federalState":{"key":"08","name":"Baden-Württemberg"}},{"name":"In der Spöcke","postalCode":"77723","locality":"Gengenbach","municipality":{"key":"08317034","name":"Gengenbach, Stadt","type":"Stadt"},"district":{"key":"08317","name":"Ortenaukreis","type":"Landkreis"},"federalState":{"key":"08","name":"Baden-Württemberg"}},{"name":"Johann-Peter-Hebel-Str.","postalCode":"77723","locality":"Gengenbach","municipality":{"key":"08317034","name":"Gengenbach, Stadt","type":"Stadt"},"district":{"key":"08317","name":"Ortenaukreis","type":"Landkreis"},"federalState":{"key":"08","name":"Baden-Württemberg"}},{"name":"Kaiserstr.","postalCode":"77723","locality":"Gengenbach","municipality":{"key":"08317034","name":"Gengenbach, Stadt","type":"Stadt"},"district":{"key":"08317","name":"Ortenaukreis","type":"Landkreis"},"federalState":{"key":"08","name":"Baden-Württemberg"}},{"name":"Kammweg","postalCode":"77723","locality":"Gengenbach","municipality":{"key":"08317034","name":"Gengenbach, Stadt","type":"Stadt"},"district":{"key":"08317","name":"Ortenaukreis","type":"Landkreis"},"federalState":{"key":"08","name":"Baden-Württemberg"}},{"name":"Kastanienweg","postalCode":"77723","locality":"Gengenbach","municipality":{"key":"08317034","name":"Gengenbach, Stadt","type":"Stadt"},"district":{"key":"08317","name":"Ortenaukreis","type":"Landkreis"},"federalState":{"key":"08","name":"Baden-Württemberg"}},{"name":"Kinzigdamm","postalCode":"77723","locality":"Gengenbach","municipality":{"key":"08317034","name":"Gengenbach, Stadt","type":"Stadt"},"district":{"key":"08317","name":"Ortenaukreis","type":"Landkreis"},"federalState":{"key":"08","name":"Baden-Württemberg"}},{"name":"Kinzigpark","postalCode":"77723","locality":"Gengenbach","municipality":{"key":"08317034","name":"Gengenbach, Stadt","type":"Stadt"},"district":{"key":"08317","name":"Ortenaukreis","type":"Landkreis"},"federalState":{"key":"08","name":"Baden-Württemberg"}},{"name":"Kinzigstr.","postalCode":"77723","locality":"Gengenbach","municipality":{"key":"08317034","name":"Gengenbach, Stadt","type":"Stadt"},"district":{"key":"08317","name":"Ortenaukreis","type":"Landkreis"},"federalState":{"key":"08","name":"Baden-Württemberg"}},{"name":"Klosterstr.","postalCode":"77723","locality":"Gengenbach","municipality":{"key":"08317034","name":"Gengenbach, Stadt","type":"Stadt"},"district":{"key":"08317","name":"Ortenaukreis","type":"Landkreis"},"federalState":{"key":"08","name":"Baden-Württemberg"}},{"name":"Knorzbühlweg","postalCode":"77723","locality":"Gengenbach","municipality":{"key":"08317034","name":"Gengenbach, Stadt","type":"Stadt"},"district":{"key":"08317","name":"Ortenaukreis","type":"Landkreis"},"federalState":{"key":"08","name":"Baden-Württemberg"}},{"name":"Kolpingstr.","postalCode":"77723","locality":"Gengenbach","municipality":{"key":"08317034","name":"Gengenbach, Stadt","type":"Stadt"},"district":{"key":"08317","name":"Ortenaukreis","type":"Landkreis"},"federalState":{"key":"08","name":"Baden-Württemberg"}},{"name":"Koppenwaldstr.","postalCode":"77723","locality":"Gengenbach","municipality":{"key":"08317034","name":"Gengenbach, Stadt","type":"Stadt"},"district":{"key":"08317","name":"Ortenaukreis","type":"Landkreis"},"federalState":{"key":"08","name":"Baden-Württemberg"}},{"name":"Kreuzfelsenweg","postalCode":"77723","locality":"Gengenbach","municipality":{"key":"08317034","name":"Gengenbach, Stadt","type":"Stadt"},"district":{"key":"08317","name":"Ortenaukreis","type":"Landkreis"},"federalState":{"key":"08","name":"Baden-Württemberg"}},{"name":"Lambert-von-Büren-Str.","postalCode":"77723","locality":"Gengenbach","municipality":{"key":"08317034","name":"Gengenbach, Stadt","type":"Stadt"},"district":{"key":"08317","name":"Ortenaukreis","type":"Landkreis"},"federalState":{"key":"08","name":"Baden-Württemberg"}},{"name":"Landstr.","postalCode":"77723","locality":"Gengenbach","municipality":{"key":"08317034","name":"Gengenbach, Stadt","type":"Stadt"},"district":{"key":"08317","name":"Ortenaukreis","type":"Landkreis"},"federalState":{"key":"08","name":"Baden-Württemberg"}},{"name":"Langgrabenweg","postalCode":"77723","locality":"Gengenbach","municipality":{"key":"08317034","name":"Gengenbach, Stadt","type":"Stadt"},"district":{"key":"08317","name":"Ortenaukreis","type":"Landkreis"},"federalState":{"key":"08","name":"Baden-Württemberg"}},{"name":"Leimenlöcherweg","postalCode":"77723","locality":"Gengenbach","municipality":{"key":"08317034","name":"Gengenbach, Stadt","type":"Stadt"},"district":{"key":"08317","name":"Ortenaukreis","type":"Landkreis"},"federalState":{"key":"08","name":"Baden-Württemberg"}},{"name":"Leutkirchstr.","postalCode":"77723","locality":"Gengenbach","municipality":{"key":"08317034","name":"Gengenbach, Stadt","type":"Stadt"},"district":{"key":"08317","name":"Ortenaukreis","type":"Landkreis"},"federalState":{"key":"08","name":"Baden-Württemberg"}},{"name":"Lindenkammweg","postalCode":"77723","locality":"Gengenbach","municipality":{"key":"08317034","name":"Gengenbach, Stadt","type":"Stadt"},"district":{"key":"08317","name":"Ortenaukreis","type":"Landkreis"},"federalState":{"key":"08","name":"Baden-Württemberg"}},{"name":"Lindenstr.","postalCode":"77723","locality":"Gengenbach","municipality":{"key":"08317034","name":"Gengenbach, Stadt","type":"Stadt"},"district":{"key":"08317","name":"Ortenaukreis","type":"Landkreis"},"federalState":{"key":"08","name":"Baden-Württemberg"}},{"name":"Ludwig-Auerbach-Str.","postalCode":"77723","locality":"Gengenbach","municipality":{"key":"08317034","name":"Gengenbach, Stadt","type":"Stadt"},"district":{"key":"08317","name":"Ortenaukreis","type":"Landkreis"},"federalState":{"key":"08","name":"Baden-Württemberg"}},{"name":"Marie-Juchacz-Str.","postalCode":"77723","locality":"Gengenbach","municipality":{"key":"08317034","name":"Gengenbach, Stadt","type":"Stadt"},"district":{"key":"08317","name":"Ortenaukreis","type":"Landkreis"},"federalState":{"key":"08","name":"Baden-Württemberg"}},{"name":"Marta-Schanzenbach-Weg","postalCode":"77723","locality":"Gengenbach","municipality":{"key":"08317034","name":"Gengenbach, Stadt","type":"Stadt"},"district":{"key":"08317","name":"Ortenaukreis","type":"Landkreis"},"federalState":{"key":"08","name":"Baden-Württemberg"}},{"name":"Mattenhofweg","postalCode":"77723","locality":"Gengenbach","municipality":{"key":"08317034","name":"Gengenbach, Stadt","type":"Stadt"},"district":{"key":"08317","name":"Ortenaukreis","type":"Landkreis"},"federalState":{"key":"08","name":"Baden-Württemberg"}},{"name":"Meisenweg","postalCode":"77723","locality":"Gengenbach","municipality":{"key":"08317034","name":"Gengenbach, Stadt","type":"Stadt"},"district":{"key":"08317","name":"Ortenaukreis","type":"Landkreis"},"federalState":{"key":"08","name":"Baden-Württemberg"}},{"name":"Mercyscher Hof","postalCode":"77723","locality":"Gengenbach","municipality":{"key":"08317034","name":"Gengenbach, Stadt","type":"Stadt"},"district":{"key":"08317","name":"Ortenaukreis","type":"Landkreis"},"federalState":{"key":"08","name":"Baden-Württemberg"}},{"name":"Mittelbach","postalCode":"77723","locality":"Gengenbach","municipality":{"key":"08317034","name":"Gengenbach, Stadt","type":"Stadt"},"district":{"key":"08317","name":"Ortenaukreis","type":"Landkreis"},"federalState":{"key":"08","name":"Baden-Württemberg"}},{"name":"Moosturmstr.","postalCode":"77723","locality":"Gengenbach","municipality":{"key":"08317034","name":"Gengenbach, Stadt","type":"Stadt"},"district":{"key":"08317","name":"Ortenaukreis","type":"Landkreis"},"federalState":{"key":"08","name":"Baden-Württemberg"}},{"name":"Mühlmatt","postalCode":"77723","locality":"Gengenbach","municipality":{"key":"08317034","name":"Gengenbach, Stadt","type":"Stadt"},"district":{"key":"08317","name":"Ortenaukreis","type":"Landkreis"},"federalState":{"key":"08","name":"Baden-Württemberg"}},{"name":"Müllerwaldweg","postalCode":"77723","locality":"Gengenbach","municipality":{"key":"08317034","name":"Gengenbach, Stadt","type":"Stadt"},"district":{"key":"08317","name":"Ortenaukreis","type":"Landkreis"},"federalState":{"key":"08","name":"Baden-Württemberg"}},{"name":"Naturlernpark Strohbach","postalCode":"77723","locality":"Gengenbach","municipality":{"key":"08317034","name":"Gengenbach, Stadt","type":"Stadt"},"district":{"key":"08317","name":"Ortenaukreis","type":"Landkreis"},"federalState":{"key":"08","name":"Baden-Württemberg"}},{"name":"Nellenwaldweg","postalCode":"77723","locality":"Gengenbach","municipality":{"key":"08317034","name":"Gengenbach, Stadt","type":"Stadt"},"district":{"key":"08317","name":"Ortenaukreis","type":"Landkreis"},"federalState":{"key":"08","name":"Baden-Württemberg"}},{"name":"Neuer Sorbenweg","postalCode":"77723","locality":"Gengenbach","municipality":{"key":"08317034","name":"Gengenbach, Stadt","type":"Stadt"},"district":{"key":"08317","name":"Ortenaukreis","type":"Landkreis"},"federalState":{"key":"08","name":"Baden-Württemberg"}},{"name":"Nollenpark","postalCode":"77723","locality":"Gengenbach","municipality":{"key":"08317034","name":"Gengenbach, Stadt","type":"Stadt"},"district":{"key":"08317","name":"Ortenaukreis","type":"Landkreis"},"federalState":{"key":"08","name":"Baden-Württemberg"}},{"name":"Nollenstr.","postalCode":"77723","locality":"Gengenbach","municipality":{"key":"08317034","name":"Gengenbach, Stadt","type":"Stadt"},"district":{"key":"08317","name":"Ortenaukreis","type":"Landkreis"},"federalState":{"key":"08","name":"Baden-Württemberg"}},{"name":"Nordrachereckweg","postalCode":"77723","locality":"Gengenbach","municipality":{"key":"08317034","name":"Gengenbach, Stadt","type":"Stadt"},"district":{"key":"08317","name":"Ortenaukreis","type":"Landkreis"},"federalState":{"key":"08","name":"Baden-Württemberg"}},{"name":"Oberdorfstr.","postalCode":"77723","locality":"Gengenbach","municipality":{"key":"08317034","name":"Gengenbach, Stadt","type":"Stadt"},"district":{"key":"08317","name":"Ortenaukreis","type":"Landkreis"},"federalState":{"key":"08","name":"Baden-Württemberg"}},{"name":"Oberer Buchrainweg","postalCode":"77723","locality":"Gengenbach","municipality":{"key":"08317034","name":"Gengenbach, Stadt","type":"Stadt"},"district":{"key":"08317","name":"Ortenaukreis","type":"Landkreis"},"federalState":{"key":"08","name":"Baden-Württemberg"}},{"name":"Oberer Hasenwaldweg","postalCode":"77723","locality":"Gengenbach","municipality":{"key":"08317034","name":"Gengenbach, Stadt","type":"Stadt"},"district":{"key":"08317","name":"Ortenaukreis","type":"Landkreis"},"federalState":{"key":"08","name":"Baden-Württemberg"}},{"name":"Oberer Hüttersbacher Weg","postalCode":"77723","locality":"Gengenbach","municipality":{"key":"08317034","name":"Gengenbach, Stadt","type":"Stadt"},"district":{"key":"08317","name":"Ortenaukreis","type":"Landkreis"},"federalState":{"key":"08","name":"Baden-Württemberg"}},{"name":"Oberes Fischerfeld","postalCode":"77723","locality":"Gengenbach","municipality":{"key":"08317034","name":"Gengenbach, Stadt","type":"Stadt"},"district":{"key":"08317","name":"Ortenaukreis","type":"Landkreis"},"federalState":{"key":"08","name":"Baden-Württemberg"}},{"name":"Otto-Ernst-Sutter-Weg","postalCode":"77723","locality":"Gengenbach","municipality":{"key":"08317034","name":"Gengenbach, Stadt","type":"Stadt"},"district":{"key":"08317","name":"Ortenaukreis","type":"Landkreis"},"federalState":{"key":"08","name":"Baden-Württemberg"}},{"name":"Panoramaweg","postalCode":"77723","locality":"Gengenbach","municipality":{"key":"08317034","name":"Gengenbach, Stadt","type":"Stadt"},"district":{"key":"08317","name":"Ortenaukreis","type":"Landkreis"},"federalState":{"key":"08","name":"Baden-Württemberg"}},{"name":"Parkweg","postalCode":"77723","locality":"Gengenbach","municipality":{"key":"08317034","name":"Gengenbach, Stadt","type":"Stadt"},"district":{"key":"08317","name":"Ortenaukreis","type":"Landkreis"},"federalState":{"key":"08","name":"Baden-Württemberg"}},{"name":"Pfad der Sinne","postalCode":"77723","locality":"Gengenbach","municipality":{"key":"08317034","name":"Gengenbach, Stadt","type":"Stadt"},"district":{"key":"08317","name":"Ortenaukreis","type":"Landkreis"},"federalState":{"key":"08","name":"Baden-Württemberg"}},{"name":"Pfarrer-Eberwein-Weg","postalCode":"77723","locality":"Gengenbach","municipality":{"key":"08317034","name":"Gengenbach, Stadt","type":"Stadt"},"district":{"key":"08317","name":"Ortenaukreis","type":"Landkreis"},"federalState":{"key":"08","name":"Baden-Württemberg"}},{"name":"Philosophenweg","postalCode":"77723","locality":"Gengenbach","municipality":{"key":"08317034","name":"Gengenbach, Stadt","type":"Stadt"},"district":{"key":"08317","name":"Ortenaukreis","type":"Landkreis"},"federalState":{"key":"08","name":"Baden-Württemberg"}},{"name":"Pionierweg","postalCode":"77723","locality":"Gengenbach","municipality":{"key":"08317034","name":"Gengenbach, Stadt","type":"Stadt"},"district":{"key":"08317","name":"Ortenaukreis","type":"Landkreis"},"federalState":{"key":"08","name":"Baden-Württemberg"}},{"name":"Quintenzstr.","postalCode":"77723","locality":"Gengenbach","municipality":{"key":"08317034","name":"Gengenbach, Stadt","type":"Stadt"},"district":{"key":"08317","name":"Ortenaukreis","type":"Landkreis"},"federalState":{"key":"08","name":"Baden-Württemberg"}},{"name":"Rebhalde","postalCode":"77723","locality":"Gengenbach","municipality":{"key":"08317034","name":"Gengenbach, Stadt","type":"Stadt"},"district":{"key":"08317","name":"Ortenaukreis","type":"Landkreis"},"federalState":{"key":"08","name":"Baden-Württemberg"}},{"name":"Reichenbachtal","postalCode":"77723","locality":"Gengenbach","municipality":{"key":"08317034","name":"Gengenbach, Stadt","type":"Stadt"},"district":{"key":"08317","name":"Ortenaukreis","type":"Landkreis"},"federalState":{"key":"08","name":"Baden-Württemberg"}},{"name":"Sandgasse","postalCode":"77723","locality":"Gengenbach","municipality":{"key":"08317034","name":"Gengenbach, Stadt","type":"Stadt"},"district":{"key":"08317","name":"Ortenaukreis","type":"Landkreis"},"federalState":{"key":"08","name":"Baden-Württemberg"}},{"name":"Santis-Claus-Str.","postalCode":"77723","locality":"Gengenbach","municipality":{"key":"08317034","name":"Gengenbach, Stadt","type":"Stadt"},"district":{"key":"08317","name":"Ortenaukreis","type":"Landkreis"},"federalState":{"key":"08","name":"Baden-Württemberg"}},{"name":"Santis Claus Weg","postalCode":"77723","locality":"Gengenbach","municipality":{"key":"08317034","name":"Gengenbach, Stadt","type":"Stadt"},"district":{"key":"08317","name":"Ortenaukreis","type":"Landkreis"},"federalState":{"key":"08","name":"Baden-Württemberg"}},{"name":"Sauersteinweg","postalCode":"77723","locality":"Gengenbach","municipality":{"key":"08317034","name":"Gengenbach, Stadt","type":"Stadt"},"district":{"key":"08317","name":"Ortenaukreis","type":"Landkreis"},"federalState":{"key":"08","name":"Baden-Württemberg"}},{"name":"Schälschleifweg","postalCode":"77723","locality":"Gengenbach","municipality":{"key":"08317034","name":"Gengenbach, Stadt","type":"Stadt"},"district":{"key":"08317","name":"Ortenaukreis","type":"Landkreis"},"federalState":{"key":"08","name":"Baden-Württemberg"}},{"name":"Scheffelstr.","postalCode":"77723","locality":"Gengenbach","municipality":{"key":"08317034","name":"Gengenbach, Stadt","type":"Stadt"},"district":{"key":"08317","name":"Ortenaukreis","type":"Landkreis"},"federalState":{"key":"08","name":"Baden-Württemberg"}},{"name":"Schillerstr.","postalCode":"77723","locality":"Gengenbach","municipality":{"key":"08317034","name":"Gengenbach, Stadt","type":"Stadt"},"district":{"key":"08317","name":"Ortenaukreis","type":"Landkreis"},"federalState":{"key":"08","name":"Baden-Württemberg"}},{"name":"Schneckenmatt","postalCode":"77723","locality":"Gengenbach","municipality":{"key":"08317034","name":"Gengenbach, Stadt","type":"Stadt"},"district":{"key":"08317","name":"Ortenaukreis","type":"Landkreis"},"federalState":{"key":"08","name":"Baden-Württemberg"}},{"name":"Schulstr.","postalCode":"77723","locality":"Gengenbach","municipality":{"key":"08317034","name":"Gengenbach, Stadt","type":"Stadt"},"district":{"key":"08317","name":"Ortenaukreis","type":"Landkreis"},"federalState":{"key":"08","name":"Baden-Württemberg"}},{"name":"Schwaibachtal","postalCode":"77723","locality":"Gengenbach","municipality":{"key":"08317034","name":"Gengenbach, Stadt","type":"Stadt"},"district":{"key":"08317","name":"Ortenaukreis","type":"Landkreis"},"federalState":{"key":"08","name":"Baden-Württemberg"}},{"name":"Schwalbenweg","postalCode":"77723","locality":"Gengenbach","municipality":{"key":"08317034","name":"Gengenbach, Stadt","type":"Stadt"},"district":{"key":"08317","name":"Ortenaukreis","type":"Landkreis"},"federalState":{"key":"08","name":"Baden-Württemberg"}},{"name":"Schwandeckstr.","postalCode":"77723","locality":"Gengenbach","municipality":{"key":"08317034","name":"Gengenbach, Stadt","type":"Stadt"},"district":{"key":"08317","name":"Ortenaukreis","type":"Landkreis"},"federalState":{"key":"08","name":"Baden-Württemberg"}},{"name":"Schwedenstr.","postalCode":"77723","locality":"Gengenbach","municipality":{"key":"08317034","name":"Gengenbach, Stadt","type":"Stadt"},"district":{"key":"08317","name":"Ortenaukreis","type":"Landkreis"},"federalState":{"key":"08","name":"Baden-Württemberg"}},{"name":"Siedigkopfweg","postalCode":"77723","locality":"Gengenbach","municipality":{"key":"08317034","name":"Gengenbach, Stadt","type":"Stadt"},"district":{"key":"08317","name":"Ortenaukreis","type":"Landkreis"},"federalState":{"key":"08","name":"Baden-Württemberg"}},{"name":"Siedlung","postalCode":"77723","locality":"Gengenbach","municipality":{"key":"08317034","name":"Gengenbach, Stadt","type":"Stadt"},"district":{"key":"08317","name":"Ortenaukreis","type":"Landkreis"},"federalState":{"key":"08","name":"Baden-Württemberg"}},{"name":"Sommerhalde","postalCode":"77723","locality":"Gengenbach","municipality":{"key":"08317034","name":"Gengenbach, Stadt","type":"Stadt"},"district":{"key":"08317","name":"Ortenaukreis","type":"Landkreis"},"federalState":{"key":"08","name":"Baden-Württemberg"}},{"name":"Sommerhaldeweg","postalCode":"77723","locality":"Gengenbach","municipality":{"key":"08317034","name":"Gengenbach, Stadt","type":"Stadt"},"district":{"key":"08317","name":"Ortenaukreis","type":"Landkreis"},"federalState":{"key":"08","name":"Baden-Württemberg"}},{"name":"Sommerwald","postalCode":"77723","locality":"Gengenbach","municipality":{"key":"08317034","name":"Gengenbach, Stadt","type":"Stadt"},"district":{"key":"08317","name":"Ortenaukreis","type":"Landkreis"},"federalState":{"key":"08","name":"Baden-Württemberg"}},{"name":"Sommerwaldweg","postalCode":"77723","locality":"Gengenbach","municipality":{"key":"08317034","name":"Gengenbach, Stadt","type":"Stadt"},"district":{"key":"08317","name":"Ortenaukreis","type":"Landkreis"},"federalState":{"key":"08","name":"Baden-Württemberg"}},{"name":"Sondersbach","postalCode":"77723","locality":"Gengenbach","municipality":{"key":"08317034","name":"Gengenbach, Stadt","type":"Stadt"},"district":{"key":"08317","name":"Ortenaukreis","type":"Landkreis"},"federalState":{"key":"08","name":"Baden-Württemberg"}},{"name":"Späneplatzweg","postalCode":"77723","locality":"Gengenbach","municipality":{"key":"08317034","name":"Gengenbach, Stadt","type":"Stadt"},"district":{"key":"08317","name":"Ortenaukreis","type":"Landkreis"},"federalState":{"key":"08","name":"Baden-Württemberg"}},{"name":"Steingasse","postalCode":"77723","locality":"Gengenbach","municipality":{"key":"08317034","name":"Gengenbach, Stadt","type":"Stadt"},"district":{"key":"08317","name":"Ortenaukreis","type":"Landkreis"},"federalState":{"key":"08","name":"Baden-Württemberg"}},{"name":"Strohbach","postalCode":"77723","locality":"Gengenbach","municipality":{"key":"08317034","name":"Gengenbach, Stadt","type":"Stadt"},"district":{"key":"08317","name":"Ortenaukreis","type":"Landkreis"},"federalState":{"key":"08","name":"Baden-Württemberg"}},{"name":"Traubenweg","postalCode":"77723","locality":"Gengenbach","municipality":{"key":"08317034","name":"Gengenbach, Stadt","type":"Stadt"},"district":{"key":"08317","name":"Ortenaukreis","type":"Landkreis"},"federalState":{"key":"08","name":"Baden-Württemberg"}},{"name":"Unterer Bermersbacher Weg","postalCode":"77723","locality":"Gengenbach","municipality":{"key":"08317034","name":"Gengenbach, Stadt","type":"Stadt"},"district":{"key":"08317","name":"Ortenaukreis","type":"Landkreis"},"federalState":{"key":"08","name":"Baden-Württemberg"}},{"name":"Unterer Dornbuschweg","postalCode":"77723","locality":"Gengenbach","municipality":{"key":"08317034","name":"Gengenbach, Stadt","type":"Stadt"},"district":{"key":"08317","name":"Ortenaukreis","type":"Landkreis"},"federalState":{"key":"08","name":"Baden-Württemberg"}},{"name":"Untere Reig","postalCode":"77723","locality":"Gengenbach","municipality":{"key":"08317034","name":"Gengenbach, Stadt","type":"Stadt"},"district":{"key":"08317","name":"Ortenaukreis","type":"Landkreis"},"federalState":{"key":"08","name":"Baden-Württemberg"}},{"name":"Unterer Forstteileweg","postalCode":"77723","locality":"Gengenbach","municipality":{"key":"08317034","name":"Gengenbach, Stadt","type":"Stadt"},"district":{"key":"08317","name":"Ortenaukreis","type":"Landkreis"},"federalState":{"key":"08","name":"Baden-Württemberg"}},{"name":"Unterer Hüttersbacher Weg","postalCode":"77723","locality":"Gengenbach","municipality":{"key":"08317034","name":"Gengenbach, Stadt","type":"Stadt"},"district":{"key":"08317","name":"Ortenaukreis","type":"Landkreis"},"federalState":{"key":"08","name":"Baden-Württemberg"}},{"name":"Victor-Kretz-Str.","postalCode":"77723","locality":"Gengenbach","municipality":{"key":"08317034","name":"Gengenbach, Stadt","type":"Stadt"},"district":{"key":"08317","name":"Ortenaukreis","type":"Landkreis"},"federalState":{"key":"08","name":"Baden-Württemberg"}},{"name":"Viehstätteweg","postalCode":"77723","locality":"Gengenbach","municipality":{"key":"08317034","name":"Gengenbach, Stadt","type":"Stadt"},"district":{"key":"08317","name":"Ortenaukreis","type":"Landkreis"},"federalState":{"key":"08","name":"Baden-Württemberg"}},{"name":"Von-Bender-Str.","postalCode":"77723","locality":"Gengenbach","municipality":{"key":"08317034","name":"Gengenbach, Stadt","type":"Stadt"},"district":{"key":"08317","name":"Ortenaukreis","type":"Landkreis"},"federalState":{"key":"08","name":"Baden-Württemberg"}},{"name":"Waldmattengrundweg","postalCode":"77723","locality":"Gengenbach","municipality":{"key":"08317034","name":"Gengenbach, Stadt","type":"Stadt"},"district":{"key":"08317","name":"Ortenaukreis","type":"Landkreis"},"federalState":{"key":"08","name":"Baden-Württemberg"}},{"name":"Wannemattweg","postalCode":"77723","locality":"Gengenbach","municipality":{"key":"08317034","name":"Gengenbach, Stadt","type":"Stadt"},"district":{"key":"08317","name":"Ortenaukreis","type":"Landkreis"},"federalState":{"key":"08","name":"Baden-Württemberg"}},{"name":"Weiherfeldstr.","postalCode":"77723","locality":"Gengenbach","municipality":{"key":"08317034","name":"Gengenbach, Stadt","type":"Stadt"},"district":{"key":"08317","name":"Ortenaukreis","type":"Landkreis"},"federalState":{"key":"08","name":"Baden-Württemberg"}},{"name":"Weiherweg","postalCode":"77723","locality":"Gengenbach","municipality":{"key":"08317034","name":"Gengenbach, Stadt","type":"Stadt"},"district":{"key":"08317","name":"Ortenaukreis","type":"Landkreis"},"federalState":{"key":"08","name":"Baden-Württemberg"}},{"name":"Weinbergstr.","postalCode":"77723","locality":"Gengenbach","municipality":{"key":"08317034","name":"Gengenbach, Stadt","type":"Stadt"},"district":{"key":"08317","name":"Ortenaukreis","type":"Landkreis"},"federalState":{"key":"08","name":"Baden-Württemberg"}},{"name":"Wiesenstr.","postalCode":"77723","locality":"Gengenbach","municipality":{"key":"08317034","name":"Gengenbach, Stadt","type":"Stadt"},"district":{"key":"08317","name":"Ortenaukreis","type":"Landkreis"},"federalState":{"key":"08","name":"Baden-Württemberg"}},{"name":"Wingerbach","postalCode":"77723","locality":"Gengenbach","municipality":{"key":"08317034","name":"Gengenbach, Stadt","type":"Stadt"},"district":{"key":"08317","name":"Ortenaukreis","type":"Landkreis"},"federalState":{"key":"08","name":"Baden-Württemberg"}},{"name":"Winterhaldeweg","postalCode":"77723","locality":"Gengenbach","municipality":{"key":"08317034","name":"Gengenbach, Stadt","type":"Stadt"},"district":{"key":"08317","name":"Ortenaukreis","type":"Landkreis"},"federalState":{"key":"08","name":"Baden-Württemberg"}},{"name":"Winzerweg","postalCode":"77723","locality":"Gengenbach","municipality":{"key":"08317034","name":"Gengenbach, Stadt","type":"Stadt"},"district":{"key":"08317","name":"Ortenaukreis","type":"Landkreis"},"federalState":{"key":"08","name":"Baden-Württemberg"}},{"name":"Wolfsweg","postalCode":"77723","locality":"Gengenbach","municipality":{"key":"08317034","name":"Gengenbach, Stadt","type":"Stadt"},"district":{"key":"08317","name":"Ortenaukreis","type":"Landkreis"},"federalState":{"key":"08","name":"Baden-Württemberg"}},{"name":"Zieglerweg","postalCode":"77723","locality":"Gengenbach","municipality":{"key":"08317034","name":"Gengenbach, Stadt","type":"Stadt"},"district":{"key":"08317","name":"Ortenaukreis","type":"Landkreis"},"federalState":{"key":"08","name":"Baden-Württemberg"}},]