[{"key":"10147558","name":"Araweg / Chemin de la STEP","postalCode":"2813","locality":"Ederswiler","commune":{"key":"6718","name":"Movelier","shortName":"Movelier"},"district":{"key":"2601","name":"District de Delémont"},"canton":{"key":"26","code":"JU","name":"Jura"},"status":"Real"},{"key":"10147559","name":"Brunngartenweg / Chemin de la Fontaine","postalCode":"2813","locality":"Ederswiler","commune":{"key":"6718","name":"Movelier","shortName":"Movelier"},"district":{"key":"2601","name":"District de Delémont"},"canton":{"key":"26","code":"JU","name":"Jura"},"status":"Real"},{"key":"10133348","name":"Courte-Royerweg / Chemin Courte-Royer","postalCode":"2813","locality":"Ederswiler","commune":{"key":"6718","name":"Movelier","shortName":"Movelier"},"district":{"key":"2601","name":"District de Delémont"},"canton":{"key":"26","code":"JU","name":"Jura"},"status":"Real"},{"key":"10100271","name":"Derrie le Tchété","postalCode":"2813","locality":"Ederswiler","commune":{"key":"6718","name":"Movelier","shortName":"Movelier"},"district":{"key":"2601","name":"District de Delémont"},"canton":{"key":"26","code":"JU","name":"Jura"},"status":"Real"},{"key":"10147560","name":"Feldweg / Chemin des Prés","postalCode":"2813","locality":"Ederswiler","commune":{"key":"6718","name":"Movelier","shortName":"Movelier"},"district":{"key":"2601","name":"District de Delémont"},"canton":{"key":"26","code":"JU","name":"Jura"},"status":"Real"},{"key":"10133351","name":"Haselweg / Chemin des Noisetiers","postalCode":"2813","locality":"Ederswiler","commune":{"key":"6718","name":"Movelier","shortName":"Movelier"},"district":{"key":"2601","name":"District de Delémont"},"canton":{"key":"26","code":"JU","name":"Jura"},"status":"Real"},{"key":"10147561","name":"Industrieplatz / Place de l'Industrie","postalCode":"2813","locality":"Ederswiler","commune":{"key":"6718","name":"Movelier","shortName":"Movelier"},"district":{"key":"2601","name":"District de Delémont"},"canton":{"key":"26","code":"JU","name":"Jura"},"status":"Real"},{"key":"10147562","name":"Jurastrasse / Rue du Jura","postalCode":"2813","locality":"Ederswiler","commune":{"key":"6718","name":"Movelier","shortName":"Movelier"},"district":{"key":"2601","name":"District de Delémont"},"canton":{"key":"26","code":"JU","name":"Jura"},"status":"Real"},{"key":"10183481","name":"Le Löwenburg","postalCode":"2813","locality":"Ederswiler","commune":{"key":"6718","name":"Movelier","shortName":"Movelier"},"district":{"key":"2601","name":"District de Delémont"},"canton":{"key":"26","code":"JU","name":"Jura"},"status":"Real"},{"key":"10060357","name":"Löwenburgstrasse / Route du Loewenburg","postalCode":"2813","locality":"Ederswiler","commune":{"key":"6718","name":"Movelier","shortName":"Movelier"},"district":{"key":"2601","name":"District de Delémont"},"canton":{"key":"26","code":"JU","name":"Jura"},"status":"Real"},{"key":"10147563","name":"Neumühlestrasse / Route de Moulin-Neuf","postalCode":"2813","locality":"Ederswiler","commune":{"key":"6718","name":"Movelier","shortName":"Movelier"},"district":{"key":"2601","name":"District de Delémont"},"canton":{"key":"26","code":"JU","name":"Jura"},"status":"Real"},{"key":"10054239","name":"Prés Strayat","postalCode":"2813","locality":"Ederswiler","commune":{"key":"6718","name":"Movelier","shortName":"Movelier"},"district":{"key":"2601","name":"District de Delémont"},"canton":{"key":"26","code":"JU","name":"Jura"},"status":"Real"},{"key":"10147564","name":"Rainweg / Chemin de la Bosse","postalCode":"2813","locality":"Ederswiler","commune":{"key":"6718","name":"Movelier","shortName":"Movelier"},"district":{"key":"2601","name":"District de Delémont"},"canton":{"key":"26","code":"JU","name":"Jura"},"status":"Real"},{"key":"10143854","name":"Riesel / La Réselle","postalCode":"2813","locality":"Ederswiler","commune":{"key":"6718","name":"Movelier","shortName":"Movelier"},"district":{"key":"2601","name":"District de Delémont"},"canton":{"key":"26","code":"JU","name":"Jura"},"status":"Real"},{"key":"10147565","name":"Roggenburgstrasse / Route de Roggenburg","postalCode":"2813","locality":"Ederswiler","commune":{"key":"6718","name":"Movelier","shortName":"Movelier"},"district":{"key":"2601","name":"District de Delémont"},"canton":{"key":"26","code":"JU","name":"Jura"},"status":"Real"},{"key":"10147566","name":"Sägeweg / Chemin de la Scierie","postalCode":"2813","locality":"Ederswiler","commune":{"key":"6718","name":"Movelier","shortName":"Movelier"},"district":{"key":"2601","name":"District de Delémont"},"canton":{"key":"26","code":"JU","name":"Jura"},"status":"Real"},{"key":"10147568","name":"Welschmattweg / Chemin de la Welschmatt","postalCode":"2813","locality":"Ederswiler","commune":{"key":"6718","name":"Movelier","shortName":"Movelier"},"district":{"key":"2601","name":"District de Delémont"},"canton":{"key":"26","code":"JU","name":"Jura"},"status":"Real"},{"key":"10147569","name":"Wydackerweg / Chemin des Saules","postalCode":"2813","locality":"Ederswiler","commune":{"key":"6718","name":"Movelier","shortName":"Movelier"},"district":{"key":"2601","name":"District de Delémont"},"canton":{"key":"26","code":"JU","name":"Jura"},"status":"Real"},{"key":"10183475","name":"Ziehlbruck","postalCode":"2813","locality":"Ederswiler","commune":{"key":"6718","name":"Movelier","shortName":"Movelier"},"district":{"key":"2601","name":"District de Delémont"},"canton":{"key":"26","code":"JU","name":"Jura"},"status":"Real"},]