[{"name":"Ackerstr.","postalCode":"04610","locality":"Meuselwitz","municipality":{"key":"16077032","name":"Meuselwitz, Stadt","type":"Stadt"},"district":{"key":"16077","name":"Altenburger Land","type":"Landkreis"},"federalState":{"key":"16","name":"Thüringen"}},{"name":"Alexander-Puschkin-Str.","postalCode":"04610","locality":"Meuselwitz","municipality":{"key":"16077032","name":"Meuselwitz, Stadt","type":"Stadt"},"district":{"key":"16077","name":"Altenburger Land","type":"Landkreis"},"federalState":{"key":"16","name":"Thüringen"}},{"name":"Alfred-Ahner-Str.","postalCode":"04610","locality":"Meuselwitz","municipality":{"key":"16077032","name":"Meuselwitz, Stadt","type":"Stadt"},"district":{"key":"16077","name":"Altenburger Land","type":"Landkreis"},"federalState":{"key":"16","name":"Thüringen"}},{"name":"Altenburger Str.","postalCode":"04610","locality":"Meuselwitz","municipality":{"key":"16077032","name":"Meuselwitz, Stadt","type":"Stadt"},"district":{"key":"16077","name":"Altenburger Land","type":"Landkreis"},"federalState":{"key":"16","name":"Thüringen"}},{"name":"Altpoderschauer Str.","postalCode":"04610","locality":"Meuselwitz","municipality":{"key":"16077032","name":"Meuselwitz, Stadt","type":"Stadt"},"district":{"key":"16077","name":"Altenburger Land","type":"Landkreis"},"federalState":{"key":"16","name":"Thüringen"}},{"name":"Altpoderschauer Weg","postalCode":"04610","locality":"Meuselwitz","municipality":{"key":"16077032","name":"Meuselwitz, Stadt","type":"Stadt"},"district":{"key":"16077","name":"Altenburger Land","type":"Landkreis"},"federalState":{"key":"16","name":"Thüringen"}},{"name":"Am Auholz","postalCode":"04610","locality":"Meuselwitz","municipality":{"key":"16077032","name":"Meuselwitz, Stadt","type":"Stadt"},"district":{"key":"16077","name":"Altenburger Land","type":"Landkreis"},"federalState":{"key":"16","name":"Thüringen"}},{"name":"Am Bornholz","postalCode":"04610","locality":"Meuselwitz","municipality":{"key":"16077032","name":"Meuselwitz, Stadt","type":"Stadt"},"district":{"key":"16077","name":"Altenburger Land","type":"Landkreis"},"federalState":{"key":"16","name":"Thüringen"}},{"name":"Am Ententeich","postalCode":"04610","locality":"Meuselwitz","municipality":{"key":"16077032","name":"Meuselwitz, Stadt","type":"Stadt"},"district":{"key":"16077","name":"Altenburger Land","type":"Landkreis"},"federalState":{"key":"16","name":"Thüringen"}},{"name":"Am Gymnasium","postalCode":"04610","locality":"Meuselwitz","municipality":{"key":"16077032","name":"Meuselwitz, Stadt","type":"Stadt"},"district":{"key":"16077","name":"Altenburger Land","type":"Landkreis"},"federalState":{"key":"16","name":"Thüringen"}},{"name":"Am Heinzteich","postalCode":"04610","locality":"Meuselwitz","municipality":{"key":"16077032","name":"Meuselwitz, Stadt","type":"Stadt"},"district":{"key":"16077","name":"Altenburger Land","type":"Landkreis"},"federalState":{"key":"16","name":"Thüringen"}},{"name":"Am Lehrbetrieb","postalCode":"04610","locality":"Meuselwitz","municipality":{"key":"16077032","name":"Meuselwitz, Stadt","type":"Stadt"},"district":{"key":"16077","name":"Altenburger Land","type":"Landkreis"},"federalState":{"key":"16","name":"Thüringen"}},{"name":"Am Rathaus","postalCode":"04610","locality":"Meuselwitz","municipality":{"key":"16077032","name":"Meuselwitz, Stadt","type":"Stadt"},"district":{"key":"16077","name":"Altenburger Land","type":"Landkreis"},"federalState":{"key":"16","name":"Thüringen"}},{"name":"Am Teich","postalCode":"04610","locality":"Meuselwitz","municipality":{"key":"16077032","name":"Meuselwitz, Stadt","type":"Stadt"},"district":{"key":"16077","name":"Altenburger Land","type":"Landkreis"},"federalState":{"key":"16","name":"Thüringen"}},{"name":"Am Waldschlößchen","postalCode":"04610","locality":"Meuselwitz","municipality":{"key":"16077032","name":"Meuselwitz, Stadt","type":"Stadt"},"district":{"key":"16077","name":"Altenburger Land","type":"Landkreis"},"federalState":{"key":"16","name":"Thüringen"}},{"name":"Am Weinberg","postalCode":"04610","locality":"Meuselwitz","municipality":{"key":"16077032","name":"Meuselwitz, Stadt","type":"Stadt"},"district":{"key":"16077","name":"Altenburger Land","type":"Landkreis"},"federalState":{"key":"16","name":"Thüringen"}},{"name":"Am Wiesengrund","postalCode":"04610","locality":"Meuselwitz","municipality":{"key":"16077032","name":"Meuselwitz, Stadt","type":"Stadt"},"district":{"key":"16077","name":"Altenburger Land","type":"Landkreis"},"federalState":{"key":"16","name":"Thüringen"}},{"name":"Am Wilhelmschacht","postalCode":"04610","locality":"Meuselwitz","municipality":{"key":"16077032","name":"Meuselwitz, Stadt","type":"Stadt"},"district":{"key":"16077","name":"Altenburger Land","type":"Landkreis"},"federalState":{"key":"16","name":"Thüringen"}},{"name":"An der Kirche","postalCode":"04610","locality":"Meuselwitz","municipality":{"key":"16077032","name":"Meuselwitz, Stadt","type":"Stadt"},"district":{"key":"16077","name":"Altenburger Land","type":"Landkreis"},"federalState":{"key":"16","name":"Thüringen"}},{"name":"An der Mühle","postalCode":"04610","locality":"Meuselwitz","municipality":{"key":"16077032","name":"Meuselwitz, Stadt","type":"Stadt"},"district":{"key":"16077","name":"Altenburger Land","type":"Landkreis"},"federalState":{"key":"16","name":"Thüringen"}},{"name":"An der Poliklinik","postalCode":"04610","locality":"Meuselwitz","municipality":{"key":"16077032","name":"Meuselwitz, Stadt","type":"Stadt"},"district":{"key":"16077","name":"Altenburger Land","type":"Landkreis"},"federalState":{"key":"16","name":"Thüringen"}},{"name":"An der Schnauderaue","postalCode":"04610","locality":"Meuselwitz","municipality":{"key":"16077032","name":"Meuselwitz, Stadt","type":"Stadt"},"district":{"key":"16077","name":"Altenburger Land","type":"Landkreis"},"federalState":{"key":"16","name":"Thüringen"}},{"name":"Anger","postalCode":"04610","locality":"Meuselwitz","municipality":{"key":"16077032","name":"Meuselwitz, Stadt","type":"Stadt"},"district":{"key":"16077","name":"Altenburger Land","type":"Landkreis"},"federalState":{"key":"16","name":"Thüringen"}},{"name":"Augasse","postalCode":"04610","locality":"Meuselwitz","municipality":{"key":"16077032","name":"Meuselwitz, Stadt","type":"Stadt"},"district":{"key":"16077","name":"Altenburger Land","type":"Landkreis"},"federalState":{"key":"16","name":"Thüringen"}},{"name":"August-Bebel-Str.","postalCode":"04610","locality":"Meuselwitz","municipality":{"key":"16077032","name":"Meuselwitz, Stadt","type":"Stadt"},"district":{"key":"16077","name":"Altenburger Land","type":"Landkreis"},"federalState":{"key":"16","name":"Thüringen"}},{"name":"Baderdamm","postalCode":"04610","locality":"Meuselwitz","municipality":{"key":"16077032","name":"Meuselwitz, Stadt","type":"Stadt"},"district":{"key":"16077","name":"Altenburger Land","type":"Landkreis"},"federalState":{"key":"16","name":"Thüringen"}},{"name":"Bahnhofstr.","postalCode":"04610","locality":"Meuselwitz","municipality":{"key":"16077032","name":"Meuselwitz, Stadt","type":"Stadt"},"district":{"key":"16077","name":"Altenburger Land","type":"Landkreis"},"federalState":{"key":"16","name":"Thüringen"}},{"name":"Bahnhofsweg","postalCode":"04610","locality":"Meuselwitz","municipality":{"key":"16077032","name":"Meuselwitz, Stadt","type":"Stadt"},"district":{"key":"16077","name":"Altenburger Land","type":"Landkreis"},"federalState":{"key":"16","name":"Thüringen"}},{"name":"Bauvereinsstr.","postalCode":"04610","locality":"Meuselwitz","municipality":{"key":"16077032","name":"Meuselwitz, Stadt","type":"Stadt"},"district":{"key":"16077","name":"Altenburger Land","type":"Landkreis"},"federalState":{"key":"16","name":"Thüringen"}},{"name":"Bebelstr.","postalCode":"04610","locality":"Meuselwitz","municipality":{"key":"16077032","name":"Meuselwitz, Stadt","type":"Stadt"},"district":{"key":"16077","name":"Altenburger Land","type":"Landkreis"},"federalState":{"key":"16","name":"Thüringen"}},{"name":"Berggasse","postalCode":"04610","locality":"Meuselwitz","municipality":{"key":"16077032","name":"Meuselwitz, Stadt","type":"Stadt"},"district":{"key":"16077","name":"Altenburger Land","type":"Landkreis"},"federalState":{"key":"16","name":"Thüringen"}},{"name":"Bergmannsring","postalCode":"04610","locality":"Meuselwitz","municipality":{"key":"16077032","name":"Meuselwitz, Stadt","type":"Stadt"},"district":{"key":"16077","name":"Altenburger Land","type":"Landkreis"},"federalState":{"key":"16","name":"Thüringen"}},{"name":"Bergsiedlung","postalCode":"04610","locality":"Meuselwitz","municipality":{"key":"16077032","name":"Meuselwitz, Stadt","type":"Stadt"},"district":{"key":"16077","name":"Altenburger Land","type":"Landkreis"},"federalState":{"key":"16","name":"Thüringen"}},{"name":"Bismarck-Ring","postalCode":"04610","locality":"Meuselwitz","municipality":{"key":"16077032","name":"Meuselwitz, Stadt","type":"Stadt"},"district":{"key":"16077","name":"Altenburger Land","type":"Landkreis"},"federalState":{"key":"16","name":"Thüringen"}},{"name":"Blumenstr.","postalCode":"04610","locality":"Meuselwitz","municipality":{"key":"16077032","name":"Meuselwitz, Stadt","type":"Stadt"},"district":{"key":"16077","name":"Altenburger Land","type":"Landkreis"},"federalState":{"key":"16","name":"Thüringen"}},{"name":"Bonhoeffer Str.","postalCode":"04610","locality":"Meuselwitz","municipality":{"key":"16077032","name":"Meuselwitz, Stadt","type":"Stadt"},"district":{"key":"16077","name":"Altenburger Land","type":"Landkreis"},"federalState":{"key":"16","name":"Thüringen"}},{"name":"Breitenhainer Str.","postalCode":"04610","locality":"Meuselwitz","municipality":{"key":"16077032","name":"Meuselwitz, Stadt","type":"Stadt"},"district":{"key":"16077","name":"Altenburger Land","type":"Landkreis"},"federalState":{"key":"16","name":"Thüringen"}},{"name":"Breitinger Str.","postalCode":"04610","locality":"Meuselwitz","municipality":{"key":"16077032","name":"Meuselwitz, Stadt","type":"Stadt"},"district":{"key":"16077","name":"Altenburger Land","type":"Landkreis"},"federalState":{"key":"16","name":"Thüringen"}},{"name":"Brossener Dorfstr.","postalCode":"04610","locality":"Meuselwitz","municipality":{"key":"16077032","name":"Meuselwitz, Stadt","type":"Stadt"},"district":{"key":"16077","name":"Altenburger Land","type":"Landkreis"},"federalState":{"key":"16","name":"Thüringen"}},{"name":"Bruno-Bürgel-Str.","postalCode":"04610","locality":"Meuselwitz","municipality":{"key":"16077032","name":"Meuselwitz, Stadt","type":"Stadt"},"district":{"key":"16077","name":"Altenburger Land","type":"Landkreis"},"federalState":{"key":"16","name":"Thüringen"}},{"name":"Buchenring","postalCode":"04610","locality":"Meuselwitz","municipality":{"key":"16077032","name":"Meuselwitz, Stadt","type":"Stadt"},"district":{"key":"16077","name":"Altenburger Land","type":"Landkreis"},"federalState":{"key":"16","name":"Thüringen"}},{"name":"Clara-Zetkin-Str.","postalCode":"04610","locality":"Meuselwitz","municipality":{"key":"16077032","name":"Meuselwitz, Stadt","type":"Stadt"},"district":{"key":"16077","name":"Altenburger Land","type":"Landkreis"},"federalState":{"key":"16","name":"Thüringen"}},{"name":"Damaschkestr.","postalCode":"04610","locality":"Meuselwitz","municipality":{"key":"16077032","name":"Meuselwitz, Stadt","type":"Stadt"},"district":{"key":"16077","name":"Altenburger Land","type":"Landkreis"},"federalState":{"key":"16","name":"Thüringen"}},{"name":"Dittrichring","postalCode":"04610","locality":"Meuselwitz","municipality":{"key":"16077032","name":"Meuselwitz, Stadt","type":"Stadt"},"district":{"key":"16077","name":"Altenburger Land","type":"Landkreis"},"federalState":{"key":"16","name":"Thüringen"}},{"name":"Erich-Mäder-Str.","postalCode":"04610","locality":"Meuselwitz","municipality":{"key":"16077032","name":"Meuselwitz, Stadt","type":"Stadt"},"district":{"key":"16077","name":"Altenburger Land","type":"Landkreis"},"federalState":{"key":"16","name":"Thüringen"}},{"name":"Erich-Weinert-Siedlung","postalCode":"04610","locality":"Meuselwitz","municipality":{"key":"16077032","name":"Meuselwitz, Stadt","type":"Stadt"},"district":{"key":"16077","name":"Altenburger Land","type":"Landkreis"},"federalState":{"key":"16","name":"Thüringen"}},{"name":"Ernst-Grube-Str.","postalCode":"04610","locality":"Meuselwitz","municipality":{"key":"16077032","name":"Meuselwitz, Stadt","type":"Stadt"},"district":{"key":"16077","name":"Altenburger Land","type":"Landkreis"},"federalState":{"key":"16","name":"Thüringen"}},{"name":"Ernststr.","postalCode":"04610","locality":"Meuselwitz","municipality":{"key":"16077032","name":"Meuselwitz, Stadt","type":"Stadt"},"district":{"key":"16077","name":"Altenburger Land","type":"Landkreis"},"federalState":{"key":"16","name":"Thüringen"}},{"name":"Fabrikstr.","postalCode":"04610","locality":"Meuselwitz","municipality":{"key":"16077032","name":"Meuselwitz, Stadt","type":"Stadt"},"district":{"key":"16077","name":"Altenburger Land","type":"Landkreis"},"federalState":{"key":"16","name":"Thüringen"}},{"name":"Falkenhainer Str.","postalCode":"04610","locality":"Meuselwitz","municipality":{"key":"16077032","name":"Meuselwitz, Stadt","type":"Stadt"},"district":{"key":"16077","name":"Altenburger Land","type":"Landkreis"},"federalState":{"key":"16","name":"Thüringen"}},{"name":"Falkenhainer Weg","postalCode":"04610","locality":"Meuselwitz","municipality":{"key":"16077032","name":"Meuselwitz, Stadt","type":"Stadt"},"district":{"key":"16077","name":"Altenburger Land","type":"Landkreis"},"federalState":{"key":"16","name":"Thüringen"}},{"name":"Fichtenhainicher Str.","postalCode":"04610","locality":"Meuselwitz","municipality":{"key":"16077032","name":"Meuselwitz, Stadt","type":"Stadt"},"district":{"key":"16077","name":"Altenburger Land","type":"Landkreis"},"federalState":{"key":"16","name":"Thüringen"}},{"name":"Florian-Geyer-Str.","postalCode":"04610","locality":"Meuselwitz","municipality":{"key":"16077032","name":"Meuselwitz, Stadt","type":"Stadt"},"district":{"key":"16077","name":"Altenburger Land","type":"Landkreis"},"federalState":{"key":"16","name":"Thüringen"}},{"name":"Forststr.","postalCode":"04610","locality":"Meuselwitz","municipality":{"key":"16077032","name":"Meuselwitz, Stadt","type":"Stadt"},"district":{"key":"16077","name":"Altenburger Land","type":"Landkreis"},"federalState":{"key":"16","name":"Thüringen"}},{"name":"Forstweg","postalCode":"04610","locality":"Meuselwitz","municipality":{"key":"16077032","name":"Meuselwitz, Stadt","type":"Stadt"},"district":{"key":"16077","name":"Altenburger Land","type":"Landkreis"},"federalState":{"key":"16","name":"Thüringen"}},{"name":"Fortschrittweg","postalCode":"04610","locality":"Meuselwitz","municipality":{"key":"16077032","name":"Meuselwitz, Stadt","type":"Stadt"},"district":{"key":"16077","name":"Altenburger Land","type":"Landkreis"},"federalState":{"key":"16","name":"Thüringen"}},{"name":"Franz-Mehring-Str.","postalCode":"04610","locality":"Meuselwitz","municipality":{"key":"16077032","name":"Meuselwitz, Stadt","type":"Stadt"},"district":{"key":"16077","name":"Altenburger Land","type":"Landkreis"},"federalState":{"key":"16","name":"Thüringen"}},{"name":"Freiheitsstr.","postalCode":"04610","locality":"Meuselwitz","municipality":{"key":"16077032","name":"Meuselwitz, Stadt","type":"Stadt"},"district":{"key":"16077","name":"Altenburger Land","type":"Landkreis"},"federalState":{"key":"16","name":"Thüringen"}},{"name":"Freiligrathstr.","postalCode":"04610","locality":"Meuselwitz","municipality":{"key":"16077032","name":"Meuselwitz, Stadt","type":"Stadt"},"district":{"key":"16077","name":"Altenburger Land","type":"Landkreis"},"federalState":{"key":"16","name":"Thüringen"}},{"name":"Friedensallee","postalCode":"04610","locality":"Meuselwitz","municipality":{"key":"16077032","name":"Meuselwitz, Stadt","type":"Stadt"},"district":{"key":"16077","name":"Altenburger Land","type":"Landkreis"},"federalState":{"key":"16","name":"Thüringen"}},{"name":"Friedrich-Ebert-Str.","postalCode":"04610","locality":"Meuselwitz","municipality":{"key":"16077032","name":"Meuselwitz, Stadt","type":"Stadt"},"district":{"key":"16077","name":"Altenburger Land","type":"Landkreis"},"federalState":{"key":"16","name":"Thüringen"}},{"name":"Friedrich-Engels-Str.","postalCode":"04610","locality":"Meuselwitz","municipality":{"key":"16077032","name":"Meuselwitz, Stadt","type":"Stadt"},"district":{"key":"16077","name":"Altenburger Land","type":"Landkreis"},"federalState":{"key":"16","name":"Thüringen"}},{"name":"Friedrich-List-Str.","postalCode":"04610","locality":"Meuselwitz","municipality":{"key":"16077032","name":"Meuselwitz, Stadt","type":"Stadt"},"district":{"key":"16077","name":"Altenburger Land","type":"Landkreis"},"federalState":{"key":"16","name":"Thüringen"}},{"name":"Friedrich-Naumann-Str.","postalCode":"04610","locality":"Meuselwitz","municipality":{"key":"16077032","name":"Meuselwitz, Stadt","type":"Stadt"},"district":{"key":"16077","name":"Altenburger Land","type":"Landkreis"},"federalState":{"key":"16","name":"Thüringen"}},{"name":"Fritz-Kramer-Str.","postalCode":"04610","locality":"Meuselwitz","municipality":{"key":"16077032","name":"Meuselwitz, Stadt","type":"Stadt"},"district":{"key":"16077","name":"Altenburger Land","type":"Landkreis"},"federalState":{"key":"16","name":"Thüringen"}},{"name":"Fritz-Reuter-Str.","postalCode":"04610","locality":"Meuselwitz","municipality":{"key":"16077032","name":"Meuselwitz, Stadt","type":"Stadt"},"district":{"key":"16077","name":"Altenburger Land","type":"Landkreis"},"federalState":{"key":"16","name":"Thüringen"}},{"name":"Gartenstr.","postalCode":"04610","locality":"Meuselwitz","municipality":{"key":"16077032","name":"Meuselwitz, Stadt","type":"Stadt"},"district":{"key":"16077","name":"Altenburger Land","type":"Landkreis"},"federalState":{"key":"16","name":"Thüringen"}},{"name":"Gartenweg","postalCode":"04610","locality":"Meuselwitz","municipality":{"key":"16077032","name":"Meuselwitz, Stadt","type":"Stadt"},"district":{"key":"16077","name":"Altenburger Land","type":"Landkreis"},"federalState":{"key":"16","name":"Thüringen"}},{"name":"Georgenstr.","postalCode":"04610","locality":"Meuselwitz","municipality":{"key":"16077032","name":"Meuselwitz, Stadt","type":"Stadt"},"district":{"key":"16077","name":"Altenburger Land","type":"Landkreis"},"federalState":{"key":"16","name":"Thüringen"}},{"name":"Geschwister-Scholl-Str.","postalCode":"04610","locality":"Meuselwitz","municipality":{"key":"16077032","name":"Meuselwitz, Stadt","type":"Stadt"},"district":{"key":"16077","name":"Altenburger Land","type":"Landkreis"},"federalState":{"key":"16","name":"Thüringen"}},{"name":"Glück-Auf-Str.","postalCode":"04610","locality":"Meuselwitz","municipality":{"key":"16077032","name":"Meuselwitz, Stadt","type":"Stadt"},"district":{"key":"16077","name":"Altenburger Land","type":"Landkreis"},"federalState":{"key":"16","name":"Thüringen"}},{"name":"Goethestr.","postalCode":"04610","locality":"Meuselwitz","municipality":{"key":"16077032","name":"Meuselwitz, Stadt","type":"Stadt"},"district":{"key":"16077","name":"Altenburger Land","type":"Landkreis"},"federalState":{"key":"16","name":"Thüringen"}},{"name":"Gormaer Str.","postalCode":"04610","locality":"Meuselwitz","municipality":{"key":"16077032","name":"Meuselwitz, Stadt","type":"Stadt"},"district":{"key":"16077","name":"Altenburger Land","type":"Landkreis"},"federalState":{"key":"16","name":"Thüringen"}},{"name":"Gottesackergasse","postalCode":"04610","locality":"Meuselwitz","municipality":{"key":"16077032","name":"Meuselwitz, Stadt","type":"Stadt"},"district":{"key":"16077","name":"Altenburger Land","type":"Landkreis"},"federalState":{"key":"16","name":"Thüringen"}},{"name":"Grenzstr.","postalCode":"04610","locality":"Meuselwitz","municipality":{"key":"16077032","name":"Meuselwitz, Stadt","type":"Stadt"},"district":{"key":"16077","name":"Altenburger Land","type":"Landkreis"},"federalState":{"key":"16","name":"Thüringen"}},{"name":"Gröbaer Platz","postalCode":"04610","locality":"Meuselwitz","municipality":{"key":"16077032","name":"Meuselwitz, Stadt","type":"Stadt"},"district":{"key":"16077","name":"Altenburger Land","type":"Landkreis"},"federalState":{"key":"16","name":"Thüringen"}},{"name":"Gröbaer Str.","postalCode":"04610","locality":"Meuselwitz","municipality":{"key":"16077032","name":"Meuselwitz, Stadt","type":"Stadt"},"district":{"key":"16077","name":"Altenburger Land","type":"Landkreis"},"federalState":{"key":"16","name":"Thüringen"}},{"name":"Haferstr.","postalCode":"04610","locality":"Meuselwitz","municipality":{"key":"16077032","name":"Meuselwitz, Stadt","type":"Stadt"},"district":{"key":"16077","name":"Altenburger Land","type":"Landkreis"},"federalState":{"key":"16","name":"Thüringen"}},{"name":"Hainbergsee","postalCode":"04610","locality":"Meuselwitz","municipality":{"key":"16077032","name":"Meuselwitz, Stadt","type":"Stadt"},"district":{"key":"16077","name":"Altenburger Land","type":"Landkreis"},"federalState":{"key":"16","name":"Thüringen"}},{"name":"Hainstr.","postalCode":"04610","locality":"Meuselwitz","municipality":{"key":"16077032","name":"Meuselwitz, Stadt","type":"Stadt"},"district":{"key":"16077","name":"Altenburger Land","type":"Landkreis"},"federalState":{"key":"16","name":"Thüringen"}},{"name":"Hauptstr.","postalCode":"04610","locality":"Meuselwitz","municipality":{"key":"16077032","name":"Meuselwitz, Stadt","type":"Stadt"},"district":{"key":"16077","name":"Altenburger Land","type":"Landkreis"},"federalState":{"key":"16","name":"Thüringen"}},{"name":"Heinrich-Heine-Str.","postalCode":"04610","locality":"Meuselwitz","municipality":{"key":"16077032","name":"Meuselwitz, Stadt","type":"Stadt"},"district":{"key":"16077","name":"Altenburger Land","type":"Landkreis"},"federalState":{"key":"16","name":"Thüringen"}},{"name":"Helmut-Just-Str.","postalCode":"04610","locality":"Meuselwitz","municipality":{"key":"16077032","name":"Meuselwitz, Stadt","type":"Stadt"},"district":{"key":"16077","name":"Altenburger Land","type":"Landkreis"},"federalState":{"key":"16","name":"Thüringen"}},{"name":"Heukendorfer Str.","postalCode":"04610","locality":"Meuselwitz","municipality":{"key":"16077032","name":"Meuselwitz, Stadt","type":"Stadt"},"district":{"key":"16077","name":"Altenburger Land","type":"Landkreis"},"federalState":{"key":"16","name":"Thüringen"}},{"name":"Heukendorfer Weg","postalCode":"04610","locality":"Meuselwitz","municipality":{"key":"16077032","name":"Meuselwitz, Stadt","type":"Stadt"},"district":{"key":"16077","name":"Altenburger Land","type":"Landkreis"},"federalState":{"key":"16","name":"Thüringen"}},{"name":"Heureka","postalCode":"04610","locality":"Meuselwitz","municipality":{"key":"16077032","name":"Meuselwitz, Stadt","type":"Stadt"},"district":{"key":"16077","name":"Altenburger Land","type":"Landkreis"},"federalState":{"key":"16","name":"Thüringen"}},{"name":"Heymer-Pilz-Str.","postalCode":"04610","locality":"Meuselwitz","municipality":{"key":"16077032","name":"Meuselwitz, Stadt","type":"Stadt"},"district":{"key":"16077","name":"Altenburger Land","type":"Landkreis"},"federalState":{"key":"16","name":"Thüringen"}},{"name":"Hirtengasse","postalCode":"04610","locality":"Meuselwitz","municipality":{"key":"16077032","name":"Meuselwitz, Stadt","type":"Stadt"},"district":{"key":"16077","name":"Altenburger Land","type":"Landkreis"},"federalState":{"key":"16","name":"Thüringen"}},{"name":"Johann-Christian-Kluge-Str.","postalCode":"04610","locality":"Meuselwitz","municipality":{"key":"16077032","name":"Meuselwitz, Stadt","type":"Stadt"},"district":{"key":"16077","name":"Altenburger Land","type":"Landkreis"},"federalState":{"key":"16","name":"Thüringen"}},{"name":"Julius-Blüthner-Str.","postalCode":"04610","locality":"Meuselwitz","municipality":{"key":"16077032","name":"Meuselwitz, Stadt","type":"Stadt"},"district":{"key":"16077","name":"Altenburger Land","type":"Landkreis"},"federalState":{"key":"16","name":"Thüringen"}},{"name":"Juri-Gagarin-Str.","postalCode":"04610","locality":"Meuselwitz","municipality":{"key":"16077032","name":"Meuselwitz, Stadt","type":"Stadt"},"district":{"key":"16077","name":"Altenburger Land","type":"Landkreis"},"federalState":{"key":"16","name":"Thüringen"}},{"name":"Karl-Liebknecht-Str.","postalCode":"04610","locality":"Meuselwitz","municipality":{"key":"16077032","name":"Meuselwitz, Stadt","type":"Stadt"},"district":{"key":"16077","name":"Altenburger Land","type":"Landkreis"},"federalState":{"key":"16","name":"Thüringen"}},{"name":"Karl-Marx-Str.","postalCode":"04610","locality":"Meuselwitz","municipality":{"key":"16077032","name":"Meuselwitz, Stadt","type":"Stadt"},"district":{"key":"16077","name":"Altenburger Land","type":"Landkreis"},"federalState":{"key":"16","name":"Thüringen"}},{"name":"Käthe-Kollwitz-Str.","postalCode":"04610","locality":"Meuselwitz","municipality":{"key":"16077032","name":"Meuselwitz, Stadt","type":"Stadt"},"district":{"key":"16077","name":"Altenburger Land","type":"Landkreis"},"federalState":{"key":"16","name":"Thüringen"}},{"name":"Kiefernweg","postalCode":"04610","locality":"Meuselwitz","municipality":{"key":"16077032","name":"Meuselwitz, Stadt","type":"Stadt"},"district":{"key":"16077","name":"Altenburger Land","type":"Landkreis"},"federalState":{"key":"16","name":"Thüringen"}},{"name":"Kirchgasse","postalCode":"04610","locality":"Meuselwitz","municipality":{"key":"16077032","name":"Meuselwitz, Stadt","type":"Stadt"},"district":{"key":"16077","name":"Altenburger Land","type":"Landkreis"},"federalState":{"key":"16","name":"Thüringen"}},{"name":"Kirchplatz","postalCode":"04610","locality":"Meuselwitz","municipality":{"key":"16077032","name":"Meuselwitz, Stadt","type":"Stadt"},"district":{"key":"16077","name":"Altenburger Land","type":"Landkreis"},"federalState":{"key":"16","name":"Thüringen"}},{"name":"Kornweg","postalCode":"04610","locality":"Meuselwitz","municipality":{"key":"16077032","name":"Meuselwitz, Stadt","type":"Stadt"},"district":{"key":"16077","name":"Altenburger Land","type":"Landkreis"},"federalState":{"key":"16","name":"Thüringen"}},{"name":"Kreissiedlung","postalCode":"04610","locality":"Meuselwitz","municipality":{"key":"16077032","name":"Meuselwitz, Stadt","type":"Stadt"},"district":{"key":"16077","name":"Altenburger Land","type":"Landkreis"},"federalState":{"key":"16","name":"Thüringen"}},{"name":"Kriebitzscher Str.","postalCode":"04610","locality":"Meuselwitz","municipality":{"key":"16077032","name":"Meuselwitz, Stadt","type":"Stadt"},"district":{"key":"16077","name":"Altenburger Land","type":"Landkreis"},"federalState":{"key":"16","name":"Thüringen"}},{"name":"Kruggasse","postalCode":"04610","locality":"Meuselwitz","municipality":{"key":"16077032","name":"Meuselwitz, Stadt","type":"Stadt"},"district":{"key":"16077","name":"Altenburger Land","type":"Landkreis"},"federalState":{"key":"16","name":"Thüringen"}},{"name":"Kurt-Bähr-Str.","postalCode":"04610","locality":"Meuselwitz","municipality":{"key":"16077032","name":"Meuselwitz, Stadt","type":"Stadt"},"district":{"key":"16077","name":"Altenburger Land","type":"Landkreis"},"federalState":{"key":"16","name":"Thüringen"}},{"name":"Kurt-Kresse-Str.","postalCode":"04610","locality":"Meuselwitz","municipality":{"key":"16077032","name":"Meuselwitz, Stadt","type":"Stadt"},"district":{"key":"16077","name":"Altenburger Land","type":"Landkreis"},"federalState":{"key":"16","name":"Thüringen"}},{"name":"Kurze Str.","postalCode":"04610","locality":"Meuselwitz","municipality":{"key":"16077032","name":"Meuselwitz, Stadt","type":"Stadt"},"district":{"key":"16077","name":"Altenburger Land","type":"Landkreis"},"federalState":{"key":"16","name":"Thüringen"}},{"name":"Lauffener Ring","postalCode":"04610","locality":"Meuselwitz","municipality":{"key":"16077032","name":"Meuselwitz, Stadt","type":"Stadt"},"district":{"key":"16077","name":"Altenburger Land","type":"Landkreis"},"federalState":{"key":"16","name":"Thüringen"}},{"name":"Lessingstr.","postalCode":"04610","locality":"Meuselwitz","municipality":{"key":"16077032","name":"Meuselwitz, Stadt","type":"Stadt"},"district":{"key":"16077","name":"Altenburger Land","type":"Landkreis"},"federalState":{"key":"16","name":"Thüringen"}},{"name":"Liebknechtstr.","postalCode":"04610","locality":"Meuselwitz","municipality":{"key":"16077032","name":"Meuselwitz, Stadt","type":"Stadt"},"district":{"key":"16077","name":"Altenburger Land","type":"Landkreis"},"federalState":{"key":"16","name":"Thüringen"}},{"name":"Ligusterweg","postalCode":"04610","locality":"Meuselwitz","municipality":{"key":"16077032","name":"Meuselwitz, Stadt","type":"Stadt"},"district":{"key":"16077","name":"Altenburger Land","type":"Landkreis"},"federalState":{"key":"16","name":"Thüringen"}},{"name":"Lindengasse","postalCode":"04610","locality":"Meuselwitz","municipality":{"key":"16077032","name":"Meuselwitz, Stadt","type":"Stadt"},"district":{"key":"16077","name":"Altenburger Land","type":"Landkreis"},"federalState":{"key":"16","name":"Thüringen"}},{"name":"Lindenweg","postalCode":"04610","locality":"Meuselwitz","municipality":{"key":"16077032","name":"Meuselwitz, Stadt","type":"Stadt"},"district":{"key":"16077","name":"Altenburger Land","type":"Landkreis"},"federalState":{"key":"16","name":"Thüringen"}},{"name":"Luckaer Str.","postalCode":"04610","locality":"Meuselwitz","municipality":{"key":"16077032","name":"Meuselwitz, Stadt","type":"Stadt"},"district":{"key":"16077","name":"Altenburger Land","type":"Landkreis"},"federalState":{"key":"16","name":"Thüringen"}},{"name":"Lutherstr.","postalCode":"04610","locality":"Meuselwitz","municipality":{"key":"16077032","name":"Meuselwitz, Stadt","type":"Stadt"},"district":{"key":"16077","name":"Altenburger Land","type":"Landkreis"},"federalState":{"key":"16","name":"Thüringen"}},{"name":"Luxemburgstr.","postalCode":"04610","locality":"Meuselwitz","municipality":{"key":"16077032","name":"Meuselwitz, Stadt","type":"Stadt"},"district":{"key":"16077","name":"Altenburger Land","type":"Landkreis"},"federalState":{"key":"16","name":"Thüringen"}},{"name":"Markt","postalCode":"04610","locality":"Meuselwitz","municipality":{"key":"16077032","name":"Meuselwitz, Stadt","type":"Stadt"},"district":{"key":"16077","name":"Altenburger Land","type":"Landkreis"},"federalState":{"key":"16","name":"Thüringen"}},{"name":"Martin-Luther-Str.","postalCode":"04610","locality":"Meuselwitz","municipality":{"key":"16077032","name":"Meuselwitz, Stadt","type":"Stadt"},"district":{"key":"16077","name":"Altenburger Land","type":"Landkreis"},"federalState":{"key":"16","name":"Thüringen"}},{"name":"Max-Bohne-Str.","postalCode":"04610","locality":"Meuselwitz","municipality":{"key":"16077032","name":"Meuselwitz, Stadt","type":"Stadt"},"district":{"key":"16077","name":"Altenburger Land","type":"Landkreis"},"federalState":{"key":"16","name":"Thüringen"}},{"name":"Meuselwitzer Str.","postalCode":"04610","locality":"Meuselwitz","municipality":{"key":"16077032","name":"Meuselwitz, Stadt","type":"Stadt"},"district":{"key":"16077","name":"Altenburger Land","type":"Landkreis"},"federalState":{"key":"16","name":"Thüringen"}},{"name":"Mittelstr.","postalCode":"04610","locality":"Meuselwitz","municipality":{"key":"16077032","name":"Meuselwitz, Stadt","type":"Stadt"},"district":{"key":"16077","name":"Altenburger Land","type":"Landkreis"},"federalState":{"key":"16","name":"Thüringen"}},{"name":"Mittelweg","postalCode":"04610","locality":"Meuselwitz","municipality":{"key":"16077032","name":"Meuselwitz, Stadt","type":"Stadt"},"district":{"key":"16077","name":"Altenburger Land","type":"Landkreis"},"federalState":{"key":"16","name":"Thüringen"}},{"name":"Mühlgasse","postalCode":"04610","locality":"Meuselwitz","municipality":{"key":"16077032","name":"Meuselwitz, Stadt","type":"Stadt"},"district":{"key":"16077","name":"Altenburger Land","type":"Landkreis"},"federalState":{"key":"16","name":"Thüringen"}},{"name":"Mühlstr.","postalCode":"04610","locality":"Meuselwitz","municipality":{"key":"16077032","name":"Meuselwitz, Stadt","type":"Stadt"},"district":{"key":"16077","name":"Altenburger Land","type":"Landkreis"},"federalState":{"key":"16","name":"Thüringen"}},{"name":"Mühlweg","postalCode":"04610","locality":"Meuselwitz","municipality":{"key":"16077032","name":"Meuselwitz, Stadt","type":"Stadt"},"district":{"key":"16077","name":"Altenburger Land","type":"Landkreis"},"federalState":{"key":"16","name":"Thüringen"}},{"name":"Mumsdorfer Str.","postalCode":"04610","locality":"Meuselwitz","municipality":{"key":"16077032","name":"Meuselwitz, Stadt","type":"Stadt"},"district":{"key":"16077","name":"Altenburger Land","type":"Landkreis"},"federalState":{"key":"16","name":"Thüringen"}},{"name":"Neubraunshain","postalCode":"04610","locality":"Meuselwitz","municipality":{"key":"16077032","name":"Meuselwitz, Stadt","type":"Stadt"},"district":{"key":"16077","name":"Altenburger Land","type":"Landkreis"},"federalState":{"key":"16","name":"Thüringen"}},{"name":"Neue Str.","postalCode":"04610","locality":"Meuselwitz","municipality":{"key":"16077032","name":"Meuselwitz, Stadt","type":"Stadt"},"district":{"key":"16077","name":"Altenburger Land","type":"Landkreis"},"federalState":{"key":"16","name":"Thüringen"}},{"name":"Neugasse","postalCode":"04610","locality":"Meuselwitz","municipality":{"key":"16077032","name":"Meuselwitz, Stadt","type":"Stadt"},"district":{"key":"16077","name":"Altenburger Land","type":"Landkreis"},"federalState":{"key":"16","name":"Thüringen"}},{"name":"Niemöllerstr.","postalCode":"04610","locality":"Meuselwitz","municipality":{"key":"16077032","name":"Meuselwitz, Stadt","type":"Stadt"},"district":{"key":"16077","name":"Altenburger Land","type":"Landkreis"},"federalState":{"key":"16","name":"Thüringen"}},{"name":"Nordsiedlung","postalCode":"04610","locality":"Meuselwitz","municipality":{"key":"16077032","name":"Meuselwitz, Stadt","type":"Stadt"},"district":{"key":"16077","name":"Altenburger Land","type":"Landkreis"},"federalState":{"key":"16","name":"Thüringen"}},{"name":"Nordstr.","postalCode":"04610","locality":"Meuselwitz","municipality":{"key":"16077032","name":"Meuselwitz, Stadt","type":"Stadt"},"district":{"key":"16077","name":"Altenburger Land","type":"Landkreis"},"federalState":{"key":"16","name":"Thüringen"}},{"name":"OdF-Platz","postalCode":"04610","locality":"Meuselwitz","municipality":{"key":"16077032","name":"Meuselwitz, Stadt","type":"Stadt"},"district":{"key":"16077","name":"Altenburger Land","type":"Landkreis"},"federalState":{"key":"16","name":"Thüringen"}},{"name":"Oststr.","postalCode":"04610","locality":"Meuselwitz","municipality":{"key":"16077032","name":"Meuselwitz, Stadt","type":"Stadt"},"district":{"key":"16077","name":"Altenburger Land","type":"Landkreis"},"federalState":{"key":"16","name":"Thüringen"}},{"name":"Otto-Engert-Str.","postalCode":"04610","locality":"Meuselwitz","municipality":{"key":"16077032","name":"Meuselwitz, Stadt","type":"Stadt"},"district":{"key":"16077","name":"Altenburger Land","type":"Landkreis"},"federalState":{"key":"16","name":"Thüringen"}},{"name":"Parkstr.","postalCode":"04610","locality":"Meuselwitz","municipality":{"key":"16077032","name":"Meuselwitz, Stadt","type":"Stadt"},"district":{"key":"16077","name":"Altenburger Land","type":"Landkreis"},"federalState":{"key":"16","name":"Thüringen"}},{"name":"Penkwitzer Weg","postalCode":"04610","locality":"Meuselwitz","municipality":{"key":"16077032","name":"Meuselwitz, Stadt","type":"Stadt"},"district":{"key":"16077","name":"Altenburger Land","type":"Landkreis"},"federalState":{"key":"16","name":"Thüringen"}},{"name":"Pestalozzistr.","postalCode":"04610","locality":"Meuselwitz","municipality":{"key":"16077032","name":"Meuselwitz, Stadt","type":"Stadt"},"district":{"key":"16077","name":"Altenburger Land","type":"Landkreis"},"federalState":{"key":"16","name":"Thüringen"}},{"name":"Pflichtendorfer Str.","postalCode":"04610","locality":"Meuselwitz","municipality":{"key":"16077032","name":"Meuselwitz, Stadt","type":"Stadt"},"district":{"key":"16077","name":"Altenburger Land","type":"Landkreis"},"federalState":{"key":"16","name":"Thüringen"}},{"name":"Phönixstr.","postalCode":"04610","locality":"Meuselwitz","municipality":{"key":"16077032","name":"Meuselwitz, Stadt","type":"Stadt"},"district":{"key":"16077","name":"Altenburger Land","type":"Landkreis"},"federalState":{"key":"16","name":"Thüringen"}},{"name":"Poderschauer Gasse","postalCode":"04610","locality":"Meuselwitz","municipality":{"key":"16077032","name":"Meuselwitz, Stadt","type":"Stadt"},"district":{"key":"16077","name":"Altenburger Land","type":"Landkreis"},"federalState":{"key":"16","name":"Thüringen"}},{"name":"Prößdorfer Weg","postalCode":"04610","locality":"Meuselwitz","municipality":{"key":"16077032","name":"Meuselwitz, Stadt","type":"Stadt"},"district":{"key":"16077","name":"Altenburger Land","type":"Landkreis"},"federalState":{"key":"16","name":"Thüringen"}},{"name":"Querstr.","postalCode":"04610","locality":"Meuselwitz","municipality":{"key":"16077032","name":"Meuselwitz, Stadt","type":"Stadt"},"district":{"key":"16077","name":"Altenburger Land","type":"Landkreis"},"federalState":{"key":"16","name":"Thüringen"}},{"name":"Rathausstr.","postalCode":"04610","locality":"Meuselwitz","municipality":{"key":"16077032","name":"Meuselwitz, Stadt","type":"Stadt"},"district":{"key":"16077","name":"Altenburger Land","type":"Landkreis"},"federalState":{"key":"16","name":"Thüringen"}},{"name":"Rathenauplatz","postalCode":"04610","locality":"Meuselwitz","municipality":{"key":"16077032","name":"Meuselwitz, Stadt","type":"Stadt"},"district":{"key":"16077","name":"Altenburger Land","type":"Landkreis"},"federalState":{"key":"16","name":"Thüringen"}},{"name":"Reichenbachgasse","postalCode":"04610","locality":"Meuselwitz","municipality":{"key":"16077032","name":"Meuselwitz, Stadt","type":"Stadt"},"district":{"key":"16077","name":"Altenburger Land","type":"Landkreis"},"federalState":{"key":"16","name":"Thüringen"}},{"name":"Richard-Jarros-Str.","postalCode":"04610","locality":"Meuselwitz","municipality":{"key":"16077032","name":"Meuselwitz, Stadt","type":"Stadt"},"district":{"key":"16077","name":"Altenburger Land","type":"Landkreis"},"federalState":{"key":"16","name":"Thüringen"}},{"name":"Ringgasse","postalCode":"04610","locality":"Meuselwitz","municipality":{"key":"16077032","name":"Meuselwitz, Stadt","type":"Stadt"},"district":{"key":"16077","name":"Altenburger Land","type":"Landkreis"},"federalState":{"key":"16","name":"Thüringen"}},{"name":"Ringstr.","postalCode":"04610","locality":"Meuselwitz","municipality":{"key":"16077032","name":"Meuselwitz, Stadt","type":"Stadt"},"district":{"key":"16077","name":"Altenburger Land","type":"Landkreis"},"federalState":{"key":"16","name":"Thüringen"}},{"name":"Robert-Ebert-Gasse","postalCode":"04610","locality":"Meuselwitz","municipality":{"key":"16077032","name":"Meuselwitz, Stadt","type":"Stadt"},"district":{"key":"16077","name":"Altenburger Land","type":"Landkreis"},"federalState":{"key":"16","name":"Thüringen"}},{"name":"Rositzer Str.","postalCode":"04610","locality":"Meuselwitz","municipality":{"key":"16077032","name":"Meuselwitz, Stadt","type":"Stadt"},"district":{"key":"16077","name":"Altenburger Land","type":"Landkreis"},"federalState":{"key":"16","name":"Thüringen"}},{"name":"Rudolf-Breitscheid-Str.","postalCode":"04610","locality":"Meuselwitz","municipality":{"key":"16077032","name":"Meuselwitz, Stadt","type":"Stadt"},"district":{"key":"16077","name":"Altenburger Land","type":"Landkreis"},"federalState":{"key":"16","name":"Thüringen"}},{"name":"Rusendorfer Weg","postalCode":"04610","locality":"Meuselwitz","municipality":{"key":"16077032","name":"Meuselwitz, Stadt","type":"Stadt"},"district":{"key":"16077","name":"Altenburger Land","type":"Landkreis"},"federalState":{"key":"16","name":"Thüringen"}},{"name":"Scheringerstr.","postalCode":"04610","locality":"Meuselwitz","municipality":{"key":"16077032","name":"Meuselwitz, Stadt","type":"Stadt"},"district":{"key":"16077","name":"Altenburger Land","type":"Landkreis"},"federalState":{"key":"16","name":"Thüringen"}},{"name":"Schillerstr.","postalCode":"04610","locality":"Meuselwitz","municipality":{"key":"16077032","name":"Meuselwitz, Stadt","type":"Stadt"},"district":{"key":"16077","name":"Altenburger Land","type":"Landkreis"},"federalState":{"key":"16","name":"Thüringen"}},{"name":"Schlosspark","postalCode":"04610","locality":"Meuselwitz","municipality":{"key":"16077032","name":"Meuselwitz, Stadt","type":"Stadt"},"district":{"key":"16077","name":"Altenburger Land","type":"Landkreis"},"federalState":{"key":"16","name":"Thüringen"}},{"name":"Schmöllnsche Str.","postalCode":"04610","locality":"Meuselwitz","municipality":{"key":"16077032","name":"Meuselwitz, Stadt","type":"Stadt"},"district":{"key":"16077","name":"Altenburger Land","type":"Landkreis"},"federalState":{"key":"16","name":"Thüringen"}},{"name":"Schnauderbrücke Brossen","postalCode":"04610","locality":"Meuselwitz","municipality":{"key":"16077032","name":"Meuselwitz, Stadt","type":"Stadt"},"district":{"key":"16077","name":"Altenburger Land","type":"Landkreis"},"federalState":{"key":"16","name":"Thüringen"}},{"name":"Schnauderhainicher Weg","postalCode":"04610","locality":"Meuselwitz","municipality":{"key":"16077032","name":"Meuselwitz, Stadt","type":"Stadt"},"district":{"key":"16077","name":"Altenburger Land","type":"Landkreis"},"federalState":{"key":"16","name":"Thüringen"}},{"name":"Schulgasse","postalCode":"04610","locality":"Meuselwitz","municipality":{"key":"16077032","name":"Meuselwitz, Stadt","type":"Stadt"},"district":{"key":"16077","name":"Altenburger Land","type":"Landkreis"},"federalState":{"key":"16","name":"Thüringen"}},{"name":"Schulstr.","postalCode":"04610","locality":"Meuselwitz","municipality":{"key":"16077032","name":"Meuselwitz, Stadt","type":"Stadt"},"district":{"key":"16077","name":"Altenburger Land","type":"Landkreis"},"federalState":{"key":"16","name":"Thüringen"}},{"name":"Seckendorffpark","postalCode":"04610","locality":"Meuselwitz","municipality":{"key":"16077032","name":"Meuselwitz, Stadt","type":"Stadt"},"district":{"key":"16077","name":"Altenburger Land","type":"Landkreis"},"federalState":{"key":"16","name":"Thüringen"}},{"name":"Siedlung","postalCode":"04610","locality":"Meuselwitz","municipality":{"key":"16077032","name":"Meuselwitz, Stadt","type":"Stadt"},"district":{"key":"16077","name":"Altenburger Land","type":"Landkreis"},"federalState":{"key":"16","name":"Thüringen"}},{"name":"Sonnenstr.","postalCode":"04610","locality":"Meuselwitz","municipality":{"key":"16077032","name":"Meuselwitz, Stadt","type":"Stadt"},"district":{"key":"16077","name":"Altenburger Land","type":"Landkreis"},"federalState":{"key":"16","name":"Thüringen"}},{"name":"Str. der Einheit","postalCode":"04610","locality":"Meuselwitz","municipality":{"key":"16077032","name":"Meuselwitz, Stadt","type":"Stadt"},"district":{"key":"16077","name":"Altenburger Land","type":"Landkreis"},"federalState":{"key":"16","name":"Thüringen"}},{"name":"Südstr.","postalCode":"04610","locality":"Meuselwitz","municipality":{"key":"16077032","name":"Meuselwitz, Stadt","type":"Stadt"},"district":{"key":"16077","name":"Altenburger Land","type":"Landkreis"},"federalState":{"key":"16","name":"Thüringen"}},{"name":"Talstr.","postalCode":"04610","locality":"Meuselwitz","municipality":{"key":"16077032","name":"Meuselwitz, Stadt","type":"Stadt"},"district":{"key":"16077","name":"Altenburger Land","type":"Landkreis"},"federalState":{"key":"16","name":"Thüringen"}},{"name":"Thälmannring","postalCode":"04610","locality":"Meuselwitz","municipality":{"key":"16077032","name":"Meuselwitz, Stadt","type":"Stadt"},"district":{"key":"16077","name":"Altenburger Land","type":"Landkreis"},"federalState":{"key":"16","name":"Thüringen"}},{"name":"Thomas-Müntzer-Str.","postalCode":"04610","locality":"Meuselwitz","municipality":{"key":"16077032","name":"Meuselwitz, Stadt","type":"Stadt"},"district":{"key":"16077","name":"Altenburger Land","type":"Landkreis"},"federalState":{"key":"16","name":"Thüringen"}},{"name":"Uhlandstr.","postalCode":"04610","locality":"Meuselwitz","municipality":{"key":"16077032","name":"Meuselwitz, Stadt","type":"Stadt"},"district":{"key":"16077","name":"Altenburger Land","type":"Landkreis"},"federalState":{"key":"16","name":"Thüringen"}},{"name":"Vater-Jahn-Str.","postalCode":"04610","locality":"Meuselwitz","municipality":{"key":"16077032","name":"Meuselwitz, Stadt","type":"Stadt"},"district":{"key":"16077","name":"Altenburger Land","type":"Landkreis"},"federalState":{"key":"16","name":"Thüringen"}},{"name":"Von-Minckwitz-Str.","postalCode":"04610","locality":"Meuselwitz","municipality":{"key":"16077032","name":"Meuselwitz, Stadt","type":"Stadt"},"district":{"key":"16077","name":"Altenburger Land","type":"Landkreis"},"federalState":{"key":"16","name":"Thüringen"}},{"name":"Waltersdorfer Str.","postalCode":"04610","locality":"Meuselwitz","municipality":{"key":"16077032","name":"Meuselwitz, Stadt","type":"Stadt"},"district":{"key":"16077","name":"Altenburger Land","type":"Landkreis"},"federalState":{"key":"16","name":"Thüringen"}},{"name":"Weidenweg","postalCode":"04610","locality":"Meuselwitz","municipality":{"key":"16077032","name":"Meuselwitz, Stadt","type":"Stadt"},"district":{"key":"16077","name":"Altenburger Land","type":"Landkreis"},"federalState":{"key":"16","name":"Thüringen"}},{"name":"Weinbergstr.","postalCode":"04610","locality":"Meuselwitz","municipality":{"key":"16077032","name":"Meuselwitz, Stadt","type":"Stadt"},"district":{"key":"16077","name":"Altenburger Land","type":"Landkreis"},"federalState":{"key":"16","name":"Thüringen"}},{"name":"Weststr.","postalCode":"04610","locality":"Meuselwitz","municipality":{"key":"16077032","name":"Meuselwitz, Stadt","type":"Stadt"},"district":{"key":"16077","name":"Altenburger Land","type":"Landkreis"},"federalState":{"key":"16","name":"Thüringen"}},{"name":"Wiesenstr.","postalCode":"04610","locality":"Meuselwitz","municipality":{"key":"16077032","name":"Meuselwitz, Stadt","type":"Stadt"},"district":{"key":"16077","name":"Altenburger Land","type":"Landkreis"},"federalState":{"key":"16","name":"Thüringen"}},{"name":"Wiesenweg","postalCode":"04610","locality":"Meuselwitz","municipality":{"key":"16077032","name":"Meuselwitz, Stadt","type":"Stadt"},"district":{"key":"16077","name":"Altenburger Land","type":"Landkreis"},"federalState":{"key":"16","name":"Thüringen"}},{"name":"Wintersdorfer Str.","postalCode":"04610","locality":"Meuselwitz","municipality":{"key":"16077032","name":"Meuselwitz, Stadt","type":"Stadt"},"district":{"key":"16077","name":"Altenburger Land","type":"Landkreis"},"federalState":{"key":"16","name":"Thüringen"}},{"name":"Wirkerpark","postalCode":"04610","locality":"Meuselwitz","municipality":{"key":"16077032","name":"Meuselwitz, Stadt","type":"Stadt"},"district":{"key":"16077","name":"Altenburger Land","type":"Landkreis"},"federalState":{"key":"16","name":"Thüringen"}},{"name":"Wirtschaftsweg","postalCode":"04610","locality":"Meuselwitz","municipality":{"key":"16077032","name":"Meuselwitz, Stadt","type":"Stadt"},"district":{"key":"16077","name":"Altenburger Land","type":"Landkreis"},"federalState":{"key":"16","name":"Thüringen"}},{"name":"Zeitzer Str.","postalCode":"04610","locality":"Meuselwitz","municipality":{"key":"16077032","name":"Meuselwitz, Stadt","type":"Stadt"},"district":{"key":"16077","name":"Altenburger Land","type":"Landkreis"},"federalState":{"key":"16","name":"Thüringen"}},{"name":"Zipsendorfer Weg","postalCode":"04610","locality":"Meuselwitz","municipality":{"key":"16077032","name":"Meuselwitz, Stadt","type":"Stadt"},"district":{"key":"16077","name":"Altenburger Land","type":"Landkreis"},"federalState":{"key":"16","name":"Thüringen"}},{"name":"Zirndorfer Str.","postalCode":"04610","locality":"Meuselwitz","municipality":{"key":"16077032","name":"Meuselwitz, Stadt","type":"Stadt"},"district":{"key":"16077","name":"Altenburger Land","type":"Landkreis"},"federalState":{"key":"16","name":"Thüringen"}},]