[{"name":"Ablassweg","postalCode":"74924","locality":"Neckarbischofsheim","municipality":{"key":"08226055","name":"Neckarbischofsheim, Stadt","type":"Stadt"},"district":{"key":"08226","name":"Rhein-Neckar-Kreis","type":"Landkreis"},"federalState":{"key":"08","name":"Baden-Württemberg"}},{"name":"Abt-Brandt-Str.","postalCode":"97941","locality":"Tauberbischofsheim","municipality":{"key":"08128115","name":"Tauberbischofsheim, Stadt","type":"Stadt"},"district":{"key":"08128","name":"Main-Tauber-Kreis","type":"Landkreis"},"federalState":{"key":"08","name":"Baden-Württemberg"}},{"name":"Adam-Ries-Str.","postalCode":"97941","locality":"Tauberbischofsheim","municipality":{"key":"08128115","name":"Tauberbischofsheim, Stadt","type":"Stadt"},"district":{"key":"08128","name":"Main-Tauber-Kreis","type":"Landkreis"},"federalState":{"key":"08","name":"Baden-Württemberg"}},{"name":"Ahornstr.","postalCode":"74924","locality":"Neckarbischofsheim","municipality":{"key":"08226055","name":"Neckarbischofsheim, Stadt","type":"Stadt"},"district":{"key":"08226","name":"Rhein-Neckar-Kreis","type":"Landkreis"},"federalState":{"key":"08","name":"Baden-Württemberg"}},{"name":"Ahornstr.","postalCode":"97653","locality":"Bischofsheim i.d.Rhön","municipality":{"key":"09673117","name":"Bischofsheim i.d.Rhön, St","type":"Stadt"},"district":{"key":"09673","name":"Rhön-Grabfeld","type":"Landkreis"},"federalState":{"key":"09","name":"Bayern"}},{"name":"Ahornstr.","postalCode":"97941","locality":"Tauberbischofsheim","municipality":{"key":"08128115","name":"Tauberbischofsheim, Stadt","type":"Stadt"},"district":{"key":"08128","name":"Main-Tauber-Kreis","type":"Landkreis"},"federalState":{"key":"08","name":"Baden-Württemberg"}},{"name":"Akazienstr.","postalCode":"74924","locality":"Neckarbischofsheim","municipality":{"key":"08226055","name":"Neckarbischofsheim, Stadt","type":"Stadt"},"district":{"key":"08226","name":"Rhein-Neckar-Kreis","type":"Landkreis"},"federalState":{"key":"08","name":"Baden-Württemberg"}},{"name":"Albert-Einstein-Str.","postalCode":"97941","locality":"Tauberbischofsheim","municipality":{"key":"08128115","name":"Tauberbischofsheim, Stadt","type":"Stadt"},"district":{"key":"08128","name":"Main-Tauber-Kreis","type":"Landkreis"},"federalState":{"key":"08","name":"Baden-Württemberg"}},{"name":"Albert-Schweitzer-Str.","postalCode":"97941","locality":"Tauberbischofsheim","municipality":{"key":"08128115","name":"Tauberbischofsheim, Stadt","type":"Stadt"},"district":{"key":"08128","name":"Main-Tauber-Kreis","type":"Landkreis"},"federalState":{"key":"08","name":"Baden-Württemberg"}},{"name":"Alemannenweg","postalCode":"65474","locality":"Bischofsheim","municipality":{"key":"06433002","name":"Bischofsheim","type":"Kreisangehörige_Gemeinde"},"district":{"key":"06433","name":"Groß-Gerau","type":"Landkreis"},"federalState":{"key":"06","name":"Hessen"}},{"name":"Alexandergasse","postalCode":"74924","locality":"Neckarbischofsheim","municipality":{"key":"08226055","name":"Neckarbischofsheim, Stadt","type":"Stadt"},"district":{"key":"08226","name":"Rhein-Neckar-Kreis","type":"Landkreis"},"federalState":{"key":"08","name":"Baden-Württemberg"}},{"name":"Allee La Chapelle-Saint-Luc","postalCode":"74924","locality":"Neckarbischofsheim","municipality":{"key":"08226055","name":"Neckarbischofsheim, Stadt","type":"Stadt"},"district":{"key":"08226","name":"Rhein-Neckar-Kreis","type":"Landkreis"},"federalState":{"key":"08","name":"Baden-Württemberg"}},{"name":"Alte Fahrstr.","postalCode":"97653","locality":"Bischofsheim i.d.Rhön","municipality":{"key":"09673117","name":"Bischofsheim i.d.Rhön, St","type":"Stadt"},"district":{"key":"09673","name":"Rhön-Grabfeld","type":"Landkreis"},"federalState":{"key":"09","name":"Bayern"}},{"name":"Alte Hasselbacher Str.","postalCode":"74924","locality":"Neckarbischofsheim","municipality":{"key":"08226055","name":"Neckarbischofsheim, Stadt","type":"Stadt"},"district":{"key":"08226","name":"Rhein-Neckar-Kreis","type":"Landkreis"},"federalState":{"key":"08","name":"Baden-Württemberg"}},{"name":"Alte Rathausgasse","postalCode":"74924","locality":"Neckarbischofsheim","municipality":{"key":"08226055","name":"Neckarbischofsheim, Stadt","type":"Stadt"},"district":{"key":"08226","name":"Rhein-Neckar-Kreis","type":"Landkreis"},"federalState":{"key":"08","name":"Baden-Württemberg"}},{"name":"Alter Hasselbacher Weg","postalCode":"74924","locality":"Neckarbischofsheim","municipality":{"key":"08226055","name":"Neckarbischofsheim, Stadt","type":"Stadt"},"district":{"key":"08226","name":"Rhein-Neckar-Kreis","type":"Landkreis"},"federalState":{"key":"08","name":"Baden-Württemberg"}},{"name":"Alter Mainzer Weg","postalCode":"65474","locality":"Bischofsheim","municipality":{"key":"06433002","name":"Bischofsheim","type":"Kreisangehörige_Gemeinde"},"district":{"key":"06433","name":"Groß-Gerau","type":"Landkreis"},"federalState":{"key":"06","name":"Hessen"}},{"name":"Alter Sinsheimer Weg","postalCode":"74924","locality":"Neckarbischofsheim","municipality":{"key":"08226055","name":"Neckarbischofsheim, Stadt","type":"Stadt"},"district":{"key":"08226","name":"Rhein-Neckar-Kreis","type":"Landkreis"},"federalState":{"key":"08","name":"Baden-Württemberg"}},{"name":"Alte Steige","postalCode":"97941","locality":"Tauberbischofsheim","municipality":{"key":"08128115","name":"Tauberbischofsheim, Stadt","type":"Stadt"},"district":{"key":"08128","name":"Main-Tauber-Kreis","type":"Landkreis"},"federalState":{"key":"08","name":"Baden-Württemberg"}},{"name":"Alte Str.","postalCode":"97653","locality":"Bischofsheim i.d.Rhön","municipality":{"key":"09673117","name":"Bischofsheim i.d.Rhön, St","type":"Stadt"},"district":{"key":"09673","name":"Rhön-Grabfeld","type":"Landkreis"},"federalState":{"key":"09","name":"Bayern"}},{"name":"Alte Wertheimer Str.","postalCode":"97941","locality":"Tauberbischofsheim","municipality":{"key":"08128115","name":"Tauberbischofsheim, Stadt","type":"Stadt"},"district":{"key":"08128","name":"Main-Tauber-Kreis","type":"Landkreis"},"federalState":{"key":"08","name":"Baden-Württemberg"}},{"name":"Am Alten Gerauer Weg","postalCode":"65474","locality":"Bischofsheim","municipality":{"key":"06433002","name":"Bischofsheim","type":"Kreisangehörige_Gemeinde"},"district":{"key":"06433","name":"Groß-Gerau","type":"Landkreis"},"federalState":{"key":"06","name":"Hessen"}},{"name":"Am Alten Kostheimer Weg","postalCode":"65474","locality":"Bischofsheim","municipality":{"key":"06433002","name":"Bischofsheim","type":"Kreisangehörige_Gemeinde"},"district":{"key":"06433","name":"Groß-Gerau","type":"Landkreis"},"federalState":{"key":"06","name":"Hessen"}},{"name":"Am Bahndamm","postalCode":"97653","locality":"Bischofsheim i.d.Rhön","municipality":{"key":"09673117","name":"Bischofsheim i.d.Rhön, St","type":"Stadt"},"district":{"key":"09673","name":"Rhön-Grabfeld","type":"Landkreis"},"federalState":{"key":"09","name":"Bayern"}},{"name":"Am Baumgarten","postalCode":"97941","locality":"Tauberbischofsheim","municipality":{"key":"08128115","name":"Tauberbischofsheim, Stadt","type":"Stadt"},"district":{"key":"08128","name":"Main-Tauber-Kreis","type":"Landkreis"},"federalState":{"key":"08","name":"Baden-Württemberg"}},{"name":"Am Bauschheimer Weg","postalCode":"65474","locality":"Bischofsheim","municipality":{"key":"06433002","name":"Bischofsheim","type":"Kreisangehörige_Gemeinde"},"district":{"key":"06433","name":"Groß-Gerau","type":"Landkreis"},"federalState":{"key":"06","name":"Hessen"}},{"name":"Am Bild","postalCode":"97941","locality":"Tauberbischofsheim","municipality":{"key":"08128115","name":"Tauberbischofsheim, Stadt","type":"Stadt"},"district":{"key":"08128","name":"Main-Tauber-Kreis","type":"Landkreis"},"federalState":{"key":"08","name":"Baden-Württemberg"}},{"name":"Am Brenner","postalCode":"97941","locality":"Tauberbischofsheim","municipality":{"key":"08128115","name":"Tauberbischofsheim, Stadt","type":"Stadt"},"district":{"key":"08128","name":"Main-Tauber-Kreis","type":"Landkreis"},"federalState":{"key":"08","name":"Baden-Württemberg"}},{"name":"Am Brunnenrain","postalCode":"97941","locality":"Tauberbischofsheim","municipality":{"key":"08128115","name":"Tauberbischofsheim, Stadt","type":"Stadt"},"district":{"key":"08128","name":"Main-Tauber-Kreis","type":"Landkreis"},"federalState":{"key":"08","name":"Baden-Württemberg"}},{"name":"Am Dalberger","postalCode":"55296","locality":"Gau-Bischofsheim","municipality":{"key":"07339020","name":"Gau-Bischofsheim","type":"Kreisangehörige_Gemeinde"},"district":{"key":"07339","name":"Mainz-Bingen","type":"Landkreis"},"federalState":{"key":"07","name":"Rheinland-Pfalz"}},{"name":"Am Dittwarer Bahnhof","postalCode":"97941","locality":"Tauberbischofsheim","municipality":{"key":"08128115","name":"Tauberbischofsheim, Stadt","type":"Stadt"},"district":{"key":"08128","name":"Main-Tauber-Kreis","type":"Landkreis"},"federalState":{"key":"08","name":"Baden-Württemberg"}},{"name":"Am Dorf","postalCode":"97941","locality":"Tauberbischofsheim","municipality":{"key":"08128115","name":"Tauberbischofsheim, Stadt","type":"Stadt"},"district":{"key":"08128","name":"Main-Tauber-Kreis","type":"Landkreis"},"federalState":{"key":"08","name":"Baden-Württemberg"}},{"name":"Am Dörrlein","postalCode":"97941","locality":"Tauberbischofsheim","municipality":{"key":"08128115","name":"Tauberbischofsheim, Stadt","type":"Stadt"},"district":{"key":"08128","name":"Main-Tauber-Kreis","type":"Landkreis"},"federalState":{"key":"08","name":"Baden-Württemberg"}},{"name":"Am Eichelberg","postalCode":"97941","locality":"Tauberbischofsheim","municipality":{"key":"08128115","name":"Tauberbischofsheim, Stadt","type":"Stadt"},"district":{"key":"08128","name":"Main-Tauber-Kreis","type":"Landkreis"},"federalState":{"key":"08","name":"Baden-Württemberg"}},{"name":"Am Flur","postalCode":"97941","locality":"Tauberbischofsheim","municipality":{"key":"08128115","name":"Tauberbischofsheim, Stadt","type":"Stadt"},"district":{"key":"08128","name":"Main-Tauber-Kreis","type":"Landkreis"},"federalState":{"key":"08","name":"Baden-Württemberg"}},{"name":"Am Flurgraben","postalCode":"65474","locality":"Bischofsheim","municipality":{"key":"06433002","name":"Bischofsheim","type":"Kreisangehörige_Gemeinde"},"district":{"key":"06433","name":"Groß-Gerau","type":"Landkreis"},"federalState":{"key":"06","name":"Hessen"}},{"name":"Am Friedhof","postalCode":"97653","locality":"Bischofsheim i.d.Rhön","municipality":{"key":"09673117","name":"Bischofsheim i.d.Rhön, St","type":"Stadt"},"district":{"key":"09673","name":"Rhön-Grabfeld","type":"Landkreis"},"federalState":{"key":"09","name":"Bayern"}},{"name":"Am Gassenrain","postalCode":"97653","locality":"Bischofsheim i.d.Rhön","municipality":{"key":"09673117","name":"Bischofsheim i.d.Rhön, St","type":"Stadt"},"district":{"key":"09673","name":"Rhön-Grabfeld","type":"Landkreis"},"federalState":{"key":"09","name":"Bayern"}},{"name":"Am Hang","postalCode":"97653","locality":"Bischofsheim i.d.Rhön","municipality":{"key":"09673117","name":"Bischofsheim i.d.Rhön, St","type":"Stadt"},"district":{"key":"09673","name":"Rhön-Grabfeld","type":"Landkreis"},"federalState":{"key":"09","name":"Bayern"}},{"name":"Am Hang","postalCode":"97941","locality":"Tauberbischofsheim","municipality":{"key":"08128115","name":"Tauberbischofsheim, Stadt","type":"Stadt"},"district":{"key":"08128","name":"Main-Tauber-Kreis","type":"Landkreis"},"federalState":{"key":"08","name":"Baden-Württemberg"}},{"name":"Am Haubenlöchlein","postalCode":"97941","locality":"Tauberbischofsheim","municipality":{"key":"08128115","name":"Tauberbischofsheim, Stadt","type":"Stadt"},"district":{"key":"08128","name":"Main-Tauber-Kreis","type":"Landkreis"},"federalState":{"key":"08","name":"Baden-Württemberg"}},{"name":"Am Heimbergsflur","postalCode":"97941","locality":"Tauberbischofsheim","municipality":{"key":"08128115","name":"Tauberbischofsheim, Stadt","type":"Stadt"},"district":{"key":"08128","name":"Main-Tauber-Kreis","type":"Landkreis"},"federalState":{"key":"08","name":"Baden-Württemberg"}},{"name":"Am Himmelspfad","postalCode":"65474","locality":"Bischofsheim","municipality":{"key":"06433002","name":"Bischofsheim","type":"Kreisangehörige_Gemeinde"},"district":{"key":"06433","name":"Groß-Gerau","type":"Landkreis"},"federalState":{"key":"06","name":"Hessen"}},{"name":"Am Höhberg","postalCode":"97941","locality":"Tauberbischofsheim","municipality":{"key":"08128115","name":"Tauberbischofsheim, Stadt","type":"Stadt"},"district":{"key":"08128","name":"Main-Tauber-Kreis","type":"Landkreis"},"federalState":{"key":"08","name":"Baden-Württemberg"}},{"name":"Am Jüdlein","postalCode":"97941","locality":"Tauberbischofsheim","municipality":{"key":"08128115","name":"Tauberbischofsheim, Stadt","type":"Stadt"},"district":{"key":"08128","name":"Main-Tauber-Kreis","type":"Landkreis"},"federalState":{"key":"08","name":"Baden-Württemberg"}},{"name":"Am Käpelle","postalCode":"97941","locality":"Tauberbischofsheim","municipality":{"key":"08128115","name":"Tauberbischofsheim, Stadt","type":"Stadt"},"district":{"key":"08128","name":"Main-Tauber-Kreis","type":"Landkreis"},"federalState":{"key":"08","name":"Baden-Württemberg"}},{"name":"Am Kellersberg","postalCode":"55296","locality":"Gau-Bischofsheim","municipality":{"key":"07339020","name":"Gau-Bischofsheim","type":"Kreisangehörige_Gemeinde"},"district":{"key":"07339","name":"Mainz-Bingen","type":"Landkreis"},"federalState":{"key":"07","name":"Rheinland-Pfalz"}},{"name":"Am Kirchberg","postalCode":"97653","locality":"Bischofsheim i.d.Rhön","municipality":{"key":"09673117","name":"Bischofsheim i.d.Rhön, St","type":"Stadt"},"district":{"key":"09673","name":"Rhön-Grabfeld","type":"Landkreis"},"federalState":{"key":"09","name":"Bayern"}},{"name":"Am Kirschbaum","postalCode":"65474","locality":"Bischofsheim","municipality":{"key":"06433002","name":"Bischofsheim","type":"Kreisangehörige_Gemeinde"},"district":{"key":"06433","name":"Groß-Gerau","type":"Landkreis"},"federalState":{"key":"06","name":"Hessen"}},{"name":"Am Kirschengarten","postalCode":"97941","locality":"Tauberbischofsheim","municipality":{"key":"08128115","name":"Tauberbischofsheim, Stadt","type":"Stadt"},"district":{"key":"08128","name":"Main-Tauber-Kreis","type":"Landkreis"},"federalState":{"key":"08","name":"Baden-Württemberg"}},{"name":"Bachgasse","postalCode":"97941","locality":"Tauberbischofsheim","municipality":{"key":"08128115","name":"Tauberbischofsheim, Stadt","type":"Stadt"},"district":{"key":"08128","name":"Main-Tauber-Kreis","type":"Landkreis"},"federalState":{"key":"08","name":"Baden-Württemberg"}},{"name":"Backesgasse","postalCode":"55296","locality":"Gau-Bischofsheim","municipality":{"key":"07339020","name":"Gau-Bischofsheim","type":"Kreisangehörige_Gemeinde"},"district":{"key":"07339","name":"Mainz-Bingen","type":"Landkreis"},"federalState":{"key":"07","name":"Rheinland-Pfalz"}},{"name":"Badener Ring","postalCode":"97941","locality":"Tauberbischofsheim","municipality":{"key":"08128115","name":"Tauberbischofsheim, Stadt","type":"Stadt"},"district":{"key":"08128","name":"Main-Tauber-Kreis","type":"Landkreis"},"federalState":{"key":"08","name":"Baden-Württemberg"}},{"name":"Badgasse","postalCode":"97941","locality":"Tauberbischofsheim","municipality":{"key":"08128115","name":"Tauberbischofsheim, Stadt","type":"Stadt"},"district":{"key":"08128","name":"Main-Tauber-Kreis","type":"Landkreis"},"federalState":{"key":"08","name":"Baden-Württemberg"}},{"name":"Bahnhofstr.","postalCode":"55296","locality":"Gau-Bischofsheim","municipality":{"key":"07339020","name":"Gau-Bischofsheim","type":"Kreisangehörige_Gemeinde"},"district":{"key":"07339","name":"Mainz-Bingen","type":"Landkreis"},"federalState":{"key":"07","name":"Rheinland-Pfalz"}},{"name":"Bahnhofstr.","postalCode":"65474","locality":"Bischofsheim","municipality":{"key":"06433002","name":"Bischofsheim","type":"Kreisangehörige_Gemeinde"},"district":{"key":"06433","name":"Groß-Gerau","type":"Landkreis"},"federalState":{"key":"06","name":"Hessen"}},{"name":"Bahnhofstr.","postalCode":"74924","locality":"Neckarbischofsheim","municipality":{"key":"08226055","name":"Neckarbischofsheim, Stadt","type":"Stadt"},"district":{"key":"08226","name":"Rhein-Neckar-Kreis","type":"Landkreis"},"federalState":{"key":"08","name":"Baden-Württemberg"}},{"name":"Bahnhofstr.","postalCode":"97653","locality":"Bischofsheim i.d.Rhön","municipality":{"key":"09673117","name":"Bischofsheim i.d.Rhön, St","type":"Stadt"},"district":{"key":"09673","name":"Rhön-Grabfeld","type":"Landkreis"},"federalState":{"key":"09","name":"Bayern"}},{"name":"Bahnhofstr.","postalCode":"97941","locality":"Tauberbischofsheim","municipality":{"key":"08128115","name":"Tauberbischofsheim, Stadt","type":"Stadt"},"district":{"key":"08128","name":"Main-Tauber-Kreis","type":"Landkreis"},"federalState":{"key":"08","name":"Baden-Württemberg"}},{"name":"Barbarossaweg","postalCode":"97941","locality":"Tauberbischofsheim","municipality":{"key":"08128115","name":"Tauberbischofsheim, Stadt","type":"Stadt"},"district":{"key":"08128","name":"Main-Tauber-Kreis","type":"Landkreis"},"federalState":{"key":"08","name":"Baden-Württemberg"}},{"name":"Bargener Weg","postalCode":"74924","locality":"Neckarbischofsheim","municipality":{"key":"08226055","name":"Neckarbischofsheim, Stadt","type":"Stadt"},"district":{"key":"08226","name":"Rhein-Neckar-Kreis","type":"Landkreis"},"federalState":{"key":"08","name":"Baden-Württemberg"}},{"name":"Bauersberger Str.","postalCode":"97653","locality":"Bischofsheim i.d.Rhön","municipality":{"key":"09673117","name":"Bischofsheim i.d.Rhön, St","type":"Stadt"},"district":{"key":"09673","name":"Rhön-Grabfeld","type":"Landkreis"},"federalState":{"key":"09","name":"Bayern"}},{"name":"Bauersbergstr.","postalCode":"97653","locality":"Bischofsheim i.d.Rhön","municipality":{"key":"09673117","name":"Bischofsheim i.d.Rhön, St","type":"Stadt"},"district":{"key":"09673","name":"Rhön-Grabfeld","type":"Landkreis"},"federalState":{"key":"09","name":"Bayern"}},{"name":"Baumgartenweg","postalCode":"97941","locality":"Tauberbischofsheim","municipality":{"key":"08128115","name":"Tauberbischofsheim, Stadt","type":"Stadt"},"district":{"key":"08128","name":"Main-Tauber-Kreis","type":"Landkreis"},"federalState":{"key":"08","name":"Baden-Württemberg"}},{"name":"Bäumlein","postalCode":"97941","locality":"Tauberbischofsheim","municipality":{"key":"08128115","name":"Tauberbischofsheim, Stadt","type":"Stadt"},"district":{"key":"08128","name":"Main-Tauber-Kreis","type":"Landkreis"},"federalState":{"key":"08","name":"Baden-Württemberg"}},{"name":"Bauschheimer Weg","postalCode":"65474","locality":"Bischofsheim","municipality":{"key":"06433002","name":"Bischofsheim","type":"Kreisangehörige_Gemeinde"},"district":{"key":"06433","name":"Groß-Gerau","type":"Landkreis"},"federalState":{"key":"06","name":"Hessen"}},{"name":"Beethovenstr.","postalCode":"65474","locality":"Bischofsheim","municipality":{"key":"06433002","name":"Bischofsheim","type":"Kreisangehörige_Gemeinde"},"district":{"key":"06433","name":"Groß-Gerau","type":"Landkreis"},"federalState":{"key":"06","name":"Hessen"}},{"name":"Beethovenstr.","postalCode":"97941","locality":"Tauberbischofsheim","municipality":{"key":"08128115","name":"Tauberbischofsheim, Stadt","type":"Stadt"},"district":{"key":"08128","name":"Main-Tauber-Kreis","type":"Landkreis"},"federalState":{"key":"08","name":"Baden-Württemberg"}},{"name":"Beim Kindergarten","postalCode":"97941","locality":"Tauberbischofsheim","municipality":{"key":"08128115","name":"Tauberbischofsheim, Stadt","type":"Stadt"},"district":{"key":"08128","name":"Main-Tauber-Kreis","type":"Landkreis"},"federalState":{"key":"08","name":"Baden-Württemberg"}},{"name":"Bergpfad","postalCode":"97941","locality":"Tauberbischofsheim","municipality":{"key":"08128115","name":"Tauberbischofsheim, Stadt","type":"Stadt"},"district":{"key":"08128","name":"Main-Tauber-Kreis","type":"Landkreis"},"federalState":{"key":"08","name":"Baden-Württemberg"}},{"name":"Bergstr.","postalCode":"55296","locality":"Gau-Bischofsheim","municipality":{"key":"07339020","name":"Gau-Bischofsheim","type":"Kreisangehörige_Gemeinde"},"district":{"key":"07339","name":"Mainz-Bingen","type":"Landkreis"},"federalState":{"key":"07","name":"Rheinland-Pfalz"}},{"name":"Bergstr.","postalCode":"74924","locality":"Neckarbischofsheim","municipality":{"key":"08226055","name":"Neckarbischofsheim, Stadt","type":"Stadt"},"district":{"key":"08226","name":"Rhein-Neckar-Kreis","type":"Landkreis"},"federalState":{"key":"08","name":"Baden-Württemberg"}},{"name":"Bergstr.","postalCode":"97941","locality":"Tauberbischofsheim","municipality":{"key":"08128115","name":"Tauberbischofsheim, Stadt","type":"Stadt"},"district":{"key":"08128","name":"Main-Tauber-Kreis","type":"Landkreis"},"federalState":{"key":"08","name":"Baden-Württemberg"}},{"name":"Berliner Str.","postalCode":"65474","locality":"Bischofsheim","municipality":{"key":"06433002","name":"Bischofsheim","type":"Kreisangehörige_Gemeinde"},"district":{"key":"06433","name":"Groß-Gerau","type":"Landkreis"},"federalState":{"key":"06","name":"Hessen"}},{"name":"Beundstr.","postalCode":"97941","locality":"Tauberbischofsheim","municipality":{"key":"08128115","name":"Tauberbischofsheim, Stadt","type":"Stadt"},"district":{"key":"08128","name":"Main-Tauber-Kreis","type":"Landkreis"},"federalState":{"key":"08","name":"Baden-Württemberg"}},{"name":"Biegelhofstr.","postalCode":"74924","locality":"Neckarbischofsheim","municipality":{"key":"08226055","name":"Neckarbischofsheim, Stadt","type":"Stadt"},"district":{"key":"08226","name":"Rhein-Neckar-Kreis","type":"Landkreis"},"federalState":{"key":"08","name":"Baden-Württemberg"}},{"name":"Birkenstr.","postalCode":"74924","locality":"Neckarbischofsheim","municipality":{"key":"08226055","name":"Neckarbischofsheim, Stadt","type":"Stadt"},"district":{"key":"08226","name":"Rhein-Neckar-Kreis","type":"Landkreis"},"federalState":{"key":"08","name":"Baden-Württemberg"}},{"name":"Birkenstr.","postalCode":"97653","locality":"Bischofsheim i.d.Rhön","municipality":{"key":"09673117","name":"Bischofsheim i.d.Rhön, St","type":"Stadt"},"district":{"key":"09673","name":"Rhön-Grabfeld","type":"Landkreis"},"federalState":{"key":"09","name":"Bayern"}},{"name":"Birkenweg","postalCode":"65474","locality":"Bischofsheim","municipality":{"key":"06433002","name":"Bischofsheim","type":"Kreisangehörige_Gemeinde"},"district":{"key":"06433","name":"Groß-Gerau","type":"Landkreis"},"federalState":{"key":"06","name":"Hessen"}},{"name":"Birkenweg","postalCode":"97941","locality":"Tauberbischofsheim","municipality":{"key":"08128115","name":"Tauberbischofsheim, Stadt","type":"Stadt"},"district":{"key":"08128","name":"Main-Tauber-Kreis","type":"Landkreis"},"federalState":{"key":"08","name":"Baden-Württemberg"}},{"name":"Birkigweg","postalCode":"97653","locality":"Bischofsheim i.d.Rhön","municipality":{"key":"09673117","name":"Bischofsheim i.d.Rhön, St","type":"Stadt"},"district":{"key":"09673","name":"Rhön-Grabfeld","type":"Landkreis"},"federalState":{"key":"09","name":"Bayern"}},{"name":"Bischofsheimer Str.","postalCode":"97653","locality":"Bischofsheim i.d.Rhön","municipality":{"key":"09673117","name":"Bischofsheim i.d.Rhön, St","type":"Stadt"},"district":{"key":"09673","name":"Rhön-Grabfeld","type":"Landkreis"},"federalState":{"key":"09","name":"Bayern"}},{"name":"Bismarckstr.","postalCode":"65474","locality":"Bischofsheim","municipality":{"key":"06433002","name":"Bischofsheim","type":"Kreisangehörige_Gemeinde"},"district":{"key":"06433","name":"Groß-Gerau","type":"Landkreis"},"federalState":{"key":"06","name":"Hessen"}},{"name":"Bitzweg","postalCode":"74924","locality":"Neckarbischofsheim","municipality":{"key":"08226055","name":"Neckarbischofsheim, Stadt","type":"Stadt"},"district":{"key":"08226","name":"Rhein-Neckar-Kreis","type":"Landkreis"},"federalState":{"key":"08","name":"Baden-Württemberg"}},{"name":"Bleichstr.","postalCode":"97941","locality":"Tauberbischofsheim","municipality":{"key":"08128115","name":"Tauberbischofsheim, Stadt","type":"Stadt"},"district":{"key":"08128","name":"Main-Tauber-Kreis","type":"Landkreis"},"federalState":{"key":"08","name":"Baden-Württemberg"}},{"name":"Blumenstr.","postalCode":"97653","locality":"Bischofsheim i.d.Rhön","municipality":{"key":"09673117","name":"Bischofsheim i.d.Rhön, St","type":"Stadt"},"district":{"key":"09673","name":"Rhön-Grabfeld","type":"Landkreis"},"federalState":{"key":"09","name":"Bayern"}},{"name":"Blumenstr.","postalCode":"97941","locality":"Tauberbischofsheim","municipality":{"key":"08128115","name":"Tauberbischofsheim, Stadt","type":"Stadt"},"district":{"key":"08128","name":"Main-Tauber-Kreis","type":"Landkreis"},"federalState":{"key":"08","name":"Baden-Württemberg"}},{"name":"Blütenweg","postalCode":"97653","locality":"Bischofsheim i.d.Rhön","municipality":{"key":"09673117","name":"Bischofsheim i.d.Rhön, St","type":"Stadt"},"district":{"key":"09673","name":"Rhön-Grabfeld","type":"Landkreis"},"federalState":{"key":"09","name":"Bayern"}},{"name":"Bödeleinsweg","postalCode":"97941","locality":"Tauberbischofsheim","municipality":{"key":"08128115","name":"Tauberbischofsheim, Stadt","type":"Stadt"},"district":{"key":"08128","name":"Main-Tauber-Kreis","type":"Landkreis"},"federalState":{"key":"08","name":"Baden-Württemberg"}},{"name":"Bonifatiusstr.","postalCode":"97941","locality":"Tauberbischofsheim","municipality":{"key":"08128115","name":"Tauberbischofsheim, Stadt","type":"Stadt"},"district":{"key":"08128","name":"Main-Tauber-Kreis","type":"Landkreis"},"federalState":{"key":"08","name":"Baden-Württemberg"}},{"name":"Brahmsweg","postalCode":"97941","locality":"Tauberbischofsheim","municipality":{"key":"08128115","name":"Tauberbischofsheim, Stadt","type":"Stadt"},"district":{"key":"08128","name":"Main-Tauber-Kreis","type":"Landkreis"},"federalState":{"key":"08","name":"Baden-Württemberg"}},{"name":"Brehmbachstr.","postalCode":"97941","locality":"Tauberbischofsheim","municipality":{"key":"08128115","name":"Tauberbischofsheim, Stadt","type":"Stadt"},"district":{"key":"08128","name":"Main-Tauber-Kreis","type":"Landkreis"},"federalState":{"key":"08","name":"Baden-Württemberg"}},{"name":"Brendstr.","postalCode":"97653","locality":"Bischofsheim i.d.Rhön","municipality":{"key":"09673117","name":"Bischofsheim i.d.Rhön, St","type":"Stadt"},"district":{"key":"09673","name":"Rhön-Grabfeld","type":"Landkreis"},"federalState":{"key":"09","name":"Bayern"}},{"name":"Brennerring","postalCode":"97941","locality":"Tauberbischofsheim","municipality":{"key":"08128115","name":"Tauberbischofsheim, Stadt","type":"Stadt"},"district":{"key":"08128","name":"Main-Tauber-Kreis","type":"Landkreis"},"federalState":{"key":"08","name":"Baden-Württemberg"}},{"name":"Brentanoweg","postalCode":"97941","locality":"Tauberbischofsheim","municipality":{"key":"08128115","name":"Tauberbischofsheim, Stadt","type":"Stadt"},"district":{"key":"08128","name":"Main-Tauber-Kreis","type":"Landkreis"},"federalState":{"key":"08","name":"Baden-Württemberg"}},{"name":"Breslauer Str.","postalCode":"65474","locality":"Bischofsheim","municipality":{"key":"06433002","name":"Bischofsheim","type":"Kreisangehörige_Gemeinde"},"district":{"key":"06433","name":"Groß-Gerau","type":"Landkreis"},"federalState":{"key":"06","name":"Hessen"}},{"name":"Brückenstr.","postalCode":"74924","locality":"Neckarbischofsheim","municipality":{"key":"08226055","name":"Neckarbischofsheim, Stadt","type":"Stadt"},"district":{"key":"08226","name":"Rhein-Neckar-Kreis","type":"Landkreis"},"federalState":{"key":"08","name":"Baden-Württemberg"}},{"name":"Brückenstr.","postalCode":"97653","locality":"Bischofsheim i.d.Rhön","municipality":{"key":"09673117","name":"Bischofsheim i.d.Rhön, St","type":"Stadt"},"district":{"key":"09673","name":"Rhön-Grabfeld","type":"Landkreis"},"federalState":{"key":"09","name":"Bayern"}},{"name":"Brückenstr.","postalCode":"97941","locality":"Tauberbischofsheim","municipality":{"key":"08128115","name":"Tauberbischofsheim, Stadt","type":"Stadt"},"district":{"key":"08128","name":"Main-Tauber-Kreis","type":"Landkreis"},"federalState":{"key":"08","name":"Baden-Württemberg"}},{"name":"Bruderserb","postalCode":"97653","locality":"Bischofsheim i.d.Rhön","municipality":{"key":"09673117","name":"Bischofsheim i.d.Rhön, St","type":"Stadt"},"district":{"key":"09673","name":"Rhön-Grabfeld","type":"Landkreis"},"federalState":{"key":"09","name":"Bayern"}},{"name":"Chemnitzer Str.","postalCode":"65474","locality":"Bischofsheim","municipality":{"key":"06433002","name":"Bischofsheim","type":"Kreisangehörige_Gemeinde"},"district":{"key":"06433","name":"Groß-Gerau","type":"Landkreis"},"federalState":{"key":"06","name":"Hessen"}},{"name":"Christberg Weg","postalCode":"74924","locality":"Neckarbischofsheim","municipality":{"key":"08226055","name":"Neckarbischofsheim, Stadt","type":"Stadt"},"district":{"key":"08226","name":"Rhein-Neckar-Kreis","type":"Landkreis"},"federalState":{"key":"08","name":"Baden-Württemberg"}},{"name":"Christlingengraben","postalCode":"74924","locality":"Neckarbischofsheim","municipality":{"key":"08226055","name":"Neckarbischofsheim, Stadt","type":"Stadt"},"district":{"key":"08226","name":"Rhein-Neckar-Kreis","type":"Landkreis"},"federalState":{"key":"08","name":"Baden-Württemberg"}},{"name":"Clausingstr.","postalCode":"97941","locality":"Tauberbischofsheim","municipality":{"key":"08128115","name":"Tauberbischofsheim, Stadt","type":"Stadt"},"district":{"key":"08128","name":"Main-Tauber-Kreis","type":"Landkreis"},"federalState":{"key":"08","name":"Baden-Württemberg"}},{"name":"Dachsbau Weg","postalCode":"74924","locality":"Neckarbischofsheim","municipality":{"key":"08226055","name":"Neckarbischofsheim, Stadt","type":"Stadt"},"district":{"key":"08226","name":"Rhein-Neckar-Kreis","type":"Landkreis"},"federalState":{"key":"08","name":"Baden-Württemberg"}},{"name":"Dahlienweg","postalCode":"97653","locality":"Bischofsheim i.d.Rhön","municipality":{"key":"09673117","name":"Bischofsheim i.d.Rhön, St","type":"Stadt"},"district":{"key":"09673","name":"Rhön-Grabfeld","type":"Landkreis"},"federalState":{"key":"09","name":"Bayern"}},{"name":"Dahlienweg","postalCode":"97941","locality":"Tauberbischofsheim","municipality":{"key":"08128115","name":"Tauberbischofsheim, Stadt","type":"Stadt"},"district":{"key":"08128","name":"Main-Tauber-Kreis","type":"Landkreis"},"federalState":{"key":"08","name":"Baden-Württemberg"}},{"name":"Daimlerstr.","postalCode":"97941","locality":"Tauberbischofsheim","municipality":{"key":"08128115","name":"Tauberbischofsheim, Stadt","type":"Stadt"},"district":{"key":"08128","name":"Main-Tauber-Kreis","type":"Landkreis"},"federalState":{"key":"08","name":"Baden-Württemberg"}},{"name":"Dammstr.","postalCode":"65474","locality":"Bischofsheim","municipality":{"key":"06433002","name":"Bischofsheim","type":"Kreisangehörige_Gemeinde"},"district":{"key":"06433","name":"Groß-Gerau","type":"Landkreis"},"federalState":{"key":"06","name":"Hessen"}},{"name":"Danziger Str.","postalCode":"65474","locality":"Bischofsheim","municipality":{"key":"06433002","name":"Bischofsheim","type":"Kreisangehörige_Gemeinde"},"district":{"key":"06433","name":"Groß-Gerau","type":"Landkreis"},"federalState":{"key":"06","name":"Hessen"}},{"name":"Darmstädter Str.","postalCode":"65474","locality":"Bischofsheim","municipality":{"key":"06433002","name":"Bischofsheim","type":"Kreisangehörige_Gemeinde"},"district":{"key":"06433","name":"Groß-Gerau","type":"Landkreis"},"federalState":{"key":"06","name":"Hessen"}},{"name":"Dittigheimer Str.","postalCode":"97941","locality":"Tauberbischofsheim","municipality":{"key":"08128115","name":"Tauberbischofsheim, Stadt","type":"Stadt"},"district":{"key":"08128","name":"Main-Tauber-Kreis","type":"Landkreis"},"federalState":{"key":"08","name":"Baden-Württemberg"}},{"name":"Dittigheimer Weg","postalCode":"97941","locality":"Tauberbischofsheim","municipality":{"key":"08128115","name":"Tauberbischofsheim, Stadt","type":"Stadt"},"district":{"key":"08128","name":"Main-Tauber-Kreis","type":"Landkreis"},"federalState":{"key":"08","name":"Baden-Württemberg"}},{"name":"Dittwarer Str.","postalCode":"97941","locality":"Tauberbischofsheim","municipality":{"key":"08128115","name":"Tauberbischofsheim, Stadt","type":"Stadt"},"district":{"key":"08128","name":"Main-Tauber-Kreis","type":"Landkreis"},"federalState":{"key":"08","name":"Baden-Württemberg"}},{"name":"Dörrwiese","postalCode":"65474","locality":"Bischofsheim","municipality":{"key":"06433002","name":"Bischofsheim","type":"Kreisangehörige_Gemeinde"},"district":{"key":"06433","name":"Groß-Gerau","type":"Landkreis"},"federalState":{"key":"06","name":"Hessen"}},{"name":"Dr.-Burger-Str.","postalCode":"97941","locality":"Tauberbischofsheim","municipality":{"key":"08128115","name":"Tauberbischofsheim, Stadt","type":"Stadt"},"district":{"key":"08128","name":"Main-Tauber-Kreis","type":"Landkreis"},"federalState":{"key":"08","name":"Baden-Württemberg"}},{"name":"Dreihäusergasse","postalCode":"65474","locality":"Bischofsheim","municipality":{"key":"06433002","name":"Bischofsheim","type":"Kreisangehörige_Gemeinde"},"district":{"key":"06433","name":"Groß-Gerau","type":"Landkreis"},"federalState":{"key":"06","name":"Hessen"}},{"name":"Dresdener Str.","postalCode":"65474","locality":"Bischofsheim","municipality":{"key":"06433002","name":"Bischofsheim","type":"Kreisangehörige_Gemeinde"},"district":{"key":"06433","name":"Groß-Gerau","type":"Landkreis"},"federalState":{"key":"06","name":"Hessen"}},{"name":"Dr.-Hans-Böckler-Platz","postalCode":"65474","locality":"Bischofsheim","municipality":{"key":"06433002","name":"Bischofsheim","type":"Kreisangehörige_Gemeinde"},"district":{"key":"06433","name":"Groß-Gerau","type":"Landkreis"},"federalState":{"key":"06","name":"Hessen"}},{"name":"Dr.-Hans-Böckler-Str.","postalCode":"65474","locality":"Bischofsheim","municipality":{"key":"06433002","name":"Bischofsheim","type":"Kreisangehörige_Gemeinde"},"district":{"key":"06433","name":"Groß-Gerau","type":"Landkreis"},"federalState":{"key":"06","name":"Hessen"}},{"name":"Dr.-Stöcker-Weg","postalCode":"97941","locality":"Tauberbischofsheim","municipality":{"key":"08128115","name":"Tauberbischofsheim, Stadt","type":"Stadt"},"district":{"key":"08128","name":"Main-Tauber-Kreis","type":"Landkreis"},"federalState":{"key":"08","name":"Baden-Württemberg"}},{"name":"Dr.-Ulrich-Str.","postalCode":"97941","locality":"Tauberbischofsheim","municipality":{"key":"08128115","name":"Tauberbischofsheim, Stadt","type":"Stadt"},"district":{"key":"08128","name":"Main-Tauber-Kreis","type":"Landkreis"},"federalState":{"key":"08","name":"Baden-Württemberg"}},{"name":"Duderstädter Allee","postalCode":"97941","locality":"Tauberbischofsheim","municipality":{"key":"08128115","name":"Tauberbischofsheim, Stadt","type":"Stadt"},"district":{"key":"08128","name":"Main-Tauber-Kreis","type":"Landkreis"},"federalState":{"key":"08","name":"Baden-Württemberg"}},{"name":"Dürerstr.","postalCode":"97941","locality":"Tauberbischofsheim","municipality":{"key":"08128115","name":"Tauberbischofsheim, Stadt","type":"Stadt"},"district":{"key":"08128","name":"Main-Tauber-Kreis","type":"Landkreis"},"federalState":{"key":"08","name":"Baden-Württemberg"}},{"name":"Dürrköpfle Weg","postalCode":"74924","locality":"Neckarbischofsheim","municipality":{"key":"08226055","name":"Neckarbischofsheim, Stadt","type":"Stadt"},"district":{"key":"08226","name":"Rhein-Neckar-Kreis","type":"Landkreis"},"federalState":{"key":"08","name":"Baden-Württemberg"}},{"name":"Ebertsholz","postalCode":"97653","locality":"Bischofsheim i.d.Rhön","municipality":{"key":"09673117","name":"Bischofsheim i.d.Rhön, St","type":"Stadt"},"district":{"key":"09673","name":"Rhön-Grabfeld","type":"Landkreis"},"federalState":{"key":"09","name":"Bayern"}},{"name":"Eicheläckerweg","postalCode":"74924","locality":"Neckarbischofsheim","municipality":{"key":"08226055","name":"Neckarbischofsheim, Stadt","type":"Stadt"},"district":{"key":"08226","name":"Rhein-Neckar-Kreis","type":"Landkreis"},"federalState":{"key":"08","name":"Baden-Württemberg"}},{"name":"Eichendorffstr.","postalCode":"97941","locality":"Tauberbischofsheim","municipality":{"key":"08128115","name":"Tauberbischofsheim, Stadt","type":"Stadt"},"district":{"key":"08128","name":"Main-Tauber-Kreis","type":"Landkreis"},"federalState":{"key":"08","name":"Baden-Württemberg"}},{"name":"Eichenstr.","postalCode":"74924","locality":"Neckarbischofsheim","municipality":{"key":"08226055","name":"Neckarbischofsheim, Stadt","type":"Stadt"},"district":{"key":"08226","name":"Rhein-Neckar-Kreis","type":"Landkreis"},"federalState":{"key":"08","name":"Baden-Württemberg"}},{"name":"Eichstr.","postalCode":"97941","locality":"Tauberbischofsheim","municipality":{"key":"08128115","name":"Tauberbischofsheim, Stadt","type":"Stadt"},"district":{"key":"08128","name":"Main-Tauber-Kreis","type":"Landkreis"},"federalState":{"key":"08","name":"Baden-Württemberg"}},{"name":"Eiersheimer Weg","postalCode":"97941","locality":"Tauberbischofsheim","municipality":{"key":"08128115","name":"Tauberbischofsheim, Stadt","type":"Stadt"},"district":{"key":"08128","name":"Main-Tauber-Kreis","type":"Landkreis"},"federalState":{"key":"08","name":"Baden-Württemberg"}},{"name":"Eifelweg","postalCode":"65474","locality":"Bischofsheim","municipality":{"key":"06433002","name":"Bischofsheim","type":"Kreisangehörige_Gemeinde"},"district":{"key":"06433","name":"Groß-Gerau","type":"Landkreis"},"federalState":{"key":"06","name":"Hessen"}},{"name":"Eleonorenstr.","postalCode":"65474","locality":"Bischofsheim","municipality":{"key":"06433002","name":"Bischofsheim","type":"Kreisangehörige_Gemeinde"},"district":{"key":"06433","name":"Groß-Gerau","type":"Landkreis"},"federalState":{"key":"06","name":"Hessen"}},{"name":"Ellerweg","postalCode":"97653","locality":"Bischofsheim i.d.Rhön","municipality":{"key":"09673117","name":"Bischofsheim i.d.Rhön, St","type":"Stadt"},"district":{"key":"09673","name":"Rhön-Grabfeld","type":"Landkreis"},"federalState":{"key":"09","name":"Bayern"}},{"name":"Enge Gasse","postalCode":"97941","locality":"Tauberbischofsheim","municipality":{"key":"08128115","name":"Tauberbischofsheim, Stadt","type":"Stadt"},"district":{"key":"08128","name":"Main-Tauber-Kreis","type":"Landkreis"},"federalState":{"key":"08","name":"Baden-Württemberg"}},{"name":"Eppstr.","postalCode":"97941","locality":"Tauberbischofsheim","municipality":{"key":"08128115","name":"Tauberbischofsheim, Stadt","type":"Stadt"},"district":{"key":"08128","name":"Main-Tauber-Kreis","type":"Landkreis"},"federalState":{"key":"08","name":"Baden-Württemberg"}},{"name":"Erbeweg","postalCode":"97653","locality":"Bischofsheim i.d.Rhön","municipality":{"key":"09673117","name":"Bischofsheim i.d.Rhön, St","type":"Stadt"},"district":{"key":"09673","name":"Rhön-Grabfeld","type":"Landkreis"},"federalState":{"key":"09","name":"Bayern"}},{"name":"Erbweg","postalCode":"97653","locality":"Bischofsheim i.d.Rhön","municipality":{"key":"09673117","name":"Bischofsheim i.d.Rhön, St","type":"Stadt"},"district":{"key":"09673","name":"Rhön-Grabfeld","type":"Landkreis"},"federalState":{"key":"09","name":"Bayern"}},{"name":"Erlenstr.","postalCode":"97941","locality":"Tauberbischofsheim","municipality":{"key":"08128115","name":"Tauberbischofsheim, Stadt","type":"Stadt"},"district":{"key":"08128","name":"Main-Tauber-Kreis","type":"Landkreis"},"federalState":{"key":"08","name":"Baden-Württemberg"}},{"name":"Erlenweg","postalCode":"65474","locality":"Bischofsheim","municipality":{"key":"06433002","name":"Bischofsheim","type":"Kreisangehörige_Gemeinde"},"district":{"key":"06433","name":"Groß-Gerau","type":"Landkreis"},"federalState":{"key":"06","name":"Hessen"}},{"name":"Ernst-Bauer-Str.","postalCode":"97941","locality":"Tauberbischofsheim","municipality":{"key":"08128115","name":"Tauberbischofsheim, Stadt","type":"Stadt"},"district":{"key":"08128","name":"Main-Tauber-Kreis","type":"Landkreis"},"federalState":{"key":"08","name":"Baden-Württemberg"}},{"name":"Etzbuckel Weg","postalCode":"74924","locality":"Neckarbischofsheim","municipality":{"key":"08226055","name":"Neckarbischofsheim, Stadt","type":"Stadt"},"district":{"key":"08226","name":"Rhein-Neckar-Kreis","type":"Landkreis"},"federalState":{"key":"08","name":"Baden-Württemberg"}},{"name":"Falk-Müller-Str.","postalCode":"97941","locality":"Tauberbischofsheim","municipality":{"key":"08128115","name":"Tauberbischofsheim, Stadt","type":"Stadt"},"district":{"key":"08128","name":"Main-Tauber-Kreis","type":"Landkreis"},"federalState":{"key":"08","name":"Baden-Württemberg"}},{"name":"Färberzwinger","postalCode":"97653","locality":"Bischofsheim i.d.Rhön","municipality":{"key":"09673117","name":"Bischofsheim i.d.Rhön, St","type":"Stadt"},"district":{"key":"09673","name":"Rhön-Grabfeld","type":"Landkreis"},"federalState":{"key":"09","name":"Bayern"}},{"name":"Fasanenstr.","postalCode":"74924","locality":"Neckarbischofsheim","municipality":{"key":"08226055","name":"Neckarbischofsheim, Stadt","type":"Stadt"},"district":{"key":"08226","name":"Rhein-Neckar-Kreis","type":"Landkreis"},"federalState":{"key":"08","name":"Baden-Württemberg"}},{"name":"Fastnachtsgasse","postalCode":"97653","locality":"Bischofsheim i.d.Rhön","municipality":{"key":"09673117","name":"Bischofsheim i.d.Rhön, St","type":"Stadt"},"district":{"key":"09673","name":"Rhön-Grabfeld","type":"Landkreis"},"federalState":{"key":"09","name":"Bayern"}},{"name":"Feldbergstr.","postalCode":"65474","locality":"Bischofsheim","municipality":{"key":"06433002","name":"Bischofsheim","type":"Kreisangehörige_Gemeinde"},"district":{"key":"06433","name":"Groß-Gerau","type":"Landkreis"},"federalState":{"key":"06","name":"Hessen"}},{"name":"Feuerwehrhütte Weg","postalCode":"74924","locality":"Neckarbischofsheim","municipality":{"key":"08226055","name":"Neckarbischofsheim, Stadt","type":"Stadt"},"district":{"key":"08226","name":"Rhein-Neckar-Kreis","type":"Landkreis"},"federalState":{"key":"08","name":"Baden-Württemberg"}},{"name":"Fichtenweg","postalCode":"97941","locality":"Tauberbischofsheim","municipality":{"key":"08128115","name":"Tauberbischofsheim, Stadt","type":"Stadt"},"district":{"key":"08128","name":"Main-Tauber-Kreis","type":"Landkreis"},"federalState":{"key":"08","name":"Baden-Württemberg"}},{"name":"Finkelbergweg","postalCode":"97653","locality":"Bischofsheim i.d.Rhön","municipality":{"key":"09673117","name":"Bischofsheim i.d.Rhön, St","type":"Stadt"},"district":{"key":"09673","name":"Rhön-Grabfeld","type":"Landkreis"},"federalState":{"key":"09","name":"Bayern"}},{"name":"Finkenstr.","postalCode":"74924","locality":"Neckarbischofsheim","municipality":{"key":"08226055","name":"Neckarbischofsheim, Stadt","type":"Stadt"},"district":{"key":"08226","name":"Rhein-Neckar-Kreis","type":"Landkreis"},"federalState":{"key":"08","name":"Baden-Württemberg"}},{"name":"Fischergärten","postalCode":"97941","locality":"Tauberbischofsheim","municipality":{"key":"08128115","name":"Tauberbischofsheim, Stadt","type":"Stadt"},"district":{"key":"08128","name":"Main-Tauber-Kreis","type":"Landkreis"},"federalState":{"key":"08","name":"Baden-Württemberg"}},{"name":"Fischgäßchen","postalCode":"97941","locality":"Tauberbischofsheim","municipality":{"key":"08128115","name":"Tauberbischofsheim, Stadt","type":"Stadt"},"district":{"key":"08128","name":"Main-Tauber-Kreis","type":"Landkreis"},"federalState":{"key":"08","name":"Baden-Württemberg"}},{"name":"Fischzucht","postalCode":"97653","locality":"Bischofsheim i.d.Rhön","municipality":{"key":"09673117","name":"Bischofsheim i.d.Rhön, St","type":"Stadt"},"district":{"key":"09673","name":"Rhön-Grabfeld","type":"Landkreis"},"federalState":{"key":"09","name":"Bayern"}},{"name":"Fliederstr.","postalCode":"97653","locality":"Bischofsheim i.d.Rhön","municipality":{"key":"09673117","name":"Bischofsheim i.d.Rhön, St","type":"Stadt"},"district":{"key":"09673","name":"Rhön-Grabfeld","type":"Landkreis"},"federalState":{"key":"09","name":"Bayern"}},{"name":"Fliederstr.","postalCode":"97941","locality":"Tauberbischofsheim","municipality":{"key":"08128115","name":"Tauberbischofsheim, Stadt","type":"Stadt"},"district":{"key":"08128","name":"Main-Tauber-Kreis","type":"Landkreis"},"federalState":{"key":"08","name":"Baden-Württemberg"}},{"name":"Fliederweg","postalCode":"97941","locality":"Tauberbischofsheim","municipality":{"key":"08128115","name":"Tauberbischofsheim, Stadt","type":"Stadt"},"district":{"key":"08128","name":"Main-Tauber-Kreis","type":"Landkreis"},"federalState":{"key":"08","name":"Baden-Württemberg"}},{"name":"Flinsbacher Str.","postalCode":"74924","locality":"Neckarbischofsheim","municipality":{"key":"08226055","name":"Neckarbischofsheim, Stadt","type":"Stadt"},"district":{"key":"08226","name":"Rhein-Neckar-Kreis","type":"Landkreis"},"federalState":{"key":"08","name":"Baden-Württemberg"}},{"name":"Flörsheimer Str.","postalCode":"65474","locality":"Bischofsheim","municipality":{"key":"06433002","name":"Bischofsheim","type":"Kreisangehörige_Gemeinde"},"district":{"key":"06433","name":"Groß-Gerau","type":"Landkreis"},"federalState":{"key":"06","name":"Hessen"}},{"name":"Floßgrabenweg","postalCode":"97653","locality":"Bischofsheim i.d.Rhön","municipality":{"key":"09673117","name":"Bischofsheim i.d.Rhön, St","type":"Stadt"},"district":{"key":"09673","name":"Rhön-Grabfeld","type":"Landkreis"},"federalState":{"key":"09","name":"Bayern"}},{"name":"Flürlein","postalCode":"97941","locality":"Tauberbischofsheim","municipality":{"key":"08128115","name":"Tauberbischofsheim, Stadt","type":"Stadt"},"district":{"key":"08128","name":"Main-Tauber-Kreis","type":"Landkreis"},"federalState":{"key":"08","name":"Baden-Württemberg"}},{"name":"Flurstr.","postalCode":"97941","locality":"Tauberbischofsheim","municipality":{"key":"08128115","name":"Tauberbischofsheim, Stadt","type":"Stadt"},"district":{"key":"08128","name":"Main-Tauber-Kreis","type":"Landkreis"},"federalState":{"key":"08","name":"Baden-Württemberg"}},{"name":"Flurweg","postalCode":"97653","locality":"Bischofsheim i.d.Rhön","municipality":{"key":"09673117","name":"Bischofsheim i.d.Rhön, St","type":"Stadt"},"district":{"key":"09673","name":"Rhön-Grabfeld","type":"Landkreis"},"federalState":{"key":"09","name":"Bayern"}},{"name":"Forlenstr.","postalCode":"74924","locality":"Neckarbischofsheim","municipality":{"key":"08226055","name":"Neckarbischofsheim, Stadt","type":"Stadt"},"district":{"key":"08226","name":"Rhein-Neckar-Kreis","type":"Landkreis"},"federalState":{"key":"08","name":"Baden-Württemberg"}},{"name":"Forststr.","postalCode":"74924","locality":"Neckarbischofsheim","municipality":{"key":"08226055","name":"Neckarbischofsheim, Stadt","type":"Stadt"},"district":{"key":"08226","name":"Rhein-Neckar-Kreis","type":"Landkreis"},"federalState":{"key":"08","name":"Baden-Württemberg"}},{"name":"Frankenheimer Str.","postalCode":"97653","locality":"Bischofsheim i.d.Rhön","municipality":{"key":"09673117","name":"Bischofsheim i.d.Rhön, St","type":"Stadt"},"district":{"key":"09673","name":"Rhön-Grabfeld","type":"Landkreis"},"federalState":{"key":"09","name":"Bayern"}},{"name":"Frankenweg","postalCode":"65474","locality":"Bischofsheim","municipality":{"key":"06433002","name":"Bischofsheim","type":"Kreisangehörige_Gemeinde"},"district":{"key":"06433","name":"Groß-Gerau","type":"Landkreis"},"federalState":{"key":"06","name":"Hessen"}},{"name":"Frankfurter Str.","postalCode":"65474","locality":"Bischofsheim","municipality":{"key":"06433002","name":"Bischofsheim","type":"Kreisangehörige_Gemeinde"},"district":{"key":"06433","name":"Groß-Gerau","type":"Landkreis"},"federalState":{"key":"06","name":"Hessen"}},{"name":"Franz-Schubert-Str.","postalCode":"65474","locality":"Bischofsheim","municipality":{"key":"06433002","name":"Bischofsheim","type":"Kreisangehörige_Gemeinde"},"district":{"key":"06433","name":"Groß-Gerau","type":"Landkreis"},"federalState":{"key":"06","name":"Hessen"}},{"name":"Frauengasse","postalCode":"97653","locality":"Bischofsheim i.d.Rhön","municipality":{"key":"09673117","name":"Bischofsheim i.d.Rhön, St","type":"Stadt"},"district":{"key":"09673","name":"Rhön-Grabfeld","type":"Landkreis"},"federalState":{"key":"09","name":"Bayern"}},{"name":"Frauenstr.","postalCode":"97941","locality":"Tauberbischofsheim","municipality":{"key":"08128115","name":"Tauberbischofsheim, Stadt","type":"Stadt"},"district":{"key":"08128","name":"Main-Tauber-Kreis","type":"Landkreis"},"federalState":{"key":"08","name":"Baden-Württemberg"}},{"name":"Freiligrathstr.","postalCode":"65474","locality":"Bischofsheim","municipality":{"key":"06433002","name":"Bischofsheim","type":"Kreisangehörige_Gemeinde"},"district":{"key":"06433","name":"Groß-Gerau","type":"Landkreis"},"federalState":{"key":"06","name":"Hessen"}},{"name":"Friedhofstr.","postalCode":"74924","locality":"Neckarbischofsheim","municipality":{"key":"08226055","name":"Neckarbischofsheim, Stadt","type":"Stadt"},"district":{"key":"08226","name":"Rhein-Neckar-Kreis","type":"Landkreis"},"federalState":{"key":"08","name":"Baden-Württemberg"}},{"name":"Friedhofstr.","postalCode":"97941","locality":"Tauberbischofsheim","municipality":{"key":"08128115","name":"Tauberbischofsheim, Stadt","type":"Stadt"},"district":{"key":"08128","name":"Main-Tauber-Kreis","type":"Landkreis"},"federalState":{"key":"08","name":"Baden-Württemberg"}},{"name":"Friedrich-Ebert-Platz","postalCode":"65474","locality":"Bischofsheim","municipality":{"key":"06433002","name":"Bischofsheim","type":"Kreisangehörige_Gemeinde"},"district":{"key":"06433","name":"Groß-Gerau","type":"Landkreis"},"federalState":{"key":"06","name":"Hessen"}},{"name":"Friedrich-Ebert-Str.","postalCode":"65474","locality":"Bischofsheim","municipality":{"key":"06433002","name":"Bischofsheim","type":"Kreisangehörige_Gemeinde"},"district":{"key":"06433","name":"Groß-Gerau","type":"Landkreis"},"federalState":{"key":"06","name":"Hessen"}},{"name":"Friedrichstr.","postalCode":"65474","locality":"Bischofsheim","municipality":{"key":"06433002","name":"Bischofsheim","type":"Kreisangehörige_Gemeinde"},"district":{"key":"06433","name":"Groß-Gerau","type":"Landkreis"},"federalState":{"key":"06","name":"Hessen"}},{"name":"Friesenweg","postalCode":"97941","locality":"Tauberbischofsheim","municipality":{"key":"08128115","name":"Tauberbischofsheim, Stadt","type":"Stadt"},"district":{"key":"08128","name":"Main-Tauber-Kreis","type":"Landkreis"},"federalState":{"key":"08","name":"Baden-Württemberg"}},{"name":"Fröbelstr.","postalCode":"97941","locality":"Tauberbischofsheim","municipality":{"key":"08128115","name":"Tauberbischofsheim, Stadt","type":"Stadt"},"district":{"key":"08128","name":"Main-Tauber-Kreis","type":"Landkreis"},"federalState":{"key":"08","name":"Baden-Württemberg"}},{"name":"Frohnseestr.","postalCode":"65474","locality":"Bischofsheim","municipality":{"key":"06433002","name":"Bischofsheim","type":"Kreisangehörige_Gemeinde"},"district":{"key":"06433","name":"Groß-Gerau","type":"Landkreis"},"federalState":{"key":"06","name":"Hessen"}},{"name":"Frombergstr.","postalCode":"97941","locality":"Tauberbischofsheim","municipality":{"key":"08128115","name":"Tauberbischofsheim, Stadt","type":"Stadt"},"district":{"key":"08128","name":"Main-Tauber-Kreis","type":"Landkreis"},"federalState":{"key":"08","name":"Baden-Württemberg"}},{"name":"Frühlingstr.","postalCode":"97653","locality":"Bischofsheim i.d.Rhön","municipality":{"key":"09673117","name":"Bischofsheim i.d.Rhön, St","type":"Stadt"},"district":{"key":"09673","name":"Rhön-Grabfeld","type":"Landkreis"},"federalState":{"key":"09","name":"Bayern"}},{"name":"Frühlingstr.","postalCode":"97941","locality":"Tauberbischofsheim","municipality":{"key":"08128115","name":"Tauberbischofsheim, Stadt","type":"Stadt"},"district":{"key":"08128","name":"Main-Tauber-Kreis","type":"Landkreis"},"federalState":{"key":"08","name":"Baden-Württemberg"}},{"name":"Frühmeßgasse","postalCode":"97941","locality":"Tauberbischofsheim","municipality":{"key":"08128115","name":"Tauberbischofsheim, Stadt","type":"Stadt"},"district":{"key":"08128","name":"Main-Tauber-Kreis","type":"Landkreis"},"federalState":{"key":"08","name":"Baden-Württemberg"}},{"name":"Fuchserb","postalCode":"97653","locality":"Bischofsheim i.d.Rhön","municipality":{"key":"09673117","name":"Bischofsheim i.d.Rhön, St","type":"Stadt"},"district":{"key":"09673","name":"Rhön-Grabfeld","type":"Landkreis"},"federalState":{"key":"09","name":"Bayern"}},{"name":"Fuchsweg","postalCode":"74924","locality":"Neckarbischofsheim","municipality":{"key":"08226055","name":"Neckarbischofsheim, Stadt","type":"Stadt"},"district":{"key":"08226","name":"Rhein-Neckar-Kreis","type":"Landkreis"},"federalState":{"key":"08","name":"Baden-Württemberg"}},{"name":"Fussleite","postalCode":"97653","locality":"Bischofsheim i.d.Rhön","municipality":{"key":"09673117","name":"Bischofsheim i.d.Rhön, St","type":"Stadt"},"district":{"key":"09673","name":"Rhön-Grabfeld","type":"Landkreis"},"federalState":{"key":"09","name":"Bayern"}},{"name":"Gabelsbergerstr.","postalCode":"65474","locality":"Bischofsheim","municipality":{"key":"06433002","name":"Bischofsheim","type":"Kreisangehörige_Gemeinde"},"district":{"key":"06433","name":"Groß-Gerau","type":"Landkreis"},"federalState":{"key":"06","name":"Hessen"}},{"name":"Galgenbargweg","postalCode":"74924","locality":"Neckarbischofsheim","municipality":{"key":"08226055","name":"Neckarbischofsheim, Stadt","type":"Stadt"},"district":{"key":"08226","name":"Rhein-Neckar-Kreis","type":"Landkreis"},"federalState":{"key":"08","name":"Baden-Württemberg"}},{"name":"Galgenberg Weg","postalCode":"74924","locality":"Neckarbischofsheim","municipality":{"key":"08226055","name":"Neckarbischofsheim, Stadt","type":"Stadt"},"district":{"key":"08226","name":"Rhein-Neckar-Kreis","type":"Landkreis"},"federalState":{"key":"08","name":"Baden-Württemberg"}},{"name":"Ganter Campus","postalCode":"97941","locality":"Tauberbischofsheim","municipality":{"key":"08128115","name":"Tauberbischofsheim, Stadt","type":"Stadt"},"district":{"key":"08128","name":"Main-Tauber-Kreis","type":"Landkreis"},"federalState":{"key":"08","name":"Baden-Württemberg"}},{"name":"Gartenpfad","postalCode":"97941","locality":"Tauberbischofsheim","municipality":{"key":"08128115","name":"Tauberbischofsheim, Stadt","type":"Stadt"},"district":{"key":"08128","name":"Main-Tauber-Kreis","type":"Landkreis"},"federalState":{"key":"08","name":"Baden-Württemberg"}},{"name":"Gartenstr.","postalCode":"55296","locality":"Gau-Bischofsheim","municipality":{"key":"07339020","name":"Gau-Bischofsheim","type":"Kreisangehörige_Gemeinde"},"district":{"key":"07339","name":"Mainz-Bingen","type":"Landkreis"},"federalState":{"key":"07","name":"Rheinland-Pfalz"}},{"name":"Gartenstr.","postalCode":"65474","locality":"Bischofsheim","municipality":{"key":"06433002","name":"Bischofsheim","type":"Kreisangehörige_Gemeinde"},"district":{"key":"06433","name":"Groß-Gerau","type":"Landkreis"},"federalState":{"key":"06","name":"Hessen"}},{"name":"Gartenstr.","postalCode":"74924","locality":"Neckarbischofsheim","municipality":{"key":"08226055","name":"Neckarbischofsheim, Stadt","type":"Stadt"},"district":{"key":"08226","name":"Rhein-Neckar-Kreis","type":"Landkreis"},"federalState":{"key":"08","name":"Baden-Württemberg"}},{"name":"Gartenstr.","postalCode":"97653","locality":"Bischofsheim i.d.Rhön","municipality":{"key":"09673117","name":"Bischofsheim i.d.Rhön, St","type":"Stadt"},"district":{"key":"09673","name":"Rhön-Grabfeld","type":"Landkreis"},"federalState":{"key":"09","name":"Bayern"}},{"name":"Gartenstr.","postalCode":"97941","locality":"Tauberbischofsheim","municipality":{"key":"08128115","name":"Tauberbischofsheim, Stadt","type":"Stadt"},"district":{"key":"08128","name":"Main-Tauber-Kreis","type":"Landkreis"},"federalState":{"key":"08","name":"Baden-Württemberg"}},{"name":"Gäßleinsgärten","postalCode":"97941","locality":"Tauberbischofsheim","municipality":{"key":"08128115","name":"Tauberbischofsheim, Stadt","type":"Stadt"},"district":{"key":"08128","name":"Main-Tauber-Kreis","type":"Landkreis"},"federalState":{"key":"08","name":"Baden-Württemberg"}},{"name":"Geibelstr.","postalCode":"65474","locality":"Bischofsheim","municipality":{"key":"06433002","name":"Bischofsheim","type":"Kreisangehörige_Gemeinde"},"district":{"key":"06433","name":"Groß-Gerau","type":"Landkreis"},"federalState":{"key":"06","name":"Hessen"}},{"name":"Geigensteinstr.","postalCode":"97653","locality":"Bischofsheim i.d.Rhön","municipality":{"key":"09673117","name":"Bischofsheim i.d.Rhön, St","type":"Stadt"},"district":{"key":"09673","name":"Rhön-Grabfeld","type":"Landkreis"},"federalState":{"key":"09","name":"Bayern"}},{"name":"Georg-Fischer-Str.","postalCode":"65474","locality":"Bischofsheim","municipality":{"key":"06433002","name":"Bischofsheim","type":"Kreisangehörige_Gemeinde"},"district":{"key":"06433","name":"Groß-Gerau","type":"Landkreis"},"federalState":{"key":"06","name":"Hessen"}},{"name":"Georg-Mangold-Str.","postalCode":"65474","locality":"Bischofsheim","municipality":{"key":"06433002","name":"Bischofsheim","type":"Kreisangehörige_Gemeinde"},"district":{"key":"06433","name":"Groß-Gerau","type":"Landkreis"},"federalState":{"key":"06","name":"Hessen"}},{"name":"Gerbergasse","postalCode":"97941","locality":"Tauberbischofsheim","municipality":{"key":"08128115","name":"Tauberbischofsheim, Stadt","type":"Stadt"},"district":{"key":"08128","name":"Main-Tauber-Kreis","type":"Landkreis"},"federalState":{"key":"08","name":"Baden-Württemberg"}},{"name":"Gerberzwinger","postalCode":"97653","locality":"Bischofsheim i.d.Rhön","municipality":{"key":"09673117","name":"Bischofsheim i.d.Rhön, St","type":"Stadt"},"district":{"key":"09673","name":"Rhön-Grabfeld","type":"Landkreis"},"federalState":{"key":"09","name":"Bayern"}},{"name":"Gerleserb","postalCode":"97653","locality":"Bischofsheim i.d.Rhön","municipality":{"key":"09673117","name":"Bischofsheim i.d.Rhön, St","type":"Stadt"},"district":{"key":"09673","name":"Rhön-Grabfeld","type":"Landkreis"},"federalState":{"key":"09","name":"Bayern"}},{"name":"Gersfelder Str.","postalCode":"97653","locality":"Bischofsheim i.d.Rhön","municipality":{"key":"09673117","name":"Bischofsheim i.d.Rhön, St","type":"Stadt"},"district":{"key":"09673","name":"Rhön-Grabfeld","type":"Landkreis"},"federalState":{"key":"09","name":"Bayern"}},{"name":"Ginsheimer Landstr.","postalCode":"65474","locality":"Bischofsheim","municipality":{"key":"06433002","name":"Bischofsheim","type":"Kreisangehörige_Gemeinde"},"district":{"key":"06433","name":"Groß-Gerau","type":"Landkreis"},"federalState":{"key":"06","name":"Hessen"}},{"name":"Ginsheimer Str.","postalCode":"65474","locality":"Bischofsheim","municipality":{"key":"06433002","name":"Bischofsheim","type":"Kreisangehörige_Gemeinde"},"district":{"key":"06433","name":"Groß-Gerau","type":"Landkreis"},"federalState":{"key":"06","name":"Hessen"}},{"name":"Gissigheimer Str.","postalCode":"97941","locality":"Tauberbischofsheim","municipality":{"key":"08128115","name":"Tauberbischofsheim, Stadt","type":"Stadt"},"district":{"key":"08128","name":"Main-Tauber-Kreis","type":"Landkreis"},"federalState":{"key":"08","name":"Baden-Württemberg"}},{"name":"Gladiolenweg","postalCode":"97653","locality":"Bischofsheim i.d.Rhön","municipality":{"key":"09673117","name":"Bischofsheim i.d.Rhön, St","type":"Stadt"},"district":{"key":"09673","name":"Rhön-Grabfeld","type":"Landkreis"},"federalState":{"key":"09","name":"Bayern"}},{"name":"Glashüttenweg","postalCode":"97941","locality":"Tauberbischofsheim","municipality":{"key":"08128115","name":"Tauberbischofsheim, Stadt","type":"Stadt"},"district":{"key":"08128","name":"Main-Tauber-Kreis","type":"Landkreis"},"federalState":{"key":"08","name":"Baden-Württemberg"}},{"name":"Glockengraben","postalCode":"97941","locality":"Tauberbischofsheim","municipality":{"key":"08128115","name":"Tauberbischofsheim, Stadt","type":"Stadt"},"district":{"key":"08128","name":"Main-Tauber-Kreis","type":"Landkreis"},"federalState":{"key":"08","name":"Baden-Württemberg"}},{"name":"Glockenweg","postalCode":"97941","locality":"Tauberbischofsheim","municipality":{"key":"08128115","name":"Tauberbischofsheim, Stadt","type":"Stadt"},"district":{"key":"08128","name":"Main-Tauber-Kreis","type":"Landkreis"},"federalState":{"key":"08","name":"Baden-Württemberg"}},{"name":"Goethestr.","postalCode":"65474","locality":"Bischofsheim","municipality":{"key":"06433002","name":"Bischofsheim","type":"Kreisangehörige_Gemeinde"},"district":{"key":"06433","name":"Groß-Gerau","type":"Landkreis"},"federalState":{"key":"06","name":"Hessen"}},{"name":"Goethestr.","postalCode":"74924","locality":"Neckarbischofsheim","municipality":{"key":"08226055","name":"Neckarbischofsheim, Stadt","type":"Stadt"},"district":{"key":"08226","name":"Rhein-Neckar-Kreis","type":"Landkreis"},"federalState":{"key":"08","name":"Baden-Württemberg"}},{"name":"Goethestr.","postalCode":"97941","locality":"Tauberbischofsheim","municipality":{"key":"08128115","name":"Tauberbischofsheim, Stadt","type":"Stadt"},"district":{"key":"08128","name":"Main-Tauber-Kreis","type":"Landkreis"},"federalState":{"key":"08","name":"Baden-Württemberg"}},{"name":"Gotenweg","postalCode":"97941","locality":"Tauberbischofsheim","municipality":{"key":"08128115","name":"Tauberbischofsheim, Stadt","type":"Stadt"},"district":{"key":"08128","name":"Main-Tauber-Kreis","type":"Landkreis"},"federalState":{"key":"08","name":"Baden-Württemberg"}},{"name":"Götzenberg","postalCode":"97941","locality":"Tauberbischofsheim","municipality":{"key":"08128115","name":"Tauberbischofsheim, Stadt","type":"Stadt"},"district":{"key":"08128","name":"Main-Tauber-Kreis","type":"Landkreis"},"federalState":{"key":"08","name":"Baden-Württemberg"}},{"name":"Grabenweg","postalCode":"97941","locality":"Tauberbischofsheim","municipality":{"key":"08128115","name":"Tauberbischofsheim, Stadt","type":"Stadt"},"district":{"key":"08128","name":"Main-Tauber-Kreis","type":"Landkreis"},"federalState":{"key":"08","name":"Baden-Württemberg"}},{"name":"Grasbergstr.","postalCode":"97941","locality":"Tauberbischofsheim","municipality":{"key":"08128115","name":"Tauberbischofsheim, Stadt","type":"Stadt"},"district":{"key":"08128","name":"Main-Tauber-Kreis","type":"Landkreis"},"federalState":{"key":"08","name":"Baden-Württemberg"}},{"name":"Grünewaldstr.","postalCode":"97941","locality":"Tauberbischofsheim","municipality":{"key":"08128115","name":"Tauberbischofsheim, Stadt","type":"Stadt"},"district":{"key":"08128","name":"Main-Tauber-Kreis","type":"Landkreis"},"federalState":{"key":"08","name":"Baden-Württemberg"}},{"name":"Grünsfelder Str.","postalCode":"97941","locality":"Tauberbischofsheim","municipality":{"key":"08128115","name":"Tauberbischofsheim, Stadt","type":"Stadt"},"district":{"key":"08128","name":"Main-Tauber-Kreis","type":"Landkreis"},"federalState":{"key":"08","name":"Baden-Württemberg"}},{"name":"Gustavsburger Str.","postalCode":"65474","locality":"Bischofsheim","municipality":{"key":"06433002","name":"Bischofsheim","type":"Kreisangehörige_Gemeinde"},"district":{"key":"06433","name":"Groß-Gerau","type":"Landkreis"},"federalState":{"key":"06","name":"Hessen"}},{"name":"Gutenbergstr.","postalCode":"65474","locality":"Bischofsheim","municipality":{"key":"06433002","name":"Bischofsheim","type":"Kreisangehörige_Gemeinde"},"district":{"key":"06433","name":"Groß-Gerau","type":"Landkreis"},"federalState":{"key":"06","name":"Hessen"}},{"name":"Gymnasiumstr.","postalCode":"97941","locality":"Tauberbischofsheim","municipality":{"key":"08128115","name":"Tauberbischofsheim, Stadt","type":"Stadt"},"district":{"key":"08128","name":"Main-Tauber-Kreis","type":"Landkreis"},"federalState":{"key":"08","name":"Baden-Württemberg"}},{"name":"Haardweg","postalCode":"74924","locality":"Neckarbischofsheim","municipality":{"key":"08226055","name":"Neckarbischofsheim, Stadt","type":"Stadt"},"district":{"key":"08226","name":"Rhein-Neckar-Kreis","type":"Landkreis"},"federalState":{"key":"08","name":"Baden-Württemberg"}},{"name":"Haferweg","postalCode":"74924","locality":"Neckarbischofsheim","municipality":{"key":"08226055","name":"Neckarbischofsheim, Stadt","type":"Stadt"},"district":{"key":"08226","name":"Rhein-Neckar-Kreis","type":"Landkreis"},"federalState":{"key":"08","name":"Baden-Württemberg"}},{"name":"Haidenrainweg","postalCode":"74924","locality":"Neckarbischofsheim","municipality":{"key":"08226055","name":"Neckarbischofsheim, Stadt","type":"Stadt"},"district":{"key":"08226","name":"Rhein-Neckar-Kreis","type":"Landkreis"},"federalState":{"key":"08","name":"Baden-Württemberg"}},{"name":"Hans-Dorr-Allee","postalCode":"65474","locality":"Bischofsheim","municipality":{"key":"06433002","name":"Bischofsheim","type":"Kreisangehörige_Gemeinde"},"district":{"key":"06433","name":"Groß-Gerau","type":"Landkreis"},"federalState":{"key":"06","name":"Hessen"}},{"name":"Harxheimer Str.","postalCode":"55296","locality":"Gau-Bischofsheim","municipality":{"key":"07339020","name":"Gau-Bischofsheim","type":"Kreisangehörige_Gemeinde"},"district":{"key":"07339","name":"Mainz-Bingen","type":"Landkreis"},"federalState":{"key":"07","name":"Rheinland-Pfalz"}},{"name":"Haselbachstr.","postalCode":"97653","locality":"Bischofsheim i.d.Rhön","municipality":{"key":"09673117","name":"Bischofsheim i.d.Rhön, St","type":"Stadt"},"district":{"key":"09673","name":"Rhön-Grabfeld","type":"Landkreis"},"federalState":{"key":"09","name":"Bayern"}},{"name":"Hauckweg","postalCode":"97653","locality":"Bischofsheim i.d.Rhön","municipality":{"key":"09673117","name":"Bischofsheim i.d.Rhön, St","type":"Stadt"},"district":{"key":"09673","name":"Rhön-Grabfeld","type":"Landkreis"},"federalState":{"key":"09","name":"Bayern"}},{"name":"Hauptstr.","postalCode":"74924","locality":"Neckarbischofsheim","municipality":{"key":"08226055","name":"Neckarbischofsheim, Stadt","type":"Stadt"},"district":{"key":"08226","name":"Rhein-Neckar-Kreis","type":"Landkreis"},"federalState":{"key":"08","name":"Baden-Württemberg"}},{"name":"Hauptstr.","postalCode":"97653","locality":"Bischofsheim i.d.Rhön","municipality":{"key":"09673117","name":"Bischofsheim i.d.Rhön, St","type":"Stadt"},"district":{"key":"09673","name":"Rhön-Grabfeld","type":"Landkreis"},"federalState":{"key":"09","name":"Bayern"}},{"name":"Hauptstr.","postalCode":"97941","locality":"Tauberbischofsheim","municipality":{"key":"08128115","name":"Tauberbischofsheim, Stadt","type":"Stadt"},"district":{"key":"08128","name":"Main-Tauber-Kreis","type":"Landkreis"},"federalState":{"key":"08","name":"Baden-Württemberg"}},{"name":"Haydnweg","postalCode":"97941","locality":"Tauberbischofsheim","municipality":{"key":"08128115","name":"Tauberbischofsheim, Stadt","type":"Stadt"},"district":{"key":"08128","name":"Main-Tauber-Kreis","type":"Landkreis"},"federalState":{"key":"08","name":"Baden-Württemberg"}},{"name":"Hebelstr.","postalCode":"74924","locality":"Neckarbischofsheim","municipality":{"key":"08226055","name":"Neckarbischofsheim, Stadt","type":"Stadt"},"district":{"key":"08226","name":"Rhein-Neckar-Kreis","type":"Landkreis"},"federalState":{"key":"08","name":"Baden-Württemberg"}},{"name":"Hebelweg","postalCode":"97941","locality":"Tauberbischofsheim","municipality":{"key":"08128115","name":"Tauberbischofsheim, Stadt","type":"Stadt"},"district":{"key":"08128","name":"Main-Tauber-Kreis","type":"Landkreis"},"federalState":{"key":"08","name":"Baden-Württemberg"}},{"name":"Heckfelder Str.","postalCode":"97941","locality":"Tauberbischofsheim","municipality":{"key":"08128115","name":"Tauberbischofsheim, Stadt","type":"Stadt"},"district":{"key":"08128","name":"Main-Tauber-Kreis","type":"Landkreis"},"federalState":{"key":"08","name":"Baden-Württemberg"}},{"name":"Heide/Holstein-Weg","postalCode":"97653","locality":"Bischofsheim i.d.Rhön","municipality":{"key":"09673117","name":"Bischofsheim i.d.Rhön, St","type":"Stadt"},"district":{"key":"09673","name":"Rhön-Grabfeld","type":"Landkreis"},"federalState":{"key":"09","name":"Bayern"}},{"name":"Heineweg","postalCode":"97941","locality":"Tauberbischofsheim","municipality":{"key":"08128115","name":"Tauberbischofsheim, Stadt","type":"Stadt"},"district":{"key":"08128","name":"Main-Tauber-Kreis","type":"Landkreis"},"federalState":{"key":"08","name":"Baden-Württemberg"}},{"name":"Heinrich-Hünerkopf-Weg","postalCode":"65474","locality":"Bischofsheim","municipality":{"key":"06433002","name":"Bischofsheim","type":"Kreisangehörige_Gemeinde"},"district":{"key":"06433","name":"Groß-Gerau","type":"Landkreis"},"federalState":{"key":"06","name":"Hessen"}},{"name":"Helmhofer Weg","postalCode":"74924","locality":"Neckarbischofsheim","municipality":{"key":"08226055","name":"Neckarbischofsheim, Stadt","type":"Stadt"},"district":{"key":"08226","name":"Rhein-Neckar-Kreis","type":"Landkreis"},"federalState":{"key":"08","name":"Baden-Württemberg"}},{"name":"Helmstadter Str.","postalCode":"74924","locality":"Neckarbischofsheim","municipality":{"key":"08226055","name":"Neckarbischofsheim, Stadt","type":"Stadt"},"district":{"key":"08226","name":"Rhein-Neckar-Kreis","type":"Landkreis"},"federalState":{"key":"08","name":"Baden-Württemberg"}},{"name":"Herbelweg","postalCode":"97941","locality":"Tauberbischofsheim","municipality":{"key":"08128115","name":"Tauberbischofsheim, Stadt","type":"Stadt"},"district":{"key":"08128","name":"Main-Tauber-Kreis","type":"Landkreis"},"federalState":{"key":"08","name":"Baden-Württemberg"}},{"name":"Herderweg","postalCode":"97941","locality":"Tauberbischofsheim","municipality":{"key":"08128115","name":"Tauberbischofsheim, Stadt","type":"Stadt"},"district":{"key":"08128","name":"Main-Tauber-Kreis","type":"Landkreis"},"federalState":{"key":"08","name":"Baden-Württemberg"}},{"name":"Hermann-Fromme-Weg","postalCode":"97653","locality":"Bischofsheim i.d.Rhön","municipality":{"key":"09673117","name":"Bischofsheim i.d.Rhön, St","type":"Stadt"},"district":{"key":"09673","name":"Rhön-Grabfeld","type":"Landkreis"},"federalState":{"key":"09","name":"Bayern"}},{"name":"Herrenmühle","postalCode":"97941","locality":"Tauberbischofsheim","municipality":{"key":"08128115","name":"Tauberbischofsheim, Stadt","type":"Stadt"},"district":{"key":"08128","name":"Main-Tauber-Kreis","type":"Landkreis"},"federalState":{"key":"08","name":"Baden-Württemberg"}},{"name":"Herrngasse","postalCode":"97653","locality":"Bischofsheim i.d.Rhön","municipality":{"key":"09673117","name":"Bischofsheim i.d.Rhön, St","type":"Stadt"},"district":{"key":"09673","name":"Rhön-Grabfeld","type":"Landkreis"},"federalState":{"key":"09","name":"Bayern"}},{"name":"Hessenring","postalCode":"65474","locality":"Bischofsheim","municipality":{"key":"06433002","name":"Bischofsheim","type":"Kreisangehörige_Gemeinde"},"district":{"key":"06433","name":"Groß-Gerau","type":"Landkreis"},"federalState":{"key":"06","name":"Hessen"}},{"name":"Hexenbuckelweg","postalCode":"74924","locality":"Neckarbischofsheim","municipality":{"key":"08226055","name":"Neckarbischofsheim, Stadt","type":"Stadt"},"district":{"key":"08226","name":"Rhein-Neckar-Kreis","type":"Landkreis"},"federalState":{"key":"08","name":"Baden-Württemberg"}},{"name":"Hilde-Domin-Str.","postalCode":"74924","locality":"Neckarbischofsheim","municipality":{"key":"08226055","name":"Neckarbischofsheim, Stadt","type":"Stadt"},"district":{"key":"08226","name":"Rhein-Neckar-Kreis","type":"Landkreis"},"federalState":{"key":"08","name":"Baden-Württemberg"}},{"name":"Hintere Gasse","postalCode":"97941","locality":"Tauberbischofsheim","municipality":{"key":"08128115","name":"Tauberbischofsheim, Stadt","type":"Stadt"},"district":{"key":"08128","name":"Main-Tauber-Kreis","type":"Landkreis"},"federalState":{"key":"08","name":"Baden-Württemberg"}},{"name":"Hintere Torstr.","postalCode":"97941","locality":"Tauberbischofsheim","municipality":{"key":"08128115","name":"Tauberbischofsheim, Stadt","type":"Stadt"},"district":{"key":"08128","name":"Main-Tauber-Kreis","type":"Landkreis"},"federalState":{"key":"08","name":"Baden-Württemberg"}},{"name":"Hinterm Eulensee","postalCode":"65474","locality":"Bischofsheim","municipality":{"key":"06433002","name":"Bischofsheim","type":"Kreisangehörige_Gemeinde"},"district":{"key":"06433","name":"Groß-Gerau","type":"Landkreis"},"federalState":{"key":"06","name":"Hessen"}},{"name":"Hinterm Kirchhof","postalCode":"97653","locality":"Bischofsheim i.d.Rhön","municipality":{"key":"09673117","name":"Bischofsheim i.d.Rhön, St","type":"Stadt"},"district":{"key":"09673","name":"Rhön-Grabfeld","type":"Landkreis"},"federalState":{"key":"09","name":"Bayern"}},{"name":"Hirtenweg","postalCode":"97653","locality":"Bischofsheim i.d.Rhön","municipality":{"key":"09673117","name":"Bischofsheim i.d.Rhön, St","type":"Stadt"},"district":{"key":"09673","name":"Rhön-Grabfeld","type":"Landkreis"},"federalState":{"key":"09","name":"Bayern"}},{"name":"Hochhäuser Str.","postalCode":"97941","locality":"Tauberbischofsheim","municipality":{"key":"08128115","name":"Tauberbischofsheim, Stadt","type":"Stadt"},"district":{"key":"08128","name":"Main-Tauber-Kreis","type":"Landkreis"},"federalState":{"key":"08","name":"Baden-Württemberg"}},{"name":"Hochheimer Str.","postalCode":"65474","locality":"Bischofsheim","municipality":{"key":"06433002","name":"Bischofsheim","type":"Kreisangehörige_Gemeinde"},"district":{"key":"06433","name":"Groß-Gerau","type":"Landkreis"},"federalState":{"key":"06","name":"Hessen"}},{"name":"Hochrhönstr.","postalCode":"97653","locality":"Bischofsheim i.d.Rhön","municipality":{"key":"09673117","name":"Bischofsheim i.d.Rhön, St","type":"Stadt"},"district":{"key":"09673","name":"Rhön-Grabfeld","type":"Landkreis"},"federalState":{"key":"09","name":"Bayern"}},{"name":"Hockergräberstr.","postalCode":"97941","locality":"Tauberbischofsheim","municipality":{"key":"08128115","name":"Tauberbischofsheim, Stadt","type":"Stadt"},"district":{"key":"08128","name":"Main-Tauber-Kreis","type":"Landkreis"},"federalState":{"key":"08","name":"Baden-Württemberg"}},{"name":"Höfestr.","postalCode":"97653","locality":"Bischofsheim i.d.Rhön","municipality":{"key":"09673117","name":"Bischofsheim i.d.Rhön, St","type":"Stadt"},"district":{"key":"09673","name":"Rhön-Grabfeld","type":"Landkreis"},"federalState":{"key":"09","name":"Bayern"}},{"name":"Hofgut","postalCode":"97653","locality":"Bischofsheim i.d.Rhön","municipality":{"key":"09673117","name":"Bischofsheim i.d.Rhön, St","type":"Stadt"},"district":{"key":"09673","name":"Rhön-Grabfeld","type":"Landkreis"},"federalState":{"key":"09","name":"Bayern"}},{"name":"Hof Steinbach","postalCode":"97941","locality":"Tauberbischofsheim","municipality":{"key":"08128115","name":"Tauberbischofsheim, Stadt","type":"Stadt"},"district":{"key":"08128","name":"Main-Tauber-Kreis","type":"Landkreis"},"federalState":{"key":"08","name":"Baden-Württemberg"}},{"name":"Hofstr.","postalCode":"97653","locality":"Bischofsheim i.d.Rhön","municipality":{"key":"09673117","name":"Bischofsheim i.d.Rhön, St","type":"Stadt"},"district":{"key":"09673","name":"Rhön-Grabfeld","type":"Landkreis"},"federalState":{"key":"09","name":"Bayern"}},{"name":"Höhbergstr.","postalCode":"97941","locality":"Tauberbischofsheim","municipality":{"key":"08128115","name":"Tauberbischofsheim, Stadt","type":"Stadt"},"district":{"key":"08128","name":"Main-Tauber-Kreis","type":"Landkreis"},"federalState":{"key":"08","name":"Baden-Württemberg"}},{"name":"Hohe-Buchen-Weg","postalCode":"74924","locality":"Neckarbischofsheim","municipality":{"key":"08226055","name":"Neckarbischofsheim, Stadt","type":"Stadt"},"district":{"key":"08226","name":"Rhein-Neckar-Kreis","type":"Landkreis"},"federalState":{"key":"08","name":"Baden-Württemberg"}},{"name":"Hohenstr.","postalCode":"97941","locality":"Tauberbischofsheim","municipality":{"key":"08128115","name":"Tauberbischofsheim, Stadt","type":"Stadt"},"district":{"key":"08128","name":"Main-Tauber-Kreis","type":"Landkreis"},"federalState":{"key":"08","name":"Baden-Württemberg"}},{"name":"Höhenstr.","postalCode":"74924","locality":"Neckarbischofsheim","municipality":{"key":"08226055","name":"Neckarbischofsheim, Stadt","type":"Stadt"},"district":{"key":"08226","name":"Rhein-Neckar-Kreis","type":"Landkreis"},"federalState":{"key":"08","name":"Baden-Württemberg"}},{"name":"Höhweg","postalCode":"97653","locality":"Bischofsheim i.d.Rhön","municipality":{"key":"09673117","name":"Bischofsheim i.d.Rhön, St","type":"Stadt"},"district":{"key":"09673","name":"Rhön-Grabfeld","type":"Landkreis"},"federalState":{"key":"09","name":"Bayern"}},{"name":"Hölderlinstr.","postalCode":"74924","locality":"Neckarbischofsheim","municipality":{"key":"08226055","name":"Neckarbischofsheim, Stadt","type":"Stadt"},"district":{"key":"08226","name":"Rhein-Neckar-Kreis","type":"Landkreis"},"federalState":{"key":"08","name":"Baden-Württemberg"}},{"name":"Hölderlinweg","postalCode":"97941","locality":"Tauberbischofsheim","municipality":{"key":"08128115","name":"Tauberbischofsheim, Stadt","type":"Stadt"},"district":{"key":"08128","name":"Main-Tauber-Kreis","type":"Landkreis"},"federalState":{"key":"08","name":"Baden-Württemberg"}},{"name":"Holnweg","postalCode":"97653","locality":"Bischofsheim i.d.Rhön","municipality":{"key":"09673117","name":"Bischofsheim i.d.Rhön, St","type":"Stadt"},"district":{"key":"09673","name":"Rhön-Grabfeld","type":"Landkreis"},"federalState":{"key":"09","name":"Bayern"}},{"name":"Holunderweg","postalCode":"97653","locality":"Bischofsheim i.d.Rhön","municipality":{"key":"09673117","name":"Bischofsheim i.d.Rhön, St","type":"Stadt"},"district":{"key":"09673","name":"Rhön-Grabfeld","type":"Landkreis"},"federalState":{"key":"09","name":"Bayern"}},{"name":"Hunsrückweg","postalCode":"65474","locality":"Bischofsheim","municipality":{"key":"06433002","name":"Bischofsheim","type":"Kreisangehörige_Gemeinde"},"district":{"key":"06433","name":"Groß-Gerau","type":"Landkreis"},"federalState":{"key":"06","name":"Hessen"}},{"name":"Im Apfelgarten","postalCode":"65474","locality":"Bischofsheim","municipality":{"key":"06433002","name":"Bischofsheim","type":"Kreisangehörige_Gemeinde"},"district":{"key":"06433","name":"Groß-Gerau","type":"Landkreis"},"federalState":{"key":"06","name":"Hessen"}},{"name":"Im Attich","postalCode":"65474","locality":"Bischofsheim","municipality":{"key":"06433002","name":"Bischofsheim","type":"Kreisangehörige_Gemeinde"},"district":{"key":"06433","name":"Groß-Gerau","type":"Landkreis"},"federalState":{"key":"06","name":"Hessen"}},{"name":"Im Dornbusch","postalCode":"65474","locality":"Bischofsheim","municipality":{"key":"06433002","name":"Bischofsheim","type":"Kreisangehörige_Gemeinde"},"district":{"key":"06433","name":"Groß-Gerau","type":"Landkreis"},"federalState":{"key":"06","name":"Hessen"}},{"name":"Im Espital","postalCode":"65474","locality":"Bischofsheim","municipality":{"key":"06433002","name":"Bischofsheim","type":"Kreisangehörige_Gemeinde"},"district":{"key":"06433","name":"Groß-Gerau","type":"Landkreis"},"federalState":{"key":"06","name":"Hessen"}},{"name":"Im Flachsland","postalCode":"65474","locality":"Bischofsheim","municipality":{"key":"06433002","name":"Bischofsheim","type":"Kreisangehörige_Gemeinde"},"district":{"key":"06433","name":"Groß-Gerau","type":"Landkreis"},"federalState":{"key":"06","name":"Hessen"}},{"name":"Im Forst","postalCode":"65474","locality":"Bischofsheim","municipality":{"key":"06433002","name":"Bischofsheim","type":"Kreisangehörige_Gemeinde"},"district":{"key":"06433","name":"Groß-Gerau","type":"Landkreis"},"federalState":{"key":"06","name":"Hessen"}},{"name":"Im Gäßlein","postalCode":"97941","locality":"Tauberbischofsheim","municipality":{"key":"08128115","name":"Tauberbischofsheim, Stadt","type":"Stadt"},"district":{"key":"08128","name":"Main-Tauber-Kreis","type":"Landkreis"},"federalState":{"key":"08","name":"Baden-Württemberg"}},{"name":"Im Griesböhl","postalCode":"65474","locality":"Bischofsheim","municipality":{"key":"06433002","name":"Bischofsheim","type":"Kreisangehörige_Gemeinde"},"district":{"key":"06433","name":"Groß-Gerau","type":"Landkreis"},"federalState":{"key":"06","name":"Hessen"}},{"name":"Im Grund","postalCode":"74924","locality":"Neckarbischofsheim","municipality":{"key":"08226055","name":"Neckarbischofsheim, Stadt","type":"Stadt"},"district":{"key":"08226","name":"Rhein-Neckar-Kreis","type":"Landkreis"},"federalState":{"key":"08","name":"Baden-Württemberg"}},{"name":"Im Grund","postalCode":"97941","locality":"Tauberbischofsheim","municipality":{"key":"08128115","name":"Tauberbischofsheim, Stadt","type":"Stadt"},"district":{"key":"08128","name":"Main-Tauber-Kreis","type":"Landkreis"},"federalState":{"key":"08","name":"Baden-Württemberg"}},{"name":"Im Kappesgarten","postalCode":"65474","locality":"Bischofsheim","municipality":{"key":"06433002","name":"Bischofsheim","type":"Kreisangehörige_Gemeinde"},"district":{"key":"06433","name":"Groß-Gerau","type":"Landkreis"},"federalState":{"key":"06","name":"Hessen"}},{"name":"Im Klinker","postalCode":"65474","locality":"Bischofsheim","municipality":{"key":"06433002","name":"Bischofsheim","type":"Kreisangehörige_Gemeinde"},"district":{"key":"06433","name":"Groß-Gerau","type":"Landkreis"},"federalState":{"key":"06","name":"Hessen"}},{"name":"Im Linsenkuchen","postalCode":"74924","locality":"Neckarbischofsheim","municipality":{"key":"08226055","name":"Neckarbischofsheim, Stadt","type":"Stadt"},"district":{"key":"08226","name":"Rhein-Neckar-Kreis","type":"Landkreis"},"federalState":{"key":"08","name":"Baden-Württemberg"}},{"name":"Im Mönchbruch","postalCode":"65474","locality":"Bischofsheim","municipality":{"key":"06433002","name":"Bischofsheim","type":"Kreisangehörige_Gemeinde"},"district":{"key":"06433","name":"Groß-Gerau","type":"Landkreis"},"federalState":{"key":"06","name":"Hessen"}},{"name":"Im Pfeifersgrund","postalCode":"65474","locality":"Bischofsheim","municipality":{"key":"06433002","name":"Bischofsheim","type":"Kreisangehörige_Gemeinde"},"district":{"key":"06433","name":"Groß-Gerau","type":"Landkreis"},"federalState":{"key":"06","name":"Hessen"}},{"name":"Impfinger Pfad","postalCode":"97941","locality":"Tauberbischofsheim","municipality":{"key":"08128115","name":"Tauberbischofsheim, Stadt","type":"Stadt"},"district":{"key":"08128","name":"Main-Tauber-Kreis","type":"Landkreis"},"federalState":{"key":"08","name":"Baden-Württemberg"}},{"name":"Im Pflänzer","postalCode":"55296","locality":"Gau-Bischofsheim","municipality":{"key":"07339020","name":"Gau-Bischofsheim","type":"Kreisangehörige_Gemeinde"},"district":{"key":"07339","name":"Mainz-Bingen","type":"Landkreis"},"federalState":{"key":"07","name":"Rheinland-Pfalz"}},{"name":"Im Schlägle","postalCode":"74924","locality":"Neckarbischofsheim","municipality":{"key":"08226055","name":"Neckarbischofsheim, Stadt","type":"Stadt"},"district":{"key":"08226","name":"Rhein-Neckar-Kreis","type":"Landkreis"},"federalState":{"key":"08","name":"Baden-Württemberg"}},{"name":"Im Schlanken","postalCode":"65474","locality":"Bischofsheim","municipality":{"key":"06433002","name":"Bischofsheim","type":"Kreisangehörige_Gemeinde"},"district":{"key":"06433","name":"Groß-Gerau","type":"Landkreis"},"federalState":{"key":"06","name":"Hessen"}},{"name":"Im Stickelgarten","postalCode":"97941","locality":"Tauberbischofsheim","municipality":{"key":"08128115","name":"Tauberbischofsheim, Stadt","type":"Stadt"},"district":{"key":"08128","name":"Main-Tauber-Kreis","type":"Landkreis"},"federalState":{"key":"08","name":"Baden-Württemberg"}},{"name":"Im Teufelshorn","postalCode":"74924","locality":"Neckarbischofsheim","municipality":{"key":"08226055","name":"Neckarbischofsheim, Stadt","type":"Stadt"},"district":{"key":"08226","name":"Rhein-Neckar-Kreis","type":"Landkreis"},"federalState":{"key":"08","name":"Baden-Württemberg"}},{"name":"Im Wingert","postalCode":"55296","locality":"Gau-Bischofsheim","municipality":{"key":"07339020","name":"Gau-Bischofsheim","type":"Kreisangehörige_Gemeinde"},"district":{"key":"07339","name":"Mainz-Bingen","type":"Landkreis"},"federalState":{"key":"07","name":"Rheinland-Pfalz"}},{"name":"Im Wüsten Forst","postalCode":"65474","locality":"Bischofsheim","municipality":{"key":"06433002","name":"Bischofsheim","type":"Kreisangehörige_Gemeinde"},"district":{"key":"06433","name":"Groß-Gerau","type":"Landkreis"},"federalState":{"key":"06","name":"Hessen"}},{"name":"In den Borngärten","postalCode":"55296","locality":"Gau-Bischofsheim","municipality":{"key":"07339020","name":"Gau-Bischofsheim","type":"Kreisangehörige_Gemeinde"},"district":{"key":"07339","name":"Mainz-Bingen","type":"Landkreis"},"federalState":{"key":"07","name":"Rheinland-Pfalz"}},{"name":"In den Harxheimer Wiesen","postalCode":"55296","locality":"Gau-Bischofsheim","municipality":{"key":"07339020","name":"Gau-Bischofsheim","type":"Kreisangehörige_Gemeinde"},"district":{"key":"07339","name":"Mainz-Bingen","type":"Landkreis"},"federalState":{"key":"07","name":"Rheinland-Pfalz"}},{"name":"In den Sternäckern","postalCode":"65474","locality":"Bischofsheim","municipality":{"key":"06433002","name":"Bischofsheim","type":"Kreisangehörige_Gemeinde"},"district":{"key":"06433","name":"Groß-Gerau","type":"Landkreis"},"federalState":{"key":"06","name":"Hessen"}},{"name":"In der Hochgewann","postalCode":"65474","locality":"Bischofsheim","municipality":{"key":"06433002","name":"Bischofsheim","type":"Kreisangehörige_Gemeinde"},"district":{"key":"06433","name":"Groß-Gerau","type":"Landkreis"},"federalState":{"key":"06","name":"Hessen"}},{"name":"In der Nachtweide","postalCode":"65474","locality":"Bischofsheim","municipality":{"key":"06433002","name":"Bischofsheim","type":"Kreisangehörige_Gemeinde"},"district":{"key":"06433","name":"Groß-Gerau","type":"Landkreis"},"federalState":{"key":"06","name":"Hessen"}},{"name":"In der Tagweide","postalCode":"65462","locality":"Bischofsheim","municipality":{"key":"06433002","name":"Bischofsheim","type":"Kreisangehörige_Gemeinde"},"district":{"key":"06433","name":"Groß-Gerau","type":"Landkreis"},"federalState":{"key":"06","name":"Hessen"}},{"name":"In der Tagweide","postalCode":"65474","locality":"Bischofsheim","municipality":{"key":"06433002","name":"Bischofsheim","type":"Kreisangehörige_Gemeinde"},"district":{"key":"06433","name":"Groß-Gerau","type":"Landkreis"},"federalState":{"key":"06","name":"Hessen"}},{"name":"Industriestr.","postalCode":"97653","locality":"Bischofsheim i.d.Rhön","municipality":{"key":"09673117","name":"Bischofsheim i.d.Rhön, St","type":"Stadt"},"district":{"key":"09673","name":"Rhön-Grabfeld","type":"Landkreis"},"federalState":{"key":"09","name":"Bayern"}},{"name":"Innere Christlingen","postalCode":"74924","locality":"Neckarbischofsheim","municipality":{"key":"08226055","name":"Neckarbischofsheim, Stadt","type":"Stadt"},"district":{"key":"08226","name":"Rhein-Neckar-Kreis","type":"Landkreis"},"federalState":{"key":"08","name":"Baden-Württemberg"}},{"name":"Jagdhausweg","postalCode":"74924","locality":"Neckarbischofsheim","municipality":{"key":"08226055","name":"Neckarbischofsheim, Stadt","type":"Stadt"},"district":{"key":"08226","name":"Rhein-Neckar-Kreis","type":"Landkreis"},"federalState":{"key":"08","name":"Baden-Württemberg"}},{"name":"Johannes-Kepler-Str.","postalCode":"97941","locality":"Tauberbischofsheim","municipality":{"key":"08128115","name":"Tauberbischofsheim, Stadt","type":"Stadt"},"district":{"key":"08128","name":"Main-Tauber-Kreis","type":"Landkreis"},"federalState":{"key":"08","name":"Baden-Württemberg"}},{"name":"Johanneskreuzstr.","postalCode":"97941","locality":"Tauberbischofsheim","municipality":{"key":"08128115","name":"Tauberbischofsheim, Stadt","type":"Stadt"},"district":{"key":"08128","name":"Main-Tauber-Kreis","type":"Landkreis"},"federalState":{"key":"08","name":"Baden-Württemberg"}},{"name":"Josef-Dürr-Str.","postalCode":"97941","locality":"Tauberbischofsheim","municipality":{"key":"08128115","name":"Tauberbischofsheim, Stadt","type":"Stadt"},"district":{"key":"08128","name":"Main-Tauber-Kreis","type":"Landkreis"},"federalState":{"key":"08","name":"Baden-Württemberg"}},{"name":"Josef-Lang-Weg","postalCode":"97941","locality":"Tauberbischofsheim","municipality":{"key":"08128115","name":"Tauberbischofsheim, Stadt","type":"Stadt"},"district":{"key":"08128","name":"Main-Tauber-Kreis","type":"Landkreis"},"federalState":{"key":"08","name":"Baden-Württemberg"}},{"name":"Josefstr.","postalCode":"97653","locality":"Bischofsheim i.d.Rhön","municipality":{"key":"09673117","name":"Bischofsheim i.d.Rhön, St","type":"Stadt"},"district":{"key":"09673","name":"Rhön-Grabfeld","type":"Landkreis"},"federalState":{"key":"09","name":"Bayern"}},{"name":"Judengasse","postalCode":"97941","locality":"Tauberbischofsheim","municipality":{"key":"08128115","name":"Tauberbischofsheim, Stadt","type":"Stadt"},"district":{"key":"08128","name":"Main-Tauber-Kreis","type":"Landkreis"},"federalState":{"key":"08","name":"Baden-Württemberg"}},{"name":"Judenweg","postalCode":"74924","locality":"Neckarbischofsheim","municipality":{"key":"08226055","name":"Neckarbischofsheim, Stadt","type":"Stadt"},"district":{"key":"08226","name":"Rhein-Neckar-Kreis","type":"Landkreis"},"federalState":{"key":"08","name":"Baden-Württemberg"}},{"name":"Julius-Berberich-Str.","postalCode":"97941","locality":"Tauberbischofsheim","municipality":{"key":"08128115","name":"Tauberbischofsheim, Stadt","type":"Stadt"},"district":{"key":"08128","name":"Main-Tauber-Kreis","type":"Landkreis"},"federalState":{"key":"08","name":"Baden-Württemberg"}},{"name":"Julius-Echter-Str.","postalCode":"97941","locality":"Tauberbischofsheim","municipality":{"key":"08128115","name":"Tauberbischofsheim, Stadt","type":"Stadt"},"district":{"key":"08128","name":"Main-Tauber-Kreis","type":"Landkreis"},"federalState":{"key":"08","name":"Baden-Württemberg"}},{"name":"Kachelstr.","postalCode":"97941","locality":"Tauberbischofsheim","municipality":{"key":"08128115","name":"Tauberbischofsheim, Stadt","type":"Stadt"},"district":{"key":"08128","name":"Main-Tauber-Kreis","type":"Landkreis"},"federalState":{"key":"08","name":"Baden-Württemberg"}},{"name":"Kantstr.","postalCode":"65474","locality":"Bischofsheim","municipality":{"key":"06433002","name":"Bischofsheim","type":"Kreisangehörige_Gemeinde"},"district":{"key":"06433","name":"Groß-Gerau","type":"Landkreis"},"federalState":{"key":"06","name":"Hessen"}},{"name":"Kapellenstr.","postalCode":"97941","locality":"Tauberbischofsheim","municipality":{"key":"08128115","name":"Tauberbischofsheim, Stadt","type":"Stadt"},"district":{"key":"08128","name":"Main-Tauber-Kreis","type":"Landkreis"},"federalState":{"key":"08","name":"Baden-Württemberg"}},{"name":"Kapellenstraẞe","postalCode":"97653","locality":"Bischofsheim i.d.Rhön","municipality":{"key":"09673117","name":"Bischofsheim i.d.Rhön, St","type":"Stadt"},"district":{"key":"09673","name":"Rhön-Grabfeld","type":"Landkreis"},"federalState":{"key":"09","name":"Bayern"}},{"name":"Kapplersgärten","postalCode":"74924","locality":"Neckarbischofsheim","municipality":{"key":"08226055","name":"Neckarbischofsheim, Stadt","type":"Stadt"},"district":{"key":"08226","name":"Rhein-Neckar-Kreis","type":"Landkreis"},"federalState":{"key":"08","name":"Baden-Württemberg"}},{"name":"Karlsbader Str.","postalCode":"65474","locality":"Bischofsheim","municipality":{"key":"06433002","name":"Bischofsheim","type":"Kreisangehörige_Gemeinde"},"district":{"key":"06433","name":"Groß-Gerau","type":"Landkreis"},"federalState":{"key":"06","name":"Hessen"}},{"name":"Kartäuser Ring","postalCode":"97941","locality":"Tauberbischofsheim","municipality":{"key":"08128115","name":"Tauberbischofsheim, Stadt","type":"Stadt"},"district":{"key":"08128","name":"Main-Tauber-Kreis","type":"Landkreis"},"federalState":{"key":"08","name":"Baden-Württemberg"}},{"name":"Kasernenstr.","postalCode":"97941","locality":"Tauberbischofsheim","municipality":{"key":"08128115","name":"Tauberbischofsheim, Stadt","type":"Stadt"},"district":{"key":"08128","name":"Main-Tauber-Kreis","type":"Landkreis"},"federalState":{"key":"08","name":"Baden-Württemberg"}},{"name":"Kastanienallee","postalCode":"97941","locality":"Tauberbischofsheim","municipality":{"key":"08128115","name":"Tauberbischofsheim, Stadt","type":"Stadt"},"district":{"key":"08128","name":"Main-Tauber-Kreis","type":"Landkreis"},"federalState":{"key":"08","name":"Baden-Württemberg"}},{"name":"Kasteler Str.","postalCode":"65474","locality":"Bischofsheim","municipality":{"key":"06433002","name":"Bischofsheim","type":"Kreisangehörige_Gemeinde"},"district":{"key":"06433","name":"Groß-Gerau","type":"Landkreis"},"federalState":{"key":"06","name":"Hessen"}},{"name":"Keltenweg","postalCode":"65474","locality":"Bischofsheim","municipality":{"key":"06433002","name":"Bischofsheim","type":"Kreisangehörige_Gemeinde"},"district":{"key":"06433","name":"Groß-Gerau","type":"Landkreis"},"federalState":{"key":"06","name":"Hessen"}},{"name":"Keltenweg","postalCode":"97941","locality":"Tauberbischofsheim","municipality":{"key":"08128115","name":"Tauberbischofsheim, Stadt","type":"Stadt"},"district":{"key":"08128","name":"Main-Tauber-Kreis","type":"Landkreis"},"federalState":{"key":"08","name":"Baden-Württemberg"}},{"name":"Kernerstr.","postalCode":"74924","locality":"Neckarbischofsheim","municipality":{"key":"08226055","name":"Neckarbischofsheim, Stadt","type":"Stadt"},"district":{"key":"08226","name":"Rhein-Neckar-Kreis","type":"Landkreis"},"federalState":{"key":"08","name":"Baden-Württemberg"}},{"name":"Kesselweg","postalCode":"74924","locality":"Neckarbischofsheim","municipality":{"key":"08226055","name":"Neckarbischofsheim, Stadt","type":"Stadt"},"district":{"key":"08226","name":"Rhein-Neckar-Kreis","type":"Landkreis"},"federalState":{"key":"08","name":"Baden-Württemberg"}},{"name":"Kilianstr.","postalCode":"97941","locality":"Tauberbischofsheim","municipality":{"key":"08128115","name":"Tauberbischofsheim, Stadt","type":"Stadt"},"district":{"key":"08128","name":"Main-Tauber-Kreis","type":"Landkreis"},"federalState":{"key":"08","name":"Baden-Württemberg"}},{"name":"Killiansweg","postalCode":"97653","locality":"Bischofsheim i.d.Rhön","municipality":{"key":"09673117","name":"Bischofsheim i.d.Rhön, St","type":"Stadt"},"district":{"key":"09673","name":"Rhön-Grabfeld","type":"Landkreis"},"federalState":{"key":"09","name":"Bayern"}},{"name":"Kirchenbergring","postalCode":"97941","locality":"Tauberbischofsheim","municipality":{"key":"08128115","name":"Tauberbischofsheim, Stadt","type":"Stadt"},"district":{"key":"08128","name":"Main-Tauber-Kreis","type":"Landkreis"},"federalState":{"key":"08","name":"Baden-Württemberg"}},{"name":"Kirchgäßchen","postalCode":"55296","locality":"Gau-Bischofsheim","municipality":{"key":"07339020","name":"Gau-Bischofsheim","type":"Kreisangehörige_Gemeinde"},"district":{"key":"07339","name":"Mainz-Bingen","type":"Landkreis"},"federalState":{"key":"07","name":"Rheinland-Pfalz"}},{"name":"Kirchgäßchen","postalCode":"97941","locality":"Tauberbischofsheim","municipality":{"key":"08128115","name":"Tauberbischofsheim, Stadt","type":"Stadt"},"district":{"key":"08128","name":"Main-Tauber-Kreis","type":"Landkreis"},"federalState":{"key":"08","name":"Baden-Württemberg"}},{"name":"Kirchgasse","postalCode":"97653","locality":"Bischofsheim i.d.Rhön","municipality":{"key":"09673117","name":"Bischofsheim i.d.Rhön, St","type":"Stadt"},"district":{"key":"09673","name":"Rhön-Grabfeld","type":"Landkreis"},"federalState":{"key":"09","name":"Bayern"}},{"name":"Kirchhofsweg","postalCode":"97653","locality":"Bischofsheim i.d.Rhön","municipality":{"key":"09673117","name":"Bischofsheim i.d.Rhön, St","type":"Stadt"},"district":{"key":"09673","name":"Rhön-Grabfeld","type":"Landkreis"},"federalState":{"key":"09","name":"Bayern"}},{"name":"Kirchpfad","postalCode":"97941","locality":"Tauberbischofsheim","municipality":{"key":"08128115","name":"Tauberbischofsheim, Stadt","type":"Stadt"},"district":{"key":"08128","name":"Main-Tauber-Kreis","type":"Landkreis"},"federalState":{"key":"08","name":"Baden-Württemberg"}},{"name":"Kirchplatz","postalCode":"97653","locality":"Bischofsheim i.d.Rhön","municipality":{"key":"09673117","name":"Bischofsheim i.d.Rhön, St","type":"Stadt"},"district":{"key":"09673","name":"Rhön-Grabfeld","type":"Landkreis"},"federalState":{"key":"09","name":"Bayern"}},{"name":"Kirchplatz","postalCode":"97941","locality":"Tauberbischofsheim","municipality":{"key":"08128115","name":"Tauberbischofsheim, Stadt","type":"Stadt"},"district":{"key":"08128","name":"Main-Tauber-Kreis","type":"Landkreis"},"federalState":{"key":"08","name":"Baden-Württemberg"}},{"name":"Kirchstr.","postalCode":"55296","locality":"Gau-Bischofsheim","municipality":{"key":"07339020","name":"Gau-Bischofsheim","type":"Kreisangehörige_Gemeinde"},"district":{"key":"07339","name":"Mainz-Bingen","type":"Landkreis"},"federalState":{"key":"07","name":"Rheinland-Pfalz"}},{"name":"Kirchstr.","postalCode":"74924","locality":"Neckarbischofsheim","municipality":{"key":"08226055","name":"Neckarbischofsheim, Stadt","type":"Stadt"},"district":{"key":"08226","name":"Rhein-Neckar-Kreis","type":"Landkreis"},"federalState":{"key":"08","name":"Baden-Württemberg"}},{"name":"Kirchweg","postalCode":"97941","locality":"Tauberbischofsheim","municipality":{"key":"08128115","name":"Tauberbischofsheim, Stadt","type":"Stadt"},"district":{"key":"08128","name":"Main-Tauber-Kreis","type":"Landkreis"},"federalState":{"key":"08","name":"Baden-Württemberg"}},{"name":"Kissinger Str.","postalCode":"97653","locality":"Bischofsheim i.d.Rhön","municipality":{"key":"09673117","name":"Bischofsheim i.d.Rhön, St","type":"Stadt"},"district":{"key":"09673","name":"Rhön-Grabfeld","type":"Landkreis"},"federalState":{"key":"09","name":"Bayern"}},{"name":"Klempelsweg","postalCode":"97653","locality":"Bischofsheim i.d.Rhön","municipality":{"key":"09673117","name":"Bischofsheim i.d.Rhön, St","type":"Stadt"},"district":{"key":"09673","name":"Rhön-Grabfeld","type":"Landkreis"},"federalState":{"key":"09","name":"Bayern"}},{"name":"Klesbergstr.","postalCode":"97941","locality":"Tauberbischofsheim","municipality":{"key":"08128115","name":"Tauberbischofsheim, Stadt","type":"Stadt"},"district":{"key":"08128","name":"Main-Tauber-Kreis","type":"Landkreis"},"federalState":{"key":"08","name":"Baden-Württemberg"}},{"name":"Klinge","postalCode":"97941","locality":"Tauberbischofsheim","municipality":{"key":"08128115","name":"Tauberbischofsheim, Stadt","type":"Stadt"},"district":{"key":"08128","name":"Main-Tauber-Kreis","type":"Landkreis"},"federalState":{"key":"08","name":"Baden-Württemberg"}},{"name":"Klostergasse","postalCode":"97941","locality":"Tauberbischofsheim","municipality":{"key":"08128115","name":"Tauberbischofsheim, Stadt","type":"Stadt"},"district":{"key":"08128","name":"Main-Tauber-Kreis","type":"Landkreis"},"federalState":{"key":"08","name":"Baden-Württemberg"}},{"name":"Kniebreche","postalCode":"97653","locality":"Bischofsheim i.d.Rhön","municipality":{"key":"09673117","name":"Bischofsheim i.d.Rhön, St","type":"Stadt"},"district":{"key":"09673","name":"Rhön-Grabfeld","type":"Landkreis"},"federalState":{"key":"09","name":"Bayern"}},{"name":"Kniebrecher","postalCode":"97653","locality":"Bischofsheim i.d.Rhön","municipality":{"key":"09673117","name":"Bischofsheim i.d.Rhön, St","type":"Stadt"},"district":{"key":"09673","name":"Rhön-Grabfeld","type":"Landkreis"},"federalState":{"key":"09","name":"Bayern"}},{"name":"Kohlwaldweg","postalCode":"74924","locality":"Neckarbischofsheim","municipality":{"key":"08226055","name":"Neckarbischofsheim, Stadt","type":"Stadt"},"district":{"key":"08226","name":"Rhein-Neckar-Kreis","type":"Landkreis"},"federalState":{"key":"08","name":"Baden-Württemberg"}},{"name":"Kolpingstr.","postalCode":"97941","locality":"Tauberbischofsheim","municipality":{"key":"08128115","name":"Tauberbischofsheim, Stadt","type":"Stadt"},"district":{"key":"08128","name":"Main-Tauber-Kreis","type":"Landkreis"},"federalState":{"key":"08","name":"Baden-Württemberg"}},{"name":"Königheimer Str.","postalCode":"97941","locality":"Tauberbischofsheim","municipality":{"key":"08128115","name":"Tauberbischofsheim, Stadt","type":"Stadt"},"district":{"key":"08128","name":"Main-Tauber-Kreis","type":"Landkreis"},"federalState":{"key":"08","name":"Baden-Württemberg"}},{"name":"Königheimer Weg","postalCode":"97941","locality":"Tauberbischofsheim","municipality":{"key":"08128115","name":"Tauberbischofsheim, Stadt","type":"Stadt"},"district":{"key":"08128","name":"Main-Tauber-Kreis","type":"Landkreis"},"federalState":{"key":"08","name":"Baden-Württemberg"}},{"name":"Königsberger Str.","postalCode":"65474","locality":"Bischofsheim","municipality":{"key":"06433002","name":"Bischofsheim","type":"Kreisangehörige_Gemeinde"},"district":{"key":"06433","name":"Groß-Gerau","type":"Landkreis"},"federalState":{"key":"06","name":"Hessen"}},{"name":"Kötzenheckenweg","postalCode":"97653","locality":"Bischofsheim i.d.Rhön","municipality":{"key":"09673117","name":"Bischofsheim i.d.Rhön, St","type":"Stadt"},"district":{"key":"09673","name":"Rhön-Grabfeld","type":"Landkreis"},"federalState":{"key":"09","name":"Bayern"}},{"name":"Krainerweg","postalCode":"97941","locality":"Tauberbischofsheim","municipality":{"key":"08128115","name":"Tauberbischofsheim, Stadt","type":"Stadt"},"district":{"key":"08128","name":"Main-Tauber-Kreis","type":"Landkreis"},"federalState":{"key":"08","name":"Baden-Württemberg"}},{"name":"Krautgartenweg","postalCode":"97941","locality":"Tauberbischofsheim","municipality":{"key":"08128115","name":"Tauberbischofsheim, Stadt","type":"Stadt"},"district":{"key":"08128","name":"Main-Tauber-Kreis","type":"Landkreis"},"federalState":{"key":"08","name":"Baden-Württemberg"}},{"name":"Kreuzbergstr.","postalCode":"97653","locality":"Bischofsheim i.d.Rhön","municipality":{"key":"09673117","name":"Bischofsheim i.d.Rhön, St","type":"Stadt"},"district":{"key":"09673","name":"Rhön-Grabfeld","type":"Landkreis"},"federalState":{"key":"09","name":"Bayern"}},{"name":"Kreuzbergstr.","postalCode":"97772","locality":"Bischofsheim i.d.Rhön","municipality":{"key":"09673117","name":"Bischofsheim i.d.Rhön, St","type":"Stadt"},"district":{"key":"09673","name":"Rhön-Grabfeld","type":"Landkreis"},"federalState":{"key":"09","name":"Bayern"}},{"name":"Kreuzweg","postalCode":"97941","locality":"Tauberbischofsheim","municipality":{"key":"08128115","name":"Tauberbischofsheim, Stadt","type":"Stadt"},"district":{"key":"08128","name":"Main-Tauber-Kreis","type":"Landkreis"},"federalState":{"key":"08","name":"Baden-Württemberg"}},{"name":"Kreuzwingert","postalCode":"55296","locality":"Gau-Bischofsheim","municipality":{"key":"07339020","name":"Gau-Bischofsheim","type":"Kreisangehörige_Gemeinde"},"district":{"key":"07339","name":"Mainz-Bingen","type":"Landkreis"},"federalState":{"key":"07","name":"Rheinland-Pfalz"}},{"name":"Kronengasse","postalCode":"97653","locality":"Bischofsheim i.d.Rhön","municipality":{"key":"09673117","name":"Bischofsheim i.d.Rhön, St","type":"Stadt"},"district":{"key":"09673","name":"Rhön-Grabfeld","type":"Landkreis"},"federalState":{"key":"09","name":"Bayern"}},{"name":"Krummgewann","postalCode":"55296","locality":"Gau-Bischofsheim","municipality":{"key":"07339020","name":"Gau-Bischofsheim","type":"Kreisangehörige_Gemeinde"},"district":{"key":"07339","name":"Mainz-Bingen","type":"Landkreis"},"federalState":{"key":"07","name":"Rheinland-Pfalz"}},{"name":"Kryxenbergweg","postalCode":"74924","locality":"Neckarbischofsheim","municipality":{"key":"08226055","name":"Neckarbischofsheim, Stadt","type":"Stadt"},"district":{"key":"08226","name":"Rhein-Neckar-Kreis","type":"Landkreis"},"federalState":{"key":"08","name":"Baden-Württemberg"}},{"name":"Külsheimer Str.","postalCode":"97941","locality":"Tauberbischofsheim","municipality":{"key":"08128115","name":"Tauberbischofsheim, Stadt","type":"Stadt"},"district":{"key":"08128","name":"Main-Tauber-Kreis","type":"Landkreis"},"federalState":{"key":"08","name":"Baden-Württemberg"}},{"name":"Lachenweg","postalCode":"65474","locality":"Bischofsheim","municipality":{"key":"06433002","name":"Bischofsheim","type":"Kreisangehörige_Gemeinde"},"district":{"key":"06433","name":"Groß-Gerau","type":"Landkreis"},"federalState":{"key":"06","name":"Hessen"}},{"name":"Landstr.","postalCode":"74924","locality":"Neckarbischofsheim","municipality":{"key":"08226055","name":"Neckarbischofsheim, Stadt","type":"Stadt"},"district":{"key":"08226","name":"Rhein-Neckar-Kreis","type":"Landkreis"},"federalState":{"key":"08","name":"Baden-Württemberg"}},{"name":"Landstr.","postalCode":"97941","locality":"Tauberbischofsheim","municipality":{"key":"08128115","name":"Tauberbischofsheim, Stadt","type":"Stadt"},"district":{"key":"08128","name":"Main-Tauber-Kreis","type":"Landkreis"},"federalState":{"key":"08","name":"Baden-Württemberg"}},{"name":"Lange Gasse","postalCode":"97941","locality":"Tauberbischofsheim","municipality":{"key":"08128115","name":"Tauberbischofsheim, Stadt","type":"Stadt"},"district":{"key":"08128","name":"Main-Tauber-Kreis","type":"Landkreis"},"federalState":{"key":"08","name":"Baden-Württemberg"}},{"name":"Lange Steig","postalCode":"97941","locality":"Tauberbischofsheim","municipality":{"key":"08128115","name":"Tauberbischofsheim, Stadt","type":"Stadt"},"district":{"key":"08128","name":"Main-Tauber-Kreis","type":"Landkreis"},"federalState":{"key":"08","name":"Baden-Württemberg"}},{"name":"Langstr.","postalCode":"55296","locality":"Gau-Bischofsheim","municipality":{"key":"07339020","name":"Gau-Bischofsheim","type":"Kreisangehörige_Gemeinde"},"district":{"key":"07339","name":"Mainz-Bingen","type":"Landkreis"},"federalState":{"key":"07","name":"Rheinland-Pfalz"}},{"name":"Lännerweg","postalCode":"97653","locality":"Bischofsheim i.d.Rhön","municipality":{"key":"09673117","name":"Bischofsheim i.d.Rhön, St","type":"Stadt"},"district":{"key":"09673","name":"Rhön-Grabfeld","type":"Landkreis"},"federalState":{"key":"09","name":"Bayern"}},{"name":"La Roche-Weg","postalCode":"97941","locality":"Tauberbischofsheim","municipality":{"key":"08128115","name":"Tauberbischofsheim, Stadt","type":"Stadt"},"district":{"key":"08128","name":"Main-Tauber-Kreis","type":"Landkreis"},"federalState":{"key":"08","name":"Baden-Württemberg"}},{"name":"Laurentiusbergstr.","postalCode":"97941","locality":"Tauberbischofsheim","municipality":{"key":"08128115","name":"Tauberbischofsheim, Stadt","type":"Stadt"},"district":{"key":"08128","name":"Main-Tauber-Kreis","type":"Landkreis"},"federalState":{"key":"08","name":"Baden-Württemberg"}},{"name":"Laurentiusstr.","postalCode":"97941","locality":"Tauberbischofsheim","municipality":{"key":"08128115","name":"Tauberbischofsheim, Stadt","type":"Stadt"},"district":{"key":"08128","name":"Main-Tauber-Kreis","type":"Landkreis"},"federalState":{"key":"08","name":"Baden-Württemberg"}},{"name":"Leintalblick","postalCode":"97941","locality":"Tauberbischofsheim","municipality":{"key":"08128115","name":"Tauberbischofsheim, Stadt","type":"Stadt"},"district":{"key":"08128","name":"Main-Tauber-Kreis","type":"Landkreis"},"federalState":{"key":"08","name":"Baden-Württemberg"}},{"name":"Lerchenrain","postalCode":"97941","locality":"Tauberbischofsheim","municipality":{"key":"08128115","name":"Tauberbischofsheim, Stadt","type":"Stadt"},"district":{"key":"08128","name":"Main-Tauber-Kreis","type":"Landkreis"},"federalState":{"key":"08","name":"Baden-Württemberg"}},{"name":"Lerchenweg","postalCode":"74924","locality":"Neckarbischofsheim","municipality":{"key":"08226055","name":"Neckarbischofsheim, Stadt","type":"Stadt"},"district":{"key":"08226","name":"Rhein-Neckar-Kreis","type":"Landkreis"},"federalState":{"key":"08","name":"Baden-Württemberg"}},{"name":"Lessingweg","postalCode":"97941","locality":"Tauberbischofsheim","municipality":{"key":"08128115","name":"Tauberbischofsheim, Stadt","type":"Stadt"},"district":{"key":"08128","name":"Main-Tauber-Kreis","type":"Landkreis"},"federalState":{"key":"08","name":"Baden-Württemberg"}},{"name":"Leutenauweg","postalCode":"97653","locality":"Bischofsheim i.d.Rhön","municipality":{"key":"09673117","name":"Bischofsheim i.d.Rhön, St","type":"Stadt"},"district":{"key":"09673","name":"Rhön-Grabfeld","type":"Landkreis"},"federalState":{"key":"09","name":"Bayern"}},{"name":"Liebespfad","postalCode":"55296","locality":"Gau-Bischofsheim","municipality":{"key":"07339020","name":"Gau-Bischofsheim","type":"Kreisangehörige_Gemeinde"},"district":{"key":"07339","name":"Mainz-Bingen","type":"Landkreis"},"federalState":{"key":"07","name":"Rheinland-Pfalz"}},{"name":"Lilienweg","postalCode":"97653","locality":"Bischofsheim i.d.Rhön","municipality":{"key":"09673117","name":"Bischofsheim i.d.Rhön, St","type":"Stadt"},"district":{"key":"09673","name":"Rhön-Grabfeld","type":"Landkreis"},"federalState":{"key":"09","name":"Bayern"}},{"name":"Lindenstr.","postalCode":"97653","locality":"Bischofsheim i.d.Rhön","municipality":{"key":"09673117","name":"Bischofsheim i.d.Rhön, St","type":"Stadt"},"district":{"key":"09673","name":"Rhön-Grabfeld","type":"Landkreis"},"federalState":{"key":"09","name":"Bayern"}},{"name":"Lindenstr.","postalCode":"97941","locality":"Tauberbischofsheim","municipality":{"key":"08128115","name":"Tauberbischofsheim, Stadt","type":"Stadt"},"district":{"key":"08128","name":"Main-Tauber-Kreis","type":"Landkreis"},"federalState":{"key":"08","name":"Baden-Württemberg"}},{"name":"Lindenweg","postalCode":"65474","locality":"Bischofsheim","municipality":{"key":"06433002","name":"Bischofsheim","type":"Kreisangehörige_Gemeinde"},"district":{"key":"06433","name":"Groß-Gerau","type":"Landkreis"},"federalState":{"key":"06","name":"Hessen"}},{"name":"Lindenweg","postalCode":"97941","locality":"Tauberbischofsheim","municipality":{"key":"08128115","name":"Tauberbischofsheim, Stadt","type":"Stadt"},"district":{"key":"08128","name":"Main-Tauber-Kreis","type":"Landkreis"},"federalState":{"key":"08","name":"Baden-Württemberg"}},{"name":"Lortzingweg","postalCode":"97941","locality":"Tauberbischofsheim","municipality":{"key":"08128115","name":"Tauberbischofsheim, Stadt","type":"Stadt"},"district":{"key":"08128","name":"Main-Tauber-Kreis","type":"Landkreis"},"federalState":{"key":"08","name":"Baden-Württemberg"}},{"name":"Lörzweiler Str.","postalCode":"55296","locality":"Gau-Bischofsheim","municipality":{"key":"07339020","name":"Gau-Bischofsheim","type":"Kreisangehörige_Gemeinde"},"district":{"key":"07339","name":"Mainz-Bingen","type":"Landkreis"},"federalState":{"key":"07","name":"Rheinland-Pfalz"}},{"name":"Löwenstr.","postalCode":"97653","locality":"Bischofsheim i.d.Rhön","municipality":{"key":"09673117","name":"Bischofsheim i.d.Rhön, St","type":"Stadt"},"district":{"key":"09673","name":"Rhön-Grabfeld","type":"Landkreis"},"federalState":{"key":"09","name":"Bayern"}},{"name":"Ludwig-Mönch-Str.","postalCode":"97941","locality":"Tauberbischofsheim","municipality":{"key":"08128115","name":"Tauberbischofsheim, Stadt","type":"Stadt"},"district":{"key":"08128","name":"Main-Tauber-Kreis","type":"Landkreis"},"federalState":{"key":"08","name":"Baden-Württemberg"}},{"name":"Ludwigstr.","postalCode":"65474","locality":"Bischofsheim","municipality":{"key":"06433002","name":"Bischofsheim","type":"Kreisangehörige_Gemeinde"},"district":{"key":"06433","name":"Groß-Gerau","type":"Landkreis"},"federalState":{"key":"06","name":"Hessen"}},{"name":"Ludwigstr.","postalCode":"97653","locality":"Bischofsheim i.d.Rhön","municipality":{"key":"09673117","name":"Bischofsheim i.d.Rhön, St","type":"Stadt"},"district":{"key":"09673","name":"Rhön-Grabfeld","type":"Landkreis"},"federalState":{"key":"09","name":"Bayern"}},{"name":"Lupinenweg","postalCode":"97941","locality":"Tauberbischofsheim","municipality":{"key":"08128115","name":"Tauberbischofsheim, Stadt","type":"Stadt"},"district":{"key":"08128","name":"Main-Tauber-Kreis","type":"Landkreis"},"federalState":{"key":"08","name":"Baden-Württemberg"}},{"name":"Mainstr.","postalCode":"65474","locality":"Bischofsheim","municipality":{"key":"06433002","name":"Bischofsheim","type":"Kreisangehörige_Gemeinde"},"district":{"key":"06433","name":"Groß-Gerau","type":"Landkreis"},"federalState":{"key":"06","name":"Hessen"}},{"name":"Mainzer Str.","postalCode":"65474","locality":"Bischofsheim","municipality":{"key":"06433002","name":"Bischofsheim","type":"Kreisangehörige_Gemeinde"},"district":{"key":"06433","name":"Groß-Gerau","type":"Landkreis"},"federalState":{"key":"06","name":"Hessen"}},{"name":"Manggasse","postalCode":"97941","locality":"Tauberbischofsheim","municipality":{"key":"08128115","name":"Tauberbischofsheim, Stadt","type":"Stadt"},"district":{"key":"08128","name":"Main-Tauber-Kreis","type":"Landkreis"},"federalState":{"key":"08","name":"Baden-Württemberg"}},{"name":"Marktplatz","postalCode":"97653","locality":"Bischofsheim i.d.Rhön","municipality":{"key":"09673117","name":"Bischofsheim i.d.Rhön, St","type":"Stadt"},"district":{"key":"09673","name":"Rhön-Grabfeld","type":"Landkreis"},"federalState":{"key":"09","name":"Bayern"}},{"name":"Marktplatz","postalCode":"97941","locality":"Tauberbischofsheim","municipality":{"key":"08128115","name":"Tauberbischofsheim, Stadt","type":"Stadt"},"district":{"key":"08128","name":"Main-Tauber-Kreis","type":"Landkreis"},"federalState":{"key":"08","name":"Baden-Württemberg"}},{"name":"Märzenweg","postalCode":"74924","locality":"Neckarbischofsheim","municipality":{"key":"08226055","name":"Neckarbischofsheim, Stadt","type":"Stadt"},"district":{"key":"08226","name":"Rhein-Neckar-Kreis","type":"Landkreis"},"federalState":{"key":"08","name":"Baden-Württemberg"}},{"name":"Mäuerlein","postalCode":"97941","locality":"Tauberbischofsheim","municipality":{"key":"08128115","name":"Tauberbischofsheim, Stadt","type":"Stadt"},"district":{"key":"08128","name":"Main-Tauber-Kreis","type":"Landkreis"},"federalState":{"key":"08","name":"Baden-Württemberg"}},{"name":"Max-Planck-Str.","postalCode":"97941","locality":"Tauberbischofsheim","municipality":{"key":"08128115","name":"Tauberbischofsheim, Stadt","type":"Stadt"},"district":{"key":"08128","name":"Main-Tauber-Kreis","type":"Landkreis"},"federalState":{"key":"08","name":"Baden-Württemberg"}},{"name":"Max-Strauss-Weg","postalCode":"97941","locality":"Tauberbischofsheim","municipality":{"key":"08128115","name":"Tauberbischofsheim, Stadt","type":"Stadt"},"district":{"key":"08128","name":"Main-Tauber-Kreis","type":"Landkreis"},"federalState":{"key":"08","name":"Baden-Württemberg"}},{"name":"Meisenstr.","postalCode":"74924","locality":"Neckarbischofsheim","municipality":{"key":"08226055","name":"Neckarbischofsheim, Stadt","type":"Stadt"},"district":{"key":"08226","name":"Rhein-Neckar-Kreis","type":"Landkreis"},"federalState":{"key":"08","name":"Baden-Württemberg"}},{"name":"Mergentheimer Str.","postalCode":"97941","locality":"Tauberbischofsheim","municipality":{"key":"08128115","name":"Tauberbischofsheim, Stadt","type":"Stadt"},"district":{"key":"08128","name":"Main-Tauber-Kreis","type":"Landkreis"},"federalState":{"key":"08","name":"Baden-Württemberg"}},{"name":"Merowingerstr.","postalCode":"97941","locality":"Tauberbischofsheim","municipality":{"key":"08128115","name":"Tauberbischofsheim, Stadt","type":"Stadt"},"district":{"key":"08128","name":"Main-Tauber-Kreis","type":"Landkreis"},"federalState":{"key":"08","name":"Baden-Württemberg"}},{"name":"Metzenbachweg","postalCode":"97653","locality":"Bischofsheim i.d.Rhön","municipality":{"key":"09673117","name":"Bischofsheim i.d.Rhön, St","type":"Stadt"},"district":{"key":"09673","name":"Rhön-Grabfeld","type":"Landkreis"},"federalState":{"key":"09","name":"Bayern"}},{"name":"Mittbergweg","postalCode":"97941","locality":"Tauberbischofsheim","municipality":{"key":"08128115","name":"Tauberbischofsheim, Stadt","type":"Stadt"},"district":{"key":"08128","name":"Main-Tauber-Kreis","type":"Landkreis"},"federalState":{"key":"08","name":"Baden-Württemberg"}},{"name":"Mittelbachweg","postalCode":"97653","locality":"Bischofsheim i.d.Rhön","municipality":{"key":"09673117","name":"Bischofsheim i.d.Rhön, St","type":"Stadt"},"district":{"key":"09673","name":"Rhön-Grabfeld","type":"Landkreis"},"federalState":{"key":"09","name":"Bayern"}},{"name":"Mittelgasse","postalCode":"65474","locality":"Bischofsheim","municipality":{"key":"06433002","name":"Bischofsheim","type":"Kreisangehörige_Gemeinde"},"district":{"key":"06433","name":"Groß-Gerau","type":"Landkreis"},"federalState":{"key":"06","name":"Hessen"}},{"name":"Mittelgewann","postalCode":"65474","locality":"Bischofsheim","municipality":{"key":"06433002","name":"Bischofsheim","type":"Kreisangehörige_Gemeinde"},"district":{"key":"06433","name":"Groß-Gerau","type":"Landkreis"},"federalState":{"key":"06","name":"Hessen"}},{"name":"Mittelort","postalCode":"97941","locality":"Tauberbischofsheim","municipality":{"key":"08128115","name":"Tauberbischofsheim, Stadt","type":"Stadt"},"district":{"key":"08128","name":"Main-Tauber-Kreis","type":"Landkreis"},"federalState":{"key":"08","name":"Baden-Württemberg"}},{"name":"Mittelstr.","postalCode":"55296","locality":"Gau-Bischofsheim","municipality":{"key":"07339020","name":"Gau-Bischofsheim","type":"Kreisangehörige_Gemeinde"},"district":{"key":"07339","name":"Mainz-Bingen","type":"Landkreis"},"federalState":{"key":"07","name":"Rheinland-Pfalz"}},{"name":"Mittlere Gasse","postalCode":"97941","locality":"Tauberbischofsheim","municipality":{"key":"08128115","name":"Tauberbischofsheim, Stadt","type":"Stadt"},"district":{"key":"08128","name":"Main-Tauber-Kreis","type":"Landkreis"},"federalState":{"key":"08","name":"Baden-Württemberg"}},{"name":"Mittlere Sonnenhalde","postalCode":"97941","locality":"Tauberbischofsheim","municipality":{"key":"08128115","name":"Tauberbischofsheim, Stadt","type":"Stadt"},"district":{"key":"08128","name":"Main-Tauber-Kreis","type":"Landkreis"},"federalState":{"key":"08","name":"Baden-Württemberg"}},{"name":"Mörikestr.","postalCode":"74924","locality":"Neckarbischofsheim","municipality":{"key":"08226055","name":"Neckarbischofsheim, Stadt","type":"Stadt"},"district":{"key":"08226","name":"Rhein-Neckar-Kreis","type":"Landkreis"},"federalState":{"key":"08","name":"Baden-Württemberg"}},{"name":"Mörikeweg","postalCode":"97941","locality":"Tauberbischofsheim","municipality":{"key":"08128115","name":"Tauberbischofsheim, Stadt","type":"Stadt"},"district":{"key":"08128","name":"Main-Tauber-Kreis","type":"Landkreis"},"federalState":{"key":"08","name":"Baden-Württemberg"}},{"name":"Mozartstr.","postalCode":"65474","locality":"Bischofsheim","municipality":{"key":"06433002","name":"Bischofsheim","type":"Kreisangehörige_Gemeinde"},"district":{"key":"06433","name":"Groß-Gerau","type":"Landkreis"},"federalState":{"key":"06","name":"Hessen"}},{"name":"Mozartweg","postalCode":"97941","locality":"Tauberbischofsheim","municipality":{"key":"08128115","name":"Tauberbischofsheim, Stadt","type":"Stadt"},"district":{"key":"08128","name":"Main-Tauber-Kreis","type":"Landkreis"},"federalState":{"key":"08","name":"Baden-Württemberg"}},{"name":"Muckbachweg","postalCode":"97941","locality":"Tauberbischofsheim","municipality":{"key":"08128115","name":"Tauberbischofsheim, Stadt","type":"Stadt"},"district":{"key":"08128","name":"Main-Tauber-Kreis","type":"Landkreis"},"federalState":{"key":"08","name":"Baden-Württemberg"}},{"name":"Mühlackerstr.","postalCode":"97653","locality":"Bischofsheim i.d.Rhön","municipality":{"key":"09673117","name":"Bischofsheim i.d.Rhön, St","type":"Stadt"},"district":{"key":"09673","name":"Rhön-Grabfeld","type":"Landkreis"},"federalState":{"key":"09","name":"Bayern"}},{"name":"Mühlengrund","postalCode":"97653","locality":"Bischofsheim i.d.Rhön","municipality":{"key":"09673117","name":"Bischofsheim i.d.Rhön, St","type":"Stadt"},"district":{"key":"09673","name":"Rhön-Grabfeld","type":"Landkreis"},"federalState":{"key":"09","name":"Bayern"}},{"name":"Mühlenwörth","postalCode":"97941","locality":"Tauberbischofsheim","municipality":{"key":"08128115","name":"Tauberbischofsheim, Stadt","type":"Stadt"},"district":{"key":"08128","name":"Main-Tauber-Kreis","type":"Landkreis"},"federalState":{"key":"08","name":"Baden-Württemberg"}},{"name":"Mühlgasse","postalCode":"97653","locality":"Bischofsheim i.d.Rhön","municipality":{"key":"09673117","name":"Bischofsheim i.d.Rhön, St","type":"Stadt"},"district":{"key":"09673","name":"Rhön-Grabfeld","type":"Landkreis"},"federalState":{"key":"09","name":"Bayern"}},{"name":"Mühlgasse","postalCode":"97941","locality":"Tauberbischofsheim","municipality":{"key":"08128115","name":"Tauberbischofsheim, Stadt","type":"Stadt"},"district":{"key":"08128","name":"Main-Tauber-Kreis","type":"Landkreis"},"federalState":{"key":"08","name":"Baden-Württemberg"}},{"name":"Mühlrainstr.","postalCode":"97941","locality":"Tauberbischofsheim","municipality":{"key":"08128115","name":"Tauberbischofsheim, Stadt","type":"Stadt"},"district":{"key":"08128","name":"Main-Tauber-Kreis","type":"Landkreis"},"federalState":{"key":"08","name":"Baden-Württemberg"}},{"name":"Mühlstr.","postalCode":"74924","locality":"Neckarbischofsheim","municipality":{"key":"08226055","name":"Neckarbischofsheim, Stadt","type":"Stadt"},"district":{"key":"08226","name":"Rhein-Neckar-Kreis","type":"Landkreis"},"federalState":{"key":"08","name":"Baden-Württemberg"}},{"name":"Mühlweg","postalCode":"97653","locality":"Bischofsheim i.d.Rhön","municipality":{"key":"09673117","name":"Bischofsheim i.d.Rhön, St","type":"Stadt"},"district":{"key":"09673","name":"Rhön-Grabfeld","type":"Landkreis"},"federalState":{"key":"09","name":"Bayern"}},{"name":"Museumstr.","postalCode":"97941","locality":"Tauberbischofsheim","municipality":{"key":"08128115","name":"Tauberbischofsheim, Stadt","type":"Stadt"},"district":{"key":"08128","name":"Main-Tauber-Kreis","type":"Landkreis"},"federalState":{"key":"08","name":"Baden-Württemberg"}},{"name":"Neben dem Mühlweg","postalCode":"65474","locality":"Bischofsheim","municipality":{"key":"06433002","name":"Bischofsheim","type":"Kreisangehörige_Gemeinde"},"district":{"key":"06433","name":"Groß-Gerau","type":"Landkreis"},"federalState":{"key":"06","name":"Hessen"}},{"name":"Nelkenweg","postalCode":"97653","locality":"Bischofsheim i.d.Rhön","municipality":{"key":"09673117","name":"Bischofsheim i.d.Rhön, St","type":"Stadt"},"district":{"key":"09673","name":"Rhön-Grabfeld","type":"Landkreis"},"federalState":{"key":"09","name":"Bayern"}},{"name":"Nelkenweg","postalCode":"97941","locality":"Tauberbischofsheim","municipality":{"key":"08128115","name":"Tauberbischofsheim, Stadt","type":"Stadt"},"district":{"key":"08128","name":"Main-Tauber-Kreis","type":"Landkreis"},"federalState":{"key":"08","name":"Baden-Württemberg"}},{"name":"Nelly-Sachs-Str.","postalCode":"74924","locality":"Neckarbischofsheim","municipality":{"key":"08226055","name":"Neckarbischofsheim, Stadt","type":"Stadt"},"district":{"key":"08226","name":"Rhein-Neckar-Kreis","type":"Landkreis"},"federalState":{"key":"08","name":"Baden-Württemberg"}},{"name":"Nelly-Sachs-Weg","postalCode":"97941","locality":"Tauberbischofsheim","municipality":{"key":"08128115","name":"Tauberbischofsheim, Stadt","type":"Stadt"},"district":{"key":"08128","name":"Main-Tauber-Kreis","type":"Landkreis"},"federalState":{"key":"08","name":"Baden-Württemberg"}},{"name":"Neubaugasse","postalCode":"97941","locality":"Tauberbischofsheim","municipality":{"key":"08128115","name":"Tauberbischofsheim, Stadt","type":"Stadt"},"district":{"key":"08128","name":"Main-Tauber-Kreis","type":"Landkreis"},"federalState":{"key":"08","name":"Baden-Württemberg"}},{"name":"Neubaustr.","postalCode":"97653","locality":"Bischofsheim i.d.Rhön","municipality":{"key":"09673117","name":"Bischofsheim i.d.Rhön, St","type":"Stadt"},"district":{"key":"09673","name":"Rhön-Grabfeld","type":"Landkreis"},"federalState":{"key":"09","name":"Bayern"}},{"name":"Neue Gasse","postalCode":"97941","locality":"Tauberbischofsheim","municipality":{"key":"08128115","name":"Tauberbischofsheim, Stadt","type":"Stadt"},"district":{"key":"08128","name":"Main-Tauber-Kreis","type":"Landkreis"},"federalState":{"key":"08","name":"Baden-Württemberg"}},{"name":"Neue Heimat","postalCode":"97941","locality":"Tauberbischofsheim","municipality":{"key":"08128115","name":"Tauberbischofsheim, Stadt","type":"Stadt"},"district":{"key":"08128","name":"Main-Tauber-Kreis","type":"Landkreis"},"federalState":{"key":"08","name":"Baden-Württemberg"}},{"name":"Neulandstr.","postalCode":"97653","locality":"Bischofsheim i.d.Rhön","municipality":{"key":"09673117","name":"Bischofsheim i.d.Rhön, St","type":"Stadt"},"district":{"key":"09673","name":"Rhön-Grabfeld","type":"Landkreis"},"federalState":{"key":"09","name":"Bayern"}},{"name":"Neustädter Str.","postalCode":"97653","locality":"Bischofsheim i.d.Rhön","municipality":{"key":"09673117","name":"Bischofsheim i.d.Rhön, St","type":"Stadt"},"district":{"key":"09673","name":"Rhön-Grabfeld","type":"Landkreis"},"federalState":{"key":"09","name":"Bayern"}},{"name":"Neustr.","postalCode":"55296","locality":"Gau-Bischofsheim","municipality":{"key":"07339020","name":"Gau-Bischofsheim","type":"Kreisangehörige_Gemeinde"},"district":{"key":"07339","name":"Mainz-Bingen","type":"Landkreis"},"federalState":{"key":"07","name":"Rheinland-Pfalz"}},{"name":"Niels-Bohr-Str.","postalCode":"97941","locality":"Tauberbischofsheim","municipality":{"key":"08128115","name":"Tauberbischofsheim, Stadt","type":"Stadt"},"district":{"key":"08128","name":"Main-Tauber-Kreis","type":"Landkreis"},"federalState":{"key":"08","name":"Baden-Württemberg"}},{"name":"Nordbrücke","postalCode":"97941","locality":"Tauberbischofsheim","municipality":{"key":"08128115","name":"Tauberbischofsheim, Stadt","type":"Stadt"},"district":{"key":"08128","name":"Main-Tauber-Kreis","type":"Landkreis"},"federalState":{"key":"08","name":"Baden-Württemberg"}},{"name":"Nußbaumweg","postalCode":"55296","locality":"Gau-Bischofsheim","municipality":{"key":"07339020","name":"Gau-Bischofsheim","type":"Kreisangehörige_Gemeinde"},"district":{"key":"07339","name":"Mainz-Bingen","type":"Landkreis"},"federalState":{"key":"07","name":"Rheinland-Pfalz"}},{"name":"Oberdorf","postalCode":"97941","locality":"Tauberbischofsheim","municipality":{"key":"08128115","name":"Tauberbischofsheim, Stadt","type":"Stadt"},"district":{"key":"08128","name":"Main-Tauber-Kreis","type":"Landkreis"},"federalState":{"key":"08","name":"Baden-Württemberg"}},{"name":"Obere Au","postalCode":"97653","locality":"Bischofsheim i.d.Rhön","municipality":{"key":"09673117","name":"Bischofsheim i.d.Rhön, St","type":"Stadt"},"district":{"key":"09673","name":"Rhön-Grabfeld","type":"Landkreis"},"federalState":{"key":"09","name":"Bayern"}},{"name":"Obere Beund","postalCode":"97941","locality":"Tauberbischofsheim","municipality":{"key":"08128115","name":"Tauberbischofsheim, Stadt","type":"Stadt"},"district":{"key":"08128","name":"Main-Tauber-Kreis","type":"Landkreis"},"federalState":{"key":"08","name":"Baden-Württemberg"}},{"name":"Obere Gasse","postalCode":"97941","locality":"Tauberbischofsheim","municipality":{"key":"08128115","name":"Tauberbischofsheim, Stadt","type":"Stadt"},"district":{"key":"08128","name":"Main-Tauber-Kreis","type":"Landkreis"},"federalState":{"key":"08","name":"Baden-Württemberg"}},{"name":"Obere Mühlbachgasse","postalCode":"74924","locality":"Neckarbischofsheim","municipality":{"key":"08226055","name":"Neckarbischofsheim, Stadt","type":"Stadt"},"district":{"key":"08226","name":"Rhein-Neckar-Kreis","type":"Landkreis"},"federalState":{"key":"08","name":"Baden-Württemberg"}},{"name":"Oberer Kirchberg","postalCode":"97941","locality":"Tauberbischofsheim","municipality":{"key":"08128115","name":"Tauberbischofsheim, Stadt","type":"Stadt"},"district":{"key":"08128","name":"Main-Tauber-Kreis","type":"Landkreis"},"federalState":{"key":"08","name":"Baden-Württemberg"}},{"name":"Oberer Kohlhütte Weg","postalCode":"74924","locality":"Neckarbischofsheim","municipality":{"key":"08226055","name":"Neckarbischofsheim, Stadt","type":"Stadt"},"district":{"key":"08226","name":"Rhein-Neckar-Kreis","type":"Landkreis"},"federalState":{"key":"08","name":"Baden-Württemberg"}},{"name":"Oberer Ringweg","postalCode":"74924","locality":"Neckarbischofsheim","municipality":{"key":"08226055","name":"Neckarbischofsheim, Stadt","type":"Stadt"},"district":{"key":"08226","name":"Rhein-Neckar-Kreis","type":"Landkreis"},"federalState":{"key":"08","name":"Baden-Württemberg"}},{"name":"Oberes Eichertstal","postalCode":"74924","locality":"Neckarbischofsheim","municipality":{"key":"08226055","name":"Neckarbischofsheim, Stadt","type":"Stadt"},"district":{"key":"08226","name":"Rhein-Neckar-Kreis","type":"Landkreis"},"federalState":{"key":"08","name":"Baden-Württemberg"}},{"name":"Obere Sonnenhalde","postalCode":"97941","locality":"Tauberbischofsheim","municipality":{"key":"08128115","name":"Tauberbischofsheim, Stadt","type":"Stadt"},"district":{"key":"08128","name":"Main-Tauber-Kreis","type":"Landkreis"},"federalState":{"key":"08","name":"Baden-Württemberg"}},{"name":"Obere Torstr.","postalCode":"97941","locality":"Tauberbischofsheim","municipality":{"key":"08128115","name":"Tauberbischofsheim, Stadt","type":"Stadt"},"district":{"key":"08128","name":"Main-Tauber-Kreis","type":"Landkreis"},"federalState":{"key":"08","name":"Baden-Württemberg"}},{"name":"Obere Turmstr.","postalCode":"74924","locality":"Neckarbischofsheim","municipality":{"key":"08226055","name":"Neckarbischofsheim, Stadt","type":"Stadt"},"district":{"key":"08226","name":"Rhein-Neckar-Kreis","type":"Landkreis"},"federalState":{"key":"08","name":"Baden-Württemberg"}},{"name":"Obermühlweg","postalCode":"97653","locality":"Bischofsheim i.d.Rhön","municipality":{"key":"09673117","name":"Bischofsheim i.d.Rhön, St","type":"Stadt"},"district":{"key":"09673","name":"Rhön-Grabfeld","type":"Landkreis"},"federalState":{"key":"09","name":"Bayern"}},{"name":"Oberwiesenweg","postalCode":"97653","locality":"Bischofsheim i.d.Rhön","municipality":{"key":"09673117","name":"Bischofsheim i.d.Rhön, St","type":"Stadt"},"district":{"key":"09673","name":"Rhön-Grabfeld","type":"Landkreis"},"federalState":{"key":"09","name":"Bayern"}},{"name":"Odenwaldweg","postalCode":"65474","locality":"Bischofsheim","municipality":{"key":"06433002","name":"Bischofsheim","type":"Kreisangehörige_Gemeinde"},"district":{"key":"06433","name":"Groß-Gerau","type":"Landkreis"},"federalState":{"key":"06","name":"Hessen"}},{"name":"Oldenburger Str.","postalCode":"97941","locality":"Tauberbischofsheim","municipality":{"key":"08128115","name":"Tauberbischofsheim, Stadt","type":"Stadt"},"district":{"key":"08128","name":"Main-Tauber-Kreis","type":"Landkreis"},"federalState":{"key":"08","name":"Baden-Württemberg"}},{"name":"Pantoffelgasse","postalCode":"97653","locality":"Bischofsheim i.d.Rhön","municipality":{"key":"09673117","name":"Bischofsheim i.d.Rhön, St","type":"Stadt"},"district":{"key":"09673","name":"Rhön-Grabfeld","type":"Landkreis"},"federalState":{"key":"09","name":"Bayern"}},{"name":"Parkblick","postalCode":"97941","locality":"Tauberbischofsheim","municipality":{"key":"08128115","name":"Tauberbischofsheim, Stadt","type":"Stadt"},"district":{"key":"08128","name":"Main-Tauber-Kreis","type":"Landkreis"},"federalState":{"key":"08","name":"Baden-Württemberg"}},{"name":"Parkweg","postalCode":"65474","locality":"Bischofsheim","municipality":{"key":"06433002","name":"Bischofsheim","type":"Kreisangehörige_Gemeinde"},"district":{"key":"06433","name":"Groß-Gerau","type":"Landkreis"},"federalState":{"key":"06","name":"Hessen"}},{"name":"Pestalozziallee","postalCode":"97941","locality":"Tauberbischofsheim","municipality":{"key":"08128115","name":"Tauberbischofsheim, Stadt","type":"Stadt"},"district":{"key":"08128","name":"Main-Tauber-Kreis","type":"Landkreis"},"federalState":{"key":"08","name":"Baden-Württemberg"}},{"name":"Petersbacherweg","postalCode":"74924","locality":"Neckarbischofsheim","municipality":{"key":"08226055","name":"Neckarbischofsheim, Stadt","type":"Stadt"},"district":{"key":"08226","name":"Rhein-Neckar-Kreis","type":"Landkreis"},"federalState":{"key":"08","name":"Baden-Württemberg"}},{"name":"Pfälzer Weg","postalCode":"65474","locality":"Bischofsheim","municipality":{"key":"06433002","name":"Bischofsheim","type":"Kreisangehörige_Gemeinde"},"district":{"key":"06433","name":"Groß-Gerau","type":"Landkreis"},"federalState":{"key":"06","name":"Hessen"}},{"name":"Pfarrgasse","postalCode":"97653","locality":"Bischofsheim i.d.Rhön","municipality":{"key":"09673117","name":"Bischofsheim i.d.Rhön, St","type":"Stadt"},"district":{"key":"09673","name":"Rhön-Grabfeld","type":"Landkreis"},"federalState":{"key":"09","name":"Bayern"}},{"name":"Pfarrgasse","postalCode":"97941","locality":"Tauberbischofsheim","municipality":{"key":"08128115","name":"Tauberbischofsheim, Stadt","type":"Stadt"},"district":{"key":"08128","name":"Main-Tauber-Kreis","type":"Landkreis"},"federalState":{"key":"08","name":"Baden-Württemberg"}},{"name":"Pfarrstr.","postalCode":"55296","locality":"Gau-Bischofsheim","municipality":{"key":"07339020","name":"Gau-Bischofsheim","type":"Kreisangehörige_Gemeinde"},"district":{"key":"07339","name":"Mainz-Bingen","type":"Landkreis"},"federalState":{"key":"07","name":"Rheinland-Pfalz"}},{"name":"Pflanzgarten Weg","postalCode":"74924","locality":"Neckarbischofsheim","municipality":{"key":"08226055","name":"Neckarbischofsheim, Stadt","type":"Stadt"},"district":{"key":"08226","name":"Rhein-Neckar-Kreis","type":"Landkreis"},"federalState":{"key":"08","name":"Baden-Württemberg"}},{"name":"Philosophenweg","postalCode":"97653","locality":"Bischofsheim i.d.Rhön","municipality":{"key":"09673117","name":"Bischofsheim i.d.Rhön, St","type":"Stadt"},"district":{"key":"09673","name":"Rhön-Grabfeld","type":"Landkreis"},"federalState":{"key":"09","name":"Bayern"}},{"name":"Pilgerweg","postalCode":"97653","locality":"Bischofsheim i.d.Rhön","municipality":{"key":"09673117","name":"Bischofsheim i.d.Rhön, St","type":"Stadt"},"district":{"key":"09673","name":"Rhön-Grabfeld","type":"Landkreis"},"federalState":{"key":"09","name":"Bayern"}},{"name":"Plan","postalCode":"97941","locality":"Tauberbischofsheim","municipality":{"key":"08128115","name":"Tauberbischofsheim, Stadt","type":"Stadt"},"district":{"key":"08128","name":"Main-Tauber-Kreis","type":"Landkreis"},"federalState":{"key":"08","name":"Baden-Württemberg"}},{"name":"Platanenstr.","postalCode":"65474","locality":"Bischofsheim","municipality":{"key":"06433002","name":"Bischofsheim","type":"Kreisangehörige_Gemeinde"},"district":{"key":"06433","name":"Groß-Gerau","type":"Landkreis"},"federalState":{"key":"06","name":"Hessen"}},{"name":"Plattenteichweg","postalCode":"74924","locality":"Neckarbischofsheim","municipality":{"key":"08226055","name":"Neckarbischofsheim, Stadt","type":"Stadt"},"district":{"key":"08226","name":"Rhein-Neckar-Kreis","type":"Landkreis"},"federalState":{"key":"08","name":"Baden-Württemberg"}},{"name":"Portugieserweg","postalCode":"55296","locality":"Gau-Bischofsheim","municipality":{"key":"07339020","name":"Gau-Bischofsheim","type":"Kreisangehörige_Gemeinde"},"district":{"key":"07339","name":"Mainz-Bingen","type":"Landkreis"},"federalState":{"key":"07","name":"Rheinland-Pfalz"}},{"name":"Privatweg","postalCode":"97653","locality":"Bischofsheim i.d.Rhön","municipality":{"key":"09673117","name":"Bischofsheim i.d.Rhön, St","type":"Stadt"},"district":{"key":"09673","name":"Rhön-Grabfeld","type":"Landkreis"},"federalState":{"key":"09","name":"Bayern"}},{"name":"Quellenhangweg","postalCode":"74924","locality":"Neckarbischofsheim","municipality":{"key":"08226055","name":"Neckarbischofsheim, Stadt","type":"Stadt"},"district":{"key":"08226","name":"Rhein-Neckar-Kreis","type":"Landkreis"},"federalState":{"key":"08","name":"Baden-Württemberg"}},{"name":"Querfloßweg","postalCode":"97653","locality":"Bischofsheim i.d.Rhön","municipality":{"key":"09673117","name":"Bischofsheim i.d.Rhön, St","type":"Stadt"},"district":{"key":"09673","name":"Rhön-Grabfeld","type":"Landkreis"},"federalState":{"key":"09","name":"Bayern"}},{"name":"Raiffeisenweg","postalCode":"97941","locality":"Tauberbischofsheim","municipality":{"key":"08128115","name":"Tauberbischofsheim, Stadt","type":"Stadt"},"district":{"key":"08128","name":"Main-Tauber-Kreis","type":"Landkreis"},"federalState":{"key":"08","name":"Baden-Württemberg"}},{"name":"Rainweg","postalCode":"97653","locality":"Bischofsheim i.d.Rhön","municipality":{"key":"09673117","name":"Bischofsheim i.d.Rhön, St","type":"Stadt"},"district":{"key":"09673","name":"Rhön-Grabfeld","type":"Landkreis"},"federalState":{"key":"09","name":"Bayern"}},{"name":"Rammingerstr.","postalCode":"97941","locality":"Tauberbischofsheim","municipality":{"key":"08128115","name":"Tauberbischofsheim, Stadt","type":"Stadt"},"district":{"key":"08128","name":"Main-Tauber-Kreis","type":"Landkreis"},"federalState":{"key":"08","name":"Baden-Württemberg"}},{"name":"Rathausplatz","postalCode":"97941","locality":"Tauberbischofsheim","municipality":{"key":"08128115","name":"Tauberbischofsheim, Stadt","type":"Stadt"},"district":{"key":"08128","name":"Main-Tauber-Kreis","type":"Landkreis"},"federalState":{"key":"08","name":"Baden-Württemberg"}},{"name":"Rathausstr.","postalCode":"74924","locality":"Neckarbischofsheim","municipality":{"key":"08226055","name":"Neckarbischofsheim, Stadt","type":"Stadt"},"district":{"key":"08226","name":"Rhein-Neckar-Kreis","type":"Landkreis"},"federalState":{"key":"08","name":"Baden-Württemberg"}},{"name":"Rathausstr.","postalCode":"97941","locality":"Tauberbischofsheim","municipality":{"key":"08128115","name":"Tauberbischofsheim, Stadt","type":"Stadt"},"district":{"key":"08128","name":"Main-Tauber-Kreis","type":"Landkreis"},"federalState":{"key":"08","name":"Baden-Württemberg"}},{"name":"Raunheimer Str.","postalCode":"65474","locality":"Bischofsheim","municipality":{"key":"06433002","name":"Bischofsheim","type":"Kreisangehörige_Gemeinde"},"district":{"key":"06433","name":"Groß-Gerau","type":"Landkreis"},"federalState":{"key":"06","name":"Hessen"}},{"name":"Rentamtsgasse","postalCode":"97941","locality":"Tauberbischofsheim","municipality":{"key":"08128115","name":"Tauberbischofsheim, Stadt","type":"Stadt"},"district":{"key":"08128","name":"Main-Tauber-Kreis","type":"Landkreis"},"federalState":{"key":"08","name":"Baden-Württemberg"}},{"name":"Rheingauweg","postalCode":"65474","locality":"Bischofsheim","municipality":{"key":"06433002","name":"Bischofsheim","type":"Kreisangehörige_Gemeinde"},"district":{"key":"06433","name":"Groß-Gerau","type":"Landkreis"},"federalState":{"key":"06","name":"Hessen"}},{"name":"Rheinstr.","postalCode":"65474","locality":"Bischofsheim","municipality":{"key":"06433002","name":"Bischofsheim","type":"Kreisangehörige_Gemeinde"},"district":{"key":"06433","name":"Groß-Gerau","type":"Landkreis"},"federalState":{"key":"06","name":"Hessen"}},{"name":"Rhönstr.","postalCode":"97653","locality":"Bischofsheim i.d.Rhön","municipality":{"key":"09673117","name":"Bischofsheim i.d.Rhön, St","type":"Stadt"},"district":{"key":"09673","name":"Rhön-Grabfeld","type":"Landkreis"},"federalState":{"key":"09","name":"Bayern"}},{"name":"Rhönweg","postalCode":"65474","locality":"Bischofsheim","municipality":{"key":"06433002","name":"Bischofsheim","type":"Kreisangehörige_Gemeinde"},"district":{"key":"06433","name":"Groß-Gerau","type":"Landkreis"},"federalState":{"key":"06","name":"Hessen"}},{"name":"Ricarda-Huch-Str.","postalCode":"74924","locality":"Neckarbischofsheim","municipality":{"key":"08226055","name":"Neckarbischofsheim, Stadt","type":"Stadt"},"district":{"key":"08226","name":"Rhein-Neckar-Kreis","type":"Landkreis"},"federalState":{"key":"08","name":"Baden-Württemberg"}},{"name":"Richard-Trunk-Str.","postalCode":"97941","locality":"Tauberbischofsheim","municipality":{"key":"08128115","name":"Tauberbischofsheim, Stadt","type":"Stadt"},"district":{"key":"08128","name":"Main-Tauber-Kreis","type":"Landkreis"},"federalState":{"key":"08","name":"Baden-Württemberg"}},{"name":"Riedernstr.","postalCode":"97941","locality":"Tauberbischofsheim","municipality":{"key":"08128115","name":"Tauberbischofsheim, Stadt","type":"Stadt"},"district":{"key":"08128","name":"Main-Tauber-Kreis","type":"Landkreis"},"federalState":{"key":"08","name":"Baden-Württemberg"}},{"name":"Riedweg","postalCode":"65474","locality":"Bischofsheim","municipality":{"key":"06433002","name":"Bischofsheim","type":"Kreisangehörige_Gemeinde"},"district":{"key":"06433","name":"Groß-Gerau","type":"Landkreis"},"federalState":{"key":"06","name":"Hessen"}},{"name":"Riemenschneiderstr.","postalCode":"97941","locality":"Tauberbischofsheim","municipality":{"key":"08128115","name":"Tauberbischofsheim, Stadt","type":"Stadt"},"district":{"key":"08128","name":"Main-Tauber-Kreis","type":"Landkreis"},"federalState":{"key":"08","name":"Baden-Württemberg"}},{"name":"Rieslingweg","postalCode":"55296","locality":"Gau-Bischofsheim","municipality":{"key":"07339020","name":"Gau-Bischofsheim","type":"Kreisangehörige_Gemeinde"},"district":{"key":"07339","name":"Mainz-Bingen","type":"Landkreis"},"federalState":{"key":"07","name":"Rheinland-Pfalz"}},{"name":"Rilkeweg","postalCode":"97941","locality":"Tauberbischofsheim","municipality":{"key":"08128115","name":"Tauberbischofsheim, Stadt","type":"Stadt"},"district":{"key":"08128","name":"Main-Tauber-Kreis","type":"Landkreis"},"federalState":{"key":"08","name":"Baden-Württemberg"}},{"name":"Ringstr.","postalCode":"65474","locality":"Bischofsheim","municipality":{"key":"06433002","name":"Bischofsheim","type":"Kreisangehörige_Gemeinde"},"district":{"key":"06433","name":"Groß-Gerau","type":"Landkreis"},"federalState":{"key":"06","name":"Hessen"}},{"name":"Ringstr.","postalCode":"97941","locality":"Tauberbischofsheim","municipality":{"key":"08128115","name":"Tauberbischofsheim, Stadt","type":"Stadt"},"district":{"key":"08128","name":"Main-Tauber-Kreis","type":"Landkreis"},"federalState":{"key":"08","name":"Baden-Württemberg"}},{"name":"Robert-Koch-Str.","postalCode":"97941","locality":"Tauberbischofsheim","municipality":{"key":"08128115","name":"Tauberbischofsheim, Stadt","type":"Stadt"},"district":{"key":"08128","name":"Main-Tauber-Kreis","type":"Landkreis"},"federalState":{"key":"08","name":"Baden-Württemberg"}},{"name":"Rockensteinweg","postalCode":"97653","locality":"Bischofsheim i.d.Rhön","municipality":{"key":"09673117","name":"Bischofsheim i.d.Rhön, St","type":"Stadt"},"district":{"key":"09673","name":"Rhön-Grabfeld","type":"Landkreis"},"federalState":{"key":"09","name":"Bayern"}},{"name":"Rollenmühle","postalCode":"97941","locality":"Tauberbischofsheim","municipality":{"key":"08128115","name":"Tauberbischofsheim, Stadt","type":"Stadt"},"district":{"key":"08128","name":"Main-Tauber-Kreis","type":"Landkreis"},"federalState":{"key":"08","name":"Baden-Württemberg"}},{"name":"Römerstr.","postalCode":"65474","locality":"Bischofsheim","municipality":{"key":"06433002","name":"Bischofsheim","type":"Kreisangehörige_Gemeinde"},"district":{"key":"06433","name":"Groß-Gerau","type":"Landkreis"},"federalState":{"key":"06","name":"Hessen"}},{"name":"Römerstr.","postalCode":"97941","locality":"Tauberbischofsheim","municipality":{"key":"08128115","name":"Tauberbischofsheim, Stadt","type":"Stadt"},"district":{"key":"08128","name":"Main-Tauber-Kreis","type":"Landkreis"},"federalState":{"key":"08","name":"Baden-Württemberg"}},{"name":"Röntgenstr.","postalCode":"65474","locality":"Bischofsheim","municipality":{"key":"06433002","name":"Bischofsheim","type":"Kreisangehörige_Gemeinde"},"district":{"key":"06433","name":"Groß-Gerau","type":"Landkreis"},"federalState":{"key":"06","name":"Hessen"}},{"name":"Rosenstr.","postalCode":"74924","locality":"Neckarbischofsheim","municipality":{"key":"08226055","name":"Neckarbischofsheim, Stadt","type":"Stadt"},"district":{"key":"08226","name":"Rhein-Neckar-Kreis","type":"Landkreis"},"federalState":{"key":"08","name":"Baden-Württemberg"}},{"name":"Rosenstr.","postalCode":"97653","locality":"Bischofsheim i.d.Rhön","municipality":{"key":"09673117","name":"Bischofsheim i.d.Rhön, St","type":"Stadt"},"district":{"key":"09673","name":"Rhön-Grabfeld","type":"Landkreis"},"federalState":{"key":"09","name":"Bayern"}},{"name":"Rosenstr.","postalCode":"97941","locality":"Tauberbischofsheim","municipality":{"key":"08128115","name":"Tauberbischofsheim, Stadt","type":"Stadt"},"district":{"key":"08128","name":"Main-Tauber-Kreis","type":"Landkreis"},"federalState":{"key":"08","name":"Baden-Württemberg"}},{"name":"Ruhbankstr.","postalCode":"97941","locality":"Tauberbischofsheim","municipality":{"key":"08128115","name":"Tauberbischofsheim, Stadt","type":"Stadt"},"district":{"key":"08128","name":"Main-Tauber-Kreis","type":"Landkreis"},"federalState":{"key":"08","name":"Baden-Württemberg"}},{"name":"Ruhepark Rentamt","postalCode":"97653","locality":"Bischofsheim i.d.Rhön","municipality":{"key":"09673117","name":"Bischofsheim i.d.Rhön, St","type":"Stadt"},"district":{"key":"09673","name":"Rhön-Grabfeld","type":"Landkreis"},"federalState":{"key":"09","name":"Bayern"}},{"name":"Ruländerweg","postalCode":"55296","locality":"Gau-Bischofsheim","municipality":{"key":"07339020","name":"Gau-Bischofsheim","type":"Kreisangehörige_Gemeinde"},"district":{"key":"07339","name":"Mainz-Bingen","type":"Landkreis"},"federalState":{"key":"07","name":"Rheinland-Pfalz"}},{"name":"Rüsselsheimer Str.","postalCode":"65474","locality":"Bischofsheim","municipality":{"key":"06433002","name":"Bischofsheim","type":"Kreisangehörige_Gemeinde"},"district":{"key":"06433","name":"Groß-Gerau","type":"Landkreis"},"federalState":{"key":"06","name":"Hessen"}},{"name":"Rüsterstr.","postalCode":"55296","locality":"Gau-Bischofsheim","municipality":{"key":"07339020","name":"Gau-Bischofsheim","type":"Kreisangehörige_Gemeinde"},"district":{"key":"07339","name":"Mainz-Bingen","type":"Landkreis"},"federalState":{"key":"07","name":"Rheinland-Pfalz"}},{"name":"Ruth-Schwob-Str.","postalCode":"74924","locality":"Neckarbischofsheim","municipality":{"key":"08226055","name":"Neckarbischofsheim, Stadt","type":"Stadt"},"district":{"key":"08226","name":"Rhein-Neckar-Kreis","type":"Landkreis"},"federalState":{"key":"08","name":"Baden-Württemberg"}},{"name":"Sachsenweg","postalCode":"97941","locality":"Tauberbischofsheim","municipality":{"key":"08128115","name":"Tauberbischofsheim, Stadt","type":"Stadt"},"district":{"key":"08128","name":"Main-Tauber-Kreis","type":"Landkreis"},"federalState":{"key":"08","name":"Baden-Württemberg"}},{"name":"Sackgasse","postalCode":"65474","locality":"Bischofsheim","municipality":{"key":"06433002","name":"Bischofsheim","type":"Kreisangehörige_Gemeinde"},"district":{"key":"06433","name":"Groß-Gerau","type":"Landkreis"},"federalState":{"key":"06","name":"Hessen"}},{"name":"Sackgasse","postalCode":"97653","locality":"Bischofsheim i.d.Rhön","municipality":{"key":"09673117","name":"Bischofsheim i.d.Rhön, St","type":"Stadt"},"district":{"key":"09673","name":"Rhön-Grabfeld","type":"Landkreis"},"federalState":{"key":"09","name":"Bayern"}},{"name":"Sandweg","postalCode":"97653","locality":"Bischofsheim i.d.Rhön","municipality":{"key":"09673117","name":"Bischofsheim i.d.Rhön, St","type":"Stadt"},"district":{"key":"09673","name":"Rhön-Grabfeld","type":"Landkreis"},"federalState":{"key":"09","name":"Bayern"}},{"name":"Sankt-Florian-Weg","postalCode":"55296","locality":"Gau-Bischofsheim","municipality":{"key":"07339020","name":"Gau-Bischofsheim","type":"Kreisangehörige_Gemeinde"},"district":{"key":"07339","name":"Mainz-Bingen","type":"Landkreis"},"federalState":{"key":"07","name":"Rheinland-Pfalz"}},{"name":"Saubrunnen Weg","postalCode":"74924","locality":"Neckarbischofsheim","municipality":{"key":"08226055","name":"Neckarbischofsheim, Stadt","type":"Stadt"},"district":{"key":"08226","name":"Rhein-Neckar-Kreis","type":"Landkreis"},"federalState":{"key":"08","name":"Baden-Württemberg"}},{"name":"Schafweg","postalCode":"97941","locality":"Tauberbischofsheim","municipality":{"key":"08128115","name":"Tauberbischofsheim, Stadt","type":"Stadt"},"district":{"key":"08128","name":"Main-Tauber-Kreis","type":"Landkreis"},"federalState":{"key":"08","name":"Baden-Württemberg"}},{"name":"Scheffelstr.","postalCode":"74924","locality":"Neckarbischofsheim","municipality":{"key":"08226055","name":"Neckarbischofsheim, Stadt","type":"Stadt"},"district":{"key":"08226","name":"Rhein-Neckar-Kreis","type":"Landkreis"},"federalState":{"key":"08","name":"Baden-Württemberg"}},{"name":"Scheffelweg","postalCode":"97941","locality":"Tauberbischofsheim","municipality":{"key":"08128115","name":"Tauberbischofsheim, Stadt","type":"Stadt"},"district":{"key":"08128","name":"Main-Tauber-Kreis","type":"Landkreis"},"federalState":{"key":"08","name":"Baden-Württemberg"}},{"name":"Schillerstr.","postalCode":"65474","locality":"Bischofsheim","municipality":{"key":"06433002","name":"Bischofsheim","type":"Kreisangehörige_Gemeinde"},"district":{"key":"06433","name":"Groß-Gerau","type":"Landkreis"},"federalState":{"key":"06","name":"Hessen"}},{"name":"Schillerstr.","postalCode":"74924","locality":"Neckarbischofsheim","municipality":{"key":"08226055","name":"Neckarbischofsheim, Stadt","type":"Stadt"},"district":{"key":"08226","name":"Rhein-Neckar-Kreis","type":"Landkreis"},"federalState":{"key":"08","name":"Baden-Württemberg"}},{"name":"Schillerstr.","postalCode":"97941","locality":"Tauberbischofsheim","municipality":{"key":"08128115","name":"Tauberbischofsheim, Stadt","type":"Stadt"},"district":{"key":"08128","name":"Main-Tauber-Kreis","type":"Landkreis"},"federalState":{"key":"08","name":"Baden-Württemberg"}},{"name":"Schirrmannweg","postalCode":"97941","locality":"Tauberbischofsheim","municipality":{"key":"08128115","name":"Tauberbischofsheim, Stadt","type":"Stadt"},"district":{"key":"08128","name":"Main-Tauber-Kreis","type":"Landkreis"},"federalState":{"key":"08","name":"Baden-Württemberg"}},{"name":"Schlachtsteige","postalCode":"97941","locality":"Tauberbischofsheim","municipality":{"key":"08128115","name":"Tauberbischofsheim, Stadt","type":"Stadt"},"district":{"key":"08128","name":"Main-Tauber-Kreis","type":"Landkreis"},"federalState":{"key":"08","name":"Baden-Württemberg"}},{"name":"Schlachtstr.","postalCode":"97941","locality":"Tauberbischofsheim","municipality":{"key":"08128115","name":"Tauberbischofsheim, Stadt","type":"Stadt"},"district":{"key":"08128","name":"Main-Tauber-Kreis","type":"Landkreis"},"federalState":{"key":"08","name":"Baden-Württemberg"}},{"name":"Schlichtergasse","postalCode":"65474","locality":"Bischofsheim","municipality":{"key":"06433002","name":"Bischofsheim","type":"Kreisangehörige_Gemeinde"},"district":{"key":"06433","name":"Groß-Gerau","type":"Landkreis"},"federalState":{"key":"06","name":"Hessen"}},{"name":"Schlosspark","postalCode":"74924","locality":"Neckarbischofsheim","municipality":{"key":"08226055","name":"Neckarbischofsheim, Stadt","type":"Stadt"},"district":{"key":"08226","name":"Rhein-Neckar-Kreis","type":"Landkreis"},"federalState":{"key":"08","name":"Baden-Württemberg"}},{"name":"Schloßplatz","postalCode":"97941","locality":"Tauberbischofsheim","municipality":{"key":"08128115","name":"Tauberbischofsheim, Stadt","type":"Stadt"},"district":{"key":"08128","name":"Main-Tauber-Kreis","type":"Landkreis"},"federalState":{"key":"08","name":"Baden-Württemberg"}},{"name":"Schloßstr.","postalCode":"74924","locality":"Neckarbischofsheim","municipality":{"key":"08226055","name":"Neckarbischofsheim, Stadt","type":"Stadt"},"district":{"key":"08226","name":"Rhein-Neckar-Kreis","type":"Landkreis"},"federalState":{"key":"08","name":"Baden-Württemberg"}},{"name":"Schloßstr.","postalCode":"97941","locality":"Tauberbischofsheim","municipality":{"key":"08128115","name":"Tauberbischofsheim, Stadt","type":"Stadt"},"district":{"key":"08128","name":"Main-Tauber-Kreis","type":"Landkreis"},"federalState":{"key":"08","name":"Baden-Württemberg"}},{"name":"Schloßweg","postalCode":"97941","locality":"Tauberbischofsheim","municipality":{"key":"08128115","name":"Tauberbischofsheim, Stadt","type":"Stadt"},"district":{"key":"08128","name":"Main-Tauber-Kreis","type":"Landkreis"},"federalState":{"key":"08","name":"Baden-Württemberg"}},{"name":"Schlottergasse","postalCode":"97653","locality":"Bischofsheim i.d.Rhön","municipality":{"key":"09673117","name":"Bischofsheim i.d.Rhön, St","type":"Stadt"},"district":{"key":"09673","name":"Rhön-Grabfeld","type":"Landkreis"},"federalState":{"key":"09","name":"Bayern"}},{"name":"Schmiedegasse","postalCode":"97941","locality":"Tauberbischofsheim","municipality":{"key":"08128115","name":"Tauberbischofsheim, Stadt","type":"Stadt"},"district":{"key":"08128","name":"Main-Tauber-Kreis","type":"Landkreis"},"federalState":{"key":"08","name":"Baden-Württemberg"}},{"name":"Schmiederstr.","postalCode":"97941","locality":"Tauberbischofsheim","municipality":{"key":"08128115","name":"Tauberbischofsheim, Stadt","type":"Stadt"},"district":{"key":"08128","name":"Main-Tauber-Kreis","type":"Landkreis"},"federalState":{"key":"08","name":"Baden-Württemberg"}},{"name":"Schmitthennerstr.","postalCode":"74924","locality":"Neckarbischofsheim","municipality":{"key":"08226055","name":"Neckarbischofsheim, Stadt","type":"Stadt"},"district":{"key":"08226","name":"Rhein-Neckar-Kreis","type":"Landkreis"},"federalState":{"key":"08","name":"Baden-Württemberg"}},{"name":"Schneidemühle","postalCode":"97941","locality":"Tauberbischofsheim","municipality":{"key":"08128115","name":"Tauberbischofsheim, Stadt","type":"Stadt"},"district":{"key":"08128","name":"Main-Tauber-Kreis","type":"Landkreis"},"federalState":{"key":"08","name":"Baden-Württemberg"}},{"name":"Schubertstr.","postalCode":"97941","locality":"Tauberbischofsheim","municipality":{"key":"08128115","name":"Tauberbischofsheim, Stadt","type":"Stadt"},"district":{"key":"08128","name":"Main-Tauber-Kreis","type":"Landkreis"},"federalState":{"key":"08","name":"Baden-Württemberg"}},{"name":"Schulgasse","postalCode":"74924","locality":"Neckarbischofsheim","municipality":{"key":"08226055","name":"Neckarbischofsheim, Stadt","type":"Stadt"},"district":{"key":"08226","name":"Rhein-Neckar-Kreis","type":"Landkreis"},"federalState":{"key":"08","name":"Baden-Württemberg"}},{"name":"Schulgasse","postalCode":"97941","locality":"Tauberbischofsheim","municipality":{"key":"08128115","name":"Tauberbischofsheim, Stadt","type":"Stadt"},"district":{"key":"08128","name":"Main-Tauber-Kreis","type":"Landkreis"},"federalState":{"key":"08","name":"Baden-Württemberg"}},{"name":"Schulstr.","postalCode":"55296","locality":"Gau-Bischofsheim","municipality":{"key":"07339020","name":"Gau-Bischofsheim","type":"Kreisangehörige_Gemeinde"},"district":{"key":"07339","name":"Mainz-Bingen","type":"Landkreis"},"federalState":{"key":"07","name":"Rheinland-Pfalz"}},{"name":"Schulstr.","postalCode":"65474","locality":"Bischofsheim","municipality":{"key":"06433002","name":"Bischofsheim","type":"Kreisangehörige_Gemeinde"},"district":{"key":"06433","name":"Groß-Gerau","type":"Landkreis"},"federalState":{"key":"06","name":"Hessen"}},{"name":"Schulweg","postalCode":"74924","locality":"Neckarbischofsheim","municipality":{"key":"08226055","name":"Neckarbischofsheim, Stadt","type":"Stadt"},"district":{"key":"08226","name":"Rhein-Neckar-Kreis","type":"Landkreis"},"federalState":{"key":"08","name":"Baden-Württemberg"}},{"name":"Schulweg","postalCode":"97653","locality":"Bischofsheim i.d.Rhön","municipality":{"key":"09673117","name":"Bischofsheim i.d.Rhön, St","type":"Stadt"},"district":{"key":"09673","name":"Rhön-Grabfeld","type":"Landkreis"},"federalState":{"key":"09","name":"Bayern"}},{"name":"Schulweg","postalCode":"97941","locality":"Tauberbischofsheim","municipality":{"key":"08128115","name":"Tauberbischofsheim, Stadt","type":"Stadt"},"district":{"key":"08128","name":"Main-Tauber-Kreis","type":"Landkreis"},"federalState":{"key":"08","name":"Baden-Württemberg"}},{"name":"Schulzengasse","postalCode":"97941","locality":"Tauberbischofsheim","municipality":{"key":"08128115","name":"Tauberbischofsheim, Stadt","type":"Stadt"},"district":{"key":"08128","name":"Main-Tauber-Kreis","type":"Landkreis"},"federalState":{"key":"08","name":"Baden-Württemberg"}},{"name":"Schürerweg","postalCode":"97941","locality":"Tauberbischofsheim","municipality":{"key":"08128115","name":"Tauberbischofsheim, Stadt","type":"Stadt"},"district":{"key":"08128","name":"Main-Tauber-Kreis","type":"Landkreis"},"federalState":{"key":"08","name":"Baden-Württemberg"}},{"name":"Schustergasse","postalCode":"97653","locality":"Bischofsheim i.d.Rhön","municipality":{"key":"09673117","name":"Bischofsheim i.d.Rhön, St","type":"Stadt"},"district":{"key":"09673","name":"Rhön-Grabfeld","type":"Landkreis"},"federalState":{"key":"09","name":"Bayern"}},{"name":"Schützenellerweg","postalCode":"97653","locality":"Bischofsheim i.d.Rhön","municipality":{"key":"09673117","name":"Bischofsheim i.d.Rhön, St","type":"Stadt"},"district":{"key":"09673","name":"Rhön-Grabfeld","type":"Landkreis"},"federalState":{"key":"09","name":"Bayern"}},{"name":"Schützenweg","postalCode":"97941","locality":"Tauberbischofsheim","municipality":{"key":"08128115","name":"Tauberbischofsheim, Stadt","type":"Stadt"},"district":{"key":"08128","name":"Main-Tauber-Kreis","type":"Landkreis"},"federalState":{"key":"08","name":"Baden-Württemberg"}},{"name":"Schwabenweg","postalCode":"97941","locality":"Tauberbischofsheim","municipality":{"key":"08128115","name":"Tauberbischofsheim, Stadt","type":"Stadt"},"district":{"key":"08128","name":"Main-Tauber-Kreis","type":"Landkreis"},"federalState":{"key":"08","name":"Baden-Württemberg"}},{"name":"Schwarzwaldweg","postalCode":"65474","locality":"Bischofsheim","municipality":{"key":"06433002","name":"Bischofsheim","type":"Kreisangehörige_Gemeinde"},"district":{"key":"06433","name":"Groß-Gerau","type":"Landkreis"},"federalState":{"key":"06","name":"Hessen"}},{"name":"Schwedenstr.","postalCode":"97653","locality":"Bischofsheim i.d.Rhön","municipality":{"key":"09673117","name":"Bischofsheim i.d.Rhön, St","type":"Stadt"},"district":{"key":"09673","name":"Rhön-Grabfeld","type":"Landkreis"},"federalState":{"key":"09","name":"Bayern"}},{"name":"Schwimmbadweg","postalCode":"74924","locality":"Neckarbischofsheim","municipality":{"key":"08226055","name":"Neckarbischofsheim, Stadt","type":"Stadt"},"district":{"key":"08226","name":"Rhein-Neckar-Kreis","type":"Landkreis"},"federalState":{"key":"08","name":"Baden-Württemberg"}},{"name":"Seewiesenweg","postalCode":"97941","locality":"Tauberbischofsheim","municipality":{"key":"08128115","name":"Tauberbischofsheim, Stadt","type":"Stadt"},"district":{"key":"08128","name":"Main-Tauber-Kreis","type":"Landkreis"},"federalState":{"key":"08","name":"Baden-Württemberg"}},{"name":"Siemensstr.","postalCode":"97941","locality":"Tauberbischofsheim","municipality":{"key":"08128115","name":"Tauberbischofsheim, Stadt","type":"Stadt"},"district":{"key":"08128","name":"Main-Tauber-Kreis","type":"Landkreis"},"federalState":{"key":"08","name":"Baden-Württemberg"}},{"name":"Silvanerweg","postalCode":"55296","locality":"Gau-Bischofsheim","municipality":{"key":"07339020","name":"Gau-Bischofsheim","type":"Kreisangehörige_Gemeinde"},"district":{"key":"07339","name":"Mainz-Bingen","type":"Landkreis"},"federalState":{"key":"07","name":"Rheinland-Pfalz"}},{"name":"Sinsheimer Str.","postalCode":"74924","locality":"Neckarbischofsheim","municipality":{"key":"08226055","name":"Neckarbischofsheim, Stadt","type":"Stadt"},"district":{"key":"08226","name":"Rhein-Neckar-Kreis","type":"Landkreis"},"federalState":{"key":"08","name":"Baden-Württemberg"}},{"name":"Sondernauer Str.","postalCode":"97653","locality":"Bischofsheim i.d.Rhön","municipality":{"key":"09673117","name":"Bischofsheim i.d.Rhön, St","type":"Stadt"},"district":{"key":"09673","name":"Rhön-Grabfeld","type":"Landkreis"},"federalState":{"key":"09","name":"Bayern"}},{"name":"Sonnenblumenweg","postalCode":"97653","locality":"Bischofsheim i.d.Rhön","municipality":{"key":"09673117","name":"Bischofsheim i.d.Rhön, St","type":"Stadt"},"district":{"key":"09673","name":"Rhön-Grabfeld","type":"Landkreis"},"federalState":{"key":"09","name":"Bayern"}},{"name":"Sonnenhöhe","postalCode":"97653","locality":"Bischofsheim i.d.Rhön","municipality":{"key":"09673117","name":"Bischofsheim i.d.Rhön, St","type":"Stadt"},"district":{"key":"09673","name":"Rhön-Grabfeld","type":"Landkreis"},"federalState":{"key":"09","name":"Bayern"}},{"name":"Talblick","postalCode":"97941","locality":"Tauberbischofsheim","municipality":{"key":"08128115","name":"Tauberbischofsheim, Stadt","type":"Stadt"},"district":{"key":"08128","name":"Main-Tauber-Kreis","type":"Landkreis"},"federalState":{"key":"08","name":"Baden-Württemberg"}},{"name":"Talstr.","postalCode":"74924","locality":"Neckarbischofsheim","municipality":{"key":"08226055","name":"Neckarbischofsheim, Stadt","type":"Stadt"},"district":{"key":"08226","name":"Rhein-Neckar-Kreis","type":"Landkreis"},"federalState":{"key":"08","name":"Baden-Württemberg"}},{"name":"Talstr.","postalCode":"97941","locality":"Tauberbischofsheim","municipality":{"key":"08128115","name":"Tauberbischofsheim, Stadt","type":"Stadt"},"district":{"key":"08128","name":"Main-Tauber-Kreis","type":"Landkreis"},"federalState":{"key":"08","name":"Baden-Württemberg"}},{"name":"Tannenbergstr.","postalCode":"97941","locality":"Tauberbischofsheim","municipality":{"key":"08128115","name":"Tauberbischofsheim, Stadt","type":"Stadt"},"district":{"key":"08128","name":"Main-Tauber-Kreis","type":"Landkreis"},"federalState":{"key":"08","name":"Baden-Württemberg"}},{"name":"Tannenbuckelweg","postalCode":"74924","locality":"Neckarbischofsheim","municipality":{"key":"08226055","name":"Neckarbischofsheim, Stadt","type":"Stadt"},"district":{"key":"08226","name":"Rhein-Neckar-Kreis","type":"Landkreis"},"federalState":{"key":"08","name":"Baden-Württemberg"}},{"name":"Tannenstr.","postalCode":"74924","locality":"Neckarbischofsheim","municipality":{"key":"08226055","name":"Neckarbischofsheim, Stadt","type":"Stadt"},"district":{"key":"08226","name":"Rhein-Neckar-Kreis","type":"Landkreis"},"federalState":{"key":"08","name":"Baden-Württemberg"}},{"name":"Tannenweg","postalCode":"97941","locality":"Tauberbischofsheim","municipality":{"key":"08128115","name":"Tauberbischofsheim, Stadt","type":"Stadt"},"district":{"key":"08128","name":"Main-Tauber-Kreis","type":"Landkreis"},"federalState":{"key":"08","name":"Baden-Württemberg"}},{"name":"Taubenhausweg","postalCode":"97941","locality":"Tauberbischofsheim","municipality":{"key":"08128115","name":"Tauberbischofsheim, Stadt","type":"Stadt"},"district":{"key":"08128","name":"Main-Tauber-Kreis","type":"Landkreis"},"federalState":{"key":"08","name":"Baden-Württemberg"}},{"name":"Tauberblick","postalCode":"97941","locality":"Tauberbischofsheim","municipality":{"key":"08128115","name":"Tauberbischofsheim, Stadt","type":"Stadt"},"district":{"key":"08128","name":"Main-Tauber-Kreis","type":"Landkreis"},"federalState":{"key":"08","name":"Baden-Württemberg"}},{"name":"Tauberhell","postalCode":"97941","locality":"Tauberbischofsheim","municipality":{"key":"08128115","name":"Tauberbischofsheim, Stadt","type":"Stadt"},"district":{"key":"08128","name":"Main-Tauber-Kreis","type":"Landkreis"},"federalState":{"key":"08","name":"Baden-Württemberg"}},{"name":"Taubertalstr.","postalCode":"97941","locality":"Tauberbischofsheim","municipality":{"key":"08128115","name":"Tauberbischofsheim, Stadt","type":"Stadt"},"district":{"key":"08128","name":"Main-Tauber-Kreis","type":"Landkreis"},"federalState":{"key":"08","name":"Baden-Württemberg"}},{"name":"Taunusstr.","postalCode":"65474","locality":"Bischofsheim","municipality":{"key":"06433002","name":"Bischofsheim","type":"Kreisangehörige_Gemeinde"},"district":{"key":"06433","name":"Groß-Gerau","type":"Landkreis"},"federalState":{"key":"06","name":"Hessen"}},{"name":"Thüringer Str.","postalCode":"97772","locality":"Bischofsheim i.d.Rhön","municipality":{"key":"09673117","name":"Bischofsheim i.d.Rhön, St","type":"Stadt"},"district":{"key":"09673","name":"Rhön-Grabfeld","type":"Landkreis"},"federalState":{"key":"09","name":"Bayern"}},{"name":"Tiefengasse","postalCode":"97941","locality":"Tauberbischofsheim","municipality":{"key":"08128115","name":"Tauberbischofsheim, Stadt","type":"Stadt"},"district":{"key":"08128","name":"Main-Tauber-Kreis","type":"Landkreis"},"federalState":{"key":"08","name":"Baden-Württemberg"}},{"name":"Torgartenstr.","postalCode":"97941","locality":"Tauberbischofsheim","municipality":{"key":"08128115","name":"Tauberbischofsheim, Stadt","type":"Stadt"},"district":{"key":"08128","name":"Main-Tauber-Kreis","type":"Landkreis"},"federalState":{"key":"08","name":"Baden-Württemberg"}},{"name":"Torgartenweg","postalCode":"97941","locality":"Tauberbischofsheim","municipality":{"key":"08128115","name":"Tauberbischofsheim, Stadt","type":"Stadt"},"district":{"key":"08128","name":"Main-Tauber-Kreis","type":"Landkreis"},"federalState":{"key":"08","name":"Baden-Württemberg"}},{"name":"Traminerweg","postalCode":"55296","locality":"Gau-Bischofsheim","municipality":{"key":"07339020","name":"Gau-Bischofsheim","type":"Kreisangehörige_Gemeinde"},"district":{"key":"07339","name":"Mainz-Bingen","type":"Landkreis"},"federalState":{"key":"07","name":"Rheinland-Pfalz"}},{"name":"Tränkweg","postalCode":"97653","locality":"Bischofsheim i.d.Rhön","municipality":{"key":"09673117","name":"Bischofsheim i.d.Rhön, St","type":"Stadt"},"district":{"key":"09673","name":"Rhön-Grabfeld","type":"Landkreis"},"federalState":{"key":"09","name":"Bayern"}},{"name":"Treburer Str.","postalCode":"65474","locality":"Bischofsheim","municipality":{"key":"06433002","name":"Bischofsheim","type":"Kreisangehörige_Gemeinde"},"district":{"key":"06433","name":"Groß-Gerau","type":"Landkreis"},"federalState":{"key":"06","name":"Hessen"}},{"name":"Trimm-dich-Pfad","postalCode":"97941","locality":"Tauberbischofsheim","municipality":{"key":"08128115","name":"Tauberbischofsheim, Stadt","type":"Stadt"},"district":{"key":"08128","name":"Main-Tauber-Kreis","type":"Landkreis"},"federalState":{"key":"08","name":"Baden-Württemberg"}},{"name":"Tulpenstr.","postalCode":"97941","locality":"Tauberbischofsheim","municipality":{"key":"08128115","name":"Tauberbischofsheim, Stadt","type":"Stadt"},"district":{"key":"08128","name":"Main-Tauber-Kreis","type":"Landkreis"},"federalState":{"key":"08","name":"Baden-Württemberg"}},{"name":"Tulpenweg","postalCode":"97653","locality":"Bischofsheim i.d.Rhön","municipality":{"key":"09673117","name":"Bischofsheim i.d.Rhön, St","type":"Stadt"},"district":{"key":"09673","name":"Rhön-Grabfeld","type":"Landkreis"},"federalState":{"key":"09","name":"Bayern"}},{"name":"Tulpenweg","postalCode":"97941","locality":"Tauberbischofsheim","municipality":{"key":"08128115","name":"Tauberbischofsheim, Stadt","type":"Stadt"},"district":{"key":"08128","name":"Main-Tauber-Kreis","type":"Landkreis"},"federalState":{"key":"08","name":"Baden-Württemberg"}},{"name":"Turmblick","postalCode":"74924","locality":"Neckarbischofsheim","municipality":{"key":"08226055","name":"Neckarbischofsheim, Stadt","type":"Stadt"},"district":{"key":"08226","name":"Rhein-Neckar-Kreis","type":"Landkreis"},"federalState":{"key":"08","name":"Baden-Württemberg"}},{"name":"Turmstr.","postalCode":"74924","locality":"Neckarbischofsheim","municipality":{"key":"08226055","name":"Neckarbischofsheim, Stadt","type":"Stadt"},"district":{"key":"08226","name":"Rhein-Neckar-Kreis","type":"Landkreis"},"federalState":{"key":"08","name":"Baden-Württemberg"}},{"name":"Turmweg","postalCode":"97653","locality":"Bischofsheim i.d.Rhön","municipality":{"key":"09673117","name":"Bischofsheim i.d.Rhön, St","type":"Stadt"},"district":{"key":"09673","name":"Rhön-Grabfeld","type":"Landkreis"},"federalState":{"key":"09","name":"Bayern"}},{"name":"Uhlandstr.","postalCode":"74924","locality":"Neckarbischofsheim","municipality":{"key":"08226055","name":"Neckarbischofsheim, Stadt","type":"Stadt"},"district":{"key":"08226","name":"Rhein-Neckar-Kreis","type":"Landkreis"},"federalState":{"key":"08","name":"Baden-Württemberg"}},{"name":"Uhlandweg","postalCode":"97941","locality":"Tauberbischofsheim","municipality":{"key":"08128115","name":"Tauberbischofsheim, Stadt","type":"Stadt"},"district":{"key":"08128","name":"Main-Tauber-Kreis","type":"Landkreis"},"federalState":{"key":"08","name":"Baden-Württemberg"}},{"name":"Ulmenstr.","postalCode":"65474","locality":"Bischofsheim","municipality":{"key":"06433002","name":"Bischofsheim","type":"Kreisangehörige_Gemeinde"},"district":{"key":"06433","name":"Groß-Gerau","type":"Landkreis"},"federalState":{"key":"06","name":"Hessen"}},{"name":"Ulmenweg","postalCode":"97941","locality":"Tauberbischofsheim","municipality":{"key":"08128115","name":"Tauberbischofsheim, Stadt","type":"Stadt"},"district":{"key":"08128","name":"Main-Tauber-Kreis","type":"Landkreis"},"federalState":{"key":"08","name":"Baden-Württemberg"}},{"name":"Unterdorf","postalCode":"97941","locality":"Tauberbischofsheim","municipality":{"key":"08128115","name":"Tauberbischofsheim, Stadt","type":"Stadt"},"district":{"key":"08128","name":"Main-Tauber-Kreis","type":"Landkreis"},"federalState":{"key":"08","name":"Baden-Württemberg"}},{"name":"Untere Au","postalCode":"97653","locality":"Bischofsheim i.d.Rhön","municipality":{"key":"09673117","name":"Bischofsheim i.d.Rhön, St","type":"Stadt"},"district":{"key":"09673","name":"Rhön-Grabfeld","type":"Landkreis"},"federalState":{"key":"09","name":"Bayern"}},{"name":"Untere Beund","postalCode":"97941","locality":"Tauberbischofsheim","municipality":{"key":"08128115","name":"Tauberbischofsheim, Stadt","type":"Stadt"},"district":{"key":"08128","name":"Main-Tauber-Kreis","type":"Landkreis"},"federalState":{"key":"08","name":"Baden-Württemberg"}},{"name":"Untere Gasse","postalCode":"97941","locality":"Tauberbischofsheim","municipality":{"key":"08128115","name":"Tauberbischofsheim, Stadt","type":"Stadt"},"district":{"key":"08128","name":"Main-Tauber-Kreis","type":"Landkreis"},"federalState":{"key":"08","name":"Baden-Württemberg"}},{"name":"Untere Mühlbachgasse","postalCode":"74924","locality":"Neckarbischofsheim","municipality":{"key":"08226055","name":"Neckarbischofsheim, Stadt","type":"Stadt"},"district":{"key":"08226","name":"Rhein-Neckar-Kreis","type":"Landkreis"},"federalState":{"key":"08","name":"Baden-Württemberg"}},{"name":"Unterer Kirchberg","postalCode":"97941","locality":"Tauberbischofsheim","municipality":{"key":"08128115","name":"Tauberbischofsheim, Stadt","type":"Stadt"},"district":{"key":"08128","name":"Main-Tauber-Kreis","type":"Landkreis"},"federalState":{"key":"08","name":"Baden-Württemberg"}},{"name":"Unterer Küchelberg","postalCode":"55296","locality":"Gau-Bischofsheim","municipality":{"key":"07339020","name":"Gau-Bischofsheim","type":"Kreisangehörige_Gemeinde"},"district":{"key":"07339","name":"Mainz-Bingen","type":"Landkreis"},"federalState":{"key":"07","name":"Rheinland-Pfalz"}},{"name":"Unterer Ringweg","postalCode":"74924","locality":"Neckarbischofsheim","municipality":{"key":"08226055","name":"Neckarbischofsheim, Stadt","type":"Stadt"},"district":{"key":"08226","name":"Rhein-Neckar-Kreis","type":"Landkreis"},"federalState":{"key":"08","name":"Baden-Württemberg"}},{"name":"Unterer Wagenbacher Weg","postalCode":"74924","locality":"Neckarbischofsheim","municipality":{"key":"08226055","name":"Neckarbischofsheim, Stadt","type":"Stadt"},"district":{"key":"08226","name":"Rhein-Neckar-Kreis","type":"Landkreis"},"federalState":{"key":"08","name":"Baden-Württemberg"}},{"name":"Unteres Eichertstal","postalCode":"74924","locality":"Neckarbischofsheim","municipality":{"key":"08226055","name":"Neckarbischofsheim, Stadt","type":"Stadt"},"district":{"key":"08226","name":"Rhein-Neckar-Kreis","type":"Landkreis"},"federalState":{"key":"08","name":"Baden-Württemberg"}},{"name":"Untere Sonnenhalde","postalCode":"97941","locality":"Tauberbischofsheim","municipality":{"key":"08128115","name":"Tauberbischofsheim, Stadt","type":"Stadt"},"district":{"key":"08128","name":"Main-Tauber-Kreis","type":"Landkreis"},"federalState":{"key":"08","name":"Baden-Württemberg"}},{"name":"Untere Torstr.","postalCode":"97941","locality":"Tauberbischofsheim","municipality":{"key":"08128115","name":"Tauberbischofsheim, Stadt","type":"Stadt"},"district":{"key":"08128","name":"Main-Tauber-Kreis","type":"Landkreis"},"federalState":{"key":"08","name":"Baden-Württemberg"}},{"name":"Untere Ziegelgasse","postalCode":"74924","locality":"Neckarbischofsheim","municipality":{"key":"08226055","name":"Neckarbischofsheim, Stadt","type":"Stadt"},"district":{"key":"08226","name":"Rhein-Neckar-Kreis","type":"Landkreis"},"federalState":{"key":"08","name":"Baden-Württemberg"}},{"name":"Untergasse","postalCode":"65474","locality":"Bischofsheim","municipality":{"key":"06433002","name":"Bischofsheim","type":"Kreisangehörige_Gemeinde"},"district":{"key":"06433","name":"Groß-Gerau","type":"Landkreis"},"federalState":{"key":"06","name":"Hessen"}},{"name":"Unterhofstr.","postalCode":"55296","locality":"Gau-Bischofsheim","municipality":{"key":"07339020","name":"Gau-Bischofsheim","type":"Kreisangehörige_Gemeinde"},"district":{"key":"07339","name":"Mainz-Bingen","type":"Landkreis"},"federalState":{"key":"07","name":"Rheinland-Pfalz"}},{"name":"Unterm Dorf","postalCode":"97653","locality":"Bischofsheim i.d.Rhön","municipality":{"key":"09673117","name":"Bischofsheim i.d.Rhön, St","type":"Stadt"},"district":{"key":"09673","name":"Rhön-Grabfeld","type":"Landkreis"},"federalState":{"key":"09","name":"Bayern"}},{"name":"Veit-Stoß-Str.","postalCode":"97941","locality":"Tauberbischofsheim","municipality":{"key":"08128115","name":"Tauberbischofsheim, Stadt","type":"Stadt"},"district":{"key":"08128","name":"Main-Tauber-Kreis","type":"Landkreis"},"federalState":{"key":"08","name":"Baden-Württemberg"}},{"name":"Veitstr.","postalCode":"97941","locality":"Tauberbischofsheim","municipality":{"key":"08128115","name":"Tauberbischofsheim, Stadt","type":"Stadt"},"district":{"key":"08128","name":"Main-Tauber-Kreis","type":"Landkreis"},"federalState":{"key":"08","name":"Baden-Württemberg"}},{"name":"Viehweg","postalCode":"97653","locality":"Bischofsheim i.d.Rhön","municipality":{"key":"09673117","name":"Bischofsheim i.d.Rhön, St","type":"Stadt"},"district":{"key":"09673","name":"Rhön-Grabfeld","type":"Landkreis"},"federalState":{"key":"09","name":"Bayern"}},{"name":"Vitryallee","postalCode":"97941","locality":"Tauberbischofsheim","municipality":{"key":"08128115","name":"Tauberbischofsheim, Stadt","type":"Stadt"},"district":{"key":"08128","name":"Main-Tauber-Kreis","type":"Landkreis"},"federalState":{"key":"08","name":"Baden-Württemberg"}},{"name":"Vogelsbergweg","postalCode":"65474","locality":"Bischofsheim","municipality":{"key":"06433002","name":"Bischofsheim","type":"Kreisangehörige_Gemeinde"},"district":{"key":"06433","name":"Groß-Gerau","type":"Landkreis"},"federalState":{"key":"06","name":"Hessen"}},{"name":"Von-Faber-Str.","postalCode":"97941","locality":"Tauberbischofsheim","municipality":{"key":"08128115","name":"Tauberbischofsheim, Stadt","type":"Stadt"},"district":{"key":"08128","name":"Main-Tauber-Kreis","type":"Landkreis"},"federalState":{"key":"08","name":"Baden-Württemberg"}},{"name":"von-Hindenburg-Str.","postalCode":"74924","locality":"Neckarbischofsheim","municipality":{"key":"08226055","name":"Neckarbischofsheim, Stadt","type":"Stadt"},"district":{"key":"08226","name":"Rhein-Neckar-Kreis","type":"Landkreis"},"federalState":{"key":"08","name":"Baden-Württemberg"}},{"name":"Von-Ketteler-Weg","postalCode":"97941","locality":"Tauberbischofsheim","municipality":{"key":"08128115","name":"Tauberbischofsheim, Stadt","type":"Stadt"},"district":{"key":"08128","name":"Main-Tauber-Kreis","type":"Landkreis"},"federalState":{"key":"08","name":"Baden-Württemberg"}},{"name":"Von-Rieneck-Str.","postalCode":"97941","locality":"Tauberbischofsheim","municipality":{"key":"08128115","name":"Tauberbischofsheim, Stadt","type":"Stadt"},"district":{"key":"08128","name":"Main-Tauber-Kreis","type":"Landkreis"},"federalState":{"key":"08","name":"Baden-Württemberg"}},{"name":"Vor der Pforte","postalCode":"65474","locality":"Bischofsheim","municipality":{"key":"06433002","name":"Bischofsheim","type":"Kreisangehörige_Gemeinde"},"district":{"key":"06433","name":"Groß-Gerau","type":"Landkreis"},"federalState":{"key":"06","name":"Hessen"}},{"name":"Wagenbacher Weg","postalCode":"74924","locality":"Neckarbischofsheim","municipality":{"key":"08226055","name":"Neckarbischofsheim, Stadt","type":"Stadt"},"district":{"key":"08226","name":"Rhein-Neckar-Kreis","type":"Landkreis"},"federalState":{"key":"08","name":"Baden-Württemberg"}},{"name":"Waibstadter Str.","postalCode":"74924","locality":"Neckarbischofsheim","municipality":{"key":"08226055","name":"Neckarbischofsheim, Stadt","type":"Stadt"},"district":{"key":"08226","name":"Rhein-Neckar-Kreis","type":"Landkreis"},"federalState":{"key":"08","name":"Baden-Württemberg"}},{"name":"Waldblickstr.","postalCode":"74924","locality":"Neckarbischofsheim","municipality":{"key":"08226055","name":"Neckarbischofsheim, Stadt","type":"Stadt"},"district":{"key":"08226","name":"Rhein-Neckar-Kreis","type":"Landkreis"},"federalState":{"key":"08","name":"Baden-Württemberg"}},{"name":"Waldsteige","postalCode":"97941","locality":"Tauberbischofsheim","municipality":{"key":"08128115","name":"Tauberbischofsheim, Stadt","type":"Stadt"},"district":{"key":"08128","name":"Main-Tauber-Kreis","type":"Landkreis"},"federalState":{"key":"08","name":"Baden-Württemberg"}},{"name":"Wasenweg","postalCode":"74924","locality":"Neckarbischofsheim","municipality":{"key":"08226055","name":"Neckarbischofsheim, Stadt","type":"Stadt"},"district":{"key":"08226","name":"Rhein-Neckar-Kreis","type":"Landkreis"},"federalState":{"key":"08","name":"Baden-Württemberg"}},{"name":"Weg aufgegeben","postalCode":"74924","locality":"Neckarbischofsheim","municipality":{"key":"08226055","name":"Neckarbischofsheim, Stadt","type":"Stadt"},"district":{"key":"08226","name":"Rhein-Neckar-Kreis","type":"Landkreis"},"federalState":{"key":"08","name":"Baden-Württemberg"}},{"name":"Weg in den Kemetenhöhen","postalCode":"97653","locality":"Bischofsheim i.d.Rhön","municipality":{"key":"09673117","name":"Bischofsheim i.d.Rhön, St","type":"Stadt"},"district":{"key":"09673","name":"Rhön-Grabfeld","type":"Landkreis"},"federalState":{"key":"09","name":"Bayern"}},{"name":"Weickstr.","postalCode":"97941","locality":"Tauberbischofsheim","municipality":{"key":"08128115","name":"Tauberbischofsheim, Stadt","type":"Stadt"},"district":{"key":"08128","name":"Main-Tauber-Kreis","type":"Landkreis"},"federalState":{"key":"08","name":"Baden-Württemberg"}},{"name":"Weinbergstr.","postalCode":"55296","locality":"Gau-Bischofsheim","municipality":{"key":"07339020","name":"Gau-Bischofsheim","type":"Kreisangehörige_Gemeinde"},"district":{"key":"07339","name":"Mainz-Bingen","type":"Landkreis"},"federalState":{"key":"07","name":"Rheinland-Pfalz"}},{"name":"Weinbergstr.","postalCode":"74924","locality":"Neckarbischofsheim","municipality":{"key":"08226055","name":"Neckarbischofsheim, Stadt","type":"Stadt"},"district":{"key":"08226","name":"Rhein-Neckar-Kreis","type":"Landkreis"},"federalState":{"key":"08","name":"Baden-Württemberg"}},{"name":"Weinigstr.","postalCode":"97941","locality":"Tauberbischofsheim","municipality":{"key":"08128115","name":"Tauberbischofsheim, Stadt","type":"Stadt"},"district":{"key":"08128","name":"Main-Tauber-Kreis","type":"Landkreis"},"federalState":{"key":"08","name":"Baden-Württemberg"}},{"name":"Weinlehrpfad Edelberg","postalCode":"97941","locality":"Tauberbischofsheim","municipality":{"key":"08128115","name":"Tauberbischofsheim, Stadt","type":"Stadt"},"district":{"key":"08128","name":"Main-Tauber-Kreis","type":"Landkreis"},"federalState":{"key":"08","name":"Baden-Württemberg"}},{"name":"Weisbacher Str.","postalCode":"97653","locality":"Bischofsheim i.d.Rhön","municipality":{"key":"09673117","name":"Bischofsheim i.d.Rhön, St","type":"Stadt"},"district":{"key":"09673","name":"Rhön-Grabfeld","type":"Landkreis"},"federalState":{"key":"09","name":"Bayern"}},{"name":"Weisenauer Gasse","postalCode":"65474","locality":"Bischofsheim","municipality":{"key":"06433002","name":"Bischofsheim","type":"Kreisangehörige_Gemeinde"},"district":{"key":"06433","name":"Groß-Gerau","type":"Landkreis"},"federalState":{"key":"06","name":"Hessen"}},{"name":"Wellenbergstr.","postalCode":"97941","locality":"Tauberbischofsheim","municipality":{"key":"08128115","name":"Tauberbischofsheim, Stadt","type":"Stadt"},"district":{"key":"08128","name":"Main-Tauber-Kreis","type":"Landkreis"},"federalState":{"key":"08","name":"Baden-Württemberg"}},{"name":"Wertheimer Str.","postalCode":"97941","locality":"Tauberbischofsheim","municipality":{"key":"08128115","name":"Tauberbischofsheim, Stadt","type":"Stadt"},"district":{"key":"08128","name":"Main-Tauber-Kreis","type":"Landkreis"},"federalState":{"key":"08","name":"Baden-Württemberg"}},{"name":"Wickental","postalCode":"97941","locality":"Tauberbischofsheim","municipality":{"key":"08128115","name":"Tauberbischofsheim, Stadt","type":"Stadt"},"district":{"key":"08128","name":"Main-Tauber-Kreis","type":"Landkreis"},"federalState":{"key":"08","name":"Baden-Württemberg"}},{"name":"Wiesbadener Str.","postalCode":"65474","locality":"Bischofsheim","municipality":{"key":"06433002","name":"Bischofsheim","type":"Kreisangehörige_Gemeinde"},"district":{"key":"06433","name":"Groß-Gerau","type":"Landkreis"},"federalState":{"key":"06","name":"Hessen"}},{"name":"Wieselweg","postalCode":"97941","locality":"Tauberbischofsheim","municipality":{"key":"08128115","name":"Tauberbischofsheim, Stadt","type":"Stadt"},"district":{"key":"08128","name":"Main-Tauber-Kreis","type":"Landkreis"},"federalState":{"key":"08","name":"Baden-Württemberg"}},{"name":"Wieseneckerstr.","postalCode":"65474","locality":"Bischofsheim","municipality":{"key":"06433002","name":"Bischofsheim","type":"Kreisangehörige_Gemeinde"},"district":{"key":"06433","name":"Groß-Gerau","type":"Landkreis"},"federalState":{"key":"06","name":"Hessen"}},{"name":"Wiesentalweg","postalCode":"74924","locality":"Neckarbischofsheim","municipality":{"key":"08226055","name":"Neckarbischofsheim, Stadt","type":"Stadt"},"district":{"key":"08226","name":"Rhein-Neckar-Kreis","type":"Landkreis"},"federalState":{"key":"08","name":"Baden-Württemberg"}},{"name":"Wiesenweg","postalCode":"74924","locality":"Neckarbischofsheim","municipality":{"key":"08226055","name":"Neckarbischofsheim, Stadt","type":"Stadt"},"district":{"key":"08226","name":"Rhein-Neckar-Kreis","type":"Landkreis"},"federalState":{"key":"08","name":"Baden-Württemberg"}},{"name":"Wilhelm-Busch-Str.","postalCode":"97941","locality":"Tauberbischofsheim","municipality":{"key":"08128115","name":"Tauberbischofsheim, Stadt","type":"Stadt"},"district":{"key":"08128","name":"Main-Tauber-Kreis","type":"Landkreis"},"federalState":{"key":"08","name":"Baden-Württemberg"}},{"name":"Wilhelmstr.","postalCode":"65474","locality":"Bischofsheim","municipality":{"key":"06433002","name":"Bischofsheim","type":"Kreisangehörige_Gemeinde"},"district":{"key":"06433","name":"Groß-Gerau","type":"Landkreis"},"federalState":{"key":"06","name":"Hessen"}},{"name":"Wimpfener Str.","postalCode":"74924","locality":"Neckarbischofsheim","municipality":{"key":"08226055","name":"Neckarbischofsheim, Stadt","type":"Stadt"},"district":{"key":"08226","name":"Rhein-Neckar-Kreis","type":"Landkreis"},"federalState":{"key":"08","name":"Baden-Württemberg"}},{"name":"Wingertspfad","postalCode":"65474","locality":"Bischofsheim","municipality":{"key":"06433002","name":"Bischofsheim","type":"Kreisangehörige_Gemeinde"},"district":{"key":"06433","name":"Groß-Gerau","type":"Landkreis"},"federalState":{"key":"06","name":"Hessen"}},{"name":"Wochenendsiedlung","postalCode":"97653","locality":"Bischofsheim i.d.Rhön","municipality":{"key":"09673117","name":"Bischofsheim i.d.Rhön, St","type":"Stadt"},"district":{"key":"09673","name":"Rhön-Grabfeld","type":"Landkreis"},"federalState":{"key":"09","name":"Bayern"}},{"name":"Wolfgangstr.","postalCode":"97941","locality":"Tauberbischofsheim","municipality":{"key":"08128115","name":"Tauberbischofsheim, Stadt","type":"Stadt"},"district":{"key":"08128","name":"Main-Tauber-Kreis","type":"Landkreis"},"federalState":{"key":"08","name":"Baden-Württemberg"}},{"name":"Wolfstalflurstr.","postalCode":"97941","locality":"Tauberbischofsheim","municipality":{"key":"08128115","name":"Tauberbischofsheim, Stadt","type":"Stadt"},"district":{"key":"08128","name":"Main-Tauber-Kreis","type":"Landkreis"},"federalState":{"key":"08","name":"Baden-Württemberg"}},{"name":"Würzburger Str.","postalCode":"97941","locality":"Tauberbischofsheim","municipality":{"key":"08128115","name":"Tauberbischofsheim, Stadt","type":"Stadt"},"district":{"key":"08128","name":"Main-Tauber-Kreis","type":"Landkreis"},"federalState":{"key":"08","name":"Baden-Württemberg"}},{"name":"Zähringerweg","postalCode":"97941","locality":"Tauberbischofsheim","municipality":{"key":"08128115","name":"Tauberbischofsheim, Stadt","type":"Stadt"},"district":{"key":"08128","name":"Main-Tauber-Kreis","type":"Landkreis"},"federalState":{"key":"08","name":"Baden-Württemberg"}},{"name":"Zehntfreistr.","postalCode":"97941","locality":"Tauberbischofsheim","municipality":{"key":"08128115","name":"Tauberbischofsheim, Stadt","type":"Stadt"},"district":{"key":"08128","name":"Main-Tauber-Kreis","type":"Landkreis"},"federalState":{"key":"08","name":"Baden-Württemberg"}},{"name":"Zehntgasse","postalCode":"97941","locality":"Tauberbischofsheim","municipality":{"key":"08128115","name":"Tauberbischofsheim, Stadt","type":"Stadt"},"district":{"key":"08128","name":"Main-Tauber-Kreis","type":"Landkreis"},"federalState":{"key":"08","name":"Baden-Württemberg"}},{"name":"Zeilweg","postalCode":"97653","locality":"Bischofsheim i.d.Rhön","municipality":{"key":"09673117","name":"Bischofsheim i.d.Rhön, St","type":"Stadt"},"district":{"key":"09673","name":"Rhön-Grabfeld","type":"Landkreis"},"federalState":{"key":"09","name":"Bayern"}},{"name":"Zentweg","postalCode":"97653","locality":"Bischofsheim i.d.Rhön","municipality":{"key":"09673117","name":"Bischofsheim i.d.Rhön, St","type":"Stadt"},"district":{"key":"09673","name":"Rhön-Grabfeld","type":"Landkreis"},"federalState":{"key":"09","name":"Bayern"}},{"name":"Zickzack-Weg","postalCode":"97941","locality":"Tauberbischofsheim","municipality":{"key":"08128115","name":"Tauberbischofsheim, Stadt","type":"Stadt"},"district":{"key":"08128","name":"Main-Tauber-Kreis","type":"Landkreis"},"federalState":{"key":"08","name":"Baden-Württemberg"}},{"name":"Ziegelgasse","postalCode":"74924","locality":"Neckarbischofsheim","municipality":{"key":"08226055","name":"Neckarbischofsheim, Stadt","type":"Stadt"},"district":{"key":"08226","name":"Rhein-Neckar-Kreis","type":"Landkreis"},"federalState":{"key":"08","name":"Baden-Württemberg"}},{"name":"Ziegelweg","postalCode":"74924","locality":"Neckarbischofsheim","municipality":{"key":"08226055","name":"Neckarbischofsheim, Stadt","type":"Stadt"},"district":{"key":"08226","name":"Rhein-Neckar-Kreis","type":"Landkreis"},"federalState":{"key":"08","name":"Baden-Württemberg"}},{"name":"Zinnenweg","postalCode":"97653","locality":"Bischofsheim i.d.Rhön","municipality":{"key":"09673117","name":"Bischofsheim i.d.Rhön, St","type":"Stadt"},"district":{"key":"09673","name":"Rhön-Grabfeld","type":"Landkreis"},"federalState":{"key":"09","name":"Bayern"}},{"name":"Zobelweg","postalCode":"97941","locality":"Tauberbischofsheim","municipality":{"key":"08128115","name":"Tauberbischofsheim, Stadt","type":"Stadt"},"district":{"key":"08128","name":"Main-Tauber-Kreis","type":"Landkreis"},"federalState":{"key":"08","name":"Baden-Württemberg"}},{"name":"Zugelderstr.","postalCode":"97941","locality":"Tauberbischofsheim","municipality":{"key":"08128115","name":"Tauberbischofsheim, Stadt","type":"Stadt"},"district":{"key":"08128","name":"Main-Tauber-Kreis","type":"Landkreis"},"federalState":{"key":"08","name":"Baden-Württemberg"}},{"name":"Zum Äfel","postalCode":"97653","locality":"Bischofsheim i.d.Rhön","municipality":{"key":"09673117","name":"Bischofsheim i.d.Rhön, St","type":"Stadt"},"district":{"key":"09673","name":"Rhön-Grabfeld","type":"Landkreis"},"federalState":{"key":"09","name":"Bayern"}},{"name":"Zum Berg","postalCode":"97941","locality":"Tauberbischofsheim","municipality":{"key":"08128115","name":"Tauberbischofsheim, Stadt","type":"Stadt"},"district":{"key":"08128","name":"Main-Tauber-Kreis","type":"Landkreis"},"federalState":{"key":"08","name":"Baden-Württemberg"}},{"name":"Zum Brünnle","postalCode":"97941","locality":"Tauberbischofsheim","municipality":{"key":"08128115","name":"Tauberbischofsheim, Stadt","type":"Stadt"},"district":{"key":"08128","name":"Main-Tauber-Kreis","type":"Landkreis"},"federalState":{"key":"08","name":"Baden-Württemberg"}},{"name":"Zum Mühlkanal","postalCode":"97941","locality":"Tauberbischofsheim","municipality":{"key":"08128115","name":"Tauberbischofsheim, Stadt","type":"Stadt"},"district":{"key":"08128","name":"Main-Tauber-Kreis","type":"Landkreis"},"federalState":{"key":"08","name":"Baden-Württemberg"}},{"name":"Zum Oberen Tor","postalCode":"97941","locality":"Tauberbischofsheim","municipality":{"key":"08128115","name":"Tauberbischofsheim, Stadt","type":"Stadt"},"district":{"key":"08128","name":"Main-Tauber-Kreis","type":"Landkreis"},"federalState":{"key":"08","name":"Baden-Württemberg"}},{"name":"Zum Plan","postalCode":"97941","locality":"Tauberbischofsheim","municipality":{"key":"08128115","name":"Tauberbischofsheim, Stadt","type":"Stadt"},"district":{"key":"08128","name":"Main-Tauber-Kreis","type":"Landkreis"},"federalState":{"key":"08","name":"Baden-Württemberg"}},{"name":"Zum Rohnberg","postalCode":"97941","locality":"Tauberbischofsheim","municipality":{"key":"08128115","name":"Tauberbischofsheim, Stadt","type":"Stadt"},"district":{"key":"08128","name":"Main-Tauber-Kreis","type":"Landkreis"},"federalState":{"key":"08","name":"Baden-Württemberg"}},{"name":"Zum Schneekasten","postalCode":"97941","locality":"Tauberbischofsheim","municipality":{"key":"08128115","name":"Tauberbischofsheim, Stadt","type":"Stadt"},"district":{"key":"08128","name":"Main-Tauber-Kreis","type":"Landkreis"},"federalState":{"key":"08","name":"Baden-Württemberg"}},{"name":"Zum Steinschmätzer","postalCode":"97941","locality":"Tauberbischofsheim","municipality":{"key":"08128115","name":"Tauberbischofsheim, Stadt","type":"Stadt"},"district":{"key":"08128","name":"Main-Tauber-Kreis","type":"Landkreis"},"federalState":{"key":"08","name":"Baden-Württemberg"}},{"name":"Zum Stickelgarten","postalCode":"97941","locality":"Tauberbischofsheim","municipality":{"key":"08128115","name":"Tauberbischofsheim, Stadt","type":"Stadt"},"district":{"key":"08128","name":"Main-Tauber-Kreis","type":"Landkreis"},"federalState":{"key":"08","name":"Baden-Württemberg"}},{"name":"Zum Wehrgarten","postalCode":"97941","locality":"Tauberbischofsheim","municipality":{"key":"08128115","name":"Tauberbischofsheim, Stadt","type":"Stadt"},"district":{"key":"08128","name":"Main-Tauber-Kreis","type":"Landkreis"},"federalState":{"key":"08","name":"Baden-Württemberg"}},{"name":"Zur Altenau","postalCode":"97941","locality":"Tauberbischofsheim","municipality":{"key":"08128115","name":"Tauberbischofsheim, Stadt","type":"Stadt"},"district":{"key":"08128","name":"Main-Tauber-Kreis","type":"Landkreis"},"federalState":{"key":"08","name":"Baden-Württemberg"}},{"name":"Zur Pappelallee","postalCode":"65474","locality":"Bischofsheim","municipality":{"key":"06433002","name":"Bischofsheim","type":"Kreisangehörige_Gemeinde"},"district":{"key":"06433","name":"Groß-Gerau","type":"Landkreis"},"federalState":{"key":"06","name":"Hessen"}},{"name":"Zur Steige","postalCode":"97941","locality":"Tauberbischofsheim","municipality":{"key":"08128115","name":"Tauberbischofsheim, Stadt","type":"Stadt"},"district":{"key":"08128","name":"Main-Tauber-Kreis","type":"Landkreis"},"federalState":{"key":"08","name":"Baden-Württemberg"}},{"name":"Zur Wanne","postalCode":"97941","locality":"Tauberbischofsheim","municipality":{"key":"08128115","name":"Tauberbischofsheim, Stadt","type":"Stadt"},"district":{"key":"08128","name":"Main-Tauber-Kreis","type":"Landkreis"},"federalState":{"key":"08","name":"Baden-Württemberg"}},]