[{"key":"10187943","name":"Aemmetstrasse","postalCode":"8911","locality":"Rifferswil","commune":{"key":"12","name":"Rifferswil","shortName":"Rifferswil"},"district":{"key":"101","name":"Bezirk Affoltern"},"canton":{"key":"1","code":"ZH","name":"Zürich"},"status":"Real"},{"key":"10054197","name":"Albisstrasse","postalCode":"8911","locality":"Rifferswil","commune":{"key":"12","name":"Rifferswil","shortName":"Rifferswil"},"district":{"key":"101","name":"Bezirk Affoltern"},"canton":{"key":"1","code":"ZH","name":"Zürich"},"status":"Real"},{"key":"10062186","name":"Allmend","postalCode":"8911","locality":"Rifferswil","commune":{"key":"12","name":"Rifferswil","shortName":"Rifferswil"},"district":{"key":"101","name":"Bezirk Affoltern"},"canton":{"key":"1","code":"ZH","name":"Zürich"},"status":"Real"},{"key":"10194346","name":"Allmendstrasse","postalCode":"8911","locality":"Rifferswil","commune":{"key":"12","name":"Rifferswil","shortName":"Rifferswil"},"district":{"key":"101","name":"Bezirk Affoltern"},"canton":{"key":"1","code":"ZH","name":"Zürich"},"status":"Real"},{"key":"10197557","name":"Am Bach","postalCode":"8911","locality":"Rifferswil","commune":{"key":"12","name":"Rifferswil","shortName":"Rifferswil"},"district":{"key":"101","name":"Bezirk Affoltern"},"canton":{"key":"1","code":"ZH","name":"Zürich"},"status":"Real"},{"key":"10073943","name":"Ambüel","postalCode":"8911","locality":"Rifferswil","commune":{"key":"12","name":"Rifferswil","shortName":"Rifferswil"},"district":{"key":"101","name":"Bezirk Affoltern"},"canton":{"key":"1","code":"ZH","name":"Zürich"},"status":"Real"},{"key":"10003186","name":"Ankengasse","postalCode":"8911","locality":"Rifferswil","commune":{"key":"12","name":"Rifferswil","shortName":"Rifferswil"},"district":{"key":"101","name":"Bezirk Affoltern"},"canton":{"key":"1","code":"ZH","name":"Zürich"},"status":"Real"},{"key":"10073944","name":"Ausserfeldstrasse","postalCode":"8911","locality":"Rifferswil","commune":{"key":"12","name":"Rifferswil","shortName":"Rifferswil"},"district":{"key":"101","name":"Bezirk Affoltern"},"canton":{"key":"1","code":"ZH","name":"Zürich"},"status":"Real"},{"key":"10106690","name":"Chesslermatt","postalCode":"8911","locality":"Rifferswil","commune":{"key":"12","name":"Rifferswil","shortName":"Rifferswil"},"district":{"key":"101","name":"Bezirk Affoltern"},"canton":{"key":"1","code":"ZH","name":"Zürich"},"status":"Real"},{"key":"10240449","name":"Chrutzelenstrasse","postalCode":"8911","locality":"Rifferswil","commune":{"key":"12","name":"Rifferswil","shortName":"Rifferswil"},"district":{"key":"101","name":"Bezirk Affoltern"},"canton":{"key":"1","code":"ZH","name":"Zürich"},"status":"Real"},{"key":"10153887","name":"Doktorhaus","postalCode":"8911","locality":"Rifferswil","commune":{"key":"12","name":"Rifferswil","shortName":"Rifferswil"},"district":{"key":"101","name":"Bezirk Affoltern"},"canton":{"key":"1","code":"ZH","name":"Zürich"},"status":"Real"},{"key":"10003188","name":"Dorfplatz","postalCode":"8911","locality":"Rifferswil","commune":{"key":"12","name":"Rifferswil","shortName":"Rifferswil"},"district":{"key":"101","name":"Bezirk Affoltern"},"canton":{"key":"1","code":"ZH","name":"Zürich"},"status":"Real"},{"key":"10054198","name":"Dorfstrasse","postalCode":"8911","locality":"Rifferswil","commune":{"key":"12","name":"Rifferswil","shortName":"Rifferswil"},"district":{"key":"101","name":"Bezirk Affoltern"},"canton":{"key":"1","code":"ZH","name":"Zürich"},"status":"Real"},{"key":"10240450","name":"Eggstrasse","postalCode":"8911","locality":"Rifferswil","commune":{"key":"12","name":"Rifferswil","shortName":"Rifferswil"},"district":{"key":"101","name":"Bezirk Affoltern"},"canton":{"key":"1","code":"ZH","name":"Zürich"},"status":"Real"},{"key":"10003189","name":"Engelgasse","postalCode":"8911","locality":"Rifferswil","commune":{"key":"12","name":"Rifferswil","shortName":"Rifferswil"},"district":{"key":"101","name":"Bezirk Affoltern"},"canton":{"key":"1","code":"ZH","name":"Zürich"},"status":"Real"},{"key":"10154361","name":"Engelweg","postalCode":"8911","locality":"Rifferswil","commune":{"key":"12","name":"Rifferswil","shortName":"Rifferswil"},"district":{"key":"101","name":"Bezirk Affoltern"},"canton":{"key":"1","code":"ZH","name":"Zürich"},"status":"Real"},{"key":"10199037","name":"Flugplatz","postalCode":"8911","locality":"Rifferswil","commune":{"key":"12","name":"Rifferswil","shortName":"Rifferswil"},"district":{"key":"101","name":"Bezirk Affoltern"},"canton":{"key":"1","code":"ZH","name":"Zürich"},"status":"Real"},{"key":"10240455","name":"Geissbüelstrasse","postalCode":"8911","locality":"Rifferswil","commune":{"key":"12","name":"Rifferswil","shortName":"Rifferswil"},"district":{"key":"101","name":"Bezirk Affoltern"},"canton":{"key":"1","code":"ZH","name":"Zürich"},"status":"Real"},{"key":"10003190","name":"Gerensteg","postalCode":"8911","locality":"Rifferswil","commune":{"key":"12","name":"Rifferswil","shortName":"Rifferswil"},"district":{"key":"101","name":"Bezirk Affoltern"},"canton":{"key":"1","code":"ZH","name":"Zürich"},"status":"Real"},{"key":"10247590","name":"Gerenstegstrasse","postalCode":"8911","locality":"Rifferswil","commune":{"key":"12","name":"Rifferswil","shortName":"Rifferswil"},"district":{"key":"101","name":"Bezirk Affoltern"},"canton":{"key":"1","code":"ZH","name":"Zürich"},"status":"Real"},{"key":"10183515","name":"Guggenbüel","postalCode":"8911","locality":"Rifferswil","commune":{"key":"12","name":"Rifferswil","shortName":"Rifferswil"},"district":{"key":"101","name":"Bezirk Affoltern"},"canton":{"key":"1","code":"ZH","name":"Zürich"},"status":"Real"},{"key":"10111681","name":"Hägiweidstrasse","postalCode":"8911","locality":"Rifferswil","commune":{"key":"12","name":"Rifferswil","shortName":"Rifferswil"},"district":{"key":"101","name":"Bezirk Affoltern"},"canton":{"key":"1","code":"ZH","name":"Zürich"},"status":"Real"},{"key":"10062187","name":"Haselmoos","postalCode":"8911","locality":"Rifferswil","commune":{"key":"12","name":"Rifferswil","shortName":"Rifferswil"},"district":{"key":"101","name":"Bezirk Affoltern"},"canton":{"key":"1","code":"ZH","name":"Zürich"},"status":"Real"},{"key":"10073945","name":"Hauptikerstrasse","postalCode":"8911","locality":"Rifferswil","commune":{"key":"12","name":"Rifferswil","shortName":"Rifferswil"},"district":{"key":"101","name":"Bezirk Affoltern"},"canton":{"key":"1","code":"ZH","name":"Zürich"},"status":"Real"},{"key":"10054199","name":"Hauserstrasse","postalCode":"8911","locality":"Rifferswil","commune":{"key":"12","name":"Rifferswil","shortName":"Rifferswil"},"district":{"key":"101","name":"Bezirk Affoltern"},"canton":{"key":"1","code":"ZH","name":"Zürich"},"status":"Real"},{"key":"10151300","name":"Hausmatte","postalCode":"8911","locality":"Rifferswil","commune":{"key":"12","name":"Rifferswil","shortName":"Rifferswil"},"district":{"key":"101","name":"Bezirk Affoltern"},"canton":{"key":"1","code":"ZH","name":"Zürich"},"status":"Real"},{"key":"10173649","name":"Herferswilerstrasse","postalCode":"8911","locality":"Rifferswil","commune":{"key":"12","name":"Rifferswil","shortName":"Rifferswil"},"district":{"key":"101","name":"Bezirk Affoltern"},"canton":{"key":"1","code":"ZH","name":"Zürich"},"status":"Real"},{"key":"10243032","name":"Hinter-Allmend-Strasse","postalCode":"8911","locality":"Rifferswil","commune":{"key":"12","name":"Rifferswil","shortName":"Rifferswil"},"district":{"key":"101","name":"Bezirk Affoltern"},"canton":{"key":"1","code":"ZH","name":"Zürich"},"status":"Real"},{"key":"10121302","name":"Homberg","postalCode":"8911","locality":"Rifferswil","commune":{"key":"12","name":"Rifferswil","shortName":"Rifferswil"},"district":{"key":"101","name":"Bezirk Affoltern"},"canton":{"key":"1","code":"ZH","name":"Zürich"},"status":"Real"},{"key":"10062823","name":"Hombergweiden","postalCode":"8911","locality":"Rifferswil","commune":{"key":"12","name":"Rifferswil","shortName":"Rifferswil"},"district":{"key":"101","name":"Bezirk Affoltern"},"canton":{"key":"1","code":"ZH","name":"Zürich"},"status":"Real"},{"key":"10240454","name":"Hombergweidstrasse","postalCode":"8911","locality":"Rifferswil","commune":{"key":"12","name":"Rifferswil","shortName":"Rifferswil"},"district":{"key":"101","name":"Bezirk Affoltern"},"canton":{"key":"1","code":"ZH","name":"Zürich"},"status":"Real"},{"key":"10162043","name":"Hueb","postalCode":"8911","locality":"Rifferswil","commune":{"key":"12","name":"Rifferswil","shortName":"Rifferswil"},"district":{"key":"101","name":"Bezirk Affoltern"},"canton":{"key":"1","code":"ZH","name":"Zürich"},"status":"Real"},{"key":"10106304","name":"Im Aemmet","postalCode":"8911","locality":"Rifferswil","commune":{"key":"12","name":"Rifferswil","shortName":"Rifferswil"},"district":{"key":"101","name":"Bezirk Affoltern"},"canton":{"key":"1","code":"ZH","name":"Zürich"},"status":"Real"},{"key":"10189173","name":"Im Mattler","postalCode":"8911","locality":"Rifferswil","commune":{"key":"12","name":"Rifferswil","shortName":"Rifferswil"},"district":{"key":"101","name":"Bezirk Affoltern"},"canton":{"key":"1","code":"ZH","name":"Zürich"},"status":"Real"},{"key":"10003192","name":"Im Moos","postalCode":"8911","locality":"Rifferswil","commune":{"key":"12","name":"Rifferswil","shortName":"Rifferswil"},"district":{"key":"101","name":"Bezirk Affoltern"},"canton":{"key":"1","code":"ZH","name":"Zürich"},"status":"Real"},{"key":"10062824","name":"Im Winkel","postalCode":"8911","locality":"Rifferswil","commune":{"key":"12","name":"Rifferswil","shortName":"Rifferswil"},"district":{"key":"101","name":"Bezirk Affoltern"},"canton":{"key":"1","code":"ZH","name":"Zürich"},"status":"Real"},{"key":"10240453","name":"Islerenstrasse","postalCode":"8911","locality":"Rifferswil","commune":{"key":"12","name":"Rifferswil","shortName":"Rifferswil"},"district":{"key":"101","name":"Bezirk Affoltern"},"canton":{"key":"1","code":"ZH","name":"Zürich"},"status":"Real"},{"key":"10003193","name":"Jonenbachstrasse","postalCode":"8911","locality":"Rifferswil","commune":{"key":"12","name":"Rifferswil","shortName":"Rifferswil"},"district":{"key":"101","name":"Bezirk Affoltern"},"canton":{"key":"1","code":"ZH","name":"Zürich"},"status":"Real"},{"key":"10054200","name":"Jonentalstrasse","postalCode":"8911","locality":"Rifferswil","commune":{"key":"12","name":"Rifferswil","shortName":"Rifferswil"},"district":{"key":"101","name":"Bezirk Affoltern"},"canton":{"key":"1","code":"ZH","name":"Zürich"},"status":"Real"},{"key":"10073946","name":"Kappelerstrasse","postalCode":"8911","locality":"Rifferswil","commune":{"key":"12","name":"Rifferswil","shortName":"Rifferswil"},"district":{"key":"101","name":"Bezirk Affoltern"},"canton":{"key":"1","code":"ZH","name":"Zürich"},"status":"Real"},{"key":"10108000","name":"Langacher","postalCode":"8911","locality":"Rifferswil","commune":{"key":"12","name":"Rifferswil","shortName":"Rifferswil"},"district":{"key":"101","name":"Bezirk Affoltern"},"canton":{"key":"1","code":"ZH","name":"Zürich"},"status":"Real"},{"key":"10106691","name":"Lerchenhof","postalCode":"8911","locality":"Rifferswil","commune":{"key":"12","name":"Rifferswil","shortName":"Rifferswil"},"district":{"key":"101","name":"Bezirk Affoltern"},"canton":{"key":"1","code":"ZH","name":"Zürich"},"status":"Real"},{"key":"10155214","name":"Lindenhof","postalCode":"8911","locality":"Rifferswil","commune":{"key":"12","name":"Rifferswil","shortName":"Rifferswil"},"district":{"key":"101","name":"Bezirk Affoltern"},"canton":{"key":"1","code":"ZH","name":"Zürich"},"status":"Real"},{"key":"10003194","name":"Mettmenstetterstrasse","postalCode":"8911","locality":"Rifferswil","commune":{"key":"12","name":"Rifferswil","shortName":"Rifferswil"},"district":{"key":"101","name":"Bezirk Affoltern"},"canton":{"key":"1","code":"ZH","name":"Zürich"},"status":"Real"},{"key":"10247598","name":"Moosstrasse","postalCode":"8911","locality":"Rifferswil","commune":{"key":"12","name":"Rifferswil","shortName":"Rifferswil"},"district":{"key":"101","name":"Bezirk Affoltern"},"canton":{"key":"1","code":"ZH","name":"Zürich"},"status":"Real"},{"key":"10173650","name":"Mülimatt","postalCode":"8911","locality":"Rifferswil","commune":{"key":"12","name":"Rifferswil","shortName":"Rifferswil"},"district":{"key":"101","name":"Bezirk Affoltern"},"canton":{"key":"1","code":"ZH","name":"Zürich"},"status":"Real"},{"key":"10073947","name":"Pfarrhausstrasse","postalCode":"8911","locality":"Rifferswil","commune":{"key":"12","name":"Rifferswil","shortName":"Rifferswil"},"district":{"key":"101","name":"Bezirk Affoltern"},"canton":{"key":"1","code":"ZH","name":"Zürich"},"status":"Real"},{"key":"10247582","name":"Reservoirstrasse","postalCode":"8911","locality":"Rifferswil","commune":{"key":"12","name":"Rifferswil","shortName":"Rifferswil"},"district":{"key":"101","name":"Bezirk Affoltern"},"canton":{"key":"1","code":"ZH","name":"Zürich"},"status":"Real"},{"key":"10246780","name":"Rohrstrasse","postalCode":"8911","locality":"Rifferswil","commune":{"key":"12","name":"Rifferswil","shortName":"Rifferswil"},"district":{"key":"101","name":"Bezirk Affoltern"},"canton":{"key":"1","code":"ZH","name":"Zürich"},"status":"Real"},{"key":"10003195","name":"Schonau","postalCode":"8911","locality":"Rifferswil","commune":{"key":"12","name":"Rifferswil","shortName":"Rifferswil"},"district":{"key":"101","name":"Bezirk Affoltern"},"canton":{"key":"1","code":"ZH","name":"Zürich"},"status":"Real"},{"key":"10202347","name":"Seleger-Moor-Strasse","postalCode":"8911","locality":"Rifferswil","commune":{"key":"12","name":"Rifferswil","shortName":"Rifferswil"},"district":{"key":"101","name":"Bezirk Affoltern"},"canton":{"key":"1","code":"ZH","name":"Zürich"},"status":"Real"},{"key":"10099738","name":"Sennengasse","postalCode":"8911","locality":"Rifferswil","commune":{"key":"12","name":"Rifferswil","shortName":"Rifferswil"},"district":{"key":"101","name":"Bezirk Affoltern"},"canton":{"key":"1","code":"ZH","name":"Zürich"},"status":"Real"},{"key":"10118079","name":"Sidlerweid","postalCode":"8911","locality":"Rifferswil","commune":{"key":"12","name":"Rifferswil","shortName":"Rifferswil"},"district":{"key":"101","name":"Bezirk Affoltern"},"canton":{"key":"1","code":"ZH","name":"Zürich"},"status":"Real"},{"key":"10240447","name":"Sutermattenstrasse","postalCode":"8911","locality":"Rifferswil","commune":{"key":"12","name":"Rifferswil","shortName":"Rifferswil"},"district":{"key":"101","name":"Bezirk Affoltern"},"canton":{"key":"1","code":"ZH","name":"Zürich"},"status":"Real"},{"key":"10240451","name":"Torflandstrasse","postalCode":"8911","locality":"Rifferswil","commune":{"key":"12","name":"Rifferswil","shortName":"Rifferswil"},"district":{"key":"101","name":"Bezirk Affoltern"},"canton":{"key":"1","code":"ZH","name":"Zürich"},"status":"Real"},{"key":"10003196","name":"Tränkegasse","postalCode":"8911","locality":"Rifferswil","commune":{"key":"12","name":"Rifferswil","shortName":"Rifferswil"},"district":{"key":"101","name":"Bezirk Affoltern"},"canton":{"key":"1","code":"ZH","name":"Zürich"},"status":"Real"},{"key":"10240448","name":"Weidstrasse","postalCode":"8911","locality":"Rifferswil","commune":{"key":"12","name":"Rifferswil","shortName":"Rifferswil"},"district":{"key":"101","name":"Bezirk Affoltern"},"canton":{"key":"1","code":"ZH","name":"Zürich"},"status":"Real"},{"key":"10240452","name":"Wellenweidstrasse","postalCode":"8911","locality":"Rifferswil","commune":{"key":"12","name":"Rifferswil","shortName":"Rifferswil"},"district":{"key":"101","name":"Bezirk Affoltern"},"canton":{"key":"1","code":"ZH","name":"Zürich"},"status":"Real"},{"key":"10003197","name":"Zeisenbergstrasse","postalCode":"8911","locality":"Rifferswil","commune":{"key":"12","name":"Rifferswil","shortName":"Rifferswil"},"district":{"key":"101","name":"Bezirk Affoltern"},"canton":{"key":"1","code":"ZH","name":"Zürich"},"status":"Real"},]