[{"name":"Alte Gärtnerei","postalCode":"14778","locality":"Päwesin","municipality":{"key":"12069460","name":"Päwesin","type":"Kreisangehörige_Gemeinde"},"district":{"key":"12069","name":"Potsdam-Mittelmark","type":"Landkreis"},"federalState":{"key":"12","name":"Brandenburg"}},{"name":"Alte Ziegelei","postalCode":"14778","locality":"Päwesin","municipality":{"key":"12069460","name":"Päwesin","type":"Kreisangehörige_Gemeinde"},"district":{"key":"12069","name":"Potsdam-Mittelmark","type":"Landkreis"},"federalState":{"key":"12","name":"Brandenburg"}},{"name":"Apfelweg","postalCode":"14778","locality":"Päwesin","municipality":{"key":"12069460","name":"Päwesin","type":"Kreisangehörige_Gemeinde"},"district":{"key":"12069","name":"Potsdam-Mittelmark","type":"Landkreis"},"federalState":{"key":"12","name":"Brandenburg"}},{"name":"Bagower Dorfstr.","postalCode":"14778","locality":"Päwesin","municipality":{"key":"12069460","name":"Päwesin","type":"Kreisangehörige_Gemeinde"},"district":{"key":"12069","name":"Potsdam-Mittelmark","type":"Landkreis"},"federalState":{"key":"12","name":"Brandenburg"}},{"name":"Bahnhofstr.","postalCode":"14778","locality":"Päwesin","municipality":{"key":"12069460","name":"Päwesin","type":"Kreisangehörige_Gemeinde"},"district":{"key":"12069","name":"Potsdam-Mittelmark","type":"Landkreis"},"federalState":{"key":"12","name":"Brandenburg"}},{"name":"Bollmannsruh","postalCode":"14778","locality":"Päwesin","municipality":{"key":"12069460","name":"Päwesin","type":"Kreisangehörige_Gemeinde"},"district":{"key":"12069","name":"Potsdam-Mittelmark","type":"Landkreis"},"federalState":{"key":"12","name":"Brandenburg"}},{"name":"Brandenburger Str.","postalCode":"14778","locality":"Päwesin","municipality":{"key":"12069460","name":"Päwesin","type":"Kreisangehörige_Gemeinde"},"district":{"key":"12069","name":"Potsdam-Mittelmark","type":"Landkreis"},"federalState":{"key":"12","name":"Brandenburg"}},{"name":"Bruchsee","postalCode":"14778","locality":"Päwesin","municipality":{"key":"12069460","name":"Päwesin","type":"Kreisangehörige_Gemeinde"},"district":{"key":"12069","name":"Potsdam-Mittelmark","type":"Landkreis"},"federalState":{"key":"12","name":"Brandenburg"}},{"name":"Fischerstr.","postalCode":"14778","locality":"Päwesin","municipality":{"key":"12069460","name":"Päwesin","type":"Kreisangehörige_Gemeinde"},"district":{"key":"12069","name":"Potsdam-Mittelmark","type":"Landkreis"},"federalState":{"key":"12","name":"Brandenburg"}},{"name":"Gortzer Weg","postalCode":"14778","locality":"Päwesin","municipality":{"key":"12069460","name":"Päwesin","type":"Kreisangehörige_Gemeinde"},"district":{"key":"12069","name":"Potsdam-Mittelmark","type":"Landkreis"},"federalState":{"key":"12","name":"Brandenburg"}},{"name":"Kirchplatz","postalCode":"14778","locality":"Päwesin","municipality":{"key":"12069460","name":"Päwesin","type":"Kreisangehörige_Gemeinde"},"district":{"key":"12069","name":"Potsdam-Mittelmark","type":"Landkreis"},"federalState":{"key":"12","name":"Brandenburg"}},{"name":"Linder Weg","postalCode":"14778","locality":"Päwesin","municipality":{"key":"12069460","name":"Päwesin","type":"Kreisangehörige_Gemeinde"},"district":{"key":"12069","name":"Potsdam-Mittelmark","type":"Landkreis"},"federalState":{"key":"12","name":"Brandenburg"}},{"name":"Nauener Weg","postalCode":"14778","locality":"Päwesin","municipality":{"key":"12069460","name":"Päwesin","type":"Kreisangehörige_Gemeinde"},"district":{"key":"12069","name":"Potsdam-Mittelmark","type":"Landkreis"},"federalState":{"key":"12","name":"Brandenburg"}},{"name":"Schulstr.","postalCode":"14778","locality":"Päwesin","municipality":{"key":"12069460","name":"Päwesin","type":"Kreisangehörige_Gemeinde"},"district":{"key":"12069","name":"Potsdam-Mittelmark","type":"Landkreis"},"federalState":{"key":"12","name":"Brandenburg"}},{"name":"Vogelgesang","postalCode":"14778","locality":"Päwesin","municipality":{"key":"12069460","name":"Päwesin","type":"Kreisangehörige_Gemeinde"},"district":{"key":"12069","name":"Potsdam-Mittelmark","type":"Landkreis"},"federalState":{"key":"12","name":"Brandenburg"}},{"name":"zum Riewendsee","postalCode":"14778","locality":"Päwesin","municipality":{"key":"12069460","name":"Päwesin","type":"Kreisangehörige_Gemeinde"},"district":{"key":"12069","name":"Potsdam-Mittelmark","type":"Landkreis"},"federalState":{"key":"12","name":"Brandenburg"}},]