[{"name":"Ahornweg","postalCode":"74847","locality":"Obrigheim","municipality":{"key":"08225074","name":"Obrigheim","type":"Kreisangehörige_Gemeinde"},"district":{"key":"08225","name":"Neckar-Odenwald-Kreis","type":"Landkreis"},"federalState":{"key":"08","name":"Baden-Württemberg"}},{"name":"Akazienweg","postalCode":"67283","locality":"Obrigheim (Pfalz)","municipality":{"key":"07332041","name":"Obrigheim (Pfalz)","type":"Kreisangehörige_Gemeinde"},"district":{"key":"07332","name":"Bad Dürkheim","type":"Landkreis"},"federalState":{"key":"07","name":"Rheinland-Pfalz"}},{"name":"Akazienweg","postalCode":"74847","locality":"Obrigheim","municipality":{"key":"08225074","name":"Obrigheim","type":"Kreisangehörige_Gemeinde"},"district":{"key":"08225","name":"Neckar-Odenwald-Kreis","type":"Landkreis"},"federalState":{"key":"08","name":"Baden-Württemberg"}},{"name":"Albsheimer Hauptstr.","postalCode":"67283","locality":"Obrigheim (Pfalz)","municipality":{"key":"07332041","name":"Obrigheim (Pfalz)","type":"Kreisangehörige_Gemeinde"},"district":{"key":"07332","name":"Bad Dürkheim","type":"Landkreis"},"federalState":{"key":"07","name":"Rheinland-Pfalz"}},{"name":"Alte Kälbertshäuser Str.","postalCode":"74847","locality":"Obrigheim","municipality":{"key":"08225074","name":"Obrigheim","type":"Kreisangehörige_Gemeinde"},"district":{"key":"08225","name":"Neckar-Odenwald-Kreis","type":"Landkreis"},"federalState":{"key":"08","name":"Baden-Württemberg"}},{"name":"Alter Berg","postalCode":"74847","locality":"Obrigheim","municipality":{"key":"08225074","name":"Obrigheim","type":"Kreisangehörige_Gemeinde"},"district":{"key":"08225","name":"Neckar-Odenwald-Kreis","type":"Landkreis"},"federalState":{"key":"08","name":"Baden-Württemberg"}},{"name":"Alte Schulgasse","postalCode":"74847","locality":"Obrigheim","municipality":{"key":"08225074","name":"Obrigheim","type":"Kreisangehörige_Gemeinde"},"district":{"key":"08225","name":"Neckar-Odenwald-Kreis","type":"Landkreis"},"federalState":{"key":"08","name":"Baden-Württemberg"}},{"name":"Alte Wimpfener Str.","postalCode":"74847","locality":"Obrigheim","municipality":{"key":"08225074","name":"Obrigheim","type":"Kreisangehörige_Gemeinde"},"district":{"key":"08225","name":"Neckar-Odenwald-Kreis","type":"Landkreis"},"federalState":{"key":"08","name":"Baden-Württemberg"}},{"name":"Alte Ziegelei","postalCode":"67283","locality":"Obrigheim (Pfalz)","municipality":{"key":"07332041","name":"Obrigheim (Pfalz)","type":"Kreisangehörige_Gemeinde"},"district":{"key":"07332","name":"Bad Dürkheim","type":"Landkreis"},"federalState":{"key":"07","name":"Rheinland-Pfalz"}},{"name":"Am Bahnhof","postalCode":"74847","locality":"Obrigheim","municipality":{"key":"08225074","name":"Obrigheim","type":"Kreisangehörige_Gemeinde"},"district":{"key":"08225","name":"Neckar-Odenwald-Kreis","type":"Landkreis"},"federalState":{"key":"08","name":"Baden-Württemberg"}},{"name":"Am Dorf","postalCode":"67283","locality":"Obrigheim (Pfalz)","municipality":{"key":"07332041","name":"Obrigheim (Pfalz)","type":"Kreisangehörige_Gemeinde"},"district":{"key":"07332","name":"Bad Dürkheim","type":"Landkreis"},"federalState":{"key":"07","name":"Rheinland-Pfalz"}},{"name":"Am Geisrain","postalCode":"74847","locality":"Obrigheim","municipality":{"key":"08225074","name":"Obrigheim","type":"Kreisangehörige_Gemeinde"},"district":{"key":"08225","name":"Neckar-Odenwald-Kreis","type":"Landkreis"},"federalState":{"key":"08","name":"Baden-Württemberg"}},{"name":"Am Kirchplatz","postalCode":"74847","locality":"Obrigheim","municipality":{"key":"08225074","name":"Obrigheim","type":"Kreisangehörige_Gemeinde"},"district":{"key":"08225","name":"Neckar-Odenwald-Kreis","type":"Landkreis"},"federalState":{"key":"08","name":"Baden-Württemberg"}},{"name":"Am Park","postalCode":"74847","locality":"Obrigheim","municipality":{"key":"08225074","name":"Obrigheim","type":"Kreisangehörige_Gemeinde"},"district":{"key":"08225","name":"Neckar-Odenwald-Kreis","type":"Landkreis"},"federalState":{"key":"08","name":"Baden-Württemberg"}},{"name":"Am Römischen Pfad","postalCode":"67283","locality":"Obrigheim (Pfalz)","municipality":{"key":"07332041","name":"Obrigheim (Pfalz)","type":"Kreisangehörige_Gemeinde"},"district":{"key":"07332","name":"Bad Dürkheim","type":"Landkreis"},"federalState":{"key":"07","name":"Rheinland-Pfalz"}},{"name":"Am Steigeneck","postalCode":"74847","locality":"Obrigheim","municipality":{"key":"08225074","name":"Obrigheim","type":"Kreisangehörige_Gemeinde"},"district":{"key":"08225","name":"Neckar-Odenwald-Kreis","type":"Landkreis"},"federalState":{"key":"08","name":"Baden-Württemberg"}},{"name":"Am Teich","postalCode":"74847","locality":"Obrigheim","municipality":{"key":"08225074","name":"Obrigheim","type":"Kreisangehörige_Gemeinde"},"district":{"key":"08225","name":"Neckar-Odenwald-Kreis","type":"Landkreis"},"federalState":{"key":"08","name":"Baden-Württemberg"}},{"name":"Auweg","postalCode":"74847","locality":"Obrigheim","municipality":{"key":"08225074","name":"Obrigheim","type":"Kreisangehörige_Gemeinde"},"district":{"key":"08225","name":"Neckar-Odenwald-Kreis","type":"Landkreis"},"federalState":{"key":"08","name":"Baden-Württemberg"}},{"name":"Bachstr.","postalCode":"74847","locality":"Obrigheim","municipality":{"key":"08225074","name":"Obrigheim","type":"Kreisangehörige_Gemeinde"},"district":{"key":"08225","name":"Neckar-Odenwald-Kreis","type":"Landkreis"},"federalState":{"key":"08","name":"Baden-Württemberg"}},{"name":"Bahnhofstr.","postalCode":"67283","locality":"Obrigheim (Pfalz)","municipality":{"key":"07332041","name":"Obrigheim (Pfalz)","type":"Kreisangehörige_Gemeinde"},"district":{"key":"07332","name":"Bad Dürkheim","type":"Landkreis"},"federalState":{"key":"07","name":"Rheinland-Pfalz"}},{"name":"Bargener Str.","postalCode":"74847","locality":"Obrigheim","municipality":{"key":"08225074","name":"Obrigheim","type":"Kreisangehörige_Gemeinde"},"district":{"key":"08225","name":"Neckar-Odenwald-Kreis","type":"Landkreis"},"federalState":{"key":"08","name":"Baden-Württemberg"}},{"name":"Beethovenstr.","postalCode":"67283","locality":"Obrigheim (Pfalz)","municipality":{"key":"07332041","name":"Obrigheim (Pfalz)","type":"Kreisangehörige_Gemeinde"},"district":{"key":"07332","name":"Bad Dürkheim","type":"Landkreis"},"federalState":{"key":"07","name":"Rheinland-Pfalz"}},{"name":"Beethovenstr.","postalCode":"74847","locality":"Obrigheim","municipality":{"key":"08225074","name":"Obrigheim","type":"Kreisangehörige_Gemeinde"},"district":{"key":"08225","name":"Neckar-Odenwald-Kreis","type":"Landkreis"},"federalState":{"key":"08","name":"Baden-Württemberg"}},{"name":"Bergstr.","postalCode":"74847","locality":"Obrigheim","municipality":{"key":"08225074","name":"Obrigheim","type":"Kreisangehörige_Gemeinde"},"district":{"key":"08225","name":"Neckar-Odenwald-Kreis","type":"Landkreis"},"federalState":{"key":"08","name":"Baden-Württemberg"}},{"name":"Bertasruhweg","postalCode":"74847","locality":"Obrigheim","municipality":{"key":"08225074","name":"Obrigheim","type":"Kreisangehörige_Gemeinde"},"district":{"key":"08225","name":"Neckar-Odenwald-Kreis","type":"Landkreis"},"federalState":{"key":"08","name":"Baden-Württemberg"}},{"name":"Bickeldornlochweg","postalCode":"74847","locality":"Obrigheim","municipality":{"key":"08225074","name":"Obrigheim","type":"Kreisangehörige_Gemeinde"},"district":{"key":"08225","name":"Neckar-Odenwald-Kreis","type":"Landkreis"},"federalState":{"key":"08","name":"Baden-Württemberg"}},{"name":"Birkenstr.","postalCode":"74847","locality":"Obrigheim","municipality":{"key":"08225074","name":"Obrigheim","type":"Kreisangehörige_Gemeinde"},"district":{"key":"08225","name":"Neckar-Odenwald-Kreis","type":"Landkreis"},"federalState":{"key":"08","name":"Baden-Württemberg"}},{"name":"Birkenweg","postalCode":"67283","locality":"Obrigheim (Pfalz)","municipality":{"key":"07332041","name":"Obrigheim (Pfalz)","type":"Kreisangehörige_Gemeinde"},"district":{"key":"07332","name":"Bad Dürkheim","type":"Landkreis"},"federalState":{"key":"07","name":"Rheinland-Pfalz"}},{"name":"Blumenweg","postalCode":"74847","locality":"Obrigheim","municipality":{"key":"08225074","name":"Obrigheim","type":"Kreisangehörige_Gemeinde"},"district":{"key":"08225","name":"Neckar-Odenwald-Kreis","type":"Landkreis"},"federalState":{"key":"08","name":"Baden-Württemberg"}},{"name":"Blütenweg","postalCode":"74847","locality":"Obrigheim","municipality":{"key":"08225074","name":"Obrigheim","type":"Kreisangehörige_Gemeinde"},"district":{"key":"08225","name":"Neckar-Odenwald-Kreis","type":"Landkreis"},"federalState":{"key":"08","name":"Baden-Württemberg"}},{"name":"Bockenheimer Str.","postalCode":"67283","locality":"Obrigheim (Pfalz)","municipality":{"key":"07332041","name":"Obrigheim (Pfalz)","type":"Kreisangehörige_Gemeinde"},"district":{"key":"07332","name":"Bad Dürkheim","type":"Landkreis"},"federalState":{"key":"07","name":"Rheinland-Pfalz"}},{"name":"Bockenheimer Weg","postalCode":"67283","locality":"Obrigheim (Pfalz)","municipality":{"key":"07332041","name":"Obrigheim (Pfalz)","type":"Kreisangehörige_Gemeinde"},"district":{"key":"07332","name":"Bad Dürkheim","type":"Landkreis"},"federalState":{"key":"07","name":"Rheinland-Pfalz"}},{"name":"Breitenbronner Str.","postalCode":"74847","locality":"Obrigheim","municipality":{"key":"08225074","name":"Obrigheim","type":"Kreisangehörige_Gemeinde"},"district":{"key":"08225","name":"Neckar-Odenwald-Kreis","type":"Landkreis"},"federalState":{"key":"08","name":"Baden-Württemberg"}},{"name":"Brunnengasse","postalCode":"74847","locality":"Obrigheim","municipality":{"key":"08225074","name":"Obrigheim","type":"Kreisangehörige_Gemeinde"},"district":{"key":"08225","name":"Neckar-Odenwald-Kreis","type":"Landkreis"},"federalState":{"key":"08","name":"Baden-Württemberg"}},{"name":"Buchenweg","postalCode":"67283","locality":"Obrigheim (Pfalz)","municipality":{"key":"07332041","name":"Obrigheim (Pfalz)","type":"Kreisangehörige_Gemeinde"},"district":{"key":"07332","name":"Bad Dürkheim","type":"Landkreis"},"federalState":{"key":"07","name":"Rheinland-Pfalz"}},{"name":"Buchenweg","postalCode":"74847","locality":"Obrigheim","municipality":{"key":"08225074","name":"Obrigheim","type":"Kreisangehörige_Gemeinde"},"district":{"key":"08225","name":"Neckar-Odenwald-Kreis","type":"Landkreis"},"federalState":{"key":"08","name":"Baden-Württemberg"}},{"name":"Buchwaldstr.","postalCode":"74847","locality":"Obrigheim","municipality":{"key":"08225074","name":"Obrigheim","type":"Kreisangehörige_Gemeinde"},"district":{"key":"08225","name":"Neckar-Odenwald-Kreis","type":"Landkreis"},"federalState":{"key":"08","name":"Baden-Württemberg"}},{"name":"Burggasse","postalCode":"74847","locality":"Obrigheim","municipality":{"key":"08225074","name":"Obrigheim","type":"Kreisangehörige_Gemeinde"},"district":{"key":"08225","name":"Neckar-Odenwald-Kreis","type":"Landkreis"},"federalState":{"key":"08","name":"Baden-Württemberg"}},{"name":"Campertweg","postalCode":"74847","locality":"Obrigheim","municipality":{"key":"08225074","name":"Obrigheim","type":"Kreisangehörige_Gemeinde"},"district":{"key":"08225","name":"Neckar-Odenwald-Kreis","type":"Landkreis"},"federalState":{"key":"08","name":"Baden-Württemberg"}},{"name":"Centgasse","postalCode":"74847","locality":"Obrigheim","municipality":{"key":"08225074","name":"Obrigheim","type":"Kreisangehörige_Gemeinde"},"district":{"key":"08225","name":"Neckar-Odenwald-Kreis","type":"Landkreis"},"federalState":{"key":"08","name":"Baden-Württemberg"}},{"name":"Colgensteiner Bahnhofstr.","postalCode":"67283","locality":"Obrigheim (Pfalz)","municipality":{"key":"07332041","name":"Obrigheim (Pfalz)","type":"Kreisangehörige_Gemeinde"},"district":{"key":"07332","name":"Bad Dürkheim","type":"Landkreis"},"federalState":{"key":"07","name":"Rheinland-Pfalz"}},{"name":"Deichelweg","postalCode":"74847","locality":"Obrigheim","municipality":{"key":"08225074","name":"Obrigheim","type":"Kreisangehörige_Gemeinde"},"district":{"key":"08225","name":"Neckar-Odenwald-Kreis","type":"Landkreis"},"federalState":{"key":"08","name":"Baden-Württemberg"}},{"name":"Dirmsteiner Weg","postalCode":"67283","locality":"Obrigheim (Pfalz)","municipality":{"key":"07332041","name":"Obrigheim (Pfalz)","type":"Kreisangehörige_Gemeinde"},"district":{"key":"07332","name":"Bad Dürkheim","type":"Landkreis"},"federalState":{"key":"07","name":"Rheinland-Pfalz"}},{"name":"Dornschlagweg","postalCode":"74847","locality":"Obrigheim","municipality":{"key":"08225074","name":"Obrigheim","type":"Kreisangehörige_Gemeinde"},"district":{"key":"08225","name":"Neckar-Odenwald-Kreis","type":"Landkreis"},"federalState":{"key":"08","name":"Baden-Württemberg"}},{"name":"Drosselweg","postalCode":"74847","locality":"Obrigheim","municipality":{"key":"08225074","name":"Obrigheim","type":"Kreisangehörige_Gemeinde"},"district":{"key":"08225","name":"Neckar-Odenwald-Kreis","type":"Landkreis"},"federalState":{"key":"08","name":"Baden-Württemberg"}},{"name":"Ebertsgarten","postalCode":"74847","locality":"Obrigheim","municipality":{"key":"08225074","name":"Obrigheim","type":"Kreisangehörige_Gemeinde"},"district":{"key":"08225","name":"Neckar-Odenwald-Kreis","type":"Landkreis"},"federalState":{"key":"08","name":"Baden-Württemberg"}},{"name":"Eichendorffstr.","postalCode":"74847","locality":"Obrigheim","municipality":{"key":"08225074","name":"Obrigheim","type":"Kreisangehörige_Gemeinde"},"district":{"key":"08225","name":"Neckar-Odenwald-Kreis","type":"Landkreis"},"federalState":{"key":"08","name":"Baden-Württemberg"}},{"name":"Eichenweg","postalCode":"67283","locality":"Obrigheim (Pfalz)","municipality":{"key":"07332041","name":"Obrigheim (Pfalz)","type":"Kreisangehörige_Gemeinde"},"district":{"key":"07332","name":"Bad Dürkheim","type":"Landkreis"},"federalState":{"key":"07","name":"Rheinland-Pfalz"}},{"name":"Eichenweg","postalCode":"74847","locality":"Obrigheim","municipality":{"key":"08225074","name":"Obrigheim","type":"Kreisangehörige_Gemeinde"},"district":{"key":"08225","name":"Neckar-Odenwald-Kreis","type":"Landkreis"},"federalState":{"key":"08","name":"Baden-Württemberg"}},{"name":"Eisenbahnstr.","postalCode":"74847","locality":"Obrigheim","municipality":{"key":"08225074","name":"Obrigheim","type":"Kreisangehörige_Gemeinde"},"district":{"key":"08225","name":"Neckar-Odenwald-Kreis","type":"Landkreis"},"federalState":{"key":"08","name":"Baden-Württemberg"}},{"name":"Eisengasse","postalCode":"74847","locality":"Obrigheim","municipality":{"key":"08225074","name":"Obrigheim","type":"Kreisangehörige_Gemeinde"},"district":{"key":"08225","name":"Neckar-Odenwald-Kreis","type":"Landkreis"},"federalState":{"key":"08","name":"Baden-Württemberg"}},{"name":"Erlenweg","postalCode":"74847","locality":"Obrigheim","municipality":{"key":"08225074","name":"Obrigheim","type":"Kreisangehörige_Gemeinde"},"district":{"key":"08225","name":"Neckar-Odenwald-Kreis","type":"Landkreis"},"federalState":{"key":"08","name":"Baden-Württemberg"}},{"name":"Erlesrainweg","postalCode":"74847","locality":"Obrigheim","municipality":{"key":"08225074","name":"Obrigheim","type":"Kreisangehörige_Gemeinde"},"district":{"key":"08225","name":"Neckar-Odenwald-Kreis","type":"Landkreis"},"federalState":{"key":"08","name":"Baden-Württemberg"}},{"name":"Eschenweg","postalCode":"74847","locality":"Obrigheim","municipality":{"key":"08225074","name":"Obrigheim","type":"Kreisangehörige_Gemeinde"},"district":{"key":"08225","name":"Neckar-Odenwald-Kreis","type":"Landkreis"},"federalState":{"key":"08","name":"Baden-Württemberg"}},{"name":"Espenpfad","postalCode":"74847","locality":"Obrigheim","municipality":{"key":"08225074","name":"Obrigheim","type":"Kreisangehörige_Gemeinde"},"district":{"key":"08225","name":"Neckar-Odenwald-Kreis","type":"Landkreis"},"federalState":{"key":"08","name":"Baden-Württemberg"}},{"name":"Fichtenweg","postalCode":"74847","locality":"Obrigheim","municipality":{"key":"08225074","name":"Obrigheim","type":"Kreisangehörige_Gemeinde"},"district":{"key":"08225","name":"Neckar-Odenwald-Kreis","type":"Landkreis"},"federalState":{"key":"08","name":"Baden-Württemberg"}},{"name":"Finkenhofweg","postalCode":"74847","locality":"Obrigheim","municipality":{"key":"08225074","name":"Obrigheim","type":"Kreisangehörige_Gemeinde"},"district":{"key":"08225","name":"Neckar-Odenwald-Kreis","type":"Landkreis"},"federalState":{"key":"08","name":"Baden-Württemberg"}},{"name":"Finkenweg","postalCode":"74847","locality":"Obrigheim","municipality":{"key":"08225074","name":"Obrigheim","type":"Kreisangehörige_Gemeinde"},"district":{"key":"08225","name":"Neckar-Odenwald-Kreis","type":"Landkreis"},"federalState":{"key":"08","name":"Baden-Württemberg"}},{"name":"Fliederstr.","postalCode":"74847","locality":"Obrigheim","municipality":{"key":"08225074","name":"Obrigheim","type":"Kreisangehörige_Gemeinde"},"district":{"key":"08225","name":"Neckar-Odenwald-Kreis","type":"Landkreis"},"federalState":{"key":"08","name":"Baden-Württemberg"}},{"name":"Friedhofstr.","postalCode":"74847","locality":"Obrigheim","municipality":{"key":"08225074","name":"Obrigheim","type":"Kreisangehörige_Gemeinde"},"district":{"key":"08225","name":"Neckar-Odenwald-Kreis","type":"Landkreis"},"federalState":{"key":"08","name":"Baden-Württemberg"}},{"name":"Friedhofweg","postalCode":"67283","locality":"Obrigheim (Pfalz)","municipality":{"key":"07332041","name":"Obrigheim (Pfalz)","type":"Kreisangehörige_Gemeinde"},"district":{"key":"07332","name":"Bad Dürkheim","type":"Landkreis"},"federalState":{"key":"07","name":"Rheinland-Pfalz"}},{"name":"Friedrich-Ebert-Str.","postalCode":"74847","locality":"Obrigheim","municipality":{"key":"08225074","name":"Obrigheim","type":"Kreisangehörige_Gemeinde"},"district":{"key":"08225","name":"Neckar-Odenwald-Kreis","type":"Landkreis"},"federalState":{"key":"08","name":"Baden-Württemberg"}},{"name":"Fuchsenlochweg","postalCode":"74847","locality":"Obrigheim","municipality":{"key":"08225074","name":"Obrigheim","type":"Kreisangehörige_Gemeinde"},"district":{"key":"08225","name":"Neckar-Odenwald-Kreis","type":"Landkreis"},"federalState":{"key":"08","name":"Baden-Württemberg"}},{"name":"Gänseweg","postalCode":"67283","locality":"Obrigheim (Pfalz)","municipality":{"key":"07332041","name":"Obrigheim (Pfalz)","type":"Kreisangehörige_Gemeinde"},"district":{"key":"07332","name":"Bad Dürkheim","type":"Landkreis"},"federalState":{"key":"07","name":"Rheinland-Pfalz"}},{"name":"Gartenweg","postalCode":"74847","locality":"Obrigheim","municipality":{"key":"08225074","name":"Obrigheim","type":"Kreisangehörige_Gemeinde"},"district":{"key":"08225","name":"Neckar-Odenwald-Kreis","type":"Landkreis"},"federalState":{"key":"08","name":"Baden-Württemberg"}},{"name":"Gasseweg","postalCode":"67283","locality":"Obrigheim (Pfalz)","municipality":{"key":"07332041","name":"Obrigheim (Pfalz)","type":"Kreisangehörige_Gemeinde"},"district":{"key":"07332","name":"Bad Dürkheim","type":"Landkreis"},"federalState":{"key":"07","name":"Rheinland-Pfalz"}},{"name":"Goethestr.","postalCode":"67283","locality":"Obrigheim (Pfalz)","municipality":{"key":"07332041","name":"Obrigheim (Pfalz)","type":"Kreisangehörige_Gemeinde"},"district":{"key":"07332","name":"Bad Dürkheim","type":"Landkreis"},"federalState":{"key":"07","name":"Rheinland-Pfalz"}},{"name":"Goethestr.","postalCode":"74847","locality":"Obrigheim","municipality":{"key":"08225074","name":"Obrigheim","type":"Kreisangehörige_Gemeinde"},"district":{"key":"08225","name":"Neckar-Odenwald-Kreis","type":"Landkreis"},"federalState":{"key":"08","name":"Baden-Württemberg"}},{"name":"Große Gärten","postalCode":"74847","locality":"Obrigheim","municipality":{"key":"08225074","name":"Obrigheim","type":"Kreisangehörige_Gemeinde"},"district":{"key":"08225","name":"Neckar-Odenwald-Kreis","type":"Landkreis"},"federalState":{"key":"08","name":"Baden-Württemberg"}},{"name":"Große Hohl","postalCode":"67283","locality":"Obrigheim (Pfalz)","municipality":{"key":"07332041","name":"Obrigheim (Pfalz)","type":"Kreisangehörige_Gemeinde"},"district":{"key":"07332","name":"Bad Dürkheim","type":"Landkreis"},"federalState":{"key":"07","name":"Rheinland-Pfalz"}},{"name":"Grünstädter Str.","postalCode":"67283","locality":"Obrigheim (Pfalz)","municipality":{"key":"07332041","name":"Obrigheim (Pfalz)","type":"Kreisangehörige_Gemeinde"},"district":{"key":"07332","name":"Bad Dürkheim","type":"Landkreis"},"federalState":{"key":"07","name":"Rheinland-Pfalz"}},{"name":"Grünungsbuckelweg","postalCode":"74847","locality":"Obrigheim","municipality":{"key":"08225074","name":"Obrigheim","type":"Kreisangehörige_Gemeinde"},"district":{"key":"08225","name":"Neckar-Odenwald-Kreis","type":"Landkreis"},"federalState":{"key":"08","name":"Baden-Württemberg"}},{"name":"Gumpenweg","postalCode":"74847","locality":"Obrigheim","municipality":{"key":"08225074","name":"Obrigheim","type":"Kreisangehörige_Gemeinde"},"district":{"key":"08225","name":"Neckar-Odenwald-Kreis","type":"Landkreis"},"federalState":{"key":"08","name":"Baden-Württemberg"}},{"name":"Haderheckeweg","postalCode":"74847","locality":"Obrigheim","municipality":{"key":"08225074","name":"Obrigheim","type":"Kreisangehörige_Gemeinde"},"district":{"key":"08225","name":"Neckar-Odenwald-Kreis","type":"Landkreis"},"federalState":{"key":"08","name":"Baden-Württemberg"}},{"name":"Hagebuttenweg","postalCode":"74847","locality":"Obrigheim","municipality":{"key":"08225074","name":"Obrigheim","type":"Kreisangehörige_Gemeinde"},"district":{"key":"08225","name":"Neckar-Odenwald-Kreis","type":"Landkreis"},"federalState":{"key":"08","name":"Baden-Württemberg"}},{"name":"Hainbuchenweg","postalCode":"74847","locality":"Obrigheim","municipality":{"key":"08225074","name":"Obrigheim","type":"Kreisangehörige_Gemeinde"},"district":{"key":"08225","name":"Neckar-Odenwald-Kreis","type":"Landkreis"},"federalState":{"key":"08","name":"Baden-Württemberg"}},{"name":"Hans-Stein-Siedlung","postalCode":"67283","locality":"Obrigheim (Pfalz)","municipality":{"key":"07332041","name":"Obrigheim (Pfalz)","type":"Kreisangehörige_Gemeinde"},"district":{"key":"07332","name":"Bad Dürkheim","type":"Landkreis"},"federalState":{"key":"07","name":"Rheinland-Pfalz"}},{"name":"Haselnussweg","postalCode":"74847","locality":"Obrigheim","municipality":{"key":"08225074","name":"Obrigheim","type":"Kreisangehörige_Gemeinde"},"district":{"key":"08225","name":"Neckar-Odenwald-Kreis","type":"Landkreis"},"federalState":{"key":"08","name":"Baden-Württemberg"}},{"name":"Hauptstr.","postalCode":"67283","locality":"Obrigheim (Pfalz)","municipality":{"key":"07332041","name":"Obrigheim (Pfalz)","type":"Kreisangehörige_Gemeinde"},"district":{"key":"07332","name":"Bad Dürkheim","type":"Landkreis"},"federalState":{"key":"07","name":"Rheinland-Pfalz"}},{"name":"Hauptstr.","postalCode":"74847","locality":"Obrigheim","municipality":{"key":"08225074","name":"Obrigheim","type":"Kreisangehörige_Gemeinde"},"district":{"key":"08225","name":"Neckar-Odenwald-Kreis","type":"Landkreis"},"federalState":{"key":"08","name":"Baden-Württemberg"}},{"name":"Haydnstr.","postalCode":"67283","locality":"Obrigheim (Pfalz)","municipality":{"key":"07332041","name":"Obrigheim (Pfalz)","type":"Kreisangehörige_Gemeinde"},"district":{"key":"07332","name":"Bad Dürkheim","type":"Landkreis"},"federalState":{"key":"07","name":"Rheinland-Pfalz"}},{"name":"Heidesheimer Hauptstr.","postalCode":"67283","locality":"Obrigheim (Pfalz)","municipality":{"key":"07332041","name":"Obrigheim (Pfalz)","type":"Kreisangehörige_Gemeinde"},"district":{"key":"07332","name":"Bad Dürkheim","type":"Landkreis"},"federalState":{"key":"07","name":"Rheinland-Pfalz"}},{"name":"Heidesheimer Str.","postalCode":"67283","locality":"Obrigheim (Pfalz)","municipality":{"key":"07332041","name":"Obrigheim (Pfalz)","type":"Kreisangehörige_Gemeinde"},"district":{"key":"07332","name":"Bad Dürkheim","type":"Landkreis"},"federalState":{"key":"07","name":"Rheinland-Pfalz"}},{"name":"Heitersgasse","postalCode":"74847","locality":"Obrigheim","municipality":{"key":"08225074","name":"Obrigheim","type":"Kreisangehörige_Gemeinde"},"district":{"key":"08225","name":"Neckar-Odenwald-Kreis","type":"Landkreis"},"federalState":{"key":"08","name":"Baden-Württemberg"}},{"name":"Hesselweg","postalCode":"67283","locality":"Obrigheim (Pfalz)","municipality":{"key":"07332041","name":"Obrigheim (Pfalz)","type":"Kreisangehörige_Gemeinde"},"district":{"key":"07332","name":"Bad Dürkheim","type":"Landkreis"},"federalState":{"key":"07","name":"Rheinland-Pfalz"}},{"name":"Hexenweg","postalCode":"74847","locality":"Obrigheim","municipality":{"key":"08225074","name":"Obrigheim","type":"Kreisangehörige_Gemeinde"},"district":{"key":"08225","name":"Neckar-Odenwald-Kreis","type":"Landkreis"},"federalState":{"key":"08","name":"Baden-Württemberg"}},{"name":"Hinter den Häusern","postalCode":"67283","locality":"Obrigheim (Pfalz)","municipality":{"key":"07332041","name":"Obrigheim (Pfalz)","type":"Kreisangehörige_Gemeinde"},"district":{"key":"07332","name":"Bad Dürkheim","type":"Landkreis"},"federalState":{"key":"07","name":"Rheinland-Pfalz"}},{"name":"Hochhäuser Str.","postalCode":"74847","locality":"Obrigheim","municipality":{"key":"08225074","name":"Obrigheim","type":"Kreisangehörige_Gemeinde"},"district":{"key":"08225","name":"Neckar-Odenwald-Kreis","type":"Landkreis"},"federalState":{"key":"08","name":"Baden-Württemberg"}},{"name":"Holunderweg","postalCode":"74847","locality":"Obrigheim","municipality":{"key":"08225074","name":"Obrigheim","type":"Kreisangehörige_Gemeinde"},"district":{"key":"08225","name":"Neckar-Odenwald-Kreis","type":"Landkreis"},"federalState":{"key":"08","name":"Baden-Württemberg"}},{"name":"Hüttenweg","postalCode":"74847","locality":"Obrigheim","municipality":{"key":"08225074","name":"Obrigheim","type":"Kreisangehörige_Gemeinde"},"district":{"key":"08225","name":"Neckar-Odenwald-Kreis","type":"Landkreis"},"federalState":{"key":"08","name":"Baden-Württemberg"}},{"name":"Im Baumgarten","postalCode":"67283","locality":"Obrigheim (Pfalz)","municipality":{"key":"07332041","name":"Obrigheim (Pfalz)","type":"Kreisangehörige_Gemeinde"},"district":{"key":"07332","name":"Bad Dürkheim","type":"Landkreis"},"federalState":{"key":"07","name":"Rheinland-Pfalz"}},{"name":"Im Bernhardsgrund","postalCode":"74847","locality":"Obrigheim","municipality":{"key":"08225074","name":"Obrigheim","type":"Kreisangehörige_Gemeinde"},"district":{"key":"08225","name":"Neckar-Odenwald-Kreis","type":"Landkreis"},"federalState":{"key":"08","name":"Baden-Württemberg"}},{"name":"Im Brühl","postalCode":"74847","locality":"Obrigheim","municipality":{"key":"08225074","name":"Obrigheim","type":"Kreisangehörige_Gemeinde"},"district":{"key":"08225","name":"Neckar-Odenwald-Kreis","type":"Landkreis"},"federalState":{"key":"08","name":"Baden-Württemberg"}},{"name":"Im Lettenbuckel","postalCode":"74847","locality":"Obrigheim","municipality":{"key":"08225074","name":"Obrigheim","type":"Kreisangehörige_Gemeinde"},"district":{"key":"08225","name":"Neckar-Odenwald-Kreis","type":"Landkreis"},"federalState":{"key":"08","name":"Baden-Württemberg"}},{"name":"Im Liebold","postalCode":"74847","locality":"Obrigheim","municipality":{"key":"08225074","name":"Obrigheim","type":"Kreisangehörige_Gemeinde"},"district":{"key":"08225","name":"Neckar-Odenwald-Kreis","type":"Landkreis"},"federalState":{"key":"08","name":"Baden-Württemberg"}},{"name":"Im Luß","postalCode":"74847","locality":"Obrigheim","municipality":{"key":"08225074","name":"Obrigheim","type":"Kreisangehörige_Gemeinde"},"district":{"key":"08225","name":"Neckar-Odenwald-Kreis","type":"Landkreis"},"federalState":{"key":"08","name":"Baden-Württemberg"}},{"name":"Im Rotletterle","postalCode":"74847","locality":"Obrigheim","municipality":{"key":"08225074","name":"Obrigheim","type":"Kreisangehörige_Gemeinde"},"district":{"key":"08225","name":"Neckar-Odenwald-Kreis","type":"Landkreis"},"federalState":{"key":"08","name":"Baden-Württemberg"}},{"name":"Im Trieb","postalCode":"74847","locality":"Obrigheim","municipality":{"key":"08225074","name":"Obrigheim","type":"Kreisangehörige_Gemeinde"},"district":{"key":"08225","name":"Neckar-Odenwald-Kreis","type":"Landkreis"},"federalState":{"key":"08","name":"Baden-Württemberg"}},{"name":"Im Valtert","postalCode":"74847","locality":"Obrigheim","municipality":{"key":"08225074","name":"Obrigheim","type":"Kreisangehörige_Gemeinde"},"district":{"key":"08225","name":"Neckar-Odenwald-Kreis","type":"Landkreis"},"federalState":{"key":"08","name":"Baden-Württemberg"}},{"name":"In der Lücke","postalCode":"74847","locality":"Obrigheim","municipality":{"key":"08225074","name":"Obrigheim","type":"Kreisangehörige_Gemeinde"},"district":{"key":"08225","name":"Neckar-Odenwald-Kreis","type":"Landkreis"},"federalState":{"key":"08","name":"Baden-Württemberg"}},{"name":"In der Röte","postalCode":"74847","locality":"Obrigheim","municipality":{"key":"08225074","name":"Obrigheim","type":"Kreisangehörige_Gemeinde"},"district":{"key":"08225","name":"Neckar-Odenwald-Kreis","type":"Landkreis"},"federalState":{"key":"08","name":"Baden-Württemberg"}},{"name":"Ingelesweg","postalCode":"74847","locality":"Obrigheim","municipality":{"key":"08225074","name":"Obrigheim","type":"Kreisangehörige_Gemeinde"},"district":{"key":"08225","name":"Neckar-Odenwald-Kreis","type":"Landkreis"},"federalState":{"key":"08","name":"Baden-Württemberg"}},{"name":"Jägerhausweg","postalCode":"74847","locality":"Obrigheim","municipality":{"key":"08225074","name":"Obrigheim","type":"Kreisangehörige_Gemeinde"},"district":{"key":"08225","name":"Neckar-Odenwald-Kreis","type":"Landkreis"},"federalState":{"key":"08","name":"Baden-Württemberg"}},{"name":"Jahnstr.","postalCode":"67283","locality":"Obrigheim (Pfalz)","municipality":{"key":"07332041","name":"Obrigheim (Pfalz)","type":"Kreisangehörige_Gemeinde"},"district":{"key":"07332","name":"Bad Dürkheim","type":"Landkreis"},"federalState":{"key":"07","name":"Rheinland-Pfalz"}},{"name":"Kampertweg","postalCode":"74847","locality":"Obrigheim","municipality":{"key":"08225074","name":"Obrigheim","type":"Kreisangehörige_Gemeinde"},"district":{"key":"08225","name":"Neckar-Odenwald-Kreis","type":"Landkreis"},"federalState":{"key":"08","name":"Baden-Württemberg"}},{"name":"Karlsbergweg","postalCode":"74847","locality":"Obrigheim","municipality":{"key":"08225074","name":"Obrigheim","type":"Kreisangehörige_Gemeinde"},"district":{"key":"08225","name":"Neckar-Odenwald-Kreis","type":"Landkreis"},"federalState":{"key":"08","name":"Baden-Württemberg"}},{"name":"Kastanienweg","postalCode":"67283","locality":"Obrigheim (Pfalz)","municipality":{"key":"07332041","name":"Obrigheim (Pfalz)","type":"Kreisangehörige_Gemeinde"},"district":{"key":"07332","name":"Bad Dürkheim","type":"Landkreis"},"federalState":{"key":"07","name":"Rheinland-Pfalz"}},{"name":"Kastanienweg","postalCode":"74847","locality":"Obrigheim","municipality":{"key":"08225074","name":"Obrigheim","type":"Kreisangehörige_Gemeinde"},"district":{"key":"08225","name":"Neckar-Odenwald-Kreis","type":"Landkreis"},"federalState":{"key":"08","name":"Baden-Württemberg"}},{"name":"Kellergasse","postalCode":"67283","locality":"Obrigheim (Pfalz)","municipality":{"key":"07332041","name":"Obrigheim (Pfalz)","type":"Kreisangehörige_Gemeinde"},"district":{"key":"07332","name":"Bad Dürkheim","type":"Landkreis"},"federalState":{"key":"07","name":"Rheinland-Pfalz"}},{"name":"Kirchgasse","postalCode":"74847","locality":"Obrigheim","municipality":{"key":"08225074","name":"Obrigheim","type":"Kreisangehörige_Gemeinde"},"district":{"key":"08225","name":"Neckar-Odenwald-Kreis","type":"Landkreis"},"federalState":{"key":"08","name":"Baden-Württemberg"}},{"name":"Kirchstr.","postalCode":"67283","locality":"Obrigheim (Pfalz)","municipality":{"key":"07332041","name":"Obrigheim (Pfalz)","type":"Kreisangehörige_Gemeinde"},"district":{"key":"07332","name":"Bad Dürkheim","type":"Landkreis"},"federalState":{"key":"07","name":"Rheinland-Pfalz"}},{"name":"Kirschenweg","postalCode":"74847","locality":"Obrigheim","municipality":{"key":"08225074","name":"Obrigheim","type":"Kreisangehörige_Gemeinde"},"district":{"key":"08225","name":"Neckar-Odenwald-Kreis","type":"Landkreis"},"federalState":{"key":"08","name":"Baden-Württemberg"}},{"name":"Kirstetter Str.","postalCode":"74847","locality":"Obrigheim","municipality":{"key":"08225074","name":"Obrigheim","type":"Kreisangehörige_Gemeinde"},"district":{"key":"08225","name":"Neckar-Odenwald-Kreis","type":"Landkreis"},"federalState":{"key":"08","name":"Baden-Württemberg"}},{"name":"Kleiberweg","postalCode":"74847","locality":"Obrigheim","municipality":{"key":"08225074","name":"Obrigheim","type":"Kreisangehörige_Gemeinde"},"district":{"key":"08225","name":"Neckar-Odenwald-Kreis","type":"Landkreis"},"federalState":{"key":"08","name":"Baden-Württemberg"}},{"name":"Kolbenweg","postalCode":"74847","locality":"Obrigheim","municipality":{"key":"08225074","name":"Obrigheim","type":"Kreisangehörige_Gemeinde"},"district":{"key":"08225","name":"Neckar-Odenwald-Kreis","type":"Landkreis"},"federalState":{"key":"08","name":"Baden-Württemberg"}},{"name":"Konrad-Adenauer-Str.","postalCode":"74847","locality":"Obrigheim","municipality":{"key":"08225074","name":"Obrigheim","type":"Kreisangehörige_Gemeinde"},"district":{"key":"08225","name":"Neckar-Odenwald-Kreis","type":"Landkreis"},"federalState":{"key":"08","name":"Baden-Württemberg"}},{"name":"Kraftwerkstr.","postalCode":"74847","locality":"Obrigheim","municipality":{"key":"08225074","name":"Obrigheim","type":"Kreisangehörige_Gemeinde"},"district":{"key":"08225","name":"Neckar-Odenwald-Kreis","type":"Landkreis"},"federalState":{"key":"08","name":"Baden-Württemberg"}},{"name":"Kraichgaublick","postalCode":"74847","locality":"Obrigheim","municipality":{"key":"08225074","name":"Obrigheim","type":"Kreisangehörige_Gemeinde"},"district":{"key":"08225","name":"Neckar-Odenwald-Kreis","type":"Landkreis"},"federalState":{"key":"08","name":"Baden-Württemberg"}},{"name":"Kuckucksweg","postalCode":"74847","locality":"Obrigheim","municipality":{"key":"08225074","name":"Obrigheim","type":"Kreisangehörige_Gemeinde"},"district":{"key":"08225","name":"Neckar-Odenwald-Kreis","type":"Landkreis"},"federalState":{"key":"08","name":"Baden-Württemberg"}},{"name":"Kuhgasse","postalCode":"67283","locality":"Obrigheim (Pfalz)","municipality":{"key":"07332041","name":"Obrigheim (Pfalz)","type":"Kreisangehörige_Gemeinde"},"district":{"key":"07332","name":"Bad Dürkheim","type":"Landkreis"},"federalState":{"key":"07","name":"Rheinland-Pfalz"}},{"name":"Lange Hälden","postalCode":"74847","locality":"Obrigheim","municipality":{"key":"08225074","name":"Obrigheim","type":"Kreisangehörige_Gemeinde"},"district":{"key":"08225","name":"Neckar-Odenwald-Kreis","type":"Landkreis"},"federalState":{"key":"08","name":"Baden-Württemberg"}},{"name":"Langenrainstr.","postalCode":"74847","locality":"Obrigheim","municipality":{"key":"08225074","name":"Obrigheim","type":"Kreisangehörige_Gemeinde"},"district":{"key":"08225","name":"Neckar-Odenwald-Kreis","type":"Landkreis"},"federalState":{"key":"08","name":"Baden-Württemberg"}},{"name":"langer Weg","postalCode":"74847","locality":"Obrigheim","municipality":{"key":"08225074","name":"Obrigheim","type":"Kreisangehörige_Gemeinde"},"district":{"key":"08225","name":"Neckar-Odenwald-Kreis","type":"Landkreis"},"federalState":{"key":"08","name":"Baden-Württemberg"}},{"name":"Lärchenweg","postalCode":"74847","locality":"Obrigheim","municipality":{"key":"08225074","name":"Obrigheim","type":"Kreisangehörige_Gemeinde"},"district":{"key":"08225","name":"Neckar-Odenwald-Kreis","type":"Landkreis"},"federalState":{"key":"08","name":"Baden-Württemberg"}},{"name":"Leininger Str.","postalCode":"67283","locality":"Obrigheim (Pfalz)","municipality":{"key":"07332041","name":"Obrigheim (Pfalz)","type":"Kreisangehörige_Gemeinde"},"district":{"key":"07332","name":"Bad Dürkheim","type":"Landkreis"},"federalState":{"key":"07","name":"Rheinland-Pfalz"}},{"name":"Leiningerweg","postalCode":"74847","locality":"Obrigheim","municipality":{"key":"08225074","name":"Obrigheim","type":"Kreisangehörige_Gemeinde"},"district":{"key":"08225","name":"Neckar-Odenwald-Kreis","type":"Landkreis"},"federalState":{"key":"08","name":"Baden-Württemberg"}},{"name":"Lerchenweg","postalCode":"74847","locality":"Obrigheim","municipality":{"key":"08225074","name":"Obrigheim","type":"Kreisangehörige_Gemeinde"},"district":{"key":"08225","name":"Neckar-Odenwald-Kreis","type":"Landkreis"},"federalState":{"key":"08","name":"Baden-Württemberg"}},{"name":"Lilienweg","postalCode":"74847","locality":"Obrigheim","municipality":{"key":"08225074","name":"Obrigheim","type":"Kreisangehörige_Gemeinde"},"district":{"key":"08225","name":"Neckar-Odenwald-Kreis","type":"Landkreis"},"federalState":{"key":"08","name":"Baden-Württemberg"}},{"name":"Lindenweg","postalCode":"74847","locality":"Obrigheim","municipality":{"key":"08225074","name":"Obrigheim","type":"Kreisangehörige_Gemeinde"},"district":{"key":"08225","name":"Neckar-Odenwald-Kreis","type":"Landkreis"},"federalState":{"key":"08","name":"Baden-Württemberg"}},{"name":"Lochweg","postalCode":"74847","locality":"Obrigheim","municipality":{"key":"08225074","name":"Obrigheim","type":"Kreisangehörige_Gemeinde"},"district":{"key":"08225","name":"Neckar-Odenwald-Kreis","type":"Landkreis"},"federalState":{"key":"08","name":"Baden-Württemberg"}},{"name":"Luftschachtweg","postalCode":"74847","locality":"Obrigheim","municipality":{"key":"08225074","name":"Obrigheim","type":"Kreisangehörige_Gemeinde"},"district":{"key":"08225","name":"Neckar-Odenwald-Kreis","type":"Landkreis"},"federalState":{"key":"08","name":"Baden-Württemberg"}},{"name":"Luttenbachweg","postalCode":"74847","locality":"Obrigheim","municipality":{"key":"08225074","name":"Obrigheim","type":"Kreisangehörige_Gemeinde"},"district":{"key":"08225","name":"Neckar-Odenwald-Kreis","type":"Landkreis"},"federalState":{"key":"08","name":"Baden-Württemberg"}},{"name":"Meisenweg","postalCode":"74847","locality":"Obrigheim","municipality":{"key":"08225074","name":"Obrigheim","type":"Kreisangehörige_Gemeinde"},"district":{"key":"08225","name":"Neckar-Odenwald-Kreis","type":"Landkreis"},"federalState":{"key":"08","name":"Baden-Württemberg"}},{"name":"Mittlerer Birkenwaldweg","postalCode":"74847","locality":"Obrigheim","municipality":{"key":"08225074","name":"Obrigheim","type":"Kreisangehörige_Gemeinde"},"district":{"key":"08225","name":"Neckar-Odenwald-Kreis","type":"Landkreis"},"federalState":{"key":"08","name":"Baden-Württemberg"}},{"name":"Mörikestr.","postalCode":"74847","locality":"Obrigheim","municipality":{"key":"08225074","name":"Obrigheim","type":"Kreisangehörige_Gemeinde"},"district":{"key":"08225","name":"Neckar-Odenwald-Kreis","type":"Landkreis"},"federalState":{"key":"08","name":"Baden-Württemberg"}},{"name":"Mosbacher Str.","postalCode":"74847","locality":"Obrigheim","municipality":{"key":"08225074","name":"Obrigheim","type":"Kreisangehörige_Gemeinde"},"district":{"key":"08225","name":"Neckar-Odenwald-Kreis","type":"Landkreis"},"federalState":{"key":"08","name":"Baden-Württemberg"}},{"name":"Mozartstr.","postalCode":"67283","locality":"Obrigheim (Pfalz)","municipality":{"key":"07332041","name":"Obrigheim (Pfalz)","type":"Kreisangehörige_Gemeinde"},"district":{"key":"07332","name":"Bad Dürkheim","type":"Landkreis"},"federalState":{"key":"07","name":"Rheinland-Pfalz"}},{"name":"Mozartstr.","postalCode":"74847","locality":"Obrigheim","municipality":{"key":"08225074","name":"Obrigheim","type":"Kreisangehörige_Gemeinde"},"district":{"key":"08225","name":"Neckar-Odenwald-Kreis","type":"Landkreis"},"federalState":{"key":"08","name":"Baden-Württemberg"}},{"name":"Mühlgasse","postalCode":"74847","locality":"Obrigheim","municipality":{"key":"08225074","name":"Obrigheim","type":"Kreisangehörige_Gemeinde"},"district":{"key":"08225","name":"Neckar-Odenwald-Kreis","type":"Landkreis"},"federalState":{"key":"08","name":"Baden-Württemberg"}},{"name":"Mühlheimer Hauptstr.","postalCode":"67283","locality":"Obrigheim (Pfalz)","municipality":{"key":"07332041","name":"Obrigheim (Pfalz)","type":"Kreisangehörige_Gemeinde"},"district":{"key":"07332","name":"Bad Dürkheim","type":"Landkreis"},"federalState":{"key":"07","name":"Rheinland-Pfalz"}},{"name":"Mühlstr.","postalCode":"67283","locality":"Obrigheim (Pfalz)","municipality":{"key":"07332041","name":"Obrigheim (Pfalz)","type":"Kreisangehörige_Gemeinde"},"district":{"key":"07332","name":"Bad Dürkheim","type":"Landkreis"},"federalState":{"key":"07","name":"Rheinland-Pfalz"}},{"name":"Münchbergweg","postalCode":"74847","locality":"Obrigheim","municipality":{"key":"08225074","name":"Obrigheim","type":"Kreisangehörige_Gemeinde"},"district":{"key":"08225","name":"Neckar-Odenwald-Kreis","type":"Landkreis"},"federalState":{"key":"08","name":"Baden-Württemberg"}},{"name":"Nachtigallenweg","postalCode":"74847","locality":"Obrigheim","municipality":{"key":"08225074","name":"Obrigheim","type":"Kreisangehörige_Gemeinde"},"district":{"key":"08225","name":"Neckar-Odenwald-Kreis","type":"Landkreis"},"federalState":{"key":"08","name":"Baden-Württemberg"}},{"name":"Neckarstr.","postalCode":"74847","locality":"Obrigheim","municipality":{"key":"08225074","name":"Obrigheim","type":"Kreisangehörige_Gemeinde"},"district":{"key":"08225","name":"Neckar-Odenwald-Kreis","type":"Landkreis"},"federalState":{"key":"08","name":"Baden-Württemberg"}},{"name":"Nelkenweg","postalCode":"74847","locality":"Obrigheim","municipality":{"key":"08225074","name":"Obrigheim","type":"Kreisangehörige_Gemeinde"},"district":{"key":"08225","name":"Neckar-Odenwald-Kreis","type":"Landkreis"},"federalState":{"key":"08","name":"Baden-Württemberg"}},{"name":"Neuer Weg","postalCode":"74847","locality":"Obrigheim","municipality":{"key":"08225074","name":"Obrigheim","type":"Kreisangehörige_Gemeinde"},"district":{"key":"08225","name":"Neckar-Odenwald-Kreis","type":"Landkreis"},"federalState":{"key":"08","name":"Baden-Württemberg"}},{"name":"Neue Seitenstr.","postalCode":"67283","locality":"Obrigheim (Pfalz)","municipality":{"key":"07332041","name":"Obrigheim (Pfalz)","type":"Kreisangehörige_Gemeinde"},"district":{"key":"07332","name":"Bad Dürkheim","type":"Landkreis"},"federalState":{"key":"07","name":"Rheinland-Pfalz"}},{"name":"Neunkircher Weg","postalCode":"74847","locality":"Obrigheim","municipality":{"key":"08225074","name":"Obrigheim","type":"Kreisangehörige_Gemeinde"},"district":{"key":"08225","name":"Neckar-Odenwald-Kreis","type":"Landkreis"},"federalState":{"key":"08","name":"Baden-Württemberg"}},{"name":"Neunkircher Weg 7-14","postalCode":"74847","locality":"Obrigheim","municipality":{"key":"08225074","name":"Obrigheim","type":"Kreisangehörige_Gemeinde"},"district":{"key":"08225","name":"Neckar-Odenwald-Kreis","type":"Landkreis"},"federalState":{"key":"08","name":"Baden-Württemberg"}},{"name":"Neuoffsteiner Str.","postalCode":"67283","locality":"Obrigheim (Pfalz)","municipality":{"key":"07332041","name":"Obrigheim (Pfalz)","type":"Kreisangehörige_Gemeinde"},"district":{"key":"07332","name":"Bad Dürkheim","type":"Landkreis"},"federalState":{"key":"07","name":"Rheinland-Pfalz"}},{"name":"Neurottweg","postalCode":"74847","locality":"Obrigheim","municipality":{"key":"08225074","name":"Obrigheim","type":"Kreisangehörige_Gemeinde"},"district":{"key":"08225","name":"Neckar-Odenwald-Kreis","type":"Landkreis"},"federalState":{"key":"08","name":"Baden-Württemberg"}},{"name":"Obere Au","postalCode":"74847","locality":"Obrigheim","municipality":{"key":"08225074","name":"Obrigheim","type":"Kreisangehörige_Gemeinde"},"district":{"key":"08225","name":"Neckar-Odenwald-Kreis","type":"Landkreis"},"federalState":{"key":"08","name":"Baden-Württemberg"}},{"name":"Oberer Birkenwaldweg","postalCode":"74847","locality":"Obrigheim","municipality":{"key":"08225074","name":"Obrigheim","type":"Kreisangehörige_Gemeinde"},"district":{"key":"08225","name":"Neckar-Odenwald-Kreis","type":"Landkreis"},"federalState":{"key":"08","name":"Baden-Württemberg"}},{"name":"Oberer Mühlrain","postalCode":"74847","locality":"Obrigheim","municipality":{"key":"08225074","name":"Obrigheim","type":"Kreisangehörige_Gemeinde"},"district":{"key":"08225","name":"Neckar-Odenwald-Kreis","type":"Landkreis"},"federalState":{"key":"08","name":"Baden-Württemberg"}},{"name":"Oberer Steinbruchweg","postalCode":"74847","locality":"Obrigheim","municipality":{"key":"08225074","name":"Obrigheim","type":"Kreisangehörige_Gemeinde"},"district":{"key":"08225","name":"Neckar-Odenwald-Kreis","type":"Landkreis"},"federalState":{"key":"08","name":"Baden-Württemberg"}},{"name":"Oberer Weg","postalCode":"74847","locality":"Obrigheim","municipality":{"key":"08225074","name":"Obrigheim","type":"Kreisangehörige_Gemeinde"},"district":{"key":"08225","name":"Neckar-Odenwald-Kreis","type":"Landkreis"},"federalState":{"key":"08","name":"Baden-Württemberg"}},{"name":"Obrigheimer Str.","postalCode":"74847","locality":"Obrigheim","municipality":{"key":"08225074","name":"Obrigheim","type":"Kreisangehörige_Gemeinde"},"district":{"key":"08225","name":"Neckar-Odenwald-Kreis","type":"Landkreis"},"federalState":{"key":"08","name":"Baden-Württemberg"}},{"name":"Odenwaldblick","postalCode":"74847","locality":"Obrigheim","municipality":{"key":"08225074","name":"Obrigheim","type":"Kreisangehörige_Gemeinde"},"district":{"key":"08225","name":"Neckar-Odenwald-Kreis","type":"Landkreis"},"federalState":{"key":"08","name":"Baden-Württemberg"}},{"name":"Ortsstr.","postalCode":"74847","locality":"Obrigheim","municipality":{"key":"08225074","name":"Obrigheim","type":"Kreisangehörige_Gemeinde"},"district":{"key":"08225","name":"Neckar-Odenwald-Kreis","type":"Landkreis"},"federalState":{"key":"08","name":"Baden-Württemberg"}},{"name":"Ostring","postalCode":"67283","locality":"Obrigheim (Pfalz)","municipality":{"key":"07332041","name":"Obrigheim (Pfalz)","type":"Kreisangehörige_Gemeinde"},"district":{"key":"07332","name":"Bad Dürkheim","type":"Landkreis"},"federalState":{"key":"07","name":"Rheinland-Pfalz"}},{"name":"Palmenweg","postalCode":"74847","locality":"Obrigheim","municipality":{"key":"08225074","name":"Obrigheim","type":"Kreisangehörige_Gemeinde"},"district":{"key":"08225","name":"Neckar-Odenwald-Kreis","type":"Landkreis"},"federalState":{"key":"08","name":"Baden-Württemberg"}},{"name":"Panoramaweg","postalCode":"74847","locality":"Obrigheim","municipality":{"key":"08225074","name":"Obrigheim","type":"Kreisangehörige_Gemeinde"},"district":{"key":"08225","name":"Neckar-Odenwald-Kreis","type":"Landkreis"},"federalState":{"key":"08","name":"Baden-Württemberg"}},{"name":"Pappelweg","postalCode":"74847","locality":"Obrigheim","municipality":{"key":"08225074","name":"Obrigheim","type":"Kreisangehörige_Gemeinde"},"district":{"key":"08225","name":"Neckar-Odenwald-Kreis","type":"Landkreis"},"federalState":{"key":"08","name":"Baden-Württemberg"}},{"name":"Pfaffenklinge","postalCode":"74847","locality":"Obrigheim","municipality":{"key":"08225074","name":"Obrigheim","type":"Kreisangehörige_Gemeinde"},"district":{"key":"08225","name":"Neckar-Odenwald-Kreis","type":"Landkreis"},"federalState":{"key":"08","name":"Baden-Württemberg"}},{"name":"Pfarrwaldstr.","postalCode":"74847","locality":"Obrigheim","municipality":{"key":"08225074","name":"Obrigheim","type":"Kreisangehörige_Gemeinde"},"district":{"key":"08225","name":"Neckar-Odenwald-Kreis","type":"Landkreis"},"federalState":{"key":"08","name":"Baden-Württemberg"}},{"name":"Platanenweg","postalCode":"74847","locality":"Obrigheim","municipality":{"key":"08225074","name":"Obrigheim","type":"Kreisangehörige_Gemeinde"},"district":{"key":"08225","name":"Neckar-Odenwald-Kreis","type":"Landkreis"},"federalState":{"key":"08","name":"Baden-Württemberg"}},{"name":"privat Weg keine FzG","postalCode":"74847","locality":"Obrigheim","municipality":{"key":"08225074","name":"Obrigheim","type":"Kreisangehörige_Gemeinde"},"district":{"key":"08225","name":"Neckar-Odenwald-Kreis","type":"Landkreis"},"federalState":{"key":"08","name":"Baden-Württemberg"}},{"name":"Probststr.","postalCode":"67283","locality":"Obrigheim (Pfalz)","municipality":{"key":"07332041","name":"Obrigheim (Pfalz)","type":"Kreisangehörige_Gemeinde"},"district":{"key":"07332","name":"Bad Dürkheim","type":"Landkreis"},"federalState":{"key":"07","name":"Rheinland-Pfalz"}},{"name":"Quellenpfad","postalCode":"74847","locality":"Obrigheim","municipality":{"key":"08225074","name":"Obrigheim","type":"Kreisangehörige_Gemeinde"},"district":{"key":"08225","name":"Neckar-Odenwald-Kreis","type":"Landkreis"},"federalState":{"key":"08","name":"Baden-Württemberg"}},{"name":"Räderbüschelweg","postalCode":"74847","locality":"Obrigheim","municipality":{"key":"08225074","name":"Obrigheim","type":"Kreisangehörige_Gemeinde"},"district":{"key":"08225","name":"Neckar-Odenwald-Kreis","type":"Landkreis"},"federalState":{"key":"08","name":"Baden-Württemberg"}},{"name":"Rathausstr.","postalCode":"74847","locality":"Obrigheim","municipality":{"key":"08225074","name":"Obrigheim","type":"Kreisangehörige_Gemeinde"},"district":{"key":"08225","name":"Neckar-Odenwald-Kreis","type":"Landkreis"},"federalState":{"key":"08","name":"Baden-Württemberg"}},{"name":"Rehhagweg","postalCode":"74847","locality":"Obrigheim","municipality":{"key":"08225074","name":"Obrigheim","type":"Kreisangehörige_Gemeinde"},"district":{"key":"08225","name":"Neckar-Odenwald-Kreis","type":"Landkreis"},"federalState":{"key":"08","name":"Baden-Württemberg"}},{"name":"Reiterspfad","postalCode":"74847","locality":"Obrigheim","municipality":{"key":"08225074","name":"Obrigheim","type":"Kreisangehörige_Gemeinde"},"district":{"key":"08225","name":"Neckar-Odenwald-Kreis","type":"Landkreis"},"federalState":{"key":"08","name":"Baden-Württemberg"}},{"name":"Richard-Wagner-Str.","postalCode":"74847","locality":"Obrigheim","municipality":{"key":"08225074","name":"Obrigheim","type":"Kreisangehörige_Gemeinde"},"district":{"key":"08225","name":"Neckar-Odenwald-Kreis","type":"Landkreis"},"federalState":{"key":"08","name":"Baden-Württemberg"}},{"name":"Robert-Schumann-Str.","postalCode":"74847","locality":"Obrigheim","municipality":{"key":"08225074","name":"Obrigheim","type":"Kreisangehörige_Gemeinde"},"district":{"key":"08225","name":"Neckar-Odenwald-Kreis","type":"Landkreis"},"federalState":{"key":"08","name":"Baden-Württemberg"}},{"name":"Rosenweg","postalCode":"67283","locality":"Obrigheim (Pfalz)","municipality":{"key":"07332041","name":"Obrigheim (Pfalz)","type":"Kreisangehörige_Gemeinde"},"district":{"key":"07332","name":"Bad Dürkheim","type":"Landkreis"},"federalState":{"key":"07","name":"Rheinland-Pfalz"}},{"name":"Sanddornweg","postalCode":"74847","locality":"Obrigheim","municipality":{"key":"08225074","name":"Obrigheim","type":"Kreisangehörige_Gemeinde"},"district":{"key":"08225","name":"Neckar-Odenwald-Kreis","type":"Landkreis"},"federalState":{"key":"08","name":"Baden-Württemberg"}},{"name":"Sandweg","postalCode":"74847","locality":"Obrigheim","municipality":{"key":"08225074","name":"Obrigheim","type":"Kreisangehörige_Gemeinde"},"district":{"key":"08225","name":"Neckar-Odenwald-Kreis","type":"Landkreis"},"federalState":{"key":"08","name":"Baden-Württemberg"}},{"name":"Saufangweg","postalCode":"74847","locality":"Obrigheim","municipality":{"key":"08225074","name":"Obrigheim","type":"Kreisangehörige_Gemeinde"},"district":{"key":"08225","name":"Neckar-Odenwald-Kreis","type":"Landkreis"},"federalState":{"key":"08","name":"Baden-Württemberg"}},{"name":"Schartelweg","postalCode":"74847","locality":"Obrigheim","municipality":{"key":"08225074","name":"Obrigheim","type":"Kreisangehörige_Gemeinde"},"district":{"key":"08225","name":"Neckar-Odenwald-Kreis","type":"Landkreis"},"federalState":{"key":"08","name":"Baden-Württemberg"}},{"name":"Scheffelstr.","postalCode":"74847","locality":"Obrigheim","municipality":{"key":"08225074","name":"Obrigheim","type":"Kreisangehörige_Gemeinde"},"district":{"key":"08225","name":"Neckar-Odenwald-Kreis","type":"Landkreis"},"federalState":{"key":"08","name":"Baden-Württemberg"}},{"name":"Schillerstr.","postalCode":"67283","locality":"Obrigheim (Pfalz)","municipality":{"key":"07332041","name":"Obrigheim (Pfalz)","type":"Kreisangehörige_Gemeinde"},"district":{"key":"07332","name":"Bad Dürkheim","type":"Landkreis"},"federalState":{"key":"07","name":"Rheinland-Pfalz"}},{"name":"Schillerstr.","postalCode":"74847","locality":"Obrigheim","municipality":{"key":"08225074","name":"Obrigheim","type":"Kreisangehörige_Gemeinde"},"district":{"key":"08225","name":"Neckar-Odenwald-Kreis","type":"Landkreis"},"federalState":{"key":"08","name":"Baden-Württemberg"}},{"name":"Schlegelweg","postalCode":"67283","locality":"Obrigheim (Pfalz)","municipality":{"key":"07332041","name":"Obrigheim (Pfalz)","type":"Kreisangehörige_Gemeinde"},"district":{"key":"07332","name":"Bad Dürkheim","type":"Landkreis"},"federalState":{"key":"07","name":"Rheinland-Pfalz"}},{"name":"Schlehenweg","postalCode":"74847","locality":"Obrigheim","municipality":{"key":"08225074","name":"Obrigheim","type":"Kreisangehörige_Gemeinde"},"district":{"key":"08225","name":"Neckar-Odenwald-Kreis","type":"Landkreis"},"federalState":{"key":"08","name":"Baden-Württemberg"}},{"name":"Schlittweg","postalCode":"67283","locality":"Obrigheim (Pfalz)","municipality":{"key":"07332041","name":"Obrigheim (Pfalz)","type":"Kreisangehörige_Gemeinde"},"district":{"key":"07332","name":"Bad Dürkheim","type":"Landkreis"},"federalState":{"key":"07","name":"Rheinland-Pfalz"}},{"name":"Schloßmühle","postalCode":"67283","locality":"Obrigheim (Pfalz)","municipality":{"key":"07332041","name":"Obrigheim (Pfalz)","type":"Kreisangehörige_Gemeinde"},"district":{"key":"07332","name":"Bad Dürkheim","type":"Landkreis"},"federalState":{"key":"07","name":"Rheinland-Pfalz"}},{"name":"Schloßstr.","postalCode":"74847","locality":"Obrigheim","municipality":{"key":"08225074","name":"Obrigheim","type":"Kreisangehörige_Gemeinde"},"district":{"key":"08225","name":"Neckar-Odenwald-Kreis","type":"Landkreis"},"federalState":{"key":"08","name":"Baden-Württemberg"}},{"name":"Schloßwiese","postalCode":"74847","locality":"Obrigheim","municipality":{"key":"08225074","name":"Obrigheim","type":"Kreisangehörige_Gemeinde"},"district":{"key":"08225","name":"Neckar-Odenwald-Kreis","type":"Landkreis"},"federalState":{"key":"08","name":"Baden-Württemberg"}},{"name":"Schollenrainweg","postalCode":"74847","locality":"Obrigheim","municipality":{"key":"08225074","name":"Obrigheim","type":"Kreisangehörige_Gemeinde"},"district":{"key":"08225","name":"Neckar-Odenwald-Kreis","type":"Landkreis"},"federalState":{"key":"08","name":"Baden-Württemberg"}},{"name":"Schubertstr.","postalCode":"67283","locality":"Obrigheim (Pfalz)","municipality":{"key":"07332041","name":"Obrigheim (Pfalz)","type":"Kreisangehörige_Gemeinde"},"district":{"key":"07332","name":"Bad Dürkheim","type":"Landkreis"},"federalState":{"key":"07","name":"Rheinland-Pfalz"}},{"name":"Schubertstr.","postalCode":"74847","locality":"Obrigheim","municipality":{"key":"08225074","name":"Obrigheim","type":"Kreisangehörige_Gemeinde"},"district":{"key":"08225","name":"Neckar-Odenwald-Kreis","type":"Landkreis"},"federalState":{"key":"08","name":"Baden-Württemberg"}},{"name":"Schulstr.","postalCode":"74847","locality":"Obrigheim","municipality":{"key":"08225074","name":"Obrigheim","type":"Kreisangehörige_Gemeinde"},"district":{"key":"08225","name":"Neckar-Odenwald-Kreis","type":"Landkreis"},"federalState":{"key":"08","name":"Baden-Württemberg"}},{"name":"Sechseichenweg","postalCode":"74847","locality":"Obrigheim","municipality":{"key":"08225074","name":"Obrigheim","type":"Kreisangehörige_Gemeinde"},"district":{"key":"08225","name":"Neckar-Odenwald-Kreis","type":"Landkreis"},"federalState":{"key":"08","name":"Baden-Württemberg"}},{"name":"Seewaldweg","postalCode":"74847","locality":"Obrigheim","municipality":{"key":"08225074","name":"Obrigheim","type":"Kreisangehörige_Gemeinde"},"district":{"key":"08225","name":"Neckar-Odenwald-Kreis","type":"Landkreis"},"federalState":{"key":"08","name":"Baden-Württemberg"}},{"name":"Sommerheldenweg","postalCode":"74847","locality":"Obrigheim","municipality":{"key":"08225074","name":"Obrigheim","type":"Kreisangehörige_Gemeinde"},"district":{"key":"08225","name":"Neckar-Odenwald-Kreis","type":"Landkreis"},"federalState":{"key":"08","name":"Baden-Württemberg"}},{"name":"Sommerrainweg","postalCode":"74847","locality":"Obrigheim","municipality":{"key":"08225074","name":"Obrigheim","type":"Kreisangehörige_Gemeinde"},"district":{"key":"08225","name":"Neckar-Odenwald-Kreis","type":"Landkreis"},"federalState":{"key":"08","name":"Baden-Württemberg"}},{"name":"Steinbruchweg","postalCode":"74847","locality":"Obrigheim","municipality":{"key":"08225074","name":"Obrigheim","type":"Kreisangehörige_Gemeinde"},"district":{"key":"08225","name":"Neckar-Odenwald-Kreis","type":"Landkreis"},"federalState":{"key":"08","name":"Baden-Württemberg"}},{"name":"Stollenzugang","postalCode":"74847","locality":"Obrigheim","municipality":{"key":"08225074","name":"Obrigheim","type":"Kreisangehörige_Gemeinde"},"district":{"key":"08225","name":"Neckar-Odenwald-Kreis","type":"Landkreis"},"federalState":{"key":"08","name":"Baden-Württemberg"}},{"name":"Sülzer Weg","postalCode":"67283","locality":"Obrigheim (Pfalz)","municipality":{"key":"07332041","name":"Obrigheim (Pfalz)","type":"Kreisangehörige_Gemeinde"},"district":{"key":"07332","name":"Bad Dürkheim","type":"Landkreis"},"federalState":{"key":"07","name":"Rheinland-Pfalz"}},{"name":"Talstr.","postalCode":"74847","locality":"Obrigheim","municipality":{"key":"08225074","name":"Obrigheim","type":"Kreisangehörige_Gemeinde"},"district":{"key":"08225","name":"Neckar-Odenwald-Kreis","type":"Landkreis"},"federalState":{"key":"08","name":"Baden-Württemberg"}},{"name":"Tulpenweg","postalCode":"74847","locality":"Obrigheim","municipality":{"key":"08225074","name":"Obrigheim","type":"Kreisangehörige_Gemeinde"},"district":{"key":"08225","name":"Neckar-Odenwald-Kreis","type":"Landkreis"},"federalState":{"key":"08","name":"Baden-Württemberg"}},{"name":"Uhlandstr.","postalCode":"74847","locality":"Obrigheim","municipality":{"key":"08225074","name":"Obrigheim","type":"Kreisangehörige_Gemeinde"},"district":{"key":"08225","name":"Neckar-Odenwald-Kreis","type":"Landkreis"},"federalState":{"key":"08","name":"Baden-Württemberg"}},{"name":"Ulmenweg","postalCode":"74847","locality":"Obrigheim","municipality":{"key":"08225074","name":"Obrigheim","type":"Kreisangehörige_Gemeinde"},"district":{"key":"08225","name":"Neckar-Odenwald-Kreis","type":"Landkreis"},"federalState":{"key":"08","name":"Baden-Württemberg"}},{"name":"Unterer Mühlrain","postalCode":"74847","locality":"Obrigheim","municipality":{"key":"08225074","name":"Obrigheim","type":"Kreisangehörige_Gemeinde"},"district":{"key":"08225","name":"Neckar-Odenwald-Kreis","type":"Landkreis"},"federalState":{"key":"08","name":"Baden-Württemberg"}},{"name":"Vorderer Rainweg","postalCode":"74847","locality":"Obrigheim","municipality":{"key":"08225074","name":"Obrigheim","type":"Kreisangehörige_Gemeinde"},"district":{"key":"08225","name":"Neckar-Odenwald-Kreis","type":"Landkreis"},"federalState":{"key":"08","name":"Baden-Württemberg"}},{"name":"Vorstadt","postalCode":"74847","locality":"Obrigheim","municipality":{"key":"08225074","name":"Obrigheim","type":"Kreisangehörige_Gemeinde"},"district":{"key":"08225","name":"Neckar-Odenwald-Kreis","type":"Landkreis"},"federalState":{"key":"08","name":"Baden-Württemberg"}},{"name":"Wacholderweg","postalCode":"74847","locality":"Obrigheim","municipality":{"key":"08225074","name":"Obrigheim","type":"Kreisangehörige_Gemeinde"},"district":{"key":"08225","name":"Neckar-Odenwald-Kreis","type":"Landkreis"},"federalState":{"key":"08","name":"Baden-Württemberg"}},{"name":"Waldstr.","postalCode":"74847","locality":"Obrigheim","municipality":{"key":"08225074","name":"Obrigheim","type":"Kreisangehörige_Gemeinde"},"district":{"key":"08225","name":"Neckar-Odenwald-Kreis","type":"Landkreis"},"federalState":{"key":"08","name":"Baden-Württemberg"}},{"name":"Weg aufgegeben","postalCode":"74847","locality":"Obrigheim","municipality":{"key":"08225074","name":"Obrigheim","type":"Kreisangehörige_Gemeinde"},"district":{"key":"08225","name":"Neckar-Odenwald-Kreis","type":"Landkreis"},"federalState":{"key":"08","name":"Baden-Württemberg"}},{"name":"Weidenweg","postalCode":"67283","locality":"Obrigheim (Pfalz)","municipality":{"key":"07332041","name":"Obrigheim (Pfalz)","type":"Kreisangehörige_Gemeinde"},"district":{"key":"07332","name":"Bad Dürkheim","type":"Landkreis"},"federalState":{"key":"07","name":"Rheinland-Pfalz"}},{"name":"Welschbergweg","postalCode":"74847","locality":"Obrigheim","municipality":{"key":"08225074","name":"Obrigheim","type":"Kreisangehörige_Gemeinde"},"district":{"key":"08225","name":"Neckar-Odenwald-Kreis","type":"Landkreis"},"federalState":{"key":"08","name":"Baden-Württemberg"}},{"name":"Werner-von-Siemens-Str.","postalCode":"74847","locality":"Obrigheim","municipality":{"key":"08225074","name":"Obrigheim","type":"Kreisangehörige_Gemeinde"},"district":{"key":"08225","name":"Neckar-Odenwald-Kreis","type":"Landkreis"},"federalState":{"key":"08","name":"Baden-Württemberg"}},{"name":"Winterrainweg","postalCode":"74847","locality":"Obrigheim","municipality":{"key":"08225074","name":"Obrigheim","type":"Kreisangehörige_Gemeinde"},"district":{"key":"08225","name":"Neckar-Odenwald-Kreis","type":"Landkreis"},"federalState":{"key":"08","name":"Baden-Württemberg"}},{"name":"Wormser Str.","postalCode":"67283","locality":"Obrigheim (Pfalz)","municipality":{"key":"07332041","name":"Obrigheim (Pfalz)","type":"Kreisangehörige_Gemeinde"},"district":{"key":"07332","name":"Bad Dürkheim","type":"Landkreis"},"federalState":{"key":"07","name":"Rheinland-Pfalz"}},{"name":"Zum Goldfischpfad","postalCode":"74847","locality":"Obrigheim","municipality":{"key":"08225074","name":"Obrigheim","type":"Kreisangehörige_Gemeinde"},"district":{"key":"08225","name":"Neckar-Odenwald-Kreis","type":"Landkreis"},"federalState":{"key":"08","name":"Baden-Württemberg"}},]