[{"key":"10159083","name":"Au Village","postalCode":"1420","locality":"Fiez","commune":{"key":"5556","name":"Fiez","shortName":"Fiez"},"district":{"key":"2224","name":"District du Jura-Nord vaudois"},"canton":{"key":"22","code":"VD","name":"Vaud"},"status":"Real"},{"key":"10160448","name":"Chemin de la Croix","postalCode":"1420","locality":"Fiez","commune":{"key":"5556","name":"Fiez","shortName":"Fiez"},"district":{"key":"2224","name":"District du Jura-Nord vaudois"},"canton":{"key":"22","code":"VD","name":"Vaud"},"status":"Real"},{"key":"10113702","name":"Chemin de la Diay","postalCode":"1420","locality":"Fiez","commune":{"key":"5556","name":"Fiez","shortName":"Fiez"},"district":{"key":"2224","name":"District du Jura-Nord vaudois"},"canton":{"key":"22","code":"VD","name":"Vaud"},"status":"Real"},{"key":"10160358","name":"Chemin de la Forge","postalCode":"1420","locality":"Fiez","commune":{"key":"5556","name":"Fiez","shortName":"Fiez"},"district":{"key":"2224","name":"District du Jura-Nord vaudois"},"canton":{"key":"22","code":"VD","name":"Vaud"},"status":"Real"},{"key":"10139762","name":"Chemin de l'Echat","postalCode":"1420","locality":"Fiez","commune":{"key":"5556","name":"Fiez","shortName":"Fiez"},"district":{"key":"2224","name":"District du Jura-Nord vaudois"},"canton":{"key":"22","code":"VD","name":"Vaud"},"status":"Real"},{"key":"10160447","name":"Chemin du Grand-Clos","postalCode":"1420","locality":"Fiez","commune":{"key":"5556","name":"Fiez","shortName":"Fiez"},"district":{"key":"2224","name":"District du Jura-Nord vaudois"},"canton":{"key":"22","code":"VD","name":"Vaud"},"status":"Real"},{"key":"10151965","name":"Clos-Berthy Dessous","postalCode":"1420","locality":"Fiez","commune":{"key":"5556","name":"Fiez","shortName":"Fiez"},"district":{"key":"2224","name":"District du Jura-Nord vaudois"},"canton":{"key":"22","code":"VD","name":"Vaud"},"status":"Real"},{"key":"10147723","name":"Clos-Berthy Dessus","postalCode":"1420","locality":"Fiez","commune":{"key":"5556","name":"Fiez","shortName":"Fiez"},"district":{"key":"2224","name":"District du Jura-Nord vaudois"},"canton":{"key":"22","code":"VD","name":"Vaud"},"status":"Real"},{"key":"10143948","name":"Derrière-la-Ville","postalCode":"1420","locality":"Fiez","commune":{"key":"5556","name":"Fiez","shortName":"Fiez"},"district":{"key":"2224","name":"District du Jura-Nord vaudois"},"canton":{"key":"22","code":"VD","name":"Vaud"},"status":"Real"},{"key":"10160355","name":"En Preulon","postalCode":"1420","locality":"Fiez","commune":{"key":"5556","name":"Fiez","shortName":"Fiez"},"district":{"key":"2224","name":"District du Jura-Nord vaudois"},"canton":{"key":"22","code":"VD","name":"Vaud"},"status":"Real"},{"key":"10041564","name":"En Ressinget","postalCode":"1420","locality":"Fiez","commune":{"key":"5556","name":"Fiez","shortName":"Fiez"},"district":{"key":"2224","name":"District du Jura-Nord vaudois"},"canton":{"key":"22","code":"VD","name":"Vaud"},"status":"Real"},{"key":"10160357","name":"La Chaux","postalCode":"1420","locality":"Fiez","commune":{"key":"5556","name":"Fiez","shortName":"Fiez"},"district":{"key":"2224","name":"District du Jura-Nord vaudois"},"canton":{"key":"22","code":"VD","name":"Vaud"},"status":"Real"},{"key":"10159082","name":"Le Cheminet","postalCode":"1420","locality":"Fiez","commune":{"key":"5556","name":"Fiez","shortName":"Fiez"},"district":{"key":"2224","name":"District du Jura-Nord vaudois"},"canton":{"key":"22","code":"VD","name":"Vaud"},"status":"Real"},{"key":"10041565","name":"Les Chentres","postalCode":"1420","locality":"Fiez","commune":{"key":"5556","name":"Fiez","shortName":"Fiez"},"district":{"key":"2224","name":"District du Jura-Nord vaudois"},"canton":{"key":"22","code":"VD","name":"Vaud"},"status":"Real"},{"key":"10255411","name":"Les Vaux","postalCode":"1420","locality":"Fiez","commune":{"key":"5556","name":"Fiez","shortName":"Fiez"},"district":{"key":"2224","name":"District du Jura-Nord vaudois"},"canton":{"key":"22","code":"VD","name":"Vaud"},"status":"Real"},{"key":"10080071","name":"Péroset","postalCode":"1420","locality":"Fiez","commune":{"key":"5556","name":"Fiez","shortName":"Fiez"},"district":{"key":"2224","name":"District du Jura-Nord vaudois"},"canton":{"key":"22","code":"VD","name":"Vaud"},"status":"Real"},{"key":"10255412","name":"Prés Beroud","postalCode":"1420","locality":"Fiez","commune":{"key":"5556","name":"Fiez","shortName":"Fiez"},"district":{"key":"2224","name":"District du Jura-Nord vaudois"},"canton":{"key":"22","code":"VD","name":"Vaud"},"status":"Real"},{"key":"10160356","name":"Route des Mûriers","postalCode":"1420","locality":"Fiez","commune":{"key":"5556","name":"Fiez","shortName":"Fiez"},"district":{"key":"2224","name":"District du Jura-Nord vaudois"},"canton":{"key":"22","code":"VD","name":"Vaud"},"status":"Real"},{"key":"10159084","name":"Sur les Vignes","postalCode":"1420","locality":"Fiez","commune":{"key":"5556","name":"Fiez","shortName":"Fiez"},"district":{"key":"2224","name":"District du Jura-Nord vaudois"},"canton":{"key":"22","code":"VD","name":"Vaud"},"status":"Real"},{"key":"10102745","name":"Vers-chez-Patthey","postalCode":"1420","locality":"Fiez","commune":{"key":"5556","name":"Fiez","shortName":"Fiez"},"district":{"key":"2224","name":"District du Jura-Nord vaudois"},"canton":{"key":"22","code":"VD","name":"Vaud"},"status":"Real"},]