[{"key":"10156500","name":"Aleten","postalCode":"4493","locality":"Wenslingen","commune":{"key":"2865","name":"Wenslingen","shortName":"Wenslingen"},"district":{"key":"1304","name":"Bezirk Sissach"},"canton":{"key":"13","code":"BL","name":"Basel-Landschaft"},"status":"Real"},{"key":"10243825","name":"Alte Landstrasse","postalCode":"4493","locality":"Wenslingen","commune":{"key":"2865","name":"Wenslingen","shortName":"Wenslingen"},"district":{"key":"1304","name":"Bezirk Sissach"},"canton":{"key":"13","code":"BL","name":"Basel-Landschaft"},"status":"Real"},{"key":"10142087","name":"Asp","postalCode":"4493","locality":"Wenslingen","commune":{"key":"2865","name":"Wenslingen","shortName":"Wenslingen"},"district":{"key":"1304","name":"Bezirk Sissach"},"canton":{"key":"13","code":"BL","name":"Basel-Landschaft"},"status":"Real"},{"key":"10156502","name":"Auf Schochen","postalCode":"4493","locality":"Wenslingen","commune":{"key":"2865","name":"Wenslingen","shortName":"Wenslingen"},"district":{"key":"1304","name":"Bezirk Sissach"},"canton":{"key":"13","code":"BL","name":"Basel-Landschaft"},"status":"Real"},{"key":"10069502","name":"Barmenhof","postalCode":"4493","locality":"Wenslingen","commune":{"key":"2865","name":"Wenslingen","shortName":"Wenslingen"},"district":{"key":"1304","name":"Bezirk Sissach"},"canton":{"key":"13","code":"BL","name":"Basel-Landschaft"},"status":"Real"},{"key":"10243829","name":"Barmenhofstrasse","postalCode":"4493","locality":"Wenslingen","commune":{"key":"2865","name":"Wenslingen","shortName":"Wenslingen"},"district":{"key":"1304","name":"Bezirk Sissach"},"canton":{"key":"13","code":"BL","name":"Basel-Landschaft"},"status":"Real"},{"key":"10047602","name":"Bettstigiweg","postalCode":"4493","locality":"Wenslingen","commune":{"key":"2865","name":"Wenslingen","shortName":"Wenslingen"},"district":{"key":"1304","name":"Bezirk Sissach"},"canton":{"key":"13","code":"BL","name":"Basel-Landschaft"},"status":"Real"},{"key":"10156515","name":"Birzelmatten","postalCode":"4493","locality":"Wenslingen","commune":{"key":"2865","name":"Wenslingen","shortName":"Wenslingen"},"district":{"key":"1304","name":"Bezirk Sissach"},"canton":{"key":"13","code":"BL","name":"Basel-Landschaft"},"status":"Real"},{"key":"10156516","name":"Boden","postalCode":"4493","locality":"Wenslingen","commune":{"key":"2865","name":"Wenslingen","shortName":"Wenslingen"},"district":{"key":"1304","name":"Bezirk Sissach"},"canton":{"key":"13","code":"BL","name":"Basel-Landschaft"},"status":"Real"},{"key":"10026541","name":"Breitackerweg","postalCode":"4493","locality":"Wenslingen","commune":{"key":"2865","name":"Wenslingen","shortName":"Wenslingen"},"district":{"key":"1304","name":"Bezirk Sissach"},"canton":{"key":"13","code":"BL","name":"Basel-Landschaft"},"status":"Real"},{"key":"10026542","name":"Buechweg","postalCode":"4493","locality":"Wenslingen","commune":{"key":"2865","name":"Wenslingen","shortName":"Wenslingen"},"district":{"key":"1304","name":"Bezirk Sissach"},"canton":{"key":"13","code":"BL","name":"Basel-Landschaft"},"status":"Real"},{"key":"10174034","name":"Dellen","postalCode":"4493","locality":"Wenslingen","commune":{"key":"2865","name":"Wenslingen","shortName":"Wenslingen"},"district":{"key":"1304","name":"Bezirk Sissach"},"canton":{"key":"13","code":"BL","name":"Basel-Landschaft"},"status":"Real"},{"key":"10118342","name":"Dellenweg","postalCode":"4493","locality":"Wenslingen","commune":{"key":"2865","name":"Wenslingen","shortName":"Wenslingen"},"district":{"key":"1304","name":"Bezirk Sissach"},"canton":{"key":"13","code":"BL","name":"Basel-Landschaft"},"status":"Real"},{"key":"10106931","name":"Dorfstrasse","postalCode":"4493","locality":"Wenslingen","commune":{"key":"2865","name":"Wenslingen","shortName":"Wenslingen"},"district":{"key":"1304","name":"Bezirk Sissach"},"canton":{"key":"13","code":"BL","name":"Basel-Landschaft"},"status":"Real"},{"key":"10141702","name":"Egg","postalCode":"4493","locality":"Wenslingen","commune":{"key":"2865","name":"Wenslingen","shortName":"Wenslingen"},"district":{"key":"1304","name":"Bezirk Sissach"},"canton":{"key":"13","code":"BL","name":"Basel-Landschaft"},"status":"Real"},{"key":"10141177","name":"Eiacher","postalCode":"4493","locality":"Wenslingen","commune":{"key":"2865","name":"Wenslingen","shortName":"Wenslingen"},"district":{"key":"1304","name":"Bezirk Sissach"},"canton":{"key":"13","code":"BL","name":"Basel-Landschaft"},"status":"Real"},{"key":"10156517","name":"Eimis","postalCode":"4493","locality":"Wenslingen","commune":{"key":"2865","name":"Wenslingen","shortName":"Wenslingen"},"district":{"key":"1304","name":"Bezirk Sissach"},"canton":{"key":"13","code":"BL","name":"Basel-Landschaft"},"status":"Real"},{"key":"10156518","name":"Erzmatten","postalCode":"4493","locality":"Wenslingen","commune":{"key":"2865","name":"Wenslingen","shortName":"Wenslingen"},"district":{"key":"1304","name":"Bezirk Sissach"},"canton":{"key":"13","code":"BL","name":"Basel-Landschaft"},"status":"Real"},{"key":"10120376","name":"Feldhof","postalCode":"4493","locality":"Wenslingen","commune":{"key":"2865","name":"Wenslingen","shortName":"Wenslingen"},"district":{"key":"1304","name":"Bezirk Sissach"},"canton":{"key":"13","code":"BL","name":"Basel-Landschaft"},"status":"Real"},{"key":"10156519","name":"Grossholz","postalCode":"4493","locality":"Wenslingen","commune":{"key":"2865","name":"Wenslingen","shortName":"Wenslingen"},"district":{"key":"1304","name":"Bezirk Sissach"},"canton":{"key":"13","code":"BL","name":"Basel-Landschaft"},"status":"Real"},{"key":"10069503","name":"Grundweg","postalCode":"4493","locality":"Wenslingen","commune":{"key":"2865","name":"Wenslingen","shortName":"Wenslingen"},"district":{"key":"1304","name":"Bezirk Sissach"},"canton":{"key":"13","code":"BL","name":"Basel-Landschaft"},"status":"Real"},{"key":"10172694","name":"Hagenmatt","postalCode":"4493","locality":"Wenslingen","commune":{"key":"2865","name":"Wenslingen","shortName":"Wenslingen"},"district":{"key":"1304","name":"Bezirk Sissach"},"canton":{"key":"13","code":"BL","name":"Basel-Landschaft"},"status":"Real"},{"key":"10026543","name":"Hauptstrasse","postalCode":"4493","locality":"Wenslingen","commune":{"key":"2865","name":"Wenslingen","shortName":"Wenslingen"},"district":{"key":"1304","name":"Bezirk Sissach"},"canton":{"key":"13","code":"BL","name":"Basel-Landschaft"},"status":"Real"},{"key":"10047603","name":"Hintere Gasse","postalCode":"4493","locality":"Wenslingen","commune":{"key":"2865","name":"Wenslingen","shortName":"Wenslingen"},"district":{"key":"1304","name":"Bezirk Sissach"},"canton":{"key":"13","code":"BL","name":"Basel-Landschaft"},"status":"Real"},{"key":"10157188","name":"Hinteregg","postalCode":"4493","locality":"Wenslingen","commune":{"key":"2865","name":"Wenslingen","shortName":"Wenslingen"},"district":{"key":"1304","name":"Bezirk Sissach"},"canton":{"key":"13","code":"BL","name":"Basel-Landschaft"},"status":"Real"},{"key":"10162156","name":"Hitwängen","postalCode":"4493","locality":"Wenslingen","commune":{"key":"2865","name":"Wenslingen","shortName":"Wenslingen"},"district":{"key":"1304","name":"Bezirk Sissach"},"canton":{"key":"13","code":"BL","name":"Basel-Landschaft"},"status":"Real"},{"key":"10184785","name":"Hüttengässli","postalCode":"4493","locality":"Wenslingen","commune":{"key":"2865","name":"Wenslingen","shortName":"Wenslingen"},"district":{"key":"1304","name":"Bezirk Sissach"},"canton":{"key":"13","code":"BL","name":"Basel-Landschaft"},"status":"Real"},{"key":"10096322","name":"Im Graben","postalCode":"4493","locality":"Wenslingen","commune":{"key":"2865","name":"Wenslingen","shortName":"Wenslingen"},"district":{"key":"1304","name":"Bezirk Sissach"},"canton":{"key":"13","code":"BL","name":"Basel-Landschaft"},"status":"Real"},{"key":"10124085","name":"Im Kohl","postalCode":"4493","locality":"Wenslingen","commune":{"key":"2865","name":"Wenslingen","shortName":"Wenslingen"},"district":{"key":"1304","name":"Bezirk Sissach"},"canton":{"key":"13","code":"BL","name":"Basel-Landschaft"},"status":"Real"},{"key":"10122553","name":"Innerbuechweg","postalCode":"4493","locality":"Wenslingen","commune":{"key":"2865","name":"Wenslingen","shortName":"Wenslingen"},"district":{"key":"1304","name":"Bezirk Sissach"},"canton":{"key":"13","code":"BL","name":"Basel-Landschaft"},"status":"Real"},{"key":"10047604","name":"Kohlweg","postalCode":"4493","locality":"Wenslingen","commune":{"key":"2865","name":"Wenslingen","shortName":"Wenslingen"},"district":{"key":"1304","name":"Bezirk Sissach"},"canton":{"key":"13","code":"BL","name":"Basel-Landschaft"},"status":"Real"},{"key":"10026544","name":"Leimenweg","postalCode":"4493","locality":"Wenslingen","commune":{"key":"2865","name":"Wenslingen","shortName":"Wenslingen"},"district":{"key":"1304","name":"Bezirk Sissach"},"canton":{"key":"13","code":"BL","name":"Basel-Landschaft"},"status":"Real"},{"key":"10069504","name":"Mattenhof","postalCode":"4493","locality":"Wenslingen","commune":{"key":"2865","name":"Wenslingen","shortName":"Wenslingen"},"district":{"key":"1304","name":"Bezirk Sissach"},"canton":{"key":"13","code":"BL","name":"Basel-Landschaft"},"status":"Real"},{"key":"10096323","name":"Mittlere Gasse","postalCode":"4493","locality":"Wenslingen","commune":{"key":"2865","name":"Wenslingen","shortName":"Wenslingen"},"district":{"key":"1304","name":"Bezirk Sissach"},"canton":{"key":"13","code":"BL","name":"Basel-Landschaft"},"status":"Real"},{"key":"10026545","name":"Mooshof","postalCode":"4493","locality":"Wenslingen","commune":{"key":"2865","name":"Wenslingen","shortName":"Wenslingen"},"district":{"key":"1304","name":"Bezirk Sissach"},"canton":{"key":"13","code":"BL","name":"Basel-Landschaft"},"status":"Real"},{"key":"10069505","name":"Neumattweg","postalCode":"4493","locality":"Wenslingen","commune":{"key":"2865","name":"Wenslingen","shortName":"Wenslingen"},"district":{"key":"1304","name":"Bezirk Sissach"},"canton":{"key":"13","code":"BL","name":"Basel-Landschaft"},"status":"Real"},{"key":"10026546","name":"Oberbuechweg","postalCode":"4493","locality":"Wenslingen","commune":{"key":"2865","name":"Wenslingen","shortName":"Wenslingen"},"district":{"key":"1304","name":"Bezirk Sissach"},"canton":{"key":"13","code":"BL","name":"Basel-Landschaft"},"status":"Real"},{"key":"10243833","name":"Oltingerstrasse","postalCode":"4493","locality":"Wenslingen","commune":{"key":"2865","name":"Wenslingen","shortName":"Wenslingen"},"district":{"key":"1304","name":"Bezirk Sissach"},"canton":{"key":"13","code":"BL","name":"Basel-Landschaft"},"status":"Real"},{"key":"10157190","name":"Rebenhübel","postalCode":"4493","locality":"Wenslingen","commune":{"key":"2865","name":"Wenslingen","shortName":"Wenslingen"},"district":{"key":"1304","name":"Bezirk Sissach"},"canton":{"key":"13","code":"BL","name":"Basel-Landschaft"},"status":"Real"},{"key":"10157192","name":"Rothenfluher Rütenen","postalCode":"4493","locality":"Wenslingen","commune":{"key":"2865","name":"Wenslingen","shortName":"Wenslingen"},"district":{"key":"1304","name":"Bezirk Sissach"},"canton":{"key":"13","code":"BL","name":"Basel-Landschaft"},"status":"Real"},{"key":"10157194","name":"Rütenen","postalCode":"4493","locality":"Wenslingen","commune":{"key":"2865","name":"Wenslingen","shortName":"Wenslingen"},"district":{"key":"1304","name":"Bezirk Sissach"},"canton":{"key":"13","code":"BL","name":"Basel-Landschaft"},"status":"Real"},{"key":"10026547","name":"Sagiweg","postalCode":"4493","locality":"Wenslingen","commune":{"key":"2865","name":"Wenslingen","shortName":"Wenslingen"},"district":{"key":"1304","name":"Bezirk Sissach"},"canton":{"key":"13","code":"BL","name":"Basel-Landschaft"},"status":"Real"},{"key":"10157195","name":"Tristen","postalCode":"4493","locality":"Wenslingen","commune":{"key":"2865","name":"Wenslingen","shortName":"Wenslingen"},"district":{"key":"1304","name":"Bezirk Sissach"},"canton":{"key":"13","code":"BL","name":"Basel-Landschaft"},"status":"Real"},{"key":"10047605","name":"Vordere Gasse","postalCode":"4493","locality":"Wenslingen","commune":{"key":"2865","name":"Wenslingen","shortName":"Wenslingen"},"district":{"key":"1304","name":"Bezirk Sissach"},"canton":{"key":"13","code":"BL","name":"Basel-Landschaft"},"status":"Real"},{"key":"10157200","name":"Voregg","postalCode":"4493","locality":"Wenslingen","commune":{"key":"2865","name":"Wenslingen","shortName":"Wenslingen"},"district":{"key":"1304","name":"Bezirk Sissach"},"canton":{"key":"13","code":"BL","name":"Basel-Landschaft"},"status":"Real"},{"key":"10157198","name":"Vor Hagenloh","postalCode":"4493","locality":"Wenslingen","commune":{"key":"2865","name":"Wenslingen","shortName":"Wenslingen"},"district":{"key":"1304","name":"Bezirk Sissach"},"canton":{"key":"13","code":"BL","name":"Basel-Landschaft"},"status":"Real"},{"key":"10053856","name":"Wangenhof","postalCode":"4493","locality":"Wenslingen","commune":{"key":"2865","name":"Wenslingen","shortName":"Wenslingen"},"district":{"key":"1304","name":"Bezirk Sissach"},"canton":{"key":"13","code":"BL","name":"Basel-Landschaft"},"status":"Real"},{"key":"10161420","name":"Wasserflue","postalCode":"4493","locality":"Wenslingen","commune":{"key":"2865","name":"Wenslingen","shortName":"Wenslingen"},"district":{"key":"1304","name":"Bezirk Sissach"},"canton":{"key":"13","code":"BL","name":"Basel-Landschaft"},"status":"Real"},{"key":"10154996","name":"Weid","postalCode":"4493","locality":"Wenslingen","commune":{"key":"2865","name":"Wenslingen","shortName":"Wenslingen"},"district":{"key":"1304","name":"Bezirk Sissach"},"canton":{"key":"13","code":"BL","name":"Basel-Landschaft"},"status":"Real"},{"key":"10142019","name":"Weidweg","postalCode":"4493","locality":"Wenslingen","commune":{"key":"2865","name":"Wenslingen","shortName":"Wenslingen"},"district":{"key":"1304","name":"Bezirk Sissach"},"canton":{"key":"13","code":"BL","name":"Basel-Landschaft"},"status":"Real"},{"key":"10243837","name":"Zeglingerstrasse","postalCode":"4493","locality":"Wenslingen","commune":{"key":"2865","name":"Wenslingen","shortName":"Wenslingen"},"district":{"key":"1304","name":"Bezirk Sissach"},"canton":{"key":"13","code":"BL","name":"Basel-Landschaft"},"status":"Real"},{"key":"10174600","name":"Zimberplatz","postalCode":"4493","locality":"Wenslingen","commune":{"key":"2865","name":"Wenslingen","shortName":"Wenslingen"},"district":{"key":"1304","name":"Bezirk Sissach"},"canton":{"key":"13","code":"BL","name":"Basel-Landschaft"},"status":"Real"},]