[{"name":"1. Neubruchweg","postalCode":"69251","locality":"Gaiberg","municipality":{"key":"08226022","name":"Gaiberg","type":"Kreisangehörige_Gemeinde"},"district":{"key":"08226","name":"Rhein-Neckar-Kreis","type":"Landkreis"},"federalState":{"key":"08","name":"Baden-Württemberg"}},{"name":"2. Neubruchweg","postalCode":"69251","locality":"Gaiberg","municipality":{"key":"08226022","name":"Gaiberg","type":"Kreisangehörige_Gemeinde"},"district":{"key":"08226","name":"Rhein-Neckar-Kreis","type":"Landkreis"},"federalState":{"key":"08","name":"Baden-Württemberg"}},{"name":"3. Neubruchweg","postalCode":"69251","locality":"Gaiberg","municipality":{"key":"08226022","name":"Gaiberg","type":"Kreisangehörige_Gemeinde"},"district":{"key":"08226","name":"Rhein-Neckar-Kreis","type":"Landkreis"},"federalState":{"key":"08","name":"Baden-Württemberg"}},{"name":"Ahornweg","postalCode":"69251","locality":"Gaiberg","municipality":{"key":"08226022","name":"Gaiberg","type":"Kreisangehörige_Gemeinde"},"district":{"key":"08226","name":"Rhein-Neckar-Kreis","type":"Landkreis"},"federalState":{"key":"08","name":"Baden-Württemberg"}},{"name":"Allmendrain","postalCode":"69251","locality":"Gaiberg","municipality":{"key":"08226022","name":"Gaiberg","type":"Kreisangehörige_Gemeinde"},"district":{"key":"08226","name":"Rhein-Neckar-Kreis","type":"Landkreis"},"federalState":{"key":"08","name":"Baden-Württemberg"}},{"name":"Am Forlenwald","postalCode":"69251","locality":"Gaiberg","municipality":{"key":"08226022","name":"Gaiberg","type":"Kreisangehörige_Gemeinde"},"district":{"key":"08226","name":"Rhein-Neckar-Kreis","type":"Landkreis"},"federalState":{"key":"08","name":"Baden-Württemberg"}},{"name":"Am Großen Wald","postalCode":"69251","locality":"Gaiberg","municipality":{"key":"08226022","name":"Gaiberg","type":"Kreisangehörige_Gemeinde"},"district":{"key":"08226","name":"Rhein-Neckar-Kreis","type":"Landkreis"},"federalState":{"key":"08","name":"Baden-Württemberg"}},{"name":"Am Himbeeracker","postalCode":"69251","locality":"Gaiberg","municipality":{"key":"08226022","name":"Gaiberg","type":"Kreisangehörige_Gemeinde"},"district":{"key":"08226","name":"Rhein-Neckar-Kreis","type":"Landkreis"},"federalState":{"key":"08","name":"Baden-Württemberg"}},{"name":"Am Kirchwald","postalCode":"69251","locality":"Gaiberg","municipality":{"key":"08226022","name":"Gaiberg","type":"Kreisangehörige_Gemeinde"},"district":{"key":"08226","name":"Rhein-Neckar-Kreis","type":"Landkreis"},"federalState":{"key":"08","name":"Baden-Württemberg"}},{"name":"Am Schoepspfad","postalCode":"69251","locality":"Gaiberg","municipality":{"key":"08226022","name":"Gaiberg","type":"Kreisangehörige_Gemeinde"},"district":{"key":"08226","name":"Rhein-Neckar-Kreis","type":"Landkreis"},"federalState":{"key":"08","name":"Baden-Württemberg"}},{"name":"Amselweg","postalCode":"69251","locality":"Gaiberg","municipality":{"key":"08226022","name":"Gaiberg","type":"Kreisangehörige_Gemeinde"},"district":{"key":"08226","name":"Rhein-Neckar-Kreis","type":"Landkreis"},"federalState":{"key":"08","name":"Baden-Württemberg"}},{"name":"Bammentaler Str.","postalCode":"69251","locality":"Gaiberg","municipality":{"key":"08226022","name":"Gaiberg","type":"Kreisangehörige_Gemeinde"},"district":{"key":"08226","name":"Rhein-Neckar-Kreis","type":"Landkreis"},"federalState":{"key":"08","name":"Baden-Württemberg"}},{"name":"Bergstr.","postalCode":"69251","locality":"Gaiberg","municipality":{"key":"08226022","name":"Gaiberg","type":"Kreisangehörige_Gemeinde"},"district":{"key":"08226","name":"Rhein-Neckar-Kreis","type":"Landkreis"},"federalState":{"key":"08","name":"Baden-Württemberg"}},{"name":"Birkenweg","postalCode":"69251","locality":"Gaiberg","municipality":{"key":"08226022","name":"Gaiberg","type":"Kreisangehörige_Gemeinde"},"district":{"key":"08226","name":"Rhein-Neckar-Kreis","type":"Landkreis"},"federalState":{"key":"08","name":"Baden-Württemberg"}},{"name":"Blumenstr.","postalCode":"69251","locality":"Gaiberg","municipality":{"key":"08226022","name":"Gaiberg","type":"Kreisangehörige_Gemeinde"},"district":{"key":"08226","name":"Rhein-Neckar-Kreis","type":"Landkreis"},"federalState":{"key":"08","name":"Baden-Württemberg"}},{"name":"Buchensteige","postalCode":"69251","locality":"Gaiberg","municipality":{"key":"08226022","name":"Gaiberg","type":"Kreisangehörige_Gemeinde"},"district":{"key":"08226","name":"Rhein-Neckar-Kreis","type":"Landkreis"},"federalState":{"key":"08","name":"Baden-Württemberg"}},{"name":"Eichenweg","postalCode":"69251","locality":"Gaiberg","municipality":{"key":"08226022","name":"Gaiberg","type":"Kreisangehörige_Gemeinde"},"district":{"key":"08226","name":"Rhein-Neckar-Kreis","type":"Landkreis"},"federalState":{"key":"08","name":"Baden-Württemberg"}},{"name":"Erlenweg","postalCode":"69251","locality":"Gaiberg","municipality":{"key":"08226022","name":"Gaiberg","type":"Kreisangehörige_Gemeinde"},"district":{"key":"08226","name":"Rhein-Neckar-Kreis","type":"Landkreis"},"federalState":{"key":"08","name":"Baden-Württemberg"}},{"name":"Ernst-Reuter-Str.","postalCode":"69251","locality":"Gaiberg","municipality":{"key":"08226022","name":"Gaiberg","type":"Kreisangehörige_Gemeinde"},"district":{"key":"08226","name":"Rhein-Neckar-Kreis","type":"Landkreis"},"federalState":{"key":"08","name":"Baden-Württemberg"}},{"name":"Fasanenstr.","postalCode":"69251","locality":"Gaiberg","municipality":{"key":"08226022","name":"Gaiberg","type":"Kreisangehörige_Gemeinde"},"district":{"key":"08226","name":"Rhein-Neckar-Kreis","type":"Landkreis"},"federalState":{"key":"08","name":"Baden-Württemberg"}},{"name":"Finkenstr.","postalCode":"69251","locality":"Gaiberg","municipality":{"key":"08226022","name":"Gaiberg","type":"Kreisangehörige_Gemeinde"},"district":{"key":"08226","name":"Rhein-Neckar-Kreis","type":"Landkreis"},"federalState":{"key":"08","name":"Baden-Württemberg"}},{"name":"Friedhofweg","postalCode":"69251","locality":"Gaiberg","municipality":{"key":"08226022","name":"Gaiberg","type":"Kreisangehörige_Gemeinde"},"district":{"key":"08226","name":"Rhein-Neckar-Kreis","type":"Landkreis"},"federalState":{"key":"08","name":"Baden-Württemberg"}},{"name":"Gaiberger Weg","postalCode":"69251","locality":"Gaiberg","municipality":{"key":"08226022","name":"Gaiberg","type":"Kreisangehörige_Gemeinde"},"district":{"key":"08226","name":"Rhein-Neckar-Kreis","type":"Landkreis"},"federalState":{"key":"08","name":"Baden-Württemberg"}},{"name":"Gartenstr.","postalCode":"69251","locality":"Gaiberg","municipality":{"key":"08226022","name":"Gaiberg","type":"Kreisangehörige_Gemeinde"},"district":{"key":"08226","name":"Rhein-Neckar-Kreis","type":"Landkreis"},"federalState":{"key":"08","name":"Baden-Württemberg"}},{"name":"Georg-Müller-Weg","postalCode":"69251","locality":"Gaiberg","municipality":{"key":"08226022","name":"Gaiberg","type":"Kreisangehörige_Gemeinde"},"district":{"key":"08226","name":"Rhein-Neckar-Kreis","type":"Landkreis"},"federalState":{"key":"08","name":"Baden-Württemberg"}},{"name":"Goethestr.","postalCode":"69251","locality":"Gaiberg","municipality":{"key":"08226022","name":"Gaiberg","type":"Kreisangehörige_Gemeinde"},"district":{"key":"08226","name":"Rhein-Neckar-Kreis","type":"Landkreis"},"federalState":{"key":"08","name":"Baden-Württemberg"}},{"name":"Grasweg","postalCode":"69251","locality":"Gaiberg","municipality":{"key":"08226022","name":"Gaiberg","type":"Kreisangehörige_Gemeinde"},"district":{"key":"08226","name":"Rhein-Neckar-Kreis","type":"Landkreis"},"federalState":{"key":"08","name":"Baden-Württemberg"}},{"name":"Hauptstr.","postalCode":"69251","locality":"Gaiberg","municipality":{"key":"08226022","name":"Gaiberg","type":"Kreisangehörige_Gemeinde"},"district":{"key":"08226","name":"Rhein-Neckar-Kreis","type":"Landkreis"},"federalState":{"key":"08","name":"Baden-Württemberg"}},{"name":"Hauptweg","postalCode":"69251","locality":"Gaiberg","municipality":{"key":"08226022","name":"Gaiberg","type":"Kreisangehörige_Gemeinde"},"district":{"key":"08226","name":"Rhein-Neckar-Kreis","type":"Landkreis"},"federalState":{"key":"08","name":"Baden-Württemberg"}},{"name":"Heidelberger Str.","postalCode":"69251","locality":"Gaiberg","municipality":{"key":"08226022","name":"Gaiberg","type":"Kreisangehörige_Gemeinde"},"district":{"key":"08226","name":"Rhein-Neckar-Kreis","type":"Landkreis"},"federalState":{"key":"08","name":"Baden-Württemberg"}},{"name":"Hermann-Löns-Str.","postalCode":"69251","locality":"Gaiberg","municipality":{"key":"08226022","name":"Gaiberg","type":"Kreisangehörige_Gemeinde"},"district":{"key":"08226","name":"Rhein-Neckar-Kreis","type":"Landkreis"},"federalState":{"key":"08","name":"Baden-Württemberg"}},{"name":"Höhenweg","postalCode":"69251","locality":"Gaiberg","municipality":{"key":"08226022","name":"Gaiberg","type":"Kreisangehörige_Gemeinde"},"district":{"key":"08226","name":"Rhein-Neckar-Kreis","type":"Landkreis"},"federalState":{"key":"08","name":"Baden-Württemberg"}},{"name":"Hölderlinstr.","postalCode":"69251","locality":"Gaiberg","municipality":{"key":"08226022","name":"Gaiberg","type":"Kreisangehörige_Gemeinde"},"district":{"key":"08226","name":"Rhein-Neckar-Kreis","type":"Landkreis"},"federalState":{"key":"08","name":"Baden-Württemberg"}},{"name":"Im Talblick","postalCode":"69251","locality":"Gaiberg","municipality":{"key":"08226022","name":"Gaiberg","type":"Kreisangehörige_Gemeinde"},"district":{"key":"08226","name":"Rhein-Neckar-Kreis","type":"Landkreis"},"federalState":{"key":"08","name":"Baden-Württemberg"}},{"name":"In den Krautäckern","postalCode":"69251","locality":"Gaiberg","municipality":{"key":"08226022","name":"Gaiberg","type":"Kreisangehörige_Gemeinde"},"district":{"key":"08226","name":"Rhein-Neckar-Kreis","type":"Landkreis"},"federalState":{"key":"08","name":"Baden-Württemberg"}},{"name":"In den Petersgärten","postalCode":"69251","locality":"Gaiberg","municipality":{"key":"08226022","name":"Gaiberg","type":"Kreisangehörige_Gemeinde"},"district":{"key":"08226","name":"Rhein-Neckar-Kreis","type":"Landkreis"},"federalState":{"key":"08","name":"Baden-Württemberg"}},{"name":"In der Bildwiese","postalCode":"69251","locality":"Gaiberg","municipality":{"key":"08226022","name":"Gaiberg","type":"Kreisangehörige_Gemeinde"},"district":{"key":"08226","name":"Rhein-Neckar-Kreis","type":"Landkreis"},"federalState":{"key":"08","name":"Baden-Württemberg"}},{"name":"In der Reute","postalCode":"69251","locality":"Gaiberg","municipality":{"key":"08226022","name":"Gaiberg","type":"Kreisangehörige_Gemeinde"},"district":{"key":"08226","name":"Rhein-Neckar-Kreis","type":"Landkreis"},"federalState":{"key":"08","name":"Baden-Württemberg"}},{"name":"Kiefernweg","postalCode":"69251","locality":"Gaiberg","municipality":{"key":"08226022","name":"Gaiberg","type":"Kreisangehörige_Gemeinde"},"district":{"key":"08226","name":"Rhein-Neckar-Kreis","type":"Landkreis"},"federalState":{"key":"08","name":"Baden-Württemberg"}},{"name":"Kirschbaumweg","postalCode":"69251","locality":"Gaiberg","municipality":{"key":"08226022","name":"Gaiberg","type":"Kreisangehörige_Gemeinde"},"district":{"key":"08226","name":"Rhein-Neckar-Kreis","type":"Landkreis"},"federalState":{"key":"08","name":"Baden-Württemberg"}},{"name":"Lärchenweg","postalCode":"69251","locality":"Gaiberg","municipality":{"key":"08226022","name":"Gaiberg","type":"Kreisangehörige_Gemeinde"},"district":{"key":"08226","name":"Rhein-Neckar-Kreis","type":"Landkreis"},"federalState":{"key":"08","name":"Baden-Württemberg"}},{"name":"Lerchenstr.","postalCode":"69251","locality":"Gaiberg","municipality":{"key":"08226022","name":"Gaiberg","type":"Kreisangehörige_Gemeinde"},"district":{"key":"08226","name":"Rhein-Neckar-Kreis","type":"Landkreis"},"federalState":{"key":"08","name":"Baden-Württemberg"}},{"name":"Lessingstr.","postalCode":"69251","locality":"Gaiberg","municipality":{"key":"08226022","name":"Gaiberg","type":"Kreisangehörige_Gemeinde"},"district":{"key":"08226","name":"Rhein-Neckar-Kreis","type":"Landkreis"},"federalState":{"key":"08","name":"Baden-Württemberg"}},{"name":"Lindenplatz","postalCode":"69251","locality":"Gaiberg","municipality":{"key":"08226022","name":"Gaiberg","type":"Kreisangehörige_Gemeinde"},"district":{"key":"08226","name":"Rhein-Neckar-Kreis","type":"Landkreis"},"federalState":{"key":"08","name":"Baden-Württemberg"}},{"name":"Ochsenpferchweg","postalCode":"69251","locality":"Gaiberg","municipality":{"key":"08226022","name":"Gaiberg","type":"Kreisangehörige_Gemeinde"},"district":{"key":"08226","name":"Rhein-Neckar-Kreis","type":"Landkreis"},"federalState":{"key":"08","name":"Baden-Württemberg"}},{"name":"Otto-Wiesner-Weg","postalCode":"69251","locality":"Gaiberg","municipality":{"key":"08226022","name":"Gaiberg","type":"Kreisangehörige_Gemeinde"},"district":{"key":"08226","name":"Rhein-Neckar-Kreis","type":"Landkreis"},"federalState":{"key":"08","name":"Baden-Württemberg"}},{"name":"Panoramastr.","postalCode":"69251","locality":"Gaiberg","municipality":{"key":"08226022","name":"Gaiberg","type":"Kreisangehörige_Gemeinde"},"district":{"key":"08226","name":"Rhein-Neckar-Kreis","type":"Landkreis"},"federalState":{"key":"08","name":"Baden-Württemberg"}},{"name":"Pfarrgasse","postalCode":"69251","locality":"Gaiberg","municipality":{"key":"08226022","name":"Gaiberg","type":"Kreisangehörige_Gemeinde"},"district":{"key":"08226","name":"Rhein-Neckar-Kreis","type":"Landkreis"},"federalState":{"key":"08","name":"Baden-Württemberg"}},{"name":"Reilsheimer Weg","postalCode":"69251","locality":"Gaiberg","municipality":{"key":"08226022","name":"Gaiberg","type":"Kreisangehörige_Gemeinde"},"district":{"key":"08226","name":"Rhein-Neckar-Kreis","type":"Landkreis"},"federalState":{"key":"08","name":"Baden-Württemberg"}},{"name":"Ringstr.","postalCode":"69251","locality":"Gaiberg","municipality":{"key":"08226022","name":"Gaiberg","type":"Kreisangehörige_Gemeinde"},"district":{"key":"08226","name":"Rhein-Neckar-Kreis","type":"Landkreis"},"federalState":{"key":"08","name":"Baden-Württemberg"}},{"name":"Rohrbacher Weg","postalCode":"69251","locality":"Gaiberg","municipality":{"key":"08226022","name":"Gaiberg","type":"Kreisangehörige_Gemeinde"},"district":{"key":"08226","name":"Rhein-Neckar-Kreis","type":"Landkreis"},"federalState":{"key":"08","name":"Baden-Württemberg"}},{"name":"Saatschulweg","postalCode":"69251","locality":"Gaiberg","municipality":{"key":"08226022","name":"Gaiberg","type":"Kreisangehörige_Gemeinde"},"district":{"key":"08226","name":"Rhein-Neckar-Kreis","type":"Landkreis"},"federalState":{"key":"08","name":"Baden-Württemberg"}},{"name":"Scheffelweg","postalCode":"69251","locality":"Gaiberg","municipality":{"key":"08226022","name":"Gaiberg","type":"Kreisangehörige_Gemeinde"},"district":{"key":"08226","name":"Rhein-Neckar-Kreis","type":"Landkreis"},"federalState":{"key":"08","name":"Baden-Württemberg"}},{"name":"Schillerstr.","postalCode":"69251","locality":"Gaiberg","municipality":{"key":"08226022","name":"Gaiberg","type":"Kreisangehörige_Gemeinde"},"district":{"key":"08226","name":"Rhein-Neckar-Kreis","type":"Landkreis"},"federalState":{"key":"08","name":"Baden-Württemberg"}},{"name":"Schwäbisch-Hall-Str.","postalCode":"69251","locality":"Gaiberg","municipality":{"key":"08226022","name":"Gaiberg","type":"Kreisangehörige_Gemeinde"},"district":{"key":"08226","name":"Rhein-Neckar-Kreis","type":"Landkreis"},"federalState":{"key":"08","name":"Baden-Württemberg"}},{"name":"Sportplatzstr.","postalCode":"69251","locality":"Gaiberg","municipality":{"key":"08226022","name":"Gaiberg","type":"Kreisangehörige_Gemeinde"},"district":{"key":"08226","name":"Rhein-Neckar-Kreis","type":"Landkreis"},"federalState":{"key":"08","name":"Baden-Württemberg"}},{"name":"Steinerner Bankweg","postalCode":"69251","locality":"Gaiberg","municipality":{"key":"08226022","name":"Gaiberg","type":"Kreisangehörige_Gemeinde"},"district":{"key":"08226","name":"Rhein-Neckar-Kreis","type":"Landkreis"},"federalState":{"key":"08","name":"Baden-Württemberg"}},{"name":"Tannenweg","postalCode":"69251","locality":"Gaiberg","municipality":{"key":"08226022","name":"Gaiberg","type":"Kreisangehörige_Gemeinde"},"district":{"key":"08226","name":"Rhein-Neckar-Kreis","type":"Landkreis"},"federalState":{"key":"08","name":"Baden-Württemberg"}},{"name":"Unterer Grasweg","postalCode":"69251","locality":"Gaiberg","municipality":{"key":"08226022","name":"Gaiberg","type":"Kreisangehörige_Gemeinde"},"district":{"key":"08226","name":"Rhein-Neckar-Kreis","type":"Landkreis"},"federalState":{"key":"08","name":"Baden-Württemberg"}},{"name":"Viehtriebteichweg","postalCode":"69251","locality":"Gaiberg","municipality":{"key":"08226022","name":"Gaiberg","type":"Kreisangehörige_Gemeinde"},"district":{"key":"08226","name":"Rhein-Neckar-Kreis","type":"Landkreis"},"federalState":{"key":"08","name":"Baden-Württemberg"}},{"name":"Waldhilsbacher Weg","postalCode":"69251","locality":"Gaiberg","municipality":{"key":"08226022","name":"Gaiberg","type":"Kreisangehörige_Gemeinde"},"district":{"key":"08226","name":"Rhein-Neckar-Kreis","type":"Landkreis"},"federalState":{"key":"08","name":"Baden-Württemberg"}},{"name":"Weiherwiesenweg","postalCode":"69251","locality":"Gaiberg","municipality":{"key":"08226022","name":"Gaiberg","type":"Kreisangehörige_Gemeinde"},"district":{"key":"08226","name":"Rhein-Neckar-Kreis","type":"Landkreis"},"federalState":{"key":"08","name":"Baden-Württemberg"}},{"name":"Wielandstr.","postalCode":"69251","locality":"Gaiberg","municipality":{"key":"08226022","name":"Gaiberg","type":"Kreisangehörige_Gemeinde"},"district":{"key":"08226","name":"Rhein-Neckar-Kreis","type":"Landkreis"},"federalState":{"key":"08","name":"Baden-Württemberg"}},{"name":"Zum Kittel","postalCode":"69251","locality":"Gaiberg","municipality":{"key":"08226022","name":"Gaiberg","type":"Kreisangehörige_Gemeinde"},"district":{"key":"08226","name":"Rhein-Neckar-Kreis","type":"Landkreis"},"federalState":{"key":"08","name":"Baden-Württemberg"}},]