[{"name":"Am Steinernen Haus","postalCode":"65558","locality":"Lohrheim","municipality":{"key":"07141081","name":"Lohrheim","type":"Kreisangehörige_Gemeinde"},"district":{"key":"07141","name":"Rhein-Lahn-Kreis","type":"Landkreis"},"federalState":{"key":"07","name":"Rheinland-Pfalz"}},{"name":"An der Mehrzweckhalle","postalCode":"65558","locality":"Lohrheim","municipality":{"key":"07141081","name":"Lohrheim","type":"Kreisangehörige_Gemeinde"},"district":{"key":"07141","name":"Rhein-Lahn-Kreis","type":"Landkreis"},"federalState":{"key":"07","name":"Rheinland-Pfalz"}},{"name":"Auf der Bleiche","postalCode":"65558","locality":"Lohrheim","municipality":{"key":"07141081","name":"Lohrheim","type":"Kreisangehörige_Gemeinde"},"district":{"key":"07141","name":"Rhein-Lahn-Kreis","type":"Landkreis"},"federalState":{"key":"07","name":"Rheinland-Pfalz"}},{"name":"Bachstr.","postalCode":"65558","locality":"Lohrheim","municipality":{"key":"07141081","name":"Lohrheim","type":"Kreisangehörige_Gemeinde"},"district":{"key":"07141","name":"Rhein-Lahn-Kreis","type":"Landkreis"},"federalState":{"key":"07","name":"Rheinland-Pfalz"}},{"name":"Friedhofstr.","postalCode":"65558","locality":"Lohrheim","municipality":{"key":"07141081","name":"Lohrheim","type":"Kreisangehörige_Gemeinde"},"district":{"key":"07141","name":"Rhein-Lahn-Kreis","type":"Landkreis"},"federalState":{"key":"07","name":"Rheinland-Pfalz"}},{"name":"Gartenstr.","postalCode":"65558","locality":"Lohrheim","municipality":{"key":"07141081","name":"Lohrheim","type":"Kreisangehörige_Gemeinde"},"district":{"key":"07141","name":"Rhein-Lahn-Kreis","type":"Landkreis"},"federalState":{"key":"07","name":"Rheinland-Pfalz"}},{"name":"Im Buchgarten","postalCode":"65558","locality":"Lohrheim","municipality":{"key":"07141081","name":"Lohrheim","type":"Kreisangehörige_Gemeinde"},"district":{"key":"07141","name":"Rhein-Lahn-Kreis","type":"Landkreis"},"federalState":{"key":"07","name":"Rheinland-Pfalz"}},{"name":"Im Steingarten","postalCode":"65558","locality":"Lohrheim","municipality":{"key":"07141081","name":"Lohrheim","type":"Kreisangehörige_Gemeinde"},"district":{"key":"07141","name":"Rhein-Lahn-Kreis","type":"Landkreis"},"federalState":{"key":"07","name":"Rheinland-Pfalz"}},{"name":"Niedereiserner Str.","postalCode":"65558","locality":"Lohrheim","municipality":{"key":"07141081","name":"Lohrheim","type":"Kreisangehörige_Gemeinde"},"district":{"key":"07141","name":"Rhein-Lahn-Kreis","type":"Landkreis"},"federalState":{"key":"07","name":"Rheinland-Pfalz"}},{"name":"Niederneiser Str.","postalCode":"65558","locality":"Lohrheim","municipality":{"key":"07141081","name":"Lohrheim","type":"Kreisangehörige_Gemeinde"},"district":{"key":"07141","name":"Rhein-Lahn-Kreis","type":"Landkreis"},"federalState":{"key":"07","name":"Rheinland-Pfalz"}},{"name":"Rheingauerstr.","postalCode":"65558","locality":"Lohrheim","municipality":{"key":"07141081","name":"Lohrheim","type":"Kreisangehörige_Gemeinde"},"district":{"key":"07141","name":"Rhein-Lahn-Kreis","type":"Landkreis"},"federalState":{"key":"07","name":"Rheinland-Pfalz"}},{"name":"Rinkerstr.","postalCode":"65558","locality":"Lohrheim","municipality":{"key":"07141081","name":"Lohrheim","type":"Kreisangehörige_Gemeinde"},"district":{"key":"07141","name":"Rhein-Lahn-Kreis","type":"Landkreis"},"federalState":{"key":"07","name":"Rheinland-Pfalz"}},{"name":"Schaumburger Str.","postalCode":"65558","locality":"Lohrheim","municipality":{"key":"07141081","name":"Lohrheim","type":"Kreisangehörige_Gemeinde"},"district":{"key":"07141","name":"Rhein-Lahn-Kreis","type":"Landkreis"},"federalState":{"key":"07","name":"Rheinland-Pfalz"}},{"name":"Schulstr.","postalCode":"65558","locality":"Lohrheim","municipality":{"key":"07141081","name":"Lohrheim","type":"Kreisangehörige_Gemeinde"},"district":{"key":"07141","name":"Rhein-Lahn-Kreis","type":"Landkreis"},"federalState":{"key":"07","name":"Rheinland-Pfalz"}},{"name":"Wiesenstr.","postalCode":"65558","locality":"Lohrheim","municipality":{"key":"07141081","name":"Lohrheim","type":"Kreisangehörige_Gemeinde"},"district":{"key":"07141","name":"Rhein-Lahn-Kreis","type":"Landkreis"},"federalState":{"key":"07","name":"Rheinland-Pfalz"}},]