[{"name":"Ahornstr.","postalCode":"91477","locality":"Markt Bibart","municipality":{"key":"09575144","name":"Markt Bibart, M","type":"Markt"},"district":{"key":"09575","name":"Neustadt a.d.Aisch-Bad Windsheim","type":"Landkreis"},"federalState":{"key":"09","name":"Bayern"}},{"name":"Allee","postalCode":"91477","locality":"Markt Bibart","municipality":{"key":"09575144","name":"Markt Bibart, M","type":"Markt"},"district":{"key":"09575","name":"Neustadt a.d.Aisch-Bad Windsheim","type":"Landkreis"},"federalState":{"key":"09","name":"Bayern"}},{"name":"Altmannshausen","postalCode":"91477","locality":"Markt Bibart","municipality":{"key":"09575144","name":"Markt Bibart, M","type":"Markt"},"district":{"key":"09575","name":"Neustadt a.d.Aisch-Bad Windsheim","type":"Landkreis"},"federalState":{"key":"09","name":"Bayern"}},{"name":"Am Bahndamm","postalCode":"91477","locality":"Markt Bibart","municipality":{"key":"09575144","name":"Markt Bibart, M","type":"Markt"},"district":{"key":"09575","name":"Neustadt a.d.Aisch-Bad Windsheim","type":"Landkreis"},"federalState":{"key":"09","name":"Bayern"}},{"name":"Am Graben","postalCode":"91477","locality":"Markt Bibart","municipality":{"key":"09575144","name":"Markt Bibart, M","type":"Markt"},"district":{"key":"09575","name":"Neustadt a.d.Aisch-Bad Windsheim","type":"Landkreis"},"federalState":{"key":"09","name":"Bayern"}},{"name":"Am Linsenbühl","postalCode":"91477","locality":"Markt Bibart","municipality":{"key":"09575144","name":"Markt Bibart, M","type":"Markt"},"district":{"key":"09575","name":"Neustadt a.d.Aisch-Bad Windsheim","type":"Landkreis"},"federalState":{"key":"09","name":"Bayern"}},{"name":"Am Mühlberg","postalCode":"91477","locality":"Markt Bibart","municipality":{"key":"09575144","name":"Markt Bibart, M","type":"Markt"},"district":{"key":"09575","name":"Neustadt a.d.Aisch-Bad Windsheim","type":"Landkreis"},"federalState":{"key":"09","name":"Bayern"}},{"name":"Am Sonnenhang","postalCode":"91477","locality":"Markt Bibart","municipality":{"key":"09575144","name":"Markt Bibart, M","type":"Markt"},"district":{"key":"09575","name":"Neustadt a.d.Aisch-Bad Windsheim","type":"Landkreis"},"federalState":{"key":"09","name":"Bayern"}},{"name":"Am Sternbach","postalCode":"91477","locality":"Markt Bibart","municipality":{"key":"09575144","name":"Markt Bibart, M","type":"Markt"},"district":{"key":"09575","name":"Neustadt a.d.Aisch-Bad Windsheim","type":"Landkreis"},"federalState":{"key":"09","name":"Bayern"}},{"name":"Am Stocksee","postalCode":"91477","locality":"Markt Bibart","municipality":{"key":"09575144","name":"Markt Bibart, M","type":"Markt"},"district":{"key":"09575","name":"Neustadt a.d.Aisch-Bad Windsheim","type":"Landkreis"},"federalState":{"key":"09","name":"Bayern"}},{"name":"Bachgasse","postalCode":"91477","locality":"Markt Bibart","municipality":{"key":"09575144","name":"Markt Bibart, M","type":"Markt"},"district":{"key":"09575","name":"Neustadt a.d.Aisch-Bad Windsheim","type":"Landkreis"},"federalState":{"key":"09","name":"Bayern"}},{"name":"Bäckengasse","postalCode":"91477","locality":"Markt Bibart","municipality":{"key":"09575144","name":"Markt Bibart, M","type":"Markt"},"district":{"key":"09575","name":"Neustadt a.d.Aisch-Bad Windsheim","type":"Landkreis"},"federalState":{"key":"09","name":"Bayern"}},{"name":"Bahnhofstr.","postalCode":"91477","locality":"Markt Bibart","municipality":{"key":"09575144","name":"Markt Bibart, M","type":"Markt"},"district":{"key":"09575","name":"Neustadt a.d.Aisch-Bad Windsheim","type":"Landkreis"},"federalState":{"key":"09","name":"Bayern"}},{"name":"Bamberger Str.","postalCode":"91477","locality":"Markt Bibart","municipality":{"key":"09575144","name":"Markt Bibart, M","type":"Markt"},"district":{"key":"09575","name":"Neustadt a.d.Aisch-Bad Windsheim","type":"Landkreis"},"federalState":{"key":"09","name":"Bayern"}},{"name":"Bauhofstr.","postalCode":"91477","locality":"Markt Bibart","municipality":{"key":"09575144","name":"Markt Bibart, M","type":"Markt"},"district":{"key":"09575","name":"Neustadt a.d.Aisch-Bad Windsheim","type":"Landkreis"},"federalState":{"key":"09","name":"Bayern"}},{"name":"Bergstr.","postalCode":"91477","locality":"Markt Bibart","municipality":{"key":"09575144","name":"Markt Bibart, M","type":"Markt"},"district":{"key":"09575","name":"Neustadt a.d.Aisch-Bad Windsheim","type":"Landkreis"},"federalState":{"key":"09","name":"Bayern"}},{"name":"Birkenstr.","postalCode":"91477","locality":"Markt Bibart","municipality":{"key":"09575144","name":"Markt Bibart, M","type":"Markt"},"district":{"key":"09575","name":"Neustadt a.d.Aisch-Bad Windsheim","type":"Landkreis"},"federalState":{"key":"09","name":"Bayern"}},{"name":"Brunnengasse","postalCode":"91477","locality":"Markt Bibart","municipality":{"key":"09575144","name":"Markt Bibart, M","type":"Markt"},"district":{"key":"09575","name":"Neustadt a.d.Aisch-Bad Windsheim","type":"Landkreis"},"federalState":{"key":"09","name":"Bayern"}},{"name":"Eckweg","postalCode":"91477","locality":"Markt Bibart","municipality":{"key":"09575144","name":"Markt Bibart, M","type":"Markt"},"district":{"key":"09575","name":"Neustadt a.d.Aisch-Bad Windsheim","type":"Landkreis"},"federalState":{"key":"09","name":"Bayern"}},{"name":"Enzlar","postalCode":"91477","locality":"Markt Bibart","municipality":{"key":"09575144","name":"Markt Bibart, M","type":"Markt"},"district":{"key":"09575","name":"Neustadt a.d.Aisch-Bad Windsheim","type":"Landkreis"},"federalState":{"key":"09","name":"Bayern"}},{"name":"Erlenstr.","postalCode":"91477","locality":"Markt Bibart","municipality":{"key":"09575144","name":"Markt Bibart, M","type":"Markt"},"district":{"key":"09575","name":"Neustadt a.d.Aisch-Bad Windsheim","type":"Landkreis"},"federalState":{"key":"09","name":"Bayern"}},{"name":"Frankenbergstr.","postalCode":"91477","locality":"Markt Bibart","municipality":{"key":"09575144","name":"Markt Bibart, M","type":"Markt"},"district":{"key":"09575","name":"Neustadt a.d.Aisch-Bad Windsheim","type":"Landkreis"},"federalState":{"key":"09","name":"Bayern"}},{"name":"Fuchsau","postalCode":"91477","locality":"Markt Bibart","municipality":{"key":"09575144","name":"Markt Bibart, M","type":"Markt"},"district":{"key":"09575","name":"Neustadt a.d.Aisch-Bad Windsheim","type":"Landkreis"},"federalState":{"key":"09","name":"Bayern"}},{"name":"Gartenweg","postalCode":"91477","locality":"Markt Bibart","municipality":{"key":"09575144","name":"Markt Bibart, M","type":"Markt"},"district":{"key":"09575","name":"Neustadt a.d.Aisch-Bad Windsheim","type":"Landkreis"},"federalState":{"key":"09","name":"Bayern"}},{"name":"Hirtengasse","postalCode":"91477","locality":"Markt Bibart","municipality":{"key":"09575144","name":"Markt Bibart, M","type":"Markt"},"district":{"key":"09575","name":"Neustadt a.d.Aisch-Bad Windsheim","type":"Landkreis"},"federalState":{"key":"09","name":"Bayern"}},{"name":"Holzleitenstr.","postalCode":"91477","locality":"Markt Bibart","municipality":{"key":"09575144","name":"Markt Bibart, M","type":"Markt"},"district":{"key":"09575","name":"Neustadt a.d.Aisch-Bad Windsheim","type":"Landkreis"},"federalState":{"key":"09","name":"Bayern"}},{"name":"Hopfenweg","postalCode":"91477","locality":"Markt Bibart","municipality":{"key":"09575144","name":"Markt Bibart, M","type":"Markt"},"district":{"key":"09575","name":"Neustadt a.d.Aisch-Bad Windsheim","type":"Landkreis"},"federalState":{"key":"09","name":"Bayern"}},{"name":"Jahnstr.","postalCode":"91477","locality":"Markt Bibart","municipality":{"key":"09575144","name":"Markt Bibart, M","type":"Markt"},"district":{"key":"09575","name":"Neustadt a.d.Aisch-Bad Windsheim","type":"Landkreis"},"federalState":{"key":"09","name":"Bayern"}},{"name":"Julius-Echter-Platz","postalCode":"91477","locality":"Markt Bibart","municipality":{"key":"09575144","name":"Markt Bibart, M","type":"Markt"},"district":{"key":"09575","name":"Neustadt a.d.Aisch-Bad Windsheim","type":"Landkreis"},"federalState":{"key":"09","name":"Bayern"}},{"name":"Kapellenweg","postalCode":"91477","locality":"Markt Bibart","municipality":{"key":"09575144","name":"Markt Bibart, M","type":"Markt"},"district":{"key":"09575","name":"Neustadt a.d.Aisch-Bad Windsheim","type":"Landkreis"},"federalState":{"key":"09","name":"Bayern"}},{"name":"Kellerweg","postalCode":"91477","locality":"Markt Bibart","municipality":{"key":"09575144","name":"Markt Bibart, M","type":"Markt"},"district":{"key":"09575","name":"Neustadt a.d.Aisch-Bad Windsheim","type":"Landkreis"},"federalState":{"key":"09","name":"Bayern"}},{"name":"Kolpingstr.","postalCode":"91477","locality":"Markt Bibart","municipality":{"key":"09575144","name":"Markt Bibart, M","type":"Markt"},"district":{"key":"09575","name":"Neustadt a.d.Aisch-Bad Windsheim","type":"Landkreis"},"federalState":{"key":"09","name":"Bayern"}},{"name":"Lindenstr.","postalCode":"91477","locality":"Markt Bibart","municipality":{"key":"09575144","name":"Markt Bibart, M","type":"Markt"},"district":{"key":"09575","name":"Neustadt a.d.Aisch-Bad Windsheim","type":"Landkreis"},"federalState":{"key":"09","name":"Bayern"}},{"name":"Märzenbecherpfad","postalCode":"91477","locality":"Markt Bibart","municipality":{"key":"09575144","name":"Markt Bibart, M","type":"Markt"},"district":{"key":"09575","name":"Neustadt a.d.Aisch-Bad Windsheim","type":"Landkreis"},"federalState":{"key":"09","name":"Bayern"}},{"name":"Mühlstr.","postalCode":"91477","locality":"Markt Bibart","municipality":{"key":"09575144","name":"Markt Bibart, M","type":"Markt"},"district":{"key":"09575","name":"Neustadt a.d.Aisch-Bad Windsheim","type":"Landkreis"},"federalState":{"key":"09","name":"Bayern"}},{"name":"Nürnberger Str.","postalCode":"91477","locality":"Markt Bibart","municipality":{"key":"09575144","name":"Markt Bibart, M","type":"Markt"},"district":{"key":"09575","name":"Neustadt a.d.Aisch-Bad Windsheim","type":"Landkreis"},"federalState":{"key":"09","name":"Bayern"}},{"name":"Oberes Tor","postalCode":"91477","locality":"Markt Bibart","municipality":{"key":"09575144","name":"Markt Bibart, M","type":"Markt"},"district":{"key":"09575","name":"Neustadt a.d.Aisch-Bad Windsheim","type":"Landkreis"},"federalState":{"key":"09","name":"Bayern"}},{"name":"Pestalozzistr.","postalCode":"91477","locality":"Markt Bibart","municipality":{"key":"09575144","name":"Markt Bibart, M","type":"Markt"},"district":{"key":"09575","name":"Neustadt a.d.Aisch-Bad Windsheim","type":"Landkreis"},"federalState":{"key":"09","name":"Bayern"}},{"name":"Raiffeisenstr.","postalCode":"91477","locality":"Markt Bibart","municipality":{"key":"09575144","name":"Markt Bibart, M","type":"Markt"},"district":{"key":"09575","name":"Neustadt a.d.Aisch-Bad Windsheim","type":"Landkreis"},"federalState":{"key":"09","name":"Bayern"}},{"name":"Rathausgasse","postalCode":"91477","locality":"Markt Bibart","municipality":{"key":"09575144","name":"Markt Bibart, M","type":"Markt"},"district":{"key":"09575","name":"Neustadt a.d.Aisch-Bad Windsheim","type":"Landkreis"},"federalState":{"key":"09","name":"Bayern"}},{"name":"Ringweg","postalCode":"91477","locality":"Markt Bibart","municipality":{"key":"09575144","name":"Markt Bibart, M","type":"Markt"},"district":{"key":"09575","name":"Neustadt a.d.Aisch-Bad Windsheim","type":"Landkreis"},"federalState":{"key":"09","name":"Bayern"}},{"name":"Roßgasse","postalCode":"91477","locality":"Markt Bibart","municipality":{"key":"09575144","name":"Markt Bibart, M","type":"Markt"},"district":{"key":"09575","name":"Neustadt a.d.Aisch-Bad Windsheim","type":"Landkreis"},"federalState":{"key":"09","name":"Bayern"}},{"name":"Rothenburger Str.","postalCode":"91477","locality":"Markt Bibart","municipality":{"key":"09575144","name":"Markt Bibart, M","type":"Markt"},"district":{"key":"09575","name":"Neustadt a.d.Aisch-Bad Windsheim","type":"Landkreis"},"federalState":{"key":"09","name":"Bayern"}},{"name":"Scharfes Eck","postalCode":"91477","locality":"Markt Bibart","municipality":{"key":"09575144","name":"Markt Bibart, M","type":"Markt"},"district":{"key":"09575","name":"Neustadt a.d.Aisch-Bad Windsheim","type":"Landkreis"},"federalState":{"key":"09","name":"Bayern"}},{"name":"Sudetenstr.","postalCode":"91477","locality":"Markt Bibart","municipality":{"key":"09575144","name":"Markt Bibart, M","type":"Markt"},"district":{"key":"09575","name":"Neustadt a.d.Aisch-Bad Windsheim","type":"Landkreis"},"federalState":{"key":"09","name":"Bayern"}},{"name":"Tannenweg","postalCode":"91477","locality":"Markt Bibart","municipality":{"key":"09575144","name":"Markt Bibart, M","type":"Markt"},"district":{"key":"09575","name":"Neustadt a.d.Aisch-Bad Windsheim","type":"Landkreis"},"federalState":{"key":"09","name":"Bayern"}},{"name":"Taubengasse","postalCode":"91477","locality":"Markt Bibart","municipality":{"key":"09575144","name":"Markt Bibart, M","type":"Markt"},"district":{"key":"09575","name":"Neustadt a.d.Aisch-Bad Windsheim","type":"Landkreis"},"federalState":{"key":"09","name":"Bayern"}},{"name":"Torbuck","postalCode":"91477","locality":"Markt Bibart","municipality":{"key":"09575144","name":"Markt Bibart, M","type":"Markt"},"district":{"key":"09575","name":"Neustadt a.d.Aisch-Bad Windsheim","type":"Landkreis"},"federalState":{"key":"09","name":"Bayern"}},{"name":"Waaggasse","postalCode":"91477","locality":"Markt Bibart","municipality":{"key":"09575144","name":"Markt Bibart, M","type":"Markt"},"district":{"key":"09575","name":"Neustadt a.d.Aisch-Bad Windsheim","type":"Landkreis"},"federalState":{"key":"09","name":"Bayern"}},{"name":"Weingartenstr.","postalCode":"91477","locality":"Markt Bibart","municipality":{"key":"09575144","name":"Markt Bibart, M","type":"Markt"},"district":{"key":"09575","name":"Neustadt a.d.Aisch-Bad Windsheim","type":"Landkreis"},"federalState":{"key":"09","name":"Bayern"}},{"name":"Würzburger Str.","postalCode":"91477","locality":"Markt Bibart","municipality":{"key":"09575144","name":"Markt Bibart, M","type":"Markt"},"district":{"key":"09575","name":"Neustadt a.d.Aisch-Bad Windsheim","type":"Landkreis"},"federalState":{"key":"09","name":"Bayern"}},]