[{"name":"Alseeweg","postalCode":"63636","locality":"Brachttal","municipality":{"key":"06435005","name":"Brachttal","type":"Kreisangehörige_Gemeinde"},"district":{"key":"06435","name":"Main-Kinzig-Kreis","type":"Landkreis"},"federalState":{"key":"06","name":"Hessen"}},{"name":"Alte Gasse","postalCode":"63636","locality":"Brachttal","municipality":{"key":"06435005","name":"Brachttal","type":"Kreisangehörige_Gemeinde"},"district":{"key":"06435","name":"Main-Kinzig-Kreis","type":"Landkreis"},"federalState":{"key":"06","name":"Hessen"}},{"name":"Alte Poststr.","postalCode":"63636","locality":"Brachttal","municipality":{"key":"06435005","name":"Brachttal","type":"Kreisangehörige_Gemeinde"},"district":{"key":"06435","name":"Main-Kinzig-Kreis","type":"Landkreis"},"federalState":{"key":"06","name":"Hessen"}},{"name":"Alte Siedlung","postalCode":"63636","locality":"Brachttal","municipality":{"key":"06435005","name":"Brachttal","type":"Kreisangehörige_Gemeinde"},"district":{"key":"06435","name":"Main-Kinzig-Kreis","type":"Landkreis"},"federalState":{"key":"06","name":"Hessen"}},{"name":"Am Bahnhof","postalCode":"63636","locality":"Brachttal","municipality":{"key":"06435005","name":"Brachttal","type":"Kreisangehörige_Gemeinde"},"district":{"key":"06435","name":"Main-Kinzig-Kreis","type":"Landkreis"},"federalState":{"key":"06","name":"Hessen"}},{"name":"Am Bruch","postalCode":"63636","locality":"Brachttal","municipality":{"key":"06435005","name":"Brachttal","type":"Kreisangehörige_Gemeinde"},"district":{"key":"06435","name":"Main-Kinzig-Kreis","type":"Landkreis"},"federalState":{"key":"06","name":"Hessen"}},{"name":"Am Eisenhammer","postalCode":"63636","locality":"Brachttal","municipality":{"key":"06435005","name":"Brachttal","type":"Kreisangehörige_Gemeinde"},"district":{"key":"06435","name":"Main-Kinzig-Kreis","type":"Landkreis"},"federalState":{"key":"06","name":"Hessen"}},{"name":"Am Hang","postalCode":"63636","locality":"Brachttal","municipality":{"key":"06435005","name":"Brachttal","type":"Kreisangehörige_Gemeinde"},"district":{"key":"06435","name":"Main-Kinzig-Kreis","type":"Landkreis"},"federalState":{"key":"06","name":"Hessen"}},{"name":"Am Mehlacker","postalCode":"63636","locality":"Brachttal","municipality":{"key":"06435005","name":"Brachttal","type":"Kreisangehörige_Gemeinde"},"district":{"key":"06435","name":"Main-Kinzig-Kreis","type":"Landkreis"},"federalState":{"key":"06","name":"Hessen"}},{"name":"Am Rohrberg","postalCode":"63636","locality":"Brachttal","municipality":{"key":"06435005","name":"Brachttal","type":"Kreisangehörige_Gemeinde"},"district":{"key":"06435","name":"Main-Kinzig-Kreis","type":"Landkreis"},"federalState":{"key":"06","name":"Hessen"}},{"name":"Am Sauermannsberg","postalCode":"63636","locality":"Brachttal","municipality":{"key":"06435005","name":"Brachttal","type":"Kreisangehörige_Gemeinde"},"district":{"key":"06435","name":"Main-Kinzig-Kreis","type":"Landkreis"},"federalState":{"key":"06","name":"Hessen"}},{"name":"Am Schatz","postalCode":"63636","locality":"Brachttal","municipality":{"key":"06435005","name":"Brachttal","type":"Kreisangehörige_Gemeinde"},"district":{"key":"06435","name":"Main-Kinzig-Kreis","type":"Landkreis"},"federalState":{"key":"06","name":"Hessen"}},{"name":"Am Sportplatz","postalCode":"63636","locality":"Brachttal","municipality":{"key":"06435005","name":"Brachttal","type":"Kreisangehörige_Gemeinde"},"district":{"key":"06435","name":"Main-Kinzig-Kreis","type":"Landkreis"},"federalState":{"key":"06","name":"Hessen"}},{"name":"Am Steinacker","postalCode":"63636","locality":"Brachttal","municipality":{"key":"06435005","name":"Brachttal","type":"Kreisangehörige_Gemeinde"},"district":{"key":"06435","name":"Main-Kinzig-Kreis","type":"Landkreis"},"federalState":{"key":"06","name":"Hessen"}},{"name":"Am Steinbruch","postalCode":"63636","locality":"Brachttal","municipality":{"key":"06435005","name":"Brachttal","type":"Kreisangehörige_Gemeinde"},"district":{"key":"06435","name":"Main-Kinzig-Kreis","type":"Landkreis"},"federalState":{"key":"06","name":"Hessen"}},{"name":"Am Steinchesküppel","postalCode":"63636","locality":"Brachttal","municipality":{"key":"06435005","name":"Brachttal","type":"Kreisangehörige_Gemeinde"},"district":{"key":"06435","name":"Main-Kinzig-Kreis","type":"Landkreis"},"federalState":{"key":"06","name":"Hessen"}},{"name":"Am Wasserwerk","postalCode":"63636","locality":"Brachttal","municipality":{"key":"06435005","name":"Brachttal","type":"Kreisangehörige_Gemeinde"},"district":{"key":"06435","name":"Main-Kinzig-Kreis","type":"Landkreis"},"federalState":{"key":"06","name":"Hessen"}},{"name":"An der Alten Schule","postalCode":"63636","locality":"Brachttal","municipality":{"key":"06435005","name":"Brachttal","type":"Kreisangehörige_Gemeinde"},"district":{"key":"06435","name":"Main-Kinzig-Kreis","type":"Landkreis"},"federalState":{"key":"06","name":"Hessen"}},{"name":"Auf der Breite","postalCode":"63636","locality":"Brachttal","municipality":{"key":"06435005","name":"Brachttal","type":"Kreisangehörige_Gemeinde"},"district":{"key":"06435","name":"Main-Kinzig-Kreis","type":"Landkreis"},"federalState":{"key":"06","name":"Hessen"}},{"name":"Bachstr.","postalCode":"63636","locality":"Brachttal","municipality":{"key":"06435005","name":"Brachttal","type":"Kreisangehörige_Gemeinde"},"district":{"key":"06435","name":"Main-Kinzig-Kreis","type":"Landkreis"},"federalState":{"key":"06","name":"Hessen"}},{"name":"Bad Sodener Str.","postalCode":"63636","locality":"Brachttal","municipality":{"key":"06435005","name":"Brachttal","type":"Kreisangehörige_Gemeinde"},"district":{"key":"06435","name":"Main-Kinzig-Kreis","type":"Landkreis"},"federalState":{"key":"06","name":"Hessen"}},{"name":"Bangertsgasse","postalCode":"63636","locality":"Brachttal","municipality":{"key":"06435005","name":"Brachttal","type":"Kreisangehörige_Gemeinde"},"district":{"key":"06435","name":"Main-Kinzig-Kreis","type":"Landkreis"},"federalState":{"key":"06","name":"Hessen"}},{"name":"Berggasse","postalCode":"63636","locality":"Brachttal","municipality":{"key":"06435005","name":"Brachttal","type":"Kreisangehörige_Gemeinde"},"district":{"key":"06435","name":"Main-Kinzig-Kreis","type":"Landkreis"},"federalState":{"key":"06","name":"Hessen"}},{"name":"Bernwiesenstr.","postalCode":"63636","locality":"Brachttal","municipality":{"key":"06435005","name":"Brachttal","type":"Kreisangehörige_Gemeinde"},"district":{"key":"06435","name":"Main-Kinzig-Kreis","type":"Landkreis"},"federalState":{"key":"06","name":"Hessen"}},{"name":"Birkenstr.","postalCode":"63636","locality":"Brachttal","municipality":{"key":"06435005","name":"Brachttal","type":"Kreisangehörige_Gemeinde"},"district":{"key":"06435","name":"Main-Kinzig-Kreis","type":"Landkreis"},"federalState":{"key":"06","name":"Hessen"}},{"name":"Birsteiner Str.","postalCode":"63636","locality":"Brachttal","municipality":{"key":"06435005","name":"Brachttal","type":"Kreisangehörige_Gemeinde"},"district":{"key":"06435","name":"Main-Kinzig-Kreis","type":"Landkreis"},"federalState":{"key":"06","name":"Hessen"}},{"name":"Bornweg","postalCode":"63636","locality":"Brachttal","municipality":{"key":"06435005","name":"Brachttal","type":"Kreisangehörige_Gemeinde"},"district":{"key":"06435","name":"Main-Kinzig-Kreis","type":"Landkreis"},"federalState":{"key":"06","name":"Hessen"}},{"name":"Bornwiesenweg","postalCode":"63636","locality":"Brachttal","municipality":{"key":"06435005","name":"Brachttal","type":"Kreisangehörige_Gemeinde"},"district":{"key":"06435","name":"Main-Kinzig-Kreis","type":"Landkreis"},"federalState":{"key":"06","name":"Hessen"}},{"name":"Brachtstr.","postalCode":"63636","locality":"Brachttal","municipality":{"key":"06435005","name":"Brachttal","type":"Kreisangehörige_Gemeinde"},"district":{"key":"06435","name":"Main-Kinzig-Kreis","type":"Landkreis"},"federalState":{"key":"06","name":"Hessen"}},{"name":"Breulstr.","postalCode":"63636","locality":"Brachttal","municipality":{"key":"06435005","name":"Brachttal","type":"Kreisangehörige_Gemeinde"},"district":{"key":"06435","name":"Main-Kinzig-Kreis","type":"Landkreis"},"federalState":{"key":"06","name":"Hessen"}},{"name":"Brückenstr.","postalCode":"63636","locality":"Brachttal","municipality":{"key":"06435005","name":"Brachttal","type":"Kreisangehörige_Gemeinde"},"district":{"key":"06435","name":"Main-Kinzig-Kreis","type":"Landkreis"},"federalState":{"key":"06","name":"Hessen"}},{"name":"Brunnenstr.","postalCode":"63636","locality":"Brachttal","municipality":{"key":"06435005","name":"Brachttal","type":"Kreisangehörige_Gemeinde"},"district":{"key":"06435","name":"Main-Kinzig-Kreis","type":"Landkreis"},"federalState":{"key":"06","name":"Hessen"}},{"name":"Buchenweg","postalCode":"63636","locality":"Brachttal","municipality":{"key":"06435005","name":"Brachttal","type":"Kreisangehörige_Gemeinde"},"district":{"key":"06435","name":"Main-Kinzig-Kreis","type":"Landkreis"},"federalState":{"key":"06","name":"Hessen"}},{"name":"Burgstr.","postalCode":"63636","locality":"Brachttal","municipality":{"key":"06435005","name":"Brachttal","type":"Kreisangehörige_Gemeinde"},"district":{"key":"06435","name":"Main-Kinzig-Kreis","type":"Landkreis"},"federalState":{"key":"06","name":"Hessen"}},{"name":"Dachsbergstr.","postalCode":"63636","locality":"Brachttal","municipality":{"key":"06435005","name":"Brachttal","type":"Kreisangehörige_Gemeinde"},"district":{"key":"06435","name":"Main-Kinzig-Kreis","type":"Landkreis"},"federalState":{"key":"06","name":"Hessen"}},{"name":"Dornwiese","postalCode":"63636","locality":"Brachttal","municipality":{"key":"06435005","name":"Brachttal","type":"Kreisangehörige_Gemeinde"},"district":{"key":"06435","name":"Main-Kinzig-Kreis","type":"Landkreis"},"federalState":{"key":"06","name":"Hessen"}},{"name":"Eichrain","postalCode":"63636","locality":"Brachttal","municipality":{"key":"06435005","name":"Brachttal","type":"Kreisangehörige_Gemeinde"},"district":{"key":"06435","name":"Main-Kinzig-Kreis","type":"Landkreis"},"federalState":{"key":"06","name":"Hessen"}},{"name":"Erlbruchstr.","postalCode":"63636","locality":"Brachttal","municipality":{"key":"06435005","name":"Brachttal","type":"Kreisangehörige_Gemeinde"},"district":{"key":"06435","name":"Main-Kinzig-Kreis","type":"Landkreis"},"federalState":{"key":"06","name":"Hessen"}},{"name":"Erlenweg","postalCode":"63636","locality":"Brachttal","municipality":{"key":"06435005","name":"Brachttal","type":"Kreisangehörige_Gemeinde"},"district":{"key":"06435","name":"Main-Kinzig-Kreis","type":"Landkreis"},"federalState":{"key":"06","name":"Hessen"}},{"name":"Fabrikstr.","postalCode":"63636","locality":"Brachttal","municipality":{"key":"06435005","name":"Brachttal","type":"Kreisangehörige_Gemeinde"},"district":{"key":"06435","name":"Main-Kinzig-Kreis","type":"Landkreis"},"federalState":{"key":"06","name":"Hessen"}},{"name":"Feldstr.","postalCode":"63636","locality":"Brachttal","municipality":{"key":"06435005","name":"Brachttal","type":"Kreisangehörige_Gemeinde"},"district":{"key":"06435","name":"Main-Kinzig-Kreis","type":"Landkreis"},"federalState":{"key":"06","name":"Hessen"}},{"name":"Finkenweg","postalCode":"63636","locality":"Brachttal","municipality":{"key":"06435005","name":"Brachttal","type":"Kreisangehörige_Gemeinde"},"district":{"key":"06435","name":"Main-Kinzig-Kreis","type":"Landkreis"},"federalState":{"key":"06","name":"Hessen"}},{"name":"Forstweg","postalCode":"63636","locality":"Brachttal","municipality":{"key":"06435005","name":"Brachttal","type":"Kreisangehörige_Gemeinde"},"district":{"key":"06435","name":"Main-Kinzig-Kreis","type":"Landkreis"},"federalState":{"key":"06","name":"Hessen"}},{"name":"Freiherr-vom-Stein-Str.","postalCode":"63636","locality":"Brachttal","municipality":{"key":"06435005","name":"Brachttal","type":"Kreisangehörige_Gemeinde"},"district":{"key":"06435","name":"Main-Kinzig-Kreis","type":"Landkreis"},"federalState":{"key":"06","name":"Hessen"}},{"name":"Friedhofsweg","postalCode":"63636","locality":"Brachttal","municipality":{"key":"06435005","name":"Brachttal","type":"Kreisangehörige_Gemeinde"},"district":{"key":"06435","name":"Main-Kinzig-Kreis","type":"Landkreis"},"federalState":{"key":"06","name":"Hessen"}},{"name":"Fußweg zur Schmiedegasse","postalCode":"63636","locality":"Brachttal","municipality":{"key":"06435005","name":"Brachttal","type":"Kreisangehörige_Gemeinde"},"district":{"key":"06435","name":"Main-Kinzig-Kreis","type":"Landkreis"},"federalState":{"key":"06","name":"Hessen"}},{"name":"Gartenstr.","postalCode":"63636","locality":"Brachttal","municipality":{"key":"06435005","name":"Brachttal","type":"Kreisangehörige_Gemeinde"},"district":{"key":"06435","name":"Main-Kinzig-Kreis","type":"Landkreis"},"federalState":{"key":"06","name":"Hessen"}},{"name":"Gärtnerweg","postalCode":"63636","locality":"Brachttal","municipality":{"key":"06435005","name":"Brachttal","type":"Kreisangehörige_Gemeinde"},"district":{"key":"06435","name":"Main-Kinzig-Kreis","type":"Landkreis"},"federalState":{"key":"06","name":"Hessen"}},{"name":"Gelnhäuser Str.","postalCode":"63636","locality":"Brachttal","municipality":{"key":"06435005","name":"Brachttal","type":"Kreisangehörige_Gemeinde"},"district":{"key":"06435","name":"Main-Kinzig-Kreis","type":"Landkreis"},"federalState":{"key":"06","name":"Hessen"}},{"name":"Gereuthstr.","postalCode":"63636","locality":"Brachttal","municipality":{"key":"06435005","name":"Brachttal","type":"Kreisangehörige_Gemeinde"},"district":{"key":"06435","name":"Main-Kinzig-Kreis","type":"Landkreis"},"federalState":{"key":"06","name":"Hessen"}},{"name":"Grabenstr.","postalCode":"63636","locality":"Brachttal","municipality":{"key":"06435005","name":"Brachttal","type":"Kreisangehörige_Gemeinde"},"district":{"key":"06435","name":"Main-Kinzig-Kreis","type":"Landkreis"},"federalState":{"key":"06","name":"Hessen"}},{"name":"Grundweg","postalCode":"63636","locality":"Brachttal","municipality":{"key":"06435005","name":"Brachttal","type":"Kreisangehörige_Gemeinde"},"district":{"key":"06435","name":"Main-Kinzig-Kreis","type":"Landkreis"},"federalState":{"key":"06","name":"Hessen"}},{"name":"Hainbuchenweg","postalCode":"63636","locality":"Brachttal","municipality":{"key":"06435005","name":"Brachttal","type":"Kreisangehörige_Gemeinde"},"district":{"key":"06435","name":"Main-Kinzig-Kreis","type":"Landkreis"},"federalState":{"key":"06","name":"Hessen"}},{"name":"Hammerstr.","postalCode":"63636","locality":"Brachttal","municipality":{"key":"06435005","name":"Brachttal","type":"Kreisangehörige_Gemeinde"},"district":{"key":"06435","name":"Main-Kinzig-Kreis","type":"Landkreis"},"federalState":{"key":"06","name":"Hessen"}},{"name":"Hauptstr.","postalCode":"63636","locality":"Brachttal","municipality":{"key":"06435005","name":"Brachttal","type":"Kreisangehörige_Gemeinde"},"district":{"key":"06435","name":"Main-Kinzig-Kreis","type":"Landkreis"},"federalState":{"key":"06","name":"Hessen"}},{"name":"Hegstr.","postalCode":"63636","locality":"Brachttal","municipality":{"key":"06435005","name":"Brachttal","type":"Kreisangehörige_Gemeinde"},"district":{"key":"06435","name":"Main-Kinzig-Kreis","type":"Landkreis"},"federalState":{"key":"06","name":"Hessen"}},{"name":"Heideweg","postalCode":"63636","locality":"Brachttal","municipality":{"key":"06435005","name":"Brachttal","type":"Kreisangehörige_Gemeinde"},"district":{"key":"06435","name":"Main-Kinzig-Kreis","type":"Landkreis"},"federalState":{"key":"06","name":"Hessen"}},{"name":"Helbruchweg","postalCode":"63636","locality":"Brachttal","municipality":{"key":"06435005","name":"Brachttal","type":"Kreisangehörige_Gemeinde"},"district":{"key":"06435","name":"Main-Kinzig-Kreis","type":"Landkreis"},"federalState":{"key":"06","name":"Hessen"}},{"name":"Hellsteiner Str.","postalCode":"63636","locality":"Brachttal","municipality":{"key":"06435005","name":"Brachttal","type":"Kreisangehörige_Gemeinde"},"district":{"key":"06435","name":"Main-Kinzig-Kreis","type":"Landkreis"},"federalState":{"key":"06","name":"Hessen"}},{"name":"Herrnschwender Str.","postalCode":"63636","locality":"Brachttal","municipality":{"key":"06435005","name":"Brachttal","type":"Kreisangehörige_Gemeinde"},"district":{"key":"06435","name":"Main-Kinzig-Kreis","type":"Landkreis"},"federalState":{"key":"06","name":"Hessen"}},{"name":"Hippegasse","postalCode":"63636","locality":"Brachttal","municipality":{"key":"06435005","name":"Brachttal","type":"Kreisangehörige_Gemeinde"},"district":{"key":"06435","name":"Main-Kinzig-Kreis","type":"Landkreis"},"federalState":{"key":"06","name":"Hessen"}},{"name":"Hochstr.","postalCode":"63636","locality":"Brachttal","municipality":{"key":"06435005","name":"Brachttal","type":"Kreisangehörige_Gemeinde"},"district":{"key":"06435","name":"Main-Kinzig-Kreis","type":"Landkreis"},"federalState":{"key":"06","name":"Hessen"}},{"name":"Hofwiesenweg","postalCode":"63636","locality":"Brachttal","municipality":{"key":"06435005","name":"Brachttal","type":"Kreisangehörige_Gemeinde"},"district":{"key":"06435","name":"Main-Kinzig-Kreis","type":"Landkreis"},"federalState":{"key":"06","name":"Hessen"}},{"name":"Höhenweg","postalCode":"63636","locality":"Brachttal","municipality":{"key":"06435005","name":"Brachttal","type":"Kreisangehörige_Gemeinde"},"district":{"key":"06435","name":"Main-Kinzig-Kreis","type":"Landkreis"},"federalState":{"key":"06","name":"Hessen"}},{"name":"Holzbrücke","postalCode":"63636","locality":"Brachttal","municipality":{"key":"06435005","name":"Brachttal","type":"Kreisangehörige_Gemeinde"},"district":{"key":"06435","name":"Main-Kinzig-Kreis","type":"Landkreis"},"federalState":{"key":"06","name":"Hessen"}},{"name":"Hölzerweg","postalCode":"63636","locality":"Brachttal","municipality":{"key":"06435005","name":"Brachttal","type":"Kreisangehörige_Gemeinde"},"district":{"key":"06435","name":"Main-Kinzig-Kreis","type":"Landkreis"},"federalState":{"key":"06","name":"Hessen"}},{"name":"Im Hasennest","postalCode":"63636","locality":"Brachttal","municipality":{"key":"06435005","name":"Brachttal","type":"Kreisangehörige_Gemeinde"},"district":{"key":"06435","name":"Main-Kinzig-Kreis","type":"Landkreis"},"federalState":{"key":"06","name":"Hessen"}},{"name":"Im Schafstall","postalCode":"63636","locality":"Brachttal","municipality":{"key":"06435005","name":"Brachttal","type":"Kreisangehörige_Gemeinde"},"district":{"key":"06435","name":"Main-Kinzig-Kreis","type":"Landkreis"},"federalState":{"key":"06","name":"Hessen"}},{"name":"Im Unterdorf","postalCode":"63636","locality":"Brachttal","municipality":{"key":"06435005","name":"Brachttal","type":"Kreisangehörige_Gemeinde"},"district":{"key":"06435","name":"Main-Kinzig-Kreis","type":"Landkreis"},"federalState":{"key":"06","name":"Hessen"}},{"name":"Im Winkel","postalCode":"63636","locality":"Brachttal","municipality":{"key":"06435005","name":"Brachttal","type":"Kreisangehörige_Gemeinde"},"district":{"key":"06435","name":"Main-Kinzig-Kreis","type":"Landkreis"},"federalState":{"key":"06","name":"Hessen"}},{"name":"In der Aue","postalCode":"63636","locality":"Brachttal","municipality":{"key":"06435005","name":"Brachttal","type":"Kreisangehörige_Gemeinde"},"district":{"key":"06435","name":"Main-Kinzig-Kreis","type":"Landkreis"},"federalState":{"key":"06","name":"Hessen"}},{"name":"Jägerweg","postalCode":"63636","locality":"Brachttal","municipality":{"key":"06435005","name":"Brachttal","type":"Kreisangehörige_Gemeinde"},"district":{"key":"06435","name":"Main-Kinzig-Kreis","type":"Landkreis"},"federalState":{"key":"06","name":"Hessen"}},{"name":"Jahnstr.","postalCode":"63636","locality":"Brachttal","municipality":{"key":"06435005","name":"Brachttal","type":"Kreisangehörige_Gemeinde"},"district":{"key":"06435","name":"Main-Kinzig-Kreis","type":"Landkreis"},"federalState":{"key":"06","name":"Hessen"}},{"name":"Kaiserstr.","postalCode":"63636","locality":"Brachttal","municipality":{"key":"06435005","name":"Brachttal","type":"Kreisangehörige_Gemeinde"},"district":{"key":"06435","name":"Main-Kinzig-Kreis","type":"Landkreis"},"federalState":{"key":"06","name":"Hessen"}},{"name":"Kellerhausstr.","postalCode":"63636","locality":"Brachttal","municipality":{"key":"06435005","name":"Brachttal","type":"Kreisangehörige_Gemeinde"},"district":{"key":"06435","name":"Main-Kinzig-Kreis","type":"Landkreis"},"federalState":{"key":"06","name":"Hessen"}},{"name":"Kirchstr.","postalCode":"63636","locality":"Brachttal","municipality":{"key":"06435005","name":"Brachttal","type":"Kreisangehörige_Gemeinde"},"district":{"key":"06435","name":"Main-Kinzig-Kreis","type":"Landkreis"},"federalState":{"key":"06","name":"Hessen"}},{"name":"Kleinbahnstr.","postalCode":"63636","locality":"Brachttal","municipality":{"key":"06435005","name":"Brachttal","type":"Kreisangehörige_Gemeinde"},"district":{"key":"06435","name":"Main-Kinzig-Kreis","type":"Landkreis"},"federalState":{"key":"06","name":"Hessen"}},{"name":"Kolonieweg","postalCode":"63636","locality":"Brachttal","municipality":{"key":"06435005","name":"Brachttal","type":"Kreisangehörige_Gemeinde"},"district":{"key":"06435","name":"Main-Kinzig-Kreis","type":"Landkreis"},"federalState":{"key":"06","name":"Hessen"}},{"name":"Kreutstr.","postalCode":"63636","locality":"Brachttal","municipality":{"key":"06435005","name":"Brachttal","type":"Kreisangehörige_Gemeinde"},"district":{"key":"06435","name":"Main-Kinzig-Kreis","type":"Landkreis"},"federalState":{"key":"06","name":"Hessen"}},{"name":"Kreuzsteinweg","postalCode":"63636","locality":"Brachttal","municipality":{"key":"06435005","name":"Brachttal","type":"Kreisangehörige_Gemeinde"},"district":{"key":"06435","name":"Main-Kinzig-Kreis","type":"Landkreis"},"federalState":{"key":"06","name":"Hessen"}},{"name":"Lagerhausstr.","postalCode":"63636","locality":"Brachttal","municipality":{"key":"06435005","name":"Brachttal","type":"Kreisangehörige_Gemeinde"},"district":{"key":"06435","name":"Main-Kinzig-Kreis","type":"Landkreis"},"federalState":{"key":"06","name":"Hessen"}},{"name":"Lindenstr.","postalCode":"63636","locality":"Brachttal","municipality":{"key":"06435005","name":"Brachttal","type":"Kreisangehörige_Gemeinde"},"district":{"key":"06435","name":"Main-Kinzig-Kreis","type":"Landkreis"},"federalState":{"key":"06","name":"Hessen"}},{"name":"Marktweg","postalCode":"63636","locality":"Brachttal","municipality":{"key":"06435005","name":"Brachttal","type":"Kreisangehörige_Gemeinde"},"district":{"key":"06435","name":"Main-Kinzig-Kreis","type":"Landkreis"},"federalState":{"key":"06","name":"Hessen"}},{"name":"Merzgasse","postalCode":"63636","locality":"Brachttal","municipality":{"key":"06435005","name":"Brachttal","type":"Kreisangehörige_Gemeinde"},"district":{"key":"06435","name":"Main-Kinzig-Kreis","type":"Landkreis"},"federalState":{"key":"06","name":"Hessen"}},{"name":"Mittelstr.","postalCode":"63636","locality":"Brachttal","municipality":{"key":"06435005","name":"Brachttal","type":"Kreisangehörige_Gemeinde"},"district":{"key":"06435","name":"Main-Kinzig-Kreis","type":"Landkreis"},"federalState":{"key":"06","name":"Hessen"}},{"name":"Mühlgasse","postalCode":"63636","locality":"Brachttal","municipality":{"key":"06435005","name":"Brachttal","type":"Kreisangehörige_Gemeinde"},"district":{"key":"06435","name":"Main-Kinzig-Kreis","type":"Landkreis"},"federalState":{"key":"06","name":"Hessen"}},{"name":"Mühlseifenweg","postalCode":"63636","locality":"Brachttal","municipality":{"key":"06435005","name":"Brachttal","type":"Kreisangehörige_Gemeinde"},"district":{"key":"06435","name":"Main-Kinzig-Kreis","type":"Landkreis"},"federalState":{"key":"06","name":"Hessen"}},{"name":"Mühlweg","postalCode":"63636","locality":"Brachttal","municipality":{"key":"06435005","name":"Brachttal","type":"Kreisangehörige_Gemeinde"},"district":{"key":"06435","name":"Main-Kinzig-Kreis","type":"Landkreis"},"federalState":{"key":"06","name":"Hessen"}},{"name":"Neuenschmidter Weg","postalCode":"63636","locality":"Brachttal","municipality":{"key":"06435005","name":"Brachttal","type":"Kreisangehörige_Gemeinde"},"district":{"key":"06435","name":"Main-Kinzig-Kreis","type":"Landkreis"},"federalState":{"key":"06","name":"Hessen"}},{"name":"Neue Siedlung","postalCode":"63636","locality":"Brachttal","municipality":{"key":"06435005","name":"Brachttal","type":"Kreisangehörige_Gemeinde"},"district":{"key":"06435","name":"Main-Kinzig-Kreis","type":"Landkreis"},"federalState":{"key":"06","name":"Hessen"}},{"name":"Neue Str.","postalCode":"63636","locality":"Brachttal","municipality":{"key":"06435005","name":"Brachttal","type":"Kreisangehörige_Gemeinde"},"district":{"key":"06435","name":"Main-Kinzig-Kreis","type":"Landkreis"},"federalState":{"key":"06","name":"Hessen"}},{"name":"Neumühlstr.","postalCode":"63636","locality":"Brachttal","municipality":{"key":"06435005","name":"Brachttal","type":"Kreisangehörige_Gemeinde"},"district":{"key":"06435","name":"Main-Kinzig-Kreis","type":"Landkreis"},"federalState":{"key":"06","name":"Hessen"}},{"name":"Oberweg","postalCode":"63636","locality":"Brachttal","municipality":{"key":"06435005","name":"Brachttal","type":"Kreisangehörige_Gemeinde"},"district":{"key":"06435","name":"Main-Kinzig-Kreis","type":"Landkreis"},"federalState":{"key":"06","name":"Hessen"}},{"name":"Oberwiesenweg","postalCode":"63636","locality":"Brachttal","municipality":{"key":"06435005","name":"Brachttal","type":"Kreisangehörige_Gemeinde"},"district":{"key":"06435","name":"Main-Kinzig-Kreis","type":"Landkreis"},"federalState":{"key":"06","name":"Hessen"}},{"name":"Parkstr.","postalCode":"63636","locality":"Brachttal","municipality":{"key":"06435005","name":"Brachttal","type":"Kreisangehörige_Gemeinde"},"district":{"key":"06435","name":"Main-Kinzig-Kreis","type":"Landkreis"},"federalState":{"key":"06","name":"Hessen"}},{"name":"Pfarrgartenweg","postalCode":"63636","locality":"Brachttal","municipality":{"key":"06435005","name":"Brachttal","type":"Kreisangehörige_Gemeinde"},"district":{"key":"06435","name":"Main-Kinzig-Kreis","type":"Landkreis"},"federalState":{"key":"06","name":"Hessen"}},{"name":"Pfarrgasse","postalCode":"63636","locality":"Brachttal","municipality":{"key":"06435005","name":"Brachttal","type":"Kreisangehörige_Gemeinde"},"district":{"key":"06435","name":"Main-Kinzig-Kreis","type":"Landkreis"},"federalState":{"key":"06","name":"Hessen"}},{"name":"Quellenweg","postalCode":"63636","locality":"Brachttal","municipality":{"key":"06435005","name":"Brachttal","type":"Kreisangehörige_Gemeinde"},"district":{"key":"06435","name":"Main-Kinzig-Kreis","type":"Landkreis"},"federalState":{"key":"06","name":"Hessen"}},{"name":"Raiffeisenstr.","postalCode":"63636","locality":"Brachttal","municipality":{"key":"06435005","name":"Brachttal","type":"Kreisangehörige_Gemeinde"},"district":{"key":"06435","name":"Main-Kinzig-Kreis","type":"Landkreis"},"federalState":{"key":"06","name":"Hessen"}},{"name":"Reichenbachstr.","postalCode":"63636","locality":"Brachttal","municipality":{"key":"06435005","name":"Brachttal","type":"Kreisangehörige_Gemeinde"},"district":{"key":"06435","name":"Main-Kinzig-Kreis","type":"Landkreis"},"federalState":{"key":"06","name":"Hessen"}},{"name":"Ringstr.","postalCode":"63636","locality":"Brachttal","municipality":{"key":"06435005","name":"Brachttal","type":"Kreisangehörige_Gemeinde"},"district":{"key":"06435","name":"Main-Kinzig-Kreis","type":"Landkreis"},"federalState":{"key":"06","name":"Hessen"}},{"name":"Rothländer Weg","postalCode":"63636","locality":"Brachttal","municipality":{"key":"06435005","name":"Brachttal","type":"Kreisangehörige_Gemeinde"},"district":{"key":"06435","name":"Main-Kinzig-Kreis","type":"Landkreis"},"federalState":{"key":"06","name":"Hessen"}},{"name":"Rotwiesenweg","postalCode":"63636","locality":"Brachttal","municipality":{"key":"06435005","name":"Brachttal","type":"Kreisangehörige_Gemeinde"},"district":{"key":"06435","name":"Main-Kinzig-Kreis","type":"Landkreis"},"federalState":{"key":"06","name":"Hessen"}},{"name":"Rundweg Wasser von Brachttal","postalCode":"63636","locality":"Brachttal","municipality":{"key":"06435005","name":"Brachttal","type":"Kreisangehörige_Gemeinde"},"district":{"key":"06435","name":"Main-Kinzig-Kreis","type":"Landkreis"},"federalState":{"key":"06","name":"Hessen"}},{"name":"Sandfeldweg","postalCode":"63636","locality":"Brachttal","municipality":{"key":"06435005","name":"Brachttal","type":"Kreisangehörige_Gemeinde"},"district":{"key":"06435","name":"Main-Kinzig-Kreis","type":"Landkreis"},"federalState":{"key":"06","name":"Hessen"}},{"name":"Sandwerkstr.","postalCode":"63636","locality":"Brachttal","municipality":{"key":"06435005","name":"Brachttal","type":"Kreisangehörige_Gemeinde"},"district":{"key":"06435","name":"Main-Kinzig-Kreis","type":"Landkreis"},"federalState":{"key":"06","name":"Hessen"}},{"name":"Sangstr.","postalCode":"63636","locality":"Brachttal","municipality":{"key":"06435005","name":"Brachttal","type":"Kreisangehörige_Gemeinde"},"district":{"key":"06435","name":"Main-Kinzig-Kreis","type":"Landkreis"},"federalState":{"key":"06","name":"Hessen"}},{"name":"Schächtelburg","postalCode":"63636","locality":"Brachttal","municipality":{"key":"06435005","name":"Brachttal","type":"Kreisangehörige_Gemeinde"},"district":{"key":"06435","name":"Main-Kinzig-Kreis","type":"Landkreis"},"federalState":{"key":"06","name":"Hessen"}},{"name":"Schäferweg","postalCode":"63636","locality":"Brachttal","municipality":{"key":"06435005","name":"Brachttal","type":"Kreisangehörige_Gemeinde"},"district":{"key":"06435","name":"Main-Kinzig-Kreis","type":"Landkreis"},"federalState":{"key":"06","name":"Hessen"}},{"name":"Schauerwaldweg","postalCode":"63636","locality":"Brachttal","municipality":{"key":"06435005","name":"Brachttal","type":"Kreisangehörige_Gemeinde"},"district":{"key":"06435","name":"Main-Kinzig-Kreis","type":"Landkreis"},"federalState":{"key":"06","name":"Hessen"}},{"name":"Schlierbacher Weg","postalCode":"63636","locality":"Brachttal","municipality":{"key":"06435005","name":"Brachttal","type":"Kreisangehörige_Gemeinde"},"district":{"key":"06435","name":"Main-Kinzig-Kreis","type":"Landkreis"},"federalState":{"key":"06","name":"Hessen"}},{"name":"Schmidtweg","postalCode":"63636","locality":"Brachttal","municipality":{"key":"06435005","name":"Brachttal","type":"Kreisangehörige_Gemeinde"},"district":{"key":"06435","name":"Main-Kinzig-Kreis","type":"Landkreis"},"federalState":{"key":"06","name":"Hessen"}},{"name":"Schmiedegasse","postalCode":"63636","locality":"Brachttal","municipality":{"key":"06435005","name":"Brachttal","type":"Kreisangehörige_Gemeinde"},"district":{"key":"06435","name":"Main-Kinzig-Kreis","type":"Landkreis"},"federalState":{"key":"06","name":"Hessen"}},{"name":"Schöne Aussicht","postalCode":"63636","locality":"Brachttal","municipality":{"key":"06435005","name":"Brachttal","type":"Kreisangehörige_Gemeinde"},"district":{"key":"06435","name":"Main-Kinzig-Kreis","type":"Landkreis"},"federalState":{"key":"06","name":"Hessen"}},{"name":"Schoppengarten","postalCode":"63636","locality":"Brachttal","municipality":{"key":"06435005","name":"Brachttal","type":"Kreisangehörige_Gemeinde"},"district":{"key":"06435","name":"Main-Kinzig-Kreis","type":"Landkreis"},"federalState":{"key":"06","name":"Hessen"}},{"name":"Schulstr.","postalCode":"63636","locality":"Brachttal","municipality":{"key":"06435005","name":"Brachttal","type":"Kreisangehörige_Gemeinde"},"district":{"key":"06435","name":"Main-Kinzig-Kreis","type":"Landkreis"},"federalState":{"key":"06","name":"Hessen"}},{"name":"Schulwaldstr.","postalCode":"63636","locality":"Brachttal","municipality":{"key":"06435005","name":"Brachttal","type":"Kreisangehörige_Gemeinde"},"district":{"key":"06435","name":"Main-Kinzig-Kreis","type":"Landkreis"},"federalState":{"key":"06","name":"Hessen"}},{"name":"Schusterweg","postalCode":"63636","locality":"Brachttal","municipality":{"key":"06435005","name":"Brachttal","type":"Kreisangehörige_Gemeinde"},"district":{"key":"06435","name":"Main-Kinzig-Kreis","type":"Landkreis"},"federalState":{"key":"06","name":"Hessen"}},{"name":"Sotzbacher Weg","postalCode":"63636","locality":"Brachttal","municipality":{"key":"06435005","name":"Brachttal","type":"Kreisangehörige_Gemeinde"},"district":{"key":"06435","name":"Main-Kinzig-Kreis","type":"Landkreis"},"federalState":{"key":"06","name":"Hessen"}},{"name":"Spessartweg","postalCode":"63636","locality":"Brachttal","municipality":{"key":"06435005","name":"Brachttal","type":"Kreisangehörige_Gemeinde"},"district":{"key":"06435","name":"Main-Kinzig-Kreis","type":"Landkreis"},"federalState":{"key":"06","name":"Hessen"}},{"name":"Spielberger Str.","postalCode":"63636","locality":"Brachttal","municipality":{"key":"06435005","name":"Brachttal","type":"Kreisangehörige_Gemeinde"},"district":{"key":"06435","name":"Main-Kinzig-Kreis","type":"Landkreis"},"federalState":{"key":"06","name":"Hessen"}},{"name":"Sportplatzweg","postalCode":"63636","locality":"Brachttal","municipality":{"key":"06435005","name":"Brachttal","type":"Kreisangehörige_Gemeinde"},"district":{"key":"06435","name":"Main-Kinzig-Kreis","type":"Landkreis"},"federalState":{"key":"06","name":"Hessen"}},{"name":"Steingesweg","postalCode":"63636","locality":"Brachttal","municipality":{"key":"06435005","name":"Brachttal","type":"Kreisangehörige_Gemeinde"},"district":{"key":"06435","name":"Main-Kinzig-Kreis","type":"Landkreis"},"federalState":{"key":"06","name":"Hessen"}},{"name":"Steinweg","postalCode":"63636","locality":"Brachttal","municipality":{"key":"06435005","name":"Brachttal","type":"Kreisangehörige_Gemeinde"},"district":{"key":"06435","name":"Main-Kinzig-Kreis","type":"Landkreis"},"federalState":{"key":"06","name":"Hessen"}},{"name":"Stettiner Weg","postalCode":"63636","locality":"Brachttal","municipality":{"key":"06435005","name":"Brachttal","type":"Kreisangehörige_Gemeinde"},"district":{"key":"06435","name":"Main-Kinzig-Kreis","type":"Landkreis"},"federalState":{"key":"06","name":"Hessen"}},{"name":"Streitberger Str.","postalCode":"63636","locality":"Brachttal","municipality":{"key":"06435005","name":"Brachttal","type":"Kreisangehörige_Gemeinde"},"district":{"key":"06435","name":"Main-Kinzig-Kreis","type":"Landkreis"},"federalState":{"key":"06","name":"Hessen"}},{"name":"Struthstr.","postalCode":"63636","locality":"Brachttal","municipality":{"key":"06435005","name":"Brachttal","type":"Kreisangehörige_Gemeinde"},"district":{"key":"06435","name":"Main-Kinzig-Kreis","type":"Landkreis"},"federalState":{"key":"06","name":"Hessen"}},{"name":"Tannenweg","postalCode":"63636","locality":"Brachttal","municipality":{"key":"06435005","name":"Brachttal","type":"Kreisangehörige_Gemeinde"},"district":{"key":"06435","name":"Main-Kinzig-Kreis","type":"Landkreis"},"federalState":{"key":"06","name":"Hessen"}},{"name":"Triebstr.","postalCode":"63636","locality":"Brachttal","municipality":{"key":"06435005","name":"Brachttal","type":"Kreisangehörige_Gemeinde"},"district":{"key":"06435","name":"Main-Kinzig-Kreis","type":"Landkreis"},"federalState":{"key":"06","name":"Hessen"}},{"name":"Udenhainer Landstr.","postalCode":"63636","locality":"Brachttal","municipality":{"key":"06435005","name":"Brachttal","type":"Kreisangehörige_Gemeinde"},"district":{"key":"06435","name":"Main-Kinzig-Kreis","type":"Landkreis"},"federalState":{"key":"06","name":"Hessen"}},{"name":"Vogelsbergstr.","postalCode":"63636","locality":"Brachttal","municipality":{"key":"06435005","name":"Brachttal","type":"Kreisangehörige_Gemeinde"},"district":{"key":"06435","name":"Main-Kinzig-Kreis","type":"Landkreis"},"federalState":{"key":"06","name":"Hessen"}},{"name":"Vogelsbergweg","postalCode":"63636","locality":"Brachttal","municipality":{"key":"06435005","name":"Brachttal","type":"Kreisangehörige_Gemeinde"},"district":{"key":"06435","name":"Main-Kinzig-Kreis","type":"Landkreis"},"federalState":{"key":"06","name":"Hessen"}},{"name":"Wächtersbacher Str.","postalCode":"63636","locality":"Brachttal","municipality":{"key":"06435005","name":"Brachttal","type":"Kreisangehörige_Gemeinde"},"district":{"key":"06435","name":"Main-Kinzig-Kreis","type":"Landkreis"},"federalState":{"key":"06","name":"Hessen"}},{"name":"Waldstr.","postalCode":"63636","locality":"Brachttal","municipality":{"key":"06435005","name":"Brachttal","type":"Kreisangehörige_Gemeinde"},"district":{"key":"06435","name":"Main-Kinzig-Kreis","type":"Landkreis"},"federalState":{"key":"06","name":"Hessen"}},{"name":"Wasser von Brachttal (kurz)","postalCode":"63636","locality":"Brachttal","municipality":{"key":"06435005","name":"Brachttal","type":"Kreisangehörige_Gemeinde"},"district":{"key":"06435","name":"Main-Kinzig-Kreis","type":"Landkreis"},"federalState":{"key":"06","name":"Hessen"}},{"name":"Weihergasse","postalCode":"63636","locality":"Brachttal","municipality":{"key":"06435005","name":"Brachttal","type":"Kreisangehörige_Gemeinde"},"district":{"key":"06435","name":"Main-Kinzig-Kreis","type":"Landkreis"},"federalState":{"key":"06","name":"Hessen"}},{"name":"Weiherwiesenweg","postalCode":"63636","locality":"Brachttal","municipality":{"key":"06435005","name":"Brachttal","type":"Kreisangehörige_Gemeinde"},"district":{"key":"06435","name":"Main-Kinzig-Kreis","type":"Landkreis"},"federalState":{"key":"06","name":"Hessen"}},{"name":"Weißer Weg","postalCode":"63636","locality":"Brachttal","municipality":{"key":"06435005","name":"Brachttal","type":"Kreisangehörige_Gemeinde"},"district":{"key":"06435","name":"Main-Kinzig-Kreis","type":"Landkreis"},"federalState":{"key":"06","name":"Hessen"}},{"name":"Wetteraustr.","postalCode":"63636","locality":"Brachttal","municipality":{"key":"06435005","name":"Brachttal","type":"Kreisangehörige_Gemeinde"},"district":{"key":"06435","name":"Main-Kinzig-Kreis","type":"Landkreis"},"federalState":{"key":"06","name":"Hessen"}},{"name":"Wiesenweg","postalCode":"63636","locality":"Brachttal","municipality":{"key":"06435005","name":"Brachttal","type":"Kreisangehörige_Gemeinde"},"district":{"key":"06435","name":"Main-Kinzig-Kreis","type":"Landkreis"},"federalState":{"key":"06","name":"Hessen"}},{"name":"Wittgenborner Str.","postalCode":"63636","locality":"Brachttal","municipality":{"key":"06435005","name":"Brachttal","type":"Kreisangehörige_Gemeinde"},"district":{"key":"06435","name":"Main-Kinzig-Kreis","type":"Landkreis"},"federalState":{"key":"06","name":"Hessen"}},{"name":"Ysenburger Str.","postalCode":"63636","locality":"Brachttal","municipality":{"key":"06435005","name":"Brachttal","type":"Kreisangehörige_Gemeinde"},"district":{"key":"06435","name":"Main-Kinzig-Kreis","type":"Landkreis"},"federalState":{"key":"06","name":"Hessen"}},{"name":"Zum Alten Roth","postalCode":"63636","locality":"Brachttal","municipality":{"key":"06435005","name":"Brachttal","type":"Kreisangehörige_Gemeinde"},"district":{"key":"06435","name":"Main-Kinzig-Kreis","type":"Landkreis"},"federalState":{"key":"06","name":"Hessen"}},{"name":"Zum Mehlacker","postalCode":"63636","locality":"Brachttal","municipality":{"key":"06435005","name":"Brachttal","type":"Kreisangehörige_Gemeinde"},"district":{"key":"06435","name":"Main-Kinzig-Kreis","type":"Landkreis"},"federalState":{"key":"06","name":"Hessen"}},{"name":"Zum Sportfeld","postalCode":"63636","locality":"Brachttal","municipality":{"key":"06435005","name":"Brachttal","type":"Kreisangehörige_Gemeinde"},"district":{"key":"06435","name":"Main-Kinzig-Kreis","type":"Landkreis"},"federalState":{"key":"06","name":"Hessen"}},]