[{"name":"Adlerstr.","postalCode":"76706","locality":"Dettenheim","municipality":{"key":"08215111","name":"Dettenheim","type":"Kreisangehörige_Gemeinde"},"district":{"key":"08215","name":"Karlsruhe","type":"Landkreis"},"federalState":{"key":"08","name":"Baden-Württemberg"}},{"name":"Ahornring","postalCode":"84562","locality":"Mettenheim","municipality":{"key":"09183127","name":"Mettenheim","type":"Kreisangehörige_Gemeinde"},"district":{"key":"09183","name":"Mühldorf a.Inn","type":"Landkreis"},"federalState":{"key":"09","name":"Bayern"}},{"name":"Ahornweg","postalCode":"76706","locality":"Dettenheim","municipality":{"key":"08215111","name":"Dettenheim","type":"Kreisangehörige_Gemeinde"},"district":{"key":"08215","name":"Karlsruhe","type":"Landkreis"},"federalState":{"key":"08","name":"Baden-Württemberg"}},{"name":"Akazienring","postalCode":"76706","locality":"Dettenheim","municipality":{"key":"08215111","name":"Dettenheim","type":"Kreisangehörige_Gemeinde"},"district":{"key":"08215","name":"Karlsruhe","type":"Landkreis"},"federalState":{"key":"08","name":"Baden-Württemberg"}},{"name":"Akazienweg","postalCode":"77955","locality":"Ettenheim","municipality":{"key":"08317026","name":"Ettenheim, Stadt","type":"Stadt"},"district":{"key":"08317","name":"Ortenaukreis","type":"Landkreis"},"federalState":{"key":"08","name":"Baden-Württemberg"}},{"name":"Albert-Beck-Str.","postalCode":"77955","locality":"Ettenheim","municipality":{"key":"08317026","name":"Ettenheim, Stadt","type":"Stadt"},"district":{"key":"08317","name":"Ortenaukreis","type":"Landkreis"},"federalState":{"key":"08","name":"Baden-Württemberg"}},{"name":"Albert-Schweitzer-Str.","postalCode":"76706","locality":"Dettenheim","municipality":{"key":"08215111","name":"Dettenheim","type":"Kreisangehörige_Gemeinde"},"district":{"key":"08215","name":"Karlsruhe","type":"Landkreis"},"federalState":{"key":"08","name":"Baden-Württemberg"}},{"name":"Alemannenstr.","postalCode":"77955","locality":"Ettenheim","municipality":{"key":"08317026","name":"Ettenheim, Stadt","type":"Stadt"},"district":{"key":"08317","name":"Ortenaukreis","type":"Landkreis"},"federalState":{"key":"08","name":"Baden-Württemberg"}},{"name":"Alleestr.","postalCode":"77955","locality":"Ettenheim","municipality":{"key":"08317026","name":"Ettenheim, Stadt","type":"Stadt"},"district":{"key":"08317","name":"Ortenaukreis","type":"Landkreis"},"federalState":{"key":"08","name":"Baden-Württemberg"}},{"name":"Alleeweg","postalCode":"77955","locality":"Ettenheim","municipality":{"key":"08317026","name":"Ettenheim, Stadt","type":"Stadt"},"district":{"key":"08317","name":"Ortenaukreis","type":"Landkreis"},"federalState":{"key":"08","name":"Baden-Württemberg"}},{"name":"Allmendweg","postalCode":"77955","locality":"Ettenheim","municipality":{"key":"08317026","name":"Ettenheim, Stadt","type":"Stadt"},"district":{"key":"08317","name":"Ortenaukreis","type":"Landkreis"},"federalState":{"key":"08","name":"Baden-Württemberg"}},{"name":"Alte Streitbergstr.","postalCode":"77955","locality":"Ettenheim","municipality":{"key":"08317026","name":"Ettenheim, Stadt","type":"Stadt"},"district":{"key":"08317","name":"Ortenaukreis","type":"Landkreis"},"federalState":{"key":"08","name":"Baden-Württemberg"}},{"name":"Alte Wolfshaldergasse","postalCode":"77955","locality":"Ettenheim","municipality":{"key":"08317026","name":"Ettenheim, Stadt","type":"Stadt"},"district":{"key":"08317","name":"Ortenaukreis","type":"Landkreis"},"federalState":{"key":"08","name":"Baden-Württemberg"}},{"name":"Alzeyer Str.","postalCode":"55234","locality":"Kettenheim","municipality":{"key":"07331042","name":"Kettenheim","type":"Kreisangehörige_Gemeinde"},"district":{"key":"07331","name":"Alzey-Worms","type":"Landkreis"},"federalState":{"key":"07","name":"Rheinland-Pfalz"}},{"name":"Alzstr.","postalCode":"84562","locality":"Mettenheim","municipality":{"key":"09183127","name":"Mettenheim","type":"Kreisangehörige_Gemeinde"},"district":{"key":"09183","name":"Mühldorf a.Inn","type":"Landkreis"},"federalState":{"key":"09","name":"Bayern"}},{"name":"Am Bahndamm","postalCode":"77955","locality":"Ettenheim","municipality":{"key":"08317026","name":"Ettenheim, Stadt","type":"Stadt"},"district":{"key":"08317","name":"Ortenaukreis","type":"Landkreis"},"federalState":{"key":"08","name":"Baden-Württemberg"}},{"name":"Am Bahnhof","postalCode":"55234","locality":"Kettenheim","municipality":{"key":"07331042","name":"Kettenheim","type":"Kreisangehörige_Gemeinde"},"district":{"key":"07331","name":"Alzey-Worms","type":"Landkreis"},"federalState":{"key":"07","name":"Rheinland-Pfalz"}},{"name":"Am Billacker","postalCode":"76706","locality":"Dettenheim","municipality":{"key":"08215111","name":"Dettenheim","type":"Kreisangehörige_Gemeinde"},"district":{"key":"08215","name":"Karlsruhe","type":"Landkreis"},"federalState":{"key":"08","name":"Baden-Württemberg"}},{"name":"Am Ettenbach","postalCode":"77955","locality":"Ettenheim","municipality":{"key":"08317026","name":"Ettenheim, Stadt","type":"Stadt"},"district":{"key":"08317","name":"Ortenaukreis","type":"Landkreis"},"federalState":{"key":"08","name":"Baden-Württemberg"}},{"name":"Am Finkenberg","postalCode":"77955","locality":"Ettenheim","municipality":{"key":"08317026","name":"Ettenheim, Stadt","type":"Stadt"},"district":{"key":"08317","name":"Ortenaukreis","type":"Landkreis"},"federalState":{"key":"08","name":"Baden-Württemberg"}},{"name":"Am Goldbach","postalCode":"67582","locality":"Mettenheim","municipality":{"key":"07331045","name":"Mettenheim","type":"Kreisangehörige_Gemeinde"},"district":{"key":"07331","name":"Alzey-Worms","type":"Landkreis"},"federalState":{"key":"07","name":"Rheinland-Pfalz"}},{"name":"Am Gutshof","postalCode":"67582","locality":"Mettenheim","municipality":{"key":"07331045","name":"Mettenheim","type":"Kreisangehörige_Gemeinde"},"district":{"key":"07331","name":"Alzey-Worms","type":"Landkreis"},"federalState":{"key":"07","name":"Rheinland-Pfalz"}},{"name":"Am Hag","postalCode":"76706","locality":"Dettenheim","municipality":{"key":"08215111","name":"Dettenheim","type":"Kreisangehörige_Gemeinde"},"district":{"key":"08215","name":"Karlsruhe","type":"Landkreis"},"federalState":{"key":"08","name":"Baden-Württemberg"}},{"name":"Am Herrenacker","postalCode":"76706","locality":"Dettenheim","municipality":{"key":"08215111","name":"Dettenheim","type":"Kreisangehörige_Gemeinde"},"district":{"key":"08215","name":"Karlsruhe","type":"Landkreis"},"federalState":{"key":"08","name":"Baden-Württemberg"}},{"name":"Am Herrngarten","postalCode":"67582","locality":"Mettenheim","municipality":{"key":"07331045","name":"Mettenheim","type":"Kreisangehörige_Gemeinde"},"district":{"key":"07331","name":"Alzey-Worms","type":"Landkreis"},"federalState":{"key":"07","name":"Rheinland-Pfalz"}},{"name":"Am Hillesheimer Weg","postalCode":"67596","locality":"Frettenheim","municipality":{"key":"07331028","name":"Frettenheim","type":"Kreisangehörige_Gemeinde"},"district":{"key":"07331","name":"Alzey-Worms","type":"Landkreis"},"federalState":{"key":"07","name":"Rheinland-Pfalz"}},{"name":"Am Kahlenberg","postalCode":"77955","locality":"Ettenheim","municipality":{"key":"08317026","name":"Ettenheim, Stadt","type":"Stadt"},"district":{"key":"08317","name":"Ortenaukreis","type":"Landkreis"},"federalState":{"key":"08","name":"Baden-Württemberg"}},{"name":"Am Kesselring","postalCode":"76706","locality":"Dettenheim","municipality":{"key":"08215111","name":"Dettenheim","type":"Kreisangehörige_Gemeinde"},"district":{"key":"08215","name":"Karlsruhe","type":"Landkreis"},"federalState":{"key":"08","name":"Baden-Württemberg"}},{"name":"Am Kolbenacker","postalCode":"76706","locality":"Dettenheim","municipality":{"key":"08215111","name":"Dettenheim","type":"Kreisangehörige_Gemeinde"},"district":{"key":"08215","name":"Karlsruhe","type":"Landkreis"},"federalState":{"key":"08","name":"Baden-Württemberg"}},{"name":"Am Kreuzbuck","postalCode":"77955","locality":"Ettenheim","municipality":{"key":"08317026","name":"Ettenheim, Stadt","type":"Stadt"},"district":{"key":"08317","name":"Ortenaukreis","type":"Landkreis"},"federalState":{"key":"08","name":"Baden-Württemberg"}},{"name":"Am Küchengarten","postalCode":"67582","locality":"Mettenheim","municipality":{"key":"07331045","name":"Mettenheim","type":"Kreisangehörige_Gemeinde"},"district":{"key":"07331","name":"Alzey-Worms","type":"Landkreis"},"federalState":{"key":"07","name":"Rheinland-Pfalz"}},{"name":"Am Lohgarten","postalCode":"76706","locality":"Dettenheim","municipality":{"key":"08215111","name":"Dettenheim","type":"Kreisangehörige_Gemeinde"},"district":{"key":"08215","name":"Karlsruhe","type":"Landkreis"},"federalState":{"key":"08","name":"Baden-Württemberg"}},{"name":"Am Michelsberg","postalCode":"67582","locality":"Mettenheim","municipality":{"key":"07331045","name":"Mettenheim","type":"Kreisangehörige_Gemeinde"},"district":{"key":"07331","name":"Alzey-Worms","type":"Landkreis"},"federalState":{"key":"07","name":"Rheinland-Pfalz"}},{"name":"Am Münchberg","postalCode":"77955","locality":"Ettenheim","municipality":{"key":"08317026","name":"Ettenheim, Stadt","type":"Stadt"},"district":{"key":"08317","name":"Ortenaukreis","type":"Landkreis"},"federalState":{"key":"08","name":"Baden-Württemberg"}},{"name":"Ampfinger Str.","postalCode":"84562","locality":"Mettenheim","municipality":{"key":"09183127","name":"Mettenheim","type":"Kreisangehörige_Gemeinde"},"district":{"key":"09183","name":"Mühldorf a.Inn","type":"Landkreis"},"federalState":{"key":"09","name":"Bayern"}},{"name":"Am Rohanbrunnen","postalCode":"77955","locality":"Ettenheim","municipality":{"key":"08317026","name":"Ettenheim, Stadt","type":"Stadt"},"district":{"key":"08317","name":"Ortenaukreis","type":"Landkreis"},"federalState":{"key":"08","name":"Baden-Württemberg"}},{"name":"Am Römer","postalCode":"67582","locality":"Mettenheim","municipality":{"key":"07331045","name":"Mettenheim","type":"Kreisangehörige_Gemeinde"},"district":{"key":"07331","name":"Alzey-Worms","type":"Landkreis"},"federalState":{"key":"07","name":"Rheinland-Pfalz"}},{"name":"Am Rotacker","postalCode":"76706","locality":"Dettenheim","municipality":{"key":"08215111","name":"Dettenheim","type":"Kreisangehörige_Gemeinde"},"district":{"key":"08215","name":"Karlsruhe","type":"Landkreis"},"federalState":{"key":"08","name":"Baden-Württemberg"}},{"name":"Am Ruhbaum","postalCode":"76706","locality":"Dettenheim","municipality":{"key":"08215111","name":"Dettenheim","type":"Kreisangehörige_Gemeinde"},"district":{"key":"08215","name":"Karlsruhe","type":"Landkreis"},"federalState":{"key":"08","name":"Baden-Württemberg"}},{"name":"Am Schwimmbad","postalCode":"77955","locality":"Ettenheim","municipality":{"key":"08317026","name":"Ettenheim, Stadt","type":"Stadt"},"district":{"key":"08317","name":"Ortenaukreis","type":"Landkreis"},"federalState":{"key":"08","name":"Baden-Württemberg"}},{"name":"Amselweg","postalCode":"76706","locality":"Dettenheim","municipality":{"key":"08215111","name":"Dettenheim","type":"Kreisangehörige_Gemeinde"},"district":{"key":"08215","name":"Karlsruhe","type":"Landkreis"},"federalState":{"key":"08","name":"Baden-Württemberg"}},{"name":"Am Sportplatz","postalCode":"84562","locality":"Mettenheim","municipality":{"key":"09183127","name":"Mettenheim","type":"Kreisangehörige_Gemeinde"},"district":{"key":"09183","name":"Mühldorf a.Inn","type":"Landkreis"},"federalState":{"key":"09","name":"Bayern"}},{"name":"Am Steinacker","postalCode":"76706","locality":"Dettenheim","municipality":{"key":"08215111","name":"Dettenheim","type":"Kreisangehörige_Gemeinde"},"district":{"key":"08215","name":"Karlsruhe","type":"Landkreis"},"federalState":{"key":"08","name":"Baden-Württemberg"}},{"name":"Am Steinbügelweg","postalCode":"76706","locality":"Dettenheim","municipality":{"key":"08215111","name":"Dettenheim","type":"Kreisangehörige_Gemeinde"},"district":{"key":"08215","name":"Karlsruhe","type":"Landkreis"},"federalState":{"key":"08","name":"Baden-Württemberg"}},{"name":"Am Stock","postalCode":"77955","locality":"Ettenheim","municipality":{"key":"08317026","name":"Ettenheim, Stadt","type":"Stadt"},"district":{"key":"08317","name":"Ortenaukreis","type":"Landkreis"},"federalState":{"key":"08","name":"Baden-Württemberg"}},{"name":"Am Vogelsang","postalCode":"76706","locality":"Dettenheim","municipality":{"key":"08215111","name":"Dettenheim","type":"Kreisangehörige_Gemeinde"},"district":{"key":"08215","name":"Karlsruhe","type":"Landkreis"},"federalState":{"key":"08","name":"Baden-Württemberg"}},{"name":"Am Weilerberg","postalCode":"77955","locality":"Ettenheim","municipality":{"key":"08317026","name":"Ettenheim, Stadt","type":"Stadt"},"district":{"key":"08317","name":"Ortenaukreis","type":"Landkreis"},"federalState":{"key":"08","name":"Baden-Württemberg"}},{"name":"Am Wöllstein","postalCode":"55234","locality":"Kettenheim","municipality":{"key":"07331042","name":"Kettenheim","type":"Kreisangehörige_Gemeinde"},"district":{"key":"07331","name":"Alzey-Worms","type":"Landkreis"},"federalState":{"key":"07","name":"Rheinland-Pfalz"}},{"name":"Am Zollhaus","postalCode":"77955","locality":"Ettenheim","municipality":{"key":"08317026","name":"Ettenheim, Stadt","type":"Stadt"},"district":{"key":"08317","name":"Ortenaukreis","type":"Landkreis"},"federalState":{"key":"08","name":"Baden-Württemberg"}},{"name":"An der Auer Str.","postalCode":"84562","locality":"Mettenheim","municipality":{"key":"09183127","name":"Mettenheim","type":"Kreisangehörige_Gemeinde"},"district":{"key":"09183","name":"Mühldorf a.Inn","type":"Landkreis"},"federalState":{"key":"09","name":"Bayern"}},{"name":"Bächlestr.","postalCode":"76706","locality":"Dettenheim","municipality":{"key":"08215111","name":"Dettenheim","type":"Kreisangehörige_Gemeinde"},"district":{"key":"08215","name":"Karlsruhe","type":"Landkreis"},"federalState":{"key":"08","name":"Baden-Württemberg"}},{"name":"Bachstr.","postalCode":"67596","locality":"Frettenheim","municipality":{"key":"07331028","name":"Frettenheim","type":"Kreisangehörige_Gemeinde"},"district":{"key":"07331","name":"Alzey-Worms","type":"Landkreis"},"federalState":{"key":"07","name":"Rheinland-Pfalz"}},{"name":"Bachstr.","postalCode":"76706","locality":"Dettenheim","municipality":{"key":"08215111","name":"Dettenheim","type":"Kreisangehörige_Gemeinde"},"district":{"key":"08215","name":"Karlsruhe","type":"Landkreis"},"federalState":{"key":"08","name":"Baden-Württemberg"}},{"name":"Bachstr.","postalCode":"77955","locality":"Ettenheim","municipality":{"key":"08317026","name":"Ettenheim, Stadt","type":"Stadt"},"district":{"key":"08317","name":"Ortenaukreis","type":"Landkreis"},"federalState":{"key":"08","name":"Baden-Württemberg"}},{"name":"Bachwiesenfurt","postalCode":"76706","locality":"Dettenheim","municipality":{"key":"08215111","name":"Dettenheim","type":"Kreisangehörige_Gemeinde"},"district":{"key":"08215","name":"Karlsruhe","type":"Landkreis"},"federalState":{"key":"08","name":"Baden-Württemberg"}},{"name":"Bachwiesenweg","postalCode":"76706","locality":"Dettenheim","municipality":{"key":"08215111","name":"Dettenheim","type":"Kreisangehörige_Gemeinde"},"district":{"key":"08215","name":"Karlsruhe","type":"Landkreis"},"federalState":{"key":"08","name":"Baden-Württemberg"}},{"name":"Backhausgasse","postalCode":"55234","locality":"Kettenheim","municipality":{"key":"07331042","name":"Kettenheim","type":"Kreisangehörige_Gemeinde"},"district":{"key":"07331","name":"Alzey-Worms","type":"Landkreis"},"federalState":{"key":"07","name":"Rheinland-Pfalz"}},{"name":"Backhausgasse","postalCode":"67582","locality":"Mettenheim","municipality":{"key":"07331045","name":"Mettenheim","type":"Kreisangehörige_Gemeinde"},"district":{"key":"07331","name":"Alzey-Worms","type":"Landkreis"},"federalState":{"key":"07","name":"Rheinland-Pfalz"}},{"name":"Backhausstr.","postalCode":"67596","locality":"Frettenheim","municipality":{"key":"07331028","name":"Frettenheim","type":"Kreisangehörige_Gemeinde"},"district":{"key":"07331","name":"Alzey-Worms","type":"Landkreis"},"federalState":{"key":"07","name":"Rheinland-Pfalz"}},{"name":"Bahnhofstr.","postalCode":"55234","locality":"Kettenheim","municipality":{"key":"07331042","name":"Kettenheim","type":"Kreisangehörige_Gemeinde"},"district":{"key":"07331","name":"Alzey-Worms","type":"Landkreis"},"federalState":{"key":"07","name":"Rheinland-Pfalz"}},{"name":"Bahnhofstr.","postalCode":"67582","locality":"Mettenheim","municipality":{"key":"07331045","name":"Mettenheim","type":"Kreisangehörige_Gemeinde"},"district":{"key":"07331","name":"Alzey-Worms","type":"Landkreis"},"federalState":{"key":"07","name":"Rheinland-Pfalz"}},{"name":"Bahnhofstr.","postalCode":"77955","locality":"Ettenheim","municipality":{"key":"08317026","name":"Ettenheim, Stadt","type":"Stadt"},"district":{"key":"08317","name":"Ortenaukreis","type":"Landkreis"},"federalState":{"key":"08","name":"Baden-Württemberg"}},{"name":"Bahnstr.","postalCode":"84562","locality":"Mettenheim","municipality":{"key":"09183127","name":"Mettenheim","type":"Kreisangehörige_Gemeinde"},"district":{"key":"09183","name":"Mühldorf a.Inn","type":"Landkreis"},"federalState":{"key":"09","name":"Bayern"}},{"name":"Balzershaldenweg","postalCode":"77955","locality":"Ettenheim","municipality":{"key":"08317026","name":"Ettenheim, Stadt","type":"Stadt"},"district":{"key":"08317","name":"Ortenaukreis","type":"Landkreis"},"federalState":{"key":"08","name":"Baden-Württemberg"}},{"name":"Beethovenstr.","postalCode":"76706","locality":"Dettenheim","municipality":{"key":"08215111","name":"Dettenheim","type":"Kreisangehörige_Gemeinde"},"district":{"key":"08215","name":"Karlsruhe","type":"Landkreis"},"federalState":{"key":"08","name":"Baden-Württemberg"}},{"name":"Bei der Kirche","postalCode":"77955","locality":"Ettenheim","municipality":{"key":"08317026","name":"Ettenheim, Stadt","type":"Stadt"},"district":{"key":"08317","name":"Ortenaukreis","type":"Landkreis"},"federalState":{"key":"08","name":"Baden-Württemberg"}},{"name":"Benedikt-Schwarz-Str.","postalCode":"77955","locality":"Ettenheim","municipality":{"key":"08317026","name":"Ettenheim, Stadt","type":"Stadt"},"district":{"key":"08317","name":"Ortenaukreis","type":"Landkreis"},"federalState":{"key":"08","name":"Baden-Württemberg"}},{"name":"Benfelder Str.","postalCode":"77955","locality":"Ettenheim","municipality":{"key":"08317026","name":"Ettenheim, Stadt","type":"Stadt"},"district":{"key":"08317","name":"Ortenaukreis","type":"Landkreis"},"federalState":{"key":"08","name":"Baden-Württemberg"}},{"name":"Bergblick","postalCode":"77955","locality":"Ettenheim","municipality":{"key":"08317026","name":"Ettenheim, Stadt","type":"Stadt"},"district":{"key":"08317","name":"Ortenaukreis","type":"Landkreis"},"federalState":{"key":"08","name":"Baden-Württemberg"}},{"name":"Bergstr.","postalCode":"77955","locality":"Ettenheim","municipality":{"key":"08317026","name":"Ettenheim, Stadt","type":"Stadt"},"district":{"key":"08317","name":"Ortenaukreis","type":"Landkreis"},"federalState":{"key":"08","name":"Baden-Württemberg"}},{"name":"Berliner Str.","postalCode":"67582","locality":"Mettenheim","municipality":{"key":"07331045","name":"Mettenheim","type":"Kreisangehörige_Gemeinde"},"district":{"key":"07331","name":"Alzey-Worms","type":"Landkreis"},"federalState":{"key":"07","name":"Rheinland-Pfalz"}},{"name":"Bettmattenstr.","postalCode":"77955","locality":"Ettenheim","municipality":{"key":"08317026","name":"Ettenheim, Stadt","type":"Stadt"},"district":{"key":"08317","name":"Ortenaukreis","type":"Landkreis"},"federalState":{"key":"08","name":"Baden-Württemberg"}},{"name":"Bienlestr.","postalCode":"77955","locality":"Ettenheim","municipality":{"key":"08317026","name":"Ettenheim, Stadt","type":"Stadt"},"district":{"key":"08317","name":"Ortenaukreis","type":"Landkreis"},"federalState":{"key":"08","name":"Baden-Württemberg"}},{"name":"Binsenlachen","postalCode":"77955","locality":"Ettenheim","municipality":{"key":"08317026","name":"Ettenheim, Stadt","type":"Stadt"},"district":{"key":"08317","name":"Ortenaukreis","type":"Landkreis"},"federalState":{"key":"08","name":"Baden-Württemberg"}},{"name":"Binsenwiesenweg","postalCode":"76706","locality":"Dettenheim","municipality":{"key":"08215111","name":"Dettenheim","type":"Kreisangehörige_Gemeinde"},"district":{"key":"08215","name":"Karlsruhe","type":"Landkreis"},"federalState":{"key":"08","name":"Baden-Württemberg"}},{"name":"Birkenbergweg","postalCode":"77955","locality":"Ettenheim","municipality":{"key":"08317026","name":"Ettenheim, Stadt","type":"Stadt"},"district":{"key":"08317","name":"Ortenaukreis","type":"Landkreis"},"federalState":{"key":"08","name":"Baden-Württemberg"}},{"name":"Birkenweg","postalCode":"76706","locality":"Dettenheim","municipality":{"key":"08215111","name":"Dettenheim","type":"Kreisangehörige_Gemeinde"},"district":{"key":"08215","name":"Karlsruhe","type":"Landkreis"},"federalState":{"key":"08","name":"Baden-Württemberg"}},{"name":"Birkenweg","postalCode":"77955","locality":"Ettenheim","municipality":{"key":"08317026","name":"Ettenheim, Stadt","type":"Stadt"},"district":{"key":"08317","name":"Ortenaukreis","type":"Landkreis"},"federalState":{"key":"08","name":"Baden-Württemberg"}},{"name":"Blaukehlchenweg","postalCode":"76706","locality":"Dettenheim","municipality":{"key":"08215111","name":"Dettenheim","type":"Kreisangehörige_Gemeinde"},"district":{"key":"08215","name":"Karlsruhe","type":"Landkreis"},"federalState":{"key":"08","name":"Baden-Württemberg"}},{"name":"Bleiche","postalCode":"77955","locality":"Ettenheim","municipality":{"key":"08317026","name":"Ettenheim, Stadt","type":"Stadt"},"district":{"key":"08317","name":"Ortenaukreis","type":"Landkreis"},"federalState":{"key":"08","name":"Baden-Württemberg"}},{"name":"Blücherstr.","postalCode":"76706","locality":"Dettenheim","municipality":{"key":"08215111","name":"Dettenheim","type":"Kreisangehörige_Gemeinde"},"district":{"key":"08215","name":"Karlsruhe","type":"Landkreis"},"federalState":{"key":"08","name":"Baden-Württemberg"}},{"name":"Blumenberg","postalCode":"77955","locality":"Ettenheim","municipality":{"key":"08317026","name":"Ettenheim, Stadt","type":"Stadt"},"district":{"key":"08317","name":"Ortenaukreis","type":"Landkreis"},"federalState":{"key":"08","name":"Baden-Württemberg"}},{"name":"Blumenstr.","postalCode":"77955","locality":"Ettenheim","municipality":{"key":"08317026","name":"Ettenheim, Stadt","type":"Stadt"},"district":{"key":"08317","name":"Ortenaukreis","type":"Landkreis"},"federalState":{"key":"08","name":"Baden-Württemberg"}},{"name":"Brahmsstr.","postalCode":"76706","locality":"Dettenheim","municipality":{"key":"08215111","name":"Dettenheim","type":"Kreisangehörige_Gemeinde"},"district":{"key":"08215","name":"Karlsruhe","type":"Landkreis"},"federalState":{"key":"08","name":"Baden-Württemberg"}},{"name":"Breitenloh","postalCode":"84562","locality":"Mettenheim","municipality":{"key":"09183127","name":"Mettenheim","type":"Kreisangehörige_Gemeinde"},"district":{"key":"09183","name":"Mühldorf a.Inn","type":"Landkreis"},"federalState":{"key":"09","name":"Bayern"}},{"name":"Breslauer Str.","postalCode":"67582","locality":"Mettenheim","municipality":{"key":"07331045","name":"Mettenheim","type":"Kreisangehörige_Gemeinde"},"district":{"key":"07331","name":"Alzey-Worms","type":"Landkreis"},"federalState":{"key":"07","name":"Rheinland-Pfalz"}},{"name":"Brogginger Str.","postalCode":"77955","locality":"Ettenheim","municipality":{"key":"08317026","name":"Ettenheim, Stadt","type":"Stadt"},"district":{"key":"08317","name":"Ortenaukreis","type":"Landkreis"},"federalState":{"key":"08","name":"Baden-Württemberg"}},{"name":"Bruderdobelweg","postalCode":"77955","locality":"Ettenheim","municipality":{"key":"08317026","name":"Ettenheim, Stadt","type":"Stadt"},"district":{"key":"08317","name":"Ortenaukreis","type":"Landkreis"},"federalState":{"key":"08","name":"Baden-Württemberg"}},{"name":"Brudergartenweg","postalCode":"77955","locality":"Ettenheim","municipality":{"key":"08317026","name":"Ettenheim, Stadt","type":"Stadt"},"district":{"key":"08317","name":"Ortenaukreis","type":"Landkreis"},"federalState":{"key":"08","name":"Baden-Württemberg"}},{"name":"Brunnengang","postalCode":"67582","locality":"Mettenheim","municipality":{"key":"07331045","name":"Mettenheim","type":"Kreisangehörige_Gemeinde"},"district":{"key":"07331","name":"Alzey-Worms","type":"Landkreis"},"federalState":{"key":"07","name":"Rheinland-Pfalz"}},{"name":"Brunnenstr.","postalCode":"77955","locality":"Ettenheim","municipality":{"key":"08317026","name":"Ettenheim, Stadt","type":"Stadt"},"district":{"key":"08317","name":"Ortenaukreis","type":"Landkreis"},"federalState":{"key":"08","name":"Baden-Württemberg"}},{"name":"Brunnenweg","postalCode":"77955","locality":"Ettenheim","municipality":{"key":"08317026","name":"Ettenheim, Stadt","type":"Stadt"},"district":{"key":"08317","name":"Ortenaukreis","type":"Landkreis"},"federalState":{"key":"08","name":"Baden-Württemberg"}},{"name":"Brünnleweg","postalCode":"77955","locality":"Ettenheim","municipality":{"key":"08317026","name":"Ettenheim, Stadt","type":"Stadt"},"district":{"key":"08317","name":"Ortenaukreis","type":"Landkreis"},"federalState":{"key":"08","name":"Baden-Württemberg"}},{"name":"Buchenstr.","postalCode":"84562","locality":"Mettenheim","municipality":{"key":"09183127","name":"Mettenheim","type":"Kreisangehörige_Gemeinde"},"district":{"key":"09183","name":"Mühldorf a.Inn","type":"Landkreis"},"federalState":{"key":"09","name":"Bayern"}},{"name":"Buchenweg","postalCode":"76706","locality":"Dettenheim","municipality":{"key":"08215111","name":"Dettenheim","type":"Kreisangehörige_Gemeinde"},"district":{"key":"08215","name":"Karlsruhe","type":"Landkreis"},"federalState":{"key":"08","name":"Baden-Württemberg"}},{"name":"Bundesstr.","postalCode":"77955","locality":"Ettenheim","municipality":{"key":"08317026","name":"Ettenheim, Stadt","type":"Stadt"},"district":{"key":"08317","name":"Ortenaukreis","type":"Landkreis"},"federalState":{"key":"08","name":"Baden-Württemberg"}},{"name":"Burgstellweg","postalCode":"77955","locality":"Ettenheim","municipality":{"key":"08317026","name":"Ettenheim, Stadt","type":"Stadt"},"district":{"key":"08317","name":"Ortenaukreis","type":"Landkreis"},"federalState":{"key":"08","name":"Baden-Württemberg"}},{"name":"Büsäge","postalCode":"77955","locality":"Ettenheim","municipality":{"key":"08317026","name":"Ettenheim, Stadt","type":"Stadt"},"district":{"key":"08317","name":"Ortenaukreis","type":"Landkreis"},"federalState":{"key":"08","name":"Baden-Württemberg"}},{"name":"Bussardweg","postalCode":"76706","locality":"Dettenheim","municipality":{"key":"08215111","name":"Dettenheim","type":"Kreisangehörige_Gemeinde"},"district":{"key":"08215","name":"Karlsruhe","type":"Landkreis"},"federalState":{"key":"08","name":"Baden-Württemberg"}},{"name":"Carl-Schneider-Str.","postalCode":"77955","locality":"Ettenheim","municipality":{"key":"08317026","name":"Ettenheim, Stadt","type":"Stadt"},"district":{"key":"08317","name":"Ortenaukreis","type":"Landkreis"},"federalState":{"key":"08","name":"Baden-Württemberg"}},{"name":"Casimirring","postalCode":"67582","locality":"Mettenheim","municipality":{"key":"07331045","name":"Mettenheim","type":"Kreisangehörige_Gemeinde"},"district":{"key":"07331","name":"Alzey-Worms","type":"Landkreis"},"federalState":{"key":"07","name":"Rheinland-Pfalz"}},{"name":"Chavoen-Str.","postalCode":"77955","locality":"Ettenheim","municipality":{"key":"08317026","name":"Ettenheim, Stadt","type":"Stadt"},"district":{"key":"08317","name":"Ortenaukreis","type":"Landkreis"},"federalState":{"key":"08","name":"Baden-Württemberg"}},{"name":"C.-H.-Jäger-Str.","postalCode":"77955","locality":"Ettenheim","municipality":{"key":"08317026","name":"Ettenheim, Stadt","type":"Stadt"},"district":{"key":"08317","name":"Ortenaukreis","type":"Landkreis"},"federalState":{"key":"08","name":"Baden-Württemberg"}},{"name":"Dahlienweg","postalCode":"84562","locality":"Mettenheim","municipality":{"key":"09183127","name":"Mettenheim","type":"Kreisangehörige_Gemeinde"},"district":{"key":"09183","name":"Mühldorf a.Inn","type":"Landkreis"},"federalState":{"key":"09","name":"Bayern"}},{"name":"Dammstr.","postalCode":"76706","locality":"Dettenheim","municipality":{"key":"08215111","name":"Dettenheim","type":"Kreisangehörige_Gemeinde"},"district":{"key":"08215","name":"Karlsruhe","type":"Landkreis"},"federalState":{"key":"08","name":"Baden-Württemberg"}},{"name":"Danziger Str.","postalCode":"67582","locality":"Mettenheim","municipality":{"key":"07331045","name":"Mettenheim","type":"Kreisangehörige_Gemeinde"},"district":{"key":"07331","name":"Alzey-Worms","type":"Landkreis"},"federalState":{"key":"07","name":"Rheinland-Pfalz"}},{"name":"Danziger Str.","postalCode":"77955","locality":"Ettenheim","municipality":{"key":"08317026","name":"Ettenheim, Stadt","type":"Stadt"},"district":{"key":"08317","name":"Ortenaukreis","type":"Landkreis"},"federalState":{"key":"08","name":"Baden-Württemberg"}},{"name":"Dettenheimer Str.","postalCode":"76706","locality":"Dettenheim","municipality":{"key":"08215111","name":"Dettenheim","type":"Kreisangehörige_Gemeinde"},"district":{"key":"08215","name":"Karlsruhe","type":"Landkreis"},"federalState":{"key":"08","name":"Baden-Württemberg"}},{"name":"Dissengrabenweg","postalCode":"77955","locality":"Ettenheim","municipality":{"key":"08317026","name":"Ettenheim, Stadt","type":"Stadt"},"district":{"key":"08317","name":"Ortenaukreis","type":"Landkreis"},"federalState":{"key":"08","name":"Baden-Württemberg"}},{"name":"Dittelsheimer Weg","postalCode":"67596","locality":"Frettenheim","municipality":{"key":"07331028","name":"Frettenheim","type":"Kreisangehörige_Gemeinde"},"district":{"key":"07331","name":"Alzey-Worms","type":"Landkreis"},"federalState":{"key":"07","name":"Rheinland-Pfalz"}},{"name":"Dorfgraben","postalCode":"67582","locality":"Mettenheim","municipality":{"key":"07331045","name":"Mettenheim","type":"Kreisangehörige_Gemeinde"},"district":{"key":"07331","name":"Alzey-Worms","type":"Landkreis"},"federalState":{"key":"07","name":"Rheinland-Pfalz"}},{"name":"Dorfstr.","postalCode":"77955","locality":"Ettenheim","municipality":{"key":"08317026","name":"Ettenheim, Stadt","type":"Stadt"},"district":{"key":"08317","name":"Ortenaukreis","type":"Landkreis"},"federalState":{"key":"08","name":"Baden-Württemberg"}},{"name":"Dörlinbachergrund","postalCode":"77955","locality":"Ettenheim","municipality":{"key":"08317026","name":"Ettenheim, Stadt","type":"Stadt"},"district":{"key":"08317","name":"Ortenaukreis","type":"Landkreis"},"federalState":{"key":"08","name":"Baden-Württemberg"}},{"name":"Drosselweg","postalCode":"76706","locality":"Dettenheim","municipality":{"key":"08215111","name":"Dettenheim","type":"Kreisangehörige_Gemeinde"},"district":{"key":"08215","name":"Karlsruhe","type":"Landkreis"},"federalState":{"key":"08","name":"Baden-Württemberg"}},{"name":"Edmund-Ruf-Str.","postalCode":"77955","locality":"Ettenheim","municipality":{"key":"08317026","name":"Ettenheim, Stadt","type":"Stadt"},"district":{"key":"08317","name":"Ortenaukreis","type":"Landkreis"},"federalState":{"key":"08","name":"Baden-Württemberg"}},{"name":"Eichendorffstr.","postalCode":"76706","locality":"Dettenheim","municipality":{"key":"08215111","name":"Dettenheim","type":"Kreisangehörige_Gemeinde"},"district":{"key":"08215","name":"Karlsruhe","type":"Landkreis"},"federalState":{"key":"08","name":"Baden-Württemberg"}},{"name":"Eichenring","postalCode":"84562","locality":"Mettenheim","municipality":{"key":"09183127","name":"Mettenheim","type":"Kreisangehörige_Gemeinde"},"district":{"key":"09183","name":"Mühldorf a.Inn","type":"Landkreis"},"federalState":{"key":"09","name":"Bayern"}},{"name":"Eichhof","postalCode":"55234","locality":"Kettenheim","municipality":{"key":"07331042","name":"Kettenheim","type":"Kreisangehörige_Gemeinde"},"district":{"key":"07331","name":"Alzey-Worms","type":"Landkreis"},"federalState":{"key":"07","name":"Rheinland-Pfalz"}},{"name":"Eisenbahnstr.","postalCode":"77955","locality":"Ettenheim","municipality":{"key":"08317026","name":"Ettenheim, Stadt","type":"Stadt"},"district":{"key":"08317","name":"Ortenaukreis","type":"Landkreis"},"federalState":{"key":"08","name":"Baden-Württemberg"}},{"name":"Eisvogelweg","postalCode":"76706","locality":"Dettenheim","municipality":{"key":"08215111","name":"Dettenheim","type":"Kreisangehörige_Gemeinde"},"district":{"key":"08215","name":"Karlsruhe","type":"Landkreis"},"federalState":{"key":"08","name":"Baden-Württemberg"}},{"name":"Enzianstr.","postalCode":"84562","locality":"Mettenheim","municipality":{"key":"09183127","name":"Mettenheim","type":"Kreisangehörige_Gemeinde"},"district":{"key":"09183","name":"Mühldorf a.Inn","type":"Landkreis"},"federalState":{"key":"09","name":"Bayern"}},{"name":"Erlenbuschweg","postalCode":"76706","locality":"Dettenheim","municipality":{"key":"08215111","name":"Dettenheim","type":"Kreisangehörige_Gemeinde"},"district":{"key":"08215","name":"Karlsruhe","type":"Landkreis"},"federalState":{"key":"08","name":"Baden-Württemberg"}},{"name":"Erlenweg","postalCode":"84562","locality":"Mettenheim","municipality":{"key":"09183127","name":"Mettenheim","type":"Kreisangehörige_Gemeinde"},"district":{"key":"09183","name":"Mühldorf a.Inn","type":"Landkreis"},"federalState":{"key":"09","name":"Bayern"}},{"name":"Eschenweg","postalCode":"84562","locality":"Mettenheim","municipality":{"key":"09183127","name":"Mettenheim","type":"Kreisangehörige_Gemeinde"},"district":{"key":"09183","name":"Mühldorf a.Inn","type":"Landkreis"},"federalState":{"key":"09","name":"Bayern"}},{"name":"Ettikostr.","postalCode":"77955","locality":"Ettenheim","municipality":{"key":"08317026","name":"Ettenheim, Stadt","type":"Stadt"},"district":{"key":"08317","name":"Ortenaukreis","type":"Landkreis"},"federalState":{"key":"08","name":"Baden-Württemberg"}},{"name":"Falkenweg","postalCode":"76706","locality":"Dettenheim","municipality":{"key":"08215111","name":"Dettenheim","type":"Kreisangehörige_Gemeinde"},"district":{"key":"08215","name":"Karlsruhe","type":"Landkreis"},"federalState":{"key":"08","name":"Baden-Württemberg"}},{"name":"Festungsstr.","postalCode":"77955","locality":"Ettenheim","municipality":{"key":"08317026","name":"Ettenheim, Stadt","type":"Stadt"},"district":{"key":"08317","name":"Ortenaukreis","type":"Landkreis"},"federalState":{"key":"08","name":"Baden-Württemberg"}},{"name":"Fichtenring","postalCode":"84562","locality":"Mettenheim","municipality":{"key":"09183127","name":"Mettenheim","type":"Kreisangehörige_Gemeinde"},"district":{"key":"09183","name":"Mühldorf a.Inn","type":"Landkreis"},"federalState":{"key":"09","name":"Bayern"}},{"name":"Fichtestr.","postalCode":"76706","locality":"Dettenheim","municipality":{"key":"08215111","name":"Dettenheim","type":"Kreisangehörige_Gemeinde"},"district":{"key":"08215","name":"Karlsruhe","type":"Landkreis"},"federalState":{"key":"08","name":"Baden-Württemberg"}},{"name":"Finkenweg","postalCode":"76706","locality":"Dettenheim","municipality":{"key":"08215111","name":"Dettenheim","type":"Kreisangehörige_Gemeinde"},"district":{"key":"08215","name":"Karlsruhe","type":"Landkreis"},"federalState":{"key":"08","name":"Baden-Württemberg"}},{"name":"Fischergang","postalCode":"67582","locality":"Mettenheim","municipality":{"key":"07331045","name":"Mettenheim","type":"Kreisangehörige_Gemeinde"},"district":{"key":"07331","name":"Alzey-Worms","type":"Landkreis"},"federalState":{"key":"07","name":"Rheinland-Pfalz"}},{"name":"Fliederweg","postalCode":"76706","locality":"Dettenheim","municipality":{"key":"08215111","name":"Dettenheim","type":"Kreisangehörige_Gemeinde"},"district":{"key":"08215","name":"Karlsruhe","type":"Landkreis"},"federalState":{"key":"08","name":"Baden-Württemberg"}},{"name":"Flugplatzstr.","postalCode":"77955","locality":"Ettenheim","municipality":{"key":"08317026","name":"Ettenheim, Stadt","type":"Stadt"},"district":{"key":"08317","name":"Ortenaukreis","type":"Landkreis"},"federalState":{"key":"08","name":"Baden-Württemberg"}},{"name":"Forscherpfad","postalCode":"77955","locality":"Ettenheim","municipality":{"key":"08317026","name":"Ettenheim, Stadt","type":"Stadt"},"district":{"key":"08317","name":"Ortenaukreis","type":"Landkreis"},"federalState":{"key":"08","name":"Baden-Württemberg"}},{"name":"Franz-Gschrey-Str.","postalCode":"77955","locality":"Ettenheim","municipality":{"key":"08317026","name":"Ettenheim, Stadt","type":"Stadt"},"district":{"key":"08317","name":"Ortenaukreis","type":"Landkreis"},"federalState":{"key":"08","name":"Baden-Württemberg"}},{"name":"Frauenweg","postalCode":"77955","locality":"Ettenheim","municipality":{"key":"08317026","name":"Ettenheim, Stadt","type":"Stadt"},"district":{"key":"08317","name":"Ortenaukreis","type":"Landkreis"},"federalState":{"key":"08","name":"Baden-Württemberg"}},{"name":"Freiburger Str.","postalCode":"77955","locality":"Ettenheim","municipality":{"key":"08317026","name":"Ettenheim, Stadt","type":"Stadt"},"district":{"key":"08317","name":"Ortenaukreis","type":"Landkreis"},"federalState":{"key":"08","name":"Baden-Württemberg"}},{"name":"Freih.-von-Türckheim-Str.","postalCode":"77955","locality":"Ettenheim","municipality":{"key":"08317026","name":"Ettenheim, Stadt","type":"Stadt"},"district":{"key":"08317","name":"Ortenaukreis","type":"Landkreis"},"federalState":{"key":"08","name":"Baden-Württemberg"}},{"name":"Friedhofstr.","postalCode":"76706","locality":"Dettenheim","municipality":{"key":"08215111","name":"Dettenheim","type":"Kreisangehörige_Gemeinde"},"district":{"key":"08215","name":"Karlsruhe","type":"Landkreis"},"federalState":{"key":"08","name":"Baden-Württemberg"}},{"name":"Friedhofstr.","postalCode":"77955","locality":"Ettenheim","municipality":{"key":"08317026","name":"Ettenheim, Stadt","type":"Stadt"},"district":{"key":"08317","name":"Ortenaukreis","type":"Landkreis"},"federalState":{"key":"08","name":"Baden-Württemberg"}},{"name":"Friedrich-Dürr-Str.","postalCode":"76706","locality":"Dettenheim","municipality":{"key":"08215111","name":"Dettenheim","type":"Kreisangehörige_Gemeinde"},"district":{"key":"08215","name":"Karlsruhe","type":"Landkreis"},"federalState":{"key":"08","name":"Baden-Württemberg"}},{"name":"Friedrichstr.","postalCode":"76706","locality":"Dettenheim","municipality":{"key":"08215111","name":"Dettenheim","type":"Kreisangehörige_Gemeinde"},"district":{"key":"08215","name":"Karlsruhe","type":"Landkreis"},"federalState":{"key":"08","name":"Baden-Württemberg"}},{"name":"Friedrichstr.","postalCode":"77955","locality":"Ettenheim","municipality":{"key":"08317026","name":"Ettenheim, Stadt","type":"Stadt"},"district":{"key":"08317","name":"Ortenaukreis","type":"Landkreis"},"federalState":{"key":"08","name":"Baden-Württemberg"}},{"name":"Fritz-Wagner-Weg","postalCode":"76706","locality":"Dettenheim","municipality":{"key":"08215111","name":"Dettenheim","type":"Kreisangehörige_Gemeinde"},"district":{"key":"08215","name":"Karlsruhe","type":"Landkreis"},"federalState":{"key":"08","name":"Baden-Württemberg"}},{"name":"Fürstenfeldstr.","postalCode":"77955","locality":"Ettenheim","municipality":{"key":"08317026","name":"Ettenheim, Stadt","type":"Stadt"},"district":{"key":"08317","name":"Ortenaukreis","type":"Landkreis"},"federalState":{"key":"08","name":"Baden-Württemberg"}},{"name":"Gartenhauser Str.","postalCode":"77955","locality":"Ettenheim","municipality":{"key":"08317026","name":"Ettenheim, Stadt","type":"Stadt"},"district":{"key":"08317","name":"Ortenaukreis","type":"Landkreis"},"federalState":{"key":"08","name":"Baden-Württemberg"}},{"name":"Gartenpfad","postalCode":"67582","locality":"Mettenheim","municipality":{"key":"07331045","name":"Mettenheim","type":"Kreisangehörige_Gemeinde"},"district":{"key":"07331","name":"Alzey-Worms","type":"Landkreis"},"federalState":{"key":"07","name":"Rheinland-Pfalz"}},{"name":"Gartenstr.","postalCode":"67582","locality":"Mettenheim","municipality":{"key":"07331045","name":"Mettenheim","type":"Kreisangehörige_Gemeinde"},"district":{"key":"07331","name":"Alzey-Worms","type":"Landkreis"},"federalState":{"key":"07","name":"Rheinland-Pfalz"}},{"name":"Gartenstr.","postalCode":"67596","locality":"Frettenheim","municipality":{"key":"07331028","name":"Frettenheim","type":"Kreisangehörige_Gemeinde"},"district":{"key":"07331","name":"Alzey-Worms","type":"Landkreis"},"federalState":{"key":"07","name":"Rheinland-Pfalz"}},{"name":"Gartenstr.","postalCode":"76706","locality":"Dettenheim","municipality":{"key":"08215111","name":"Dettenheim","type":"Kreisangehörige_Gemeinde"},"district":{"key":"08215","name":"Karlsruhe","type":"Landkreis"},"federalState":{"key":"08","name":"Baden-Württemberg"}},{"name":"Gartenstr.","postalCode":"77955","locality":"Ettenheim","municipality":{"key":"08317026","name":"Ettenheim, Stadt","type":"Stadt"},"district":{"key":"08317","name":"Ortenaukreis","type":"Landkreis"},"federalState":{"key":"08","name":"Baden-Württemberg"}},{"name":"Gartenweg","postalCode":"77955","locality":"Ettenheim","municipality":{"key":"08317026","name":"Ettenheim, Stadt","type":"Stadt"},"district":{"key":"08317","name":"Ortenaukreis","type":"Landkreis"},"federalState":{"key":"08","name":"Baden-Württemberg"}},{"name":"Gartenweg","postalCode":"84562","locality":"Mettenheim","municipality":{"key":"09183127","name":"Mettenheim","type":"Kreisangehörige_Gemeinde"},"district":{"key":"09183","name":"Mühldorf a.Inn","type":"Landkreis"},"federalState":{"key":"09","name":"Bayern"}},{"name":"Geibelstr.","postalCode":"76706","locality":"Dettenheim","municipality":{"key":"08215111","name":"Dettenheim","type":"Kreisangehörige_Gemeinde"},"district":{"key":"08215","name":"Karlsruhe","type":"Landkreis"},"federalState":{"key":"08","name":"Baden-Württemberg"}},{"name":"Geißstr.","postalCode":"76706","locality":"Dettenheim","municipality":{"key":"08215111","name":"Dettenheim","type":"Kreisangehörige_Gemeinde"},"district":{"key":"08215","name":"Karlsruhe","type":"Landkreis"},"federalState":{"key":"08","name":"Baden-Württemberg"}},{"name":"Georges-Imbert-Str.","postalCode":"77955","locality":"Ettenheim","municipality":{"key":"08317026","name":"Ettenheim, Stadt","type":"Stadt"},"district":{"key":"08317","name":"Ortenaukreis","type":"Landkreis"},"federalState":{"key":"08","name":"Baden-Württemberg"}},{"name":"Geranienstr.","postalCode":"84562","locality":"Mettenheim","municipality":{"key":"09183127","name":"Mettenheim","type":"Kreisangehörige_Gemeinde"},"district":{"key":"09183","name":"Mühldorf a.Inn","type":"Landkreis"},"federalState":{"key":"09","name":"Bayern"}},{"name":"Gerlachweg","postalCode":"76706","locality":"Dettenheim","municipality":{"key":"08215111","name":"Dettenheim","type":"Kreisangehörige_Gemeinde"},"district":{"key":"08215","name":"Karlsruhe","type":"Landkreis"},"federalState":{"key":"08","name":"Baden-Württemberg"}},{"name":"Gewerbestr.","postalCode":"84562","locality":"Mettenheim","municipality":{"key":"09183127","name":"Mettenheim","type":"Kreisangehörige_Gemeinde"},"district":{"key":"09183","name":"Mühldorf a.Inn","type":"Landkreis"},"federalState":{"key":"09","name":"Bayern"}},{"name":"Gisenburgweg","postalCode":"77955","locality":"Ettenheim","municipality":{"key":"08317026","name":"Ettenheim, Stadt","type":"Stadt"},"district":{"key":"08317","name":"Ortenaukreis","type":"Landkreis"},"federalState":{"key":"08","name":"Baden-Württemberg"}},{"name":"Gladiolenstr.","postalCode":"84562","locality":"Mettenheim","municipality":{"key":"09183127","name":"Mettenheim","type":"Kreisangehörige_Gemeinde"},"district":{"key":"09183","name":"Mühldorf a.Inn","type":"Landkreis"},"federalState":{"key":"09","name":"Bayern"}},{"name":"Glasackerweg","postalCode":"77955","locality":"Ettenheim","municipality":{"key":"08317026","name":"Ettenheim, Stadt","type":"Stadt"},"district":{"key":"08317","name":"Ortenaukreis","type":"Landkreis"},"federalState":{"key":"08","name":"Baden-Württemberg"}},{"name":"Goethestr.","postalCode":"67582","locality":"Mettenheim","municipality":{"key":"07331045","name":"Mettenheim","type":"Kreisangehörige_Gemeinde"},"district":{"key":"07331","name":"Alzey-Worms","type":"Landkreis"},"federalState":{"key":"07","name":"Rheinland-Pfalz"}},{"name":"Goethestr.","postalCode":"67596","locality":"Frettenheim","municipality":{"key":"07331028","name":"Frettenheim","type":"Kreisangehörige_Gemeinde"},"district":{"key":"07331","name":"Alzey-Worms","type":"Landkreis"},"federalState":{"key":"07","name":"Rheinland-Pfalz"}},{"name":"Goethestr.","postalCode":"76706","locality":"Dettenheim","municipality":{"key":"08215111","name":"Dettenheim","type":"Kreisangehörige_Gemeinde"},"district":{"key":"08215","name":"Karlsruhe","type":"Landkreis"},"federalState":{"key":"08","name":"Baden-Württemberg"}},{"name":"Goldachstr.","postalCode":"84562","locality":"Mettenheim","municipality":{"key":"09183127","name":"Mettenheim","type":"Kreisangehörige_Gemeinde"},"district":{"key":"09183","name":"Mühldorf a.Inn","type":"Landkreis"},"federalState":{"key":"09","name":"Bayern"}},{"name":"Grabener Str.","postalCode":"76706","locality":"Dettenheim","municipality":{"key":"08215111","name":"Dettenheim","type":"Kreisangehörige_Gemeinde"},"district":{"key":"08215","name":"Karlsruhe","type":"Landkreis"},"federalState":{"key":"08","name":"Baden-Württemberg"}},{"name":"Grabenweg","postalCode":"77955","locality":"Ettenheim","municipality":{"key":"08317026","name":"Ettenheim, Stadt","type":"Stadt"},"district":{"key":"08317","name":"Ortenaukreis","type":"Landkreis"},"federalState":{"key":"08","name":"Baden-Württemberg"}},{"name":"Gräberpfad","postalCode":"76706","locality":"Dettenheim","municipality":{"key":"08215111","name":"Dettenheim","type":"Kreisangehörige_Gemeinde"},"district":{"key":"08215","name":"Karlsruhe","type":"Landkreis"},"federalState":{"key":"08","name":"Baden-Württemberg"}},{"name":"Gretelsbachweg","postalCode":"77955","locality":"Ettenheim","municipality":{"key":"08317026","name":"Ettenheim, Stadt","type":"Stadt"},"district":{"key":"08317","name":"Ortenaukreis","type":"Landkreis"},"federalState":{"key":"08","name":"Baden-Württemberg"}},{"name":"Gumattenkirchen","postalCode":"84562","locality":"Mettenheim","municipality":{"key":"09183127","name":"Mettenheim","type":"Kreisangehörige_Gemeinde"},"district":{"key":"09183","name":"Mühldorf a.Inn","type":"Landkreis"},"federalState":{"key":"09","name":"Bayern"}},{"name":"Gutenbergstr.","postalCode":"77955","locality":"Ettenheim","municipality":{"key":"08317026","name":"Ettenheim, Stadt","type":"Stadt"},"district":{"key":"08317","name":"Ortenaukreis","type":"Landkreis"},"federalState":{"key":"08","name":"Baden-Württemberg"}},{"name":"Habichtweg","postalCode":"76706","locality":"Dettenheim","municipality":{"key":"08215111","name":"Dettenheim","type":"Kreisangehörige_Gemeinde"},"district":{"key":"08215","name":"Karlsruhe","type":"Landkreis"},"federalState":{"key":"08","name":"Baden-Württemberg"}},{"name":"Hähnlebrunnen","postalCode":"77955","locality":"Ettenheim","municipality":{"key":"08317026","name":"Ettenheim, Stadt","type":"Stadt"},"district":{"key":"08317","name":"Ortenaukreis","type":"Landkreis"},"federalState":{"key":"08","name":"Baden-Württemberg"}},{"name":"Hallstattstr.","postalCode":"77955","locality":"Ettenheim","municipality":{"key":"08317026","name":"Ettenheim, Stadt","type":"Stadt"},"district":{"key":"08317","name":"Ortenaukreis","type":"Landkreis"},"federalState":{"key":"08","name":"Baden-Württemberg"}},{"name":"Händelstr.","postalCode":"76706","locality":"Dettenheim","municipality":{"key":"08215111","name":"Dettenheim","type":"Kreisangehörige_Gemeinde"},"district":{"key":"08215","name":"Karlsruhe","type":"Landkreis"},"federalState":{"key":"08","name":"Baden-Württemberg"}},{"name":"Hansberg","postalCode":"77955","locality":"Ettenheim","municipality":{"key":"08317026","name":"Ettenheim, Stadt","type":"Stadt"},"district":{"key":"08317","name":"Ortenaukreis","type":"Landkreis"},"federalState":{"key":"08","name":"Baden-Württemberg"}},{"name":"Hansjakob Str.","postalCode":"77955","locality":"Ettenheim","municipality":{"key":"08317026","name":"Ettenheim, Stadt","type":"Stadt"},"district":{"key":"08317","name":"Ortenaukreis","type":"Landkreis"},"federalState":{"key":"08","name":"Baden-Württemberg"}},{"name":"Harthausen","postalCode":"84562","locality":"Mettenheim","municipality":{"key":"09183127","name":"Mettenheim","type":"Kreisangehörige_Gemeinde"},"district":{"key":"09183","name":"Mühldorf a.Inn","type":"Landkreis"},"federalState":{"key":"09","name":"Bayern"}},{"name":"Hasenweg","postalCode":"77955","locality":"Ettenheim","municipality":{"key":"08317026","name":"Ettenheim, Stadt","type":"Stadt"},"district":{"key":"08317","name":"Ortenaukreis","type":"Landkreis"},"federalState":{"key":"08","name":"Baden-Württemberg"}},{"name":"Hauptstr.","postalCode":"67582","locality":"Mettenheim","municipality":{"key":"07331045","name":"Mettenheim","type":"Kreisangehörige_Gemeinde"},"district":{"key":"07331","name":"Alzey-Worms","type":"Landkreis"},"federalState":{"key":"07","name":"Rheinland-Pfalz"}},{"name":"Hauptstr.","postalCode":"67596","locality":"Frettenheim","municipality":{"key":"07331028","name":"Frettenheim","type":"Kreisangehörige_Gemeinde"},"district":{"key":"07331","name":"Alzey-Worms","type":"Landkreis"},"federalState":{"key":"07","name":"Rheinland-Pfalz"}},{"name":"Hauptstr.","postalCode":"76706","locality":"Dettenheim","municipality":{"key":"08215111","name":"Dettenheim","type":"Kreisangehörige_Gemeinde"},"district":{"key":"08215","name":"Karlsruhe","type":"Landkreis"},"federalState":{"key":"08","name":"Baden-Württemberg"}},{"name":"Hauptstr.","postalCode":"77955","locality":"Ettenheim","municipality":{"key":"08317026","name":"Ettenheim, Stadt","type":"Stadt"},"district":{"key":"08317","name":"Ortenaukreis","type":"Landkreis"},"federalState":{"key":"08","name":"Baden-Württemberg"}},{"name":"Haydnstr.","postalCode":"76706","locality":"Dettenheim","municipality":{"key":"08215111","name":"Dettenheim","type":"Kreisangehörige_Gemeinde"},"district":{"key":"08215","name":"Karlsruhe","type":"Landkreis"},"federalState":{"key":"08","name":"Baden-Württemberg"}},{"name":"Hebelstr.","postalCode":"76706","locality":"Dettenheim","municipality":{"key":"08215111","name":"Dettenheim","type":"Kreisangehörige_Gemeinde"},"district":{"key":"08215","name":"Karlsruhe","type":"Landkreis"},"federalState":{"key":"08","name":"Baden-Württemberg"}},{"name":"Hebelstr.","postalCode":"77955","locality":"Ettenheim","municipality":{"key":"08317026","name":"Ettenheim, Stadt","type":"Stadt"},"district":{"key":"08317","name":"Ortenaukreis","type":"Landkreis"},"federalState":{"key":"08","name":"Baden-Württemberg"}},{"name":"Heidenkeller","postalCode":"77955","locality":"Ettenheim","municipality":{"key":"08317026","name":"Ettenheim, Stadt","type":"Stadt"},"district":{"key":"08317","name":"Ortenaukreis","type":"Landkreis"},"federalState":{"key":"08","name":"Baden-Württemberg"}},{"name":"Heilbadstr.","postalCode":"77955","locality":"Ettenheim","municipality":{"key":"08317026","name":"Ettenheim, Stadt","type":"Stadt"},"district":{"key":"08317","name":"Ortenaukreis","type":"Landkreis"},"federalState":{"key":"08","name":"Baden-Württemberg"}},{"name":"Heiligenhäußle","postalCode":"77955","locality":"Ettenheim","municipality":{"key":"08317026","name":"Ettenheim, Stadt","type":"Stadt"},"district":{"key":"08317","name":"Ortenaukreis","type":"Landkreis"},"federalState":{"key":"08","name":"Baden-Württemberg"}},{"name":"Heinrich-Heine-Str.","postalCode":"76706","locality":"Dettenheim","municipality":{"key":"08215111","name":"Dettenheim","type":"Kreisangehörige_Gemeinde"},"district":{"key":"08215","name":"Karlsruhe","type":"Landkreis"},"federalState":{"key":"08","name":"Baden-Württemberg"}},{"name":"Herbolzheimer Str.","postalCode":"77955","locality":"Ettenheim","municipality":{"key":"08317026","name":"Ettenheim, Stadt","type":"Stadt"},"district":{"key":"08317","name":"Ortenaukreis","type":"Landkreis"},"federalState":{"key":"08","name":"Baden-Württemberg"}},{"name":"Herrenhalde","postalCode":"77955","locality":"Ettenheim","municipality":{"key":"08317026","name":"Ettenheim, Stadt","type":"Stadt"},"district":{"key":"08317","name":"Ortenaukreis","type":"Landkreis"},"federalState":{"key":"08","name":"Baden-Württemberg"}},{"name":"Herrenstr.","postalCode":"76706","locality":"Dettenheim","municipality":{"key":"08215111","name":"Dettenheim","type":"Kreisangehörige_Gemeinde"},"district":{"key":"08215","name":"Karlsruhe","type":"Landkreis"},"federalState":{"key":"08","name":"Baden-Württemberg"}},{"name":"Herrenstr.","postalCode":"77955","locality":"Ettenheim","municipality":{"key":"08317026","name":"Ettenheim, Stadt","type":"Stadt"},"district":{"key":"08317","name":"Ortenaukreis","type":"Landkreis"},"federalState":{"key":"08","name":"Baden-Württemberg"}},{"name":"Herrgottstr.","postalCode":"76706","locality":"Dettenheim","municipality":{"key":"08215111","name":"Dettenheim","type":"Kreisangehörige_Gemeinde"},"district":{"key":"08215","name":"Karlsruhe","type":"Landkreis"},"federalState":{"key":"08","name":"Baden-Württemberg"}},{"name":"Hesslocher Hohl","postalCode":"67582","locality":"Mettenheim","municipality":{"key":"07331045","name":"Mettenheim","type":"Kreisangehörige_Gemeinde"},"district":{"key":"07331","name":"Alzey-Worms","type":"Landkreis"},"federalState":{"key":"07","name":"Rheinland-Pfalz"}},{"name":"Hildastr.","postalCode":"76706","locality":"Dettenheim","municipality":{"key":"08215111","name":"Dettenheim","type":"Kreisangehörige_Gemeinde"},"district":{"key":"08215","name":"Karlsruhe","type":"Landkreis"},"federalState":{"key":"08","name":"Baden-Württemberg"}},{"name":"Hintefeldweg","postalCode":"77955","locality":"Ettenheim","municipality":{"key":"08317026","name":"Ettenheim, Stadt","type":"Stadt"},"district":{"key":"08317","name":"Ortenaukreis","type":"Landkreis"},"federalState":{"key":"08","name":"Baden-Württemberg"}},{"name":"Hinter dem Löwen","postalCode":"77955","locality":"Ettenheim","municipality":{"key":"08317026","name":"Ettenheim, Stadt","type":"Stadt"},"district":{"key":"08317","name":"Ortenaukreis","type":"Landkreis"},"federalState":{"key":"08","name":"Baden-Württemberg"}},{"name":"Hinter den Zäunen","postalCode":"77955","locality":"Ettenheim","municipality":{"key":"08317026","name":"Ettenheim, Stadt","type":"Stadt"},"district":{"key":"08317","name":"Ortenaukreis","type":"Landkreis"},"federalState":{"key":"08","name":"Baden-Württemberg"}},{"name":"Hinter der Kirche","postalCode":"77955","locality":"Ettenheim","municipality":{"key":"08317026","name":"Ettenheim, Stadt","type":"Stadt"},"district":{"key":"08317","name":"Ortenaukreis","type":"Landkreis"},"federalState":{"key":"08","name":"Baden-Württemberg"}},{"name":"Hinterdorfstr.","postalCode":"77955","locality":"Ettenheim","municipality":{"key":"08317026","name":"Ettenheim, Stadt","type":"Stadt"},"district":{"key":"08317","name":"Ortenaukreis","type":"Landkreis"},"federalState":{"key":"08","name":"Baden-Württemberg"}},{"name":"Hintergasse","postalCode":"67582","locality":"Mettenheim","municipality":{"key":"07331045","name":"Mettenheim","type":"Kreisangehörige_Gemeinde"},"district":{"key":"07331","name":"Alzey-Worms","type":"Landkreis"},"federalState":{"key":"07","name":"Rheinland-Pfalz"}},{"name":"Hinterhöfen","postalCode":"77955","locality":"Ettenheim","municipality":{"key":"08317026","name":"Ettenheim, Stadt","type":"Stadt"},"district":{"key":"08317","name":"Ortenaukreis","type":"Landkreis"},"federalState":{"key":"08","name":"Baden-Württemberg"}},{"name":"Hinterstr.","postalCode":"76706","locality":"Dettenheim","municipality":{"key":"08215111","name":"Dettenheim","type":"Kreisangehörige_Gemeinde"},"district":{"key":"08215","name":"Karlsruhe","type":"Landkreis"},"federalState":{"key":"08","name":"Baden-Württemberg"}},{"name":"Hinterwaldweg","postalCode":"77955","locality":"Ettenheim","municipality":{"key":"08317026","name":"Ettenheim, Stadt","type":"Stadt"},"district":{"key":"08317","name":"Ortenaukreis","type":"Landkreis"},"federalState":{"key":"08","name":"Baden-Württemberg"}},{"name":"Hochstetter Str.","postalCode":"76706","locality":"Dettenheim","municipality":{"key":"08215111","name":"Dettenheim","type":"Kreisangehörige_Gemeinde"},"district":{"key":"08215","name":"Karlsruhe","type":"Landkreis"},"federalState":{"key":"08","name":"Baden-Württemberg"}},{"name":"Höhenstr.","postalCode":"77955","locality":"Ettenheim","municipality":{"key":"08317026","name":"Ettenheim, Stadt","type":"Stadt"},"district":{"key":"08317","name":"Ortenaukreis","type":"Landkreis"},"federalState":{"key":"08","name":"Baden-Württemberg"}},{"name":"Höhenweg","postalCode":"77955","locality":"Ettenheim","municipality":{"key":"08317026","name":"Ettenheim, Stadt","type":"Stadt"},"district":{"key":"08317","name":"Ortenaukreis","type":"Landkreis"},"federalState":{"key":"08","name":"Baden-Württemberg"}},{"name":"Hölderlinstr.","postalCode":"76706","locality":"Dettenheim","municipality":{"key":"08215111","name":"Dettenheim","type":"Kreisangehörige_Gemeinde"},"district":{"key":"08215","name":"Karlsruhe","type":"Landkreis"},"federalState":{"key":"08","name":"Baden-Württemberg"}},{"name":"Holunderweg","postalCode":"76706","locality":"Dettenheim","municipality":{"key":"08215111","name":"Dettenheim","type":"Kreisangehörige_Gemeinde"},"district":{"key":"08215","name":"Karlsruhe","type":"Landkreis"},"federalState":{"key":"08","name":"Baden-Württemberg"}},{"name":"Hopfenweg","postalCode":"76706","locality":"Dettenheim","municipality":{"key":"08215111","name":"Dettenheim","type":"Kreisangehörige_Gemeinde"},"district":{"key":"08215","name":"Karlsruhe","type":"Landkreis"},"federalState":{"key":"08","name":"Baden-Württemberg"}},{"name":"Hugo-Broßmer-Str.","postalCode":"77955","locality":"Ettenheim","municipality":{"key":"08317026","name":"Ettenheim, Stadt","type":"Stadt"},"district":{"key":"08317","name":"Ortenaukreis","type":"Landkreis"},"federalState":{"key":"08","name":"Baden-Württemberg"}},{"name":"Hugo-Walther-Str.","postalCode":"77955","locality":"Ettenheim","municipality":{"key":"08317026","name":"Ettenheim, Stadt","type":"Stadt"},"district":{"key":"08317","name":"Ortenaukreis","type":"Landkreis"},"federalState":{"key":"08","name":"Baden-Württemberg"}},{"name":"Humboldtstr.","postalCode":"76706","locality":"Dettenheim","municipality":{"key":"08215111","name":"Dettenheim","type":"Kreisangehörige_Gemeinde"},"district":{"key":"08215","name":"Karlsruhe","type":"Landkreis"},"federalState":{"key":"08","name":"Baden-Württemberg"}},{"name":"Hundsrück","postalCode":"77955","locality":"Ettenheim","municipality":{"key":"08317026","name":"Ettenheim, Stadt","type":"Stadt"},"district":{"key":"08317","name":"Ortenaukreis","type":"Landkreis"},"federalState":{"key":"08","name":"Baden-Württemberg"}},{"name":"Hurstweg","postalCode":"76706","locality":"Dettenheim","municipality":{"key":"08215111","name":"Dettenheim","type":"Kreisangehörige_Gemeinde"},"district":{"key":"08215","name":"Karlsruhe","type":"Landkreis"},"federalState":{"key":"08","name":"Baden-Württemberg"}},{"name":"Huttenheimer Str.","postalCode":"76706","locality":"Dettenheim","municipality":{"key":"08215111","name":"Dettenheim","type":"Kreisangehörige_Gemeinde"},"district":{"key":"08215","name":"Karlsruhe","type":"Landkreis"},"federalState":{"key":"08","name":"Baden-Württemberg"}},{"name":"Im Altwick","postalCode":"77955","locality":"Ettenheim","municipality":{"key":"08317026","name":"Ettenheim, Stadt","type":"Stadt"},"district":{"key":"08317","name":"Ortenaukreis","type":"Landkreis"},"federalState":{"key":"08","name":"Baden-Württemberg"}},{"name":"Im Apfelgarten","postalCode":"55234","locality":"Kettenheim","municipality":{"key":"07331042","name":"Kettenheim","type":"Kreisangehörige_Gemeinde"},"district":{"key":"07331","name":"Alzey-Worms","type":"Landkreis"},"federalState":{"key":"07","name":"Rheinland-Pfalz"}},{"name":"Im Bienenfeld","postalCode":"77955","locality":"Ettenheim","municipality":{"key":"08317026","name":"Ettenheim, Stadt","type":"Stadt"},"district":{"key":"08317","name":"Ortenaukreis","type":"Landkreis"},"federalState":{"key":"08","name":"Baden-Württemberg"}},{"name":"Im Bienle","postalCode":"77955","locality":"Ettenheim","municipality":{"key":"08317026","name":"Ettenheim, Stadt","type":"Stadt"},"district":{"key":"08317","name":"Ortenaukreis","type":"Landkreis"},"federalState":{"key":"08","name":"Baden-Württemberg"}},{"name":"Im Brucktal","postalCode":"77955","locality":"Ettenheim","municipality":{"key":"08317026","name":"Ettenheim, Stadt","type":"Stadt"},"district":{"key":"08317","name":"Ortenaukreis","type":"Landkreis"},"federalState":{"key":"08","name":"Baden-Württemberg"}},{"name":"Im Brünnelinsgraben","postalCode":"77955","locality":"Ettenheim","municipality":{"key":"08317026","name":"Ettenheim, Stadt","type":"Stadt"},"district":{"key":"08317","name":"Ortenaukreis","type":"Landkreis"},"federalState":{"key":"08","name":"Baden-Württemberg"}},{"name":"Im Bürgele","postalCode":"77955","locality":"Ettenheim","municipality":{"key":"08317026","name":"Ettenheim, Stadt","type":"Stadt"},"district":{"key":"08317","name":"Ortenaukreis","type":"Landkreis"},"federalState":{"key":"08","name":"Baden-Württemberg"}},{"name":"Im Eichberg","postalCode":"77955","locality":"Ettenheim","municipality":{"key":"08317026","name":"Ettenheim, Stadt","type":"Stadt"},"district":{"key":"08317","name":"Ortenaukreis","type":"Landkreis"},"federalState":{"key":"08","name":"Baden-Württemberg"}},{"name":"Im Entenbusch","postalCode":"67582","locality":"Mettenheim","municipality":{"key":"07331045","name":"Mettenheim","type":"Kreisangehörige_Gemeinde"},"district":{"key":"07331","name":"Alzey-Worms","type":"Landkreis"},"federalState":{"key":"07","name":"Rheinland-Pfalz"}},{"name":"Im Erlenwäldele","postalCode":"77955","locality":"Ettenheim","municipality":{"key":"08317026","name":"Ettenheim, Stadt","type":"Stadt"},"district":{"key":"08317","name":"Ortenaukreis","type":"Landkreis"},"federalState":{"key":"08","name":"Baden-Württemberg"}},{"name":"Im Filmersbach","postalCode":"77955","locality":"Ettenheim","municipality":{"key":"08317026","name":"Ettenheim, Stadt","type":"Stadt"},"district":{"key":"08317","name":"Ortenaukreis","type":"Landkreis"},"federalState":{"key":"08","name":"Baden-Württemberg"}},{"name":"Im Götzbach","postalCode":"77955","locality":"Ettenheim","municipality":{"key":"08317026","name":"Ettenheim, Stadt","type":"Stadt"},"district":{"key":"08317","name":"Ortenaukreis","type":"Landkreis"},"federalState":{"key":"08","name":"Baden-Württemberg"}},{"name":"Im Kretzenbach","postalCode":"77955","locality":"Ettenheim","municipality":{"key":"08317026","name":"Ettenheim, Stadt","type":"Stadt"},"district":{"key":"08317","name":"Ortenaukreis","type":"Landkreis"},"federalState":{"key":"08","name":"Baden-Württemberg"}},{"name":"Im Marbach","postalCode":"77955","locality":"Ettenheim","municipality":{"key":"08317026","name":"Ettenheim, Stadt","type":"Stadt"},"district":{"key":"08317","name":"Ortenaukreis","type":"Landkreis"},"federalState":{"key":"08","name":"Baden-Württemberg"}},{"name":"Im Münchgrund","postalCode":"77955","locality":"Ettenheim","municipality":{"key":"08317026","name":"Ettenheim, Stadt","type":"Stadt"},"district":{"key":"08317","name":"Ortenaukreis","type":"Landkreis"},"federalState":{"key":"08","name":"Baden-Württemberg"}},{"name":"Im Osterbach","postalCode":"77955","locality":"Ettenheim","municipality":{"key":"08317026","name":"Ettenheim, Stadt","type":"Stadt"},"district":{"key":"08317","name":"Ortenaukreis","type":"Landkreis"},"federalState":{"key":"08","name":"Baden-Württemberg"}},{"name":"Im Paradies","postalCode":"77955","locality":"Ettenheim","municipality":{"key":"08317026","name":"Ettenheim, Stadt","type":"Stadt"},"district":{"key":"08317","name":"Ortenaukreis","type":"Landkreis"},"federalState":{"key":"08","name":"Baden-Württemberg"}},{"name":"Im Pfaffenbach","postalCode":"77955","locality":"Ettenheim","municipality":{"key":"08317026","name":"Ettenheim, Stadt","type":"Stadt"},"district":{"key":"08317","name":"Ortenaukreis","type":"Landkreis"},"federalState":{"key":"08","name":"Baden-Württemberg"}},{"name":"Im Rebacker","postalCode":"77955","locality":"Ettenheim","municipality":{"key":"08317026","name":"Ettenheim, Stadt","type":"Stadt"},"district":{"key":"08317","name":"Ortenaukreis","type":"Landkreis"},"federalState":{"key":"08","name":"Baden-Württemberg"}},{"name":"Im Rosengarten","postalCode":"67596","locality":"Frettenheim","municipality":{"key":"07331028","name":"Frettenheim","type":"Kreisangehörige_Gemeinde"},"district":{"key":"07331","name":"Alzey-Worms","type":"Landkreis"},"federalState":{"key":"07","name":"Rheinland-Pfalz"}},{"name":"Im Saal","postalCode":"77955","locality":"Ettenheim","municipality":{"key":"08317026","name":"Ettenheim, Stadt","type":"Stadt"},"district":{"key":"08317","name":"Ortenaukreis","type":"Landkreis"},"federalState":{"key":"08","name":"Baden-Württemberg"}},{"name":"Im Sack","postalCode":"67582","locality":"Mettenheim","municipality":{"key":"07331045","name":"Mettenheim","type":"Kreisangehörige_Gemeinde"},"district":{"key":"07331","name":"Alzey-Worms","type":"Landkreis"},"federalState":{"key":"07","name":"Rheinland-Pfalz"}},{"name":"Im Weilerberg","postalCode":"77955","locality":"Ettenheim","municipality":{"key":"08317026","name":"Ettenheim, Stadt","type":"Stadt"},"district":{"key":"08317","name":"Ortenaukreis","type":"Landkreis"},"federalState":{"key":"08","name":"Baden-Württemberg"}},{"name":"Im Winkel","postalCode":"77955","locality":"Ettenheim","municipality":{"key":"08317026","name":"Ettenheim, Stadt","type":"Stadt"},"district":{"key":"08317","name":"Ortenaukreis","type":"Landkreis"},"federalState":{"key":"08","name":"Baden-Württemberg"}},{"name":"Im Zinken","postalCode":"77955","locality":"Ettenheim","municipality":{"key":"08317026","name":"Ettenheim, Stadt","type":"Stadt"},"district":{"key":"08317","name":"Ortenaukreis","type":"Landkreis"},"federalState":{"key":"08","name":"Baden-Württemberg"}},{"name":"In den Steinzeilen","postalCode":"67596","locality":"Frettenheim","municipality":{"key":"07331028","name":"Frettenheim","type":"Kreisangehörige_Gemeinde"},"district":{"key":"07331","name":"Alzey-Worms","type":"Landkreis"},"federalState":{"key":"07","name":"Rheinland-Pfalz"}},{"name":"In den Weingärten","postalCode":"67582","locality":"Mettenheim","municipality":{"key":"07331045","name":"Mettenheim","type":"Kreisangehörige_Gemeinde"},"district":{"key":"07331","name":"Alzey-Worms","type":"Landkreis"},"federalState":{"key":"07","name":"Rheinland-Pfalz"}},{"name":"In der Breite","postalCode":"77955","locality":"Ettenheim","municipality":{"key":"08317026","name":"Ettenheim, Stadt","type":"Stadt"},"district":{"key":"08317","name":"Ortenaukreis","type":"Landkreis"},"federalState":{"key":"08","name":"Baden-Württemberg"}},{"name":"In der Rohrmatt","postalCode":"77955","locality":"Ettenheim","municipality":{"key":"08317026","name":"Ettenheim, Stadt","type":"Stadt"},"district":{"key":"08317","name":"Ortenaukreis","type":"Landkreis"},"federalState":{"key":"08","name":"Baden-Württemberg"}},{"name":"In der Wintergaß","postalCode":"77955","locality":"Ettenheim","municipality":{"key":"08317026","name":"Ettenheim, Stadt","type":"Stadt"},"district":{"key":"08317","name":"Ortenaukreis","type":"Landkreis"},"federalState":{"key":"08","name":"Baden-Württemberg"}},{"name":"Industriestr.","postalCode":"77955","locality":"Ettenheim","municipality":{"key":"08317026","name":"Ettenheim, Stadt","type":"Stadt"},"district":{"key":"08317","name":"Ortenaukreis","type":"Landkreis"},"federalState":{"key":"08","name":"Baden-Württemberg"}},{"name":"Innstr.","postalCode":"84562","locality":"Mettenheim","municipality":{"key":"09183127","name":"Mettenheim","type":"Kreisangehörige_Gemeinde"},"district":{"key":"09183","name":"Mühldorf a.Inn","type":"Landkreis"},"federalState":{"key":"09","name":"Bayern"}},{"name":"Isarstr.","postalCode":"84562","locality":"Mettenheim","municipality":{"key":"09183127","name":"Mettenheim","type":"Kreisangehörige_Gemeinde"},"district":{"key":"09183","name":"Mühldorf a.Inn","type":"Landkreis"},"federalState":{"key":"09","name":"Bayern"}},{"name":"Isenstr.","postalCode":"84562","locality":"Mettenheim","municipality":{"key":"09183127","name":"Mettenheim","type":"Kreisangehörige_Gemeinde"},"district":{"key":"09183","name":"Mühldorf a.Inn","type":"Landkreis"},"federalState":{"key":"09","name":"Bayern"}},{"name":"Jahnstr.","postalCode":"67582","locality":"Mettenheim","municipality":{"key":"07331045","name":"Mettenheim","type":"Kreisangehörige_Gemeinde"},"district":{"key":"07331","name":"Alzey-Worms","type":"Landkreis"},"federalState":{"key":"07","name":"Rheinland-Pfalz"}},{"name":"Jahnstr.","postalCode":"76706","locality":"Dettenheim","municipality":{"key":"08215111","name":"Dettenheim","type":"Kreisangehörige_Gemeinde"},"district":{"key":"08215","name":"Karlsruhe","type":"Landkreis"},"federalState":{"key":"08","name":"Baden-Württemberg"}},{"name":"Jakob-Dürrse-Str.","postalCode":"77955","locality":"Ettenheim","municipality":{"key":"08317026","name":"Ettenheim, Stadt","type":"Stadt"},"district":{"key":"08317","name":"Ortenaukreis","type":"Landkreis"},"federalState":{"key":"08","name":"Baden-Württemberg"}},{"name":"J.-B.-Ferdinand-Str.","postalCode":"77955","locality":"Ettenheim","municipality":{"key":"08317026","name":"Ettenheim, Stadt","type":"Stadt"},"district":{"key":"08317","name":"Ortenaukreis","type":"Landkreis"},"federalState":{"key":"08","name":"Baden-Württemberg"}},{"name":"J.-B.-von-Weiß-Str.","postalCode":"77955","locality":"Ettenheim","municipality":{"key":"08317026","name":"Ettenheim, Stadt","type":"Stadt"},"district":{"key":"08317","name":"Ortenaukreis","type":"Landkreis"},"federalState":{"key":"08","name":"Baden-Württemberg"}},{"name":"Johann-Baptist-von-Weiß-Str.","postalCode":"77955","locality":"Ettenheim","municipality":{"key":"08317026","name":"Ettenheim, Stadt","type":"Stadt"},"district":{"key":"08317","name":"Ortenaukreis","type":"Landkreis"},"federalState":{"key":"08","name":"Baden-Württemberg"}},{"name":"Joseph-Greber-Str.","postalCode":"77955","locality":"Ettenheim","municipality":{"key":"08317026","name":"Ettenheim, Stadt","type":"Stadt"},"district":{"key":"08317","name":"Ortenaukreis","type":"Landkreis"},"federalState":{"key":"08","name":"Baden-Württemberg"}},{"name":"Kahlenberggasse","postalCode":"77955","locality":"Ettenheim","municipality":{"key":"08317026","name":"Ettenheim, Stadt","type":"Stadt"},"district":{"key":"08317","name":"Ortenaukreis","type":"Landkreis"},"federalState":{"key":"08","name":"Baden-Württemberg"}},{"name":"Kanalgasse","postalCode":"77955","locality":"Ettenheim","municipality":{"key":"08317026","name":"Ettenheim, Stadt","type":"Stadt"},"district":{"key":"08317","name":"Ortenaukreis","type":"Landkreis"},"federalState":{"key":"08","name":"Baden-Württemberg"}},{"name":"Kantstr.","postalCode":"76706","locality":"Dettenheim","municipality":{"key":"08215111","name":"Dettenheim","type":"Kreisangehörige_Gemeinde"},"district":{"key":"08215","name":"Karlsruhe","type":"Landkreis"},"federalState":{"key":"08","name":"Baden-Württemberg"}},{"name":"Kapfweg","postalCode":"77955","locality":"Ettenheim","municipality":{"key":"08317026","name":"Ettenheim, Stadt","type":"Stadt"},"district":{"key":"08317","name":"Ortenaukreis","type":"Landkreis"},"federalState":{"key":"08","name":"Baden-Württemberg"}},{"name":"Karl-Vogt-Str.","postalCode":"77955","locality":"Ettenheim","municipality":{"key":"08317026","name":"Ettenheim, Stadt","type":"Stadt"},"district":{"key":"08317","name":"Ortenaukreis","type":"Landkreis"},"federalState":{"key":"08","name":"Baden-Württemberg"}},{"name":"Katzengrabenweg","postalCode":"77955","locality":"Ettenheim","municipality":{"key":"08317026","name":"Ettenheim, Stadt","type":"Stadt"},"district":{"key":"08317","name":"Ortenaukreis","type":"Landkreis"},"federalState":{"key":"08","name":"Baden-Württemberg"}},{"name":"Kellerweg","postalCode":"67582","locality":"Mettenheim","municipality":{"key":"07331045","name":"Mettenheim","type":"Kreisangehörige_Gemeinde"},"district":{"key":"07331","name":"Alzey-Worms","type":"Landkreis"},"federalState":{"key":"07","name":"Rheinland-Pfalz"}},{"name":"Kiefernweg","postalCode":"84562","locality":"Mettenheim","municipality":{"key":"09183127","name":"Mettenheim","type":"Kreisangehörige_Gemeinde"},"district":{"key":"09183","name":"Mühldorf a.Inn","type":"Landkreis"},"federalState":{"key":"09","name":"Bayern"}},{"name":"Kirchberg","postalCode":"77955","locality":"Ettenheim","municipality":{"key":"08317026","name":"Ettenheim, Stadt","type":"Stadt"},"district":{"key":"08317","name":"Ortenaukreis","type":"Landkreis"},"federalState":{"key":"08","name":"Baden-Württemberg"}},{"name":"Kirchbergstr.","postalCode":"76706","locality":"Dettenheim","municipality":{"key":"08215111","name":"Dettenheim","type":"Kreisangehörige_Gemeinde"},"district":{"key":"08215","name":"Karlsruhe","type":"Landkreis"},"federalState":{"key":"08","name":"Baden-Württemberg"}},{"name":"Kirchenplatz","postalCode":"84562","locality":"Mettenheim","municipality":{"key":"09183127","name":"Mettenheim","type":"Kreisangehörige_Gemeinde"},"district":{"key":"09183","name":"Mühldorf a.Inn","type":"Landkreis"},"federalState":{"key":"09","name":"Bayern"}},{"name":"Kirchenstr.","postalCode":"76706","locality":"Dettenheim","municipality":{"key":"08215111","name":"Dettenheim","type":"Kreisangehörige_Gemeinde"},"district":{"key":"08215","name":"Karlsruhe","type":"Landkreis"},"federalState":{"key":"08","name":"Baden-Württemberg"}},{"name":"Kirchfeldstr.","postalCode":"76706","locality":"Dettenheim","municipality":{"key":"08215111","name":"Dettenheim","type":"Kreisangehörige_Gemeinde"},"district":{"key":"08215","name":"Karlsruhe","type":"Landkreis"},"federalState":{"key":"08","name":"Baden-Württemberg"}},{"name":"Kirchgasse","postalCode":"55234","locality":"Kettenheim","municipality":{"key":"07331042","name":"Kettenheim","type":"Kreisangehörige_Gemeinde"},"district":{"key":"07331","name":"Alzey-Worms","type":"Landkreis"},"federalState":{"key":"07","name":"Rheinland-Pfalz"}},{"name":"Kirchgasse","postalCode":"67582","locality":"Mettenheim","municipality":{"key":"07331045","name":"Mettenheim","type":"Kreisangehörige_Gemeinde"},"district":{"key":"07331","name":"Alzey-Worms","type":"Landkreis"},"federalState":{"key":"07","name":"Rheinland-Pfalz"}},{"name":"Kirchhalde","postalCode":"77955","locality":"Ettenheim","municipality":{"key":"08317026","name":"Ettenheim, Stadt","type":"Stadt"},"district":{"key":"08317","name":"Ortenaukreis","type":"Landkreis"},"federalState":{"key":"08","name":"Baden-Württemberg"}},{"name":"Kirchplatz","postalCode":"77955","locality":"Ettenheim","municipality":{"key":"08317026","name":"Ettenheim, Stadt","type":"Stadt"},"district":{"key":"08317","name":"Ortenaukreis","type":"Landkreis"},"federalState":{"key":"08","name":"Baden-Württemberg"}},{"name":"Kirchstr.","postalCode":"77955","locality":"Ettenheim","municipality":{"key":"08317026","name":"Ettenheim, Stadt","type":"Stadt"},"district":{"key":"08317","name":"Ortenaukreis","type":"Landkreis"},"federalState":{"key":"08","name":"Baden-Württemberg"}},{"name":"Kirchweg","postalCode":"84562","locality":"Mettenheim","municipality":{"key":"09183127","name":"Mettenheim","type":"Kreisangehörige_Gemeinde"},"district":{"key":"09183","name":"Mühldorf a.Inn","type":"Landkreis"},"federalState":{"key":"09","name":"Bayern"}},{"name":"Kleiner Weilerberg","postalCode":"77955","locality":"Ettenheim","municipality":{"key":"08317026","name":"Ettenheim, Stadt","type":"Stadt"},"district":{"key":"08317","name":"Ortenaukreis","type":"Landkreis"},"federalState":{"key":"08","name":"Baden-Württemberg"}},{"name":"Klein Münchberg","postalCode":"77955","locality":"Ettenheim","municipality":{"key":"08317026","name":"Ettenheim, Stadt","type":"Stadt"},"district":{"key":"08317","name":"Ortenaukreis","type":"Landkreis"},"federalState":{"key":"08","name":"Baden-Württemberg"}},{"name":"Kleiststr.","postalCode":"67582","locality":"Mettenheim","municipality":{"key":"07331045","name":"Mettenheim","type":"Kreisangehörige_Gemeinde"},"district":{"key":"07331","name":"Alzey-Worms","type":"Landkreis"},"federalState":{"key":"07","name":"Rheinland-Pfalz"}},{"name":"Klosterstr.","postalCode":"84562","locality":"Mettenheim","municipality":{"key":"09183127","name":"Mettenheim","type":"Kreisangehörige_Gemeinde"},"district":{"key":"09183","name":"Mühldorf a.Inn","type":"Landkreis"},"federalState":{"key":"09","name":"Bayern"}},{"name":"Kohlpläzle","postalCode":"77955","locality":"Ettenheim","municipality":{"key":"08317026","name":"Ettenheim, Stadt","type":"Stadt"},"district":{"key":"08317","name":"Ortenaukreis","type":"Landkreis"},"federalState":{"key":"08","name":"Baden-Württemberg"}},{"name":"Kolpingstr.","postalCode":"77955","locality":"Ettenheim","municipality":{"key":"08317026","name":"Ettenheim, Stadt","type":"Stadt"},"district":{"key":"08317","name":"Ortenaukreis","type":"Landkreis"},"federalState":{"key":"08","name":"Baden-Württemberg"}},{"name":"Königsberger Str.","postalCode":"67582","locality":"Mettenheim","municipality":{"key":"07331045","name":"Mettenheim","type":"Kreisangehörige_Gemeinde"},"district":{"key":"07331","name":"Alzey-Worms","type":"Landkreis"},"federalState":{"key":"07","name":"Rheinland-Pfalz"}},{"name":"Kraiburger Str.","postalCode":"84562","locality":"Mettenheim","municipality":{"key":"09183127","name":"Mettenheim","type":"Kreisangehörige_Gemeinde"},"district":{"key":"09183","name":"Mühldorf a.Inn","type":"Landkreis"},"federalState":{"key":"09","name":"Bayern"}},{"name":"Krämergässle","postalCode":"77955","locality":"Ettenheim","municipality":{"key":"08317026","name":"Ettenheim, Stadt","type":"Stadt"},"district":{"key":"08317","name":"Ortenaukreis","type":"Landkreis"},"federalState":{"key":"08","name":"Baden-Württemberg"}},{"name":"Kramerstr.","postalCode":"84562","locality":"Mettenheim","municipality":{"key":"09183127","name":"Mettenheim","type":"Kreisangehörige_Gemeinde"},"district":{"key":"09183","name":"Mühldorf a.Inn","type":"Landkreis"},"federalState":{"key":"09","name":"Bayern"}},{"name":"Krautstückerweg","postalCode":"76706","locality":"Dettenheim","municipality":{"key":"08215111","name":"Dettenheim","type":"Kreisangehörige_Gemeinde"},"district":{"key":"08215","name":"Karlsruhe","type":"Landkreis"},"federalState":{"key":"08","name":"Baden-Württemberg"}},{"name":"Kreuzackerstr.","postalCode":"77955","locality":"Ettenheim","municipality":{"key":"08317026","name":"Ettenheim, Stadt","type":"Stadt"},"district":{"key":"08317","name":"Ortenaukreis","type":"Landkreis"},"federalState":{"key":"08","name":"Baden-Württemberg"}},{"name":"Kreuzerweg","postalCode":"77955","locality":"Ettenheim","municipality":{"key":"08317026","name":"Ettenheim, Stadt","type":"Stadt"},"district":{"key":"08317","name":"Ortenaukreis","type":"Landkreis"},"federalState":{"key":"08","name":"Baden-Württemberg"}},{"name":"Kreuzhohl","postalCode":"67582","locality":"Mettenheim","municipality":{"key":"07331045","name":"Mettenheim","type":"Kreisangehörige_Gemeinde"},"district":{"key":"07331","name":"Alzey-Worms","type":"Landkreis"},"federalState":{"key":"07","name":"Rheinland-Pfalz"}},{"name":"Kreuzsteinweg","postalCode":"77955","locality":"Ettenheim","municipality":{"key":"08317026","name":"Ettenheim, Stadt","type":"Stadt"},"district":{"key":"08317","name":"Ortenaukreis","type":"Landkreis"},"federalState":{"key":"08","name":"Baden-Württemberg"}},{"name":"Krumme Stück","postalCode":"77955","locality":"Ettenheim","municipality":{"key":"08317026","name":"Ettenheim, Stadt","type":"Stadt"},"district":{"key":"08317","name":"Ortenaukreis","type":"Landkreis"},"federalState":{"key":"08","name":"Baden-Württemberg"}},{"name":"Kuhbachweg","postalCode":"77955","locality":"Ettenheim","municipality":{"key":"08317026","name":"Ettenheim, Stadt","type":"Stadt"},"district":{"key":"08317","name":"Ortenaukreis","type":"Landkreis"},"federalState":{"key":"08","name":"Baden-Württemberg"}},{"name":"Kurpfälzer Hof","postalCode":"67596","locality":"Frettenheim","municipality":{"key":"07331028","name":"Frettenheim","type":"Kreisangehörige_Gemeinde"},"district":{"key":"07331","name":"Alzey-Worms","type":"Landkreis"},"federalState":{"key":"07","name":"Rheinland-Pfalz"}},{"name":"Kurzgewann","postalCode":"76706","locality":"Dettenheim","municipality":{"key":"08215111","name":"Dettenheim","type":"Kreisangehörige_Gemeinde"},"district":{"key":"08215","name":"Karlsruhe","type":"Landkreis"},"federalState":{"key":"08","name":"Baden-Württemberg"}},{"name":"Lang Allee Weg","postalCode":"76706","locality":"Dettenheim","municipality":{"key":"08215111","name":"Dettenheim","type":"Kreisangehörige_Gemeinde"},"district":{"key":"08215","name":"Karlsruhe","type":"Landkreis"},"federalState":{"key":"08","name":"Baden-Württemberg"}},{"name":"Langgasse","postalCode":"77955","locality":"Ettenheim","municipality":{"key":"08317026","name":"Ettenheim, Stadt","type":"Stadt"},"district":{"key":"08317","name":"Ortenaukreis","type":"Landkreis"},"federalState":{"key":"08","name":"Baden-Württemberg"}},{"name":"Langgewann","postalCode":"76706","locality":"Dettenheim","municipality":{"key":"08215111","name":"Dettenheim","type":"Kreisangehörige_Gemeinde"},"district":{"key":"08215","name":"Karlsruhe","type":"Landkreis"},"federalState":{"key":"08","name":"Baden-Württemberg"}},{"name":"Lärchengartenweg","postalCode":"77955","locality":"Ettenheim","municipality":{"key":"08317026","name":"Ettenheim, Stadt","type":"Stadt"},"district":{"key":"08317","name":"Ortenaukreis","type":"Landkreis"},"federalState":{"key":"08","name":"Baden-Württemberg"}},{"name":"Lärchenring","postalCode":"84562","locality":"Mettenheim","municipality":{"key":"09183127","name":"Mettenheim","type":"Kreisangehörige_Gemeinde"},"district":{"key":"09183","name":"Mühldorf a.Inn","type":"Landkreis"},"federalState":{"key":"09","name":"Bayern"}},{"name":"Lautenbach","postalCode":"77955","locality":"Ettenheim","municipality":{"key":"08317026","name":"Ettenheim, Stadt","type":"Stadt"},"district":{"key":"08317","name":"Ortenaukreis","type":"Landkreis"},"federalState":{"key":"08","name":"Baden-Württemberg"}},{"name":"Lautenbachstr.","postalCode":"77955","locality":"Ettenheim","municipality":{"key":"08317026","name":"Ettenheim, Stadt","type":"Stadt"},"district":{"key":"08317","name":"Ortenaukreis","type":"Landkreis"},"federalState":{"key":"08","name":"Baden-Württemberg"}},{"name":"Lechstr.","postalCode":"84562","locality":"Mettenheim","municipality":{"key":"09183127","name":"Mettenheim","type":"Kreisangehörige_Gemeinde"},"district":{"key":"09183","name":"Mühldorf a.Inn","type":"Landkreis"},"federalState":{"key":"09","name":"Bayern"}},{"name":"Leibnizstr.","postalCode":"76706","locality":"Dettenheim","municipality":{"key":"08215111","name":"Dettenheim","type":"Kreisangehörige_Gemeinde"},"district":{"key":"08215","name":"Karlsruhe","type":"Landkreis"},"federalState":{"key":"08","name":"Baden-Württemberg"}},{"name":"Leiboldstr.","postalCode":"77955","locality":"Ettenheim","municipality":{"key":"08317026","name":"Ettenheim, Stadt","type":"Stadt"},"district":{"key":"08317","name":"Ortenaukreis","type":"Landkreis"},"federalState":{"key":"08","name":"Baden-Württemberg"}},{"name":"Leimengrubenweg","postalCode":"76706","locality":"Dettenheim","municipality":{"key":"08215111","name":"Dettenheim","type":"Kreisangehörige_Gemeinde"},"district":{"key":"08215","name":"Karlsruhe","type":"Landkreis"},"federalState":{"key":"08","name":"Baden-Württemberg"}},{"name":"Leistnerstr.","postalCode":"77955","locality":"Ettenheim","municipality":{"key":"08317026","name":"Ettenheim, Stadt","type":"Stadt"},"district":{"key":"08317","name":"Ortenaukreis","type":"Landkreis"},"federalState":{"key":"08","name":"Baden-Württemberg"}},{"name":"Lessingstr.","postalCode":"76706","locality":"Dettenheim","municipality":{"key":"08215111","name":"Dettenheim","type":"Kreisangehörige_Gemeinde"},"district":{"key":"08215","name":"Karlsruhe","type":"Landkreis"},"federalState":{"key":"08","name":"Baden-Württemberg"}},{"name":"Liedolsheimer Str.","postalCode":"76706","locality":"Dettenheim","municipality":{"key":"08215111","name":"Dettenheim","type":"Kreisangehörige_Gemeinde"},"district":{"key":"08215","name":"Karlsruhe","type":"Landkreis"},"federalState":{"key":"08","name":"Baden-Württemberg"}},{"name":"Lilienstr.","postalCode":"84562","locality":"Mettenheim","municipality":{"key":"09183127","name":"Mettenheim","type":"Kreisangehörige_Gemeinde"},"district":{"key":"09183","name":"Mühldorf a.Inn","type":"Landkreis"},"federalState":{"key":"09","name":"Bayern"}},{"name":"Lindenweg","postalCode":"76706","locality":"Dettenheim","municipality":{"key":"08215111","name":"Dettenheim","type":"Kreisangehörige_Gemeinde"},"district":{"key":"08215","name":"Karlsruhe","type":"Landkreis"},"federalState":{"key":"08","name":"Baden-Württemberg"}},{"name":"Löhle","postalCode":"77955","locality":"Ettenheim","municipality":{"key":"08317026","name":"Ettenheim, Stadt","type":"Stadt"},"district":{"key":"08317","name":"Ortenaukreis","type":"Landkreis"},"federalState":{"key":"08","name":"Baden-Württemberg"}},{"name":"Lohlweg","postalCode":"77955","locality":"Ettenheim","municipality":{"key":"08317026","name":"Ettenheim, Stadt","type":"Stadt"},"district":{"key":"08317","name":"Ortenaukreis","type":"Landkreis"},"federalState":{"key":"08","name":"Baden-Württemberg"}},{"name":"Lohweg","postalCode":"76706","locality":"Dettenheim","municipality":{"key":"08215111","name":"Dettenheim","type":"Kreisangehörige_Gemeinde"},"district":{"key":"08215","name":"Karlsruhe","type":"Landkreis"},"federalState":{"key":"08","name":"Baden-Württemberg"}},{"name":"Löwenstr.","postalCode":"77955","locality":"Ettenheim","municipality":{"key":"08317026","name":"Ettenheim, Stadt","type":"Stadt"},"district":{"key":"08317","name":"Ortenaukreis","type":"Landkreis"},"federalState":{"key":"08","name":"Baden-Württemberg"}},{"name":"Luciusgasse","postalCode":"67582","locality":"Mettenheim","municipality":{"key":"07331045","name":"Mettenheim","type":"Kreisangehörige_Gemeinde"},"district":{"key":"07331","name":"Alzey-Worms","type":"Landkreis"},"federalState":{"key":"07","name":"Rheinland-Pfalz"}},{"name":"Ludwig-der-Bayer-Str.","postalCode":"84562","locality":"Mettenheim","municipality":{"key":"09183127","name":"Mettenheim","type":"Kreisangehörige_Gemeinde"},"district":{"key":"09183","name":"Mühldorf a.Inn","type":"Landkreis"},"federalState":{"key":"09","name":"Bayern"}},{"name":"Ludwig-Uhland-Str.","postalCode":"67582","locality":"Mettenheim","municipality":{"key":"07331045","name":"Mettenheim","type":"Kreisangehörige_Gemeinde"},"district":{"key":"07331","name":"Alzey-Worms","type":"Landkreis"},"federalState":{"key":"07","name":"Rheinland-Pfalz"}},{"name":"Luisenstr.","postalCode":"76706","locality":"Dettenheim","municipality":{"key":"08215111","name":"Dettenheim","type":"Kreisangehörige_Gemeinde"},"district":{"key":"08215","name":"Karlsruhe","type":"Landkreis"},"federalState":{"key":"08","name":"Baden-Württemberg"}},{"name":"Luisenstr.","postalCode":"77955","locality":"Ettenheim","municipality":{"key":"08317026","name":"Ettenheim, Stadt","type":"Stadt"},"district":{"key":"08317","name":"Ortenaukreis","type":"Landkreis"},"federalState":{"key":"08","name":"Baden-Württemberg"}},{"name":"Magnolienweg","postalCode":"84562","locality":"Mettenheim","municipality":{"key":"09183127","name":"Mettenheim","type":"Kreisangehörige_Gemeinde"},"district":{"key":"09183","name":"Mühldorf a.Inn","type":"Landkreis"},"federalState":{"key":"09","name":"Bayern"}},{"name":"Mahlberger Str.","postalCode":"77955","locality":"Ettenheim","municipality":{"key":"08317026","name":"Ettenheim, Stadt","type":"Stadt"},"district":{"key":"08317","name":"Ortenaukreis","type":"Landkreis"},"federalState":{"key":"08","name":"Baden-Württemberg"}},{"name":"Malvenweg","postalCode":"84562","locality":"Mettenheim","municipality":{"key":"09183127","name":"Mettenheim","type":"Kreisangehörige_Gemeinde"},"district":{"key":"09183","name":"Mühldorf a.Inn","type":"Landkreis"},"federalState":{"key":"09","name":"Bayern"}},{"name":"Margarten","postalCode":"77955","locality":"Ettenheim","municipality":{"key":"08317026","name":"Ettenheim, Stadt","type":"Stadt"},"district":{"key":"08317","name":"Ortenaukreis","type":"Landkreis"},"federalState":{"key":"08","name":"Baden-Württemberg"}},{"name":"Margeritenstr.","postalCode":"84562","locality":"Mettenheim","municipality":{"key":"09183127","name":"Mettenheim","type":"Kreisangehörige_Gemeinde"},"district":{"key":"09183","name":"Mühldorf a.Inn","type":"Landkreis"},"federalState":{"key":"09","name":"Bayern"}},{"name":"Maria-Antonia-Str.","postalCode":"77955","locality":"Ettenheim","municipality":{"key":"08317026","name":"Ettenheim, Stadt","type":"Stadt"},"district":{"key":"08317","name":"Ortenaukreis","type":"Landkreis"},"federalState":{"key":"08","name":"Baden-Württemberg"}},{"name":"Meierbergweg","postalCode":"77955","locality":"Ettenheim","municipality":{"key":"08317026","name":"Ettenheim, Stadt","type":"Stadt"},"district":{"key":"08317","name":"Ortenaukreis","type":"Landkreis"},"federalState":{"key":"08","name":"Baden-Württemberg"}},{"name":"Meisenweg","postalCode":"76706","locality":"Dettenheim","municipality":{"key":"08215111","name":"Dettenheim","type":"Kreisangehörige_Gemeinde"},"district":{"key":"08215","name":"Karlsruhe","type":"Landkreis"},"federalState":{"key":"08","name":"Baden-Württemberg"}},{"name":"Michelsberger Hohl","postalCode":"67582","locality":"Mettenheim","municipality":{"key":"07331045","name":"Mettenheim","type":"Kreisangehörige_Gemeinde"},"district":{"key":"07331","name":"Alzey-Worms","type":"Landkreis"},"federalState":{"key":"07","name":"Rheinland-Pfalz"}},{"name":"Mittelberger Hohl","postalCode":"67582","locality":"Mettenheim","municipality":{"key":"07331045","name":"Mettenheim","type":"Kreisangehörige_Gemeinde"},"district":{"key":"07331","name":"Alzey-Worms","type":"Landkreis"},"federalState":{"key":"07","name":"Rheinland-Pfalz"}},{"name":"Mittelgasse","postalCode":"55234","locality":"Kettenheim","municipality":{"key":"07331042","name":"Kettenheim","type":"Kreisangehörige_Gemeinde"},"district":{"key":"07331","name":"Alzey-Worms","type":"Landkreis"},"federalState":{"key":"07","name":"Rheinland-Pfalz"}},{"name":"Mittelgasse","postalCode":"67582","locality":"Mettenheim","municipality":{"key":"07331045","name":"Mettenheim","type":"Kreisangehörige_Gemeinde"},"district":{"key":"07331","name":"Alzey-Worms","type":"Landkreis"},"federalState":{"key":"07","name":"Rheinland-Pfalz"}},{"name":"Mittelgewann","postalCode":"76706","locality":"Dettenheim","municipality":{"key":"08215111","name":"Dettenheim","type":"Kreisangehörige_Gemeinde"},"district":{"key":"08215","name":"Karlsruhe","type":"Landkreis"},"federalState":{"key":"08","name":"Baden-Württemberg"}},{"name":"Mittelgörleweg","postalCode":"77955","locality":"Ettenheim","municipality":{"key":"08317026","name":"Ettenheim, Stadt","type":"Stadt"},"district":{"key":"08317","name":"Ortenaukreis","type":"Landkreis"},"federalState":{"key":"08","name":"Baden-Württemberg"}},{"name":"Mittelweg","postalCode":"77955","locality":"Ettenheim","municipality":{"key":"08317026","name":"Ettenheim, Stadt","type":"Stadt"},"district":{"key":"08317","name":"Ortenaukreis","type":"Landkreis"},"federalState":{"key":"08","name":"Baden-Württemberg"}},{"name":"Mörikestr.","postalCode":"76706","locality":"Dettenheim","municipality":{"key":"08215111","name":"Dettenheim","type":"Kreisangehörige_Gemeinde"},"district":{"key":"08215","name":"Karlsruhe","type":"Landkreis"},"federalState":{"key":"08","name":"Baden-Württemberg"}},{"name":"Mößlinger Str.","postalCode":"84562","locality":"Mettenheim","municipality":{"key":"09183127","name":"Mettenheim","type":"Kreisangehörige_Gemeinde"},"district":{"key":"09183","name":"Mühldorf a.Inn","type":"Landkreis"},"federalState":{"key":"09","name":"Bayern"}},{"name":"Mozartstr.","postalCode":"76706","locality":"Dettenheim","municipality":{"key":"08215111","name":"Dettenheim","type":"Kreisangehörige_Gemeinde"},"district":{"key":"08215","name":"Karlsruhe","type":"Landkreis"},"federalState":{"key":"08","name":"Baden-Württemberg"}},{"name":"Mozartstr.","postalCode":"84562","locality":"Mettenheim","municipality":{"key":"09183127","name":"Mettenheim","type":"Kreisangehörige_Gemeinde"},"district":{"key":"09183","name":"Mühldorf a.Inn","type":"Landkreis"},"federalState":{"key":"09","name":"Bayern"}},{"name":"Mühlehalden","postalCode":"77955","locality":"Ettenheim","municipality":{"key":"08317026","name":"Ettenheim, Stadt","type":"Stadt"},"district":{"key":"08317","name":"Ortenaukreis","type":"Landkreis"},"federalState":{"key":"08","name":"Baden-Württemberg"}},{"name":"Mühlenweg","postalCode":"76706","locality":"Dettenheim","municipality":{"key":"08215111","name":"Dettenheim","type":"Kreisangehörige_Gemeinde"},"district":{"key":"08215","name":"Karlsruhe","type":"Landkreis"},"federalState":{"key":"08","name":"Baden-Württemberg"}},{"name":"Mühlenweg","postalCode":"77955","locality":"Ettenheim","municipality":{"key":"08317026","name":"Ettenheim, Stadt","type":"Stadt"},"district":{"key":"08317","name":"Ortenaukreis","type":"Landkreis"},"federalState":{"key":"08","name":"Baden-Württemberg"}},{"name":"Mühlpfad","postalCode":"76706","locality":"Dettenheim","municipality":{"key":"08215111","name":"Dettenheim","type":"Kreisangehörige_Gemeinde"},"district":{"key":"08215","name":"Karlsruhe","type":"Landkreis"},"federalState":{"key":"08","name":"Baden-Württemberg"}},{"name":"Münchener Str.","postalCode":"84562","locality":"Mettenheim","municipality":{"key":"09183127","name":"Mettenheim","type":"Kreisangehörige_Gemeinde"},"district":{"key":"09183","name":"Mühldorf a.Inn","type":"Landkreis"},"federalState":{"key":"09","name":"Bayern"}},{"name":"Münchweierer Str.","postalCode":"77955","locality":"Ettenheim","municipality":{"key":"08317026","name":"Ettenheim, Stadt","type":"Stadt"},"district":{"key":"08317","name":"Ortenaukreis","type":"Landkreis"},"federalState":{"key":"08","name":"Baden-Württemberg"}},{"name":"Münstertalstr.","postalCode":"77955","locality":"Ettenheim","municipality":{"key":"08317026","name":"Ettenheim, Stadt","type":"Stadt"},"district":{"key":"08317","name":"Ortenaukreis","type":"Landkreis"},"federalState":{"key":"08","name":"Baden-Württemberg"}},{"name":"Muschelgasse","postalCode":"77955","locality":"Ettenheim","municipality":{"key":"08317026","name":"Ettenheim, Stadt","type":"Stadt"},"district":{"key":"08317","name":"Ortenaukreis","type":"Landkreis"},"federalState":{"key":"08","name":"Baden-Württemberg"}},{"name":"Nachtigallenweg","postalCode":"76706","locality":"Dettenheim","municipality":{"key":"08215111","name":"Dettenheim","type":"Kreisangehörige_Gemeinde"},"district":{"key":"08215","name":"Karlsruhe","type":"Landkreis"},"federalState":{"key":"08","name":"Baden-Württemberg"}},{"name":"Narzissenstr.","postalCode":"84562","locality":"Mettenheim","municipality":{"key":"09183127","name":"Mettenheim","type":"Kreisangehörige_Gemeinde"},"district":{"key":"09183","name":"Mühldorf a.Inn","type":"Landkreis"},"federalState":{"key":"09","name":"Bayern"}},{"name":"Nelkenstr.","postalCode":"84562","locality":"Mettenheim","municipality":{"key":"09183127","name":"Mettenheim","type":"Kreisangehörige_Gemeinde"},"district":{"key":"09183","name":"Mühldorf a.Inn","type":"Landkreis"},"federalState":{"key":"09","name":"Bayern"}},{"name":"Nelkenweg","postalCode":"76706","locality":"Dettenheim","municipality":{"key":"08215111","name":"Dettenheim","type":"Kreisangehörige_Gemeinde"},"district":{"key":"08215","name":"Karlsruhe","type":"Landkreis"},"federalState":{"key":"08","name":"Baden-Württemberg"}},{"name":"Neubergstr.","postalCode":"77955","locality":"Ettenheim","municipality":{"key":"08317026","name":"Ettenheim, Stadt","type":"Stadt"},"district":{"key":"08317","name":"Ortenaukreis","type":"Landkreis"},"federalState":{"key":"08","name":"Baden-Württemberg"}},{"name":"Neuerweg","postalCode":"77955","locality":"Ettenheim","municipality":{"key":"08317026","name":"Ettenheim, Stadt","type":"Stadt"},"district":{"key":"08317","name":"Ortenaukreis","type":"Landkreis"},"federalState":{"key":"08","name":"Baden-Württemberg"}},{"name":"Neuer Weg","postalCode":"77955","locality":"Ettenheim","municipality":{"key":"08317026","name":"Ettenheim, Stadt","type":"Stadt"},"district":{"key":"08317","name":"Ortenaukreis","type":"Landkreis"},"federalState":{"key":"08","name":"Baden-Württemberg"}},{"name":"Neue Waldstr.","postalCode":"77955","locality":"Ettenheim","municipality":{"key":"08317026","name":"Ettenheim, Stadt","type":"Stadt"},"district":{"key":"08317","name":"Ortenaukreis","type":"Landkreis"},"federalState":{"key":"08","name":"Baden-Württemberg"}},{"name":"Neugasse","postalCode":"67582","locality":"Mettenheim","municipality":{"key":"07331045","name":"Mettenheim","type":"Kreisangehörige_Gemeinde"},"district":{"key":"07331","name":"Alzey-Worms","type":"Landkreis"},"federalState":{"key":"07","name":"Rheinland-Pfalz"}},{"name":"Neumannstr.","postalCode":"77955","locality":"Ettenheim","municipality":{"key":"08317026","name":"Ettenheim, Stadt","type":"Stadt"},"district":{"key":"08317","name":"Ortenaukreis","type":"Landkreis"},"federalState":{"key":"08","name":"Baden-Württemberg"}},{"name":"Neumorgen","postalCode":"76706","locality":"Dettenheim","municipality":{"key":"08215111","name":"Dettenheim","type":"Kreisangehörige_Gemeinde"},"district":{"key":"08215","name":"Karlsruhe","type":"Landkreis"},"federalState":{"key":"08","name":"Baden-Württemberg"}},{"name":"Neuweg","postalCode":"67596","locality":"Frettenheim","municipality":{"key":"07331028","name":"Frettenheim","type":"Kreisangehörige_Gemeinde"},"district":{"key":"07331","name":"Alzey-Worms","type":"Landkreis"},"federalState":{"key":"07","name":"Rheinland-Pfalz"}},{"name":"Nikola-Tesla-Str.","postalCode":"77955","locality":"Ettenheim","municipality":{"key":"08317026","name":"Ettenheim, Stadt","type":"Stadt"},"district":{"key":"08317","name":"Ortenaukreis","type":"Landkreis"},"federalState":{"key":"08","name":"Baden-Württemberg"}},{"name":"Nikola-Tesla-Str.","postalCode":"77972","locality":"Ettenheim","municipality":{"key":"08317026","name":"Ettenheim, Stadt","type":"Stadt"},"district":{"key":"08317","name":"Ortenaukreis","type":"Landkreis"},"federalState":{"key":"08","name":"Baden-Württemberg"}},{"name":"Oberdorfstr.","postalCode":"77955","locality":"Ettenheim","municipality":{"key":"08317026","name":"Ettenheim, Stadt","type":"Stadt"},"district":{"key":"08317","name":"Ortenaukreis","type":"Landkreis"},"federalState":{"key":"08","name":"Baden-Württemberg"}},{"name":"Obere Str.","postalCode":"77955","locality":"Ettenheim","municipality":{"key":"08317026","name":"Ettenheim, Stadt","type":"Stadt"},"district":{"key":"08317","name":"Ortenaukreis","type":"Landkreis"},"federalState":{"key":"08","name":"Baden-Württemberg"}},{"name":"Oberfeldstr.","postalCode":"76706","locality":"Dettenheim","municipality":{"key":"08215111","name":"Dettenheim","type":"Kreisangehörige_Gemeinde"},"district":{"key":"08215","name":"Karlsruhe","type":"Landkreis"},"federalState":{"key":"08","name":"Baden-Württemberg"}},{"name":"Obermattenweg","postalCode":"77955","locality":"Ettenheim","municipality":{"key":"08317026","name":"Ettenheim, Stadt","type":"Stadt"},"district":{"key":"08317","name":"Ortenaukreis","type":"Landkreis"},"federalState":{"key":"08","name":"Baden-Württemberg"}},{"name":"Orchideenring","postalCode":"76706","locality":"Dettenheim","municipality":{"key":"08215111","name":"Dettenheim","type":"Kreisangehörige_Gemeinde"},"district":{"key":"08215","name":"Karlsruhe","type":"Landkreis"},"federalState":{"key":"08","name":"Baden-Württemberg"}},{"name":"Orschweierer Str.","postalCode":"77955","locality":"Ettenheim","municipality":{"key":"08317026","name":"Ettenheim, Stadt","type":"Stadt"},"district":{"key":"08317","name":"Ortenaukreis","type":"Landkreis"},"federalState":{"key":"08","name":"Baden-Württemberg"}},{"name":"Ortsstr.","postalCode":"77955","locality":"Ettenheim","municipality":{"key":"08317026","name":"Ettenheim, Stadt","type":"Stadt"},"district":{"key":"08317","name":"Ortenaukreis","type":"Landkreis"},"federalState":{"key":"08","name":"Baden-Württemberg"}},{"name":"Ostbachweg","postalCode":"77955","locality":"Ettenheim","municipality":{"key":"08317026","name":"Ettenheim, Stadt","type":"Stadt"},"district":{"key":"08317","name":"Ortenaukreis","type":"Landkreis"},"federalState":{"key":"08","name":"Baden-Württemberg"}},{"name":"Osterbachweg","postalCode":"77955","locality":"Ettenheim","municipality":{"key":"08317026","name":"Ettenheim, Stadt","type":"Stadt"},"district":{"key":"08317","name":"Ortenaukreis","type":"Landkreis"},"federalState":{"key":"08","name":"Baden-Württemberg"}},{"name":"Otto-Stoelcker-Str.","postalCode":"77955","locality":"Ettenheim","municipality":{"key":"08317026","name":"Ettenheim, Stadt","type":"Stadt"},"district":{"key":"08317","name":"Ortenaukreis","type":"Landkreis"},"federalState":{"key":"08","name":"Baden-Württemberg"}},{"name":"Panoramaweg","postalCode":"77955","locality":"Ettenheim","municipality":{"key":"08317026","name":"Ettenheim, Stadt","type":"Stadt"},"district":{"key":"08317","name":"Ortenaukreis","type":"Landkreis"},"federalState":{"key":"08","name":"Baden-Württemberg"}},{"name":"Pappelallee","postalCode":"77955","locality":"Ettenheim","municipality":{"key":"08317026","name":"Ettenheim, Stadt","type":"Stadt"},"district":{"key":"08317","name":"Ortenaukreis","type":"Landkreis"},"federalState":{"key":"08","name":"Baden-Württemberg"}},{"name":"Pappelweg","postalCode":"76706","locality":"Dettenheim","municipality":{"key":"08215111","name":"Dettenheim","type":"Kreisangehörige_Gemeinde"},"district":{"key":"08215","name":"Karlsruhe","type":"Landkreis"},"federalState":{"key":"08","name":"Baden-Württemberg"}},{"name":"Pappelweg","postalCode":"77955","locality":"Ettenheim","municipality":{"key":"08317026","name":"Ettenheim, Stadt","type":"Stadt"},"district":{"key":"08317","name":"Ortenaukreis","type":"Landkreis"},"federalState":{"key":"08","name":"Baden-Württemberg"}},{"name":"Pfarrer-Tritschler-Str.","postalCode":"77955","locality":"Ettenheim","municipality":{"key":"08317026","name":"Ettenheim, Stadt","type":"Stadt"},"district":{"key":"08317","name":"Ortenaukreis","type":"Landkreis"},"federalState":{"key":"08","name":"Baden-Württemberg"}},{"name":"Pfarrer-Weber-Weg","postalCode":"77955","locality":"Ettenheim","municipality":{"key":"08317026","name":"Ettenheim, Stadt","type":"Stadt"},"district":{"key":"08317","name":"Ortenaukreis","type":"Landkreis"},"federalState":{"key":"08","name":"Baden-Württemberg"}},{"name":"Pfarrweg","postalCode":"67582","locality":"Mettenheim","municipality":{"key":"07331045","name":"Mettenheim","type":"Kreisangehörige_Gemeinde"},"district":{"key":"07331","name":"Alzey-Worms","type":"Landkreis"},"federalState":{"key":"07","name":"Rheinland-Pfalz"}},{"name":"Pfeifenstr.","postalCode":"76706","locality":"Dettenheim","municipality":{"key":"08215111","name":"Dettenheim","type":"Kreisangehörige_Gemeinde"},"district":{"key":"08215","name":"Karlsruhe","type":"Landkreis"},"federalState":{"key":"08","name":"Baden-Württemberg"}},{"name":"Pfinzstr.","postalCode":"76706","locality":"Dettenheim","municipality":{"key":"08215111","name":"Dettenheim","type":"Kreisangehörige_Gemeinde"},"district":{"key":"08215","name":"Karlsruhe","type":"Landkreis"},"federalState":{"key":"08","name":"Baden-Württemberg"}},{"name":"Prinzengarten","postalCode":"77955","locality":"Ettenheim","municipality":{"key":"08317026","name":"Ettenheim, Stadt","type":"Stadt"},"district":{"key":"08317","name":"Ortenaukreis","type":"Landkreis"},"federalState":{"key":"08","name":"Baden-Württemberg"}},{"name":"Putenmatt","postalCode":"77955","locality":"Ettenheim","municipality":{"key":"08317026","name":"Ettenheim, Stadt","type":"Stadt"},"district":{"key":"08317","name":"Ortenaukreis","type":"Landkreis"},"federalState":{"key":"08","name":"Baden-Württemberg"}},{"name":"Quellenweg","postalCode":"77955","locality":"Ettenheim","municipality":{"key":"08317026","name":"Ettenheim, Stadt","type":"Stadt"},"district":{"key":"08317","name":"Ortenaukreis","type":"Landkreis"},"federalState":{"key":"08","name":"Baden-Württemberg"}},{"name":"Radackern","postalCode":"77955","locality":"Ettenheim","municipality":{"key":"08317026","name":"Ettenheim, Stadt","type":"Stadt"},"district":{"key":"08317","name":"Ortenaukreis","type":"Landkreis"},"federalState":{"key":"08","name":"Baden-Württemberg"}},{"name":"Rathausstr.","postalCode":"76706","locality":"Dettenheim","municipality":{"key":"08215111","name":"Dettenheim","type":"Kreisangehörige_Gemeinde"},"district":{"key":"08215","name":"Karlsruhe","type":"Landkreis"},"federalState":{"key":"08","name":"Baden-Württemberg"}},{"name":"Reichenbergweg","postalCode":"77955","locality":"Ettenheim","municipality":{"key":"08317026","name":"Ettenheim, Stadt","type":"Stadt"},"district":{"key":"08317","name":"Ortenaukreis","type":"Landkreis"},"federalState":{"key":"08","name":"Baden-Württemberg"}},{"name":"Reifweg","postalCode":"77955","locality":"Ettenheim","municipality":{"key":"08317026","name":"Ettenheim, Stadt","type":"Stadt"},"district":{"key":"08317","name":"Ortenaukreis","type":"Landkreis"},"federalState":{"key":"08","name":"Baden-Württemberg"}},{"name":"Rheinstr.","postalCode":"76706","locality":"Dettenheim","municipality":{"key":"08215111","name":"Dettenheim","type":"Kreisangehörige_Gemeinde"},"district":{"key":"08215","name":"Karlsruhe","type":"Landkreis"},"federalState":{"key":"08","name":"Baden-Württemberg"}},{"name":"Rheinstr.","postalCode":"77955","locality":"Ettenheim","municipality":{"key":"08317026","name":"Ettenheim, Stadt","type":"Stadt"},"district":{"key":"08317","name":"Ortenaukreis","type":"Landkreis"},"federalState":{"key":"08","name":"Baden-Württemberg"}},{"name":"Rheintalblick","postalCode":"77955","locality":"Ettenheim","municipality":{"key":"08317026","name":"Ettenheim, Stadt","type":"Stadt"},"district":{"key":"08317","name":"Ortenaukreis","type":"Landkreis"},"federalState":{"key":"08","name":"Baden-Württemberg"}},{"name":"Richard-Wagner-Str.","postalCode":"76706","locality":"Dettenheim","municipality":{"key":"08215111","name":"Dettenheim","type":"Kreisangehörige_Gemeinde"},"district":{"key":"08215","name":"Karlsruhe","type":"Landkreis"},"federalState":{"key":"08","name":"Baden-Württemberg"}},{"name":"Richertsweg","postalCode":"77955","locality":"Ettenheim","municipality":{"key":"08317026","name":"Ettenheim, Stadt","type":"Stadt"},"district":{"key":"08317","name":"Ortenaukreis","type":"Landkreis"},"federalState":{"key":"08","name":"Baden-Württemberg"}},{"name":"Ringsheimer Str.","postalCode":"77955","locality":"Ettenheim","municipality":{"key":"08317026","name":"Ettenheim, Stadt","type":"Stadt"},"district":{"key":"08317","name":"Ortenaukreis","type":"Landkreis"},"federalState":{"key":"08","name":"Baden-Württemberg"}},{"name":"Ringstr.","postalCode":"77955","locality":"Ettenheim","municipality":{"key":"08317026","name":"Ettenheim, Stadt","type":"Stadt"},"district":{"key":"08317","name":"Ortenaukreis","type":"Landkreis"},"federalState":{"key":"08","name":"Baden-Württemberg"}},{"name":"Robert-Koch-Str.","postalCode":"77955","locality":"Ettenheim","municipality":{"key":"08317026","name":"Ettenheim, Stadt","type":"Stadt"},"district":{"key":"08317","name":"Ortenaukreis","type":"Landkreis"},"federalState":{"key":"08","name":"Baden-Württemberg"}},{"name":"Rohanhof","postalCode":"77955","locality":"Ettenheim","municipality":{"key":"08317026","name":"Ettenheim, Stadt","type":"Stadt"},"district":{"key":"08317","name":"Ortenaukreis","type":"Landkreis"},"federalState":{"key":"08","name":"Baden-Württemberg"}},{"name":"Rohanstr.","postalCode":"77955","locality":"Ettenheim","municipality":{"key":"08317026","name":"Ettenheim, Stadt","type":"Stadt"},"district":{"key":"08317","name":"Ortenaukreis","type":"Landkreis"},"federalState":{"key":"08","name":"Baden-Württemberg"}},{"name":"Röhrbrunnenstr.","postalCode":"67582","locality":"Mettenheim","municipality":{"key":"07331045","name":"Mettenheim","type":"Kreisangehörige_Gemeinde"},"district":{"key":"07331","name":"Alzey-Worms","type":"Landkreis"},"federalState":{"key":"07","name":"Rheinland-Pfalz"}},{"name":"Römerstr.","postalCode":"77955","locality":"Ettenheim","municipality":{"key":"08317026","name":"Ettenheim, Stadt","type":"Stadt"},"district":{"key":"08317","name":"Ortenaukreis","type":"Landkreis"},"federalState":{"key":"08","name":"Baden-Württemberg"}},{"name":"Römerstr.","postalCode":"84562","locality":"Mettenheim","municipality":{"key":"09183127","name":"Mettenheim","type":"Kreisangehörige_Gemeinde"},"district":{"key":"09183","name":"Mühldorf a.Inn","type":"Landkreis"},"federalState":{"key":"09","name":"Bayern"}},{"name":"Rosenstr.","postalCode":"84562","locality":"Mettenheim","municipality":{"key":"09183127","name":"Mettenheim","type":"Kreisangehörige_Gemeinde"},"district":{"key":"09183","name":"Mühldorf a.Inn","type":"Landkreis"},"federalState":{"key":"09","name":"Bayern"}},{"name":"Rosenweg","postalCode":"76706","locality":"Dettenheim","municipality":{"key":"08215111","name":"Dettenheim","type":"Kreisangehörige_Gemeinde"},"district":{"key":"08215","name":"Karlsruhe","type":"Landkreis"},"federalState":{"key":"08","name":"Baden-Württemberg"}},{"name":"Rosenweg","postalCode":"77955","locality":"Ettenheim","municipality":{"key":"08317026","name":"Ettenheim, Stadt","type":"Stadt"},"district":{"key":"08317","name":"Ortenaukreis","type":"Landkreis"},"federalState":{"key":"08","name":"Baden-Württemberg"}},{"name":"Rottstr.","postalCode":"84562","locality":"Mettenheim","municipality":{"key":"09183127","name":"Mettenheim","type":"Kreisangehörige_Gemeinde"},"district":{"key":"09183","name":"Mühldorf a.Inn","type":"Landkreis"},"federalState":{"key":"09","name":"Bayern"}},{"name":"Ruchenstr.","postalCode":"76706","locality":"Dettenheim","municipality":{"key":"08215111","name":"Dettenheim","type":"Kreisangehörige_Gemeinde"},"district":{"key":"08215","name":"Karlsruhe","type":"Landkreis"},"federalState":{"key":"08","name":"Baden-Württemberg"}},{"name":"Saatschulweg","postalCode":"77955","locality":"Ettenheim","municipality":{"key":"08317026","name":"Ettenheim, Stadt","type":"Stadt"},"district":{"key":"08317","name":"Ortenaukreis","type":"Landkreis"},"federalState":{"key":"08","name":"Baden-Württemberg"}},{"name":"Sägereute","postalCode":"77955","locality":"Ettenheim","municipality":{"key":"08317026","name":"Ettenheim, Stadt","type":"Stadt"},"district":{"key":"08317","name":"Ortenaukreis","type":"Landkreis"},"federalState":{"key":"08","name":"Baden-Württemberg"}},{"name":"Säggrabenweg","postalCode":"77955","locality":"Ettenheim","municipality":{"key":"08317026","name":"Ettenheim, Stadt","type":"Stadt"},"district":{"key":"08317","name":"Ortenaukreis","type":"Landkreis"},"federalState":{"key":"08","name":"Baden-Württemberg"}},{"name":"Salzachstr.","postalCode":"84562","locality":"Mettenheim","municipality":{"key":"09183127","name":"Mettenheim","type":"Kreisangehörige_Gemeinde"},"district":{"key":"09183","name":"Mühldorf a.Inn","type":"Landkreis"},"federalState":{"key":"09","name":"Bayern"}},{"name":"Saubrunnenweg","postalCode":"77955","locality":"Ettenheim","municipality":{"key":"08317026","name":"Ettenheim, Stadt","type":"Stadt"},"district":{"key":"08317","name":"Ortenaukreis","type":"Landkreis"},"federalState":{"key":"08","name":"Baden-Württemberg"}},{"name":"Sauhohl","postalCode":"67582","locality":"Mettenheim","municipality":{"key":"07331045","name":"Mettenheim","type":"Kreisangehörige_Gemeinde"},"district":{"key":"07331","name":"Alzey-Worms","type":"Landkreis"},"federalState":{"key":"07","name":"Rheinland-Pfalz"}},{"name":"Schardenweg","postalCode":"76706","locality":"Dettenheim","municipality":{"key":"08215111","name":"Dettenheim","type":"Kreisangehörige_Gemeinde"},"district":{"key":"08215","name":"Karlsruhe","type":"Landkreis"},"federalState":{"key":"08","name":"Baden-Württemberg"}},{"name":"Scheffelstr.","postalCode":"76706","locality":"Dettenheim","municipality":{"key":"08215111","name":"Dettenheim","type":"Kreisangehörige_Gemeinde"},"district":{"key":"08215","name":"Karlsruhe","type":"Landkreis"},"federalState":{"key":"08","name":"Baden-Württemberg"}},{"name":"Schillerstr.","postalCode":"67582","locality":"Mettenheim","municipality":{"key":"07331045","name":"Mettenheim","type":"Kreisangehörige_Gemeinde"},"district":{"key":"07331","name":"Alzey-Worms","type":"Landkreis"},"federalState":{"key":"07","name":"Rheinland-Pfalz"}},{"name":"Schillerstr.","postalCode":"67596","locality":"Frettenheim","municipality":{"key":"07331028","name":"Frettenheim","type":"Kreisangehörige_Gemeinde"},"district":{"key":"07331","name":"Alzey-Worms","type":"Landkreis"},"federalState":{"key":"07","name":"Rheinland-Pfalz"}},{"name":"Schillerstr.","postalCode":"76706","locality":"Dettenheim","municipality":{"key":"08215111","name":"Dettenheim","type":"Kreisangehörige_Gemeinde"},"district":{"key":"08215","name":"Karlsruhe","type":"Landkreis"},"federalState":{"key":"08","name":"Baden-Württemberg"}},{"name":"Schillerstr.","postalCode":"84562","locality":"Mettenheim","municipality":{"key":"09183127","name":"Mettenheim","type":"Kreisangehörige_Gemeinde"},"district":{"key":"09183","name":"Mühldorf a.Inn","type":"Landkreis"},"federalState":{"key":"09","name":"Bayern"}},{"name":"Schindlenbühlweg","postalCode":"77955","locality":"Ettenheim","municipality":{"key":"08317026","name":"Ettenheim, Stadt","type":"Stadt"},"district":{"key":"08317","name":"Ortenaukreis","type":"Landkreis"},"federalState":{"key":"08","name":"Baden-Württemberg"}},{"name":"Schlossbergring","postalCode":"67582","locality":"Mettenheim","municipality":{"key":"07331045","name":"Mettenheim","type":"Kreisangehörige_Gemeinde"},"district":{"key":"07331","name":"Alzey-Worms","type":"Landkreis"},"federalState":{"key":"07","name":"Rheinland-Pfalz"}},{"name":"Schlüsseläckerweg","postalCode":"76706","locality":"Dettenheim","municipality":{"key":"08215111","name":"Dettenheim","type":"Kreisangehörige_Gemeinde"},"district":{"key":"08215","name":"Karlsruhe","type":"Landkreis"},"federalState":{"key":"08","name":"Baden-Württemberg"}},{"name":"Schmieheimer Str.","postalCode":"77955","locality":"Ettenheim","municipality":{"key":"08317026","name":"Ettenheim, Stadt","type":"Stadt"},"district":{"key":"08317","name":"Ortenaukreis","type":"Landkreis"},"federalState":{"key":"08","name":"Baden-Württemberg"}},{"name":"Schneiderhof","postalCode":"77955","locality":"Ettenheim","municipality":{"key":"08317026","name":"Ettenheim, Stadt","type":"Stadt"},"district":{"key":"08317","name":"Ortenaukreis","type":"Landkreis"},"federalState":{"key":"08","name":"Baden-Württemberg"}},{"name":"Schrägweg","postalCode":"77955","locality":"Ettenheim","municipality":{"key":"08317026","name":"Ettenheim, Stadt","type":"Stadt"},"district":{"key":"08317","name":"Ortenaukreis","type":"Landkreis"},"federalState":{"key":"08","name":"Baden-Württemberg"}},{"name":"Schuhmachergasse","postalCode":"77955","locality":"Ettenheim","municipality":{"key":"08317026","name":"Ettenheim, Stadt","type":"Stadt"},"district":{"key":"08317","name":"Ortenaukreis","type":"Landkreis"},"federalState":{"key":"08","name":"Baden-Württemberg"}},{"name":"Schulstr.","postalCode":"67582","locality":"Mettenheim","municipality":{"key":"07331045","name":"Mettenheim","type":"Kreisangehörige_Gemeinde"},"district":{"key":"07331","name":"Alzey-Worms","type":"Landkreis"},"federalState":{"key":"07","name":"Rheinland-Pfalz"}},{"name":"Schulstr.","postalCode":"67596","locality":"Frettenheim","municipality":{"key":"07331028","name":"Frettenheim","type":"Kreisangehörige_Gemeinde"},"district":{"key":"07331","name":"Alzey-Worms","type":"Landkreis"},"federalState":{"key":"07","name":"Rheinland-Pfalz"}},{"name":"Schulstr.","postalCode":"76706","locality":"Dettenheim","municipality":{"key":"08215111","name":"Dettenheim","type":"Kreisangehörige_Gemeinde"},"district":{"key":"08215","name":"Karlsruhe","type":"Landkreis"},"federalState":{"key":"08","name":"Baden-Württemberg"}},{"name":"Schulstr.","postalCode":"77955","locality":"Ettenheim","municipality":{"key":"08317026","name":"Ettenheim, Stadt","type":"Stadt"},"district":{"key":"08317","name":"Ortenaukreis","type":"Landkreis"},"federalState":{"key":"08","name":"Baden-Württemberg"}},{"name":"Schulstr.","postalCode":"84562","locality":"Mettenheim","municipality":{"key":"09183127","name":"Mettenheim","type":"Kreisangehörige_Gemeinde"},"district":{"key":"09183","name":"Mühldorf a.Inn","type":"Landkreis"},"federalState":{"key":"09","name":"Bayern"}},{"name":"Schuttergasse","postalCode":"77955","locality":"Ettenheim","municipality":{"key":"08317026","name":"Ettenheim, Stadt","type":"Stadt"},"district":{"key":"08317","name":"Ortenaukreis","type":"Landkreis"},"federalState":{"key":"08","name":"Baden-Württemberg"}},{"name":"Schwarzgräble","postalCode":"77955","locality":"Ettenheim","municipality":{"key":"08317026","name":"Ettenheim, Stadt","type":"Stadt"},"district":{"key":"08317","name":"Ortenaukreis","type":"Landkreis"},"federalState":{"key":"08","name":"Baden-Württemberg"}},{"name":"Schwarzgräbleweg","postalCode":"77955","locality":"Ettenheim","municipality":{"key":"08317026","name":"Ettenheim, Stadt","type":"Stadt"},"district":{"key":"08317","name":"Ortenaukreis","type":"Landkreis"},"federalState":{"key":"08","name":"Baden-Württemberg"}},{"name":"Schwarzgraebleweg","postalCode":"77955","locality":"Ettenheim","municipality":{"key":"08317026","name":"Ettenheim, Stadt","type":"Stadt"},"district":{"key":"08317","name":"Ortenaukreis","type":"Landkreis"},"federalState":{"key":"08","name":"Baden-Württemberg"}},{"name":"Schwarzwaldstr.","postalCode":"77955","locality":"Ettenheim","municipality":{"key":"08317026","name":"Ettenheim, Stadt","type":"Stadt"},"district":{"key":"08317","name":"Ortenaukreis","type":"Landkreis"},"federalState":{"key":"08","name":"Baden-Württemberg"}},{"name":"Schweppermannstr.","postalCode":"84562","locality":"Mettenheim","municipality":{"key":"09183127","name":"Mettenheim","type":"Kreisangehörige_Gemeinde"},"district":{"key":"09183","name":"Mühldorf a.Inn","type":"Landkreis"},"federalState":{"key":"09","name":"Bayern"}},{"name":"Sennhofweg","postalCode":"77955","locality":"Ettenheim","municipality":{"key":"08317026","name":"Ettenheim, Stadt","type":"Stadt"},"district":{"key":"08317","name":"Ortenaukreis","type":"Landkreis"},"federalState":{"key":"08","name":"Baden-Württemberg"}},{"name":"Seraphin-Kirn-Str.","postalCode":"77955","locality":"Ettenheim","municipality":{"key":"08317026","name":"Ettenheim, Stadt","type":"Stadt"},"district":{"key":"08317","name":"Ortenaukreis","type":"Landkreis"},"federalState":{"key":"08","name":"Baden-Württemberg"}},{"name":"Sigillatastr.","postalCode":"77955","locality":"Ettenheim","municipality":{"key":"08317026","name":"Ettenheim, Stadt","type":"Stadt"},"district":{"key":"08317","name":"Ortenaukreis","type":"Landkreis"},"federalState":{"key":"08","name":"Baden-Württemberg"}},{"name":"Sohlweg","postalCode":"77955","locality":"Ettenheim","municipality":{"key":"08317026","name":"Ettenheim, Stadt","type":"Stadt"},"district":{"key":"08317","name":"Ortenaukreis","type":"Landkreis"},"federalState":{"key":"08","name":"Baden-Württemberg"}},{"name":"Sonnenberg","postalCode":"77955","locality":"Ettenheim","municipality":{"key":"08317026","name":"Ettenheim, Stadt","type":"Stadt"},"district":{"key":"08317","name":"Ortenaukreis","type":"Landkreis"},"federalState":{"key":"08","name":"Baden-Württemberg"}},{"name":"Sonnenstr.","postalCode":"84562","locality":"Mettenheim","municipality":{"key":"09183127","name":"Mettenheim","type":"Kreisangehörige_Gemeinde"},"district":{"key":"09183","name":"Mühldorf a.Inn","type":"Landkreis"},"federalState":{"key":"09","name":"Bayern"}},{"name":"Sonnenweg","postalCode":"77955","locality":"Ettenheim","municipality":{"key":"08317026","name":"Ettenheim, Stadt","type":"Stadt"},"district":{"key":"08317","name":"Ortenaukreis","type":"Landkreis"},"federalState":{"key":"08","name":"Baden-Württemberg"}},{"name":"Sonnhalde","postalCode":"77955","locality":"Ettenheim","municipality":{"key":"08317026","name":"Ettenheim, Stadt","type":"Stadt"},"district":{"key":"08317","name":"Ortenaukreis","type":"Landkreis"},"federalState":{"key":"08","name":"Baden-Württemberg"}},{"name":"Speckacker","postalCode":"77955","locality":"Ettenheim","municipality":{"key":"08317026","name":"Ettenheim, Stadt","type":"Stadt"},"district":{"key":"08317","name":"Ortenaukreis","type":"Landkreis"},"federalState":{"key":"08","name":"Baden-Württemberg"}},{"name":"Speckackerweg","postalCode":"77955","locality":"Ettenheim","municipality":{"key":"08317026","name":"Ettenheim, Stadt","type":"Stadt"},"district":{"key":"08317","name":"Ortenaukreis","type":"Landkreis"},"federalState":{"key":"08","name":"Baden-Württemberg"}},{"name":"Speicherwaldweg","postalCode":"77955","locality":"Ettenheim","municipality":{"key":"08317026","name":"Ettenheim, Stadt","type":"Stadt"},"district":{"key":"08317","name":"Ortenaukreis","type":"Landkreis"},"federalState":{"key":"08","name":"Baden-Württemberg"}},{"name":"Sperberweg","postalCode":"76706","locality":"Dettenheim","municipality":{"key":"08215111","name":"Dettenheim","type":"Kreisangehörige_Gemeinde"},"district":{"key":"08215","name":"Karlsruhe","type":"Landkreis"},"federalState":{"key":"08","name":"Baden-Württemberg"}},{"name":"Spitalhalden","postalCode":"77955","locality":"Ettenheim","municipality":{"key":"08317026","name":"Ettenheim, Stadt","type":"Stadt"},"district":{"key":"08317","name":"Ortenaukreis","type":"Landkreis"},"federalState":{"key":"08","name":"Baden-Württemberg"}},{"name":"Sportplatzstr.","postalCode":"77955","locality":"Ettenheim","municipality":{"key":"08317026","name":"Ettenheim, Stadt","type":"Stadt"},"district":{"key":"08317","name":"Ortenaukreis","type":"Landkreis"},"federalState":{"key":"08","name":"Baden-Württemberg"}},{"name":"Stabhaltergässle","postalCode":"77955","locality":"Ettenheim","municipality":{"key":"08317026","name":"Ettenheim, Stadt","type":"Stadt"},"district":{"key":"08317","name":"Ortenaukreis","type":"Landkreis"},"federalState":{"key":"08","name":"Baden-Württemberg"}},{"name":"Stehlinstr.","postalCode":"77955","locality":"Ettenheim","municipality":{"key":"08317026","name":"Ettenheim, Stadt","type":"Stadt"},"district":{"key":"08317","name":"Ortenaukreis","type":"Landkreis"},"federalState":{"key":"08","name":"Baden-Württemberg"}},{"name":"Steinbruchweg","postalCode":"77955","locality":"Ettenheim","municipality":{"key":"08317026","name":"Ettenheim, Stadt","type":"Stadt"},"district":{"key":"08317","name":"Ortenaukreis","type":"Landkreis"},"federalState":{"key":"08","name":"Baden-Württemberg"}},{"name":"Steinröhre","postalCode":"77955","locality":"Ettenheim","municipality":{"key":"08317026","name":"Ettenheim, Stadt","type":"Stadt"},"district":{"key":"08317","name":"Ortenaukreis","type":"Landkreis"},"federalState":{"key":"08","name":"Baden-Württemberg"}},{"name":"Steinsweg","postalCode":"67582","locality":"Mettenheim","municipality":{"key":"07331045","name":"Mettenheim","type":"Kreisangehörige_Gemeinde"},"district":{"key":"07331","name":"Alzey-Worms","type":"Landkreis"},"federalState":{"key":"07","name":"Rheinland-Pfalz"}},{"name":"Sternenweg","postalCode":"77955","locality":"Ettenheim","municipality":{"key":"08317026","name":"Ettenheim, Stadt","type":"Stadt"},"district":{"key":"08317","name":"Ortenaukreis","type":"Landkreis"},"federalState":{"key":"08","name":"Baden-Württemberg"}},{"name":"Talblick","postalCode":"77955","locality":"Ettenheim","municipality":{"key":"08317026","name":"Ettenheim, Stadt","type":"Stadt"},"district":{"key":"08317","name":"Ortenaukreis","type":"Landkreis"},"federalState":{"key":"08","name":"Baden-Württemberg"}},{"name":"Talstr.","postalCode":"77955","locality":"Ettenheim","municipality":{"key":"08317026","name":"Ettenheim, Stadt","type":"Stadt"},"district":{"key":"08317","name":"Ortenaukreis","type":"Landkreis"},"federalState":{"key":"08","name":"Baden-Württemberg"}},{"name":"Tannenweg","postalCode":"76706","locality":"Dettenheim","municipality":{"key":"08215111","name":"Dettenheim","type":"Kreisangehörige_Gemeinde"},"district":{"key":"08215","name":"Karlsruhe","type":"Landkreis"},"federalState":{"key":"08","name":"Baden-Württemberg"}},{"name":"Thomasbreite","postalCode":"77955","locality":"Ettenheim","municipality":{"key":"08317026","name":"Ettenheim, Stadt","type":"Stadt"},"district":{"key":"08317","name":"Ortenaukreis","type":"Landkreis"},"federalState":{"key":"08","name":"Baden-Württemberg"}},{"name":"Thomasstr.","postalCode":"77955","locality":"Ettenheim","municipality":{"key":"08317026","name":"Ettenheim, Stadt","type":"Stadt"},"district":{"key":"08317","name":"Ortenaukreis","type":"Landkreis"},"federalState":{"key":"08","name":"Baden-Württemberg"}},{"name":"Torfwiesenweg","postalCode":"76706","locality":"Dettenheim","municipality":{"key":"08215111","name":"Dettenheim","type":"Kreisangehörige_Gemeinde"},"district":{"key":"08215","name":"Karlsruhe","type":"Landkreis"},"federalState":{"key":"08","name":"Baden-Württemberg"}},{"name":"Tullastr.","postalCode":"76706","locality":"Dettenheim","municipality":{"key":"08215111","name":"Dettenheim","type":"Kreisangehörige_Gemeinde"},"district":{"key":"08215","name":"Karlsruhe","type":"Landkreis"},"federalState":{"key":"08","name":"Baden-Württemberg"}},{"name":"Tullastr.","postalCode":"77955","locality":"Ettenheim","municipality":{"key":"08317026","name":"Ettenheim, Stadt","type":"Stadt"},"district":{"key":"08317","name":"Ortenaukreis","type":"Landkreis"},"federalState":{"key":"08","name":"Baden-Württemberg"}},{"name":"Tulpenstr.","postalCode":"84562","locality":"Mettenheim","municipality":{"key":"09183127","name":"Mettenheim","type":"Kreisangehörige_Gemeinde"},"district":{"key":"09183","name":"Mühldorf a.Inn","type":"Landkreis"},"federalState":{"key":"09","name":"Bayern"}},{"name":"Tulpenweg","postalCode":"76706","locality":"Dettenheim","municipality":{"key":"08215111","name":"Dettenheim","type":"Kreisangehörige_Gemeinde"},"district":{"key":"08215","name":"Karlsruhe","type":"Landkreis"},"federalState":{"key":"08","name":"Baden-Württemberg"}},{"name":"Tulpenweg","postalCode":"77955","locality":"Ettenheim","municipality":{"key":"08317026","name":"Ettenheim, Stadt","type":"Stadt"},"district":{"key":"08317","name":"Ortenaukreis","type":"Landkreis"},"federalState":{"key":"08","name":"Baden-Württemberg"}},{"name":"Turmstr.","postalCode":"77955","locality":"Ettenheim","municipality":{"key":"08317026","name":"Ettenheim, Stadt","type":"Stadt"},"district":{"key":"08317","name":"Ortenaukreis","type":"Landkreis"},"federalState":{"key":"08","name":"Baden-Württemberg"}},{"name":"Tutschfelder Str.","postalCode":"77955","locality":"Ettenheim","municipality":{"key":"08317026","name":"Ettenheim, Stadt","type":"Stadt"},"district":{"key":"08317","name":"Ortenaukreis","type":"Landkreis"},"federalState":{"key":"08","name":"Baden-Württemberg"}},{"name":"Uhlandstr.","postalCode":"76706","locality":"Dettenheim","municipality":{"key":"08215111","name":"Dettenheim","type":"Kreisangehörige_Gemeinde"},"district":{"key":"08215","name":"Karlsruhe","type":"Landkreis"},"federalState":{"key":"08","name":"Baden-Württemberg"}},{"name":"Uhuweg","postalCode":"76706","locality":"Dettenheim","municipality":{"key":"08215111","name":"Dettenheim","type":"Kreisangehörige_Gemeinde"},"district":{"key":"08215","name":"Karlsruhe","type":"Landkreis"},"federalState":{"key":"08","name":"Baden-Württemberg"}},{"name":"Ulmenweg","postalCode":"84562","locality":"Mettenheim","municipality":{"key":"09183127","name":"Mettenheim","type":"Kreisangehörige_Gemeinde"},"district":{"key":"09183","name":"Mühldorf a.Inn","type":"Landkreis"},"federalState":{"key":"09","name":"Bayern"}},{"name":"Undizstr.","postalCode":"77955","locality":"Ettenheim","municipality":{"key":"08317026","name":"Ettenheim, Stadt","type":"Stadt"},"district":{"key":"08317","name":"Ortenaukreis","type":"Landkreis"},"federalState":{"key":"08","name":"Baden-Württemberg"}},{"name":"Veilchenweg","postalCode":"76706","locality":"Dettenheim","municipality":{"key":"08215111","name":"Dettenheim","type":"Kreisangehörige_Gemeinde"},"district":{"key":"08215","name":"Karlsruhe","type":"Landkreis"},"federalState":{"key":"08","name":"Baden-Württemberg"}},{"name":"Veilchenweg","postalCode":"84562","locality":"Mettenheim","municipality":{"key":"09183127","name":"Mettenheim","type":"Kreisangehörige_Gemeinde"},"district":{"key":"09183","name":"Mühldorf a.Inn","type":"Landkreis"},"federalState":{"key":"09","name":"Bayern"}},{"name":"Viehmarktplatz","postalCode":"77955","locality":"Ettenheim","municipality":{"key":"08317026","name":"Ettenheim, Stadt","type":"Stadt"},"district":{"key":"08317","name":"Ortenaukreis","type":"Landkreis"},"federalState":{"key":"08","name":"Baden-Württemberg"}},{"name":"Viktor-Kollefrath-Str.","postalCode":"77955","locality":"Ettenheim","municipality":{"key":"08317026","name":"Ettenheim, Stadt","type":"Stadt"},"district":{"key":"08317","name":"Ortenaukreis","type":"Landkreis"},"federalState":{"key":"08","name":"Baden-Württemberg"}},{"name":"Vilsstr.","postalCode":"84562","locality":"Mettenheim","municipality":{"key":"09183127","name":"Mettenheim","type":"Kreisangehörige_Gemeinde"},"district":{"key":"09183","name":"Mühldorf a.Inn","type":"Landkreis"},"federalState":{"key":"09","name":"Bayern"}},{"name":"Von-Keppenbach-Str.","postalCode":"77955","locality":"Ettenheim","municipality":{"key":"08317026","name":"Ettenheim, Stadt","type":"Stadt"},"district":{"key":"08317","name":"Ortenaukreis","type":"Landkreis"},"federalState":{"key":"08","name":"Baden-Württemberg"}},{"name":"Wagnerring","postalCode":"84562","locality":"Mettenheim","municipality":{"key":"09183127","name":"Mettenheim","type":"Kreisangehörige_Gemeinde"},"district":{"key":"09183","name":"Mühldorf a.Inn","type":"Landkreis"},"federalState":{"key":"09","name":"Bayern"}},{"name":"Waldstr.","postalCode":"76706","locality":"Dettenheim","municipality":{"key":"08215111","name":"Dettenheim","type":"Kreisangehörige_Gemeinde"},"district":{"key":"08215","name":"Karlsruhe","type":"Landkreis"},"federalState":{"key":"08","name":"Baden-Württemberg"}},{"name":"Waldstr.","postalCode":"77955","locality":"Ettenheim","municipality":{"key":"08317026","name":"Ettenheim, Stadt","type":"Stadt"},"district":{"key":"08317","name":"Ortenaukreis","type":"Landkreis"},"federalState":{"key":"08","name":"Baden-Württemberg"}},{"name":"Waldstr.","postalCode":"84562","locality":"Mettenheim","municipality":{"key":"09183127","name":"Mettenheim","type":"Kreisangehörige_Gemeinde"},"district":{"key":"09183","name":"Mühldorf a.Inn","type":"Landkreis"},"federalState":{"key":"09","name":"Bayern"}},{"name":"Weidasserstr.","postalCode":"55234","locality":"Kettenheim","municipality":{"key":"07331042","name":"Kettenheim","type":"Kreisangehörige_Gemeinde"},"district":{"key":"07331","name":"Alzey-Worms","type":"Landkreis"},"federalState":{"key":"07","name":"Rheinland-Pfalz"}},{"name":"Weidenweg","postalCode":"76706","locality":"Dettenheim","municipality":{"key":"08215111","name":"Dettenheim","type":"Kreisangehörige_Gemeinde"},"district":{"key":"08215","name":"Karlsruhe","type":"Landkreis"},"federalState":{"key":"08","name":"Baden-Württemberg"}},{"name":"Weidenweg","postalCode":"77955","locality":"Ettenheim","municipality":{"key":"08317026","name":"Ettenheim, Stadt","type":"Stadt"},"district":{"key":"08317","name":"Ortenaukreis","type":"Landkreis"},"federalState":{"key":"08","name":"Baden-Württemberg"}},{"name":"Weiher","postalCode":"77955","locality":"Ettenheim","municipality":{"key":"08317026","name":"Ettenheim, Stadt","type":"Stadt"},"district":{"key":"08317","name":"Ortenaukreis","type":"Landkreis"},"federalState":{"key":"08","name":"Baden-Württemberg"}},{"name":"Weinbergstr.","postalCode":"77955","locality":"Ettenheim","municipality":{"key":"08317026","name":"Ettenheim, Stadt","type":"Stadt"},"district":{"key":"08317","name":"Ortenaukreis","type":"Landkreis"},"federalState":{"key":"08","name":"Baden-Württemberg"}},{"name":"Weinstr.","postalCode":"77955","locality":"Ettenheim","municipality":{"key":"08317026","name":"Ettenheim, Stadt","type":"Stadt"},"district":{"key":"08317","name":"Ortenaukreis","type":"Landkreis"},"federalState":{"key":"08","name":"Baden-Württemberg"}},{"name":"Weißdornweg","postalCode":"77955","locality":"Ettenheim","municipality":{"key":"08317026","name":"Ettenheim, Stadt","type":"Stadt"},"district":{"key":"08317","name":"Ortenaukreis","type":"Landkreis"},"federalState":{"key":"08","name":"Baden-Württemberg"}},{"name":"Wiesenstr.","postalCode":"76706","locality":"Dettenheim","municipality":{"key":"08215111","name":"Dettenheim","type":"Kreisangehörige_Gemeinde"},"district":{"key":"08215","name":"Karlsruhe","type":"Landkreis"},"federalState":{"key":"08","name":"Baden-Württemberg"}},{"name":"Wiesenweg","postalCode":"67582","locality":"Mettenheim","municipality":{"key":"07331045","name":"Mettenheim","type":"Kreisangehörige_Gemeinde"},"district":{"key":"07331","name":"Alzey-Worms","type":"Landkreis"},"federalState":{"key":"07","name":"Rheinland-Pfalz"}},{"name":"Wiesenweg","postalCode":"77955","locality":"Ettenheim","municipality":{"key":"08317026","name":"Ettenheim, Stadt","type":"Stadt"},"district":{"key":"08317","name":"Ortenaukreis","type":"Landkreis"},"federalState":{"key":"08","name":"Baden-Württemberg"}},{"name":"Wilhelmstr.","postalCode":"76706","locality":"Dettenheim","municipality":{"key":"08215111","name":"Dettenheim","type":"Kreisangehörige_Gemeinde"},"district":{"key":"08215","name":"Karlsruhe","type":"Landkreis"},"federalState":{"key":"08","name":"Baden-Württemberg"}},{"name":"Windbühlhöhenweg","postalCode":"77955","locality":"Ettenheim","municipality":{"key":"08317026","name":"Ettenheim, Stadt","type":"Stadt"},"district":{"key":"08317","name":"Ortenaukreis","type":"Landkreis"},"federalState":{"key":"08","name":"Baden-Württemberg"}},{"name":"Windbühlweg","postalCode":"77955","locality":"Ettenheim","municipality":{"key":"08317026","name":"Ettenheim, Stadt","type":"Stadt"},"district":{"key":"08317","name":"Ortenaukreis","type":"Landkreis"},"federalState":{"key":"08","name":"Baden-Württemberg"}},{"name":"Windradweg","postalCode":"77955","locality":"Ettenheim","municipality":{"key":"08317026","name":"Ettenheim, Stadt","type":"Stadt"},"district":{"key":"08317","name":"Ortenaukreis","type":"Landkreis"},"federalState":{"key":"08","name":"Baden-Württemberg"}},{"name":"Winterer Str.","postalCode":"77955","locality":"Ettenheim","municipality":{"key":"08317026","name":"Ettenheim, Stadt","type":"Stadt"},"district":{"key":"08317","name":"Ortenaukreis","type":"Landkreis"},"federalState":{"key":"08","name":"Baden-Württemberg"}},{"name":"Wolfsgrubenweg","postalCode":"76706","locality":"Dettenheim","municipality":{"key":"08215111","name":"Dettenheim","type":"Kreisangehörige_Gemeinde"},"district":{"key":"08215","name":"Karlsruhe","type":"Landkreis"},"federalState":{"key":"08","name":"Baden-Württemberg"}},{"name":"Wolfwinkelchenweg","postalCode":"77955","locality":"Ettenheim","municipality":{"key":"08317026","name":"Ettenheim, Stadt","type":"Stadt"},"district":{"key":"08317","name":"Ortenaukreis","type":"Landkreis"},"federalState":{"key":"08","name":"Baden-Württemberg"}},{"name":"Wolfwinkelweg","postalCode":"77955","locality":"Ettenheim","municipality":{"key":"08317026","name":"Ettenheim, Stadt","type":"Stadt"},"district":{"key":"08317","name":"Ortenaukreis","type":"Landkreis"},"federalState":{"key":"08","name":"Baden-Württemberg"}},{"name":"Zangberger Str.","postalCode":"84562","locality":"Mettenheim","municipality":{"key":"09183127","name":"Mettenheim","type":"Kreisangehörige_Gemeinde"},"district":{"key":"09183","name":"Mühldorf a.Inn","type":"Landkreis"},"federalState":{"key":"09","name":"Bayern"}},{"name":"Zeulichweg","postalCode":"76706","locality":"Dettenheim","municipality":{"key":"08215111","name":"Dettenheim","type":"Kreisangehörige_Gemeinde"},"district":{"key":"08215","name":"Karlsruhe","type":"Landkreis"},"federalState":{"key":"08","name":"Baden-Württemberg"}},{"name":"Ziegelweg","postalCode":"77955","locality":"Ettenheim","municipality":{"key":"08317026","name":"Ettenheim, Stadt","type":"Stadt"},"district":{"key":"08317","name":"Ortenaukreis","type":"Landkreis"},"federalState":{"key":"08","name":"Baden-Württemberg"}},{"name":"Zolltenstr.","postalCode":"76706","locality":"Dettenheim","municipality":{"key":"08215111","name":"Dettenheim","type":"Kreisangehörige_Gemeinde"},"district":{"key":"08215","name":"Karlsruhe","type":"Landkreis"},"federalState":{"key":"08","name":"Baden-Württemberg"}},{"name":"Östliche Ringstr.","postalCode":"77955","locality":"Ettenheim","municipality":{"key":"08317026","name":"Ettenheim, Stadt","type":"Stadt"},"district":{"key":"08317","name":"Ortenaukreis","type":"Landkreis"},"federalState":{"key":"08","name":"Baden-Württemberg"}},]