[{"name":"Abstieg zur Rathsberger Wildniss","postalCode":"91080","locality":"Marloffstein","municipality":{"key":"09572141","name":"Marloffstein","type":"Kreisangehörige_Gemeinde"},"district":{"key":"09572","name":"Erlangen-Höchstadt","type":"Landkreis"},"federalState":{"key":"09","name":"Bayern"}},{"name":"Affalterthal","postalCode":"91349","locality":"Egloffstein","municipality":{"key":"09474124","name":"Egloffstein, M","type":"Markt"},"district":{"key":"09474","name":"Forchheim","type":"Landkreis"},"federalState":{"key":"09","name":"Bayern"}},{"name":"Albert-Schweitzer-Str.","postalCode":"67591","locality":"Offstein","municipality":{"key":"07331054","name":"Offstein","type":"Kreisangehörige_Gemeinde"},"district":{"key":"07331","name":"Alzey-Worms","type":"Landkreis"},"federalState":{"key":"07","name":"Rheinland-Pfalz"}},{"name":"Am Alten Brunnen","postalCode":"91080","locality":"Marloffstein","municipality":{"key":"09572141","name":"Marloffstein","type":"Kreisangehörige_Gemeinde"},"district":{"key":"09572","name":"Erlangen-Höchstadt","type":"Landkreis"},"federalState":{"key":"09","name":"Bayern"}},{"name":"Am Bahnhof","postalCode":"67591","locality":"Offstein","municipality":{"key":"07331054","name":"Offstein","type":"Kreisangehörige_Gemeinde"},"district":{"key":"07331","name":"Alzey-Worms","type":"Landkreis"},"federalState":{"key":"07","name":"Rheinland-Pfalz"}},{"name":"Am Friedhofsweg","postalCode":"67591","locality":"Offstein","municipality":{"key":"07331054","name":"Offstein","type":"Kreisangehörige_Gemeinde"},"district":{"key":"07331","name":"Alzey-Worms","type":"Landkreis"},"federalState":{"key":"07","name":"Rheinland-Pfalz"}},{"name":"Am Hasenlauf","postalCode":"67591","locality":"Offstein","municipality":{"key":"07331054","name":"Offstein","type":"Kreisangehörige_Gemeinde"},"district":{"key":"07331","name":"Alzey-Worms","type":"Landkreis"},"federalState":{"key":"07","name":"Rheinland-Pfalz"}},{"name":"Am Kirchberg","postalCode":"67591","locality":"Offstein","municipality":{"key":"07331054","name":"Offstein","type":"Kreisangehörige_Gemeinde"},"district":{"key":"07331","name":"Alzey-Worms","type":"Landkreis"},"federalState":{"key":"07","name":"Rheinland-Pfalz"}},{"name":"Am Kirschgarten","postalCode":"91349","locality":"Egloffstein","municipality":{"key":"09474124","name":"Egloffstein, M","type":"Markt"},"district":{"key":"09474","name":"Forchheim","type":"Landkreis"},"federalState":{"key":"09","name":"Bayern"}},{"name":"Am Rebstock","postalCode":"67591","locality":"Offstein","municipality":{"key":"07331054","name":"Offstein","type":"Kreisangehörige_Gemeinde"},"district":{"key":"07331","name":"Alzey-Worms","type":"Landkreis"},"federalState":{"key":"07","name":"Rheinland-Pfalz"}},{"name":"Am Reißberg","postalCode":"67591","locality":"Offstein","municipality":{"key":"07331054","name":"Offstein","type":"Kreisangehörige_Gemeinde"},"district":{"key":"07331","name":"Alzey-Worms","type":"Landkreis"},"federalState":{"key":"07","name":"Rheinland-Pfalz"}},{"name":"Am Römerpfad","postalCode":"67591","locality":"Offstein","municipality":{"key":"07331054","name":"Offstein","type":"Kreisangehörige_Gemeinde"},"district":{"key":"07331","name":"Alzey-Worms","type":"Landkreis"},"federalState":{"key":"07","name":"Rheinland-Pfalz"}},{"name":"Am Rundblick","postalCode":"91080","locality":"Marloffstein","municipality":{"key":"09572141","name":"Marloffstein","type":"Kreisangehörige_Gemeinde"},"district":{"key":"09572","name":"Erlangen-Höchstadt","type":"Landkreis"},"federalState":{"key":"09","name":"Bayern"}},{"name":"Am Schlehbühl","postalCode":"91349","locality":"Egloffstein","municipality":{"key":"09474124","name":"Egloffstein, M","type":"Markt"},"district":{"key":"09474","name":"Forchheim","type":"Landkreis"},"federalState":{"key":"09","name":"Bayern"}},{"name":"Am Ziegelacker","postalCode":"91080","locality":"Marloffstein","municipality":{"key":"09572141","name":"Marloffstein","type":"Kreisangehörige_Gemeinde"},"district":{"key":"09572","name":"Erlangen-Höchstadt","type":"Landkreis"},"federalState":{"key":"09","name":"Bayern"}},{"name":"Angerstr.","postalCode":"91349","locality":"Egloffstein","municipality":{"key":"09474124","name":"Egloffstein, M","type":"Markt"},"district":{"key":"09474","name":"Forchheim","type":"Landkreis"},"federalState":{"key":"09","name":"Bayern"}},{"name":"Arlesbrunnenstr.","postalCode":"91349","locality":"Egloffstein","municipality":{"key":"09474124","name":"Egloffstein, M","type":"Markt"},"district":{"key":"09474","name":"Forchheim","type":"Landkreis"},"federalState":{"key":"09","name":"Bayern"}},{"name":"Atzelsberg","postalCode":"91080","locality":"Marloffstein","municipality":{"key":"09572141","name":"Marloffstein","type":"Kreisangehörige_Gemeinde"},"district":{"key":"09572","name":"Erlangen-Höchstadt","type":"Landkreis"},"federalState":{"key":"09","name":"Bayern"}},{"name":"Atzelsberger Steige","postalCode":"91080","locality":"Marloffstein","municipality":{"key":"09572141","name":"Marloffstein","type":"Kreisangehörige_Gemeinde"},"district":{"key":"09572","name":"Erlangen-Höchstadt","type":"Landkreis"},"federalState":{"key":"09","name":"Bayern"}},{"name":"Atzelsberger Str.","postalCode":"91080","locality":"Marloffstein","municipality":{"key":"09572141","name":"Marloffstein","type":"Kreisangehörige_Gemeinde"},"district":{"key":"09572","name":"Erlangen-Höchstadt","type":"Landkreis"},"federalState":{"key":"09","name":"Bayern"}},{"name":"Bacchusweg","postalCode":"67591","locality":"Offstein","municipality":{"key":"07331054","name":"Offstein","type":"Kreisangehörige_Gemeinde"},"district":{"key":"07331","name":"Alzey-Worms","type":"Landkreis"},"federalState":{"key":"07","name":"Rheinland-Pfalz"}},{"name":"Badstr.","postalCode":"91349","locality":"Egloffstein","municipality":{"key":"09474124","name":"Egloffstein, M","type":"Markt"},"district":{"key":"09474","name":"Forchheim","type":"Landkreis"},"federalState":{"key":"09","name":"Bayern"}},{"name":"Bahnhofstr.","postalCode":"67591","locality":"Offstein","municipality":{"key":"07331054","name":"Offstein","type":"Kreisangehörige_Gemeinde"},"district":{"key":"07331","name":"Alzey-Worms","type":"Landkreis"},"federalState":{"key":"07","name":"Rheinland-Pfalz"}},{"name":"Bergstr.","postalCode":"67591","locality":"Offstein","municipality":{"key":"07331054","name":"Offstein","type":"Kreisangehörige_Gemeinde"},"district":{"key":"07331","name":"Alzey-Worms","type":"Landkreis"},"federalState":{"key":"07","name":"Rheinland-Pfalz"}},{"name":"Bergstr.","postalCode":"91080","locality":"Marloffstein","municipality":{"key":"09572141","name":"Marloffstein","type":"Kreisangehörige_Gemeinde"},"district":{"key":"09572","name":"Erlangen-Höchstadt","type":"Landkreis"},"federalState":{"key":"09","name":"Bayern"}},{"name":"Berliner Ring","postalCode":"67591","locality":"Offstein","municipality":{"key":"07331054","name":"Offstein","type":"Kreisangehörige_Gemeinde"},"district":{"key":"07331","name":"Alzey-Worms","type":"Landkreis"},"federalState":{"key":"07","name":"Rheinland-Pfalz"}},{"name":"Besengässchen","postalCode":"91349","locality":"Egloffstein","municipality":{"key":"09474124","name":"Egloffstein, M","type":"Markt"},"district":{"key":"09474","name":"Forchheim","type":"Landkreis"},"federalState":{"key":"09","name":"Bayern"}},{"name":"Bieberbach","postalCode":"91349","locality":"Egloffstein","municipality":{"key":"09474124","name":"Egloffstein, M","type":"Markt"},"district":{"key":"09474","name":"Forchheim","type":"Landkreis"},"federalState":{"key":"09","name":"Bayern"}},{"name":"Burgbergstr.","postalCode":"91349","locality":"Egloffstein","municipality":{"key":"09474124","name":"Egloffstein, M","type":"Markt"},"district":{"key":"09474","name":"Forchheim","type":"Landkreis"},"federalState":{"key":"09","name":"Bayern"}},{"name":"Burgsteig","postalCode":"91349","locality":"Egloffstein","municipality":{"key":"09474124","name":"Egloffstein, M","type":"Markt"},"district":{"key":"09474","name":"Forchheim","type":"Landkreis"},"federalState":{"key":"09","name":"Bayern"}},{"name":"Burgunderweg","postalCode":"67591","locality":"Offstein","municipality":{"key":"07331054","name":"Offstein","type":"Kreisangehörige_Gemeinde"},"district":{"key":"07331","name":"Alzey-Worms","type":"Landkreis"},"federalState":{"key":"07","name":"Rheinland-Pfalz"}},{"name":"Dr.-Neumeyer-Str.","postalCode":"91349","locality":"Egloffstein","municipality":{"key":"09474124","name":"Egloffstein, M","type":"Markt"},"district":{"key":"09474","name":"Forchheim","type":"Landkreis"},"federalState":{"key":"09","name":"Bayern"}},{"name":"Egilolfstr.","postalCode":"91349","locality":"Egloffstein","municipality":{"key":"09474124","name":"Egloffstein, M","type":"Markt"},"district":{"key":"09474","name":"Forchheim","type":"Landkreis"},"federalState":{"key":"09","name":"Bayern"}},{"name":"Eichenschlag","postalCode":"91080","locality":"Marloffstein","municipality":{"key":"09572141","name":"Marloffstein","type":"Kreisangehörige_Gemeinde"},"district":{"key":"09572","name":"Erlangen-Höchstadt","type":"Landkreis"},"federalState":{"key":"09","name":"Bayern"}},{"name":"Engelsbergstr.","postalCode":"67591","locality":"Offstein","municipality":{"key":"07331054","name":"Offstein","type":"Kreisangehörige_Gemeinde"},"district":{"key":"07331","name":"Alzey-Worms","type":"Landkreis"},"federalState":{"key":"07","name":"Rheinland-Pfalz"}},{"name":"Erlanger Str.","postalCode":"91080","locality":"Marloffstein","municipality":{"key":"09572141","name":"Marloffstein","type":"Kreisangehörige_Gemeinde"},"district":{"key":"09572","name":"Erlangen-Höchstadt","type":"Landkreis"},"federalState":{"key":"09","name":"Bayern"}},{"name":"Felsenkellerstr.","postalCode":"91349","locality":"Egloffstein","municipality":{"key":"09474124","name":"Egloffstein, M","type":"Markt"},"district":{"key":"09474","name":"Forchheim","type":"Landkreis"},"federalState":{"key":"09","name":"Bayern"}},{"name":"Felsenweg","postalCode":"91349","locality":"Egloffstein","municipality":{"key":"09474124","name":"Egloffstein, M","type":"Markt"},"district":{"key":"09474","name":"Forchheim","type":"Landkreis"},"federalState":{"key":"09","name":"Bayern"}},{"name":"Flurweg","postalCode":"91080","locality":"Marloffstein","municipality":{"key":"09572141","name":"Marloffstein","type":"Kreisangehörige_Gemeinde"},"district":{"key":"09572","name":"Erlangen-Höchstadt","type":"Landkreis"},"federalState":{"key":"09","name":"Bayern"}},{"name":"Friedhofweg","postalCode":"91080","locality":"Marloffstein","municipality":{"key":"09572141","name":"Marloffstein","type":"Kreisangehörige_Gemeinde"},"district":{"key":"09572","name":"Erlangen-Höchstadt","type":"Landkreis"},"federalState":{"key":"09","name":"Bayern"}},{"name":"Galgenraunweg","postalCode":"91080","locality":"Marloffstein","municipality":{"key":"09572141","name":"Marloffstein","type":"Kreisangehörige_Gemeinde"},"district":{"key":"09572","name":"Erlangen-Höchstadt","type":"Landkreis"},"federalState":{"key":"09","name":"Bayern"}},{"name":"Gäßchen","postalCode":"91349","locality":"Egloffstein","municipality":{"key":"09474124","name":"Egloffstein, M","type":"Markt"},"district":{"key":"09474","name":"Forchheim","type":"Landkreis"},"federalState":{"key":"09","name":"Bayern"}},{"name":"Gerbereistr.","postalCode":"67591","locality":"Offstein","municipality":{"key":"07331054","name":"Offstein","type":"Kreisangehörige_Gemeinde"},"district":{"key":"07331","name":"Alzey-Worms","type":"Landkreis"},"federalState":{"key":"07","name":"Rheinland-Pfalz"}},{"name":"Goethestr.","postalCode":"67591","locality":"Offstein","municipality":{"key":"07331054","name":"Offstein","type":"Kreisangehörige_Gemeinde"},"district":{"key":"07331","name":"Alzey-Worms","type":"Landkreis"},"federalState":{"key":"07","name":"Rheinland-Pfalz"}},{"name":"Grillhütte Offstein","postalCode":"67591","locality":"Offstein","municipality":{"key":"07331054","name":"Offstein","type":"Kreisangehörige_Gemeinde"},"district":{"key":"07331","name":"Alzey-Worms","type":"Landkreis"},"federalState":{"key":"07","name":"Rheinland-Pfalz"}},{"name":"Hackerbergweg","postalCode":"91080","locality":"Marloffstein","municipality":{"key":"09572141","name":"Marloffstein","type":"Kreisangehörige_Gemeinde"},"district":{"key":"09572","name":"Erlangen-Höchstadt","type":"Landkreis"},"federalState":{"key":"09","name":"Bayern"}},{"name":"Hasenwiese","postalCode":"91080","locality":"Marloffstein","municipality":{"key":"09572141","name":"Marloffstein","type":"Kreisangehörige_Gemeinde"},"district":{"key":"09572","name":"Erlangen-Höchstadt","type":"Landkreis"},"federalState":{"key":"09","name":"Bayern"}},{"name":"Hauptstr.","postalCode":"91080","locality":"Marloffstein","municipality":{"key":"09572141","name":"Marloffstein","type":"Kreisangehörige_Gemeinde"},"district":{"key":"09572","name":"Erlangen-Höchstadt","type":"Landkreis"},"federalState":{"key":"09","name":"Bayern"}},{"name":"Hauptstr.","postalCode":"91349","locality":"Egloffstein","municipality":{"key":"09474124","name":"Egloffstein, M","type":"Markt"},"district":{"key":"09474","name":"Forchheim","type":"Landkreis"},"federalState":{"key":"09","name":"Bayern"}},{"name":"Heidgäßchen","postalCode":"91349","locality":"Egloffstein","municipality":{"key":"09474124","name":"Egloffstein, M","type":"Markt"},"district":{"key":"09474","name":"Forchheim","type":"Landkreis"},"federalState":{"key":"09","name":"Bayern"}},{"name":"Heinrich-Ordenstein-Str.","postalCode":"67591","locality":"Offstein","municipality":{"key":"07331054","name":"Offstein","type":"Kreisangehörige_Gemeinde"},"district":{"key":"07331","name":"Alzey-Worms","type":"Landkreis"},"federalState":{"key":"07","name":"Rheinland-Pfalz"}},{"name":"Hochstr.","postalCode":"67591","locality":"Offstein","municipality":{"key":"07331054","name":"Offstein","type":"Kreisangehörige_Gemeinde"},"district":{"key":"07331","name":"Alzey-Worms","type":"Landkreis"},"federalState":{"key":"07","name":"Rheinland-Pfalz"}},{"name":"Hohensülzer Str.","postalCode":"67591","locality":"Offstein","municipality":{"key":"07331054","name":"Offstein","type":"Kreisangehörige_Gemeinde"},"district":{"key":"07331","name":"Alzey-Worms","type":"Landkreis"},"federalState":{"key":"07","name":"Rheinland-Pfalz"}},{"name":"Höhenweg","postalCode":"91080","locality":"Marloffstein","municipality":{"key":"09572141","name":"Marloffstein","type":"Kreisangehörige_Gemeinde"},"district":{"key":"09572","name":"Erlangen-Höchstadt","type":"Landkreis"},"federalState":{"key":"09","name":"Bayern"}},{"name":"Hundsboden","postalCode":"91349","locality":"Egloffstein","municipality":{"key":"09474124","name":"Egloffstein, M","type":"Markt"},"district":{"key":"09474","name":"Forchheim","type":"Landkreis"},"federalState":{"key":"09","name":"Bayern"}},{"name":"Im Kerner","postalCode":"67591","locality":"Offstein","municipality":{"key":"07331054","name":"Offstein","type":"Kreisangehörige_Gemeinde"},"district":{"key":"07331","name":"Alzey-Worms","type":"Landkreis"},"federalState":{"key":"07","name":"Rheinland-Pfalz"}},{"name":"Im Winkel","postalCode":"91080","locality":"Marloffstein","municipality":{"key":"09572141","name":"Marloffstein","type":"Kreisangehörige_Gemeinde"},"district":{"key":"09572","name":"Erlangen-Höchstadt","type":"Landkreis"},"federalState":{"key":"09","name":"Bayern"}},{"name":"Jahnstr.","postalCode":"67591","locality":"Offstein","municipality":{"key":"07331054","name":"Offstein","type":"Kreisangehörige_Gemeinde"},"district":{"key":"07331","name":"Alzey-Worms","type":"Landkreis"},"federalState":{"key":"07","name":"Rheinland-Pfalz"}},{"name":"Johann-Peter-Schneider-Str.","postalCode":"67591","locality":"Offstein","municipality":{"key":"07331054","name":"Offstein","type":"Kreisangehörige_Gemeinde"},"district":{"key":"07331","name":"Alzey-Worms","type":"Landkreis"},"federalState":{"key":"07","name":"Rheinland-Pfalz"}},{"name":"Kantstr.","postalCode":"67591","locality":"Offstein","municipality":{"key":"07331054","name":"Offstein","type":"Kreisangehörige_Gemeinde"},"district":{"key":"07331","name":"Alzey-Worms","type":"Landkreis"},"federalState":{"key":"07","name":"Rheinland-Pfalz"}},{"name":"Kapellenstr.","postalCode":"67591","locality":"Offstein","municipality":{"key":"07331054","name":"Offstein","type":"Kreisangehörige_Gemeinde"},"district":{"key":"07331","name":"Alzey-Worms","type":"Landkreis"},"federalState":{"key":"07","name":"Rheinland-Pfalz"}},{"name":"Kindergartenstr.","postalCode":"67591","locality":"Offstein","municipality":{"key":"07331054","name":"Offstein","type":"Kreisangehörige_Gemeinde"},"district":{"key":"07331","name":"Alzey-Worms","type":"Landkreis"},"federalState":{"key":"07","name":"Rheinland-Pfalz"}},{"name":"Kirchenweg","postalCode":"91349","locality":"Egloffstein","municipality":{"key":"09474124","name":"Egloffstein, M","type":"Markt"},"district":{"key":"09474","name":"Forchheim","type":"Landkreis"},"federalState":{"key":"09","name":"Bayern"}},{"name":"Kleingeseer Weg","postalCode":"91349","locality":"Egloffstein","municipality":{"key":"09474124","name":"Egloffstein, M","type":"Markt"},"district":{"key":"09474","name":"Forchheim","type":"Landkreis"},"federalState":{"key":"09","name":"Bayern"}},{"name":"Leithenstr.","postalCode":"91080","locality":"Marloffstein","municipality":{"key":"09572141","name":"Marloffstein","type":"Kreisangehörige_Gemeinde"},"district":{"key":"09572","name":"Erlangen-Höchstadt","type":"Landkreis"},"federalState":{"key":"09","name":"Bayern"}},{"name":"Lessingstr.","postalCode":"67591","locality":"Offstein","municipality":{"key":"07331054","name":"Offstein","type":"Kreisangehörige_Gemeinde"},"district":{"key":"07331","name":"Alzey-Worms","type":"Landkreis"},"federalState":{"key":"07","name":"Rheinland-Pfalz"}},{"name":"Lindesheimer Str.","postalCode":"67591","locality":"Offstein","municipality":{"key":"07331054","name":"Offstein","type":"Kreisangehörige_Gemeinde"},"district":{"key":"07331","name":"Alzey-Worms","type":"Landkreis"},"federalState":{"key":"07","name":"Rheinland-Pfalz"}},{"name":"Lug-ins-Land-Str.","postalCode":"91080","locality":"Marloffstein","municipality":{"key":"09572141","name":"Marloffstein","type":"Kreisangehörige_Gemeinde"},"district":{"key":"09572","name":"Erlangen-Höchstadt","type":"Landkreis"},"federalState":{"key":"09","name":"Bayern"}},{"name":"Markgrafenstr.","postalCode":"91349","locality":"Egloffstein","municipality":{"key":"09474124","name":"Egloffstein, M","type":"Markt"},"district":{"key":"09474","name":"Forchheim","type":"Landkreis"},"federalState":{"key":"09","name":"Bayern"}},{"name":"Marktplatz","postalCode":"91349","locality":"Egloffstein","municipality":{"key":"09474124","name":"Egloffstein, M","type":"Markt"},"district":{"key":"09474","name":"Forchheim","type":"Landkreis"},"federalState":{"key":"09","name":"Bayern"}},{"name":"Milchhausgässchen","postalCode":"91349","locality":"Egloffstein","municipality":{"key":"09474124","name":"Egloffstein, M","type":"Markt"},"district":{"key":"09474","name":"Forchheim","type":"Landkreis"},"federalState":{"key":"09","name":"Bayern"}},{"name":"Morschreuther Weg","postalCode":"91349","locality":"Egloffstein","municipality":{"key":"09474124","name":"Egloffstein, M","type":"Markt"},"district":{"key":"09474","name":"Forchheim","type":"Landkreis"},"federalState":{"key":"09","name":"Bayern"}},{"name":"Mozartstr.","postalCode":"67591","locality":"Offstein","municipality":{"key":"07331054","name":"Offstein","type":"Kreisangehörige_Gemeinde"},"district":{"key":"07331","name":"Alzey-Worms","type":"Landkreis"},"federalState":{"key":"07","name":"Rheinland-Pfalz"}},{"name":"Naturlehrpfad","postalCode":"91349","locality":"Egloffstein","municipality":{"key":"09474124","name":"Egloffstein, M","type":"Markt"},"district":{"key":"09474","name":"Forchheim","type":"Landkreis"},"federalState":{"key":"09","name":"Bayern"}},{"name":"Neuoffsteiner Str.","postalCode":"67591","locality":"Offstein","municipality":{"key":"07331054","name":"Offstein","type":"Kreisangehörige_Gemeinde"},"district":{"key":"07331","name":"Alzey-Worms","type":"Landkreis"},"federalState":{"key":"07","name":"Rheinland-Pfalz"}},{"name":"Nussbaumweg","postalCode":"91080","locality":"Marloffstein","municipality":{"key":"09572141","name":"Marloffstein","type":"Kreisangehörige_Gemeinde"},"district":{"key":"09572","name":"Erlangen-Höchstadt","type":"Landkreis"},"federalState":{"key":"09","name":"Bayern"}},{"name":"Paradiesweg","postalCode":"91349","locality":"Egloffstein","municipality":{"key":"09474124","name":"Egloffstein, M","type":"Markt"},"district":{"key":"09474","name":"Forchheim","type":"Landkreis"},"federalState":{"key":"09","name":"Bayern"}},{"name":"Pfälzer-Wald-Str.","postalCode":"67591","locality":"Offstein","municipality":{"key":"07331054","name":"Offstein","type":"Kreisangehörige_Gemeinde"},"district":{"key":"07331","name":"Alzey-Worms","type":"Landkreis"},"federalState":{"key":"07","name":"Rheinland-Pfalz"}},{"name":"Pfeddersheimer Str.","postalCode":"67591","locality":"Offstein","municipality":{"key":"07331054","name":"Offstein","type":"Kreisangehörige_Gemeinde"},"district":{"key":"07331","name":"Alzey-Worms","type":"Landkreis"},"federalState":{"key":"07","name":"Rheinland-Pfalz"}},{"name":"Querstr.","postalCode":"67591","locality":"Offstein","municipality":{"key":"07331054","name":"Offstein","type":"Kreisangehörige_Gemeinde"},"district":{"key":"07331","name":"Alzey-Worms","type":"Landkreis"},"federalState":{"key":"07","name":"Rheinland-Pfalz"}},{"name":"Rabensteinstr.","postalCode":"91349","locality":"Egloffstein","municipality":{"key":"09474124","name":"Egloffstein, M","type":"Markt"},"district":{"key":"09474","name":"Forchheim","type":"Landkreis"},"federalState":{"key":"09","name":"Bayern"}},{"name":"Rathsberger Steige","postalCode":"91080","locality":"Marloffstein","municipality":{"key":"09572141","name":"Marloffstein","type":"Kreisangehörige_Gemeinde"},"district":{"key":"09572","name":"Erlangen-Höchstadt","type":"Landkreis"},"federalState":{"key":"09","name":"Bayern"}},{"name":"Ringstr.","postalCode":"91080","locality":"Marloffstein","municipality":{"key":"09572141","name":"Marloffstein","type":"Kreisangehörige_Gemeinde"},"district":{"key":"09572","name":"Erlangen-Höchstadt","type":"Landkreis"},"federalState":{"key":"09","name":"Bayern"}},{"name":"Rosenbacher Str.","postalCode":"91080","locality":"Marloffstein","municipality":{"key":"09572141","name":"Marloffstein","type":"Kreisangehörige_Gemeinde"},"district":{"key":"09572","name":"Erlangen-Höchstadt","type":"Landkreis"},"federalState":{"key":"09","name":"Bayern"}},{"name":"Rothenhof","postalCode":"91349","locality":"Egloffstein","municipality":{"key":"09474124","name":"Egloffstein, M","type":"Markt"},"district":{"key":"09474","name":"Forchheim","type":"Landkreis"},"federalState":{"key":"09","name":"Bayern"}},{"name":"Rundweg Wildschleife","postalCode":"91349","locality":"Egloffstein","municipality":{"key":"09474124","name":"Egloffstein, M","type":"Markt"},"district":{"key":"09474","name":"Forchheim","type":"Landkreis"},"federalState":{"key":"09","name":"Bayern"}},{"name":"Rundweg zum Breitenstein","postalCode":"91349","locality":"Egloffstein","municipality":{"key":"09474124","name":"Egloffstein, M","type":"Markt"},"district":{"key":"09474","name":"Forchheim","type":"Landkreis"},"federalState":{"key":"09","name":"Bayern"}},{"name":"Scheibelleithe","postalCode":"91080","locality":"Marloffstein","municipality":{"key":"09572141","name":"Marloffstein","type":"Kreisangehörige_Gemeinde"},"district":{"key":"09572","name":"Erlangen-Höchstadt","type":"Landkreis"},"federalState":{"key":"09","name":"Bayern"}},{"name":"Schelmgasse","postalCode":"91349","locality":"Egloffstein","municipality":{"key":"09474124","name":"Egloffstein, M","type":"Markt"},"district":{"key":"09474","name":"Forchheim","type":"Landkreis"},"federalState":{"key":"09","name":"Bayern"}},{"name":"Schillerstr.","postalCode":"67591","locality":"Offstein","municipality":{"key":"07331054","name":"Offstein","type":"Kreisangehörige_Gemeinde"},"district":{"key":"07331","name":"Alzey-Worms","type":"Landkreis"},"federalState":{"key":"07","name":"Rheinland-Pfalz"}},{"name":"Schlehenmühler Weg","postalCode":"91349","locality":"Egloffstein","municipality":{"key":"09474124","name":"Egloffstein, M","type":"Markt"},"district":{"key":"09474","name":"Forchheim","type":"Landkreis"},"federalState":{"key":"09","name":"Bayern"}},{"name":"Schloßstr.","postalCode":"91080","locality":"Marloffstein","municipality":{"key":"09572141","name":"Marloffstein","type":"Kreisangehörige_Gemeinde"},"district":{"key":"09572","name":"Erlangen-Höchstadt","type":"Landkreis"},"federalState":{"key":"09","name":"Bayern"}},{"name":"Schloßweg","postalCode":"91080","locality":"Marloffstein","municipality":{"key":"09572141","name":"Marloffstein","type":"Kreisangehörige_Gemeinde"},"district":{"key":"09572","name":"Erlangen-Höchstadt","type":"Landkreis"},"federalState":{"key":"09","name":"Bayern"}},{"name":"Schmiedgasse","postalCode":"91349","locality":"Egloffstein","municipality":{"key":"09474124","name":"Egloffstein, M","type":"Markt"},"district":{"key":"09474","name":"Forchheim","type":"Landkreis"},"federalState":{"key":"09","name":"Bayern"}},{"name":"Schneckenhof","postalCode":"91080","locality":"Marloffstein","municipality":{"key":"09572141","name":"Marloffstein","type":"Kreisangehörige_Gemeinde"},"district":{"key":"09572","name":"Erlangen-Höchstadt","type":"Landkreis"},"federalState":{"key":"09","name":"Bayern"}},{"name":"Schulstr.","postalCode":"67591","locality":"Offstein","municipality":{"key":"07331054","name":"Offstein","type":"Kreisangehörige_Gemeinde"},"district":{"key":"07331","name":"Alzey-Worms","type":"Landkreis"},"federalState":{"key":"07","name":"Rheinland-Pfalz"}},{"name":"Schulstr.","postalCode":"91080","locality":"Marloffstein","municipality":{"key":"09572141","name":"Marloffstein","type":"Kreisangehörige_Gemeinde"},"district":{"key":"09572","name":"Erlangen-Höchstadt","type":"Landkreis"},"federalState":{"key":"09","name":"Bayern"}},{"name":"Schützenberg","postalCode":"91349","locality":"Egloffstein","municipality":{"key":"09474124","name":"Egloffstein, M","type":"Markt"},"district":{"key":"09474","name":"Forchheim","type":"Landkreis"},"federalState":{"key":"09","name":"Bayern"}},{"name":"Schweinthal","postalCode":"91349","locality":"Egloffstein","municipality":{"key":"09474124","name":"Egloffstein, M","type":"Markt"},"district":{"key":"09474","name":"Forchheim","type":"Landkreis"},"federalState":{"key":"09","name":"Bayern"}},{"name":"Silvanerring","postalCode":"67591","locality":"Offstein","municipality":{"key":"07331054","name":"Offstein","type":"Kreisangehörige_Gemeinde"},"district":{"key":"07331","name":"Alzey-Worms","type":"Landkreis"},"federalState":{"key":"07","name":"Rheinland-Pfalz"}},{"name":"Simmersgasse","postalCode":"91349","locality":"Egloffstein","municipality":{"key":"09474124","name":"Egloffstein, M","type":"Markt"},"district":{"key":"09474","name":"Forchheim","type":"Landkreis"},"federalState":{"key":"09","name":"Bayern"}},{"name":"Steinbruchweg","postalCode":"91349","locality":"Egloffstein","municipality":{"key":"09474124","name":"Egloffstein, M","type":"Markt"},"district":{"key":"09474","name":"Forchheim","type":"Landkreis"},"federalState":{"key":"09","name":"Bayern"}},{"name":"Steinstr.","postalCode":"67591","locality":"Offstein","municipality":{"key":"07331054","name":"Offstein","type":"Kreisangehörige_Gemeinde"},"district":{"key":"07331","name":"Alzey-Worms","type":"Landkreis"},"federalState":{"key":"07","name":"Rheinland-Pfalz"}},{"name":"Talstr.","postalCode":"91349","locality":"Egloffstein","municipality":{"key":"09474124","name":"Egloffstein, M","type":"Markt"},"district":{"key":"09474","name":"Forchheim","type":"Landkreis"},"federalState":{"key":"09","name":"Bayern"}},{"name":"Turnerstr.","postalCode":"67591","locality":"Offstein","municipality":{"key":"07331054","name":"Offstein","type":"Kreisangehörige_Gemeinde"},"district":{"key":"07331","name":"Alzey-Worms","type":"Landkreis"},"federalState":{"key":"07","name":"Rheinland-Pfalz"}},{"name":"Von-Pölnitz-Str.","postalCode":"91349","locality":"Egloffstein","municipality":{"key":"09474124","name":"Egloffstein, M","type":"Markt"},"district":{"key":"09474","name":"Forchheim","type":"Landkreis"},"federalState":{"key":"09","name":"Bayern"}},{"name":"Wassergasse","postalCode":"91080","locality":"Marloffstein","municipality":{"key":"09572141","name":"Marloffstein","type":"Kreisangehörige_Gemeinde"},"district":{"key":"09572","name":"Erlangen-Höchstadt","type":"Landkreis"},"federalState":{"key":"09","name":"Bayern"}},{"name":"Wasserturmstr.","postalCode":"91080","locality":"Marloffstein","municipality":{"key":"09572141","name":"Marloffstein","type":"Kreisangehörige_Gemeinde"},"district":{"key":"09572","name":"Erlangen-Höchstadt","type":"Landkreis"},"federalState":{"key":"09","name":"Bayern"}},{"name":"Weiherackerweg","postalCode":"91080","locality":"Marloffstein","municipality":{"key":"09572141","name":"Marloffstein","type":"Kreisangehörige_Gemeinde"},"district":{"key":"09572","name":"Erlangen-Höchstadt","type":"Landkreis"},"federalState":{"key":"09","name":"Bayern"}},{"name":"Wiesenstr.","postalCode":"91080","locality":"Marloffstein","municipality":{"key":"09572141","name":"Marloffstein","type":"Kreisangehörige_Gemeinde"},"district":{"key":"09572","name":"Erlangen-Höchstadt","type":"Landkreis"},"federalState":{"key":"09","name":"Bayern"}},{"name":"Wildpark Hundshaupten","postalCode":"91349","locality":"Egloffstein","municipality":{"key":"09474124","name":"Egloffstein, M","type":"Markt"},"district":{"key":"09474","name":"Forchheim","type":"Landkreis"},"federalState":{"key":"09","name":"Bayern"}},{"name":"Wormser Landstr.","postalCode":"67591","locality":"Offstein","municipality":{"key":"07331054","name":"Offstein","type":"Kreisangehörige_Gemeinde"},"district":{"key":"07331","name":"Alzey-Worms","type":"Landkreis"},"federalState":{"key":"07","name":"Rheinland-Pfalz"}},{"name":"Wormser Str.","postalCode":"67591","locality":"Offstein","municipality":{"key":"07331054","name":"Offstein","type":"Kreisangehörige_Gemeinde"},"district":{"key":"07331","name":"Alzey-Worms","type":"Landkreis"},"federalState":{"key":"07","name":"Rheinland-Pfalz"}},{"name":"Wunderburg","postalCode":"91080","locality":"Marloffstein","municipality":{"key":"09572141","name":"Marloffstein","type":"Kreisangehörige_Gemeinde"},"district":{"key":"09572","name":"Erlangen-Höchstadt","type":"Landkreis"},"federalState":{"key":"09","name":"Bayern"}},{"name":"Zum Aussichtsturm","postalCode":"91080","locality":"Marloffstein","municipality":{"key":"09572141","name":"Marloffstein","type":"Kreisangehörige_Gemeinde"},"district":{"key":"09572","name":"Erlangen-Höchstadt","type":"Landkreis"},"federalState":{"key":"09","name":"Bayern"}},{"name":"Zum Weinberg","postalCode":"67591","locality":"Offstein","municipality":{"key":"07331054","name":"Offstein","type":"Kreisangehörige_Gemeinde"},"district":{"key":"07331","name":"Alzey-Worms","type":"Landkreis"},"federalState":{"key":"07","name":"Rheinland-Pfalz"}},]