[{"name":"Abt-Uto-Str.","postalCode":"85304","locality":"Ilmmünster","municipality":{"key":"09186130","name":"Ilmmünster","type":"Kreisangehörige_Gemeinde"},"district":{"key":"09186","name":"Pfaffenhofen a.d.Ilm","type":"Landkreis"},"federalState":{"key":"09","name":"Bayern"}},{"name":"Am Milchwerk","postalCode":"85304","locality":"Ilmmünster","municipality":{"key":"09186130","name":"Ilmmünster","type":"Kreisangehörige_Gemeinde"},"district":{"key":"09186","name":"Pfaffenhofen a.d.Ilm","type":"Landkreis"},"federalState":{"key":"09","name":"Bayern"}},{"name":"Am Sportplatz","postalCode":"85304","locality":"Ilmmünster","municipality":{"key":"09186130","name":"Ilmmünster","type":"Kreisangehörige_Gemeinde"},"district":{"key":"09186","name":"Pfaffenhofen a.d.Ilm","type":"Landkreis"},"federalState":{"key":"09","name":"Bayern"}},{"name":"Angerstr.","postalCode":"85304","locality":"Ilmmünster","municipality":{"key":"09186130","name":"Ilmmünster","type":"Kreisangehörige_Gemeinde"},"district":{"key":"09186","name":"Pfaffenhofen a.d.Ilm","type":"Landkreis"},"federalState":{"key":"09","name":"Bayern"}},{"name":"Bergstr.","postalCode":"85304","locality":"Ilmmünster","municipality":{"key":"09186130","name":"Ilmmünster","type":"Kreisangehörige_Gemeinde"},"district":{"key":"09186","name":"Pfaffenhofen a.d.Ilm","type":"Landkreis"},"federalState":{"key":"09","name":"Bayern"}},{"name":"Birkenweg","postalCode":"85304","locality":"Ilmmünster","municipality":{"key":"09186130","name":"Ilmmünster","type":"Kreisangehörige_Gemeinde"},"district":{"key":"09186","name":"Pfaffenhofen a.d.Ilm","type":"Landkreis"},"federalState":{"key":"09","name":"Bayern"}},{"name":"Blumenstr.","postalCode":"85304","locality":"Ilmmünster","municipality":{"key":"09186130","name":"Ilmmünster","type":"Kreisangehörige_Gemeinde"},"district":{"key":"09186","name":"Pfaffenhofen a.d.Ilm","type":"Landkreis"},"federalState":{"key":"09","name":"Bayern"}},{"name":"Bräustr.","postalCode":"85304","locality":"Ilmmünster","municipality":{"key":"09186130","name":"Ilmmünster","type":"Kreisangehörige_Gemeinde"},"district":{"key":"09186","name":"Pfaffenhofen a.d.Ilm","type":"Landkreis"},"federalState":{"key":"09","name":"Bayern"}},{"name":"Buchenweg","postalCode":"85304","locality":"Ilmmünster","municipality":{"key":"09186130","name":"Ilmmünster","type":"Kreisangehörige_Gemeinde"},"district":{"key":"09186","name":"Pfaffenhofen a.d.Ilm","type":"Landkreis"},"federalState":{"key":"09","name":"Bayern"}},{"name":"Dekan-Faber-Ring","postalCode":"85304","locality":"Ilmmünster","municipality":{"key":"09186130","name":"Ilmmünster","type":"Kreisangehörige_Gemeinde"},"district":{"key":"09186","name":"Pfaffenhofen a.d.Ilm","type":"Landkreis"},"federalState":{"key":"09","name":"Bayern"}},{"name":"Dinkelweg","postalCode":"85304","locality":"Ilmmünster","municipality":{"key":"09186130","name":"Ilmmünster","type":"Kreisangehörige_Gemeinde"},"district":{"key":"09186","name":"Pfaffenhofen a.d.Ilm","type":"Landkreis"},"federalState":{"key":"09","name":"Bayern"}},{"name":"Dorfstr.","postalCode":"85304","locality":"Ilmmünster","municipality":{"key":"09186130","name":"Ilmmünster","type":"Kreisangehörige_Gemeinde"},"district":{"key":"09186","name":"Pfaffenhofen a.d.Ilm","type":"Landkreis"},"federalState":{"key":"09","name":"Bayern"}},{"name":"Dummeltshausener Str.","postalCode":"85304","locality":"Ilmmünster","municipality":{"key":"09186130","name":"Ilmmünster","type":"Kreisangehörige_Gemeinde"},"district":{"key":"09186","name":"Pfaffenhofen a.d.Ilm","type":"Landkreis"},"federalState":{"key":"09","name":"Bayern"}},{"name":"Eichenweg","postalCode":"85304","locality":"Ilmmünster","municipality":{"key":"09186130","name":"Ilmmünster","type":"Kreisangehörige_Gemeinde"},"district":{"key":"09186","name":"Pfaffenhofen a.d.Ilm","type":"Landkreis"},"federalState":{"key":"09","name":"Bayern"}},{"name":"Flachsweg","postalCode":"85304","locality":"Ilmmünster","municipality":{"key":"09186130","name":"Ilmmünster","type":"Kreisangehörige_Gemeinde"},"district":{"key":"09186","name":"Pfaffenhofen a.d.Ilm","type":"Landkreis"},"federalState":{"key":"09","name":"Bayern"}},{"name":"Freisinger Str.","postalCode":"85304","locality":"Ilmmünster","municipality":{"key":"09186130","name":"Ilmmünster","type":"Kreisangehörige_Gemeinde"},"district":{"key":"09186","name":"Pfaffenhofen a.d.Ilm","type":"Landkreis"},"federalState":{"key":"09","name":"Bayern"}},{"name":"Gartenweg","postalCode":"85304","locality":"Ilmmünster","municipality":{"key":"09186130","name":"Ilmmünster","type":"Kreisangehörige_Gemeinde"},"district":{"key":"09186","name":"Pfaffenhofen a.d.Ilm","type":"Landkreis"},"federalState":{"key":"09","name":"Bayern"}},{"name":"Gerstenstr.","postalCode":"85304","locality":"Ilmmünster","municipality":{"key":"09186130","name":"Ilmmünster","type":"Kreisangehörige_Gemeinde"},"district":{"key":"09186","name":"Pfaffenhofen a.d.Ilm","type":"Landkreis"},"federalState":{"key":"09","name":"Bayern"}},{"name":"Grabengasse","postalCode":"85304","locality":"Ilmmünster","municipality":{"key":"09186130","name":"Ilmmünster","type":"Kreisangehörige_Gemeinde"},"district":{"key":"09186","name":"Pfaffenhofen a.d.Ilm","type":"Landkreis"},"federalState":{"key":"09","name":"Bayern"}},{"name":"Haferweg","postalCode":"85304","locality":"Ilmmünster","municipality":{"key":"09186130","name":"Ilmmünster","type":"Kreisangehörige_Gemeinde"},"district":{"key":"09186","name":"Pfaffenhofen a.d.Ilm","type":"Landkreis"},"federalState":{"key":"09","name":"Bayern"}},{"name":"Hettenshausener Str.","postalCode":"85304","locality":"Ilmmünster","municipality":{"key":"09186130","name":"Ilmmünster","type":"Kreisangehörige_Gemeinde"},"district":{"key":"09186","name":"Pfaffenhofen a.d.Ilm","type":"Landkreis"},"federalState":{"key":"09","name":"Bayern"}},{"name":"Hochstr.","postalCode":"85304","locality":"Ilmmünster","municipality":{"key":"09186130","name":"Ilmmünster","type":"Kreisangehörige_Gemeinde"},"district":{"key":"09186","name":"Pfaffenhofen a.d.Ilm","type":"Landkreis"},"federalState":{"key":"09","name":"Bayern"}},{"name":"Ilmrieder Kirchweg","postalCode":"85304","locality":"Ilmmünster","municipality":{"key":"09186130","name":"Ilmmünster","type":"Kreisangehörige_Gemeinde"},"district":{"key":"09186","name":"Pfaffenhofen a.d.Ilm","type":"Landkreis"},"federalState":{"key":"09","name":"Bayern"}},{"name":"Ilmweg","postalCode":"85304","locality":"Ilmmünster","municipality":{"key":"09186130","name":"Ilmmünster","type":"Kreisangehörige_Gemeinde"},"district":{"key":"09186","name":"Pfaffenhofen a.d.Ilm","type":"Landkreis"},"federalState":{"key":"09","name":"Bayern"}},{"name":"Kappelmeierweg","postalCode":"85304","locality":"Ilmmünster","municipality":{"key":"09186130","name":"Ilmmünster","type":"Kreisangehörige_Gemeinde"},"district":{"key":"09186","name":"Pfaffenhofen a.d.Ilm","type":"Landkreis"},"federalState":{"key":"09","name":"Bayern"}},{"name":"Kirchberg","postalCode":"85304","locality":"Ilmmünster","municipality":{"key":"09186130","name":"Ilmmünster","type":"Kreisangehörige_Gemeinde"},"district":{"key":"09186","name":"Pfaffenhofen a.d.Ilm","type":"Landkreis"},"federalState":{"key":"09","name":"Bayern"}},{"name":"Klosterweg","postalCode":"85304","locality":"Ilmmünster","municipality":{"key":"09186130","name":"Ilmmünster","type":"Kreisangehörige_Gemeinde"},"district":{"key":"09186","name":"Pfaffenhofen a.d.Ilm","type":"Landkreis"},"federalState":{"key":"09","name":"Bayern"}},{"name":"Konradinstr.","postalCode":"85304","locality":"Ilmmünster","municipality":{"key":"09186130","name":"Ilmmünster","type":"Kreisangehörige_Gemeinde"},"district":{"key":"09186","name":"Pfaffenhofen a.d.Ilm","type":"Landkreis"},"federalState":{"key":"09","name":"Bayern"}},{"name":"Kornstr.","postalCode":"85304","locality":"Ilmmünster","municipality":{"key":"09186130","name":"Ilmmünster","type":"Kreisangehörige_Gemeinde"},"district":{"key":"09186","name":"Pfaffenhofen a.d.Ilm","type":"Landkreis"},"federalState":{"key":"09","name":"Bayern"}},{"name":"Maibaumweg","postalCode":"85304","locality":"Ilmmünster","municipality":{"key":"09186130","name":"Ilmmünster","type":"Kreisangehörige_Gemeinde"},"district":{"key":"09186","name":"Pfaffenhofen a.d.Ilm","type":"Landkreis"},"federalState":{"key":"09","name":"Bayern"}},{"name":"Maisweg","postalCode":"85304","locality":"Ilmmünster","municipality":{"key":"09186130","name":"Ilmmünster","type":"Kreisangehörige_Gemeinde"},"district":{"key":"09186","name":"Pfaffenhofen a.d.Ilm","type":"Landkreis"},"federalState":{"key":"09","name":"Bayern"}},{"name":"Mittelweg","postalCode":"85304","locality":"Ilmmünster","municipality":{"key":"09186130","name":"Ilmmünster","type":"Kreisangehörige_Gemeinde"},"district":{"key":"09186","name":"Pfaffenhofen a.d.Ilm","type":"Landkreis"},"federalState":{"key":"09","name":"Bayern"}},{"name":"Mitterndorferweg","postalCode":"85304","locality":"Ilmmünster","municipality":{"key":"09186130","name":"Ilmmünster","type":"Kreisangehörige_Gemeinde"},"district":{"key":"09186","name":"Pfaffenhofen a.d.Ilm","type":"Landkreis"},"federalState":{"key":"09","name":"Bayern"}},{"name":"Mühlberg","postalCode":"85304","locality":"Ilmmünster","municipality":{"key":"09186130","name":"Ilmmünster","type":"Kreisangehörige_Gemeinde"},"district":{"key":"09186","name":"Pfaffenhofen a.d.Ilm","type":"Landkreis"},"federalState":{"key":"09","name":"Bayern"}},{"name":"Nelkenweg","postalCode":"85304","locality":"Ilmmünster","municipality":{"key":"09186130","name":"Ilmmünster","type":"Kreisangehörige_Gemeinde"},"district":{"key":"09186","name":"Pfaffenhofen a.d.Ilm","type":"Landkreis"},"federalState":{"key":"09","name":"Bayern"}},{"name":"Obere Dorfstr.","postalCode":"85304","locality":"Ilmmünster","municipality":{"key":"09186130","name":"Ilmmünster","type":"Kreisangehörige_Gemeinde"},"district":{"key":"09186","name":"Pfaffenhofen a.d.Ilm","type":"Landkreis"},"federalState":{"key":"09","name":"Bayern"}},{"name":"Pappelweg","postalCode":"85304","locality":"Ilmmünster","municipality":{"key":"09186130","name":"Ilmmünster","type":"Kreisangehörige_Gemeinde"},"district":{"key":"09186","name":"Pfaffenhofen a.d.Ilm","type":"Landkreis"},"federalState":{"key":"09","name":"Bayern"}},{"name":"Primelweg","postalCode":"85304","locality":"Ilmmünster","municipality":{"key":"09186130","name":"Ilmmünster","type":"Kreisangehörige_Gemeinde"},"district":{"key":"09186","name":"Pfaffenhofen a.d.Ilm","type":"Landkreis"},"federalState":{"key":"09","name":"Bayern"}},{"name":"Probst-Rifid-Str.","postalCode":"85304","locality":"Ilmmünster","municipality":{"key":"09186130","name":"Ilmmünster","type":"Kreisangehörige_Gemeinde"},"district":{"key":"09186","name":"Pfaffenhofen a.d.Ilm","type":"Landkreis"},"federalState":{"key":"09","name":"Bayern"}},{"name":"Raiffeisenstr.","postalCode":"85304","locality":"Ilmmünster","municipality":{"key":"09186130","name":"Ilmmünster","type":"Kreisangehörige_Gemeinde"},"district":{"key":"09186","name":"Pfaffenhofen a.d.Ilm","type":"Landkreis"},"federalState":{"key":"09","name":"Bayern"}},{"name":"Rapsweg","postalCode":"85304","locality":"Ilmmünster","municipality":{"key":"09186130","name":"Ilmmünster","type":"Kreisangehörige_Gemeinde"},"district":{"key":"09186","name":"Pfaffenhofen a.d.Ilm","type":"Landkreis"},"federalState":{"key":"09","name":"Bayern"}},{"name":"Riedermühler Str.","postalCode":"85304","locality":"Ilmmünster","municipality":{"key":"09186130","name":"Ilmmünster","type":"Kreisangehörige_Gemeinde"},"district":{"key":"09186","name":"Pfaffenhofen a.d.Ilm","type":"Landkreis"},"federalState":{"key":"09","name":"Bayern"}},{"name":"Roggenweg","postalCode":"85304","locality":"Ilmmünster","municipality":{"key":"09186130","name":"Ilmmünster","type":"Kreisangehörige_Gemeinde"},"district":{"key":"09186","name":"Pfaffenhofen a.d.Ilm","type":"Landkreis"},"federalState":{"key":"09","name":"Bayern"}},{"name":"Rosenstr.","postalCode":"85304","locality":"Ilmmünster","municipality":{"key":"09186130","name":"Ilmmünster","type":"Kreisangehörige_Gemeinde"},"district":{"key":"09186","name":"Pfaffenhofen a.d.Ilm","type":"Landkreis"},"federalState":{"key":"09","name":"Bayern"}},{"name":"Schäfflerstr.","postalCode":"85304","locality":"Ilmmünster","municipality":{"key":"09186130","name":"Ilmmünster","type":"Kreisangehörige_Gemeinde"},"district":{"key":"09186","name":"Pfaffenhofen a.d.Ilm","type":"Landkreis"},"federalState":{"key":"09","name":"Bayern"}},{"name":"Scheyerer Str.","postalCode":"85304","locality":"Ilmmünster","municipality":{"key":"09186130","name":"Ilmmünster","type":"Kreisangehörige_Gemeinde"},"district":{"key":"09186","name":"Pfaffenhofen a.d.Ilm","type":"Landkreis"},"federalState":{"key":"09","name":"Bayern"}},{"name":"Sonnenhang","postalCode":"85304","locality":"Ilmmünster","municipality":{"key":"09186130","name":"Ilmmünster","type":"Kreisangehörige_Gemeinde"},"district":{"key":"09186","name":"Pfaffenhofen a.d.Ilm","type":"Landkreis"},"federalState":{"key":"09","name":"Bayern"}},{"name":"Sonnenstr.","postalCode":"85304","locality":"Ilmmünster","municipality":{"key":"09186130","name":"Ilmmünster","type":"Kreisangehörige_Gemeinde"},"district":{"key":"09186","name":"Pfaffenhofen a.d.Ilm","type":"Landkreis"},"federalState":{"key":"09","name":"Bayern"}},{"name":"St.-Arsatius-Str.","postalCode":"85304","locality":"Ilmmünster","municipality":{"key":"09186130","name":"Ilmmünster","type":"Kreisangehörige_Gemeinde"},"district":{"key":"09186","name":"Pfaffenhofen a.d.Ilm","type":"Landkreis"},"federalState":{"key":"09","name":"Bayern"}},{"name":"Starzenbachstr.","postalCode":"85304","locality":"Ilmmünster","municipality":{"key":"09186130","name":"Ilmmünster","type":"Kreisangehörige_Gemeinde"},"district":{"key":"09186","name":"Pfaffenhofen a.d.Ilm","type":"Landkreis"},"federalState":{"key":"09","name":"Bayern"}},{"name":"Talstr.","postalCode":"85304","locality":"Ilmmünster","municipality":{"key":"09186130","name":"Ilmmünster","type":"Kreisangehörige_Gemeinde"},"district":{"key":"09186","name":"Pfaffenhofen a.d.Ilm","type":"Landkreis"},"federalState":{"key":"09","name":"Bayern"}},{"name":"Tannenweg","postalCode":"85304","locality":"Ilmmünster","municipality":{"key":"09186130","name":"Ilmmünster","type":"Kreisangehörige_Gemeinde"},"district":{"key":"09186","name":"Pfaffenhofen a.d.Ilm","type":"Landkreis"},"federalState":{"key":"09","name":"Bayern"}},{"name":"Tulpenweg","postalCode":"85304","locality":"Ilmmünster","municipality":{"key":"09186130","name":"Ilmmünster","type":"Kreisangehörige_Gemeinde"},"district":{"key":"09186","name":"Pfaffenhofen a.d.Ilm","type":"Landkreis"},"federalState":{"key":"09","name":"Bayern"}},{"name":"Weiherstr.","postalCode":"85304","locality":"Ilmmünster","municipality":{"key":"09186130","name":"Ilmmünster","type":"Kreisangehörige_Gemeinde"},"district":{"key":"09186","name":"Pfaffenhofen a.d.Ilm","type":"Landkreis"},"federalState":{"key":"09","name":"Bayern"}},{"name":"Weizenstr.","postalCode":"85304","locality":"Ilmmünster","municipality":{"key":"09186130","name":"Ilmmünster","type":"Kreisangehörige_Gemeinde"},"district":{"key":"09186","name":"Pfaffenhofen a.d.Ilm","type":"Landkreis"},"federalState":{"key":"09","name":"Bayern"}},{"name":"Wimmmerweg","postalCode":"85304","locality":"Ilmmünster","municipality":{"key":"09186130","name":"Ilmmünster","type":"Kreisangehörige_Gemeinde"},"district":{"key":"09186","name":"Pfaffenhofen a.d.Ilm","type":"Landkreis"},"federalState":{"key":"09","name":"Bayern"}},]