[{"name":"Alte Mühle","postalCode":"19399","locality":"Dobbertin","municipality":{"key":"13076032","name":"Dobbertin","type":"Kreisangehörige_Gemeinde"},"district":{"key":"13076","name":"Ludwigslust-Parchim","type":"Landkreis"},"federalState":{"key":"13","name":"Mecklenburg-Vorpommern"}},{"name":"Am Campingplatz","postalCode":"19399","locality":"Dobbertin","municipality":{"key":"13076032","name":"Dobbertin","type":"Kreisangehörige_Gemeinde"},"district":{"key":"13076","name":"Ludwigslust-Parchim","type":"Landkreis"},"federalState":{"key":"13","name":"Mecklenburg-Vorpommern"}},{"name":"Am Kloster","postalCode":"19399","locality":"Dobbertin","municipality":{"key":"13076032","name":"Dobbertin","type":"Kreisangehörige_Gemeinde"},"district":{"key":"13076","name":"Ludwigslust-Parchim","type":"Landkreis"},"federalState":{"key":"13","name":"Mecklenburg-Vorpommern"}},{"name":"Am See","postalCode":"19399","locality":"Dobbertin","municipality":{"key":"13076032","name":"Dobbertin","type":"Kreisangehörige_Gemeinde"},"district":{"key":"13076","name":"Ludwigslust-Parchim","type":"Landkreis"},"federalState":{"key":"13","name":"Mecklenburg-Vorpommern"}},{"name":"Am Walde","postalCode":"19399","locality":"Dobbertin","municipality":{"key":"13076032","name":"Dobbertin","type":"Kreisangehörige_Gemeinde"},"district":{"key":"13076","name":"Ludwigslust-Parchim","type":"Landkreis"},"federalState":{"key":"13","name":"Mecklenburg-Vorpommern"}},{"name":"Am Wiesengrund","postalCode":"19399","locality":"Dobbertin","municipality":{"key":"13076032","name":"Dobbertin","type":"Kreisangehörige_Gemeinde"},"district":{"key":"13076","name":"Ludwigslust-Parchim","type":"Landkreis"},"federalState":{"key":"13","name":"Mecklenburg-Vorpommern"}},{"name":"Am Zeltplatz","postalCode":"19399","locality":"Dobbertin","municipality":{"key":"13076032","name":"Dobbertin","type":"Kreisangehörige_Gemeinde"},"district":{"key":"13076","name":"Ludwigslust-Parchim","type":"Landkreis"},"federalState":{"key":"13","name":"Mecklenburg-Vorpommern"}},{"name":"An der Mühle","postalCode":"19399","locality":"Dobbertin","municipality":{"key":"13076032","name":"Dobbertin","type":"Kreisangehörige_Gemeinde"},"district":{"key":"13076","name":"Ludwigslust-Parchim","type":"Landkreis"},"federalState":{"key":"13","name":"Mecklenburg-Vorpommern"}},{"name":"Birkenweg","postalCode":"19399","locality":"Dobbertin","municipality":{"key":"13076032","name":"Dobbertin","type":"Kreisangehörige_Gemeinde"},"district":{"key":"13076","name":"Ludwigslust-Parchim","type":"Landkreis"},"federalState":{"key":"13","name":"Mecklenburg-Vorpommern"}},{"name":"Bungalowsiedlung Jager Tannen","postalCode":"19399","locality":"Dobbertin","municipality":{"key":"13076032","name":"Dobbertin","type":"Kreisangehörige_Gemeinde"},"district":{"key":"13076","name":"Ludwigslust-Parchim","type":"Landkreis"},"federalState":{"key":"13","name":"Mecklenburg-Vorpommern"}},{"name":"Goldberger Str.","postalCode":"19399","locality":"Dobbertin","municipality":{"key":"13076032","name":"Dobbertin","type":"Kreisangehörige_Gemeinde"},"district":{"key":"13076","name":"Ludwigslust-Parchim","type":"Landkreis"},"federalState":{"key":"13","name":"Mecklenburg-Vorpommern"}},{"name":"Grüne Jägerschneise","postalCode":"19399","locality":"Dobbertin","municipality":{"key":"13076032","name":"Dobbertin","type":"Kreisangehörige_Gemeinde"},"district":{"key":"13076","name":"Ludwigslust-Parchim","type":"Landkreis"},"federalState":{"key":"13","name":"Mecklenburg-Vorpommern"}},{"name":"Güstrower Str.","postalCode":"19399","locality":"Dobbertin","municipality":{"key":"13076032","name":"Dobbertin","type":"Kreisangehörige_Gemeinde"},"district":{"key":"13076","name":"Ludwigslust-Parchim","type":"Landkreis"},"federalState":{"key":"13","name":"Mecklenburg-Vorpommern"}},{"name":"Kastanienweg","postalCode":"19399","locality":"Dobbertin","municipality":{"key":"13076032","name":"Dobbertin","type":"Kreisangehörige_Gemeinde"},"district":{"key":"13076","name":"Ludwigslust-Parchim","type":"Landkreis"},"federalState":{"key":"13","name":"Mecklenburg-Vorpommern"}},{"name":"Kleestener Weg","postalCode":"19399","locality":"Dobbertin","municipality":{"key":"13076032","name":"Dobbertin","type":"Kreisangehörige_Gemeinde"},"district":{"key":"13076","name":"Ludwigslust-Parchim","type":"Landkreis"},"federalState":{"key":"13","name":"Mecklenburg-Vorpommern"}},{"name":"Klosterpark","postalCode":"19399","locality":"Dobbertin","municipality":{"key":"13076032","name":"Dobbertin","type":"Kreisangehörige_Gemeinde"},"district":{"key":"13076","name":"Ludwigslust-Parchim","type":"Landkreis"},"federalState":{"key":"13","name":"Mecklenburg-Vorpommern"}},{"name":"Krakower Str.","postalCode":"19399","locality":"Dobbertin","municipality":{"key":"13076032","name":"Dobbertin","type":"Kreisangehörige_Gemeinde"},"district":{"key":"13076","name":"Ludwigslust-Parchim","type":"Landkreis"},"federalState":{"key":"13","name":"Mecklenburg-Vorpommern"}},{"name":"Kreuzgang","postalCode":"19399","locality":"Dobbertin","municipality":{"key":"13076032","name":"Dobbertin","type":"Kreisangehörige_Gemeinde"},"district":{"key":"13076","name":"Ludwigslust-Parchim","type":"Landkreis"},"federalState":{"key":"13","name":"Mecklenburg-Vorpommern"}},{"name":"Lindenstr.","postalCode":"19399","locality":"Dobbertin","municipality":{"key":"13076032","name":"Dobbertin","type":"Kreisangehörige_Gemeinde"},"district":{"key":"13076","name":"Ludwigslust-Parchim","type":"Landkreis"},"federalState":{"key":"13","name":"Mecklenburg-Vorpommern"}},{"name":"Parkweg","postalCode":"19399","locality":"Dobbertin","municipality":{"key":"13076032","name":"Dobbertin","type":"Kreisangehörige_Gemeinde"},"district":{"key":"13076","name":"Ludwigslust-Parchim","type":"Landkreis"},"federalState":{"key":"13","name":"Mecklenburg-Vorpommern"}},{"name":"Plagenweg","postalCode":"19399","locality":"Dobbertin","municipality":{"key":"13076032","name":"Dobbertin","type":"Kreisangehörige_Gemeinde"},"district":{"key":"13076","name":"Ludwigslust-Parchim","type":"Landkreis"},"federalState":{"key":"13","name":"Mecklenburg-Vorpommern"}},{"name":"Platz der Arbeit","postalCode":"19399","locality":"Dobbertin","municipality":{"key":"13076032","name":"Dobbertin","type":"Kreisangehörige_Gemeinde"},"district":{"key":"13076","name":"Ludwigslust-Parchim","type":"Landkreis"},"federalState":{"key":"13","name":"Mecklenburg-Vorpommern"}},{"name":"Sandweg","postalCode":"19399","locality":"Dobbertin","municipality":{"key":"13076032","name":"Dobbertin","type":"Kreisangehörige_Gemeinde"},"district":{"key":"13076","name":"Ludwigslust-Parchim","type":"Landkreis"},"federalState":{"key":"13","name":"Mecklenburg-Vorpommern"}},{"name":"Schulstr.","postalCode":"19399","locality":"Dobbertin","municipality":{"key":"13076032","name":"Dobbertin","type":"Kreisangehörige_Gemeinde"},"district":{"key":"13076","name":"Ludwigslust-Parchim","type":"Landkreis"},"federalState":{"key":"13","name":"Mecklenburg-Vorpommern"}},{"name":"Skulpturenallee","postalCode":"19399","locality":"Dobbertin","municipality":{"key":"13076032","name":"Dobbertin","type":"Kreisangehörige_Gemeinde"},"district":{"key":"13076","name":"Ludwigslust-Parchim","type":"Landkreis"},"federalState":{"key":"13","name":"Mecklenburg-Vorpommern"}},{"name":"Steindamm","postalCode":"19399","locality":"Dobbertin","municipality":{"key":"13076032","name":"Dobbertin","type":"Kreisangehörige_Gemeinde"},"district":{"key":"13076","name":"Ludwigslust-Parchim","type":"Landkreis"},"federalState":{"key":"13","name":"Mecklenburg-Vorpommern"}},{"name":"Str. der Jugend","postalCode":"19399","locality":"Dobbertin","municipality":{"key":"13076032","name":"Dobbertin","type":"Kreisangehörige_Gemeinde"},"district":{"key":"13076","name":"Ludwigslust-Parchim","type":"Landkreis"},"federalState":{"key":"13","name":"Mecklenburg-Vorpommern"}},{"name":"Waldweg","postalCode":"19399","locality":"Dobbertin","municipality":{"key":"13076032","name":"Dobbertin","type":"Kreisangehörige_Gemeinde"},"district":{"key":"13076","name":"Ludwigslust-Parchim","type":"Landkreis"},"federalState":{"key":"13","name":"Mecklenburg-Vorpommern"}},{"name":"Wanderweg am Dobbertiner See","postalCode":"19399","locality":"Dobbertin","municipality":{"key":"13076032","name":"Dobbertin","type":"Kreisangehörige_Gemeinde"},"district":{"key":"13076","name":"Ludwigslust-Parchim","type":"Landkreis"},"federalState":{"key":"13","name":"Mecklenburg-Vorpommern"}},{"name":"Weg I","postalCode":"19399","locality":"Dobbertin","municipality":{"key":"13076032","name":"Dobbertin","type":"Kreisangehörige_Gemeinde"},"district":{"key":"13076","name":"Ludwigslust-Parchim","type":"Landkreis"},"federalState":{"key":"13","name":"Mecklenburg-Vorpommern"}},{"name":"Weg II","postalCode":"19399","locality":"Dobbertin","municipality":{"key":"13076032","name":"Dobbertin","type":"Kreisangehörige_Gemeinde"},"district":{"key":"13076","name":"Ludwigslust-Parchim","type":"Landkreis"},"federalState":{"key":"13","name":"Mecklenburg-Vorpommern"}},{"name":"Weg III","postalCode":"19399","locality":"Dobbertin","municipality":{"key":"13076032","name":"Dobbertin","type":"Kreisangehörige_Gemeinde"},"district":{"key":"13076","name":"Ludwigslust-Parchim","type":"Landkreis"},"federalState":{"key":"13","name":"Mecklenburg-Vorpommern"}},{"name":"Weg IV","postalCode":"19399","locality":"Dobbertin","municipality":{"key":"13076032","name":"Dobbertin","type":"Kreisangehörige_Gemeinde"},"district":{"key":"13076","name":"Ludwigslust-Parchim","type":"Landkreis"},"federalState":{"key":"13","name":"Mecklenburg-Vorpommern"}},{"name":"Weg V","postalCode":"19399","locality":"Dobbertin","municipality":{"key":"13076032","name":"Dobbertin","type":"Kreisangehörige_Gemeinde"},"district":{"key":"13076","name":"Ludwigslust-Parchim","type":"Landkreis"},"federalState":{"key":"13","name":"Mecklenburg-Vorpommern"}},{"name":"Weg VI","postalCode":"19399","locality":"Dobbertin","municipality":{"key":"13076032","name":"Dobbertin","type":"Kreisangehörige_Gemeinde"},"district":{"key":"13076","name":"Ludwigslust-Parchim","type":"Landkreis"},"federalState":{"key":"13","name":"Mecklenburg-Vorpommern"}},{"name":"Weg VII","postalCode":"19399","locality":"Dobbertin","municipality":{"key":"13076032","name":"Dobbertin","type":"Kreisangehörige_Gemeinde"},"district":{"key":"13076","name":"Ludwigslust-Parchim","type":"Landkreis"},"federalState":{"key":"13","name":"Mecklenburg-Vorpommern"}},{"name":"Zum Mildenitztal","postalCode":"19399","locality":"Dobbertin","municipality":{"key":"13076032","name":"Dobbertin","type":"Kreisangehörige_Gemeinde"},"district":{"key":"13076","name":"Ludwigslust-Parchim","type":"Landkreis"},"federalState":{"key":"13","name":"Mecklenburg-Vorpommern"}},]