[{"name":"Alte Salzstr.","postalCode":"23627","locality":"Groß Sarau","municipality":{"key":"01053043","name":"Groß Sarau","type":"Kreisangehörige_Gemeinde"},"district":{"key":"01053","name":"Herzogtum Lauenburg","type":"Kreis"},"federalState":{"key":"01","name":"Schleswig-Holstein"}},{"name":"Am Hang","postalCode":"23627","locality":"Groß Sarau","municipality":{"key":"01053043","name":"Groß Sarau","type":"Kreisangehörige_Gemeinde"},"district":{"key":"01053","name":"Herzogtum Lauenburg","type":"Kreis"},"federalState":{"key":"01","name":"Schleswig-Holstein"}},{"name":"Drägerweg","postalCode":"23627","locality":"Groß Sarau","municipality":{"key":"01053043","name":"Groß Sarau","type":"Kreisangehörige_Gemeinde"},"district":{"key":"01053","name":"Herzogtum Lauenburg","type":"Kreis"},"federalState":{"key":"01","name":"Schleswig-Holstein"}},{"name":"Fischergang","postalCode":"23627","locality":"Groß Sarau","municipality":{"key":"01053043","name":"Groß Sarau","type":"Kreisangehörige_Gemeinde"},"district":{"key":"01053","name":"Herzogtum Lauenburg","type":"Kreis"},"federalState":{"key":"01","name":"Schleswig-Holstein"}},{"name":"Geerdshabe","postalCode":"23627","locality":"Groß Sarau","municipality":{"key":"01053043","name":"Groß Sarau","type":"Kreisangehörige_Gemeinde"},"district":{"key":"01053","name":"Herzogtum Lauenburg","type":"Kreis"},"federalState":{"key":"01","name":"Schleswig-Holstein"}},{"name":"Grüner Weg","postalCode":"23627","locality":"Groß Sarau","municipality":{"key":"01053043","name":"Groß Sarau","type":"Kreisangehörige_Gemeinde"},"district":{"key":"01053","name":"Herzogtum Lauenburg","type":"Kreis"},"federalState":{"key":"01","name":"Schleswig-Holstein"}},{"name":"Haselmausweg","postalCode":"23627","locality":"Groß Sarau","municipality":{"key":"01053043","name":"Groß Sarau","type":"Kreisangehörige_Gemeinde"},"district":{"key":"01053","name":"Herzogtum Lauenburg","type":"Kreis"},"federalState":{"key":"01","name":"Schleswig-Holstein"}},{"name":"Hauptstr.","postalCode":"23627","locality":"Groß Sarau","municipality":{"key":"01053043","name":"Groß Sarau","type":"Kreisangehörige_Gemeinde"},"district":{"key":"01053","name":"Herzogtum Lauenburg","type":"Kreis"},"federalState":{"key":"01","name":"Schleswig-Holstein"}},{"name":"Hochsaal Redder","postalCode":"23627","locality":"Groß Sarau","municipality":{"key":"01053043","name":"Groß Sarau","type":"Kreisangehörige_Gemeinde"},"district":{"key":"01053","name":"Herzogtum Lauenburg","type":"Kreis"},"federalState":{"key":"01","name":"Schleswig-Holstein"}},{"name":"Holstendorfer Weg","postalCode":"23627","locality":"Groß Sarau","municipality":{"key":"01053043","name":"Groß Sarau","type":"Kreisangehörige_Gemeinde"},"district":{"key":"01053","name":"Herzogtum Lauenburg","type":"Kreis"},"federalState":{"key":"01","name":"Schleswig-Holstein"}},{"name":"Hornstorf","postalCode":"23627","locality":"Groß Sarau","municipality":{"key":"01053043","name":"Groß Sarau","type":"Kreisangehörige_Gemeinde"},"district":{"key":"01053","name":"Herzogtum Lauenburg","type":"Kreis"},"federalState":{"key":"01","name":"Schleswig-Holstein"}},{"name":"Klein Sarau","postalCode":"23627","locality":"Groß Sarau","municipality":{"key":"01053043","name":"Groß Sarau","type":"Kreisangehörige_Gemeinde"},"district":{"key":"01053","name":"Herzogtum Lauenburg","type":"Kreis"},"federalState":{"key":"01","name":"Schleswig-Holstein"}},{"name":"Klempauer Str.","postalCode":"23627","locality":"Groß Sarau","municipality":{"key":"01053043","name":"Groß Sarau","type":"Kreisangehörige_Gemeinde"},"district":{"key":"01053","name":"Herzogtum Lauenburg","type":"Kreis"},"federalState":{"key":"01","name":"Schleswig-Holstein"}},{"name":"Nädlershorst","postalCode":"23627","locality":"Groß Sarau","municipality":{"key":"01053043","name":"Groß Sarau","type":"Kreisangehörige_Gemeinde"},"district":{"key":"01053","name":"Herzogtum Lauenburg","type":"Kreis"},"federalState":{"key":"01","name":"Schleswig-Holstein"}},{"name":"Nädlershorster Weg","postalCode":"23627","locality":"Groß Sarau","municipality":{"key":"01053043","name":"Groß Sarau","type":"Kreisangehörige_Gemeinde"},"district":{"key":"01053","name":"Herzogtum Lauenburg","type":"Kreis"},"federalState":{"key":"01","name":"Schleswig-Holstein"}},{"name":"Pferdekoppel","postalCode":"23627","locality":"Groß Sarau","municipality":{"key":"01053043","name":"Groß Sarau","type":"Kreisangehörige_Gemeinde"},"district":{"key":"01053","name":"Herzogtum Lauenburg","type":"Kreis"},"federalState":{"key":"01","name":"Schleswig-Holstein"}},{"name":"Roter Löwe","postalCode":"23627","locality":"Groß Sarau","municipality":{"key":"01053043","name":"Groß Sarau","type":"Kreisangehörige_Gemeinde"},"district":{"key":"01053","name":"Herzogtum Lauenburg","type":"Kreis"},"federalState":{"key":"01","name":"Schleswig-Holstein"}},{"name":"Rothenhusen","postalCode":"23627","locality":"Groß Sarau","municipality":{"key":"01053043","name":"Groß Sarau","type":"Kreisangehörige_Gemeinde"},"district":{"key":"01053","name":"Herzogtum Lauenburg","type":"Kreis"},"federalState":{"key":"01","name":"Schleswig-Holstein"}},{"name":"Rothenhusener Weg","postalCode":"23627","locality":"Groß Sarau","municipality":{"key":"01053043","name":"Groß Sarau","type":"Kreisangehörige_Gemeinde"},"district":{"key":"01053","name":"Herzogtum Lauenburg","type":"Kreis"},"federalState":{"key":"01","name":"Schleswig-Holstein"}},{"name":"Schmiedekoppel","postalCode":"23627","locality":"Groß Sarau","municipality":{"key":"01053043","name":"Groß Sarau","type":"Kreisangehörige_Gemeinde"},"district":{"key":"01053","name":"Herzogtum Lauenburg","type":"Kreis"},"federalState":{"key":"01","name":"Schleswig-Holstein"}},{"name":"Schwarzen Lande","postalCode":"23627","locality":"Groß Sarau","municipality":{"key":"01053043","name":"Groß Sarau","type":"Kreisangehörige_Gemeinde"},"district":{"key":"01053","name":"Herzogtum Lauenburg","type":"Kreis"},"federalState":{"key":"01","name":"Schleswig-Holstein"}},{"name":"Tüschenwegen","postalCode":"23627","locality":"Groß Sarau","municipality":{"key":"01053043","name":"Groß Sarau","type":"Kreisangehörige_Gemeinde"},"district":{"key":"01053","name":"Herzogtum Lauenburg","type":"Kreis"},"federalState":{"key":"01","name":"Schleswig-Holstein"}},{"name":"Viehkamp","postalCode":"23627","locality":"Groß Sarau","municipality":{"key":"01053043","name":"Groß Sarau","type":"Kreisangehörige_Gemeinde"},"district":{"key":"01053","name":"Herzogtum Lauenburg","type":"Kreis"},"federalState":{"key":"01","name":"Schleswig-Holstein"}},{"name":"Wischen Redder","postalCode":"23627","locality":"Groß Sarau","municipality":{"key":"01053043","name":"Groß Sarau","type":"Kreisangehörige_Gemeinde"},"district":{"key":"01053","name":"Herzogtum Lauenburg","type":"Kreis"},"federalState":{"key":"01","name":"Schleswig-Holstein"}},]