[{"name":"Ahornweg","postalCode":"97271","locality":"Kleinrinderfeld","municipality":{"key":"09679155","name":"Kleinrinderfeld","type":"Kreisangehörige_Gemeinde"},"district":{"key":"09679","name":"Würzburg","type":"Landkreis"},"federalState":{"key":"09","name":"Bayern"}},{"name":"Am Firschweg","postalCode":"97271","locality":"Kleinrinderfeld","municipality":{"key":"09679155","name":"Kleinrinderfeld","type":"Kreisangehörige_Gemeinde"},"district":{"key":"09679","name":"Würzburg","type":"Landkreis"},"federalState":{"key":"09","name":"Bayern"}},{"name":"Am Grundbach","postalCode":"97271","locality":"Kleinrinderfeld","municipality":{"key":"09679155","name":"Kleinrinderfeld","type":"Kreisangehörige_Gemeinde"},"district":{"key":"09679","name":"Würzburg","type":"Landkreis"},"federalState":{"key":"09","name":"Bayern"}},{"name":"Amselweg","postalCode":"97271","locality":"Kleinrinderfeld","municipality":{"key":"09679155","name":"Kleinrinderfeld","type":"Kreisangehörige_Gemeinde"},"district":{"key":"09679","name":"Würzburg","type":"Landkreis"},"federalState":{"key":"09","name":"Bayern"}},{"name":"Am Speierling","postalCode":"97271","locality":"Kleinrinderfeld","municipality":{"key":"09679155","name":"Kleinrinderfeld","type":"Kreisangehörige_Gemeinde"},"district":{"key":"09679","name":"Würzburg","type":"Landkreis"},"federalState":{"key":"09","name":"Bayern"}},{"name":"Am Wengert","postalCode":"97271","locality":"Kleinrinderfeld","municipality":{"key":"09679155","name":"Kleinrinderfeld","type":"Kreisangehörige_Gemeinde"},"district":{"key":"09679","name":"Würzburg","type":"Landkreis"},"federalState":{"key":"09","name":"Bayern"}},{"name":"Bayernstr.","postalCode":"97271","locality":"Kleinrinderfeld","municipality":{"key":"09679155","name":"Kleinrinderfeld","type":"Kreisangehörige_Gemeinde"},"district":{"key":"09679","name":"Würzburg","type":"Landkreis"},"federalState":{"key":"09","name":"Bayern"}},{"name":"Blumenweg","postalCode":"97271","locality":"Kleinrinderfeld","municipality":{"key":"09679155","name":"Kleinrinderfeld","type":"Kreisangehörige_Gemeinde"},"district":{"key":"09679","name":"Würzburg","type":"Landkreis"},"federalState":{"key":"09","name":"Bayern"}},{"name":"Buchenweg","postalCode":"97271","locality":"Kleinrinderfeld","municipality":{"key":"09679155","name":"Kleinrinderfeld","type":"Kreisangehörige_Gemeinde"},"district":{"key":"09679","name":"Würzburg","type":"Landkreis"},"federalState":{"key":"09","name":"Bayern"}},{"name":"Carl-Orff-Str.","postalCode":"97076","locality":"Würzburg","municipality":{"key":"09663000","name":"Würzburg","type":"Kreisfreie_Stadt"},"district":{"key":"09663","name":"Würzburg","type":"Kreisfreie_Stadt"},"federalState":{"key":"09","name":"Bayern"}},{"name":"Christlsteige","postalCode":"97074","locality":"Würzburg","municipality":{"key":"09663000","name":"Würzburg","type":"Kreisfreie_Stadt"},"district":{"key":"09663","name":"Würzburg","type":"Kreisfreie_Stadt"},"federalState":{"key":"09","name":"Bayern"}},{"name":"Christoph-Mayer-Weg","postalCode":"97082","locality":"Würzburg","municipality":{"key":"09663000","name":"Würzburg","type":"Kreisfreie_Stadt"},"district":{"key":"09663","name":"Würzburg","type":"Kreisfreie_Stadt"},"federalState":{"key":"09","name":"Bayern"}},{"name":"Conradisteg","postalCode":"97072","locality":"Würzburg","municipality":{"key":"09663000","name":"Würzburg","type":"Kreisfreie_Stadt"},"district":{"key":"09663","name":"Würzburg","type":"Kreisfreie_Stadt"},"federalState":{"key":"09","name":"Bayern"}},{"name":"Conradistr.","postalCode":"97072","locality":"Würzburg","municipality":{"key":"09663000","name":"Würzburg","type":"Kreisfreie_Stadt"},"district":{"key":"09663","name":"Würzburg","type":"Kreisfreie_Stadt"},"federalState":{"key":"09","name":"Bayern"}},{"name":"Crevennastr.","postalCode":"97072","locality":"Würzburg","municipality":{"key":"09663000","name":"Würzburg","type":"Kreisfreie_Stadt"},"district":{"key":"09663","name":"Würzburg","type":"Kreisfreie_Stadt"},"federalState":{"key":"09","name":"Bayern"}},{"name":"Cronthalstr.","postalCode":"97074","locality":"Würzburg","municipality":{"key":"09663000","name":"Würzburg","type":"Kreisfreie_Stadt"},"district":{"key":"09663","name":"Würzburg","type":"Kreisfreie_Stadt"},"federalState":{"key":"09","name":"Bayern"}},{"name":"Danziger Str.","postalCode":"97271","locality":"Kleinrinderfeld","municipality":{"key":"09679155","name":"Kleinrinderfeld","type":"Kreisangehörige_Gemeinde"},"district":{"key":"09679","name":"Würzburg","type":"Landkreis"},"federalState":{"key":"09","name":"Bayern"}},{"name":"Deutschherrnstr.","postalCode":"97271","locality":"Kleinrinderfeld","municipality":{"key":"09679155","name":"Kleinrinderfeld","type":"Kreisangehörige_Gemeinde"},"district":{"key":"09679","name":"Würzburg","type":"Landkreis"},"federalState":{"key":"09","name":"Bayern"}},{"name":"Dr.-Leukert-Weg","postalCode":"97271","locality":"Kleinrinderfeld","municipality":{"key":"09679155","name":"Kleinrinderfeld","type":"Kreisangehörige_Gemeinde"},"district":{"key":"09679","name":"Würzburg","type":"Landkreis"},"federalState":{"key":"09","name":"Bayern"}},{"name":"Eschenweg","postalCode":"97271","locality":"Kleinrinderfeld","municipality":{"key":"09679155","name":"Kleinrinderfeld","type":"Kreisangehörige_Gemeinde"},"district":{"key":"09679","name":"Würzburg","type":"Landkreis"},"federalState":{"key":"09","name":"Bayern"}},{"name":"Forststr.","postalCode":"97271","locality":"Kleinrinderfeld","municipality":{"key":"09679155","name":"Kleinrinderfeld","type":"Kreisangehörige_Gemeinde"},"district":{"key":"09679","name":"Würzburg","type":"Landkreis"},"federalState":{"key":"09","name":"Bayern"}},{"name":"Frankenstr.","postalCode":"97271","locality":"Kleinrinderfeld","municipality":{"key":"09679155","name":"Kleinrinderfeld","type":"Kreisangehörige_Gemeinde"},"district":{"key":"09679","name":"Würzburg","type":"Landkreis"},"federalState":{"key":"09","name":"Bayern"}},{"name":"Friedhofpfad","postalCode":"97271","locality":"Kleinrinderfeld","municipality":{"key":"09679155","name":"Kleinrinderfeld","type":"Kreisangehörige_Gemeinde"},"district":{"key":"09679","name":"Würzburg","type":"Landkreis"},"federalState":{"key":"09","name":"Bayern"}},{"name":"Friedhofstr.","postalCode":"97271","locality":"Kleinrinderfeld","municipality":{"key":"09679155","name":"Kleinrinderfeld","type":"Kreisangehörige_Gemeinde"},"district":{"key":"09679","name":"Würzburg","type":"Landkreis"},"federalState":{"key":"09","name":"Bayern"}},{"name":"Frühlingsstr.","postalCode":"97271","locality":"Kleinrinderfeld","municipality":{"key":"09679155","name":"Kleinrinderfeld","type":"Kreisangehörige_Gemeinde"},"district":{"key":"09679","name":"Würzburg","type":"Landkreis"},"federalState":{"key":"09","name":"Bayern"}},{"name":"Gartenstr.","postalCode":"97271","locality":"Kleinrinderfeld","municipality":{"key":"09679155","name":"Kleinrinderfeld","type":"Kreisangehörige_Gemeinde"},"district":{"key":"09679","name":"Würzburg","type":"Landkreis"},"federalState":{"key":"09","name":"Bayern"}},{"name":"Gerchsheimer Str.","postalCode":"97271","locality":"Kleinrinderfeld","municipality":{"key":"09679155","name":"Kleinrinderfeld","type":"Kreisangehörige_Gemeinde"},"district":{"key":"09679","name":"Würzburg","type":"Landkreis"},"federalState":{"key":"09","name":"Bayern"}},{"name":"Geroldshäuser Str.","postalCode":"97271","locality":"Kleinrinderfeld","municipality":{"key":"09679155","name":"Kleinrinderfeld","type":"Kreisangehörige_Gemeinde"},"district":{"key":"09679","name":"Würzburg","type":"Landkreis"},"federalState":{"key":"09","name":"Bayern"}},{"name":"Guttenberger-Wald-Str.","postalCode":"97271","locality":"Kleinrinderfeld","municipality":{"key":"09679155","name":"Kleinrinderfeld","type":"Kreisangehörige_Gemeinde"},"district":{"key":"09679","name":"Würzburg","type":"Landkreis"},"federalState":{"key":"09","name":"Bayern"}},{"name":"Hauptstr.","postalCode":"97271","locality":"Kleinrinderfeld","municipality":{"key":"09679155","name":"Kleinrinderfeld","type":"Kreisangehörige_Gemeinde"},"district":{"key":"09679","name":"Würzburg","type":"Landkreis"},"federalState":{"key":"09","name":"Bayern"}},{"name":"Hofäckerring","postalCode":"97271","locality":"Kleinrinderfeld","municipality":{"key":"09679155","name":"Kleinrinderfeld","type":"Kreisangehörige_Gemeinde"},"district":{"key":"09679","name":"Würzburg","type":"Landkreis"},"federalState":{"key":"09","name":"Bayern"}},{"name":"In den Neun Morgen","postalCode":"97271","locality":"Kleinrinderfeld","municipality":{"key":"09679155","name":"Kleinrinderfeld","type":"Kreisangehörige_Gemeinde"},"district":{"key":"09679","name":"Würzburg","type":"Landkreis"},"federalState":{"key":"09","name":"Bayern"}},{"name":"Jahnstr.","postalCode":"97271","locality":"Kleinrinderfeld","municipality":{"key":"09679155","name":"Kleinrinderfeld","type":"Kreisangehörige_Gemeinde"},"district":{"key":"09679","name":"Würzburg","type":"Landkreis"},"federalState":{"key":"09","name":"Bayern"}},{"name":"Kirchheimer Str.","postalCode":"97271","locality":"Kleinrinderfeld","municipality":{"key":"09679155","name":"Kleinrinderfeld","type":"Kreisangehörige_Gemeinde"},"district":{"key":"09679","name":"Würzburg","type":"Landkreis"},"federalState":{"key":"09","name":"Bayern"}},{"name":"Kister Str.","postalCode":"97271","locality":"Kleinrinderfeld","municipality":{"key":"09679155","name":"Kleinrinderfeld","type":"Kreisangehörige_Gemeinde"},"district":{"key":"09679","name":"Würzburg","type":"Landkreis"},"federalState":{"key":"09","name":"Bayern"}},{"name":"Krautäckerweg","postalCode":"97271","locality":"Kleinrinderfeld","municipality":{"key":"09679155","name":"Kleinrinderfeld","type":"Kreisangehörige_Gemeinde"},"district":{"key":"09679","name":"Würzburg","type":"Landkreis"},"federalState":{"key":"09","name":"Bayern"}},{"name":"Kühler Grund","postalCode":"97271","locality":"Kleinrinderfeld","municipality":{"key":"09679155","name":"Kleinrinderfeld","type":"Kreisangehörige_Gemeinde"},"district":{"key":"09679","name":"Würzburg","type":"Landkreis"},"federalState":{"key":"09","name":"Bayern"}},{"name":"Lerchenweg","postalCode":"97271","locality":"Kleinrinderfeld","municipality":{"key":"09679155","name":"Kleinrinderfeld","type":"Kreisangehörige_Gemeinde"},"district":{"key":"09679","name":"Würzburg","type":"Landkreis"},"federalState":{"key":"09","name":"Bayern"}},{"name":"Lindenweg","postalCode":"97271","locality":"Kleinrinderfeld","municipality":{"key":"09679155","name":"Kleinrinderfeld","type":"Kreisangehörige_Gemeinde"},"district":{"key":"09679","name":"Würzburg","type":"Landkreis"},"federalState":{"key":"09","name":"Bayern"}},{"name":"Maisenbach","postalCode":"97271","locality":"Kleinrinderfeld","municipality":{"key":"09679155","name":"Kleinrinderfeld","type":"Kreisangehörige_Gemeinde"},"district":{"key":"09679","name":"Würzburg","type":"Landkreis"},"federalState":{"key":"09","name":"Bayern"}},{"name":"NA","postalCode":"97076","locality":"Würzburg","municipality":{"key":"09663000","name":"Würzburg","type":"Kreisfreie_Stadt"},"district":{"key":"09663","name":"Würzburg","type":"Kreisfreie_Stadt"},"federalState":{"key":"09","name":"Bayern"}},{"name":"Nachtigallenweg","postalCode":"97074","locality":"Würzburg","municipality":{"key":"09663000","name":"Würzburg","type":"Kreisfreie_Stadt"},"district":{"key":"09663","name":"Würzburg","type":"Kreisfreie_Stadt"},"federalState":{"key":"09","name":"Bayern"}},{"name":"Nautiland","postalCode":"97082","locality":"Würzburg","municipality":{"key":"09663000","name":"Würzburg","type":"Kreisfreie_Stadt"},"district":{"key":"09663","name":"Würzburg","type":"Kreisfreie_Stadt"},"federalState":{"key":"09","name":"Bayern"}},{"name":"Neidertstr.","postalCode":"97082","locality":"Würzburg","municipality":{"key":"09663000","name":"Würzburg","type":"Kreisfreie_Stadt"},"district":{"key":"09663","name":"Würzburg","type":"Kreisfreie_Stadt"},"federalState":{"key":"09","name":"Bayern"}},{"name":"Nelkenweg","postalCode":"97084","locality":"Würzburg","municipality":{"key":"09663000","name":"Würzburg","type":"Kreisfreie_Stadt"},"district":{"key":"09663","name":"Würzburg","type":"Kreisfreie_Stadt"},"federalState":{"key":"09","name":"Bayern"}},{"name":"Neubaustr.","postalCode":"97070","locality":"Würzburg","municipality":{"key":"09663000","name":"Würzburg","type":"Kreisfreie_Stadt"},"district":{"key":"09663","name":"Würzburg","type":"Kreisfreie_Stadt"},"federalState":{"key":"09","name":"Bayern"}},{"name":"Neubergstr.","postalCode":"97072","locality":"Würzburg","municipality":{"key":"09663000","name":"Würzburg","type":"Kreisfreie_Stadt"},"district":{"key":"09663","name":"Würzburg","type":"Kreisfreie_Stadt"},"federalState":{"key":"09","name":"Bayern"}},{"name":"Neuenbrunnerweg","postalCode":"97080","locality":"Würzburg","municipality":{"key":"09663000","name":"Würzburg","type":"Kreisfreie_Stadt"},"district":{"key":"09663","name":"Würzburg","type":"Kreisfreie_Stadt"},"federalState":{"key":"09","name":"Bayern"}},{"name":"Neumann-Passage","postalCode":"97070","locality":"Würzburg","municipality":{"key":"09663000","name":"Würzburg","type":"Kreisfreie_Stadt"},"district":{"key":"09663","name":"Würzburg","type":"Kreisfreie_Stadt"},"federalState":{"key":"09","name":"Bayern"}},{"name":"Neunerplatz","postalCode":"97082","locality":"Würzburg","municipality":{"key":"09663000","name":"Würzburg","type":"Kreisfreie_Stadt"},"district":{"key":"09663","name":"Würzburg","type":"Kreisfreie_Stadt"},"federalState":{"key":"09","name":"Bayern"}},{"name":"Neutorstr.","postalCode":"97070","locality":"Würzburg","municipality":{"key":"09663000","name":"Würzburg","type":"Kreisfreie_Stadt"},"district":{"key":"09663","name":"Würzburg","type":"Kreisfreie_Stadt"},"federalState":{"key":"09","name":"Bayern"}},{"name":"Neutorwiese","postalCode":"97082","locality":"Würzburg","municipality":{"key":"09663000","name":"Würzburg","type":"Kreisfreie_Stadt"},"district":{"key":"09663","name":"Würzburg","type":"Kreisfreie_Stadt"},"federalState":{"key":"09","name":"Bayern"}},{"name":"Neydeckgasse","postalCode":"97082","locality":"Würzburg","municipality":{"key":"09663000","name":"Würzburg","type":"Kreisfreie_Stadt"},"district":{"key":"09663","name":"Würzburg","type":"Kreisfreie_Stadt"},"federalState":{"key":"09","name":"Bayern"}},{"name":"Nikolaus-Fey-Str.","postalCode":"97084","locality":"Würzburg","municipality":{"key":"09663000","name":"Würzburg","type":"Kreisfreie_Stadt"},"district":{"key":"09663","name":"Würzburg","type":"Kreisfreie_Stadt"},"federalState":{"key":"09","name":"Bayern"}},{"name":"Nikolaus-Neeb-Str.","postalCode":"97262","locality":"Hausen b. Würzburg","municipality":{"key":"09679143","name":"Hausen b.Würzburg","type":"Kreisangehörige_Gemeinde"},"district":{"key":"09679","name":"Würzburg","type":"Landkreis"},"federalState":{"key":"09","name":"Bayern"}},{"name":"Nikolausstr.","postalCode":"97082","locality":"Würzburg","municipality":{"key":"09663000","name":"Würzburg","type":"Kreisfreie_Stadt"},"district":{"key":"09663","name":"Würzburg","type":"Kreisfreie_Stadt"},"federalState":{"key":"09","name":"Bayern"}},{"name":"Nopitschstr.","postalCode":"97074","locality":"Würzburg","municipality":{"key":"09663000","name":"Würzburg","type":"Kreisfreie_Stadt"},"district":{"key":"09663","name":"Würzburg","type":"Kreisfreie_Stadt"},"federalState":{"key":"09","name":"Bayern"}},{"name":"Norbert-Glanzberg-Str.","postalCode":"97074","locality":"Würzburg","municipality":{"key":"09663000","name":"Würzburg","type":"Kreisfreie_Stadt"},"district":{"key":"09663","name":"Würzburg","type":"Kreisfreie_Stadt"},"federalState":{"key":"09","name":"Bayern"}},{"name":"Nördliche Hafenstr.","postalCode":"97080","locality":"Würzburg","municipality":{"key":"09663000","name":"Würzburg","type":"Kreisfreie_Stadt"},"district":{"key":"09663","name":"Würzburg","type":"Kreisfreie_Stadt"},"federalState":{"key":"09","name":"Bayern"}},{"name":"Nordtangente","postalCode":"97080","locality":"Würzburg","municipality":{"key":"09663000","name":"Würzburg","type":"Kreisfreie_Stadt"},"district":{"key":"09663","name":"Würzburg","type":"Kreisfreie_Stadt"},"federalState":{"key":"09","name":"Bayern"}},{"name":"Nürnberger Str.","postalCode":"97076","locality":"Würzburg","municipality":{"key":"09663000","name":"Würzburg","type":"Kreisfreie_Stadt"},"district":{"key":"09663","name":"Würzburg","type":"Kreisfreie_Stadt"},"federalState":{"key":"09","name":"Bayern"}},{"name":"Nußbaumweg","postalCode":"97084","locality":"Würzburg","municipality":{"key":"09663000","name":"Würzburg","type":"Kreisfreie_Stadt"},"district":{"key":"09663","name":"Würzburg","type":"Kreisfreie_Stadt"},"federalState":{"key":"09","name":"Bayern"}},{"name":"Oberdürrbacher Str.","postalCode":"97080","locality":"Würzburg","municipality":{"key":"09663000","name":"Würzburg","type":"Kreisfreie_Stadt"},"district":{"key":"09663","name":"Würzburg","type":"Kreisfreie_Stadt"},"federalState":{"key":"09","name":"Bayern"}},{"name":"Obere Heerbergstr.","postalCode":"97078","locality":"Würzburg","municipality":{"key":"09663000","name":"Würzburg","type":"Kreisfreie_Stadt"},"district":{"key":"09663","name":"Würzburg","type":"Kreisfreie_Stadt"},"federalState":{"key":"09","name":"Bayern"}},{"name":"Obere Hofgasse","postalCode":"97078","locality":"Würzburg","municipality":{"key":"09663000","name":"Würzburg","type":"Kreisfreie_Stadt"},"district":{"key":"09663","name":"Würzburg","type":"Kreisfreie_Stadt"},"federalState":{"key":"09","name":"Bayern"}},{"name":"Obere Johannitergasse","postalCode":"97070","locality":"Würzburg","municipality":{"key":"09663000","name":"Würzburg","type":"Kreisfreie_Stadt"},"district":{"key":"09663","name":"Würzburg","type":"Kreisfreie_Stadt"},"federalState":{"key":"09","name":"Bayern"}},{"name":"Oberer Blosenbergweg","postalCode":"97082","locality":"Würzburg","municipality":{"key":"09663000","name":"Würzburg","type":"Kreisfreie_Stadt"},"district":{"key":"09663","name":"Würzburg","type":"Kreisfreie_Stadt"},"federalState":{"key":"09","name":"Bayern"}},{"name":"Oberer Bogenweg","postalCode":"97074","locality":"Würzburg","municipality":{"key":"09663000","name":"Würzburg","type":"Kreisfreie_Stadt"},"district":{"key":"09663","name":"Würzburg","type":"Kreisfreie_Stadt"},"federalState":{"key":"09","name":"Bayern"}},{"name":"Oberer Burgweg","postalCode":"97082","locality":"Würzburg","municipality":{"key":"09663000","name":"Würzburg","type":"Kreisfreie_Stadt"},"district":{"key":"09663","name":"Würzburg","type":"Kreisfreie_Stadt"},"federalState":{"key":"09","name":"Bayern"}},{"name":"Oberer Dallenbergweg","postalCode":"97082","locality":"Würzburg","municipality":{"key":"09663000","name":"Würzburg","type":"Kreisfreie_Stadt"},"district":{"key":"09663","name":"Würzburg","type":"Kreisfreie_Stadt"},"federalState":{"key":"09","name":"Bayern"}},{"name":"Oberer Geisbergweg","postalCode":"97084","locality":"Würzburg","municipality":{"key":"09663000","name":"Würzburg","type":"Kreisfreie_Stadt"},"district":{"key":"09663","name":"Würzburg","type":"Kreisfreie_Stadt"},"federalState":{"key":"09","name":"Bayern"}},{"name":"Oberer Heißbergweg","postalCode":"97082","locality":"Würzburg","municipality":{"key":"09663000","name":"Würzburg","type":"Kreisfreie_Stadt"},"district":{"key":"09663","name":"Würzburg","type":"Kreisfreie_Stadt"},"federalState":{"key":"09","name":"Bayern"}},{"name":"Oberer Heriedenweg","postalCode":"97082","locality":"Würzburg","municipality":{"key":"09663000","name":"Würzburg","type":"Kreisfreie_Stadt"},"district":{"key":"09663","name":"Würzburg","type":"Kreisfreie_Stadt"},"federalState":{"key":"09","name":"Bayern"}},{"name":"Oberer Katzenbergweg","postalCode":"97084","locality":"Würzburg","municipality":{"key":"09663000","name":"Würzburg","type":"Kreisfreie_Stadt"},"district":{"key":"09663","name":"Würzburg","type":"Kreisfreie_Stadt"},"federalState":{"key":"09","name":"Bayern"}},{"name":"Oberer Kirchbergweg","postalCode":"97084","locality":"Würzburg","municipality":{"key":"09663000","name":"Würzburg","type":"Kreisfreie_Stadt"},"district":{"key":"09663","name":"Würzburg","type":"Kreisfreie_Stadt"},"federalState":{"key":"09","name":"Bayern"}},{"name":"Oberer Kirchplatz","postalCode":"97084","locality":"Würzburg","municipality":{"key":"09663000","name":"Würzburg","type":"Kreisfreie_Stadt"},"district":{"key":"09663","name":"Würzburg","type":"Kreisfreie_Stadt"},"federalState":{"key":"09","name":"Bayern"}},{"name":"Oberer Kühlenberg","postalCode":"97078","locality":"Würzburg","municipality":{"key":"09663000","name":"Würzburg","type":"Kreisfreie_Stadt"},"district":{"key":"09663","name":"Würzburg","type":"Kreisfreie_Stadt"},"federalState":{"key":"09","name":"Bayern"}},{"name":"Oberer Mainkai","postalCode":"97070","locality":"Würzburg","municipality":{"key":"09663000","name":"Würzburg","type":"Kreisfreie_Stadt"},"district":{"key":"09663","name":"Würzburg","type":"Kreisfreie_Stadt"},"federalState":{"key":"09","name":"Bayern"}},{"name":"Oberer Neubergweg","postalCode":"97074","locality":"Würzburg","municipality":{"key":"09663000","name":"Würzburg","type":"Kreisfreie_Stadt"},"district":{"key":"09663","name":"Würzburg","type":"Kreisfreie_Stadt"},"federalState":{"key":"09","name":"Bayern"}},{"name":"Oberer Steinbachweg","postalCode":"97082","locality":"Würzburg","municipality":{"key":"09663000","name":"Würzburg","type":"Kreisfreie_Stadt"},"district":{"key":"09663","name":"Würzburg","type":"Kreisfreie_Stadt"},"federalState":{"key":"09","name":"Bayern"}},{"name":"Oberer Torweinberg","postalCode":"97084","locality":"Würzburg","municipality":{"key":"09663000","name":"Würzburg","type":"Kreisfreie_Stadt"},"district":{"key":"09663","name":"Würzburg","type":"Kreisfreie_Stadt"},"federalState":{"key":"09","name":"Bayern"}},{"name":"Obere Str.","postalCode":"97262","locality":"Hausen b. Würzburg","municipality":{"key":"09679143","name":"Hausen b.Würzburg","type":"Kreisangehörige_Gemeinde"},"district":{"key":"09679","name":"Würzburg","type":"Landkreis"},"federalState":{"key":"09","name":"Bayern"}},{"name":"Obere Wand","postalCode":"97080","locality":"Würzburg","municipality":{"key":"09663000","name":"Würzburg","type":"Kreisfreie_Stadt"},"district":{"key":"09663","name":"Würzburg","type":"Kreisfreie_Stadt"},"federalState":{"key":"09","name":"Bayern"}},{"name":"Oberhofstr.","postalCode":"97080","locality":"Würzburg","municipality":{"key":"09663000","name":"Würzburg","type":"Kreisfreie_Stadt"},"district":{"key":"09663","name":"Würzburg","type":"Kreisfreie_Stadt"},"federalState":{"key":"09","name":"Bayern"}},{"name":"Oberthürstr.","postalCode":"97070","locality":"Würzburg","municipality":{"key":"09663000","name":"Würzburg","type":"Kreisfreie_Stadt"},"district":{"key":"09663","name":"Würzburg","type":"Kreisfreie_Stadt"},"federalState":{"key":"09","name":"Bayern"}},{"name":"Odenwaldstr.","postalCode":"97076","locality":"Würzburg","municipality":{"key":"09663000","name":"Würzburg","type":"Kreisfreie_Stadt"},"district":{"key":"09663","name":"Würzburg","type":"Kreisfreie_Stadt"},"federalState":{"key":"09","name":"Bayern"}},{"name":"Odiliastr.","postalCode":"97262","locality":"Hausen b. Würzburg","municipality":{"key":"09679143","name":"Hausen b.Würzburg","type":"Kreisangehörige_Gemeinde"},"district":{"key":"09679","name":"Würzburg","type":"Landkreis"},"federalState":{"key":"09","name":"Bayern"}},{"name":"Oeggstr.","postalCode":"97070","locality":"Würzburg","municipality":{"key":"09663000","name":"Würzburg","type":"Kreisfreie_Stadt"},"district":{"key":"09663","name":"Würzburg","type":"Kreisfreie_Stadt"},"federalState":{"key":"09","name":"Bayern"}},{"name":"Ohmstr.","postalCode":"97076","locality":"Würzburg","municipality":{"key":"09663000","name":"Würzburg","type":"Kreisfreie_Stadt"},"district":{"key":"09663","name":"Würzburg","type":"Kreisfreie_Stadt"},"federalState":{"key":"09","name":"Bayern"}},{"name":"Olympiapromenade","postalCode":"97084","locality":"Würzburg","municipality":{"key":"09663000","name":"Würzburg","type":"Kreisfreie_Stadt"},"district":{"key":"09663","name":"Würzburg","type":"Kreisfreie_Stadt"},"federalState":{"key":"09","name":"Bayern"}},{"name":"Oskar-Laredo-Platz","postalCode":"97080","locality":"Würzburg","municipality":{"key":"09663000","name":"Würzburg","type":"Kreisfreie_Stadt"},"district":{"key":"09663","name":"Würzburg","type":"Kreisfreie_Stadt"},"federalState":{"key":"09","name":"Bayern"}},{"name":"Osloer Str.","postalCode":"97084","locality":"Würzburg","municipality":{"key":"09663000","name":"Würzburg","type":"Kreisfreie_Stadt"},"district":{"key":"09663","name":"Würzburg","type":"Kreisfreie_Stadt"},"federalState":{"key":"09","name":"Bayern"}},{"name":"Ostpreußenstr.","postalCode":"97078","locality":"Würzburg","municipality":{"key":"09663000","name":"Würzburg","type":"Kreisfreie_Stadt"},"district":{"key":"09663","name":"Würzburg","type":"Kreisfreie_Stadt"},"federalState":{"key":"09","name":"Bayern"}},{"name":"Otsustr.","postalCode":"97084","locality":"Würzburg","municipality":{"key":"09663000","name":"Würzburg","type":"Kreisfreie_Stadt"},"district":{"key":"09663","name":"Würzburg","type":"Kreisfreie_Stadt"},"federalState":{"key":"09","name":"Bayern"}},{"name":"Otto-Fritz-Str.","postalCode":"97084","locality":"Würzburg","municipality":{"key":"09663000","name":"Würzburg","type":"Kreisfreie_Stadt"},"district":{"key":"09663","name":"Würzburg","type":"Kreisfreie_Stadt"},"federalState":{"key":"09","name":"Bayern"}},{"name":"Otto-Nagler-Str.","postalCode":"97074","locality":"Würzburg","municipality":{"key":"09663000","name":"Würzburg","type":"Kreisfreie_Stadt"},"district":{"key":"09663","name":"Würzburg","type":"Kreisfreie_Stadt"},"federalState":{"key":"09","name":"Bayern"}},{"name":"Otto-Richter-Str.","postalCode":"97074","locality":"Würzburg","municipality":{"key":"09663000","name":"Würzburg","type":"Kreisfreie_Stadt"},"district":{"key":"09663","name":"Würzburg","type":"Kreisfreie_Stadt"},"federalState":{"key":"09","name":"Bayern"}},{"name":"Otto-Roth-Str.","postalCode":"97076","locality":"Würzburg","municipality":{"key":"09663000","name":"Würzburg","type":"Kreisfreie_Stadt"},"district":{"key":"09663","name":"Würzburg","type":"Kreisfreie_Stadt"},"federalState":{"key":"09","name":"Bayern"}},{"name":"Otto-Stein-Str.","postalCode":"97076","locality":"Würzburg","municipality":{"key":"09663000","name":"Würzburg","type":"Kreisfreie_Stadt"},"district":{"key":"09663","name":"Würzburg","type":"Kreisfreie_Stadt"},"federalState":{"key":"09","name":"Bayern"}},{"name":"Ottostr.","postalCode":"97070","locality":"Würzburg","municipality":{"key":"09663000","name":"Würzburg","type":"Kreisfreie_Stadt"},"district":{"key":"09663","name":"Würzburg","type":"Kreisfreie_Stadt"},"federalState":{"key":"09","name":"Bayern"}},{"name":"Paradiesstr.","postalCode":"97271","locality":"Kleinrinderfeld","municipality":{"key":"09679155","name":"Kleinrinderfeld","type":"Kreisangehörige_Gemeinde"},"district":{"key":"09679","name":"Würzburg","type":"Landkreis"},"federalState":{"key":"09","name":"Bayern"}},{"name":"Pfarrer-Walter-Str.","postalCode":"97271","locality":"Kleinrinderfeld","municipality":{"key":"09679155","name":"Kleinrinderfeld","type":"Kreisangehörige_Gemeinde"},"district":{"key":"09679","name":"Würzburg","type":"Landkreis"},"federalState":{"key":"09","name":"Bayern"}},{"name":"Raiffeisenstr.","postalCode":"97262","locality":"Hausen b. Würzburg","municipality":{"key":"09679143","name":"Hausen b.Würzburg","type":"Kreisangehörige_Gemeinde"},"district":{"key":"09679","name":"Würzburg","type":"Landkreis"},"federalState":{"key":"09","name":"Bayern"}},{"name":"Randersackerer Str.","postalCode":"97072","locality":"Würzburg","municipality":{"key":"09663000","name":"Würzburg","type":"Kreisfreie_Stadt"},"district":{"key":"09663","name":"Würzburg","type":"Kreisfreie_Stadt"},"federalState":{"key":"09","name":"Bayern"}},{"name":"Randersackerer Str.","postalCode":"97074","locality":"Würzburg","municipality":{"key":"09663000","name":"Würzburg","type":"Kreisfreie_Stadt"},"district":{"key":"09663","name":"Würzburg","type":"Kreisfreie_Stadt"},"federalState":{"key":"09","name":"Bayern"}},{"name":"Rathaus","postalCode":"97070","locality":"Würzburg","municipality":{"key":"09663000","name":"Würzburg","type":"Kreisfreie_Stadt"},"district":{"key":"09663","name":"Würzburg","type":"Kreisfreie_Stadt"},"federalState":{"key":"09","name":"Bayern"}},{"name":"Rathausplatz","postalCode":"97084","locality":"Würzburg","municipality":{"key":"09663000","name":"Würzburg","type":"Kreisfreie_Stadt"},"district":{"key":"09663","name":"Würzburg","type":"Kreisfreie_Stadt"},"federalState":{"key":"09","name":"Bayern"}},{"name":"Rebenstr.","postalCode":"97084","locality":"Würzburg","municipality":{"key":"09663000","name":"Würzburg","type":"Kreisfreie_Stadt"},"district":{"key":"09663","name":"Würzburg","type":"Kreisfreie_Stadt"},"federalState":{"key":"09","name":"Bayern"}},{"name":"Reibeltgasse","postalCode":"97070","locality":"Würzburg","municipality":{"key":"09663000","name":"Würzburg","type":"Kreisfreie_Stadt"},"district":{"key":"09663","name":"Würzburg","type":"Kreisfreie_Stadt"},"federalState":{"key":"09","name":"Bayern"}},{"name":"Reichenberger Str.","postalCode":"97084","locality":"Würzburg","municipality":{"key":"09663000","name":"Würzburg","type":"Kreisfreie_Stadt"},"district":{"key":"09663","name":"Würzburg","type":"Kreisfreie_Stadt"},"federalState":{"key":"09","name":"Bayern"}},{"name":"Reiserhartpfad","postalCode":"97084","locality":"Würzburg","municipality":{"key":"09663000","name":"Würzburg","type":"Kreisfreie_Stadt"},"district":{"key":"09663","name":"Würzburg","type":"Kreisfreie_Stadt"},"federalState":{"key":"09","name":"Bayern"}},{"name":"Reiserstr.","postalCode":"97080","locality":"Würzburg","municipality":{"key":"09663000","name":"Würzburg","type":"Kreisfreie_Stadt"},"district":{"key":"09663","name":"Würzburg","type":"Kreisfreie_Stadt"},"federalState":{"key":"09","name":"Bayern"}},{"name":"Reisgrubengasse","postalCode":"97070","locality":"Würzburg","municipality":{"key":"09663000","name":"Würzburg","type":"Kreisfreie_Stadt"},"district":{"key":"09663","name":"Würzburg","type":"Kreisfreie_Stadt"},"federalState":{"key":"09","name":"Bayern"}},{"name":"Rembrandtstr.","postalCode":"97076","locality":"Würzburg","municipality":{"key":"09663000","name":"Würzburg","type":"Kreisfreie_Stadt"},"district":{"key":"09663","name":"Würzburg","type":"Kreisfreie_Stadt"},"federalState":{"key":"09","name":"Bayern"}},{"name":"Rennweg","postalCode":"97070","locality":"Würzburg","municipality":{"key":"09663000","name":"Würzburg","type":"Kreisfreie_Stadt"},"district":{"key":"09663","name":"Würzburg","type":"Kreisfreie_Stadt"},"federalState":{"key":"09","name":"Bayern"}},{"name":"Resenbrücke","postalCode":"97084","locality":"Würzburg","municipality":{"key":"09663000","name":"Würzburg","type":"Kreisfreie_Stadt"},"district":{"key":"09663","name":"Würzburg","type":"Kreisfreie_Stadt"},"federalState":{"key":"09","name":"Bayern"}},{"name":"Resenstr.","postalCode":"97084","locality":"Würzburg","municipality":{"key":"09663000","name":"Würzburg","type":"Kreisfreie_Stadt"},"district":{"key":"09663","name":"Würzburg","type":"Kreisfreie_Stadt"},"federalState":{"key":"09","name":"Bayern"}},{"name":"Resenweg","postalCode":"97084","locality":"Würzburg","municipality":{"key":"09663000","name":"Würzburg","type":"Kreisfreie_Stadt"},"district":{"key":"09663","name":"Würzburg","type":"Kreisfreie_Stadt"},"federalState":{"key":"09","name":"Bayern"}},{"name":"Reuerergasse","postalCode":"97070","locality":"Würzburg","municipality":{"key":"09663000","name":"Würzburg","type":"Kreisfreie_Stadt"},"district":{"key":"09663","name":"Würzburg","type":"Kreisfreie_Stadt"},"federalState":{"key":"09","name":"Bayern"}},{"name":"Reußenweg","postalCode":"97080","locality":"Würzburg","municipality":{"key":"09663000","name":"Würzburg","type":"Kreisfreie_Stadt"},"district":{"key":"09663","name":"Würzburg","type":"Kreisfreie_Stadt"},"federalState":{"key":"09","name":"Bayern"}},{"name":"Reuterstr.","postalCode":"97084","locality":"Würzburg","municipality":{"key":"09663000","name":"Würzburg","type":"Kreisfreie_Stadt"},"district":{"key":"09663","name":"Würzburg","type":"Kreisfreie_Stadt"},"federalState":{"key":"09","name":"Bayern"}},{"name":"Rhönstr.","postalCode":"97080","locality":"Würzburg","municipality":{"key":"09663000","name":"Würzburg","type":"Kreisfreie_Stadt"},"district":{"key":"09663","name":"Würzburg","type":"Kreisfreie_Stadt"},"federalState":{"key":"09","name":"Bayern"}},{"name":"Richard-Strauss-Str.","postalCode":"97074","locality":"Würzburg","municipality":{"key":"09663000","name":"Würzburg","type":"Kreisfreie_Stadt"},"district":{"key":"09663","name":"Würzburg","type":"Kreisfreie_Stadt"},"federalState":{"key":"09","name":"Bayern"}},{"name":"Richard-Wagner-Str.","postalCode":"97074","locality":"Würzburg","municipality":{"key":"09663000","name":"Würzburg","type":"Kreisfreie_Stadt"},"district":{"key":"09663","name":"Würzburg","type":"Kreisfreie_Stadt"},"federalState":{"key":"09","name":"Bayern"}},{"name":"Richterterrasse","postalCode":"97082","locality":"Würzburg","municipality":{"key":"09663000","name":"Würzburg","type":"Kreisfreie_Stadt"},"district":{"key":"09663","name":"Würzburg","type":"Kreisfreie_Stadt"},"federalState":{"key":"09","name":"Bayern"}},{"name":"Riedelspfad","postalCode":"97080","locality":"Würzburg","municipality":{"key":"09663000","name":"Würzburg","type":"Kreisfreie_Stadt"},"district":{"key":"09663","name":"Würzburg","type":"Kreisfreie_Stadt"},"federalState":{"key":"09","name":"Bayern"}},{"name":"Riedener Str.","postalCode":"97262","locality":"Hausen b. Würzburg","municipality":{"key":"09679143","name":"Hausen b.Würzburg","type":"Kreisangehörige_Gemeinde"},"district":{"key":"09679","name":"Würzburg","type":"Landkreis"},"federalState":{"key":"09","name":"Bayern"}},{"name":"Riedstr.","postalCode":"97076","locality":"Würzburg","municipality":{"key":"09663000","name":"Würzburg","type":"Kreisfreie_Stadt"},"district":{"key":"09663","name":"Würzburg","type":"Kreisfreie_Stadt"},"federalState":{"key":"09","name":"Bayern"}},{"name":"Riemenschneiderstr.","postalCode":"97072","locality":"Würzburg","municipality":{"key":"09663000","name":"Würzburg","type":"Kreisfreie_Stadt"},"district":{"key":"09663","name":"Würzburg","type":"Kreisfreie_Stadt"},"federalState":{"key":"09","name":"Bayern"}},{"name":"Rimparer Steig","postalCode":"97080","locality":"Würzburg","municipality":{"key":"09663000","name":"Würzburg","type":"Kreisfreie_Stadt"},"district":{"key":"09663","name":"Würzburg","type":"Kreisfreie_Stadt"},"federalState":{"key":"09","name":"Bayern"}},{"name":"Rimparer Str.","postalCode":"97080","locality":"Würzburg","municipality":{"key":"09663000","name":"Würzburg","type":"Kreisfreie_Stadt"},"district":{"key":"09663","name":"Würzburg","type":"Kreisfreie_Stadt"},"federalState":{"key":"09","name":"Bayern"}},{"name":"Ringpark Berliner Platz","postalCode":"97080","locality":"Würzburg","municipality":{"key":"09663000","name":"Würzburg","type":"Kreisfreie_Stadt"},"district":{"key":"09663","name":"Würzburg","type":"Kreisfreie_Stadt"},"federalState":{"key":"09","name":"Bayern"}},{"name":"Ringpark Haugerglacis","postalCode":"97070","locality":"Würzburg","municipality":{"key":"09663000","name":"Würzburg","type":"Kreisfreie_Stadt"},"district":{"key":"09663","name":"Würzburg","type":"Kreisfreie_Stadt"},"federalState":{"key":"09","name":"Bayern"}},{"name":"Ringpark Husarenwäldchen","postalCode":"97070","locality":"Würzburg","municipality":{"key":"09663000","name":"Würzburg","type":"Kreisfreie_Stadt"},"district":{"key":"09663","name":"Würzburg","type":"Kreisfreie_Stadt"},"federalState":{"key":"09","name":"Bayern"}},{"name":"Ringpark Klein-Nizza","postalCode":"97070","locality":"Würzburg","municipality":{"key":"09663000","name":"Würzburg","type":"Kreisfreie_Stadt"},"district":{"key":"09663","name":"Würzburg","type":"Kreisfreie_Stadt"},"federalState":{"key":"09","name":"Bayern"}},{"name":"Ringpark Rennweger Glacis","postalCode":"97070","locality":"Würzburg","municipality":{"key":"09663000","name":"Würzburg","type":"Kreisfreie_Stadt"},"district":{"key":"09663","name":"Würzburg","type":"Kreisfreie_Stadt"},"federalState":{"key":"09","name":"Bayern"}},{"name":"Ringpark Sanderglacis","postalCode":"97070","locality":"Würzburg","municipality":{"key":"09663000","name":"Würzburg","type":"Kreisfreie_Stadt"},"district":{"key":"09663","name":"Würzburg","type":"Kreisfreie_Stadt"},"federalState":{"key":"09","name":"Bayern"}},{"name":"Ringstr.","postalCode":"97080","locality":"Würzburg","municipality":{"key":"09663000","name":"Würzburg","type":"Kreisfreie_Stadt"},"district":{"key":"09663","name":"Würzburg","type":"Kreisfreie_Stadt"},"federalState":{"key":"09","name":"Bayern"}},{"name":"Ringstr.","postalCode":"97262","locality":"Hausen b. Würzburg","municipality":{"key":"09679143","name":"Hausen b.Würzburg","type":"Kreisangehörige_Gemeinde"},"district":{"key":"09679","name":"Würzburg","type":"Landkreis"},"federalState":{"key":"09","name":"Bayern"}},{"name":"Rittergasse","postalCode":"97070","locality":"Würzburg","municipality":{"key":"09663000","name":"Würzburg","type":"Kreisfreie_Stadt"},"district":{"key":"09663","name":"Würzburg","type":"Kreisfreie_Stadt"},"federalState":{"key":"09","name":"Bayern"}},{"name":"Ritterstiftstr.","postalCode":"97076","locality":"Würzburg","municipality":{"key":"09663000","name":"Würzburg","type":"Kreisfreie_Stadt"},"district":{"key":"09663","name":"Würzburg","type":"Kreisfreie_Stadt"},"federalState":{"key":"09","name":"Bayern"}},{"name":"Robert-Kirchhoff-Str.","postalCode":"97076","locality":"Würzburg","municipality":{"key":"09663000","name":"Würzburg","type":"Kreisfreie_Stadt"},"district":{"key":"09663","name":"Würzburg","type":"Kreisfreie_Stadt"},"federalState":{"key":"09","name":"Bayern"}},{"name":"Rochesterstr.","postalCode":"97084","locality":"Würzburg","municipality":{"key":"09663000","name":"Würzburg","type":"Kreisfreie_Stadt"},"district":{"key":"09663","name":"Würzburg","type":"Kreisfreie_Stadt"},"federalState":{"key":"09","name":"Bayern"}},{"name":"Rochusgasse","postalCode":"97080","locality":"Würzburg","municipality":{"key":"09663000","name":"Würzburg","type":"Kreisfreie_Stadt"},"district":{"key":"09663","name":"Würzburg","type":"Kreisfreie_Stadt"},"federalState":{"key":"09","name":"Bayern"}},{"name":"Roland-Frank-Str.","postalCode":"97076","locality":"Würzburg","municipality":{"key":"09663000","name":"Würzburg","type":"Kreisfreie_Stadt"},"district":{"key":"09663","name":"Würzburg","type":"Kreisfreie_Stadt"},"federalState":{"key":"09","name":"Bayern"}},{"name":"Römer Str.","postalCode":"97084","locality":"Würzburg","municipality":{"key":"09663000","name":"Würzburg","type":"Kreisfreie_Stadt"},"district":{"key":"09663","name":"Würzburg","type":"Kreisfreie_Stadt"},"federalState":{"key":"09","name":"Bayern"}},{"name":"Römische Klinge","postalCode":"97078","locality":"Würzburg","municipality":{"key":"09663000","name":"Würzburg","type":"Kreisfreie_Stadt"},"district":{"key":"09663","name":"Würzburg","type":"Kreisfreie_Stadt"},"federalState":{"key":"09","name":"Bayern"}},{"name":"Röntgenring","postalCode":"97070","locality":"Würzburg","municipality":{"key":"09663000","name":"Würzburg","type":"Kreisfreie_Stadt"},"district":{"key":"09663","name":"Würzburg","type":"Kreisfreie_Stadt"},"federalState":{"key":"09","name":"Bayern"}},{"name":"Rosa-Hahn-Str.","postalCode":"97078","locality":"Würzburg","municipality":{"key":"09663000","name":"Würzburg","type":"Kreisfreie_Stadt"},"district":{"key":"09663","name":"Würzburg","type":"Kreisfreie_Stadt"},"federalState":{"key":"09","name":"Bayern"}},{"name":"Rosenbachpark","postalCode":"97070","locality":"Würzburg","municipality":{"key":"09663000","name":"Würzburg","type":"Kreisfreie_Stadt"},"district":{"key":"09663","name":"Würzburg","type":"Kreisfreie_Stadt"},"federalState":{"key":"09","name":"Bayern"}},{"name":"Rosengasse","postalCode":"97070","locality":"Würzburg","municipality":{"key":"09663000","name":"Würzburg","type":"Kreisfreie_Stadt"},"district":{"key":"09663","name":"Würzburg","type":"Kreisfreie_Stadt"},"federalState":{"key":"09","name":"Bayern"}},{"name":"Rosenmühlweg","postalCode":"97076","locality":"Würzburg","municipality":{"key":"09663000","name":"Würzburg","type":"Kreisfreie_Stadt"},"district":{"key":"09663","name":"Würzburg","type":"Kreisfreie_Stadt"},"federalState":{"key":"09","name":"Bayern"}},{"name":"Schönfelder Str.","postalCode":"97271","locality":"Kleinrinderfeld","municipality":{"key":"09679155","name":"Kleinrinderfeld","type":"Kreisangehörige_Gemeinde"},"district":{"key":"09679","name":"Würzburg","type":"Landkreis"},"federalState":{"key":"09","name":"Bayern"}},{"name":"Sudetenstr.","postalCode":"97271","locality":"Kleinrinderfeld","municipality":{"key":"09679155","name":"Kleinrinderfeld","type":"Kreisangehörige_Gemeinde"},"district":{"key":"09679","name":"Würzburg","type":"Landkreis"},"federalState":{"key":"09","name":"Bayern"}},{"name":"Tannenstr.","postalCode":"97271","locality":"Kleinrinderfeld","municipality":{"key":"09679155","name":"Kleinrinderfeld","type":"Kreisangehörige_Gemeinde"},"district":{"key":"09679","name":"Würzburg","type":"Landkreis"},"federalState":{"key":"09","name":"Bayern"}},{"name":"Ulmenweg","postalCode":"97271","locality":"Kleinrinderfeld","municipality":{"key":"09679155","name":"Kleinrinderfeld","type":"Kreisangehörige_Gemeinde"},"district":{"key":"09679","name":"Würzburg","type":"Landkreis"},"federalState":{"key":"09","name":"Bayern"}},{"name":"Valentin-Becker-Str.","postalCode":"97072","locality":"Würzburg","municipality":{"key":"09663000","name":"Würzburg","type":"Kreisfreie_Stadt"},"district":{"key":"09663","name":"Würzburg","type":"Kreisfreie_Stadt"},"federalState":{"key":"09","name":"Bayern"}},{"name":"Veitshöchheimer Str.","postalCode":"97070","locality":"Würzburg","municipality":{"key":"09663000","name":"Würzburg","type":"Kreisfreie_Stadt"},"district":{"key":"09663","name":"Würzburg","type":"Kreisfreie_Stadt"},"federalState":{"key":"09","name":"Bayern"}},{"name":"Veitshöchheimer Str.","postalCode":"97080","locality":"Würzburg","municipality":{"key":"09663000","name":"Würzburg","type":"Kreisfreie_Stadt"},"district":{"key":"09663","name":"Würzburg","type":"Kreisfreie_Stadt"},"federalState":{"key":"09","name":"Bayern"}},{"name":"Versbacher Landstr.","postalCode":"97078","locality":"Würzburg","municipality":{"key":"09663000","name":"Würzburg","type":"Kreisfreie_Stadt"},"district":{"key":"09663","name":"Würzburg","type":"Kreisfreie_Stadt"},"federalState":{"key":"09","name":"Bayern"}},{"name":"Versbacher Röthe","postalCode":"97078","locality":"Würzburg","municipality":{"key":"09663000","name":"Würzburg","type":"Kreisfreie_Stadt"},"district":{"key":"09663","name":"Würzburg","type":"Kreisfreie_Stadt"},"federalState":{"key":"09","name":"Bayern"}},{"name":"Versbacher Str.","postalCode":"97078","locality":"Würzburg","municipality":{"key":"09663000","name":"Würzburg","type":"Kreisfreie_Stadt"},"district":{"key":"09663","name":"Würzburg","type":"Kreisfreie_Stadt"},"federalState":{"key":"09","name":"Bayern"}},{"name":"Vierwindenweg","postalCode":"97078","locality":"Würzburg","municipality":{"key":"09663000","name":"Würzburg","type":"Kreisfreie_Stadt"},"district":{"key":"09663","name":"Würzburg","type":"Kreisfreie_Stadt"},"federalState":{"key":"09","name":"Bayern"}},{"name":"Villengarten","postalCode":"97082","locality":"Würzburg","municipality":{"key":"09663000","name":"Würzburg","type":"Kreisfreie_Stadt"},"district":{"key":"09663","name":"Würzburg","type":"Kreisfreie_Stadt"},"federalState":{"key":"09","name":"Bayern"}},{"name":"Virchowstr.","postalCode":"97072","locality":"Würzburg","municipality":{"key":"09663000","name":"Würzburg","type":"Kreisfreie_Stadt"},"district":{"key":"09663","name":"Würzburg","type":"Kreisfreie_Stadt"},"federalState":{"key":"09","name":"Bayern"}},{"name":"Vogelsangweg","postalCode":"97076","locality":"Würzburg","municipality":{"key":"09663000","name":"Würzburg","type":"Kreisfreie_Stadt"},"district":{"key":"09663","name":"Würzburg","type":"Kreisfreie_Stadt"},"federalState":{"key":"09","name":"Bayern"}},{"name":"Voglerstr.","postalCode":"97074","locality":"Würzburg","municipality":{"key":"09663000","name":"Würzburg","type":"Kreisfreie_Stadt"},"district":{"key":"09663","name":"Würzburg","type":"Kreisfreie_Stadt"},"federalState":{"key":"09","name":"Bayern"}},{"name":"Von-Luxburg-Str.","postalCode":"97074","locality":"Würzburg","municipality":{"key":"09663000","name":"Würzburg","type":"Kreisfreie_Stadt"},"district":{"key":"09663","name":"Würzburg","type":"Kreisfreie_Stadt"},"federalState":{"key":"09","name":"Bayern"}},{"name":"Von-Mieg-Str.","postalCode":"97082","locality":"Würzburg","municipality":{"key":"09663000","name":"Würzburg","type":"Kreisfreie_Stadt"},"district":{"key":"09663","name":"Würzburg","type":"Kreisfreie_Stadt"},"federalState":{"key":"09","name":"Bayern"}},{"name":"Wacholderweg","postalCode":"97084","locality":"Würzburg","municipality":{"key":"09663000","name":"Würzburg","type":"Kreisfreie_Stadt"},"district":{"key":"09663","name":"Würzburg","type":"Kreisfreie_Stadt"},"federalState":{"key":"09","name":"Bayern"}},{"name":"Wagnerplatz","postalCode":"97080","locality":"Würzburg","municipality":{"key":"09663000","name":"Würzburg","type":"Kreisfreie_Stadt"},"district":{"key":"09663","name":"Würzburg","type":"Kreisfreie_Stadt"},"federalState":{"key":"09","name":"Bayern"}},{"name":"Wagnerstr.","postalCode":"97080","locality":"Würzburg","municipality":{"key":"09663000","name":"Würzburg","type":"Kreisfreie_Stadt"},"district":{"key":"09663","name":"Würzburg","type":"Kreisfreie_Stadt"},"federalState":{"key":"09","name":"Bayern"}},{"name":"Waidmannsau","postalCode":"97084","locality":"Würzburg","municipality":{"key":"09663000","name":"Würzburg","type":"Kreisfreie_Stadt"},"district":{"key":"09663","name":"Würzburg","type":"Kreisfreie_Stadt"},"federalState":{"key":"09","name":"Bayern"}},{"name":"Waidmannsteige","postalCode":"97076","locality":"Würzburg","municipality":{"key":"09663000","name":"Würzburg","type":"Kreisfreie_Stadt"},"district":{"key":"09663","name":"Würzburg","type":"Kreisfreie_Stadt"},"federalState":{"key":"09","name":"Bayern"}},{"name":"Waldkugelweg","postalCode":"97082","locality":"Würzburg","municipality":{"key":"09663000","name":"Würzburg","type":"Kreisfreie_Stadt"},"district":{"key":"09663","name":"Würzburg","type":"Kreisfreie_Stadt"},"federalState":{"key":"09","name":"Bayern"}},{"name":"Walldürner Weg","postalCode":"97082","locality":"Würzburg","municipality":{"key":"09663000","name":"Würzburg","type":"Kreisfreie_Stadt"},"district":{"key":"09663","name":"Würzburg","type":"Kreisfreie_Stadt"},"federalState":{"key":"09","name":"Bayern"}},{"name":"Wallgasse","postalCode":"97070","locality":"Würzburg","municipality":{"key":"09663000","name":"Würzburg","type":"Kreisfreie_Stadt"},"district":{"key":"09663","name":"Würzburg","type":"Kreisfreie_Stadt"},"federalState":{"key":"09","name":"Bayern"}},{"name":"Walter-Stier-Str.","postalCode":"97078","locality":"Würzburg","municipality":{"key":"09663000","name":"Würzburg","type":"Kreisfreie_Stadt"},"district":{"key":"09663","name":"Würzburg","type":"Kreisfreie_Stadt"},"federalState":{"key":"09","name":"Bayern"}},{"name":"Walther-Nernst-Str.","postalCode":"97080","locality":"Würzburg","municipality":{"key":"09663000","name":"Würzburg","type":"Kreisfreie_Stadt"},"district":{"key":"09663","name":"Würzburg","type":"Kreisfreie_Stadt"},"federalState":{"key":"09","name":"Bayern"}},{"name":"Waltherstr.","postalCode":"97074","locality":"Würzburg","municipality":{"key":"09663000","name":"Würzburg","type":"Kreisfreie_Stadt"},"district":{"key":"09663","name":"Würzburg","type":"Kreisfreie_Stadt"},"federalState":{"key":"09","name":"Bayern"}},{"name":"Walther-von-der-Vogelweide-Str.","postalCode":"97074","locality":"Würzburg","municipality":{"key":"09663000","name":"Würzburg","type":"Kreisfreie_Stadt"},"district":{"key":"09663","name":"Würzburg","type":"Kreisfreie_Stadt"},"federalState":{"key":"09","name":"Bayern"}},{"name":"Wandweg","postalCode":"97080","locality":"Würzburg","municipality":{"key":"09663000","name":"Würzburg","type":"Kreisfreie_Stadt"},"district":{"key":"09663","name":"Würzburg","type":"Kreisfreie_Stadt"},"federalState":{"key":"09","name":"Bayern"}},{"name":"Warschauer Str.","postalCode":"97084","locality":"Würzburg","municipality":{"key":"09663000","name":"Würzburg","type":"Kreisfreie_Stadt"},"district":{"key":"09663","name":"Würzburg","type":"Kreisfreie_Stadt"},"federalState":{"key":"09","name":"Bayern"}},{"name":"Wasen","postalCode":"97262","locality":"Hausen b. Würzburg","municipality":{"key":"09679143","name":"Hausen b.Würzburg","type":"Kreisangehörige_Gemeinde"},"district":{"key":"09679","name":"Würzburg","type":"Landkreis"},"federalState":{"key":"09","name":"Bayern"}},{"name":"Weg zum Sportplatz","postalCode":"97076","locality":"Würzburg","municipality":{"key":"09663000","name":"Würzburg","type":"Kreisfreie_Stadt"},"district":{"key":"09663","name":"Würzburg","type":"Kreisfreie_Stadt"},"federalState":{"key":"09","name":"Bayern"}},{"name":"Weg zur Neuen Welt","postalCode":"97082","locality":"Würzburg","municipality":{"key":"09663000","name":"Würzburg","type":"Kreisfreie_Stadt"},"district":{"key":"09663","name":"Würzburg","type":"Kreisfreie_Stadt"},"federalState":{"key":"09","name":"Bayern"}},{"name":"Weg zur Zeller Waldspitze","postalCode":"97082","locality":"Würzburg","municipality":{"key":"09663000","name":"Würzburg","type":"Kreisfreie_Stadt"},"district":{"key":"09663","name":"Würzburg","type":"Kreisfreie_Stadt"},"federalState":{"key":"09","name":"Bayern"}},{"name":"Weidenstr.","postalCode":"97084","locality":"Würzburg","municipality":{"key":"09663000","name":"Würzburg","type":"Kreisfreie_Stadt"},"district":{"key":"09663","name":"Würzburg","type":"Kreisfreie_Stadt"},"federalState":{"key":"09","name":"Bayern"}},{"name":"Weinbergweg","postalCode":"97080","locality":"Würzburg","municipality":{"key":"09663000","name":"Würzburg","type":"Kreisfreie_Stadt"},"district":{"key":"09663","name":"Würzburg","type":"Kreisfreie_Stadt"},"federalState":{"key":"09","name":"Bayern"}},{"name":"Weingartenstr.","postalCode":"97072","locality":"Würzburg","municipality":{"key":"09663000","name":"Würzburg","type":"Kreisfreie_Stadt"},"district":{"key":"09663","name":"Würzburg","type":"Kreisfreie_Stadt"},"federalState":{"key":"09","name":"Bayern"}},{"name":"Weißdornweg","postalCode":"97084","locality":"Würzburg","municipality":{"key":"09663000","name":"Würzburg","type":"Kreisfreie_Stadt"},"district":{"key":"09663","name":"Würzburg","type":"Kreisfreie_Stadt"},"federalState":{"key":"09","name":"Bayern"}},{"name":"Weißenburgstr.","postalCode":"97082","locality":"Würzburg","municipality":{"key":"09663000","name":"Würzburg","type":"Kreisfreie_Stadt"},"district":{"key":"09663","name":"Würzburg","type":"Kreisfreie_Stadt"},"federalState":{"key":"09","name":"Bayern"}},{"name":"Weißer Bildweg","postalCode":"97080","locality":"Würzburg","municipality":{"key":"09663000","name":"Würzburg","type":"Kreisfreie_Stadt"},"district":{"key":"09663","name":"Würzburg","type":"Kreisfreie_Stadt"},"federalState":{"key":"09","name":"Bayern"}},{"name":"Wellhöferweg","postalCode":"97084","locality":"Würzburg","municipality":{"key":"09663000","name":"Würzburg","type":"Kreisfreie_Stadt"},"district":{"key":"09663","name":"Würzburg","type":"Kreisfreie_Stadt"},"federalState":{"key":"09","name":"Bayern"}},{"name":"Welzstr.","postalCode":"97080","locality":"Würzburg","municipality":{"key":"09663000","name":"Würzburg","type":"Kreisfreie_Stadt"},"district":{"key":"09663","name":"Würzburg","type":"Kreisfreie_Stadt"},"federalState":{"key":"09","name":"Bayern"}},{"name":"Wendelweg","postalCode":"97084","locality":"Würzburg","municipality":{"key":"09663000","name":"Würzburg","type":"Kreisfreie_Stadt"},"district":{"key":"09663","name":"Würzburg","type":"Kreisfreie_Stadt"},"federalState":{"key":"09","name":"Bayern"}},{"name":"Wenzelstr.","postalCode":"97084","locality":"Würzburg","municipality":{"key":"09663000","name":"Würzburg","type":"Kreisfreie_Stadt"},"district":{"key":"09663","name":"Würzburg","type":"Kreisfreie_Stadt"},"federalState":{"key":"09","name":"Bayern"}},{"name":"Werkingstr.","postalCode":"97084","locality":"Würzburg","municipality":{"key":"09663000","name":"Würzburg","type":"Kreisfreie_Stadt"},"district":{"key":"09663","name":"Würzburg","type":"Kreisfreie_Stadt"},"federalState":{"key":"09","name":"Bayern"}},{"name":"Werner-von-Siemens-Str.","postalCode":"97076","locality":"Würzburg","municipality":{"key":"09663000","name":"Würzburg","type":"Kreisfreie_Stadt"},"district":{"key":"09663","name":"Würzburg","type":"Kreisfreie_Stadt"},"federalState":{"key":"09","name":"Bayern"}},{"name":"Wickenmayerstr.","postalCode":"97080","locality":"Würzburg","municipality":{"key":"09663000","name":"Würzburg","type":"Kreisfreie_Stadt"},"district":{"key":"09663","name":"Würzburg","type":"Kreisfreie_Stadt"},"federalState":{"key":"09","name":"Bayern"}},{"name":"Wiener Ring","postalCode":"97084","locality":"Würzburg","municipality":{"key":"09663000","name":"Würzburg","type":"Kreisfreie_Stadt"},"district":{"key":"09663","name":"Würzburg","type":"Kreisfreie_Stadt"},"federalState":{"key":"09","name":"Bayern"}},{"name":"Wilhelm-Dahl-Str.","postalCode":"97082","locality":"Würzburg","municipality":{"key":"09663000","name":"Würzburg","type":"Kreisfreie_Stadt"},"district":{"key":"09663","name":"Würzburg","type":"Kreisfreie_Stadt"},"federalState":{"key":"09","name":"Bayern"}},{"name":"Willy-Brandt-Kai","postalCode":"97070","locality":"Würzburg","municipality":{"key":"09663000","name":"Würzburg","type":"Kreisfreie_Stadt"},"district":{"key":"09663","name":"Würzburg","type":"Kreisfreie_Stadt"},"federalState":{"key":"09","name":"Bayern"}},{"name":"Winterhäuser Str.","postalCode":"97084","locality":"Würzburg","municipality":{"key":"09663000","name":"Würzburg","type":"Kreisfreie_Stadt"},"district":{"key":"09663","name":"Würzburg","type":"Kreisfreie_Stadt"},"federalState":{"key":"09","name":"Bayern"}},{"name":"Winterleitenweg","postalCode":"97082","locality":"Würzburg","municipality":{"key":"09663000","name":"Würzburg","type":"Kreisfreie_Stadt"},"district":{"key":"09663","name":"Würzburg","type":"Kreisfreie_Stadt"},"federalState":{"key":"09","name":"Bayern"}},{"name":"Wirsbergstr.","postalCode":"97070","locality":"Würzburg","municipality":{"key":"09663000","name":"Würzburg","type":"Kreisfreie_Stadt"},"district":{"key":"09663","name":"Würzburg","type":"Kreisfreie_Stadt"},"federalState":{"key":"09","name":"Bayern"}},{"name":"Wittelsbacherplatz","postalCode":"97074","locality":"Würzburg","municipality":{"key":"09663000","name":"Würzburg","type":"Kreisfreie_Stadt"},"district":{"key":"09663","name":"Würzburg","type":"Kreisfreie_Stadt"},"federalState":{"key":"09","name":"Bayern"}},{"name":"Wittelsbacherstr.","postalCode":"97074","locality":"Würzburg","municipality":{"key":"09663000","name":"Würzburg","type":"Kreisfreie_Stadt"},"district":{"key":"09663","name":"Würzburg","type":"Kreisfreie_Stadt"},"federalState":{"key":"09","name":"Bayern"}},{"name":"Wölffelstr.","postalCode":"97072","locality":"Würzburg","municipality":{"key":"09663000","name":"Würzburg","type":"Kreisfreie_Stadt"},"district":{"key":"09663","name":"Würzburg","type":"Kreisfreie_Stadt"},"federalState":{"key":"09","name":"Bayern"}},{"name":"Wolfgang-Lenz-Weg","postalCode":"97082","locality":"Würzburg","municipality":{"key":"09663000","name":"Würzburg","type":"Kreisfreie_Stadt"},"district":{"key":"09663","name":"Würzburg","type":"Kreisfreie_Stadt"},"federalState":{"key":"09","name":"Bayern"}},{"name":"Wolfhartsgasse","postalCode":"97070","locality":"Würzburg","municipality":{"key":"09663000","name":"Würzburg","type":"Kreisfreie_Stadt"},"district":{"key":"09663","name":"Würzburg","type":"Kreisfreie_Stadt"},"federalState":{"key":"09","name":"Bayern"}},{"name":"Wolframstr.","postalCode":"97070","locality":"Würzburg","municipality":{"key":"09663000","name":"Würzburg","type":"Kreisfreie_Stadt"},"district":{"key":"09663","name":"Würzburg","type":"Kreisfreie_Stadt"},"federalState":{"key":"09","name":"Bayern"}},{"name":"Wolfskeelstr.","postalCode":"97084","locality":"Würzburg","municipality":{"key":"09663000","name":"Würzburg","type":"Kreisfreie_Stadt"},"district":{"key":"09663","name":"Würzburg","type":"Kreisfreie_Stadt"},"federalState":{"key":"09","name":"Bayern"}},{"name":"Wöllergasse","postalCode":"97070","locality":"Würzburg","municipality":{"key":"09663000","name":"Würzburg","type":"Kreisfreie_Stadt"},"district":{"key":"09663","name":"Würzburg","type":"Kreisfreie_Stadt"},"federalState":{"key":"09","name":"Bayern"}},{"name":"Wörthstr.","postalCode":"97082","locality":"Würzburg","municipality":{"key":"09663000","name":"Würzburg","type":"Kreisfreie_Stadt"},"district":{"key":"09663","name":"Würzburg","type":"Kreisfreie_Stadt"},"federalState":{"key":"09","name":"Bayern"}},{"name":"Wredestr.","postalCode":"97082","locality":"Würzburg","municipality":{"key":"09663000","name":"Würzburg","type":"Kreisfreie_Stadt"},"district":{"key":"09663","name":"Würzburg","type":"Kreisfreie_Stadt"},"federalState":{"key":"09","name":"Bayern"}},{"name":"Würzburger Höhe","postalCode":"97084","locality":"Würzburg","municipality":{"key":"09663000","name":"Würzburg","type":"Kreisfreie_Stadt"},"district":{"key":"09663","name":"Würzburg","type":"Kreisfreie_Stadt"},"federalState":{"key":"09","name":"Bayern"}},{"name":"Würzburger Str.","postalCode":"97074","locality":"Würzburg","municipality":{"key":"09663000","name":"Würzburg","type":"Kreisfreie_Stadt"},"district":{"key":"09663","name":"Würzburg","type":"Kreisfreie_Stadt"},"federalState":{"key":"09","name":"Bayern"}},{"name":"Würzburger Str.","postalCode":"97084","locality":"Würzburg","municipality":{"key":"09663000","name":"Würzburg","type":"Kreisfreie_Stadt"},"district":{"key":"09663","name":"Würzburg","type":"Kreisfreie_Stadt"},"federalState":{"key":"09","name":"Bayern"}},{"name":"Ysenburgstr.","postalCode":"97082","locality":"Würzburg","municipality":{"key":"09663000","name":"Würzburg","type":"Kreisfreie_Stadt"},"district":{"key":"09663","name":"Würzburg","type":"Kreisfreie_Stadt"},"federalState":{"key":"09","name":"Bayern"}},{"name":"Y-Spange","postalCode":"97084","locality":"Würzburg","municipality":{"key":"09663000","name":"Würzburg","type":"Kreisfreie_Stadt"},"district":{"key":"09663","name":"Würzburg","type":"Kreisfreie_Stadt"},"federalState":{"key":"09","name":"Bayern"}},{"name":"Zum Sportplatz","postalCode":"97271","locality":"Kleinrinderfeld","municipality":{"key":"09679155","name":"Kleinrinderfeld","type":"Kreisangehörige_Gemeinde"},"district":{"key":"09679","name":"Würzburg","type":"Landkreis"},"federalState":{"key":"09","name":"Bayern"}},{"name":"Äußere Aumühlstr.","postalCode":"97076","locality":"Würzburg","municipality":{"key":"09663000","name":"Würzburg","type":"Kreisfreie_Stadt"},"district":{"key":"09663","name":"Würzburg","type":"Kreisfreie_Stadt"},"federalState":{"key":"09","name":"Bayern"}},{"name":"Äußerer Hublandweg","postalCode":"97074","locality":"Würzburg","municipality":{"key":"09663000","name":"Würzburg","type":"Kreisfreie_Stadt"},"district":{"key":"09663","name":"Würzburg","type":"Kreisfreie_Stadt"},"federalState":{"key":"09","name":"Bayern"}},{"name":"Äußerer Neubergweg","postalCode":"97074","locality":"Würzburg","municipality":{"key":"09663000","name":"Würzburg","type":"Kreisfreie_Stadt"},"district":{"key":"09663","name":"Würzburg","type":"Kreisfreie_Stadt"},"federalState":{"key":"09","name":"Bayern"}},{"name":"Äußerer Tränkeweg","postalCode":"97074","locality":"Würzburg","municipality":{"key":"09663000","name":"Würzburg","type":"Kreisfreie_Stadt"},"district":{"key":"09663","name":"Würzburg","type":"Kreisfreie_Stadt"},"federalState":{"key":"09","name":"Bayern"}},{"name":"Öhlberg","postalCode":"97080","locality":"Würzburg","municipality":{"key":"09663000","name":"Würzburg","type":"Kreisfreie_Stadt"},"district":{"key":"09663","name":"Würzburg","type":"Kreisfreie_Stadt"},"federalState":{"key":"09","name":"Bayern"}},]