[{"name":"Ahrentaler Str.","postalCode":"53489","locality":"Sinzig","municipality":{"key":"07131077","name":"Sinzig, Stadt","type":"Stadt"},"district":{"key":"07131","name":"Ahrweiler","type":"Landkreis"},"federalState":{"key":"07","name":"Rheinland-Pfalz"}},{"name":"Ahrtalstr.","postalCode":"53489","locality":"Sinzig","municipality":{"key":"07131077","name":"Sinzig, Stadt","type":"Stadt"},"district":{"key":"07131","name":"Ahrweiler","type":"Landkreis"},"federalState":{"key":"07","name":"Rheinland-Pfalz"}},{"name":"Ahrweg","postalCode":"53489","locality":"Sinzig","municipality":{"key":"07131077","name":"Sinzig, Stadt","type":"Stadt"},"district":{"key":"07131","name":"Ahrweiler","type":"Landkreis"},"federalState":{"key":"07","name":"Rheinland-Pfalz"}},{"name":"Albert-Schweitzer-Str.","postalCode":"53489","locality":"Sinzig","municipality":{"key":"07131077","name":"Sinzig, Stadt","type":"Stadt"},"district":{"key":"07131","name":"Ahrweiler","type":"Landkreis"},"federalState":{"key":"07","name":"Rheinland-Pfalz"}},{"name":"Alfred-Ott-Str.","postalCode":"53489","locality":"Sinzig","municipality":{"key":"07131077","name":"Sinzig, Stadt","type":"Stadt"},"district":{"key":"07131","name":"Ahrweiler","type":"Landkreis"},"federalState":{"key":"07","name":"Rheinland-Pfalz"}},{"name":"Alter Gönnersdorfer Weg","postalCode":"53489","locality":"Sinzig","municipality":{"key":"07131077","name":"Sinzig, Stadt","type":"Stadt"},"district":{"key":"07131","name":"Ahrweiler","type":"Landkreis"},"federalState":{"key":"07","name":"Rheinland-Pfalz"}},{"name":"Alter Löhndorfer Weg","postalCode":"53489","locality":"Sinzig","municipality":{"key":"07131077","name":"Sinzig, Stadt","type":"Stadt"},"district":{"key":"07131","name":"Ahrweiler","type":"Landkreis"},"federalState":{"key":"07","name":"Rheinland-Pfalz"}},{"name":"Alte Str.","postalCode":"53489","locality":"Sinzig","municipality":{"key":"07131077","name":"Sinzig, Stadt","type":"Stadt"},"district":{"key":"07131","name":"Ahrweiler","type":"Landkreis"},"federalState":{"key":"07","name":"Rheinland-Pfalz"}},{"name":"Am Dorn","postalCode":"53489","locality":"Sinzig","municipality":{"key":"07131077","name":"Sinzig, Stadt","type":"Stadt"},"district":{"key":"07131","name":"Ahrweiler","type":"Landkreis"},"federalState":{"key":"07","name":"Rheinland-Pfalz"}},{"name":"Am Ehrenmal","postalCode":"53489","locality":"Sinzig","municipality":{"key":"07131077","name":"Sinzig, Stadt","type":"Stadt"},"district":{"key":"07131","name":"Ahrweiler","type":"Landkreis"},"federalState":{"key":"07","name":"Rheinland-Pfalz"}},{"name":"Am Finkenstein","postalCode":"53489","locality":"Sinzig","municipality":{"key":"07131077","name":"Sinzig, Stadt","type":"Stadt"},"district":{"key":"07131","name":"Ahrweiler","type":"Landkreis"},"federalState":{"key":"07","name":"Rheinland-Pfalz"}},{"name":"Am Frankenbach","postalCode":"53489","locality":"Sinzig","municipality":{"key":"07131077","name":"Sinzig, Stadt","type":"Stadt"},"district":{"key":"07131","name":"Ahrweiler","type":"Landkreis"},"federalState":{"key":"07","name":"Rheinland-Pfalz"}},{"name":"Am Hellenberg","postalCode":"53489","locality":"Sinzig","municipality":{"key":"07131077","name":"Sinzig, Stadt","type":"Stadt"},"district":{"key":"07131","name":"Ahrweiler","type":"Landkreis"},"federalState":{"key":"07","name":"Rheinland-Pfalz"}},{"name":"Am Kurgarten","postalCode":"53489","locality":"Sinzig","municipality":{"key":"07131077","name":"Sinzig, Stadt","type":"Stadt"},"district":{"key":"07131","name":"Ahrweiler","type":"Landkreis"},"federalState":{"key":"07","name":"Rheinland-Pfalz"}},{"name":"Am Landgraben","postalCode":"53489","locality":"Sinzig","municipality":{"key":"07131077","name":"Sinzig, Stadt","type":"Stadt"},"district":{"key":"07131","name":"Ahrweiler","type":"Landkreis"},"federalState":{"key":"07","name":"Rheinland-Pfalz"}},{"name":"Am Leerender","postalCode":"53489","locality":"Sinzig","municipality":{"key":"07131077","name":"Sinzig, Stadt","type":"Stadt"},"district":{"key":"07131","name":"Ahrweiler","type":"Landkreis"},"federalState":{"key":"07","name":"Rheinland-Pfalz"}},{"name":"Am Rotberg","postalCode":"53489","locality":"Sinzig","municipality":{"key":"07131077","name":"Sinzig, Stadt","type":"Stadt"},"district":{"key":"07131","name":"Ahrweiler","type":"Landkreis"},"federalState":{"key":"07","name":"Rheinland-Pfalz"}},{"name":"Am Schlagberg","postalCode":"53489","locality":"Sinzig","municipality":{"key":"07131077","name":"Sinzig, Stadt","type":"Stadt"},"district":{"key":"07131","name":"Ahrweiler","type":"Landkreis"},"federalState":{"key":"07","name":"Rheinland-Pfalz"}},{"name":"Amselweg","postalCode":"53489","locality":"Sinzig","municipality":{"key":"07131077","name":"Sinzig, Stadt","type":"Stadt"},"district":{"key":"07131","name":"Ahrweiler","type":"Landkreis"},"federalState":{"key":"07","name":"Rheinland-Pfalz"}},{"name":"Am Sonnenberg","postalCode":"53489","locality":"Sinzig","municipality":{"key":"07131077","name":"Sinzig, Stadt","type":"Stadt"},"district":{"key":"07131","name":"Ahrweiler","type":"Landkreis"},"federalState":{"key":"07","name":"Rheinland-Pfalz"}},{"name":"Am Sportplatz","postalCode":"53489","locality":"Sinzig","municipality":{"key":"07131077","name":"Sinzig, Stadt","type":"Stadt"},"district":{"key":"07131","name":"Ahrweiler","type":"Landkreis"},"federalState":{"key":"07","name":"Rheinland-Pfalz"}},{"name":"Am Teich","postalCode":"53489","locality":"Sinzig","municipality":{"key":"07131077","name":"Sinzig, Stadt","type":"Stadt"},"district":{"key":"07131","name":"Ahrweiler","type":"Landkreis"},"federalState":{"key":"07","name":"Rheinland-Pfalz"}},{"name":"Am Wadenberg","postalCode":"53489","locality":"Sinzig","municipality":{"key":"07131077","name":"Sinzig, Stadt","type":"Stadt"},"district":{"key":"07131","name":"Ahrweiler","type":"Landkreis"},"federalState":{"key":"07","name":"Rheinland-Pfalz"}},{"name":"An der Tränk","postalCode":"53489","locality":"Sinzig","municipality":{"key":"07131077","name":"Sinzig, Stadt","type":"Stadt"},"district":{"key":"07131","name":"Ahrweiler","type":"Landkreis"},"federalState":{"key":"07","name":"Rheinland-Pfalz"}},{"name":"Angerstr.","postalCode":"53489","locality":"Sinzig","municipality":{"key":"07131077","name":"Sinzig, Stadt","type":"Stadt"},"district":{"key":"07131","name":"Ahrweiler","type":"Landkreis"},"federalState":{"key":"07","name":"Rheinland-Pfalz"}},{"name":"Assessorenweg","postalCode":"53489","locality":"Sinzig","municipality":{"key":"07131077","name":"Sinzig, Stadt","type":"Stadt"},"district":{"key":"07131","name":"Ahrweiler","type":"Landkreis"},"federalState":{"key":"07","name":"Rheinland-Pfalz"}},{"name":"Asternweg","postalCode":"53489","locality":"Sinzig","municipality":{"key":"07131077","name":"Sinzig, Stadt","type":"Stadt"},"district":{"key":"07131","name":"Ahrweiler","type":"Landkreis"},"federalState":{"key":"07","name":"Rheinland-Pfalz"}},{"name":"Auf dem Strengel","postalCode":"53489","locality":"Sinzig","municipality":{"key":"07131077","name":"Sinzig, Stadt","type":"Stadt"},"district":{"key":"07131","name":"Ahrweiler","type":"Landkreis"},"federalState":{"key":"07","name":"Rheinland-Pfalz"}},{"name":"Auf der Albach","postalCode":"53489","locality":"Sinzig","municipality":{"key":"07131077","name":"Sinzig, Stadt","type":"Stadt"},"district":{"key":"07131","name":"Ahrweiler","type":"Landkreis"},"federalState":{"key":"07","name":"Rheinland-Pfalz"}},{"name":"Ausdorferstr.","postalCode":"53489","locality":"Sinzig","municipality":{"key":"07131077","name":"Sinzig, Stadt","type":"Stadt"},"district":{"key":"07131","name":"Ahrweiler","type":"Landkreis"},"federalState":{"key":"07","name":"Rheinland-Pfalz"}},{"name":"Bachovenstr.","postalCode":"53489","locality":"Sinzig","municipality":{"key":"07131077","name":"Sinzig, Stadt","type":"Stadt"},"district":{"key":"07131","name":"Ahrweiler","type":"Landkreis"},"federalState":{"key":"07","name":"Rheinland-Pfalz"}},{"name":"Bachstr.","postalCode":"53489","locality":"Sinzig","municipality":{"key":"07131077","name":"Sinzig, Stadt","type":"Stadt"},"district":{"key":"07131","name":"Ahrweiler","type":"Landkreis"},"federalState":{"key":"07","name":"Rheinland-Pfalz"}},{"name":"Bäderstr.","postalCode":"53489","locality":"Sinzig","municipality":{"key":"07131077","name":"Sinzig, Stadt","type":"Stadt"},"district":{"key":"07131","name":"Ahrweiler","type":"Landkreis"},"federalState":{"key":"07","name":"Rheinland-Pfalz"}},{"name":"Bahnhofstr.","postalCode":"53489","locality":"Sinzig","municipality":{"key":"07131077","name":"Sinzig, Stadt","type":"Stadt"},"district":{"key":"07131","name":"Ahrweiler","type":"Landkreis"},"federalState":{"key":"07","name":"Rheinland-Pfalz"}},{"name":"Barbarossastr.","postalCode":"53489","locality":"Sinzig","municipality":{"key":"07131077","name":"Sinzig, Stadt","type":"Stadt"},"district":{"key":"07131","name":"Ahrweiler","type":"Landkreis"},"federalState":{"key":"07","name":"Rheinland-Pfalz"}},{"name":"Beethovenstr.","postalCode":"53489","locality":"Sinzig","municipality":{"key":"07131077","name":"Sinzig, Stadt","type":"Stadt"},"district":{"key":"07131","name":"Ahrweiler","type":"Landkreis"},"federalState":{"key":"07","name":"Rheinland-Pfalz"}},{"name":"Bergstr.","postalCode":"53489","locality":"Sinzig","municipality":{"key":"07131077","name":"Sinzig, Stadt","type":"Stadt"},"district":{"key":"07131","name":"Ahrweiler","type":"Landkreis"},"federalState":{"key":"07","name":"Rheinland-Pfalz"}},{"name":"Berliner Str.","postalCode":"53489","locality":"Sinzig","municipality":{"key":"07131077","name":"Sinzig, Stadt","type":"Stadt"},"district":{"key":"07131","name":"Ahrweiler","type":"Landkreis"},"federalState":{"key":"07","name":"Rheinland-Pfalz"}},{"name":"Biotop Westum","postalCode":"53489","locality":"Sinzig","municipality":{"key":"07131077","name":"Sinzig, Stadt","type":"Stadt"},"district":{"key":"07131","name":"Ahrweiler","type":"Landkreis"},"federalState":{"key":"07","name":"Rheinland-Pfalz"}},{"name":"Birkenweg","postalCode":"53489","locality":"Sinzig","municipality":{"key":"07131077","name":"Sinzig, Stadt","type":"Stadt"},"district":{"key":"07131","name":"Ahrweiler","type":"Landkreis"},"federalState":{"key":"07","name":"Rheinland-Pfalz"}},{"name":"Bodendorfer Str.","postalCode":"53489","locality":"Sinzig","municipality":{"key":"07131077","name":"Sinzig, Stadt","type":"Stadt"},"district":{"key":"07131","name":"Ahrweiler","type":"Landkreis"},"federalState":{"key":"07","name":"Rheinland-Pfalz"}},{"name":"Boffertsweg","postalCode":"53489","locality":"Sinzig","municipality":{"key":"07131077","name":"Sinzig, Stadt","type":"Stadt"},"district":{"key":"07131","name":"Ahrweiler","type":"Landkreis"},"federalState":{"key":"07","name":"Rheinland-Pfalz"}},{"name":"Breisiger Str.","postalCode":"53489","locality":"Sinzig","municipality":{"key":"07131077","name":"Sinzig, Stadt","type":"Stadt"},"district":{"key":"07131","name":"Ahrweiler","type":"Landkreis"},"federalState":{"key":"07","name":"Rheinland-Pfalz"}},{"name":"Breslauer Str.","postalCode":"53489","locality":"Sinzig","municipality":{"key":"07131077","name":"Sinzig, Stadt","type":"Stadt"},"district":{"key":"07131","name":"Ahrweiler","type":"Landkreis"},"federalState":{"key":"07","name":"Rheinland-Pfalz"}},{"name":"Brühlsweg","postalCode":"53489","locality":"Sinzig","municipality":{"key":"07131077","name":"Sinzig, Stadt","type":"Stadt"},"district":{"key":"07131","name":"Ahrweiler","type":"Landkreis"},"federalState":{"key":"07","name":"Rheinland-Pfalz"}},{"name":"Brunnenstr.","postalCode":"53489","locality":"Sinzig","municipality":{"key":"07131077","name":"Sinzig, Stadt","type":"Stadt"},"district":{"key":"07131","name":"Ahrweiler","type":"Landkreis"},"federalState":{"key":"07","name":"Rheinland-Pfalz"}},{"name":"Buchfinkenweg","postalCode":"53489","locality":"Sinzig","municipality":{"key":"07131077","name":"Sinzig, Stadt","type":"Stadt"},"district":{"key":"07131","name":"Ahrweiler","type":"Landkreis"},"federalState":{"key":"07","name":"Rheinland-Pfalz"}},{"name":"Burggrafenstr.","postalCode":"53489","locality":"Sinzig","municipality":{"key":"07131077","name":"Sinzig, Stadt","type":"Stadt"},"district":{"key":"07131","name":"Ahrweiler","type":"Landkreis"},"federalState":{"key":"07","name":"Rheinland-Pfalz"}},{"name":"Christiensteg","postalCode":"53489","locality":"Sinzig","municipality":{"key":"07131077","name":"Sinzig, Stadt","type":"Stadt"},"district":{"key":"07131","name":"Ahrweiler","type":"Landkreis"},"federalState":{"key":"07","name":"Rheinland-Pfalz"}},{"name":"Connesdorfer Str.","postalCode":"53489","locality":"Sinzig","municipality":{"key":"07131077","name":"Sinzig, Stadt","type":"Stadt"},"district":{"key":"07131","name":"Ahrweiler","type":"Landkreis"},"federalState":{"key":"07","name":"Rheinland-Pfalz"}},{"name":"Dahlienweg","postalCode":"53489","locality":"Sinzig","municipality":{"key":"07131077","name":"Sinzig, Stadt","type":"Stadt"},"district":{"key":"07131","name":"Ahrweiler","type":"Landkreis"},"federalState":{"key":"07","name":"Rheinland-Pfalz"}},{"name":"Dattenberger Weg","postalCode":"53489","locality":"Sinzig","municipality":{"key":"07131077","name":"Sinzig, Stadt","type":"Stadt"},"district":{"key":"07131","name":"Ahrweiler","type":"Landkreis"},"federalState":{"key":"07","name":"Rheinland-Pfalz"}},{"name":"Dedenbacher Butterweg","postalCode":"53489","locality":"Sinzig","municipality":{"key":"07131077","name":"Sinzig, Stadt","type":"Stadt"},"district":{"key":"07131","name":"Ahrweiler","type":"Landkreis"},"federalState":{"key":"07","name":"Rheinland-Pfalz"}},{"name":"Dohns Weg","postalCode":"53489","locality":"Sinzig","municipality":{"key":"07131077","name":"Sinzig, Stadt","type":"Stadt"},"district":{"key":"07131","name":"Ahrweiler","type":"Landkreis"},"federalState":{"key":"07","name":"Rheinland-Pfalz"}},{"name":"Dorfplatz","postalCode":"53489","locality":"Sinzig","municipality":{"key":"07131077","name":"Sinzig, Stadt","type":"Stadt"},"district":{"key":"07131","name":"Ahrweiler","type":"Landkreis"},"federalState":{"key":"07","name":"Rheinland-Pfalz"}},{"name":"Dreifaltigkeitsweg","postalCode":"53489","locality":"Sinzig","municipality":{"key":"07131077","name":"Sinzig, Stadt","type":"Stadt"},"district":{"key":"07131","name":"Ahrweiler","type":"Landkreis"},"federalState":{"key":"07","name":"Rheinland-Pfalz"}},{"name":"Drosselweg","postalCode":"53489","locality":"Sinzig","municipality":{"key":"07131077","name":"Sinzig, Stadt","type":"Stadt"},"district":{"key":"07131","name":"Ahrweiler","type":"Landkreis"},"federalState":{"key":"07","name":"Rheinland-Pfalz"}},{"name":"Ehlinger Str.","postalCode":"53489","locality":"Sinzig","municipality":{"key":"07131077","name":"Sinzig, Stadt","type":"Stadt"},"district":{"key":"07131","name":"Ahrweiler","type":"Landkreis"},"federalState":{"key":"07","name":"Rheinland-Pfalz"}},{"name":"Eichendorffstr.","postalCode":"53489","locality":"Sinzig","municipality":{"key":"07131077","name":"Sinzig, Stadt","type":"Stadt"},"district":{"key":"07131","name":"Ahrweiler","type":"Landkreis"},"federalState":{"key":"07","name":"Rheinland-Pfalz"}},{"name":"Eifelstr.","postalCode":"53489","locality":"Sinzig","municipality":{"key":"07131077","name":"Sinzig, Stadt","type":"Stadt"},"district":{"key":"07131","name":"Ahrweiler","type":"Landkreis"},"federalState":{"key":"07","name":"Rheinland-Pfalz"}},{"name":"Eisenbahnstr.","postalCode":"53489","locality":"Sinzig","municipality":{"key":"07131077","name":"Sinzig, Stadt","type":"Stadt"},"district":{"key":"07131","name":"Ahrweiler","type":"Landkreis"},"federalState":{"key":"07","name":"Rheinland-Pfalz"}},{"name":"Elsa-Brändström-Ring","postalCode":"53489","locality":"Sinzig","municipality":{"key":"07131077","name":"Sinzig, Stadt","type":"Stadt"},"district":{"key":"07131","name":"Ahrweiler","type":"Landkreis"},"federalState":{"key":"07","name":"Rheinland-Pfalz"}},{"name":"Erlenweg","postalCode":"53489","locality":"Sinzig","municipality":{"key":"07131077","name":"Sinzig, Stadt","type":"Stadt"},"district":{"key":"07131","name":"Ahrweiler","type":"Landkreis"},"federalState":{"key":"07","name":"Rheinland-Pfalz"}},{"name":"Essigkrug","postalCode":"53489","locality":"Sinzig","municipality":{"key":"07131077","name":"Sinzig, Stadt","type":"Stadt"},"district":{"key":"07131","name":"Ahrweiler","type":"Landkreis"},"federalState":{"key":"07","name":"Rheinland-Pfalz"}},{"name":"Eulengasse","postalCode":"53489","locality":"Sinzig","municipality":{"key":"07131077","name":"Sinzig, Stadt","type":"Stadt"},"district":{"key":"07131","name":"Ahrweiler","type":"Landkreis"},"federalState":{"key":"07","name":"Rheinland-Pfalz"}},{"name":"Falkenweg","postalCode":"53489","locality":"Sinzig","municipality":{"key":"07131077","name":"Sinzig, Stadt","type":"Stadt"},"district":{"key":"07131","name":"Ahrweiler","type":"Landkreis"},"federalState":{"key":"07","name":"Rheinland-Pfalz"}},{"name":"Finggasse","postalCode":"53489","locality":"Sinzig","municipality":{"key":"07131077","name":"Sinzig, Stadt","type":"Stadt"},"district":{"key":"07131","name":"Ahrweiler","type":"Landkreis"},"federalState":{"key":"07","name":"Rheinland-Pfalz"}},{"name":"Finkenweg","postalCode":"53489","locality":"Sinzig","municipality":{"key":"07131077","name":"Sinzig, Stadt","type":"Stadt"},"district":{"key":"07131","name":"Ahrweiler","type":"Landkreis"},"federalState":{"key":"07","name":"Rheinland-Pfalz"}},{"name":"Flurstr.","postalCode":"53489","locality":"Sinzig","municipality":{"key":"07131077","name":"Sinzig, Stadt","type":"Stadt"},"district":{"key":"07131","name":"Ahrweiler","type":"Landkreis"},"federalState":{"key":"07","name":"Rheinland-Pfalz"}},{"name":"Frankenstr.","postalCode":"53489","locality":"Sinzig","municipality":{"key":"07131077","name":"Sinzig, Stadt","type":"Stadt"},"district":{"key":"07131","name":"Ahrweiler","type":"Landkreis"},"federalState":{"key":"07","name":"Rheinland-Pfalz"}},{"name":"Freiherr-vom-Stein-Str.","postalCode":"53489","locality":"Sinzig","municipality":{"key":"07131077","name":"Sinzig, Stadt","type":"Stadt"},"district":{"key":"07131","name":"Ahrweiler","type":"Landkreis"},"federalState":{"key":"07","name":"Rheinland-Pfalz"}},{"name":"Friedrich-Ebert-Str.","postalCode":"53489","locality":"Sinzig","municipality":{"key":"07131077","name":"Sinzig, Stadt","type":"Stadt"},"district":{"key":"07131","name":"Ahrweiler","type":"Landkreis"},"federalState":{"key":"07","name":"Rheinland-Pfalz"}},{"name":"Friedrich-Spee-Str.","postalCode":"53489","locality":"Sinzig","municipality":{"key":"07131077","name":"Sinzig, Stadt","type":"Stadt"},"district":{"key":"07131","name":"Ahrweiler","type":"Landkreis"},"federalState":{"key":"07","name":"Rheinland-Pfalz"}},{"name":"Funkengasse","postalCode":"53489","locality":"Sinzig","municipality":{"key":"07131077","name":"Sinzig, Stadt","type":"Stadt"},"district":{"key":"07131","name":"Ahrweiler","type":"Landkreis"},"federalState":{"key":"07","name":"Rheinland-Pfalz"}},{"name":"Gartenstr.","postalCode":"53489","locality":"Sinzig","municipality":{"key":"07131077","name":"Sinzig, Stadt","type":"Stadt"},"district":{"key":"07131","name":"Ahrweiler","type":"Landkreis"},"federalState":{"key":"07","name":"Rheinland-Pfalz"}},{"name":"Gerhart-Hauptmann-Str.","postalCode":"53489","locality":"Sinzig","municipality":{"key":"07131077","name":"Sinzig, Stadt","type":"Stadt"},"district":{"key":"07131","name":"Ahrweiler","type":"Landkreis"},"federalState":{"key":"07","name":"Rheinland-Pfalz"}},{"name":"Goldguldenweg","postalCode":"53489","locality":"Sinzig","municipality":{"key":"07131077","name":"Sinzig, Stadt","type":"Stadt"},"district":{"key":"07131","name":"Ahrweiler","type":"Landkreis"},"federalState":{"key":"07","name":"Rheinland-Pfalz"}},{"name":"Grabenstr.","postalCode":"53489","locality":"Sinzig","municipality":{"key":"07131077","name":"Sinzig, Stadt","type":"Stadt"},"district":{"key":"07131","name":"Ahrweiler","type":"Landkreis"},"federalState":{"key":"07","name":"Rheinland-Pfalz"}},{"name":"Grüner Weg","postalCode":"53489","locality":"Sinzig","municipality":{"key":"07131077","name":"Sinzig, Stadt","type":"Stadt"},"district":{"key":"07131","name":"Ahrweiler","type":"Landkreis"},"federalState":{"key":"07","name":"Rheinland-Pfalz"}},{"name":"Gudestr.","postalCode":"53489","locality":"Sinzig","municipality":{"key":"07131077","name":"Sinzig, Stadt","type":"Stadt"},"district":{"key":"07131","name":"Ahrweiler","type":"Landkreis"},"federalState":{"key":"07","name":"Rheinland-Pfalz"}},{"name":"Gustav-Bunge-Str.","postalCode":"53489","locality":"Sinzig","municipality":{"key":"07131077","name":"Sinzig, Stadt","type":"Stadt"},"district":{"key":"07131","name":"Ahrweiler","type":"Landkreis"},"federalState":{"key":"07","name":"Rheinland-Pfalz"}},{"name":"Harbachsmühle","postalCode":"53489","locality":"Sinzig","municipality":{"key":"07131077","name":"Sinzig, Stadt","type":"Stadt"},"district":{"key":"07131","name":"Ahrweiler","type":"Landkreis"},"federalState":{"key":"07","name":"Rheinland-Pfalz"}},{"name":"Harbachstr.","postalCode":"53489","locality":"Sinzig","municipality":{"key":"07131077","name":"Sinzig, Stadt","type":"Stadt"},"district":{"key":"07131","name":"Ahrweiler","type":"Landkreis"},"federalState":{"key":"07","name":"Rheinland-Pfalz"}},{"name":"Hauptstr.","postalCode":"53489","locality":"Sinzig","municipality":{"key":"07131077","name":"Sinzig, Stadt","type":"Stadt"},"district":{"key":"07131","name":"Ahrweiler","type":"Landkreis"},"federalState":{"key":"07","name":"Rheinland-Pfalz"}},{"name":"Heerweg","postalCode":"53489","locality":"Sinzig","municipality":{"key":"07131077","name":"Sinzig, Stadt","type":"Stadt"},"district":{"key":"07131","name":"Ahrweiler","type":"Landkreis"},"federalState":{"key":"07","name":"Rheinland-Pfalz"}},{"name":"Heimersheimer Str.","postalCode":"53489","locality":"Sinzig","municipality":{"key":"07131077","name":"Sinzig, Stadt","type":"Stadt"},"district":{"key":"07131","name":"Ahrweiler","type":"Landkreis"},"federalState":{"key":"07","name":"Rheinland-Pfalz"}},{"name":"Heinrich-Lersch-Weg","postalCode":"53489","locality":"Sinzig","municipality":{"key":"07131077","name":"Sinzig, Stadt","type":"Stadt"},"district":{"key":"07131","name":"Ahrweiler","type":"Landkreis"},"federalState":{"key":"07","name":"Rheinland-Pfalz"}},{"name":"Helenenbergstr.","postalCode":"53489","locality":"Sinzig","municipality":{"key":"07131077","name":"Sinzig, Stadt","type":"Stadt"},"district":{"key":"07131","name":"Ahrweiler","type":"Landkreis"},"federalState":{"key":"07","name":"Rheinland-Pfalz"}},{"name":"Heribertusstr.","postalCode":"53489","locality":"Sinzig","municipality":{"key":"07131077","name":"Sinzig, Stadt","type":"Stadt"},"district":{"key":"07131","name":"Ahrweiler","type":"Landkreis"},"federalState":{"key":"07","name":"Rheinland-Pfalz"}},{"name":"Herzog-von-Jülich-Ring","postalCode":"53489","locality":"Sinzig","municipality":{"key":"07131077","name":"Sinzig, Stadt","type":"Stadt"},"district":{"key":"07131","name":"Ahrweiler","type":"Landkreis"},"federalState":{"key":"07","name":"Rheinland-Pfalz"}},{"name":"Hofgasse","postalCode":"53489","locality":"Sinzig","municipality":{"key":"07131077","name":"Sinzig, Stadt","type":"Stadt"},"district":{"key":"07131","name":"Ahrweiler","type":"Landkreis"},"federalState":{"key":"07","name":"Rheinland-Pfalz"}},{"name":"Hohenstaufenstr.","postalCode":"53489","locality":"Sinzig","municipality":{"key":"07131077","name":"Sinzig, Stadt","type":"Stadt"},"district":{"key":"07131","name":"Ahrweiler","type":"Landkreis"},"federalState":{"key":"07","name":"Rheinland-Pfalz"}},{"name":"Hubertusstr.","postalCode":"53489","locality":"Sinzig","municipality":{"key":"07131077","name":"Sinzig, Stadt","type":"Stadt"},"district":{"key":"07131","name":"Ahrweiler","type":"Landkreis"},"federalState":{"key":"07","name":"Rheinland-Pfalz"}},{"name":"Hunsrückstr.","postalCode":"53489","locality":"Sinzig","municipality":{"key":"07131077","name":"Sinzig, Stadt","type":"Stadt"},"district":{"key":"07131","name":"Ahrweiler","type":"Landkreis"},"federalState":{"key":"07","name":"Rheinland-Pfalz"}},{"name":"Im Allen","postalCode":"53489","locality":"Sinzig","municipality":{"key":"07131077","name":"Sinzig, Stadt","type":"Stadt"},"district":{"key":"07131","name":"Ahrweiler","type":"Landkreis"},"federalState":{"key":"07","name":"Rheinland-Pfalz"}},{"name":"Im Ellig","postalCode":"53489","locality":"Sinzig","municipality":{"key":"07131077","name":"Sinzig, Stadt","type":"Stadt"},"district":{"key":"07131","name":"Ahrweiler","type":"Landkreis"},"federalState":{"key":"07","name":"Rheinland-Pfalz"}},{"name":"Im Elsgarten","postalCode":"53489","locality":"Sinzig","municipality":{"key":"07131077","name":"Sinzig, Stadt","type":"Stadt"},"district":{"key":"07131","name":"Ahrweiler","type":"Landkreis"},"federalState":{"key":"07","name":"Rheinland-Pfalz"}},{"name":"Im Herrental","postalCode":"53489","locality":"Sinzig","municipality":{"key":"07131077","name":"Sinzig, Stadt","type":"Stadt"},"district":{"key":"07131","name":"Ahrweiler","type":"Landkreis"},"federalState":{"key":"07","name":"Rheinland-Pfalz"}},{"name":"Im Klostergarten","postalCode":"53489","locality":"Sinzig","municipality":{"key":"07131077","name":"Sinzig, Stadt","type":"Stadt"},"district":{"key":"07131","name":"Ahrweiler","type":"Landkreis"},"federalState":{"key":"07","name":"Rheinland-Pfalz"}},{"name":"Im Meisengarten","postalCode":"53489","locality":"Sinzig","municipality":{"key":"07131077","name":"Sinzig, Stadt","type":"Stadt"},"district":{"key":"07131","name":"Ahrweiler","type":"Landkreis"},"federalState":{"key":"07","name":"Rheinland-Pfalz"}},{"name":"Im Rossbüsch","postalCode":"53489","locality":"Sinzig","municipality":{"key":"07131077","name":"Sinzig, Stadt","type":"Stadt"},"district":{"key":"07131","name":"Ahrweiler","type":"Landkreis"},"federalState":{"key":"07","name":"Rheinland-Pfalz"}},{"name":"Im Seifenbachtal","postalCode":"53489","locality":"Sinzig","municipality":{"key":"07131077","name":"Sinzig, Stadt","type":"Stadt"},"district":{"key":"07131","name":"Ahrweiler","type":"Landkreis"},"federalState":{"key":"07","name":"Rheinland-Pfalz"}},{"name":"Im Seiffen","postalCode":"53489","locality":"Sinzig","municipality":{"key":"07131077","name":"Sinzig, Stadt","type":"Stadt"},"district":{"key":"07131","name":"Ahrweiler","type":"Landkreis"},"federalState":{"key":"07","name":"Rheinland-Pfalz"}},{"name":"Im Wiesengrund","postalCode":"53489","locality":"Sinzig","municipality":{"key":"07131077","name":"Sinzig, Stadt","type":"Stadt"},"district":{"key":"07131","name":"Ahrweiler","type":"Landkreis"},"federalState":{"key":"07","name":"Rheinland-Pfalz"}},{"name":"In den Ahrwiesen","postalCode":"53489","locality":"Sinzig","municipality":{"key":"07131077","name":"Sinzig, Stadt","type":"Stadt"},"district":{"key":"07131","name":"Ahrweiler","type":"Landkreis"},"federalState":{"key":"07","name":"Rheinland-Pfalz"}},{"name":"In den Dreizehnmorgen","postalCode":"53489","locality":"Sinzig","municipality":{"key":"07131077","name":"Sinzig, Stadt","type":"Stadt"},"district":{"key":"07131","name":"Ahrweiler","type":"Landkreis"},"federalState":{"key":"07","name":"Rheinland-Pfalz"}},{"name":"In der Anbrück","postalCode":"53489","locality":"Sinzig","municipality":{"key":"07131077","name":"Sinzig, Stadt","type":"Stadt"},"district":{"key":"07131","name":"Ahrweiler","type":"Landkreis"},"federalState":{"key":"07","name":"Rheinland-Pfalz"}},{"name":"In der Galters","postalCode":"53489","locality":"Sinzig","municipality":{"key":"07131077","name":"Sinzig, Stadt","type":"Stadt"},"district":{"key":"07131","name":"Ahrweiler","type":"Landkreis"},"federalState":{"key":"07","name":"Rheinland-Pfalz"}},{"name":"In der Rausch","postalCode":"53489","locality":"Sinzig","municipality":{"key":"07131077","name":"Sinzig, Stadt","type":"Stadt"},"district":{"key":"07131","name":"Ahrweiler","type":"Landkreis"},"federalState":{"key":"07","name":"Rheinland-Pfalz"}},{"name":"Industriestr.","postalCode":"53489","locality":"Sinzig","municipality":{"key":"07131077","name":"Sinzig, Stadt","type":"Stadt"},"district":{"key":"07131","name":"Ahrweiler","type":"Landkreis"},"federalState":{"key":"07","name":"Rheinland-Pfalz"}},{"name":"Jahnstr.","postalCode":"53489","locality":"Sinzig","municipality":{"key":"07131077","name":"Sinzig, Stadt","type":"Stadt"},"district":{"key":"07131","name":"Ahrweiler","type":"Landkreis"},"federalState":{"key":"07","name":"Rheinland-Pfalz"}},{"name":"Josef-Hardt-Allee","postalCode":"53489","locality":"Sinzig","municipality":{"key":"07131077","name":"Sinzig, Stadt","type":"Stadt"},"district":{"key":"07131","name":"Ahrweiler","type":"Landkreis"},"federalState":{"key":"07","name":"Rheinland-Pfalz"}},{"name":"Kaiserplatz","postalCode":"53489","locality":"Sinzig","municipality":{"key":"07131077","name":"Sinzig, Stadt","type":"Stadt"},"district":{"key":"07131","name":"Ahrweiler","type":"Landkreis"},"federalState":{"key":"07","name":"Rheinland-Pfalz"}},{"name":"Kaiserstr.","postalCode":"53489","locality":"Sinzig","municipality":{"key":"07131077","name":"Sinzig, Stadt","type":"Stadt"},"district":{"key":"07131","name":"Ahrweiler","type":"Landkreis"},"federalState":{"key":"07","name":"Rheinland-Pfalz"}},{"name":"Kalkturmstr.","postalCode":"53489","locality":"Sinzig","municipality":{"key":"07131077","name":"Sinzig, Stadt","type":"Stadt"},"district":{"key":"07131","name":"Ahrweiler","type":"Landkreis"},"federalState":{"key":"07","name":"Rheinland-Pfalz"}},{"name":"Kantstr.","postalCode":"53489","locality":"Sinzig","municipality":{"key":"07131077","name":"Sinzig, Stadt","type":"Stadt"},"district":{"key":"07131","name":"Ahrweiler","type":"Landkreis"},"federalState":{"key":"07","name":"Rheinland-Pfalz"}},{"name":"Kapellenweg","postalCode":"53489","locality":"Sinzig","municipality":{"key":"07131077","name":"Sinzig, Stadt","type":"Stadt"},"district":{"key":"07131","name":"Ahrweiler","type":"Landkreis"},"federalState":{"key":"07","name":"Rheinland-Pfalz"}},{"name":"Kasbacher Weg","postalCode":"53489","locality":"Sinzig","municipality":{"key":"07131077","name":"Sinzig, Stadt","type":"Stadt"},"district":{"key":"07131","name":"Ahrweiler","type":"Landkreis"},"federalState":{"key":"07","name":"Rheinland-Pfalz"}},{"name":"Kegelbahnstr.","postalCode":"53489","locality":"Sinzig","municipality":{"key":"07131077","name":"Sinzig, Stadt","type":"Stadt"},"district":{"key":"07131","name":"Ahrweiler","type":"Landkreis"},"federalState":{"key":"07","name":"Rheinland-Pfalz"}},{"name":"Keltenstr.","postalCode":"53489","locality":"Sinzig","municipality":{"key":"07131077","name":"Sinzig, Stadt","type":"Stadt"},"district":{"key":"07131","name":"Ahrweiler","type":"Landkreis"},"federalState":{"key":"07","name":"Rheinland-Pfalz"}},{"name":"Kirchgasse","postalCode":"53489","locality":"Sinzig","municipality":{"key":"07131077","name":"Sinzig, Stadt","type":"Stadt"},"district":{"key":"07131","name":"Ahrweiler","type":"Landkreis"},"federalState":{"key":"07","name":"Rheinland-Pfalz"}},{"name":"Kloster-Deutz-Str.","postalCode":"53489","locality":"Sinzig","municipality":{"key":"07131077","name":"Sinzig, Stadt","type":"Stadt"},"district":{"key":"07131","name":"Ahrweiler","type":"Landkreis"},"federalState":{"key":"07","name":"Rheinland-Pfalz"}},{"name":"Koblenzer Str.","postalCode":"53489","locality":"Sinzig","municipality":{"key":"07131077","name":"Sinzig, Stadt","type":"Stadt"},"district":{"key":"07131","name":"Ahrweiler","type":"Landkreis"},"federalState":{"key":"07","name":"Rheinland-Pfalz"}},{"name":"Koisdorfer Str.","postalCode":"53489","locality":"Sinzig","municipality":{"key":"07131077","name":"Sinzig, Stadt","type":"Stadt"},"district":{"key":"07131","name":"Ahrweiler","type":"Landkreis"},"federalState":{"key":"07","name":"Rheinland-Pfalz"}},{"name":"Kölner Str.","postalCode":"53489","locality":"Sinzig","municipality":{"key":"07131077","name":"Sinzig, Stadt","type":"Stadt"},"district":{"key":"07131","name":"Ahrweiler","type":"Landkreis"},"federalState":{"key":"07","name":"Rheinland-Pfalz"}},{"name":"Kolpingstr.","postalCode":"53489","locality":"Sinzig","municipality":{"key":"07131077","name":"Sinzig, Stadt","type":"Stadt"},"district":{"key":"07131","name":"Ahrweiler","type":"Landkreis"},"federalState":{"key":"07","name":"Rheinland-Pfalz"}},{"name":"Königsberger Str.","postalCode":"53489","locality":"Sinzig","municipality":{"key":"07131077","name":"Sinzig, Stadt","type":"Stadt"},"district":{"key":"07131","name":"Ahrweiler","type":"Landkreis"},"federalState":{"key":"07","name":"Rheinland-Pfalz"}},{"name":"Krechelheimerstr.","postalCode":"53489","locality":"Sinzig","municipality":{"key":"07131077","name":"Sinzig, Stadt","type":"Stadt"},"district":{"key":"07131","name":"Ahrweiler","type":"Landkreis"},"federalState":{"key":"07","name":"Rheinland-Pfalz"}},{"name":"Kreuzstr.","postalCode":"53489","locality":"Sinzig","municipality":{"key":"07131077","name":"Sinzig, Stadt","type":"Stadt"},"district":{"key":"07131","name":"Ahrweiler","type":"Landkreis"},"federalState":{"key":"07","name":"Rheinland-Pfalz"}},{"name":"Kripper Str.","postalCode":"53489","locality":"Sinzig","municipality":{"key":"07131077","name":"Sinzig, Stadt","type":"Stadt"},"district":{"key":"07131","name":"Ahrweiler","type":"Landkreis"},"federalState":{"key":"07","name":"Rheinland-Pfalz"}},{"name":"Kuhbachweg","postalCode":"53489","locality":"Sinzig","municipality":{"key":"07131077","name":"Sinzig, Stadt","type":"Stadt"},"district":{"key":"07131","name":"Ahrweiler","type":"Landkreis"},"federalState":{"key":"07","name":"Rheinland-Pfalz"}},{"name":"Kurpark","postalCode":"53489","locality":"Sinzig","municipality":{"key":"07131077","name":"Sinzig, Stadt","type":"Stadt"},"district":{"key":"07131","name":"Ahrweiler","type":"Landkreis"},"federalState":{"key":"07","name":"Rheinland-Pfalz"}},{"name":"Landskroner Str.","postalCode":"53489","locality":"Sinzig","municipality":{"key":"07131077","name":"Sinzig, Stadt","type":"Stadt"},"district":{"key":"07131","name":"Ahrweiler","type":"Landkreis"},"federalState":{"key":"07","name":"Rheinland-Pfalz"}},{"name":"Lerchenweg","postalCode":"53489","locality":"Sinzig","municipality":{"key":"07131077","name":"Sinzig, Stadt","type":"Stadt"},"district":{"key":"07131","name":"Ahrweiler","type":"Landkreis"},"federalState":{"key":"07","name":"Rheinland-Pfalz"}},{"name":"Leubsdorfer Str.","postalCode":"53489","locality":"Sinzig","municipality":{"key":"07131077","name":"Sinzig, Stadt","type":"Stadt"},"district":{"key":"07131","name":"Ahrweiler","type":"Landkreis"},"federalState":{"key":"07","name":"Rheinland-Pfalz"}},{"name":"Lindenstr.","postalCode":"53489","locality":"Sinzig","municipality":{"key":"07131077","name":"Sinzig, Stadt","type":"Stadt"},"district":{"key":"07131","name":"Ahrweiler","type":"Landkreis"},"federalState":{"key":"07","name":"Rheinland-Pfalz"}},{"name":"Linzer Str.","postalCode":"53489","locality":"Sinzig","municipality":{"key":"07131077","name":"Sinzig, Stadt","type":"Stadt"},"district":{"key":"07131","name":"Ahrweiler","type":"Landkreis"},"federalState":{"key":"07","name":"Rheinland-Pfalz"}},{"name":"Lohpförtchen","postalCode":"53489","locality":"Sinzig","municipality":{"key":"07131077","name":"Sinzig, Stadt","type":"Stadt"},"district":{"key":"07131","name":"Ahrweiler","type":"Landkreis"},"federalState":{"key":"07","name":"Rheinland-Pfalz"}},{"name":"Lunapark","postalCode":"53489","locality":"Sinzig","municipality":{"key":"07131077","name":"Sinzig, Stadt","type":"Stadt"},"district":{"key":"07131","name":"Ahrweiler","type":"Landkreis"},"federalState":{"key":"07","name":"Rheinland-Pfalz"}},{"name":"Maisgasse","postalCode":"53489","locality":"Sinzig","municipality":{"key":"07131077","name":"Sinzig, Stadt","type":"Stadt"},"district":{"key":"07131","name":"Ahrweiler","type":"Landkreis"},"federalState":{"key":"07","name":"Rheinland-Pfalz"}},{"name":"Marienhof","postalCode":"53489","locality":"Sinzig","municipality":{"key":"07131077","name":"Sinzig, Stadt","type":"Stadt"},"district":{"key":"07131","name":"Ahrweiler","type":"Landkreis"},"federalState":{"key":"07","name":"Rheinland-Pfalz"}},{"name":"Marienstr.","postalCode":"53489","locality":"Sinzig","municipality":{"key":"07131077","name":"Sinzig, Stadt","type":"Stadt"},"district":{"key":"07131","name":"Ahrweiler","type":"Landkreis"},"federalState":{"key":"07","name":"Rheinland-Pfalz"}},{"name":"Markt","postalCode":"53489","locality":"Sinzig","municipality":{"key":"07131077","name":"Sinzig, Stadt","type":"Stadt"},"district":{"key":"07131","name":"Ahrweiler","type":"Landkreis"},"federalState":{"key":"07","name":"Rheinland-Pfalz"}},{"name":"Milchgasse","postalCode":"53489","locality":"Sinzig","municipality":{"key":"07131077","name":"Sinzig, Stadt","type":"Stadt"},"district":{"key":"07131","name":"Ahrweiler","type":"Landkreis"},"federalState":{"key":"07","name":"Rheinland-Pfalz"}},{"name":"Mittelweg","postalCode":"53489","locality":"Sinzig","municipality":{"key":"07131077","name":"Sinzig, Stadt","type":"Stadt"},"district":{"key":"07131","name":"Ahrweiler","type":"Landkreis"},"federalState":{"key":"07","name":"Rheinland-Pfalz"}},{"name":"Mörikeweg","postalCode":"53489","locality":"Sinzig","municipality":{"key":"07131077","name":"Sinzig, Stadt","type":"Stadt"},"district":{"key":"07131","name":"Ahrweiler","type":"Landkreis"},"federalState":{"key":"07","name":"Rheinland-Pfalz"}},{"name":"Moselstr.","postalCode":"53489","locality":"Sinzig","municipality":{"key":"07131077","name":"Sinzig, Stadt","type":"Stadt"},"district":{"key":"07131","name":"Ahrweiler","type":"Landkreis"},"federalState":{"key":"07","name":"Rheinland-Pfalz"}},{"name":"Mühlenbachstr.","postalCode":"53489","locality":"Sinzig","municipality":{"key":"07131077","name":"Sinzig, Stadt","type":"Stadt"},"district":{"key":"07131","name":"Ahrweiler","type":"Landkreis"},"federalState":{"key":"07","name":"Rheinland-Pfalz"}},{"name":"Mühlenbergweg","postalCode":"53489","locality":"Sinzig","municipality":{"key":"07131077","name":"Sinzig, Stadt","type":"Stadt"},"district":{"key":"07131","name":"Ahrweiler","type":"Landkreis"},"federalState":{"key":"07","name":"Rheinland-Pfalz"}},{"name":"Mühlenstr.","postalCode":"53489","locality":"Sinzig","municipality":{"key":"07131077","name":"Sinzig, Stadt","type":"Stadt"},"district":{"key":"07131","name":"Ahrweiler","type":"Landkreis"},"federalState":{"key":"07","name":"Rheinland-Pfalz"}},{"name":"Münzgasse","postalCode":"53489","locality":"Sinzig","municipality":{"key":"07131077","name":"Sinzig, Stadt","type":"Stadt"},"district":{"key":"07131","name":"Ahrweiler","type":"Landkreis"},"federalState":{"key":"07","name":"Rheinland-Pfalz"}},{"name":"Naheweg","postalCode":"53489","locality":"Sinzig","municipality":{"key":"07131077","name":"Sinzig, Stadt","type":"Stadt"},"district":{"key":"07131","name":"Ahrweiler","type":"Landkreis"},"federalState":{"key":"07","name":"Rheinland-Pfalz"}},{"name":"Nelkenweg","postalCode":"53489","locality":"Sinzig","municipality":{"key":"07131077","name":"Sinzig, Stadt","type":"Stadt"},"district":{"key":"07131","name":"Ahrweiler","type":"Landkreis"},"federalState":{"key":"07","name":"Rheinland-Pfalz"}},{"name":"Neue Str.","postalCode":"53489","locality":"Sinzig","municipality":{"key":"07131077","name":"Sinzig, Stadt","type":"Stadt"},"district":{"key":"07131","name":"Ahrweiler","type":"Landkreis"},"federalState":{"key":"07","name":"Rheinland-Pfalz"}},{"name":"Nordstr.","postalCode":"53489","locality":"Sinzig","municipality":{"key":"07131077","name":"Sinzig, Stadt","type":"Stadt"},"district":{"key":"07131","name":"Ahrweiler","type":"Landkreis"},"federalState":{"key":"07","name":"Rheinland-Pfalz"}},{"name":"Obergasse","postalCode":"53489","locality":"Sinzig","municipality":{"key":"07131077","name":"Sinzig, Stadt","type":"Stadt"},"district":{"key":"07131","name":"Ahrweiler","type":"Landkreis"},"federalState":{"key":"07","name":"Rheinland-Pfalz"}},{"name":"Orsbeckstr.","postalCode":"53489","locality":"Sinzig","municipality":{"key":"07131077","name":"Sinzig, Stadt","type":"Stadt"},"district":{"key":"07131","name":"Ahrweiler","type":"Landkreis"},"federalState":{"key":"07","name":"Rheinland-Pfalz"}},{"name":"Oststr.","postalCode":"53489","locality":"Sinzig","municipality":{"key":"07131077","name":"Sinzig, Stadt","type":"Stadt"},"district":{"key":"07131","name":"Ahrweiler","type":"Landkreis"},"federalState":{"key":"07","name":"Rheinland-Pfalz"}},{"name":"Pastor-Fey-Str.","postalCode":"53489","locality":"Sinzig","municipality":{"key":"07131077","name":"Sinzig, Stadt","type":"Stadt"},"district":{"key":"07131","name":"Ahrweiler","type":"Landkreis"},"federalState":{"key":"07","name":"Rheinland-Pfalz"}},{"name":"Pater-Steinmetzler-Str.","postalCode":"53489","locality":"Sinzig","municipality":{"key":"07131077","name":"Sinzig, Stadt","type":"Stadt"},"district":{"key":"07131","name":"Ahrweiler","type":"Landkreis"},"federalState":{"key":"07","name":"Rheinland-Pfalz"}},{"name":"Pestalozzistr.","postalCode":"53489","locality":"Sinzig","municipality":{"key":"07131077","name":"Sinzig, Stadt","type":"Stadt"},"district":{"key":"07131","name":"Ahrweiler","type":"Landkreis"},"federalState":{"key":"07","name":"Rheinland-Pfalz"}},{"name":"Peter-Käuser-Str.","postalCode":"53489","locality":"Sinzig","municipality":{"key":"07131077","name":"Sinzig, Stadt","type":"Stadt"},"district":{"key":"07131","name":"Ahrweiler","type":"Landkreis"},"federalState":{"key":"07","name":"Rheinland-Pfalz"}},{"name":"Peterstal","postalCode":"53489","locality":"Sinzig","municipality":{"key":"07131077","name":"Sinzig, Stadt","type":"Stadt"},"district":{"key":"07131","name":"Ahrweiler","type":"Landkreis"},"federalState":{"key":"07","name":"Rheinland-Pfalz"}},{"name":"Peter-Zepp-Str.","postalCode":"53489","locality":"Sinzig","municipality":{"key":"07131077","name":"Sinzig, Stadt","type":"Stadt"},"district":{"key":"07131","name":"Ahrweiler","type":"Landkreis"},"federalState":{"key":"07","name":"Rheinland-Pfalz"}},{"name":"Place Hettange Grande","postalCode":"53489","locality":"Sinzig","municipality":{"key":"07131077","name":"Sinzig, Stadt","type":"Stadt"},"district":{"key":"07131","name":"Ahrweiler","type":"Landkreis"},"federalState":{"key":"07","name":"Rheinland-Pfalz"}},{"name":"Plenzergasse","postalCode":"53489","locality":"Sinzig","municipality":{"key":"07131077","name":"Sinzig, Stadt","type":"Stadt"},"district":{"key":"07131","name":"Ahrweiler","type":"Landkreis"},"federalState":{"key":"07","name":"Rheinland-Pfalz"}},{"name":"Privatweg","postalCode":"53489","locality":"Sinzig","municipality":{"key":"07131077","name":"Sinzig, Stadt","type":"Stadt"},"district":{"key":"07131","name":"Ahrweiler","type":"Landkreis"},"federalState":{"key":"07","name":"Rheinland-Pfalz"}},{"name":"Prümer Str.","postalCode":"53489","locality":"Sinzig","municipality":{"key":"07131077","name":"Sinzig, Stadt","type":"Stadt"},"district":{"key":"07131","name":"Ahrweiler","type":"Landkreis"},"federalState":{"key":"07","name":"Rheinland-Pfalz"}},{"name":"Quellenstr.","postalCode":"53474","locality":"Bad Neuenahr-Ahrweiler","municipality":{"key":"07131007","name":"Bad Neuenahr-Ahrweiler, Stadt","type":"Stadt"},"district":{"key":"07131","name":"Ahrweiler","type":"Landkreis"},"federalState":{"key":"07","name":"Rheinland-Pfalz"}},{"name":"Rastenweg","postalCode":"53489","locality":"Sinzig","municipality":{"key":"07131077","name":"Sinzig, Stadt","type":"Stadt"},"district":{"key":"07131","name":"Ahrweiler","type":"Landkreis"},"federalState":{"key":"07","name":"Rheinland-Pfalz"}},{"name":"Reinald-von-Dassel-Str.","postalCode":"53489","locality":"Sinzig","municipality":{"key":"07131077","name":"Sinzig, Stadt","type":"Stadt"},"district":{"key":"07131","name":"Ahrweiler","type":"Landkreis"},"federalState":{"key":"07","name":"Rheinland-Pfalz"}},{"name":"Remagener Weg","postalCode":"53489","locality":"Sinzig","municipality":{"key":"07131077","name":"Sinzig, Stadt","type":"Stadt"},"district":{"key":"07131","name":"Ahrweiler","type":"Landkreis"},"federalState":{"key":"07","name":"Rheinland-Pfalz"}},{"name":"Renngasse","postalCode":"53489","locality":"Sinzig","municipality":{"key":"07131077","name":"Sinzig, Stadt","type":"Stadt"},"district":{"key":"07131","name":"Ahrweiler","type":"Landkreis"},"federalState":{"key":"07","name":"Rheinland-Pfalz"}},{"name":"Rheinallee","postalCode":"53489","locality":"Sinzig","municipality":{"key":"07131077","name":"Sinzig, Stadt","type":"Stadt"},"district":{"key":"07131","name":"Ahrweiler","type":"Landkreis"},"federalState":{"key":"07","name":"Rheinland-Pfalz"}},{"name":"Rheinstr.","postalCode":"53489","locality":"Sinzig","municipality":{"key":"07131077","name":"Sinzig, Stadt","type":"Stadt"},"district":{"key":"07131","name":"Ahrweiler","type":"Landkreis"},"federalState":{"key":"07","name":"Rheinland-Pfalz"}},{"name":"Ringstr.","postalCode":"53489","locality":"Sinzig","municipality":{"key":"07131077","name":"Sinzig, Stadt","type":"Stadt"},"district":{"key":"07131","name":"Ahrweiler","type":"Landkreis"},"federalState":{"key":"07","name":"Rheinland-Pfalz"}},{"name":"Rolandstr.","postalCode":"53489","locality":"Sinzig","municipality":{"key":"07131077","name":"Sinzig, Stadt","type":"Stadt"},"district":{"key":"07131","name":"Ahrweiler","type":"Landkreis"},"federalState":{"key":"07","name":"Rheinland-Pfalz"}},{"name":"Römerstr.","postalCode":"53489","locality":"Sinzig","municipality":{"key":"07131077","name":"Sinzig, Stadt","type":"Stadt"},"district":{"key":"07131","name":"Ahrweiler","type":"Landkreis"},"federalState":{"key":"07","name":"Rheinland-Pfalz"}},{"name":"Rosenstr.","postalCode":"53489","locality":"Sinzig","municipality":{"key":"07131077","name":"Sinzig, Stadt","type":"Stadt"},"district":{"key":"07131","name":"Ahrweiler","type":"Landkreis"},"federalState":{"key":"07","name":"Rheinland-Pfalz"}},{"name":"Saarstr.","postalCode":"53489","locality":"Sinzig","municipality":{"key":"07131077","name":"Sinzig, Stadt","type":"Stadt"},"district":{"key":"07131","name":"Ahrweiler","type":"Landkreis"},"federalState":{"key":"07","name":"Rheinland-Pfalz"}},{"name":"Schillerstr.","postalCode":"53489","locality":"Sinzig","municipality":{"key":"07131077","name":"Sinzig, Stadt","type":"Stadt"},"district":{"key":"07131","name":"Ahrweiler","type":"Landkreis"},"federalState":{"key":"07","name":"Rheinland-Pfalz"}},{"name":"Schloßstr.","postalCode":"53489","locality":"Sinzig","municipality":{"key":"07131077","name":"Sinzig, Stadt","type":"Stadt"},"district":{"key":"07131","name":"Ahrweiler","type":"Landkreis"},"federalState":{"key":"07","name":"Rheinland-Pfalz"}},{"name":"Schöppepfad","postalCode":"53489","locality":"Sinzig","municipality":{"key":"07131077","name":"Sinzig, Stadt","type":"Stadt"},"district":{"key":"07131","name":"Ahrweiler","type":"Landkreis"},"federalState":{"key":"07","name":"Rheinland-Pfalz"}},{"name":"Schubertstr.","postalCode":"53489","locality":"Sinzig","municipality":{"key":"07131077","name":"Sinzig, Stadt","type":"Stadt"},"district":{"key":"07131","name":"Ahrweiler","type":"Landkreis"},"federalState":{"key":"07","name":"Rheinland-Pfalz"}},{"name":"Schulstr.","postalCode":"53489","locality":"Sinzig","municipality":{"key":"07131077","name":"Sinzig, Stadt","type":"Stadt"},"district":{"key":"07131","name":"Ahrweiler","type":"Landkreis"},"federalState":{"key":"07","name":"Rheinland-Pfalz"}},{"name":"Schützenstr.","postalCode":"53489","locality":"Sinzig","municipality":{"key":"07131077","name":"Sinzig, Stadt","type":"Stadt"},"district":{"key":"07131","name":"Ahrweiler","type":"Landkreis"},"federalState":{"key":"07","name":"Rheinland-Pfalz"}},{"name":"Schwalbenweg","postalCode":"53489","locality":"Sinzig","municipality":{"key":"07131077","name":"Sinzig, Stadt","type":"Stadt"},"district":{"key":"07131","name":"Ahrweiler","type":"Landkreis"},"federalState":{"key":"07","name":"Rheinland-Pfalz"}},{"name":"Sebastianusweg","postalCode":"53489","locality":"Sinzig","municipality":{"key":"07131077","name":"Sinzig, Stadt","type":"Stadt"},"district":{"key":"07131","name":"Ahrweiler","type":"Landkreis"},"federalState":{"key":"07","name":"Rheinland-Pfalz"}},{"name":"Siebengebirgsstr.","postalCode":"53489","locality":"Sinzig","municipality":{"key":"07131077","name":"Sinzig, Stadt","type":"Stadt"},"district":{"key":"07131","name":"Ahrweiler","type":"Landkreis"},"federalState":{"key":"07","name":"Rheinland-Pfalz"}},{"name":"Sinziger Str.","postalCode":"53489","locality":"Sinzig","municipality":{"key":"07131077","name":"Sinzig, Stadt","type":"Stadt"},"district":{"key":"07131","name":"Ahrweiler","type":"Landkreis"},"federalState":{"key":"07","name":"Rheinland-Pfalz"}},{"name":"Sonnenstr.","postalCode":"53489","locality":"Sinzig","municipality":{"key":"07131077","name":"Sinzig, Stadt","type":"Stadt"},"district":{"key":"07131","name":"Ahrweiler","type":"Landkreis"},"federalState":{"key":"07","name":"Rheinland-Pfalz"}},{"name":"Sternstr.","postalCode":"53489","locality":"Sinzig","municipality":{"key":"07131077","name":"Sinzig, Stadt","type":"Stadt"},"district":{"key":"07131","name":"Ahrweiler","type":"Landkreis"},"federalState":{"key":"07","name":"Rheinland-Pfalz"}},{"name":"St.-Georg-Str.","postalCode":"53489","locality":"Sinzig","municipality":{"key":"07131077","name":"Sinzig, Stadt","type":"Stadt"},"district":{"key":"07131","name":"Ahrweiler","type":"Landkreis"},"federalState":{"key":"07","name":"Rheinland-Pfalz"}},{"name":"Südstr.","postalCode":"53489","locality":"Sinzig","municipality":{"key":"07131077","name":"Sinzig, Stadt","type":"Stadt"},"district":{"key":"07131","name":"Ahrweiler","type":"Landkreis"},"federalState":{"key":"07","name":"Rheinland-Pfalz"}},{"name":"Talendweg","postalCode":"53489","locality":"Sinzig","municipality":{"key":"07131077","name":"Sinzig, Stadt","type":"Stadt"},"district":{"key":"07131","name":"Ahrweiler","type":"Landkreis"},"federalState":{"key":"07","name":"Rheinland-Pfalz"}},{"name":"Talweg","postalCode":"53489","locality":"Sinzig","municipality":{"key":"07131077","name":"Sinzig, Stadt","type":"Stadt"},"district":{"key":"07131","name":"Ahrweiler","type":"Landkreis"},"federalState":{"key":"07","name":"Rheinland-Pfalz"}},{"name":"Töpfergasse","postalCode":"53489","locality":"Sinzig","municipality":{"key":"07131077","name":"Sinzig, Stadt","type":"Stadt"},"district":{"key":"07131","name":"Ahrweiler","type":"Landkreis"},"federalState":{"key":"07","name":"Rheinland-Pfalz"}},{"name":"Torhausgasse","postalCode":"53489","locality":"Sinzig","municipality":{"key":"07131077","name":"Sinzig, Stadt","type":"Stadt"},"district":{"key":"07131","name":"Ahrweiler","type":"Landkreis"},"federalState":{"key":"07","name":"Rheinland-Pfalz"}},{"name":"Trifterweg","postalCode":"53489","locality":"Sinzig","municipality":{"key":"07131077","name":"Sinzig, Stadt","type":"Stadt"},"district":{"key":"07131","name":"Ahrweiler","type":"Landkreis"},"federalState":{"key":"07","name":"Rheinland-Pfalz"}},{"name":"Tuchergasse","postalCode":"53489","locality":"Sinzig","municipality":{"key":"07131077","name":"Sinzig, Stadt","type":"Stadt"},"district":{"key":"07131","name":"Ahrweiler","type":"Landkreis"},"federalState":{"key":"07","name":"Rheinland-Pfalz"}},{"name":"Turmstr.","postalCode":"53489","locality":"Sinzig","municipality":{"key":"07131077","name":"Sinzig, Stadt","type":"Stadt"},"district":{"key":"07131","name":"Ahrweiler","type":"Landkreis"},"federalState":{"key":"07","name":"Rheinland-Pfalz"}},{"name":"Ulmenstr.","postalCode":"53489","locality":"Sinzig","municipality":{"key":"07131077","name":"Sinzig, Stadt","type":"Stadt"},"district":{"key":"07131","name":"Ahrweiler","type":"Landkreis"},"federalState":{"key":"07","name":"Rheinland-Pfalz"}},{"name":"Vehner Str.","postalCode":"53489","locality":"Sinzig","municipality":{"key":"07131077","name":"Sinzig, Stadt","type":"Stadt"},"district":{"key":"07131","name":"Ahrweiler","type":"Landkreis"},"federalState":{"key":"07","name":"Rheinland-Pfalz"}},{"name":"Vogelsangstr.","postalCode":"53489","locality":"Sinzig","municipality":{"key":"07131077","name":"Sinzig, Stadt","type":"Stadt"},"district":{"key":"07131","name":"Ahrweiler","type":"Landkreis"},"federalState":{"key":"07","name":"Rheinland-Pfalz"}},{"name":"Von-Are-Str.","postalCode":"53489","locality":"Sinzig","municipality":{"key":"07131077","name":"Sinzig, Stadt","type":"Stadt"},"district":{"key":"07131","name":"Ahrweiler","type":"Landkreis"},"federalState":{"key":"07","name":"Rheinland-Pfalz"}},{"name":"Vorm Buchholz","postalCode":"53489","locality":"Sinzig","municipality":{"key":"07131077","name":"Sinzig, Stadt","type":"Stadt"},"district":{"key":"07131","name":"Ahrweiler","type":"Landkreis"},"federalState":{"key":"07","name":"Rheinland-Pfalz"}},{"name":"Wachtelweg","postalCode":"53489","locality":"Sinzig","municipality":{"key":"07131077","name":"Sinzig, Stadt","type":"Stadt"},"district":{"key":"07131","name":"Ahrweiler","type":"Landkreis"},"federalState":{"key":"07","name":"Rheinland-Pfalz"}},{"name":"Waldorfer Weg","postalCode":"53489","locality":"Sinzig","municipality":{"key":"07131077","name":"Sinzig, Stadt","type":"Stadt"},"district":{"key":"07131","name":"Ahrweiler","type":"Landkreis"},"federalState":{"key":"07","name":"Rheinland-Pfalz"}},{"name":"Waldweg","postalCode":"53489","locality":"Sinzig","municipality":{"key":"07131077","name":"Sinzig, Stadt","type":"Stadt"},"district":{"key":"07131","name":"Ahrweiler","type":"Landkreis"},"federalState":{"key":"07","name":"Rheinland-Pfalz"}},{"name":"Wallstr.","postalCode":"53489","locality":"Sinzig","municipality":{"key":"07131077","name":"Sinzig, Stadt","type":"Stadt"},"district":{"key":"07131","name":"Ahrweiler","type":"Landkreis"},"federalState":{"key":"07","name":"Rheinland-Pfalz"}},{"name":"Weidenweg","postalCode":"53489","locality":"Sinzig","municipality":{"key":"07131077","name":"Sinzig, Stadt","type":"Stadt"},"district":{"key":"07131","name":"Ahrweiler","type":"Landkreis"},"federalState":{"key":"07","name":"Rheinland-Pfalz"}},{"name":"Weinbergstr.","postalCode":"53489","locality":"Sinzig","municipality":{"key":"07131077","name":"Sinzig, Stadt","type":"Stadt"},"district":{"key":"07131","name":"Ahrweiler","type":"Landkreis"},"federalState":{"key":"07","name":"Rheinland-Pfalz"}},{"name":"Welfenstr.","postalCode":"53489","locality":"Sinzig","municipality":{"key":"07131077","name":"Sinzig, Stadt","type":"Stadt"},"district":{"key":"07131","name":"Ahrweiler","type":"Landkreis"},"federalState":{"key":"07","name":"Rheinland-Pfalz"}},{"name":"Wendelinusstr.","postalCode":"53489","locality":"Sinzig","municipality":{"key":"07131077","name":"Sinzig, Stadt","type":"Stadt"},"district":{"key":"07131","name":"Ahrweiler","type":"Landkreis"},"federalState":{"key":"07","name":"Rheinland-Pfalz"}},{"name":"Werner-Lücke-Str.","postalCode":"53489","locality":"Sinzig","municipality":{"key":"07131077","name":"Sinzig, Stadt","type":"Stadt"},"district":{"key":"07131","name":"Ahrweiler","type":"Landkreis"},"federalState":{"key":"07","name":"Rheinland-Pfalz"}},{"name":"Westerwaldstr.","postalCode":"53489","locality":"Sinzig","municipality":{"key":"07131077","name":"Sinzig, Stadt","type":"Stadt"},"district":{"key":"07131","name":"Ahrweiler","type":"Landkreis"},"federalState":{"key":"07","name":"Rheinland-Pfalz"}},{"name":"Weststr.","postalCode":"53489","locality":"Sinzig","municipality":{"key":"07131077","name":"Sinzig, Stadt","type":"Stadt"},"district":{"key":"07131","name":"Ahrweiler","type":"Landkreis"},"federalState":{"key":"07","name":"Rheinland-Pfalz"}},{"name":"Westumer Str.","postalCode":"53489","locality":"Sinzig","municipality":{"key":"07131077","name":"Sinzig, Stadt","type":"Stadt"},"district":{"key":"07131","name":"Ahrweiler","type":"Landkreis"},"federalState":{"key":"07","name":"Rheinland-Pfalz"}},{"name":"Weyerburgstr.","postalCode":"53489","locality":"Sinzig","municipality":{"key":"07131077","name":"Sinzig, Stadt","type":"Stadt"},"district":{"key":"07131","name":"Ahrweiler","type":"Landkreis"},"federalState":{"key":"07","name":"Rheinland-Pfalz"}},{"name":"Zehnthofstr.","postalCode":"53489","locality":"Sinzig","municipality":{"key":"07131077","name":"Sinzig, Stadt","type":"Stadt"},"district":{"key":"07131","name":"Ahrweiler","type":"Landkreis"},"federalState":{"key":"07","name":"Rheinland-Pfalz"}},{"name":"Zeisigweg","postalCode":"53489","locality":"Sinzig","municipality":{"key":"07131077","name":"Sinzig, Stadt","type":"Stadt"},"district":{"key":"07131","name":"Ahrweiler","type":"Landkreis"},"federalState":{"key":"07","name":"Rheinland-Pfalz"}},{"name":"Zur Ahrtalstr.","postalCode":"53489","locality":"Sinzig","municipality":{"key":"07131077","name":"Sinzig, Stadt","type":"Stadt"},"district":{"key":"07131","name":"Ahrweiler","type":"Landkreis"},"federalState":{"key":"07","name":"Rheinland-Pfalz"}},]