[{"name":"Akazienweg","postalCode":"15517","locality":"Fürstenwalde/Spree","municipality":{"key":"12067144","name":"Fürstenwalde/Spree, Stadt","type":"Stadt"},"district":{"key":"12067","name":"Oder-Spree","type":"Landkreis"},"federalState":{"key":"12","name":"Brandenburg"}},{"name":"Albert-Genz-Str.","postalCode":"15517","locality":"Fürstenwalde/Spree","municipality":{"key":"12067144","name":"Fürstenwalde/Spree, Stadt","type":"Stadt"},"district":{"key":"12067","name":"Oder-Spree","type":"Landkreis"},"federalState":{"key":"12","name":"Brandenburg"}},{"name":"Albert-Kleeberg-Str.","postalCode":"15517","locality":"Fürstenwalde/Spree","municipality":{"key":"12067144","name":"Fürstenwalde/Spree, Stadt","type":"Stadt"},"district":{"key":"12067","name":"Oder-Spree","type":"Landkreis"},"federalState":{"key":"12","name":"Brandenburg"}},{"name":"Alexisstr.","postalCode":"15517","locality":"Fürstenwalde/Spree","municipality":{"key":"12067144","name":"Fürstenwalde/Spree, Stadt","type":"Stadt"},"district":{"key":"12067","name":"Oder-Spree","type":"Landkreis"},"federalState":{"key":"12","name":"Brandenburg"}},{"name":"Alte Langewahler Chaussee","postalCode":"15517","locality":"Fürstenwalde/Spree","municipality":{"key":"12067144","name":"Fürstenwalde/Spree, Stadt","type":"Stadt"},"district":{"key":"12067","name":"Oder-Spree","type":"Landkreis"},"federalState":{"key":"12","name":"Brandenburg"}},{"name":"Alte Neuendorfer Str.","postalCode":"15517","locality":"Fürstenwalde/Spree","municipality":{"key":"12067144","name":"Fürstenwalde/Spree, Stadt","type":"Stadt"},"district":{"key":"12067","name":"Oder-Spree","type":"Landkreis"},"federalState":{"key":"12","name":"Brandenburg"}},{"name":"Alte Petersdorfer Str.","postalCode":"15517","locality":"Fürstenwalde/Spree","municipality":{"key":"12067144","name":"Fürstenwalde/Spree, Stadt","type":"Stadt"},"district":{"key":"12067","name":"Oder-Spree","type":"Landkreis"},"federalState":{"key":"12","name":"Brandenburg"}},{"name":"Alter Postweg","postalCode":"15517","locality":"Fürstenwalde/Spree","municipality":{"key":"12067144","name":"Fürstenwalde/Spree, Stadt","type":"Stadt"},"district":{"key":"12067","name":"Oder-Spree","type":"Landkreis"},"federalState":{"key":"12","name":"Brandenburg"}},{"name":"Altstadt","postalCode":"15517","locality":"Fürstenwalde/Spree","municipality":{"key":"12067144","name":"Fürstenwalde/Spree, Stadt","type":"Stadt"},"district":{"key":"12067","name":"Oder-Spree","type":"Landkreis"},"federalState":{"key":"12","name":"Brandenburg"}},{"name":"Altstädter Platz","postalCode":"15517","locality":"Fürstenwalde/Spree","municipality":{"key":"12067144","name":"Fürstenwalde/Spree, Stadt","type":"Stadt"},"district":{"key":"12067","name":"Oder-Spree","type":"Landkreis"},"federalState":{"key":"12","name":"Brandenburg"}},{"name":"Altstädter Ring","postalCode":"15517","locality":"Fürstenwalde/Spree","municipality":{"key":"12067144","name":"Fürstenwalde/Spree, Stadt","type":"Stadt"},"district":{"key":"12067","name":"Oder-Spree","type":"Landkreis"},"federalState":{"key":"12","name":"Brandenburg"}},{"name":"Am alten Sauerstoffwerk","postalCode":"15517","locality":"Fürstenwalde/Spree","municipality":{"key":"12067144","name":"Fürstenwalde/Spree, Stadt","type":"Stadt"},"district":{"key":"12067","name":"Oder-Spree","type":"Landkreis"},"federalState":{"key":"12","name":"Brandenburg"}},{"name":"Am Bahndamm","postalCode":"15517","locality":"Fürstenwalde/Spree","municipality":{"key":"12067144","name":"Fürstenwalde/Spree, Stadt","type":"Stadt"},"district":{"key":"12067","name":"Oder-Spree","type":"Landkreis"},"federalState":{"key":"12","name":"Brandenburg"}},{"name":"Am Bahnhof","postalCode":"15517","locality":"Fürstenwalde/Spree","municipality":{"key":"12067144","name":"Fürstenwalde/Spree, Stadt","type":"Stadt"},"district":{"key":"12067","name":"Oder-Spree","type":"Landkreis"},"federalState":{"key":"12","name":"Brandenburg"}},{"name":"Am Berghang","postalCode":"15517","locality":"Fürstenwalde/Spree","municipality":{"key":"12067144","name":"Fürstenwalde/Spree, Stadt","type":"Stadt"},"district":{"key":"12067","name":"Oder-Spree","type":"Landkreis"},"federalState":{"key":"12","name":"Brandenburg"}},{"name":"Am Fuchsbau","postalCode":"15517","locality":"Fürstenwalde/Spree","municipality":{"key":"12067144","name":"Fürstenwalde/Spree, Stadt","type":"Stadt"},"district":{"key":"12067","name":"Oder-Spree","type":"Landkreis"},"federalState":{"key":"12","name":"Brandenburg"}},{"name":"Am Kaiserhof","postalCode":"15517","locality":"Fürstenwalde/Spree","municipality":{"key":"12067144","name":"Fürstenwalde/Spree, Stadt","type":"Stadt"},"district":{"key":"12067","name":"Oder-Spree","type":"Landkreis"},"federalState":{"key":"12","name":"Brandenburg"}},{"name":"Am Niederlagetor","postalCode":"15517","locality":"Fürstenwalde/Spree","municipality":{"key":"12067144","name":"Fürstenwalde/Spree, Stadt","type":"Stadt"},"district":{"key":"12067","name":"Oder-Spree","type":"Landkreis"},"federalState":{"key":"12","name":"Brandenburg"}},{"name":"Ampferweg","postalCode":"15517","locality":"Fürstenwalde/Spree","municipality":{"key":"12067144","name":"Fürstenwalde/Spree, Stadt","type":"Stadt"},"district":{"key":"12067","name":"Oder-Spree","type":"Landkreis"},"federalState":{"key":"12","name":"Brandenburg"}},{"name":"Am Rechenzentrum","postalCode":"15517","locality":"Fürstenwalde/Spree","municipality":{"key":"12067144","name":"Fürstenwalde/Spree, Stadt","type":"Stadt"},"district":{"key":"12067","name":"Oder-Spree","type":"Landkreis"},"federalState":{"key":"12","name":"Brandenburg"}},{"name":"Am Schloßturm","postalCode":"15517","locality":"Fürstenwalde/Spree","municipality":{"key":"12067144","name":"Fürstenwalde/Spree, Stadt","type":"Stadt"},"district":{"key":"12067","name":"Oder-Spree","type":"Landkreis"},"federalState":{"key":"12","name":"Brandenburg"}},{"name":"Amselweg","postalCode":"15517","locality":"Fürstenwalde/Spree","municipality":{"key":"12067144","name":"Fürstenwalde/Spree, Stadt","type":"Stadt"},"district":{"key":"12067","name":"Oder-Spree","type":"Landkreis"},"federalState":{"key":"12","name":"Brandenburg"}},{"name":"Am Stadtpark","postalCode":"15517","locality":"Fürstenwalde/Spree","municipality":{"key":"12067144","name":"Fürstenwalde/Spree, Stadt","type":"Stadt"},"district":{"key":"12067","name":"Oder-Spree","type":"Landkreis"},"federalState":{"key":"12","name":"Brandenburg"}},{"name":"Am Waldemarplatz","postalCode":"15517","locality":"Fürstenwalde/Spree","municipality":{"key":"12067144","name":"Fürstenwalde/Spree, Stadt","type":"Stadt"},"district":{"key":"12067","name":"Oder-Spree","type":"Landkreis"},"federalState":{"key":"12","name":"Brandenburg"}},{"name":"Am Wasserturm","postalCode":"15517","locality":"Fürstenwalde/Spree","municipality":{"key":"12067144","name":"Fürstenwalde/Spree, Stadt","type":"Stadt"},"district":{"key":"12067","name":"Oder-Spree","type":"Landkreis"},"federalState":{"key":"12","name":"Brandenburg"}},{"name":"An der Autobahn","postalCode":"15517","locality":"Fürstenwalde/Spree","municipality":{"key":"12067144","name":"Fürstenwalde/Spree, Stadt","type":"Stadt"},"district":{"key":"12067","name":"Oder-Spree","type":"Landkreis"},"federalState":{"key":"12","name":"Brandenburg"}},{"name":"An der Bahn","postalCode":"15517","locality":"Fürstenwalde/Spree","municipality":{"key":"12067144","name":"Fürstenwalde/Spree, Stadt","type":"Stadt"},"district":{"key":"12067","name":"Oder-Spree","type":"Landkreis"},"federalState":{"key":"12","name":"Brandenburg"}},{"name":"An der Kohlenbahn","postalCode":"15517","locality":"Fürstenwalde/Spree","municipality":{"key":"12067144","name":"Fürstenwalde/Spree, Stadt","type":"Stadt"},"district":{"key":"12067","name":"Oder-Spree","type":"Landkreis"},"federalState":{"key":"12","name":"Brandenburg"}},{"name":"An der Oderbruchbahn","postalCode":"15517","locality":"Fürstenwalde/Spree","municipality":{"key":"12067144","name":"Fürstenwalde/Spree, Stadt","type":"Stadt"},"district":{"key":"12067","name":"Oder-Spree","type":"Landkreis"},"federalState":{"key":"12","name":"Brandenburg"}},{"name":"Annemirl-Bauer-Str.","postalCode":"15517","locality":"Fürstenwalde/Spree","municipality":{"key":"12067144","name":"Fürstenwalde/Spree, Stadt","type":"Stadt"},"district":{"key":"12067","name":"Oder-Spree","type":"Landkreis"},"federalState":{"key":"12","name":"Brandenburg"}},{"name":"Artur-Becker-Str.","postalCode":"15517","locality":"Fürstenwalde/Spree","municipality":{"key":"12067144","name":"Fürstenwalde/Spree, Stadt","type":"Stadt"},"district":{"key":"12067","name":"Oder-Spree","type":"Landkreis"},"federalState":{"key":"12","name":"Brandenburg"}},{"name":"August-Bebel-Str.","postalCode":"15517","locality":"Fürstenwalde/Spree","municipality":{"key":"12067144","name":"Fürstenwalde/Spree, Stadt","type":"Stadt"},"district":{"key":"12067","name":"Oder-Spree","type":"Landkreis"},"federalState":{"key":"12","name":"Brandenburg"}},{"name":"August-Crelle-Str.","postalCode":"15517","locality":"Fürstenwalde/Spree","municipality":{"key":"12067144","name":"Fürstenwalde/Spree, Stadt","type":"Stadt"},"district":{"key":"12067","name":"Oder-Spree","type":"Landkreis"},"federalState":{"key":"12","name":"Brandenburg"}},{"name":"Ausbau Ost","postalCode":"15517","locality":"Fürstenwalde/Spree","municipality":{"key":"12067144","name":"Fürstenwalde/Spree, Stadt","type":"Stadt"},"district":{"key":"12067","name":"Oder-Spree","type":"Landkreis"},"federalState":{"key":"12","name":"Brandenburg"}},{"name":"Ausbau West-Bahnhaus","postalCode":"15517","locality":"Fürstenwalde/Spree","municipality":{"key":"12067144","name":"Fürstenwalde/Spree, Stadt","type":"Stadt"},"district":{"key":"12067","name":"Oder-Spree","type":"Landkreis"},"federalState":{"key":"12","name":"Brandenburg"}},{"name":"Auto-Focus","postalCode":"15517","locality":"Fürstenwalde/Spree","municipality":{"key":"12067144","name":"Fürstenwalde/Spree, Stadt","type":"Stadt"},"district":{"key":"12067","name":"Oder-Spree","type":"Landkreis"},"federalState":{"key":"12","name":"Brandenburg"}},{"name":"Bahnhofstr.","postalCode":"15517","locality":"Fürstenwalde/Spree","municipality":{"key":"12067144","name":"Fürstenwalde/Spree, Stadt","type":"Stadt"},"district":{"key":"12067","name":"Oder-Spree","type":"Landkreis"},"federalState":{"key":"12","name":"Brandenburg"}},{"name":"Beerenweg","postalCode":"15517","locality":"Fürstenwalde/Spree","municipality":{"key":"12067144","name":"Fürstenwalde/Spree, Stadt","type":"Stadt"},"district":{"key":"12067","name":"Oder-Spree","type":"Landkreis"},"federalState":{"key":"12","name":"Brandenburg"}},{"name":"Beerfelder Str.","postalCode":"15517","locality":"Fürstenwalde/Spree","municipality":{"key":"12067144","name":"Fürstenwalde/Spree, Stadt","type":"Stadt"},"district":{"key":"12067","name":"Oder-Spree","type":"Landkreis"},"federalState":{"key":"12","name":"Brandenburg"}},{"name":"Beethovenstr.","postalCode":"15517","locality":"Fürstenwalde/Spree","municipality":{"key":"12067144","name":"Fürstenwalde/Spree, Stadt","type":"Stadt"},"district":{"key":"12067","name":"Oder-Spree","type":"Landkreis"},"federalState":{"key":"12","name":"Brandenburg"}},{"name":"Bergstr.","postalCode":"15517","locality":"Fürstenwalde/Spree","municipality":{"key":"12067144","name":"Fürstenwalde/Spree, Stadt","type":"Stadt"},"district":{"key":"12067","name":"Oder-Spree","type":"Landkreis"},"federalState":{"key":"12","name":"Brandenburg"}},{"name":"Berkenbrücker Chaussee","postalCode":"15517","locality":"Fürstenwalde/Spree","municipality":{"key":"12067144","name":"Fürstenwalde/Spree, Stadt","type":"Stadt"},"district":{"key":"12067","name":"Oder-Spree","type":"Landkreis"},"federalState":{"key":"12","name":"Brandenburg"}},{"name":"Berliner Str.","postalCode":"15517","locality":"Fürstenwalde/Spree","municipality":{"key":"12067144","name":"Fürstenwalde/Spree, Stadt","type":"Stadt"},"district":{"key":"12067","name":"Oder-Spree","type":"Landkreis"},"federalState":{"key":"12","name":"Brandenburg"}},{"name":"Bettina-von-Arnim-Str.","postalCode":"15517","locality":"Fürstenwalde/Spree","municipality":{"key":"12067144","name":"Fürstenwalde/Spree, Stadt","type":"Stadt"},"district":{"key":"12067","name":"Oder-Spree","type":"Landkreis"},"federalState":{"key":"12","name":"Brandenburg"}},{"name":"Birkenweg","postalCode":"15517","locality":"Fürstenwalde/Spree","municipality":{"key":"12067144","name":"Fürstenwalde/Spree, Stadt","type":"Stadt"},"district":{"key":"12067","name":"Oder-Spree","type":"Landkreis"},"federalState":{"key":"12","name":"Brandenburg"}},{"name":"Bischofstr.","postalCode":"15517","locality":"Fürstenwalde/Spree","municipality":{"key":"12067144","name":"Fürstenwalde/Spree, Stadt","type":"Stadt"},"district":{"key":"12067","name":"Oder-Spree","type":"Landkreis"},"federalState":{"key":"12","name":"Brandenburg"}},{"name":"Blumenstr.","postalCode":"15517","locality":"Fürstenwalde/Spree","municipality":{"key":"12067144","name":"Fürstenwalde/Spree, Stadt","type":"Stadt"},"district":{"key":"12067","name":"Oder-Spree","type":"Landkreis"},"federalState":{"key":"12","name":"Brandenburg"}},{"name":"Borodinstr.","postalCode":"15517","locality":"Fürstenwalde/Spree","municipality":{"key":"12067144","name":"Fürstenwalde/Spree, Stadt","type":"Stadt"},"district":{"key":"12067","name":"Oder-Spree","type":"Landkreis"},"federalState":{"key":"12","name":"Brandenburg"}},{"name":"Braunsdorfer Chaussee","postalCode":"15517","locality":"Fürstenwalde/Spree","municipality":{"key":"12067144","name":"Fürstenwalde/Spree, Stadt","type":"Stadt"},"district":{"key":"12067","name":"Oder-Spree","type":"Landkreis"},"federalState":{"key":"12","name":"Brandenburg"}},{"name":"Breitenbachstr.","postalCode":"15517","locality":"Fürstenwalde/Spree","municipality":{"key":"12067144","name":"Fürstenwalde/Spree, Stadt","type":"Stadt"},"district":{"key":"12067","name":"Oder-Spree","type":"Landkreis"},"federalState":{"key":"12","name":"Brandenburg"}},{"name":"Breite Str.","postalCode":"15517","locality":"Fürstenwalde/Spree","municipality":{"key":"12067144","name":"Fürstenwalde/Spree, Stadt","type":"Stadt"},"district":{"key":"12067","name":"Oder-Spree","type":"Landkreis"},"federalState":{"key":"12","name":"Brandenburg"}},{"name":"Briesener Str.","postalCode":"15517","locality":"Fürstenwalde/Spree","municipality":{"key":"12067144","name":"Fürstenwalde/Spree, Stadt","type":"Stadt"},"district":{"key":"12067","name":"Oder-Spree","type":"Landkreis"},"federalState":{"key":"12","name":"Brandenburg"}},{"name":"Brombeerweg","postalCode":"15517","locality":"Fürstenwalde/Spree","municipality":{"key":"12067144","name":"Fürstenwalde/Spree, Stadt","type":"Stadt"},"district":{"key":"12067","name":"Oder-Spree","type":"Landkreis"},"federalState":{"key":"12","name":"Brandenburg"}},{"name":"Buchenweg","postalCode":"15517","locality":"Fürstenwalde/Spree","municipality":{"key":"12067144","name":"Fürstenwalde/Spree, Stadt","type":"Stadt"},"district":{"key":"12067","name":"Oder-Spree","type":"Landkreis"},"federalState":{"key":"12","name":"Brandenburg"}},{"name":"Buchholzer Chaussee","postalCode":"15517","locality":"Fürstenwalde/Spree","municipality":{"key":"12067144","name":"Fürstenwalde/Spree, Stadt","type":"Stadt"},"district":{"key":"12067","name":"Oder-Spree","type":"Landkreis"},"federalState":{"key":"12","name":"Brandenburg"}},{"name":"Buchholzer Str.","postalCode":"15517","locality":"Fürstenwalde/Spree","municipality":{"key":"12067144","name":"Fürstenwalde/Spree, Stadt","type":"Stadt"},"district":{"key":"12067","name":"Oder-Spree","type":"Landkreis"},"federalState":{"key":"12","name":"Brandenburg"}},{"name":"Buckower Str.","postalCode":"15517","locality":"Fürstenwalde/Spree","municipality":{"key":"12067144","name":"Fürstenwalde/Spree, Stadt","type":"Stadt"},"district":{"key":"12067","name":"Oder-Spree","type":"Landkreis"},"federalState":{"key":"12","name":"Brandenburg"}},{"name":"Buggenhagenstr.","postalCode":"15517","locality":"Fürstenwalde/Spree","municipality":{"key":"12067144","name":"Fürstenwalde/Spree, Stadt","type":"Stadt"},"district":{"key":"12067","name":"Oder-Spree","type":"Landkreis"},"federalState":{"key":"12","name":"Brandenburg"}},{"name":"Bullenweg","postalCode":"15517","locality":"Fürstenwalde/Spree","municipality":{"key":"12067144","name":"Fürstenwalde/Spree, Stadt","type":"Stadt"},"district":{"key":"12067","name":"Oder-Spree","type":"Landkreis"},"federalState":{"key":"12","name":"Brandenburg"}},{"name":"Buschgarten","postalCode":"15517","locality":"Fürstenwalde/Spree","municipality":{"key":"12067144","name":"Fürstenwalde/Spree, Stadt","type":"Stadt"},"district":{"key":"12067","name":"Oder-Spree","type":"Landkreis"},"federalState":{"key":"12","name":"Brandenburg"}},{"name":"Charlotte-Apel-Str.","postalCode":"15517","locality":"Fürstenwalde/Spree","municipality":{"key":"12067144","name":"Fürstenwalde/Spree, Stadt","type":"Stadt"},"district":{"key":"12067","name":"Oder-Spree","type":"Landkreis"},"federalState":{"key":"12","name":"Brandenburg"}},{"name":"Charlotte-Fenske-Str.","postalCode":"15517","locality":"Fürstenwalde/Spree","municipality":{"key":"12067144","name":"Fürstenwalde/Spree, Stadt","type":"Stadt"},"district":{"key":"12067","name":"Oder-Spree","type":"Landkreis"},"federalState":{"key":"12","name":"Brandenburg"}},{"name":"Christian-Mentzel-Promenade","postalCode":"15517","locality":"Fürstenwalde/Spree","municipality":{"key":"12067144","name":"Fürstenwalde/Spree, Stadt","type":"Stadt"},"district":{"key":"12067","name":"Oder-Spree","type":"Landkreis"},"federalState":{"key":"12","name":"Brandenburg"}},{"name":"Clara-Grunwald-Weg","postalCode":"15517","locality":"Fürstenwalde/Spree","municipality":{"key":"12067144","name":"Fürstenwalde/Spree, Stadt","type":"Stadt"},"district":{"key":"12067","name":"Oder-Spree","type":"Landkreis"},"federalState":{"key":"12","name":"Brandenburg"}},{"name":"Clausiusstr.","postalCode":"15517","locality":"Fürstenwalde/Spree","municipality":{"key":"12067144","name":"Fürstenwalde/Spree, Stadt","type":"Stadt"},"district":{"key":"12067","name":"Oder-Spree","type":"Landkreis"},"federalState":{"key":"12","name":"Brandenburg"}},{"name":"Clematisweg","postalCode":"15517","locality":"Fürstenwalde/Spree","municipality":{"key":"12067144","name":"Fürstenwalde/Spree, Stadt","type":"Stadt"},"district":{"key":"12067","name":"Oder-Spree","type":"Landkreis"},"federalState":{"key":"12","name":"Brandenburg"}},{"name":"Daheim","postalCode":"15517","locality":"Fürstenwalde/Spree","municipality":{"key":"12067144","name":"Fürstenwalde/Spree, Stadt","type":"Stadt"},"district":{"key":"12067","name":"Oder-Spree","type":"Landkreis"},"federalState":{"key":"12","name":"Brandenburg"}},{"name":"Distelweg","postalCode":"15517","locality":"Fürstenwalde/Spree","municipality":{"key":"12067144","name":"Fürstenwalde/Spree, Stadt","type":"Stadt"},"district":{"key":"12067","name":"Oder-Spree","type":"Landkreis"},"federalState":{"key":"12","name":"Brandenburg"}},{"name":"Domgasse","postalCode":"15517","locality":"Fürstenwalde/Spree","municipality":{"key":"12067144","name":"Fürstenwalde/Spree, Stadt","type":"Stadt"},"district":{"key":"12067","name":"Oder-Spree","type":"Landkreis"},"federalState":{"key":"12","name":"Brandenburg"}},{"name":"Domplatz","postalCode":"15517","locality":"Fürstenwalde/Spree","municipality":{"key":"12067144","name":"Fürstenwalde/Spree, Stadt","type":"Stadt"},"district":{"key":"12067","name":"Oder-Spree","type":"Landkreis"},"federalState":{"key":"12","name":"Brandenburg"}},{"name":"Domstr.","postalCode":"15517","locality":"Fürstenwalde/Spree","municipality":{"key":"12067144","name":"Fürstenwalde/Spree, Stadt","type":"Stadt"},"district":{"key":"12067","name":"Oder-Spree","type":"Landkreis"},"federalState":{"key":"12","name":"Brandenburg"}},{"name":"Dr.-Cupei-Str.","postalCode":"15517","locality":"Fürstenwalde/Spree","municipality":{"key":"12067144","name":"Fürstenwalde/Spree, Stadt","type":"Stadt"},"district":{"key":"12067","name":"Oder-Spree","type":"Landkreis"},"federalState":{"key":"12","name":"Brandenburg"}},{"name":"Drosselweg","postalCode":"15517","locality":"Fürstenwalde/Spree","municipality":{"key":"12067144","name":"Fürstenwalde/Spree, Stadt","type":"Stadt"},"district":{"key":"12067","name":"Oder-Spree","type":"Landkreis"},"federalState":{"key":"12","name":"Brandenburg"}},{"name":"Dr.-Semmelweis-Str.","postalCode":"15517","locality":"Fürstenwalde/Spree","municipality":{"key":"12067144","name":"Fürstenwalde/Spree, Stadt","type":"Stadt"},"district":{"key":"12067","name":"Oder-Spree","type":"Landkreis"},"federalState":{"key":"12","name":"Brandenburg"}},{"name":"Dr.-Theodor-Neubauer-Str.","postalCode":"15517","locality":"Fürstenwalde/Spree","municipality":{"key":"12067144","name":"Fürstenwalde/Spree, Stadt","type":"Stadt"},"district":{"key":"12067","name":"Oder-Spree","type":"Landkreis"},"federalState":{"key":"12","name":"Brandenburg"}},{"name":"Dr.-Wilhelm-Külz-Str.","postalCode":"15517","locality":"Fürstenwalde/Spree","municipality":{"key":"12067144","name":"Fürstenwalde/Spree, Stadt","type":"Stadt"},"district":{"key":"12067","name":"Oder-Spree","type":"Landkreis"},"federalState":{"key":"12","name":"Brandenburg"}},{"name":"Ebereschenstr.","postalCode":"15517","locality":"Fürstenwalde/Spree","municipality":{"key":"12067144","name":"Fürstenwalde/Spree, Stadt","type":"Stadt"},"district":{"key":"12067","name":"Oder-Spree","type":"Landkreis"},"federalState":{"key":"12","name":"Brandenburg"}},{"name":"Edeltraut-Soot-Str.","postalCode":"15517","locality":"Fürstenwalde/Spree","municipality":{"key":"12067144","name":"Fürstenwalde/Spree, Stadt","type":"Stadt"},"district":{"key":"12067","name":"Oder-Spree","type":"Landkreis"},"federalState":{"key":"12","name":"Brandenburg"}},{"name":"ehem. K 6753","postalCode":"15517","locality":"Fürstenwalde/Spree","municipality":{"key":"12067144","name":"Fürstenwalde/Spree, Stadt","type":"Stadt"},"district":{"key":"12067","name":"Oder-Spree","type":"Landkreis"},"federalState":{"key":"12","name":"Brandenburg"}},{"name":"Ehrenfried-Jopp-Str.","postalCode":"15517","locality":"Fürstenwalde/Spree","municipality":{"key":"12067144","name":"Fürstenwalde/Spree, Stadt","type":"Stadt"},"district":{"key":"12067","name":"Oder-Spree","type":"Landkreis"},"federalState":{"key":"12","name":"Brandenburg"}},{"name":"Eisenbahnstr.","postalCode":"15517","locality":"Fürstenwalde/Spree","municipality":{"key":"12067144","name":"Fürstenwalde/Spree, Stadt","type":"Stadt"},"district":{"key":"12067","name":"Oder-Spree","type":"Landkreis"},"federalState":{"key":"12","name":"Brandenburg"}},{"name":"Elisabeth-Brade-Str.","postalCode":"15517","locality":"Fürstenwalde/Spree","municipality":{"key":"12067144","name":"Fürstenwalde/Spree, Stadt","type":"Stadt"},"district":{"key":"12067","name":"Oder-Spree","type":"Landkreis"},"federalState":{"key":"12","name":"Brandenburg"}},{"name":"Emma-Reich-Str.","postalCode":"15517","locality":"Fürstenwalde/Spree","municipality":{"key":"12067144","name":"Fürstenwalde/Spree, Stadt","type":"Stadt"},"district":{"key":"12067","name":"Oder-Spree","type":"Landkreis"},"federalState":{"key":"12","name":"Brandenburg"}},{"name":"Erich-Weinert-Siedlung","postalCode":"15517","locality":"Fürstenwalde/Spree","municipality":{"key":"12067144","name":"Fürstenwalde/Spree, Stadt","type":"Stadt"},"district":{"key":"12067","name":"Oder-Spree","type":"Landkreis"},"federalState":{"key":"12","name":"Brandenburg"}},{"name":"Erich-Weinert-Str.","postalCode":"15517","locality":"Fürstenwalde/Spree","municipality":{"key":"12067144","name":"Fürstenwalde/Spree, Stadt","type":"Stadt"},"district":{"key":"12067","name":"Oder-Spree","type":"Landkreis"},"federalState":{"key":"12","name":"Brandenburg"}},{"name":"Erikaweg","postalCode":"15517","locality":"Fürstenwalde/Spree","municipality":{"key":"12067144","name":"Fürstenwalde/Spree, Stadt","type":"Stadt"},"district":{"key":"12067","name":"Oder-Spree","type":"Landkreis"},"federalState":{"key":"12","name":"Brandenburg"}},{"name":"Erlenweg","postalCode":"15517","locality":"Fürstenwalde/Spree","municipality":{"key":"12067144","name":"Fürstenwalde/Spree, Stadt","type":"Stadt"},"district":{"key":"12067","name":"Oder-Spree","type":"Landkreis"},"federalState":{"key":"12","name":"Brandenburg"}},{"name":"Ernst-Grube-Str.","postalCode":"15517","locality":"Fürstenwalde/Spree","municipality":{"key":"12067144","name":"Fürstenwalde/Spree, Stadt","type":"Stadt"},"district":{"key":"12067","name":"Oder-Spree","type":"Landkreis"},"federalState":{"key":"12","name":"Brandenburg"}},{"name":"Ernst-Laas-Str.","postalCode":"15517","locality":"Fürstenwalde/Spree","municipality":{"key":"12067144","name":"Fürstenwalde/Spree, Stadt","type":"Stadt"},"district":{"key":"12067","name":"Oder-Spree","type":"Landkreis"},"federalState":{"key":"12","name":"Brandenburg"}},{"name":"Ernst-Thälmann-Str.","postalCode":"15517","locality":"Fürstenwalde/Spree","municipality":{"key":"12067144","name":"Fürstenwalde/Spree, Stadt","type":"Stadt"},"district":{"key":"12067","name":"Oder-Spree","type":"Landkreis"},"federalState":{"key":"12","name":"Brandenburg"}},{"name":"Fabrikstr.","postalCode":"15517","locality":"Fürstenwalde/Spree","municipality":{"key":"12067144","name":"Fürstenwalde/Spree, Stadt","type":"Stadt"},"district":{"key":"12067","name":"Oder-Spree","type":"Landkreis"},"federalState":{"key":"12","name":"Brandenburg"}},{"name":"Feldstr.","postalCode":"15517","locality":"Fürstenwalde/Spree","municipality":{"key":"12067144","name":"Fürstenwalde/Spree, Stadt","type":"Stadt"},"district":{"key":"12067","name":"Oder-Spree","type":"Landkreis"},"federalState":{"key":"12","name":"Brandenburg"}},{"name":"Feldweg","postalCode":"15517","locality":"Fürstenwalde/Spree","municipality":{"key":"12067144","name":"Fürstenwalde/Spree, Stadt","type":"Stadt"},"district":{"key":"12067","name":"Oder-Spree","type":"Landkreis"},"federalState":{"key":"12","name":"Brandenburg"}},{"name":"Fenchelweg","postalCode":"15517","locality":"Fürstenwalde/Spree","municipality":{"key":"12067144","name":"Fürstenwalde/Spree, Stadt","type":"Stadt"},"district":{"key":"12067","name":"Oder-Spree","type":"Landkreis"},"federalState":{"key":"12","name":"Brandenburg"}},{"name":"Ferdinand-Bauer-Str.","postalCode":"15517","locality":"Fürstenwalde/Spree","municipality":{"key":"12067144","name":"Fürstenwalde/Spree, Stadt","type":"Stadt"},"district":{"key":"12067","name":"Oder-Spree","type":"Landkreis"},"federalState":{"key":"12","name":"Brandenburg"}},{"name":"Feuergraben","postalCode":"15517","locality":"Fürstenwalde/Spree","municipality":{"key":"12067144","name":"Fürstenwalde/Spree, Stadt","type":"Stadt"},"district":{"key":"12067","name":"Oder-Spree","type":"Landkreis"},"federalState":{"key":"12","name":"Brandenburg"}},{"name":"Fichtenwinkel","postalCode":"15517","locality":"Fürstenwalde/Spree","municipality":{"key":"12067144","name":"Fürstenwalde/Spree, Stadt","type":"Stadt"},"district":{"key":"12067","name":"Oder-Spree","type":"Landkreis"},"federalState":{"key":"12","name":"Brandenburg"}},{"name":"Fichtestr.","postalCode":"15517","locality":"Fürstenwalde/Spree","municipality":{"key":"12067144","name":"Fürstenwalde/Spree, Stadt","type":"Stadt"},"district":{"key":"12067","name":"Oder-Spree","type":"Landkreis"},"federalState":{"key":"12","name":"Brandenburg"}},{"name":"Fiete-Schulze-Str.","postalCode":"15517","locality":"Fürstenwalde/Spree","municipality":{"key":"12067144","name":"Fürstenwalde/Spree, Stadt","type":"Stadt"},"district":{"key":"12067","name":"Oder-Spree","type":"Landkreis"},"federalState":{"key":"12","name":"Brandenburg"}},{"name":"Fingerkrautweg","postalCode":"15517","locality":"Fürstenwalde/Spree","municipality":{"key":"12067144","name":"Fürstenwalde/Spree, Stadt","type":"Stadt"},"district":{"key":"12067","name":"Oder-Spree","type":"Landkreis"},"federalState":{"key":"12","name":"Brandenburg"}},{"name":"Finkenweg","postalCode":"15517","locality":"Fürstenwalde/Spree","municipality":{"key":"12067144","name":"Fürstenwalde/Spree, Stadt","type":"Stadt"},"district":{"key":"12067","name":"Oder-Spree","type":"Landkreis"},"federalState":{"key":"12","name":"Brandenburg"}},{"name":"Fischerstr.","postalCode":"15517","locality":"Fürstenwalde/Spree","municipality":{"key":"12067144","name":"Fürstenwalde/Spree, Stadt","type":"Stadt"},"district":{"key":"12067","name":"Oder-Spree","type":"Landkreis"},"federalState":{"key":"12","name":"Brandenburg"}},{"name":"Fitnesspfad","postalCode":"15517","locality":"Fürstenwalde/Spree","municipality":{"key":"12067144","name":"Fürstenwalde/Spree, Stadt","type":"Stadt"},"district":{"key":"12067","name":"Oder-Spree","type":"Landkreis"},"federalState":{"key":"12","name":"Brandenburg"}},{"name":"Fliederweg","postalCode":"15517","locality":"Fürstenwalde/Spree","municipality":{"key":"12067144","name":"Fürstenwalde/Spree, Stadt","type":"Stadt"},"district":{"key":"12067","name":"Oder-Spree","type":"Landkreis"},"federalState":{"key":"12","name":"Brandenburg"}},{"name":"Förstereiweg","postalCode":"15517","locality":"Fürstenwalde/Spree","municipality":{"key":"12067144","name":"Fürstenwalde/Spree, Stadt","type":"Stadt"},"district":{"key":"12067","name":"Oder-Spree","type":"Landkreis"},"federalState":{"key":"12","name":"Brandenburg"}},{"name":"Forsthaus Beerenbusch","postalCode":"15517","locality":"Fürstenwalde/Spree","municipality":{"key":"12067144","name":"Fürstenwalde/Spree, Stadt","type":"Stadt"},"district":{"key":"12067","name":"Oder-Spree","type":"Landkreis"},"federalState":{"key":"12","name":"Brandenburg"}},{"name":"Frankfurter Str.","postalCode":"15517","locality":"Fürstenwalde/Spree","municipality":{"key":"12067144","name":"Fürstenwalde/Spree, Stadt","type":"Stadt"},"district":{"key":"12067","name":"Oder-Spree","type":"Landkreis"},"federalState":{"key":"12","name":"Brandenburg"}},{"name":"Frieda-Engel-Weg","postalCode":"15517","locality":"Fürstenwalde/Spree","municipality":{"key":"12067144","name":"Fürstenwalde/Spree, Stadt","type":"Stadt"},"district":{"key":"12067","name":"Oder-Spree","type":"Landkreis"},"federalState":{"key":"12","name":"Brandenburg"}},{"name":"Friedenstr.","postalCode":"15517","locality":"Fürstenwalde/Spree","municipality":{"key":"12067144","name":"Fürstenwalde/Spree, Stadt","type":"Stadt"},"district":{"key":"12067","name":"Oder-Spree","type":"Landkreis"},"federalState":{"key":"12","name":"Brandenburg"}},{"name":"Friedhofstr.","postalCode":"15517","locality":"Fürstenwalde/Spree","municipality":{"key":"12067144","name":"Fürstenwalde/Spree, Stadt","type":"Stadt"},"district":{"key":"12067","name":"Oder-Spree","type":"Landkreis"},"federalState":{"key":"12","name":"Brandenburg"}},{"name":"Friedrich-Ebert-Str.","postalCode":"15517","locality":"Fürstenwalde/Spree","municipality":{"key":"12067144","name":"Fürstenwalde/Spree, Stadt","type":"Stadt"},"district":{"key":"12067","name":"Oder-Spree","type":"Landkreis"},"federalState":{"key":"12","name":"Brandenburg"}},{"name":"Friedrich-Engels-Str.","postalCode":"15517","locality":"Fürstenwalde/Spree","municipality":{"key":"12067144","name":"Fürstenwalde/Spree, Stadt","type":"Stadt"},"district":{"key":"12067","name":"Oder-Spree","type":"Landkreis"},"federalState":{"key":"12","name":"Brandenburg"}},{"name":"Friedrich-Ludwig-Jahn-Ring","postalCode":"15517","locality":"Fürstenwalde/Spree","municipality":{"key":"12067144","name":"Fürstenwalde/Spree, Stadt","type":"Stadt"},"district":{"key":"12067","name":"Oder-Spree","type":"Landkreis"},"federalState":{"key":"12","name":"Brandenburg"}},{"name":"Friedrich-Naumann-Platz","postalCode":"15517","locality":"Fürstenwalde/Spree","municipality":{"key":"12067144","name":"Fürstenwalde/Spree, Stadt","type":"Stadt"},"district":{"key":"12067","name":"Oder-Spree","type":"Landkreis"},"federalState":{"key":"12","name":"Brandenburg"}},{"name":"Friesenstr.","postalCode":"15517","locality":"Fürstenwalde/Spree","municipality":{"key":"12067144","name":"Fürstenwalde/Spree, Stadt","type":"Stadt"},"district":{"key":"12067","name":"Oder-Spree","type":"Landkreis"},"federalState":{"key":"12","name":"Brandenburg"}},{"name":"Fritz-Reuter-Str.","postalCode":"15517","locality":"Fürstenwalde/Spree","municipality":{"key":"12067144","name":"Fürstenwalde/Spree, Stadt","type":"Stadt"},"district":{"key":"12067","name":"Oder-Spree","type":"Landkreis"},"federalState":{"key":"12","name":"Brandenburg"}},{"name":"Fuchskörnung","postalCode":"15517","locality":"Fürstenwalde/Spree","municipality":{"key":"12067144","name":"Fürstenwalde/Spree, Stadt","type":"Stadt"},"district":{"key":"12067","name":"Oder-Spree","type":"Landkreis"},"federalState":{"key":"12","name":"Brandenburg"}},{"name":"Fürstenwalder Str.","postalCode":"15517","locality":"Fürstenwalde/Spree","municipality":{"key":"12067144","name":"Fürstenwalde/Spree, Stadt","type":"Stadt"},"district":{"key":"12067","name":"Oder-Spree","type":"Landkreis"},"federalState":{"key":"12","name":"Brandenburg"}},{"name":"Galileo-Galilei-Str.","postalCode":"15517","locality":"Fürstenwalde/Spree","municipality":{"key":"12067144","name":"Fürstenwalde/Spree, Stadt","type":"Stadt"},"district":{"key":"12067","name":"Oder-Spree","type":"Landkreis"},"federalState":{"key":"12","name":"Brandenburg"}},{"name":"Gartenstr.","postalCode":"15517","locality":"Fürstenwalde/Spree","municipality":{"key":"12067144","name":"Fürstenwalde/Spree, Stadt","type":"Stadt"},"district":{"key":"12067","name":"Oder-Spree","type":"Landkreis"},"federalState":{"key":"12","name":"Brandenburg"}},{"name":"Gärtnerstr.","postalCode":"15517","locality":"Fürstenwalde/Spree","municipality":{"key":"12067144","name":"Fürstenwalde/Spree, Stadt","type":"Stadt"},"district":{"key":"12067","name":"Oder-Spree","type":"Landkreis"},"federalState":{"key":"12","name":"Brandenburg"}},{"name":"Gellertstr.","postalCode":"15517","locality":"Fürstenwalde/Spree","municipality":{"key":"12067144","name":"Fürstenwalde/Spree, Stadt","type":"Stadt"},"district":{"key":"12067","name":"Oder-Spree","type":"Landkreis"},"federalState":{"key":"12","name":"Brandenburg"}},{"name":"Georg-Büchner-Str.","postalCode":"15517","locality":"Fürstenwalde/Spree","municipality":{"key":"12067144","name":"Fürstenwalde/Spree, Stadt","type":"Stadt"},"district":{"key":"12067","name":"Oder-Spree","type":"Landkreis"},"federalState":{"key":"12","name":"Brandenburg"}},{"name":"Georgi-Dobrowolski-Str.","postalCode":"15517","locality":"Fürstenwalde/Spree","municipality":{"key":"12067144","name":"Fürstenwalde/Spree, Stadt","type":"Stadt"},"district":{"key":"12067","name":"Oder-Spree","type":"Landkreis"},"federalState":{"key":"12","name":"Brandenburg"}},{"name":"Gerhart-Hauptmann-Str.","postalCode":"15517","locality":"Fürstenwalde/Spree","municipality":{"key":"12067144","name":"Fürstenwalde/Spree, Stadt","type":"Stadt"},"district":{"key":"12067","name":"Oder-Spree","type":"Landkreis"},"federalState":{"key":"12","name":"Brandenburg"}},{"name":"Gersdorffstr.","postalCode":"15517","locality":"Fürstenwalde/Spree","municipality":{"key":"12067144","name":"Fürstenwalde/Spree, Stadt","type":"Stadt"},"district":{"key":"12067","name":"Oder-Spree","type":"Landkreis"},"federalState":{"key":"12","name":"Brandenburg"}},{"name":"Geschwister-Scholl-Str.","postalCode":"15517","locality":"Fürstenwalde/Spree","municipality":{"key":"12067144","name":"Fürstenwalde/Spree, Stadt","type":"Stadt"},"district":{"key":"12067","name":"Oder-Spree","type":"Landkreis"},"federalState":{"key":"12","name":"Brandenburg"}},{"name":"Gewerbeparkring","postalCode":"15517","locality":"Fürstenwalde/Spree","municipality":{"key":"12067144","name":"Fürstenwalde/Spree, Stadt","type":"Stadt"},"district":{"key":"12067","name":"Oder-Spree","type":"Landkreis"},"federalState":{"key":"12","name":"Brandenburg"}},{"name":"Ginsterweg","postalCode":"15517","locality":"Fürstenwalde/Spree","municipality":{"key":"12067144","name":"Fürstenwalde/Spree, Stadt","type":"Stadt"},"district":{"key":"12067","name":"Oder-Spree","type":"Landkreis"},"federalState":{"key":"12","name":"Brandenburg"}},{"name":"Goetheplatz","postalCode":"15517","locality":"Fürstenwalde/Spree","municipality":{"key":"12067144","name":"Fürstenwalde/Spree, Stadt","type":"Stadt"},"district":{"key":"12067","name":"Oder-Spree","type":"Landkreis"},"federalState":{"key":"12","name":"Brandenburg"}},{"name":"Goethestr.","postalCode":"15517","locality":"Fürstenwalde/Spree","municipality":{"key":"12067144","name":"Fürstenwalde/Spree, Stadt","type":"Stadt"},"district":{"key":"12067","name":"Oder-Spree","type":"Landkreis"},"federalState":{"key":"12","name":"Brandenburg"}},{"name":"Gottfried-Bürger-Str.","postalCode":"15517","locality":"Fürstenwalde/Spree","municipality":{"key":"12067144","name":"Fürstenwalde/Spree, Stadt","type":"Stadt"},"district":{"key":"12067","name":"Oder-Spree","type":"Landkreis"},"federalState":{"key":"12","name":"Brandenburg"}},{"name":"Gottfried-Keller-Str.","postalCode":"15517","locality":"Fürstenwalde/Spree","municipality":{"key":"12067144","name":"Fürstenwalde/Spree, Stadt","type":"Stadt"},"district":{"key":"12067","name":"Oder-Spree","type":"Landkreis"},"federalState":{"key":"12","name":"Brandenburg"}},{"name":"Grenzstr.","postalCode":"15517","locality":"Fürstenwalde/Spree","municipality":{"key":"12067144","name":"Fürstenwalde/Spree, Stadt","type":"Stadt"},"district":{"key":"12067","name":"Oder-Spree","type":"Landkreis"},"federalState":{"key":"12","name":"Brandenburg"}},{"name":"Gröbenstr.","postalCode":"15517","locality":"Fürstenwalde/Spree","municipality":{"key":"12067144","name":"Fürstenwalde/Spree, Stadt","type":"Stadt"},"district":{"key":"12067","name":"Oder-Spree","type":"Landkreis"},"federalState":{"key":"12","name":"Brandenburg"}},{"name":"Große Freizeit","postalCode":"15517","locality":"Fürstenwalde/Spree","municipality":{"key":"12067144","name":"Fürstenwalde/Spree, Stadt","type":"Stadt"},"district":{"key":"12067","name":"Oder-Spree","type":"Landkreis"},"federalState":{"key":"12","name":"Brandenburg"}},{"name":"Großer Stern","postalCode":"15517","locality":"Fürstenwalde/Spree","municipality":{"key":"12067144","name":"Fürstenwalde/Spree, Stadt","type":"Stadt"},"district":{"key":"12067","name":"Oder-Spree","type":"Landkreis"},"federalState":{"key":"12","name":"Brandenburg"}},{"name":"Grüner Grund","postalCode":"15517","locality":"Fürstenwalde/Spree","municipality":{"key":"12067144","name":"Fürstenwalde/Spree, Stadt","type":"Stadt"},"district":{"key":"12067","name":"Oder-Spree","type":"Landkreis"},"federalState":{"key":"12","name":"Brandenburg"}},{"name":"Grünstr.","postalCode":"15517","locality":"Fürstenwalde/Spree","municipality":{"key":"12067144","name":"Fürstenwalde/Spree, Stadt","type":"Stadt"},"district":{"key":"12067","name":"Oder-Spree","type":"Landkreis"},"federalState":{"key":"12","name":"Brandenburg"}},{"name":"Gutswiesenweg","postalCode":"15517","locality":"Fürstenwalde/Spree","municipality":{"key":"12067144","name":"Fürstenwalde/Spree, Stadt","type":"Stadt"},"district":{"key":"12067","name":"Oder-Spree","type":"Landkreis"},"federalState":{"key":"12","name":"Brandenburg"}},{"name":"Hangelsberger Chaussee","postalCode":"15517","locality":"Fürstenwalde/Spree","municipality":{"key":"12067144","name":"Fürstenwalde/Spree, Stadt","type":"Stadt"},"district":{"key":"12067","name":"Oder-Spree","type":"Landkreis"},"federalState":{"key":"12","name":"Brandenburg"}},{"name":"Hangelsberger Weg","postalCode":"15517","locality":"Fürstenwalde/Spree","municipality":{"key":"12067144","name":"Fürstenwalde/Spree, Stadt","type":"Stadt"},"district":{"key":"12067","name":"Oder-Spree","type":"Landkreis"},"federalState":{"key":"12","name":"Brandenburg"}},{"name":"Hans-Sachs-Str.","postalCode":"15517","locality":"Fürstenwalde/Spree","municipality":{"key":"12067144","name":"Fürstenwalde/Spree, Stadt","type":"Stadt"},"district":{"key":"12067","name":"Oder-Spree","type":"Landkreis"},"federalState":{"key":"12","name":"Brandenburg"}},{"name":"Hans-Thoma-Str.","postalCode":"15517","locality":"Fürstenwalde/Spree","municipality":{"key":"12067144","name":"Fürstenwalde/Spree, Stadt","type":"Stadt"},"district":{"key":"12067","name":"Oder-Spree","type":"Landkreis"},"federalState":{"key":"12","name":"Brandenburg"}},{"name":"Hauffstr.","postalCode":"15517","locality":"Fürstenwalde/Spree","municipality":{"key":"12067144","name":"Fürstenwalde/Spree, Stadt","type":"Stadt"},"district":{"key":"12067","name":"Oder-Spree","type":"Landkreis"},"federalState":{"key":"12","name":"Brandenburg"}},{"name":"Haydnstr.","postalCode":"15517","locality":"Fürstenwalde/Spree","municipality":{"key":"12067144","name":"Fürstenwalde/Spree, Stadt","type":"Stadt"},"district":{"key":"12067","name":"Oder-Spree","type":"Landkreis"},"federalState":{"key":"12","name":"Brandenburg"}},{"name":"Heckenweg","postalCode":"15517","locality":"Fürstenwalde/Spree","municipality":{"key":"12067144","name":"Fürstenwalde/Spree, Stadt","type":"Stadt"},"district":{"key":"12067","name":"Oder-Spree","type":"Landkreis"},"federalState":{"key":"12","name":"Brandenburg"}},{"name":"Hegelstr.","postalCode":"15517","locality":"Fürstenwalde/Spree","municipality":{"key":"12067144","name":"Fürstenwalde/Spree, Stadt","type":"Stadt"},"district":{"key":"12067","name":"Oder-Spree","type":"Landkreis"},"federalState":{"key":"12","name":"Brandenburg"}},{"name":"Heideherr-Schultze-Weg","postalCode":"15517","locality":"Fürstenwalde/Spree","municipality":{"key":"12067144","name":"Fürstenwalde/Spree, Stadt","type":"Stadt"},"district":{"key":"12067","name":"Oder-Spree","type":"Landkreis"},"federalState":{"key":"12","name":"Brandenburg"}},{"name":"Heidenelkenweg","postalCode":"15517","locality":"Fürstenwalde/Spree","municipality":{"key":"12067144","name":"Fürstenwalde/Spree, Stadt","type":"Stadt"},"district":{"key":"12067","name":"Oder-Spree","type":"Landkreis"},"federalState":{"key":"12","name":"Brandenburg"}},{"name":"Heideweg","postalCode":"15517","locality":"Fürstenwalde/Spree","municipality":{"key":"12067144","name":"Fürstenwalde/Spree, Stadt","type":"Stadt"},"district":{"key":"12067","name":"Oder-Spree","type":"Landkreis"},"federalState":{"key":"12","name":"Brandenburg"}},{"name":"Heinrich-Heine-Str.","postalCode":"15517","locality":"Fürstenwalde/Spree","municipality":{"key":"12067144","name":"Fürstenwalde/Spree, Stadt","type":"Stadt"},"district":{"key":"12067","name":"Oder-Spree","type":"Landkreis"},"federalState":{"key":"12","name":"Brandenburg"}},{"name":"Heinrich-Mann-Str.","postalCode":"15517","locality":"Fürstenwalde/Spree","municipality":{"key":"12067144","name":"Fürstenwalde/Spree, Stadt","type":"Stadt"},"district":{"key":"12067","name":"Oder-Spree","type":"Landkreis"},"federalState":{"key":"12","name":"Brandenburg"}},{"name":"Heinrich-Zille-Str.","postalCode":"15517","locality":"Fürstenwalde/Spree","municipality":{"key":"12067144","name":"Fürstenwalde/Spree, Stadt","type":"Stadt"},"district":{"key":"12067","name":"Oder-Spree","type":"Landkreis"},"federalState":{"key":"12","name":"Brandenburg"}},{"name":"Henry-Hall-Str.","postalCode":"15517","locality":"Fürstenwalde/Spree","municipality":{"key":"12067144","name":"Fürstenwalde/Spree, Stadt","type":"Stadt"},"district":{"key":"12067","name":"Oder-Spree","type":"Landkreis"},"federalState":{"key":"12","name":"Brandenburg"}},{"name":"Herderstr.","postalCode":"15517","locality":"Fürstenwalde/Spree","municipality":{"key":"12067144","name":"Fürstenwalde/Spree, Stadt","type":"Stadt"},"district":{"key":"12067","name":"Oder-Spree","type":"Landkreis"},"federalState":{"key":"12","name":"Brandenburg"}},{"name":"Heugestell","postalCode":"15517","locality":"Fürstenwalde/Spree","municipality":{"key":"12067144","name":"Fürstenwalde/Spree, Stadt","type":"Stadt"},"district":{"key":"12067","name":"Oder-Spree","type":"Landkreis"},"federalState":{"key":"12","name":"Brandenburg"}},{"name":"Heuweg","postalCode":"15517","locality":"Fürstenwalde/Spree","municipality":{"key":"12067144","name":"Fürstenwalde/Spree, Stadt","type":"Stadt"},"district":{"key":"12067","name":"Oder-Spree","type":"Landkreis"},"federalState":{"key":"12","name":"Brandenburg"}},{"name":"Hinter der Stadtmauer","postalCode":"15517","locality":"Fürstenwalde/Spree","municipality":{"key":"12067144","name":"Fürstenwalde/Spree, Stadt","type":"Stadt"},"district":{"key":"12067","name":"Oder-Spree","type":"Landkreis"},"federalState":{"key":"12","name":"Brandenburg"}},{"name":"Hölderlinstr.","postalCode":"15517","locality":"Fürstenwalde/Spree","municipality":{"key":"12067144","name":"Fürstenwalde/Spree, Stadt","type":"Stadt"},"district":{"key":"12067","name":"Oder-Spree","type":"Landkreis"},"federalState":{"key":"12","name":"Brandenburg"}},{"name":"Holzstr.","postalCode":"15517","locality":"Fürstenwalde/Spree","municipality":{"key":"12067144","name":"Fürstenwalde/Spree, Stadt","type":"Stadt"},"district":{"key":"12067","name":"Oder-Spree","type":"Landkreis"},"federalState":{"key":"12","name":"Brandenburg"}},{"name":"Industriestr.","postalCode":"15517","locality":"Fürstenwalde/Spree","municipality":{"key":"12067144","name":"Fürstenwalde/Spree, Stadt","type":"Stadt"},"district":{"key":"12067","name":"Oder-Spree","type":"Landkreis"},"federalState":{"key":"12","name":"Brandenburg"}},{"name":"Irisweg","postalCode":"15517","locality":"Fürstenwalde/Spree","municipality":{"key":"12067144","name":"Fürstenwalde/Spree, Stadt","type":"Stadt"},"district":{"key":"12067","name":"Oder-Spree","type":"Landkreis"},"federalState":{"key":"12","name":"Brandenburg"}},{"name":"Jahnstr.","postalCode":"15517","locality":"Fürstenwalde/Spree","municipality":{"key":"12067144","name":"Fürstenwalde/Spree, Stadt","type":"Stadt"},"district":{"key":"12067","name":"Oder-Spree","type":"Landkreis"},"federalState":{"key":"12","name":"Brandenburg"}},{"name":"Jänickendorfer Str.","postalCode":"15517","locality":"Fürstenwalde/Spree","municipality":{"key":"12067144","name":"Fürstenwalde/Spree, Stadt","type":"Stadt"},"district":{"key":"12067","name":"Oder-Spree","type":"Landkreis"},"federalState":{"key":"12","name":"Brandenburg"}},{"name":"Johannes-Kepler-Str.","postalCode":"15517","locality":"Fürstenwalde/Spree","municipality":{"key":"12067144","name":"Fürstenwalde/Spree, Stadt","type":"Stadt"},"district":{"key":"12067","name":"Oder-Spree","type":"Landkreis"},"federalState":{"key":"12","name":"Brandenburg"}},{"name":"Johannes-R.-Becher-Str.","postalCode":"15517","locality":"Fürstenwalde/Spree","municipality":{"key":"12067144","name":"Fürstenwalde/Spree, Stadt","type":"Stadt"},"district":{"key":"12067","name":"Oder-Spree","type":"Landkreis"},"federalState":{"key":"12","name":"Brandenburg"}},{"name":"Johann-Sebastian-Bach-Str.","postalCode":"15517","locality":"Fürstenwalde/Spree","municipality":{"key":"12067144","name":"Fürstenwalde/Spree, Stadt","type":"Stadt"},"district":{"key":"12067","name":"Oder-Spree","type":"Landkreis"},"federalState":{"key":"12","name":"Brandenburg"}},{"name":"Julian-Marchlewski-Str.","postalCode":"15517","locality":"Fürstenwalde/Spree","municipality":{"key":"12067144","name":"Fürstenwalde/Spree, Stadt","type":"Stadt"},"district":{"key":"12067","name":"Oder-Spree","type":"Landkreis"},"federalState":{"key":"12","name":"Brandenburg"}},{"name":"Julius-Pintsch-Ring","postalCode":"15517","locality":"Fürstenwalde/Spree","municipality":{"key":"12067144","name":"Fürstenwalde/Spree, Stadt","type":"Stadt"},"district":{"key":"12067","name":"Oder-Spree","type":"Landkreis"},"federalState":{"key":"12","name":"Brandenburg"}},{"name":"Juri-Gagarin-Str.","postalCode":"15517","locality":"Fürstenwalde/Spree","municipality":{"key":"12067144","name":"Fürstenwalde/Spree, Stadt","type":"Stadt"},"district":{"key":"12067","name":"Oder-Spree","type":"Landkreis"},"federalState":{"key":"12","name":"Brandenburg"}},{"name":"Justus-Jonas-Str.","postalCode":"15517","locality":"Fürstenwalde/Spree","municipality":{"key":"12067144","name":"Fürstenwalde/Spree, Stadt","type":"Stadt"},"district":{"key":"12067","name":"Oder-Spree","type":"Landkreis"},"federalState":{"key":"12","name":"Brandenburg"}},{"name":"Kabelwerkstr.","postalCode":"15517","locality":"Fürstenwalde/Spree","municipality":{"key":"12067144","name":"Fürstenwalde/Spree, Stadt","type":"Stadt"},"district":{"key":"12067","name":"Oder-Spree","type":"Landkreis"},"federalState":{"key":"12","name":"Brandenburg"}},{"name":"Kantstr.","postalCode":"15517","locality":"Fürstenwalde/Spree","municipality":{"key":"12067144","name":"Fürstenwalde/Spree, Stadt","type":"Stadt"},"district":{"key":"12067","name":"Oder-Spree","type":"Landkreis"},"federalState":{"key":"12","name":"Brandenburg"}},{"name":"Karl-Cheret-Str.","postalCode":"15517","locality":"Fürstenwalde/Spree","municipality":{"key":"12067144","name":"Fürstenwalde/Spree, Stadt","type":"Stadt"},"district":{"key":"12067","name":"Oder-Spree","type":"Landkreis"},"federalState":{"key":"12","name":"Brandenburg"}},{"name":"Karl-Liebknecht-Str.","postalCode":"15517","locality":"Fürstenwalde/Spree","municipality":{"key":"12067144","name":"Fürstenwalde/Spree, Stadt","type":"Stadt"},"district":{"key":"12067","name":"Oder-Spree","type":"Landkreis"},"federalState":{"key":"12","name":"Brandenburg"}},{"name":"Karl-Marx-Str.","postalCode":"15517","locality":"Fürstenwalde/Spree","municipality":{"key":"12067144","name":"Fürstenwalde/Spree, Stadt","type":"Stadt"},"district":{"key":"12067","name":"Oder-Spree","type":"Landkreis"},"federalState":{"key":"12","name":"Brandenburg"}},{"name":"Kastanienweg","postalCode":"15517","locality":"Fürstenwalde/Spree","municipality":{"key":"12067144","name":"Fürstenwalde/Spree, Stadt","type":"Stadt"},"district":{"key":"12067","name":"Oder-Spree","type":"Landkreis"},"federalState":{"key":"12","name":"Brandenburg"}},{"name":"Käthe-Kollwitz-Str.","postalCode":"15517","locality":"Fürstenwalde/Spree","municipality":{"key":"12067144","name":"Fürstenwalde/Spree, Stadt","type":"Stadt"},"district":{"key":"12067","name":"Oder-Spree","type":"Landkreis"},"federalState":{"key":"12","name":"Brandenburg"}},{"name":"Kehrwiederstr.","postalCode":"15517","locality":"Fürstenwalde/Spree","municipality":{"key":"12067144","name":"Fürstenwalde/Spree, Stadt","type":"Stadt"},"district":{"key":"12067","name":"Oder-Spree","type":"Landkreis"},"federalState":{"key":"12","name":"Brandenburg"}},{"name":"Kiefernweg","postalCode":"15517","locality":"Fürstenwalde/Spree","municipality":{"key":"12067144","name":"Fürstenwalde/Spree, Stadt","type":"Stadt"},"district":{"key":"12067","name":"Oder-Spree","type":"Landkreis"},"federalState":{"key":"12","name":"Brandenburg"}},{"name":"Kienbaumer Weg","postalCode":"15517","locality":"Fürstenwalde/Spree","municipality":{"key":"12067144","name":"Fürstenwalde/Spree, Stadt","type":"Stadt"},"district":{"key":"12067","name":"Oder-Spree","type":"Landkreis"},"federalState":{"key":"12","name":"Brandenburg"}},{"name":"Kiesweg","postalCode":"15517","locality":"Fürstenwalde/Spree","municipality":{"key":"12067144","name":"Fürstenwalde/Spree, Stadt","type":"Stadt"},"district":{"key":"12067","name":"Oder-Spree","type":"Landkreis"},"federalState":{"key":"12","name":"Brandenburg"}},{"name":"Kirchgasse","postalCode":"15517","locality":"Fürstenwalde/Spree","municipality":{"key":"12067144","name":"Fürstenwalde/Spree, Stadt","type":"Stadt"},"district":{"key":"12067","name":"Oder-Spree","type":"Landkreis"},"federalState":{"key":"12","name":"Brandenburg"}},{"name":"Kirchhofstr.","postalCode":"15517","locality":"Fürstenwalde/Spree","municipality":{"key":"12067144","name":"Fürstenwalde/Spree, Stadt","type":"Stadt"},"district":{"key":"12067","name":"Oder-Spree","type":"Landkreis"},"federalState":{"key":"12","name":"Brandenburg"}},{"name":"Kirchstr.","postalCode":"15517","locality":"Fürstenwalde/Spree","municipality":{"key":"12067144","name":"Fürstenwalde/Spree, Stadt","type":"Stadt"},"district":{"key":"12067","name":"Oder-Spree","type":"Landkreis"},"federalState":{"key":"12","name":"Brandenburg"}},{"name":"Klaus-Groth-Str.","postalCode":"15517","locality":"Fürstenwalde/Spree","municipality":{"key":"12067144","name":"Fürstenwalde/Spree, Stadt","type":"Stadt"},"district":{"key":"12067","name":"Oder-Spree","type":"Landkreis"},"federalState":{"key":"12","name":"Brandenburg"}},{"name":"Kleiststr.","postalCode":"15517","locality":"Fürstenwalde/Spree","municipality":{"key":"12067144","name":"Fürstenwalde/Spree, Stadt","type":"Stadt"},"district":{"key":"12067","name":"Oder-Spree","type":"Landkreis"},"federalState":{"key":"12","name":"Brandenburg"}},{"name":"Königsgestell","postalCode":"15517","locality":"Fürstenwalde/Spree","municipality":{"key":"12067144","name":"Fürstenwalde/Spree, Stadt","type":"Stadt"},"district":{"key":"12067","name":"Oder-Spree","type":"Landkreis"},"federalState":{"key":"12","name":"Brandenburg"}},{"name":"Konstantin-E.-Ziolkowski-Ring","postalCode":"15517","locality":"Fürstenwalde/Spree","municipality":{"key":"12067144","name":"Fürstenwalde/Spree, Stadt","type":"Stadt"},"district":{"key":"12067","name":"Oder-Spree","type":"Landkreis"},"federalState":{"key":"12","name":"Brandenburg"}},{"name":"Körnerstr.","postalCode":"15517","locality":"Fürstenwalde/Spree","municipality":{"key":"12067144","name":"Fürstenwalde/Spree, Stadt","type":"Stadt"},"district":{"key":"12067","name":"Oder-Spree","type":"Landkreis"},"federalState":{"key":"12","name":"Brandenburg"}},{"name":"Krausestr.","postalCode":"15517","locality":"Fürstenwalde/Spree","municipality":{"key":"12067144","name":"Fürstenwalde/Spree, Stadt","type":"Stadt"},"district":{"key":"12067","name":"Oder-Spree","type":"Landkreis"},"federalState":{"key":"12","name":"Brandenburg"}},{"name":"Kunstpfeifergasse","postalCode":"15517","locality":"Fürstenwalde/Spree","municipality":{"key":"12067144","name":"Fürstenwalde/Spree, Stadt","type":"Stadt"},"district":{"key":"12067","name":"Oder-Spree","type":"Landkreis"},"federalState":{"key":"12","name":"Brandenburg"}},{"name":"Kurt-Wendt-Str.","postalCode":"15517","locality":"Fürstenwalde/Spree","municipality":{"key":"12067144","name":"Fürstenwalde/Spree, Stadt","type":"Stadt"},"district":{"key":"12067","name":"Oder-Spree","type":"Landkreis"},"federalState":{"key":"12","name":"Brandenburg"}},{"name":"Kurze Str.","postalCode":"15517","locality":"Fürstenwalde/Spree","municipality":{"key":"12067144","name":"Fürstenwalde/Spree, Stadt","type":"Stadt"},"district":{"key":"12067","name":"Oder-Spree","type":"Landkreis"},"federalState":{"key":"12","name":"Brandenburg"}},{"name":"Küstriner Str.","postalCode":"15517","locality":"Fürstenwalde/Spree","municipality":{"key":"12067144","name":"Fürstenwalde/Spree, Stadt","type":"Stadt"},"district":{"key":"12067","name":"Oder-Spree","type":"Landkreis"},"federalState":{"key":"12","name":"Brandenburg"}},{"name":"Lange Str.","postalCode":"15517","locality":"Fürstenwalde/Spree","municipality":{"key":"12067144","name":"Fürstenwalde/Spree, Stadt","type":"Stadt"},"district":{"key":"12067","name":"Oder-Spree","type":"Landkreis"},"federalState":{"key":"12","name":"Brandenburg"}},{"name":"Langewahler Str.","postalCode":"15517","locality":"Fürstenwalde/Spree","municipality":{"key":"12067144","name":"Fürstenwalde/Spree, Stadt","type":"Stadt"},"district":{"key":"12067","name":"Oder-Spree","type":"Landkreis"},"federalState":{"key":"12","name":"Brandenburg"}},{"name":"Lea-Grundig-Weg","postalCode":"15517","locality":"Fürstenwalde/Spree","municipality":{"key":"12067144","name":"Fürstenwalde/Spree, Stadt","type":"Stadt"},"district":{"key":"12067","name":"Oder-Spree","type":"Landkreis"},"federalState":{"key":"12","name":"Brandenburg"}},{"name":"Lebuser Str.","postalCode":"15517","locality":"Fürstenwalde/Spree","municipality":{"key":"12067144","name":"Fürstenwalde/Spree, Stadt","type":"Stadt"},"district":{"key":"12067","name":"Oder-Spree","type":"Landkreis"},"federalState":{"key":"12","name":"Brandenburg"}},{"name":"Leistikowstr.","postalCode":"15517","locality":"Fürstenwalde/Spree","municipality":{"key":"12067144","name":"Fürstenwalde/Spree, Stadt","type":"Stadt"},"district":{"key":"12067","name":"Oder-Spree","type":"Landkreis"},"federalState":{"key":"12","name":"Brandenburg"}},{"name":"Lenaustr.","postalCode":"15517","locality":"Fürstenwalde/Spree","municipality":{"key":"12067144","name":"Fürstenwalde/Spree, Stadt","type":"Stadt"},"district":{"key":"12067","name":"Oder-Spree","type":"Landkreis"},"federalState":{"key":"12","name":"Brandenburg"}},{"name":"Lessingstr.","postalCode":"15517","locality":"Fürstenwalde/Spree","municipality":{"key":"12067144","name":"Fürstenwalde/Spree, Stadt","type":"Stadt"},"district":{"key":"12067","name":"Oder-Spree","type":"Landkreis"},"federalState":{"key":"12","name":"Brandenburg"}},{"name":"Liliencronweg","postalCode":"15517","locality":"Fürstenwalde/Spree","municipality":{"key":"12067144","name":"Fürstenwalde/Spree, Stadt","type":"Stadt"},"district":{"key":"12067","name":"Oder-Spree","type":"Landkreis"},"federalState":{"key":"12","name":"Brandenburg"}},{"name":"Lily-Braun-Str.","postalCode":"15517","locality":"Fürstenwalde/Spree","municipality":{"key":"12067144","name":"Fürstenwalde/Spree, Stadt","type":"Stadt"},"district":{"key":"12067","name":"Oder-Spree","type":"Landkreis"},"federalState":{"key":"12","name":"Brandenburg"}},{"name":"Lina-Radke-Weg","postalCode":"15517","locality":"Fürstenwalde/Spree","municipality":{"key":"12067144","name":"Fürstenwalde/Spree, Stadt","type":"Stadt"},"district":{"key":"12067","name":"Oder-Spree","type":"Landkreis"},"federalState":{"key":"12","name":"Brandenburg"}},{"name":"Lindenstr.","postalCode":"15517","locality":"Fürstenwalde/Spree","municipality":{"key":"12067144","name":"Fürstenwalde/Spree, Stadt","type":"Stadt"},"district":{"key":"12067","name":"Oder-Spree","type":"Landkreis"},"federalState":{"key":"12","name":"Brandenburg"}},{"name":"Lise-Meitner-Str.","postalCode":"15517","locality":"Fürstenwalde/Spree","municipality":{"key":"12067144","name":"Fürstenwalde/Spree, Stadt","type":"Stadt"},"district":{"key":"12067","name":"Oder-Spree","type":"Landkreis"},"federalState":{"key":"12","name":"Brandenburg"}},{"name":"Lotichiusstr.","postalCode":"15517","locality":"Fürstenwalde/Spree","municipality":{"key":"12067144","name":"Fürstenwalde/Spree, Stadt","type":"Stadt"},"district":{"key":"12067","name":"Oder-Spree","type":"Landkreis"},"federalState":{"key":"12","name":"Brandenburg"}},{"name":"Luchweg","postalCode":"15517","locality":"Fürstenwalde/Spree","municipality":{"key":"12067144","name":"Fürstenwalde/Spree, Stadt","type":"Stadt"},"district":{"key":"12067","name":"Oder-Spree","type":"Landkreis"},"federalState":{"key":"12","name":"Brandenburg"}},{"name":"Luise-Hensel-Str.","postalCode":"15517","locality":"Fürstenwalde/Spree","municipality":{"key":"12067144","name":"Fürstenwalde/Spree, Stadt","type":"Stadt"},"district":{"key":"12067","name":"Oder-Spree","type":"Landkreis"},"federalState":{"key":"12","name":"Brandenburg"}},{"name":"Luisenstr.","postalCode":"15517","locality":"Fürstenwalde/Spree","municipality":{"key":"12067144","name":"Fürstenwalde/Spree, Stadt","type":"Stadt"},"district":{"key":"12067","name":"Oder-Spree","type":"Landkreis"},"federalState":{"key":"12","name":"Brandenburg"}},{"name":"Lützowring","postalCode":"15517","locality":"Fürstenwalde/Spree","municipality":{"key":"12067144","name":"Fürstenwalde/Spree, Stadt","type":"Stadt"},"district":{"key":"12067","name":"Oder-Spree","type":"Landkreis"},"federalState":{"key":"12","name":"Brandenburg"}},{"name":"Magazinstr.","postalCode":"15517","locality":"Fürstenwalde/Spree","municipality":{"key":"12067144","name":"Fürstenwalde/Spree, Stadt","type":"Stadt"},"district":{"key":"12067","name":"Oder-Spree","type":"Landkreis"},"federalState":{"key":"12","name":"Brandenburg"}},{"name":"Magnus-Poser-Str.","postalCode":"15517","locality":"Fürstenwalde/Spree","municipality":{"key":"12067144","name":"Fürstenwalde/Spree, Stadt","type":"Stadt"},"district":{"key":"12067","name":"Oder-Spree","type":"Landkreis"},"federalState":{"key":"12","name":"Brandenburg"}},{"name":"Mandelstr.","postalCode":"15517","locality":"Fürstenwalde/Spree","municipality":{"key":"12067144","name":"Fürstenwalde/Spree, Stadt","type":"Stadt"},"district":{"key":"12067","name":"Oder-Spree","type":"Landkreis"},"federalState":{"key":"12","name":"Brandenburg"}},{"name":"Mannheimer Str.","postalCode":"15517","locality":"Fürstenwalde/Spree","municipality":{"key":"12067144","name":"Fürstenwalde/Spree, Stadt","type":"Stadt"},"district":{"key":"12067","name":"Oder-Spree","type":"Landkreis"},"federalState":{"key":"12","name":"Brandenburg"}},{"name":"Maria-Merian-Weg","postalCode":"15517","locality":"Fürstenwalde/Spree","municipality":{"key":"12067144","name":"Fürstenwalde/Spree, Stadt","type":"Stadt"},"district":{"key":"12067","name":"Oder-Spree","type":"Landkreis"},"federalState":{"key":"12","name":"Brandenburg"}},{"name":"Marie-Curie-Str.","postalCode":"15517","locality":"Fürstenwalde/Spree","municipality":{"key":"12067144","name":"Fürstenwalde/Spree, Stadt","type":"Stadt"},"district":{"key":"12067","name":"Oder-Spree","type":"Landkreis"},"federalState":{"key":"12","name":"Brandenburg"}},{"name":"Marie-Grasnick-Weg","postalCode":"15517","locality":"Fürstenwalde/Spree","municipality":{"key":"12067144","name":"Fürstenwalde/Spree, Stadt","type":"Stadt"},"district":{"key":"12067","name":"Oder-Spree","type":"Landkreis"},"federalState":{"key":"12","name":"Brandenburg"}},{"name":"Marie-Harrer-Str.","postalCode":"15517","locality":"Fürstenwalde/Spree","municipality":{"key":"12067144","name":"Fürstenwalde/Spree, Stadt","type":"Stadt"},"district":{"key":"12067","name":"Oder-Spree","type":"Landkreis"},"federalState":{"key":"12","name":"Brandenburg"}},{"name":"Martha-Ulfert-Weg","postalCode":"15517","locality":"Fürstenwalde/Spree","municipality":{"key":"12067144","name":"Fürstenwalde/Spree, Stadt","type":"Stadt"},"district":{"key":"12067","name":"Oder-Spree","type":"Landkreis"},"federalState":{"key":"12","name":"Brandenburg"}},{"name":"Martinigarten","postalCode":"15517","locality":"Fürstenwalde/Spree","municipality":{"key":"12067144","name":"Fürstenwalde/Spree, Stadt","type":"Stadt"},"district":{"key":"12067","name":"Oder-Spree","type":"Landkreis"},"federalState":{"key":"12","name":"Brandenburg"}},{"name":"Martin-Luther-Str.","postalCode":"15517","locality":"Fürstenwalde/Spree","municipality":{"key":"12067144","name":"Fürstenwalde/Spree, Stadt","type":"Stadt"},"district":{"key":"12067","name":"Oder-Spree","type":"Landkreis"},"federalState":{"key":"12","name":"Brandenburg"}},{"name":"Meisenweg","postalCode":"15517","locality":"Fürstenwalde/Spree","municipality":{"key":"12067144","name":"Fürstenwalde/Spree, Stadt","type":"Stadt"},"district":{"key":"12067","name":"Oder-Spree","type":"Landkreis"},"federalState":{"key":"12","name":"Brandenburg"}},{"name":"Melanchthonstr.","postalCode":"15517","locality":"Fürstenwalde/Spree","municipality":{"key":"12067144","name":"Fürstenwalde/Spree, Stadt","type":"Stadt"},"district":{"key":"12067","name":"Oder-Spree","type":"Landkreis"},"federalState":{"key":"12","name":"Brandenburg"}},{"name":"Mitschurinstr.","postalCode":"15517","locality":"Fürstenwalde/Spree","municipality":{"key":"12067144","name":"Fürstenwalde/Spree, Stadt","type":"Stadt"},"district":{"key":"12067","name":"Oder-Spree","type":"Landkreis"},"federalState":{"key":"12","name":"Brandenburg"}},{"name":"Mittelstr.","postalCode":"15517","locality":"Fürstenwalde/Spree","municipality":{"key":"12067144","name":"Fürstenwalde/Spree, Stadt","type":"Stadt"},"district":{"key":"12067","name":"Oder-Spree","type":"Landkreis"},"federalState":{"key":"12","name":"Brandenburg"}},{"name":"Molkenberg","postalCode":"15517","locality":"Fürstenwalde/Spree","municipality":{"key":"12067144","name":"Fürstenwalde/Spree, Stadt","type":"Stadt"},"district":{"key":"12067","name":"Oder-Spree","type":"Landkreis"},"federalState":{"key":"12","name":"Brandenburg"}},{"name":"Mozartstr.","postalCode":"15517","locality":"Fürstenwalde/Spree","municipality":{"key":"12067144","name":"Fürstenwalde/Spree, Stadt","type":"Stadt"},"district":{"key":"12067","name":"Oder-Spree","type":"Landkreis"},"federalState":{"key":"12","name":"Brandenburg"}},{"name":"Mühlenbrücken","postalCode":"15517","locality":"Fürstenwalde/Spree","municipality":{"key":"12067144","name":"Fürstenwalde/Spree, Stadt","type":"Stadt"},"district":{"key":"12067","name":"Oder-Spree","type":"Landkreis"},"federalState":{"key":"12","name":"Brandenburg"}},{"name":"Mühlenstr.","postalCode":"15517","locality":"Fürstenwalde/Spree","municipality":{"key":"12067144","name":"Fürstenwalde/Spree, Stadt","type":"Stadt"},"district":{"key":"12067","name":"Oder-Spree","type":"Landkreis"},"federalState":{"key":"12","name":"Brandenburg"}},{"name":"Nachtigallenweg","postalCode":"15517","locality":"Fürstenwalde/Spree","municipality":{"key":"12067144","name":"Fürstenwalde/Spree, Stadt","type":"Stadt"},"district":{"key":"12067","name":"Oder-Spree","type":"Landkreis"},"federalState":{"key":"12","name":"Brandenburg"}},{"name":"Neue Gartenstr.","postalCode":"15517","locality":"Fürstenwalde/Spree","municipality":{"key":"12067144","name":"Fürstenwalde/Spree, Stadt","type":"Stadt"},"district":{"key":"12067","name":"Oder-Spree","type":"Landkreis"},"federalState":{"key":"12","name":"Brandenburg"}},{"name":"Neue Spreestr.","postalCode":"15517","locality":"Fürstenwalde/Spree","municipality":{"key":"12067144","name":"Fürstenwalde/Spree, Stadt","type":"Stadt"},"district":{"key":"12067","name":"Oder-Spree","type":"Landkreis"},"federalState":{"key":"12","name":"Brandenburg"}},{"name":"Neue Str.","postalCode":"15517","locality":"Fürstenwalde/Spree","municipality":{"key":"12067144","name":"Fürstenwalde/Spree, Stadt","type":"Stadt"},"district":{"key":"12067","name":"Oder-Spree","type":"Landkreis"},"federalState":{"key":"12","name":"Brandenburg"}},{"name":"Neu Golmer Weg","postalCode":"15517","locality":"Fürstenwalde/Spree","municipality":{"key":"12067144","name":"Fürstenwalde/Spree, Stadt","type":"Stadt"},"district":{"key":"12067","name":"Oder-Spree","type":"Landkreis"},"federalState":{"key":"12","name":"Brandenburg"}},{"name":"Nikolaus-Kopernikus-Str.","postalCode":"15517","locality":"Fürstenwalde/Spree","municipality":{"key":"12067144","name":"Fürstenwalde/Spree, Stadt","type":"Stadt"},"district":{"key":"12067","name":"Oder-Spree","type":"Landkreis"},"federalState":{"key":"12","name":"Brandenburg"}},{"name":"Nikolaus-Otto-Str.","postalCode":"15517","locality":"Fürstenwalde/Spree","municipality":{"key":"12067144","name":"Fürstenwalde/Spree, Stadt","type":"Stadt"},"district":{"key":"12067","name":"Oder-Spree","type":"Landkreis"},"federalState":{"key":"12","name":"Brandenburg"}},{"name":"Nordpark Kleine Freizeit","postalCode":"15517","locality":"Fürstenwalde/Spree","municipality":{"key":"12067144","name":"Fürstenwalde/Spree, Stadt","type":"Stadt"},"district":{"key":"12067","name":"Oder-Spree","type":"Landkreis"},"federalState":{"key":"12","name":"Brandenburg"}},{"name":"Nordstr.","postalCode":"15517","locality":"Fürstenwalde/Spree","municipality":{"key":"12067144","name":"Fürstenwalde/Spree, Stadt","type":"Stadt"},"district":{"key":"12067","name":"Oder-Spree","type":"Landkreis"},"federalState":{"key":"12","name":"Brandenburg"}},{"name":"Onkel-Toms-Hütte","postalCode":"15517","locality":"Fürstenwalde/Spree","municipality":{"key":"12067144","name":"Fürstenwalde/Spree, Stadt","type":"Stadt"},"district":{"key":"12067","name":"Oder-Spree","type":"Landkreis"},"federalState":{"key":"12","name":"Brandenburg"}},{"name":"Otto-Hahn-Str.","postalCode":"15517","locality":"Fürstenwalde/Spree","municipality":{"key":"12067144","name":"Fürstenwalde/Spree, Stadt","type":"Stadt"},"district":{"key":"12067","name":"Oder-Spree","type":"Landkreis"},"federalState":{"key":"12","name":"Brandenburg"}},{"name":"Otto-Lilienthal-Str.","postalCode":"15517","locality":"Fürstenwalde/Spree","municipality":{"key":"12067144","name":"Fürstenwalde/Spree, Stadt","type":"Stadt"},"district":{"key":"12067","name":"Oder-Spree","type":"Landkreis"},"federalState":{"key":"12","name":"Brandenburg"}},{"name":"Ottomar-Geschke-Platz","postalCode":"15517","locality":"Fürstenwalde/Spree","municipality":{"key":"12067144","name":"Fürstenwalde/Spree, Stadt","type":"Stadt"},"district":{"key":"12067","name":"Oder-Spree","type":"Landkreis"},"federalState":{"key":"12","name":"Brandenburg"}},{"name":"Otto-Nuschke-Str.","postalCode":"15517","locality":"Fürstenwalde/Spree","municipality":{"key":"12067144","name":"Fürstenwalde/Spree, Stadt","type":"Stadt"},"district":{"key":"12067","name":"Oder-Spree","type":"Landkreis"},"federalState":{"key":"12","name":"Brandenburg"}},{"name":"Otto-Ulinski-Str.","postalCode":"15517","locality":"Fürstenwalde/Spree","municipality":{"key":"12067144","name":"Fürstenwalde/Spree, Stadt","type":"Stadt"},"district":{"key":"12067","name":"Oder-Spree","type":"Landkreis"},"federalState":{"key":"12","name":"Brandenburg"}},{"name":"Pappelweg","postalCode":"15517","locality":"Fürstenwalde/Spree","municipality":{"key":"12067144","name":"Fürstenwalde/Spree, Stadt","type":"Stadt"},"district":{"key":"12067","name":"Oder-Spree","type":"Landkreis"},"federalState":{"key":"12","name":"Brandenburg"}},{"name":"Paradeplatz","postalCode":"15517","locality":"Fürstenwalde/Spree","municipality":{"key":"12067144","name":"Fürstenwalde/Spree, Stadt","type":"Stadt"},"district":{"key":"12067","name":"Oder-Spree","type":"Landkreis"},"federalState":{"key":"12","name":"Brandenburg"}},{"name":"Parkallee","postalCode":"15517","locality":"Fürstenwalde/Spree","municipality":{"key":"12067144","name":"Fürstenwalde/Spree, Stadt","type":"Stadt"},"district":{"key":"12067","name":"Oder-Spree","type":"Landkreis"},"federalState":{"key":"12","name":"Brandenburg"}},{"name":"Park der Jahreszeiten","postalCode":"15517","locality":"Fürstenwalde/Spree","municipality":{"key":"12067144","name":"Fürstenwalde/Spree, Stadt","type":"Stadt"},"district":{"key":"12067","name":"Oder-Spree","type":"Landkreis"},"federalState":{"key":"12","name":"Brandenburg"}},{"name":"Parkring","postalCode":"15517","locality":"Fürstenwalde/Spree","municipality":{"key":"12067144","name":"Fürstenwalde/Spree, Stadt","type":"Stadt"},"district":{"key":"12067","name":"Oder-Spree","type":"Landkreis"},"federalState":{"key":"12","name":"Brandenburg"}},{"name":"Parkstr.","postalCode":"15517","locality":"Fürstenwalde/Spree","municipality":{"key":"12067144","name":"Fürstenwalde/Spree, Stadt","type":"Stadt"},"district":{"key":"12067","name":"Oder-Spree","type":"Landkreis"},"federalState":{"key":"12","name":"Brandenburg"}},{"name":"Paul-Frost-Ring","postalCode":"15517","locality":"Fürstenwalde/Spree","municipality":{"key":"12067144","name":"Fürstenwalde/Spree, Stadt","type":"Stadt"},"district":{"key":"12067","name":"Oder-Spree","type":"Landkreis"},"federalState":{"key":"12","name":"Brandenburg"}},{"name":"Petersdorfer Str.","postalCode":"15517","locality":"Fürstenwalde/Spree","municipality":{"key":"12067144","name":"Fürstenwalde/Spree, Stadt","type":"Stadt"},"district":{"key":"12067","name":"Oder-Spree","type":"Landkreis"},"federalState":{"key":"12","name":"Brandenburg"}},{"name":"Pipergestell","postalCode":"15517","locality":"Fürstenwalde/Spree","municipality":{"key":"12067144","name":"Fürstenwalde/Spree, Stadt","type":"Stadt"},"district":{"key":"12067","name":"Oder-Spree","type":"Landkreis"},"federalState":{"key":"12","name":"Brandenburg"}},{"name":"Poststr.","postalCode":"15517","locality":"Fürstenwalde/Spree","municipality":{"key":"12067144","name":"Fürstenwalde/Spree, Stadt","type":"Stadt"},"district":{"key":"12067","name":"Oder-Spree","type":"Landkreis"},"federalState":{"key":"12","name":"Brandenburg"}},{"name":"Puschkinstr.","postalCode":"15517","locality":"Fürstenwalde/Spree","municipality":{"key":"12067144","name":"Fürstenwalde/Spree, Stadt","type":"Stadt"},"district":{"key":"12067","name":"Oder-Spree","type":"Landkreis"},"federalState":{"key":"12","name":"Brandenburg"}},{"name":"Querstr.","postalCode":"15517","locality":"Fürstenwalde/Spree","municipality":{"key":"12067144","name":"Fürstenwalde/Spree, Stadt","type":"Stadt"},"district":{"key":"12067","name":"Oder-Spree","type":"Landkreis"},"federalState":{"key":"12","name":"Brandenburg"}},{"name":"Rathausstr.","postalCode":"15517","locality":"Fürstenwalde/Spree","municipality":{"key":"12067144","name":"Fürstenwalde/Spree, Stadt","type":"Stadt"},"district":{"key":"12067","name":"Oder-Spree","type":"Landkreis"},"federalState":{"key":"12","name":"Brandenburg"}},{"name":"Rathenaustr.","postalCode":"15517","locality":"Fürstenwalde/Spree","municipality":{"key":"12067144","name":"Fürstenwalde/Spree, Stadt","type":"Stadt"},"district":{"key":"12067","name":"Oder-Spree","type":"Landkreis"},"federalState":{"key":"12","name":"Brandenburg"}},{"name":"Rauener Kirchweg","postalCode":"15517","locality":"Fürstenwalde/Spree","municipality":{"key":"12067144","name":"Fürstenwalde/Spree, Stadt","type":"Stadt"},"district":{"key":"12067","name":"Oder-Spree","type":"Landkreis"},"federalState":{"key":"12","name":"Brandenburg"}},{"name":"Rauener Str.","postalCode":"15517","locality":"Fürstenwalde/Spree","municipality":{"key":"12067144","name":"Fürstenwalde/Spree, Stadt","type":"Stadt"},"district":{"key":"12067","name":"Oder-Spree","type":"Landkreis"},"federalState":{"key":"12","name":"Brandenburg"}},{"name":"Rawitscher Str.","postalCode":"15517","locality":"Fürstenwalde/Spree","municipality":{"key":"12067144","name":"Fürstenwalde/Spree, Stadt","type":"Stadt"},"district":{"key":"12067","name":"Oder-Spree","type":"Landkreis"},"federalState":{"key":"12","name":"Brandenburg"}},{"name":"Rebstockstr.","postalCode":"15517","locality":"Fürstenwalde/Spree","municipality":{"key":"12067144","name":"Fürstenwalde/Spree, Stadt","type":"Stadt"},"district":{"key":"12067","name":"Oder-Spree","type":"Landkreis"},"federalState":{"key":"12","name":"Brandenburg"}},{"name":"Reifenwerkring","postalCode":"15517","locality":"Fürstenwalde/Spree","municipality":{"key":"12067144","name":"Fürstenwalde/Spree, Stadt","type":"Stadt"},"district":{"key":"12067","name":"Oder-Spree","type":"Landkreis"},"federalState":{"key":"12","name":"Brandenburg"}},{"name":"Reifenwerkstr.","postalCode":"15517","locality":"Fürstenwalde/Spree","municipality":{"key":"12067144","name":"Fürstenwalde/Spree, Stadt","type":"Stadt"},"district":{"key":"12067","name":"Oder-Spree","type":"Landkreis"},"federalState":{"key":"12","name":"Brandenburg"}},{"name":"Reinheimer Str.","postalCode":"15517","locality":"Fürstenwalde/Spree","municipality":{"key":"12067144","name":"Fürstenwalde/Spree, Stadt","type":"Stadt"},"district":{"key":"12067","name":"Oder-Spree","type":"Landkreis"},"federalState":{"key":"12","name":"Brandenburg"}},{"name":"Reiterbahn","postalCode":"15517","locality":"Fürstenwalde/Spree","municipality":{"key":"12067144","name":"Fürstenwalde/Spree, Stadt","type":"Stadt"},"district":{"key":"12067","name":"Oder-Spree","type":"Landkreis"},"federalState":{"key":"12","name":"Brandenburg"}},{"name":"Richard-Soland-Ring","postalCode":"15517","locality":"Fürstenwalde/Spree","municipality":{"key":"12067144","name":"Fürstenwalde/Spree, Stadt","type":"Stadt"},"district":{"key":"12067","name":"Oder-Spree","type":"Landkreis"},"federalState":{"key":"12","name":"Brandenburg"}},{"name":"Richard-Strauss-Str.","postalCode":"15517","locality":"Fürstenwalde/Spree","municipality":{"key":"12067144","name":"Fürstenwalde/Spree, Stadt","type":"Stadt"},"district":{"key":"12067","name":"Oder-Spree","type":"Landkreis"},"federalState":{"key":"12","name":"Brandenburg"}},{"name":"Richard-Tauber-Str.","postalCode":"15517","locality":"Fürstenwalde/Spree","municipality":{"key":"12067144","name":"Fürstenwalde/Spree, Stadt","type":"Stadt"},"district":{"key":"12067","name":"Oder-Spree","type":"Landkreis"},"federalState":{"key":"12","name":"Brandenburg"}},{"name":"Richard-Wagner-Str.","postalCode":"15517","locality":"Fürstenwalde/Spree","municipality":{"key":"12067144","name":"Fürstenwalde/Spree, Stadt","type":"Stadt"},"district":{"key":"12067","name":"Oder-Spree","type":"Landkreis"},"federalState":{"key":"12","name":"Brandenburg"}},{"name":"Ring der Freundschaft","postalCode":"15517","locality":"Fürstenwalde/Spree","municipality":{"key":"12067144","name":"Fürstenwalde/Spree, Stadt","type":"Stadt"},"district":{"key":"12067","name":"Oder-Spree","type":"Landkreis"},"federalState":{"key":"12","name":"Brandenburg"}},{"name":"Ringstr.","postalCode":"15517","locality":"Fürstenwalde/Spree","municipality":{"key":"12067144","name":"Fürstenwalde/Spree, Stadt","type":"Stadt"},"district":{"key":"12067","name":"Oder-Spree","type":"Landkreis"},"federalState":{"key":"12","name":"Brandenburg"}},{"name":"Robert-Havemann-Str.","postalCode":"15517","locality":"Fürstenwalde/Spree","municipality":{"key":"12067144","name":"Fürstenwalde/Spree, Stadt","type":"Stadt"},"district":{"key":"12067","name":"Oder-Spree","type":"Landkreis"},"federalState":{"key":"12","name":"Brandenburg"}},{"name":"Robinienweg","postalCode":"15517","locality":"Fürstenwalde/Spree","municipality":{"key":"12067144","name":"Fürstenwalde/Spree, Stadt","type":"Stadt"},"district":{"key":"12067","name":"Oder-Spree","type":"Landkreis"},"federalState":{"key":"12","name":"Brandenburg"}},{"name":"Rosa-Luxemburg-Str.","postalCode":"15517","locality":"Fürstenwalde/Spree","municipality":{"key":"12067144","name":"Fürstenwalde/Spree, Stadt","type":"Stadt"},"district":{"key":"12067","name":"Oder-Spree","type":"Landkreis"},"federalState":{"key":"12","name":"Brandenburg"}},{"name":"Rosenstr.","postalCode":"15517","locality":"Fürstenwalde/Spree","municipality":{"key":"12067144","name":"Fürstenwalde/Spree, Stadt","type":"Stadt"},"district":{"key":"12067","name":"Oder-Spree","type":"Landkreis"},"federalState":{"key":"12","name":"Brandenburg"}},{"name":"Roteichenstr.","postalCode":"15517","locality":"Fürstenwalde/Spree","municipality":{"key":"12067144","name":"Fürstenwalde/Spree, Stadt","type":"Stadt"},"district":{"key":"12067","name":"Oder-Spree","type":"Landkreis"},"federalState":{"key":"12","name":"Brandenburg"}},{"name":"Rotkehlchenweg","postalCode":"15517","locality":"Fürstenwalde/Spree","municipality":{"key":"12067144","name":"Fürstenwalde/Spree, Stadt","type":"Stadt"},"district":{"key":"12067","name":"Oder-Spree","type":"Landkreis"},"federalState":{"key":"12","name":"Brandenburg"}},{"name":"Rückertstr.","postalCode":"15517","locality":"Fürstenwalde/Spree","municipality":{"key":"12067144","name":"Fürstenwalde/Spree, Stadt","type":"Stadt"},"district":{"key":"12067","name":"Oder-Spree","type":"Landkreis"},"federalState":{"key":"12","name":"Brandenburg"}},{"name":"Rudolf-Breitscheid-Str.","postalCode":"15517","locality":"Fürstenwalde/Spree","municipality":{"key":"12067144","name":"Fürstenwalde/Spree, Stadt","type":"Stadt"},"district":{"key":"12067","name":"Oder-Spree","type":"Landkreis"},"federalState":{"key":"12","name":"Brandenburg"}},{"name":"Saarower Chaussee","postalCode":"15517","locality":"Fürstenwalde/Spree","municipality":{"key":"12067144","name":"Fürstenwalde/Spree, Stadt","type":"Stadt"},"district":{"key":"12067","name":"Oder-Spree","type":"Landkreis"},"federalState":{"key":"12","name":"Brandenburg"}},{"name":"Sandweg","postalCode":"15517","locality":"Fürstenwalde/Spree","municipality":{"key":"12067144","name":"Fürstenwalde/Spree, Stadt","type":"Stadt"},"district":{"key":"12067","name":"Oder-Spree","type":"Landkreis"},"federalState":{"key":"12","name":"Brandenburg"}},{"name":"Schäferweg","postalCode":"15517","locality":"Fürstenwalde/Spree","municipality":{"key":"12067144","name":"Fürstenwalde/Spree, Stadt","type":"Stadt"},"district":{"key":"12067","name":"Oder-Spree","type":"Landkreis"},"federalState":{"key":"12","name":"Brandenburg"}},{"name":"Schellingstr.","postalCode":"15517","locality":"Fürstenwalde/Spree","municipality":{"key":"12067144","name":"Fürstenwalde/Spree, Stadt","type":"Stadt"},"district":{"key":"12067","name":"Oder-Spree","type":"Landkreis"},"federalState":{"key":"12","name":"Brandenburg"}},{"name":"Schillerstr.","postalCode":"15517","locality":"Fürstenwalde/Spree","municipality":{"key":"12067144","name":"Fürstenwalde/Spree, Stadt","type":"Stadt"},"district":{"key":"12067","name":"Oder-Spree","type":"Landkreis"},"federalState":{"key":"12","name":"Brandenburg"}},{"name":"Schlehenweg","postalCode":"15517","locality":"Fürstenwalde/Spree","municipality":{"key":"12067144","name":"Fürstenwalde/Spree, Stadt","type":"Stadt"},"district":{"key":"12067","name":"Oder-Spree","type":"Landkreis"},"federalState":{"key":"12","name":"Brandenburg"}},{"name":"Schloßstr.","postalCode":"15517","locality":"Fürstenwalde/Spree","municipality":{"key":"12067144","name":"Fürstenwalde/Spree, Stadt","type":"Stadt"},"district":{"key":"12067","name":"Oder-Spree","type":"Landkreis"},"federalState":{"key":"12","name":"Brandenburg"}},{"name":"Schubertstr.","postalCode":"15517","locality":"Fürstenwalde/Spree","municipality":{"key":"12067144","name":"Fürstenwalde/Spree, Stadt","type":"Stadt"},"district":{"key":"12067","name":"Oder-Spree","type":"Landkreis"},"federalState":{"key":"12","name":"Brandenburg"}},{"name":"Schulstr.","postalCode":"15517","locality":"Fürstenwalde/Spree","municipality":{"key":"12067144","name":"Fürstenwalde/Spree, Stadt","type":"Stadt"},"district":{"key":"12067","name":"Oder-Spree","type":"Landkreis"},"federalState":{"key":"12","name":"Brandenburg"}},{"name":"Schweinemarkt","postalCode":"15517","locality":"Fürstenwalde/Spree","municipality":{"key":"12067144","name":"Fürstenwalde/Spree, Stadt","type":"Stadt"},"district":{"key":"12067","name":"Oder-Spree","type":"Landkreis"},"federalState":{"key":"12","name":"Brandenburg"}},{"name":"Seelower Str.","postalCode":"15517","locality":"Fürstenwalde/Spree","municipality":{"key":"12067144","name":"Fürstenwalde/Spree, Stadt","type":"Stadt"},"district":{"key":"12067","name":"Oder-Spree","type":"Landkreis"},"federalState":{"key":"12","name":"Brandenburg"}},{"name":"Seilerplatz","postalCode":"15517","locality":"Fürstenwalde/Spree","municipality":{"key":"12067144","name":"Fürstenwalde/Spree, Stadt","type":"Stadt"},"district":{"key":"12067","name":"Oder-Spree","type":"Landkreis"},"federalState":{"key":"12","name":"Brandenburg"}},{"name":"Seilerstr.","postalCode":"15517","locality":"Fürstenwalde/Spree","municipality":{"key":"12067144","name":"Fürstenwalde/Spree, Stadt","type":"Stadt"},"district":{"key":"12067","name":"Oder-Spree","type":"Landkreis"},"federalState":{"key":"12","name":"Brandenburg"}},{"name":"Sembritzkistr.","postalCode":"15517","locality":"Fürstenwalde/Spree","municipality":{"key":"12067144","name":"Fürstenwalde/Spree, Stadt","type":"Stadt"},"district":{"key":"12067","name":"Oder-Spree","type":"Landkreis"},"federalState":{"key":"12","name":"Brandenburg"}},{"name":"Siebweg","postalCode":"15517","locality":"Fürstenwalde/Spree","municipality":{"key":"12067144","name":"Fürstenwalde/Spree, Stadt","type":"Stadt"},"district":{"key":"12067","name":"Oder-Spree","type":"Landkreis"},"federalState":{"key":"12","name":"Brandenburg"}},{"name":"Siedlerweg","postalCode":"15517","locality":"Fürstenwalde/Spree","municipality":{"key":"12067144","name":"Fürstenwalde/Spree, Stadt","type":"Stadt"},"district":{"key":"12067","name":"Oder-Spree","type":"Landkreis"},"federalState":{"key":"12","name":"Brandenburg"}},{"name":"Siegfried-Hirschmann-Str.","postalCode":"15517","locality":"Fürstenwalde/Spree","municipality":{"key":"12067144","name":"Fürstenwalde/Spree, Stadt","type":"Stadt"},"district":{"key":"12067","name":"Oder-Spree","type":"Landkreis"},"federalState":{"key":"12","name":"Brandenburg"}},{"name":"Splettstößerstr.","postalCode":"15517","locality":"Fürstenwalde/Spree","municipality":{"key":"12067144","name":"Fürstenwalde/Spree, Stadt","type":"Stadt"},"district":{"key":"12067","name":"Oder-Spree","type":"Landkreis"},"federalState":{"key":"12","name":"Brandenburg"}},{"name":"Spreebrücke","postalCode":"15517","locality":"Fürstenwalde/Spree","municipality":{"key":"12067144","name":"Fürstenwalde/Spree, Stadt","type":"Stadt"},"district":{"key":"12067","name":"Oder-Spree","type":"Landkreis"},"federalState":{"key":"12","name":"Brandenburg"}},{"name":"Spreenhagener Str.","postalCode":"15517","locality":"Fürstenwalde/Spree","municipality":{"key":"12067144","name":"Fürstenwalde/Spree, Stadt","type":"Stadt"},"district":{"key":"12067","name":"Oder-Spree","type":"Landkreis"},"federalState":{"key":"12","name":"Brandenburg"}},{"name":"Spreepromenade","postalCode":"15517","locality":"Fürstenwalde/Spree","municipality":{"key":"12067144","name":"Fürstenwalde/Spree, Stadt","type":"Stadt"},"district":{"key":"12067","name":"Oder-Spree","type":"Landkreis"},"federalState":{"key":"12","name":"Brandenburg"}},{"name":"Spreestr.","postalCode":"15517","locality":"Fürstenwalde/Spree","municipality":{"key":"12067144","name":"Fürstenwalde/Spree, Stadt","type":"Stadt"},"district":{"key":"12067","name":"Oder-Spree","type":"Landkreis"},"federalState":{"key":"12","name":"Brandenburg"}},{"name":"Spreeuferpark","postalCode":"15517","locality":"Fürstenwalde/Spree","municipality":{"key":"12067144","name":"Fürstenwalde/Spree, Stadt","type":"Stadt"},"district":{"key":"12067","name":"Oder-Spree","type":"Landkreis"},"federalState":{"key":"12","name":"Brandenburg"}},{"name":"Stadtgraben","postalCode":"15517","locality":"Fürstenwalde/Spree","municipality":{"key":"12067144","name":"Fürstenwalde/Spree, Stadt","type":"Stadt"},"district":{"key":"12067","name":"Oder-Spree","type":"Landkreis"},"federalState":{"key":"12","name":"Brandenburg"}},{"name":"Stadtpark","postalCode":"15517","locality":"Fürstenwalde/Spree","municipality":{"key":"12067144","name":"Fürstenwalde/Spree, Stadt","type":"Stadt"},"district":{"key":"12067","name":"Oder-Spree","type":"Landkreis"},"federalState":{"key":"12","name":"Brandenburg"}},{"name":"Steinhöfeler Chaussee","postalCode":"15517","locality":"Fürstenwalde/Spree","municipality":{"key":"12067144","name":"Fürstenwalde/Spree, Stadt","type":"Stadt"},"district":{"key":"12067","name":"Oder-Spree","type":"Landkreis"},"federalState":{"key":"12","name":"Brandenburg"}},{"name":"Steinweg","postalCode":"15517","locality":"Fürstenwalde/Spree","municipality":{"key":"12067144","name":"Fürstenwalde/Spree, Stadt","type":"Stadt"},"district":{"key":"12067","name":"Oder-Spree","type":"Landkreis"},"federalState":{"key":"12","name":"Brandenburg"}},{"name":"Strausberger Str.","postalCode":"15517","locality":"Fürstenwalde/Spree","municipality":{"key":"12067144","name":"Fürstenwalde/Spree, Stadt","type":"Stadt"},"district":{"key":"12067","name":"Oder-Spree","type":"Landkreis"},"federalState":{"key":"12","name":"Brandenburg"}},{"name":"Str. der Einheit","postalCode":"15517","locality":"Fürstenwalde/Spree","municipality":{"key":"12067144","name":"Fürstenwalde/Spree, Stadt","type":"Stadt"},"district":{"key":"12067","name":"Oder-Spree","type":"Landkreis"},"federalState":{"key":"12","name":"Brandenburg"}},{"name":"Theodor-Storm-Str.","postalCode":"15517","locality":"Fürstenwalde/Spree","municipality":{"key":"12067144","name":"Fürstenwalde/Spree, Stadt","type":"Stadt"},"district":{"key":"12067","name":"Oder-Spree","type":"Landkreis"},"federalState":{"key":"12","name":"Brandenburg"}},{"name":"Thomas-Edison-Str.","postalCode":"15517","locality":"Fürstenwalde/Spree","municipality":{"key":"12067144","name":"Fürstenwalde/Spree, Stadt","type":"Stadt"},"district":{"key":"12067","name":"Oder-Spree","type":"Landkreis"},"federalState":{"key":"12","name":"Brandenburg"}},{"name":"Tieckstr.","postalCode":"15517","locality":"Fürstenwalde/Spree","municipality":{"key":"12067144","name":"Fürstenwalde/Spree, Stadt","type":"Stadt"},"district":{"key":"12067","name":"Oder-Spree","type":"Landkreis"},"federalState":{"key":"12","name":"Brandenburg"}},{"name":"Töpfergraben","postalCode":"15517","locality":"Fürstenwalde/Spree","municipality":{"key":"12067144","name":"Fürstenwalde/Spree, Stadt","type":"Stadt"},"district":{"key":"12067","name":"Oder-Spree","type":"Landkreis"},"federalState":{"key":"12","name":"Brandenburg"}},{"name":"Töpferstr.","postalCode":"15517","locality":"Fürstenwalde/Spree","municipality":{"key":"12067144","name":"Fürstenwalde/Spree, Stadt","type":"Stadt"},"district":{"key":"12067","name":"Oder-Spree","type":"Landkreis"},"federalState":{"key":"12","name":"Brandenburg"}},{"name":"Tränkeweg","postalCode":"15517","locality":"Fürstenwalde/Spree","municipality":{"key":"12067144","name":"Fürstenwalde/Spree, Stadt","type":"Stadt"},"district":{"key":"12067","name":"Oder-Spree","type":"Landkreis"},"federalState":{"key":"12","name":"Brandenburg"}},{"name":"Trebuser Heuweg","postalCode":"15517","locality":"Fürstenwalde/Spree","municipality":{"key":"12067144","name":"Fürstenwalde/Spree, Stadt","type":"Stadt"},"district":{"key":"12067","name":"Oder-Spree","type":"Landkreis"},"federalState":{"key":"12","name":"Brandenburg"}},{"name":"Trebuser Str.","postalCode":"15517","locality":"Fürstenwalde/Spree","municipality":{"key":"12067144","name":"Fürstenwalde/Spree, Stadt","type":"Stadt"},"district":{"key":"12067","name":"Oder-Spree","type":"Landkreis"},"federalState":{"key":"12","name":"Brandenburg"}},{"name":"Trianonstr.","postalCode":"15517","locality":"Fürstenwalde/Spree","municipality":{"key":"12067144","name":"Fürstenwalde/Spree, Stadt","type":"Stadt"},"district":{"key":"12067","name":"Oder-Spree","type":"Landkreis"},"federalState":{"key":"12","name":"Brandenburg"}},{"name":"Triftstr.","postalCode":"15517","locality":"Fürstenwalde/Spree","municipality":{"key":"12067144","name":"Fürstenwalde/Spree, Stadt","type":"Stadt"},"district":{"key":"12067","name":"Oder-Spree","type":"Landkreis"},"federalState":{"key":"12","name":"Brandenburg"}},{"name":"Tschaikowskistr.","postalCode":"15517","locality":"Fürstenwalde/Spree","municipality":{"key":"12067144","name":"Fürstenwalde/Spree, Stadt","type":"Stadt"},"district":{"key":"12067","name":"Oder-Spree","type":"Landkreis"},"federalState":{"key":"12","name":"Brandenburg"}},{"name":"Tuchmacherstr.","postalCode":"15517","locality":"Fürstenwalde/Spree","municipality":{"key":"12067144","name":"Fürstenwalde/Spree, Stadt","type":"Stadt"},"district":{"key":"12067","name":"Oder-Spree","type":"Landkreis"},"federalState":{"key":"12","name":"Brandenburg"}},{"name":"Turmstr.","postalCode":"15517","locality":"Fürstenwalde/Spree","municipality":{"key":"12067144","name":"Fürstenwalde/Spree, Stadt","type":"Stadt"},"district":{"key":"12067","name":"Oder-Spree","type":"Landkreis"},"federalState":{"key":"12","name":"Brandenburg"}},{"name":"Uferstr.","postalCode":"15517","locality":"Fürstenwalde/Spree","municipality":{"key":"12067144","name":"Fürstenwalde/Spree, Stadt","type":"Stadt"},"district":{"key":"12067","name":"Oder-Spree","type":"Landkreis"},"federalState":{"key":"12","name":"Brandenburg"}},{"name":"Uhlandstr.","postalCode":"15517","locality":"Fürstenwalde/Spree","municipality":{"key":"12067144","name":"Fürstenwalde/Spree, Stadt","type":"Stadt"},"district":{"key":"12067","name":"Oder-Spree","type":"Landkreis"},"federalState":{"key":"12","name":"Brandenburg"}},{"name":"Ulanenring","postalCode":"15517","locality":"Fürstenwalde/Spree","municipality":{"key":"12067144","name":"Fürstenwalde/Spree, Stadt","type":"Stadt"},"district":{"key":"12067","name":"Oder-Spree","type":"Landkreis"},"federalState":{"key":"12","name":"Brandenburg"}},{"name":"Ulmenring","postalCode":"15517","locality":"Fürstenwalde/Spree","municipality":{"key":"12067144","name":"Fürstenwalde/Spree, Stadt","type":"Stadt"},"district":{"key":"12067","name":"Oder-Spree","type":"Landkreis"},"federalState":{"key":"12","name":"Brandenburg"}},{"name":"Unsal","postalCode":"15517","locality":"Fürstenwalde/Spree","municipality":{"key":"12067144","name":"Fürstenwalde/Spree, Stadt","type":"Stadt"},"district":{"key":"12067","name":"Oder-Spree","type":"Landkreis"},"federalState":{"key":"12","name":"Brandenburg"}},{"name":"Verdistr.","postalCode":"15517","locality":"Fürstenwalde/Spree","municipality":{"key":"12067144","name":"Fürstenwalde/Spree, Stadt","type":"Stadt"},"district":{"key":"12067","name":"Oder-Spree","type":"Landkreis"},"federalState":{"key":"12","name":"Brandenburg"}},{"name":"Vogelsang","postalCode":"15517","locality":"Fürstenwalde/Spree","municipality":{"key":"12067144","name":"Fürstenwalde/Spree, Stadt","type":"Stadt"},"district":{"key":"12067","name":"Oder-Spree","type":"Landkreis"},"federalState":{"key":"12","name":"Brandenburg"}},{"name":"Vogelweg","postalCode":"15517","locality":"Fürstenwalde/Spree","municipality":{"key":"12067144","name":"Fürstenwalde/Spree, Stadt","type":"Stadt"},"district":{"key":"12067","name":"Oder-Spree","type":"Landkreis"},"federalState":{"key":"12","name":"Brandenburg"}},{"name":"Wacholderstr.","postalCode":"15517","locality":"Fürstenwalde/Spree","municipality":{"key":"12067144","name":"Fürstenwalde/Spree, Stadt","type":"Stadt"},"district":{"key":"12067","name":"Oder-Spree","type":"Landkreis"},"federalState":{"key":"12","name":"Brandenburg"}},{"name":"Waldemarplatz","postalCode":"15517","locality":"Fürstenwalde/Spree","municipality":{"key":"12067144","name":"Fürstenwalde/Spree, Stadt","type":"Stadt"},"district":{"key":"12067","name":"Oder-Spree","type":"Landkreis"},"federalState":{"key":"12","name":"Brandenburg"}},{"name":"Waldemarstr.","postalCode":"15517","locality":"Fürstenwalde/Spree","municipality":{"key":"12067144","name":"Fürstenwalde/Spree, Stadt","type":"Stadt"},"district":{"key":"12067","name":"Oder-Spree","type":"Landkreis"},"federalState":{"key":"12","name":"Brandenburg"}},{"name":"Waldrandsiedlung","postalCode":"15517","locality":"Fürstenwalde/Spree","municipality":{"key":"12067144","name":"Fürstenwalde/Spree, Stadt","type":"Stadt"},"district":{"key":"12067","name":"Oder-Spree","type":"Landkreis"},"federalState":{"key":"12","name":"Brandenburg"}},{"name":"Waldstr.","postalCode":"15517","locality":"Fürstenwalde/Spree","municipality":{"key":"12067144","name":"Fürstenwalde/Spree, Stadt","type":"Stadt"},"district":{"key":"12067","name":"Oder-Spree","type":"Landkreis"},"federalState":{"key":"12","name":"Brandenburg"}},{"name":"Waldweg","postalCode":"15517","locality":"Fürstenwalde/Spree","municipality":{"key":"12067144","name":"Fürstenwalde/Spree, Stadt","type":"Stadt"},"district":{"key":"12067","name":"Oder-Spree","type":"Landkreis"},"federalState":{"key":"12","name":"Brandenburg"}},{"name":"Wassergasse","postalCode":"15517","locality":"Fürstenwalde/Spree","municipality":{"key":"12067144","name":"Fürstenwalde/Spree, Stadt","type":"Stadt"},"district":{"key":"12067","name":"Oder-Spree","type":"Landkreis"},"federalState":{"key":"12","name":"Brandenburg"}},{"name":"Wehr Große Tränke","postalCode":"15517","locality":"Fürstenwalde/Spree","municipality":{"key":"12067144","name":"Fürstenwalde/Spree, Stadt","type":"Stadt"},"district":{"key":"12067","name":"Oder-Spree","type":"Landkreis"},"federalState":{"key":"12","name":"Brandenburg"}},{"name":"Weideweg","postalCode":"15517","locality":"Fürstenwalde/Spree","municipality":{"key":"12067144","name":"Fürstenwalde/Spree, Stadt","type":"Stadt"},"district":{"key":"12067","name":"Oder-Spree","type":"Landkreis"},"federalState":{"key":"12","name":"Brandenburg"}},{"name":"Weinbergsgrund","postalCode":"15517","locality":"Fürstenwalde/Spree","municipality":{"key":"12067144","name":"Fürstenwalde/Spree, Stadt","type":"Stadt"},"district":{"key":"12067","name":"Oder-Spree","type":"Landkreis"},"federalState":{"key":"12","name":"Brandenburg"}},{"name":"Werner-Seelenbinder-Str.","postalCode":"15517","locality":"Fürstenwalde/Spree","municipality":{"key":"12067144","name":"Fürstenwalde/Spree, Stadt","type":"Stadt"},"district":{"key":"12067","name":"Oder-Spree","type":"Landkreis"},"federalState":{"key":"12","name":"Brandenburg"}},{"name":"Wielandstr.","postalCode":"15517","locality":"Fürstenwalde/Spree","municipality":{"key":"12067144","name":"Fürstenwalde/Spree, Stadt","type":"Stadt"},"district":{"key":"12067","name":"Oder-Spree","type":"Landkreis"},"federalState":{"key":"12","name":"Brandenburg"}},{"name":"Wiesengrund","postalCode":"15517","locality":"Fürstenwalde/Spree","municipality":{"key":"12067144","name":"Fürstenwalde/Spree, Stadt","type":"Stadt"},"district":{"key":"12067","name":"Oder-Spree","type":"Landkreis"},"federalState":{"key":"12","name":"Brandenburg"}},{"name":"Wiesenweg","postalCode":"15517","locality":"Fürstenwalde/Spree","municipality":{"key":"12067144","name":"Fürstenwalde/Spree, Stadt","type":"Stadt"},"district":{"key":"12067","name":"Oder-Spree","type":"Landkreis"},"federalState":{"key":"12","name":"Brandenburg"}},{"name":"Wilhelm-Busch-Str.","postalCode":"15517","locality":"Fürstenwalde/Spree","municipality":{"key":"12067144","name":"Fürstenwalde/Spree, Stadt","type":"Stadt"},"district":{"key":"12067","name":"Oder-Spree","type":"Landkreis"},"federalState":{"key":"12","name":"Brandenburg"}},{"name":"Wilhelm-Raabe-Str.","postalCode":"15517","locality":"Fürstenwalde/Spree","municipality":{"key":"12067144","name":"Fürstenwalde/Spree, Stadt","type":"Stadt"},"district":{"key":"12067","name":"Oder-Spree","type":"Landkreis"},"federalState":{"key":"12","name":"Brandenburg"}},{"name":"Wilhelmstr.","postalCode":"15517","locality":"Fürstenwalde/Spree","municipality":{"key":"12067144","name":"Fürstenwalde/Spree, Stadt","type":"Stadt"},"district":{"key":"12067","name":"Oder-Spree","type":"Landkreis"},"federalState":{"key":"12","name":"Brandenburg"}},{"name":"Windmühlenstr.","postalCode":"15517","locality":"Fürstenwalde/Spree","municipality":{"key":"12067144","name":"Fürstenwalde/Spree, Stadt","type":"Stadt"},"district":{"key":"12067","name":"Oder-Spree","type":"Landkreis"},"federalState":{"key":"12","name":"Brandenburg"}},{"name":"Wladimir-Komarow-Str.","postalCode":"15517","locality":"Fürstenwalde/Spree","municipality":{"key":"12067144","name":"Fürstenwalde/Spree, Stadt","type":"Stadt"},"district":{"key":"12067","name":"Oder-Spree","type":"Landkreis"},"federalState":{"key":"12","name":"Brandenburg"}},{"name":"Wladislaw-Wolkow-Str.","postalCode":"15517","locality":"Fürstenwalde/Spree","municipality":{"key":"12067144","name":"Fürstenwalde/Spree, Stadt","type":"Stadt"},"district":{"key":"12067","name":"Oder-Spree","type":"Landkreis"},"federalState":{"key":"12","name":"Brandenburg"}},{"name":"Wobringstr.","postalCode":"15517","locality":"Fürstenwalde/Spree","municipality":{"key":"12067144","name":"Fürstenwalde/Spree, Stadt","type":"Stadt"},"district":{"key":"12067","name":"Oder-Spree","type":"Landkreis"},"federalState":{"key":"12","name":"Brandenburg"}},{"name":"Wriezener Str.","postalCode":"15517","locality":"Fürstenwalde/Spree","municipality":{"key":"12067144","name":"Fürstenwalde/Spree, Stadt","type":"Stadt"},"district":{"key":"12067","name":"Oder-Spree","type":"Landkreis"},"federalState":{"key":"12","name":"Brandenburg"}},{"name":"Ziegeleiweg","postalCode":"15517","locality":"Fürstenwalde/Spree","municipality":{"key":"12067144","name":"Fürstenwalde/Spree, Stadt","type":"Stadt"},"district":{"key":"12067","name":"Oder-Spree","type":"Landkreis"},"federalState":{"key":"12","name":"Brandenburg"}},{"name":"Zur Ketschendorfer Feldmark","postalCode":"15517","locality":"Fürstenwalde/Spree","municipality":{"key":"12067144","name":"Fürstenwalde/Spree, Stadt","type":"Stadt"},"district":{"key":"12067","name":"Oder-Spree","type":"Landkreis"},"federalState":{"key":"12","name":"Brandenburg"}},]