[{"name":"Abbehauser Weg","postalCode":"26969","locality":"Butjadingen","municipality":{"key":"03461003","name":"Butjadingen","type":"Kreisangehörige_Gemeinde"},"district":{"key":"03461","name":"Wesermarsch","type":"Landkreis"},"federalState":{"key":"03","name":"Niedersachsen"}},{"name":"Achtern Diek","postalCode":"26969","locality":"Butjadingen","municipality":{"key":"03461003","name":"Butjadingen","type":"Kreisangehörige_Gemeinde"},"district":{"key":"03461","name":"Wesermarsch","type":"Landkreis"},"federalState":{"key":"03","name":"Niedersachsen"}},{"name":"Ahndeicher Str.","postalCode":"26969","locality":"Butjadingen","municipality":{"key":"03461003","name":"Butjadingen","type":"Kreisangehörige_Gemeinde"},"district":{"key":"03461","name":"Wesermarsch","type":"Landkreis"},"federalState":{"key":"03","name":"Niedersachsen"}},{"name":"Ahndeicher Weg","postalCode":"26969","locality":"Butjadingen","municipality":{"key":"03461003","name":"Butjadingen","type":"Kreisangehörige_Gemeinde"},"district":{"key":"03461","name":"Wesermarsch","type":"Landkreis"},"federalState":{"key":"03","name":"Niedersachsen"}},{"name":"Alandsweg","postalCode":"26969","locality":"Butjadingen","municipality":{"key":"03461003","name":"Butjadingen","type":"Kreisangehörige_Gemeinde"},"district":{"key":"03461","name":"Wesermarsch","type":"Landkreis"},"federalState":{"key":"03","name":"Niedersachsen"}},{"name":"Aldessener Str.","postalCode":"26969","locality":"Butjadingen","municipality":{"key":"03461003","name":"Butjadingen","type":"Kreisangehörige_Gemeinde"},"district":{"key":"03461","name":"Wesermarsch","type":"Landkreis"},"federalState":{"key":"03","name":"Niedersachsen"}},{"name":"Alma-Rogge-Str.","postalCode":"26969","locality":"Butjadingen","municipality":{"key":"03461003","name":"Butjadingen","type":"Kreisangehörige_Gemeinde"},"district":{"key":"03461","name":"Wesermarsch","type":"Landkreis"},"federalState":{"key":"03","name":"Niedersachsen"}},{"name":"Alte Bahnhofstr.","postalCode":"26969","locality":"Butjadingen","municipality":{"key":"03461003","name":"Butjadingen","type":"Kreisangehörige_Gemeinde"},"district":{"key":"03461","name":"Wesermarsch","type":"Landkreis"},"federalState":{"key":"03","name":"Niedersachsen"}},{"name":"Alter Dorfweg","postalCode":"26969","locality":"Butjadingen","municipality":{"key":"03461003","name":"Butjadingen","type":"Kreisangehörige_Gemeinde"},"district":{"key":"03461","name":"Wesermarsch","type":"Landkreis"},"federalState":{"key":"03","name":"Niedersachsen"}},{"name":"Am Alten Bahndamm","postalCode":"26969","locality":"Butjadingen","municipality":{"key":"03461003","name":"Butjadingen","type":"Kreisangehörige_Gemeinde"},"district":{"key":"03461","name":"Wesermarsch","type":"Landkreis"},"federalState":{"key":"03","name":"Niedersachsen"}},{"name":"Am Bahndamm","postalCode":"26969","locality":"Butjadingen","municipality":{"key":"03461003","name":"Butjadingen","type":"Kreisangehörige_Gemeinde"},"district":{"key":"03461","name":"Wesermarsch","type":"Landkreis"},"federalState":{"key":"03","name":"Niedersachsen"}},{"name":"Am Burgstor","postalCode":"26969","locality":"Butjadingen","municipality":{"key":"03461003","name":"Butjadingen","type":"Kreisangehörige_Gemeinde"},"district":{"key":"03461","name":"Wesermarsch","type":"Landkreis"},"federalState":{"key":"03","name":"Niedersachsen"}},{"name":"Am Burhaver Sieltief","postalCode":"26969","locality":"Butjadingen","municipality":{"key":"03461003","name":"Butjadingen","type":"Kreisangehörige_Gemeinde"},"district":{"key":"03461","name":"Wesermarsch","type":"Landkreis"},"federalState":{"key":"03","name":"Niedersachsen"}},{"name":"Am Butjenter","postalCode":"26969","locality":"Butjadingen","municipality":{"key":"03461003","name":"Butjadingen","type":"Kreisangehörige_Gemeinde"},"district":{"key":"03461","name":"Wesermarsch","type":"Landkreis"},"federalState":{"key":"03","name":"Niedersachsen"}},{"name":"Am Deich","postalCode":"26969","locality":"Butjadingen","municipality":{"key":"03461003","name":"Butjadingen","type":"Kreisangehörige_Gemeinde"},"district":{"key":"03461","name":"Wesermarsch","type":"Landkreis"},"federalState":{"key":"03","name":"Niedersachsen"}},{"name":"Am Ehrenhain","postalCode":"26969","locality":"Butjadingen","municipality":{"key":"03461003","name":"Butjadingen","type":"Kreisangehörige_Gemeinde"},"district":{"key":"03461","name":"Wesermarsch","type":"Landkreis"},"federalState":{"key":"03","name":"Niedersachsen"}},{"name":"Am Friesenkirchhof","postalCode":"26969","locality":"Butjadingen","municipality":{"key":"03461003","name":"Butjadingen","type":"Kreisangehörige_Gemeinde"},"district":{"key":"03461","name":"Wesermarsch","type":"Landkreis"},"federalState":{"key":"03","name":"Niedersachsen"}},{"name":"Am Hafen","postalCode":"26969","locality":"Butjadingen","municipality":{"key":"03461003","name":"Butjadingen","type":"Kreisangehörige_Gemeinde"},"district":{"key":"03461","name":"Wesermarsch","type":"Landkreis"},"federalState":{"key":"03","name":"Niedersachsen"}},{"name":"Am Kutterhafen","postalCode":"26969","locality":"Butjadingen","municipality":{"key":"03461003","name":"Butjadingen","type":"Kreisangehörige_Gemeinde"},"district":{"key":"03461","name":"Wesermarsch","type":"Landkreis"},"federalState":{"key":"03","name":"Niedersachsen"}},{"name":"Am Marktplatz","postalCode":"26969","locality":"Butjadingen","municipality":{"key":"03461003","name":"Butjadingen","type":"Kreisangehörige_Gemeinde"},"district":{"key":"03461","name":"Wesermarsch","type":"Landkreis"},"federalState":{"key":"03","name":"Niedersachsen"}},{"name":"Am Sieltief","postalCode":"26969","locality":"Butjadingen","municipality":{"key":"03461003","name":"Butjadingen","type":"Kreisangehörige_Gemeinde"},"district":{"key":"03461","name":"Wesermarsch","type":"Landkreis"},"federalState":{"key":"03","name":"Niedersachsen"}},{"name":"Am Sportplatz","postalCode":"26969","locality":"Butjadingen","municipality":{"key":"03461003","name":"Butjadingen","type":"Kreisangehörige_Gemeinde"},"district":{"key":"03461","name":"Wesermarsch","type":"Landkreis"},"federalState":{"key":"03","name":"Niedersachsen"}},{"name":"Am Treidelhafen","postalCode":"26969","locality":"Butjadingen","municipality":{"key":"03461003","name":"Butjadingen","type":"Kreisangehörige_Gemeinde"},"district":{"key":"03461","name":"Wesermarsch","type":"Landkreis"},"federalState":{"key":"03","name":"Niedersachsen"}},{"name":"Am Yachthafen","postalCode":"26969","locality":"Butjadingen","municipality":{"key":"03461003","name":"Butjadingen","type":"Kreisangehörige_Gemeinde"},"district":{"key":"03461","name":"Wesermarsch","type":"Landkreis"},"federalState":{"key":"03","name":"Niedersachsen"}},{"name":"Andelweg","postalCode":"26969","locality":"Butjadingen","municipality":{"key":"03461003","name":"Butjadingen","type":"Kreisangehörige_Gemeinde"},"district":{"key":"03461","name":"Wesermarsch","type":"Landkreis"},"federalState":{"key":"03","name":"Niedersachsen"}},{"name":"An den Pütten","postalCode":"26969","locality":"Butjadingen","municipality":{"key":"03461003","name":"Butjadingen","type":"Kreisangehörige_Gemeinde"},"district":{"key":"03461","name":"Wesermarsch","type":"Landkreis"},"federalState":{"key":"03","name":"Niedersachsen"}},{"name":"An der Ahne","postalCode":"26969","locality":"Butjadingen","municipality":{"key":"03461003","name":"Butjadingen","type":"Kreisangehörige_Gemeinde"},"district":{"key":"03461","name":"Wesermarsch","type":"Landkreis"},"federalState":{"key":"03","name":"Niedersachsen"}},{"name":"An der Brake","postalCode":"26969","locality":"Butjadingen","municipality":{"key":"03461003","name":"Butjadingen","type":"Kreisangehörige_Gemeinde"},"district":{"key":"03461","name":"Wesermarsch","type":"Landkreis"},"federalState":{"key":"03","name":"Niedersachsen"}},{"name":"An der Heete","postalCode":"26969","locality":"Butjadingen","municipality":{"key":"03461003","name":"Butjadingen","type":"Kreisangehörige_Gemeinde"},"district":{"key":"03461","name":"Wesermarsch","type":"Landkreis"},"federalState":{"key":"03","name":"Niedersachsen"}},{"name":"An der Rampe","postalCode":"26969","locality":"Butjadingen","municipality":{"key":"03461003","name":"Butjadingen","type":"Kreisangehörige_Gemeinde"},"district":{"key":"03461","name":"Wesermarsch","type":"Landkreis"},"federalState":{"key":"03","name":"Niedersachsen"}},{"name":"An der Schmiede","postalCode":"26969","locality":"Butjadingen","municipality":{"key":"03461003","name":"Butjadingen","type":"Kreisangehörige_Gemeinde"},"district":{"key":"03461","name":"Wesermarsch","type":"Landkreis"},"federalState":{"key":"03","name":"Niedersachsen"}},{"name":"An der Turnhalle","postalCode":"26969","locality":"Butjadingen","municipality":{"key":"03461003","name":"Butjadingen","type":"Kreisangehörige_Gemeinde"},"district":{"key":"03461","name":"Wesermarsch","type":"Landkreis"},"federalState":{"key":"03","name":"Niedersachsen"}},{"name":"An der Viehwaage","postalCode":"26969","locality":"Butjadingen","municipality":{"key":"03461003","name":"Butjadingen","type":"Kreisangehörige_Gemeinde"},"district":{"key":"03461","name":"Wesermarsch","type":"Landkreis"},"federalState":{"key":"03","name":"Niedersachsen"}},{"name":"Auf dem Bahndamm","postalCode":"26969","locality":"Butjadingen","municipality":{"key":"03461003","name":"Butjadingen","type":"Kreisangehörige_Gemeinde"},"district":{"key":"03461","name":"Wesermarsch","type":"Landkreis"},"federalState":{"key":"03","name":"Niedersachsen"}},{"name":"Auf dem Int","postalCode":"26969","locality":"Butjadingen","municipality":{"key":"03461003","name":"Butjadingen","type":"Kreisangehörige_Gemeinde"},"district":{"key":"03461","name":"Wesermarsch","type":"Landkreis"},"federalState":{"key":"03","name":"Niedersachsen"}},{"name":"Auf der Wurth","postalCode":"26969","locality":"Butjadingen","municipality":{"key":"03461003","name":"Butjadingen","type":"Kreisangehörige_Gemeinde"},"district":{"key":"03461","name":"Wesermarsch","type":"Landkreis"},"federalState":{"key":"03","name":"Niedersachsen"}},{"name":"Bahnhofstr.","postalCode":"26969","locality":"Butjadingen","municipality":{"key":"03461003","name":"Butjadingen","type":"Kreisangehörige_Gemeinde"},"district":{"key":"03461","name":"Wesermarsch","type":"Landkreis"},"federalState":{"key":"03","name":"Niedersachsen"}},{"name":"Beckmannsfelder Weg","postalCode":"26969","locality":"Butjadingen","municipality":{"key":"03461003","name":"Butjadingen","type":"Kreisangehörige_Gemeinde"},"district":{"key":"03461","name":"Wesermarsch","type":"Landkreis"},"federalState":{"key":"03","name":"Niedersachsen"}},{"name":"Bergkirchener Str.","postalCode":"26969","locality":"Butjadingen","municipality":{"key":"03461003","name":"Butjadingen","type":"Kreisangehörige_Gemeinde"},"district":{"key":"03461","name":"Wesermarsch","type":"Landkreis"},"federalState":{"key":"03","name":"Niedersachsen"}},{"name":"Blumenstr.","postalCode":"26969","locality":"Butjadingen","municipality":{"key":"03461003","name":"Butjadingen","type":"Kreisangehörige_Gemeinde"},"district":{"key":"03461","name":"Wesermarsch","type":"Landkreis"},"federalState":{"key":"03","name":"Niedersachsen"}},{"name":"Bovinger Weg","postalCode":"26969","locality":"Butjadingen","municipality":{"key":"03461003","name":"Butjadingen","type":"Kreisangehörige_Gemeinde"},"district":{"key":"03461","name":"Wesermarsch","type":"Landkreis"},"federalState":{"key":"03","name":"Niedersachsen"}},{"name":"Breeweg","postalCode":"26969","locality":"Butjadingen","municipality":{"key":"03461003","name":"Butjadingen","type":"Kreisangehörige_Gemeinde"},"district":{"key":"03461","name":"Wesermarsch","type":"Landkreis"},"federalState":{"key":"03","name":"Niedersachsen"}},{"name":"Brüddewarder Weg","postalCode":"26969","locality":"Butjadingen","municipality":{"key":"03461003","name":"Butjadingen","type":"Kreisangehörige_Gemeinde"},"district":{"key":"03461","name":"Wesermarsch","type":"Landkreis"},"federalState":{"key":"03","name":"Niedersachsen"}},{"name":"Burgeck","postalCode":"26969","locality":"Butjadingen","municipality":{"key":"03461003","name":"Butjadingen","type":"Kreisangehörige_Gemeinde"},"district":{"key":"03461","name":"Wesermarsch","type":"Landkreis"},"federalState":{"key":"03","name":"Niedersachsen"}},{"name":"Bürgermeister-Lübben-Weg","postalCode":"26969","locality":"Butjadingen","municipality":{"key":"03461003","name":"Butjadingen","type":"Kreisangehörige_Gemeinde"},"district":{"key":"03461","name":"Wesermarsch","type":"Landkreis"},"federalState":{"key":"03","name":"Niedersachsen"}},{"name":"Burgweg","postalCode":"26969","locality":"Butjadingen","municipality":{"key":"03461003","name":"Butjadingen","type":"Kreisangehörige_Gemeinde"},"district":{"key":"03461","name":"Wesermarsch","type":"Landkreis"},"federalState":{"key":"03","name":"Niedersachsen"}},{"name":"Burhaver Str.","postalCode":"26969","locality":"Butjadingen","municipality":{"key":"03461003","name":"Butjadingen","type":"Kreisangehörige_Gemeinde"},"district":{"key":"03461","name":"Wesermarsch","type":"Landkreis"},"federalState":{"key":"03","name":"Niedersachsen"}},{"name":"Burmeide","postalCode":"26969","locality":"Butjadingen","municipality":{"key":"03461003","name":"Butjadingen","type":"Kreisangehörige_Gemeinde"},"district":{"key":"03461","name":"Wesermarsch","type":"Landkreis"},"federalState":{"key":"03","name":"Niedersachsen"}},{"name":"Burmeidsweg","postalCode":"26969","locality":"Butjadingen","municipality":{"key":"03461003","name":"Butjadingen","type":"Kreisangehörige_Gemeinde"},"district":{"key":"03461","name":"Wesermarsch","type":"Landkreis"},"federalState":{"key":"03","name":"Niedersachsen"}},{"name":"Burwischweg","postalCode":"26969","locality":"Butjadingen","municipality":{"key":"03461003","name":"Butjadingen","type":"Kreisangehörige_Gemeinde"},"district":{"key":"03461","name":"Wesermarsch","type":"Landkreis"},"federalState":{"key":"03","name":"Niedersachsen"}},{"name":"Butjadinger Bahn","postalCode":"26969","locality":"Butjadingen","municipality":{"key":"03461003","name":"Butjadingen","type":"Kreisangehörige_Gemeinde"},"district":{"key":"03461","name":"Wesermarsch","type":"Landkreis"},"federalState":{"key":"03","name":"Niedersachsen"}},{"name":"Butjadinger Str.","postalCode":"26969","locality":"Butjadingen","municipality":{"key":"03461003","name":"Butjadingen","type":"Kreisangehörige_Gemeinde"},"district":{"key":"03461","name":"Wesermarsch","type":"Landkreis"},"federalState":{"key":"03","name":"Niedersachsen"}},{"name":"Dat oole Schoolpadd","postalCode":"26969","locality":"Butjadingen","municipality":{"key":"03461003","name":"Butjadingen","type":"Kreisangehörige_Gemeinde"},"district":{"key":"03461","name":"Wesermarsch","type":"Landkreis"},"federalState":{"key":"03","name":"Niedersachsen"}},{"name":"Deichgräfenstr.","postalCode":"26969","locality":"Butjadingen","municipality":{"key":"03461003","name":"Butjadingen","type":"Kreisangehörige_Gemeinde"},"district":{"key":"03461","name":"Wesermarsch","type":"Landkreis"},"federalState":{"key":"03","name":"Niedersachsen"}},{"name":"Didde-Lübbens-Weg","postalCode":"26969","locality":"Butjadingen","municipality":{"key":"03461003","name":"Butjadingen","type":"Kreisangehörige_Gemeinde"},"district":{"key":"03461","name":"Wesermarsch","type":"Landkreis"},"federalState":{"key":"03","name":"Niedersachsen"}},{"name":"Düke","postalCode":"26969","locality":"Butjadingen","municipality":{"key":"03461003","name":"Butjadingen","type":"Kreisangehörige_Gemeinde"},"district":{"key":"03461","name":"Wesermarsch","type":"Landkreis"},"federalState":{"key":"03","name":"Niedersachsen"}},{"name":"Düker Weg","postalCode":"26969","locality":"Butjadingen","municipality":{"key":"03461003","name":"Butjadingen","type":"Kreisangehörige_Gemeinde"},"district":{"key":"03461","name":"Wesermarsch","type":"Landkreis"},"federalState":{"key":"03","name":"Niedersachsen"}},{"name":"Eckarthof","postalCode":"26969","locality":"Butjadingen","municipality":{"key":"03461003","name":"Butjadingen","type":"Kreisangehörige_Gemeinde"},"district":{"key":"03461","name":"Wesermarsch","type":"Landkreis"},"federalState":{"key":"03","name":"Niedersachsen"}},{"name":"Eckwarder Ahndeich","postalCode":"26969","locality":"Butjadingen","municipality":{"key":"03461003","name":"Butjadingen","type":"Kreisangehörige_Gemeinde"},"district":{"key":"03461","name":"Wesermarsch","type":"Landkreis"},"federalState":{"key":"03","name":"Niedersachsen"}},{"name":"Eckwarder Altendeich","postalCode":"26969","locality":"Butjadingen","municipality":{"key":"03461003","name":"Butjadingen","type":"Kreisangehörige_Gemeinde"},"district":{"key":"03461","name":"Wesermarsch","type":"Landkreis"},"federalState":{"key":"03","name":"Niedersachsen"}},{"name":"Eckwarder Deich","postalCode":"26969","locality":"Butjadingen","municipality":{"key":"03461003","name":"Butjadingen","type":"Kreisangehörige_Gemeinde"},"district":{"key":"03461","name":"Wesermarsch","type":"Landkreis"},"federalState":{"key":"03","name":"Niedersachsen"}},{"name":"Eckwarder Str.","postalCode":"26969","locality":"Butjadingen","municipality":{"key":"03461003","name":"Butjadingen","type":"Kreisangehörige_Gemeinde"},"district":{"key":"03461","name":"Wesermarsch","type":"Landkreis"},"federalState":{"key":"03","name":"Niedersachsen"}},{"name":"Eiswürdener Str.","postalCode":"26969","locality":"Butjadingen","municipality":{"key":"03461003","name":"Butjadingen","type":"Kreisangehörige_Gemeinde"},"district":{"key":"03461","name":"Wesermarsch","type":"Landkreis"},"federalState":{"key":"03","name":"Niedersachsen"}},{"name":"Emil-Pleitner-Weg","postalCode":"26969","locality":"Butjadingen","municipality":{"key":"03461003","name":"Butjadingen","type":"Kreisangehörige_Gemeinde"},"district":{"key":"03461","name":"Wesermarsch","type":"Landkreis"},"federalState":{"key":"03","name":"Niedersachsen"}},{"name":"Erlebsnisweg Bahndamm","postalCode":"26969","locality":"Butjadingen","municipality":{"key":"03461003","name":"Butjadingen","type":"Kreisangehörige_Gemeinde"},"district":{"key":"03461","name":"Wesermarsch","type":"Landkreis"},"federalState":{"key":"03","name":"Niedersachsen"}},{"name":"Fasanenstr.","postalCode":"26969","locality":"Butjadingen","municipality":{"key":"03461003","name":"Butjadingen","type":"Kreisangehörige_Gemeinde"},"district":{"key":"03461","name":"Wesermarsch","type":"Landkreis"},"federalState":{"key":"03","name":"Niedersachsen"}},{"name":"Fedderwarder Deich","postalCode":"26969","locality":"Butjadingen","municipality":{"key":"03461003","name":"Butjadingen","type":"Kreisangehörige_Gemeinde"},"district":{"key":"03461","name":"Wesermarsch","type":"Landkreis"},"federalState":{"key":"03","name":"Niedersachsen"}},{"name":"Feldhauser Deich","postalCode":"26969","locality":"Butjadingen","municipality":{"key":"03461003","name":"Butjadingen","type":"Kreisangehörige_Gemeinde"},"district":{"key":"03461","name":"Wesermarsch","type":"Landkreis"},"federalState":{"key":"03","name":"Niedersachsen"}},{"name":"Feldhauser Str.","postalCode":"26969","locality":"Butjadingen","municipality":{"key":"03461003","name":"Butjadingen","type":"Kreisangehörige_Gemeinde"},"district":{"key":"03461","name":"Wesermarsch","type":"Landkreis"},"federalState":{"key":"03","name":"Niedersachsen"}},{"name":"Ferienpark Jade","postalCode":"26969","locality":"Butjadingen","municipality":{"key":"03461003","name":"Butjadingen","type":"Kreisangehörige_Gemeinde"},"district":{"key":"03461","name":"Wesermarsch","type":"Landkreis"},"federalState":{"key":"03","name":"Niedersachsen"}},{"name":"Feuerwehrpfad","postalCode":"26969","locality":"Butjadingen","municipality":{"key":"03461003","name":"Butjadingen","type":"Kreisangehörige_Gemeinde"},"district":{"key":"03461","name":"Wesermarsch","type":"Landkreis"},"federalState":{"key":"03","name":"Niedersachsen"}},{"name":"Fischerweg","postalCode":"26969","locality":"Butjadingen","municipality":{"key":"03461003","name":"Butjadingen","type":"Kreisangehörige_Gemeinde"},"district":{"key":"03461","name":"Wesermarsch","type":"Landkreis"},"federalState":{"key":"03","name":"Niedersachsen"}},{"name":"Friesenring","postalCode":"26969","locality":"Butjadingen","municipality":{"key":"03461003","name":"Butjadingen","type":"Kreisangehörige_Gemeinde"},"district":{"key":"03461","name":"Wesermarsch","type":"Landkreis"},"federalState":{"key":"03","name":"Niedersachsen"}},{"name":"Friesenstr.","postalCode":"26969","locality":"Butjadingen","municipality":{"key":"03461003","name":"Butjadingen","type":"Kreisangehörige_Gemeinde"},"district":{"key":"03461","name":"Wesermarsch","type":"Landkreis"},"federalState":{"key":"03","name":"Niedersachsen"}},{"name":"Gartenstr.","postalCode":"26969","locality":"Butjadingen","municipality":{"key":"03461003","name":"Butjadingen","type":"Kreisangehörige_Gemeinde"},"district":{"key":"03461","name":"Wesermarsch","type":"Landkreis"},"federalState":{"key":"03","name":"Niedersachsen"}},{"name":"Gartenweg","postalCode":"26969","locality":"Butjadingen","municipality":{"key":"03461003","name":"Butjadingen","type":"Kreisangehörige_Gemeinde"},"district":{"key":"03461","name":"Wesermarsch","type":"Landkreis"},"federalState":{"key":"03","name":"Niedersachsen"}},{"name":"Georg-Coldewey-Pad","postalCode":"26969","locality":"Butjadingen","municipality":{"key":"03461003","name":"Butjadingen","type":"Kreisangehörige_Gemeinde"},"district":{"key":"03461","name":"Wesermarsch","type":"Landkreis"},"federalState":{"key":"03","name":"Niedersachsen"}},{"name":"Georg-Lammers-Weg","postalCode":"26969","locality":"Butjadingen","municipality":{"key":"03461003","name":"Butjadingen","type":"Kreisangehörige_Gemeinde"},"district":{"key":"03461","name":"Wesermarsch","type":"Landkreis"},"federalState":{"key":"03","name":"Niedersachsen"}},{"name":"Glockengießerweg","postalCode":"26969","locality":"Butjadingen","municipality":{"key":"03461003","name":"Butjadingen","type":"Kreisangehörige_Gemeinde"},"district":{"key":"03461","name":"Wesermarsch","type":"Landkreis"},"federalState":{"key":"03","name":"Niedersachsen"}},{"name":"Gloysteinsweg","postalCode":"26969","locality":"Butjadingen","municipality":{"key":"03461003","name":"Butjadingen","type":"Kreisangehörige_Gemeinde"},"district":{"key":"03461","name":"Wesermarsch","type":"Landkreis"},"federalState":{"key":"03","name":"Niedersachsen"}},{"name":"Großwürder Weg","postalCode":"26969","locality":"Butjadingen","municipality":{"key":"03461003","name":"Butjadingen","type":"Kreisangehörige_Gemeinde"},"district":{"key":"03461","name":"Wesermarsch","type":"Landkreis"},"federalState":{"key":"03","name":"Niedersachsen"}},{"name":"Grüner Weg","postalCode":"26969","locality":"Butjadingen","municipality":{"key":"03461003","name":"Butjadingen","type":"Kreisangehörige_Gemeinde"},"district":{"key":"03461","name":"Wesermarsch","type":"Landkreis"},"federalState":{"key":"03","name":"Niedersachsen"}},{"name":"Gutzwarder Weg","postalCode":"26969","locality":"Butjadingen","municipality":{"key":"03461003","name":"Butjadingen","type":"Kreisangehörige_Gemeinde"},"district":{"key":"03461","name":"Wesermarsch","type":"Landkreis"},"federalState":{"key":"03","name":"Niedersachsen"}},{"name":"Hagener Weg","postalCode":"26969","locality":"Butjadingen","municipality":{"key":"03461003","name":"Butjadingen","type":"Kreisangehörige_Gemeinde"},"district":{"key":"03461","name":"Wesermarsch","type":"Landkreis"},"federalState":{"key":"03","name":"Niedersachsen"}},{"name":"Hasenburger Weg","postalCode":"26969","locality":"Butjadingen","municipality":{"key":"03461003","name":"Butjadingen","type":"Kreisangehörige_Gemeinde"},"district":{"key":"03461","name":"Wesermarsch","type":"Landkreis"},"federalState":{"key":"03","name":"Niedersachsen"}},{"name":"Hauptstr.","postalCode":"26969","locality":"Butjadingen","municipality":{"key":"03461003","name":"Butjadingen","type":"Kreisangehörige_Gemeinde"},"district":{"key":"03461","name":"Wesermarsch","type":"Landkreis"},"federalState":{"key":"03","name":"Niedersachsen"}},{"name":"Helgolandstr.","postalCode":"26969","locality":"Butjadingen","municipality":{"key":"03461003","name":"Butjadingen","type":"Kreisangehörige_Gemeinde"},"district":{"key":"03461","name":"Wesermarsch","type":"Landkreis"},"federalState":{"key":"03","name":"Niedersachsen"}},{"name":"Hermann-Allmers-Str.","postalCode":"26969","locality":"Butjadingen","municipality":{"key":"03461003","name":"Butjadingen","type":"Kreisangehörige_Gemeinde"},"district":{"key":"03461","name":"Wesermarsch","type":"Landkreis"},"federalState":{"key":"03","name":"Niedersachsen"}},{"name":"Hermann-Onken-Str.","postalCode":"26969","locality":"Butjadingen","municipality":{"key":"03461003","name":"Butjadingen","type":"Kreisangehörige_Gemeinde"},"district":{"key":"03461","name":"Wesermarsch","type":"Landkreis"},"federalState":{"key":"03","name":"Niedersachsen"}},{"name":"Hilgenweg","postalCode":"26969","locality":"Butjadingen","municipality":{"key":"03461003","name":"Butjadingen","type":"Kreisangehörige_Gemeinde"},"district":{"key":"03461","name":"Wesermarsch","type":"Landkreis"},"federalState":{"key":"03","name":"Niedersachsen"}},{"name":"Hinter der Wurt","postalCode":"26969","locality":"Butjadingen","municipality":{"key":"03461003","name":"Butjadingen","type":"Kreisangehörige_Gemeinde"},"district":{"key":"03461","name":"Wesermarsch","type":"Landkreis"},"federalState":{"key":"03","name":"Niedersachsen"}},{"name":"Hoddersdiek","postalCode":"26969","locality":"Butjadingen","municipality":{"key":"03461003","name":"Butjadingen","type":"Kreisangehörige_Gemeinde"},"district":{"key":"03461","name":"Wesermarsch","type":"Landkreis"},"federalState":{"key":"03","name":"Niedersachsen"}},{"name":"Hofswürden","postalCode":"26969","locality":"Butjadingen","municipality":{"key":"03461003","name":"Butjadingen","type":"Kreisangehörige_Gemeinde"},"district":{"key":"03461","name":"Wesermarsch","type":"Landkreis"},"federalState":{"key":"03","name":"Niedersachsen"}},{"name":"Hofswürder Weg","postalCode":"26969","locality":"Butjadingen","municipality":{"key":"03461003","name":"Butjadingen","type":"Kreisangehörige_Gemeinde"},"district":{"key":"03461","name":"Wesermarsch","type":"Landkreis"},"federalState":{"key":"03","name":"Niedersachsen"}},{"name":"Hohe Str.","postalCode":"26969","locality":"Butjadingen","municipality":{"key":"03461003","name":"Butjadingen","type":"Kreisangehörige_Gemeinde"},"district":{"key":"03461","name":"Wesermarsch","type":"Landkreis"},"federalState":{"key":"03","name":"Niedersachsen"}},{"name":"Hohe Weg","postalCode":"26969","locality":"Butjadingen","municipality":{"key":"03461003","name":"Butjadingen","type":"Kreisangehörige_Gemeinde"},"district":{"key":"03461","name":"Wesermarsch","type":"Landkreis"},"federalState":{"key":"03","name":"Niedersachsen"}},{"name":"Hollwarder Wischweg","postalCode":"26969","locality":"Butjadingen","municipality":{"key":"03461003","name":"Butjadingen","type":"Kreisangehörige_Gemeinde"},"district":{"key":"03461","name":"Wesermarsch","type":"Landkreis"},"federalState":{"key":"03","name":"Niedersachsen"}},{"name":"Husumer Weg","postalCode":"26969","locality":"Butjadingen","municipality":{"key":"03461003","name":"Butjadingen","type":"Kreisangehörige_Gemeinde"},"district":{"key":"03461","name":"Wesermarsch","type":"Landkreis"},"federalState":{"key":"03","name":"Niedersachsen"}},{"name":"Iffens","postalCode":"26969","locality":"Butjadingen","municipality":{"key":"03461003","name":"Butjadingen","type":"Kreisangehörige_Gemeinde"},"district":{"key":"03461","name":"Wesermarsch","type":"Landkreis"},"federalState":{"key":"03","name":"Niedersachsen"}},{"name":"Iggewarden","postalCode":"26969","locality":"Butjadingen","municipality":{"key":"03461003","name":"Butjadingen","type":"Kreisangehörige_Gemeinde"},"district":{"key":"03461","name":"Wesermarsch","type":"Landkreis"},"federalState":{"key":"03","name":"Niedersachsen"}},{"name":"III.Mirrweg","postalCode":"26969","locality":"Butjadingen","municipality":{"key":"03461003","name":"Butjadingen","type":"Kreisangehörige_Gemeinde"},"district":{"key":"03461","name":"Wesermarsch","type":"Landkreis"},"federalState":{"key":"03","name":"Niedersachsen"}},{"name":"II.Mirrweg","postalCode":"26969","locality":"Butjadingen","municipality":{"key":"03461003","name":"Butjadingen","type":"Kreisangehörige_Gemeinde"},"district":{"key":"03461","name":"Wesermarsch","type":"Landkreis"},"federalState":{"key":"03","name":"Niedersachsen"}},{"name":"Inter Weg","postalCode":"26969","locality":"Butjadingen","municipality":{"key":"03461003","name":"Butjadingen","type":"Kreisangehörige_Gemeinde"},"district":{"key":"03461","name":"Wesermarsch","type":"Landkreis"},"federalState":{"key":"03","name":"Niedersachsen"}},{"name":"Isenser Burweg","postalCode":"26969","locality":"Butjadingen","municipality":{"key":"03461003","name":"Butjadingen","type":"Kreisangehörige_Gemeinde"},"district":{"key":"03461","name":"Wesermarsch","type":"Landkreis"},"federalState":{"key":"03","name":"Niedersachsen"}},{"name":"Jadestr.","postalCode":"26969","locality":"Butjadingen","municipality":{"key":"03461003","name":"Butjadingen","type":"Kreisangehörige_Gemeinde"},"district":{"key":"03461","name":"Wesermarsch","type":"Landkreis"},"federalState":{"key":"03","name":"Niedersachsen"}},{"name":"Johanniterstr.","postalCode":"26969","locality":"Butjadingen","municipality":{"key":"03461003","name":"Butjadingen","type":"Kreisangehörige_Gemeinde"},"district":{"key":"03461","name":"Wesermarsch","type":"Landkreis"},"federalState":{"key":"03","name":"Niedersachsen"}},{"name":"Kampen","postalCode":"26969","locality":"Butjadingen","municipality":{"key":"03461003","name":"Butjadingen","type":"Kreisangehörige_Gemeinde"},"district":{"key":"03461","name":"Wesermarsch","type":"Landkreis"},"federalState":{"key":"03","name":"Niedersachsen"}},{"name":"Kamper Weg","postalCode":"26969","locality":"Butjadingen","municipality":{"key":"03461003","name":"Butjadingen","type":"Kreisangehörige_Gemeinde"},"district":{"key":"03461","name":"Wesermarsch","type":"Landkreis"},"federalState":{"key":"03","name":"Niedersachsen"}},{"name":"Kiebitzstr.","postalCode":"26969","locality":"Butjadingen","municipality":{"key":"03461003","name":"Butjadingen","type":"Kreisangehörige_Gemeinde"},"district":{"key":"03461","name":"Wesermarsch","type":"Landkreis"},"federalState":{"key":"03","name":"Niedersachsen"}},{"name":"Kiebitzweg","postalCode":"26969","locality":"Butjadingen","municipality":{"key":"03461003","name":"Butjadingen","type":"Kreisangehörige_Gemeinde"},"district":{"key":"03461","name":"Wesermarsch","type":"Landkreis"},"federalState":{"key":"03","name":"Niedersachsen"}},{"name":"Kirchplatz","postalCode":"26969","locality":"Butjadingen","municipality":{"key":"03461003","name":"Butjadingen","type":"Kreisangehörige_Gemeinde"},"district":{"key":"03461","name":"Wesermarsch","type":"Landkreis"},"federalState":{"key":"03","name":"Niedersachsen"}},{"name":"Kirchweg","postalCode":"26969","locality":"Butjadingen","municipality":{"key":"03461003","name":"Butjadingen","type":"Kreisangehörige_Gemeinde"},"district":{"key":"03461","name":"Wesermarsch","type":"Landkreis"},"federalState":{"key":"03","name":"Niedersachsen"}},{"name":"Kleihauser Weg","postalCode":"26969","locality":"Butjadingen","municipality":{"key":"03461003","name":"Butjadingen","type":"Kreisangehörige_Gemeinde"},"district":{"key":"03461","name":"Wesermarsch","type":"Landkreis"},"federalState":{"key":"03","name":"Niedersachsen"}},{"name":"Kleintossens","postalCode":"26969","locality":"Butjadingen","municipality":{"key":"03461003","name":"Butjadingen","type":"Kreisangehörige_Gemeinde"},"district":{"key":"03461","name":"Wesermarsch","type":"Landkreis"},"federalState":{"key":"03","name":"Niedersachsen"}},{"name":"Knappenburger Weg","postalCode":"26969","locality":"Butjadingen","municipality":{"key":"03461003","name":"Butjadingen","type":"Kreisangehörige_Gemeinde"},"district":{"key":"03461","name":"Wesermarsch","type":"Landkreis"},"federalState":{"key":"03","name":"Niedersachsen"}},{"name":"Kormoranstr.","postalCode":"26969","locality":"Butjadingen","municipality":{"key":"03461003","name":"Butjadingen","type":"Kreisangehörige_Gemeinde"},"district":{"key":"03461","name":"Wesermarsch","type":"Landkreis"},"federalState":{"key":"03","name":"Niedersachsen"}},{"name":"Krabbenweg","postalCode":"26969","locality":"Butjadingen","municipality":{"key":"03461003","name":"Butjadingen","type":"Kreisangehörige_Gemeinde"},"district":{"key":"03461","name":"Wesermarsch","type":"Landkreis"},"federalState":{"key":"03","name":"Niedersachsen"}},{"name":"Kranichstr.","postalCode":"26969","locality":"Butjadingen","municipality":{"key":"03461003","name":"Butjadingen","type":"Kreisangehörige_Gemeinde"},"district":{"key":"03461","name":"Wesermarsch","type":"Landkreis"},"federalState":{"key":"03","name":"Niedersachsen"}},{"name":"Ladestr.","postalCode":"26969","locality":"Butjadingen","municipality":{"key":"03461003","name":"Butjadingen","type":"Kreisangehörige_Gemeinde"},"district":{"key":"03461","name":"Wesermarsch","type":"Landkreis"},"federalState":{"key":"03","name":"Niedersachsen"}},{"name":"Laker Weg","postalCode":"26969","locality":"Butjadingen","municipality":{"key":"03461003","name":"Butjadingen","type":"Kreisangehörige_Gemeinde"},"district":{"key":"03461","name":"Wesermarsch","type":"Landkreis"},"federalState":{"key":"03","name":"Niedersachsen"}},{"name":"Langemehner Str.","postalCode":"26969","locality":"Butjadingen","municipality":{"key":"03461003","name":"Butjadingen","type":"Kreisangehörige_Gemeinde"},"district":{"key":"03461","name":"Wesermarsch","type":"Landkreis"},"federalState":{"key":"03","name":"Niedersachsen"}},{"name":"Langewisk","postalCode":"26969","locality":"Butjadingen","municipality":{"key":"03461003","name":"Butjadingen","type":"Kreisangehörige_Gemeinde"},"district":{"key":"03461","name":"Wesermarsch","type":"Landkreis"},"federalState":{"key":"03","name":"Niedersachsen"}},{"name":"Langlütjenring","postalCode":"26969","locality":"Butjadingen","municipality":{"key":"03461003","name":"Butjadingen","type":"Kreisangehörige_Gemeinde"},"district":{"key":"03461","name":"Wesermarsch","type":"Landkreis"},"federalState":{"key":"03","name":"Niedersachsen"}},{"name":"Langwarder Str.","postalCode":"26969","locality":"Butjadingen","municipality":{"key":"03461003","name":"Butjadingen","type":"Kreisangehörige_Gemeinde"},"district":{"key":"03461","name":"Wesermarsch","type":"Landkreis"},"federalState":{"key":"03","name":"Niedersachsen"}},{"name":"Leinpfad","postalCode":"26969","locality":"Butjadingen","municipality":{"key":"03461003","name":"Butjadingen","type":"Kreisangehörige_Gemeinde"},"district":{"key":"03461","name":"Wesermarsch","type":"Landkreis"},"federalState":{"key":"03","name":"Niedersachsen"}},{"name":"Lerchenpfad","postalCode":"26969","locality":"Butjadingen","municipality":{"key":"03461003","name":"Butjadingen","type":"Kreisangehörige_Gemeinde"},"district":{"key":"03461","name":"Wesermarsch","type":"Landkreis"},"federalState":{"key":"03","name":"Niedersachsen"}},{"name":"Lerchenstr.","postalCode":"26969","locality":"Butjadingen","municipality":{"key":"03461003","name":"Butjadingen","type":"Kreisangehörige_Gemeinde"},"district":{"key":"03461","name":"Wesermarsch","type":"Landkreis"},"federalState":{"key":"03","name":"Niedersachsen"}},{"name":"Ligusterweg","postalCode":"26969","locality":"Butjadingen","municipality":{"key":"03461003","name":"Butjadingen","type":"Kreisangehörige_Gemeinde"},"district":{"key":"03461","name":"Wesermarsch","type":"Landkreis"},"federalState":{"key":"03","name":"Niedersachsen"}},{"name":"Lübbe-Siebeth-Str.","postalCode":"26969","locality":"Butjadingen","municipality":{"key":"03461003","name":"Butjadingen","type":"Kreisangehörige_Gemeinde"},"district":{"key":"03461","name":"Wesermarsch","type":"Landkreis"},"federalState":{"key":"03","name":"Niedersachsen"}},{"name":"Lüttje Hörn","postalCode":"26969","locality":"Butjadingen","municipality":{"key":"03461003","name":"Butjadingen","type":"Kreisangehörige_Gemeinde"},"district":{"key":"03461","name":"Wesermarsch","type":"Landkreis"},"federalState":{"key":"03","name":"Niedersachsen"}},{"name":"Marschenring","postalCode":"26969","locality":"Butjadingen","municipality":{"key":"03461003","name":"Butjadingen","type":"Kreisangehörige_Gemeinde"},"district":{"key":"03461","name":"Wesermarsch","type":"Landkreis"},"federalState":{"key":"03","name":"Niedersachsen"}},{"name":"Mellumplate","postalCode":"26969","locality":"Butjadingen","municipality":{"key":"03461003","name":"Butjadingen","type":"Kreisangehörige_Gemeinde"},"district":{"key":"03461","name":"Wesermarsch","type":"Landkreis"},"federalState":{"key":"03","name":"Niedersachsen"}},{"name":"Mellumring","postalCode":"26969","locality":"Butjadingen","municipality":{"key":"03461003","name":"Butjadingen","type":"Kreisangehörige_Gemeinde"},"district":{"key":"03461","name":"Wesermarsch","type":"Landkreis"},"federalState":{"key":"03","name":"Niedersachsen"}},{"name":"Mellumweg","postalCode":"26969","locality":"Butjadingen","municipality":{"key":"03461003","name":"Butjadingen","type":"Kreisangehörige_Gemeinde"},"district":{"key":"03461","name":"Wesermarsch","type":"Landkreis"},"federalState":{"key":"03","name":"Niedersachsen"}},{"name":"Mengershausen","postalCode":"26969","locality":"Butjadingen","municipality":{"key":"03461003","name":"Butjadingen","type":"Kreisangehörige_Gemeinde"},"district":{"key":"03461","name":"Wesermarsch","type":"Landkreis"},"federalState":{"key":"03","name":"Niedersachsen"}},{"name":"Mitteldeich","postalCode":"26969","locality":"Butjadingen","municipality":{"key":"03461003","name":"Butjadingen","type":"Kreisangehörige_Gemeinde"},"district":{"key":"03461","name":"Wesermarsch","type":"Landkreis"},"federalState":{"key":"03","name":"Niedersachsen"}},{"name":"Mittelpriel","postalCode":"26969","locality":"Butjadingen","municipality":{"key":"03461003","name":"Butjadingen","type":"Kreisangehörige_Gemeinde"},"district":{"key":"03461","name":"Wesermarsch","type":"Landkreis"},"federalState":{"key":"03","name":"Niedersachsen"}},{"name":"Möwenstr.","postalCode":"26969","locality":"Butjadingen","municipality":{"key":"03461003","name":"Butjadingen","type":"Kreisangehörige_Gemeinde"},"district":{"key":"03461","name":"Wesermarsch","type":"Landkreis"},"federalState":{"key":"03","name":"Niedersachsen"}},{"name":"Mühlenweg","postalCode":"26969","locality":"Butjadingen","municipality":{"key":"03461003","name":"Butjadingen","type":"Kreisangehörige_Gemeinde"},"district":{"key":"03461","name":"Wesermarsch","type":"Landkreis"},"federalState":{"key":"03","name":"Niedersachsen"}},{"name":"Mundahn","postalCode":"26969","locality":"Butjadingen","municipality":{"key":"03461003","name":"Butjadingen","type":"Kreisangehörige_Gemeinde"},"district":{"key":"03461","name":"Wesermarsch","type":"Landkreis"},"federalState":{"key":"03","name":"Niedersachsen"}},{"name":"Münstermannweg","postalCode":"26969","locality":"Butjadingen","municipality":{"key":"03461003","name":"Butjadingen","type":"Kreisangehörige_Gemeinde"},"district":{"key":"03461","name":"Wesermarsch","type":"Landkreis"},"federalState":{"key":"03","name":"Niedersachsen"}},{"name":"Mürrwarder Burmeidsweg","postalCode":"26969","locality":"Butjadingen","municipality":{"key":"03461003","name":"Butjadingen","type":"Kreisangehörige_Gemeinde"},"district":{"key":"03461","name":"Wesermarsch","type":"Landkreis"},"federalState":{"key":"03","name":"Niedersachsen"}},{"name":"Mürrwarder-Burmeidsweg","postalCode":"26969","locality":"Butjadingen","municipality":{"key":"03461003","name":"Butjadingen","type":"Kreisangehörige_Gemeinde"},"district":{"key":"03461","name":"Wesermarsch","type":"Landkreis"},"federalState":{"key":"03","name":"Niedersachsen"}},{"name":"Mürrwarder Str.","postalCode":"26969","locality":"Butjadingen","municipality":{"key":"03461003","name":"Butjadingen","type":"Kreisangehörige_Gemeinde"},"district":{"key":"03461","name":"Wesermarsch","type":"Landkreis"},"federalState":{"key":"03","name":"Niedersachsen"}},{"name":"Neuburger Weg","postalCode":"26969","locality":"Butjadingen","municipality":{"key":"03461003","name":"Butjadingen","type":"Kreisangehörige_Gemeinde"},"district":{"key":"03461","name":"Wesermarsch","type":"Landkreis"},"federalState":{"key":"03","name":"Niedersachsen"}},{"name":"Neue Siedlung","postalCode":"26969","locality":"Butjadingen","municipality":{"key":"03461003","name":"Butjadingen","type":"Kreisangehörige_Gemeinde"},"district":{"key":"03461","name":"Wesermarsch","type":"Landkreis"},"federalState":{"key":"03","name":"Niedersachsen"}},{"name":"Nienser Str.","postalCode":"26969","locality":"Butjadingen","municipality":{"key":"03461003","name":"Butjadingen","type":"Kreisangehörige_Gemeinde"},"district":{"key":"03461","name":"Wesermarsch","type":"Landkreis"},"federalState":{"key":"03","name":"Niedersachsen"}},{"name":"Niensweg","postalCode":"26969","locality":"Butjadingen","municipality":{"key":"03461003","name":"Butjadingen","type":"Kreisangehörige_Gemeinde"},"district":{"key":"03461","name":"Wesermarsch","type":"Landkreis"},"federalState":{"key":"03","name":"Niedersachsen"}},{"name":"Nordergründe","postalCode":"26969","locality":"Butjadingen","municipality":{"key":"03461003","name":"Butjadingen","type":"Kreisangehörige_Gemeinde"},"district":{"key":"03461","name":"Wesermarsch","type":"Landkreis"},"federalState":{"key":"03","name":"Niedersachsen"}},{"name":"Nordseeallee","postalCode":"26969","locality":"Butjadingen","municipality":{"key":"03461003","name":"Butjadingen","type":"Kreisangehörige_Gemeinde"},"district":{"key":"03461","name":"Wesermarsch","type":"Landkreis"},"federalState":{"key":"03","name":"Niedersachsen"}},{"name":"Oegenser Weg","postalCode":"26969","locality":"Butjadingen","municipality":{"key":"03461003","name":"Butjadingen","type":"Kreisangehörige_Gemeinde"},"district":{"key":"03461","name":"Wesermarsch","type":"Landkreis"},"federalState":{"key":"03","name":"Niedersachsen"}},{"name":"Oldebrüggestr.","postalCode":"26969","locality":"Butjadingen","municipality":{"key":"03461003","name":"Butjadingen","type":"Kreisangehörige_Gemeinde"},"district":{"key":"03461","name":"Wesermarsch","type":"Landkreis"},"federalState":{"key":"03","name":"Niedersachsen"}},{"name":"Oldenburger Str.","postalCode":"26969","locality":"Butjadingen","municipality":{"key":"03461003","name":"Butjadingen","type":"Kreisangehörige_Gemeinde"},"district":{"key":"03461","name":"Wesermarsch","type":"Landkreis"},"federalState":{"key":"03","name":"Niedersachsen"}},{"name":"Osterbultsweg","postalCode":"26969","locality":"Butjadingen","municipality":{"key":"03461003","name":"Butjadingen","type":"Kreisangehörige_Gemeinde"},"district":{"key":"03461","name":"Wesermarsch","type":"Landkreis"},"federalState":{"key":"03","name":"Niedersachsen"}},{"name":"Ostlandstr.","postalCode":"26969","locality":"Butjadingen","municipality":{"key":"03461003","name":"Butjadingen","type":"Kreisangehörige_Gemeinde"},"district":{"key":"03461","name":"Wesermarsch","type":"Landkreis"},"federalState":{"key":"03","name":"Niedersachsen"}},{"name":"Park am Melkhus","postalCode":"26969","locality":"Butjadingen","municipality":{"key":"03461003","name":"Butjadingen","type":"Kreisangehörige_Gemeinde"},"district":{"key":"03461","name":"Wesermarsch","type":"Landkreis"},"federalState":{"key":"03","name":"Niedersachsen"}},{"name":"Piratenweg","postalCode":"26969","locality":"Butjadingen","municipality":{"key":"03461003","name":"Butjadingen","type":"Kreisangehörige_Gemeinde"},"district":{"key":"03461","name":"Wesermarsch","type":"Landkreis"},"federalState":{"key":"03","name":"Niedersachsen"}},{"name":"Poggendiek","postalCode":"26969","locality":"Butjadingen","municipality":{"key":"03461003","name":"Butjadingen","type":"Kreisangehörige_Gemeinde"},"district":{"key":"03461","name":"Wesermarsch","type":"Landkreis"},"federalState":{"key":"03","name":"Niedersachsen"}},{"name":"Potenburger Weg","postalCode":"26969","locality":"Butjadingen","municipality":{"key":"03461003","name":"Butjadingen","type":"Kreisangehörige_Gemeinde"},"district":{"key":"03461","name":"Wesermarsch","type":"Landkreis"},"federalState":{"key":"03","name":"Niedersachsen"}},{"name":"Preußeneck","postalCode":"26969","locality":"Butjadingen","municipality":{"key":"03461003","name":"Butjadingen","type":"Kreisangehörige_Gemeinde"},"district":{"key":"03461","name":"Wesermarsch","type":"Landkreis"},"federalState":{"key":"03","name":"Niedersachsen"}},{"name":"Prieweg","postalCode":"26969","locality":"Butjadingen","municipality":{"key":"03461003","name":"Butjadingen","type":"Kreisangehörige_Gemeinde"},"district":{"key":"03461","name":"Wesermarsch","type":"Landkreis"},"federalState":{"key":"03","name":"Niedersachsen"}},{"name":"Rathausstr.","postalCode":"26969","locality":"Butjadingen","municipality":{"key":"03461003","name":"Butjadingen","type":"Kreisangehörige_Gemeinde"},"district":{"key":"03461","name":"Wesermarsch","type":"Landkreis"},"federalState":{"key":"03","name":"Niedersachsen"}},{"name":"Rauschenbusch Weg","postalCode":"26969","locality":"Butjadingen","municipality":{"key":"03461003","name":"Butjadingen","type":"Kreisangehörige_Gemeinde"},"district":{"key":"03461","name":"Wesermarsch","type":"Landkreis"},"federalState":{"key":"03","name":"Niedersachsen"}},{"name":"Reiherstr.","postalCode":"26969","locality":"Butjadingen","municipality":{"key":"03461003","name":"Butjadingen","type":"Kreisangehörige_Gemeinde"},"district":{"key":"03461","name":"Wesermarsch","type":"Landkreis"},"federalState":{"key":"03","name":"Niedersachsen"}},{"name":"Rhynsweg","postalCode":"26969","locality":"Butjadingen","municipality":{"key":"03461003","name":"Butjadingen","type":"Kreisangehörige_Gemeinde"},"district":{"key":"03461","name":"Wesermarsch","type":"Landkreis"},"federalState":{"key":"03","name":"Niedersachsen"}},{"name":"Ringweg","postalCode":"26969","locality":"Butjadingen","municipality":{"key":"03461003","name":"Butjadingen","type":"Kreisangehörige_Gemeinde"},"district":{"key":"03461","name":"Wesermarsch","type":"Landkreis"},"federalState":{"key":"03","name":"Niedersachsen"}},{"name":"Robbenstr.","postalCode":"26969","locality":"Butjadingen","municipality":{"key":"03461003","name":"Butjadingen","type":"Kreisangehörige_Gemeinde"},"district":{"key":"03461","name":"Wesermarsch","type":"Landkreis"},"federalState":{"key":"03","name":"Niedersachsen"}},{"name":"Roddens","postalCode":"26969","locality":"Butjadingen","municipality":{"key":"03461003","name":"Butjadingen","type":"Kreisangehörige_Gemeinde"},"district":{"key":"03461","name":"Wesermarsch","type":"Landkreis"},"federalState":{"key":"03","name":"Niedersachsen"}},{"name":"Roddenser Str.","postalCode":"26969","locality":"Butjadingen","municipality":{"key":"03461003","name":"Butjadingen","type":"Kreisangehörige_Gemeinde"},"district":{"key":"03461","name":"Wesermarsch","type":"Landkreis"},"federalState":{"key":"03","name":"Niedersachsen"}},{"name":"Roter Sand","postalCode":"26969","locality":"Butjadingen","municipality":{"key":"03461003","name":"Butjadingen","type":"Kreisangehörige_Gemeinde"},"district":{"key":"03461","name":"Wesermarsch","type":"Landkreis"},"federalState":{"key":"03","name":"Niedersachsen"}},{"name":"Roter-Sand-Weg","postalCode":"26969","locality":"Butjadingen","municipality":{"key":"03461003","name":"Butjadingen","type":"Kreisangehörige_Gemeinde"},"district":{"key":"03461","name":"Wesermarsch","type":"Landkreis"},"federalState":{"key":"03","name":"Niedersachsen"}},{"name":"Rudolf-Kinau-Str.","postalCode":"26969","locality":"Butjadingen","municipality":{"key":"03461003","name":"Butjadingen","type":"Kreisangehörige_Gemeinde"},"district":{"key":"03461","name":"Wesermarsch","type":"Landkreis"},"federalState":{"key":"03","name":"Niedersachsen"}},{"name":"Rügener Str.","postalCode":"26969","locality":"Butjadingen","municipality":{"key":"03461003","name":"Butjadingen","type":"Kreisangehörige_Gemeinde"},"district":{"key":"03461","name":"Wesermarsch","type":"Landkreis"},"federalState":{"key":"03","name":"Niedersachsen"}},{"name":"Ruhwarder Deich","postalCode":"26969","locality":"Butjadingen","municipality":{"key":"03461003","name":"Butjadingen","type":"Kreisangehörige_Gemeinde"},"district":{"key":"03461","name":"Wesermarsch","type":"Landkreis"},"federalState":{"key":"03","name":"Niedersachsen"}},{"name":"Ruhwarder Str.","postalCode":"26969","locality":"Butjadingen","municipality":{"key":"03461003","name":"Butjadingen","type":"Kreisangehörige_Gemeinde"},"district":{"key":"03461","name":"Wesermarsch","type":"Landkreis"},"federalState":{"key":"03","name":"Niedersachsen"}},{"name":"Rüstringer Str.","postalCode":"26969","locality":"Butjadingen","municipality":{"key":"03461003","name":"Butjadingen","type":"Kreisangehörige_Gemeinde"},"district":{"key":"03461","name":"Wesermarsch","type":"Landkreis"},"federalState":{"key":"03","name":"Niedersachsen"}},{"name":"Schulstr.","postalCode":"26969","locality":"Butjadingen","municipality":{"key":"03461003","name":"Butjadingen","type":"Kreisangehörige_Gemeinde"},"district":{"key":"03461","name":"Wesermarsch","type":"Landkreis"},"federalState":{"key":"03","name":"Niedersachsen"}},{"name":"Schwarzer Weg","postalCode":"26969","locality":"Butjadingen","municipality":{"key":"03461003","name":"Butjadingen","type":"Kreisangehörige_Gemeinde"},"district":{"key":"03461","name":"Wesermarsch","type":"Landkreis"},"federalState":{"key":"03","name":"Niedersachsen"}},{"name":"Seefelder Str.","postalCode":"26969","locality":"Butjadingen","municipality":{"key":"03461003","name":"Butjadingen","type":"Kreisangehörige_Gemeinde"},"district":{"key":"03461","name":"Wesermarsch","type":"Landkreis"},"federalState":{"key":"03","name":"Niedersachsen"}},{"name":"Seekweg","postalCode":"26969","locality":"Butjadingen","municipality":{"key":"03461003","name":"Butjadingen","type":"Kreisangehörige_Gemeinde"},"district":{"key":"03461","name":"Wesermarsch","type":"Landkreis"},"federalState":{"key":"03","name":"Niedersachsen"}},{"name":"Seepark","postalCode":"26969","locality":"Butjadingen","municipality":{"key":"03461003","name":"Butjadingen","type":"Kreisangehörige_Gemeinde"},"district":{"key":"03461","name":"Wesermarsch","type":"Landkreis"},"federalState":{"key":"03","name":"Niedersachsen"}},{"name":"Seeverns","postalCode":"26969","locality":"Butjadingen","municipality":{"key":"03461003","name":"Butjadingen","type":"Kreisangehörige_Gemeinde"},"district":{"key":"03461","name":"Wesermarsch","type":"Landkreis"},"federalState":{"key":"03","name":"Niedersachsen"}},{"name":"Seevernser Weg","postalCode":"26969","locality":"Butjadingen","municipality":{"key":"03461003","name":"Butjadingen","type":"Kreisangehörige_Gemeinde"},"district":{"key":"03461","name":"Wesermarsch","type":"Landkreis"},"federalState":{"key":"03","name":"Niedersachsen"}},{"name":"Seevernser Wischweg","postalCode":"26969","locality":"Butjadingen","municipality":{"key":"03461003","name":"Butjadingen","type":"Kreisangehörige_Gemeinde"},"district":{"key":"03461","name":"Wesermarsch","type":"Landkreis"},"federalState":{"key":"03","name":"Niedersachsen"}},{"name":"Sielstr.","postalCode":"26969","locality":"Butjadingen","municipality":{"key":"03461003","name":"Butjadingen","type":"Kreisangehörige_Gemeinde"},"district":{"key":"03461","name":"Wesermarsch","type":"Landkreis"},"federalState":{"key":"03","name":"Niedersachsen"}},{"name":"Sieltiefsweg","postalCode":"26969","locality":"Butjadingen","municipality":{"key":"03461003","name":"Butjadingen","type":"Kreisangehörige_Gemeinde"},"district":{"key":"03461","name":"Wesermarsch","type":"Landkreis"},"federalState":{"key":"03","name":"Niedersachsen"}},{"name":"Silbermöwenweg","postalCode":"26969","locality":"Butjadingen","municipality":{"key":"03461003","name":"Butjadingen","type":"Kreisangehörige_Gemeinde"},"district":{"key":"03461","name":"Wesermarsch","type":"Landkreis"},"federalState":{"key":"03","name":"Niedersachsen"}},{"name":"Sillenser Palz","postalCode":"26969","locality":"Butjadingen","municipality":{"key":"03461003","name":"Butjadingen","type":"Kreisangehörige_Gemeinde"},"district":{"key":"03461","name":"Wesermarsch","type":"Landkreis"},"federalState":{"key":"03","name":"Niedersachsen"}},{"name":"Sinsumer Weg","postalCode":"26969","locality":"Butjadingen","municipality":{"key":"03461003","name":"Butjadingen","type":"Kreisangehörige_Gemeinde"},"district":{"key":"03461","name":"Wesermarsch","type":"Landkreis"},"federalState":{"key":"03","name":"Niedersachsen"}},{"name":"Solthörner Str.","postalCode":"26969","locality":"Butjadingen","municipality":{"key":"03461003","name":"Butjadingen","type":"Kreisangehörige_Gemeinde"},"district":{"key":"03461","name":"Wesermarsch","type":"Landkreis"},"federalState":{"key":"03","name":"Niedersachsen"}},{"name":"Sonnenstr.","postalCode":"26969","locality":"Butjadingen","municipality":{"key":"03461003","name":"Butjadingen","type":"Kreisangehörige_Gemeinde"},"district":{"key":"03461","name":"Wesermarsch","type":"Landkreis"},"federalState":{"key":"03","name":"Niedersachsen"}},{"name":"Sonnenwinkel","postalCode":"26969","locality":"Butjadingen","municipality":{"key":"03461003","name":"Butjadingen","type":"Kreisangehörige_Gemeinde"},"district":{"key":"03461","name":"Wesermarsch","type":"Landkreis"},"federalState":{"key":"03","name":"Niedersachsen"}},{"name":"Spieker Weg","postalCode":"26969","locality":"Butjadingen","municipality":{"key":"03461003","name":"Butjadingen","type":"Kreisangehörige_Gemeinde"},"district":{"key":"03461","name":"Wesermarsch","type":"Landkreis"},"federalState":{"key":"03","name":"Niedersachsen"}},{"name":"Stick","postalCode":"26969","locality":"Butjadingen","municipality":{"key":"03461003","name":"Butjadingen","type":"Kreisangehörige_Gemeinde"},"district":{"key":"03461","name":"Wesermarsch","type":"Landkreis"},"federalState":{"key":"03","name":"Niedersachsen"}},{"name":"Stollhammer Deich","postalCode":"26969","locality":"Butjadingen","municipality":{"key":"03461003","name":"Butjadingen","type":"Kreisangehörige_Gemeinde"},"district":{"key":"03461","name":"Wesermarsch","type":"Landkreis"},"federalState":{"key":"03","name":"Niedersachsen"}},{"name":"Stollhammer Kirchweg","postalCode":"26969","locality":"Butjadingen","municipality":{"key":"03461003","name":"Butjadingen","type":"Kreisangehörige_Gemeinde"},"district":{"key":"03461","name":"Wesermarsch","type":"Landkreis"},"federalState":{"key":"03","name":"Niedersachsen"}},{"name":"Stollhammer Weg","postalCode":"26969","locality":"Butjadingen","municipality":{"key":"03461003","name":"Butjadingen","type":"Kreisangehörige_Gemeinde"},"district":{"key":"03461","name":"Wesermarsch","type":"Landkreis"},"federalState":{"key":"03","name":"Niedersachsen"}},{"name":"Strandallee","postalCode":"26969","locality":"Butjadingen","municipality":{"key":"03461003","name":"Butjadingen","type":"Kreisangehörige_Gemeinde"},"district":{"key":"03461","name":"Wesermarsch","type":"Landkreis"},"federalState":{"key":"03","name":"Niedersachsen"}},{"name":"Strandläuferweg","postalCode":"26969","locality":"Butjadingen","municipality":{"key":"03461003","name":"Butjadingen","type":"Kreisangehörige_Gemeinde"},"district":{"key":"03461","name":"Wesermarsch","type":"Landkreis"},"federalState":{"key":"03","name":"Niedersachsen"}},{"name":"Süllwarden","postalCode":"26969","locality":"Butjadingen","municipality":{"key":"03461003","name":"Butjadingen","type":"Kreisangehörige_Gemeinde"},"district":{"key":"03461","name":"Wesermarsch","type":"Landkreis"},"federalState":{"key":"03","name":"Niedersachsen"}},{"name":"Süllwarder Burg","postalCode":"26969","locality":"Butjadingen","municipality":{"key":"03461003","name":"Butjadingen","type":"Kreisangehörige_Gemeinde"},"district":{"key":"03461","name":"Wesermarsch","type":"Landkreis"},"federalState":{"key":"03","name":"Niedersachsen"}},{"name":"Syuggewarder Weg","postalCode":"26969","locality":"Butjadingen","municipality":{"key":"03461003","name":"Butjadingen","type":"Kreisangehörige_Gemeinde"},"district":{"key":"03461","name":"Wesermarsch","type":"Landkreis"},"federalState":{"key":"03","name":"Niedersachsen"}},{"name":"Tedlenser Str.","postalCode":"26969","locality":"Butjadingen","municipality":{"key":"03461003","name":"Butjadingen","type":"Kreisangehörige_Gemeinde"},"district":{"key":"03461","name":"Wesermarsch","type":"Landkreis"},"federalState":{"key":"03","name":"Niedersachsen"}},{"name":"Tetkenwärf","postalCode":"26969","locality":"Butjadingen","municipality":{"key":"03461003","name":"Butjadingen","type":"Kreisangehörige_Gemeinde"},"district":{"key":"03461","name":"Wesermarsch","type":"Landkreis"},"federalState":{"key":"03","name":"Niedersachsen"}},{"name":"Tettefelder Weg","postalCode":"26969","locality":"Butjadingen","municipality":{"key":"03461003","name":"Butjadingen","type":"Kreisangehörige_Gemeinde"},"district":{"key":"03461","name":"Wesermarsch","type":"Landkreis"},"federalState":{"key":"03","name":"Niedersachsen"}},{"name":"Tidenpadd","postalCode":"26969","locality":"Butjadingen","municipality":{"key":"03461003","name":"Butjadingen","type":"Kreisangehörige_Gemeinde"},"district":{"key":"03461","name":"Wesermarsch","type":"Landkreis"},"federalState":{"key":"03","name":"Niedersachsen"}},{"name":"Tobenweg","postalCode":"26969","locality":"Butjadingen","municipality":{"key":"03461003","name":"Butjadingen","type":"Kreisangehörige_Gemeinde"},"district":{"key":"03461","name":"Wesermarsch","type":"Landkreis"},"federalState":{"key":"03","name":"Niedersachsen"}},{"name":"Töllner Weg","postalCode":"26969","locality":"Butjadingen","municipality":{"key":"03461003","name":"Butjadingen","type":"Kreisangehörige_Gemeinde"},"district":{"key":"03461","name":"Wesermarsch","type":"Landkreis"},"federalState":{"key":"03","name":"Niedersachsen"}},{"name":"Tossenser Deich","postalCode":"26969","locality":"Butjadingen","municipality":{"key":"03461003","name":"Butjadingen","type":"Kreisangehörige_Gemeinde"},"district":{"key":"03461","name":"Wesermarsch","type":"Landkreis"},"federalState":{"key":"03","name":"Niedersachsen"}},{"name":"Tossenser Str.","postalCode":"26969","locality":"Butjadingen","municipality":{"key":"03461003","name":"Butjadingen","type":"Kreisangehörige_Gemeinde"},"district":{"key":"03461","name":"Wesermarsch","type":"Landkreis"},"federalState":{"key":"03","name":"Niedersachsen"}},{"name":"Triftweg","postalCode":"26969","locality":"Butjadingen","municipality":{"key":"03461003","name":"Butjadingen","type":"Kreisangehörige_Gemeinde"},"district":{"key":"03461","name":"Wesermarsch","type":"Landkreis"},"federalState":{"key":"03","name":"Niedersachsen"}},{"name":"Udo-Knauel-Str.","postalCode":"26969","locality":"Butjadingen","municipality":{"key":"03461003","name":"Butjadingen","type":"Kreisangehörige_Gemeinde"},"district":{"key":"03461","name":"Wesermarsch","type":"Landkreis"},"federalState":{"key":"03","name":"Niedersachsen"}},{"name":"Ulmenstr.","postalCode":"26969","locality":"Butjadingen","municipality":{"key":"03461003","name":"Butjadingen","type":"Kreisangehörige_Gemeinde"},"district":{"key":"03461","name":"Wesermarsch","type":"Landkreis"},"federalState":{"key":"03","name":"Niedersachsen"}},{"name":"Unkersburg","postalCode":"26969","locality":"Butjadingen","municipality":{"key":"03461003","name":"Butjadingen","type":"Kreisangehörige_Gemeinde"},"district":{"key":"03461","name":"Wesermarsch","type":"Landkreis"},"federalState":{"key":"03","name":"Niedersachsen"}},{"name":"Vreburger Weg","postalCode":"26969","locality":"Butjadingen","municipality":{"key":"03461003","name":"Butjadingen","type":"Kreisangehörige_Gemeinde"},"district":{"key":"03461","name":"Wesermarsch","type":"Landkreis"},"federalState":{"key":"03","name":"Niedersachsen"}},{"name":"Waddenser Weg","postalCode":"26969","locality":"Butjadingen","municipality":{"key":"03461003","name":"Butjadingen","type":"Kreisangehörige_Gemeinde"},"district":{"key":"03461","name":"Wesermarsch","type":"Landkreis"},"federalState":{"key":"03","name":"Niedersachsen"}},{"name":"Walter-Looschen-Weg","postalCode":"26969","locality":"Butjadingen","municipality":{"key":"03461003","name":"Butjadingen","type":"Kreisangehörige_Gemeinde"},"district":{"key":"03461","name":"Wesermarsch","type":"Landkreis"},"federalState":{"key":"03","name":"Niedersachsen"}},{"name":"Wangeroogestr.","postalCode":"26969","locality":"Butjadingen","municipality":{"key":"03461003","name":"Butjadingen","type":"Kreisangehörige_Gemeinde"},"district":{"key":"03461","name":"Wesermarsch","type":"Landkreis"},"federalState":{"key":"03","name":"Niedersachsen"}},{"name":"Wattenring","postalCode":"26969","locality":"Butjadingen","municipality":{"key":"03461003","name":"Butjadingen","type":"Kreisangehörige_Gemeinde"},"district":{"key":"03461","name":"Wesermarsch","type":"Landkreis"},"federalState":{"key":"03","name":"Niedersachsen"}},{"name":"Weserstr.","postalCode":"26969","locality":"Butjadingen","municipality":{"key":"03461003","name":"Butjadingen","type":"Kreisangehörige_Gemeinde"},"district":{"key":"03461","name":"Wesermarsch","type":"Landkreis"},"federalState":{"key":"03","name":"Niedersachsen"}},{"name":"Widders","postalCode":"26969","locality":"Butjadingen","municipality":{"key":"03461003","name":"Butjadingen","type":"Kreisangehörige_Gemeinde"},"district":{"key":"03461","name":"Wesermarsch","type":"Landkreis"},"federalState":{"key":"03","name":"Niedersachsen"}},{"name":"Wiesenweg","postalCode":"26969","locality":"Butjadingen","municipality":{"key":"03461003","name":"Butjadingen","type":"Kreisangehörige_Gemeinde"},"district":{"key":"03461","name":"Wesermarsch","type":"Landkreis"},"federalState":{"key":"03","name":"Niedersachsen"}},{"name":"Wilhelm-Koch-Str.","postalCode":"26969","locality":"Butjadingen","municipality":{"key":"03461003","name":"Butjadingen","type":"Kreisangehörige_Gemeinde"},"district":{"key":"03461","name":"Wesermarsch","type":"Landkreis"},"federalState":{"key":"03","name":"Niedersachsen"}},{"name":"Wischweg","postalCode":"26969","locality":"Butjadingen","municipality":{"key":"03461003","name":"Butjadingen","type":"Kreisangehörige_Gemeinde"},"district":{"key":"03461","name":"Wesermarsch","type":"Landkreis"},"federalState":{"key":"03","name":"Niedersachsen"}},{"name":"Wurtstr.","postalCode":"26969","locality":"Butjadingen","municipality":{"key":"03461003","name":"Butjadingen","type":"Kreisangehörige_Gemeinde"},"district":{"key":"03461","name":"Wesermarsch","type":"Landkreis"},"federalState":{"key":"03","name":"Niedersachsen"}},{"name":"Wurtwinkel","postalCode":"26969","locality":"Butjadingen","municipality":{"key":"03461003","name":"Butjadingen","type":"Kreisangehörige_Gemeinde"},"district":{"key":"03461","name":"Wesermarsch","type":"Landkreis"},"federalState":{"key":"03","name":"Niedersachsen"}},{"name":"Ziegeleiweg","postalCode":"26969","locality":"Butjadingen","municipality":{"key":"03461003","name":"Butjadingen","type":"Kreisangehörige_Gemeinde"},"district":{"key":"03461","name":"Wesermarsch","type":"Landkreis"},"federalState":{"key":"03","name":"Niedersachsen"}},{"name":"Zinzendorfstr.","postalCode":"26969","locality":"Butjadingen","municipality":{"key":"03461003","name":"Butjadingen","type":"Kreisangehörige_Gemeinde"},"district":{"key":"03461","name":"Wesermarsch","type":"Landkreis"},"federalState":{"key":"03","name":"Niedersachsen"}},{"name":"Zu den Weiden","postalCode":"26969","locality":"Butjadingen","municipality":{"key":"03461003","name":"Butjadingen","type":"Kreisangehörige_Gemeinde"},"district":{"key":"03461","name":"Wesermarsch","type":"Landkreis"},"federalState":{"key":"03","name":"Niedersachsen"}},{"name":"Zum alten Bahnhof","postalCode":"26969","locality":"Butjadingen","municipality":{"key":"03461003","name":"Butjadingen","type":"Kreisangehörige_Gemeinde"},"district":{"key":"03461","name":"Wesermarsch","type":"Landkreis"},"federalState":{"key":"03","name":"Niedersachsen"}},{"name":"Zum Groden","postalCode":"26969","locality":"Butjadingen","municipality":{"key":"03461003","name":"Butjadingen","type":"Kreisangehörige_Gemeinde"},"district":{"key":"03461","name":"Wesermarsch","type":"Landkreis"},"federalState":{"key":"03","name":"Niedersachsen"}},{"name":"Zum Leuchtfeuer","postalCode":"26969","locality":"Butjadingen","municipality":{"key":"03461003","name":"Butjadingen","type":"Kreisangehörige_Gemeinde"},"district":{"key":"03461","name":"Wesermarsch","type":"Landkreis"},"federalState":{"key":"03","name":"Niedersachsen"}},{"name":"Zum Lokschuppen","postalCode":"26969","locality":"Butjadingen","municipality":{"key":"03461003","name":"Butjadingen","type":"Kreisangehörige_Gemeinde"},"district":{"key":"03461","name":"Wesermarsch","type":"Landkreis"},"federalState":{"key":"03","name":"Niedersachsen"}},{"name":"Zur Alten Mühle","postalCode":"26969","locality":"Butjadingen","municipality":{"key":"03461003","name":"Butjadingen","type":"Kreisangehörige_Gemeinde"},"district":{"key":"03461","name":"Wesermarsch","type":"Landkreis"},"federalState":{"key":"03","name":"Niedersachsen"}},{"name":"Zur Alten Ziegelei","postalCode":"26969","locality":"Butjadingen","municipality":{"key":"03461003","name":"Butjadingen","type":"Kreisangehörige_Gemeinde"},"district":{"key":"03461","name":"Wesermarsch","type":"Landkreis"},"federalState":{"key":"03","name":"Niedersachsen"}},{"name":"Zur Grundschule","postalCode":"26969","locality":"Butjadingen","municipality":{"key":"03461003","name":"Butjadingen","type":"Kreisangehörige_Gemeinde"},"district":{"key":"03461","name":"Wesermarsch","type":"Landkreis"},"federalState":{"key":"03","name":"Niedersachsen"}},{"name":"Zur Molkerei","postalCode":"26969","locality":"Butjadingen","municipality":{"key":"03461003","name":"Butjadingen","type":"Kreisangehörige_Gemeinde"},"district":{"key":"03461","name":"Wesermarsch","type":"Landkreis"},"federalState":{"key":"03","name":"Niedersachsen"}},{"name":"Zur Sillenser Brake","postalCode":"26969","locality":"Butjadingen","municipality":{"key":"03461003","name":"Butjadingen","type":"Kreisangehörige_Gemeinde"},"district":{"key":"03461","name":"Wesermarsch","type":"Landkreis"},"federalState":{"key":"03","name":"Niedersachsen"}},]