[{"name":"Aachener Str.","postalCode":"53925","locality":"Kall","municipality":{"key":"05366024","name":"Kall","type":"Kreisangehörige_Gemeinde"},"district":{"key":"05366","name":"Euskirchen","type":"Kreis"},"federalState":{"key":"05","name":"Nordrhein-Westfalen"}},{"name":"Ackhof","postalCode":"32689","locality":"Kalletal","municipality":{"key":"05766036","name":"Kalletal","type":"Kreisangehörige_Gemeinde"},"district":{"key":"05766","name":"Lippe","type":"Kreis"},"federalState":{"key":"05","name":"Nordrhein-Westfalen"}},{"name":"Adolph-Kolping-Str.","postalCode":"93183","locality":"Kallmünz","municipality":{"key":"09375156","name":"Kallmünz, M","type":"Markt"},"district":{"key":"09375","name":"Regensburg","type":"Landkreis"},"federalState":{"key":"09","name":"Bayern"}},{"name":"Ahornweg","postalCode":"53925","locality":"Kall","municipality":{"key":"05366024","name":"Kall","type":"Kreisangehörige_Gemeinde"},"district":{"key":"05366","name":"Euskirchen","type":"Kreis"},"federalState":{"key":"05","name":"Nordrhein-Westfalen"}},{"name":"Ahrstr.","postalCode":"53925","locality":"Kall","municipality":{"key":"05366024","name":"Kall","type":"Kreisangehörige_Gemeinde"},"district":{"key":"05366","name":"Euskirchen","type":"Kreis"},"federalState":{"key":"05","name":"Nordrhein-Westfalen"}},{"name":"Akazienstr.","postalCode":"53925","locality":"Kall","municipality":{"key":"05366024","name":"Kall","type":"Kreisangehörige_Gemeinde"},"district":{"key":"05366","name":"Euskirchen","type":"Kreis"},"federalState":{"key":"05","name":"Nordrhein-Westfalen"}},{"name":"Albernberg","postalCode":"32689","locality":"Kalletal","municipality":{"key":"05766036","name":"Kalletal","type":"Kreisangehörige_Gemeinde"},"district":{"key":"05766","name":"Lippe","type":"Kreis"},"federalState":{"key":"05","name":"Nordrhein-Westfalen"}},{"name":"Almenaer Str.","postalCode":"32689","locality":"Kalletal","municipality":{"key":"05766036","name":"Kalletal","type":"Kreisangehörige_Gemeinde"},"district":{"key":"05766","name":"Lippe","type":"Kreis"},"federalState":{"key":"05","name":"Nordrhein-Westfalen"}},{"name":"Alois-Knauer-Str.","postalCode":"93183","locality":"Kallmünz","municipality":{"key":"09375156","name":"Kallmünz, M","type":"Markt"},"district":{"key":"09375","name":"Regensburg","type":"Landkreis"},"federalState":{"key":"09","name":"Bayern"}},{"name":"Alte Dinauer Str.","postalCode":"93183","locality":"Kallmünz","municipality":{"key":"09375156","name":"Kallmünz, M","type":"Markt"},"district":{"key":"09375","name":"Regensburg","type":"Landkreis"},"federalState":{"key":"09","name":"Bayern"}},{"name":"Alte Heerstr.","postalCode":"32689","locality":"Kalletal","municipality":{"key":"05766036","name":"Kalletal","type":"Kreisangehörige_Gemeinde"},"district":{"key":"05766","name":"Lippe","type":"Kreis"},"federalState":{"key":"05","name":"Nordrhein-Westfalen"}},{"name":"Alte Kellerei","postalCode":"67169","locality":"Kallstadt","municipality":{"key":"07332028","name":"Kallstadt","type":"Kreisangehörige_Gemeinde"},"district":{"key":"07332","name":"Bad Dürkheim","type":"Landkreis"},"federalState":{"key":"07","name":"Rheinland-Pfalz"}},{"name":"Alte Regensburger Str.","postalCode":"93183","locality":"Kallmünz","municipality":{"key":"09375156","name":"Kallmünz, M","type":"Markt"},"district":{"key":"09375","name":"Regensburg","type":"Landkreis"},"federalState":{"key":"09","name":"Bayern"}},{"name":"Alter Postweg","postalCode":"32689","locality":"Kalletal","municipality":{"key":"05766036","name":"Kalletal","type":"Kreisangehörige_Gemeinde"},"district":{"key":"05766","name":"Lippe","type":"Kreis"},"federalState":{"key":"05","name":"Nordrhein-Westfalen"}},{"name":"Alter Weg","postalCode":"32689","locality":"Kalletal","municipality":{"key":"05766036","name":"Kalletal","type":"Kreisangehörige_Gemeinde"},"district":{"key":"05766","name":"Lippe","type":"Kreis"},"federalState":{"key":"05","name":"Nordrhein-Westfalen"}},{"name":"Alte Siedlung","postalCode":"32689","locality":"Kalletal","municipality":{"key":"05766036","name":"Kalletal","type":"Kreisangehörige_Gemeinde"},"district":{"key":"05766","name":"Lippe","type":"Kreis"},"federalState":{"key":"05","name":"Nordrhein-Westfalen"}},{"name":"Am Ackerse","postalCode":"32689","locality":"Kalletal","municipality":{"key":"05766036","name":"Kalletal","type":"Kreisangehörige_Gemeinde"},"district":{"key":"05766","name":"Lippe","type":"Kreis"},"federalState":{"key":"05","name":"Nordrhein-Westfalen"}},{"name":"Am Alenberg","postalCode":"53925","locality":"Kall","municipality":{"key":"05366024","name":"Kall","type":"Kreisangehörige_Gemeinde"},"district":{"key":"05366","name":"Euskirchen","type":"Kreis"},"federalState":{"key":"05","name":"Nordrhein-Westfalen"}},{"name":"Am Alten Hofe","postalCode":"32689","locality":"Kalletal","municipality":{"key":"05766036","name":"Kalletal","type":"Kreisangehörige_Gemeinde"},"district":{"key":"05766","name":"Lippe","type":"Kreis"},"federalState":{"key":"05","name":"Nordrhein-Westfalen"}},{"name":"Am Anger","postalCode":"32689","locality":"Kalletal","municipality":{"key":"05766036","name":"Kalletal","type":"Kreisangehörige_Gemeinde"},"district":{"key":"05766","name":"Lippe","type":"Kreis"},"federalState":{"key":"05","name":"Nordrhein-Westfalen"}},{"name":"Am Anger","postalCode":"93183","locality":"Kallmünz","municipality":{"key":"09375156","name":"Kallmünz, M","type":"Markt"},"district":{"key":"09375","name":"Regensburg","type":"Landkreis"},"federalState":{"key":"09","name":"Bayern"}},{"name":"Am Birnbaum","postalCode":"53925","locality":"Kall","municipality":{"key":"05366024","name":"Kall","type":"Kreisangehörige_Gemeinde"},"district":{"key":"05366","name":"Euskirchen","type":"Kreis"},"federalState":{"key":"05","name":"Nordrhein-Westfalen"}},{"name":"Am Bruchkamp","postalCode":"32689","locality":"Kalletal","municipality":{"key":"05766036","name":"Kalletal","type":"Kreisangehörige_Gemeinde"},"district":{"key":"05766","name":"Lippe","type":"Kreis"},"federalState":{"key":"05","name":"Nordrhein-Westfalen"}},{"name":"Am Christusgraben","postalCode":"93183","locality":"Kallmünz","municipality":{"key":"09375156","name":"Kallmünz, M","type":"Markt"},"district":{"key":"09375","name":"Regensburg","type":"Landkreis"},"federalState":{"key":"09","name":"Bayern"}},{"name":"Am Dreschplatz","postalCode":"32689","locality":"Kalletal","municipality":{"key":"05766036","name":"Kalletal","type":"Kreisangehörige_Gemeinde"},"district":{"key":"05766","name":"Lippe","type":"Kreis"},"federalState":{"key":"05","name":"Nordrhein-Westfalen"}},{"name":"Am Fallgatter","postalCode":"93183","locality":"Kallmünz","municipality":{"key":"09375156","name":"Kallmünz, M","type":"Markt"},"district":{"key":"09375","name":"Regensburg","type":"Landkreis"},"federalState":{"key":"09","name":"Bayern"}},{"name":"Am Forellenbach","postalCode":"93183","locality":"Kallmünz","municipality":{"key":"09375156","name":"Kallmünz, M","type":"Markt"},"district":{"key":"09375","name":"Regensburg","type":"Landkreis"},"federalState":{"key":"09","name":"Bayern"}},{"name":"Am Friedhof","postalCode":"32689","locality":"Kalletal","municipality":{"key":"05766036","name":"Kalletal","type":"Kreisangehörige_Gemeinde"},"district":{"key":"05766","name":"Lippe","type":"Kreis"},"federalState":{"key":"05","name":"Nordrhein-Westfalen"}},{"name":"Am Galgenberg","postalCode":"93183","locality":"Kallmünz","municipality":{"key":"09375156","name":"Kallmünz, M","type":"Markt"},"district":{"key":"09375","name":"Regensburg","type":"Landkreis"},"federalState":{"key":"09","name":"Bayern"}},{"name":"Am Gänsbügl","postalCode":"93183","locality":"Kallmünz","municipality":{"key":"09375156","name":"Kallmünz, M","type":"Markt"},"district":{"key":"09375","name":"Regensburg","type":"Landkreis"},"federalState":{"key":"09","name":"Bayern"}},{"name":"Am Gillesbach","postalCode":"53925","locality":"Kall","municipality":{"key":"05366024","name":"Kall","type":"Kreisangehörige_Gemeinde"},"district":{"key":"05366","name":"Euskirchen","type":"Kreis"},"federalState":{"key":"05","name":"Nordrhein-Westfalen"}},{"name":"Am Graben","postalCode":"93183","locality":"Kallmünz","municipality":{"key":"09375156","name":"Kallmünz, M","type":"Markt"},"district":{"key":"09375","name":"Regensburg","type":"Landkreis"},"federalState":{"key":"09","name":"Bayern"}},{"name":"Am Gries","postalCode":"93183","locality":"Kallmünz","municipality":{"key":"09375156","name":"Kallmünz, M","type":"Markt"},"district":{"key":"09375","name":"Regensburg","type":"Landkreis"},"federalState":{"key":"09","name":"Bayern"}},{"name":"Am Hallenbad","postalCode":"53925","locality":"Kall","municipality":{"key":"05366024","name":"Kall","type":"Kreisangehörige_Gemeinde"},"district":{"key":"05366","name":"Euskirchen","type":"Kreis"},"federalState":{"key":"05","name":"Nordrhein-Westfalen"}},{"name":"Am Hammerwerk","postalCode":"53925","locality":"Kall","municipality":{"key":"05366024","name":"Kall","type":"Kreisangehörige_Gemeinde"},"district":{"key":"05366","name":"Euskirchen","type":"Kreis"},"federalState":{"key":"05","name":"Nordrhein-Westfalen"}},{"name":"Am Hang","postalCode":"32689","locality":"Kalletal","municipality":{"key":"05766036","name":"Kalletal","type":"Kreisangehörige_Gemeinde"},"district":{"key":"05766","name":"Lippe","type":"Kreis"},"federalState":{"key":"05","name":"Nordrhein-Westfalen"}},{"name":"Am Hang","postalCode":"53925","locality":"Kall","municipality":{"key":"05366024","name":"Kall","type":"Kreisangehörige_Gemeinde"},"district":{"key":"05366","name":"Euskirchen","type":"Kreis"},"federalState":{"key":"05","name":"Nordrhein-Westfalen"}},{"name":"Am Haselbusch","postalCode":"53925","locality":"Kall","municipality":{"key":"05366024","name":"Kall","type":"Kreisangehörige_Gemeinde"},"district":{"key":"05366","name":"Euskirchen","type":"Kreis"},"federalState":{"key":"05","name":"Nordrhein-Westfalen"}},{"name":"Am Heidekopf","postalCode":"53925","locality":"Kall","municipality":{"key":"05366024","name":"Kall","type":"Kreisangehörige_Gemeinde"},"district":{"key":"05366","name":"Euskirchen","type":"Kreis"},"federalState":{"key":"05","name":"Nordrhein-Westfalen"}},{"name":"Am Hellbach","postalCode":"32689","locality":"Kalletal","municipality":{"key":"05766036","name":"Kalletal","type":"Kreisangehörige_Gemeinde"},"district":{"key":"05766","name":"Lippe","type":"Kreis"},"federalState":{"key":"05","name":"Nordrhein-Westfalen"}},{"name":"Am Heuweg","postalCode":"53925","locality":"Kall","municipality":{"key":"05366024","name":"Kall","type":"Kreisangehörige_Gemeinde"},"district":{"key":"05366","name":"Euskirchen","type":"Kreis"},"federalState":{"key":"05","name":"Nordrhein-Westfalen"}},{"name":"Am Hübaum","postalCode":"67169","locality":"Kallstadt","municipality":{"key":"07332028","name":"Kallstadt","type":"Kreisangehörige_Gemeinde"},"district":{"key":"07332","name":"Bad Dürkheim","type":"Landkreis"},"federalState":{"key":"07","name":"Rheinland-Pfalz"}},{"name":"Am Hüttengraben","postalCode":"53925","locality":"Kall","municipality":{"key":"05366024","name":"Kall","type":"Kreisangehörige_Gemeinde"},"district":{"key":"05366","name":"Euskirchen","type":"Kreis"},"federalState":{"key":"05","name":"Nordrhein-Westfalen"}},{"name":"Am Kalkofen","postalCode":"32689","locality":"Kalletal","municipality":{"key":"05766036","name":"Kalletal","type":"Kreisangehörige_Gemeinde"},"district":{"key":"05766","name":"Lippe","type":"Kreis"},"federalState":{"key":"05","name":"Nordrhein-Westfalen"}},{"name":"Am Kalkofen","postalCode":"53925","locality":"Kall","municipality":{"key":"05366024","name":"Kall","type":"Kreisangehörige_Gemeinde"},"district":{"key":"05366","name":"Euskirchen","type":"Kreis"},"federalState":{"key":"05","name":"Nordrhein-Westfalen"}},{"name":"Am Kirchenberg","postalCode":"93183","locality":"Kallmünz","municipality":{"key":"09375156","name":"Kallmünz, M","type":"Markt"},"district":{"key":"09375","name":"Regensburg","type":"Landkreis"},"federalState":{"key":"09","name":"Bayern"}},{"name":"Am Kleeberg","postalCode":"32689","locality":"Kalletal","municipality":{"key":"05766036","name":"Kalletal","type":"Kreisangehörige_Gemeinde"},"district":{"key":"05766","name":"Lippe","type":"Kreis"},"federalState":{"key":"05","name":"Nordrhein-Westfalen"}},{"name":"Am Kleisinger","postalCode":"67169","locality":"Kallstadt","municipality":{"key":"07332028","name":"Kallstadt","type":"Kreisangehörige_Gemeinde"},"district":{"key":"07332","name":"Bad Dürkheim","type":"Landkreis"},"federalState":{"key":"07","name":"Rheinland-Pfalz"}},{"name":"Am Klosterweg","postalCode":"93183","locality":"Kallmünz","municipality":{"key":"09375156","name":"Kallmünz, M","type":"Markt"},"district":{"key":"09375","name":"Regensburg","type":"Landkreis"},"federalState":{"key":"09","name":"Bayern"}},{"name":"Am Knapp","postalCode":"32689","locality":"Kalletal","municipality":{"key":"05766036","name":"Kalletal","type":"Kreisangehörige_Gemeinde"},"district":{"key":"05766","name":"Lippe","type":"Kreis"},"federalState":{"key":"05","name":"Nordrhein-Westfalen"}},{"name":"Bachweg","postalCode":"53925","locality":"Kall","municipality":{"key":"05366024","name":"Kall","type":"Kreisangehörige_Gemeinde"},"district":{"key":"05366","name":"Euskirchen","type":"Kreis"},"federalState":{"key":"05","name":"Nordrhein-Westfalen"}},{"name":"Bahnhofstr.","postalCode":"53925","locality":"Kall","municipality":{"key":"05366024","name":"Kall","type":"Kreisangehörige_Gemeinde"},"district":{"key":"05366","name":"Euskirchen","type":"Kreis"},"federalState":{"key":"05","name":"Nordrhein-Westfalen"}},{"name":"Barbarastr.","postalCode":"53925","locality":"Kall","municipality":{"key":"05366024","name":"Kall","type":"Kreisangehörige_Gemeinde"},"district":{"key":"05366","name":"Euskirchen","type":"Kreis"},"federalState":{"key":"05","name":"Nordrhein-Westfalen"}},{"name":"Barmbrede","postalCode":"32689","locality":"Kalletal","municipality":{"key":"05766036","name":"Kalletal","type":"Kreisangehörige_Gemeinde"},"district":{"key":"05766","name":"Lippe","type":"Kreis"},"federalState":{"key":"05","name":"Nordrhein-Westfalen"}},{"name":"Bavenhauser Str.","postalCode":"32689","locality":"Kalletal","municipality":{"key":"05766036","name":"Kalletal","type":"Kreisangehörige_Gemeinde"},"district":{"key":"05766","name":"Lippe","type":"Kreis"},"federalState":{"key":"05","name":"Nordrhein-Westfalen"}},{"name":"Beerenweg","postalCode":"53925","locality":"Kall","municipality":{"key":"05366024","name":"Kall","type":"Kreisangehörige_Gemeinde"},"district":{"key":"05366","name":"Euskirchen","type":"Kreis"},"federalState":{"key":"05","name":"Nordrhein-Westfalen"}},{"name":"Bendenstr.","postalCode":"53925","locality":"Kall","municipality":{"key":"05366024","name":"Kall","type":"Kreisangehörige_Gemeinde"},"district":{"key":"05366","name":"Euskirchen","type":"Kreis"},"federalState":{"key":"05","name":"Nordrhein-Westfalen"}},{"name":"Benediktusweg","postalCode":"53925","locality":"Kall","municipality":{"key":"05366024","name":"Kall","type":"Kreisangehörige_Gemeinde"},"district":{"key":"05366","name":"Euskirchen","type":"Kreis"},"federalState":{"key":"05","name":"Nordrhein-Westfalen"}},{"name":"Bentorfer Str.","postalCode":"32689","locality":"Kalletal","municipality":{"key":"05766036","name":"Kalletal","type":"Kreisangehörige_Gemeinde"},"district":{"key":"05766","name":"Lippe","type":"Kreis"},"federalState":{"key":"05","name":"Nordrhein-Westfalen"}},{"name":"Benzstr.","postalCode":"53925","locality":"Kall","municipality":{"key":"05366024","name":"Kall","type":"Kreisangehörige_Gemeinde"},"district":{"key":"05366","name":"Euskirchen","type":"Kreis"},"federalState":{"key":"05","name":"Nordrhein-Westfalen"}},{"name":"Berggarten","postalCode":"32689","locality":"Kalletal","municipality":{"key":"05766036","name":"Kalletal","type":"Kreisangehörige_Gemeinde"},"district":{"key":"05766","name":"Lippe","type":"Kreis"},"federalState":{"key":"05","name":"Nordrhein-Westfalen"}},{"name":"Berghang","postalCode":"32689","locality":"Kalletal","municipality":{"key":"05766036","name":"Kalletal","type":"Kreisangehörige_Gemeinde"},"district":{"key":"05766","name":"Lippe","type":"Kreis"},"federalState":{"key":"05","name":"Nordrhein-Westfalen"}},{"name":"Bergstr.","postalCode":"32689","locality":"Kalletal","municipality":{"key":"05766036","name":"Kalletal","type":"Kreisangehörige_Gemeinde"},"district":{"key":"05766","name":"Lippe","type":"Kreis"},"federalState":{"key":"05","name":"Nordrhein-Westfalen"}},{"name":"Bergstr.","postalCode":"53925","locality":"Kall","municipality":{"key":"05366024","name":"Kall","type":"Kreisangehörige_Gemeinde"},"district":{"key":"05366","name":"Euskirchen","type":"Kreis"},"federalState":{"key":"05","name":"Nordrhein-Westfalen"}},{"name":"Bergweg","postalCode":"32689","locality":"Kalletal","municipality":{"key":"05766036","name":"Kalletal","type":"Kreisangehörige_Gemeinde"},"district":{"key":"05766","name":"Lippe","type":"Kreis"},"federalState":{"key":"05","name":"Nordrhein-Westfalen"}},{"name":"Beutebrink","postalCode":"32689","locality":"Kalletal","municipality":{"key":"05766036","name":"Kalletal","type":"Kreisangehörige_Gemeinde"},"district":{"key":"05766","name":"Lippe","type":"Kreis"},"federalState":{"key":"05","name":"Nordrhein-Westfalen"}},{"name":"Biershöhe","postalCode":"32689","locality":"Kalletal","municipality":{"key":"05766036","name":"Kalletal","type":"Kreisangehörige_Gemeinde"},"district":{"key":"05766","name":"Lippe","type":"Kreis"},"federalState":{"key":"05","name":"Nordrhein-Westfalen"}},{"name":"Birkenweg","postalCode":"53925","locality":"Kall","municipality":{"key":"05366024","name":"Kall","type":"Kreisangehörige_Gemeinde"},"district":{"key":"05366","name":"Euskirchen","type":"Kreis"},"federalState":{"key":"05","name":"Nordrhein-Westfalen"}},{"name":"Blankenheimer Str.","postalCode":"53925","locality":"Kall","municipality":{"key":"05366024","name":"Kall","type":"Kreisangehörige_Gemeinde"},"district":{"key":"05366","name":"Euskirchen","type":"Kreis"},"federalState":{"key":"05","name":"Nordrhein-Westfalen"}},{"name":"Bleibachstr.","postalCode":"53925","locality":"Kall","municipality":{"key":"05366024","name":"Kall","type":"Kreisangehörige_Gemeinde"},"district":{"key":"05366","name":"Euskirchen","type":"Kreis"},"federalState":{"key":"05","name":"Nordrhein-Westfalen"}},{"name":"Blumenstr.","postalCode":"32689","locality":"Kalletal","municipality":{"key":"05766036","name":"Kalletal","type":"Kreisangehörige_Gemeinde"},"district":{"key":"05766","name":"Lippe","type":"Kreis"},"federalState":{"key":"05","name":"Nordrhein-Westfalen"}},{"name":"Blumenstr.","postalCode":"53925","locality":"Kall","municipality":{"key":"05366024","name":"Kall","type":"Kreisangehörige_Gemeinde"},"district":{"key":"05366","name":"Euskirchen","type":"Kreis"},"federalState":{"key":"05","name":"Nordrhein-Westfalen"}},{"name":"Blütenstr.","postalCode":"53925","locality":"Kall","municipality":{"key":"05366024","name":"Kall","type":"Kreisangehörige_Gemeinde"},"district":{"key":"05366","name":"Euskirchen","type":"Kreis"},"federalState":{"key":"05","name":"Nordrhein-Westfalen"}},{"name":"Bodenweg","postalCode":"32689","locality":"Kalletal","municipality":{"key":"05766036","name":"Kalletal","type":"Kreisangehörige_Gemeinde"},"district":{"key":"05766","name":"Lippe","type":"Kreis"},"federalState":{"key":"05","name":"Nordrhein-Westfalen"}},{"name":"Bohlenstr.","postalCode":"32689","locality":"Kalletal","municipality":{"key":"05766036","name":"Kalletal","type":"Kreisangehörige_Gemeinde"},"district":{"key":"05766","name":"Lippe","type":"Kreis"},"federalState":{"key":"05","name":"Nordrhein-Westfalen"}},{"name":"Bollenbrink","postalCode":"32689","locality":"Kalletal","municipality":{"key":"05766036","name":"Kalletal","type":"Kreisangehörige_Gemeinde"},"district":{"key":"05766","name":"Lippe","type":"Kreis"},"federalState":{"key":"05","name":"Nordrhein-Westfalen"}},{"name":"Bontrott","postalCode":"32689","locality":"Kalletal","municipality":{"key":"05766036","name":"Kalletal","type":"Kreisangehörige_Gemeinde"},"district":{"key":"05766","name":"Lippe","type":"Kreis"},"federalState":{"key":"05","name":"Nordrhein-Westfalen"}},{"name":"Bösingfelder Str.","postalCode":"32689","locality":"Kalletal","municipality":{"key":"05766036","name":"Kalletal","type":"Kreisangehörige_Gemeinde"},"district":{"key":"05766","name":"Lippe","type":"Kreis"},"federalState":{"key":"05","name":"Nordrhein-Westfalen"}},{"name":"Brede","postalCode":"32689","locality":"Kalletal","municipality":{"key":"05766036","name":"Kalletal","type":"Kreisangehörige_Gemeinde"},"district":{"key":"05766","name":"Lippe","type":"Kreis"},"federalState":{"key":"05","name":"Nordrhein-Westfalen"}},{"name":"Breite","postalCode":"32689","locality":"Kalletal","municipality":{"key":"05766036","name":"Kalletal","type":"Kreisangehörige_Gemeinde"},"district":{"key":"05766","name":"Lippe","type":"Kreis"},"federalState":{"key":"05","name":"Nordrhein-Westfalen"}},{"name":"Bremer Str.","postalCode":"32689","locality":"Kalletal","municipality":{"key":"05766036","name":"Kalletal","type":"Kreisangehörige_Gemeinde"},"district":{"key":"05766","name":"Lippe","type":"Kreis"},"federalState":{"key":"05","name":"Nordrhein-Westfalen"}},{"name":"Brieversheck","postalCode":"53925","locality":"Kall","municipality":{"key":"05366024","name":"Kall","type":"Kreisangehörige_Gemeinde"},"district":{"key":"05366","name":"Euskirchen","type":"Kreis"},"federalState":{"key":"05","name":"Nordrhein-Westfalen"}},{"name":"Brigidastr.","postalCode":"53925","locality":"Kall","municipality":{"key":"05366024","name":"Kall","type":"Kreisangehörige_Gemeinde"},"district":{"key":"05366","name":"Euskirchen","type":"Kreis"},"federalState":{"key":"05","name":"Nordrhein-Westfalen"}},{"name":"Brinkgarten","postalCode":"32689","locality":"Kalletal","municipality":{"key":"05766036","name":"Kalletal","type":"Kreisangehörige_Gemeinde"},"district":{"key":"05766","name":"Lippe","type":"Kreis"},"federalState":{"key":"05","name":"Nordrhein-Westfalen"}},{"name":"Brinkhof","postalCode":"32689","locality":"Kalletal","municipality":{"key":"05766036","name":"Kalletal","type":"Kreisangehörige_Gemeinde"},"district":{"key":"05766","name":"Lippe","type":"Kreis"},"federalState":{"key":"05","name":"Nordrhein-Westfalen"}},{"name":"Broicher Str.","postalCode":"53925","locality":"Kall","municipality":{"key":"05366024","name":"Kall","type":"Kreisangehörige_Gemeinde"},"district":{"key":"05366","name":"Euskirchen","type":"Kreis"},"federalState":{"key":"05","name":"Nordrhein-Westfalen"}},{"name":"Broser Str.","postalCode":"32689","locality":"Kalletal","municipality":{"key":"05766036","name":"Kalletal","type":"Kreisangehörige_Gemeinde"},"district":{"key":"05766","name":"Lippe","type":"Kreis"},"federalState":{"key":"05","name":"Nordrhein-Westfalen"}},{"name":"Bruchstr.","postalCode":"32689","locality":"Kalletal","municipality":{"key":"05766036","name":"Kalletal","type":"Kreisangehörige_Gemeinde"},"district":{"key":"05766","name":"Lippe","type":"Kreis"},"federalState":{"key":"05","name":"Nordrhein-Westfalen"}},{"name":"Bruchweg","postalCode":"32689","locality":"Kalletal","municipality":{"key":"05766036","name":"Kalletal","type":"Kreisangehörige_Gemeinde"},"district":{"key":"05766","name":"Lippe","type":"Kreis"},"federalState":{"key":"05","name":"Nordrhein-Westfalen"}},{"name":"Bründlgartenstr.","postalCode":"93183","locality":"Kallmünz","municipality":{"key":"09375156","name":"Kallmünz, M","type":"Markt"},"district":{"key":"09375","name":"Regensburg","type":"Landkreis"},"federalState":{"key":"09","name":"Bayern"}},{"name":"Bründlweg","postalCode":"93183","locality":"Kallmünz","municipality":{"key":"09375156","name":"Kallmünz, M","type":"Markt"},"district":{"key":"09375","name":"Regensburg","type":"Landkreis"},"federalState":{"key":"09","name":"Bayern"}},{"name":"Brunnenstr.","postalCode":"32689","locality":"Kalletal","municipality":{"key":"05766036","name":"Kalletal","type":"Kreisangehörige_Gemeinde"},"district":{"key":"05766","name":"Lippe","type":"Kreis"},"federalState":{"key":"05","name":"Nordrhein-Westfalen"}},{"name":"Brunnenweg","postalCode":"53925","locality":"Kall","municipality":{"key":"05366024","name":"Kall","type":"Kreisangehörige_Gemeinde"},"district":{"key":"05366","name":"Euskirchen","type":"Kreis"},"federalState":{"key":"05","name":"Nordrhein-Westfalen"}},{"name":"Brunngasse","postalCode":"93183","locality":"Kallmünz","municipality":{"key":"09375156","name":"Kallmünz, M","type":"Markt"},"district":{"key":"09375","name":"Regensburg","type":"Landkreis"},"federalState":{"key":"09","name":"Bayern"}},{"name":"Brunsberg","postalCode":"32689","locality":"Kalletal","municipality":{"key":"05766036","name":"Kalletal","type":"Kreisangehörige_Gemeinde"},"district":{"key":"05766","name":"Lippe","type":"Kreis"},"federalState":{"key":"05","name":"Nordrhein-Westfalen"}},{"name":"Büchel-Eck","postalCode":"53925","locality":"Kall","municipality":{"key":"05366024","name":"Kall","type":"Kreisangehörige_Gemeinde"},"district":{"key":"05366","name":"Euskirchen","type":"Kreis"},"federalState":{"key":"05","name":"Nordrhein-Westfalen"}},{"name":"Buchenweg","postalCode":"53925","locality":"Kall","municipality":{"key":"05366024","name":"Kall","type":"Kreisangehörige_Gemeinde"},"district":{"key":"05366","name":"Euskirchen","type":"Kreis"},"federalState":{"key":"05","name":"Nordrhein-Westfalen"}},{"name":"Buchholzweg","postalCode":"32689","locality":"Kalletal","municipality":{"key":"05766036","name":"Kalletal","type":"Kreisangehörige_Gemeinde"},"district":{"key":"05766","name":"Lippe","type":"Kreis"},"federalState":{"key":"05","name":"Nordrhein-Westfalen"}},{"name":"Bullerbusch","postalCode":"32689","locality":"Kalletal","municipality":{"key":"05766036","name":"Kalletal","type":"Kreisangehörige_Gemeinde"},"district":{"key":"05766","name":"Lippe","type":"Kreis"},"federalState":{"key":"05","name":"Nordrhein-Westfalen"}},{"name":"Bungertweg","postalCode":"53925","locality":"Kall","municipality":{"key":"05366024","name":"Kall","type":"Kreisangehörige_Gemeinde"},"district":{"key":"05366","name":"Euskirchen","type":"Kreis"},"federalState":{"key":"05","name":"Nordrhein-Westfalen"}},{"name":"Cäcilienstr.","postalCode":"53925","locality":"Kall","municipality":{"key":"05366024","name":"Kall","type":"Kreisangehörige_Gemeinde"},"district":{"key":"05366","name":"Euskirchen","type":"Kreis"},"federalState":{"key":"05","name":"Nordrhein-Westfalen"}},{"name":"Charles-Palmie-Str.","postalCode":"93183","locality":"Kallmünz","municipality":{"key":"09375156","name":"Kallmünz, M","type":"Markt"},"district":{"key":"09375","name":"Regensburg","type":"Landkreis"},"federalState":{"key":"09","name":"Bayern"}},{"name":"Charlotte-Diede-Weg","postalCode":"32689","locality":"Kalletal","municipality":{"key":"05766036","name":"Kalletal","type":"Kreisangehörige_Gemeinde"},"district":{"key":"05766","name":"Lippe","type":"Kreis"},"federalState":{"key":"05","name":"Nordrhein-Westfalen"}},{"name":"Christoph-Vogl-Str.","postalCode":"93183","locality":"Kallmünz","municipality":{"key":"09375156","name":"Kallmünz, M","type":"Markt"},"district":{"key":"09375","name":"Regensburg","type":"Landkreis"},"federalState":{"key":"09","name":"Bayern"}},{"name":"Dachsweg","postalCode":"53925","locality":"Kall","municipality":{"key":"05366024","name":"Kall","type":"Kreisangehörige_Gemeinde"},"district":{"key":"05366","name":"Euskirchen","type":"Kreis"},"federalState":{"key":"05","name":"Nordrhein-Westfalen"}},{"name":"Dahlienweg","postalCode":"53925","locality":"Kall","municipality":{"key":"05366024","name":"Kall","type":"Kreisangehörige_Gemeinde"},"district":{"key":"05366","name":"Euskirchen","type":"Kreis"},"federalState":{"key":"05","name":"Nordrhein-Westfalen"}},{"name":"Daimlerstr.","postalCode":"53925","locality":"Kall","municipality":{"key":"05366024","name":"Kall","type":"Kreisangehörige_Gemeinde"},"district":{"key":"05366","name":"Euskirchen","type":"Kreis"},"federalState":{"key":"05","name":"Nordrhein-Westfalen"}},{"name":"Dalbke","postalCode":"32689","locality":"Kalletal","municipality":{"key":"05766036","name":"Kalletal","type":"Kreisangehörige_Gemeinde"},"district":{"key":"05766","name":"Lippe","type":"Kreis"},"federalState":{"key":"05","name":"Nordrhein-Westfalen"}},{"name":"Danenstr.","postalCode":"32689","locality":"Kalletal","municipality":{"key":"05766036","name":"Kalletal","type":"Kreisangehörige_Gemeinde"},"district":{"key":"05766","name":"Lippe","type":"Kreis"},"federalState":{"key":"05","name":"Nordrhein-Westfalen"}},{"name":"Dechant-Wolfgarten-Str.","postalCode":"53925","locality":"Kall","municipality":{"key":"05366024","name":"Kall","type":"Kreisangehörige_Gemeinde"},"district":{"key":"05366","name":"Euskirchen","type":"Kreis"},"federalState":{"key":"05","name":"Nordrhein-Westfalen"}},{"name":"Deutsche Weinstr.","postalCode":"67169","locality":"Kallstadt","municipality":{"key":"07332028","name":"Kallstadt","type":"Kreisangehörige_Gemeinde"},"district":{"key":"07332","name":"Bad Dürkheim","type":"Landkreis"},"federalState":{"key":"07","name":"Rheinland-Pfalz"}},{"name":"Diefenbacher Weg","postalCode":"53925","locality":"Kall","municipality":{"key":"05366024","name":"Kall","type":"Kreisangehörige_Gemeinde"},"district":{"key":"05366","name":"Euskirchen","type":"Kreis"},"federalState":{"key":"05","name":"Nordrhein-Westfalen"}},{"name":"Diekbrede","postalCode":"32689","locality":"Kalletal","municipality":{"key":"05766036","name":"Kalletal","type":"Kreisangehörige_Gemeinde"},"district":{"key":"05766","name":"Lippe","type":"Kreis"},"federalState":{"key":"05","name":"Nordrhein-Westfalen"}},{"name":"Dinau","postalCode":"93183","locality":"Kallmünz","municipality":{"key":"09375156","name":"Kallmünz, M","type":"Markt"},"district":{"key":"09375","name":"Regensburg","type":"Landkreis"},"federalState":{"key":"09","name":"Bayern"}},{"name":"Dinauer Str.","postalCode":"93183","locality":"Kallmünz","municipality":{"key":"09375156","name":"Kallmünz, M","type":"Markt"},"district":{"key":"09375","name":"Regensburg","type":"Landkreis"},"federalState":{"key":"09","name":"Bayern"}},{"name":"Dionysiusstr.","postalCode":"53925","locality":"Kall","municipality":{"key":"05366024","name":"Kall","type":"Kreisangehörige_Gemeinde"},"district":{"key":"05366","name":"Euskirchen","type":"Kreis"},"federalState":{"key":"05","name":"Nordrhein-Westfalen"}},{"name":"Doktorweg","postalCode":"32689","locality":"Kalletal","municipality":{"key":"05766036","name":"Kalletal","type":"Kreisangehörige_Gemeinde"},"district":{"key":"05766","name":"Lippe","type":"Kreis"},"federalState":{"key":"05","name":"Nordrhein-Westfalen"}},{"name":"Dörentruper Str.","postalCode":"32689","locality":"Kalletal","municipality":{"key":"05766036","name":"Kalletal","type":"Kreisangehörige_Gemeinde"},"district":{"key":"05766","name":"Lippe","type":"Kreis"},"federalState":{"key":"05","name":"Nordrhein-Westfalen"}},{"name":"Dorfpark Bentorf","postalCode":"32689","locality":"Kalletal","municipality":{"key":"05766036","name":"Kalletal","type":"Kreisangehörige_Gemeinde"},"district":{"key":"05766","name":"Lippe","type":"Kreis"},"federalState":{"key":"05","name":"Nordrhein-Westfalen"}},{"name":"Dorfstr.","postalCode":"32689","locality":"Kalletal","municipality":{"key":"05766036","name":"Kalletal","type":"Kreisangehörige_Gemeinde"},"district":{"key":"05766","name":"Lippe","type":"Kreis"},"federalState":{"key":"05","name":"Nordrhein-Westfalen"}},{"name":"Drosselweg","postalCode":"32689","locality":"Kalletal","municipality":{"key":"05766036","name":"Kalletal","type":"Kreisangehörige_Gemeinde"},"district":{"key":"05766","name":"Lippe","type":"Kreis"},"federalState":{"key":"05","name":"Nordrhein-Westfalen"}},{"name":"Drosselweg","postalCode":"53925","locality":"Kall","municipality":{"key":"05366024","name":"Kall","type":"Kreisangehörige_Gemeinde"},"district":{"key":"05366","name":"Euskirchen","type":"Kreis"},"federalState":{"key":"05","name":"Nordrhein-Westfalen"}},{"name":"Echternhagen","postalCode":"32689","locality":"Kalletal","municipality":{"key":"05766036","name":"Kalletal","type":"Kreisangehörige_Gemeinde"},"district":{"key":"05766","name":"Lippe","type":"Kreis"},"federalState":{"key":"05","name":"Nordrhein-Westfalen"}},{"name":"Eckbergweg","postalCode":"32689","locality":"Kalletal","municipality":{"key":"05766036","name":"Kalletal","type":"Kreisangehörige_Gemeinde"},"district":{"key":"05766","name":"Lippe","type":"Kreis"},"federalState":{"key":"05","name":"Nordrhein-Westfalen"}},{"name":"Eibenweg","postalCode":"53925","locality":"Kall","municipality":{"key":"05366024","name":"Kall","type":"Kreisangehörige_Gemeinde"},"district":{"key":"05366","name":"Euskirchen","type":"Kreis"},"federalState":{"key":"05","name":"Nordrhein-Westfalen"}},{"name":"Eich","postalCode":"93183","locality":"Kallmünz","municipality":{"key":"09375156","name":"Kallmünz, M","type":"Markt"},"district":{"key":"09375","name":"Regensburg","type":"Landkreis"},"federalState":{"key":"09","name":"Bayern"}},{"name":"Eichelhäherweg","postalCode":"53925","locality":"Kall","municipality":{"key":"05366024","name":"Kall","type":"Kreisangehörige_Gemeinde"},"district":{"key":"05366","name":"Euskirchen","type":"Kreis"},"federalState":{"key":"05","name":"Nordrhein-Westfalen"}},{"name":"Eichengrund","postalCode":"32689","locality":"Kalletal","municipality":{"key":"05766036","name":"Kalletal","type":"Kreisangehörige_Gemeinde"},"district":{"key":"05766","name":"Lippe","type":"Kreis"},"federalState":{"key":"05","name":"Nordrhein-Westfalen"}},{"name":"Eichentwete","postalCode":"32689","locality":"Kalletal","municipality":{"key":"05766036","name":"Kalletal","type":"Kreisangehörige_Gemeinde"},"district":{"key":"05766","name":"Lippe","type":"Kreis"},"federalState":{"key":"05","name":"Nordrhein-Westfalen"}},{"name":"Eichenweg","postalCode":"32689","locality":"Kalletal","municipality":{"key":"05766036","name":"Kalletal","type":"Kreisangehörige_Gemeinde"},"district":{"key":"05766","name":"Lippe","type":"Kreis"},"federalState":{"key":"05","name":"Nordrhein-Westfalen"}},{"name":"Eichenweg","postalCode":"53925","locality":"Kall","municipality":{"key":"05366024","name":"Kall","type":"Kreisangehörige_Gemeinde"},"district":{"key":"05366","name":"Euskirchen","type":"Kreis"},"federalState":{"key":"05","name":"Nordrhein-Westfalen"}},{"name":"Eicher Str.","postalCode":"93183","locality":"Kallmünz","municipality":{"key":"09375156","name":"Kallmünz, M","type":"Markt"},"district":{"key":"09375","name":"Regensburg","type":"Landkreis"},"federalState":{"key":"09","name":"Bayern"}},{"name":"Eichhof","postalCode":"32689","locality":"Kalletal","municipality":{"key":"05766036","name":"Kalletal","type":"Kreisangehörige_Gemeinde"},"district":{"key":"05766","name":"Lippe","type":"Kreis"},"federalState":{"key":"05","name":"Nordrhein-Westfalen"}},{"name":"Eichholz","postalCode":"32689","locality":"Kalletal","municipality":{"key":"05766036","name":"Kalletal","type":"Kreisangehörige_Gemeinde"},"district":{"key":"05766","name":"Lippe","type":"Kreis"},"federalState":{"key":"05","name":"Nordrhein-Westfalen"}},{"name":"Eichkamp","postalCode":"32689","locality":"Kalletal","municipality":{"key":"05766036","name":"Kalletal","type":"Kreisangehörige_Gemeinde"},"district":{"key":"05766","name":"Lippe","type":"Kreis"},"federalState":{"key":"05","name":"Nordrhein-Westfalen"}},{"name":"Eifelsteig","postalCode":"53925","locality":"Kall","municipality":{"key":"05366024","name":"Kall","type":"Kreisangehörige_Gemeinde"},"district":{"key":"05366","name":"Euskirchen","type":"Kreis"},"federalState":{"key":"05","name":"Nordrhein-Westfalen"}},{"name":"Eifelstr.","postalCode":"53925","locality":"Kall","municipality":{"key":"05366024","name":"Kall","type":"Kreisangehörige_Gemeinde"},"district":{"key":"05366","name":"Euskirchen","type":"Kreis"},"federalState":{"key":"05","name":"Nordrhein-Westfalen"}},{"name":"Eisberger Weg","postalCode":"32689","locality":"Kalletal","municipality":{"key":"05766036","name":"Kalletal","type":"Kreisangehörige_Gemeinde"},"district":{"key":"05766","name":"Lippe","type":"Kreis"},"federalState":{"key":"05","name":"Nordrhein-Westfalen"}},{"name":"Eisenauerstr.","postalCode":"53925","locality":"Kall","municipality":{"key":"05366024","name":"Kall","type":"Kreisangehörige_Gemeinde"},"district":{"key":"05366","name":"Euskirchen","type":"Kreis"},"federalState":{"key":"05","name":"Nordrhein-Westfalen"}},{"name":"Elend","postalCode":"32689","locality":"Kalletal","municipality":{"key":"05766036","name":"Kalletal","type":"Kreisangehörige_Gemeinde"},"district":{"key":"05766","name":"Lippe","type":"Kreis"},"federalState":{"key":"05","name":"Nordrhein-Westfalen"}},{"name":"Elfenborn","postalCode":"32689","locality":"Kalletal","municipality":{"key":"05766036","name":"Kalletal","type":"Kreisangehörige_Gemeinde"},"district":{"key":"05766","name":"Lippe","type":"Kreis"},"federalState":{"key":"05","name":"Nordrhein-Westfalen"}},{"name":"Elsternweg","postalCode":"53925","locality":"Kall","municipality":{"key":"05366024","name":"Kall","type":"Kreisangehörige_Gemeinde"},"district":{"key":"05366","name":"Euskirchen","type":"Kreis"},"federalState":{"key":"05","name":"Nordrhein-Westfalen"}},{"name":"Emme","postalCode":"32689","locality":"Kalletal","municipality":{"key":"05766036","name":"Kalletal","type":"Kreisangehörige_Gemeinde"},"district":{"key":"05766","name":"Lippe","type":"Kreis"},"federalState":{"key":"05","name":"Nordrhein-Westfalen"}},{"name":"Engels Busch","postalCode":"32689","locality":"Kalletal","municipality":{"key":"05766036","name":"Kalletal","type":"Kreisangehörige_Gemeinde"},"district":{"key":"05766","name":"Lippe","type":"Kreis"},"federalState":{"key":"05","name":"Nordrhein-Westfalen"}},{"name":"Erbenweg","postalCode":"32689","locality":"Kalletal","municipality":{"key":"05766036","name":"Kalletal","type":"Kreisangehörige_Gemeinde"},"district":{"key":"05766","name":"Lippe","type":"Kreis"},"federalState":{"key":"05","name":"Nordrhein-Westfalen"}},{"name":"Erdersche Str.","postalCode":"32689","locality":"Kalletal","municipality":{"key":"05766036","name":"Kalletal","type":"Kreisangehörige_Gemeinde"},"district":{"key":"05766","name":"Lippe","type":"Kreis"},"federalState":{"key":"05","name":"Nordrhein-Westfalen"}},{"name":"Erlengrund","postalCode":"32689","locality":"Kalletal","municipality":{"key":"05766036","name":"Kalletal","type":"Kreisangehörige_Gemeinde"},"district":{"key":"05766","name":"Lippe","type":"Kreis"},"federalState":{"key":"05","name":"Nordrhein-Westfalen"}},{"name":"Erlenweg","postalCode":"53925","locality":"Kall","municipality":{"key":"05366024","name":"Kall","type":"Kreisangehörige_Gemeinde"},"district":{"key":"05366","name":"Euskirchen","type":"Kreis"},"federalState":{"key":"05","name":"Nordrhein-Westfalen"}},{"name":"Erpolzheimer Weg","postalCode":"67169","locality":"Kallstadt","municipality":{"key":"07332028","name":"Kallstadt","type":"Kreisangehörige_Gemeinde"},"district":{"key":"07332","name":"Bad Dürkheim","type":"Landkreis"},"federalState":{"key":"07","name":"Rheinland-Pfalz"}},{"name":"Eschenweg","postalCode":"32689","locality":"Kalletal","municipality":{"key":"05766036","name":"Kalletal","type":"Kreisangehörige_Gemeinde"},"district":{"key":"05766","name":"Lippe","type":"Kreis"},"federalState":{"key":"05","name":"Nordrhein-Westfalen"}},{"name":"Eschenweg","postalCode":"53925","locality":"Kall","municipality":{"key":"05366024","name":"Kall","type":"Kreisangehörige_Gemeinde"},"district":{"key":"05366","name":"Euskirchen","type":"Kreis"},"federalState":{"key":"05","name":"Nordrhein-Westfalen"}},{"name":"Falkenweg","postalCode":"32689","locality":"Kalletal","municipality":{"key":"05766036","name":"Kalletal","type":"Kreisangehörige_Gemeinde"},"district":{"key":"05766","name":"Lippe","type":"Kreis"},"federalState":{"key":"05","name":"Nordrhein-Westfalen"}},{"name":"Falkenweg","postalCode":"53925","locality":"Kall","municipality":{"key":"05366024","name":"Kall","type":"Kreisangehörige_Gemeinde"},"district":{"key":"05366","name":"Euskirchen","type":"Kreis"},"federalState":{"key":"05","name":"Nordrhein-Westfalen"}},{"name":"Farenbrede","postalCode":"32689","locality":"Kalletal","municipality":{"key":"05766036","name":"Kalletal","type":"Kreisangehörige_Gemeinde"},"district":{"key":"05766","name":"Lippe","type":"Kreis"},"federalState":{"key":"05","name":"Nordrhein-Westfalen"}},{"name":"Farmbker Weg","postalCode":"32689","locality":"Kalletal","municipality":{"key":"05766036","name":"Kalletal","type":"Kreisangehörige_Gemeinde"},"district":{"key":"05766","name":"Lippe","type":"Kreis"},"federalState":{"key":"05","name":"Nordrhein-Westfalen"}},{"name":"Fasanenweg","postalCode":"32689","locality":"Kalletal","municipality":{"key":"05766036","name":"Kalletal","type":"Kreisangehörige_Gemeinde"},"district":{"key":"05766","name":"Lippe","type":"Kreis"},"federalState":{"key":"05","name":"Nordrhein-Westfalen"}},{"name":"Fasanenweg","postalCode":"53925","locality":"Kall","municipality":{"key":"05366024","name":"Kall","type":"Kreisangehörige_Gemeinde"},"district":{"key":"05366","name":"Euskirchen","type":"Kreis"},"federalState":{"key":"05","name":"Nordrhein-Westfalen"}},{"name":"Fassensteg","postalCode":"32689","locality":"Kalletal","municipality":{"key":"05766036","name":"Kalletal","type":"Kreisangehörige_Gemeinde"},"district":{"key":"05766","name":"Lippe","type":"Kreis"},"federalState":{"key":"05","name":"Nordrhein-Westfalen"}},{"name":"Faulensiek","postalCode":"32689","locality":"Kalletal","municipality":{"key":"05766036","name":"Kalletal","type":"Kreisangehörige_Gemeinde"},"district":{"key":"05766","name":"Lippe","type":"Kreis"},"federalState":{"key":"05","name":"Nordrhein-Westfalen"}},{"name":"Feldstr.","postalCode":"32689","locality":"Kalletal","municipality":{"key":"05766036","name":"Kalletal","type":"Kreisangehörige_Gemeinde"},"district":{"key":"05766","name":"Lippe","type":"Kreis"},"federalState":{"key":"05","name":"Nordrhein-Westfalen"}},{"name":"Felsenkeller","postalCode":"32689","locality":"Kalletal","municipality":{"key":"05766036","name":"Kalletal","type":"Kreisangehörige_Gemeinde"},"district":{"key":"05766","name":"Lippe","type":"Kreis"},"federalState":{"key":"05","name":"Nordrhein-Westfalen"}},{"name":"Fensvogel","postalCode":"53925","locality":"Kall","municipality":{"key":"05366024","name":"Kall","type":"Kreisangehörige_Gemeinde"},"district":{"key":"05366","name":"Euskirchen","type":"Kreis"},"federalState":{"key":"05","name":"Nordrhein-Westfalen"}},{"name":"Fichtenweg","postalCode":"53925","locality":"Kall","municipality":{"key":"05366024","name":"Kall","type":"Kreisangehörige_Gemeinde"},"district":{"key":"05366","name":"Euskirchen","type":"Kreis"},"federalState":{"key":"05","name":"Nordrhein-Westfalen"}},{"name":"Finkenweg","postalCode":"53925","locality":"Kall","municipality":{"key":"05366024","name":"Kall","type":"Kreisangehörige_Gemeinde"},"district":{"key":"05366","name":"Euskirchen","type":"Kreis"},"federalState":{"key":"05","name":"Nordrhein-Westfalen"}},{"name":"Fischbach","postalCode":"93183","locality":"Kallmünz","municipality":{"key":"09375156","name":"Kallmünz, M","type":"Markt"},"district":{"key":"09375","name":"Regensburg","type":"Landkreis"},"federalState":{"key":"09","name":"Bayern"}},{"name":"Fliederweg","postalCode":"53925","locality":"Kall","municipality":{"key":"05366024","name":"Kall","type":"Kreisangehörige_Gemeinde"},"district":{"key":"05366","name":"Euskirchen","type":"Kreis"},"federalState":{"key":"05","name":"Nordrhein-Westfalen"}},{"name":"Fliegenstr.","postalCode":"32689","locality":"Kalletal","municipality":{"key":"05766036","name":"Kalletal","type":"Kreisangehörige_Gemeinde"},"district":{"key":"05766","name":"Lippe","type":"Kreis"},"federalState":{"key":"05","name":"Nordrhein-Westfalen"}},{"name":"Florastr.","postalCode":"53925","locality":"Kall","municipality":{"key":"05366024","name":"Kall","type":"Kreisangehörige_Gemeinde"},"district":{"key":"05366","name":"Euskirchen","type":"Kreis"},"federalState":{"key":"05","name":"Nordrhein-Westfalen"}},{"name":"Flurweg","postalCode":"32689","locality":"Kalletal","municipality":{"key":"05766036","name":"Kalletal","type":"Kreisangehörige_Gemeinde"},"district":{"key":"05766","name":"Lippe","type":"Kreis"},"federalState":{"key":"05","name":"Nordrhein-Westfalen"}},{"name":"Forstweg","postalCode":"53925","locality":"Kall","municipality":{"key":"05366024","name":"Kall","type":"Kreisangehörige_Gemeinde"},"district":{"key":"05366","name":"Euskirchen","type":"Kreis"},"federalState":{"key":"05","name":"Nordrhein-Westfalen"}},{"name":"Frankenstr.","postalCode":"53925","locality":"Kall","municipality":{"key":"05366024","name":"Kall","type":"Kreisangehörige_Gemeinde"},"district":{"key":"05366","name":"Euskirchen","type":"Kreis"},"federalState":{"key":"05","name":"Nordrhein-Westfalen"}},{"name":"Frauenbründlstr.","postalCode":"93183","locality":"Kallmünz","municipality":{"key":"09375156","name":"Kallmünz, M","type":"Markt"},"district":{"key":"09375","name":"Regensburg","type":"Landkreis"},"federalState":{"key":"09","name":"Bayern"}},{"name":"Frauenwiesen","postalCode":"93183","locality":"Kallmünz","municipality":{"key":"09375156","name":"Kallmünz, M","type":"Markt"},"district":{"key":"09375","name":"Regensburg","type":"Landkreis"},"federalState":{"key":"09","name":"Bayern"}},{"name":"Freinsheimer Str.","postalCode":"67169","locality":"Kallstadt","municipality":{"key":"07332028","name":"Kallstadt","type":"Kreisangehörige_Gemeinde"},"district":{"key":"07332","name":"Bad Dürkheim","type":"Landkreis"},"federalState":{"key":"07","name":"Rheinland-Pfalz"}},{"name":"Friedhofplatz","postalCode":"93183","locality":"Kallmünz","municipality":{"key":"09375156","name":"Kallmünz, M","type":"Markt"},"district":{"key":"09375","name":"Regensburg","type":"Landkreis"},"federalState":{"key":"09","name":"Bayern"}},{"name":"Friedhofsweg","postalCode":"32689","locality":"Kalletal","municipality":{"key":"05766036","name":"Kalletal","type":"Kreisangehörige_Gemeinde"},"district":{"key":"05766","name":"Lippe","type":"Kreis"},"federalState":{"key":"05","name":"Nordrhein-Westfalen"}},{"name":"Friedhofsweg","postalCode":"53925","locality":"Kall","municipality":{"key":"05366024","name":"Kall","type":"Kreisangehörige_Gemeinde"},"district":{"key":"05366","name":"Euskirchen","type":"Kreis"},"federalState":{"key":"05","name":"Nordrhein-Westfalen"}},{"name":"Friedrichstr.","postalCode":"32689","locality":"Kalletal","municipality":{"key":"05766036","name":"Kalletal","type":"Kreisangehörige_Gemeinde"},"district":{"key":"05766","name":"Lippe","type":"Kreis"},"federalState":{"key":"05","name":"Nordrhein-Westfalen"}},{"name":"Frohnrather Weg","postalCode":"53925","locality":"Kall","municipality":{"key":"05366024","name":"Kall","type":"Kreisangehörige_Gemeinde"},"district":{"key":"05366","name":"Euskirchen","type":"Kreis"},"federalState":{"key":"05","name":"Nordrhein-Westfalen"}},{"name":"Fuhrweg","postalCode":"53925","locality":"Kall","municipality":{"key":"05366024","name":"Kall","type":"Kreisangehörige_Gemeinde"},"district":{"key":"05366","name":"Euskirchen","type":"Kreis"},"federalState":{"key":"05","name":"Nordrhein-Westfalen"}},{"name":"Fürstenweg","postalCode":"32689","locality":"Kalletal","municipality":{"key":"05766036","name":"Kalletal","type":"Kreisangehörige_Gemeinde"},"district":{"key":"05766","name":"Lippe","type":"Kreis"},"federalState":{"key":"05","name":"Nordrhein-Westfalen"}},{"name":"Furtstr.","postalCode":"53925","locality":"Kall","municipality":{"key":"05366024","name":"Kall","type":"Kreisangehörige_Gemeinde"},"district":{"key":"05366","name":"Euskirchen","type":"Kreis"},"federalState":{"key":"05","name":"Nordrhein-Westfalen"}},{"name":"Gabriele-Münter-Str.","postalCode":"93183","locality":"Kallmünz","municipality":{"key":"09375156","name":"Kallmünz, M","type":"Markt"},"district":{"key":"09375","name":"Regensburg","type":"Landkreis"},"federalState":{"key":"09","name":"Bayern"}},{"name":"Gartenstr.","postalCode":"32689","locality":"Kalletal","municipality":{"key":"05766036","name":"Kalletal","type":"Kreisangehörige_Gemeinde"},"district":{"key":"05766","name":"Lippe","type":"Kreis"},"federalState":{"key":"05","name":"Nordrhein-Westfalen"}},{"name":"Gartenstr.","postalCode":"53925","locality":"Kall","municipality":{"key":"05366024","name":"Kall","type":"Kreisangehörige_Gemeinde"},"district":{"key":"05366","name":"Euskirchen","type":"Kreis"},"federalState":{"key":"05","name":"Nordrhein-Westfalen"}},{"name":"Gemünder Str.","postalCode":"53925","locality":"Kall","municipality":{"key":"05366024","name":"Kall","type":"Kreisangehörige_Gemeinde"},"district":{"key":"05366","name":"Euskirchen","type":"Kreis"},"federalState":{"key":"05","name":"Nordrhein-Westfalen"}},{"name":"Georg-Hammerl-Str.","postalCode":"93183","locality":"Kallmünz","municipality":{"key":"09375156","name":"Kallmünz, M","type":"Markt"},"district":{"key":"09375","name":"Regensburg","type":"Landkreis"},"federalState":{"key":"09","name":"Bayern"}},{"name":"Geranienweg","postalCode":"53925","locality":"Kall","municipality":{"key":"05366024","name":"Kall","type":"Kreisangehörige_Gemeinde"},"district":{"key":"05366","name":"Euskirchen","type":"Kreis"},"federalState":{"key":"05","name":"Nordrhein-Westfalen"}},{"name":"Gerkensrode","postalCode":"32689","locality":"Kalletal","municipality":{"key":"05766036","name":"Kalletal","type":"Kreisangehörige_Gemeinde"},"district":{"key":"05766","name":"Lippe","type":"Kreis"},"federalState":{"key":"05","name":"Nordrhein-Westfalen"}},{"name":"Gessendorfer Str.","postalCode":"93183","locality":"Kallmünz","municipality":{"key":"09375156","name":"Kallmünz, M","type":"Markt"},"district":{"key":"09375","name":"Regensburg","type":"Landkreis"},"federalState":{"key":"09","name":"Bayern"}},{"name":"Gewerbegebiet Echternhagen","postalCode":"32689","locality":"Kalletal","municipality":{"key":"05766036","name":"Kalletal","type":"Kreisangehörige_Gemeinde"},"district":{"key":"05766","name":"Lippe","type":"Kreis"},"federalState":{"key":"05","name":"Nordrhein-Westfalen"}},{"name":"Giertzenbergstr.","postalCode":"53925","locality":"Kall","municipality":{"key":"05366024","name":"Kall","type":"Kreisangehörige_Gemeinde"},"district":{"key":"05366","name":"Euskirchen","type":"Kreis"},"federalState":{"key":"05","name":"Nordrhein-Westfalen"}},{"name":"Ginsterweg","postalCode":"53925","locality":"Kall","municipality":{"key":"05366024","name":"Kall","type":"Kreisangehörige_Gemeinde"},"district":{"key":"05366","name":"Euskirchen","type":"Kreis"},"federalState":{"key":"05","name":"Nordrhein-Westfalen"}},{"name":"Golbacher Weg","postalCode":"53925","locality":"Kall","municipality":{"key":"05366024","name":"Kall","type":"Kreisangehörige_Gemeinde"},"district":{"key":"05366","name":"Euskirchen","type":"Kreis"},"federalState":{"key":"05","name":"Nordrhein-Westfalen"}},{"name":"Goldkuhl","postalCode":"53925","locality":"Kall","municipality":{"key":"05366024","name":"Kall","type":"Kreisangehörige_Gemeinde"},"district":{"key":"05366","name":"Euskirchen","type":"Kreis"},"federalState":{"key":"05","name":"Nordrhein-Westfalen"}},{"name":"Grauer Busch","postalCode":"32689","locality":"Kalletal","municipality":{"key":"05766036","name":"Kalletal","type":"Kreisangehörige_Gemeinde"},"district":{"key":"05766","name":"Lippe","type":"Kreis"},"federalState":{"key":"05","name":"Nordrhein-Westfalen"}},{"name":"Grubenstr.","postalCode":"53925","locality":"Kall","municipality":{"key":"05366024","name":"Kall","type":"Kreisangehörige_Gemeinde"},"district":{"key":"05366","name":"Euskirchen","type":"Kreis"},"federalState":{"key":"05","name":"Nordrhein-Westfalen"}},{"name":"Grüner Weg","postalCode":"53925","locality":"Kall","municipality":{"key":"05366024","name":"Kall","type":"Kreisangehörige_Gemeinde"},"district":{"key":"05366","name":"Euskirchen","type":"Kreis"},"federalState":{"key":"05","name":"Nordrhein-Westfalen"}},{"name":"Grünweg","postalCode":"32689","locality":"Kalletal","municipality":{"key":"05766036","name":"Kalletal","type":"Kreisangehörige_Gemeinde"},"district":{"key":"05766","name":"Lippe","type":"Kreis"},"federalState":{"key":"05","name":"Nordrhein-Westfalen"}},{"name":"Habichtsberger Str.","postalCode":"32689","locality":"Kalletal","municipality":{"key":"05766036","name":"Kalletal","type":"Kreisangehörige_Gemeinde"},"district":{"key":"05766","name":"Lippe","type":"Kreis"},"federalState":{"key":"05","name":"Nordrhein-Westfalen"}},{"name":"Hacksiek","postalCode":"32689","locality":"Kalletal","municipality":{"key":"05766036","name":"Kalletal","type":"Kreisangehörige_Gemeinde"},"district":{"key":"05766","name":"Lippe","type":"Kreis"},"federalState":{"key":"05","name":"Nordrhein-Westfalen"}},{"name":"Hackweg","postalCode":"32689","locality":"Kalletal","municipality":{"key":"05766036","name":"Kalletal","type":"Kreisangehörige_Gemeinde"},"district":{"key":"05766","name":"Lippe","type":"Kreis"},"federalState":{"key":"05","name":"Nordrhein-Westfalen"}},{"name":"Hagebuttenweg","postalCode":"53925","locality":"Kall","municipality":{"key":"05366024","name":"Kall","type":"Kreisangehörige_Gemeinde"},"district":{"key":"05366","name":"Euskirchen","type":"Kreis"},"federalState":{"key":"05","name":"Nordrhein-Westfalen"}},{"name":"Hagelsheck","postalCode":"53925","locality":"Kall","municipality":{"key":"05366024","name":"Kall","type":"Kreisangehörige_Gemeinde"},"district":{"key":"05366","name":"Euskirchen","type":"Kreis"},"federalState":{"key":"05","name":"Nordrhein-Westfalen"}},{"name":"Hallenthaler Str.","postalCode":"53925","locality":"Kall","municipality":{"key":"05366024","name":"Kall","type":"Kreisangehörige_Gemeinde"},"district":{"key":"05366","name":"Euskirchen","type":"Kreis"},"federalState":{"key":"05","name":"Nordrhein-Westfalen"}},{"name":"Hambruch","postalCode":"32689","locality":"Kalletal","municipality":{"key":"05766036","name":"Kalletal","type":"Kreisangehörige_Gemeinde"},"district":{"key":"05766","name":"Lippe","type":"Kreis"},"federalState":{"key":"05","name":"Nordrhein-Westfalen"}},{"name":"Handwerkerstr.","postalCode":"32689","locality":"Kalletal","municipality":{"key":"05766036","name":"Kalletal","type":"Kreisangehörige_Gemeinde"},"district":{"key":"05766","name":"Lippe","type":"Kreis"},"federalState":{"key":"05","name":"Nordrhein-Westfalen"}},{"name":"Harkemisser Str.","postalCode":"32689","locality":"Kalletal","municipality":{"key":"05766036","name":"Kalletal","type":"Kreisangehörige_Gemeinde"},"district":{"key":"05766","name":"Lippe","type":"Kreis"},"federalState":{"key":"05","name":"Nordrhein-Westfalen"}},{"name":"Hasenbrede","postalCode":"32689","locality":"Kalletal","municipality":{"key":"05766036","name":"Kalletal","type":"Kreisangehörige_Gemeinde"},"district":{"key":"05766","name":"Lippe","type":"Kreis"},"federalState":{"key":"05","name":"Nordrhein-Westfalen"}},{"name":"Hasselloch","postalCode":"32689","locality":"Kalletal","municipality":{"key":"05766036","name":"Kalletal","type":"Kreisangehörige_Gemeinde"},"district":{"key":"05766","name":"Lippe","type":"Kreis"},"federalState":{"key":"05","name":"Nordrhein-Westfalen"}},{"name":"Hasselweg","postalCode":"53925","locality":"Kall","municipality":{"key":"05366024","name":"Kall","type":"Kreisangehörige_Gemeinde"},"district":{"key":"05366","name":"Euskirchen","type":"Kreis"},"federalState":{"key":"05","name":"Nordrhein-Westfalen"}},{"name":"Haueweg","postalCode":"32689","locality":"Kalletal","municipality":{"key":"05766036","name":"Kalletal","type":"Kreisangehörige_Gemeinde"},"district":{"key":"05766","name":"Lippe","type":"Kreis"},"federalState":{"key":"05","name":"Nordrhein-Westfalen"}},{"name":"Hauptstr.","postalCode":"32689","locality":"Kalletal","municipality":{"key":"05766036","name":"Kalletal","type":"Kreisangehörige_Gemeinde"},"district":{"key":"05766","name":"Lippe","type":"Kreis"},"federalState":{"key":"05","name":"Nordrhein-Westfalen"}},{"name":"Hauptstr.","postalCode":"67169","locality":"Kallstadt","municipality":{"key":"07332028","name":"Kallstadt","type":"Kreisangehörige_Gemeinde"},"district":{"key":"07332","name":"Bad Dürkheim","type":"Landkreis"},"federalState":{"key":"07","name":"Rheinland-Pfalz"}},{"name":"Hauptweg","postalCode":"32689","locality":"Kalletal","municipality":{"key":"05766036","name":"Kalletal","type":"Kreisangehörige_Gemeinde"},"district":{"key":"05766","name":"Lippe","type":"Kreis"},"federalState":{"key":"05","name":"Nordrhein-Westfalen"}},{"name":"Hausacker","postalCode":"53925","locality":"Kall","municipality":{"key":"05366024","name":"Kall","type":"Kreisangehörige_Gemeinde"},"district":{"key":"05366","name":"Euskirchen","type":"Kreis"},"federalState":{"key":"05","name":"Nordrhein-Westfalen"}},{"name":"Haus Hermanns","postalCode":"53925","locality":"Kall","municipality":{"key":"05366024","name":"Kall","type":"Kreisangehörige_Gemeinde"},"district":{"key":"05366","name":"Euskirchen","type":"Kreis"},"federalState":{"key":"05","name":"Nordrhein-Westfalen"}},{"name":"Hebengasse","postalCode":"67169","locality":"Kallstadt","municipality":{"key":"07332028","name":"Kallstadt","type":"Kreisangehörige_Gemeinde"},"district":{"key":"07332","name":"Bad Dürkheim","type":"Landkreis"},"federalState":{"key":"07","name":"Rheinland-Pfalz"}},{"name":"Heckenweg","postalCode":"32689","locality":"Kalletal","municipality":{"key":"05766036","name":"Kalletal","type":"Kreisangehörige_Gemeinde"},"district":{"key":"05766","name":"Lippe","type":"Kreis"},"federalState":{"key":"05","name":"Nordrhein-Westfalen"}},{"name":"Heidelbecker Str.","postalCode":"32689","locality":"Kalletal","municipality":{"key":"05766036","name":"Kalletal","type":"Kreisangehörige_Gemeinde"},"district":{"key":"05766","name":"Lippe","type":"Kreis"},"federalState":{"key":"05","name":"Nordrhein-Westfalen"}},{"name":"Heidestr.","postalCode":"53925","locality":"Kall","municipality":{"key":"05366024","name":"Kall","type":"Kreisangehörige_Gemeinde"},"district":{"key":"05366","name":"Euskirchen","type":"Kreis"},"federalState":{"key":"05","name":"Nordrhein-Westfalen"}},{"name":"Heideweg","postalCode":"32689","locality":"Kalletal","municipality":{"key":"05766036","name":"Kalletal","type":"Kreisangehörige_Gemeinde"},"district":{"key":"05766","name":"Lippe","type":"Kreis"},"federalState":{"key":"05","name":"Nordrhein-Westfalen"}},{"name":"Heinenpesch","postalCode":"53925","locality":"Kall","municipality":{"key":"05366024","name":"Kall","type":"Kreisangehörige_Gemeinde"},"district":{"key":"05366","name":"Euskirchen","type":"Kreis"},"federalState":{"key":"05","name":"Nordrhein-Westfalen"}},{"name":"Heinkelstr.","postalCode":"53925","locality":"Kall","municipality":{"key":"05366024","name":"Kall","type":"Kreisangehörige_Gemeinde"},"district":{"key":"05366","name":"Euskirchen","type":"Kreis"},"federalState":{"key":"05","name":"Nordrhein-Westfalen"}},{"name":"Heisterter Str.","postalCode":"53925","locality":"Kall","municipality":{"key":"05366024","name":"Kall","type":"Kreisangehörige_Gemeinde"},"district":{"key":"05366","name":"Euskirchen","type":"Kreis"},"federalState":{"key":"05","name":"Nordrhein-Westfalen"}},{"name":"Heitzenhofener Weg","postalCode":"93183","locality":"Kallmünz","municipality":{"key":"09375156","name":"Kallmünz, M","type":"Markt"},"district":{"key":"09375","name":"Regensburg","type":"Landkreis"},"federalState":{"key":"09","name":"Bayern"}},{"name":"Hellenberg","postalCode":"53925","locality":"Kall","municipality":{"key":"05366024","name":"Kall","type":"Kreisangehörige_Gemeinde"},"district":{"key":"05366","name":"Euskirchen","type":"Kreis"},"federalState":{"key":"05","name":"Nordrhein-Westfalen"}},{"name":"Hellinghausen","postalCode":"32689","locality":"Kalletal","municipality":{"key":"05766036","name":"Kalletal","type":"Kreisangehörige_Gemeinde"},"district":{"key":"05766","name":"Lippe","type":"Kreis"},"federalState":{"key":"05","name":"Nordrhein-Westfalen"}},{"name":"Hellweg","postalCode":"32689","locality":"Kalletal","municipality":{"key":"05766036","name":"Kalletal","type":"Kreisangehörige_Gemeinde"},"district":{"key":"05766","name":"Lippe","type":"Kreis"},"federalState":{"key":"05","name":"Nordrhein-Westfalen"}},{"name":"Helmshof","postalCode":"32689","locality":"Kalletal","municipality":{"key":"05766036","name":"Kalletal","type":"Kreisangehörige_Gemeinde"},"district":{"key":"05766","name":"Lippe","type":"Kreis"},"federalState":{"key":"05","name":"Nordrhein-Westfalen"}},{"name":"Hemmensieker Weg","postalCode":"32689","locality":"Kalletal","municipality":{"key":"05766036","name":"Kalletal","type":"Kreisangehörige_Gemeinde"},"district":{"key":"05766","name":"Lippe","type":"Kreis"},"federalState":{"key":"05","name":"Nordrhein-Westfalen"}},{"name":"Hennak-Hanke-Weg","postalCode":"32689","locality":"Kalletal","municipality":{"key":"05766036","name":"Kalletal","type":"Kreisangehörige_Gemeinde"},"district":{"key":"05766","name":"Lippe","type":"Kreis"},"federalState":{"key":"05","name":"Nordrhein-Westfalen"}},{"name":"Henstorfer Str.","postalCode":"32689","locality":"Kalletal","municipality":{"key":"05766036","name":"Kalletal","type":"Kreisangehörige_Gemeinde"},"district":{"key":"05766","name":"Lippe","type":"Kreis"},"federalState":{"key":"05","name":"Nordrhein-Westfalen"}},{"name":"Herbrechtsdorfer Str.","postalCode":"32689","locality":"Kalletal","municipality":{"key":"05766036","name":"Kalletal","type":"Kreisangehörige_Gemeinde"},"district":{"key":"05766","name":"Lippe","type":"Kreis"},"federalState":{"key":"05","name":"Nordrhein-Westfalen"}},{"name":"Herbstweg","postalCode":"32689","locality":"Kalletal","municipality":{"key":"05766036","name":"Kalletal","type":"Kreisangehörige_Gemeinde"},"district":{"key":"05766","name":"Lippe","type":"Kreis"},"federalState":{"key":"05","name":"Nordrhein-Westfalen"}},{"name":"Herforder Str.","postalCode":"32689","locality":"Kalletal","municipality":{"key":"05766036","name":"Kalletal","type":"Kreisangehörige_Gemeinde"},"district":{"key":"05766","name":"Lippe","type":"Kreis"},"federalState":{"key":"05","name":"Nordrhein-Westfalen"}},{"name":"Hermann-Josef-Str.","postalCode":"53925","locality":"Kall","municipality":{"key":"05366024","name":"Kall","type":"Kreisangehörige_Gemeinde"},"district":{"key":"05366","name":"Euskirchen","type":"Kreis"},"federalState":{"key":"05","name":"Nordrhein-Westfalen"}},{"name":"Hillentruper Str.","postalCode":"32689","locality":"Kalletal","municipality":{"key":"05766036","name":"Kalletal","type":"Kreisangehörige_Gemeinde"},"district":{"key":"05766","name":"Lippe","type":"Kreis"},"federalState":{"key":"05","name":"Nordrhein-Westfalen"}},{"name":"Himmelsleiter","postalCode":"32689","locality":"Kalletal","municipality":{"key":"05766036","name":"Kalletal","type":"Kreisangehörige_Gemeinde"},"district":{"key":"05766","name":"Lippe","type":"Kreis"},"federalState":{"key":"05","name":"Nordrhein-Westfalen"}},{"name":"Hindenburgstr.","postalCode":"53925","locality":"Kall","municipality":{"key":"05366024","name":"Kall","type":"Kreisangehörige_Gemeinde"},"district":{"key":"05366","name":"Euskirchen","type":"Kreis"},"federalState":{"key":"05","name":"Nordrhein-Westfalen"}},{"name":"Hinter den Höfen","postalCode":"32689","locality":"Kalletal","municipality":{"key":"05766036","name":"Kalletal","type":"Kreisangehörige_Gemeinde"},"district":{"key":"05766","name":"Lippe","type":"Kreis"},"federalState":{"key":"05","name":"Nordrhein-Westfalen"}},{"name":"Hinter den Linden","postalCode":"32689","locality":"Kalletal","municipality":{"key":"05766036","name":"Kalletal","type":"Kreisangehörige_Gemeinde"},"district":{"key":"05766","name":"Lippe","type":"Kreis"},"federalState":{"key":"05","name":"Nordrhein-Westfalen"}},{"name":"Hinter der Hag","postalCode":"53925","locality":"Kall","municipality":{"key":"05366024","name":"Kall","type":"Kreisangehörige_Gemeinde"},"district":{"key":"05366","name":"Euskirchen","type":"Kreis"},"federalState":{"key":"05","name":"Nordrhein-Westfalen"}},{"name":"Hinterm Gericht","postalCode":"93183","locality":"Kallmünz","municipality":{"key":"09375156","name":"Kallmünz, M","type":"Markt"},"district":{"key":"09375","name":"Regensburg","type":"Landkreis"},"federalState":{"key":"09","name":"Bayern"}},{"name":"Hirtweg","postalCode":"93183","locality":"Kallmünz","municipality":{"key":"09375156","name":"Kallmünz, M","type":"Markt"},"district":{"key":"09375","name":"Regensburg","type":"Landkreis"},"federalState":{"key":"09","name":"Bayern"}},{"name":"Hochweg","postalCode":"32689","locality":"Kalletal","municipality":{"key":"05766036","name":"Kalletal","type":"Kreisangehörige_Gemeinde"},"district":{"key":"05766","name":"Lippe","type":"Kreis"},"federalState":{"key":"05","name":"Nordrhein-Westfalen"}},{"name":"Hohenfelser Str.","postalCode":"93183","locality":"Kallmünz","municipality":{"key":"09375156","name":"Kallmünz, M","type":"Markt"},"district":{"key":"09375","name":"Regensburg","type":"Landkreis"},"federalState":{"key":"09","name":"Bayern"}},{"name":"Hohenhauser Str.","postalCode":"32689","locality":"Kalletal","municipality":{"key":"05766036","name":"Kalletal","type":"Kreisangehörige_Gemeinde"},"district":{"key":"05766","name":"Lippe","type":"Kreis"},"federalState":{"key":"05","name":"Nordrhein-Westfalen"}},{"name":"Höhenweg","postalCode":"53925","locality":"Kall","municipality":{"key":"05366024","name":"Kall","type":"Kreisangehörige_Gemeinde"},"district":{"key":"05366","name":"Euskirchen","type":"Kreis"},"federalState":{"key":"05","name":"Nordrhein-Westfalen"}},{"name":"Ihmser Str.","postalCode":"32689","locality":"Kalletal","municipality":{"key":"05766036","name":"Kalletal","type":"Kreisangehörige_Gemeinde"},"district":{"key":"05766","name":"Lippe","type":"Kreis"},"federalState":{"key":"05","name":"Nordrhein-Westfalen"}},{"name":"Ihmser Torweg","postalCode":"32689","locality":"Kalletal","municipality":{"key":"05766036","name":"Kalletal","type":"Kreisangehörige_Gemeinde"},"district":{"key":"05766","name":"Lippe","type":"Kreis"},"federalState":{"key":"05","name":"Nordrhein-Westfalen"}},{"name":"Ilsetal","postalCode":"32689","locality":"Kalletal","municipality":{"key":"05766036","name":"Kalletal","type":"Kreisangehörige_Gemeinde"},"district":{"key":"05766","name":"Lippe","type":"Kreis"},"federalState":{"key":"05","name":"Nordrhein-Westfalen"}},{"name":"Im Acker","postalCode":"53925","locality":"Kall","municipality":{"key":"05366024","name":"Kall","type":"Kreisangehörige_Gemeinde"},"district":{"key":"05366","name":"Euskirchen","type":"Kreis"},"federalState":{"key":"05","name":"Nordrhein-Westfalen"}},{"name":"Im Aufloch","postalCode":"93183","locality":"Kallmünz","municipality":{"key":"09375156","name":"Kallmünz, M","type":"Markt"},"district":{"key":"09375","name":"Regensburg","type":"Landkreis"},"federalState":{"key":"09","name":"Bayern"}},{"name":"Im Birkengrund","postalCode":"32689","locality":"Kalletal","municipality":{"key":"05766036","name":"Kalletal","type":"Kreisangehörige_Gemeinde"},"district":{"key":"05766","name":"Lippe","type":"Kreis"},"federalState":{"key":"05","name":"Nordrhein-Westfalen"}},{"name":"Im Dahl","postalCode":"53925","locality":"Kall","municipality":{"key":"05366024","name":"Kall","type":"Kreisangehörige_Gemeinde"},"district":{"key":"05366","name":"Euskirchen","type":"Kreis"},"federalState":{"key":"05","name":"Nordrhein-Westfalen"}},{"name":"Im Dalle","postalCode":"32689","locality":"Kalletal","municipality":{"key":"05766036","name":"Kalletal","type":"Kreisangehörige_Gemeinde"},"district":{"key":"05766","name":"Lippe","type":"Kreis"},"federalState":{"key":"05","name":"Nordrhein-Westfalen"}},{"name":"Im Farrenberge","postalCode":"32689","locality":"Kalletal","municipality":{"key":"05766036","name":"Kalletal","type":"Kreisangehörige_Gemeinde"},"district":{"key":"05766","name":"Lippe","type":"Kreis"},"federalState":{"key":"05","name":"Nordrhein-Westfalen"}},{"name":"Im Fleschengarten","postalCode":"53925","locality":"Kall","municipality":{"key":"05366024","name":"Kall","type":"Kreisangehörige_Gemeinde"},"district":{"key":"05366","name":"Euskirchen","type":"Kreis"},"federalState":{"key":"05","name":"Nordrhein-Westfalen"}},{"name":"Im Haag","postalCode":"53925","locality":"Kall","municipality":{"key":"05366024","name":"Kall","type":"Kreisangehörige_Gemeinde"},"district":{"key":"05366","name":"Euskirchen","type":"Kreis"},"federalState":{"key":"05","name":"Nordrhein-Westfalen"}},{"name":"Im Klee","postalCode":"32689","locality":"Kalletal","municipality":{"key":"05766036","name":"Kalletal","type":"Kreisangehörige_Gemeinde"},"district":{"key":"05766","name":"Lippe","type":"Kreis"},"federalState":{"key":"05","name":"Nordrhein-Westfalen"}},{"name":"Im Kreuzgarten","postalCode":"53925","locality":"Kall","municipality":{"key":"05366024","name":"Kall","type":"Kreisangehörige_Gemeinde"},"district":{"key":"05366","name":"Euskirchen","type":"Kreis"},"federalState":{"key":"05","name":"Nordrhein-Westfalen"}},{"name":"Im Kuhlenkamp","postalCode":"32689","locality":"Kalletal","municipality":{"key":"05766036","name":"Kalletal","type":"Kreisangehörige_Gemeinde"},"district":{"key":"05766","name":"Lippe","type":"Kreis"},"federalState":{"key":"05","name":"Nordrhein-Westfalen"}},{"name":"Im Mosenborn","postalCode":"67169","locality":"Kallstadt","municipality":{"key":"07332028","name":"Kallstadt","type":"Kreisangehörige_Gemeinde"},"district":{"key":"07332","name":"Bad Dürkheim","type":"Landkreis"},"federalState":{"key":"07","name":"Rheinland-Pfalz"}},{"name":"Im Neuen Land","postalCode":"32689","locality":"Kalletal","municipality":{"key":"05766036","name":"Kalletal","type":"Kreisangehörige_Gemeinde"},"district":{"key":"05766","name":"Lippe","type":"Kreis"},"federalState":{"key":"05","name":"Nordrhein-Westfalen"}},{"name":"Im Obernfelde","postalCode":"32689","locality":"Kalletal","municipality":{"key":"05766036","name":"Kalletal","type":"Kreisangehörige_Gemeinde"},"district":{"key":"05766","name":"Lippe","type":"Kreis"},"federalState":{"key":"05","name":"Nordrhein-Westfalen"}},{"name":"Im Roten Lith","postalCode":"32689","locality":"Kalletal","municipality":{"key":"05766036","name":"Kalletal","type":"Kreisangehörige_Gemeinde"},"district":{"key":"05766","name":"Lippe","type":"Kreis"},"federalState":{"key":"05","name":"Nordrhein-Westfalen"}},{"name":"Im Siefen","postalCode":"53925","locality":"Kall","municipality":{"key":"05366024","name":"Kall","type":"Kreisangehörige_Gemeinde"},"district":{"key":"05366","name":"Euskirchen","type":"Kreis"},"federalState":{"key":"05","name":"Nordrhein-Westfalen"}},{"name":"Im Sträßchen","postalCode":"53925","locality":"Kall","municipality":{"key":"05366024","name":"Kall","type":"Kreisangehörige_Gemeinde"},"district":{"key":"05366","name":"Euskirchen","type":"Kreis"},"federalState":{"key":"05","name":"Nordrhein-Westfalen"}},{"name":"Im Stüh","postalCode":"32689","locality":"Kalletal","municipality":{"key":"05766036","name":"Kalletal","type":"Kreisangehörige_Gemeinde"},"district":{"key":"05766","name":"Lippe","type":"Kreis"},"federalState":{"key":"05","name":"Nordrhein-Westfalen"}},{"name":"Im Tal","postalCode":"32689","locality":"Kalletal","municipality":{"key":"05766036","name":"Kalletal","type":"Kreisangehörige_Gemeinde"},"district":{"key":"05766","name":"Lippe","type":"Kreis"},"federalState":{"key":"05","name":"Nordrhein-Westfalen"}},{"name":"Im Tuttenborn","postalCode":"32689","locality":"Kalletal","municipality":{"key":"05766036","name":"Kalletal","type":"Kreisangehörige_Gemeinde"},"district":{"key":"05766","name":"Lippe","type":"Kreis"},"federalState":{"key":"05","name":"Nordrhein-Westfalen"}},{"name":"Im Venn","postalCode":"53925","locality":"Kall","municipality":{"key":"05366024","name":"Kall","type":"Kreisangehörige_Gemeinde"},"district":{"key":"05366","name":"Euskirchen","type":"Kreis"},"federalState":{"key":"05","name":"Nordrhein-Westfalen"}},{"name":"Im Vogtpesch","postalCode":"53925","locality":"Kall","municipality":{"key":"05366024","name":"Kall","type":"Kreisangehörige_Gemeinde"},"district":{"key":"05366","name":"Euskirchen","type":"Kreis"},"federalState":{"key":"05","name":"Nordrhein-Westfalen"}},{"name":"Im Wiesengrund","postalCode":"53925","locality":"Kall","municipality":{"key":"05366024","name":"Kall","type":"Kreisangehörige_Gemeinde"},"district":{"key":"05366","name":"Euskirchen","type":"Kreis"},"federalState":{"key":"05","name":"Nordrhein-Westfalen"}},{"name":"Im Winkel","postalCode":"53925","locality":"Kall","municipality":{"key":"05366024","name":"Kall","type":"Kreisangehörige_Gemeinde"},"district":{"key":"05366","name":"Euskirchen","type":"Kreis"},"federalState":{"key":"05","name":"Nordrhein-Westfalen"}},{"name":"In den Eichen","postalCode":"32689","locality":"Kalletal","municipality":{"key":"05766036","name":"Kalletal","type":"Kreisangehörige_Gemeinde"},"district":{"key":"05766","name":"Lippe","type":"Kreis"},"federalState":{"key":"05","name":"Nordrhein-Westfalen"}},{"name":"In den Ellern","postalCode":"32689","locality":"Kalletal","municipality":{"key":"05766036","name":"Kalletal","type":"Kreisangehörige_Gemeinde"},"district":{"key":"05766","name":"Lippe","type":"Kreis"},"federalState":{"key":"05","name":"Nordrhein-Westfalen"}},{"name":"In den Peschen","postalCode":"53925","locality":"Kall","municipality":{"key":"05366024","name":"Kall","type":"Kreisangehörige_Gemeinde"},"district":{"key":"05366","name":"Euskirchen","type":"Kreis"},"federalState":{"key":"05","name":"Nordrhein-Westfalen"}},{"name":"In den Stöcken","postalCode":"53925","locality":"Kall","municipality":{"key":"05366024","name":"Kall","type":"Kreisangehörige_Gemeinde"},"district":{"key":"05366","name":"Euskirchen","type":"Kreis"},"federalState":{"key":"05","name":"Nordrhein-Westfalen"}},{"name":"In der Bollern","postalCode":"32689","locality":"Kalletal","municipality":{"key":"05766036","name":"Kalletal","type":"Kreisangehörige_Gemeinde"},"district":{"key":"05766","name":"Lippe","type":"Kreis"},"federalState":{"key":"05","name":"Nordrhein-Westfalen"}},{"name":"In der Driffel","postalCode":"32689","locality":"Kalletal","municipality":{"key":"05766036","name":"Kalletal","type":"Kreisangehörige_Gemeinde"},"district":{"key":"05766","name":"Lippe","type":"Kreis"},"federalState":{"key":"05","name":"Nordrhein-Westfalen"}},{"name":"In der Ecke","postalCode":"32689","locality":"Kalletal","municipality":{"key":"05766036","name":"Kalletal","type":"Kreisangehörige_Gemeinde"},"district":{"key":"05766","name":"Lippe","type":"Kreis"},"federalState":{"key":"05","name":"Nordrhein-Westfalen"}},{"name":"In der Fließ","postalCode":"53925","locality":"Kall","municipality":{"key":"05366024","name":"Kall","type":"Kreisangehörige_Gemeinde"},"district":{"key":"05366","name":"Euskirchen","type":"Kreis"},"federalState":{"key":"05","name":"Nordrhein-Westfalen"}},{"name":"In der Grund","postalCode":"32689","locality":"Kalletal","municipality":{"key":"05766036","name":"Kalletal","type":"Kreisangehörige_Gemeinde"},"district":{"key":"05766","name":"Lippe","type":"Kreis"},"federalState":{"key":"05","name":"Nordrhein-Westfalen"}},{"name":"In der Laach","postalCode":"53925","locality":"Kall","municipality":{"key":"05366024","name":"Kall","type":"Kreisangehörige_Gemeinde"},"district":{"key":"05366","name":"Euskirchen","type":"Kreis"},"federalState":{"key":"05","name":"Nordrhein-Westfalen"}},{"name":"In der Sürsch","postalCode":"53925","locality":"Kall","municipality":{"key":"05366024","name":"Kall","type":"Kreisangehörige_Gemeinde"},"district":{"key":"05366","name":"Euskirchen","type":"Kreis"},"federalState":{"key":"05","name":"Nordrhein-Westfalen"}},{"name":"In der Welle","postalCode":"32689","locality":"Kalletal","municipality":{"key":"05766036","name":"Kalletal","type":"Kreisangehörige_Gemeinde"},"district":{"key":"05766","name":"Lippe","type":"Kreis"},"federalState":{"key":"05","name":"Nordrhein-Westfalen"}},{"name":"Industriestr.","postalCode":"32689","locality":"Kalletal","municipality":{"key":"05766036","name":"Kalletal","type":"Kreisangehörige_Gemeinde"},"district":{"key":"05766","name":"Lippe","type":"Kreis"},"federalState":{"key":"05","name":"Nordrhein-Westfalen"}},{"name":"Inselweg","postalCode":"93183","locality":"Kallmünz","municipality":{"key":"09375156","name":"Kallmünz, M","type":"Markt"},"district":{"key":"09375","name":"Regensburg","type":"Landkreis"},"federalState":{"key":"09","name":"Bayern"}},{"name":"Isselweg","postalCode":"53925","locality":"Kall","municipality":{"key":"05366024","name":"Kall","type":"Kreisangehörige_Gemeinde"},"district":{"key":"05366","name":"Euskirchen","type":"Kreis"},"federalState":{"key":"05","name":"Nordrhein-Westfalen"}},{"name":"Johann-Baptist-Mehler-Str.","postalCode":"93183","locality":"Kallmünz","municipality":{"key":"09375156","name":"Kallmünz, M","type":"Markt"},"district":{"key":"09375","name":"Regensburg","type":"Landkreis"},"federalState":{"key":"09","name":"Bayern"}},{"name":"Johanningsfeld","postalCode":"32689","locality":"Kalletal","municipality":{"key":"05766036","name":"Kalletal","type":"Kreisangehörige_Gemeinde"},"district":{"key":"05766","name":"Lippe","type":"Kreis"},"federalState":{"key":"05","name":"Nordrhein-Westfalen"}},{"name":"Josef-Glötzl-Str.","postalCode":"93183","locality":"Kallmünz","municipality":{"key":"09375156","name":"Kallmünz, M","type":"Markt"},"district":{"key":"09375","name":"Regensburg","type":"Landkreis"},"federalState":{"key":"09","name":"Bayern"}},{"name":"Josef-Miller-Str.","postalCode":"93183","locality":"Kallmünz","municipality":{"key":"09375156","name":"Kallmünz, M","type":"Markt"},"district":{"key":"09375","name":"Regensburg","type":"Landkreis"},"federalState":{"key":"09","name":"Bayern"}},{"name":"Junkersstr.","postalCode":"53925","locality":"Kall","municipality":{"key":"05366024","name":"Kall","type":"Kreisangehörige_Gemeinde"},"district":{"key":"05366","name":"Euskirchen","type":"Kreis"},"federalState":{"key":"05","name":"Nordrhein-Westfalen"}},{"name":"Kallbachstr.","postalCode":"53925","locality":"Kall","municipality":{"key":"05366024","name":"Kall","type":"Kreisangehörige_Gemeinde"},"district":{"key":"05366","name":"Euskirchen","type":"Kreis"},"federalState":{"key":"05","name":"Nordrhein-Westfalen"}},{"name":"Kalldorf Mitte","postalCode":"32689","locality":"Kalletal","municipality":{"key":"05766036","name":"Kalletal","type":"Kreisangehörige_Gemeinde"},"district":{"key":"05766","name":"Lippe","type":"Kreis"},"federalState":{"key":"05","name":"Nordrhein-Westfalen"}},{"name":"Kaller Str.","postalCode":"53925","locality":"Kall","municipality":{"key":"05366024","name":"Kall","type":"Kreisangehörige_Gemeinde"},"district":{"key":"05366","name":"Euskirchen","type":"Kreis"},"federalState":{"key":"05","name":"Nordrhein-Westfalen"}},{"name":"Kallmünzer Weg","postalCode":"93183","locality":"Kallmünz","municipality":{"key":"09375156","name":"Kallmünz, M","type":"Markt"},"district":{"key":"09375","name":"Regensburg","type":"Landkreis"},"federalState":{"key":"09","name":"Bayern"}},{"name":"Kammweg","postalCode":"32689","locality":"Kalletal","municipality":{"key":"05766036","name":"Kalletal","type":"Kreisangehörige_Gemeinde"},"district":{"key":"05766","name":"Lippe","type":"Kreis"},"federalState":{"key":"05","name":"Nordrhein-Westfalen"}},{"name":"Kampstr.","postalCode":"32689","locality":"Kalletal","municipality":{"key":"05766036","name":"Kalletal","type":"Kreisangehörige_Gemeinde"},"district":{"key":"05766","name":"Lippe","type":"Kreis"},"federalState":{"key":"05","name":"Nordrhein-Westfalen"}},{"name":"Kanalstr.","postalCode":"53925","locality":"Kall","municipality":{"key":"05366024","name":"Kall","type":"Kreisangehörige_Gemeinde"},"district":{"key":"05366","name":"Euskirchen","type":"Kreis"},"federalState":{"key":"05","name":"Nordrhein-Westfalen"}},{"name":"Kapellenstr.","postalCode":"53925","locality":"Kall","municipality":{"key":"05366024","name":"Kall","type":"Kreisangehörige_Gemeinde"},"district":{"key":"05366","name":"Euskirchen","type":"Kreis"},"federalState":{"key":"05","name":"Nordrhein-Westfalen"}},{"name":"Kapellenweg","postalCode":"32689","locality":"Kalletal","municipality":{"key":"05766036","name":"Kalletal","type":"Kreisangehörige_Gemeinde"},"district":{"key":"05766","name":"Lippe","type":"Kreis"},"federalState":{"key":"05","name":"Nordrhein-Westfalen"}},{"name":"Karl-Kraft-Weg","postalCode":"32689","locality":"Kalletal","municipality":{"key":"05766036","name":"Kalletal","type":"Kreisangehörige_Gemeinde"},"district":{"key":"05766","name":"Lippe","type":"Kreis"},"federalState":{"key":"05","name":"Nordrhein-Westfalen"}},{"name":"Karolingerstr.","postalCode":"53925","locality":"Kall","municipality":{"key":"05366024","name":"Kall","type":"Kreisangehörige_Gemeinde"},"district":{"key":"05366","name":"Euskirchen","type":"Kreis"},"federalState":{"key":"05","name":"Nordrhein-Westfalen"}},{"name":"Kastanienweg","postalCode":"53925","locality":"Kall","municipality":{"key":"05366024","name":"Kall","type":"Kreisangehörige_Gemeinde"},"district":{"key":"05366","name":"Euskirchen","type":"Kreis"},"federalState":{"key":"05","name":"Nordrhein-Westfalen"}},{"name":"Keldenicher Str.","postalCode":"53925","locality":"Kall","municipality":{"key":"05366024","name":"Kall","type":"Kreisangehörige_Gemeinde"},"district":{"key":"05366","name":"Euskirchen","type":"Kreis"},"federalState":{"key":"05","name":"Nordrhein-Westfalen"}},{"name":"Keltenstr.","postalCode":"53925","locality":"Kall","municipality":{"key":"05366024","name":"Kall","type":"Kreisangehörige_Gemeinde"},"district":{"key":"05366","name":"Euskirchen","type":"Kreis"},"federalState":{"key":"05","name":"Nordrhein-Westfalen"}},{"name":"Keltenweg","postalCode":"93183","locality":"Kallmünz","municipality":{"key":"09375156","name":"Kallmünz, M","type":"Markt"},"district":{"key":"09375","name":"Regensburg","type":"Landkreis"},"federalState":{"key":"09","name":"Bayern"}},{"name":"Kiefernweg","postalCode":"53925","locality":"Kall","municipality":{"key":"05366024","name":"Kall","type":"Kreisangehörige_Gemeinde"},"district":{"key":"05366","name":"Euskirchen","type":"Kreis"},"federalState":{"key":"05","name":"Nordrhein-Westfalen"}},{"name":"Kindergartenstr.","postalCode":"93183","locality":"Kallmünz","municipality":{"key":"09375156","name":"Kallmünz, M","type":"Markt"},"district":{"key":"09375","name":"Regensburg","type":"Landkreis"},"federalState":{"key":"09","name":"Bayern"}},{"name":"Kirchbergstr.","postalCode":"32689","locality":"Kalletal","municipality":{"key":"05766036","name":"Kalletal","type":"Kreisangehörige_Gemeinde"},"district":{"key":"05766","name":"Lippe","type":"Kreis"},"federalState":{"key":"05","name":"Nordrhein-Westfalen"}},{"name":"Kirchweg","postalCode":"32689","locality":"Kalletal","municipality":{"key":"05766036","name":"Kalletal","type":"Kreisangehörige_Gemeinde"},"district":{"key":"05766","name":"Lippe","type":"Kreis"},"federalState":{"key":"05","name":"Nordrhein-Westfalen"}},{"name":"Kirschhecke","postalCode":"53925","locality":"Kall","municipality":{"key":"05366024","name":"Kall","type":"Kreisangehörige_Gemeinde"},"district":{"key":"05366","name":"Euskirchen","type":"Kreis"},"federalState":{"key":"05","name":"Nordrhein-Westfalen"}},{"name":"Kitschburg","postalCode":"53925","locality":"Kall","municipality":{"key":"05366024","name":"Kall","type":"Kreisangehörige_Gemeinde"},"district":{"key":"05366","name":"Euskirchen","type":"Kreis"},"federalState":{"key":"05","name":"Nordrhein-Westfalen"}},{"name":"Klausengarten","postalCode":"53925","locality":"Kall","municipality":{"key":"05366024","name":"Kall","type":"Kreisangehörige_Gemeinde"},"district":{"key":"05366","name":"Euskirchen","type":"Kreis"},"federalState":{"key":"05","name":"Nordrhein-Westfalen"}},{"name":"Klausenstr.","postalCode":"53925","locality":"Kall","municipality":{"key":"05366024","name":"Kall","type":"Kreisangehörige_Gemeinde"},"district":{"key":"05366","name":"Euskirchen","type":"Kreis"},"federalState":{"key":"05","name":"Nordrhein-Westfalen"}},{"name":"Klausentalstr.","postalCode":"53925","locality":"Kall","municipality":{"key":"05366024","name":"Kall","type":"Kreisangehörige_Gemeinde"},"district":{"key":"05366","name":"Euskirchen","type":"Kreis"},"federalState":{"key":"05","name":"Nordrhein-Westfalen"}},{"name":"Kleewiese","postalCode":"53925","locality":"Kall","municipality":{"key":"05366024","name":"Kall","type":"Kreisangehörige_Gemeinde"},"district":{"key":"05366","name":"Euskirchen","type":"Kreis"},"federalState":{"key":"05","name":"Nordrhein-Westfalen"}},{"name":"Klein-Köln","postalCode":"53925","locality":"Kall","municipality":{"key":"05366024","name":"Kall","type":"Kreisangehörige_Gemeinde"},"district":{"key":"05366","name":"Euskirchen","type":"Kreis"},"federalState":{"key":"05","name":"Nordrhein-Westfalen"}},{"name":"Kleisinger","postalCode":"67169","locality":"Kallstadt","municipality":{"key":"07332028","name":"Kallstadt","type":"Kreisangehörige_Gemeinde"},"district":{"key":"07332","name":"Bad Dürkheim","type":"Landkreis"},"federalState":{"key":"07","name":"Rheinland-Pfalz"}},{"name":"Kloster Steinfeld","postalCode":"53925","locality":"Kall","municipality":{"key":"05366024","name":"Kall","type":"Kreisangehörige_Gemeinde"},"district":{"key":"05366","name":"Euskirchen","type":"Kreis"},"federalState":{"key":"05","name":"Nordrhein-Westfalen"}},{"name":"Klosterstr.","postalCode":"53925","locality":"Kall","municipality":{"key":"05366024","name":"Kall","type":"Kreisangehörige_Gemeinde"},"district":{"key":"05366","name":"Euskirchen","type":"Kreis"},"federalState":{"key":"05","name":"Nordrhein-Westfalen"}},{"name":"Knickberg","postalCode":"32689","locality":"Kalletal","municipality":{"key":"05766036","name":"Kalletal","type":"Kreisangehörige_Gemeinde"},"district":{"key":"05766","name":"Lippe","type":"Kreis"},"federalState":{"key":"05","name":"Nordrhein-Westfalen"}},{"name":"Knipperweg","postalCode":"53925","locality":"Kall","municipality":{"key":"05366024","name":"Kall","type":"Kreisangehörige_Gemeinde"},"district":{"key":"05366","name":"Euskirchen","type":"Kreis"},"federalState":{"key":"05","name":"Nordrhein-Westfalen"}},{"name":"Knogshof","postalCode":"32689","locality":"Kalletal","municipality":{"key":"05766036","name":"Kalletal","type":"Kreisangehörige_Gemeinde"},"district":{"key":"05766","name":"Lippe","type":"Kreis"},"federalState":{"key":"05","name":"Nordrhein-Westfalen"}},{"name":"Kohlbeet","postalCode":"32689","locality":"Kalletal","municipality":{"key":"05766036","name":"Kalletal","type":"Kreisangehörige_Gemeinde"},"district":{"key":"05766","name":"Lippe","type":"Kreis"},"federalState":{"key":"05","name":"Nordrhein-Westfalen"}},{"name":"Kölner Str.","postalCode":"53925","locality":"Kall","municipality":{"key":"05366024","name":"Kall","type":"Kreisangehörige_Gemeinde"},"district":{"key":"05366","name":"Euskirchen","type":"Kreis"},"federalState":{"key":"05","name":"Nordrhein-Westfalen"}},{"name":"Königsfelderstr.","postalCode":"53925","locality":"Kall","municipality":{"key":"05366024","name":"Kall","type":"Kreisangehörige_Gemeinde"},"district":{"key":"05366","name":"Euskirchen","type":"Kreis"},"federalState":{"key":"05","name":"Nordrhein-Westfalen"}},{"name":"Krachenhausener Weg","postalCode":"93183","locality":"Kallmünz","municipality":{"key":"09375156","name":"Kallmünz, M","type":"Markt"},"district":{"key":"09375","name":"Regensburg","type":"Landkreis"},"federalState":{"key":"09","name":"Bayern"}},{"name":"Krämerstr.","postalCode":"32689","locality":"Kalletal","municipality":{"key":"05766036","name":"Kalletal","type":"Kreisangehörige_Gemeinde"},"district":{"key":"05766","name":"Lippe","type":"Kreis"},"federalState":{"key":"05","name":"Nordrhein-Westfalen"}},{"name":"Kreinhof","postalCode":"32689","locality":"Kalletal","municipality":{"key":"05766036","name":"Kalletal","type":"Kreisangehörige_Gemeinde"},"district":{"key":"05766","name":"Lippe","type":"Kreis"},"federalState":{"key":"05","name":"Nordrhein-Westfalen"}},{"name":"Krekeler Str.","postalCode":"53925","locality":"Kall","municipality":{"key":"05366024","name":"Kall","type":"Kreisangehörige_Gemeinde"},"district":{"key":"05366","name":"Euskirchen","type":"Kreis"},"federalState":{"key":"05","name":"Nordrhein-Westfalen"}},{"name":"Kreuzgang mit Innenhof","postalCode":"53925","locality":"Kall","municipality":{"key":"05366024","name":"Kall","type":"Kreisangehörige_Gemeinde"},"district":{"key":"05366","name":"Euskirchen","type":"Kreis"},"federalState":{"key":"05","name":"Nordrhein-Westfalen"}},{"name":"Kropelspfad","postalCode":"53925","locality":"Kall","municipality":{"key":"05366024","name":"Kall","type":"Kreisangehörige_Gemeinde"},"district":{"key":"05366","name":"Euskirchen","type":"Kreis"},"federalState":{"key":"05","name":"Nordrhein-Westfalen"}},{"name":"Krückebergstr.","postalCode":"32689","locality":"Kalletal","municipality":{"key":"05766036","name":"Kalletal","type":"Kreisangehörige_Gemeinde"},"district":{"key":"05766","name":"Lippe","type":"Kreis"},"federalState":{"key":"05","name":"Nordrhein-Westfalen"}},{"name":"Kruppstr.","postalCode":"53925","locality":"Kall","municipality":{"key":"05366024","name":"Kall","type":"Kreisangehörige_Gemeinde"},"district":{"key":"05366","name":"Euskirchen","type":"Kreis"},"federalState":{"key":"05","name":"Nordrhein-Westfalen"}},{"name":"Kuhlenweg","postalCode":"32689","locality":"Kalletal","municipality":{"key":"05766036","name":"Kalletal","type":"Kreisangehörige_Gemeinde"},"district":{"key":"05766","name":"Lippe","type":"Kreis"},"federalState":{"key":"05","name":"Nordrhein-Westfalen"}},{"name":"Kükenbrink","postalCode":"32689","locality":"Kalletal","municipality":{"key":"05766036","name":"Kalletal","type":"Kreisangehörige_Gemeinde"},"district":{"key":"05766","name":"Lippe","type":"Kreis"},"federalState":{"key":"05","name":"Nordrhein-Westfalen"}},{"name":"Kupferstr.","postalCode":"53925","locality":"Kall","municipality":{"key":"05366024","name":"Kall","type":"Kreisangehörige_Gemeinde"},"district":{"key":"05366","name":"Euskirchen","type":"Kreis"},"federalState":{"key":"05","name":"Nordrhein-Westfalen"}},{"name":"Kurstr.","postalCode":"32689","locality":"Kalletal","municipality":{"key":"05766036","name":"Kalletal","type":"Kreisangehörige_Gemeinde"},"district":{"key":"05766","name":"Lippe","type":"Kreis"},"federalState":{"key":"05","name":"Nordrhein-Westfalen"}},{"name":"Kurze Brän","postalCode":"32689","locality":"Kalletal","municipality":{"key":"05766036","name":"Kalletal","type":"Kreisangehörige_Gemeinde"},"district":{"key":"05766","name":"Lippe","type":"Kreis"},"federalState":{"key":"05","name":"Nordrhein-Westfalen"}},{"name":"Kurzer Kamp","postalCode":"32689","locality":"Kalletal","municipality":{"key":"05766036","name":"Kalletal","type":"Kreisangehörige_Gemeinde"},"district":{"key":"05766","name":"Lippe","type":"Kreis"},"federalState":{"key":"05","name":"Nordrhein-Westfalen"}},{"name":"Kurzer Weg","postalCode":"32689","locality":"Kalletal","municipality":{"key":"05766036","name":"Kalletal","type":"Kreisangehörige_Gemeinde"},"district":{"key":"05766","name":"Lippe","type":"Kreis"},"federalState":{"key":"05","name":"Nordrhein-Westfalen"}},{"name":"L204","postalCode":"53925","locality":"Kall","municipality":{"key":"05366024","name":"Kall","type":"Kreisangehörige_Gemeinde"},"district":{"key":"05366","name":"Euskirchen","type":"Kreis"},"federalState":{"key":"05","name":"Nordrhein-Westfalen"}},{"name":"Landweg","postalCode":"32689","locality":"Kalletal","municipality":{"key":"05766036","name":"Kalletal","type":"Kreisangehörige_Gemeinde"},"district":{"key":"05766","name":"Lippe","type":"Kreis"},"federalState":{"key":"05","name":"Nordrhein-Westfalen"}},{"name":"Lange Gasse","postalCode":"93183","locality":"Kallmünz","municipality":{"key":"09375156","name":"Kallmünz, M","type":"Markt"},"district":{"key":"09375","name":"Regensburg","type":"Landkreis"},"federalState":{"key":"09","name":"Bayern"}},{"name":"Langenholzhauser Str.","postalCode":"32689","locality":"Kalletal","municipality":{"key":"05766036","name":"Kalletal","type":"Kreisangehörige_Gemeinde"},"district":{"key":"05766","name":"Lippe","type":"Kreis"},"federalState":{"key":"05","name":"Nordrhein-Westfalen"}},{"name":"Langer Acker","postalCode":"32689","locality":"Kalletal","municipality":{"key":"05766036","name":"Kalletal","type":"Kreisangehörige_Gemeinde"},"district":{"key":"05766","name":"Lippe","type":"Kreis"},"federalState":{"key":"05","name":"Nordrhein-Westfalen"}},{"name":"Lange Wand","postalCode":"32689","locality":"Kalletal","municipality":{"key":"05766036","name":"Kalletal","type":"Kreisangehörige_Gemeinde"},"district":{"key":"05766","name":"Lippe","type":"Kreis"},"federalState":{"key":"05","name":"Nordrhein-Westfalen"}},{"name":"Lärchenweg","postalCode":"53925","locality":"Kall","municipality":{"key":"05366024","name":"Kall","type":"Kreisangehörige_Gemeinde"},"district":{"key":"05366","name":"Euskirchen","type":"Kreis"},"federalState":{"key":"05","name":"Nordrhein-Westfalen"}},{"name":"Laßbrucher Str.","postalCode":"32689","locality":"Kalletal","municipality":{"key":"05766036","name":"Kalletal","type":"Kreisangehörige_Gemeinde"},"district":{"key":"05766","name":"Lippe","type":"Kreis"},"federalState":{"key":"05","name":"Nordrhein-Westfalen"}},{"name":"Lehmsiek","postalCode":"32689","locality":"Kalletal","municipality":{"key":"05766036","name":"Kalletal","type":"Kreisangehörige_Gemeinde"},"district":{"key":"05766","name":"Lippe","type":"Kreis"},"federalState":{"key":"05","name":"Nordrhein-Westfalen"}},{"name":"Leiengarten","postalCode":"53925","locality":"Kall","municipality":{"key":"05366024","name":"Kall","type":"Kreisangehörige_Gemeinde"},"district":{"key":"05366","name":"Euskirchen","type":"Kreis"},"federalState":{"key":"05","name":"Nordrhein-Westfalen"}},{"name":"Leistadter Str.","postalCode":"67169","locality":"Kallstadt","municipality":{"key":"07332028","name":"Kallstadt","type":"Kreisangehörige_Gemeinde"},"district":{"key":"07332","name":"Bad Dürkheim","type":"Landkreis"},"federalState":{"key":"07","name":"Rheinland-Pfalz"}},{"name":"Lemgoer Str.","postalCode":"32689","locality":"Kalletal","municipality":{"key":"05766036","name":"Kalletal","type":"Kreisangehörige_Gemeinde"},"district":{"key":"05766","name":"Lippe","type":"Kreis"},"federalState":{"key":"05","name":"Nordrhein-Westfalen"}},{"name":"Leuchte","postalCode":"32689","locality":"Kalletal","municipality":{"key":"05766036","name":"Kalletal","type":"Kreisangehörige_Gemeinde"},"district":{"key":"05766","name":"Lippe","type":"Kreis"},"federalState":{"key":"05","name":"Nordrhein-Westfalen"}},{"name":"Lichtensberg","postalCode":"32689","locality":"Kalletal","municipality":{"key":"05766036","name":"Kalletal","type":"Kreisangehörige_Gemeinde"},"district":{"key":"05766","name":"Lippe","type":"Kreis"},"federalState":{"key":"05","name":"Nordrhein-Westfalen"}},{"name":"Lilienstr.","postalCode":"53925","locality":"Kall","municipality":{"key":"05366024","name":"Kall","type":"Kreisangehörige_Gemeinde"},"district":{"key":"05366","name":"Euskirchen","type":"Kreis"},"federalState":{"key":"05","name":"Nordrhein-Westfalen"}},{"name":"Lilienweg","postalCode":"32689","locality":"Kalletal","municipality":{"key":"05766036","name":"Kalletal","type":"Kreisangehörige_Gemeinde"},"district":{"key":"05766","name":"Lippe","type":"Kreis"},"federalState":{"key":"05","name":"Nordrhein-Westfalen"}},{"name":"Lindenstr.","postalCode":"53925","locality":"Kall","municipality":{"key":"05366024","name":"Kall","type":"Kreisangehörige_Gemeinde"},"district":{"key":"05366","name":"Euskirchen","type":"Kreis"},"federalState":{"key":"05","name":"Nordrhein-Westfalen"}},{"name":"Lindenweg","postalCode":"32689","locality":"Kalletal","municipality":{"key":"05766036","name":"Kalletal","type":"Kreisangehörige_Gemeinde"},"district":{"key":"05766","name":"Lippe","type":"Kreis"},"federalState":{"key":"05","name":"Nordrhein-Westfalen"}},{"name":"Lohberg","postalCode":"32689","locality":"Kalletal","municipality":{"key":"05766036","name":"Kalletal","type":"Kreisangehörige_Gemeinde"},"district":{"key":"05766","name":"Lippe","type":"Kreis"},"federalState":{"key":"05","name":"Nordrhein-Westfalen"}},{"name":"Lohbrede","postalCode":"32689","locality":"Kalletal","municipality":{"key":"05766036","name":"Kalletal","type":"Kreisangehörige_Gemeinde"},"district":{"key":"05766","name":"Lippe","type":"Kreis"},"federalState":{"key":"05","name":"Nordrhein-Westfalen"}},{"name":"Lohfeld","postalCode":"32689","locality":"Kalletal","municipality":{"key":"05766036","name":"Kalletal","type":"Kreisangehörige_Gemeinde"},"district":{"key":"05766","name":"Lippe","type":"Kreis"},"federalState":{"key":"05","name":"Nordrhein-Westfalen"}},{"name":"Loshardt","postalCode":"53925","locality":"Kall","municipality":{"key":"05366024","name":"Kall","type":"Kreisangehörige_Gemeinde"},"district":{"key":"05366","name":"Euskirchen","type":"Kreis"},"federalState":{"key":"05","name":"Nordrhein-Westfalen"}},{"name":"Lötzenweg","postalCode":"53925","locality":"Kall","municipality":{"key":"05366024","name":"Kall","type":"Kreisangehörige_Gemeinde"},"district":{"key":"05366","name":"Euskirchen","type":"Kreis"},"federalState":{"key":"05","name":"Nordrhein-Westfalen"}},{"name":"Lourdesstr.","postalCode":"53925","locality":"Kall","municipality":{"key":"05366024","name":"Kall","type":"Kreisangehörige_Gemeinde"},"district":{"key":"05366","name":"Euskirchen","type":"Kreis"},"federalState":{"key":"05","name":"Nordrhein-Westfalen"}},{"name":"Lückerather Str.","postalCode":"53925","locality":"Kall","municipality":{"key":"05366024","name":"Kall","type":"Kreisangehörige_Gemeinde"},"district":{"key":"05366","name":"Euskirchen","type":"Kreis"},"federalState":{"key":"05","name":"Nordrhein-Westfalen"}},{"name":"Lüdenhauser Str.","postalCode":"32689","locality":"Kalletal","municipality":{"key":"05766036","name":"Kalletal","type":"Kreisangehörige_Gemeinde"},"district":{"key":"05766","name":"Lippe","type":"Kreis"},"federalState":{"key":"05","name":"Nordrhein-Westfalen"}},{"name":"Lüerdisser Str.","postalCode":"32689","locality":"Kalletal","municipality":{"key":"05766036","name":"Kalletal","type":"Kreisangehörige_Gemeinde"},"district":{"key":"05766","name":"Lippe","type":"Kreis"},"federalState":{"key":"05","name":"Nordrhein-Westfalen"}},{"name":"Lüerdisser Weg","postalCode":"32689","locality":"Kalletal","municipality":{"key":"05766036","name":"Kalletal","type":"Kreisangehörige_Gemeinde"},"district":{"key":"05766","name":"Lippe","type":"Kreis"},"federalState":{"key":"05","name":"Nordrhein-Westfalen"}},{"name":"Maistr.","postalCode":"53925","locality":"Kall","municipality":{"key":"05366024","name":"Kall","type":"Kreisangehörige_Gemeinde"},"district":{"key":"05366","name":"Euskirchen","type":"Kreis"},"federalState":{"key":"05","name":"Nordrhein-Westfalen"}},{"name":"Marienstr.","postalCode":"53925","locality":"Kall","municipality":{"key":"05366024","name":"Kall","type":"Kreisangehörige_Gemeinde"},"district":{"key":"05366","name":"Euskirchen","type":"Kreis"},"federalState":{"key":"05","name":"Nordrhein-Westfalen"}},{"name":"Markscheide","postalCode":"53925","locality":"Kall","municipality":{"key":"05366024","name":"Kall","type":"Kreisangehörige_Gemeinde"},"district":{"key":"05366","name":"Euskirchen","type":"Kreis"},"federalState":{"key":"05","name":"Nordrhein-Westfalen"}},{"name":"Marktplatz","postalCode":"93183","locality":"Kallmünz","municipality":{"key":"09375156","name":"Kallmünz, M","type":"Markt"},"district":{"key":"09375","name":"Regensburg","type":"Landkreis"},"federalState":{"key":"09","name":"Bayern"}},{"name":"Marmagener Str.","postalCode":"53925","locality":"Kall","municipality":{"key":"05366024","name":"Kall","type":"Kreisangehörige_Gemeinde"},"district":{"key":"05366","name":"Euskirchen","type":"Kreis"},"federalState":{"key":"05","name":"Nordrhein-Westfalen"}},{"name":"Matthias-Zintl-Str.","postalCode":"93183","locality":"Kallmünz","municipality":{"key":"09375156","name":"Kallmünz, M","type":"Markt"},"district":{"key":"09375","name":"Regensburg","type":"Landkreis"},"federalState":{"key":"09","name":"Bayern"}},{"name":"Meierkamp","postalCode":"32689","locality":"Kalletal","municipality":{"key":"05766036","name":"Kalletal","type":"Kreisangehörige_Gemeinde"},"district":{"key":"05766","name":"Lippe","type":"Kreis"},"federalState":{"key":"05","name":"Nordrhein-Westfalen"}},{"name":"Meisenweg","postalCode":"32689","locality":"Kalletal","municipality":{"key":"05766036","name":"Kalletal","type":"Kreisangehörige_Gemeinde"},"district":{"key":"05766","name":"Lippe","type":"Kreis"},"federalState":{"key":"05","name":"Nordrhein-Westfalen"}},{"name":"Meisenweg","postalCode":"53925","locality":"Kall","municipality":{"key":"05366024","name":"Kall","type":"Kreisangehörige_Gemeinde"},"district":{"key":"05366","name":"Euskirchen","type":"Kreis"},"federalState":{"key":"05","name":"Nordrhein-Westfalen"}},{"name":"Mergelweg","postalCode":"32689","locality":"Kalletal","municipality":{"key":"05766036","name":"Kalletal","type":"Kreisangehörige_Gemeinde"},"district":{"key":"05766","name":"Lippe","type":"Kreis"},"federalState":{"key":"05","name":"Nordrhein-Westfalen"}},{"name":"Meschweg","postalCode":"32689","locality":"Kalletal","municipality":{"key":"05766036","name":"Kalletal","type":"Kreisangehörige_Gemeinde"},"district":{"key":"05766","name":"Lippe","type":"Kreis"},"federalState":{"key":"05","name":"Nordrhein-Westfalen"}},{"name":"Messerschmittstr.","postalCode":"53925","locality":"Kall","municipality":{"key":"05366024","name":"Kall","type":"Kreisangehörige_Gemeinde"},"district":{"key":"05366","name":"Euskirchen","type":"Kreis"},"federalState":{"key":"05","name":"Nordrhein-Westfalen"}},{"name":"Metallhütte","postalCode":"53925","locality":"Kall","municipality":{"key":"05366024","name":"Kall","type":"Kreisangehörige_Gemeinde"},"district":{"key":"05366","name":"Euskirchen","type":"Kreis"},"federalState":{"key":"05","name":"Nordrhein-Westfalen"}},{"name":"Meyra-Ring","postalCode":"32689","locality":"Kalletal","municipality":{"key":"05766036","name":"Kalletal","type":"Kreisangehörige_Gemeinde"},"district":{"key":"05766","name":"Lippe","type":"Kreis"},"federalState":{"key":"05","name":"Nordrhein-Westfalen"}},{"name":"Michaelstr.","postalCode":"53925","locality":"Kall","municipality":{"key":"05366024","name":"Kall","type":"Kreisangehörige_Gemeinde"},"district":{"key":"05366","name":"Euskirchen","type":"Kreis"},"federalState":{"key":"05","name":"Nordrhein-Westfalen"}},{"name":"Mittelstr.","postalCode":"32689","locality":"Kalletal","municipality":{"key":"05766036","name":"Kalletal","type":"Kreisangehörige_Gemeinde"},"district":{"key":"05766","name":"Lippe","type":"Kreis"},"federalState":{"key":"05","name":"Nordrhein-Westfalen"}},{"name":"Mittelstr.","postalCode":"53925","locality":"Kall","municipality":{"key":"05366024","name":"Kall","type":"Kreisangehörige_Gemeinde"},"district":{"key":"05366","name":"Euskirchen","type":"Kreis"},"federalState":{"key":"05","name":"Nordrhein-Westfalen"}},{"name":"Möllenschendall","postalCode":"32689","locality":"Kalletal","municipality":{"key":"05766036","name":"Kalletal","type":"Kreisangehörige_Gemeinde"},"district":{"key":"05766","name":"Lippe","type":"Kreis"},"federalState":{"key":"05","name":"Nordrhein-Westfalen"}},{"name":"Moorweg","postalCode":"53925","locality":"Kall","municipality":{"key":"05366024","name":"Kall","type":"Kreisangehörige_Gemeinde"},"district":{"key":"05366","name":"Euskirchen","type":"Kreis"},"federalState":{"key":"05","name":"Nordrhein-Westfalen"}},{"name":"Mühlenbrede","postalCode":"32689","locality":"Kalletal","municipality":{"key":"05766036","name":"Kalletal","type":"Kreisangehörige_Gemeinde"},"district":{"key":"05766","name":"Lippe","type":"Kreis"},"federalState":{"key":"05","name":"Nordrhein-Westfalen"}},{"name":"Mühlenfeldstr.","postalCode":"32689","locality":"Kalletal","municipality":{"key":"05766036","name":"Kalletal","type":"Kreisangehörige_Gemeinde"},"district":{"key":"05766","name":"Lippe","type":"Kreis"},"federalState":{"key":"05","name":"Nordrhein-Westfalen"}},{"name":"Mühlenweg","postalCode":"32689","locality":"Kalletal","municipality":{"key":"05766036","name":"Kalletal","type":"Kreisangehörige_Gemeinde"},"district":{"key":"05766","name":"Lippe","type":"Kreis"},"federalState":{"key":"05","name":"Nordrhein-Westfalen"}},{"name":"Mühlenweg","postalCode":"53925","locality":"Kall","municipality":{"key":"05366024","name":"Kall","type":"Kreisangehörige_Gemeinde"},"district":{"key":"05366","name":"Euskirchen","type":"Kreis"},"federalState":{"key":"05","name":"Nordrhein-Westfalen"}},{"name":"Mühlschlager Str.","postalCode":"93183","locality":"Kallmünz","municipality":{"key":"09375156","name":"Kallmünz, M","type":"Markt"},"district":{"key":"09375","name":"Regensburg","type":"Landkreis"},"federalState":{"key":"09","name":"Bayern"}},{"name":"Mühlweg","postalCode":"93183","locality":"Kallmünz","municipality":{"key":"09375156","name":"Kallmünz, M","type":"Markt"},"district":{"key":"09375","name":"Regensburg","type":"Landkreis"},"federalState":{"key":"09","name":"Bayern"}},{"name":"Mulzgasse","postalCode":"93183","locality":"Kallmünz","municipality":{"key":"09375156","name":"Kallmünz, M","type":"Markt"},"district":{"key":"09375","name":"Regensburg","type":"Landkreis"},"federalState":{"key":"09","name":"Bayern"}},{"name":"Narzissenweg","postalCode":"53925","locality":"Kall","municipality":{"key":"05366024","name":"Kall","type":"Kreisangehörige_Gemeinde"},"district":{"key":"05366","name":"Euskirchen","type":"Kreis"},"federalState":{"key":"05","name":"Nordrhein-Westfalen"}},{"name":"Nelkenweg","postalCode":"32689","locality":"Kalletal","municipality":{"key":"05766036","name":"Kalletal","type":"Kreisangehörige_Gemeinde"},"district":{"key":"05766","name":"Lippe","type":"Kreis"},"federalState":{"key":"05","name":"Nordrhein-Westfalen"}},{"name":"Neue Mark","postalCode":"32689","locality":"Kalletal","municipality":{"key":"05766036","name":"Kalletal","type":"Kreisangehörige_Gemeinde"},"district":{"key":"05766","name":"Lippe","type":"Kreis"},"federalState":{"key":"05","name":"Nordrhein-Westfalen"}},{"name":"Neugasse","postalCode":"67169","locality":"Kallstadt","municipality":{"key":"07332028","name":"Kallstadt","type":"Kreisangehörige_Gemeinde"},"district":{"key":"07332","name":"Bad Dürkheim","type":"Landkreis"},"federalState":{"key":"07","name":"Rheinland-Pfalz"}},{"name":"Neustr.","postalCode":"53925","locality":"Kall","municipality":{"key":"05366024","name":"Kall","type":"Kreisangehörige_Gemeinde"},"district":{"key":"05366","name":"Euskirchen","type":"Kreis"},"federalState":{"key":"05","name":"Nordrhein-Westfalen"}},{"name":"Niedermeiner Str.","postalCode":"32689","locality":"Kalletal","municipality":{"key":"05766036","name":"Kalletal","type":"Kreisangehörige_Gemeinde"},"district":{"key":"05766","name":"Lippe","type":"Kreis"},"federalState":{"key":"05","name":"Nordrhein-Westfalen"}},{"name":"Niedernfeldstr.","postalCode":"32689","locality":"Kalletal","municipality":{"key":"05766036","name":"Kalletal","type":"Kreisangehörige_Gemeinde"},"district":{"key":"05766","name":"Lippe","type":"Kreis"},"federalState":{"key":"05","name":"Nordrhein-Westfalen"}},{"name":"Niedernmühle","postalCode":"32689","locality":"Kalletal","municipality":{"key":"05766036","name":"Kalletal","type":"Kreisangehörige_Gemeinde"},"district":{"key":"05766","name":"Lippe","type":"Kreis"},"federalState":{"key":"05","name":"Nordrhein-Westfalen"}},{"name":"Niederntalle","postalCode":"32689","locality":"Kalletal","municipality":{"key":"05766036","name":"Kalletal","type":"Kreisangehörige_Gemeinde"},"district":{"key":"05766","name":"Lippe","type":"Kreis"},"federalState":{"key":"05","name":"Nordrhein-Westfalen"}},{"name":"Niedersachsenstr.","postalCode":"32689","locality":"Kalletal","municipality":{"key":"05766036","name":"Kalletal","type":"Kreisangehörige_Gemeinde"},"district":{"key":"05766","name":"Lippe","type":"Kreis"},"federalState":{"key":"05","name":"Nordrhein-Westfalen"}},{"name":"Norbertstr.","postalCode":"53925","locality":"Kall","municipality":{"key":"05366024","name":"Kall","type":"Kreisangehörige_Gemeinde"},"district":{"key":"05366","name":"Euskirchen","type":"Kreis"},"federalState":{"key":"05","name":"Nordrhein-Westfalen"}},{"name":"Nordstr.","postalCode":"53925","locality":"Kall","municipality":{"key":"05366024","name":"Kall","type":"Kreisangehörige_Gemeinde"},"district":{"key":"05366","name":"Euskirchen","type":"Kreis"},"federalState":{"key":"05","name":"Nordrhein-Westfalen"}},{"name":"Nußbenden","postalCode":"53925","locality":"Kall","municipality":{"key":"05366024","name":"Kall","type":"Kreisangehörige_Gemeinde"},"district":{"key":"05366","name":"Euskirchen","type":"Kreis"},"federalState":{"key":"05","name":"Nordrhein-Westfalen"}},{"name":"Oberer Weg","postalCode":"32689","locality":"Kalletal","municipality":{"key":"05766036","name":"Kalletal","type":"Kreisangehörige_Gemeinde"},"district":{"key":"05766","name":"Lippe","type":"Kreis"},"federalState":{"key":"05","name":"Nordrhein-Westfalen"}},{"name":"Oberstr.","postalCode":"53925","locality":"Kall","municipality":{"key":"05366024","name":"Kall","type":"Kreisangehörige_Gemeinde"},"district":{"key":"05366","name":"Euskirchen","type":"Kreis"},"federalState":{"key":"05","name":"Nordrhein-Westfalen"}},{"name":"Osterberg","postalCode":"32689","locality":"Kalletal","municipality":{"key":"05766036","name":"Kalletal","type":"Kreisangehörige_Gemeinde"},"district":{"key":"05766","name":"Lippe","type":"Kreis"},"federalState":{"key":"05","name":"Nordrhein-Westfalen"}},{"name":"Osterbrink","postalCode":"32689","locality":"Kalletal","municipality":{"key":"05766036","name":"Kalletal","type":"Kreisangehörige_Gemeinde"},"district":{"key":"05766","name":"Lippe","type":"Kreis"},"federalState":{"key":"05","name":"Nordrhein-Westfalen"}},{"name":"Osterhagen","postalCode":"32689","locality":"Kalletal","municipality":{"key":"05766036","name":"Kalletal","type":"Kreisangehörige_Gemeinde"},"district":{"key":"05766","name":"Lippe","type":"Kreis"},"federalState":{"key":"05","name":"Nordrhein-Westfalen"}},{"name":"Osterkamp","postalCode":"32689","locality":"Kalletal","municipality":{"key":"05766036","name":"Kalletal","type":"Kreisangehörige_Gemeinde"},"district":{"key":"05766","name":"Lippe","type":"Kreis"},"federalState":{"key":"05","name":"Nordrhein-Westfalen"}},{"name":"Packberg","postalCode":"32689","locality":"Kalletal","municipality":{"key":"05766036","name":"Kalletal","type":"Kreisangehörige_Gemeinde"},"district":{"key":"05766","name":"Lippe","type":"Kreis"},"federalState":{"key":"05","name":"Nordrhein-Westfalen"}},{"name":"Papenberg","postalCode":"32689","locality":"Kalletal","municipality":{"key":"05766036","name":"Kalletal","type":"Kreisangehörige_Gemeinde"},"district":{"key":"05766","name":"Lippe","type":"Kreis"},"federalState":{"key":"05","name":"Nordrhein-Westfalen"}},{"name":"Parkstr.","postalCode":"32689","locality":"Kalletal","municipality":{"key":"05766036","name":"Kalletal","type":"Kreisangehörige_Gemeinde"},"district":{"key":"05766","name":"Lippe","type":"Kreis"},"federalState":{"key":"05","name":"Nordrhein-Westfalen"}},{"name":"Peile","postalCode":"32689","locality":"Kalletal","municipality":{"key":"05766036","name":"Kalletal","type":"Kreisangehörige_Gemeinde"},"district":{"key":"05766","name":"Lippe","type":"Kreis"},"federalState":{"key":"05","name":"Nordrhein-Westfalen"}},{"name":"Pescherweg","postalCode":"53925","locality":"Kall","municipality":{"key":"05366024","name":"Kall","type":"Kreisangehörige_Gemeinde"},"district":{"key":"05366","name":"Euskirchen","type":"Kreis"},"federalState":{"key":"05","name":"Nordrhein-Westfalen"}},{"name":"Pfarrer-Berens-Str.","postalCode":"53925","locality":"Kall","municipality":{"key":"05366024","name":"Kall","type":"Kreisangehörige_Gemeinde"},"district":{"key":"05366","name":"Euskirchen","type":"Kreis"},"federalState":{"key":"05","name":"Nordrhein-Westfalen"}},{"name":"Pfarrer-Reinartz-Str.","postalCode":"53925","locality":"Kall","municipality":{"key":"05366024","name":"Kall","type":"Kreisangehörige_Gemeinde"},"district":{"key":"05366","name":"Euskirchen","type":"Kreis"},"federalState":{"key":"05","name":"Nordrhein-Westfalen"}},{"name":"Pferdebruch","postalCode":"32689","locality":"Kalletal","municipality":{"key":"05766036","name":"Kalletal","type":"Kreisangehörige_Gemeinde"},"district":{"key":"05766","name":"Lippe","type":"Kreis"},"federalState":{"key":"05","name":"Nordrhein-Westfalen"}},{"name":"Pferdekamp","postalCode":"32689","locality":"Kalletal","municipality":{"key":"05766036","name":"Kalletal","type":"Kreisangehörige_Gemeinde"},"district":{"key":"05766","name":"Lippe","type":"Kreis"},"federalState":{"key":"05","name":"Nordrhein-Westfalen"}},{"name":"Pflanzweg","postalCode":"32689","locality":"Kalletal","municipality":{"key":"05766036","name":"Kalletal","type":"Kreisangehörige_Gemeinde"},"district":{"key":"05766","name":"Lippe","type":"Kreis"},"federalState":{"key":"05","name":"Nordrhein-Westfalen"}},{"name":"Pinningsweg","postalCode":"32689","locality":"Kalletal","municipality":{"key":"05766036","name":"Kalletal","type":"Kreisangehörige_Gemeinde"},"district":{"key":"05766","name":"Lippe","type":"Kreis"},"federalState":{"key":"05","name":"Nordrhein-Westfalen"}},{"name":"Placken","postalCode":"32689","locality":"Kalletal","municipality":{"key":"05766036","name":"Kalletal","type":"Kreisangehörige_Gemeinde"},"district":{"key":"05766","name":"Lippe","type":"Kreis"},"federalState":{"key":"05","name":"Nordrhein-Westfalen"}},{"name":"Postgasse","postalCode":"93183","locality":"Kallmünz","municipality":{"key":"09375156","name":"Kallmünz, M","type":"Markt"},"district":{"key":"09375","name":"Regensburg","type":"Landkreis"},"federalState":{"key":"09","name":"Bayern"}},{"name":"Postweg","postalCode":"32689","locality":"Kalletal","municipality":{"key":"05766036","name":"Kalletal","type":"Kreisangehörige_Gemeinde"},"district":{"key":"05766","name":"Lippe","type":"Kreis"},"federalState":{"key":"05","name":"Nordrhein-Westfalen"}},{"name":"Prof.-Gerhardinger-Str.","postalCode":"93183","locality":"Kallmünz","municipality":{"key":"09375156","name":"Kallmünz, M","type":"Markt"},"district":{"key":"09375","name":"Regensburg","type":"Landkreis"},"federalState":{"key":"09","name":"Bayern"}},{"name":"Pützberg","postalCode":"53925","locality":"Kall","municipality":{"key":"05366024","name":"Kall","type":"Kreisangehörige_Gemeinde"},"district":{"key":"05366","name":"Euskirchen","type":"Kreis"},"federalState":{"key":"05","name":"Nordrhein-Westfalen"}},{"name":"Queckhagen","postalCode":"32689","locality":"Kalletal","municipality":{"key":"05766036","name":"Kalletal","type":"Kreisangehörige_Gemeinde"},"district":{"key":"05766","name":"Lippe","type":"Kreis"},"federalState":{"key":"05","name":"Nordrhein-Westfalen"}},{"name":"Quellenweg","postalCode":"53925","locality":"Kall","municipality":{"key":"05366024","name":"Kall","type":"Kreisangehörige_Gemeinde"},"district":{"key":"05366","name":"Euskirchen","type":"Kreis"},"federalState":{"key":"05","name":"Nordrhein-Westfalen"}},{"name":"Quirinusborn","postalCode":"53925","locality":"Kall","municipality":{"key":"05366024","name":"Kall","type":"Kreisangehörige_Gemeinde"},"district":{"key":"05366","name":"Euskirchen","type":"Kreis"},"federalState":{"key":"05","name":"Nordrhein-Westfalen"}},{"name":"Raiffeisenstr.","postalCode":"53925","locality":"Kall","municipality":{"key":"05366024","name":"Kall","type":"Kreisangehörige_Gemeinde"},"district":{"key":"05366","name":"Euskirchen","type":"Kreis"},"federalState":{"key":"05","name":"Nordrhein-Westfalen"}},{"name":"Rainweg","postalCode":"32689","locality":"Kalletal","municipality":{"key":"05766036","name":"Kalletal","type":"Kreisangehörige_Gemeinde"},"district":{"key":"05766","name":"Lippe","type":"Kreis"},"federalState":{"key":"05","name":"Nordrhein-Westfalen"}},{"name":"Ranzenbergweg","postalCode":"32689","locality":"Kalletal","municipality":{"key":"05766036","name":"Kalletal","type":"Kreisangehörige_Gemeinde"},"district":{"key":"05766","name":"Lippe","type":"Kreis"},"federalState":{"key":"05","name":"Nordrhein-Westfalen"}},{"name":"Rastplatz Osterkalle","postalCode":"32689","locality":"Kalletal","municipality":{"key":"05766036","name":"Kalletal","type":"Kreisangehörige_Gemeinde"},"district":{"key":"05766","name":"Lippe","type":"Kreis"},"federalState":{"key":"05","name":"Nordrhein-Westfalen"}},{"name":"Rautenfeld","postalCode":"32689","locality":"Kalletal","municipality":{"key":"05766036","name":"Kalletal","type":"Kreisangehörige_Gemeinde"},"district":{"key":"05766","name":"Lippe","type":"Kreis"},"federalState":{"key":"05","name":"Nordrhein-Westfalen"}},{"name":"Reisental","postalCode":"32689","locality":"Kalletal","municipality":{"key":"05766036","name":"Kalletal","type":"Kreisangehörige_Gemeinde"},"district":{"key":"05766","name":"Lippe","type":"Kreis"},"federalState":{"key":"05","name":"Nordrhein-Westfalen"}},{"name":"Rentorf","postalCode":"32689","locality":"Kalletal","municipality":{"key":"05766036","name":"Kalletal","type":"Kreisangehörige_Gemeinde"},"district":{"key":"05766","name":"Lippe","type":"Kreis"},"federalState":{"key":"05","name":"Nordrhein-Westfalen"}},{"name":"Riedweg","postalCode":"53925","locality":"Kall","municipality":{"key":"05366024","name":"Kall","type":"Kreisangehörige_Gemeinde"},"district":{"key":"05366","name":"Euskirchen","type":"Kreis"},"federalState":{"key":"05","name":"Nordrhein-Westfalen"}},{"name":"Riedweg","postalCode":"67169","locality":"Kallstadt","municipality":{"key":"07332028","name":"Kallstadt","type":"Kreisangehörige_Gemeinde"},"district":{"key":"07332","name":"Bad Dürkheim","type":"Landkreis"},"federalState":{"key":"07","name":"Rheinland-Pfalz"}},{"name":"Ringelbreite","postalCode":"32689","locality":"Kalletal","municipality":{"key":"05766036","name":"Kalletal","type":"Kreisangehörige_Gemeinde"},"district":{"key":"05766","name":"Lippe","type":"Kreis"},"federalState":{"key":"05","name":"Nordrhein-Westfalen"}},{"name":"Ringstr.","postalCode":"32689","locality":"Kalletal","municipality":{"key":"05766036","name":"Kalletal","type":"Kreisangehörige_Gemeinde"},"district":{"key":"05766","name":"Lippe","type":"Kreis"},"federalState":{"key":"05","name":"Nordrhein-Westfalen"}},{"name":"Ringstr.","postalCode":"53925","locality":"Kall","municipality":{"key":"05366024","name":"Kall","type":"Kreisangehörige_Gemeinde"},"district":{"key":"05366","name":"Euskirchen","type":"Kreis"},"federalState":{"key":"05","name":"Nordrhein-Westfalen"}},{"name":"Ringstr.","postalCode":"93183","locality":"Kallmünz","municipality":{"key":"09375156","name":"Kallmünz, M","type":"Markt"},"district":{"key":"09375","name":"Regensburg","type":"Landkreis"},"federalState":{"key":"09","name":"Bayern"}},{"name":"Rinner Str.","postalCode":"53925","locality":"Kall","municipality":{"key":"05366024","name":"Kall","type":"Kreisangehörige_Gemeinde"},"district":{"key":"05366","name":"Euskirchen","type":"Kreis"},"federalState":{"key":"05","name":"Nordrhein-Westfalen"}},{"name":"Rintelner Str.","postalCode":"32689","locality":"Kalletal","municipality":{"key":"05766036","name":"Kalletal","type":"Kreisangehörige_Gemeinde"},"district":{"key":"05766","name":"Lippe","type":"Kreis"},"federalState":{"key":"05","name":"Nordrhein-Westfalen"}},{"name":"Rochusstr.","postalCode":"53925","locality":"Kall","municipality":{"key":"05366024","name":"Kall","type":"Kreisangehörige_Gemeinde"},"district":{"key":"05366","name":"Euskirchen","type":"Kreis"},"federalState":{"key":"05","name":"Nordrhein-Westfalen"}},{"name":"Rohrbacher Weg","postalCode":"93183","locality":"Kallmünz","municipality":{"key":"09375156","name":"Kallmünz, M","type":"Markt"},"district":{"key":"09375","name":"Regensburg","type":"Landkreis"},"federalState":{"key":"09","name":"Bayern"}},{"name":"Römerstr.","postalCode":"53925","locality":"Kall","municipality":{"key":"05366024","name":"Kall","type":"Kreisangehörige_Gemeinde"},"district":{"key":"05366","name":"Euskirchen","type":"Kreis"},"federalState":{"key":"05","name":"Nordrhein-Westfalen"}},{"name":"Römerweg","postalCode":"32689","locality":"Kalletal","municipality":{"key":"05766036","name":"Kalletal","type":"Kreisangehörige_Gemeinde"},"district":{"key":"05766","name":"Lippe","type":"Kreis"},"federalState":{"key":"05","name":"Nordrhein-Westfalen"}},{"name":"Ronnstr.","postalCode":"53925","locality":"Kall","municipality":{"key":"05366024","name":"Kall","type":"Kreisangehörige_Gemeinde"},"district":{"key":"05366","name":"Euskirchen","type":"Kreis"},"federalState":{"key":"05","name":"Nordrhein-Westfalen"}},{"name":"Röntorf","postalCode":"32689","locality":"Kalletal","municipality":{"key":"05766036","name":"Kalletal","type":"Kreisangehörige_Gemeinde"},"district":{"key":"05766","name":"Lippe","type":"Kreis"},"federalState":{"key":"05","name":"Nordrhein-Westfalen"}},{"name":"Roseneck","postalCode":"32689","locality":"Kalletal","municipality":{"key":"05766036","name":"Kalletal","type":"Kreisangehörige_Gemeinde"},"district":{"key":"05766","name":"Lippe","type":"Kreis"},"federalState":{"key":"05","name":"Nordrhein-Westfalen"}},{"name":"Rosenhöhe","postalCode":"32689","locality":"Kalletal","municipality":{"key":"05766036","name":"Kalletal","type":"Kreisangehörige_Gemeinde"},"district":{"key":"05766","name":"Lippe","type":"Kreis"},"federalState":{"key":"05","name":"Nordrhein-Westfalen"}},{"name":"Rosenstr.","postalCode":"53925","locality":"Kall","municipality":{"key":"05366024","name":"Kall","type":"Kreisangehörige_Gemeinde"},"district":{"key":"05366","name":"Euskirchen","type":"Kreis"},"federalState":{"key":"05","name":"Nordrhein-Westfalen"}},{"name":"Rosentwete","postalCode":"32689","locality":"Kalletal","municipality":{"key":"05766036","name":"Kalletal","type":"Kreisangehörige_Gemeinde"},"district":{"key":"05766","name":"Lippe","type":"Kreis"},"federalState":{"key":"05","name":"Nordrhein-Westfalen"}},{"name":"Rosenweg","postalCode":"32689","locality":"Kalletal","municipality":{"key":"05766036","name":"Kalletal","type":"Kreisangehörige_Gemeinde"},"district":{"key":"05766","name":"Lippe","type":"Kreis"},"federalState":{"key":"05","name":"Nordrhein-Westfalen"}},{"name":"Rosterbenden","postalCode":"53925","locality":"Kall","municipality":{"key":"05366024","name":"Kall","type":"Kreisangehörige_Gemeinde"},"district":{"key":"05366","name":"Euskirchen","type":"Kreis"},"federalState":{"key":"05","name":"Nordrhein-Westfalen"}},{"name":"Rotkehlchenweg","postalCode":"53925","locality":"Kall","municipality":{"key":"05366024","name":"Kall","type":"Kreisangehörige_Gemeinde"},"district":{"key":"05366","name":"Euskirchen","type":"Kreis"},"federalState":{"key":"05","name":"Nordrhein-Westfalen"}},{"name":"Rudi-Thieme-Weg","postalCode":"32689","locality":"Kalletal","municipality":{"key":"05766036","name":"Kalletal","type":"Kreisangehörige_Gemeinde"},"district":{"key":"05766","name":"Lippe","type":"Kreis"},"federalState":{"key":"05","name":"Nordrhein-Westfalen"}},{"name":"Rüther Str.","postalCode":"53925","locality":"Kall","municipality":{"key":"05366024","name":"Kall","type":"Kreisangehörige_Gemeinde"},"district":{"key":"05366","name":"Euskirchen","type":"Kreis"},"federalState":{"key":"05","name":"Nordrhein-Westfalen"}},{"name":"Rutscheid","postalCode":"53925","locality":"Kall","municipality":{"key":"05366024","name":"Kall","type":"Kreisangehörige_Gemeinde"},"district":{"key":"05366","name":"Euskirchen","type":"Kreis"},"federalState":{"key":"05","name":"Nordrhein-Westfalen"}},{"name":"Salberbach","postalCode":"53925","locality":"Kall","municipality":{"key":"05366024","name":"Kall","type":"Kreisangehörige_Gemeinde"},"district":{"key":"05366","name":"Euskirchen","type":"Kreis"},"federalState":{"key":"05","name":"Nordrhein-Westfalen"}},{"name":"Sankt-Wolfgang-Str.","postalCode":"93183","locality":"Kallmünz","municipality":{"key":"09375156","name":"Kallmünz, M","type":"Markt"},"district":{"key":"09375","name":"Regensburg","type":"Landkreis"},"federalState":{"key":"09","name":"Bayern"}},{"name":"Schergasse","postalCode":"53925","locality":"Kall","municipality":{"key":"05366024","name":"Kall","type":"Kreisangehörige_Gemeinde"},"district":{"key":"05366","name":"Euskirchen","type":"Kreis"},"federalState":{"key":"05","name":"Nordrhein-Westfalen"}},{"name":"Schevener Str.","postalCode":"53925","locality":"Kall","municipality":{"key":"05366024","name":"Kall","type":"Kreisangehörige_Gemeinde"},"district":{"key":"05366","name":"Euskirchen","type":"Kreis"},"federalState":{"key":"05","name":"Nordrhein-Westfalen"}},{"name":"Schlehenweg","postalCode":"53925","locality":"Kall","municipality":{"key":"05366024","name":"Kall","type":"Kreisangehörige_Gemeinde"},"district":{"key":"05366","name":"Euskirchen","type":"Kreis"},"federalState":{"key":"05","name":"Nordrhein-Westfalen"}},{"name":"Schleidener Str.","postalCode":"53925","locality":"Kall","municipality":{"key":"05366024","name":"Kall","type":"Kreisangehörige_Gemeinde"},"district":{"key":"05366","name":"Euskirchen","type":"Kreis"},"federalState":{"key":"05","name":"Nordrhein-Westfalen"}},{"name":"Schlenkenweg","postalCode":"32689","locality":"Kalletal","municipality":{"key":"05766036","name":"Kalletal","type":"Kreisangehörige_Gemeinde"},"district":{"key":"05766","name":"Lippe","type":"Kreis"},"federalState":{"key":"05","name":"Nordrhein-Westfalen"}},{"name":"Schloßstr.","postalCode":"32689","locality":"Kalletal","municipality":{"key":"05766036","name":"Kalletal","type":"Kreisangehörige_Gemeinde"},"district":{"key":"05766","name":"Lippe","type":"Kreis"},"federalState":{"key":"05","name":"Nordrhein-Westfalen"}},{"name":"Schloßweg","postalCode":"93183","locality":"Kallmünz","municipality":{"key":"09375156","name":"Kallmünz, M","type":"Markt"},"district":{"key":"09375","name":"Regensburg","type":"Landkreis"},"federalState":{"key":"09","name":"Bayern"}},{"name":"Schmidgassl","postalCode":"93183","locality":"Kallmünz","municipality":{"key":"09375156","name":"Kallmünz, M","type":"Markt"},"district":{"key":"09375","name":"Regensburg","type":"Landkreis"},"federalState":{"key":"09","name":"Bayern"}},{"name":"Schmiedeberg","postalCode":"32689","locality":"Kalletal","municipality":{"key":"05766036","name":"Kalletal","type":"Kreisangehörige_Gemeinde"},"district":{"key":"05766","name":"Lippe","type":"Kreis"},"federalState":{"key":"05","name":"Nordrhein-Westfalen"}},{"name":"Schmiedegasse","postalCode":"53925","locality":"Kall","municipality":{"key":"05366024","name":"Kall","type":"Kreisangehörige_Gemeinde"},"district":{"key":"05366","name":"Euskirchen","type":"Kreis"},"federalState":{"key":"05","name":"Nordrhein-Westfalen"}},{"name":"Schmiedhof","postalCode":"32689","locality":"Kalletal","municipality":{"key":"05766036","name":"Kalletal","type":"Kreisangehörige_Gemeinde"},"district":{"key":"05766","name":"Lippe","type":"Kreis"},"federalState":{"key":"05","name":"Nordrhein-Westfalen"}},{"name":"Schülerstr.","postalCode":"32689","locality":"Kalletal","municipality":{"key":"05766036","name":"Kalletal","type":"Kreisangehörige_Gemeinde"},"district":{"key":"05766","name":"Lippe","type":"Kreis"},"federalState":{"key":"05","name":"Nordrhein-Westfalen"}},{"name":"Schulhof","postalCode":"67169","locality":"Kallstadt","municipality":{"key":"07332028","name":"Kallstadt","type":"Kreisangehörige_Gemeinde"},"district":{"key":"07332","name":"Bad Dürkheim","type":"Landkreis"},"federalState":{"key":"07","name":"Rheinland-Pfalz"}},{"name":"Schulstr.","postalCode":"32689","locality":"Kalletal","municipality":{"key":"05766036","name":"Kalletal","type":"Kreisangehörige_Gemeinde"},"district":{"key":"05766","name":"Lippe","type":"Kreis"},"federalState":{"key":"05","name":"Nordrhein-Westfalen"}},{"name":"Schulstr.","postalCode":"53925","locality":"Kall","municipality":{"key":"05366024","name":"Kall","type":"Kreisangehörige_Gemeinde"},"district":{"key":"05366","name":"Euskirchen","type":"Kreis"},"federalState":{"key":"05","name":"Nordrhein-Westfalen"}},{"name":"Schulweg","postalCode":"32689","locality":"Kalletal","municipality":{"key":"05766036","name":"Kalletal","type":"Kreisangehörige_Gemeinde"},"district":{"key":"05766","name":"Lippe","type":"Kreis"},"federalState":{"key":"05","name":"Nordrhein-Westfalen"}},{"name":"Schulweg","postalCode":"93183","locality":"Kallmünz","municipality":{"key":"09375156","name":"Kallmünz, M","type":"Markt"},"district":{"key":"09375","name":"Regensburg","type":"Landkreis"},"federalState":{"key":"09","name":"Bayern"}},{"name":"Schürenbreder Weg","postalCode":"32689","locality":"Kalletal","municipality":{"key":"05766036","name":"Kalletal","type":"Kreisangehörige_Gemeinde"},"district":{"key":"05766","name":"Lippe","type":"Kreis"},"federalState":{"key":"05","name":"Nordrhein-Westfalen"}},{"name":"Schusterberg","postalCode":"32689","locality":"Kalletal","municipality":{"key":"05766036","name":"Kalletal","type":"Kreisangehörige_Gemeinde"},"district":{"key":"05766","name":"Lippe","type":"Kreis"},"federalState":{"key":"05","name":"Nordrhein-Westfalen"}},{"name":"Schützenstr.","postalCode":"53925","locality":"Kall","municipality":{"key":"05366024","name":"Kall","type":"Kreisangehörige_Gemeinde"},"district":{"key":"05366","name":"Euskirchen","type":"Kreis"},"federalState":{"key":"05","name":"Nordrhein-Westfalen"}},{"name":"Schwalbenweg","postalCode":"53925","locality":"Kall","municipality":{"key":"05366024","name":"Kall","type":"Kreisangehörige_Gemeinde"},"district":{"key":"05366","name":"Euskirchen","type":"Kreis"},"federalState":{"key":"05","name":"Nordrhein-Westfalen"}},{"name":"Seeweg","postalCode":"32689","locality":"Kalletal","municipality":{"key":"05766036","name":"Kalletal","type":"Kreisangehörige_Gemeinde"},"district":{"key":"05766","name":"Lippe","type":"Kreis"},"federalState":{"key":"05","name":"Nordrhein-Westfalen"}},{"name":"Sellberg","postalCode":"32689","locality":"Kalletal","municipality":{"key":"05766036","name":"Kalletal","type":"Kreisangehörige_Gemeinde"},"district":{"key":"05766","name":"Lippe","type":"Kreis"},"federalState":{"key":"05","name":"Nordrhein-Westfalen"}},{"name":"Sellworth","postalCode":"32689","locality":"Kalletal","municipality":{"key":"05766036","name":"Kalletal","type":"Kreisangehörige_Gemeinde"},"district":{"key":"05766","name":"Lippe","type":"Kreis"},"federalState":{"key":"05","name":"Nordrhein-Westfalen"}},{"name":"Selser Str.","postalCode":"32689","locality":"Kalletal","municipality":{"key":"05766036","name":"Kalletal","type":"Kreisangehörige_Gemeinde"},"district":{"key":"05766","name":"Lippe","type":"Kreis"},"federalState":{"key":"05","name":"Nordrhein-Westfalen"}},{"name":"Siebertzfeld","postalCode":"53925","locality":"Kall","municipality":{"key":"05366024","name":"Kall","type":"Kreisangehörige_Gemeinde"},"district":{"key":"05366","name":"Euskirchen","type":"Kreis"},"federalState":{"key":"05","name":"Nordrhein-Westfalen"}},{"name":"Siek","postalCode":"32689","locality":"Kalletal","municipality":{"key":"05766036","name":"Kalletal","type":"Kreisangehörige_Gemeinde"},"district":{"key":"05766","name":"Lippe","type":"Kreis"},"federalState":{"key":"05","name":"Nordrhein-Westfalen"}},{"name":"Siemensring","postalCode":"53925","locality":"Kall","municipality":{"key":"05366024","name":"Kall","type":"Kreisangehörige_Gemeinde"},"district":{"key":"05366","name":"Euskirchen","type":"Kreis"},"federalState":{"key":"05","name":"Nordrhein-Westfalen"}},{"name":"Sistaler Str.","postalCode":"53925","locality":"Kall","municipality":{"key":"05366024","name":"Kall","type":"Kreisangehörige_Gemeinde"},"district":{"key":"05366","name":"Euskirchen","type":"Kreis"},"federalState":{"key":"05","name":"Nordrhein-Westfalen"}},{"name":"Sonnenweg","postalCode":"53925","locality":"Kall","municipality":{"key":"05366024","name":"Kall","type":"Kreisangehörige_Gemeinde"},"district":{"key":"05366","name":"Euskirchen","type":"Kreis"},"federalState":{"key":"05","name":"Nordrhein-Westfalen"}},{"name":"Sötenicher Str.","postalCode":"53925","locality":"Kall","municipality":{"key":"05366024","name":"Kall","type":"Kreisangehörige_Gemeinde"},"district":{"key":"05366","name":"Euskirchen","type":"Kreis"},"federalState":{"key":"05","name":"Nordrhein-Westfalen"}},{"name":"Spelzberg","postalCode":"53925","locality":"Kall","municipality":{"key":"05366024","name":"Kall","type":"Kreisangehörige_Gemeinde"},"district":{"key":"05366","name":"Euskirchen","type":"Kreis"},"federalState":{"key":"05","name":"Nordrhein-Westfalen"}},{"name":"Spielplatz Lohberg - Auf dem Stein","postalCode":"32689","locality":"Kalletal","municipality":{"key":"05766036","name":"Kalletal","type":"Kreisangehörige_Gemeinde"},"district":{"key":"05766","name":"Lippe","type":"Kreis"},"federalState":{"key":"05","name":"Nordrhein-Westfalen"}},{"name":"Spittelberg","postalCode":"93183","locality":"Kallmünz","municipality":{"key":"09375156","name":"Kallmünz, M","type":"Markt"},"district":{"key":"09375","name":"Regensburg","type":"Landkreis"},"federalState":{"key":"09","name":"Bayern"}},{"name":"Starenweg","postalCode":"53925","locality":"Kall","municipality":{"key":"05366024","name":"Kall","type":"Kreisangehörige_Gemeinde"},"district":{"key":"05366","name":"Euskirchen","type":"Kreis"},"federalState":{"key":"05","name":"Nordrhein-Westfalen"}},{"name":"Steinbrede","postalCode":"32689","locality":"Kalletal","municipality":{"key":"05766036","name":"Kalletal","type":"Kreisangehörige_Gemeinde"},"district":{"key":"05766","name":"Lippe","type":"Kreis"},"federalState":{"key":"05","name":"Nordrhein-Westfalen"}},{"name":"Steinbrink","postalCode":"32689","locality":"Kalletal","municipality":{"key":"05766036","name":"Kalletal","type":"Kreisangehörige_Gemeinde"},"district":{"key":"05766","name":"Lippe","type":"Kreis"},"federalState":{"key":"05","name":"Nordrhein-Westfalen"}},{"name":"Steinbusch","postalCode":"53925","locality":"Kall","municipality":{"key":"05366024","name":"Kall","type":"Kreisangehörige_Gemeinde"},"district":{"key":"05366","name":"Euskirchen","type":"Kreis"},"federalState":{"key":"05","name":"Nordrhein-Westfalen"}},{"name":"Steinegge","postalCode":"32689","locality":"Kalletal","municipality":{"key":"05766036","name":"Kalletal","type":"Kreisangehörige_Gemeinde"},"district":{"key":"05766","name":"Lippe","type":"Kreis"},"federalState":{"key":"05","name":"Nordrhein-Westfalen"}},{"name":"Steinfelder Str.","postalCode":"53925","locality":"Kall","municipality":{"key":"05366024","name":"Kall","type":"Kreisangehörige_Gemeinde"},"district":{"key":"05366","name":"Euskirchen","type":"Kreis"},"federalState":{"key":"05","name":"Nordrhein-Westfalen"}},{"name":"Steinstr.","postalCode":"32689","locality":"Kalletal","municipality":{"key":"05766036","name":"Kalletal","type":"Kreisangehörige_Gemeinde"},"district":{"key":"05766","name":"Lippe","type":"Kreis"},"federalState":{"key":"05","name":"Nordrhein-Westfalen"}},{"name":"Steinstr.","postalCode":"53925","locality":"Kall","municipality":{"key":"05366024","name":"Kall","type":"Kreisangehörige_Gemeinde"},"district":{"key":"05366","name":"Euskirchen","type":"Kreis"},"federalState":{"key":"05","name":"Nordrhein-Westfalen"}},{"name":"Steinweg","postalCode":"32689","locality":"Kalletal","municipality":{"key":"05766036","name":"Kalletal","type":"Kreisangehörige_Gemeinde"},"district":{"key":"05766","name":"Lippe","type":"Kreis"},"federalState":{"key":"05","name":"Nordrhein-Westfalen"}},{"name":"Stemmer Str.","postalCode":"32689","locality":"Kalletal","municipality":{"key":"05766036","name":"Kalletal","type":"Kreisangehörige_Gemeinde"},"district":{"key":"05766","name":"Lippe","type":"Kreis"},"federalState":{"key":"05","name":"Nordrhein-Westfalen"}},{"name":"Stiller Winkel","postalCode":"32689","locality":"Kalletal","municipality":{"key":"05766036","name":"Kalletal","type":"Kreisangehörige_Gemeinde"},"district":{"key":"05766","name":"Lippe","type":"Kreis"},"federalState":{"key":"05","name":"Nordrhein-Westfalen"}},{"name":"Stollenweg","postalCode":"53925","locality":"Kall","municipality":{"key":"05366024","name":"Kall","type":"Kreisangehörige_Gemeinde"},"district":{"key":"05366","name":"Euskirchen","type":"Kreis"},"federalState":{"key":"05","name":"Nordrhein-Westfalen"}},{"name":"Stolzenburgstr.","postalCode":"53925","locality":"Kall","municipality":{"key":"05366024","name":"Kall","type":"Kreisangehörige_Gemeinde"},"district":{"key":"05366","name":"Euskirchen","type":"Kreis"},"federalState":{"key":"05","name":"Nordrhein-Westfalen"}},{"name":"Straßbüscher Weg","postalCode":"53925","locality":"Kall","municipality":{"key":"05366024","name":"Kall","type":"Kreisangehörige_Gemeinde"},"district":{"key":"05366","name":"Euskirchen","type":"Kreis"},"federalState":{"key":"05","name":"Nordrhein-Westfalen"}},{"name":"Taller Brede","postalCode":"32689","locality":"Kalletal","municipality":{"key":"05766036","name":"Kalletal","type":"Kreisangehörige_Gemeinde"},"district":{"key":"05766","name":"Lippe","type":"Kreis"},"federalState":{"key":"05","name":"Nordrhein-Westfalen"}},{"name":"Taller Str.","postalCode":"32689","locality":"Kalletal","municipality":{"key":"05766036","name":"Kalletal","type":"Kreisangehörige_Gemeinde"},"district":{"key":"05766","name":"Lippe","type":"Kreis"},"federalState":{"key":"05","name":"Nordrhein-Westfalen"}},{"name":"Talstr.","postalCode":"32689","locality":"Kalletal","municipality":{"key":"05766036","name":"Kalletal","type":"Kreisangehörige_Gemeinde"},"district":{"key":"05766","name":"Lippe","type":"Kreis"},"federalState":{"key":"05","name":"Nordrhein-Westfalen"}},{"name":"Talweg","postalCode":"53925","locality":"Kall","municipality":{"key":"05366024","name":"Kall","type":"Kreisangehörige_Gemeinde"},"district":{"key":"05366","name":"Euskirchen","type":"Kreis"},"federalState":{"key":"05","name":"Nordrhein-Westfalen"}},{"name":"Tannenhofstr.","postalCode":"32689","locality":"Kalletal","municipality":{"key":"05766036","name":"Kalletal","type":"Kreisangehörige_Gemeinde"},"district":{"key":"05766","name":"Lippe","type":"Kreis"},"federalState":{"key":"05","name":"Nordrhein-Westfalen"}},{"name":"Tannenweg","postalCode":"32689","locality":"Kalletal","municipality":{"key":"05766036","name":"Kalletal","type":"Kreisangehörige_Gemeinde"},"district":{"key":"05766","name":"Lippe","type":"Kreis"},"federalState":{"key":"05","name":"Nordrhein-Westfalen"}},{"name":"Tannenweg","postalCode":"53925","locality":"Kall","municipality":{"key":"05366024","name":"Kall","type":"Kreisangehörige_Gemeinde"},"district":{"key":"05366","name":"Euskirchen","type":"Kreis"},"federalState":{"key":"05","name":"Nordrhein-Westfalen"}},{"name":"Tanzbergstr.","postalCode":"53925","locality":"Kall","municipality":{"key":"05366024","name":"Kall","type":"Kreisangehörige_Gemeinde"},"district":{"key":"05366","name":"Euskirchen","type":"Kreis"},"federalState":{"key":"05","name":"Nordrhein-Westfalen"}},{"name":"Teichweg","postalCode":"32689","locality":"Kalletal","municipality":{"key":"05766036","name":"Kalletal","type":"Kreisangehörige_Gemeinde"},"district":{"key":"05766","name":"Lippe","type":"Kreis"},"federalState":{"key":"05","name":"Nordrhein-Westfalen"}},{"name":"Tevenhauser Str.","postalCode":"32689","locality":"Kalletal","municipality":{"key":"05766036","name":"Kalletal","type":"Kreisangehörige_Gemeinde"},"district":{"key":"05766","name":"Lippe","type":"Kreis"},"federalState":{"key":"05","name":"Nordrhein-Westfalen"}},{"name":"Thyssenstr.","postalCode":"53925","locality":"Kall","municipality":{"key":"05366024","name":"Kall","type":"Kreisangehörige_Gemeinde"},"district":{"key":"05366","name":"Euskirchen","type":"Kreis"},"federalState":{"key":"05","name":"Nordrhein-Westfalen"}},{"name":"Tiekbrede","postalCode":"32689","locality":"Kalletal","municipality":{"key":"05766036","name":"Kalletal","type":"Kreisangehörige_Gemeinde"},"district":{"key":"05766","name":"Lippe","type":"Kreis"},"federalState":{"key":"05","name":"Nordrhein-Westfalen"}},{"name":"Trierer Str.","postalCode":"53925","locality":"Kall","municipality":{"key":"05366024","name":"Kall","type":"Kreisangehörige_Gemeinde"},"district":{"key":"05366","name":"Euskirchen","type":"Kreis"},"federalState":{"key":"05","name":"Nordrhein-Westfalen"}},{"name":"Trifte","postalCode":"32689","locality":"Kalletal","municipality":{"key":"05766036","name":"Kalletal","type":"Kreisangehörige_Gemeinde"},"district":{"key":"05766","name":"Lippe","type":"Kreis"},"federalState":{"key":"05","name":"Nordrhein-Westfalen"}},{"name":"Triftenweg","postalCode":"32689","locality":"Kalletal","municipality":{"key":"05766036","name":"Kalletal","type":"Kreisangehörige_Gemeinde"},"district":{"key":"05766","name":"Lippe","type":"Kreis"},"federalState":{"key":"05","name":"Nordrhein-Westfalen"}},{"name":"Trotzenburg","postalCode":"32689","locality":"Kalletal","municipality":{"key":"05766036","name":"Kalletal","type":"Kreisangehörige_Gemeinde"},"district":{"key":"05766","name":"Lippe","type":"Kreis"},"federalState":{"key":"05","name":"Nordrhein-Westfalen"}},{"name":"Tulpenweg","postalCode":"32689","locality":"Kalletal","municipality":{"key":"05766036","name":"Kalletal","type":"Kreisangehörige_Gemeinde"},"district":{"key":"05766","name":"Lippe","type":"Kreis"},"federalState":{"key":"05","name":"Nordrhein-Westfalen"}},{"name":"Tulpenweg","postalCode":"53925","locality":"Kall","municipality":{"key":"05366024","name":"Kall","type":"Kreisangehörige_Gemeinde"},"district":{"key":"05366","name":"Euskirchen","type":"Kreis"},"federalState":{"key":"05","name":"Nordrhein-Westfalen"}},{"name":"Turnerstr.","postalCode":"32689","locality":"Kalletal","municipality":{"key":"05766036","name":"Kalletal","type":"Kreisangehörige_Gemeinde"},"district":{"key":"05766","name":"Lippe","type":"Kreis"},"federalState":{"key":"05","name":"Nordrhein-Westfalen"}},{"name":"Twelte","postalCode":"32689","locality":"Kalletal","municipality":{"key":"05766036","name":"Kalletal","type":"Kreisangehörige_Gemeinde"},"district":{"key":"05766","name":"Lippe","type":"Kreis"},"federalState":{"key":"05","name":"Nordrhein-Westfalen"}},{"name":"Uferstr.","postalCode":"53925","locality":"Kall","municipality":{"key":"05366024","name":"Kall","type":"Kreisangehörige_Gemeinde"},"district":{"key":"05366","name":"Euskirchen","type":"Kreis"},"federalState":{"key":"05","name":"Nordrhein-Westfalen"}},{"name":"Ulmenweg","postalCode":"53925","locality":"Kall","municipality":{"key":"05366024","name":"Kall","type":"Kreisangehörige_Gemeinde"},"district":{"key":"05366","name":"Euskirchen","type":"Kreis"},"federalState":{"key":"05","name":"Nordrhein-Westfalen"}},{"name":"Urfeyer Str.","postalCode":"53925","locality":"Kall","municipality":{"key":"05366024","name":"Kall","type":"Kreisangehörige_Gemeinde"},"district":{"key":"05366","name":"Euskirchen","type":"Kreis"},"federalState":{"key":"05","name":"Nordrhein-Westfalen"}},{"name":"Urfttalstr.","postalCode":"53925","locality":"Kall","municipality":{"key":"05366024","name":"Kall","type":"Kreisangehörige_Gemeinde"},"district":{"key":"05366","name":"Euskirchen","type":"Kreis"},"federalState":{"key":"05","name":"Nordrhein-Westfalen"}},{"name":"Ursulastr.","postalCode":"53925","locality":"Kall","municipality":{"key":"05366024","name":"Kall","type":"Kreisangehörige_Gemeinde"},"district":{"key":"05366","name":"Euskirchen","type":"Kreis"},"federalState":{"key":"05","name":"Nordrhein-Westfalen"}},{"name":"Varenholzer Str.","postalCode":"32689","locality":"Kalletal","municipality":{"key":"05766036","name":"Kalletal","type":"Kreisangehörige_Gemeinde"},"district":{"key":"05766","name":"Lippe","type":"Kreis"},"federalState":{"key":"05","name":"Nordrhein-Westfalen"}},{"name":"Veilchenweg","postalCode":"53925","locality":"Kall","municipality":{"key":"05366024","name":"Kall","type":"Kreisangehörige_Gemeinde"},"district":{"key":"05366","name":"Euskirchen","type":"Kreis"},"federalState":{"key":"05","name":"Nordrhein-Westfalen"}},{"name":"Vennstr.","postalCode":"53925","locality":"Kall","municipality":{"key":"05366024","name":"Kall","type":"Kreisangehörige_Gemeinde"},"district":{"key":"05366","name":"Euskirchen","type":"Kreis"},"federalState":{"key":"05","name":"Nordrhein-Westfalen"}},{"name":"Vilsgasse","postalCode":"93183","locality":"Kallmünz","municipality":{"key":"09375156","name":"Kallmünz, M","type":"Markt"},"district":{"key":"09375","name":"Regensburg","type":"Landkreis"},"federalState":{"key":"09","name":"Bayern"}},{"name":"Vlothoer Str.","postalCode":"32689","locality":"Kalletal","municipality":{"key":"05766036","name":"Kalletal","type":"Kreisangehörige_Gemeinde"},"district":{"key":"05766","name":"Lippe","type":"Kreis"},"federalState":{"key":"05","name":"Nordrhein-Westfalen"}},{"name":"Voißeler Str.","postalCode":"53925","locality":"Kall","municipality":{"key":"05366024","name":"Kall","type":"Kreisangehörige_Gemeinde"},"district":{"key":"05366","name":"Euskirchen","type":"Kreis"},"federalState":{"key":"05","name":"Nordrhein-Westfalen"}},{"name":"Vorm Kalfhagen","postalCode":"32689","locality":"Kalletal","municipality":{"key":"05766036","name":"Kalletal","type":"Kreisangehörige_Gemeinde"},"district":{"key":"05766","name":"Lippe","type":"Kreis"},"federalState":{"key":"05","name":"Nordrhein-Westfalen"}},{"name":"Vor'm Keller","postalCode":"32689","locality":"Kalletal","municipality":{"key":"05766036","name":"Kalletal","type":"Kreisangehörige_Gemeinde"},"district":{"key":"05766","name":"Lippe","type":"Kreis"},"federalState":{"key":"05","name":"Nordrhein-Westfalen"}},{"name":"Wacholderweg","postalCode":"53925","locality":"Kall","municipality":{"key":"05366024","name":"Kall","type":"Kreisangehörige_Gemeinde"},"district":{"key":"05366","name":"Euskirchen","type":"Kreis"},"federalState":{"key":"05","name":"Nordrhein-Westfalen"}},{"name":"Wahlener Str.","postalCode":"53925","locality":"Kall","municipality":{"key":"05366024","name":"Kall","type":"Kreisangehörige_Gemeinde"},"district":{"key":"05366","name":"Euskirchen","type":"Kreis"},"federalState":{"key":"05","name":"Nordrhein-Westfalen"}},{"name":"Waldstr.","postalCode":"32689","locality":"Kalletal","municipality":{"key":"05766036","name":"Kalletal","type":"Kreisangehörige_Gemeinde"},"district":{"key":"05766","name":"Lippe","type":"Kreis"},"federalState":{"key":"05","name":"Nordrhein-Westfalen"}},{"name":"Waldstr.","postalCode":"53925","locality":"Kall","municipality":{"key":"05366024","name":"Kall","type":"Kreisangehörige_Gemeinde"},"district":{"key":"05366","name":"Euskirchen","type":"Kreis"},"federalState":{"key":"05","name":"Nordrhein-Westfalen"}},{"name":"Wallenthalerhöhe","postalCode":"53925","locality":"Kall","municipality":{"key":"05366024","name":"Kall","type":"Kreisangehörige_Gemeinde"},"district":{"key":"05366","name":"Euskirchen","type":"Kreis"},"federalState":{"key":"05","name":"Nordrhein-Westfalen"}},{"name":"Wallenthaler Str.","postalCode":"53925","locality":"Kall","municipality":{"key":"05366024","name":"Kall","type":"Kreisangehörige_Gemeinde"},"district":{"key":"05366","name":"Euskirchen","type":"Kreis"},"federalState":{"key":"05","name":"Nordrhein-Westfalen"}},{"name":"Wallreckte","postalCode":"32689","locality":"Kalletal","municipality":{"key":"05766036","name":"Kalletal","type":"Kreisangehörige_Gemeinde"},"district":{"key":"05766","name":"Lippe","type":"Kreis"},"federalState":{"key":"05","name":"Nordrhein-Westfalen"}},{"name":"Wasserfurche","postalCode":"32689","locality":"Kalletal","municipality":{"key":"05766036","name":"Kalletal","type":"Kreisangehörige_Gemeinde"},"district":{"key":"05766","name":"Lippe","type":"Kreis"},"federalState":{"key":"05","name":"Nordrhein-Westfalen"}},{"name":"Wassiliy-Kandinsky-Str.","postalCode":"93183","locality":"Kallmünz","municipality":{"key":"09375156","name":"Kallmünz, M","type":"Markt"},"district":{"key":"09375","name":"Regensburg","type":"Landkreis"},"federalState":{"key":"09","name":"Bayern"}},{"name":"Waterloo","postalCode":"32689","locality":"Kalletal","municipality":{"key":"05766036","name":"Kalletal","type":"Kreisangehörige_Gemeinde"},"district":{"key":"05766","name":"Lippe","type":"Kreis"},"federalState":{"key":"05","name":"Nordrhein-Westfalen"}},{"name":"Weidenstr.","postalCode":"32689","locality":"Kalletal","municipality":{"key":"05766036","name":"Kalletal","type":"Kreisangehörige_Gemeinde"},"district":{"key":"05766","name":"Lippe","type":"Kreis"},"federalState":{"key":"05","name":"Nordrhein-Westfalen"}},{"name":"Weidenstr.","postalCode":"53925","locality":"Kall","municipality":{"key":"05366024","name":"Kall","type":"Kreisangehörige_Gemeinde"},"district":{"key":"05366","name":"Euskirchen","type":"Kreis"},"federalState":{"key":"05","name":"Nordrhein-Westfalen"}},{"name":"Weiherbenden","postalCode":"53925","locality":"Kall","municipality":{"key":"05366024","name":"Kall","type":"Kreisangehörige_Gemeinde"},"district":{"key":"05366","name":"Euskirchen","type":"Kreis"},"federalState":{"key":"05","name":"Nordrhein-Westfalen"}},{"name":"Weinberg","postalCode":"32689","locality":"Kalletal","municipality":{"key":"05766036","name":"Kalletal","type":"Kreisangehörige_Gemeinde"},"district":{"key":"05766","name":"Lippe","type":"Kreis"},"federalState":{"key":"05","name":"Nordrhein-Westfalen"}},{"name":"Weinbergweg","postalCode":"32689","locality":"Kalletal","municipality":{"key":"05766036","name":"Kalletal","type":"Kreisangehörige_Gemeinde"},"district":{"key":"05766","name":"Lippe","type":"Kreis"},"federalState":{"key":"05","name":"Nordrhein-Westfalen"}},{"name":"Weinkamp","postalCode":"32689","locality":"Kalletal","municipality":{"key":"05766036","name":"Kalletal","type":"Kreisangehörige_Gemeinde"},"district":{"key":"05766","name":"Lippe","type":"Kreis"},"federalState":{"key":"05","name":"Nordrhein-Westfalen"}},{"name":"Weinstr.","postalCode":"67169","locality":"Kallstadt","municipality":{"key":"07332028","name":"Kallstadt","type":"Kreisangehörige_Gemeinde"},"district":{"key":"07332","name":"Bad Dürkheim","type":"Landkreis"},"federalState":{"key":"07","name":"Rheinland-Pfalz"}},{"name":"Weißdornweg","postalCode":"53925","locality":"Kall","municipality":{"key":"05366024","name":"Kall","type":"Kreisangehörige_Gemeinde"},"district":{"key":"05366","name":"Euskirchen","type":"Kreis"},"federalState":{"key":"05","name":"Nordrhein-Westfalen"}},{"name":"Wentorf","postalCode":"32689","locality":"Kalletal","municipality":{"key":"05766036","name":"Kalletal","type":"Kreisangehörige_Gemeinde"},"district":{"key":"05766","name":"Lippe","type":"Kreis"},"federalState":{"key":"05","name":"Nordrhein-Westfalen"}},{"name":"Werner-Schumacher-Str.","postalCode":"53925","locality":"Kall","municipality":{"key":"05366024","name":"Kall","type":"Kreisangehörige_Gemeinde"},"district":{"key":"05366","name":"Euskirchen","type":"Kreis"},"federalState":{"key":"05","name":"Nordrhein-Westfalen"}},{"name":"Weserstr.","postalCode":"32689","locality":"Kalletal","municipality":{"key":"05766036","name":"Kalletal","type":"Kreisangehörige_Gemeinde"},"district":{"key":"05766","name":"Lippe","type":"Kreis"},"federalState":{"key":"05","name":"Nordrhein-Westfalen"}},{"name":"Westacker","postalCode":"32689","locality":"Kalletal","municipality":{"key":"05766036","name":"Kalletal","type":"Kreisangehörige_Gemeinde"},"district":{"key":"05766","name":"Lippe","type":"Kreis"},"federalState":{"key":"05","name":"Nordrhein-Westfalen"}},{"name":"Westorfer Str.","postalCode":"32689","locality":"Kalletal","municipality":{"key":"05766036","name":"Kalletal","type":"Kreisangehörige_Gemeinde"},"district":{"key":"05766","name":"Lippe","type":"Kreis"},"federalState":{"key":"05","name":"Nordrhein-Westfalen"}},{"name":"Weststr.","postalCode":"53925","locality":"Kall","municipality":{"key":"05366024","name":"Kall","type":"Kreisangehörige_Gemeinde"},"district":{"key":"05366","name":"Euskirchen","type":"Kreis"},"federalState":{"key":"05","name":"Nordrhein-Westfalen"}},{"name":"Wiebesiek","postalCode":"32689","locality":"Kalletal","municipality":{"key":"05766036","name":"Kalletal","type":"Kreisangehörige_Gemeinde"},"district":{"key":"05766","name":"Lippe","type":"Kreis"},"federalState":{"key":"05","name":"Nordrhein-Westfalen"}},{"name":"Wiesengasse","postalCode":"67169","locality":"Kallstadt","municipality":{"key":"07332028","name":"Kallstadt","type":"Kreisangehörige_Gemeinde"},"district":{"key":"07332","name":"Bad Dürkheim","type":"Landkreis"},"federalState":{"key":"07","name":"Rheinland-Pfalz"}},{"name":"Wiesengrund","postalCode":"32689","locality":"Kalletal","municipality":{"key":"05766036","name":"Kalletal","type":"Kreisangehörige_Gemeinde"},"district":{"key":"05766","name":"Lippe","type":"Kreis"},"federalState":{"key":"05","name":"Nordrhein-Westfalen"}},{"name":"Wiesenstr.","postalCode":"32689","locality":"Kalletal","municipality":{"key":"05766036","name":"Kalletal","type":"Kreisangehörige_Gemeinde"},"district":{"key":"05766","name":"Lippe","type":"Kreis"},"federalState":{"key":"05","name":"Nordrhein-Westfalen"}},{"name":"Wiesenstr.","postalCode":"53925","locality":"Kall","municipality":{"key":"05366024","name":"Kall","type":"Kreisangehörige_Gemeinde"},"district":{"key":"05366","name":"Euskirchen","type":"Kreis"},"federalState":{"key":"05","name":"Nordrhein-Westfalen"}},{"name":"Wiesental","postalCode":"32689","locality":"Kalletal","municipality":{"key":"05766036","name":"Kalletal","type":"Kreisangehörige_Gemeinde"},"district":{"key":"05766","name":"Lippe","type":"Kreis"},"federalState":{"key":"05","name":"Nordrhein-Westfalen"}},{"name":"Wildenburger Str.","postalCode":"53925","locality":"Kall","municipality":{"key":"05366024","name":"Kall","type":"Kreisangehörige_Gemeinde"},"district":{"key":"05366","name":"Euskirchen","type":"Kreis"},"federalState":{"key":"05","name":"Nordrhein-Westfalen"}},{"name":"Wilhelm-von-Humboldt-Weg","postalCode":"32689","locality":"Kalletal","municipality":{"key":"05766036","name":"Kalletal","type":"Kreisangehörige_Gemeinde"},"district":{"key":"05766","name":"Lippe","type":"Kreis"},"federalState":{"key":"05","name":"Nordrhein-Westfalen"}},{"name":"Windmühlenstr.","postalCode":"32689","locality":"Kalletal","municipality":{"key":"05766036","name":"Kalletal","type":"Kreisangehörige_Gemeinde"},"district":{"key":"05766","name":"Lippe","type":"Kreis"},"federalState":{"key":"05","name":"Nordrhein-Westfalen"}},{"name":"Winkelweg","postalCode":"32689","locality":"Kalletal","municipality":{"key":"05766036","name":"Kalletal","type":"Kreisangehörige_Gemeinde"},"district":{"key":"05766","name":"Lippe","type":"Kreis"},"federalState":{"key":"05","name":"Nordrhein-Westfalen"}},{"name":"Winterberg","postalCode":"32689","locality":"Kalletal","municipality":{"key":"05766036","name":"Kalletal","type":"Kreisangehörige_Gemeinde"},"district":{"key":"05766","name":"Lippe","type":"Kreis"},"federalState":{"key":"05","name":"Nordrhein-Westfalen"}},{"name":"Winterbergstr.","postalCode":"32689","locality":"Kalletal","municipality":{"key":"05766036","name":"Kalletal","type":"Kreisangehörige_Gemeinde"},"district":{"key":"05766","name":"Lippe","type":"Kreis"},"federalState":{"key":"05","name":"Nordrhein-Westfalen"}},{"name":"Wintzener Weg","postalCode":"53925","locality":"Kall","municipality":{"key":"05366024","name":"Kall","type":"Kreisangehörige_Gemeinde"},"district":{"key":"05366","name":"Euskirchen","type":"Kreis"},"federalState":{"key":"05","name":"Nordrhein-Westfalen"}},{"name":"Wittelstr.","postalCode":"32689","locality":"Kalletal","municipality":{"key":"05766036","name":"Kalletal","type":"Kreisangehörige_Gemeinde"},"district":{"key":"05766","name":"Lippe","type":"Kreis"},"federalState":{"key":"05","name":"Nordrhein-Westfalen"}},{"name":"Wolfskaul","postalCode":"53925","locality":"Kall","municipality":{"key":"05366024","name":"Kall","type":"Kreisangehörige_Gemeinde"},"district":{"key":"05366","name":"Euskirchen","type":"Kreis"},"federalState":{"key":"05","name":"Nordrhein-Westfalen"}},{"name":"Zaunkönigstr.","postalCode":"53925","locality":"Kall","municipality":{"key":"05366024","name":"Kall","type":"Kreisangehörige_Gemeinde"},"district":{"key":"05366","name":"Euskirchen","type":"Kreis"},"federalState":{"key":"05","name":"Nordrhein-Westfalen"}},{"name":"Zinnstr.","postalCode":"53925","locality":"Kall","municipality":{"key":"05366024","name":"Kall","type":"Kreisangehörige_Gemeinde"},"district":{"key":"05366","name":"Euskirchen","type":"Kreis"},"federalState":{"key":"05","name":"Nordrhein-Westfalen"}},{"name":"Zum Beestental","postalCode":"53925","locality":"Kall","municipality":{"key":"05366024","name":"Kall","type":"Kreisangehörige_Gemeinde"},"district":{"key":"05366","name":"Euskirchen","type":"Kreis"},"federalState":{"key":"05","name":"Nordrhein-Westfalen"}},{"name":"Zum Eichtal","postalCode":"53925","locality":"Kall","municipality":{"key":"05366024","name":"Kall","type":"Kreisangehörige_Gemeinde"},"district":{"key":"05366","name":"Euskirchen","type":"Kreis"},"federalState":{"key":"05","name":"Nordrhein-Westfalen"}},{"name":"Zum Elzenberg","postalCode":"53925","locality":"Kall","municipality":{"key":"05366024","name":"Kall","type":"Kreisangehörige_Gemeinde"},"district":{"key":"05366","name":"Euskirchen","type":"Kreis"},"federalState":{"key":"05","name":"Nordrhein-Westfalen"}},{"name":"Zum Fahrenbach","postalCode":"53925","locality":"Kall","municipality":{"key":"05366024","name":"Kall","type":"Kreisangehörige_Gemeinde"},"district":{"key":"05366","name":"Euskirchen","type":"Kreis"},"federalState":{"key":"05","name":"Nordrhein-Westfalen"}},{"name":"Zum Felsblick","postalCode":"53925","locality":"Kall","municipality":{"key":"05366024","name":"Kall","type":"Kreisangehörige_Gemeinde"},"district":{"key":"05366","name":"Euskirchen","type":"Kreis"},"federalState":{"key":"05","name":"Nordrhein-Westfalen"}},{"name":"Zum Fischerberg","postalCode":"93183","locality":"Kallmünz","municipality":{"key":"09375156","name":"Kallmünz, M","type":"Markt"},"district":{"key":"09375","name":"Regensburg","type":"Landkreis"},"federalState":{"key":"09","name":"Bayern"}},{"name":"Zum Fischteich","postalCode":"32689","locality":"Kalletal","municipality":{"key":"05766036","name":"Kalletal","type":"Kreisangehörige_Gemeinde"},"district":{"key":"05766","name":"Lippe","type":"Kreis"},"federalState":{"key":"05","name":"Nordrhein-Westfalen"}},{"name":"Zum Fuchsenbügl","postalCode":"93183","locality":"Kallmünz","municipality":{"key":"09375156","name":"Kallmünz, M","type":"Markt"},"district":{"key":"09375","name":"Regensburg","type":"Landkreis"},"federalState":{"key":"09","name":"Bayern"}},{"name":"Zum Kalkwerk","postalCode":"53925","locality":"Kall","municipality":{"key":"05366024","name":"Kall","type":"Kreisangehörige_Gemeinde"},"district":{"key":"05366","name":"Euskirchen","type":"Kreis"},"federalState":{"key":"05","name":"Nordrhein-Westfalen"}},{"name":"Zum Königsborn","postalCode":"32689","locality":"Kalletal","municipality":{"key":"05766036","name":"Kalletal","type":"Kreisangehörige_Gemeinde"},"district":{"key":"05766","name":"Lippe","type":"Kreis"},"federalState":{"key":"05","name":"Nordrhein-Westfalen"}},{"name":"Zum Ostlandkreuz","postalCode":"53925","locality":"Kall","municipality":{"key":"05366024","name":"Kall","type":"Kreisangehörige_Gemeinde"},"district":{"key":"05366","name":"Euskirchen","type":"Kreis"},"federalState":{"key":"05","name":"Nordrhein-Westfalen"}},{"name":"Zum Rießen","postalCode":"32689","locality":"Kalletal","municipality":{"key":"05766036","name":"Kalletal","type":"Kreisangehörige_Gemeinde"},"district":{"key":"05766","name":"Lippe","type":"Kreis"},"federalState":{"key":"05","name":"Nordrhein-Westfalen"}},{"name":"Zum Rosental","postalCode":"53925","locality":"Kall","municipality":{"key":"05366024","name":"Kall","type":"Kreisangehörige_Gemeinde"},"district":{"key":"05366","name":"Euskirchen","type":"Kreis"},"federalState":{"key":"05","name":"Nordrhein-Westfalen"}},{"name":"Zum Schlagacker","postalCode":"93183","locality":"Kallmünz","municipality":{"key":"09375156","name":"Kallmünz, M","type":"Markt"},"district":{"key":"09375","name":"Regensburg","type":"Landkreis"},"federalState":{"key":"09","name":"Bayern"}},{"name":"Zum Solbad","postalCode":"32689","locality":"Kalletal","municipality":{"key":"05766036","name":"Kalletal","type":"Kreisangehörige_Gemeinde"},"district":{"key":"05766","name":"Lippe","type":"Kreis"},"federalState":{"key":"05","name":"Nordrhein-Westfalen"}},{"name":"Zum Wachtberg","postalCode":"53925","locality":"Kall","municipality":{"key":"05366024","name":"Kall","type":"Kreisangehörige_Gemeinde"},"district":{"key":"05366","name":"Euskirchen","type":"Kreis"},"federalState":{"key":"05","name":"Nordrhein-Westfalen"}},{"name":"Zum Wäldchen","postalCode":"53925","locality":"Kall","municipality":{"key":"05366024","name":"Kall","type":"Kreisangehörige_Gemeinde"},"district":{"key":"05366","name":"Euskirchen","type":"Kreis"},"federalState":{"key":"05","name":"Nordrhein-Westfalen"}},{"name":"Zum Weseranger","postalCode":"32689","locality":"Kalletal","municipality":{"key":"05766036","name":"Kalletal","type":"Kreisangehörige_Gemeinde"},"district":{"key":"05766","name":"Lippe","type":"Kreis"},"federalState":{"key":"05","name":"Nordrhein-Westfalen"}},]