[{"name":"Abt-Beda-Str.","postalCode":"88499","locality":"Riedlingen","municipality":{"key":"08426097","name":"Riedlingen, Stadt","type":"Stadt"},"district":{"key":"08426","name":"Biberach","type":"Landkreis"},"federalState":{"key":"08","name":"Baden-Württemberg"}},{"name":"Adlerberg","postalCode":"88499","locality":"Riedlingen","municipality":{"key":"08426097","name":"Riedlingen, Stadt","type":"Stadt"},"district":{"key":"08426","name":"Biberach","type":"Landkreis"},"federalState":{"key":"08","name":"Baden-Württemberg"}},{"name":"Adolf-Gröber-Str.","postalCode":"88499","locality":"Riedlingen","municipality":{"key":"08426097","name":"Riedlingen, Stadt","type":"Stadt"},"district":{"key":"08426","name":"Biberach","type":"Landkreis"},"federalState":{"key":"08","name":"Baden-Württemberg"}},{"name":"Ahornweg","postalCode":"83533","locality":"Edling","municipality":{"key":"09187124","name":"Edling","type":"Kreisangehörige_Gemeinde"},"district":{"key":"09187","name":"Rosenheim","type":"Landkreis"},"federalState":{"key":"09","name":"Bayern"}},{"name":"Ahornweg","postalCode":"88499","locality":"Riedlingen","municipality":{"key":"08426097","name":"Riedlingen, Stadt","type":"Stadt"},"district":{"key":"08426","name":"Biberach","type":"Landkreis"},"federalState":{"key":"08","name":"Baden-Württemberg"}},{"name":"Albachinger Str.","postalCode":"83533","locality":"Edling","municipality":{"key":"09187124","name":"Edling","type":"Kreisangehörige_Gemeinde"},"district":{"key":"09187","name":"Rosenheim","type":"Landkreis"},"federalState":{"key":"09","name":"Bayern"}},{"name":"Albert-Burkart-Str.","postalCode":"88499","locality":"Riedlingen","municipality":{"key":"08426097","name":"Riedlingen, Stadt","type":"Stadt"},"district":{"key":"08426","name":"Biberach","type":"Landkreis"},"federalState":{"key":"08","name":"Baden-Württemberg"}},{"name":"Alemannenstr.","postalCode":"89441","locality":"Medlingen","municipality":{"key":"09773153","name":"Medlingen","type":"Kreisangehörige_Gemeinde"},"district":{"key":"09773","name":"Dillingen a.d.Donau","type":"Landkreis"},"federalState":{"key":"09","name":"Bayern"}},{"name":"Allmannsberg","postalCode":"83533","locality":"Edling","municipality":{"key":"09187124","name":"Edling","type":"Kreisangehörige_Gemeinde"},"district":{"key":"09187","name":"Rosenheim","type":"Landkreis"},"federalState":{"key":"09","name":"Bayern"}},{"name":"Alte B 311","postalCode":"88499","locality":"Riedlingen","municipality":{"key":"08426097","name":"Riedlingen, Stadt","type":"Stadt"},"district":{"key":"08426","name":"Biberach","type":"Landkreis"},"federalState":{"key":"08","name":"Baden-Württemberg"}},{"name":"Alte Poststr.","postalCode":"88499","locality":"Riedlingen","municipality":{"key":"08426097","name":"Riedlingen, Stadt","type":"Stadt"},"district":{"key":"08426","name":"Biberach","type":"Landkreis"},"federalState":{"key":"08","name":"Baden-Württemberg"}},{"name":"Alte Unlinger Str.","postalCode":"88499","locality":"Riedlingen","municipality":{"key":"08426097","name":"Riedlingen, Stadt","type":"Stadt"},"district":{"key":"08426","name":"Biberach","type":"Landkreis"},"federalState":{"key":"08","name":"Baden-Württemberg"}},{"name":"Altheimer Str.","postalCode":"88499","locality":"Riedlingen","municipality":{"key":"08426097","name":"Riedlingen, Stadt","type":"Stadt"},"district":{"key":"08426","name":"Biberach","type":"Landkreis"},"federalState":{"key":"08","name":"Baden-Württemberg"}},{"name":"Am Bächle","postalCode":"88499","locality":"Riedlingen","municipality":{"key":"08426097","name":"Riedlingen, Stadt","type":"Stadt"},"district":{"key":"08426","name":"Biberach","type":"Landkreis"},"federalState":{"key":"08","name":"Baden-Württemberg"}},{"name":"Am Bergle","postalCode":"88499","locality":"Riedlingen","municipality":{"key":"08426097","name":"Riedlingen, Stadt","type":"Stadt"},"district":{"key":"08426","name":"Biberach","type":"Landkreis"},"federalState":{"key":"08","name":"Baden-Württemberg"}},{"name":"Am Eichenwald","postalCode":"88499","locality":"Riedlingen","municipality":{"key":"08426097","name":"Riedlingen, Stadt","type":"Stadt"},"district":{"key":"08426","name":"Biberach","type":"Landkreis"},"federalState":{"key":"08","name":"Baden-Württemberg"}},{"name":"Am Friedhof","postalCode":"88499","locality":"Riedlingen","municipality":{"key":"08426097","name":"Riedlingen, Stadt","type":"Stadt"},"district":{"key":"08426","name":"Biberach","type":"Landkreis"},"federalState":{"key":"08","name":"Baden-Württemberg"}},{"name":"Am Goldbronnenbach","postalCode":"88499","locality":"Riedlingen","municipality":{"key":"08426097","name":"Riedlingen, Stadt","type":"Stadt"},"district":{"key":"08426","name":"Biberach","type":"Landkreis"},"federalState":{"key":"08","name":"Baden-Württemberg"}},{"name":"Amselweg","postalCode":"83533","locality":"Edling","municipality":{"key":"09187124","name":"Edling","type":"Kreisangehörige_Gemeinde"},"district":{"key":"09187","name":"Rosenheim","type":"Landkreis"},"federalState":{"key":"09","name":"Bayern"}},{"name":"Amselweg","postalCode":"88499","locality":"Riedlingen","municipality":{"key":"08426097","name":"Riedlingen, Stadt","type":"Stadt"},"district":{"key":"08426","name":"Biberach","type":"Landkreis"},"federalState":{"key":"08","name":"Baden-Württemberg"}},{"name":"Amselweg","postalCode":"89441","locality":"Medlingen","municipality":{"key":"09773153","name":"Medlingen","type":"Kreisangehörige_Gemeinde"},"district":{"key":"09773","name":"Dillingen a.d.Donau","type":"Landkreis"},"federalState":{"key":"09","name":"Bayern"}},{"name":"Am Staigle","postalCode":"88499","locality":"Riedlingen","municipality":{"key":"08426097","name":"Riedlingen, Stadt","type":"Stadt"},"district":{"key":"08426","name":"Biberach","type":"Landkreis"},"federalState":{"key":"08","name":"Baden-Württemberg"}},{"name":"Am Ziegelberg","postalCode":"88499","locality":"Riedlingen","municipality":{"key":"08426097","name":"Riedlingen, Stadt","type":"Stadt"},"district":{"key":"08426","name":"Biberach","type":"Landkreis"},"federalState":{"key":"08","name":"Baden-Württemberg"}},{"name":"An den Turmäckern","postalCode":"89441","locality":"Medlingen","municipality":{"key":"09773153","name":"Medlingen","type":"Kreisangehörige_Gemeinde"},"district":{"key":"09773","name":"Dillingen a.d.Donau","type":"Landkreis"},"federalState":{"key":"09","name":"Bayern"}},{"name":"An der Gipsmühle","postalCode":"88499","locality":"Riedlingen","municipality":{"key":"08426097","name":"Riedlingen, Stadt","type":"Stadt"},"district":{"key":"08426","name":"Biberach","type":"Landkreis"},"federalState":{"key":"08","name":"Baden-Württemberg"}},{"name":"An der Halde","postalCode":"89441","locality":"Medlingen","municipality":{"key":"09773153","name":"Medlingen","type":"Kreisangehörige_Gemeinde"},"district":{"key":"09773","name":"Dillingen a.d.Donau","type":"Landkreis"},"federalState":{"key":"09","name":"Bayern"}},{"name":"An der Linde","postalCode":"89441","locality":"Medlingen","municipality":{"key":"09773153","name":"Medlingen","type":"Kreisangehörige_Gemeinde"},"district":{"key":"09773","name":"Dillingen a.d.Donau","type":"Landkreis"},"federalState":{"key":"09","name":"Bayern"}},{"name":"An der Wanne","postalCode":"89441","locality":"Medlingen","municipality":{"key":"09773153","name":"Medlingen","type":"Kreisangehörige_Gemeinde"},"district":{"key":"09773","name":"Dillingen a.d.Donau","type":"Landkreis"},"federalState":{"key":"09","name":"Bayern"}},{"name":"Andreas-Etschmann-Str.","postalCode":"88499","locality":"Riedlingen","municipality":{"key":"08426097","name":"Riedlingen, Stadt","type":"Stadt"},"district":{"key":"08426","name":"Biberach","type":"Landkreis"},"federalState":{"key":"08","name":"Baden-Württemberg"}},{"name":"Andreas-Jerin-Str.","postalCode":"88499","locality":"Riedlingen","municipality":{"key":"08426097","name":"Riedlingen, Stadt","type":"Stadt"},"district":{"key":"08426","name":"Biberach","type":"Landkreis"},"federalState":{"key":"08","name":"Baden-Württemberg"}},{"name":"Anton-Machein-Str.","postalCode":"88499","locality":"Riedlingen","municipality":{"key":"08426097","name":"Riedlingen, Stadt","type":"Stadt"},"district":{"key":"08426","name":"Biberach","type":"Landkreis"},"federalState":{"key":"08","name":"Baden-Württemberg"}},{"name":"Attelthal","postalCode":"83533","locality":"Edling","municipality":{"key":"09187124","name":"Edling","type":"Kreisangehörige_Gemeinde"},"district":{"key":"09187","name":"Rosenheim","type":"Landkreis"},"federalState":{"key":"09","name":"Bayern"}},{"name":"Auf dem Anger","postalCode":"89441","locality":"Medlingen","municipality":{"key":"09773153","name":"Medlingen","type":"Kreisangehörige_Gemeinde"},"district":{"key":"09773","name":"Dillingen a.d.Donau","type":"Landkreis"},"federalState":{"key":"09","name":"Bayern"}},{"name":"Bächinger Str.","postalCode":"89441","locality":"Medlingen","municipality":{"key":"09773153","name":"Medlingen","type":"Kreisangehörige_Gemeinde"},"district":{"key":"09773","name":"Dillingen a.d.Donau","type":"Landkreis"},"federalState":{"key":"09","name":"Bayern"}},{"name":"Bahnstr.","postalCode":"83533","locality":"Edling","municipality":{"key":"09187124","name":"Edling","type":"Kreisangehörige_Gemeinde"},"district":{"key":"09187","name":"Rosenheim","type":"Landkreis"},"federalState":{"key":"09","name":"Bayern"}},{"name":"Beethovenstr.","postalCode":"88499","locality":"Riedlingen","municipality":{"key":"08426097","name":"Riedlingen, Stadt","type":"Stadt"},"district":{"key":"08426","name":"Biberach","type":"Landkreis"},"federalState":{"key":"08","name":"Baden-Württemberg"}},{"name":"Bergstr.","postalCode":"89441","locality":"Medlingen","municipality":{"key":"09773153","name":"Medlingen","type":"Kreisangehörige_Gemeinde"},"district":{"key":"09773","name":"Dillingen a.d.Donau","type":"Landkreis"},"federalState":{"key":"09","name":"Bayern"}},{"name":"Berliner Str.","postalCode":"88499","locality":"Riedlingen","municipality":{"key":"08426097","name":"Riedlingen, Stadt","type":"Stadt"},"district":{"key":"08426","name":"Biberach","type":"Landkreis"},"federalState":{"key":"08","name":"Baden-Württemberg"}},{"name":"Birkenstr.","postalCode":"83533","locality":"Edling","municipality":{"key":"09187124","name":"Edling","type":"Kreisangehörige_Gemeinde"},"district":{"key":"09187","name":"Rosenheim","type":"Landkreis"},"federalState":{"key":"09","name":"Bayern"}},{"name":"Birkenweg","postalCode":"88499","locality":"Riedlingen","municipality":{"key":"08426097","name":"Riedlingen, Stadt","type":"Stadt"},"district":{"key":"08426","name":"Biberach","type":"Landkreis"},"federalState":{"key":"08","name":"Baden-Württemberg"}},{"name":"Birkenweg","postalCode":"89441","locality":"Medlingen","municipality":{"key":"09773153","name":"Medlingen","type":"Kreisangehörige_Gemeinde"},"district":{"key":"09773","name":"Dillingen a.d.Donau","type":"Landkreis"},"federalState":{"key":"09","name":"Bayern"}},{"name":"Blumenstr.","postalCode":"83533","locality":"Edling","municipality":{"key":"09187124","name":"Edling","type":"Kreisangehörige_Gemeinde"},"district":{"key":"09187","name":"Rosenheim","type":"Landkreis"},"federalState":{"key":"09","name":"Bayern"}},{"name":"Blumenweg","postalCode":"88499","locality":"Riedlingen","municipality":{"key":"08426097","name":"Riedlingen, Stadt","type":"Stadt"},"district":{"key":"08426","name":"Biberach","type":"Landkreis"},"federalState":{"key":"08","name":"Baden-Württemberg"}},{"name":"Böhmerwaldweg","postalCode":"83533","locality":"Edling","municipality":{"key":"09187124","name":"Edling","type":"Kreisangehörige_Gemeinde"},"district":{"key":"09187","name":"Rosenheim","type":"Landkreis"},"federalState":{"key":"09","name":"Bayern"}},{"name":"Bonhalde","postalCode":"88499","locality":"Riedlingen","municipality":{"key":"08426097","name":"Riedlingen, Stadt","type":"Stadt"},"district":{"key":"08426","name":"Biberach","type":"Landkreis"},"federalState":{"key":"08","name":"Baden-Württemberg"}},{"name":"Breitbrunn","postalCode":"83533","locality":"Edling","municipality":{"key":"09187124","name":"Edling","type":"Kreisangehörige_Gemeinde"},"district":{"key":"09187","name":"Rosenheim","type":"Landkreis"},"federalState":{"key":"09","name":"Bayern"}},{"name":"Brenzer Str.","postalCode":"89441","locality":"Medlingen","municipality":{"key":"09773153","name":"Medlingen","type":"Kreisangehörige_Gemeinde"},"district":{"key":"09773","name":"Dillingen a.d.Donau","type":"Landkreis"},"federalState":{"key":"09","name":"Bayern"}},{"name":"Brunnenstube","postalCode":"88499","locality":"Riedlingen","municipality":{"key":"08426097","name":"Riedlingen, Stadt","type":"Stadt"},"district":{"key":"08426","name":"Biberach","type":"Landkreis"},"federalState":{"key":"08","name":"Baden-Württemberg"}},{"name":"Brünnsteinstr.","postalCode":"83533","locality":"Edling","municipality":{"key":"09187124","name":"Edling","type":"Kreisangehörige_Gemeinde"},"district":{"key":"09187","name":"Rosenheim","type":"Landkreis"},"federalState":{"key":"09","name":"Bayern"}},{"name":"Buchauer Str.","postalCode":"88499","locality":"Riedlingen","municipality":{"key":"08426097","name":"Riedlingen, Stadt","type":"Stadt"},"district":{"key":"08426","name":"Biberach","type":"Landkreis"},"federalState":{"key":"08","name":"Baden-Württemberg"}},{"name":"Buchenweg","postalCode":"88499","locality":"Riedlingen","municipality":{"key":"08426097","name":"Riedlingen, Stadt","type":"Stadt"},"district":{"key":"08426","name":"Biberach","type":"Landkreis"},"federalState":{"key":"08","name":"Baden-Württemberg"}},{"name":"Bühlstr.","postalCode":"88499","locality":"Riedlingen","municipality":{"key":"08426097","name":"Riedlingen, Stadt","type":"Stadt"},"district":{"key":"08426","name":"Biberach","type":"Landkreis"},"federalState":{"key":"08","name":"Baden-Württemberg"}},{"name":"Bürgermeister-Huber-Str.","postalCode":"83533","locality":"Edling","municipality":{"key":"09187124","name":"Edling","type":"Kreisangehörige_Gemeinde"},"district":{"key":"09187","name":"Rosenheim","type":"Landkreis"},"federalState":{"key":"09","name":"Bayern"}},{"name":"Bürgermeister-Wieser-Str.","postalCode":"83533","locality":"Edling","municipality":{"key":"09187124","name":"Edling","type":"Kreisangehörige_Gemeinde"},"district":{"key":"09187","name":"Rosenheim","type":"Landkreis"},"federalState":{"key":"09","name":"Bayern"}},{"name":"Bussenblick","postalCode":"88499","locality":"Riedlingen","municipality":{"key":"08426097","name":"Riedlingen, Stadt","type":"Stadt"},"district":{"key":"08426","name":"Biberach","type":"Landkreis"},"federalState":{"key":"08","name":"Baden-Württemberg"}},{"name":"Caspar-Fuchs-Str.","postalCode":"88499","locality":"Riedlingen","municipality":{"key":"08426097","name":"Riedlingen, Stadt","type":"Stadt"},"district":{"key":"08426","name":"Biberach","type":"Landkreis"},"federalState":{"key":"08","name":"Baden-Württemberg"}},{"name":"Conrad-Graf-Ring","postalCode":"88499","locality":"Riedlingen","municipality":{"key":"08426097","name":"Riedlingen, Stadt","type":"Stadt"},"district":{"key":"08426","name":"Biberach","type":"Landkreis"},"federalState":{"key":"08","name":"Baden-Württemberg"}},{"name":"Conrad-Wengner-Str.","postalCode":"88499","locality":"Riedlingen","municipality":{"key":"08426097","name":"Riedlingen, Stadt","type":"Stadt"},"district":{"key":"08426","name":"Biberach","type":"Landkreis"},"federalState":{"key":"08","name":"Baden-Württemberg"}},{"name":"De-Pay-Str.","postalCode":"88499","locality":"Riedlingen","municipality":{"key":"08426097","name":"Riedlingen, Stadt","type":"Stadt"},"district":{"key":"08426","name":"Biberach","type":"Landkreis"},"federalState":{"key":"08","name":"Baden-Württemberg"}},{"name":"Dietenburgweg","postalCode":"88499","locality":"Riedlingen","municipality":{"key":"08426097","name":"Riedlingen, Stadt","type":"Stadt"},"district":{"key":"08426","name":"Biberach","type":"Landkreis"},"federalState":{"key":"08","name":"Baden-Württemberg"}},{"name":"Donauinsel","postalCode":"88499","locality":"Riedlingen","municipality":{"key":"08426097","name":"Riedlingen, Stadt","type":"Stadt"},"district":{"key":"08426","name":"Biberach","type":"Landkreis"},"federalState":{"key":"08","name":"Baden-Württemberg"}},{"name":"Donautalstr.","postalCode":"88499","locality":"Riedlingen","municipality":{"key":"08426097","name":"Riedlingen, Stadt","type":"Stadt"},"district":{"key":"08426","name":"Biberach","type":"Landkreis"},"federalState":{"key":"08","name":"Baden-Württemberg"}},{"name":"Dorfstr.","postalCode":"89441","locality":"Medlingen","municipality":{"key":"09773153","name":"Medlingen","type":"Kreisangehörige_Gemeinde"},"district":{"key":"09773","name":"Dillingen a.d.Donau","type":"Landkreis"},"federalState":{"key":"09","name":"Bayern"}},{"name":"Drehergäßle","postalCode":"88499","locality":"Riedlingen","municipality":{"key":"08426097","name":"Riedlingen, Stadt","type":"Stadt"},"district":{"key":"08426","name":"Biberach","type":"Landkreis"},"federalState":{"key":"08","name":"Baden-Württemberg"}},{"name":"Drosselweg","postalCode":"83533","locality":"Edling","municipality":{"key":"09187124","name":"Edling","type":"Kreisangehörige_Gemeinde"},"district":{"key":"09187","name":"Rosenheim","type":"Landkreis"},"federalState":{"key":"09","name":"Bayern"}},{"name":"Drosselweg","postalCode":"88499","locality":"Riedlingen","municipality":{"key":"08426097","name":"Riedlingen, Stadt","type":"Stadt"},"district":{"key":"08426","name":"Biberach","type":"Landkreis"},"federalState":{"key":"08","name":"Baden-Württemberg"}},{"name":"Drosselweg","postalCode":"89441","locality":"Medlingen","municipality":{"key":"09773153","name":"Medlingen","type":"Kreisangehörige_Gemeinde"},"district":{"key":"09773","name":"Dillingen a.d.Donau","type":"Landkreis"},"federalState":{"key":"09","name":"Bayern"}},{"name":"Druidenstr.","postalCode":"88499","locality":"Riedlingen","municipality":{"key":"08426097","name":"Riedlingen, Stadt","type":"Stadt"},"district":{"key":"08426","name":"Biberach","type":"Landkreis"},"federalState":{"key":"08","name":"Baden-Württemberg"}},{"name":"Ebrachweg","postalCode":"83533","locality":"Edling","municipality":{"key":"09187124","name":"Edling","type":"Kreisangehörige_Gemeinde"},"district":{"key":"09187","name":"Rosenheim","type":"Landkreis"},"federalState":{"key":"09","name":"Bayern"}},{"name":"Eduard-Mörike-Weg","postalCode":"88499","locality":"Riedlingen","municipality":{"key":"08426097","name":"Riedlingen, Stadt","type":"Stadt"},"district":{"key":"08426","name":"Biberach","type":"Landkreis"},"federalState":{"key":"08","name":"Baden-Württemberg"}},{"name":"Egerländer Weg","postalCode":"83533","locality":"Edling","municipality":{"key":"09187124","name":"Edling","type":"Kreisangehörige_Gemeinde"},"district":{"key":"09187","name":"Rosenheim","type":"Landkreis"},"federalState":{"key":"09","name":"Bayern"}},{"name":"Ehebachweg","postalCode":"88499","locality":"Riedlingen","municipality":{"key":"08426097","name":"Riedlingen, Stadt","type":"Stadt"},"district":{"key":"08426","name":"Biberach","type":"Landkreis"},"federalState":{"key":"08","name":"Baden-Württemberg"}},{"name":"Ehinger Str.","postalCode":"88499","locality":"Riedlingen","municipality":{"key":"08426097","name":"Riedlingen, Stadt","type":"Stadt"},"district":{"key":"08426","name":"Biberach","type":"Landkreis"},"federalState":{"key":"08","name":"Baden-Württemberg"}},{"name":"Eichendorffstr.","postalCode":"88499","locality":"Riedlingen","municipality":{"key":"08426097","name":"Riedlingen, Stadt","type":"Stadt"},"district":{"key":"08426","name":"Biberach","type":"Landkreis"},"federalState":{"key":"08","name":"Baden-Württemberg"}},{"name":"Eichenrain","postalCode":"88499","locality":"Riedlingen","municipality":{"key":"08426097","name":"Riedlingen, Stadt","type":"Stadt"},"district":{"key":"08426","name":"Biberach","type":"Landkreis"},"federalState":{"key":"08","name":"Baden-Württemberg"}},{"name":"Eichertweg","postalCode":"88499","locality":"Riedlingen","municipality":{"key":"08426097","name":"Riedlingen, Stadt","type":"Stadt"},"district":{"key":"08426","name":"Biberach","type":"Landkreis"},"federalState":{"key":"08","name":"Baden-Württemberg"}},{"name":"Elisabeth-Stapp-Str.","postalCode":"88499","locality":"Riedlingen","municipality":{"key":"08426097","name":"Riedlingen, Stadt","type":"Stadt"},"district":{"key":"08426","name":"Biberach","type":"Landkreis"},"federalState":{"key":"08","name":"Baden-Württemberg"}},{"name":"Emanuel-Sulger-Str.","postalCode":"88499","locality":"Riedlingen","municipality":{"key":"08426097","name":"Riedlingen, Stadt","type":"Stadt"},"district":{"key":"08426","name":"Biberach","type":"Landkreis"},"federalState":{"key":"08","name":"Baden-Württemberg"}},{"name":"Emausweg","postalCode":"88499","locality":"Riedlingen","municipality":{"key":"08426097","name":"Riedlingen, Stadt","type":"Stadt"},"district":{"key":"08426","name":"Biberach","type":"Landkreis"},"federalState":{"key":"08","name":"Baden-Württemberg"}},{"name":"Ensenheimer Weg","postalCode":"88499","locality":"Riedlingen","municipality":{"key":"08426097","name":"Riedlingen, Stadt","type":"Stadt"},"district":{"key":"08426","name":"Biberach","type":"Landkreis"},"federalState":{"key":"08","name":"Baden-Württemberg"}},{"name":"Enzianstr.","postalCode":"83533","locality":"Edling","municipality":{"key":"09187124","name":"Edling","type":"Kreisangehörige_Gemeinde"},"district":{"key":"09187","name":"Rosenheim","type":"Landkreis"},"federalState":{"key":"09","name":"Bayern"}},{"name":"Erhard-Veeser-Str.","postalCode":"88499","locality":"Riedlingen","municipality":{"key":"08426097","name":"Riedlingen, Stadt","type":"Stadt"},"district":{"key":"08426","name":"Biberach","type":"Landkreis"},"federalState":{"key":"08","name":"Baden-Württemberg"}},{"name":"Erlenstr.","postalCode":"83533","locality":"Edling","municipality":{"key":"09187124","name":"Edling","type":"Kreisangehörige_Gemeinde"},"district":{"key":"09187","name":"Rosenheim","type":"Landkreis"},"federalState":{"key":"09","name":"Bayern"}},{"name":"Eschenweg","postalCode":"83533","locality":"Edling","municipality":{"key":"09187124","name":"Edling","type":"Kreisangehörige_Gemeinde"},"district":{"key":"09187","name":"Rosenheim","type":"Landkreis"},"federalState":{"key":"09","name":"Bayern"}},{"name":"Eschweg","postalCode":"88499","locality":"Riedlingen","municipality":{"key":"08426097","name":"Riedlingen, Stadt","type":"Stadt"},"district":{"key":"08426","name":"Biberach","type":"Landkreis"},"federalState":{"key":"08","name":"Baden-Württemberg"}},{"name":"Etzwiesenweg","postalCode":"88499","locality":"Riedlingen","municipality":{"key":"08426097","name":"Riedlingen, Stadt","type":"Stadt"},"district":{"key":"08426","name":"Biberach","type":"Landkreis"},"federalState":{"key":"08","name":"Baden-Württemberg"}},{"name":"Falkenweg","postalCode":"83533","locality":"Edling","municipality":{"key":"09187124","name":"Edling","type":"Kreisangehörige_Gemeinde"},"district":{"key":"09187","name":"Rosenheim","type":"Landkreis"},"federalState":{"key":"09","name":"Bayern"}},{"name":"Färberweg","postalCode":"88499","locality":"Riedlingen","municipality":{"key":"08426097","name":"Riedlingen, Stadt","type":"Stadt"},"district":{"key":"08426","name":"Biberach","type":"Landkreis"},"federalState":{"key":"08","name":"Baden-Württemberg"}},{"name":"Feldbrunnenweg","postalCode":"88499","locality":"Riedlingen","municipality":{"key":"08426097","name":"Riedlingen, Stadt","type":"Stadt"},"district":{"key":"08426","name":"Biberach","type":"Landkreis"},"federalState":{"key":"08","name":"Baden-Württemberg"}},{"name":"Feldstr.","postalCode":"83533","locality":"Edling","municipality":{"key":"09187124","name":"Edling","type":"Kreisangehörige_Gemeinde"},"district":{"key":"09187","name":"Rosenheim","type":"Landkreis"},"federalState":{"key":"09","name":"Bayern"}},{"name":"Felix-Han-Str.","postalCode":"88499","locality":"Riedlingen","municipality":{"key":"08426097","name":"Riedlingen, Stadt","type":"Stadt"},"district":{"key":"08426","name":"Biberach","type":"Landkreis"},"federalState":{"key":"08","name":"Baden-Württemberg"}},{"name":"Ferdinand-Gröber-Str.","postalCode":"88499","locality":"Riedlingen","municipality":{"key":"08426097","name":"Riedlingen, Stadt","type":"Stadt"},"district":{"key":"08426","name":"Biberach","type":"Landkreis"},"federalState":{"key":"08","name":"Baden-Württemberg"}},{"name":"Fidelis-Böhler-Str.","postalCode":"88499","locality":"Riedlingen","municipality":{"key":"08426097","name":"Riedlingen, Stadt","type":"Stadt"},"district":{"key":"08426","name":"Biberach","type":"Landkreis"},"federalState":{"key":"08","name":"Baden-Württemberg"}},{"name":"Finkenweg","postalCode":"83533","locality":"Edling","municipality":{"key":"09187124","name":"Edling","type":"Kreisangehörige_Gemeinde"},"district":{"key":"09187","name":"Rosenheim","type":"Landkreis"},"federalState":{"key":"09","name":"Bayern"}},{"name":"Finkenweg","postalCode":"88499","locality":"Riedlingen","municipality":{"key":"08426097","name":"Riedlingen, Stadt","type":"Stadt"},"district":{"key":"08426","name":"Biberach","type":"Landkreis"},"federalState":{"key":"08","name":"Baden-Württemberg"}},{"name":"Finkenweg","postalCode":"89441","locality":"Medlingen","municipality":{"key":"09773153","name":"Medlingen","type":"Kreisangehörige_Gemeinde"},"district":{"key":"09773","name":"Dillingen a.d.Donau","type":"Landkreis"},"federalState":{"key":"09","name":"Bayern"}},{"name":"Flaitzgraben","postalCode":"88499","locality":"Riedlingen","municipality":{"key":"08426097","name":"Riedlingen, Stadt","type":"Stadt"},"district":{"key":"08426","name":"Biberach","type":"Landkreis"},"federalState":{"key":"08","name":"Baden-Württemberg"}},{"name":"Fontanestr.","postalCode":"88499","locality":"Riedlingen","municipality":{"key":"08426097","name":"Riedlingen, Stadt","type":"Stadt"},"district":{"key":"08426","name":"Biberach","type":"Landkreis"},"federalState":{"key":"08","name":"Baden-Württemberg"}},{"name":"Forellenweg","postalCode":"83533","locality":"Edling","municipality":{"key":"09187124","name":"Edling","type":"Kreisangehörige_Gemeinde"},"district":{"key":"09187","name":"Rosenheim","type":"Landkreis"},"federalState":{"key":"09","name":"Bayern"}},{"name":"Franz-Anton-Beer-Str.","postalCode":"88499","locality":"Riedlingen","municipality":{"key":"08426097","name":"Riedlingen, Stadt","type":"Stadt"},"district":{"key":"08426","name":"Biberach","type":"Landkreis"},"federalState":{"key":"08","name":"Baden-Württemberg"}},{"name":"Franz-Joseph-Spiegler-Str.","postalCode":"88499","locality":"Riedlingen","municipality":{"key":"08426097","name":"Riedlingen, Stadt","type":"Stadt"},"district":{"key":"08426","name":"Biberach","type":"Landkreis"},"federalState":{"key":"08","name":"Baden-Württemberg"}},{"name":"Friedhofstr.","postalCode":"88499","locality":"Riedlingen","municipality":{"key":"08426097","name":"Riedlingen, Stadt","type":"Stadt"},"district":{"key":"08426","name":"Biberach","type":"Landkreis"},"federalState":{"key":"08","name":"Baden-Württemberg"}},{"name":"Friedrich-Vollmar-Str.","postalCode":"88499","locality":"Riedlingen","municipality":{"key":"08426097","name":"Riedlingen, Stadt","type":"Stadt"},"district":{"key":"08426","name":"Biberach","type":"Landkreis"},"federalState":{"key":"08","name":"Baden-Württemberg"}},{"name":"Froschlache","postalCode":"88499","locality":"Riedlingen","municipality":{"key":"08426097","name":"Riedlingen, Stadt","type":"Stadt"},"district":{"key":"08426","name":"Biberach","type":"Landkreis"},"federalState":{"key":"08","name":"Baden-Württemberg"}},{"name":"Fuchsgasse","postalCode":"88499","locality":"Riedlingen","municipality":{"key":"08426097","name":"Riedlingen, Stadt","type":"Stadt"},"district":{"key":"08426","name":"Biberach","type":"Landkreis"},"federalState":{"key":"08","name":"Baden-Württemberg"}},{"name":"Fuchsthal","postalCode":"83533","locality":"Edling","municipality":{"key":"09187124","name":"Edling","type":"Kreisangehörige_Gemeinde"},"district":{"key":"09187","name":"Rosenheim","type":"Landkreis"},"federalState":{"key":"09","name":"Bayern"}},{"name":"Fürstenbergstr.","postalCode":"88499","locality":"Riedlingen","municipality":{"key":"08426097","name":"Riedlingen, Stadt","type":"Stadt"},"district":{"key":"08426","name":"Biberach","type":"Landkreis"},"federalState":{"key":"08","name":"Baden-Württemberg"}},{"name":"Gabriel-Lämmle-Str.","postalCode":"88499","locality":"Riedlingen","municipality":{"key":"08426097","name":"Riedlingen, Stadt","type":"Stadt"},"district":{"key":"08426","name":"Biberach","type":"Landkreis"},"federalState":{"key":"08","name":"Baden-Württemberg"}},{"name":"Galgenweg","postalCode":"88499","locality":"Riedlingen","municipality":{"key":"08426097","name":"Riedlingen, Stadt","type":"Stadt"},"district":{"key":"08426","name":"Biberach","type":"Landkreis"},"federalState":{"key":"08","name":"Baden-Württemberg"}},{"name":"Gammertinger Str.","postalCode":"88499","locality":"Riedlingen","municipality":{"key":"08426097","name":"Riedlingen, Stadt","type":"Stadt"},"district":{"key":"08426","name":"Biberach","type":"Landkreis"},"federalState":{"key":"08","name":"Baden-Württemberg"}},{"name":"Gartenstr.","postalCode":"88499","locality":"Riedlingen","municipality":{"key":"08426097","name":"Riedlingen, Stadt","type":"Stadt"},"district":{"key":"08426","name":"Biberach","type":"Landkreis"},"federalState":{"key":"08","name":"Baden-Württemberg"}},{"name":"Gartenstr.","postalCode":"89441","locality":"Medlingen","municipality":{"key":"09773153","name":"Medlingen","type":"Kreisangehörige_Gemeinde"},"district":{"key":"09773","name":"Dillingen a.d.Donau","type":"Landkreis"},"federalState":{"key":"09","name":"Bayern"}},{"name":"Georg-Fürst-Str.","postalCode":"88499","locality":"Riedlingen","municipality":{"key":"08426097","name":"Riedlingen, Stadt","type":"Stadt"},"district":{"key":"08426","name":"Biberach","type":"Landkreis"},"federalState":{"key":"08","name":"Baden-Württemberg"}},{"name":"Goethestr.","postalCode":"88499","locality":"Riedlingen","municipality":{"key":"08426097","name":"Riedlingen, Stadt","type":"Stadt"},"district":{"key":"08426","name":"Biberach","type":"Landkreis"},"federalState":{"key":"08","name":"Baden-Württemberg"}},{"name":"Göffinger Str.","postalCode":"88499","locality":"Riedlingen","municipality":{"key":"08426097","name":"Riedlingen, Stadt","type":"Stadt"},"district":{"key":"08426","name":"Biberach","type":"Landkreis"},"federalState":{"key":"08","name":"Baden-Württemberg"}},{"name":"Goldbronnenstr.","postalCode":"88499","locality":"Riedlingen","municipality":{"key":"08426097","name":"Riedlingen, Stadt","type":"Stadt"},"district":{"key":"08426","name":"Biberach","type":"Landkreis"},"federalState":{"key":"08","name":"Baden-Württemberg"}},{"name":"Grabenstr.","postalCode":"88499","locality":"Riedlingen","municipality":{"key":"08426097","name":"Riedlingen, Stadt","type":"Stadt"},"district":{"key":"08426","name":"Biberach","type":"Landkreis"},"federalState":{"key":"08","name":"Baden-Württemberg"}},{"name":"Grenzstr.","postalCode":"88499","locality":"Riedlingen","municipality":{"key":"08426097","name":"Riedlingen, Stadt","type":"Stadt"},"district":{"key":"08426","name":"Biberach","type":"Landkreis"},"federalState":{"key":"08","name":"Baden-Württemberg"}},{"name":"Grenzweg","postalCode":"83533","locality":"Edling","municipality":{"key":"09187124","name":"Edling","type":"Kreisangehörige_Gemeinde"},"district":{"key":"09187","name":"Rosenheim","type":"Landkreis"},"federalState":{"key":"09","name":"Bayern"}},{"name":"Greutweg","postalCode":"88499","locality":"Riedlingen","municipality":{"key":"08426097","name":"Riedlingen, Stadt","type":"Stadt"},"district":{"key":"08426","name":"Biberach","type":"Landkreis"},"federalState":{"key":"08","name":"Baden-Württemberg"}},{"name":"Gundelfinger Str.","postalCode":"88499","locality":"Riedlingen","municipality":{"key":"08426097","name":"Riedlingen, Stadt","type":"Stadt"},"district":{"key":"08426","name":"Biberach","type":"Landkreis"},"federalState":{"key":"08","name":"Baden-Württemberg"}},{"name":"Haldenrain","postalCode":"88499","locality":"Riedlingen","municipality":{"key":"08426097","name":"Riedlingen, Stadt","type":"Stadt"},"district":{"key":"08426","name":"Biberach","type":"Landkreis"},"federalState":{"key":"08","name":"Baden-Württemberg"}},{"name":"Haldenstr.","postalCode":"88499","locality":"Riedlingen","municipality":{"key":"08426097","name":"Riedlingen, Stadt","type":"Stadt"},"district":{"key":"08426","name":"Biberach","type":"Landkreis"},"federalState":{"key":"08","name":"Baden-Württemberg"}},{"name":"Hanfgarten","postalCode":"88499","locality":"Riedlingen","municipality":{"key":"08426097","name":"Riedlingen, Stadt","type":"Stadt"},"district":{"key":"08426","name":"Biberach","type":"Landkreis"},"federalState":{"key":"08","name":"Baden-Württemberg"}},{"name":"Hanfstr.","postalCode":"88499","locality":"Riedlingen","municipality":{"key":"08426097","name":"Riedlingen, Stadt","type":"Stadt"},"district":{"key":"08426","name":"Biberach","type":"Landkreis"},"federalState":{"key":"08","name":"Baden-Württemberg"}},{"name":"Hansbauer-Weg","postalCode":"89441","locality":"Medlingen","municipality":{"key":"09773153","name":"Medlingen","type":"Kreisangehörige_Gemeinde"},"district":{"key":"09773","name":"Dillingen a.d.Donau","type":"Landkreis"},"federalState":{"key":"09","name":"Bayern"}},{"name":"Hart","postalCode":"83533","locality":"Edling","municipality":{"key":"09187124","name":"Edling","type":"Kreisangehörige_Gemeinde"},"district":{"key":"09187","name":"Rosenheim","type":"Landkreis"},"federalState":{"key":"09","name":"Bayern"}},{"name":"Harter Str.","postalCode":"83533","locality":"Edling","municipality":{"key":"09187124","name":"Edling","type":"Kreisangehörige_Gemeinde"},"district":{"key":"09187","name":"Rosenheim","type":"Landkreis"},"federalState":{"key":"09","name":"Bayern"}},{"name":"Hartweg","postalCode":"88499","locality":"Riedlingen","municipality":{"key":"08426097","name":"Riedlingen, Stadt","type":"Stadt"},"district":{"key":"08426","name":"Biberach","type":"Landkreis"},"federalState":{"key":"08","name":"Baden-Württemberg"}},{"name":"Harzgasse","postalCode":"88499","locality":"Riedlingen","municipality":{"key":"08426097","name":"Riedlingen, Stadt","type":"Stadt"},"district":{"key":"08426","name":"Biberach","type":"Landkreis"},"federalState":{"key":"08","name":"Baden-Württemberg"}},{"name":"Hauffstr.","postalCode":"88499","locality":"Riedlingen","municipality":{"key":"08426097","name":"Riedlingen, Stadt","type":"Stadt"},"district":{"key":"08426","name":"Biberach","type":"Landkreis"},"federalState":{"key":"08","name":"Baden-Württemberg"}},{"name":"Hauptstr.","postalCode":"83533","locality":"Edling","municipality":{"key":"09187124","name":"Edling","type":"Kreisangehörige_Gemeinde"},"district":{"key":"09187","name":"Rosenheim","type":"Landkreis"},"federalState":{"key":"09","name":"Bayern"}},{"name":"Hauptstr.","postalCode":"88499","locality":"Riedlingen","municipality":{"key":"08426097","name":"Riedlingen, Stadt","type":"Stadt"},"district":{"key":"08426","name":"Biberach","type":"Landkreis"},"federalState":{"key":"08","name":"Baden-Württemberg"}},{"name":"Hauptstr.","postalCode":"89441","locality":"Medlingen","municipality":{"key":"09773153","name":"Medlingen","type":"Kreisangehörige_Gemeinde"},"district":{"key":"09773","name":"Dillingen a.d.Donau","type":"Landkreis"},"federalState":{"key":"09","name":"Bayern"}},{"name":"Haydnstr.","postalCode":"88499","locality":"Riedlingen","municipality":{"key":"08426097","name":"Riedlingen, Stadt","type":"Stadt"},"district":{"key":"08426","name":"Biberach","type":"Landkreis"},"federalState":{"key":"08","name":"Baden-Württemberg"}},{"name":"Hebelstr.","postalCode":"88499","locality":"Riedlingen","municipality":{"key":"08426097","name":"Riedlingen, Stadt","type":"Stadt"},"district":{"key":"08426","name":"Biberach","type":"Landkreis"},"federalState":{"key":"08","name":"Baden-Württemberg"}},{"name":"Heinestr.","postalCode":"88499","locality":"Riedlingen","municipality":{"key":"08426097","name":"Riedlingen, Stadt","type":"Stadt"},"district":{"key":"08426","name":"Biberach","type":"Landkreis"},"federalState":{"key":"08","name":"Baden-Württemberg"}},{"name":"Helfensteinstr.","postalCode":"88499","locality":"Riedlingen","municipality":{"key":"08426097","name":"Riedlingen, Stadt","type":"Stadt"},"district":{"key":"08426","name":"Biberach","type":"Landkreis"},"federalState":{"key":"08","name":"Baden-Württemberg"}},{"name":"Heunenburgstr.","postalCode":"88499","locality":"Riedlingen","municipality":{"key":"08426097","name":"Riedlingen, Stadt","type":"Stadt"},"district":{"key":"08426","name":"Biberach","type":"Landkreis"},"federalState":{"key":"08","name":"Baden-Württemberg"}},{"name":"Hindenburgstr.","postalCode":"88499","locality":"Riedlingen","municipality":{"key":"08426097","name":"Riedlingen, Stadt","type":"Stadt"},"district":{"key":"08426","name":"Biberach","type":"Landkreis"},"federalState":{"key":"08","name":"Baden-Württemberg"}},{"name":"Hinter den Zäunen","postalCode":"88499","locality":"Riedlingen","municipality":{"key":"08426097","name":"Riedlingen, Stadt","type":"Stadt"},"district":{"key":"08426","name":"Biberach","type":"Landkreis"},"federalState":{"key":"08","name":"Baden-Württemberg"}},{"name":"Historischer Hängegarten","postalCode":"88499","locality":"Riedlingen","municipality":{"key":"08426097","name":"Riedlingen, Stadt","type":"Stadt"},"district":{"key":"08426","name":"Biberach","type":"Landkreis"},"federalState":{"key":"08","name":"Baden-Württemberg"}},{"name":"Hocheckstr.","postalCode":"83533","locality":"Edling","municipality":{"key":"09187124","name":"Edling","type":"Kreisangehörige_Gemeinde"},"district":{"key":"09187","name":"Rosenheim","type":"Landkreis"},"federalState":{"key":"09","name":"Bayern"}},{"name":"Hochfellnstr.","postalCode":"83533","locality":"Edling","municipality":{"key":"09187124","name":"Edling","type":"Kreisangehörige_Gemeinde"},"district":{"key":"09187","name":"Rosenheim","type":"Landkreis"},"federalState":{"key":"09","name":"Bayern"}},{"name":"Hochgernstr.","postalCode":"83533","locality":"Edling","municipality":{"key":"09187124","name":"Edling","type":"Kreisangehörige_Gemeinde"},"district":{"key":"09187","name":"Rosenheim","type":"Landkreis"},"federalState":{"key":"09","name":"Bayern"}},{"name":"Hochhaus","postalCode":"83533","locality":"Edling","municipality":{"key":"09187124","name":"Edling","type":"Kreisangehörige_Gemeinde"},"district":{"key":"09187","name":"Rosenheim","type":"Landkreis"},"federalState":{"key":"09","name":"Bayern"}},{"name":"Hochhauser Str.","postalCode":"83533","locality":"Edling","municipality":{"key":"09187124","name":"Edling","type":"Kreisangehörige_Gemeinde"},"district":{"key":"09187","name":"Rosenheim","type":"Landkreis"},"federalState":{"key":"09","name":"Bayern"}},{"name":"Hochstaufenweg","postalCode":"83533","locality":"Edling","municipality":{"key":"09187124","name":"Edling","type":"Kreisangehörige_Gemeinde"},"district":{"key":"09187","name":"Rosenheim","type":"Landkreis"},"federalState":{"key":"09","name":"Bayern"}},{"name":"Hofmannsweg","postalCode":"88499","locality":"Riedlingen","municipality":{"key":"08426097","name":"Riedlingen, Stadt","type":"Stadt"},"district":{"key":"08426","name":"Biberach","type":"Landkreis"},"federalState":{"key":"08","name":"Baden-Württemberg"}},{"name":"Höhenweg","postalCode":"88499","locality":"Riedlingen","municipality":{"key":"08426097","name":"Riedlingen, Stadt","type":"Stadt"},"district":{"key":"08426","name":"Biberach","type":"Landkreis"},"federalState":{"key":"08","name":"Baden-Württemberg"}},{"name":"Hohe Str.","postalCode":"88499","locality":"Riedlingen","municipality":{"key":"08426097","name":"Riedlingen, Stadt","type":"Stadt"},"district":{"key":"08426","name":"Biberach","type":"Landkreis"},"federalState":{"key":"08","name":"Baden-Württemberg"}},{"name":"Hohmichelestr.","postalCode":"88499","locality":"Riedlingen","municipality":{"key":"08426097","name":"Riedlingen, Stadt","type":"Stadt"},"district":{"key":"08426","name":"Biberach","type":"Landkreis"},"federalState":{"key":"08","name":"Baden-Württemberg"}},{"name":"Hölderlinstr.","postalCode":"88499","locality":"Riedlingen","municipality":{"key":"08426097","name":"Riedlingen, Stadt","type":"Stadt"},"district":{"key":"08426","name":"Biberach","type":"Landkreis"},"federalState":{"key":"08","name":"Baden-Württemberg"}},{"name":"Holderweg","postalCode":"88499","locality":"Riedlingen","municipality":{"key":"08426097","name":"Riedlingen, Stadt","type":"Stadt"},"district":{"key":"08426","name":"Biberach","type":"Landkreis"},"federalState":{"key":"08","name":"Baden-Württemberg"}},{"name":"Holzweg","postalCode":"88499","locality":"Riedlingen","municipality":{"key":"08426097","name":"Riedlingen, Stadt","type":"Stadt"},"district":{"key":"08426","name":"Biberach","type":"Landkreis"},"federalState":{"key":"08","name":"Baden-Württemberg"}},{"name":"Hopfengartenweg","postalCode":"88499","locality":"Riedlingen","municipality":{"key":"08426097","name":"Riedlingen, Stadt","type":"Stadt"},"district":{"key":"08426","name":"Biberach","type":"Landkreis"},"federalState":{"key":"08","name":"Baden-Württemberg"}},{"name":"Hospitalstr.","postalCode":"88499","locality":"Riedlingen","municipality":{"key":"08426097","name":"Riedlingen, Stadt","type":"Stadt"},"district":{"key":"08426","name":"Biberach","type":"Landkreis"},"federalState":{"key":"08","name":"Baden-Württemberg"}},{"name":"Ilgengasse","postalCode":"88499","locality":"Riedlingen","municipality":{"key":"08426097","name":"Riedlingen, Stadt","type":"Stadt"},"district":{"key":"08426","name":"Biberach","type":"Landkreis"},"federalState":{"key":"08","name":"Baden-Württemberg"}},{"name":"Im Anger","postalCode":"88499","locality":"Riedlingen","municipality":{"key":"08426097","name":"Riedlingen, Stadt","type":"Stadt"},"district":{"key":"08426","name":"Biberach","type":"Landkreis"},"federalState":{"key":"08","name":"Baden-Württemberg"}},{"name":"Im Beundle","postalCode":"88499","locality":"Riedlingen","municipality":{"key":"08426097","name":"Riedlingen, Stadt","type":"Stadt"},"district":{"key":"08426","name":"Biberach","type":"Landkreis"},"federalState":{"key":"08","name":"Baden-Württemberg"}},{"name":"Im Dorn","postalCode":"88499","locality":"Riedlingen","municipality":{"key":"08426097","name":"Riedlingen, Stadt","type":"Stadt"},"district":{"key":"08426","name":"Biberach","type":"Landkreis"},"federalState":{"key":"08","name":"Baden-Württemberg"}},{"name":"Im Gäßle","postalCode":"88499","locality":"Riedlingen","municipality":{"key":"08426097","name":"Riedlingen, Stadt","type":"Stadt"},"district":{"key":"08426","name":"Biberach","type":"Landkreis"},"federalState":{"key":"08","name":"Baden-Württemberg"}},{"name":"Im Riegel","postalCode":"88499","locality":"Riedlingen","municipality":{"key":"08426097","name":"Riedlingen, Stadt","type":"Stadt"},"district":{"key":"08426","name":"Biberach","type":"Landkreis"},"federalState":{"key":"08","name":"Baden-Württemberg"}},{"name":"Im Tristel","postalCode":"88499","locality":"Riedlingen","municipality":{"key":"08426097","name":"Riedlingen, Stadt","type":"Stadt"},"district":{"key":"08426","name":"Biberach","type":"Landkreis"},"federalState":{"key":"08","name":"Baden-Württemberg"}},{"name":"Im Zinken","postalCode":"88499","locality":"Riedlingen","municipality":{"key":"08426097","name":"Riedlingen, Stadt","type":"Stadt"},"district":{"key":"08426","name":"Biberach","type":"Landkreis"},"federalState":{"key":"08","name":"Baden-Württemberg"}},{"name":"Ins Wiesental","postalCode":"88499","locality":"Riedlingen","municipality":{"key":"08426097","name":"Riedlingen, Stadt","type":"Stadt"},"district":{"key":"08426","name":"Biberach","type":"Landkreis"},"federalState":{"key":"08","name":"Baden-Württemberg"}},{"name":"Januarius-Zick-Str.","postalCode":"88499","locality":"Riedlingen","municipality":{"key":"08426097","name":"Riedlingen, Stadt","type":"Stadt"},"district":{"key":"08426","name":"Biberach","type":"Landkreis"},"federalState":{"key":"08","name":"Baden-Württemberg"}},{"name":"Johannes-Wagner-Str.","postalCode":"88499","locality":"Riedlingen","municipality":{"key":"08426097","name":"Riedlingen, Stadt","type":"Stadt"},"district":{"key":"08426","name":"Biberach","type":"Landkreis"},"federalState":{"key":"08","name":"Baden-Württemberg"}},{"name":"Johannes-Zwick-Str.","postalCode":"88499","locality":"Riedlingen","municipality":{"key":"08426097","name":"Riedlingen, Stadt","type":"Stadt"},"district":{"key":"08426","name":"Biberach","type":"Landkreis"},"federalState":{"key":"08","name":"Baden-Württemberg"}},{"name":"Josef-Anton-Pfeiffer-Str.","postalCode":"88499","locality":"Riedlingen","municipality":{"key":"08426097","name":"Riedlingen, Stadt","type":"Stadt"},"district":{"key":"08426","name":"Biberach","type":"Landkreis"},"federalState":{"key":"08","name":"Baden-Württemberg"}},{"name":"Josef-Christian-Str.","postalCode":"88499","locality":"Riedlingen","municipality":{"key":"08426097","name":"Riedlingen, Stadt","type":"Stadt"},"district":{"key":"08426","name":"Biberach","type":"Landkreis"},"federalState":{"key":"08","name":"Baden-Württemberg"}},{"name":"Joseph-Gabler-Str.","postalCode":"88499","locality":"Riedlingen","municipality":{"key":"08426097","name":"Riedlingen, Stadt","type":"Stadt"},"district":{"key":"08426","name":"Biberach","type":"Landkreis"},"federalState":{"key":"08","name":"Baden-Württemberg"}},{"name":"Joseph-Kazenmayer-Str.","postalCode":"88499","locality":"Riedlingen","municipality":{"key":"08426097","name":"Riedlingen, Stadt","type":"Stadt"},"district":{"key":"08426","name":"Biberach","type":"Landkreis"},"federalState":{"key":"08","name":"Baden-Württemberg"}},{"name":"Juraweg","postalCode":"89441","locality":"Medlingen","municipality":{"key":"09773153","name":"Medlingen","type":"Kreisangehörige_Gemeinde"},"district":{"key":"09773","name":"Dillingen a.d.Donau","type":"Landkreis"},"federalState":{"key":"09","name":"Bayern"}},{"name":"Kapellenweg","postalCode":"88499","locality":"Riedlingen","municipality":{"key":"08426097","name":"Riedlingen, Stadt","type":"Stadt"},"district":{"key":"08426","name":"Biberach","type":"Landkreis"},"federalState":{"key":"08","name":"Baden-Württemberg"}},{"name":"Kapuzinerweg","postalCode":"88499","locality":"Riedlingen","municipality":{"key":"08426097","name":"Riedlingen, Stadt","type":"Stadt"},"district":{"key":"08426","name":"Biberach","type":"Landkreis"},"federalState":{"key":"08","name":"Baden-Württemberg"}},{"name":"Kardinal-Faulhaber-Str.","postalCode":"83533","locality":"Edling","municipality":{"key":"09187124","name":"Edling","type":"Kreisangehörige_Gemeinde"},"district":{"key":"09187","name":"Rosenheim","type":"Landkreis"},"federalState":{"key":"09","name":"Bayern"}},{"name":"Karl-Wähmann-Str.","postalCode":"83533","locality":"Edling","municipality":{"key":"09187124","name":"Edling","type":"Kreisangehörige_Gemeinde"},"district":{"key":"09187","name":"Rosenheim","type":"Landkreis"},"federalState":{"key":"09","name":"Bayern"}},{"name":"Karpfenweg","postalCode":"83533","locality":"Edling","municipality":{"key":"09187124","name":"Edling","type":"Kreisangehörige_Gemeinde"},"district":{"key":"09187","name":"Rosenheim","type":"Landkreis"},"federalState":{"key":"09","name":"Bayern"}},{"name":"Käshof","postalCode":"88499","locality":"Riedlingen","municipality":{"key":"08426097","name":"Riedlingen, Stadt","type":"Stadt"},"district":{"key":"08426","name":"Biberach","type":"Landkreis"},"federalState":{"key":"08","name":"Baden-Württemberg"}},{"name":"Kastanienallee","postalCode":"88499","locality":"Riedlingen","municipality":{"key":"08426097","name":"Riedlingen, Stadt","type":"Stadt"},"district":{"key":"08426","name":"Biberach","type":"Landkreis"},"federalState":{"key":"08","name":"Baden-Württemberg"}},{"name":"Kastanienallee","postalCode":"88521","locality":"Riedlingen","municipality":{"key":"08426097","name":"Riedlingen, Stadt","type":"Stadt"},"district":{"key":"08426","name":"Biberach","type":"Landkreis"},"federalState":{"key":"08","name":"Baden-Württemberg"}},{"name":"Kastenhausstr.","postalCode":"89441","locality":"Medlingen","municipality":{"key":"09773153","name":"Medlingen","type":"Kreisangehörige_Gemeinde"},"district":{"key":"09773","name":"Dillingen a.d.Donau","type":"Landkreis"},"federalState":{"key":"09","name":"Bayern"}},{"name":"Kaufhausgasse","postalCode":"88499","locality":"Riedlingen","municipality":{"key":"08426097","name":"Riedlingen, Stadt","type":"Stadt"},"district":{"key":"08426","name":"Biberach","type":"Landkreis"},"federalState":{"key":"08","name":"Baden-Württemberg"}},{"name":"Kellerberg","postalCode":"88499","locality":"Riedlingen","municipality":{"key":"08426097","name":"Riedlingen, Stadt","type":"Stadt"},"district":{"key":"08426","name":"Biberach","type":"Landkreis"},"federalState":{"key":"08","name":"Baden-Württemberg"}},{"name":"Keltenstr.","postalCode":"88499","locality":"Riedlingen","municipality":{"key":"08426097","name":"Riedlingen, Stadt","type":"Stadt"},"district":{"key":"08426","name":"Biberach","type":"Landkreis"},"federalState":{"key":"08","name":"Baden-Württemberg"}},{"name":"Kernerstr.","postalCode":"88499","locality":"Riedlingen","municipality":{"key":"08426097","name":"Riedlingen, Stadt","type":"Stadt"},"district":{"key":"08426","name":"Biberach","type":"Landkreis"},"federalState":{"key":"08","name":"Baden-Württemberg"}},{"name":"Kesselseestr.","postalCode":"83533","locality":"Edling","municipality":{"key":"09187124","name":"Edling","type":"Kreisangehörige_Gemeinde"},"district":{"key":"09187","name":"Rosenheim","type":"Landkreis"},"federalState":{"key":"09","name":"Bayern"}},{"name":"Kiesgrubenweg","postalCode":"88499","locality":"Riedlingen","municipality":{"key":"08426097","name":"Riedlingen, Stadt","type":"Stadt"},"district":{"key":"08426","name":"Biberach","type":"Landkreis"},"federalState":{"key":"08","name":"Baden-Württemberg"}},{"name":"Kirchenberg","postalCode":"88499","locality":"Riedlingen","municipality":{"key":"08426097","name":"Riedlingen, Stadt","type":"Stadt"},"district":{"key":"08426","name":"Biberach","type":"Landkreis"},"federalState":{"key":"08","name":"Baden-Württemberg"}},{"name":"Kirchgasse","postalCode":"89441","locality":"Medlingen","municipality":{"key":"09773153","name":"Medlingen","type":"Kreisangehörige_Gemeinde"},"district":{"key":"09773","name":"Dillingen a.d.Donau","type":"Landkreis"},"federalState":{"key":"09","name":"Bayern"}},{"name":"Kirchstr.","postalCode":"88499","locality":"Riedlingen","municipality":{"key":"08426097","name":"Riedlingen, Stadt","type":"Stadt"},"district":{"key":"08426","name":"Biberach","type":"Landkreis"},"federalState":{"key":"08","name":"Baden-Württemberg"}},{"name":"Kleiststr.","postalCode":"88499","locality":"Riedlingen","municipality":{"key":"08426097","name":"Riedlingen, Stadt","type":"Stadt"},"district":{"key":"08426","name":"Biberach","type":"Landkreis"},"federalState":{"key":"08","name":"Baden-Württemberg"}},{"name":"Kolpingstr.","postalCode":"88499","locality":"Riedlingen","municipality":{"key":"08426097","name":"Riedlingen, Stadt","type":"Stadt"},"district":{"key":"08426","name":"Biberach","type":"Landkreis"},"federalState":{"key":"08","name":"Baden-Württemberg"}},{"name":"Konradin-Kreutzer-Str.","postalCode":"88499","locality":"Riedlingen","municipality":{"key":"08426097","name":"Riedlingen, Stadt","type":"Stadt"},"district":{"key":"08426","name":"Biberach","type":"Landkreis"},"federalState":{"key":"08","name":"Baden-Württemberg"}},{"name":"Konrad-Manopp-Str.","postalCode":"88499","locality":"Riedlingen","municipality":{"key":"08426097","name":"Riedlingen, Stadt","type":"Stadt"},"district":{"key":"08426","name":"Biberach","type":"Landkreis"},"federalState":{"key":"08","name":"Baden-Württemberg"}},{"name":"Krankenhausweg","postalCode":"88499","locality":"Riedlingen","municipality":{"key":"08426097","name":"Riedlingen, Stadt","type":"Stadt"},"district":{"key":"08426","name":"Biberach","type":"Landkreis"},"federalState":{"key":"08","name":"Baden-Württemberg"}},{"name":"Leimgrubenweg","postalCode":"88499","locality":"Riedlingen","municipality":{"key":"08426097","name":"Riedlingen, Stadt","type":"Stadt"},"district":{"key":"08426","name":"Biberach","type":"Landkreis"},"federalState":{"key":"08","name":"Baden-Württemberg"}},{"name":"Lerchenweg","postalCode":"88499","locality":"Riedlingen","municipality":{"key":"08426097","name":"Riedlingen, Stadt","type":"Stadt"},"district":{"key":"08426","name":"Biberach","type":"Landkreis"},"federalState":{"key":"08","name":"Baden-Württemberg"}},{"name":"Lerchenweg","postalCode":"89441","locality":"Medlingen","municipality":{"key":"09773153","name":"Medlingen","type":"Kreisangehörige_Gemeinde"},"district":{"key":"09773","name":"Dillingen a.d.Donau","type":"Landkreis"},"federalState":{"key":"09","name":"Bayern"}},{"name":"Lessingstr.","postalCode":"88499","locality":"Riedlingen","municipality":{"key":"08426097","name":"Riedlingen, Stadt","type":"Stadt"},"district":{"key":"08426","name":"Biberach","type":"Landkreis"},"federalState":{"key":"08","name":"Baden-Württemberg"}},{"name":"Lindengasse","postalCode":"88499","locality":"Riedlingen","municipality":{"key":"08426097","name":"Riedlingen, Stadt","type":"Stadt"},"district":{"key":"08426","name":"Biberach","type":"Landkreis"},"federalState":{"key":"08","name":"Baden-Württemberg"}},{"name":"Lindenstr.","postalCode":"83533","locality":"Edling","municipality":{"key":"09187124","name":"Edling","type":"Kreisangehörige_Gemeinde"},"district":{"key":"09187","name":"Rosenheim","type":"Landkreis"},"federalState":{"key":"09","name":"Bayern"}},{"name":"Lindenweg","postalCode":"88499","locality":"Riedlingen","municipality":{"key":"08426097","name":"Riedlingen, Stadt","type":"Stadt"},"district":{"key":"08426","name":"Biberach","type":"Landkreis"},"federalState":{"key":"08","name":"Baden-Württemberg"}},{"name":"Lindöschweg","postalCode":"88499","locality":"Riedlingen","municipality":{"key":"08426097","name":"Riedlingen, Stadt","type":"Stadt"},"district":{"key":"08426","name":"Biberach","type":"Landkreis"},"federalState":{"key":"08","name":"Baden-Württemberg"}},{"name":"Lorettostr.","postalCode":"89441","locality":"Medlingen","municipality":{"key":"09773153","name":"Medlingen","type":"Kreisangehörige_Gemeinde"},"district":{"key":"09773","name":"Dillingen a.d.Donau","type":"Landkreis"},"federalState":{"key":"09","name":"Bayern"}},{"name":"Ludwig-Walz-Str.","postalCode":"88499","locality":"Riedlingen","municipality":{"key":"08426097","name":"Riedlingen, Stadt","type":"Stadt"},"district":{"key":"08426","name":"Biberach","type":"Landkreis"},"federalState":{"key":"08","name":"Baden-Württemberg"}},{"name":"Maria-Caspar-Filser-Str.","postalCode":"88499","locality":"Riedlingen","municipality":{"key":"08426097","name":"Riedlingen, Stadt","type":"Stadt"},"district":{"key":"08426","name":"Biberach","type":"Landkreis"},"federalState":{"key":"08","name":"Baden-Württemberg"}},{"name":"Marktplatz","postalCode":"88499","locality":"Riedlingen","municipality":{"key":"08426097","name":"Riedlingen, Stadt","type":"Stadt"},"district":{"key":"08426","name":"Biberach","type":"Landkreis"},"federalState":{"key":"08","name":"Baden-Württemberg"}},{"name":"Martin-Zey-Str.","postalCode":"88499","locality":"Riedlingen","municipality":{"key":"08426097","name":"Riedlingen, Stadt","type":"Stadt"},"district":{"key":"08426","name":"Biberach","type":"Landkreis"},"federalState":{"key":"08","name":"Baden-Württemberg"}},{"name":"Mendlerstr.","postalCode":"88499","locality":"Riedlingen","municipality":{"key":"08426097","name":"Riedlingen, Stadt","type":"Stadt"},"district":{"key":"08426","name":"Biberach","type":"Landkreis"},"federalState":{"key":"08","name":"Baden-Württemberg"}},{"name":"Merowingerstr.","postalCode":"88499","locality":"Riedlingen","municipality":{"key":"08426097","name":"Riedlingen, Stadt","type":"Stadt"},"district":{"key":"08426","name":"Biberach","type":"Landkreis"},"federalState":{"key":"08","name":"Baden-Württemberg"}},{"name":"Michael-Holzhay-Str.","postalCode":"88499","locality":"Riedlingen","municipality":{"key":"08426097","name":"Riedlingen, Stadt","type":"Stadt"},"district":{"key":"08426","name":"Biberach","type":"Landkreis"},"federalState":{"key":"08","name":"Baden-Württemberg"}},{"name":"Michel-Buck-Str.","postalCode":"88499","locality":"Riedlingen","municipality":{"key":"08426097","name":"Riedlingen, Stadt","type":"Stadt"},"district":{"key":"08426","name":"Biberach","type":"Landkreis"},"federalState":{"key":"08","name":"Baden-Württemberg"}},{"name":"Mitteleschweg","postalCode":"88499","locality":"Riedlingen","municipality":{"key":"08426097","name":"Riedlingen, Stadt","type":"Stadt"},"district":{"key":"08426","name":"Biberach","type":"Landkreis"},"federalState":{"key":"08","name":"Baden-Württemberg"}},{"name":"Mörikestr.","postalCode":"88499","locality":"Riedlingen","municipality":{"key":"08426097","name":"Riedlingen, Stadt","type":"Stadt"},"district":{"key":"08426","name":"Biberach","type":"Landkreis"},"federalState":{"key":"08","name":"Baden-Württemberg"}},{"name":"Mörsinger Weg","postalCode":"88499","locality":"Riedlingen","municipality":{"key":"08426097","name":"Riedlingen, Stadt","type":"Stadt"},"district":{"key":"08426","name":"Biberach","type":"Landkreis"},"federalState":{"key":"08","name":"Baden-Württemberg"}},{"name":"Mozartstr.","postalCode":"88499","locality":"Riedlingen","municipality":{"key":"08426097","name":"Riedlingen, Stadt","type":"Stadt"},"district":{"key":"08426","name":"Biberach","type":"Landkreis"},"federalState":{"key":"08","name":"Baden-Württemberg"}},{"name":"Mühlberg","postalCode":"88499","locality":"Riedlingen","municipality":{"key":"08426097","name":"Riedlingen, Stadt","type":"Stadt"},"district":{"key":"08426","name":"Biberach","type":"Landkreis"},"federalState":{"key":"08","name":"Baden-Württemberg"}},{"name":"Mühleweg","postalCode":"88499","locality":"Riedlingen","municipality":{"key":"08426097","name":"Riedlingen, Stadt","type":"Stadt"},"district":{"key":"08426","name":"Biberach","type":"Landkreis"},"federalState":{"key":"08","name":"Baden-Württemberg"}},{"name":"Mühlinsel","postalCode":"88499","locality":"Riedlingen","municipality":{"key":"08426097","name":"Riedlingen, Stadt","type":"Stadt"},"district":{"key":"08426","name":"Biberach","type":"Landkreis"},"federalState":{"key":"08","name":"Baden-Württemberg"}},{"name":"Mühltorstr.","postalCode":"88499","locality":"Riedlingen","municipality":{"key":"08426097","name":"Riedlingen, Stadt","type":"Stadt"},"district":{"key":"08426","name":"Biberach","type":"Landkreis"},"federalState":{"key":"08","name":"Baden-Württemberg"}},{"name":"Mühlvorstadt","postalCode":"88499","locality":"Riedlingen","municipality":{"key":"08426097","name":"Riedlingen, Stadt","type":"Stadt"},"district":{"key":"08426","name":"Biberach","type":"Landkreis"},"federalState":{"key":"08","name":"Baden-Württemberg"}},{"name":"Münchner Str.","postalCode":"83533","locality":"Edling","municipality":{"key":"09187124","name":"Edling","type":"Kreisangehörige_Gemeinde"},"district":{"key":"09187","name":"Rosenheim","type":"Landkreis"},"federalState":{"key":"09","name":"Bayern"}},{"name":"Neue Unlinger Str.","postalCode":"88499","locality":"Riedlingen","municipality":{"key":"08426097","name":"Riedlingen, Stadt","type":"Stadt"},"district":{"key":"08426","name":"Biberach","type":"Landkreis"},"federalState":{"key":"08","name":"Baden-Württemberg"}},{"name":"Neufraer Str.","postalCode":"88499","locality":"Riedlingen","municipality":{"key":"08426097","name":"Riedlingen, Stadt","type":"Stadt"},"district":{"key":"08426","name":"Biberach","type":"Landkreis"},"federalState":{"key":"08","name":"Baden-Württemberg"}},{"name":"Niederfeld","postalCode":"88499","locality":"Riedlingen","municipality":{"key":"08426097","name":"Riedlingen, Stadt","type":"Stadt"},"district":{"key":"08426","name":"Biberach","type":"Landkreis"},"federalState":{"key":"08","name":"Baden-Württemberg"}},{"name":"Niederhofen","postalCode":"88499","locality":"Riedlingen","municipality":{"key":"08426097","name":"Riedlingen, Stadt","type":"Stadt"},"district":{"key":"08426","name":"Biberach","type":"Landkreis"},"federalState":{"key":"08","name":"Baden-Württemberg"}},{"name":"Nußbaumstr.","postalCode":"83533","locality":"Edling","municipality":{"key":"09187124","name":"Edling","type":"Kreisangehörige_Gemeinde"},"district":{"key":"09187","name":"Rosenheim","type":"Landkreis"},"federalState":{"key":"09","name":"Bayern"}},{"name":"Oberriedstr.","postalCode":"88499","locality":"Riedlingen","municipality":{"key":"08426097","name":"Riedlingen, Stadt","type":"Stadt"},"district":{"key":"08426","name":"Biberach","type":"Landkreis"},"federalState":{"key":"08","name":"Baden-Württemberg"}},{"name":"Otto-Steiff-Weg","postalCode":"89441","locality":"Medlingen","municipality":{"key":"09773153","name":"Medlingen","type":"Kreisangehörige_Gemeinde"},"district":{"key":"09773","name":"Dillingen a.d.Donau","type":"Landkreis"},"federalState":{"key":"09","name":"Bayern"}},{"name":"Panoramaweg","postalCode":"88499","locality":"Riedlingen","municipality":{"key":"08426097","name":"Riedlingen, Stadt","type":"Stadt"},"district":{"key":"08426","name":"Biberach","type":"Landkreis"},"federalState":{"key":"08","name":"Baden-Württemberg"}},{"name":"Parkstr.","postalCode":"88499","locality":"Riedlingen","municipality":{"key":"08426097","name":"Riedlingen, Stadt","type":"Stadt"},"district":{"key":"08426","name":"Biberach","type":"Landkreis"},"federalState":{"key":"08","name":"Baden-Württemberg"}},{"name":"Pfaffengasse","postalCode":"88499","locality":"Riedlingen","municipality":{"key":"08426097","name":"Riedlingen, Stadt","type":"Stadt"},"district":{"key":"08426","name":"Biberach","type":"Landkreis"},"federalState":{"key":"08","name":"Baden-Württemberg"}},{"name":"Pfaffinger Str.","postalCode":"83533","locality":"Edling","municipality":{"key":"09187124","name":"Edling","type":"Kreisangehörige_Gemeinde"},"district":{"key":"09187","name":"Rosenheim","type":"Landkreis"},"federalState":{"key":"09","name":"Bayern"}},{"name":"Pfarräckerweg","postalCode":"88499","locality":"Riedlingen","municipality":{"key":"08426097","name":"Riedlingen, Stadt","type":"Stadt"},"district":{"key":"08426","name":"Biberach","type":"Landkreis"},"federalState":{"key":"08","name":"Baden-Württemberg"}},{"name":"Pfarrer-Huber-Weg","postalCode":"83533","locality":"Edling","municipality":{"key":"09187124","name":"Edling","type":"Kreisangehörige_Gemeinde"},"district":{"key":"09187","name":"Rosenheim","type":"Landkreis"},"federalState":{"key":"09","name":"Bayern"}},{"name":"Pfauenstr.","postalCode":"88499","locality":"Riedlingen","municipality":{"key":"08426097","name":"Riedlingen, Stadt","type":"Stadt"},"district":{"key":"08426","name":"Biberach","type":"Landkreis"},"federalState":{"key":"08","name":"Baden-Württemberg"}},{"name":"Postweg","postalCode":"88499","locality":"Riedlingen","municipality":{"key":"08426097","name":"Riedlingen, Stadt","type":"Stadt"},"district":{"key":"08426","name":"Biberach","type":"Landkreis"},"federalState":{"key":"08","name":"Baden-Württemberg"}},{"name":"Potsdamer Str.","postalCode":"88499","locality":"Riedlingen","municipality":{"key":"08426097","name":"Riedlingen, Stadt","type":"Stadt"},"district":{"key":"08426","name":"Biberach","type":"Landkreis"},"federalState":{"key":"08","name":"Baden-Württemberg"}},{"name":"Quirinstr.","postalCode":"83024","locality":"Rosenheim","municipality":{"key":"09163000","name":"Rosenheim","type":"Kreisfreie_Stadt"},"district":{"key":"09163","name":"Rosenheim","type":"Kreisfreie_Stadt"},"federalState":{"key":"09","name":"Bayern"}},{"name":"Raiffeisenweg","postalCode":"88499","locality":"Riedlingen","municipality":{"key":"08426097","name":"Riedlingen, Stadt","type":"Stadt"},"district":{"key":"08426","name":"Biberach","type":"Landkreis"},"federalState":{"key":"08","name":"Baden-Württemberg"}},{"name":"Rathausplatz","postalCode":"83533","locality":"Edling","municipality":{"key":"09187124","name":"Edling","type":"Kreisangehörige_Gemeinde"},"district":{"key":"09187","name":"Rosenheim","type":"Landkreis"},"federalState":{"key":"09","name":"Bayern"}},{"name":"Rehmweg","postalCode":"88499","locality":"Riedlingen","municipality":{"key":"08426097","name":"Riedlingen, Stadt","type":"Stadt"},"district":{"key":"08426","name":"Biberach","type":"Landkreis"},"federalState":{"key":"08","name":"Baden-Württemberg"}},{"name":"Res-Fischer-Str.","postalCode":"88499","locality":"Riedlingen","municipality":{"key":"08426097","name":"Riedlingen, Stadt","type":"Stadt"},"district":{"key":"08426","name":"Biberach","type":"Landkreis"},"federalState":{"key":"08","name":"Baden-Württemberg"}},{"name":"Reutestr.","postalCode":"88499","locality":"Riedlingen","municipality":{"key":"08426097","name":"Riedlingen, Stadt","type":"Stadt"},"district":{"key":"08426","name":"Biberach","type":"Landkreis"},"federalState":{"key":"08","name":"Baden-Württemberg"}},{"name":"Reutlinger Str.","postalCode":"88499","locality":"Riedlingen","municipality":{"key":"08426097","name":"Riedlingen, Stadt","type":"Stadt"},"district":{"key":"08426","name":"Biberach","type":"Landkreis"},"federalState":{"key":"08","name":"Baden-Württemberg"}},{"name":"Richard-Hohly-Str.","postalCode":"88499","locality":"Riedlingen","municipality":{"key":"08426097","name":"Riedlingen, Stadt","type":"Stadt"},"district":{"key":"08426","name":"Biberach","type":"Landkreis"},"federalState":{"key":"08","name":"Baden-Württemberg"}},{"name":"Riedgasse","postalCode":"88499","locality":"Riedlingen","municipality":{"key":"08426097","name":"Riedlingen, Stadt","type":"Stadt"},"district":{"key":"08426","name":"Biberach","type":"Landkreis"},"federalState":{"key":"08","name":"Baden-Württemberg"}},{"name":"Riesengebirgsweg","postalCode":"83533","locality":"Edling","municipality":{"key":"09187124","name":"Edling","type":"Kreisangehörige_Gemeinde"},"district":{"key":"09187","name":"Rosenheim","type":"Landkreis"},"federalState":{"key":"09","name":"Bayern"}},{"name":"Römerstr.","postalCode":"83533","locality":"Edling","municipality":{"key":"09187124","name":"Edling","type":"Kreisangehörige_Gemeinde"},"district":{"key":"09187","name":"Rosenheim","type":"Landkreis"},"federalState":{"key":"09","name":"Bayern"}},{"name":"Römerstr.","postalCode":"88499","locality":"Riedlingen","municipality":{"key":"08426097","name":"Riedlingen, Stadt","type":"Stadt"},"district":{"key":"08426","name":"Biberach","type":"Landkreis"},"federalState":{"key":"08","name":"Baden-Württemberg"}},{"name":"Römerstr.","postalCode":"89441","locality":"Medlingen","municipality":{"key":"09773153","name":"Medlingen","type":"Kreisangehörige_Gemeinde"},"district":{"key":"09773","name":"Dillingen a.d.Donau","type":"Landkreis"},"federalState":{"key":"09","name":"Bayern"}},{"name":"Rosengartenweg","postalCode":"88499","locality":"Riedlingen","municipality":{"key":"08426097","name":"Riedlingen, Stadt","type":"Stadt"},"district":{"key":"08426","name":"Biberach","type":"Landkreis"},"federalState":{"key":"08","name":"Baden-Württemberg"}},{"name":"Rosenstr.","postalCode":"83533","locality":"Edling","municipality":{"key":"09187124","name":"Edling","type":"Kreisangehörige_Gemeinde"},"district":{"key":"09187","name":"Rosenheim","type":"Landkreis"},"federalState":{"key":"09","name":"Bayern"}},{"name":"Rosenweg","postalCode":"88499","locality":"Riedlingen","municipality":{"key":"08426097","name":"Riedlingen, Stadt","type":"Stadt"},"district":{"key":"08426","name":"Biberach","type":"Landkreis"},"federalState":{"key":"08","name":"Baden-Württemberg"}},{"name":"Roßharter Str.","postalCode":"83533","locality":"Edling","municipality":{"key":"09187124","name":"Edling","type":"Kreisangehörige_Gemeinde"},"district":{"key":"09187","name":"Rosenheim","type":"Landkreis"},"federalState":{"key":"09","name":"Bayern"}},{"name":"Rösslegasse","postalCode":"88499","locality":"Riedlingen","municipality":{"key":"08426097","name":"Riedlingen, Stadt","type":"Stadt"},"district":{"key":"08426","name":"Biberach","type":"Landkreis"},"federalState":{"key":"08","name":"Baden-Württemberg"}},{"name":"Rotwandstr.","postalCode":"83533","locality":"Edling","municipality":{"key":"09187124","name":"Edling","type":"Kreisangehörige_Gemeinde"},"district":{"key":"09187","name":"Rosenheim","type":"Landkreis"},"federalState":{"key":"09","name":"Bayern"}},{"name":"Rudolf-Dieter-Str.","postalCode":"88499","locality":"Riedlingen","municipality":{"key":"08426097","name":"Riedlingen, Stadt","type":"Stadt"},"district":{"key":"08426","name":"Biberach","type":"Landkreis"},"federalState":{"key":"08","name":"Baden-Württemberg"}},{"name":"Sägmühlstr.","postalCode":"88499","locality":"Riedlingen","municipality":{"key":"08426097","name":"Riedlingen, Stadt","type":"Stadt"},"district":{"key":"08426","name":"Biberach","type":"Landkreis"},"federalState":{"key":"08","name":"Baden-Württemberg"}},{"name":"Saiblingweg","postalCode":"83533","locality":"Edling","municipality":{"key":"09187124","name":"Edling","type":"Kreisangehörige_Gemeinde"},"district":{"key":"09187","name":"Rosenheim","type":"Landkreis"},"federalState":{"key":"09","name":"Bayern"}},{"name":"Samerstr.","postalCode":"83533","locality":"Edling","municipality":{"key":"09187124","name":"Edling","type":"Kreisangehörige_Gemeinde"},"district":{"key":"09187","name":"Rosenheim","type":"Landkreis"},"federalState":{"key":"09","name":"Bayern"}},{"name":"Sankt-Gerhard-Str.","postalCode":"88499","locality":"Riedlingen","municipality":{"key":"08426097","name":"Riedlingen, Stadt","type":"Stadt"},"district":{"key":"08426","name":"Biberach","type":"Landkreis"},"federalState":{"key":"08","name":"Baden-Württemberg"}},{"name":"Sankt-Leonhard-Str.","postalCode":"88499","locality":"Riedlingen","municipality":{"key":"08426097","name":"Riedlingen, Stadt","type":"Stadt"},"district":{"key":"08426","name":"Biberach","type":"Landkreis"},"federalState":{"key":"08","name":"Baden-Württemberg"}},{"name":"Sankt-Michaels-Weg","postalCode":"88499","locality":"Riedlingen","municipality":{"key":"08426097","name":"Riedlingen, Stadt","type":"Stadt"},"district":{"key":"08426","name":"Biberach","type":"Landkreis"},"federalState":{"key":"08","name":"Baden-Württemberg"}},{"name":"Sankt-Wendelinus-Str.","postalCode":"88499","locality":"Riedlingen","municipality":{"key":"08426097","name":"Riedlingen, Stadt","type":"Stadt"},"district":{"key":"08426","name":"Biberach","type":"Landkreis"},"federalState":{"key":"08","name":"Baden-Württemberg"}},{"name":"Schanzstr.","postalCode":"88499","locality":"Riedlingen","municipality":{"key":"08426097","name":"Riedlingen, Stadt","type":"Stadt"},"district":{"key":"08426","name":"Biberach","type":"Landkreis"},"federalState":{"key":"08","name":"Baden-Württemberg"}},{"name":"Scheffelstr.","postalCode":"88499","locality":"Riedlingen","municipality":{"key":"08426097","name":"Riedlingen, Stadt","type":"Stadt"},"district":{"key":"08426","name":"Biberach","type":"Landkreis"},"federalState":{"key":"08","name":"Baden-Württemberg"}},{"name":"Schellwieser Str.","postalCode":"83533","locality":"Edling","municipality":{"key":"09187124","name":"Edling","type":"Kreisangehörige_Gemeinde"},"district":{"key":"09187","name":"Rosenheim","type":"Landkreis"},"federalState":{"key":"09","name":"Bayern"}},{"name":"Schillerstr.","postalCode":"88499","locality":"Riedlingen","municipality":{"key":"08426097","name":"Riedlingen, Stadt","type":"Stadt"},"district":{"key":"08426","name":"Biberach","type":"Landkreis"},"federalState":{"key":"08","name":"Baden-Württemberg"}},{"name":"Schloßhof","postalCode":"88499","locality":"Riedlingen","municipality":{"key":"08426097","name":"Riedlingen, Stadt","type":"Stadt"},"district":{"key":"08426","name":"Biberach","type":"Landkreis"},"federalState":{"key":"08","name":"Baden-Württemberg"}},{"name":"Schmalzgasse","postalCode":"88499","locality":"Riedlingen","municipality":{"key":"08426097","name":"Riedlingen, Stadt","type":"Stadt"},"district":{"key":"08426","name":"Biberach","type":"Landkreis"},"federalState":{"key":"08","name":"Baden-Württemberg"}},{"name":"Schmiedstr.","postalCode":"88499","locality":"Riedlingen","municipality":{"key":"08426097","name":"Riedlingen, Stadt","type":"Stadt"},"district":{"key":"08426","name":"Biberach","type":"Landkreis"},"federalState":{"key":"08","name":"Baden-Württemberg"}},{"name":"Schneckengarten","postalCode":"88499","locality":"Riedlingen","municipality":{"key":"08426097","name":"Riedlingen, Stadt","type":"Stadt"},"district":{"key":"08426","name":"Biberach","type":"Landkreis"},"federalState":{"key":"08","name":"Baden-Württemberg"}},{"name":"Schreyergasse","postalCode":"88499","locality":"Riedlingen","municipality":{"key":"08426097","name":"Riedlingen, Stadt","type":"Stadt"},"district":{"key":"08426","name":"Biberach","type":"Landkreis"},"federalState":{"key":"08","name":"Baden-Württemberg"}},{"name":"Schulgasse","postalCode":"88499","locality":"Riedlingen","municipality":{"key":"08426097","name":"Riedlingen, Stadt","type":"Stadt"},"district":{"key":"08426","name":"Biberach","type":"Landkreis"},"federalState":{"key":"08","name":"Baden-Württemberg"}},{"name":"Schwabengäßle","postalCode":"88499","locality":"Riedlingen","municipality":{"key":"08426097","name":"Riedlingen, Stadt","type":"Stadt"},"district":{"key":"08426","name":"Biberach","type":"Landkreis"},"federalState":{"key":"08","name":"Baden-Württemberg"}},{"name":"Schwabenstr.","postalCode":"88499","locality":"Riedlingen","municipality":{"key":"08426097","name":"Riedlingen, Stadt","type":"Stadt"},"district":{"key":"08426","name":"Biberach","type":"Landkreis"},"federalState":{"key":"08","name":"Baden-Württemberg"}},{"name":"Schwarzachstr.","postalCode":"88499","locality":"Riedlingen","municipality":{"key":"08426097","name":"Riedlingen, Stadt","type":"Stadt"},"district":{"key":"08426","name":"Biberach","type":"Landkreis"},"federalState":{"key":"08","name":"Baden-Württemberg"}},{"name":"Sebastian-Kneipp-Str.","postalCode":"88499","locality":"Riedlingen","municipality":{"key":"08426097","name":"Riedlingen, Stadt","type":"Stadt"},"district":{"key":"08426","name":"Biberach","type":"Landkreis"},"federalState":{"key":"08","name":"Baden-Württemberg"}},{"name":"Sebastian-Sailer-Str.","postalCode":"88499","locality":"Riedlingen","municipality":{"key":"08426097","name":"Riedlingen, Stadt","type":"Stadt"},"district":{"key":"08426","name":"Biberach","type":"Landkreis"},"federalState":{"key":"08","name":"Baden-Württemberg"}},{"name":"Sebastiansgasse","postalCode":"88499","locality":"Riedlingen","municipality":{"key":"08426097","name":"Riedlingen, Stadt","type":"Stadt"},"district":{"key":"08426","name":"Biberach","type":"Landkreis"},"federalState":{"key":"08","name":"Baden-Württemberg"}},{"name":"Sebastian-Wierer-Str.","postalCode":"88499","locality":"Riedlingen","municipality":{"key":"08426097","name":"Riedlingen, Stadt","type":"Stadt"},"district":{"key":"08426","name":"Biberach","type":"Landkreis"},"federalState":{"key":"08","name":"Baden-Württemberg"}},{"name":"Silcherweg","postalCode":"88499","locality":"Riedlingen","municipality":{"key":"08426097","name":"Riedlingen, Stadt","type":"Stadt"},"district":{"key":"08426","name":"Biberach","type":"Landkreis"},"federalState":{"key":"08","name":"Baden-Württemberg"}},{"name":"Singlestr.","postalCode":"88499","locality":"Riedlingen","municipality":{"key":"08426097","name":"Riedlingen, Stadt","type":"Stadt"},"district":{"key":"08426","name":"Biberach","type":"Landkreis"},"federalState":{"key":"08","name":"Baden-Württemberg"}},{"name":"Sonnenstr.","postalCode":"83533","locality":"Edling","municipality":{"key":"09187124","name":"Edling","type":"Kreisangehörige_Gemeinde"},"district":{"key":"09187","name":"Rosenheim","type":"Landkreis"},"federalState":{"key":"09","name":"Bayern"}},{"name":"Sperberweg","postalCode":"83533","locality":"Edling","municipality":{"key":"09187124","name":"Edling","type":"Kreisangehörige_Gemeinde"},"district":{"key":"09187","name":"Rosenheim","type":"Landkreis"},"federalState":{"key":"09","name":"Bayern"}},{"name":"Spiesshauweg","postalCode":"88499","locality":"Riedlingen","municipality":{"key":"08426097","name":"Riedlingen, Stadt","type":"Stadt"},"district":{"key":"08426","name":"Biberach","type":"Landkreis"},"federalState":{"key":"08","name":"Baden-Württemberg"}},{"name":"Spitalstr.","postalCode":"88499","locality":"Riedlingen","municipality":{"key":"08426097","name":"Riedlingen, Stadt","type":"Stadt"},"district":{"key":"08426","name":"Biberach","type":"Landkreis"},"federalState":{"key":"08","name":"Baden-Württemberg"}},{"name":"Spitzsteinstr.","postalCode":"83533","locality":"Edling","municipality":{"key":"09187124","name":"Edling","type":"Kreisangehörige_Gemeinde"},"district":{"key":"09187","name":"Rosenheim","type":"Landkreis"},"federalState":{"key":"09","name":"Bayern"}},{"name":"Starenweg","postalCode":"88499","locality":"Riedlingen","municipality":{"key":"08426097","name":"Riedlingen, Stadt","type":"Stadt"},"district":{"key":"08426","name":"Biberach","type":"Landkreis"},"federalState":{"key":"08","name":"Baden-Württemberg"}},{"name":"Staudhamer Str.","postalCode":"83533","locality":"Edling","municipality":{"key":"09187124","name":"Edling","type":"Kreisangehörige_Gemeinde"},"district":{"key":"09187","name":"Rosenheim","type":"Landkreis"},"federalState":{"key":"09","name":"Bayern"}},{"name":"Stifterstr.","postalCode":"88499","locality":"Riedlingen","municipality":{"key":"08426097","name":"Riedlingen, Stadt","type":"Stadt"},"district":{"key":"08426","name":"Biberach","type":"Landkreis"},"federalState":{"key":"08","name":"Baden-Württemberg"}},{"name":"Storchengasse","postalCode":"88499","locality":"Riedlingen","municipality":{"key":"08426097","name":"Riedlingen, Stadt","type":"Stadt"},"district":{"key":"08426","name":"Biberach","type":"Landkreis"},"federalState":{"key":"08","name":"Baden-Württemberg"}},{"name":"Tafelacker","postalCode":"88499","locality":"Riedlingen","municipality":{"key":"08426097","name":"Riedlingen, Stadt","type":"Stadt"},"district":{"key":"08426","name":"Biberach","type":"Landkreis"},"federalState":{"key":"08","name":"Baden-Württemberg"}},{"name":"Talackerweg","postalCode":"88499","locality":"Riedlingen","municipality":{"key":"08426097","name":"Riedlingen, Stadt","type":"Stadt"},"district":{"key":"08426","name":"Biberach","type":"Landkreis"},"federalState":{"key":"08","name":"Baden-Württemberg"}},{"name":"Talblick","postalCode":"88499","locality":"Riedlingen","municipality":{"key":"08426097","name":"Riedlingen, Stadt","type":"Stadt"},"district":{"key":"08426","name":"Biberach","type":"Landkreis"},"federalState":{"key":"08","name":"Baden-Württemberg"}},{"name":"Tannenstr.","postalCode":"83533","locality":"Edling","municipality":{"key":"09187124","name":"Edling","type":"Kreisangehörige_Gemeinde"},"district":{"key":"09187","name":"Rosenheim","type":"Landkreis"},"federalState":{"key":"09","name":"Bayern"}},{"name":"Tautschbuchstr.","postalCode":"88499","locality":"Riedlingen","municipality":{"key":"08426097","name":"Riedlingen, Stadt","type":"Stadt"},"district":{"key":"08426","name":"Biberach","type":"Landkreis"},"federalState":{"key":"08","name":"Baden-Württemberg"}},{"name":"Toreschle","postalCode":"88499","locality":"Riedlingen","municipality":{"key":"08426097","name":"Riedlingen, Stadt","type":"Stadt"},"district":{"key":"08426","name":"Biberach","type":"Landkreis"},"federalState":{"key":"08","name":"Baden-Württemberg"}},{"name":"Tuchplatz","postalCode":"88499","locality":"Riedlingen","municipality":{"key":"08426097","name":"Riedlingen, Stadt","type":"Stadt"},"district":{"key":"08426","name":"Biberach","type":"Landkreis"},"federalState":{"key":"08","name":"Baden-Württemberg"}},{"name":"Tulpenstr.","postalCode":"83533","locality":"Edling","municipality":{"key":"09187124","name":"Edling","type":"Kreisangehörige_Gemeinde"},"district":{"key":"09187","name":"Rosenheim","type":"Landkreis"},"federalState":{"key":"09","name":"Bayern"}},{"name":"Tulpenweg","postalCode":"88499","locality":"Riedlingen","municipality":{"key":"08426097","name":"Riedlingen, Stadt","type":"Stadt"},"district":{"key":"08426","name":"Biberach","type":"Landkreis"},"federalState":{"key":"08","name":"Baden-Württemberg"}},{"name":"Uferweg","postalCode":"88499","locality":"Riedlingen","municipality":{"key":"08426097","name":"Riedlingen, Stadt","type":"Stadt"},"district":{"key":"08426","name":"Biberach","type":"Landkreis"},"federalState":{"key":"08","name":"Baden-Württemberg"}},{"name":"Uhlandstr.","postalCode":"88499","locality":"Riedlingen","municipality":{"key":"08426097","name":"Riedlingen, Stadt","type":"Stadt"},"district":{"key":"08426","name":"Biberach","type":"Landkreis"},"federalState":{"key":"08","name":"Baden-Württemberg"}},{"name":"Ulrich-Gleutz-Str.","postalCode":"88499","locality":"Riedlingen","municipality":{"key":"08426097","name":"Riedlingen, Stadt","type":"Stadt"},"district":{"key":"08426","name":"Biberach","type":"Landkreis"},"federalState":{"key":"08","name":"Baden-Württemberg"}},{"name":"Untermedlinger Str.","postalCode":"89441","locality":"Medlingen","municipality":{"key":"09773153","name":"Medlingen","type":"Kreisangehörige_Gemeinde"},"district":{"key":"09773","name":"Dillingen a.d.Donau","type":"Landkreis"},"federalState":{"key":"09","name":"Bayern"}},{"name":"Unterriedstr.","postalCode":"88499","locality":"Riedlingen","municipality":{"key":"08426097","name":"Riedlingen, Stadt","type":"Stadt"},"district":{"key":"08426","name":"Biberach","type":"Landkreis"},"federalState":{"key":"08","name":"Baden-Württemberg"}},{"name":"Valentin-Ulrich-Str.","postalCode":"88499","locality":"Riedlingen","municipality":{"key":"08426097","name":"Riedlingen, Stadt","type":"Stadt"},"district":{"key":"08426","name":"Biberach","type":"Landkreis"},"federalState":{"key":"08","name":"Baden-Württemberg"}},{"name":"Veitstr.","postalCode":"88499","locality":"Riedlingen","municipality":{"key":"08426097","name":"Riedlingen, Stadt","type":"Stadt"},"district":{"key":"08426","name":"Biberach","type":"Landkreis"},"federalState":{"key":"08","name":"Baden-Württemberg"}},{"name":"Villingerstr.","postalCode":"88499","locality":"Riedlingen","municipality":{"key":"08426097","name":"Riedlingen, Stadt","type":"Stadt"},"district":{"key":"08426","name":"Biberach","type":"Landkreis"},"federalState":{"key":"08","name":"Baden-Württemberg"}},{"name":"Von-Fleck-Str.","postalCode":"88499","locality":"Riedlingen","municipality":{"key":"08426097","name":"Riedlingen, Stadt","type":"Stadt"},"district":{"key":"08426","name":"Biberach","type":"Landkreis"},"federalState":{"key":"08","name":"Baden-Württemberg"}},{"name":"Von-Hornstein-Str.","postalCode":"88499","locality":"Riedlingen","municipality":{"key":"08426097","name":"Riedlingen, Stadt","type":"Stadt"},"district":{"key":"08426","name":"Biberach","type":"Landkreis"},"federalState":{"key":"08","name":"Baden-Württemberg"}},{"name":"Von-Karpfen-Weg","postalCode":"88499","locality":"Riedlingen","municipality":{"key":"08426097","name":"Riedlingen, Stadt","type":"Stadt"},"district":{"key":"08426","name":"Biberach","type":"Landkreis"},"federalState":{"key":"08","name":"Baden-Württemberg"}},{"name":"Von-Schütz-Str.","postalCode":"88499","locality":"Riedlingen","municipality":{"key":"08426097","name":"Riedlingen, Stadt","type":"Stadt"},"district":{"key":"08426","name":"Biberach","type":"Landkreis"},"federalState":{"key":"08","name":"Baden-Württemberg"}},{"name":"Von-Speth-Str.","postalCode":"88499","locality":"Riedlingen","municipality":{"key":"08426097","name":"Riedlingen, Stadt","type":"Stadt"},"district":{"key":"08426","name":"Biberach","type":"Landkreis"},"federalState":{"key":"08","name":"Baden-Württemberg"}},{"name":"Waldweg","postalCode":"83533","locality":"Edling","municipality":{"key":"09187124","name":"Edling","type":"Kreisangehörige_Gemeinde"},"district":{"key":"09187","name":"Rosenheim","type":"Landkreis"},"federalState":{"key":"09","name":"Bayern"}},{"name":"Wallerweg","postalCode":"83533","locality":"Edling","municipality":{"key":"09187124","name":"Edling","type":"Kreisangehörige_Gemeinde"},"district":{"key":"09187","name":"Rosenheim","type":"Landkreis"},"federalState":{"key":"09","name":"Bayern"}},{"name":"Wasserburger Str.","postalCode":"83533","locality":"Edling","municipality":{"key":"09187124","name":"Edling","type":"Kreisangehörige_Gemeinde"},"district":{"key":"09187","name":"Rosenheim","type":"Landkreis"},"federalState":{"key":"09","name":"Bayern"}},{"name":"Wasserstapfe","postalCode":"88499","locality":"Riedlingen","municipality":{"key":"08426097","name":"Riedlingen, Stadt","type":"Stadt"},"district":{"key":"08426","name":"Biberach","type":"Landkreis"},"federalState":{"key":"08","name":"Baden-Württemberg"}},{"name":"Webergasse","postalCode":"88499","locality":"Riedlingen","municipality":{"key":"08426097","name":"Riedlingen, Stadt","type":"Stadt"},"district":{"key":"08426","name":"Biberach","type":"Landkreis"},"federalState":{"key":"08","name":"Baden-Württemberg"}},{"name":"Wegelanger","postalCode":"89441","locality":"Medlingen","municipality":{"key":"09773153","name":"Medlingen","type":"Kreisangehörige_Gemeinde"},"district":{"key":"09773","name":"Dillingen a.d.Donau","type":"Landkreis"},"federalState":{"key":"09","name":"Bayern"}},{"name":"Wegscheiderstr.","postalCode":"88499","locality":"Riedlingen","municipality":{"key":"08426097","name":"Riedlingen, Stadt","type":"Stadt"},"district":{"key":"08426","name":"Biberach","type":"Landkreis"},"federalState":{"key":"08","name":"Baden-Württemberg"}},{"name":"Weiheräcker","postalCode":"88499","locality":"Riedlingen","municipality":{"key":"08426097","name":"Riedlingen, Stadt","type":"Stadt"},"district":{"key":"08426","name":"Biberach","type":"Landkreis"},"federalState":{"key":"08","name":"Baden-Württemberg"}},{"name":"Weiherweg","postalCode":"83533","locality":"Edling","municipality":{"key":"09187124","name":"Edling","type":"Kreisangehörige_Gemeinde"},"district":{"key":"09187","name":"Rosenheim","type":"Landkreis"},"federalState":{"key":"09","name":"Bayern"}},{"name":"Weilerstr.","postalCode":"88499","locality":"Riedlingen","municipality":{"key":"08426097","name":"Riedlingen, Stadt","type":"Stadt"},"district":{"key":"08426","name":"Biberach","type":"Landkreis"},"federalState":{"key":"08","name":"Baden-Württemberg"}},{"name":"Weilertorweg","postalCode":"88499","locality":"Riedlingen","municipality":{"key":"08426097","name":"Riedlingen, Stadt","type":"Stadt"},"district":{"key":"08426","name":"Biberach","type":"Landkreis"},"federalState":{"key":"08","name":"Baden-Württemberg"}},{"name":"Weilervorstadt","postalCode":"88499","locality":"Riedlingen","municipality":{"key":"08426097","name":"Riedlingen, Stadt","type":"Stadt"},"district":{"key":"08426","name":"Biberach","type":"Landkreis"},"federalState":{"key":"08","name":"Baden-Württemberg"}},{"name":"Wielandstr.","postalCode":"88499","locality":"Riedlingen","municipality":{"key":"08426097","name":"Riedlingen, Stadt","type":"Stadt"},"district":{"key":"08426","name":"Biberach","type":"Landkreis"},"federalState":{"key":"08","name":"Baden-Württemberg"}},{"name":"Wiesenstr.","postalCode":"88499","locality":"Riedlingen","municipality":{"key":"08426097","name":"Riedlingen, Stadt","type":"Stadt"},"district":{"key":"08426","name":"Biberach","type":"Landkreis"},"federalState":{"key":"08","name":"Baden-Württemberg"}},{"name":"Wiesenweg","postalCode":"83533","locality":"Edling","municipality":{"key":"09187124","name":"Edling","type":"Kreisangehörige_Gemeinde"},"district":{"key":"09187","name":"Rosenheim","type":"Landkreis"},"federalState":{"key":"09","name":"Bayern"}},{"name":"Wochenmarkt","postalCode":"88499","locality":"Riedlingen","municipality":{"key":"08426097","name":"Riedlingen, Stadt","type":"Stadt"},"district":{"key":"08426","name":"Biberach","type":"Landkreis"},"federalState":{"key":"08","name":"Baden-Württemberg"}},{"name":"Zehntscheuerweg","postalCode":"88499","locality":"Riedlingen","municipality":{"key":"08426097","name":"Riedlingen, Stadt","type":"Stadt"},"district":{"key":"08426","name":"Biberach","type":"Landkreis"},"federalState":{"key":"08","name":"Baden-Württemberg"}},{"name":"Ziegelhüttenstr.","postalCode":"88499","locality":"Riedlingen","municipality":{"key":"08426097","name":"Riedlingen, Stadt","type":"Stadt"},"district":{"key":"08426","name":"Biberach","type":"Landkreis"},"federalState":{"key":"08","name":"Baden-Württemberg"}},{"name":"Zollhauserstr.","postalCode":"88499","locality":"Riedlingen","municipality":{"key":"08426097","name":"Riedlingen, Stadt","type":"Stadt"},"district":{"key":"08426","name":"Biberach","type":"Landkreis"},"federalState":{"key":"08","name":"Baden-Württemberg"}},{"name":"Zugspitzweg","postalCode":"83533","locality":"Edling","municipality":{"key":"09187124","name":"Edling","type":"Kreisangehörige_Gemeinde"},"district":{"key":"09187","name":"Rosenheim","type":"Landkreis"},"federalState":{"key":"09","name":"Bayern"}},{"name":"Zum Bahnhof","postalCode":"88499","locality":"Riedlingen","municipality":{"key":"08426097","name":"Riedlingen, Stadt","type":"Stadt"},"district":{"key":"08426","name":"Biberach","type":"Landkreis"},"federalState":{"key":"08","name":"Baden-Württemberg"}},{"name":"Zur Donaubrücke","postalCode":"88499","locality":"Riedlingen","municipality":{"key":"08426097","name":"Riedlingen, Stadt","type":"Stadt"},"district":{"key":"08426","name":"Biberach","type":"Landkreis"},"federalState":{"key":"08","name":"Baden-Württemberg"}},{"name":"Zur Kirche","postalCode":"88499","locality":"Riedlingen","municipality":{"key":"08426097","name":"Riedlingen, Stadt","type":"Stadt"},"district":{"key":"08426","name":"Biberach","type":"Landkreis"},"federalState":{"key":"08","name":"Baden-Württemberg"}},{"name":"Zur Weinhalde","postalCode":"88499","locality":"Riedlingen","municipality":{"key":"08426097","name":"Riedlingen, Stadt","type":"Stadt"},"district":{"key":"08426","name":"Biberach","type":"Landkreis"},"federalState":{"key":"08","name":"Baden-Württemberg"}},{"name":"Zwiefalter Str.","postalCode":"88499","locality":"Riedlingen","municipality":{"key":"08426097","name":"Riedlingen, Stadt","type":"Stadt"},"district":{"key":"08426","name":"Biberach","type":"Landkreis"},"federalState":{"key":"08","name":"Baden-Württemberg"}},{"name":"Äußere Münchener Str.","postalCode":"83022","locality":"Rosenheim","municipality":{"key":"09163000","name":"Rosenheim","type":"Kreisfreie_Stadt"},"district":{"key":"09163","name":"Rosenheim","type":"Kreisfreie_Stadt"},"federalState":{"key":"09","name":"Bayern"}},{"name":"Äußere Münchener Str.","postalCode":"83026","locality":"Rosenheim","municipality":{"key":"09163000","name":"Rosenheim","type":"Kreisfreie_Stadt"},"district":{"key":"09163","name":"Rosenheim","type":"Kreisfreie_Stadt"},"federalState":{"key":"09","name":"Bayern"}},{"name":"Äußere Oberaustr.","postalCode":"83026","locality":"Rosenheim","municipality":{"key":"09163000","name":"Rosenheim","type":"Kreisfreie_Stadt"},"district":{"key":"09163","name":"Rosenheim","type":"Kreisfreie_Stadt"},"federalState":{"key":"09","name":"Bayern"}},]