[{"key":"10036644","name":"Alte Bündten-Strasse","postalCode":"4334","locality":"Sisseln AG","commune":{"key":"4177","name":"Sisseln","shortName":"Sisseln"},"district":{"key":"1906","name":"Bezirk Laufenburg"},"canton":{"key":"19","code":"AG","name":"Aargau"},"status":"Real"},{"key":"10036645","name":"Bachstrasse","postalCode":"4334","locality":"Sisseln AG","commune":{"key":"4177","name":"Sisseln","shortName":"Sisseln"},"district":{"key":"1906","name":"Bezirk Laufenburg"},"canton":{"key":"19","code":"AG","name":"Aargau"},"status":"Real"},{"key":"10125057","name":"Badweg","postalCode":"4334","locality":"Sisseln AG","commune":{"key":"4177","name":"Sisseln","shortName":"Sisseln"},"district":{"key":"1906","name":"Bezirk Laufenburg"},"canton":{"key":"19","code":"AG","name":"Aargau"},"status":"Real"},{"key":"10115912","name":"Bahnhofstrasse","postalCode":"4334","locality":"Sisseln AG","commune":{"key":"4177","name":"Sisseln","shortName":"Sisseln"},"district":{"key":"1906","name":"Bezirk Laufenburg"},"canton":{"key":"19","code":"AG","name":"Aargau"},"status":"Real"},{"key":"10096646","name":"Bodenackerstrasse","postalCode":"4334","locality":"Sisseln AG","commune":{"key":"4177","name":"Sisseln","shortName":"Sisseln"},"district":{"key":"1906","name":"Bezirk Laufenburg"},"canton":{"key":"19","code":"AG","name":"Aargau"},"status":"Real"},{"key":"10158764","name":"Chriesiweg","postalCode":"4334","locality":"Sisseln AG","commune":{"key":"4177","name":"Sisseln","shortName":"Sisseln"},"district":{"key":"1906","name":"Bezirk Laufenburg"},"canton":{"key":"19","code":"AG","name":"Aargau"},"status":"Real"},{"key":"10211173","name":"Eichenweg","postalCode":"4334","locality":"Sisseln AG","commune":{"key":"4177","name":"Sisseln","shortName":"Sisseln"},"district":{"key":"1906","name":"Bezirk Laufenburg"},"canton":{"key":"19","code":"AG","name":"Aargau"},"status":"Real"},{"key":"10036646","name":"Fasanenweg","postalCode":"4334","locality":"Sisseln AG","commune":{"key":"4177","name":"Sisseln","shortName":"Sisseln"},"district":{"key":"1906","name":"Bezirk Laufenburg"},"canton":{"key":"19","code":"AG","name":"Aargau"},"status":"Real"},{"key":"10184471","name":"Flössergasse","postalCode":"4334","locality":"Sisseln AG","commune":{"key":"4177","name":"Sisseln","shortName":"Sisseln"},"district":{"key":"1906","name":"Bezirk Laufenburg"},"canton":{"key":"19","code":"AG","name":"Aargau"},"status":"Real"},{"key":"10036647","name":"Friedweg","postalCode":"4334","locality":"Sisseln AG","commune":{"key":"4177","name":"Sisseln","shortName":"Sisseln"},"district":{"key":"1906","name":"Bezirk Laufenburg"},"canton":{"key":"19","code":"AG","name":"Aargau"},"status":"Real"},{"key":"10063697","name":"Gartenweg","postalCode":"4334","locality":"Sisseln AG","commune":{"key":"4177","name":"Sisseln","shortName":"Sisseln"},"district":{"key":"1906","name":"Bezirk Laufenburg"},"canton":{"key":"19","code":"AG","name":"Aargau"},"status":"Real"},{"key":"10240138","name":"Grenzweg","postalCode":"4334","locality":"Sisseln AG","commune":{"key":"4177","name":"Sisseln","shortName":"Sisseln"},"district":{"key":"1906","name":"Bezirk Laufenburg"},"canton":{"key":"19","code":"AG","name":"Aargau"},"status":"Real"},{"key":"10096647","name":"Grossmattstrasse","postalCode":"4334","locality":"Sisseln AG","commune":{"key":"4177","name":"Sisseln","shortName":"Sisseln"},"district":{"key":"1906","name":"Bezirk Laufenburg"},"canton":{"key":"19","code":"AG","name":"Aargau"},"status":"Real"},{"key":"10035254","name":"Hasenweg","postalCode":"4334","locality":"Sisseln AG","commune":{"key":"4177","name":"Sisseln","shortName":"Sisseln"},"district":{"key":"1906","name":"Bezirk Laufenburg"},"canton":{"key":"19","code":"AG","name":"Aargau"},"status":"Real"},{"key":"10035255","name":"Hauptstrasse","postalCode":"4334","locality":"Sisseln AG","commune":{"key":"4177","name":"Sisseln","shortName":"Sisseln"},"district":{"key":"1906","name":"Bezirk Laufenburg"},"canton":{"key":"19","code":"AG","name":"Aargau"},"status":"Real"},{"key":"10035256","name":"Hinterdorfstrasse","postalCode":"4334","locality":"Sisseln AG","commune":{"key":"4177","name":"Sisseln","shortName":"Sisseln"},"district":{"key":"1906","name":"Bezirk Laufenburg"},"canton":{"key":"19","code":"AG","name":"Aargau"},"status":"Real"},{"key":"10240142","name":"Hütteweg","postalCode":"4334","locality":"Sisseln AG","commune":{"key":"4177","name":"Sisseln","shortName":"Sisseln"},"district":{"key":"1906","name":"Bezirk Laufenburg"},"canton":{"key":"19","code":"AG","name":"Aargau"},"status":"Real"},{"key":"10052990","name":"Innermattstrasse","postalCode":"4334","locality":"Sisseln AG","commune":{"key":"4177","name":"Sisseln","shortName":"Sisseln"},"district":{"key":"1906","name":"Bezirk Laufenburg"},"canton":{"key":"19","code":"AG","name":"Aargau"},"status":"Real"},{"key":"10063698","name":"Kirchgasse","postalCode":"4334","locality":"Sisseln AG","commune":{"key":"4177","name":"Sisseln","shortName":"Sisseln"},"district":{"key":"1906","name":"Bezirk Laufenburg"},"canton":{"key":"19","code":"AG","name":"Aargau"},"status":"Real"},{"key":"10240146","name":"Kreuzweg","postalCode":"4334","locality":"Sisseln AG","commune":{"key":"4177","name":"Sisseln","shortName":"Sisseln"},"district":{"key":"1906","name":"Bezirk Laufenburg"},"canton":{"key":"19","code":"AG","name":"Aargau"},"status":"Real"},{"key":"10240150","name":"Laufenburgerstrasse","postalCode":"4334","locality":"Sisseln AG","commune":{"key":"4177","name":"Sisseln","shortName":"Sisseln"},"district":{"key":"1906","name":"Bezirk Laufenburg"},"canton":{"key":"19","code":"AG","name":"Aargau"},"status":"Real"},{"key":"10096648","name":"Lehmgrubenweg","postalCode":"4334","locality":"Sisseln AG","commune":{"key":"4177","name":"Sisseln","shortName":"Sisseln"},"district":{"key":"1906","name":"Bezirk Laufenburg"},"canton":{"key":"19","code":"AG","name":"Aargau"},"status":"Real"},{"key":"10240154","name":"Leimgrubenweg","postalCode":"4334","locality":"Sisseln AG","commune":{"key":"4177","name":"Sisseln","shortName":"Sisseln"},"district":{"key":"1906","name":"Bezirk Laufenburg"},"canton":{"key":"19","code":"AG","name":"Aargau"},"status":"Real"},{"key":"10240158","name":"Leiweg","postalCode":"4334","locality":"Sisseln AG","commune":{"key":"4177","name":"Sisseln","shortName":"Sisseln"},"district":{"key":"1906","name":"Bezirk Laufenburg"},"canton":{"key":"19","code":"AG","name":"Aargau"},"status":"Real"},{"key":"10116861","name":"Lerchenweg","postalCode":"4334","locality":"Sisseln AG","commune":{"key":"4177","name":"Sisseln","shortName":"Sisseln"},"district":{"key":"1906","name":"Bezirk Laufenburg"},"canton":{"key":"19","code":"AG","name":"Aargau"},"status":"Real"},{"key":"10052991","name":"Lindenweg","postalCode":"4334","locality":"Sisseln AG","commune":{"key":"4177","name":"Sisseln","shortName":"Sisseln"},"district":{"key":"1906","name":"Bezirk Laufenburg"},"canton":{"key":"19","code":"AG","name":"Aargau"},"status":"Real"},{"key":"10035257","name":"Mattenweg","postalCode":"4334","locality":"Sisseln AG","commune":{"key":"4177","name":"Sisseln","shortName":"Sisseln"},"district":{"key":"1906","name":"Bezirk Laufenburg"},"canton":{"key":"19","code":"AG","name":"Aargau"},"status":"Real"},{"key":"10240159","name":"Moosweg","postalCode":"4334","locality":"Sisseln AG","commune":{"key":"4177","name":"Sisseln","shortName":"Sisseln"},"district":{"key":"1906","name":"Bezirk Laufenburg"},"canton":{"key":"19","code":"AG","name":"Aargau"},"status":"Real"},{"key":"10240160","name":"Ortsverbindung","postalCode":"4334","locality":"Sisseln AG","commune":{"key":"4177","name":"Sisseln","shortName":"Sisseln"},"district":{"key":"1906","name":"Bezirk Laufenburg"},"canton":{"key":"19","code":"AG","name":"Aargau"},"status":"Real"},{"key":"10184472","name":"Poststrasse","postalCode":"4334","locality":"Sisseln AG","commune":{"key":"4177","name":"Sisseln","shortName":"Sisseln"},"district":{"key":"1906","name":"Bezirk Laufenburg"},"canton":{"key":"19","code":"AG","name":"Aargau"},"status":"Real"},{"key":"10240161","name":"Querstrasse","postalCode":"4334","locality":"Sisseln AG","commune":{"key":"4177","name":"Sisseln","shortName":"Sisseln"},"district":{"key":"1906","name":"Bezirk Laufenburg"},"canton":{"key":"19","code":"AG","name":"Aargau"},"status":"Real"},{"key":"10186874","name":"Rehweg","postalCode":"4334","locality":"Sisseln AG","commune":{"key":"4177","name":"Sisseln","shortName":"Sisseln"},"district":{"key":"1906","name":"Bezirk Laufenburg"},"canton":{"key":"19","code":"AG","name":"Aargau"},"status":"Real"},{"key":"10240162","name":"Rhyweg","postalCode":"4334","locality":"Sisseln AG","commune":{"key":"4177","name":"Sisseln","shortName":"Sisseln"},"district":{"key":"1906","name":"Bezirk Laufenburg"},"canton":{"key":"19","code":"AG","name":"Aargau"},"status":"Real"},{"key":"10063699","name":"Rosenweg","postalCode":"4334","locality":"Sisseln AG","commune":{"key":"4177","name":"Sisseln","shortName":"Sisseln"},"district":{"key":"1906","name":"Bezirk Laufenburg"},"canton":{"key":"19","code":"AG","name":"Aargau"},"status":"Real"},{"key":"10109583","name":"Rütistrasse","postalCode":"4334","locality":"Sisseln AG","commune":{"key":"4177","name":"Sisseln","shortName":"Sisseln"},"district":{"key":"1906","name":"Bezirk Laufenburg"},"canton":{"key":"19","code":"AG","name":"Aargau"},"status":"Real"},{"key":"10238701","name":"Schildbürgerweg","postalCode":"4334","locality":"Sisseln AG","commune":{"key":"4177","name":"Sisseln","shortName":"Sisseln"},"district":{"key":"1906","name":"Bezirk Laufenburg"},"canton":{"key":"19","code":"AG","name":"Aargau"},"status":"Real"},{"key":"10096649","name":"Schulhausstrasse","postalCode":"4334","locality":"Sisseln AG","commune":{"key":"4177","name":"Sisseln","shortName":"Sisseln"},"district":{"key":"1906","name":"Bezirk Laufenburg"},"canton":{"key":"19","code":"AG","name":"Aargau"},"status":"Real"},{"key":"10208749","name":"Schützenhausweg","postalCode":"4334","locality":"Sisseln AG","commune":{"key":"4177","name":"Sisseln","shortName":"Sisseln"},"district":{"key":"1906","name":"Bezirk Laufenburg"},"canton":{"key":"19","code":"AG","name":"Aargau"},"status":"Real"},{"key":"10239905","name":"Station SBB Sisseln","postalCode":"4334","locality":"Sisseln AG","commune":{"key":"4177","name":"Sisseln","shortName":"Sisseln"},"district":{"key":"1906","name":"Bezirk Laufenburg"},"canton":{"key":"19","code":"AG","name":"Aargau"},"status":"Real"},{"key":"10238708","name":"Stelliweg","postalCode":"4334","locality":"Sisseln AG","commune":{"key":"4177","name":"Sisseln","shortName":"Sisseln"},"district":{"key":"1906","name":"Bezirk Laufenburg"},"canton":{"key":"19","code":"AG","name":"Aargau"},"status":"Real"},{"key":"10035258","name":"Stichmattweg","postalCode":"4334","locality":"Sisseln AG","commune":{"key":"4177","name":"Sisseln","shortName":"Sisseln"},"district":{"key":"1906","name":"Bezirk Laufenburg"},"canton":{"key":"19","code":"AG","name":"Aargau"},"status":"Real"},{"key":"10035259","name":"Unterdorfstrasse","postalCode":"4334","locality":"Sisseln AG","commune":{"key":"4177","name":"Sisseln","shortName":"Sisseln"},"district":{"key":"1906","name":"Bezirk Laufenburg"},"canton":{"key":"19","code":"AG","name":"Aargau"},"status":"Real"},{"key":"10052992","name":"Waldstrasse","postalCode":"4334","locality":"Sisseln AG","commune":{"key":"4177","name":"Sisseln","shortName":"Sisseln"},"district":{"key":"1906","name":"Bezirk Laufenburg"},"canton":{"key":"19","code":"AG","name":"Aargau"},"status":"Real"},{"key":"10161343","name":"Wasserweg","postalCode":"4334","locality":"Sisseln AG","commune":{"key":"4177","name":"Sisseln","shortName":"Sisseln"},"district":{"key":"1906","name":"Bezirk Laufenburg"},"canton":{"key":"19","code":"AG","name":"Aargau"},"status":"Real"},{"key":"10109187","name":"Widenmattstrasse","postalCode":"4334","locality":"Sisseln AG","commune":{"key":"4177","name":"Sisseln","shortName":"Sisseln"},"district":{"key":"1906","name":"Bezirk Laufenburg"},"canton":{"key":"19","code":"AG","name":"Aargau"},"status":"Real"},{"key":"10116988","name":"Winkelackerstrasse","postalCode":"4334","locality":"Sisseln AG","commune":{"key":"4177","name":"Sisseln","shortName":"Sisseln"},"district":{"key":"1906","name":"Bezirk Laufenburg"},"canton":{"key":"19","code":"AG","name":"Aargau"},"status":"Real"},{"key":"10238712","name":"Wolfsweg","postalCode":"4334","locality":"Sisseln AG","commune":{"key":"4177","name":"Sisseln","shortName":"Sisseln"},"district":{"key":"1906","name":"Bezirk Laufenburg"},"canton":{"key":"19","code":"AG","name":"Aargau"},"status":"Real"},{"key":"10120729","name":"Zipriostrasse","postalCode":"4334","locality":"Sisseln AG","commune":{"key":"4177","name":"Sisseln","shortName":"Sisseln"},"district":{"key":"1906","name":"Bezirk Laufenburg"},"canton":{"key":"19","code":"AG","name":"Aargau"},"status":"Real"},]