[{"name":"Alte Gasse","postalCode":"56414","locality":"Molsberg","municipality":{"key":"07143266","name":"Molsberg","type":"Kreisangehörige_Gemeinde"},"district":{"key":"07143","name":"Westerwaldkreis","type":"Landkreis"},"federalState":{"key":"07","name":"Rheinland-Pfalz"}},{"name":"Am Eichberg","postalCode":"56414","locality":"Molsberg","municipality":{"key":"07143266","name":"Molsberg","type":"Kreisangehörige_Gemeinde"},"district":{"key":"07143","name":"Westerwaldkreis","type":"Landkreis"},"federalState":{"key":"07","name":"Rheinland-Pfalz"}},{"name":"Am Hang","postalCode":"56414","locality":"Molsberg","municipality":{"key":"07143266","name":"Molsberg","type":"Kreisangehörige_Gemeinde"},"district":{"key":"07143","name":"Westerwaldkreis","type":"Landkreis"},"federalState":{"key":"07","name":"Rheinland-Pfalz"}},{"name":"Bergweg","postalCode":"56414","locality":"Molsberg","municipality":{"key":"07143266","name":"Molsberg","type":"Kreisangehörige_Gemeinde"},"district":{"key":"07143","name":"Westerwaldkreis","type":"Landkreis"},"federalState":{"key":"07","name":"Rheinland-Pfalz"}},{"name":"Birkenweg","postalCode":"56414","locality":"Molsberg","municipality":{"key":"07143266","name":"Molsberg","type":"Kreisangehörige_Gemeinde"},"district":{"key":"07143","name":"Westerwaldkreis","type":"Landkreis"},"federalState":{"key":"07","name":"Rheinland-Pfalz"}},{"name":"Escher Weg","postalCode":"56414","locality":"Molsberg","municipality":{"key":"07143266","name":"Molsberg","type":"Kreisangehörige_Gemeinde"},"district":{"key":"07143","name":"Westerwaldkreis","type":"Landkreis"},"federalState":{"key":"07","name":"Rheinland-Pfalz"}},{"name":"Feldweg Richtung Salz","postalCode":"56414","locality":"Molsberg","municipality":{"key":"07143266","name":"Molsberg","type":"Kreisangehörige_Gemeinde"},"district":{"key":"07143","name":"Westerwaldkreis","type":"Landkreis"},"federalState":{"key":"07","name":"Rheinland-Pfalz"}},{"name":"Friedhofsweg","postalCode":"56414","locality":"Molsberg","municipality":{"key":"07143266","name":"Molsberg","type":"Kreisangehörige_Gemeinde"},"district":{"key":"07143","name":"Westerwaldkreis","type":"Landkreis"},"federalState":{"key":"07","name":"Rheinland-Pfalz"}},{"name":"Hahmbühl","postalCode":"56414","locality":"Molsberg","municipality":{"key":"07143266","name":"Molsberg","type":"Kreisangehörige_Gemeinde"},"district":{"key":"07143","name":"Westerwaldkreis","type":"Landkreis"},"federalState":{"key":"07","name":"Rheinland-Pfalz"}},{"name":"Hauptstr.","postalCode":"56414","locality":"Molsberg","municipality":{"key":"07143266","name":"Molsberg","type":"Kreisangehörige_Gemeinde"},"district":{"key":"07143","name":"Westerwaldkreis","type":"Landkreis"},"federalState":{"key":"07","name":"Rheinland-Pfalz"}},{"name":"Kasper-Kögler-Str.","postalCode":"56414","locality":"Molsberg","municipality":{"key":"07143266","name":"Molsberg","type":"Kreisangehörige_Gemeinde"},"district":{"key":"07143","name":"Westerwaldkreis","type":"Landkreis"},"federalState":{"key":"07","name":"Rheinland-Pfalz"}},{"name":"Nussallee","postalCode":"56414","locality":"Molsberg","municipality":{"key":"07143266","name":"Molsberg","type":"Kreisangehörige_Gemeinde"},"district":{"key":"07143","name":"Westerwaldkreis","type":"Landkreis"},"federalState":{"key":"07","name":"Rheinland-Pfalz"}},{"name":"Rosenweg","postalCode":"56414","locality":"Molsberg","municipality":{"key":"07143266","name":"Molsberg","type":"Kreisangehörige_Gemeinde"},"district":{"key":"07143","name":"Westerwaldkreis","type":"Landkreis"},"federalState":{"key":"07","name":"Rheinland-Pfalz"}},{"name":"Schloßstr.","postalCode":"56414","locality":"Molsberg","municipality":{"key":"07143266","name":"Molsberg","type":"Kreisangehörige_Gemeinde"},"district":{"key":"07143","name":"Westerwaldkreis","type":"Landkreis"},"federalState":{"key":"07","name":"Rheinland-Pfalz"}},{"name":"Struth","postalCode":"56414","locality":"Molsberg","municipality":{"key":"07143266","name":"Molsberg","type":"Kreisangehörige_Gemeinde"},"district":{"key":"07143","name":"Westerwaldkreis","type":"Landkreis"},"federalState":{"key":"07","name":"Rheinland-Pfalz"}},{"name":"Struthweg","postalCode":"56414","locality":"Molsberg","municipality":{"key":"07143266","name":"Molsberg","type":"Kreisangehörige_Gemeinde"},"district":{"key":"07143","name":"Westerwaldkreis","type":"Landkreis"},"federalState":{"key":"07","name":"Rheinland-Pfalz"}},{"name":"Waldweg Richtung Hundsangen","postalCode":"56414","locality":"Molsberg","municipality":{"key":"07143266","name":"Molsberg","type":"Kreisangehörige_Gemeinde"},"district":{"key":"07143","name":"Westerwaldkreis","type":"Landkreis"},"federalState":{"key":"07","name":"Rheinland-Pfalz"}},{"name":"Waldweg zum Sportplatz Molsberg und Grillhütte","postalCode":"56414","locality":"Molsberg","municipality":{"key":"07143266","name":"Molsberg","type":"Kreisangehörige_Gemeinde"},"district":{"key":"07143","name":"Westerwaldkreis","type":"Landkreis"},"federalState":{"key":"07","name":"Rheinland-Pfalz"}},{"name":"Weiherborn","postalCode":"56414","locality":"Molsberg","municipality":{"key":"07143266","name":"Molsberg","type":"Kreisangehörige_Gemeinde"},"district":{"key":"07143","name":"Westerwaldkreis","type":"Landkreis"},"federalState":{"key":"07","name":"Rheinland-Pfalz"}},{"name":"Wendehammer ÖPNV","postalCode":"56414","locality":"Molsberg","municipality":{"key":"07143266","name":"Molsberg","type":"Kreisangehörige_Gemeinde"},"district":{"key":"07143","name":"Westerwaldkreis","type":"Landkreis"},"federalState":{"key":"07","name":"Rheinland-Pfalz"}},{"name":"Wiesenweg","postalCode":"56414","locality":"Molsberg","municipality":{"key":"07143266","name":"Molsberg","type":"Kreisangehörige_Gemeinde"},"district":{"key":"07143","name":"Westerwaldkreis","type":"Landkreis"},"federalState":{"key":"07","name":"Rheinland-Pfalz"}},]