[{"name":"Adamweg","postalCode":"94227","locality":"Lindberg","municipality":{"key":"09276130","name":"Lindberg","type":"Kreisangehörige_Gemeinde"},"district":{"key":"09276","name":"Regen","type":"Landkreis"},"federalState":{"key":"09","name":"Bayern"}},{"name":"Ahornriegelstr.","postalCode":"94227","locality":"Lindberg","municipality":{"key":"09276130","name":"Lindberg","type":"Kreisangehörige_Gemeinde"},"district":{"key":"09276","name":"Regen","type":"Landkreis"},"federalState":{"key":"09","name":"Bayern"}},{"name":"Alte Böhmerstr.","postalCode":"94227","locality":"Lindberg","municipality":{"key":"09276130","name":"Lindberg","type":"Kreisangehörige_Gemeinde"},"district":{"key":"09276","name":"Regen","type":"Landkreis"},"federalState":{"key":"09","name":"Bayern"}},{"name":"Alter Gespetweg","postalCode":"94227","locality":"Lindberg","municipality":{"key":"09276130","name":"Lindberg","type":"Kreisangehörige_Gemeinde"},"district":{"key":"09276","name":"Regen","type":"Landkreis"},"federalState":{"key":"09","name":"Bayern"}},{"name":"Alte Str.","postalCode":"94227","locality":"Lindberg","municipality":{"key":"09276130","name":"Lindberg","type":"Kreisangehörige_Gemeinde"},"district":{"key":"09276","name":"Regen","type":"Landkreis"},"federalState":{"key":"09","name":"Bayern"}},{"name":"Alte Straß","postalCode":"94227","locality":"Lindberg","municipality":{"key":"09276130","name":"Lindberg","type":"Kreisangehörige_Gemeinde"},"district":{"key":"09276","name":"Regen","type":"Landkreis"},"federalState":{"key":"09","name":"Bayern"}},{"name":"Am Lust","postalCode":"94227","locality":"Lindberg","municipality":{"key":"09276130","name":"Lindberg","type":"Kreisangehörige_Gemeinde"},"district":{"key":"09276","name":"Regen","type":"Landkreis"},"federalState":{"key":"09","name":"Bayern"}},{"name":"Angerweg","postalCode":"94227","locality":"Lindberg","municipality":{"key":"09276130","name":"Lindberg","type":"Kreisangehörige_Gemeinde"},"district":{"key":"09276","name":"Regen","type":"Landkreis"},"federalState":{"key":"09","name":"Bayern"}},{"name":"Auwaldstr.","postalCode":"94227","locality":"Lindberg","municipality":{"key":"09276130","name":"Lindberg","type":"Kreisangehörige_Gemeinde"},"district":{"key":"09276","name":"Regen","type":"Landkreis"},"federalState":{"key":"09","name":"Bayern"}},{"name":"Bahnhofstr.","postalCode":"94227","locality":"Lindberg","municipality":{"key":"09276130","name":"Lindberg","type":"Kreisangehörige_Gemeinde"},"district":{"key":"09276","name":"Regen","type":"Landkreis"},"federalState":{"key":"09","name":"Bayern"}},{"name":"Bärenlocherstr.","postalCode":"94227","locality":"Lindberg","municipality":{"key":"09276130","name":"Lindberg","type":"Kreisangehörige_Gemeinde"},"district":{"key":"09276","name":"Regen","type":"Landkreis"},"federalState":{"key":"09","name":"Bayern"}},{"name":"Bauernhausmusseum","postalCode":"94227","locality":"Lindberg","municipality":{"key":"09276130","name":"Lindberg","type":"Kreisangehörige_Gemeinde"},"district":{"key":"09276","name":"Regen","type":"Landkreis"},"federalState":{"key":"09","name":"Bayern"}},{"name":"Bauhüttenbrücke","postalCode":"94227","locality":"Lindberg","municipality":{"key":"09276130","name":"Lindberg","type":"Kreisangehörige_Gemeinde"},"district":{"key":"09276","name":"Regen","type":"Landkreis"},"federalState":{"key":"09","name":"Bayern"}},{"name":"Birkenweg","postalCode":"94227","locality":"Lindberg","municipality":{"key":"09276130","name":"Lindberg","type":"Kreisangehörige_Gemeinde"},"district":{"key":"09276","name":"Regen","type":"Landkreis"},"federalState":{"key":"09","name":"Bayern"}},{"name":"Bogenweg","postalCode":"94227","locality":"Lindberg","municipality":{"key":"09276130","name":"Lindberg","type":"Kreisangehörige_Gemeinde"},"district":{"key":"09276","name":"Regen","type":"Landkreis"},"federalState":{"key":"09","name":"Bayern"}},{"name":"Böhmweg","postalCode":"94227","locality":"Lindberg","municipality":{"key":"09276130","name":"Lindberg","type":"Kreisangehörige_Gemeinde"},"district":{"key":"09276","name":"Regen","type":"Landkreis"},"federalState":{"key":"09","name":"Bayern"}},{"name":"Buchenau","postalCode":"94227","locality":"Lindberg","municipality":{"key":"09276130","name":"Lindberg","type":"Kreisangehörige_Gemeinde"},"district":{"key":"09276","name":"Regen","type":"Landkreis"},"federalState":{"key":"09","name":"Bayern"}},{"name":"Camille-Claudel-Str.","postalCode":"93055","locality":"Regensburg","municipality":{"key":"09362000","name":"Regensburg","type":"Kreisfreie_Stadt"},"district":{"key":"09362","name":"Regensburg","type":"Kreisfreie_Stadt"},"federalState":{"key":"09","name":"Bayern"}},{"name":"Carl-Loewe-Str.","postalCode":"93128","locality":"Regenstauf","municipality":{"key":"09375190","name":"Regenstauf, M","type":"Markt"},"district":{"key":"09375","name":"Regensburg","type":"Landkreis"},"federalState":{"key":"09","name":"Bayern"}},{"name":"Carl-Maria-von-Weber-Str.","postalCode":"93053","locality":"Regensburg","municipality":{"key":"09362000","name":"Regensburg","type":"Kreisfreie_Stadt"},"district":{"key":"09362","name":"Regensburg","type":"Kreisfreie_Stadt"},"federalState":{"key":"09","name":"Bayern"}},{"name":"Carl-Orff-Str.","postalCode":"93128","locality":"Regenstauf","municipality":{"key":"09375190","name":"Regenstauf, M","type":"Markt"},"district":{"key":"09375","name":"Regensburg","type":"Landkreis"},"federalState":{"key":"09","name":"Bayern"}},{"name":"Carl-Orff-Weg","postalCode":"93051","locality":"Regensburg","municipality":{"key":"09362000","name":"Regensburg","type":"Kreisfreie_Stadt"},"district":{"key":"09362","name":"Regensburg","type":"Kreisfreie_Stadt"},"federalState":{"key":"09","name":"Bayern"}},{"name":"Carlstr.","postalCode":"93049","locality":"Regensburg","municipality":{"key":"09362000","name":"Regensburg","type":"Kreisfreie_Stadt"},"district":{"key":"09362","name":"Regensburg","type":"Kreisfreie_Stadt"},"federalState":{"key":"09","name":"Bayern"}},{"name":"Carl-Thiel-Str.","postalCode":"93053","locality":"Regensburg","municipality":{"key":"09362000","name":"Regensburg","type":"Kreisfreie_Stadt"},"district":{"key":"09362","name":"Regensburg","type":"Kreisfreie_Stadt"},"federalState":{"key":"09","name":"Bayern"}},{"name":"Caroline-Herschel-Str.","postalCode":"93055","locality":"Regensburg","municipality":{"key":"09362000","name":"Regensburg","type":"Kreisfreie_Stadt"},"district":{"key":"09362","name":"Regensburg","type":"Kreisfreie_Stadt"},"federalState":{"key":"09","name":"Bayern"}},{"name":"Cecilie-Vogt-Weg","postalCode":"93055","locality":"Regensburg","municipality":{"key":"09362000","name":"Regensburg","type":"Kreisfreie_Stadt"},"district":{"key":"09362","name":"Regensburg","type":"Kreisfreie_Stadt"},"federalState":{"key":"09","name":"Bayern"}},{"name":"Ceresweg","postalCode":"93055","locality":"Regensburg","municipality":{"key":"09362000","name":"Regensburg","type":"Kreisfreie_Stadt"},"district":{"key":"09362","name":"Regensburg","type":"Kreisfreie_Stadt"},"federalState":{"key":"09","name":"Bayern"}},{"name":"Chamer Str.","postalCode":"93057","locality":"Regensburg","municipality":{"key":"09362000","name":"Regensburg","type":"Kreisfreie_Stadt"},"district":{"key":"09362","name":"Regensburg","type":"Kreisfreie_Stadt"},"federalState":{"key":"09","name":"Bayern"}},{"name":"Charles-Lindbergh-Str.","postalCode":"93049","locality":"Regensburg","municipality":{"key":"09362000","name":"Regensburg","type":"Kreisfreie_Stadt"},"district":{"key":"09362","name":"Regensburg","type":"Kreisfreie_Stadt"},"federalState":{"key":"09","name":"Bayern"}},{"name":"Christine-Friedlein-Str.","postalCode":"93055","locality":"Regensburg","municipality":{"key":"09362000","name":"Regensburg","type":"Kreisfreie_Stadt"},"district":{"key":"09362","name":"Regensburg","type":"Kreisfreie_Stadt"},"federalState":{"key":"09","name":"Bayern"}},{"name":"Christliebstr.","postalCode":"93055","locality":"Regensburg","municipality":{"key":"09362000","name":"Regensburg","type":"Kreisfreie_Stadt"},"district":{"key":"09362","name":"Regensburg","type":"Kreisfreie_Stadt"},"federalState":{"key":"09","name":"Bayern"}},{"name":"Christoph-Vogel-Str.","postalCode":"93128","locality":"Regenstauf","municipality":{"key":"09375190","name":"Regenstauf, M","type":"Markt"},"district":{"key":"09375","name":"Regensburg","type":"Landkreis"},"federalState":{"key":"09","name":"Bayern"}},{"name":"Clara-Schumann-Str.","postalCode":"93049","locality":"Regensburg","municipality":{"key":"09362000","name":"Regensburg","type":"Kreisfreie_Stadt"},"district":{"key":"09362","name":"Regensburg","type":"Kreisfreie_Stadt"},"federalState":{"key":"09","name":"Bayern"}},{"name":"Clausewitzstr.","postalCode":"93049","locality":"Regensburg","municipality":{"key":"09362000","name":"Regensburg","type":"Kreisfreie_Stadt"},"district":{"key":"09362","name":"Regensburg","type":"Kreisfreie_Stadt"},"federalState":{"key":"09","name":"Bayern"}},{"name":"Clermont-Ferrand-Allee","postalCode":"93049","locality":"Regensburg","municipality":{"key":"09362000","name":"Regensburg","type":"Kreisfreie_Stadt"},"district":{"key":"09362","name":"Regensburg","type":"Kreisfreie_Stadt"},"federalState":{"key":"09","name":"Bayern"}},{"name":"Coburger Str.","postalCode":"93057","locality":"Regensburg","municipality":{"key":"09362000","name":"Regensburg","type":"Kreisfreie_Stadt"},"district":{"key":"09362","name":"Regensburg","type":"Kreisfreie_Stadt"},"federalState":{"key":"09","name":"Bayern"}},{"name":"Colmarer Str.","postalCode":"93057","locality":"Regensburg","municipality":{"key":"09362000","name":"Regensburg","type":"Kreisfreie_Stadt"},"district":{"key":"09362","name":"Regensburg","type":"Kreisfreie_Stadt"},"federalState":{"key":"09","name":"Bayern"}},{"name":"Coulmiersstr.","postalCode":"93055","locality":"Regensburg","municipality":{"key":"09362000","name":"Regensburg","type":"Kreisfreie_Stadt"},"district":{"key":"09362","name":"Regensburg","type":"Kreisfreie_Stadt"},"federalState":{"key":"09","name":"Bayern"}},{"name":"Cranachweg","postalCode":"93051","locality":"Regensburg","municipality":{"key":"09362000","name":"Regensburg","type":"Kreisfreie_Stadt"},"district":{"key":"09362","name":"Regensburg","type":"Kreisfreie_Stadt"},"federalState":{"key":"09","name":"Bayern"}},{"name":"Deffernikstr.","postalCode":"94227","locality":"Lindberg","municipality":{"key":"09276130","name":"Lindberg","type":"Kreisangehörige_Gemeinde"},"district":{"key":"09276","name":"Regen","type":"Landkreis"},"federalState":{"key":"09","name":"Bayern"}},{"name":"Eisensteiner Str.","postalCode":"94227","locality":"Lindberg","municipality":{"key":"09276130","name":"Lindberg","type":"Kreisangehörige_Gemeinde"},"district":{"key":"09276","name":"Regen","type":"Landkreis"},"federalState":{"key":"09","name":"Bayern"}},{"name":"Falkensteinerstr.","postalCode":"94227","locality":"Lindberg","municipality":{"key":"09276130","name":"Lindberg","type":"Kreisangehörige_Gemeinde"},"district":{"key":"09276","name":"Regen","type":"Landkreis"},"federalState":{"key":"09","name":"Bayern"}},{"name":"Fichtenweg","postalCode":"94227","locality":"Lindberg","municipality":{"key":"09276130","name":"Lindberg","type":"Kreisangehörige_Gemeinde"},"district":{"key":"09276","name":"Regen","type":"Landkreis"},"federalState":{"key":"09","name":"Bayern"}},{"name":"Geränkstr.","postalCode":"94227","locality":"Lindberg","municipality":{"key":"09276130","name":"Lindberg","type":"Kreisangehörige_Gemeinde"},"district":{"key":"09276","name":"Regen","type":"Landkreis"},"federalState":{"key":"09","name":"Bayern"}},{"name":"Gfälleistr.","postalCode":"94227","locality":"Lindberg","municipality":{"key":"09276130","name":"Lindberg","type":"Kreisangehörige_Gemeinde"},"district":{"key":"09276","name":"Regen","type":"Landkreis"},"federalState":{"key":"09","name":"Bayern"}},{"name":"Gläserner Steig","postalCode":"94227","locality":"Lindberg","municipality":{"key":"09276130","name":"Lindberg","type":"Kreisangehörige_Gemeinde"},"district":{"key":"09276","name":"Regen","type":"Landkreis"},"federalState":{"key":"09","name":"Bayern"}},{"name":"Gmoaweg","postalCode":"94227","locality":"Lindberg","municipality":{"key":"09276130","name":"Lindberg","type":"Kreisangehörige_Gemeinde"},"district":{"key":"09276","name":"Regen","type":"Landkreis"},"federalState":{"key":"09","name":"Bayern"}},{"name":"Grassteig","postalCode":"94227","locality":"Lindberg","municipality":{"key":"09276130","name":"Lindberg","type":"Kreisangehörige_Gemeinde"},"district":{"key":"09276","name":"Regen","type":"Landkreis"},"federalState":{"key":"09","name":"Bayern"}},{"name":"Grenzsteig","postalCode":"94227","locality":"Lindberg","municipality":{"key":"09276130","name":"Lindberg","type":"Kreisangehörige_Gemeinde"},"district":{"key":"09276","name":"Regen","type":"Landkreis"},"federalState":{"key":"09","name":"Bayern"}},{"name":"Grenzweg","postalCode":"94227","locality":"Lindberg","municipality":{"key":"09276130","name":"Lindberg","type":"Kreisangehörige_Gemeinde"},"district":{"key":"09276","name":"Regen","type":"Landkreis"},"federalState":{"key":"09","name":"Bayern"}},{"name":"Grübenweg","postalCode":"94227","locality":"Lindberg","municipality":{"key":"09276130","name":"Lindberg","type":"Kreisangehörige_Gemeinde"},"district":{"key":"09276","name":"Regen","type":"Landkreis"},"federalState":{"key":"09","name":"Bayern"}},{"name":"Hanselsteigstr.","postalCode":"94227","locality":"Lindberg","municipality":{"key":"09276130","name":"Lindberg","type":"Kreisangehörige_Gemeinde"},"district":{"key":"09276","name":"Regen","type":"Landkreis"},"federalState":{"key":"09","name":"Bayern"}},{"name":"Hans-Probst-Weg","postalCode":"94227","locality":"Lindberg","municipality":{"key":"09276130","name":"Lindberg","type":"Kreisangehörige_Gemeinde"},"district":{"key":"09276","name":"Regen","type":"Landkreis"},"federalState":{"key":"09","name":"Bayern"}},{"name":"Haselauweg","postalCode":"94227","locality":"Lindberg","municipality":{"key":"09276130","name":"Lindberg","type":"Kreisangehörige_Gemeinde"},"district":{"key":"09276","name":"Regen","type":"Landkreis"},"federalState":{"key":"09","name":"Bayern"}},{"name":"Hausäckerstr.","postalCode":"94227","locality":"Lindberg","municipality":{"key":"09276130","name":"Lindberg","type":"Kreisangehörige_Gemeinde"},"district":{"key":"09276","name":"Regen","type":"Landkreis"},"federalState":{"key":"09","name":"Bayern"}},{"name":"Hechtleinfahrbahn","postalCode":"94227","locality":"Lindberg","municipality":{"key":"09276130","name":"Lindberg","type":"Kreisangehörige_Gemeinde"},"district":{"key":"09276","name":"Regen","type":"Landkreis"},"federalState":{"key":"09","name":"Bayern"}},{"name":"Hochleitenrundweg","postalCode":"94227","locality":"Lindberg","municipality":{"key":"09276130","name":"Lindberg","type":"Kreisangehörige_Gemeinde"},"district":{"key":"09276","name":"Regen","type":"Landkreis"},"federalState":{"key":"09","name":"Bayern"}},{"name":"Hochleitenweg","postalCode":"94227","locality":"Lindberg","municipality":{"key":"09276130","name":"Lindberg","type":"Kreisangehörige_Gemeinde"},"district":{"key":"09276","name":"Regen","type":"Landkreis"},"federalState":{"key":"09","name":"Bayern"}},{"name":"Hochschachtenstr.","postalCode":"94227","locality":"Lindberg","municipality":{"key":"09276130","name":"Lindberg","type":"Kreisangehörige_Gemeinde"},"district":{"key":"09276","name":"Regen","type":"Landkreis"},"federalState":{"key":"09","name":"Bayern"}},{"name":"Höllbachstr.","postalCode":"94227","locality":"Lindberg","municipality":{"key":"09276130","name":"Lindberg","type":"Kreisangehörige_Gemeinde"},"district":{"key":"09276","name":"Regen","type":"Landkreis"},"federalState":{"key":"09","name":"Bayern"}},{"name":"Holzbrücke","postalCode":"94227","locality":"Lindberg","municipality":{"key":"09276130","name":"Lindberg","type":"Kreisangehörige_Gemeinde"},"district":{"key":"09276","name":"Regen","type":"Landkreis"},"federalState":{"key":"09","name":"Bayern"}},{"name":"Holzlagerplatz","postalCode":"94227","locality":"Lindberg","municipality":{"key":"09276130","name":"Lindberg","type":"Kreisangehörige_Gemeinde"},"district":{"key":"09276","name":"Regen","type":"Landkreis"},"federalState":{"key":"09","name":"Bayern"}},{"name":"Hüttenplatz","postalCode":"94227","locality":"Lindberg","municipality":{"key":"09276130","name":"Lindberg","type":"Kreisangehörige_Gemeinde"},"district":{"key":"09276","name":"Regen","type":"Landkreis"},"federalState":{"key":"09","name":"Bayern"}},{"name":"Im Hochfeld","postalCode":"94227","locality":"Lindberg","municipality":{"key":"09276130","name":"Lindberg","type":"Kreisangehörige_Gemeinde"},"district":{"key":"09276","name":"Regen","type":"Landkreis"},"federalState":{"key":"09","name":"Bayern"}},{"name":"Jagdgestell","postalCode":"94227","locality":"Lindberg","municipality":{"key":"09276130","name":"Lindberg","type":"Kreisangehörige_Gemeinde"},"district":{"key":"09276","name":"Regen","type":"Landkreis"},"federalState":{"key":"09","name":"Bayern"}},{"name":"Josef-Lippmann-Weg","postalCode":"94227","locality":"Lindberg","municipality":{"key":"09276130","name":"Lindberg","type":"Kreisangehörige_Gemeinde"},"district":{"key":"09276","name":"Regen","type":"Landkreis"},"federalState":{"key":"09","name":"Bayern"}},{"name":"Kiesbruchweg","postalCode":"94227","locality":"Lindberg","municipality":{"key":"09276130","name":"Lindberg","type":"Kreisangehörige_Gemeinde"},"district":{"key":"09276","name":"Regen","type":"Landkreis"},"federalState":{"key":"09","name":"Bayern"}},{"name":"Kiesseigenstr.","postalCode":"94227","locality":"Lindberg","municipality":{"key":"09276130","name":"Lindberg","type":"Kreisangehörige_Gemeinde"},"district":{"key":"09276","name":"Regen","type":"Landkreis"},"federalState":{"key":"09","name":"Bayern"}},{"name":"Klotzstr.","postalCode":"94227","locality":"Lindberg","municipality":{"key":"09276130","name":"Lindberg","type":"Kreisangehörige_Gemeinde"},"district":{"key":"09276","name":"Regen","type":"Landkreis"},"federalState":{"key":"09","name":"Bayern"}},{"name":"Kramerstr.","postalCode":"94227","locality":"Lindberg","municipality":{"key":"09276130","name":"Lindberg","type":"Kreisangehörige_Gemeinde"},"district":{"key":"09276","name":"Regen","type":"Landkreis"},"federalState":{"key":"09","name":"Bayern"}},{"name":"Lackenbergweg","postalCode":"94227","locality":"Lindberg","municipality":{"key":"09276130","name":"Lindberg","type":"Kreisangehörige_Gemeinde"},"district":{"key":"09276","name":"Regen","type":"Landkreis"},"federalState":{"key":"09","name":"Bayern"}},{"name":"Lakabruck","postalCode":"94227","locality":"Lindberg","municipality":{"key":"09276130","name":"Lindberg","type":"Kreisangehörige_Gemeinde"},"district":{"key":"09276","name":"Regen","type":"Landkreis"},"federalState":{"key":"09","name":"Bayern"}},{"name":"Lehen","postalCode":"94227","locality":"Lindberg","municipality":{"key":"09276130","name":"Lindberg","type":"Kreisangehörige_Gemeinde"},"district":{"key":"09276","name":"Regen","type":"Landkreis"},"federalState":{"key":"09","name":"Bayern"}},{"name":"Lehenbergweg","postalCode":"94227","locality":"Lindberg","municipality":{"key":"09276130","name":"Lindberg","type":"Kreisangehörige_Gemeinde"},"district":{"key":"09276","name":"Regen","type":"Landkreis"},"federalState":{"key":"09","name":"Bayern"}},{"name":"Lehener Str.","postalCode":"94227","locality":"Lindberg","municipality":{"key":"09276130","name":"Lindberg","type":"Kreisangehörige_Gemeinde"},"district":{"key":"09276","name":"Regen","type":"Landkreis"},"federalState":{"key":"09","name":"Bayern"}},{"name":"Leitplanke geteilt","postalCode":"94227","locality":"Lindberg","municipality":{"key":"09276130","name":"Lindberg","type":"Kreisangehörige_Gemeinde"},"district":{"key":"09276","name":"Regen","type":"Landkreis"},"federalState":{"key":"09","name":"Bayern"}},{"name":"Lichtfleckstr.","postalCode":"94227","locality":"Lindberg","municipality":{"key":"09276130","name":"Lindberg","type":"Kreisangehörige_Gemeinde"},"district":{"key":"09276","name":"Regen","type":"Landkreis"},"federalState":{"key":"09","name":"Bayern"}},{"name":"Lieferantenzufahrt","postalCode":"94227","locality":"Lindberg","municipality":{"key":"09276130","name":"Lindberg","type":"Kreisangehörige_Gemeinde"},"district":{"key":"09276","name":"Regen","type":"Landkreis"},"federalState":{"key":"09","name":"Bayern"}},{"name":"Lindbergmühle","postalCode":"94227","locality":"Lindberg","municipality":{"key":"09276130","name":"Lindberg","type":"Kreisangehörige_Gemeinde"},"district":{"key":"09276","name":"Regen","type":"Landkreis"},"federalState":{"key":"09","name":"Bayern"}},{"name":"Lohwaldweg","postalCode":"94227","locality":"Lindberg","municipality":{"key":"09276130","name":"Lindberg","type":"Kreisangehörige_Gemeinde"},"district":{"key":"09276","name":"Regen","type":"Landkreis"},"federalState":{"key":"09","name":"Bayern"}},{"name":"Ludwigsthaler Str.","postalCode":"94227","locality":"Lindberg","municipality":{"key":"09276130","name":"Lindberg","type":"Kreisangehörige_Gemeinde"},"district":{"key":"09276","name":"Regen","type":"Landkreis"},"federalState":{"key":"09","name":"Bayern"}},{"name":"Mühlweg","postalCode":"94227","locality":"Lindberg","municipality":{"key":"09276130","name":"Lindberg","type":"Kreisangehörige_Gemeinde"},"district":{"key":"09276","name":"Regen","type":"Landkreis"},"federalState":{"key":"09","name":"Bayern"}},{"name":"Neuer Gespetweg","postalCode":"94227","locality":"Lindberg","municipality":{"key":"09276130","name":"Lindberg","type":"Kreisangehörige_Gemeinde"},"district":{"key":"09276","name":"Regen","type":"Landkreis"},"federalState":{"key":"09","name":"Bayern"}},{"name":"Nußhardthüttenweg","postalCode":"94227","locality":"Lindberg","municipality":{"key":"09276130","name":"Lindberg","type":"Kreisangehörige_Gemeinde"},"district":{"key":"09276","name":"Regen","type":"Landkreis"},"federalState":{"key":"09","name":"Bayern"}},{"name":"Obere Bärenlocherstr.","postalCode":"94227","locality":"Lindberg","municipality":{"key":"09276130","name":"Lindberg","type":"Kreisangehörige_Gemeinde"},"district":{"key":"09276","name":"Regen","type":"Landkreis"},"federalState":{"key":"09","name":"Bayern"}},{"name":"Oberlindbergmühle","postalCode":"94227","locality":"Lindberg","municipality":{"key":"09276130","name":"Lindberg","type":"Kreisangehörige_Gemeinde"},"district":{"key":"09276","name":"Regen","type":"Landkreis"},"federalState":{"key":"09","name":"Bayern"}},{"name":"Pommerbachstr.","postalCode":"94227","locality":"Lindberg","municipality":{"key":"09276130","name":"Lindberg","type":"Kreisangehörige_Gemeinde"},"district":{"key":"09276","name":"Regen","type":"Landkreis"},"federalState":{"key":"09","name":"Bayern"}},{"name":"Quartiersplatz","postalCode":"93053","locality":"Regensburg","municipality":{"key":"09362000","name":"Regensburg","type":"Kreisfreie_Stadt"},"district":{"key":"09362","name":"Regensburg","type":"Kreisfreie_Stadt"},"federalState":{"key":"09","name":"Bayern"}},{"name":"Rachelstr.","postalCode":"94227","locality":"Lindberg","municipality":{"key":"09276130","name":"Lindberg","type":"Kreisangehörige_Gemeinde"},"district":{"key":"09276","name":"Regen","type":"Landkreis"},"federalState":{"key":"09","name":"Bayern"}},{"name":"Rehhängweg","postalCode":"94227","locality":"Lindberg","municipality":{"key":"09276130","name":"Lindberg","type":"Kreisangehörige_Gemeinde"},"district":{"key":"09276","name":"Regen","type":"Landkreis"},"federalState":{"key":"09","name":"Bayern"}},{"name":"Reitweg","postalCode":"94227","locality":"Lindberg","municipality":{"key":"09276130","name":"Lindberg","type":"Kreisangehörige_Gemeinde"},"district":{"key":"09276","name":"Regen","type":"Landkreis"},"federalState":{"key":"09","name":"Bayern"}},{"name":"Riesweg","postalCode":"94227","locality":"Lindberg","municipality":{"key":"09276130","name":"Lindberg","type":"Kreisangehörige_Gemeinde"},"district":{"key":"09276","name":"Regen","type":"Landkreis"},"federalState":{"key":"09","name":"Bayern"}},{"name":"Rindelsteig","postalCode":"94227","locality":"Lindberg","municipality":{"key":"09276130","name":"Lindberg","type":"Kreisangehörige_Gemeinde"},"district":{"key":"09276","name":"Regen","type":"Landkreis"},"federalState":{"key":"09","name":"Bayern"}},{"name":"Sallerriegel","postalCode":"94227","locality":"Lindberg","municipality":{"key":"09276130","name":"Lindberg","type":"Kreisangehörige_Gemeinde"},"district":{"key":"09276","name":"Regen","type":"Landkreis"},"federalState":{"key":"09","name":"Bayern"}},{"name":"Salzweg","postalCode":"94227","locality":"Lindberg","municipality":{"key":"09276130","name":"Lindberg","type":"Kreisangehörige_Gemeinde"},"district":{"key":"09276","name":"Regen","type":"Landkreis"},"federalState":{"key":"09","name":"Bayern"}},{"name":"Säumerweg","postalCode":"94227","locality":"Lindberg","municipality":{"key":"09276130","name":"Lindberg","type":"Kreisangehörige_Gemeinde"},"district":{"key":"09276","name":"Regen","type":"Landkreis"},"federalState":{"key":"09","name":"Bayern"}},{"name":"Schachtenweg","postalCode":"94227","locality":"Lindberg","municipality":{"key":"09276130","name":"Lindberg","type":"Kreisangehörige_Gemeinde"},"district":{"key":"09276","name":"Regen","type":"Landkreis"},"federalState":{"key":"09","name":"Bayern"}},{"name":"Schillerweg","postalCode":"94227","locality":"Lindberg","municipality":{"key":"09276130","name":"Lindberg","type":"Kreisangehörige_Gemeinde"},"district":{"key":"09276","name":"Regen","type":"Landkreis"},"federalState":{"key":"09","name":"Bayern"}},{"name":"Schleicherstr.","postalCode":"94227","locality":"Lindberg","municipality":{"key":"09276130","name":"Lindberg","type":"Kreisangehörige_Gemeinde"},"district":{"key":"09276","name":"Regen","type":"Landkreis"},"federalState":{"key":"09","name":"Bayern"}},{"name":"Schleichersträßchen","postalCode":"94227","locality":"Lindberg","municipality":{"key":"09276130","name":"Lindberg","type":"Kreisangehörige_Gemeinde"},"district":{"key":"09276","name":"Regen","type":"Landkreis"},"federalState":{"key":"09","name":"Bayern"}},{"name":"Schrödelweg","postalCode":"94227","locality":"Lindberg","municipality":{"key":"09276130","name":"Lindberg","type":"Kreisangehörige_Gemeinde"},"district":{"key":"09276","name":"Regen","type":"Landkreis"},"federalState":{"key":"09","name":"Bayern"}},{"name":"Schulweg","postalCode":"94227","locality":"Lindberg","municipality":{"key":"09276130","name":"Lindberg","type":"Kreisangehörige_Gemeinde"},"district":{"key":"09276","name":"Regen","type":"Landkreis"},"federalState":{"key":"09","name":"Bayern"}},{"name":"Schwarze Brücke","postalCode":"94227","locality":"Lindberg","municipality":{"key":"09276130","name":"Lindberg","type":"Kreisangehörige_Gemeinde"},"district":{"key":"09276","name":"Regen","type":"Landkreis"},"federalState":{"key":"09","name":"Bayern"}},{"name":"Schwellenweg (Schwellsteig)","postalCode":"94227","locality":"Lindberg","municipality":{"key":"09276130","name":"Lindberg","type":"Kreisangehörige_Gemeinde"},"district":{"key":"09276","name":"Regen","type":"Landkreis"},"federalState":{"key":"09","name":"Bayern"}},{"name":"Spiegelhüttenstr.","postalCode":"94227","locality":"Lindberg","municipality":{"key":"09276130","name":"Lindberg","type":"Kreisangehörige_Gemeinde"},"district":{"key":"09276","name":"Regen","type":"Landkreis"},"federalState":{"key":"09","name":"Bayern"}},{"name":"Startrampe","postalCode":"94227","locality":"Lindberg","municipality":{"key":"09276130","name":"Lindberg","type":"Kreisangehörige_Gemeinde"},"district":{"key":"09276","name":"Regen","type":"Landkreis"},"federalState":{"key":"09","name":"Bayern"}},{"name":"Steinschachtenstr.","postalCode":"94227","locality":"Lindberg","municipality":{"key":"09276130","name":"Lindberg","type":"Kreisangehörige_Gemeinde"},"district":{"key":"09276","name":"Regen","type":"Landkreis"},"federalState":{"key":"09","name":"Bayern"}},{"name":"Tauberstr.","postalCode":"94227","locality":"Lindberg","municipality":{"key":"09276130","name":"Lindberg","type":"Kreisangehörige_Gemeinde"},"district":{"key":"09276","name":"Regen","type":"Landkreis"},"federalState":{"key":"09","name":"Bayern"}},{"name":"Tausenderkurve","postalCode":"94227","locality":"Lindberg","municipality":{"key":"09276130","name":"Lindberg","type":"Kreisangehörige_Gemeinde"},"district":{"key":"09276","name":"Regen","type":"Landkreis"},"federalState":{"key":"09","name":"Bayern"}},{"name":"Untere Bärenlocherstr.","postalCode":"94227","locality":"Lindberg","municipality":{"key":"09276130","name":"Lindberg","type":"Kreisangehörige_Gemeinde"},"district":{"key":"09276","name":"Regen","type":"Landkreis"},"federalState":{"key":"09","name":"Bayern"}},{"name":"V.D.K.-Str.","postalCode":"94209","locality":"Regen","municipality":{"key":"09276138","name":"Regen, St","type":"Stadt"},"district":{"key":"09276","name":"Regen","type":"Landkreis"},"federalState":{"key":"09","name":"Bayern"}},{"name":"Veilchenweg","postalCode":"94209","locality":"Regen","municipality":{"key":"09276138","name":"Regen, St","type":"Stadt"},"district":{"key":"09276","name":"Regen","type":"Landkreis"},"federalState":{"key":"09","name":"Bayern"}},{"name":"Vestaweg","postalCode":"93055","locality":"Regensburg","municipality":{"key":"09362000","name":"Regensburg","type":"Kreisfreie_Stadt"},"district":{"key":"09362","name":"Regensburg","type":"Kreisfreie_Stadt"},"federalState":{"key":"09","name":"Bayern"}},{"name":"Victoriaweg","postalCode":"93055","locality":"Regensburg","municipality":{"key":"09362000","name":"Regensburg","type":"Kreisfreie_Stadt"},"district":{"key":"09362","name":"Regensburg","type":"Kreisfreie_Stadt"},"federalState":{"key":"09","name":"Bayern"}},{"name":"Vidiner Str.","postalCode":"93055","locality":"Regensburg","municipality":{"key":"09362000","name":"Regensburg","type":"Kreisfreie_Stadt"},"district":{"key":"09362","name":"Regensburg","type":"Kreisfreie_Stadt"},"federalState":{"key":"09","name":"Bayern"}},{"name":"Viktor-von-Scheffel-Str.","postalCode":"93051","locality":"Regensburg","municipality":{"key":"09362000","name":"Regensburg","type":"Kreisfreie_Stadt"},"district":{"key":"09362","name":"Regensburg","type":"Kreisfreie_Stadt"},"federalState":{"key":"09","name":"Bayern"}},{"name":"Villapark","postalCode":"93055","locality":"Regensburg","municipality":{"key":"09362000","name":"Regensburg","type":"Kreisfreie_Stadt"},"district":{"key":"09362","name":"Regensburg","type":"Kreisfreie_Stadt"},"federalState":{"key":"09","name":"Bayern"}},{"name":"Villa Rustica","postalCode":"93055","locality":"Regensburg","municipality":{"key":"09362000","name":"Regensburg","type":"Kreisfreie_Stadt"},"district":{"key":"09362","name":"Regensburg","type":"Kreisfreie_Stadt"},"federalState":{"key":"09","name":"Bayern"}},{"name":"Villastr.","postalCode":"93055","locality":"Regensburg","municipality":{"key":"09362000","name":"Regensburg","type":"Kreisfreie_Stadt"},"district":{"key":"09362","name":"Regensburg","type":"Kreisfreie_Stadt"},"federalState":{"key":"09","name":"Bayern"}},{"name":"Vilsecker Str.","postalCode":"93057","locality":"Regensburg","municipality":{"key":"09362000","name":"Regensburg","type":"Kreisfreie_Stadt"},"district":{"key":"09362","name":"Regensburg","type":"Kreisfreie_Stadt"},"federalState":{"key":"09","name":"Bayern"}},{"name":"Vilshofener Str.","postalCode":"93055","locality":"Regensburg","municipality":{"key":"09362000","name":"Regensburg","type":"Kreisfreie_Stadt"},"district":{"key":"09362","name":"Regensburg","type":"Kreisfreie_Stadt"},"federalState":{"key":"09","name":"Bayern"}},{"name":"Vilsstr.","postalCode":"93059","locality":"Regensburg","municipality":{"key":"09362000","name":"Regensburg","type":"Kreisfreie_Stadt"},"district":{"key":"09362","name":"Regensburg","type":"Kreisfreie_Stadt"},"federalState":{"key":"09","name":"Bayern"}},{"name":"Vintlweg","postalCode":"93053","locality":"Regensburg","municipality":{"key":"09362000","name":"Regensburg","type":"Kreisfreie_Stadt"},"district":{"key":"09362","name":"Regensburg","type":"Kreisfreie_Stadt"},"federalState":{"key":"09","name":"Bayern"}},{"name":"Vitusstr.","postalCode":"93051","locality":"Regensburg","municipality":{"key":"09362000","name":"Regensburg","type":"Kreisfreie_Stadt"},"district":{"key":"09362","name":"Regensburg","type":"Kreisfreie_Stadt"},"federalState":{"key":"09","name":"Bayern"}},{"name":"Vogelbeerweg","postalCode":"93055","locality":"Regensburg","municipality":{"key":"09362000","name":"Regensburg","type":"Kreisfreie_Stadt"},"district":{"key":"09362","name":"Regensburg","type":"Kreisfreie_Stadt"},"federalState":{"key":"09","name":"Bayern"}},{"name":"Vogelsandstr.","postalCode":"93128","locality":"Regenstauf","municipality":{"key":"09375190","name":"Regenstauf, M","type":"Markt"},"district":{"key":"09375","name":"Regensburg","type":"Landkreis"},"federalState":{"key":"09","name":"Bayern"}},{"name":"Vogesenstr.","postalCode":"93057","locality":"Regensburg","municipality":{"key":"09362000","name":"Regensburg","type":"Kreisfreie_Stadt"},"district":{"key":"09362","name":"Regensburg","type":"Kreisfreie_Stadt"},"federalState":{"key":"09","name":"Bayern"}},{"name":"Voglweg","postalCode":"94209","locality":"Regen","municipality":{"key":"09276138","name":"Regen, St","type":"Stadt"},"district":{"key":"09276","name":"Regen","type":"Landkreis"},"federalState":{"key":"09","name":"Bayern"}},{"name":"Volcanusweg","postalCode":"93055","locality":"Regensburg","municipality":{"key":"09362000","name":"Regensburg","type":"Kreisfreie_Stadt"},"district":{"key":"09362","name":"Regensburg","type":"Kreisfreie_Stadt"},"federalState":{"key":"09","name":"Bayern"}},{"name":"Von-Brettreich-Str.","postalCode":"93049","locality":"Regensburg","municipality":{"key":"09362000","name":"Regensburg","type":"Kreisfreie_Stadt"},"district":{"key":"09362","name":"Regensburg","type":"Kreisfreie_Stadt"},"federalState":{"key":"09","name":"Bayern"}},{"name":"Von-der-Tann-Str.","postalCode":"93047","locality":"Regensburg","municipality":{"key":"09362000","name":"Regensburg","type":"Kreisfreie_Stadt"},"district":{"key":"09362","name":"Regensburg","type":"Kreisfreie_Stadt"},"federalState":{"key":"09","name":"Bayern"}},{"name":"Von-Donle-Str.","postalCode":"93055","locality":"Regensburg","municipality":{"key":"09362000","name":"Regensburg","type":"Kreisfreie_Stadt"},"district":{"key":"09362","name":"Regensburg","type":"Kreisfreie_Stadt"},"federalState":{"key":"09","name":"Bayern"}},{"name":"Von-Reiner-Str.","postalCode":"93053","locality":"Regensburg","municipality":{"key":"09362000","name":"Regensburg","type":"Kreisfreie_Stadt"},"district":{"key":"09362","name":"Regensburg","type":"Kreisfreie_Stadt"},"federalState":{"key":"09","name":"Bayern"}},{"name":"Von-Richthofen-Str.","postalCode":"93051","locality":"Regensburg","municipality":{"key":"09362000","name":"Regensburg","type":"Kreisfreie_Stadt"},"district":{"key":"09362","name":"Regensburg","type":"Kreisfreie_Stadt"},"federalState":{"key":"09","name":"Bayern"}},{"name":"Von-Schenk-Str.","postalCode":"93051","locality":"Regensburg","municipality":{"key":"09362000","name":"Regensburg","type":"Kreisfreie_Stadt"},"district":{"key":"09362","name":"Regensburg","type":"Kreisfreie_Stadt"},"federalState":{"key":"09","name":"Bayern"}},{"name":"Von-Seeckt-Str.","postalCode":"93053","locality":"Regensburg","municipality":{"key":"09362000","name":"Regensburg","type":"Kreisfreie_Stadt"},"district":{"key":"09362","name":"Regensburg","type":"Kreisfreie_Stadt"},"federalState":{"key":"09","name":"Bayern"}},{"name":"Vor der Grieb","postalCode":"93047","locality":"Regensburg","municipality":{"key":"09362000","name":"Regensburg","type":"Kreisfreie_Stadt"},"district":{"key":"09362","name":"Regensburg","type":"Kreisfreie_Stadt"},"federalState":{"key":"09","name":"Bayern"}},{"name":"Vorlandweg","postalCode":"93055","locality":"Regensburg","municipality":{"key":"09362000","name":"Regensburg","type":"Kreisfreie_Stadt"},"district":{"key":"09362","name":"Regensburg","type":"Kreisfreie_Stadt"},"federalState":{"key":"09","name":"Bayern"}},{"name":"Waldhausstr.","postalCode":"94227","locality":"Lindberg","municipality":{"key":"09276130","name":"Lindberg","type":"Kreisangehörige_Gemeinde"},"district":{"key":"09276","name":"Regen","type":"Landkreis"},"federalState":{"key":"09","name":"Bayern"}},{"name":"Weiße Brücke","postalCode":"94227","locality":"Lindberg","municipality":{"key":"09276130","name":"Lindberg","type":"Kreisangehörige_Gemeinde"},"district":{"key":"09276","name":"Regen","type":"Landkreis"},"federalState":{"key":"09","name":"Bayern"}},{"name":"Wintergatter Ahornschachten","postalCode":"94227","locality":"Lindberg","municipality":{"key":"09276130","name":"Lindberg","type":"Kreisangehörige_Gemeinde"},"district":{"key":"09276","name":"Regen","type":"Landkreis"},"federalState":{"key":"09","name":"Bayern"}},{"name":"Xaver-Fuhr-Str.","postalCode":"93055","locality":"Regensburg","municipality":{"key":"09362000","name":"Regensburg","type":"Kreisfreie_Stadt"},"district":{"key":"09362","name":"Regensburg","type":"Kreisfreie_Stadt"},"federalState":{"key":"09","name":"Bayern"}},{"name":"Yorckstr.","postalCode":"93049","locality":"Regensburg","municipality":{"key":"09362000","name":"Regensburg","type":"Kreisfreie_Stadt"},"district":{"key":"09362","name":"Regensburg","type":"Kreisfreie_Stadt"},"federalState":{"key":"09","name":"Bayern"}},{"name":"Zollhausstr.","postalCode":"94227","locality":"Lindberg","municipality":{"key":"09276130","name":"Lindberg","type":"Kreisangehörige_Gemeinde"},"district":{"key":"09276","name":"Regen","type":"Landkreis"},"federalState":{"key":"09","name":"Bayern"}},{"name":"Zwieselauer Str.","postalCode":"94227","locality":"Lindberg","municipality":{"key":"09276130","name":"Lindberg","type":"Kreisangehörige_Gemeinde"},"district":{"key":"09276","name":"Regen","type":"Landkreis"},"federalState":{"key":"09","name":"Bayern"}},{"name":"Zwieseler Str.","postalCode":"94227","locality":"Lindberg","municipality":{"key":"09276130","name":"Lindberg","type":"Kreisangehörige_Gemeinde"},"district":{"key":"09276","name":"Regen","type":"Landkreis"},"federalState":{"key":"09","name":"Bayern"}},{"name":"Zwieselerwaldhausstr.","postalCode":"94227","locality":"Lindberg","municipality":{"key":"09276130","name":"Lindberg","type":"Kreisangehörige_Gemeinde"},"district":{"key":"09276","name":"Regen","type":"Landkreis"},"federalState":{"key":"09","name":"Bayern"}},{"name":"Ägidienplatz","postalCode":"93047","locality":"Regensburg","municipality":{"key":"09362000","name":"Regensburg","type":"Kreisfreie_Stadt"},"district":{"key":"09362","name":"Regensburg","type":"Kreisfreie_Stadt"},"federalState":{"key":"09","name":"Bayern"}},{"name":"Ährenweg","postalCode":"93128","locality":"Regenstauf","municipality":{"key":"09375190","name":"Regenstauf, M","type":"Markt"},"district":{"key":"09375","name":"Regensburg","type":"Landkreis"},"federalState":{"key":"09","name":"Bayern"}},{"name":"Äußere Wiener Str.","postalCode":"93055","locality":"Regensburg","municipality":{"key":"09362000","name":"Regensburg","type":"Kreisfreie_Stadt"},"district":{"key":"09362","name":"Regensburg","type":"Kreisfreie_Stadt"},"federalState":{"key":"09","name":"Bayern"}},{"name":"Ödenthal","postalCode":"93057","locality":"Regensburg","municipality":{"key":"09362000","name":"Regensburg","type":"Kreisfreie_Stadt"},"district":{"key":"09362","name":"Regensburg","type":"Kreisfreie_Stadt"},"federalState":{"key":"09","name":"Bayern"}},{"name":"Ödenthaler Weg","postalCode":"93057","locality":"Regensburg","municipality":{"key":"09362000","name":"Regensburg","type":"Kreisfreie_Stadt"},"district":{"key":"09362","name":"Regensburg","type":"Kreisfreie_Stadt"},"federalState":{"key":"09","name":"Bayern"}},{"name":"Ödenthalweg","postalCode":"93057","locality":"Regensburg","municipality":{"key":"09362000","name":"Regensburg","type":"Kreisfreie_Stadt"},"district":{"key":"09362","name":"Regensburg","type":"Kreisfreie_Stadt"},"federalState":{"key":"09","name":"Bayern"}},]