[{"name":"Alte Dorfstr.","postalCode":"38547","locality":"Calberlah","municipality":{"key":"03151006","name":"Calberlah","type":"Kreisangehörige_Gemeinde"},"district":{"key":"03151","name":"Gifhorn","type":"Landkreis"},"federalState":{"key":"03","name":"Niedersachsen"}},{"name":"Am alten Hof","postalCode":"38547","locality":"Calberlah","municipality":{"key":"03151006","name":"Calberlah","type":"Kreisangehörige_Gemeinde"},"district":{"key":"03151","name":"Gifhorn","type":"Landkreis"},"federalState":{"key":"03","name":"Niedersachsen"}},{"name":"Am Bruchfeld","postalCode":"38547","locality":"Calberlah","municipality":{"key":"03151006","name":"Calberlah","type":"Kreisangehörige_Gemeinde"},"district":{"key":"03151","name":"Gifhorn","type":"Landkreis"},"federalState":{"key":"03","name":"Niedersachsen"}},{"name":"Am Damm","postalCode":"38547","locality":"Calberlah","municipality":{"key":"03151006","name":"Calberlah","type":"Kreisangehörige_Gemeinde"},"district":{"key":"03151","name":"Gifhorn","type":"Landkreis"},"federalState":{"key":"03","name":"Niedersachsen"}},{"name":"Am Drens","postalCode":"38547","locality":"Calberlah","municipality":{"key":"03151006","name":"Calberlah","type":"Kreisangehörige_Gemeinde"},"district":{"key":"03151","name":"Gifhorn","type":"Landkreis"},"federalState":{"key":"03","name":"Niedersachsen"}},{"name":"Am Gänsegarten","postalCode":"38547","locality":"Calberlah","municipality":{"key":"03151006","name":"Calberlah","type":"Kreisangehörige_Gemeinde"},"district":{"key":"03151","name":"Gifhorn","type":"Landkreis"},"federalState":{"key":"03","name":"Niedersachsen"}},{"name":"Am großen Feld","postalCode":"38547","locality":"Calberlah","municipality":{"key":"03151006","name":"Calberlah","type":"Kreisangehörige_Gemeinde"},"district":{"key":"03151","name":"Gifhorn","type":"Landkreis"},"federalState":{"key":"03","name":"Niedersachsen"}},{"name":"Am Hofkamp","postalCode":"38547","locality":"Calberlah","municipality":{"key":"03151006","name":"Calberlah","type":"Kreisangehörige_Gemeinde"},"district":{"key":"03151","name":"Gifhorn","type":"Landkreis"},"federalState":{"key":"03","name":"Niedersachsen"}},{"name":"Am Kanal","postalCode":"38547","locality":"Calberlah","municipality":{"key":"03151006","name":"Calberlah","type":"Kreisangehörige_Gemeinde"},"district":{"key":"03151","name":"Gifhorn","type":"Landkreis"},"federalState":{"key":"03","name":"Niedersachsen"}},{"name":"Am Kirchfeld","postalCode":"38547","locality":"Calberlah","municipality":{"key":"03151006","name":"Calberlah","type":"Kreisangehörige_Gemeinde"},"district":{"key":"03151","name":"Gifhorn","type":"Landkreis"},"federalState":{"key":"03","name":"Niedersachsen"}},{"name":"Am Klinkerberg","postalCode":"38547","locality":"Calberlah","municipality":{"key":"03151006","name":"Calberlah","type":"Kreisangehörige_Gemeinde"},"district":{"key":"03151","name":"Gifhorn","type":"Landkreis"},"federalState":{"key":"03","name":"Niedersachsen"}},{"name":"Am Knick","postalCode":"38547","locality":"Calberlah","municipality":{"key":"03151006","name":"Calberlah","type":"Kreisangehörige_Gemeinde"},"district":{"key":"03151","name":"Gifhorn","type":"Landkreis"},"federalState":{"key":"03","name":"Niedersachsen"}},{"name":"Am Maatengraben","postalCode":"38547","locality":"Calberlah","municipality":{"key":"03151006","name":"Calberlah","type":"Kreisangehörige_Gemeinde"},"district":{"key":"03151","name":"Gifhorn","type":"Landkreis"},"federalState":{"key":"03","name":"Niedersachsen"}},{"name":"Am Meelfeld","postalCode":"38547","locality":"Calberlah","municipality":{"key":"03151006","name":"Calberlah","type":"Kreisangehörige_Gemeinde"},"district":{"key":"03151","name":"Gifhorn","type":"Landkreis"},"federalState":{"key":"03","name":"Niedersachsen"}},{"name":"Am Schäferlingen","postalCode":"38547","locality":"Calberlah","municipality":{"key":"03151006","name":"Calberlah","type":"Kreisangehörige_Gemeinde"},"district":{"key":"03151","name":"Gifhorn","type":"Landkreis"},"federalState":{"key":"03","name":"Niedersachsen"}},{"name":"Am Schulland","postalCode":"38547","locality":"Calberlah","municipality":{"key":"03151006","name":"Calberlah","type":"Kreisangehörige_Gemeinde"},"district":{"key":"03151","name":"Gifhorn","type":"Landkreis"},"federalState":{"key":"03","name":"Niedersachsen"}},{"name":"Amselweg","postalCode":"38547","locality":"Calberlah","municipality":{"key":"03151006","name":"Calberlah","type":"Kreisangehörige_Gemeinde"},"district":{"key":"03151","name":"Gifhorn","type":"Landkreis"},"federalState":{"key":"03","name":"Niedersachsen"}},{"name":"Am Steinkamp","postalCode":"38547","locality":"Calberlah","municipality":{"key":"03151006","name":"Calberlah","type":"Kreisangehörige_Gemeinde"},"district":{"key":"03151","name":"Gifhorn","type":"Landkreis"},"federalState":{"key":"03","name":"Niedersachsen"}},{"name":"An der Badeanstalt","postalCode":"38547","locality":"Calberlah","municipality":{"key":"03151006","name":"Calberlah","type":"Kreisangehörige_Gemeinde"},"district":{"key":"03151","name":"Gifhorn","type":"Landkreis"},"federalState":{"key":"03","name":"Niedersachsen"}},{"name":"An der Masch","postalCode":"38547","locality":"Calberlah","municipality":{"key":"03151006","name":"Calberlah","type":"Kreisangehörige_Gemeinde"},"district":{"key":"03151","name":"Gifhorn","type":"Landkreis"},"federalState":{"key":"03","name":"Niedersachsen"}},{"name":"An der Mühle","postalCode":"38547","locality":"Calberlah","municipality":{"key":"03151006","name":"Calberlah","type":"Kreisangehörige_Gemeinde"},"district":{"key":"03151","name":"Gifhorn","type":"Landkreis"},"federalState":{"key":"03","name":"Niedersachsen"}},{"name":"An der Sporthalle","postalCode":"38547","locality":"Calberlah","municipality":{"key":"03151006","name":"Calberlah","type":"Kreisangehörige_Gemeinde"},"district":{"key":"03151","name":"Gifhorn","type":"Landkreis"},"federalState":{"key":"03","name":"Niedersachsen"}},{"name":"Anhaltsweg","postalCode":"38547","locality":"Calberlah","municipality":{"key":"03151006","name":"Calberlah","type":"Kreisangehörige_Gemeinde"},"district":{"key":"03151","name":"Gifhorn","type":"Landkreis"},"federalState":{"key":"03","name":"Niedersachsen"}},{"name":"Apfelallee","postalCode":"38547","locality":"Calberlah","municipality":{"key":"03151006","name":"Calberlah","type":"Kreisangehörige_Gemeinde"},"district":{"key":"03151","name":"Gifhorn","type":"Landkreis"},"federalState":{"key":"03","name":"Niedersachsen"}},{"name":"Bahnhofstr.","postalCode":"38547","locality":"Calberlah","municipality":{"key":"03151006","name":"Calberlah","type":"Kreisangehörige_Gemeinde"},"district":{"key":"03151","name":"Gifhorn","type":"Landkreis"},"federalState":{"key":"03","name":"Niedersachsen"}},{"name":"Bergstrücken","postalCode":"38547","locality":"Calberlah","municipality":{"key":"03151006","name":"Calberlah","type":"Kreisangehörige_Gemeinde"},"district":{"key":"03151","name":"Gifhorn","type":"Landkreis"},"federalState":{"key":"03","name":"Niedersachsen"}},{"name":"Berliner Str.","postalCode":"38547","locality":"Calberlah","municipality":{"key":"03151006","name":"Calberlah","type":"Kreisangehörige_Gemeinde"},"district":{"key":"03151","name":"Gifhorn","type":"Landkreis"},"federalState":{"key":"03","name":"Niedersachsen"}},{"name":"Birkenweg","postalCode":"38547","locality":"Calberlah","municipality":{"key":"03151006","name":"Calberlah","type":"Kreisangehörige_Gemeinde"},"district":{"key":"03151","name":"Gifhorn","type":"Landkreis"},"federalState":{"key":"03","name":"Niedersachsen"}},{"name":"Brandenburger Weg","postalCode":"38547","locality":"Calberlah","municipality":{"key":"03151006","name":"Calberlah","type":"Kreisangehörige_Gemeinde"},"district":{"key":"03151","name":"Gifhorn","type":"Landkreis"},"federalState":{"key":"03","name":"Niedersachsen"}},{"name":"Breslauer Str.","postalCode":"38547","locality":"Calberlah","municipality":{"key":"03151006","name":"Calberlah","type":"Kreisangehörige_Gemeinde"},"district":{"key":"03151","name":"Gifhorn","type":"Landkreis"},"federalState":{"key":"03","name":"Niedersachsen"}},{"name":"Brunnenstr.","postalCode":"38547","locality":"Calberlah","municipality":{"key":"03151006","name":"Calberlah","type":"Kreisangehörige_Gemeinde"},"district":{"key":"03151","name":"Gifhorn","type":"Landkreis"},"federalState":{"key":"03","name":"Niedersachsen"}},{"name":"Buchenring","postalCode":"38547","locality":"Calberlah","municipality":{"key":"03151006","name":"Calberlah","type":"Kreisangehörige_Gemeinde"},"district":{"key":"03151","name":"Gifhorn","type":"Landkreis"},"federalState":{"key":"03","name":"Niedersachsen"}},{"name":"Calberlaher Str.","postalCode":"38547","locality":"Calberlah","municipality":{"key":"03151006","name":"Calberlah","type":"Kreisangehörige_Gemeinde"},"district":{"key":"03151","name":"Gifhorn","type":"Landkreis"},"federalState":{"key":"03","name":"Niedersachsen"}},{"name":"Dahlienweg","postalCode":"38547","locality":"Calberlah","municipality":{"key":"03151006","name":"Calberlah","type":"Kreisangehörige_Gemeinde"},"district":{"key":"03151","name":"Gifhorn","type":"Landkreis"},"federalState":{"key":"03","name":"Niedersachsen"}},{"name":"Damm","postalCode":"38547","locality":"Calberlah","municipality":{"key":"03151006","name":"Calberlah","type":"Kreisangehörige_Gemeinde"},"district":{"key":"03151","name":"Gifhorn","type":"Landkreis"},"federalState":{"key":"03","name":"Niedersachsen"}},{"name":"Danziger Str.","postalCode":"38547","locality":"Calberlah","municipality":{"key":"03151006","name":"Calberlah","type":"Kreisangehörige_Gemeinde"},"district":{"key":"03151","name":"Gifhorn","type":"Landkreis"},"federalState":{"key":"03","name":"Niedersachsen"}},{"name":"Dorfstr.","postalCode":"38547","locality":"Calberlah","municipality":{"key":"03151006","name":"Calberlah","type":"Kreisangehörige_Gemeinde"},"district":{"key":"03151","name":"Gifhorn","type":"Landkreis"},"federalState":{"key":"03","name":"Niedersachsen"}},{"name":"Drosselweg","postalCode":"38547","locality":"Calberlah","municipality":{"key":"03151006","name":"Calberlah","type":"Kreisangehörige_Gemeinde"},"district":{"key":"03151","name":"Gifhorn","type":"Landkreis"},"federalState":{"key":"03","name":"Niedersachsen"}},{"name":"Eichenweg","postalCode":"38547","locality":"Calberlah","municipality":{"key":"03151006","name":"Calberlah","type":"Kreisangehörige_Gemeinde"},"district":{"key":"03151","name":"Gifhorn","type":"Landkreis"},"federalState":{"key":"03","name":"Niedersachsen"}},{"name":"Fallerslebener Str.","postalCode":"38547","locality":"Calberlah","municipality":{"key":"03151006","name":"Calberlah","type":"Kreisangehörige_Gemeinde"},"district":{"key":"03151","name":"Gifhorn","type":"Landkreis"},"federalState":{"key":"03","name":"Niedersachsen"}},{"name":"Fichtenweg","postalCode":"38547","locality":"Calberlah","municipality":{"key":"03151006","name":"Calberlah","type":"Kreisangehörige_Gemeinde"},"district":{"key":"03151","name":"Gifhorn","type":"Landkreis"},"federalState":{"key":"03","name":"Niedersachsen"}},{"name":"Finkenweg","postalCode":"38547","locality":"Calberlah","municipality":{"key":"03151006","name":"Calberlah","type":"Kreisangehörige_Gemeinde"},"district":{"key":"03151","name":"Gifhorn","type":"Landkreis"},"federalState":{"key":"03","name":"Niedersachsen"}},{"name":"Forstlandring","postalCode":"38547","locality":"Calberlah","municipality":{"key":"03151006","name":"Calberlah","type":"Kreisangehörige_Gemeinde"},"district":{"key":"03151","name":"Gifhorn","type":"Landkreis"},"federalState":{"key":"03","name":"Niedersachsen"}},{"name":"Gartenweg","postalCode":"38547","locality":"Calberlah","municipality":{"key":"03151006","name":"Calberlah","type":"Kreisangehörige_Gemeinde"},"district":{"key":"03151","name":"Gifhorn","type":"Landkreis"},"federalState":{"key":"03","name":"Niedersachsen"}},{"name":"Ginsterweg","postalCode":"38547","locality":"Calberlah","municipality":{"key":"03151006","name":"Calberlah","type":"Kreisangehörige_Gemeinde"},"district":{"key":"03151","name":"Gifhorn","type":"Landkreis"},"federalState":{"key":"03","name":"Niedersachsen"}},{"name":"Gleiwitzer Str.","postalCode":"38547","locality":"Calberlah","municipality":{"key":"03151006","name":"Calberlah","type":"Kreisangehörige_Gemeinde"},"district":{"key":"03151","name":"Gifhorn","type":"Landkreis"},"federalState":{"key":"03","name":"Niedersachsen"}},{"name":"Goethestr.","postalCode":"38547","locality":"Calberlah","municipality":{"key":"03151006","name":"Calberlah","type":"Kreisangehörige_Gemeinde"},"district":{"key":"03151","name":"Gifhorn","type":"Landkreis"},"federalState":{"key":"03","name":"Niedersachsen"}},{"name":"Görlitzer Str.","postalCode":"38547","locality":"Calberlah","municipality":{"key":"03151006","name":"Calberlah","type":"Kreisangehörige_Gemeinde"},"district":{"key":"03151","name":"Gifhorn","type":"Landkreis"},"federalState":{"key":"03","name":"Niedersachsen"}},{"name":"Haagematten","postalCode":"38547","locality":"Calberlah","municipality":{"key":"03151006","name":"Calberlah","type":"Kreisangehörige_Gemeinde"},"district":{"key":"03151","name":"Gifhorn","type":"Landkreis"},"federalState":{"key":"03","name":"Niedersachsen"}},{"name":"Handwerkergasse","postalCode":"38547","locality":"Calberlah","municipality":{"key":"03151006","name":"Calberlah","type":"Kreisangehörige_Gemeinde"},"district":{"key":"03151","name":"Gifhorn","type":"Landkreis"},"federalState":{"key":"03","name":"Niedersachsen"}},{"name":"Hauptstr.","postalCode":"38547","locality":"Calberlah","municipality":{"key":"03151006","name":"Calberlah","type":"Kreisangehörige_Gemeinde"},"district":{"key":"03151","name":"Gifhorn","type":"Landkreis"},"federalState":{"key":"03","name":"Niedersachsen"}},{"name":"Haustenbecker Str.","postalCode":"38547","locality":"Calberlah","municipality":{"key":"03151006","name":"Calberlah","type":"Kreisangehörige_Gemeinde"},"district":{"key":"03151","name":"Gifhorn","type":"Landkreis"},"federalState":{"key":"03","name":"Niedersachsen"}},{"name":"Heideweg","postalCode":"38547","locality":"Calberlah","municipality":{"key":"03151006","name":"Calberlah","type":"Kreisangehörige_Gemeinde"},"district":{"key":"03151","name":"Gifhorn","type":"Landkreis"},"federalState":{"key":"03","name":"Niedersachsen"}},{"name":"Hinterm Burggraben","postalCode":"38547","locality":"Calberlah","municipality":{"key":"03151006","name":"Calberlah","type":"Kreisangehörige_Gemeinde"},"district":{"key":"03151","name":"Gifhorn","type":"Landkreis"},"federalState":{"key":"03","name":"Niedersachsen"}},{"name":"Höpenweg","postalCode":"38547","locality":"Calberlah","municipality":{"key":"03151006","name":"Calberlah","type":"Kreisangehörige_Gemeinde"},"district":{"key":"03151","name":"Gifhorn","type":"Landkreis"},"federalState":{"key":"03","name":"Niedersachsen"}},{"name":"Hopfengarten","postalCode":"38547","locality":"Calberlah","municipality":{"key":"03151006","name":"Calberlah","type":"Kreisangehörige_Gemeinde"},"district":{"key":"03151","name":"Gifhorn","type":"Landkreis"},"federalState":{"key":"03","name":"Niedersachsen"}},{"name":"Im Dorfe","postalCode":"38547","locality":"Calberlah","municipality":{"key":"03151006","name":"Calberlah","type":"Kreisangehörige_Gemeinde"},"district":{"key":"03151","name":"Gifhorn","type":"Landkreis"},"federalState":{"key":"03","name":"Niedersachsen"}},{"name":"Im Westerfeld","postalCode":"38547","locality":"Calberlah","municipality":{"key":"03151006","name":"Calberlah","type":"Kreisangehörige_Gemeinde"},"district":{"key":"03151","name":"Gifhorn","type":"Landkreis"},"federalState":{"key":"03","name":"Niedersachsen"}},{"name":"Im Winkel","postalCode":"38547","locality":"Calberlah","municipality":{"key":"03151006","name":"Calberlah","type":"Kreisangehörige_Gemeinde"},"district":{"key":"03151","name":"Gifhorn","type":"Landkreis"},"federalState":{"key":"03","name":"Niedersachsen"}},{"name":"Jelpker Kirchweg","postalCode":"38547","locality":"Calberlah","municipality":{"key":"03151006","name":"Calberlah","type":"Kreisangehörige_Gemeinde"},"district":{"key":"03151","name":"Gifhorn","type":"Landkreis"},"federalState":{"key":"03","name":"Niedersachsen"}},{"name":"Kiefernweg","postalCode":"38547","locality":"Calberlah","municipality":{"key":"03151006","name":"Calberlah","type":"Kreisangehörige_Gemeinde"},"district":{"key":"03151","name":"Gifhorn","type":"Landkreis"},"federalState":{"key":"03","name":"Niedersachsen"}},{"name":"Kirchstr.","postalCode":"38547","locality":"Calberlah","municipality":{"key":"03151006","name":"Calberlah","type":"Kreisangehörige_Gemeinde"},"district":{"key":"03151","name":"Gifhorn","type":"Landkreis"},"federalState":{"key":"03","name":"Niedersachsen"}},{"name":"Königsberger Str.","postalCode":"38547","locality":"Calberlah","municipality":{"key":"03151006","name":"Calberlah","type":"Kreisangehörige_Gemeinde"},"district":{"key":"03151","name":"Gifhorn","type":"Landkreis"},"federalState":{"key":"03","name":"Niedersachsen"}},{"name":"Kurze Str.","postalCode":"38547","locality":"Calberlah","municipality":{"key":"03151006","name":"Calberlah","type":"Kreisangehörige_Gemeinde"},"district":{"key":"03151","name":"Gifhorn","type":"Landkreis"},"federalState":{"key":"03","name":"Niedersachsen"}},{"name":"Lange Str.","postalCode":"38547","locality":"Calberlah","municipality":{"key":"03151006","name":"Calberlah","type":"Kreisangehörige_Gemeinde"},"district":{"key":"03151","name":"Gifhorn","type":"Landkreis"},"federalState":{"key":"03","name":"Niedersachsen"}},{"name":"Lärchenweg","postalCode":"38547","locality":"Calberlah","municipality":{"key":"03151006","name":"Calberlah","type":"Kreisangehörige_Gemeinde"},"district":{"key":"03151","name":"Gifhorn","type":"Landkreis"},"federalState":{"key":"03","name":"Niedersachsen"}},{"name":"Lindenstr.","postalCode":"38547","locality":"Calberlah","municipality":{"key":"03151006","name":"Calberlah","type":"Kreisangehörige_Gemeinde"},"district":{"key":"03151","name":"Gifhorn","type":"Landkreis"},"federalState":{"key":"03","name":"Niedersachsen"}},{"name":"Lönsweg","postalCode":"38547","locality":"Calberlah","municipality":{"key":"03151006","name":"Calberlah","type":"Kreisangehörige_Gemeinde"},"district":{"key":"03151","name":"Gifhorn","type":"Landkreis"},"federalState":{"key":"03","name":"Niedersachsen"}},{"name":"Mecklenburger Str.","postalCode":"38547","locality":"Calberlah","municipality":{"key":"03151006","name":"Calberlah","type":"Kreisangehörige_Gemeinde"},"district":{"key":"03151","name":"Gifhorn","type":"Landkreis"},"federalState":{"key":"03","name":"Niedersachsen"}},{"name":"Meisenweg","postalCode":"38547","locality":"Calberlah","municipality":{"key":"03151006","name":"Calberlah","type":"Kreisangehörige_Gemeinde"},"district":{"key":"03151","name":"Gifhorn","type":"Landkreis"},"federalState":{"key":"03","name":"Niedersachsen"}},{"name":"Mittelstr.","postalCode":"38547","locality":"Calberlah","municipality":{"key":"03151006","name":"Calberlah","type":"Kreisangehörige_Gemeinde"},"district":{"key":"03151","name":"Gifhorn","type":"Landkreis"},"federalState":{"key":"03","name":"Niedersachsen"}},{"name":"Molkereistr.","postalCode":"38547","locality":"Calberlah","municipality":{"key":"03151006","name":"Calberlah","type":"Kreisangehörige_Gemeinde"},"district":{"key":"03151","name":"Gifhorn","type":"Landkreis"},"federalState":{"key":"03","name":"Niedersachsen"}},{"name":"Mühlenstr.","postalCode":"38547","locality":"Calberlah","municipality":{"key":"03151006","name":"Calberlah","type":"Kreisangehörige_Gemeinde"},"district":{"key":"03151","name":"Gifhorn","type":"Landkreis"},"federalState":{"key":"03","name":"Niedersachsen"}},{"name":"Narzissenweg","postalCode":"38518","locality":"Gifhorn","municipality":{"key":"03151009","name":"Gifhorn, Stadt","type":"Stadt"},"district":{"key":"03151","name":"Gifhorn","type":"Landkreis"},"federalState":{"key":"03","name":"Niedersachsen"}},{"name":"Neidenburger Str.","postalCode":"38518","locality":"Gifhorn","municipality":{"key":"03151009","name":"Gifhorn, Stadt","type":"Stadt"},"district":{"key":"03151","name":"Gifhorn","type":"Landkreis"},"federalState":{"key":"03","name":"Niedersachsen"}},{"name":"Nelkenweg","postalCode":"38518","locality":"Gifhorn","municipality":{"key":"03151009","name":"Gifhorn, Stadt","type":"Stadt"},"district":{"key":"03151","name":"Gifhorn","type":"Landkreis"},"federalState":{"key":"03","name":"Niedersachsen"}},{"name":"Neubokeler Str.","postalCode":"38518","locality":"Gifhorn","municipality":{"key":"03151009","name":"Gifhorn, Stadt","type":"Stadt"},"district":{"key":"03151","name":"Gifhorn","type":"Landkreis"},"federalState":{"key":"03","name":"Niedersachsen"}},{"name":"Neue Str.","postalCode":"38518","locality":"Gifhorn","municipality":{"key":"03151009","name":"Gifhorn, Stadt","type":"Stadt"},"district":{"key":"03151","name":"Gifhorn","type":"Landkreis"},"federalState":{"key":"03","name":"Niedersachsen"}},{"name":"Neu Waldhof","postalCode":"38518","locality":"Gifhorn","municipality":{"key":"03151009","name":"Gifhorn, Stadt","type":"Stadt"},"district":{"key":"03151","name":"Gifhorn","type":"Landkreis"},"federalState":{"key":"03","name":"Niedersachsen"}},{"name":"Nordhoffstr.","postalCode":"38518","locality":"Gifhorn","municipality":{"key":"03151009","name":"Gifhorn, Stadt","type":"Stadt"},"district":{"key":"03151","name":"Gifhorn","type":"Landkreis"},"federalState":{"key":"03","name":"Niedersachsen"}},{"name":"Oldaustr.","postalCode":"38518","locality":"Gifhorn","municipality":{"key":"03151009","name":"Gifhorn, Stadt","type":"Stadt"},"district":{"key":"03151","name":"Gifhorn","type":"Landkreis"},"federalState":{"key":"03","name":"Niedersachsen"}},{"name":"Orchideenweg","postalCode":"38518","locality":"Gifhorn","municipality":{"key":"03151009","name":"Gifhorn, Stadt","type":"Stadt"},"district":{"key":"03151","name":"Gifhorn","type":"Landkreis"},"federalState":{"key":"03","name":"Niedersachsen"}},{"name":"Ortfeld","postalCode":"38518","locality":"Gifhorn","municipality":{"key":"03151009","name":"Gifhorn, Stadt","type":"Stadt"},"district":{"key":"03151","name":"Gifhorn","type":"Landkreis"},"federalState":{"key":"03","name":"Niedersachsen"}},{"name":"Osterberg","postalCode":"38518","locality":"Gifhorn","municipality":{"key":"03151009","name":"Gifhorn, Stadt","type":"Stadt"},"district":{"key":"03151","name":"Gifhorn","type":"Landkreis"},"federalState":{"key":"03","name":"Niedersachsen"}},{"name":"Osttangente","postalCode":"38518","locality":"Gifhorn","municipality":{"key":"03151009","name":"Gifhorn, Stadt","type":"Stadt"},"district":{"key":"03151","name":"Gifhorn","type":"Landkreis"},"federalState":{"key":"03","name":"Niedersachsen"}},{"name":"Otto-Heuer-Str.","postalCode":"38518","locality":"Gifhorn","municipality":{"key":"03151009","name":"Gifhorn, Stadt","type":"Stadt"},"district":{"key":"03151","name":"Gifhorn","type":"Landkreis"},"federalState":{"key":"03","name":"Niedersachsen"}},{"name":"Ottostr.","postalCode":"38518","locality":"Gifhorn","municipality":{"key":"03151009","name":"Gifhorn, Stadt","type":"Stadt"},"district":{"key":"03151","name":"Gifhorn","type":"Landkreis"},"federalState":{"key":"03","name":"Niedersachsen"}},{"name":"Posener Str.","postalCode":"38547","locality":"Calberlah","municipality":{"key":"03151006","name":"Calberlah","type":"Kreisangehörige_Gemeinde"},"district":{"key":"03151","name":"Gifhorn","type":"Landkreis"},"federalState":{"key":"03","name":"Niedersachsen"}},{"name":"Querkamp","postalCode":"38518","locality":"Gifhorn","municipality":{"key":"03151009","name":"Gifhorn, Stadt","type":"Stadt"},"district":{"key":"03151","name":"Gifhorn","type":"Landkreis"},"federalState":{"key":"03","name":"Niedersachsen"}},{"name":"Querweg","postalCode":"38518","locality":"Gifhorn","municipality":{"key":"03151009","name":"Gifhorn, Stadt","type":"Stadt"},"district":{"key":"03151","name":"Gifhorn","type":"Landkreis"},"federalState":{"key":"03","name":"Niedersachsen"}},{"name":"Ringstr.","postalCode":"38547","locality":"Calberlah","municipality":{"key":"03151006","name":"Calberlah","type":"Kreisangehörige_Gemeinde"},"district":{"key":"03151","name":"Gifhorn","type":"Landkreis"},"federalState":{"key":"03","name":"Niedersachsen"}},{"name":"Rosenweg","postalCode":"38547","locality":"Calberlah","municipality":{"key":"03151006","name":"Calberlah","type":"Kreisangehörige_Gemeinde"},"district":{"key":"03151","name":"Gifhorn","type":"Landkreis"},"federalState":{"key":"03","name":"Niedersachsen"}},{"name":"Sachsenweg","postalCode":"38547","locality":"Calberlah","municipality":{"key":"03151006","name":"Calberlah","type":"Kreisangehörige_Gemeinde"},"district":{"key":"03151","name":"Gifhorn","type":"Landkreis"},"federalState":{"key":"03","name":"Niedersachsen"}},{"name":"Sandstr.","postalCode":"38547","locality":"Calberlah","municipality":{"key":"03151006","name":"Calberlah","type":"Kreisangehörige_Gemeinde"},"district":{"key":"03151","name":"Gifhorn","type":"Landkreis"},"federalState":{"key":"03","name":"Niedersachsen"}},{"name":"Schaperkamp","postalCode":"38547","locality":"Calberlah","municipality":{"key":"03151006","name":"Calberlah","type":"Kreisangehörige_Gemeinde"},"district":{"key":"03151","name":"Gifhorn","type":"Landkreis"},"federalState":{"key":"03","name":"Niedersachsen"}},{"name":"Schlehenweg","postalCode":"38547","locality":"Calberlah","municipality":{"key":"03151006","name":"Calberlah","type":"Kreisangehörige_Gemeinde"},"district":{"key":"03151","name":"Gifhorn","type":"Landkreis"},"federalState":{"key":"03","name":"Niedersachsen"}},{"name":"Schulstr.","postalCode":"38547","locality":"Calberlah","municipality":{"key":"03151006","name":"Calberlah","type":"Kreisangehörige_Gemeinde"},"district":{"key":"03151","name":"Gifhorn","type":"Landkreis"},"federalState":{"key":"03","name":"Niedersachsen"}},{"name":"Schusterskamp","postalCode":"38547","locality":"Calberlah","municipality":{"key":"03151006","name":"Calberlah","type":"Kreisangehörige_Gemeinde"},"district":{"key":"03151","name":"Gifhorn","type":"Landkreis"},"federalState":{"key":"03","name":"Niedersachsen"}},{"name":"Stettiner Str.","postalCode":"38547","locality":"Calberlah","municipality":{"key":"03151006","name":"Calberlah","type":"Kreisangehörige_Gemeinde"},"district":{"key":"03151","name":"Gifhorn","type":"Landkreis"},"federalState":{"key":"03","name":"Niedersachsen"}},{"name":"Sülfelder Str.","postalCode":"38547","locality":"Calberlah","municipality":{"key":"03151006","name":"Calberlah","type":"Kreisangehörige_Gemeinde"},"district":{"key":"03151","name":"Gifhorn","type":"Landkreis"},"federalState":{"key":"03","name":"Niedersachsen"}},{"name":"Teichdamm","postalCode":"38547","locality":"Calberlah","municipality":{"key":"03151006","name":"Calberlah","type":"Kreisangehörige_Gemeinde"},"district":{"key":"03151","name":"Gifhorn","type":"Landkreis"},"federalState":{"key":"03","name":"Niedersachsen"}},{"name":"Tulpenweg","postalCode":"38547","locality":"Calberlah","municipality":{"key":"03151006","name":"Calberlah","type":"Kreisangehörige_Gemeinde"},"district":{"key":"03151","name":"Gifhorn","type":"Landkreis"},"federalState":{"key":"03","name":"Niedersachsen"}},{"name":"Uhlandweg","postalCode":"38518","locality":"Gifhorn","municipality":{"key":"03151009","name":"Gifhorn, Stadt","type":"Stadt"},"district":{"key":"03151","name":"Gifhorn","type":"Landkreis"},"federalState":{"key":"03","name":"Niedersachsen"}},{"name":"Uhlenhorst","postalCode":"38518","locality":"Gifhorn","municipality":{"key":"03151009","name":"Gifhorn, Stadt","type":"Stadt"},"district":{"key":"03151","name":"Gifhorn","type":"Landkreis"},"federalState":{"key":"03","name":"Niedersachsen"}},{"name":"Ummersche Heerstr.","postalCode":"38518","locality":"Gifhorn","municipality":{"key":"03151009","name":"Gifhorn, Stadt","type":"Stadt"},"district":{"key":"03151","name":"Gifhorn","type":"Landkreis"},"federalState":{"key":"03","name":"Niedersachsen"}},{"name":"Veilchenweg","postalCode":"38518","locality":"Gifhorn","municipality":{"key":"03151009","name":"Gifhorn, Stadt","type":"Stadt"},"district":{"key":"03151","name":"Gifhorn","type":"Landkreis"},"federalState":{"key":"03","name":"Niedersachsen"}},{"name":"Verbindungsweg 25028","postalCode":"38518","locality":"Gifhorn","municipality":{"key":"03151009","name":"Gifhorn, Stadt","type":"Stadt"},"district":{"key":"03151","name":"Gifhorn","type":"Landkreis"},"federalState":{"key":"03","name":"Niedersachsen"}},{"name":"Verbindungsweg 25033","postalCode":"38518","locality":"Gifhorn","municipality":{"key":"03151009","name":"Gifhorn, Stadt","type":"Stadt"},"district":{"key":"03151","name":"Gifhorn","type":"Landkreis"},"federalState":{"key":"03","name":"Niedersachsen"}},{"name":"Verbindungsweg 39005","postalCode":"38518","locality":"Gifhorn","municipality":{"key":"03151009","name":"Gifhorn, Stadt","type":"Stadt"},"district":{"key":"03151","name":"Gifhorn","type":"Landkreis"},"federalState":{"key":"03","name":"Niedersachsen"}},{"name":"Verbindungsweg 39010","postalCode":"38518","locality":"Gifhorn","municipality":{"key":"03151009","name":"Gifhorn, Stadt","type":"Stadt"},"district":{"key":"03151","name":"Gifhorn","type":"Landkreis"},"federalState":{"key":"03","name":"Niedersachsen"}},{"name":"Virchowstr.","postalCode":"38518","locality":"Gifhorn","municipality":{"key":"03151009","name":"Gifhorn, Stadt","type":"Stadt"},"district":{"key":"03151","name":"Gifhorn","type":"Landkreis"},"federalState":{"key":"03","name":"Niedersachsen"}},{"name":"Vogelbeerweg","postalCode":"38518","locality":"Gifhorn","municipality":{"key":"03151009","name":"Gifhorn, Stadt","type":"Stadt"},"district":{"key":"03151","name":"Gifhorn","type":"Landkreis"},"federalState":{"key":"03","name":"Niedersachsen"}},{"name":"Von-Basedow-Str.","postalCode":"38518","locality":"Gifhorn","municipality":{"key":"03151009","name":"Gifhorn, Stadt","type":"Stadt"},"district":{"key":"03151","name":"Gifhorn","type":"Landkreis"},"federalState":{"key":"03","name":"Niedersachsen"}},{"name":"Von-Behring-Str.","postalCode":"38518","locality":"Gifhorn","municipality":{"key":"03151009","name":"Gifhorn, Stadt","type":"Stadt"},"district":{"key":"03151","name":"Gifhorn","type":"Landkreis"},"federalState":{"key":"03","name":"Niedersachsen"}},{"name":"Von-Hammerstein-Weg","postalCode":"38518","locality":"Gifhorn","municipality":{"key":"03151009","name":"Gifhorn, Stadt","type":"Stadt"},"district":{"key":"03151","name":"Gifhorn","type":"Landkreis"},"federalState":{"key":"03","name":"Niedersachsen"}},{"name":"Von-Helmholtz-Str.","postalCode":"38518","locality":"Gifhorn","municipality":{"key":"03151009","name":"Gifhorn, Stadt","type":"Stadt"},"district":{"key":"03151","name":"Gifhorn","type":"Landkreis"},"federalState":{"key":"03","name":"Niedersachsen"}},{"name":"Von-Humboldt-Str.","postalCode":"38518","locality":"Gifhorn","municipality":{"key":"03151009","name":"Gifhorn, Stadt","type":"Stadt"},"district":{"key":"03151","name":"Gifhorn","type":"Landkreis"},"federalState":{"key":"03","name":"Niedersachsen"}},{"name":"Von-Zeppelin-Str.","postalCode":"38518","locality":"Gifhorn","municipality":{"key":"03151009","name":"Gifhorn, Stadt","type":"Stadt"},"district":{"key":"03151","name":"Gifhorn","type":"Landkreis"},"federalState":{"key":"03","name":"Niedersachsen"}},{"name":"Wacholderweg","postalCode":"38547","locality":"Calberlah","municipality":{"key":"03151006","name":"Calberlah","type":"Kreisangehörige_Gemeinde"},"district":{"key":"03151","name":"Gifhorn","type":"Landkreis"},"federalState":{"key":"03","name":"Niedersachsen"}},{"name":"Wasbütteler Str.","postalCode":"38547","locality":"Calberlah","municipality":{"key":"03151006","name":"Calberlah","type":"Kreisangehörige_Gemeinde"},"district":{"key":"03151","name":"Gifhorn","type":"Landkreis"},"federalState":{"key":"03","name":"Niedersachsen"}},{"name":"Wiesenhof","postalCode":"38547","locality":"Calberlah","municipality":{"key":"03151006","name":"Calberlah","type":"Kreisangehörige_Gemeinde"},"district":{"key":"03151","name":"Gifhorn","type":"Landkreis"},"federalState":{"key":"03","name":"Niedersachsen"}},{"name":"Windmühlenweg","postalCode":"38547","locality":"Calberlah","municipality":{"key":"03151006","name":"Calberlah","type":"Kreisangehörige_Gemeinde"},"district":{"key":"03151","name":"Gifhorn","type":"Landkreis"},"federalState":{"key":"03","name":"Niedersachsen"}},{"name":"Wischhop","postalCode":"38547","locality":"Calberlah","municipality":{"key":"03151006","name":"Calberlah","type":"Kreisangehörige_Gemeinde"},"district":{"key":"03151","name":"Gifhorn","type":"Landkreis"},"federalState":{"key":"03","name":"Niedersachsen"}},{"name":"Wohltsweg","postalCode":"38547","locality":"Calberlah","municipality":{"key":"03151006","name":"Calberlah","type":"Kreisangehörige_Gemeinde"},"district":{"key":"03151","name":"Gifhorn","type":"Landkreis"},"federalState":{"key":"03","name":"Niedersachsen"}},{"name":"Xanthistr.","postalCode":"38518","locality":"Gifhorn","municipality":{"key":"03151009","name":"Gifhorn, Stadt","type":"Stadt"},"district":{"key":"03151","name":"Gifhorn","type":"Landkreis"},"federalState":{"key":"03","name":"Niedersachsen"}},{"name":"Ziegeleiweg","postalCode":"38547","locality":"Calberlah","municipality":{"key":"03151006","name":"Calberlah","type":"Kreisangehörige_Gemeinde"},"district":{"key":"03151","name":"Gifhorn","type":"Landkreis"},"federalState":{"key":"03","name":"Niedersachsen"}},{"name":"Zu den Höfen","postalCode":"38547","locality":"Calberlah","municipality":{"key":"03151006","name":"Calberlah","type":"Kreisangehörige_Gemeinde"},"district":{"key":"03151","name":"Gifhorn","type":"Landkreis"},"federalState":{"key":"03","name":"Niedersachsen"}},{"name":"Zu den Tennisplätzen","postalCode":"38547","locality":"Calberlah","municipality":{"key":"03151006","name":"Calberlah","type":"Kreisangehörige_Gemeinde"},"district":{"key":"03151","name":"Gifhorn","type":"Landkreis"},"federalState":{"key":"03","name":"Niedersachsen"}},{"name":"Ährenweg","postalCode":"38518","locality":"Gifhorn","municipality":{"key":"03151009","name":"Gifhorn, Stadt","type":"Stadt"},"district":{"key":"03151","name":"Gifhorn","type":"Landkreis"},"federalState":{"key":"03","name":"Niedersachsen"}},]