[{"key":"10126361","name":"1. Gangstrasse","postalCode":"8717","locality":"Benken SG","commune":{"key":"3312","name":"Benken (SG)","shortName":"Benken (SG)"},"district":{"key":"1726","name":"Wahlkreis See-Gaster"},"canton":{"key":"17","code":"SG","name":"St. Gallen"},"status":"Real"},{"key":"10249919","name":"A3","postalCode":"8717","locality":"Benken SG","commune":{"key":"3312","name":"Benken (SG)","shortName":"Benken (SG)"},"district":{"key":"1726","name":"Wahlkreis See-Gaster"},"canton":{"key":"17","code":"SG","name":"St. Gallen"},"status":"Real"},{"key":"10249927","name":"A53","postalCode":"8717","locality":"Benken SG","commune":{"key":"3312","name":"Benken (SG)","shortName":"Benken (SG)"},"district":{"key":"1726","name":"Wahlkreis See-Gaster"},"canton":{"key":"17","code":"SG","name":"St. Gallen"},"status":"Real"},{"key":"10169326","name":"Altersheimstrasse","postalCode":"8717","locality":"Benken SG","commune":{"key":"3312","name":"Benken (SG)","shortName":"Benken (SG)"},"district":{"key":"1726","name":"Wahlkreis See-Gaster"},"canton":{"key":"17","code":"SG","name":"St. Gallen"},"status":"Real"},{"key":"10149353","name":"Aubachstrasse","postalCode":"8717","locality":"Benken SG","commune":{"key":"3312","name":"Benken (SG)","shortName":"Benken (SG)"},"district":{"key":"1726","name":"Wahlkreis See-Gaster"},"canton":{"key":"17","code":"SG","name":"St. Gallen"},"status":"Real"},{"key":"10234768","name":"Aubachwies","postalCode":"8717","locality":"Benken SG","commune":{"key":"3312","name":"Benken (SG)","shortName":"Benken (SG)"},"district":{"key":"1726","name":"Wahlkreis See-Gaster"},"canton":{"key":"17","code":"SG","name":"St. Gallen"},"status":"Real"},{"key":"10234772","name":"Aubodenstrasse","postalCode":"8717","locality":"Benken SG","commune":{"key":"3312","name":"Benken (SG)","shortName":"Benken (SG)"},"district":{"key":"1726","name":"Wahlkreis See-Gaster"},"canton":{"key":"17","code":"SG","name":"St. Gallen"},"status":"Real"},{"key":"10234780","name":"Ausserwaldstrasse","postalCode":"8717","locality":"Benken SG","commune":{"key":"3312","name":"Benken (SG)","shortName":"Benken (SG)"},"district":{"key":"1726","name":"Wahlkreis See-Gaster"},"canton":{"key":"17","code":"SG","name":"St. Gallen"},"status":"Real"},{"key":"10199219","name":"Bachkesselstrasse","postalCode":"8717","locality":"Benken SG","commune":{"key":"3312","name":"Benken (SG)","shortName":"Benken (SG)"},"district":{"key":"1726","name":"Wahlkreis See-Gaster"},"canton":{"key":"17","code":"SG","name":"St. Gallen"},"status":"Real"},{"key":"10234788","name":"Bachkesselwiesstrasse","postalCode":"8717","locality":"Benken SG","commune":{"key":"3312","name":"Benken (SG)","shortName":"Benken (SG)"},"district":{"key":"1726","name":"Wahlkreis See-Gaster"},"canton":{"key":"17","code":"SG","name":"St. Gallen"},"status":"Real"},{"key":"10087906","name":"Bachtalstrasse","postalCode":"8717","locality":"Benken SG","commune":{"key":"3312","name":"Benken (SG)","shortName":"Benken (SG)"},"district":{"key":"1726","name":"Wahlkreis See-Gaster"},"canton":{"key":"17","code":"SG","name":"St. Gallen"},"status":"Real"},{"key":"10234792","name":"Bachtalweg","postalCode":"8717","locality":"Benken SG","commune":{"key":"3312","name":"Benken (SG)","shortName":"Benken (SG)"},"district":{"key":"1726","name":"Wahlkreis See-Gaster"},"canton":{"key":"17","code":"SG","name":"St. Gallen"},"status":"Real"},{"key":"10234796","name":"Bachtelweg","postalCode":"8717","locality":"Benken SG","commune":{"key":"3312","name":"Benken (SG)","shortName":"Benken (SG)"},"district":{"key":"1726","name":"Wahlkreis See-Gaster"},"canton":{"key":"17","code":"SG","name":"St. Gallen"},"status":"Real"},{"key":"10075806","name":"Bahnhofstrasse","postalCode":"8717","locality":"Benken SG","commune":{"key":"3312","name":"Benken (SG)","shortName":"Benken (SG)"},"district":{"key":"1726","name":"Wahlkreis See-Gaster"},"canton":{"key":"17","code":"SG","name":"St. Gallen"},"status":"Real"},{"key":"10234800","name":"Bahnstrasse","postalCode":"8717","locality":"Benken SG","commune":{"key":"3312","name":"Benken (SG)","shortName":"Benken (SG)"},"district":{"key":"1726","name":"Wahlkreis See-Gaster"},"canton":{"key":"17","code":"SG","name":"St. Gallen"},"status":"Real"},{"key":"10234804","name":"Bärwies","postalCode":"8717","locality":"Benken SG","commune":{"key":"3312","name":"Benken (SG)","shortName":"Benken (SG)"},"district":{"key":"1726","name":"Wahlkreis See-Gaster"},"canton":{"key":"17","code":"SG","name":"St. Gallen"},"status":"Real"},{"key":"10145331","name":"Bärwiesstrasse","postalCode":"8717","locality":"Benken SG","commune":{"key":"3312","name":"Benken (SG)","shortName":"Benken (SG)"},"district":{"key":"1726","name":"Wahlkreis See-Gaster"},"canton":{"key":"17","code":"SG","name":"St. Gallen"},"status":"Real"},{"key":"10030387","name":"Bildsteinstrasse","postalCode":"8717","locality":"Benken SG","commune":{"key":"3312","name":"Benken (SG)","shortName":"Benken (SG)"},"district":{"key":"1726","name":"Wahlkreis See-Gaster"},"canton":{"key":"17","code":"SG","name":"St. Gallen"},"status":"Real"},{"key":"10234808","name":"Blatten","postalCode":"8717","locality":"Benken SG","commune":{"key":"3312","name":"Benken (SG)","shortName":"Benken (SG)"},"district":{"key":"1726","name":"Wahlkreis See-Gaster"},"canton":{"key":"17","code":"SG","name":"St. Gallen"},"status":"Real"},{"key":"10030388","name":"Blattenstrasse","postalCode":"8717","locality":"Benken SG","commune":{"key":"3312","name":"Benken (SG)","shortName":"Benken (SG)"},"district":{"key":"1726","name":"Wahlkreis See-Gaster"},"canton":{"key":"17","code":"SG","name":"St. Gallen"},"status":"Real"},{"key":"10167728","name":"Bluemhalden","postalCode":"8717","locality":"Benken SG","commune":{"key":"3312","name":"Benken (SG)","shortName":"Benken (SG)"},"district":{"key":"1726","name":"Wahlkreis See-Gaster"},"canton":{"key":"17","code":"SG","name":"St. Gallen"},"status":"Real"},{"key":"10234812","name":"Bluemhaldenweg","postalCode":"8717","locality":"Benken SG","commune":{"key":"3312","name":"Benken (SG)","shortName":"Benken (SG)"},"district":{"key":"1726","name":"Wahlkreis See-Gaster"},"canton":{"key":"17","code":"SG","name":"St. Gallen"},"status":"Real"},{"key":"10075807","name":"Brand","postalCode":"8717","locality":"Benken SG","commune":{"key":"3312","name":"Benken (SG)","shortName":"Benken (SG)"},"district":{"key":"1726","name":"Wahlkreis See-Gaster"},"canton":{"key":"17","code":"SG","name":"St. Gallen"},"status":"Real"},{"key":"10234816","name":"Brandweg","postalCode":"8717","locality":"Benken SG","commune":{"key":"3312","name":"Benken (SG)","shortName":"Benken (SG)"},"district":{"key":"1726","name":"Wahlkreis See-Gaster"},"canton":{"key":"17","code":"SG","name":"St. Gallen"},"status":"Real"},{"key":"10030389","name":"Breitenstrasse","postalCode":"8717","locality":"Benken SG","commune":{"key":"3312","name":"Benken (SG)","shortName":"Benken (SG)"},"district":{"key":"1726","name":"Wahlkreis See-Gaster"},"canton":{"key":"17","code":"SG","name":"St. Gallen"},"status":"Real"},{"key":"10106052","name":"Buchberg","postalCode":"8717","locality":"Benken SG","commune":{"key":"3312","name":"Benken (SG)","shortName":"Benken (SG)"},"district":{"key":"1726","name":"Wahlkreis See-Gaster"},"canton":{"key":"17","code":"SG","name":"St. Gallen"},"status":"Real"},{"key":"10030390","name":"Büchelstrasse","postalCode":"8717","locality":"Benken SG","commune":{"key":"3312","name":"Benken (SG)","shortName":"Benken (SG)"},"district":{"key":"1726","name":"Wahlkreis See-Gaster"},"canton":{"key":"17","code":"SG","name":"St. Gallen"},"status":"Real"},{"key":"10234820","name":"Buechbergweg","postalCode":"8717","locality":"Benken SG","commune":{"key":"3312","name":"Benken (SG)","shortName":"Benken (SG)"},"district":{"key":"1726","name":"Wahlkreis See-Gaster"},"canton":{"key":"17","code":"SG","name":"St. Gallen"},"status":"Real"},{"key":"10167729","name":"Buechenriet","postalCode":"8717","locality":"Benken SG","commune":{"key":"3312","name":"Benken (SG)","shortName":"Benken (SG)"},"district":{"key":"1726","name":"Wahlkreis See-Gaster"},"canton":{"key":"17","code":"SG","name":"St. Gallen"},"status":"Real"},{"key":"10167730","name":"Buechenstrasse","postalCode":"8717","locality":"Benken SG","commune":{"key":"3312","name":"Benken (SG)","shortName":"Benken (SG)"},"district":{"key":"1726","name":"Wahlkreis See-Gaster"},"canton":{"key":"17","code":"SG","name":"St. Gallen"},"status":"Real"},{"key":"10126086","name":"Büel","postalCode":"8717","locality":"Benken SG","commune":{"key":"3312","name":"Benken (SG)","shortName":"Benken (SG)"},"district":{"key":"1726","name":"Wahlkreis See-Gaster"},"canton":{"key":"17","code":"SG","name":"St. Gallen"},"status":"Real"},{"key":"10234824","name":"Büelweg","postalCode":"8717","locality":"Benken SG","commune":{"key":"3312","name":"Benken (SG)","shortName":"Benken (SG)"},"district":{"key":"1726","name":"Wahlkreis See-Gaster"},"canton":{"key":"17","code":"SG","name":"St. Gallen"},"status":"Real"},{"key":"10075808","name":"Buggrütistrasse","postalCode":"8717","locality":"Benken SG","commune":{"key":"3312","name":"Benken (SG)","shortName":"Benken (SG)"},"district":{"key":"1726","name":"Wahlkreis See-Gaster"},"canton":{"key":"17","code":"SG","name":"St. Gallen"},"status":"Real"},{"key":"10234828","name":"Buggrütiweg","postalCode":"8717","locality":"Benken SG","commune":{"key":"3312","name":"Benken (SG)","shortName":"Benken (SG)"},"district":{"key":"1726","name":"Wahlkreis See-Gaster"},"canton":{"key":"17","code":"SG","name":"St. Gallen"},"status":"Real"},{"key":"10142269","name":"Büsserhof","postalCode":"8717","locality":"Benken SG","commune":{"key":"3312","name":"Benken (SG)","shortName":"Benken (SG)"},"district":{"key":"1726","name":"Wahlkreis See-Gaster"},"canton":{"key":"17","code":"SG","name":"St. Gallen"},"status":"Real"},{"key":"10225043","name":"Dammweg","postalCode":"8717","locality":"Benken SG","commune":{"key":"3312","name":"Benken (SG)","shortName":"Benken (SG)"},"district":{"key":"1726","name":"Wahlkreis See-Gaster"},"canton":{"key":"17","code":"SG","name":"St. Gallen"},"status":"Real"},{"key":"10167731","name":"Doggenhof","postalCode":"8717","locality":"Benken SG","commune":{"key":"3312","name":"Benken (SG)","shortName":"Benken (SG)"},"district":{"key":"1726","name":"Wahlkreis See-Gaster"},"canton":{"key":"17","code":"SG","name":"St. Gallen"},"status":"Real"},{"key":"10181143","name":"Doggenstrasse","postalCode":"8717","locality":"Benken SG","commune":{"key":"3312","name":"Benken (SG)","shortName":"Benken (SG)"},"district":{"key":"1726","name":"Wahlkreis See-Gaster"},"canton":{"key":"17","code":"SG","name":"St. Gallen"},"status":"Real"},{"key":"10234832","name":"Dorfbrunnenweg","postalCode":"8717","locality":"Benken SG","commune":{"key":"3312","name":"Benken (SG)","shortName":"Benken (SG)"},"district":{"key":"1726","name":"Wahlkreis See-Gaster"},"canton":{"key":"17","code":"SG","name":"St. Gallen"},"status":"Real"},{"key":"10030391","name":"Dorfstrasse","postalCode":"8717","locality":"Benken SG","commune":{"key":"3312","name":"Benken (SG)","shortName":"Benken (SG)"},"district":{"key":"1726","name":"Wahlkreis See-Gaster"},"canton":{"key":"17","code":"SG","name":"St. Gallen"},"status":"Real"},{"key":"10234836","name":"Eichenwieskanalstrasse","postalCode":"8717","locality":"Benken SG","commune":{"key":"3312","name":"Benken (SG)","shortName":"Benken (SG)"},"district":{"key":"1726","name":"Wahlkreis See-Gaster"},"canton":{"key":"17","code":"SG","name":"St. Gallen"},"status":"Real"},{"key":"10102491","name":"Eisenbahnstrasse","postalCode":"8717","locality":"Benken SG","commune":{"key":"3312","name":"Benken (SG)","shortName":"Benken (SG)"},"district":{"key":"1726","name":"Wahlkreis See-Gaster"},"canton":{"key":"17","code":"SG","name":"St. Gallen"},"status":"Real"},{"key":"10030392","name":"Ellbogen","postalCode":"8717","locality":"Benken SG","commune":{"key":"3312","name":"Benken (SG)","shortName":"Benken (SG)"},"district":{"key":"1726","name":"Wahlkreis See-Gaster"},"canton":{"key":"17","code":"SG","name":"St. Gallen"},"status":"Real"},{"key":"10197075","name":"Embrustrasse","postalCode":"8717","locality":"Benken SG","commune":{"key":"3312","name":"Benken (SG)","shortName":"Benken (SG)"},"district":{"key":"1726","name":"Wahlkreis See-Gaster"},"canton":{"key":"17","code":"SG","name":"St. Gallen"},"status":"Real"},{"key":"10234840","name":"Erlenstrasse","postalCode":"8717","locality":"Benken SG","commune":{"key":"3312","name":"Benken (SG)","shortName":"Benken (SG)"},"district":{"key":"1726","name":"Wahlkreis See-Gaster"},"canton":{"key":"17","code":"SG","name":"St. Gallen"},"status":"Real"},{"key":"10123053","name":"Escherheim","postalCode":"8717","locality":"Benken SG","commune":{"key":"3312","name":"Benken (SG)","shortName":"Benken (SG)"},"district":{"key":"1726","name":"Wahlkreis See-Gaster"},"canton":{"key":"17","code":"SG","name":"St. Gallen"},"status":"Real"},{"key":"10171194","name":"Etzelstrasse","postalCode":"8717","locality":"Benken SG","commune":{"key":"3312","name":"Benken (SG)","shortName":"Benken (SG)"},"district":{"key":"1726","name":"Wahlkreis See-Gaster"},"canton":{"key":"17","code":"SG","name":"St. Gallen"},"status":"Real"},{"key":"10234844","name":"Fahrwiesstrasse","postalCode":"8717","locality":"Benken SG","commune":{"key":"3312","name":"Benken (SG)","shortName":"Benken (SG)"},"district":{"key":"1726","name":"Wahlkreis See-Gaster"},"canton":{"key":"17","code":"SG","name":"St. Gallen"},"status":"Real"},{"key":"10234472","name":"Felderzaunweg","postalCode":"8717","locality":"Benken SG","commune":{"key":"3312","name":"Benken (SG)","shortName":"Benken (SG)"},"district":{"key":"1726","name":"Wahlkreis See-Gaster"},"canton":{"key":"17","code":"SG","name":"St. Gallen"},"status":"Real"},{"key":"10234476","name":"Fischbach","postalCode":"8717","locality":"Benken SG","commune":{"key":"3312","name":"Benken (SG)","shortName":"Benken (SG)"},"district":{"key":"1726","name":"Wahlkreis See-Gaster"},"canton":{"key":"17","code":"SG","name":"St. Gallen"},"status":"Real"},{"key":"10114562","name":"Fischbachstrasse","postalCode":"8717","locality":"Benken SG","commune":{"key":"3312","name":"Benken (SG)","shortName":"Benken (SG)"},"district":{"key":"1726","name":"Wahlkreis See-Gaster"},"canton":{"key":"17","code":"SG","name":"St. Gallen"},"status":"Real"},{"key":"10234480","name":"Fischbachweg","postalCode":"8717","locality":"Benken SG","commune":{"key":"3312","name":"Benken (SG)","shortName":"Benken (SG)"},"district":{"key":"1726","name":"Wahlkreis See-Gaster"},"canton":{"key":"17","code":"SG","name":"St. Gallen"},"status":"Real"},{"key":"10234484","name":"Fischbachwiesweg","postalCode":"8717","locality":"Benken SG","commune":{"key":"3312","name":"Benken (SG)","shortName":"Benken (SG)"},"district":{"key":"1726","name":"Wahlkreis See-Gaster"},"canton":{"key":"17","code":"SG","name":"St. Gallen"},"status":"Real"},{"key":"10234488","name":"Friedgrabenstrasse","postalCode":"8717","locality":"Benken SG","commune":{"key":"3312","name":"Benken (SG)","shortName":"Benken (SG)"},"district":{"key":"1726","name":"Wahlkreis See-Gaster"},"canton":{"key":"17","code":"SG","name":"St. Gallen"},"status":"Real"},{"key":"10117159","name":"Frohe Aussicht","postalCode":"8717","locality":"Benken SG","commune":{"key":"3312","name":"Benken (SG)","shortName":"Benken (SG)"},"district":{"key":"1726","name":"Wahlkreis See-Gaster"},"canton":{"key":"17","code":"SG","name":"St. Gallen"},"status":"Real"},{"key":"10234492","name":"Gasterwies","postalCode":"8717","locality":"Benken SG","commune":{"key":"3312","name":"Benken (SG)","shortName":"Benken (SG)"},"district":{"key":"1726","name":"Wahlkreis See-Gaster"},"canton":{"key":"17","code":"SG","name":"St. Gallen"},"status":"Real"},{"key":"10226619","name":"Gasterwiesstrasse","postalCode":"8717","locality":"Benken SG","commune":{"key":"3312","name":"Benken (SG)","shortName":"Benken (SG)"},"district":{"key":"1726","name":"Wahlkreis See-Gaster"},"canton":{"key":"17","code":"SG","name":"St. Gallen"},"status":"Real"},{"key":"10075809","name":"Gehrenstrasse","postalCode":"8717","locality":"Benken SG","commune":{"key":"3312","name":"Benken (SG)","shortName":"Benken (SG)"},"district":{"key":"1726","name":"Wahlkreis See-Gaster"},"canton":{"key":"17","code":"SG","name":"St. Gallen"},"status":"Real"},{"key":"10030394","name":"Giessenstrasse","postalCode":"8717","locality":"Benken SG","commune":{"key":"3312","name":"Benken (SG)","shortName":"Benken (SG)"},"district":{"key":"1726","name":"Wahlkreis See-Gaster"},"canton":{"key":"17","code":"SG","name":"St. Gallen"},"status":"Real"},{"key":"10030396","name":"Göggeli","postalCode":"8717","locality":"Benken SG","commune":{"key":"3312","name":"Benken (SG)","shortName":"Benken (SG)"},"district":{"key":"1726","name":"Wahlkreis See-Gaster"},"canton":{"key":"17","code":"SG","name":"St. Gallen"},"status":"Real"},{"key":"10171195","name":"Goggi","postalCode":"8717","locality":"Benken SG","commune":{"key":"3312","name":"Benken (SG)","shortName":"Benken (SG)"},"district":{"key":"1726","name":"Wahlkreis See-Gaster"},"canton":{"key":"17","code":"SG","name":"St. Gallen"},"status":"Real"},{"key":"10226623","name":"Grebelstrasse","postalCode":"8717","locality":"Benken SG","commune":{"key":"3312","name":"Benken (SG)","shortName":"Benken (SG)"},"district":{"key":"1726","name":"Wahlkreis See-Gaster"},"canton":{"key":"17","code":"SG","name":"St. Gallen"},"status":"Real"},{"key":"10186628","name":"Grossbuechen","postalCode":"8717","locality":"Benken SG","commune":{"key":"3312","name":"Benken (SG)","shortName":"Benken (SG)"},"district":{"key":"1726","name":"Wahlkreis See-Gaster"},"canton":{"key":"17","code":"SG","name":"St. Gallen"},"status":"Real"},{"key":"10087908","name":"Grossgiessen","postalCode":"8717","locality":"Benken SG","commune":{"key":"3312","name":"Benken (SG)","shortName":"Benken (SG)"},"district":{"key":"1726","name":"Wahlkreis See-Gaster"},"canton":{"key":"17","code":"SG","name":"St. Gallen"},"status":"Real"},{"key":"10226627","name":"Grottenweg","postalCode":"8717","locality":"Benken SG","commune":{"key":"3312","name":"Benken (SG)","shortName":"Benken (SG)"},"district":{"key":"1726","name":"Wahlkreis See-Gaster"},"canton":{"key":"17","code":"SG","name":"St. Gallen"},"status":"Real"},{"key":"10226631","name":"Grubweg","postalCode":"8717","locality":"Benken SG","commune":{"key":"3312","name":"Benken (SG)","shortName":"Benken (SG)"},"district":{"key":"1726","name":"Wahlkreis See-Gaster"},"canton":{"key":"17","code":"SG","name":"St. Gallen"},"status":"Real"},{"key":"10230125","name":"Gruebweg","postalCode":"8717","locality":"Benken SG","commune":{"key":"3312","name":"Benken (SG)","shortName":"Benken (SG)"},"district":{"key":"1726","name":"Wahlkreis See-Gaster"},"canton":{"key":"17","code":"SG","name":"St. Gallen"},"status":"Real"},{"key":"10230129","name":"Grüeningen","postalCode":"8717","locality":"Benken SG","commune":{"key":"3312","name":"Benken (SG)","shortName":"Benken (SG)"},"district":{"key":"1726","name":"Wahlkreis See-Gaster"},"canton":{"key":"17","code":"SG","name":"St. Gallen"},"status":"Real"},{"key":"10126999","name":"Grünaustrasse","postalCode":"8717","locality":"Benken SG","commune":{"key":"3312","name":"Benken (SG)","shortName":"Benken (SG)"},"district":{"key":"1726","name":"Wahlkreis See-Gaster"},"canton":{"key":"17","code":"SG","name":"St. Gallen"},"status":"Real"},{"key":"10230132","name":"Grünauweg","postalCode":"8717","locality":"Benken SG","commune":{"key":"3312","name":"Benken (SG)","shortName":"Benken (SG)"},"district":{"key":"1726","name":"Wahlkreis See-Gaster"},"canton":{"key":"17","code":"SG","name":"St. Gallen"},"status":"Real"},{"key":"10030395","name":"Grüttstrasse","postalCode":"8717","locality":"Benken SG","commune":{"key":"3312","name":"Benken (SG)","shortName":"Benken (SG)"},"district":{"key":"1726","name":"Wahlkreis See-Gaster"},"canton":{"key":"17","code":"SG","name":"St. Gallen"},"status":"Real"},{"key":"10250696","name":"Grynaustrasse","postalCode":"8717","locality":"Benken SG","commune":{"key":"3312","name":"Benken (SG)","shortName":"Benken (SG)"},"district":{"key":"1726","name":"Wahlkreis See-Gaster"},"canton":{"key":"17","code":"SG","name":"St. Gallen"},"status":"Real"},{"key":"10075810","name":"Gsässstrasse","postalCode":"8717","locality":"Benken SG","commune":{"key":"3312","name":"Benken (SG)","shortName":"Benken (SG)"},"district":{"key":"1726","name":"Wahlkreis See-Gaster"},"canton":{"key":"17","code":"SG","name":"St. Gallen"},"status":"Real"},{"key":"10230136","name":"Guntliriet","postalCode":"8717","locality":"Benken SG","commune":{"key":"3312","name":"Benken (SG)","shortName":"Benken (SG)"},"district":{"key":"1726","name":"Wahlkreis See-Gaster"},"canton":{"key":"17","code":"SG","name":"St. Gallen"},"status":"Real"},{"key":"10187920","name":"Gunzlen","postalCode":"8717","locality":"Benken SG","commune":{"key":"3312","name":"Benken (SG)","shortName":"Benken (SG)"},"district":{"key":"1726","name":"Wahlkreis See-Gaster"},"canton":{"key":"17","code":"SG","name":"St. Gallen"},"status":"Real"},{"key":"10087909","name":"Haldenstrasse","postalCode":"8717","locality":"Benken SG","commune":{"key":"3312","name":"Benken (SG)","shortName":"Benken (SG)"},"district":{"key":"1726","name":"Wahlkreis See-Gaster"},"canton":{"key":"17","code":"SG","name":"St. Gallen"},"status":"Real"},{"key":"10230140","name":"Haldenweg","postalCode":"8717","locality":"Benken SG","commune":{"key":"3312","name":"Benken (SG)","shortName":"Benken (SG)"},"district":{"key":"1726","name":"Wahlkreis See-Gaster"},"canton":{"key":"17","code":"SG","name":"St. Gallen"},"status":"Real"},{"key":"10230144","name":"Hanfmettlen","postalCode":"8717","locality":"Benken SG","commune":{"key":"3312","name":"Benken (SG)","shortName":"Benken (SG)"},"district":{"key":"1726","name":"Wahlkreis See-Gaster"},"canton":{"key":"17","code":"SG","name":"St. Gallen"},"status":"Real"},{"key":"10171196","name":"Hans Bernhardhof","postalCode":"8717","locality":"Benken SG","commune":{"key":"3312","name":"Benken (SG)","shortName":"Benken (SG)"},"district":{"key":"1726","name":"Wahlkreis See-Gaster"},"canton":{"key":"17","code":"SG","name":"St. Gallen"},"status":"Real"},{"key":"10030398","name":"Häseli","postalCode":"8717","locality":"Benken SG","commune":{"key":"3312","name":"Benken (SG)","shortName":"Benken (SG)"},"district":{"key":"1726","name":"Wahlkreis See-Gaster"},"canton":{"key":"17","code":"SG","name":"St. Gallen"},"status":"Real"},{"key":"10171197","name":"Haslen","postalCode":"8717","locality":"Benken SG","commune":{"key":"3312","name":"Benken (SG)","shortName":"Benken (SG)"},"district":{"key":"1726","name":"Wahlkreis See-Gaster"},"canton":{"key":"17","code":"SG","name":"St. Gallen"},"status":"Real"},{"key":"10230798","name":"Haslenwald","postalCode":"8717","locality":"Benken SG","commune":{"key":"3312","name":"Benken (SG)","shortName":"Benken (SG)"},"district":{"key":"1726","name":"Wahlkreis See-Gaster"},"canton":{"key":"17","code":"SG","name":"St. Gallen"},"status":"Real"},{"key":"10230802","name":"Haslenwaldstrasse","postalCode":"8717","locality":"Benken SG","commune":{"key":"3312","name":"Benken (SG)","shortName":"Benken (SG)"},"district":{"key":"1726","name":"Wahlkreis See-Gaster"},"canton":{"key":"17","code":"SG","name":"St. Gallen"},"status":"Real"},{"key":"10051434","name":"Heizi","postalCode":"8717","locality":"Benken SG","commune":{"key":"3312","name":"Benken (SG)","shortName":"Benken (SG)"},"district":{"key":"1726","name":"Wahlkreis See-Gaster"},"canton":{"key":"17","code":"SG","name":"St. Gallen"},"status":"Real"},{"key":"10230806","name":"Hinterkirchweg","postalCode":"8717","locality":"Benken SG","commune":{"key":"3312","name":"Benken (SG)","shortName":"Benken (SG)"},"district":{"key":"1726","name":"Wahlkreis See-Gaster"},"canton":{"key":"17","code":"SG","name":"St. Gallen"},"status":"Real"},{"key":"10030397","name":"Hof","postalCode":"8717","locality":"Benken SG","commune":{"key":"3312","name":"Benken (SG)","shortName":"Benken (SG)"},"district":{"key":"1726","name":"Wahlkreis See-Gaster"},"canton":{"key":"17","code":"SG","name":"St. Gallen"},"status":"Real"},{"key":"10234542","name":"Hofstrasse","postalCode":"8717","locality":"Benken SG","commune":{"key":"3312","name":"Benken (SG)","shortName":"Benken (SG)"},"district":{"key":"1726","name":"Wahlkreis See-Gaster"},"canton":{"key":"17","code":"SG","name":"St. Gallen"},"status":"Real"},{"key":"10234546","name":"Hofweg","postalCode":"8717","locality":"Benken SG","commune":{"key":"3312","name":"Benken (SG)","shortName":"Benken (SG)"},"district":{"key":"1726","name":"Wahlkreis See-Gaster"},"canton":{"key":"17","code":"SG","name":"St. Gallen"},"status":"Real"},{"key":"10234550","name":"Hofwiesweg","postalCode":"8717","locality":"Benken SG","commune":{"key":"3312","name":"Benken (SG)","shortName":"Benken (SG)"},"district":{"key":"1726","name":"Wahlkreis See-Gaster"},"canton":{"key":"17","code":"SG","name":"St. Gallen"},"status":"Real"},{"key":"10234554","name":"Holzwies","postalCode":"8717","locality":"Benken SG","commune":{"key":"3312","name":"Benken (SG)","shortName":"Benken (SG)"},"district":{"key":"1726","name":"Wahlkreis See-Gaster"},"canton":{"key":"17","code":"SG","name":"St. Gallen"},"status":"Real"},{"key":"10184992","name":"Hornen","postalCode":"8717","locality":"Benken SG","commune":{"key":"3312","name":"Benken (SG)","shortName":"Benken (SG)"},"district":{"key":"1726","name":"Wahlkreis See-Gaster"},"canton":{"key":"17","code":"SG","name":"St. Gallen"},"status":"Real"},{"key":"10234558","name":"Hostet","postalCode":"8717","locality":"Benken SG","commune":{"key":"3312","name":"Benken (SG)","shortName":"Benken (SG)"},"district":{"key":"1726","name":"Wahlkreis See-Gaster"},"canton":{"key":"17","code":"SG","name":"St. Gallen"},"status":"Real"},{"key":"10051435","name":"Jungwies","postalCode":"8717","locality":"Benken SG","commune":{"key":"3312","name":"Benken (SG)","shortName":"Benken (SG)"},"district":{"key":"1726","name":"Wahlkreis See-Gaster"},"canton":{"key":"17","code":"SG","name":"St. Gallen"},"status":"Real"},{"key":"10234563","name":"Kaplaneiweg","postalCode":"8717","locality":"Benken SG","commune":{"key":"3312","name":"Benken (SG)","shortName":"Benken (SG)"},"district":{"key":"1726","name":"Wahlkreis See-Gaster"},"canton":{"key":"17","code":"SG","name":"St. Gallen"},"status":"Real"},{"key":"10234567","name":"Kessel","postalCode":"8717","locality":"Benken SG","commune":{"key":"3312","name":"Benken (SG)","shortName":"Benken (SG)"},"district":{"key":"1726","name":"Wahlkreis See-Gaster"},"canton":{"key":"17","code":"SG","name":"St. Gallen"},"status":"Real"},{"key":"10230839","name":"Kesselweg","postalCode":"8717","locality":"Benken SG","commune":{"key":"3312","name":"Benken (SG)","shortName":"Benken (SG)"},"district":{"key":"1726","name":"Wahlkreis See-Gaster"},"canton":{"key":"17","code":"SG","name":"St. Gallen"},"status":"Real"},{"key":"10226719","name":"Kirchweg","postalCode":"8717","locality":"Benken SG","commune":{"key":"3312","name":"Benken (SG)","shortName":"Benken (SG)"},"district":{"key":"1726","name":"Wahlkreis See-Gaster"},"canton":{"key":"17","code":"SG","name":"St. Gallen"},"status":"Real"},{"key":"10030399","name":"Klettenhof","postalCode":"8717","locality":"Benken SG","commune":{"key":"3312","name":"Benken (SG)","shortName":"Benken (SG)"},"district":{"key":"1726","name":"Wahlkreis See-Gaster"},"canton":{"key":"17","code":"SG","name":"St. Gallen"},"status":"Real"},{"key":"10226723","name":"Klettenhofstrasse","postalCode":"8717","locality":"Benken SG","commune":{"key":"3312","name":"Benken (SG)","shortName":"Benken (SG)"},"district":{"key":"1726","name":"Wahlkreis See-Gaster"},"canton":{"key":"17","code":"SG","name":"St. Gallen"},"status":"Real"},{"key":"10173254","name":"Klettenseehof","postalCode":"8717","locality":"Benken SG","commune":{"key":"3312","name":"Benken (SG)","shortName":"Benken (SG)"},"district":{"key":"1726","name":"Wahlkreis See-Gaster"},"canton":{"key":"17","code":"SG","name":"St. Gallen"},"status":"Real"},{"key":"10226727","name":"Klettenseekanalstrasse","postalCode":"8717","locality":"Benken SG","commune":{"key":"3312","name":"Benken (SG)","shortName":"Benken (SG)"},"district":{"key":"1726","name":"Wahlkreis See-Gaster"},"canton":{"key":"17","code":"SG","name":"St. Gallen"},"status":"Real"},{"key":"10226731","name":"Klettenstrasse","postalCode":"8717","locality":"Benken SG","commune":{"key":"3312","name":"Benken (SG)","shortName":"Benken (SG)"},"district":{"key":"1726","name":"Wahlkreis See-Gaster"},"canton":{"key":"17","code":"SG","name":"St. Gallen"},"status":"Real"},{"key":"10075811","name":"Lachnerhalden","postalCode":"8717","locality":"Benken SG","commune":{"key":"3312","name":"Benken (SG)","shortName":"Benken (SG)"},"district":{"key":"1726","name":"Wahlkreis See-Gaster"},"canton":{"key":"17","code":"SG","name":"St. Gallen"},"status":"Real"},{"key":"10226735","name":"Lachnerhaldenweg","postalCode":"8717","locality":"Benken SG","commune":{"key":"3312","name":"Benken (SG)","shortName":"Benken (SG)"},"district":{"key":"1726","name":"Wahlkreis See-Gaster"},"canton":{"key":"17","code":"SG","name":"St. Gallen"},"status":"Real"},{"key":"10030400","name":"Laich","postalCode":"8717","locality":"Benken SG","commune":{"key":"3312","name":"Benken (SG)","shortName":"Benken (SG)"},"district":{"key":"1726","name":"Wahlkreis See-Gaster"},"canton":{"key":"17","code":"SG","name":"St. Gallen"},"status":"Real"},{"key":"10230863","name":"Laichstrasse","postalCode":"8717","locality":"Benken SG","commune":{"key":"3312","name":"Benken (SG)","shortName":"Benken (SG)"},"district":{"key":"1726","name":"Wahlkreis See-Gaster"},"canton":{"key":"17","code":"SG","name":"St. Gallen"},"status":"Real"},{"key":"10232110","name":"Langholzriet","postalCode":"8717","locality":"Benken SG","commune":{"key":"3312","name":"Benken (SG)","shortName":"Benken (SG)"},"district":{"key":"1726","name":"Wahlkreis See-Gaster"},"canton":{"key":"17","code":"SG","name":"St. Gallen"},"status":"Real"},{"key":"10232114","name":"Langholzrietstrasse","postalCode":"8717","locality":"Benken SG","commune":{"key":"3312","name":"Benken (SG)","shortName":"Benken (SG)"},"district":{"key":"1726","name":"Wahlkreis See-Gaster"},"canton":{"key":"17","code":"SG","name":"St. Gallen"},"status":"Real"},{"key":"10051436","name":"Lehnen","postalCode":"8717","locality":"Benken SG","commune":{"key":"3312","name":"Benken (SG)","shortName":"Benken (SG)"},"district":{"key":"1726","name":"Wahlkreis See-Gaster"},"canton":{"key":"17","code":"SG","name":"St. Gallen"},"status":"Real"},{"key":"10134200","name":"Lignoformstrasse","postalCode":"8717","locality":"Benken SG","commune":{"key":"3312","name":"Benken (SG)","shortName":"Benken (SG)"},"district":{"key":"1726","name":"Wahlkreis See-Gaster"},"canton":{"key":"17","code":"SG","name":"St. Gallen"},"status":"Real"},{"key":"10249961","name":"Linksseitige Linthdammstrasse","postalCode":"8717","locality":"Benken SG","commune":{"key":"3312","name":"Benken (SG)","shortName":"Benken (SG)"},"district":{"key":"1726","name":"Wahlkreis See-Gaster"},"canton":{"key":"17","code":"SG","name":"St. Gallen"},"status":"Real"},{"key":"10190450","name":"Linthbettstrasse","postalCode":"8717","locality":"Benken SG","commune":{"key":"3312","name":"Benken (SG)","shortName":"Benken (SG)"},"district":{"key":"1726","name":"Wahlkreis See-Gaster"},"canton":{"key":"17","code":"SG","name":"St. Gallen"},"status":"Real"},{"key":"10051437","name":"Linthhof","postalCode":"8717","locality":"Benken SG","commune":{"key":"3312","name":"Benken (SG)","shortName":"Benken (SG)"},"district":{"key":"1726","name":"Wahlkreis See-Gaster"},"canton":{"key":"17","code":"SG","name":"St. Gallen"},"status":"Real"},{"key":"10226755","name":"Louis-Thum-Weg","postalCode":"8717","locality":"Benken SG","commune":{"key":"3312","name":"Benken (SG)","shortName":"Benken (SG)"},"district":{"key":"1726","name":"Wahlkreis See-Gaster"},"canton":{"key":"17","code":"SG","name":"St. Gallen"},"status":"Real"},{"key":"10171198","name":"Ludihof","postalCode":"8717","locality":"Benken SG","commune":{"key":"3312","name":"Benken (SG)","shortName":"Benken (SG)"},"district":{"key":"1726","name":"Wahlkreis See-Gaster"},"canton":{"key":"17","code":"SG","name":"St. Gallen"},"status":"Real"},{"key":"10226759","name":"Mattlistrasse","postalCode":"8717","locality":"Benken SG","commune":{"key":"3312","name":"Benken (SG)","shortName":"Benken (SG)"},"district":{"key":"1726","name":"Wahlkreis See-Gaster"},"canton":{"key":"17","code":"SG","name":"St. Gallen"},"status":"Real"},{"key":"10173255","name":"Mattliweg","postalCode":"8717","locality":"Benken SG","commune":{"key":"3312","name":"Benken (SG)","shortName":"Benken (SG)"},"district":{"key":"1726","name":"Wahlkreis See-Gaster"},"canton":{"key":"17","code":"SG","name":"St. Gallen"},"status":"Real"},{"key":"10075812","name":"Mönchhof","postalCode":"8717","locality":"Benken SG","commune":{"key":"3312","name":"Benken (SG)","shortName":"Benken (SG)"},"district":{"key":"1726","name":"Wahlkreis See-Gaster"},"canton":{"key":"17","code":"SG","name":"St. Gallen"},"status":"Real"},{"key":"10181144","name":"Mönchhofstrasse","postalCode":"8717","locality":"Benken SG","commune":{"key":"3312","name":"Benken (SG)","shortName":"Benken (SG)"},"district":{"key":"1726","name":"Wahlkreis See-Gaster"},"canton":{"key":"17","code":"SG","name":"St. Gallen"},"status":"Real"},{"key":"10226763","name":"Moosstrasse","postalCode":"8717","locality":"Benken SG","commune":{"key":"3312","name":"Benken (SG)","shortName":"Benken (SG)"},"district":{"key":"1726","name":"Wahlkreis See-Gaster"},"canton":{"key":"17","code":"SG","name":"St. Gallen"},"status":"Real"},{"key":"10226767","name":"Möslistrasse","postalCode":"8717","locality":"Benken SG","commune":{"key":"3312","name":"Benken (SG)","shortName":"Benken (SG)"},"district":{"key":"1726","name":"Wahlkreis See-Gaster"},"canton":{"key":"17","code":"SG","name":"St. Gallen"},"status":"Real"},{"key":"10226771","name":"Mösliwaldstrasse","postalCode":"8717","locality":"Benken SG","commune":{"key":"3312","name":"Benken (SG)","shortName":"Benken (SG)"},"district":{"key":"1726","name":"Wahlkreis See-Gaster"},"canton":{"key":"17","code":"SG","name":"St. Gallen"},"status":"Real"},{"key":"10226775","name":"Mühlebachweg","postalCode":"8717","locality":"Benken SG","commune":{"key":"3312","name":"Benken (SG)","shortName":"Benken (SG)"},"district":{"key":"1726","name":"Wahlkreis See-Gaster"},"canton":{"key":"17","code":"SG","name":"St. Gallen"},"status":"Real"},{"key":"10226779","name":"Mühlehofwaldstrasse","postalCode":"8717","locality":"Benken SG","commune":{"key":"3312","name":"Benken (SG)","shortName":"Benken (SG)"},"district":{"key":"1726","name":"Wahlkreis See-Gaster"},"canton":{"key":"17","code":"SG","name":"St. Gallen"},"status":"Real"},{"key":"10226783","name":"Mühlehofweg","postalCode":"8717","locality":"Benken SG","commune":{"key":"3312","name":"Benken (SG)","shortName":"Benken (SG)"},"district":{"key":"1726","name":"Wahlkreis See-Gaster"},"canton":{"key":"17","code":"SG","name":"St. Gallen"},"status":"Real"},{"key":"10226787","name":"Nebengrabenstrasse","postalCode":"8717","locality":"Benken SG","commune":{"key":"3312","name":"Benken (SG)","shortName":"Benken (SG)"},"district":{"key":"1726","name":"Wahlkreis See-Gaster"},"canton":{"key":"17","code":"SG","name":"St. Gallen"},"status":"Real"},{"key":"10230911","name":"Nesslenbodenstrasse","postalCode":"8717","locality":"Benken SG","commune":{"key":"3312","name":"Benken (SG)","shortName":"Benken (SG)"},"district":{"key":"1726","name":"Wahlkreis See-Gaster"},"canton":{"key":"17","code":"SG","name":"St. Gallen"},"status":"Real"},{"key":"10102492","name":"Neubruchstrasse","postalCode":"8717","locality":"Benken SG","commune":{"key":"3312","name":"Benken (SG)","shortName":"Benken (SG)"},"district":{"key":"1726","name":"Wahlkreis See-Gaster"},"canton":{"key":"17","code":"SG","name":"St. Gallen"},"status":"Real"},{"key":"10131362","name":"Neugut","postalCode":"8717","locality":"Benken SG","commune":{"key":"3312","name":"Benken (SG)","shortName":"Benken (SG)"},"district":{"key":"1726","name":"Wahlkreis See-Gaster"},"canton":{"key":"17","code":"SG","name":"St. Gallen"},"status":"Real"},{"key":"10030401","name":"Neuhof","postalCode":"8717","locality":"Benken SG","commune":{"key":"3312","name":"Benken (SG)","shortName":"Benken (SG)"},"district":{"key":"1726","name":"Wahlkreis See-Gaster"},"canton":{"key":"17","code":"SG","name":"St. Gallen"},"status":"Real"},{"key":"10230915","name":"Neuwiesen","postalCode":"8717","locality":"Benken SG","commune":{"key":"3312","name":"Benken (SG)","shortName":"Benken (SG)"},"district":{"key":"1726","name":"Wahlkreis See-Gaster"},"canton":{"key":"17","code":"SG","name":"St. Gallen"},"status":"Real"},{"key":"10168057","name":"Obere Blattenstrasse","postalCode":"8717","locality":"Benken SG","commune":{"key":"3312","name":"Benken (SG)","shortName":"Benken (SG)"},"district":{"key":"1726","name":"Wahlkreis See-Gaster"},"canton":{"key":"17","code":"SG","name":"St. Gallen"},"status":"Real"},{"key":"10153562","name":"Obere Breitenstrasse","postalCode":"8717","locality":"Benken SG","commune":{"key":"3312","name":"Benken (SG)","shortName":"Benken (SG)"},"district":{"key":"1726","name":"Wahlkreis See-Gaster"},"canton":{"key":"17","code":"SG","name":"St. Gallen"},"status":"Real"},{"key":"10230919","name":"Obere Starrbergstrasse","postalCode":"8717","locality":"Benken SG","commune":{"key":"3312","name":"Benken (SG)","shortName":"Benken (SG)"},"district":{"key":"1726","name":"Wahlkreis See-Gaster"},"canton":{"key":"17","code":"SG","name":"St. Gallen"},"status":"Real"},{"key":"10230923","name":"Oberriet","postalCode":"8717","locality":"Benken SG","commune":{"key":"3312","name":"Benken (SG)","shortName":"Benken (SG)"},"district":{"key":"1726","name":"Wahlkreis See-Gaster"},"canton":{"key":"17","code":"SG","name":"St. Gallen"},"status":"Real"},{"key":"10114563","name":"Oberrüti","postalCode":"8717","locality":"Benken SG","commune":{"key":"3312","name":"Benken (SG)","shortName":"Benken (SG)"},"district":{"key":"1726","name":"Wahlkreis See-Gaster"},"canton":{"key":"17","code":"SG","name":"St. Gallen"},"status":"Real"},{"key":"10230927","name":"Oberrüttenenstrasse","postalCode":"8717","locality":"Benken SG","commune":{"key":"3312","name":"Benken (SG)","shortName":"Benken (SG)"},"district":{"key":"1726","name":"Wahlkreis See-Gaster"},"canton":{"key":"17","code":"SG","name":"St. Gallen"},"status":"Real"},{"key":"10210331","name":"Oberwald","postalCode":"8717","locality":"Benken SG","commune":{"key":"3312","name":"Benken (SG)","shortName":"Benken (SG)"},"district":{"key":"1726","name":"Wahlkreis See-Gaster"},"canton":{"key":"17","code":"SG","name":"St. Gallen"},"status":"Real"},{"key":"10230931","name":"Oberwaldstrasse","postalCode":"8717","locality":"Benken SG","commune":{"key":"3312","name":"Benken (SG)","shortName":"Benken (SG)"},"district":{"key":"1726","name":"Wahlkreis See-Gaster"},"canton":{"key":"17","code":"SG","name":"St. Gallen"},"status":"Real"},{"key":"10230935","name":"Ost-Weststrasse","postalCode":"8717","locality":"Benken SG","commune":{"key":"3312","name":"Benken (SG)","shortName":"Benken (SG)"},"district":{"key":"1726","name":"Wahlkreis See-Gaster"},"canton":{"key":"17","code":"SG","name":"St. Gallen"},"status":"Real"},{"key":"10230939","name":"Panoramaweg","postalCode":"8717","locality":"Benken SG","commune":{"key":"3312","name":"Benken (SG)","shortName":"Benken (SG)"},"district":{"key":"1726","name":"Wahlkreis See-Gaster"},"canton":{"key":"17","code":"SG","name":"St. Gallen"},"status":"Real"},{"key":"10230943","name":"Pfadiweg","postalCode":"8717","locality":"Benken SG","commune":{"key":"3312","name":"Benken (SG)","shortName":"Benken (SG)"},"district":{"key":"1726","name":"Wahlkreis See-Gaster"},"canton":{"key":"17","code":"SG","name":"St. Gallen"},"status":"Real"},{"key":"10118274","name":"Pfaffengutstrasse","postalCode":"8717","locality":"Benken SG","commune":{"key":"3312","name":"Benken (SG)","shortName":"Benken (SG)"},"district":{"key":"1726","name":"Wahlkreis See-Gaster"},"canton":{"key":"17","code":"SG","name":"St. Gallen"},"status":"Real"},{"key":"10173256","name":"Pilgerweg","postalCode":"8717","locality":"Benken SG","commune":{"key":"3312","name":"Benken (SG)","shortName":"Benken (SG)"},"district":{"key":"1726","name":"Wahlkreis See-Gaster"},"canton":{"key":"17","code":"SG","name":"St. Gallen"},"status":"Real"},{"key":"10030402","name":"Quanten","postalCode":"8717","locality":"Benken SG","commune":{"key":"3312","name":"Benken (SG)","shortName":"Benken (SG)"},"district":{"key":"1726","name":"Wahlkreis See-Gaster"},"canton":{"key":"17","code":"SG","name":"St. Gallen"},"status":"Real"},{"key":"10230947","name":"Quantenweg","postalCode":"8717","locality":"Benken SG","commune":{"key":"3312","name":"Benken (SG)","shortName":"Benken (SG)"},"district":{"key":"1726","name":"Wahlkreis See-Gaster"},"canton":{"key":"17","code":"SG","name":"St. Gallen"},"status":"Real"},{"key":"10030404","name":"Räblistrasse","postalCode":"8717","locality":"Benken SG","commune":{"key":"3312","name":"Benken (SG)","shortName":"Benken (SG)"},"district":{"key":"1726","name":"Wahlkreis See-Gaster"},"canton":{"key":"17","code":"SG","name":"St. Gallen"},"status":"Real"},{"key":"10230950","name":"Räbliweg","postalCode":"8717","locality":"Benken SG","commune":{"key":"3312","name":"Benken (SG)","shortName":"Benken (SG)"},"district":{"key":"1726","name":"Wahlkreis See-Gaster"},"canton":{"key":"17","code":"SG","name":"St. Gallen"},"status":"Real"},{"key":"10230954","name":"Rädliboden","postalCode":"8717","locality":"Benken SG","commune":{"key":"3312","name":"Benken (SG)","shortName":"Benken (SG)"},"district":{"key":"1726","name":"Wahlkreis See-Gaster"},"canton":{"key":"17","code":"SG","name":"St. Gallen"},"status":"Real"},{"key":"10250707","name":"Rädlistrasse","postalCode":"8717","locality":"Benken SG","commune":{"key":"3312","name":"Benken (SG)","shortName":"Benken (SG)"},"district":{"key":"1726","name":"Wahlkreis See-Gaster"},"canton":{"key":"17","code":"SG","name":"St. Gallen"},"status":"Real"},{"key":"10230958","name":"Radweg Uznach-Benken","postalCode":"8717","locality":"Benken SG","commune":{"key":"3312","name":"Benken (SG)","shortName":"Benken (SG)"},"district":{"key":"1726","name":"Wahlkreis See-Gaster"},"canton":{"key":"17","code":"SG","name":"St. Gallen"},"status":"Real"},{"key":"10211228","name":"Rebhofstrasse","postalCode":"8717","locality":"Benken SG","commune":{"key":"3312","name":"Benken (SG)","shortName":"Benken (SG)"},"district":{"key":"1726","name":"Wahlkreis See-Gaster"},"canton":{"key":"17","code":"SG","name":"St. Gallen"},"status":"Real"},{"key":"10249967","name":"Rechtsseitige Linthdammstrasse","postalCode":"8717","locality":"Benken SG","commune":{"key":"3312","name":"Benken (SG)","shortName":"Benken (SG)"},"district":{"key":"1726","name":"Wahlkreis See-Gaster"},"canton":{"key":"17","code":"SG","name":"St. Gallen"},"status":"Real"},{"key":"10030403","name":"Reckplatzstrasse","postalCode":"8717","locality":"Benken SG","commune":{"key":"3312","name":"Benken (SG)","shortName":"Benken (SG)"},"district":{"key":"1726","name":"Wahlkreis See-Gaster"},"canton":{"key":"17","code":"SG","name":"St. Gallen"},"status":"Real"},{"key":"10145328","name":"Rietblickstrasse","postalCode":"8717","locality":"Benken SG","commune":{"key":"3312","name":"Benken (SG)","shortName":"Benken (SG)"},"district":{"key":"1726","name":"Wahlkreis See-Gaster"},"canton":{"key":"17","code":"SG","name":"St. Gallen"},"status":"Real"},{"key":"10230962","name":"Rietquerstrasse","postalCode":"8717","locality":"Benken SG","commune":{"key":"3312","name":"Benken (SG)","shortName":"Benken (SG)"},"district":{"key":"1726","name":"Wahlkreis See-Gaster"},"canton":{"key":"17","code":"SG","name":"St. Gallen"},"status":"Real"},{"key":"10075813","name":"Rietstrasse","postalCode":"8717","locality":"Benken SG","commune":{"key":"3312","name":"Benken (SG)","shortName":"Benken (SG)"},"district":{"key":"1726","name":"Wahlkreis See-Gaster"},"canton":{"key":"17","code":"SG","name":"St. Gallen"},"status":"Real"},{"key":"10250719","name":"Rietstrasse 4. Gang","postalCode":"8717","locality":"Benken SG","commune":{"key":"3312","name":"Benken (SG)","shortName":"Benken (SG)"},"district":{"key":"1726","name":"Wahlkreis See-Gaster"},"canton":{"key":"17","code":"SG","name":"St. Gallen"},"status":"Real"},{"key":"10250720","name":"Rietstrasse 5. Gang","postalCode":"8717","locality":"Benken SG","commune":{"key":"3312","name":"Benken (SG)","shortName":"Benken (SG)"},"district":{"key":"1726","name":"Wahlkreis See-Gaster"},"canton":{"key":"17","code":"SG","name":"St. Gallen"},"status":"Real"},{"key":"10207602","name":"Rietstrasse 6. Gang","postalCode":"8717","locality":"Benken SG","commune":{"key":"3312","name":"Benken (SG)","shortName":"Benken (SG)"},"district":{"key":"1726","name":"Wahlkreis See-Gaster"},"canton":{"key":"17","code":"SG","name":"St. Gallen"},"status":"Real"},{"key":"10145329","name":"Rietwiesstrasse","postalCode":"8717","locality":"Benken SG","commune":{"key":"3312","name":"Benken (SG)","shortName":"Benken (SG)"},"district":{"key":"1726","name":"Wahlkreis See-Gaster"},"canton":{"key":"17","code":"SG","name":"St. Gallen"},"status":"Real"},{"key":"10230966","name":"Rohrwies","postalCode":"8717","locality":"Benken SG","commune":{"key":"3312","name":"Benken (SG)","shortName":"Benken (SG)"},"district":{"key":"1726","name":"Wahlkreis See-Gaster"},"canton":{"key":"17","code":"SG","name":"St. Gallen"},"status":"Real"},{"key":"10230970","name":"Rosenbergstrasse","postalCode":"8717","locality":"Benken SG","commune":{"key":"3312","name":"Benken (SG)","shortName":"Benken (SG)"},"district":{"key":"1726","name":"Wahlkreis See-Gaster"},"canton":{"key":"17","code":"SG","name":"St. Gallen"},"status":"Real"},{"key":"10087914","name":"Rosenhof","postalCode":"8717","locality":"Benken SG","commune":{"key":"3312","name":"Benken (SG)","shortName":"Benken (SG)"},"district":{"key":"1726","name":"Wahlkreis See-Gaster"},"canton":{"key":"17","code":"SG","name":"St. Gallen"},"status":"Real"},{"key":"10230974","name":"Rotlen","postalCode":"8717","locality":"Benken SG","commune":{"key":"3312","name":"Benken (SG)","shortName":"Benken (SG)"},"district":{"key":"1726","name":"Wahlkreis See-Gaster"},"canton":{"key":"17","code":"SG","name":"St. Gallen"},"status":"Real"},{"key":"10087910","name":"Rötlistrasse","postalCode":"8717","locality":"Benken SG","commune":{"key":"3312","name":"Benken (SG)","shortName":"Benken (SG)"},"district":{"key":"1726","name":"Wahlkreis See-Gaster"},"canton":{"key":"17","code":"SG","name":"St. Gallen"},"status":"Real"},{"key":"10126087","name":"Rötliwiesstrasse","postalCode":"8717","locality":"Benken SG","commune":{"key":"3312","name":"Benken (SG)","shortName":"Benken (SG)"},"district":{"key":"1726","name":"Wahlkreis See-Gaster"},"canton":{"key":"17","code":"SG","name":"St. Gallen"},"status":"Real"},{"key":"10114522","name":"Rüteli","postalCode":"8717","locality":"Benken SG","commune":{"key":"3312","name":"Benken (SG)","shortName":"Benken (SG)"},"district":{"key":"1726","name":"Wahlkreis See-Gaster"},"canton":{"key":"17","code":"SG","name":"St. Gallen"},"status":"Real"},{"key":"10109452","name":"Rüti","postalCode":"8717","locality":"Benken SG","commune":{"key":"3312","name":"Benken (SG)","shortName":"Benken (SG)"},"district":{"key":"1726","name":"Wahlkreis See-Gaster"},"canton":{"key":"17","code":"SG","name":"St. Gallen"},"status":"Real"},{"key":"10051800","name":"Rütihof","postalCode":"8717","locality":"Benken SG","commune":{"key":"3312","name":"Benken (SG)","shortName":"Benken (SG)"},"district":{"key":"1726","name":"Wahlkreis See-Gaster"},"canton":{"key":"17","code":"SG","name":"St. Gallen"},"status":"Real"},{"key":"10226859","name":"Rütihofstrasse","postalCode":"8717","locality":"Benken SG","commune":{"key":"3312","name":"Benken (SG)","shortName":"Benken (SG)"},"district":{"key":"1726","name":"Wahlkreis See-Gaster"},"canton":{"key":"17","code":"SG","name":"St. Gallen"},"status":"Real"},{"key":"10030405","name":"Rütistrasse","postalCode":"8717","locality":"Benken SG","commune":{"key":"3312","name":"Benken (SG)","shortName":"Benken (SG)"},"district":{"key":"1726","name":"Wahlkreis See-Gaster"},"canton":{"key":"17","code":"SG","name":"St. Gallen"},"status":"Real"},{"key":"10173257","name":"Rütiweg","postalCode":"8717","locality":"Benken SG","commune":{"key":"3312","name":"Benken (SG)","shortName":"Benken (SG)"},"district":{"key":"1726","name":"Wahlkreis See-Gaster"},"canton":{"key":"17","code":"SG","name":"St. Gallen"},"status":"Real"},{"key":"10226863","name":"Rüttenen","postalCode":"8717","locality":"Benken SG","commune":{"key":"3312","name":"Benken (SG)","shortName":"Benken (SG)"},"district":{"key":"1726","name":"Wahlkreis See-Gaster"},"canton":{"key":"17","code":"SG","name":"St. Gallen"},"status":"Real"},{"key":"10224813","name":"Rüttenenwaldstrasse","postalCode":"8717","locality":"Benken SG","commune":{"key":"3312","name":"Benken (SG)","shortName":"Benken (SG)"},"district":{"key":"1726","name":"Wahlkreis See-Gaster"},"canton":{"key":"17","code":"SG","name":"St. Gallen"},"status":"Real"},{"key":"10224817","name":"Rüttenenweg","postalCode":"8717","locality":"Benken SG","commune":{"key":"3312","name":"Benken (SG)","shortName":"Benken (SG)"},"district":{"key":"1726","name":"Wahlkreis See-Gaster"},"canton":{"key":"17","code":"SG","name":"St. Gallen"},"status":"Real"},{"key":"10224821","name":"Schloorwies","postalCode":"8717","locality":"Benken SG","commune":{"key":"3312","name":"Benken (SG)","shortName":"Benken (SG)"},"district":{"key":"1726","name":"Wahlkreis See-Gaster"},"canton":{"key":"17","code":"SG","name":"St. Gallen"},"status":"Real"},{"key":"10113742","name":"Schmitten","postalCode":"8717","locality":"Benken SG","commune":{"key":"3312","name":"Benken (SG)","shortName":"Benken (SG)"},"district":{"key":"1726","name":"Wahlkreis See-Gaster"},"canton":{"key":"17","code":"SG","name":"St. Gallen"},"status":"Real"},{"key":"10181145","name":"Schmittenäckerstrasse","postalCode":"8717","locality":"Benken SG","commune":{"key":"3312","name":"Benken (SG)","shortName":"Benken (SG)"},"district":{"key":"1726","name":"Wahlkreis See-Gaster"},"canton":{"key":"17","code":"SG","name":"St. Gallen"},"status":"Real"},{"key":"10232243","name":"Schmittenstrasse","postalCode":"8717","locality":"Benken SG","commune":{"key":"3312","name":"Benken (SG)","shortName":"Benken (SG)"},"district":{"key":"1726","name":"Wahlkreis See-Gaster"},"canton":{"key":"17","code":"SG","name":"St. Gallen"},"status":"Real"},{"key":"10087911","name":"Schmittenwaldstrasse","postalCode":"8717","locality":"Benken SG","commune":{"key":"3312","name":"Benken (SG)","shortName":"Benken (SG)"},"district":{"key":"1726","name":"Wahlkreis See-Gaster"},"canton":{"key":"17","code":"SG","name":"St. Gallen"},"status":"Real"},{"key":"10075814","name":"Schönaustrasse","postalCode":"8717","locality":"Benken SG","commune":{"key":"3312","name":"Benken (SG)","shortName":"Benken (SG)"},"district":{"key":"1726","name":"Wahlkreis See-Gaster"},"canton":{"key":"17","code":"SG","name":"St. Gallen"},"status":"Real"},{"key":"10030406","name":"Schulhausstrasse","postalCode":"8717","locality":"Benken SG","commune":{"key":"3312","name":"Benken (SG)","shortName":"Benken (SG)"},"district":{"key":"1726","name":"Wahlkreis See-Gaster"},"canton":{"key":"17","code":"SG","name":"St. Gallen"},"status":"Real"},{"key":"10167732","name":"Schulstrasse","postalCode":"8717","locality":"Benken SG","commune":{"key":"3312","name":"Benken (SG)","shortName":"Benken (SG)"},"district":{"key":"1726","name":"Wahlkreis See-Gaster"},"canton":{"key":"17","code":"SG","name":"St. Gallen"},"status":"Real"},{"key":"10118639","name":"Sechserwiesstrasse","postalCode":"8717","locality":"Benken SG","commune":{"key":"3312","name":"Benken (SG)","shortName":"Benken (SG)"},"district":{"key":"1726","name":"Wahlkreis See-Gaster"},"canton":{"key":"17","code":"SG","name":"St. Gallen"},"status":"Real"},{"key":"10232247","name":"Sommerböschen","postalCode":"8717","locality":"Benken SG","commune":{"key":"3312","name":"Benken (SG)","shortName":"Benken (SG)"},"district":{"key":"1726","name":"Wahlkreis See-Gaster"},"canton":{"key":"17","code":"SG","name":"St. Gallen"},"status":"Real"},{"key":"10150809","name":"Sonnengrund","postalCode":"8717","locality":"Benken SG","commune":{"key":"3312","name":"Benken (SG)","shortName":"Benken (SG)"},"district":{"key":"1726","name":"Wahlkreis See-Gaster"},"canton":{"key":"17","code":"SG","name":"St. Gallen"},"status":"Real"},{"key":"10051438","name":"Sonnenhof","postalCode":"8717","locality":"Benken SG","commune":{"key":"3312","name":"Benken (SG)","shortName":"Benken (SG)"},"district":{"key":"1726","name":"Wahlkreis See-Gaster"},"canton":{"key":"17","code":"SG","name":"St. Gallen"},"status":"Real"},{"key":"10224832","name":"Sonnenhofstrasse","postalCode":"8717","locality":"Benken SG","commune":{"key":"3312","name":"Benken (SG)","shortName":"Benken (SG)"},"district":{"key":"1726","name":"Wahlkreis See-Gaster"},"canton":{"key":"17","code":"SG","name":"St. Gallen"},"status":"Real"},{"key":"10087912","name":"Sonnenrainstrasse","postalCode":"8717","locality":"Benken SG","commune":{"key":"3312","name":"Benken (SG)","shortName":"Benken (SG)"},"district":{"key":"1726","name":"Wahlkreis See-Gaster"},"canton":{"key":"17","code":"SG","name":"St. Gallen"},"status":"Real"},{"key":"10030407","name":"Speerstrasse","postalCode":"8717","locality":"Benken SG","commune":{"key":"3312","name":"Benken (SG)","shortName":"Benken (SG)"},"district":{"key":"1726","name":"Wahlkreis See-Gaster"},"canton":{"key":"17","code":"SG","name":"St. Gallen"},"status":"Real"},{"key":"10224836","name":"Spicher","postalCode":"8717","locality":"Benken SG","commune":{"key":"3312","name":"Benken (SG)","shortName":"Benken (SG)"},"district":{"key":"1726","name":"Wahlkreis See-Gaster"},"canton":{"key":"17","code":"SG","name":"St. Gallen"},"status":"Real"},{"key":"10030408","name":"Spinnerhof","postalCode":"8717","locality":"Benken SG","commune":{"key":"3312","name":"Benken (SG)","shortName":"Benken (SG)"},"district":{"key":"1726","name":"Wahlkreis See-Gaster"},"canton":{"key":"17","code":"SG","name":"St. Gallen"},"status":"Real"},{"key":"10167733","name":"Spitzenwiesstrasse","postalCode":"8717","locality":"Benken SG","commune":{"key":"3312","name":"Benken (SG)","shortName":"Benken (SG)"},"district":{"key":"1726","name":"Wahlkreis See-Gaster"},"canton":{"key":"17","code":"SG","name":"St. Gallen"},"status":"Real"},{"key":"10224840","name":"Staffelriet","postalCode":"8717","locality":"Benken SG","commune":{"key":"3312","name":"Benken (SG)","shortName":"Benken (SG)"},"district":{"key":"1726","name":"Wahlkreis See-Gaster"},"canton":{"key":"17","code":"SG","name":"St. Gallen"},"status":"Real"},{"key":"10224844","name":"Staffelrietstrasse","postalCode":"8717","locality":"Benken SG","commune":{"key":"3312","name":"Benken (SG)","shortName":"Benken (SG)"},"district":{"key":"1726","name":"Wahlkreis See-Gaster"},"canton":{"key":"17","code":"SG","name":"St. Gallen"},"status":"Real"},{"key":"10224848","name":"Starrberg","postalCode":"8717","locality":"Benken SG","commune":{"key":"3312","name":"Benken (SG)","shortName":"Benken (SG)"},"district":{"key":"1726","name":"Wahlkreis See-Gaster"},"canton":{"key":"17","code":"SG","name":"St. Gallen"},"status":"Real"},{"key":"10102493","name":"Starrbergstrasse","postalCode":"8717","locality":"Benken SG","commune":{"key":"3312","name":"Benken (SG)","shortName":"Benken (SG)"},"district":{"key":"1726","name":"Wahlkreis See-Gaster"},"canton":{"key":"17","code":"SG","name":"St. Gallen"},"status":"Real"},{"key":"10171199","name":"Stationsstrasse","postalCode":"8717","locality":"Benken SG","commune":{"key":"3312","name":"Benken (SG)","shortName":"Benken (SG)"},"district":{"key":"1726","name":"Wahlkreis See-Gaster"},"canton":{"key":"17","code":"SG","name":"St. Gallen"},"status":"Real"},{"key":"10224852","name":"Steinenbachdammweg","postalCode":"8717","locality":"Benken SG","commune":{"key":"3312","name":"Benken (SG)","shortName":"Benken (SG)"},"district":{"key":"1726","name":"Wahlkreis See-Gaster"},"canton":{"key":"17","code":"SG","name":"St. Gallen"},"status":"Real"},{"key":"10224856","name":"Steinenbachweg","postalCode":"8717","locality":"Benken SG","commune":{"key":"3312","name":"Benken (SG)","shortName":"Benken (SG)"},"district":{"key":"1726","name":"Wahlkreis See-Gaster"},"canton":{"key":"17","code":"SG","name":"St. Gallen"},"status":"Real"},{"key":"10224860","name":"Stockwies","postalCode":"8717","locality":"Benken SG","commune":{"key":"3312","name":"Benken (SG)","shortName":"Benken (SG)"},"district":{"key":"1726","name":"Wahlkreis See-Gaster"},"canton":{"key":"17","code":"SG","name":"St. Gallen"},"status":"Real"},{"key":"10249971","name":"Sumpfauslauf","postalCode":"8717","locality":"Benken SG","commune":{"key":"3312","name":"Benken (SG)","shortName":"Benken (SG)"},"district":{"key":"1726","name":"Wahlkreis See-Gaster"},"canton":{"key":"17","code":"SG","name":"St. Gallen"},"status":"Real"},{"key":"10224863","name":"Tagmenwies","postalCode":"8717","locality":"Benken SG","commune":{"key":"3312","name":"Benken (SG)","shortName":"Benken (SG)"},"district":{"key":"1726","name":"Wahlkreis See-Gaster"},"canton":{"key":"17","code":"SG","name":"St. Gallen"},"status":"Real"},{"key":"10224867","name":"Tankgrabenstrasse","postalCode":"8717","locality":"Benken SG","commune":{"key":"3312","name":"Benken (SG)","shortName":"Benken (SG)"},"district":{"key":"1726","name":"Wahlkreis See-Gaster"},"canton":{"key":"17","code":"SG","name":"St. Gallen"},"status":"Real"},{"key":"10226939","name":"Tieftobelstrasse","postalCode":"8717","locality":"Benken SG","commune":{"key":"3312","name":"Benken (SG)","shortName":"Benken (SG)"},"district":{"key":"1726","name":"Wahlkreis See-Gaster"},"canton":{"key":"17","code":"SG","name":"St. Gallen"},"status":"Real"},{"key":"10226943","name":"Tieftobelweg","postalCode":"8717","locality":"Benken SG","commune":{"key":"3312","name":"Benken (SG)","shortName":"Benken (SG)"},"district":{"key":"1726","name":"Wahlkreis See-Gaster"},"canton":{"key":"17","code":"SG","name":"St. Gallen"},"status":"Real"},{"key":"10226947","name":"Töbeliweg","postalCode":"8717","locality":"Benken SG","commune":{"key":"3312","name":"Benken (SG)","shortName":"Benken (SG)"},"district":{"key":"1726","name":"Wahlkreis See-Gaster"},"canton":{"key":"17","code":"SG","name":"St. Gallen"},"status":"Real"},{"key":"10087913","name":"Tobelrötenstrasse","postalCode":"8717","locality":"Benken SG","commune":{"key":"3312","name":"Benken (SG)","shortName":"Benken (SG)"},"district":{"key":"1726","name":"Wahlkreis See-Gaster"},"canton":{"key":"17","code":"SG","name":"St. Gallen"},"status":"Real"},{"key":"10226951","name":"Tobelwaldstrasse","postalCode":"8717","locality":"Benken SG","commune":{"key":"3312","name":"Benken (SG)","shortName":"Benken (SG)"},"district":{"key":"1726","name":"Wahlkreis See-Gaster"},"canton":{"key":"17","code":"SG","name":"St. Gallen"},"status":"Real"},{"key":"10226955","name":"Tobelwaldweg","postalCode":"8717","locality":"Benken SG","commune":{"key":"3312","name":"Benken (SG)","shortName":"Benken (SG)"},"district":{"key":"1726","name":"Wahlkreis See-Gaster"},"canton":{"key":"17","code":"SG","name":"St. Gallen"},"status":"Real"},{"key":"10114564","name":"Tschuopisstrasse","postalCode":"8717","locality":"Benken SG","commune":{"key":"3312","name":"Benken (SG)","shortName":"Benken (SG)"},"district":{"key":"1726","name":"Wahlkreis See-Gaster"},"canton":{"key":"17","code":"SG","name":"St. Gallen"},"status":"Real"},{"key":"10226959","name":"Tschuopisweg","postalCode":"8717","locality":"Benken SG","commune":{"key":"3312","name":"Benken (SG)","shortName":"Benken (SG)"},"district":{"key":"1726","name":"Wahlkreis See-Gaster"},"canton":{"key":"17","code":"SG","name":"St. Gallen"},"status":"Real"},{"key":"10226963","name":"Untere Starrbergstrasse","postalCode":"8717","locality":"Benken SG","commune":{"key":"3312","name":"Benken (SG)","shortName":"Benken (SG)"},"district":{"key":"1726","name":"Wahlkreis See-Gaster"},"canton":{"key":"17","code":"SG","name":"St. Gallen"},"status":"Real"},{"key":"10030409","name":"Unterhaldenstrasse","postalCode":"8717","locality":"Benken SG","commune":{"key":"3312","name":"Benken (SG)","shortName":"Benken (SG)"},"district":{"key":"1726","name":"Wahlkreis See-Gaster"},"canton":{"key":"17","code":"SG","name":"St. Gallen"},"status":"Real"},{"key":"10050933","name":"Uznacherstrasse","postalCode":"8717","locality":"Benken SG","commune":{"key":"3312","name":"Benken (SG)","shortName":"Benken (SG)"},"district":{"key":"1726","name":"Wahlkreis See-Gaster"},"canton":{"key":"17","code":"SG","name":"St. Gallen"},"status":"Real"},{"key":"10030410","name":"Waldacker","postalCode":"8717","locality":"Benken SG","commune":{"key":"3312","name":"Benken (SG)","shortName":"Benken (SG)"},"district":{"key":"1726","name":"Wahlkreis See-Gaster"},"canton":{"key":"17","code":"SG","name":"St. Gallen"},"status":"Real"},{"key":"10226967","name":"Werben","postalCode":"8717","locality":"Benken SG","commune":{"key":"3312","name":"Benken (SG)","shortName":"Benken (SG)"},"district":{"key":"1726","name":"Wahlkreis See-Gaster"},"canton":{"key":"17","code":"SG","name":"St. Gallen"},"status":"Real"},{"key":"10226971","name":"Wichel","postalCode":"8717","locality":"Benken SG","commune":{"key":"3312","name":"Benken (SG)","shortName":"Benken (SG)"},"district":{"key":"1726","name":"Wahlkreis See-Gaster"},"canton":{"key":"17","code":"SG","name":"St. Gallen"},"status":"Real"},{"key":"10211697","name":"Wichelwies","postalCode":"8717","locality":"Benken SG","commune":{"key":"3312","name":"Benken (SG)","shortName":"Benken (SG)"},"district":{"key":"1726","name":"Wahlkreis See-Gaster"},"canton":{"key":"17","code":"SG","name":"St. Gallen"},"status":"Real"},{"key":"10226975","name":"Widen","postalCode":"8717","locality":"Benken SG","commune":{"key":"3312","name":"Benken (SG)","shortName":"Benken (SG)"},"district":{"key":"1726","name":"Wahlkreis See-Gaster"},"canton":{"key":"17","code":"SG","name":"St. Gallen"},"status":"Real"},{"key":"10030411","name":"Widenstrasse","postalCode":"8717","locality":"Benken SG","commune":{"key":"3312","name":"Benken (SG)","shortName":"Benken (SG)"},"district":{"key":"1726","name":"Wahlkreis See-Gaster"},"canton":{"key":"17","code":"SG","name":"St. Gallen"},"status":"Real"},{"key":"10226979","name":"Widisstrasse","postalCode":"8717","locality":"Benken SG","commune":{"key":"3312","name":"Benken (SG)","shortName":"Benken (SG)"},"district":{"key":"1726","name":"Wahlkreis See-Gaster"},"canton":{"key":"17","code":"SG","name":"St. Gallen"},"status":"Real"},{"key":"10209778","name":"Wintersitenstrasse","postalCode":"8717","locality":"Benken SG","commune":{"key":"3312","name":"Benken (SG)","shortName":"Benken (SG)"},"district":{"key":"1726","name":"Wahlkreis See-Gaster"},"canton":{"key":"17","code":"SG","name":"St. Gallen"},"status":"Real"},{"key":"10226983","name":"Witmoosstrasse","postalCode":"8717","locality":"Benken SG","commune":{"key":"3312","name":"Benken (SG)","shortName":"Benken (SG)"},"district":{"key":"1726","name":"Wahlkreis See-Gaster"},"canton":{"key":"17","code":"SG","name":"St. Gallen"},"status":"Real"},{"key":"10167734","name":"Zentrumplatz","postalCode":"8717","locality":"Benken SG","commune":{"key":"3312","name":"Benken (SG)","shortName":"Benken (SG)"},"district":{"key":"1726","name":"Wahlkreis See-Gaster"},"canton":{"key":"17","code":"SG","name":"St. Gallen"},"status":"Real"},{"key":"10226987","name":"Zentrumstrasse","postalCode":"8717","locality":"Benken SG","commune":{"key":"3312","name":"Benken (SG)","shortName":"Benken (SG)"},"district":{"key":"1726","name":"Wahlkreis See-Gaster"},"canton":{"key":"17","code":"SG","name":"St. Gallen"},"status":"Real"},{"key":"10226991","name":"Zentrumweg","postalCode":"8717","locality":"Benken SG","commune":{"key":"3312","name":"Benken (SG)","shortName":"Benken (SG)"},"district":{"key":"1726","name":"Wahlkreis See-Gaster"},"canton":{"key":"17","code":"SG","name":"St. Gallen"},"status":"Real"},{"key":"10226995","name":"Znöchstbrunnenstrasse","postalCode":"8717","locality":"Benken SG","commune":{"key":"3312","name":"Benken (SG)","shortName":"Benken (SG)"},"district":{"key":"1726","name":"Wahlkreis See-Gaster"},"canton":{"key":"17","code":"SG","name":"St. Gallen"},"status":"Real"},{"key":"10226999","name":"Zubenbach","postalCode":"8717","locality":"Benken SG","commune":{"key":"3312","name":"Benken (SG)","shortName":"Benken (SG)"},"district":{"key":"1726","name":"Wahlkreis See-Gaster"},"canton":{"key":"17","code":"SG","name":"St. Gallen"},"status":"Real"},{"key":"10224924","name":"Zwischackerstrasse","postalCode":"8717","locality":"Benken SG","commune":{"key":"3312","name":"Benken (SG)","shortName":"Benken (SG)"},"district":{"key":"1726","name":"Wahlkreis See-Gaster"},"canton":{"key":"17","code":"SG","name":"St. Gallen"},"status":"Real"},]