[{"name":"Ahornweg","postalCode":"16559","locality":"Liebenwalde","municipality":{"key":"12065193","name":"Liebenwalde, Stadt","type":"Stadt"},"district":{"key":"12065","name":"Oberhavel","type":"Landkreis"},"federalState":{"key":"12","name":"Brandenburg"}},{"name":"Alte Liebenwalder Str.","postalCode":"16559","locality":"Liebenwalde","municipality":{"key":"12065193","name":"Liebenwalde, Stadt","type":"Stadt"},"district":{"key":"12065","name":"Oberhavel","type":"Landkreis"},"federalState":{"key":"12","name":"Brandenburg"}},{"name":"Am Finowkanal","postalCode":"16559","locality":"Liebenwalde","municipality":{"key":"12065193","name":"Liebenwalde, Stadt","type":"Stadt"},"district":{"key":"12065","name":"Oberhavel","type":"Landkreis"},"federalState":{"key":"12","name":"Brandenburg"}},{"name":"Am Grünen Weg","postalCode":"16559","locality":"Liebenwalde","municipality":{"key":"12065193","name":"Liebenwalde, Stadt","type":"Stadt"},"district":{"key":"12065","name":"Oberhavel","type":"Landkreis"},"federalState":{"key":"12","name":"Brandenburg"}},{"name":"Am Kietz","postalCode":"16559","locality":"Liebenwalde","municipality":{"key":"12065193","name":"Liebenwalde, Stadt","type":"Stadt"},"district":{"key":"12065","name":"Oberhavel","type":"Landkreis"},"federalState":{"key":"12","name":"Brandenburg"}},{"name":"Am Kuhpanzsee","postalCode":"16559","locality":"Liebenwalde","municipality":{"key":"12065193","name":"Liebenwalde, Stadt","type":"Stadt"},"district":{"key":"12065","name":"Oberhavel","type":"Landkreis"},"federalState":{"key":"12","name":"Brandenburg"}},{"name":"Am Ökoteich","postalCode":"16559","locality":"Liebenwalde","municipality":{"key":"12065193","name":"Liebenwalde, Stadt","type":"Stadt"},"district":{"key":"12065","name":"Oberhavel","type":"Landkreis"},"federalState":{"key":"12","name":"Brandenburg"}},{"name":"Am Scheunenviertel","postalCode":"16559","locality":"Liebenwalde","municipality":{"key":"12065193","name":"Liebenwalde, Stadt","type":"Stadt"},"district":{"key":"12065","name":"Oberhavel","type":"Landkreis"},"federalState":{"key":"12","name":"Brandenburg"}},{"name":"Amt","postalCode":"16559","locality":"Liebenwalde","municipality":{"key":"12065193","name":"Liebenwalde, Stadt","type":"Stadt"},"district":{"key":"12065","name":"Oberhavel","type":"Landkreis"},"federalState":{"key":"12","name":"Brandenburg"}},{"name":"Am Weinberg","postalCode":"16559","locality":"Liebenwalde","municipality":{"key":"12065193","name":"Liebenwalde, Stadt","type":"Stadt"},"district":{"key":"12065","name":"Oberhavel","type":"Landkreis"},"federalState":{"key":"12","name":"Brandenburg"}},{"name":"Am Wutzsee","postalCode":"16559","locality":"Liebenwalde","municipality":{"key":"12065193","name":"Liebenwalde, Stadt","type":"Stadt"},"district":{"key":"12065","name":"Oberhavel","type":"Landkreis"},"federalState":{"key":"12","name":"Brandenburg"}},{"name":"Angra Pequena","postalCode":"16559","locality":"Liebenwalde","municipality":{"key":"12065193","name":"Liebenwalde, Stadt","type":"Stadt"},"district":{"key":"12065","name":"Oberhavel","type":"Landkreis"},"federalState":{"key":"12","name":"Brandenburg"}},{"name":"Ausbau am See","postalCode":"16559","locality":"Liebenwalde","municipality":{"key":"12065193","name":"Liebenwalde, Stadt","type":"Stadt"},"district":{"key":"12065","name":"Oberhavel","type":"Landkreis"},"federalState":{"key":"12","name":"Brandenburg"}},{"name":"Bahnhofstr.","postalCode":"16559","locality":"Liebenwalde","municipality":{"key":"12065193","name":"Liebenwalde, Stadt","type":"Stadt"},"district":{"key":"12065","name":"Oberhavel","type":"Landkreis"},"federalState":{"key":"12","name":"Brandenburg"}},{"name":"Bergemannhof","postalCode":"16559","locality":"Liebenwalde","municipality":{"key":"12065193","name":"Liebenwalde, Stadt","type":"Stadt"},"district":{"key":"12065","name":"Oberhavel","type":"Landkreis"},"federalState":{"key":"12","name":"Brandenburg"}},{"name":"Berliner Chaussee","postalCode":"16559","locality":"Liebenwalde","municipality":{"key":"12065193","name":"Liebenwalde, Stadt","type":"Stadt"},"district":{"key":"12065","name":"Oberhavel","type":"Landkreis"},"federalState":{"key":"12","name":"Brandenburg"}},{"name":"Berliner Str.","postalCode":"16559","locality":"Liebenwalde","municipality":{"key":"12065193","name":"Liebenwalde, Stadt","type":"Stadt"},"district":{"key":"12065","name":"Oberhavel","type":"Landkreis"},"federalState":{"key":"12","name":"Brandenburg"}},{"name":"Bernöwer Str.","postalCode":"16559","locality":"Liebenwalde","municipality":{"key":"12065193","name":"Liebenwalde, Stadt","type":"Stadt"},"district":{"key":"12065","name":"Oberhavel","type":"Landkreis"},"federalState":{"key":"12","name":"Brandenburg"}},{"name":"Birkensteig","postalCode":"16559","locality":"Liebenwalde","municipality":{"key":"12065193","name":"Liebenwalde, Stadt","type":"Stadt"},"district":{"key":"12065","name":"Oberhavel","type":"Landkreis"},"federalState":{"key":"12","name":"Brandenburg"}},{"name":"Bischofswerder Weg","postalCode":"16559","locality":"Liebenwalde","municipality":{"key":"12065193","name":"Liebenwalde, Stadt","type":"Stadt"},"district":{"key":"12065","name":"Oberhavel","type":"Landkreis"},"federalState":{"key":"12","name":"Brandenburg"}},{"name":"Böhmerheider Weg","postalCode":"16559","locality":"Liebenwalde","municipality":{"key":"12065193","name":"Liebenwalde, Stadt","type":"Stadt"},"district":{"key":"12065","name":"Oberhavel","type":"Landkreis"},"federalState":{"key":"12","name":"Brandenburg"}},{"name":"Breite Str.","postalCode":"16559","locality":"Liebenwalde","municipality":{"key":"12065193","name":"Liebenwalde, Stadt","type":"Stadt"},"district":{"key":"12065","name":"Oberhavel","type":"Landkreis"},"federalState":{"key":"12","name":"Brandenburg"}},{"name":"Burwischweg","postalCode":"16559","locality":"Liebenwalde","municipality":{"key":"12065193","name":"Liebenwalde, Stadt","type":"Stadt"},"district":{"key":"12065","name":"Oberhavel","type":"Landkreis"},"federalState":{"key":"12","name":"Brandenburg"}},{"name":"Dimitroffstr.","postalCode":"16559","locality":"Liebenwalde","municipality":{"key":"12065193","name":"Liebenwalde, Stadt","type":"Stadt"},"district":{"key":"12065","name":"Oberhavel","type":"Landkreis"},"federalState":{"key":"12","name":"Brandenburg"}},{"name":"Dorfallee","postalCode":"16559","locality":"Liebenwalde","municipality":{"key":"12065193","name":"Liebenwalde, Stadt","type":"Stadt"},"district":{"key":"12065","name":"Oberhavel","type":"Landkreis"},"federalState":{"key":"12","name":"Brandenburg"}},{"name":"Dorfstr.","postalCode":"16559","locality":"Liebenwalde","municipality":{"key":"12065193","name":"Liebenwalde, Stadt","type":"Stadt"},"district":{"key":"12065","name":"Oberhavel","type":"Landkreis"},"federalState":{"key":"12","name":"Brandenburg"}},{"name":"Ebereschenweg","postalCode":"16559","locality":"Liebenwalde","municipality":{"key":"12065193","name":"Liebenwalde, Stadt","type":"Stadt"},"district":{"key":"12065","name":"Oberhavel","type":"Landkreis"},"federalState":{"key":"12","name":"Brandenburg"}},{"name":"Eberswalder Str.","postalCode":"16559","locality":"Liebenwalde","municipality":{"key":"12065193","name":"Liebenwalde, Stadt","type":"Stadt"},"district":{"key":"12065","name":"Oberhavel","type":"Landkreis"},"federalState":{"key":"12","name":"Brandenburg"}},{"name":"Elsbeerenweg","postalCode":"16559","locality":"Liebenwalde","municipality":{"key":"12065193","name":"Liebenwalde, Stadt","type":"Stadt"},"district":{"key":"12065","name":"Oberhavel","type":"Landkreis"},"federalState":{"key":"12","name":"Brandenburg"}},{"name":"Ernst-Thälmann-Str.","postalCode":"16559","locality":"Liebenwalde","municipality":{"key":"12065193","name":"Liebenwalde, Stadt","type":"Stadt"},"district":{"key":"12065","name":"Oberhavel","type":"Landkreis"},"federalState":{"key":"12","name":"Brandenburg"}},{"name":"Ernst-Thälmann-Weg","postalCode":"16559","locality":"Liebenwalde","municipality":{"key":"12065193","name":"Liebenwalde, Stadt","type":"Stadt"},"district":{"key":"12065","name":"Oberhavel","type":"Landkreis"},"federalState":{"key":"12","name":"Brandenburg"}},{"name":"Fichtenweg","postalCode":"16559","locality":"Liebenwalde","municipality":{"key":"12065193","name":"Liebenwalde, Stadt","type":"Stadt"},"district":{"key":"12065","name":"Oberhavel","type":"Landkreis"},"federalState":{"key":"12","name":"Brandenburg"}},{"name":"Große Trift","postalCode":"16559","locality":"Liebenwalde","municipality":{"key":"12065193","name":"Liebenwalde, Stadt","type":"Stadt"},"district":{"key":"12065","name":"Oberhavel","type":"Landkreis"},"federalState":{"key":"12","name":"Brandenburg"}},{"name":"Groß-Schönebecker Str.","postalCode":"16559","locality":"Liebenwalde","municipality":{"key":"12065193","name":"Liebenwalde, Stadt","type":"Stadt"},"district":{"key":"12065","name":"Oberhavel","type":"Landkreis"},"federalState":{"key":"12","name":"Brandenburg"}},{"name":"Groß-Siedlung","postalCode":"16559","locality":"Liebenwalde","municipality":{"key":"12065193","name":"Liebenwalde, Stadt","type":"Stadt"},"district":{"key":"12065","name":"Oberhavel","type":"Landkreis"},"federalState":{"key":"12","name":"Brandenburg"}},{"name":"Hamburger Chaussee","postalCode":"16559","locality":"Liebenwalde","municipality":{"key":"12065193","name":"Liebenwalde, Stadt","type":"Stadt"},"district":{"key":"12065","name":"Oberhavel","type":"Landkreis"},"federalState":{"key":"12","name":"Brandenburg"}},{"name":"Hammerallee","postalCode":"16559","locality":"Liebenwalde","municipality":{"key":"12065193","name":"Liebenwalde, Stadt","type":"Stadt"},"district":{"key":"12065","name":"Oberhavel","type":"Landkreis"},"federalState":{"key":"12","name":"Brandenburg"}},{"name":"Hammerchaussee","postalCode":"16559","locality":"Liebenwalde","municipality":{"key":"12065193","name":"Liebenwalde, Stadt","type":"Stadt"},"district":{"key":"12065","name":"Oberhavel","type":"Landkreis"},"federalState":{"key":"12","name":"Brandenburg"}},{"name":"Häuser am See","postalCode":"16559","locality":"Liebenwalde","municipality":{"key":"12065193","name":"Liebenwalde, Stadt","type":"Stadt"},"district":{"key":"12065","name":"Oberhavel","type":"Landkreis"},"federalState":{"key":"12","name":"Brandenburg"}},{"name":"Havelstr.","postalCode":"16559","locality":"Liebenwalde","municipality":{"key":"12065193","name":"Liebenwalde, Stadt","type":"Stadt"},"district":{"key":"12065","name":"Oberhavel","type":"Landkreis"},"federalState":{"key":"12","name":"Brandenburg"}},{"name":"Heidchen","postalCode":"16559","locality":"Liebenwalde","municipality":{"key":"12065193","name":"Liebenwalde, Stadt","type":"Stadt"},"district":{"key":"12065","name":"Oberhavel","type":"Landkreis"},"federalState":{"key":"12","name":"Brandenburg"}},{"name":"Hirtenberg","postalCode":"16559","locality":"Liebenwalde","municipality":{"key":"12065193","name":"Liebenwalde, Stadt","type":"Stadt"},"district":{"key":"12065","name":"Oberhavel","type":"Landkreis"},"federalState":{"key":"12","name":"Brandenburg"}},{"name":"Höpen","postalCode":"16559","locality":"Liebenwalde","municipality":{"key":"12065193","name":"Liebenwalde, Stadt","type":"Stadt"},"district":{"key":"12065","name":"Oberhavel","type":"Landkreis"},"federalState":{"key":"12","name":"Brandenburg"}},{"name":"Im Hammerbruch","postalCode":"16559","locality":"Liebenwalde","municipality":{"key":"12065193","name":"Liebenwalde, Stadt","type":"Stadt"},"district":{"key":"12065","name":"Oberhavel","type":"Landkreis"},"federalState":{"key":"12","name":"Brandenburg"}},{"name":"Kirchsteig","postalCode":"16559","locality":"Liebenwalde","municipality":{"key":"12065193","name":"Liebenwalde, Stadt","type":"Stadt"},"district":{"key":"12065","name":"Oberhavel","type":"Landkreis"},"federalState":{"key":"12","name":"Brandenburg"}},{"name":"Klein-Siedlung","postalCode":"16559","locality":"Liebenwalde","municipality":{"key":"12065193","name":"Liebenwalde, Stadt","type":"Stadt"},"district":{"key":"12065","name":"Oberhavel","type":"Landkreis"},"federalState":{"key":"12","name":"Brandenburg"}},{"name":"Klosterfelder Chaussee","postalCode":"16559","locality":"Liebenwalde","municipality":{"key":"12065193","name":"Liebenwalde, Stadt","type":"Stadt"},"district":{"key":"12065","name":"Oberhavel","type":"Landkreis"},"federalState":{"key":"12","name":"Brandenburg"}},{"name":"Kreuzbrucher Str.","postalCode":"16559","locality":"Liebenwalde","municipality":{"key":"12065193","name":"Liebenwalde, Stadt","type":"Stadt"},"district":{"key":"12065","name":"Oberhavel","type":"Landkreis"},"federalState":{"key":"12","name":"Brandenburg"}},{"name":"Kurze Str.","postalCode":"16559","locality":"Liebenwalde","municipality":{"key":"12065193","name":"Liebenwalde, Stadt","type":"Stadt"},"district":{"key":"12065","name":"Oberhavel","type":"Landkreis"},"federalState":{"key":"12","name":"Brandenburg"}},{"name":"Ladestr.","postalCode":"16559","locality":"Liebenwalde","municipality":{"key":"12065193","name":"Liebenwalde, Stadt","type":"Stadt"},"district":{"key":"12065","name":"Oberhavel","type":"Landkreis"},"federalState":{"key":"12","name":"Brandenburg"}},{"name":"Liebenthaler Str.","postalCode":"16559","locality":"Liebenwalde","municipality":{"key":"12065193","name":"Liebenwalde, Stadt","type":"Stadt"},"district":{"key":"12065","name":"Oberhavel","type":"Landkreis"},"federalState":{"key":"12","name":"Brandenburg"}},{"name":"Liebenthaler Weg","postalCode":"16559","locality":"Liebenwalde","municipality":{"key":"12065193","name":"Liebenwalde, Stadt","type":"Stadt"},"district":{"key":"12065","name":"Oberhavel","type":"Landkreis"},"federalState":{"key":"12","name":"Brandenburg"}},{"name":"Liebenwalder Schleuse","postalCode":"16559","locality":"Liebenwalde","municipality":{"key":"12065193","name":"Liebenwalde, Stadt","type":"Stadt"},"district":{"key":"12065","name":"Oberhavel","type":"Landkreis"},"federalState":{"key":"12","name":"Brandenburg"}},{"name":"Lindbergsches Feld","postalCode":"16559","locality":"Liebenwalde","municipality":{"key":"12065193","name":"Liebenwalde, Stadt","type":"Stadt"},"district":{"key":"12065","name":"Oberhavel","type":"Landkreis"},"federalState":{"key":"12","name":"Brandenburg"}},{"name":"Lindenstr.","postalCode":"16559","locality":"Liebenwalde","municipality":{"key":"12065193","name":"Liebenwalde, Stadt","type":"Stadt"},"district":{"key":"12065","name":"Oberhavel","type":"Landkreis"},"federalState":{"key":"12","name":"Brandenburg"}},{"name":"Lindenweg","postalCode":"16559","locality":"Liebenwalde","municipality":{"key":"12065193","name":"Liebenwalde, Stadt","type":"Stadt"},"district":{"key":"12065","name":"Oberhavel","type":"Landkreis"},"federalState":{"key":"12","name":"Brandenburg"}},{"name":"Marktplatz","postalCode":"16559","locality":"Liebenwalde","municipality":{"key":"12065193","name":"Liebenwalde, Stadt","type":"Stadt"},"district":{"key":"12065","name":"Oberhavel","type":"Landkreis"},"federalState":{"key":"12","name":"Brandenburg"}},{"name":"Mittelstr.","postalCode":"16559","locality":"Liebenwalde","municipality":{"key":"12065193","name":"Liebenwalde, Stadt","type":"Stadt"},"district":{"key":"12065","name":"Oberhavel","type":"Landkreis"},"federalState":{"key":"12","name":"Brandenburg"}},{"name":"Mittelweg","postalCode":"16559","locality":"Liebenwalde","municipality":{"key":"12065193","name":"Liebenwalde, Stadt","type":"Stadt"},"district":{"key":"12065","name":"Oberhavel","type":"Landkreis"},"federalState":{"key":"12","name":"Brandenburg"}},{"name":"Nassenheider Chaussee","postalCode":"16559","locality":"Liebenwalde","municipality":{"key":"12065193","name":"Liebenwalde, Stadt","type":"Stadt"},"district":{"key":"12065","name":"Oberhavel","type":"Landkreis"},"federalState":{"key":"12","name":"Brandenburg"}},{"name":"Neuholländer Chaussee","postalCode":"16559","locality":"Liebenwalde","municipality":{"key":"12065193","name":"Liebenwalde, Stadt","type":"Stadt"},"district":{"key":"12065","name":"Oberhavel","type":"Landkreis"},"federalState":{"key":"12","name":"Brandenburg"}},{"name":"Oder-Havel-Radweg","postalCode":"16559","locality":"Liebenwalde","municipality":{"key":"12065193","name":"Liebenwalde, Stadt","type":"Stadt"},"district":{"key":"12065","name":"Oberhavel","type":"Landkreis"},"federalState":{"key":"12","name":"Brandenburg"}},{"name":"Pappelweg","postalCode":"16559","locality":"Liebenwalde","municipality":{"key":"12065193","name":"Liebenwalde, Stadt","type":"Stadt"},"district":{"key":"12065","name":"Oberhavel","type":"Landkreis"},"federalState":{"key":"12","name":"Brandenburg"}},{"name":"Parkstr.","postalCode":"16559","locality":"Liebenwalde","municipality":{"key":"12065193","name":"Liebenwalde, Stadt","type":"Stadt"},"district":{"key":"12065","name":"Oberhavel","type":"Landkreis"},"federalState":{"key":"12","name":"Brandenburg"}},{"name":"Poststr.","postalCode":"16559","locality":"Liebenwalde","municipality":{"key":"12065193","name":"Liebenwalde, Stadt","type":"Stadt"},"district":{"key":"12065","name":"Oberhavel","type":"Landkreis"},"federalState":{"key":"12","name":"Brandenburg"}},{"name":"Rehhorster Weg","postalCode":"16559","locality":"Liebenwalde","municipality":{"key":"12065193","name":"Liebenwalde, Stadt","type":"Stadt"},"district":{"key":"12065","name":"Oberhavel","type":"Landkreis"},"federalState":{"key":"12","name":"Brandenburg"}},{"name":"Ringweg","postalCode":"16559","locality":"Liebenwalde","municipality":{"key":"12065193","name":"Liebenwalde, Stadt","type":"Stadt"},"district":{"key":"12065","name":"Oberhavel","type":"Landkreis"},"federalState":{"key":"12","name":"Brandenburg"}},{"name":"Roßgartenweg","postalCode":"16559","locality":"Liebenwalde","municipality":{"key":"12065193","name":"Liebenwalde, Stadt","type":"Stadt"},"district":{"key":"12065","name":"Oberhavel","type":"Landkreis"},"federalState":{"key":"12","name":"Brandenburg"}},{"name":"Rudolf-Breitscheid-Str.","postalCode":"16559","locality":"Liebenwalde","municipality":{"key":"12065193","name":"Liebenwalde, Stadt","type":"Stadt"},"district":{"key":"12065","name":"Oberhavel","type":"Landkreis"},"federalState":{"key":"12","name":"Brandenburg"}},{"name":"Sandberge","postalCode":"16559","locality":"Liebenwalde","municipality":{"key":"12065193","name":"Liebenwalde, Stadt","type":"Stadt"},"district":{"key":"12065","name":"Oberhavel","type":"Landkreis"},"federalState":{"key":"12","name":"Brandenburg"}},{"name":"Seepromenade","postalCode":"16559","locality":"Liebenwalde","municipality":{"key":"12065193","name":"Liebenwalde, Stadt","type":"Stadt"},"district":{"key":"12065","name":"Oberhavel","type":"Landkreis"},"federalState":{"key":"12","name":"Brandenburg"}},{"name":"Seestr.","postalCode":"16559","locality":"Liebenwalde","municipality":{"key":"12065193","name":"Liebenwalde, Stadt","type":"Stadt"},"district":{"key":"12065","name":"Oberhavel","type":"Landkreis"},"federalState":{"key":"12","name":"Brandenburg"}},{"name":"Siedlung","postalCode":"16559","locality":"Liebenwalde","municipality":{"key":"12065193","name":"Liebenwalde, Stadt","type":"Stadt"},"district":{"key":"12065","name":"Oberhavel","type":"Landkreis"},"federalState":{"key":"12","name":"Brandenburg"}},{"name":"Sperberhof","postalCode":"16559","locality":"Liebenwalde","municipality":{"key":"12065193","name":"Liebenwalde, Stadt","type":"Stadt"},"district":{"key":"12065","name":"Oberhavel","type":"Landkreis"},"federalState":{"key":"12","name":"Brandenburg"}},{"name":"Str. der Jugend","postalCode":"16559","locality":"Liebenwalde","municipality":{"key":"12065193","name":"Liebenwalde, Stadt","type":"Stadt"},"district":{"key":"12065","name":"Oberhavel","type":"Landkreis"},"federalState":{"key":"12","name":"Brandenburg"}},{"name":"Str. des Friedens","postalCode":"16559","locality":"Liebenwalde","municipality":{"key":"12065193","name":"Liebenwalde, Stadt","type":"Stadt"},"district":{"key":"12065","name":"Oberhavel","type":"Landkreis"},"federalState":{"key":"12","name":"Brandenburg"}},{"name":"Str. zum Stausee","postalCode":"16559","locality":"Liebenwalde","municipality":{"key":"12065193","name":"Liebenwalde, Stadt","type":"Stadt"},"district":{"key":"12065","name":"Oberhavel","type":"Landkreis"},"federalState":{"key":"12","name":"Brandenburg"}},{"name":"Thürenweg","postalCode":"16559","locality":"Liebenwalde","municipality":{"key":"12065193","name":"Liebenwalde, Stadt","type":"Stadt"},"district":{"key":"12065","name":"Oberhavel","type":"Landkreis"},"federalState":{"key":"12","name":"Brandenburg"}},{"name":"Voßkanal","postalCode":"16559","locality":"Liebenwalde","municipality":{"key":"12065193","name":"Liebenwalde, Stadt","type":"Stadt"},"district":{"key":"12065","name":"Oberhavel","type":"Landkreis"},"federalState":{"key":"12","name":"Brandenburg"}},{"name":"Waldstr.","postalCode":"16559","locality":"Liebenwalde","municipality":{"key":"12065193","name":"Liebenwalde, Stadt","type":"Stadt"},"district":{"key":"12065","name":"Oberhavel","type":"Landkreis"},"federalState":{"key":"12","name":"Brandenburg"}},{"name":"Walterhof","postalCode":"16559","locality":"Liebenwalde","municipality":{"key":"12065193","name":"Liebenwalde, Stadt","type":"Stadt"},"district":{"key":"12065","name":"Oberhavel","type":"Landkreis"},"federalState":{"key":"12","name":"Brandenburg"}},{"name":"Weg zur Badeanstalt","postalCode":"16559","locality":"Liebenwalde","municipality":{"key":"12065193","name":"Liebenwalde, Stadt","type":"Stadt"},"district":{"key":"12065","name":"Oberhavel","type":"Landkreis"},"federalState":{"key":"12","name":"Brandenburg"}},{"name":"Wiesenweg","postalCode":"16559","locality":"Liebenwalde","municipality":{"key":"12065193","name":"Liebenwalde, Stadt","type":"Stadt"},"district":{"key":"12065","name":"Oberhavel","type":"Landkreis"},"federalState":{"key":"12","name":"Brandenburg"}},{"name":"Zehdenicker Chaussee","postalCode":"16559","locality":"Liebenwalde","municipality":{"key":"12065193","name":"Liebenwalde, Stadt","type":"Stadt"},"district":{"key":"12065","name":"Oberhavel","type":"Landkreis"},"federalState":{"key":"12","name":"Brandenburg"}},{"name":"Zehdenicker Str.","postalCode":"16559","locality":"Liebenwalde","municipality":{"key":"12065193","name":"Liebenwalde, Stadt","type":"Stadt"},"district":{"key":"12065","name":"Oberhavel","type":"Landkreis"},"federalState":{"key":"12","name":"Brandenburg"}},]