[{"name":"Am Bungert","postalCode":"54587","locality":"Lissendorf","municipality":{"key":"07233041","name":"Lissendorf","type":"Kreisangehörige_Gemeinde"},"district":{"key":"07233","name":"Vulkaneifel","type":"Landkreis"},"federalState":{"key":"07","name":"Rheinland-Pfalz"}},{"name":"Am Dümpelbach","postalCode":"54587","locality":"Lissendorf","municipality":{"key":"07233041","name":"Lissendorf","type":"Kreisangehörige_Gemeinde"},"district":{"key":"07233","name":"Vulkaneifel","type":"Landkreis"},"federalState":{"key":"07","name":"Rheinland-Pfalz"}},{"name":"Am Ehrenmal","postalCode":"54587","locality":"Lissendorf","municipality":{"key":"07233041","name":"Lissendorf","type":"Kreisangehörige_Gemeinde"},"district":{"key":"07233","name":"Vulkaneifel","type":"Landkreis"},"federalState":{"key":"07","name":"Rheinland-Pfalz"}},{"name":"Am Pool","postalCode":"54587","locality":"Lissendorf","municipality":{"key":"07233041","name":"Lissendorf","type":"Kreisangehörige_Gemeinde"},"district":{"key":"07233","name":"Vulkaneifel","type":"Landkreis"},"federalState":{"key":"07","name":"Rheinland-Pfalz"}},{"name":"Auf den Steinen","postalCode":"54587","locality":"Lissendorf","municipality":{"key":"07233041","name":"Lissendorf","type":"Kreisangehörige_Gemeinde"},"district":{"key":"07233","name":"Vulkaneifel","type":"Landkreis"},"federalState":{"key":"07","name":"Rheinland-Pfalz"}},{"name":"Auf Eich","postalCode":"54587","locality":"Lissendorf","municipality":{"key":"07233041","name":"Lissendorf","type":"Kreisangehörige_Gemeinde"},"district":{"key":"07233","name":"Vulkaneifel","type":"Landkreis"},"federalState":{"key":"07","name":"Rheinland-Pfalz"}},{"name":"Auf Giehberg","postalCode":"54587","locality":"Lissendorf","municipality":{"key":"07233041","name":"Lissendorf","type":"Kreisangehörige_Gemeinde"},"district":{"key":"07233","name":"Vulkaneifel","type":"Landkreis"},"federalState":{"key":"07","name":"Rheinland-Pfalz"}},{"name":"Bahnhofstr.","postalCode":"54587","locality":"Lissendorf","municipality":{"key":"07233041","name":"Lissendorf","type":"Kreisangehörige_Gemeinde"},"district":{"key":"07233","name":"Vulkaneifel","type":"Landkreis"},"federalState":{"key":"07","name":"Rheinland-Pfalz"}},{"name":"Bornwies","postalCode":"54587","locality":"Lissendorf","municipality":{"key":"07233041","name":"Lissendorf","type":"Kreisangehörige_Gemeinde"},"district":{"key":"07233","name":"Vulkaneifel","type":"Landkreis"},"federalState":{"key":"07","name":"Rheinland-Pfalz"}},{"name":"Brunnenstr.","postalCode":"54587","locality":"Lissendorf","municipality":{"key":"07233041","name":"Lissendorf","type":"Kreisangehörige_Gemeinde"},"district":{"key":"07233","name":"Vulkaneifel","type":"Landkreis"},"federalState":{"key":"07","name":"Rheinland-Pfalz"}},{"name":"Burgstr.","postalCode":"54587","locality":"Lissendorf","municipality":{"key":"07233041","name":"Lissendorf","type":"Kreisangehörige_Gemeinde"},"district":{"key":"07233","name":"Vulkaneifel","type":"Landkreis"},"federalState":{"key":"07","name":"Rheinland-Pfalz"}},{"name":"Dionysiusstr.","postalCode":"54587","locality":"Lissendorf","municipality":{"key":"07233041","name":"Lissendorf","type":"Kreisangehörige_Gemeinde"},"district":{"key":"07233","name":"Vulkaneifel","type":"Landkreis"},"federalState":{"key":"07","name":"Rheinland-Pfalz"}},{"name":"Fichtenweg","postalCode":"54587","locality":"Lissendorf","municipality":{"key":"07233041","name":"Lissendorf","type":"Kreisangehörige_Gemeinde"},"district":{"key":"07233","name":"Vulkaneifel","type":"Landkreis"},"federalState":{"key":"07","name":"Rheinland-Pfalz"}},{"name":"Friedhofstr.","postalCode":"54587","locality":"Lissendorf","municipality":{"key":"07233041","name":"Lissendorf","type":"Kreisangehörige_Gemeinde"},"district":{"key":"07233","name":"Vulkaneifel","type":"Landkreis"},"federalState":{"key":"07","name":"Rheinland-Pfalz"}},{"name":"Grausweg","postalCode":"54587","locality":"Lissendorf","municipality":{"key":"07233041","name":"Lissendorf","type":"Kreisangehörige_Gemeinde"},"district":{"key":"07233","name":"Vulkaneifel","type":"Landkreis"},"federalState":{"key":"07","name":"Rheinland-Pfalz"}},{"name":"Hauptstr.","postalCode":"54587","locality":"Lissendorf","municipality":{"key":"07233041","name":"Lissendorf","type":"Kreisangehörige_Gemeinde"},"district":{"key":"07233","name":"Vulkaneifel","type":"Landkreis"},"federalState":{"key":"07","name":"Rheinland-Pfalz"}},{"name":"Heuweg","postalCode":"54587","locality":"Lissendorf","municipality":{"key":"07233041","name":"Lissendorf","type":"Kreisangehörige_Gemeinde"},"district":{"key":"07233","name":"Vulkaneifel","type":"Landkreis"},"federalState":{"key":"07","name":"Rheinland-Pfalz"}},{"name":"Im Langenbaar","postalCode":"54587","locality":"Lissendorf","municipality":{"key":"07233041","name":"Lissendorf","type":"Kreisangehörige_Gemeinde"},"district":{"key":"07233","name":"Vulkaneifel","type":"Landkreis"},"federalState":{"key":"07","name":"Rheinland-Pfalz"}},{"name":"Im Sonnenschein","postalCode":"54587","locality":"Lissendorf","municipality":{"key":"07233041","name":"Lissendorf","type":"Kreisangehörige_Gemeinde"},"district":{"key":"07233","name":"Vulkaneifel","type":"Landkreis"},"federalState":{"key":"07","name":"Rheinland-Pfalz"}},{"name":"Im Wiesengrund","postalCode":"54587","locality":"Lissendorf","municipality":{"key":"07233041","name":"Lissendorf","type":"Kreisangehörige_Gemeinde"},"district":{"key":"07233","name":"Vulkaneifel","type":"Landkreis"},"federalState":{"key":"07","name":"Rheinland-Pfalz"}},{"name":"Karweg","postalCode":"54587","locality":"Lissendorf","municipality":{"key":"07233041","name":"Lissendorf","type":"Kreisangehörige_Gemeinde"},"district":{"key":"07233","name":"Vulkaneifel","type":"Landkreis"},"federalState":{"key":"07","name":"Rheinland-Pfalz"}},{"name":"Kirchstr.","postalCode":"54587","locality":"Lissendorf","municipality":{"key":"07233041","name":"Lissendorf","type":"Kreisangehörige_Gemeinde"},"district":{"key":"07233","name":"Vulkaneifel","type":"Landkreis"},"federalState":{"key":"07","name":"Rheinland-Pfalz"}},{"name":"Mittelweg","postalCode":"54587","locality":"Lissendorf","municipality":{"key":"07233041","name":"Lissendorf","type":"Kreisangehörige_Gemeinde"},"district":{"key":"07233","name":"Vulkaneifel","type":"Landkreis"},"federalState":{"key":"07","name":"Rheinland-Pfalz"}},{"name":"Oberbettinger Str.","postalCode":"54587","locality":"Lissendorf","municipality":{"key":"07233041","name":"Lissendorf","type":"Kreisangehörige_Gemeinde"},"district":{"key":"07233","name":"Vulkaneifel","type":"Landkreis"},"federalState":{"key":"07","name":"Rheinland-Pfalz"}},{"name":"Parkstr.","postalCode":"54587","locality":"Lissendorf","municipality":{"key":"07233041","name":"Lissendorf","type":"Kreisangehörige_Gemeinde"},"district":{"key":"07233","name":"Vulkaneifel","type":"Landkreis"},"federalState":{"key":"07","name":"Rheinland-Pfalz"}},{"name":"Römerstr.","postalCode":"54587","locality":"Lissendorf","municipality":{"key":"07233041","name":"Lissendorf","type":"Kreisangehörige_Gemeinde"},"district":{"key":"07233","name":"Vulkaneifel","type":"Landkreis"},"federalState":{"key":"07","name":"Rheinland-Pfalz"}},{"name":"Rosenstr.","postalCode":"54587","locality":"Lissendorf","municipality":{"key":"07233041","name":"Lissendorf","type":"Kreisangehörige_Gemeinde"},"district":{"key":"07233","name":"Vulkaneifel","type":"Landkreis"},"federalState":{"key":"07","name":"Rheinland-Pfalz"}},{"name":"Schulstr.","postalCode":"54587","locality":"Lissendorf","municipality":{"key":"07233041","name":"Lissendorf","type":"Kreisangehörige_Gemeinde"},"district":{"key":"07233","name":"Vulkaneifel","type":"Landkreis"},"federalState":{"key":"07","name":"Rheinland-Pfalz"}},{"name":"Waldweg","postalCode":"54587","locality":"Lissendorf","municipality":{"key":"07233041","name":"Lissendorf","type":"Kreisangehörige_Gemeinde"},"district":{"key":"07233","name":"Vulkaneifel","type":"Landkreis"},"federalState":{"key":"07","name":"Rheinland-Pfalz"}},{"name":"Wiesentalstr.","postalCode":"54587","locality":"Lissendorf","municipality":{"key":"07233041","name":"Lissendorf","type":"Kreisangehörige_Gemeinde"},"district":{"key":"07233","name":"Vulkaneifel","type":"Landkreis"},"federalState":{"key":"07","name":"Rheinland-Pfalz"}},{"name":"Zu den Leyen","postalCode":"54587","locality":"Lissendorf","municipality":{"key":"07233041","name":"Lissendorf","type":"Kreisangehörige_Gemeinde"},"district":{"key":"07233","name":"Vulkaneifel","type":"Landkreis"},"federalState":{"key":"07","name":"Rheinland-Pfalz"}},{"name":"Zu den Leyen / Kyll-Radweg","postalCode":"54587","locality":"Lissendorf","municipality":{"key":"07233041","name":"Lissendorf","type":"Kreisangehörige_Gemeinde"},"district":{"key":"07233","name":"Vulkaneifel","type":"Landkreis"},"federalState":{"key":"07","name":"Rheinland-Pfalz"}},]