[{"name":"Alte Landstr.","postalCode":"24354","locality":"Kosel","municipality":{"key":"01058090","name":"Kosel","type":"Kreisangehörige_Gemeinde"},"district":{"key":"01058","name":"Rendsburg-Eckernförde","type":"Kreis"},"federalState":{"key":"01","name":"Schleswig-Holstein"}},{"name":"Alter Schulweg","postalCode":"24354","locality":"Kosel","municipality":{"key":"01058090","name":"Kosel","type":"Kreisangehörige_Gemeinde"},"district":{"key":"01058","name":"Rendsburg-Eckernförde","type":"Kreis"},"federalState":{"key":"01","name":"Schleswig-Holstein"}},{"name":"Am Granberg","postalCode":"24354","locality":"Kosel","municipality":{"key":"01058090","name":"Kosel","type":"Kreisangehörige_Gemeinde"},"district":{"key":"01058","name":"Rendsburg-Eckernförde","type":"Kreis"},"federalState":{"key":"01","name":"Schleswig-Holstein"}},{"name":"Am Hünengrab","postalCode":"24354","locality":"Kosel","municipality":{"key":"01058090","name":"Kosel","type":"Kreisangehörige_Gemeinde"},"district":{"key":"01058","name":"Rendsburg-Eckernförde","type":"Kreis"},"federalState":{"key":"01","name":"Schleswig-Holstein"}},{"name":"Am Noor","postalCode":"24354","locality":"Kosel","municipality":{"key":"01058090","name":"Kosel","type":"Kreisangehörige_Gemeinde"},"district":{"key":"01058","name":"Rendsburg-Eckernförde","type":"Kreis"},"federalState":{"key":"01","name":"Schleswig-Holstein"}},{"name":"An der Fähre","postalCode":"24354","locality":"Kosel","municipality":{"key":"01058090","name":"Kosel","type":"Kreisangehörige_Gemeinde"},"district":{"key":"01058","name":"Rendsburg-Eckernförde","type":"Kreis"},"federalState":{"key":"01","name":"Schleswig-Holstein"}},{"name":"An der Kirche","postalCode":"24354","locality":"Kosel","municipality":{"key":"01058090","name":"Kosel","type":"Kreisangehörige_Gemeinde"},"district":{"key":"01058","name":"Rendsburg-Eckernförde","type":"Kreis"},"federalState":{"key":"01","name":"Schleswig-Holstein"}},{"name":"An de Wees","postalCode":"24354","locality":"Kosel","municipality":{"key":"01058090","name":"Kosel","type":"Kreisangehörige_Gemeinde"},"district":{"key":"01058","name":"Rendsburg-Eckernförde","type":"Kreis"},"federalState":{"key":"01","name":"Schleswig-Holstein"}},{"name":"Bäckerweg","postalCode":"24354","locality":"Kosel","municipality":{"key":"01058090","name":"Kosel","type":"Kreisangehörige_Gemeinde"},"district":{"key":"01058","name":"Rendsburg-Eckernförde","type":"Kreis"},"federalState":{"key":"01","name":"Schleswig-Holstein"}},{"name":"Birkenweg","postalCode":"24354","locality":"Kosel","municipality":{"key":"01058090","name":"Kosel","type":"Kreisangehörige_Gemeinde"},"district":{"key":"01058","name":"Rendsburg-Eckernförde","type":"Kreis"},"federalState":{"key":"01","name":"Schleswig-Holstein"}},{"name":"Bohnertfeld","postalCode":"24354","locality":"Kosel","municipality":{"key":"01058090","name":"Kosel","type":"Kreisangehörige_Gemeinde"},"district":{"key":"01058","name":"Rendsburg-Eckernförde","type":"Kreis"},"federalState":{"key":"01","name":"Schleswig-Holstein"}},{"name":"Breekstücken","postalCode":"24354","locality":"Kosel","municipality":{"key":"01058090","name":"Kosel","type":"Kreisangehörige_Gemeinde"},"district":{"key":"01058","name":"Rendsburg-Eckernförde","type":"Kreis"},"federalState":{"key":"01","name":"Schleswig-Holstein"}},{"name":"Buchenweg","postalCode":"24354","locality":"Kosel","municipality":{"key":"01058090","name":"Kosel","type":"Kreisangehörige_Gemeinde"},"district":{"key":"01058","name":"Rendsburg-Eckernförde","type":"Kreis"},"federalState":{"key":"01","name":"Schleswig-Holstein"}},{"name":"Christian-Kock-Weg","postalCode":"24354","locality":"Kosel","municipality":{"key":"01058090","name":"Kosel","type":"Kreisangehörige_Gemeinde"},"district":{"key":"01058","name":"Rendsburg-Eckernförde","type":"Kreis"},"federalState":{"key":"01","name":"Schleswig-Holstein"}},{"name":"Dorfstr.","postalCode":"24354","locality":"Kosel","municipality":{"key":"01058090","name":"Kosel","type":"Kreisangehörige_Gemeinde"},"district":{"key":"01058","name":"Rendsburg-Eckernförde","type":"Kreis"},"federalState":{"key":"01","name":"Schleswig-Holstein"}},{"name":"Eschelsmarker Allee","postalCode":"24354","locality":"Kosel","municipality":{"key":"01058090","name":"Kosel","type":"Kreisangehörige_Gemeinde"},"district":{"key":"01058","name":"Rendsburg-Eckernförde","type":"Kreis"},"federalState":{"key":"01","name":"Schleswig-Holstein"}},{"name":"Fiefhusen","postalCode":"24354","locality":"Kosel","municipality":{"key":"01058090","name":"Kosel","type":"Kreisangehörige_Gemeinde"},"district":{"key":"01058","name":"Rendsburg-Eckernförde","type":"Kreis"},"federalState":{"key":"01","name":"Schleswig-Holstein"}},{"name":"Gallbergring","postalCode":"24354","locality":"Kosel","municipality":{"key":"01058090","name":"Kosel","type":"Kreisangehörige_Gemeinde"},"district":{"key":"01058","name":"Rendsburg-Eckernförde","type":"Kreis"},"federalState":{"key":"01","name":"Schleswig-Holstein"}},{"name":"Haarmoor","postalCode":"24354","locality":"Kosel","municipality":{"key":"01058090","name":"Kosel","type":"Kreisangehörige_Gemeinde"},"district":{"key":"01058","name":"Rendsburg-Eckernförde","type":"Kreis"},"federalState":{"key":"01","name":"Schleswig-Holstein"}},{"name":"Hülsen","postalCode":"24354","locality":"Kosel","municipality":{"key":"01058090","name":"Kosel","type":"Kreisangehörige_Gemeinde"},"district":{"key":"01058","name":"Rendsburg-Eckernförde","type":"Kreis"},"federalState":{"key":"01","name":"Schleswig-Holstein"}},{"name":"Kaiserstr.","postalCode":"24354","locality":"Kosel","municipality":{"key":"01058090","name":"Kosel","type":"Kreisangehörige_Gemeinde"},"district":{"key":"01058","name":"Rendsburg-Eckernförde","type":"Kreis"},"federalState":{"key":"01","name":"Schleswig-Holstein"}},{"name":"Keesredder","postalCode":"24354","locality":"Kosel","municipality":{"key":"01058090","name":"Kosel","type":"Kreisangehörige_Gemeinde"},"district":{"key":"01058","name":"Rendsburg-Eckernförde","type":"Kreis"},"federalState":{"key":"01","name":"Schleswig-Holstein"}},{"name":"Kehlkahr","postalCode":"24354","locality":"Kosel","municipality":{"key":"01058090","name":"Kosel","type":"Kreisangehörige_Gemeinde"},"district":{"key":"01058","name":"Rendsburg-Eckernförde","type":"Kreis"},"federalState":{"key":"01","name":"Schleswig-Holstein"}},{"name":"Kiel-Senkredder","postalCode":"24354","locality":"Kosel","municipality":{"key":"01058090","name":"Kosel","type":"Kreisangehörige_Gemeinde"},"district":{"key":"01058","name":"Rendsburg-Eckernförde","type":"Kreis"},"federalState":{"key":"01","name":"Schleswig-Holstein"}},{"name":"Kornweg","postalCode":"24354","locality":"Kosel","municipality":{"key":"01058090","name":"Kosel","type":"Kreisangehörige_Gemeinde"},"district":{"key":"01058","name":"Rendsburg-Eckernförde","type":"Kreis"},"federalState":{"key":"01","name":"Schleswig-Holstein"}},{"name":"Koselfeld","postalCode":"24354","locality":"Kosel","municipality":{"key":"01058090","name":"Kosel","type":"Kreisangehörige_Gemeinde"},"district":{"key":"01058","name":"Rendsburg-Eckernförde","type":"Kreis"},"federalState":{"key":"01","name":"Schleswig-Holstein"}},{"name":"Kuckuckseck","postalCode":"24354","locality":"Kosel","municipality":{"key":"01058090","name":"Kosel","type":"Kreisangehörige_Gemeinde"},"district":{"key":"01058","name":"Rendsburg-Eckernförde","type":"Kreis"},"federalState":{"key":"01","name":"Schleswig-Holstein"}},{"name":"La-Mézière-Weg","postalCode":"24354","locality":"Kosel","municipality":{"key":"01058090","name":"Kosel","type":"Kreisangehörige_Gemeinde"},"district":{"key":"01058","name":"Rendsburg-Eckernförde","type":"Kreis"},"federalState":{"key":"01","name":"Schleswig-Holstein"}},{"name":"Lärchenkoppel","postalCode":"24354","locality":"Kosel","municipality":{"key":"01058090","name":"Kosel","type":"Kreisangehörige_Gemeinde"},"district":{"key":"01058","name":"Rendsburg-Eckernförde","type":"Kreis"},"federalState":{"key":"01","name":"Schleswig-Holstein"}},{"name":"Listelberg","postalCode":"24354","locality":"Kosel","municipality":{"key":"01058090","name":"Kosel","type":"Kreisangehörige_Gemeinde"},"district":{"key":"01058","name":"Rendsburg-Eckernförde","type":"Kreis"},"federalState":{"key":"01","name":"Schleswig-Holstein"}},{"name":"Lundshof","postalCode":"24354","locality":"Kosel","municipality":{"key":"01058090","name":"Kosel","type":"Kreisangehörige_Gemeinde"},"district":{"key":"01058","name":"Rendsburg-Eckernförde","type":"Kreis"},"federalState":{"key":"01","name":"Schleswig-Holstein"}},{"name":"Marienholzer Weg","postalCode":"24354","locality":"Kosel","municipality":{"key":"01058090","name":"Kosel","type":"Kreisangehörige_Gemeinde"},"district":{"key":"01058","name":"Rendsburg-Eckernförde","type":"Kreis"},"federalState":{"key":"01","name":"Schleswig-Holstein"}},{"name":"Meiereiweg","postalCode":"24354","locality":"Kosel","municipality":{"key":"01058090","name":"Kosel","type":"Kreisangehörige_Gemeinde"},"district":{"key":"01058","name":"Rendsburg-Eckernförde","type":"Kreis"},"federalState":{"key":"01","name":"Schleswig-Holstein"}},{"name":"Missunder Weg","postalCode":"24354","locality":"Kosel","municipality":{"key":"01058090","name":"Kosel","type":"Kreisangehörige_Gemeinde"},"district":{"key":"01058","name":"Rendsburg-Eckernförde","type":"Kreis"},"federalState":{"key":"01","name":"Schleswig-Holstein"}},{"name":"Ornum Holz","postalCode":"24354","locality":"Kosel","municipality":{"key":"01058090","name":"Kosel","type":"Kreisangehörige_Gemeinde"},"district":{"key":"01058","name":"Rendsburg-Eckernförde","type":"Kreis"},"federalState":{"key":"01","name":"Schleswig-Holstein"}},{"name":"Ostring","postalCode":"24354","locality":"Kosel","municipality":{"key":"01058090","name":"Kosel","type":"Kreisangehörige_Gemeinde"},"district":{"key":"01058","name":"Rendsburg-Eckernförde","type":"Kreis"},"federalState":{"key":"01","name":"Schleswig-Holstein"}},{"name":"Pferdekoppel","postalCode":"24354","locality":"Kosel","municipality":{"key":"01058090","name":"Kosel","type":"Kreisangehörige_Gemeinde"},"district":{"key":"01058","name":"Rendsburg-Eckernförde","type":"Kreis"},"federalState":{"key":"01","name":"Schleswig-Holstein"}},{"name":"Raiffeisenweg","postalCode":"24354","locality":"Kosel","municipality":{"key":"01058090","name":"Kosel","type":"Kreisangehörige_Gemeinde"},"district":{"key":"01058","name":"Rendsburg-Eckernförde","type":"Kreis"},"federalState":{"key":"01","name":"Schleswig-Holstein"}},{"name":"Reiherhorst","postalCode":"24354","locality":"Kosel","municipality":{"key":"01058090","name":"Kosel","type":"Kreisangehörige_Gemeinde"},"district":{"key":"01058","name":"Rendsburg-Eckernförde","type":"Kreis"},"federalState":{"key":"01","name":"Schleswig-Holstein"}},{"name":"Rewerkoppel","postalCode":"24354","locality":"Kosel","municipality":{"key":"01058090","name":"Kosel","type":"Kreisangehörige_Gemeinde"},"district":{"key":"01058","name":"Rendsburg-Eckernförde","type":"Kreis"},"federalState":{"key":"01","name":"Schleswig-Holstein"}},{"name":"Ringstr.","postalCode":"24354","locality":"Kosel","municipality":{"key":"01058090","name":"Kosel","type":"Kreisangehörige_Gemeinde"},"district":{"key":"01058","name":"Rendsburg-Eckernförde","type":"Kreis"},"federalState":{"key":"01","name":"Schleswig-Holstein"}},{"name":"Schafskoppel","postalCode":"24354","locality":"Kosel","municipality":{"key":"01058090","name":"Kosel","type":"Kreisangehörige_Gemeinde"},"district":{"key":"01058","name":"Rendsburg-Eckernförde","type":"Kreis"},"federalState":{"key":"01","name":"Schleswig-Holstein"}},{"name":"Schlagballkoppel","postalCode":"24354","locality":"Kosel","municipality":{"key":"01058090","name":"Kosel","type":"Kreisangehörige_Gemeinde"},"district":{"key":"01058","name":"Rendsburg-Eckernförde","type":"Kreis"},"federalState":{"key":"01","name":"Schleswig-Holstein"}},{"name":"Schleiblick","postalCode":"24354","locality":"Kosel","municipality":{"key":"01058090","name":"Kosel","type":"Kreisangehörige_Gemeinde"},"district":{"key":"01058","name":"Rendsburg-Eckernförde","type":"Kreis"},"federalState":{"key":"01","name":"Schleswig-Holstein"}},{"name":"Schleiufer","postalCode":"24354","locality":"Kosel","municipality":{"key":"01058090","name":"Kosel","type":"Kreisangehörige_Gemeinde"},"district":{"key":"01058","name":"Rendsburg-Eckernförde","type":"Kreis"},"federalState":{"key":"01","name":"Schleswig-Holstein"}},{"name":"Schmiederedder","postalCode":"24354","locality":"Kosel","municipality":{"key":"01058090","name":"Kosel","type":"Kreisangehörige_Gemeinde"},"district":{"key":"01058","name":"Rendsburg-Eckernförde","type":"Kreis"},"federalState":{"key":"01","name":"Schleswig-Holstein"}},{"name":"Schwansenweg","postalCode":"24354","locality":"Kosel","municipality":{"key":"01058090","name":"Kosel","type":"Kreisangehörige_Gemeinde"},"district":{"key":"01058","name":"Rendsburg-Eckernförde","type":"Kreis"},"federalState":{"key":"01","name":"Schleswig-Holstein"}},{"name":"Söntschau","postalCode":"24354","locality":"Kosel","municipality":{"key":"01058090","name":"Kosel","type":"Kreisangehörige_Gemeinde"},"district":{"key":"01058","name":"Rendsburg-Eckernförde","type":"Kreis"},"federalState":{"key":"01","name":"Schleswig-Holstein"}},{"name":"Tannenweg","postalCode":"24354","locality":"Kosel","municipality":{"key":"01058090","name":"Kosel","type":"Kreisangehörige_Gemeinde"},"district":{"key":"01058","name":"Rendsburg-Eckernförde","type":"Kreis"},"federalState":{"key":"01","name":"Schleswig-Holstein"}},{"name":"Teichkoppel","postalCode":"24354","locality":"Kosel","municipality":{"key":"01058090","name":"Kosel","type":"Kreisangehörige_Gemeinde"},"district":{"key":"01058","name":"Rendsburg-Eckernförde","type":"Kreis"},"federalState":{"key":"01","name":"Schleswig-Holstein"}},{"name":"Voßkuhl","postalCode":"24354","locality":"Kosel","municipality":{"key":"01058090","name":"Kosel","type":"Kreisangehörige_Gemeinde"},"district":{"key":"01058","name":"Rendsburg-Eckernförde","type":"Kreis"},"federalState":{"key":"01","name":"Schleswig-Holstein"}},{"name":"Wallholzredder","postalCode":"24354","locality":"Kosel","municipality":{"key":"01058090","name":"Kosel","type":"Kreisangehörige_Gemeinde"},"district":{"key":"01058","name":"Rendsburg-Eckernförde","type":"Kreis"},"federalState":{"key":"01","name":"Schleswig-Holstein"}},{"name":"Wesebyer Weg","postalCode":"24354","locality":"Kosel","municipality":{"key":"01058090","name":"Kosel","type":"Kreisangehörige_Gemeinde"},"district":{"key":"01058","name":"Rendsburg-Eckernförde","type":"Kreis"},"federalState":{"key":"01","name":"Schleswig-Holstein"}},{"name":"Zum Strand","postalCode":"24354","locality":"Kosel","municipality":{"key":"01058090","name":"Kosel","type":"Kreisangehörige_Gemeinde"},"district":{"key":"01058","name":"Rendsburg-Eckernförde","type":"Kreis"},"federalState":{"key":"01","name":"Schleswig-Holstein"}},{"name":"Zur Fähre","postalCode":"24354","locality":"Kosel","municipality":{"key":"01058090","name":"Kosel","type":"Kreisangehörige_Gemeinde"},"district":{"key":"01058","name":"Rendsburg-Eckernförde","type":"Kreis"},"federalState":{"key":"01","name":"Schleswig-Holstein"}},]