[{"name":"Am Anger","postalCode":"99955","locality":"Herbsleben","municipality":{"key":"16064022","name":"Herbsleben","type":"Kreisangehörige_Gemeinde"},"district":{"key":"16064","name":"Unstrut-Hainich-Kreis","type":"Landkreis"},"federalState":{"key":"16","name":"Thüringen"}},{"name":"Am Bahnhof","postalCode":"99955","locality":"Herbsleben","municipality":{"key":"16064022","name":"Herbsleben","type":"Kreisangehörige_Gemeinde"},"district":{"key":"16064","name":"Unstrut-Hainich-Kreis","type":"Landkreis"},"federalState":{"key":"16","name":"Thüringen"}},{"name":"Am Dorfgraben","postalCode":"99955","locality":"Herbsleben","municipality":{"key":"16064022","name":"Herbsleben","type":"Kreisangehörige_Gemeinde"},"district":{"key":"16064","name":"Unstrut-Hainich-Kreis","type":"Landkreis"},"federalState":{"key":"16","name":"Thüringen"}},{"name":"Am Fahnerweg","postalCode":"99955","locality":"Herbsleben","municipality":{"key":"16064022","name":"Herbsleben","type":"Kreisangehörige_Gemeinde"},"district":{"key":"16064","name":"Unstrut-Hainich-Kreis","type":"Landkreis"},"federalState":{"key":"16","name":"Thüringen"}},{"name":"Am Friedhof","postalCode":"99955","locality":"Herbsleben","municipality":{"key":"16064022","name":"Herbsleben","type":"Kreisangehörige_Gemeinde"},"district":{"key":"16064","name":"Unstrut-Hainich-Kreis","type":"Landkreis"},"federalState":{"key":"16","name":"Thüringen"}},{"name":"Am Mühlgraben","postalCode":"99955","locality":"Herbsleben","municipality":{"key":"16064022","name":"Herbsleben","type":"Kreisangehörige_Gemeinde"},"district":{"key":"16064","name":"Unstrut-Hainich-Kreis","type":"Landkreis"},"federalState":{"key":"16","name":"Thüringen"}},{"name":"Am Schluftergraben","postalCode":"99955","locality":"Herbsleben","municipality":{"key":"16064022","name":"Herbsleben","type":"Kreisangehörige_Gemeinde"},"district":{"key":"16064","name":"Unstrut-Hainich-Kreis","type":"Landkreis"},"federalState":{"key":"16","name":"Thüringen"}},{"name":"Am Schulgarten","postalCode":"99955","locality":"Herbsleben","municipality":{"key":"16064022","name":"Herbsleben","type":"Kreisangehörige_Gemeinde"},"district":{"key":"16064","name":"Unstrut-Hainich-Kreis","type":"Landkreis"},"federalState":{"key":"16","name":"Thüringen"}},{"name":"Am Sportplatz","postalCode":"99955","locality":"Herbsleben","municipality":{"key":"16064022","name":"Herbsleben","type":"Kreisangehörige_Gemeinde"},"district":{"key":"16064","name":"Unstrut-Hainich-Kreis","type":"Landkreis"},"federalState":{"key":"16","name":"Thüringen"}},{"name":"Am Weinberg","postalCode":"99955","locality":"Herbsleben","municipality":{"key":"16064022","name":"Herbsleben","type":"Kreisangehörige_Gemeinde"},"district":{"key":"16064","name":"Unstrut-Hainich-Kreis","type":"Landkreis"},"federalState":{"key":"16","name":"Thüringen"}},{"name":"An der Hohle","postalCode":"99955","locality":"Herbsleben","municipality":{"key":"16064022","name":"Herbsleben","type":"Kreisangehörige_Gemeinde"},"district":{"key":"16064","name":"Unstrut-Hainich-Kreis","type":"Landkreis"},"federalState":{"key":"16","name":"Thüringen"}},{"name":"Anger","postalCode":"99955","locality":"Herbsleben","municipality":{"key":"16064022","name":"Herbsleben","type":"Kreisangehörige_Gemeinde"},"district":{"key":"16064","name":"Unstrut-Hainich-Kreis","type":"Landkreis"},"federalState":{"key":"16","name":"Thüringen"}},{"name":"Backhausgasse","postalCode":"99955","locality":"Herbsleben","municipality":{"key":"16064022","name":"Herbsleben","type":"Kreisangehörige_Gemeinde"},"district":{"key":"16064","name":"Unstrut-Hainich-Kreis","type":"Landkreis"},"federalState":{"key":"16","name":"Thüringen"}},{"name":"Bahnhofstr.","postalCode":"99955","locality":"Herbsleben","municipality":{"key":"16064022","name":"Herbsleben","type":"Kreisangehörige_Gemeinde"},"district":{"key":"16064","name":"Unstrut-Hainich-Kreis","type":"Landkreis"},"federalState":{"key":"16","name":"Thüringen"}},{"name":"Balthasarstr.","postalCode":"99955","locality":"Herbsleben","municipality":{"key":"16064022","name":"Herbsleben","type":"Kreisangehörige_Gemeinde"},"district":{"key":"16064","name":"Unstrut-Hainich-Kreis","type":"Landkreis"},"federalState":{"key":"16","name":"Thüringen"}},{"name":"Bismarckstr.","postalCode":"99955","locality":"Herbsleben","municipality":{"key":"16064022","name":"Herbsleben","type":"Kreisangehörige_Gemeinde"},"district":{"key":"16064","name":"Unstrut-Hainich-Kreis","type":"Landkreis"},"federalState":{"key":"16","name":"Thüringen"}},{"name":"Dachwiger Weg","postalCode":"99955","locality":"Herbsleben","municipality":{"key":"16064022","name":"Herbsleben","type":"Kreisangehörige_Gemeinde"},"district":{"key":"16064","name":"Unstrut-Hainich-Kreis","type":"Landkreis"},"federalState":{"key":"16","name":"Thüringen"}},{"name":"Diakonatsgasse","postalCode":"99955","locality":"Herbsleben","municipality":{"key":"16064022","name":"Herbsleben","type":"Kreisangehörige_Gemeinde"},"district":{"key":"16064","name":"Unstrut-Hainich-Kreis","type":"Landkreis"},"federalState":{"key":"16","name":"Thüringen"}},{"name":"Döllstädter Str.","postalCode":"99955","locality":"Herbsleben","municipality":{"key":"16064022","name":"Herbsleben","type":"Kreisangehörige_Gemeinde"},"district":{"key":"16064","name":"Unstrut-Hainich-Kreis","type":"Landkreis"},"federalState":{"key":"16","name":"Thüringen"}},{"name":"Dorfstr.","postalCode":"99955","locality":"Herbsleben","municipality":{"key":"16064022","name":"Herbsleben","type":"Kreisangehörige_Gemeinde"},"district":{"key":"16064","name":"Unstrut-Hainich-Kreis","type":"Landkreis"},"federalState":{"key":"16","name":"Thüringen"}},{"name":"Eisfeld","postalCode":"99955","locality":"Herbsleben","municipality":{"key":"16064022","name":"Herbsleben","type":"Kreisangehörige_Gemeinde"},"district":{"key":"16064","name":"Unstrut-Hainich-Kreis","type":"Landkreis"},"federalState":{"key":"16","name":"Thüringen"}},{"name":"Enge Gasse","postalCode":"99955","locality":"Herbsleben","municipality":{"key":"16064022","name":"Herbsleben","type":"Kreisangehörige_Gemeinde"},"district":{"key":"16064","name":"Unstrut-Hainich-Kreis","type":"Landkreis"},"federalState":{"key":"16","name":"Thüringen"}},{"name":"Fahnerweg","postalCode":"99955","locality":"Herbsleben","municipality":{"key":"16064022","name":"Herbsleben","type":"Kreisangehörige_Gemeinde"},"district":{"key":"16064","name":"Unstrut-Hainich-Kreis","type":"Landkreis"},"federalState":{"key":"16","name":"Thüringen"}},{"name":"Freiheitstr.","postalCode":"99955","locality":"Herbsleben","municipality":{"key":"16064022","name":"Herbsleben","type":"Kreisangehörige_Gemeinde"},"district":{"key":"16064","name":"Unstrut-Hainich-Kreis","type":"Landkreis"},"federalState":{"key":"16","name":"Thüringen"}},{"name":"Gebeseer Str.","postalCode":"99955","locality":"Herbsleben","municipality":{"key":"16064022","name":"Herbsleben","type":"Kreisangehörige_Gemeinde"},"district":{"key":"16064","name":"Unstrut-Hainich-Kreis","type":"Landkreis"},"federalState":{"key":"16","name":"Thüringen"}},{"name":"Gothaer Str.","postalCode":"99955","locality":"Herbsleben","municipality":{"key":"16064022","name":"Herbsleben","type":"Kreisangehörige_Gemeinde"},"district":{"key":"16064","name":"Unstrut-Hainich-Kreis","type":"Landkreis"},"federalState":{"key":"16","name":"Thüringen"}},{"name":"Grafengasse","postalCode":"99955","locality":"Herbsleben","municipality":{"key":"16064022","name":"Herbsleben","type":"Kreisangehörige_Gemeinde"},"district":{"key":"16064","name":"Unstrut-Hainich-Kreis","type":"Landkreis"},"federalState":{"key":"16","name":"Thüringen"}},{"name":"Große Arche","postalCode":"99955","locality":"Herbsleben","municipality":{"key":"16064022","name":"Herbsleben","type":"Kreisangehörige_Gemeinde"},"district":{"key":"16064","name":"Unstrut-Hainich-Kreis","type":"Landkreis"},"federalState":{"key":"16","name":"Thüringen"}},{"name":"Grüne Gasse","postalCode":"99955","locality":"Herbsleben","municipality":{"key":"16064022","name":"Herbsleben","type":"Kreisangehörige_Gemeinde"},"district":{"key":"16064","name":"Unstrut-Hainich-Kreis","type":"Landkreis"},"federalState":{"key":"16","name":"Thüringen"}},{"name":"Hauptstr.","postalCode":"99955","locality":"Herbsleben","municipality":{"key":"16064022","name":"Herbsleben","type":"Kreisangehörige_Gemeinde"},"district":{"key":"16064","name":"Unstrut-Hainich-Kreis","type":"Landkreis"},"federalState":{"key":"16","name":"Thüringen"}},{"name":"Henningsgasse","postalCode":"99955","locality":"Herbsleben","municipality":{"key":"16064022","name":"Herbsleben","type":"Kreisangehörige_Gemeinde"},"district":{"key":"16064","name":"Unstrut-Hainich-Kreis","type":"Landkreis"},"federalState":{"key":"16","name":"Thüringen"}},{"name":"Herrengasse","postalCode":"99955","locality":"Herbsleben","municipality":{"key":"16064022","name":"Herbsleben","type":"Kreisangehörige_Gemeinde"},"district":{"key":"16064","name":"Unstrut-Hainich-Kreis","type":"Landkreis"},"federalState":{"key":"16","name":"Thüringen"}},{"name":"In der Aue","postalCode":"99955","locality":"Herbsleben","municipality":{"key":"16064022","name":"Herbsleben","type":"Kreisangehörige_Gemeinde"},"district":{"key":"16064","name":"Unstrut-Hainich-Kreis","type":"Landkreis"},"federalState":{"key":"16","name":"Thüringen"}},{"name":"Katharinenstr.","postalCode":"99955","locality":"Herbsleben","municipality":{"key":"16064022","name":"Herbsleben","type":"Kreisangehörige_Gemeinde"},"district":{"key":"16064","name":"Unstrut-Hainich-Kreis","type":"Landkreis"},"federalState":{"key":"16","name":"Thüringen"}},{"name":"Kiesersgasse","postalCode":"99955","locality":"Herbsleben","municipality":{"key":"16064022","name":"Herbsleben","type":"Kreisangehörige_Gemeinde"},"district":{"key":"16064","name":"Unstrut-Hainich-Kreis","type":"Landkreis"},"federalState":{"key":"16","name":"Thüringen"}},{"name":"Kirchberg","postalCode":"99955","locality":"Herbsleben","municipality":{"key":"16064022","name":"Herbsleben","type":"Kreisangehörige_Gemeinde"},"district":{"key":"16064","name":"Unstrut-Hainich-Kreis","type":"Landkreis"},"federalState":{"key":"16","name":"Thüringen"}},{"name":"Kirchgasse","postalCode":"99955","locality":"Herbsleben","municipality":{"key":"16064022","name":"Herbsleben","type":"Kreisangehörige_Gemeinde"},"district":{"key":"16064","name":"Unstrut-Hainich-Kreis","type":"Landkreis"},"federalState":{"key":"16","name":"Thüringen"}},{"name":"Kirchhof","postalCode":"99955","locality":"Herbsleben","municipality":{"key":"16064022","name":"Herbsleben","type":"Kreisangehörige_Gemeinde"},"district":{"key":"16064","name":"Unstrut-Hainich-Kreis","type":"Landkreis"},"federalState":{"key":"16","name":"Thüringen"}},{"name":"Kleine Arche","postalCode":"99955","locality":"Herbsleben","municipality":{"key":"16064022","name":"Herbsleben","type":"Kreisangehörige_Gemeinde"},"district":{"key":"16064","name":"Unstrut-Hainich-Kreis","type":"Landkreis"},"federalState":{"key":"16","name":"Thüringen"}},{"name":"Kreuzchen","postalCode":"99955","locality":"Herbsleben","municipality":{"key":"16064022","name":"Herbsleben","type":"Kreisangehörige_Gemeinde"},"district":{"key":"16064","name":"Unstrut-Hainich-Kreis","type":"Landkreis"},"federalState":{"key":"16","name":"Thüringen"}},{"name":"Kreuzgasse","postalCode":"99955","locality":"Herbsleben","municipality":{"key":"16064022","name":"Herbsleben","type":"Kreisangehörige_Gemeinde"},"district":{"key":"16064","name":"Unstrut-Hainich-Kreis","type":"Landkreis"},"federalState":{"key":"16","name":"Thüringen"}},{"name":"Mitteltor","postalCode":"99955","locality":"Herbsleben","municipality":{"key":"16064022","name":"Herbsleben","type":"Kreisangehörige_Gemeinde"},"district":{"key":"16064","name":"Unstrut-Hainich-Kreis","type":"Landkreis"},"federalState":{"key":"16","name":"Thüringen"}},{"name":"Möllersgasse","postalCode":"99955","locality":"Herbsleben","municipality":{"key":"16064022","name":"Herbsleben","type":"Kreisangehörige_Gemeinde"},"district":{"key":"16064","name":"Unstrut-Hainich-Kreis","type":"Landkreis"},"federalState":{"key":"16","name":"Thüringen"}},{"name":"Mühlgasse","postalCode":"99955","locality":"Herbsleben","municipality":{"key":"16064022","name":"Herbsleben","type":"Kreisangehörige_Gemeinde"},"district":{"key":"16064","name":"Unstrut-Hainich-Kreis","type":"Landkreis"},"federalState":{"key":"16","name":"Thüringen"}},{"name":"Neue Gasse","postalCode":"99955","locality":"Herbsleben","municipality":{"key":"16064022","name":"Herbsleben","type":"Kreisangehörige_Gemeinde"},"district":{"key":"16064","name":"Unstrut-Hainich-Kreis","type":"Landkreis"},"federalState":{"key":"16","name":"Thüringen"}},{"name":"Oberdorf","postalCode":"99955","locality":"Herbsleben","municipality":{"key":"16064022","name":"Herbsleben","type":"Kreisangehörige_Gemeinde"},"district":{"key":"16064","name":"Unstrut-Hainich-Kreis","type":"Landkreis"},"federalState":{"key":"16","name":"Thüringen"}},{"name":"Pfarrgasse","postalCode":"99955","locality":"Herbsleben","municipality":{"key":"16064022","name":"Herbsleben","type":"Kreisangehörige_Gemeinde"},"district":{"key":"16064","name":"Unstrut-Hainich-Kreis","type":"Landkreis"},"federalState":{"key":"16","name":"Thüringen"}},{"name":"Pfeiffersgasse","postalCode":"99955","locality":"Herbsleben","municipality":{"key":"16064022","name":"Herbsleben","type":"Kreisangehörige_Gemeinde"},"district":{"key":"16064","name":"Unstrut-Hainich-Kreis","type":"Landkreis"},"federalState":{"key":"16","name":"Thüringen"}},{"name":"Ratiborstr.","postalCode":"99955","locality":"Herbsleben","municipality":{"key":"16064022","name":"Herbsleben","type":"Kreisangehörige_Gemeinde"},"district":{"key":"16064","name":"Unstrut-Hainich-Kreis","type":"Landkreis"},"federalState":{"key":"16","name":"Thüringen"}},{"name":"Rosa-Luxemburg-Str.","postalCode":"99955","locality":"Herbsleben","municipality":{"key":"16064022","name":"Herbsleben","type":"Kreisangehörige_Gemeinde"},"district":{"key":"16064","name":"Unstrut-Hainich-Kreis","type":"Landkreis"},"federalState":{"key":"16","name":"Thüringen"}},{"name":"Schloßgasse","postalCode":"99955","locality":"Herbsleben","municipality":{"key":"16064022","name":"Herbsleben","type":"Kreisangehörige_Gemeinde"},"district":{"key":"16064","name":"Unstrut-Hainich-Kreis","type":"Landkreis"},"federalState":{"key":"16","name":"Thüringen"}},{"name":"Schulgasse","postalCode":"99955","locality":"Herbsleben","municipality":{"key":"16064022","name":"Herbsleben","type":"Kreisangehörige_Gemeinde"},"district":{"key":"16064","name":"Unstrut-Hainich-Kreis","type":"Landkreis"},"federalState":{"key":"16","name":"Thüringen"}},{"name":"Seelengrabenweg","postalCode":"99955","locality":"Herbsleben","municipality":{"key":"16064022","name":"Herbsleben","type":"Kreisangehörige_Gemeinde"},"district":{"key":"16064","name":"Unstrut-Hainich-Kreis","type":"Landkreis"},"federalState":{"key":"16","name":"Thüringen"}},{"name":"Spittelgartenweg","postalCode":"99955","locality":"Herbsleben","municipality":{"key":"16064022","name":"Herbsleben","type":"Kreisangehörige_Gemeinde"},"district":{"key":"16064","name":"Unstrut-Hainich-Kreis","type":"Landkreis"},"federalState":{"key":"16","name":"Thüringen"}},{"name":"Tennstedter Str.","postalCode":"99955","locality":"Herbsleben","municipality":{"key":"16064022","name":"Herbsleben","type":"Kreisangehörige_Gemeinde"},"district":{"key":"16064","name":"Unstrut-Hainich-Kreis","type":"Landkreis"},"federalState":{"key":"16","name":"Thüringen"}},{"name":"Tonnaer Weg","postalCode":"99955","locality":"Herbsleben","municipality":{"key":"16064022","name":"Herbsleben","type":"Kreisangehörige_Gemeinde"},"district":{"key":"16064","name":"Unstrut-Hainich-Kreis","type":"Landkreis"},"federalState":{"key":"16","name":"Thüringen"}},{"name":"Untere Backhausgasse","postalCode":"99955","locality":"Herbsleben","municipality":{"key":"16064022","name":"Herbsleben","type":"Kreisangehörige_Gemeinde"},"district":{"key":"16064","name":"Unstrut-Hainich-Kreis","type":"Landkreis"},"federalState":{"key":"16","name":"Thüringen"}},{"name":"Valentin-Thau-Str.","postalCode":"99955","locality":"Herbsleben","municipality":{"key":"16064022","name":"Herbsleben","type":"Kreisangehörige_Gemeinde"},"district":{"key":"16064","name":"Unstrut-Hainich-Kreis","type":"Landkreis"},"federalState":{"key":"16","name":"Thüringen"}},{"name":"Vargulaer Str.","postalCode":"99955","locality":"Herbsleben","municipality":{"key":"16064022","name":"Herbsleben","type":"Kreisangehörige_Gemeinde"},"district":{"key":"16064","name":"Unstrut-Hainich-Kreis","type":"Landkreis"},"federalState":{"key":"16","name":"Thüringen"}},{"name":"Wallgasse","postalCode":"99955","locality":"Herbsleben","municipality":{"key":"16064022","name":"Herbsleben","type":"Kreisangehörige_Gemeinde"},"district":{"key":"16064","name":"Unstrut-Hainich-Kreis","type":"Landkreis"},"federalState":{"key":"16","name":"Thüringen"}},{"name":"Wiesenweg","postalCode":"99955","locality":"Herbsleben","municipality":{"key":"16064022","name":"Herbsleben","type":"Kreisangehörige_Gemeinde"},"district":{"key":"16064","name":"Unstrut-Hainich-Kreis","type":"Landkreis"},"federalState":{"key":"16","name":"Thüringen"}},]