[{"name":"Ahornweg","postalCode":"91244","locality":"Reichenschwand","municipality":{"key":"09574150","name":"Reichenschwand","type":"Kreisangehörige_Gemeinde"},"district":{"key":"09574","name":"Nürnberger Land","type":"Landkreis"},"federalState":{"key":"09","name":"Bayern"}},{"name":"Akeleistr.","postalCode":"91244","locality":"Reichenschwand","municipality":{"key":"09574150","name":"Reichenschwand","type":"Kreisangehörige_Gemeinde"},"district":{"key":"09574","name":"Nürnberger Land","type":"Landkreis"},"federalState":{"key":"09","name":"Bayern"}},{"name":"Altentränke","postalCode":"91244","locality":"Reichenschwand","municipality":{"key":"09574150","name":"Reichenschwand","type":"Kreisangehörige_Gemeinde"},"district":{"key":"09574","name":"Nürnberger Land","type":"Landkreis"},"federalState":{"key":"09","name":"Bayern"}},{"name":"Alter Berg","postalCode":"91244","locality":"Reichenschwand","municipality":{"key":"09574150","name":"Reichenschwand","type":"Kreisangehörige_Gemeinde"},"district":{"key":"09574","name":"Nürnberger Land","type":"Landkreis"},"federalState":{"key":"09","name":"Bayern"}},{"name":"Alter Weg","postalCode":"91244","locality":"Reichenschwand","municipality":{"key":"09574150","name":"Reichenschwand","type":"Kreisangehörige_Gemeinde"},"district":{"key":"09574","name":"Nürnberger Land","type":"Landkreis"},"federalState":{"key":"09","name":"Bayern"}},{"name":"Am Letten","postalCode":"91244","locality":"Reichenschwand","municipality":{"key":"09574150","name":"Reichenschwand","type":"Kreisangehörige_Gemeinde"},"district":{"key":"09574","name":"Nürnberger Land","type":"Landkreis"},"federalState":{"key":"09","name":"Bayern"}},{"name":"Am Moosanger","postalCode":"91244","locality":"Reichenschwand","municipality":{"key":"09574150","name":"Reichenschwand","type":"Kreisangehörige_Gemeinde"},"district":{"key":"09574","name":"Nürnberger Land","type":"Landkreis"},"federalState":{"key":"09","name":"Bayern"}},{"name":"Am Neubruch","postalCode":"91244","locality":"Reichenschwand","municipality":{"key":"09574150","name":"Reichenschwand","type":"Kreisangehörige_Gemeinde"},"district":{"key":"09574","name":"Nürnberger Land","type":"Landkreis"},"federalState":{"key":"09","name":"Bayern"}},{"name":"Am Rotkopf","postalCode":"91244","locality":"Reichenschwand","municipality":{"key":"09574150","name":"Reichenschwand","type":"Kreisangehörige_Gemeinde"},"district":{"key":"09574","name":"Nürnberger Land","type":"Landkreis"},"federalState":{"key":"09","name":"Bayern"}},{"name":"Am Saueracker","postalCode":"91244","locality":"Reichenschwand","municipality":{"key":"09574150","name":"Reichenschwand","type":"Kreisangehörige_Gemeinde"},"district":{"key":"09574","name":"Nürnberger Land","type":"Landkreis"},"federalState":{"key":"09","name":"Bayern"}},{"name":"Am Steinberg","postalCode":"91244","locality":"Reichenschwand","municipality":{"key":"09574150","name":"Reichenschwand","type":"Kreisangehörige_Gemeinde"},"district":{"key":"09574","name":"Nürnberger Land","type":"Landkreis"},"federalState":{"key":"09","name":"Bayern"}},{"name":"Am Windhof","postalCode":"91244","locality":"Reichenschwand","municipality":{"key":"09574150","name":"Reichenschwand","type":"Kreisangehörige_Gemeinde"},"district":{"key":"09574","name":"Nürnberger Land","type":"Landkreis"},"federalState":{"key":"09","name":"Bayern"}},{"name":"Anemonenstr.","postalCode":"91244","locality":"Reichenschwand","municipality":{"key":"09574150","name":"Reichenschwand","type":"Kreisangehörige_Gemeinde"},"district":{"key":"09574","name":"Nürnberger Land","type":"Landkreis"},"federalState":{"key":"09","name":"Bayern"}},{"name":"Anger","postalCode":"91244","locality":"Reichenschwand","municipality":{"key":"09574150","name":"Reichenschwand","type":"Kreisangehörige_Gemeinde"},"district":{"key":"09574","name":"Nürnberger Land","type":"Landkreis"},"federalState":{"key":"09","name":"Bayern"}},{"name":"Bergstr.","postalCode":"91244","locality":"Reichenschwand","municipality":{"key":"09574150","name":"Reichenschwand","type":"Kreisangehörige_Gemeinde"},"district":{"key":"09574","name":"Nürnberger Land","type":"Landkreis"},"federalState":{"key":"09","name":"Bayern"}},{"name":"Birkenweg","postalCode":"91244","locality":"Reichenschwand","municipality":{"key":"09574150","name":"Reichenschwand","type":"Kreisangehörige_Gemeinde"},"district":{"key":"09574","name":"Nürnberger Land","type":"Landkreis"},"federalState":{"key":"09","name":"Bayern"}},{"name":"Blumenstr.","postalCode":"91244","locality":"Reichenschwand","municipality":{"key":"09574150","name":"Reichenschwand","type":"Kreisangehörige_Gemeinde"},"district":{"key":"09574","name":"Nürnberger Land","type":"Landkreis"},"federalState":{"key":"09","name":"Bayern"}},{"name":"Dahlienstr.","postalCode":"91244","locality":"Reichenschwand","municipality":{"key":"09574150","name":"Reichenschwand","type":"Kreisangehörige_Gemeinde"},"district":{"key":"09574","name":"Nürnberger Land","type":"Landkreis"},"federalState":{"key":"09","name":"Bayern"}},{"name":"Dorfstr.","postalCode":"91244","locality":"Reichenschwand","municipality":{"key":"09574150","name":"Reichenschwand","type":"Kreisangehörige_Gemeinde"},"district":{"key":"09574","name":"Nürnberger Land","type":"Landkreis"},"federalState":{"key":"09","name":"Bayern"}},{"name":"Eichenweg","postalCode":"91244","locality":"Reichenschwand","municipality":{"key":"09574150","name":"Reichenschwand","type":"Kreisangehörige_Gemeinde"},"district":{"key":"09574","name":"Nürnberger Land","type":"Landkreis"},"federalState":{"key":"09","name":"Bayern"}},{"name":"Erlenweg","postalCode":"91244","locality":"Reichenschwand","municipality":{"key":"09574150","name":"Reichenschwand","type":"Kreisangehörige_Gemeinde"},"district":{"key":"09574","name":"Nürnberger Land","type":"Landkreis"},"federalState":{"key":"09","name":"Bayern"}},{"name":"Falkenstr.","postalCode":"91244","locality":"Reichenschwand","municipality":{"key":"09574150","name":"Reichenschwand","type":"Kreisangehörige_Gemeinde"},"district":{"key":"09574","name":"Nürnberger Land","type":"Landkreis"},"federalState":{"key":"09","name":"Bayern"}},{"name":"Felsenweg","postalCode":"91244","locality":"Reichenschwand","municipality":{"key":"09574150","name":"Reichenschwand","type":"Kreisangehörige_Gemeinde"},"district":{"key":"09574","name":"Nürnberger Land","type":"Landkreis"},"federalState":{"key":"09","name":"Bayern"}},{"name":"Fichtenweg","postalCode":"91244","locality":"Reichenschwand","municipality":{"key":"09574150","name":"Reichenschwand","type":"Kreisangehörige_Gemeinde"},"district":{"key":"09574","name":"Nürnberger Land","type":"Landkreis"},"federalState":{"key":"09","name":"Bayern"}},{"name":"Flurstr.","postalCode":"91244","locality":"Reichenschwand","municipality":{"key":"09574150","name":"Reichenschwand","type":"Kreisangehörige_Gemeinde"},"district":{"key":"09574","name":"Nürnberger Land","type":"Landkreis"},"federalState":{"key":"09","name":"Bayern"}},{"name":"Föhrenwinkel","postalCode":"91244","locality":"Reichenschwand","municipality":{"key":"09574150","name":"Reichenschwand","type":"Kreisangehörige_Gemeinde"},"district":{"key":"09574","name":"Nürnberger Land","type":"Landkreis"},"federalState":{"key":"09","name":"Bayern"}},{"name":"Fürschwald","postalCode":"91244","locality":"Reichenschwand","municipality":{"key":"09574150","name":"Reichenschwand","type":"Kreisangehörige_Gemeinde"},"district":{"key":"09574","name":"Nürnberger Land","type":"Landkreis"},"federalState":{"key":"09","name":"Bayern"}},{"name":"Hansgörglweg","postalCode":"91244","locality":"Reichenschwand","municipality":{"key":"09574150","name":"Reichenschwand","type":"Kreisangehörige_Gemeinde"},"district":{"key":"09574","name":"Nürnberger Land","type":"Landkreis"},"federalState":{"key":"09","name":"Bayern"}},{"name":"Hersbrucker Str.","postalCode":"91244","locality":"Reichenschwand","municipality":{"key":"09574150","name":"Reichenschwand","type":"Kreisangehörige_Gemeinde"},"district":{"key":"09574","name":"Nürnberger Land","type":"Landkreis"},"federalState":{"key":"09","name":"Bayern"}},{"name":"Hofstr.","postalCode":"91244","locality":"Reichenschwand","municipality":{"key":"09574150","name":"Reichenschwand","type":"Kreisangehörige_Gemeinde"},"district":{"key":"09574","name":"Nürnberger Land","type":"Landkreis"},"federalState":{"key":"09","name":"Bayern"}},{"name":"Höhenweg","postalCode":"91244","locality":"Reichenschwand","municipality":{"key":"09574150","name":"Reichenschwand","type":"Kreisangehörige_Gemeinde"},"district":{"key":"09574","name":"Nürnberger Land","type":"Landkreis"},"federalState":{"key":"09","name":"Bayern"}},{"name":"In der Röd","postalCode":"91244","locality":"Reichenschwand","municipality":{"key":"09574150","name":"Reichenschwand","type":"Kreisangehörige_Gemeinde"},"district":{"key":"09574","name":"Nürnberger Land","type":"Landkreis"},"federalState":{"key":"09","name":"Bayern"}},{"name":"Katzenbühl","postalCode":"91244","locality":"Reichenschwand","municipality":{"key":"09574150","name":"Reichenschwand","type":"Kreisangehörige_Gemeinde"},"district":{"key":"09574","name":"Nürnberger Land","type":"Landkreis"},"federalState":{"key":"09","name":"Bayern"}},{"name":"Kersbacher Weg","postalCode":"91244","locality":"Reichenschwand","municipality":{"key":"09574150","name":"Reichenschwand","type":"Kreisangehörige_Gemeinde"},"district":{"key":"09574","name":"Nürnberger Land","type":"Landkreis"},"federalState":{"key":"09","name":"Bayern"}},{"name":"Kirchstr.","postalCode":"91244","locality":"Reichenschwand","municipality":{"key":"09574150","name":"Reichenschwand","type":"Kreisangehörige_Gemeinde"},"district":{"key":"09574","name":"Nürnberger Land","type":"Landkreis"},"federalState":{"key":"09","name":"Bayern"}},{"name":"Lambacher Str.","postalCode":"91244","locality":"Reichenschwand","municipality":{"key":"09574150","name":"Reichenschwand","type":"Kreisangehörige_Gemeinde"},"district":{"key":"09574","name":"Nürnberger Land","type":"Landkreis"},"federalState":{"key":"09","name":"Bayern"}},{"name":"Lange Wiese","postalCode":"91244","locality":"Reichenschwand","municipality":{"key":"09574150","name":"Reichenschwand","type":"Kreisangehörige_Gemeinde"},"district":{"key":"09574","name":"Nürnberger Land","type":"Landkreis"},"federalState":{"key":"09","name":"Bayern"}},{"name":"Leuzenberger Str.","postalCode":"91244","locality":"Reichenschwand","municipality":{"key":"09574150","name":"Reichenschwand","type":"Kreisangehörige_Gemeinde"},"district":{"key":"09574","name":"Nürnberger Land","type":"Landkreis"},"federalState":{"key":"09","name":"Bayern"}},{"name":"Lilienstr.","postalCode":"91244","locality":"Reichenschwand","municipality":{"key":"09574150","name":"Reichenschwand","type":"Kreisangehörige_Gemeinde"},"district":{"key":"09574","name":"Nürnberger Land","type":"Landkreis"},"federalState":{"key":"09","name":"Bayern"}},{"name":"Nelkenstr.","postalCode":"91244","locality":"Reichenschwand","municipality":{"key":"09574150","name":"Reichenschwand","type":"Kreisangehörige_Gemeinde"},"district":{"key":"09574","name":"Nürnberger Land","type":"Landkreis"},"federalState":{"key":"09","name":"Bayern"}},{"name":"Nürnberger Str.","postalCode":"91244","locality":"Reichenschwand","municipality":{"key":"09574150","name":"Reichenschwand","type":"Kreisangehörige_Gemeinde"},"district":{"key":"09574","name":"Nürnberger Land","type":"Landkreis"},"federalState":{"key":"09","name":"Bayern"}},{"name":"Obere Rödelbergstr.","postalCode":"91244","locality":"Reichenschwand","municipality":{"key":"09574150","name":"Reichenschwand","type":"Kreisangehörige_Gemeinde"},"district":{"key":"09574","name":"Nürnberger Land","type":"Landkreis"},"federalState":{"key":"09","name":"Bayern"}},{"name":"Oberndorfer Str.","postalCode":"91244","locality":"Reichenschwand","municipality":{"key":"09574150","name":"Reichenschwand","type":"Kreisangehörige_Gemeinde"},"district":{"key":"09574","name":"Nürnberger Land","type":"Landkreis"},"federalState":{"key":"09","name":"Bayern"}},{"name":"Rödelbergstr.","postalCode":"91244","locality":"Reichenschwand","municipality":{"key":"09574150","name":"Reichenschwand","type":"Kreisangehörige_Gemeinde"},"district":{"key":"09574","name":"Nürnberger Land","type":"Landkreis"},"federalState":{"key":"09","name":"Bayern"}},{"name":"Rollhofener Weg","postalCode":"91244","locality":"Reichenschwand","municipality":{"key":"09574150","name":"Reichenschwand","type":"Kreisangehörige_Gemeinde"},"district":{"key":"09574","name":"Nürnberger Land","type":"Landkreis"},"federalState":{"key":"09","name":"Bayern"}},{"name":"Rosenstr.","postalCode":"91244","locality":"Reichenschwand","municipality":{"key":"09574150","name":"Reichenschwand","type":"Kreisangehörige_Gemeinde"},"district":{"key":"09574","name":"Nürnberger Land","type":"Landkreis"},"federalState":{"key":"09","name":"Bayern"}},{"name":"Schlossweg","postalCode":"91244","locality":"Reichenschwand","municipality":{"key":"09574150","name":"Reichenschwand","type":"Kreisangehörige_Gemeinde"},"district":{"key":"09574","name":"Nürnberger Land","type":"Landkreis"},"federalState":{"key":"09","name":"Bayern"}},{"name":"Schnaittacher Weg","postalCode":"91244","locality":"Reichenschwand","municipality":{"key":"09574150","name":"Reichenschwand","type":"Kreisangehörige_Gemeinde"},"district":{"key":"09574","name":"Nürnberger Land","type":"Landkreis"},"federalState":{"key":"09","name":"Bayern"}},{"name":"Schneewinkelstr.","postalCode":"91244","locality":"Reichenschwand","municipality":{"key":"09574150","name":"Reichenschwand","type":"Kreisangehörige_Gemeinde"},"district":{"key":"09574","name":"Nürnberger Land","type":"Landkreis"},"federalState":{"key":"09","name":"Bayern"}},{"name":"Schönleite","postalCode":"91244","locality":"Reichenschwand","municipality":{"key":"09574150","name":"Reichenschwand","type":"Kreisangehörige_Gemeinde"},"district":{"key":"09574","name":"Nürnberger Land","type":"Landkreis"},"federalState":{"key":"09","name":"Bayern"}},{"name":"Speikerner Str.","postalCode":"91244","locality":"Reichenschwand","municipality":{"key":"09574150","name":"Reichenschwand","type":"Kreisangehörige_Gemeinde"},"district":{"key":"09574","name":"Nürnberger Land","type":"Landkreis"},"federalState":{"key":"09","name":"Bayern"}},{"name":"Spitzenbaum","postalCode":"91244","locality":"Reichenschwand","municipality":{"key":"09574150","name":"Reichenschwand","type":"Kreisangehörige_Gemeinde"},"district":{"key":"09574","name":"Nürnberger Land","type":"Landkreis"},"federalState":{"key":"09","name":"Bayern"}},{"name":"Tannenweg","postalCode":"91244","locality":"Reichenschwand","municipality":{"key":"09574150","name":"Reichenschwand","type":"Kreisangehörige_Gemeinde"},"district":{"key":"09574","name":"Nürnberger Land","type":"Landkreis"},"federalState":{"key":"09","name":"Bayern"}},{"name":"Tulpenweg","postalCode":"91244","locality":"Reichenschwand","municipality":{"key":"09574150","name":"Reichenschwand","type":"Kreisangehörige_Gemeinde"},"district":{"key":"09574","name":"Nürnberger Land","type":"Landkreis"},"federalState":{"key":"09","name":"Bayern"}},{"name":"Ulmenstr.","postalCode":"91244","locality":"Reichenschwand","municipality":{"key":"09574150","name":"Reichenschwand","type":"Kreisangehörige_Gemeinde"},"district":{"key":"09574","name":"Nürnberger Land","type":"Landkreis"},"federalState":{"key":"09","name":"Bayern"}},{"name":"Veilchenstr.","postalCode":"91244","locality":"Reichenschwand","municipality":{"key":"09574150","name":"Reichenschwand","type":"Kreisangehörige_Gemeinde"},"district":{"key":"09574","name":"Nürnberger Land","type":"Landkreis"},"federalState":{"key":"09","name":"Bayern"}},{"name":"Von-Furtenbach-Str.","postalCode":"91244","locality":"Reichenschwand","municipality":{"key":"09574150","name":"Reichenschwand","type":"Kreisangehörige_Gemeinde"},"district":{"key":"09574","name":"Nürnberger Land","type":"Landkreis"},"federalState":{"key":"09","name":"Bayern"}},{"name":"Waldstr.","postalCode":"91244","locality":"Reichenschwand","municipality":{"key":"09574150","name":"Reichenschwand","type":"Kreisangehörige_Gemeinde"},"district":{"key":"09574","name":"Nürnberger Land","type":"Landkreis"},"federalState":{"key":"09","name":"Bayern"}},{"name":"Weidenweg","postalCode":"91244","locality":"Reichenschwand","municipality":{"key":"09574150","name":"Reichenschwand","type":"Kreisangehörige_Gemeinde"},"district":{"key":"09574","name":"Nürnberger Land","type":"Landkreis"},"federalState":{"key":"09","name":"Bayern"}},{"name":"Weißenbacher Weg","postalCode":"91244","locality":"Reichenschwand","municipality":{"key":"09574150","name":"Reichenschwand","type":"Kreisangehörige_Gemeinde"},"district":{"key":"09574","name":"Nürnberger Land","type":"Landkreis"},"federalState":{"key":"09","name":"Bayern"}},{"name":"Ziegeleistr.","postalCode":"91244","locality":"Reichenschwand","municipality":{"key":"09574150","name":"Reichenschwand","type":"Kreisangehörige_Gemeinde"},"district":{"key":"09574","name":"Nürnberger Land","type":"Landkreis"},"federalState":{"key":"09","name":"Bayern"}},{"name":"Zum Kreuzbühl","postalCode":"91244","locality":"Reichenschwand","municipality":{"key":"09574150","name":"Reichenschwand","type":"Kreisangehörige_Gemeinde"},"district":{"key":"09574","name":"Nürnberger Land","type":"Landkreis"},"federalState":{"key":"09","name":"Bayern"}},{"name":"Zum Seeanger","postalCode":"91244","locality":"Reichenschwand","municipality":{"key":"09574150","name":"Reichenschwand","type":"Kreisangehörige_Gemeinde"},"district":{"key":"09574","name":"Nürnberger Land","type":"Landkreis"},"federalState":{"key":"09","name":"Bayern"}},]