[{"key":"10091942","name":"Aatalstrasse","postalCode":"9200","locality":"Gossau SG","commune":{"key":"3443","name":"Gossau (SG)","shortName":"Gossau (SG)"},"district":{"key":"1721","name":"Wahlkreis St. Gallen"},"canton":{"key":"17","code":"SG","name":"St. Gallen"},"status":"Real"},{"key":"10234096","name":"Aatalweg","postalCode":"9200","locality":"Gossau SG","commune":{"key":"3443","name":"Gossau (SG)","shortName":"Gossau (SG)"},"district":{"key":"1721","name":"Wahlkreis St. Gallen"},"canton":{"key":"17","code":"SG","name":"St. Gallen"},"status":"Real"},{"key":"10234100","name":"Aelplistrasse","postalCode":"9200","locality":"Gossau SG","commune":{"key":"3443","name":"Gossau (SG)","shortName":"Gossau (SG)"},"district":{"key":"1721","name":"Wahlkreis St. Gallen"},"canton":{"key":"17","code":"SG","name":"St. Gallen"},"status":"Real"},{"key":"10069084","name":"Ahornstrasse","postalCode":"9200","locality":"Gossau SG","commune":{"key":"3443","name":"Gossau (SG)","shortName":"Gossau (SG)"},"district":{"key":"1721","name":"Wahlkreis St. Gallen"},"canton":{"key":"17","code":"SG","name":"St. Gallen"},"status":"Real"},{"key":"10181395","name":"Albertschwil","postalCode":"9200","locality":"Gossau SG","commune":{"key":"3443","name":"Gossau (SG)","shortName":"Gossau (SG)"},"district":{"key":"1721","name":"Wahlkreis St. Gallen"},"canton":{"key":"17","code":"SG","name":"St. Gallen"},"status":"Real"},{"key":"10234103","name":"Albertschwilerstrasse","postalCode":"9200","locality":"Gossau SG","commune":{"key":"3443","name":"Gossau (SG)","shortName":"Gossau (SG)"},"district":{"key":"1721","name":"Wahlkreis St. Gallen"},"canton":{"key":"17","code":"SG","name":"St. Gallen"},"status":"Real"},{"key":"10234107","name":"Allmendstrasse","postalCode":"9200","locality":"Gossau SG","commune":{"key":"3443","name":"Gossau (SG)","shortName":"Gossau (SG)"},"district":{"key":"1721","name":"Wahlkreis St. Gallen"},"canton":{"key":"17","code":"SG","name":"St. Gallen"},"status":"Real"},{"key":"10234113","name":"Alte Anschwilerstrasse","postalCode":"9200","locality":"Gossau SG","commune":{"key":"3443","name":"Gossau (SG)","shortName":"Gossau (SG)"},"district":{"key":"1721","name":"Wahlkreis St. Gallen"},"canton":{"key":"17","code":"SG","name":"St. Gallen"},"status":"Real"},{"key":"10234117","name":"Alte Herisauerstrasse","postalCode":"9200","locality":"Gossau SG","commune":{"key":"3443","name":"Gossau (SG)","shortName":"Gossau (SG)"},"district":{"key":"1721","name":"Wahlkreis St. Gallen"},"canton":{"key":"17","code":"SG","name":"St. Gallen"},"status":"Real"},{"key":"10234125","name":"Alte Quellenhofstrasse","postalCode":"9200","locality":"Gossau SG","commune":{"key":"3443","name":"Gossau (SG)","shortName":"Gossau (SG)"},"district":{"key":"1721","name":"Wahlkreis St. Gallen"},"canton":{"key":"17","code":"SG","name":"St. Gallen"},"status":"Real"},{"key":"10234129","name":"Altrichweg","postalCode":"9200","locality":"Gossau SG","commune":{"key":"3443","name":"Gossau (SG)","shortName":"Gossau (SG)"},"district":{"key":"1721","name":"Wahlkreis St. Gallen"},"canton":{"key":"17","code":"SG","name":"St. Gallen"},"status":"Real"},{"key":"10030579","name":"Am Gozenberg","postalCode":"9200","locality":"Gossau SG","commune":{"key":"3443","name":"Gossau (SG)","shortName":"Gossau (SG)"},"district":{"key":"1721","name":"Wahlkreis St. Gallen"},"canton":{"key":"17","code":"SG","name":"St. Gallen"},"status":"Real"},{"key":"10091943","name":"Am Hirschberg","postalCode":"9200","locality":"Gossau SG","commune":{"key":"3443","name":"Gossau (SG)","shortName":"Gossau (SG)"},"district":{"key":"1721","name":"Wahlkreis St. Gallen"},"canton":{"key":"17","code":"SG","name":"St. Gallen"},"status":"Real"},{"key":"10126437","name":"Am Rosenhügel","postalCode":"9200","locality":"Gossau SG","commune":{"key":"3443","name":"Gossau (SG)","shortName":"Gossau (SG)"},"district":{"key":"1721","name":"Wahlkreis St. Gallen"},"canton":{"key":"17","code":"SG","name":"St. Gallen"},"status":"Real"},{"key":"10070172","name":"Amselstrasse","postalCode":"9200","locality":"Gossau SG","commune":{"key":"3443","name":"Gossau (SG)","shortName":"Gossau (SG)"},"district":{"key":"1721","name":"Wahlkreis St. Gallen"},"canton":{"key":"17","code":"SG","name":"St. Gallen"},"status":"Real"},{"key":"10030580","name":"Andwilerstrasse","postalCode":"9200","locality":"Gossau SG","commune":{"key":"3443","name":"Gossau (SG)","shortName":"Gossau (SG)"},"district":{"key":"1721","name":"Wahlkreis St. Gallen"},"canton":{"key":"17","code":"SG","name":"St. Gallen"},"status":"Real"},{"key":"10234133","name":"Anschwilenstrasse","postalCode":"9200","locality":"Gossau SG","commune":{"key":"3443","name":"Gossau (SG)","shortName":"Gossau (SG)"},"district":{"key":"1721","name":"Wahlkreis St. Gallen"},"canton":{"key":"17","code":"SG","name":"St. Gallen"},"status":"Real"},{"key":"10250044","name":"Arneggerstrasse","postalCode":"9200","locality":"Gossau SG","commune":{"key":"3443","name":"Gossau (SG)","shortName":"Gossau (SG)"},"district":{"key":"1721","name":"Wahlkreis St. Gallen"},"canton":{"key":"17","code":"SG","name":"St. Gallen"},"status":"Real"},{"key":"10146714","name":"Arvenstrasse","postalCode":"9200","locality":"Gossau SG","commune":{"key":"3443","name":"Gossau (SG)","shortName":"Gossau (SG)"},"district":{"key":"1721","name":"Wahlkreis St. Gallen"},"canton":{"key":"17","code":"SG","name":"St. Gallen"},"status":"Real"},{"key":"10234137","name":"Auelenweg","postalCode":"9200","locality":"Gossau SG","commune":{"key":"3443","name":"Gossau (SG)","shortName":"Gossau (SG)"},"district":{"key":"1721","name":"Wahlkreis St. Gallen"},"canton":{"key":"17","code":"SG","name":"St. Gallen"},"status":"Real"},{"key":"10234141","name":"Austrasse","postalCode":"9200","locality":"Gossau SG","commune":{"key":"3443","name":"Gossau (SG)","shortName":"Gossau (SG)"},"district":{"key":"1721","name":"Wahlkreis St. Gallen"},"canton":{"key":"17","code":"SG","name":"St. Gallen"},"status":"Real"},{"key":"10031488","name":"Bächigen","postalCode":"9200","locality":"Gossau SG","commune":{"key":"3443","name":"Gossau (SG)","shortName":"Gossau (SG)"},"district":{"key":"1721","name":"Wahlkreis St. Gallen"},"canton":{"key":"17","code":"SG","name":"St. Gallen"},"status":"Real"},{"key":"10225766","name":"Bächigenstrasse","postalCode":"9200","locality":"Gossau SG","commune":{"key":"3443","name":"Gossau (SG)","shortName":"Gossau (SG)"},"district":{"key":"1721","name":"Wahlkreis St. Gallen"},"canton":{"key":"17","code":"SG","name":"St. Gallen"},"status":"Real"},{"key":"10030581","name":"Bachstrasse","postalCode":"9200","locality":"Gossau SG","commune":{"key":"3443","name":"Gossau (SG)","shortName":"Gossau (SG)"},"district":{"key":"1721","name":"Wahlkreis St. Gallen"},"canton":{"key":"17","code":"SG","name":"St. Gallen"},"status":"Real"},{"key":"10167570","name":"Bachwisenstrasse","postalCode":"9200","locality":"Gossau SG","commune":{"key":"3443","name":"Gossau (SG)","shortName":"Gossau (SG)"},"district":{"key":"1721","name":"Wahlkreis St. Gallen"},"canton":{"key":"17","code":"SG","name":"St. Gallen"},"status":"Real"},{"key":"10234149","name":"Bachwisenweg","postalCode":"9200","locality":"Gossau SG","commune":{"key":"3443","name":"Gossau (SG)","shortName":"Gossau (SG)"},"district":{"key":"1721","name":"Wahlkreis St. Gallen"},"canton":{"key":"17","code":"SG","name":"St. Gallen"},"status":"Real"},{"key":"10030582","name":"Badweg","postalCode":"9200","locality":"Gossau SG","commune":{"key":"3443","name":"Gossau (SG)","shortName":"Gossau (SG)"},"district":{"key":"1721","name":"Wahlkreis St. Gallen"},"canton":{"key":"17","code":"SG","name":"St. Gallen"},"status":"Real"},{"key":"10091944","name":"Bahnhof","postalCode":"9200","locality":"Gossau SG","commune":{"key":"3443","name":"Gossau (SG)","shortName":"Gossau (SG)"},"district":{"key":"1721","name":"Wahlkreis St. Gallen"},"canton":{"key":"17","code":"SG","name":"St. Gallen"},"status":"Real"},{"key":"10170293","name":"Bahnhofplatz","postalCode":"9200","locality":"Gossau SG","commune":{"key":"3443","name":"Gossau (SG)","shortName":"Gossau (SG)"},"district":{"key":"1721","name":"Wahlkreis St. Gallen"},"canton":{"key":"17","code":"SG","name":"St. Gallen"},"status":"Real"},{"key":"10234153","name":"Bahnhofplatzstrasse","postalCode":"9200","locality":"Gossau SG","commune":{"key":"3443","name":"Gossau (SG)","shortName":"Gossau (SG)"},"district":{"key":"1721","name":"Wahlkreis St. Gallen"},"canton":{"key":"17","code":"SG","name":"St. Gallen"},"status":"Real"},{"key":"10030583","name":"Bahnhofstrasse","postalCode":"9200","locality":"Gossau SG","commune":{"key":"3443","name":"Gossau (SG)","shortName":"Gossau (SG)"},"district":{"key":"1721","name":"Wahlkreis St. Gallen"},"canton":{"key":"17","code":"SG","name":"St. Gallen"},"status":"Real"},{"key":"10234169","name":"Baumgartenweg","postalCode":"9200","locality":"Gossau SG","commune":{"key":"3443","name":"Gossau (SG)","shortName":"Gossau (SG)"},"district":{"key":"1721","name":"Wahlkreis St. Gallen"},"canton":{"key":"17","code":"SG","name":"St. Gallen"},"status":"Real"},{"key":"10070174","name":"Bedastrasse","postalCode":"9200","locality":"Gossau SG","commune":{"key":"3443","name":"Gossau (SG)","shortName":"Gossau (SG)"},"district":{"key":"1721","name":"Wahlkreis St. Gallen"},"canton":{"key":"17","code":"SG","name":"St. Gallen"},"status":"Real"},{"key":"10191096","name":"Bergau","postalCode":"9200","locality":"Gossau SG","commune":{"key":"3443","name":"Gossau (SG)","shortName":"Gossau (SG)"},"district":{"key":"1721","name":"Wahlkreis St. Gallen"},"canton":{"key":"17","code":"SG","name":"St. Gallen"},"status":"Real"},{"key":"10250702","name":"Bergaustrasse","postalCode":"9200","locality":"Gossau SG","commune":{"key":"3443","name":"Gossau (SG)","shortName":"Gossau (SG)"},"district":{"key":"1721","name":"Wahlkreis St. Gallen"},"canton":{"key":"17","code":"SG","name":"St. Gallen"},"status":"Real"},{"key":"10058669","name":"Berghof","postalCode":"9200","locality":"Gossau SG","commune":{"key":"3443","name":"Gossau (SG)","shortName":"Gossau (SG)"},"district":{"key":"1721","name":"Wahlkreis St. Gallen"},"canton":{"key":"17","code":"SG","name":"St. Gallen"},"status":"Real"},{"key":"10234173","name":"Berghofweg","postalCode":"9200","locality":"Gossau SG","commune":{"key":"3443","name":"Gossau (SG)","shortName":"Gossau (SG)"},"district":{"key":"1721","name":"Wahlkreis St. Gallen"},"canton":{"key":"17","code":"SG","name":"St. Gallen"},"status":"Real"},{"key":"10181396","name":"Bergstrasse","postalCode":"9200","locality":"Gossau SG","commune":{"key":"3443","name":"Gossau (SG)","shortName":"Gossau (SG)"},"district":{"key":"1721","name":"Wahlkreis St. Gallen"},"canton":{"key":"17","code":"SG","name":"St. Gallen"},"status":"Real"},{"key":"10091945","name":"Bergweidstrasse","postalCode":"9200","locality":"Gossau SG","commune":{"key":"3443","name":"Gossau (SG)","shortName":"Gossau (SG)"},"district":{"key":"1721","name":"Wahlkreis St. Gallen"},"canton":{"key":"17","code":"SG","name":"St. Gallen"},"status":"Real"},{"key":"10234177","name":"Bermestrasse","postalCode":"9200","locality":"Gossau SG","commune":{"key":"3443","name":"Gossau (SG)","shortName":"Gossau (SG)"},"district":{"key":"1721","name":"Wahlkreis St. Gallen"},"canton":{"key":"17","code":"SG","name":"St. Gallen"},"status":"Real"},{"key":"10030584","name":"Birkenstrasse","postalCode":"9200","locality":"Gossau SG","commune":{"key":"3443","name":"Gossau (SG)","shortName":"Gossau (SG)"},"district":{"key":"1721","name":"Wahlkreis St. Gallen"},"canton":{"key":"17","code":"SG","name":"St. Gallen"},"status":"Real"},{"key":"10191378","name":"Bischofszellerstrasse","postalCode":"9200","locality":"Gossau SG","commune":{"key":"3443","name":"Gossau (SG)","shortName":"Gossau (SG)"},"district":{"key":"1721","name":"Wahlkreis St. Gallen"},"canton":{"key":"17","code":"SG","name":"St. Gallen"},"status":"Real"},{"key":"10030585","name":"Bluemenau","postalCode":"9200","locality":"Gossau SG","commune":{"key":"3443","name":"Gossau (SG)","shortName":"Gossau (SG)"},"district":{"key":"1721","name":"Wahlkreis St. Gallen"},"canton":{"key":"17","code":"SG","name":"St. Gallen"},"status":"Real"},{"key":"10030589","name":"Böl","postalCode":"9200","locality":"Gossau SG","commune":{"key":"3443","name":"Gossau (SG)","shortName":"Gossau (SG)"},"district":{"key":"1721","name":"Wahlkreis St. Gallen"},"canton":{"key":"17","code":"SG","name":"St. Gallen"},"status":"Real"},{"key":"10234185","name":"Bölstrasse","postalCode":"9200","locality":"Gossau SG","commune":{"key":"3443","name":"Gossau (SG)","shortName":"Gossau (SG)"},"district":{"key":"1721","name":"Wahlkreis St. Gallen"},"canton":{"key":"17","code":"SG","name":"St. Gallen"},"status":"Real"},{"key":"10030586","name":"Bot-Künzle-Strasse","postalCode":"9200","locality":"Gossau SG","commune":{"key":"3443","name":"Gossau (SG)","shortName":"Gossau (SG)"},"district":{"key":"1721","name":"Wahlkreis St. Gallen"},"canton":{"key":"17","code":"SG","name":"St. Gallen"},"status":"Real"},{"key":"10091946","name":"Brauereistrasse","postalCode":"9200","locality":"Gossau SG","commune":{"key":"3443","name":"Gossau (SG)","shortName":"Gossau (SG)"},"district":{"key":"1721","name":"Wahlkreis St. Gallen"},"canton":{"key":"17","code":"SG","name":"St. Gallen"},"status":"Real"},{"key":"10091940","name":"Breitfeld","postalCode":"9200","locality":"Gossau SG","commune":{"key":"3443","name":"Gossau (SG)","shortName":"Gossau (SG)"},"district":{"key":"1721","name":"Wahlkreis St. Gallen"},"canton":{"key":"17","code":"SG","name":"St. Gallen"},"status":"Real"},{"key":"10234189","name":"Breitfeldstrasse","postalCode":"9200","locality":"Gossau SG","commune":{"key":"3443","name":"Gossau (SG)","shortName":"Gossau (SG)"},"district":{"key":"1721","name":"Wahlkreis St. Gallen"},"canton":{"key":"17","code":"SG","name":"St. Gallen"},"status":"Real"},{"key":"10249764","name":"Breitfeldweg","postalCode":"9200","locality":"Gossau SG","commune":{"key":"3443","name":"Gossau (SG)","shortName":"Gossau (SG)"},"district":{"key":"1721","name":"Wahlkreis St. Gallen"},"canton":{"key":"17","code":"SG","name":"St. Gallen"},"status":"Real"},{"key":"10070175","name":"Brüewil","postalCode":"9200","locality":"Gossau SG","commune":{"key":"3443","name":"Gossau (SG)","shortName":"Gossau (SG)"},"district":{"key":"1721","name":"Wahlkreis St. Gallen"},"canton":{"key":"17","code":"SG","name":"St. Gallen"},"status":"Real"},{"key":"10056870","name":"Bruggwis","postalCode":"9200","locality":"Gossau SG","commune":{"key":"3443","name":"Gossau (SG)","shortName":"Gossau (SG)"},"district":{"key":"1721","name":"Wahlkreis St. Gallen"},"canton":{"key":"17","code":"SG","name":"St. Gallen"},"status":"Real"},{"key":"10234197","name":"Bruggwisstrasse","postalCode":"9200","locality":"Gossau SG","commune":{"key":"3443","name":"Gossau (SG)","shortName":"Gossau (SG)"},"district":{"key":"1721","name":"Wahlkreis St. Gallen"},"canton":{"key":"17","code":"SG","name":"St. Gallen"},"status":"Real"},{"key":"10234201","name":"Bruggwisweg","postalCode":"9200","locality":"Gossau SG","commune":{"key":"3443","name":"Gossau (SG)","shortName":"Gossau (SG)"},"district":{"key":"1721","name":"Wahlkreis St. Gallen"},"canton":{"key":"17","code":"SG","name":"St. Gallen"},"status":"Real"},{"key":"10030587","name":"Brunnenstrasse","postalCode":"9200","locality":"Gossau SG","commune":{"key":"3443","name":"Gossau (SG)","shortName":"Gossau (SG)"},"district":{"key":"1721","name":"Wahlkreis St. Gallen"},"canton":{"key":"17","code":"SG","name":"St. Gallen"},"status":"Real"},{"key":"10110623","name":"Buech","postalCode":"9200","locality":"Gossau SG","commune":{"key":"3443","name":"Gossau (SG)","shortName":"Gossau (SG)"},"district":{"key":"1721","name":"Wahlkreis St. Gallen"},"canton":{"key":"17","code":"SG","name":"St. Gallen"},"status":"Real"},{"key":"10258952","name":"Buechenwald","postalCode":"9200","locality":"Gossau SG","commune":{"key":"3443","name":"Gossau (SG)","shortName":"Gossau (SG)"},"district":{"key":"1721","name":"Wahlkreis St. Gallen"},"canton":{"key":"17","code":"SG","name":"St. Gallen"},"status":"Real"},{"key":"10234209","name":"Buechenwaldstrasse","postalCode":"9200","locality":"Gossau SG","commune":{"key":"3443","name":"Gossau (SG)","shortName":"Gossau (SG)"},"district":{"key":"1721","name":"Wahlkreis St. Gallen"},"canton":{"key":"17","code":"SG","name":"St. Gallen"},"status":"Real"},{"key":"10234213","name":"Buechenwaldweg","postalCode":"9200","locality":"Gossau SG","commune":{"key":"3443","name":"Gossau (SG)","shortName":"Gossau (SG)"},"district":{"key":"1721","name":"Wahlkreis St. Gallen"},"canton":{"key":"17","code":"SG","name":"St. Gallen"},"status":"Real"},{"key":"10234217","name":"Buechweg","postalCode":"9200","locality":"Gossau SG","commune":{"key":"3443","name":"Gossau (SG)","shortName":"Gossau (SG)"},"district":{"key":"1721","name":"Wahlkreis St. Gallen"},"canton":{"key":"17","code":"SG","name":"St. Gallen"},"status":"Real"},{"key":"10126152","name":"Büel","postalCode":"9200","locality":"Gossau SG","commune":{"key":"3443","name":"Gossau (SG)","shortName":"Gossau (SG)"},"district":{"key":"1721","name":"Wahlkreis St. Gallen"},"canton":{"key":"17","code":"SG","name":"St. Gallen"},"status":"Real"},{"key":"10091947","name":"Büelstrasse","postalCode":"9200","locality":"Gossau SG","commune":{"key":"3443","name":"Gossau (SG)","shortName":"Gossau (SG)"},"district":{"key":"1721","name":"Wahlkreis St. Gallen"},"canton":{"key":"17","code":"SG","name":"St. Gallen"},"status":"Real"},{"key":"10181397","name":"Büelwiesstrasse","postalCode":"9200","locality":"Gossau SG","commune":{"key":"3443","name":"Gossau (SG)","shortName":"Gossau (SG)"},"district":{"key":"1721","name":"Wahlkreis St. Gallen"},"canton":{"key":"17","code":"SG","name":"St. Gallen"},"status":"Real"},{"key":"10030588","name":"Burgstrasse","postalCode":"9200","locality":"Gossau SG","commune":{"key":"3443","name":"Gossau (SG)","shortName":"Gossau (SG)"},"district":{"key":"1721","name":"Wahlkreis St. Gallen"},"canton":{"key":"17","code":"SG","name":"St. Gallen"},"status":"Real"},{"key":"10229838","name":"Burgweg","postalCode":"9200","locality":"Gossau SG","commune":{"key":"3443","name":"Gossau (SG)","shortName":"Gossau (SG)"},"district":{"key":"1721","name":"Wahlkreis St. Gallen"},"canton":{"key":"17","code":"SG","name":"St. Gallen"},"status":"Real"},{"key":"10229842","name":"Chellenbachgasse","postalCode":"9200","locality":"Gossau SG","commune":{"key":"3443","name":"Gossau (SG)","shortName":"Gossau (SG)"},"district":{"key":"1721","name":"Wahlkreis St. Gallen"},"canton":{"key":"17","code":"SG","name":"St. Gallen"},"status":"Real"},{"key":"10229846","name":"Chellenbachstrasse","postalCode":"9200","locality":"Gossau SG","commune":{"key":"3443","name":"Gossau (SG)","shortName":"Gossau (SG)"},"district":{"key":"1721","name":"Wahlkreis St. Gallen"},"canton":{"key":"17","code":"SG","name":"St. Gallen"},"status":"Real"},{"key":"10030590","name":"Chellenweiherweg","postalCode":"9200","locality":"Gossau SG","commune":{"key":"3443","name":"Gossau (SG)","shortName":"Gossau (SG)"},"district":{"key":"1721","name":"Wahlkreis St. Gallen"},"canton":{"key":"17","code":"SG","name":"St. Gallen"},"status":"Real"},{"key":"10229854","name":"Chlausenmülistrasse","postalCode":"9200","locality":"Gossau SG","commune":{"key":"3443","name":"Gossau (SG)","shortName":"Gossau (SG)"},"district":{"key":"1721","name":"Wahlkreis St. Gallen"},"canton":{"key":"17","code":"SG","name":"St. Gallen"},"status":"Real"},{"key":"10091948","name":"Chressbrunnen","postalCode":"9200","locality":"Gossau SG","commune":{"key":"3443","name":"Gossau (SG)","shortName":"Gossau (SG)"},"district":{"key":"1721","name":"Wahlkreis St. Gallen"},"canton":{"key":"17","code":"SG","name":"St. Gallen"},"status":"Real"},{"key":"10110909","name":"Chueweid","postalCode":"9200","locality":"Gossau SG","commune":{"key":"3443","name":"Gossau (SG)","shortName":"Gossau (SG)"},"district":{"key":"1721","name":"Wahlkreis St. Gallen"},"canton":{"key":"17","code":"SG","name":"St. Gallen"},"status":"Real"},{"key":"10229858","name":"Chueweidstrasse","postalCode":"9200","locality":"Gossau SG","commune":{"key":"3443","name":"Gossau (SG)","shortName":"Gossau (SG)"},"district":{"key":"1721","name":"Wahlkreis St. Gallen"},"canton":{"key":"17","code":"SG","name":"St. Gallen"},"status":"Real"},{"key":"10030591","name":"Degenau","postalCode":"9200","locality":"Gossau SG","commune":{"key":"3443","name":"Gossau (SG)","shortName":"Gossau (SG)"},"district":{"key":"1721","name":"Wahlkreis St. Gallen"},"canton":{"key":"17","code":"SG","name":"St. Gallen"},"status":"Real"},{"key":"10234627","name":"Degenaustrasse","postalCode":"9200","locality":"Gossau SG","commune":{"key":"3443","name":"Gossau (SG)","shortName":"Gossau (SG)"},"district":{"key":"1721","name":"Wahlkreis St. Gallen"},"canton":{"key":"17","code":"SG","name":"St. Gallen"},"status":"Real"},{"key":"10234631","name":"Degenweg","postalCode":"9200","locality":"Gossau SG","commune":{"key":"3443","name":"Gossau (SG)","shortName":"Gossau (SG)"},"district":{"key":"1721","name":"Wahlkreis St. Gallen"},"canton":{"key":"17","code":"SG","name":"St. Gallen"},"status":"Real"},{"key":"10040306","name":"Dianastrasse","postalCode":"9200","locality":"Gossau SG","commune":{"key":"3443","name":"Gossau (SG)","shortName":"Gossau (SG)"},"district":{"key":"1721","name":"Wahlkreis St. Gallen"},"canton":{"key":"17","code":"SG","name":"St. Gallen"},"status":"Real"},{"key":"10251221","name":"Divisionsweg","postalCode":"9200","locality":"Gossau SG","commune":{"key":"3443","name":"Gossau (SG)","shortName":"Gossau (SG)"},"district":{"key":"1721","name":"Wahlkreis St. Gallen"},"canton":{"key":"17","code":"SG","name":"St. Gallen"},"status":"Real"},{"key":"10234635","name":"Divisionsweg","postalCode":"9200","locality":"Gossau SG","commune":{"key":"3443","name":"Gossau (SG)","shortName":"Gossau (SG)"},"district":{"key":"1721","name":"Wahlkreis St. Gallen"},"canton":{"key":"17","code":"SG","name":"St. Gallen"},"status":"Real"},{"key":"10234640","name":"Drosselweg","postalCode":"9200","locality":"Gossau SG","commune":{"key":"3443","name":"Gossau (SG)","shortName":"Gossau (SG)"},"district":{"key":"1721","name":"Wahlkreis St. Gallen"},"canton":{"key":"17","code":"SG","name":"St. Gallen"},"status":"Real"},{"key":"10051810","name":"Ebnet","postalCode":"9200","locality":"Gossau SG","commune":{"key":"3443","name":"Gossau (SG)","shortName":"Gossau (SG)"},"district":{"key":"1721","name":"Wahlkreis St. Gallen"},"canton":{"key":"17","code":"SG","name":"St. Gallen"},"status":"Real"},{"key":"10234644","name":"Ebnetstrasse","postalCode":"9200","locality":"Gossau SG","commune":{"key":"3443","name":"Gossau (SG)","shortName":"Gossau (SG)"},"district":{"key":"1721","name":"Wahlkreis St. Gallen"},"canton":{"key":"17","code":"SG","name":"St. Gallen"},"status":"Real"},{"key":"10234648","name":"Egelmoosstrasse","postalCode":"9200","locality":"Gossau SG","commune":{"key":"3443","name":"Gossau (SG)","shortName":"Gossau (SG)"},"district":{"key":"1721","name":"Wahlkreis St. Gallen"},"canton":{"key":"17","code":"SG","name":"St. Gallen"},"status":"Real"},{"key":"10234652","name":"Eggenstrasse","postalCode":"9200","locality":"Gossau SG","commune":{"key":"3443","name":"Gossau (SG)","shortName":"Gossau (SG)"},"district":{"key":"1721","name":"Wahlkreis St. Gallen"},"canton":{"key":"17","code":"SG","name":"St. Gallen"},"status":"Real"},{"key":"10234656","name":"Egghölzliweg","postalCode":"9200","locality":"Gossau SG","commune":{"key":"3443","name":"Gossau (SG)","shortName":"Gossau (SG)"},"district":{"key":"1721","name":"Wahlkreis St. Gallen"},"canton":{"key":"17","code":"SG","name":"St. Gallen"},"status":"Real"},{"key":"10056871","name":"Eichenhof","postalCode":"9200","locality":"Gossau SG","commune":{"key":"3443","name":"Gossau (SG)","shortName":"Gossau (SG)"},"district":{"key":"1721","name":"Wahlkreis St. Gallen"},"canton":{"key":"17","code":"SG","name":"St. Gallen"},"status":"Real"},{"key":"10250706","name":"Eichenstrasse","postalCode":"9200","locality":"Gossau SG","commune":{"key":"3443","name":"Gossau (SG)","shortName":"Gossau (SG)"},"district":{"key":"1721","name":"Wahlkreis St. Gallen"},"canton":{"key":"17","code":"SG","name":"St. Gallen"},"status":"Real"},{"key":"10229906","name":"Ellenweg","postalCode":"9200","locality":"Gossau SG","commune":{"key":"3443","name":"Gossau (SG)","shortName":"Gossau (SG)"},"district":{"key":"1721","name":"Wahlkreis St. Gallen"},"canton":{"key":"17","code":"SG","name":"St. Gallen"},"status":"Real"},{"key":"10030592","name":"Enggetschwil","postalCode":"9200","locality":"Gossau SG","commune":{"key":"3443","name":"Gossau (SG)","shortName":"Gossau (SG)"},"district":{"key":"1721","name":"Wahlkreis St. Gallen"},"canton":{"key":"17","code":"SG","name":"St. Gallen"},"status":"Real"},{"key":"10229910","name":"Enggetschwilerstrasse","postalCode":"9200","locality":"Gossau SG","commune":{"key":"3443","name":"Gossau (SG)","shortName":"Gossau (SG)"},"district":{"key":"1721","name":"Wahlkreis St. Gallen"},"canton":{"key":"17","code":"SG","name":"St. Gallen"},"status":"Real"},{"key":"10070178","name":"Erlenhof","postalCode":"9200","locality":"Gossau SG","commune":{"key":"3443","name":"Gossau (SG)","shortName":"Gossau (SG)"},"district":{"key":"1721","name":"Wahlkreis St. Gallen"},"canton":{"key":"17","code":"SG","name":"St. Gallen"},"status":"Real"},{"key":"10091949","name":"Erlenmühle","postalCode":"9200","locality":"Gossau SG","commune":{"key":"3443","name":"Gossau (SG)","shortName":"Gossau (SG)"},"district":{"key":"1721","name":"Wahlkreis St. Gallen"},"canton":{"key":"17","code":"SG","name":"St. Gallen"},"status":"Real"},{"key":"10030348","name":"Erlenstrasse","postalCode":"9200","locality":"Gossau SG","commune":{"key":"3443","name":"Gossau (SG)","shortName":"Gossau (SG)"},"district":{"key":"1721","name":"Wahlkreis St. Gallen"},"canton":{"key":"17","code":"SG","name":"St. Gallen"},"status":"Real"},{"key":"10229914","name":"Erlenweg","postalCode":"9200","locality":"Gossau SG","commune":{"key":"3443","name":"Gossau (SG)","shortName":"Gossau (SG)"},"district":{"key":"1721","name":"Wahlkreis St. Gallen"},"canton":{"key":"17","code":"SG","name":"St. Gallen"},"status":"Real"},{"key":"10191097","name":"Eschenstrasse","postalCode":"9200","locality":"Gossau SG","commune":{"key":"3443","name":"Gossau (SG)","shortName":"Gossau (SG)"},"district":{"key":"1721","name":"Wahlkreis St. Gallen"},"canton":{"key":"17","code":"SG","name":"St. Gallen"},"status":"Real"},{"key":"10070179","name":"Espel","postalCode":"9200","locality":"Gossau SG","commune":{"key":"3443","name":"Gossau (SG)","shortName":"Gossau (SG)"},"district":{"key":"1721","name":"Wahlkreis St. Gallen"},"canton":{"key":"17","code":"SG","name":"St. Gallen"},"status":"Real"},{"key":"10229918","name":"Espelstrasse","postalCode":"9200","locality":"Gossau SG","commune":{"key":"3443","name":"Gossau (SG)","shortName":"Gossau (SG)"},"district":{"key":"1721","name":"Wahlkreis St. Gallen"},"canton":{"key":"17","code":"SG","name":"St. Gallen"},"status":"Real"},{"key":"10229922","name":"Espelweg","postalCode":"9200","locality":"Gossau SG","commune":{"key":"3443","name":"Gossau (SG)","shortName":"Gossau (SG)"},"district":{"key":"1721","name":"Wahlkreis St. Gallen"},"canton":{"key":"17","code":"SG","name":"St. Gallen"},"status":"Real"},{"key":"10249777","name":"Espelzelgstrasse","postalCode":"9200","locality":"Gossau SG","commune":{"key":"3443","name":"Gossau (SG)","shortName":"Gossau (SG)"},"district":{"key":"1721","name":"Wahlkreis St. Gallen"},"canton":{"key":"17","code":"SG","name":"St. Gallen"},"status":"Real"},{"key":"10229926","name":"Espelzelgweg","postalCode":"9200","locality":"Gossau SG","commune":{"key":"3443","name":"Gossau (SG)","shortName":"Gossau (SG)"},"district":{"key":"1721","name":"Wahlkreis St. Gallen"},"canton":{"key":"17","code":"SG","name":"St. Gallen"},"status":"Real"},{"key":"10030593","name":"Fabrikstrasse","postalCode":"9200","locality":"Gossau SG","commune":{"key":"3443","name":"Gossau (SG)","shortName":"Gossau (SG)"},"district":{"key":"1721","name":"Wahlkreis St. Gallen"},"canton":{"key":"17","code":"SG","name":"St. Gallen"},"status":"Real"},{"key":"10040307","name":"Falkenstrasse","postalCode":"9200","locality":"Gossau SG","commune":{"key":"3443","name":"Gossau (SG)","shortName":"Gossau (SG)"},"district":{"key":"1721","name":"Wahlkreis St. Gallen"},"canton":{"key":"17","code":"SG","name":"St. Gallen"},"status":"Real"},{"key":"10249785","name":"Falkenweg","postalCode":"9200","locality":"Gossau SG","commune":{"key":"3443","name":"Gossau (SG)","shortName":"Gossau (SG)"},"district":{"key":"1721","name":"Wahlkreis St. Gallen"},"canton":{"key":"17","code":"SG","name":"St. Gallen"},"status":"Real"},{"key":"10091950","name":"Feldhof","postalCode":"9200","locality":"Gossau SG","commune":{"key":"3443","name":"Gossau (SG)","shortName":"Gossau (SG)"},"district":{"key":"1721","name":"Wahlkreis St. Gallen"},"canton":{"key":"17","code":"SG","name":"St. Gallen"},"status":"Real"},{"key":"10229930","name":"Feldstrasse","postalCode":"9200","locality":"Gossau SG","commune":{"key":"3443","name":"Gossau (SG)","shortName":"Gossau (SG)"},"district":{"key":"1721","name":"Wahlkreis St. Gallen"},"canton":{"key":"17","code":"SG","name":"St. Gallen"},"status":"Real"},{"key":"10229934","name":"Feldweg","postalCode":"9200","locality":"Gossau SG","commune":{"key":"3443","name":"Gossau (SG)","shortName":"Gossau (SG)"},"district":{"key":"1721","name":"Wahlkreis St. Gallen"},"canton":{"key":"17","code":"SG","name":"St. Gallen"},"status":"Real"},{"key":"10070180","name":"Fenn","postalCode":"9200","locality":"Gossau SG","commune":{"key":"3443","name":"Gossau (SG)","shortName":"Gossau (SG)"},"district":{"key":"1721","name":"Wahlkreis St. Gallen"},"canton":{"key":"17","code":"SG","name":"St. Gallen"},"status":"Real"},{"key":"10152673","name":"Fennhaldenstrasse","postalCode":"9200","locality":"Gossau SG","commune":{"key":"3443","name":"Gossau (SG)","shortName":"Gossau (SG)"},"district":{"key":"1721","name":"Wahlkreis St. Gallen"},"canton":{"key":"17","code":"SG","name":"St. Gallen"},"status":"Real"},{"key":"10229942","name":"Fennhaldenweg","postalCode":"9200","locality":"Gossau SG","commune":{"key":"3443","name":"Gossau (SG)","shortName":"Gossau (SG)"},"district":{"key":"1721","name":"Wahlkreis St. Gallen"},"canton":{"key":"17","code":"SG","name":"St. Gallen"},"status":"Real"},{"key":"10056872","name":"Fennhof","postalCode":"9200","locality":"Gossau SG","commune":{"key":"3443","name":"Gossau (SG)","shortName":"Gossau (SG)"},"district":{"key":"1721","name":"Wahlkreis St. Gallen"},"canton":{"key":"17","code":"SG","name":"St. Gallen"},"status":"Real"},{"key":"10229946","name":"Fennstrasse","postalCode":"9200","locality":"Gossau SG","commune":{"key":"3443","name":"Gossau (SG)","shortName":"Gossau (SG)"},"district":{"key":"1721","name":"Wahlkreis St. Gallen"},"canton":{"key":"17","code":"SG","name":"St. Gallen"},"status":"Real"},{"key":"10229950","name":"Fennweg","postalCode":"9200","locality":"Gossau SG","commune":{"key":"3443","name":"Gossau (SG)","shortName":"Gossau (SG)"},"district":{"key":"1721","name":"Wahlkreis St. Gallen"},"canton":{"key":"17","code":"SG","name":"St. Gallen"},"status":"Real"},{"key":"10229954","name":"Fichtenweg","postalCode":"9200","locality":"Gossau SG","commune":{"key":"3443","name":"Gossau (SG)","shortName":"Gossau (SG)"},"district":{"key":"1721","name":"Wahlkreis St. Gallen"},"canton":{"key":"17","code":"SG","name":"St. Gallen"},"status":"Real"},{"key":"10030594","name":"Fischergüetlistrasse","postalCode":"9200","locality":"Gossau SG","commune":{"key":"3443","name":"Gossau (SG)","shortName":"Gossau (SG)"},"district":{"key":"1721","name":"Wahlkreis St. Gallen"},"canton":{"key":"17","code":"SG","name":"St. Gallen"},"status":"Real"},{"key":"10229958","name":"Fischerweg","postalCode":"9200","locality":"Gossau SG","commune":{"key":"3443","name":"Gossau (SG)","shortName":"Gossau (SG)"},"district":{"key":"1721","name":"Wahlkreis St. Gallen"},"canton":{"key":"17","code":"SG","name":"St. Gallen"},"status":"Real"},{"key":"10123595","name":"Fischweier","postalCode":"9200","locality":"Gossau SG","commune":{"key":"3443","name":"Gossau (SG)","shortName":"Gossau (SG)"},"district":{"key":"1721","name":"Wahlkreis St. Gallen"},"canton":{"key":"17","code":"SG","name":"St. Gallen"},"status":"Real"},{"key":"10229962","name":"Fischweierstrasse","postalCode":"9200","locality":"Gossau SG","commune":{"key":"3443","name":"Gossau (SG)","shortName":"Gossau (SG)"},"district":{"key":"1721","name":"Wahlkreis St. Gallen"},"canton":{"key":"17","code":"SG","name":"St. Gallen"},"status":"Real"},{"key":"10070181","name":"Flawilerstrasse","postalCode":"9200","locality":"Gossau SG","commune":{"key":"3443","name":"Gossau (SG)","shortName":"Gossau (SG)"},"district":{"key":"1721","name":"Wahlkreis St. Gallen"},"canton":{"key":"17","code":"SG","name":"St. Gallen"},"status":"Real"},{"key":"10096252","name":"Fliederstrasse","postalCode":"9200","locality":"Gossau SG","commune":{"key":"3443","name":"Gossau (SG)","shortName":"Gossau (SG)"},"district":{"key":"1721","name":"Wahlkreis St. Gallen"},"canton":{"key":"17","code":"SG","name":"St. Gallen"},"status":"Real"},{"key":"10229966","name":"Fliederweg","postalCode":"9200","locality":"Gossau SG","commune":{"key":"3443","name":"Gossau (SG)","shortName":"Gossau (SG)"},"district":{"key":"1721","name":"Wahlkreis St. Gallen"},"canton":{"key":"17","code":"SG","name":"St. Gallen"},"status":"Real"},{"key":"10040308","name":"Florastrasse","postalCode":"9200","locality":"Gossau SG","commune":{"key":"3443","name":"Gossau (SG)","shortName":"Gossau (SG)"},"district":{"key":"1721","name":"Wahlkreis St. Gallen"},"canton":{"key":"17","code":"SG","name":"St. Gallen"},"status":"Real"},{"key":"10229974","name":"Föhrenweg","postalCode":"9200","locality":"Gossau SG","commune":{"key":"3443","name":"Gossau (SG)","shortName":"Gossau (SG)"},"district":{"key":"1721","name":"Wahlkreis St. Gallen"},"canton":{"key":"17","code":"SG","name":"St. Gallen"},"status":"Real"},{"key":"10229978","name":"Forellenweg","postalCode":"9200","locality":"Gossau SG","commune":{"key":"3443","name":"Gossau (SG)","shortName":"Gossau (SG)"},"district":{"key":"1721","name":"Wahlkreis St. Gallen"},"canton":{"key":"17","code":"SG","name":"St. Gallen"},"status":"Real"},{"key":"10229982","name":"Forststrasse","postalCode":"9200","locality":"Gossau SG","commune":{"key":"3443","name":"Gossau (SG)","shortName":"Gossau (SG)"},"district":{"key":"1721","name":"Wahlkreis St. Gallen"},"canton":{"key":"17","code":"SG","name":"St. Gallen"},"status":"Real"},{"key":"10030595","name":"Friedbergstrasse","postalCode":"9200","locality":"Gossau SG","commune":{"key":"3443","name":"Gossau (SG)","shortName":"Gossau (SG)"},"district":{"key":"1721","name":"Wahlkreis St. Gallen"},"canton":{"key":"17","code":"SG","name":"St. Gallen"},"status":"Real"},{"key":"10181398","name":"Friedeggstrasse","postalCode":"9200","locality":"Gossau SG","commune":{"key":"3443","name":"Gossau (SG)","shortName":"Gossau (SG)"},"district":{"key":"1721","name":"Wahlkreis St. Gallen"},"canton":{"key":"17","code":"SG","name":"St. Gallen"},"status":"Real"},{"key":"10040309","name":"Friedhofstrasse","postalCode":"9200","locality":"Gossau SG","commune":{"key":"3443","name":"Gossau (SG)","shortName":"Gossau (SG)"},"district":{"key":"1721","name":"Wahlkreis St. Gallen"},"canton":{"key":"17","code":"SG","name":"St. Gallen"},"status":"Real"},{"key":"10096253","name":"Friedhofweg","postalCode":"9200","locality":"Gossau SG","commune":{"key":"3443","name":"Gossau (SG)","shortName":"Gossau (SG)"},"district":{"key":"1721","name":"Wahlkreis St. Gallen"},"canton":{"key":"17","code":"SG","name":"St. Gallen"},"status":"Real"},{"key":"10030596","name":"Fürstenlandstrasse","postalCode":"9200","locality":"Gossau SG","commune":{"key":"3443","name":"Gossau (SG)","shortName":"Gossau (SG)"},"district":{"key":"1721","name":"Wahlkreis St. Gallen"},"canton":{"key":"17","code":"SG","name":"St. Gallen"},"status":"Real"},{"key":"10230002","name":"Galgenweg","postalCode":"9200","locality":"Gossau SG","commune":{"key":"3443","name":"Gossau (SG)","shortName":"Gossau (SG)"},"district":{"key":"1721","name":"Wahlkreis St. Gallen"},"canton":{"key":"17","code":"SG","name":"St. Gallen"},"status":"Real"},{"key":"10230006","name":"Gallusweg","postalCode":"9200","locality":"Gossau SG","commune":{"key":"3443","name":"Gossau (SG)","shortName":"Gossau (SG)"},"district":{"key":"1721","name":"Wahlkreis St. Gallen"},"canton":{"key":"17","code":"SG","name":"St. Gallen"},"status":"Real"},{"key":"10181171","name":"Gapf","postalCode":"9200","locality":"Gossau SG","commune":{"key":"3443","name":"Gossau (SG)","shortName":"Gossau (SG)"},"district":{"key":"1721","name":"Wahlkreis St. Gallen"},"canton":{"key":"17","code":"SG","name":"St. Gallen"},"status":"Real"},{"key":"10230010","name":"Gapfstrasse","postalCode":"9200","locality":"Gossau SG","commune":{"key":"3443","name":"Gossau (SG)","shortName":"Gossau (SG)"},"district":{"key":"1721","name":"Wahlkreis St. Gallen"},"canton":{"key":"17","code":"SG","name":"St. Gallen"},"status":"Real"},{"key":"10070183","name":"Gartenstrasse","postalCode":"9200","locality":"Gossau SG","commune":{"key":"3443","name":"Gossau (SG)","shortName":"Gossau (SG)"},"district":{"key":"1721","name":"Wahlkreis St. Gallen"},"canton":{"key":"17","code":"SG","name":"St. Gallen"},"status":"Real"},{"key":"10126201","name":"Geissbergsteig","postalCode":"9200","locality":"Gossau SG","commune":{"key":"3443","name":"Gossau (SG)","shortName":"Gossau (SG)"},"district":{"key":"1721","name":"Wahlkreis St. Gallen"},"canton":{"key":"17","code":"SG","name":"St. Gallen"},"status":"Real"},{"key":"10096417","name":"Geissbergstrasse","postalCode":"9200","locality":"Gossau SG","commune":{"key":"3443","name":"Gossau (SG)","shortName":"Gossau (SG)"},"district":{"key":"1721","name":"Wahlkreis St. Gallen"},"canton":{"key":"17","code":"SG","name":"St. Gallen"},"status":"Real"},{"key":"10230014","name":"Geissbergweg","postalCode":"9200","locality":"Gossau SG","commune":{"key":"3443","name":"Gossau (SG)","shortName":"Gossau (SG)"},"district":{"key":"1721","name":"Wahlkreis St. Gallen"},"canton":{"key":"17","code":"SG","name":"St. Gallen"},"status":"Real"},{"key":"10030597","name":"Gerenstrasse","postalCode":"9200","locality":"Gossau SG","commune":{"key":"3443","name":"Gossau (SG)","shortName":"Gossau (SG)"},"district":{"key":"1721","name":"Wahlkreis St. Gallen"},"canton":{"key":"17","code":"SG","name":"St. Gallen"},"status":"Real"},{"key":"10191839","name":"Geretschwilerstrasse","postalCode":"9200","locality":"Gossau SG","commune":{"key":"3443","name":"Gossau (SG)","shortName":"Gossau (SG)"},"district":{"key":"1721","name":"Wahlkreis St. Gallen"},"canton":{"key":"17","code":"SG","name":"St. Gallen"},"status":"Real"},{"key":"10230018","name":"Gjüchtstrasse","postalCode":"9200","locality":"Gossau SG","commune":{"key":"3443","name":"Gossau (SG)","shortName":"Gossau (SG)"},"district":{"key":"1721","name":"Wahlkreis St. Gallen"},"canton":{"key":"17","code":"SG","name":"St. Gallen"},"status":"Real"},{"key":"10230022","name":"Glattweg","postalCode":"9200","locality":"Gossau SG","commune":{"key":"3443","name":"Gossau (SG)","shortName":"Gossau (SG)"},"district":{"key":"1721","name":"Wahlkreis St. Gallen"},"canton":{"key":"17","code":"SG","name":"St. Gallen"},"status":"Real"},{"key":"10070479","name":"Gossauerstrasse","postalCode":"9200","locality":"Gossau SG","commune":{"key":"3443","name":"Gossau (SG)","shortName":"Gossau (SG)"},"district":{"key":"1721","name":"Wahlkreis St. Gallen"},"canton":{"key":"17","code":"SG","name":"St. Gallen"},"status":"Real"},{"key":"10096254","name":"Gozenbergstrasse","postalCode":"9200","locality":"Gossau SG","commune":{"key":"3443","name":"Gossau (SG)","shortName":"Gossau (SG)"},"district":{"key":"1721","name":"Wahlkreis St. Gallen"},"canton":{"key":"17","code":"SG","name":"St. Gallen"},"status":"Real"},{"key":"10230026","name":"Gozensteig","postalCode":"9200","locality":"Gossau SG","commune":{"key":"3443","name":"Gossau (SG)","shortName":"Gossau (SG)"},"district":{"key":"1721","name":"Wahlkreis St. Gallen"},"canton":{"key":"17","code":"SG","name":"St. Gallen"},"status":"Real"},{"key":"10230030","name":"Gozenweg","postalCode":"9200","locality":"Gossau SG","commune":{"key":"3443","name":"Gossau (SG)","shortName":"Gossau (SG)"},"district":{"key":"1721","name":"Wahlkreis St. Gallen"},"canton":{"key":"17","code":"SG","name":"St. Gallen"},"status":"Real"},{"key":"10230034","name":"Grabenstrasse","postalCode":"9200","locality":"Gossau SG","commune":{"key":"3443","name":"Gossau (SG)","shortName":"Gossau (SG)"},"district":{"key":"1721","name":"Wahlkreis St. Gallen"},"canton":{"key":"17","code":"SG","name":"St. Gallen"},"status":"Real"},{"key":"10110624","name":"Gruebstrasse","postalCode":"9200","locality":"Gossau SG","commune":{"key":"3443","name":"Gossau (SG)","shortName":"Gossau (SG)"},"district":{"key":"1721","name":"Wahlkreis St. Gallen"},"canton":{"key":"17","code":"SG","name":"St. Gallen"},"status":"Real"},{"key":"10191379","name":"Grüenentan","postalCode":"9200","locality":"Gossau SG","commune":{"key":"3443","name":"Gossau (SG)","shortName":"Gossau (SG)"},"district":{"key":"1721","name":"Wahlkreis St. Gallen"},"canton":{"key":"17","code":"SG","name":"St. Gallen"},"status":"Real"},{"key":"10234425","name":"Grüenentanstrasse","postalCode":"9200","locality":"Gossau SG","commune":{"key":"3443","name":"Gossau (SG)","shortName":"Gossau (SG)"},"district":{"key":"1721","name":"Wahlkreis St. Gallen"},"canton":{"key":"17","code":"SG","name":"St. Gallen"},"status":"Real"},{"key":"10234429","name":"Grüenentanweg","postalCode":"9200","locality":"Gossau SG","commune":{"key":"3443","name":"Gossau (SG)","shortName":"Gossau (SG)"},"district":{"key":"1721","name":"Wahlkreis St. Gallen"},"canton":{"key":"17","code":"SG","name":"St. Gallen"},"status":"Real"},{"key":"10234437","name":"Gruenholzstrasse","postalCode":"9200","locality":"Gossau SG","commune":{"key":"3443","name":"Gossau (SG)","shortName":"Gossau (SG)"},"district":{"key":"1721","name":"Wahlkreis St. Gallen"},"canton":{"key":"17","code":"SG","name":"St. Gallen"},"status":"Real"},{"key":"10184865","name":"Grund","postalCode":"9200","locality":"Gossau SG","commune":{"key":"3443","name":"Gossau (SG)","shortName":"Gossau (SG)"},"district":{"key":"1721","name":"Wahlkreis St. Gallen"},"canton":{"key":"17","code":"SG","name":"St. Gallen"},"status":"Real"},{"key":"10030598","name":"Grüneggstrasse","postalCode":"9200","locality":"Gossau SG","commune":{"key":"3443","name":"Gossau (SG)","shortName":"Gossau (SG)"},"district":{"key":"1721","name":"Wahlkreis St. Gallen"},"canton":{"key":"17","code":"SG","name":"St. Gallen"},"status":"Real"},{"key":"10030599","name":"Gutenbergstrasse","postalCode":"9200","locality":"Gossau SG","commune":{"key":"3443","name":"Gossau (SG)","shortName":"Gossau (SG)"},"district":{"key":"1721","name":"Wahlkreis St. Gallen"},"canton":{"key":"17","code":"SG","name":"St. Gallen"},"status":"Real"},{"key":"10234445","name":"Gutenbergweg","postalCode":"9200","locality":"Gossau SG","commune":{"key":"3443","name":"Gossau (SG)","shortName":"Gossau (SG)"},"district":{"key":"1721","name":"Wahlkreis St. Gallen"},"canton":{"key":"17","code":"SG","name":"St. Gallen"},"status":"Real"},{"key":"10096255","name":"Gütschstrasse","postalCode":"9200","locality":"Gossau SG","commune":{"key":"3443","name":"Gossau (SG)","shortName":"Gossau (SG)"},"district":{"key":"1721","name":"Wahlkreis St. Gallen"},"canton":{"key":"17","code":"SG","name":"St. Gallen"},"status":"Real"},{"key":"10118884","name":"Haldenhofweg","postalCode":"9200","locality":"Gossau SG","commune":{"key":"3443","name":"Gossau (SG)","shortName":"Gossau (SG)"},"district":{"key":"1721","name":"Wahlkreis St. Gallen"},"canton":{"key":"17","code":"SG","name":"St. Gallen"},"status":"Real"},{"key":"10119425","name":"Haldensteig","postalCode":"9200","locality":"Gossau SG","commune":{"key":"3443","name":"Gossau (SG)","shortName":"Gossau (SG)"},"district":{"key":"1721","name":"Wahlkreis St. Gallen"},"canton":{"key":"17","code":"SG","name":"St. Gallen"},"status":"Real"},{"key":"10030600","name":"Haldenstrasse","postalCode":"9200","locality":"Gossau SG","commune":{"key":"3443","name":"Gossau (SG)","shortName":"Gossau (SG)"},"district":{"key":"1721","name":"Wahlkreis St. Gallen"},"canton":{"key":"17","code":"SG","name":"St. Gallen"},"status":"Real"},{"key":"10152447","name":"Haslen","postalCode":"9200","locality":"Gossau SG","commune":{"key":"3443","name":"Gossau (SG)","shortName":"Gossau (SG)"},"district":{"key":"1721","name":"Wahlkreis St. Gallen"},"canton":{"key":"17","code":"SG","name":"St. Gallen"},"status":"Real"},{"key":"10070184","name":"Haslenmühle","postalCode":"9200","locality":"Gossau SG","commune":{"key":"3443","name":"Gossau (SG)","shortName":"Gossau (SG)"},"district":{"key":"1721","name":"Wahlkreis St. Gallen"},"canton":{"key":"17","code":"SG","name":"St. Gallen"},"status":"Real"},{"key":"10234452","name":"Haslenweg","postalCode":"9200","locality":"Gossau SG","commune":{"key":"3443","name":"Gossau (SG)","shortName":"Gossau (SG)"},"district":{"key":"1721","name":"Wahlkreis St. Gallen"},"canton":{"key":"17","code":"SG","name":"St. Gallen"},"status":"Real"},{"key":"10226578","name":"Heimat","postalCode":"9200","locality":"Gossau SG","commune":{"key":"3443","name":"Gossau (SG)","shortName":"Gossau (SG)"},"district":{"key":"1721","name":"Wahlkreis St. Gallen"},"canton":{"key":"17","code":"SG","name":"St. Gallen"},"status":"Real"},{"key":"10226582","name":"Heimatweg","postalCode":"9200","locality":"Gossau SG","commune":{"key":"3443","name":"Gossau (SG)","shortName":"Gossau (SG)"},"district":{"key":"1721","name":"Wahlkreis St. Gallen"},"canton":{"key":"17","code":"SG","name":"St. Gallen"},"status":"Real"},{"key":"10226586","name":"Heldstrasse","postalCode":"9200","locality":"Gossau SG","commune":{"key":"3443","name":"Gossau (SG)","shortName":"Gossau (SG)"},"district":{"key":"1721","name":"Wahlkreis St. Gallen"},"canton":{"key":"17","code":"SG","name":"St. Gallen"},"status":"Real"},{"key":"10226590","name":"Heldweg","postalCode":"9200","locality":"Gossau SG","commune":{"key":"3443","name":"Gossau (SG)","shortName":"Gossau (SG)"},"district":{"key":"1721","name":"Wahlkreis St. Gallen"},"canton":{"key":"17","code":"SG","name":"St. Gallen"},"status":"Real"},{"key":"10030601","name":"Helfenberg","postalCode":"9200","locality":"Gossau SG","commune":{"key":"3443","name":"Gossau (SG)","shortName":"Gossau (SG)"},"district":{"key":"1721","name":"Wahlkreis St. Gallen"},"canton":{"key":"17","code":"SG","name":"St. Gallen"},"status":"Real"},{"key":"10226594","name":"Helfenbergstrasse","postalCode":"9200","locality":"Gossau SG","commune":{"key":"3443","name":"Gossau (SG)","shortName":"Gossau (SG)"},"district":{"key":"1721","name":"Wahlkreis St. Gallen"},"canton":{"key":"17","code":"SG","name":"St. Gallen"},"status":"Real"},{"key":"10250052","name":"Henessenmühle","postalCode":"9200","locality":"Gossau SG","commune":{"key":"3443","name":"Gossau (SG)","shortName":"Gossau (SG)"},"district":{"key":"1721","name":"Wahlkreis St. Gallen"},"canton":{"key":"17","code":"SG","name":"St. Gallen"},"status":"Real"},{"key":"10225910","name":"Henessenmühlestrasse","postalCode":"9200","locality":"Gossau SG","commune":{"key":"3443","name":"Gossau (SG)","shortName":"Gossau (SG)"},"district":{"key":"1721","name":"Wahlkreis St. Gallen"},"canton":{"key":"17","code":"SG","name":"St. Gallen"},"status":"Real"},{"key":"10181399","name":"Henessenmüli","postalCode":"9200","locality":"Gossau SG","commune":{"key":"3443","name":"Gossau (SG)","shortName":"Gossau (SG)"},"district":{"key":"1721","name":"Wahlkreis St. Gallen"},"canton":{"key":"17","code":"SG","name":"St. Gallen"},"status":"Real"},{"key":"10226602","name":"Henessenstrasse","postalCode":"9200","locality":"Gossau SG","commune":{"key":"3443","name":"Gossau (SG)","shortName":"Gossau (SG)"},"district":{"key":"1721","name":"Wahlkreis St. Gallen"},"canton":{"key":"17","code":"SG","name":"St. Gallen"},"status":"Real"},{"key":"10226606","name":"Henessenweg","postalCode":"9200","locality":"Gossau SG","commune":{"key":"3443","name":"Gossau (SG)","shortName":"Gossau (SG)"},"district":{"key":"1721","name":"Wahlkreis St. Gallen"},"canton":{"key":"17","code":"SG","name":"St. Gallen"},"status":"Real"},{"key":"10070185","name":"Herisauerstrasse","postalCode":"9200","locality":"Gossau SG","commune":{"key":"3443","name":"Gossau (SG)","shortName":"Gossau (SG)"},"district":{"key":"1721","name":"Wahlkreis St. Gallen"},"canton":{"key":"17","code":"SG","name":"St. Gallen"},"status":"Real"},{"key":"10226615","name":"Herzenwilerstrasse","postalCode":"9200","locality":"Gossau SG","commune":{"key":"3443","name":"Gossau (SG)","shortName":"Gossau (SG)"},"district":{"key":"1721","name":"Wahlkreis St. Gallen"},"canton":{"key":"17","code":"SG","name":"St. Gallen"},"status":"Real"},{"key":"10096256","name":"Hinterweg","postalCode":"9200","locality":"Gossau SG","commune":{"key":"3443","name":"Gossau (SG)","shortName":"Gossau (SG)"},"district":{"key":"1721","name":"Wahlkreis St. Gallen"},"canton":{"key":"17","code":"SG","name":"St. Gallen"},"status":"Real"},{"key":"10030602","name":"Hirschbergstrasse","postalCode":"9200","locality":"Gossau SG","commune":{"key":"3443","name":"Gossau (SG)","shortName":"Gossau (SG)"},"district":{"key":"1721","name":"Wahlkreis St. Gallen"},"canton":{"key":"17","code":"SG","name":"St. Gallen"},"status":"Real"},{"key":"10226635","name":"Hirschbergweg","postalCode":"9200","locality":"Gossau SG","commune":{"key":"3443","name":"Gossau (SG)","shortName":"Gossau (SG)"},"district":{"key":"1721","name":"Wahlkreis St. Gallen"},"canton":{"key":"17","code":"SG","name":"St. Gallen"},"status":"Real"},{"key":"10114479","name":"Hirschenstrasse","postalCode":"9200","locality":"Gossau SG","commune":{"key":"3443","name":"Gossau (SG)","shortName":"Gossau (SG)"},"district":{"key":"1721","name":"Wahlkreis St. Gallen"},"canton":{"key":"17","code":"SG","name":"St. Gallen"},"status":"Real"},{"key":"10226643","name":"Hirschweg","postalCode":"9200","locality":"Gossau SG","commune":{"key":"3443","name":"Gossau (SG)","shortName":"Gossau (SG)"},"district":{"key":"1721","name":"Wahlkreis St. Gallen"},"canton":{"key":"17","code":"SG","name":"St. Gallen"},"status":"Real"},{"key":"10030603","name":"Hochschoren","postalCode":"9200","locality":"Gossau SG","commune":{"key":"3443","name":"Gossau (SG)","shortName":"Gossau (SG)"},"district":{"key":"1721","name":"Wahlkreis St. Gallen"},"canton":{"key":"17","code":"SG","name":"St. Gallen"},"status":"Real"},{"key":"10030604","name":"Hochschorenstrasse","postalCode":"9200","locality":"Gossau SG","commune":{"key":"3443","name":"Gossau (SG)","shortName":"Gossau (SG)"},"district":{"key":"1721","name":"Wahlkreis St. Gallen"},"canton":{"key":"17","code":"SG","name":"St. Gallen"},"status":"Real"},{"key":"10226647","name":"Hochschorenweg","postalCode":"9200","locality":"Gossau SG","commune":{"key":"3443","name":"Gossau (SG)","shortName":"Gossau (SG)"},"district":{"key":"1721","name":"Wahlkreis St. Gallen"},"canton":{"key":"17","code":"SG","name":"St. Gallen"},"status":"Real"},{"key":"10070187","name":"Hochstrasse","postalCode":"9200","locality":"Gossau SG","commune":{"key":"3443","name":"Gossau (SG)","shortName":"Gossau (SG)"},"district":{"key":"1721","name":"Wahlkreis St. Gallen"},"canton":{"key":"17","code":"SG","name":"St. Gallen"},"status":"Real"},{"key":"10030605","name":"Hofeggring","postalCode":"9200","locality":"Gossau SG","commune":{"key":"3443","name":"Gossau (SG)","shortName":"Gossau (SG)"},"district":{"key":"1721","name":"Wahlkreis St. Gallen"},"canton":{"key":"17","code":"SG","name":"St. Gallen"},"status":"Real"},{"key":"10096257","name":"Hofeggstrasse","postalCode":"9200","locality":"Gossau SG","commune":{"key":"3443","name":"Gossau (SG)","shortName":"Gossau (SG)"},"district":{"key":"1721","name":"Wahlkreis St. Gallen"},"canton":{"key":"17","code":"SG","name":"St. Gallen"},"status":"Real"},{"key":"10030606","name":"Hofmattstrasse","postalCode":"9200","locality":"Gossau SG","commune":{"key":"3443","name":"Gossau (SG)","shortName":"Gossau (SG)"},"district":{"key":"1721","name":"Wahlkreis St. Gallen"},"canton":{"key":"17","code":"SG","name":"St. Gallen"},"status":"Real"},{"key":"10234527","name":"Hofmattweg","postalCode":"9200","locality":"Gossau SG","commune":{"key":"3443","name":"Gossau (SG)","shortName":"Gossau (SG)"},"district":{"key":"1721","name":"Wahlkreis St. Gallen"},"canton":{"key":"17","code":"SG","name":"St. Gallen"},"status":"Real"},{"key":"10030607","name":"Höfrig","postalCode":"9200","locality":"Gossau SG","commune":{"key":"3443","name":"Gossau (SG)","shortName":"Gossau (SG)"},"district":{"key":"1721","name":"Wahlkreis St. Gallen"},"canton":{"key":"17","code":"SG","name":"St. Gallen"},"status":"Real"},{"key":"10234531","name":"Höfrigstrasse","postalCode":"9200","locality":"Gossau SG","commune":{"key":"3443","name":"Gossau (SG)","shortName":"Gossau (SG)"},"district":{"key":"1721","name":"Wahlkreis St. Gallen"},"canton":{"key":"17","code":"SG","name":"St. Gallen"},"status":"Real"},{"key":"10030608","name":"Höhenweg","postalCode":"9200","locality":"Gossau SG","commune":{"key":"3443","name":"Gossau (SG)","shortName":"Gossau (SG)"},"district":{"key":"1721","name":"Wahlkreis St. Gallen"},"canton":{"key":"17","code":"SG","name":"St. Gallen"},"status":"Real"},{"key":"10234535","name":"Holbleichiweg","postalCode":"9200","locality":"Gossau SG","commune":{"key":"3443","name":"Gossau (SG)","shortName":"Gossau (SG)"},"district":{"key":"1721","name":"Wahlkreis St. Gallen"},"canton":{"key":"17","code":"SG","name":"St. Gallen"},"status":"Real"},{"key":"10234538","name":"Holzstrasse","postalCode":"9200","locality":"Gossau SG","commune":{"key":"3443","name":"Gossau (SG)","shortName":"Gossau (SG)"},"district":{"key":"1721","name":"Wahlkreis St. Gallen"},"canton":{"key":"17","code":"SG","name":"St. Gallen"},"status":"Real"},{"key":"10070188","name":"Hueb","postalCode":"9200","locality":"Gossau SG","commune":{"key":"3443","name":"Gossau (SG)","shortName":"Gossau (SG)"},"district":{"key":"1721","name":"Wahlkreis St. Gallen"},"canton":{"key":"17","code":"SG","name":"St. Gallen"},"status":"Real"},{"key":"10230810","name":"Huebgasse","postalCode":"9200","locality":"Gossau SG","commune":{"key":"3443","name":"Gossau (SG)","shortName":"Gossau (SG)"},"district":{"key":"1721","name":"Wahlkreis St. Gallen"},"canton":{"key":"17","code":"SG","name":"St. Gallen"},"status":"Real"},{"key":"10230814","name":"Huebstrasse","postalCode":"9200","locality":"Gossau SG","commune":{"key":"3443","name":"Gossau (SG)","shortName":"Gossau (SG)"},"district":{"key":"1721","name":"Wahlkreis St. Gallen"},"canton":{"key":"17","code":"SG","name":"St. Gallen"},"status":"Real"},{"key":"10230818","name":"Huebweg","postalCode":"9200","locality":"Gossau SG","commune":{"key":"3443","name":"Gossau (SG)","shortName":"Gossau (SG)"},"district":{"key":"1721","name":"Wahlkreis St. Gallen"},"canton":{"key":"17","code":"SG","name":"St. Gallen"},"status":"Real"},{"key":"10114422","name":"Hügelstrasse","postalCode":"9200","locality":"Gossau SG","commune":{"key":"3443","name":"Gossau (SG)","shortName":"Gossau (SG)"},"district":{"key":"1721","name":"Wahlkreis St. Gallen"},"canton":{"key":"17","code":"SG","name":"St. Gallen"},"status":"Real"},{"key":"10096258","name":"Ifangstrasse","postalCode":"9200","locality":"Gossau SG","commune":{"key":"3443","name":"Gossau (SG)","shortName":"Gossau (SG)"},"district":{"key":"1721","name":"Wahlkreis St. Gallen"},"canton":{"key":"17","code":"SG","name":"St. Gallen"},"status":"Real"},{"key":"10181400","name":"Ilgenstrasse","postalCode":"9200","locality":"Gossau SG","commune":{"key":"3443","name":"Gossau (SG)","shortName":"Gossau (SG)"},"district":{"key":"1721","name":"Wahlkreis St. Gallen"},"canton":{"key":"17","code":"SG","name":"St. Gallen"},"status":"Real"},{"key":"10118061","name":"Im Park","postalCode":"9200","locality":"Gossau SG","commune":{"key":"3443","name":"Gossau (SG)","shortName":"Gossau (SG)"},"district":{"key":"1721","name":"Wahlkreis St. Gallen"},"canton":{"key":"17","code":"SG","name":"St. Gallen"},"status":"Real"},{"key":"10110625","name":"Industriestrasse","postalCode":"9200","locality":"Gossau SG","commune":{"key":"3443","name":"Gossau (SG)","shortName":"Gossau (SG)"},"district":{"key":"1721","name":"Wahlkreis St. Gallen"},"canton":{"key":"17","code":"SG","name":"St. Gallen"},"status":"Real"},{"key":"10103196","name":"Isenhammer","postalCode":"9200","locality":"Gossau SG","commune":{"key":"3443","name":"Gossau (SG)","shortName":"Gossau (SG)"},"district":{"key":"1721","name":"Wahlkreis St. Gallen"},"canton":{"key":"17","code":"SG","name":"St. Gallen"},"status":"Real"},{"key":"10069265","name":"Isenhammer","postalCode":"9200","locality":"Gossau SG","commune":{"key":"3443","name":"Gossau (SG)","shortName":"Gossau (SG)"},"district":{"key":"1721","name":"Wahlkreis St. Gallen"},"canton":{"key":"17","code":"SG","name":"St. Gallen"},"status":"Real"},{"key":"10230827","name":"Isenhammerstrasse","postalCode":"9200","locality":"Gossau SG","commune":{"key":"3443","name":"Gossau (SG)","shortName":"Gossau (SG)"},"district":{"key":"1721","name":"Wahlkreis St. Gallen"},"canton":{"key":"17","code":"SG","name":"St. Gallen"},"status":"Real"},{"key":"10230831","name":"Isenhammerweg","postalCode":"9200","locality":"Gossau SG","commune":{"key":"3443","name":"Gossau (SG)","shortName":"Gossau (SG)"},"district":{"key":"1721","name":"Wahlkreis St. Gallen"},"canton":{"key":"17","code":"SG","name":"St. Gallen"},"status":"Real"},{"key":"10096259","name":"Isenringstrasse","postalCode":"9200","locality":"Gossau SG","commune":{"key":"3443","name":"Gossau (SG)","shortName":"Gossau (SG)"},"district":{"key":"1721","name":"Wahlkreis St. Gallen"},"canton":{"key":"17","code":"SG","name":"St. Gallen"},"status":"Real"},{"key":"10070189","name":"Jägerstrasse","postalCode":"9200","locality":"Gossau SG","commune":{"key":"3443","name":"Gossau (SG)","shortName":"Gossau (SG)"},"district":{"key":"1721","name":"Wahlkreis St. Gallen"},"canton":{"key":"17","code":"SG","name":"St. Gallen"},"status":"Real"},{"key":"10030609","name":"Jägerweg","postalCode":"9200","locality":"Gossau SG","commune":{"key":"3443","name":"Gossau (SG)","shortName":"Gossau (SG)"},"district":{"key":"1721","name":"Wahlkreis St. Gallen"},"canton":{"key":"17","code":"SG","name":"St. Gallen"},"status":"Real"},{"key":"10230835","name":"Junggetschwilerstrasse","postalCode":"9200","locality":"Gossau SG","commune":{"key":"3443","name":"Gossau (SG)","shortName":"Gossau (SG)"},"district":{"key":"1721","name":"Wahlkreis St. Gallen"},"canton":{"key":"17","code":"SG","name":"St. Gallen"},"status":"Real"},{"key":"10030610","name":"Kirchstrasse","postalCode":"9200","locality":"Gossau SG","commune":{"key":"3443","name":"Gossau (SG)","shortName":"Gossau (SG)"},"district":{"key":"1721","name":"Wahlkreis St. Gallen"},"canton":{"key":"17","code":"SG","name":"St. Gallen"},"status":"Real"},{"key":"10234575","name":"Kreuzackerweg","postalCode":"9200","locality":"Gossau SG","commune":{"key":"3443","name":"Gossau (SG)","shortName":"Gossau (SG)"},"district":{"key":"1721","name":"Wahlkreis St. Gallen"},"canton":{"key":"17","code":"SG","name":"St. Gallen"},"status":"Real"},{"key":"10030611","name":"Kühlhausstrasse","postalCode":"9200","locality":"Gossau SG","commune":{"key":"3443","name":"Gossau (SG)","shortName":"Gossau (SG)"},"district":{"key":"1721","name":"Wahlkreis St. Gallen"},"canton":{"key":"17","code":"SG","name":"St. Gallen"},"status":"Real"},{"key":"10030612","name":"Lagerstrasse","postalCode":"9200","locality":"Gossau SG","commune":{"key":"3443","name":"Gossau (SG)","shortName":"Gossau (SG)"},"district":{"key":"1721","name":"Wahlkreis St. Gallen"},"canton":{"key":"17","code":"SG","name":"St. Gallen"},"status":"Real"},{"key":"10110910","name":"Landhausstrasse","postalCode":"9200","locality":"Gossau SG","commune":{"key":"3443","name":"Gossau (SG)","shortName":"Gossau (SG)"},"district":{"key":"1721","name":"Wahlkreis St. Gallen"},"canton":{"key":"17","code":"SG","name":"St. Gallen"},"status":"Real"},{"key":"10096260","name":"Landsgemeindestrasse","postalCode":"9200","locality":"Gossau SG","commune":{"key":"3443","name":"Gossau (SG)","shortName":"Gossau (SG)"},"district":{"key":"1721","name":"Wahlkreis St. Gallen"},"canton":{"key":"17","code":"SG","name":"St. Gallen"},"status":"Real"},{"key":"10030613","name":"Langfeldstrasse","postalCode":"9200","locality":"Gossau SG","commune":{"key":"3443","name":"Gossau (SG)","shortName":"Gossau (SG)"},"district":{"key":"1721","name":"Wahlkreis St. Gallen"},"canton":{"key":"17","code":"SG","name":"St. Gallen"},"status":"Real"},{"key":"10030615","name":"Lärchensteig","postalCode":"9200","locality":"Gossau SG","commune":{"key":"3443","name":"Gossau (SG)","shortName":"Gossau (SG)"},"district":{"key":"1721","name":"Wahlkreis St. Gallen"},"canton":{"key":"17","code":"SG","name":"St. Gallen"},"status":"Real"},{"key":"10224680","name":"Lärchenweg","postalCode":"9200","locality":"Gossau SG","commune":{"key":"3443","name":"Gossau (SG)","shortName":"Gossau (SG)"},"district":{"key":"1721","name":"Wahlkreis St. Gallen"},"canton":{"key":"17","code":"SG","name":"St. Gallen"},"status":"Real"},{"key":"10224684","name":"Lätschenstrasse","postalCode":"9200","locality":"Gossau SG","commune":{"key":"3443","name":"Gossau (SG)","shortName":"Gossau (SG)"},"district":{"key":"1721","name":"Wahlkreis St. Gallen"},"canton":{"key":"17","code":"SG","name":"St. Gallen"},"status":"Real"},{"key":"10224688","name":"Lätschenwaldstrasse","postalCode":"9200","locality":"Gossau SG","commune":{"key":"3443","name":"Gossau (SG)","shortName":"Gossau (SG)"},"district":{"key":"1721","name":"Wahlkreis St. Gallen"},"canton":{"key":"17","code":"SG","name":"St. Gallen"},"status":"Real"},{"key":"10224692","name":"Lätschenweg","postalCode":"9200","locality":"Gossau SG","commune":{"key":"3443","name":"Gossau (SG)","shortName":"Gossau (SG)"},"district":{"key":"1721","name":"Wahlkreis St. Gallen"},"canton":{"key":"17","code":"SG","name":"St. Gallen"},"status":"Real"},{"key":"10191098","name":"Lehn","postalCode":"9200","locality":"Gossau SG","commune":{"key":"3443","name":"Gossau (SG)","shortName":"Gossau (SG)"},"district":{"key":"1721","name":"Wahlkreis St. Gallen"},"canton":{"key":"17","code":"SG","name":"St. Gallen"},"status":"Real"},{"key":"10181401","name":"Lerchenstrasse","postalCode":"9200","locality":"Gossau SG","commune":{"key":"3443","name":"Gossau (SG)","shortName":"Gossau (SG)"},"district":{"key":"1721","name":"Wahlkreis St. Gallen"},"canton":{"key":"17","code":"SG","name":"St. Gallen"},"status":"Real"},{"key":"10191837","name":"Lilienstrasse","postalCode":"9200","locality":"Gossau SG","commune":{"key":"3443","name":"Gossau (SG)","shortName":"Gossau (SG)"},"district":{"key":"1721","name":"Wahlkreis St. Gallen"},"canton":{"key":"17","code":"SG","name":"St. Gallen"},"status":"Real"},{"key":"10226751","name":"Lilienweg","postalCode":"9200","locality":"Gossau SG","commune":{"key":"3443","name":"Gossau (SG)","shortName":"Gossau (SG)"},"district":{"key":"1721","name":"Wahlkreis St. Gallen"},"canton":{"key":"17","code":"SG","name":"St. Gallen"},"status":"Real"},{"key":"10056873","name":"Lindenberg","postalCode":"9200","locality":"Gossau SG","commune":{"key":"3443","name":"Gossau (SG)","shortName":"Gossau (SG)"},"district":{"key":"1721","name":"Wahlkreis St. Gallen"},"canton":{"key":"17","code":"SG","name":"St. Gallen"},"status":"Real"},{"key":"10070190","name":"Lindenbergstrasse","postalCode":"9200","locality":"Gossau SG","commune":{"key":"3443","name":"Gossau (SG)","shortName":"Gossau (SG)"},"district":{"key":"1721","name":"Wahlkreis St. Gallen"},"canton":{"key":"17","code":"SG","name":"St. Gallen"},"status":"Real"},{"key":"10249802","name":"Lindenhofstrasse","postalCode":"9200","locality":"Gossau SG","commune":{"key":"3443","name":"Gossau (SG)","shortName":"Gossau (SG)"},"district":{"key":"1721","name":"Wahlkreis St. Gallen"},"canton":{"key":"17","code":"SG","name":"St. Gallen"},"status":"Real"},{"key":"10257274","name":"Lindenplatz","postalCode":"9200","locality":"Gossau SG","commune":{"key":"3443","name":"Gossau (SG)","shortName":"Gossau (SG)"},"district":{"key":"1721","name":"Wahlkreis St. Gallen"},"canton":{"key":"17","code":"SG","name":"St. Gallen"},"status":"Real"},{"key":"10232122","name":"Lindenstrasse","postalCode":"9200","locality":"Gossau SG","commune":{"key":"3443","name":"Gossau (SG)","shortName":"Gossau (SG)"},"district":{"key":"1721","name":"Wahlkreis St. Gallen"},"canton":{"key":"17","code":"SG","name":"St. Gallen"},"status":"Real"},{"key":"10030614","name":"Lindenwiesstrasse","postalCode":"9200","locality":"Gossau SG","commune":{"key":"3443","name":"Gossau (SG)","shortName":"Gossau (SG)"},"district":{"key":"1721","name":"Wahlkreis St. Gallen"},"canton":{"key":"17","code":"SG","name":"St. Gallen"},"status":"Real"},{"key":"10232126","name":"Litenweg","postalCode":"9200","locality":"Gossau SG","commune":{"key":"3443","name":"Gossau (SG)","shortName":"Gossau (SG)"},"district":{"key":"1721","name":"Wahlkreis St. Gallen"},"canton":{"key":"17","code":"SG","name":"St. Gallen"},"status":"Real"},{"key":"10227382","name":"Löchlimühlestrasse","postalCode":"9200","locality":"Gossau SG","commune":{"key":"3443","name":"Gossau (SG)","shortName":"Gossau (SG)"},"district":{"key":"1721","name":"Wahlkreis St. Gallen"},"canton":{"key":"17","code":"SG","name":"St. Gallen"},"status":"Real"},{"key":"10058643","name":"Löchlimüli","postalCode":"9200","locality":"Gossau SG","commune":{"key":"3443","name":"Gossau (SG)","shortName":"Gossau (SG)"},"district":{"key":"1721","name":"Wahlkreis St. Gallen"},"canton":{"key":"17","code":"SG","name":"St. Gallen"},"status":"Real"},{"key":"10029166","name":"Mädertal","postalCode":"9200","locality":"Gossau SG","commune":{"key":"3443","name":"Gossau (SG)","shortName":"Gossau (SG)"},"district":{"key":"1721","name":"Wahlkreis St. Gallen"},"canton":{"key":"17","code":"SG","name":"St. Gallen"},"status":"Real"},{"key":"10232138","name":"Mädertalstrasse","postalCode":"9200","locality":"Gossau SG","commune":{"key":"3443","name":"Gossau (SG)","shortName":"Gossau (SG)"},"district":{"key":"1721","name":"Wahlkreis St. Gallen"},"canton":{"key":"17","code":"SG","name":"St. Gallen"},"status":"Real"},{"key":"10132587","name":"Marstal","postalCode":"9200","locality":"Gossau SG","commune":{"key":"3443","name":"Gossau (SG)","shortName":"Gossau (SG)"},"district":{"key":"1721","name":"Wahlkreis St. Gallen"},"canton":{"key":"17","code":"SG","name":"St. Gallen"},"status":"Real"},{"key":"10232142","name":"Marstalstrasse","postalCode":"9200","locality":"Gossau SG","commune":{"key":"3443","name":"Gossau (SG)","shortName":"Gossau (SG)"},"district":{"key":"1721","name":"Wahlkreis St. Gallen"},"canton":{"key":"17","code":"SG","name":"St. Gallen"},"status":"Real"},{"key":"10232151","name":"Matterwald","postalCode":"9200","locality":"Gossau SG","commune":{"key":"3443","name":"Gossau (SG)","shortName":"Gossau (SG)"},"district":{"key":"1721","name":"Wahlkreis St. Gallen"},"canton":{"key":"17","code":"SG","name":"St. Gallen"},"status":"Real"},{"key":"10232155","name":"Matterwaldstrasse","postalCode":"9200","locality":"Gossau SG","commune":{"key":"3443","name":"Gossau (SG)","shortName":"Gossau (SG)"},"district":{"key":"1721","name":"Wahlkreis St. Gallen"},"canton":{"key":"17","code":"SG","name":"St. Gallen"},"status":"Real"},{"key":"10257756","name":"Maurershausstrasse","postalCode":"9200","locality":"Gossau SG","commune":{"key":"3443","name":"Gossau (SG)","shortName":"Gossau (SG)"},"district":{"key":"1721","name":"Wahlkreis St. Gallen"},"canton":{"key":"17","code":"SG","name":"St. Gallen"},"status":"Real"},{"key":"10030616","name":"Merkurstrasse","postalCode":"9200","locality":"Gossau SG","commune":{"key":"3443","name":"Gossau (SG)","shortName":"Gossau (SG)"},"district":{"key":"1721","name":"Wahlkreis St. Gallen"},"canton":{"key":"17","code":"SG","name":"St. Gallen"},"status":"Real"},{"key":"10146190","name":"Mittlere Zelg","postalCode":"9200","locality":"Gossau SG","commune":{"key":"3443","name":"Gossau (SG)","shortName":"Gossau (SG)"},"district":{"key":"1721","name":"Wahlkreis St. Gallen"},"canton":{"key":"17","code":"SG","name":"St. Gallen"},"status":"Real"},{"key":"10232159","name":"Moosackerstrasse","postalCode":"9200","locality":"Gossau SG","commune":{"key":"3443","name":"Gossau (SG)","shortName":"Gossau (SG)"},"district":{"key":"1721","name":"Wahlkreis St. Gallen"},"canton":{"key":"17","code":"SG","name":"St. Gallen"},"status":"Real"},{"key":"10070191","name":"Moosburgstrasse","postalCode":"9200","locality":"Gossau SG","commune":{"key":"3443","name":"Gossau (SG)","shortName":"Gossau (SG)"},"district":{"key":"1721","name":"Wahlkreis St. Gallen"},"canton":{"key":"17","code":"SG","name":"St. Gallen"},"status":"Real"},{"key":"10232167","name":"Moosburgweg","postalCode":"9200","locality":"Gossau SG","commune":{"key":"3443","name":"Gossau (SG)","shortName":"Gossau (SG)"},"district":{"key":"1721","name":"Wahlkreis St. Gallen"},"canton":{"key":"17","code":"SG","name":"St. Gallen"},"status":"Real"},{"key":"10056874","name":"Moosgarten","postalCode":"9200","locality":"Gossau SG","commune":{"key":"3443","name":"Gossau (SG)","shortName":"Gossau (SG)"},"district":{"key":"1721","name":"Wahlkreis St. Gallen"},"canton":{"key":"17","code":"SG","name":"St. Gallen"},"status":"Real"},{"key":"10232171","name":"Moosgartenstrasse","postalCode":"9200","locality":"Gossau SG","commune":{"key":"3443","name":"Gossau (SG)","shortName":"Gossau (SG)"},"district":{"key":"1721","name":"Wahlkreis St. Gallen"},"canton":{"key":"17","code":"SG","name":"St. Gallen"},"status":"Real"},{"key":"10232183","name":"Moosstrasse","postalCode":"9200","locality":"Gossau SG","commune":{"key":"3443","name":"Gossau (SG)","shortName":"Gossau (SG)"},"district":{"key":"1721","name":"Wahlkreis St. Gallen"},"canton":{"key":"17","code":"SG","name":"St. Gallen"},"status":"Real"},{"key":"10096262","name":"Mooswiesstrasse","postalCode":"9200","locality":"Gossau SG","commune":{"key":"3443","name":"Gossau (SG)","shortName":"Gossau (SG)"},"district":{"key":"1721","name":"Wahlkreis St. Gallen"},"canton":{"key":"17","code":"SG","name":"St. Gallen"},"status":"Real"},{"key":"10232187","name":"Mooswiesweg","postalCode":"9200","locality":"Gossau SG","commune":{"key":"3443","name":"Gossau (SG)","shortName":"Gossau (SG)"},"district":{"key":"1721","name":"Wahlkreis St. Gallen"},"canton":{"key":"17","code":"SG","name":"St. Gallen"},"status":"Real"},{"key":"10030617","name":"Muelt","postalCode":"9200","locality":"Gossau SG","commune":{"key":"3443","name":"Gossau (SG)","shortName":"Gossau (SG)"},"district":{"key":"1721","name":"Wahlkreis St. Gallen"},"canton":{"key":"17","code":"SG","name":"St. Gallen"},"status":"Real"},{"key":"10232195","name":"Mueltrütistrasse","postalCode":"9200","locality":"Gossau SG","commune":{"key":"3443","name":"Gossau (SG)","shortName":"Gossau (SG)"},"district":{"key":"1721","name":"Wahlkreis St. Gallen"},"canton":{"key":"17","code":"SG","name":"St. Gallen"},"status":"Real"},{"key":"10232199","name":"Mueltweg","postalCode":"9200","locality":"Gossau SG","commune":{"key":"3443","name":"Gossau (SG)","shortName":"Gossau (SG)"},"district":{"key":"1721","name":"Wahlkreis St. Gallen"},"canton":{"key":"17","code":"SG","name":"St. Gallen"},"status":"Real"},{"key":"10232203","name":"Mühlebachstrasse","postalCode":"9200","locality":"Gossau SG","commune":{"key":"3443","name":"Gossau (SG)","shortName":"Gossau (SG)"},"district":{"key":"1721","name":"Wahlkreis St. Gallen"},"canton":{"key":"17","code":"SG","name":"St. Gallen"},"status":"Real"},{"key":"10232211","name":"Mühlestrasse","postalCode":"9200","locality":"Gossau SG","commune":{"key":"3443","name":"Gossau (SG)","shortName":"Gossau (SG)"},"district":{"key":"1721","name":"Wahlkreis St. Gallen"},"canton":{"key":"17","code":"SG","name":"St. Gallen"},"status":"Real"},{"key":"10070192","name":"Mühlewiesstrasse","postalCode":"9200","locality":"Gossau SG","commune":{"key":"3443","name":"Gossau (SG)","shortName":"Gossau (SG)"},"district":{"key":"1721","name":"Wahlkreis St. Gallen"},"canton":{"key":"17","code":"SG","name":"St. Gallen"},"status":"Real"},{"key":"10029165","name":"Multstrasse","postalCode":"9200","locality":"Gossau SG","commune":{"key":"3443","name":"Gossau (SG)","shortName":"Gossau (SG)"},"district":{"key":"1721","name":"Wahlkreis St. Gallen"},"canton":{"key":"17","code":"SG","name":"St. Gallen"},"status":"Real"},{"key":"10232219","name":"Nagelfluhstrasse","postalCode":"9200","locality":"Gossau SG","commune":{"key":"3443","name":"Gossau (SG)","shortName":"Gossau (SG)"},"district":{"key":"1721","name":"Wahlkreis St. Gallen"},"canton":{"key":"17","code":"SG","name":"St. Gallen"},"status":"Real"},{"key":"10181402","name":"Narzissenweg","postalCode":"9200","locality":"Gossau SG","commune":{"key":"3443","name":"Gossau (SG)","shortName":"Gossau (SG)"},"district":{"key":"1721","name":"Wahlkreis St. Gallen"},"canton":{"key":"17","code":"SG","name":"St. Gallen"},"status":"Real"},{"key":"10249813","name":"Nationalstrasse","postalCode":"9200","locality":"Gossau SG","commune":{"key":"3443","name":"Gossau (SG)","shortName":"Gossau (SG)"},"district":{"key":"1721","name":"Wahlkreis St. Gallen"},"canton":{"key":"17","code":"SG","name":"St. Gallen"},"status":"Real"},{"key":"10232223","name":"Negrellistrasse","postalCode":"9200","locality":"Gossau SG","commune":{"key":"3443","name":"Gossau (SG)","shortName":"Gossau (SG)"},"district":{"key":"1721","name":"Wahlkreis St. Gallen"},"canton":{"key":"17","code":"SG","name":"St. Gallen"},"status":"Real"},{"key":"10232227","name":"Negrelliweg","postalCode":"9200","locality":"Gossau SG","commune":{"key":"3443","name":"Gossau (SG)","shortName":"Gossau (SG)"},"district":{"key":"1721","name":"Wahlkreis St. Gallen"},"canton":{"key":"17","code":"SG","name":"St. Gallen"},"status":"Real"},{"key":"10096263","name":"Nelkenstrasse","postalCode":"9200","locality":"Gossau SG","commune":{"key":"3443","name":"Gossau (SG)","shortName":"Gossau (SG)"},"district":{"key":"1721","name":"Wahlkreis St. Gallen"},"canton":{"key":"17","code":"SG","name":"St. Gallen"},"status":"Real"},{"key":"10232231","name":"Nelkenweg","postalCode":"9200","locality":"Gossau SG","commune":{"key":"3443","name":"Gossau (SG)","shortName":"Gossau (SG)"},"district":{"key":"1721","name":"Wahlkreis St. Gallen"},"canton":{"key":"17","code":"SG","name":"St. Gallen"},"status":"Real"},{"key":"10029167","name":"Neuchlen","postalCode":"9200","locality":"Gossau SG","commune":{"key":"3443","name":"Gossau (SG)","shortName":"Gossau (SG)"},"district":{"key":"1721","name":"Wahlkreis St. Gallen"},"canton":{"key":"17","code":"SG","name":"St. Gallen"},"status":"Real"},{"key":"10162809","name":"Neuchlensteig","postalCode":"9200","locality":"Gossau SG","commune":{"key":"3443","name":"Gossau (SG)","shortName":"Gossau (SG)"},"district":{"key":"1721","name":"Wahlkreis St. Gallen"},"canton":{"key":"17","code":"SG","name":"St. Gallen"},"status":"Real"},{"key":"10110626","name":"Neuchlenstrasse","postalCode":"9200","locality":"Gossau SG","commune":{"key":"3443","name":"Gossau (SG)","shortName":"Gossau (SG)"},"district":{"key":"1721","name":"Wahlkreis St. Gallen"},"canton":{"key":"17","code":"SG","name":"St. Gallen"},"status":"Real"},{"key":"10191099","name":"Neuchlenweg","postalCode":"9200","locality":"Gossau SG","commune":{"key":"3443","name":"Gossau (SG)","shortName":"Gossau (SG)"},"district":{"key":"1721","name":"Wahlkreis St. Gallen"},"canton":{"key":"17","code":"SG","name":"St. Gallen"},"status":"Real"},{"key":"10231002","name":"Niederbürerstrasse","postalCode":"9200","locality":"Gossau SG","commune":{"key":"3443","name":"Gossau (SG)","shortName":"Gossau (SG)"},"district":{"key":"1721","name":"Wahlkreis St. Gallen"},"canton":{"key":"17","code":"SG","name":"St. Gallen"},"status":"Real"},{"key":"10226887","name":"Niederdorfweg","postalCode":"9200","locality":"Gossau SG","commune":{"key":"3443","name":"Gossau (SG)","shortName":"Gossau (SG)"},"district":{"key":"1721","name":"Wahlkreis St. Gallen"},"canton":{"key":"17","code":"SG","name":"St. Gallen"},"status":"Real"},{"key":"10096264","name":"Notkerweg","postalCode":"9200","locality":"Gossau SG","commune":{"key":"3443","name":"Gossau (SG)","shortName":"Gossau (SG)"},"district":{"key":"1721","name":"Wahlkreis St. Gallen"},"canton":{"key":"17","code":"SG","name":"St. Gallen"},"status":"Real"},{"key":"10029168","name":"Nutzenbuech","postalCode":"9200","locality":"Gossau SG","commune":{"key":"3443","name":"Gossau (SG)","shortName":"Gossau (SG)"},"district":{"key":"1721","name":"Wahlkreis St. Gallen"},"canton":{"key":"17","code":"SG","name":"St. Gallen"},"status":"Real"},{"key":"10226891","name":"Nutzenbuecherstrasse","postalCode":"9200","locality":"Gossau SG","commune":{"key":"3443","name":"Gossau (SG)","shortName":"Gossau (SG)"},"district":{"key":"1721","name":"Wahlkreis St. Gallen"},"canton":{"key":"17","code":"SG","name":"St. Gallen"},"status":"Real"},{"key":"10226895","name":"Nutzenbuecherwald","postalCode":"9200","locality":"Gossau SG","commune":{"key":"3443","name":"Gossau (SG)","shortName":"Gossau (SG)"},"district":{"key":"1721","name":"Wahlkreis St. Gallen"},"canton":{"key":"17","code":"SG","name":"St. Gallen"},"status":"Real"},{"key":"10226899","name":"Nutzenbuecherwaldstrasse","postalCode":"9200","locality":"Gossau SG","commune":{"key":"3443","name":"Gossau (SG)","shortName":"Gossau (SG)"},"district":{"key":"1721","name":"Wahlkreis St. Gallen"},"canton":{"key":"17","code":"SG","name":"St. Gallen"},"status":"Real"},{"key":"10029169","name":"Oberberg","postalCode":"9200","locality":"Gossau SG","commune":{"key":"3443","name":"Gossau (SG)","shortName":"Gossau (SG)"},"district":{"key":"1721","name":"Wahlkreis St. Gallen"},"canton":{"key":"17","code":"SG","name":"St. Gallen"},"status":"Real"},{"key":"10232263","name":"Oberbergstrasse","postalCode":"9200","locality":"Gossau SG","commune":{"key":"3443","name":"Gossau (SG)","shortName":"Gossau (SG)"},"district":{"key":"1721","name":"Wahlkreis St. Gallen"},"canton":{"key":"17","code":"SG","name":"St. Gallen"},"status":"Real"},{"key":"10070194","name":"Oberdorf","postalCode":"9200","locality":"Gossau SG","commune":{"key":"3443","name":"Gossau (SG)","shortName":"Gossau (SG)"},"district":{"key":"1721","name":"Wahlkreis St. Gallen"},"canton":{"key":"17","code":"SG","name":"St. Gallen"},"status":"Real"},{"key":"10232267","name":"Oberdorfbachweg","postalCode":"9200","locality":"Gossau SG","commune":{"key":"3443","name":"Gossau (SG)","shortName":"Gossau (SG)"},"district":{"key":"1721","name":"Wahlkreis St. Gallen"},"canton":{"key":"17","code":"SG","name":"St. Gallen"},"status":"Real"},{"key":"10029170","name":"Oberdorfstrasse","postalCode":"9200","locality":"Gossau SG","commune":{"key":"3443","name":"Gossau (SG)","shortName":"Gossau (SG)"},"district":{"key":"1721","name":"Wahlkreis St. Gallen"},"canton":{"key":"17","code":"SG","name":"St. Gallen"},"status":"Real"},{"key":"10232271","name":"Oberdorfweg","postalCode":"9200","locality":"Gossau SG","commune":{"key":"3443","name":"Gossau (SG)","shortName":"Gossau (SG)"},"district":{"key":"1721","name":"Wahlkreis St. Gallen"},"canton":{"key":"17","code":"SG","name":"St. Gallen"},"status":"Real"},{"key":"10097335","name":"Obere Bergweidstrasse","postalCode":"9200","locality":"Gossau SG","commune":{"key":"3443","name":"Gossau (SG)","shortName":"Gossau (SG)"},"district":{"key":"1721","name":"Wahlkreis St. Gallen"},"canton":{"key":"17","code":"SG","name":"St. Gallen"},"status":"Real"},{"key":"10232275","name":"Oberholzweg","postalCode":"9200","locality":"Gossau SG","commune":{"key":"3443","name":"Gossau (SG)","shortName":"Gossau (SG)"},"district":{"key":"1721","name":"Wahlkreis St. Gallen"},"canton":{"key":"17","code":"SG","name":"St. Gallen"},"status":"Real"},{"key":"10070195","name":"Obermüli","postalCode":"9200","locality":"Gossau SG","commune":{"key":"3443","name":"Gossau (SG)","shortName":"Gossau (SG)"},"district":{"key":"1721","name":"Wahlkreis St. Gallen"},"canton":{"key":"17","code":"SG","name":"St. Gallen"},"status":"Real"},{"key":"10029171","name":"Oberrain","postalCode":"9200","locality":"Gossau SG","commune":{"key":"3443","name":"Gossau (SG)","shortName":"Gossau (SG)"},"district":{"key":"1721","name":"Wahlkreis St. Gallen"},"canton":{"key":"17","code":"SG","name":"St. Gallen"},"status":"Real"},{"key":"10226923","name":"Oberrainstrasse","postalCode":"9200","locality":"Gossau SG","commune":{"key":"3443","name":"Gossau (SG)","shortName":"Gossau (SG)"},"district":{"key":"1721","name":"Wahlkreis St. Gallen"},"canton":{"key":"17","code":"SG","name":"St. Gallen"},"status":"Real"},{"key":"10226927","name":"Oberrainweg","postalCode":"9200","locality":"Gossau SG","commune":{"key":"3443","name":"Gossau (SG)","shortName":"Gossau (SG)"},"district":{"key":"1721","name":"Wahlkreis St. Gallen"},"canton":{"key":"17","code":"SG","name":"St. Gallen"},"status":"Real"},{"key":"10181403","name":"Oberwattstrasse","postalCode":"9200","locality":"Gossau SG","commune":{"key":"3443","name":"Gossau (SG)","shortName":"Gossau (SG)"},"district":{"key":"1721","name":"Wahlkreis St. Gallen"},"canton":{"key":"17","code":"SG","name":"St. Gallen"},"status":"Real"},{"key":"10232287","name":"Otmarsteig","postalCode":"9200","locality":"Gossau SG","commune":{"key":"3443","name":"Gossau (SG)","shortName":"Gossau (SG)"},"district":{"key":"1721","name":"Wahlkreis St. Gallen"},"canton":{"key":"17","code":"SG","name":"St. Gallen"},"status":"Real"},{"key":"10029172","name":"Otmarstrasse","postalCode":"9200","locality":"Gossau SG","commune":{"key":"3443","name":"Gossau (SG)","shortName":"Gossau (SG)"},"district":{"key":"1721","name":"Wahlkreis St. Gallen"},"canton":{"key":"17","code":"SG","name":"St. Gallen"},"status":"Real"},{"key":"10097336","name":"Otmarweg","postalCode":"9200","locality":"Gossau SG","commune":{"key":"3443","name":"Gossau (SG)","shortName":"Gossau (SG)"},"district":{"key":"1721","name":"Wahlkreis St. Gallen"},"canton":{"key":"17","code":"SG","name":"St. Gallen"},"status":"Real"},{"key":"10070196","name":"Parkstrasse","postalCode":"9200","locality":"Gossau SG","commune":{"key":"3443","name":"Gossau (SG)","shortName":"Gossau (SG)"},"district":{"key":"1721","name":"Wahlkreis St. Gallen"},"canton":{"key":"17","code":"SG","name":"St. Gallen"},"status":"Real"},{"key":"10029173","name":"Parkweg","postalCode":"9200","locality":"Gossau SG","commune":{"key":"3443","name":"Gossau (SG)","shortName":"Gossau (SG)"},"district":{"key":"1721","name":"Wahlkreis St. Gallen"},"canton":{"key":"17","code":"SG","name":"St. Gallen"},"status":"Real"},{"key":"10232292","name":"Pflanzgartenweg","postalCode":"9200","locality":"Gossau SG","commune":{"key":"3443","name":"Gossau (SG)","shortName":"Gossau (SG)"},"district":{"key":"1721","name":"Wahlkreis St. Gallen"},"canton":{"key":"17","code":"SG","name":"St. Gallen"},"status":"Real"},{"key":"10029174","name":"Poststrasse","postalCode":"9200","locality":"Gossau SG","commune":{"key":"3443","name":"Gossau (SG)","shortName":"Gossau (SG)"},"district":{"key":"1721","name":"Wahlkreis St. Gallen"},"canton":{"key":"17","code":"SG","name":"St. Gallen"},"status":"Real"},{"key":"10097337","name":"Quellenhofstrasse","postalCode":"9200","locality":"Gossau SG","commune":{"key":"3443","name":"Gossau (SG)","shortName":"Gossau (SG)"},"district":{"key":"1721","name":"Wahlkreis St. Gallen"},"canton":{"key":"17","code":"SG","name":"St. Gallen"},"status":"Real"},{"key":"10232299","name":"Radmoosstrasse","postalCode":"9200","locality":"Gossau SG","commune":{"key":"3443","name":"Gossau (SG)","shortName":"Gossau (SG)"},"district":{"key":"1721","name":"Wahlkreis St. Gallen"},"canton":{"key":"17","code":"SG","name":"St. Gallen"},"status":"Real"},{"key":"10232303","name":"Radweg","postalCode":"9200","locality":"Gossau SG","commune":{"key":"3443","name":"Gossau (SG)","shortName":"Gossau (SG)"},"district":{"key":"1721","name":"Wahlkreis St. Gallen"},"canton":{"key":"17","code":"SG","name":"St. Gallen"},"status":"Real"},{"key":"10029175","name":"Rain","postalCode":"9200","locality":"Gossau SG","commune":{"key":"3443","name":"Gossau (SG)","shortName":"Gossau (SG)"},"district":{"key":"1721","name":"Wahlkreis St. Gallen"},"canton":{"key":"17","code":"SG","name":"St. Gallen"},"status":"Real"},{"key":"10056875","name":"Rainhalden","postalCode":"9200","locality":"Gossau SG","commune":{"key":"3443","name":"Gossau (SG)","shortName":"Gossau (SG)"},"district":{"key":"1721","name":"Wahlkreis St. Gallen"},"canton":{"key":"17","code":"SG","name":"St. Gallen"},"status":"Real"},{"key":"10232307","name":"Rainhaldenstrasse","postalCode":"9200","locality":"Gossau SG","commune":{"key":"3443","name":"Gossau (SG)","shortName":"Gossau (SG)"},"district":{"key":"1721","name":"Wahlkreis St. Gallen"},"canton":{"key":"17","code":"SG","name":"St. Gallen"},"status":"Real"},{"key":"10232311","name":"Rainhaldenweg","postalCode":"9200","locality":"Gossau SG","commune":{"key":"3443","name":"Gossau (SG)","shortName":"Gossau (SG)"},"district":{"key":"1721","name":"Wahlkreis St. Gallen"},"canton":{"key":"17","code":"SG","name":"St. Gallen"},"status":"Real"},{"key":"10250710","name":"Rainstrasse","postalCode":"9200","locality":"Gossau SG","commune":{"key":"3443","name":"Gossau (SG)","shortName":"Gossau (SG)"},"district":{"key":"1721","name":"Wahlkreis St. Gallen"},"canton":{"key":"17","code":"SG","name":"St. Gallen"},"status":"Real"},{"key":"10232315","name":"Rainweg","postalCode":"9200","locality":"Gossau SG","commune":{"key":"3443","name":"Gossau (SG)","shortName":"Gossau (SG)"},"district":{"key":"1721","name":"Wahlkreis St. Gallen"},"canton":{"key":"17","code":"SG","name":"St. Gallen"},"status":"Real"},{"key":"10232319","name":"Rappenweg","postalCode":"9200","locality":"Gossau SG","commune":{"key":"3443","name":"Gossau (SG)","shortName":"Gossau (SG)"},"district":{"key":"1721","name":"Wahlkreis St. Gallen"},"canton":{"key":"17","code":"SG","name":"St. Gallen"},"status":"Real"},{"key":"10190902","name":"Rehburgstrasse","postalCode":"9200","locality":"Gossau SG","commune":{"key":"3443","name":"Gossau (SG)","shortName":"Gossau (SG)"},"district":{"key":"1721","name":"Wahlkreis St. Gallen"},"canton":{"key":"17","code":"SG","name":"St. Gallen"},"status":"Real"},{"key":"10191381","name":"Riethof","postalCode":"9200","locality":"Gossau SG","commune":{"key":"3443","name":"Gossau (SG)","shortName":"Gossau (SG)"},"district":{"key":"1721","name":"Wahlkreis St. Gallen"},"canton":{"key":"17","code":"SG","name":"St. Gallen"},"status":"Real"},{"key":"10232323","name":"Rietweg","postalCode":"9200","locality":"Gossau SG","commune":{"key":"3443","name":"Gossau (SG)","shortName":"Gossau (SG)"},"district":{"key":"1721","name":"Wahlkreis St. Gallen"},"canton":{"key":"17","code":"SG","name":"St. Gallen"},"status":"Real"},{"key":"10029176","name":"Ringstrasse","postalCode":"9200","locality":"Gossau SG","commune":{"key":"3443","name":"Gossau (SG)","shortName":"Gossau (SG)"},"district":{"key":"1721","name":"Wahlkreis St. Gallen"},"canton":{"key":"17","code":"SG","name":"St. Gallen"},"status":"Real"},{"key":"10029177","name":"Rosenaustrasse","postalCode":"9200","locality":"Gossau SG","commune":{"key":"3443","name":"Gossau (SG)","shortName":"Gossau (SG)"},"district":{"key":"1721","name":"Wahlkreis St. Gallen"},"canton":{"key":"17","code":"SG","name":"St. Gallen"},"status":"Real"},{"key":"10040310","name":"Rosenauweg","postalCode":"9200","locality":"Gossau SG","commune":{"key":"3443","name":"Gossau (SG)","shortName":"Gossau (SG)"},"district":{"key":"1721","name":"Wahlkreis St. Gallen"},"canton":{"key":"17","code":"SG","name":"St. Gallen"},"status":"Real"},{"key":"10191100","name":"Rosenberg","postalCode":"9200","locality":"Gossau SG","commune":{"key":"3443","name":"Gossau (SG)","shortName":"Gossau (SG)"},"district":{"key":"1721","name":"Wahlkreis St. Gallen"},"canton":{"key":"17","code":"SG","name":"St. Gallen"},"status":"Real"},{"key":"10232327","name":"Rosenbergstrasse","postalCode":"9200","locality":"Gossau SG","commune":{"key":"3443","name":"Gossau (SG)","shortName":"Gossau (SG)"},"district":{"key":"1721","name":"Wahlkreis St. Gallen"},"canton":{"key":"17","code":"SG","name":"St. Gallen"},"status":"Real"},{"key":"10232331","name":"Rosenhügelsteig","postalCode":"9200","locality":"Gossau SG","commune":{"key":"3443","name":"Gossau (SG)","shortName":"Gossau (SG)"},"district":{"key":"1721","name":"Wahlkreis St. Gallen"},"canton":{"key":"17","code":"SG","name":"St. Gallen"},"status":"Real"},{"key":"10118772","name":"Rosenhügelstrasse","postalCode":"9200","locality":"Gossau SG","commune":{"key":"3443","name":"Gossau (SG)","shortName":"Gossau (SG)"},"district":{"key":"1721","name":"Wahlkreis St. Gallen"},"canton":{"key":"17","code":"SG","name":"St. Gallen"},"status":"Real"},{"key":"10017265","name":"Rosenhügelweg","postalCode":"9200","locality":"Gossau SG","commune":{"key":"3443","name":"Gossau (SG)","shortName":"Gossau (SG)"},"district":{"key":"1721","name":"Wahlkreis St. Gallen"},"canton":{"key":"17","code":"SG","name":"St. Gallen"},"status":"Real"},{"key":"10070197","name":"Rosenweg","postalCode":"9200","locality":"Gossau SG","commune":{"key":"3443","name":"Gossau (SG)","shortName":"Gossau (SG)"},"district":{"key":"1721","name":"Wahlkreis St. Gallen"},"canton":{"key":"17","code":"SG","name":"St. Gallen"},"status":"Real"},{"key":"10232335","name":"Roserstrasse","postalCode":"9200","locality":"Gossau SG","commune":{"key":"3443","name":"Gossau (SG)","shortName":"Gossau (SG)"},"district":{"key":"1721","name":"Wahlkreis St. Gallen"},"canton":{"key":"17","code":"SG","name":"St. Gallen"},"status":"Real"},{"key":"10232339","name":"Roserwaldstrasse","postalCode":"9200","locality":"Gossau SG","commune":{"key":"3443","name":"Gossau (SG)","shortName":"Gossau (SG)"},"district":{"key":"1721","name":"Wahlkreis St. Gallen"},"canton":{"key":"17","code":"SG","name":"St. Gallen"},"status":"Real"},{"key":"10232344","name":"Roserwaldweg","postalCode":"9200","locality":"Gossau SG","commune":{"key":"3443","name":"Gossau (SG)","shortName":"Gossau (SG)"},"district":{"key":"1721","name":"Wahlkreis St. Gallen"},"canton":{"key":"17","code":"SG","name":"St. Gallen"},"status":"Real"},{"key":"10232348","name":"Rössligasse","postalCode":"9200","locality":"Gossau SG","commune":{"key":"3443","name":"Gossau (SG)","shortName":"Gossau (SG)"},"district":{"key":"1721","name":"Wahlkreis St. Gallen"},"canton":{"key":"17","code":"SG","name":"St. Gallen"},"status":"Real"},{"key":"10232352","name":"Rössliweg","postalCode":"9200","locality":"Gossau SG","commune":{"key":"3443","name":"Gossau (SG)","shortName":"Gossau (SG)"},"district":{"key":"1721","name":"Wahlkreis St. Gallen"},"canton":{"key":"17","code":"SG","name":"St. Gallen"},"status":"Real"},{"key":"10232356","name":"Rüdlenstrasse","postalCode":"9200","locality":"Gossau SG","commune":{"key":"3443","name":"Gossau (SG)","shortName":"Gossau (SG)"},"district":{"key":"1721","name":"Wahlkreis St. Gallen"},"canton":{"key":"17","code":"SG","name":"St. Gallen"},"status":"Real"},{"key":"10097338","name":"Rüeggetschwil","postalCode":"9200","locality":"Gossau SG","commune":{"key":"3443","name":"Gossau (SG)","shortName":"Gossau (SG)"},"district":{"key":"1721","name":"Wahlkreis St. Gallen"},"canton":{"key":"17","code":"SG","name":"St. Gallen"},"status":"Real"},{"key":"10232364","name":"Rüeggetschwilerring","postalCode":"9200","locality":"Gossau SG","commune":{"key":"3443","name":"Gossau (SG)","shortName":"Gossau (SG)"},"district":{"key":"1721","name":"Wahlkreis St. Gallen"},"canton":{"key":"17","code":"SG","name":"St. Gallen"},"status":"Real"},{"key":"10232368","name":"Rüeggetschwilerstrasse","postalCode":"9200","locality":"Gossau SG","commune":{"key":"3443","name":"Gossau (SG)","shortName":"Gossau (SG)"},"district":{"key":"1721","name":"Wahlkreis St. Gallen"},"canton":{"key":"17","code":"SG","name":"St. Gallen"},"status":"Real"},{"key":"10232376","name":"Rütauerstrasse","postalCode":"9200","locality":"Gossau SG","commune":{"key":"3443","name":"Gossau (SG)","shortName":"Gossau (SG)"},"district":{"key":"1721","name":"Wahlkreis St. Gallen"},"canton":{"key":"17","code":"SG","name":"St. Gallen"},"status":"Real"},{"key":"10232380","name":"Rüteliweg","postalCode":"9200","locality":"Gossau SG","commune":{"key":"3443","name":"Gossau (SG)","shortName":"Gossau (SG)"},"district":{"key":"1721","name":"Wahlkreis St. Gallen"},"canton":{"key":"17","code":"SG","name":"St. Gallen"},"status":"Real"},{"key":"10181404","name":"Rüti","postalCode":"9200","locality":"Gossau SG","commune":{"key":"3443","name":"Gossau (SG)","shortName":"Gossau (SG)"},"district":{"key":"1721","name":"Wahlkreis St. Gallen"},"canton":{"key":"17","code":"SG","name":"St. Gallen"},"status":"Real"},{"key":"10029178","name":"Rütistrasse","postalCode":"9200","locality":"Gossau SG","commune":{"key":"3443","name":"Gossau (SG)","shortName":"Gossau (SG)"},"district":{"key":"1721","name":"Wahlkreis St. Gallen"},"canton":{"key":"17","code":"SG","name":"St. Gallen"},"status":"Real"},{"key":"10232384","name":"Rütiwaldstrasse","postalCode":"9200","locality":"Gossau SG","commune":{"key":"3443","name":"Gossau (SG)","shortName":"Gossau (SG)"},"district":{"key":"1721","name":"Wahlkreis St. Gallen"},"canton":{"key":"17","code":"SG","name":"St. Gallen"},"status":"Real"},{"key":"10232388","name":"Sägeweg","postalCode":"9200","locality":"Gossau SG","commune":{"key":"3443","name":"Gossau (SG)","shortName":"Gossau (SG)"},"district":{"key":"1721","name":"Wahlkreis St. Gallen"},"canton":{"key":"17","code":"SG","name":"St. Gallen"},"status":"Real"},{"key":"10070202","name":"Säntisstrasse","postalCode":"9200","locality":"Gossau SG","commune":{"key":"3443","name":"Gossau (SG)","shortName":"Gossau (SG)"},"district":{"key":"1721","name":"Wahlkreis St. Gallen"},"canton":{"key":"17","code":"SG","name":"St. Gallen"},"status":"Real"},{"key":"10070198","name":"Scheffenegg","postalCode":"9200","locality":"Gossau SG","commune":{"key":"3443","name":"Gossau (SG)","shortName":"Gossau (SG)"},"district":{"key":"1721","name":"Wahlkreis St. Gallen"},"canton":{"key":"17","code":"SG","name":"St. Gallen"},"status":"Real"},{"key":"10232392","name":"Scheffeneggstrasse","postalCode":"9200","locality":"Gossau SG","commune":{"key":"3443","name":"Gossau (SG)","shortName":"Gossau (SG)"},"district":{"key":"1721","name":"Wahlkreis St. Gallen"},"canton":{"key":"17","code":"SG","name":"St. Gallen"},"status":"Real"},{"key":"10232396","name":"Schlossstrasse","postalCode":"9200","locality":"Gossau SG","commune":{"key":"3443","name":"Gossau (SG)","shortName":"Gossau (SG)"},"district":{"key":"1721","name":"Wahlkreis St. Gallen"},"canton":{"key":"17","code":"SG","name":"St. Gallen"},"status":"Real"},{"key":"10232400","name":"Schlossweg","postalCode":"9200","locality":"Gossau SG","commune":{"key":"3443","name":"Gossau (SG)","shortName":"Gossau (SG)"},"district":{"key":"1721","name":"Wahlkreis St. Gallen"},"canton":{"key":"17","code":"SG","name":"St. Gallen"},"status":"Real"},{"key":"10232404","name":"Schochenbergstrasse","postalCode":"9200","locality":"Gossau SG","commune":{"key":"3443","name":"Gossau (SG)","shortName":"Gossau (SG)"},"district":{"key":"1721","name":"Wahlkreis St. Gallen"},"canton":{"key":"17","code":"SG","name":"St. Gallen"},"status":"Real"},{"key":"10232408","name":"Schochenweg","postalCode":"9200","locality":"Gossau SG","commune":{"key":"3443","name":"Gossau (SG)","shortName":"Gossau (SG)"},"district":{"key":"1721","name":"Wahlkreis St. Gallen"},"canton":{"key":"17","code":"SG","name":"St. Gallen"},"status":"Real"},{"key":"10056876","name":"Schönhalde","postalCode":"9200","locality":"Gossau SG","commune":{"key":"3443","name":"Gossau (SG)","shortName":"Gossau (SG)"},"district":{"key":"1721","name":"Wahlkreis St. Gallen"},"canton":{"key":"17","code":"SG","name":"St. Gallen"},"status":"Real"},{"key":"10249821","name":"Schönhaldenstrasse","postalCode":"9200","locality":"Gossau SG","commune":{"key":"3443","name":"Gossau (SG)","shortName":"Gossau (SG)"},"district":{"key":"1721","name":"Wahlkreis St. Gallen"},"canton":{"key":"17","code":"SG","name":"St. Gallen"},"status":"Real"},{"key":"10029181","name":"Schöntal","postalCode":"9200","locality":"Gossau SG","commune":{"key":"3443","name":"Gossau (SG)","shortName":"Gossau (SG)"},"district":{"key":"1721","name":"Wahlkreis St. Gallen"},"canton":{"key":"17","code":"SG","name":"St. Gallen"},"status":"Real"},{"key":"10110627","name":"Schulstrasse","postalCode":"9200","locality":"Gossau SG","commune":{"key":"3443","name":"Gossau (SG)","shortName":"Gossau (SG)"},"district":{"key":"1721","name":"Wahlkreis St. Gallen"},"canton":{"key":"17","code":"SG","name":"St. Gallen"},"status":"Real"},{"key":"10117369","name":"Schwalbenstrasse","postalCode":"9200","locality":"Gossau SG","commune":{"key":"3443","name":"Gossau (SG)","shortName":"Gossau (SG)"},"district":{"key":"1721","name":"Wahlkreis St. Gallen"},"canton":{"key":"17","code":"SG","name":"St. Gallen"},"status":"Real"},{"key":"10114423","name":"Schwalbenweg","postalCode":"9200","locality":"Gossau SG","commune":{"key":"3443","name":"Gossau (SG)","shortName":"Gossau (SG)"},"district":{"key":"1721","name":"Wahlkreis St. Gallen"},"canton":{"key":"17","code":"SG","name":"St. Gallen"},"status":"Real"},{"key":"10096418","name":"Schwanenstrasse","postalCode":"9200","locality":"Gossau SG","commune":{"key":"3443","name":"Gossau (SG)","shortName":"Gossau (SG)"},"district":{"key":"1721","name":"Wahlkreis St. Gallen"},"canton":{"key":"17","code":"SG","name":"St. Gallen"},"status":"Real"},{"key":"10029179","name":"Schwanenweg","postalCode":"9200","locality":"Gossau SG","commune":{"key":"3443","name":"Gossau (SG)","shortName":"Gossau (SG)"},"district":{"key":"1721","name":"Wahlkreis St. Gallen"},"canton":{"key":"17","code":"SG","name":"St. Gallen"},"status":"Real"},{"key":"10029180","name":"Schwarzenbach","postalCode":"9200","locality":"Gossau SG","commune":{"key":"3443","name":"Gossau (SG)","shortName":"Gossau (SG)"},"district":{"key":"1721","name":"Wahlkreis St. Gallen"},"canton":{"key":"17","code":"SG","name":"St. Gallen"},"status":"Real"},{"key":"10232412","name":"Schwarzenbachstrasse","postalCode":"9200","locality":"Gossau SG","commune":{"key":"3443","name":"Gossau (SG)","shortName":"Gossau (SG)"},"district":{"key":"1721","name":"Wahlkreis St. Gallen"},"canton":{"key":"17","code":"SG","name":"St. Gallen"},"status":"Real"},{"key":"10232420","name":"Segeten","postalCode":"9200","locality":"Gossau SG","commune":{"key":"3443","name":"Gossau (SG)","shortName":"Gossau (SG)"},"district":{"key":"1721","name":"Wahlkreis St. Gallen"},"canton":{"key":"17","code":"SG","name":"St. Gallen"},"status":"Real"},{"key":"10232424","name":"Segetenstrasse","postalCode":"9200","locality":"Gossau SG","commune":{"key":"3443","name":"Gossau (SG)","shortName":"Gossau (SG)"},"district":{"key":"1721","name":"Wahlkreis St. Gallen"},"canton":{"key":"17","code":"SG","name":"St. Gallen"},"status":"Real"},{"key":"10191838","name":"Seminarstrasse","postalCode":"9200","locality":"Gossau SG","commune":{"key":"3443","name":"Gossau (SG)","shortName":"Gossau (SG)"},"district":{"key":"1721","name":"Wahlkreis St. Gallen"},"canton":{"key":"17","code":"SG","name":"St. Gallen"},"status":"Real"},{"key":"10181405","name":"Sennhof","postalCode":"9200","locality":"Gossau SG","commune":{"key":"3443","name":"Gossau (SG)","shortName":"Gossau (SG)"},"district":{"key":"1721","name":"Wahlkreis St. Gallen"},"canton":{"key":"17","code":"SG","name":"St. Gallen"},"status":"Real"},{"key":"10232428","name":"Sennhofweg","postalCode":"9200","locality":"Gossau SG","commune":{"key":"3443","name":"Gossau (SG)","shortName":"Gossau (SG)"},"district":{"key":"1721","name":"Wahlkreis St. Gallen"},"canton":{"key":"17","code":"SG","name":"St. Gallen"},"status":"Real"},{"key":"10114539","name":"Sigerhof","postalCode":"9200","locality":"Gossau SG","commune":{"key":"3443","name":"Gossau (SG)","shortName":"Gossau (SG)"},"district":{"key":"1721","name":"Wahlkreis St. Gallen"},"canton":{"key":"17","code":"SG","name":"St. Gallen"},"status":"Real"},{"key":"10232432","name":"Sigerstrasse","postalCode":"9200","locality":"Gossau SG","commune":{"key":"3443","name":"Gossau (SG)","shortName":"Gossau (SG)"},"district":{"key":"1721","name":"Wahlkreis St. Gallen"},"canton":{"key":"17","code":"SG","name":"St. Gallen"},"status":"Real"},{"key":"10232436","name":"Sigerweg","postalCode":"9200","locality":"Gossau SG","commune":{"key":"3443","name":"Gossau (SG)","shortName":"Gossau (SG)"},"district":{"key":"1721","name":"Wahlkreis St. Gallen"},"canton":{"key":"17","code":"SG","name":"St. Gallen"},"status":"Real"},{"key":"10232444","name":"Siltweg","postalCode":"9200","locality":"Gossau SG","commune":{"key":"3443","name":"Gossau (SG)","shortName":"Gossau (SG)"},"district":{"key":"1721","name":"Wahlkreis St. Gallen"},"canton":{"key":"17","code":"SG","name":"St. Gallen"},"status":"Real"},{"key":"10070201","name":"Sommerau","postalCode":"9200","locality":"Gossau SG","commune":{"key":"3443","name":"Gossau (SG)","shortName":"Gossau (SG)"},"district":{"key":"1721","name":"Wahlkreis St. Gallen"},"canton":{"key":"17","code":"SG","name":"St. Gallen"},"status":"Real"},{"key":"10232448","name":"Sommeraustrasse","postalCode":"9200","locality":"Gossau SG","commune":{"key":"3443","name":"Gossau (SG)","shortName":"Gossau (SG)"},"district":{"key":"1721","name":"Wahlkreis St. Gallen"},"canton":{"key":"17","code":"SG","name":"St. Gallen"},"status":"Real"},{"key":"10030331","name":"Sommersbüel","postalCode":"9200","locality":"Gossau SG","commune":{"key":"3443","name":"Gossau (SG)","shortName":"Gossau (SG)"},"district":{"key":"1721","name":"Wahlkreis St. Gallen"},"canton":{"key":"17","code":"SG","name":"St. Gallen"},"status":"Real"},{"key":"10232452","name":"Sommersbüelstrasse","postalCode":"9200","locality":"Gossau SG","commune":{"key":"3443","name":"Gossau (SG)","shortName":"Gossau (SG)"},"district":{"key":"1721","name":"Wahlkreis St. Gallen"},"canton":{"key":"17","code":"SG","name":"St. Gallen"},"status":"Real"},{"key":"10232456","name":"Sommersbüelweg","postalCode":"9200","locality":"Gossau SG","commune":{"key":"3443","name":"Gossau (SG)","shortName":"Gossau (SG)"},"district":{"key":"1721","name":"Wahlkreis St. Gallen"},"canton":{"key":"17","code":"SG","name":"St. Gallen"},"status":"Real"},{"key":"10103197","name":"Sommersweid","postalCode":"9200","locality":"Gossau SG","commune":{"key":"3443","name":"Gossau (SG)","shortName":"Gossau (SG)"},"district":{"key":"1721","name":"Wahlkreis St. Gallen"},"canton":{"key":"17","code":"SG","name":"St. Gallen"},"status":"Real"},{"key":"10232460","name":"Sommersweidweg","postalCode":"9200","locality":"Gossau SG","commune":{"key":"3443","name":"Gossau (SG)","shortName":"Gossau (SG)"},"district":{"key":"1721","name":"Wahlkreis St. Gallen"},"canton":{"key":"17","code":"SG","name":"St. Gallen"},"status":"Real"},{"key":"10030332","name":"Sonnegg","postalCode":"9200","locality":"Gossau SG","commune":{"key":"3443","name":"Gossau (SG)","shortName":"Gossau (SG)"},"district":{"key":"1721","name":"Wahlkreis St. Gallen"},"canton":{"key":"17","code":"SG","name":"St. Gallen"},"status":"Real"},{"key":"10232464","name":"Sonneggstrasse","postalCode":"9200","locality":"Gossau SG","commune":{"key":"3443","name":"Gossau (SG)","shortName":"Gossau (SG)"},"district":{"key":"1721","name":"Wahlkreis St. Gallen"},"canton":{"key":"17","code":"SG","name":"St. Gallen"},"status":"Real"},{"key":"10132588","name":"Sonnenberg","postalCode":"9200","locality":"Gossau SG","commune":{"key":"3443","name":"Gossau (SG)","shortName":"Gossau (SG)"},"district":{"key":"1721","name":"Wahlkreis St. Gallen"},"canton":{"key":"17","code":"SG","name":"St. Gallen"},"status":"Real"},{"key":"10108120","name":"Sonnenbühlstrasse","postalCode":"9200","locality":"Gossau SG","commune":{"key":"3443","name":"Gossau (SG)","shortName":"Gossau (SG)"},"district":{"key":"1721","name":"Wahlkreis St. Gallen"},"canton":{"key":"17","code":"SG","name":"St. Gallen"},"status":"Real"},{"key":"10106830","name":"Sonnenstrasse","postalCode":"9200","locality":"Gossau SG","commune":{"key":"3443","name":"Gossau (SG)","shortName":"Gossau (SG)"},"district":{"key":"1721","name":"Wahlkreis St. Gallen"},"canton":{"key":"17","code":"SG","name":"St. Gallen"},"status":"Real"},{"key":"10232472","name":"Sonnenweg","postalCode":"9200","locality":"Gossau SG","commune":{"key":"3443","name":"Gossau (SG)","shortName":"Gossau (SG)"},"district":{"key":"1721","name":"Wahlkreis St. Gallen"},"canton":{"key":"17","code":"SG","name":"St. Gallen"},"status":"Real"},{"key":"10097339","name":"Sonnmattstrasse","postalCode":"9200","locality":"Gossau SG","commune":{"key":"3443","name":"Gossau (SG)","shortName":"Gossau (SG)"},"district":{"key":"1721","name":"Wahlkreis St. Gallen"},"canton":{"key":"17","code":"SG","name":"St. Gallen"},"status":"Real"},{"key":"10232479","name":"Spannigasse","postalCode":"9200","locality":"Gossau SG","commune":{"key":"3443","name":"Gossau (SG)","shortName":"Gossau (SG)"},"district":{"key":"1721","name":"Wahlkreis St. Gallen"},"canton":{"key":"17","code":"SG","name":"St. Gallen"},"status":"Real"},{"key":"10030333","name":"Sportstrasse","postalCode":"9200","locality":"Gossau SG","commune":{"key":"3443","name":"Gossau (SG)","shortName":"Gossau (SG)"},"district":{"key":"1721","name":"Wahlkreis St. Gallen"},"canton":{"key":"17","code":"SG","name":"St. Gallen"},"status":"Real"},{"key":"10056877","name":"Städeli","postalCode":"9200","locality":"Gossau SG","commune":{"key":"3443","name":"Gossau (SG)","shortName":"Gossau (SG)"},"district":{"key":"1721","name":"Wahlkreis St. Gallen"},"canton":{"key":"17","code":"SG","name":"St. Gallen"},"status":"Real"},{"key":"10128983","name":"Städelistrasse","postalCode":"9200","locality":"Gossau SG","commune":{"key":"3443","name":"Gossau (SG)","shortName":"Gossau (SG)"},"district":{"key":"1721","name":"Wahlkreis St. Gallen"},"canton":{"key":"17","code":"SG","name":"St. Gallen"},"status":"Real"},{"key":"10030334","name":"Stadtbühlstrasse","postalCode":"9200","locality":"Gossau SG","commune":{"key":"3443","name":"Gossau (SG)","shortName":"Gossau (SG)"},"district":{"key":"1721","name":"Wahlkreis St. Gallen"},"canton":{"key":"17","code":"SG","name":"St. Gallen"},"status":"Real"},{"key":"10232495","name":"Stegmoosweg","postalCode":"9200","locality":"Gossau SG","commune":{"key":"3443","name":"Gossau (SG)","shortName":"Gossau (SG)"},"district":{"key":"1721","name":"Wahlkreis St. Gallen"},"canton":{"key":"17","code":"SG","name":"St. Gallen"},"status":"Real"},{"key":"10181406","name":"Steigstrasse","postalCode":"9200","locality":"Gossau SG","commune":{"key":"3443","name":"Gossau (SG)","shortName":"Gossau (SG)"},"district":{"key":"1721","name":"Wahlkreis St. Gallen"},"canton":{"key":"17","code":"SG","name":"St. Gallen"},"status":"Real"},{"key":"10232500","name":"Steigweg","postalCode":"9200","locality":"Gossau SG","commune":{"key":"3443","name":"Gossau (SG)","shortName":"Gossau (SG)"},"district":{"key":"1721","name":"Wahlkreis St. Gallen"},"canton":{"key":"17","code":"SG","name":"St. Gallen"},"status":"Real"},{"key":"10232504","name":"Steinbruchstrasse","postalCode":"9200","locality":"Gossau SG","commune":{"key":"3443","name":"Gossau (SG)","shortName":"Gossau (SG)"},"district":{"key":"1721","name":"Wahlkreis St. Gallen"},"canton":{"key":"17","code":"SG","name":"St. Gallen"},"status":"Real"},{"key":"10040311","name":"Talstrasse","postalCode":"9200","locality":"Gossau SG","commune":{"key":"3443","name":"Gossau (SG)","shortName":"Gossau (SG)"},"district":{"key":"1721","name":"Wahlkreis St. Gallen"},"canton":{"key":"17","code":"SG","name":"St. Gallen"},"status":"Real"},{"key":"10225102","name":"Talweg","postalCode":"9200","locality":"Gossau SG","commune":{"key":"3443","name":"Gossau (SG)","shortName":"Gossau (SG)"},"district":{"key":"1721","name":"Wahlkreis St. Gallen"},"canton":{"key":"17","code":"SG","name":"St. Gallen"},"status":"Real"},{"key":"10225106","name":"Talwiesweg","postalCode":"9200","locality":"Gossau SG","commune":{"key":"3443","name":"Gossau (SG)","shortName":"Gossau (SG)"},"district":{"key":"1721","name":"Wahlkreis St. Gallen"},"canton":{"key":"17","code":"SG","name":"St. Gallen"},"status":"Real"},{"key":"10114480","name":"Tannenstrasse","postalCode":"9200","locality":"Gossau SG","commune":{"key":"3443","name":"Gossau (SG)","shortName":"Gossau (SG)"},"district":{"key":"1721","name":"Wahlkreis St. Gallen"},"canton":{"key":"17","code":"SG","name":"St. Gallen"},"status":"Real"},{"key":"10191101","name":"Tellstrasse","postalCode":"9200","locality":"Gossau SG","commune":{"key":"3443","name":"Gossau (SG)","shortName":"Gossau (SG)"},"district":{"key":"1721","name":"Wahlkreis St. Gallen"},"canton":{"key":"17","code":"SG","name":"St. Gallen"},"status":"Real"},{"key":"10051806","name":"Tobel","postalCode":"9200","locality":"Gossau SG","commune":{"key":"3443","name":"Gossau (SG)","shortName":"Gossau (SG)"},"district":{"key":"1721","name":"Wahlkreis St. Gallen"},"canton":{"key":"17","code":"SG","name":"St. Gallen"},"status":"Real"},{"key":"10227718","name":"Tobelmüli","postalCode":"9200","locality":"Gossau SG","commune":{"key":"3443","name":"Gossau (SG)","shortName":"Gossau (SG)"},"district":{"key":"1721","name":"Wahlkreis St. Gallen"},"canton":{"key":"17","code":"SG","name":"St. Gallen"},"status":"Real"},{"key":"10230892","name":"Tobelmüli","postalCode":"9200","locality":"Gossau SG","commune":{"key":"3443","name":"Gossau (SG)","shortName":"Gossau (SG)"},"district":{"key":"1721","name":"Wahlkreis St. Gallen"},"canton":{"key":"17","code":"SG","name":"St. Gallen"},"status":"Real"},{"key":"10211961","name":"Tobelmüli","postalCode":"9200","locality":"Gossau SG","commune":{"key":"3443","name":"Gossau (SG)","shortName":"Gossau (SG)"},"district":{"key":"1721","name":"Wahlkreis St. Gallen"},"canton":{"key":"17","code":"SG","name":"St. Gallen"},"status":"Real"},{"key":"10231295","name":"Tobelmülistrasse","postalCode":"9200","locality":"Gossau SG","commune":{"key":"3443","name":"Gossau (SG)","shortName":"Gossau (SG)"},"district":{"key":"1721","name":"Wahlkreis St. Gallen"},"canton":{"key":"17","code":"SG","name":"St. Gallen"},"status":"Real"},{"key":"10230896","name":"Tobelmülistrasse","postalCode":"9200","locality":"Gossau SG","commune":{"key":"3443","name":"Gossau (SG)","shortName":"Gossau (SG)"},"district":{"key":"1721","name":"Wahlkreis St. Gallen"},"canton":{"key":"17","code":"SG","name":"St. Gallen"},"status":"Real"},{"key":"10231299","name":"Tobelmüliweg","postalCode":"9200","locality":"Gossau SG","commune":{"key":"3443","name":"Gossau (SG)","shortName":"Gossau (SG)"},"district":{"key":"1721","name":"Wahlkreis St. Gallen"},"canton":{"key":"17","code":"SG","name":"St. Gallen"},"status":"Real"},{"key":"10231303","name":"Torfstrasse","postalCode":"9200","locality":"Gossau SG","commune":{"key":"3443","name":"Gossau (SG)","shortName":"Gossau (SG)"},"district":{"key":"1721","name":"Wahlkreis St. Gallen"},"canton":{"key":"17","code":"SG","name":"St. Gallen"},"status":"Real"},{"key":"10231307","name":"Treppenweg","postalCode":"9200","locality":"Gossau SG","commune":{"key":"3443","name":"Gossau (SG)","shortName":"Gossau (SG)"},"district":{"key":"1721","name":"Wahlkreis St. Gallen"},"canton":{"key":"17","code":"SG","name":"St. Gallen"},"status":"Real"},{"key":"10030335","name":"Tulpenstrasse","postalCode":"9200","locality":"Gossau SG","commune":{"key":"3443","name":"Gossau (SG)","shortName":"Gossau (SG)"},"district":{"key":"1721","name":"Wahlkreis St. Gallen"},"canton":{"key":"17","code":"SG","name":"St. Gallen"},"status":"Real"},{"key":"10231311","name":"Tulpenweg","postalCode":"9200","locality":"Gossau SG","commune":{"key":"3443","name":"Gossau (SG)","shortName":"Gossau (SG)"},"district":{"key":"1721","name":"Wahlkreis St. Gallen"},"canton":{"key":"17","code":"SG","name":"St. Gallen"},"status":"Real"},{"key":"10128083","name":"Ulmenstrasse","postalCode":"9200","locality":"Gossau SG","commune":{"key":"3443","name":"Gossau (SG)","shortName":"Gossau (SG)"},"district":{"key":"1721","name":"Wahlkreis St. Gallen"},"canton":{"key":"17","code":"SG","name":"St. Gallen"},"status":"Real"},{"key":"10231315","name":"Vogelsangweg","postalCode":"9200","locality":"Gossau SG","commune":{"key":"3443","name":"Gossau (SG)","shortName":"Gossau (SG)"},"district":{"key":"1721","name":"Wahlkreis St. Gallen"},"canton":{"key":"17","code":"SG","name":"St. Gallen"},"status":"Real"},{"key":"10227750","name":"Vorderrain","postalCode":"9200","locality":"Gossau SG","commune":{"key":"3443","name":"Gossau (SG)","shortName":"Gossau (SG)"},"district":{"key":"1721","name":"Wahlkreis St. Gallen"},"canton":{"key":"17","code":"SG","name":"St. Gallen"},"status":"Real"},{"key":"10227754","name":"Vorderrainstrasse","postalCode":"9200","locality":"Gossau SG","commune":{"key":"3443","name":"Gossau (SG)","shortName":"Gossau (SG)"},"district":{"key":"1721","name":"Wahlkreis St. Gallen"},"canton":{"key":"17","code":"SG","name":"St. Gallen"},"status":"Real"},{"key":"10097340","name":"Waldau","postalCode":"9200","locality":"Gossau SG","commune":{"key":"3443","name":"Gossau (SG)","shortName":"Gossau (SG)"},"district":{"key":"1721","name":"Wahlkreis St. Gallen"},"canton":{"key":"17","code":"SG","name":"St. Gallen"},"status":"Real"},{"key":"10056878","name":"Waldegg","postalCode":"9200","locality":"Gossau SG","commune":{"key":"3443","name":"Gossau (SG)","shortName":"Gossau (SG)"},"district":{"key":"1721","name":"Wahlkreis St. Gallen"},"canton":{"key":"17","code":"SG","name":"St. Gallen"},"status":"Real"},{"key":"10227758","name":"Waldeggstrasse","postalCode":"9200","locality":"Gossau SG","commune":{"key":"3443","name":"Gossau (SG)","shortName":"Gossau (SG)"},"district":{"key":"1721","name":"Wahlkreis St. Gallen"},"canton":{"key":"17","code":"SG","name":"St. Gallen"},"status":"Real"},{"key":"10227762","name":"Waldeggweg","postalCode":"9200","locality":"Gossau SG","commune":{"key":"3443","name":"Gossau (SG)","shortName":"Gossau (SG)"},"district":{"key":"1721","name":"Wahlkreis St. Gallen"},"canton":{"key":"17","code":"SG","name":"St. Gallen"},"status":"Real"},{"key":"10227770","name":"Wattweg","postalCode":"9200","locality":"Gossau SG","commune":{"key":"3443","name":"Gossau (SG)","shortName":"Gossau (SG)"},"district":{"key":"1721","name":"Wahlkreis St. Gallen"},"canton":{"key":"17","code":"SG","name":"St. Gallen"},"status":"Real"},{"key":"10251065","name":"Weid","postalCode":"9200","locality":"Gossau SG","commune":{"key":"3443","name":"Gossau (SG)","shortName":"Gossau (SG)"},"district":{"key":"1721","name":"Wahlkreis St. Gallen"},"canton":{"key":"17","code":"SG","name":"St. Gallen"},"status":"Real"},{"key":"10228983","name":"Weidstrasse","postalCode":"9200","locality":"Gossau SG","commune":{"key":"3443","name":"Gossau (SG)","shortName":"Gossau (SG)"},"district":{"key":"1721","name":"Wahlkreis St. Gallen"},"canton":{"key":"17","code":"SG","name":"St. Gallen"},"status":"Real"},{"key":"10030337","name":"Weiermüli","postalCode":"9200","locality":"Gossau SG","commune":{"key":"3443","name":"Gossau (SG)","shortName":"Gossau (SG)"},"district":{"key":"1721","name":"Wahlkreis St. Gallen"},"canton":{"key":"17","code":"SG","name":"St. Gallen"},"status":"Real"},{"key":"10226160","name":"Weiermüliweg","postalCode":"9200","locality":"Gossau SG","commune":{"key":"3443","name":"Gossau (SG)","shortName":"Gossau (SG)"},"district":{"key":"1721","name":"Wahlkreis St. Gallen"},"canton":{"key":"17","code":"SG","name":"St. Gallen"},"status":"Real"},{"key":"10226164","name":"Weiherweg","postalCode":"9200","locality":"Gossau SG","commune":{"key":"3443","name":"Gossau (SG)","shortName":"Gossau (SG)"},"district":{"key":"1721","name":"Wahlkreis St. Gallen"},"canton":{"key":"17","code":"SG","name":"St. Gallen"},"status":"Real"},{"key":"10096419","name":"Weinburgstrasse","postalCode":"9200","locality":"Gossau SG","commune":{"key":"3443","name":"Gossau (SG)","shortName":"Gossau (SG)"},"district":{"key":"1721","name":"Wahlkreis St. Gallen"},"canton":{"key":"17","code":"SG","name":"St. Gallen"},"status":"Real"},{"key":"10233903","name":"Widackerstrasse","postalCode":"9200","locality":"Gossau SG","commune":{"key":"3443","name":"Gossau (SG)","shortName":"Gossau (SG)"},"district":{"key":"1721","name":"Wahlkreis St. Gallen"},"canton":{"key":"17","code":"SG","name":"St. Gallen"},"status":"Real"},{"key":"10110911","name":"Widenstrasse","postalCode":"9200","locality":"Gossau SG","commune":{"key":"3443","name":"Gossau (SG)","shortName":"Gossau (SG)"},"district":{"key":"1721","name":"Wahlkreis St. Gallen"},"canton":{"key":"17","code":"SG","name":"St. Gallen"},"status":"Real"},{"key":"10233907","name":"Wiesentalweg","postalCode":"9200","locality":"Gossau SG","commune":{"key":"3443","name":"Gossau (SG)","shortName":"Gossau (SG)"},"district":{"key":"1721","name":"Wahlkreis St. Gallen"},"canton":{"key":"17","code":"SG","name":"St. Gallen"},"status":"Real"},{"key":"10110628","name":"Wiesenweg","postalCode":"9200","locality":"Gossau SG","commune":{"key":"3443","name":"Gossau (SG)","shortName":"Gossau (SG)"},"district":{"key":"1721","name":"Wahlkreis St. Gallen"},"canton":{"key":"17","code":"SG","name":"St. Gallen"},"status":"Real"},{"key":"10227798","name":"Wigartenweg","postalCode":"9200","locality":"Gossau SG","commune":{"key":"3443","name":"Gossau (SG)","shortName":"Gossau (SG)"},"district":{"key":"1721","name":"Wahlkreis St. Gallen"},"canton":{"key":"17","code":"SG","name":"St. Gallen"},"status":"Real"},{"key":"10030338","name":"Wildhus","postalCode":"9200","locality":"Gossau SG","commune":{"key":"3443","name":"Gossau (SG)","shortName":"Gossau (SG)"},"district":{"key":"1721","name":"Wahlkreis St. Gallen"},"canton":{"key":"17","code":"SG","name":"St. Gallen"},"status":"Real"},{"key":"10227802","name":"Wildhusstrasse","postalCode":"9200","locality":"Gossau SG","commune":{"key":"3443","name":"Gossau (SG)","shortName":"Gossau (SG)"},"district":{"key":"1721","name":"Wahlkreis St. Gallen"},"canton":{"key":"17","code":"SG","name":"St. Gallen"},"status":"Real"},{"key":"10227806","name":"Wildhusweg","postalCode":"9200","locality":"Gossau SG","commune":{"key":"3443","name":"Gossau (SG)","shortName":"Gossau (SG)"},"district":{"key":"1721","name":"Wahlkreis St. Gallen"},"canton":{"key":"17","code":"SG","name":"St. Gallen"},"status":"Real"},{"key":"10030339","name":"Wilerstrasse","postalCode":"9200","locality":"Gossau SG","commune":{"key":"3443","name":"Gossau (SG)","shortName":"Gossau (SG)"},"district":{"key":"1721","name":"Wahlkreis St. Gallen"},"canton":{"key":"17","code":"SG","name":"St. Gallen"},"status":"Real"},{"key":"10227819","name":"Windeggweg","postalCode":"9200","locality":"Gossau SG","commune":{"key":"3443","name":"Gossau (SG)","shortName":"Gossau (SG)"},"district":{"key":"1721","name":"Wahlkreis St. Gallen"},"canton":{"key":"17","code":"SG","name":"St. Gallen"},"status":"Real"},{"key":"10097341","name":"Winkelriedstrasse","postalCode":"9200","locality":"Gossau SG","commune":{"key":"3443","name":"Gossau (SG)","shortName":"Gossau (SG)"},"district":{"key":"1721","name":"Wahlkreis St. Gallen"},"canton":{"key":"17","code":"SG","name":"St. Gallen"},"status":"Real"},{"key":"10030340","name":"Winkelstrasse","postalCode":"9200","locality":"Gossau SG","commune":{"key":"3443","name":"Gossau (SG)","shortName":"Gossau (SG)"},"district":{"key":"1721","name":"Wahlkreis St. Gallen"},"canton":{"key":"17","code":"SG","name":"St. Gallen"},"status":"Real"},{"key":"10227823","name":"Wissholz","postalCode":"9200","locality":"Gossau SG","commune":{"key":"3443","name":"Gossau (SG)","shortName":"Gossau (SG)"},"district":{"key":"1721","name":"Wahlkreis St. Gallen"},"canton":{"key":"17","code":"SG","name":"St. Gallen"},"status":"Real"},{"key":"10227827","name":"Wissholzstrasse","postalCode":"9200","locality":"Gossau SG","commune":{"key":"3443","name":"Gossau (SG)","shortName":"Gossau (SG)"},"district":{"key":"1721","name":"Wahlkreis St. Gallen"},"canton":{"key":"17","code":"SG","name":"St. Gallen"},"status":"Real"},{"key":"10227831","name":"Wissholzweg","postalCode":"9200","locality":"Gossau SG","commune":{"key":"3443","name":"Gossau (SG)","shortName":"Gossau (SG)"},"district":{"key":"1721","name":"Wahlkreis St. Gallen"},"canton":{"key":"17","code":"SG","name":"St. Gallen"},"status":"Real"},{"key":"10126153","name":"Witenwisstrasse","postalCode":"9200","locality":"Gossau SG","commune":{"key":"3443","name":"Gossau (SG)","shortName":"Gossau (SG)"},"district":{"key":"1721","name":"Wahlkreis St. Gallen"},"canton":{"key":"17","code":"SG","name":"St. Gallen"},"status":"Real"},{"key":"10030341","name":"Zeughausstrasse","postalCode":"9200","locality":"Gossau SG","commune":{"key":"3443","name":"Gossau (SG)","shortName":"Gossau (SG)"},"district":{"key":"1721","name":"Wahlkreis St. Gallen"},"canton":{"key":"17","code":"SG","name":"St. Gallen"},"status":"Real"},{"key":"10234653","name":"Zooweg","postalCode":"9200","locality":"Gossau SG","commune":{"key":"3443","name":"Gossau (SG)","shortName":"Gossau (SG)"},"district":{"key":"1721","name":"Wahlkreis St. Gallen"},"canton":{"key":"17","code":"SG","name":"St. Gallen"},"status":"Real"},]