[{"name":"Anger","postalCode":"99947","locality":"Sundhausen","municipality":{"key":"16064061","name":"Sundhausen","type":"Kreisangehörige_Gemeinde"},"district":{"key":"16064","name":"Unstrut-Hainich-Kreis","type":"Landkreis"},"federalState":{"key":"16","name":"Thüringen"}},{"name":"Blankenburger Weg","postalCode":"99947","locality":"Sundhausen","municipality":{"key":"16064061","name":"Sundhausen","type":"Kreisangehörige_Gemeinde"},"district":{"key":"16064","name":"Unstrut-Hainich-Kreis","type":"Landkreis"},"federalState":{"key":"16","name":"Thüringen"}},{"name":"Erlengrund","postalCode":"99947","locality":"Sundhausen","municipality":{"key":"16064061","name":"Sundhausen","type":"Kreisangehörige_Gemeinde"},"district":{"key":"16064","name":"Unstrut-Hainich-Kreis","type":"Landkreis"},"federalState":{"key":"16","name":"Thüringen"}},{"name":"Erlenweg","postalCode":"99947","locality":"Sundhausen","municipality":{"key":"16064061","name":"Sundhausen","type":"Kreisangehörige_Gemeinde"},"district":{"key":"16064","name":"Unstrut-Hainich-Kreis","type":"Landkreis"},"federalState":{"key":"16","name":"Thüringen"}},{"name":"Hauptstr.","postalCode":"99947","locality":"Sundhausen","municipality":{"key":"16064061","name":"Sundhausen","type":"Kreisangehörige_Gemeinde"},"district":{"key":"16064","name":"Unstrut-Hainich-Kreis","type":"Landkreis"},"federalState":{"key":"16","name":"Thüringen"}},{"name":"Rickensgasse","postalCode":"99947","locality":"Sundhausen","municipality":{"key":"16064061","name":"Sundhausen","type":"Kreisangehörige_Gemeinde"},"district":{"key":"16064","name":"Unstrut-Hainich-Kreis","type":"Landkreis"},"federalState":{"key":"16","name":"Thüringen"}},{"name":"Sackgasse","postalCode":"99947","locality":"Sundhausen","municipality":{"key":"16064061","name":"Sundhausen","type":"Kreisangehörige_Gemeinde"},"district":{"key":"16064","name":"Unstrut-Hainich-Kreis","type":"Landkreis"},"federalState":{"key":"16","name":"Thüringen"}},{"name":"Schulstr.","postalCode":"99947","locality":"Sundhausen","municipality":{"key":"16064061","name":"Sundhausen","type":"Kreisangehörige_Gemeinde"},"district":{"key":"16064","name":"Unstrut-Hainich-Kreis","type":"Landkreis"},"federalState":{"key":"16","name":"Thüringen"}},{"name":"Stiegelsgasse","postalCode":"99947","locality":"Sundhausen","municipality":{"key":"16064061","name":"Sundhausen","type":"Kreisangehörige_Gemeinde"},"district":{"key":"16064","name":"Unstrut-Hainich-Kreis","type":"Landkreis"},"federalState":{"key":"16","name":"Thüringen"}},{"name":"Thamsbrücker Weg","postalCode":"99947","locality":"Sundhausen","municipality":{"key":"16064061","name":"Sundhausen","type":"Kreisangehörige_Gemeinde"},"district":{"key":"16064","name":"Unstrut-Hainich-Kreis","type":"Landkreis"},"federalState":{"key":"16","name":"Thüringen"}},{"name":"Welsbacher Weg","postalCode":"99947","locality":"Sundhausen","municipality":{"key":"16064061","name":"Sundhausen","type":"Kreisangehörige_Gemeinde"},"district":{"key":"16064","name":"Unstrut-Hainich-Kreis","type":"Landkreis"},"federalState":{"key":"16","name":"Thüringen"}},]