[{"name":"Am Genesungsheim","postalCode":"21493","locality":"Kollow","municipality":{"key":"01053071","name":"Kollow","type":"Kreisangehörige_Gemeinde"},"district":{"key":"01053","name":"Herzogtum Lauenburg","type":"Kreis"},"federalState":{"key":"01","name":"Schleswig-Holstein"}},{"name":"Am Vorteich","postalCode":"21527","locality":"Kollow","municipality":{"key":"01053071","name":"Kollow","type":"Kreisangehörige_Gemeinde"},"district":{"key":"01053","name":"Herzogtum Lauenburg","type":"Kreis"},"federalState":{"key":"01","name":"Schleswig-Holstein"}},{"name":"Brückenstr.","postalCode":"21527","locality":"Kollow","municipality":{"key":"01053071","name":"Kollow","type":"Kreisangehörige_Gemeinde"},"district":{"key":"01053","name":"Herzogtum Lauenburg","type":"Kreis"},"federalState":{"key":"01","name":"Schleswig-Holstein"}},{"name":"Fasanenweg","postalCode":"21527","locality":"Kollow","municipality":{"key":"01053071","name":"Kollow","type":"Kreisangehörige_Gemeinde"},"district":{"key":"01053","name":"Herzogtum Lauenburg","type":"Kreis"},"federalState":{"key":"01","name":"Schleswig-Holstein"}},{"name":"Fuhlentwiete","postalCode":"21527","locality":"Kollow","municipality":{"key":"01053071","name":"Kollow","type":"Kreisangehörige_Gemeinde"},"district":{"key":"01053","name":"Herzogtum Lauenburg","type":"Kreis"},"federalState":{"key":"01","name":"Schleswig-Holstein"}},{"name":"Hamwarder Weg","postalCode":"21527","locality":"Kollow","municipality":{"key":"01053071","name":"Kollow","type":"Kreisangehörige_Gemeinde"},"district":{"key":"01053","name":"Herzogtum Lauenburg","type":"Kreis"},"federalState":{"key":"01","name":"Schleswig-Holstein"}},{"name":"Hinter den Teichen","postalCode":"21527","locality":"Kollow","municipality":{"key":"01053071","name":"Kollow","type":"Kreisangehörige_Gemeinde"},"district":{"key":"01053","name":"Herzogtum Lauenburg","type":"Kreis"},"federalState":{"key":"01","name":"Schleswig-Holstein"}},{"name":"Jungfernstieg","postalCode":"21527","locality":"Kollow","municipality":{"key":"01053071","name":"Kollow","type":"Kreisangehörige_Gemeinde"},"district":{"key":"01053","name":"Herzogtum Lauenburg","type":"Kreis"},"federalState":{"key":"01","name":"Schleswig-Holstein"}},{"name":"Königsstr.","postalCode":"21527","locality":"Kollow","municipality":{"key":"01053071","name":"Kollow","type":"Kreisangehörige_Gemeinde"},"district":{"key":"01053","name":"Herzogtum Lauenburg","type":"Kreis"},"federalState":{"key":"01","name":"Schleswig-Holstein"}},{"name":"Schloßstr.","postalCode":"21527","locality":"Kollow","municipality":{"key":"01053071","name":"Kollow","type":"Kreisangehörige_Gemeinde"},"district":{"key":"01053","name":"Herzogtum Lauenburg","type":"Kreis"},"federalState":{"key":"01","name":"Schleswig-Holstein"}},{"name":"Schmiedestr.","postalCode":"21493","locality":"Kollow","municipality":{"key":"01053071","name":"Kollow","type":"Kreisangehörige_Gemeinde"},"district":{"key":"01053","name":"Herzogtum Lauenburg","type":"Kreis"},"federalState":{"key":"01","name":"Schleswig-Holstein"}},{"name":"Schmiedestr.","postalCode":"21527","locality":"Kollow","municipality":{"key":"01053071","name":"Kollow","type":"Kreisangehörige_Gemeinde"},"district":{"key":"01053","name":"Herzogtum Lauenburg","type":"Kreis"},"federalState":{"key":"01","name":"Schleswig-Holstein"}},{"name":"Schulenbarg","postalCode":"21527","locality":"Kollow","municipality":{"key":"01053071","name":"Kollow","type":"Kreisangehörige_Gemeinde"},"district":{"key":"01053","name":"Herzogtum Lauenburg","type":"Kreis"},"federalState":{"key":"01","name":"Schleswig-Holstein"}},{"name":"Steinrade","postalCode":"21527","locality":"Kollow","municipality":{"key":"01053071","name":"Kollow","type":"Kreisangehörige_Gemeinde"},"district":{"key":"01053","name":"Herzogtum Lauenburg","type":"Kreis"},"federalState":{"key":"01","name":"Schleswig-Holstein"}},{"name":"Zwischen den Höfen","postalCode":"21527","locality":"Kollow","municipality":{"key":"01053071","name":"Kollow","type":"Kreisangehörige_Gemeinde"},"district":{"key":"01053","name":"Herzogtum Lauenburg","type":"Kreis"},"federalState":{"key":"01","name":"Schleswig-Holstein"}},]