[{"name":"Ahornring","postalCode":"82024","locality":"Taufkirchen","municipality":{"key":"09184145","name":"Taufkirchen","type":"Kreisangehörige_Gemeinde"},"district":{"key":"09184","name":"München","type":"Landkreis"},"federalState":{"key":"09","name":"Bayern"}},{"name":"Ahornstr.","postalCode":"84416","locality":"Taufkirchen","municipality":{"key":"09177139","name":"Taufkirchen (Vils)","type":"Kreisangehörige_Gemeinde"},"district":{"key":"09177","name":"Erding","type":"Landkreis"},"federalState":{"key":"09","name":"Bayern"}},{"name":"Ahornstr.","postalCode":"84494","locality":"Niedertaufkirchen","municipality":{"key":"09183131","name":"Niedertaufkirchen","type":"Kreisangehörige_Gemeinde"},"district":{"key":"09183","name":"Mühldorf a.Inn","type":"Landkreis"},"federalState":{"key":"09","name":"Bayern"}},{"name":"Ahornstr.","postalCode":"84574","locality":"Taufkirchen","municipality":{"key":"09183145","name":"Taufkirchen","type":"Kreisangehörige_Gemeinde"},"district":{"key":"09183","name":"Mühldorf a.Inn","type":"Landkreis"},"federalState":{"key":"09","name":"Bayern"}},{"name":"Akazienstr.","postalCode":"82024","locality":"Taufkirchen","municipality":{"key":"09184145","name":"Taufkirchen","type":"Kreisangehörige_Gemeinde"},"district":{"key":"09184","name":"München","type":"Landkreis"},"federalState":{"key":"09","name":"Bayern"}},{"name":"Akeleistr.","postalCode":"82024","locality":"Taufkirchen","municipality":{"key":"09184145","name":"Taufkirchen","type":"Kreisangehörige_Gemeinde"},"district":{"key":"09184","name":"München","type":"Landkreis"},"federalState":{"key":"09","name":"Bayern"}},{"name":"Am Alten Bahnhof","postalCode":"84416","locality":"Taufkirchen","municipality":{"key":"09177139","name":"Taufkirchen (Vils)","type":"Kreisangehörige_Gemeinde"},"district":{"key":"09177","name":"Erding","type":"Landkreis"},"federalState":{"key":"09","name":"Bayern"}},{"name":"Am Anger","postalCode":"82024","locality":"Taufkirchen","municipality":{"key":"09184145","name":"Taufkirchen","type":"Kreisangehörige_Gemeinde"},"district":{"key":"09184","name":"München","type":"Landkreis"},"federalState":{"key":"09","name":"Bayern"}},{"name":"Am Anger","postalCode":"84574","locality":"Taufkirchen","municipality":{"key":"09183145","name":"Taufkirchen","type":"Kreisangehörige_Gemeinde"},"district":{"key":"09183","name":"Mühldorf a.Inn","type":"Landkreis"},"federalState":{"key":"09","name":"Bayern"}},{"name":"Am Bahnsteig","postalCode":"82024","locality":"Taufkirchen","municipality":{"key":"09184145","name":"Taufkirchen","type":"Kreisangehörige_Gemeinde"},"district":{"key":"09184","name":"München","type":"Landkreis"},"federalState":{"key":"09","name":"Bayern"}},{"name":"Am Birkengarten","postalCode":"82024","locality":"Taufkirchen","municipality":{"key":"09184145","name":"Taufkirchen","type":"Kreisangehörige_Gemeinde"},"district":{"key":"09184","name":"München","type":"Landkreis"},"federalState":{"key":"09","name":"Bayern"}},{"name":"Am Bürgerpark","postalCode":"84416","locality":"Taufkirchen","municipality":{"key":"09177139","name":"Taufkirchen (Vils)","type":"Kreisangehörige_Gemeinde"},"district":{"key":"09177","name":"Erding","type":"Landkreis"},"federalState":{"key":"09","name":"Bayern"}},{"name":"Am Ederberg","postalCode":"84574","locality":"Taufkirchen","municipality":{"key":"09183145","name":"Taufkirchen","type":"Kreisangehörige_Gemeinde"},"district":{"key":"09183","name":"Mühldorf a.Inn","type":"Landkreis"},"federalState":{"key":"09","name":"Bayern"}},{"name":"Am Heimgarten","postalCode":"82024","locality":"Taufkirchen","municipality":{"key":"09184145","name":"Taufkirchen","type":"Kreisangehörige_Gemeinde"},"district":{"key":"09184","name":"München","type":"Landkreis"},"federalState":{"key":"09","name":"Bayern"}},{"name":"Am Kornfeld","postalCode":"84416","locality":"Taufkirchen","municipality":{"key":"09177139","name":"Taufkirchen (Vils)","type":"Kreisangehörige_Gemeinde"},"district":{"key":"09177","name":"Erding","type":"Landkreis"},"federalState":{"key":"09","name":"Bayern"}},{"name":"Am Logistikpark","postalCode":"84419","locality":"Obertaufkirchen","municipality":{"key":"09183135","name":"Obertaufkirchen","type":"Kreisangehörige_Gemeinde"},"district":{"key":"09183","name":"Mühldorf a.Inn","type":"Landkreis"},"federalState":{"key":"09","name":"Bayern"}},{"name":"Am Maisfeld","postalCode":"84416","locality":"Taufkirchen","municipality":{"key":"09177139","name":"Taufkirchen (Vils)","type":"Kreisangehörige_Gemeinde"},"district":{"key":"09177","name":"Erding","type":"Landkreis"},"federalState":{"key":"09","name":"Bayern"}},{"name":"Am Nemerberg","postalCode":"84574","locality":"Taufkirchen","municipality":{"key":"09183145","name":"Taufkirchen","type":"Kreisangehörige_Gemeinde"},"district":{"key":"09183","name":"Mühldorf a.Inn","type":"Landkreis"},"federalState":{"key":"09","name":"Bayern"}},{"name":"Am Nemerfeld","postalCode":"84574","locality":"Taufkirchen","municipality":{"key":"09183145","name":"Taufkirchen","type":"Kreisangehörige_Gemeinde"},"district":{"key":"09183","name":"Mühldorf a.Inn","type":"Landkreis"},"federalState":{"key":"09","name":"Bayern"}},{"name":"Amselweg","postalCode":"82024","locality":"Taufkirchen","municipality":{"key":"09184145","name":"Taufkirchen","type":"Kreisangehörige_Gemeinde"},"district":{"key":"09184","name":"München","type":"Landkreis"},"federalState":{"key":"09","name":"Bayern"}},{"name":"Am Sportgelände","postalCode":"84416","locality":"Taufkirchen","municipality":{"key":"09177139","name":"Taufkirchen (Vils)","type":"Kreisangehörige_Gemeinde"},"district":{"key":"09177","name":"Erding","type":"Landkreis"},"federalState":{"key":"09","name":"Bayern"}},{"name":"Am Sportplatz","postalCode":"84419","locality":"Obertaufkirchen","municipality":{"key":"09183135","name":"Obertaufkirchen","type":"Kreisangehörige_Gemeinde"},"district":{"key":"09183","name":"Mühldorf a.Inn","type":"Landkreis"},"federalState":{"key":"09","name":"Bayern"}},{"name":"Am Unterfeld","postalCode":"84419","locality":"Obertaufkirchen","municipality":{"key":"09183135","name":"Obertaufkirchen","type":"Kreisangehörige_Gemeinde"},"district":{"key":"09183","name":"Mühldorf a.Inn","type":"Landkreis"},"federalState":{"key":"09","name":"Bayern"}},{"name":"Am Weidenhain","postalCode":"84416","locality":"Taufkirchen","municipality":{"key":"09177139","name":"Taufkirchen (Vils)","type":"Kreisangehörige_Gemeinde"},"district":{"key":"09177","name":"Erding","type":"Landkreis"},"federalState":{"key":"09","name":"Bayern"}},{"name":"Am Wirtsberg","postalCode":"84574","locality":"Taufkirchen","municipality":{"key":"09183145","name":"Taufkirchen","type":"Kreisangehörige_Gemeinde"},"district":{"key":"09183","name":"Mühldorf a.Inn","type":"Landkreis"},"federalState":{"key":"09","name":"Bayern"}},{"name":"Am Ziegelfeld","postalCode":"84416","locality":"Taufkirchen","municipality":{"key":"09177139","name":"Taufkirchen (Vils)","type":"Kreisangehörige_Gemeinde"},"district":{"key":"09177","name":"Erding","type":"Landkreis"},"federalState":{"key":"09","name":"Bayern"}},{"name":"Anderl Geräumt","postalCode":"82024","locality":"Taufkirchen","municipality":{"key":"09184145","name":"Taufkirchen","type":"Kreisangehörige_Gemeinde"},"district":{"key":"09184","name":"München","type":"Landkreis"},"federalState":{"key":"09","name":"Bayern"}},{"name":"An der Mangmühle","postalCode":"82024","locality":"Taufkirchen","municipality":{"key":"09184145","name":"Taufkirchen","type":"Kreisangehörige_Gemeinde"},"district":{"key":"09184","name":"München","type":"Landkreis"},"federalState":{"key":"09","name":"Bayern"}},{"name":"An der Rast","postalCode":"84419","locality":"Obertaufkirchen","municipality":{"key":"09183135","name":"Obertaufkirchen","type":"Kreisangehörige_Gemeinde"},"district":{"key":"09183","name":"Mühldorf a.Inn","type":"Landkreis"},"federalState":{"key":"09","name":"Bayern"}},{"name":"Angermüllerweg","postalCode":"82024","locality":"Taufkirchen","municipality":{"key":"09184145","name":"Taufkirchen","type":"Kreisangehörige_Gemeinde"},"district":{"key":"09184","name":"München","type":"Landkreis"},"federalState":{"key":"09","name":"Bayern"}},{"name":"Angerskirchen","postalCode":"84416","locality":"Taufkirchen","municipality":{"key":"09177139","name":"Taufkirchen (Vils)","type":"Kreisangehörige_Gemeinde"},"district":{"key":"09177","name":"Erding","type":"Landkreis"},"federalState":{"key":"09","name":"Bayern"}},{"name":"Angerweg","postalCode":"82024","locality":"Taufkirchen","municipality":{"key":"09184145","name":"Taufkirchen","type":"Kreisangehörige_Gemeinde"},"district":{"key":"09184","name":"München","type":"Landkreis"},"federalState":{"key":"09","name":"Bayern"}},{"name":"Anne-Frank-Str.","postalCode":"84416","locality":"Taufkirchen","municipality":{"key":"09177139","name":"Taufkirchen (Vils)","type":"Kreisangehörige_Gemeinde"},"district":{"key":"09177","name":"Erding","type":"Landkreis"},"federalState":{"key":"09","name":"Bayern"}},{"name":"Anzengruberstr.","postalCode":"84416","locality":"Taufkirchen","municipality":{"key":"09177139","name":"Taufkirchen (Vils)","type":"Kreisangehörige_Gemeinde"},"district":{"key":"09177","name":"Erding","type":"Landkreis"},"federalState":{"key":"09","name":"Bayern"}},{"name":"Arbeostr.","postalCode":"84416","locality":"Taufkirchen","municipality":{"key":"09177139","name":"Taufkirchen (Vils)","type":"Kreisangehörige_Gemeinde"},"district":{"key":"09177","name":"Erding","type":"Landkreis"},"federalState":{"key":"09","name":"Bayern"}},{"name":"Aspenstr.","postalCode":"82024","locality":"Taufkirchen","municipality":{"key":"09184145","name":"Taufkirchen","type":"Kreisangehörige_Gemeinde"},"district":{"key":"09184","name":"München","type":"Landkreis"},"federalState":{"key":"09","name":"Bayern"}},{"name":"Atting","postalCode":"84416","locality":"Taufkirchen","municipality":{"key":"09177139","name":"Taufkirchen (Vils)","type":"Kreisangehörige_Gemeinde"},"district":{"key":"09177","name":"Erding","type":"Landkreis"},"federalState":{"key":"09","name":"Bayern"}},{"name":"Attinger Str.","postalCode":"84416","locality":"Taufkirchen","municipality":{"key":"09177139","name":"Taufkirchen (Vils)","type":"Kreisangehörige_Gemeinde"},"district":{"key":"09177","name":"Erding","type":"Landkreis"},"federalState":{"key":"09","name":"Bayern"}},{"name":"Attinger Weg","postalCode":"84416","locality":"Taufkirchen","municipality":{"key":"09177139","name":"Taufkirchen (Vils)","type":"Kreisangehörige_Gemeinde"},"district":{"key":"09177","name":"Erding","type":"Landkreis"},"federalState":{"key":"09","name":"Bayern"}},{"name":"Aufhüttenweg","postalCode":"82024","locality":"Taufkirchen","municipality":{"key":"09184145","name":"Taufkirchen","type":"Kreisangehörige_Gemeinde"},"district":{"key":"09184","name":"München","type":"Landkreis"},"federalState":{"key":"09","name":"Bayern"}},{"name":"Aurikelstr.","postalCode":"82024","locality":"Taufkirchen","municipality":{"key":"09184145","name":"Taufkirchen","type":"Kreisangehörige_Gemeinde"},"district":{"key":"09184","name":"München","type":"Landkreis"},"federalState":{"key":"09","name":"Bayern"}},{"name":"Bachweg","postalCode":"84494","locality":"Niedertaufkirchen","municipality":{"key":"09183131","name":"Niedertaufkirchen","type":"Kreisangehörige_Gemeinde"},"district":{"key":"09183","name":"Mühldorf a.Inn","type":"Landkreis"},"federalState":{"key":"09","name":"Bayern"}},{"name":"Baderweg","postalCode":"84416","locality":"Taufkirchen","municipality":{"key":"09177139","name":"Taufkirchen (Vils)","type":"Kreisangehörige_Gemeinde"},"district":{"key":"09177","name":"Erding","type":"Landkreis"},"federalState":{"key":"09","name":"Bayern"}},{"name":"Bahnhofstr.","postalCode":"82024","locality":"Taufkirchen","municipality":{"key":"09184145","name":"Taufkirchen","type":"Kreisangehörige_Gemeinde"},"district":{"key":"09184","name":"München","type":"Landkreis"},"federalState":{"key":"09","name":"Bayern"}},{"name":"Bahnhofstr.","postalCode":"84416","locality":"Taufkirchen","municipality":{"key":"09177139","name":"Taufkirchen (Vils)","type":"Kreisangehörige_Gemeinde"},"district":{"key":"09177","name":"Erding","type":"Landkreis"},"federalState":{"key":"09","name":"Bayern"}},{"name":"Bahnweg","postalCode":"84416","locality":"Taufkirchen","municipality":{"key":"09177139","name":"Taufkirchen (Vils)","type":"Kreisangehörige_Gemeinde"},"district":{"key":"09177","name":"Erding","type":"Landkreis"},"federalState":{"key":"09","name":"Bayern"}},{"name":"Banater Str.","postalCode":"82024","locality":"Taufkirchen","municipality":{"key":"09184145","name":"Taufkirchen","type":"Kreisangehörige_Gemeinde"},"district":{"key":"09184","name":"München","type":"Landkreis"},"federalState":{"key":"09","name":"Bayern"}},{"name":"Bergplatz","postalCode":"84416","locality":"Taufkirchen","municipality":{"key":"09177139","name":"Taufkirchen (Vils)","type":"Kreisangehörige_Gemeinde"},"district":{"key":"09177","name":"Erding","type":"Landkreis"},"federalState":{"key":"09","name":"Bayern"}},{"name":"Bergstr.","postalCode":"82024","locality":"Taufkirchen","municipality":{"key":"09184145","name":"Taufkirchen","type":"Kreisangehörige_Gemeinde"},"district":{"key":"09184","name":"München","type":"Landkreis"},"federalState":{"key":"09","name":"Bayern"}},{"name":"Bergstr.","postalCode":"84416","locality":"Taufkirchen","municipality":{"key":"09177139","name":"Taufkirchen (Vils)","type":"Kreisangehörige_Gemeinde"},"district":{"key":"09177","name":"Erding","type":"Landkreis"},"federalState":{"key":"09","name":"Bayern"}},{"name":"Birkenstr.","postalCode":"82024","locality":"Taufkirchen","municipality":{"key":"09184145","name":"Taufkirchen","type":"Kreisangehörige_Gemeinde"},"district":{"key":"09184","name":"München","type":"Landkreis"},"federalState":{"key":"09","name":"Bayern"}},{"name":"Birkenstr.","postalCode":"84416","locality":"Taufkirchen","municipality":{"key":"09177139","name":"Taufkirchen (Vils)","type":"Kreisangehörige_Gemeinde"},"district":{"key":"09177","name":"Erding","type":"Landkreis"},"federalState":{"key":"09","name":"Bayern"}},{"name":"Birkenstr.","postalCode":"84419","locality":"Obertaufkirchen","municipality":{"key":"09183135","name":"Obertaufkirchen","type":"Kreisangehörige_Gemeinde"},"district":{"key":"09183","name":"Mühldorf a.Inn","type":"Landkreis"},"federalState":{"key":"09","name":"Bayern"}},{"name":"Bischof-Sailer-Str.","postalCode":"84416","locality":"Taufkirchen","municipality":{"key":"09177139","name":"Taufkirchen (Vils)","type":"Kreisangehörige_Gemeinde"},"district":{"key":"09177","name":"Erding","type":"Landkreis"},"federalState":{"key":"09","name":"Bayern"}},{"name":"Blumenstr.","postalCode":"84416","locality":"Taufkirchen","municipality":{"key":"09177139","name":"Taufkirchen (Vils)","type":"Kreisangehörige_Gemeinde"},"district":{"key":"09177","name":"Erding","type":"Landkreis"},"federalState":{"key":"09","name":"Bayern"}},{"name":"Brauerweg","postalCode":"84416","locality":"Taufkirchen","municipality":{"key":"09177139","name":"Taufkirchen (Vils)","type":"Kreisangehörige_Gemeinde"},"district":{"key":"09177","name":"Erding","type":"Landkreis"},"federalState":{"key":"09","name":"Bayern"}},{"name":"Bräuhausstr.","postalCode":"84416","locality":"Taufkirchen","municipality":{"key":"09177139","name":"Taufkirchen (Vils)","type":"Kreisangehörige_Gemeinde"},"district":{"key":"09177","name":"Erding","type":"Landkreis"},"federalState":{"key":"09","name":"Bayern"}},{"name":"Brauneckstr.","postalCode":"84416","locality":"Taufkirchen","municipality":{"key":"09177139","name":"Taufkirchen (Vils)","type":"Kreisangehörige_Gemeinde"},"district":{"key":"09177","name":"Erding","type":"Landkreis"},"federalState":{"key":"09","name":"Bayern"}},{"name":"Brennerei","postalCode":"82024","locality":"Taufkirchen","municipality":{"key":"09184145","name":"Taufkirchen","type":"Kreisangehörige_Gemeinde"},"district":{"key":"09184","name":"München","type":"Landkreis"},"federalState":{"key":"09","name":"Bayern"}},{"name":"Brunnholzring","postalCode":"84416","locality":"Taufkirchen","municipality":{"key":"09177139","name":"Taufkirchen (Vils)","type":"Kreisangehörige_Gemeinde"},"district":{"key":"09177","name":"Erding","type":"Landkreis"},"federalState":{"key":"09","name":"Bayern"}},{"name":"Brünnsteinstr.","postalCode":"84416","locality":"Taufkirchen","municipality":{"key":"09177139","name":"Taufkirchen (Vils)","type":"Kreisangehörige_Gemeinde"},"district":{"key":"09177","name":"Erding","type":"Landkreis"},"federalState":{"key":"09","name":"Bayern"}},{"name":"Brunnthaler Str.","postalCode":"82024","locality":"Taufkirchen","municipality":{"key":"09184145","name":"Taufkirchen","type":"Kreisangehörige_Gemeinde"},"district":{"key":"09184","name":"München","type":"Landkreis"},"federalState":{"key":"09","name":"Bayern"}},{"name":"Buchenlandstr.","postalCode":"82024","locality":"Taufkirchen","municipality":{"key":"09184145","name":"Taufkirchen","type":"Kreisangehörige_Gemeinde"},"district":{"key":"09184","name":"München","type":"Landkreis"},"federalState":{"key":"09","name":"Bayern"}},{"name":"Buchenstr.","postalCode":"84416","locality":"Taufkirchen","municipality":{"key":"09177139","name":"Taufkirchen (Vils)","type":"Kreisangehörige_Gemeinde"},"district":{"key":"09177","name":"Erding","type":"Landkreis"},"federalState":{"key":"09","name":"Bayern"}},{"name":"Buchenstr.","postalCode":"84574","locality":"Taufkirchen","municipality":{"key":"09183145","name":"Taufkirchen","type":"Kreisangehörige_Gemeinde"},"district":{"key":"09183","name":"Mühldorf a.Inn","type":"Landkreis"},"federalState":{"key":"09","name":"Bayern"}},{"name":"Buchenweg","postalCode":"84494","locality":"Niedertaufkirchen","municipality":{"key":"09183131","name":"Niedertaufkirchen","type":"Kreisangehörige_Gemeinde"},"district":{"key":"09183","name":"Mühldorf a.Inn","type":"Landkreis"},"federalState":{"key":"09","name":"Bayern"}},{"name":"Bürgermeister-Bauer-Str.","postalCode":"84419","locality":"Obertaufkirchen","municipality":{"key":"09183135","name":"Obertaufkirchen","type":"Kreisangehörige_Gemeinde"},"district":{"key":"09183","name":"Mühldorf a.Inn","type":"Landkreis"},"federalState":{"key":"09","name":"Bayern"}},{"name":"Bürgermeister-Weger-Ring","postalCode":"84416","locality":"Taufkirchen","municipality":{"key":"09177139","name":"Taufkirchen (Vils)","type":"Kreisangehörige_Gemeinde"},"district":{"key":"09177","name":"Erding","type":"Landkreis"},"federalState":{"key":"09","name":"Bayern"}},{"name":"Bürgerpark","postalCode":"84416","locality":"Taufkirchen","municipality":{"key":"09177139","name":"Taufkirchen (Vils)","type":"Kreisangehörige_Gemeinde"},"district":{"key":"09177","name":"Erding","type":"Landkreis"},"federalState":{"key":"09","name":"Bayern"}},{"name":"Bussardstr.","postalCode":"82024","locality":"Taufkirchen","municipality":{"key":"09184145","name":"Taufkirchen","type":"Kreisangehörige_Gemeinde"},"district":{"key":"09184","name":"München","type":"Landkreis"},"federalState":{"key":"09","name":"Bayern"}},{"name":"Carl-Orff-Str.","postalCode":"84416","locality":"Taufkirchen","municipality":{"key":"09177139","name":"Taufkirchen (Vils)","type":"Kreisangehörige_Gemeinde"},"district":{"key":"09177","name":"Erding","type":"Landkreis"},"federalState":{"key":"09","name":"Bayern"}},{"name":"Caroline-Herschel-Str.","postalCode":"82024","locality":"Taufkirchen","municipality":{"key":"09184145","name":"Taufkirchen","type":"Kreisangehörige_Gemeinde"},"district":{"key":"09184","name":"München","type":"Landkreis"},"federalState":{"key":"09","name":"Bayern"}},{"name":"Dachsteinstr.","postalCode":"84416","locality":"Taufkirchen","municipality":{"key":"09177139","name":"Taufkirchen (Vils)","type":"Kreisangehörige_Gemeinde"},"district":{"key":"09177","name":"Erding","type":"Landkreis"},"federalState":{"key":"09","name":"Bayern"}},{"name":"Daimlerstr.","postalCode":"84419","locality":"Obertaufkirchen","municipality":{"key":"09183135","name":"Obertaufkirchen","type":"Kreisangehörige_Gemeinde"},"district":{"key":"09183","name":"Mühldorf a.Inn","type":"Landkreis"},"federalState":{"key":"09","name":"Bayern"}},{"name":"Dammbauerweg","postalCode":"82024","locality":"Taufkirchen","municipality":{"key":"09184145","name":"Taufkirchen","type":"Kreisangehörige_Gemeinde"},"district":{"key":"09184","name":"München","type":"Landkreis"},"federalState":{"key":"09","name":"Bayern"}},{"name":"Dammerbauerweg","postalCode":"82024","locality":"Taufkirchen","municipality":{"key":"09184145","name":"Taufkirchen","type":"Kreisangehörige_Gemeinde"},"district":{"key":"09184","name":"München","type":"Landkreis"},"federalState":{"key":"09","name":"Bayern"}},{"name":"Dieselstr.","postalCode":"84419","locality":"Obertaufkirchen","municipality":{"key":"09183135","name":"Obertaufkirchen","type":"Kreisangehörige_Gemeinde"},"district":{"key":"09183","name":"Mühldorf a.Inn","type":"Landkreis"},"federalState":{"key":"09","name":"Bayern"}},{"name":"Don-Bosco-Str.","postalCode":"84416","locality":"Taufkirchen","municipality":{"key":"09177139","name":"Taufkirchen (Vils)","type":"Kreisangehörige_Gemeinde"},"district":{"key":"09177","name":"Erding","type":"Landkreis"},"federalState":{"key":"09","name":"Bayern"}},{"name":"Dorfener Str.","postalCode":"84416","locality":"Taufkirchen","municipality":{"key":"09177139","name":"Taufkirchen (Vils)","type":"Kreisangehörige_Gemeinde"},"district":{"key":"09177","name":"Erding","type":"Landkreis"},"federalState":{"key":"09","name":"Bayern"}},{"name":"Dorfplatz","postalCode":"84419","locality":"Obertaufkirchen","municipality":{"key":"09183135","name":"Obertaufkirchen","type":"Kreisangehörige_Gemeinde"},"district":{"key":"09183","name":"Mühldorf a.Inn","type":"Landkreis"},"federalState":{"key":"09","name":"Bayern"}},{"name":"Dorfstr.","postalCode":"82024","locality":"Taufkirchen","municipality":{"key":"09184145","name":"Taufkirchen","type":"Kreisangehörige_Gemeinde"},"district":{"key":"09184","name":"München","type":"Landkreis"},"federalState":{"key":"09","name":"Bayern"}},{"name":"Dorfstr.","postalCode":"84574","locality":"Taufkirchen","municipality":{"key":"09183145","name":"Taufkirchen","type":"Kreisangehörige_Gemeinde"},"district":{"key":"09183","name":"Mühldorf a.Inn","type":"Landkreis"},"federalState":{"key":"09","name":"Bayern"}},{"name":"Dr.-Winklmann-Weg","postalCode":"84416","locality":"Taufkirchen","municipality":{"key":"09177139","name":"Taufkirchen (Vils)","type":"Kreisangehörige_Gemeinde"},"district":{"key":"09177","name":"Erding","type":"Landkreis"},"federalState":{"key":"09","name":"Bayern"}},{"name":"Edelweißstr.","postalCode":"82024","locality":"Taufkirchen","municipality":{"key":"09184145","name":"Taufkirchen","type":"Kreisangehörige_Gemeinde"},"district":{"key":"09184","name":"München","type":"Landkreis"},"federalState":{"key":"09","name":"Bayern"}},{"name":"Edith-Stein-Str.","postalCode":"84416","locality":"Taufkirchen","municipality":{"key":"09177139","name":"Taufkirchen (Vils)","type":"Kreisangehörige_Gemeinde"},"district":{"key":"09177","name":"Erding","type":"Landkreis"},"federalState":{"key":"09","name":"Bayern"}},{"name":"Efeuweg","postalCode":"84416","locality":"Taufkirchen","municipality":{"key":"09177139","name":"Taufkirchen (Vils)","type":"Kreisangehörige_Gemeinde"},"district":{"key":"09177","name":"Erding","type":"Landkreis"},"federalState":{"key":"09","name":"Bayern"}},{"name":"Egerländer Str.","postalCode":"82024","locality":"Taufkirchen","municipality":{"key":"09184145","name":"Taufkirchen","type":"Kreisangehörige_Gemeinde"},"district":{"key":"09184","name":"München","type":"Landkreis"},"federalState":{"key":"09","name":"Bayern"}},{"name":"Egerstr.","postalCode":"84416","locality":"Taufkirchen","municipality":{"key":"09177139","name":"Taufkirchen (Vils)","type":"Kreisangehörige_Gemeinde"},"district":{"key":"09177","name":"Erding","type":"Landkreis"},"federalState":{"key":"09","name":"Bayern"}},{"name":"Eibenweg","postalCode":"84416","locality":"Taufkirchen","municipality":{"key":"09177139","name":"Taufkirchen (Vils)","type":"Kreisangehörige_Gemeinde"},"district":{"key":"09177","name":"Erding","type":"Landkreis"},"federalState":{"key":"09","name":"Bayern"}},{"name":"Eichendorffstr.","postalCode":"84416","locality":"Taufkirchen","municipality":{"key":"09177139","name":"Taufkirchen (Vils)","type":"Kreisangehörige_Gemeinde"},"district":{"key":"09177","name":"Erding","type":"Landkreis"},"federalState":{"key":"09","name":"Bayern"}},{"name":"Eichenstr.","postalCode":"82024","locality":"Taufkirchen","municipality":{"key":"09184145","name":"Taufkirchen","type":"Kreisangehörige_Gemeinde"},"district":{"key":"09184","name":"München","type":"Landkreis"},"federalState":{"key":"09","name":"Bayern"}},{"name":"Eichenstr.","postalCode":"84419","locality":"Obertaufkirchen","municipality":{"key":"09183135","name":"Obertaufkirchen","type":"Kreisangehörige_Gemeinde"},"district":{"key":"09183","name":"Mühldorf a.Inn","type":"Landkreis"},"federalState":{"key":"09","name":"Bayern"}},{"name":"Einfeldstr.","postalCode":"84494","locality":"Niedertaufkirchen","municipality":{"key":"09183131","name":"Niedertaufkirchen","type":"Kreisangehörige_Gemeinde"},"district":{"key":"09183","name":"Mühldorf a.Inn","type":"Landkreis"},"federalState":{"key":"09","name":"Bayern"}},{"name":"Einsteinstr.","postalCode":"82024","locality":"Taufkirchen","municipality":{"key":"09184145","name":"Taufkirchen","type":"Kreisangehörige_Gemeinde"},"district":{"key":"09184","name":"München","type":"Landkreis"},"federalState":{"key":"09","name":"Bayern"}},{"name":"Eisenauer Str.","postalCode":"84416","locality":"Taufkirchen","municipality":{"key":"09177139","name":"Taufkirchen (Vils)","type":"Kreisangehörige_Gemeinde"},"district":{"key":"09177","name":"Erding","type":"Landkreis"},"federalState":{"key":"09","name":"Bayern"}},{"name":"Elsterweg","postalCode":"82024","locality":"Taufkirchen","municipality":{"key":"09184145","name":"Taufkirchen","type":"Kreisangehörige_Gemeinde"},"district":{"key":"09184","name":"München","type":"Landkreis"},"federalState":{"key":"09","name":"Bayern"}},{"name":"Enzianring","postalCode":"82024","locality":"Taufkirchen","municipality":{"key":"09184145","name":"Taufkirchen","type":"Kreisangehörige_Gemeinde"},"district":{"key":"09184","name":"München","type":"Landkreis"},"federalState":{"key":"09","name":"Bayern"}},{"name":"Erdinger Str.","postalCode":"84416","locality":"Taufkirchen","municipality":{"key":"09177139","name":"Taufkirchen (Vils)","type":"Kreisangehörige_Gemeinde"},"district":{"key":"09177","name":"Erding","type":"Landkreis"},"federalState":{"key":"09","name":"Bayern"}},{"name":"Erlenstr.","postalCode":"84416","locality":"Taufkirchen","municipality":{"key":"09177139","name":"Taufkirchen (Vils)","type":"Kreisangehörige_Gemeinde"},"district":{"key":"09177","name":"Erding","type":"Landkreis"},"federalState":{"key":"09","name":"Bayern"}},{"name":"Erlenweg","postalCode":"82024","locality":"Taufkirchen","municipality":{"key":"09184145","name":"Taufkirchen","type":"Kreisangehörige_Gemeinde"},"district":{"key":"09184","name":"München","type":"Landkreis"},"federalState":{"key":"09","name":"Bayern"}},{"name":"Erlenweg","postalCode":"84494","locality":"Niedertaufkirchen","municipality":{"key":"09183131","name":"Niedertaufkirchen","type":"Kreisangehörige_Gemeinde"},"district":{"key":"09183","name":"Mühldorf a.Inn","type":"Landkreis"},"federalState":{"key":"09","name":"Bayern"}},{"name":"Eschenstr.","postalCode":"82024","locality":"Taufkirchen","municipality":{"key":"09184145","name":"Taufkirchen","type":"Kreisangehörige_Gemeinde"},"district":{"key":"09184","name":"München","type":"Landkreis"},"federalState":{"key":"09","name":"Bayern"}},{"name":"Eschenstr.","postalCode":"84416","locality":"Taufkirchen","municipality":{"key":"09177139","name":"Taufkirchen (Vils)","type":"Kreisangehörige_Gemeinde"},"district":{"key":"09177","name":"Erding","type":"Landkreis"},"federalState":{"key":"09","name":"Bayern"}},{"name":"Eugen-Sänger-Ring","postalCode":"82024","locality":"Taufkirchen","municipality":{"key":"09184145","name":"Taufkirchen","type":"Kreisangehörige_Gemeinde"},"district":{"key":"09184","name":"München","type":"Landkreis"},"federalState":{"key":"09","name":"Bayern"}},{"name":"Eulenstr.","postalCode":"82024","locality":"Taufkirchen","municipality":{"key":"09184145","name":"Taufkirchen","type":"Kreisangehörige_Gemeinde"},"district":{"key":"09184","name":"München","type":"Landkreis"},"federalState":{"key":"09","name":"Bayern"}},{"name":"Falkenstr.","postalCode":"82024","locality":"Taufkirchen","municipality":{"key":"09184145","name":"Taufkirchen","type":"Kreisangehörige_Gemeinde"},"district":{"key":"09184","name":"München","type":"Landkreis"},"federalState":{"key":"09","name":"Bayern"}},{"name":"Feldstr.","postalCode":"84416","locality":"Taufkirchen","municipality":{"key":"09177139","name":"Taufkirchen (Vils)","type":"Kreisangehörige_Gemeinde"},"district":{"key":"09177","name":"Erding","type":"Landkreis"},"federalState":{"key":"09","name":"Bayern"}},{"name":"Fichtenstr.","postalCode":"84416","locality":"Taufkirchen","municipality":{"key":"09177139","name":"Taufkirchen (Vils)","type":"Kreisangehörige_Gemeinde"},"district":{"key":"09177","name":"Erding","type":"Landkreis"},"federalState":{"key":"09","name":"Bayern"}},{"name":"Fichtenweg","postalCode":"82024","locality":"Taufkirchen","municipality":{"key":"09184145","name":"Taufkirchen","type":"Kreisangehörige_Gemeinde"},"district":{"key":"09184","name":"München","type":"Landkreis"},"federalState":{"key":"09","name":"Bayern"}},{"name":"Finkenstr.","postalCode":"82024","locality":"Taufkirchen","municipality":{"key":"09184145","name":"Taufkirchen","type":"Kreisangehörige_Gemeinde"},"district":{"key":"09184","name":"München","type":"Landkreis"},"federalState":{"key":"09","name":"Bayern"}},{"name":"Fischerstr.","postalCode":"84416","locality":"Taufkirchen","municipality":{"key":"09177139","name":"Taufkirchen (Vils)","type":"Kreisangehörige_Gemeinde"},"district":{"key":"09177","name":"Erding","type":"Landkreis"},"federalState":{"key":"09","name":"Bayern"}},{"name":"Flaringer Berg","postalCode":"84416","locality":"Taufkirchen","municipality":{"key":"09177139","name":"Taufkirchen (Vils)","type":"Kreisangehörige_Gemeinde"},"district":{"key":"09177","name":"Erding","type":"Landkreis"},"federalState":{"key":"09","name":"Bayern"}},{"name":"Flurstr.","postalCode":"84416","locality":"Taufkirchen","municipality":{"key":"09177139","name":"Taufkirchen (Vils)","type":"Kreisangehörige_Gemeinde"},"district":{"key":"09177","name":"Erding","type":"Landkreis"},"federalState":{"key":"09","name":"Bayern"}},{"name":"Flurstr.","postalCode":"84494","locality":"Niedertaufkirchen","municipality":{"key":"09183131","name":"Niedertaufkirchen","type":"Kreisangehörige_Gemeinde"},"district":{"key":"09183","name":"Mühldorf a.Inn","type":"Landkreis"},"federalState":{"key":"09","name":"Bayern"}},{"name":"Flurweg","postalCode":"82024","locality":"Taufkirchen","municipality":{"key":"09184145","name":"Taufkirchen","type":"Kreisangehörige_Gemeinde"},"district":{"key":"09184","name":"München","type":"Landkreis"},"federalState":{"key":"09","name":"Bayern"}},{"name":"Föhrenstr.","postalCode":"84416","locality":"Taufkirchen","municipality":{"key":"09177139","name":"Taufkirchen (Vils)","type":"Kreisangehörige_Gemeinde"},"district":{"key":"09177","name":"Erding","type":"Landkreis"},"federalState":{"key":"09","name":"Bayern"}},{"name":"Forstweg","postalCode":"82024","locality":"Taufkirchen","municipality":{"key":"09184145","name":"Taufkirchen","type":"Kreisangehörige_Gemeinde"},"district":{"key":"09184","name":"München","type":"Landkreis"},"federalState":{"key":"09","name":"Bayern"}},{"name":"Frauenvils","postalCode":"84416","locality":"Taufkirchen","municipality":{"key":"09177139","name":"Taufkirchen (Vils)","type":"Kreisangehörige_Gemeinde"},"district":{"key":"09177","name":"Erding","type":"Landkreis"},"federalState":{"key":"09","name":"Bayern"}},{"name":"Fraunbergerstr.","postalCode":"84416","locality":"Taufkirchen","municipality":{"key":"09177139","name":"Taufkirchen (Vils)","type":"Kreisangehörige_Gemeinde"},"district":{"key":"09177","name":"Erding","type":"Landkreis"},"federalState":{"key":"09","name":"Bayern"}},{"name":"Fuggerstr.","postalCode":"84416","locality":"Taufkirchen","municipality":{"key":"09177139","name":"Taufkirchen (Vils)","type":"Kreisangehörige_Gemeinde"},"district":{"key":"09177","name":"Erding","type":"Landkreis"},"federalState":{"key":"09","name":"Bayern"}},{"name":"Ganghoferstr.","postalCode":"84416","locality":"Taufkirchen","municipality":{"key":"09177139","name":"Taufkirchen (Vils)","type":"Kreisangehörige_Gemeinde"},"district":{"key":"09177","name":"Erding","type":"Landkreis"},"federalState":{"key":"09","name":"Bayern"}},{"name":"Gartenweg","postalCode":"84416","locality":"Taufkirchen","municipality":{"key":"09177139","name":"Taufkirchen (Vils)","type":"Kreisangehörige_Gemeinde"},"district":{"key":"09177","name":"Erding","type":"Landkreis"},"federalState":{"key":"09","name":"Bayern"}},{"name":"Geisberg","postalCode":"84574","locality":"Taufkirchen","municipality":{"key":"09183145","name":"Taufkirchen","type":"Kreisangehörige_Gemeinde"},"district":{"key":"09183","name":"Mühldorf a.Inn","type":"Landkreis"},"federalState":{"key":"09","name":"Bayern"}},{"name":"Geistl.-Rat-Bachmaier-Str.","postalCode":"84416","locality":"Taufkirchen","municipality":{"key":"09177139","name":"Taufkirchen (Vils)","type":"Kreisangehörige_Gemeinde"},"district":{"key":"09177","name":"Erding","type":"Landkreis"},"federalState":{"key":"09","name":"Bayern"}},{"name":"Geistl.-Rat-Gruber-Weg","postalCode":"84416","locality":"Taufkirchen","municipality":{"key":"09177139","name":"Taufkirchen (Vils)","type":"Kreisangehörige_Gemeinde"},"district":{"key":"09177","name":"Erding","type":"Landkreis"},"federalState":{"key":"09","name":"Bayern"}},{"name":"Gewerbering","postalCode":"84416","locality":"Taufkirchen","municipality":{"key":"09177139","name":"Taufkirchen (Vils)","type":"Kreisangehörige_Gemeinde"},"district":{"key":"09177","name":"Erding","type":"Landkreis"},"federalState":{"key":"09","name":"Bayern"}},{"name":"Ginsterweg","postalCode":"84416","locality":"Taufkirchen","municipality":{"key":"09177139","name":"Taufkirchen (Vils)","type":"Kreisangehörige_Gemeinde"},"district":{"key":"09177","name":"Erding","type":"Landkreis"},"federalState":{"key":"09","name":"Bayern"}},{"name":"Grimmerweg","postalCode":"82024","locality":"Taufkirchen","municipality":{"key":"09184145","name":"Taufkirchen","type":"Kreisangehörige_Gemeinde"},"district":{"key":"09184","name":"München","type":"Landkreis"},"federalState":{"key":"09","name":"Bayern"}},{"name":"Grüngiebing","postalCode":"84419","locality":"Obertaufkirchen","municipality":{"key":"09183135","name":"Obertaufkirchen","type":"Kreisangehörige_Gemeinde"},"district":{"key":"09183","name":"Mühldorf a.Inn","type":"Landkreis"},"federalState":{"key":"09","name":"Bayern"}},{"name":"Haager Str.","postalCode":"84419","locality":"Obertaufkirchen","municipality":{"key":"09183135","name":"Obertaufkirchen","type":"Kreisangehörige_Gemeinde"},"district":{"key":"09183","name":"Mühldorf a.Inn","type":"Landkreis"},"federalState":{"key":"09","name":"Bayern"}},{"name":"Hagweg","postalCode":"82024","locality":"Taufkirchen","municipality":{"key":"09184145","name":"Taufkirchen","type":"Kreisangehörige_Gemeinde"},"district":{"key":"09184","name":"München","type":"Landkreis"},"federalState":{"key":"09","name":"Bayern"}},{"name":"Hainbuchenstr.","postalCode":"82024","locality":"Taufkirchen","municipality":{"key":"09184145","name":"Taufkirchen","type":"Kreisangehörige_Gemeinde"},"district":{"key":"09184","name":"München","type":"Landkreis"},"federalState":{"key":"09","name":"Bayern"}},{"name":"Hainbuchenweg","postalCode":"84416","locality":"Taufkirchen","municipality":{"key":"09177139","name":"Taufkirchen (Vils)","type":"Kreisangehörige_Gemeinde"},"district":{"key":"09177","name":"Erding","type":"Landkreis"},"federalState":{"key":"09","name":"Bayern"}},{"name":"Hans-Kalb-Weg","postalCode":"82024","locality":"Taufkirchen","municipality":{"key":"09184145","name":"Taufkirchen","type":"Kreisangehörige_Gemeinde"},"district":{"key":"09184","name":"München","type":"Landkreis"},"federalState":{"key":"09","name":"Bayern"}},{"name":"Haselweg","postalCode":"82024","locality":"Taufkirchen","municipality":{"key":"09184145","name":"Taufkirchen","type":"Kreisangehörige_Gemeinde"},"district":{"key":"09184","name":"München","type":"Landkreis"},"federalState":{"key":"09","name":"Bayern"}},{"name":"Hauptstr.","postalCode":"84416","locality":"Taufkirchen","municipality":{"key":"09177139","name":"Taufkirchen (Vils)","type":"Kreisangehörige_Gemeinde"},"district":{"key":"09177","name":"Erding","type":"Landkreis"},"federalState":{"key":"09","name":"Bayern"}},{"name":"Hauptstr.","postalCode":"84419","locality":"Obertaufkirchen","municipality":{"key":"09183135","name":"Obertaufkirchen","type":"Kreisangehörige_Gemeinde"},"district":{"key":"09183","name":"Mühldorf a.Inn","type":"Landkreis"},"federalState":{"key":"09","name":"Bayern"}},{"name":"Hauptstr.","postalCode":"84494","locality":"Niedertaufkirchen","municipality":{"key":"09183131","name":"Niedertaufkirchen","type":"Kreisangehörige_Gemeinde"},"district":{"key":"09183","name":"Mühldorf a.Inn","type":"Landkreis"},"federalState":{"key":"09","name":"Bayern"}},{"name":"Hilpolding","postalCode":"84416","locality":"Taufkirchen","municipality":{"key":"09177139","name":"Taufkirchen (Vils)","type":"Kreisangehörige_Gemeinde"},"district":{"key":"09177","name":"Erding","type":"Landkreis"},"federalState":{"key":"09","name":"Bayern"}},{"name":"Hinterm Hofanger","postalCode":"82024","locality":"Taufkirchen","municipality":{"key":"09184145","name":"Taufkirchen","type":"Kreisangehörige_Gemeinde"},"district":{"key":"09184","name":"München","type":"Landkreis"},"federalState":{"key":"09","name":"Bayern"}},{"name":"Hirtenweg","postalCode":"82024","locality":"Taufkirchen","municipality":{"key":"09184145","name":"Taufkirchen","type":"Kreisangehörige_Gemeinde"},"district":{"key":"09184","name":"München","type":"Landkreis"},"federalState":{"key":"09","name":"Bayern"}},{"name":"Hochfellnstr.","postalCode":"84416","locality":"Taufkirchen","municipality":{"key":"09177139","name":"Taufkirchen (Vils)","type":"Kreisangehörige_Gemeinde"},"district":{"key":"09177","name":"Erding","type":"Landkreis"},"federalState":{"key":"09","name":"Bayern"}},{"name":"Hochgernstr.","postalCode":"84416","locality":"Taufkirchen","municipality":{"key":"09177139","name":"Taufkirchen (Vils)","type":"Kreisangehörige_Gemeinde"},"district":{"key":"09177","name":"Erding","type":"Landkreis"},"federalState":{"key":"09","name":"Bayern"}},{"name":"Hochöder Str.","postalCode":"84416","locality":"Taufkirchen","municipality":{"key":"09177139","name":"Taufkirchen (Vils)","type":"Kreisangehörige_Gemeinde"},"district":{"key":"09177","name":"Erding","type":"Landkreis"},"federalState":{"key":"09","name":"Bayern"}},{"name":"Hochplattenstr.","postalCode":"84416","locality":"Taufkirchen","municipality":{"key":"09177139","name":"Taufkirchen (Vils)","type":"Kreisangehörige_Gemeinde"},"district":{"key":"09177","name":"Erding","type":"Landkreis"},"federalState":{"key":"09","name":"Bayern"}},{"name":"Hochrießstr.","postalCode":"84416","locality":"Taufkirchen","municipality":{"key":"09177139","name":"Taufkirchen (Vils)","type":"Kreisangehörige_Gemeinde"},"district":{"key":"09177","name":"Erding","type":"Landkreis"},"federalState":{"key":"09","name":"Bayern"}},{"name":"Hochstr.","postalCode":"82024","locality":"Taufkirchen","municipality":{"key":"09184145","name":"Taufkirchen","type":"Kreisangehörige_Gemeinde"},"district":{"key":"09184","name":"München","type":"Landkreis"},"federalState":{"key":"09","name":"Bayern"}},{"name":"Hochstr.","postalCode":"84416","locality":"Taufkirchen","municipality":{"key":"09177139","name":"Taufkirchen (Vils)","type":"Kreisangehörige_Gemeinde"},"district":{"key":"09177","name":"Erding","type":"Landkreis"},"federalState":{"key":"09","name":"Bayern"}},{"name":"Hohenbrunner Str.","postalCode":"82024","locality":"Taufkirchen","municipality":{"key":"09184145","name":"Taufkirchen","type":"Kreisangehörige_Gemeinde"},"district":{"key":"09184","name":"München","type":"Landkreis"},"federalState":{"key":"09","name":"Bayern"}},{"name":"Hohenbrunner Weg","postalCode":"82024","locality":"Taufkirchen","municipality":{"key":"09184145","name":"Taufkirchen","type":"Kreisangehörige_Gemeinde"},"district":{"key":"09184","name":"München","type":"Landkreis"},"federalState":{"key":"09","name":"Bayern"}},{"name":"Hohenthanner Str.","postalCode":"84419","locality":"Obertaufkirchen","municipality":{"key":"09183135","name":"Obertaufkirchen","type":"Kreisangehörige_Gemeinde"},"district":{"key":"09183","name":"Mühldorf a.Inn","type":"Landkreis"},"federalState":{"key":"09","name":"Bayern"}},{"name":"Holunderweg","postalCode":"84416","locality":"Taufkirchen","municipality":{"key":"09177139","name":"Taufkirchen (Vils)","type":"Kreisangehörige_Gemeinde"},"district":{"key":"09177","name":"Erding","type":"Landkreis"},"federalState":{"key":"09","name":"Bayern"}},{"name":"Hötzlhof","postalCode":"84574","locality":"Taufkirchen","municipality":{"key":"09183145","name":"Taufkirchen","type":"Kreisangehörige_Gemeinde"},"district":{"key":"09183","name":"Mühldorf a.Inn","type":"Landkreis"},"federalState":{"key":"09","name":"Bayern"}},{"name":"Hötzlstr.","postalCode":"84574","locality":"Taufkirchen","municipality":{"key":"09183145","name":"Taufkirchen","type":"Kreisangehörige_Gemeinde"},"district":{"key":"09183","name":"Mühldorf a.Inn","type":"Landkreis"},"federalState":{"key":"09","name":"Bayern"}},{"name":"Im Mitterfeld","postalCode":"82024","locality":"Taufkirchen","municipality":{"key":"09184145","name":"Taufkirchen","type":"Kreisangehörige_Gemeinde"},"district":{"key":"09184","name":"München","type":"Landkreis"},"federalState":{"key":"09","name":"Bayern"}},{"name":"Jadwigastr.","postalCode":"84416","locality":"Taufkirchen","municipality":{"key":"09177139","name":"Taufkirchen (Vils)","type":"Kreisangehörige_Gemeinde"},"district":{"key":"09177","name":"Erding","type":"Landkreis"},"federalState":{"key":"09","name":"Bayern"}},{"name":"Jägerstr.","postalCode":"82024","locality":"Taufkirchen","municipality":{"key":"09184145","name":"Taufkirchen","type":"Kreisangehörige_Gemeinde"},"district":{"key":"09184","name":"München","type":"Landkreis"},"federalState":{"key":"09","name":"Bayern"}},{"name":"Jakob-Engl-Str.","postalCode":"84419","locality":"Obertaufkirchen","municipality":{"key":"09183135","name":"Obertaufkirchen","type":"Kreisangehörige_Gemeinde"},"district":{"key":"09183","name":"Mühldorf a.Inn","type":"Landkreis"},"federalState":{"key":"09","name":"Bayern"}},{"name":"Jennerweg","postalCode":"84416","locality":"Taufkirchen","municipality":{"key":"09177139","name":"Taufkirchen (Vils)","type":"Kreisangehörige_Gemeinde"},"district":{"key":"09177","name":"Erding","type":"Landkreis"},"federalState":{"key":"09","name":"Bayern"}},{"name":"Jettenstetten","postalCode":"84416","locality":"Taufkirchen","municipality":{"key":"09177139","name":"Taufkirchen (Vils)","type":"Kreisangehörige_Gemeinde"},"district":{"key":"09177","name":"Erding","type":"Landkreis"},"federalState":{"key":"09","name":"Bayern"}},{"name":"Johannesstr.","postalCode":"84416","locality":"Taufkirchen","municipality":{"key":"09177139","name":"Taufkirchen (Vils)","type":"Kreisangehörige_Gemeinde"},"district":{"key":"09177","name":"Erding","type":"Landkreis"},"federalState":{"key":"09","name":"Bayern"}},{"name":"Josef-Martin-Bauer-Ring","postalCode":"84416","locality":"Taufkirchen","municipality":{"key":"09177139","name":"Taufkirchen (Vils)","type":"Kreisangehörige_Gemeinde"},"district":{"key":"09177","name":"Erding","type":"Landkreis"},"federalState":{"key":"09","name":"Bayern"}},{"name":"Kampenwandstr.","postalCode":"84416","locality":"Taufkirchen","municipality":{"key":"09177139","name":"Taufkirchen (Vils)","type":"Kreisangehörige_Gemeinde"},"district":{"key":"09177","name":"Erding","type":"Landkreis"},"federalState":{"key":"09","name":"Bayern"}},{"name":"Karwendelstr.","postalCode":"82024","locality":"Taufkirchen","municipality":{"key":"09184145","name":"Taufkirchen","type":"Kreisangehörige_Gemeinde"},"district":{"key":"09184","name":"München","type":"Landkreis"},"federalState":{"key":"09","name":"Bayern"}},{"name":"Karwendelstr.","postalCode":"84416","locality":"Taufkirchen","municipality":{"key":"09177139","name":"Taufkirchen (Vils)","type":"Kreisangehörige_Gemeinde"},"district":{"key":"09177","name":"Erding","type":"Landkreis"},"federalState":{"key":"09","name":"Bayern"}},{"name":"Kastanienstr.","postalCode":"84416","locality":"Taufkirchen","municipality":{"key":"09177139","name":"Taufkirchen (Vils)","type":"Kreisangehörige_Gemeinde"},"district":{"key":"09177","name":"Erding","type":"Landkreis"},"federalState":{"key":"09","name":"Bayern"}},{"name":"Kastanienweg","postalCode":"82024","locality":"Taufkirchen","municipality":{"key":"09184145","name":"Taufkirchen","type":"Kreisangehörige_Gemeinde"},"district":{"key":"09184","name":"München","type":"Landkreis"},"federalState":{"key":"09","name":"Bayern"}},{"name":"Käthe-Kruse-Str.","postalCode":"84416","locality":"Taufkirchen","municipality":{"key":"09177139","name":"Taufkirchen (Vils)","type":"Kreisangehörige_Gemeinde"},"district":{"key":"09177","name":"Erding","type":"Landkreis"},"federalState":{"key":"09","name":"Bayern"}},{"name":"Kellerberg","postalCode":"84416","locality":"Taufkirchen","municipality":{"key":"09177139","name":"Taufkirchen (Vils)","type":"Kreisangehörige_Gemeinde"},"district":{"key":"09177","name":"Erding","type":"Landkreis"},"federalState":{"key":"09","name":"Bayern"}},{"name":"Kellerstr.","postalCode":"84416","locality":"Taufkirchen","municipality":{"key":"09177139","name":"Taufkirchen (Vils)","type":"Kreisangehörige_Gemeinde"},"district":{"key":"09177","name":"Erding","type":"Landkreis"},"federalState":{"key":"09","name":"Bayern"}},{"name":"Keltenring","postalCode":"82024","locality":"Taufkirchen","municipality":{"key":"09184145","name":"Taufkirchen","type":"Kreisangehörige_Gemeinde"},"district":{"key":"09184","name":"München","type":"Landkreis"},"federalState":{"key":"09","name":"Bayern"}},{"name":"Kiefernweg","postalCode":"82024","locality":"Taufkirchen","municipality":{"key":"09184145","name":"Taufkirchen","type":"Kreisangehörige_Gemeinde"},"district":{"key":"09184","name":"München","type":"Landkreis"},"federalState":{"key":"09","name":"Bayern"}},{"name":"Kiefernweg","postalCode":"84416","locality":"Taufkirchen","municipality":{"key":"09177139","name":"Taufkirchen (Vils)","type":"Kreisangehörige_Gemeinde"},"district":{"key":"09177","name":"Erding","type":"Landkreis"},"federalState":{"key":"09","name":"Bayern"}},{"name":"Kirchlerner Weg","postalCode":"84416","locality":"Taufkirchen","municipality":{"key":"09177139","name":"Taufkirchen (Vils)","type":"Kreisangehörige_Gemeinde"},"district":{"key":"09177","name":"Erding","type":"Landkreis"},"federalState":{"key":"09","name":"Bayern"}},{"name":"Kirchplatz","postalCode":"84419","locality":"Obertaufkirchen","municipality":{"key":"09183135","name":"Obertaufkirchen","type":"Kreisangehörige_Gemeinde"},"district":{"key":"09183","name":"Mühldorf a.Inn","type":"Landkreis"},"federalState":{"key":"09","name":"Bayern"}},{"name":"Kirchplatz","postalCode":"84574","locality":"Taufkirchen","municipality":{"key":"09183145","name":"Taufkirchen","type":"Kreisangehörige_Gemeinde"},"district":{"key":"09183","name":"Mühldorf a.Inn","type":"Landkreis"},"federalState":{"key":"09","name":"Bayern"}},{"name":"Kirchstr.","postalCode":"84419","locality":"Obertaufkirchen","municipality":{"key":"09183135","name":"Obertaufkirchen","type":"Kreisangehörige_Gemeinde"},"district":{"key":"09183","name":"Mühldorf a.Inn","type":"Landkreis"},"federalState":{"key":"09","name":"Bayern"}},{"name":"Kirschenstr.","postalCode":"82024","locality":"Taufkirchen","municipality":{"key":"09184145","name":"Taufkirchen","type":"Kreisangehörige_Gemeinde"},"district":{"key":"09184","name":"München","type":"Landkreis"},"federalState":{"key":"09","name":"Bayern"}},{"name":"Kleines Geräumt","postalCode":"82024","locality":"Taufkirchen","municipality":{"key":"09184145","name":"Taufkirchen","type":"Kreisangehörige_Gemeinde"},"district":{"key":"09184","name":"München","type":"Landkreis"},"federalState":{"key":"09","name":"Bayern"}},{"name":"Köglweg","postalCode":"82024","locality":"Taufkirchen","municipality":{"key":"09184145","name":"Taufkirchen","type":"Kreisangehörige_Gemeinde"},"district":{"key":"09184","name":"München","type":"Landkreis"},"federalState":{"key":"09","name":"Bayern"}},{"name":"Kolpingstr.","postalCode":"84416","locality":"Taufkirchen","municipality":{"key":"09177139","name":"Taufkirchen (Vils)","type":"Kreisangehörige_Gemeinde"},"district":{"key":"09177","name":"Erding","type":"Landkreis"},"federalState":{"key":"09","name":"Bayern"}},{"name":"Korbinianstr.","postalCode":"84416","locality":"Taufkirchen","municipality":{"key":"09177139","name":"Taufkirchen (Vils)","type":"Kreisangehörige_Gemeinde"},"district":{"key":"09177","name":"Erding","type":"Landkreis"},"federalState":{"key":"09","name":"Bayern"}},{"name":"Krokusweg","postalCode":"84416","locality":"Taufkirchen","municipality":{"key":"09177139","name":"Taufkirchen (Vils)","type":"Kreisangehörige_Gemeinde"},"district":{"key":"09177","name":"Erding","type":"Landkreis"},"federalState":{"key":"09","name":"Bayern"}},{"name":"Krummauer Str.","postalCode":"84416","locality":"Taufkirchen","municipality":{"key":"09177139","name":"Taufkirchen (Vils)","type":"Kreisangehörige_Gemeinde"},"district":{"key":"09177","name":"Erding","type":"Landkreis"},"federalState":{"key":"09","name":"Bayern"}},{"name":"Lackenschusterweg","postalCode":"82024","locality":"Taufkirchen","municipality":{"key":"09184145","name":"Taufkirchen","type":"Kreisangehörige_Gemeinde"},"district":{"key":"09184","name":"München","type":"Landkreis"},"federalState":{"key":"09","name":"Bayern"}},{"name":"Landshuter Str.","postalCode":"84416","locality":"Taufkirchen","municipality":{"key":"09177139","name":"Taufkirchen (Vils)","type":"Kreisangehörige_Gemeinde"},"district":{"key":"09177","name":"Erding","type":"Landkreis"},"federalState":{"key":"09","name":"Bayern"}},{"name":"Lanzenhaarer Weg","postalCode":"82024","locality":"Taufkirchen","municipality":{"key":"09184145","name":"Taufkirchen","type":"Kreisangehörige_Gemeinde"},"district":{"key":"09184","name":"München","type":"Landkreis"},"federalState":{"key":"09","name":"Bayern"}},{"name":"Lärchenstr.","postalCode":"84416","locality":"Taufkirchen","municipality":{"key":"09177139","name":"Taufkirchen (Vils)","type":"Kreisangehörige_Gemeinde"},"district":{"key":"09177","name":"Erding","type":"Landkreis"},"federalState":{"key":"09","name":"Bayern"}},{"name":"Lärchenweg","postalCode":"82024","locality":"Taufkirchen","municipality":{"key":"09184145","name":"Taufkirchen","type":"Kreisangehörige_Gemeinde"},"district":{"key":"09184","name":"München","type":"Landkreis"},"federalState":{"key":"09","name":"Bayern"}},{"name":"Lena-Christ-Str.","postalCode":"84416","locality":"Taufkirchen","municipality":{"key":"09177139","name":"Taufkirchen (Vils)","type":"Kreisangehörige_Gemeinde"},"district":{"key":"09177","name":"Erding","type":"Landkreis"},"federalState":{"key":"09","name":"Bayern"}},{"name":"Leonhardi Geräumt","postalCode":"82024","locality":"Taufkirchen","municipality":{"key":"09184145","name":"Taufkirchen","type":"Kreisangehörige_Gemeinde"},"district":{"key":"09184","name":"München","type":"Landkreis"},"federalState":{"key":"09","name":"Bayern"}},{"name":"Limmerweg","postalCode":"82024","locality":"Taufkirchen","municipality":{"key":"09184145","name":"Taufkirchen","type":"Kreisangehörige_Gemeinde"},"district":{"key":"09184","name":"München","type":"Landkreis"},"federalState":{"key":"09","name":"Bayern"}},{"name":"Lindenring","postalCode":"82024","locality":"Taufkirchen","municipality":{"key":"09184145","name":"Taufkirchen","type":"Kreisangehörige_Gemeinde"},"district":{"key":"09184","name":"München","type":"Landkreis"},"federalState":{"key":"09","name":"Bayern"}},{"name":"Lindenschusterweg","postalCode":"82024","locality":"Taufkirchen","municipality":{"key":"09184145","name":"Taufkirchen","type":"Kreisangehörige_Gemeinde"},"district":{"key":"09184","name":"München","type":"Landkreis"},"federalState":{"key":"09","name":"Bayern"}},{"name":"Lindenstr.","postalCode":"84416","locality":"Taufkirchen","municipality":{"key":"09177139","name":"Taufkirchen (Vils)","type":"Kreisangehörige_Gemeinde"},"district":{"key":"09177","name":"Erding","type":"Landkreis"},"federalState":{"key":"09","name":"Bayern"}},{"name":"Lindenstr.","postalCode":"84419","locality":"Obertaufkirchen","municipality":{"key":"09183135","name":"Obertaufkirchen","type":"Kreisangehörige_Gemeinde"},"district":{"key":"09183","name":"Mühldorf a.Inn","type":"Landkreis"},"federalState":{"key":"09","name":"Bayern"}},{"name":"Lindenstr.","postalCode":"84494","locality":"Niedertaufkirchen","municipality":{"key":"09183131","name":"Niedertaufkirchen","type":"Kreisangehörige_Gemeinde"},"district":{"key":"09183","name":"Mühldorf a.Inn","type":"Landkreis"},"federalState":{"key":"09","name":"Bayern"}},{"name":"Ludwig-Bölkow-Allee","postalCode":"82024","locality":"Taufkirchen","municipality":{"key":"09184145","name":"Taufkirchen","type":"Kreisangehörige_Gemeinde"},"district":{"key":"09184","name":"München","type":"Landkreis"},"federalState":{"key":"09","name":"Bayern"}},{"name":"Ludwig-Thoma-Str.","postalCode":"84416","locality":"Taufkirchen","municipality":{"key":"09177139","name":"Taufkirchen (Vils)","type":"Kreisangehörige_Gemeinde"},"district":{"key":"09177","name":"Erding","type":"Landkreis"},"federalState":{"key":"09","name":"Bayern"}},{"name":"Maiselsberger Str.","postalCode":"84416","locality":"Taufkirchen","municipality":{"key":"09177139","name":"Taufkirchen (Vils)","type":"Kreisangehörige_Gemeinde"},"district":{"key":"09177","name":"Erding","type":"Landkreis"},"federalState":{"key":"09","name":"Bayern"}},{"name":"Marklweg","postalCode":"82024","locality":"Taufkirchen","municipality":{"key":"09184145","name":"Taufkirchen","type":"Kreisangehörige_Gemeinde"},"district":{"key":"09184","name":"München","type":"Landkreis"},"federalState":{"key":"09","name":"Bayern"}},{"name":"Marktplatz","postalCode":"84416","locality":"Taufkirchen","municipality":{"key":"09177139","name":"Taufkirchen (Vils)","type":"Kreisangehörige_Gemeinde"},"district":{"key":"09177","name":"Erding","type":"Landkreis"},"federalState":{"key":"09","name":"Bayern"}},{"name":"Mehlbeerenstr.","postalCode":"82024","locality":"Taufkirchen","municipality":{"key":"09184145","name":"Taufkirchen","type":"Kreisangehörige_Gemeinde"},"district":{"key":"09184","name":"München","type":"Landkreis"},"federalState":{"key":"09","name":"Bayern"}},{"name":"Meisenweg","postalCode":"82024","locality":"Taufkirchen","municipality":{"key":"09184145","name":"Taufkirchen","type":"Kreisangehörige_Gemeinde"},"district":{"key":"09184","name":"München","type":"Landkreis"},"federalState":{"key":"09","name":"Bayern"}},{"name":"Mesmering","postalCode":"84419","locality":"Obertaufkirchen","municipality":{"key":"09183135","name":"Obertaufkirchen","type":"Kreisangehörige_Gemeinde"},"district":{"key":"09183","name":"Mühldorf a.Inn","type":"Landkreis"},"federalState":{"key":"09","name":"Bayern"}},{"name":"Mesmeringer Str.","postalCode":"84419","locality":"Obertaufkirchen","municipality":{"key":"09183135","name":"Obertaufkirchen","type":"Kreisangehörige_Gemeinde"},"district":{"key":"09183","name":"Mühldorf a.Inn","type":"Landkreis"},"federalState":{"key":"09","name":"Bayern"}},{"name":"Meulanstr.","postalCode":"82024","locality":"Taufkirchen","municipality":{"key":"09184145","name":"Taufkirchen","type":"Kreisangehörige_Gemeinde"},"district":{"key":"09184","name":"München","type":"Landkreis"},"federalState":{"key":"09","name":"Bayern"}},{"name":"Mitterfeldstr.","postalCode":"84416","locality":"Taufkirchen","municipality":{"key":"09177139","name":"Taufkirchen (Vils)","type":"Kreisangehörige_Gemeinde"},"district":{"key":"09177","name":"Erding","type":"Landkreis"},"federalState":{"key":"09","name":"Bayern"}},{"name":"Mittermairstr.","postalCode":"84419","locality":"Obertaufkirchen","municipality":{"key":"09183135","name":"Obertaufkirchen","type":"Kreisangehörige_Gemeinde"},"district":{"key":"09183","name":"Mühldorf a.Inn","type":"Landkreis"},"federalState":{"key":"09","name":"Bayern"}},{"name":"Molkereiweg","postalCode":"84416","locality":"Taufkirchen","municipality":{"key":"09177139","name":"Taufkirchen (Vils)","type":"Kreisangehörige_Gemeinde"},"district":{"key":"09177","name":"Erding","type":"Landkreis"},"federalState":{"key":"09","name":"Bayern"}},{"name":"Mühlweg","postalCode":"82024","locality":"Taufkirchen","municipality":{"key":"09184145","name":"Taufkirchen","type":"Kreisangehörige_Gemeinde"},"district":{"key":"09184","name":"München","type":"Landkreis"},"federalState":{"key":"09","name":"Bayern"}},{"name":"Mühlwinkel","postalCode":"84419","locality":"Obertaufkirchen","municipality":{"key":"09183135","name":"Obertaufkirchen","type":"Kreisangehörige_Gemeinde"},"district":{"key":"09183","name":"Mühldorf a.Inn","type":"Landkreis"},"federalState":{"key":"09","name":"Bayern"}},{"name":"Münchener Str.","postalCode":"82024","locality":"Taufkirchen","municipality":{"key":"09184145","name":"Taufkirchen","type":"Kreisangehörige_Gemeinde"},"district":{"key":"09184","name":"München","type":"Landkreis"},"federalState":{"key":"09","name":"Bayern"}},{"name":"Nelkenstr.","postalCode":"84416","locality":"Taufkirchen","municipality":{"key":"09177139","name":"Taufkirchen (Vils)","type":"Kreisangehörige_Gemeinde"},"district":{"key":"09177","name":"Erding","type":"Landkreis"},"federalState":{"key":"09","name":"Bayern"}},{"name":"Nelkenweg","postalCode":"82024","locality":"Taufkirchen","municipality":{"key":"09184145","name":"Taufkirchen","type":"Kreisangehörige_Gemeinde"},"district":{"key":"09184","name":"München","type":"Landkreis"},"federalState":{"key":"09","name":"Bayern"}},{"name":"Nikolaus-von-der-Flüe-Str.","postalCode":"84416","locality":"Taufkirchen","municipality":{"key":"09177139","name":"Taufkirchen (Vils)","type":"Kreisangehörige_Gemeinde"},"district":{"key":"09177","name":"Erding","type":"Landkreis"},"federalState":{"key":"09","name":"Bayern"}},{"name":"Nußbaumstr.","postalCode":"84416","locality":"Taufkirchen","municipality":{"key":"09177139","name":"Taufkirchen (Vils)","type":"Kreisangehörige_Gemeinde"},"district":{"key":"09177","name":"Erding","type":"Landkreis"},"federalState":{"key":"09","name":"Bayern"}},{"name":"Nußbaumweg","postalCode":"82024","locality":"Taufkirchen","municipality":{"key":"09184145","name":"Taufkirchen","type":"Kreisangehörige_Gemeinde"},"district":{"key":"09184","name":"München","type":"Landkreis"},"federalState":{"key":"09","name":"Bayern"}},{"name":"Oberhofkirchen","postalCode":"84416","locality":"Taufkirchen","municipality":{"key":"09177139","name":"Taufkirchen (Vils)","type":"Kreisangehörige_Gemeinde"},"district":{"key":"09177","name":"Erding","type":"Landkreis"},"federalState":{"key":"09","name":"Bayern"}},{"name":"Oberneukirchner Str.","postalCode":"84574","locality":"Taufkirchen","municipality":{"key":"09183145","name":"Taufkirchen","type":"Kreisangehörige_Gemeinde"},"district":{"key":"09183","name":"Mühldorf a.Inn","type":"Landkreis"},"federalState":{"key":"09","name":"Bayern"}},{"name":"Oberweg","postalCode":"82024","locality":"Taufkirchen","municipality":{"key":"09184145","name":"Taufkirchen","type":"Kreisangehörige_Gemeinde"},"district":{"key":"09184","name":"München","type":"Landkreis"},"federalState":{"key":"09","name":"Bayern"}},{"name":"Olaf-Gulbransson-Str.","postalCode":"84416","locality":"Taufkirchen","municipality":{"key":"09177139","name":"Taufkirchen (Vils)","type":"Kreisangehörige_Gemeinde"},"district":{"key":"09177","name":"Erding","type":"Landkreis"},"federalState":{"key":"09","name":"Bayern"}},{"name":"Oststr.","postalCode":"84416","locality":"Taufkirchen","municipality":{"key":"09177139","name":"Taufkirchen (Vils)","type":"Kreisangehörige_Gemeinde"},"district":{"key":"09177","name":"Erding","type":"Landkreis"},"federalState":{"key":"09","name":"Bayern"}},{"name":"Otterloher Kirchenweg","postalCode":"82024","locality":"Taufkirchen","municipality":{"key":"09184145","name":"Taufkirchen","type":"Kreisangehörige_Gemeinde"},"district":{"key":"09184","name":"München","type":"Landkreis"},"federalState":{"key":"09","name":"Bayern"}},{"name":"Pappelstr.","postalCode":"82024","locality":"Taufkirchen","municipality":{"key":"09184145","name":"Taufkirchen","type":"Kreisangehörige_Gemeinde"},"district":{"key":"09184","name":"München","type":"Landkreis"},"federalState":{"key":"09","name":"Bayern"}},{"name":"Pater-Rupert-Mayer-Siedlung","postalCode":"84416","locality":"Taufkirchen","municipality":{"key":"09177139","name":"Taufkirchen (Vils)","type":"Kreisangehörige_Gemeinde"},"district":{"key":"09177","name":"Erding","type":"Landkreis"},"federalState":{"key":"09","name":"Bayern"}},{"name":"Pater-Rupert-Mayer-Weg","postalCode":"82024","locality":"Taufkirchen","municipality":{"key":"09184145","name":"Taufkirchen","type":"Kreisangehörige_Gemeinde"},"district":{"key":"09184","name":"München","type":"Landkreis"},"federalState":{"key":"09","name":"Bayern"}},{"name":"Paulusweg","postalCode":"84416","locality":"Taufkirchen","municipality":{"key":"09177139","name":"Taufkirchen (Vils)","type":"Kreisangehörige_Gemeinde"},"district":{"key":"09177","name":"Erding","type":"Landkreis"},"federalState":{"key":"09","name":"Bayern"}},{"name":"Permering","postalCode":"84416","locality":"Taufkirchen","municipality":{"key":"09177139","name":"Taufkirchen (Vils)","type":"Kreisangehörige_Gemeinde"},"district":{"key":"09177","name":"Erding","type":"Landkreis"},"federalState":{"key":"09","name":"Bayern"}},{"name":"Pfarranger","postalCode":"84416","locality":"Taufkirchen","municipality":{"key":"09177139","name":"Taufkirchen (Vils)","type":"Kreisangehörige_Gemeinde"},"district":{"key":"09177","name":"Erding","type":"Landkreis"},"federalState":{"key":"09","name":"Bayern"}},{"name":"Pfarrer-Brunner-Weg","postalCode":"84416","locality":"Taufkirchen","municipality":{"key":"09177139","name":"Taufkirchen (Vils)","type":"Kreisangehörige_Gemeinde"},"district":{"key":"09177","name":"Erding","type":"Landkreis"},"federalState":{"key":"09","name":"Bayern"}},{"name":"Pfarrer-Egerer-Str.","postalCode":"84419","locality":"Obertaufkirchen","municipality":{"key":"09183135","name":"Obertaufkirchen","type":"Kreisangehörige_Gemeinde"},"district":{"key":"09183","name":"Mühldorf a.Inn","type":"Landkreis"},"federalState":{"key":"09","name":"Bayern"}},{"name":"Pfarrer-Götz-Str.","postalCode":"84419","locality":"Obertaufkirchen","municipality":{"key":"09183135","name":"Obertaufkirchen","type":"Kreisangehörige_Gemeinde"},"district":{"key":"09183","name":"Mühldorf a.Inn","type":"Landkreis"},"federalState":{"key":"09","name":"Bayern"}},{"name":"Pfarrer Gschwender-Ring","postalCode":"84416","locality":"Taufkirchen","municipality":{"key":"09177139","name":"Taufkirchen (Vils)","type":"Kreisangehörige_Gemeinde"},"district":{"key":"09177","name":"Erding","type":"Landkreis"},"federalState":{"key":"09","name":"Bayern"}},{"name":"Pfarrer-Schlaipfer-Weg","postalCode":"84416","locality":"Taufkirchen","municipality":{"key":"09177139","name":"Taufkirchen (Vils)","type":"Kreisangehörige_Gemeinde"},"district":{"key":"09177","name":"Erding","type":"Landkreis"},"federalState":{"key":"09","name":"Bayern"}},{"name":"Pfarrer-Sedlmaier-Weg","postalCode":"84416","locality":"Taufkirchen","municipality":{"key":"09177139","name":"Taufkirchen (Vils)","type":"Kreisangehörige_Gemeinde"},"district":{"key":"09177","name":"Erding","type":"Landkreis"},"federalState":{"key":"09","name":"Bayern"}},{"name":"Pfarrer-Weidenauer-Str.","postalCode":"82024","locality":"Taufkirchen","municipality":{"key":"09184145","name":"Taufkirchen","type":"Kreisangehörige_Gemeinde"},"district":{"key":"09184","name":"München","type":"Landkreis"},"federalState":{"key":"09","name":"Bayern"}},{"name":"Pfarrweg","postalCode":"84416","locality":"Taufkirchen","municipality":{"key":"09177139","name":"Taufkirchen (Vils)","type":"Kreisangehörige_Gemeinde"},"district":{"key":"09177","name":"Erding","type":"Landkreis"},"federalState":{"key":"09","name":"Bayern"}},{"name":"Pfarrweg","postalCode":"84419","locality":"Obertaufkirchen","municipality":{"key":"09183135","name":"Obertaufkirchen","type":"Kreisangehörige_Gemeinde"},"district":{"key":"09183","name":"Mühldorf a.Inn","type":"Landkreis"},"federalState":{"key":"09","name":"Bayern"}},{"name":"Pietenberg","postalCode":"84574","locality":"Taufkirchen","municipality":{"key":"09183145","name":"Taufkirchen","type":"Kreisangehörige_Gemeinde"},"district":{"key":"09183","name":"Mühldorf a.Inn","type":"Landkreis"},"federalState":{"key":"09","name":"Bayern"}},{"name":"Platanenstr.","postalCode":"82024","locality":"Taufkirchen","municipality":{"key":"09184145","name":"Taufkirchen","type":"Kreisangehörige_Gemeinde"},"district":{"key":"09184","name":"München","type":"Landkreis"},"federalState":{"key":"09","name":"Bayern"}},{"name":"Portenlänger-Geräumt","postalCode":"82024","locality":"Taufkirchen","municipality":{"key":"09184145","name":"Taufkirchen","type":"Kreisangehörige_Gemeinde"},"district":{"key":"09184","name":"München","type":"Landkreis"},"federalState":{"key":"09","name":"Bayern"}},{"name":"Postweg","postalCode":"82024","locality":"Taufkirchen","municipality":{"key":"09184145","name":"Taufkirchen","type":"Kreisangehörige_Gemeinde"},"district":{"key":"09184","name":"München","type":"Landkreis"},"federalState":{"key":"09","name":"Bayern"}},{"name":"Pöttinger Weg","postalCode":"82024","locality":"Taufkirchen","municipality":{"key":"09184145","name":"Taufkirchen","type":"Kreisangehörige_Gemeinde"},"district":{"key":"09184","name":"München","type":"Landkreis"},"federalState":{"key":"09","name":"Bayern"}},{"name":"Rampoldsheim","postalCode":"84419","locality":"Obertaufkirchen","municipality":{"key":"09183135","name":"Obertaufkirchen","type":"Kreisangehörige_Gemeinde"},"district":{"key":"09183","name":"Mühldorf a.Inn","type":"Landkreis"},"federalState":{"key":"09","name":"Bayern"}},{"name":"Rathausstr.","postalCode":"82024","locality":"Taufkirchen","municipality":{"key":"09184145","name":"Taufkirchen","type":"Kreisangehörige_Gemeinde"},"district":{"key":"09184","name":"München","type":"Landkreis"},"federalState":{"key":"09","name":"Bayern"}},{"name":"Realschulweg","postalCode":"84416","locality":"Taufkirchen","municipality":{"key":"09177139","name":"Taufkirchen (Vils)","type":"Kreisangehörige_Gemeinde"},"district":{"key":"09177","name":"Erding","type":"Landkreis"},"federalState":{"key":"09","name":"Bayern"}},{"name":"Reckenbacher Str.","postalCode":"84416","locality":"Taufkirchen","municipality":{"key":"09177139","name":"Taufkirchen (Vils)","type":"Kreisangehörige_Gemeinde"},"district":{"key":"09177","name":"Erding","type":"Landkreis"},"federalState":{"key":"09","name":"Bayern"}},{"name":"Riegerweg","postalCode":"82024","locality":"Taufkirchen","municipality":{"key":"09184145","name":"Taufkirchen","type":"Kreisangehörige_Gemeinde"},"district":{"key":"09184","name":"München","type":"Landkreis"},"federalState":{"key":"09","name":"Bayern"}},{"name":"Ringstr.","postalCode":"84416","locality":"Taufkirchen","municipality":{"key":"09177139","name":"Taufkirchen (Vils)","type":"Kreisangehörige_Gemeinde"},"district":{"key":"09177","name":"Erding","type":"Landkreis"},"federalState":{"key":"09","name":"Bayern"}},{"name":"Ringstr.","postalCode":"84494","locality":"Niedertaufkirchen","municipality":{"key":"09183131","name":"Niedertaufkirchen","type":"Kreisangehörige_Gemeinde"},"district":{"key":"09183","name":"Mühldorf a.Inn","type":"Landkreis"},"federalState":{"key":"09","name":"Bayern"}},{"name":"Ritter-Hilprand-Str.","postalCode":"82024","locality":"Taufkirchen","municipality":{"key":"09184145","name":"Taufkirchen","type":"Kreisangehörige_Gemeinde"},"district":{"key":"09184","name":"München","type":"Landkreis"},"federalState":{"key":"09","name":"Bayern"}},{"name":"Robert-Koch-Str.","postalCode":"82024","locality":"Taufkirchen","municipality":{"key":"09184145","name":"Taufkirchen","type":"Kreisangehörige_Gemeinde"},"district":{"key":"09184","name":"München","type":"Landkreis"},"federalState":{"key":"09","name":"Bayern"}},{"name":"Römerring","postalCode":"82024","locality":"Taufkirchen","municipality":{"key":"09184145","name":"Taufkirchen","type":"Kreisangehörige_Gemeinde"},"district":{"key":"09184","name":"München","type":"Landkreis"},"federalState":{"key":"09","name":"Bayern"}},{"name":"Rosenheimer Landstr.","postalCode":"82024","locality":"Taufkirchen","municipality":{"key":"09184145","name":"Taufkirchen","type":"Kreisangehörige_Gemeinde"},"district":{"key":"09184","name":"München","type":"Landkreis"},"federalState":{"key":"09","name":"Bayern"}},{"name":"Rosenstr.","postalCode":"82024","locality":"Taufkirchen","municipality":{"key":"09184145","name":"Taufkirchen","type":"Kreisangehörige_Gemeinde"},"district":{"key":"09184","name":"München","type":"Landkreis"},"federalState":{"key":"09","name":"Bayern"}},{"name":"Rosenstr.","postalCode":"84416","locality":"Taufkirchen","municipality":{"key":"09177139","name":"Taufkirchen (Vils)","type":"Kreisangehörige_Gemeinde"},"district":{"key":"09177","name":"Erding","type":"Landkreis"},"federalState":{"key":"09","name":"Bayern"}},{"name":"Roßmais","postalCode":"84416","locality":"Taufkirchen","municipality":{"key":"09177139","name":"Taufkirchen (Vils)","type":"Kreisangehörige_Gemeinde"},"district":{"key":"09177","name":"Erding","type":"Landkreis"},"federalState":{"key":"09","name":"Bayern"}},{"name":"Rotdornweg","postalCode":"82024","locality":"Taufkirchen","municipality":{"key":"09184145","name":"Taufkirchen","type":"Kreisangehörige_Gemeinde"},"district":{"key":"09184","name":"München","type":"Landkreis"},"federalState":{"key":"09","name":"Bayern"}},{"name":"Rotwandstr.","postalCode":"84416","locality":"Taufkirchen","municipality":{"key":"09177139","name":"Taufkirchen (Vils)","type":"Kreisangehörige_Gemeinde"},"district":{"key":"09177","name":"Erding","type":"Landkreis"},"federalState":{"key":"09","name":"Bayern"}},{"name":"Rotwandweg","postalCode":"82024","locality":"Taufkirchen","municipality":{"key":"09184145","name":"Taufkirchen","type":"Kreisangehörige_Gemeinde"},"district":{"key":"09184","name":"München","type":"Landkreis"},"federalState":{"key":"09","name":"Bayern"}},{"name":"Saxhuberweg","postalCode":"82024","locality":"Taufkirchen","municipality":{"key":"09184145","name":"Taufkirchen","type":"Kreisangehörige_Gemeinde"},"district":{"key":"09184","name":"München","type":"Landkreis"},"federalState":{"key":"09","name":"Bayern"}},{"name":"Schlehenweg","postalCode":"84416","locality":"Taufkirchen","municipality":{"key":"09177139","name":"Taufkirchen (Vils)","type":"Kreisangehörige_Gemeinde"},"district":{"key":"09177","name":"Erding","type":"Landkreis"},"federalState":{"key":"09","name":"Bayern"}},{"name":"Schlesierstr.","postalCode":"82024","locality":"Taufkirchen","municipality":{"key":"09184145","name":"Taufkirchen","type":"Kreisangehörige_Gemeinde"},"district":{"key":"09184","name":"München","type":"Landkreis"},"federalState":{"key":"09","name":"Bayern"}},{"name":"Schloßfeldstr.","postalCode":"84416","locality":"Taufkirchen","municipality":{"key":"09177139","name":"Taufkirchen (Vils)","type":"Kreisangehörige_Gemeinde"},"district":{"key":"09177","name":"Erding","type":"Landkreis"},"federalState":{"key":"09","name":"Bayern"}},{"name":"Schlosspark, Isar-Amper-Klinikum","postalCode":"84416","locality":"Taufkirchen","municipality":{"key":"09177139","name":"Taufkirchen (Vils)","type":"Kreisangehörige_Gemeinde"},"district":{"key":"09177","name":"Erding","type":"Landkreis"},"federalState":{"key":"09","name":"Bayern"}},{"name":"Schönbrunner Str.","postalCode":"84419","locality":"Obertaufkirchen","municipality":{"key":"09183135","name":"Obertaufkirchen","type":"Kreisangehörige_Gemeinde"},"district":{"key":"09183","name":"Mühldorf a.Inn","type":"Landkreis"},"federalState":{"key":"09","name":"Bayern"}},{"name":"Schreinerweg","postalCode":"84416","locality":"Taufkirchen","municipality":{"key":"09177139","name":"Taufkirchen (Vils)","type":"Kreisangehörige_Gemeinde"},"district":{"key":"09177","name":"Erding","type":"Landkreis"},"federalState":{"key":"09","name":"Bayern"}},{"name":"Schulgasse","postalCode":"84416","locality":"Taufkirchen","municipality":{"key":"09177139","name":"Taufkirchen (Vils)","type":"Kreisangehörige_Gemeinde"},"district":{"key":"09177","name":"Erding","type":"Landkreis"},"federalState":{"key":"09","name":"Bayern"}},{"name":"Schulstr.","postalCode":"84419","locality":"Obertaufkirchen","municipality":{"key":"09183135","name":"Obertaufkirchen","type":"Kreisangehörige_Gemeinde"},"district":{"key":"09183","name":"Mühldorf a.Inn","type":"Landkreis"},"federalState":{"key":"09","name":"Bayern"}},{"name":"Schusterweg","postalCode":"84416","locality":"Taufkirchen","municipality":{"key":"09177139","name":"Taufkirchen (Vils)","type":"Kreisangehörige_Gemeinde"},"district":{"key":"09177","name":"Erding","type":"Landkreis"},"federalState":{"key":"09","name":"Bayern"}},{"name":"Seilerweg","postalCode":"84416","locality":"Taufkirchen","municipality":{"key":"09177139","name":"Taufkirchen (Vils)","type":"Kreisangehörige_Gemeinde"},"district":{"key":"09177","name":"Erding","type":"Landkreis"},"federalState":{"key":"09","name":"Bayern"}},{"name":"Seinsheimstr.","postalCode":"84416","locality":"Taufkirchen","municipality":{"key":"09177139","name":"Taufkirchen (Vils)","type":"Kreisangehörige_Gemeinde"},"district":{"key":"09177","name":"Erding","type":"Landkreis"},"federalState":{"key":"09","name":"Bayern"}},{"name":"Siebenbürgener Str.","postalCode":"82024","locality":"Taufkirchen","municipality":{"key":"09184145","name":"Taufkirchen","type":"Kreisangehörige_Gemeinde"},"district":{"key":"09184","name":"München","type":"Landkreis"},"federalState":{"key":"09","name":"Bayern"}},{"name":"Sonnenfeld","postalCode":"84416","locality":"Taufkirchen","municipality":{"key":"09177139","name":"Taufkirchen (Vils)","type":"Kreisangehörige_Gemeinde"},"district":{"key":"09177","name":"Erding","type":"Landkreis"},"federalState":{"key":"09","name":"Bayern"}},{"name":"Sonnenstr.","postalCode":"84416","locality":"Taufkirchen","municipality":{"key":"09177139","name":"Taufkirchen (Vils)","type":"Kreisangehörige_Gemeinde"},"district":{"key":"09177","name":"Erding","type":"Landkreis"},"federalState":{"key":"09","name":"Bayern"}},{"name":"Sophie-Scholl-Str.","postalCode":"84416","locality":"Taufkirchen","municipality":{"key":"09177139","name":"Taufkirchen (Vils)","type":"Kreisangehörige_Gemeinde"},"district":{"key":"09177","name":"Erding","type":"Landkreis"},"federalState":{"key":"09","name":"Bayern"}},{"name":"Sportplatzstr.","postalCode":"84574","locality":"Taufkirchen","municipality":{"key":"09183145","name":"Taufkirchen","type":"Kreisangehörige_Gemeinde"},"district":{"key":"09183","name":"Mühldorf a.Inn","type":"Landkreis"},"federalState":{"key":"09","name":"Bayern"}},{"name":"Staucharting Geräumt","postalCode":"82024","locality":"Taufkirchen","municipality":{"key":"09184145","name":"Taufkirchen","type":"Kreisangehörige_Gemeinde"},"district":{"key":"09184","name":"München","type":"Landkreis"},"federalState":{"key":"09","name":"Bayern"}},{"name":"Steinkirchen","postalCode":"84419","locality":"Obertaufkirchen","municipality":{"key":"09183135","name":"Obertaufkirchen","type":"Kreisangehörige_Gemeinde"},"district":{"key":"09183","name":"Mühldorf a.Inn","type":"Landkreis"},"federalState":{"key":"09","name":"Bayern"}},{"name":"Stellner Berg","postalCode":"84419","locality":"Obertaufkirchen","municipality":{"key":"09183135","name":"Obertaufkirchen","type":"Kreisangehörige_Gemeinde"},"district":{"key":"09183","name":"Mühldorf a.Inn","type":"Landkreis"},"federalState":{"key":"09","name":"Bayern"}},{"name":"St.-Korbinian-Str.","postalCode":"84419","locality":"Obertaufkirchen","municipality":{"key":"09183135","name":"Obertaufkirchen","type":"Kreisangehörige_Gemeinde"},"district":{"key":"09183","name":"Mühldorf a.Inn","type":"Landkreis"},"federalState":{"key":"09","name":"Bayern"}},{"name":"St.-Magdalena-Str.","postalCode":"84419","locality":"Obertaufkirchen","municipality":{"key":"09183135","name":"Obertaufkirchen","type":"Kreisangehörige_Gemeinde"},"district":{"key":"09183","name":"Mühldorf a.Inn","type":"Landkreis"},"federalState":{"key":"09","name":"Bayern"}},{"name":"St.-Martin-Str.","postalCode":"84419","locality":"Obertaufkirchen","municipality":{"key":"09183135","name":"Obertaufkirchen","type":"Kreisangehörige_Gemeinde"},"district":{"key":"09183","name":"Mühldorf a.Inn","type":"Landkreis"},"federalState":{"key":"09","name":"Bayern"}},{"name":"Straß","postalCode":"84419","locality":"Obertaufkirchen","municipality":{"key":"09183135","name":"Obertaufkirchen","type":"Kreisangehörige_Gemeinde"},"district":{"key":"09183","name":"Mühldorf a.Inn","type":"Landkreis"},"federalState":{"key":"09","name":"Bayern"}},{"name":"Straßweg","postalCode":"82024","locality":"Taufkirchen","municipality":{"key":"09184145","name":"Taufkirchen","type":"Kreisangehörige_Gemeinde"},"district":{"key":"09184","name":"München","type":"Landkreis"},"federalState":{"key":"09","name":"Bayern"}},{"name":"St.-Rupert-Str.","postalCode":"84419","locality":"Obertaufkirchen","municipality":{"key":"09183135","name":"Obertaufkirchen","type":"Kreisangehörige_Gemeinde"},"district":{"key":"09183","name":"Mühldorf a.Inn","type":"Landkreis"},"federalState":{"key":"09","name":"Bayern"}},{"name":"Sudetenstr.","postalCode":"82024","locality":"Taufkirchen","municipality":{"key":"09184145","name":"Taufkirchen","type":"Kreisangehörige_Gemeinde"},"district":{"key":"09184","name":"München","type":"Landkreis"},"federalState":{"key":"09","name":"Bayern"}},{"name":"Südstr.","postalCode":"82024","locality":"Taufkirchen","municipality":{"key":"09184145","name":"Taufkirchen","type":"Kreisangehörige_Gemeinde"},"district":{"key":"09184","name":"München","type":"Landkreis"},"federalState":{"key":"09","name":"Bayern"}},{"name":"Tannenweg","postalCode":"84416","locality":"Taufkirchen","municipality":{"key":"09177139","name":"Taufkirchen (Vils)","type":"Kreisangehörige_Gemeinde"},"district":{"key":"09177","name":"Erding","type":"Landkreis"},"federalState":{"key":"09","name":"Bayern"}},{"name":"Tassilostr.","postalCode":"84416","locality":"Taufkirchen","municipality":{"key":"09177139","name":"Taufkirchen (Vils)","type":"Kreisangehörige_Gemeinde"},"district":{"key":"09177","name":"Erding","type":"Landkreis"},"federalState":{"key":"09","name":"Bayern"}},{"name":"Tauernstr.","postalCode":"84416","locality":"Taufkirchen","municipality":{"key":"09177139","name":"Taufkirchen (Vils)","type":"Kreisangehörige_Gemeinde"},"district":{"key":"09177","name":"Erding","type":"Landkreis"},"federalState":{"key":"09","name":"Bayern"}},{"name":"Taufkirchener Str.","postalCode":"82024","locality":"Taufkirchen","municipality":{"key":"09184145","name":"Taufkirchen","type":"Kreisangehörige_Gemeinde"},"district":{"key":"09184","name":"München","type":"Landkreis"},"federalState":{"key":"09","name":"Bayern"}},{"name":"Tegernseer Landstr.","postalCode":"82024","locality":"Taufkirchen","municipality":{"key":"09184145","name":"Taufkirchen","type":"Kreisangehörige_Gemeinde"},"district":{"key":"09184","name":"München","type":"Landkreis"},"federalState":{"key":"09","name":"Bayern"}},{"name":"Tölzer Str.","postalCode":"82024","locality":"Taufkirchen","municipality":{"key":"09184145","name":"Taufkirchen","type":"Kreisangehörige_Gemeinde"},"district":{"key":"09184","name":"München","type":"Landkreis"},"federalState":{"key":"09","name":"Bayern"}},{"name":"Tulpenstr.","postalCode":"82024","locality":"Taufkirchen","municipality":{"key":"09184145","name":"Taufkirchen","type":"Kreisangehörige_Gemeinde"},"district":{"key":"09184","name":"München","type":"Landkreis"},"federalState":{"key":"09","name":"Bayern"}},{"name":"Tulpenstr.","postalCode":"84416","locality":"Taufkirchen","municipality":{"key":"09177139","name":"Taufkirchen (Vils)","type":"Kreisangehörige_Gemeinde"},"district":{"key":"09177","name":"Erding","type":"Landkreis"},"federalState":{"key":"09","name":"Bayern"}},{"name":"Ulmenstr.","postalCode":"82024","locality":"Taufkirchen","municipality":{"key":"09184145","name":"Taufkirchen","type":"Kreisangehörige_Gemeinde"},"district":{"key":"09184","name":"München","type":"Landkreis"},"federalState":{"key":"09","name":"Bayern"}},{"name":"Ulmenstr.","postalCode":"84416","locality":"Taufkirchen","municipality":{"key":"09177139","name":"Taufkirchen (Vils)","type":"Kreisangehörige_Gemeinde"},"district":{"key":"09177","name":"Erding","type":"Landkreis"},"federalState":{"key":"09","name":"Bayern"}},{"name":"Unterhofkirchen","postalCode":"84416","locality":"Taufkirchen","municipality":{"key":"09177139","name":"Taufkirchen (Vils)","type":"Kreisangehörige_Gemeinde"},"district":{"key":"09177","name":"Erding","type":"Landkreis"},"federalState":{"key":"09","name":"Bayern"}},{"name":"Ursostr.","postalCode":"84416","locality":"Taufkirchen","municipality":{"key":"09177139","name":"Taufkirchen (Vils)","type":"Kreisangehörige_Gemeinde"},"district":{"key":"09177","name":"Erding","type":"Landkreis"},"federalState":{"key":"09","name":"Bayern"}},{"name":"Veilchenstr.","postalCode":"84416","locality":"Taufkirchen","municipality":{"key":"09177139","name":"Taufkirchen (Vils)","type":"Kreisangehörige_Gemeinde"},"district":{"key":"09177","name":"Erding","type":"Landkreis"},"federalState":{"key":"09","name":"Bayern"}},{"name":"Veilchenweg","postalCode":"82024","locality":"Taufkirchen","municipality":{"key":"09184145","name":"Taufkirchen","type":"Kreisangehörige_Gemeinde"},"district":{"key":"09184","name":"München","type":"Landkreis"},"federalState":{"key":"09","name":"Bayern"}},{"name":"Veldener Str.","postalCode":"84416","locality":"Taufkirchen","municipality":{"key":"09177139","name":"Taufkirchen (Vils)","type":"Kreisangehörige_Gemeinde"},"district":{"key":"09177","name":"Erding","type":"Landkreis"},"federalState":{"key":"09","name":"Bayern"}},{"name":"Vilsbrücke ohne Geländer","postalCode":"84416","locality":"Taufkirchen","municipality":{"key":"09177139","name":"Taufkirchen (Vils)","type":"Kreisangehörige_Gemeinde"},"district":{"key":"09177","name":"Erding","type":"Landkreis"},"federalState":{"key":"09","name":"Bayern"}},{"name":"Vogelbeerstr.","postalCode":"82024","locality":"Taufkirchen","municipality":{"key":"09184145","name":"Taufkirchen","type":"Kreisangehörige_Gemeinde"},"district":{"key":"09184","name":"München","type":"Landkreis"},"federalState":{"key":"09","name":"Bayern"}},{"name":"Vogldorn","postalCode":"84419","locality":"Obertaufkirchen","municipality":{"key":"09183135","name":"Obertaufkirchen","type":"Kreisangehörige_Gemeinde"},"district":{"key":"09183","name":"Mühldorf a.Inn","type":"Landkreis"},"federalState":{"key":"09","name":"Bayern"}},{"name":"Von-Alvensleben-Str.","postalCode":"84416","locality":"Taufkirchen","municipality":{"key":"09177139","name":"Taufkirchen (Vils)","type":"Kreisangehörige_Gemeinde"},"district":{"key":"09177","name":"Erding","type":"Landkreis"},"federalState":{"key":"09","name":"Bayern"}},{"name":"Von-Ketteler-Str.","postalCode":"84416","locality":"Taufkirchen","municipality":{"key":"09177139","name":"Taufkirchen (Vils)","type":"Kreisangehörige_Gemeinde"},"district":{"key":"09177","name":"Erding","type":"Landkreis"},"federalState":{"key":"09","name":"Bayern"}},{"name":"Von-Moreau-Str.","postalCode":"84416","locality":"Taufkirchen","municipality":{"key":"09177139","name":"Taufkirchen (Vils)","type":"Kreisangehörige_Gemeinde"},"district":{"key":"09177","name":"Erding","type":"Landkreis"},"federalState":{"key":"09","name":"Bayern"}},{"name":"Von-Puech-Str.","postalCode":"84416","locality":"Taufkirchen","municipality":{"key":"09177139","name":"Taufkirchen (Vils)","type":"Kreisangehörige_Gemeinde"},"district":{"key":"09177","name":"Erding","type":"Landkreis"},"federalState":{"key":"09","name":"Bayern"}},{"name":"Vöttinger Str.","postalCode":"84416","locality":"Taufkirchen","municipality":{"key":"09177139","name":"Taufkirchen (Vils)","type":"Kreisangehörige_Gemeinde"},"district":{"key":"09177","name":"Erding","type":"Landkreis"},"federalState":{"key":"09","name":"Bayern"}},{"name":"Wacholderweg","postalCode":"84416","locality":"Taufkirchen","municipality":{"key":"09177139","name":"Taufkirchen (Vils)","type":"Kreisangehörige_Gemeinde"},"district":{"key":"09177","name":"Erding","type":"Landkreis"},"federalState":{"key":"09","name":"Bayern"}},{"name":"Wagnerweg","postalCode":"84416","locality":"Taufkirchen","municipality":{"key":"09177139","name":"Taufkirchen (Vils)","type":"Kreisangehörige_Gemeinde"},"district":{"key":"09177","name":"Erding","type":"Landkreis"},"federalState":{"key":"09","name":"Bayern"}},{"name":"Waldstr.","postalCode":"82024","locality":"Taufkirchen","municipality":{"key":"09184145","name":"Taufkirchen","type":"Kreisangehörige_Gemeinde"},"district":{"key":"09184","name":"München","type":"Landkreis"},"federalState":{"key":"09","name":"Bayern"}},{"name":"Wallbergstr.","postalCode":"82024","locality":"Taufkirchen","municipality":{"key":"09184145","name":"Taufkirchen","type":"Kreisangehörige_Gemeinde"},"district":{"key":"09184","name":"München","type":"Landkreis"},"federalState":{"key":"09","name":"Bayern"}},{"name":"Wallbergstr.","postalCode":"84416","locality":"Taufkirchen","municipality":{"key":"09177139","name":"Taufkirchen (Vils)","type":"Kreisangehörige_Gemeinde"},"district":{"key":"09177","name":"Erding","type":"Landkreis"},"federalState":{"key":"09","name":"Bayern"}},{"name":"Walleitnerweg","postalCode":"82024","locality":"Taufkirchen","municipality":{"key":"09184145","name":"Taufkirchen","type":"Kreisangehörige_Gemeinde"},"district":{"key":"09184","name":"München","type":"Landkreis"},"federalState":{"key":"09","name":"Bayern"}},{"name":"Wambach","postalCode":"84416","locality":"Taufkirchen","municipality":{"key":"09177139","name":"Taufkirchen (Vils)","type":"Kreisangehörige_Gemeinde"},"district":{"key":"09177","name":"Erding","type":"Landkreis"},"federalState":{"key":"09","name":"Bayern"}},{"name":"Wasserhausweg","postalCode":"82024","locality":"Taufkirchen","municipality":{"key":"09184145","name":"Taufkirchen","type":"Kreisangehörige_Gemeinde"},"district":{"key":"09184","name":"München","type":"Landkreis"},"federalState":{"key":"09","name":"Bayern"}},{"name":"Watzmannstr.","postalCode":"84416","locality":"Taufkirchen","municipality":{"key":"09177139","name":"Taufkirchen (Vils)","type":"Kreisangehörige_Gemeinde"},"district":{"key":"09177","name":"Erding","type":"Landkreis"},"federalState":{"key":"09","name":"Bayern"}},{"name":"Weidenstr.","postalCode":"84416","locality":"Taufkirchen","municipality":{"key":"09177139","name":"Taufkirchen (Vils)","type":"Kreisangehörige_Gemeinde"},"district":{"key":"09177","name":"Erding","type":"Landkreis"},"federalState":{"key":"09","name":"Bayern"}},{"name":"Weidenweg","postalCode":"82024","locality":"Taufkirchen","municipality":{"key":"09184145","name":"Taufkirchen","type":"Kreisangehörige_Gemeinde"},"district":{"key":"09184","name":"München","type":"Landkreis"},"federalState":{"key":"09","name":"Bayern"}},{"name":"Wendelsteinstr.","postalCode":"84416","locality":"Taufkirchen","municipality":{"key":"09177139","name":"Taufkirchen (Vils)","type":"Kreisangehörige_Gemeinde"},"district":{"key":"09177","name":"Erding","type":"Landkreis"},"federalState":{"key":"09","name":"Bayern"}},{"name":"Wendelsteinweg","postalCode":"82024","locality":"Taufkirchen","municipality":{"key":"09184145","name":"Taufkirchen","type":"Kreisangehörige_Gemeinde"},"district":{"key":"09184","name":"München","type":"Landkreis"},"federalState":{"key":"09","name":"Bayern"}},{"name":"Westerhamer Weg","postalCode":"82024","locality":"Taufkirchen","municipality":{"key":"09184145","name":"Taufkirchen","type":"Kreisangehörige_Gemeinde"},"district":{"key":"09184","name":"München","type":"Landkreis"},"federalState":{"key":"09","name":"Bayern"}},{"name":"Weststr.","postalCode":"84416","locality":"Taufkirchen","municipality":{"key":"09177139","name":"Taufkirchen (Vils)","type":"Kreisangehörige_Gemeinde"},"district":{"key":"09177","name":"Erding","type":"Landkreis"},"federalState":{"key":"09","name":"Bayern"}},{"name":"Wieshofstr.","postalCode":"84416","locality":"Taufkirchen","municipality":{"key":"09177139","name":"Taufkirchen (Vils)","type":"Kreisangehörige_Gemeinde"},"district":{"key":"09177","name":"Erding","type":"Landkreis"},"federalState":{"key":"09","name":"Bayern"}},{"name":"Wildapfelstr.","postalCode":"82024","locality":"Taufkirchen","municipality":{"key":"09184145","name":"Taufkirchen","type":"Kreisangehörige_Gemeinde"},"district":{"key":"09184","name":"München","type":"Landkreis"},"federalState":{"key":"09","name":"Bayern"}},{"name":"Wilhelm-Busch-Str.","postalCode":"84416","locality":"Taufkirchen","municipality":{"key":"09177139","name":"Taufkirchen (Vils)","type":"Kreisangehörige_Gemeinde"},"district":{"key":"09177","name":"Erding","type":"Landkreis"},"federalState":{"key":"09","name":"Bayern"}},{"name":"Willy-Messerschmitt-Str.","postalCode":"82024","locality":"Taufkirchen","municipality":{"key":"09184145","name":"Taufkirchen","type":"Kreisangehörige_Gemeinde"},"district":{"key":"09184","name":"München","type":"Landkreis"},"federalState":{"key":"09","name":"Bayern"}},{"name":"Zacherlweg","postalCode":"82024","locality":"Taufkirchen","municipality":{"key":"09184145","name":"Taufkirchen","type":"Kreisangehörige_Gemeinde"},"district":{"key":"09184","name":"München","type":"Landkreis"},"federalState":{"key":"09","name":"Bayern"}},{"name":"Zaunmüllerweg","postalCode":"82024","locality":"Taufkirchen","municipality":{"key":"09184145","name":"Taufkirchen","type":"Kreisangehörige_Gemeinde"},"district":{"key":"09184","name":"München","type":"Landkreis"},"federalState":{"key":"09","name":"Bayern"}},{"name":"Ziegelstr.","postalCode":"84416","locality":"Taufkirchen","municipality":{"key":"09177139","name":"Taufkirchen (Vils)","type":"Kreisangehörige_Gemeinde"},"district":{"key":"09177","name":"Erding","type":"Landkreis"},"federalState":{"key":"09","name":"Bayern"}},{"name":"Ziererwiese","postalCode":"84574","locality":"Taufkirchen","municipality":{"key":"09183145","name":"Taufkirchen","type":"Kreisangehörige_Gemeinde"},"district":{"key":"09183","name":"Mühldorf a.Inn","type":"Landkreis"},"federalState":{"key":"09","name":"Bayern"}},{"name":"Zusestr.","postalCode":"82024","locality":"Taufkirchen","municipality":{"key":"09184145","name":"Taufkirchen","type":"Kreisangehörige_Gemeinde"},"district":{"key":"09184","name":"München","type":"Landkreis"},"federalState":{"key":"09","name":"Bayern"}},{"name":"Zweigstr.","postalCode":"84416","locality":"Taufkirchen","municipality":{"key":"09177139","name":"Taufkirchen (Vils)","type":"Kreisangehörige_Gemeinde"},"district":{"key":"09177","name":"Erding","type":"Landkreis"},"federalState":{"key":"09","name":"Bayern"}},]