[{"key":"10235751","name":"Ahorematte","postalCode":"3716","locality":"Kandergrund","commune":{"key":"563","name":"Frutigen","shortName":"Frutigen"},"district":{"key":"249","name":"Verwaltungskreis Frutigen-Niedersimmental"},"canton":{"key":"2","code":"BE","name":"Bern / Berne"},"status":"Real"},{"key":"10066007","name":"Ausserkandergrund","postalCode":"3716","locality":"Kandergrund","commune":{"key":"563","name":"Frutigen","shortName":"Frutigen"},"district":{"key":"249","name":"Verwaltungskreis Frutigen-Niedersimmental"},"canton":{"key":"2","code":"BE","name":"Bern / Berne"},"status":"Real"},{"key":"10124493","name":"Ausserrüteni","postalCode":"3716","locality":"Kandergrund","commune":{"key":"563","name":"Frutigen","shortName":"Frutigen"},"district":{"key":"249","name":"Verwaltungskreis Frutigen-Niedersimmental"},"canton":{"key":"2","code":"BE","name":"Bern / Berne"},"status":"Real"},{"key":"10162987","name":"Bahnhof","postalCode":"3716","locality":"Kandergrund","commune":{"key":"563","name":"Frutigen","shortName":"Frutigen"},"district":{"key":"249","name":"Verwaltungskreis Frutigen-Niedersimmental"},"canton":{"key":"2","code":"BE","name":"Bern / Berne"},"status":"Real"},{"key":"10171696","name":"Bahnhofstrasse","postalCode":"3716","locality":"Kandergrund","commune":{"key":"563","name":"Frutigen","shortName":"Frutigen"},"district":{"key":"249","name":"Verwaltungskreis Frutigen-Niedersimmental"},"canton":{"key":"2","code":"BE","name":"Bern / Berne"},"status":"Real"},{"key":"10218785","name":"Balme","postalCode":"3716","locality":"Kandergrund","commune":{"key":"563","name":"Frutigen","shortName":"Frutigen"},"district":{"key":"249","name":"Verwaltungskreis Frutigen-Niedersimmental"},"canton":{"key":"2","code":"BE","name":"Bern / Berne"},"status":"Real"},{"key":"10123897","name":"Becki","postalCode":"3716","locality":"Kandergrund","commune":{"key":"563","name":"Frutigen","shortName":"Frutigen"},"district":{"key":"249","name":"Verwaltungskreis Frutigen-Niedersimmental"},"canton":{"key":"2","code":"BE","name":"Bern / Berne"},"status":"Real"},{"key":"10218789","name":"Bergli","postalCode":"3716","locality":"Kandergrund","commune":{"key":"563","name":"Frutigen","shortName":"Frutigen"},"district":{"key":"249","name":"Verwaltungskreis Frutigen-Niedersimmental"},"canton":{"key":"2","code":"BE","name":"Bern / Berne"},"status":"Real"},{"key":"10005812","name":"Bifigen","postalCode":"3716","locality":"Kandergrund","commune":{"key":"563","name":"Frutigen","shortName":"Frutigen"},"district":{"key":"249","name":"Verwaltungskreis Frutigen-Niedersimmental"},"canton":{"key":"2","code":"BE","name":"Bern / Berne"},"status":"Real"},{"key":"10177406","name":"BKW-Strasse","postalCode":"3716","locality":"Kandergrund","commune":{"key":"563","name":"Frutigen","shortName":"Frutigen"},"district":{"key":"249","name":"Verwaltungskreis Frutigen-Niedersimmental"},"canton":{"key":"2","code":"BE","name":"Bern / Berne"},"status":"Real"},{"key":"10171697","name":"Bodehus","postalCode":"3716","locality":"Kandergrund","commune":{"key":"563","name":"Frutigen","shortName":"Frutigen"},"district":{"key":"249","name":"Verwaltungskreis Frutigen-Niedersimmental"},"canton":{"key":"2","code":"BE","name":"Bern / Berne"},"status":"Real"},{"key":"10218797","name":"Büelmatta","postalCode":"3716","locality":"Kandergrund","commune":{"key":"563","name":"Frutigen","shortName":"Frutigen"},"district":{"key":"249","name":"Verwaltungskreis Frutigen-Niedersimmental"},"canton":{"key":"2","code":"BE","name":"Bern / Berne"},"status":"Real"},{"key":"10242798","name":"Büelweid","postalCode":"3716","locality":"Kandergrund","commune":{"key":"563","name":"Frutigen","shortName":"Frutigen"},"district":{"key":"249","name":"Verwaltungskreis Frutigen-Niedersimmental"},"canton":{"key":"2","code":"BE","name":"Bern / Berne"},"status":"Real"},{"key":"10124494","name":"Bühlera","postalCode":"3716","locality":"Kandergrund","commune":{"key":"563","name":"Frutigen","shortName":"Frutigen"},"district":{"key":"249","name":"Verwaltungskreis Frutigen-Niedersimmental"},"canton":{"key":"2","code":"BE","name":"Bern / Berne"},"status":"Real"},{"key":"10081952","name":"Bunderbach","postalCode":"3716","locality":"Kandergrund","commune":{"key":"563","name":"Frutigen","shortName":"Frutigen"},"district":{"key":"249","name":"Verwaltungskreis Frutigen-Niedersimmental"},"canton":{"key":"2","code":"BE","name":"Bern / Berne"},"status":"Real"},{"key":"10210774","name":"Bundergraben","postalCode":"3716","locality":"Kandergrund","commune":{"key":"563","name":"Frutigen","shortName":"Frutigen"},"district":{"key":"249","name":"Verwaltungskreis Frutigen-Niedersimmental"},"canton":{"key":"2","code":"BE","name":"Bern / Berne"},"status":"Real"},{"key":"10131883","name":"Bunderholz","postalCode":"3716","locality":"Kandergrund","commune":{"key":"563","name":"Frutigen","shortName":"Frutigen"},"district":{"key":"249","name":"Verwaltungskreis Frutigen-Niedersimmental"},"canton":{"key":"2","code":"BE","name":"Bern / Berne"},"status":"Real"},{"key":"10155025","name":"Büscheli","postalCode":"3716","locality":"Kandergrund","commune":{"key":"563","name":"Frutigen","shortName":"Frutigen"},"district":{"key":"249","name":"Verwaltungskreis Frutigen-Niedersimmental"},"canton":{"key":"2","code":"BE","name":"Bern / Berne"},"status":"Real"},{"key":"10153770","name":"Chrattigmattli","postalCode":"3716","locality":"Kandergrund","commune":{"key":"563","name":"Frutigen","shortName":"Frutigen"},"district":{"key":"249","name":"Verwaltungskreis Frutigen-Niedersimmental"},"canton":{"key":"2","code":"BE","name":"Bern / Berne"},"status":"Real"},{"key":"10161985","name":"Devis","postalCode":"3716","locality":"Kandergrund","commune":{"key":"563","name":"Frutigen","shortName":"Frutigen"},"district":{"key":"249","name":"Verwaltungskreis Frutigen-Niedersimmental"},"canton":{"key":"2","code":"BE","name":"Bern / Berne"},"status":"Real"},{"key":"10153668","name":"Dreyi","postalCode":"3716","locality":"Kandergrund","commune":{"key":"563","name":"Frutigen","shortName":"Frutigen"},"district":{"key":"249","name":"Verwaltungskreis Frutigen-Niedersimmental"},"canton":{"key":"2","code":"BE","name":"Bern / Berne"},"status":"Real"},{"key":"10206202","name":"Dungla","postalCode":"3716","locality":"Kandergrund","commune":{"key":"563","name":"Frutigen","shortName":"Frutigen"},"district":{"key":"249","name":"Verwaltungskreis Frutigen-Niedersimmental"},"canton":{"key":"2","code":"BE","name":"Bern / Berne"},"status":"Real"},{"key":"10005813","name":"Egg","postalCode":"3716","locality":"Kandergrund","commune":{"key":"563","name":"Frutigen","shortName":"Frutigen"},"district":{"key":"249","name":"Verwaltungskreis Frutigen-Niedersimmental"},"canton":{"key":"2","code":"BE","name":"Bern / Berne"},"status":"Real"},{"key":"10066010","name":"Engibrügg","postalCode":"3716","locality":"Kandergrund","commune":{"key":"563","name":"Frutigen","shortName":"Frutigen"},"district":{"key":"249","name":"Verwaltungskreis Frutigen-Niedersimmental"},"canton":{"key":"2","code":"BE","name":"Bern / Berne"},"status":"Real"},{"key":"10079424","name":"Engiweid","postalCode":"3716","locality":"Kandergrund","commune":{"key":"563","name":"Frutigen","shortName":"Frutigen"},"district":{"key":"249","name":"Verwaltungskreis Frutigen-Niedersimmental"},"canton":{"key":"2","code":"BE","name":"Bern / Berne"},"status":"Real"},{"key":"10218801","name":"Fürtbütschi","postalCode":"3716","locality":"Kandergrund","commune":{"key":"563","name":"Frutigen","shortName":"Frutigen"},"district":{"key":"249","name":"Verwaltungskreis Frutigen-Niedersimmental"},"canton":{"key":"2","code":"BE","name":"Bern / Berne"},"status":"Real"},{"key":"10005814","name":"Fürten","postalCode":"3716","locality":"Kandergrund","commune":{"key":"563","name":"Frutigen","shortName":"Frutigen"},"district":{"key":"249","name":"Verwaltungskreis Frutigen-Niedersimmental"},"canton":{"key":"2","code":"BE","name":"Bern / Berne"},"status":"Real"},{"key":"10177408","name":"Gäbi","postalCode":"3716","locality":"Kandergrund","commune":{"key":"563","name":"Frutigen","shortName":"Frutigen"},"district":{"key":"249","name":"Verwaltungskreis Frutigen-Niedersimmental"},"canton":{"key":"2","code":"BE","name":"Bern / Berne"},"status":"Real"},{"key":"10066011","name":"Geidi","postalCode":"3716","locality":"Kandergrund","commune":{"key":"563","name":"Frutigen","shortName":"Frutigen"},"district":{"key":"249","name":"Verwaltungskreis Frutigen-Niedersimmental"},"canton":{"key":"2","code":"BE","name":"Bern / Berne"},"status":"Real"},{"key":"10218804","name":"Germi","postalCode":"3716","locality":"Kandergrund","commune":{"key":"563","name":"Frutigen","shortName":"Frutigen"},"district":{"key":"249","name":"Verwaltungskreis Frutigen-Niedersimmental"},"canton":{"key":"2","code":"BE","name":"Bern / Berne"},"status":"Real"},{"key":"10207030","name":"Glentweidli","postalCode":"3716","locality":"Kandergrund","commune":{"key":"563","name":"Frutigen","shortName":"Frutigen"},"district":{"key":"249","name":"Verwaltungskreis Frutigen-Niedersimmental"},"canton":{"key":"2","code":"BE","name":"Bern / Berne"},"status":"Real"},{"key":"10194163","name":"Grimer","postalCode":"3716","locality":"Kandergrund","commune":{"key":"563","name":"Frutigen","shortName":"Frutigen"},"district":{"key":"249","name":"Verwaltungskreis Frutigen-Niedersimmental"},"canton":{"key":"2","code":"BE","name":"Bern / Berne"},"status":"Real"},{"key":"10170295","name":"Gruebimatte","postalCode":"3716","locality":"Kandergrund","commune":{"key":"563","name":"Frutigen","shortName":"Frutigen"},"district":{"key":"249","name":"Verwaltungskreis Frutigen-Niedersimmental"},"canton":{"key":"2","code":"BE","name":"Bern / Berne"},"status":"Real"},{"key":"10005815","name":"Guldeli","postalCode":"3716","locality":"Kandergrund","commune":{"key":"563","name":"Frutigen","shortName":"Frutigen"},"district":{"key":"249","name":"Verwaltungskreis Frutigen-Niedersimmental"},"canton":{"key":"2","code":"BE","name":"Bern / Berne"},"status":"Real"},{"key":"10211702","name":"Gunti","postalCode":"3716","locality":"Kandergrund","commune":{"key":"563","name":"Frutigen","shortName":"Frutigen"},"district":{"key":"249","name":"Verwaltungskreis Frutigen-Niedersimmental"},"canton":{"key":"2","code":"BE","name":"Bern / Berne"},"status":"Real"},{"key":"10123684","name":"Hälfis","postalCode":"3716","locality":"Kandergrund","commune":{"key":"563","name":"Frutigen","shortName":"Frutigen"},"district":{"key":"249","name":"Verwaltungskreis Frutigen-Niedersimmental"},"canton":{"key":"2","code":"BE","name":"Bern / Berne"},"status":"Real"},{"key":"10218809","name":"Haltewald","postalCode":"3716","locality":"Kandergrund","commune":{"key":"563","name":"Frutigen","shortName":"Frutigen"},"district":{"key":"249","name":"Verwaltungskreis Frutigen-Niedersimmental"},"canton":{"key":"2","code":"BE","name":"Bern / Berne"},"status":"Real"},{"key":"10211700","name":"Hangi","postalCode":"3716","locality":"Kandergrund","commune":{"key":"563","name":"Frutigen","shortName":"Frutigen"},"district":{"key":"249","name":"Verwaltungskreis Frutigen-Niedersimmental"},"canton":{"key":"2","code":"BE","name":"Bern / Berne"},"status":"Real"},{"key":"10005816","name":"Holzi","postalCode":"3716","locality":"Kandergrund","commune":{"key":"563","name":"Frutigen","shortName":"Frutigen"},"district":{"key":"249","name":"Verwaltungskreis Frutigen-Niedersimmental"},"canton":{"key":"2","code":"BE","name":"Bern / Berne"},"status":"Real"},{"key":"10207023","name":"Hore","postalCode":"3716","locality":"Kandergrund","commune":{"key":"563","name":"Frutigen","shortName":"Frutigen"},"district":{"key":"249","name":"Verwaltungskreis Frutigen-Niedersimmental"},"canton":{"key":"2","code":"BE","name":"Bern / Berne"},"status":"Real"},{"key":"10210776","name":"Horemattli","postalCode":"3716","locality":"Kandergrund","commune":{"key":"563","name":"Frutigen","shortName":"Frutigen"},"district":{"key":"249","name":"Verwaltungskreis Frutigen-Niedersimmental"},"canton":{"key":"2","code":"BE","name":"Bern / Berne"},"status":"Real"},{"key":"10161621","name":"Horeweid","postalCode":"3716","locality":"Kandergrund","commune":{"key":"563","name":"Frutigen","shortName":"Frutigen"},"district":{"key":"249","name":"Verwaltungskreis Frutigen-Niedersimmental"},"canton":{"key":"2","code":"BE","name":"Bern / Berne"},"status":"Real"},{"key":"10210778","name":"Houetli","postalCode":"3716","locality":"Kandergrund","commune":{"key":"563","name":"Frutigen","shortName":"Frutigen"},"district":{"key":"249","name":"Verwaltungskreis Frutigen-Niedersimmental"},"canton":{"key":"2","code":"BE","name":"Bern / Berne"},"status":"Real"},{"key":"10152446","name":"Hubel","postalCode":"3716","locality":"Kandergrund","commune":{"key":"563","name":"Frutigen","shortName":"Frutigen"},"district":{"key":"249","name":"Verwaltungskreis Frutigen-Niedersimmental"},"canton":{"key":"2","code":"BE","name":"Bern / Berne"},"status":"Real"},{"key":"10194300","name":"Hühnerbüel","postalCode":"3716","locality":"Kandergrund","commune":{"key":"563","name":"Frutigen","shortName":"Frutigen"},"district":{"key":"249","name":"Verwaltungskreis Frutigen-Niedersimmental"},"canton":{"key":"2","code":"BE","name":"Bern / Berne"},"status":"Real"},{"key":"10153652","name":"I der Felli","postalCode":"3716","locality":"Kandergrund","commune":{"key":"563","name":"Frutigen","shortName":"Frutigen"},"district":{"key":"249","name":"Verwaltungskreis Frutigen-Niedersimmental"},"canton":{"key":"2","code":"BE","name":"Bern / Berne"},"status":"Real"},{"key":"10005820","name":"Im Tal","postalCode":"3716","locality":"Kandergrund","commune":{"key":"563","name":"Frutigen","shortName":"Frutigen"},"district":{"key":"249","name":"Verwaltungskreis Frutigen-Niedersimmental"},"canton":{"key":"2","code":"BE","name":"Bern / Berne"},"status":"Real"},{"key":"10081953","name":"Innerkandergrund","postalCode":"3716","locality":"Kandergrund","commune":{"key":"563","name":"Frutigen","shortName":"Frutigen"},"district":{"key":"249","name":"Verwaltungskreis Frutigen-Niedersimmental"},"canton":{"key":"2","code":"BE","name":"Bern / Berne"},"status":"Real"},{"key":"10005817","name":"Innerrüteni","postalCode":"3716","locality":"Kandergrund","commune":{"key":"563","name":"Frutigen","shortName":"Frutigen"},"district":{"key":"249","name":"Verwaltungskreis Frutigen-Niedersimmental"},"canton":{"key":"2","code":"BE","name":"Bern / Berne"},"status":"Real"},{"key":"10005818","name":"Köbiboden","postalCode":"3716","locality":"Kandergrund","commune":{"key":"563","name":"Frutigen","shortName":"Frutigen"},"district":{"key":"249","name":"Verwaltungskreis Frutigen-Niedersimmental"},"canton":{"key":"2","code":"BE","name":"Bern / Berne"},"status":"Real"},{"key":"10171695","name":"Künzeli","postalCode":"3716","locality":"Kandergrund","commune":{"key":"563","name":"Frutigen","shortName":"Frutigen"},"district":{"key":"249","name":"Verwaltungskreis Frutigen-Niedersimmental"},"canton":{"key":"2","code":"BE","name":"Bern / Berne"},"status":"Real"},{"key":"10155329","name":"Laueli","postalCode":"3716","locality":"Kandergrund","commune":{"key":"563","name":"Frutigen","shortName":"Frutigen"},"district":{"key":"249","name":"Verwaltungskreis Frutigen-Niedersimmental"},"canton":{"key":"2","code":"BE","name":"Bern / Berne"},"status":"Real"},{"key":"10159020","name":"Lehnherri","postalCode":"3716","locality":"Kandergrund","commune":{"key":"563","name":"Frutigen","shortName":"Frutigen"},"district":{"key":"249","name":"Verwaltungskreis Frutigen-Niedersimmental"},"canton":{"key":"2","code":"BE","name":"Bern / Berne"},"status":"Real"},{"key":"10211699","name":"Lengi Matta","postalCode":"3716","locality":"Kandergrund","commune":{"key":"563","name":"Frutigen","shortName":"Frutigen"},"district":{"key":"249","name":"Verwaltungskreis Frutigen-Niedersimmental"},"canton":{"key":"2","code":"BE","name":"Bern / Berne"},"status":"Real"},{"key":"10211701","name":"Mösli","postalCode":"3716","locality":"Kandergrund","commune":{"key":"563","name":"Frutigen","shortName":"Frutigen"},"district":{"key":"249","name":"Verwaltungskreis Frutigen-Niedersimmental"},"canton":{"key":"2","code":"BE","name":"Bern / Berne"},"status":"Real"},{"key":"10162665","name":"Mützenbergs","postalCode":"3716","locality":"Kandergrund","commune":{"key":"563","name":"Frutigen","shortName":"Frutigen"},"district":{"key":"249","name":"Verwaltungskreis Frutigen-Niedersimmental"},"canton":{"key":"2","code":"BE","name":"Bern / Berne"},"status":"Real"},{"key":"10209390","name":"Oberi Balma","postalCode":"3716","locality":"Kandergrund","commune":{"key":"563","name":"Frutigen","shortName":"Frutigen"},"district":{"key":"249","name":"Verwaltungskreis Frutigen-Niedersimmental"},"canton":{"key":"2","code":"BE","name":"Bern / Berne"},"status":"Real"},{"key":"10171362","name":"Oberrüteni","postalCode":"3716","locality":"Kandergrund","commune":{"key":"563","name":"Frutigen","shortName":"Frutigen"},"district":{"key":"249","name":"Verwaltungskreis Frutigen-Niedersimmental"},"canton":{"key":"2","code":"BE","name":"Bern / Berne"},"status":"Real"},{"key":"10165668","name":"Ogeli","postalCode":"3716","locality":"Kandergrund","commune":{"key":"563","name":"Frutigen","shortName":"Frutigen"},"district":{"key":"249","name":"Verwaltungskreis Frutigen-Niedersimmental"},"canton":{"key":"2","code":"BE","name":"Bern / Berne"},"status":"Real"},{"key":"10160329","name":"Petersmattli","postalCode":"3716","locality":"Kandergrund","commune":{"key":"563","name":"Frutigen","shortName":"Frutigen"},"district":{"key":"249","name":"Verwaltungskreis Frutigen-Niedersimmental"},"canton":{"key":"2","code":"BE","name":"Bern / Berne"},"status":"Real"},{"key":"10081954","name":"Polieri","postalCode":"3716","locality":"Kandergrund","commune":{"key":"563","name":"Frutigen","shortName":"Frutigen"},"district":{"key":"249","name":"Verwaltungskreis Frutigen-Niedersimmental"},"canton":{"key":"2","code":"BE","name":"Bern / Berne"},"status":"Real"},{"key":"10171361","name":"Pörtli","postalCode":"3716","locality":"Kandergrund","commune":{"key":"563","name":"Frutigen","shortName":"Frutigen"},"district":{"key":"249","name":"Verwaltungskreis Frutigen-Niedersimmental"},"canton":{"key":"2","code":"BE","name":"Bern / Berne"},"status":"Real"},{"key":"10218839","name":"Prüssi","postalCode":"3716","locality":"Kandergrund","commune":{"key":"563","name":"Frutigen","shortName":"Frutigen"},"district":{"key":"249","name":"Verwaltungskreis Frutigen-Niedersimmental"},"canton":{"key":"2","code":"BE","name":"Bern / Berne"},"status":"Real"},{"key":"10160414","name":"Raubers Matte","postalCode":"3716","locality":"Kandergrund","commune":{"key":"563","name":"Frutigen","shortName":"Frutigen"},"district":{"key":"249","name":"Verwaltungskreis Frutigen-Niedersimmental"},"canton":{"key":"2","code":"BE","name":"Bern / Berne"},"status":"Real"},{"key":"10112165","name":"Reckental","postalCode":"3716","locality":"Kandergrund","commune":{"key":"563","name":"Frutigen","shortName":"Frutigen"},"district":{"key":"249","name":"Verwaltungskreis Frutigen-Niedersimmental"},"canton":{"key":"2","code":"BE","name":"Bern / Berne"},"status":"Real"},{"key":"10179968","name":"Riegelsee","postalCode":"3716","locality":"Kandergrund","commune":{"key":"563","name":"Frutigen","shortName":"Frutigen"},"district":{"key":"249","name":"Verwaltungskreis Frutigen-Niedersimmental"},"canton":{"key":"2","code":"BE","name":"Bern / Berne"},"status":"Real"},{"key":"10061807","name":"Riggis","postalCode":"3716","locality":"Kandergrund","commune":{"key":"563","name":"Frutigen","shortName":"Frutigen"},"district":{"key":"249","name":"Verwaltungskreis Frutigen-Niedersimmental"},"canton":{"key":"2","code":"BE","name":"Bern / Berne"},"status":"Real"},{"key":"10218843","name":"Rone","postalCode":"3716","locality":"Kandergrund","commune":{"key":"563","name":"Frutigen","shortName":"Frutigen"},"district":{"key":"249","name":"Verwaltungskreis Frutigen-Niedersimmental"},"canton":{"key":"2","code":"BE","name":"Bern / Berne"},"status":"Real"},{"key":"10218848","name":"Roneweidli","postalCode":"3716","locality":"Kandergrund","commune":{"key":"563","name":"Frutigen","shortName":"Frutigen"},"district":{"key":"249","name":"Verwaltungskreis Frutigen-Niedersimmental"},"canton":{"key":"2","code":"BE","name":"Bern / Berne"},"status":"Real"},{"key":"10123685","name":"Rosslaueni","postalCode":"3716","locality":"Kandergrund","commune":{"key":"563","name":"Frutigen","shortName":"Frutigen"},"district":{"key":"249","name":"Verwaltungskreis Frutigen-Niedersimmental"},"canton":{"key":"2","code":"BE","name":"Bern / Berne"},"status":"Real"},{"key":"10257454","name":"Rossweide","postalCode":"3716","locality":"Kandergrund","commune":{"key":"563","name":"Frutigen","shortName":"Frutigen"},"district":{"key":"249","name":"Verwaltungskreis Frutigen-Niedersimmental"},"canton":{"key":"2","code":"BE","name":"Bern / Berne"},"status":"Real"},{"key":"10177409","name":"Rütenistrasse","postalCode":"3716","locality":"Kandergrund","commune":{"key":"563","name":"Frutigen","shortName":"Frutigen"},"district":{"key":"249","name":"Verwaltungskreis Frutigen-Niedersimmental"},"canton":{"key":"2","code":"BE","name":"Bern / Berne"},"status":"Real"},{"key":"10124495","name":"Sädel","postalCode":"3716","locality":"Kandergrund","commune":{"key":"563","name":"Frutigen","shortName":"Frutigen"},"district":{"key":"249","name":"Verwaltungskreis Frutigen-Niedersimmental"},"canton":{"key":"2","code":"BE","name":"Bern / Berne"},"status":"Real"},{"key":"10206190","name":"Sässel","postalCode":"3716","locality":"Kandergrund","commune":{"key":"563","name":"Frutigen","shortName":"Frutigen"},"district":{"key":"249","name":"Verwaltungskreis Frutigen-Niedersimmental"},"canton":{"key":"2","code":"BE","name":"Bern / Berne"},"status":"Real"},{"key":"10193949","name":"Schlafegg","postalCode":"3716","locality":"Kandergrund","commune":{"key":"563","name":"Frutigen","shortName":"Frutigen"},"district":{"key":"249","name":"Verwaltungskreis Frutigen-Niedersimmental"},"canton":{"key":"2","code":"BE","name":"Bern / Berne"},"status":"Real"},{"key":"10218852","name":"Schlafeggbergli","postalCode":"3716","locality":"Kandergrund","commune":{"key":"563","name":"Frutigen","shortName":"Frutigen"},"district":{"key":"249","name":"Verwaltungskreis Frutigen-Niedersimmental"},"canton":{"key":"2","code":"BE","name":"Bern / Berne"},"status":"Real"},{"key":"10210773","name":"Schmucki","postalCode":"3716","locality":"Kandergrund","commune":{"key":"563","name":"Frutigen","shortName":"Frutigen"},"district":{"key":"249","name":"Verwaltungskreis Frutigen-Niedersimmental"},"canton":{"key":"2","code":"BE","name":"Bern / Berne"},"status":"Real"},{"key":"10158053","name":"Schwand","postalCode":"3716","locality":"Kandergrund","commune":{"key":"563","name":"Frutigen","shortName":"Frutigen"},"district":{"key":"249","name":"Verwaltungskreis Frutigen-Niedersimmental"},"canton":{"key":"2","code":"BE","name":"Bern / Berne"},"status":"Real"},{"key":"10177407","name":"Schwarzmattli","postalCode":"3716","locality":"Kandergrund","commune":{"key":"563","name":"Frutigen","shortName":"Frutigen"},"district":{"key":"249","name":"Verwaltungskreis Frutigen-Niedersimmental"},"canton":{"key":"2","code":"BE","name":"Bern / Berne"},"status":"Real"},{"key":"10210777","name":"Schwendli","postalCode":"3716","locality":"Kandergrund","commune":{"key":"563","name":"Frutigen","shortName":"Frutigen"},"district":{"key":"249","name":"Verwaltungskreis Frutigen-Niedersimmental"},"canton":{"key":"2","code":"BE","name":"Bern / Berne"},"status":"Real"},{"key":"10187997","name":"Spitz","postalCode":"3716","locality":"Kandergrund","commune":{"key":"563","name":"Frutigen","shortName":"Frutigen"},"district":{"key":"249","name":"Verwaltungskreis Frutigen-Niedersimmental"},"canton":{"key":"2","code":"BE","name":"Bern / Berne"},"status":"Real"},{"key":"10005819","name":"Staldi","postalCode":"3716","locality":"Kandergrund","commune":{"key":"563","name":"Frutigen","shortName":"Frutigen"},"district":{"key":"249","name":"Verwaltungskreis Frutigen-Niedersimmental"},"canton":{"key":"2","code":"BE","name":"Bern / Berne"},"status":"Real"},{"key":"10162692","name":"Stuckeli","postalCode":"3716","locality":"Kandergrund","commune":{"key":"563","name":"Frutigen","shortName":"Frutigen"},"district":{"key":"249","name":"Verwaltungskreis Frutigen-Niedersimmental"},"canton":{"key":"2","code":"BE","name":"Bern / Berne"},"status":"Real"},{"key":"10195216","name":"Tristli","postalCode":"3716","locality":"Kandergrund","commune":{"key":"563","name":"Frutigen","shortName":"Frutigen"},"district":{"key":"249","name":"Verwaltungskreis Frutigen-Niedersimmental"},"canton":{"key":"2","code":"BE","name":"Bern / Berne"},"status":"Real"},{"key":"10207642","name":"Trutte","postalCode":"3716","locality":"Kandergrund","commune":{"key":"563","name":"Frutigen","shortName":"Frutigen"},"district":{"key":"249","name":"Verwaltungskreis Frutigen-Niedersimmental"},"canton":{"key":"2","code":"BE","name":"Bern / Berne"},"status":"Real"},{"key":"10194301","name":"Tschingla","postalCode":"3716","locality":"Kandergrund","commune":{"key":"563","name":"Frutigen","shortName":"Frutigen"},"district":{"key":"249","name":"Verwaltungskreis Frutigen-Niedersimmental"},"canton":{"key":"2","code":"BE","name":"Bern / Berne"},"status":"Real"},{"key":"10218859","name":"Uf de Höften","postalCode":"3716","locality":"Kandergrund","commune":{"key":"563","name":"Frutigen","shortName":"Frutigen"},"district":{"key":"249","name":"Verwaltungskreis Frutigen-Niedersimmental"},"canton":{"key":"2","code":"BE","name":"Bern / Berne"},"status":"Real"},{"key":"10218862","name":"Ufem Grat","postalCode":"3716","locality":"Kandergrund","commune":{"key":"563","name":"Frutigen","shortName":"Frutigen"},"district":{"key":"249","name":"Verwaltungskreis Frutigen-Niedersimmental"},"canton":{"key":"2","code":"BE","name":"Bern / Berne"},"status":"Real"},{"key":"10171360","name":"Una a de Stütze","postalCode":"3716","locality":"Kandergrund","commune":{"key":"563","name":"Frutigen","shortName":"Frutigen"},"district":{"key":"249","name":"Verwaltungskreis Frutigen-Niedersimmental"},"canton":{"key":"2","code":"BE","name":"Bern / Berne"},"status":"Real"},{"key":"10207644","name":"Under de Flüene","postalCode":"3716","locality":"Kandergrund","commune":{"key":"563","name":"Frutigen","shortName":"Frutigen"},"district":{"key":"249","name":"Verwaltungskreis Frutigen-Niedersimmental"},"canton":{"key":"2","code":"BE","name":"Bern / Berne"},"status":"Real"},{"key":"10115351","name":"Wanne","postalCode":"3716","locality":"Kandergrund","commune":{"key":"563","name":"Frutigen","shortName":"Frutigen"},"district":{"key":"249","name":"Verwaltungskreis Frutigen-Niedersimmental"},"canton":{"key":"2","code":"BE","name":"Bern / Berne"},"status":"Real"},{"key":"10210772","name":"Wiggla","postalCode":"3716","locality":"Kandergrund","commune":{"key":"563","name":"Frutigen","shortName":"Frutigen"},"district":{"key":"249","name":"Verwaltungskreis Frutigen-Niedersimmental"},"canton":{"key":"2","code":"BE","name":"Bern / Berne"},"status":"Real"},{"key":"10115350","name":"Wigglen","postalCode":"3716","locality":"Kandergrund","commune":{"key":"563","name":"Frutigen","shortName":"Frutigen"},"district":{"key":"249","name":"Verwaltungskreis Frutigen-Niedersimmental"},"canton":{"key":"2","code":"BE","name":"Bern / Berne"},"status":"Real"},{"key":"10197444","name":"Willenegg","postalCode":"3716","locality":"Kandergrund","commune":{"key":"563","name":"Frutigen","shortName":"Frutigen"},"district":{"key":"249","name":"Verwaltungskreis Frutigen-Niedersimmental"},"canton":{"key":"2","code":"BE","name":"Bern / Berne"},"status":"Real"},{"key":"10218879","name":"Wyssa Zun","postalCode":"3716","locality":"Kandergrund","commune":{"key":"563","name":"Frutigen","shortName":"Frutigen"},"district":{"key":"249","name":"Verwaltungskreis Frutigen-Niedersimmental"},"canton":{"key":"2","code":"BE","name":"Bern / Berne"},"status":"Real"},{"key":"10193916","name":"Zrydsbrügg","postalCode":"3716","locality":"Kandergrund","commune":{"key":"563","name":"Frutigen","shortName":"Frutigen"},"district":{"key":"249","name":"Verwaltungskreis Frutigen-Niedersimmental"},"canton":{"key":"2","code":"BE","name":"Bern / Berne"},"status":"Real"},{"key":"10218777","name":"Äbeli","postalCode":"3716","locality":"Kandergrund","commune":{"key":"563","name":"Frutigen","shortName":"Frutigen"},"district":{"key":"249","name":"Verwaltungskreis Frutigen-Niedersimmental"},"canton":{"key":"2","code":"BE","name":"Bern / Berne"},"status":"Real"},{"key":"10243376","name":"Ännerkandergrund","postalCode":"3716","locality":"Kandergrund","commune":{"key":"563","name":"Frutigen","shortName":"Frutigen"},"district":{"key":"249","name":"Verwaltungskreis Frutigen-Niedersimmental"},"canton":{"key":"2","code":"BE","name":"Bern / Berne"},"status":"Real"},{"key":"10064579","name":"Äussere Bahnhofstrasse","postalCode":"3716","locality":"Kandergrund","commune":{"key":"563","name":"Frutigen","shortName":"Frutigen"},"district":{"key":"249","name":"Verwaltungskreis Frutigen-Niedersimmental"},"canton":{"key":"2","code":"BE","name":"Bern / Berne"},"status":"Real"},]