[{"name":"Ahornweg","postalCode":"75378","locality":"Bad Liebenzell","municipality":{"key":"08235008","name":"Bad Liebenzell, Stadt","type":"Stadt"},"district":{"key":"08235","name":"Calw","type":"Landkreis"},"federalState":{"key":"08","name":"Baden-Württemberg"}},{"name":"Albert-Schweitzer-Str.","postalCode":"75378","locality":"Bad Liebenzell","municipality":{"key":"08235008","name":"Bad Liebenzell, Stadt","type":"Stadt"},"district":{"key":"08235","name":"Calw","type":"Landkreis"},"federalState":{"key":"08","name":"Baden-Württemberg"}},{"name":"Alte Liebenzeller Str.","postalCode":"75378","locality":"Bad Liebenzell","municipality":{"key":"08235008","name":"Bad Liebenzell, Stadt","type":"Stadt"},"district":{"key":"08235","name":"Calw","type":"Landkreis"},"federalState":{"key":"08","name":"Baden-Württemberg"}},{"name":"Alte Poststr.","postalCode":"75378","locality":"Bad Liebenzell","municipality":{"key":"08235008","name":"Bad Liebenzell, Stadt","type":"Stadt"},"district":{"key":"08235","name":"Calw","type":"Landkreis"},"federalState":{"key":"08","name":"Baden-Württemberg"}},{"name":"Alter Badwaldweg","postalCode":"75378","locality":"Bad Liebenzell","municipality":{"key":"08235008","name":"Bad Liebenzell, Stadt","type":"Stadt"},"district":{"key":"08235","name":"Calw","type":"Landkreis"},"federalState":{"key":"08","name":"Baden-Württemberg"}},{"name":"Alter Hau","postalCode":"75378","locality":"Bad Liebenzell","municipality":{"key":"08235008","name":"Bad Liebenzell, Stadt","type":"Stadt"},"district":{"key":"08235","name":"Calw","type":"Landkreis"},"federalState":{"key":"08","name":"Baden-Württemberg"}},{"name":"Alter Schulweg","postalCode":"75378","locality":"Bad Liebenzell","municipality":{"key":"08235008","name":"Bad Liebenzell, Stadt","type":"Stadt"},"district":{"key":"08235","name":"Calw","type":"Landkreis"},"federalState":{"key":"08","name":"Baden-Württemberg"}},{"name":"Alte Schömberger Steige","postalCode":"75378","locality":"Bad Liebenzell","municipality":{"key":"08235008","name":"Bad Liebenzell, Stadt","type":"Stadt"},"district":{"key":"08235","name":"Calw","type":"Landkreis"},"federalState":{"key":"08","name":"Baden-Württemberg"}},{"name":"Am Bach","postalCode":"75378","locality":"Bad Liebenzell","municipality":{"key":"08235008","name":"Bad Liebenzell, Stadt","type":"Stadt"},"district":{"key":"08235","name":"Calw","type":"Landkreis"},"federalState":{"key":"08","name":"Baden-Württemberg"}},{"name":"Am Berg","postalCode":"75378","locality":"Bad Liebenzell","municipality":{"key":"08235008","name":"Bad Liebenzell, Stadt","type":"Stadt"},"district":{"key":"08235","name":"Calw","type":"Landkreis"},"federalState":{"key":"08","name":"Baden-Württemberg"}},{"name":"Am Frauenwald","postalCode":"75378","locality":"Bad Liebenzell","municipality":{"key":"08235008","name":"Bad Liebenzell, Stadt","type":"Stadt"},"district":{"key":"08235","name":"Calw","type":"Landkreis"},"federalState":{"key":"08","name":"Baden-Württemberg"}},{"name":"Am Graben","postalCode":"75378","locality":"Bad Liebenzell","municipality":{"key":"08235008","name":"Bad Liebenzell, Stadt","type":"Stadt"},"district":{"key":"08235","name":"Calw","type":"Landkreis"},"federalState":{"key":"08","name":"Baden-Württemberg"}},{"name":"Am Hährenwald","postalCode":"75378","locality":"Bad Liebenzell","municipality":{"key":"08235008","name":"Bad Liebenzell, Stadt","type":"Stadt"},"district":{"key":"08235","name":"Calw","type":"Landkreis"},"federalState":{"key":"08","name":"Baden-Württemberg"}},{"name":"Am Hochwald","postalCode":"75378","locality":"Bad Liebenzell","municipality":{"key":"08235008","name":"Bad Liebenzell, Stadt","type":"Stadt"},"district":{"key":"08235","name":"Calw","type":"Landkreis"},"federalState":{"key":"08","name":"Baden-Württemberg"}},{"name":"Am Klingenwald","postalCode":"75378","locality":"Bad Liebenzell","municipality":{"key":"08235008","name":"Bad Liebenzell, Stadt","type":"Stadt"},"district":{"key":"08235","name":"Calw","type":"Landkreis"},"federalState":{"key":"08","name":"Baden-Württemberg"}},{"name":"Am Kniebrunnen","postalCode":"75378","locality":"Bad Liebenzell","municipality":{"key":"08235008","name":"Bad Liebenzell, Stadt","type":"Stadt"},"district":{"key":"08235","name":"Calw","type":"Landkreis"},"federalState":{"key":"08","name":"Baden-Württemberg"}},{"name":"Am Kurpark","postalCode":"75378","locality":"Bad Liebenzell","municipality":{"key":"08235008","name":"Bad Liebenzell, Stadt","type":"Stadt"},"district":{"key":"08235","name":"Calw","type":"Landkreis"},"federalState":{"key":"08","name":"Baden-Württemberg"}},{"name":"Am Monakamer Kopf","postalCode":"75378","locality":"Bad Liebenzell","municipality":{"key":"08235008","name":"Bad Liebenzell, Stadt","type":"Stadt"},"district":{"key":"08235","name":"Calw","type":"Landkreis"},"federalState":{"key":"08","name":"Baden-Württemberg"}},{"name":"Am Raischachwald","postalCode":"75378","locality":"Bad Liebenzell","municipality":{"key":"08235008","name":"Bad Liebenzell, Stadt","type":"Stadt"},"district":{"key":"08235","name":"Calw","type":"Landkreis"},"federalState":{"key":"08","name":"Baden-Württemberg"}},{"name":"Am See","postalCode":"75378","locality":"Bad Liebenzell","municipality":{"key":"08235008","name":"Bad Liebenzell, Stadt","type":"Stadt"},"district":{"key":"08235","name":"Calw","type":"Landkreis"},"federalState":{"key":"08","name":"Baden-Württemberg"}},{"name":"Amselweg","postalCode":"75378","locality":"Bad Liebenzell","municipality":{"key":"08235008","name":"Bad Liebenzell, Stadt","type":"Stadt"},"district":{"key":"08235","name":"Calw","type":"Landkreis"},"federalState":{"key":"08","name":"Baden-Württemberg"}},{"name":"An der Pfanne","postalCode":"75378","locality":"Bad Liebenzell","municipality":{"key":"08235008","name":"Bad Liebenzell, Stadt","type":"Stadt"},"district":{"key":"08235","name":"Calw","type":"Landkreis"},"federalState":{"key":"08","name":"Baden-Württemberg"}},{"name":"Anlagenstr.","postalCode":"75378","locality":"Bad Liebenzell","municipality":{"key":"08235008","name":"Bad Liebenzell, Stadt","type":"Stadt"},"district":{"key":"08235","name":"Calw","type":"Landkreis"},"federalState":{"key":"08","name":"Baden-Württemberg"}},{"name":"Anwendel","postalCode":"75378","locality":"Bad Liebenzell","municipality":{"key":"08235008","name":"Bad Liebenzell, Stadt","type":"Stadt"},"district":{"key":"08235","name":"Calw","type":"Landkreis"},"federalState":{"key":"08","name":"Baden-Württemberg"}},{"name":"Auf der Stadtmauer","postalCode":"75378","locality":"Bad Liebenzell","municipality":{"key":"08235008","name":"Bad Liebenzell, Stadt","type":"Stadt"},"district":{"key":"08235","name":"Calw","type":"Landkreis"},"federalState":{"key":"08","name":"Baden-Württemberg"}},{"name":"Aufzugweg","postalCode":"75378","locality":"Bad Liebenzell","municipality":{"key":"08235008","name":"Bad Liebenzell, Stadt","type":"Stadt"},"district":{"key":"08235","name":"Calw","type":"Landkreis"},"federalState":{"key":"08","name":"Baden-Württemberg"}},{"name":"Ayassenweg","postalCode":"75378","locality":"Bad Liebenzell","municipality":{"key":"08235008","name":"Bad Liebenzell, Stadt","type":"Stadt"},"district":{"key":"08235","name":"Calw","type":"Landkreis"},"federalState":{"key":"08","name":"Baden-Württemberg"}},{"name":"Badwaldweg","postalCode":"75378","locality":"Bad Liebenzell","municipality":{"key":"08235008","name":"Bad Liebenzell, Stadt","type":"Stadt"},"district":{"key":"08235","name":"Calw","type":"Landkreis"},"federalState":{"key":"08","name":"Baden-Württemberg"}},{"name":"Badweg","postalCode":"75378","locality":"Bad Liebenzell","municipality":{"key":"08235008","name":"Bad Liebenzell, Stadt","type":"Stadt"},"district":{"key":"08235","name":"Calw","type":"Landkreis"},"federalState":{"key":"08","name":"Baden-Württemberg"}},{"name":"Bahnhofstr.","postalCode":"75378","locality":"Bad Liebenzell","municipality":{"key":"08235008","name":"Bad Liebenzell, Stadt","type":"Stadt"},"district":{"key":"08235","name":"Calw","type":"Landkreis"},"federalState":{"key":"08","name":"Baden-Württemberg"}},{"name":"Barthstr.","postalCode":"75378","locality":"Bad Liebenzell","municipality":{"key":"08235008","name":"Bad Liebenzell, Stadt","type":"Stadt"},"district":{"key":"08235","name":"Calw","type":"Landkreis"},"federalState":{"key":"08","name":"Baden-Württemberg"}},{"name":"Baumstr.","postalCode":"75378","locality":"Bad Liebenzell","municipality":{"key":"08235008","name":"Bad Liebenzell, Stadt","type":"Stadt"},"district":{"key":"08235","name":"Calw","type":"Landkreis"},"federalState":{"key":"08","name":"Baden-Württemberg"}},{"name":"Beinberger Steige","postalCode":"75378","locality":"Bad Liebenzell","municipality":{"key":"08235008","name":"Bad Liebenzell, Stadt","type":"Stadt"},"district":{"key":"08235","name":"Calw","type":"Landkreis"},"federalState":{"key":"08","name":"Baden-Württemberg"}},{"name":"Beinberger Str.","postalCode":"75378","locality":"Bad Liebenzell","municipality":{"key":"08235008","name":"Bad Liebenzell, Stadt","type":"Stadt"},"district":{"key":"08235","name":"Calw","type":"Landkreis"},"federalState":{"key":"08","name":"Baden-Württemberg"}},{"name":"Bergstr.","postalCode":"75378","locality":"Bad Liebenzell","municipality":{"key":"08235008","name":"Bad Liebenzell, Stadt","type":"Stadt"},"district":{"key":"08235","name":"Calw","type":"Landkreis"},"federalState":{"key":"08","name":"Baden-Württemberg"}},{"name":"Bettelweg","postalCode":"75378","locality":"Bad Liebenzell","municipality":{"key":"08235008","name":"Bad Liebenzell, Stadt","type":"Stadt"},"district":{"key":"08235","name":"Calw","type":"Landkreis"},"federalState":{"key":"08","name":"Baden-Württemberg"}},{"name":"Beutelsteinweg","postalCode":"75378","locality":"Bad Liebenzell","municipality":{"key":"08235008","name":"Bad Liebenzell, Stadt","type":"Stadt"},"district":{"key":"08235","name":"Calw","type":"Landkreis"},"federalState":{"key":"08","name":"Baden-Württemberg"}},{"name":"Bienengarten","postalCode":"75378","locality":"Bad Liebenzell","municipality":{"key":"08235008","name":"Bad Liebenzell, Stadt","type":"Stadt"},"district":{"key":"08235","name":"Calw","type":"Landkreis"},"federalState":{"key":"08","name":"Baden-Württemberg"}},{"name":"Bieselsberger Weg","postalCode":"75378","locality":"Bad Liebenzell","municipality":{"key":"08235008","name":"Bad Liebenzell, Stadt","type":"Stadt"},"district":{"key":"08235","name":"Calw","type":"Landkreis"},"federalState":{"key":"08","name":"Baden-Württemberg"}},{"name":"Birkenweg","postalCode":"75378","locality":"Bad Liebenzell","municipality":{"key":"08235008","name":"Bad Liebenzell, Stadt","type":"Stadt"},"district":{"key":"08235","name":"Calw","type":"Landkreis"},"federalState":{"key":"08","name":"Baden-Württemberg"}},{"name":"Bischofsbrunnenweg","postalCode":"75378","locality":"Bad Liebenzell","municipality":{"key":"08235008","name":"Bad Liebenzell, Stadt","type":"Stadt"},"district":{"key":"08235","name":"Calw","type":"Landkreis"},"federalState":{"key":"08","name":"Baden-Württemberg"}},{"name":"Blumhardtstr.","postalCode":"75378","locality":"Bad Liebenzell","municipality":{"key":"08235008","name":"Bad Liebenzell, Stadt","type":"Stadt"},"district":{"key":"08235","name":"Calw","type":"Landkreis"},"federalState":{"key":"08","name":"Baden-Württemberg"}},{"name":"Brunnenstr.","postalCode":"75378","locality":"Bad Liebenzell","municipality":{"key":"08235008","name":"Bad Liebenzell, Stadt","type":"Stadt"},"district":{"key":"08235","name":"Calw","type":"Landkreis"},"federalState":{"key":"08","name":"Baden-Württemberg"}},{"name":"Buchenweg","postalCode":"75378","locality":"Bad Liebenzell","municipality":{"key":"08235008","name":"Bad Liebenzell, Stadt","type":"Stadt"},"district":{"key":"08235","name":"Calw","type":"Landkreis"},"federalState":{"key":"08","name":"Baden-Württemberg"}},{"name":"Bühlweg","postalCode":"75378","locality":"Bad Liebenzell","municipality":{"key":"08235008","name":"Bad Liebenzell, Stadt","type":"Stadt"},"district":{"key":"08235","name":"Calw","type":"Landkreis"},"federalState":{"key":"08","name":"Baden-Württemberg"}},{"name":"Burghaldenweg","postalCode":"75378","locality":"Bad Liebenzell","municipality":{"key":"08235008","name":"Bad Liebenzell, Stadt","type":"Stadt"},"district":{"key":"08235","name":"Calw","type":"Landkreis"},"federalState":{"key":"08","name":"Baden-Württemberg"}},{"name":"Burgstr.","postalCode":"75378","locality":"Bad Liebenzell","municipality":{"key":"08235008","name":"Bad Liebenzell, Stadt","type":"Stadt"},"district":{"key":"08235","name":"Calw","type":"Landkreis"},"federalState":{"key":"08","name":"Baden-Württemberg"}},{"name":"Burgweg","postalCode":"75378","locality":"Bad Liebenzell","municipality":{"key":"08235008","name":"Bad Liebenzell, Stadt","type":"Stadt"},"district":{"key":"08235","name":"Calw","type":"Landkreis"},"federalState":{"key":"08","name":"Baden-Württemberg"}},{"name":"Calmbacher Str.","postalCode":"75378","locality":"Bad Liebenzell","municipality":{"key":"08235008","name":"Bad Liebenzell, Stadt","type":"Stadt"},"district":{"key":"08235","name":"Calw","type":"Landkreis"},"federalState":{"key":"08","name":"Baden-Württemberg"}},{"name":"Calwer Str.","postalCode":"75378","locality":"Bad Liebenzell","municipality":{"key":"08235008","name":"Bad Liebenzell, Stadt","type":"Stadt"},"district":{"key":"08235","name":"Calw","type":"Landkreis"},"federalState":{"key":"08","name":"Baden-Württemberg"}},{"name":"Dachsweg","postalCode":"75378","locality":"Bad Liebenzell","municipality":{"key":"08235008","name":"Bad Liebenzell, Stadt","type":"Stadt"},"district":{"key":"08235","name":"Calw","type":"Landkreis"},"federalState":{"key":"08","name":"Baden-Württemberg"}},{"name":"Dorfwiesenweg","postalCode":"75378","locality":"Bad Liebenzell","municipality":{"key":"08235008","name":"Bad Liebenzell, Stadt","type":"Stadt"},"district":{"key":"08235","name":"Calw","type":"Landkreis"},"federalState":{"key":"08","name":"Baden-Württemberg"}},{"name":"Eichbuschweg","postalCode":"75378","locality":"Bad Liebenzell","municipality":{"key":"08235008","name":"Bad Liebenzell, Stadt","type":"Stadt"},"district":{"key":"08235","name":"Calw","type":"Landkreis"},"federalState":{"key":"08","name":"Baden-Württemberg"}},{"name":"Eichendorffstr.","postalCode":"75378","locality":"Bad Liebenzell","municipality":{"key":"08235008","name":"Bad Liebenzell, Stadt","type":"Stadt"},"district":{"key":"08235","name":"Calw","type":"Landkreis"},"federalState":{"key":"08","name":"Baden-Württemberg"}},{"name":"Eichenweg","postalCode":"75378","locality":"Bad Liebenzell","municipality":{"key":"08235008","name":"Bad Liebenzell, Stadt","type":"Stadt"},"district":{"key":"08235","name":"Calw","type":"Landkreis"},"federalState":{"key":"08","name":"Baden-Württemberg"}},{"name":"Eisgraben","postalCode":"75378","locality":"Bad Liebenzell","municipality":{"key":"08235008","name":"Bad Liebenzell, Stadt","type":"Stadt"},"district":{"key":"08235","name":"Calw","type":"Landkreis"},"federalState":{"key":"08","name":"Baden-Württemberg"}},{"name":"Emil-Schmid-Str.","postalCode":"75378","locality":"Bad Liebenzell","municipality":{"key":"08235008","name":"Bad Liebenzell, Stadt","type":"Stadt"},"district":{"key":"08235","name":"Calw","type":"Landkreis"},"federalState":{"key":"08","name":"Baden-Württemberg"}},{"name":"Endlich oben (wars früher)","postalCode":"75378","locality":"Bad Liebenzell","municipality":{"key":"08235008","name":"Bad Liebenzell, Stadt","type":"Stadt"},"district":{"key":"08235","name":"Calw","type":"Landkreis"},"federalState":{"key":"08","name":"Baden-Württemberg"}},{"name":"Erlenhauweg","postalCode":"75378","locality":"Bad Liebenzell","municipality":{"key":"08235008","name":"Bad Liebenzell, Stadt","type":"Stadt"},"district":{"key":"08235","name":"Calw","type":"Landkreis"},"federalState":{"key":"08","name":"Baden-Württemberg"}},{"name":"Erlenweg","postalCode":"75378","locality":"Bad Liebenzell","municipality":{"key":"08235008","name":"Bad Liebenzell, Stadt","type":"Stadt"},"district":{"key":"08235","name":"Calw","type":"Landkreis"},"federalState":{"key":"08","name":"Baden-Württemberg"}},{"name":"Falkenstr.","postalCode":"75378","locality":"Bad Liebenzell","municipality":{"key":"08235008","name":"Bad Liebenzell, Stadt","type":"Stadt"},"district":{"key":"08235","name":"Calw","type":"Landkreis"},"federalState":{"key":"08","name":"Baden-Württemberg"}},{"name":"Feldheckenweg","postalCode":"75378","locality":"Bad Liebenzell","municipality":{"key":"08235008","name":"Bad Liebenzell, Stadt","type":"Stadt"},"district":{"key":"08235","name":"Calw","type":"Landkreis"},"federalState":{"key":"08","name":"Baden-Württemberg"}},{"name":"Feuerleinweg","postalCode":"75378","locality":"Bad Liebenzell","municipality":{"key":"08235008","name":"Bad Liebenzell, Stadt","type":"Stadt"},"district":{"key":"08235","name":"Calw","type":"Landkreis"},"federalState":{"key":"08","name":"Baden-Württemberg"}},{"name":"Fichtenstr.","postalCode":"75378","locality":"Bad Liebenzell","municipality":{"key":"08235008","name":"Bad Liebenzell, Stadt","type":"Stadt"},"district":{"key":"08235","name":"Calw","type":"Landkreis"},"federalState":{"key":"08","name":"Baden-Württemberg"}},{"name":"Finkenbergweg","postalCode":"75378","locality":"Bad Liebenzell","municipality":{"key":"08235008","name":"Bad Liebenzell, Stadt","type":"Stadt"},"district":{"key":"08235","name":"Calw","type":"Landkreis"},"federalState":{"key":"08","name":"Baden-Württemberg"}},{"name":"Finkensteige","postalCode":"75378","locality":"Bad Liebenzell","municipality":{"key":"08235008","name":"Bad Liebenzell, Stadt","type":"Stadt"},"district":{"key":"08235","name":"Calw","type":"Landkreis"},"federalState":{"key":"08","name":"Baden-Württemberg"}},{"name":"Finkenweg","postalCode":"75378","locality":"Bad Liebenzell","municipality":{"key":"08235008","name":"Bad Liebenzell, Stadt","type":"Stadt"},"district":{"key":"08235","name":"Calw","type":"Landkreis"},"federalState":{"key":"08","name":"Baden-Württemberg"}},{"name":"Finsterer Weg","postalCode":"75378","locality":"Bad Liebenzell","municipality":{"key":"08235008","name":"Bad Liebenzell, Stadt","type":"Stadt"},"district":{"key":"08235","name":"Calw","type":"Landkreis"},"federalState":{"key":"08","name":"Baden-Württemberg"}},{"name":"Forchenhalde","postalCode":"75378","locality":"Bad Liebenzell","municipality":{"key":"08235008","name":"Bad Liebenzell, Stadt","type":"Stadt"},"district":{"key":"08235","name":"Calw","type":"Landkreis"},"federalState":{"key":"08","name":"Baden-Württemberg"}},{"name":"Friedenstr.","postalCode":"75378","locality":"Bad Liebenzell","municipality":{"key":"08235008","name":"Bad Liebenzell, Stadt","type":"Stadt"},"district":{"key":"08235","name":"Calw","type":"Landkreis"},"federalState":{"key":"08","name":"Baden-Württemberg"}},{"name":"Friedhofweg","postalCode":"75378","locality":"Bad Liebenzell","municipality":{"key":"08235008","name":"Bad Liebenzell, Stadt","type":"Stadt"},"district":{"key":"08235","name":"Calw","type":"Landkreis"},"federalState":{"key":"08","name":"Baden-Württemberg"}},{"name":"Frohnwasenweg","postalCode":"75378","locality":"Bad Liebenzell","municipality":{"key":"08235008","name":"Bad Liebenzell, Stadt","type":"Stadt"},"district":{"key":"08235","name":"Calw","type":"Landkreis"},"federalState":{"key":"08","name":"Baden-Württemberg"}},{"name":"Fuchseck","postalCode":"75378","locality":"Bad Liebenzell","municipality":{"key":"08235008","name":"Bad Liebenzell, Stadt","type":"Stadt"},"district":{"key":"08235","name":"Calw","type":"Landkreis"},"federalState":{"key":"08","name":"Baden-Württemberg"}},{"name":"Furtweg","postalCode":"75378","locality":"Bad Liebenzell","municipality":{"key":"08235008","name":"Bad Liebenzell, Stadt","type":"Stadt"},"district":{"key":"08235","name":"Calw","type":"Landkreis"},"federalState":{"key":"08","name":"Baden-Württemberg"}},{"name":"Galgensträßle","postalCode":"75378","locality":"Bad Liebenzell","municipality":{"key":"08235008","name":"Bad Liebenzell, Stadt","type":"Stadt"},"district":{"key":"08235","name":"Calw","type":"Landkreis"},"federalState":{"key":"08","name":"Baden-Württemberg"}},{"name":"Gansweg","postalCode":"75378","locality":"Bad Liebenzell","municipality":{"key":"08235008","name":"Bad Liebenzell, Stadt","type":"Stadt"},"district":{"key":"08235","name":"Calw","type":"Landkreis"},"federalState":{"key":"08","name":"Baden-Württemberg"}},{"name":"Gartenstr.","postalCode":"75378","locality":"Bad Liebenzell","municipality":{"key":"08235008","name":"Bad Liebenzell, Stadt","type":"Stadt"},"district":{"key":"08235","name":"Calw","type":"Landkreis"},"federalState":{"key":"08","name":"Baden-Württemberg"}},{"name":"Gfaellweg","postalCode":"75378","locality":"Bad Liebenzell","municipality":{"key":"08235008","name":"Bad Liebenzell, Stadt","type":"Stadt"},"district":{"key":"08235","name":"Calw","type":"Landkreis"},"federalState":{"key":"08","name":"Baden-Württemberg"}},{"name":"Ginsterweg","postalCode":"75378","locality":"Bad Liebenzell","municipality":{"key":"08235008","name":"Bad Liebenzell, Stadt","type":"Stadt"},"district":{"key":"08235","name":"Calw","type":"Landkreis"},"federalState":{"key":"08","name":"Baden-Württemberg"}},{"name":"Goldschmiedweg","postalCode":"75378","locality":"Bad Liebenzell","municipality":{"key":"08235008","name":"Bad Liebenzell, Stadt","type":"Stadt"},"district":{"key":"08235","name":"Calw","type":"Landkreis"},"federalState":{"key":"08","name":"Baden-Württemberg"}},{"name":"Gottlob-Rau-Str.","postalCode":"75378","locality":"Bad Liebenzell","municipality":{"key":"08235008","name":"Bad Liebenzell, Stadt","type":"Stadt"},"district":{"key":"08235","name":"Calw","type":"Landkreis"},"federalState":{"key":"08","name":"Baden-Württemberg"}},{"name":"Gründlesweg","postalCode":"75378","locality":"Bad Liebenzell","municipality":{"key":"08235008","name":"Bad Liebenzell, Stadt","type":"Stadt"},"district":{"key":"08235","name":"Calw","type":"Landkreis"},"federalState":{"key":"08","name":"Baden-Württemberg"}},{"name":"Grünstr.","postalCode":"75378","locality":"Bad Liebenzell","municipality":{"key":"08235008","name":"Bad Liebenzell, Stadt","type":"Stadt"},"district":{"key":"08235","name":"Calw","type":"Landkreis"},"federalState":{"key":"08","name":"Baden-Württemberg"}},{"name":"Hahlenweg","postalCode":"75378","locality":"Bad Liebenzell","municipality":{"key":"08235008","name":"Bad Liebenzell, Stadt","type":"Stadt"},"district":{"key":"08235","name":"Calw","type":"Landkreis"},"federalState":{"key":"08","name":"Baden-Württemberg"}},{"name":"Hans-Schiedt-Weg","postalCode":"75378","locality":"Bad Liebenzell","municipality":{"key":"08235008","name":"Bad Liebenzell, Stadt","type":"Stadt"},"district":{"key":"08235","name":"Calw","type":"Landkreis"},"federalState":{"key":"08","name":"Baden-Württemberg"}},{"name":"Härdlesweg","postalCode":"75378","locality":"Bad Liebenzell","municipality":{"key":"08235008","name":"Bad Liebenzell, Stadt","type":"Stadt"},"district":{"key":"08235","name":"Calw","type":"Landkreis"},"federalState":{"key":"08","name":"Baden-Württemberg"}},{"name":"Harry-Schulz-Weg","postalCode":"75378","locality":"Bad Liebenzell","municipality":{"key":"08235008","name":"Bad Liebenzell, Stadt","type":"Stadt"},"district":{"key":"08235","name":"Calw","type":"Landkreis"},"federalState":{"key":"08","name":"Baden-Württemberg"}},{"name":"Hasenweg","postalCode":"75378","locality":"Bad Liebenzell","municipality":{"key":"08235008","name":"Bad Liebenzell, Stadt","type":"Stadt"},"district":{"key":"08235","name":"Calw","type":"Landkreis"},"federalState":{"key":"08","name":"Baden-Württemberg"}},{"name":"Hauswiesen","postalCode":"75378","locality":"Bad Liebenzell","municipality":{"key":"08235008","name":"Bad Liebenzell, Stadt","type":"Stadt"},"district":{"key":"08235","name":"Calw","type":"Landkreis"},"federalState":{"key":"08","name":"Baden-Württemberg"}},{"name":"Heideweg","postalCode":"75378","locality":"Bad Liebenzell","municipality":{"key":"08235008","name":"Bad Liebenzell, Stadt","type":"Stadt"},"district":{"key":"08235","name":"Calw","type":"Landkreis"},"federalState":{"key":"08","name":"Baden-Württemberg"}},{"name":"Heimsplanie","postalCode":"75378","locality":"Bad Liebenzell","municipality":{"key":"08235008","name":"Bad Liebenzell, Stadt","type":"Stadt"},"district":{"key":"08235","name":"Calw","type":"Landkreis"},"federalState":{"key":"08","name":"Baden-Württemberg"}},{"name":"Heinrich-Coerper-Weg","postalCode":"75378","locality":"Bad Liebenzell","municipality":{"key":"08235008","name":"Bad Liebenzell, Stadt","type":"Stadt"},"district":{"key":"08235","name":"Calw","type":"Landkreis"},"federalState":{"key":"08","name":"Baden-Württemberg"}},{"name":"Heinrich-Sauter-Weg","postalCode":"75378","locality":"Bad Liebenzell","municipality":{"key":"08235008","name":"Bad Liebenzell, Stadt","type":"Stadt"},"district":{"key":"08235","name":"Calw","type":"Landkreis"},"federalState":{"key":"08","name":"Baden-Württemberg"}},{"name":"Hermann-Hesse-Str.","postalCode":"75378","locality":"Bad Liebenzell","municipality":{"key":"08235008","name":"Bad Liebenzell, Stadt","type":"Stadt"},"district":{"key":"08235","name":"Calw","type":"Landkreis"},"federalState":{"key":"08","name":"Baden-Württemberg"}},{"name":"Hindenburgstr.","postalCode":"75378","locality":"Bad Liebenzell","municipality":{"key":"08235008","name":"Bad Liebenzell, Stadt","type":"Stadt"},"district":{"key":"08235","name":"Calw","type":"Landkreis"},"federalState":{"key":"08","name":"Baden-Württemberg"}},{"name":"Hirsauer Str.","postalCode":"75378","locality":"Bad Liebenzell","municipality":{"key":"08235008","name":"Bad Liebenzell, Stadt","type":"Stadt"},"district":{"key":"08235","name":"Calw","type":"Landkreis"},"federalState":{"key":"08","name":"Baden-Württemberg"}},{"name":"Hirschweg","postalCode":"75378","locality":"Bad Liebenzell","municipality":{"key":"08235008","name":"Bad Liebenzell, Stadt","type":"Stadt"},"district":{"key":"08235","name":"Calw","type":"Landkreis"},"federalState":{"key":"08","name":"Baden-Württemberg"}},{"name":"Hochholzsträßchen","postalCode":"75378","locality":"Bad Liebenzell","municipality":{"key":"08235008","name":"Bad Liebenzell, Stadt","type":"Stadt"},"district":{"key":"08235","name":"Calw","type":"Landkreis"},"federalState":{"key":"08","name":"Baden-Württemberg"}},{"name":"Hochwiesenweg","postalCode":"75378","locality":"Bad Liebenzell","municipality":{"key":"08235008","name":"Bad Liebenzell, Stadt","type":"Stadt"},"district":{"key":"08235","name":"Calw","type":"Landkreis"},"federalState":{"key":"08","name":"Baden-Württemberg"}},{"name":"Hofäckerweg","postalCode":"75378","locality":"Bad Liebenzell","municipality":{"key":"08235008","name":"Bad Liebenzell, Stadt","type":"Stadt"},"district":{"key":"08235","name":"Calw","type":"Landkreis"},"federalState":{"key":"08","name":"Baden-Württemberg"}},{"name":"Höhenstr.","postalCode":"75378","locality":"Bad Liebenzell","municipality":{"key":"08235008","name":"Bad Liebenzell, Stadt","type":"Stadt"},"district":{"key":"08235","name":"Calw","type":"Landkreis"},"federalState":{"key":"08","name":"Baden-Württemberg"}},{"name":"Hölderlinstr.","postalCode":"75378","locality":"Bad Liebenzell","municipality":{"key":"08235008","name":"Bad Liebenzell, Stadt","type":"Stadt"},"district":{"key":"08235","name":"Calw","type":"Landkreis"},"federalState":{"key":"08","name":"Baden-Württemberg"}},{"name":"Holunderweg","postalCode":"75378","locality":"Bad Liebenzell","municipality":{"key":"08235008","name":"Bad Liebenzell, Stadt","type":"Stadt"},"district":{"key":"08235","name":"Calw","type":"Landkreis"},"federalState":{"key":"08","name":"Baden-Württemberg"}},{"name":"Hopfweg","postalCode":"75378","locality":"Bad Liebenzell","municipality":{"key":"08235008","name":"Bad Liebenzell, Stadt","type":"Stadt"},"district":{"key":"08235","name":"Calw","type":"Landkreis"},"federalState":{"key":"08","name":"Baden-Württemberg"}},{"name":"Hörnlesweg","postalCode":"75378","locality":"Bad Liebenzell","municipality":{"key":"08235008","name":"Bad Liebenzell, Stadt","type":"Stadt"},"district":{"key":"08235","name":"Calw","type":"Landkreis"},"federalState":{"key":"08","name":"Baden-Württemberg"}},{"name":"Hugo-Mäulen-Str.","postalCode":"75378","locality":"Bad Liebenzell","municipality":{"key":"08235008","name":"Bad Liebenzell, Stadt","type":"Stadt"},"district":{"key":"08235","name":"Calw","type":"Landkreis"},"federalState":{"key":"08","name":"Baden-Württemberg"}},{"name":"Igelslocher Str.","postalCode":"75378","locality":"Bad Liebenzell","municipality":{"key":"08235008","name":"Bad Liebenzell, Stadt","type":"Stadt"},"district":{"key":"08235","name":"Calw","type":"Landkreis"},"federalState":{"key":"08","name":"Baden-Württemberg"}},{"name":"Iltisweg","postalCode":"75378","locality":"Bad Liebenzell","municipality":{"key":"08235008","name":"Bad Liebenzell, Stadt","type":"Stadt"},"district":{"key":"08235","name":"Calw","type":"Landkreis"},"federalState":{"key":"08","name":"Baden-Württemberg"}},{"name":"Im Birkhau","postalCode":"75378","locality":"Bad Liebenzell","municipality":{"key":"08235008","name":"Bad Liebenzell, Stadt","type":"Stadt"},"district":{"key":"08235","name":"Calw","type":"Landkreis"},"federalState":{"key":"08","name":"Baden-Württemberg"}},{"name":"Im Blumenstiel","postalCode":"75378","locality":"Bad Liebenzell","municipality":{"key":"08235008","name":"Bad Liebenzell, Stadt","type":"Stadt"},"district":{"key":"08235","name":"Calw","type":"Landkreis"},"federalState":{"key":"08","name":"Baden-Württemberg"}},{"name":"Im Eichenhau","postalCode":"75378","locality":"Bad Liebenzell","municipality":{"key":"08235008","name":"Bad Liebenzell, Stadt","type":"Stadt"},"district":{"key":"08235","name":"Calw","type":"Landkreis"},"federalState":{"key":"08","name":"Baden-Württemberg"}},{"name":"Im Gäßle","postalCode":"75378","locality":"Bad Liebenzell","municipality":{"key":"08235008","name":"Bad Liebenzell, Stadt","type":"Stadt"},"district":{"key":"08235","name":"Calw","type":"Landkreis"},"federalState":{"key":"08","name":"Baden-Württemberg"}},{"name":"Im Gründle","postalCode":"75378","locality":"Bad Liebenzell","municipality":{"key":"08235008","name":"Bad Liebenzell, Stadt","type":"Stadt"},"district":{"key":"08235","name":"Calw","type":"Landkreis"},"federalState":{"key":"08","name":"Baden-Württemberg"}},{"name":"Im Nagoldtal","postalCode":"75378","locality":"Bad Liebenzell","municipality":{"key":"08235008","name":"Bad Liebenzell, Stadt","type":"Stadt"},"district":{"key":"08235","name":"Calw","type":"Landkreis"},"federalState":{"key":"08","name":"Baden-Württemberg"}},{"name":"Im Vogelsang","postalCode":"75378","locality":"Bad Liebenzell","municipality":{"key":"08235008","name":"Bad Liebenzell, Stadt","type":"Stadt"},"district":{"key":"08235","name":"Calw","type":"Landkreis"},"federalState":{"key":"08","name":"Baden-Württemberg"}},{"name":"Im Weckartshäuser","postalCode":"75378","locality":"Bad Liebenzell","municipality":{"key":"08235008","name":"Bad Liebenzell, Stadt","type":"Stadt"},"district":{"key":"08235","name":"Calw","type":"Landkreis"},"federalState":{"key":"08","name":"Baden-Württemberg"}},{"name":"Im Weidenfeld","postalCode":"75378","locality":"Bad Liebenzell","municipality":{"key":"08235008","name":"Bad Liebenzell, Stadt","type":"Stadt"},"district":{"key":"08235","name":"Calw","type":"Landkreis"},"federalState":{"key":"08","name":"Baden-Württemberg"}},{"name":"Im Zeil","postalCode":"75378","locality":"Bad Liebenzell","municipality":{"key":"08235008","name":"Bad Liebenzell, Stadt","type":"Stadt"},"district":{"key":"08235","name":"Calw","type":"Landkreis"},"federalState":{"key":"08","name":"Baden-Württemberg"}},{"name":"Im Zwerneck","postalCode":"75378","locality":"Bad Liebenzell","municipality":{"key":"08235008","name":"Bad Liebenzell, Stadt","type":"Stadt"},"district":{"key":"08235","name":"Calw","type":"Landkreis"},"federalState":{"key":"08","name":"Baden-Württemberg"}},{"name":"In den Gärten","postalCode":"75378","locality":"Bad Liebenzell","municipality":{"key":"08235008","name":"Bad Liebenzell, Stadt","type":"Stadt"},"district":{"key":"08235","name":"Calw","type":"Landkreis"},"federalState":{"key":"08","name":"Baden-Württemberg"}},{"name":"In der Halde","postalCode":"75378","locality":"Bad Liebenzell","municipality":{"key":"08235008","name":"Bad Liebenzell, Stadt","type":"Stadt"},"district":{"key":"08235","name":"Calw","type":"Landkreis"},"federalState":{"key":"08","name":"Baden-Württemberg"}},{"name":"In der Steinhalde","postalCode":"75378","locality":"Bad Liebenzell","municipality":{"key":"08235008","name":"Bad Liebenzell, Stadt","type":"Stadt"},"district":{"key":"08235","name":"Calw","type":"Landkreis"},"federalState":{"key":"08","name":"Baden-Württemberg"}},{"name":"Jägerweg","postalCode":"75378","locality":"Bad Liebenzell","municipality":{"key":"08235008","name":"Bad Liebenzell, Stadt","type":"Stadt"},"district":{"key":"08235","name":"Calw","type":"Landkreis"},"federalState":{"key":"08","name":"Baden-Württemberg"}},{"name":"Jahnstr.","postalCode":"75378","locality":"Bad Liebenzell","municipality":{"key":"08235008","name":"Bad Liebenzell, Stadt","type":"Stadt"},"district":{"key":"08235","name":"Calw","type":"Landkreis"},"federalState":{"key":"08","name":"Baden-Württemberg"}},{"name":"Johannes-Brenz-Str.","postalCode":"75378","locality":"Bad Liebenzell","municipality":{"key":"08235008","name":"Bad Liebenzell, Stadt","type":"Stadt"},"district":{"key":"08235","name":"Calw","type":"Landkreis"},"federalState":{"key":"08","name":"Baden-Württemberg"}},{"name":"Johannes-Kepler-Str.","postalCode":"75378","locality":"Bad Liebenzell","municipality":{"key":"08235008","name":"Bad Liebenzell, Stadt","type":"Stadt"},"district":{"key":"08235","name":"Calw","type":"Landkreis"},"federalState":{"key":"08","name":"Baden-Württemberg"}},{"name":"Kaffeehofweg","postalCode":"75378","locality":"Bad Liebenzell","municipality":{"key":"08235008","name":"Bad Liebenzell, Stadt","type":"Stadt"},"district":{"key":"08235","name":"Calw","type":"Landkreis"},"federalState":{"key":"08","name":"Baden-Württemberg"}},{"name":"Kaffeeweg","postalCode":"75378","locality":"Bad Liebenzell","municipality":{"key":"08235008","name":"Bad Liebenzell, Stadt","type":"Stadt"},"district":{"key":"08235","name":"Calw","type":"Landkreis"},"federalState":{"key":"08","name":"Baden-Württemberg"}},{"name":"Karl-Greiner-Weg","postalCode":"75378","locality":"Bad Liebenzell","municipality":{"key":"08235008","name":"Bad Liebenzell, Stadt","type":"Stadt"},"district":{"key":"08235","name":"Calw","type":"Landkreis"},"federalState":{"key":"08","name":"Baden-Württemberg"}},{"name":"Karl-Hammann Weg","postalCode":"75378","locality":"Bad Liebenzell","municipality":{"key":"08235008","name":"Bad Liebenzell, Stadt","type":"Stadt"},"district":{"key":"08235","name":"Calw","type":"Landkreis"},"federalState":{"key":"08","name":"Baden-Württemberg"}},{"name":"Karl-Mohr-Weg","postalCode":"75378","locality":"Bad Liebenzell","municipality":{"key":"08235008","name":"Bad Liebenzell, Stadt","type":"Stadt"},"district":{"key":"08235","name":"Calw","type":"Landkreis"},"federalState":{"key":"08","name":"Baden-Württemberg"}},{"name":"Karlstr.","postalCode":"75378","locality":"Bad Liebenzell","municipality":{"key":"08235008","name":"Bad Liebenzell, Stadt","type":"Stadt"},"district":{"key":"08235","name":"Calw","type":"Landkreis"},"federalState":{"key":"08","name":"Baden-Württemberg"}},{"name":"Karmelstr.","postalCode":"75378","locality":"Bad Liebenzell","municipality":{"key":"08235008","name":"Bad Liebenzell, Stadt","type":"Stadt"},"district":{"key":"08235","name":"Calw","type":"Landkreis"},"federalState":{"key":"08","name":"Baden-Württemberg"}},{"name":"Kiefersweg","postalCode":"75378","locality":"Bad Liebenzell","municipality":{"key":"08235008","name":"Bad Liebenzell, Stadt","type":"Stadt"},"district":{"key":"08235","name":"Calw","type":"Landkreis"},"federalState":{"key":"08","name":"Baden-Württemberg"}},{"name":"Kirchberg","postalCode":"75378","locality":"Bad Liebenzell","municipality":{"key":"08235008","name":"Bad Liebenzell, Stadt","type":"Stadt"},"district":{"key":"08235","name":"Calw","type":"Landkreis"},"federalState":{"key":"08","name":"Baden-Württemberg"}},{"name":"Kirchgässle","postalCode":"75378","locality":"Bad Liebenzell","municipality":{"key":"08235008","name":"Bad Liebenzell, Stadt","type":"Stadt"},"district":{"key":"08235","name":"Calw","type":"Landkreis"},"federalState":{"key":"08","name":"Baden-Württemberg"}},{"name":"Kirchstr.","postalCode":"75378","locality":"Bad Liebenzell","municipality":{"key":"08235008","name":"Bad Liebenzell, Stadt","type":"Stadt"},"district":{"key":"08235","name":"Calw","type":"Landkreis"},"federalState":{"key":"08","name":"Baden-Württemberg"}},{"name":"Köhlerweg","postalCode":"75378","locality":"Bad Liebenzell","municipality":{"key":"08235008","name":"Bad Liebenzell, Stadt","type":"Stadt"},"district":{"key":"08235","name":"Calw","type":"Landkreis"},"federalState":{"key":"08","name":"Baden-Württemberg"}},{"name":"Kollbachstr.","postalCode":"75378","locality":"Bad Liebenzell","municipality":{"key":"08235008","name":"Bad Liebenzell, Stadt","type":"Stadt"},"district":{"key":"08235","name":"Calw","type":"Landkreis"},"federalState":{"key":"08","name":"Baden-Württemberg"}},{"name":"Kollbachtalweg","postalCode":"75378","locality":"Bad Liebenzell","municipality":{"key":"08235008","name":"Bad Liebenzell, Stadt","type":"Stadt"},"district":{"key":"08235","name":"Calw","type":"Landkreis"},"federalState":{"key":"08","name":"Baden-Württemberg"}},{"name":"Kollbachweg","postalCode":"75378","locality":"Bad Liebenzell","municipality":{"key":"08235008","name":"Bad Liebenzell, Stadt","type":"Stadt"},"district":{"key":"08235","name":"Calw","type":"Landkreis"},"federalState":{"key":"08","name":"Baden-Württemberg"}},{"name":"Köpflesweg","postalCode":"75378","locality":"Bad Liebenzell","municipality":{"key":"08235008","name":"Bad Liebenzell, Stadt","type":"Stadt"},"district":{"key":"08235","name":"Calw","type":"Landkreis"},"federalState":{"key":"08","name":"Baden-Württemberg"}},{"name":"Krautgarten","postalCode":"75378","locality":"Bad Liebenzell","municipality":{"key":"08235008","name":"Bad Liebenzell, Stadt","type":"Stadt"},"district":{"key":"08235","name":"Calw","type":"Landkreis"},"federalState":{"key":"08","name":"Baden-Württemberg"}},{"name":"Kreuzsträsschen","postalCode":"75378","locality":"Bad Liebenzell","municipality":{"key":"08235008","name":"Bad Liebenzell, Stadt","type":"Stadt"},"district":{"key":"08235","name":"Calw","type":"Landkreis"},"federalState":{"key":"08","name":"Baden-Württemberg"}},{"name":"Kröcksweg","postalCode":"75378","locality":"Bad Liebenzell","municipality":{"key":"08235008","name":"Bad Liebenzell, Stadt","type":"Stadt"},"district":{"key":"08235","name":"Calw","type":"Landkreis"},"federalState":{"key":"08","name":"Baden-Württemberg"}},{"name":"Kugelberg","postalCode":"75378","locality":"Bad Liebenzell","municipality":{"key":"08235008","name":"Bad Liebenzell, Stadt","type":"Stadt"},"district":{"key":"08235","name":"Calw","type":"Landkreis"},"federalState":{"key":"08","name":"Baden-Württemberg"}},{"name":"Kurhausdamm","postalCode":"75378","locality":"Bad Liebenzell","municipality":{"key":"08235008","name":"Bad Liebenzell, Stadt","type":"Stadt"},"district":{"key":"08235","name":"Calw","type":"Landkreis"},"federalState":{"key":"08","name":"Baden-Württemberg"}},{"name":"Kurpark","postalCode":"75378","locality":"Bad Liebenzell","municipality":{"key":"08235008","name":"Bad Liebenzell, Stadt","type":"Stadt"},"district":{"key":"08235","name":"Calw","type":"Landkreis"},"federalState":{"key":"08","name":"Baden-Württemberg"}},{"name":"Lauxmannweg","postalCode":"75378","locality":"Bad Liebenzell","municipality":{"key":"08235008","name":"Bad Liebenzell, Stadt","type":"Stadt"},"district":{"key":"08235","name":"Calw","type":"Landkreis"},"federalState":{"key":"08","name":"Baden-Württemberg"}},{"name":"Lehmgrubenweg","postalCode":"75378","locality":"Bad Liebenzell","municipality":{"key":"08235008","name":"Bad Liebenzell, Stadt","type":"Stadt"},"district":{"key":"08235","name":"Calw","type":"Landkreis"},"federalState":{"key":"08","name":"Baden-Württemberg"}},{"name":"Lengenbachweg","postalCode":"75378","locality":"Bad Liebenzell","municipality":{"key":"08235008","name":"Bad Liebenzell, Stadt","type":"Stadt"},"district":{"key":"08235","name":"Calw","type":"Landkreis"},"federalState":{"key":"08","name":"Baden-Württemberg"}},{"name":"Lerchenstr.","postalCode":"75378","locality":"Bad Liebenzell","municipality":{"key":"08235008","name":"Bad Liebenzell, Stadt","type":"Stadt"},"district":{"key":"08235","name":"Calw","type":"Landkreis"},"federalState":{"key":"08","name":"Baden-Württemberg"}},{"name":"Liebenzeller Str.","postalCode":"75378","locality":"Bad Liebenzell","municipality":{"key":"08235008","name":"Bad Liebenzell, Stadt","type":"Stadt"},"district":{"key":"08235","name":"Calw","type":"Landkreis"},"federalState":{"key":"08","name":"Baden-Württemberg"}},{"name":"Ligusterweg","postalCode":"75378","locality":"Bad Liebenzell","municipality":{"key":"08235008","name":"Bad Liebenzell, Stadt","type":"Stadt"},"district":{"key":"08235","name":"Calw","type":"Landkreis"},"federalState":{"key":"08","name":"Baden-Württemberg"}},{"name":"Lindenplatz","postalCode":"75378","locality":"Bad Liebenzell","municipality":{"key":"08235008","name":"Bad Liebenzell, Stadt","type":"Stadt"},"district":{"key":"08235","name":"Calw","type":"Landkreis"},"federalState":{"key":"08","name":"Baden-Württemberg"}},{"name":"Lindenstr.","postalCode":"75378","locality":"Bad Liebenzell","municipality":{"key":"08235008","name":"Bad Liebenzell, Stadt","type":"Stadt"},"district":{"key":"08235","name":"Calw","type":"Landkreis"},"federalState":{"key":"08","name":"Baden-Württemberg"}},{"name":"Lindenwiesen","postalCode":"75378","locality":"Bad Liebenzell","municipality":{"key":"08235008","name":"Bad Liebenzell, Stadt","type":"Stadt"},"district":{"key":"08235","name":"Calw","type":"Landkreis"},"federalState":{"key":"08","name":"Baden-Württemberg"}},{"name":"Liobastr.","postalCode":"75378","locality":"Bad Liebenzell","municipality":{"key":"08235008","name":"Bad Liebenzell, Stadt","type":"Stadt"},"district":{"key":"08235","name":"Calw","type":"Landkreis"},"federalState":{"key":"08","name":"Baden-Württemberg"}},{"name":"Lochwald","postalCode":"75378","locality":"Bad Liebenzell","municipality":{"key":"08235008","name":"Bad Liebenzell, Stadt","type":"Stadt"},"district":{"key":"08235","name":"Calw","type":"Landkreis"},"federalState":{"key":"08","name":"Baden-Württemberg"}},{"name":"Luchsweg","postalCode":"75378","locality":"Bad Liebenzell","municipality":{"key":"08235008","name":"Bad Liebenzell, Stadt","type":"Stadt"},"district":{"key":"08235","name":"Calw","type":"Landkreis"},"federalState":{"key":"08","name":"Baden-Württemberg"}},{"name":"Ludwig-Finckh-Weg","postalCode":"75378","locality":"Bad Liebenzell","municipality":{"key":"08235008","name":"Bad Liebenzell, Stadt","type":"Stadt"},"district":{"key":"08235","name":"Calw","type":"Landkreis"},"federalState":{"key":"08","name":"Baden-Württemberg"}},{"name":"Luisenstr.","postalCode":"75378","locality":"Bad Liebenzell","municipality":{"key":"08235008","name":"Bad Liebenzell, Stadt","type":"Stadt"},"district":{"key":"08235","name":"Calw","type":"Landkreis"},"federalState":{"key":"08","name":"Baden-Württemberg"}},{"name":"Lupinenweg","postalCode":"75378","locality":"Bad Liebenzell","municipality":{"key":"08235008","name":"Bad Liebenzell, Stadt","type":"Stadt"},"district":{"key":"08235","name":"Calw","type":"Landkreis"},"federalState":{"key":"08","name":"Baden-Württemberg"}},{"name":"Machtolfstr.","postalCode":"75378","locality":"Bad Liebenzell","municipality":{"key":"08235008","name":"Bad Liebenzell, Stadt","type":"Stadt"},"district":{"key":"08235","name":"Calw","type":"Landkreis"},"federalState":{"key":"08","name":"Baden-Württemberg"}},{"name":"Mahdsbrunnenweg","postalCode":"75378","locality":"Bad Liebenzell","municipality":{"key":"08235008","name":"Bad Liebenzell, Stadt","type":"Stadt"},"district":{"key":"08235","name":"Calw","type":"Landkreis"},"federalState":{"key":"08","name":"Baden-Württemberg"}},{"name":"Maisenbacher Str.","postalCode":"75378","locality":"Bad Liebenzell","municipality":{"key":"08235008","name":"Bad Liebenzell, Stadt","type":"Stadt"},"district":{"key":"08235","name":"Calw","type":"Landkreis"},"federalState":{"key":"08","name":"Baden-Württemberg"}},{"name":"Marie-Hart-Weg","postalCode":"75378","locality":"Bad Liebenzell","municipality":{"key":"08235008","name":"Bad Liebenzell, Stadt","type":"Stadt"},"district":{"key":"08235","name":"Calw","type":"Landkreis"},"federalState":{"key":"08","name":"Baden-Württemberg"}},{"name":"Markweg","postalCode":"75378","locality":"Bad Liebenzell","municipality":{"key":"08235008","name":"Bad Liebenzell, Stadt","type":"Stadt"},"district":{"key":"08235","name":"Calw","type":"Landkreis"},"federalState":{"key":"08","name":"Baden-Württemberg"}},{"name":"Maßholderweg","postalCode":"75378","locality":"Bad Liebenzell","municipality":{"key":"08235008","name":"Bad Liebenzell, Stadt","type":"Stadt"},"district":{"key":"08235","name":"Calw","type":"Landkreis"},"federalState":{"key":"08","name":"Baden-Württemberg"}},{"name":"Mastenweg","postalCode":"75378","locality":"Bad Liebenzell","municipality":{"key":"08235008","name":"Bad Liebenzell, Stadt","type":"Stadt"},"district":{"key":"08235","name":"Calw","type":"Landkreis"},"federalState":{"key":"08","name":"Baden-Württemberg"}},{"name":"Mathildenstr.","postalCode":"75378","locality":"Bad Liebenzell","municipality":{"key":"08235008","name":"Bad Liebenzell, Stadt","type":"Stadt"},"district":{"key":"08235","name":"Calw","type":"Landkreis"},"federalState":{"key":"08","name":"Baden-Württemberg"}},{"name":"Max-Ackermann-Str.","postalCode":"75378","locality":"Bad Liebenzell","municipality":{"key":"08235008","name":"Bad Liebenzell, Stadt","type":"Stadt"},"district":{"key":"08235","name":"Calw","type":"Landkreis"},"federalState":{"key":"08","name":"Baden-Württemberg"}},{"name":"Mehlweg","postalCode":"75378","locality":"Bad Liebenzell","municipality":{"key":"08235008","name":"Bad Liebenzell, Stadt","type":"Stadt"},"district":{"key":"08235","name":"Calw","type":"Landkreis"},"federalState":{"key":"08","name":"Baden-Württemberg"}},{"name":"Meierhofgasse","postalCode":"75378","locality":"Bad Liebenzell","municipality":{"key":"08235008","name":"Bad Liebenzell, Stadt","type":"Stadt"},"district":{"key":"08235","name":"Calw","type":"Landkreis"},"federalState":{"key":"08","name":"Baden-Württemberg"}},{"name":"Meisenweg","postalCode":"75378","locality":"Bad Liebenzell","municipality":{"key":"08235008","name":"Bad Liebenzell, Stadt","type":"Stadt"},"district":{"key":"08235","name":"Calw","type":"Landkreis"},"federalState":{"key":"08","name":"Baden-Württemberg"}},{"name":"Missweg","postalCode":"75378","locality":"Bad Liebenzell","municipality":{"key":"08235008","name":"Bad Liebenzell, Stadt","type":"Stadt"},"district":{"key":"08235","name":"Calw","type":"Landkreis"},"federalState":{"key":"08","name":"Baden-Württemberg"}},{"name":"Monakamer Berg","postalCode":"75378","locality":"Bad Liebenzell","municipality":{"key":"08235008","name":"Bad Liebenzell, Stadt","type":"Stadt"},"district":{"key":"08235","name":"Calw","type":"Landkreis"},"federalState":{"key":"08","name":"Baden-Württemberg"}},{"name":"Monakamer Hangweg","postalCode":"75378","locality":"Bad Liebenzell","municipality":{"key":"08235008","name":"Bad Liebenzell, Stadt","type":"Stadt"},"district":{"key":"08235","name":"Calw","type":"Landkreis"},"federalState":{"key":"08","name":"Baden-Württemberg"}},{"name":"Monakamer Hütte / Kühnloch","postalCode":"75378","locality":"Bad Liebenzell","municipality":{"key":"08235008","name":"Bad Liebenzell, Stadt","type":"Stadt"},"district":{"key":"08235","name":"Calw","type":"Landkreis"},"federalState":{"key":"08","name":"Baden-Württemberg"}},{"name":"Monakamer Kirchweg","postalCode":"75378","locality":"Bad Liebenzell","municipality":{"key":"08235008","name":"Bad Liebenzell, Stadt","type":"Stadt"},"district":{"key":"08235","name":"Calw","type":"Landkreis"},"federalState":{"key":"08","name":"Baden-Württemberg"}},{"name":"Monakamer Str.","postalCode":"75378","locality":"Bad Liebenzell","municipality":{"key":"08235008","name":"Bad Liebenzell, Stadt","type":"Stadt"},"district":{"key":"08235","name":"Calw","type":"Landkreis"},"federalState":{"key":"08","name":"Baden-Württemberg"}},{"name":"Monbachstr.","postalCode":"75378","locality":"Bad Liebenzell","municipality":{"key":"08235008","name":"Bad Liebenzell, Stadt","type":"Stadt"},"district":{"key":"08235","name":"Calw","type":"Landkreis"},"federalState":{"key":"08","name":"Baden-Württemberg"}},{"name":"Monbachweg","postalCode":"75378","locality":"Bad Liebenzell","municipality":{"key":"08235008","name":"Bad Liebenzell, Stadt","type":"Stadt"},"district":{"key":"08235","name":"Calw","type":"Landkreis"},"federalState":{"key":"08","name":"Baden-Württemberg"}},{"name":"Mörikeweg","postalCode":"75378","locality":"Bad Liebenzell","municipality":{"key":"08235008","name":"Bad Liebenzell, Stadt","type":"Stadt"},"district":{"key":"08235","name":"Calw","type":"Landkreis"},"federalState":{"key":"08","name":"Baden-Württemberg"}},{"name":"Münklinger Str.","postalCode":"75378","locality":"Bad Liebenzell","municipality":{"key":"08235008","name":"Bad Liebenzell, Stadt","type":"Stadt"},"district":{"key":"08235","name":"Calw","type":"Landkreis"},"federalState":{"key":"08","name":"Baden-Württemberg"}},{"name":"Neuer Ottenbronner Weg","postalCode":"75378","locality":"Bad Liebenzell","municipality":{"key":"08235008","name":"Bad Liebenzell, Stadt","type":"Stadt"},"district":{"key":"08235","name":"Calw","type":"Landkreis"},"federalState":{"key":"08","name":"Baden-Württemberg"}},{"name":"Neuer Weg","postalCode":"75378","locality":"Bad Liebenzell","municipality":{"key":"08235008","name":"Bad Liebenzell, Stadt","type":"Stadt"},"district":{"key":"08235","name":"Calw","type":"Landkreis"},"federalState":{"key":"08","name":"Baden-Württemberg"}},{"name":"Neuhauser Str.","postalCode":"75378","locality":"Bad Liebenzell","municipality":{"key":"08235008","name":"Bad Liebenzell, Stadt","type":"Stadt"},"district":{"key":"08235","name":"Calw","type":"Landkreis"},"federalState":{"key":"08","name":"Baden-Württemberg"}},{"name":"Obere Finkensteige","postalCode":"75378","locality":"Bad Liebenzell","municipality":{"key":"08235008","name":"Bad Liebenzell, Stadt","type":"Stadt"},"district":{"key":"08235","name":"Calw","type":"Landkreis"},"federalState":{"key":"08","name":"Baden-Württemberg"}},{"name":"Oberlengenhardter Str.","postalCode":"75378","locality":"Bad Liebenzell","municipality":{"key":"08235008","name":"Bad Liebenzell, Stadt","type":"Stadt"},"district":{"key":"08235","name":"Calw","type":"Landkreis"},"federalState":{"key":"08","name":"Baden-Württemberg"}},{"name":"Ottenbronner Str.","postalCode":"75378","locality":"Bad Liebenzell","municipality":{"key":"08235008","name":"Bad Liebenzell, Stadt","type":"Stadt"},"district":{"key":"08235","name":"Calw","type":"Landkreis"},"federalState":{"key":"08","name":"Baden-Württemberg"}},{"name":"Otto-Haug-Str.","postalCode":"75378","locality":"Bad Liebenzell","municipality":{"key":"08235008","name":"Bad Liebenzell, Stadt","type":"Stadt"},"district":{"key":"08235","name":"Calw","type":"Landkreis"},"federalState":{"key":"08","name":"Baden-Württemberg"}},{"name":"Panoramaweg","postalCode":"75378","locality":"Bad Liebenzell","municipality":{"key":"08235008","name":"Bad Liebenzell, Stadt","type":"Stadt"},"district":{"key":"08235","name":"Calw","type":"Landkreis"},"federalState":{"key":"08","name":"Baden-Württemberg"}},{"name":"Paracelsusweg","postalCode":"75378","locality":"Bad Liebenzell","municipality":{"key":"08235008","name":"Bad Liebenzell, Stadt","type":"Stadt"},"district":{"key":"08235","name":"Calw","type":"Landkreis"},"federalState":{"key":"08","name":"Baden-Württemberg"}},{"name":"Pforzheimer Str.","postalCode":"75378","locality":"Bad Liebenzell","municipality":{"key":"08235008","name":"Bad Liebenzell, Stadt","type":"Stadt"},"district":{"key":"08235","name":"Calw","type":"Landkreis"},"federalState":{"key":"08","name":"Baden-Württemberg"}},{"name":"Rappenäcker","postalCode":"75378","locality":"Bad Liebenzell","municipality":{"key":"08235008","name":"Bad Liebenzell, Stadt","type":"Stadt"},"district":{"key":"08235","name":"Calw","type":"Landkreis"},"federalState":{"key":"08","name":"Baden-Württemberg"}},{"name":"Regulastr.","postalCode":"75378","locality":"Bad Liebenzell","municipality":{"key":"08235008","name":"Bad Liebenzell, Stadt","type":"Stadt"},"district":{"key":"08235","name":"Calw","type":"Landkreis"},"federalState":{"key":"08","name":"Baden-Württemberg"}},{"name":"Rehweg","postalCode":"75378","locality":"Bad Liebenzell","municipality":{"key":"08235008","name":"Bad Liebenzell, Stadt","type":"Stadt"},"district":{"key":"08235","name":"Calw","type":"Landkreis"},"federalState":{"key":"08","name":"Baden-Württemberg"}},{"name":"Reuchlinweg","postalCode":"75378","locality":"Bad Liebenzell","municipality":{"key":"08235008","name":"Bad Liebenzell, Stadt","type":"Stadt"},"district":{"key":"08235","name":"Calw","type":"Landkreis"},"federalState":{"key":"08","name":"Baden-Württemberg"}},{"name":"Reuteweg","postalCode":"75378","locality":"Bad Liebenzell","municipality":{"key":"08235008","name":"Bad Liebenzell, Stadt","type":"Stadt"},"district":{"key":"08235","name":"Calw","type":"Landkreis"},"federalState":{"key":"08","name":"Baden-Württemberg"}},{"name":"Rißweg","postalCode":"75378","locality":"Bad Liebenzell","municipality":{"key":"08235008","name":"Bad Liebenzell, Stadt","type":"Stadt"},"district":{"key":"08235","name":"Calw","type":"Landkreis"},"federalState":{"key":"08","name":"Baden-Württemberg"}},{"name":"Rohrbrunnenweg","postalCode":"75378","locality":"Bad Liebenzell","municipality":{"key":"08235008","name":"Bad Liebenzell, Stadt","type":"Stadt"},"district":{"key":"08235","name":"Calw","type":"Landkreis"},"federalState":{"key":"08","name":"Baden-Württemberg"}},{"name":"Rosenhardtstr.","postalCode":"75378","locality":"Bad Liebenzell","municipality":{"key":"08235008","name":"Bad Liebenzell, Stadt","type":"Stadt"},"district":{"key":"08235","name":"Calw","type":"Landkreis"},"federalState":{"key":"08","name":"Baden-Württemberg"}},{"name":"Rosenhardtweg","postalCode":"75378","locality":"Bad Liebenzell","municipality":{"key":"08235008","name":"Bad Liebenzell, Stadt","type":"Stadt"},"district":{"key":"08235","name":"Calw","type":"Landkreis"},"federalState":{"key":"08","name":"Baden-Württemberg"}},{"name":"Rosenweg","postalCode":"75378","locality":"Bad Liebenzell","municipality":{"key":"08235008","name":"Bad Liebenzell, Stadt","type":"Stadt"},"district":{"key":"08235","name":"Calw","type":"Landkreis"},"federalState":{"key":"08","name":"Baden-Württemberg"}},{"name":"Schießrain","postalCode":"75378","locality":"Bad Liebenzell","municipality":{"key":"08235008","name":"Bad Liebenzell, Stadt","type":"Stadt"},"district":{"key":"08235","name":"Calw","type":"Landkreis"},"federalState":{"key":"08","name":"Baden-Württemberg"}},{"name":"Schillerallee","postalCode":"75378","locality":"Bad Liebenzell","municipality":{"key":"08235008","name":"Bad Liebenzell, Stadt","type":"Stadt"},"district":{"key":"08235","name":"Calw","type":"Landkreis"},"federalState":{"key":"08","name":"Baden-Württemberg"}},{"name":"Schillerstr.","postalCode":"75378","locality":"Bad Liebenzell","municipality":{"key":"08235008","name":"Bad Liebenzell, Stadt","type":"Stadt"},"district":{"key":"08235","name":"Calw","type":"Landkreis"},"federalState":{"key":"08","name":"Baden-Württemberg"}},{"name":"Schlehenweg","postalCode":"75378","locality":"Bad Liebenzell","municipality":{"key":"08235008","name":"Bad Liebenzell, Stadt","type":"Stadt"},"district":{"key":"08235","name":"Calw","type":"Landkreis"},"federalState":{"key":"08","name":"Baden-Württemberg"}},{"name":"Schlossbergweg","postalCode":"75378","locality":"Bad Liebenzell","municipality":{"key":"08235008","name":"Bad Liebenzell, Stadt","type":"Stadt"},"district":{"key":"08235","name":"Calw","type":"Landkreis"},"federalState":{"key":"08","name":"Baden-Württemberg"}},{"name":"Schlosshaldenweg","postalCode":"75378","locality":"Bad Liebenzell","municipality":{"key":"08235008","name":"Bad Liebenzell, Stadt","type":"Stadt"},"district":{"key":"08235","name":"Calw","type":"Landkreis"},"federalState":{"key":"08","name":"Baden-Württemberg"}},{"name":"Schneckenweg","postalCode":"75378","locality":"Bad Liebenzell","municipality":{"key":"08235008","name":"Bad Liebenzell, Stadt","type":"Stadt"},"district":{"key":"08235","name":"Calw","type":"Landkreis"},"federalState":{"key":"08","name":"Baden-Württemberg"}},{"name":"Schömberger Str.","postalCode":"75378","locality":"Bad Liebenzell","municipality":{"key":"08235008","name":"Bad Liebenzell, Stadt","type":"Stadt"},"district":{"key":"08235","name":"Calw","type":"Landkreis"},"federalState":{"key":"08","name":"Baden-Württemberg"}},{"name":"Schräger Weg","postalCode":"75378","locality":"Bad Liebenzell","municipality":{"key":"08235008","name":"Bad Liebenzell, Stadt","type":"Stadt"},"district":{"key":"08235","name":"Calw","type":"Landkreis"},"federalState":{"key":"08","name":"Baden-Württemberg"}},{"name":"Schwannweg","postalCode":"75378","locality":"Bad Liebenzell","municipality":{"key":"08235008","name":"Bad Liebenzell, Stadt","type":"Stadt"},"district":{"key":"08235","name":"Calw","type":"Landkreis"},"federalState":{"key":"08","name":"Baden-Württemberg"}},{"name":"Schwarzwaldstr.","postalCode":"75378","locality":"Bad Liebenzell","municipality":{"key":"08235008","name":"Bad Liebenzell, Stadt","type":"Stadt"},"district":{"key":"08235","name":"Calw","type":"Landkreis"},"federalState":{"key":"08","name":"Baden-Württemberg"}},{"name":"Seestr.","postalCode":"75378","locality":"Bad Liebenzell","municipality":{"key":"08235008","name":"Bad Liebenzell, Stadt","type":"Stadt"},"district":{"key":"08235","name":"Calw","type":"Landkreis"},"federalState":{"key":"08","name":"Baden-Württemberg"}},{"name":"Silcherweg","postalCode":"75378","locality":"Bad Liebenzell","municipality":{"key":"08235008","name":"Bad Liebenzell, Stadt","type":"Stadt"},"district":{"key":"08235","name":"Calw","type":"Landkreis"},"federalState":{"key":"08","name":"Baden-Württemberg"}},{"name":"Sommerhalde","postalCode":"75378","locality":"Bad Liebenzell","municipality":{"key":"08235008","name":"Bad Liebenzell, Stadt","type":"Stadt"},"district":{"key":"08235","name":"Calw","type":"Landkreis"},"federalState":{"key":"08","name":"Baden-Württemberg"}},{"name":"Sommerhaldeweg","postalCode":"75378","locality":"Bad Liebenzell","municipality":{"key":"08235008","name":"Bad Liebenzell, Stadt","type":"Stadt"},"district":{"key":"08235","name":"Calw","type":"Landkreis"},"federalState":{"key":"08","name":"Baden-Württemberg"}},{"name":"Sonnenrain","postalCode":"75378","locality":"Bad Liebenzell","municipality":{"key":"08235008","name":"Bad Liebenzell, Stadt","type":"Stadt"},"district":{"key":"08235","name":"Calw","type":"Landkreis"},"federalState":{"key":"08","name":"Baden-Württemberg"}},{"name":"Sonnenweg","postalCode":"75378","locality":"Bad Liebenzell","municipality":{"key":"08235008","name":"Bad Liebenzell, Stadt","type":"Stadt"},"district":{"key":"08235","name":"Calw","type":"Landkreis"},"federalState":{"key":"08","name":"Baden-Württemberg"}},{"name":"Sophi Park","postalCode":"75378","locality":"Bad Liebenzell","municipality":{"key":"08235008","name":"Bad Liebenzell, Stadt","type":"Stadt"},"district":{"key":"08235","name":"Calw","type":"Landkreis"},"federalState":{"key":"08","name":"Baden-Württemberg"}},{"name":"Sorgsweg","postalCode":"75378","locality":"Bad Liebenzell","municipality":{"key":"08235008","name":"Bad Liebenzell, Stadt","type":"Stadt"},"district":{"key":"08235","name":"Calw","type":"Landkreis"},"federalState":{"key":"08","name":"Baden-Württemberg"}},{"name":"Sperlingweg","postalCode":"75378","locality":"Bad Liebenzell","municipality":{"key":"08235008","name":"Bad Liebenzell, Stadt","type":"Stadt"},"district":{"key":"08235","name":"Calw","type":"Landkreis"},"federalState":{"key":"08","name":"Baden-Württemberg"}},{"name":"Sperrengrundweg","postalCode":"75378","locality":"Bad Liebenzell","municipality":{"key":"08235008","name":"Bad Liebenzell, Stadt","type":"Stadt"},"district":{"key":"08235","name":"Calw","type":"Landkreis"},"federalState":{"key":"08","name":"Baden-Württemberg"}},{"name":"Stahlsweg","postalCode":"75378","locality":"Bad Liebenzell","municipality":{"key":"08235008","name":"Bad Liebenzell, Stadt","type":"Stadt"},"district":{"key":"08235","name":"Calw","type":"Landkreis"},"federalState":{"key":"08","name":"Baden-Württemberg"}},{"name":"Steinachweg","postalCode":"75378","locality":"Bad Liebenzell","municipality":{"key":"08235008","name":"Bad Liebenzell, Stadt","type":"Stadt"},"district":{"key":"08235","name":"Calw","type":"Landkreis"},"federalState":{"key":"08","name":"Baden-Württemberg"}},{"name":"Steinbergweg","postalCode":"75378","locality":"Bad Liebenzell","municipality":{"key":"08235008","name":"Bad Liebenzell, Stadt","type":"Stadt"},"district":{"key":"08235","name":"Calw","type":"Landkreis"},"federalState":{"key":"08","name":"Baden-Württemberg"}},{"name":"Stuttgarter Str.","postalCode":"75378","locality":"Bad Liebenzell","municipality":{"key":"08235008","name":"Bad Liebenzell, Stadt","type":"Stadt"},"district":{"key":"08235","name":"Calw","type":"Landkreis"},"federalState":{"key":"08","name":"Baden-Württemberg"}},{"name":"Talblick","postalCode":"75378","locality":"Bad Liebenzell","municipality":{"key":"08235008","name":"Bad Liebenzell, Stadt","type":"Stadt"},"district":{"key":"08235","name":"Calw","type":"Landkreis"},"federalState":{"key":"08","name":"Baden-Württemberg"}},{"name":"Talstr.","postalCode":"75378","locality":"Bad Liebenzell","municipality":{"key":"08235008","name":"Bad Liebenzell, Stadt","type":"Stadt"},"district":{"key":"08235","name":"Calw","type":"Landkreis"},"federalState":{"key":"08","name":"Baden-Württemberg"}},{"name":"Tannenweg","postalCode":"75378","locality":"Bad Liebenzell","municipality":{"key":"08235008","name":"Bad Liebenzell, Stadt","type":"Stadt"},"district":{"key":"08235","name":"Calw","type":"Landkreis"},"federalState":{"key":"08","name":"Baden-Württemberg"}},{"name":"Tannwaldstr.","postalCode":"75378","locality":"Bad Liebenzell","municipality":{"key":"08235008","name":"Bad Liebenzell, Stadt","type":"Stadt"},"district":{"key":"08235","name":"Calw","type":"Landkreis"},"federalState":{"key":"08","name":"Baden-Württemberg"}},{"name":"Theodor-Heuss-Str.","postalCode":"75378","locality":"Bad Liebenzell","municipality":{"key":"08235008","name":"Bad Liebenzell, Stadt","type":"Stadt"},"district":{"key":"08235","name":"Calw","type":"Landkreis"},"federalState":{"key":"08","name":"Baden-Württemberg"}},{"name":"Uhlandstr.","postalCode":"75378","locality":"Bad Liebenzell","municipality":{"key":"08235008","name":"Bad Liebenzell, Stadt","type":"Stadt"},"district":{"key":"08235","name":"Calw","type":"Landkreis"},"federalState":{"key":"08","name":"Baden-Württemberg"}},{"name":"Ulmenweg","postalCode":"75378","locality":"Bad Liebenzell","municipality":{"key":"08235008","name":"Bad Liebenzell, Stadt","type":"Stadt"},"district":{"key":"08235","name":"Calw","type":"Landkreis"},"federalState":{"key":"08","name":"Baden-Württemberg"}},{"name":"Unterer Schwannweg","postalCode":"75378","locality":"Bad Liebenzell","municipality":{"key":"08235008","name":"Bad Liebenzell, Stadt","type":"Stadt"},"district":{"key":"08235","name":"Calw","type":"Landkreis"},"federalState":{"key":"08","name":"Baden-Württemberg"}},{"name":"Unterhaugstetter Str.","postalCode":"75378","locality":"Bad Liebenzell","municipality":{"key":"08235008","name":"Bad Liebenzell, Stadt","type":"Stadt"},"district":{"key":"08235","name":"Calw","type":"Landkreis"},"federalState":{"key":"08","name":"Baden-Württemberg"}},{"name":"Viertelesweg","postalCode":"75378","locality":"Bad Liebenzell","municipality":{"key":"08235008","name":"Bad Liebenzell, Stadt","type":"Stadt"},"district":{"key":"08235","name":"Calw","type":"Landkreis"},"federalState":{"key":"08","name":"Baden-Württemberg"}},{"name":"Waldhufenweg","postalCode":"75378","locality":"Bad Liebenzell","municipality":{"key":"08235008","name":"Bad Liebenzell, Stadt","type":"Stadt"},"district":{"key":"08235","name":"Calw","type":"Landkreis"},"federalState":{"key":"08","name":"Baden-Württemberg"}},{"name":"Waldstr.","postalCode":"75378","locality":"Bad Liebenzell","municipality":{"key":"08235008","name":"Bad Liebenzell, Stadt","type":"Stadt"},"district":{"key":"08235","name":"Calw","type":"Landkreis"},"federalState":{"key":"08","name":"Baden-Württemberg"}},{"name":"Wannenweg","postalCode":"75378","locality":"Bad Liebenzell","municipality":{"key":"08235008","name":"Bad Liebenzell, Stadt","type":"Stadt"},"district":{"key":"08235","name":"Calw","type":"Landkreis"},"federalState":{"key":"08","name":"Baden-Württemberg"}},{"name":"Wasenstr.","postalCode":"75378","locality":"Bad Liebenzell","municipality":{"key":"08235008","name":"Bad Liebenzell, Stadt","type":"Stadt"},"district":{"key":"08235","name":"Calw","type":"Landkreis"},"federalState":{"key":"08","name":"Baden-Württemberg"}},{"name":"Wasserweg","postalCode":"75378","locality":"Bad Liebenzell","municipality":{"key":"08235008","name":"Bad Liebenzell, Stadt","type":"Stadt"},"district":{"key":"08235","name":"Calw","type":"Landkreis"},"federalState":{"key":"08","name":"Baden-Württemberg"}},{"name":"Weidenweg","postalCode":"75378","locality":"Bad Liebenzell","municipality":{"key":"08235008","name":"Bad Liebenzell, Stadt","type":"Stadt"},"district":{"key":"08235","name":"Calw","type":"Landkreis"},"federalState":{"key":"08","name":"Baden-Württemberg"}},{"name":"Weiherstr.","postalCode":"75378","locality":"Bad Liebenzell","municipality":{"key":"08235008","name":"Bad Liebenzell, Stadt","type":"Stadt"},"district":{"key":"08235","name":"Calw","type":"Landkreis"},"federalState":{"key":"08","name":"Baden-Württemberg"}},{"name":"Weil der Städter Str.","postalCode":"75378","locality":"Bad Liebenzell","municipality":{"key":"08235008","name":"Bad Liebenzell, Stadt","type":"Stadt"},"district":{"key":"08235","name":"Calw","type":"Landkreis"},"federalState":{"key":"08","name":"Baden-Württemberg"}},{"name":"Wieselweg","postalCode":"75378","locality":"Bad Liebenzell","municipality":{"key":"08235008","name":"Bad Liebenzell, Stadt","type":"Stadt"},"district":{"key":"08235","name":"Calw","type":"Landkreis"},"federalState":{"key":"08","name":"Baden-Württemberg"}},{"name":"Wilhelmstr.","postalCode":"75378","locality":"Bad Liebenzell","municipality":{"key":"08235008","name":"Bad Liebenzell, Stadt","type":"Stadt"},"district":{"key":"08235","name":"Calw","type":"Landkreis"},"federalState":{"key":"08","name":"Baden-Württemberg"}},{"name":"Winterhaldeweg","postalCode":"75378","locality":"Bad Liebenzell","municipality":{"key":"08235008","name":"Bad Liebenzell, Stadt","type":"Stadt"},"district":{"key":"08235","name":"Calw","type":"Landkreis"},"federalState":{"key":"08","name":"Baden-Württemberg"}},{"name":"Wolfslochweg","postalCode":"75378","locality":"Bad Liebenzell","municipality":{"key":"08235008","name":"Bad Liebenzell, Stadt","type":"Stadt"},"district":{"key":"08235","name":"Calw","type":"Landkreis"},"federalState":{"key":"08","name":"Baden-Württemberg"}},{"name":"Zeppelinstr.","postalCode":"75378","locality":"Bad Liebenzell","municipality":{"key":"08235008","name":"Bad Liebenzell, Stadt","type":"Stadt"},"district":{"key":"08235","name":"Calw","type":"Landkreis"},"federalState":{"key":"08","name":"Baden-Württemberg"}},{"name":"Zu den Eichen","postalCode":"75378","locality":"Bad Liebenzell","municipality":{"key":"08235008","name":"Bad Liebenzell, Stadt","type":"Stadt"},"district":{"key":"08235","name":"Calw","type":"Landkreis"},"federalState":{"key":"08","name":"Baden-Württemberg"}},{"name":"Zwerweg","postalCode":"75378","locality":"Bad Liebenzell","municipality":{"key":"08235008","name":"Bad Liebenzell, Stadt","type":"Stadt"},"district":{"key":"08235","name":"Calw","type":"Landkreis"},"federalState":{"key":"08","name":"Baden-Württemberg"}},{"name":"Öländerle","postalCode":"75365","locality":"Calw","municipality":{"key":"08235085","name":"Calw, Stadt","type":"Große_Kreisstadt"},"district":{"key":"08235","name":"Calw","type":"Landkreis"},"federalState":{"key":"08","name":"Baden-Württemberg"}},]