[{"key":"10174981","name":"Aeuli","postalCode":"7304","locality":"Maienfeld","commune":{"key":"3953","name":"Maienfeld","shortName":"Maienfeld"},"district":{"key":"1845","name":"Region Landquart"},"canton":{"key":"18","code":"GR","name":"Graubünden / Grigioni / Grischun"},"status":"Real"},{"key":"10255140","name":"Alpnova","postalCode":"7304","locality":"Maienfeld","commune":{"key":"3953","name":"Maienfeld","shortName":"Maienfeld"},"district":{"key":"1845","name":"Region Landquart"},"canton":{"key":"18","code":"GR","name":"Graubünden / Grigioni / Grischun"},"status":"Real"},{"key":"10255142","name":"Alpweg","postalCode":"7304","locality":"Maienfeld","commune":{"key":"3953","name":"Maienfeld","shortName":"Maienfeld"},"district":{"key":"1845","name":"Region Landquart"},"canton":{"key":"18","code":"GR","name":"Graubünden / Grigioni / Grischun"},"status":"Real"},{"key":"10255089","name":"Alpweg","postalCode":"7304","locality":"Maienfeld","commune":{"key":"3953","name":"Maienfeld","shortName":"Maienfeld"},"district":{"key":"1845","name":"Region Landquart"},"canton":{"key":"18","code":"GR","name":"Graubünden / Grigioni / Grischun"},"status":"Real"},{"key":"10039784","name":"Amsler","postalCode":"7304","locality":"Maienfeld","commune":{"key":"3953","name":"Maienfeld","shortName":"Maienfeld"},"district":{"key":"1845","name":"Region Landquart"},"canton":{"key":"18","code":"GR","name":"Graubünden / Grigioni / Grischun"},"status":"Real"},{"key":"10255108","name":"Answisa","postalCode":"7304","locality":"Maienfeld","commune":{"key":"3953","name":"Maienfeld","shortName":"Maienfeld"},"district":{"key":"1845","name":"Region Landquart"},"canton":{"key":"18","code":"GR","name":"Graubünden / Grigioni / Grischun"},"status":"Real"},{"key":"10255144","name":"Bad Ragazerstrasse","postalCode":"7304","locality":"Maienfeld","commune":{"key":"3953","name":"Maienfeld","shortName":"Maienfeld"},"district":{"key":"1845","name":"Region Landquart"},"canton":{"key":"18","code":"GR","name":"Graubünden / Grigioni / Grischun"},"status":"Real"},{"key":"10077328","name":"Bahnhofstrasse","postalCode":"7304","locality":"Maienfeld","commune":{"key":"3953","name":"Maienfeld","shortName":"Maienfeld"},"district":{"key":"1845","name":"Region Landquart"},"canton":{"key":"18","code":"GR","name":"Graubünden / Grigioni / Grischun"},"status":"Real"},{"key":"10039785","name":"Balatrain","postalCode":"7304","locality":"Maienfeld","commune":{"key":"3953","name":"Maienfeld","shortName":"Maienfeld"},"district":{"key":"1845","name":"Region Landquart"},"canton":{"key":"18","code":"GR","name":"Graubünden / Grigioni / Grischun"},"status":"Real"},{"key":"10257303","name":"Bartümeljochweg","postalCode":"7304","locality":"Maienfeld","commune":{"key":"3953","name":"Maienfeld","shortName":"Maienfeld"},"district":{"key":"1845","name":"Region Landquart"},"canton":{"key":"18","code":"GR","name":"Graubünden / Grigioni / Grischun"},"status":"Real"},{"key":"10174982","name":"Bovelgasse","postalCode":"7304","locality":"Maienfeld","commune":{"key":"3953","name":"Maienfeld","shortName":"Maienfeld"},"district":{"key":"1845","name":"Region Landquart"},"canton":{"key":"18","code":"GR","name":"Graubünden / Grigioni / Grischun"},"status":"Real"},{"key":"10162268","name":"Bovelweg","postalCode":"7304","locality":"Maienfeld","commune":{"key":"3953","name":"Maienfeld","shortName":"Maienfeld"},"district":{"key":"1845","name":"Region Landquart"},"canton":{"key":"18","code":"GR","name":"Graubünden / Grigioni / Grischun"},"status":"Real"},{"key":"10117256","name":"Bremstallgasse","postalCode":"7304","locality":"Maienfeld","commune":{"key":"3953","name":"Maienfeld","shortName":"Maienfeld"},"district":{"key":"1845","name":"Region Landquart"},"canton":{"key":"18","code":"GR","name":"Graubünden / Grigioni / Grischun"},"status":"Real"},{"key":"10094361","name":"Bündte","postalCode":"7304","locality":"Maienfeld","commune":{"key":"3953","name":"Maienfeld","shortName":"Maienfeld"},"district":{"key":"1845","name":"Region Landquart"},"canton":{"key":"18","code":"GR","name":"Graubünden / Grigioni / Grischun"},"status":"Real"},{"key":"10039787","name":"Bündtegässli","postalCode":"7304","locality":"Maienfeld","commune":{"key":"3953","name":"Maienfeld","shortName":"Maienfeld"},"district":{"key":"1845","name":"Region Landquart"},"canton":{"key":"18","code":"GR","name":"Graubünden / Grigioni / Grischun"},"status":"Real"},{"key":"10215983","name":"Bündtliweg","postalCode":"7304","locality":"Maienfeld","commune":{"key":"3953","name":"Maienfeld","shortName":"Maienfeld"},"district":{"key":"1845","name":"Region Landquart"},"canton":{"key":"18","code":"GR","name":"Graubünden / Grigioni / Grischun"},"status":"Real"},{"key":"10188626","name":"Bungertweg","postalCode":"7304","locality":"Maienfeld","commune":{"key":"3953","name":"Maienfeld","shortName":"Maienfeld"},"district":{"key":"1845","name":"Region Landquart"},"canton":{"key":"18","code":"GR","name":"Graubünden / Grigioni / Grischun"},"status":"Real"},{"key":"10094362","name":"Dorfgasse","postalCode":"7304","locality":"Maienfeld","commune":{"key":"3953","name":"Maienfeld","shortName":"Maienfeld"},"district":{"key":"1845","name":"Region Landquart"},"canton":{"key":"18","code":"GR","name":"Graubünden / Grigioni / Grischun"},"status":"Real"},{"key":"10208140","name":"Dürrwald","postalCode":"7304","locality":"Maienfeld","commune":{"key":"3953","name":"Maienfeld","shortName":"Maienfeld"},"district":{"key":"1845","name":"Region Landquart"},"canton":{"key":"18","code":"GR","name":"Graubünden / Grigioni / Grischun"},"status":"Real"},{"key":"10145020","name":"Eckgasse","postalCode":"7304","locality":"Maienfeld","commune":{"key":"3953","name":"Maienfeld","shortName":"Maienfeld"},"district":{"key":"1845","name":"Region Landquart"},"canton":{"key":"18","code":"GR","name":"Graubünden / Grigioni / Grischun"},"status":"Real"},{"key":"10020606","name":"Eichahof","postalCode":"7304","locality":"Maienfeld","commune":{"key":"3953","name":"Maienfeld","shortName":"Maienfeld"},"district":{"key":"1845","name":"Region Landquart"},"canton":{"key":"18","code":"GR","name":"Graubünden / Grigioni / Grischun"},"status":"Real"},{"key":"10210942","name":"Enderlinhütte SAC","postalCode":"7304","locality":"Maienfeld","commune":{"key":"3953","name":"Maienfeld","shortName":"Maienfeld"},"district":{"key":"1845","name":"Region Landquart"},"canton":{"key":"18","code":"GR","name":"Graubünden / Grigioni / Grischun"},"status":"Real"},{"key":"10114253","name":"Falknisstrasse","postalCode":"7304","locality":"Maienfeld","commune":{"key":"3953","name":"Maienfeld","shortName":"Maienfeld"},"district":{"key":"1845","name":"Region Landquart"},"canton":{"key":"18","code":"GR","name":"Graubünden / Grigioni / Grischun"},"status":"Real"},{"key":"10255147","name":"Feldweg","postalCode":"7304","locality":"Maienfeld","commune":{"key":"3953","name":"Maienfeld","shortName":"Maienfeld"},"district":{"key":"1845","name":"Region Landquart"},"canton":{"key":"18","code":"GR","name":"Graubünden / Grigioni / Grischun"},"status":"Real"},{"key":"10039789","name":"Fläscherstrasse","postalCode":"7304","locality":"Maienfeld","commune":{"key":"3953","name":"Maienfeld","shortName":"Maienfeld"},"district":{"key":"1845","name":"Region Landquart"},"canton":{"key":"18","code":"GR","name":"Graubünden / Grigioni / Grischun"},"status":"Real"},{"key":"10255113","name":"Fläscher Tal","postalCode":"7304","locality":"Maienfeld","commune":{"key":"3953","name":"Maienfeld","shortName":"Maienfeld"},"district":{"key":"1845","name":"Region Landquart"},"canton":{"key":"18","code":"GR","name":"Graubünden / Grigioni / Grischun"},"status":"Real"},{"key":"10094363","name":"Försterschule","postalCode":"7304","locality":"Maienfeld","commune":{"key":"3953","name":"Maienfeld","shortName":"Maienfeld"},"district":{"key":"1845","name":"Region Landquart"},"canton":{"key":"18","code":"GR","name":"Graubünden / Grigioni / Grischun"},"status":"Real"},{"key":"10255149","name":"Fuchsenwinkel","postalCode":"7304","locality":"Maienfeld","commune":{"key":"3953","name":"Maienfeld","shortName":"Maienfeld"},"district":{"key":"1845","name":"Region Landquart"},"canton":{"key":"18","code":"GR","name":"Graubünden / Grigioni / Grischun"},"status":"Real"},{"key":"10255151","name":"Gleggtobelweg","postalCode":"7304","locality":"Maienfeld","commune":{"key":"3953","name":"Maienfeld","shortName":"Maienfeld"},"district":{"key":"1845","name":"Region Landquart"},"canton":{"key":"18","code":"GR","name":"Graubünden / Grigioni / Grischun"},"status":"Real"},{"key":"10039790","name":"Grabenstrasse","postalCode":"7304","locality":"Maienfeld","commune":{"key":"3953","name":"Maienfeld","shortName":"Maienfeld"},"district":{"key":"1845","name":"Region Landquart"},"canton":{"key":"18","code":"GR","name":"Graubünden / Grigioni / Grischun"},"status":"Real"},{"key":"10131116","name":"Guntnerüel","postalCode":"7304","locality":"Maienfeld","commune":{"key":"3953","name":"Maienfeld","shortName":"Maienfeld"},"district":{"key":"1845","name":"Region Landquart"},"canton":{"key":"18","code":"GR","name":"Graubünden / Grigioni / Grischun"},"status":"Real"},{"key":"10255087","name":"Guschaköpfweg","postalCode":"7304","locality":"Maienfeld","commune":{"key":"3953","name":"Maienfeld","shortName":"Maienfeld"},"district":{"key":"1845","name":"Region Landquart"},"canton":{"key":"18","code":"GR","name":"Graubünden / Grigioni / Grischun"},"status":"Real"},{"key":"10257307","name":"Guschasattelweg","postalCode":"7304","locality":"Maienfeld","commune":{"key":"3953","name":"Maienfeld","shortName":"Maienfeld"},"district":{"key":"1845","name":"Region Landquart"},"canton":{"key":"18","code":"GR","name":"Graubünden / Grigioni / Grischun"},"status":"Real"},{"key":"10077319","name":"Guschaweg","postalCode":"7304","locality":"Maienfeld","commune":{"key":"3953","name":"Maienfeld","shortName":"Maienfeld"},"district":{"key":"1845","name":"Region Landquart"},"canton":{"key":"18","code":"GR","name":"Graubünden / Grigioni / Grischun"},"status":"Real"},{"key":"10255126","name":"Guschaweg","postalCode":"7304","locality":"Maienfeld","commune":{"key":"3953","name":"Maienfeld","shortName":"Maienfeld"},"district":{"key":"1845","name":"Region Landquart"},"canton":{"key":"18","code":"GR","name":"Graubünden / Grigioni / Grischun"},"status":"Real"},{"key":"10208139","name":"Hauptweg","postalCode":"7304","locality":"Maienfeld","commune":{"key":"3953","name":"Maienfeld","shortName":"Maienfeld"},"district":{"key":"1845","name":"Region Landquart"},"canton":{"key":"18","code":"GR","name":"Graubünden / Grigioni / Grischun"},"status":"Real"},{"key":"10094364","name":"Heidelberggässli","postalCode":"7304","locality":"Maienfeld","commune":{"key":"3953","name":"Maienfeld","shortName":"Maienfeld"},"district":{"key":"1845","name":"Region Landquart"},"canton":{"key":"18","code":"GR","name":"Graubünden / Grigioni / Grischun"},"status":"Real"},{"key":"10039791","name":"Heidiland","postalCode":"7304","locality":"Maienfeld","commune":{"key":"3953","name":"Maienfeld","shortName":"Maienfeld"},"district":{"key":"1845","name":"Region Landquart"},"canton":{"key":"18","code":"GR","name":"Graubünden / Grigioni / Grischun"},"status":"Real"},{"key":"10255093","name":"Hinter Ochsenberg","postalCode":"7304","locality":"Maienfeld","commune":{"key":"3953","name":"Maienfeld","shortName":"Maienfeld"},"district":{"key":"1845","name":"Region Landquart"},"canton":{"key":"18","code":"GR","name":"Graubünden / Grigioni / Grischun"},"status":"Real"},{"key":"10039792","name":"Hinterwinkel","postalCode":"7304","locality":"Maienfeld","commune":{"key":"3953","name":"Maienfeld","shortName":"Maienfeld"},"district":{"key":"1845","name":"Region Landquart"},"canton":{"key":"18","code":"GR","name":"Graubünden / Grigioni / Grischun"},"status":"Real"},{"key":"10105575","name":"Hochwangstrasse","postalCode":"7304","locality":"Maienfeld","commune":{"key":"3953","name":"Maienfeld","shortName":"Maienfeld"},"district":{"key":"1845","name":"Region Landquart"},"canton":{"key":"18","code":"GR","name":"Graubünden / Grigioni / Grischun"},"status":"Real"},{"key":"10039793","name":"Hof","postalCode":"7304","locality":"Maienfeld","commune":{"key":"3953","name":"Maienfeld","shortName":"Maienfeld"},"district":{"key":"1845","name":"Region Landquart"},"canton":{"key":"18","code":"GR","name":"Graubünden / Grigioni / Grischun"},"status":"Real"},{"key":"10039794","name":"Höfligasse","postalCode":"7304","locality":"Maienfeld","commune":{"key":"3953","name":"Maienfeld","shortName":"Maienfeld"},"district":{"key":"1845","name":"Region Landquart"},"canton":{"key":"18","code":"GR","name":"Graubünden / Grigioni / Grischun"},"status":"Real"},{"key":"10255133","name":"Hüttliwingert","postalCode":"7304","locality":"Maienfeld","commune":{"key":"3953","name":"Maienfeld","shortName":"Maienfeld"},"district":{"key":"1845","name":"Region Landquart"},"canton":{"key":"18","code":"GR","name":"Graubünden / Grigioni / Grischun"},"status":"Real"},{"key":"10255098","name":"Ijes","postalCode":"7304","locality":"Maienfeld","commune":{"key":"3953","name":"Maienfeld","shortName":"Maienfeld"},"district":{"key":"1845","name":"Region Landquart"},"canton":{"key":"18","code":"GR","name":"Graubünden / Grigioni / Grischun"},"status":"Real"},{"key":"10255137","name":"Ijes","postalCode":"7304","locality":"Maienfeld","commune":{"key":"3953","name":"Maienfeld","shortName":"Maienfeld"},"district":{"key":"1845","name":"Region Landquart"},"canton":{"key":"18","code":"GR","name":"Graubünden / Grigioni / Grischun"},"status":"Real"},{"key":"10094365","name":"Im Habersack","postalCode":"7304","locality":"Maienfeld","commune":{"key":"3953","name":"Maienfeld","shortName":"Maienfeld"},"district":{"key":"1845","name":"Region Landquart"},"canton":{"key":"18","code":"GR","name":"Graubünden / Grigioni / Grischun"},"status":"Real"},{"key":"10174984","name":"Im Herrenfeld","postalCode":"7304","locality":"Maienfeld","commune":{"key":"3953","name":"Maienfeld","shortName":"Maienfeld"},"district":{"key":"1845","name":"Region Landquart"},"canton":{"key":"18","code":"GR","name":"Graubünden / Grigioni / Grischun"},"status":"Real"},{"key":"10256494","name":"Im Holz","postalCode":"7304","locality":"Maienfeld","commune":{"key":"3953","name":"Maienfeld","shortName":"Maienfeld"},"district":{"key":"1845","name":"Region Landquart"},"canton":{"key":"18","code":"GR","name":"Graubünden / Grigioni / Grischun"},"status":"Real"},{"key":"10205189","name":"Im Kessler","postalCode":"7304","locality":"Maienfeld","commune":{"key":"3953","name":"Maienfeld","shortName":"Maienfeld"},"district":{"key":"1845","name":"Region Landquart"},"canton":{"key":"18","code":"GR","name":"Graubünden / Grigioni / Grischun"},"status":"Real"},{"key":"10109546","name":"Im Loretscher","postalCode":"7304","locality":"Maienfeld","commune":{"key":"3953","name":"Maienfeld","shortName":"Maienfeld"},"district":{"key":"1845","name":"Region Landquart"},"canton":{"key":"18","code":"GR","name":"Graubünden / Grigioni / Grischun"},"status":"Real"},{"key":"10094366","name":"Im oberen Stieg","postalCode":"7304","locality":"Maienfeld","commune":{"key":"3953","name":"Maienfeld","shortName":"Maienfeld"},"district":{"key":"1845","name":"Region Landquart"},"canton":{"key":"18","code":"GR","name":"Graubünden / Grigioni / Grischun"},"status":"Real"},{"key":"10077329","name":"Im unteren Stieg","postalCode":"7304","locality":"Maienfeld","commune":{"key":"3953","name":"Maienfeld","shortName":"Maienfeld"},"district":{"key":"1845","name":"Region Landquart"},"canton":{"key":"18","code":"GR","name":"Graubünden / Grigioni / Grischun"},"status":"Real"},{"key":"10039795","name":"Im Zogg","postalCode":"7304","locality":"Maienfeld","commune":{"key":"3953","name":"Maienfeld","shortName":"Maienfeld"},"district":{"key":"1845","name":"Region Landquart"},"canton":{"key":"18","code":"GR","name":"Graubünden / Grigioni / Grischun"},"status":"Real"},{"key":"10190863","name":"In der Rüfe","postalCode":"7304","locality":"Maienfeld","commune":{"key":"3953","name":"Maienfeld","shortName":"Maienfeld"},"district":{"key":"1845","name":"Region Landquart"},"canton":{"key":"18","code":"GR","name":"Graubünden / Grigioni / Grischun"},"status":"Real"},{"key":"10039796","name":"Industriestrasse","postalCode":"7304","locality":"Maienfeld","commune":{"key":"3953","name":"Maienfeld","shortName":"Maienfeld"},"district":{"key":"1845","name":"Region Landquart"},"canton":{"key":"18","code":"GR","name":"Graubünden / Grigioni / Grischun"},"status":"Real"},{"key":"10124527","name":"Jeninserstrasse","postalCode":"7304","locality":"Maienfeld","commune":{"key":"3953","name":"Maienfeld","shortName":"Maienfeld"},"district":{"key":"1845","name":"Region Landquart"},"canton":{"key":"18","code":"GR","name":"Graubünden / Grigioni / Grischun"},"status":"Real"},{"key":"10039797","name":"Kanalstrasse","postalCode":"7304","locality":"Maienfeld","commune":{"key":"3953","name":"Maienfeld","shortName":"Maienfeld"},"district":{"key":"1845","name":"Region Landquart"},"canton":{"key":"18","code":"GR","name":"Graubünden / Grigioni / Grischun"},"status":"Real"},{"key":"10077330","name":"Kaufhausplatz","postalCode":"7304","locality":"Maienfeld","commune":{"key":"3953","name":"Maienfeld","shortName":"Maienfeld"},"district":{"key":"1845","name":"Region Landquart"},"canton":{"key":"18","code":"GR","name":"Graubünden / Grigioni / Grischun"},"status":"Real"},{"key":"10037979","name":"Kruseckgasse","postalCode":"7304","locality":"Maienfeld","commune":{"key":"3953","name":"Maienfeld","shortName":"Maienfeld"},"district":{"key":"1845","name":"Region Landquart"},"canton":{"key":"18","code":"GR","name":"Graubünden / Grigioni / Grischun"},"status":"Real"},{"key":"10037980","name":"Krüsliweg","postalCode":"7304","locality":"Maienfeld","commune":{"key":"3953","name":"Maienfeld","shortName":"Maienfeld"},"district":{"key":"1845","name":"Region Landquart"},"canton":{"key":"18","code":"GR","name":"Graubünden / Grigioni / Grischun"},"status":"Real"},{"key":"10114254","name":"Landstrasse","postalCode":"7304","locality":"Maienfeld","commune":{"key":"3953","name":"Maienfeld","shortName":"Maienfeld"},"district":{"key":"1845","name":"Region Landquart"},"canton":{"key":"18","code":"GR","name":"Graubünden / Grigioni / Grischun"},"status":"Real"},{"key":"10094367","name":"Langmüriweg","postalCode":"7304","locality":"Maienfeld","commune":{"key":"3953","name":"Maienfeld","shortName":"Maienfeld"},"district":{"key":"1845","name":"Region Landquart"},"canton":{"key":"18","code":"GR","name":"Graubünden / Grigioni / Grischun"},"status":"Real"},{"key":"10105576","name":"Lurgasse","postalCode":"7304","locality":"Maienfeld","commune":{"key":"3953","name":"Maienfeld","shortName":"Maienfeld"},"district":{"key":"1845","name":"Region Landquart"},"canton":{"key":"18","code":"GR","name":"Graubünden / Grigioni / Grischun"},"status":"Real"},{"key":"10174985","name":"Marktgasse","postalCode":"7304","locality":"Maienfeld","commune":{"key":"3953","name":"Maienfeld","shortName":"Maienfeld"},"district":{"key":"1845","name":"Region Landquart"},"canton":{"key":"18","code":"GR","name":"Graubünden / Grigioni / Grischun"},"status":"Real"},{"key":"10255141","name":"Martin Lamperts Bündtli","postalCode":"7304","locality":"Maienfeld","commune":{"key":"3953","name":"Maienfeld","shortName":"Maienfeld"},"district":{"key":"1845","name":"Region Landquart"},"canton":{"key":"18","code":"GR","name":"Graubünden / Grigioni / Grischun"},"status":"Real"},{"key":"10255143","name":"Martinsbrunnen","postalCode":"7304","locality":"Maienfeld","commune":{"key":"3953","name":"Maienfeld","shortName":"Maienfeld"},"district":{"key":"1845","name":"Region Landquart"},"canton":{"key":"18","code":"GR","name":"Graubünden / Grigioni / Grischun"},"status":"Real"},{"key":"10255127","name":"Matan","postalCode":"7304","locality":"Maienfeld","commune":{"key":"3953","name":"Maienfeld","shortName":"Maienfeld"},"district":{"key":"1845","name":"Region Landquart"},"canton":{"key":"18","code":"GR","name":"Graubünden / Grigioni / Grischun"},"status":"Real"},{"key":"10255132","name":"Mittelsäss","postalCode":"7304","locality":"Maienfeld","commune":{"key":"3953","name":"Maienfeld","shortName":"Maienfeld"},"district":{"key":"1845","name":"Region Landquart"},"canton":{"key":"18","code":"GR","name":"Graubünden / Grigioni / Grischun"},"status":"Real"},{"key":"10094368","name":"Mühlbachweg","postalCode":"7304","locality":"Maienfeld","commune":{"key":"3953","name":"Maienfeld","shortName":"Maienfeld"},"district":{"key":"1845","name":"Region Landquart"},"canton":{"key":"18","code":"GR","name":"Graubünden / Grigioni / Grischun"},"status":"Real"},{"key":"10077331","name":"Mühlebündtestrasse","postalCode":"7304","locality":"Maienfeld","commune":{"key":"3953","name":"Maienfeld","shortName":"Maienfeld"},"district":{"key":"1845","name":"Region Landquart"},"canton":{"key":"18","code":"GR","name":"Graubünden / Grigioni / Grischun"},"status":"Real"},{"key":"10037982","name":"Mühleweg","postalCode":"7304","locality":"Maienfeld","commune":{"key":"3953","name":"Maienfeld","shortName":"Maienfeld"},"district":{"key":"1845","name":"Region Landquart"},"canton":{"key":"18","code":"GR","name":"Graubünden / Grigioni / Grischun"},"status":"Real"},{"key":"10037981","name":"Muldenweg","postalCode":"7304","locality":"Maienfeld","commune":{"key":"3953","name":"Maienfeld","shortName":"Maienfeld"},"district":{"key":"1845","name":"Region Landquart"},"canton":{"key":"18","code":"GR","name":"Graubünden / Grigioni / Grischun"},"status":"Real"},{"key":"10196626","name":"Neutratt","postalCode":"7304","locality":"Maienfeld","commune":{"key":"3953","name":"Maienfeld","shortName":"Maienfeld"},"district":{"key":"1845","name":"Region Landquart"},"canton":{"key":"18","code":"GR","name":"Graubünden / Grigioni / Grischun"},"status":"Real"},{"key":"10037983","name":"Oberdörfligasse","postalCode":"7304","locality":"Maienfeld","commune":{"key":"3953","name":"Maienfeld","shortName":"Maienfeld"},"district":{"key":"1845","name":"Region Landquart"},"canton":{"key":"18","code":"GR","name":"Graubünden / Grigioni / Grischun"},"status":"Real"},{"key":"10094369","name":"Obere Industrie","postalCode":"7304","locality":"Maienfeld","commune":{"key":"3953","name":"Maienfeld","shortName":"Maienfeld"},"district":{"key":"1845","name":"Region Landquart"},"canton":{"key":"18","code":"GR","name":"Graubünden / Grigioni / Grischun"},"status":"Real"},{"key":"10037984","name":"Obere Pardellen","postalCode":"7304","locality":"Maienfeld","commune":{"key":"3953","name":"Maienfeld","shortName":"Maienfeld"},"district":{"key":"1845","name":"Region Landquart"},"canton":{"key":"18","code":"GR","name":"Graubünden / Grigioni / Grischun"},"status":"Real"},{"key":"10124604","name":"Oberer Neubruch","postalCode":"7304","locality":"Maienfeld","commune":{"key":"3953","name":"Maienfeld","shortName":"Maienfeld"},"district":{"key":"1845","name":"Region Landquart"},"canton":{"key":"18","code":"GR","name":"Graubünden / Grigioni / Grischun"},"status":"Real"},{"key":"10037985","name":"Oberer Schellenberg","postalCode":"7304","locality":"Maienfeld","commune":{"key":"3953","name":"Maienfeld","shortName":"Maienfeld"},"district":{"key":"1845","name":"Region Landquart"},"canton":{"key":"18","code":"GR","name":"Graubünden / Grigioni / Grischun"},"status":"Real"},{"key":"10255138","name":"Obertritt","postalCode":"7304","locality":"Maienfeld","commune":{"key":"3953","name":"Maienfeld","shortName":"Maienfeld"},"district":{"key":"1845","name":"Region Landquart"},"canton":{"key":"18","code":"GR","name":"Graubünden / Grigioni / Grischun"},"status":"Real"},{"key":"10255115","name":"Ochsenberg","postalCode":"7304","locality":"Maienfeld","commune":{"key":"3953","name":"Maienfeld","shortName":"Maienfeld"},"district":{"key":"1845","name":"Region Landquart"},"canton":{"key":"18","code":"GR","name":"Graubünden / Grigioni / Grischun"},"status":"Real"},{"key":"10241702","name":"Ochsenbergweg","postalCode":"7304","locality":"Maienfeld","commune":{"key":"3953","name":"Maienfeld","shortName":"Maienfeld"},"district":{"key":"1845","name":"Region Landquart"},"canton":{"key":"18","code":"GR","name":"Graubünden / Grigioni / Grischun"},"status":"Real"},{"key":"10094370","name":"Ortenwiese","postalCode":"7304","locality":"Maienfeld","commune":{"key":"3953","name":"Maienfeld","shortName":"Maienfeld"},"district":{"key":"1845","name":"Region Landquart"},"canton":{"key":"18","code":"GR","name":"Graubünden / Grigioni / Grischun"},"status":"Real"},{"key":"10174986","name":"Pardellgasse","postalCode":"7304","locality":"Maienfeld","commune":{"key":"3953","name":"Maienfeld","shortName":"Maienfeld"},"district":{"key":"1845","name":"Region Landquart"},"canton":{"key":"18","code":"GR","name":"Graubünden / Grigioni / Grischun"},"status":"Real"},{"key":"10186600","name":"Pfandgraben","postalCode":"7304","locality":"Maienfeld","commune":{"key":"3953","name":"Maienfeld","shortName":"Maienfeld"},"district":{"key":"1845","name":"Region Landquart"},"canton":{"key":"18","code":"GR","name":"Graubünden / Grigioni / Grischun"},"status":"Real"},{"key":"10037986","name":"Pizalunweg","postalCode":"7304","locality":"Maienfeld","commune":{"key":"3953","name":"Maienfeld","shortName":"Maienfeld"},"district":{"key":"1845","name":"Region Landquart"},"canton":{"key":"18","code":"GR","name":"Graubünden / Grigioni / Grischun"},"status":"Real"},{"key":"10037987","name":"Rebhof","postalCode":"7304","locality":"Maienfeld","commune":{"key":"3953","name":"Maienfeld","shortName":"Maienfeld"},"district":{"key":"1845","name":"Region Landquart"},"canton":{"key":"18","code":"GR","name":"Graubünden / Grigioni / Grischun"},"status":"Real"},{"key":"10255146","name":"Rheinau","postalCode":"7304","locality":"Maienfeld","commune":{"key":"3953","name":"Maienfeld","shortName":"Maienfeld"},"district":{"key":"1845","name":"Region Landquart"},"canton":{"key":"18","code":"GR","name":"Graubünden / Grigioni / Grischun"},"status":"Real"},{"key":"10188627","name":"Rofelsergasse","postalCode":"7304","locality":"Maienfeld","commune":{"key":"3953","name":"Maienfeld","shortName":"Maienfeld"},"district":{"key":"1845","name":"Region Landquart"},"canton":{"key":"18","code":"GR","name":"Graubünden / Grigioni / Grischun"},"status":"Real"},{"key":"10114255","name":"Römersteig","postalCode":"7304","locality":"Maienfeld","commune":{"key":"3953","name":"Maienfeld","shortName":"Maienfeld"},"district":{"key":"1845","name":"Region Landquart"},"canton":{"key":"18","code":"GR","name":"Graubünden / Grigioni / Grischun"},"status":"Real"},{"key":"10037988","name":"Rosenweg","postalCode":"7304","locality":"Maienfeld","commune":{"key":"3953","name":"Maienfeld","shortName":"Maienfeld"},"district":{"key":"1845","name":"Region Landquart"},"canton":{"key":"18","code":"GR","name":"Graubünden / Grigioni / Grischun"},"status":"Real"},{"key":"10190864","name":"Rossriet","postalCode":"7304","locality":"Maienfeld","commune":{"key":"3953","name":"Maienfeld","shortName":"Maienfeld"},"district":{"key":"1845","name":"Region Landquart"},"canton":{"key":"18","code":"GR","name":"Graubünden / Grigioni / Grischun"},"status":"Real"},{"key":"10255150","name":"Rossrietweg","postalCode":"7304","locality":"Maienfeld","commune":{"key":"3953","name":"Maienfeld","shortName":"Maienfeld"},"district":{"key":"1845","name":"Region Landquart"},"canton":{"key":"18","code":"GR","name":"Graubünden / Grigioni / Grischun"},"status":"Real"},{"key":"10037989","name":"Rossweg","postalCode":"7304","locality":"Maienfeld","commune":{"key":"3953","name":"Maienfeld","shortName":"Maienfeld"},"district":{"key":"1845","name":"Region Landquart"},"canton":{"key":"18","code":"GR","name":"Graubünden / Grigioni / Grischun"},"status":"Real"},{"key":"10255128","name":"Ruchbergweg","postalCode":"7304","locality":"Maienfeld","commune":{"key":"3953","name":"Maienfeld","shortName":"Maienfeld"},"district":{"key":"1845","name":"Region Landquart"},"canton":{"key":"18","code":"GR","name":"Graubünden / Grigioni / Grischun"},"status":"Real"},{"key":"10255130","name":"Säge","postalCode":"7304","locality":"Maienfeld","commune":{"key":"3953","name":"Maienfeld","shortName":"Maienfeld"},"district":{"key":"1845","name":"Region Landquart"},"canton":{"key":"18","code":"GR","name":"Graubünden / Grigioni / Grischun"},"status":"Real"},{"key":"10077333","name":"Schellenbergstrasse","postalCode":"7304","locality":"Maienfeld","commune":{"key":"3953","name":"Maienfeld","shortName":"Maienfeld"},"district":{"key":"1845","name":"Region Landquart"},"canton":{"key":"18","code":"GR","name":"Graubünden / Grigioni / Grischun"},"status":"Real"},{"key":"10242313","name":"Schlangenweg","postalCode":"7304","locality":"Maienfeld","commune":{"key":"3953","name":"Maienfeld","shortName":"Maienfeld"},"district":{"key":"1845","name":"Region Landquart"},"canton":{"key":"18","code":"GR","name":"Graubünden / Grigioni / Grischun"},"status":"Real"},{"key":"10037990","name":"Schloss Maienfeld","postalCode":"7304","locality":"Maienfeld","commune":{"key":"3953","name":"Maienfeld","shortName":"Maienfeld"},"district":{"key":"1845","name":"Region Landquart"},"canton":{"key":"18","code":"GR","name":"Graubünden / Grigioni / Grischun"},"status":"Real"},{"key":"10037991","name":"Schrägländerweg","postalCode":"7304","locality":"Maienfeld","commune":{"key":"3953","name":"Maienfeld","shortName":"Maienfeld"},"district":{"key":"1845","name":"Region Landquart"},"canton":{"key":"18","code":"GR","name":"Graubünden / Grigioni / Grischun"},"status":"Real"},{"key":"10138266","name":"Schwelldämmerweg","postalCode":"7304","locality":"Maienfeld","commune":{"key":"3953","name":"Maienfeld","shortName":"Maienfeld"},"district":{"key":"1845","name":"Region Landquart"},"canton":{"key":"18","code":"GR","name":"Graubünden / Grigioni / Grischun"},"status":"Real"},{"key":"10174987","name":"Sentisbündte","postalCode":"7304","locality":"Maienfeld","commune":{"key":"3953","name":"Maienfeld","shortName":"Maienfeld"},"district":{"key":"1845","name":"Region Landquart"},"canton":{"key":"18","code":"GR","name":"Graubünden / Grigioni / Grischun"},"status":"Real"},{"key":"10216334","name":"Skaletterstrasse","postalCode":"7304","locality":"Maienfeld","commune":{"key":"3953","name":"Maienfeld","shortName":"Maienfeld"},"district":{"key":"1845","name":"Region Landquart"},"canton":{"key":"18","code":"GR","name":"Graubünden / Grigioni / Grischun"},"status":"Real"},{"key":"10094372","name":"Spitalgasse","postalCode":"7304","locality":"Maienfeld","commune":{"key":"3953","name":"Maienfeld","shortName":"Maienfeld"},"district":{"key":"1845","name":"Region Landquart"},"canton":{"key":"18","code":"GR","name":"Graubünden / Grigioni / Grischun"},"status":"Real"},{"key":"10105577","name":"Städtli","postalCode":"7304","locality":"Maienfeld","commune":{"key":"3953","name":"Maienfeld","shortName":"Maienfeld"},"district":{"key":"1845","name":"Region Landquart"},"canton":{"key":"18","code":"GR","name":"Graubünden / Grigioni / Grischun"},"status":"Real"},{"key":"10077334","name":"Stallgasse","postalCode":"7304","locality":"Maienfeld","commune":{"key":"3953","name":"Maienfeld","shortName":"Maienfeld"},"district":{"key":"1845","name":"Region Landquart"},"canton":{"key":"18","code":"GR","name":"Graubünden / Grigioni / Grischun"},"status":"Real"},{"key":"10132633","name":"Stapfenwiesweg","postalCode":"7304","locality":"Maienfeld","commune":{"key":"3953","name":"Maienfeld","shortName":"Maienfeld"},"district":{"key":"1845","name":"Region Landquart"},"canton":{"key":"18","code":"GR","name":"Graubünden / Grigioni / Grischun"},"status":"Real"},{"key":"10094373","name":"Steigstrasse","postalCode":"7304","locality":"Maienfeld","commune":{"key":"3953","name":"Maienfeld","shortName":"Maienfeld"},"district":{"key":"1845","name":"Region Landquart"},"canton":{"key":"18","code":"GR","name":"Graubünden / Grigioni / Grischun"},"status":"Real"},{"key":"10165478","name":"Steigstrasse","postalCode":"7304","locality":"Maienfeld","commune":{"key":"3953","name":"Maienfeld","shortName":"Maienfeld"},"district":{"key":"1845","name":"Region Landquart"},"canton":{"key":"18","code":"GR","name":"Graubünden / Grigioni / Grischun"},"status":"Real"},{"key":"10255139","name":"Sternenwingert","postalCode":"7304","locality":"Maienfeld","commune":{"key":"3953","name":"Maienfeld","shortName":"Maienfeld"},"district":{"key":"1845","name":"Region Landquart"},"canton":{"key":"18","code":"GR","name":"Graubünden / Grigioni / Grischun"},"status":"Real"},{"key":"10216337","name":"Stieggässli","postalCode":"7304","locality":"Maienfeld","commune":{"key":"3953","name":"Maienfeld","shortName":"Maienfeld"},"district":{"key":"1845","name":"Region Landquart"},"canton":{"key":"18","code":"GR","name":"Graubünden / Grigioni / Grischun"},"status":"Real"},{"key":"10255112","name":"Stockwaldweg","postalCode":"7304","locality":"Maienfeld","commune":{"key":"3953","name":"Maienfeld","shortName":"Maienfeld"},"district":{"key":"1845","name":"Region Landquart"},"canton":{"key":"18","code":"GR","name":"Graubünden / Grigioni / Grischun"},"status":"Real"},{"key":"10190865","name":"Stutz","postalCode":"7304","locality":"Maienfeld","commune":{"key":"3953","name":"Maienfeld","shortName":"Maienfeld"},"district":{"key":"1845","name":"Region Landquart"},"canton":{"key":"18","code":"GR","name":"Graubünden / Grigioni / Grischun"},"status":"Real"},{"key":"10255110","name":"Tannwaldweg","postalCode":"7304","locality":"Maienfeld","commune":{"key":"3953","name":"Maienfeld","shortName":"Maienfeld"},"district":{"key":"1845","name":"Region Landquart"},"canton":{"key":"18","code":"GR","name":"Graubünden / Grigioni / Grischun"},"status":"Real"},{"key":"10037993","name":"Teilerrüfeweg","postalCode":"7304","locality":"Maienfeld","commune":{"key":"3953","name":"Maienfeld","shortName":"Maienfeld"},"district":{"key":"1845","name":"Region Landquart"},"canton":{"key":"18","code":"GR","name":"Graubünden / Grigioni / Grischun"},"status":"Real"},{"key":"10037994","name":"Törligasse","postalCode":"7304","locality":"Maienfeld","commune":{"key":"3953","name":"Maienfeld","shortName":"Maienfeld"},"district":{"key":"1845","name":"Region Landquart"},"canton":{"key":"18","code":"GR","name":"Graubünden / Grigioni / Grischun"},"status":"Real"},{"key":"10094374","name":"Törliweg","postalCode":"7304","locality":"Maienfeld","commune":{"key":"3953","name":"Maienfeld","shortName":"Maienfeld"},"district":{"key":"1845","name":"Region Landquart"},"canton":{"key":"18","code":"GR","name":"Graubünden / Grigioni / Grischun"},"status":"Real"},{"key":"10077335","name":"Unter der Linde","postalCode":"7304","locality":"Maienfeld","commune":{"key":"3953","name":"Maienfeld","shortName":"Maienfeld"},"district":{"key":"1845","name":"Region Landquart"},"canton":{"key":"18","code":"GR","name":"Graubünden / Grigioni / Grischun"},"status":"Real"},{"key":"10187925","name":"Untere Industrie","postalCode":"7304","locality":"Maienfeld","commune":{"key":"3953","name":"Maienfeld","shortName":"Maienfeld"},"district":{"key":"1845","name":"Region Landquart"},"canton":{"key":"18","code":"GR","name":"Graubünden / Grigioni / Grischun"},"status":"Real"},{"key":"10255148","name":"Unterer Eichholzweg","postalCode":"7304","locality":"Maienfeld","commune":{"key":"3953","name":"Maienfeld","shortName":"Maienfeld"},"district":{"key":"1845","name":"Region Landquart"},"canton":{"key":"18","code":"GR","name":"Graubünden / Grigioni / Grischun"},"status":"Real"},{"key":"10255129","name":"Unterer Neubruch","postalCode":"7304","locality":"Maienfeld","commune":{"key":"3953","name":"Maienfeld","shortName":"Maienfeld"},"district":{"key":"1845","name":"Region Landquart"},"canton":{"key":"18","code":"GR","name":"Graubünden / Grigioni / Grischun"},"status":"Real"},{"key":"10037995","name":"Unteres Herrenfeld","postalCode":"7304","locality":"Maienfeld","commune":{"key":"3953","name":"Maienfeld","shortName":"Maienfeld"},"district":{"key":"1845","name":"Region Landquart"},"canton":{"key":"18","code":"GR","name":"Graubünden / Grigioni / Grischun"},"status":"Real"},{"key":"10255095","name":"Unter Steigwisa","postalCode":"7304","locality":"Maienfeld","commune":{"key":"3953","name":"Maienfeld","shortName":"Maienfeld"},"district":{"key":"1845","name":"Region Landquart"},"canton":{"key":"18","code":"GR","name":"Graubünden / Grigioni / Grischun"},"status":"Real"},{"key":"10255136","name":"Vorder Alp","postalCode":"7304","locality":"Maienfeld","commune":{"key":"3953","name":"Maienfeld","shortName":"Maienfeld"},"district":{"key":"1845","name":"Region Landquart"},"canton":{"key":"18","code":"GR","name":"Graubünden / Grigioni / Grischun"},"status":"Real"},{"key":"10255099","name":"Vorder Ochsenberg","postalCode":"7304","locality":"Maienfeld","commune":{"key":"3953","name":"Maienfeld","shortName":"Maienfeld"},"district":{"key":"1845","name":"Region Landquart"},"canton":{"key":"18","code":"GR","name":"Graubünden / Grigioni / Grischun"},"status":"Real"},{"key":"10174988","name":"Vorderwinkel","postalCode":"7304","locality":"Maienfeld","commune":{"key":"3953","name":"Maienfeld","shortName":"Maienfeld"},"district":{"key":"1845","name":"Region Landquart"},"canton":{"key":"18","code":"GR","name":"Graubünden / Grigioni / Grischun"},"status":"Real"},{"key":"10094375","name":"Vorstadtgasse","postalCode":"7304","locality":"Maienfeld","commune":{"key":"3953","name":"Maienfeld","shortName":"Maienfeld"},"district":{"key":"1845","name":"Region Landquart"},"canton":{"key":"18","code":"GR","name":"Graubünden / Grigioni / Grischun"},"status":"Real"},{"key":"10122133","name":"Walchiweg","postalCode":"7304","locality":"Maienfeld","commune":{"key":"3953","name":"Maienfeld","shortName":"Maienfeld"},"district":{"key":"1845","name":"Region Landquart"},"canton":{"key":"18","code":"GR","name":"Graubünden / Grigioni / Grischun"},"status":"Real"},{"key":"10037996","name":"Werkhofstrasse","postalCode":"7304","locality":"Maienfeld","commune":{"key":"3953","name":"Maienfeld","shortName":"Maienfeld"},"district":{"key":"1845","name":"Region Landquart"},"canton":{"key":"18","code":"GR","name":"Graubünden / Grigioni / Grischun"},"status":"Real"},{"key":"10257299","name":"Wiesenstrasse","postalCode":"7304","locality":"Maienfeld","commune":{"key":"3953","name":"Maienfeld","shortName":"Maienfeld"},"district":{"key":"1845","name":"Region Landquart"},"canton":{"key":"18","code":"GR","name":"Graubünden / Grigioni / Grischun"},"status":"Real"},{"key":"10114256","name":"Winkelgasse","postalCode":"7304","locality":"Maienfeld","commune":{"key":"3953","name":"Maienfeld","shortName":"Maienfeld"},"district":{"key":"1845","name":"Region Landquart"},"canton":{"key":"18","code":"GR","name":"Graubünden / Grigioni / Grischun"},"status":"Real"},{"key":"10255145","name":"Überm Bach","postalCode":"7304","locality":"Maienfeld","commune":{"key":"3953","name":"Maienfeld","shortName":"Maienfeld"},"district":{"key":"1845","name":"Region Landquart"},"canton":{"key":"18","code":"GR","name":"Graubünden / Grigioni / Grischun"},"status":"Real"},]