[{"name":"Am Teich","postalCode":"23858","locality":"Heidekamp","municipality":{"key":"01062031","name":"Heidekamp","type":"Kreisangehörige_Gemeinde"},"district":{"key":"01062","name":"Stormarn","type":"Kreis"},"federalState":{"key":"01","name":"Schleswig-Holstein"}},{"name":"Fleischgaffel","postalCode":"23858","locality":"Heidekamp","municipality":{"key":"01062031","name":"Heidekamp","type":"Kreisangehörige_Gemeinde"},"district":{"key":"01062","name":"Stormarn","type":"Kreis"},"federalState":{"key":"01","name":"Schleswig-Holstein"}},{"name":"Heilsaustr.","postalCode":"23858","locality":"Heidekamp","municipality":{"key":"01062031","name":"Heidekamp","type":"Kreisangehörige_Gemeinde"},"district":{"key":"01062","name":"Stormarn","type":"Kreis"},"federalState":{"key":"01","name":"Schleswig-Holstein"}},{"name":"Kamp","postalCode":"23858","locality":"Heidekamp","municipality":{"key":"01062031","name":"Heidekamp","type":"Kreisangehörige_Gemeinde"},"district":{"key":"01062","name":"Stormarn","type":"Kreis"},"federalState":{"key":"01","name":"Schleswig-Holstein"}},{"name":"Kathenkoppel","postalCode":"23858","locality":"Heidekamp","municipality":{"key":"01062031","name":"Heidekamp","type":"Kreisangehörige_Gemeinde"},"district":{"key":"01062","name":"Stormarn","type":"Kreis"},"federalState":{"key":"01","name":"Schleswig-Holstein"}},{"name":"Nachtkoppel","postalCode":"23858","locality":"Heidekamp","municipality":{"key":"01062031","name":"Heidekamp","type":"Kreisangehörige_Gemeinde"},"district":{"key":"01062","name":"Stormarn","type":"Kreis"},"federalState":{"key":"01","name":"Schleswig-Holstein"}},{"name":"Redder","postalCode":"23858","locality":"Heidekamp","municipality":{"key":"01062031","name":"Heidekamp","type":"Kreisangehörige_Gemeinde"},"district":{"key":"01062","name":"Stormarn","type":"Kreis"},"federalState":{"key":"01","name":"Schleswig-Holstein"}},{"name":"Reinfelder Str.","postalCode":"23858","locality":"Heidekamp","municipality":{"key":"01062031","name":"Heidekamp","type":"Kreisangehörige_Gemeinde"},"district":{"key":"01062","name":"Stormarn","type":"Kreis"},"federalState":{"key":"01","name":"Schleswig-Holstein"}},{"name":"Schulsteig","postalCode":"23858","locality":"Heidekamp","municipality":{"key":"01062031","name":"Heidekamp","type":"Kreisangehörige_Gemeinde"},"district":{"key":"01062","name":"Stormarn","type":"Kreis"},"federalState":{"key":"01","name":"Schleswig-Holstein"}},]