[{"key":"10239264","name":"A1","postalCode":"5430","locality":"Wettingen","commune":{"key":"4045","name":"Wettingen","shortName":"Wettingen"},"district":{"key":"1902","name":"Bezirk Baden"},"canton":{"key":"19","code":"AG","name":"Aargau"},"status":"Real"},{"key":"10239508","name":"A1","postalCode":"5430","locality":"Wettingen","commune":{"key":"4045","name":"Wettingen","shortName":"Wettingen"},"district":{"key":"1902","name":"Bezirk Baden"},"canton":{"key":"19","code":"AG","name":"Aargau"},"status":"Real"},{"key":"10035128","name":"Ackerstrasse","postalCode":"5430","locality":"Wettingen","commune":{"key":"4045","name":"Wettingen","shortName":"Wettingen"},"district":{"key":"1902","name":"Bezirk Baden"},"canton":{"key":"19","code":"AG","name":"Aargau"},"status":"Real"},{"key":"10101599","name":"Aehrenweg","postalCode":"5430","locality":"Wettingen","commune":{"key":"4045","name":"Wettingen","shortName":"Wettingen"},"district":{"key":"1902","name":"Bezirk Baden"},"canton":{"key":"19","code":"AG","name":"Aargau"},"status":"Real"},{"key":"10091669","name":"Aeschstrasse","postalCode":"5430","locality":"Wettingen","commune":{"key":"4045","name":"Wettingen","shortName":"Wettingen"},"district":{"key":"1902","name":"Bezirk Baden"},"canton":{"key":"19","code":"AG","name":"Aargau"},"status":"Real"},{"key":"10239268","name":"Affenbrünneliweg","postalCode":"5430","locality":"Wettingen","commune":{"key":"4045","name":"Wettingen","shortName":"Wettingen"},"district":{"key":"1902","name":"Bezirk Baden"},"canton":{"key":"19","code":"AG","name":"Aargau"},"status":"Real"},{"key":"10035129","name":"Ahornweg","postalCode":"5430","locality":"Wettingen","commune":{"key":"4045","name":"Wettingen","shortName":"Wettingen"},"district":{"key":"1902","name":"Bezirk Baden"},"canton":{"key":"19","code":"AG","name":"Aargau"},"status":"Real"},{"key":"10111422","name":"Albertstrasse","postalCode":"5430","locality":"Wettingen","commune":{"key":"4045","name":"Wettingen","shortName":"Wettingen"},"district":{"key":"1902","name":"Bezirk Baden"},"canton":{"key":"19","code":"AG","name":"Aargau"},"status":"Real"},{"key":"10070841","name":"Albisstrasse","postalCode":"5430","locality":"Wettingen","commune":{"key":"4045","name":"Wettingen","shortName":"Wettingen"},"district":{"key":"1902","name":"Bezirk Baden"},"canton":{"key":"19","code":"AG","name":"Aargau"},"status":"Real"},{"key":"10052455","name":"Alb. Zwyssigstrasse","postalCode":"5430","locality":"Wettingen","commune":{"key":"4045","name":"Wettingen","shortName":"Wettingen"},"district":{"key":"1902","name":"Bezirk Baden"},"canton":{"key":"19","code":"AG","name":"Aargau"},"status":"Real"},{"key":"10035130","name":"Alpenstrasse","postalCode":"5430","locality":"Wettingen","commune":{"key":"4045","name":"Wettingen","shortName":"Wettingen"},"district":{"key":"1902","name":"Bezirk Baden"},"canton":{"key":"19","code":"AG","name":"Aargau"},"status":"Real"},{"key":"10091670","name":"Altenburgstrasse","postalCode":"5430","locality":"Wettingen","commune":{"key":"4045","name":"Wettingen","shortName":"Wettingen"},"district":{"key":"1902","name":"Bezirk Baden"},"canton":{"key":"19","code":"AG","name":"Aargau"},"status":"Real"},{"key":"10239272","name":"Alte Waldpartieweg","postalCode":"5430","locality":"Wettingen","commune":{"key":"4045","name":"Wettingen","shortName":"Wettingen"},"district":{"key":"1902","name":"Bezirk Baden"},"canton":{"key":"19","code":"AG","name":"Aargau"},"status":"Real"},{"key":"10035131","name":"Am Gottesgraben","postalCode":"5430","locality":"Wettingen","commune":{"key":"4045","name":"Wettingen","shortName":"Wettingen"},"district":{"key":"1902","name":"Bezirk Baden"},"canton":{"key":"19","code":"AG","name":"Aargau"},"status":"Real"},{"key":"10052456","name":"Antoniusstrasse","postalCode":"5430","locality":"Wettingen","commune":{"key":"4045","name":"Wettingen","shortName":"Wettingen"},"district":{"key":"1902","name":"Bezirk Baden"},"canton":{"key":"19","code":"AG","name":"Aargau"},"status":"Real"},{"key":"10035132","name":"Attenhoferstrasse","postalCode":"5430","locality":"Wettingen","commune":{"key":"4045","name":"Wettingen","shortName":"Wettingen"},"district":{"key":"1902","name":"Bezirk Baden"},"canton":{"key":"19","code":"AG","name":"Aargau"},"status":"Real"},{"key":"10239276","name":"Auffahrtsweg","postalCode":"5430","locality":"Wettingen","commune":{"key":"4045","name":"Wettingen","shortName":"Wettingen"},"district":{"key":"1902","name":"Bezirk Baden"},"canton":{"key":"19","code":"AG","name":"Aargau"},"status":"Real"},{"key":"10070842","name":"Austrasse","postalCode":"5430","locality":"Wettingen","commune":{"key":"4045","name":"Wettingen","shortName":"Wettingen"},"district":{"key":"1902","name":"Bezirk Baden"},"canton":{"key":"19","code":"AG","name":"Aargau"},"status":"Real"},{"key":"10101600","name":"Bachstrasse","postalCode":"5430","locality":"Wettingen","commune":{"key":"4045","name":"Wettingen","shortName":"Wettingen"},"district":{"key":"1902","name":"Bezirk Baden"},"canton":{"key":"19","code":"AG","name":"Aargau"},"status":"Real"},{"key":"10091671","name":"Bachtelstrasse","postalCode":"5430","locality":"Wettingen","commune":{"key":"4045","name":"Wettingen","shortName":"Wettingen"},"district":{"key":"1902","name":"Bezirk Baden"},"canton":{"key":"19","code":"AG","name":"Aargau"},"status":"Real"},{"key":"10035137","name":"Bäckerstrasse","postalCode":"5430","locality":"Wettingen","commune":{"key":"4045","name":"Wettingen","shortName":"Wettingen"},"district":{"key":"1902","name":"Bezirk Baden"},"canton":{"key":"19","code":"AG","name":"Aargau"},"status":"Real"},{"key":"10035133","name":"Bahnhofstrasse","postalCode":"5430","locality":"Wettingen","commune":{"key":"4045","name":"Wettingen","shortName":"Wettingen"},"district":{"key":"1902","name":"Bezirk Baden"},"canton":{"key":"19","code":"AG","name":"Aargau"},"status":"Real"},{"key":"10239255","name":"Bahnwegli","postalCode":"5430","locality":"Wettingen","commune":{"key":"4045","name":"Wettingen","shortName":"Wettingen"},"district":{"key":"1902","name":"Bezirk Baden"},"canton":{"key":"19","code":"AG","name":"Aargau"},"status":"Real"},{"key":"10035134","name":"Bellevuestrasse","postalCode":"5430","locality":"Wettingen","commune":{"key":"4045","name":"Wettingen","shortName":"Wettingen"},"district":{"key":"1902","name":"Bezirk Baden"},"canton":{"key":"19","code":"AG","name":"Aargau"},"status":"Real"},{"key":"10052457","name":"Bergstrasse","postalCode":"5430","locality":"Wettingen","commune":{"key":"4045","name":"Wettingen","shortName":"Wettingen"},"district":{"key":"1902","name":"Bezirk Baden"},"canton":{"key":"19","code":"AG","name":"Aargau"},"status":"Real"},{"key":"10188288","name":"Bernaustrasse","postalCode":"5430","locality":"Wettingen","commune":{"key":"4045","name":"Wettingen","shortName":"Wettingen"},"district":{"key":"1902","name":"Bezirk Baden"},"canton":{"key":"19","code":"AG","name":"Aargau"},"status":"Real"},{"key":"10091672","name":"Berninastrasse","postalCode":"5430","locality":"Wettingen","commune":{"key":"4045","name":"Wettingen","shortName":"Wettingen"},"district":{"key":"1902","name":"Bezirk Baden"},"canton":{"key":"19","code":"AG","name":"Aargau"},"status":"Real"},{"key":"10052458","name":"Bifangstrasse","postalCode":"5430","locality":"Wettingen","commune":{"key":"4045","name":"Wettingen","shortName":"Wettingen"},"district":{"key":"1902","name":"Bezirk Baden"},"canton":{"key":"19","code":"AG","name":"Aargau"},"status":"Real"},{"key":"10035135","name":"Blumenstrasse","postalCode":"5430","locality":"Wettingen","commune":{"key":"4045","name":"Wettingen","shortName":"Wettingen"},"district":{"key":"1902","name":"Bezirk Baden"},"canton":{"key":"19","code":"AG","name":"Aargau"},"status":"Real"},{"key":"10239280","name":"Brandweg","postalCode":"5430","locality":"Wettingen","commune":{"key":"4045","name":"Wettingen","shortName":"Wettingen"},"district":{"key":"1902","name":"Bezirk Baden"},"canton":{"key":"19","code":"AG","name":"Aargau"},"status":"Real"},{"key":"10035136","name":"Brückenstrasse","postalCode":"5430","locality":"Wettingen","commune":{"key":"4045","name":"Wettingen","shortName":"Wettingen"},"district":{"key":"1902","name":"Bezirk Baden"},"canton":{"key":"19","code":"AG","name":"Aargau"},"status":"Real"},{"key":"10052459","name":"Brühlstrasse","postalCode":"5430","locality":"Wettingen","commune":{"key":"4045","name":"Wettingen","shortName":"Wettingen"},"district":{"key":"1902","name":"Bezirk Baden"},"canton":{"key":"19","code":"AG","name":"Aargau"},"status":"Real"},{"key":"10052460","name":"Büntstrasse","postalCode":"5430","locality":"Wettingen","commune":{"key":"4045","name":"Wettingen","shortName":"Wettingen"},"district":{"key":"1902","name":"Bezirk Baden"},"canton":{"key":"19","code":"AG","name":"Aargau"},"status":"Real"},{"key":"10091673","name":"Burghornstrasse","postalCode":"5430","locality":"Wettingen","commune":{"key":"4045","name":"Wettingen","shortName":"Wettingen"},"district":{"key":"1902","name":"Bezirk Baden"},"canton":{"key":"19","code":"AG","name":"Aargau"},"status":"Real"},{"key":"10070843","name":"Casinoweg","postalCode":"5430","locality":"Wettingen","commune":{"key":"4045","name":"Wettingen","shortName":"Wettingen"},"district":{"key":"1902","name":"Bezirk Baden"},"canton":{"key":"19","code":"AG","name":"Aargau"},"status":"Real"},{"key":"10118020","name":"Chlosterbrüel","postalCode":"5430","locality":"Wettingen","commune":{"key":"4045","name":"Wettingen","shortName":"Wettingen"},"district":{"key":"1902","name":"Bezirk Baden"},"canton":{"key":"19","code":"AG","name":"Aargau"},"status":"Real"},{"key":"10035138","name":"Chlosterschür","postalCode":"5430","locality":"Wettingen","commune":{"key":"4045","name":"Wettingen","shortName":"Wettingen"},"district":{"key":"1902","name":"Bezirk Baden"},"canton":{"key":"19","code":"AG","name":"Aargau"},"status":"Real"},{"key":"10135159","name":"Chlosterschürstrasse","postalCode":"5430","locality":"Wettingen","commune":{"key":"4045","name":"Wettingen","shortName":"Wettingen"},"district":{"key":"1902","name":"Bezirk Baden"},"canton":{"key":"19","code":"AG","name":"Aargau"},"status":"Real"},{"key":"10204909","name":"Chütt","postalCode":"5430","locality":"Wettingen","commune":{"key":"4045","name":"Wettingen","shortName":"Wettingen"},"district":{"key":"1902","name":"Bezirk Baden"},"canton":{"key":"19","code":"AG","name":"Aargau"},"status":"Real"},{"key":"10091674","name":"Damianstrasse","postalCode":"5430","locality":"Wettingen","commune":{"key":"4045","name":"Wettingen","shortName":"Wettingen"},"district":{"key":"1902","name":"Bezirk Baden"},"canton":{"key":"19","code":"AG","name":"Aargau"},"status":"Real"},{"key":"10101601","name":"Dianastrasse","postalCode":"5430","locality":"Wettingen","commune":{"key":"4045","name":"Wettingen","shortName":"Wettingen"},"district":{"key":"1902","name":"Bezirk Baden"},"canton":{"key":"19","code":"AG","name":"Aargau"},"status":"Real"},{"key":"10239284","name":"Dickerenweg","postalCode":"5430","locality":"Wettingen","commune":{"key":"4045","name":"Wettingen","shortName":"Wettingen"},"district":{"key":"1902","name":"Bezirk Baden"},"canton":{"key":"19","code":"AG","name":"Aargau"},"status":"Real"},{"key":"10106657","name":"Dorfstrasse","postalCode":"5430","locality":"Wettingen","commune":{"key":"4045","name":"Wettingen","shortName":"Wettingen"},"district":{"key":"1902","name":"Bezirk Baden"},"canton":{"key":"19","code":"AG","name":"Aargau"},"status":"Real"},{"key":"10181263","name":"Dufourstrasse","postalCode":"5430","locality":"Wettingen","commune":{"key":"4045","name":"Wettingen","shortName":"Wettingen"},"district":{"key":"1902","name":"Bezirk Baden"},"canton":{"key":"19","code":"AG","name":"Aargau"},"status":"Real"},{"key":"10035139","name":"Edelweissstrasse","postalCode":"5430","locality":"Wettingen","commune":{"key":"4045","name":"Wettingen","shortName":"Wettingen"},"district":{"key":"1902","name":"Bezirk Baden"},"canton":{"key":"19","code":"AG","name":"Aargau"},"status":"Real"},{"key":"10052461","name":"Eichweg","postalCode":"5430","locality":"Wettingen","commune":{"key":"4045","name":"Wettingen","shortName":"Wettingen"},"district":{"key":"1902","name":"Bezirk Baden"},"canton":{"key":"19","code":"AG","name":"Aargau"},"status":"Real"},{"key":"10035140","name":"Eigerstrasse","postalCode":"5430","locality":"Wettingen","commune":{"key":"4045","name":"Wettingen","shortName":"Wettingen"},"district":{"key":"1902","name":"Bezirk Baden"},"canton":{"key":"19","code":"AG","name":"Aargau"},"status":"Real"},{"key":"10239288","name":"Eigiringweg","postalCode":"5430","locality":"Wettingen","commune":{"key":"4045","name":"Wettingen","shortName":"Wettingen"},"district":{"key":"1902","name":"Bezirk Baden"},"canton":{"key":"19","code":"AG","name":"Aargau"},"status":"Real"},{"key":"10052462","name":"Eigistrasse","postalCode":"5430","locality":"Wettingen","commune":{"key":"4045","name":"Wettingen","shortName":"Wettingen"},"district":{"key":"1902","name":"Bezirk Baden"},"canton":{"key":"19","code":"AG","name":"Aargau"},"status":"Real"},{"key":"10239292","name":"Eigiweg","postalCode":"5430","locality":"Wettingen","commune":{"key":"4045","name":"Wettingen","shortName":"Wettingen"},"district":{"key":"1902","name":"Bezirk Baden"},"canton":{"key":"19","code":"AG","name":"Aargau"},"status":"Real"},{"key":"10124553","name":"Empertstrasse","postalCode":"5430","locality":"Wettingen","commune":{"key":"4045","name":"Wettingen","shortName":"Wettingen"},"district":{"key":"1902","name":"Bezirk Baden"},"canton":{"key":"19","code":"AG","name":"Aargau"},"status":"Real"},{"key":"10122159","name":"Erlenstrasse","postalCode":"5430","locality":"Wettingen","commune":{"key":"4045","name":"Wettingen","shortName":"Wettingen"},"district":{"key":"1902","name":"Bezirk Baden"},"canton":{"key":"19","code":"AG","name":"Aargau"},"status":"Real"},{"key":"10111423","name":"Etzelmatt","postalCode":"5430","locality":"Wettingen","commune":{"key":"4045","name":"Wettingen","shortName":"Wettingen"},"district":{"key":"1902","name":"Bezirk Baden"},"canton":{"key":"19","code":"AG","name":"Aargau"},"status":"Real"},{"key":"10052463","name":"Etzelstrasse","postalCode":"5430","locality":"Wettingen","commune":{"key":"4045","name":"Wettingen","shortName":"Wettingen"},"district":{"key":"1902","name":"Bezirk Baden"},"canton":{"key":"19","code":"AG","name":"Aargau"},"status":"Real"},{"key":"10239296","name":"Eulenburg","postalCode":"5430","locality":"Wettingen","commune":{"key":"4045","name":"Wettingen","shortName":"Wettingen"},"district":{"key":"1902","name":"Bezirk Baden"},"canton":{"key":"19","code":"AG","name":"Aargau"},"status":"Real"},{"key":"10035141","name":"Feldeggstrasse","postalCode":"5430","locality":"Wettingen","commune":{"key":"4045","name":"Wettingen","shortName":"Wettingen"},"district":{"key":"1902","name":"Bezirk Baden"},"canton":{"key":"19","code":"AG","name":"Aargau"},"status":"Real"},{"key":"10122303","name":"Feldstrasse","postalCode":"5430","locality":"Wettingen","commune":{"key":"4045","name":"Wettingen","shortName":"Wettingen"},"district":{"key":"1902","name":"Bezirk Baden"},"canton":{"key":"19","code":"AG","name":"Aargau"},"status":"Real"},{"key":"10035142","name":"Fischerweg","postalCode":"5430","locality":"Wettingen","commune":{"key":"4045","name":"Wettingen","shortName":"Wettingen"},"district":{"key":"1902","name":"Bezirk Baden"},"canton":{"key":"19","code":"AG","name":"Aargau"},"status":"Real"},{"key":"10186843","name":"Fliederstrasse","postalCode":"5430","locality":"Wettingen","commune":{"key":"4045","name":"Wettingen","shortName":"Wettingen"},"district":{"key":"1902","name":"Bezirk Baden"},"canton":{"key":"19","code":"AG","name":"Aargau"},"status":"Real"},{"key":"10070844","name":"Florastrasse","postalCode":"5430","locality":"Wettingen","commune":{"key":"4045","name":"Wettingen","shortName":"Wettingen"},"district":{"key":"1902","name":"Bezirk Baden"},"canton":{"key":"19","code":"AG","name":"Aargau"},"status":"Real"},{"key":"10035143","name":"Flurweg","postalCode":"5430","locality":"Wettingen","commune":{"key":"4045","name":"Wettingen","shortName":"Wettingen"},"district":{"key":"1902","name":"Bezirk Baden"},"canton":{"key":"19","code":"AG","name":"Aargau"},"status":"Real"},{"key":"10190201","name":"Fohrhölzlistrasse","postalCode":"5430","locality":"Wettingen","commune":{"key":"4045","name":"Wettingen","shortName":"Wettingen"},"district":{"key":"1902","name":"Bezirk Baden"},"canton":{"key":"19","code":"AG","name":"Aargau"},"status":"Real"},{"key":"10239300","name":"Forsthausweg","postalCode":"5430","locality":"Wettingen","commune":{"key":"4045","name":"Wettingen","shortName":"Wettingen"},"district":{"key":"1902","name":"Bezirk Baden"},"canton":{"key":"19","code":"AG","name":"Aargau"},"status":"Real"},{"key":"10111424","name":"Fortunastrasse","postalCode":"5430","locality":"Wettingen","commune":{"key":"4045","name":"Wettingen","shortName":"Wettingen"},"district":{"key":"1902","name":"Bezirk Baden"},"canton":{"key":"19","code":"AG","name":"Aargau"},"status":"Real"},{"key":"10035144","name":"Freistrasse","postalCode":"5430","locality":"Wettingen","commune":{"key":"4045","name":"Wettingen","shortName":"Wettingen"},"district":{"key":"1902","name":"Bezirk Baden"},"canton":{"key":"19","code":"AG","name":"Aargau"},"status":"Real"},{"key":"10035145","name":"Friedenstrasse","postalCode":"5430","locality":"Wettingen","commune":{"key":"4045","name":"Wettingen","shortName":"Wettingen"},"district":{"key":"1902","name":"Bezirk Baden"},"canton":{"key":"19","code":"AG","name":"Aargau"},"status":"Real"},{"key":"10113979","name":"Frohsinnstrasse","postalCode":"5430","locality":"Wettingen","commune":{"key":"4045","name":"Wettingen","shortName":"Wettingen"},"district":{"key":"1902","name":"Bezirk Baden"},"canton":{"key":"19","code":"AG","name":"Aargau"},"status":"Real"},{"key":"10091675","name":"Gartenstrasse","postalCode":"5430","locality":"Wettingen","commune":{"key":"4045","name":"Wettingen","shortName":"Wettingen"},"district":{"key":"1902","name":"Bezirk Baden"},"canton":{"key":"19","code":"AG","name":"Aargau"},"status":"Real"},{"key":"10092742","name":"Gärtnerstrasse","postalCode":"5430","locality":"Wettingen","commune":{"key":"4045","name":"Wettingen","shortName":"Wettingen"},"district":{"key":"1902","name":"Bezirk Baden"},"canton":{"key":"19","code":"AG","name":"Aargau"},"status":"Real"},{"key":"10035146","name":"Gerstenstrasse","postalCode":"5430","locality":"Wettingen","commune":{"key":"4045","name":"Wettingen","shortName":"Wettingen"},"district":{"key":"1902","name":"Bezirk Baden"},"canton":{"key":"19","code":"AG","name":"Aargau"},"status":"Real"},{"key":"10181264","name":"Glärnischstrasse","postalCode":"5430","locality":"Wettingen","commune":{"key":"4045","name":"Wettingen","shortName":"Wettingen"},"district":{"key":"1902","name":"Bezirk Baden"},"canton":{"key":"19","code":"AG","name":"Aargau"},"status":"Real"},{"key":"10091676","name":"Gottesgrabenweg","postalCode":"5430","locality":"Wettingen","commune":{"key":"4045","name":"Wettingen","shortName":"Wettingen"},"district":{"key":"1902","name":"Bezirk Baden"},"canton":{"key":"19","code":"AG","name":"Aargau"},"status":"Real"},{"key":"10035147","name":"Grenzstrasse","postalCode":"5430","locality":"Wettingen","commune":{"key":"4045","name":"Wettingen","shortName":"Wettingen"},"district":{"key":"1902","name":"Bezirk Baden"},"canton":{"key":"19","code":"AG","name":"Aargau"},"status":"Real"},{"key":"10239307","name":"Grenzweg","postalCode":"5430","locality":"Wettingen","commune":{"key":"4045","name":"Wettingen","shortName":"Wettingen"},"district":{"key":"1902","name":"Bezirk Baden"},"canton":{"key":"19","code":"AG","name":"Aargau"},"status":"Real"},{"key":"10106658","name":"Greubstelstrasse","postalCode":"5430","locality":"Wettingen","commune":{"key":"4045","name":"Wettingen","shortName":"Wettingen"},"district":{"key":"1902","name":"Bezirk Baden"},"canton":{"key":"19","code":"AG","name":"Aargau"},"status":"Real"},{"key":"10035148","name":"Grubenstrasse","postalCode":"5430","locality":"Wettingen","commune":{"key":"4045","name":"Wettingen","shortName":"Wettingen"},"district":{"key":"1902","name":"Bezirk Baden"},"canton":{"key":"19","code":"AG","name":"Aargau"},"status":"Real"},{"key":"10035149","name":"Grünstrasse","postalCode":"5430","locality":"Wettingen","commune":{"key":"4045","name":"Wettingen","shortName":"Wettingen"},"district":{"key":"1902","name":"Bezirk Baden"},"canton":{"key":"19","code":"AG","name":"Aargau"},"status":"Real"},{"key":"10139970","name":"Güterstrasse","postalCode":"5430","locality":"Wettingen","commune":{"key":"4045","name":"Wettingen","shortName":"Wettingen"},"district":{"key":"1902","name":"Bezirk Baden"},"canton":{"key":"19","code":"AG","name":"Aargau"},"status":"Real"},{"key":"10035150","name":"Halbartenstrasse","postalCode":"5430","locality":"Wettingen","commune":{"key":"4045","name":"Wettingen","shortName":"Wettingen"},"district":{"key":"1902","name":"Bezirk Baden"},"canton":{"key":"19","code":"AG","name":"Aargau"},"status":"Real"},{"key":"10070845","name":"Hardmatt","postalCode":"5430","locality":"Wettingen","commune":{"key":"4045","name":"Wettingen","shortName":"Wettingen"},"district":{"key":"1902","name":"Bezirk Baden"},"canton":{"key":"19","code":"AG","name":"Aargau"},"status":"Real"},{"key":"10035151","name":"Hardstrasse","postalCode":"5430","locality":"Wettingen","commune":{"key":"4045","name":"Wettingen","shortName":"Wettingen"},"district":{"key":"1902","name":"Bezirk Baden"},"canton":{"key":"19","code":"AG","name":"Aargau"},"status":"Real"},{"key":"10035152","name":"Heckenweg","postalCode":"5430","locality":"Wettingen","commune":{"key":"4045","name":"Wettingen","shortName":"Wettingen"},"district":{"key":"1902","name":"Bezirk Baden"},"canton":{"key":"19","code":"AG","name":"Aargau"},"status":"Real"},{"key":"10239304","name":"Heerebüngertweg","postalCode":"5430","locality":"Wettingen","commune":{"key":"4045","name":"Wettingen","shortName":"Wettingen"},"district":{"key":"1902","name":"Bezirk Baden"},"canton":{"key":"19","code":"AG","name":"Aargau"},"status":"Real"},{"key":"10092743","name":"Heimentalstrasse","postalCode":"5430","locality":"Wettingen","commune":{"key":"4045","name":"Wettingen","shortName":"Wettingen"},"district":{"key":"1902","name":"Bezirk Baden"},"canton":{"key":"19","code":"AG","name":"Aargau"},"status":"Real"},{"key":"10070846","name":"Heimstrasse","postalCode":"5430","locality":"Wettingen","commune":{"key":"4045","name":"Wettingen","shortName":"Wettingen"},"district":{"key":"1902","name":"Bezirk Baden"},"canton":{"key":"19","code":"AG","name":"Aargau"},"status":"Real"},{"key":"10035153","name":"Herrenbergweg","postalCode":"5430","locality":"Wettingen","commune":{"key":"4045","name":"Wettingen","shortName":"Wettingen"},"district":{"key":"1902","name":"Bezirk Baden"},"canton":{"key":"19","code":"AG","name":"Aargau"},"status":"Real"},{"key":"10239308","name":"Hertere","postalCode":"5430","locality":"Wettingen","commune":{"key":"4045","name":"Wettingen","shortName":"Wettingen"},"district":{"key":"1902","name":"Bezirk Baden"},"canton":{"key":"19","code":"AG","name":"Aargau"},"status":"Real"},{"key":"10035154","name":"Herterenhof","postalCode":"5430","locality":"Wettingen","commune":{"key":"4045","name":"Wettingen","shortName":"Wettingen"},"district":{"key":"1902","name":"Bezirk Baden"},"canton":{"key":"19","code":"AG","name":"Aargau"},"status":"Real"},{"key":"10181265","name":"Herternstrasse","postalCode":"5430","locality":"Wettingen","commune":{"key":"4045","name":"Wettingen","shortName":"Wettingen"},"district":{"key":"1902","name":"Bezirk Baden"},"canton":{"key":"19","code":"AG","name":"Aargau"},"status":"Real"},{"key":"10092744","name":"Hintere Höhenstrasse","postalCode":"5430","locality":"Wettingen","commune":{"key":"4045","name":"Wettingen","shortName":"Wettingen"},"district":{"key":"1902","name":"Bezirk Baden"},"canton":{"key":"19","code":"AG","name":"Aargau"},"status":"Real"},{"key":"10139971","name":"Hofweg","postalCode":"5430","locality":"Wettingen","commune":{"key":"4045","name":"Wettingen","shortName":"Wettingen"},"district":{"key":"1902","name":"Bezirk Baden"},"canton":{"key":"19","code":"AG","name":"Aargau"},"status":"Real"},{"key":"10070847","name":"Im Binz","postalCode":"5430","locality":"Wettingen","commune":{"key":"4045","name":"Wettingen","shortName":"Wettingen"},"district":{"key":"1902","name":"Bezirk Baden"},"canton":{"key":"19","code":"AG","name":"Aargau"},"status":"Real"},{"key":"10035155","name":"Im Bungert","postalCode":"5430","locality":"Wettingen","commune":{"key":"4045","name":"Wettingen","shortName":"Wettingen"},"district":{"key":"1902","name":"Bezirk Baden"},"canton":{"key":"19","code":"AG","name":"Aargau"},"status":"Real"},{"key":"10035156","name":"Imfeldstrasse","postalCode":"5430","locality":"Wettingen","commune":{"key":"4045","name":"Wettingen","shortName":"Wettingen"},"district":{"key":"1902","name":"Bezirk Baden"},"canton":{"key":"19","code":"AG","name":"Aargau"},"status":"Real"},{"key":"10071985","name":"Isatzweg","postalCode":"5430","locality":"Wettingen","commune":{"key":"4045","name":"Wettingen","shortName":"Wettingen"},"district":{"key":"1902","name":"Bezirk Baden"},"canton":{"key":"19","code":"AG","name":"Aargau"},"status":"Real"},{"key":"10211249","name":"Jagdhüttenweg","postalCode":"5430","locality":"Wettingen","commune":{"key":"4045","name":"Wettingen","shortName":"Wettingen"},"district":{"key":"1902","name":"Bezirk Baden"},"canton":{"key":"19","code":"AG","name":"Aargau"},"status":"Real"},{"key":"10111425","name":"Jakobstrasse","postalCode":"5430","locality":"Wettingen","commune":{"key":"4045","name":"Wettingen","shortName":"Wettingen"},"district":{"key":"1902","name":"Bezirk Baden"},"canton":{"key":"19","code":"AG","name":"Aargau"},"status":"Real"},{"key":"10035157","name":"J.-J.-Ryffel-Strasse","postalCode":"5430","locality":"Wettingen","commune":{"key":"4045","name":"Wettingen","shortName":"Wettingen"},"district":{"key":"1902","name":"Bezirk Baden"},"canton":{"key":"19","code":"AG","name":"Aargau"},"status":"Real"},{"key":"10092745","name":"Jurastrasse","postalCode":"5430","locality":"Wettingen","commune":{"key":"4045","name":"Wettingen","shortName":"Wettingen"},"district":{"key":"1902","name":"Bezirk Baden"},"canton":{"key":"19","code":"AG","name":"Aargau"},"status":"Real"},{"key":"10035158","name":"Kanzlerrainstrasse","postalCode":"5430","locality":"Wettingen","commune":{"key":"4045","name":"Wettingen","shortName":"Wettingen"},"district":{"key":"1902","name":"Bezirk Baden"},"canton":{"key":"19","code":"AG","name":"Aargau"},"status":"Real"},{"key":"10071986","name":"Kapellenweg","postalCode":"5430","locality":"Wettingen","commune":{"key":"4045","name":"Wettingen","shortName":"Wettingen"},"district":{"key":"1902","name":"Bezirk Baden"},"canton":{"key":"19","code":"AG","name":"Aargau"},"status":"Real"},{"key":"10239312","name":"Kiesgrübliweg","postalCode":"5430","locality":"Wettingen","commune":{"key":"4045","name":"Wettingen","shortName":"Wettingen"},"district":{"key":"1902","name":"Bezirk Baden"},"canton":{"key":"19","code":"AG","name":"Aargau"},"status":"Real"},{"key":"10035159","name":"Kirchstrasse","postalCode":"5430","locality":"Wettingen","commune":{"key":"4045","name":"Wettingen","shortName":"Wettingen"},"district":{"key":"1902","name":"Bezirk Baden"},"canton":{"key":"19","code":"AG","name":"Aargau"},"status":"Real"},{"key":"10092746","name":"Klarastrasse","postalCode":"5430","locality":"Wettingen","commune":{"key":"4045","name":"Wettingen","shortName":"Wettingen"},"district":{"key":"1902","name":"Bezirk Baden"},"canton":{"key":"19","code":"AG","name":"Aargau"},"status":"Real"},{"key":"10035160","name":"Klosterparkgässli","postalCode":"5430","locality":"Wettingen","commune":{"key":"4045","name":"Wettingen","shortName":"Wettingen"},"district":{"key":"1902","name":"Bezirk Baden"},"canton":{"key":"19","code":"AG","name":"Aargau"},"status":"Real"},{"key":"10035161","name":"Klosterstrasse","postalCode":"5430","locality":"Wettingen","commune":{"key":"4045","name":"Wettingen","shortName":"Wettingen"},"district":{"key":"1902","name":"Bezirk Baden"},"canton":{"key":"19","code":"AG","name":"Aargau"},"status":"Real"},{"key":"10106659","name":"Kollerstrasse","postalCode":"5430","locality":"Wettingen","commune":{"key":"4045","name":"Wettingen","shortName":"Wettingen"},"district":{"key":"1902","name":"Bezirk Baden"},"canton":{"key":"19","code":"AG","name":"Aargau"},"status":"Real"},{"key":"10092747","name":"Konradstrasse","postalCode":"5430","locality":"Wettingen","commune":{"key":"4045","name":"Wettingen","shortName":"Wettingen"},"district":{"key":"1902","name":"Bezirk Baden"},"canton":{"key":"19","code":"AG","name":"Aargau"},"status":"Real"},{"key":"10181266","name":"Kornstrasse","postalCode":"5430","locality":"Wettingen","commune":{"key":"4045","name":"Wettingen","shortName":"Wettingen"},"district":{"key":"1902","name":"Bezirk Baden"},"canton":{"key":"19","code":"AG","name":"Aargau"},"status":"Real"},{"key":"10035162","name":"Kraftwerkstrasse","postalCode":"5430","locality":"Wettingen","commune":{"key":"4045","name":"Wettingen","shortName":"Wettingen"},"district":{"key":"1902","name":"Bezirk Baden"},"canton":{"key":"19","code":"AG","name":"Aargau"},"status":"Real"},{"key":"10092748","name":"Kreuzkapellenweg","postalCode":"5430","locality":"Wettingen","commune":{"key":"4045","name":"Wettingen","shortName":"Wettingen"},"district":{"key":"1902","name":"Bezirk Baden"},"canton":{"key":"19","code":"AG","name":"Aargau"},"status":"Real"},{"key":"10035166","name":"Lägernstrasse","postalCode":"5430","locality":"Wettingen","commune":{"key":"4045","name":"Wettingen","shortName":"Wettingen"},"district":{"key":"1902","name":"Bezirk Baden"},"canton":{"key":"19","code":"AG","name":"Aargau"},"status":"Real"},{"key":"10188289","name":"Landstrasse","postalCode":"5430","locality":"Wettingen","commune":{"key":"4045","name":"Wettingen","shortName":"Wettingen"},"district":{"key":"1902","name":"Bezirk Baden"},"canton":{"key":"19","code":"AG","name":"Aargau"},"status":"Real"},{"key":"10035163","name":"Langäcker","postalCode":"5430","locality":"Wettingen","commune":{"key":"4045","name":"Wettingen","shortName":"Wettingen"},"district":{"key":"1902","name":"Bezirk Baden"},"canton":{"key":"19","code":"AG","name":"Aargau"},"status":"Real"},{"key":"10239316","name":"Lättegässli","postalCode":"5430","locality":"Wettingen","commune":{"key":"4045","name":"Wettingen","shortName":"Wettingen"},"district":{"key":"1902","name":"Bezirk Baden"},"canton":{"key":"19","code":"AG","name":"Aargau"},"status":"Real"},{"key":"10239320","name":"Lättenweg","postalCode":"5430","locality":"Wettingen","commune":{"key":"4045","name":"Wettingen","shortName":"Wettingen"},"district":{"key":"1902","name":"Bezirk Baden"},"canton":{"key":"19","code":"AG","name":"Aargau"},"status":"Real"},{"key":"10239324","name":"Lehweg","postalCode":"5430","locality":"Wettingen","commune":{"key":"4045","name":"Wettingen","shortName":"Wettingen"},"district":{"key":"1902","name":"Bezirk Baden"},"canton":{"key":"19","code":"AG","name":"Aargau"},"status":"Real"},{"key":"10035164","name":"Lerchenstrasse","postalCode":"5430","locality":"Wettingen","commune":{"key":"4045","name":"Wettingen","shortName":"Wettingen"},"district":{"key":"1902","name":"Bezirk Baden"},"canton":{"key":"19","code":"AG","name":"Aargau"},"status":"Real"},{"key":"10092749","name":"Ligusterweg","postalCode":"5430","locality":"Wettingen","commune":{"key":"4045","name":"Wettingen","shortName":"Wettingen"},"district":{"key":"1902","name":"Bezirk Baden"},"canton":{"key":"19","code":"AG","name":"Aargau"},"status":"Real"},{"key":"10071987","name":"Lindenhof","postalCode":"5430","locality":"Wettingen","commune":{"key":"4045","name":"Wettingen","shortName":"Wettingen"},"district":{"key":"1902","name":"Bezirk Baden"},"canton":{"key":"19","code":"AG","name":"Aargau"},"status":"Real"},{"key":"10060057","name":"Lindenplatz","postalCode":"5430","locality":"Wettingen","commune":{"key":"4045","name":"Wettingen","shortName":"Wettingen"},"district":{"key":"1902","name":"Bezirk Baden"},"canton":{"key":"19","code":"AG","name":"Aargau"},"status":"Real"},{"key":"10035165","name":"Lindenstrasse","postalCode":"5430","locality":"Wettingen","commune":{"key":"4045","name":"Wettingen","shortName":"Wettingen"},"district":{"key":"1902","name":"Bezirk Baden"},"canton":{"key":"19","code":"AG","name":"Aargau"},"status":"Real"},{"key":"10139972","name":"Lugibachstrasse","postalCode":"5430","locality":"Wettingen","commune":{"key":"4045","name":"Wettingen","shortName":"Wettingen"},"district":{"key":"1902","name":"Bezirk Baden"},"canton":{"key":"19","code":"AG","name":"Aargau"},"status":"Real"},{"key":"10239328","name":"Maiächerstrasse","postalCode":"5430","locality":"Wettingen","commune":{"key":"4045","name":"Wettingen","shortName":"Wettingen"},"district":{"key":"1902","name":"Bezirk Baden"},"canton":{"key":"19","code":"AG","name":"Aargau"},"status":"Real"},{"key":"10185351","name":"Maistrasse","postalCode":"5430","locality":"Wettingen","commune":{"key":"4045","name":"Wettingen","shortName":"Wettingen"},"district":{"key":"1902","name":"Bezirk Baden"},"canton":{"key":"19","code":"AG","name":"Aargau"},"status":"Real"},{"key":"10071988","name":"Margelstrasse","postalCode":"5430","locality":"Wettingen","commune":{"key":"4045","name":"Wettingen","shortName":"Wettingen"},"district":{"key":"1902","name":"Bezirk Baden"},"canton":{"key":"19","code":"AG","name":"Aargau"},"status":"Real"},{"key":"10124738","name":"Märzengasse","postalCode":"5430","locality":"Wettingen","commune":{"key":"4045","name":"Wettingen","shortName":"Wettingen"},"district":{"key":"1902","name":"Bezirk Baden"},"canton":{"key":"19","code":"AG","name":"Aargau"},"status":"Real"},{"key":"10092750","name":"Mattenstrasse","postalCode":"5430","locality":"Wettingen","commune":{"key":"4045","name":"Wettingen","shortName":"Wettingen"},"district":{"key":"1902","name":"Bezirk Baden"},"canton":{"key":"19","code":"AG","name":"Aargau"},"status":"Real"},{"key":"10035167","name":"Meisenweg","postalCode":"5430","locality":"Wettingen","commune":{"key":"4045","name":"Wettingen","shortName":"Wettingen"},"district":{"key":"1902","name":"Bezirk Baden"},"canton":{"key":"19","code":"AG","name":"Aargau"},"status":"Real"},{"key":"10035168","name":"Mittelstrasse","postalCode":"5430","locality":"Wettingen","commune":{"key":"4045","name":"Wettingen","shortName":"Wettingen"},"district":{"key":"1902","name":"Bezirk Baden"},"canton":{"key":"19","code":"AG","name":"Aargau"},"status":"Real"},{"key":"10092751","name":"Mooshaldenstrasse","postalCode":"5430","locality":"Wettingen","commune":{"key":"4045","name":"Wettingen","shortName":"Wettingen"},"district":{"key":"1902","name":"Bezirk Baden"},"canton":{"key":"19","code":"AG","name":"Aargau"},"status":"Real"},{"key":"10071989","name":"Mooshof","postalCode":"5430","locality":"Wettingen","commune":{"key":"4045","name":"Wettingen","shortName":"Wettingen"},"district":{"key":"1902","name":"Bezirk Baden"},"canton":{"key":"19","code":"AG","name":"Aargau"},"status":"Real"},{"key":"10035169","name":"Müllernstrasse","postalCode":"5430","locality":"Wettingen","commune":{"key":"4045","name":"Wettingen","shortName":"Wettingen"},"district":{"key":"1902","name":"Bezirk Baden"},"canton":{"key":"19","code":"AG","name":"Aargau"},"status":"Real"},{"key":"10101602","name":"Muristrasse","postalCode":"5430","locality":"Wettingen","commune":{"key":"4045","name":"Wettingen","shortName":"Wettingen"},"district":{"key":"1902","name":"Bezirk Baden"},"canton":{"key":"19","code":"AG","name":"Aargau"},"status":"Real"},{"key":"10111426","name":"Mythenstrasse","postalCode":"5430","locality":"Wettingen","commune":{"key":"4045","name":"Wettingen","shortName":"Wettingen"},"district":{"key":"1902","name":"Bezirk Baden"},"canton":{"key":"19","code":"AG","name":"Aargau"},"status":"Real"},{"key":"10092752","name":"Nägelistrasse","postalCode":"5430","locality":"Wettingen","commune":{"key":"4045","name":"Wettingen","shortName":"Wettingen"},"district":{"key":"1902","name":"Bezirk Baden"},"canton":{"key":"19","code":"AG","name":"Aargau"},"status":"Real"},{"key":"10052466","name":"Nägeliweg","postalCode":"5430","locality":"Wettingen","commune":{"key":"4045","name":"Wettingen","shortName":"Wettingen"},"district":{"key":"1902","name":"Bezirk Baden"},"canton":{"key":"19","code":"AG","name":"Aargau"},"status":"Real"},{"key":"10052464","name":"Nelkenweg","postalCode":"5430","locality":"Wettingen","commune":{"key":"4045","name":"Wettingen","shortName":"Wettingen"},"district":{"key":"1902","name":"Bezirk Baden"},"canton":{"key":"19","code":"AG","name":"Aargau"},"status":"Real"},{"key":"10118021","name":"Neufeldstrasse","postalCode":"5430","locality":"Wettingen","commune":{"key":"4045","name":"Wettingen","shortName":"Wettingen"},"district":{"key":"1902","name":"Bezirk Baden"},"canton":{"key":"19","code":"AG","name":"Aargau"},"status":"Real"},{"key":"10052465","name":"Neustrasse","postalCode":"5430","locality":"Wettingen","commune":{"key":"4045","name":"Wettingen","shortName":"Wettingen"},"district":{"key":"1902","name":"Bezirk Baden"},"canton":{"key":"19","code":"AG","name":"Aargau"},"status":"Real"},{"key":"10071990","name":"Nordstrasse","postalCode":"5430","locality":"Wettingen","commune":{"key":"4045","name":"Wettingen","shortName":"Wettingen"},"district":{"key":"1902","name":"Bezirk Baden"},"canton":{"key":"19","code":"AG","name":"Aargau"},"status":"Real"},{"key":"10035170","name":"Obere Kirchzelg","postalCode":"5430","locality":"Wettingen","commune":{"key":"4045","name":"Wettingen","shortName":"Wettingen"},"district":{"key":"1902","name":"Bezirk Baden"},"canton":{"key":"19","code":"AG","name":"Aargau"},"status":"Real"},{"key":"10185352","name":"Obergrundstrasse","postalCode":"5430","locality":"Wettingen","commune":{"key":"4045","name":"Wettingen","shortName":"Wettingen"},"district":{"key":"1902","name":"Bezirk Baden"},"canton":{"key":"19","code":"AG","name":"Aargau"},"status":"Real"},{"key":"10092753","name":"Obstgartenstrasse","postalCode":"5430","locality":"Wettingen","commune":{"key":"4045","name":"Wettingen","shortName":"Wettingen"},"district":{"key":"1902","name":"Bezirk Baden"},"canton":{"key":"19","code":"AG","name":"Aargau"},"status":"Real"},{"key":"10239332","name":"Ofenweg","postalCode":"5430","locality":"Wettingen","commune":{"key":"4045","name":"Wettingen","shortName":"Wettingen"},"district":{"key":"1902","name":"Bezirk Baden"},"canton":{"key":"19","code":"AG","name":"Aargau"},"status":"Real"},{"key":"10052467","name":"Otelfingerstrasse","postalCode":"5430","locality":"Wettingen","commune":{"key":"4045","name":"Wettingen","shortName":"Wettingen"},"district":{"key":"1902","name":"Bezirk Baden"},"canton":{"key":"19","code":"AG","name":"Aargau"},"status":"Real"},{"key":"10106660","name":"Pelikanstrasse","postalCode":"5430","locality":"Wettingen","commune":{"key":"4045","name":"Wettingen","shortName":"Wettingen"},"district":{"key":"1902","name":"Bezirk Baden"},"canton":{"key":"19","code":"AG","name":"Aargau"},"status":"Real"},{"key":"10239371","name":"Pflanzgartenweg","postalCode":"5430","locality":"Wettingen","commune":{"key":"4045","name":"Wettingen","shortName":"Wettingen"},"district":{"key":"1902","name":"Bezirk Baden"},"canton":{"key":"19","code":"AG","name":"Aargau"},"status":"Real"},{"key":"10035171","name":"Pilatusstrasse","postalCode":"5430","locality":"Wettingen","commune":{"key":"4045","name":"Wettingen","shortName":"Wettingen"},"district":{"key":"1902","name":"Bezirk Baden"},"canton":{"key":"19","code":"AG","name":"Aargau"},"status":"Real"},{"key":"10035172","name":"Platanenstrasse","postalCode":"5430","locality":"Wettingen","commune":{"key":"4045","name":"Wettingen","shortName":"Wettingen"},"district":{"key":"1902","name":"Bezirk Baden"},"canton":{"key":"19","code":"AG","name":"Aargau"},"status":"Real"},{"key":"10101603","name":"Quartierstrasse","postalCode":"5430","locality":"Wettingen","commune":{"key":"4045","name":"Wettingen","shortName":"Wettingen"},"district":{"key":"1902","name":"Bezirk Baden"},"canton":{"key":"19","code":"AG","name":"Aargau"},"status":"Real"},{"key":"10092754","name":"Rankstrasse","postalCode":"5430","locality":"Wettingen","commune":{"key":"4045","name":"Wettingen","shortName":"Wettingen"},"district":{"key":"1902","name":"Bezirk Baden"},"canton":{"key":"19","code":"AG","name":"Aargau"},"status":"Real"},{"key":"10035173","name":"Rebbergstrasse","postalCode":"5430","locality":"Wettingen","commune":{"key":"4045","name":"Wettingen","shortName":"Wettingen"},"district":{"key":"1902","name":"Bezirk Baden"},"canton":{"key":"19","code":"AG","name":"Aargau"},"status":"Real"},{"key":"10071991","name":"Rebhaldenstrasse","postalCode":"5430","locality":"Wettingen","commune":{"key":"4045","name":"Wettingen","shortName":"Wettingen"},"district":{"key":"1902","name":"Bezirk Baden"},"canton":{"key":"19","code":"AG","name":"Aargau"},"status":"Real"},{"key":"10052468","name":"Rebstrasse","postalCode":"5430","locality":"Wettingen","commune":{"key":"4045","name":"Wettingen","shortName":"Wettingen"},"district":{"key":"1902","name":"Bezirk Baden"},"canton":{"key":"19","code":"AG","name":"Aargau"},"status":"Real"},{"key":"10035174","name":"Reinhardstrasse","postalCode":"5430","locality":"Wettingen","commune":{"key":"4045","name":"Wettingen","shortName":"Wettingen"},"district":{"key":"1902","name":"Bezirk Baden"},"canton":{"key":"19","code":"AG","name":"Aargau"},"status":"Real"},{"key":"10035175","name":"Rennweg","postalCode":"5430","locality":"Wettingen","commune":{"key":"4045","name":"Wettingen","shortName":"Wettingen"},"district":{"key":"1902","name":"Bezirk Baden"},"canton":{"key":"19","code":"AG","name":"Aargau"},"status":"Real"},{"key":"10052469","name":"Rigistrasse","postalCode":"5430","locality":"Wettingen","commune":{"key":"4045","name":"Wettingen","shortName":"Wettingen"},"district":{"key":"1902","name":"Bezirk Baden"},"canton":{"key":"19","code":"AG","name":"Aargau"},"status":"Real"},{"key":"10092755","name":"Roggenstrasse","postalCode":"5430","locality":"Wettingen","commune":{"key":"4045","name":"Wettingen","shortName":"Wettingen"},"district":{"key":"1902","name":"Bezirk Baden"},"canton":{"key":"19","code":"AG","name":"Aargau"},"status":"Real"},{"key":"10035176","name":"Rosenauweg","postalCode":"5430","locality":"Wettingen","commune":{"key":"4045","name":"Wettingen","shortName":"Wettingen"},"district":{"key":"1902","name":"Bezirk Baden"},"canton":{"key":"19","code":"AG","name":"Aargau"},"status":"Real"},{"key":"10192011","name":"Rosengartenstrasse","postalCode":"5430","locality":"Wettingen","commune":{"key":"4045","name":"Wettingen","shortName":"Wettingen"},"district":{"key":"1902","name":"Bezirk Baden"},"canton":{"key":"19","code":"AG","name":"Aargau"},"status":"Real"},{"key":"10239336","name":"Rötelweg","postalCode":"5430","locality":"Wettingen","commune":{"key":"4045","name":"Wettingen","shortName":"Wettingen"},"district":{"key":"1902","name":"Bezirk Baden"},"canton":{"key":"19","code":"AG","name":"Aargau"},"status":"Real"},{"key":"10035177","name":"Rudolf-Funk-Strasse","postalCode":"5430","locality":"Wettingen","commune":{"key":"4045","name":"Wettingen","shortName":"Wettingen"},"district":{"key":"1902","name":"Bezirk Baden"},"canton":{"key":"19","code":"AG","name":"Aargau"},"status":"Real"},{"key":"10071992","name":"Rütlistrasse","postalCode":"5430","locality":"Wettingen","commune":{"key":"4045","name":"Wettingen","shortName":"Wettingen"},"district":{"key":"1902","name":"Bezirk Baden"},"canton":{"key":"19","code":"AG","name":"Aargau"},"status":"Real"},{"key":"10108135","name":"Säntisstrasse","postalCode":"5430","locality":"Wettingen","commune":{"key":"4045","name":"Wettingen","shortName":"Wettingen"},"district":{"key":"1902","name":"Bezirk Baden"},"canton":{"key":"19","code":"AG","name":"Aargau"},"status":"Real"},{"key":"10092756","name":"Schartenfelsstrasse","postalCode":"5430","locality":"Wettingen","commune":{"key":"4045","name":"Wettingen","shortName":"Wettingen"},"district":{"key":"1902","name":"Bezirk Baden"},"canton":{"key":"19","code":"AG","name":"Aargau"},"status":"Real"},{"key":"10101604","name":"Schartenrainstrasse","postalCode":"5430","locality":"Wettingen","commune":{"key":"4045","name":"Wettingen","shortName":"Wettingen"},"district":{"key":"1902","name":"Bezirk Baden"},"canton":{"key":"19","code":"AG","name":"Aargau"},"status":"Real"},{"key":"10035178","name":"Schartenstrasse","postalCode":"5430","locality":"Wettingen","commune":{"key":"4045","name":"Wettingen","shortName":"Wettingen"},"district":{"key":"1902","name":"Bezirk Baden"},"canton":{"key":"19","code":"AG","name":"Aargau"},"status":"Real"},{"key":"10122160","name":"Schönaustrasse","postalCode":"5430","locality":"Wettingen","commune":{"key":"4045","name":"Wettingen","shortName":"Wettingen"},"district":{"key":"1902","name":"Bezirk Baden"},"canton":{"key":"19","code":"AG","name":"Aargau"},"status":"Real"},{"key":"10052471","name":"Schönenbühlstrasse","postalCode":"5430","locality":"Wettingen","commune":{"key":"4045","name":"Wettingen","shortName":"Wettingen"},"district":{"key":"1902","name":"Bezirk Baden"},"canton":{"key":"19","code":"AG","name":"Aargau"},"status":"Real"},{"key":"10185628","name":"Schulgartenstrasse","postalCode":"5430","locality":"Wettingen","commune":{"key":"4045","name":"Wettingen","shortName":"Wettingen"},"district":{"key":"1902","name":"Bezirk Baden"},"canton":{"key":"19","code":"AG","name":"Aargau"},"status":"Real"},{"key":"10035179","name":"Schulstrasse","postalCode":"5430","locality":"Wettingen","commune":{"key":"4045","name":"Wettingen","shortName":"Wettingen"},"district":{"key":"1902","name":"Bezirk Baden"},"canton":{"key":"19","code":"AG","name":"Aargau"},"status":"Real"},{"key":"10052470","name":"Schwimmbadstrasse","postalCode":"5430","locality":"Wettingen","commune":{"key":"4045","name":"Wettingen","shortName":"Wettingen"},"district":{"key":"1902","name":"Bezirk Baden"},"canton":{"key":"19","code":"AG","name":"Aargau"},"status":"Real"},{"key":"10092757","name":"Schwyzerstrasse","postalCode":"5430","locality":"Wettingen","commune":{"key":"4045","name":"Wettingen","shortName":"Wettingen"},"district":{"key":"1902","name":"Bezirk Baden"},"canton":{"key":"19","code":"AG","name":"Aargau"},"status":"Real"},{"key":"10035180","name":"Seminarstrasse","postalCode":"5430","locality":"Wettingen","commune":{"key":"4045","name":"Wettingen","shortName":"Wettingen"},"district":{"key":"1902","name":"Bezirk Baden"},"canton":{"key":"19","code":"AG","name":"Aargau"},"status":"Real"},{"key":"10092758","name":"Siedlungsweg","postalCode":"5430","locality":"Wettingen","commune":{"key":"4045","name":"Wettingen","shortName":"Wettingen"},"district":{"key":"1902","name":"Bezirk Baden"},"canton":{"key":"19","code":"AG","name":"Aargau"},"status":"Real"},{"key":"10118022","name":"Sonneggstrasse","postalCode":"5430","locality":"Wettingen","commune":{"key":"4045","name":"Wettingen","shortName":"Wettingen"},"district":{"key":"1902","name":"Bezirk Baden"},"canton":{"key":"19","code":"AG","name":"Aargau"},"status":"Real"},{"key":"10106661","name":"Sonnrainweg","postalCode":"5430","locality":"Wettingen","commune":{"key":"4045","name":"Wettingen","shortName":"Wettingen"},"district":{"key":"1902","name":"Bezirk Baden"},"canton":{"key":"19","code":"AG","name":"Aargau"},"status":"Real"},{"key":"10239340","name":"Spitelmattweg","postalCode":"5430","locality":"Wettingen","commune":{"key":"4045","name":"Wettingen","shortName":"Wettingen"},"district":{"key":"1902","name":"Bezirk Baden"},"canton":{"key":"19","code":"AG","name":"Aargau"},"status":"Real"},{"key":"10035181","name":"Sportstrasse","postalCode":"5430","locality":"Wettingen","commune":{"key":"4045","name":"Wettingen","shortName":"Wettingen"},"district":{"key":"1902","name":"Bezirk Baden"},"canton":{"key":"19","code":"AG","name":"Aargau"},"status":"Real"},{"key":"10092759","name":"Staffelstrasse","postalCode":"5430","locality":"Wettingen","commune":{"key":"4045","name":"Wettingen","shortName":"Wettingen"},"district":{"key":"1902","name":"Bezirk Baden"},"canton":{"key":"19","code":"AG","name":"Aargau"},"status":"Real"},{"key":"10239670","name":"Staldenrainweg","postalCode":"5430","locality":"Wettingen","commune":{"key":"4045","name":"Wettingen","shortName":"Wettingen"},"district":{"key":"1902","name":"Bezirk Baden"},"canton":{"key":"19","code":"AG","name":"Aargau"},"status":"Real"},{"key":"10101605","name":"St. Bernhardstrasse","postalCode":"5430","locality":"Wettingen","commune":{"key":"4045","name":"Wettingen","shortName":"Wettingen"},"district":{"key":"1902","name":"Bezirk Baden"},"canton":{"key":"19","code":"AG","name":"Aargau"},"status":"Real"},{"key":"10035182","name":"Stiegelenstrasse","postalCode":"5430","locality":"Wettingen","commune":{"key":"4045","name":"Wettingen","shortName":"Wettingen"},"district":{"key":"1902","name":"Bezirk Baden"},"canton":{"key":"19","code":"AG","name":"Aargau"},"status":"Real"},{"key":"10035183","name":"Sulpergäcker","postalCode":"5430","locality":"Wettingen","commune":{"key":"4045","name":"Wettingen","shortName":"Wettingen"},"district":{"key":"1902","name":"Bezirk Baden"},"canton":{"key":"19","code":"AG","name":"Aargau"},"status":"Real"},{"key":"10071993","name":"Sulzbergstrasse","postalCode":"5430","locality":"Wettingen","commune":{"key":"4045","name":"Wettingen","shortName":"Wettingen"},"district":{"key":"1902","name":"Bezirk Baden"},"canton":{"key":"19","code":"AG","name":"Aargau"},"status":"Real"},{"key":"10254824","name":"Tägerhardmatte","postalCode":"5430","locality":"Wettingen","commune":{"key":"4045","name":"Wettingen","shortName":"Wettingen"},"district":{"key":"1902","name":"Bezirk Baden"},"canton":{"key":"19","code":"AG","name":"Aargau"},"status":"Real"},{"key":"10092760","name":"Tägerhardstrasse","postalCode":"5430","locality":"Wettingen","commune":{"key":"4045","name":"Wettingen","shortName":"Wettingen"},"district":{"key":"1902","name":"Bezirk Baden"},"canton":{"key":"19","code":"AG","name":"Aargau"},"status":"Real"},{"key":"10239040","name":"Tigelmoosweg","postalCode":"5430","locality":"Wettingen","commune":{"key":"4045","name":"Wettingen","shortName":"Wettingen"},"district":{"key":"1902","name":"Bezirk Baden"},"canton":{"key":"19","code":"AG","name":"Aargau"},"status":"Real"},{"key":"10035184","name":"Titlisstrasse","postalCode":"5430","locality":"Wettingen","commune":{"key":"4045","name":"Wettingen","shortName":"Wettingen"},"district":{"key":"1902","name":"Bezirk Baden"},"canton":{"key":"19","code":"AG","name":"Aargau"},"status":"Real"},{"key":"10035185","name":"Tödistrasse","postalCode":"5430","locality":"Wettingen","commune":{"key":"4045","name":"Wettingen","shortName":"Wettingen"},"district":{"key":"1902","name":"Bezirk Baden"},"canton":{"key":"19","code":"AG","name":"Aargau"},"status":"Real"},{"key":"10052472","name":"Untere Geisswiesstrasse","postalCode":"5430","locality":"Wettingen","commune":{"key":"4045","name":"Wettingen","shortName":"Wettingen"},"district":{"key":"1902","name":"Bezirk Baden"},"canton":{"key":"19","code":"AG","name":"Aargau"},"status":"Real"},{"key":"10185629","name":"Utostrasse","postalCode":"5430","locality":"Wettingen","commune":{"key":"4045","name":"Wettingen","shortName":"Wettingen"},"district":{"key":"1902","name":"Bezirk Baden"},"canton":{"key":"19","code":"AG","name":"Aargau"},"status":"Real"},{"key":"10035186","name":"Vordere Höhenstrasse","postalCode":"5430","locality":"Wettingen","commune":{"key":"4045","name":"Wettingen","shortName":"Wettingen"},"district":{"key":"1902","name":"Bezirk Baden"},"canton":{"key":"19","code":"AG","name":"Aargau"},"status":"Real"},{"key":"10188290","name":"Weberstrasse","postalCode":"5430","locality":"Wettingen","commune":{"key":"4045","name":"Wettingen","shortName":"Wettingen"},"district":{"key":"1902","name":"Bezirk Baden"},"canton":{"key":"19","code":"AG","name":"Aargau"},"status":"Real"},{"key":"10071994","name":"Weidweg","postalCode":"5430","locality":"Wettingen","commune":{"key":"4045","name":"Wettingen","shortName":"Wettingen"},"district":{"key":"1902","name":"Bezirk Baden"},"canton":{"key":"19","code":"AG","name":"Aargau"},"status":"Real"},{"key":"10035187","name":"Weiherstrasse","postalCode":"5430","locality":"Wettingen","commune":{"key":"4045","name":"Wettingen","shortName":"Wettingen"},"district":{"key":"1902","name":"Bezirk Baden"},"canton":{"key":"19","code":"AG","name":"Aargau"},"status":"Real"},{"key":"10092761","name":"Weinbergstrasse","postalCode":"5430","locality":"Wettingen","commune":{"key":"4045","name":"Wettingen","shortName":"Wettingen"},"district":{"key":"1902","name":"Bezirk Baden"},"canton":{"key":"19","code":"AG","name":"Aargau"},"status":"Real"},{"key":"10035188","name":"Weizenstrasse","postalCode":"5430","locality":"Wettingen","commune":{"key":"4045","name":"Wettingen","shortName":"Wettingen"},"district":{"key":"1902","name":"Bezirk Baden"},"canton":{"key":"19","code":"AG","name":"Aargau"},"status":"Real"},{"key":"10239044","name":"Weymouthweg","postalCode":"5430","locality":"Wettingen","commune":{"key":"4045","name":"Wettingen","shortName":"Wettingen"},"district":{"key":"1902","name":"Bezirk Baden"},"canton":{"key":"19","code":"AG","name":"Aargau"},"status":"Real"},{"key":"10071995","name":"Wiesenstrasse","postalCode":"5430","locality":"Wettingen","commune":{"key":"4045","name":"Wettingen","shortName":"Wettingen"},"district":{"key":"1902","name":"Bezirk Baden"},"canton":{"key":"19","code":"AG","name":"Aargau"},"status":"Real"},{"key":"10185630","name":"Winernstrasse","postalCode":"5430","locality":"Wettingen","commune":{"key":"4045","name":"Wettingen","shortName":"Wettingen"},"district":{"key":"1902","name":"Bezirk Baden"},"canton":{"key":"19","code":"AG","name":"Aargau"},"status":"Real"},{"key":"10035189","name":"Winkelriedstrasse","postalCode":"5430","locality":"Wettingen","commune":{"key":"4045","name":"Wettingen","shortName":"Wettingen"},"district":{"key":"1902","name":"Bezirk Baden"},"canton":{"key":"19","code":"AG","name":"Aargau"},"status":"Real"},{"key":"10092762","name":"Winzerstrasse","postalCode":"5430","locality":"Wettingen","commune":{"key":"4045","name":"Wettingen","shortName":"Wettingen"},"district":{"key":"1902","name":"Bezirk Baden"},"canton":{"key":"19","code":"AG","name":"Aargau"},"status":"Real"},{"key":"10239048","name":"Wolfackerweg","postalCode":"5430","locality":"Wettingen","commune":{"key":"4045","name":"Wettingen","shortName":"Wettingen"},"district":{"key":"1902","name":"Bezirk Baden"},"canton":{"key":"19","code":"AG","name":"Aargau"},"status":"Real"},{"key":"10035190","name":"Zederstrasse","postalCode":"5430","locality":"Wettingen","commune":{"key":"4045","name":"Wettingen","shortName":"Wettingen"},"district":{"key":"1902","name":"Bezirk Baden"},"canton":{"key":"19","code":"AG","name":"Aargau"},"status":"Real"},{"key":"10039652","name":"Zehntenhofstrasse","postalCode":"5430","locality":"Wettingen","commune":{"key":"4045","name":"Wettingen","shortName":"Wettingen"},"district":{"key":"1902","name":"Bezirk Baden"},"canton":{"key":"19","code":"AG","name":"Aargau"},"status":"Real"},{"key":"10106662","name":"Zelgstrasse","postalCode":"5430","locality":"Wettingen","commune":{"key":"4045","name":"Wettingen","shortName":"Wettingen"},"district":{"key":"1902","name":"Bezirk Baden"},"canton":{"key":"19","code":"AG","name":"Aargau"},"status":"Real"},{"key":"10092763","name":"Zentralstrasse","postalCode":"5430","locality":"Wettingen","commune":{"key":"4045","name":"Wettingen","shortName":"Wettingen"},"district":{"key":"1902","name":"Bezirk Baden"},"canton":{"key":"19","code":"AG","name":"Aargau"},"status":"Real"},{"key":"10239052","name":"Zindelenweg","postalCode":"5430","locality":"Wettingen","commune":{"key":"4045","name":"Wettingen","shortName":"Wettingen"},"district":{"key":"1902","name":"Bezirk Baden"},"canton":{"key":"19","code":"AG","name":"Aargau"},"status":"Real"},{"key":"10239056","name":"Zivilweg","postalCode":"5430","locality":"Wettingen","commune":{"key":"4045","name":"Wettingen","shortName":"Wettingen"},"district":{"key":"1902","name":"Bezirk Baden"},"canton":{"key":"19","code":"AG","name":"Aargau"},"status":"Real"},{"key":"10039653","name":"Zollhausweg","postalCode":"5430","locality":"Wettingen","commune":{"key":"4045","name":"Wettingen","shortName":"Wettingen"},"district":{"key":"1902","name":"Bezirk Baden"},"canton":{"key":"19","code":"AG","name":"Aargau"},"status":"Real"},]