[{"name":"Adlerwirtsweg","postalCode":"76596","locality":"Forbach","municipality":{"key":"08216013","name":"Forbach","type":"Kreisangehörige_Gemeinde"},"district":{"key":"08216","name":"Rastatt","type":"Landkreis"},"federalState":{"key":"08","name":"Baden-Württemberg"}},{"name":"Alte Bahntrasse Schwarzenbachtalsperre","postalCode":"76596","locality":"Forbach","municipality":{"key":"08216013","name":"Forbach","type":"Kreisangehörige_Gemeinde"},"district":{"key":"08216","name":"Rastatt","type":"Landkreis"},"federalState":{"key":"08","name":"Baden-Württemberg"}},{"name":"Alte Heiligenstr.","postalCode":"76596","locality":"Forbach","municipality":{"key":"08216013","name":"Forbach","type":"Kreisangehörige_Gemeinde"},"district":{"key":"08216","name":"Rastatt","type":"Landkreis"},"federalState":{"key":"08","name":"Baden-Württemberg"}},{"name":"Alte Landstr.","postalCode":"76596","locality":"Forbach","municipality":{"key":"08216013","name":"Forbach","type":"Kreisangehörige_Gemeinde"},"district":{"key":"08216","name":"Rastatt","type":"Landkreis"},"federalState":{"key":"08","name":"Baden-Württemberg"}},{"name":"Alter Harzweg","postalCode":"76596","locality":"Forbach","municipality":{"key":"08216013","name":"Forbach","type":"Kreisangehörige_Gemeinde"},"district":{"key":"08216","name":"Rastatt","type":"Landkreis"},"federalState":{"key":"08","name":"Baden-Württemberg"}},{"name":"Alter Kirchweg","postalCode":"76596","locality":"Forbach","municipality":{"key":"08216013","name":"Forbach","type":"Kreisangehörige_Gemeinde"},"district":{"key":"08216","name":"Rastatt","type":"Landkreis"},"federalState":{"key":"08","name":"Baden-Württemberg"}},{"name":"Alte Str.","postalCode":"76596","locality":"Forbach","municipality":{"key":"08216013","name":"Forbach","type":"Kreisangehörige_Gemeinde"},"district":{"key":"08216","name":"Rastatt","type":"Landkreis"},"federalState":{"key":"08","name":"Baden-Württemberg"}},{"name":"Alte Talstr.","postalCode":"76596","locality":"Forbach","municipality":{"key":"08216013","name":"Forbach","type":"Kreisangehörige_Gemeinde"},"district":{"key":"08216","name":"Rastatt","type":"Landkreis"},"federalState":{"key":"08","name":"Baden-Württemberg"}},{"name":"Alte Weinstr.","postalCode":"76596","locality":"Forbach","municipality":{"key":"08216013","name":"Forbach","type":"Kreisangehörige_Gemeinde"},"district":{"key":"08216","name":"Rastatt","type":"Landkreis"},"federalState":{"key":"08","name":"Baden-Württemberg"}},{"name":"Am Höfelskopf","postalCode":"76596","locality":"Forbach","municipality":{"key":"08216013","name":"Forbach","type":"Kreisangehörige_Gemeinde"},"district":{"key":"08216","name":"Rastatt","type":"Landkreis"},"federalState":{"key":"08","name":"Baden-Württemberg"}},{"name":"Am Hungerberg","postalCode":"76596","locality":"Forbach","municipality":{"key":"08216013","name":"Forbach","type":"Kreisangehörige_Gemeinde"},"district":{"key":"08216","name":"Rastatt","type":"Landkreis"},"federalState":{"key":"08","name":"Baden-Württemberg"}},{"name":"Am Skihang","postalCode":"76596","locality":"Forbach","municipality":{"key":"08216013","name":"Forbach","type":"Kreisangehörige_Gemeinde"},"district":{"key":"08216","name":"Rastatt","type":"Landkreis"},"federalState":{"key":"08","name":"Baden-Württemberg"}},{"name":"Am Südhang","postalCode":"76596","locality":"Forbach","municipality":{"key":"08216013","name":"Forbach","type":"Kreisangehörige_Gemeinde"},"district":{"key":"08216","name":"Rastatt","type":"Landkreis"},"federalState":{"key":"08","name":"Baden-Württemberg"}},{"name":"Armenpfad","postalCode":"76596","locality":"Forbach","municipality":{"key":"08216013","name":"Forbach","type":"Kreisangehörige_Gemeinde"},"district":{"key":"08216","name":"Rastatt","type":"Landkreis"},"federalState":{"key":"08","name":"Baden-Württemberg"}},{"name":"Aschenplatz","postalCode":"76596","locality":"Forbach","municipality":{"key":"08216013","name":"Forbach","type":"Kreisangehörige_Gemeinde"},"district":{"key":"08216","name":"Rastatt","type":"Landkreis"},"federalState":{"key":"08","name":"Baden-Württemberg"}},{"name":"Auerhahnschleife","postalCode":"76596","locality":"Forbach","municipality":{"key":"08216013","name":"Forbach","type":"Kreisangehörige_Gemeinde"},"district":{"key":"08216","name":"Rastatt","type":"Landkreis"},"federalState":{"key":"08","name":"Baden-Württemberg"}},{"name":"Auf der Ebene","postalCode":"76596","locality":"Forbach","municipality":{"key":"08216013","name":"Forbach","type":"Kreisangehörige_Gemeinde"},"district":{"key":"08216","name":"Rastatt","type":"Landkreis"},"federalState":{"key":"08","name":"Baden-Württemberg"}},{"name":"Bachaue","postalCode":"76596","locality":"Forbach","municipality":{"key":"08216013","name":"Forbach","type":"Kreisangehörige_Gemeinde"},"district":{"key":"08216","name":"Rastatt","type":"Landkreis"},"federalState":{"key":"08","name":"Baden-Württemberg"}},{"name":"Badener Busch Schleife","postalCode":"76596","locality":"Forbach","municipality":{"key":"08216013","name":"Forbach","type":"Kreisangehörige_Gemeinde"},"district":{"key":"08216","name":"Rastatt","type":"Landkreis"},"federalState":{"key":"08","name":"Baden-Württemberg"}},{"name":"Bahnhofstr.","postalCode":"76596","locality":"Forbach","municipality":{"key":"08216013","name":"Forbach","type":"Kreisangehörige_Gemeinde"},"district":{"key":"08216","name":"Rastatt","type":"Landkreis"},"federalState":{"key":"08","name":"Baden-Württemberg"}},{"name":"Bäresteinstr.","postalCode":"76596","locality":"Forbach","municipality":{"key":"08216013","name":"Forbach","type":"Kreisangehörige_Gemeinde"},"district":{"key":"08216","name":"Rastatt","type":"Landkreis"},"federalState":{"key":"08","name":"Baden-Württemberg"}},{"name":"Beckerweg Nord","postalCode":"76596","locality":"Forbach","municipality":{"key":"08216013","name":"Forbach","type":"Kreisangehörige_Gemeinde"},"district":{"key":"08216","name":"Rastatt","type":"Landkreis"},"federalState":{"key":"08","name":"Baden-Württemberg"}},{"name":"Bergstr.","postalCode":"76596","locality":"Forbach","municipality":{"key":"08216013","name":"Forbach","type":"Kreisangehörige_Gemeinde"},"district":{"key":"08216","name":"Rastatt","type":"Landkreis"},"federalState":{"key":"08","name":"Baden-Württemberg"}},{"name":"Bermersbachstr.","postalCode":"76596","locality":"Forbach","municipality":{"key":"08216013","name":"Forbach","type":"Kreisangehörige_Gemeinde"},"district":{"key":"08216","name":"Rastatt","type":"Landkreis"},"federalState":{"key":"08","name":"Baden-Württemberg"}},{"name":"Betende Hände Rundweg","postalCode":"76596","locality":"Forbach","municipality":{"key":"08216013","name":"Forbach","type":"Kreisangehörige_Gemeinde"},"district":{"key":"08216","name":"Rastatt","type":"Landkreis"},"federalState":{"key":"08","name":"Baden-Württemberg"}},{"name":"Biberach","postalCode":"76596","locality":"Forbach","municipality":{"key":"08216013","name":"Forbach","type":"Kreisangehörige_Gemeinde"},"district":{"key":"08216","name":"Rastatt","type":"Landkreis"},"federalState":{"key":"08","name":"Baden-Württemberg"}},{"name":"Birket","postalCode":"76596","locality":"Forbach","municipality":{"key":"08216013","name":"Forbach","type":"Kreisangehörige_Gemeinde"},"district":{"key":"08216","name":"Rastatt","type":"Landkreis"},"federalState":{"key":"08","name":"Baden-Württemberg"}},{"name":"Birket-Kirren-Runde","postalCode":"76596","locality":"Forbach","municipality":{"key":"08216013","name":"Forbach","type":"Kreisangehörige_Gemeinde"},"district":{"key":"08216","name":"Rastatt","type":"Landkreis"},"federalState":{"key":"08","name":"Baden-Württemberg"}},{"name":"Braidstr.","postalCode":"76596","locality":"Forbach","municipality":{"key":"08216013","name":"Forbach","type":"Kreisangehörige_Gemeinde"},"district":{"key":"08216","name":"Rastatt","type":"Landkreis"},"federalState":{"key":"08","name":"Baden-Württemberg"}},{"name":"Brennwaldweg","postalCode":"76596","locality":"Forbach","municipality":{"key":"08216013","name":"Forbach","type":"Kreisangehörige_Gemeinde"},"district":{"key":"08216","name":"Rastatt","type":"Landkreis"},"federalState":{"key":"08","name":"Baden-Württemberg"}},{"name":"Brückwaldanlage","postalCode":"76596","locality":"Forbach","municipality":{"key":"08216013","name":"Forbach","type":"Kreisangehörige_Gemeinde"},"district":{"key":"08216","name":"Rastatt","type":"Landkreis"},"federalState":{"key":"08","name":"Baden-Württemberg"}},{"name":"Brückwaldstr.","postalCode":"76596","locality":"Forbach","municipality":{"key":"08216013","name":"Forbach","type":"Kreisangehörige_Gemeinde"},"district":{"key":"08216","name":"Rastatt","type":"Landkreis"},"federalState":{"key":"08","name":"Baden-Württemberg"}},{"name":"Brückwaldweg","postalCode":"76596","locality":"Forbach","municipality":{"key":"08216013","name":"Forbach","type":"Kreisangehörige_Gemeinde"},"district":{"key":"08216","name":"Rastatt","type":"Landkreis"},"federalState":{"key":"08","name":"Baden-Württemberg"}},{"name":"Brückwaldweg / Eckweg","postalCode":"76596","locality":"Forbach","municipality":{"key":"08216013","name":"Forbach","type":"Kreisangehörige_Gemeinde"},"district":{"key":"08216","name":"Rastatt","type":"Landkreis"},"federalState":{"key":"08","name":"Baden-Württemberg"}},{"name":"Brunnenhalde","postalCode":"76596","locality":"Forbach","municipality":{"key":"08216013","name":"Forbach","type":"Kreisangehörige_Gemeinde"},"district":{"key":"08216","name":"Rastatt","type":"Landkreis"},"federalState":{"key":"08","name":"Baden-Württemberg"}},{"name":"Brunnenstr.","postalCode":"76596","locality":"Forbach","municipality":{"key":"08216013","name":"Forbach","type":"Kreisangehörige_Gemeinde"},"district":{"key":"08216","name":"Rastatt","type":"Landkreis"},"federalState":{"key":"08","name":"Baden-Württemberg"}},{"name":"Brunnenweg","postalCode":"76596","locality":"Forbach","municipality":{"key":"08216013","name":"Forbach","type":"Kreisangehörige_Gemeinde"},"district":{"key":"08216","name":"Rastatt","type":"Landkreis"},"federalState":{"key":"08","name":"Baden-Württemberg"}},{"name":"Bubengasse","postalCode":"76596","locality":"Forbach","municipality":{"key":"08216013","name":"Forbach","type":"Kreisangehörige_Gemeinde"},"district":{"key":"08216","name":"Rastatt","type":"Landkreis"},"federalState":{"key":"08","name":"Baden-Württemberg"}},{"name":"Büchetweg","postalCode":"76596","locality":"Forbach","municipality":{"key":"08216013","name":"Forbach","type":"Kreisangehörige_Gemeinde"},"district":{"key":"08216","name":"Rastatt","type":"Landkreis"},"federalState":{"key":"08","name":"Baden-Württemberg"}},{"name":"Bühnstegenweg","postalCode":"76596","locality":"Forbach","municipality":{"key":"08216013","name":"Forbach","type":"Kreisangehörige_Gemeinde"},"district":{"key":"08216","name":"Rastatt","type":"Landkreis"},"federalState":{"key":"08","name":"Baden-Württemberg"}},{"name":"Büsbergweg","postalCode":"76596","locality":"Forbach","municipality":{"key":"08216013","name":"Forbach","type":"Kreisangehörige_Gemeinde"},"district":{"key":"08216","name":"Rastatt","type":"Landkreis"},"federalState":{"key":"08","name":"Baden-Württemberg"}},{"name":"Carl-Benz-Str.","postalCode":"76437","locality":"Rastatt","municipality":{"key":"08216043","name":"Rastatt, Stadt","type":"Große_Kreisstadt"},"district":{"key":"08216","name":"Rastatt","type":"Landkreis"},"federalState":{"key":"08","name":"Baden-Württemberg"}},{"name":"Carl-Friedrich-Goerdeler-Str.","postalCode":"76437","locality":"Rastatt","municipality":{"key":"08216043","name":"Rastatt, Stadt","type":"Große_Kreisstadt"},"district":{"key":"08216","name":"Rastatt","type":"Landkreis"},"federalState":{"key":"08","name":"Baden-Württemberg"}},{"name":"Carl-Friedrich-Str.","postalCode":"76437","locality":"Rastatt","municipality":{"key":"08216043","name":"Rastatt, Stadt","type":"Große_Kreisstadt"},"district":{"key":"08216","name":"Rastatt","type":"Landkreis"},"federalState":{"key":"08","name":"Baden-Württemberg"}},{"name":"Carl-Maria-von-Weber-Str.","postalCode":"76437","locality":"Rastatt","municipality":{"key":"08216043","name":"Rastatt, Stadt","type":"Große_Kreisstadt"},"district":{"key":"08216","name":"Rastatt","type":"Landkreis"},"federalState":{"key":"08","name":"Baden-Württemberg"}},{"name":"Carl-Schurz-Str.","postalCode":"76437","locality":"Rastatt","municipality":{"key":"08216043","name":"Rastatt, Stadt","type":"Große_Kreisstadt"},"district":{"key":"08216","name":"Rastatt","type":"Landkreis"},"federalState":{"key":"08","name":"Baden-Württemberg"}},{"name":"Dobelbachweg","postalCode":"76596","locality":"Forbach","municipality":{"key":"08216013","name":"Forbach","type":"Kreisangehörige_Gemeinde"},"district":{"key":"08216","name":"Rastatt","type":"Landkreis"},"federalState":{"key":"08","name":"Baden-Württemberg"}},{"name":"Dorfweg","postalCode":"76596","locality":"Forbach","municipality":{"key":"08216013","name":"Forbach","type":"Kreisangehörige_Gemeinde"},"district":{"key":"08216","name":"Rastatt","type":"Landkreis"},"federalState":{"key":"08","name":"Baden-Württemberg"}},{"name":"Dreikohlplattenweg","postalCode":"76596","locality":"Forbach","municipality":{"key":"08216013","name":"Forbach","type":"Kreisangehörige_Gemeinde"},"district":{"key":"08216","name":"Rastatt","type":"Landkreis"},"federalState":{"key":"08","name":"Baden-Württemberg"}},{"name":"Eckkopfgrat","postalCode":"76596","locality":"Forbach","municipality":{"key":"08216013","name":"Forbach","type":"Kreisangehörige_Gemeinde"},"district":{"key":"08216","name":"Rastatt","type":"Landkreis"},"federalState":{"key":"08","name":"Baden-Württemberg"}},{"name":"Eckkopfstr.","postalCode":"76596","locality":"Forbach","municipality":{"key":"08216013","name":"Forbach","type":"Kreisangehörige_Gemeinde"},"district":{"key":"08216","name":"Rastatt","type":"Landkreis"},"federalState":{"key":"08","name":"Baden-Württemberg"}},{"name":"Eckstr.","postalCode":"76596","locality":"Forbach","municipality":{"key":"08216013","name":"Forbach","type":"Kreisangehörige_Gemeinde"},"district":{"key":"08216","name":"Rastatt","type":"Landkreis"},"federalState":{"key":"08","name":"Baden-Württemberg"}},{"name":"Eichackerstr.","postalCode":"76596","locality":"Forbach","municipality":{"key":"08216013","name":"Forbach","type":"Kreisangehörige_Gemeinde"},"district":{"key":"08216","name":"Rastatt","type":"Landkreis"},"federalState":{"key":"08","name":"Baden-Württemberg"}},{"name":"Erbersbronn","postalCode":"76596","locality":"Forbach","municipality":{"key":"08216013","name":"Forbach","type":"Kreisangehörige_Gemeinde"},"district":{"key":"08216","name":"Rastatt","type":"Landkreis"},"federalState":{"key":"08","name":"Baden-Württemberg"}},{"name":"Eugen-Holtzmann-Str.","postalCode":"76596","locality":"Forbach","municipality":{"key":"08216013","name":"Forbach","type":"Kreisangehörige_Gemeinde"},"district":{"key":"08216","name":"Rastatt","type":"Landkreis"},"federalState":{"key":"08","name":"Baden-Württemberg"}},{"name":"Eulenfelsenstr.","postalCode":"76596","locality":"Forbach","municipality":{"key":"08216013","name":"Forbach","type":"Kreisangehörige_Gemeinde"},"district":{"key":"08216","name":"Rastatt","type":"Landkreis"},"federalState":{"key":"08","name":"Baden-Württemberg"}},{"name":"Fischerweg","postalCode":"76596","locality":"Forbach","municipality":{"key":"08216013","name":"Forbach","type":"Kreisangehörige_Gemeinde"},"district":{"key":"08216","name":"Rastatt","type":"Landkreis"},"federalState":{"key":"08","name":"Baden-Württemberg"}},{"name":"Fliegenlochweg","postalCode":"76596","locality":"Forbach","municipality":{"key":"08216013","name":"Forbach","type":"Kreisangehörige_Gemeinde"},"district":{"key":"08216","name":"Rastatt","type":"Landkreis"},"federalState":{"key":"08","name":"Baden-Württemberg"}},{"name":"Forststr.","postalCode":"76596","locality":"Forbach","municipality":{"key":"08216013","name":"Forbach","type":"Kreisangehörige_Gemeinde"},"district":{"key":"08216","name":"Rastatt","type":"Landkreis"},"federalState":{"key":"08","name":"Baden-Württemberg"}},{"name":"Frankenbachweg","postalCode":"76596","locality":"Forbach","municipality":{"key":"08216013","name":"Forbach","type":"Kreisangehörige_Gemeinde"},"district":{"key":"08216","name":"Rastatt","type":"Landkreis"},"federalState":{"key":"08","name":"Baden-Württemberg"}},{"name":"Friedhofstr.","postalCode":"76596","locality":"Forbach","municipality":{"key":"08216013","name":"Forbach","type":"Kreisangehörige_Gemeinde"},"district":{"key":"08216","name":"Rastatt","type":"Landkreis"},"federalState":{"key":"08","name":"Baden-Württemberg"}},{"name":"Friedrichstr.","postalCode":"76596","locality":"Forbach","municipality":{"key":"08216013","name":"Forbach","type":"Kreisangehörige_Gemeinde"},"district":{"key":"08216","name":"Rastatt","type":"Landkreis"},"federalState":{"key":"08","name":"Baden-Württemberg"}},{"name":"Fuchsweg","postalCode":"76596","locality":"Forbach","municipality":{"key":"08216013","name":"Forbach","type":"Kreisangehörige_Gemeinde"},"district":{"key":"08216","name":"Rastatt","type":"Landkreis"},"federalState":{"key":"08","name":"Baden-Württemberg"}},{"name":"Fürholzstr.","postalCode":"76596","locality":"Forbach","municipality":{"key":"08216013","name":"Forbach","type":"Kreisangehörige_Gemeinde"},"district":{"key":"08216","name":"Rastatt","type":"Landkreis"},"federalState":{"key":"08","name":"Baden-Württemberg"}},{"name":"Gartenstr.","postalCode":"76596","locality":"Forbach","municipality":{"key":"08216013","name":"Forbach","type":"Kreisangehörige_Gemeinde"},"district":{"key":"08216","name":"Rastatt","type":"Landkreis"},"federalState":{"key":"08","name":"Baden-Württemberg"}},{"name":"Gernelsweg","postalCode":"76596","locality":"Forbach","municipality":{"key":"08216013","name":"Forbach","type":"Kreisangehörige_Gemeinde"},"district":{"key":"08216","name":"Rastatt","type":"Landkreis"},"federalState":{"key":"08","name":"Baden-Württemberg"}},{"name":"Gernweg","postalCode":"76596","locality":"Forbach","municipality":{"key":"08216013","name":"Forbach","type":"Kreisangehörige_Gemeinde"},"district":{"key":"08216","name":"Rastatt","type":"Landkreis"},"federalState":{"key":"08","name":"Baden-Württemberg"}},{"name":"Giersteinstr.","postalCode":"76596","locality":"Forbach","municipality":{"key":"08216013","name":"Forbach","type":"Kreisangehörige_Gemeinde"},"district":{"key":"08216","name":"Rastatt","type":"Landkreis"},"federalState":{"key":"08","name":"Baden-Württemberg"}},{"name":"Glasmißstr.","postalCode":"76596","locality":"Forbach","municipality":{"key":"08216013","name":"Forbach","type":"Kreisangehörige_Gemeinde"},"district":{"key":"08216","name":"Rastatt","type":"Landkreis"},"federalState":{"key":"08","name":"Baden-Württemberg"}},{"name":"Gräbengasse","postalCode":"76596","locality":"Forbach","municipality":{"key":"08216013","name":"Forbach","type":"Kreisangehörige_Gemeinde"},"district":{"key":"08216","name":"Rastatt","type":"Landkreis"},"federalState":{"key":"08","name":"Baden-Württemberg"}},{"name":"Grossgartenweg","postalCode":"76596","locality":"Forbach","municipality":{"key":"08216013","name":"Forbach","type":"Kreisangehörige_Gemeinde"},"district":{"key":"08216","name":"Rastatt","type":"Landkreis"},"federalState":{"key":"08","name":"Baden-Württemberg"}},{"name":"Habersbergweg","postalCode":"76596","locality":"Forbach","municipality":{"key":"08216013","name":"Forbach","type":"Kreisangehörige_Gemeinde"},"district":{"key":"08216","name":"Rastatt","type":"Landkreis"},"federalState":{"key":"08","name":"Baden-Württemberg"}},{"name":"Hackenstr.","postalCode":"76596","locality":"Forbach","municipality":{"key":"08216013","name":"Forbach","type":"Kreisangehörige_Gemeinde"},"district":{"key":"08216","name":"Rastatt","type":"Landkreis"},"federalState":{"key":"08","name":"Baden-Württemberg"}},{"name":"Hallochweg","postalCode":"76596","locality":"Forbach","municipality":{"key":"08216013","name":"Forbach","type":"Kreisangehörige_Gemeinde"},"district":{"key":"08216","name":"Rastatt","type":"Landkreis"},"federalState":{"key":"08","name":"Baden-Württemberg"}},{"name":"Hardtkopfweg","postalCode":"76596","locality":"Forbach","municipality":{"key":"08216013","name":"Forbach","type":"Kreisangehörige_Gemeinde"},"district":{"key":"08216","name":"Rastatt","type":"Landkreis"},"federalState":{"key":"08","name":"Baden-Württemberg"}},{"name":"Harzweg","postalCode":"76596","locality":"Forbach","municipality":{"key":"08216013","name":"Forbach","type":"Kreisangehörige_Gemeinde"},"district":{"key":"08216","name":"Rastatt","type":"Landkreis"},"federalState":{"key":"08","name":"Baden-Württemberg"}},{"name":"Haulerstr.","postalCode":"76596","locality":"Forbach","municipality":{"key":"08216013","name":"Forbach","type":"Kreisangehörige_Gemeinde"},"district":{"key":"08216","name":"Rastatt","type":"Landkreis"},"federalState":{"key":"08","name":"Baden-Württemberg"}},{"name":"Hauptstr.","postalCode":"76596","locality":"Forbach","municipality":{"key":"08216013","name":"Forbach","type":"Kreisangehörige_Gemeinde"},"district":{"key":"08216","name":"Rastatt","type":"Landkreis"},"federalState":{"key":"08","name":"Baden-Württemberg"}},{"name":"Heiligenwaldweg","postalCode":"76596","locality":"Forbach","municipality":{"key":"08216013","name":"Forbach","type":"Kreisangehörige_Gemeinde"},"district":{"key":"08216","name":"Rastatt","type":"Landkreis"},"federalState":{"key":"08","name":"Baden-Württemberg"}},{"name":"Heppenrückenweg","postalCode":"76596","locality":"Forbach","municipality":{"key":"08216013","name":"Forbach","type":"Kreisangehörige_Gemeinde"},"district":{"key":"08216","name":"Rastatt","type":"Landkreis"},"federalState":{"key":"08","name":"Baden-Württemberg"}},{"name":"Herdweg","postalCode":"76596","locality":"Forbach","municipality":{"key":"08216013","name":"Forbach","type":"Kreisangehörige_Gemeinde"},"district":{"key":"08216","name":"Rastatt","type":"Landkreis"},"federalState":{"key":"08","name":"Baden-Württemberg"}},{"name":"Herrenweg","postalCode":"76596","locality":"Forbach","municipality":{"key":"08216013","name":"Forbach","type":"Kreisangehörige_Gemeinde"},"district":{"key":"08216","name":"Rastatt","type":"Landkreis"},"federalState":{"key":"08","name":"Baden-Württemberg"}},{"name":"Herrenwies","postalCode":"76596","locality":"Forbach","municipality":{"key":"08216013","name":"Forbach","type":"Kreisangehörige_Gemeinde"},"district":{"key":"08216","name":"Rastatt","type":"Landkreis"},"federalState":{"key":"08","name":"Baden-Württemberg"}},{"name":"Herrenwieser Schwallung","postalCode":"76596","locality":"Forbach","municipality":{"key":"08216013","name":"Forbach","type":"Kreisangehörige_Gemeinde"},"district":{"key":"08216","name":"Rastatt","type":"Landkreis"},"federalState":{"key":"08","name":"Baden-Württemberg"}},{"name":"Herrenwieserweg","postalCode":"76596","locality":"Forbach","municipality":{"key":"08216013","name":"Forbach","type":"Kreisangehörige_Gemeinde"},"district":{"key":"08216","name":"Rastatt","type":"Landkreis"},"federalState":{"key":"08","name":"Baden-Württemberg"}},{"name":"Herrenwieser Weg","postalCode":"77815","locality":"Forbach","municipality":{"key":"08216013","name":"Forbach","type":"Kreisangehörige_Gemeinde"},"district":{"key":"08216","name":"Rastatt","type":"Landkreis"},"federalState":{"key":"08","name":"Baden-Württemberg"}},{"name":"Hinterlangenbach","postalCode":"76596","locality":"Forbach","municipality":{"key":"08216013","name":"Forbach","type":"Kreisangehörige_Gemeinde"},"district":{"key":"08216","name":"Rastatt","type":"Landkreis"},"federalState":{"key":"08","name":"Baden-Württemberg"}},{"name":"Hochstättstr.","postalCode":"76596","locality":"Forbach","municipality":{"key":"08216013","name":"Forbach","type":"Kreisangehörige_Gemeinde"},"district":{"key":"08216","name":"Rastatt","type":"Landkreis"},"federalState":{"key":"08","name":"Baden-Württemberg"}},{"name":"Hochwaldschleifweg","postalCode":"76596","locality":"Forbach","municipality":{"key":"08216013","name":"Forbach","type":"Kreisangehörige_Gemeinde"},"district":{"key":"08216","name":"Rastatt","type":"Landkreis"},"federalState":{"key":"08","name":"Baden-Württemberg"}},{"name":"Hohlesteinstr.","postalCode":"76596","locality":"Forbach","municipality":{"key":"08216013","name":"Forbach","type":"Kreisangehörige_Gemeinde"},"district":{"key":"08216","name":"Rastatt","type":"Landkreis"},"federalState":{"key":"08","name":"Baden-Württemberg"}},{"name":"Hohlesteinweg","postalCode":"76596","locality":"Forbach","municipality":{"key":"08216013","name":"Forbach","type":"Kreisangehörige_Gemeinde"},"district":{"key":"08216","name":"Rastatt","type":"Landkreis"},"federalState":{"key":"08","name":"Baden-Württemberg"}},{"name":"Holderbronnenweg","postalCode":"76596","locality":"Forbach","municipality":{"key":"08216013","name":"Forbach","type":"Kreisangehörige_Gemeinde"},"district":{"key":"08216","name":"Rastatt","type":"Landkreis"},"federalState":{"key":"08","name":"Baden-Württemberg"}},{"name":"Holländerweg","postalCode":"76596","locality":"Forbach","municipality":{"key":"08216013","name":"Forbach","type":"Kreisangehörige_Gemeinde"},"district":{"key":"08216","name":"Rastatt","type":"Landkreis"},"federalState":{"key":"08","name":"Baden-Württemberg"}},{"name":"Höllenhutweg","postalCode":"76596","locality":"Forbach","municipality":{"key":"08216013","name":"Forbach","type":"Kreisangehörige_Gemeinde"},"district":{"key":"08216","name":"Rastatt","type":"Landkreis"},"federalState":{"key":"08","name":"Baden-Württemberg"}},{"name":"Hölleweg","postalCode":"76596","locality":"Forbach","municipality":{"key":"08216013","name":"Forbach","type":"Kreisangehörige_Gemeinde"},"district":{"key":"08216","name":"Rastatt","type":"Landkreis"},"federalState":{"key":"08","name":"Baden-Württemberg"}},{"name":"Horizontalweg","postalCode":"76596","locality":"Forbach","municipality":{"key":"08216013","name":"Forbach","type":"Kreisangehörige_Gemeinde"},"district":{"key":"08216","name":"Rastatt","type":"Landkreis"},"federalState":{"key":"08","name":"Baden-Württemberg"}},{"name":"Hundseckstr.","postalCode":"76596","locality":"Forbach","municipality":{"key":"08216013","name":"Forbach","type":"Kreisangehörige_Gemeinde"},"district":{"key":"08216","name":"Rastatt","type":"Landkreis"},"federalState":{"key":"08","name":"Baden-Württemberg"}},{"name":"Hungerbergweg","postalCode":"76596","locality":"Forbach","municipality":{"key":"08216013","name":"Forbach","type":"Kreisangehörige_Gemeinde"},"district":{"key":"08216","name":"Rastatt","type":"Landkreis"},"federalState":{"key":"08","name":"Baden-Württemberg"}},{"name":"Hüttenwaldschleifweg","postalCode":"76596","locality":"Forbach","municipality":{"key":"08216013","name":"Forbach","type":"Kreisangehörige_Gemeinde"},"district":{"key":"08216","name":"Rastatt","type":"Landkreis"},"federalState":{"key":"08","name":"Baden-Württemberg"}},{"name":"Im Birngarten","postalCode":"76596","locality":"Forbach","municipality":{"key":"08216013","name":"Forbach","type":"Kreisangehörige_Gemeinde"},"district":{"key":"08216","name":"Rastatt","type":"Landkreis"},"federalState":{"key":"08","name":"Baden-Württemberg"}},{"name":"Im Glaset","postalCode":"76596","locality":"Forbach","municipality":{"key":"08216013","name":"Forbach","type":"Kreisangehörige_Gemeinde"},"district":{"key":"08216","name":"Rastatt","type":"Landkreis"},"federalState":{"key":"08","name":"Baden-Württemberg"}},{"name":"Im Haberäckerle","postalCode":"76596","locality":"Forbach","municipality":{"key":"08216013","name":"Forbach","type":"Kreisangehörige_Gemeinde"},"district":{"key":"08216","name":"Rastatt","type":"Landkreis"},"federalState":{"key":"08","name":"Baden-Württemberg"}},{"name":"Im Röhret","postalCode":"76596","locality":"Forbach","municipality":{"key":"08216013","name":"Forbach","type":"Kreisangehörige_Gemeinde"},"district":{"key":"08216","name":"Rastatt","type":"Landkreis"},"federalState":{"key":"08","name":"Baden-Württemberg"}},{"name":"Im Wiesengrund","postalCode":"76596","locality":"Forbach","municipality":{"key":"08216013","name":"Forbach","type":"Kreisangehörige_Gemeinde"},"district":{"key":"08216","name":"Rastatt","type":"Landkreis"},"federalState":{"key":"08","name":"Baden-Württemberg"}},{"name":"In der Emisau","postalCode":"76596","locality":"Forbach","municipality":{"key":"08216013","name":"Forbach","type":"Kreisangehörige_Gemeinde"},"district":{"key":"08216","name":"Rastatt","type":"Landkreis"},"federalState":{"key":"08","name":"Baden-Württemberg"}},{"name":"Jägerbronnweg","postalCode":"76596","locality":"Forbach","municipality":{"key":"08216013","name":"Forbach","type":"Kreisangehörige_Gemeinde"},"district":{"key":"08216","name":"Rastatt","type":"Landkreis"},"federalState":{"key":"08","name":"Baden-Württemberg"}},{"name":"Kaltenbronner Str.","postalCode":"76596","locality":"Forbach","municipality":{"key":"08216013","name":"Forbach","type":"Kreisangehörige_Gemeinde"},"district":{"key":"08216","name":"Rastatt","type":"Landkreis"},"federalState":{"key":"08","name":"Baden-Württemberg"}},{"name":"Kapellenstr.","postalCode":"76596","locality":"Forbach","municipality":{"key":"08216013","name":"Forbach","type":"Kreisangehörige_Gemeinde"},"district":{"key":"08216","name":"Rastatt","type":"Landkreis"},"federalState":{"key":"08","name":"Baden-Württemberg"}},{"name":"Kastanienweg","postalCode":"76596","locality":"Forbach","municipality":{"key":"08216013","name":"Forbach","type":"Kreisangehörige_Gemeinde"},"district":{"key":"08216","name":"Rastatt","type":"Landkreis"},"federalState":{"key":"08","name":"Baden-Württemberg"}},{"name":"Kastenwies","postalCode":"76596","locality":"Forbach","municipality":{"key":"08216013","name":"Forbach","type":"Kreisangehörige_Gemeinde"},"district":{"key":"08216","name":"Rastatt","type":"Landkreis"},"federalState":{"key":"08","name":"Baden-Württemberg"}},{"name":"Kauersbachbergweg","postalCode":"76596","locality":"Forbach","municipality":{"key":"08216013","name":"Forbach","type":"Kreisangehörige_Gemeinde"},"district":{"key":"08216","name":"Rastatt","type":"Landkreis"},"federalState":{"key":"08","name":"Baden-Württemberg"}},{"name":"Kirchplatz","postalCode":"76596","locality":"Forbach","municipality":{"key":"08216013","name":"Forbach","type":"Kreisangehörige_Gemeinde"},"district":{"key":"08216","name":"Rastatt","type":"Landkreis"},"federalState":{"key":"08","name":"Baden-Württemberg"}},{"name":"Kirchstr.","postalCode":"76596","locality":"Forbach","municipality":{"key":"08216013","name":"Forbach","type":"Kreisangehörige_Gemeinde"},"district":{"key":"08216","name":"Rastatt","type":"Landkreis"},"federalState":{"key":"08","name":"Baden-Württemberg"}},{"name":"Kirchweg","postalCode":"76596","locality":"Forbach","municipality":{"key":"08216013","name":"Forbach","type":"Kreisangehörige_Gemeinde"},"district":{"key":"08216","name":"Rastatt","type":"Landkreis"},"federalState":{"key":"08","name":"Baden-Württemberg"}},{"name":"Kirrenweg","postalCode":"76596","locality":"Forbach","municipality":{"key":"08216013","name":"Forbach","type":"Kreisangehörige_Gemeinde"},"district":{"key":"08216","name":"Rastatt","type":"Landkreis"},"federalState":{"key":"08","name":"Baden-Württemberg"}},{"name":"Kirschbaumwasen","postalCode":"76596","locality":"Forbach","municipality":{"key":"08216013","name":"Forbach","type":"Kreisangehörige_Gemeinde"},"district":{"key":"08216","name":"Rastatt","type":"Landkreis"},"federalState":{"key":"08","name":"Baden-Württemberg"}},{"name":"Klammstr.","postalCode":"76596","locality":"Forbach","municipality":{"key":"08216013","name":"Forbach","type":"Kreisangehörige_Gemeinde"},"district":{"key":"08216","name":"Rastatt","type":"Landkreis"},"federalState":{"key":"08","name":"Baden-Württemberg"}},{"name":"Klingenstr.","postalCode":"76596","locality":"Forbach","municipality":{"key":"08216013","name":"Forbach","type":"Kreisangehörige_Gemeinde"},"district":{"key":"08216","name":"Rastatt","type":"Landkreis"},"federalState":{"key":"08","name":"Baden-Württemberg"}},{"name":"Klotzweg","postalCode":"76596","locality":"Forbach","municipality":{"key":"08216013","name":"Forbach","type":"Kreisangehörige_Gemeinde"},"district":{"key":"08216","name":"Rastatt","type":"Landkreis"},"federalState":{"key":"08","name":"Baden-Württemberg"}},{"name":"Kreisstr.","postalCode":"76596","locality":"Forbach","municipality":{"key":"08216013","name":"Forbach","type":"Kreisangehörige_Gemeinde"},"district":{"key":"08216","name":"Rastatt","type":"Landkreis"},"federalState":{"key":"08","name":"Baden-Württemberg"}},{"name":"Landstr.","postalCode":"76596","locality":"Forbach","municipality":{"key":"08216013","name":"Forbach","type":"Kreisangehörige_Gemeinde"},"district":{"key":"08216","name":"Rastatt","type":"Landkreis"},"federalState":{"key":"08","name":"Baden-Württemberg"}},{"name":"Langenbergweg","postalCode":"76596","locality":"Forbach","municipality":{"key":"08216013","name":"Forbach","type":"Kreisangehörige_Gemeinde"},"district":{"key":"08216","name":"Rastatt","type":"Landkreis"},"federalState":{"key":"08","name":"Baden-Württemberg"}},{"name":"Langenbrander Str.","postalCode":"76596","locality":"Forbach","municipality":{"key":"08216013","name":"Forbach","type":"Kreisangehörige_Gemeinde"},"district":{"key":"08216","name":"Rastatt","type":"Landkreis"},"federalState":{"key":"08","name":"Baden-Württemberg"}},{"name":"Lärchenweg","postalCode":"76596","locality":"Forbach","municipality":{"key":"08216013","name":"Forbach","type":"Kreisangehörige_Gemeinde"},"district":{"key":"08216","name":"Rastatt","type":"Landkreis"},"federalState":{"key":"08","name":"Baden-Württemberg"}},{"name":"Latschigstr.","postalCode":"76596","locality":"Forbach","municipality":{"key":"08216013","name":"Forbach","type":"Kreisangehörige_Gemeinde"},"district":{"key":"08216","name":"Rastatt","type":"Landkreis"},"federalState":{"key":"08","name":"Baden-Württemberg"}},{"name":"Latschigweg","postalCode":"76596","locality":"Forbach","municipality":{"key":"08216013","name":"Forbach","type":"Kreisangehörige_Gemeinde"},"district":{"key":"08216","name":"Rastatt","type":"Landkreis"},"federalState":{"key":"08","name":"Baden-Württemberg"}},{"name":"Laufweg","postalCode":"76596","locality":"Forbach","municipality":{"key":"08216013","name":"Forbach","type":"Kreisangehörige_Gemeinde"},"district":{"key":"08216","name":"Rastatt","type":"Landkreis"},"federalState":{"key":"08","name":"Baden-Württemberg"}},{"name":"Lindenstr.","postalCode":"76596","locality":"Forbach","municipality":{"key":"08216013","name":"Forbach","type":"Kreisangehörige_Gemeinde"},"district":{"key":"08216","name":"Rastatt","type":"Landkreis"},"federalState":{"key":"08","name":"Baden-Württemberg"}},{"name":"Ludwig-Henrich-Weg","postalCode":"76596","locality":"Forbach","municipality":{"key":"08216013","name":"Forbach","type":"Kreisangehörige_Gemeinde"},"district":{"key":"08216","name":"Rastatt","type":"Landkreis"},"federalState":{"key":"08","name":"Baden-Württemberg"}},{"name":"Luisenstr.","postalCode":"76596","locality":"Forbach","municipality":{"key":"08216013","name":"Forbach","type":"Kreisangehörige_Gemeinde"},"district":{"key":"08216","name":"Rastatt","type":"Landkreis"},"federalState":{"key":"08","name":"Baden-Württemberg"}},{"name":"Margaretenstr.","postalCode":"76596","locality":"Forbach","municipality":{"key":"08216013","name":"Forbach","type":"Kreisangehörige_Gemeinde"},"district":{"key":"08216","name":"Rastatt","type":"Landkreis"},"federalState":{"key":"08","name":"Baden-Württemberg"}},{"name":"Marienstr.","postalCode":"76596","locality":"Forbach","municipality":{"key":"08216013","name":"Forbach","type":"Kreisangehörige_Gemeinde"},"district":{"key":"08216","name":"Rastatt","type":"Landkreis"},"federalState":{"key":"08","name":"Baden-Württemberg"}},{"name":"Mittlerer Weg","postalCode":"76596","locality":"Forbach","municipality":{"key":"08216013","name":"Forbach","type":"Kreisangehörige_Gemeinde"},"district":{"key":"08216","name":"Rastatt","type":"Landkreis"},"federalState":{"key":"08","name":"Baden-Württemberg"}},{"name":"Mozartstr.","postalCode":"76596","locality":"Forbach","municipality":{"key":"08216013","name":"Forbach","type":"Kreisangehörige_Gemeinde"},"district":{"key":"08216","name":"Rastatt","type":"Landkreis"},"federalState":{"key":"08","name":"Baden-Württemberg"}},{"name":"Mühlbachweg","postalCode":"76596","locality":"Forbach","municipality":{"key":"08216013","name":"Forbach","type":"Kreisangehörige_Gemeinde"},"district":{"key":"08216","name":"Rastatt","type":"Landkreis"},"federalState":{"key":"08","name":"Baden-Württemberg"}},{"name":"Mühlweg","postalCode":"76596","locality":"Forbach","municipality":{"key":"08216013","name":"Forbach","type":"Kreisangehörige_Gemeinde"},"district":{"key":"08216","name":"Rastatt","type":"Landkreis"},"federalState":{"key":"08","name":"Baden-Württemberg"}},{"name":"Murggarten","postalCode":"76596","locality":"Forbach","municipality":{"key":"08216013","name":"Forbach","type":"Kreisangehörige_Gemeinde"},"district":{"key":"08216","name":"Rastatt","type":"Landkreis"},"federalState":{"key":"08","name":"Baden-Württemberg"}},{"name":"Murgstr.","postalCode":"76596","locality":"Forbach","municipality":{"key":"08216013","name":"Forbach","type":"Kreisangehörige_Gemeinde"},"district":{"key":"08216","name":"Rastatt","type":"Landkreis"},"federalState":{"key":"08","name":"Baden-Württemberg"}},{"name":"Murgtalstr.","postalCode":"76596","locality":"Forbach","municipality":{"key":"08216013","name":"Forbach","type":"Kreisangehörige_Gemeinde"},"district":{"key":"08216","name":"Rastatt","type":"Landkreis"},"federalState":{"key":"08","name":"Baden-Württemberg"}},{"name":"Neue Str.","postalCode":"76596","locality":"Forbach","municipality":{"key":"08216013","name":"Forbach","type":"Kreisangehörige_Gemeinde"},"district":{"key":"08216","name":"Rastatt","type":"Landkreis"},"federalState":{"key":"08","name":"Baden-Württemberg"}},{"name":"Ober der Kelter","postalCode":"76596","locality":"Forbach","municipality":{"key":"08216013","name":"Forbach","type":"Kreisangehörige_Gemeinde"},"district":{"key":"08216","name":"Rastatt","type":"Landkreis"},"federalState":{"key":"08","name":"Baden-Württemberg"}},{"name":"Oberdorfstr.","postalCode":"76596","locality":"Forbach","municipality":{"key":"08216013","name":"Forbach","type":"Kreisangehörige_Gemeinde"},"district":{"key":"08216","name":"Rastatt","type":"Landkreis"},"federalState":{"key":"08","name":"Baden-Württemberg"}},{"name":"Obere Kirchgasse","postalCode":"76596","locality":"Forbach","municipality":{"key":"08216013","name":"Forbach","type":"Kreisangehörige_Gemeinde"},"district":{"key":"08216","name":"Rastatt","type":"Landkreis"},"federalState":{"key":"08","name":"Baden-Württemberg"}},{"name":"Obere Ochsenkopfstr.","postalCode":"76596","locality":"Forbach","municipality":{"key":"08216013","name":"Forbach","type":"Kreisangehörige_Gemeinde"},"district":{"key":"08216","name":"Rastatt","type":"Landkreis"},"federalState":{"key":"08","name":"Baden-Württemberg"}},{"name":"Olympiastr.","postalCode":"76596","locality":"Forbach","municipality":{"key":"08216013","name":"Forbach","type":"Kreisangehörige_Gemeinde"},"district":{"key":"08216","name":"Rastatt","type":"Landkreis"},"federalState":{"key":"08","name":"Baden-Württemberg"}},{"name":"Panoramastr.","postalCode":"76596","locality":"Forbach","municipality":{"key":"08216013","name":"Forbach","type":"Kreisangehörige_Gemeinde"},"district":{"key":"08216","name":"Rastatt","type":"Landkreis"},"federalState":{"key":"08","name":"Baden-Württemberg"}},{"name":"Panoramaweg","postalCode":"76596","locality":"Forbach","municipality":{"key":"08216013","name":"Forbach","type":"Kreisangehörige_Gemeinde"},"district":{"key":"08216","name":"Rastatt","type":"Landkreis"},"federalState":{"key":"08","name":"Baden-Württemberg"}},{"name":"Pavillonweg","postalCode":"76596","locality":"Forbach","municipality":{"key":"08216013","name":"Forbach","type":"Kreisangehörige_Gemeinde"},"district":{"key":"08216","name":"Rastatt","type":"Landkreis"},"federalState":{"key":"08","name":"Baden-Württemberg"}},{"name":"Promenadenweg","postalCode":"76596","locality":"Forbach","municipality":{"key":"08216013","name":"Forbach","type":"Kreisangehörige_Gemeinde"},"district":{"key":"08216","name":"Rastatt","type":"Landkreis"},"federalState":{"key":"08","name":"Baden-Württemberg"}},{"name":"Rainstr.","postalCode":"76596","locality":"Forbach","municipality":{"key":"08216013","name":"Forbach","type":"Kreisangehörige_Gemeinde"},"district":{"key":"08216","name":"Rastatt","type":"Landkreis"},"federalState":{"key":"08","name":"Baden-Württemberg"}},{"name":"Rainweg","postalCode":"76596","locality":"Forbach","municipality":{"key":"08216013","name":"Forbach","type":"Kreisangehörige_Gemeinde"},"district":{"key":"08216","name":"Rastatt","type":"Landkreis"},"federalState":{"key":"08","name":"Baden-Württemberg"}},{"name":"Rathausweg","postalCode":"76596","locality":"Forbach","municipality":{"key":"08216013","name":"Forbach","type":"Kreisangehörige_Gemeinde"},"district":{"key":"08216","name":"Rastatt","type":"Landkreis"},"federalState":{"key":"08","name":"Baden-Württemberg"}},{"name":"Rebbergweg","postalCode":"76596","locality":"Forbach","municipality":{"key":"08216013","name":"Forbach","type":"Kreisangehörige_Gemeinde"},"district":{"key":"08216","name":"Rastatt","type":"Landkreis"},"federalState":{"key":"08","name":"Baden-Württemberg"}},{"name":"Reingartenstr.","postalCode":"76596","locality":"Forbach","municipality":{"key":"08216013","name":"Forbach","type":"Kreisangehörige_Gemeinde"},"district":{"key":"08216","name":"Rastatt","type":"Landkreis"},"federalState":{"key":"08","name":"Baden-Württemberg"}},{"name":"Reitbuckelstr.","postalCode":"76596","locality":"Forbach","municipality":{"key":"08216013","name":"Forbach","type":"Kreisangehörige_Gemeinde"},"district":{"key":"08216","name":"Rastatt","type":"Landkreis"},"federalState":{"key":"08","name":"Baden-Württemberg"}},{"name":"Riedkopfrundweg","postalCode":"76596","locality":"Forbach","municipality":{"key":"08216013","name":"Forbach","type":"Kreisangehörige_Gemeinde"},"district":{"key":"08216","name":"Rastatt","type":"Landkreis"},"federalState":{"key":"08","name":"Baden-Württemberg"}},{"name":"Riesenkopfweg","postalCode":"76596","locality":"Forbach","municipality":{"key":"08216013","name":"Forbach","type":"Kreisangehörige_Gemeinde"},"district":{"key":"08216","name":"Rastatt","type":"Landkreis"},"federalState":{"key":"08","name":"Baden-Württemberg"}},{"name":"Ringbergstr.","postalCode":"76596","locality":"Forbach","municipality":{"key":"08216013","name":"Forbach","type":"Kreisangehörige_Gemeinde"},"district":{"key":"08216","name":"Rastatt","type":"Landkreis"},"federalState":{"key":"08","name":"Baden-Württemberg"}},{"name":"Ringbergweg","postalCode":"76596","locality":"Forbach","municipality":{"key":"08216013","name":"Forbach","type":"Kreisangehörige_Gemeinde"},"district":{"key":"08216","name":"Rastatt","type":"Landkreis"},"federalState":{"key":"08","name":"Baden-Württemberg"}},{"name":"Ringstr.","postalCode":"76596","locality":"Forbach","municipality":{"key":"08216013","name":"Forbach","type":"Kreisangehörige_Gemeinde"},"district":{"key":"08216","name":"Rastatt","type":"Landkreis"},"federalState":{"key":"08","name":"Baden-Württemberg"}},{"name":"Robert-Steinlin-Weg","postalCode":"76596","locality":"Forbach","municipality":{"key":"08216013","name":"Forbach","type":"Kreisangehörige_Gemeinde"},"district":{"key":"08216","name":"Rastatt","type":"Landkreis"},"federalState":{"key":"08","name":"Baden-Württemberg"}},{"name":"Rosshämmesweg","postalCode":"76596","locality":"Forbach","municipality":{"key":"08216013","name":"Forbach","type":"Kreisangehörige_Gemeinde"},"district":{"key":"08216","name":"Rastatt","type":"Landkreis"},"federalState":{"key":"08","name":"Baden-Württemberg"}},{"name":"Rotstr.","postalCode":"76596","locality":"Forbach","municipality":{"key":"08216013","name":"Forbach","type":"Kreisangehörige_Gemeinde"},"district":{"key":"08216","name":"Rastatt","type":"Landkreis"},"federalState":{"key":"08","name":"Baden-Württemberg"}},{"name":"Rudolf-Fettweis-Str.","postalCode":"76596","locality":"Forbach","municipality":{"key":"08216013","name":"Forbach","type":"Kreisangehörige_Gemeinde"},"district":{"key":"08216","name":"Rastatt","type":"Landkreis"},"federalState":{"key":"08","name":"Baden-Württemberg"}},{"name":"Saarstr.","postalCode":"76596","locality":"Forbach","municipality":{"key":"08216013","name":"Forbach","type":"Kreisangehörige_Gemeinde"},"district":{"key":"08216","name":"Rastatt","type":"Landkreis"},"federalState":{"key":"08","name":"Baden-Württemberg"}},{"name":"Sagenweg","postalCode":"76596","locality":"Forbach","municipality":{"key":"08216013","name":"Forbach","type":"Kreisangehörige_Gemeinde"},"district":{"key":"08216","name":"Rastatt","type":"Landkreis"},"federalState":{"key":"08","name":"Baden-Württemberg"}},{"name":"Sägmühlstr.","postalCode":"76596","locality":"Forbach","municipality":{"key":"08216013","name":"Forbach","type":"Kreisangehörige_Gemeinde"},"district":{"key":"08216","name":"Rastatt","type":"Landkreis"},"federalState":{"key":"08","name":"Baden-Württemberg"}},{"name":"Sandweg","postalCode":"76596","locality":"Forbach","municipality":{"key":"08216013","name":"Forbach","type":"Kreisangehörige_Gemeinde"},"district":{"key":"08216","name":"Rastatt","type":"Landkreis"},"federalState":{"key":"08","name":"Baden-Württemberg"}},{"name":"Schach(t)ertweg","postalCode":"76596","locality":"Forbach","municipality":{"key":"08216013","name":"Forbach","type":"Kreisangehörige_Gemeinde"},"district":{"key":"08216","name":"Rastatt","type":"Landkreis"},"federalState":{"key":"08","name":"Baden-Württemberg"}},{"name":"Schifferstr.","postalCode":"76596","locality":"Forbach","municipality":{"key":"08216013","name":"Forbach","type":"Kreisangehörige_Gemeinde"},"district":{"key":"08216","name":"Rastatt","type":"Landkreis"},"federalState":{"key":"08","name":"Baden-Württemberg"}},{"name":"Schollenbergweg","postalCode":"76596","locality":"Forbach","municipality":{"key":"08216013","name":"Forbach","type":"Kreisangehörige_Gemeinde"},"district":{"key":"08216","name":"Rastatt","type":"Landkreis"},"federalState":{"key":"08","name":"Baden-Württemberg"}},{"name":"Schönblick","postalCode":"76596","locality":"Forbach","municipality":{"key":"08216013","name":"Forbach","type":"Kreisangehörige_Gemeinde"},"district":{"key":"08216","name":"Rastatt","type":"Landkreis"},"federalState":{"key":"08","name":"Baden-Württemberg"}},{"name":"Schulstr.","postalCode":"76596","locality":"Forbach","municipality":{"key":"08216013","name":"Forbach","type":"Kreisangehörige_Gemeinde"},"district":{"key":"08216","name":"Rastatt","type":"Landkreis"},"federalState":{"key":"08","name":"Baden-Württemberg"}},{"name":"Schwarzwaldstr.","postalCode":"76596","locality":"Forbach","municipality":{"key":"08216013","name":"Forbach","type":"Kreisangehörige_Gemeinde"},"district":{"key":"08216","name":"Rastatt","type":"Landkreis"},"federalState":{"key":"08","name":"Baden-Württemberg"}},{"name":"Seeuferstr.","postalCode":"76596","locality":"Forbach","municipality":{"key":"08216013","name":"Forbach","type":"Kreisangehörige_Gemeinde"},"district":{"key":"08216","name":"Rastatt","type":"Landkreis"},"federalState":{"key":"08","name":"Baden-Württemberg"}},{"name":"Seeuferweg","postalCode":"76596","locality":"Forbach","municipality":{"key":"08216013","name":"Forbach","type":"Kreisangehörige_Gemeinde"},"district":{"key":"08216","name":"Rastatt","type":"Landkreis"},"federalState":{"key":"08","name":"Baden-Württemberg"}},{"name":"Sersbachstr.","postalCode":"76596","locality":"Forbach","municipality":{"key":"08216013","name":"Forbach","type":"Kreisangehörige_Gemeinde"},"district":{"key":"08216","name":"Rastatt","type":"Landkreis"},"federalState":{"key":"08","name":"Baden-Württemberg"}},{"name":"Sonnenhalde","postalCode":"76596","locality":"Forbach","municipality":{"key":"08216013","name":"Forbach","type":"Kreisangehörige_Gemeinde"},"district":{"key":"08216","name":"Rastatt","type":"Landkreis"},"federalState":{"key":"08","name":"Baden-Württemberg"}},{"name":"Steinbruchweg","postalCode":"76596","locality":"Forbach","municipality":{"key":"08216013","name":"Forbach","type":"Kreisangehörige_Gemeinde"},"district":{"key":"08216","name":"Rastatt","type":"Landkreis"},"federalState":{"key":"08","name":"Baden-Württemberg"}},{"name":"Steinweg","postalCode":"76596","locality":"Forbach","municipality":{"key":"08216013","name":"Forbach","type":"Kreisangehörige_Gemeinde"},"district":{"key":"08216","name":"Rastatt","type":"Landkreis"},"federalState":{"key":"08","name":"Baden-Württemberg"}},{"name":"Stried","postalCode":"76596","locality":"Forbach","municipality":{"key":"08216013","name":"Forbach","type":"Kreisangehörige_Gemeinde"},"district":{"key":"08216","name":"Rastatt","type":"Landkreis"},"federalState":{"key":"08","name":"Baden-Württemberg"}},{"name":"Talblick","postalCode":"76596","locality":"Forbach","municipality":{"key":"08216013","name":"Forbach","type":"Kreisangehörige_Gemeinde"},"district":{"key":"08216","name":"Rastatt","type":"Landkreis"},"federalState":{"key":"08","name":"Baden-Württemberg"}},{"name":"Talstr.","postalCode":"76596","locality":"Forbach","municipality":{"key":"08216013","name":"Forbach","type":"Kreisangehörige_Gemeinde"},"district":{"key":"08216","name":"Rastatt","type":"Landkreis"},"federalState":{"key":"08","name":"Baden-Württemberg"}},{"name":"Tannenweg","postalCode":"76596","locality":"Forbach","municipality":{"key":"08216013","name":"Forbach","type":"Kreisangehörige_Gemeinde"},"district":{"key":"08216","name":"Rastatt","type":"Landkreis"},"federalState":{"key":"08","name":"Baden-Württemberg"}},{"name":"Teichweg","postalCode":"76596","locality":"Forbach","municipality":{"key":"08216013","name":"Forbach","type":"Kreisangehörige_Gemeinde"},"district":{"key":"08216","name":"Rastatt","type":"Landkreis"},"federalState":{"key":"08","name":"Baden-Württemberg"}},{"name":"Untere Birkenaustr.","postalCode":"76596","locality":"Forbach","municipality":{"key":"08216013","name":"Forbach","type":"Kreisangehörige_Gemeinde"},"district":{"key":"08216","name":"Rastatt","type":"Landkreis"},"federalState":{"key":"08","name":"Baden-Württemberg"}},{"name":"Untere Fallbrücke","postalCode":"76596","locality":"Forbach","municipality":{"key":"08216013","name":"Forbach","type":"Kreisangehörige_Gemeinde"},"district":{"key":"08216","name":"Rastatt","type":"Landkreis"},"federalState":{"key":"08","name":"Baden-Württemberg"}},{"name":"Untere Kirchgasse","postalCode":"76596","locality":"Forbach","municipality":{"key":"08216013","name":"Forbach","type":"Kreisangehörige_Gemeinde"},"district":{"key":"08216","name":"Rastatt","type":"Landkreis"},"federalState":{"key":"08","name":"Baden-Württemberg"}},{"name":"Untere Ochsenkopfstr.","postalCode":"76596","locality":"Forbach","municipality":{"key":"08216013","name":"Forbach","type":"Kreisangehörige_Gemeinde"},"district":{"key":"08216","name":"Rastatt","type":"Landkreis"},"federalState":{"key":"08","name":"Baden-Württemberg"}},{"name":"Unterer Eckkopfweg","postalCode":"76596","locality":"Forbach","municipality":{"key":"08216013","name":"Forbach","type":"Kreisangehörige_Gemeinde"},"district":{"key":"08216","name":"Rastatt","type":"Landkreis"},"federalState":{"key":"08","name":"Baden-Württemberg"}},{"name":"Viehläger","postalCode":"76596","locality":"Forbach","municipality":{"key":"08216013","name":"Forbach","type":"Kreisangehörige_Gemeinde"},"district":{"key":"08216","name":"Rastatt","type":"Landkreis"},"federalState":{"key":"08","name":"Baden-Württemberg"}},{"name":"Vogelbachweg","postalCode":"76596","locality":"Forbach","municipality":{"key":"08216013","name":"Forbach","type":"Kreisangehörige_Gemeinde"},"district":{"key":"08216","name":"Rastatt","type":"Landkreis"},"federalState":{"key":"08","name":"Baden-Württemberg"}},{"name":"Vordere Jägerlochweg","postalCode":"76596","locality":"Forbach","municipality":{"key":"08216013","name":"Forbach","type":"Kreisangehörige_Gemeinde"},"district":{"key":"08216","name":"Rastatt","type":"Landkreis"},"federalState":{"key":"08","name":"Baden-Württemberg"}},{"name":"Waldstr.","postalCode":"76596","locality":"Forbach","municipality":{"key":"08216013","name":"Forbach","type":"Kreisangehörige_Gemeinde"},"district":{"key":"08216","name":"Rastatt","type":"Landkreis"},"federalState":{"key":"08","name":"Baden-Württemberg"}},{"name":"Wanneckweg","postalCode":"76596","locality":"Forbach","municipality":{"key":"08216013","name":"Forbach","type":"Kreisangehörige_Gemeinde"},"district":{"key":"08216","name":"Rastatt","type":"Landkreis"},"federalState":{"key":"08","name":"Baden-Württemberg"}},{"name":"Weinbrunnenstr.","postalCode":"76596","locality":"Forbach","municipality":{"key":"08216013","name":"Forbach","type":"Kreisangehörige_Gemeinde"},"district":{"key":"08216","name":"Rastatt","type":"Landkreis"},"federalState":{"key":"08","name":"Baden-Württemberg"}},{"name":"Wiesen-Weg (Glücksweg)","postalCode":"76596","locality":"Forbach","municipality":{"key":"08216013","name":"Forbach","type":"Kreisangehörige_Gemeinde"},"district":{"key":"08216","name":"Rastatt","type":"Landkreis"},"federalState":{"key":"08","name":"Baden-Württemberg"}},{"name":"Winterhardtstr.","postalCode":"76596","locality":"Forbach","municipality":{"key":"08216013","name":"Forbach","type":"Kreisangehörige_Gemeinde"},"district":{"key":"08216","name":"Rastatt","type":"Landkreis"},"federalState":{"key":"08","name":"Baden-Württemberg"}},{"name":"Wolfskehlstr.","postalCode":"76596","locality":"Forbach","municipality":{"key":"08216013","name":"Forbach","type":"Kreisangehörige_Gemeinde"},"district":{"key":"08216","name":"Rastatt","type":"Landkreis"},"federalState":{"key":"08","name":"Baden-Württemberg"}},{"name":"Wulzenberg","postalCode":"76596","locality":"Forbach","municipality":{"key":"08216013","name":"Forbach","type":"Kreisangehörige_Gemeinde"},"district":{"key":"08216","name":"Rastatt","type":"Landkreis"},"federalState":{"key":"08","name":"Baden-Württemberg"}},{"name":"Wulzenbergstr.","postalCode":"76596","locality":"Forbach","municipality":{"key":"08216013","name":"Forbach","type":"Kreisangehörige_Gemeinde"},"district":{"key":"08216","name":"Rastatt","type":"Landkreis"},"federalState":{"key":"08","name":"Baden-Württemberg"}},{"name":"Wüstenlochweg","postalCode":"76596","locality":"Forbach","municipality":{"key":"08216013","name":"Forbach","type":"Kreisangehörige_Gemeinde"},"district":{"key":"08216","name":"Rastatt","type":"Landkreis"},"federalState":{"key":"08","name":"Baden-Württemberg"}},{"name":"Zanderstr.","postalCode":"76437","locality":"Rastatt","municipality":{"key":"08216043","name":"Rastatt, Stadt","type":"Große_Kreisstadt"},"district":{"key":"08216","name":"Rastatt","type":"Landkreis"},"federalState":{"key":"08","name":"Baden-Württemberg"}},{"name":"Zaystr.","postalCode":"76437","locality":"Rastatt","municipality":{"key":"08216043","name":"Rastatt, Stadt","type":"Große_Kreisstadt"},"district":{"key":"08216","name":"Rastatt","type":"Landkreis"},"federalState":{"key":"08","name":"Baden-Württemberg"}},{"name":"Zedernstr.","postalCode":"76437","locality":"Rastatt","municipality":{"key":"08216043","name":"Rastatt, Stadt","type":"Große_Kreisstadt"},"district":{"key":"08216","name":"Rastatt","type":"Landkreis"},"federalState":{"key":"08","name":"Baden-Württemberg"}},{"name":"Zeisigweg","postalCode":"76437","locality":"Rastatt","municipality":{"key":"08216043","name":"Rastatt, Stadt","type":"Große_Kreisstadt"},"district":{"key":"08216","name":"Rastatt","type":"Landkreis"},"federalState":{"key":"08","name":"Baden-Württemberg"}},{"name":"Zelterweg","postalCode":"76437","locality":"Rastatt","municipality":{"key":"08216043","name":"Rastatt, Stadt","type":"Große_Kreisstadt"},"district":{"key":"08216","name":"Rastatt","type":"Landkreis"},"federalState":{"key":"08","name":"Baden-Württemberg"}},{"name":"Zeppelinstr.","postalCode":"76437","locality":"Rastatt","municipality":{"key":"08216043","name":"Rastatt, Stadt","type":"Große_Kreisstadt"},"district":{"key":"08216","name":"Rastatt","type":"Landkreis"},"federalState":{"key":"08","name":"Baden-Württemberg"}},{"name":"Zeughausstr.","postalCode":"76437","locality":"Rastatt","municipality":{"key":"08216043","name":"Rastatt, Stadt","type":"Große_Kreisstadt"},"district":{"key":"08216","name":"Rastatt","type":"Landkreis"},"federalState":{"key":"08","name":"Baden-Württemberg"}},{"name":"Zollersbühnstr.","postalCode":"76437","locality":"Rastatt","municipality":{"key":"08216043","name":"Rastatt, Stadt","type":"Große_Kreisstadt"},"district":{"key":"08216","name":"Rastatt","type":"Landkreis"},"federalState":{"key":"08","name":"Baden-Württemberg"}},{"name":"Zu den Kasematten","postalCode":"76437","locality":"Rastatt","municipality":{"key":"08216043","name":"Rastatt, Stadt","type":"Große_Kreisstadt"},"district":{"key":"08216","name":"Rastatt","type":"Landkreis"},"federalState":{"key":"08","name":"Baden-Württemberg"}},{"name":"Zum Bergblick","postalCode":"76437","locality":"Rastatt","municipality":{"key":"08216043","name":"Rastatt, Stadt","type":"Große_Kreisstadt"},"district":{"key":"08216","name":"Rastatt","type":"Landkreis"},"federalState":{"key":"08","name":"Baden-Württemberg"}},{"name":"Zum Rohngraben","postalCode":"76437","locality":"Rastatt","municipality":{"key":"08216043","name":"Rastatt, Stadt","type":"Große_Kreisstadt"},"district":{"key":"08216","name":"Rastatt","type":"Landkreis"},"federalState":{"key":"08","name":"Baden-Württemberg"}},{"name":"Zur Friedrichfeste","postalCode":"76437","locality":"Rastatt","municipality":{"key":"08216043","name":"Rastatt, Stadt","type":"Große_Kreisstadt"},"district":{"key":"08216","name":"Rastatt","type":"Landkreis"},"federalState":{"key":"08","name":"Baden-Württemberg"}},{"name":"Zur Leopoldfeste","postalCode":"76437","locality":"Rastatt","municipality":{"key":"08216043","name":"Rastatt, Stadt","type":"Große_Kreisstadt"},"district":{"key":"08216","name":"Rastatt","type":"Landkreis"},"federalState":{"key":"08","name":"Baden-Württemberg"}},{"name":"Öberbachweg","postalCode":"76596","locality":"Forbach","municipality":{"key":"08216013","name":"Forbach","type":"Kreisangehörige_Gemeinde"},"district":{"key":"08216","name":"Rastatt","type":"Landkreis"},"federalState":{"key":"08","name":"Baden-Württemberg"}},]