[{"name":"Alpenstr.","postalCode":"83735","locality":"Bayrischzell","municipality":{"key":"09182112","name":"Bayrischzell","type":"Kreisangehörige_Gemeinde"},"district":{"key":"09182","name":"Miesbach","type":"Landkreis"},"federalState":{"key":"09","name":"Bayern"}},{"name":"Bahnhofstr.","postalCode":"83735","locality":"Bayrischzell","municipality":{"key":"09182112","name":"Bayrischzell","type":"Kreisangehörige_Gemeinde"},"district":{"key":"09182","name":"Miesbach","type":"Landkreis"},"federalState":{"key":"09","name":"Bayern"}},{"name":"Bergfeld","postalCode":"83735","locality":"Bayrischzell","municipality":{"key":"09182112","name":"Bayrischzell","type":"Kreisangehörige_Gemeinde"},"district":{"key":"09182","name":"Miesbach","type":"Landkreis"},"federalState":{"key":"09","name":"Bayern"}},{"name":"Brunnererweg","postalCode":"83735","locality":"Bayrischzell","municipality":{"key":"09182112","name":"Bayrischzell","type":"Kreisangehörige_Gemeinde"},"district":{"key":"09182","name":"Miesbach","type":"Landkreis"},"federalState":{"key":"09","name":"Bayern"}},{"name":"Bürgermeister-Kastl-Weg","postalCode":"83735","locality":"Bayrischzell","municipality":{"key":"09182112","name":"Bayrischzell","type":"Kreisangehörige_Gemeinde"},"district":{"key":"09182","name":"Miesbach","type":"Landkreis"},"federalState":{"key":"09","name":"Bayern"}},{"name":"Carl-Feichtner-Ring","postalCode":"83714","locality":"Miesbach","municipality":{"key":"09182125","name":"Miesbach, St","type":"Stadt"},"district":{"key":"09182","name":"Miesbach","type":"Landkreis"},"federalState":{"key":"09","name":"Bayern"}},{"name":"Carl-Fohr-Str.","postalCode":"83714","locality":"Miesbach","municipality":{"key":"09182125","name":"Miesbach, St","type":"Stadt"},"district":{"key":"09182","name":"Miesbach","type":"Landkreis"},"federalState":{"key":"09","name":"Bayern"}},{"name":"Christian-Schad-Bogen","postalCode":"83714","locality":"Miesbach","municipality":{"key":"09182125","name":"Miesbach, St","type":"Stadt"},"district":{"key":"09182","name":"Miesbach","type":"Landkreis"},"federalState":{"key":"09","name":"Bayern"}},{"name":"Dirnbergerweg","postalCode":"83714","locality":"Miesbach","municipality":{"key":"09182125","name":"Miesbach, St","type":"Stadt"},"district":{"key":"09182","name":"Miesbach","type":"Landkreis"},"federalState":{"key":"09","name":"Bayern"}},{"name":"Dorfstr.","postalCode":"83714","locality":"Miesbach","municipality":{"key":"09182125","name":"Miesbach, St","type":"Stadt"},"district":{"key":"09182","name":"Miesbach","type":"Landkreis"},"federalState":{"key":"09","name":"Bayern"}},{"name":"Düllstr.","postalCode":"83714","locality":"Miesbach","municipality":{"key":"09182125","name":"Miesbach, St","type":"Stadt"},"district":{"key":"09182","name":"Miesbach","type":"Landkreis"},"federalState":{"key":"09","name":"Bayern"}},{"name":"Edelweißstr.","postalCode":"83714","locality":"Miesbach","municipality":{"key":"09182125","name":"Miesbach, St","type":"Stadt"},"district":{"key":"09182","name":"Miesbach","type":"Landkreis"},"federalState":{"key":"09","name":"Bayern"}},{"name":"Enzianstr.","postalCode":"83714","locality":"Miesbach","municipality":{"key":"09182125","name":"Miesbach, St","type":"Stadt"},"district":{"key":"09182","name":"Miesbach","type":"Landkreis"},"federalState":{"key":"09","name":"Bayern"}},{"name":"Erlerholz","postalCode":"83714","locality":"Miesbach","municipality":{"key":"09182125","name":"Miesbach, St","type":"Stadt"},"district":{"key":"09182","name":"Miesbach","type":"Landkreis"},"federalState":{"key":"09","name":"Bayern"}},{"name":"Eschenweg","postalCode":"83714","locality":"Miesbach","municipality":{"key":"09182125","name":"Miesbach, St","type":"Stadt"},"district":{"key":"09182","name":"Miesbach","type":"Landkreis"},"federalState":{"key":"09","name":"Bayern"}},{"name":"Fellerbachstr.","postalCode":"83714","locality":"Miesbach","municipality":{"key":"09182125","name":"Miesbach, St","type":"Stadt"},"district":{"key":"09182","name":"Miesbach","type":"Landkreis"},"federalState":{"key":"09","name":"Bayern"}},{"name":"Fichtenweg","postalCode":"83714","locality":"Miesbach","municipality":{"key":"09182125","name":"Miesbach, St","type":"Stadt"},"district":{"key":"09182","name":"Miesbach","type":"Landkreis"},"federalState":{"key":"09","name":"Bayern"}},{"name":"Fliederweg","postalCode":"83714","locality":"Miesbach","municipality":{"key":"09182125","name":"Miesbach, St","type":"Stadt"},"district":{"key":"09182","name":"Miesbach","type":"Landkreis"},"federalState":{"key":"09","name":"Bayern"}},{"name":"Floigerweg","postalCode":"83714","locality":"Miesbach","municipality":{"key":"09182125","name":"Miesbach, St","type":"Stadt"},"district":{"key":"09182","name":"Miesbach","type":"Landkreis"},"federalState":{"key":"09","name":"Bayern"}},{"name":"Forellenweg","postalCode":"83714","locality":"Miesbach","municipality":{"key":"09182125","name":"Miesbach, St","type":"Stadt"},"district":{"key":"09182","name":"Miesbach","type":"Landkreis"},"federalState":{"key":"09","name":"Bayern"}},{"name":"Franz-und-Johann-Wallach-Str.","postalCode":"83714","locality":"Miesbach","municipality":{"key":"09182125","name":"Miesbach, St","type":"Stadt"},"district":{"key":"09182","name":"Miesbach","type":"Landkreis"},"federalState":{"key":"09","name":"Bayern"}},{"name":"Frauenschulstr.","postalCode":"83714","locality":"Miesbach","municipality":{"key":"09182125","name":"Miesbach, St","type":"Stadt"},"district":{"key":"09182","name":"Miesbach","type":"Landkreis"},"federalState":{"key":"09","name":"Bayern"}},{"name":"Fraunhoferstr.","postalCode":"83714","locality":"Miesbach","municipality":{"key":"09182125","name":"Miesbach, St","type":"Stadt"},"district":{"key":"09182","name":"Miesbach","type":"Landkreis"},"federalState":{"key":"09","name":"Bayern"}},{"name":"Fritz-Freund-Park","postalCode":"83714","locality":"Miesbach","municipality":{"key":"09182125","name":"Miesbach, St","type":"Stadt"},"district":{"key":"09182","name":"Miesbach","type":"Landkreis"},"federalState":{"key":"09","name":"Bayern"}},{"name":"Fritz-von-Weidenbach-Str.","postalCode":"83714","locality":"Miesbach","municipality":{"key":"09182125","name":"Miesbach, St","type":"Stadt"},"district":{"key":"09182","name":"Miesbach","type":"Landkreis"},"federalState":{"key":"09","name":"Bayern"}},{"name":"Frühlingstr.","postalCode":"83714","locality":"Miesbach","municipality":{"key":"09182125","name":"Miesbach, St","type":"Stadt"},"district":{"key":"09182","name":"Miesbach","type":"Landkreis"},"federalState":{"key":"09","name":"Bayern"}},{"name":"Geitau","postalCode":"83735","locality":"Bayrischzell","municipality":{"key":"09182112","name":"Bayrischzell","type":"Kreisangehörige_Gemeinde"},"district":{"key":"09182","name":"Miesbach","type":"Landkreis"},"federalState":{"key":"09","name":"Bayern"}},{"name":"Grünwaldstr.","postalCode":"83735","locality":"Bayrischzell","municipality":{"key":"09182112","name":"Bayrischzell","type":"Kreisangehörige_Gemeinde"},"district":{"key":"09182","name":"Miesbach","type":"Landkreis"},"federalState":{"key":"09","name":"Bayern"}},{"name":"Hermann-Kleber-Weg","postalCode":"83735","locality":"Bayrischzell","municipality":{"key":"09182112","name":"Bayrischzell","type":"Kreisangehörige_Gemeinde"},"district":{"key":"09182","name":"Miesbach","type":"Landkreis"},"federalState":{"key":"09","name":"Bayern"}},{"name":"Hochkreuth","postalCode":"83735","locality":"Bayrischzell","municipality":{"key":"09182112","name":"Bayrischzell","type":"Kreisangehörige_Gemeinde"},"district":{"key":"09182","name":"Miesbach","type":"Landkreis"},"federalState":{"key":"09","name":"Bayern"}},{"name":"Im Larchfeld","postalCode":"83735","locality":"Bayrischzell","municipality":{"key":"09182112","name":"Bayrischzell","type":"Kreisangehörige_Gemeinde"},"district":{"key":"09182","name":"Miesbach","type":"Landkreis"},"federalState":{"key":"09","name":"Bayern"}},{"name":"Jägerbauer","postalCode":"83714","locality":"Miesbach","municipality":{"key":"09182125","name":"Miesbach, St","type":"Stadt"},"district":{"key":"09182","name":"Miesbach","type":"Landkreis"},"federalState":{"key":"09","name":"Bayern"}},{"name":"Jahnweg","postalCode":"83714","locality":"Miesbach","municipality":{"key":"09182125","name":"Miesbach, St","type":"Stadt"},"district":{"key":"09182","name":"Miesbach","type":"Landkreis"},"federalState":{"key":"09","name":"Bayern"}},{"name":"Johann-Baptist-Zimmermann-Str.","postalCode":"83714","locality":"Miesbach","municipality":{"key":"09182125","name":"Miesbach, St","type":"Stadt"},"district":{"key":"09182","name":"Miesbach","type":"Landkreis"},"federalState":{"key":"09","name":"Bayern"}},{"name":"Johannisbrücke","postalCode":"83714","locality":"Miesbach","municipality":{"key":"09182125","name":"Miesbach, St","type":"Stadt"},"district":{"key":"09182","name":"Miesbach","type":"Landkreis"},"federalState":{"key":"09","name":"Bayern"}},{"name":"Joh.-Gg.-Maier-Str.","postalCode":"83714","locality":"Miesbach","municipality":{"key":"09182125","name":"Miesbach, St","type":"Stadt"},"district":{"key":"09182","name":"Miesbach","type":"Landkreis"},"federalState":{"key":"09","name":"Bayern"}},{"name":"Karl-Müller-Str.","postalCode":"83735","locality":"Bayrischzell","municipality":{"key":"09182112","name":"Bayrischzell","type":"Kreisangehörige_Gemeinde"},"district":{"key":"09182","name":"Miesbach","type":"Landkreis"},"federalState":{"key":"09","name":"Bayern"}},{"name":"Kirchplatz","postalCode":"83735","locality":"Bayrischzell","municipality":{"key":"09182112","name":"Bayrischzell","type":"Kreisangehörige_Gemeinde"},"district":{"key":"09182","name":"Miesbach","type":"Landkreis"},"federalState":{"key":"09","name":"Bayern"}},{"name":"Kloo-Ascher-Tal","postalCode":"83735","locality":"Bayrischzell","municipality":{"key":"09182112","name":"Bayrischzell","type":"Kreisangehörige_Gemeinde"},"district":{"key":"09182","name":"Miesbach","type":"Landkreis"},"federalState":{"key":"09","name":"Bayern"}},{"name":"Kranzerstr.","postalCode":"83735","locality":"Bayrischzell","municipality":{"key":"09182112","name":"Bayrischzell","type":"Kreisangehörige_Gemeinde"},"district":{"key":"09182","name":"Miesbach","type":"Landkreis"},"federalState":{"key":"09","name":"Bayern"}},{"name":"Krapfen","postalCode":"83735","locality":"Bayrischzell","municipality":{"key":"09182112","name":"Bayrischzell","type":"Kreisangehörige_Gemeinde"},"district":{"key":"09182","name":"Miesbach","type":"Landkreis"},"federalState":{"key":"09","name":"Bayern"}},{"name":"Lehrer-Vogl-Str.","postalCode":"83735","locality":"Bayrischzell","municipality":{"key":"09182112","name":"Bayrischzell","type":"Kreisangehörige_Gemeinde"},"district":{"key":"09182","name":"Miesbach","type":"Landkreis"},"federalState":{"key":"09","name":"Bayern"}},{"name":"Michael-Meindl-Str.","postalCode":"83735","locality":"Bayrischzell","municipality":{"key":"09182112","name":"Bayrischzell","type":"Kreisangehörige_Gemeinde"},"district":{"key":"09182","name":"Miesbach","type":"Landkreis"},"federalState":{"key":"09","name":"Bayern"}},{"name":"Mühlleitenstr.","postalCode":"83735","locality":"Bayrischzell","municipality":{"key":"09182112","name":"Bayrischzell","type":"Kreisangehörige_Gemeinde"},"district":{"key":"09182","name":"Miesbach","type":"Landkreis"},"federalState":{"key":"09","name":"Bayern"}},{"name":"Nelkenweg","postalCode":"83714","locality":"Miesbach","municipality":{"key":"09182125","name":"Miesbach, St","type":"Stadt"},"district":{"key":"09182","name":"Miesbach","type":"Landkreis"},"federalState":{"key":"09","name":"Bayern"}},{"name":"Neureuthstr.","postalCode":"83714","locality":"Miesbach","municipality":{"key":"09182125","name":"Miesbach, St","type":"Stadt"},"district":{"key":"09182","name":"Miesbach","type":"Landkreis"},"federalState":{"key":"09","name":"Bayern"}},{"name":"Nordgraben","postalCode":"83714","locality":"Miesbach","municipality":{"key":"09182125","name":"Miesbach, St","type":"Stadt"},"district":{"key":"09182","name":"Miesbach","type":"Landkreis"},"federalState":{"key":"09","name":"Bayern"}},{"name":"Osterhofen","postalCode":"83735","locality":"Bayrischzell","municipality":{"key":"09182112","name":"Bayrischzell","type":"Kreisangehörige_Gemeinde"},"district":{"key":"09182","name":"Miesbach","type":"Landkreis"},"federalState":{"key":"09","name":"Bayern"}},{"name":"Postwiese","postalCode":"83735","locality":"Bayrischzell","municipality":{"key":"09182112","name":"Bayrischzell","type":"Kreisangehörige_Gemeinde"},"district":{"key":"09182","name":"Miesbach","type":"Landkreis"},"federalState":{"key":"09","name":"Bayern"}},{"name":"Professor-Kleiber-Str.","postalCode":"83735","locality":"Bayrischzell","municipality":{"key":"09182112","name":"Bayrischzell","type":"Kreisangehörige_Gemeinde"},"district":{"key":"09182","name":"Miesbach","type":"Landkreis"},"federalState":{"key":"09","name":"Bayern"}},{"name":"Reitberg","postalCode":"83735","locality":"Bayrischzell","municipality":{"key":"09182112","name":"Bayrischzell","type":"Kreisangehörige_Gemeinde"},"district":{"key":"09182","name":"Miesbach","type":"Landkreis"},"federalState":{"key":"09","name":"Bayern"}},{"name":"Rudolf-Holzmann-Str.","postalCode":"83735","locality":"Bayrischzell","municipality":{"key":"09182112","name":"Bayrischzell","type":"Kreisangehörige_Gemeinde"},"district":{"key":"09182","name":"Miesbach","type":"Landkreis"},"federalState":{"key":"09","name":"Bayern"}},{"name":"Schlierseer Str.","postalCode":"83735","locality":"Bayrischzell","municipality":{"key":"09182112","name":"Bayrischzell","type":"Kreisangehörige_Gemeinde"},"district":{"key":"09182","name":"Miesbach","type":"Landkreis"},"federalState":{"key":"09","name":"Bayern"}},{"name":"Schulstr.","postalCode":"83735","locality":"Bayrischzell","municipality":{"key":"09182112","name":"Bayrischzell","type":"Kreisangehörige_Gemeinde"},"district":{"key":"09182","name":"Miesbach","type":"Landkreis"},"federalState":{"key":"09","name":"Bayern"}},{"name":"Seebergstr.","postalCode":"83735","locality":"Bayrischzell","municipality":{"key":"09182112","name":"Bayrischzell","type":"Kreisangehörige_Gemeinde"},"district":{"key":"09182","name":"Miesbach","type":"Landkreis"},"federalState":{"key":"09","name":"Bayern"}},{"name":"Streinweg","postalCode":"83735","locality":"Bayrischzell","municipality":{"key":"09182112","name":"Bayrischzell","type":"Kreisangehörige_Gemeinde"},"district":{"key":"09182","name":"Miesbach","type":"Landkreis"},"federalState":{"key":"09","name":"Bayern"}},{"name":"Sudelfeldstr.","postalCode":"83735","locality":"Bayrischzell","municipality":{"key":"09182112","name":"Bayrischzell","type":"Kreisangehörige_Gemeinde"},"district":{"key":"09182","name":"Miesbach","type":"Landkreis"},"federalState":{"key":"09","name":"Bayern"}},{"name":"Tannerhofstr.","postalCode":"83735","locality":"Bayrischzell","municipality":{"key":"09182112","name":"Bayrischzell","type":"Kreisangehörige_Gemeinde"},"district":{"key":"09182","name":"Miesbach","type":"Landkreis"},"federalState":{"key":"09","name":"Bayern"}},{"name":"Tannerhofweg","postalCode":"83735","locality":"Bayrischzell","municipality":{"key":"09182112","name":"Bayrischzell","type":"Kreisangehörige_Gemeinde"},"district":{"key":"09182","name":"Miesbach","type":"Landkreis"},"federalState":{"key":"09","name":"Bayern"}},{"name":"Tannermühlstr.","postalCode":"83735","locality":"Bayrischzell","municipality":{"key":"09182112","name":"Bayrischzell","type":"Kreisangehörige_Gemeinde"},"district":{"key":"09182","name":"Miesbach","type":"Landkreis"},"federalState":{"key":"09","name":"Bayern"}},{"name":"Tiroler Str.","postalCode":"83735","locality":"Bayrischzell","municipality":{"key":"09182112","name":"Bayrischzell","type":"Kreisangehörige_Gemeinde"},"district":{"key":"09182","name":"Miesbach","type":"Landkreis"},"federalState":{"key":"09","name":"Bayern"}},{"name":"Ursprungstr.","postalCode":"83735","locality":"Bayrischzell","municipality":{"key":"09182112","name":"Bayrischzell","type":"Kreisangehörige_Gemeinde"},"district":{"key":"09182","name":"Miesbach","type":"Landkreis"},"federalState":{"key":"09","name":"Bayern"}},{"name":"Von-Schönborn-Weg","postalCode":"83735","locality":"Bayrischzell","municipality":{"key":"09182112","name":"Bayrischzell","type":"Kreisangehörige_Gemeinde"},"district":{"key":"09182","name":"Miesbach","type":"Landkreis"},"federalState":{"key":"09","name":"Bayern"}},{"name":"Wendelsteinstr.","postalCode":"83735","locality":"Bayrischzell","municipality":{"key":"09182112","name":"Bayrischzell","type":"Kreisangehörige_Gemeinde"},"district":{"key":"09182","name":"Miesbach","type":"Landkreis"},"federalState":{"key":"09","name":"Bayern"}},{"name":"Zwergerweg","postalCode":"83714","locality":"Miesbach","municipality":{"key":"09182125","name":"Miesbach, St","type":"Stadt"},"district":{"key":"09182","name":"Miesbach","type":"Landkreis"},"federalState":{"key":"09","name":"Bayern"}},{"name":"Äußere Münchner Str.","postalCode":"83714","locality":"Miesbach","municipality":{"key":"09182125","name":"Miesbach, St","type":"Stadt"},"district":{"key":"09182","name":"Miesbach","type":"Landkreis"},"federalState":{"key":"09","name":"Bayern"}},]