[{"name":"Am Seeberg","postalCode":"17153","locality":"Jürgenstorf","municipality":{"key":"13071070","name":"Jürgenstorf","type":"Kreisangehörige_Gemeinde"},"district":{"key":"13071","name":"Mecklenburgische Seenplatte","type":"Landkreis"},"federalState":{"key":"13","name":"Mecklenburg-Vorpommern"}},{"name":"Am Wiesengrund","postalCode":"17153","locality":"Jürgenstorf","municipality":{"key":"13071070","name":"Jürgenstorf","type":"Kreisangehörige_Gemeinde"},"district":{"key":"13071","name":"Mecklenburgische Seenplatte","type":"Landkreis"},"federalState":{"key":"13","name":"Mecklenburg-Vorpommern"}},{"name":"Birkenweg","postalCode":"17153","locality":"Jürgenstorf","municipality":{"key":"13071070","name":"Jürgenstorf","type":"Kreisangehörige_Gemeinde"},"district":{"key":"13071","name":"Mecklenburgische Seenplatte","type":"Landkreis"},"federalState":{"key":"13","name":"Mecklenburg-Vorpommern"}},{"name":"Dorfstr.","postalCode":"17153","locality":"Jürgenstorf","municipality":{"key":"13071070","name":"Jürgenstorf","type":"Kreisangehörige_Gemeinde"},"district":{"key":"13071","name":"Mecklenburgische Seenplatte","type":"Landkreis"},"federalState":{"key":"13","name":"Mecklenburg-Vorpommern"}},{"name":"Entspekter Bräsig Platz","postalCode":"17153","locality":"Jürgenstorf","municipality":{"key":"13071070","name":"Jürgenstorf","type":"Kreisangehörige_Gemeinde"},"district":{"key":"13071","name":"Mecklenburgische Seenplatte","type":"Landkreis"},"federalState":{"key":"13","name":"Mecklenburg-Vorpommern"}},{"name":"Gartenweg","postalCode":"17153","locality":"Jürgenstorf","municipality":{"key":"13071070","name":"Jürgenstorf","type":"Kreisangehörige_Gemeinde"},"district":{"key":"13071","name":"Mecklenburgische Seenplatte","type":"Landkreis"},"federalState":{"key":"13","name":"Mecklenburg-Vorpommern"}},{"name":"Hofweg","postalCode":"17153","locality":"Jürgenstorf","municipality":{"key":"13071070","name":"Jürgenstorf","type":"Kreisangehörige_Gemeinde"},"district":{"key":"13071","name":"Mecklenburgische Seenplatte","type":"Landkreis"},"federalState":{"key":"13","name":"Mecklenburg-Vorpommern"}},{"name":"Krummsee","postalCode":"17153","locality":"Jürgenstorf","municipality":{"key":"13071070","name":"Jürgenstorf","type":"Kreisangehörige_Gemeinde"},"district":{"key":"13071","name":"Mecklenburgische Seenplatte","type":"Landkreis"},"federalState":{"key":"13","name":"Mecklenburg-Vorpommern"}},{"name":"Krummseer Str.","postalCode":"17153","locality":"Jürgenstorf","municipality":{"key":"13071070","name":"Jürgenstorf","type":"Kreisangehörige_Gemeinde"},"district":{"key":"13071","name":"Mecklenburgische Seenplatte","type":"Landkreis"},"federalState":{"key":"13","name":"Mecklenburg-Vorpommern"}},{"name":"Pribbenower Str.","postalCode":"17153","locality":"Jürgenstorf","municipality":{"key":"13071070","name":"Jürgenstorf","type":"Kreisangehörige_Gemeinde"},"district":{"key":"13071","name":"Mecklenburgische Seenplatte","type":"Landkreis"},"federalState":{"key":"13","name":"Mecklenburg-Vorpommern"}},{"name":"Rottmannshagen","postalCode":"17153","locality":"Jürgenstorf","municipality":{"key":"13071070","name":"Jürgenstorf","type":"Kreisangehörige_Gemeinde"},"district":{"key":"13071","name":"Mecklenburgische Seenplatte","type":"Landkreis"},"federalState":{"key":"13","name":"Mecklenburg-Vorpommern"}},{"name":"Str. der Initiative","postalCode":"17153","locality":"Jürgenstorf","municipality":{"key":"13071070","name":"Jürgenstorf","type":"Kreisangehörige_Gemeinde"},"district":{"key":"13071","name":"Mecklenburgische Seenplatte","type":"Landkreis"},"federalState":{"key":"13","name":"Mecklenburg-Vorpommern"}},{"name":"Voßhagen","postalCode":"17153","locality":"Jürgenstorf","municipality":{"key":"13071070","name":"Jürgenstorf","type":"Kreisangehörige_Gemeinde"},"district":{"key":"13071","name":"Mecklenburgische Seenplatte","type":"Landkreis"},"federalState":{"key":"13","name":"Mecklenburg-Vorpommern"}},{"name":"Warener Str.","postalCode":"17153","locality":"Jürgenstorf","municipality":{"key":"13071070","name":"Jürgenstorf","type":"Kreisangehörige_Gemeinde"},"district":{"key":"13071","name":"Mecklenburgische Seenplatte","type":"Landkreis"},"federalState":{"key":"13","name":"Mecklenburg-Vorpommern"}},{"name":"Zetteminer Str.","postalCode":"17153","locality":"Jürgenstorf","municipality":{"key":"13071070","name":"Jürgenstorf","type":"Kreisangehörige_Gemeinde"},"district":{"key":"13071","name":"Mecklenburgische Seenplatte","type":"Landkreis"},"federalState":{"key":"13","name":"Mecklenburg-Vorpommern"}},]