[{"name":"Adlerstr.","postalCode":"48712","locality":"Gescher","municipality":{"key":"05554016","name":"Gescher, Glockenstadt","type":"Stadt"},"district":{"key":"05554","name":"Borken","type":"Kreis"},"federalState":{"key":"05","name":"Nordrhein-Westfalen"}},{"name":"Ahauser Damm","postalCode":"48712","locality":"Gescher","municipality":{"key":"05554016","name":"Gescher, Glockenstadt","type":"Stadt"},"district":{"key":"05554","name":"Borken","type":"Kreis"},"federalState":{"key":"05","name":"Nordrhein-Westfalen"}},{"name":"Ahornweg","postalCode":"48712","locality":"Gescher","municipality":{"key":"05554016","name":"Gescher, Glockenstadt","type":"Stadt"},"district":{"key":"05554","name":"Borken","type":"Kreis"},"federalState":{"key":"05","name":"Nordrhein-Westfalen"}},{"name":"Akazienweg","postalCode":"48712","locality":"Gescher","municipality":{"key":"05554016","name":"Gescher, Glockenstadt","type":"Stadt"},"district":{"key":"05554","name":"Borken","type":"Kreis"},"federalState":{"key":"05","name":"Nordrhein-Westfalen"}},{"name":"Alfersesch","postalCode":"48712","locality":"Gescher","municipality":{"key":"05554016","name":"Gescher, Glockenstadt","type":"Stadt"},"district":{"key":"05554","name":"Borken","type":"Kreis"},"federalState":{"key":"05","name":"Nordrhein-Westfalen"}},{"name":"Alte Coesfelder Str.","postalCode":"48712","locality":"Gescher","municipality":{"key":"05554016","name":"Gescher, Glockenstadt","type":"Stadt"},"district":{"key":"05554","name":"Borken","type":"Kreis"},"federalState":{"key":"05","name":"Nordrhein-Westfalen"}},{"name":"Alte Feldmark","postalCode":"48712","locality":"Gescher","municipality":{"key":"05554016","name":"Gescher, Glockenstadt","type":"Stadt"},"district":{"key":"05554","name":"Borken","type":"Kreis"},"federalState":{"key":"05","name":"Nordrhein-Westfalen"}},{"name":"Alter Postweg","postalCode":"48712","locality":"Gescher","municipality":{"key":"05554016","name":"Gescher, Glockenstadt","type":"Stadt"},"district":{"key":"05554","name":"Borken","type":"Kreis"},"federalState":{"key":"05","name":"Nordrhein-Westfalen"}},{"name":"Am Campus","postalCode":"48712","locality":"Gescher","municipality":{"key":"05554016","name":"Gescher, Glockenstadt","type":"Stadt"},"district":{"key":"05554","name":"Borken","type":"Kreis"},"federalState":{"key":"05","name":"Nordrhein-Westfalen"}},{"name":"Am Davos","postalCode":"48712","locality":"Gescher","municipality":{"key":"05554016","name":"Gescher, Glockenstadt","type":"Stadt"},"district":{"key":"05554","name":"Borken","type":"Kreis"},"federalState":{"key":"05","name":"Nordrhein-Westfalen"}},{"name":"Am Ententeich","postalCode":"48712","locality":"Gescher","municipality":{"key":"05554016","name":"Gescher, Glockenstadt","type":"Stadt"},"district":{"key":"05554","name":"Borken","type":"Kreis"},"federalState":{"key":"05","name":"Nordrhein-Westfalen"}},{"name":"Am Gänsegraben","postalCode":"48712","locality":"Gescher","municipality":{"key":"05554016","name":"Gescher, Glockenstadt","type":"Stadt"},"district":{"key":"05554","name":"Borken","type":"Kreis"},"federalState":{"key":"05","name":"Nordrhein-Westfalen"}},{"name":"Am Gemeindehaus","postalCode":"48712","locality":"Gescher","municipality":{"key":"05554016","name":"Gescher, Glockenstadt","type":"Stadt"},"district":{"key":"05554","name":"Borken","type":"Kreis"},"federalState":{"key":"05","name":"Nordrhein-Westfalen"}},{"name":"Am Graben","postalCode":"48712","locality":"Gescher","municipality":{"key":"05554016","name":"Gescher, Glockenstadt","type":"Stadt"},"district":{"key":"05554","name":"Borken","type":"Kreis"},"federalState":{"key":"05","name":"Nordrhein-Westfalen"}},{"name":"Am Hellweg","postalCode":"48712","locality":"Gescher","municipality":{"key":"05554016","name":"Gescher, Glockenstadt","type":"Stadt"},"district":{"key":"05554","name":"Borken","type":"Kreis"},"federalState":{"key":"05","name":"Nordrhein-Westfalen"}},{"name":"Amselweg","postalCode":"48712","locality":"Gescher","municipality":{"key":"05554016","name":"Gescher, Glockenstadt","type":"Stadt"},"district":{"key":"05554","name":"Borken","type":"Kreis"},"federalState":{"key":"05","name":"Nordrhein-Westfalen"}},{"name":"Am Sportplatz","postalCode":"48712","locality":"Gescher","municipality":{"key":"05554016","name":"Gescher, Glockenstadt","type":"Stadt"},"district":{"key":"05554","name":"Borken","type":"Kreis"},"federalState":{"key":"05","name":"Nordrhein-Westfalen"}},{"name":"Am Stadion","postalCode":"48712","locality":"Gescher","municipality":{"key":"05554016","name":"Gescher, Glockenstadt","type":"Stadt"},"district":{"key":"05554","name":"Borken","type":"Kreis"},"federalState":{"key":"05","name":"Nordrhein-Westfalen"}},{"name":"Am Stadtkamp","postalCode":"48712","locality":"Gescher","municipality":{"key":"05554016","name":"Gescher, Glockenstadt","type":"Stadt"},"district":{"key":"05554","name":"Borken","type":"Kreis"},"federalState":{"key":"05","name":"Nordrhein-Westfalen"}},{"name":"An de Becke","postalCode":"48712","locality":"Gescher","municipality":{"key":"05554016","name":"Gescher, Glockenstadt","type":"Stadt"},"district":{"key":"05554","name":"Borken","type":"Kreis"},"federalState":{"key":"05","name":"Nordrhein-Westfalen"}},{"name":"An den Bachgärten","postalCode":"48712","locality":"Gescher","municipality":{"key":"05554016","name":"Gescher, Glockenstadt","type":"Stadt"},"district":{"key":"05554","name":"Borken","type":"Kreis"},"federalState":{"key":"05","name":"Nordrhein-Westfalen"}},{"name":"An den Weiden","postalCode":"48712","locality":"Gescher","municipality":{"key":"05554016","name":"Gescher, Glockenstadt","type":"Stadt"},"district":{"key":"05554","name":"Borken","type":"Kreis"},"federalState":{"key":"05","name":"Nordrhein-Westfalen"}},{"name":"An der Gräfte","postalCode":"48712","locality":"Gescher","municipality":{"key":"05554016","name":"Gescher, Glockenstadt","type":"Stadt"},"district":{"key":"05554","name":"Borken","type":"Kreis"},"federalState":{"key":"05","name":"Nordrhein-Westfalen"}},{"name":"Armlandstr.","postalCode":"48712","locality":"Gescher","municipality":{"key":"05554016","name":"Gescher, Glockenstadt","type":"Stadt"},"district":{"key":"05554","name":"Borken","type":"Kreis"},"federalState":{"key":"05","name":"Nordrhein-Westfalen"}},{"name":"Auf dem Brink","postalCode":"48712","locality":"Gescher","municipality":{"key":"05554016","name":"Gescher, Glockenstadt","type":"Stadt"},"district":{"key":"05554","name":"Borken","type":"Kreis"},"federalState":{"key":"05","name":"Nordrhein-Westfalen"}},{"name":"Auf der Twente","postalCode":"48712","locality":"Gescher","municipality":{"key":"05554016","name":"Gescher, Glockenstadt","type":"Stadt"},"district":{"key":"05554","name":"Borken","type":"Kreis"},"federalState":{"key":"05","name":"Nordrhein-Westfalen"}},{"name":"Augustin-Wibbelt-Str.","postalCode":"48712","locality":"Gescher","municipality":{"key":"05554016","name":"Gescher, Glockenstadt","type":"Stadt"},"district":{"key":"05554","name":"Borken","type":"Kreis"},"federalState":{"key":"05","name":"Nordrhein-Westfalen"}},{"name":"August-Wessing-Str.","postalCode":"48712","locality":"Gescher","municipality":{"key":"05554016","name":"Gescher, Glockenstadt","type":"Stadt"},"district":{"key":"05554","name":"Borken","type":"Kreis"},"federalState":{"key":"05","name":"Nordrhein-Westfalen"}},{"name":"August-Wessing-Weg","postalCode":"48712","locality":"Gescher","municipality":{"key":"05554016","name":"Gescher, Glockenstadt","type":"Stadt"},"district":{"key":"05554","name":"Borken","type":"Kreis"},"federalState":{"key":"05","name":"Nordrhein-Westfalen"}},{"name":"Bahnhofstr.","postalCode":"48712","locality":"Gescher","municipality":{"key":"05554016","name":"Gescher, Glockenstadt","type":"Stadt"},"district":{"key":"05554","name":"Borken","type":"Kreis"},"federalState":{"key":"05","name":"Nordrhein-Westfalen"}},{"name":"Beethovenstr.","postalCode":"48712","locality":"Gescher","municipality":{"key":"05554016","name":"Gescher, Glockenstadt","type":"Stadt"},"district":{"key":"05554","name":"Borken","type":"Kreis"},"federalState":{"key":"05","name":"Nordrhein-Westfalen"}},{"name":"Berkelweg","postalCode":"48712","locality":"Gescher","municipality":{"key":"05554016","name":"Gescher, Glockenstadt","type":"Stadt"},"district":{"key":"05554","name":"Borken","type":"Kreis"},"federalState":{"key":"05","name":"Nordrhein-Westfalen"}},{"name":"Bernhard-Wiesch-Str.","postalCode":"48712","locality":"Gescher","municipality":{"key":"05554016","name":"Gescher, Glockenstadt","type":"Stadt"},"district":{"key":"05554","name":"Borken","type":"Kreis"},"federalState":{"key":"05","name":"Nordrhein-Westfalen"}},{"name":"Bettina-von-Arnim-Str.","postalCode":"48712","locality":"Gescher","municipality":{"key":"05554016","name":"Gescher, Glockenstadt","type":"Stadt"},"district":{"key":"05554","name":"Borken","type":"Kreis"},"federalState":{"key":"05","name":"Nordrhein-Westfalen"}},{"name":"Birkenweg","postalCode":"48712","locality":"Gescher","municipality":{"key":"05554016","name":"Gescher, Glockenstadt","type":"Stadt"},"district":{"key":"05554","name":"Borken","type":"Kreis"},"federalState":{"key":"05","name":"Nordrhein-Westfalen"}},{"name":"Bodelschwinghstr.","postalCode":"48712","locality":"Gescher","municipality":{"key":"05554016","name":"Gescher, Glockenstadt","type":"Stadt"},"district":{"key":"05554","name":"Borken","type":"Kreis"},"federalState":{"key":"05","name":"Nordrhein-Westfalen"}},{"name":"Bönningskamp","postalCode":"48712","locality":"Gescher","municipality":{"key":"05554016","name":"Gescher, Glockenstadt","type":"Stadt"},"district":{"key":"05554","name":"Borken","type":"Kreis"},"federalState":{"key":"05","name":"Nordrhein-Westfalen"}},{"name":"Borkener Damm","postalCode":"48712","locality":"Gescher","municipality":{"key":"05554016","name":"Gescher, Glockenstadt","type":"Stadt"},"district":{"key":"05554","name":"Borken","type":"Kreis"},"federalState":{"key":"05","name":"Nordrhein-Westfalen"}},{"name":"Boschstr.","postalCode":"48712","locality":"Gescher","municipality":{"key":"05554016","name":"Gescher, Glockenstadt","type":"Stadt"},"district":{"key":"05554","name":"Borken","type":"Kreis"},"federalState":{"key":"05","name":"Nordrhein-Westfalen"}},{"name":"Brahmsstr.","postalCode":"48712","locality":"Gescher","municipality":{"key":"05554016","name":"Gescher, Glockenstadt","type":"Stadt"},"district":{"key":"05554","name":"Borken","type":"Kreis"},"federalState":{"key":"05","name":"Nordrhein-Westfalen"}},{"name":"Buchenweg","postalCode":"48712","locality":"Gescher","municipality":{"key":"05554016","name":"Gescher, Glockenstadt","type":"Stadt"},"district":{"key":"05554","name":"Borken","type":"Kreis"},"federalState":{"key":"05","name":"Nordrhein-Westfalen"}},{"name":"Bürener Damm","postalCode":"48712","locality":"Gescher","municipality":{"key":"05554016","name":"Gescher, Glockenstadt","type":"Stadt"},"district":{"key":"05554","name":"Borken","type":"Kreis"},"federalState":{"key":"05","name":"Nordrhein-Westfalen"}},{"name":"Carolusstr.","postalCode":"48712","locality":"Gescher","municipality":{"key":"05554016","name":"Gescher, Glockenstadt","type":"Stadt"},"district":{"key":"05554","name":"Borken","type":"Kreis"},"federalState":{"key":"05","name":"Nordrhein-Westfalen"}},{"name":"Coesfelder Str.","postalCode":"48712","locality":"Gescher","municipality":{"key":"05554016","name":"Gescher, Glockenstadt","type":"Stadt"},"district":{"key":"05554","name":"Borken","type":"Kreis"},"federalState":{"key":"05","name":"Nordrhein-Westfalen"}},{"name":"Dahlienweg","postalCode":"48712","locality":"Gescher","municipality":{"key":"05554016","name":"Gescher, Glockenstadt","type":"Stadt"},"district":{"key":"05554","name":"Borken","type":"Kreis"},"federalState":{"key":"05","name":"Nordrhein-Westfalen"}},{"name":"Dammstr.","postalCode":"48712","locality":"Gescher","municipality":{"key":"05554016","name":"Gescher, Glockenstadt","type":"Stadt"},"district":{"key":"05554","name":"Borken","type":"Kreis"},"federalState":{"key":"05","name":"Nordrhein-Westfalen"}},{"name":"Diekersfeld","postalCode":"48712","locality":"Gescher","municipality":{"key":"05554016","name":"Gescher, Glockenstadt","type":"Stadt"},"district":{"key":"05554","name":"Borken","type":"Kreis"},"federalState":{"key":"05","name":"Nordrhein-Westfalen"}},{"name":"Dompfaffweg","postalCode":"48712","locality":"Gescher","municipality":{"key":"05554016","name":"Gescher, Glockenstadt","type":"Stadt"},"district":{"key":"05554","name":"Borken","type":"Kreis"},"federalState":{"key":"05","name":"Nordrhein-Westfalen"}},{"name":"Dornschlatt","postalCode":"48712","locality":"Gescher","municipality":{"key":"05554016","name":"Gescher, Glockenstadt","type":"Stadt"},"district":{"key":"05554","name":"Borken","type":"Kreis"},"federalState":{"key":"05","name":"Nordrhein-Westfalen"}},{"name":"Drosselweg","postalCode":"48712","locality":"Gescher","municipality":{"key":"05554016","name":"Gescher, Glockenstadt","type":"Stadt"},"district":{"key":"05554","name":"Borken","type":"Kreis"},"federalState":{"key":"05","name":"Nordrhein-Westfalen"}},{"name":"Droste-Hülshoff-Str.","postalCode":"48712","locality":"Gescher","municipality":{"key":"05554016","name":"Gescher, Glockenstadt","type":"Stadt"},"district":{"key":"05554","name":"Borken","type":"Kreis"},"federalState":{"key":"05","name":"Nordrhein-Westfalen"}},{"name":"Dunkerskamp","postalCode":"48712","locality":"Gescher","municipality":{"key":"05554016","name":"Gescher, Glockenstadt","type":"Stadt"},"district":{"key":"05554","name":"Borken","type":"Kreis"},"federalState":{"key":"05","name":"Nordrhein-Westfalen"}},{"name":"Ebbingshof","postalCode":"48712","locality":"Gescher","municipality":{"key":"05554016","name":"Gescher, Glockenstadt","type":"Stadt"},"district":{"key":"05554","name":"Borken","type":"Kreis"},"federalState":{"key":"05","name":"Nordrhein-Westfalen"}},{"name":"Ebereschenweg","postalCode":"48712","locality":"Gescher","municipality":{"key":"05554016","name":"Gescher, Glockenstadt","type":"Stadt"},"district":{"key":"05554","name":"Borken","type":"Kreis"},"federalState":{"key":"05","name":"Nordrhein-Westfalen"}},{"name":"Eichendorffweg","postalCode":"48712","locality":"Gescher","municipality":{"key":"05554016","name":"Gescher, Glockenstadt","type":"Stadt"},"district":{"key":"05554","name":"Borken","type":"Kreis"},"federalState":{"key":"05","name":"Nordrhein-Westfalen"}},{"name":"Eichenweg","postalCode":"48712","locality":"Gescher","municipality":{"key":"05554016","name":"Gescher, Glockenstadt","type":"Stadt"},"district":{"key":"05554","name":"Borken","type":"Kreis"},"federalState":{"key":"05","name":"Nordrhein-Westfalen"}},{"name":"Eickholder Esch","postalCode":"48712","locality":"Gescher","municipality":{"key":"05554016","name":"Gescher, Glockenstadt","type":"Stadt"},"district":{"key":"05554","name":"Borken","type":"Kreis"},"federalState":{"key":"05","name":"Nordrhein-Westfalen"}},{"name":"Elionore-Stein-Str.","postalCode":"48712","locality":"Gescher","municipality":{"key":"05554016","name":"Gescher, Glockenstadt","type":"Stadt"},"district":{"key":"05554","name":"Borken","type":"Kreis"},"federalState":{"key":"05","name":"Nordrhein-Westfalen"}},{"name":"Erikaweg","postalCode":"48712","locality":"Gescher","municipality":{"key":"05554016","name":"Gescher, Glockenstadt","type":"Stadt"},"district":{"key":"05554","name":"Borken","type":"Kreis"},"federalState":{"key":"05","name":"Nordrhein-Westfalen"}},{"name":"Erlenstr.","postalCode":"48712","locality":"Gescher","municipality":{"key":"05554016","name":"Gescher, Glockenstadt","type":"Stadt"},"district":{"key":"05554","name":"Borken","type":"Kreis"},"federalState":{"key":"05","name":"Nordrhein-Westfalen"}},{"name":"Eschstr.","postalCode":"48712","locality":"Gescher","municipality":{"key":"05554016","name":"Gescher, Glockenstadt","type":"Stadt"},"district":{"key":"05554","name":"Borken","type":"Kreis"},"federalState":{"key":"05","name":"Nordrhein-Westfalen"}},{"name":"Espenweg","postalCode":"48712","locality":"Gescher","municipality":{"key":"05554016","name":"Gescher, Glockenstadt","type":"Stadt"},"district":{"key":"05554","name":"Borken","type":"Kreis"},"federalState":{"key":"05","name":"Nordrhein-Westfalen"}},{"name":"Estern","postalCode":"48712","locality":"Gescher","municipality":{"key":"05554016","name":"Gescher, Glockenstadt","type":"Stadt"},"district":{"key":"05554","name":"Borken","type":"Kreis"},"federalState":{"key":"05","name":"Nordrhein-Westfalen"}},{"name":"Esterner Grenzweg","postalCode":"48712","locality":"Gescher","municipality":{"key":"05554016","name":"Gescher, Glockenstadt","type":"Stadt"},"district":{"key":"05554","name":"Borken","type":"Kreis"},"federalState":{"key":"05","name":"Nordrhein-Westfalen"}},{"name":"Fabrikstr.","postalCode":"48712","locality":"Gescher","municipality":{"key":"05554016","name":"Gescher, Glockenstadt","type":"Stadt"},"district":{"key":"05554","name":"Borken","type":"Kreis"},"federalState":{"key":"05","name":"Nordrhein-Westfalen"}},{"name":"Falkenweg","postalCode":"48712","locality":"Gescher","municipality":{"key":"05554016","name":"Gescher, Glockenstadt","type":"Stadt"},"district":{"key":"05554","name":"Borken","type":"Kreis"},"federalState":{"key":"05","name":"Nordrhein-Westfalen"}},{"name":"Farnweg","postalCode":"48712","locality":"Gescher","municipality":{"key":"05554016","name":"Gescher, Glockenstadt","type":"Stadt"},"district":{"key":"05554","name":"Borken","type":"Kreis"},"federalState":{"key":"05","name":"Nordrhein-Westfalen"}},{"name":"Fasanensteg","postalCode":"48712","locality":"Gescher","municipality":{"key":"05554016","name":"Gescher, Glockenstadt","type":"Stadt"},"district":{"key":"05554","name":"Borken","type":"Kreis"},"federalState":{"key":"05","name":"Nordrhein-Westfalen"}},{"name":"FC Fiat 1960 e.V","postalCode":"48712","locality":"Gescher","municipality":{"key":"05554016","name":"Gescher, Glockenstadt","type":"Stadt"},"district":{"key":"05554","name":"Borken","type":"Kreis"},"federalState":{"key":"05","name":"Nordrhein-Westfalen"}},{"name":"Feldhook","postalCode":"48712","locality":"Gescher","municipality":{"key":"05554016","name":"Gescher, Glockenstadt","type":"Stadt"},"district":{"key":"05554","name":"Borken","type":"Kreis"},"federalState":{"key":"05","name":"Nordrhein-Westfalen"}},{"name":"Feldkamp","postalCode":"48712","locality":"Gescher","municipality":{"key":"05554016","name":"Gescher, Glockenstadt","type":"Stadt"},"district":{"key":"05554","name":"Borken","type":"Kreis"},"federalState":{"key":"05","name":"Nordrhein-Westfalen"}},{"name":"Feldstiege","postalCode":"48712","locality":"Gescher","municipality":{"key":"05554016","name":"Gescher, Glockenstadt","type":"Stadt"},"district":{"key":"05554","name":"Borken","type":"Kreis"},"federalState":{"key":"05","name":"Nordrhein-Westfalen"}},{"name":"Feldstr.","postalCode":"48712","locality":"Gescher","municipality":{"key":"05554016","name":"Gescher, Glockenstadt","type":"Stadt"},"district":{"key":"05554","name":"Borken","type":"Kreis"},"federalState":{"key":"05","name":"Nordrhein-Westfalen"}},{"name":"Finkenweg","postalCode":"48712","locality":"Gescher","municipality":{"key":"05554016","name":"Gescher, Glockenstadt","type":"Stadt"},"district":{"key":"05554","name":"Borken","type":"Kreis"},"federalState":{"key":"05","name":"Nordrhein-Westfalen"}},{"name":"Fliederweg","postalCode":"48712","locality":"Gescher","municipality":{"key":"05554016","name":"Gescher, Glockenstadt","type":"Stadt"},"district":{"key":"05554","name":"Borken","type":"Kreis"},"federalState":{"key":"05","name":"Nordrhein-Westfalen"}},{"name":"Franz-Josef-Str.","postalCode":"48712","locality":"Gescher","municipality":{"key":"05554016","name":"Gescher, Glockenstadt","type":"Stadt"},"district":{"key":"05554","name":"Borken","type":"Kreis"},"federalState":{"key":"05","name":"Nordrhein-Westfalen"}},{"name":"Friedensstr.","postalCode":"48712","locality":"Gescher","municipality":{"key":"05554016","name":"Gescher, Glockenstadt","type":"Stadt"},"district":{"key":"05554","name":"Borken","type":"Kreis"},"federalState":{"key":"05","name":"Nordrhein-Westfalen"}},{"name":"Frieterhofstr.","postalCode":"48712","locality":"Gescher","municipality":{"key":"05554016","name":"Gescher, Glockenstadt","type":"Stadt"},"district":{"key":"05554","name":"Borken","type":"Kreis"},"federalState":{"key":"05","name":"Nordrhein-Westfalen"}},{"name":"Fritz-Reuter-Str.","postalCode":"48712","locality":"Gescher","municipality":{"key":"05554016","name":"Gescher, Glockenstadt","type":"Stadt"},"district":{"key":"05554","name":"Borken","type":"Kreis"},"federalState":{"key":"05","name":"Nordrhein-Westfalen"}},{"name":"Fürstenkamp","postalCode":"48712","locality":"Gescher","municipality":{"key":"05554016","name":"Gescher, Glockenstadt","type":"Stadt"},"district":{"key":"05554","name":"Borken","type":"Kreis"},"federalState":{"key":"05","name":"Nordrhein-Westfalen"}},{"name":"Gartenstr.","postalCode":"48712","locality":"Gescher","municipality":{"key":"05554016","name":"Gescher, Glockenstadt","type":"Stadt"},"district":{"key":"05554","name":"Borken","type":"Kreis"},"federalState":{"key":"05","name":"Nordrhein-Westfalen"}},{"name":"Gescherer Str.","postalCode":"48712","locality":"Gescher","municipality":{"key":"05554016","name":"Gescher, Glockenstadt","type":"Stadt"},"district":{"key":"05554","name":"Borken","type":"Kreis"},"federalState":{"key":"05","name":"Nordrhein-Westfalen"}},{"name":"Goethestr.","postalCode":"48712","locality":"Gescher","municipality":{"key":"05554016","name":"Gescher, Glockenstadt","type":"Stadt"},"district":{"key":"05554","name":"Borken","type":"Kreis"},"federalState":{"key":"05","name":"Nordrhein-Westfalen"}},{"name":"Gografstr.","postalCode":"48712","locality":"Gescher","municipality":{"key":"05554016","name":"Gescher, Glockenstadt","type":"Stadt"},"district":{"key":"05554","name":"Borken","type":"Kreis"},"federalState":{"key":"05","name":"Nordrhein-Westfalen"}},{"name":"Grenzlandring","postalCode":"48712","locality":"Gescher","municipality":{"key":"05554016","name":"Gescher, Glockenstadt","type":"Stadt"},"district":{"key":"05554","name":"Borken","type":"Kreis"},"federalState":{"key":"05","name":"Nordrhein-Westfalen"}},{"name":"Greves Wiese","postalCode":"48712","locality":"Gescher","municipality":{"key":"05554016","name":"Gescher, Glockenstadt","type":"Stadt"},"district":{"key":"05554","name":"Borken","type":"Kreis"},"federalState":{"key":"05","name":"Nordrhein-Westfalen"}},{"name":"Grimoldinghof","postalCode":"48712","locality":"Gescher","municipality":{"key":"05554016","name":"Gescher, Glockenstadt","type":"Stadt"},"district":{"key":"05554","name":"Borken","type":"Kreis"},"federalState":{"key":"05","name":"Nordrhein-Westfalen"}},{"name":"Grüner Grund","postalCode":"48712","locality":"Gescher","municipality":{"key":"05554016","name":"Gescher, Glockenstadt","type":"Stadt"},"district":{"key":"05554","name":"Borken","type":"Kreis"},"federalState":{"key":"05","name":"Nordrhein-Westfalen"}},{"name":"Gustav-Freytag-Str.","postalCode":"48712","locality":"Gescher","municipality":{"key":"05554016","name":"Gescher, Glockenstadt","type":"Stadt"},"district":{"key":"05554","name":"Borken","type":"Kreis"},"federalState":{"key":"05","name":"Nordrhein-Westfalen"}},{"name":"Hackenschlatt","postalCode":"48712","locality":"Gescher","municipality":{"key":"05554016","name":"Gescher, Glockenstadt","type":"Stadt"},"district":{"key":"05554","name":"Borken","type":"Kreis"},"federalState":{"key":"05","name":"Nordrhein-Westfalen"}},{"name":"Haferweg","postalCode":"48712","locality":"Gescher","municipality":{"key":"05554016","name":"Gescher, Glockenstadt","type":"Stadt"},"district":{"key":"05554","name":"Borken","type":"Kreis"},"federalState":{"key":"05","name":"Nordrhein-Westfalen"}},{"name":"Hahnenkamp","postalCode":"48712","locality":"Gescher","municipality":{"key":"05554016","name":"Gescher, Glockenstadt","type":"Stadt"},"district":{"key":"05554","name":"Borken","type":"Kreis"},"federalState":{"key":"05","name":"Nordrhein-Westfalen"}},{"name":"Hainbuchenstr.","postalCode":"48712","locality":"Gescher","municipality":{"key":"05554016","name":"Gescher, Glockenstadt","type":"Stadt"},"district":{"key":"05554","name":"Borken","type":"Kreis"},"federalState":{"key":"05","name":"Nordrhein-Westfalen"}},{"name":"Hallerweg","postalCode":"48712","locality":"Gescher","municipality":{"key":"05554016","name":"Gescher, Glockenstadt","type":"Stadt"},"district":{"key":"05554","name":"Borken","type":"Kreis"},"federalState":{"key":"05","name":"Nordrhein-Westfalen"}},{"name":"Händelstr.","postalCode":"48712","locality":"Gescher","municipality":{"key":"05554016","name":"Gescher, Glockenstadt","type":"Stadt"},"district":{"key":"05554","name":"Borken","type":"Kreis"},"federalState":{"key":"05","name":"Nordrhein-Westfalen"}},{"name":"Harwick","postalCode":"48712","locality":"Gescher","municipality":{"key":"05554016","name":"Gescher, Glockenstadt","type":"Stadt"},"district":{"key":"05554","name":"Borken","type":"Kreis"},"federalState":{"key":"05","name":"Nordrhein-Westfalen"}},{"name":"Hasenpatt","postalCode":"48712","locality":"Gescher","municipality":{"key":"05554016","name":"Gescher, Glockenstadt","type":"Stadt"},"district":{"key":"05554","name":"Borken","type":"Kreis"},"federalState":{"key":"05","name":"Nordrhein-Westfalen"}},{"name":"Hauptstr.","postalCode":"48712","locality":"Gescher","municipality":{"key":"05554016","name":"Gescher, Glockenstadt","type":"Stadt"},"district":{"key":"05554","name":"Borken","type":"Kreis"},"federalState":{"key":"05","name":"Nordrhein-Westfalen"}},{"name":"Hauskampstr.","postalCode":"48712","locality":"Gescher","municipality":{"key":"05554016","name":"Gescher, Glockenstadt","type":"Stadt"},"district":{"key":"05554","name":"Borken","type":"Kreis"},"federalState":{"key":"05","name":"Nordrhein-Westfalen"}},{"name":"Haydnstr.","postalCode":"48712","locality":"Gescher","municipality":{"key":"05554016","name":"Gescher, Glockenstadt","type":"Stadt"},"district":{"key":"05554","name":"Borken","type":"Kreis"},"federalState":{"key":"05","name":"Nordrhein-Westfalen"}},{"name":"Heidestr.","postalCode":"48712","locality":"Gescher","municipality":{"key":"05554016","name":"Gescher, Glockenstadt","type":"Stadt"},"district":{"key":"05554","name":"Borken","type":"Kreis"},"federalState":{"key":"05","name":"Nordrhein-Westfalen"}},{"name":"Heinkelstr.","postalCode":"48712","locality":"Gescher","municipality":{"key":"05554016","name":"Gescher, Glockenstadt","type":"Stadt"},"district":{"key":"05554","name":"Borken","type":"Kreis"},"federalState":{"key":"05","name":"Nordrhein-Westfalen"}},{"name":"Hinterm Rott","postalCode":"48712","locality":"Gescher","municipality":{"key":"05554016","name":"Gescher, Glockenstadt","type":"Stadt"},"district":{"key":"05554","name":"Borken","type":"Kreis"},"federalState":{"key":"05","name":"Nordrhein-Westfalen"}},{"name":"Hofbolleweg","postalCode":"48712","locality":"Gescher","municipality":{"key":"05554016","name":"Gescher, Glockenstadt","type":"Stadt"},"district":{"key":"05554","name":"Borken","type":"Kreis"},"federalState":{"key":"05","name":"Nordrhein-Westfalen"}},{"name":"Hofstr.","postalCode":"48712","locality":"Gescher","municipality":{"key":"05554016","name":"Gescher, Glockenstadt","type":"Stadt"},"district":{"key":"05554","name":"Borken","type":"Kreis"},"federalState":{"key":"05","name":"Nordrhein-Westfalen"}},{"name":"Hogenkamp","postalCode":"48712","locality":"Gescher","municipality":{"key":"05554016","name":"Gescher, Glockenstadt","type":"Stadt"},"district":{"key":"05554","name":"Borken","type":"Kreis"},"federalState":{"key":"05","name":"Nordrhein-Westfalen"}},{"name":"Holtwicker Damm","postalCode":"48712","locality":"Gescher","municipality":{"key":"05554016","name":"Gescher, Glockenstadt","type":"Stadt"},"district":{"key":"05554","name":"Borken","type":"Kreis"},"federalState":{"key":"05","name":"Nordrhein-Westfalen"}},{"name":"Holunderstr.","postalCode":"48712","locality":"Gescher","municipality":{"key":"05554016","name":"Gescher, Glockenstadt","type":"Stadt"},"district":{"key":"05554","name":"Borken","type":"Kreis"},"federalState":{"key":"05","name":"Nordrhein-Westfalen"}},{"name":"Hummerskamp","postalCode":"48712","locality":"Gescher","municipality":{"key":"05554016","name":"Gescher, Glockenstadt","type":"Stadt"},"district":{"key":"05554","name":"Borken","type":"Kreis"},"federalState":{"key":"05","name":"Nordrhein-Westfalen"}},{"name":"Im Bruch","postalCode":"48712","locality":"Gescher","municipality":{"key":"05554016","name":"Gescher, Glockenstadt","type":"Stadt"},"district":{"key":"05554","name":"Borken","type":"Kreis"},"federalState":{"key":"05","name":"Nordrhein-Westfalen"}},{"name":"Im Kolk","postalCode":"48712","locality":"Gescher","municipality":{"key":"05554016","name":"Gescher, Glockenstadt","type":"Stadt"},"district":{"key":"05554","name":"Borken","type":"Kreis"},"federalState":{"key":"05","name":"Nordrhein-Westfalen"}},{"name":"Im Vogelsang","postalCode":"48712","locality":"Gescher","municipality":{"key":"05554016","name":"Gescher, Glockenstadt","type":"Stadt"},"district":{"key":"05554","name":"Borken","type":"Kreis"},"federalState":{"key":"05","name":"Nordrhein-Westfalen"}},{"name":"Inselstr.","postalCode":"48712","locality":"Gescher","municipality":{"key":"05554016","name":"Gescher, Glockenstadt","type":"Stadt"},"district":{"key":"05554","name":"Borken","type":"Kreis"},"federalState":{"key":"05","name":"Nordrhein-Westfalen"}},{"name":"Jägerweg","postalCode":"48712","locality":"Gescher","municipality":{"key":"05554016","name":"Gescher, Glockenstadt","type":"Stadt"},"district":{"key":"05554","name":"Borken","type":"Kreis"},"federalState":{"key":"05","name":"Nordrhein-Westfalen"}},{"name":"Jahnstr.","postalCode":"48712","locality":"Gescher","municipality":{"key":"05554016","name":"Gescher, Glockenstadt","type":"Stadt"},"district":{"key":"05554","name":"Borken","type":"Kreis"},"federalState":{"key":"05","name":"Nordrhein-Westfalen"}},{"name":"Josef-Willenbrink-Str.","postalCode":"48712","locality":"Gescher","municipality":{"key":"05554016","name":"Gescher, Glockenstadt","type":"Stadt"},"district":{"key":"05554","name":"Borken","type":"Kreis"},"federalState":{"key":"05","name":"Nordrhein-Westfalen"}},{"name":"Joseph-Stover-Weg","postalCode":"48712","locality":"Gescher","municipality":{"key":"05554016","name":"Gescher, Glockenstadt","type":"Stadt"},"district":{"key":"05554","name":"Borken","type":"Kreis"},"federalState":{"key":"05","name":"Nordrhein-Westfalen"}},{"name":"Kampstr.","postalCode":"48712","locality":"Gescher","municipality":{"key":"05554016","name":"Gescher, Glockenstadt","type":"Stadt"},"district":{"key":"05554","name":"Borken","type":"Kreis"},"federalState":{"key":"05","name":"Nordrhein-Westfalen"}},{"name":"Kardinal-von-Galen-Str.","postalCode":"48712","locality":"Gescher","municipality":{"key":"05554016","name":"Gescher, Glockenstadt","type":"Stadt"},"district":{"key":"05554","name":"Borken","type":"Kreis"},"federalState":{"key":"05","name":"Nordrhein-Westfalen"}},{"name":"Kastanienweg","postalCode":"48712","locality":"Gescher","municipality":{"key":"05554016","name":"Gescher, Glockenstadt","type":"Stadt"},"district":{"key":"05554","name":"Borken","type":"Kreis"},"federalState":{"key":"05","name":"Nordrhein-Westfalen"}},{"name":"Katharinenstr.","postalCode":"48712","locality":"Gescher","municipality":{"key":"05554016","name":"Gescher, Glockenstadt","type":"Stadt"},"district":{"key":"05554","name":"Borken","type":"Kreis"},"federalState":{"key":"05","name":"Nordrhein-Westfalen"}},{"name":"Kersenkamp","postalCode":"48712","locality":"Gescher","municipality":{"key":"05554016","name":"Gescher, Glockenstadt","type":"Stadt"},"district":{"key":"05554","name":"Borken","type":"Kreis"},"federalState":{"key":"05","name":"Nordrhein-Westfalen"}},{"name":"Kettelerstr.","postalCode":"48712","locality":"Gescher","municipality":{"key":"05554016","name":"Gescher, Glockenstadt","type":"Stadt"},"district":{"key":"05554","name":"Borken","type":"Kreis"},"federalState":{"key":"05","name":"Nordrhein-Westfalen"}},{"name":"Kiefernweg","postalCode":"48712","locality":"Gescher","municipality":{"key":"05554016","name":"Gescher, Glockenstadt","type":"Stadt"},"district":{"key":"05554","name":"Borken","type":"Kreis"},"federalState":{"key":"05","name":"Nordrhein-Westfalen"}},{"name":"Kirchplatz","postalCode":"48712","locality":"Gescher","municipality":{"key":"05554016","name":"Gescher, Glockenstadt","type":"Stadt"},"district":{"key":"05554","name":"Borken","type":"Kreis"},"federalState":{"key":"05","name":"Nordrhein-Westfalen"}},{"name":"Klasmannstr.","postalCode":"48712","locality":"Gescher","municipality":{"key":"05554016","name":"Gescher, Glockenstadt","type":"Stadt"},"district":{"key":"05554","name":"Borken","type":"Kreis"},"federalState":{"key":"05","name":"Nordrhein-Westfalen"}},{"name":"Kolpingstr.","postalCode":"48712","locality":"Gescher","municipality":{"key":"05554016","name":"Gescher, Glockenstadt","type":"Stadt"},"district":{"key":"05554","name":"Borken","type":"Kreis"},"federalState":{"key":"05","name":"Nordrhein-Westfalen"}},{"name":"Königstr.","postalCode":"48712","locality":"Gescher","municipality":{"key":"05554016","name":"Gescher, Glockenstadt","type":"Stadt"},"district":{"key":"05554","name":"Borken","type":"Kreis"},"federalState":{"key":"05","name":"Nordrhein-Westfalen"}},{"name":"Konrad-Adenauer-Str.","postalCode":"48712","locality":"Gescher","municipality":{"key":"05554016","name":"Gescher, Glockenstadt","type":"Stadt"},"district":{"key":"05554","name":"Borken","type":"Kreis"},"federalState":{"key":"05","name":"Nordrhein-Westfalen"}},{"name":"Körnerweg","postalCode":"48712","locality":"Gescher","municipality":{"key":"05554016","name":"Gescher, Glockenstadt","type":"Stadt"},"district":{"key":"05554","name":"Borken","type":"Kreis"},"federalState":{"key":"05","name":"Nordrhein-Westfalen"}},{"name":"Kreuzstr.","postalCode":"48712","locality":"Gescher","municipality":{"key":"05554016","name":"Gescher, Glockenstadt","type":"Stadt"},"district":{"key":"05554","name":"Borken","type":"Kreis"},"federalState":{"key":"05","name":"Nordrhein-Westfalen"}},{"name":"Kurzer Weg","postalCode":"48712","locality":"Gescher","municipality":{"key":"05554016","name":"Gescher, Glockenstadt","type":"Stadt"},"district":{"key":"05554","name":"Borken","type":"Kreis"},"federalState":{"key":"05","name":"Nordrhein-Westfalen"}},{"name":"Landsbergstr.","postalCode":"48712","locality":"Gescher","municipality":{"key":"05554016","name":"Gescher, Glockenstadt","type":"Stadt"},"district":{"key":"05554","name":"Borken","type":"Kreis"},"federalState":{"key":"05","name":"Nordrhein-Westfalen"}},{"name":"Lehmgrund","postalCode":"48712","locality":"Gescher","municipality":{"key":"05554016","name":"Gescher, Glockenstadt","type":"Stadt"},"district":{"key":"05554","name":"Borken","type":"Kreis"},"federalState":{"key":"05","name":"Nordrhein-Westfalen"}},{"name":"Lerchenweg","postalCode":"48712","locality":"Gescher","municipality":{"key":"05554016","name":"Gescher, Glockenstadt","type":"Stadt"},"district":{"key":"05554","name":"Borken","type":"Kreis"},"federalState":{"key":"05","name":"Nordrhein-Westfalen"}},{"name":"Liebigstr.","postalCode":"48712","locality":"Gescher","municipality":{"key":"05554016","name":"Gescher, Glockenstadt","type":"Stadt"},"district":{"key":"05554","name":"Borken","type":"Kreis"},"federalState":{"key":"05","name":"Nordrhein-Westfalen"}},{"name":"Lindenstr.","postalCode":"48712","locality":"Gescher","municipality":{"key":"05554016","name":"Gescher, Glockenstadt","type":"Stadt"},"district":{"key":"05554","name":"Borken","type":"Kreis"},"federalState":{"key":"05","name":"Nordrhein-Westfalen"}},{"name":"Lise-Meitner-Str.","postalCode":"48712","locality":"Gescher","municipality":{"key":"05554016","name":"Gescher, Glockenstadt","type":"Stadt"},"district":{"key":"05554","name":"Borken","type":"Kreis"},"federalState":{"key":"05","name":"Nordrhein-Westfalen"}},{"name":"Lönsweg","postalCode":"48712","locality":"Gescher","municipality":{"key":"05554016","name":"Gescher, Glockenstadt","type":"Stadt"},"district":{"key":"05554","name":"Borken","type":"Kreis"},"federalState":{"key":"05","name":"Nordrhein-Westfalen"}},{"name":"Lookamp","postalCode":"48712","locality":"Gescher","municipality":{"key":"05554016","name":"Gescher, Glockenstadt","type":"Stadt"},"district":{"key":"05554","name":"Borken","type":"Kreis"},"federalState":{"key":"05","name":"Nordrhein-Westfalen"}},{"name":"Margeritenweg","postalCode":"48712","locality":"Gescher","municipality":{"key":"05554016","name":"Gescher, Glockenstadt","type":"Stadt"},"district":{"key":"05554","name":"Borken","type":"Kreis"},"federalState":{"key":"05","name":"Nordrhein-Westfalen"}},{"name":"Marie-Curie-Str.","postalCode":"48712","locality":"Gescher","municipality":{"key":"05554016","name":"Gescher, Glockenstadt","type":"Stadt"},"district":{"key":"05554","name":"Borken","type":"Kreis"},"federalState":{"key":"05","name":"Nordrhein-Westfalen"}},{"name":"Marienstr.","postalCode":"48712","locality":"Gescher","municipality":{"key":"05554016","name":"Gescher, Glockenstadt","type":"Stadt"},"district":{"key":"05554","name":"Borken","type":"Kreis"},"federalState":{"key":"05","name":"Nordrhein-Westfalen"}},{"name":"Markgrafenstr.","postalCode":"48712","locality":"Gescher","municipality":{"key":"05554016","name":"Gescher, Glockenstadt","type":"Stadt"},"district":{"key":"05554","name":"Borken","type":"Kreis"},"federalState":{"key":"05","name":"Nordrhein-Westfalen"}},{"name":"Marktplatz","postalCode":"48712","locality":"Gescher","municipality":{"key":"05554016","name":"Gescher, Glockenstadt","type":"Stadt"},"district":{"key":"05554","name":"Borken","type":"Kreis"},"federalState":{"key":"05","name":"Nordrhein-Westfalen"}},{"name":"Meisenweg","postalCode":"48712","locality":"Gescher","municipality":{"key":"05554016","name":"Gescher, Glockenstadt","type":"Stadt"},"district":{"key":"05554","name":"Borken","type":"Kreis"},"federalState":{"key":"05","name":"Nordrhein-Westfalen"}},{"name":"Mergelkamp","postalCode":"48712","locality":"Gescher","municipality":{"key":"05554016","name":"Gescher, Glockenstadt","type":"Stadt"},"district":{"key":"05554","name":"Borken","type":"Kreis"},"federalState":{"key":"05","name":"Nordrhein-Westfalen"}},{"name":"Moosbeerweg","postalCode":"48712","locality":"Gescher","municipality":{"key":"05554016","name":"Gescher, Glockenstadt","type":"Stadt"},"district":{"key":"05554","name":"Borken","type":"Kreis"},"federalState":{"key":"05","name":"Nordrhein-Westfalen"}},{"name":"Moospfad","postalCode":"48712","locality":"Gescher","municipality":{"key":"05554016","name":"Gescher, Glockenstadt","type":"Stadt"},"district":{"key":"05554","name":"Borken","type":"Kreis"},"federalState":{"key":"05","name":"Nordrhein-Westfalen"}},{"name":"Mozartstr.","postalCode":"48712","locality":"Gescher","municipality":{"key":"05554016","name":"Gescher, Glockenstadt","type":"Stadt"},"district":{"key":"05554","name":"Borken","type":"Kreis"},"federalState":{"key":"05","name":"Nordrhein-Westfalen"}},{"name":"Mühlengrund","postalCode":"48712","locality":"Gescher","municipality":{"key":"05554016","name":"Gescher, Glockenstadt","type":"Stadt"},"district":{"key":"05554","name":"Borken","type":"Kreis"},"federalState":{"key":"05","name":"Nordrhein-Westfalen"}},{"name":"Mühlenweg","postalCode":"48712","locality":"Gescher","municipality":{"key":"05554016","name":"Gescher, Glockenstadt","type":"Stadt"},"district":{"key":"05554","name":"Borken","type":"Kreis"},"federalState":{"key":"05","name":"Nordrhein-Westfalen"}},{"name":"Nelkenweg","postalCode":"48712","locality":"Gescher","municipality":{"key":"05554016","name":"Gescher, Glockenstadt","type":"Stadt"},"district":{"key":"05554","name":"Borken","type":"Kreis"},"federalState":{"key":"05","name":"Nordrhein-Westfalen"}},{"name":"Neuer Kamp","postalCode":"48712","locality":"Gescher","municipality":{"key":"05554016","name":"Gescher, Glockenstadt","type":"Stadt"},"district":{"key":"05554","name":"Borken","type":"Kreis"},"federalState":{"key":"05","name":"Nordrhein-Westfalen"}},{"name":"Neuer Weg","postalCode":"48712","locality":"Gescher","municipality":{"key":"05554016","name":"Gescher, Glockenstadt","type":"Stadt"},"district":{"key":"05554","name":"Borken","type":"Kreis"},"federalState":{"key":"05","name":"Nordrhein-Westfalen"}},{"name":"Nielandskamp","postalCode":"48712","locality":"Gescher","municipality":{"key":"05554016","name":"Gescher, Glockenstadt","type":"Stadt"},"district":{"key":"05554","name":"Borken","type":"Kreis"},"federalState":{"key":"05","name":"Nordrhein-Westfalen"}},{"name":"Nordkamp","postalCode":"48712","locality":"Gescher","municipality":{"key":"05554016","name":"Gescher, Glockenstadt","type":"Stadt"},"district":{"key":"05554","name":"Borken","type":"Kreis"},"federalState":{"key":"05","name":"Nordrhein-Westfalen"}},{"name":"Oberdorfring","postalCode":"34582","locality":"Borken (Hessen)","municipality":{"key":"06634001","name":"Borken (Hessen), Stadt","type":"Stadt"},"district":{"key":"06634","name":"Schwalm-Eder-Kreis","type":"Landkreis"},"federalState":{"key":"06","name":"Hessen"}},{"name":"Obere Bergstr.","postalCode":"34582","locality":"Borken (Hessen)","municipality":{"key":"06634001","name":"Borken (Hessen), Stadt","type":"Stadt"},"district":{"key":"06634","name":"Schwalm-Eder-Kreis","type":"Landkreis"},"federalState":{"key":"06","name":"Hessen"}},{"name":"Oberer Traufenweg","postalCode":"34582","locality":"Borken (Hessen)","municipality":{"key":"06634001","name":"Borken (Hessen), Stadt","type":"Stadt"},"district":{"key":"06634","name":"Schwalm-Eder-Kreis","type":"Landkreis"},"federalState":{"key":"06","name":"Hessen"}},{"name":"Oberstr.","postalCode":"34582","locality":"Borken (Hessen)","municipality":{"key":"06634001","name":"Borken (Hessen), Stadt","type":"Stadt"},"district":{"key":"06634","name":"Schwalm-Eder-Kreis","type":"Landkreis"},"federalState":{"key":"06","name":"Hessen"}},{"name":"Oblatenstr.","postalCode":"46325","locality":"Borken","municipality":{"key":"05554012","name":"Borken, Stadt","type":"Stadt"},"district":{"key":"05554","name":"Borken","type":"Kreis"},"federalState":{"key":"05","name":"Nordrhein-Westfalen"}},{"name":"Odenwaldweg","postalCode":"34582","locality":"Borken (Hessen)","municipality":{"key":"06634001","name":"Borken (Hessen), Stadt","type":"Stadt"},"district":{"key":"06634","name":"Schwalm-Eder-Kreis","type":"Landkreis"},"federalState":{"key":"06","name":"Hessen"}},{"name":"Oderstr.","postalCode":"34582","locality":"Borken (Hessen)","municipality":{"key":"06634001","name":"Borken (Hessen), Stadt","type":"Stadt"},"district":{"key":"06634","name":"Schwalm-Eder-Kreis","type":"Landkreis"},"federalState":{"key":"06","name":"Hessen"}},{"name":"Oedinger Str.","postalCode":"46325","locality":"Borken","municipality":{"key":"05554012","name":"Borken, Stadt","type":"Stadt"},"district":{"key":"05554","name":"Borken","type":"Kreis"},"federalState":{"key":"05","name":"Nordrhein-Westfalen"}},{"name":"Offenbachstr.","postalCode":"46325","locality":"Borken","municipality":{"key":"05554012","name":"Borken, Stadt","type":"Stadt"},"district":{"key":"05554","name":"Borken","type":"Kreis"},"federalState":{"key":"05","name":"Nordrhein-Westfalen"}},{"name":"Olmsweg","postalCode":"34582","locality":"Borken (Hessen)","municipality":{"key":"06634001","name":"Borken (Hessen), Stadt","type":"Stadt"},"district":{"key":"06634","name":"Schwalm-Eder-Kreis","type":"Landkreis"},"federalState":{"key":"06","name":"Hessen"}},{"name":"Op den Dahl","postalCode":"46325","locality":"Borken","municipality":{"key":"05554012","name":"Borken, Stadt","type":"Stadt"},"district":{"key":"05554","name":"Borken","type":"Kreis"},"federalState":{"key":"05","name":"Nordrhein-Westfalen"}},{"name":"Orakelweg","postalCode":"46325","locality":"Borken","municipality":{"key":"05554012","name":"Borken, Stadt","type":"Stadt"},"district":{"key":"05554","name":"Borken","type":"Kreis"},"federalState":{"key":"05","name":"Nordrhein-Westfalen"}},{"name":"Oranienweg","postalCode":"46325","locality":"Borken","municipality":{"key":"05554012","name":"Borken, Stadt","type":"Stadt"},"district":{"key":"05554","name":"Borken","type":"Kreis"},"federalState":{"key":"05","name":"Nordrhein-Westfalen"}},{"name":"Ostlandstr.","postalCode":"34582","locality":"Borken (Hessen)","municipality":{"key":"06634001","name":"Borken (Hessen), Stadt","type":"Stadt"},"district":{"key":"06634","name":"Schwalm-Eder-Kreis","type":"Landkreis"},"federalState":{"key":"06","name":"Hessen"}},{"name":"Ostlandstr.","postalCode":"46325","locality":"Borken","municipality":{"key":"05554012","name":"Borken, Stadt","type":"Stadt"},"district":{"key":"05554","name":"Borken","type":"Kreis"},"federalState":{"key":"05","name":"Nordrhein-Westfalen"}},{"name":"Ostpreußenweg","postalCode":"46325","locality":"Borken","municipality":{"key":"05554012","name":"Borken, Stadt","type":"Stadt"},"district":{"key":"05554","name":"Borken","type":"Kreis"},"federalState":{"key":"05","name":"Nordrhein-Westfalen"}},{"name":"Otto-Hahn-Str.","postalCode":"46325","locality":"Borken","municipality":{"key":"05554012","name":"Borken, Stadt","type":"Stadt"},"district":{"key":"05554","name":"Borken","type":"Kreis"},"federalState":{"key":"05","name":"Nordrhein-Westfalen"}},{"name":"Ottostr.","postalCode":"34582","locality":"Borken (Hessen)","municipality":{"key":"06634001","name":"Borken (Hessen), Stadt","type":"Stadt"},"district":{"key":"06634","name":"Schwalm-Eder-Kreis","type":"Landkreis"},"federalState":{"key":"06","name":"Hessen"}},{"name":"Overbergstr.","postalCode":"46325","locality":"Borken","municipality":{"key":"05554012","name":"Borken, Stadt","type":"Stadt"},"district":{"key":"05554","name":"Borken","type":"Kreis"},"federalState":{"key":"05","name":"Nordrhein-Westfalen"}},{"name":"Oyenstr.","postalCode":"46325","locality":"Borken","municipality":{"key":"05554012","name":"Borken, Stadt","type":"Stadt"},"district":{"key":"05554","name":"Borken","type":"Kreis"},"federalState":{"key":"05","name":"Nordrhein-Westfalen"}},{"name":"Pankratiusstr.","postalCode":"48712","locality":"Gescher","municipality":{"key":"05554016","name":"Gescher, Glockenstadt","type":"Stadt"},"district":{"key":"05554","name":"Borken","type":"Kreis"},"federalState":{"key":"05","name":"Nordrhein-Westfalen"}},{"name":"Pappelallee","postalCode":"48712","locality":"Gescher","municipality":{"key":"05554016","name":"Gescher, Glockenstadt","type":"Stadt"},"district":{"key":"05554","name":"Borken","type":"Kreis"},"federalState":{"key":"05","name":"Nordrhein-Westfalen"}},{"name":"Paul-Keller-Str.","postalCode":"48712","locality":"Gescher","municipality":{"key":"05554016","name":"Gescher, Glockenstadt","type":"Stadt"},"district":{"key":"05554","name":"Borken","type":"Kreis"},"federalState":{"key":"05","name":"Nordrhein-Westfalen"}},{"name":"Pionierweg","postalCode":"48712","locality":"Gescher","municipality":{"key":"05554016","name":"Gescher, Glockenstadt","type":"Stadt"},"district":{"key":"05554","name":"Borken","type":"Kreis"},"federalState":{"key":"05","name":"Nordrhein-Westfalen"}},{"name":"Platanenweg","postalCode":"48712","locality":"Gescher","municipality":{"key":"05554016","name":"Gescher, Glockenstadt","type":"Stadt"},"district":{"key":"05554","name":"Borken","type":"Kreis"},"federalState":{"key":"05","name":"Nordrhein-Westfalen"}},{"name":"Prozessionsweg","postalCode":"48712","locality":"Gescher","municipality":{"key":"05554016","name":"Gescher, Glockenstadt","type":"Stadt"},"district":{"key":"05554","name":"Borken","type":"Kreis"},"federalState":{"key":"05","name":"Nordrhein-Westfalen"}},{"name":"Quittenweg","postalCode":"48712","locality":"Gescher","municipality":{"key":"05554016","name":"Gescher, Glockenstadt","type":"Stadt"},"district":{"key":"05554","name":"Borken","type":"Kreis"},"federalState":{"key":"05","name":"Nordrhein-Westfalen"}},{"name":"Raiffeisenstr.","postalCode":"48712","locality":"Gescher","municipality":{"key":"05554016","name":"Gescher, Glockenstadt","type":"Stadt"},"district":{"key":"05554","name":"Borken","type":"Kreis"},"federalState":{"key":"05","name":"Nordrhein-Westfalen"}},{"name":"Rauschbeerstr.","postalCode":"48712","locality":"Gescher","municipality":{"key":"05554016","name":"Gescher, Glockenstadt","type":"Stadt"},"district":{"key":"05554","name":"Borken","type":"Kreis"},"federalState":{"key":"05","name":"Nordrhein-Westfalen"}},{"name":"Rekener Str.","postalCode":"48712","locality":"Gescher","municipality":{"key":"05554016","name":"Gescher, Glockenstadt","type":"Stadt"},"district":{"key":"05554","name":"Borken","type":"Kreis"},"federalState":{"key":"05","name":"Nordrhein-Westfalen"}},{"name":"Riete","postalCode":"48712","locality":"Gescher","municipality":{"key":"05554016","name":"Gescher, Glockenstadt","type":"Stadt"},"district":{"key":"05554","name":"Borken","type":"Kreis"},"federalState":{"key":"05","name":"Nordrhein-Westfalen"}},{"name":"Rietgang","postalCode":"48712","locality":"Gescher","municipality":{"key":"05554016","name":"Gescher, Glockenstadt","type":"Stadt"},"district":{"key":"05554","name":"Borken","type":"Kreis"},"federalState":{"key":"05","name":"Nordrhein-Westfalen"}},{"name":"Roggenkamp","postalCode":"48712","locality":"Gescher","municipality":{"key":"05554016","name":"Gescher, Glockenstadt","type":"Stadt"},"district":{"key":"05554","name":"Borken","type":"Kreis"},"federalState":{"key":"05","name":"Nordrhein-Westfalen"}},{"name":"Rosenweg","postalCode":"48712","locality":"Gescher","municipality":{"key":"05554016","name":"Gescher, Glockenstadt","type":"Stadt"},"district":{"key":"05554","name":"Borken","type":"Kreis"},"federalState":{"key":"05","name":"Nordrhein-Westfalen"}},{"name":"Rosmarinstr.","postalCode":"48712","locality":"Gescher","municipality":{"key":"05554016","name":"Gescher, Glockenstadt","type":"Stadt"},"district":{"key":"05554","name":"Borken","type":"Kreis"},"federalState":{"key":"05","name":"Nordrhein-Westfalen"}},{"name":"Rote Erde","postalCode":"48712","locality":"Gescher","municipality":{"key":"05554016","name":"Gescher, Glockenstadt","type":"Stadt"},"district":{"key":"05554","name":"Borken","type":"Kreis"},"federalState":{"key":"05","name":"Nordrhein-Westfalen"}},{"name":"Rottkamp","postalCode":"48712","locality":"Gescher","municipality":{"key":"05554016","name":"Gescher, Glockenstadt","type":"Stadt"},"district":{"key":"05554","name":"Borken","type":"Kreis"},"federalState":{"key":"05","name":"Nordrhein-Westfalen"}},{"name":"Ruthmannstr.","postalCode":"48712","locality":"Gescher","municipality":{"key":"05554016","name":"Gescher, Glockenstadt","type":"Stadt"},"district":{"key":"05554","name":"Borken","type":"Kreis"},"federalState":{"key":"05","name":"Nordrhein-Westfalen"}},{"name":"Sandweg","postalCode":"48712","locality":"Gescher","municipality":{"key":"05554016","name":"Gescher, Glockenstadt","type":"Stadt"},"district":{"key":"05554","name":"Borken","type":"Kreis"},"federalState":{"key":"05","name":"Nordrhein-Westfalen"}},{"name":"Schildarpstr.","postalCode":"48712","locality":"Gescher","municipality":{"key":"05554016","name":"Gescher, Glockenstadt","type":"Stadt"},"district":{"key":"05554","name":"Borken","type":"Kreis"},"federalState":{"key":"05","name":"Nordrhein-Westfalen"}},{"name":"Schillerstr.","postalCode":"48712","locality":"Gescher","municipality":{"key":"05554016","name":"Gescher, Glockenstadt","type":"Stadt"},"district":{"key":"05554","name":"Borken","type":"Kreis"},"federalState":{"key":"05","name":"Nordrhein-Westfalen"}},{"name":"Schlehenweg","postalCode":"48712","locality":"Gescher","municipality":{"key":"05554016","name":"Gescher, Glockenstadt","type":"Stadt"},"district":{"key":"05554","name":"Borken","type":"Kreis"},"federalState":{"key":"05","name":"Nordrhein-Westfalen"}},{"name":"Schlesierring","postalCode":"48712","locality":"Gescher","municipality":{"key":"05554016","name":"Gescher, Glockenstadt","type":"Stadt"},"district":{"key":"05554","name":"Borken","type":"Kreis"},"federalState":{"key":"05","name":"Nordrhein-Westfalen"}},{"name":"Schmaler Weg","postalCode":"48712","locality":"Gescher","municipality":{"key":"05554016","name":"Gescher, Glockenstadt","type":"Stadt"},"district":{"key":"05554","name":"Borken","type":"Kreis"},"federalState":{"key":"05","name":"Nordrhein-Westfalen"}},{"name":"Schnadweg","postalCode":"48712","locality":"Gescher","municipality":{"key":"05554016","name":"Gescher, Glockenstadt","type":"Stadt"},"district":{"key":"05554","name":"Borken","type":"Kreis"},"federalState":{"key":"05","name":"Nordrhein-Westfalen"}},{"name":"Schollenkamp","postalCode":"48712","locality":"Gescher","municipality":{"key":"05554016","name":"Gescher, Glockenstadt","type":"Stadt"},"district":{"key":"05554","name":"Borken","type":"Kreis"},"federalState":{"key":"05","name":"Nordrhein-Westfalen"}},{"name":"Schuckertstr.","postalCode":"48712","locality":"Gescher","municipality":{"key":"05554016","name":"Gescher, Glockenstadt","type":"Stadt"},"district":{"key":"05554","name":"Borken","type":"Kreis"},"federalState":{"key":"05","name":"Nordrhein-Westfalen"}},{"name":"Schulstr.","postalCode":"48712","locality":"Gescher","municipality":{"key":"05554016","name":"Gescher, Glockenstadt","type":"Stadt"},"district":{"key":"05554","name":"Borken","type":"Kreis"},"federalState":{"key":"05","name":"Nordrhein-Westfalen"}},{"name":"Schultenhook","postalCode":"48712","locality":"Gescher","municipality":{"key":"05554016","name":"Gescher, Glockenstadt","type":"Stadt"},"district":{"key":"05554","name":"Borken","type":"Kreis"},"federalState":{"key":"05","name":"Nordrhein-Westfalen"}},{"name":"Schultenrott","postalCode":"48712","locality":"Gescher","municipality":{"key":"05554016","name":"Gescher, Glockenstadt","type":"Stadt"},"district":{"key":"05554","name":"Borken","type":"Kreis"},"federalState":{"key":"05","name":"Nordrhein-Westfalen"}},{"name":"Schüringsweg","postalCode":"48712","locality":"Gescher","municipality":{"key":"05554016","name":"Gescher, Glockenstadt","type":"Stadt"},"district":{"key":"05554","name":"Borken","type":"Kreis"},"federalState":{"key":"05","name":"Nordrhein-Westfalen"}},{"name":"Schüttenkamp","postalCode":"48712","locality":"Gescher","municipality":{"key":"05554016","name":"Gescher, Glockenstadt","type":"Stadt"},"district":{"key":"05554","name":"Borken","type":"Kreis"},"federalState":{"key":"05","name":"Nordrhein-Westfalen"}},{"name":"Schützenstr.","postalCode":"48712","locality":"Gescher","municipality":{"key":"05554016","name":"Gescher, Glockenstadt","type":"Stadt"},"district":{"key":"05554","name":"Borken","type":"Kreis"},"federalState":{"key":"05","name":"Nordrhein-Westfalen"}},{"name":"Schweizer Weg","postalCode":"48712","locality":"Gescher","municipality":{"key":"05554016","name":"Gescher, Glockenstadt","type":"Stadt"},"district":{"key":"05554","name":"Borken","type":"Kreis"},"federalState":{"key":"05","name":"Nordrhein-Westfalen"}},{"name":"Siepenweg","postalCode":"48712","locality":"Gescher","municipality":{"key":"05554016","name":"Gescher, Glockenstadt","type":"Stadt"},"district":{"key":"05554","name":"Borken","type":"Kreis"},"federalState":{"key":"05","name":"Nordrhein-Westfalen"}},{"name":"Sonnentau","postalCode":"48712","locality":"Gescher","municipality":{"key":"05554016","name":"Gescher, Glockenstadt","type":"Stadt"},"district":{"key":"05554","name":"Borken","type":"Kreis"},"federalState":{"key":"05","name":"Nordrhein-Westfalen"}},{"name":"Sperlingstr.","postalCode":"48712","locality":"Gescher","municipality":{"key":"05554016","name":"Gescher, Glockenstadt","type":"Stadt"},"district":{"key":"05554","name":"Borken","type":"Kreis"},"federalState":{"key":"05","name":"Nordrhein-Westfalen"}},{"name":"Stadtlohner Str.","postalCode":"48712","locality":"Gescher","municipality":{"key":"05554016","name":"Gescher, Glockenstadt","type":"Stadt"},"district":{"key":"05554","name":"Borken","type":"Kreis"},"federalState":{"key":"05","name":"Nordrhein-Westfalen"}},{"name":"Stationsweg","postalCode":"48712","locality":"Gescher","municipality":{"key":"05554016","name":"Gescher, Glockenstadt","type":"Stadt"},"district":{"key":"05554","name":"Borken","type":"Kreis"},"federalState":{"key":"05","name":"Nordrhein-Westfalen"}},{"name":"Stephanusstr.","postalCode":"48712","locality":"Gescher","municipality":{"key":"05554016","name":"Gescher, Glockenstadt","type":"Stadt"},"district":{"key":"05554","name":"Borken","type":"Kreis"},"federalState":{"key":"05","name":"Nordrhein-Westfalen"}},{"name":"Stockheimstr.","postalCode":"48712","locality":"Gescher","municipality":{"key":"05554016","name":"Gescher, Glockenstadt","type":"Stadt"},"district":{"key":"05554","name":"Borken","type":"Kreis"},"federalState":{"key":"05","name":"Nordrhein-Westfalen"}},{"name":"Südlohner Damm","postalCode":"48712","locality":"Gescher","municipality":{"key":"05554016","name":"Gescher, Glockenstadt","type":"Stadt"},"district":{"key":"05554","name":"Borken","type":"Kreis"},"federalState":{"key":"05","name":"Nordrhein-Westfalen"}},{"name":"Taubengasse","postalCode":"48712","locality":"Gescher","municipality":{"key":"05554016","name":"Gescher, Glockenstadt","type":"Stadt"},"district":{"key":"05554","name":"Borken","type":"Kreis"},"federalState":{"key":"05","name":"Nordrhein-Westfalen"}},{"name":"Theodor-Fontane-Str.","postalCode":"48712","locality":"Gescher","municipality":{"key":"05554016","name":"Gescher, Glockenstadt","type":"Stadt"},"district":{"key":"05554","name":"Borken","type":"Kreis"},"federalState":{"key":"05","name":"Nordrhein-Westfalen"}},{"name":"Theodor-Storm-Weg","postalCode":"48712","locality":"Gescher","municipality":{"key":"05554016","name":"Gescher, Glockenstadt","type":"Stadt"},"district":{"key":"05554","name":"Borken","type":"Kreis"},"federalState":{"key":"05","name":"Nordrhein-Westfalen"}},{"name":"Tollnerstr.","postalCode":"48712","locality":"Gescher","municipality":{"key":"05554016","name":"Gescher, Glockenstadt","type":"Stadt"},"district":{"key":"05554","name":"Borken","type":"Kreis"},"federalState":{"key":"05","name":"Nordrhein-Westfalen"}},{"name":"Tulpenweg","postalCode":"48712","locality":"Gescher","municipality":{"key":"05554016","name":"Gescher, Glockenstadt","type":"Stadt"},"district":{"key":"05554","name":"Borken","type":"Kreis"},"federalState":{"key":"05","name":"Nordrhein-Westfalen"}},{"name":"Tungerloh-Capellen","postalCode":"48712","locality":"Gescher","municipality":{"key":"05554016","name":"Gescher, Glockenstadt","type":"Stadt"},"district":{"key":"05554","name":"Borken","type":"Kreis"},"federalState":{"key":"05","name":"Nordrhein-Westfalen"}},{"name":"Tungerloh Capellen 4 / Haus Hall","postalCode":"48712","locality":"Gescher","municipality":{"key":"05554016","name":"Gescher, Glockenstadt","type":"Stadt"},"district":{"key":"05554","name":"Borken","type":"Kreis"},"federalState":{"key":"05","name":"Nordrhein-Westfalen"}},{"name":"Tungerloh-Pröbsting","postalCode":"48712","locality":"Gescher","municipality":{"key":"05554016","name":"Gescher, Glockenstadt","type":"Stadt"},"district":{"key":"05554","name":"Borken","type":"Kreis"},"federalState":{"key":"05","name":"Nordrhein-Westfalen"}},{"name":"Uhlenkamp","postalCode":"48712","locality":"Gescher","municipality":{"key":"05554016","name":"Gescher, Glockenstadt","type":"Stadt"},"district":{"key":"05554","name":"Borken","type":"Kreis"},"federalState":{"key":"05","name":"Nordrhein-Westfalen"}},{"name":"Ulmenweg","postalCode":"48712","locality":"Gescher","municipality":{"key":"05554016","name":"Gescher, Glockenstadt","type":"Stadt"},"district":{"key":"05554","name":"Borken","type":"Kreis"},"federalState":{"key":"05","name":"Nordrhein-Westfalen"}},{"name":"Up'n Bülten","postalCode":"48712","locality":"Gescher","municipality":{"key":"05554016","name":"Gescher, Glockenstadt","type":"Stadt"},"district":{"key":"05554","name":"Borken","type":"Kreis"},"federalState":{"key":"05","name":"Nordrhein-Westfalen"}},{"name":"Velener Str.","postalCode":"48712","locality":"Gescher","municipality":{"key":"05554016","name":"Gescher, Glockenstadt","type":"Stadt"},"district":{"key":"05554","name":"Borken","type":"Kreis"},"federalState":{"key":"05","name":"Nordrhein-Westfalen"}},{"name":"Venneweg","postalCode":"48712","locality":"Gescher","municipality":{"key":"05554016","name":"Gescher, Glockenstadt","type":"Stadt"},"district":{"key":"05554","name":"Borken","type":"Kreis"},"federalState":{"key":"05","name":"Nordrhein-Westfalen"}},{"name":"Vikarskamp","postalCode":"48712","locality":"Gescher","municipality":{"key":"05554016","name":"Gescher, Glockenstadt","type":"Stadt"},"district":{"key":"05554","name":"Borken","type":"Kreis"},"federalState":{"key":"05","name":"Nordrhein-Westfalen"}},{"name":"Vogelkirschenweg","postalCode":"48712","locality":"Gescher","municipality":{"key":"05554016","name":"Gescher, Glockenstadt","type":"Stadt"},"district":{"key":"05554","name":"Borken","type":"Kreis"},"federalState":{"key":"05","name":"Nordrhein-Westfalen"}},{"name":"Vogtstr.","postalCode":"48712","locality":"Gescher","municipality":{"key":"05554016","name":"Gescher, Glockenstadt","type":"Stadt"},"district":{"key":"05554","name":"Borken","type":"Kreis"},"federalState":{"key":"05","name":"Nordrhein-Westfalen"}},{"name":"Von-Galen-Str.","postalCode":"48712","locality":"Gescher","municipality":{"key":"05554016","name":"Gescher, Glockenstadt","type":"Stadt"},"district":{"key":"05554","name":"Borken","type":"Kreis"},"federalState":{"key":"05","name":"Nordrhein-Westfalen"}},{"name":"Wacholderweg","postalCode":"48712","locality":"Gescher","municipality":{"key":"05554016","name":"Gescher, Glockenstadt","type":"Stadt"},"district":{"key":"05554","name":"Borken","type":"Kreis"},"federalState":{"key":"05","name":"Nordrhein-Westfalen"}},{"name":"Wagenfeldstr.","postalCode":"48712","locality":"Gescher","municipality":{"key":"05554016","name":"Gescher, Glockenstadt","type":"Stadt"},"district":{"key":"05554","name":"Borken","type":"Kreis"},"federalState":{"key":"05","name":"Nordrhein-Westfalen"}},{"name":"Waldweg","postalCode":"48712","locality":"Gescher","municipality":{"key":"05554016","name":"Gescher, Glockenstadt","type":"Stadt"},"district":{"key":"05554","name":"Borken","type":"Kreis"},"federalState":{"key":"05","name":"Nordrhein-Westfalen"}},{"name":"Weningshof","postalCode":"48712","locality":"Gescher","municipality":{"key":"05554016","name":"Gescher, Glockenstadt","type":"Stadt"},"district":{"key":"05554","name":"Borken","type":"Kreis"},"federalState":{"key":"05","name":"Nordrhein-Westfalen"}},{"name":"Werner-von-Siemens-Str.","postalCode":"48712","locality":"Gescher","municipality":{"key":"05554016","name":"Gescher, Glockenstadt","type":"Stadt"},"district":{"key":"05554","name":"Borken","type":"Kreis"},"federalState":{"key":"05","name":"Nordrhein-Westfalen"}},{"name":"Westerkamp","postalCode":"48712","locality":"Gescher","municipality":{"key":"05554016","name":"Gescher, Glockenstadt","type":"Stadt"},"district":{"key":"05554","name":"Borken","type":"Kreis"},"federalState":{"key":"05","name":"Nordrhein-Westfalen"}},{"name":"Westfalenring","postalCode":"48712","locality":"Gescher","municipality":{"key":"05554016","name":"Gescher, Glockenstadt","type":"Stadt"},"district":{"key":"05554","name":"Borken","type":"Kreis"},"federalState":{"key":"05","name":"Nordrhein-Westfalen"}},{"name":"Wiesenstr.","postalCode":"48712","locality":"Gescher","municipality":{"key":"05554016","name":"Gescher, Glockenstadt","type":"Stadt"},"district":{"key":"05554","name":"Borken","type":"Kreis"},"federalState":{"key":"05","name":"Nordrhein-Westfalen"}},{"name":"Wiggerweg","postalCode":"48712","locality":"Gescher","municipality":{"key":"05554016","name":"Gescher, Glockenstadt","type":"Stadt"},"district":{"key":"05554","name":"Borken","type":"Kreis"},"federalState":{"key":"05","name":"Nordrhein-Westfalen"}},{"name":"Wollgrasweg","postalCode":"48712","locality":"Gescher","municipality":{"key":"05554016","name":"Gescher, Glockenstadt","type":"Stadt"},"district":{"key":"05554","name":"Borken","type":"Kreis"},"federalState":{"key":"05","name":"Nordrhein-Westfalen"}},{"name":"Zeisigweg","postalCode":"48712","locality":"Gescher","municipality":{"key":"05554016","name":"Gescher, Glockenstadt","type":"Stadt"},"district":{"key":"05554","name":"Borken","type":"Kreis"},"federalState":{"key":"05","name":"Nordrhein-Westfalen"}},{"name":"Zum Erlengrund","postalCode":"48712","locality":"Gescher","municipality":{"key":"05554016","name":"Gescher, Glockenstadt","type":"Stadt"},"district":{"key":"05554","name":"Borken","type":"Kreis"},"federalState":{"key":"05","name":"Nordrhein-Westfalen"}},{"name":"Zur Alten Vogelstange","postalCode":"48712","locality":"Gescher","municipality":{"key":"05554016","name":"Gescher, Glockenstadt","type":"Stadt"},"district":{"key":"05554","name":"Borken","type":"Kreis"},"federalState":{"key":"05","name":"Nordrhein-Westfalen"}},{"name":"Zur Hambrücke","postalCode":"48712","locality":"Gescher","municipality":{"key":"05554016","name":"Gescher, Glockenstadt","type":"Stadt"},"district":{"key":"05554","name":"Borken","type":"Kreis"},"federalState":{"key":"05","name":"Nordrhein-Westfalen"}},{"name":"Zur Rauschenburg","postalCode":"48712","locality":"Gescher","municipality":{"key":"05554016","name":"Gescher, Glockenstadt","type":"Stadt"},"district":{"key":"05554","name":"Borken","type":"Kreis"},"federalState":{"key":"05","name":"Nordrhein-Westfalen"}},]