[{"name":"1. Siedlungsweg","postalCode":"17335","locality":"Strasburg (Uckermark)","municipality":{"key":"13075130","name":"Strasburg (Uckermark), Stadt","type":"Stadt"},"district":{"key":"13075","name":"Vorpommern-Greifswald","type":"Landkreis"},"federalState":{"key":"13","name":"Mecklenburg-Vorpommern"}},{"name":"2. Siedlungsweg","postalCode":"17335","locality":"Strasburg (Uckermark)","municipality":{"key":"13075130","name":"Strasburg (Uckermark), Stadt","type":"Stadt"},"district":{"key":"13075","name":"Vorpommern-Greifswald","type":"Landkreis"},"federalState":{"key":"13","name":"Mecklenburg-Vorpommern"}},{"name":"3. Siedlungsweg","postalCode":"17335","locality":"Strasburg (Uckermark)","municipality":{"key":"13075130","name":"Strasburg (Uckermark), Stadt","type":"Stadt"},"district":{"key":"13075","name":"Vorpommern-Greifswald","type":"Landkreis"},"federalState":{"key":"13","name":"Mecklenburg-Vorpommern"}},{"name":"Ahornweg","postalCode":"17268","locality":"Templin","municipality":{"key":"12073572","name":"Templin, Stadt","type":"Stadt"},"district":{"key":"12073","name":"Uckermark","type":"Landkreis"},"federalState":{"key":"12","name":"Brandenburg"}},{"name":"Ahrensdorfer Siedlung","postalCode":"17268","locality":"Templin","municipality":{"key":"12073572","name":"Templin, Stadt","type":"Stadt"},"district":{"key":"12073","name":"Uckermark","type":"Landkreis"},"federalState":{"key":"12","name":"Brandenburg"}},{"name":"Albertshof","postalCode":"17268","locality":"Templin","municipality":{"key":"12073572","name":"Templin, Stadt","type":"Stadt"},"district":{"key":"12073","name":"Uckermark","type":"Landkreis"},"federalState":{"key":"12","name":"Brandenburg"}},{"name":"Albrechtsthal","postalCode":"17268","locality":"Templin","municipality":{"key":"12073572","name":"Templin, Stadt","type":"Stadt"},"district":{"key":"12073","name":"Uckermark","type":"Landkreis"},"federalState":{"key":"12","name":"Brandenburg"}},{"name":"Alsenhof","postalCode":"17268","locality":"Templin","municipality":{"key":"12073572","name":"Templin, Stadt","type":"Stadt"},"district":{"key":"12073","name":"Uckermark","type":"Landkreis"},"federalState":{"key":"12","name":"Brandenburg"}},{"name":"Alte Angermünder Landstr.","postalCode":"17268","locality":"Templin","municipality":{"key":"12073572","name":"Templin, Stadt","type":"Stadt"},"district":{"key":"12073","name":"Uckermark","type":"Landkreis"},"federalState":{"key":"12","name":"Brandenburg"}},{"name":"Alte Knehdener Str.","postalCode":"17268","locality":"Templin","municipality":{"key":"12073572","name":"Templin, Stadt","type":"Stadt"},"district":{"key":"12073","name":"Uckermark","type":"Landkreis"},"federalState":{"key":"12","name":"Brandenburg"}},{"name":"Alt-Placht","postalCode":"17268","locality":"Templin","municipality":{"key":"12073572","name":"Templin, Stadt","type":"Stadt"},"district":{"key":"12073","name":"Uckermark","type":"Landkreis"},"federalState":{"key":"12","name":"Brandenburg"}},{"name":"Alt-Plachter Weg","postalCode":"17268","locality":"Templin","municipality":{"key":"12073572","name":"Templin, Stadt","type":"Stadt"},"district":{"key":"12073","name":"Uckermark","type":"Landkreis"},"federalState":{"key":"12","name":"Brandenburg"}},{"name":"Am alten Sägewerk","postalCode":"17268","locality":"Templin","municipality":{"key":"12073572","name":"Templin, Stadt","type":"Stadt"},"district":{"key":"12073","name":"Uckermark","type":"Landkreis"},"federalState":{"key":"12","name":"Brandenburg"}},{"name":"Am Anger","postalCode":"17268","locality":"Templin","municipality":{"key":"12073572","name":"Templin, Stadt","type":"Stadt"},"district":{"key":"12073","name":"Uckermark","type":"Landkreis"},"federalState":{"key":"12","name":"Brandenburg"}},{"name":"Am Bahndamm","postalCode":"17268","locality":"Templin","municipality":{"key":"12073572","name":"Templin, Stadt","type":"Stadt"},"district":{"key":"12073","name":"Uckermark","type":"Landkreis"},"federalState":{"key":"12","name":"Brandenburg"}},{"name":"Am Birkenhain","postalCode":"17268","locality":"Templin","municipality":{"key":"12073572","name":"Templin, Stadt","type":"Stadt"},"district":{"key":"12073","name":"Uckermark","type":"Landkreis"},"federalState":{"key":"12","name":"Brandenburg"}},{"name":"Am Bürgergarten","postalCode":"17268","locality":"Templin","municipality":{"key":"12073572","name":"Templin, Stadt","type":"Stadt"},"district":{"key":"12073","name":"Uckermark","type":"Landkreis"},"federalState":{"key":"12","name":"Brandenburg"}},{"name":"Am Egelpfuhl","postalCode":"17268","locality":"Templin","municipality":{"key":"12073572","name":"Templin, Stadt","type":"Stadt"},"district":{"key":"12073","name":"Uckermark","type":"Landkreis"},"federalState":{"key":"12","name":"Brandenburg"}},{"name":"Am Eulenturm","postalCode":"17268","locality":"Templin","municipality":{"key":"12073572","name":"Templin, Stadt","type":"Stadt"},"district":{"key":"12073","name":"Uckermark","type":"Landkreis"},"federalState":{"key":"12","name":"Brandenburg"}},{"name":"Am Gleuensee","postalCode":"17268","locality":"Templin","municipality":{"key":"12073572","name":"Templin, Stadt","type":"Stadt"},"district":{"key":"12073","name":"Uckermark","type":"Landkreis"},"federalState":{"key":"12","name":"Brandenburg"}},{"name":"Am Gutshof","postalCode":"17268","locality":"Templin","municipality":{"key":"12073572","name":"Templin, Stadt","type":"Stadt"},"district":{"key":"12073","name":"Uckermark","type":"Landkreis"},"federalState":{"key":"12","name":"Brandenburg"}},{"name":"Am Kanalwall","postalCode":"17268","locality":"Templin","municipality":{"key":"12073572","name":"Templin, Stadt","type":"Stadt"},"district":{"key":"12073","name":"Uckermark","type":"Landkreis"},"federalState":{"key":"12","name":"Brandenburg"}},{"name":"Am Kiefernwäldchen","postalCode":"17268","locality":"Templin","municipality":{"key":"12073572","name":"Templin, Stadt","type":"Stadt"},"district":{"key":"12073","name":"Uckermark","type":"Landkreis"},"federalState":{"key":"12","name":"Brandenburg"}},{"name":"Am Kurpark","postalCode":"17268","locality":"Templin","municipality":{"key":"12073572","name":"Templin, Stadt","type":"Stadt"},"district":{"key":"12073","name":"Uckermark","type":"Landkreis"},"federalState":{"key":"12","name":"Brandenburg"}},{"name":"Am Lindenberg","postalCode":"17268","locality":"Templin","municipality":{"key":"12073572","name":"Templin, Stadt","type":"Stadt"},"district":{"key":"12073","name":"Uckermark","type":"Landkreis"},"federalState":{"key":"12","name":"Brandenburg"}},{"name":"Am Lübbesee","postalCode":"17268","locality":"Templin","municipality":{"key":"12073572","name":"Templin, Stadt","type":"Stadt"},"district":{"key":"12073","name":"Uckermark","type":"Landkreis"},"federalState":{"key":"12","name":"Brandenburg"}},{"name":"Am Markt","postalCode":"17268","locality":"Templin","municipality":{"key":"12073572","name":"Templin, Stadt","type":"Stadt"},"district":{"key":"12073","name":"Uckermark","type":"Landkreis"},"federalState":{"key":"12","name":"Brandenburg"}},{"name":"Am Mühlentor","postalCode":"17268","locality":"Templin","municipality":{"key":"12073572","name":"Templin, Stadt","type":"Stadt"},"district":{"key":"12073","name":"Uckermark","type":"Landkreis"},"federalState":{"key":"12","name":"Brandenburg"}},{"name":"Am Schulzenhof","postalCode":"17268","locality":"Templin","municipality":{"key":"12073572","name":"Templin, Stadt","type":"Stadt"},"district":{"key":"12073","name":"Uckermark","type":"Landkreis"},"federalState":{"key":"12","name":"Brandenburg"}},{"name":"Am Schulzensee","postalCode":"17268","locality":"Templin","municipality":{"key":"12073572","name":"Templin, Stadt","type":"Stadt"},"district":{"key":"12073","name":"Uckermark","type":"Landkreis"},"federalState":{"key":"12","name":"Brandenburg"}},{"name":"Amselweg","postalCode":"17268","locality":"Templin","municipality":{"key":"12073572","name":"Templin, Stadt","type":"Stadt"},"district":{"key":"12073","name":"Uckermark","type":"Landkreis"},"federalState":{"key":"12","name":"Brandenburg"}},{"name":"Am Sportplatz","postalCode":"17268","locality":"Templin","municipality":{"key":"12073572","name":"Templin, Stadt","type":"Stadt"},"district":{"key":"12073","name":"Uckermark","type":"Landkreis"},"federalState":{"key":"12","name":"Brandenburg"}},{"name":"Am Webertor","postalCode":"17268","locality":"Templin","municipality":{"key":"12073572","name":"Templin, Stadt","type":"Stadt"},"district":{"key":"12073","name":"Uckermark","type":"Landkreis"},"federalState":{"key":"12","name":"Brandenburg"}},{"name":"Am Weg zur Gleuenbrücke","postalCode":"17268","locality":"Templin","municipality":{"key":"12073572","name":"Templin, Stadt","type":"Stadt"},"district":{"key":"12073","name":"Uckermark","type":"Landkreis"},"federalState":{"key":"12","name":"Brandenburg"}},{"name":"Am Wiesengrund","postalCode":"17268","locality":"Templin","municipality":{"key":"12073572","name":"Templin, Stadt","type":"Stadt"},"district":{"key":"12073","name":"Uckermark","type":"Landkreis"},"federalState":{"key":"12","name":"Brandenburg"}},{"name":"An der Koppel","postalCode":"17268","locality":"Templin","municipality":{"key":"12073572","name":"Templin, Stadt","type":"Stadt"},"district":{"key":"12073","name":"Uckermark","type":"Landkreis"},"federalState":{"key":"12","name":"Brandenburg"}},{"name":"Annenwalde","postalCode":"17268","locality":"Templin","municipality":{"key":"12073572","name":"Templin, Stadt","type":"Stadt"},"district":{"key":"12073","name":"Uckermark","type":"Landkreis"},"federalState":{"key":"12","name":"Brandenburg"}},{"name":"Annenwalder Str.","postalCode":"17268","locality":"Templin","municipality":{"key":"12073572","name":"Templin, Stadt","type":"Stadt"},"district":{"key":"12073","name":"Uckermark","type":"Landkreis"},"federalState":{"key":"12","name":"Brandenburg"}},{"name":"Annenwalder Weg","postalCode":"17268","locality":"Templin","municipality":{"key":"12073572","name":"Templin, Stadt","type":"Stadt"},"district":{"key":"12073","name":"Uckermark","type":"Landkreis"},"federalState":{"key":"12","name":"Brandenburg"}},{"name":"Askanische Str.","postalCode":"17268","locality":"Templin","municipality":{"key":"12073572","name":"Templin, Stadt","type":"Stadt"},"district":{"key":"12073","name":"Uckermark","type":"Landkreis"},"federalState":{"key":"12","name":"Brandenburg"}},{"name":"August-Bebel-Str.","postalCode":"17268","locality":"Templin","municipality":{"key":"12073572","name":"Templin, Stadt","type":"Stadt"},"district":{"key":"12073","name":"Uckermark","type":"Landkreis"},"federalState":{"key":"12","name":"Brandenburg"}},{"name":"Bachstr.","postalCode":"17268","locality":"Templin","municipality":{"key":"12073572","name":"Templin, Stadt","type":"Stadt"},"district":{"key":"12073","name":"Uckermark","type":"Landkreis"},"federalState":{"key":"12","name":"Brandenburg"}},{"name":"Bad Lippspringer Ring","postalCode":"17268","locality":"Templin","municipality":{"key":"12073572","name":"Templin, Stadt","type":"Stadt"},"district":{"key":"12073","name":"Uckermark","type":"Landkreis"},"federalState":{"key":"12","name":"Brandenburg"}},{"name":"Bahnhofstr.","postalCode":"17268","locality":"Templin","municipality":{"key":"12073572","name":"Templin, Stadt","type":"Stadt"},"district":{"key":"12073","name":"Uckermark","type":"Landkreis"},"federalState":{"key":"12","name":"Brandenburg"}},{"name":"Bandelowshof","postalCode":"17268","locality":"Templin","municipality":{"key":"12073572","name":"Templin, Stadt","type":"Stadt"},"district":{"key":"12073","name":"Uckermark","type":"Landkreis"},"federalState":{"key":"12","name":"Brandenburg"}},{"name":"Baßdorfer Weg","postalCode":"17268","locality":"Templin","municipality":{"key":"12073572","name":"Templin, Stadt","type":"Stadt"},"district":{"key":"12073","name":"Uckermark","type":"Landkreis"},"federalState":{"key":"12","name":"Brandenburg"}},{"name":"Bebersee","postalCode":"17268","locality":"Templin","municipality":{"key":"12073572","name":"Templin, Stadt","type":"Stadt"},"district":{"key":"12073","name":"Uckermark","type":"Landkreis"},"federalState":{"key":"12","name":"Brandenburg"}},{"name":"Beberseer Weg","postalCode":"17268","locality":"Templin","municipality":{"key":"12073572","name":"Templin, Stadt","type":"Stadt"},"district":{"key":"12073","name":"Uckermark","type":"Landkreis"},"federalState":{"key":"12","name":"Brandenburg"}},{"name":"Beethovenplatz","postalCode":"17268","locality":"Templin","municipality":{"key":"12073572","name":"Templin, Stadt","type":"Stadt"},"district":{"key":"12073","name":"Uckermark","type":"Landkreis"},"federalState":{"key":"12","name":"Brandenburg"}},{"name":"Berliner Str.","postalCode":"17268","locality":"Templin","municipality":{"key":"12073572","name":"Templin, Stadt","type":"Stadt"},"district":{"key":"12073","name":"Uckermark","type":"Landkreis"},"federalState":{"key":"12","name":"Brandenburg"}},{"name":"Beuteler Str.","postalCode":"17268","locality":"Templin","municipality":{"key":"12073572","name":"Templin, Stadt","type":"Stadt"},"district":{"key":"12073","name":"Uckermark","type":"Landkreis"},"federalState":{"key":"12","name":"Brandenburg"}},{"name":"Birkenhof","postalCode":"17268","locality":"Templin","municipality":{"key":"12073572","name":"Templin, Stadt","type":"Stadt"},"district":{"key":"12073","name":"Uckermark","type":"Landkreis"},"federalState":{"key":"12","name":"Brandenburg"}},{"name":"Blumenstr.","postalCode":"17268","locality":"Templin","municipality":{"key":"12073572","name":"Templin, Stadt","type":"Stadt"},"district":{"key":"12073","name":"Uckermark","type":"Landkreis"},"federalState":{"key":"12","name":"Brandenburg"}},{"name":"Burgwaller Str.","postalCode":"17268","locality":"Templin","municipality":{"key":"12073572","name":"Templin, Stadt","type":"Stadt"},"district":{"key":"12073","name":"Uckermark","type":"Landkreis"},"federalState":{"key":"12","name":"Brandenburg"}},{"name":"Busstr.","postalCode":"17268","locality":"Templin","municipality":{"key":"12073572","name":"Templin, Stadt","type":"Stadt"},"district":{"key":"12073","name":"Uckermark","type":"Landkreis"},"federalState":{"key":"12","name":"Brandenburg"}},{"name":"Charlottenweg","postalCode":"17268","locality":"Templin","municipality":{"key":"12073572","name":"Templin, Stadt","type":"Stadt"},"district":{"key":"12073","name":"Uckermark","type":"Landkreis"},"federalState":{"key":"12","name":"Brandenburg"}},{"name":"Clara-Zetkin-Str.","postalCode":"17268","locality":"Templin","municipality":{"key":"12073572","name":"Templin, Stadt","type":"Stadt"},"district":{"key":"12073","name":"Uckermark","type":"Landkreis"},"federalState":{"key":"12","name":"Brandenburg"}},{"name":"Dargerdorfer Str.","postalCode":"17268","locality":"Templin","municipality":{"key":"12073572","name":"Templin, Stadt","type":"Stadt"},"district":{"key":"12073","name":"Uckermark","type":"Landkreis"},"federalState":{"key":"12","name":"Brandenburg"}},{"name":"Dargersdorf","postalCode":"17268","locality":"Templin","municipality":{"key":"12073572","name":"Templin, Stadt","type":"Stadt"},"district":{"key":"12073","name":"Uckermark","type":"Landkreis"},"federalState":{"key":"12","name":"Brandenburg"}},{"name":"Dargersdorfer Str.","postalCode":"17268","locality":"Templin","municipality":{"key":"12073572","name":"Templin, Stadt","type":"Stadt"},"district":{"key":"12073","name":"Uckermark","type":"Landkreis"},"federalState":{"key":"12","name":"Brandenburg"}},{"name":"Dellenstr.","postalCode":"17268","locality":"Templin","municipality":{"key":"12073572","name":"Templin, Stadt","type":"Stadt"},"district":{"key":"12073","name":"Uckermark","type":"Landkreis"},"federalState":{"key":"12","name":"Brandenburg"}},{"name":"Dollshof","postalCode":"17268","locality":"Templin","municipality":{"key":"12073572","name":"Templin, Stadt","type":"Stadt"},"district":{"key":"12073","name":"Uckermark","type":"Landkreis"},"federalState":{"key":"12","name":"Brandenburg"}},{"name":"Dorettenhof","postalCode":"17268","locality":"Templin","municipality":{"key":"12073572","name":"Templin, Stadt","type":"Stadt"},"district":{"key":"12073","name":"Uckermark","type":"Landkreis"},"federalState":{"key":"12","name":"Brandenburg"}},{"name":"Dorfstr.","postalCode":"17268","locality":"Templin","municipality":{"key":"12073572","name":"Templin, Stadt","type":"Stadt"},"district":{"key":"12073","name":"Uckermark","type":"Landkreis"},"federalState":{"key":"12","name":"Brandenburg"}},{"name":"Drei Häuser","postalCode":"17268","locality":"Templin","municipality":{"key":"12073572","name":"Templin, Stadt","type":"Stadt"},"district":{"key":"12073","name":"Uckermark","type":"Landkreis"},"federalState":{"key":"12","name":"Brandenburg"}},{"name":"Dusterlake","postalCode":"17268","locality":"Templin","municipality":{"key":"12073572","name":"Templin, Stadt","type":"Stadt"},"district":{"key":"12073","name":"Uckermark","type":"Landkreis"},"federalState":{"key":"12","name":"Brandenburg"}},{"name":"Eckertshof","postalCode":"17268","locality":"Templin","municipality":{"key":"12073572","name":"Templin, Stadt","type":"Stadt"},"district":{"key":"12073","name":"Uckermark","type":"Landkreis"},"federalState":{"key":"12","name":"Brandenburg"}},{"name":"Eichenweg","postalCode":"17268","locality":"Templin","municipality":{"key":"12073572","name":"Templin, Stadt","type":"Stadt"},"district":{"key":"12073","name":"Uckermark","type":"Landkreis"},"federalState":{"key":"12","name":"Brandenburg"}},{"name":"Eisenbahnstr.","postalCode":"17268","locality":"Templin","municipality":{"key":"12073572","name":"Templin, Stadt","type":"Stadt"},"district":{"key":"12073","name":"Uckermark","type":"Landkreis"},"federalState":{"key":"12","name":"Brandenburg"}},{"name":"Elsternest","postalCode":"17268","locality":"Templin","municipality":{"key":"12073572","name":"Templin, Stadt","type":"Stadt"},"district":{"key":"12073","name":"Uckermark","type":"Landkreis"},"federalState":{"key":"12","name":"Brandenburg"}},{"name":"Ernst-Thälmann-Str.","postalCode":"17268","locality":"Templin","municipality":{"key":"12073572","name":"Templin, Stadt","type":"Stadt"},"district":{"key":"12073","name":"Uckermark","type":"Landkreis"},"federalState":{"key":"12","name":"Brandenburg"}},{"name":"Eschenweg","postalCode":"17268","locality":"Templin","municipality":{"key":"12073572","name":"Templin, Stadt","type":"Stadt"},"district":{"key":"12073","name":"Uckermark","type":"Landkreis"},"federalState":{"key":"12","name":"Brandenburg"}},{"name":"Etashof","postalCode":"17268","locality":"Templin","municipality":{"key":"12073572","name":"Templin, Stadt","type":"Stadt"},"district":{"key":"12073","name":"Uckermark","type":"Landkreis"},"federalState":{"key":"12","name":"Brandenburg"}},{"name":"Fährkrug","postalCode":"17268","locality":"Templin","municipality":{"key":"12073572","name":"Templin, Stadt","type":"Stadt"},"district":{"key":"12073","name":"Uckermark","type":"Landkreis"},"federalState":{"key":"12","name":"Brandenburg"}},{"name":"Fasanenstr.","postalCode":"17268","locality":"Templin","municipality":{"key":"12073572","name":"Templin, Stadt","type":"Stadt"},"district":{"key":"12073","name":"Uckermark","type":"Landkreis"},"federalState":{"key":"12","name":"Brandenburg"}},{"name":"Finkenweg","postalCode":"17268","locality":"Templin","municipality":{"key":"12073572","name":"Templin, Stadt","type":"Stadt"},"district":{"key":"12073","name":"Uckermark","type":"Landkreis"},"federalState":{"key":"12","name":"Brandenburg"}},{"name":"Fischerstr.","postalCode":"17268","locality":"Templin","municipality":{"key":"12073572","name":"Templin, Stadt","type":"Stadt"},"district":{"key":"12073","name":"Uckermark","type":"Landkreis"},"federalState":{"key":"12","name":"Brandenburg"}},{"name":"Flötweg","postalCode":"17268","locality":"Templin","municipality":{"key":"12073572","name":"Templin, Stadt","type":"Stadt"},"district":{"key":"12073","name":"Uckermark","type":"Landkreis"},"federalState":{"key":"12","name":"Brandenburg"}},{"name":"Fontanestr.","postalCode":"17268","locality":"Templin","municipality":{"key":"12073572","name":"Templin, Stadt","type":"Stadt"},"district":{"key":"12073","name":"Uckermark","type":"Landkreis"},"federalState":{"key":"12","name":"Brandenburg"}},{"name":"Försterei","postalCode":"17268","locality":"Templin","municipality":{"key":"12073572","name":"Templin, Stadt","type":"Stadt"},"district":{"key":"12073","name":"Uckermark","type":"Landkreis"},"federalState":{"key":"12","name":"Brandenburg"}},{"name":"Forsthaus Buchheide","postalCode":"17268","locality":"Templin","municipality":{"key":"12073572","name":"Templin, Stadt","type":"Stadt"},"district":{"key":"12073","name":"Uckermark","type":"Landkreis"},"federalState":{"key":"12","name":"Brandenburg"}},{"name":"Forsthaus Krams","postalCode":"17268","locality":"Templin","municipality":{"key":"12073572","name":"Templin, Stadt","type":"Stadt"},"district":{"key":"12073","name":"Uckermark","type":"Landkreis"},"federalState":{"key":"12","name":"Brandenburg"}},{"name":"Forsthaus Laatz","postalCode":"17268","locality":"Templin","municipality":{"key":"12073572","name":"Templin, Stadt","type":"Stadt"},"district":{"key":"12073","name":"Uckermark","type":"Landkreis"},"federalState":{"key":"12","name":"Brandenburg"}},{"name":"Forsthaus Ringofen","postalCode":"17268","locality":"Templin","municipality":{"key":"12073572","name":"Templin, Stadt","type":"Stadt"},"district":{"key":"12073","name":"Uckermark","type":"Landkreis"},"federalState":{"key":"12","name":"Brandenburg"}},{"name":"Franz-Mehring-Str.","postalCode":"17268","locality":"Templin","municipality":{"key":"12073572","name":"Templin, Stadt","type":"Stadt"},"district":{"key":"12073","name":"Uckermark","type":"Landkreis"},"federalState":{"key":"12","name":"Brandenburg"}},{"name":"Friederike-Krüger-Str.","postalCode":"17268","locality":"Templin","municipality":{"key":"12073572","name":"Templin, Stadt","type":"Stadt"},"district":{"key":"12073","name":"Uckermark","type":"Landkreis"},"federalState":{"key":"12","name":"Brandenburg"}},{"name":"Friedhofsweg","postalCode":"17268","locality":"Templin","municipality":{"key":"12073572","name":"Templin, Stadt","type":"Stadt"},"district":{"key":"12073","name":"Uckermark","type":"Landkreis"},"federalState":{"key":"12","name":"Brandenburg"}},{"name":"Friedrich-Engels-Str.","postalCode":"17268","locality":"Templin","municipality":{"key":"12073572","name":"Templin, Stadt","type":"Stadt"},"district":{"key":"12073","name":"Uckermark","type":"Landkreis"},"federalState":{"key":"12","name":"Brandenburg"}},{"name":"Fritz-Reuter-Weg","postalCode":"17268","locality":"Templin","municipality":{"key":"12073572","name":"Templin, Stadt","type":"Stadt"},"district":{"key":"12073","name":"Uckermark","type":"Landkreis"},"federalState":{"key":"12","name":"Brandenburg"}},{"name":"Fröhlenende","postalCode":"17268","locality":"Templin","municipality":{"key":"12073572","name":"Templin, Stadt","type":"Stadt"},"district":{"key":"12073","name":"Uckermark","type":"Landkreis"},"federalState":{"key":"12","name":"Brandenburg"}},{"name":"Fürstenberger Str.","postalCode":"17268","locality":"Templin","municipality":{"key":"12073572","name":"Templin, Stadt","type":"Stadt"},"district":{"key":"12073","name":"Uckermark","type":"Landkreis"},"federalState":{"key":"12","name":"Brandenburg"}},{"name":"Gandenitzer Dorfstr.","postalCode":"17268","locality":"Templin","municipality":{"key":"12073572","name":"Templin, Stadt","type":"Stadt"},"district":{"key":"12073","name":"Uckermark","type":"Landkreis"},"federalState":{"key":"12","name":"Brandenburg"}},{"name":"Gandenitzer Weg","postalCode":"17268","locality":"Templin","municipality":{"key":"12073572","name":"Templin, Stadt","type":"Stadt"},"district":{"key":"12073","name":"Uckermark","type":"Landkreis"},"federalState":{"key":"12","name":"Brandenburg"}},{"name":"Gartenstr.","postalCode":"17268","locality":"Templin","municipality":{"key":"12073572","name":"Templin, Stadt","type":"Stadt"},"district":{"key":"12073","name":"Uckermark","type":"Landkreis"},"federalState":{"key":"12","name":"Brandenburg"}},{"name":"Gleuenhof","postalCode":"17268","locality":"Templin","municipality":{"key":"12073572","name":"Templin, Stadt","type":"Stadt"},"district":{"key":"12073","name":"Uckermark","type":"Landkreis"},"federalState":{"key":"12","name":"Brandenburg"}},{"name":"Glockenwinkel","postalCode":"17268","locality":"Templin","municipality":{"key":"12073572","name":"Templin, Stadt","type":"Stadt"},"district":{"key":"12073","name":"Uckermark","type":"Landkreis"},"federalState":{"key":"12","name":"Brandenburg"}},{"name":"Goethestr.","postalCode":"17268","locality":"Templin","municipality":{"key":"12073572","name":"Templin, Stadt","type":"Stadt"},"district":{"key":"12073","name":"Uckermark","type":"Landkreis"},"federalState":{"key":"12","name":"Brandenburg"}},{"name":"Golliner Dorfstr.","postalCode":"17268","locality":"Templin","municipality":{"key":"12073572","name":"Templin, Stadt","type":"Stadt"},"district":{"key":"12073","name":"Uckermark","type":"Landkreis"},"federalState":{"key":"12","name":"Brandenburg"}},{"name":"Golliner Str.","postalCode":"17268","locality":"Templin","municipality":{"key":"12073572","name":"Templin, Stadt","type":"Stadt"},"district":{"key":"12073","name":"Uckermark","type":"Landkreis"},"federalState":{"key":"12","name":"Brandenburg"}},{"name":"Groß Väter","postalCode":"17268","locality":"Templin","municipality":{"key":"12073572","name":"Templin, Stadt","type":"Stadt"},"district":{"key":"12073","name":"Uckermark","type":"Landkreis"},"federalState":{"key":"12","name":"Brandenburg"}},{"name":"Grunewalder Dorfstr.","postalCode":"17268","locality":"Templin","municipality":{"key":"12073572","name":"Templin, Stadt","type":"Stadt"},"district":{"key":"12073","name":"Uckermark","type":"Landkreis"},"federalState":{"key":"12","name":"Brandenburg"}},{"name":"Grunewalder Hauptstr.","postalCode":"17268","locality":"Templin","municipality":{"key":"12073572","name":"Templin, Stadt","type":"Stadt"},"district":{"key":"12073","name":"Uckermark","type":"Landkreis"},"federalState":{"key":"12","name":"Brandenburg"}},{"name":"Grunewalder Parkstr.","postalCode":"17268","locality":"Templin","municipality":{"key":"12073572","name":"Templin, Stadt","type":"Stadt"},"district":{"key":"12073","name":"Uckermark","type":"Landkreis"},"federalState":{"key":"12","name":"Brandenburg"}},{"name":"Gut Gollin","postalCode":"17268","locality":"Templin","municipality":{"key":"12073572","name":"Templin, Stadt","type":"Stadt"},"district":{"key":"12073","name":"Uckermark","type":"Landkreis"},"federalState":{"key":"12","name":"Brandenburg"}},{"name":"Gut Netzow","postalCode":"17268","locality":"Templin","municipality":{"key":"12073572","name":"Templin, Stadt","type":"Stadt"},"district":{"key":"12073","name":"Uckermark","type":"Landkreis"},"federalState":{"key":"12","name":"Brandenburg"}},{"name":"Hammerwiesenweg","postalCode":"17268","locality":"Templin","municipality":{"key":"12073572","name":"Templin, Stadt","type":"Stadt"},"district":{"key":"12073","name":"Uckermark","type":"Landkreis"},"federalState":{"key":"12","name":"Brandenburg"}},{"name":"Hans-Philipp-Str.","postalCode":"17268","locality":"Templin","municipality":{"key":"12073572","name":"Templin, Stadt","type":"Stadt"},"district":{"key":"12073","name":"Uckermark","type":"Landkreis"},"federalState":{"key":"12","name":"Brandenburg"}},{"name":"Hans-Sachs-Str.","postalCode":"17268","locality":"Templin","municipality":{"key":"12073572","name":"Templin, Stadt","type":"Stadt"},"district":{"key":"12073","name":"Uckermark","type":"Landkreis"},"federalState":{"key":"12","name":"Brandenburg"}},{"name":"Haselweg","postalCode":"17268","locality":"Templin","municipality":{"key":"12073572","name":"Templin, Stadt","type":"Stadt"},"district":{"key":"12073","name":"Uckermark","type":"Landkreis"},"federalState":{"key":"12","name":"Brandenburg"}},{"name":"Hauptstr.","postalCode":"17268","locality":"Templin","municipality":{"key":"12073572","name":"Templin, Stadt","type":"Stadt"},"district":{"key":"12073","name":"Uckermark","type":"Landkreis"},"federalState":{"key":"12","name":"Brandenburg"}},{"name":"Heckenhaus Hoheheide","postalCode":"17268","locality":"Templin","municipality":{"key":"12073572","name":"Templin, Stadt","type":"Stadt"},"district":{"key":"12073","name":"Uckermark","type":"Landkreis"},"federalState":{"key":"12","name":"Brandenburg"}},{"name":"Heckenweg","postalCode":"17268","locality":"Templin","municipality":{"key":"12073572","name":"Templin, Stadt","type":"Stadt"},"district":{"key":"12073","name":"Uckermark","type":"Landkreis"},"federalState":{"key":"12","name":"Brandenburg"}},{"name":"Heideweg","postalCode":"17268","locality":"Templin","municipality":{"key":"12073572","name":"Templin, Stadt","type":"Stadt"},"district":{"key":"12073","name":"Uckermark","type":"Landkreis"},"federalState":{"key":"12","name":"Brandenburg"}},{"name":"Heidewinkel","postalCode":"17268","locality":"Templin","municipality":{"key":"12073572","name":"Templin, Stadt","type":"Stadt"},"district":{"key":"12073","name":"Uckermark","type":"Landkreis"},"federalState":{"key":"12","name":"Brandenburg"}},{"name":"Heimstr.","postalCode":"17268","locality":"Templin","municipality":{"key":"12073572","name":"Templin, Stadt","type":"Stadt"},"district":{"key":"12073","name":"Uckermark","type":"Landkreis"},"federalState":{"key":"12","name":"Brandenburg"}},{"name":"Heinestr.","postalCode":"17268","locality":"Templin","municipality":{"key":"12073572","name":"Templin, Stadt","type":"Stadt"},"district":{"key":"12073","name":"Uckermark","type":"Landkreis"},"federalState":{"key":"12","name":"Brandenburg"}},{"name":"Heinrichshof","postalCode":"17268","locality":"Templin","municipality":{"key":"12073572","name":"Templin, Stadt","type":"Stadt"},"district":{"key":"12073","name":"Uckermark","type":"Landkreis"},"federalState":{"key":"12","name":"Brandenburg"}},{"name":"Henkinshain","postalCode":"17268","locality":"Templin","municipality":{"key":"12073572","name":"Templin, Stadt","type":"Stadt"},"district":{"key":"12073","name":"Uckermark","type":"Landkreis"},"federalState":{"key":"12","name":"Brandenburg"}},{"name":"Henkinshainer Weg","postalCode":"17268","locality":"Templin","municipality":{"key":"12073572","name":"Templin, Stadt","type":"Stadt"},"district":{"key":"12073","name":"Uckermark","type":"Landkreis"},"federalState":{"key":"12","name":"Brandenburg"}},{"name":"Im Wäldchen","postalCode":"17268","locality":"Templin","municipality":{"key":"12073572","name":"Templin, Stadt","type":"Stadt"},"district":{"key":"12073","name":"Uckermark","type":"Landkreis"},"federalState":{"key":"12","name":"Brandenburg"}},{"name":"Jahnstr.","postalCode":"17268","locality":"Templin","municipality":{"key":"12073572","name":"Templin, Stadt","type":"Stadt"},"district":{"key":"12073","name":"Uckermark","type":"Landkreis"},"federalState":{"key":"12","name":"Brandenburg"}},{"name":"Jakobshagener Str.","postalCode":"17268","locality":"Templin","municipality":{"key":"12073572","name":"Templin, Stadt","type":"Stadt"},"district":{"key":"12073","name":"Uckermark","type":"Landkreis"},"federalState":{"key":"12","name":"Brandenburg"}},{"name":"Jebensstr.","postalCode":"17268","locality":"Templin","municipality":{"key":"12073572","name":"Templin, Stadt","type":"Stadt"},"district":{"key":"12073","name":"Uckermark","type":"Landkreis"},"federalState":{"key":"12","name":"Brandenburg"}},{"name":"Joachimshof","postalCode":"17268","locality":"Templin","municipality":{"key":"12073572","name":"Templin, Stadt","type":"Stadt"},"district":{"key":"12073","name":"Uckermark","type":"Landkreis"},"federalState":{"key":"12","name":"Brandenburg"}},{"name":"Kanalblick","postalCode":"17268","locality":"Templin","municipality":{"key":"12073572","name":"Templin, Stadt","type":"Stadt"},"district":{"key":"12073","name":"Uckermark","type":"Landkreis"},"federalState":{"key":"12","name":"Brandenburg"}},{"name":"Kantstr.","postalCode":"17268","locality":"Templin","municipality":{"key":"12073572","name":"Templin, Stadt","type":"Stadt"},"district":{"key":"12073","name":"Uckermark","type":"Landkreis"},"federalState":{"key":"12","name":"Brandenburg"}},{"name":"Karl-Liebknecht-Str.","postalCode":"17268","locality":"Templin","municipality":{"key":"12073572","name":"Templin, Stadt","type":"Stadt"},"district":{"key":"12073","name":"Uckermark","type":"Landkreis"},"federalState":{"key":"12","name":"Brandenburg"}},{"name":"Karlshof","postalCode":"17268","locality":"Templin","municipality":{"key":"12073572","name":"Templin, Stadt","type":"Stadt"},"district":{"key":"12073","name":"Uckermark","type":"Landkreis"},"federalState":{"key":"12","name":"Brandenburg"}},{"name":"Kastanienstr.","postalCode":"17268","locality":"Templin","municipality":{"key":"12073572","name":"Templin, Stadt","type":"Stadt"},"district":{"key":"12073","name":"Uckermark","type":"Landkreis"},"federalState":{"key":"12","name":"Brandenburg"}},{"name":"Kiefernweg","postalCode":"17268","locality":"Templin","municipality":{"key":"12073572","name":"Templin, Stadt","type":"Stadt"},"district":{"key":"12073","name":"Uckermark","type":"Landkreis"},"federalState":{"key":"12","name":"Brandenburg"}},{"name":"Kienheide","postalCode":"17268","locality":"Templin","municipality":{"key":"12073572","name":"Templin, Stadt","type":"Stadt"},"district":{"key":"12073","name":"Uckermark","type":"Landkreis"},"federalState":{"key":"12","name":"Brandenburg"}},{"name":"Klein Dölln","postalCode":"17268","locality":"Templin","municipality":{"key":"12073572","name":"Templin, Stadt","type":"Stadt"},"district":{"key":"12073","name":"Uckermark","type":"Landkreis"},"federalState":{"key":"12","name":"Brandenburg"}},{"name":"Kleine Dellenstr.","postalCode":"17268","locality":"Templin","municipality":{"key":"12073572","name":"Templin, Stadt","type":"Stadt"},"district":{"key":"12073","name":"Uckermark","type":"Landkreis"},"federalState":{"key":"12","name":"Brandenburg"}},{"name":"Klosterwalder Dorfstr.","postalCode":"17268","locality":"Templin","municipality":{"key":"12073572","name":"Templin, Stadt","type":"Stadt"},"district":{"key":"12073","name":"Uckermark","type":"Landkreis"},"federalState":{"key":"12","name":"Brandenburg"}},{"name":"Klosterwalder Hauptstr.","postalCode":"17268","locality":"Templin","municipality":{"key":"12073572","name":"Templin, Stadt","type":"Stadt"},"district":{"key":"12073","name":"Uckermark","type":"Landkreis"},"federalState":{"key":"12","name":"Brandenburg"}},{"name":"Klosterwalder Koppelweg","postalCode":"17268","locality":"Templin","municipality":{"key":"12073572","name":"Templin, Stadt","type":"Stadt"},"district":{"key":"12073","name":"Uckermark","type":"Landkreis"},"federalState":{"key":"12","name":"Brandenburg"}},{"name":"Knehdener Str.","postalCode":"17268","locality":"Templin","municipality":{"key":"12073572","name":"Templin, Stadt","type":"Stadt"},"district":{"key":"12073","name":"Uckermark","type":"Landkreis"},"federalState":{"key":"12","name":"Brandenburg"}},{"name":"Kranichweg","postalCode":"17268","locality":"Templin","municipality":{"key":"12073572","name":"Templin, Stadt","type":"Stadt"},"district":{"key":"12073","name":"Uckermark","type":"Landkreis"},"federalState":{"key":"12","name":"Brandenburg"}},{"name":"Kreuzkrug","postalCode":"17268","locality":"Templin","municipality":{"key":"12073572","name":"Templin, Stadt","type":"Stadt"},"district":{"key":"12073","name":"Uckermark","type":"Landkreis"},"federalState":{"key":"12","name":"Brandenburg"}},{"name":"Kreuzkruger Str.","postalCode":"17268","locality":"Templin","municipality":{"key":"12073572","name":"Templin, Stadt","type":"Stadt"},"district":{"key":"12073","name":"Uckermark","type":"Landkreis"},"federalState":{"key":"12","name":"Brandenburg"}},{"name":"Kuckucksheim","postalCode":"17268","locality":"Templin","municipality":{"key":"12073572","name":"Templin, Stadt","type":"Stadt"},"district":{"key":"12073","name":"Uckermark","type":"Landkreis"},"federalState":{"key":"12","name":"Brandenburg"}},{"name":"Kurmeile","postalCode":"17268","locality":"Templin","municipality":{"key":"12073572","name":"Templin, Stadt","type":"Stadt"},"district":{"key":"12073","name":"Uckermark","type":"Landkreis"},"federalState":{"key":"12","name":"Brandenburg"}},{"name":"Küstrinchener Str.","postalCode":"17268","locality":"Templin","municipality":{"key":"12073572","name":"Templin, Stadt","type":"Stadt"},"district":{"key":"12073","name":"Uckermark","type":"Landkreis"},"federalState":{"key":"12","name":"Brandenburg"}},{"name":"Küstrinchener Weg","postalCode":"17268","locality":"Templin","municipality":{"key":"12073572","name":"Templin, Stadt","type":"Stadt"},"district":{"key":"12073","name":"Uckermark","type":"Landkreis"},"federalState":{"key":"12","name":"Brandenburg"}},{"name":"Lerchenweg","postalCode":"17268","locality":"Templin","municipality":{"key":"12073572","name":"Templin, Stadt","type":"Stadt"},"district":{"key":"12073","name":"Uckermark","type":"Landkreis"},"federalState":{"key":"12","name":"Brandenburg"}},{"name":"Lessingstr.","postalCode":"17268","locality":"Templin","municipality":{"key":"12073572","name":"Templin, Stadt","type":"Stadt"},"district":{"key":"12073","name":"Uckermark","type":"Landkreis"},"federalState":{"key":"12","name":"Brandenburg"}},{"name":"Lindenhof","postalCode":"17268","locality":"Templin","municipality":{"key":"12073572","name":"Templin, Stadt","type":"Stadt"},"district":{"key":"12073","name":"Uckermark","type":"Landkreis"},"federalState":{"key":"12","name":"Brandenburg"}},{"name":"Lindenweg","postalCode":"17268","locality":"Templin","municipality":{"key":"12073572","name":"Templin, Stadt","type":"Stadt"},"district":{"key":"12073","name":"Uckermark","type":"Landkreis"},"federalState":{"key":"12","name":"Brandenburg"}},{"name":"Ludwigshof","postalCode":"17268","locality":"Templin","municipality":{"key":"12073572","name":"Templin, Stadt","type":"Stadt"},"district":{"key":"12073","name":"Uckermark","type":"Landkreis"},"federalState":{"key":"12","name":"Brandenburg"}},{"name":"Lychener Str.","postalCode":"17268","locality":"Templin","municipality":{"key":"12073572","name":"Templin, Stadt","type":"Stadt"},"district":{"key":"12073","name":"Uckermark","type":"Landkreis"},"federalState":{"key":"12","name":"Brandenburg"}},{"name":"Mahlendorfer Str.","postalCode":"17268","locality":"Templin","municipality":{"key":"12073572","name":"Templin, Stadt","type":"Stadt"},"district":{"key":"12073","name":"Uckermark","type":"Landkreis"},"federalState":{"key":"12","name":"Brandenburg"}},{"name":"Markgrafendamm","postalCode":"17268","locality":"Templin","municipality":{"key":"12073572","name":"Templin, Stadt","type":"Stadt"},"district":{"key":"12073","name":"Uckermark","type":"Landkreis"},"federalState":{"key":"12","name":"Brandenburg"}},{"name":"Märkische Str.","postalCode":"17268","locality":"Templin","municipality":{"key":"12073572","name":"Templin, Stadt","type":"Stadt"},"district":{"key":"12073","name":"Uckermark","type":"Landkreis"},"federalState":{"key":"12","name":"Brandenburg"}},{"name":"Martin-Luther-Str.","postalCode":"17268","locality":"Templin","municipality":{"key":"12073572","name":"Templin, Stadt","type":"Stadt"},"district":{"key":"12073","name":"Uckermark","type":"Landkreis"},"federalState":{"key":"12","name":"Brandenburg"}},{"name":"Metzelthin","postalCode":"17268","locality":"Templin","municipality":{"key":"12073572","name":"Templin, Stadt","type":"Stadt"},"district":{"key":"12073","name":"Uckermark","type":"Landkreis"},"federalState":{"key":"12","name":"Brandenburg"}},{"name":"Metzelthiner Str.","postalCode":"17268","locality":"Templin","municipality":{"key":"12073572","name":"Templin, Stadt","type":"Stadt"},"district":{"key":"12073","name":"Uckermark","type":"Landkreis"},"federalState":{"key":"12","name":"Brandenburg"}},{"name":"Milmersdorfer Chaussee","postalCode":"17268","locality":"Templin","municipality":{"key":"12073572","name":"Templin, Stadt","type":"Stadt"},"district":{"key":"12073","name":"Uckermark","type":"Landkreis"},"federalState":{"key":"12","name":"Brandenburg"}},{"name":"Mittenwalder Str.","postalCode":"17268","locality":"Templin","municipality":{"key":"12073572","name":"Templin, Stadt","type":"Stadt"},"district":{"key":"12073","name":"Uckermark","type":"Landkreis"},"federalState":{"key":"12","name":"Brandenburg"}},{"name":"Moosweg","postalCode":"17268","locality":"Templin","municipality":{"key":"12073572","name":"Templin, Stadt","type":"Stadt"},"district":{"key":"12073","name":"Uckermark","type":"Landkreis"},"federalState":{"key":"12","name":"Brandenburg"}},{"name":"Morgenland","postalCode":"17268","locality":"Templin","municipality":{"key":"12073572","name":"Templin, Stadt","type":"Stadt"},"district":{"key":"12073","name":"Uckermark","type":"Landkreis"},"federalState":{"key":"12","name":"Brandenburg"}},{"name":"Moritzhof","postalCode":"17268","locality":"Templin","municipality":{"key":"12073572","name":"Templin, Stadt","type":"Stadt"},"district":{"key":"12073","name":"Uckermark","type":"Landkreis"},"federalState":{"key":"12","name":"Brandenburg"}},{"name":"Moses Krug","postalCode":"17268","locality":"Templin","municipality":{"key":"12073572","name":"Templin, Stadt","type":"Stadt"},"district":{"key":"12073","name":"Uckermark","type":"Landkreis"},"federalState":{"key":"12","name":"Brandenburg"}},{"name":"Mozartstr.","postalCode":"17268","locality":"Templin","municipality":{"key":"12073572","name":"Templin, Stadt","type":"Stadt"},"district":{"key":"12073","name":"Uckermark","type":"Landkreis"},"federalState":{"key":"12","name":"Brandenburg"}},{"name":"Mühlenberg","postalCode":"17268","locality":"Templin","municipality":{"key":"12073572","name":"Templin, Stadt","type":"Stadt"},"district":{"key":"12073","name":"Uckermark","type":"Landkreis"},"federalState":{"key":"12","name":"Brandenburg"}},{"name":"Mühlenstr.","postalCode":"17268","locality":"Templin","municipality":{"key":"12073572","name":"Templin, Stadt","type":"Stadt"},"district":{"key":"12073","name":"Uckermark","type":"Landkreis"},"federalState":{"key":"12","name":"Brandenburg"}},{"name":"Natur Erlebnis Weg","postalCode":"17268","locality":"Templin","municipality":{"key":"12073572","name":"Templin, Stadt","type":"Stadt"},"district":{"key":"12073","name":"Uckermark","type":"Landkreis"},"federalState":{"key":"12","name":"Brandenburg"}},{"name":"Neuer Ring","postalCode":"17268","locality":"Templin","municipality":{"key":"12073572","name":"Templin, Stadt","type":"Stadt"},"district":{"key":"12073","name":"Uckermark","type":"Landkreis"},"federalState":{"key":"12","name":"Brandenburg"}},{"name":"Neuer Weg","postalCode":"17268","locality":"Templin","municipality":{"key":"12073572","name":"Templin, Stadt","type":"Stadt"},"district":{"key":"12073","name":"Uckermark","type":"Landkreis"},"federalState":{"key":"12","name":"Brandenburg"}},{"name":"Neu-Placht","postalCode":"17268","locality":"Templin","municipality":{"key":"12073572","name":"Templin, Stadt","type":"Stadt"},"district":{"key":"12073","name":"Uckermark","type":"Landkreis"},"federalState":{"key":"12","name":"Brandenburg"}},{"name":"Neuplachter Weg","postalCode":"17268","locality":"Templin","municipality":{"key":"12073572","name":"Templin, Stadt","type":"Stadt"},"district":{"key":"12073","name":"Uckermark","type":"Landkreis"},"federalState":{"key":"12","name":"Brandenburg"}},{"name":"Obere Mühlenstr.","postalCode":"17268","locality":"Templin","municipality":{"key":"12073572","name":"Templin, Stadt","type":"Stadt"},"district":{"key":"12073","name":"Uckermark","type":"Landkreis"},"federalState":{"key":"12","name":"Brandenburg"}},{"name":"Papenwieser Weg","postalCode":"17268","locality":"Templin","municipality":{"key":"12073572","name":"Templin, Stadt","type":"Stadt"},"district":{"key":"12073","name":"Uckermark","type":"Landkreis"},"federalState":{"key":"12","name":"Brandenburg"}},{"name":"Pappelweg","postalCode":"17268","locality":"Templin","municipality":{"key":"12073572","name":"Templin, Stadt","type":"Stadt"},"district":{"key":"12073","name":"Uckermark","type":"Landkreis"},"federalState":{"key":"12","name":"Brandenburg"}},{"name":"Parisiusstr.","postalCode":"17268","locality":"Templin","municipality":{"key":"12073572","name":"Templin, Stadt","type":"Stadt"},"district":{"key":"12073","name":"Uckermark","type":"Landkreis"},"federalState":{"key":"12","name":"Brandenburg"}},{"name":"Parkstr.","postalCode":"17268","locality":"Templin","municipality":{"key":"12073572","name":"Templin, Stadt","type":"Stadt"},"district":{"key":"12073","name":"Uckermark","type":"Landkreis"},"federalState":{"key":"12","name":"Brandenburg"}},{"name":"Paulinenhof","postalCode":"17268","locality":"Templin","municipality":{"key":"12073572","name":"Templin, Stadt","type":"Stadt"},"district":{"key":"12073","name":"Uckermark","type":"Landkreis"},"federalState":{"key":"12","name":"Brandenburg"}},{"name":"Pestalozzistr.","postalCode":"17268","locality":"Templin","municipality":{"key":"12073572","name":"Templin, Stadt","type":"Stadt"},"district":{"key":"12073","name":"Uckermark","type":"Landkreis"},"federalState":{"key":"12","name":"Brandenburg"}},{"name":"Petersdorfer Str.","postalCode":"17268","locality":"Templin","municipality":{"key":"12073572","name":"Templin, Stadt","type":"Stadt"},"district":{"key":"12073","name":"Uckermark","type":"Landkreis"},"federalState":{"key":"12","name":"Brandenburg"}},{"name":"Petersilienweg","postalCode":"17268","locality":"Templin","municipality":{"key":"12073572","name":"Templin, Stadt","type":"Stadt"},"district":{"key":"12073","name":"Uckermark","type":"Landkreis"},"federalState":{"key":"12","name":"Brandenburg"}},{"name":"Plantagenweg","postalCode":"17268","locality":"Templin","municipality":{"key":"12073572","name":"Templin, Stadt","type":"Stadt"},"district":{"key":"12073","name":"Uckermark","type":"Landkreis"},"federalState":{"key":"12","name":"Brandenburg"}},{"name":"Platanenstr.","postalCode":"17268","locality":"Templin","municipality":{"key":"12073572","name":"Templin, Stadt","type":"Stadt"},"district":{"key":"12073","name":"Uckermark","type":"Landkreis"},"federalState":{"key":"12","name":"Brandenburg"}},{"name":"Poetensteig","postalCode":"17268","locality":"Templin","municipality":{"key":"12073572","name":"Templin, Stadt","type":"Stadt"},"district":{"key":"12073","name":"Uckermark","type":"Landkreis"},"federalState":{"key":"12","name":"Brandenburg"}},{"name":"Postheim","postalCode":"17268","locality":"Templin","municipality":{"key":"12073572","name":"Templin, Stadt","type":"Stadt"},"district":{"key":"12073","name":"Uckermark","type":"Landkreis"},"federalState":{"key":"12","name":"Brandenburg"}},{"name":"Prenzlauer Allee","postalCode":"17268","locality":"Templin","municipality":{"key":"12073572","name":"Templin, Stadt","type":"Stadt"},"district":{"key":"12073","name":"Uckermark","type":"Landkreis"},"federalState":{"key":"12","name":"Brandenburg"}},{"name":"Prenzlauer Chaussee","postalCode":"17268","locality":"Templin","municipality":{"key":"12073572","name":"Templin, Stadt","type":"Stadt"},"district":{"key":"12073","name":"Uckermark","type":"Landkreis"},"federalState":{"key":"12","name":"Brandenburg"}},{"name":"Prenzlauer Tor","postalCode":"17268","locality":"Templin","municipality":{"key":"12073572","name":"Templin, Stadt","type":"Stadt"},"district":{"key":"12073","name":"Uckermark","type":"Landkreis"},"federalState":{"key":"12","name":"Brandenburg"}},{"name":"Prokopiusstr.","postalCode":"17268","locality":"Templin","municipality":{"key":"12073572","name":"Templin, Stadt","type":"Stadt"},"district":{"key":"12073","name":"Uckermark","type":"Landkreis"},"federalState":{"key":"12","name":"Brandenburg"}},{"name":"Puschkinstr.","postalCode":"17268","locality":"Templin","municipality":{"key":"12073572","name":"Templin, Stadt","type":"Stadt"},"district":{"key":"12073","name":"Uckermark","type":"Landkreis"},"federalState":{"key":"12","name":"Brandenburg"}},{"name":"Quillowstr.","postalCode":"17291","locality":"Nordwestuckermark","municipality":{"key":"12073429","name":"Nordwestuckermark","type":"Kreisangehörige_Gemeinde"},"district":{"key":"12073","name":"Uckermark","type":"Landkreis"},"federalState":{"key":"12","name":"Brandenburg"}},{"name":"Reiersdorf","postalCode":"17268","locality":"Templin","municipality":{"key":"12073572","name":"Templin, Stadt","type":"Stadt"},"district":{"key":"12073","name":"Uckermark","type":"Landkreis"},"federalState":{"key":"12","name":"Brandenburg"}},{"name":"Reifkrautsweg","postalCode":"17268","locality":"Templin","municipality":{"key":"12073572","name":"Templin, Stadt","type":"Stadt"},"district":{"key":"12073","name":"Uckermark","type":"Landkreis"},"federalState":{"key":"12","name":"Brandenburg"}},{"name":"Reihenstr.","postalCode":"17268","locality":"Templin","municipality":{"key":"12073572","name":"Templin, Stadt","type":"Stadt"},"district":{"key":"12073","name":"Uckermark","type":"Landkreis"},"federalState":{"key":"12","name":"Brandenburg"}},{"name":"Reiherstr.","postalCode":"17268","locality":"Templin","municipality":{"key":"12073572","name":"Templin, Stadt","type":"Stadt"},"district":{"key":"12073","name":"Uckermark","type":"Landkreis"},"federalState":{"key":"12","name":"Brandenburg"}},{"name":"Reinfeld","postalCode":"17268","locality":"Templin","municipality":{"key":"12073572","name":"Templin, Stadt","type":"Stadt"},"district":{"key":"12073","name":"Uckermark","type":"Landkreis"},"federalState":{"key":"12","name":"Brandenburg"}},{"name":"Rieckshof","postalCode":"17268","locality":"Templin","municipality":{"key":"12073572","name":"Templin, Stadt","type":"Stadt"},"district":{"key":"12073","name":"Uckermark","type":"Landkreis"},"federalState":{"key":"12","name":"Brandenburg"}},{"name":"Ringofen","postalCode":"17268","locality":"Templin","municipality":{"key":"12073572","name":"Templin, Stadt","type":"Stadt"},"district":{"key":"12073","name":"Uckermark","type":"Landkreis"},"federalState":{"key":"12","name":"Brandenburg"}},{"name":"Ringstr.","postalCode":"17268","locality":"Templin","municipality":{"key":"12073572","name":"Templin, Stadt","type":"Stadt"},"district":{"key":"12073","name":"Uckermark","type":"Landkreis"},"federalState":{"key":"12","name":"Brandenburg"}},{"name":"Robert-Eitner-Platz","postalCode":"17268","locality":"Templin","municipality":{"key":"12073572","name":"Templin, Stadt","type":"Stadt"},"district":{"key":"12073","name":"Uckermark","type":"Landkreis"},"federalState":{"key":"12","name":"Brandenburg"}},{"name":"Robert-Koch-Str.","postalCode":"17268","locality":"Templin","municipality":{"key":"12073572","name":"Templin, Stadt","type":"Stadt"},"district":{"key":"12073","name":"Uckermark","type":"Landkreis"},"federalState":{"key":"12","name":"Brandenburg"}},{"name":"Röddeliner Dorfstr.","postalCode":"17268","locality":"Templin","municipality":{"key":"12073572","name":"Templin, Stadt","type":"Stadt"},"district":{"key":"12073","name":"Uckermark","type":"Landkreis"},"federalState":{"key":"12","name":"Brandenburg"}},{"name":"Röddeliner Str.","postalCode":"17268","locality":"Templin","municipality":{"key":"12073572","name":"Templin, Stadt","type":"Stadt"},"district":{"key":"12073","name":"Uckermark","type":"Landkreis"},"federalState":{"key":"12","name":"Brandenburg"}},{"name":"Röhnisch-Platz","postalCode":"17268","locality":"Templin","municipality":{"key":"12073572","name":"Templin, Stadt","type":"Stadt"},"district":{"key":"12073","name":"Uckermark","type":"Landkreis"},"federalState":{"key":"12","name":"Brandenburg"}},{"name":"Rosa-Luxemburg-Str.","postalCode":"17268","locality":"Templin","municipality":{"key":"12073572","name":"Templin, Stadt","type":"Stadt"},"district":{"key":"12073","name":"Uckermark","type":"Landkreis"},"federalState":{"key":"12","name":"Brandenburg"}},{"name":"Rosenweg","postalCode":"17268","locality":"Templin","municipality":{"key":"12073572","name":"Templin, Stadt","type":"Stadt"},"district":{"key":"12073","name":"Uckermark","type":"Landkreis"},"federalState":{"key":"12","name":"Brandenburg"}},{"name":"Rotbuchenweg","postalCode":"17268","locality":"Templin","municipality":{"key":"12073572","name":"Templin, Stadt","type":"Stadt"},"district":{"key":"12073","name":"Uckermark","type":"Landkreis"},"federalState":{"key":"12","name":"Brandenburg"}},{"name":"Rotdornweg","postalCode":"17268","locality":"Templin","municipality":{"key":"12073572","name":"Templin, Stadt","type":"Stadt"},"district":{"key":"12073","name":"Uckermark","type":"Landkreis"},"federalState":{"key":"12","name":"Brandenburg"}},{"name":"Rudolf-Breitscheid-Str.","postalCode":"17268","locality":"Templin","municipality":{"key":"12073572","name":"Templin, Stadt","type":"Stadt"},"district":{"key":"12073","name":"Uckermark","type":"Landkreis"},"federalState":{"key":"12","name":"Brandenburg"}},{"name":"Rühlstr.","postalCode":"17268","locality":"Templin","municipality":{"key":"12073572","name":"Templin, Stadt","type":"Stadt"},"district":{"key":"12073","name":"Uckermark","type":"Landkreis"},"federalState":{"key":"12","name":"Brandenburg"}},{"name":"Schillerstr.","postalCode":"17268","locality":"Templin","municipality":{"key":"12073572","name":"Templin, Stadt","type":"Stadt"},"district":{"key":"12073","name":"Uckermark","type":"Landkreis"},"federalState":{"key":"12","name":"Brandenburg"}},{"name":"Schinkelstr.","postalCode":"17268","locality":"Templin","municipality":{"key":"12073572","name":"Templin, Stadt","type":"Stadt"},"district":{"key":"12073","name":"Uckermark","type":"Landkreis"},"federalState":{"key":"12","name":"Brandenburg"}},{"name":"Schleuse Schorfheide","postalCode":"17268","locality":"Templin","municipality":{"key":"12073572","name":"Templin, Stadt","type":"Stadt"},"district":{"key":"12073","name":"Uckermark","type":"Landkreis"},"federalState":{"key":"12","name":"Brandenburg"}},{"name":"Schreberweg","postalCode":"17268","locality":"Templin","municipality":{"key":"12073572","name":"Templin, Stadt","type":"Stadt"},"district":{"key":"12073","name":"Uckermark","type":"Landkreis"},"federalState":{"key":"12","name":"Brandenburg"}},{"name":"Schulenburgslust","postalCode":"17268","locality":"Templin","municipality":{"key":"12073572","name":"Templin, Stadt","type":"Stadt"},"district":{"key":"12073","name":"Uckermark","type":"Landkreis"},"federalState":{"key":"12","name":"Brandenburg"}},{"name":"Schulzenfelde","postalCode":"17268","locality":"Templin","municipality":{"key":"12073572","name":"Templin, Stadt","type":"Stadt"},"district":{"key":"12073","name":"Uckermark","type":"Landkreis"},"federalState":{"key":"12","name":"Brandenburg"}},{"name":"Schwarzer Weg","postalCode":"17268","locality":"Templin","municipality":{"key":"12073572","name":"Templin, Stadt","type":"Stadt"},"district":{"key":"12073","name":"Uckermark","type":"Landkreis"},"federalState":{"key":"12","name":"Brandenburg"}},{"name":"Seestr.","postalCode":"17268","locality":"Templin","municipality":{"key":"12073572","name":"Templin, Stadt","type":"Stadt"},"district":{"key":"12073","name":"Uckermark","type":"Landkreis"},"federalState":{"key":"12","name":"Brandenburg"}},{"name":"Seeweg","postalCode":"17268","locality":"Templin","municipality":{"key":"12073572","name":"Templin, Stadt","type":"Stadt"},"district":{"key":"12073","name":"Uckermark","type":"Landkreis"},"federalState":{"key":"12","name":"Brandenburg"}},{"name":"Stege","postalCode":"17268","locality":"Templin","municipality":{"key":"12073572","name":"Templin, Stadt","type":"Stadt"},"district":{"key":"12073","name":"Uckermark","type":"Landkreis"},"federalState":{"key":"12","name":"Brandenburg"}},{"name":"Stempnitz","postalCode":"17268","locality":"Templin","municipality":{"key":"12073572","name":"Templin, Stadt","type":"Stadt"},"district":{"key":"12073","name":"Uckermark","type":"Landkreis"},"federalState":{"key":"12","name":"Brandenburg"}},{"name":"Storkower Damm","postalCode":"17268","locality":"Templin","municipality":{"key":"12073572","name":"Templin, Stadt","type":"Stadt"},"district":{"key":"12073","name":"Uckermark","type":"Landkreis"},"federalState":{"key":"12","name":"Brandenburg"}},{"name":"Storkower Dorfstr.","postalCode":"17268","locality":"Templin","municipality":{"key":"12073572","name":"Templin, Stadt","type":"Stadt"},"district":{"key":"12073","name":"Uckermark","type":"Landkreis"},"federalState":{"key":"12","name":"Brandenburg"}},{"name":"Storkower Str.","postalCode":"17268","locality":"Templin","municipality":{"key":"12073572","name":"Templin, Stadt","type":"Stadt"},"district":{"key":"12073","name":"Uckermark","type":"Landkreis"},"federalState":{"key":"12","name":"Brandenburg"}},{"name":"Strahl-Goder-Str.","postalCode":"17268","locality":"Templin","municipality":{"key":"12073572","name":"Templin, Stadt","type":"Stadt"},"district":{"key":"12073","name":"Uckermark","type":"Landkreis"},"federalState":{"key":"12","name":"Brandenburg"}},{"name":"Str. der Jugend","postalCode":"17268","locality":"Templin","municipality":{"key":"12073572","name":"Templin, Stadt","type":"Stadt"},"district":{"key":"12073","name":"Uckermark","type":"Landkreis"},"federalState":{"key":"12","name":"Brandenburg"}},{"name":"Str. des Friedens","postalCode":"17268","locality":"Templin","municipality":{"key":"12073572","name":"Templin, Stadt","type":"Stadt"},"district":{"key":"12073","name":"Uckermark","type":"Landkreis"},"federalState":{"key":"12","name":"Brandenburg"}},{"name":"Suppenstr.","postalCode":"17268","locality":"Templin","municipality":{"key":"12073572","name":"Templin, Stadt","type":"Stadt"},"district":{"key":"12073","name":"Uckermark","type":"Landkreis"},"federalState":{"key":"12","name":"Brandenburg"}},{"name":"Sydowshof","postalCode":"17268","locality":"Templin","municipality":{"key":"12073572","name":"Templin, Stadt","type":"Stadt"},"district":{"key":"12073","name":"Uckermark","type":"Landkreis"},"federalState":{"key":"12","name":"Brandenburg"}},{"name":"Teerofenweg","postalCode":"17268","locality":"Templin","municipality":{"key":"12073572","name":"Templin, Stadt","type":"Stadt"},"district":{"key":"12073","name":"Uckermark","type":"Landkreis"},"federalState":{"key":"12","name":"Brandenburg"}},{"name":"Templiner Landstr.","postalCode":"17268","locality":"Templin","municipality":{"key":"12073572","name":"Templin, Stadt","type":"Stadt"},"district":{"key":"12073","name":"Uckermark","type":"Landkreis"},"federalState":{"key":"12","name":"Brandenburg"}},{"name":"Templiner Str.","postalCode":"17268","locality":"Templin","municipality":{"key":"12073572","name":"Templin, Stadt","type":"Stadt"},"district":{"key":"12073","name":"Uckermark","type":"Landkreis"},"federalState":{"key":"12","name":"Brandenburg"}},{"name":"Thomas-Müntzer-Str.","postalCode":"17268","locality":"Templin","municipality":{"key":"12073572","name":"Templin, Stadt","type":"Stadt"},"district":{"key":"12073","name":"Uckermark","type":"Landkreis"},"federalState":{"key":"12","name":"Brandenburg"}},{"name":"Töpfertor","postalCode":"17268","locality":"Templin","municipality":{"key":"12073572","name":"Templin, Stadt","type":"Stadt"},"district":{"key":"12073","name":"Uckermark","type":"Landkreis"},"federalState":{"key":"12","name":"Brandenburg"}},{"name":"Tulpenweg","postalCode":"17268","locality":"Templin","municipality":{"key":"12073572","name":"Templin, Stadt","type":"Stadt"},"district":{"key":"12073","name":"Uckermark","type":"Landkreis"},"federalState":{"key":"12","name":"Brandenburg"}},{"name":"Uferweg","postalCode":"17268","locality":"Templin","municipality":{"key":"12073572","name":"Templin, Stadt","type":"Stadt"},"district":{"key":"12073","name":"Uckermark","type":"Landkreis"},"federalState":{"key":"12","name":"Brandenburg"}},{"name":"Uhlenhof","postalCode":"17268","locality":"Templin","municipality":{"key":"12073572","name":"Templin, Stadt","type":"Stadt"},"district":{"key":"12073","name":"Uckermark","type":"Landkreis"},"federalState":{"key":"12","name":"Brandenburg"}},{"name":"Vietmannsdorfer Str.","postalCode":"17268","locality":"Templin","municipality":{"key":"12073572","name":"Templin, Stadt","type":"Stadt"},"district":{"key":"12073","name":"Uckermark","type":"Landkreis"},"federalState":{"key":"12","name":"Brandenburg"}},{"name":"Villa Abendruh","postalCode":"17268","locality":"Templin","municipality":{"key":"12073572","name":"Templin, Stadt","type":"Stadt"},"district":{"key":"12073","name":"Uckermark","type":"Landkreis"},"federalState":{"key":"12","name":"Brandenburg"}},{"name":"Vogelsanger Str.","postalCode":"17268","locality":"Templin","municipality":{"key":"12073572","name":"Templin, Stadt","type":"Stadt"},"district":{"key":"12073","name":"Uckermark","type":"Landkreis"},"federalState":{"key":"12","name":"Brandenburg"}},{"name":"Vorwerk","postalCode":"17268","locality":"Templin","municipality":{"key":"12073572","name":"Templin, Stadt","type":"Stadt"},"district":{"key":"12073","name":"Uckermark","type":"Landkreis"},"federalState":{"key":"12","name":"Brandenburg"}},{"name":"Waldhaus","postalCode":"17268","locality":"Templin","municipality":{"key":"12073572","name":"Templin, Stadt","type":"Stadt"},"district":{"key":"12073","name":"Uckermark","type":"Landkreis"},"federalState":{"key":"12","name":"Brandenburg"}},{"name":"Waldhof","postalCode":"17268","locality":"Templin","municipality":{"key":"12073572","name":"Templin, Stadt","type":"Stadt"},"district":{"key":"12073","name":"Uckermark","type":"Landkreis"},"federalState":{"key":"12","name":"Brandenburg"}},{"name":"Waldstr.","postalCode":"17268","locality":"Templin","municipality":{"key":"12073572","name":"Templin, Stadt","type":"Stadt"},"district":{"key":"12073","name":"Uckermark","type":"Landkreis"},"federalState":{"key":"12","name":"Brandenburg"}},{"name":"Wassermühle","postalCode":"17268","locality":"Templin","municipality":{"key":"12073572","name":"Templin, Stadt","type":"Stadt"},"district":{"key":"12073","name":"Uckermark","type":"Landkreis"},"federalState":{"key":"12","name":"Brandenburg"}},{"name":"Weinbergstr.","postalCode":"17268","locality":"Templin","municipality":{"key":"12073572","name":"Templin, Stadt","type":"Stadt"},"district":{"key":"12073","name":"Uckermark","type":"Landkreis"},"federalState":{"key":"12","name":"Brandenburg"}},{"name":"Werderhof","postalCode":"17268","locality":"Templin","municipality":{"key":"12073572","name":"Templin, Stadt","type":"Stadt"},"district":{"key":"12073","name":"Uckermark","type":"Landkreis"},"federalState":{"key":"12","name":"Brandenburg"}},{"name":"Werderstr.","postalCode":"17268","locality":"Templin","municipality":{"key":"12073572","name":"Templin, Stadt","type":"Stadt"},"district":{"key":"12073","name":"Uckermark","type":"Landkreis"},"federalState":{"key":"12","name":"Brandenburg"}},{"name":"Wiesenweg","postalCode":"17268","locality":"Templin","municipality":{"key":"12073572","name":"Templin, Stadt","type":"Stadt"},"district":{"key":"12073","name":"Uckermark","type":"Landkreis"},"federalState":{"key":"12","name":"Brandenburg"}},{"name":"Wilhelm-Busch-Weg","postalCode":"17268","locality":"Templin","municipality":{"key":"12073572","name":"Templin, Stadt","type":"Stadt"},"district":{"key":"12073","name":"Uckermark","type":"Landkreis"},"federalState":{"key":"12","name":"Brandenburg"}},{"name":"Wilhelmstr.","postalCode":"17268","locality":"Templin","municipality":{"key":"12073572","name":"Templin, Stadt","type":"Stadt"},"district":{"key":"12073","name":"Uckermark","type":"Landkreis"},"federalState":{"key":"12","name":"Brandenburg"}},{"name":"Wilhelm-Wilcke-Str.","postalCode":"17268","locality":"Templin","municipality":{"key":"12073572","name":"Templin, Stadt","type":"Stadt"},"district":{"key":"12073","name":"Uckermark","type":"Landkreis"},"federalState":{"key":"12","name":"Brandenburg"}},{"name":"Wucker","postalCode":"17268","locality":"Templin","municipality":{"key":"12073572","name":"Templin, Stadt","type":"Stadt"},"district":{"key":"12073","name":"Uckermark","type":"Landkreis"},"federalState":{"key":"12","name":"Brandenburg"}},{"name":"Zehdenicker Str.","postalCode":"17268","locality":"Templin","municipality":{"key":"12073572","name":"Templin, Stadt","type":"Stadt"},"district":{"key":"12073","name":"Uckermark","type":"Landkreis"},"federalState":{"key":"12","name":"Brandenburg"}},{"name":"Ziegeleibrücke","postalCode":"17268","locality":"Templin","municipality":{"key":"12073572","name":"Templin, Stadt","type":"Stadt"},"district":{"key":"12073","name":"Uckermark","type":"Landkreis"},"federalState":{"key":"12","name":"Brandenburg"}},{"name":"Zum Seehof","postalCode":"17268","locality":"Templin","municipality":{"key":"12073572","name":"Templin, Stadt","type":"Stadt"},"district":{"key":"12073","name":"Uckermark","type":"Landkreis"},"federalState":{"key":"12","name":"Brandenburg"}},{"name":"Zum Vogelsang","postalCode":"17268","locality":"Templin","municipality":{"key":"12073572","name":"Templin, Stadt","type":"Stadt"},"district":{"key":"12073","name":"Uckermark","type":"Landkreis"},"federalState":{"key":"12","name":"Brandenburg"}},{"name":"zur Villa","postalCode":"17268","locality":"Templin","municipality":{"key":"12073572","name":"Templin, Stadt","type":"Stadt"},"district":{"key":"12073","name":"Uckermark","type":"Landkreis"},"federalState":{"key":"12","name":"Brandenburg"}},]