[{"name":"Alte Str.","postalCode":"39524","locality":"Wust-Fischbeck","municipality":{"key":"15090631","name":"Wust-Fischbeck","type":"Kreisangehörige_Gemeinde"},"district":{"key":"15090","name":"Stendal","type":"Landkreis"},"federalState":{"key":"15","name":"Sachsen-Anhalt"}},{"name":"Am Park","postalCode":"39524","locality":"Wust-Fischbeck","municipality":{"key":"15090631","name":"Wust-Fischbeck","type":"Kreisangehörige_Gemeinde"},"district":{"key":"15090","name":"Stendal","type":"Landkreis"},"federalState":{"key":"15","name":"Sachsen-Anhalt"}},{"name":"Breite Str.","postalCode":"39524","locality":"Wust-Fischbeck","municipality":{"key":"15090631","name":"Wust-Fischbeck","type":"Kreisangehörige_Gemeinde"},"district":{"key":"15090","name":"Stendal","type":"Landkreis"},"federalState":{"key":"15","name":"Sachsen-Anhalt"}},{"name":"Briest","postalCode":"39524","locality":"Wust-Fischbeck","municipality":{"key":"15090631","name":"Wust-Fischbeck","type":"Kreisangehörige_Gemeinde"},"district":{"key":"15090","name":"Stendal","type":"Landkreis"},"federalState":{"key":"15","name":"Sachsen-Anhalt"}},{"name":"Carl-Hagenbeck-Str.","postalCode":"39576","locality":"Stendal","municipality":{"key":"15090535","name":"Stendal, Hansestadt","type":"Stadt"},"district":{"key":"15090","name":"Stendal","type":"Landkreis"},"federalState":{"key":"15","name":"Sachsen-Anhalt"}},{"name":"Carl-Spitzweg-Str.","postalCode":"39576","locality":"Stendal","municipality":{"key":"15090535","name":"Stendal, Hansestadt","type":"Stadt"},"district":{"key":"15090","name":"Stendal","type":"Landkreis"},"federalState":{"key":"15","name":"Sachsen-Anhalt"}},{"name":"Chausseestr.","postalCode":"39576","locality":"Stendal","municipality":{"key":"15090535","name":"Stendal, Hansestadt","type":"Stadt"},"district":{"key":"15090","name":"Stendal","type":"Landkreis"},"federalState":{"key":"15","name":"Sachsen-Anhalt"}},{"name":"Chrysanthemenweg","postalCode":"39576","locality":"Stendal","municipality":{"key":"15090535","name":"Stendal, Hansestadt","type":"Stadt"},"district":{"key":"15090","name":"Stendal","type":"Landkreis"},"federalState":{"key":"15","name":"Sachsen-Anhalt"}},{"name":"Clara-Zetkin-Str.","postalCode":"39576","locality":"Stendal","municipality":{"key":"15090535","name":"Stendal, Hansestadt","type":"Stadt"},"district":{"key":"15090","name":"Stendal","type":"Landkreis"},"federalState":{"key":"15","name":"Sachsen-Anhalt"}},{"name":"Clausewitzstr.","postalCode":"39576","locality":"Stendal","municipality":{"key":"15090535","name":"Stendal, Hansestadt","type":"Stadt"},"district":{"key":"15090","name":"Stendal","type":"Landkreis"},"federalState":{"key":"15","name":"Sachsen-Anhalt"}},{"name":"Cordatusplatz","postalCode":"39576","locality":"Stendal","municipality":{"key":"15090535","name":"Stendal, Hansestadt","type":"Stadt"},"district":{"key":"15090","name":"Stendal","type":"Landkreis"},"federalState":{"key":"15","name":"Sachsen-Anhalt"}},{"name":"Darre","postalCode":"39524","locality":"Wust-Fischbeck","municipality":{"key":"15090631","name":"Wust-Fischbeck","type":"Kreisangehörige_Gemeinde"},"district":{"key":"15090","name":"Stendal","type":"Landkreis"},"federalState":{"key":"15","name":"Sachsen-Anhalt"}},{"name":"Dorfstr.","postalCode":"39524","locality":"Wust-Fischbeck","municipality":{"key":"15090631","name":"Wust-Fischbeck","type":"Kreisangehörige_Gemeinde"},"district":{"key":"15090","name":"Stendal","type":"Landkreis"},"federalState":{"key":"15","name":"Sachsen-Anhalt"}},{"name":"Ebereschenweg","postalCode":"39576","locality":"Stendal","municipality":{"key":"15090535","name":"Stendal, Hansestadt","type":"Stadt"},"district":{"key":"15090","name":"Stendal","type":"Landkreis"},"federalState":{"key":"15","name":"Sachsen-Anhalt"}},{"name":"Eduard-Mörike-Str.","postalCode":"39576","locality":"Stendal","municipality":{"key":"15090535","name":"Stendal, Hansestadt","type":"Stadt"},"district":{"key":"15090","name":"Stendal","type":"Landkreis"},"federalState":{"key":"15","name":"Sachsen-Anhalt"}},{"name":"Eichelhäherweg","postalCode":"39576","locality":"Stendal","municipality":{"key":"15090535","name":"Stendal, Hansestadt","type":"Stadt"},"district":{"key":"15090","name":"Stendal","type":"Landkreis"},"federalState":{"key":"15","name":"Sachsen-Anhalt"}},{"name":"Eichenweg","postalCode":"39576","locality":"Stendal","municipality":{"key":"15090535","name":"Stendal, Hansestadt","type":"Stadt"},"district":{"key":"15090","name":"Stendal","type":"Landkreis"},"federalState":{"key":"15","name":"Sachsen-Anhalt"}},{"name":"Eichstedter Weg","postalCode":"39576","locality":"Stendal","municipality":{"key":"15090535","name":"Stendal, Hansestadt","type":"Stadt"},"district":{"key":"15090","name":"Stendal","type":"Landkreis"},"federalState":{"key":"15","name":"Sachsen-Anhalt"}},{"name":"Elisabethstr.","postalCode":"39576","locality":"Stendal","municipality":{"key":"15090535","name":"Stendal, Hansestadt","type":"Stadt"},"district":{"key":"15090","name":"Stendal","type":"Landkreis"},"federalState":{"key":"15","name":"Sachsen-Anhalt"}},{"name":"Emil-Kraepelin-Str.","postalCode":"39576","locality":"Stendal","municipality":{"key":"15090535","name":"Stendal, Hansestadt","type":"Stadt"},"district":{"key":"15090","name":"Stendal","type":"Landkreis"},"federalState":{"key":"15","name":"Sachsen-Anhalt"}},{"name":"Endstr.","postalCode":"39576","locality":"Stendal","municipality":{"key":"15090535","name":"Stendal, Hansestadt","type":"Stadt"},"district":{"key":"15090","name":"Stendal","type":"Landkreis"},"federalState":{"key":"15","name":"Sachsen-Anhalt"}},{"name":"Erich-Weinert-Str.","postalCode":"39576","locality":"Stendal","municipality":{"key":"15090535","name":"Stendal, Hansestadt","type":"Stadt"},"district":{"key":"15090","name":"Stendal","type":"Landkreis"},"federalState":{"key":"15","name":"Sachsen-Anhalt"}},{"name":"Erlenweg","postalCode":"39576","locality":"Stendal","municipality":{"key":"15090535","name":"Stendal, Hansestadt","type":"Stadt"},"district":{"key":"15090","name":"Stendal","type":"Landkreis"},"federalState":{"key":"15","name":"Sachsen-Anhalt"}},{"name":"Eschenweg","postalCode":"39576","locality":"Stendal","municipality":{"key":"15090535","name":"Stendal, Hansestadt","type":"Stadt"},"district":{"key":"15090","name":"Stendal","type":"Landkreis"},"federalState":{"key":"15","name":"Sachsen-Anhalt"}},{"name":"Espenweg","postalCode":"39576","locality":"Stendal","municipality":{"key":"15090535","name":"Stendal, Hansestadt","type":"Stadt"},"district":{"key":"15090","name":"Stendal","type":"Landkreis"},"federalState":{"key":"15","name":"Sachsen-Anhalt"}},{"name":"Eugen-Bleuler-Str.","postalCode":"39576","locality":"Stendal","municipality":{"key":"15090535","name":"Stendal, Hansestadt","type":"Stadt"},"district":{"key":"15090","name":"Stendal","type":"Landkreis"},"federalState":{"key":"15","name":"Sachsen-Anhalt"}},{"name":"Fährstr.","postalCode":"39524","locality":"Wust-Fischbeck","municipality":{"key":"15090631","name":"Wust-Fischbeck","type":"Kreisangehörige_Gemeinde"},"district":{"key":"15090","name":"Stendal","type":"Landkreis"},"federalState":{"key":"15","name":"Sachsen-Anhalt"}},{"name":"Feldsiedlung","postalCode":"39524","locality":"Wust-Fischbeck","municipality":{"key":"15090631","name":"Wust-Fischbeck","type":"Kreisangehörige_Gemeinde"},"district":{"key":"15090","name":"Stendal","type":"Landkreis"},"federalState":{"key":"15","name":"Sachsen-Anhalt"}},{"name":"Fontaneweg","postalCode":"39524","locality":"Wust-Fischbeck","municipality":{"key":"15090631","name":"Wust-Fischbeck","type":"Kreisangehörige_Gemeinde"},"district":{"key":"15090","name":"Stendal","type":"Landkreis"},"federalState":{"key":"15","name":"Sachsen-Anhalt"}},{"name":"Friedensstr.","postalCode":"39524","locality":"Wust-Fischbeck","municipality":{"key":"15090631","name":"Wust-Fischbeck","type":"Kreisangehörige_Gemeinde"},"district":{"key":"15090","name":"Stendal","type":"Landkreis"},"federalState":{"key":"15","name":"Sachsen-Anhalt"}},{"name":"Gartenstr.","postalCode":"39524","locality":"Wust-Fischbeck","municipality":{"key":"15090631","name":"Wust-Fischbeck","type":"Kreisangehörige_Gemeinde"},"district":{"key":"15090","name":"Stendal","type":"Landkreis"},"federalState":{"key":"15","name":"Sachsen-Anhalt"}},{"name":"Hauptstr.","postalCode":"39524","locality":"Wust-Fischbeck","municipality":{"key":"15090631","name":"Wust-Fischbeck","type":"Kreisangehörige_Gemeinde"},"district":{"key":"15090","name":"Stendal","type":"Landkreis"},"federalState":{"key":"15","name":"Sachsen-Anhalt"}},{"name":"Im Birkenweg","postalCode":"39576","locality":"Stendal","municipality":{"key":"15090535","name":"Stendal, Hansestadt","type":"Stadt"},"district":{"key":"15090","name":"Stendal","type":"Landkreis"},"federalState":{"key":"15","name":"Sachsen-Anhalt"}},{"name":"Im Gohrer Winkel","postalCode":"39576","locality":"Stendal","municipality":{"key":"15090535","name":"Stendal, Hansestadt","type":"Stadt"},"district":{"key":"15090","name":"Stendal","type":"Landkreis"},"federalState":{"key":"15","name":"Sachsen-Anhalt"}},{"name":"Im Grund","postalCode":"39576","locality":"Stendal","municipality":{"key":"15090535","name":"Stendal, Hansestadt","type":"Stadt"},"district":{"key":"15090","name":"Stendal","type":"Landkreis"},"federalState":{"key":"15","name":"Sachsen-Anhalt"}},{"name":"Im Kleinen Winkel","postalCode":"39576","locality":"Stendal","municipality":{"key":"15090535","name":"Stendal, Hansestadt","type":"Stadt"},"district":{"key":"15090","name":"Stendal","type":"Landkreis"},"federalState":{"key":"15","name":"Sachsen-Anhalt"}},{"name":"Im Lindenweg","postalCode":"39576","locality":"Stendal","municipality":{"key":"15090535","name":"Stendal, Hansestadt","type":"Stadt"},"district":{"key":"15090","name":"Stendal","type":"Landkreis"},"federalState":{"key":"15","name":"Sachsen-Anhalt"}},{"name":"Im Tangermünder Tor","postalCode":"39576","locality":"Stendal","municipality":{"key":"15090535","name":"Stendal, Hansestadt","type":"Stadt"},"district":{"key":"15090","name":"Stendal","type":"Landkreis"},"federalState":{"key":"15","name":"Sachsen-Anhalt"}},{"name":"Im Weidengrund","postalCode":"39576","locality":"Stendal","municipality":{"key":"15090535","name":"Stendal, Hansestadt","type":"Stadt"},"district":{"key":"15090","name":"Stendal","type":"Landkreis"},"federalState":{"key":"15","name":"Sachsen-Anhalt"}},{"name":"Im Winkel","postalCode":"39576","locality":"Stendal","municipality":{"key":"15090535","name":"Stendal, Hansestadt","type":"Stadt"},"district":{"key":"15090","name":"Stendal","type":"Landkreis"},"federalState":{"key":"15","name":"Sachsen-Anhalt"}},{"name":"In den Zinnen","postalCode":"39576","locality":"Stendal","municipality":{"key":"15090535","name":"Stendal, Hansestadt","type":"Stadt"},"district":{"key":"15090","name":"Stendal","type":"Landkreis"},"federalState":{"key":"15","name":"Sachsen-Anhalt"}},{"name":"Industriestr.","postalCode":"39576","locality":"Stendal","municipality":{"key":"15090535","name":"Stendal, Hansestadt","type":"Stadt"},"district":{"key":"15090","name":"Stendal","type":"Landkreis"},"federalState":{"key":"15","name":"Sachsen-Anhalt"}},{"name":"Inselweg","postalCode":"39576","locality":"Stendal","municipality":{"key":"15090535","name":"Stendal, Hansestadt","type":"Stadt"},"district":{"key":"15090","name":"Stendal","type":"Landkreis"},"federalState":{"key":"15","name":"Sachsen-Anhalt"}},{"name":"Jacobikirchhof","postalCode":"39576","locality":"Stendal","municipality":{"key":"15090535","name":"Stendal, Hansestadt","type":"Stadt"},"district":{"key":"15090","name":"Stendal","type":"Landkreis"},"federalState":{"key":"15","name":"Sachsen-Anhalt"}},{"name":"Jägerweg","postalCode":"39576","locality":"Stendal","municipality":{"key":"15090535","name":"Stendal, Hansestadt","type":"Stadt"},"district":{"key":"15090","name":"Stendal","type":"Landkreis"},"federalState":{"key":"15","name":"Sachsen-Anhalt"}},{"name":"Jarchauer Dorfstr.","postalCode":"39576","locality":"Stendal","municipality":{"key":"15090535","name":"Stendal, Hansestadt","type":"Stadt"},"district":{"key":"15090","name":"Stendal","type":"Landkreis"},"federalState":{"key":"15","name":"Sachsen-Anhalt"}},{"name":"Johannes-Kepler-Str.","postalCode":"39576","locality":"Stendal","municipality":{"key":"15090535","name":"Stendal, Hansestadt","type":"Stadt"},"district":{"key":"15090","name":"Stendal","type":"Landkreis"},"federalState":{"key":"15","name":"Sachsen-Anhalt"}},{"name":"Johannisstr.","postalCode":"39576","locality":"Stendal","municipality":{"key":"15090535","name":"Stendal, Hansestadt","type":"Stadt"},"district":{"key":"15090","name":"Stendal","type":"Landkreis"},"federalState":{"key":"15","name":"Sachsen-Anhalt"}},{"name":"Jonasstr.","postalCode":"39576","locality":"Stendal","municipality":{"key":"15090535","name":"Stendal, Hansestadt","type":"Stadt"},"district":{"key":"15090","name":"Stendal","type":"Landkreis"},"federalState":{"key":"15","name":"Sachsen-Anhalt"}},{"name":"Juri-Gagarin-Str.","postalCode":"39576","locality":"Stendal","municipality":{"key":"15090535","name":"Stendal, Hansestadt","type":"Stadt"},"district":{"key":"15090","name":"Stendal","type":"Landkreis"},"federalState":{"key":"15","name":"Sachsen-Anhalt"}},{"name":"Kabelitzer Str.","postalCode":"39524","locality":"Wust-Fischbeck","municipality":{"key":"15090631","name":"Wust-Fischbeck","type":"Kreisangehörige_Gemeinde"},"district":{"key":"15090","name":"Stendal","type":"Landkreis"},"federalState":{"key":"15","name":"Sachsen-Anhalt"}},{"name":"Kabelitzer Weg","postalCode":"39524","locality":"Wust-Fischbeck","municipality":{"key":"15090631","name":"Wust-Fischbeck","type":"Kreisangehörige_Gemeinde"},"district":{"key":"15090","name":"Stendal","type":"Landkreis"},"federalState":{"key":"15","name":"Sachsen-Anhalt"}},{"name":"Kleine Str.","postalCode":"39524","locality":"Wust-Fischbeck","municipality":{"key":"15090631","name":"Wust-Fischbeck","type":"Kreisangehörige_Gemeinde"},"district":{"key":"15090","name":"Stendal","type":"Landkreis"},"federalState":{"key":"15","name":"Sachsen-Anhalt"}},{"name":"Langensalzwedler Weg","postalCode":"39576","locality":"Stendal","municipality":{"key":"15090535","name":"Stendal, Hansestadt","type":"Stadt"},"district":{"key":"15090","name":"Stendal","type":"Landkreis"},"federalState":{"key":"15","name":"Sachsen-Anhalt"}},{"name":"Langer Weg","postalCode":"39576","locality":"Stendal","municipality":{"key":"15090535","name":"Stendal, Hansestadt","type":"Stadt"},"district":{"key":"15090","name":"Stendal","type":"Landkreis"},"federalState":{"key":"15","name":"Sachsen-Anhalt"}},{"name":"Langes Gestell","postalCode":"39576","locality":"Stendal","municipality":{"key":"15090535","name":"Stendal, Hansestadt","type":"Stadt"},"district":{"key":"15090","name":"Stendal","type":"Landkreis"},"federalState":{"key":"15","name":"Sachsen-Anhalt"}},{"name":"Lange Str.","postalCode":"39576","locality":"Stendal","municipality":{"key":"15090535","name":"Stendal, Hansestadt","type":"Stadt"},"district":{"key":"15090","name":"Stendal","type":"Landkreis"},"federalState":{"key":"15","name":"Sachsen-Anhalt"}},{"name":"Langobardenstr.","postalCode":"39576","locality":"Stendal","municipality":{"key":"15090535","name":"Stendal, Hansestadt","type":"Stadt"},"district":{"key":"15090","name":"Stendal","type":"Landkreis"},"federalState":{"key":"15","name":"Sachsen-Anhalt"}},{"name":"Langstückenweg","postalCode":"39576","locality":"Stendal","municipality":{"key":"15090535","name":"Stendal, Hansestadt","type":"Stadt"},"district":{"key":"15090","name":"Stendal","type":"Landkreis"},"federalState":{"key":"15","name":"Sachsen-Anhalt"}},{"name":"Lehmkuhlenweg","postalCode":"39576","locality":"Stendal","municipality":{"key":"15090535","name":"Stendal, Hansestadt","type":"Stadt"},"district":{"key":"15090","name":"Stendal","type":"Landkreis"},"federalState":{"key":"15","name":"Sachsen-Anhalt"}},{"name":"Lemgoer Str.","postalCode":"39576","locality":"Stendal","municipality":{"key":"15090535","name":"Stendal, Hansestadt","type":"Stadt"},"district":{"key":"15090","name":"Stendal","type":"Landkreis"},"federalState":{"key":"15","name":"Sachsen-Anhalt"}},{"name":"Lerchenweg","postalCode":"39576","locality":"Stendal","municipality":{"key":"15090535","name":"Stendal, Hansestadt","type":"Stadt"},"district":{"key":"15090","name":"Stendal","type":"Landkreis"},"federalState":{"key":"15","name":"Sachsen-Anhalt"}},{"name":"Lessingstr.","postalCode":"39576","locality":"Stendal","municipality":{"key":"15090535","name":"Stendal, Hansestadt","type":"Stadt"},"district":{"key":"15090","name":"Stendal","type":"Landkreis"},"federalState":{"key":"15","name":"Sachsen-Anhalt"}},{"name":"Lindenallee","postalCode":"39576","locality":"Stendal","municipality":{"key":"15090535","name":"Stendal, Hansestadt","type":"Stadt"},"district":{"key":"15090","name":"Stendal","type":"Landkreis"},"federalState":{"key":"15","name":"Sachsen-Anhalt"}},{"name":"Lindenpark","postalCode":"39576","locality":"Stendal","municipality":{"key":"15090535","name":"Stendal, Hansestadt","type":"Stadt"},"district":{"key":"15090","name":"Stendal","type":"Landkreis"},"federalState":{"key":"15","name":"Sachsen-Anhalt"}},{"name":"Lindenplatz","postalCode":"39576","locality":"Stendal","municipality":{"key":"15090535","name":"Stendal, Hansestadt","type":"Stadt"},"district":{"key":"15090","name":"Stendal","type":"Landkreis"},"federalState":{"key":"15","name":"Sachsen-Anhalt"}},{"name":"Lindenstr.","postalCode":"39576","locality":"Stendal","municipality":{"key":"15090535","name":"Stendal, Hansestadt","type":"Stadt"},"district":{"key":"15090","name":"Stendal","type":"Landkreis"},"federalState":{"key":"15","name":"Sachsen-Anhalt"}},{"name":"Lindenweg","postalCode":"39576","locality":"Stendal","municipality":{"key":"15090535","name":"Stendal, Hansestadt","type":"Stadt"},"district":{"key":"15090","name":"Stendal","type":"Landkreis"},"federalState":{"key":"15","name":"Sachsen-Anhalt"}},{"name":"Lindtorfer Weg","postalCode":"39576","locality":"Stendal","municipality":{"key":"15090535","name":"Stendal, Hansestadt","type":"Stadt"},"district":{"key":"15090","name":"Stendal","type":"Landkreis"},"federalState":{"key":"15","name":"Sachsen-Anhalt"}},{"name":"Liselotte-Herrmann-Str.","postalCode":"39576","locality":"Stendal","municipality":{"key":"15090535","name":"Stendal, Hansestadt","type":"Stadt"},"district":{"key":"15090","name":"Stendal","type":"Landkreis"},"federalState":{"key":"15","name":"Sachsen-Anhalt"}},{"name":"Lorenz-Kokenbecker-Str.","postalCode":"39576","locality":"Stendal","municipality":{"key":"15090535","name":"Stendal, Hansestadt","type":"Stadt"},"district":{"key":"15090","name":"Stendal","type":"Landkreis"},"federalState":{"key":"15","name":"Sachsen-Anhalt"}},{"name":"Lübecker Str.","postalCode":"39576","locality":"Stendal","municipality":{"key":"15090535","name":"Stendal, Hansestadt","type":"Stadt"},"district":{"key":"15090","name":"Stendal","type":"Landkreis"},"federalState":{"key":"15","name":"Sachsen-Anhalt"}},{"name":"Lucas-Cranach-Str.","postalCode":"39576","locality":"Stendal","municipality":{"key":"15090535","name":"Stendal, Hansestadt","type":"Stadt"},"district":{"key":"15090","name":"Stendal","type":"Landkreis"},"federalState":{"key":"15","name":"Sachsen-Anhalt"}},{"name":"Lüderitzer Str.","postalCode":"39576","locality":"Stendal","municipality":{"key":"15090535","name":"Stendal, Hansestadt","type":"Stadt"},"district":{"key":"15090","name":"Stendal","type":"Landkreis"},"federalState":{"key":"15","name":"Sachsen-Anhalt"}},{"name":"Lüderitzer Weg","postalCode":"39576","locality":"Stendal","municipality":{"key":"15090535","name":"Stendal, Hansestadt","type":"Stadt"},"district":{"key":"15090","name":"Stendal","type":"Landkreis"},"federalState":{"key":"15","name":"Sachsen-Anhalt"}},{"name":"Ludwig-Turek-Str.","postalCode":"39576","locality":"Stendal","municipality":{"key":"15090535","name":"Stendal, Hansestadt","type":"Stadt"},"district":{"key":"15090","name":"Stendal","type":"Landkreis"},"federalState":{"key":"15","name":"Sachsen-Anhalt"}},{"name":"Luise-Mewis-Str.","postalCode":"39576","locality":"Stendal","municipality":{"key":"15090535","name":"Stendal, Hansestadt","type":"Stadt"},"district":{"key":"15090","name":"Stendal","type":"Landkreis"},"federalState":{"key":"15","name":"Sachsen-Anhalt"}},{"name":"Lutherstr.","postalCode":"39576","locality":"Stendal","municipality":{"key":"15090535","name":"Stendal, Hansestadt","type":"Stadt"},"district":{"key":"15090","name":"Stendal","type":"Landkreis"},"federalState":{"key":"15","name":"Sachsen-Anhalt"}},{"name":"Lützowstr.","postalCode":"39576","locality":"Stendal","municipality":{"key":"15090535","name":"Stendal, Hansestadt","type":"Stadt"},"district":{"key":"15090","name":"Stendal","type":"Landkreis"},"federalState":{"key":"15","name":"Sachsen-Anhalt"}},{"name":"Melkower Hauptstr.","postalCode":"39524","locality":"Wust-Fischbeck","municipality":{"key":"15090631","name":"Wust-Fischbeck","type":"Kreisangehörige_Gemeinde"},"district":{"key":"15090","name":"Stendal","type":"Landkreis"},"federalState":{"key":"15","name":"Sachsen-Anhalt"}},{"name":"Mühlenweg","postalCode":"39524","locality":"Wust-Fischbeck","municipality":{"key":"15090631","name":"Wust-Fischbeck","type":"Kreisangehörige_Gemeinde"},"district":{"key":"15090","name":"Stendal","type":"Landkreis"},"federalState":{"key":"15","name":"Sachsen-Anhalt"}},{"name":"Nachtigalplatz","postalCode":"39576","locality":"Stendal","municipality":{"key":"15090535","name":"Stendal, Hansestadt","type":"Stadt"},"district":{"key":"15090","name":"Stendal","type":"Landkreis"},"federalState":{"key":"15","name":"Sachsen-Anhalt"}},{"name":"Nachtweide","postalCode":"39576","locality":"Stendal","municipality":{"key":"15090535","name":"Stendal, Hansestadt","type":"Stadt"},"district":{"key":"15090","name":"Stendal","type":"Landkreis"},"federalState":{"key":"15","name":"Sachsen-Anhalt"}},{"name":"Nahrstedter Dorfstr.","postalCode":"39576","locality":"Stendal","municipality":{"key":"15090535","name":"Stendal, Hansestadt","type":"Stadt"},"district":{"key":"15090","name":"Stendal","type":"Landkreis"},"federalState":{"key":"15","name":"Sachsen-Anhalt"}},{"name":"Narzissenweg","postalCode":"39576","locality":"Stendal","municipality":{"key":"15090535","name":"Stendal, Hansestadt","type":"Stadt"},"district":{"key":"15090","name":"Stendal","type":"Landkreis"},"federalState":{"key":"15","name":"Sachsen-Anhalt"}},{"name":"Neubau","postalCode":"39576","locality":"Stendal","municipality":{"key":"15090535","name":"Stendal, Hansestadt","type":"Stadt"},"district":{"key":"15090","name":"Stendal","type":"Landkreis"},"federalState":{"key":"15","name":"Sachsen-Anhalt"}},{"name":"Neuendorf am Speck","postalCode":"39576","locality":"Stendal","municipality":{"key":"15090535","name":"Stendal, Hansestadt","type":"Stadt"},"district":{"key":"15090","name":"Stendal","type":"Landkreis"},"federalState":{"key":"15","name":"Sachsen-Anhalt"}},{"name":"Neuendorfer Chaussee","postalCode":"39576","locality":"Stendal","municipality":{"key":"15090535","name":"Stendal, Hansestadt","type":"Stadt"},"district":{"key":"15090","name":"Stendal","type":"Landkreis"},"federalState":{"key":"15","name":"Sachsen-Anhalt"}},{"name":"Neuendorfer Weg","postalCode":"39576","locality":"Stendal","municipality":{"key":"15090535","name":"Stendal, Hansestadt","type":"Stadt"},"district":{"key":"15090","name":"Stendal","type":"Landkreis"},"federalState":{"key":"15","name":"Sachsen-Anhalt"}},{"name":"Neuer Weg","postalCode":"39576","locality":"Stendal","municipality":{"key":"15090535","name":"Stendal, Hansestadt","type":"Stadt"},"district":{"key":"15090","name":"Stendal","type":"Landkreis"},"federalState":{"key":"15","name":"Sachsen-Anhalt"}},{"name":"Neue Str.","postalCode":"39576","locality":"Stendal","municipality":{"key":"15090535","name":"Stendal, Hansestadt","type":"Stadt"},"district":{"key":"15090","name":"Stendal","type":"Landkreis"},"federalState":{"key":"15","name":"Sachsen-Anhalt"}},{"name":"Neustr.","postalCode":"39576","locality":"Stendal","municipality":{"key":"15090535","name":"Stendal, Hansestadt","type":"Stadt"},"district":{"key":"15090","name":"Stendal","type":"Landkreis"},"federalState":{"key":"15","name":"Sachsen-Anhalt"}},{"name":"Nicolaistr.","postalCode":"39576","locality":"Stendal","municipality":{"key":"15090535","name":"Stendal, Hansestadt","type":"Stadt"},"district":{"key":"15090","name":"Stendal","type":"Landkreis"},"federalState":{"key":"15","name":"Sachsen-Anhalt"}},{"name":"Nordwall","postalCode":"39576","locality":"Stendal","municipality":{"key":"15090535","name":"Stendal, Hansestadt","type":"Stadt"},"district":{"key":"15090","name":"Stendal","type":"Landkreis"},"federalState":{"key":"15","name":"Sachsen-Anhalt"}},{"name":"Ovelgünne","postalCode":"39524","locality":"Wust-Fischbeck","municipality":{"key":"15090631","name":"Wust-Fischbeck","type":"Kreisangehörige_Gemeinde"},"district":{"key":"15090","name":"Stendal","type":"Landkreis"},"federalState":{"key":"15","name":"Sachsen-Anhalt"}},{"name":"Pappelallee","postalCode":"39576","locality":"Stendal","municipality":{"key":"15090535","name":"Stendal, Hansestadt","type":"Stadt"},"district":{"key":"15090","name":"Stendal","type":"Landkreis"},"federalState":{"key":"15","name":"Sachsen-Anhalt"}},{"name":"Pappelweg","postalCode":"39576","locality":"Stendal","municipality":{"key":"15090535","name":"Stendal, Hansestadt","type":"Stadt"},"district":{"key":"15090","name":"Stendal","type":"Landkreis"},"federalState":{"key":"15","name":"Sachsen-Anhalt"}},{"name":"Parkallee","postalCode":"39576","locality":"Stendal","municipality":{"key":"15090535","name":"Stendal, Hansestadt","type":"Stadt"},"district":{"key":"15090","name":"Stendal","type":"Landkreis"},"federalState":{"key":"15","name":"Sachsen-Anhalt"}},{"name":"Parkstr.","postalCode":"39576","locality":"Stendal","municipality":{"key":"15090535","name":"Stendal, Hansestadt","type":"Stadt"},"district":{"key":"15090","name":"Stendal","type":"Landkreis"},"federalState":{"key":"15","name":"Sachsen-Anhalt"}},{"name":"Pastor-Niemöller-Str.","postalCode":"39576","locality":"Stendal","municipality":{"key":"15090535","name":"Stendal, Hansestadt","type":"Stadt"},"district":{"key":"15090","name":"Stendal","type":"Landkreis"},"federalState":{"key":"15","name":"Sachsen-Anhalt"}},{"name":"Petrikirchstr.","postalCode":"39576","locality":"Stendal","municipality":{"key":"15090535","name":"Stendal, Hansestadt","type":"Stadt"},"district":{"key":"15090","name":"Stendal","type":"Landkreis"},"federalState":{"key":"15","name":"Sachsen-Anhalt"}},{"name":"Peulingen","postalCode":"39576","locality":"Stendal","municipality":{"key":"15090535","name":"Stendal, Hansestadt","type":"Stadt"},"district":{"key":"15090","name":"Stendal","type":"Landkreis"},"federalState":{"key":"15","name":"Sachsen-Anhalt"}},{"name":"Peulinger Bahnhof","postalCode":"39576","locality":"Stendal","municipality":{"key":"15090535","name":"Stendal, Hansestadt","type":"Stadt"},"district":{"key":"15090","name":"Stendal","type":"Landkreis"},"federalState":{"key":"15","name":"Sachsen-Anhalt"}},{"name":"Peulinger Nachtweide","postalCode":"39576","locality":"Stendal","municipality":{"key":"15090535","name":"Stendal, Hansestadt","type":"Stadt"},"district":{"key":"15090","name":"Stendal","type":"Landkreis"},"federalState":{"key":"15","name":"Sachsen-Anhalt"}},{"name":"Peulinger Weg","postalCode":"39576","locality":"Stendal","municipality":{"key":"15090535","name":"Stendal, Hansestadt","type":"Stadt"},"district":{"key":"15090","name":"Stendal","type":"Landkreis"},"federalState":{"key":"15","name":"Sachsen-Anhalt"}},{"name":"Peulinger Winkel","postalCode":"39576","locality":"Stendal","municipality":{"key":"15090535","name":"Stendal, Hansestadt","type":"Stadt"},"district":{"key":"15090","name":"Stendal","type":"Landkreis"},"federalState":{"key":"15","name":"Sachsen-Anhalt"}},{"name":"Pferdemärsche","postalCode":"39576","locality":"Stendal","municipality":{"key":"15090535","name":"Stendal, Hansestadt","type":"Stadt"},"district":{"key":"15090","name":"Stendal","type":"Landkreis"},"federalState":{"key":"15","name":"Sachsen-Anhalt"}},{"name":"Plantagenweg","postalCode":"39576","locality":"Stendal","municipality":{"key":"15090535","name":"Stendal, Hansestadt","type":"Stadt"},"district":{"key":"15090","name":"Stendal","type":"Landkreis"},"federalState":{"key":"15","name":"Sachsen-Anhalt"}},{"name":"Platanenweg","postalCode":"39576","locality":"Stendal","municipality":{"key":"15090535","name":"Stendal, Hansestadt","type":"Stadt"},"district":{"key":"15090","name":"Stendal","type":"Landkreis"},"federalState":{"key":"15","name":"Sachsen-Anhalt"}},{"name":"Poststr.","postalCode":"39576","locality":"Stendal","municipality":{"key":"15090535","name":"Stendal, Hansestadt","type":"Stadt"},"district":{"key":"15090","name":"Stendal","type":"Landkreis"},"federalState":{"key":"15","name":"Sachsen-Anhalt"}},{"name":"Preußenstr.","postalCode":"39576","locality":"Stendal","municipality":{"key":"15090535","name":"Stendal, Hansestadt","type":"Stadt"},"district":{"key":"15090","name":"Stendal","type":"Landkreis"},"federalState":{"key":"15","name":"Sachsen-Anhalt"}},{"name":"Priesterstr.","postalCode":"39576","locality":"Stendal","municipality":{"key":"15090535","name":"Stendal, Hansestadt","type":"Stadt"},"district":{"key":"15090","name":"Stendal","type":"Landkreis"},"federalState":{"key":"15","name":"Sachsen-Anhalt"}},{"name":"Prinzengasse","postalCode":"39576","locality":"Stendal","municipality":{"key":"15090535","name":"Stendal, Hansestadt","type":"Stadt"},"district":{"key":"15090","name":"Stendal","type":"Landkreis"},"federalState":{"key":"15","name":"Sachsen-Anhalt"}},{"name":"Prinzenstr.","postalCode":"39576","locality":"Stendal","municipality":{"key":"15090535","name":"Stendal, Hansestadt","type":"Stadt"},"district":{"key":"15090","name":"Stendal","type":"Landkreis"},"federalState":{"key":"15","name":"Sachsen-Anhalt"}},{"name":"Prof.-Dathe-Str.","postalCode":"39576","locality":"Stendal","municipality":{"key":"15090535","name":"Stendal, Hansestadt","type":"Stadt"},"district":{"key":"15090","name":"Stendal","type":"Landkreis"},"federalState":{"key":"15","name":"Sachsen-Anhalt"}},{"name":"Querstr.","postalCode":"39576","locality":"Stendal","municipality":{"key":"15090535","name":"Stendal, Hansestadt","type":"Stadt"},"district":{"key":"15090","name":"Stendal","type":"Landkreis"},"federalState":{"key":"15","name":"Sachsen-Anhalt"}},{"name":"Quickbornweg","postalCode":"39576","locality":"Stendal","municipality":{"key":"15090535","name":"Stendal, Hansestadt","type":"Stadt"},"district":{"key":"15090","name":"Stendal","type":"Landkreis"},"federalState":{"key":"15","name":"Sachsen-Anhalt"}},{"name":"Rathenower Str.","postalCode":"39524","locality":"Wust-Fischbeck","municipality":{"key":"15090631","name":"Wust-Fischbeck","type":"Kreisangehörige_Gemeinde"},"district":{"key":"15090","name":"Stendal","type":"Landkreis"},"federalState":{"key":"15","name":"Sachsen-Anhalt"}},{"name":"Schmiedeberg","postalCode":"39524","locality":"Wust-Fischbeck","municipality":{"key":"15090631","name":"Wust-Fischbeck","type":"Kreisangehörige_Gemeinde"},"district":{"key":"15090","name":"Stendal","type":"Landkreis"},"federalState":{"key":"15","name":"Sachsen-Anhalt"}},{"name":"Siedlung","postalCode":"39524","locality":"Wust-Fischbeck","municipality":{"key":"15090631","name":"Wust-Fischbeck","type":"Kreisangehörige_Gemeinde"},"district":{"key":"15090","name":"Stendal","type":"Landkreis"},"federalState":{"key":"15","name":"Sachsen-Anhalt"}},{"name":"Sydow","postalCode":"39524","locality":"Wust-Fischbeck","municipality":{"key":"15090631","name":"Wust-Fischbeck","type":"Kreisangehörige_Gemeinde"},"district":{"key":"15090","name":"Stendal","type":"Landkreis"},"federalState":{"key":"15","name":"Sachsen-Anhalt"}},{"name":"Tangermünder Chaussee","postalCode":"39576","locality":"Stendal","municipality":{"key":"15090535","name":"Stendal, Hansestadt","type":"Stadt"},"district":{"key":"15090","name":"Stendal","type":"Landkreis"},"federalState":{"key":"15","name":"Sachsen-Anhalt"}},{"name":"Tangermünder Str.","postalCode":"39576","locality":"Stendal","municipality":{"key":"15090535","name":"Stendal, Hansestadt","type":"Stadt"},"district":{"key":"15090","name":"Stendal","type":"Landkreis"},"federalState":{"key":"15","name":"Sachsen-Anhalt"}},{"name":"Tangermünder Weg","postalCode":"39576","locality":"Stendal","municipality":{"key":"15090535","name":"Stendal, Hansestadt","type":"Stadt"},"district":{"key":"15090","name":"Stendal","type":"Landkreis"},"federalState":{"key":"15","name":"Sachsen-Anhalt"}},{"name":"Tannensiedlung","postalCode":"39576","locality":"Stendal","municipality":{"key":"15090535","name":"Stendal, Hansestadt","type":"Stadt"},"district":{"key":"15090","name":"Stendal","type":"Landkreis"},"federalState":{"key":"15","name":"Sachsen-Anhalt"}},{"name":"Tannenweg","postalCode":"39576","locality":"Stendal","municipality":{"key":"15090535","name":"Stendal, Hansestadt","type":"Stadt"},"district":{"key":"15090","name":"Stendal","type":"Landkreis"},"federalState":{"key":"15","name":"Sachsen-Anhalt"}},{"name":"Tauentzienstr.","postalCode":"39576","locality":"Stendal","municipality":{"key":"15090535","name":"Stendal, Hansestadt","type":"Stadt"},"district":{"key":"15090","name":"Stendal","type":"Landkreis"},"federalState":{"key":"15","name":"Sachsen-Anhalt"}},{"name":"Teichstr.","postalCode":"39576","locality":"Stendal","municipality":{"key":"15090535","name":"Stendal, Hansestadt","type":"Stadt"},"district":{"key":"15090","name":"Stendal","type":"Landkreis"},"federalState":{"key":"15","name":"Sachsen-Anhalt"}},{"name":"Theodor-Fontane-Str.","postalCode":"39576","locality":"Stendal","municipality":{"key":"15090535","name":"Stendal, Hansestadt","type":"Stadt"},"district":{"key":"15090","name":"Stendal","type":"Landkreis"},"federalState":{"key":"15","name":"Sachsen-Anhalt"}},{"name":"Theodor-Storm-Str.","postalCode":"39576","locality":"Stendal","municipality":{"key":"15090535","name":"Stendal, Hansestadt","type":"Stadt"},"district":{"key":"15090","name":"Stendal","type":"Landkreis"},"federalState":{"key":"15","name":"Sachsen-Anhalt"}},{"name":"Thüringer Str.","postalCode":"39576","locality":"Stendal","municipality":{"key":"15090535","name":"Stendal, Hansestadt","type":"Stadt"},"district":{"key":"15090","name":"Stendal","type":"Landkreis"},"federalState":{"key":"15","name":"Sachsen-Anhalt"}},{"name":"Tornauer Dorfstr.","postalCode":"39576","locality":"Stendal","municipality":{"key":"15090535","name":"Stendal, Hansestadt","type":"Stadt"},"district":{"key":"15090","name":"Stendal","type":"Landkreis"},"federalState":{"key":"15","name":"Sachsen-Anhalt"}},{"name":"Tornauer Str.","postalCode":"39576","locality":"Stendal","municipality":{"key":"15090535","name":"Stendal, Hansestadt","type":"Stadt"},"district":{"key":"15090","name":"Stendal","type":"Landkreis"},"federalState":{"key":"15","name":"Sachsen-Anhalt"}},{"name":"Tornauer Weg","postalCode":"39576","locality":"Stendal","municipality":{"key":"15090535","name":"Stendal, Hansestadt","type":"Stadt"},"district":{"key":"15090","name":"Stendal","type":"Landkreis"},"federalState":{"key":"15","name":"Sachsen-Anhalt"}},{"name":"Trift","postalCode":"39576","locality":"Stendal","municipality":{"key":"15090535","name":"Stendal, Hansestadt","type":"Stadt"},"district":{"key":"15090","name":"Stendal","type":"Landkreis"},"federalState":{"key":"15","name":"Sachsen-Anhalt"}},{"name":"Triftweg","postalCode":"39576","locality":"Stendal","municipality":{"key":"15090535","name":"Stendal, Hansestadt","type":"Stadt"},"district":{"key":"15090","name":"Stendal","type":"Landkreis"},"federalState":{"key":"15","name":"Sachsen-Anhalt"}},{"name":"Uchtewall","postalCode":"39576","locality":"Stendal","municipality":{"key":"15090535","name":"Stendal, Hansestadt","type":"Stadt"},"district":{"key":"15090","name":"Stendal","type":"Landkreis"},"federalState":{"key":"15","name":"Sachsen-Anhalt"}},{"name":"Uchteweg","postalCode":"39576","locality":"Stendal","municipality":{"key":"15090535","name":"Stendal, Hansestadt","type":"Stadt"},"district":{"key":"15090","name":"Stendal","type":"Landkreis"},"federalState":{"key":"15","name":"Sachsen-Anhalt"}},{"name":"Uchtstr.","postalCode":"39576","locality":"Stendal","municipality":{"key":"15090535","name":"Stendal, Hansestadt","type":"Stadt"},"district":{"key":"15090","name":"Stendal","type":"Landkreis"},"federalState":{"key":"15","name":"Sachsen-Anhalt"}},{"name":"Uenglinger Str.","postalCode":"39576","locality":"Stendal","municipality":{"key":"15090535","name":"Stendal, Hansestadt","type":"Stadt"},"district":{"key":"15090","name":"Stendal","type":"Landkreis"},"federalState":{"key":"15","name":"Sachsen-Anhalt"}},{"name":"Uenglinger Weg","postalCode":"39576","locality":"Stendal","municipality":{"key":"15090535","name":"Stendal, Hansestadt","type":"Stadt"},"district":{"key":"15090","name":"Stendal","type":"Landkreis"},"federalState":{"key":"15","name":"Sachsen-Anhalt"}},{"name":"Ulmenweg","postalCode":"39576","locality":"Stendal","municipality":{"key":"15090535","name":"Stendal, Hansestadt","type":"Stadt"},"district":{"key":"15090","name":"Stendal","type":"Landkreis"},"federalState":{"key":"15","name":"Sachsen-Anhalt"}},{"name":"Unter den Linden","postalCode":"39576","locality":"Stendal","municipality":{"key":"15090535","name":"Stendal, Hansestadt","type":"Stadt"},"district":{"key":"15090","name":"Stendal","type":"Landkreis"},"federalState":{"key":"15","name":"Sachsen-Anhalt"}},{"name":"Uppstall","postalCode":"39576","locality":"Stendal","municipality":{"key":"15090535","name":"Stendal, Hansestadt","type":"Stadt"},"district":{"key":"15090","name":"Stendal","type":"Landkreis"},"federalState":{"key":"15","name":"Sachsen-Anhalt"}},{"name":"Veilchenweg","postalCode":"39576","locality":"Stendal","municipality":{"key":"15090535","name":"Stendal, Hansestadt","type":"Stadt"},"district":{"key":"15090","name":"Stendal","type":"Landkreis"},"federalState":{"key":"15","name":"Sachsen-Anhalt"}},{"name":"Vinzelberger Str.","postalCode":"39576","locality":"Stendal","municipality":{"key":"15090535","name":"Stendal, Hansestadt","type":"Stadt"},"district":{"key":"15090","name":"Stendal","type":"Landkreis"},"federalState":{"key":"15","name":"Sachsen-Anhalt"}},{"name":"Vinzelberger Weg","postalCode":"39576","locality":"Stendal","municipality":{"key":"15090535","name":"Stendal, Hansestadt","type":"Stadt"},"district":{"key":"15090","name":"Stendal","type":"Landkreis"},"federalState":{"key":"15","name":"Sachsen-Anhalt"}},{"name":"Virchower Weg","postalCode":"39576","locality":"Stendal","municipality":{"key":"15090535","name":"Stendal, Hansestadt","type":"Stadt"},"district":{"key":"15090","name":"Stendal","type":"Landkreis"},"federalState":{"key":"15","name":"Sachsen-Anhalt"}},{"name":"Vogelstr.","postalCode":"39576","locality":"Stendal","municipality":{"key":"15090535","name":"Stendal, Hansestadt","type":"Stadt"},"district":{"key":"15090","name":"Stendal","type":"Landkreis"},"federalState":{"key":"15","name":"Sachsen-Anhalt"}},{"name":"Volgfelder Dorfstr.","postalCode":"39576","locality":"Stendal","municipality":{"key":"15090535","name":"Stendal, Hansestadt","type":"Stadt"},"district":{"key":"15090","name":"Stendal","type":"Landkreis"},"federalState":{"key":"15","name":"Sachsen-Anhalt"}},{"name":"Volgfelder Mühlenstr.","postalCode":"39576","locality":"Stendal","municipality":{"key":"15090535","name":"Stendal, Hansestadt","type":"Stadt"},"district":{"key":"15090","name":"Stendal","type":"Landkreis"},"federalState":{"key":"15","name":"Sachsen-Anhalt"}},{"name":"Volgfelder Str.","postalCode":"39576","locality":"Stendal","municipality":{"key":"15090535","name":"Stendal, Hansestadt","type":"Stadt"},"district":{"key":"15090","name":"Stendal","type":"Landkreis"},"federalState":{"key":"15","name":"Sachsen-Anhalt"}},{"name":"Vollenschierer Weg","postalCode":"39576","locality":"Stendal","municipality":{"key":"15090535","name":"Stendal, Hansestadt","type":"Stadt"},"district":{"key":"15090","name":"Stendal","type":"Landkreis"},"federalState":{"key":"15","name":"Sachsen-Anhalt"}},{"name":"Von-Ardenne-Str.","postalCode":"39576","locality":"Stendal","municipality":{"key":"15090535","name":"Stendal, Hansestadt","type":"Stadt"},"district":{"key":"15090","name":"Stendal","type":"Landkreis"},"federalState":{"key":"15","name":"Sachsen-Anhalt"}},{"name":"Von-Schill-Str.","postalCode":"39576","locality":"Stendal","municipality":{"key":"15090535","name":"Stendal, Hansestadt","type":"Stadt"},"district":{"key":"15090","name":"Stendal","type":"Landkreis"},"federalState":{"key":"15","name":"Sachsen-Anhalt"}},{"name":"Vor dem Viehtor","postalCode":"39576","locality":"Stendal","municipality":{"key":"15090535","name":"Stendal, Hansestadt","type":"Stadt"},"district":{"key":"15090","name":"Stendal","type":"Landkreis"},"federalState":{"key":"15","name":"Sachsen-Anhalt"}},{"name":"Waldweg","postalCode":"39524","locality":"Wust-Fischbeck","municipality":{"key":"15090631","name":"Wust-Fischbeck","type":"Kreisangehörige_Gemeinde"},"district":{"key":"15090","name":"Stendal","type":"Landkreis"},"federalState":{"key":"15","name":"Sachsen-Anhalt"}},{"name":"Yorckstr.","postalCode":"39576","locality":"Stendal","municipality":{"key":"15090535","name":"Stendal, Hansestadt","type":"Stadt"},"district":{"key":"15090","name":"Stendal","type":"Landkreis"},"federalState":{"key":"15","name":"Sachsen-Anhalt"}},{"name":"Ziegelei","postalCode":"39576","locality":"Stendal","municipality":{"key":"15090535","name":"Stendal, Hansestadt","type":"Stadt"},"district":{"key":"15090","name":"Stendal","type":"Landkreis"},"federalState":{"key":"15","name":"Sachsen-Anhalt"}},{"name":"Ziegeleiweg","postalCode":"39576","locality":"Stendal","municipality":{"key":"15090535","name":"Stendal, Hansestadt","type":"Stadt"},"district":{"key":"15090","name":"Stendal","type":"Landkreis"},"federalState":{"key":"15","name":"Sachsen-Anhalt"}},{"name":"Ziegelhof","postalCode":"39576","locality":"Stendal","municipality":{"key":"15090535","name":"Stendal, Hansestadt","type":"Stadt"},"district":{"key":"15090","name":"Stendal","type":"Landkreis"},"federalState":{"key":"15","name":"Sachsen-Anhalt"}},{"name":"Zum alten Gut","postalCode":"39576","locality":"Stendal","municipality":{"key":"15090535","name":"Stendal, Hansestadt","type":"Stadt"},"district":{"key":"15090","name":"Stendal","type":"Landkreis"},"federalState":{"key":"15","name":"Sachsen-Anhalt"}},{"name":"Zum Bürgerpark","postalCode":"39576","locality":"Stendal","municipality":{"key":"15090535","name":"Stendal, Hansestadt","type":"Stadt"},"district":{"key":"15090","name":"Stendal","type":"Landkreis"},"federalState":{"key":"15","name":"Sachsen-Anhalt"}},{"name":"Zum Gänseteich","postalCode":"39576","locality":"Stendal","municipality":{"key":"15090535","name":"Stendal, Hansestadt","type":"Stadt"},"district":{"key":"15090","name":"Stendal","type":"Landkreis"},"federalState":{"key":"15","name":"Sachsen-Anhalt"}},{"name":"Zum Gutshof","postalCode":"39576","locality":"Stendal","municipality":{"key":"15090535","name":"Stendal, Hansestadt","type":"Stadt"},"district":{"key":"15090","name":"Stendal","type":"Landkreis"},"federalState":{"key":"15","name":"Sachsen-Anhalt"}},{"name":"Zum Sportplatz","postalCode":"39576","locality":"Stendal","municipality":{"key":"15090535","name":"Stendal, Hansestadt","type":"Stadt"},"district":{"key":"15090","name":"Stendal","type":"Landkreis"},"federalState":{"key":"15","name":"Sachsen-Anhalt"}},{"name":"Zum Tannenwald","postalCode":"39576","locality":"Stendal","municipality":{"key":"15090535","name":"Stendal, Hansestadt","type":"Stadt"},"district":{"key":"15090","name":"Stendal","type":"Landkreis"},"federalState":{"key":"15","name":"Sachsen-Anhalt"}},{"name":"Zum Wald","postalCode":"39576","locality":"Stendal","municipality":{"key":"15090535","name":"Stendal, Hansestadt","type":"Stadt"},"district":{"key":"15090","name":"Stendal","type":"Landkreis"},"federalState":{"key":"15","name":"Sachsen-Anhalt"}},{"name":"Zum Wiesenweg","postalCode":"39576","locality":"Stendal","municipality":{"key":"15090535","name":"Stendal, Hansestadt","type":"Stadt"},"district":{"key":"15090","name":"Stendal","type":"Landkreis"},"federalState":{"key":"15","name":"Sachsen-Anhalt"}},{"name":"Zur alten Schmiede","postalCode":"39576","locality":"Stendal","municipality":{"key":"15090535","name":"Stendal, Hansestadt","type":"Stadt"},"district":{"key":"15090","name":"Stendal","type":"Landkreis"},"federalState":{"key":"15","name":"Sachsen-Anhalt"}},{"name":"Zur Heide","postalCode":"39576","locality":"Stendal","municipality":{"key":"15090535","name":"Stendal, Hansestadt","type":"Stadt"},"district":{"key":"15090","name":"Stendal","type":"Landkreis"},"federalState":{"key":"15","name":"Sachsen-Anhalt"}},{"name":"Zur Kirche","postalCode":"39576","locality":"Stendal","municipality":{"key":"15090535","name":"Stendal, Hansestadt","type":"Stadt"},"district":{"key":"15090","name":"Stendal","type":"Landkreis"},"federalState":{"key":"15","name":"Sachsen-Anhalt"}},{"name":"Zur Mühle","postalCode":"39576","locality":"Stendal","municipality":{"key":"15090535","name":"Stendal, Hansestadt","type":"Stadt"},"district":{"key":"15090","name":"Stendal","type":"Landkreis"},"federalState":{"key":"15","name":"Sachsen-Anhalt"}},{"name":"Zur Wassermühle","postalCode":"39576","locality":"Stendal","municipality":{"key":"15090535","name":"Stendal, Hansestadt","type":"Stadt"},"district":{"key":"15090","name":"Stendal","type":"Landkreis"},"federalState":{"key":"15","name":"Sachsen-Anhalt"}},{"name":"Zur Weide","postalCode":"39576","locality":"Stendal","municipality":{"key":"15090535","name":"Stendal, Hansestadt","type":"Stadt"},"district":{"key":"15090","name":"Stendal","type":"Landkreis"},"federalState":{"key":"15","name":"Sachsen-Anhalt"}},]