[{"name":"Adolf-Kolping-Str.","postalCode":"54411","locality":"Hermeskeil","municipality":{"key":"07235045","name":"Hermeskeil, Stadt","type":"Stadt"},"district":{"key":"07235","name":"Trier-Saarburg","type":"Landkreis"},"federalState":{"key":"07","name":"Rheinland-Pfalz"}},{"name":"Alte Kirchstr.","postalCode":"54411","locality":"Hermeskeil","municipality":{"key":"07235045","name":"Hermeskeil, Stadt","type":"Stadt"},"district":{"key":"07235","name":"Trier-Saarburg","type":"Landkreis"},"federalState":{"key":"07","name":"Rheinland-Pfalz"}},{"name":"Alte Poststr.","postalCode":"54411","locality":"Hermeskeil","municipality":{"key":"07235045","name":"Hermeskeil, Stadt","type":"Stadt"},"district":{"key":"07235","name":"Trier-Saarburg","type":"Landkreis"},"federalState":{"key":"07","name":"Rheinland-Pfalz"}},{"name":"Am Alten Schwimmbad","postalCode":"54411","locality":"Hermeskeil","municipality":{"key":"07235045","name":"Hermeskeil, Stadt","type":"Stadt"},"district":{"key":"07235","name":"Trier-Saarburg","type":"Landkreis"},"federalState":{"key":"07","name":"Rheinland-Pfalz"}},{"name":"Am Dörrenbach","postalCode":"54411","locality":"Hermeskeil","municipality":{"key":"07235045","name":"Hermeskeil, Stadt","type":"Stadt"},"district":{"key":"07235","name":"Trier-Saarburg","type":"Landkreis"},"federalState":{"key":"07","name":"Rheinland-Pfalz"}},{"name":"Am Eschelborn","postalCode":"54411","locality":"Hermeskeil","municipality":{"key":"07235045","name":"Hermeskeil, Stadt","type":"Stadt"},"district":{"key":"07235","name":"Trier-Saarburg","type":"Landkreis"},"federalState":{"key":"07","name":"Rheinland-Pfalz"}},{"name":"Am Rotbach","postalCode":"54411","locality":"Hermeskeil","municipality":{"key":"07235045","name":"Hermeskeil, Stadt","type":"Stadt"},"district":{"key":"07235","name":"Trier-Saarburg","type":"Landkreis"},"federalState":{"key":"07","name":"Rheinland-Pfalz"}},{"name":"Am Tivoli","postalCode":"54411","locality":"Hermeskeil","municipality":{"key":"07235045","name":"Hermeskeil, Stadt","type":"Stadt"},"district":{"key":"07235","name":"Trier-Saarburg","type":"Landkreis"},"federalState":{"key":"07","name":"Rheinland-Pfalz"}},{"name":"Am Vogelsang","postalCode":"54411","locality":"Hermeskeil","municipality":{"key":"07235045","name":"Hermeskeil, Stadt","type":"Stadt"},"district":{"key":"07235","name":"Trier-Saarburg","type":"Landkreis"},"federalState":{"key":"07","name":"Rheinland-Pfalz"}},{"name":"An der Alten Brauerei","postalCode":"54411","locality":"Hermeskeil","municipality":{"key":"07235045","name":"Hermeskeil, Stadt","type":"Stadt"},"district":{"key":"07235","name":"Trier-Saarburg","type":"Landkreis"},"federalState":{"key":"07","name":"Rheinland-Pfalz"}},{"name":"Auf Abert","postalCode":"54411","locality":"Hermeskeil","municipality":{"key":"07235045","name":"Hermeskeil, Stadt","type":"Stadt"},"district":{"key":"07235","name":"Trier-Saarburg","type":"Landkreis"},"federalState":{"key":"07","name":"Rheinland-Pfalz"}},{"name":"Auf der Scheib","postalCode":"54411","locality":"Hermeskeil","municipality":{"key":"07235045","name":"Hermeskeil, Stadt","type":"Stadt"},"district":{"key":"07235","name":"Trier-Saarburg","type":"Landkreis"},"federalState":{"key":"07","name":"Rheinland-Pfalz"}},{"name":"Auf Frau Holl","postalCode":"54411","locality":"Hermeskeil","municipality":{"key":"07235045","name":"Hermeskeil, Stadt","type":"Stadt"},"district":{"key":"07235","name":"Trier-Saarburg","type":"Landkreis"},"federalState":{"key":"07","name":"Rheinland-Pfalz"}},{"name":"Bahnhofstr.","postalCode":"54411","locality":"Hermeskeil","municipality":{"key":"07235045","name":"Hermeskeil, Stadt","type":"Stadt"},"district":{"key":"07235","name":"Trier-Saarburg","type":"Landkreis"},"federalState":{"key":"07","name":"Rheinland-Pfalz"}},{"name":"Bergstr.","postalCode":"54411","locality":"Hermeskeil","municipality":{"key":"07235045","name":"Hermeskeil, Stadt","type":"Stadt"},"district":{"key":"07235","name":"Trier-Saarburg","type":"Landkreis"},"federalState":{"key":"07","name":"Rheinland-Pfalz"}},{"name":"Borwiesenstr.","postalCode":"54411","locality":"Hermeskeil","municipality":{"key":"07235045","name":"Hermeskeil, Stadt","type":"Stadt"},"district":{"key":"07235","name":"Trier-Saarburg","type":"Landkreis"},"federalState":{"key":"07","name":"Rheinland-Pfalz"}},{"name":"Breslauer Str.","postalCode":"54411","locality":"Hermeskeil","municipality":{"key":"07235045","name":"Hermeskeil, Stadt","type":"Stadt"},"district":{"key":"07235","name":"Trier-Saarburg","type":"Landkreis"},"federalState":{"key":"07","name":"Rheinland-Pfalz"}},{"name":"Brunnenweg","postalCode":"54411","locality":"Hermeskeil","municipality":{"key":"07235045","name":"Hermeskeil, Stadt","type":"Stadt"},"district":{"key":"07235","name":"Trier-Saarburg","type":"Landkreis"},"federalState":{"key":"07","name":"Rheinland-Pfalz"}},{"name":"Dasbachstr.","postalCode":"54411","locality":"Hermeskeil","municipality":{"key":"07235045","name":"Hermeskeil, Stadt","type":"Stadt"},"district":{"key":"07235","name":"Trier-Saarburg","type":"Landkreis"},"federalState":{"key":"07","name":"Rheinland-Pfalz"}},{"name":"Dechant-Greff-Str.","postalCode":"54411","locality":"Hermeskeil","municipality":{"key":"07235045","name":"Hermeskeil, Stadt","type":"Stadt"},"district":{"key":"07235","name":"Trier-Saarburg","type":"Landkreis"},"federalState":{"key":"07","name":"Rheinland-Pfalz"}},{"name":"Feldstr.","postalCode":"54411","locality":"Hermeskeil","municipality":{"key":"07235045","name":"Hermeskeil, Stadt","type":"Stadt"},"district":{"key":"07235","name":"Trier-Saarburg","type":"Landkreis"},"federalState":{"key":"07","name":"Rheinland-Pfalz"}},{"name":"Flurweg","postalCode":"54411","locality":"Hermeskeil","municipality":{"key":"07235045","name":"Hermeskeil, Stadt","type":"Stadt"},"district":{"key":"07235","name":"Trier-Saarburg","type":"Landkreis"},"federalState":{"key":"07","name":"Rheinland-Pfalz"}},{"name":"Frankenstr.","postalCode":"54411","locality":"Hermeskeil","municipality":{"key":"07235045","name":"Hermeskeil, Stadt","type":"Stadt"},"district":{"key":"07235","name":"Trier-Saarburg","type":"Landkreis"},"federalState":{"key":"07","name":"Rheinland-Pfalz"}},{"name":"Franziskusweg","postalCode":"54411","locality":"Hermeskeil","municipality":{"key":"07235045","name":"Hermeskeil, Stadt","type":"Stadt"},"district":{"key":"07235","name":"Trier-Saarburg","type":"Landkreis"},"federalState":{"key":"07","name":"Rheinland-Pfalz"}},{"name":"Frauenrötchen","postalCode":"54411","locality":"Hermeskeil","municipality":{"key":"07235045","name":"Hermeskeil, Stadt","type":"Stadt"},"district":{"key":"07235","name":"Trier-Saarburg","type":"Landkreis"},"federalState":{"key":"07","name":"Rheinland-Pfalz"}},{"name":"Friedrichstr.","postalCode":"54411","locality":"Hermeskeil","municipality":{"key":"07235045","name":"Hermeskeil, Stadt","type":"Stadt"},"district":{"key":"07235","name":"Trier-Saarburg","type":"Landkreis"},"federalState":{"key":"07","name":"Rheinland-Pfalz"}},{"name":"Gartenfeldstr.","postalCode":"54411","locality":"Hermeskeil","municipality":{"key":"07235045","name":"Hermeskeil, Stadt","type":"Stadt"},"district":{"key":"07235","name":"Trier-Saarburg","type":"Landkreis"},"federalState":{"key":"07","name":"Rheinland-Pfalz"}},{"name":"Gerberstr.","postalCode":"54411","locality":"Hermeskeil","municipality":{"key":"07235045","name":"Hermeskeil, Stadt","type":"Stadt"},"district":{"key":"07235","name":"Trier-Saarburg","type":"Landkreis"},"federalState":{"key":"07","name":"Rheinland-Pfalz"}},{"name":"Grimostr.","postalCode":"54411","locality":"Hermeskeil","municipality":{"key":"07235045","name":"Hermeskeil, Stadt","type":"Stadt"},"district":{"key":"07235","name":"Trier-Saarburg","type":"Landkreis"},"federalState":{"key":"07","name":"Rheinland-Pfalz"}},{"name":"Grubenkopf","postalCode":"54411","locality":"Hermeskeil","municipality":{"key":"07235045","name":"Hermeskeil, Stadt","type":"Stadt"},"district":{"key":"07235","name":"Trier-Saarburg","type":"Landkreis"},"federalState":{"key":"07","name":"Rheinland-Pfalz"}},{"name":"Gusenburger Str.","postalCode":"54411","locality":"Hermeskeil","municipality":{"key":"07235045","name":"Hermeskeil, Stadt","type":"Stadt"},"district":{"key":"07235","name":"Trier-Saarburg","type":"Landkreis"},"federalState":{"key":"07","name":"Rheinland-Pfalz"}},{"name":"Hammersfeld","postalCode":"54411","locality":"Hermeskeil","municipality":{"key":"07235045","name":"Hermeskeil, Stadt","type":"Stadt"},"district":{"key":"07235","name":"Trier-Saarburg","type":"Landkreis"},"federalState":{"key":"07","name":"Rheinland-Pfalz"}},{"name":"Haus Hellgott","postalCode":"54411","locality":"Hermeskeil","municipality":{"key":"07235045","name":"Hermeskeil, Stadt","type":"Stadt"},"district":{"key":"07235","name":"Trier-Saarburg","type":"Landkreis"},"federalState":{"key":"07","name":"Rheinland-Pfalz"}},{"name":"Hermanisstr.","postalCode":"54411","locality":"Hermeskeil","municipality":{"key":"07235045","name":"Hermeskeil, Stadt","type":"Stadt"},"district":{"key":"07235","name":"Trier-Saarburg","type":"Landkreis"},"federalState":{"key":"07","name":"Rheinland-Pfalz"}},{"name":"Hirtenweg","postalCode":"54411","locality":"Hermeskeil","municipality":{"key":"07235045","name":"Hermeskeil, Stadt","type":"Stadt"},"district":{"key":"07235","name":"Trier-Saarburg","type":"Landkreis"},"federalState":{"key":"07","name":"Rheinland-Pfalz"}},{"name":"Hubertusstr.","postalCode":"54411","locality":"Hermeskeil","municipality":{"key":"07235045","name":"Hermeskeil, Stadt","type":"Stadt"},"district":{"key":"07235","name":"Trier-Saarburg","type":"Landkreis"},"federalState":{"key":"07","name":"Rheinland-Pfalz"}},{"name":"Hunsrückhöhenstr.","postalCode":"54411","locality":"Hermeskeil","municipality":{"key":"07235045","name":"Hermeskeil, Stadt","type":"Stadt"},"district":{"key":"07235","name":"Trier-Saarburg","type":"Landkreis"},"federalState":{"key":"07","name":"Rheinland-Pfalz"}},{"name":"Im Adrian","postalCode":"54411","locality":"Hermeskeil","municipality":{"key":"07235045","name":"Hermeskeil, Stadt","type":"Stadt"},"district":{"key":"07235","name":"Trier-Saarburg","type":"Landkreis"},"federalState":{"key":"07","name":"Rheinland-Pfalz"}},{"name":"Im Wiesengrund","postalCode":"54411","locality":"Hermeskeil","municipality":{"key":"07235045","name":"Hermeskeil, Stadt","type":"Stadt"},"district":{"key":"07235","name":"Trier-Saarburg","type":"Landkreis"},"federalState":{"key":"07","name":"Rheinland-Pfalz"}},{"name":"In der Beut","postalCode":"54411","locality":"Hermeskeil","municipality":{"key":"07235045","name":"Hermeskeil, Stadt","type":"Stadt"},"district":{"key":"07235","name":"Trier-Saarburg","type":"Landkreis"},"federalState":{"key":"07","name":"Rheinland-Pfalz"}},{"name":"In der Steinkaul","postalCode":"54411","locality":"Hermeskeil","municipality":{"key":"07235045","name":"Hermeskeil, Stadt","type":"Stadt"},"district":{"key":"07235","name":"Trier-Saarburg","type":"Landkreis"},"federalState":{"key":"07","name":"Rheinland-Pfalz"}},{"name":"Johannes-Blum-Str.","postalCode":"54411","locality":"Hermeskeil","municipality":{"key":"07235045","name":"Hermeskeil, Stadt","type":"Stadt"},"district":{"key":"07235","name":"Trier-Saarburg","type":"Landkreis"},"federalState":{"key":"07","name":"Rheinland-Pfalz"}},{"name":"Josef-Krebs-Str.","postalCode":"54411","locality":"Hermeskeil","municipality":{"key":"07235045","name":"Hermeskeil, Stadt","type":"Stadt"},"district":{"key":"07235","name":"Trier-Saarburg","type":"Landkreis"},"federalState":{"key":"07","name":"Rheinland-Pfalz"}},{"name":"Kapellenstr.","postalCode":"54411","locality":"Hermeskeil","municipality":{"key":"07235045","name":"Hermeskeil, Stadt","type":"Stadt"},"district":{"key":"07235","name":"Trier-Saarburg","type":"Landkreis"},"federalState":{"key":"07","name":"Rheinland-Pfalz"}},{"name":"Klostersiedlung","postalCode":"54411","locality":"Hermeskeil","municipality":{"key":"07235045","name":"Hermeskeil, Stadt","type":"Stadt"},"district":{"key":"07235","name":"Trier-Saarburg","type":"Landkreis"},"federalState":{"key":"07","name":"Rheinland-Pfalz"}},{"name":"Klosterstr.","postalCode":"54411","locality":"Hermeskeil","municipality":{"key":"07235045","name":"Hermeskeil, Stadt","type":"Stadt"},"district":{"key":"07235","name":"Trier-Saarburg","type":"Landkreis"},"federalState":{"key":"07","name":"Rheinland-Pfalz"}},{"name":"Koblenzer Str.","postalCode":"54411","locality":"Hermeskeil","municipality":{"key":"07235045","name":"Hermeskeil, Stadt","type":"Stadt"},"district":{"key":"07235","name":"Trier-Saarburg","type":"Landkreis"},"federalState":{"key":"07","name":"Rheinland-Pfalz"}},{"name":"Köhlerweg","postalCode":"54411","locality":"Hermeskeil","municipality":{"key":"07235045","name":"Hermeskeil, Stadt","type":"Stadt"},"district":{"key":"07235","name":"Trier-Saarburg","type":"Landkreis"},"federalState":{"key":"07","name":"Rheinland-Pfalz"}},{"name":"Kölkerberg","postalCode":"54411","locality":"Hermeskeil","municipality":{"key":"07235045","name":"Hermeskeil, Stadt","type":"Stadt"},"district":{"key":"07235","name":"Trier-Saarburg","type":"Landkreis"},"federalState":{"key":"07","name":"Rheinland-Pfalz"}},{"name":"Königsberger Str.","postalCode":"54411","locality":"Hermeskeil","municipality":{"key":"07235045","name":"Hermeskeil, Stadt","type":"Stadt"},"district":{"key":"07235","name":"Trier-Saarburg","type":"Landkreis"},"federalState":{"key":"07","name":"Rheinland-Pfalz"}},{"name":"Kranicherstr.","postalCode":"54411","locality":"Hermeskeil","municipality":{"key":"07235045","name":"Hermeskeil, Stadt","type":"Stadt"},"district":{"key":"07235","name":"Trier-Saarburg","type":"Landkreis"},"federalState":{"key":"07","name":"Rheinland-Pfalz"}},{"name":"Kunickerstr.","postalCode":"54411","locality":"Hermeskeil","municipality":{"key":"07235045","name":"Hermeskeil, Stadt","type":"Stadt"},"district":{"key":"07235","name":"Trier-Saarburg","type":"Landkreis"},"federalState":{"key":"07","name":"Rheinland-Pfalz"}},{"name":"Labachweg","postalCode":"54411","locality":"Hermeskeil","municipality":{"key":"07235045","name":"Hermeskeil, Stadt","type":"Stadt"},"district":{"key":"07235","name":"Trier-Saarburg","type":"Landkreis"},"federalState":{"key":"07","name":"Rheinland-Pfalz"}},{"name":"Lascheiderhof","postalCode":"54411","locality":"Hermeskeil","municipality":{"key":"07235045","name":"Hermeskeil, Stadt","type":"Stadt"},"district":{"key":"07235","name":"Trier-Saarburg","type":"Landkreis"},"federalState":{"key":"07","name":"Rheinland-Pfalz"}},{"name":"Lerchenweg","postalCode":"54411","locality":"Hermeskeil","municipality":{"key":"07235045","name":"Hermeskeil, Stadt","type":"Stadt"},"district":{"key":"07235","name":"Trier-Saarburg","type":"Landkreis"},"federalState":{"key":"07","name":"Rheinland-Pfalz"}},{"name":"Marienstr.","postalCode":"54411","locality":"Hermeskeil","municipality":{"key":"07235045","name":"Hermeskeil, Stadt","type":"Stadt"},"district":{"key":"07235","name":"Trier-Saarburg","type":"Landkreis"},"federalState":{"key":"07","name":"Rheinland-Pfalz"}},{"name":"Martinusstr.","postalCode":"54411","locality":"Hermeskeil","municipality":{"key":"07235045","name":"Hermeskeil, Stadt","type":"Stadt"},"district":{"key":"07235","name":"Trier-Saarburg","type":"Landkreis"},"federalState":{"key":"07","name":"Rheinland-Pfalz"}},{"name":"Medumland","postalCode":"54411","locality":"Hermeskeil","municipality":{"key":"07235045","name":"Hermeskeil, Stadt","type":"Stadt"},"district":{"key":"07235","name":"Trier-Saarburg","type":"Landkreis"},"federalState":{"key":"07","name":"Rheinland-Pfalz"}},{"name":"Michael-Felke-Str.","postalCode":"54411","locality":"Hermeskeil","municipality":{"key":"07235045","name":"Hermeskeil, Stadt","type":"Stadt"},"district":{"key":"07235","name":"Trier-Saarburg","type":"Landkreis"},"federalState":{"key":"07","name":"Rheinland-Pfalz"}},{"name":"Mühlenweg","postalCode":"54411","locality":"Hermeskeil","municipality":{"key":"07235045","name":"Hermeskeil, Stadt","type":"Stadt"},"district":{"key":"07235","name":"Trier-Saarburg","type":"Landkreis"},"federalState":{"key":"07","name":"Rheinland-Pfalz"}},{"name":"Nagelstr.","postalCode":"54411","locality":"Hermeskeil","municipality":{"key":"07235045","name":"Hermeskeil, Stadt","type":"Stadt"},"district":{"key":"07235","name":"Trier-Saarburg","type":"Landkreis"},"federalState":{"key":"07","name":"Rheinland-Pfalz"}},{"name":"Naumborn","postalCode":"54411","locality":"Hermeskeil","municipality":{"key":"07235045","name":"Hermeskeil, Stadt","type":"Stadt"},"district":{"key":"07235","name":"Trier-Saarburg","type":"Landkreis"},"federalState":{"key":"07","name":"Rheinland-Pfalz"}},{"name":"Nelkenweg","postalCode":"54411","locality":"Hermeskeil","municipality":{"key":"07235045","name":"Hermeskeil, Stadt","type":"Stadt"},"district":{"key":"07235","name":"Trier-Saarburg","type":"Landkreis"},"federalState":{"key":"07","name":"Rheinland-Pfalz"}},{"name":"Neuer Markt","postalCode":"54411","locality":"Hermeskeil","municipality":{"key":"07235045","name":"Hermeskeil, Stadt","type":"Stadt"},"district":{"key":"07235","name":"Trier-Saarburg","type":"Landkreis"},"federalState":{"key":"07","name":"Rheinland-Pfalz"}},{"name":"Ober den Gärten","postalCode":"54411","locality":"Hermeskeil","municipality":{"key":"07235045","name":"Hermeskeil, Stadt","type":"Stadt"},"district":{"key":"07235","name":"Trier-Saarburg","type":"Landkreis"},"federalState":{"key":"07","name":"Rheinland-Pfalz"}},{"name":"Ober der Hirtenwiese","postalCode":"54411","locality":"Hermeskeil","municipality":{"key":"07235045","name":"Hermeskeil, Stadt","type":"Stadt"},"district":{"key":"07235","name":"Trier-Saarburg","type":"Landkreis"},"federalState":{"key":"07","name":"Rheinland-Pfalz"}},{"name":"Otto-von-Waldstein-Ring","postalCode":"54411","locality":"Hermeskeil","municipality":{"key":"07235045","name":"Hermeskeil, Stadt","type":"Stadt"},"district":{"key":"07235","name":"Trier-Saarburg","type":"Landkreis"},"federalState":{"key":"07","name":"Rheinland-Pfalz"}},{"name":"Parkweg","postalCode":"54411","locality":"Hermeskeil","municipality":{"key":"07235045","name":"Hermeskeil, Stadt","type":"Stadt"},"district":{"key":"07235","name":"Trier-Saarburg","type":"Landkreis"},"federalState":{"key":"07","name":"Rheinland-Pfalz"}},{"name":"Pastertsstr.","postalCode":"54411","locality":"Hermeskeil","municipality":{"key":"07235045","name":"Hermeskeil, Stadt","type":"Stadt"},"district":{"key":"07235","name":"Trier-Saarburg","type":"Landkreis"},"federalState":{"key":"07","name":"Rheinland-Pfalz"}},{"name":"Pater-Engelbert-Str.","postalCode":"54411","locality":"Hermeskeil","municipality":{"key":"07235045","name":"Hermeskeil, Stadt","type":"Stadt"},"district":{"key":"07235","name":"Trier-Saarburg","type":"Landkreis"},"federalState":{"key":"07","name":"Rheinland-Pfalz"}},{"name":"Petersberg","postalCode":"54411","locality":"Hermeskeil","municipality":{"key":"07235045","name":"Hermeskeil, Stadt","type":"Stadt"},"district":{"key":"07235","name":"Trier-Saarburg","type":"Landkreis"},"federalState":{"key":"07","name":"Rheinland-Pfalz"}},{"name":"Pfarrer-Molz-Str.","postalCode":"54411","locality":"Hermeskeil","municipality":{"key":"07235045","name":"Hermeskeil, Stadt","type":"Stadt"},"district":{"key":"07235","name":"Trier-Saarburg","type":"Landkreis"},"federalState":{"key":"07","name":"Rheinland-Pfalz"}},{"name":"Raiffeisenstr.","postalCode":"54411","locality":"Hermeskeil","municipality":{"key":"07235045","name":"Hermeskeil, Stadt","type":"Stadt"},"district":{"key":"07235","name":"Trier-Saarburg","type":"Landkreis"},"federalState":{"key":"07","name":"Rheinland-Pfalz"}},{"name":"Rascheider Weg","postalCode":"54411","locality":"Hermeskeil","municipality":{"key":"07235045","name":"Hermeskeil, Stadt","type":"Stadt"},"district":{"key":"07235","name":"Trier-Saarburg","type":"Landkreis"},"federalState":{"key":"07","name":"Rheinland-Pfalz"}},{"name":"Rektor-Bach-Str.","postalCode":"54411","locality":"Hermeskeil","municipality":{"key":"07235045","name":"Hermeskeil, Stadt","type":"Stadt"},"district":{"key":"07235","name":"Trier-Saarburg","type":"Landkreis"},"federalState":{"key":"07","name":"Rheinland-Pfalz"}},{"name":"Römerstr.","postalCode":"54411","locality":"Hermeskeil","municipality":{"key":"07235045","name":"Hermeskeil, Stadt","type":"Stadt"},"district":{"key":"07235","name":"Trier-Saarburg","type":"Landkreis"},"federalState":{"key":"07","name":"Rheinland-Pfalz"}},{"name":"Rommelstr.","postalCode":"54411","locality":"Hermeskeil","municipality":{"key":"07235045","name":"Hermeskeil, Stadt","type":"Stadt"},"district":{"key":"07235","name":"Trier-Saarburg","type":"Landkreis"},"federalState":{"key":"07","name":"Rheinland-Pfalz"}},{"name":"Rosenweg","postalCode":"54411","locality":"Hermeskeil","municipality":{"key":"07235045","name":"Hermeskeil, Stadt","type":"Stadt"},"district":{"key":"07235","name":"Trier-Saarburg","type":"Landkreis"},"federalState":{"key":"07","name":"Rheinland-Pfalz"}},{"name":"Saar-Hunsrück-Steig","postalCode":"54411","locality":"Hermeskeil","municipality":{"key":"07235045","name":"Hermeskeil, Stadt","type":"Stadt"},"district":{"key":"07235","name":"Trier-Saarburg","type":"Landkreis"},"federalState":{"key":"07","name":"Rheinland-Pfalz"}},{"name":"Saarstr.","postalCode":"54411","locality":"Hermeskeil","municipality":{"key":"07235045","name":"Hermeskeil, Stadt","type":"Stadt"},"district":{"key":"07235","name":"Trier-Saarburg","type":"Landkreis"},"federalState":{"key":"07","name":"Rheinland-Pfalz"}},{"name":"Sankt-Joseph-Str.","postalCode":"54411","locality":"Hermeskeil","municipality":{"key":"07235045","name":"Hermeskeil, Stadt","type":"Stadt"},"district":{"key":"07235","name":"Trier-Saarburg","type":"Landkreis"},"federalState":{"key":"07","name":"Rheinland-Pfalz"}},{"name":"Scharnhorststr.","postalCode":"54411","locality":"Hermeskeil","municipality":{"key":"07235045","name":"Hermeskeil, Stadt","type":"Stadt"},"district":{"key":"07235","name":"Trier-Saarburg","type":"Landkreis"},"federalState":{"key":"07","name":"Rheinland-Pfalz"}},{"name":"Schulstr.","postalCode":"54411","locality":"Hermeskeil","municipality":{"key":"07235045","name":"Hermeskeil, Stadt","type":"Stadt"},"district":{"key":"07235","name":"Trier-Saarburg","type":"Landkreis"},"federalState":{"key":"07","name":"Rheinland-Pfalz"}},{"name":"Sennewiese","postalCode":"54411","locality":"Hermeskeil","municipality":{"key":"07235045","name":"Hermeskeil, Stadt","type":"Stadt"},"district":{"key":"07235","name":"Trier-Saarburg","type":"Landkreis"},"federalState":{"key":"07","name":"Rheinland-Pfalz"}},{"name":"Siedlung unter der Lay","postalCode":"54411","locality":"Hermeskeil","municipality":{"key":"07235045","name":"Hermeskeil, Stadt","type":"Stadt"},"district":{"key":"07235","name":"Trier-Saarburg","type":"Landkreis"},"federalState":{"key":"07","name":"Rheinland-Pfalz"}},{"name":"St. Fargeau Park","postalCode":"54411","locality":"Hermeskeil","municipality":{"key":"07235045","name":"Hermeskeil, Stadt","type":"Stadt"},"district":{"key":"07235","name":"Trier-Saarburg","type":"Landkreis"},"federalState":{"key":"07","name":"Rheinland-Pfalz"}},{"name":"Trevererstr.","postalCode":"54411","locality":"Hermeskeil","municipality":{"key":"07235045","name":"Hermeskeil, Stadt","type":"Stadt"},"district":{"key":"07235","name":"Trier-Saarburg","type":"Landkreis"},"federalState":{"key":"07","name":"Rheinland-Pfalz"}},{"name":"Trierer Str.","postalCode":"54411","locality":"Hermeskeil","municipality":{"key":"07235045","name":"Hermeskeil, Stadt","type":"Stadt"},"district":{"key":"07235","name":"Trier-Saarburg","type":"Landkreis"},"federalState":{"key":"07","name":"Rheinland-Pfalz"}},{"name":"Tulpenweg","postalCode":"54411","locality":"Hermeskeil","municipality":{"key":"07235045","name":"Hermeskeil, Stadt","type":"Stadt"},"district":{"key":"07235","name":"Trier-Saarburg","type":"Landkreis"},"federalState":{"key":"07","name":"Rheinland-Pfalz"}},{"name":"Von-Konarsky-Str.","postalCode":"54411","locality":"Hermeskeil","municipality":{"key":"07235045","name":"Hermeskeil, Stadt","type":"Stadt"},"district":{"key":"07235","name":"Trier-Saarburg","type":"Landkreis"},"federalState":{"key":"07","name":"Rheinland-Pfalz"}},{"name":"Vor Kasels","postalCode":"54411","locality":"Hermeskeil","municipality":{"key":"07235045","name":"Hermeskeil, Stadt","type":"Stadt"},"district":{"key":"07235","name":"Trier-Saarburg","type":"Landkreis"},"federalState":{"key":"07","name":"Rheinland-Pfalz"}},{"name":"Waldfrieden","postalCode":"54411","locality":"Hermeskeil","municipality":{"key":"07235045","name":"Hermeskeil, Stadt","type":"Stadt"},"district":{"key":"07235","name":"Trier-Saarburg","type":"Landkreis"},"federalState":{"key":"07","name":"Rheinland-Pfalz"}},{"name":"Waldweg","postalCode":"54411","locality":"Hermeskeil","municipality":{"key":"07235045","name":"Hermeskeil, Stadt","type":"Stadt"},"district":{"key":"07235","name":"Trier-Saarburg","type":"Landkreis"},"federalState":{"key":"07","name":"Rheinland-Pfalz"}},{"name":"Wallonenweg","postalCode":"54411","locality":"Hermeskeil","municipality":{"key":"07235045","name":"Hermeskeil, Stadt","type":"Stadt"},"district":{"key":"07235","name":"Trier-Saarburg","type":"Landkreis"},"federalState":{"key":"07","name":"Rheinland-Pfalz"}},{"name":"Webs-Ranch","postalCode":"54411","locality":"Hermeskeil","municipality":{"key":"07235045","name":"Hermeskeil, Stadt","type":"Stadt"},"district":{"key":"07235","name":"Trier-Saarburg","type":"Landkreis"},"federalState":{"key":"07","name":"Rheinland-Pfalz"}},{"name":"Wiesenstr.","postalCode":"54411","locality":"Hermeskeil","municipality":{"key":"07235045","name":"Hermeskeil, Stadt","type":"Stadt"},"district":{"key":"07235","name":"Trier-Saarburg","type":"Landkreis"},"federalState":{"key":"07","name":"Rheinland-Pfalz"}},{"name":"Wilhelmstr.","postalCode":"54411","locality":"Hermeskeil","municipality":{"key":"07235045","name":"Hermeskeil, Stadt","type":"Stadt"},"district":{"key":"07235","name":"Trier-Saarburg","type":"Landkreis"},"federalState":{"key":"07","name":"Rheinland-Pfalz"}},{"name":"Zum Felsbach","postalCode":"54411","locality":"Hermeskeil","municipality":{"key":"07235045","name":"Hermeskeil, Stadt","type":"Stadt"},"district":{"key":"07235","name":"Trier-Saarburg","type":"Landkreis"},"federalState":{"key":"07","name":"Rheinland-Pfalz"}},{"name":"Zum Finkenbach","postalCode":"54411","locality":"Hermeskeil","municipality":{"key":"07235045","name":"Hermeskeil, Stadt","type":"Stadt"},"district":{"key":"07235","name":"Trier-Saarburg","type":"Landkreis"},"federalState":{"key":"07","name":"Rheinland-Pfalz"}},{"name":"Zum Kleegarten","postalCode":"54411","locality":"Hermeskeil","municipality":{"key":"07235045","name":"Hermeskeil, Stadt","type":"Stadt"},"district":{"key":"07235","name":"Trier-Saarburg","type":"Landkreis"},"federalState":{"key":"07","name":"Rheinland-Pfalz"}},{"name":"Zum Lindenstein","postalCode":"54411","locality":"Hermeskeil","municipality":{"key":"07235045","name":"Hermeskeil, Stadt","type":"Stadt"},"district":{"key":"07235","name":"Trier-Saarburg","type":"Landkreis"},"federalState":{"key":"07","name":"Rheinland-Pfalz"}},{"name":"Zum Lösterblick","postalCode":"54411","locality":"Hermeskeil","municipality":{"key":"07235045","name":"Hermeskeil, Stadt","type":"Stadt"},"district":{"key":"07235","name":"Trier-Saarburg","type":"Landkreis"},"federalState":{"key":"07","name":"Rheinland-Pfalz"}},{"name":"Zum Ringgraben","postalCode":"54411","locality":"Hermeskeil","municipality":{"key":"07235045","name":"Hermeskeil, Stadt","type":"Stadt"},"district":{"key":"07235","name":"Trier-Saarburg","type":"Landkreis"},"federalState":{"key":"07","name":"Rheinland-Pfalz"}},{"name":"Zum Steinerwald","postalCode":"54411","locality":"Hermeskeil","municipality":{"key":"07235045","name":"Hermeskeil, Stadt","type":"Stadt"},"district":{"key":"07235","name":"Trier-Saarburg","type":"Landkreis"},"federalState":{"key":"07","name":"Rheinland-Pfalz"}},{"name":"Zur Hild","postalCode":"54411","locality":"Hermeskeil","municipality":{"key":"07235045","name":"Hermeskeil, Stadt","type":"Stadt"},"district":{"key":"07235","name":"Trier-Saarburg","type":"Landkreis"},"federalState":{"key":"07","name":"Rheinland-Pfalz"}},{"name":"Züscher Str.","postalCode":"54411","locality":"Hermeskeil","municipality":{"key":"07235045","name":"Hermeskeil, Stadt","type":"Stadt"},"district":{"key":"07235","name":"Trier-Saarburg","type":"Landkreis"},"federalState":{"key":"07","name":"Rheinland-Pfalz"}},]