[{"key":"10034157","name":"Chemin de la Caroline","postalCode":"1031","locality":"Mex VD","commune":{"key":"5489","name":"Mex (VD)","shortName":"Mex (VD)"},"district":{"key":"2223","name":"District du Gros-de-Vaud"},"canton":{"key":"22","code":"VD","name":"Vaud"},"status":"Real"},{"key":"10121848","name":"Chemin de la Janibaud","postalCode":"1031","locality":"Mex VD","commune":{"key":"5489","name":"Mex (VD)","shortName":"Mex (VD)"},"district":{"key":"2223","name":"District du Gros-de-Vaud"},"canton":{"key":"22","code":"VD","name":"Vaud"},"status":"Real"},{"key":"10173232","name":"Chemin de la Planche à Jacques","postalCode":"1031","locality":"Mex VD","commune":{"key":"5489","name":"Mex (VD)","shortName":"Mex (VD)"},"district":{"key":"2223","name":"District du Gros-de-Vaud"},"canton":{"key":"22","code":"VD","name":"Vaud"},"status":"Real"},{"key":"10190693","name":"Chemin de la Richardaz","postalCode":"1031","locality":"Mex VD","commune":{"key":"5489","name":"Mex (VD)","shortName":"Mex (VD)"},"district":{"key":"2223","name":"District du Gros-de-Vaud"},"canton":{"key":"22","code":"VD","name":"Vaud"},"status":"Real"},{"key":"10162909","name":"Chemin de la Rochette","postalCode":"1031","locality":"Mex VD","commune":{"key":"5489","name":"Mex (VD)","shortName":"Mex (VD)"},"district":{"key":"2223","name":"District du Gros-de-Vaud"},"canton":{"key":"22","code":"VD","name":"Vaud"},"status":"Real"},{"key":"10176312","name":"Chemin de Longet","postalCode":"1031","locality":"Mex VD","commune":{"key":"5489","name":"Mex (VD)","shortName":"Mex (VD)"},"district":{"key":"2223","name":"District du Gros-de-Vaud"},"canton":{"key":"22","code":"VD","name":"Vaud"},"status":"Real"},{"key":"10095983","name":"Chemin de Lugny-lès-Charolles","postalCode":"1031","locality":"Mex VD","commune":{"key":"5489","name":"Mex (VD)","shortName":"Mex (VD)"},"district":{"key":"2223","name":"District du Gros-de-Vaud"},"canton":{"key":"22","code":"VD","name":"Vaud"},"status":"Real"},{"key":"10116013","name":"Chemin de Mont-Riond","postalCode":"1031","locality":"Mex VD","commune":{"key":"5489","name":"Mex (VD)","shortName":"Mex (VD)"},"district":{"key":"2223","name":"District du Gros-de-Vaud"},"canton":{"key":"22","code":"VD","name":"Vaud"},"status":"Real"},{"key":"10079607","name":"Chemin de Praz-Voué","postalCode":"1031","locality":"Mex VD","commune":{"key":"5489","name":"Mex (VD)","shortName":"Mex (VD)"},"district":{"key":"2223","name":"District du Gros-de-Vaud"},"canton":{"key":"22","code":"VD","name":"Vaud"},"status":"Real"},{"key":"10095984","name":"Chemin de Rosset","postalCode":"1031","locality":"Mex VD","commune":{"key":"5489","name":"Mex (VD)","shortName":"Mex (VD)"},"district":{"key":"2223","name":"District du Gros-de-Vaud"},"canton":{"key":"22","code":"VD","name":"Vaud"},"status":"Real"},{"key":"10034158","name":"Chemin des Ecureuils","postalCode":"1031","locality":"Mex VD","commune":{"key":"5489","name":"Mex (VD)","shortName":"Mex (VD)"},"district":{"key":"2223","name":"District du Gros-de-Vaud"},"canton":{"key":"22","code":"VD","name":"Vaud"},"status":"Real"},{"key":"10079608","name":"Chemin des Etourneaux","postalCode":"1031","locality":"Mex VD","commune":{"key":"5489","name":"Mex (VD)","shortName":"Mex (VD)"},"district":{"key":"2223","name":"District du Gros-de-Vaud"},"canton":{"key":"22","code":"VD","name":"Vaud"},"status":"Real"},{"key":"10034159","name":"Chemin des Mémises","postalCode":"1031","locality":"Mex VD","commune":{"key":"5489","name":"Mex (VD)","shortName":"Mex (VD)"},"district":{"key":"2223","name":"District du Gros-de-Vaud"},"canton":{"key":"22","code":"VD","name":"Vaud"},"status":"Real"},{"key":"10034156","name":"Chemin de Sous-Valeyres","postalCode":"1031","locality":"Mex VD","commune":{"key":"5489","name":"Mex (VD)","shortName":"Mex (VD)"},"district":{"key":"2223","name":"District du Gros-de-Vaud"},"canton":{"key":"22","code":"VD","name":"Vaud"},"status":"Real"},{"key":"10095985","name":"Chemin des Rottes","postalCode":"1031","locality":"Mex VD","commune":{"key":"5489","name":"Mex (VD)","shortName":"Mex (VD)"},"district":{"key":"2223","name":"District du Gros-de-Vaud"},"canton":{"key":"22","code":"VD","name":"Vaud"},"status":"Real"},{"key":"10106912","name":"Chemin des Vaux","postalCode":"1031","locality":"Mex VD","commune":{"key":"5489","name":"Mex (VD)","shortName":"Mex (VD)"},"district":{"key":"2223","name":"District du Gros-de-Vaud"},"canton":{"key":"22","code":"VD","name":"Vaud"},"status":"Real"},{"key":"10034160","name":"Chemin du Dernier Mur","postalCode":"1031","locality":"Mex VD","commune":{"key":"5489","name":"Mex (VD)","shortName":"Mex (VD)"},"district":{"key":"2223","name":"District du Gros-de-Vaud"},"canton":{"key":"22","code":"VD","name":"Vaud"},"status":"Real"},{"key":"10095986","name":"Chemin du Gottaux","postalCode":"1031","locality":"Mex VD","commune":{"key":"5489","name":"Mex (VD)","shortName":"Mex (VD)"},"district":{"key":"2223","name":"District du Gros-de-Vaud"},"canton":{"key":"22","code":"VD","name":"Vaud"},"status":"Real"},{"key":"10034161","name":"Chemin du Léman","postalCode":"1031","locality":"Mex VD","commune":{"key":"5489","name":"Mex (VD)","shortName":"Mex (VD)"},"district":{"key":"2223","name":"District du Gros-de-Vaud"},"canton":{"key":"22","code":"VD","name":"Vaud"},"status":"Real"},{"key":"10097561","name":"Chemin du Marais","postalCode":"1031","locality":"Mex VD","commune":{"key":"5489","name":"Mex (VD)","shortName":"Mex (VD)"},"district":{"key":"2223","name":"District du Gros-de-Vaud"},"canton":{"key":"22","code":"VD","name":"Vaud"},"status":"Real"},{"key":"10116200","name":"Chemin du Prillet","postalCode":"1031","locality":"Mex VD","commune":{"key":"5489","name":"Mex (VD)","shortName":"Mex (VD)"},"district":{"key":"2223","name":"District du Gros-de-Vaud"},"canton":{"key":"22","code":"VD","name":"Vaud"},"status":"Real"},{"key":"10034162","name":"Chemin du Rionzi","postalCode":"1031","locality":"Mex VD","commune":{"key":"5489","name":"Mex (VD)","shortName":"Mex (VD)"},"district":{"key":"2223","name":"District du Gros-de-Vaud"},"canton":{"key":"22","code":"VD","name":"Vaud"},"status":"Real"},{"key":"10176313","name":"Chemin du Trésy","postalCode":"1031","locality":"Mex VD","commune":{"key":"5489","name":"Mex (VD)","shortName":"Mex (VD)"},"district":{"key":"2223","name":"District du Gros-de-Vaud"},"canton":{"key":"22","code":"VD","name":"Vaud"},"status":"Real"},{"key":"10190408","name":"Route de Cossonay","postalCode":"1031","locality":"Mex VD","commune":{"key":"5489","name":"Mex (VD)","shortName":"Mex (VD)"},"district":{"key":"2223","name":"District du Gros-de-Vaud"},"canton":{"key":"22","code":"VD","name":"Vaud"},"status":"Real"},{"key":"10059139","name":"Route de Faraz","postalCode":"1031","locality":"Mex VD","commune":{"key":"5489","name":"Mex (VD)","shortName":"Mex (VD)"},"district":{"key":"2223","name":"District du Gros-de-Vaud"},"canton":{"key":"22","code":"VD","name":"Vaud"},"status":"Real"},{"key":"10151555","name":"Route de Faraz","postalCode":"1031","locality":"Mex VD","commune":{"key":"5489","name":"Mex (VD)","shortName":"Mex (VD)"},"district":{"key":"2223","name":"District du Gros-de-Vaud"},"canton":{"key":"22","code":"VD","name":"Vaud"},"status":"Real"},{"key":"10034163","name":"Route des Esserts","postalCode":"1031","locality":"Mex VD","commune":{"key":"5489","name":"Mex (VD)","shortName":"Mex (VD)"},"district":{"key":"2223","name":"District du Gros-de-Vaud"},"canton":{"key":"22","code":"VD","name":"Vaud"},"status":"Real"},{"key":"10034164","name":"Rue du Collège","postalCode":"1031","locality":"Mex VD","commune":{"key":"5489","name":"Mex (VD)","shortName":"Mex (VD)"},"district":{"key":"2223","name":"District du Gros-de-Vaud"},"canton":{"key":"22","code":"VD","name":"Vaud"},"status":"Real"},{"key":"10034165","name":"Rue du Prieuré","postalCode":"1031","locality":"Mex VD","commune":{"key":"5489","name":"Mex (VD)","shortName":"Mex (VD)"},"district":{"key":"2223","name":"District du Gros-de-Vaud"},"canton":{"key":"22","code":"VD","name":"Vaud"},"status":"Real"},{"key":"10096245","name":"Rue du Temple","postalCode":"1031","locality":"Mex VD","commune":{"key":"5489","name":"Mex (VD)","shortName":"Mex (VD)"},"district":{"key":"2223","name":"District du Gros-de-Vaud"},"canton":{"key":"22","code":"VD","name":"Vaud"},"status":"Real"},{"key":"10034166","name":"Ruelle de l'Eglise","postalCode":"1031","locality":"Mex VD","commune":{"key":"5489","name":"Mex (VD)","shortName":"Mex (VD)"},"district":{"key":"2223","name":"District du Gros-de-Vaud"},"canton":{"key":"22","code":"VD","name":"Vaud"},"status":"Real"},]