[{"name":"Altmühlstr.","postalCode":"86703","locality":"Rögling","municipality":{"key":"09779206","name":"Rögling","type":"Kreisangehörige_Gemeinde"},"district":{"key":"09779","name":"Donau-Ries","type":"Landkreis"},"federalState":{"key":"09","name":"Bayern"}},{"name":"Am Berg","postalCode":"86703","locality":"Rögling","municipality":{"key":"09779206","name":"Rögling","type":"Kreisangehörige_Gemeinde"},"district":{"key":"09779","name":"Donau-Ries","type":"Landkreis"},"federalState":{"key":"09","name":"Bayern"}},{"name":"Am Bühl","postalCode":"86703","locality":"Rögling","municipality":{"key":"09779206","name":"Rögling","type":"Kreisangehörige_Gemeinde"},"district":{"key":"09779","name":"Donau-Ries","type":"Landkreis"},"federalState":{"key":"09","name":"Bayern"}},{"name":"Am Höller","postalCode":"86703","locality":"Rögling","municipality":{"key":"09779206","name":"Rögling","type":"Kreisangehörige_Gemeinde"},"district":{"key":"09779","name":"Donau-Ries","type":"Landkreis"},"federalState":{"key":"09","name":"Bayern"}},{"name":"Badgasse","postalCode":"86703","locality":"Rögling","municipality":{"key":"09779206","name":"Rögling","type":"Kreisangehörige_Gemeinde"},"district":{"key":"09779","name":"Donau-Ries","type":"Landkreis"},"federalState":{"key":"09","name":"Bayern"}},{"name":"Bgm.-Böswald-Str.","postalCode":"86703","locality":"Rögling","municipality":{"key":"09779206","name":"Rögling","type":"Kreisangehörige_Gemeinde"},"district":{"key":"09779","name":"Donau-Ries","type":"Landkreis"},"federalState":{"key":"09","name":"Bayern"}},{"name":"Birkenstr.","postalCode":"86703","locality":"Rögling","municipality":{"key":"09779206","name":"Rögling","type":"Kreisangehörige_Gemeinde"},"district":{"key":"09779","name":"Donau-Ries","type":"Landkreis"},"federalState":{"key":"09","name":"Bayern"}},{"name":"Blumenstr.","postalCode":"86703","locality":"Rögling","municipality":{"key":"09779206","name":"Rögling","type":"Kreisangehörige_Gemeinde"},"district":{"key":"09779","name":"Donau-Ries","type":"Landkreis"},"federalState":{"key":"09","name":"Bayern"}},{"name":"Bürgermeister-Templer-Ring","postalCode":"86703","locality":"Rögling","municipality":{"key":"09779206","name":"Rögling","type":"Kreisangehörige_Gemeinde"},"district":{"key":"09779","name":"Donau-Ries","type":"Landkreis"},"federalState":{"key":"09","name":"Bayern"}},{"name":"Gartenstr.","postalCode":"86703","locality":"Rögling","municipality":{"key":"09779206","name":"Rögling","type":"Kreisangehörige_Gemeinde"},"district":{"key":"09779","name":"Donau-Ries","type":"Landkreis"},"federalState":{"key":"09","name":"Bayern"}},{"name":"Kapellenstr.","postalCode":"86703","locality":"Rögling","municipality":{"key":"09779206","name":"Rögling","type":"Kreisangehörige_Gemeinde"},"district":{"key":"09779","name":"Donau-Ries","type":"Landkreis"},"federalState":{"key":"09","name":"Bayern"}},{"name":"Kirchplatz","postalCode":"86703","locality":"Rögling","municipality":{"key":"09779206","name":"Rögling","type":"Kreisangehörige_Gemeinde"},"district":{"key":"09779","name":"Donau-Ries","type":"Landkreis"},"federalState":{"key":"09","name":"Bayern"}},{"name":"Nadlerstr.","postalCode":"86703","locality":"Rögling","municipality":{"key":"09779206","name":"Rögling","type":"Kreisangehörige_Gemeinde"},"district":{"key":"09779","name":"Donau-Ries","type":"Landkreis"},"federalState":{"key":"09","name":"Bayern"}},{"name":"Perlenspitzstr.","postalCode":"86703","locality":"Rögling","municipality":{"key":"09779206","name":"Rögling","type":"Kreisangehörige_Gemeinde"},"district":{"key":"09779","name":"Donau-Ries","type":"Landkreis"},"federalState":{"key":"09","name":"Bayern"}},{"name":"Ringstr.","postalCode":"86703","locality":"Rögling","municipality":{"key":"09779206","name":"Rögling","type":"Kreisangehörige_Gemeinde"},"district":{"key":"09779","name":"Donau-Ries","type":"Landkreis"},"federalState":{"key":"09","name":"Bayern"}},{"name":"Römerstr.","postalCode":"86703","locality":"Rögling","municipality":{"key":"09779206","name":"Rögling","type":"Kreisangehörige_Gemeinde"},"district":{"key":"09779","name":"Donau-Ries","type":"Landkreis"},"federalState":{"key":"09","name":"Bayern"}},{"name":"Webergasse","postalCode":"86703","locality":"Rögling","municipality":{"key":"09779206","name":"Rögling","type":"Kreisangehörige_Gemeinde"},"district":{"key":"09779","name":"Donau-Ries","type":"Landkreis"},"federalState":{"key":"09","name":"Bayern"}},{"name":"Westenstr.","postalCode":"86703","locality":"Rögling","municipality":{"key":"09779206","name":"Rögling","type":"Kreisangehörige_Gemeinde"},"district":{"key":"09779","name":"Donau-Ries","type":"Landkreis"},"federalState":{"key":"09","name":"Bayern"}},{"name":"Wiesenstr.","postalCode":"86703","locality":"Rögling","municipality":{"key":"09779206","name":"Rögling","type":"Kreisangehörige_Gemeinde"},"district":{"key":"09779","name":"Donau-Ries","type":"Landkreis"},"federalState":{"key":"09","name":"Bayern"}},{"name":"Wittesheimer Str.","postalCode":"86703","locality":"Rögling","municipality":{"key":"09779206","name":"Rögling","type":"Kreisangehörige_Gemeinde"},"district":{"key":"09779","name":"Donau-Ries","type":"Landkreis"},"federalState":{"key":"09","name":"Bayern"}},]