[{"key":"10165055","name":"Ancienne Route","postalCode":"1313","locality":"Ferreyres","commune":{"key":"5483","name":"Ferreyres","shortName":"Ferreyres"},"district":{"key":"2227","name":"District de Morges"},"canton":{"key":"22","code":"VD","name":"Vaud"},"status":"Real"},{"key":"10165056","name":"Chemin de la Voualève","postalCode":"1313","locality":"Ferreyres","commune":{"key":"5483","name":"Ferreyres","shortName":"Ferreyres"},"district":{"key":"2227","name":"District de Morges"},"canton":{"key":"22","code":"VD","name":"Vaud"},"status":"Real"},{"key":"10034134","name":"Chemin de l'Haut des Champs","postalCode":"1313","locality":"Ferreyres","commune":{"key":"5483","name":"Ferreyres","shortName":"Ferreyres"},"district":{"key":"2227","name":"District de Morges"},"canton":{"key":"22","code":"VD","name":"Vaud"},"status":"Real"},{"key":"10159868","name":"Chemin des Amoureux","postalCode":"1313","locality":"Ferreyres","commune":{"key":"5483","name":"Ferreyres","shortName":"Ferreyres"},"district":{"key":"2227","name":"District de Morges"},"canton":{"key":"22","code":"VD","name":"Vaud"},"status":"Real"},{"key":"10159869","name":"Chemin des Coteaux","postalCode":"1313","locality":"Ferreyres","commune":{"key":"5483","name":"Ferreyres","shortName":"Ferreyres"},"district":{"key":"2227","name":"District de Morges"},"canton":{"key":"22","code":"VD","name":"Vaud"},"status":"Real"},{"key":"10079595","name":"Chemin des Eterpis","postalCode":"1313","locality":"Ferreyres","commune":{"key":"5483","name":"Ferreyres","shortName":"Ferreyres"},"district":{"key":"2227","name":"District de Morges"},"canton":{"key":"22","code":"VD","name":"Vaud"},"status":"Real"},{"key":"10126861","name":"Chemin des Petits-Lacs","postalCode":"1313","locality":"Ferreyres","commune":{"key":"5483","name":"Ferreyres","shortName":"Ferreyres"},"district":{"key":"2227","name":"District de Morges"},"canton":{"key":"22","code":"VD","name":"Vaud"},"status":"Real"},{"key":"10165057","name":"Chemin des Rippes","postalCode":"1313","locality":"Ferreyres","commune":{"key":"5483","name":"Ferreyres","shortName":"Ferreyres"},"district":{"key":"2227","name":"District de Morges"},"canton":{"key":"22","code":"VD","name":"Vaud"},"status":"Real"},{"key":"10034133","name":"En Etraz","postalCode":"1313","locality":"Ferreyres","commune":{"key":"5483","name":"Ferreyres","shortName":"Ferreyres"},"district":{"key":"2227","name":"District de Morges"},"canton":{"key":"22","code":"VD","name":"Vaud"},"status":"Real"},{"key":"10122829","name":"Hameau de la Bruyère","postalCode":"1313","locality":"Ferreyres","commune":{"key":"5483","name":"Ferreyres","shortName":"Ferreyres"},"district":{"key":"2227","name":"District de Morges"},"canton":{"key":"22","code":"VD","name":"Vaud"},"status":"Real"},{"key":"10034132","name":"Hameau du Creux aux Loups","postalCode":"1313","locality":"Ferreyres","commune":{"key":"5483","name":"Ferreyres","shortName":"Ferreyres"},"district":{"key":"2227","name":"District de Morges"},"canton":{"key":"22","code":"VD","name":"Vaud"},"status":"Real"},{"key":"10034135","name":"Route de la Bruyère","postalCode":"1313","locality":"Ferreyres","commune":{"key":"5483","name":"Ferreyres","shortName":"Ferreyres"},"district":{"key":"2227","name":"District de Morges"},"canton":{"key":"22","code":"VD","name":"Vaud"},"status":"Real"},{"key":"10164443","name":"Route de l'Ancienne Poste","postalCode":"1313","locality":"Ferreyres","commune":{"key":"5483","name":"Ferreyres","shortName":"Ferreyres"},"district":{"key":"2227","name":"District de Morges"},"canton":{"key":"22","code":"VD","name":"Vaud"},"status":"Real"},{"key":"10167875","name":"Route de la Sarraz","postalCode":"1313","locality":"Ferreyres","commune":{"key":"5483","name":"Ferreyres","shortName":"Ferreyres"},"district":{"key":"2227","name":"District de Morges"},"canton":{"key":"22","code":"VD","name":"Vaud"},"status":"Real"},{"key":"10034136","name":"Route de la Tine","postalCode":"1313","locality":"Ferreyres","commune":{"key":"5483","name":"Ferreyres","shortName":"Ferreyres"},"district":{"key":"2227","name":"District de Morges"},"canton":{"key":"22","code":"VD","name":"Vaud"},"status":"Real"},{"key":"10095972","name":"Route de la Venoge","postalCode":"1313","locality":"Ferreyres","commune":{"key":"5483","name":"Ferreyres","shortName":"Ferreyres"},"district":{"key":"2227","name":"District de Morges"},"canton":{"key":"22","code":"VD","name":"Vaud"},"status":"Real"},{"key":"10079596","name":"Route de Moiry","postalCode":"1313","locality":"Ferreyres","commune":{"key":"5483","name":"Ferreyres","shortName":"Ferreyres"},"district":{"key":"2227","name":"District de Morges"},"canton":{"key":"22","code":"VD","name":"Vaud"},"status":"Real"},{"key":"10095973","name":"Route des Bois","postalCode":"1313","locality":"Ferreyres","commune":{"key":"5483","name":"Ferreyres","shortName":"Ferreyres"},"district":{"key":"2227","name":"District de Morges"},"canton":{"key":"22","code":"VD","name":"Vaud"},"status":"Real"},{"key":"10159866","name":"Rue des Fontaines","postalCode":"1313","locality":"Ferreyres","commune":{"key":"5483","name":"Ferreyres","shortName":"Ferreyres"},"district":{"key":"2227","name":"District de Morges"},"canton":{"key":"22","code":"VD","name":"Vaud"},"status":"Real"},{"key":"10159867","name":"Ruelle Cugny","postalCode":"1313","locality":"Ferreyres","commune":{"key":"5483","name":"Ferreyres","shortName":"Ferreyres"},"district":{"key":"2227","name":"District de Morges"},"canton":{"key":"22","code":"VD","name":"Vaud"},"status":"Real"},]