[{"name":"Adelheidstr.","postalCode":"74592","locality":"Kirchberg an der Jagst","municipality":{"key":"08127046","name":"Kirchberg an der Jagst, Stadt","type":"Stadt"},"district":{"key":"08127","name":"Schwäbisch Hall","type":"Landkreis"},"federalState":{"key":"08","name":"Baden-Württemberg"}},{"name":"Ahornstr.","postalCode":"74592","locality":"Kirchberg an der Jagst","municipality":{"key":"08127046","name":"Kirchberg an der Jagst, Stadt","type":"Stadt"},"district":{"key":"08127","name":"Schwäbisch Hall","type":"Landkreis"},"federalState":{"key":"08","name":"Baden-Württemberg"}},{"name":"Akazienweg","postalCode":"74592","locality":"Kirchberg an der Jagst","municipality":{"key":"08127046","name":"Kirchberg an der Jagst, Stadt","type":"Stadt"},"district":{"key":"08127","name":"Schwäbisch Hall","type":"Landkreis"},"federalState":{"key":"08","name":"Baden-Württemberg"}},{"name":"Alter Schmiedberg","postalCode":"74592","locality":"Kirchberg an der Jagst","municipality":{"key":"08127046","name":"Kirchberg an der Jagst, Stadt","type":"Stadt"},"district":{"key":"08127","name":"Schwäbisch Hall","type":"Landkreis"},"federalState":{"key":"08","name":"Baden-Württemberg"}},{"name":"Alte Steige","postalCode":"74592","locality":"Kirchberg an der Jagst","municipality":{"key":"08127046","name":"Kirchberg an der Jagst, Stadt","type":"Stadt"},"district":{"key":"08127","name":"Schwäbisch Hall","type":"Landkreis"},"federalState":{"key":"08","name":"Baden-Württemberg"}},{"name":"Alte Str.","postalCode":"74592","locality":"Kirchberg an der Jagst","municipality":{"key":"08127046","name":"Kirchberg an der Jagst, Stadt","type":"Stadt"},"district":{"key":"08127","name":"Schwäbisch Hall","type":"Landkreis"},"federalState":{"key":"08","name":"Baden-Württemberg"}},{"name":"Am Burgberg","postalCode":"74592","locality":"Kirchberg an der Jagst","municipality":{"key":"08127046","name":"Kirchberg an der Jagst, Stadt","type":"Stadt"},"district":{"key":"08127","name":"Schwäbisch Hall","type":"Landkreis"},"federalState":{"key":"08","name":"Baden-Württemberg"}},{"name":"Am Feuersee","postalCode":"74592","locality":"Kirchberg an der Jagst","municipality":{"key":"08127046","name":"Kirchberg an der Jagst, Stadt","type":"Stadt"},"district":{"key":"08127","name":"Schwäbisch Hall","type":"Landkreis"},"federalState":{"key":"08","name":"Baden-Württemberg"}},{"name":"Am Herberg","postalCode":"74592","locality":"Kirchberg an der Jagst","municipality":{"key":"08127046","name":"Kirchberg an der Jagst, Stadt","type":"Stadt"},"district":{"key":"08127","name":"Schwäbisch Hall","type":"Landkreis"},"federalState":{"key":"08","name":"Baden-Württemberg"}},{"name":"Am Hirtenbuck","postalCode":"74592","locality":"Kirchberg an der Jagst","municipality":{"key":"08127046","name":"Kirchberg an der Jagst, Stadt","type":"Stadt"},"district":{"key":"08127","name":"Schwäbisch Hall","type":"Landkreis"},"federalState":{"key":"08","name":"Baden-Württemberg"}},{"name":"Am Sandbuck","postalCode":"74592","locality":"Kirchberg an der Jagst","municipality":{"key":"08127046","name":"Kirchberg an der Jagst, Stadt","type":"Stadt"},"district":{"key":"08127","name":"Schwäbisch Hall","type":"Landkreis"},"federalState":{"key":"08","name":"Baden-Württemberg"}},{"name":"Am Weckelweiler Weg","postalCode":"74592","locality":"Kirchberg an der Jagst","municipality":{"key":"08127046","name":"Kirchberg an der Jagst, Stadt","type":"Stadt"},"district":{"key":"08127","name":"Schwäbisch Hall","type":"Landkreis"},"federalState":{"key":"08","name":"Baden-Württemberg"}},{"name":"An der Lohmühle","postalCode":"74592","locality":"Kirchberg an der Jagst","municipality":{"key":"08127046","name":"Kirchberg an der Jagst, Stadt","type":"Stadt"},"district":{"key":"08127","name":"Schwäbisch Hall","type":"Landkreis"},"federalState":{"key":"08","name":"Baden-Württemberg"}},{"name":"Baron-Kurt-Str.","postalCode":"74592","locality":"Kirchberg an der Jagst","municipality":{"key":"08127046","name":"Kirchberg an der Jagst, Stadt","type":"Stadt"},"district":{"key":"08127","name":"Schwäbisch Hall","type":"Landkreis"},"federalState":{"key":"08","name":"Baden-Württemberg"}},{"name":"Bauernschlag","postalCode":"74592","locality":"Kirchberg an der Jagst","municipality":{"key":"08127046","name":"Kirchberg an der Jagst, Stadt","type":"Stadt"},"district":{"key":"08127","name":"Schwäbisch Hall","type":"Landkreis"},"federalState":{"key":"08","name":"Baden-Württemberg"}},{"name":"Bei den Kellerhäusern","postalCode":"74592","locality":"Kirchberg an der Jagst","municipality":{"key":"08127046","name":"Kirchberg an der Jagst, Stadt","type":"Stadt"},"district":{"key":"08127","name":"Schwäbisch Hall","type":"Landkreis"},"federalState":{"key":"08","name":"Baden-Württemberg"}},{"name":"Birkenstr.","postalCode":"74592","locality":"Kirchberg an der Jagst","municipality":{"key":"08127046","name":"Kirchberg an der Jagst, Stadt","type":"Stadt"},"district":{"key":"08127","name":"Schwäbisch Hall","type":"Landkreis"},"federalState":{"key":"08","name":"Baden-Württemberg"}},{"name":"Blumenstr.","postalCode":"74592","locality":"Kirchberg an der Jagst","municipality":{"key":"08127046","name":"Kirchberg an der Jagst, Stadt","type":"Stadt"},"district":{"key":"08127","name":"Schwäbisch Hall","type":"Landkreis"},"federalState":{"key":"08","name":"Baden-Württemberg"}},{"name":"Brunnenstr.","postalCode":"74592","locality":"Kirchberg an der Jagst","municipality":{"key":"08127046","name":"Kirchberg an der Jagst, Stadt","type":"Stadt"},"district":{"key":"08127","name":"Schwäbisch Hall","type":"Landkreis"},"federalState":{"key":"08","name":"Baden-Württemberg"}},{"name":"Buchenstr.","postalCode":"74592","locality":"Kirchberg an der Jagst","municipality":{"key":"08127046","name":"Kirchberg an der Jagst, Stadt","type":"Stadt"},"district":{"key":"08127","name":"Schwäbisch Hall","type":"Landkreis"},"federalState":{"key":"08","name":"Baden-Württemberg"}},{"name":"Burgweg","postalCode":"74592","locality":"Kirchberg an der Jagst","municipality":{"key":"08127046","name":"Kirchberg an der Jagst, Stadt","type":"Stadt"},"district":{"key":"08127","name":"Schwäbisch Hall","type":"Landkreis"},"federalState":{"key":"08","name":"Baden-Württemberg"}},{"name":"Charlottenhöhe","postalCode":"74592","locality":"Kirchberg an der Jagst","municipality":{"key":"08127046","name":"Kirchberg an der Jagst, Stadt","type":"Stadt"},"district":{"key":"08127","name":"Schwäbisch Hall","type":"Landkreis"},"federalState":{"key":"08","name":"Baden-Württemberg"}},{"name":"Crailsheimer Str.","postalCode":"74592","locality":"Kirchberg an der Jagst","municipality":{"key":"08127046","name":"Kirchberg an der Jagst, Stadt","type":"Stadt"},"district":{"key":"08127","name":"Schwäbisch Hall","type":"Landkreis"},"federalState":{"key":"08","name":"Baden-Württemberg"}},{"name":"Damaschkestr.","postalCode":"74523","locality":"Schwäbisch Hall","municipality":{"key":"08127076","name":"Schwäbisch Hall, Stadt","type":"Große_Kreisstadt"},"district":{"key":"08127","name":"Schwäbisch Hall","type":"Landkreis"},"federalState":{"key":"08","name":"Baden-Württemberg"}},{"name":"Dammstr.","postalCode":"74523","locality":"Schwäbisch Hall","municipality":{"key":"08127076","name":"Schwäbisch Hall, Stadt","type":"Große_Kreisstadt"},"district":{"key":"08127","name":"Schwäbisch Hall","type":"Landkreis"},"federalState":{"key":"08","name":"Baden-Württemberg"}},{"name":"Danziger Weg","postalCode":"74523","locality":"Schwäbisch Hall","municipality":{"key":"08127076","name":"Schwäbisch Hall, Stadt","type":"Große_Kreisstadt"},"district":{"key":"08127","name":"Schwäbisch Hall","type":"Landkreis"},"federalState":{"key":"08","name":"Baden-Württemberg"}},{"name":"Diebachweg","postalCode":"74523","locality":"Schwäbisch Hall","municipality":{"key":"08127076","name":"Schwäbisch Hall, Stadt","type":"Große_Kreisstadt"},"district":{"key":"08127","name":"Schwäbisch Hall","type":"Landkreis"},"federalState":{"key":"08","name":"Baden-Württemberg"}},{"name":"Dinkelweg","postalCode":"74523","locality":"Schwäbisch Hall","municipality":{"key":"08127076","name":"Schwäbisch Hall, Stadt","type":"Große_Kreisstadt"},"district":{"key":"08127","name":"Schwäbisch Hall","type":"Landkreis"},"federalState":{"key":"08","name":"Baden-Württemberg"}},{"name":"Doktor-Wilhem-Dürr-Weg","postalCode":"74523","locality":"Schwäbisch Hall","municipality":{"key":"08127076","name":"Schwäbisch Hall, Stadt","type":"Große_Kreisstadt"},"district":{"key":"08127","name":"Schwäbisch Hall","type":"Landkreis"},"federalState":{"key":"08","name":"Baden-Württemberg"}},{"name":"Dolanallee","postalCode":"74523","locality":"Schwäbisch Hall","municipality":{"key":"08127076","name":"Schwäbisch Hall, Stadt","type":"Große_Kreisstadt"},"district":{"key":"08127","name":"Schwäbisch Hall","type":"Landkreis"},"federalState":{"key":"08","name":"Baden-Württemberg"}},{"name":"Dorfstr.","postalCode":"74523","locality":"Schwäbisch Hall","municipality":{"key":"08127076","name":"Schwäbisch Hall, Stadt","type":"Große_Kreisstadt"},"district":{"key":"08127","name":"Schwäbisch Hall","type":"Landkreis"},"federalState":{"key":"08","name":"Baden-Württemberg"}},{"name":"Dr.-Henryk-Fenigstein-Weg","postalCode":"74523","locality":"Schwäbisch Hall","municipality":{"key":"08127076","name":"Schwäbisch Hall, Stadt","type":"Große_Kreisstadt"},"district":{"key":"08127","name":"Schwäbisch Hall","type":"Landkreis"},"federalState":{"key":"08","name":"Baden-Württemberg"}},{"name":"Dr.-Hermann-Müller-Str.","postalCode":"74523","locality":"Schwäbisch Hall","municipality":{"key":"08127076","name":"Schwäbisch Hall, Stadt","type":"Große_Kreisstadt"},"district":{"key":"08127","name":"Schwäbisch Hall","type":"Landkreis"},"federalState":{"key":"08","name":"Baden-Württemberg"}},{"name":"Dr.-Jakob-Berlinger-Weg","postalCode":"74523","locality":"Schwäbisch Hall","municipality":{"key":"08127076","name":"Schwäbisch Hall, Stadt","type":"Große_Kreisstadt"},"district":{"key":"08127","name":"Schwäbisch Hall","type":"Landkreis"},"federalState":{"key":"08","name":"Baden-Württemberg"}},{"name":"Dr.-Max-Bühler-Str.","postalCode":"74523","locality":"Schwäbisch Hall","municipality":{"key":"08127076","name":"Schwäbisch Hall, Stadt","type":"Große_Kreisstadt"},"district":{"key":"08127","name":"Schwäbisch Hall","type":"Landkreis"},"federalState":{"key":"08","name":"Baden-Württemberg"}},{"name":"Eckweg","postalCode":"74592","locality":"Kirchberg an der Jagst","municipality":{"key":"08127046","name":"Kirchberg an der Jagst, Stadt","type":"Stadt"},"district":{"key":"08127","name":"Schwäbisch Hall","type":"Landkreis"},"federalState":{"key":"08","name":"Baden-Württemberg"}},{"name":"Eichenauer Str.","postalCode":"74592","locality":"Kirchberg an der Jagst","municipality":{"key":"08127046","name":"Kirchberg an der Jagst, Stadt","type":"Stadt"},"district":{"key":"08127","name":"Schwäbisch Hall","type":"Landkreis"},"federalState":{"key":"08","name":"Baden-Württemberg"}},{"name":"Eichenweg","postalCode":"74592","locality":"Kirchberg an der Jagst","municipality":{"key":"08127046","name":"Kirchberg an der Jagst, Stadt","type":"Stadt"},"district":{"key":"08127","name":"Schwäbisch Hall","type":"Landkreis"},"federalState":{"key":"08","name":"Baden-Württemberg"}},{"name":"Erlenweg","postalCode":"74592","locality":"Kirchberg an der Jagst","municipality":{"key":"08127046","name":"Kirchberg an der Jagst, Stadt","type":"Stadt"},"district":{"key":"08127","name":"Schwäbisch Hall","type":"Landkreis"},"federalState":{"key":"08","name":"Baden-Württemberg"}},{"name":"Esbachweg","postalCode":"74592","locality":"Kirchberg an der Jagst","municipality":{"key":"08127046","name":"Kirchberg an der Jagst, Stadt","type":"Stadt"},"district":{"key":"08127","name":"Schwäbisch Hall","type":"Landkreis"},"federalState":{"key":"08","name":"Baden-Württemberg"}},{"name":"Eschenstr.","postalCode":"74592","locality":"Kirchberg an der Jagst","municipality":{"key":"08127046","name":"Kirchberg an der Jagst, Stadt","type":"Stadt"},"district":{"key":"08127","name":"Schwäbisch Hall","type":"Landkreis"},"federalState":{"key":"08","name":"Baden-Württemberg"}},{"name":"Fichtenstr.","postalCode":"74592","locality":"Kirchberg an der Jagst","municipality":{"key":"08127046","name":"Kirchberg an der Jagst, Stadt","type":"Stadt"},"district":{"key":"08127","name":"Schwäbisch Hall","type":"Landkreis"},"federalState":{"key":"08","name":"Baden-Württemberg"}},{"name":"Fliederweg","postalCode":"74592","locality":"Kirchberg an der Jagst","municipality":{"key":"08127046","name":"Kirchberg an der Jagst, Stadt","type":"Stadt"},"district":{"key":"08127","name":"Schwäbisch Hall","type":"Landkreis"},"federalState":{"key":"08","name":"Baden-Württemberg"}},{"name":"Frankenplatz","postalCode":"74592","locality":"Kirchberg an der Jagst","municipality":{"key":"08127046","name":"Kirchberg an der Jagst, Stadt","type":"Stadt"},"district":{"key":"08127","name":"Schwäbisch Hall","type":"Landkreis"},"federalState":{"key":"08","name":"Baden-Württemberg"}},{"name":"Friedhofstr.","postalCode":"74592","locality":"Kirchberg an der Jagst","municipality":{"key":"08127046","name":"Kirchberg an der Jagst, Stadt","type":"Stadt"},"district":{"key":"08127","name":"Schwäbisch Hall","type":"Landkreis"},"federalState":{"key":"08","name":"Baden-Württemberg"}},{"name":"Friedhofweg","postalCode":"74592","locality":"Kirchberg an der Jagst","municipality":{"key":"08127046","name":"Kirchberg an der Jagst, Stadt","type":"Stadt"},"district":{"key":"08127","name":"Schwäbisch Hall","type":"Landkreis"},"federalState":{"key":"08","name":"Baden-Württemberg"}},{"name":"Fritz-Jaeger-Str.","postalCode":"74592","locality":"Kirchberg an der Jagst","municipality":{"key":"08127046","name":"Kirchberg an der Jagst, Stadt","type":"Stadt"},"district":{"key":"08127","name":"Schwäbisch Hall","type":"Landkreis"},"federalState":{"key":"08","name":"Baden-Württemberg"}},{"name":"Gaggstatter Str.","postalCode":"74592","locality":"Kirchberg an der Jagst","municipality":{"key":"08127046","name":"Kirchberg an der Jagst, Stadt","type":"Stadt"},"district":{"key":"08127","name":"Schwäbisch Hall","type":"Landkreis"},"federalState":{"key":"08","name":"Baden-Württemberg"}},{"name":"Gartenweg","postalCode":"74592","locality":"Kirchberg an der Jagst","municipality":{"key":"08127046","name":"Kirchberg an der Jagst, Stadt","type":"Stadt"},"district":{"key":"08127","name":"Schwäbisch Hall","type":"Landkreis"},"federalState":{"key":"08","name":"Baden-Württemberg"}},{"name":"Gerberweg","postalCode":"74592","locality":"Kirchberg an der Jagst","municipality":{"key":"08127046","name":"Kirchberg an der Jagst, Stadt","type":"Stadt"},"district":{"key":"08127","name":"Schwäbisch Hall","type":"Landkreis"},"federalState":{"key":"08","name":"Baden-Württemberg"}},{"name":"Haller Str.","postalCode":"74592","locality":"Kirchberg an der Jagst","municipality":{"key":"08127046","name":"Kirchberg an der Jagst, Stadt","type":"Stadt"},"district":{"key":"08127","name":"Schwäbisch Hall","type":"Landkreis"},"federalState":{"key":"08","name":"Baden-Württemberg"}},{"name":"Hardtstr.","postalCode":"74592","locality":"Kirchberg an der Jagst","municipality":{"key":"08127046","name":"Kirchberg an der Jagst, Stadt","type":"Stadt"},"district":{"key":"08127","name":"Schwäbisch Hall","type":"Landkreis"},"federalState":{"key":"08","name":"Baden-Württemberg"}},{"name":"Hardtweg","postalCode":"74592","locality":"Kirchberg an der Jagst","municipality":{"key":"08127046","name":"Kirchberg an der Jagst, Stadt","type":"Stadt"},"district":{"key":"08127","name":"Schwäbisch Hall","type":"Landkreis"},"federalState":{"key":"08","name":"Baden-Württemberg"}},{"name":"Hauptstr.","postalCode":"74592","locality":"Kirchberg an der Jagst","municipality":{"key":"08127046","name":"Kirchberg an der Jagst, Stadt","type":"Stadt"},"district":{"key":"08127","name":"Schwäbisch Hall","type":"Landkreis"},"federalState":{"key":"08","name":"Baden-Württemberg"}},{"name":"Heimstr.","postalCode":"74592","locality":"Kirchberg an der Jagst","municipality":{"key":"08127046","name":"Kirchberg an der Jagst, Stadt","type":"Stadt"},"district":{"key":"08127","name":"Schwäbisch Hall","type":"Landkreis"},"federalState":{"key":"08","name":"Baden-Württemberg"}},{"name":"Heppachbrücke","postalCode":"74592","locality":"Kirchberg an der Jagst","municipality":{"key":"08127046","name":"Kirchberg an der Jagst, Stadt","type":"Stadt"},"district":{"key":"08127","name":"Schwäbisch Hall","type":"Landkreis"},"federalState":{"key":"08","name":"Baden-Württemberg"}},{"name":"Heppachweg","postalCode":"74592","locality":"Kirchberg an der Jagst","municipality":{"key":"08127046","name":"Kirchberg an der Jagst, Stadt","type":"Stadt"},"district":{"key":"08127","name":"Schwäbisch Hall","type":"Landkreis"},"federalState":{"key":"08","name":"Baden-Württemberg"}},{"name":"Hirtensteige","postalCode":"74592","locality":"Kirchberg an der Jagst","municipality":{"key":"08127046","name":"Kirchberg an der Jagst, Stadt","type":"Stadt"},"district":{"key":"08127","name":"Schwäbisch Hall","type":"Landkreis"},"federalState":{"key":"08","name":"Baden-Württemberg"}},{"name":"Hofäcker","postalCode":"74592","locality":"Kirchberg an der Jagst","municipality":{"key":"08127046","name":"Kirchberg an der Jagst, Stadt","type":"Stadt"},"district":{"key":"08127","name":"Schwäbisch Hall","type":"Landkreis"},"federalState":{"key":"08","name":"Baden-Württemberg"}},{"name":"Hofgarten","postalCode":"74592","locality":"Kirchberg an der Jagst","municipality":{"key":"08127046","name":"Kirchberg an der Jagst, Stadt","type":"Stadt"},"district":{"key":"08127","name":"Schwäbisch Hall","type":"Landkreis"},"federalState":{"key":"08","name":"Baden-Württemberg"}},{"name":"Hofgasse","postalCode":"74592","locality":"Kirchberg an der Jagst","municipality":{"key":"08127046","name":"Kirchberg an der Jagst, Stadt","type":"Stadt"},"district":{"key":"08127","name":"Schwäbisch Hall","type":"Landkreis"},"federalState":{"key":"08","name":"Baden-Württemberg"}},{"name":"Hofweg","postalCode":"74592","locality":"Kirchberg an der Jagst","municipality":{"key":"08127046","name":"Kirchberg an der Jagst, Stadt","type":"Stadt"},"district":{"key":"08127","name":"Schwäbisch Hall","type":"Landkreis"},"federalState":{"key":"08","name":"Baden-Württemberg"}},{"name":"Hohenloher Str.","postalCode":"74592","locality":"Kirchberg an der Jagst","municipality":{"key":"08127046","name":"Kirchberg an der Jagst, Stadt","type":"Stadt"},"district":{"key":"08127","name":"Schwäbisch Hall","type":"Landkreis"},"federalState":{"key":"08","name":"Baden-Württemberg"}},{"name":"Höhenweg","postalCode":"74592","locality":"Kirchberg an der Jagst","municipality":{"key":"08127046","name":"Kirchberg an der Jagst, Stadt","type":"Stadt"},"district":{"key":"08127","name":"Schwäbisch Hall","type":"Landkreis"},"federalState":{"key":"08","name":"Baden-Württemberg"}},{"name":"Hohlgasse","postalCode":"74592","locality":"Kirchberg an der Jagst","municipality":{"key":"08127046","name":"Kirchberg an der Jagst, Stadt","type":"Stadt"},"district":{"key":"08127","name":"Schwäbisch Hall","type":"Landkreis"},"federalState":{"key":"08","name":"Baden-Württemberg"}},{"name":"Im Brühl","postalCode":"74592","locality":"Kirchberg an der Jagst","municipality":{"key":"08127046","name":"Kirchberg an der Jagst, Stadt","type":"Stadt"},"district":{"key":"08127","name":"Schwäbisch Hall","type":"Landkreis"},"federalState":{"key":"08","name":"Baden-Württemberg"}},{"name":"Im Espele","postalCode":"74592","locality":"Kirchberg an der Jagst","municipality":{"key":"08127046","name":"Kirchberg an der Jagst, Stadt","type":"Stadt"},"district":{"key":"08127","name":"Schwäbisch Hall","type":"Landkreis"},"federalState":{"key":"08","name":"Baden-Württemberg"}},{"name":"Im Gässle","postalCode":"74592","locality":"Kirchberg an der Jagst","municipality":{"key":"08127046","name":"Kirchberg an der Jagst, Stadt","type":"Stadt"},"district":{"key":"08127","name":"Schwäbisch Hall","type":"Landkreis"},"federalState":{"key":"08","name":"Baden-Württemberg"}},{"name":"Im Sand","postalCode":"74592","locality":"Kirchberg an der Jagst","municipality":{"key":"08127046","name":"Kirchberg an der Jagst, Stadt","type":"Stadt"},"district":{"key":"08127","name":"Schwäbisch Hall","type":"Landkreis"},"federalState":{"key":"08","name":"Baden-Württemberg"}},{"name":"Im Schmiedberg","postalCode":"74592","locality":"Kirchberg an der Jagst","municipality":{"key":"08127046","name":"Kirchberg an der Jagst, Stadt","type":"Stadt"},"district":{"key":"08127","name":"Schwäbisch Hall","type":"Landkreis"},"federalState":{"key":"08","name":"Baden-Württemberg"}},{"name":"Im Seefeld","postalCode":"74592","locality":"Kirchberg an der Jagst","municipality":{"key":"08127046","name":"Kirchberg an der Jagst, Stadt","type":"Stadt"},"district":{"key":"08127","name":"Schwäbisch Hall","type":"Landkreis"},"federalState":{"key":"08","name":"Baden-Württemberg"}},{"name":"Im Stück","postalCode":"74592","locality":"Kirchberg an der Jagst","municipality":{"key":"08127046","name":"Kirchberg an der Jagst, Stadt","type":"Stadt"},"district":{"key":"08127","name":"Schwäbisch Hall","type":"Landkreis"},"federalState":{"key":"08","name":"Baden-Württemberg"}},{"name":"In den Dorfwiesen","postalCode":"74592","locality":"Kirchberg an der Jagst","municipality":{"key":"08127046","name":"Kirchberg an der Jagst, Stadt","type":"Stadt"},"district":{"key":"08127","name":"Schwäbisch Hall","type":"Landkreis"},"federalState":{"key":"08","name":"Baden-Württemberg"}},{"name":"In den Kreidenäckern","postalCode":"74592","locality":"Kirchberg an der Jagst","municipality":{"key":"08127046","name":"Kirchberg an der Jagst, Stadt","type":"Stadt"},"district":{"key":"08127","name":"Schwäbisch Hall","type":"Landkreis"},"federalState":{"key":"08","name":"Baden-Württemberg"}},{"name":"In den Märzenwiesen","postalCode":"74592","locality":"Kirchberg an der Jagst","municipality":{"key":"08127046","name":"Kirchberg an der Jagst, Stadt","type":"Stadt"},"district":{"key":"08127","name":"Schwäbisch Hall","type":"Landkreis"},"federalState":{"key":"08","name":"Baden-Württemberg"}},{"name":"In der Halde","postalCode":"74592","locality":"Kirchberg an der Jagst","municipality":{"key":"08127046","name":"Kirchberg an der Jagst, Stadt","type":"Stadt"},"district":{"key":"08127","name":"Schwäbisch Hall","type":"Landkreis"},"federalState":{"key":"08","name":"Baden-Württemberg"}},{"name":"In der Mühlau","postalCode":"74592","locality":"Kirchberg an der Jagst","municipality":{"key":"08127046","name":"Kirchberg an der Jagst, Stadt","type":"Stadt"},"district":{"key":"08127","name":"Schwäbisch Hall","type":"Landkreis"},"federalState":{"key":"08","name":"Baden-Württemberg"}},{"name":"In der Schalwiese","postalCode":"74592","locality":"Kirchberg an der Jagst","municipality":{"key":"08127046","name":"Kirchberg an der Jagst, Stadt","type":"Stadt"},"district":{"key":"08127","name":"Schwäbisch Hall","type":"Landkreis"},"federalState":{"key":"08","name":"Baden-Württemberg"}},{"name":"In der Siedlung","postalCode":"74592","locality":"Kirchberg an der Jagst","municipality":{"key":"08127046","name":"Kirchberg an der Jagst, Stadt","type":"Stadt"},"district":{"key":"08127","name":"Schwäbisch Hall","type":"Landkreis"},"federalState":{"key":"08","name":"Baden-Württemberg"}},{"name":"Innere Lichsen","postalCode":"74592","locality":"Kirchberg an der Jagst","municipality":{"key":"08127046","name":"Kirchberg an der Jagst, Stadt","type":"Stadt"},"district":{"key":"08127","name":"Schwäbisch Hall","type":"Landkreis"},"federalState":{"key":"08","name":"Baden-Württemberg"}},{"name":"Jagststr.","postalCode":"74592","locality":"Kirchberg an der Jagst","municipality":{"key":"08127046","name":"Kirchberg an der Jagst, Stadt","type":"Stadt"},"district":{"key":"08127","name":"Schwäbisch Hall","type":"Landkreis"},"federalState":{"key":"08","name":"Baden-Württemberg"}},{"name":"Jagsttalstr.","postalCode":"74592","locality":"Kirchberg an der Jagst","municipality":{"key":"08127046","name":"Kirchberg an der Jagst, Stadt","type":"Stadt"},"district":{"key":"08127","name":"Schwäbisch Hall","type":"Landkreis"},"federalState":{"key":"08","name":"Baden-Württemberg"}},{"name":"Kastanienweg","postalCode":"74592","locality":"Kirchberg an der Jagst","municipality":{"key":"08127046","name":"Kirchberg an der Jagst, Stadt","type":"Stadt"},"district":{"key":"08127","name":"Schwäbisch Hall","type":"Landkreis"},"federalState":{"key":"08","name":"Baden-Württemberg"}},{"name":"Kirchberger Str.","postalCode":"74592","locality":"Kirchberg an der Jagst","municipality":{"key":"08127046","name":"Kirchberg an der Jagst, Stadt","type":"Stadt"},"district":{"key":"08127","name":"Schwäbisch Hall","type":"Landkreis"},"federalState":{"key":"08","name":"Baden-Württemberg"}},{"name":"Kirchplatz","postalCode":"74592","locality":"Kirchberg an der Jagst","municipality":{"key":"08127046","name":"Kirchberg an der Jagst, Stadt","type":"Stadt"},"district":{"key":"08127","name":"Schwäbisch Hall","type":"Landkreis"},"federalState":{"key":"08","name":"Baden-Württemberg"}},{"name":"Kirchstr.","postalCode":"74592","locality":"Kirchberg an der Jagst","municipality":{"key":"08127046","name":"Kirchberg an der Jagst, Stadt","type":"Stadt"},"district":{"key":"08127","name":"Schwäbisch Hall","type":"Landkreis"},"federalState":{"key":"08","name":"Baden-Württemberg"}},{"name":"Kirchweg","postalCode":"74592","locality":"Kirchberg an der Jagst","municipality":{"key":"08127046","name":"Kirchberg an der Jagst, Stadt","type":"Stadt"},"district":{"key":"08127","name":"Schwäbisch Hall","type":"Landkreis"},"federalState":{"key":"08","name":"Baden-Württemberg"}},{"name":"Klessberg","postalCode":"74592","locality":"Kirchberg an der Jagst","municipality":{"key":"08127046","name":"Kirchberg an der Jagst, Stadt","type":"Stadt"},"district":{"key":"08127","name":"Schwäbisch Hall","type":"Landkreis"},"federalState":{"key":"08","name":"Baden-Württemberg"}},{"name":"Klingenweg","postalCode":"74592","locality":"Kirchberg an der Jagst","municipality":{"key":"08127046","name":"Kirchberg an der Jagst, Stadt","type":"Stadt"},"district":{"key":"08127","name":"Schwäbisch Hall","type":"Landkreis"},"federalState":{"key":"08","name":"Baden-Württemberg"}},{"name":"Kreuzbergstr.","postalCode":"74592","locality":"Kirchberg an der Jagst","municipality":{"key":"08127046","name":"Kirchberg an der Jagst, Stadt","type":"Stadt"},"district":{"key":"08127","name":"Schwäbisch Hall","type":"Landkreis"},"federalState":{"key":"08","name":"Baden-Württemberg"}},{"name":"Kreuzstein","postalCode":"74592","locality":"Kirchberg an der Jagst","municipality":{"key":"08127046","name":"Kirchberg an der Jagst, Stadt","type":"Stadt"},"district":{"key":"08127","name":"Schwäbisch Hall","type":"Landkreis"},"federalState":{"key":"08","name":"Baden-Württemberg"}},{"name":"Kuhsteige","postalCode":"74592","locality":"Kirchberg an der Jagst","municipality":{"key":"08127046","name":"Kirchberg an der Jagst, Stadt","type":"Stadt"},"district":{"key":"08127","name":"Schwäbisch Hall","type":"Landkreis"},"federalState":{"key":"08","name":"Baden-Württemberg"}},{"name":"Lange Gasse","postalCode":"74592","locality":"Kirchberg an der Jagst","municipality":{"key":"08127046","name":"Kirchberg an der Jagst, Stadt","type":"Stadt"},"district":{"key":"08127","name":"Schwäbisch Hall","type":"Landkreis"},"federalState":{"key":"08","name":"Baden-Württemberg"}},{"name":"Langenburger Str.","postalCode":"74592","locality":"Kirchberg an der Jagst","municipality":{"key":"08127046","name":"Kirchberg an der Jagst, Stadt","type":"Stadt"},"district":{"key":"08127","name":"Schwäbisch Hall","type":"Landkreis"},"federalState":{"key":"08","name":"Baden-Württemberg"}},{"name":"Lärchenstr.","postalCode":"74592","locality":"Kirchberg an der Jagst","municipality":{"key":"08127046","name":"Kirchberg an der Jagst, Stadt","type":"Stadt"},"district":{"key":"08127","name":"Schwäbisch Hall","type":"Landkreis"},"federalState":{"key":"08","name":"Baden-Württemberg"}},{"name":"Lehmhausweg","postalCode":"74592","locality":"Kirchberg an der Jagst","municipality":{"key":"08127046","name":"Kirchberg an der Jagst, Stadt","type":"Stadt"},"district":{"key":"08127","name":"Schwäbisch Hall","type":"Landkreis"},"federalState":{"key":"08","name":"Baden-Württemberg"}},{"name":"Lendsiedler Str.","postalCode":"74592","locality":"Kirchberg an der Jagst","municipality":{"key":"08127046","name":"Kirchberg an der Jagst, Stadt","type":"Stadt"},"district":{"key":"08127","name":"Schwäbisch Hall","type":"Landkreis"},"federalState":{"key":"08","name":"Baden-Württemberg"}},{"name":"Lilienweg","postalCode":"74592","locality":"Kirchberg an der Jagst","municipality":{"key":"08127046","name":"Kirchberg an der Jagst, Stadt","type":"Stadt"},"district":{"key":"08127","name":"Schwäbisch Hall","type":"Landkreis"},"federalState":{"key":"08","name":"Baden-Württemberg"}},{"name":"Lindenstr.","postalCode":"74592","locality":"Kirchberg an der Jagst","municipality":{"key":"08127046","name":"Kirchberg an der Jagst, Stadt","type":"Stadt"},"district":{"key":"08127","name":"Schwäbisch Hall","type":"Landkreis"},"federalState":{"key":"08","name":"Baden-Württemberg"}},{"name":"Marbachweg","postalCode":"74592","locality":"Kirchberg an der Jagst","municipality":{"key":"08127046","name":"Kirchberg an der Jagst, Stadt","type":"Stadt"},"district":{"key":"08127","name":"Schwäbisch Hall","type":"Landkreis"},"federalState":{"key":"08","name":"Baden-Württemberg"}},{"name":"Marktstr.","postalCode":"74592","locality":"Kirchberg an der Jagst","municipality":{"key":"08127046","name":"Kirchberg an der Jagst, Stadt","type":"Stadt"},"district":{"key":"08127","name":"Schwäbisch Hall","type":"Landkreis"},"federalState":{"key":"08","name":"Baden-Württemberg"}},{"name":"Mittlerer Weiler","postalCode":"74592","locality":"Kirchberg an der Jagst","municipality":{"key":"08127046","name":"Kirchberg an der Jagst, Stadt","type":"Stadt"},"district":{"key":"08127","name":"Schwäbisch Hall","type":"Landkreis"},"federalState":{"key":"08","name":"Baden-Württemberg"}},{"name":"Mühlsteige","postalCode":"74592","locality":"Kirchberg an der Jagst","municipality":{"key":"08127046","name":"Kirchberg an der Jagst, Stadt","type":"Stadt"},"district":{"key":"08127","name":"Schwäbisch Hall","type":"Landkreis"},"federalState":{"key":"08","name":"Baden-Württemberg"}},{"name":"Mühlweg","postalCode":"74592","locality":"Kirchberg an der Jagst","municipality":{"key":"08127046","name":"Kirchberg an der Jagst, Stadt","type":"Stadt"},"district":{"key":"08127","name":"Schwäbisch Hall","type":"Landkreis"},"federalState":{"key":"08","name":"Baden-Württemberg"}},{"name":"Neuer Weg","postalCode":"74592","locality":"Kirchberg an der Jagst","municipality":{"key":"08127046","name":"Kirchberg an der Jagst, Stadt","type":"Stadt"},"district":{"key":"08127","name":"Schwäbisch Hall","type":"Landkreis"},"federalState":{"key":"08","name":"Baden-Württemberg"}},{"name":"Oberer Weiler","postalCode":"74592","locality":"Kirchberg an der Jagst","municipality":{"key":"08127046","name":"Kirchberg an der Jagst, Stadt","type":"Stadt"},"district":{"key":"08127","name":"Schwäbisch Hall","type":"Landkreis"},"federalState":{"key":"08","name":"Baden-Württemberg"}},{"name":"Ockenauer Weg","postalCode":"74592","locality":"Kirchberg an der Jagst","municipality":{"key":"08127046","name":"Kirchberg an der Jagst, Stadt","type":"Stadt"},"district":{"key":"08127","name":"Schwäbisch Hall","type":"Landkreis"},"federalState":{"key":"08","name":"Baden-Württemberg"}},{"name":"Ortsstr.","postalCode":"74592","locality":"Kirchberg an der Jagst","municipality":{"key":"08127046","name":"Kirchberg an der Jagst, Stadt","type":"Stadt"},"district":{"key":"08127","name":"Schwäbisch Hall","type":"Landkreis"},"federalState":{"key":"08","name":"Baden-Württemberg"}},{"name":"Panoramaweg","postalCode":"74592","locality":"Kirchberg an der Jagst","municipality":{"key":"08127046","name":"Kirchberg an der Jagst, Stadt","type":"Stadt"},"district":{"key":"08127","name":"Schwäbisch Hall","type":"Landkreis"},"federalState":{"key":"08","name":"Baden-Württemberg"}},{"name":"Poststr.","postalCode":"74592","locality":"Kirchberg an der Jagst","municipality":{"key":"08127046","name":"Kirchberg an der Jagst, Stadt","type":"Stadt"},"district":{"key":"08127","name":"Schwäbisch Hall","type":"Landkreis"},"federalState":{"key":"08","name":"Baden-Württemberg"}},{"name":"Raiffeisenstr.","postalCode":"74592","locality":"Kirchberg an der Jagst","municipality":{"key":"08127046","name":"Kirchberg an der Jagst, Stadt","type":"Stadt"},"district":{"key":"08127","name":"Schwäbisch Hall","type":"Landkreis"},"federalState":{"key":"08","name":"Baden-Württemberg"}},{"name":"Rosenstr.","postalCode":"74592","locality":"Kirchberg an der Jagst","municipality":{"key":"08127046","name":"Kirchberg an der Jagst, Stadt","type":"Stadt"},"district":{"key":"08127","name":"Schwäbisch Hall","type":"Landkreis"},"federalState":{"key":"08","name":"Baden-Württemberg"}},{"name":"Rothenburger Str.","postalCode":"74592","locality":"Kirchberg an der Jagst","municipality":{"key":"08127046","name":"Kirchberg an der Jagst, Stadt","type":"Stadt"},"district":{"key":"08127","name":"Schwäbisch Hall","type":"Landkreis"},"federalState":{"key":"08","name":"Baden-Württemberg"}},{"name":"Ruppershofener Str.","postalCode":"74592","locality":"Kirchberg an der Jagst","municipality":{"key":"08127046","name":"Kirchberg an der Jagst, Stadt","type":"Stadt"},"district":{"key":"08127","name":"Schwäbisch Hall","type":"Landkreis"},"federalState":{"key":"08","name":"Baden-Württemberg"}},{"name":"Sandelgasse","postalCode":"74592","locality":"Kirchberg an der Jagst","municipality":{"key":"08127046","name":"Kirchberg an der Jagst, Stadt","type":"Stadt"},"district":{"key":"08127","name":"Schwäbisch Hall","type":"Landkreis"},"federalState":{"key":"08","name":"Baden-Württemberg"}},{"name":"Schloßbergstr.","postalCode":"74592","locality":"Kirchberg an der Jagst","municipality":{"key":"08127046","name":"Kirchberg an der Jagst, Stadt","type":"Stadt"},"district":{"key":"08127","name":"Schwäbisch Hall","type":"Landkreis"},"federalState":{"key":"08","name":"Baden-Württemberg"}},{"name":"Schloßgartenweg","postalCode":"74592","locality":"Kirchberg an der Jagst","municipality":{"key":"08127046","name":"Kirchberg an der Jagst, Stadt","type":"Stadt"},"district":{"key":"08127","name":"Schwäbisch Hall","type":"Landkreis"},"federalState":{"key":"08","name":"Baden-Württemberg"}},{"name":"Schloßstr.","postalCode":"74592","locality":"Kirchberg an der Jagst","municipality":{"key":"08127046","name":"Kirchberg an der Jagst, Stadt","type":"Stadt"},"district":{"key":"08127","name":"Schwäbisch Hall","type":"Landkreis"},"federalState":{"key":"08","name":"Baden-Württemberg"}},{"name":"Schlözer Str.","postalCode":"74592","locality":"Kirchberg an der Jagst","municipality":{"key":"08127046","name":"Kirchberg an der Jagst, Stadt","type":"Stadt"},"district":{"key":"08127","name":"Schwäbisch Hall","type":"Landkreis"},"federalState":{"key":"08","name":"Baden-Württemberg"}},{"name":"Schmiedgasse","postalCode":"74592","locality":"Kirchberg an der Jagst","municipality":{"key":"08127046","name":"Kirchberg an der Jagst, Stadt","type":"Stadt"},"district":{"key":"08127","name":"Schwäbisch Hall","type":"Landkreis"},"federalState":{"key":"08","name":"Baden-Württemberg"}},{"name":"Schulstr.","postalCode":"74592","locality":"Kirchberg an der Jagst","municipality":{"key":"08127046","name":"Kirchberg an der Jagst, Stadt","type":"Stadt"},"district":{"key":"08127","name":"Schwäbisch Hall","type":"Landkreis"},"federalState":{"key":"08","name":"Baden-Württemberg"}},{"name":"Seestr.","postalCode":"74592","locality":"Kirchberg an der Jagst","municipality":{"key":"08127046","name":"Kirchberg an der Jagst, Stadt","type":"Stadt"},"district":{"key":"08127","name":"Schwäbisch Hall","type":"Landkreis"},"federalState":{"key":"08","name":"Baden-Württemberg"}},{"name":"Silberbühl","postalCode":"74592","locality":"Kirchberg an der Jagst","municipality":{"key":"08127046","name":"Kirchberg an der Jagst, Stadt","type":"Stadt"},"district":{"key":"08127","name":"Schwäbisch Hall","type":"Landkreis"},"federalState":{"key":"08","name":"Baden-Württemberg"}},{"name":"Sommersteige","postalCode":"74592","locality":"Kirchberg an der Jagst","municipality":{"key":"08127046","name":"Kirchberg an der Jagst, Stadt","type":"Stadt"},"district":{"key":"08127","name":"Schwäbisch Hall","type":"Landkreis"},"federalState":{"key":"08","name":"Baden-Württemberg"}},{"name":"Sonnenrain","postalCode":"74592","locality":"Kirchberg an der Jagst","municipality":{"key":"08127046","name":"Kirchberg an der Jagst, Stadt","type":"Stadt"},"district":{"key":"08127","name":"Schwäbisch Hall","type":"Landkreis"},"federalState":{"key":"08","name":"Baden-Württemberg"}},{"name":"Stauchbrunnen","postalCode":"74592","locality":"Kirchberg an der Jagst","municipality":{"key":"08127046","name":"Kirchberg an der Jagst, Stadt","type":"Stadt"},"district":{"key":"08127","name":"Schwäbisch Hall","type":"Landkreis"},"federalState":{"key":"08","name":"Baden-Württemberg"}},{"name":"Steinbachstr.","postalCode":"74592","locality":"Kirchberg an der Jagst","municipality":{"key":"08127046","name":"Kirchberg an der Jagst, Stadt","type":"Stadt"},"district":{"key":"08127","name":"Schwäbisch Hall","type":"Landkreis"},"federalState":{"key":"08","name":"Baden-Württemberg"}},{"name":"Steingasse","postalCode":"74592","locality":"Kirchberg an der Jagst","municipality":{"key":"08127046","name":"Kirchberg an der Jagst, Stadt","type":"Stadt"},"district":{"key":"08127","name":"Schwäbisch Hall","type":"Landkreis"},"federalState":{"key":"08","name":"Baden-Württemberg"}},{"name":"Sulzsteige","postalCode":"74592","locality":"Kirchberg an der Jagst","municipality":{"key":"08127046","name":"Kirchberg an der Jagst, Stadt","type":"Stadt"},"district":{"key":"08127","name":"Schwäbisch Hall","type":"Landkreis"},"federalState":{"key":"08","name":"Baden-Württemberg"}},{"name":"Tannenweg","postalCode":"74523","locality":"Schwäbisch Hall","municipality":{"key":"08127076","name":"Schwäbisch Hall, Stadt","type":"Große_Kreisstadt"},"district":{"key":"08127","name":"Schwäbisch Hall","type":"Landkreis"},"federalState":{"key":"08","name":"Baden-Württemberg"}},{"name":"Telemannweg","postalCode":"74523","locality":"Schwäbisch Hall","municipality":{"key":"08127076","name":"Schwäbisch Hall, Stadt","type":"Große_Kreisstadt"},"district":{"key":"08127","name":"Schwäbisch Hall","type":"Landkreis"},"federalState":{"key":"08","name":"Baden-Württemberg"}},{"name":"Teufelskanzel Nord","postalCode":"74523","locality":"Schwäbisch Hall","municipality":{"key":"08127076","name":"Schwäbisch Hall, Stadt","type":"Große_Kreisstadt"},"district":{"key":"08127","name":"Schwäbisch Hall","type":"Landkreis"},"federalState":{"key":"08","name":"Baden-Württemberg"}},{"name":"Teurerweg","postalCode":"74523","locality":"Schwäbisch Hall","municipality":{"key":"08127076","name":"Schwäbisch Hall, Stadt","type":"Große_Kreisstadt"},"district":{"key":"08127","name":"Schwäbisch Hall","type":"Landkreis"},"federalState":{"key":"08","name":"Baden-Württemberg"}},{"name":"Theodor-Hartmann-Str.","postalCode":"74523","locality":"Schwäbisch Hall","municipality":{"key":"08127076","name":"Schwäbisch Hall, Stadt","type":"Große_Kreisstadt"},"district":{"key":"08127","name":"Schwäbisch Hall","type":"Landkreis"},"federalState":{"key":"08","name":"Baden-Württemberg"}},{"name":"Theodor-Heuss-Str.","postalCode":"74523","locality":"Schwäbisch Hall","municipality":{"key":"08127076","name":"Schwäbisch Hall, Stadt","type":"Große_Kreisstadt"},"district":{"key":"08127","name":"Schwäbisch Hall","type":"Landkreis"},"federalState":{"key":"08","name":"Baden-Württemberg"}},{"name":"Therese-Huber-Str.","postalCode":"74523","locality":"Schwäbisch Hall","municipality":{"key":"08127076","name":"Schwäbisch Hall, Stadt","type":"Große_Kreisstadt"},"district":{"key":"08127","name":"Schwäbisch Hall","type":"Landkreis"},"federalState":{"key":"08","name":"Baden-Württemberg"}},{"name":"Thomas-Mann-Str.","postalCode":"74523","locality":"Schwäbisch Hall","municipality":{"key":"08127076","name":"Schwäbisch Hall, Stadt","type":"Große_Kreisstadt"},"district":{"key":"08127","name":"Schwäbisch Hall","type":"Landkreis"},"federalState":{"key":"08","name":"Baden-Württemberg"}},{"name":"Tilsiter Weg","postalCode":"74523","locality":"Schwäbisch Hall","municipality":{"key":"08127076","name":"Schwäbisch Hall, Stadt","type":"Große_Kreisstadt"},"district":{"key":"08127","name":"Schwäbisch Hall","type":"Landkreis"},"federalState":{"key":"08","name":"Baden-Württemberg"}},{"name":"Treutweinweg","postalCode":"74523","locality":"Schwäbisch Hall","municipality":{"key":"08127076","name":"Schwäbisch Hall, Stadt","type":"Große_Kreisstadt"},"district":{"key":"08127","name":"Schwäbisch Hall","type":"Landkreis"},"federalState":{"key":"08","name":"Baden-Württemberg"}},{"name":"Tuchbleiche","postalCode":"74523","locality":"Schwäbisch Hall","municipality":{"key":"08127076","name":"Schwäbisch Hall, Stadt","type":"Große_Kreisstadt"},"district":{"key":"08127","name":"Schwäbisch Hall","type":"Landkreis"},"federalState":{"key":"08","name":"Baden-Württemberg"}},{"name":"Tullauer Steigle","postalCode":"74523","locality":"Schwäbisch Hall","municipality":{"key":"08127076","name":"Schwäbisch Hall, Stadt","type":"Große_Kreisstadt"},"district":{"key":"08127","name":"Schwäbisch Hall","type":"Landkreis"},"federalState":{"key":"08","name":"Baden-Württemberg"}},{"name":"Tullauer Str.","postalCode":"74523","locality":"Schwäbisch Hall","municipality":{"key":"08127076","name":"Schwäbisch Hall, Stadt","type":"Große_Kreisstadt"},"district":{"key":"08127","name":"Schwäbisch Hall","type":"Landkreis"},"federalState":{"key":"08","name":"Baden-Württemberg"}},{"name":"Tüngentaler Str.","postalCode":"74523","locality":"Schwäbisch Hall","municipality":{"key":"08127076","name":"Schwäbisch Hall, Stadt","type":"Große_Kreisstadt"},"district":{"key":"08127","name":"Schwäbisch Hall","type":"Landkreis"},"federalState":{"key":"08","name":"Baden-Württemberg"}},{"name":"Turmstr.","postalCode":"74523","locality":"Schwäbisch Hall","municipality":{"key":"08127076","name":"Schwäbisch Hall, Stadt","type":"Große_Kreisstadt"},"district":{"key":"08127","name":"Schwäbisch Hall","type":"Landkreis"},"federalState":{"key":"08","name":"Baden-Württemberg"}},{"name":"Uferweg","postalCode":"74592","locality":"Kirchberg an der Jagst","municipality":{"key":"08127046","name":"Kirchberg an der Jagst, Stadt","type":"Stadt"},"district":{"key":"08127","name":"Schwäbisch Hall","type":"Landkreis"},"federalState":{"key":"08","name":"Baden-Württemberg"}},{"name":"Ulmenstr.","postalCode":"74592","locality":"Kirchberg an der Jagst","municipality":{"key":"08127046","name":"Kirchberg an der Jagst, Stadt","type":"Stadt"},"district":{"key":"08127","name":"Schwäbisch Hall","type":"Landkreis"},"federalState":{"key":"08","name":"Baden-Württemberg"}},{"name":"Untere Gasse","postalCode":"74592","locality":"Kirchberg an der Jagst","municipality":{"key":"08127046","name":"Kirchberg an der Jagst, Stadt","type":"Stadt"},"district":{"key":"08127","name":"Schwäbisch Hall","type":"Landkreis"},"federalState":{"key":"08","name":"Baden-Württemberg"}},{"name":"Veinauer Str.","postalCode":"74523","locality":"Schwäbisch Hall","municipality":{"key":"08127076","name":"Schwäbisch Hall, Stadt","type":"Große_Kreisstadt"},"district":{"key":"08127","name":"Schwäbisch Hall","type":"Landkreis"},"federalState":{"key":"08","name":"Baden-Württemberg"}},{"name":"Veldnerweg","postalCode":"74523","locality":"Schwäbisch Hall","municipality":{"key":"08127076","name":"Schwäbisch Hall, Stadt","type":"Große_Kreisstadt"},"district":{"key":"08127","name":"Schwäbisch Hall","type":"Landkreis"},"federalState":{"key":"08","name":"Baden-Württemberg"}},{"name":"Vogtsweg","postalCode":"74523","locality":"Schwäbisch Hall","municipality":{"key":"08127076","name":"Schwäbisch Hall, Stadt","type":"Große_Kreisstadt"},"district":{"key":"08127","name":"Schwäbisch Hall","type":"Landkreis"},"federalState":{"key":"08","name":"Baden-Württemberg"}},{"name":"Vohensteinweg","postalCode":"74523","locality":"Schwäbisch Hall","municipality":{"key":"08127076","name":"Schwäbisch Hall, Stadt","type":"Große_Kreisstadt"},"district":{"key":"08127","name":"Schwäbisch Hall","type":"Landkreis"},"federalState":{"key":"08","name":"Baden-Württemberg"}},{"name":"Von-Palm-Str.","postalCode":"74523","locality":"Schwäbisch Hall","municipality":{"key":"08127076","name":"Schwäbisch Hall, Stadt","type":"Große_Kreisstadt"},"district":{"key":"08127","name":"Schwäbisch Hall","type":"Landkreis"},"federalState":{"key":"08","name":"Baden-Württemberg"}},{"name":"Vor dem Kelkertor","postalCode":"74523","locality":"Schwäbisch Hall","municipality":{"key":"08127076","name":"Schwäbisch Hall, Stadt","type":"Große_Kreisstadt"},"district":{"key":"08127","name":"Schwäbisch Hall","type":"Landkreis"},"federalState":{"key":"08","name":"Baden-Württemberg"}},{"name":"Vorderer Einkorn","postalCode":"74523","locality":"Schwäbisch Hall","municipality":{"key":"08127076","name":"Schwäbisch Hall, Stadt","type":"Große_Kreisstadt"},"district":{"key":"08127","name":"Schwäbisch Hall","type":"Landkreis"},"federalState":{"key":"08","name":"Baden-Württemberg"}},{"name":"Wanderstr.","postalCode":"74592","locality":"Kirchberg an der Jagst","municipality":{"key":"08127046","name":"Kirchberg an der Jagst, Stadt","type":"Stadt"},"district":{"key":"08127","name":"Schwäbisch Hall","type":"Landkreis"},"federalState":{"key":"08","name":"Baden-Württemberg"}},{"name":"Webergasse","postalCode":"74592","locality":"Kirchberg an der Jagst","municipality":{"key":"08127046","name":"Kirchberg an der Jagst, Stadt","type":"Stadt"},"district":{"key":"08127","name":"Schwäbisch Hall","type":"Landkreis"},"federalState":{"key":"08","name":"Baden-Württemberg"}},{"name":"Zum Schützenhaus","postalCode":"74592","locality":"Kirchberg an der Jagst","municipality":{"key":"08127046","name":"Kirchberg an der Jagst, Stadt","type":"Stadt"},"district":{"key":"08127","name":"Schwäbisch Hall","type":"Landkreis"},"federalState":{"key":"08","name":"Baden-Württemberg"}},{"name":"Zum Streitwald","postalCode":"74592","locality":"Kirchberg an der Jagst","municipality":{"key":"08127046","name":"Kirchberg an der Jagst, Stadt","type":"Stadt"},"district":{"key":"08127","name":"Schwäbisch Hall","type":"Landkreis"},"federalState":{"key":"08","name":"Baden-Württemberg"}},{"name":"Zur Brandeiche","postalCode":"74592","locality":"Kirchberg an der Jagst","municipality":{"key":"08127046","name":"Kirchberg an der Jagst, Stadt","type":"Stadt"},"district":{"key":"08127","name":"Schwäbisch Hall","type":"Landkreis"},"federalState":{"key":"08","name":"Baden-Württemberg"}},{"name":"Zur Obermühle","postalCode":"74592","locality":"Kirchberg an der Jagst","municipality":{"key":"08127046","name":"Kirchberg an der Jagst, Stadt","type":"Stadt"},"district":{"key":"08127","name":"Schwäbisch Hall","type":"Landkreis"},"federalState":{"key":"08","name":"Baden-Württemberg"}},{"name":"Zweckfeld","postalCode":"74592","locality":"Kirchberg an der Jagst","municipality":{"key":"08127046","name":"Kirchberg an der Jagst, Stadt","type":"Stadt"},"district":{"key":"08127","name":"Schwäbisch Hall","type":"Landkreis"},"federalState":{"key":"08","name":"Baden-Württemberg"}},{"name":"Ödenbühlsteige","postalCode":"74523","locality":"Schwäbisch Hall","municipality":{"key":"08127076","name":"Schwäbisch Hall, Stadt","type":"Große_Kreisstadt"},"district":{"key":"08127","name":"Schwäbisch Hall","type":"Landkreis"},"federalState":{"key":"08","name":"Baden-Württemberg"}},]