[{"name":"Adam-Kraft-Str.","postalCode":"90542","locality":"Eckental","municipality":{"key":"09572121","name":"Eckental, M","type":"Markt"},"district":{"key":"09572","name":"Erlangen-Höchstadt","type":"Landkreis"},"federalState":{"key":"09","name":"Bayern"}},{"name":"Ahornweg","postalCode":"90542","locality":"Eckental","municipality":{"key":"09572121","name":"Eckental, M","type":"Markt"},"district":{"key":"09572","name":"Erlangen-Höchstadt","type":"Landkreis"},"federalState":{"key":"09","name":"Bayern"}},{"name":"Aischstr.","postalCode":"90542","locality":"Eckental","municipality":{"key":"09572121","name":"Eckental, M","type":"Markt"},"district":{"key":"09572","name":"Erlangen-Höchstadt","type":"Landkreis"},"federalState":{"key":"09","name":"Bayern"}},{"name":"Albrecht-Dürer-Str.","postalCode":"90542","locality":"Eckental","municipality":{"key":"09572121","name":"Eckental, M","type":"Markt"},"district":{"key":"09572","name":"Erlangen-Höchstadt","type":"Landkreis"},"federalState":{"key":"09","name":"Bayern"}},{"name":"Altdorfer Str.","postalCode":"90542","locality":"Eckental","municipality":{"key":"09572121","name":"Eckental, M","type":"Markt"},"district":{"key":"09572","name":"Erlangen-Höchstadt","type":"Landkreis"},"federalState":{"key":"09","name":"Bayern"}},{"name":"Altmühlstr.","postalCode":"90542","locality":"Eckental","municipality":{"key":"09572121","name":"Eckental, M","type":"Markt"},"district":{"key":"09572","name":"Erlangen-Höchstadt","type":"Landkreis"},"federalState":{"key":"09","name":"Bayern"}},{"name":"Ambazac-Str.","postalCode":"90542","locality":"Eckental","municipality":{"key":"09572121","name":"Eckental, M","type":"Markt"},"district":{"key":"09572","name":"Erlangen-Höchstadt","type":"Landkreis"},"federalState":{"key":"09","name":"Bayern"}},{"name":"Am Eckenhaider Schloß","postalCode":"90542","locality":"Eckental","municipality":{"key":"09572121","name":"Eckental, M","type":"Markt"},"district":{"key":"09572","name":"Erlangen-Höchstadt","type":"Landkreis"},"federalState":{"key":"09","name":"Bayern"}},{"name":"Am Erl-Anger","postalCode":"90542","locality":"Eckental","municipality":{"key":"09572121","name":"Eckental, M","type":"Markt"},"district":{"key":"09572","name":"Erlangen-Höchstadt","type":"Landkreis"},"federalState":{"key":"09","name":"Bayern"}},{"name":"Am Haselholz","postalCode":"90542","locality":"Eckental","municipality":{"key":"09572121","name":"Eckental, M","type":"Markt"},"district":{"key":"09572","name":"Erlangen-Höchstadt","type":"Landkreis"},"federalState":{"key":"09","name":"Bayern"}},{"name":"Am Kirschgarten","postalCode":"90542","locality":"Eckental","municipality":{"key":"09572121","name":"Eckental, M","type":"Markt"},"district":{"key":"09572","name":"Erlangen-Höchstadt","type":"Landkreis"},"federalState":{"key":"09","name":"Bayern"}},{"name":"Am Kreuzacker","postalCode":"90542","locality":"Eckental","municipality":{"key":"09572121","name":"Eckental, M","type":"Markt"},"district":{"key":"09572","name":"Erlangen-Höchstadt","type":"Landkreis"},"federalState":{"key":"09","name":"Bayern"}},{"name":"Am Mühlwehr","postalCode":"90542","locality":"Eckental","municipality":{"key":"09572121","name":"Eckental, M","type":"Markt"},"district":{"key":"09572","name":"Erlangen-Höchstadt","type":"Landkreis"},"federalState":{"key":"09","name":"Bayern"}},{"name":"Am Rehhof","postalCode":"90542","locality":"Eckental","municipality":{"key":"09572121","name":"Eckental, M","type":"Markt"},"district":{"key":"09572","name":"Erlangen-Höchstadt","type":"Landkreis"},"federalState":{"key":"09","name":"Bayern"}},{"name":"Amselweg","postalCode":"90542","locality":"Eckental","municipality":{"key":"09572121","name":"Eckental, M","type":"Markt"},"district":{"key":"09572","name":"Erlangen-Höchstadt","type":"Landkreis"},"federalState":{"key":"09","name":"Bayern"}},{"name":"Am Steinbruch","postalCode":"90542","locality":"Eckental","municipality":{"key":"09572121","name":"Eckental, M","type":"Markt"},"district":{"key":"09572","name":"Erlangen-Höchstadt","type":"Landkreis"},"federalState":{"key":"09","name":"Bayern"}},{"name":"Anemonenstr.","postalCode":"90542","locality":"Eckental","municipality":{"key":"09572121","name":"Eckental, M","type":"Markt"},"district":{"key":"09572","name":"Erlangen-Höchstadt","type":"Landkreis"},"federalState":{"key":"09","name":"Bayern"}},{"name":"Ansbacher Str.","postalCode":"90542","locality":"Eckental","municipality":{"key":"09572121","name":"Eckental, M","type":"Markt"},"district":{"key":"09572","name":"Erlangen-Höchstadt","type":"Landkreis"},"federalState":{"key":"09","name":"Bayern"}},{"name":"Asternweg","postalCode":"90542","locality":"Eckental","municipality":{"key":"09572121","name":"Eckental, M","type":"Markt"},"district":{"key":"09572","name":"Erlangen-Höchstadt","type":"Landkreis"},"federalState":{"key":"09","name":"Bayern"}},{"name":"Aurachstr.","postalCode":"90542","locality":"Eckental","municipality":{"key":"09572121","name":"Eckental, M","type":"Markt"},"district":{"key":"09572","name":"Erlangen-Höchstadt","type":"Landkreis"},"federalState":{"key":"09","name":"Bayern"}},{"name":"Bahnhofstr.","postalCode":"90542","locality":"Eckental","municipality":{"key":"09572121","name":"Eckental, M","type":"Markt"},"district":{"key":"09572","name":"Erlangen-Höchstadt","type":"Landkreis"},"federalState":{"key":"09","name":"Bayern"}},{"name":"Beerbacher Str.","postalCode":"90542","locality":"Eckental","municipality":{"key":"09572121","name":"Eckental, M","type":"Markt"},"district":{"key":"09572","name":"Erlangen-Höchstadt","type":"Landkreis"},"federalState":{"key":"09","name":"Bayern"}},{"name":"Begonienstr.","postalCode":"90542","locality":"Eckental","municipality":{"key":"09572121","name":"Eckental, M","type":"Markt"},"district":{"key":"09572","name":"Erlangen-Höchstadt","type":"Landkreis"},"federalState":{"key":"09","name":"Bayern"}},{"name":"Behringstr.","postalCode":"90542","locality":"Eckental","municipality":{"key":"09572121","name":"Eckental, M","type":"Markt"},"district":{"key":"09572","name":"Erlangen-Höchstadt","type":"Landkreis"},"federalState":{"key":"09","name":"Bayern"}},{"name":"Bierweg","postalCode":"90542","locality":"Eckental","municipality":{"key":"09572121","name":"Eckental, M","type":"Markt"},"district":{"key":"09572","name":"Erlangen-Höchstadt","type":"Landkreis"},"federalState":{"key":"09","name":"Bayern"}},{"name":"Bismarckstr.","postalCode":"90542","locality":"Eckental","municipality":{"key":"09572121","name":"Eckental, M","type":"Markt"},"district":{"key":"09572","name":"Erlangen-Höchstadt","type":"Landkreis"},"federalState":{"key":"09","name":"Bayern"}},{"name":"Blumenstr.","postalCode":"90542","locality":"Eckental","municipality":{"key":"09572121","name":"Eckental, M","type":"Markt"},"district":{"key":"09572","name":"Erlangen-Höchstadt","type":"Landkreis"},"federalState":{"key":"09","name":"Bayern"}},{"name":"Blütenstr.","postalCode":"90542","locality":"Eckental","municipality":{"key":"09572121","name":"Eckental, M","type":"Markt"},"district":{"key":"09572","name":"Erlangen-Höchstadt","type":"Landkreis"},"federalState":{"key":"09","name":"Bayern"}},{"name":"Brander Hauptstr.","postalCode":"90542","locality":"Eckental","municipality":{"key":"09572121","name":"Eckental, M","type":"Markt"},"district":{"key":"09572","name":"Erlangen-Höchstadt","type":"Landkreis"},"federalState":{"key":"09","name":"Bayern"}},{"name":"Brand-Oberschöllenbach","postalCode":"90542","locality":"Eckental","municipality":{"key":"09572121","name":"Eckental, M","type":"Markt"},"district":{"key":"09572","name":"Erlangen-Höchstadt","type":"Landkreis"},"federalState":{"key":"09","name":"Bayern"}},{"name":"Brühlstr.","postalCode":"90542","locality":"Eckental","municipality":{"key":"09572121","name":"Eckental, M","type":"Markt"},"district":{"key":"09572","name":"Erlangen-Höchstadt","type":"Landkreis"},"federalState":{"key":"09","name":"Bayern"}},{"name":"Buchenstr.","postalCode":"90542","locality":"Eckental","municipality":{"key":"09572121","name":"Eckental, M","type":"Markt"},"district":{"key":"09572","name":"Erlangen-Höchstadt","type":"Landkreis"},"federalState":{"key":"09","name":"Bayern"}},{"name":"Bügstr.","postalCode":"90542","locality":"Eckental","municipality":{"key":"09572121","name":"Eckental, M","type":"Markt"},"district":{"key":"09572","name":"Erlangen-Höchstadt","type":"Landkreis"},"federalState":{"key":"09","name":"Bayern"}},{"name":"Bullacher Str.","postalCode":"90542","locality":"Eckental","municipality":{"key":"09572121","name":"Eckental, M","type":"Markt"},"district":{"key":"09572","name":"Erlangen-Höchstadt","type":"Landkreis"},"federalState":{"key":"09","name":"Bayern"}},{"name":"Bünaustr.","postalCode":"90542","locality":"Eckental","municipality":{"key":"09572121","name":"Eckental, M","type":"Markt"},"district":{"key":"09572","name":"Erlangen-Höchstadt","type":"Landkreis"},"federalState":{"key":"09","name":"Bayern"}},{"name":"Burgweg","postalCode":"90542","locality":"Eckental","municipality":{"key":"09572121","name":"Eckental, M","type":"Markt"},"district":{"key":"09572","name":"Erlangen-Höchstadt","type":"Landkreis"},"federalState":{"key":"09","name":"Bayern"}},{"name":"Büttnerstr.","postalCode":"90542","locality":"Eckental","municipality":{"key":"09572121","name":"Eckental, M","type":"Markt"},"district":{"key":"09572","name":"Erlangen-Höchstadt","type":"Landkreis"},"federalState":{"key":"09","name":"Bayern"}},{"name":"Dahlienstr.","postalCode":"90542","locality":"Eckental","municipality":{"key":"09572121","name":"Eckental, M","type":"Markt"},"district":{"key":"09572","name":"Erlangen-Höchstadt","type":"Landkreis"},"federalState":{"key":"09","name":"Bayern"}},{"name":"Deckersbergstr.","postalCode":"90542","locality":"Eckental","municipality":{"key":"09572121","name":"Eckental, M","type":"Markt"},"district":{"key":"09572","name":"Erlangen-Höchstadt","type":"Landkreis"},"federalState":{"key":"09","name":"Bayern"}},{"name":"Dillbergstr.","postalCode":"90542","locality":"Eckental","municipality":{"key":"09572121","name":"Eckental, M","type":"Markt"},"district":{"key":"09572","name":"Erlangen-Höchstadt","type":"Landkreis"},"federalState":{"key":"09","name":"Bayern"}},{"name":"Distelweg","postalCode":"90542","locality":"Eckental","municipality":{"key":"09572121","name":"Eckental, M","type":"Markt"},"district":{"key":"09572","name":"Erlangen-Höchstadt","type":"Landkreis"},"federalState":{"key":"09","name":"Bayern"}},{"name":"Donaustr.","postalCode":"90542","locality":"Eckental","municipality":{"key":"09572121","name":"Eckental, M","type":"Markt"},"district":{"key":"09572","name":"Erlangen-Höchstadt","type":"Landkreis"},"federalState":{"key":"09","name":"Bayern"}},{"name":"Dormitzer Str.","postalCode":"90542","locality":"Eckental","municipality":{"key":"09572121","name":"Eckental, M","type":"Markt"},"district":{"key":"09572","name":"Erlangen-Höchstadt","type":"Landkreis"},"federalState":{"key":"09","name":"Bayern"}},{"name":"Dr.-Otto-Leich-Str.","postalCode":"90542","locality":"Eckental","municipality":{"key":"09572121","name":"Eckental, M","type":"Markt"},"district":{"key":"09572","name":"Erlangen-Höchstadt","type":"Landkreis"},"federalState":{"key":"09","name":"Bayern"}},{"name":"Dr.-Rolf-Filler-Str.","postalCode":"90542","locality":"Eckental","municipality":{"key":"09572121","name":"Eckental, M","type":"Markt"},"district":{"key":"09572","name":"Erlangen-Höchstadt","type":"Landkreis"},"federalState":{"key":"09","name":"Bayern"}},{"name":"Ebacher Hauptstr.","postalCode":"90542","locality":"Eckental","municipality":{"key":"09572121","name":"Eckental, M","type":"Markt"},"district":{"key":"09572","name":"Erlangen-Höchstadt","type":"Landkreis"},"federalState":{"key":"09","name":"Bayern"}},{"name":"Ebacher Ring","postalCode":"90542","locality":"Eckental","municipality":{"key":"09572121","name":"Eckental, M","type":"Markt"},"district":{"key":"09572","name":"Erlangen-Höchstadt","type":"Landkreis"},"federalState":{"key":"09","name":"Bayern"}},{"name":"Eckenbachstr.","postalCode":"90542","locality":"Eckental","municipality":{"key":"09572121","name":"Eckental, M","type":"Markt"},"district":{"key":"09572","name":"Erlangen-Höchstadt","type":"Landkreis"},"federalState":{"key":"09","name":"Bayern"}},{"name":"Eckenhaider Hauptstr.","postalCode":"90542","locality":"Eckental","municipality":{"key":"09572121","name":"Eckental, M","type":"Markt"},"district":{"key":"09572","name":"Erlangen-Höchstadt","type":"Landkreis"},"federalState":{"key":"09","name":"Bayern"}},{"name":"Eckentaler Str.","postalCode":"90542","locality":"Eckental","municipality":{"key":"09572121","name":"Eckental, M","type":"Markt"},"district":{"key":"09572","name":"Erlangen-Höchstadt","type":"Landkreis"},"federalState":{"key":"09","name":"Bayern"}},{"name":"Edelweißstr.","postalCode":"90542","locality":"Eckental","municipality":{"key":"09572121","name":"Eckental, M","type":"Markt"},"district":{"key":"09572","name":"Erlangen-Höchstadt","type":"Landkreis"},"federalState":{"key":"09","name":"Bayern"}},{"name":"Efeuweg","postalCode":"90542","locality":"Eckental","municipality":{"key":"09572121","name":"Eckental, M","type":"Markt"},"district":{"key":"09572","name":"Erlangen-Höchstadt","type":"Landkreis"},"federalState":{"key":"09","name":"Bayern"}},{"name":"Eichenhainstr.","postalCode":"90542","locality":"Eckental","municipality":{"key":"09572121","name":"Eckental, M","type":"Markt"},"district":{"key":"09572","name":"Erlangen-Höchstadt","type":"Landkreis"},"federalState":{"key":"09","name":"Bayern"}},{"name":"Einsteinstr.","postalCode":"90542","locality":"Eckental","municipality":{"key":"09572121","name":"Eckental, M","type":"Markt"},"district":{"key":"09572","name":"Erlangen-Höchstadt","type":"Landkreis"},"federalState":{"key":"09","name":"Bayern"}},{"name":"Eisenstr.","postalCode":"90542","locality":"Eckental","municipality":{"key":"09572121","name":"Eckental, M","type":"Markt"},"district":{"key":"09572","name":"Erlangen-Höchstadt","type":"Landkreis"},"federalState":{"key":"09","name":"Bayern"}},{"name":"Enzianweg","postalCode":"90542","locality":"Eckental","municipality":{"key":"09572121","name":"Eckental, M","type":"Markt"},"district":{"key":"09572","name":"Erlangen-Höchstadt","type":"Landkreis"},"federalState":{"key":"09","name":"Bayern"}},{"name":"Erlanger Str.","postalCode":"90542","locality":"Eckental","municipality":{"key":"09572121","name":"Eckental, M","type":"Markt"},"district":{"key":"09572","name":"Erlangen-Höchstadt","type":"Landkreis"},"federalState":{"key":"09","name":"Bayern"}},{"name":"Eschenauer Hauptstr.","postalCode":"90542","locality":"Eckental","municipality":{"key":"09572121","name":"Eckental, M","type":"Markt"},"district":{"key":"09572","name":"Erlangen-Höchstadt","type":"Landkreis"},"federalState":{"key":"09","name":"Bayern"}},{"name":"Falkenstr.","postalCode":"90542","locality":"Eckental","municipality":{"key":"09572121","name":"Eckental, M","type":"Markt"},"district":{"key":"09572","name":"Erlangen-Höchstadt","type":"Landkreis"},"federalState":{"key":"09","name":"Bayern"}},{"name":"Färberstr.","postalCode":"90542","locality":"Eckental","municipality":{"key":"09572121","name":"Eckental, M","type":"Markt"},"district":{"key":"09572","name":"Erlangen-Höchstadt","type":"Landkreis"},"federalState":{"key":"09","name":"Bayern"}},{"name":"Fasanenweg","postalCode":"90542","locality":"Eckental","municipality":{"key":"09572121","name":"Eckental, M","type":"Markt"},"district":{"key":"09572","name":"Erlangen-Höchstadt","type":"Landkreis"},"federalState":{"key":"09","name":"Bayern"}},{"name":"Fischerstr.","postalCode":"90542","locality":"Eckental","municipality":{"key":"09572121","name":"Eckental, M","type":"Markt"},"district":{"key":"09572","name":"Erlangen-Höchstadt","type":"Landkreis"},"federalState":{"key":"09","name":"Bayern"}},{"name":"Fliederstr.","postalCode":"90542","locality":"Eckental","municipality":{"key":"09572121","name":"Eckental, M","type":"Markt"},"district":{"key":"09572","name":"Erlangen-Höchstadt","type":"Landkreis"},"federalState":{"key":"09","name":"Bayern"}},{"name":"Flurstr.","postalCode":"90542","locality":"Eckental","municipality":{"key":"09572121","name":"Eckental, M","type":"Markt"},"district":{"key":"09572","name":"Erlangen-Höchstadt","type":"Landkreis"},"federalState":{"key":"09","name":"Bayern"}},{"name":"Föhrenstr.","postalCode":"90542","locality":"Eckental","municipality":{"key":"09572121","name":"Eckental, M","type":"Markt"},"district":{"key":"09572","name":"Erlangen-Höchstadt","type":"Landkreis"},"federalState":{"key":"09","name":"Bayern"}},{"name":"Forchheimer Str.","postalCode":"90542","locality":"Eckental","municipality":{"key":"09572121","name":"Eckental, M","type":"Markt"},"district":{"key":"09572","name":"Erlangen-Höchstadt","type":"Landkreis"},"federalState":{"key":"09","name":"Bayern"}},{"name":"Försterstr.","postalCode":"90542","locality":"Eckental","municipality":{"key":"09572121","name":"Eckental, M","type":"Markt"},"district":{"key":"09572","name":"Erlangen-Höchstadt","type":"Landkreis"},"federalState":{"key":"09","name":"Bayern"}},{"name":"Forther Hauptstr.","postalCode":"90542","locality":"Eckental","municipality":{"key":"09572121","name":"Eckental, M","type":"Markt"},"district":{"key":"09572","name":"Erlangen-Höchstadt","type":"Landkreis"},"federalState":{"key":"09","name":"Bayern"}},{"name":"Friedrich-Gräf-Str.","postalCode":"90542","locality":"Eckental","municipality":{"key":"09572121","name":"Eckental, M","type":"Markt"},"district":{"key":"09572","name":"Erlangen-Höchstadt","type":"Landkreis"},"federalState":{"key":"09","name":"Bayern"}},{"name":"Frohnhofer Hauptstr.","postalCode":"90542","locality":"Eckental","municipality":{"key":"09572121","name":"Eckental, M","type":"Markt"},"district":{"key":"09572","name":"Erlangen-Höchstadt","type":"Landkreis"},"federalState":{"key":"09","name":"Bayern"}},{"name":"Fürbringers Gässla","postalCode":"90542","locality":"Eckental","municipality":{"key":"09572121","name":"Eckental, M","type":"Markt"},"district":{"key":"09572","name":"Erlangen-Höchstadt","type":"Landkreis"},"federalState":{"key":"09","name":"Bayern"}},{"name":"Fürther Str.","postalCode":"90542","locality":"Eckental","municipality":{"key":"09572121","name":"Eckental, M","type":"Markt"},"district":{"key":"09572","name":"Erlangen-Höchstadt","type":"Landkreis"},"federalState":{"key":"09","name":"Bayern"}},{"name":"Gartenstr.","postalCode":"90542","locality":"Eckental","municipality":{"key":"09572121","name":"Eckental, M","type":"Markt"},"district":{"key":"09572","name":"Erlangen-Höchstadt","type":"Landkreis"},"federalState":{"key":"09","name":"Bayern"}},{"name":"Gärtnerstr.","postalCode":"90542","locality":"Eckental","municipality":{"key":"09572121","name":"Eckental, M","type":"Markt"},"district":{"key":"09572","name":"Erlangen-Höchstadt","type":"Landkreis"},"federalState":{"key":"09","name":"Bayern"}},{"name":"Generationenpark","postalCode":"90542","locality":"Eckental","municipality":{"key":"09572121","name":"Eckental, M","type":"Markt"},"district":{"key":"09572","name":"Erlangen-Höchstadt","type":"Landkreis"},"federalState":{"key":"09","name":"Bayern"}},{"name":"Geranienstr.","postalCode":"90542","locality":"Eckental","municipality":{"key":"09572121","name":"Eckental, M","type":"Markt"},"district":{"key":"09572","name":"Erlangen-Höchstadt","type":"Landkreis"},"federalState":{"key":"09","name":"Bayern"}},{"name":"Gerberstr.","postalCode":"90542","locality":"Eckental","municipality":{"key":"09572121","name":"Eckental, M","type":"Markt"},"district":{"key":"09572","name":"Erlangen-Höchstadt","type":"Landkreis"},"federalState":{"key":"09","name":"Bayern"}},{"name":"Germersberger Hauptstr.","postalCode":"90542","locality":"Eckental","municipality":{"key":"09572121","name":"Eckental, M","type":"Markt"},"district":{"key":"09572","name":"Erlangen-Höchstadt","type":"Landkreis"},"federalState":{"key":"09","name":"Bayern"}},{"name":"Goethestr.","postalCode":"90542","locality":"Eckental","municipality":{"key":"09572121","name":"Eckental, M","type":"Markt"},"district":{"key":"09572","name":"Erlangen-Höchstadt","type":"Landkreis"},"federalState":{"key":"09","name":"Bayern"}},{"name":"Gotzmannstr.","postalCode":"90542","locality":"Eckental","municipality":{"key":"09572121","name":"Eckental, M","type":"Markt"},"district":{"key":"09572","name":"Erlangen-Höchstadt","type":"Landkreis"},"federalState":{"key":"09","name":"Bayern"}},{"name":"Großgeschaidter Str.","postalCode":"90542","locality":"Eckental","municipality":{"key":"09572121","name":"Eckental, M","type":"Markt"},"district":{"key":"09572","name":"Erlangen-Höchstadt","type":"Landkreis"},"federalState":{"key":"09","name":"Bayern"}},{"name":"Gründlachstr.","postalCode":"90542","locality":"Eckental","municipality":{"key":"09572121","name":"Eckental, M","type":"Markt"},"district":{"key":"09572","name":"Erlangen-Höchstadt","type":"Landkreis"},"federalState":{"key":"09","name":"Bayern"}},{"name":"Günthersbühler Str.","postalCode":"90542","locality":"Eckental","municipality":{"key":"09572121","name":"Eckental, M","type":"Markt"},"district":{"key":"09572","name":"Erlangen-Höchstadt","type":"Landkreis"},"federalState":{"key":"09","name":"Bayern"}},{"name":"Gütersloher Str.","postalCode":"90542","locality":"Eckental","municipality":{"key":"09572121","name":"Eckental, M","type":"Markt"},"district":{"key":"09572","name":"Erlangen-Höchstadt","type":"Landkreis"},"federalState":{"key":"09","name":"Bayern"}},{"name":"Haagstr.","postalCode":"90542","locality":"Eckental","municipality":{"key":"09572121","name":"Eckental, M","type":"Markt"},"district":{"key":"09572","name":"Erlangen-Höchstadt","type":"Landkreis"},"federalState":{"key":"09","name":"Bayern"}},{"name":"Haidbergstr.","postalCode":"90542","locality":"Eckental","municipality":{"key":"09572121","name":"Eckental, M","type":"Markt"},"district":{"key":"09572","name":"Erlangen-Höchstadt","type":"Landkreis"},"federalState":{"key":"09","name":"Bayern"}},{"name":"Haidbuckel","postalCode":"90542","locality":"Eckental","municipality":{"key":"09572121","name":"Eckental, M","type":"Markt"},"district":{"key":"09572","name":"Erlangen-Höchstadt","type":"Landkreis"},"federalState":{"key":"09","name":"Bayern"}},{"name":"Hallerstr.","postalCode":"90542","locality":"Eckental","municipality":{"key":"09572121","name":"Eckental, M","type":"Markt"},"district":{"key":"09572","name":"Erlangen-Höchstadt","type":"Landkreis"},"federalState":{"key":"09","name":"Bayern"}},{"name":"Hans-Sachs-Str.","postalCode":"90542","locality":"Eckental","municipality":{"key":"09572121","name":"Eckental, M","type":"Markt"},"district":{"key":"09572","name":"Erlangen-Höchstadt","type":"Landkreis"},"federalState":{"key":"09","name":"Bayern"}},{"name":"Heidestr.","postalCode":"90542","locality":"Eckental","municipality":{"key":"09572121","name":"Eckental, M","type":"Markt"},"district":{"key":"09572","name":"Erlangen-Höchstadt","type":"Landkreis"},"federalState":{"key":"09","name":"Bayern"}},{"name":"Heroldsberger Str.","postalCode":"90542","locality":"Eckental","municipality":{"key":"09572121","name":"Eckental, M","type":"Markt"},"district":{"key":"09572","name":"Erlangen-Höchstadt","type":"Landkreis"},"federalState":{"key":"09","name":"Bayern"}},{"name":"Herpersdorfer Hauptstr.","postalCode":"90542","locality":"Eckental","municipality":{"key":"09572121","name":"Eckental, M","type":"Markt"},"district":{"key":"09572","name":"Erlangen-Höchstadt","type":"Landkreis"},"federalState":{"key":"09","name":"Bayern"}},{"name":"Herrengasse","postalCode":"90542","locality":"Eckental","municipality":{"key":"09572121","name":"Eckental, M","type":"Markt"},"district":{"key":"09572","name":"Erlangen-Höchstadt","type":"Landkreis"},"federalState":{"key":"09","name":"Bayern"}},{"name":"Hersbrucker Str.","postalCode":"90542","locality":"Eckental","municipality":{"key":"09572121","name":"Eckental, M","type":"Markt"},"district":{"key":"09572","name":"Erlangen-Höchstadt","type":"Landkreis"},"federalState":{"key":"09","name":"Bayern"}},{"name":"Hienbergstr.","postalCode":"90542","locality":"Eckental","municipality":{"key":"09572121","name":"Eckental, M","type":"Markt"},"district":{"key":"09572","name":"Erlangen-Höchstadt","type":"Landkreis"},"federalState":{"key":"09","name":"Bayern"}},{"name":"Hirtenweg","postalCode":"90542","locality":"Eckental","municipality":{"key":"09572121","name":"Eckental, M","type":"Markt"},"district":{"key":"09572","name":"Erlangen-Höchstadt","type":"Landkreis"},"federalState":{"key":"09","name":"Bayern"}},{"name":"Humboldtstr.","postalCode":"90542","locality":"Eckental","municipality":{"key":"09572121","name":"Eckental, M","type":"Markt"},"district":{"key":"09572","name":"Erlangen-Höchstadt","type":"Landkreis"},"federalState":{"key":"09","name":"Bayern"}},{"name":"Illerstr.","postalCode":"90542","locality":"Eckental","municipality":{"key":"09572121","name":"Eckental, M","type":"Markt"},"district":{"key":"09572","name":"Erlangen-Höchstadt","type":"Landkreis"},"federalState":{"key":"09","name":"Bayern"}},{"name":"Imkerstr.","postalCode":"90542","locality":"Eckental","municipality":{"key":"09572121","name":"Eckental, M","type":"Markt"},"district":{"key":"09572","name":"Erlangen-Höchstadt","type":"Landkreis"},"federalState":{"key":"09","name":"Bayern"}},{"name":"Im Zentrum","postalCode":"90542","locality":"Eckental","municipality":{"key":"09572121","name":"Eckental, M","type":"Markt"},"district":{"key":"09572","name":"Erlangen-Höchstadt","type":"Landkreis"},"federalState":{"key":"09","name":"Bayern"}},{"name":"Innstr.","postalCode":"90542","locality":"Eckental","municipality":{"key":"09572121","name":"Eckental, M","type":"Markt"},"district":{"key":"09572","name":"Erlangen-Höchstadt","type":"Landkreis"},"federalState":{"key":"09","name":"Bayern"}},{"name":"Irisstr.","postalCode":"90542","locality":"Eckental","municipality":{"key":"09572121","name":"Eckental, M","type":"Markt"},"district":{"key":"09572","name":"Erlangen-Höchstadt","type":"Landkreis"},"federalState":{"key":"09","name":"Bayern"}},{"name":"Isarstr.","postalCode":"90542","locality":"Eckental","municipality":{"key":"09572121","name":"Eckental, M","type":"Markt"},"district":{"key":"09572","name":"Erlangen-Höchstadt","type":"Landkreis"},"federalState":{"key":"09","name":"Bayern"}},{"name":"Jägerstr.","postalCode":"90542","locality":"Eckental","municipality":{"key":"09572121","name":"Eckental, M","type":"Markt"},"district":{"key":"09572","name":"Erlangen-Höchstadt","type":"Landkreis"},"federalState":{"key":"09","name":"Bayern"}},{"name":"Jahnstr.","postalCode":"90542","locality":"Eckental","municipality":{"key":"09572121","name":"Eckental, M","type":"Markt"},"district":{"key":"09572","name":"Erlangen-Höchstadt","type":"Landkreis"},"federalState":{"key":"09","name":"Bayern"}},{"name":"Jasminstr.","postalCode":"90542","locality":"Eckental","municipality":{"key":"09572121","name":"Eckental, M","type":"Markt"},"district":{"key":"09572","name":"Erlangen-Höchstadt","type":"Landkreis"},"federalState":{"key":"09","name":"Bayern"}},{"name":"Kalchreuther Str.","postalCode":"90542","locality":"Eckental","municipality":{"key":"09572121","name":"Eckental, M","type":"Markt"},"district":{"key":"09572","name":"Erlangen-Höchstadt","type":"Landkreis"},"federalState":{"key":"09","name":"Bayern"}},{"name":"Kieferngarten","postalCode":"90542","locality":"Eckental","municipality":{"key":"09572121","name":"Eckental, M","type":"Markt"},"district":{"key":"09572","name":"Erlangen-Höchstadt","type":"Landkreis"},"federalState":{"key":"09","name":"Bayern"}},{"name":"Kiefernschlag","postalCode":"90542","locality":"Eckental","municipality":{"key":"09572121","name":"Eckental, M","type":"Markt"},"district":{"key":"09572","name":"Erlangen-Höchstadt","type":"Landkreis"},"federalState":{"key":"09","name":"Bayern"}},{"name":"Kleingeschaidter Str.","postalCode":"90542","locality":"Eckental","municipality":{"key":"09572121","name":"Eckental, M","type":"Markt"},"district":{"key":"09572","name":"Erlangen-Höchstadt","type":"Landkreis"},"federalState":{"key":"09","name":"Bayern"}},{"name":"Klingenstr.","postalCode":"90542","locality":"Eckental","municipality":{"key":"09572121","name":"Eckental, M","type":"Markt"},"district":{"key":"09572","name":"Erlangen-Höchstadt","type":"Landkreis"},"federalState":{"key":"09","name":"Bayern"}},{"name":"Kolpingstr.","postalCode":"90542","locality":"Eckental","municipality":{"key":"09572121","name":"Eckental, M","type":"Markt"},"district":{"key":"09572","name":"Erlangen-Höchstadt","type":"Landkreis"},"federalState":{"key":"09","name":"Bayern"}},{"name":"Konrad-Adenauer-Str.","postalCode":"90542","locality":"Eckental","municipality":{"key":"09572121","name":"Eckental, M","type":"Markt"},"district":{"key":"09572","name":"Erlangen-Höchstadt","type":"Landkreis"},"federalState":{"key":"09","name":"Bayern"}},{"name":"Krokusweg","postalCode":"90542","locality":"Eckental","municipality":{"key":"09572121","name":"Eckental, M","type":"Markt"},"district":{"key":"09572","name":"Erlangen-Höchstadt","type":"Landkreis"},"federalState":{"key":"09","name":"Bayern"}},{"name":"Kurt-Schumacher-Str.","postalCode":"90542","locality":"Eckental","municipality":{"key":"09572121","name":"Eckental, M","type":"Markt"},"district":{"key":"09572","name":"Erlangen-Höchstadt","type":"Landkreis"},"federalState":{"key":"09","name":"Bayern"}},{"name":"Lahnstr.","postalCode":"90542","locality":"Eckental","municipality":{"key":"09572121","name":"Eckental, M","type":"Markt"},"district":{"key":"09572","name":"Erlangen-Höchstadt","type":"Landkreis"},"federalState":{"key":"09","name":"Bayern"}},{"name":"Laufer Str.","postalCode":"90542","locality":"Eckental","municipality":{"key":"09572121","name":"Eckental, M","type":"Markt"},"district":{"key":"09572","name":"Erlangen-Höchstadt","type":"Landkreis"},"federalState":{"key":"09","name":"Bayern"}},{"name":"Lavendelweg","postalCode":"90542","locality":"Eckental","municipality":{"key":"09572121","name":"Eckental, M","type":"Markt"},"district":{"key":"09572","name":"Erlangen-Höchstadt","type":"Landkreis"},"federalState":{"key":"09","name":"Bayern"}},{"name":"Lerchenbühl","postalCode":"90542","locality":"Eckental","municipality":{"key":"09572121","name":"Eckental, M","type":"Markt"},"district":{"key":"09572","name":"Erlangen-Höchstadt","type":"Landkreis"},"federalState":{"key":"09","name":"Bayern"}},{"name":"Lessingstr.","postalCode":"90542","locality":"Eckental","municipality":{"key":"09572121","name":"Eckental, M","type":"Markt"},"district":{"key":"09572","name":"Erlangen-Höchstadt","type":"Landkreis"},"federalState":{"key":"09","name":"Bayern"}},{"name":"Lilienstr.","postalCode":"90542","locality":"Eckental","municipality":{"key":"09572121","name":"Eckental, M","type":"Markt"},"district":{"key":"09572","name":"Erlangen-Höchstadt","type":"Landkreis"},"federalState":{"key":"09","name":"Bayern"}},{"name":"Lindenstr.","postalCode":"90542","locality":"Eckental","municipality":{"key":"09572121","name":"Eckental, M","type":"Markt"},"district":{"key":"09572","name":"Erlangen-Höchstadt","type":"Landkreis"},"federalState":{"key":"09","name":"Bayern"}},{"name":"Lupinenstr.","postalCode":"90542","locality":"Eckental","municipality":{"key":"09572121","name":"Eckental, M","type":"Markt"},"district":{"key":"09572","name":"Erlangen-Höchstadt","type":"Landkreis"},"federalState":{"key":"09","name":"Bayern"}},{"name":"Mainstr.","postalCode":"90542","locality":"Eckental","municipality":{"key":"09572121","name":"Eckental, M","type":"Markt"},"district":{"key":"09572","name":"Erlangen-Höchstadt","type":"Landkreis"},"federalState":{"key":"09","name":"Bayern"}},{"name":"Marktplatz","postalCode":"90542","locality":"Eckental","municipality":{"key":"09572121","name":"Eckental, M","type":"Markt"},"district":{"key":"09572","name":"Erlangen-Höchstadt","type":"Landkreis"},"federalState":{"key":"09","name":"Bayern"}},{"name":"Marquardsburg","postalCode":"90542","locality":"Eckental","municipality":{"key":"09572121","name":"Eckental, M","type":"Markt"},"district":{"key":"09572","name":"Erlangen-Höchstadt","type":"Landkreis"},"federalState":{"key":"09","name":"Bayern"}},{"name":"Martin-Luther-Str.","postalCode":"90542","locality":"Eckental","municipality":{"key":"09572121","name":"Eckental, M","type":"Markt"},"district":{"key":"09572","name":"Erlangen-Höchstadt","type":"Landkreis"},"federalState":{"key":"09","name":"Bayern"}},{"name":"Mohnstr.","postalCode":"90542","locality":"Eckental","municipality":{"key":"09572121","name":"Eckental, M","type":"Markt"},"district":{"key":"09572","name":"Erlangen-Höchstadt","type":"Landkreis"},"federalState":{"key":"09","name":"Bayern"}},{"name":"Moosäcker","postalCode":"90542","locality":"Eckental","municipality":{"key":"09572121","name":"Eckental, M","type":"Markt"},"district":{"key":"09572","name":"Erlangen-Höchstadt","type":"Landkreis"},"federalState":{"key":"09","name":"Bayern"}},{"name":"Moritzbergstr.","postalCode":"90542","locality":"Eckental","municipality":{"key":"09572121","name":"Eckental, M","type":"Markt"},"district":{"key":"09572","name":"Erlangen-Höchstadt","type":"Landkreis"},"federalState":{"key":"09","name":"Bayern"}},{"name":"Moselstr.","postalCode":"90542","locality":"Eckental","municipality":{"key":"09572121","name":"Eckental, M","type":"Markt"},"district":{"key":"09572","name":"Erlangen-Höchstadt","type":"Landkreis"},"federalState":{"key":"09","name":"Bayern"}},{"name":"Mühlsteig","postalCode":"90542","locality":"Eckental","municipality":{"key":"09572121","name":"Eckental, M","type":"Markt"},"district":{"key":"09572","name":"Erlangen-Höchstadt","type":"Landkreis"},"federalState":{"key":"09","name":"Bayern"}},{"name":"Müllerstr.","postalCode":"90542","locality":"Eckental","municipality":{"key":"09572121","name":"Eckental, M","type":"Markt"},"district":{"key":"09572","name":"Erlangen-Höchstadt","type":"Landkreis"},"federalState":{"key":"09","name":"Bayern"}},{"name":"Naabstr.","postalCode":"90542","locality":"Eckental","municipality":{"key":"09572121","name":"Eckental, M","type":"Markt"},"district":{"key":"09572","name":"Erlangen-Höchstadt","type":"Landkreis"},"federalState":{"key":"09","name":"Bayern"}},{"name":"Narzissenstr.","postalCode":"90542","locality":"Eckental","municipality":{"key":"09572121","name":"Eckental, M","type":"Markt"},"district":{"key":"09572","name":"Erlangen-Höchstadt","type":"Landkreis"},"federalState":{"key":"09","name":"Bayern"}},{"name":"Neckarstr.","postalCode":"90542","locality":"Eckental","municipality":{"key":"09572121","name":"Eckental, M","type":"Markt"},"district":{"key":"09572","name":"Erlangen-Höchstadt","type":"Landkreis"},"federalState":{"key":"09","name":"Bayern"}},{"name":"Neumarkter Str.","postalCode":"90542","locality":"Eckental","municipality":{"key":"09572121","name":"Eckental, M","type":"Markt"},"district":{"key":"09572","name":"Erlangen-Höchstadt","type":"Landkreis"},"federalState":{"key":"09","name":"Bayern"}},{"name":"Neunhofer Str.","postalCode":"90542","locality":"Eckental","municipality":{"key":"09572121","name":"Eckental, M","type":"Markt"},"district":{"key":"09572","name":"Erlangen-Höchstadt","type":"Landkreis"},"federalState":{"key":"09","name":"Bayern"}},{"name":"Neunkirchener Str.","postalCode":"90542","locality":"Eckental","municipality":{"key":"09572121","name":"Eckental, M","type":"Markt"},"district":{"key":"09572","name":"Erlangen-Höchstadt","type":"Landkreis"},"federalState":{"key":"09","name":"Bayern"}},{"name":"Nordring","postalCode":"90542","locality":"Eckental","municipality":{"key":"09572121","name":"Eckental, M","type":"Markt"},"district":{"key":"09572","name":"Erlangen-Höchstadt","type":"Landkreis"},"federalState":{"key":"09","name":"Bayern"}},{"name":"Nürnberger Str.","postalCode":"90542","locality":"Eckental","municipality":{"key":"09572121","name":"Eckental, M","type":"Markt"},"district":{"key":"09572","name":"Erlangen-Höchstadt","type":"Landkreis"},"federalState":{"key":"09","name":"Bayern"}},{"name":"Oberschöllenbacher Hauptstr.","postalCode":"90542","locality":"Eckental","municipality":{"key":"09572121","name":"Eckental, M","type":"Markt"},"district":{"key":"09572","name":"Erlangen-Höchstadt","type":"Landkreis"},"federalState":{"key":"09","name":"Bayern"}},{"name":"Oedenberger Str.","postalCode":"90542","locality":"Eckental","municipality":{"key":"09572121","name":"Eckental, M","type":"Markt"},"district":{"key":"09572","name":"Erlangen-Höchstadt","type":"Landkreis"},"federalState":{"key":"09","name":"Bayern"}},{"name":"Ohmstr.","postalCode":"90542","locality":"Eckental","municipality":{"key":"09572121","name":"Eckental, M","type":"Markt"},"district":{"key":"09572","name":"Erlangen-Höchstadt","type":"Landkreis"},"federalState":{"key":"09","name":"Bayern"}},{"name":"Ollenhauer Str.","postalCode":"90542","locality":"Eckental","municipality":{"key":"09572121","name":"Eckental, M","type":"Markt"},"district":{"key":"09572","name":"Erlangen-Höchstadt","type":"Landkreis"},"federalState":{"key":"09","name":"Bayern"}},{"name":"Orchideenstr.","postalCode":"90542","locality":"Eckental","municipality":{"key":"09572121","name":"Eckental, M","type":"Markt"},"district":{"key":"09572","name":"Erlangen-Höchstadt","type":"Landkreis"},"federalState":{"key":"09","name":"Bayern"}},{"name":"Peter-Henlein-Str.","postalCode":"90542","locality":"Eckental","municipality":{"key":"09572121","name":"Eckental, M","type":"Markt"},"district":{"key":"09572","name":"Erlangen-Höchstadt","type":"Landkreis"},"federalState":{"key":"09","name":"Bayern"}},{"name":"Pettensiedler Str.","postalCode":"90542","locality":"Eckental","municipality":{"key":"09572121","name":"Eckental, M","type":"Markt"},"district":{"key":"09572","name":"Erlangen-Höchstadt","type":"Landkreis"},"federalState":{"key":"09","name":"Bayern"}},{"name":"Pfarrgarten","postalCode":"90542","locality":"Eckental","municipality":{"key":"09572121","name":"Eckental, M","type":"Markt"},"district":{"key":"09572","name":"Erlangen-Höchstadt","type":"Landkreis"},"federalState":{"key":"09","name":"Bayern"}},{"name":"Primelweg","postalCode":"90542","locality":"Eckental","municipality":{"key":"09572121","name":"Eckental, M","type":"Markt"},"district":{"key":"09572","name":"Erlangen-Höchstadt","type":"Landkreis"},"federalState":{"key":"09","name":"Bayern"}},{"name":"Regnitzstr.","postalCode":"90542","locality":"Eckental","municipality":{"key":"09572121","name":"Eckental, M","type":"Markt"},"district":{"key":"09572","name":"Erlangen-Höchstadt","type":"Landkreis"},"federalState":{"key":"09","name":"Bayern"}},{"name":"Rheinstr.","postalCode":"90542","locality":"Eckental","municipality":{"key":"09572121","name":"Eckental, M","type":"Markt"},"district":{"key":"09572","name":"Erlangen-Höchstadt","type":"Landkreis"},"federalState":{"key":"09","name":"Bayern"}},{"name":"Röckenhofer Str.","postalCode":"90542","locality":"Eckental","municipality":{"key":"09572121","name":"Eckental, M","type":"Markt"},"district":{"key":"09572","name":"Erlangen-Höchstadt","type":"Landkreis"},"federalState":{"key":"09","name":"Bayern"}},{"name":"Rodelhang","postalCode":"90542","locality":"Eckental","municipality":{"key":"09572121","name":"Eckental, M","type":"Markt"},"district":{"key":"09572","name":"Erlangen-Höchstadt","type":"Landkreis"},"federalState":{"key":"09","name":"Bayern"}},{"name":"Rosenstr.","postalCode":"90542","locality":"Eckental","municipality":{"key":"09572121","name":"Eckental, M","type":"Markt"},"district":{"key":"09572","name":"Erlangen-Höchstadt","type":"Landkreis"},"federalState":{"key":"09","name":"Bayern"}},{"name":"Rothenbergstr.","postalCode":"90542","locality":"Eckental","municipality":{"key":"09572121","name":"Eckental, M","type":"Markt"},"district":{"key":"09572","name":"Erlangen-Höchstadt","type":"Landkreis"},"federalState":{"key":"09","name":"Bayern"}},{"name":"Rothenburger Str.","postalCode":"90542","locality":"Eckental","municipality":{"key":"09572121","name":"Eckental, M","type":"Markt"},"district":{"key":"09572","name":"Erlangen-Höchstadt","type":"Landkreis"},"federalState":{"key":"09","name":"Bayern"}},{"name":"Salbeiweg","postalCode":"90542","locality":"Eckental","municipality":{"key":"09572121","name":"Eckental, M","type":"Markt"},"district":{"key":"09572","name":"Erlangen-Höchstadt","type":"Landkreis"},"federalState":{"key":"09","name":"Bayern"}},{"name":"Sandstr.","postalCode":"90542","locality":"Eckental","municipality":{"key":"09572121","name":"Eckental, M","type":"Markt"},"district":{"key":"09572","name":"Erlangen-Höchstadt","type":"Landkreis"},"federalState":{"key":"09","name":"Bayern"}},{"name":"Schillerstr.","postalCode":"90542","locality":"Eckental","municipality":{"key":"09572121","name":"Eckental, M","type":"Markt"},"district":{"key":"09572","name":"Erlangen-Höchstadt","type":"Landkreis"},"federalState":{"key":"09","name":"Bayern"}},{"name":"Schlehenstr.","postalCode":"90542","locality":"Eckental","municipality":{"key":"09572121","name":"Eckental, M","type":"Markt"},"district":{"key":"09572","name":"Erlangen-Höchstadt","type":"Landkreis"},"federalState":{"key":"09","name":"Bayern"}},{"name":"Schloßbergstr.","postalCode":"90542","locality":"Eckental","municipality":{"key":"09572121","name":"Eckental, M","type":"Markt"},"district":{"key":"09572","name":"Erlangen-Höchstadt","type":"Landkreis"},"federalState":{"key":"09","name":"Bayern"}},{"name":"Schlosserstr.","postalCode":"90542","locality":"Eckental","municipality":{"key":"09572121","name":"Eckental, M","type":"Markt"},"district":{"key":"09572","name":"Erlangen-Höchstadt","type":"Landkreis"},"federalState":{"key":"09","name":"Bayern"}},{"name":"Schloßhof","postalCode":"90542","locality":"Eckental","municipality":{"key":"09572121","name":"Eckental, M","type":"Markt"},"district":{"key":"09572","name":"Erlangen-Höchstadt","type":"Landkreis"},"federalState":{"key":"09","name":"Bayern"}},{"name":"Schloßplatz","postalCode":"90542","locality":"Eckental","municipality":{"key":"09572121","name":"Eckental, M","type":"Markt"},"district":{"key":"09572","name":"Erlangen-Höchstadt","type":"Landkreis"},"federalState":{"key":"09","name":"Bayern"}},{"name":"Schnaittacher Str.","postalCode":"90542","locality":"Eckental","municipality":{"key":"09572121","name":"Eckental, M","type":"Markt"},"district":{"key":"09572","name":"Erlangen-Höchstadt","type":"Landkreis"},"federalState":{"key":"09","name":"Bayern"}},{"name":"Schöntal","postalCode":"90542","locality":"Eckental","municipality":{"key":"09572121","name":"Eckental, M","type":"Markt"},"district":{"key":"09572","name":"Erlangen-Höchstadt","type":"Landkreis"},"federalState":{"key":"09","name":"Bayern"}},{"name":"Schreinergasse","postalCode":"90542","locality":"Eckental","municipality":{"key":"09572121","name":"Eckental, M","type":"Markt"},"district":{"key":"09572","name":"Erlangen-Höchstadt","type":"Landkreis"},"federalState":{"key":"09","name":"Bayern"}},{"name":"Schulstr.","postalCode":"90542","locality":"Eckental","municipality":{"key":"09572121","name":"Eckental, M","type":"Markt"},"district":{"key":"09572","name":"Erlangen-Höchstadt","type":"Landkreis"},"federalState":{"key":"09","name":"Bayern"}},{"name":"Schwabacher Str.","postalCode":"90542","locality":"Eckental","municipality":{"key":"09572121","name":"Eckental, M","type":"Markt"},"district":{"key":"09572","name":"Erlangen-Höchstadt","type":"Landkreis"},"federalState":{"key":"09","name":"Bayern"}},{"name":"Sendelbacher Str.","postalCode":"90542","locality":"Eckental","municipality":{"key":"09572121","name":"Eckental, M","type":"Markt"},"district":{"key":"09572","name":"Erlangen-Höchstadt","type":"Landkreis"},"federalState":{"key":"09","name":"Bayern"}},{"name":"Siebenbürgenstr.","postalCode":"90542","locality":"Eckental","municipality":{"key":"09572121","name":"Eckental, M","type":"Markt"},"district":{"key":"09572","name":"Erlangen-Höchstadt","type":"Landkreis"},"federalState":{"key":"09","name":"Bayern"}},{"name":"Spenglerstr.","postalCode":"90542","locality":"Eckental","municipality":{"key":"09572121","name":"Eckental, M","type":"Markt"},"district":{"key":"09572","name":"Erlangen-Höchstadt","type":"Landkreis"},"federalState":{"key":"09","name":"Bayern"}},{"name":"Steinbacher Str.","postalCode":"90542","locality":"Eckental","municipality":{"key":"09572121","name":"Eckental, M","type":"Markt"},"district":{"key":"09572","name":"Erlangen-Höchstadt","type":"Landkreis"},"federalState":{"key":"09","name":"Bayern"}},{"name":"Steppachstr.","postalCode":"90542","locality":"Eckental","municipality":{"key":"09572121","name":"Eckental, M","type":"Markt"},"district":{"key":"09572","name":"Erlangen-Höchstadt","type":"Landkreis"},"federalState":{"key":"09","name":"Bayern"}},{"name":"Stöckacher Str.","postalCode":"90542","locality":"Eckental","municipality":{"key":"09572121","name":"Eckental, M","type":"Markt"},"district":{"key":"09572","name":"Erlangen-Höchstadt","type":"Landkreis"},"federalState":{"key":"09","name":"Bayern"}},{"name":"Stresemannstr.","postalCode":"90542","locality":"Eckental","municipality":{"key":"09572121","name":"Eckental, M","type":"Markt"},"district":{"key":"09572","name":"Erlangen-Höchstadt","type":"Landkreis"},"federalState":{"key":"09","name":"Bayern"}},{"name":"Sudetenstr.","postalCode":"90542","locality":"Eckental","municipality":{"key":"09572121","name":"Eckental, M","type":"Markt"},"district":{"key":"09572","name":"Erlangen-Höchstadt","type":"Landkreis"},"federalState":{"key":"09","name":"Bayern"}},{"name":"Südring","postalCode":"90542","locality":"Eckental","municipality":{"key":"09572121","name":"Eckental, M","type":"Markt"},"district":{"key":"09572","name":"Erlangen-Höchstadt","type":"Landkreis"},"federalState":{"key":"09","name":"Bayern"}},{"name":"Tauchersreuther Str.","postalCode":"90542","locality":"Eckental","municipality":{"key":"09572121","name":"Eckental, M","type":"Markt"},"district":{"key":"09572","name":"Erlangen-Höchstadt","type":"Landkreis"},"federalState":{"key":"09","name":"Bayern"}},{"name":"Theodor-Heuss-Str.","postalCode":"90542","locality":"Eckental","municipality":{"key":"09572121","name":"Eckental, M","type":"Markt"},"district":{"key":"09572","name":"Erlangen-Höchstadt","type":"Landkreis"},"federalState":{"key":"09","name":"Bayern"}},{"name":"Tulpenstr.","postalCode":"90542","locality":"Eckental","municipality":{"key":"09572121","name":"Eckental, M","type":"Markt"},"district":{"key":"09572","name":"Erlangen-Höchstadt","type":"Landkreis"},"federalState":{"key":"09","name":"Bayern"}},{"name":"Ulmenweg","postalCode":"90542","locality":"Eckental","municipality":{"key":"09572121","name":"Eckental, M","type":"Markt"},"district":{"key":"09572","name":"Erlangen-Höchstadt","type":"Landkreis"},"federalState":{"key":"09","name":"Bayern"}},{"name":"Unterschöllenbacher Hauptstr.","postalCode":"90542","locality":"Eckental","municipality":{"key":"09572121","name":"Eckental, M","type":"Markt"},"district":{"key":"09572","name":"Erlangen-Höchstadt","type":"Landkreis"},"federalState":{"key":"09","name":"Bayern"}},{"name":"Veilchenstr.","postalCode":"90542","locality":"Eckental","municipality":{"key":"09572121","name":"Eckental, M","type":"Markt"},"district":{"key":"09572","name":"Erlangen-Höchstadt","type":"Landkreis"},"federalState":{"key":"09","name":"Bayern"}},{"name":"Veit-Stoß-Str.","postalCode":"90542","locality":"Eckental","municipality":{"key":"09572121","name":"Eckental, M","type":"Markt"},"district":{"key":"09572","name":"Erlangen-Höchstadt","type":"Landkreis"},"federalState":{"key":"09","name":"Bayern"}},{"name":"Vogelherd","postalCode":"90542","locality":"Eckental","municipality":{"key":"09572121","name":"Eckental, M","type":"Markt"},"district":{"key":"09572","name":"Erlangen-Höchstadt","type":"Landkreis"},"federalState":{"key":"09","name":"Bayern"}},{"name":"von-Brentano-Str.","postalCode":"90542","locality":"Eckental","municipality":{"key":"09572121","name":"Eckental, M","type":"Markt"},"district":{"key":"09572","name":"Erlangen-Höchstadt","type":"Landkreis"},"federalState":{"key":"09","name":"Bayern"}},{"name":"von-Scheffel-Str.","postalCode":"90542","locality":"Eckental","municipality":{"key":"09572121","name":"Eckental, M","type":"Markt"},"district":{"key":"09572","name":"Erlangen-Höchstadt","type":"Landkreis"},"federalState":{"key":"09","name":"Bayern"}},{"name":"Waldstr.","postalCode":"90542","locality":"Eckental","municipality":{"key":"09572121","name":"Eckental, M","type":"Markt"},"district":{"key":"09572","name":"Erlangen-Höchstadt","type":"Landkreis"},"federalState":{"key":"09","name":"Bayern"}},{"name":"Webergasse","postalCode":"90542","locality":"Eckental","municipality":{"key":"09572121","name":"Eckental, M","type":"Markt"},"district":{"key":"09572","name":"Erlangen-Höchstadt","type":"Landkreis"},"federalState":{"key":"09","name":"Bayern"}},{"name":"Wehrwiesenweg","postalCode":"90542","locality":"Eckental","municipality":{"key":"09572121","name":"Eckental, M","type":"Markt"},"district":{"key":"09572","name":"Erlangen-Höchstadt","type":"Landkreis"},"federalState":{"key":"09","name":"Bayern"}},{"name":"Weiherstr.","postalCode":"90542","locality":"Eckental","municipality":{"key":"09572121","name":"Eckental, M","type":"Markt"},"district":{"key":"09572","name":"Erlangen-Höchstadt","type":"Landkreis"},"federalState":{"key":"09","name":"Bayern"}},{"name":"Weinberg","postalCode":"90542","locality":"Eckental","municipality":{"key":"09572121","name":"Eckental, M","type":"Markt"},"district":{"key":"09572","name":"Erlangen-Höchstadt","type":"Landkreis"},"federalState":{"key":"09","name":"Bayern"}},{"name":"Westring","postalCode":"90542","locality":"Eckental","municipality":{"key":"09572121","name":"Eckental, M","type":"Markt"},"district":{"key":"09572","name":"Erlangen-Höchstadt","type":"Landkreis"},"federalState":{"key":"09","name":"Bayern"}},{"name":"Wiesenstr.","postalCode":"90542","locality":"Eckental","municipality":{"key":"09572121","name":"Eckental, M","type":"Markt"},"district":{"key":"09572","name":"Erlangen-Höchstadt","type":"Landkreis"},"federalState":{"key":"09","name":"Bayern"}},]