[{"name":"Alte Schule","postalCode":"17168","locality":"Prebberede","municipality":{"key":"13072082","name":"Prebberede","type":"Kreisangehörige_Gemeinde"},"district":{"key":"13072","name":"Landkreis Rostock","type":"Landkreis"},"federalState":{"key":"13","name":"Mecklenburg-Vorpommern"}},{"name":"Am Anger","postalCode":"17168","locality":"Prebberede","municipality":{"key":"13072082","name":"Prebberede","type":"Kreisangehörige_Gemeinde"},"district":{"key":"13072","name":"Landkreis Rostock","type":"Landkreis"},"federalState":{"key":"13","name":"Mecklenburg-Vorpommern"}},{"name":"Am Klosterberg","postalCode":"17168","locality":"Prebberede","municipality":{"key":"13072082","name":"Prebberede","type":"Kreisangehörige_Gemeinde"},"district":{"key":"13072","name":"Landkreis Rostock","type":"Landkreis"},"federalState":{"key":"13","name":"Mecklenburg-Vorpommern"}},{"name":"Am Storchennest","postalCode":"17168","locality":"Prebberede","municipality":{"key":"13072082","name":"Prebberede","type":"Kreisangehörige_Gemeinde"},"district":{"key":"13072","name":"Landkreis Rostock","type":"Landkreis"},"federalState":{"key":"13","name":"Mecklenburg-Vorpommern"}},{"name":"Am Teich","postalCode":"17168","locality":"Prebberede","municipality":{"key":"13072082","name":"Prebberede","type":"Kreisangehörige_Gemeinde"},"district":{"key":"13072","name":"Landkreis Rostock","type":"Landkreis"},"federalState":{"key":"13","name":"Mecklenburg-Vorpommern"}},{"name":"An der Bundesstr.","postalCode":"17168","locality":"Prebberede","municipality":{"key":"13072082","name":"Prebberede","type":"Kreisangehörige_Gemeinde"},"district":{"key":"13072","name":"Landkreis Rostock","type":"Landkreis"},"federalState":{"key":"13","name":"Mecklenburg-Vorpommern"}},{"name":"Anlagenweg","postalCode":"17168","locality":"Prebberede","municipality":{"key":"13072082","name":"Prebberede","type":"Kreisangehörige_Gemeinde"},"district":{"key":"13072","name":"Landkreis Rostock","type":"Landkreis"},"federalState":{"key":"13","name":"Mecklenburg-Vorpommern"}},{"name":"Belitzer Str.","postalCode":"17168","locality":"Prebberede","municipality":{"key":"13072082","name":"Prebberede","type":"Kreisangehörige_Gemeinde"},"district":{"key":"13072","name":"Landkreis Rostock","type":"Landkreis"},"federalState":{"key":"13","name":"Mecklenburg-Vorpommern"}},{"name":"Birkenweg","postalCode":"17168","locality":"Prebberede","municipality":{"key":"13072082","name":"Prebberede","type":"Kreisangehörige_Gemeinde"},"district":{"key":"13072","name":"Landkreis Rostock","type":"Landkreis"},"federalState":{"key":"13","name":"Mecklenburg-Vorpommern"}},{"name":"Gottiner Weg","postalCode":"17168","locality":"Prebberede","municipality":{"key":"13072082","name":"Prebberede","type":"Kreisangehörige_Gemeinde"},"district":{"key":"13072","name":"Landkreis Rostock","type":"Landkreis"},"federalState":{"key":"13","name":"Mecklenburg-Vorpommern"}},{"name":"Gutspark","postalCode":"17168","locality":"Prebberede","municipality":{"key":"13072082","name":"Prebberede","type":"Kreisangehörige_Gemeinde"},"district":{"key":"13072","name":"Landkreis Rostock","type":"Landkreis"},"federalState":{"key":"13","name":"Mecklenburg-Vorpommern"}},{"name":"Hauptstr.","postalCode":"17168","locality":"Prebberede","municipality":{"key":"13072082","name":"Prebberede","type":"Kreisangehörige_Gemeinde"},"district":{"key":"13072","name":"Landkreis Rostock","type":"Landkreis"},"federalState":{"key":"13","name":"Mecklenburg-Vorpommern"}},{"name":"Kantor-Müschen-Weg","postalCode":"17168","locality":"Prebberede","municipality":{"key":"13072082","name":"Prebberede","type":"Kreisangehörige_Gemeinde"},"district":{"key":"13072","name":"Landkreis Rostock","type":"Landkreis"},"federalState":{"key":"13","name":"Mecklenburg-Vorpommern"}},{"name":"Kastanienallee","postalCode":"17168","locality":"Prebberede","municipality":{"key":"13072082","name":"Prebberede","type":"Kreisangehörige_Gemeinde"},"district":{"key":"13072","name":"Landkreis Rostock","type":"Landkreis"},"federalState":{"key":"13","name":"Mecklenburg-Vorpommern"}},{"name":"Kirchsteig","postalCode":"17168","locality":"Prebberede","municipality":{"key":"13072082","name":"Prebberede","type":"Kreisangehörige_Gemeinde"},"district":{"key":"13072","name":"Landkreis Rostock","type":"Landkreis"},"federalState":{"key":"13","name":"Mecklenburg-Vorpommern"}},{"name":"Landstr.","postalCode":"17168","locality":"Prebberede","municipality":{"key":"13072082","name":"Prebberede","type":"Kreisangehörige_Gemeinde"},"district":{"key":"13072","name":"Landkreis Rostock","type":"Landkreis"},"federalState":{"key":"13","name":"Mecklenburg-Vorpommern"}},{"name":"Lindenweg","postalCode":"17168","locality":"Prebberede","municipality":{"key":"13072082","name":"Prebberede","type":"Kreisangehörige_Gemeinde"},"district":{"key":"13072","name":"Landkreis Rostock","type":"Landkreis"},"federalState":{"key":"13","name":"Mecklenburg-Vorpommern"}},{"name":"Neuer Weg","postalCode":"17168","locality":"Prebberede","municipality":{"key":"13072082","name":"Prebberede","type":"Kreisangehörige_Gemeinde"},"district":{"key":"13072","name":"Landkreis Rostock","type":"Landkreis"},"federalState":{"key":"13","name":"Mecklenburg-Vorpommern"}},{"name":"Neuheinder Weg","postalCode":"17168","locality":"Prebberede","municipality":{"key":"13072082","name":"Prebberede","type":"Kreisangehörige_Gemeinde"},"district":{"key":"13072","name":"Landkreis Rostock","type":"Landkreis"},"federalState":{"key":"13","name":"Mecklenburg-Vorpommern"}},{"name":"Rabenhorst","postalCode":"17168","locality":"Prebberede","municipality":{"key":"13072082","name":"Prebberede","type":"Kreisangehörige_Gemeinde"},"district":{"key":"13072","name":"Landkreis Rostock","type":"Landkreis"},"federalState":{"key":"13","name":"Mecklenburg-Vorpommern"}},{"name":"Rabenhorster Weg","postalCode":"17168","locality":"Prebberede","municipality":{"key":"13072082","name":"Prebberede","type":"Kreisangehörige_Gemeinde"},"district":{"key":"13072","name":"Landkreis Rostock","type":"Landkreis"},"federalState":{"key":"13","name":"Mecklenburg-Vorpommern"}},{"name":"Röth-Soll","postalCode":"17168","locality":"Prebberede","municipality":{"key":"13072082","name":"Prebberede","type":"Kreisangehörige_Gemeinde"},"district":{"key":"13072","name":"Landkreis Rostock","type":"Landkreis"},"federalState":{"key":"13","name":"Mecklenburg-Vorpommern"}},{"name":"Schloßweg","postalCode":"17168","locality":"Prebberede","municipality":{"key":"13072082","name":"Prebberede","type":"Kreisangehörige_Gemeinde"},"district":{"key":"13072","name":"Landkreis Rostock","type":"Landkreis"},"federalState":{"key":"13","name":"Mecklenburg-Vorpommern"}},{"name":"Schwiessel-Ausbau","postalCode":"17168","locality":"Prebberede","municipality":{"key":"13072082","name":"Prebberede","type":"Kreisangehörige_Gemeinde"},"district":{"key":"13072","name":"Landkreis Rostock","type":"Landkreis"},"federalState":{"key":"13","name":"Mecklenburg-Vorpommern"}},{"name":"Seeweg","postalCode":"17168","locality":"Prebberede","municipality":{"key":"13072082","name":"Prebberede","type":"Kreisangehörige_Gemeinde"},"district":{"key":"13072","name":"Landkreis Rostock","type":"Landkreis"},"federalState":{"key":"13","name":"Mecklenburg-Vorpommern"}},{"name":"Vietschower Weg","postalCode":"17168","locality":"Prebberede","municipality":{"key":"13072082","name":"Prebberede","type":"Kreisangehörige_Gemeinde"},"district":{"key":"13072","name":"Landkreis Rostock","type":"Landkreis"},"federalState":{"key":"13","name":"Mecklenburg-Vorpommern"}},{"name":"Wiesenweg","postalCode":"17168","locality":"Prebberede","municipality":{"key":"13072082","name":"Prebberede","type":"Kreisangehörige_Gemeinde"},"district":{"key":"13072","name":"Landkreis Rostock","type":"Landkreis"},"federalState":{"key":"13","name":"Mecklenburg-Vorpommern"}},{"name":"Zu den Wiesen","postalCode":"17168","locality":"Prebberede","municipality":{"key":"13072082","name":"Prebberede","type":"Kreisangehörige_Gemeinde"},"district":{"key":"13072","name":"Landkreis Rostock","type":"Landkreis"},"federalState":{"key":"13","name":"Mecklenburg-Vorpommern"}},{"name":"Zum Gutshaus","postalCode":"17168","locality":"Prebberede","municipality":{"key":"13072082","name":"Prebberede","type":"Kreisangehörige_Gemeinde"},"district":{"key":"13072","name":"Landkreis Rostock","type":"Landkreis"},"federalState":{"key":"13","name":"Mecklenburg-Vorpommern"}},{"name":"Zum Park","postalCode":"17168","locality":"Prebberede","municipality":{"key":"13072082","name":"Prebberede","type":"Kreisangehörige_Gemeinde"},"district":{"key":"13072","name":"Landkreis Rostock","type":"Landkreis"},"federalState":{"key":"13","name":"Mecklenburg-Vorpommern"}},{"name":"Zum Silbermoor","postalCode":"17168","locality":"Prebberede","municipality":{"key":"13072082","name":"Prebberede","type":"Kreisangehörige_Gemeinde"},"district":{"key":"13072","name":"Landkreis Rostock","type":"Landkreis"},"federalState":{"key":"13","name":"Mecklenburg-Vorpommern"}},{"name":"Zur Schmiede","postalCode":"17168","locality":"Prebberede","municipality":{"key":"13072082","name":"Prebberede","type":"Kreisangehörige_Gemeinde"},"district":{"key":"13072","name":"Landkreis Rostock","type":"Landkreis"},"federalState":{"key":"13","name":"Mecklenburg-Vorpommern"}},]