[{"key":"10052307","name":"Ackerstrasse","postalCode":"7563","locality":"Samnaun Dorf","commune":{"key":"3752","name":"Samnaun","shortName":"Samnaun"},"district":{"key":"1843","name":"Region Engiadina Bassa / Val Müstair"},"canton":{"key":"18","code":"GR","name":"Graubünden / Grigioni / Grischun"},"status":"Real"},{"key":"10259012","name":"Alp Bella Strasse","postalCode":"7563","locality":"Samnaun Dorf","commune":{"key":"3752","name":"Samnaun","shortName":"Samnaun"},"district":{"key":"1843","name":"Region Engiadina Bassa / Val Müstair"},"canton":{"key":"18","code":"GR","name":"Graubünden / Grigioni / Grischun"},"status":"Real"},{"key":"10157772","name":"Alpenquellweg","postalCode":"7562","locality":"Samnaun-Compatsch","commune":{"key":"3752","name":"Samnaun","shortName":"Samnaun"},"district":{"key":"1843","name":"Region Engiadina Bassa / Val Müstair"},"canton":{"key":"18","code":"GR","name":"Graubünden / Grigioni / Grischun"},"status":"Real"},{"key":"10156388","name":"Alpenrosenweg","postalCode":"7563","locality":"Samnaun Dorf","commune":{"key":"3752","name":"Samnaun","shortName":"Samnaun"},"district":{"key":"1843","name":"Region Engiadina Bassa / Val Müstair"},"canton":{"key":"18","code":"GR","name":"Graubünden / Grigioni / Grischun"},"status":"Real"},{"key":"10259011","name":"Alptriderstrasse","postalCode":"7563","locality":"Samnaun Dorf","commune":{"key":"3752","name":"Samnaun","shortName":"Samnaun"},"district":{"key":"1843","name":"Region Engiadina Bassa / Val Müstair"},"canton":{"key":"18","code":"GR","name":"Graubünden / Grigioni / Grischun"},"status":"Real"},{"key":"10153413","name":"Bachweg","postalCode":"7562","locality":"Samnaun-Compatsch","commune":{"key":"3752","name":"Samnaun","shortName":"Samnaun"},"district":{"key":"1843","name":"Region Engiadina Bassa / Val Müstair"},"canton":{"key":"18","code":"GR","name":"Graubünden / Grigioni / Grischun"},"status":"Real"},{"key":"10157808","name":"Bergbahnstrasse","postalCode":"7563","locality":"Samnaun Dorf","commune":{"key":"3752","name":"Samnaun","shortName":"Samnaun"},"district":{"key":"1843","name":"Region Engiadina Bassa / Val Müstair"},"canton":{"key":"18","code":"GR","name":"Graubünden / Grigioni / Grischun"},"status":"Real"},{"key":"10059124","name":"Brückliweg","postalCode":"7563","locality":"Samnaun Dorf","commune":{"key":"3752","name":"Samnaun","shortName":"Samnaun"},"district":{"key":"1843","name":"Region Engiadina Bassa / Val Müstair"},"canton":{"key":"18","code":"GR","name":"Graubünden / Grigioni / Grischun"},"status":"Real"},{"key":"10163712","name":"Clisstrasse","postalCode":"7563","locality":"Samnaun Dorf","commune":{"key":"3752","name":"Samnaun","shortName":"Samnaun"},"district":{"key":"1843","name":"Region Engiadina Bassa / Val Müstair"},"canton":{"key":"18","code":"GR","name":"Graubünden / Grigioni / Grischun"},"status":"Real"},{"key":"10157763","name":"Compatsch Strasse","postalCode":"7562","locality":"Samnaun-Compatsch","commune":{"key":"3752","name":"Samnaun","shortName":"Samnaun"},"district":{"key":"1843","name":"Region Engiadina Bassa / Val Müstair"},"canton":{"key":"18","code":"GR","name":"Graubünden / Grigioni / Grischun"},"status":"Real"},{"key":"10157807","name":"Crestasweg","postalCode":"7563","locality":"Samnaun Dorf","commune":{"key":"3752","name":"Samnaun","shortName":"Samnaun"},"district":{"key":"1843","name":"Region Engiadina Bassa / Val Müstair"},"canton":{"key":"18","code":"GR","name":"Graubünden / Grigioni / Grischun"},"status":"Real"},{"key":"10157809","name":"Dorfstrasse","postalCode":"7563","locality":"Samnaun Dorf","commune":{"key":"3752","name":"Samnaun","shortName":"Samnaun"},"district":{"key":"1843","name":"Region Engiadina Bassa / Val Müstair"},"canton":{"key":"18","code":"GR","name":"Graubünden / Grigioni / Grischun"},"status":"Real"},{"key":"10160019","name":"Foppaweg","postalCode":"7562","locality":"Samnaun-Compatsch","commune":{"key":"3752","name":"Samnaun","shortName":"Samnaun"},"district":{"key":"1843","name":"Region Engiadina Bassa / Val Müstair"},"canton":{"key":"18","code":"GR","name":"Graubünden / Grigioni / Grischun"},"status":"Real"},{"key":"10153588","name":"Forststrasse","postalCode":"7562","locality":"Samnaun-Compatsch","commune":{"key":"3752","name":"Samnaun","shortName":"Samnaun"},"district":{"key":"1843","name":"Region Engiadina Bassa / Val Müstair"},"canton":{"key":"18","code":"GR","name":"Graubünden / Grigioni / Grischun"},"status":"Real"},{"key":"10159899","name":"Gartenstrasse","postalCode":"7562","locality":"Samnaun-Compatsch","commune":{"key":"3752","name":"Samnaun","shortName":"Samnaun"},"district":{"key":"1843","name":"Region Engiadina Bassa / Val Müstair"},"canton":{"key":"18","code":"GR","name":"Graubünden / Grigioni / Grischun"},"status":"Real"},{"key":"10157810","name":"Glockenweg","postalCode":"7563","locality":"Samnaun Dorf","commune":{"key":"3752","name":"Samnaun","shortName":"Samnaun"},"district":{"key":"1843","name":"Region Engiadina Bassa / Val Müstair"},"canton":{"key":"18","code":"GR","name":"Graubünden / Grigioni / Grischun"},"status":"Real"},{"key":"10162647","name":"Hangstrasse","postalCode":"7562","locality":"Samnaun-Compatsch","commune":{"key":"3752","name":"Samnaun","shortName":"Samnaun"},"district":{"key":"1843","name":"Region Engiadina Bassa / Val Müstair"},"canton":{"key":"18","code":"GR","name":"Graubünden / Grigioni / Grischun"},"status":"Real"},{"key":"10153411","name":"Hofstrasse","postalCode":"7562","locality":"Samnaun-Compatsch","commune":{"key":"3752","name":"Samnaun","shortName":"Samnaun"},"district":{"key":"1843","name":"Region Engiadina Bassa / Val Müstair"},"canton":{"key":"18","code":"GR","name":"Graubünden / Grigioni / Grischun"},"status":"Real"},{"key":"10156097","name":"Höhenweg","postalCode":"7563","locality":"Samnaun Dorf","commune":{"key":"3752","name":"Samnaun","shortName":"Samnaun"},"district":{"key":"1843","name":"Region Engiadina Bassa / Val Müstair"},"canton":{"key":"18","code":"GR","name":"Graubünden / Grigioni / Grischun"},"status":"Real"},{"key":"10001928","name":"Kalvarienweg","postalCode":"7562","locality":"Samnaun-Compatsch","commune":{"key":"3752","name":"Samnaun","shortName":"Samnaun"},"district":{"key":"1843","name":"Region Engiadina Bassa / Val Müstair"},"canton":{"key":"18","code":"GR","name":"Graubünden / Grigioni / Grischun"},"status":"Real"},{"key":"10160268","name":"Kapellengasse","postalCode":"7562","locality":"Samnaun-Compatsch","commune":{"key":"3752","name":"Samnaun","shortName":"Samnaun"},"district":{"key":"1843","name":"Region Engiadina Bassa / Val Müstair"},"canton":{"key":"18","code":"GR","name":"Graubünden / Grigioni / Grischun"},"status":"Real"},{"key":"10157771","name":"Kirchweg","postalCode":"7562","locality":"Samnaun-Compatsch","commune":{"key":"3752","name":"Samnaun","shortName":"Samnaun"},"district":{"key":"1843","name":"Region Engiadina Bassa / Val Müstair"},"canton":{"key":"18","code":"GR","name":"Graubünden / Grigioni / Grischun"},"status":"Real"},{"key":"10153313","name":"Kreuzstrasse","postalCode":"7562","locality":"Samnaun-Compatsch","commune":{"key":"3752","name":"Samnaun","shortName":"Samnaun"},"district":{"key":"1843","name":"Region Engiadina Bassa / Val Müstair"},"canton":{"key":"18","code":"GR","name":"Graubünden / Grigioni / Grischun"},"status":"Real"},{"key":"10153587","name":"Lagerstrasse","postalCode":"7562","locality":"Samnaun-Compatsch","commune":{"key":"3752","name":"Samnaun","shortName":"Samnaun"},"district":{"key":"1843","name":"Region Engiadina Bassa / Val Müstair"},"canton":{"key":"18","code":"GR","name":"Graubünden / Grigioni / Grischun"},"status":"Real"},{"key":"10153590","name":"Lärchenweg","postalCode":"7562","locality":"Samnaun-Compatsch","commune":{"key":"3752","name":"Samnaun","shortName":"Samnaun"},"district":{"key":"1843","name":"Region Engiadina Bassa / Val Müstair"},"canton":{"key":"18","code":"GR","name":"Graubünden / Grigioni / Grischun"},"status":"Real"},{"key":"10153589","name":"Laret Strasse","postalCode":"7562","locality":"Samnaun-Compatsch","commune":{"key":"3752","name":"Samnaun","shortName":"Samnaun"},"district":{"key":"1843","name":"Region Engiadina Bassa / Val Müstair"},"canton":{"key":"18","code":"GR","name":"Graubünden / Grigioni / Grischun"},"status":"Real"},{"key":"10153584","name":"Mezprastrasse","postalCode":"7562","locality":"Samnaun-Compatsch","commune":{"key":"3752","name":"Samnaun","shortName":"Samnaun"},"district":{"key":"1843","name":"Region Engiadina Bassa / Val Müstair"},"canton":{"key":"18","code":"GR","name":"Graubünden / Grigioni / Grischun"},"status":"Real"},{"key":"10156393","name":"Motnaidastrasse","postalCode":"7563","locality":"Samnaun Dorf","commune":{"key":"3752","name":"Samnaun","shortName":"Samnaun"},"district":{"key":"1843","name":"Region Engiadina Bassa / Val Müstair"},"canton":{"key":"18","code":"GR","name":"Graubünden / Grigioni / Grischun"},"status":"Real"},{"key":"10156390","name":"Musellastrasse","postalCode":"7563","locality":"Samnaun Dorf","commune":{"key":"3752","name":"Samnaun","shortName":"Samnaun"},"district":{"key":"1843","name":"Region Engiadina Bassa / Val Müstair"},"canton":{"key":"18","code":"GR","name":"Graubünden / Grigioni / Grischun"},"status":"Real"},{"key":"10153047","name":"Obere Gasse","postalCode":"7562","locality":"Samnaun-Compatsch","commune":{"key":"3752","name":"Samnaun","shortName":"Samnaun"},"district":{"key":"1843","name":"Region Engiadina Bassa / Val Müstair"},"canton":{"key":"18","code":"GR","name":"Graubünden / Grigioni / Grischun"},"status":"Real"},{"key":"10052299","name":"Pezzastrasse","postalCode":"7563","locality":"Samnaun Dorf","commune":{"key":"3752","name":"Samnaun","shortName":"Samnaun"},"district":{"key":"1843","name":"Region Engiadina Bassa / Val Müstair"},"canton":{"key":"18","code":"GR","name":"Graubünden / Grigioni / Grischun"},"status":"Real"},{"key":"10156742","name":"Plan Bel Strasse","postalCode":"7563","locality":"Samnaun Dorf","commune":{"key":"3752","name":"Samnaun","shortName":"Samnaun"},"district":{"key":"1843","name":"Region Engiadina Bassa / Val Müstair"},"canton":{"key":"18","code":"GR","name":"Graubünden / Grigioni / Grischun"},"status":"Real"},{"key":"10259016","name":"Planer Salaasstrasse","postalCode":"7563","locality":"Samnaun Dorf","commune":{"key":"3752","name":"Samnaun","shortName":"Samnaun"},"district":{"key":"1843","name":"Region Engiadina Bassa / Val Müstair"},"canton":{"key":"18","code":"GR","name":"Graubünden / Grigioni / Grischun"},"status":"Real"},{"key":"10153412","name":"Plan Strasse","postalCode":"7562","locality":"Samnaun-Compatsch","commune":{"key":"3752","name":"Samnaun","shortName":"Samnaun"},"district":{"key":"1843","name":"Region Engiadina Bassa / Val Müstair"},"canton":{"key":"18","code":"GR","name":"Graubünden / Grigioni / Grischun"},"status":"Real"},{"key":"10052296","name":"Pozstrasse","postalCode":"7563","locality":"Samnaun Dorf","commune":{"key":"3752","name":"Samnaun","shortName":"Samnaun"},"district":{"key":"1843","name":"Region Engiadina Bassa / Val Müstair"},"canton":{"key":"18","code":"GR","name":"Graubünden / Grigioni / Grischun"},"status":"Real"},{"key":"10156111","name":"Ravaisch Strasse","postalCode":"7563","locality":"Samnaun Dorf","commune":{"key":"3752","name":"Samnaun","shortName":"Samnaun"},"district":{"key":"1843","name":"Region Engiadina Bassa / Val Müstair"},"canton":{"key":"18","code":"GR","name":"Graubünden / Grigioni / Grischun"},"status":"Real"},{"key":"10001920","name":"Schulstrasse","postalCode":"7562","locality":"Samnaun-Compatsch","commune":{"key":"3752","name":"Samnaun","shortName":"Samnaun"},"district":{"key":"1843","name":"Region Engiadina Bassa / Val Müstair"},"canton":{"key":"18","code":"GR","name":"Graubünden / Grigioni / Grischun"},"status":"Real"},{"key":"10163137","name":"Sonnenweg","postalCode":"7562","locality":"Samnaun-Compatsch","commune":{"key":"3752","name":"Samnaun","shortName":"Samnaun"},"district":{"key":"1843","name":"Region Engiadina Bassa / Val Müstair"},"canton":{"key":"18","code":"GR","name":"Graubünden / Grigioni / Grischun"},"status":"Real"},{"key":"10052288","name":"Sportplatzweg","postalCode":"7563","locality":"Samnaun Dorf","commune":{"key":"3752","name":"Samnaun","shortName":"Samnaun"},"district":{"key":"1843","name":"Region Engiadina Bassa / Val Müstair"},"canton":{"key":"18","code":"GR","name":"Graubünden / Grigioni / Grischun"},"status":"Real"},{"key":"10157753","name":"Südstrasse","postalCode":"7563","locality":"Samnaun Dorf","commune":{"key":"3752","name":"Samnaun","shortName":"Samnaun"},"district":{"key":"1843","name":"Region Engiadina Bassa / Val Müstair"},"canton":{"key":"18","code":"GR","name":"Graubünden / Grigioni / Grischun"},"status":"Real"},{"key":"10153586","name":"Talstrasse","postalCode":"7562","locality":"Samnaun-Compatsch","commune":{"key":"3752","name":"Samnaun","shortName":"Samnaun"},"district":{"key":"1843","name":"Region Engiadina Bassa / Val Müstair"},"canton":{"key":"18","code":"GR","name":"Graubünden / Grigioni / Grischun"},"status":"Real"},{"key":"10153586","name":"Talstrasse","postalCode":"7563","locality":"Samnaun Dorf","commune":{"key":"3752","name":"Samnaun","shortName":"Samnaun"},"district":{"key":"1843","name":"Region Engiadina Bassa / Val Müstair"},"canton":{"key":"18","code":"GR","name":"Graubünden / Grigioni / Grischun"},"status":"Real"},{"key":"10157764","name":"Untere Gasse","postalCode":"7562","locality":"Samnaun-Compatsch","commune":{"key":"3752","name":"Samnaun","shortName":"Samnaun"},"district":{"key":"1843","name":"Region Engiadina Bassa / Val Müstair"},"canton":{"key":"18","code":"GR","name":"Graubünden / Grigioni / Grischun"},"status":"Real"},{"key":"10001925","name":"Urezzastrasse","postalCode":"7562","locality":"Samnaun-Compatsch","commune":{"key":"3752","name":"Samnaun","shortName":"Samnaun"},"district":{"key":"1843","name":"Region Engiadina Bassa / Val Müstair"},"canton":{"key":"18","code":"GR","name":"Graubünden / Grigioni / Grischun"},"status":"Real"},{"key":"10159054","name":"Votlasstrasse","postalCode":"7563","locality":"Samnaun Dorf","commune":{"key":"3752","name":"Samnaun","shortName":"Samnaun"},"district":{"key":"1843","name":"Region Engiadina Bassa / Val Müstair"},"canton":{"key":"18","code":"GR","name":"Graubünden / Grigioni / Grischun"},"status":"Real"},{"key":"10157806","name":"Waldweg","postalCode":"7563","locality":"Samnaun Dorf","commune":{"key":"3752","name":"Samnaun","shortName":"Samnaun"},"district":{"key":"1843","name":"Region Engiadina Bassa / Val Müstair"},"canton":{"key":"18","code":"GR","name":"Graubünden / Grigioni / Grischun"},"status":"Real"},{"key":"10153585","name":"Welschdörflistrasse","postalCode":"7562","locality":"Samnaun-Compatsch","commune":{"key":"3752","name":"Samnaun","shortName":"Samnaun"},"district":{"key":"1843","name":"Region Engiadina Bassa / Val Müstair"},"canton":{"key":"18","code":"GR","name":"Graubünden / Grigioni / Grischun"},"status":"Real"},{"key":"10197065","name":"Weststrasse","postalCode":"7562","locality":"Samnaun-Compatsch","commune":{"key":"3752","name":"Samnaun","shortName":"Samnaun"},"district":{"key":"1843","name":"Region Engiadina Bassa / Val Müstair"},"canton":{"key":"18","code":"GR","name":"Graubünden / Grigioni / Grischun"},"status":"Real"},{"key":"10157774","name":"Wiesenweg","postalCode":"7562","locality":"Samnaun-Compatsch","commune":{"key":"3752","name":"Samnaun","shortName":"Samnaun"},"district":{"key":"1843","name":"Region Engiadina Bassa / Val Müstair"},"canton":{"key":"18","code":"GR","name":"Graubünden / Grigioni / Grischun"},"status":"Real"},{"key":"10159900","name":"Winkelgasse","postalCode":"7562","locality":"Samnaun-Compatsch","commune":{"key":"3752","name":"Samnaun","shortName":"Samnaun"},"district":{"key":"1843","name":"Region Engiadina Bassa / Val Müstair"},"canton":{"key":"18","code":"GR","name":"Graubünden / Grigioni / Grischun"},"status":"Real"},]