[{"name":"Adorfer Str.","postalCode":"08261","locality":"Schöneck/Vogtl.","municipality":{"key":"14523370","name":"Schöneck/Vogtl., Stadt","type":"Stadt"},"district":{"key":"14523","name":"Vogtlandkreis","type":"Landkreis"},"federalState":{"key":"14","name":"Sachsen"}},{"name":"Albertplatz","postalCode":"08261","locality":"Schöneck/Vogtl.","municipality":{"key":"14523370","name":"Schöneck/Vogtl., Stadt","type":"Stadt"},"district":{"key":"14523","name":"Vogtlandkreis","type":"Landkreis"},"federalState":{"key":"14","name":"Sachsen"}},{"name":"Altburgtal","postalCode":"54614","locality":"Schönecken","municipality":{"key":"07232304","name":"Schönecken","type":"Kreisangehörige_Gemeinde"},"district":{"key":"07232","name":"Eifelkreis Bitburg-Prüm","type":"Landkreis"},"federalState":{"key":"07","name":"Rheinland-Pfalz"}},{"name":"Alte Bitburger Str.","postalCode":"54614","locality":"Schönecken","municipality":{"key":"07232304","name":"Schönecken","type":"Kreisangehörige_Gemeinde"},"district":{"key":"07232","name":"Eifelkreis Bitburg-Prüm","type":"Landkreis"},"federalState":{"key":"07","name":"Rheinland-Pfalz"}},{"name":"Alte Dorfstr.","postalCode":"61137","locality":"Schöneck","municipality":{"key":"06435026","name":"Schöneck","type":"Kreisangehörige_Gemeinde"},"district":{"key":"06435","name":"Main-Kinzig-Kreis","type":"Landkreis"},"federalState":{"key":"06","name":"Hessen"}},{"name":"Alter Markt","postalCode":"54614","locality":"Schönecken","municipality":{"key":"07232304","name":"Schönecken","type":"Kreisangehörige_Gemeinde"},"district":{"key":"07232","name":"Eifelkreis Bitburg-Prüm","type":"Landkreis"},"federalState":{"key":"07","name":"Rheinland-Pfalz"}},{"name":"Am alten Söll","postalCode":"08261","locality":"Schöneck/Vogtl.","municipality":{"key":"14523370","name":"Schöneck/Vogtl., Stadt","type":"Stadt"},"district":{"key":"14523","name":"Vogtlandkreis","type":"Landkreis"},"federalState":{"key":"14","name":"Sachsen"}},{"name":"Am Bahnhof","postalCode":"08261","locality":"Schöneck/Vogtl.","municipality":{"key":"14523370","name":"Schöneck/Vogtl., Stadt","type":"Stadt"},"district":{"key":"14523","name":"Vogtlandkreis","type":"Landkreis"},"federalState":{"key":"14","name":"Sachsen"}},{"name":"Am Bahnhof","postalCode":"61137","locality":"Schöneck","municipality":{"key":"06435026","name":"Schöneck","type":"Kreisangehörige_Gemeinde"},"district":{"key":"06435","name":"Main-Kinzig-Kreis","type":"Landkreis"},"federalState":{"key":"06","name":"Hessen"}},{"name":"Am Brühl","postalCode":"61137","locality":"Schöneck","municipality":{"key":"06435026","name":"Schöneck","type":"Kreisangehörige_Gemeinde"},"district":{"key":"06435","name":"Main-Kinzig-Kreis","type":"Landkreis"},"federalState":{"key":"06","name":"Hessen"}},{"name":"Am Buchwald","postalCode":"61137","locality":"Schöneck","municipality":{"key":"06435026","name":"Schöneck","type":"Kreisangehörige_Gemeinde"},"district":{"key":"06435","name":"Main-Kinzig-Kreis","type":"Landkreis"},"federalState":{"key":"06","name":"Hessen"}},{"name":"Am Erlenbach","postalCode":"61137","locality":"Schöneck","municipality":{"key":"06435026","name":"Schöneck","type":"Kreisangehörige_Gemeinde"},"district":{"key":"06435","name":"Main-Kinzig-Kreis","type":"Landkreis"},"federalState":{"key":"06","name":"Hessen"}},{"name":"Am Ferienheim","postalCode":"08261","locality":"Schöneck/Vogtl.","municipality":{"key":"14523370","name":"Schöneck/Vogtl., Stadt","type":"Stadt"},"district":{"key":"14523","name":"Vogtlandkreis","type":"Landkreis"},"federalState":{"key":"14","name":"Sachsen"}},{"name":"Am Forum","postalCode":"54614","locality":"Schönecken","municipality":{"key":"07232304","name":"Schönecken","type":"Kreisangehörige_Gemeinde"},"district":{"key":"07232","name":"Eifelkreis Bitburg-Prüm","type":"Landkreis"},"federalState":{"key":"07","name":"Rheinland-Pfalz"}},{"name":"Am Hang","postalCode":"61137","locality":"Schöneck","municipality":{"key":"06435026","name":"Schöneck","type":"Kreisangehörige_Gemeinde"},"district":{"key":"06435","name":"Main-Kinzig-Kreis","type":"Landkreis"},"federalState":{"key":"06","name":"Hessen"}},{"name":"Am Haselbrunn","postalCode":"08261","locality":"Schöneck/Vogtl.","municipality":{"key":"14523370","name":"Schöneck/Vogtl., Stadt","type":"Stadt"},"district":{"key":"14523","name":"Vogtlandkreis","type":"Landkreis"},"federalState":{"key":"14","name":"Sachsen"}},{"name":"Am Hasenpfad","postalCode":"61137","locality":"Schöneck","municipality":{"key":"06435026","name":"Schöneck","type":"Kreisangehörige_Gemeinde"},"district":{"key":"06435","name":"Main-Kinzig-Kreis","type":"Landkreis"},"federalState":{"key":"06","name":"Hessen"}},{"name":"Am Heim","postalCode":"08261","locality":"Schöneck/Vogtl.","municipality":{"key":"14523370","name":"Schöneck/Vogtl., Stadt","type":"Stadt"},"district":{"key":"14523","name":"Vogtlandkreis","type":"Landkreis"},"federalState":{"key":"14","name":"Sachsen"}},{"name":"Am Karbener Weg","postalCode":"61137","locality":"Schöneck","municipality":{"key":"06435026","name":"Schöneck","type":"Kreisangehörige_Gemeinde"},"district":{"key":"06435","name":"Main-Kinzig-Kreis","type":"Landkreis"},"federalState":{"key":"06","name":"Hessen"}},{"name":"Am Klostergarten","postalCode":"54614","locality":"Schönecken","municipality":{"key":"07232304","name":"Schönecken","type":"Kreisangehörige_Gemeinde"},"district":{"key":"07232","name":"Eifelkreis Bitburg-Prüm","type":"Landkreis"},"federalState":{"key":"07","name":"Rheinland-Pfalz"}},{"name":"Am Kühwald","postalCode":"61137","locality":"Schöneck","municipality":{"key":"06435026","name":"Schöneck","type":"Kreisangehörige_Gemeinde"},"district":{"key":"06435","name":"Main-Kinzig-Kreis","type":"Landkreis"},"federalState":{"key":"06","name":"Hessen"}},{"name":"Am Mühlberg","postalCode":"61137","locality":"Schöneck","municipality":{"key":"06435026","name":"Schöneck","type":"Kreisangehörige_Gemeinde"},"district":{"key":"06435","name":"Main-Kinzig-Kreis","type":"Landkreis"},"federalState":{"key":"06","name":"Hessen"}},{"name":"Am Naßling","postalCode":"61137","locality":"Schöneck","municipality":{"key":"06435026","name":"Schöneck","type":"Kreisangehörige_Gemeinde"},"district":{"key":"06435","name":"Main-Kinzig-Kreis","type":"Landkreis"},"federalState":{"key":"06","name":"Hessen"}},{"name":"Am Neuberg","postalCode":"61137","locality":"Schöneck","municipality":{"key":"06435026","name":"Schöneck","type":"Kreisangehörige_Gemeinde"},"district":{"key":"06435","name":"Main-Kinzig-Kreis","type":"Landkreis"},"federalState":{"key":"06","name":"Hessen"}},{"name":"Am Rennweg","postalCode":"61137","locality":"Schöneck","municipality":{"key":"06435026","name":"Schöneck","type":"Kreisangehörige_Gemeinde"},"district":{"key":"06435","name":"Main-Kinzig-Kreis","type":"Landkreis"},"federalState":{"key":"06","name":"Hessen"}},{"name":"Am roten Berg","postalCode":"61137","locality":"Schöneck","municipality":{"key":"06435026","name":"Schöneck","type":"Kreisangehörige_Gemeinde"},"district":{"key":"06435","name":"Main-Kinzig-Kreis","type":"Landkreis"},"federalState":{"key":"06","name":"Hessen"}},{"name":"Amselweg","postalCode":"61137","locality":"Schöneck","municipality":{"key":"06435026","name":"Schöneck","type":"Kreisangehörige_Gemeinde"},"district":{"key":"06435","name":"Main-Kinzig-Kreis","type":"Landkreis"},"federalState":{"key":"06","name":"Hessen"}},{"name":"Am Sohr","postalCode":"08261","locality":"Schöneck/Vogtl.","municipality":{"key":"14523370","name":"Schöneck/Vogtl., Stadt","type":"Stadt"},"district":{"key":"14523","name":"Vogtlandkreis","type":"Landkreis"},"federalState":{"key":"14","name":"Sachsen"}},{"name":"Am Stadtpark","postalCode":"08261","locality":"Schöneck/Vogtl.","municipality":{"key":"14523370","name":"Schöneck/Vogtl., Stadt","type":"Stadt"},"district":{"key":"14523","name":"Vogtlandkreis","type":"Landkreis"},"federalState":{"key":"14","name":"Sachsen"}},{"name":"Am Stärkel","postalCode":"61137","locality":"Schöneck","municipality":{"key":"06435026","name":"Schöneck","type":"Kreisangehörige_Gemeinde"},"district":{"key":"06435","name":"Main-Kinzig-Kreis","type":"Landkreis"},"federalState":{"key":"06","name":"Hessen"}},{"name":"Am Talacker","postalCode":"61137","locality":"Schöneck","municipality":{"key":"06435026","name":"Schöneck","type":"Kreisangehörige_Gemeinde"},"district":{"key":"06435","name":"Main-Kinzig-Kreis","type":"Landkreis"},"federalState":{"key":"06","name":"Hessen"}},{"name":"An der Schule","postalCode":"54614","locality":"Schönecken","municipality":{"key":"07232304","name":"Schönecken","type":"Kreisangehörige_Gemeinde"},"district":{"key":"07232","name":"Eifelkreis Bitburg-Prüm","type":"Landkreis"},"federalState":{"key":"07","name":"Rheinland-Pfalz"}},{"name":"An der Turnhalle","postalCode":"61137","locality":"Schöneck","municipality":{"key":"06435026","name":"Schöneck","type":"Kreisangehörige_Gemeinde"},"district":{"key":"06435","name":"Main-Kinzig-Kreis","type":"Landkreis"},"federalState":{"key":"06","name":"Hessen"}},{"name":"Anne-Frank-Str.","postalCode":"61137","locality":"Schöneck","municipality":{"key":"06435026","name":"Schöneck","type":"Kreisangehörige_Gemeinde"},"district":{"key":"06435","name":"Main-Kinzig-Kreis","type":"Landkreis"},"federalState":{"key":"06","name":"Hessen"}},{"name":"Auf dem Bellert","postalCode":"54614","locality":"Schönecken","municipality":{"key":"07232304","name":"Schönecken","type":"Kreisangehörige_Gemeinde"},"district":{"key":"07232","name":"Eifelkreis Bitburg-Prüm","type":"Landkreis"},"federalState":{"key":"07","name":"Rheinland-Pfalz"}},{"name":"Auf dem Hostert","postalCode":"54614","locality":"Schönecken","municipality":{"key":"07232304","name":"Schönecken","type":"Kreisangehörige_Gemeinde"},"district":{"key":"07232","name":"Eifelkreis Bitburg-Prüm","type":"Landkreis"},"federalState":{"key":"07","name":"Rheinland-Pfalz"}},{"name":"Auf der Roeß","postalCode":"54614","locality":"Schönecken","municipality":{"key":"07232304","name":"Schönecken","type":"Kreisangehörige_Gemeinde"},"district":{"key":"07232","name":"Eifelkreis Bitburg-Prüm","type":"Landkreis"},"federalState":{"key":"07","name":"Rheinland-Pfalz"}},{"name":"Auf Reinskopf","postalCode":"54614","locality":"Schönecken","municipality":{"key":"07232304","name":"Schönecken","type":"Kreisangehörige_Gemeinde"},"district":{"key":"07232","name":"Eifelkreis Bitburg-Prüm","type":"Landkreis"},"federalState":{"key":"07","name":"Rheinland-Pfalz"}},{"name":"Bahnhofstr.","postalCode":"08261","locality":"Schöneck/Vogtl.","municipality":{"key":"14523370","name":"Schöneck/Vogtl., Stadt","type":"Stadt"},"district":{"key":"14523","name":"Vogtlandkreis","type":"Landkreis"},"federalState":{"key":"14","name":"Sachsen"}},{"name":"Bahnhofstr.","postalCode":"61137","locality":"Schöneck","municipality":{"key":"06435026","name":"Schöneck","type":"Kreisangehörige_Gemeinde"},"district":{"key":"06435","name":"Main-Kinzig-Kreis","type":"Landkreis"},"federalState":{"key":"06","name":"Hessen"}},{"name":"Bahnstr.","postalCode":"08261","locality":"Schöneck/Vogtl.","municipality":{"key":"14523370","name":"Schöneck/Vogtl., Stadt","type":"Stadt"},"district":{"key":"14523","name":"Vogtlandkreis","type":"Landkreis"},"federalState":{"key":"14","name":"Sachsen"}},{"name":"Bauhofstr.","postalCode":"08261","locality":"Schöneck/Vogtl.","municipality":{"key":"14523370","name":"Schöneck/Vogtl., Stadt","type":"Stadt"},"district":{"key":"14523","name":"Vogtlandkreis","type":"Landkreis"},"federalState":{"key":"14","name":"Sachsen"}},{"name":"Baumweg","postalCode":"61137","locality":"Schöneck","municipality":{"key":"06435026","name":"Schöneck","type":"Kreisangehörige_Gemeinde"},"district":{"key":"06435","name":"Main-Kinzig-Kreis","type":"Landkreis"},"federalState":{"key":"06","name":"Hessen"}},{"name":"Bei der Moorenwies","postalCode":"54614","locality":"Schönecken","municipality":{"key":"07232304","name":"Schönecken","type":"Kreisangehörige_Gemeinde"},"district":{"key":"07232","name":"Eifelkreis Bitburg-Prüm","type":"Landkreis"},"federalState":{"key":"07","name":"Rheinland-Pfalz"}},{"name":"Bergstr.","postalCode":"61137","locality":"Schöneck","municipality":{"key":"06435026","name":"Schöneck","type":"Kreisangehörige_Gemeinde"},"district":{"key":"06435","name":"Main-Kinzig-Kreis","type":"Landkreis"},"federalState":{"key":"06","name":"Hessen"}},{"name":"Berliner Str.","postalCode":"54614","locality":"Schönecken","municipality":{"key":"07232304","name":"Schönecken","type":"Kreisangehörige_Gemeinde"},"district":{"key":"07232","name":"Eifelkreis Bitburg-Prüm","type":"Landkreis"},"federalState":{"key":"07","name":"Rheinland-Pfalz"}},{"name":"Berliner Str.","postalCode":"61137","locality":"Schöneck","municipality":{"key":"06435026","name":"Schöneck","type":"Kreisangehörige_Gemeinde"},"district":{"key":"06435","name":"Main-Kinzig-Kreis","type":"Landkreis"},"federalState":{"key":"06","name":"Hessen"}},{"name":"Bernaer Chaussee","postalCode":"61137","locality":"Schöneck","municipality":{"key":"06435026","name":"Schöneck","type":"Kreisangehörige_Gemeinde"},"district":{"key":"06435","name":"Main-Kinzig-Kreis","type":"Landkreis"},"federalState":{"key":"06","name":"Hessen"}},{"name":"Birkenhäuserweg","postalCode":"08261","locality":"Schöneck/Vogtl.","municipality":{"key":"14523370","name":"Schöneck/Vogtl., Stadt","type":"Stadt"},"district":{"key":"14523","name":"Vogtlandkreis","type":"Landkreis"},"federalState":{"key":"14","name":"Sachsen"}},{"name":"Birkenweg","postalCode":"61137","locality":"Schöneck","municipality":{"key":"06435026","name":"Schöneck","type":"Kreisangehörige_Gemeinde"},"district":{"key":"06435","name":"Main-Kinzig-Kreis","type":"Landkreis"},"federalState":{"key":"06","name":"Hessen"}},{"name":"Bleichstr.","postalCode":"61137","locality":"Schöneck","municipality":{"key":"06435026","name":"Schöneck","type":"Kreisangehörige_Gemeinde"},"district":{"key":"06435","name":"Main-Kinzig-Kreis","type":"Landkreis"},"federalState":{"key":"06","name":"Hessen"}},{"name":"Bockmühlenweg","postalCode":"08261","locality":"Schöneck/Vogtl.","municipality":{"key":"14523370","name":"Schöneck/Vogtl., Stadt","type":"Stadt"},"district":{"key":"14523","name":"Vogtlandkreis","type":"Landkreis"},"federalState":{"key":"14","name":"Sachsen"}},{"name":"Brandenburger Str.","postalCode":"61137","locality":"Schöneck","municipality":{"key":"06435026","name":"Schöneck","type":"Kreisangehörige_Gemeinde"},"district":{"key":"06435","name":"Main-Kinzig-Kreis","type":"Landkreis"},"federalState":{"key":"06","name":"Hessen"}},{"name":"Breitenfelder Str.","postalCode":"08261","locality":"Schöneck/Vogtl.","municipality":{"key":"14523370","name":"Schöneck/Vogtl., Stadt","type":"Stadt"},"district":{"key":"14523","name":"Vogtlandkreis","type":"Landkreis"},"federalState":{"key":"14","name":"Sachsen"}},{"name":"Bremer Str.","postalCode":"61137","locality":"Schöneck","municipality":{"key":"06435026","name":"Schöneck","type":"Kreisangehörige_Gemeinde"},"district":{"key":"06435","name":"Main-Kinzig-Kreis","type":"Landkreis"},"federalState":{"key":"06","name":"Hessen"}},{"name":"Breslauer Str.","postalCode":"61137","locality":"Schöneck","municipality":{"key":"06435026","name":"Schöneck","type":"Kreisangehörige_Gemeinde"},"district":{"key":"06435","name":"Main-Kinzig-Kreis","type":"Landkreis"},"federalState":{"key":"06","name":"Hessen"}},{"name":"Brückgasse","postalCode":"61137","locality":"Schöneck","municipality":{"key":"06435026","name":"Schöneck","type":"Kreisangehörige_Gemeinde"},"district":{"key":"06435","name":"Main-Kinzig-Kreis","type":"Landkreis"},"federalState":{"key":"06","name":"Hessen"}},{"name":"Brucknerweg","postalCode":"61137","locality":"Schöneck","municipality":{"key":"06435026","name":"Schöneck","type":"Kreisangehörige_Gemeinde"},"district":{"key":"06435","name":"Main-Kinzig-Kreis","type":"Landkreis"},"federalState":{"key":"06","name":"Hessen"}},{"name":"Brunnengasse","postalCode":"61137","locality":"Schöneck","municipality":{"key":"06435026","name":"Schöneck","type":"Kreisangehörige_Gemeinde"},"district":{"key":"06435","name":"Main-Kinzig-Kreis","type":"Landkreis"},"federalState":{"key":"06","name":"Hessen"}},{"name":"Buchenweg","postalCode":"61137","locality":"Schöneck","municipality":{"key":"06435026","name":"Schöneck","type":"Kreisangehörige_Gemeinde"},"district":{"key":"06435","name":"Main-Kinzig-Kreis","type":"Landkreis"},"federalState":{"key":"06","name":"Hessen"}},{"name":"Büdesheimer Str.","postalCode":"61137","locality":"Schöneck","municipality":{"key":"06435026","name":"Schöneck","type":"Kreisangehörige_Gemeinde"},"district":{"key":"06435","name":"Main-Kinzig-Kreis","type":"Landkreis"},"federalState":{"key":"06","name":"Hessen"}},{"name":"Bürgermeister-Leuthold-Str.","postalCode":"08261","locality":"Schöneck/Vogtl.","municipality":{"key":"14523370","name":"Schöneck/Vogtl., Stadt","type":"Stadt"},"district":{"key":"14523","name":"Vogtlandkreis","type":"Landkreis"},"federalState":{"key":"14","name":"Sachsen"}},{"name":"Burghohl","postalCode":"61137","locality":"Schöneck","municipality":{"key":"06435026","name":"Schöneck","type":"Kreisangehörige_Gemeinde"},"district":{"key":"06435","name":"Main-Kinzig-Kreis","type":"Landkreis"},"federalState":{"key":"06","name":"Hessen"}},{"name":"Burgweg","postalCode":"54614","locality":"Schönecken","municipality":{"key":"07232304","name":"Schönecken","type":"Kreisangehörige_Gemeinde"},"district":{"key":"07232","name":"Eifelkreis Bitburg-Prüm","type":"Landkreis"},"federalState":{"key":"07","name":"Rheinland-Pfalz"}},{"name":"Dachsbauweg","postalCode":"08261","locality":"Schöneck/Vogtl.","municipality":{"key":"14523370","name":"Schöneck/Vogtl., Stadt","type":"Stadt"},"district":{"key":"14523","name":"Vogtlandkreis","type":"Landkreis"},"federalState":{"key":"14","name":"Sachsen"}},{"name":"Dachsweg","postalCode":"61137","locality":"Schöneck","municipality":{"key":"06435026","name":"Schöneck","type":"Kreisangehörige_Gemeinde"},"district":{"key":"06435","name":"Main-Kinzig-Kreis","type":"Landkreis"},"federalState":{"key":"06","name":"Hessen"}},{"name":"Danielsberg","postalCode":"54614","locality":"Schönecken","municipality":{"key":"07232304","name":"Schönecken","type":"Kreisangehörige_Gemeinde"},"district":{"key":"07232","name":"Eifelkreis Bitburg-Prüm","type":"Landkreis"},"federalState":{"key":"07","name":"Rheinland-Pfalz"}},{"name":"Danziger Str.","postalCode":"61137","locality":"Schöneck","municipality":{"key":"06435026","name":"Schöneck","type":"Kreisangehörige_Gemeinde"},"district":{"key":"06435","name":"Main-Kinzig-Kreis","type":"Landkreis"},"federalState":{"key":"06","name":"Hessen"}},{"name":"Der Flößbachweg","postalCode":"08261","locality":"Schöneck/Vogtl.","municipality":{"key":"14523370","name":"Schöneck/Vogtl., Stadt","type":"Stadt"},"district":{"key":"14523","name":"Vogtlandkreis","type":"Landkreis"},"federalState":{"key":"14","name":"Sachsen"}},{"name":"Dietrich-Bonhoeffer-Str.","postalCode":"61137","locality":"Schöneck","municipality":{"key":"06435026","name":"Schöneck","type":"Kreisangehörige_Gemeinde"},"district":{"key":"06435","name":"Main-Kinzig-Kreis","type":"Landkreis"},"federalState":{"key":"06","name":"Hessen"}},{"name":"Dingdorfer Str.","postalCode":"54614","locality":"Schönecken","municipality":{"key":"07232304","name":"Schönecken","type":"Kreisangehörige_Gemeinde"},"district":{"key":"07232","name":"Eifelkreis Bitburg-Prüm","type":"Landkreis"},"federalState":{"key":"07","name":"Rheinland-Pfalz"}},{"name":"Dittersdorfer Str.","postalCode":"61137","locality":"Schöneck","municipality":{"key":"06435026","name":"Schöneck","type":"Kreisangehörige_Gemeinde"},"district":{"key":"06435","name":"Main-Kinzig-Kreis","type":"Landkreis"},"federalState":{"key":"06","name":"Hessen"}},{"name":"Dorfstr.","postalCode":"08261","locality":"Schöneck/Vogtl.","municipality":{"key":"14523370","name":"Schöneck/Vogtl., Stadt","type":"Stadt"},"district":{"key":"14523","name":"Vogtlandkreis","type":"Landkreis"},"federalState":{"key":"14","name":"Sachsen"}},{"name":"Dresdner Str.","postalCode":"61137","locality":"Schöneck","municipality":{"key":"06435026","name":"Schöneck","type":"Kreisangehörige_Gemeinde"},"district":{"key":"06435","name":"Main-Kinzig-Kreis","type":"Landkreis"},"federalState":{"key":"06","name":"Hessen"}},{"name":"Dr.-Schreiber-Str.","postalCode":"54614","locality":"Schönecken","municipality":{"key":"07232304","name":"Schönecken","type":"Kreisangehörige_Gemeinde"},"district":{"key":"07232","name":"Eifelkreis Bitburg-Prüm","type":"Landkreis"},"federalState":{"key":"07","name":"Rheinland-Pfalz"}},{"name":"Edith-Stein-Weg","postalCode":"61137","locality":"Schöneck","municipality":{"key":"06435026","name":"Schöneck","type":"Kreisangehörige_Gemeinde"},"district":{"key":"06435","name":"Main-Kinzig-Kreis","type":"Landkreis"},"federalState":{"key":"06","name":"Hessen"}},{"name":"Egerländer Str.","postalCode":"61137","locality":"Schöneck","municipality":{"key":"06435026","name":"Schöneck","type":"Kreisangehörige_Gemeinde"},"district":{"key":"06435","name":"Main-Kinzig-Kreis","type":"Landkreis"},"federalState":{"key":"06","name":"Hessen"}},{"name":"Emil-Schuster-Str.","postalCode":"08261","locality":"Schöneck/Vogtl.","municipality":{"key":"14523370","name":"Schöneck/Vogtl., Stadt","type":"Stadt"},"district":{"key":"14523","name":"Vogtlandkreis","type":"Landkreis"},"federalState":{"key":"14","name":"Sachsen"}},{"name":"Erfurter Str.","postalCode":"61137","locality":"Schöneck","municipality":{"key":"06435026","name":"Schöneck","type":"Kreisangehörige_Gemeinde"},"district":{"key":"06435","name":"Main-Kinzig-Kreis","type":"Landkreis"},"federalState":{"key":"06","name":"Hessen"}},{"name":"Erich-Ollenhauer-Str.","postalCode":"61137","locality":"Schöneck","municipality":{"key":"06435026","name":"Schöneck","type":"Kreisangehörige_Gemeinde"},"district":{"key":"06435","name":"Main-Kinzig-Kreis","type":"Landkreis"},"federalState":{"key":"06","name":"Hessen"}},{"name":"Eschenbacher Str.","postalCode":"08261","locality":"Schöneck/Vogtl.","municipality":{"key":"14523370","name":"Schöneck/Vogtl., Stadt","type":"Stadt"},"district":{"key":"14523","name":"Vogtlandkreis","type":"Landkreis"},"federalState":{"key":"14","name":"Sachsen"}},{"name":"Eschenweg","postalCode":"61137","locality":"Schöneck","municipality":{"key":"06435026","name":"Schöneck","type":"Kreisangehörige_Gemeinde"},"district":{"key":"06435","name":"Main-Kinzig-Kreis","type":"Landkreis"},"federalState":{"key":"06","name":"Hessen"}},{"name":"Eugen-Kaiser-Str.","postalCode":"61137","locality":"Schöneck","municipality":{"key":"06435026","name":"Schöneck","type":"Kreisangehörige_Gemeinde"},"district":{"key":"06435","name":"Main-Kinzig-Kreis","type":"Landkreis"},"federalState":{"key":"06","name":"Hessen"}},{"name":"Eulenring","postalCode":"61137","locality":"Schöneck","municipality":{"key":"06435026","name":"Schöneck","type":"Kreisangehörige_Gemeinde"},"district":{"key":"06435","name":"Main-Kinzig-Kreis","type":"Landkreis"},"federalState":{"key":"06","name":"Hessen"}},{"name":"Falkensteiner Str.","postalCode":"08261","locality":"Schöneck/Vogtl.","municipality":{"key":"14523370","name":"Schöneck/Vogtl., Stadt","type":"Stadt"},"district":{"key":"14523","name":"Vogtlandkreis","type":"Landkreis"},"federalState":{"key":"14","name":"Sachsen"}},{"name":"Falltorstr.","postalCode":"61137","locality":"Schöneck","municipality":{"key":"06435026","name":"Schöneck","type":"Kreisangehörige_Gemeinde"},"district":{"key":"06435","name":"Main-Kinzig-Kreis","type":"Landkreis"},"federalState":{"key":"06","name":"Hessen"}},{"name":"Fasanenstr.","postalCode":"61137","locality":"Schöneck","municipality":{"key":"06435026","name":"Schöneck","type":"Kreisangehörige_Gemeinde"},"district":{"key":"06435","name":"Main-Kinzig-Kreis","type":"Landkreis"},"federalState":{"key":"06","name":"Hessen"}},{"name":"Feldbergstr.","postalCode":"61137","locality":"Schöneck","municipality":{"key":"06435026","name":"Schöneck","type":"Kreisangehörige_Gemeinde"},"district":{"key":"06435","name":"Main-Kinzig-Kreis","type":"Landkreis"},"federalState":{"key":"06","name":"Hessen"}},{"name":"Feldstr.","postalCode":"08261","locality":"Schöneck/Vogtl.","municipality":{"key":"14523370","name":"Schöneck/Vogtl., Stadt","type":"Stadt"},"district":{"key":"14523","name":"Vogtlandkreis","type":"Landkreis"},"federalState":{"key":"14","name":"Sachsen"}},{"name":"Feldstr.","postalCode":"61137","locality":"Schöneck","municipality":{"key":"06435026","name":"Schöneck","type":"Kreisangehörige_Gemeinde"},"district":{"key":"06435","name":"Main-Kinzig-Kreis","type":"Landkreis"},"federalState":{"key":"06","name":"Hessen"}},{"name":"Finkenweg","postalCode":"61137","locality":"Schöneck","municipality":{"key":"06435026","name":"Schöneck","type":"Kreisangehörige_Gemeinde"},"district":{"key":"06435","name":"Main-Kinzig-Kreis","type":"Landkreis"},"federalState":{"key":"06","name":"Hessen"}},{"name":"Fixengasse","postalCode":"61137","locality":"Schöneck","municipality":{"key":"06435026","name":"Schöneck","type":"Kreisangehörige_Gemeinde"},"district":{"key":"06435","name":"Main-Kinzig-Kreis","type":"Landkreis"},"federalState":{"key":"06","name":"Hessen"}},{"name":"Forstberg","postalCode":"54614","locality":"Schönecken","municipality":{"key":"07232304","name":"Schönecken","type":"Kreisangehörige_Gemeinde"},"district":{"key":"07232","name":"Eifelkreis Bitburg-Prüm","type":"Landkreis"},"federalState":{"key":"07","name":"Rheinland-Pfalz"}},{"name":"Forststr.","postalCode":"08261","locality":"Schöneck/Vogtl.","municipality":{"key":"14523370","name":"Schöneck/Vogtl., Stadt","type":"Stadt"},"district":{"key":"14523","name":"Vogtlandkreis","type":"Landkreis"},"federalState":{"key":"14","name":"Sachsen"}},{"name":"Frankfurter Str.","postalCode":"61137","locality":"Schöneck","municipality":{"key":"06435026","name":"Schöneck","type":"Kreisangehörige_Gemeinde"},"district":{"key":"06435","name":"Main-Kinzig-Kreis","type":"Landkreis"},"federalState":{"key":"06","name":"Hessen"}},{"name":"Frauengartenring","postalCode":"61137","locality":"Schöneck","municipality":{"key":"06435026","name":"Schöneck","type":"Kreisangehörige_Gemeinde"},"district":{"key":"06435","name":"Main-Kinzig-Kreis","type":"Landkreis"},"federalState":{"key":"06","name":"Hessen"}},{"name":"Friedhofstr.","postalCode":"61137","locality":"Schöneck","municipality":{"key":"06435026","name":"Schöneck","type":"Kreisangehörige_Gemeinde"},"district":{"key":"06435","name":"Main-Kinzig-Kreis","type":"Landkreis"},"federalState":{"key":"06","name":"Hessen"}},{"name":"Friedhofsweg","postalCode":"08261","locality":"Schöneck/Vogtl.","municipality":{"key":"14523370","name":"Schöneck/Vogtl., Stadt","type":"Stadt"},"district":{"key":"14523","name":"Vogtlandkreis","type":"Landkreis"},"federalState":{"key":"14","name":"Sachsen"}},{"name":"Friedrichstr.","postalCode":"61137","locality":"Schöneck","municipality":{"key":"06435026","name":"Schöneck","type":"Kreisangehörige_Gemeinde"},"district":{"key":"06435","name":"Main-Kinzig-Kreis","type":"Landkreis"},"federalState":{"key":"06","name":"Hessen"}},{"name":"Friesenweg","postalCode":"61137","locality":"Schöneck","municipality":{"key":"06435026","name":"Schöneck","type":"Kreisangehörige_Gemeinde"},"district":{"key":"06435","name":"Main-Kinzig-Kreis","type":"Landkreis"},"federalState":{"key":"06","name":"Hessen"}},{"name":"Fröbelstr.","postalCode":"61137","locality":"Schöneck","municipality":{"key":"06435026","name":"Schöneck","type":"Kreisangehörige_Gemeinde"},"district":{"key":"06435","name":"Main-Kinzig-Kreis","type":"Landkreis"},"federalState":{"key":"06","name":"Hessen"}},{"name":"Froschbachstr.","postalCode":"61137","locality":"Schöneck","municipality":{"key":"06435026","name":"Schöneck","type":"Kreisangehörige_Gemeinde"},"district":{"key":"06435","name":"Main-Kinzig-Kreis","type":"Landkreis"},"federalState":{"key":"06","name":"Hessen"}},{"name":"Fuchsweg","postalCode":"61137","locality":"Schöneck","municipality":{"key":"06435026","name":"Schöneck","type":"Kreisangehörige_Gemeinde"},"district":{"key":"06435","name":"Main-Kinzig-Kreis","type":"Landkreis"},"federalState":{"key":"06","name":"Hessen"}},{"name":"Gabelsberger Str.","postalCode":"08261","locality":"Schöneck/Vogtl.","municipality":{"key":"14523370","name":"Schöneck/Vogtl., Stadt","type":"Stadt"},"district":{"key":"14523","name":"Vogtlandkreis","type":"Landkreis"},"federalState":{"key":"14","name":"Sachsen"}},{"name":"Gartenanlage Schöneck","postalCode":"08261","locality":"Schöneck/Vogtl.","municipality":{"key":"14523370","name":"Schöneck/Vogtl., Stadt","type":"Stadt"},"district":{"key":"14523","name":"Vogtlandkreis","type":"Landkreis"},"federalState":{"key":"14","name":"Sachsen"}},{"name":"Gartenstr.","postalCode":"08261","locality":"Schöneck/Vogtl.","municipality":{"key":"14523370","name":"Schöneck/Vogtl., Stadt","type":"Stadt"},"district":{"key":"14523","name":"Vogtlandkreis","type":"Landkreis"},"federalState":{"key":"14","name":"Sachsen"}},{"name":"Gartenstr.","postalCode":"61137","locality":"Schöneck","municipality":{"key":"06435026","name":"Schöneck","type":"Kreisangehörige_Gemeinde"},"district":{"key":"06435","name":"Main-Kinzig-Kreis","type":"Landkreis"},"federalState":{"key":"06","name":"Hessen"}},{"name":"Gerngraben","postalCode":"61137","locality":"Schöneck","municipality":{"key":"06435026","name":"Schöneck","type":"Kreisangehörige_Gemeinde"},"district":{"key":"06435","name":"Main-Kinzig-Kreis","type":"Landkreis"},"federalState":{"key":"06","name":"Hessen"}},{"name":"Geschwister-Scholl-Str.","postalCode":"08261","locality":"Schöneck/Vogtl.","municipality":{"key":"14523370","name":"Schöneck/Vogtl., Stadt","type":"Stadt"},"district":{"key":"14523","name":"Vogtlandkreis","type":"Landkreis"},"federalState":{"key":"14","name":"Sachsen"}},{"name":"Glasbachweg","postalCode":"08261","locality":"Schöneck/Vogtl.","municipality":{"key":"14523370","name":"Schöneck/Vogtl., Stadt","type":"Stadt"},"district":{"key":"14523","name":"Vogtlandkreis","type":"Landkreis"},"federalState":{"key":"14","name":"Sachsen"}},{"name":"Glockenstr.","postalCode":"61137","locality":"Schöneck","municipality":{"key":"06435026","name":"Schöneck","type":"Kreisangehörige_Gemeinde"},"district":{"key":"06435","name":"Main-Kinzig-Kreis","type":"Landkreis"},"federalState":{"key":"06","name":"Hessen"}},{"name":"Graf-Hartard-Str.","postalCode":"54614","locality":"Schönecken","municipality":{"key":"07232304","name":"Schönecken","type":"Kreisangehörige_Gemeinde"},"district":{"key":"07232","name":"Eifelkreis Bitburg-Prüm","type":"Landkreis"},"federalState":{"key":"07","name":"Rheinland-Pfalz"}},{"name":"Graf-Heinrich-Str.","postalCode":"54614","locality":"Schönecken","municipality":{"key":"07232304","name":"Schönecken","type":"Kreisangehörige_Gemeinde"},"district":{"key":"07232","name":"Eifelkreis Bitburg-Prüm","type":"Landkreis"},"federalState":{"key":"07","name":"Rheinland-Pfalz"}},{"name":"Grünbacher Weg","postalCode":"08261","locality":"Schöneck/Vogtl.","municipality":{"key":"14523370","name":"Schöneck/Vogtl., Stadt","type":"Stadt"},"district":{"key":"14523","name":"Vogtlandkreis","type":"Landkreis"},"federalState":{"key":"14","name":"Sachsen"}},{"name":"Grüner Weg","postalCode":"08261","locality":"Schöneck/Vogtl.","municipality":{"key":"14523370","name":"Schöneck/Vogtl., Stadt","type":"Stadt"},"district":{"key":"14523","name":"Vogtlandkreis","type":"Landkreis"},"federalState":{"key":"14","name":"Sachsen"}},{"name":"Gunzener Str.","postalCode":"08261","locality":"Schöneck/Vogtl.","municipality":{"key":"14523370","name":"Schöneck/Vogtl., Stadt","type":"Stadt"},"district":{"key":"14523","name":"Vogtlandkreis","type":"Landkreis"},"federalState":{"key":"14","name":"Sachsen"}},{"name":"Haidegasse","postalCode":"61137","locality":"Schöneck","municipality":{"key":"06435026","name":"Schöneck","type":"Kreisangehörige_Gemeinde"},"district":{"key":"06435","name":"Main-Kinzig-Kreis","type":"Landkreis"},"federalState":{"key":"06","name":"Hessen"}},{"name":"Hainstr.","postalCode":"61137","locality":"Schöneck","municipality":{"key":"06435026","name":"Schöneck","type":"Kreisangehörige_Gemeinde"},"district":{"key":"06435","name":"Main-Kinzig-Kreis","type":"Landkreis"},"federalState":{"key":"06","name":"Hessen"}},{"name":"Hamburger Str.","postalCode":"61137","locality":"Schöneck","municipality":{"key":"06435026","name":"Schöneck","type":"Kreisangehörige_Gemeinde"},"district":{"key":"06435","name":"Main-Kinzig-Kreis","type":"Landkreis"},"federalState":{"key":"06","name":"Hessen"}},{"name":"Hämmerling","postalCode":"08261","locality":"Schöneck/Vogtl.","municipality":{"key":"14523370","name":"Schöneck/Vogtl., Stadt","type":"Stadt"},"district":{"key":"14523","name":"Vogtlandkreis","type":"Landkreis"},"federalState":{"key":"14","name":"Sachsen"}},{"name":"Hanauer Pfad","postalCode":"61137","locality":"Schöneck","municipality":{"key":"06435026","name":"Schöneck","type":"Kreisangehörige_Gemeinde"},"district":{"key":"06435","name":"Main-Kinzig-Kreis","type":"Landkreis"},"federalState":{"key":"06","name":"Hessen"}},{"name":"Hanauer Str.","postalCode":"61137","locality":"Schöneck","municipality":{"key":"06435026","name":"Schöneck","type":"Kreisangehörige_Gemeinde"},"district":{"key":"06435","name":"Main-Kinzig-Kreis","type":"Landkreis"},"federalState":{"key":"06","name":"Hessen"}},{"name":"Händelweg","postalCode":"61137","locality":"Schöneck","municipality":{"key":"06435026","name":"Schöneck","type":"Kreisangehörige_Gemeinde"},"district":{"key":"06435","name":"Main-Kinzig-Kreis","type":"Landkreis"},"federalState":{"key":"06","name":"Hessen"}},{"name":"Haselmühlenweg","postalCode":"08261","locality":"Schöneck/Vogtl.","municipality":{"key":"14523370","name":"Schöneck/Vogtl., Stadt","type":"Stadt"},"district":{"key":"14523","name":"Vogtlandkreis","type":"Landkreis"},"federalState":{"key":"14","name":"Sachsen"}},{"name":"Haubrunnen","postalCode":"54614","locality":"Schönecken","municipality":{"key":"07232304","name":"Schönecken","type":"Kreisangehörige_Gemeinde"},"district":{"key":"07232","name":"Eifelkreis Bitburg-Prüm","type":"Landkreis"},"federalState":{"key":"07","name":"Rheinland-Pfalz"}},{"name":"Hauenborn","postalCode":"54614","locality":"Schönecken","municipality":{"key":"07232304","name":"Schönecken","type":"Kreisangehörige_Gemeinde"},"district":{"key":"07232","name":"Eifelkreis Bitburg-Prüm","type":"Landkreis"},"federalState":{"key":"07","name":"Rheinland-Pfalz"}},{"name":"Hauptstr.","postalCode":"08261","locality":"Schöneck/Vogtl.","municipality":{"key":"14523370","name":"Schöneck/Vogtl., Stadt","type":"Stadt"},"district":{"key":"14523","name":"Vogtlandkreis","type":"Landkreis"},"federalState":{"key":"14","name":"Sachsen"}},{"name":"Heiligenstr.","postalCode":"61137","locality":"Schöneck","municipality":{"key":"06435026","name":"Schöneck","type":"Kreisangehörige_Gemeinde"},"district":{"key":"06435","name":"Main-Kinzig-Kreis","type":"Landkreis"},"federalState":{"key":"06","name":"Hessen"}},{"name":"Heinrich-Schaub-Weg","postalCode":"61137","locality":"Schöneck","municipality":{"key":"06435026","name":"Schöneck","type":"Kreisangehörige_Gemeinde"},"district":{"key":"06435","name":"Main-Kinzig-Kreis","type":"Landkreis"},"federalState":{"key":"06","name":"Hessen"}},{"name":"Heinz-Herbert-Karry-Str.","postalCode":"61137","locality":"Schöneck","municipality":{"key":"06435026","name":"Schöneck","type":"Kreisangehörige_Gemeinde"},"district":{"key":"06435","name":"Main-Kinzig-Kreis","type":"Landkreis"},"federalState":{"key":"06","name":"Hessen"}},{"name":"Herchenbach","postalCode":"54614","locality":"Schönecken","municipality":{"key":"07232304","name":"Schönecken","type":"Kreisangehörige_Gemeinde"},"district":{"key":"07232","name":"Eifelkreis Bitburg-Prüm","type":"Landkreis"},"federalState":{"key":"07","name":"Rheinland-Pfalz"}},{"name":"Herrnhofstr.","postalCode":"61137","locality":"Schöneck","municipality":{"key":"06435026","name":"Schöneck","type":"Kreisangehörige_Gemeinde"},"district":{"key":"06435","name":"Main-Kinzig-Kreis","type":"Landkreis"},"federalState":{"key":"06","name":"Hessen"}},{"name":"Hessenstr.","postalCode":"61137","locality":"Schöneck","municipality":{"key":"06435026","name":"Schöneck","type":"Kreisangehörige_Gemeinde"},"district":{"key":"06435","name":"Main-Kinzig-Kreis","type":"Landkreis"},"federalState":{"key":"06","name":"Hessen"}},{"name":"Heuweg","postalCode":"08261","locality":"Schöneck/Vogtl.","municipality":{"key":"14523370","name":"Schöneck/Vogtl., Stadt","type":"Stadt"},"district":{"key":"14523","name":"Vogtlandkreis","type":"Landkreis"},"federalState":{"key":"14","name":"Sachsen"}},{"name":"Hinter den Zäunen","postalCode":"61137","locality":"Schöneck","municipality":{"key":"06435026","name":"Schöneck","type":"Kreisangehörige_Gemeinde"},"district":{"key":"06435","name":"Main-Kinzig-Kreis","type":"Landkreis"},"federalState":{"key":"06","name":"Hessen"}},{"name":"Hinter der Kirche","postalCode":"54614","locality":"Schönecken","municipality":{"key":"07232304","name":"Schönecken","type":"Kreisangehörige_Gemeinde"},"district":{"key":"07232","name":"Eifelkreis Bitburg-Prüm","type":"Landkreis"},"federalState":{"key":"07","name":"Rheinland-Pfalz"}},{"name":"Hinter Isabellen","postalCode":"54614","locality":"Schönecken","municipality":{"key":"07232304","name":"Schönecken","type":"Kreisangehörige_Gemeinde"},"district":{"key":"07232","name":"Eifelkreis Bitburg-Prüm","type":"Landkreis"},"federalState":{"key":"07","name":"Rheinland-Pfalz"}},{"name":"Hochstädter Str.","postalCode":"61137","locality":"Schöneck","municipality":{"key":"06435026","name":"Schöneck","type":"Kreisangehörige_Gemeinde"},"district":{"key":"06435","name":"Main-Kinzig-Kreis","type":"Landkreis"},"federalState":{"key":"06","name":"Hessen"}},{"name":"Höhenstr.","postalCode":"61137","locality":"Schöneck","municipality":{"key":"06435026","name":"Schöneck","type":"Kreisangehörige_Gemeinde"},"district":{"key":"06435","name":"Main-Kinzig-Kreis","type":"Landkreis"},"federalState":{"key":"06","name":"Hessen"}},{"name":"Hohe Reuth","postalCode":"08261","locality":"Schöneck/Vogtl.","municipality":{"key":"14523370","name":"Schöneck/Vogtl., Stadt","type":"Stadt"},"district":{"key":"14523","name":"Vogtlandkreis","type":"Landkreis"},"federalState":{"key":"14","name":"Sachsen"}},{"name":"Hohe Str.","postalCode":"61137","locality":"Schöneck","municipality":{"key":"06435026","name":"Schöneck","type":"Kreisangehörige_Gemeinde"},"district":{"key":"06435","name":"Main-Kinzig-Kreis","type":"Landkreis"},"federalState":{"key":"06","name":"Hessen"}},{"name":"Hohe Str., Schautafel Via Regia","postalCode":"61137","locality":"Schöneck","municipality":{"key":"06435026","name":"Schöneck","type":"Kreisangehörige_Gemeinde"},"district":{"key":"06435","name":"Main-Kinzig-Kreis","type":"Landkreis"},"federalState":{"key":"06","name":"Hessen"}},{"name":"Hühnerbach","postalCode":"54614","locality":"Schönecken","municipality":{"key":"07232304","name":"Schönecken","type":"Kreisangehörige_Gemeinde"},"district":{"key":"07232","name":"Eifelkreis Bitburg-Prüm","type":"Landkreis"},"federalState":{"key":"07","name":"Rheinland-Pfalz"}},{"name":"Hüttenberg","postalCode":"61137","locality":"Schöneck","municipality":{"key":"06435026","name":"Schöneck","type":"Kreisangehörige_Gemeinde"},"district":{"key":"06435","name":"Main-Kinzig-Kreis","type":"Landkreis"},"federalState":{"key":"06","name":"Hessen"}},{"name":"Ichterberg","postalCode":"54614","locality":"Schönecken","municipality":{"key":"07232304","name":"Schönecken","type":"Kreisangehörige_Gemeinde"},"district":{"key":"07232","name":"Eifelkreis Bitburg-Prüm","type":"Landkreis"},"federalState":{"key":"07","name":"Rheinland-Pfalz"}},{"name":"Iltgesdell","postalCode":"54614","locality":"Schönecken","municipality":{"key":"07232304","name":"Schönecken","type":"Kreisangehörige_Gemeinde"},"district":{"key":"07232","name":"Eifelkreis Bitburg-Prüm","type":"Landkreis"},"federalState":{"key":"07","name":"Rheinland-Pfalz"}},{"name":"Im Adligen Hof","postalCode":"54614","locality":"Schönecken","municipality":{"key":"07232304","name":"Schönecken","type":"Kreisangehörige_Gemeinde"},"district":{"key":"07232","name":"Eifelkreis Bitburg-Prüm","type":"Landkreis"},"federalState":{"key":"07","name":"Rheinland-Pfalz"}},{"name":"Im Alten Hof","postalCode":"61137","locality":"Schöneck","municipality":{"key":"06435026","name":"Schöneck","type":"Kreisangehörige_Gemeinde"},"district":{"key":"06435","name":"Main-Kinzig-Kreis","type":"Landkreis"},"federalState":{"key":"06","name":"Hessen"}},{"name":"Im Brühl","postalCode":"54614","locality":"Schönecken","municipality":{"key":"07232304","name":"Schönecken","type":"Kreisangehörige_Gemeinde"},"district":{"key":"07232","name":"Eifelkreis Bitburg-Prüm","type":"Landkreis"},"federalState":{"key":"07","name":"Rheinland-Pfalz"}},{"name":"Im Flur","postalCode":"54614","locality":"Schönecken","municipality":{"key":"07232304","name":"Schönecken","type":"Kreisangehörige_Gemeinde"},"district":{"key":"07232","name":"Eifelkreis Bitburg-Prüm","type":"Landkreis"},"federalState":{"key":"07","name":"Rheinland-Pfalz"}},{"name":"Im Gründchen","postalCode":"61137","locality":"Schöneck","municipality":{"key":"06435026","name":"Schöneck","type":"Kreisangehörige_Gemeinde"},"district":{"key":"06435","name":"Main-Kinzig-Kreis","type":"Landkreis"},"federalState":{"key":"06","name":"Hessen"}},{"name":"Im Kirchgarten","postalCode":"61137","locality":"Schöneck","municipality":{"key":"06435026","name":"Schöneck","type":"Kreisangehörige_Gemeinde"},"district":{"key":"06435","name":"Main-Kinzig-Kreis","type":"Landkreis"},"federalState":{"key":"06","name":"Hessen"}},{"name":"Im Kutscherhof","postalCode":"61137","locality":"Schöneck","municipality":{"key":"06435026","name":"Schöneck","type":"Kreisangehörige_Gemeinde"},"district":{"key":"06435","name":"Main-Kinzig-Kreis","type":"Landkreis"},"federalState":{"key":"06","name":"Hessen"}},{"name":"Im Ohlesband","postalCode":"54614","locality":"Schönecken","municipality":{"key":"07232304","name":"Schönecken","type":"Kreisangehörige_Gemeinde"},"district":{"key":"07232","name":"Eifelkreis Bitburg-Prüm","type":"Landkreis"},"federalState":{"key":"07","name":"Rheinland-Pfalz"}},{"name":"Im Paradiesgarten","postalCode":"61137","locality":"Schöneck","municipality":{"key":"06435026","name":"Schöneck","type":"Kreisangehörige_Gemeinde"},"district":{"key":"06435","name":"Main-Kinzig-Kreis","type":"Landkreis"},"federalState":{"key":"06","name":"Hessen"}},{"name":"Im Weimer","postalCode":"61137","locality":"Schöneck","municipality":{"key":"06435026","name":"Schöneck","type":"Kreisangehörige_Gemeinde"},"district":{"key":"06435","name":"Main-Kinzig-Kreis","type":"Landkreis"},"federalState":{"key":"06","name":"Hessen"}},{"name":"Im Winkel","postalCode":"54614","locality":"Schönecken","municipality":{"key":"07232304","name":"Schönecken","type":"Kreisangehörige_Gemeinde"},"district":{"key":"07232","name":"Eifelkreis Bitburg-Prüm","type":"Landkreis"},"federalState":{"key":"07","name":"Rheinland-Pfalz"}},{"name":"In der Orangerie","postalCode":"61137","locality":"Schöneck","municipality":{"key":"06435026","name":"Schöneck","type":"Kreisangehörige_Gemeinde"},"district":{"key":"06435","name":"Main-Kinzig-Kreis","type":"Landkreis"},"federalState":{"key":"06","name":"Hessen"}},{"name":"In der Treft","postalCode":"54614","locality":"Schönecken","municipality":{"key":"07232304","name":"Schönecken","type":"Kreisangehörige_Gemeinde"},"district":{"key":"07232","name":"Eifelkreis Bitburg-Prüm","type":"Landkreis"},"federalState":{"key":"07","name":"Rheinland-Pfalz"}},{"name":"Industriestr.","postalCode":"54614","locality":"Schönecken","municipality":{"key":"07232304","name":"Schönecken","type":"Kreisangehörige_Gemeinde"},"district":{"key":"07232","name":"Eifelkreis Bitburg-Prüm","type":"Landkreis"},"federalState":{"key":"07","name":"Rheinland-Pfalz"}},{"name":"Johannisberg","postalCode":"61137","locality":"Schöneck","municipality":{"key":"06435026","name":"Schöneck","type":"Kreisangehörige_Gemeinde"},"district":{"key":"06435","name":"Main-Kinzig-Kreis","type":"Landkreis"},"federalState":{"key":"06","name":"Hessen"}},{"name":"Johann-Sebastian-Bach-Str.","postalCode":"61137","locality":"Schöneck","municipality":{"key":"06435026","name":"Schöneck","type":"Kreisangehörige_Gemeinde"},"district":{"key":"06435","name":"Main-Kinzig-Kreis","type":"Landkreis"},"federalState":{"key":"06","name":"Hessen"}},{"name":"John-F.-Kennedy-Str.","postalCode":"61137","locality":"Schöneck","municipality":{"key":"06435026","name":"Schöneck","type":"Kreisangehörige_Gemeinde"},"district":{"key":"06435","name":"Main-Kinzig-Kreis","type":"Landkreis"},"federalState":{"key":"06","name":"Hessen"}},{"name":"Karbener Weg","postalCode":"61137","locality":"Schöneck","municipality":{"key":"06435026","name":"Schöneck","type":"Kreisangehörige_Gemeinde"},"district":{"key":"06435","name":"Main-Kinzig-Kreis","type":"Landkreis"},"federalState":{"key":"06","name":"Hessen"}},{"name":"Karlsbader Str.","postalCode":"61137","locality":"Schöneck","municipality":{"key":"06435026","name":"Schöneck","type":"Kreisangehörige_Gemeinde"},"district":{"key":"06435","name":"Main-Kinzig-Kreis","type":"Landkreis"},"federalState":{"key":"06","name":"Hessen"}},{"name":"Kärnerweg","postalCode":"08261","locality":"Schöneck/Vogtl.","municipality":{"key":"14523370","name":"Schöneck/Vogtl., Stadt","type":"Stadt"},"district":{"key":"14523","name":"Vogtlandkreis","type":"Landkreis"},"federalState":{"key":"14","name":"Sachsen"}},{"name":"Kärrnerstr.","postalCode":"08261","locality":"Schöneck/Vogtl.","municipality":{"key":"14523370","name":"Schöneck/Vogtl., Stadt","type":"Stadt"},"district":{"key":"14523","name":"Vogtlandkreis","type":"Landkreis"},"federalState":{"key":"14","name":"Sachsen"}},{"name":"Käthe-Kollwitz-Ring","postalCode":"61137","locality":"Schöneck","municipality":{"key":"06435026","name":"Schöneck","type":"Kreisangehörige_Gemeinde"},"district":{"key":"06435","name":"Main-Kinzig-Kreis","type":"Landkreis"},"federalState":{"key":"06","name":"Hessen"}},{"name":"Kieler Str.","postalCode":"61137","locality":"Schöneck","municipality":{"key":"06435026","name":"Schöneck","type":"Kreisangehörige_Gemeinde"},"district":{"key":"06435","name":"Main-Kinzig-Kreis","type":"Landkreis"},"federalState":{"key":"06","name":"Hessen"}},{"name":"Kilianstädter Str.","postalCode":"61137","locality":"Schöneck","municipality":{"key":"06435026","name":"Schöneck","type":"Kreisangehörige_Gemeinde"},"district":{"key":"06435","name":"Main-Kinzig-Kreis","type":"Landkreis"},"federalState":{"key":"06","name":"Hessen"}},{"name":"Kindergartengelände","postalCode":"08261","locality":"Schöneck/Vogtl.","municipality":{"key":"14523370","name":"Schöneck/Vogtl., Stadt","type":"Stadt"},"district":{"key":"14523","name":"Vogtlandkreis","type":"Landkreis"},"federalState":{"key":"14","name":"Sachsen"}},{"name":"Kinzigstr.","postalCode":"61137","locality":"Schöneck","municipality":{"key":"06435026","name":"Schöneck","type":"Kreisangehörige_Gemeinde"},"district":{"key":"06435","name":"Main-Kinzig-Kreis","type":"Landkreis"},"federalState":{"key":"06","name":"Hessen"}},{"name":"Kirchbergstr.","postalCode":"61137","locality":"Schöneck","municipality":{"key":"06435026","name":"Schöneck","type":"Kreisangehörige_Gemeinde"},"district":{"key":"06435","name":"Main-Kinzig-Kreis","type":"Landkreis"},"federalState":{"key":"06","name":"Hessen"}},{"name":"Kirchgasse","postalCode":"61137","locality":"Schöneck","municipality":{"key":"06435026","name":"Schöneck","type":"Kreisangehörige_Gemeinde"},"district":{"key":"06435","name":"Main-Kinzig-Kreis","type":"Landkreis"},"federalState":{"key":"06","name":"Hessen"}},{"name":"Kirchplatz","postalCode":"08261","locality":"Schöneck/Vogtl.","municipality":{"key":"14523370","name":"Schöneck/Vogtl., Stadt","type":"Stadt"},"district":{"key":"14523","name":"Vogtlandkreis","type":"Landkreis"},"federalState":{"key":"14","name":"Sachsen"}},{"name":"Kirchplatz","postalCode":"61137","locality":"Schöneck","municipality":{"key":"06435026","name":"Schöneck","type":"Kreisangehörige_Gemeinde"},"district":{"key":"06435","name":"Main-Kinzig-Kreis","type":"Landkreis"},"federalState":{"key":"06","name":"Hessen"}},{"name":"Kirchsteig","postalCode":"08261","locality":"Schöneck/Vogtl.","municipality":{"key":"14523370","name":"Schöneck/Vogtl., Stadt","type":"Stadt"},"district":{"key":"14523","name":"Vogtlandkreis","type":"Landkreis"},"federalState":{"key":"14","name":"Sachsen"}},{"name":"Kirchstr.","postalCode":"08261","locality":"Schöneck/Vogtl.","municipality":{"key":"14523370","name":"Schöneck/Vogtl., Stadt","type":"Stadt"},"district":{"key":"14523","name":"Vogtlandkreis","type":"Landkreis"},"federalState":{"key":"14","name":"Sachsen"}},{"name":"Kleine Hainstr.","postalCode":"61137","locality":"Schöneck","municipality":{"key":"06435026","name":"Schöneck","type":"Kreisangehörige_Gemeinde"},"district":{"key":"06435","name":"Main-Kinzig-Kreis","type":"Landkreis"},"federalState":{"key":"06","name":"Hessen"}},{"name":"Kleine Wingertstr.","postalCode":"61137","locality":"Schöneck","municipality":{"key":"06435026","name":"Schöneck","type":"Kreisangehörige_Gemeinde"},"district":{"key":"06435","name":"Main-Kinzig-Kreis","type":"Landkreis"},"federalState":{"key":"06","name":"Hessen"}},{"name":"Klingenthaler Str.","postalCode":"08261","locality":"Schöneck/Vogtl.","municipality":{"key":"14523370","name":"Schöneck/Vogtl., Stadt","type":"Stadt"},"district":{"key":"14523","name":"Vogtlandkreis","type":"Landkreis"},"federalState":{"key":"14","name":"Sachsen"}},{"name":"Klingerstr.","postalCode":"08261","locality":"Schöneck/Vogtl.","municipality":{"key":"14523370","name":"Schöneck/Vogtl., Stadt","type":"Stadt"},"district":{"key":"14523","name":"Vogtlandkreis","type":"Landkreis"},"federalState":{"key":"14","name":"Sachsen"}},{"name":"Kolpingstr.","postalCode":"61137","locality":"Schöneck","municipality":{"key":"06435026","name":"Schöneck","type":"Kreisangehörige_Gemeinde"},"district":{"key":"06435","name":"Main-Kinzig-Kreis","type":"Landkreis"},"federalState":{"key":"06","name":"Hessen"}},{"name":"Königsberger Str.","postalCode":"61137","locality":"Schöneck","municipality":{"key":"06435026","name":"Schöneck","type":"Kreisangehörige_Gemeinde"},"district":{"key":"06435","name":"Main-Kinzig-Kreis","type":"Landkreis"},"federalState":{"key":"06","name":"Hessen"}},{"name":"Korna","postalCode":"08261","locality":"Schöneck/Vogtl.","municipality":{"key":"14523370","name":"Schöneck/Vogtl., Stadt","type":"Stadt"},"district":{"key":"14523","name":"Vogtlandkreis","type":"Landkreis"},"federalState":{"key":"14","name":"Sachsen"}},{"name":"Kornaer Str.","postalCode":"08261","locality":"Schöneck/Vogtl.","municipality":{"key":"14523370","name":"Schöneck/Vogtl., Stadt","type":"Stadt"},"district":{"key":"14523","name":"Vogtlandkreis","type":"Landkreis"},"federalState":{"key":"14","name":"Sachsen"}},{"name":"Kornaer Weg","postalCode":"08261","locality":"Schöneck/Vogtl.","municipality":{"key":"14523370","name":"Schöneck/Vogtl., Stadt","type":"Stadt"},"district":{"key":"14523","name":"Vogtlandkreis","type":"Landkreis"},"federalState":{"key":"14","name":"Sachsen"}},{"name":"Kranzbergring","postalCode":"61137","locality":"Schöneck","municipality":{"key":"06435026","name":"Schöneck","type":"Kreisangehörige_Gemeinde"},"district":{"key":"06435","name":"Main-Kinzig-Kreis","type":"Landkreis"},"federalState":{"key":"06","name":"Hessen"}},{"name":"Krumme Gasse","postalCode":"08261","locality":"Schöneck/Vogtl.","municipality":{"key":"14523370","name":"Schöneck/Vogtl., Stadt","type":"Stadt"},"district":{"key":"14523","name":"Vogtlandkreis","type":"Landkreis"},"federalState":{"key":"14","name":"Sachsen"}},{"name":"Kurt-Schumacher-Str.","postalCode":"61137","locality":"Schöneck","municipality":{"key":"06435026","name":"Schöneck","type":"Kreisangehörige_Gemeinde"},"district":{"key":"06435","name":"Main-Kinzig-Kreis","type":"Landkreis"},"federalState":{"key":"06","name":"Hessen"}},{"name":"Lange Gasse","postalCode":"08261","locality":"Schöneck/Vogtl.","municipality":{"key":"14523370","name":"Schöneck/Vogtl., Stadt","type":"Stadt"},"district":{"key":"14523","name":"Vogtlandkreis","type":"Landkreis"},"federalState":{"key":"14","name":"Sachsen"}},{"name":"Leipziger Str.","postalCode":"61137","locality":"Schöneck","municipality":{"key":"06435026","name":"Schöneck","type":"Kreisangehörige_Gemeinde"},"district":{"key":"06435","name":"Main-Kinzig-Kreis","type":"Landkreis"},"federalState":{"key":"06","name":"Hessen"}},{"name":"Lerchenweg","postalCode":"61137","locality":"Schöneck","municipality":{"key":"06435026","name":"Schöneck","type":"Kreisangehörige_Gemeinde"},"district":{"key":"06435","name":"Main-Kinzig-Kreis","type":"Landkreis"},"federalState":{"key":"06","name":"Hessen"}},{"name":"Lessingstr.","postalCode":"61137","locality":"Schöneck","municipality":{"key":"06435026","name":"Schöneck","type":"Kreisangehörige_Gemeinde"},"district":{"key":"06435","name":"Main-Kinzig-Kreis","type":"Landkreis"},"federalState":{"key":"06","name":"Hessen"}},{"name":"Lindenstr.","postalCode":"54614","locality":"Schönecken","municipality":{"key":"07232304","name":"Schönecken","type":"Kreisangehörige_Gemeinde"},"district":{"key":"07232","name":"Eifelkreis Bitburg-Prüm","type":"Landkreis"},"federalState":{"key":"07","name":"Rheinland-Pfalz"}},{"name":"Lindenweg","postalCode":"61137","locality":"Schöneck","municipality":{"key":"06435026","name":"Schöneck","type":"Kreisangehörige_Gemeinde"},"district":{"key":"06435","name":"Main-Kinzig-Kreis","type":"Landkreis"},"federalState":{"key":"06","name":"Hessen"}},{"name":"Ludwig-Erhard-Str.","postalCode":"61137","locality":"Schöneck","municipality":{"key":"06435026","name":"Schöneck","type":"Kreisangehörige_Gemeinde"},"district":{"key":"06435","name":"Main-Kinzig-Kreis","type":"Landkreis"},"federalState":{"key":"06","name":"Hessen"}},{"name":"Mangelsdorfstr.","postalCode":"08261","locality":"Schöneck/Vogtl.","municipality":{"key":"14523370","name":"Schöneck/Vogtl., Stadt","type":"Stadt"},"district":{"key":"14523","name":"Vogtlandkreis","type":"Landkreis"},"federalState":{"key":"14","name":"Sachsen"}},{"name":"Marieneyer Str.","postalCode":"08261","locality":"Schöneck/Vogtl.","municipality":{"key":"14523370","name":"Schöneck/Vogtl., Stadt","type":"Stadt"},"district":{"key":"14523","name":"Vogtlandkreis","type":"Landkreis"},"federalState":{"key":"14","name":"Sachsen"}},{"name":"Marie-von-Oriola-Str.","postalCode":"61137","locality":"Schöneck","municipality":{"key":"06435026","name":"Schöneck","type":"Kreisangehörige_Gemeinde"},"district":{"key":"06435","name":"Main-Kinzig-Kreis","type":"Landkreis"},"federalState":{"key":"06","name":"Hessen"}},{"name":"Martin-Luther-Ring","postalCode":"61137","locality":"Schöneck","municipality":{"key":"06435026","name":"Schöneck","type":"Kreisangehörige_Gemeinde"},"district":{"key":"06435","name":"Main-Kinzig-Kreis","type":"Landkreis"},"federalState":{"key":"06","name":"Hessen"}},{"name":"Meilerweg","postalCode":"08261","locality":"Schöneck/Vogtl.","municipality":{"key":"14523370","name":"Schöneck/Vogtl., Stadt","type":"Stadt"},"district":{"key":"14523","name":"Vogtlandkreis","type":"Landkreis"},"federalState":{"key":"14","name":"Sachsen"}},{"name":"Minetsgasse","postalCode":"61137","locality":"Schöneck","municipality":{"key":"06435026","name":"Schöneck","type":"Kreisangehörige_Gemeinde"},"district":{"key":"06435","name":"Main-Kinzig-Kreis","type":"Landkreis"},"federalState":{"key":"06","name":"Hessen"}},{"name":"Mittelstr.","postalCode":"08261","locality":"Schöneck/Vogtl.","municipality":{"key":"14523370","name":"Schöneck/Vogtl., Stadt","type":"Stadt"},"district":{"key":"14523","name":"Vogtlandkreis","type":"Landkreis"},"federalState":{"key":"14","name":"Sachsen"}},{"name":"Mittlerer Weg","postalCode":"08261","locality":"Schöneck/Vogtl.","municipality":{"key":"14523370","name":"Schöneck/Vogtl., Stadt","type":"Stadt"},"district":{"key":"14523","name":"Vogtlandkreis","type":"Landkreis"},"federalState":{"key":"14","name":"Sachsen"}},{"name":"Mozartstr.","postalCode":"61137","locality":"Schöneck","municipality":{"key":"06435026","name":"Schöneck","type":"Kreisangehörige_Gemeinde"},"district":{"key":"06435","name":"Main-Kinzig-Kreis","type":"Landkreis"},"federalState":{"key":"06","name":"Hessen"}},{"name":"Muckenmühlenweg","postalCode":"08261","locality":"Schöneck/Vogtl.","municipality":{"key":"14523370","name":"Schöneck/Vogtl., Stadt","type":"Stadt"},"district":{"key":"14523","name":"Vogtlandkreis","type":"Landkreis"},"federalState":{"key":"14","name":"Sachsen"}},{"name":"Mühlbergweg","postalCode":"61137","locality":"Schöneck","municipality":{"key":"06435026","name":"Schöneck","type":"Kreisangehörige_Gemeinde"},"district":{"key":"06435","name":"Main-Kinzig-Kreis","type":"Landkreis"},"federalState":{"key":"06","name":"Hessen"}},{"name":"Mühlenweg","postalCode":"54614","locality":"Schönecken","municipality":{"key":"07232304","name":"Schönecken","type":"Kreisangehörige_Gemeinde"},"district":{"key":"07232","name":"Eifelkreis Bitburg-Prüm","type":"Landkreis"},"federalState":{"key":"07","name":"Rheinland-Pfalz"}},{"name":"Mühlsteig","postalCode":"08261","locality":"Schöneck/Vogtl.","municipality":{"key":"14523370","name":"Schöneck/Vogtl., Stadt","type":"Stadt"},"district":{"key":"14523","name":"Vogtlandkreis","type":"Landkreis"},"federalState":{"key":"14","name":"Sachsen"}},{"name":"Mühlstr.","postalCode":"61137","locality":"Schöneck","municipality":{"key":"06435026","name":"Schöneck","type":"Kreisangehörige_Gemeinde"},"district":{"key":"06435","name":"Main-Kinzig-Kreis","type":"Landkreis"},"federalState":{"key":"06","name":"Hessen"}},{"name":"Mühlweg","postalCode":"08261","locality":"Schöneck/Vogtl.","municipality":{"key":"14523370","name":"Schöneck/Vogtl., Stadt","type":"Stadt"},"district":{"key":"14523","name":"Vogtlandkreis","type":"Landkreis"},"federalState":{"key":"14","name":"Sachsen"}},{"name":"Muldenberger Str.","postalCode":"08261","locality":"Schöneck/Vogtl.","municipality":{"key":"14523370","name":"Schöneck/Vogtl., Stadt","type":"Stadt"},"district":{"key":"14523","name":"Vogtlandkreis","type":"Landkreis"},"federalState":{"key":"14","name":"Sachsen"}},{"name":"Muldenbrandweg","postalCode":"08261","locality":"Schöneck/Vogtl.","municipality":{"key":"14523370","name":"Schöneck/Vogtl., Stadt","type":"Stadt"},"district":{"key":"14523","name":"Vogtlandkreis","type":"Landkreis"},"federalState":{"key":"14","name":"Sachsen"}},{"name":"Musikantenradweg","postalCode":"08261","locality":"Schöneck/Vogtl.","municipality":{"key":"14523370","name":"Schöneck/Vogtl., Stadt","type":"Stadt"},"district":{"key":"14523","name":"Vogtlandkreis","type":"Landkreis"},"federalState":{"key":"14","name":"Sachsen"}},{"name":"Nachtweide","postalCode":"61137","locality":"Schöneck","municipality":{"key":"06435026","name":"Schöneck","type":"Kreisangehörige_Gemeinde"},"district":{"key":"06435","name":"Main-Kinzig-Kreis","type":"Landkreis"},"federalState":{"key":"06","name":"Hessen"}},{"name":"Neuer Weg","postalCode":"61137","locality":"Schöneck","municipality":{"key":"06435026","name":"Schöneck","type":"Kreisangehörige_Gemeinde"},"district":{"key":"06435","name":"Main-Kinzig-Kreis","type":"Landkreis"},"federalState":{"key":"06","name":"Hessen"}},{"name":"Neue Schulstr.","postalCode":"08261","locality":"Schöneck/Vogtl.","municipality":{"key":"14523370","name":"Schöneck/Vogtl., Stadt","type":"Stadt"},"district":{"key":"14523","name":"Vogtlandkreis","type":"Landkreis"},"federalState":{"key":"14","name":"Sachsen"}},{"name":"Neugasse","postalCode":"61137","locality":"Schöneck","municipality":{"key":"06435026","name":"Schöneck","type":"Kreisangehörige_Gemeinde"},"district":{"key":"06435","name":"Main-Kinzig-Kreis","type":"Landkreis"},"federalState":{"key":"06","name":"Hessen"}},{"name":"Nidderauer Str.","postalCode":"61137","locality":"Schöneck","municipality":{"key":"06435026","name":"Schöneck","type":"Kreisangehörige_Gemeinde"},"district":{"key":"06435","name":"Main-Kinzig-Kreis","type":"Landkreis"},"federalState":{"key":"06","name":"Hessen"}},{"name":"Niddertalring","postalCode":"61137","locality":"Schöneck","municipality":{"key":"06435026","name":"Schöneck","type":"Kreisangehörige_Gemeinde"},"district":{"key":"06435","name":"Main-Kinzig-Kreis","type":"Landkreis"},"federalState":{"key":"06","name":"Hessen"}},{"name":"Niederbergring","postalCode":"61137","locality":"Schöneck","municipality":{"key":"06435026","name":"Schöneck","type":"Kreisangehörige_Gemeinde"},"district":{"key":"06435","name":"Main-Kinzig-Kreis","type":"Landkreis"},"federalState":{"key":"06","name":"Hessen"}},{"name":"Nimstalstr.","postalCode":"54614","locality":"Schönecken","municipality":{"key":"07232304","name":"Schönecken","type":"Kreisangehörige_Gemeinde"},"district":{"key":"07232","name":"Eifelkreis Bitburg-Prüm","type":"Landkreis"},"federalState":{"key":"07","name":"Rheinland-Pfalz"}},{"name":"Nördliche Hauptstr.","postalCode":"61137","locality":"Schöneck","municipality":{"key":"06435026","name":"Schöneck","type":"Kreisangehörige_Gemeinde"},"district":{"key":"06435","name":"Main-Kinzig-Kreis","type":"Landkreis"},"federalState":{"key":"06","name":"Hessen"}},{"name":"Nordstr.","postalCode":"08261","locality":"Schöneck/Vogtl.","municipality":{"key":"14523370","name":"Schöneck/Vogtl., Stadt","type":"Stadt"},"district":{"key":"14523","name":"Vogtlandkreis","type":"Landkreis"},"federalState":{"key":"14","name":"Sachsen"}},{"name":"Obergasse","postalCode":"61137","locality":"Schöneck","municipality":{"key":"06435026","name":"Schöneck","type":"Kreisangehörige_Gemeinde"},"district":{"key":"06435","name":"Main-Kinzig-Kreis","type":"Landkreis"},"federalState":{"key":"06","name":"Hessen"}},{"name":"Obermarkt","postalCode":"08261","locality":"Schöneck/Vogtl.","municipality":{"key":"14523370","name":"Schöneck/Vogtl., Stadt","type":"Stadt"},"district":{"key":"14523","name":"Vogtlandkreis","type":"Landkreis"},"federalState":{"key":"14","name":"Sachsen"}},{"name":"Odenwaldstr.","postalCode":"61137","locality":"Schöneck","municipality":{"key":"06435026","name":"Schöneck","type":"Kreisangehörige_Gemeinde"},"district":{"key":"06435","name":"Main-Kinzig-Kreis","type":"Landkreis"},"federalState":{"key":"06","name":"Hessen"}},{"name":"Oelsnitzer Str.","postalCode":"08261","locality":"Schöneck/Vogtl.","municipality":{"key":"14523370","name":"Schöneck/Vogtl., Stadt","type":"Stadt"},"district":{"key":"14523","name":"Vogtlandkreis","type":"Landkreis"},"federalState":{"key":"14","name":"Sachsen"}},{"name":"Parkanlage Am Albertplatz","postalCode":"08261","locality":"Schöneck/Vogtl.","municipality":{"key":"14523370","name":"Schöneck/Vogtl., Stadt","type":"Stadt"},"district":{"key":"14523","name":"Vogtlandkreis","type":"Landkreis"},"federalState":{"key":"14","name":"Sachsen"}},{"name":"Parkanlage Am Stadtteich","postalCode":"08261","locality":"Schöneck/Vogtl.","municipality":{"key":"14523370","name":"Schöneck/Vogtl., Stadt","type":"Stadt"},"district":{"key":"14523","name":"Vogtlandkreis","type":"Landkreis"},"federalState":{"key":"14","name":"Sachsen"}},{"name":"Pechhüttenweg","postalCode":"08261","locality":"Schöneck/Vogtl.","municipality":{"key":"14523370","name":"Schöneck/Vogtl., Stadt","type":"Stadt"},"district":{"key":"14523","name":"Vogtlandkreis","type":"Landkreis"},"federalState":{"key":"14","name":"Sachsen"}},{"name":"Pestalozzistr.","postalCode":"61137","locality":"Schöneck","municipality":{"key":"06435026","name":"Schöneck","type":"Kreisangehörige_Gemeinde"},"district":{"key":"06435","name":"Main-Kinzig-Kreis","type":"Landkreis"},"federalState":{"key":"06","name":"Hessen"}},{"name":"Pfarrgasse","postalCode":"54614","locality":"Schönecken","municipality":{"key":"07232304","name":"Schönecken","type":"Kreisangehörige_Gemeinde"},"district":{"key":"07232","name":"Eifelkreis Bitburg-Prüm","type":"Landkreis"},"federalState":{"key":"07","name":"Rheinland-Pfalz"}},{"name":"Pfarrgasse","postalCode":"61137","locality":"Schöneck","municipality":{"key":"06435026","name":"Schöneck","type":"Kreisangehörige_Gemeinde"},"district":{"key":"06435","name":"Main-Kinzig-Kreis","type":"Landkreis"},"federalState":{"key":"06","name":"Hessen"}},{"name":"Philipp-Reis-Str.","postalCode":"61137","locality":"Schöneck","municipality":{"key":"06435026","name":"Schöneck","type":"Kreisangehörige_Gemeinde"},"district":{"key":"06435","name":"Main-Kinzig-Kreis","type":"Landkreis"},"federalState":{"key":"06","name":"Hessen"}},{"name":"Plattenweg","postalCode":"08261","locality":"Schöneck/Vogtl.","municipality":{"key":"14523370","name":"Schöneck/Vogtl., Stadt","type":"Stadt"},"district":{"key":"14523","name":"Vogtlandkreis","type":"Landkreis"},"federalState":{"key":"14","name":"Sachsen"}},{"name":"Platz der Republik","postalCode":"61137","locality":"Schöneck","municipality":{"key":"06435026","name":"Schöneck","type":"Kreisangehörige_Gemeinde"},"district":{"key":"06435","name":"Main-Kinzig-Kreis","type":"Landkreis"},"federalState":{"key":"06","name":"Hessen"}},{"name":"Pöhl","postalCode":"08261","locality":"Schöneck/Vogtl.","municipality":{"key":"14523370","name":"Schöneck/Vogtl., Stadt","type":"Stadt"},"district":{"key":"14523","name":"Vogtlandkreis","type":"Landkreis"},"federalState":{"key":"14","name":"Sachsen"}},{"name":"Pommernstr.","postalCode":"61137","locality":"Schöneck","municipality":{"key":"06435026","name":"Schöneck","type":"Kreisangehörige_Gemeinde"},"district":{"key":"06435","name":"Main-Kinzig-Kreis","type":"Landkreis"},"federalState":{"key":"06","name":"Hessen"}},{"name":"Querweg","postalCode":"08261","locality":"Schöneck/Vogtl.","municipality":{"key":"14523370","name":"Schöneck/Vogtl., Stadt","type":"Stadt"},"district":{"key":"14523","name":"Vogtlandkreis","type":"Landkreis"},"federalState":{"key":"14","name":"Sachsen"}},{"name":"Raasdorfer Str.","postalCode":"08261","locality":"Schöneck/Vogtl.","municipality":{"key":"14523370","name":"Schöneck/Vogtl., Stadt","type":"Stadt"},"district":{"key":"14523","name":"Vogtlandkreis","type":"Landkreis"},"federalState":{"key":"14","name":"Sachsen"}},{"name":"Raiffeisenstr.","postalCode":"61137","locality":"Schöneck","municipality":{"key":"06435026","name":"Schöneck","type":"Kreisangehörige_Gemeinde"},"district":{"key":"06435","name":"Main-Kinzig-Kreis","type":"Landkreis"},"federalState":{"key":"06","name":"Hessen"}},{"name":"Rammenfeld","postalCode":"54614","locality":"Schönecken","municipality":{"key":"07232304","name":"Schönecken","type":"Kreisangehörige_Gemeinde"},"district":{"key":"07232","name":"Eifelkreis Bitburg-Prüm","type":"Landkreis"},"federalState":{"key":"07","name":"Rheinland-Pfalz"}},{"name":"Rangenbergweg","postalCode":"61137","locality":"Schöneck","municipality":{"key":"06435026","name":"Schöneck","type":"Kreisangehörige_Gemeinde"},"district":{"key":"06435","name":"Main-Kinzig-Kreis","type":"Landkreis"},"federalState":{"key":"06","name":"Hessen"}},{"name":"Rautenberger Str.","postalCode":"61137","locality":"Schöneck","municipality":{"key":"06435026","name":"Schöneck","type":"Kreisangehörige_Gemeinde"},"district":{"key":"06435","name":"Main-Kinzig-Kreis","type":"Landkreis"},"federalState":{"key":"06","name":"Hessen"}},{"name":"Rendeler Pfad","postalCode":"61137","locality":"Schöneck","municipality":{"key":"06435026","name":"Schöneck","type":"Kreisangehörige_Gemeinde"},"district":{"key":"06435","name":"Main-Kinzig-Kreis","type":"Landkreis"},"federalState":{"key":"06","name":"Hessen"}},{"name":"Rendeler Str.","postalCode":"61137","locality":"Schöneck","municipality":{"key":"06435026","name":"Schöneck","type":"Kreisangehörige_Gemeinde"},"district":{"key":"06435","name":"Main-Kinzig-Kreis","type":"Landkreis"},"federalState":{"key":"06","name":"Hessen"}},{"name":"Rhönstr.","postalCode":"61137","locality":"Schöneck","municipality":{"key":"06435026","name":"Schöneck","type":"Kreisangehörige_Gemeinde"},"district":{"key":"06435","name":"Main-Kinzig-Kreis","type":"Landkreis"},"federalState":{"key":"06","name":"Hessen"}},{"name":"Richard-Wagner-Str.","postalCode":"61137","locality":"Schöneck","municipality":{"key":"06435026","name":"Schöneck","type":"Kreisangehörige_Gemeinde"},"district":{"key":"06435","name":"Main-Kinzig-Kreis","type":"Landkreis"},"federalState":{"key":"06","name":"Hessen"}},{"name":"Riedstr.","postalCode":"61137","locality":"Schöneck","municipality":{"key":"06435026","name":"Schöneck","type":"Kreisangehörige_Gemeinde"},"district":{"key":"06435","name":"Main-Kinzig-Kreis","type":"Landkreis"},"federalState":{"key":"06","name":"Hessen"}},{"name":"Ringstr.","postalCode":"61137","locality":"Schöneck","municipality":{"key":"06435026","name":"Schöneck","type":"Kreisangehörige_Gemeinde"},"district":{"key":"06435","name":"Main-Kinzig-Kreis","type":"Landkreis"},"federalState":{"key":"06","name":"Hessen"}},{"name":"Rosenstr.","postalCode":"61137","locality":"Schöneck","municipality":{"key":"06435026","name":"Schöneck","type":"Kreisangehörige_Gemeinde"},"district":{"key":"06435","name":"Main-Kinzig-Kreis","type":"Landkreis"},"federalState":{"key":"06","name":"Hessen"}},{"name":"Roter Muldenweg","postalCode":"08261","locality":"Schöneck/Vogtl.","municipality":{"key":"14523370","name":"Schöneck/Vogtl., Stadt","type":"Stadt"},"district":{"key":"14523","name":"Vogtlandkreis","type":"Landkreis"},"federalState":{"key":"14","name":"Sachsen"}},{"name":"Röternstr.","postalCode":"61137","locality":"Schöneck","municipality":{"key":"06435026","name":"Schöneck","type":"Kreisangehörige_Gemeinde"},"district":{"key":"06435","name":"Main-Kinzig-Kreis","type":"Landkreis"},"federalState":{"key":"06","name":"Hessen"}},{"name":"Roter Weg","postalCode":"61137","locality":"Schöneck","municipality":{"key":"06435026","name":"Schöneck","type":"Kreisangehörige_Gemeinde"},"district":{"key":"06435","name":"Main-Kinzig-Kreis","type":"Landkreis"},"federalState":{"key":"06","name":"Hessen"}},{"name":"Rue d'Anould","postalCode":"61137","locality":"Schöneck","municipality":{"key":"06435026","name":"Schöneck","type":"Kreisangehörige_Gemeinde"},"district":{"key":"06435","name":"Main-Kinzig-Kreis","type":"Landkreis"},"federalState":{"key":"06","name":"Hessen"}},{"name":"Saaliger Str.","postalCode":"08261","locality":"Schöneck/Vogtl.","municipality":{"key":"14523370","name":"Schöneck/Vogtl., Stadt","type":"Stadt"},"district":{"key":"14523","name":"Vogtlandkreis","type":"Landkreis"},"federalState":{"key":"14","name":"Sachsen"}},{"name":"Saaliger Weg","postalCode":"08261","locality":"Schöneck/Vogtl.","municipality":{"key":"14523370","name":"Schöneck/Vogtl., Stadt","type":"Stadt"},"district":{"key":"14523","name":"Vogtlandkreis","type":"Landkreis"},"federalState":{"key":"14","name":"Sachsen"}},{"name":"Sandweg","postalCode":"08261","locality":"Schöneck/Vogtl.","municipality":{"key":"14523370","name":"Schöneck/Vogtl., Stadt","type":"Stadt"},"district":{"key":"14523","name":"Vogtlandkreis","type":"Landkreis"},"federalState":{"key":"14","name":"Sachsen"}},{"name":"Sandweg","postalCode":"61137","locality":"Schöneck","municipality":{"key":"06435026","name":"Schöneck","type":"Kreisangehörige_Gemeinde"},"district":{"key":"06435","name":"Main-Kinzig-Kreis","type":"Landkreis"},"federalState":{"key":"06","name":"Hessen"}},{"name":"Schererstr.","postalCode":"61137","locality":"Schöneck","municipality":{"key":"06435026","name":"Schöneck","type":"Kreisangehörige_Gemeinde"},"district":{"key":"06435","name":"Main-Kinzig-Kreis","type":"Landkreis"},"federalState":{"key":"06","name":"Hessen"}},{"name":"Schilbacher Str.","postalCode":"08261","locality":"Schöneck/Vogtl.","municipality":{"key":"14523370","name":"Schöneck/Vogtl., Stadt","type":"Stadt"},"district":{"key":"14523","name":"Vogtlandkreis","type":"Landkreis"},"federalState":{"key":"14","name":"Sachsen"}},{"name":"Schillerstr.","postalCode":"08261","locality":"Schöneck/Vogtl.","municipality":{"key":"14523370","name":"Schöneck/Vogtl., Stadt","type":"Stadt"},"district":{"key":"14523","name":"Vogtlandkreis","type":"Landkreis"},"federalState":{"key":"14","name":"Sachsen"}},{"name":"Schlencker Str.","postalCode":"54614","locality":"Schönecken","municipality":{"key":"07232304","name":"Schönecken","type":"Kreisangehörige_Gemeinde"},"district":{"key":"07232","name":"Eifelkreis Bitburg-Prüm","type":"Landkreis"},"federalState":{"key":"07","name":"Rheinland-Pfalz"}},{"name":"Schlesierstr.","postalCode":"61137","locality":"Schöneck","municipality":{"key":"06435026","name":"Schöneck","type":"Kreisangehörige_Gemeinde"},"district":{"key":"06435","name":"Main-Kinzig-Kreis","type":"Landkreis"},"federalState":{"key":"06","name":"Hessen"}},{"name":"Schlosspfad","postalCode":"54614","locality":"Schönecken","municipality":{"key":"07232304","name":"Schönecken","type":"Kreisangehörige_Gemeinde"},"district":{"key":"07232","name":"Eifelkreis Bitburg-Prüm","type":"Landkreis"},"federalState":{"key":"07","name":"Rheinland-Pfalz"}},{"name":"Schloßstr.","postalCode":"61137","locality":"Schöneck","municipality":{"key":"06435026","name":"Schöneck","type":"Kreisangehörige_Gemeinde"},"district":{"key":"06435","name":"Main-Kinzig-Kreis","type":"Landkreis"},"federalState":{"key":"06","name":"Hessen"}},{"name":"Schlossweg","postalCode":"08261","locality":"Schöneck/Vogtl.","municipality":{"key":"14523370","name":"Schöneck/Vogtl., Stadt","type":"Stadt"},"district":{"key":"14523","name":"Vogtlandkreis","type":"Landkreis"},"federalState":{"key":"14","name":"Sachsen"}},{"name":"Schmiedgasse","postalCode":"61137","locality":"Schöneck","municipality":{"key":"06435026","name":"Schöneck","type":"Kreisangehörige_Gemeinde"},"district":{"key":"06435","name":"Main-Kinzig-Kreis","type":"Landkreis"},"federalState":{"key":"06","name":"Hessen"}},{"name":"Schöne Aussicht","postalCode":"61137","locality":"Schöneck","municipality":{"key":"06435026","name":"Schöneck","type":"Kreisangehörige_Gemeinde"},"district":{"key":"06435","name":"Main-Kinzig-Kreis","type":"Landkreis"},"federalState":{"key":"06","name":"Hessen"}},{"name":"Schönecker Landstr.","postalCode":"08261","locality":"Schöneck/Vogtl.","municipality":{"key":"14523370","name":"Schöneck/Vogtl., Stadt","type":"Stadt"},"district":{"key":"14523","name":"Vogtlandkreis","type":"Landkreis"},"federalState":{"key":"14","name":"Sachsen"}},{"name":"Schönecker Schweiz","postalCode":"54614","locality":"Schönecken","municipality":{"key":"07232304","name":"Schönecken","type":"Kreisangehörige_Gemeinde"},"district":{"key":"07232","name":"Eifelkreis Bitburg-Prüm","type":"Landkreis"},"federalState":{"key":"07","name":"Rheinland-Pfalz"}},{"name":"Schönecker Str.","postalCode":"08261","locality":"Schöneck/Vogtl.","municipality":{"key":"14523370","name":"Schöneck/Vogtl., Stadt","type":"Stadt"},"district":{"key":"14523","name":"Vogtlandkreis","type":"Landkreis"},"federalState":{"key":"14","name":"Sachsen"}},{"name":"Schubertstr.","postalCode":"61137","locality":"Schöneck","municipality":{"key":"06435026","name":"Schöneck","type":"Kreisangehörige_Gemeinde"},"district":{"key":"06435","name":"Main-Kinzig-Kreis","type":"Landkreis"},"federalState":{"key":"06","name":"Hessen"}},{"name":"Schulstr.","postalCode":"08261","locality":"Schöneck/Vogtl.","municipality":{"key":"14523370","name":"Schöneck/Vogtl., Stadt","type":"Stadt"},"district":{"key":"14523","name":"Vogtlandkreis","type":"Landkreis"},"federalState":{"key":"14","name":"Sachsen"}},{"name":"Schulstr.","postalCode":"61137","locality":"Schöneck","municipality":{"key":"06435026","name":"Schöneck","type":"Kreisangehörige_Gemeinde"},"district":{"key":"06435","name":"Main-Kinzig-Kreis","type":"Landkreis"},"federalState":{"key":"06","name":"Hessen"}},{"name":"Schulweg","postalCode":"08261","locality":"Schöneck/Vogtl.","municipality":{"key":"14523370","name":"Schöneck/Vogtl., Stadt","type":"Stadt"},"district":{"key":"14523","name":"Vogtlandkreis","type":"Landkreis"},"federalState":{"key":"14","name":"Sachsen"}},{"name":"Siedlung","postalCode":"08261","locality":"Schöneck/Vogtl.","municipality":{"key":"14523370","name":"Schöneck/Vogtl., Stadt","type":"Stadt"},"district":{"key":"14523","name":"Vogtlandkreis","type":"Landkreis"},"federalState":{"key":"14","name":"Sachsen"}},{"name":"Sohrstr.","postalCode":"08261","locality":"Schöneck/Vogtl.","municipality":{"key":"14523370","name":"Schöneck/Vogtl., Stadt","type":"Stadt"},"district":{"key":"14523","name":"Vogtlandkreis","type":"Landkreis"},"federalState":{"key":"14","name":"Sachsen"}},{"name":"Sonnensteig","postalCode":"61137","locality":"Schöneck","municipality":{"key":"06435026","name":"Schöneck","type":"Kreisangehörige_Gemeinde"},"district":{"key":"06435","name":"Main-Kinzig-Kreis","type":"Landkreis"},"federalState":{"key":"06","name":"Hessen"}},{"name":"Sonnenwirbel","postalCode":"08261","locality":"Schöneck/Vogtl.","municipality":{"key":"14523370","name":"Schöneck/Vogtl., Stadt","type":"Stadt"},"district":{"key":"14523","name":"Vogtlandkreis","type":"Landkreis"},"federalState":{"key":"14","name":"Sachsen"}},{"name":"Spechtstr.","postalCode":"61137","locality":"Schöneck","municipality":{"key":"06435026","name":"Schöneck","type":"Kreisangehörige_Gemeinde"},"district":{"key":"06435","name":"Main-Kinzig-Kreis","type":"Landkreis"},"federalState":{"key":"06","name":"Hessen"}},{"name":"Spessartstr.","postalCode":"61137","locality":"Schöneck","municipality":{"key":"06435026","name":"Schöneck","type":"Kreisangehörige_Gemeinde"},"district":{"key":"06435","name":"Main-Kinzig-Kreis","type":"Landkreis"},"federalState":{"key":"06","name":"Hessen"}},{"name":"Sport- & Freizeitgelände","postalCode":"08261","locality":"Schöneck/Vogtl.","municipality":{"key":"14523370","name":"Schöneck/Vogtl., Stadt","type":"Stadt"},"district":{"key":"14523","name":"Vogtlandkreis","type":"Landkreis"},"federalState":{"key":"14","name":"Sachsen"}},{"name":"Stahlbachstr.","postalCode":"61137","locality":"Schöneck","municipality":{"key":"06435026","name":"Schöneck","type":"Kreisangehörige_Gemeinde"},"district":{"key":"06435","name":"Main-Kinzig-Kreis","type":"Landkreis"},"federalState":{"key":"06","name":"Hessen"}},{"name":"Steinbruchweg","postalCode":"08261","locality":"Schöneck/Vogtl.","municipality":{"key":"14523370","name":"Schöneck/Vogtl., Stadt","type":"Stadt"},"district":{"key":"14523","name":"Vogtlandkreis","type":"Landkreis"},"federalState":{"key":"14","name":"Sachsen"}},{"name":"Stettiner Str.","postalCode":"61137","locality":"Schöneck","municipality":{"key":"06435026","name":"Schöneck","type":"Kreisangehörige_Gemeinde"},"district":{"key":"06435","name":"Main-Kinzig-Kreis","type":"Landkreis"},"federalState":{"key":"06","name":"Hessen"}},{"name":"Stresemannstr.","postalCode":"61137","locality":"Schöneck","municipality":{"key":"06435026","name":"Schöneck","type":"Kreisangehörige_Gemeinde"},"district":{"key":"06435","name":"Main-Kinzig-Kreis","type":"Landkreis"},"federalState":{"key":"06","name":"Hessen"}},{"name":"Sudetenstr.","postalCode":"61137","locality":"Schöneck","municipality":{"key":"06435026","name":"Schöneck","type":"Kreisangehörige_Gemeinde"},"district":{"key":"06435","name":"Main-Kinzig-Kreis","type":"Landkreis"},"federalState":{"key":"06","name":"Hessen"}},{"name":"Südliche Hauptstr.","postalCode":"61137","locality":"Schöneck","municipality":{"key":"06435026","name":"Schöneck","type":"Kreisangehörige_Gemeinde"},"district":{"key":"06435","name":"Main-Kinzig-Kreis","type":"Landkreis"},"federalState":{"key":"06","name":"Hessen"}},{"name":"Talblick","postalCode":"08261","locality":"Schöneck/Vogtl.","municipality":{"key":"14523370","name":"Schöneck/Vogtl., Stadt","type":"Stadt"},"district":{"key":"14523","name":"Vogtlandkreis","type":"Landkreis"},"federalState":{"key":"14","name":"Sachsen"}},{"name":"Talstr.","postalCode":"61137","locality":"Schöneck","municipality":{"key":"06435026","name":"Schöneck","type":"Kreisangehörige_Gemeinde"},"district":{"key":"06435","name":"Main-Kinzig-Kreis","type":"Landkreis"},"federalState":{"key":"06","name":"Hessen"}},{"name":"Taunusblick","postalCode":"61137","locality":"Schöneck","municipality":{"key":"06435026","name":"Schöneck","type":"Kreisangehörige_Gemeinde"},"district":{"key":"06435","name":"Main-Kinzig-Kreis","type":"Landkreis"},"federalState":{"key":"06","name":"Hessen"}},{"name":"Taunusstr.","postalCode":"61137","locality":"Schöneck","municipality":{"key":"06435026","name":"Schöneck","type":"Kreisangehörige_Gemeinde"},"district":{"key":"06435","name":"Main-Kinzig-Kreis","type":"Landkreis"},"federalState":{"key":"06","name":"Hessen"}},{"name":"Teichstr.","postalCode":"54614","locality":"Schönecken","municipality":{"key":"07232304","name":"Schönecken","type":"Kreisangehörige_Gemeinde"},"district":{"key":"07232","name":"Eifelkreis Bitburg-Prüm","type":"Landkreis"},"federalState":{"key":"07","name":"Rheinland-Pfalz"}},{"name":"Theodor-Heuss-Str.","postalCode":"61137","locality":"Schöneck","municipality":{"key":"06435026","name":"Schöneck","type":"Kreisangehörige_Gemeinde"},"district":{"key":"06435","name":"Main-Kinzig-Kreis","type":"Landkreis"},"federalState":{"key":"06","name":"Hessen"}},{"name":"Trübauer Str.","postalCode":"61137","locality":"Schöneck","municipality":{"key":"06435026","name":"Schöneck","type":"Kreisangehörige_Gemeinde"},"district":{"key":"06435","name":"Main-Kinzig-Kreis","type":"Landkreis"},"federalState":{"key":"06","name":"Hessen"}},{"name":"Tulpenweg","postalCode":"61137","locality":"Schöneck","municipality":{"key":"06435026","name":"Schöneck","type":"Kreisangehörige_Gemeinde"},"district":{"key":"06435","name":"Main-Kinzig-Kreis","type":"Landkreis"},"federalState":{"key":"06","name":"Hessen"}},{"name":"Uferstr.","postalCode":"61137","locality":"Schöneck","municipality":{"key":"06435026","name":"Schöneck","type":"Kreisangehörige_Gemeinde"},"district":{"key":"06435","name":"Main-Kinzig-Kreis","type":"Landkreis"},"federalState":{"key":"06","name":"Hessen"}},{"name":"Unter der Pfordt","postalCode":"54614","locality":"Schönecken","municipality":{"key":"07232304","name":"Schönecken","type":"Kreisangehörige_Gemeinde"},"district":{"key":"07232","name":"Eifelkreis Bitburg-Prüm","type":"Landkreis"},"federalState":{"key":"07","name":"Rheinland-Pfalz"}},{"name":"Untere Haselmühle","postalCode":"08261","locality":"Schöneck/Vogtl.","municipality":{"key":"14523370","name":"Schöneck/Vogtl., Stadt","type":"Stadt"},"district":{"key":"14523","name":"Vogtlandkreis","type":"Landkreis"},"federalState":{"key":"14","name":"Sachsen"}},{"name":"Untergasse","postalCode":"61137","locality":"Schöneck","municipality":{"key":"06435026","name":"Schöneck","type":"Kreisangehörige_Gemeinde"},"district":{"key":"06435","name":"Main-Kinzig-Kreis","type":"Landkreis"},"federalState":{"key":"06","name":"Hessen"}},{"name":"Untermarkt","postalCode":"08261","locality":"Schöneck/Vogtl.","municipality":{"key":"14523370","name":"Schöneck/Vogtl., Stadt","type":"Stadt"},"district":{"key":"14523","name":"Vogtlandkreis","type":"Landkreis"},"federalState":{"key":"14","name":"Sachsen"}},{"name":"Verlängerter Zwotaer Weg","postalCode":"08261","locality":"Schöneck/Vogtl.","municipality":{"key":"14523370","name":"Schöneck/Vogtl., Stadt","type":"Stadt"},"district":{"key":"14523","name":"Vogtlandkreis","type":"Landkreis"},"federalState":{"key":"14","name":"Sachsen"}},{"name":"Vilbeler Str.","postalCode":"61137","locality":"Schöneck","municipality":{"key":"06435026","name":"Schöneck","type":"Kreisangehörige_Gemeinde"},"district":{"key":"06435","name":"Main-Kinzig-Kreis","type":"Landkreis"},"federalState":{"key":"06","name":"Hessen"}},{"name":"Vogelsbergstr.","postalCode":"61137","locality":"Schöneck","municipality":{"key":"06435026","name":"Schöneck","type":"Kreisangehörige_Gemeinde"},"district":{"key":"06435","name":"Main-Kinzig-Kreis","type":"Landkreis"},"federalState":{"key":"06","name":"Hessen"}},{"name":"Vollbach","postalCode":"54614","locality":"Schönecken","municipality":{"key":"07232304","name":"Schönecken","type":"Kreisangehörige_Gemeinde"},"district":{"key":"07232","name":"Eifelkreis Bitburg-Prüm","type":"Landkreis"},"federalState":{"key":"07","name":"Rheinland-Pfalz"}},{"name":"Von-Hersel-Str.","postalCode":"54614","locality":"Schönecken","municipality":{"key":"07232304","name":"Schönecken","type":"Kreisangehörige_Gemeinde"},"district":{"key":"07232","name":"Eifelkreis Bitburg-Prüm","type":"Landkreis"},"federalState":{"key":"07","name":"Rheinland-Pfalz"}},{"name":"Wachenbucher Str.","postalCode":"61137","locality":"Schöneck","municipality":{"key":"06435026","name":"Schöneck","type":"Kreisangehörige_Gemeinde"},"district":{"key":"06435","name":"Main-Kinzig-Kreis","type":"Landkreis"},"federalState":{"key":"06","name":"Hessen"}},{"name":"Waldblick","postalCode":"08261","locality":"Schöneck/Vogtl.","municipality":{"key":"14523370","name":"Schöneck/Vogtl., Stadt","type":"Stadt"},"district":{"key":"14523","name":"Vogtlandkreis","type":"Landkreis"},"federalState":{"key":"14","name":"Sachsen"}},{"name":"Waldstr.","postalCode":"08261","locality":"Schöneck/Vogtl.","municipality":{"key":"14523370","name":"Schöneck/Vogtl., Stadt","type":"Stadt"},"district":{"key":"14523","name":"Vogtlandkreis","type":"Landkreis"},"federalState":{"key":"14","name":"Sachsen"}},{"name":"Waldstr.","postalCode":"61137","locality":"Schöneck","municipality":{"key":"06435026","name":"Schöneck","type":"Kreisangehörige_Gemeinde"},"district":{"key":"06435","name":"Main-Kinzig-Kreis","type":"Landkreis"},"federalState":{"key":"06","name":"Hessen"}},{"name":"Wasserweg","postalCode":"61137","locality":"Schöneck","municipality":{"key":"06435026","name":"Schöneck","type":"Kreisangehörige_Gemeinde"},"district":{"key":"06435","name":"Main-Kinzig-Kreis","type":"Landkreis"},"federalState":{"key":"06","name":"Hessen"}},{"name":"Wedgasse","postalCode":"61137","locality":"Schöneck","municipality":{"key":"06435026","name":"Schöneck","type":"Kreisangehörige_Gemeinde"},"district":{"key":"06435","name":"Main-Kinzig-Kreis","type":"Landkreis"},"federalState":{"key":"06","name":"Hessen"}},{"name":"Weidenweg","postalCode":"61137","locality":"Schöneck","municipality":{"key":"06435026","name":"Schöneck","type":"Kreisangehörige_Gemeinde"},"district":{"key":"06435","name":"Main-Kinzig-Kreis","type":"Landkreis"},"federalState":{"key":"06","name":"Hessen"}},{"name":"Weiherstr.","postalCode":"61137","locality":"Schöneck","municipality":{"key":"06435026","name":"Schöneck","type":"Kreisangehörige_Gemeinde"},"district":{"key":"06435","name":"Main-Kinzig-Kreis","type":"Landkreis"},"federalState":{"key":"06","name":"Hessen"}},{"name":"Weimarer Str.","postalCode":"61137","locality":"Schöneck","municipality":{"key":"06435026","name":"Schöneck","type":"Kreisangehörige_Gemeinde"},"district":{"key":"06435","name":"Main-Kinzig-Kreis","type":"Landkreis"},"federalState":{"key":"06","name":"Hessen"}},{"name":"Weinbergstr.","postalCode":"61137","locality":"Schöneck","municipality":{"key":"06435026","name":"Schöneck","type":"Kreisangehörige_Gemeinde"},"district":{"key":"06435","name":"Main-Kinzig-Kreis","type":"Landkreis"},"federalState":{"key":"06","name":"Hessen"}},{"name":"Wetteldorfer Str.","postalCode":"54614","locality":"Schönecken","municipality":{"key":"07232304","name":"Schönecken","type":"Kreisangehörige_Gemeinde"},"district":{"key":"07232","name":"Eifelkreis Bitburg-Prüm","type":"Landkreis"},"federalState":{"key":"07","name":"Rheinland-Pfalz"}},{"name":"Wiesenau","postalCode":"61137","locality":"Schöneck","municipality":{"key":"06435026","name":"Schöneck","type":"Kreisangehörige_Gemeinde"},"district":{"key":"06435","name":"Main-Kinzig-Kreis","type":"Landkreis"},"federalState":{"key":"06","name":"Hessen"}},{"name":"Wiesenstr.","postalCode":"08261","locality":"Schöneck/Vogtl.","municipality":{"key":"14523370","name":"Schöneck/Vogtl., Stadt","type":"Stadt"},"district":{"key":"14523","name":"Vogtlandkreis","type":"Landkreis"},"federalState":{"key":"14","name":"Sachsen"}},{"name":"Windecker Pfad","postalCode":"61137","locality":"Schöneck","municipality":{"key":"06435026","name":"Schöneck","type":"Kreisangehörige_Gemeinde"},"district":{"key":"06435","name":"Main-Kinzig-Kreis","type":"Landkreis"},"federalState":{"key":"06","name":"Hessen"}},{"name":"Windecker Str.","postalCode":"61137","locality":"Schöneck","municipality":{"key":"06435026","name":"Schöneck","type":"Kreisangehörige_Gemeinde"},"district":{"key":"06435","name":"Main-Kinzig-Kreis","type":"Landkreis"},"federalState":{"key":"06","name":"Hessen"}},{"name":"Wingertstr.","postalCode":"61137","locality":"Schöneck","municipality":{"key":"06435026","name":"Schöneck","type":"Kreisangehörige_Gemeinde"},"district":{"key":"06435","name":"Main-Kinzig-Kreis","type":"Landkreis"},"federalState":{"key":"06","name":"Hessen"}},{"name":"Wohlbacher Str.","postalCode":"08261","locality":"Schöneck/Vogtl.","municipality":{"key":"14523370","name":"Schöneck/Vogtl., Stadt","type":"Stadt"},"district":{"key":"14523","name":"Vogtlandkreis","type":"Landkreis"},"federalState":{"key":"14","name":"Sachsen"}},{"name":"Wolfsbachweg","postalCode":"08261","locality":"Schöneck/Vogtl.","municipality":{"key":"14523370","name":"Schöneck/Vogtl., Stadt","type":"Stadt"},"district":{"key":"14523","name":"Vogtlandkreis","type":"Landkreis"},"federalState":{"key":"14","name":"Sachsen"}},{"name":"Wolfsbornstr.","postalCode":"61137","locality":"Schöneck","municipality":{"key":"06435026","name":"Schöneck","type":"Kreisangehörige_Gemeinde"},"district":{"key":"06435","name":"Main-Kinzig-Kreis","type":"Landkreis"},"federalState":{"key":"06","name":"Hessen"}},{"name":"Zwotaer Kirchsteig","postalCode":"08261","locality":"Schöneck/Vogtl.","municipality":{"key":"14523370","name":"Schöneck/Vogtl., Stadt","type":"Stadt"},"district":{"key":"14523","name":"Vogtlandkreis","type":"Landkreis"},"federalState":{"key":"14","name":"Sachsen"}},]