[{"name":"Am Mühlenfeld","postalCode":"17375","locality":"Liepgarten","municipality":{"key":"13075078","name":"Liepgarten","type":"Kreisangehörige_Gemeinde"},"district":{"key":"13075","name":"Vorpommern-Greifswald","type":"Landkreis"},"federalState":{"key":"13","name":"Mecklenburg-Vorpommern"}},{"name":"Apfelweg","postalCode":"17375","locality":"Liepgarten","municipality":{"key":"13075078","name":"Liepgarten","type":"Kreisangehörige_Gemeinde"},"district":{"key":"13075","name":"Vorpommern-Greifswald","type":"Landkreis"},"federalState":{"key":"13","name":"Mecklenburg-Vorpommern"}},{"name":"Bergstr.","postalCode":"17375","locality":"Liepgarten","municipality":{"key":"13075078","name":"Liepgarten","type":"Kreisangehörige_Gemeinde"},"district":{"key":"13075","name":"Vorpommern-Greifswald","type":"Landkreis"},"federalState":{"key":"13","name":"Mecklenburg-Vorpommern"}},{"name":"Breite Str.","postalCode":"17375","locality":"Liepgarten","municipality":{"key":"13075078","name":"Liepgarten","type":"Kreisangehörige_Gemeinde"},"district":{"key":"13075","name":"Vorpommern-Greifswald","type":"Landkreis"},"federalState":{"key":"13","name":"Mecklenburg-Vorpommern"}},{"name":"Feldstr.","postalCode":"17375","locality":"Liepgarten","municipality":{"key":"13075078","name":"Liepgarten","type":"Kreisangehörige_Gemeinde"},"district":{"key":"13075","name":"Vorpommern-Greifswald","type":"Landkreis"},"federalState":{"key":"13","name":"Mecklenburg-Vorpommern"}},{"name":"Kolonienstr.","postalCode":"17375","locality":"Liepgarten","municipality":{"key":"13075078","name":"Liepgarten","type":"Kreisangehörige_Gemeinde"},"district":{"key":"13075","name":"Vorpommern-Greifswald","type":"Landkreis"},"federalState":{"key":"13","name":"Mecklenburg-Vorpommern"}},{"name":"Kurze Str.","postalCode":"17375","locality":"Liepgarten","municipality":{"key":"13075078","name":"Liepgarten","type":"Kreisangehörige_Gemeinde"},"district":{"key":"13075","name":"Vorpommern-Greifswald","type":"Landkreis"},"federalState":{"key":"13","name":"Mecklenburg-Vorpommern"}},{"name":"Mühlenfeldstr.","postalCode":"17375","locality":"Liepgarten","municipality":{"key":"13075078","name":"Liepgarten","type":"Kreisangehörige_Gemeinde"},"district":{"key":"13075","name":"Vorpommern-Greifswald","type":"Landkreis"},"federalState":{"key":"13","name":"Mecklenburg-Vorpommern"}},{"name":"Rotdornweg","postalCode":"17375","locality":"Liepgarten","municipality":{"key":"13075078","name":"Liepgarten","type":"Kreisangehörige_Gemeinde"},"district":{"key":"13075","name":"Vorpommern-Greifswald","type":"Landkreis"},"federalState":{"key":"13","name":"Mecklenburg-Vorpommern"}},{"name":"Torgelower Str.","postalCode":"17375","locality":"Liepgarten","municipality":{"key":"13075078","name":"Liepgarten","type":"Kreisangehörige_Gemeinde"},"district":{"key":"13075","name":"Vorpommern-Greifswald","type":"Landkreis"},"federalState":{"key":"13","name":"Mecklenburg-Vorpommern"}},{"name":"Ueckermünder Str.","postalCode":"17375","locality":"Liepgarten","municipality":{"key":"13075078","name":"Liepgarten","type":"Kreisangehörige_Gemeinde"},"district":{"key":"13075","name":"Vorpommern-Greifswald","type":"Landkreis"},"federalState":{"key":"13","name":"Mecklenburg-Vorpommern"}},{"name":"Winkelstr.","postalCode":"17375","locality":"Liepgarten","municipality":{"key":"13075078","name":"Liepgarten","type":"Kreisangehörige_Gemeinde"},"district":{"key":"13075","name":"Vorpommern-Greifswald","type":"Landkreis"},"federalState":{"key":"13","name":"Mecklenburg-Vorpommern"}},{"name":"Zur Drehbrücke","postalCode":"17375","locality":"Liepgarten","municipality":{"key":"13075078","name":"Liepgarten","type":"Kreisangehörige_Gemeinde"},"district":{"key":"13075","name":"Vorpommern-Greifswald","type":"Landkreis"},"federalState":{"key":"13","name":"Mecklenburg-Vorpommern"}},]