[{"name":"Alte Landstr.","postalCode":"96199","locality":"Zapfendorf","municipality":{"key":"09471214","name":"Zapfendorf, M","type":"Markt"},"district":{"key":"09471","name":"Bamberg","type":"Landkreis"},"federalState":{"key":"09","name":"Bayern"}},{"name":"Am Bergacker","postalCode":"96199","locality":"Zapfendorf","municipality":{"key":"09471214","name":"Zapfendorf, M","type":"Markt"},"district":{"key":"09471","name":"Bamberg","type":"Landkreis"},"federalState":{"key":"09","name":"Bayern"}},{"name":"Am Breiten Rain","postalCode":"96199","locality":"Zapfendorf","municipality":{"key":"09471214","name":"Zapfendorf, M","type":"Markt"},"district":{"key":"09471","name":"Bamberg","type":"Landkreis"},"federalState":{"key":"09","name":"Bayern"}},{"name":"Am Felsenkeller","postalCode":"96199","locality":"Zapfendorf","municipality":{"key":"09471214","name":"Zapfendorf, M","type":"Markt"},"district":{"key":"09471","name":"Bamberg","type":"Landkreis"},"federalState":{"key":"09","name":"Bayern"}},{"name":"Am Flutgraben","postalCode":"96199","locality":"Zapfendorf","municipality":{"key":"09471214","name":"Zapfendorf, M","type":"Markt"},"district":{"key":"09471","name":"Bamberg","type":"Landkreis"},"federalState":{"key":"09","name":"Bayern"}},{"name":"Am Sportplatz","postalCode":"96199","locality":"Zapfendorf","municipality":{"key":"09471214","name":"Zapfendorf, M","type":"Markt"},"district":{"key":"09471","name":"Bamberg","type":"Landkreis"},"federalState":{"key":"09","name":"Bayern"}},{"name":"Angerstr.","postalCode":"96199","locality":"Zapfendorf","municipality":{"key":"09471214","name":"Zapfendorf, M","type":"Markt"},"district":{"key":"09471","name":"Bamberg","type":"Landkreis"},"federalState":{"key":"09","name":"Bayern"}},{"name":"Antoniusweg","postalCode":"96199","locality":"Zapfendorf","municipality":{"key":"09471214","name":"Zapfendorf, M","type":"Markt"},"district":{"key":"09471","name":"Bamberg","type":"Landkreis"},"federalState":{"key":"09","name":"Bayern"}},{"name":"Bahnhofsplatz","postalCode":"96199","locality":"Zapfendorf","municipality":{"key":"09471214","name":"Zapfendorf, M","type":"Markt"},"district":{"key":"09471","name":"Bamberg","type":"Landkreis"},"federalState":{"key":"09","name":"Bayern"}},{"name":"Bahnhofstr.","postalCode":"96199","locality":"Zapfendorf","municipality":{"key":"09471214","name":"Zapfendorf, M","type":"Markt"},"district":{"key":"09471","name":"Bamberg","type":"Landkreis"},"federalState":{"key":"09","name":"Bayern"}},{"name":"Bamberger Str.","postalCode":"96199","locality":"Zapfendorf","municipality":{"key":"09471214","name":"Zapfendorf, M","type":"Markt"},"district":{"key":"09471","name":"Bamberg","type":"Landkreis"},"federalState":{"key":"09","name":"Bayern"}},{"name":"Baumfeld","postalCode":"96199","locality":"Zapfendorf","municipality":{"key":"09471214","name":"Zapfendorf, M","type":"Markt"},"district":{"key":"09471","name":"Bamberg","type":"Landkreis"},"federalState":{"key":"09","name":"Bayern"}},{"name":"Beikumweg","postalCode":"96199","locality":"Zapfendorf","municipality":{"key":"09471214","name":"Zapfendorf, M","type":"Markt"},"district":{"key":"09471","name":"Bamberg","type":"Landkreis"},"federalState":{"key":"09","name":"Bayern"}},{"name":"Bergstr.","postalCode":"96199","locality":"Zapfendorf","municipality":{"key":"09471214","name":"Zapfendorf, M","type":"Markt"},"district":{"key":"09471","name":"Bamberg","type":"Landkreis"},"federalState":{"key":"09","name":"Bayern"}},{"name":"Blocksberg","postalCode":"96199","locality":"Zapfendorf","municipality":{"key":"09471214","name":"Zapfendorf, M","type":"Markt"},"district":{"key":"09471","name":"Bamberg","type":"Landkreis"},"federalState":{"key":"09","name":"Bayern"}},{"name":"Blumenweg","postalCode":"96199","locality":"Zapfendorf","municipality":{"key":"09471214","name":"Zapfendorf, M","type":"Markt"},"district":{"key":"09471","name":"Bamberg","type":"Landkreis"},"federalState":{"key":"09","name":"Bayern"}},{"name":"Brunnenweg","postalCode":"96199","locality":"Zapfendorf","municipality":{"key":"09471214","name":"Zapfendorf, M","type":"Markt"},"district":{"key":"09471","name":"Bamberg","type":"Landkreis"},"federalState":{"key":"09","name":"Bayern"}},{"name":"Cäcilienstr.","postalCode":"96199","locality":"Zapfendorf","municipality":{"key":"09471214","name":"Zapfendorf, M","type":"Markt"},"district":{"key":"09471","name":"Bamberg","type":"Landkreis"},"federalState":{"key":"09","name":"Bayern"}},{"name":"Caspar-Peipas-Str.","postalCode":"96199","locality":"Zapfendorf","municipality":{"key":"09471214","name":"Zapfendorf, M","type":"Markt"},"district":{"key":"09471","name":"Bamberg","type":"Landkreis"},"federalState":{"key":"09","name":"Bayern"}},{"name":"Die Bergner","postalCode":"96049","locality":"Bamberg","municipality":{"key":"09461000","name":"Bamberg","type":"Kreisfreie_Stadt"},"district":{"key":"09461","name":"Bamberg","type":"Kreisfreie_Stadt"},"federalState":{"key":"09","name":"Bayern"}},{"name":"Die Krött","postalCode":"96049","locality":"Bamberg","municipality":{"key":"09461000","name":"Bamberg","type":"Kreisfreie_Stadt"},"district":{"key":"09461","name":"Bamberg","type":"Kreisfreie_Stadt"},"federalState":{"key":"09","name":"Bayern"}},{"name":"Dientzenhoferstr.","postalCode":"96047","locality":"Bamberg","municipality":{"key":"09461000","name":"Bamberg","type":"Kreisfreie_Stadt"},"district":{"key":"09461","name":"Bamberg","type":"Kreisfreie_Stadt"},"federalState":{"key":"09","name":"Bayern"}},{"name":"Dieselstr.","postalCode":"96052","locality":"Bamberg","municipality":{"key":"09461000","name":"Bamberg","type":"Kreisfreie_Stadt"},"district":{"key":"09461","name":"Bamberg","type":"Kreisfreie_Stadt"},"federalState":{"key":"09","name":"Bayern"}},{"name":"Distelweg","postalCode":"96050","locality":"Bamberg","municipality":{"key":"09461000","name":"Bamberg","type":"Kreisfreie_Stadt"},"district":{"key":"09461","name":"Bamberg","type":"Kreisfreie_Stadt"},"federalState":{"key":"09","name":"Bayern"}},{"name":"Doktor-von-Schmitt-Str.","postalCode":"96050","locality":"Bamberg","municipality":{"key":"09461000","name":"Bamberg","type":"Kreisfreie_Stadt"},"district":{"key":"09461","name":"Bamberg","type":"Kreisfreie_Stadt"},"federalState":{"key":"09","name":"Bayern"}},{"name":"Dominikanerstr.","postalCode":"96049","locality":"Bamberg","municipality":{"key":"09461000","name":"Bamberg","type":"Kreisfreie_Stadt"},"district":{"key":"09461","name":"Bamberg","type":"Kreisfreie_Stadt"},"federalState":{"key":"09","name":"Bayern"}},{"name":"Domstr.","postalCode":"96049","locality":"Bamberg","municipality":{"key":"09461000","name":"Bamberg","type":"Kreisfreie_Stadt"},"district":{"key":"09461","name":"Bamberg","type":"Kreisfreie_Stadt"},"federalState":{"key":"09","name":"Bayern"}},{"name":"Don-Bosco-Str.","postalCode":"96047","locality":"Bamberg","municipality":{"key":"09461000","name":"Bamberg","type":"Kreisfreie_Stadt"},"district":{"key":"09461","name":"Bamberg","type":"Kreisfreie_Stadt"},"federalState":{"key":"09","name":"Bayern"}},{"name":"Dorotheenstr.","postalCode":"96049","locality":"Bamberg","municipality":{"key":"09461000","name":"Bamberg","type":"Kreisfreie_Stadt"},"district":{"key":"09461","name":"Bamberg","type":"Kreisfreie_Stadt"},"federalState":{"key":"09","name":"Bayern"}},{"name":"Dr.-Eisenbart-Hof","postalCode":"96049","locality":"Bamberg","municipality":{"key":"09461000","name":"Bamberg","type":"Kreisfreie_Stadt"},"district":{"key":"09461","name":"Bamberg","type":"Kreisfreie_Stadt"},"federalState":{"key":"09","name":"Bayern"}},{"name":"Dr.-Haas-Str.","postalCode":"96047","locality":"Bamberg","municipality":{"key":"09461000","name":"Bamberg","type":"Kreisfreie_Stadt"},"district":{"key":"09461","name":"Bamberg","type":"Kreisfreie_Stadt"},"federalState":{"key":"09","name":"Bayern"}},{"name":"Dr.-Hans-Ehard-Str.","postalCode":"96049","locality":"Bamberg","municipality":{"key":"09461000","name":"Bamberg","type":"Kreisfreie_Stadt"},"district":{"key":"09461","name":"Bamberg","type":"Kreisfreie_Stadt"},"federalState":{"key":"09","name":"Bayern"}},{"name":"Dr.-Hans-Neubauer-Str.","postalCode":"96050","locality":"Bamberg","municipality":{"key":"09461000","name":"Bamberg","type":"Kreisfreie_Stadt"},"district":{"key":"09461","name":"Bamberg","type":"Kreisfreie_Stadt"},"federalState":{"key":"09","name":"Bayern"}},{"name":"Dr.-Ida-Noddack-Str.","postalCode":"96047","locality":"Bamberg","municipality":{"key":"09461000","name":"Bamberg","type":"Kreisfreie_Stadt"},"district":{"key":"09461","name":"Bamberg","type":"Kreisfreie_Stadt"},"federalState":{"key":"09","name":"Bayern"}},{"name":"Dr.-Rattel-Str.","postalCode":"96052","locality":"Bamberg","municipality":{"key":"09461000","name":"Bamberg","type":"Kreisfreie_Stadt"},"district":{"key":"09461","name":"Bamberg","type":"Kreisfreie_Stadt"},"federalState":{"key":"09","name":"Bayern"}},{"name":"Dr.-Remeis-Str.","postalCode":"96049","locality":"Bamberg","municipality":{"key":"09461000","name":"Bamberg","type":"Kreisfreie_Stadt"},"district":{"key":"09461","name":"Bamberg","type":"Kreisfreie_Stadt"},"federalState":{"key":"09","name":"Bayern"}},{"name":"Dr.-Thomas-Dehler-Str.","postalCode":"96049","locality":"Bamberg","municipality":{"key":"09461000","name":"Bamberg","type":"Kreisfreie_Stadt"},"district":{"key":"09461","name":"Bamberg","type":"Kreisfreie_Stadt"},"federalState":{"key":"09","name":"Bayern"}},{"name":"Dunantstr.","postalCode":"96049","locality":"Bamberg","municipality":{"key":"09461000","name":"Bamberg","type":"Kreisfreie_Stadt"},"district":{"key":"09461","name":"Bamberg","type":"Kreisfreie_Stadt"},"federalState":{"key":"09","name":"Bayern"}},{"name":"Dürrwächterstr.","postalCode":"96052","locality":"Bamberg","municipality":{"key":"09461000","name":"Bamberg","type":"Kreisfreie_Stadt"},"district":{"key":"09461","name":"Bamberg","type":"Kreisfreie_Stadt"},"federalState":{"key":"09","name":"Bayern"}},{"name":"Eichenweg","postalCode":"96199","locality":"Zapfendorf","municipality":{"key":"09471214","name":"Zapfendorf, M","type":"Markt"},"district":{"key":"09471","name":"Bamberg","type":"Landkreis"},"federalState":{"key":"09","name":"Bayern"}},{"name":"Eulenbrunnen","postalCode":"96199","locality":"Zapfendorf","municipality":{"key":"09471214","name":"Zapfendorf, M","type":"Markt"},"district":{"key":"09471","name":"Bamberg","type":"Landkreis"},"federalState":{"key":"09","name":"Bayern"}},{"name":"Frankenstr.","postalCode":"96199","locality":"Zapfendorf","municipality":{"key":"09471214","name":"Zapfendorf, M","type":"Markt"},"district":{"key":"09471","name":"Bamberg","type":"Landkreis"},"federalState":{"key":"09","name":"Bayern"}},{"name":"Freiberg","postalCode":"96199","locality":"Zapfendorf","municipality":{"key":"09471214","name":"Zapfendorf, M","type":"Markt"},"district":{"key":"09471","name":"Bamberg","type":"Landkreis"},"federalState":{"key":"09","name":"Bayern"}},{"name":"Friedhofsweg","postalCode":"96199","locality":"Zapfendorf","municipality":{"key":"09471214","name":"Zapfendorf, M","type":"Markt"},"district":{"key":"09471","name":"Bamberg","type":"Landkreis"},"federalState":{"key":"09","name":"Bayern"}},{"name":"Fürst-Von-Stromberg-Str.","postalCode":"96199","locality":"Zapfendorf","municipality":{"key":"09471214","name":"Zapfendorf, M","type":"Markt"},"district":{"key":"09471","name":"Bamberg","type":"Landkreis"},"federalState":{"key":"09","name":"Bayern"}},{"name":"Gartenstr.","postalCode":"96199","locality":"Zapfendorf","municipality":{"key":"09471214","name":"Zapfendorf, M","type":"Markt"},"district":{"key":"09471","name":"Bamberg","type":"Landkreis"},"federalState":{"key":"09","name":"Bayern"}},{"name":"Gäßchen","postalCode":"96199","locality":"Zapfendorf","municipality":{"key":"09471214","name":"Zapfendorf, M","type":"Markt"},"district":{"key":"09471","name":"Bamberg","type":"Landkreis"},"federalState":{"key":"09","name":"Bayern"}},{"name":"Grabenweg","postalCode":"96199","locality":"Zapfendorf","municipality":{"key":"09471214","name":"Zapfendorf, M","type":"Markt"},"district":{"key":"09471","name":"Bamberg","type":"Landkreis"},"federalState":{"key":"09","name":"Bayern"}},{"name":"Gründlerstr.","postalCode":"96199","locality":"Zapfendorf","municipality":{"key":"09471214","name":"Zapfendorf, M","type":"Markt"},"district":{"key":"09471","name":"Bamberg","type":"Landkreis"},"federalState":{"key":"09","name":"Bayern"}},{"name":"Gütleinsweg","postalCode":"96199","locality":"Zapfendorf","municipality":{"key":"09471214","name":"Zapfendorf, M","type":"Markt"},"district":{"key":"09471","name":"Bamberg","type":"Landkreis"},"federalState":{"key":"09","name":"Bayern"}},{"name":"Hängbergstr.","postalCode":"96199","locality":"Zapfendorf","municipality":{"key":"09471214","name":"Zapfendorf, M","type":"Markt"},"district":{"key":"09471","name":"Bamberg","type":"Landkreis"},"federalState":{"key":"09","name":"Bayern"}},{"name":"Hauptstr.","postalCode":"96199","locality":"Zapfendorf","municipality":{"key":"09471214","name":"Zapfendorf, M","type":"Markt"},"district":{"key":"09471","name":"Bamberg","type":"Landkreis"},"federalState":{"key":"09","name":"Bayern"}},{"name":"Hellerwiese","postalCode":"96199","locality":"Zapfendorf","municipality":{"key":"09471214","name":"Zapfendorf, M","type":"Markt"},"district":{"key":"09471","name":"Bamberg","type":"Landkreis"},"federalState":{"key":"09","name":"Bayern"}},{"name":"Herrngasse","postalCode":"96199","locality":"Zapfendorf","municipality":{"key":"09471214","name":"Zapfendorf, M","type":"Markt"},"district":{"key":"09471","name":"Bamberg","type":"Landkreis"},"federalState":{"key":"09","name":"Bayern"}},{"name":"Hirtengarten","postalCode":"96199","locality":"Zapfendorf","municipality":{"key":"09471214","name":"Zapfendorf, M","type":"Markt"},"district":{"key":"09471","name":"Bamberg","type":"Landkreis"},"federalState":{"key":"09","name":"Bayern"}},{"name":"Hohengüßbacher Str.","postalCode":"96199","locality":"Zapfendorf","municipality":{"key":"09471214","name":"Zapfendorf, M","type":"Markt"},"district":{"key":"09471","name":"Bamberg","type":"Landkreis"},"federalState":{"key":"09","name":"Bayern"}},{"name":"Hohe Str.","postalCode":"96199","locality":"Zapfendorf","municipality":{"key":"09471214","name":"Zapfendorf, M","type":"Markt"},"district":{"key":"09471","name":"Bamberg","type":"Landkreis"},"federalState":{"key":"09","name":"Bayern"}},{"name":"Hopfengarten","postalCode":"96199","locality":"Zapfendorf","municipality":{"key":"09471214","name":"Zapfendorf, M","type":"Markt"},"district":{"key":"09471","name":"Bamberg","type":"Landkreis"},"federalState":{"key":"09","name":"Bayern"}},{"name":"Im Melm","postalCode":"96199","locality":"Zapfendorf","municipality":{"key":"09471214","name":"Zapfendorf, M","type":"Markt"},"district":{"key":"09471","name":"Bamberg","type":"Landkreis"},"federalState":{"key":"09","name":"Bayern"}},{"name":"Jäckstr.","postalCode":"96052","locality":"Bamberg","municipality":{"key":"09461000","name":"Bamberg","type":"Kreisfreie_Stadt"},"district":{"key":"09461","name":"Bamberg","type":"Kreisfreie_Stadt"},"federalState":{"key":"09","name":"Bayern"}},{"name":"Jacobus-von-Hauck-Platz","postalCode":"96047","locality":"Bamberg","municipality":{"key":"09461000","name":"Bamberg","type":"Kreisfreie_Stadt"},"district":{"key":"09461","name":"Bamberg","type":"Kreisfreie_Stadt"},"federalState":{"key":"09","name":"Bayern"}},{"name":"Jägerstr.","postalCode":"96050","locality":"Bamberg","municipality":{"key":"09461000","name":"Bamberg","type":"Kreisfreie_Stadt"},"district":{"key":"09461","name":"Bamberg","type":"Kreisfreie_Stadt"},"federalState":{"key":"09","name":"Bayern"}},{"name":"Jahnstr.","postalCode":"96050","locality":"Bamberg","municipality":{"key":"09461000","name":"Bamberg","type":"Kreisfreie_Stadt"},"district":{"key":"09461","name":"Bamberg","type":"Kreisfreie_Stadt"},"federalState":{"key":"09","name":"Bayern"}},{"name":"Johannes-Hoffmann-Str.","postalCode":"96052","locality":"Bamberg","municipality":{"key":"09461000","name":"Bamberg","type":"Kreisfreie_Stadt"},"district":{"key":"09461","name":"Bamberg","type":"Kreisfreie_Stadt"},"federalState":{"key":"09","name":"Bayern"}},{"name":"John-F.-Kennedy-Boulevard","postalCode":"96052","locality":"Bamberg","municipality":{"key":"09461000","name":"Bamberg","type":"Kreisfreie_Stadt"},"district":{"key":"09461","name":"Bamberg","type":"Kreisfreie_Stadt"},"federalState":{"key":"09","name":"Bayern"}},{"name":"Josef-Kindshoven-Str.","postalCode":"96052","locality":"Bamberg","municipality":{"key":"09461000","name":"Bamberg","type":"Kreisfreie_Stadt"},"district":{"key":"09461","name":"Bamberg","type":"Kreisfreie_Stadt"},"federalState":{"key":"09","name":"Bayern"}},{"name":"Josef-Manger-Str.","postalCode":"96050","locality":"Bamberg","municipality":{"key":"09461000","name":"Bamberg","type":"Kreisfreie_Stadt"},"district":{"key":"09461","name":"Bamberg","type":"Kreisfreie_Stadt"},"federalState":{"key":"09","name":"Bayern"}},{"name":"Joseph-Otto-Kolb-Str.","postalCode":"96052","locality":"Bamberg","municipality":{"key":"09461000","name":"Bamberg","type":"Kreisfreie_Stadt"},"district":{"key":"09461","name":"Bamberg","type":"Kreisfreie_Stadt"},"federalState":{"key":"09","name":"Bayern"}},{"name":"Josephstr.","postalCode":"96052","locality":"Bamberg","municipality":{"key":"09461000","name":"Bamberg","type":"Kreisfreie_Stadt"},"district":{"key":"09461","name":"Bamberg","type":"Kreisfreie_Stadt"},"federalState":{"key":"09","name":"Bayern"}},{"name":"Judenstr.","postalCode":"96049","locality":"Bamberg","municipality":{"key":"09461000","name":"Bamberg","type":"Kreisfreie_Stadt"},"district":{"key":"09461","name":"Bamberg","type":"Kreisfreie_Stadt"},"federalState":{"key":"09","name":"Bayern"}},{"name":"Jungfernleite","postalCode":"96049","locality":"Bamberg","municipality":{"key":"09461000","name":"Bamberg","type":"Kreisfreie_Stadt"},"district":{"key":"09461","name":"Bamberg","type":"Kreisfreie_Stadt"},"federalState":{"key":"09","name":"Bayern"}},{"name":"Jungkreutstr.","postalCode":"96049","locality":"Bamberg","municipality":{"key":"09461000","name":"Bamberg","type":"Kreisfreie_Stadt"},"district":{"key":"09461","name":"Bamberg","type":"Kreisfreie_Stadt"},"federalState":{"key":"09","name":"Bayern"}},{"name":"Junkerweg","postalCode":"55546","locality":"Neu-Bamberg","municipality":{"key":"07133069","name":"Neu-Bamberg","type":"Kreisangehörige_Gemeinde"},"district":{"key":"07133","name":"Bad Kreuznach","type":"Landkreis"},"federalState":{"key":"07","name":"Rheinland-Pfalz"}},{"name":"Jurastr.","postalCode":"96049","locality":"Bamberg","municipality":{"key":"09461000","name":"Bamberg","type":"Kreisfreie_Stadt"},"district":{"key":"09461","name":"Bamberg","type":"Kreisfreie_Stadt"},"federalState":{"key":"09","name":"Bayern"}},{"name":"Kapellenweg","postalCode":"96199","locality":"Zapfendorf","municipality":{"key":"09471214","name":"Zapfendorf, M","type":"Markt"},"district":{"key":"09471","name":"Bamberg","type":"Landkreis"},"federalState":{"key":"09","name":"Bayern"}},{"name":"Kaplan-Martin-Weg","postalCode":"96199","locality":"Zapfendorf","municipality":{"key":"09471214","name":"Zapfendorf, M","type":"Markt"},"district":{"key":"09471","name":"Bamberg","type":"Landkreis"},"federalState":{"key":"09","name":"Bayern"}},{"name":"Kastanienweg","postalCode":"96199","locality":"Zapfendorf","municipality":{"key":"09471214","name":"Zapfendorf, M","type":"Markt"},"district":{"key":"09471","name":"Bamberg","type":"Landkreis"},"federalState":{"key":"09","name":"Bayern"}},{"name":"Kellergasse","postalCode":"96199","locality":"Zapfendorf","municipality":{"key":"09471214","name":"Zapfendorf, M","type":"Markt"},"district":{"key":"09471","name":"Bamberg","type":"Landkreis"},"federalState":{"key":"09","name":"Bayern"}},{"name":"Keltenring","postalCode":"96199","locality":"Zapfendorf","municipality":{"key":"09471214","name":"Zapfendorf, M","type":"Markt"},"district":{"key":"09471","name":"Bamberg","type":"Landkreis"},"federalState":{"key":"09","name":"Bayern"}},{"name":"Kirchberg","postalCode":"96199","locality":"Zapfendorf","municipality":{"key":"09471214","name":"Zapfendorf, M","type":"Markt"},"district":{"key":"09471","name":"Bamberg","type":"Landkreis"},"federalState":{"key":"09","name":"Bayern"}},{"name":"Kirchgasse","postalCode":"96199","locality":"Zapfendorf","municipality":{"key":"09471214","name":"Zapfendorf, M","type":"Markt"},"district":{"key":"09471","name":"Bamberg","type":"Landkreis"},"federalState":{"key":"09","name":"Bayern"}},{"name":"Kirchsteig","postalCode":"96199","locality":"Zapfendorf","municipality":{"key":"09471214","name":"Zapfendorf, M","type":"Markt"},"district":{"key":"09471","name":"Bamberg","type":"Landkreis"},"federalState":{"key":"09","name":"Bayern"}},{"name":"Klingenweg","postalCode":"96199","locality":"Zapfendorf","municipality":{"key":"09471214","name":"Zapfendorf, M","type":"Markt"},"district":{"key":"09471","name":"Bamberg","type":"Landkreis"},"federalState":{"key":"09","name":"Bayern"}},{"name":"Laurentiusring","postalCode":"96199","locality":"Zapfendorf","municipality":{"key":"09471214","name":"Zapfendorf, M","type":"Markt"},"district":{"key":"09471","name":"Bamberg","type":"Landkreis"},"federalState":{"key":"09","name":"Bayern"}},{"name":"Leitengasse","postalCode":"96199","locality":"Zapfendorf","municipality":{"key":"09471214","name":"Zapfendorf, M","type":"Markt"},"district":{"key":"09471","name":"Bamberg","type":"Landkreis"},"federalState":{"key":"09","name":"Bayern"}},{"name":"Leuchtersbrunnen","postalCode":"96199","locality":"Zapfendorf","municipality":{"key":"09471214","name":"Zapfendorf, M","type":"Markt"},"district":{"key":"09471","name":"Bamberg","type":"Landkreis"},"federalState":{"key":"09","name":"Bayern"}},{"name":"Lichtenfelser Str.","postalCode":"96199","locality":"Zapfendorf","municipality":{"key":"09471214","name":"Zapfendorf, M","type":"Markt"},"district":{"key":"09471","name":"Bamberg","type":"Landkreis"},"federalState":{"key":"09","name":"Bayern"}},{"name":"Maßdorfer Str.","postalCode":"96199","locality":"Zapfendorf","municipality":{"key":"09471214","name":"Zapfendorf, M","type":"Markt"},"district":{"key":"09471","name":"Bamberg","type":"Landkreis"},"federalState":{"key":"09","name":"Bayern"}},{"name":"Michael-Küchel-Str.","postalCode":"96199","locality":"Zapfendorf","municipality":{"key":"09471214","name":"Zapfendorf, M","type":"Markt"},"district":{"key":"09471","name":"Bamberg","type":"Landkreis"},"federalState":{"key":"09","name":"Bayern"}},{"name":"Mühlbach","postalCode":"96199","locality":"Zapfendorf","municipality":{"key":"09471214","name":"Zapfendorf, M","type":"Markt"},"district":{"key":"09471","name":"Bamberg","type":"Landkreis"},"federalState":{"key":"09","name":"Bayern"}},{"name":"Mühlweg","postalCode":"96199","locality":"Zapfendorf","municipality":{"key":"09471214","name":"Zapfendorf, M","type":"Markt"},"district":{"key":"09471","name":"Bamberg","type":"Landkreis"},"federalState":{"key":"09","name":"Bayern"}},{"name":"Nathan-R.-Preston-Str.","postalCode":"96052","locality":"Bamberg","municipality":{"key":"09461000","name":"Bamberg","type":"Kreisfreie_Stadt"},"district":{"key":"09461","name":"Bamberg","type":"Kreisfreie_Stadt"},"federalState":{"key":"09","name":"Bayern"}},{"name":"Nebingerhof","postalCode":"96047","locality":"Bamberg","municipality":{"key":"09461000","name":"Bamberg","type":"Kreisfreie_Stadt"},"district":{"key":"09461","name":"Bamberg","type":"Kreisfreie_Stadt"},"federalState":{"key":"09","name":"Bayern"}},{"name":"Neue Bughofer Str.","postalCode":"96050","locality":"Bamberg","municipality":{"key":"09461000","name":"Bamberg","type":"Kreisfreie_Stadt"},"district":{"key":"09461","name":"Bamberg","type":"Kreisfreie_Stadt"},"federalState":{"key":"09","name":"Bayern"}},{"name":"Nikolaus-Lenau-Ring","postalCode":"96050","locality":"Bamberg","municipality":{"key":"09461000","name":"Bamberg","type":"Kreisfreie_Stadt"},"district":{"key":"09461","name":"Bamberg","type":"Kreisfreie_Stadt"},"federalState":{"key":"09","name":"Bayern"}},{"name":"Nonnenbrücke","postalCode":"96047","locality":"Bamberg","municipality":{"key":"09461000","name":"Bamberg","type":"Kreisfreie_Stadt"},"district":{"key":"09461","name":"Bamberg","type":"Kreisfreie_Stadt"},"federalState":{"key":"09","name":"Bayern"}},{"name":"Nonnenbrücke","postalCode":"96049","locality":"Bamberg","municipality":{"key":"09461000","name":"Bamberg","type":"Kreisfreie_Stadt"},"district":{"key":"09461","name":"Bamberg","type":"Kreisfreie_Stadt"},"federalState":{"key":"09","name":"Bayern"}},{"name":"Nürnberger Str.","postalCode":"96050","locality":"Bamberg","municipality":{"key":"09461000","name":"Bamberg","type":"Kreisfreie_Stadt"},"district":{"key":"09461","name":"Bamberg","type":"Kreisfreie_Stadt"},"federalState":{"key":"09","name":"Bayern"}},{"name":"Obere Dorfstr.","postalCode":"96199","locality":"Zapfendorf","municipality":{"key":"09471214","name":"Zapfendorf, M","type":"Markt"},"district":{"key":"09471","name":"Bamberg","type":"Landkreis"},"federalState":{"key":"09","name":"Bayern"}},{"name":"Oberleiterbacher Str.","postalCode":"96199","locality":"Zapfendorf","municipality":{"key":"09471214","name":"Zapfendorf, M","type":"Markt"},"district":{"key":"09471","name":"Bamberg","type":"Landkreis"},"federalState":{"key":"09","name":"Bayern"}},{"name":"Oberoberndorf","postalCode":"96199","locality":"Zapfendorf","municipality":{"key":"09471214","name":"Zapfendorf, M","type":"Markt"},"district":{"key":"09471","name":"Bamberg","type":"Landkreis"},"federalState":{"key":"09","name":"Bayern"}},{"name":"Oberweg","postalCode":"96199","locality":"Zapfendorf","municipality":{"key":"09471214","name":"Zapfendorf, M","type":"Markt"},"district":{"key":"09471","name":"Bamberg","type":"Landkreis"},"federalState":{"key":"09","name":"Bayern"}},{"name":"Obstgarten","postalCode":"96199","locality":"Zapfendorf","municipality":{"key":"09471214","name":"Zapfendorf, M","type":"Markt"},"district":{"key":"09471","name":"Bamberg","type":"Landkreis"},"federalState":{"key":"09","name":"Bayern"}},{"name":"Perla","postalCode":"96199","locality":"Zapfendorf","municipality":{"key":"09471214","name":"Zapfendorf, M","type":"Markt"},"district":{"key":"09471","name":"Bamberg","type":"Landkreis"},"federalState":{"key":"09","name":"Bayern"}},{"name":"Peunt","postalCode":"96199","locality":"Zapfendorf","municipality":{"key":"09471214","name":"Zapfendorf, M","type":"Markt"},"district":{"key":"09471","name":"Bamberg","type":"Landkreis"},"federalState":{"key":"09","name":"Bayern"}},{"name":"Pfarrleite","postalCode":"96199","locality":"Zapfendorf","municipality":{"key":"09471214","name":"Zapfendorf, M","type":"Markt"},"district":{"key":"09471","name":"Bamberg","type":"Landkreis"},"federalState":{"key":"09","name":"Bayern"}},{"name":"Reifengarten","postalCode":"96199","locality":"Zapfendorf","municipality":{"key":"09471214","name":"Zapfendorf, M","type":"Markt"},"district":{"key":"09471","name":"Bamberg","type":"Landkreis"},"federalState":{"key":"09","name":"Bayern"}},{"name":"Reuther Weg","postalCode":"96199","locality":"Zapfendorf","municipality":{"key":"09471214","name":"Zapfendorf, M","type":"Markt"},"district":{"key":"09471","name":"Bamberg","type":"Landkreis"},"federalState":{"key":"09","name":"Bayern"}},{"name":"Ringstr.","postalCode":"96199","locality":"Zapfendorf","municipality":{"key":"09471214","name":"Zapfendorf, M","type":"Markt"},"district":{"key":"09471","name":"Bamberg","type":"Landkreis"},"federalState":{"key":"09","name":"Bayern"}},{"name":"Rosengarten","postalCode":"96199","locality":"Zapfendorf","municipality":{"key":"09471214","name":"Zapfendorf, M","type":"Markt"},"district":{"key":"09471","name":"Bamberg","type":"Landkreis"},"federalState":{"key":"09","name":"Bayern"}},{"name":"Röthenweg","postalCode":"96199","locality":"Zapfendorf","municipality":{"key":"09471214","name":"Zapfendorf, M","type":"Markt"},"district":{"key":"09471","name":"Bamberg","type":"Landkreis"},"federalState":{"key":"09","name":"Bayern"}},{"name":"Rother Str.","postalCode":"96199","locality":"Zapfendorf","municipality":{"key":"09471214","name":"Zapfendorf, M","type":"Markt"},"district":{"key":"09471","name":"Bamberg","type":"Landkreis"},"federalState":{"key":"09","name":"Bayern"}},{"name":"Sassendorfer Weg","postalCode":"96199","locality":"Zapfendorf","municipality":{"key":"09471214","name":"Zapfendorf, M","type":"Markt"},"district":{"key":"09471","name":"Bamberg","type":"Landkreis"},"federalState":{"key":"09","name":"Bayern"}},{"name":"Schellenberg","postalCode":"96199","locality":"Zapfendorf","municipality":{"key":"09471214","name":"Zapfendorf, M","type":"Markt"},"district":{"key":"09471","name":"Bamberg","type":"Landkreis"},"federalState":{"key":"09","name":"Bayern"}},{"name":"Scheßlitzer Str.","postalCode":"96199","locality":"Zapfendorf","municipality":{"key":"09471214","name":"Zapfendorf, M","type":"Markt"},"district":{"key":"09471","name":"Bamberg","type":"Landkreis"},"federalState":{"key":"09","name":"Bayern"}},{"name":"Schloßstr.","postalCode":"96199","locality":"Zapfendorf","municipality":{"key":"09471214","name":"Zapfendorf, M","type":"Markt"},"district":{"key":"09471","name":"Bamberg","type":"Landkreis"},"federalState":{"key":"09","name":"Bayern"}},{"name":"Schulstr.","postalCode":"96199","locality":"Zapfendorf","municipality":{"key":"09471214","name":"Zapfendorf, M","type":"Markt"},"district":{"key":"09471","name":"Bamberg","type":"Landkreis"},"federalState":{"key":"09","name":"Bayern"}},{"name":"Sommerleite","postalCode":"96199","locality":"Zapfendorf","municipality":{"key":"09471214","name":"Zapfendorf, M","type":"Markt"},"district":{"key":"09471","name":"Bamberg","type":"Landkreis"},"federalState":{"key":"09","name":"Bayern"}},{"name":"Sonnenhang","postalCode":"96199","locality":"Zapfendorf","municipality":{"key":"09471214","name":"Zapfendorf, M","type":"Markt"},"district":{"key":"09471","name":"Bamberg","type":"Landkreis"},"federalState":{"key":"09","name":"Bayern"}},{"name":"Steinbergweg","postalCode":"96199","locality":"Zapfendorf","municipality":{"key":"09471214","name":"Zapfendorf, M","type":"Markt"},"district":{"key":"09471","name":"Bamberg","type":"Landkreis"},"federalState":{"key":"09","name":"Bayern"}},{"name":"Südring","postalCode":"96199","locality":"Zapfendorf","municipality":{"key":"09471214","name":"Zapfendorf, M","type":"Markt"},"district":{"key":"09471","name":"Bamberg","type":"Landkreis"},"federalState":{"key":"09","name":"Bayern"}},{"name":"Teufelsgraben","postalCode":"96049","locality":"Bamberg","municipality":{"key":"09461000","name":"Bamberg","type":"Kreisfreie_Stadt"},"district":{"key":"09461","name":"Bamberg","type":"Kreisfreie_Stadt"},"federalState":{"key":"09","name":"Bayern"}},{"name":"Theilerstr.","postalCode":"96052","locality":"Bamberg","municipality":{"key":"09461000","name":"Bamberg","type":"Kreisfreie_Stadt"},"district":{"key":"09461","name":"Bamberg","type":"Kreisfreie_Stadt"},"federalState":{"key":"09","name":"Bayern"}},{"name":"Theodor-Heuss-Ring","postalCode":"96050","locality":"Bamberg","municipality":{"key":"09461000","name":"Bamberg","type":"Kreisfreie_Stadt"},"district":{"key":"09461","name":"Bamberg","type":"Kreisfreie_Stadt"},"federalState":{"key":"09","name":"Bayern"}},{"name":"Theodor-Mathieu-Str.","postalCode":"96052","locality":"Bamberg","municipality":{"key":"09461000","name":"Bamberg","type":"Kreisfreie_Stadt"},"district":{"key":"09461","name":"Bamberg","type":"Kreisfreie_Stadt"},"federalState":{"key":"09","name":"Bayern"}},{"name":"Theresienhain","postalCode":"96047","locality":"Bamberg","municipality":{"key":"09461000","name":"Bamberg","type":"Kreisfreie_Stadt"},"district":{"key":"09461","name":"Bamberg","type":"Kreisfreie_Stadt"},"federalState":{"key":"09","name":"Bayern"}},{"name":"Theresienstr.","postalCode":"96050","locality":"Bamberg","municipality":{"key":"09461000","name":"Bamberg","type":"Kreisfreie_Stadt"},"district":{"key":"09461","name":"Bamberg","type":"Kreisfreie_Stadt"},"federalState":{"key":"09","name":"Bayern"}},{"name":"Theuerstadt","postalCode":"96050","locality":"Bamberg","municipality":{"key":"09461000","name":"Bamberg","type":"Kreisfreie_Stadt"},"district":{"key":"09461","name":"Bamberg","type":"Kreisfreie_Stadt"},"federalState":{"key":"09","name":"Bayern"}},{"name":"Theuerstadt","postalCode":"96052","locality":"Bamberg","municipality":{"key":"09461000","name":"Bamberg","type":"Kreisfreie_Stadt"},"district":{"key":"09461","name":"Bamberg","type":"Kreisfreie_Stadt"},"federalState":{"key":"09","name":"Bayern"}},{"name":"Thorackerstr.","postalCode":"96052","locality":"Bamberg","municipality":{"key":"09461000","name":"Bamberg","type":"Kreisfreie_Stadt"},"district":{"key":"09461","name":"Bamberg","type":"Kreisfreie_Stadt"},"federalState":{"key":"09","name":"Bayern"}},{"name":"Titusstr.","postalCode":"96049","locality":"Bamberg","municipality":{"key":"09461000","name":"Bamberg","type":"Kreisfreie_Stadt"},"district":{"key":"09461","name":"Bamberg","type":"Kreisfreie_Stadt"},"federalState":{"key":"09","name":"Bayern"}},{"name":"Tocklergasse","postalCode":"96052","locality":"Bamberg","municipality":{"key":"09461000","name":"Bamberg","type":"Kreisfreie_Stadt"},"district":{"key":"09461","name":"Bamberg","type":"Kreisfreie_Stadt"},"federalState":{"key":"09","name":"Bayern"}},{"name":"Trautmannstr.","postalCode":"96052","locality":"Bamberg","municipality":{"key":"09461000","name":"Bamberg","type":"Kreisfreie_Stadt"},"district":{"key":"09461","name":"Bamberg","type":"Kreisfreie_Stadt"},"federalState":{"key":"09","name":"Bayern"}},{"name":"Treustr.","postalCode":"96050","locality":"Bamberg","municipality":{"key":"09461000","name":"Bamberg","type":"Kreisfreie_Stadt"},"district":{"key":"09461","name":"Bamberg","type":"Kreisfreie_Stadt"},"federalState":{"key":"09","name":"Bayern"}},{"name":"Trimbergstr.","postalCode":"96050","locality":"Bamberg","municipality":{"key":"09461000","name":"Bamberg","type":"Kreisfreie_Stadt"},"district":{"key":"09461","name":"Bamberg","type":"Kreisfreie_Stadt"},"federalState":{"key":"09","name":"Bayern"}},{"name":"Untere Str.","postalCode":"96199","locality":"Zapfendorf","municipality":{"key":"09471214","name":"Zapfendorf, M","type":"Markt"},"district":{"key":"09471","name":"Bamberg","type":"Landkreis"},"federalState":{"key":"09","name":"Bayern"}},{"name":"Valentinsiedlung","postalCode":"96199","locality":"Zapfendorf","municipality":{"key":"09471214","name":"Zapfendorf, M","type":"Markt"},"district":{"key":"09471","name":"Bamberg","type":"Landkreis"},"federalState":{"key":"09","name":"Bayern"}},{"name":"Veilchenweg","postalCode":"96199","locality":"Zapfendorf","municipality":{"key":"09471214","name":"Zapfendorf, M","type":"Markt"},"district":{"key":"09471","name":"Bamberg","type":"Landkreis"},"federalState":{"key":"09","name":"Bayern"}},{"name":"Waldweg","postalCode":"96199","locality":"Zapfendorf","municipality":{"key":"09471214","name":"Zapfendorf, M","type":"Markt"},"district":{"key":"09471","name":"Bamberg","type":"Landkreis"},"federalState":{"key":"09","name":"Bayern"}},{"name":"Weidenweg","postalCode":"96199","locality":"Zapfendorf","municipality":{"key":"09471214","name":"Zapfendorf, M","type":"Markt"},"district":{"key":"09471","name":"Bamberg","type":"Landkreis"},"federalState":{"key":"09","name":"Bayern"}},{"name":"Weiherweg","postalCode":"96199","locality":"Zapfendorf","municipality":{"key":"09471214","name":"Zapfendorf, M","type":"Markt"},"district":{"key":"09471","name":"Bamberg","type":"Landkreis"},"federalState":{"key":"09","name":"Bayern"}},{"name":"Weinberg","postalCode":"96199","locality":"Zapfendorf","municipality":{"key":"09471214","name":"Zapfendorf, M","type":"Markt"},"district":{"key":"09471","name":"Bamberg","type":"Landkreis"},"federalState":{"key":"09","name":"Bayern"}},{"name":"Wiesenweg","postalCode":"96199","locality":"Zapfendorf","municipality":{"key":"09471214","name":"Zapfendorf, M","type":"Markt"},"district":{"key":"09471","name":"Bamberg","type":"Landkreis"},"federalState":{"key":"09","name":"Bayern"}},{"name":"Wolfsteig","postalCode":"96199","locality":"Zapfendorf","municipality":{"key":"09471214","name":"Zapfendorf, M","type":"Markt"},"district":{"key":"09471","name":"Bamberg","type":"Landkreis"},"federalState":{"key":"09","name":"Bayern"}},{"name":"Zeppelinstr.","postalCode":"96052","locality":"Bamberg","municipality":{"key":"09461000","name":"Bamberg","type":"Kreisfreie_Stadt"},"district":{"key":"09461","name":"Bamberg","type":"Kreisfreie_Stadt"},"federalState":{"key":"09","name":"Bayern"}},{"name":"Ziegelgasse","postalCode":"96049","locality":"Bamberg","municipality":{"key":"09461000","name":"Bamberg","type":"Kreisfreie_Stadt"},"district":{"key":"09461","name":"Bamberg","type":"Kreisfreie_Stadt"},"federalState":{"key":"09","name":"Bayern"}},{"name":"Zieglerschlag","postalCode":"96049","locality":"Bamberg","municipality":{"key":"09461000","name":"Bamberg","type":"Kreisfreie_Stadt"},"district":{"key":"09461","name":"Bamberg","type":"Kreisfreie_Stadt"},"federalState":{"key":"09","name":"Bayern"}},{"name":"Zinkenwörth","postalCode":"96047","locality":"Bamberg","municipality":{"key":"09461000","name":"Bamberg","type":"Kreisfreie_Stadt"},"district":{"key":"09461","name":"Bamberg","type":"Kreisfreie_Stadt"},"federalState":{"key":"09","name":"Bayern"}},{"name":"Zollnerstr.","postalCode":"96052","locality":"Bamberg","municipality":{"key":"09461000","name":"Bamberg","type":"Kreisfreie_Stadt"},"district":{"key":"09461","name":"Bamberg","type":"Kreisfreie_Stadt"},"federalState":{"key":"09","name":"Bayern"}},{"name":"Zum Allengrund","postalCode":"55585","locality":"Altenbamberg","municipality":{"key":"07133003","name":"Altenbamberg","type":"Kreisangehörige_Gemeinde"},"district":{"key":"07133","name":"Bad Kreuznach","type":"Landkreis"},"federalState":{"key":"07","name":"Rheinland-Pfalz"}},{"name":"Zum Eichelberg","postalCode":"96050","locality":"Bamberg","municipality":{"key":"09461000","name":"Bamberg","type":"Kreisfreie_Stadt"},"district":{"key":"09461","name":"Bamberg","type":"Kreisfreie_Stadt"},"federalState":{"key":"09","name":"Bayern"}},{"name":"Zum Frauenkopf","postalCode":"55585","locality":"Altenbamberg","municipality":{"key":"07133003","name":"Altenbamberg","type":"Kreisangehörige_Gemeinde"},"district":{"key":"07133","name":"Bad Kreuznach","type":"Landkreis"},"federalState":{"key":"07","name":"Rheinland-Pfalz"}},{"name":"Zweidlerweg","postalCode":"96050","locality":"Bamberg","municipality":{"key":"09461000","name":"Bamberg","type":"Kreisfreie_Stadt"},"district":{"key":"09461","name":"Bamberg","type":"Kreisfreie_Stadt"},"federalState":{"key":"09","name":"Bayern"}},{"name":"Äußere Löwenstr.","postalCode":"96052","locality":"Bamberg","municipality":{"key":"09461000","name":"Bamberg","type":"Kreisfreie_Stadt"},"district":{"key":"09461","name":"Bamberg","type":"Kreisfreie_Stadt"},"federalState":{"key":"09","name":"Bayern"}},]