[{"key":"10107930","name":"Chemin des Cheneviers","postalCode":"1431","locality":"Vugelles-La Mothe","commune":{"key":"5937","name":"Vugelles-La Mothe","shortName":"Vugelles-La Mothe"},"district":{"key":"2224","name":"District du Jura-Nord vaudois"},"canton":{"key":"22","code":"VD","name":"Vaud"},"status":"Real"},{"key":"10168025","name":"Chemin des Fontannets","postalCode":"1431","locality":"Vugelles-La Mothe","commune":{"key":"5937","name":"Vugelles-La Mothe","shortName":"Vugelles-La Mothe"},"district":{"key":"2224","name":"District du Jura-Nord vaudois"},"canton":{"key":"22","code":"VD","name":"Vaud"},"status":"Real"},{"key":"10173889","name":"Chemin des Jordils","postalCode":"1431","locality":"Vugelles-La Mothe","commune":{"key":"5937","name":"Vugelles-La Mothe","shortName":"Vugelles-La Mothe"},"district":{"key":"2224","name":"District du Jura-Nord vaudois"},"canton":{"key":"22","code":"VD","name":"Vaud"},"status":"Real"},{"key":"10168024","name":"Chemin des Neyrettes","postalCode":"1431","locality":"Vugelles-La Mothe","commune":{"key":"5937","name":"Vugelles-La Mothe","shortName":"Vugelles-La Mothe"},"district":{"key":"2224","name":"District du Jura-Nord vaudois"},"canton":{"key":"22","code":"VD","name":"Vaud"},"status":"Real"},{"key":"10050503","name":"Chemin de Sous le Motty","postalCode":"1431","locality":"Vugelles-La Mothe","commune":{"key":"5937","name":"Vugelles-La Mothe","shortName":"Vugelles-La Mothe"},"district":{"key":"2224","name":"District du Jura-Nord vaudois"},"canton":{"key":"22","code":"VD","name":"Vaud"},"status":"Real"},{"key":"10168026","name":"Chemin de Sur le Motty","postalCode":"1431","locality":"Vugelles-La Mothe","commune":{"key":"5937","name":"Vugelles-La Mothe","shortName":"Vugelles-La Mothe"},"district":{"key":"2224","name":"District du Jura-Nord vaudois"},"canton":{"key":"22","code":"VD","name":"Vaud"},"status":"Real"},{"key":"10168022","name":"Chemin du Champ des Râpes","postalCode":"1431","locality":"Vugelles-La Mothe","commune":{"key":"5937","name":"Vugelles-La Mothe","shortName":"Vugelles-La Mothe"},"district":{"key":"2224","name":"District du Jura-Nord vaudois"},"canton":{"key":"22","code":"VD","name":"Vaud"},"status":"Real"},{"key":"10168023","name":"Chemin du Château","postalCode":"1431","locality":"Vugelles-La Mothe","commune":{"key":"5937","name":"Vugelles-La Mothe","shortName":"Vugelles-La Mothe"},"district":{"key":"2224","name":"District du Jura-Nord vaudois"},"canton":{"key":"22","code":"VD","name":"Vaud"},"status":"Real"},{"key":"10181307","name":"Chemin du Grand Clos","postalCode":"1431","locality":"Vugelles-La Mothe","commune":{"key":"5937","name":"Vugelles-La Mothe","shortName":"Vugelles-La Mothe"},"district":{"key":"2224","name":"District du Jura-Nord vaudois"},"canton":{"key":"22","code":"VD","name":"Vaud"},"status":"Real"},{"key":"10168021","name":"Chemin du Repos","postalCode":"1431","locality":"Vugelles-La Mothe","commune":{"key":"5937","name":"Vugelles-La Mothe","shortName":"Vugelles-La Mothe"},"district":{"key":"2224","name":"District du Jura-Nord vaudois"},"canton":{"key":"22","code":"VD","name":"Vaud"},"status":"Real"},{"key":"10149318","name":"Chemin du Tilleul","postalCode":"1431","locality":"Vugelles-La Mothe","commune":{"key":"5937","name":"Vugelles-La Mothe","shortName":"Vugelles-La Mothe"},"district":{"key":"2224","name":"District du Jura-Nord vaudois"},"canton":{"key":"22","code":"VD","name":"Vaud"},"status":"Real"},{"key":"10255233","name":"La Crochère d'en Bas","postalCode":"1431","locality":"Vugelles-La Mothe","commune":{"key":"5937","name":"Vugelles-La Mothe","shortName":"Vugelles-La Mothe"},"district":{"key":"2224","name":"District du Jura-Nord vaudois"},"canton":{"key":"22","code":"VD","name":"Vaud"},"status":"Real"},{"key":"10168016","name":"Route de la Gaîté","postalCode":"1431","locality":"Vugelles-La Mothe","commune":{"key":"5937","name":"Vugelles-La Mothe","shortName":"Vugelles-La Mothe"},"district":{"key":"2224","name":"District du Jura-Nord vaudois"},"canton":{"key":"22","code":"VD","name":"Vaud"},"status":"Real"},{"key":"10173890","name":"Route de l'Arnon","postalCode":"1431","locality":"Vugelles-La Mothe","commune":{"key":"5937","name":"Vugelles-La Mothe","shortName":"Vugelles-La Mothe"},"district":{"key":"2224","name":"District du Jura-Nord vaudois"},"canton":{"key":"22","code":"VD","name":"Vaud"},"status":"Real"},{"key":"10168019","name":"Route de l'Eglise","postalCode":"1431","locality":"Vugelles-La Mothe","commune":{"key":"5937","name":"Vugelles-La Mothe","shortName":"Vugelles-La Mothe"},"district":{"key":"2224","name":"District du Jura-Nord vaudois"},"canton":{"key":"22","code":"VD","name":"Vaud"},"status":"Real"},{"key":"10173883","name":"Rue de la Roche aux Corbeaux","postalCode":"1431","locality":"Vugelles-La Mothe","commune":{"key":"5937","name":"Vugelles-La Mothe","shortName":"Vugelles-La Mothe"},"district":{"key":"2224","name":"District du Jura-Nord vaudois"},"canton":{"key":"22","code":"VD","name":"Vaud"},"status":"Real"},{"key":"10168018","name":"Rue des Trois Fontaines","postalCode":"1431","locality":"Vugelles-La Mothe","commune":{"key":"5937","name":"Vugelles-La Mothe","shortName":"Vugelles-La Mothe"},"district":{"key":"2224","name":"District du Jura-Nord vaudois"},"canton":{"key":"22","code":"VD","name":"Vaud"},"status":"Real"},{"key":"10168017","name":"Rue du Jura","postalCode":"1431","locality":"Vugelles-La Mothe","commune":{"key":"5937","name":"Vugelles-La Mothe","shortName":"Vugelles-La Mothe"},"district":{"key":"2224","name":"District du Jura-Nord vaudois"},"canton":{"key":"22","code":"VD","name":"Vaud"},"status":"Real"},{"key":"10128375","name":"Ruelle de la Combe","postalCode":"1431","locality":"Vugelles-La Mothe","commune":{"key":"5937","name":"Vugelles-La Mothe","shortName":"Vugelles-La Mothe"},"district":{"key":"2224","name":"District du Jura-Nord vaudois"},"canton":{"key":"22","code":"VD","name":"Vaud"},"status":"Real"},]