[{"name":"Am Park","postalCode":"18276","locality":"Groß Schwiesow","municipality":{"key":"13072039","name":"Groß Schwiesow","type":"Kreisangehörige_Gemeinde"},"district":{"key":"13072","name":"Landkreis Rostock","type":"Landkreis"},"federalState":{"key":"13","name":"Mecklenburg-Vorpommern"}},{"name":"Am Speicher","postalCode":"18276","locality":"Groß Schwiesow","municipality":{"key":"13072039","name":"Groß Schwiesow","type":"Kreisangehörige_Gemeinde"},"district":{"key":"13072","name":"Landkreis Rostock","type":"Landkreis"},"federalState":{"key":"13","name":"Mecklenburg-Vorpommern"}},{"name":"An der Crossbahn","postalCode":"18276","locality":"Groß Schwiesow","municipality":{"key":"13072039","name":"Groß Schwiesow","type":"Kreisangehörige_Gemeinde"},"district":{"key":"13072","name":"Landkreis Rostock","type":"Landkreis"},"federalState":{"key":"13","name":"Mecklenburg-Vorpommern"}},{"name":"Bützower Str.","postalCode":"18276","locality":"Groß Schwiesow","municipality":{"key":"13072039","name":"Groß Schwiesow","type":"Kreisangehörige_Gemeinde"},"district":{"key":"13072","name":"Landkreis Rostock","type":"Landkreis"},"federalState":{"key":"13","name":"Mecklenburg-Vorpommern"}},{"name":"Klein Schwiesow","postalCode":"18276","locality":"Groß Schwiesow","municipality":{"key":"13072039","name":"Groß Schwiesow","type":"Kreisangehörige_Gemeinde"},"district":{"key":"13072","name":"Landkreis Rostock","type":"Landkreis"},"federalState":{"key":"13","name":"Mecklenburg-Vorpommern"}},{"name":"Oetteliner Weg","postalCode":"18276","locality":"Groß Schwiesow","municipality":{"key":"13072039","name":"Groß Schwiesow","type":"Kreisangehörige_Gemeinde"},"district":{"key":"13072","name":"Landkreis Rostock","type":"Landkreis"},"federalState":{"key":"13","name":"Mecklenburg-Vorpommern"}},{"name":"Schuldamm","postalCode":"18276","locality":"Groß Schwiesow","municipality":{"key":"13072039","name":"Groß Schwiesow","type":"Kreisangehörige_Gemeinde"},"district":{"key":"13072","name":"Landkreis Rostock","type":"Landkreis"},"federalState":{"key":"13","name":"Mecklenburg-Vorpommern"}},{"name":"Schwiesower Forst","postalCode":"18276","locality":"Groß Schwiesow","municipality":{"key":"13072039","name":"Groß Schwiesow","type":"Kreisangehörige_Gemeinde"},"district":{"key":"13072","name":"Landkreis Rostock","type":"Landkreis"},"federalState":{"key":"13","name":"Mecklenburg-Vorpommern"}},{"name":"Storchenweg","postalCode":"18276","locality":"Groß Schwiesow","municipality":{"key":"13072039","name":"Groß Schwiesow","type":"Kreisangehörige_Gemeinde"},"district":{"key":"13072","name":"Landkreis Rostock","type":"Landkreis"},"federalState":{"key":"13","name":"Mecklenburg-Vorpommern"}},]