[{"name":"Am Gansacker","postalCode":"79224","locality":"Umkirch","municipality":{"key":"08315115","name":"Umkirch","type":"Kreisangehörige_Gemeinde"},"district":{"key":"08315","name":"Breisgau-Hochschwarzwald","type":"Landkreis"},"federalState":{"key":"08","name":"Baden-Württemberg"}},{"name":"Am Herrengarten","postalCode":"79224","locality":"Umkirch","municipality":{"key":"08315115","name":"Umkirch","type":"Kreisangehörige_Gemeinde"},"district":{"key":"08315","name":"Breisgau-Hochschwarzwald","type":"Landkreis"},"federalState":{"key":"08","name":"Baden-Württemberg"}},{"name":"Am Spitzenwäldele","postalCode":"79224","locality":"Umkirch","municipality":{"key":"08315115","name":"Umkirch","type":"Kreisangehörige_Gemeinde"},"district":{"key":"08315","name":"Breisgau-Hochschwarzwald","type":"Landkreis"},"federalState":{"key":"08","name":"Baden-Württemberg"}},{"name":"An der Gärtnerei","postalCode":"79224","locality":"Umkirch","municipality":{"key":"08315115","name":"Umkirch","type":"Kreisangehörige_Gemeinde"},"district":{"key":"08315","name":"Breisgau-Hochschwarzwald","type":"Landkreis"},"federalState":{"key":"08","name":"Baden-Württemberg"}},{"name":"Ankenreuterstr.","postalCode":"79224","locality":"Umkirch","municipality":{"key":"08315115","name":"Umkirch","type":"Kreisangehörige_Gemeinde"},"district":{"key":"08315","name":"Breisgau-Hochschwarzwald","type":"Landkreis"},"federalState":{"key":"08","name":"Baden-Württemberg"}},{"name":"Belchenring","postalCode":"79224","locality":"Umkirch","municipality":{"key":"08315115","name":"Umkirch","type":"Kreisangehörige_Gemeinde"},"district":{"key":"08315","name":"Breisgau-Hochschwarzwald","type":"Landkreis"},"federalState":{"key":"08","name":"Baden-Württemberg"}},{"name":"Beroldingerstr.","postalCode":"79224","locality":"Umkirch","municipality":{"key":"08315115","name":"Umkirch","type":"Kreisangehörige_Gemeinde"},"district":{"key":"08315","name":"Breisgau-Hochschwarzwald","type":"Landkreis"},"federalState":{"key":"08","name":"Baden-Württemberg"}},{"name":"Binkeweg","postalCode":"79224","locality":"Umkirch","municipality":{"key":"08315115","name":"Umkirch","type":"Kreisangehörige_Gemeinde"},"district":{"key":"08315","name":"Breisgau-Hochschwarzwald","type":"Landkreis"},"federalState":{"key":"08","name":"Baden-Württemberg"}},{"name":"Blumeneckstr.","postalCode":"79224","locality":"Umkirch","municipality":{"key":"08315115","name":"Umkirch","type":"Kreisangehörige_Gemeinde"},"district":{"key":"08315","name":"Breisgau-Hochschwarzwald","type":"Landkreis"},"federalState":{"key":"08","name":"Baden-Württemberg"}},{"name":"Brugesstr.","postalCode":"79224","locality":"Umkirch","municipality":{"key":"08315115","name":"Umkirch","type":"Kreisangehörige_Gemeinde"},"district":{"key":"08315","name":"Breisgau-Hochschwarzwald","type":"Landkreis"},"federalState":{"key":"08","name":"Baden-Württemberg"}},{"name":"Bühlweg","postalCode":"79224","locality":"Umkirch","municipality":{"key":"08315115","name":"Umkirch","type":"Kreisangehörige_Gemeinde"},"district":{"key":"08315","name":"Breisgau-Hochschwarzwald","type":"Landkreis"},"federalState":{"key":"08","name":"Baden-Württemberg"}},{"name":"Büninger Str.","postalCode":"79224","locality":"Umkirch","municipality":{"key":"08315115","name":"Umkirch","type":"Kreisangehörige_Gemeinde"},"district":{"key":"08315","name":"Breisgau-Hochschwarzwald","type":"Landkreis"},"federalState":{"key":"08","name":"Baden-Württemberg"}},{"name":"Clara Egerten","postalCode":"79224","locality":"Umkirch","municipality":{"key":"08315115","name":"Umkirch","type":"Kreisangehörige_Gemeinde"},"district":{"key":"08315","name":"Breisgau-Hochschwarzwald","type":"Landkreis"},"federalState":{"key":"08","name":"Baden-Württemberg"}},{"name":"Dachswanger Hof","postalCode":"79224","locality":"Umkirch","municipality":{"key":"08315115","name":"Umkirch","type":"Kreisangehörige_Gemeinde"},"district":{"key":"08315","name":"Breisgau-Hochschwarzwald","type":"Landkreis"},"federalState":{"key":"08","name":"Baden-Württemberg"}},{"name":"Dachswanger Weg","postalCode":"79224","locality":"Umkirch","municipality":{"key":"08315115","name":"Umkirch","type":"Kreisangehörige_Gemeinde"},"district":{"key":"08315","name":"Breisgau-Hochschwarzwald","type":"Landkreis"},"federalState":{"key":"08","name":"Baden-Württemberg"}},{"name":"Dreisamstr.","postalCode":"79224","locality":"Umkirch","municipality":{"key":"08315115","name":"Umkirch","type":"Kreisangehörige_Gemeinde"},"district":{"key":"08315","name":"Breisgau-Hochschwarzwald","type":"Landkreis"},"federalState":{"key":"08","name":"Baden-Württemberg"}},{"name":"Feldbergstr.","postalCode":"79224","locality":"Umkirch","municipality":{"key":"08315115","name":"Umkirch","type":"Kreisangehörige_Gemeinde"},"district":{"key":"08315","name":"Breisgau-Hochschwarzwald","type":"Landkreis"},"federalState":{"key":"08","name":"Baden-Württemberg"}},{"name":"Forellenhofweg","postalCode":"79224","locality":"Umkirch","municipality":{"key":"08315115","name":"Umkirch","type":"Kreisangehörige_Gemeinde"},"district":{"key":"08315","name":"Breisgau-Hochschwarzwald","type":"Landkreis"},"federalState":{"key":"08","name":"Baden-Württemberg"}},{"name":"Franz-Heitzler-Weg","postalCode":"79224","locality":"Umkirch","municipality":{"key":"08315115","name":"Umkirch","type":"Kreisangehörige_Gemeinde"},"district":{"key":"08315","name":"Breisgau-Hochschwarzwald","type":"Landkreis"},"federalState":{"key":"08","name":"Baden-Württemberg"}},{"name":"Gottenheimer Str.","postalCode":"79224","locality":"Umkirch","municipality":{"key":"08315115","name":"Umkirch","type":"Kreisangehörige_Gemeinde"},"district":{"key":"08315","name":"Breisgau-Hochschwarzwald","type":"Landkreis"},"federalState":{"key":"08","name":"Baden-Württemberg"}},{"name":"Gutshof","postalCode":"79224","locality":"Umkirch","municipality":{"key":"08315115","name":"Umkirch","type":"Kreisangehörige_Gemeinde"},"district":{"key":"08315","name":"Breisgau-Hochschwarzwald","type":"Landkreis"},"federalState":{"key":"08","name":"Baden-Württemberg"}},{"name":"Hasenwinkel","postalCode":"79224","locality":"Umkirch","municipality":{"key":"08315115","name":"Umkirch","type":"Kreisangehörige_Gemeinde"},"district":{"key":"08315","name":"Breisgau-Hochschwarzwald","type":"Landkreis"},"federalState":{"key":"08","name":"Baden-Württemberg"}},{"name":"Hauptstr.","postalCode":"79224","locality":"Umkirch","municipality":{"key":"08315115","name":"Umkirch","type":"Kreisangehörige_Gemeinde"},"district":{"key":"08315","name":"Breisgau-Hochschwarzwald","type":"Landkreis"},"federalState":{"key":"08","name":"Baden-Württemberg"}},{"name":"Herrengässle","postalCode":"79224","locality":"Umkirch","municipality":{"key":"08315115","name":"Umkirch","type":"Kreisangehörige_Gemeinde"},"district":{"key":"08315","name":"Breisgau-Hochschwarzwald","type":"Landkreis"},"federalState":{"key":"08","name":"Baden-Württemberg"}},{"name":"Herrenwäldele","postalCode":"79224","locality":"Umkirch","municipality":{"key":"08315115","name":"Umkirch","type":"Kreisangehörige_Gemeinde"},"district":{"key":"08315","name":"Breisgau-Hochschwarzwald","type":"Landkreis"},"federalState":{"key":"08","name":"Baden-Württemberg"}},{"name":"Hohenzollernweg","postalCode":"79224","locality":"Umkirch","municipality":{"key":"08315115","name":"Umkirch","type":"Kreisangehörige_Gemeinde"},"district":{"key":"08315","name":"Breisgau-Hochschwarzwald","type":"Landkreis"},"federalState":{"key":"08","name":"Baden-Württemberg"}},{"name":"Hugstetter Str.","postalCode":"79224","locality":"Umkirch","municipality":{"key":"08315115","name":"Umkirch","type":"Kreisangehörige_Gemeinde"},"district":{"key":"08315","name":"Breisgau-Hochschwarzwald","type":"Landkreis"},"federalState":{"key":"08","name":"Baden-Württemberg"}},{"name":"Im Brünneleacker","postalCode":"79224","locality":"Umkirch","municipality":{"key":"08315115","name":"Umkirch","type":"Kreisangehörige_Gemeinde"},"district":{"key":"08315","name":"Breisgau-Hochschwarzwald","type":"Landkreis"},"federalState":{"key":"08","name":"Baden-Württemberg"}},{"name":"Im Brunnenfeld","postalCode":"79224","locality":"Umkirch","municipality":{"key":"08315115","name":"Umkirch","type":"Kreisangehörige_Gemeinde"},"district":{"key":"08315","name":"Breisgau-Hochschwarzwald","type":"Landkreis"},"federalState":{"key":"08","name":"Baden-Württemberg"}},{"name":"Im Fuchsloch","postalCode":"79224","locality":"Umkirch","municipality":{"key":"08315115","name":"Umkirch","type":"Kreisangehörige_Gemeinde"},"district":{"key":"08315","name":"Breisgau-Hochschwarzwald","type":"Landkreis"},"federalState":{"key":"08","name":"Baden-Württemberg"}},{"name":"Im Hupfuf","postalCode":"79224","locality":"Umkirch","municipality":{"key":"08315115","name":"Umkirch","type":"Kreisangehörige_Gemeinde"},"district":{"key":"08315","name":"Breisgau-Hochschwarzwald","type":"Landkreis"},"federalState":{"key":"08","name":"Baden-Württemberg"}},{"name":"Im Kirchenhürstle","postalCode":"79224","locality":"Umkirch","municipality":{"key":"08315115","name":"Umkirch","type":"Kreisangehörige_Gemeinde"},"district":{"key":"08315","name":"Breisgau-Hochschwarzwald","type":"Landkreis"},"federalState":{"key":"08","name":"Baden-Württemberg"}},{"name":"Im Mösle","postalCode":"79224","locality":"Umkirch","municipality":{"key":"08315115","name":"Umkirch","type":"Kreisangehörige_Gemeinde"},"district":{"key":"08315","name":"Breisgau-Hochschwarzwald","type":"Landkreis"},"federalState":{"key":"08","name":"Baden-Württemberg"}},{"name":"Im Schwenkenland","postalCode":"79224","locality":"Umkirch","municipality":{"key":"08315115","name":"Umkirch","type":"Kreisangehörige_Gemeinde"},"district":{"key":"08315","name":"Breisgau-Hochschwarzwald","type":"Landkreis"},"federalState":{"key":"08","name":"Baden-Württemberg"}},{"name":"Im Stöckacker","postalCode":"79224","locality":"Umkirch","municipality":{"key":"08315115","name":"Umkirch","type":"Kreisangehörige_Gemeinde"},"district":{"key":"08315","name":"Breisgau-Hochschwarzwald","type":"Landkreis"},"federalState":{"key":"08","name":"Baden-Württemberg"}},{"name":"Im Zinken","postalCode":"79224","locality":"Umkirch","municipality":{"key":"08315115","name":"Umkirch","type":"Kreisangehörige_Gemeinde"},"district":{"key":"08315","name":"Breisgau-Hochschwarzwald","type":"Landkreis"},"federalState":{"key":"08","name":"Baden-Württemberg"}},{"name":"In der Breite","postalCode":"79224","locality":"Umkirch","municipality":{"key":"08315115","name":"Umkirch","type":"Kreisangehörige_Gemeinde"},"district":{"key":"08315","name":"Breisgau-Hochschwarzwald","type":"Landkreis"},"federalState":{"key":"08","name":"Baden-Württemberg"}},{"name":"Josefinenweg","postalCode":"79224","locality":"Umkirch","municipality":{"key":"08315115","name":"Umkirch","type":"Kreisangehörige_Gemeinde"},"district":{"key":"08315","name":"Breisgau-Hochschwarzwald","type":"Landkreis"},"federalState":{"key":"08","name":"Baden-Württemberg"}},{"name":"Kageneckstr.","postalCode":"79224","locality":"Umkirch","municipality":{"key":"08315115","name":"Umkirch","type":"Kreisangehörige_Gemeinde"},"district":{"key":"08315","name":"Breisgau-Hochschwarzwald","type":"Landkreis"},"federalState":{"key":"08","name":"Baden-Württemberg"}},{"name":"Kalkofen","postalCode":"79224","locality":"Umkirch","municipality":{"key":"08315115","name":"Umkirch","type":"Kreisangehörige_Gemeinde"},"district":{"key":"08315","name":"Breisgau-Hochschwarzwald","type":"Landkreis"},"federalState":{"key":"08","name":"Baden-Württemberg"}},{"name":"Kandelstr.","postalCode":"79224","locality":"Umkirch","municipality":{"key":"08315115","name":"Umkirch","type":"Kreisangehörige_Gemeinde"},"district":{"key":"08315","name":"Breisgau-Hochschwarzwald","type":"Landkreis"},"federalState":{"key":"08","name":"Baden-Württemberg"}},{"name":"Klappermatten","postalCode":"79224","locality":"Umkirch","municipality":{"key":"08315115","name":"Umkirch","type":"Kreisangehörige_Gemeinde"},"district":{"key":"08315","name":"Breisgau-Hochschwarzwald","type":"Landkreis"},"federalState":{"key":"08","name":"Baden-Württemberg"}},{"name":"Kreuzbächleweg","postalCode":"79224","locality":"Umkirch","municipality":{"key":"08315115","name":"Umkirch","type":"Kreisangehörige_Gemeinde"},"district":{"key":"08315","name":"Breisgau-Hochschwarzwald","type":"Landkreis"},"federalState":{"key":"08","name":"Baden-Württemberg"}},{"name":"Kühneracker","postalCode":"79224","locality":"Umkirch","municipality":{"key":"08315115","name":"Umkirch","type":"Kreisangehörige_Gemeinde"},"district":{"key":"08315","name":"Breisgau-Hochschwarzwald","type":"Landkreis"},"federalState":{"key":"08","name":"Baden-Württemberg"}},{"name":"Mittelweg","postalCode":"79224","locality":"Umkirch","municipality":{"key":"08315115","name":"Umkirch","type":"Kreisangehörige_Gemeinde"},"district":{"key":"08315","name":"Breisgau-Hochschwarzwald","type":"Landkreis"},"federalState":{"key":"08","name":"Baden-Württemberg"}},{"name":"Mühlegäßle","postalCode":"79224","locality":"Umkirch","municipality":{"key":"08315115","name":"Umkirch","type":"Kreisangehörige_Gemeinde"},"district":{"key":"08315","name":"Breisgau-Hochschwarzwald","type":"Landkreis"},"federalState":{"key":"08","name":"Baden-Württemberg"}},{"name":"Mühlematten","postalCode":"79224","locality":"Umkirch","municipality":{"key":"08315115","name":"Umkirch","type":"Kreisangehörige_Gemeinde"},"district":{"key":"08315","name":"Breisgau-Hochschwarzwald","type":"Landkreis"},"federalState":{"key":"08","name":"Baden-Württemberg"}},{"name":"Mundenhofer Weg","postalCode":"79224","locality":"Umkirch","municipality":{"key":"08315115","name":"Umkirch","type":"Kreisangehörige_Gemeinde"},"district":{"key":"08315","name":"Breisgau-Hochschwarzwald","type":"Landkreis"},"federalState":{"key":"08","name":"Baden-Württemberg"}},{"name":"Rosenstr.","postalCode":"79224","locality":"Umkirch","municipality":{"key":"08315115","name":"Umkirch","type":"Kreisangehörige_Gemeinde"},"district":{"key":"08315","name":"Breisgau-Hochschwarzwald","type":"Landkreis"},"federalState":{"key":"08","name":"Baden-Württemberg"}},{"name":"Sandacker","postalCode":"79224","locality":"Umkirch","municipality":{"key":"08315115","name":"Umkirch","type":"Kreisangehörige_Gemeinde"},"district":{"key":"08315","name":"Breisgau-Hochschwarzwald","type":"Landkreis"},"federalState":{"key":"08","name":"Baden-Württemberg"}},{"name":"Schauinslandstr.","postalCode":"79224","locality":"Umkirch","municipality":{"key":"08315115","name":"Umkirch","type":"Kreisangehörige_Gemeinde"},"district":{"key":"08315","name":"Breisgau-Hochschwarzwald","type":"Landkreis"},"federalState":{"key":"08","name":"Baden-Württemberg"}},{"name":"Schloßweg","postalCode":"79224","locality":"Umkirch","municipality":{"key":"08315115","name":"Umkirch","type":"Kreisangehörige_Gemeinde"},"district":{"key":"08315","name":"Breisgau-Hochschwarzwald","type":"Landkreis"},"federalState":{"key":"08","name":"Baden-Württemberg"}},{"name":"Snewelinstr.","postalCode":"79224","locality":"Umkirch","municipality":{"key":"08315115","name":"Umkirch","type":"Kreisangehörige_Gemeinde"},"district":{"key":"08315","name":"Breisgau-Hochschwarzwald","type":"Landkreis"},"federalState":{"key":"08","name":"Baden-Württemberg"}},{"name":"Stephanienweg","postalCode":"79224","locality":"Umkirch","municipality":{"key":"08315115","name":"Umkirch","type":"Kreisangehörige_Gemeinde"},"district":{"key":"08315","name":"Breisgau-Hochschwarzwald","type":"Landkreis"},"federalState":{"key":"08","name":"Baden-Württemberg"}},{"name":"Stöckmatten","postalCode":"79224","locality":"Umkirch","municipality":{"key":"08315115","name":"Umkirch","type":"Kreisangehörige_Gemeinde"},"district":{"key":"08315","name":"Breisgau-Hochschwarzwald","type":"Landkreis"},"federalState":{"key":"08","name":"Baden-Württemberg"}},{"name":"Stumpenweg","postalCode":"79224","locality":"Umkirch","municipality":{"key":"08315115","name":"Umkirch","type":"Kreisangehörige_Gemeinde"},"district":{"key":"08315","name":"Breisgau-Hochschwarzwald","type":"Landkreis"},"federalState":{"key":"08","name":"Baden-Württemberg"}},{"name":"Tunibergstr.","postalCode":"79224","locality":"Umkirch","municipality":{"key":"08315115","name":"Umkirch","type":"Kreisangehörige_Gemeinde"},"district":{"key":"08315","name":"Breisgau-Hochschwarzwald","type":"Landkreis"},"federalState":{"key":"08","name":"Baden-Württemberg"}},{"name":"Waldmatten","postalCode":"79224","locality":"Umkirch","municipality":{"key":"08315115","name":"Umkirch","type":"Kreisangehörige_Gemeinde"},"district":{"key":"08315","name":"Breisgau-Hochschwarzwald","type":"Landkreis"},"federalState":{"key":"08","name":"Baden-Württemberg"}},{"name":"Waldstr.","postalCode":"79224","locality":"Umkirch","municipality":{"key":"08315115","name":"Umkirch","type":"Kreisangehörige_Gemeinde"},"district":{"key":"08315","name":"Breisgau-Hochschwarzwald","type":"Landkreis"},"federalState":{"key":"08","name":"Baden-Württemberg"}},{"name":"Waltershofer Str.","postalCode":"79224","locality":"Umkirch","municipality":{"key":"08315115","name":"Umkirch","type":"Kreisangehörige_Gemeinde"},"district":{"key":"08315","name":"Breisgau-Hochschwarzwald","type":"Landkreis"},"federalState":{"key":"08","name":"Baden-Württemberg"}},{"name":"Wigersheimstr.","postalCode":"79224","locality":"Umkirch","municipality":{"key":"08315115","name":"Umkirch","type":"Kreisangehörige_Gemeinde"},"district":{"key":"08315","name":"Breisgau-Hochschwarzwald","type":"Landkreis"},"federalState":{"key":"08","name":"Baden-Württemberg"}},{"name":"Wolber Gässle","postalCode":"79224","locality":"Umkirch","municipality":{"key":"08315115","name":"Umkirch","type":"Kreisangehörige_Gemeinde"},"district":{"key":"08315","name":"Breisgau-Hochschwarzwald","type":"Landkreis"},"federalState":{"key":"08","name":"Baden-Württemberg"}},]