[{"name":"Ahornweg","postalCode":"55288","locality":"Armsheim","municipality":{"key":"07331004","name":"Armsheim","type":"Kreisangehörige_Gemeinde"},"district":{"key":"07331","name":"Alzey-Worms","type":"Landkreis"},"federalState":{"key":"07","name":"Rheinland-Pfalz"}},{"name":"Albert-Schweitzer-Str.","postalCode":"55424","locality":"Münster-Sarmsheim","municipality":{"key":"07339038","name":"Münster-Sarmsheim","type":"Kreisangehörige_Gemeinde"},"district":{"key":"07339","name":"Mainz-Bingen","type":"Landkreis"},"federalState":{"key":"07","name":"Rheinland-Pfalz"}},{"name":"Am Bahnhof","postalCode":"55288","locality":"Armsheim","municipality":{"key":"07331004","name":"Armsheim","type":"Kreisangehörige_Gemeinde"},"district":{"key":"07331","name":"Alzey-Worms","type":"Landkreis"},"federalState":{"key":"07","name":"Rheinland-Pfalz"}},{"name":"Am Billgraben","postalCode":"55288","locality":"Armsheim","municipality":{"key":"07331004","name":"Armsheim","type":"Kreisangehörige_Gemeinde"},"district":{"key":"07331","name":"Alzey-Worms","type":"Landkreis"},"federalState":{"key":"07","name":"Rheinland-Pfalz"}},{"name":"Am Dörrenböhl","postalCode":"55288","locality":"Armsheim","municipality":{"key":"07331004","name":"Armsheim","type":"Kreisangehörige_Gemeinde"},"district":{"key":"07331","name":"Alzey-Worms","type":"Landkreis"},"federalState":{"key":"07","name":"Rheinland-Pfalz"}},{"name":"Am Gutleuthaus","postalCode":"55288","locality":"Armsheim","municipality":{"key":"07331004","name":"Armsheim","type":"Kreisangehörige_Gemeinde"},"district":{"key":"07331","name":"Alzey-Worms","type":"Landkreis"},"federalState":{"key":"07","name":"Rheinland-Pfalz"}},{"name":"Am Hummelbach","postalCode":"55424","locality":"Münster-Sarmsheim","municipality":{"key":"07339038","name":"Münster-Sarmsheim","type":"Kreisangehörige_Gemeinde"},"district":{"key":"07339","name":"Mainz-Bingen","type":"Landkreis"},"federalState":{"key":"07","name":"Rheinland-Pfalz"}},{"name":"Am Keßlersberg","postalCode":"55424","locality":"Münster-Sarmsheim","municipality":{"key":"07339038","name":"Münster-Sarmsheim","type":"Kreisangehörige_Gemeinde"},"district":{"key":"07339","name":"Mainz-Bingen","type":"Landkreis"},"federalState":{"key":"07","name":"Rheinland-Pfalz"}},{"name":"Am Kindergarten","postalCode":"55288","locality":"Armsheim","municipality":{"key":"07331004","name":"Armsheim","type":"Kreisangehörige_Gemeinde"},"district":{"key":"07331","name":"Alzey-Worms","type":"Landkreis"},"federalState":{"key":"07","name":"Rheinland-Pfalz"}},{"name":"Am Krebsbach","postalCode":"55424","locality":"Münster-Sarmsheim","municipality":{"key":"07339038","name":"Münster-Sarmsheim","type":"Kreisangehörige_Gemeinde"},"district":{"key":"07339","name":"Mainz-Bingen","type":"Landkreis"},"federalState":{"key":"07","name":"Rheinland-Pfalz"}},{"name":"Am Kreuz","postalCode":"55288","locality":"Armsheim","municipality":{"key":"07331004","name":"Armsheim","type":"Kreisangehörige_Gemeinde"},"district":{"key":"07331","name":"Alzey-Worms","type":"Landkreis"},"federalState":{"key":"07","name":"Rheinland-Pfalz"}},{"name":"Am Pittersberg","postalCode":"55424","locality":"Münster-Sarmsheim","municipality":{"key":"07339038","name":"Münster-Sarmsheim","type":"Kreisangehörige_Gemeinde"},"district":{"key":"07339","name":"Mainz-Bingen","type":"Landkreis"},"federalState":{"key":"07","name":"Rheinland-Pfalz"}},{"name":"Amselweg","postalCode":"55424","locality":"Münster-Sarmsheim","municipality":{"key":"07339038","name":"Münster-Sarmsheim","type":"Kreisangehörige_Gemeinde"},"district":{"key":"07339","name":"Mainz-Bingen","type":"Landkreis"},"federalState":{"key":"07","name":"Rheinland-Pfalz"}},{"name":"Am Zielgarten","postalCode":"55288","locality":"Armsheim","municipality":{"key":"07331004","name":"Armsheim","type":"Kreisangehörige_Gemeinde"},"district":{"key":"07331","name":"Alzey-Worms","type":"Landkreis"},"federalState":{"key":"07","name":"Rheinland-Pfalz"}},{"name":"An der Kappeslücke","postalCode":"55288","locality":"Armsheim","municipality":{"key":"07331004","name":"Armsheim","type":"Kreisangehörige_Gemeinde"},"district":{"key":"07331","name":"Alzey-Worms","type":"Landkreis"},"federalState":{"key":"07","name":"Rheinland-Pfalz"}},{"name":"An der Nikolauspforte","postalCode":"55288","locality":"Armsheim","municipality":{"key":"07331004","name":"Armsheim","type":"Kreisangehörige_Gemeinde"},"district":{"key":"07331","name":"Alzey-Worms","type":"Landkreis"},"federalState":{"key":"07","name":"Rheinland-Pfalz"}},{"name":"An der Oberpforte","postalCode":"55288","locality":"Armsheim","municipality":{"key":"07331004","name":"Armsheim","type":"Kreisangehörige_Gemeinde"},"district":{"key":"07331","name":"Alzey-Worms","type":"Landkreis"},"federalState":{"key":"07","name":"Rheinland-Pfalz"}},{"name":"An der Wallfahrtskirche","postalCode":"55288","locality":"Armsheim","municipality":{"key":"07331004","name":"Armsheim","type":"Kreisangehörige_Gemeinde"},"district":{"key":"07331","name":"Alzey-Worms","type":"Landkreis"},"federalState":{"key":"07","name":"Rheinland-Pfalz"}},{"name":"An der Weed","postalCode":"55288","locality":"Armsheim","municipality":{"key":"07331004","name":"Armsheim","type":"Kreisangehörige_Gemeinde"},"district":{"key":"07331","name":"Alzey-Worms","type":"Landkreis"},"federalState":{"key":"07","name":"Rheinland-Pfalz"}},{"name":"Armsheimer Str.","postalCode":"55288","locality":"Armsheim","municipality":{"key":"07331004","name":"Armsheim","type":"Kreisangehörige_Gemeinde"},"district":{"key":"07331","name":"Alzey-Worms","type":"Landkreis"},"federalState":{"key":"07","name":"Rheinland-Pfalz"}},{"name":"Auerweg","postalCode":"55288","locality":"Armsheim","municipality":{"key":"07331004","name":"Armsheim","type":"Kreisangehörige_Gemeinde"},"district":{"key":"07331","name":"Alzey-Worms","type":"Landkreis"},"federalState":{"key":"07","name":"Rheinland-Pfalz"}},{"name":"Auf den Zeilen","postalCode":"55424","locality":"Münster-Sarmsheim","municipality":{"key":"07339038","name":"Münster-Sarmsheim","type":"Kreisangehörige_Gemeinde"},"district":{"key":"07339","name":"Mainz-Bingen","type":"Landkreis"},"federalState":{"key":"07","name":"Rheinland-Pfalz"}},{"name":"Auf der Haferstoppel","postalCode":"55424","locality":"Münster-Sarmsheim","municipality":{"key":"07339038","name":"Münster-Sarmsheim","type":"Kreisangehörige_Gemeinde"},"district":{"key":"07339","name":"Mainz-Bingen","type":"Landkreis"},"federalState":{"key":"07","name":"Rheinland-Pfalz"}},{"name":"Auf der Horst","postalCode":"55288","locality":"Armsheim","municipality":{"key":"07331004","name":"Armsheim","type":"Kreisangehörige_Gemeinde"},"district":{"key":"07331","name":"Alzey-Worms","type":"Landkreis"},"federalState":{"key":"07","name":"Rheinland-Pfalz"}},{"name":"Bachgasse","postalCode":"55424","locality":"Münster-Sarmsheim","municipality":{"key":"07339038","name":"Münster-Sarmsheim","type":"Kreisangehörige_Gemeinde"},"district":{"key":"07339","name":"Mainz-Bingen","type":"Landkreis"},"federalState":{"key":"07","name":"Rheinland-Pfalz"}},{"name":"Bahnhofstr.","postalCode":"55288","locality":"Armsheim","municipality":{"key":"07331004","name":"Armsheim","type":"Kreisangehörige_Gemeinde"},"district":{"key":"07331","name":"Alzey-Worms","type":"Landkreis"},"federalState":{"key":"07","name":"Rheinland-Pfalz"}},{"name":"Bäreneck","postalCode":"55288","locality":"Armsheim","municipality":{"key":"07331004","name":"Armsheim","type":"Kreisangehörige_Gemeinde"},"district":{"key":"07331","name":"Alzey-Worms","type":"Landkreis"},"federalState":{"key":"07","name":"Rheinland-Pfalz"}},{"name":"Bei der Fibel","postalCode":"55288","locality":"Armsheim","municipality":{"key":"07331004","name":"Armsheim","type":"Kreisangehörige_Gemeinde"},"district":{"key":"07331","name":"Alzey-Worms","type":"Landkreis"},"federalState":{"key":"07","name":"Rheinland-Pfalz"}},{"name":"Bergstr.","postalCode":"55424","locality":"Münster-Sarmsheim","municipality":{"key":"07339038","name":"Münster-Sarmsheim","type":"Kreisangehörige_Gemeinde"},"district":{"key":"07339","name":"Mainz-Bingen","type":"Landkreis"},"federalState":{"key":"07","name":"Rheinland-Pfalz"}},{"name":"Berliner Str.","postalCode":"55424","locality":"Münster-Sarmsheim","municipality":{"key":"07339038","name":"Münster-Sarmsheim","type":"Kreisangehörige_Gemeinde"},"district":{"key":"07339","name":"Mainz-Bingen","type":"Landkreis"},"federalState":{"key":"07","name":"Rheinland-Pfalz"}},{"name":"Binger Weg","postalCode":"55288","locality":"Armsheim","municipality":{"key":"07331004","name":"Armsheim","type":"Kreisangehörige_Gemeinde"},"district":{"key":"07331","name":"Alzey-Worms","type":"Landkreis"},"federalState":{"key":"07","name":"Rheinland-Pfalz"}},{"name":"Birkenweg","postalCode":"55424","locality":"Münster-Sarmsheim","municipality":{"key":"07339038","name":"Münster-Sarmsheim","type":"Kreisangehörige_Gemeinde"},"district":{"key":"07339","name":"Mainz-Bingen","type":"Landkreis"},"federalState":{"key":"07","name":"Rheinland-Pfalz"}},{"name":"Bürgermeister-Schöck-Str.","postalCode":"55424","locality":"Münster-Sarmsheim","municipality":{"key":"07339038","name":"Münster-Sarmsheim","type":"Kreisangehörige_Gemeinde"},"district":{"key":"07339","name":"Mainz-Bingen","type":"Landkreis"},"federalState":{"key":"07","name":"Rheinland-Pfalz"}},{"name":"Dohlgraben","postalCode":"55288","locality":"Armsheim","municipality":{"key":"07331004","name":"Armsheim","type":"Kreisangehörige_Gemeinde"},"district":{"key":"07331","name":"Alzey-Worms","type":"Landkreis"},"federalState":{"key":"07","name":"Rheinland-Pfalz"}},{"name":"Domänenweg","postalCode":"55424","locality":"Münster-Sarmsheim","municipality":{"key":"07339038","name":"Münster-Sarmsheim","type":"Kreisangehörige_Gemeinde"},"district":{"key":"07339","name":"Mainz-Bingen","type":"Landkreis"},"federalState":{"key":"07","name":"Rheinland-Pfalz"}},{"name":"Dörrenböhler Hof","postalCode":"55288","locality":"Armsheim","municipality":{"key":"07331004","name":"Armsheim","type":"Kreisangehörige_Gemeinde"},"district":{"key":"07331","name":"Alzey-Worms","type":"Landkreis"},"federalState":{"key":"07","name":"Rheinland-Pfalz"}},{"name":"Dr.-Friedrich-Werner-Platz","postalCode":"55424","locality":"Münster-Sarmsheim","municipality":{"key":"07339038","name":"Münster-Sarmsheim","type":"Kreisangehörige_Gemeinde"},"district":{"key":"07339","name":"Mainz-Bingen","type":"Landkreis"},"federalState":{"key":"07","name":"Rheinland-Pfalz"}},{"name":"Effenweg","postalCode":"55288","locality":"Armsheim","municipality":{"key":"07331004","name":"Armsheim","type":"Kreisangehörige_Gemeinde"},"district":{"key":"07331","name":"Alzey-Worms","type":"Landkreis"},"federalState":{"key":"07","name":"Rheinland-Pfalz"}},{"name":"Ensheimer Weg","postalCode":"55288","locality":"Armsheim","municipality":{"key":"07331004","name":"Armsheim","type":"Kreisangehörige_Gemeinde"},"district":{"key":"07331","name":"Alzey-Worms","type":"Landkreis"},"federalState":{"key":"07","name":"Rheinland-Pfalz"}},{"name":"Eulengasse","postalCode":"55288","locality":"Armsheim","municipality":{"key":"07331004","name":"Armsheim","type":"Kreisangehörige_Gemeinde"},"district":{"key":"07331","name":"Alzey-Worms","type":"Landkreis"},"federalState":{"key":"07","name":"Rheinland-Pfalz"}},{"name":"Fährstr.","postalCode":"55424","locality":"Münster-Sarmsheim","municipality":{"key":"07339038","name":"Münster-Sarmsheim","type":"Kreisangehörige_Gemeinde"},"district":{"key":"07339","name":"Mainz-Bingen","type":"Landkreis"},"federalState":{"key":"07","name":"Rheinland-Pfalz"}},{"name":"Frankenweg","postalCode":"55288","locality":"Armsheim","municipality":{"key":"07331004","name":"Armsheim","type":"Kreisangehörige_Gemeinde"},"district":{"key":"07331","name":"Alzey-Worms","type":"Landkreis"},"federalState":{"key":"07","name":"Rheinland-Pfalz"}},{"name":"Freiherr-vom-Stein-Str.","postalCode":"55424","locality":"Münster-Sarmsheim","municipality":{"key":"07339038","name":"Münster-Sarmsheim","type":"Kreisangehörige_Gemeinde"},"district":{"key":"07339","name":"Mainz-Bingen","type":"Landkreis"},"federalState":{"key":"07","name":"Rheinland-Pfalz"}},{"name":"Gartenstr.","postalCode":"55424","locality":"Münster-Sarmsheim","municipality":{"key":"07339038","name":"Münster-Sarmsheim","type":"Kreisangehörige_Gemeinde"},"district":{"key":"07339","name":"Mainz-Bingen","type":"Landkreis"},"federalState":{"key":"07","name":"Rheinland-Pfalz"}},{"name":"Grabenstr.","postalCode":"55424","locality":"Münster-Sarmsheim","municipality":{"key":"07339038","name":"Münster-Sarmsheim","type":"Kreisangehörige_Gemeinde"},"district":{"key":"07339","name":"Mainz-Bingen","type":"Landkreis"},"federalState":{"key":"07","name":"Rheinland-Pfalz"}},{"name":"Grüner Weg","postalCode":"55288","locality":"Armsheim","municipality":{"key":"07331004","name":"Armsheim","type":"Kreisangehörige_Gemeinde"},"district":{"key":"07331","name":"Alzey-Worms","type":"Landkreis"},"federalState":{"key":"07","name":"Rheinland-Pfalz"}},{"name":"Hauptstr.","postalCode":"55288","locality":"Armsheim","municipality":{"key":"07331004","name":"Armsheim","type":"Kreisangehörige_Gemeinde"},"district":{"key":"07331","name":"Alzey-Worms","type":"Landkreis"},"federalState":{"key":"07","name":"Rheinland-Pfalz"}},{"name":"Helmut-Link-Weg","postalCode":"55288","locality":"Armsheim","municipality":{"key":"07331004","name":"Armsheim","type":"Kreisangehörige_Gemeinde"},"district":{"key":"07331","name":"Alzey-Worms","type":"Landkreis"},"federalState":{"key":"07","name":"Rheinland-Pfalz"}},{"name":"Hochstr.","postalCode":"55424","locality":"Münster-Sarmsheim","municipality":{"key":"07339038","name":"Münster-Sarmsheim","type":"Kreisangehörige_Gemeinde"},"district":{"key":"07339","name":"Mainz-Bingen","type":"Landkreis"},"federalState":{"key":"07","name":"Rheinland-Pfalz"}},{"name":"Hofgartenstr.","postalCode":"55424","locality":"Münster-Sarmsheim","municipality":{"key":"07339038","name":"Münster-Sarmsheim","type":"Kreisangehörige_Gemeinde"},"district":{"key":"07339","name":"Mainz-Bingen","type":"Landkreis"},"federalState":{"key":"07","name":"Rheinland-Pfalz"}},{"name":"Hubertusweg","postalCode":"55424","locality":"Münster-Sarmsheim","municipality":{"key":"07339038","name":"Münster-Sarmsheim","type":"Kreisangehörige_Gemeinde"},"district":{"key":"07339","name":"Mainz-Bingen","type":"Landkreis"},"federalState":{"key":"07","name":"Rheinland-Pfalz"}},{"name":"Im Frondel","postalCode":"55424","locality":"Münster-Sarmsheim","municipality":{"key":"07339038","name":"Münster-Sarmsheim","type":"Kreisangehörige_Gemeinde"},"district":{"key":"07339","name":"Mainz-Bingen","type":"Landkreis"},"federalState":{"key":"07","name":"Rheinland-Pfalz"}},{"name":"Im Haunen","postalCode":"55424","locality":"Münster-Sarmsheim","municipality":{"key":"07339038","name":"Münster-Sarmsheim","type":"Kreisangehörige_Gemeinde"},"district":{"key":"07339","name":"Mainz-Bingen","type":"Landkreis"},"federalState":{"key":"07","name":"Rheinland-Pfalz"}},{"name":"Im Naheblick","postalCode":"55424","locality":"Münster-Sarmsheim","municipality":{"key":"07339038","name":"Münster-Sarmsheim","type":"Kreisangehörige_Gemeinde"},"district":{"key":"07339","name":"Mainz-Bingen","type":"Landkreis"},"federalState":{"key":"07","name":"Rheinland-Pfalz"}},{"name":"Im Pfad","postalCode":"55288","locality":"Armsheim","municipality":{"key":"07331004","name":"Armsheim","type":"Kreisangehörige_Gemeinde"},"district":{"key":"07331","name":"Alzey-Worms","type":"Landkreis"},"federalState":{"key":"07","name":"Rheinland-Pfalz"}},{"name":"In der Brunnenwiese","postalCode":"55288","locality":"Armsheim","municipality":{"key":"07331004","name":"Armsheim","type":"Kreisangehörige_Gemeinde"},"district":{"key":"07331","name":"Alzey-Worms","type":"Landkreis"},"federalState":{"key":"07","name":"Rheinland-Pfalz"}},{"name":"Jahnstr.","postalCode":"55424","locality":"Münster-Sarmsheim","municipality":{"key":"07339038","name":"Münster-Sarmsheim","type":"Kreisangehörige_Gemeinde"},"district":{"key":"07339","name":"Mainz-Bingen","type":"Landkreis"},"federalState":{"key":"07","name":"Rheinland-Pfalz"}},{"name":"Johannesstr.","postalCode":"55424","locality":"Münster-Sarmsheim","municipality":{"key":"07339038","name":"Münster-Sarmsheim","type":"Kreisangehörige_Gemeinde"},"district":{"key":"07339","name":"Mainz-Bingen","type":"Landkreis"},"federalState":{"key":"07","name":"Rheinland-Pfalz"}},{"name":"Kaiser Hadrian Weg","postalCode":"55288","locality":"Armsheim","municipality":{"key":"07331004","name":"Armsheim","type":"Kreisangehörige_Gemeinde"},"district":{"key":"07331","name":"Alzey-Worms","type":"Landkreis"},"federalState":{"key":"07","name":"Rheinland-Pfalz"}},{"name":"Kelsenberg","postalCode":"55424","locality":"Münster-Sarmsheim","municipality":{"key":"07339038","name":"Münster-Sarmsheim","type":"Kreisangehörige_Gemeinde"},"district":{"key":"07339","name":"Mainz-Bingen","type":"Landkreis"},"federalState":{"key":"07","name":"Rheinland-Pfalz"}},{"name":"Keltenweg","postalCode":"55288","locality":"Armsheim","municipality":{"key":"07331004","name":"Armsheim","type":"Kreisangehörige_Gemeinde"},"district":{"key":"07331","name":"Alzey-Worms","type":"Landkreis"},"federalState":{"key":"07","name":"Rheinland-Pfalz"}},{"name":"Kennelwiese","postalCode":"55288","locality":"Armsheim","municipality":{"key":"07331004","name":"Armsheim","type":"Kreisangehörige_Gemeinde"},"district":{"key":"07331","name":"Alzey-Worms","type":"Landkreis"},"federalState":{"key":"07","name":"Rheinland-Pfalz"}},{"name":"Kirchgasse","postalCode":"55288","locality":"Armsheim","municipality":{"key":"07331004","name":"Armsheim","type":"Kreisangehörige_Gemeinde"},"district":{"key":"07331","name":"Alzey-Worms","type":"Landkreis"},"federalState":{"key":"07","name":"Rheinland-Pfalz"}},{"name":"Kirchstr.","postalCode":"55424","locality":"Münster-Sarmsheim","municipality":{"key":"07339038","name":"Münster-Sarmsheim","type":"Kreisangehörige_Gemeinde"},"district":{"key":"07339","name":"Mainz-Bingen","type":"Landkreis"},"federalState":{"key":"07","name":"Rheinland-Pfalz"}},{"name":"Klauerstr.","postalCode":"55424","locality":"Münster-Sarmsheim","municipality":{"key":"07339038","name":"Münster-Sarmsheim","type":"Kreisangehörige_Gemeinde"},"district":{"key":"07339","name":"Mainz-Bingen","type":"Landkreis"},"federalState":{"key":"07","name":"Rheinland-Pfalz"}},{"name":"Königsberger Str.","postalCode":"55424","locality":"Münster-Sarmsheim","municipality":{"key":"07339038","name":"Münster-Sarmsheim","type":"Kreisangehörige_Gemeinde"},"district":{"key":"07339","name":"Mainz-Bingen","type":"Landkreis"},"federalState":{"key":"07","name":"Rheinland-Pfalz"}},{"name":"Kübelgasse","postalCode":"55288","locality":"Armsheim","municipality":{"key":"07331004","name":"Armsheim","type":"Kreisangehörige_Gemeinde"},"district":{"key":"07331","name":"Alzey-Worms","type":"Landkreis"},"federalState":{"key":"07","name":"Rheinland-Pfalz"}},{"name":"Küfereck","postalCode":"55288","locality":"Armsheim","municipality":{"key":"07331004","name":"Armsheim","type":"Kreisangehörige_Gemeinde"},"district":{"key":"07331","name":"Alzey-Worms","type":"Landkreis"},"federalState":{"key":"07","name":"Rheinland-Pfalz"}},{"name":"Kurpfälzer Weg","postalCode":"55288","locality":"Armsheim","municipality":{"key":"07331004","name":"Armsheim","type":"Kreisangehörige_Gemeinde"},"district":{"key":"07331","name":"Alzey-Worms","type":"Landkreis"},"federalState":{"key":"07","name":"Rheinland-Pfalz"}},{"name":"Kurpfalzweg","postalCode":"55288","locality":"Armsheim","municipality":{"key":"07331004","name":"Armsheim","type":"Kreisangehörige_Gemeinde"},"district":{"key":"07331","name":"Alzey-Worms","type":"Landkreis"},"federalState":{"key":"07","name":"Rheinland-Pfalz"}},{"name":"Kurze Str.","postalCode":"55424","locality":"Münster-Sarmsheim","municipality":{"key":"07339038","name":"Münster-Sarmsheim","type":"Kreisangehörige_Gemeinde"},"district":{"key":"07339","name":"Mainz-Bingen","type":"Landkreis"},"federalState":{"key":"07","name":"Rheinland-Pfalz"}},{"name":"Lachstr.","postalCode":"55424","locality":"Münster-Sarmsheim","municipality":{"key":"07339038","name":"Münster-Sarmsheim","type":"Kreisangehörige_Gemeinde"},"district":{"key":"07339","name":"Mainz-Bingen","type":"Landkreis"},"federalState":{"key":"07","name":"Rheinland-Pfalz"}},{"name":"Langenbergweg","postalCode":"55424","locality":"Münster-Sarmsheim","municipality":{"key":"07339038","name":"Münster-Sarmsheim","type":"Kreisangehörige_Gemeinde"},"district":{"key":"07339","name":"Mainz-Bingen","type":"Landkreis"},"federalState":{"key":"07","name":"Rheinland-Pfalz"}},{"name":"Lautereckenstr.","postalCode":"55424","locality":"Münster-Sarmsheim","municipality":{"key":"07339038","name":"Münster-Sarmsheim","type":"Kreisangehörige_Gemeinde"},"district":{"key":"07339","name":"Mainz-Bingen","type":"Landkreis"},"federalState":{"key":"07","name":"Rheinland-Pfalz"}},{"name":"Lindenplatz","postalCode":"55424","locality":"Münster-Sarmsheim","municipality":{"key":"07339038","name":"Münster-Sarmsheim","type":"Kreisangehörige_Gemeinde"},"district":{"key":"07339","name":"Mainz-Bingen","type":"Landkreis"},"federalState":{"key":"07","name":"Rheinland-Pfalz"}},{"name":"Lindenweg","postalCode":"55288","locality":"Armsheim","municipality":{"key":"07331004","name":"Armsheim","type":"Kreisangehörige_Gemeinde"},"district":{"key":"07331","name":"Alzey-Worms","type":"Landkreis"},"federalState":{"key":"07","name":"Rheinland-Pfalz"}},{"name":"Löhrstr.","postalCode":"55424","locality":"Münster-Sarmsheim","municipality":{"key":"07339038","name":"Münster-Sarmsheim","type":"Kreisangehörige_Gemeinde"},"district":{"key":"07339","name":"Mainz-Bingen","type":"Landkreis"},"federalState":{"key":"07","name":"Rheinland-Pfalz"}},{"name":"Löwensteinweg","postalCode":"55288","locality":"Armsheim","municipality":{"key":"07331004","name":"Armsheim","type":"Kreisangehörige_Gemeinde"},"district":{"key":"07331","name":"Alzey-Worms","type":"Landkreis"},"federalState":{"key":"07","name":"Rheinland-Pfalz"}},{"name":"Mainzer Weg","postalCode":"55288","locality":"Armsheim","municipality":{"key":"07331004","name":"Armsheim","type":"Kreisangehörige_Gemeinde"},"district":{"key":"07331","name":"Alzey-Worms","type":"Landkreis"},"federalState":{"key":"07","name":"Rheinland-Pfalz"}},{"name":"Mauerstr.","postalCode":"55424","locality":"Münster-Sarmsheim","municipality":{"key":"07339038","name":"Münster-Sarmsheim","type":"Kreisangehörige_Gemeinde"},"district":{"key":"07339","name":"Mainz-Bingen","type":"Landkreis"},"federalState":{"key":"07","name":"Rheinland-Pfalz"}},{"name":"Mühlstr.","postalCode":"55288","locality":"Armsheim","municipality":{"key":"07331004","name":"Armsheim","type":"Kreisangehörige_Gemeinde"},"district":{"key":"07331","name":"Alzey-Worms","type":"Landkreis"},"federalState":{"key":"07","name":"Rheinland-Pfalz"}},{"name":"Nahestr.","postalCode":"55424","locality":"Münster-Sarmsheim","municipality":{"key":"07339038","name":"Münster-Sarmsheim","type":"Kreisangehörige_Gemeinde"},"district":{"key":"07339","name":"Mainz-Bingen","type":"Landkreis"},"federalState":{"key":"07","name":"Rheinland-Pfalz"}},{"name":"Neugasse","postalCode":"55288","locality":"Armsheim","municipality":{"key":"07331004","name":"Armsheim","type":"Kreisangehörige_Gemeinde"},"district":{"key":"07331","name":"Alzey-Worms","type":"Landkreis"},"federalState":{"key":"07","name":"Rheinland-Pfalz"}},{"name":"Obergasse","postalCode":"55288","locality":"Armsheim","municipality":{"key":"07331004","name":"Armsheim","type":"Kreisangehörige_Gemeinde"},"district":{"key":"07331","name":"Alzey-Worms","type":"Landkreis"},"federalState":{"key":"07","name":"Rheinland-Pfalz"}},{"name":"Palmenstein","postalCode":"55424","locality":"Münster-Sarmsheim","municipality":{"key":"07339038","name":"Münster-Sarmsheim","type":"Kreisangehörige_Gemeinde"},"district":{"key":"07339","name":"Mainz-Bingen","type":"Landkreis"},"federalState":{"key":"07","name":"Rheinland-Pfalz"}},{"name":"Pappelweg","postalCode":"55424","locality":"Münster-Sarmsheim","municipality":{"key":"07339038","name":"Münster-Sarmsheim","type":"Kreisangehörige_Gemeinde"},"district":{"key":"07339","name":"Mainz-Bingen","type":"Landkreis"},"federalState":{"key":"07","name":"Rheinland-Pfalz"}},{"name":"Pestalozzistr.","postalCode":"55424","locality":"Münster-Sarmsheim","municipality":{"key":"07339038","name":"Münster-Sarmsheim","type":"Kreisangehörige_Gemeinde"},"district":{"key":"07339","name":"Mainz-Bingen","type":"Landkreis"},"federalState":{"key":"07","name":"Rheinland-Pfalz"}},{"name":"Pfortestr.","postalCode":"55424","locality":"Münster-Sarmsheim","municipality":{"key":"07339038","name":"Münster-Sarmsheim","type":"Kreisangehörige_Gemeinde"},"district":{"key":"07339","name":"Mainz-Bingen","type":"Landkreis"},"federalState":{"key":"07","name":"Rheinland-Pfalz"}},{"name":"Raiffeisenstr.","postalCode":"55288","locality":"Armsheim","municipality":{"key":"07331004","name":"Armsheim","type":"Kreisangehörige_Gemeinde"},"district":{"key":"07331","name":"Alzey-Worms","type":"Landkreis"},"federalState":{"key":"07","name":"Rheinland-Pfalz"}},{"name":"Rentner Steg","postalCode":"55424","locality":"Münster-Sarmsheim","municipality":{"key":"07339038","name":"Münster-Sarmsheim","type":"Kreisangehörige_Gemeinde"},"district":{"key":"07339","name":"Mainz-Bingen","type":"Landkreis"},"federalState":{"key":"07","name":"Rheinland-Pfalz"}},{"name":"Rheinstr.","postalCode":"55424","locality":"Münster-Sarmsheim","municipality":{"key":"07339038","name":"Münster-Sarmsheim","type":"Kreisangehörige_Gemeinde"},"district":{"key":"07339","name":"Mainz-Bingen","type":"Landkreis"},"federalState":{"key":"07","name":"Rheinland-Pfalz"}},{"name":"Römerpfad","postalCode":"55288","locality":"Armsheim","municipality":{"key":"07331004","name":"Armsheim","type":"Kreisangehörige_Gemeinde"},"district":{"key":"07331","name":"Alzey-Worms","type":"Landkreis"},"federalState":{"key":"07","name":"Rheinland-Pfalz"}},{"name":"Römerstr.","postalCode":"55424","locality":"Münster-Sarmsheim","municipality":{"key":"07339038","name":"Münster-Sarmsheim","type":"Kreisangehörige_Gemeinde"},"district":{"key":"07339","name":"Mainz-Bingen","type":"Landkreis"},"federalState":{"key":"07","name":"Rheinland-Pfalz"}},{"name":"Rosenplatz","postalCode":"55288","locality":"Armsheim","municipality":{"key":"07331004","name":"Armsheim","type":"Kreisangehörige_Gemeinde"},"district":{"key":"07331","name":"Alzey-Worms","type":"Landkreis"},"federalState":{"key":"07","name":"Rheinland-Pfalz"}},{"name":"Saarstr.","postalCode":"55424","locality":"Münster-Sarmsheim","municipality":{"key":"07339038","name":"Münster-Sarmsheim","type":"Kreisangehörige_Gemeinde"},"district":{"key":"07339","name":"Mainz-Bingen","type":"Landkreis"},"federalState":{"key":"07","name":"Rheinland-Pfalz"}},{"name":"Sackgasse","postalCode":"55288","locality":"Armsheim","municipality":{"key":"07331004","name":"Armsheim","type":"Kreisangehörige_Gemeinde"},"district":{"key":"07331","name":"Alzey-Worms","type":"Landkreis"},"federalState":{"key":"07","name":"Rheinland-Pfalz"}},{"name":"Schmidtgasse","postalCode":"55288","locality":"Armsheim","municipality":{"key":"07331004","name":"Armsheim","type":"Kreisangehörige_Gemeinde"},"district":{"key":"07331","name":"Alzey-Worms","type":"Landkreis"},"federalState":{"key":"07","name":"Rheinland-Pfalz"}},{"name":"Schulgäßchen","postalCode":"55288","locality":"Armsheim","municipality":{"key":"07331004","name":"Armsheim","type":"Kreisangehörige_Gemeinde"},"district":{"key":"07331","name":"Alzey-Worms","type":"Landkreis"},"federalState":{"key":"07","name":"Rheinland-Pfalz"}},{"name":"Schulstr.","postalCode":"55424","locality":"Münster-Sarmsheim","municipality":{"key":"07339038","name":"Münster-Sarmsheim","type":"Kreisangehörige_Gemeinde"},"district":{"key":"07339","name":"Mainz-Bingen","type":"Landkreis"},"federalState":{"key":"07","name":"Rheinland-Pfalz"}},{"name":"Silvanerweg","postalCode":"55288","locality":"Armsheim","municipality":{"key":"07331004","name":"Armsheim","type":"Kreisangehörige_Gemeinde"},"district":{"key":"07331","name":"Alzey-Worms","type":"Landkreis"},"federalState":{"key":"07","name":"Rheinland-Pfalz"}},{"name":"Spiesheimer Weg","postalCode":"55288","locality":"Armsheim","municipality":{"key":"07331004","name":"Armsheim","type":"Kreisangehörige_Gemeinde"},"district":{"key":"07331","name":"Alzey-Worms","type":"Landkreis"},"federalState":{"key":"07","name":"Rheinland-Pfalz"}},{"name":"Steggasse","postalCode":"55288","locality":"Armsheim","municipality":{"key":"07331004","name":"Armsheim","type":"Kreisangehörige_Gemeinde"},"district":{"key":"07331","name":"Alzey-Worms","type":"Landkreis"},"federalState":{"key":"07","name":"Rheinland-Pfalz"}},{"name":"Steinstr.","postalCode":"55424","locality":"Münster-Sarmsheim","municipality":{"key":"07339038","name":"Münster-Sarmsheim","type":"Kreisangehörige_Gemeinde"},"district":{"key":"07339","name":"Mainz-Bingen","type":"Landkreis"},"federalState":{"key":"07","name":"Rheinland-Pfalz"}},{"name":"Talstr.","postalCode":"55424","locality":"Münster-Sarmsheim","municipality":{"key":"07339038","name":"Münster-Sarmsheim","type":"Kreisangehörige_Gemeinde"},"district":{"key":"07339","name":"Mainz-Bingen","type":"Landkreis"},"federalState":{"key":"07","name":"Rheinland-Pfalz"}},{"name":"Teichstr.","postalCode":"55424","locality":"Münster-Sarmsheim","municipality":{"key":"07339038","name":"Münster-Sarmsheim","type":"Kreisangehörige_Gemeinde"},"district":{"key":"07339","name":"Mainz-Bingen","type":"Landkreis"},"federalState":{"key":"07","name":"Rheinland-Pfalz"}},{"name":"Trollbachstr.","postalCode":"55424","locality":"Münster-Sarmsheim","municipality":{"key":"07339038","name":"Münster-Sarmsheim","type":"Kreisangehörige_Gemeinde"},"district":{"key":"07339","name":"Mainz-Bingen","type":"Landkreis"},"federalState":{"key":"07","name":"Rheinland-Pfalz"}},{"name":"Untergasse","postalCode":"55288","locality":"Armsheim","municipality":{"key":"07331004","name":"Armsheim","type":"Kreisangehörige_Gemeinde"},"district":{"key":"07331","name":"Alzey-Worms","type":"Landkreis"},"federalState":{"key":"07","name":"Rheinland-Pfalz"}},{"name":"Veldenzer Weg","postalCode":"55288","locality":"Armsheim","municipality":{"key":"07331004","name":"Armsheim","type":"Kreisangehörige_Gemeinde"},"district":{"key":"07331","name":"Alzey-Worms","type":"Landkreis"},"federalState":{"key":"07","name":"Rheinland-Pfalz"}},{"name":"Waldstr.","postalCode":"55424","locality":"Münster-Sarmsheim","municipality":{"key":"07339038","name":"Münster-Sarmsheim","type":"Kreisangehörige_Gemeinde"},"district":{"key":"07339","name":"Mainz-Bingen","type":"Landkreis"},"federalState":{"key":"07","name":"Rheinland-Pfalz"}},{"name":"Wallertheimer Str.","postalCode":"55288","locality":"Armsheim","municipality":{"key":"07331004","name":"Armsheim","type":"Kreisangehörige_Gemeinde"},"district":{"key":"07331","name":"Alzey-Worms","type":"Landkreis"},"federalState":{"key":"07","name":"Rheinland-Pfalz"}},{"name":"Weinstr.","postalCode":"55424","locality":"Münster-Sarmsheim","municipality":{"key":"07339038","name":"Münster-Sarmsheim","type":"Kreisangehörige_Gemeinde"},"district":{"key":"07339","name":"Mainz-Bingen","type":"Landkreis"},"federalState":{"key":"07","name":"Rheinland-Pfalz"}},{"name":"Weyerweg","postalCode":"55424","locality":"Münster-Sarmsheim","municipality":{"key":"07339038","name":"Münster-Sarmsheim","type":"Kreisangehörige_Gemeinde"},"district":{"key":"07339","name":"Mainz-Bingen","type":"Landkreis"},"federalState":{"key":"07","name":"Rheinland-Pfalz"}},{"name":"Wöllsteiner Weg","postalCode":"55288","locality":"Armsheim","municipality":{"key":"07331004","name":"Armsheim","type":"Kreisangehörige_Gemeinde"},"district":{"key":"07331","name":"Alzey-Worms","type":"Landkreis"},"federalState":{"key":"07","name":"Rheinland-Pfalz"}},{"name":"Zollstr.","postalCode":"55424","locality":"Münster-Sarmsheim","municipality":{"key":"07339038","name":"Münster-Sarmsheim","type":"Kreisangehörige_Gemeinde"},"district":{"key":"07339","name":"Mainz-Bingen","type":"Landkreis"},"federalState":{"key":"07","name":"Rheinland-Pfalz"}},]