[{"name":"Aastr.","postalCode":"48683","locality":"Ahaus","municipality":{"key":"05554004","name":"Ahaus, Stadt","type":"Stadt"},"district":{"key":"05554","name":"Borken","type":"Kreis"},"federalState":{"key":"05","name":"Nordrhein-Westfalen"}},{"name":"Achtern Buschhoff","postalCode":"27367","locality":"Ahausen","municipality":{"key":"03357001","name":"Ahausen","type":"Kreisangehörige_Gemeinde"},"district":{"key":"03357","name":"Rotenburg (Wümme)","type":"Landkreis"},"federalState":{"key":"03","name":"Niedersachsen"}},{"name":"Achtern Flatthoff","postalCode":"27367","locality":"Ahausen","municipality":{"key":"03357001","name":"Ahausen","type":"Kreisangehörige_Gemeinde"},"district":{"key":"03357","name":"Rotenburg (Wümme)","type":"Landkreis"},"federalState":{"key":"03","name":"Niedersachsen"}},{"name":"Ackerstr.","postalCode":"48683","locality":"Ahaus","municipality":{"key":"05554004","name":"Ahaus, Stadt","type":"Stadt"},"district":{"key":"05554","name":"Borken","type":"Kreis"},"federalState":{"key":"05","name":"Nordrhein-Westfalen"}},{"name":"Adenauerring","postalCode":"48683","locality":"Ahaus","municipality":{"key":"05554004","name":"Ahaus, Stadt","type":"Stadt"},"district":{"key":"05554","name":"Borken","type":"Kreis"},"federalState":{"key":"05","name":"Nordrhein-Westfalen"}},{"name":"Adenauerstr.","postalCode":"48683","locality":"Ahaus","municipality":{"key":"05554004","name":"Ahaus, Stadt","type":"Stadt"},"district":{"key":"05554","name":"Borken","type":"Kreis"},"federalState":{"key":"05","name":"Nordrhein-Westfalen"}},{"name":"Adlerweg","postalCode":"48683","locality":"Ahaus","municipality":{"key":"05554004","name":"Ahaus, Stadt","type":"Stadt"},"district":{"key":"05554","name":"Borken","type":"Kreis"},"federalState":{"key":"05","name":"Nordrhein-Westfalen"}},{"name":"Agnesstr.","postalCode":"48683","locality":"Ahaus","municipality":{"key":"05554004","name":"Ahaus, Stadt","type":"Stadt"},"district":{"key":"05554","name":"Borken","type":"Kreis"},"federalState":{"key":"05","name":"Nordrhein-Westfalen"}},{"name":"Ahaus-Enscheder-Damm","postalCode":"48683","locality":"Ahaus","municipality":{"key":"05554004","name":"Ahaus, Stadt","type":"Stadt"},"district":{"key":"05554","name":"Borken","type":"Kreis"},"federalState":{"key":"05","name":"Nordrhein-Westfalen"}},{"name":"Ahauser Mühle","postalCode":"27367","locality":"Ahausen","municipality":{"key":"03357001","name":"Ahausen","type":"Kreisangehörige_Gemeinde"},"district":{"key":"03357","name":"Rotenburg (Wümme)","type":"Landkreis"},"federalState":{"key":"03","name":"Niedersachsen"}},{"name":"Ahauser Str.","postalCode":"48683","locality":"Ahaus","municipality":{"key":"05554004","name":"Ahaus, Stadt","type":"Stadt"},"district":{"key":"05554","name":"Borken","type":"Kreis"},"federalState":{"key":"05","name":"Nordrhein-Westfalen"}},{"name":"Ahornweg","postalCode":"48683","locality":"Ahaus","municipality":{"key":"05554004","name":"Ahaus, Stadt","type":"Stadt"},"district":{"key":"05554","name":"Borken","type":"Kreis"},"federalState":{"key":"05","name":"Nordrhein-Westfalen"}},{"name":"Akazienweg","postalCode":"48683","locality":"Ahaus","municipality":{"key":"05554004","name":"Ahaus, Stadt","type":"Stadt"},"district":{"key":"05554","name":"Borken","type":"Kreis"},"federalState":{"key":"05","name":"Nordrhein-Westfalen"}},{"name":"Alheidisstr.","postalCode":"48683","locality":"Ahaus","municipality":{"key":"05554004","name":"Ahaus, Stadt","type":"Stadt"},"district":{"key":"05554","name":"Borken","type":"Kreis"},"federalState":{"key":"05","name":"Nordrhein-Westfalen"}},{"name":"Alstätter Brook","postalCode":"48683","locality":"Ahaus","municipality":{"key":"05554004","name":"Ahaus, Stadt","type":"Stadt"},"district":{"key":"05554","name":"Borken","type":"Kreis"},"federalState":{"key":"05","name":"Nordrhein-Westfalen"}},{"name":"Alstätter Friedhofstr.","postalCode":"48683","locality":"Ahaus","municipality":{"key":"05554004","name":"Ahaus, Stadt","type":"Stadt"},"district":{"key":"05554","name":"Borken","type":"Kreis"},"federalState":{"key":"05","name":"Nordrhein-Westfalen"}},{"name":"Alstätter Str.","postalCode":"48683","locality":"Ahaus","municipality":{"key":"05554004","name":"Ahaus, Stadt","type":"Stadt"},"district":{"key":"05554","name":"Borken","type":"Kreis"},"federalState":{"key":"05","name":"Nordrhein-Westfalen"}},{"name":"Alter Garten","postalCode":"48683","locality":"Ahaus","municipality":{"key":"05554004","name":"Ahaus, Stadt","type":"Stadt"},"district":{"key":"05554","name":"Borken","type":"Kreis"},"federalState":{"key":"05","name":"Nordrhein-Westfalen"}},{"name":"Alter Weg","postalCode":"48683","locality":"Ahaus","municipality":{"key":"05554004","name":"Ahaus, Stadt","type":"Stadt"},"district":{"key":"05554","name":"Borken","type":"Kreis"},"federalState":{"key":"05","name":"Nordrhein-Westfalen"}},{"name":"Alte Weiden","postalCode":"48683","locality":"Ahaus","municipality":{"key":"05554004","name":"Ahaus, Stadt","type":"Stadt"},"district":{"key":"05554","name":"Borken","type":"Kreis"},"federalState":{"key":"05","name":"Nordrhein-Westfalen"}},{"name":"Am Aabach","postalCode":"48683","locality":"Ahaus","municipality":{"key":"05554004","name":"Ahaus, Stadt","type":"Stadt"},"district":{"key":"05554","name":"Borken","type":"Kreis"},"federalState":{"key":"05","name":"Nordrhein-Westfalen"}},{"name":"Am Bahndamm","postalCode":"48683","locality":"Ahaus","municipality":{"key":"05554004","name":"Ahaus, Stadt","type":"Stadt"},"district":{"key":"05554","name":"Borken","type":"Kreis"},"federalState":{"key":"05","name":"Nordrhein-Westfalen"}},{"name":"Am Brookkamp","postalCode":"48683","locality":"Ahaus","municipality":{"key":"05554004","name":"Ahaus, Stadt","type":"Stadt"},"district":{"key":"05554","name":"Borken","type":"Kreis"},"federalState":{"key":"05","name":"Nordrhein-Westfalen"}},{"name":"Ambrosiusstr.","postalCode":"48683","locality":"Ahaus","municipality":{"key":"05554004","name":"Ahaus, Stadt","type":"Stadt"},"district":{"key":"05554","name":"Borken","type":"Kreis"},"federalState":{"key":"05","name":"Nordrhein-Westfalen"}},{"name":"Am Burggraben","postalCode":"48683","locality":"Ahaus","municipality":{"key":"05554004","name":"Ahaus, Stadt","type":"Stadt"},"district":{"key":"05554","name":"Borken","type":"Kreis"},"federalState":{"key":"05","name":"Nordrhein-Westfalen"}},{"name":"Am Dohl","postalCode":"48683","locality":"Ahaus","municipality":{"key":"05554004","name":"Ahaus, Stadt","type":"Stadt"},"district":{"key":"05554","name":"Borken","type":"Kreis"},"federalState":{"key":"05","name":"Nordrhein-Westfalen"}},{"name":"Am Dorfplatz","postalCode":"48683","locality":"Ahaus","municipality":{"key":"05554004","name":"Ahaus, Stadt","type":"Stadt"},"district":{"key":"05554","name":"Borken","type":"Kreis"},"federalState":{"key":"05","name":"Nordrhein-Westfalen"}},{"name":"Am Fasanengarten","postalCode":"48683","locality":"Ahaus","municipality":{"key":"05554004","name":"Ahaus, Stadt","type":"Stadt"},"district":{"key":"05554","name":"Borken","type":"Kreis"},"federalState":{"key":"05","name":"Nordrhein-Westfalen"}},{"name":"Am Felde","postalCode":"27367","locality":"Ahausen","municipality":{"key":"03357001","name":"Ahausen","type":"Kreisangehörige_Gemeinde"},"district":{"key":"03357","name":"Rotenburg (Wümme)","type":"Landkreis"},"federalState":{"key":"03","name":"Niedersachsen"}},{"name":"Am Flatt","postalCode":"27367","locality":"Ahausen","municipality":{"key":"03357001","name":"Ahausen","type":"Kreisangehörige_Gemeinde"},"district":{"key":"03357","name":"Rotenburg (Wümme)","type":"Landkreis"},"federalState":{"key":"03","name":"Niedersachsen"}},{"name":"Am Funder","postalCode":"48683","locality":"Ahaus","municipality":{"key":"05554004","name":"Ahaus, Stadt","type":"Stadt"},"district":{"key":"05554","name":"Borken","type":"Kreis"},"federalState":{"key":"05","name":"Nordrhein-Westfalen"}},{"name":"Am Hufe","postalCode":"48683","locality":"Ahaus","municipality":{"key":"05554004","name":"Ahaus, Stadt","type":"Stadt"},"district":{"key":"05554","name":"Borken","type":"Kreis"},"federalState":{"key":"05","name":"Nordrhein-Westfalen"}},{"name":"Am Kalkbruch","postalCode":"48683","locality":"Ahaus","municipality":{"key":"05554004","name":"Ahaus, Stadt","type":"Stadt"},"district":{"key":"05554","name":"Borken","type":"Kreis"},"federalState":{"key":"05","name":"Nordrhein-Westfalen"}},{"name":"Am Kolk","postalCode":"48683","locality":"Ahaus","municipality":{"key":"05554004","name":"Ahaus, Stadt","type":"Stadt"},"district":{"key":"05554","name":"Borken","type":"Kreis"},"federalState":{"key":"05","name":"Nordrhein-Westfalen"}},{"name":"Ammeln","postalCode":"48683","locality":"Ahaus","municipality":{"key":"05554004","name":"Ahaus, Stadt","type":"Stadt"},"district":{"key":"05554","name":"Borken","type":"Kreis"},"federalState":{"key":"05","name":"Nordrhein-Westfalen"}},{"name":"Ammelner Weg","postalCode":"48683","locality":"Ahaus","municipality":{"key":"05554004","name":"Ahaus, Stadt","type":"Stadt"},"district":{"key":"05554","name":"Borken","type":"Kreis"},"federalState":{"key":"05","name":"Nordrhein-Westfalen"}},{"name":"Am Rabenhorst","postalCode":"48683","locality":"Ahaus","municipality":{"key":"05554004","name":"Ahaus, Stadt","type":"Stadt"},"district":{"key":"05554","name":"Borken","type":"Kreis"},"federalState":{"key":"05","name":"Nordrhein-Westfalen"}},{"name":"Am Schäfingskamp","postalCode":"48683","locality":"Ahaus","municipality":{"key":"05554004","name":"Ahaus, Stadt","type":"Stadt"},"district":{"key":"05554","name":"Borken","type":"Kreis"},"federalState":{"key":"05","name":"Nordrhein-Westfalen"}},{"name":"Am Schulzenbusch","postalCode":"48683","locality":"Ahaus","municipality":{"key":"05554004","name":"Ahaus, Stadt","type":"Stadt"},"district":{"key":"05554","name":"Borken","type":"Kreis"},"federalState":{"key":"05","name":"Nordrhein-Westfalen"}},{"name":"Am Schützenholz","postalCode":"27367","locality":"Ahausen","municipality":{"key":"03357001","name":"Ahausen","type":"Kreisangehörige_Gemeinde"},"district":{"key":"03357","name":"Rotenburg (Wümme)","type":"Landkreis"},"federalState":{"key":"03","name":"Niedersachsen"}},{"name":"Am Seekenkamp","postalCode":"48683","locality":"Ahaus","municipality":{"key":"05554004","name":"Ahaus, Stadt","type":"Stadt"},"district":{"key":"05554","name":"Borken","type":"Kreis"},"federalState":{"key":"05","name":"Nordrhein-Westfalen"}},{"name":"Amselweg","postalCode":"27367","locality":"Ahausen","municipality":{"key":"03357001","name":"Ahausen","type":"Kreisangehörige_Gemeinde"},"district":{"key":"03357","name":"Rotenburg (Wümme)","type":"Landkreis"},"federalState":{"key":"03","name":"Niedersachsen"}},{"name":"Amselweg","postalCode":"48683","locality":"Ahaus","municipality":{"key":"05554004","name":"Ahaus, Stadt","type":"Stadt"},"district":{"key":"05554","name":"Borken","type":"Kreis"},"federalState":{"key":"05","name":"Nordrhein-Westfalen"}},{"name":"Am Spieker","postalCode":"48683","locality":"Ahaus","municipality":{"key":"05554004","name":"Ahaus, Stadt","type":"Stadt"},"district":{"key":"05554","name":"Borken","type":"Kreis"},"federalState":{"key":"05","name":"Nordrhein-Westfalen"}},{"name":"Am Sportplatz","postalCode":"48683","locality":"Ahaus","municipality":{"key":"05554004","name":"Ahaus, Stadt","type":"Stadt"},"district":{"key":"05554","name":"Borken","type":"Kreis"},"federalState":{"key":"05","name":"Nordrhein-Westfalen"}},{"name":"Am Stadtgraben","postalCode":"48683","locality":"Ahaus","municipality":{"key":"05554004","name":"Ahaus, Stadt","type":"Stadt"},"district":{"key":"05554","name":"Borken","type":"Kreis"},"federalState":{"key":"05","name":"Nordrhein-Westfalen"}},{"name":"Am Teich","postalCode":"48683","locality":"Ahaus","municipality":{"key":"05554004","name":"Ahaus, Stadt","type":"Stadt"},"district":{"key":"05554","name":"Borken","type":"Kreis"},"federalState":{"key":"05","name":"Nordrhein-Westfalen"}},{"name":"Am Tor","postalCode":"48683","locality":"Ahaus","municipality":{"key":"05554004","name":"Ahaus, Stadt","type":"Stadt"},"district":{"key":"05554","name":"Borken","type":"Kreis"},"federalState":{"key":"05","name":"Nordrhein-Westfalen"}},{"name":"Am Wehrturm","postalCode":"48683","locality":"Ahaus","municipality":{"key":"05554004","name":"Ahaus, Stadt","type":"Stadt"},"district":{"key":"05554","name":"Borken","type":"Kreis"},"federalState":{"key":"05","name":"Nordrhein-Westfalen"}},{"name":"Am Westermoor","postalCode":"27367","locality":"Ahausen","municipality":{"key":"03357001","name":"Ahausen","type":"Kreisangehörige_Gemeinde"},"district":{"key":"03357","name":"Rotenburg (Wümme)","type":"Landkreis"},"federalState":{"key":"03","name":"Niedersachsen"}},{"name":"Badiek","postalCode":"48683","locality":"Ahaus","municipality":{"key":"05554004","name":"Ahaus, Stadt","type":"Stadt"},"district":{"key":"05554","name":"Borken","type":"Kreis"},"federalState":{"key":"05","name":"Nordrhein-Westfalen"}},{"name":"Bahnhofstr.","postalCode":"48683","locality":"Ahaus","municipality":{"key":"05554004","name":"Ahaus, Stadt","type":"Stadt"},"district":{"key":"05554","name":"Borken","type":"Kreis"},"federalState":{"key":"05","name":"Nordrhein-Westfalen"}},{"name":"Baldamusstr.","postalCode":"48683","locality":"Ahaus","municipality":{"key":"05554004","name":"Ahaus, Stadt","type":"Stadt"},"district":{"key":"05554","name":"Borken","type":"Kreis"},"federalState":{"key":"05","name":"Nordrhein-Westfalen"}},{"name":"Barle","postalCode":"48683","locality":"Ahaus","municipality":{"key":"05554004","name":"Ahaus, Stadt","type":"Stadt"},"district":{"key":"05554","name":"Borken","type":"Kreis"},"federalState":{"key":"05","name":"Nordrhein-Westfalen"}},{"name":"Barler Str.","postalCode":"48683","locality":"Ahaus","municipality":{"key":"05554004","name":"Ahaus, Stadt","type":"Stadt"},"district":{"key":"05554","name":"Borken","type":"Kreis"},"federalState":{"key":"05","name":"Nordrhein-Westfalen"}},{"name":"Baumschulweg","postalCode":"48683","locality":"Ahaus","municipality":{"key":"05554004","name":"Ahaus, Stadt","type":"Stadt"},"district":{"key":"05554","name":"Borken","type":"Kreis"},"federalState":{"key":"05","name":"Nordrhein-Westfalen"}},{"name":"Beckers Brink","postalCode":"48683","locality":"Ahaus","municipality":{"key":"05554004","name":"Ahaus, Stadt","type":"Stadt"},"district":{"key":"05554","name":"Borken","type":"Kreis"},"federalState":{"key":"05","name":"Nordrhein-Westfalen"}},{"name":"Beikelort","postalCode":"48683","locality":"Ahaus","municipality":{"key":"05554004","name":"Ahaus, Stadt","type":"Stadt"},"district":{"key":"05554","name":"Borken","type":"Kreis"},"federalState":{"key":"05","name":"Nordrhein-Westfalen"}},{"name":"Benzstr.","postalCode":"48683","locality":"Ahaus","municipality":{"key":"05554004","name":"Ahaus, Stadt","type":"Stadt"},"district":{"key":"05554","name":"Borken","type":"Kreis"},"federalState":{"key":"05","name":"Nordrhein-Westfalen"}},{"name":"Berliner Str.","postalCode":"48683","locality":"Ahaus","municipality":{"key":"05554004","name":"Ahaus, Stadt","type":"Stadt"},"district":{"key":"05554","name":"Borken","type":"Kreis"},"federalState":{"key":"05","name":"Nordrhein-Westfalen"}},{"name":"Bernadusweg","postalCode":"48683","locality":"Ahaus","municipality":{"key":"05554004","name":"Ahaus, Stadt","type":"Stadt"},"district":{"key":"05554","name":"Borken","type":"Kreis"},"federalState":{"key":"05","name":"Nordrhein-Westfalen"}},{"name":"Bernsmannskamp","postalCode":"48683","locality":"Ahaus","municipality":{"key":"05554004","name":"Ahaus, Stadt","type":"Stadt"},"district":{"key":"05554","name":"Borken","type":"Kreis"},"federalState":{"key":"05","name":"Nordrhein-Westfalen"}},{"name":"Besslinghook","postalCode":"48683","locality":"Ahaus","municipality":{"key":"05554004","name":"Ahaus, Stadt","type":"Stadt"},"district":{"key":"05554","name":"Borken","type":"Kreis"},"federalState":{"key":"05","name":"Nordrhein-Westfalen"}},{"name":"Biermannstr.","postalCode":"48683","locality":"Ahaus","municipality":{"key":"05554004","name":"Ahaus, Stadt","type":"Stadt"},"district":{"key":"05554","name":"Borken","type":"Kreis"},"federalState":{"key":"05","name":"Nordrhein-Westfalen"}},{"name":"Birkenstr.","postalCode":"27367","locality":"Ahausen","municipality":{"key":"03357001","name":"Ahausen","type":"Kreisangehörige_Gemeinde"},"district":{"key":"03357","name":"Rotenburg (Wümme)","type":"Landkreis"},"federalState":{"key":"03","name":"Niedersachsen"}},{"name":"Birkenstr.","postalCode":"48683","locality":"Ahaus","municipality":{"key":"05554004","name":"Ahaus, Stadt","type":"Stadt"},"district":{"key":"05554","name":"Borken","type":"Kreis"},"federalState":{"key":"05","name":"Nordrhein-Westfalen"}},{"name":"Blanckfortstr.","postalCode":"48683","locality":"Ahaus","municipality":{"key":"05554004","name":"Ahaus, Stadt","type":"Stadt"},"district":{"key":"05554","name":"Borken","type":"Kreis"},"federalState":{"key":"05","name":"Nordrhein-Westfalen"}},{"name":"Bleeke","postalCode":"48683","locality":"Ahaus","municipality":{"key":"05554004","name":"Ahaus, Stadt","type":"Stadt"},"district":{"key":"05554","name":"Borken","type":"Kreis"},"federalState":{"key":"05","name":"Nordrhein-Westfalen"}},{"name":"Blickweg","postalCode":"48683","locality":"Ahaus","municipality":{"key":"05554004","name":"Ahaus, Stadt","type":"Stadt"},"district":{"key":"05554","name":"Borken","type":"Kreis"},"federalState":{"key":"05","name":"Nordrhein-Westfalen"}},{"name":"Blommelstr.","postalCode":"48683","locality":"Ahaus","municipality":{"key":"05554004","name":"Ahaus, Stadt","type":"Stadt"},"district":{"key":"05554","name":"Borken","type":"Kreis"},"federalState":{"key":"05","name":"Nordrhein-Westfalen"}},{"name":"Blumenstr.","postalCode":"48683","locality":"Ahaus","municipality":{"key":"05554004","name":"Ahaus, Stadt","type":"Stadt"},"district":{"key":"05554","name":"Borken","type":"Kreis"},"federalState":{"key":"05","name":"Nordrhein-Westfalen"}},{"name":"Bocholder Esch","postalCode":"48683","locality":"Ahaus","municipality":{"key":"05554004","name":"Ahaus, Stadt","type":"Stadt"},"district":{"key":"05554","name":"Borken","type":"Kreis"},"federalState":{"key":"05","name":"Nordrhein-Westfalen"}},{"name":"Bockel","postalCode":"27367","locality":"Ahausen","municipality":{"key":"03357001","name":"Ahausen","type":"Kreisangehörige_Gemeinde"},"district":{"key":"03357","name":"Rotenburg (Wümme)","type":"Landkreis"},"federalState":{"key":"03","name":"Niedersachsen"}},{"name":"Bockeler Str.","postalCode":"27367","locality":"Ahausen","municipality":{"key":"03357001","name":"Ahausen","type":"Kreisangehörige_Gemeinde"},"district":{"key":"03357","name":"Rotenburg (Wümme)","type":"Landkreis"},"federalState":{"key":"03","name":"Niedersachsen"}},{"name":"Bockhorn","postalCode":"48683","locality":"Ahaus","municipality":{"key":"05554004","name":"Ahaus, Stadt","type":"Stadt"},"district":{"key":"05554","name":"Borken","type":"Kreis"},"federalState":{"key":"05","name":"Nordrhein-Westfalen"}},{"name":"Böcklerstr.","postalCode":"48683","locality":"Ahaus","municipality":{"key":"05554004","name":"Ahaus, Stadt","type":"Stadt"},"district":{"key":"05554","name":"Borken","type":"Kreis"},"federalState":{"key":"05","name":"Nordrhein-Westfalen"}},{"name":"Bolderkamp","postalCode":"48683","locality":"Ahaus","municipality":{"key":"05554004","name":"Ahaus, Stadt","type":"Stadt"},"district":{"key":"05554","name":"Borken","type":"Kreis"},"federalState":{"key":"05","name":"Nordrhein-Westfalen"}},{"name":"Bonhoefferstr.","postalCode":"48683","locality":"Ahaus","municipality":{"key":"05554004","name":"Ahaus, Stadt","type":"Stadt"},"district":{"key":"05554","name":"Borken","type":"Kreis"},"federalState":{"key":"05","name":"Nordrhein-Westfalen"}},{"name":"Bookenbusch","postalCode":"48683","locality":"Ahaus","municipality":{"key":"05554004","name":"Ahaus, Stadt","type":"Stadt"},"district":{"key":"05554","name":"Borken","type":"Kreis"},"federalState":{"key":"05","name":"Nordrhein-Westfalen"}},{"name":"Börgerdieksweg","postalCode":"48683","locality":"Ahaus","municipality":{"key":"05554004","name":"Ahaus, Stadt","type":"Stadt"},"district":{"key":"05554","name":"Borken","type":"Kreis"},"federalState":{"key":"05","name":"Nordrhein-Westfalen"}},{"name":"Borkener Str.","postalCode":"48683","locality":"Ahaus","municipality":{"key":"05554004","name":"Ahaus, Stadt","type":"Stadt"},"district":{"key":"05554","name":"Borken","type":"Kreis"},"federalState":{"key":"05","name":"Nordrhein-Westfalen"}},{"name":"Boschstr.","postalCode":"48683","locality":"Ahaus","municipality":{"key":"05554004","name":"Ahaus, Stadt","type":"Stadt"},"district":{"key":"05554","name":"Borken","type":"Kreis"},"federalState":{"key":"05","name":"Nordrhein-Westfalen"}},{"name":"Brambrink","postalCode":"48683","locality":"Ahaus","municipality":{"key":"05554004","name":"Ahaus, Stadt","type":"Stadt"},"district":{"key":"05554","name":"Borken","type":"Kreis"},"federalState":{"key":"05","name":"Nordrhein-Westfalen"}},{"name":"Breslauer Str.","postalCode":"48683","locality":"Ahaus","municipality":{"key":"05554004","name":"Ahaus, Stadt","type":"Stadt"},"district":{"key":"05554","name":"Borken","type":"Kreis"},"federalState":{"key":"05","name":"Nordrhein-Westfalen"}},{"name":"Brinker Esch","postalCode":"48683","locality":"Ahaus","municipality":{"key":"05554004","name":"Ahaus, Stadt","type":"Stadt"},"district":{"key":"05554","name":"Borken","type":"Kreis"},"federalState":{"key":"05","name":"Nordrhein-Westfalen"}},{"name":"Brinkerhook","postalCode":"48683","locality":"Ahaus","municipality":{"key":"05554004","name":"Ahaus, Stadt","type":"Stadt"},"district":{"key":"05554","name":"Borken","type":"Kreis"},"federalState":{"key":"05","name":"Nordrhein-Westfalen"}},{"name":"Bröckerstr.","postalCode":"48683","locality":"Ahaus","municipality":{"key":"05554004","name":"Ahaus, Stadt","type":"Stadt"},"district":{"key":"05554","name":"Borken","type":"Kreis"},"federalState":{"key":"05","name":"Nordrhein-Westfalen"}},{"name":"Brookstegge","postalCode":"48683","locality":"Ahaus","municipality":{"key":"05554004","name":"Ahaus, Stadt","type":"Stadt"},"district":{"key":"05554","name":"Borken","type":"Kreis"},"federalState":{"key":"05","name":"Nordrhein-Westfalen"}},{"name":"Brüningweg","postalCode":"48683","locality":"Ahaus","municipality":{"key":"05554004","name":"Ahaus, Stadt","type":"Stadt"},"district":{"key":"05554","name":"Borken","type":"Kreis"},"federalState":{"key":"05","name":"Nordrhein-Westfalen"}},{"name":"Buchenweg","postalCode":"48683","locality":"Ahaus","municipality":{"key":"05554004","name":"Ahaus, Stadt","type":"Stadt"},"district":{"key":"05554","name":"Borken","type":"Kreis"},"federalState":{"key":"05","name":"Nordrhein-Westfalen"}},{"name":"Burenweg","postalCode":"48683","locality":"Ahaus","municipality":{"key":"05554004","name":"Ahaus, Stadt","type":"Stadt"},"district":{"key":"05554","name":"Borken","type":"Kreis"},"federalState":{"key":"05","name":"Nordrhein-Westfalen"}},{"name":"Burgstr.","postalCode":"48683","locality":"Ahaus","municipality":{"key":"05554004","name":"Ahaus, Stadt","type":"Stadt"},"district":{"key":"05554","name":"Borken","type":"Kreis"},"federalState":{"key":"05","name":"Nordrhein-Westfalen"}},{"name":"Bussardweg","postalCode":"48683","locality":"Ahaus","municipality":{"key":"05554004","name":"Ahaus, Stadt","type":"Stadt"},"district":{"key":"05554","name":"Borken","type":"Kreis"},"federalState":{"key":"05","name":"Nordrhein-Westfalen"}},{"name":"Butenweg","postalCode":"48683","locality":"Ahaus","municipality":{"key":"05554004","name":"Ahaus, Stadt","type":"Stadt"},"district":{"key":"05554","name":"Borken","type":"Kreis"},"federalState":{"key":"05","name":"Nordrhein-Westfalen"}},{"name":"Buurser Str.","postalCode":"48683","locality":"Ahaus","municipality":{"key":"05554004","name":"Ahaus, Stadt","type":"Stadt"},"district":{"key":"05554","name":"Borken","type":"Kreis"},"federalState":{"key":"05","name":"Nordrhein-Westfalen"}},{"name":"Claudiusstr.","postalCode":"48683","locality":"Ahaus","municipality":{"key":"05554004","name":"Ahaus, Stadt","type":"Stadt"},"district":{"key":"05554","name":"Borken","type":"Kreis"},"federalState":{"key":"05","name":"Nordrhein-Westfalen"}},{"name":"Clemens-August-Str.","postalCode":"48683","locality":"Ahaus","municipality":{"key":"05554004","name":"Ahaus, Stadt","type":"Stadt"},"district":{"key":"05554","name":"Borken","type":"Kreis"},"federalState":{"key":"05","name":"Nordrhein-Westfalen"}},{"name":"Coesfelder Str.","postalCode":"48683","locality":"Ahaus","municipality":{"key":"05554004","name":"Ahaus, Stadt","type":"Stadt"},"district":{"key":"05554","name":"Borken","type":"Kreis"},"federalState":{"key":"05","name":"Nordrhein-Westfalen"}},{"name":"Dachsweg","postalCode":"48683","locality":"Ahaus","municipality":{"key":"05554004","name":"Ahaus, Stadt","type":"Stadt"},"district":{"key":"05554","name":"Borken","type":"Kreis"},"federalState":{"key":"05","name":"Nordrhein-Westfalen"}},{"name":"Dahlienweg","postalCode":"48683","locality":"Ahaus","municipality":{"key":"05554004","name":"Ahaus, Stadt","type":"Stadt"},"district":{"key":"05554","name":"Borken","type":"Kreis"},"federalState":{"key":"05","name":"Nordrhein-Westfalen"}},{"name":"Daimlerstr.","postalCode":"48683","locality":"Ahaus","municipality":{"key":"05554004","name":"Ahaus, Stadt","type":"Stadt"},"district":{"key":"05554","name":"Borken","type":"Kreis"},"federalState":{"key":"05","name":"Nordrhein-Westfalen"}},{"name":"Danziger Str.","postalCode":"48683","locality":"Ahaus","municipality":{"key":"05554004","name":"Ahaus, Stadt","type":"Stadt"},"district":{"key":"05554","name":"Borken","type":"Kreis"},"federalState":{"key":"05","name":"Nordrhein-Westfalen"}},{"name":"Dengelstr.","postalCode":"48683","locality":"Ahaus","municipality":{"key":"05554004","name":"Ahaus, Stadt","type":"Stadt"},"district":{"key":"05554","name":"Borken","type":"Kreis"},"federalState":{"key":"05","name":"Nordrhein-Westfalen"}},{"name":"Depenbrockskamp","postalCode":"48683","locality":"Ahaus","municipality":{"key":"05554004","name":"Ahaus, Stadt","type":"Stadt"},"district":{"key":"05554","name":"Borken","type":"Kreis"},"federalState":{"key":"05","name":"Nordrhein-Westfalen"}},{"name":"Deventer Weg","postalCode":"48683","locality":"Ahaus","municipality":{"key":"05554004","name":"Ahaus, Stadt","type":"Stadt"},"district":{"key":"05554","name":"Borken","type":"Kreis"},"federalState":{"key":"05","name":"Nordrhein-Westfalen"}},{"name":"Diepenheimstr.","postalCode":"48683","locality":"Ahaus","municipality":{"key":"05554004","name":"Ahaus, Stadt","type":"Stadt"},"district":{"key":"05554","name":"Borken","type":"Kreis"},"federalState":{"key":"05","name":"Nordrhein-Westfalen"}},{"name":"Dieselstr.","postalCode":"48683","locality":"Ahaus","municipality":{"key":"05554004","name":"Ahaus, Stadt","type":"Stadt"},"district":{"key":"05554","name":"Borken","type":"Kreis"},"federalState":{"key":"05","name":"Nordrhein-Westfalen"}},{"name":"Doernkamp","postalCode":"48683","locality":"Ahaus","municipality":{"key":"05554004","name":"Ahaus, Stadt","type":"Stadt"},"district":{"key":"05554","name":"Borken","type":"Kreis"},"federalState":{"key":"05","name":"Nordrhein-Westfalen"}},{"name":"Dohl","postalCode":"48683","locality":"Ahaus","municipality":{"key":"05554004","name":"Ahaus, Stadt","type":"Stadt"},"district":{"key":"05554","name":"Borken","type":"Kreis"},"federalState":{"key":"05","name":"Nordrhein-Westfalen"}},{"name":"Domhof","postalCode":"48683","locality":"Ahaus","municipality":{"key":"05554004","name":"Ahaus, Stadt","type":"Stadt"},"district":{"key":"05554","name":"Borken","type":"Kreis"},"federalState":{"key":"05","name":"Nordrhein-Westfalen"}},{"name":"Dorfpark","postalCode":"48683","locality":"Ahaus","municipality":{"key":"05554004","name":"Ahaus, Stadt","type":"Stadt"},"district":{"key":"05554","name":"Borken","type":"Kreis"},"federalState":{"key":"05","name":"Nordrhein-Westfalen"}},{"name":"Dorfplatz Wessum","postalCode":"48683","locality":"Ahaus","municipality":{"key":"05554004","name":"Ahaus, Stadt","type":"Stadt"},"district":{"key":"05554","name":"Borken","type":"Kreis"},"federalState":{"key":"05","name":"Nordrhein-Westfalen"}},{"name":"Dorfstr.","postalCode":"27367","locality":"Ahausen","municipality":{"key":"03357001","name":"Ahausen","type":"Kreisangehörige_Gemeinde"},"district":{"key":"03357","name":"Rotenburg (Wümme)","type":"Landkreis"},"federalState":{"key":"03","name":"Niedersachsen"}},{"name":"Dorfteich","postalCode":"48683","locality":"Ahaus","municipality":{"key":"05554004","name":"Ahaus, Stadt","type":"Stadt"},"district":{"key":"05554","name":"Borken","type":"Kreis"},"federalState":{"key":"05","name":"Nordrhein-Westfalen"}},{"name":"Dreieichen","postalCode":"27367","locality":"Ahausen","municipality":{"key":"03357001","name":"Ahausen","type":"Kreisangehörige_Gemeinde"},"district":{"key":"03357","name":"Rotenburg (Wümme)","type":"Landkreis"},"federalState":{"key":"03","name":"Niedersachsen"}},{"name":"Dr.-Helming-Str.","postalCode":"48683","locality":"Ahaus","municipality":{"key":"05554004","name":"Ahaus, Stadt","type":"Stadt"},"district":{"key":"05554","name":"Borken","type":"Kreis"},"federalState":{"key":"05","name":"Nordrhein-Westfalen"}},{"name":"Drosselweg","postalCode":"27367","locality":"Ahausen","municipality":{"key":"03357001","name":"Ahausen","type":"Kreisangehörige_Gemeinde"},"district":{"key":"03357","name":"Rotenburg (Wümme)","type":"Landkreis"},"federalState":{"key":"03","name":"Niedersachsen"}},{"name":"Drosselweg","postalCode":"48683","locality":"Ahaus","municipality":{"key":"05554004","name":"Ahaus, Stadt","type":"Stadt"},"district":{"key":"05554","name":"Borken","type":"Kreis"},"federalState":{"key":"05","name":"Nordrhein-Westfalen"}},{"name":"Düwing Dyk","postalCode":"48683","locality":"Ahaus","municipality":{"key":"05554004","name":"Ahaus, Stadt","type":"Stadt"},"district":{"key":"05554","name":"Borken","type":"Kreis"},"federalState":{"key":"05","name":"Nordrhein-Westfalen"}},{"name":"Dykstegge","postalCode":"48683","locality":"Ahaus","municipality":{"key":"05554004","name":"Ahaus, Stadt","type":"Stadt"},"district":{"key":"05554","name":"Borken","type":"Kreis"},"federalState":{"key":"05","name":"Nordrhein-Westfalen"}},{"name":"Edith-Stein-Str.","postalCode":"48683","locality":"Ahaus","municipality":{"key":"05554004","name":"Ahaus, Stadt","type":"Stadt"},"district":{"key":"05554","name":"Borken","type":"Kreis"},"federalState":{"key":"05","name":"Nordrhein-Westfalen"}},{"name":"Eichenallee","postalCode":"48683","locality":"Ahaus","municipality":{"key":"05554004","name":"Ahaus, Stadt","type":"Stadt"},"district":{"key":"05554","name":"Borken","type":"Kreis"},"federalState":{"key":"05","name":"Nordrhein-Westfalen"}},{"name":"Eichendorffsiedlung","postalCode":"48683","locality":"Ahaus","municipality":{"key":"05554004","name":"Ahaus, Stadt","type":"Stadt"},"district":{"key":"05554","name":"Borken","type":"Kreis"},"federalState":{"key":"05","name":"Nordrhein-Westfalen"}},{"name":"Eichendorffstr.","postalCode":"48683","locality":"Ahaus","municipality":{"key":"05554004","name":"Ahaus, Stadt","type":"Stadt"},"district":{"key":"05554","name":"Borken","type":"Kreis"},"federalState":{"key":"05","name":"Nordrhein-Westfalen"}},{"name":"Eichengrund","postalCode":"48683","locality":"Ahaus","municipality":{"key":"05554004","name":"Ahaus, Stadt","type":"Stadt"},"district":{"key":"05554","name":"Borken","type":"Kreis"},"federalState":{"key":"05","name":"Nordrhein-Westfalen"}},{"name":"Eichenweg","postalCode":"27367","locality":"Ahausen","municipality":{"key":"03357001","name":"Ahausen","type":"Kreisangehörige_Gemeinde"},"district":{"key":"03357","name":"Rotenburg (Wümme)","type":"Landkreis"},"federalState":{"key":"03","name":"Niedersachsen"}},{"name":"Eichhornweg","postalCode":"48683","locality":"Ahaus","municipality":{"key":"05554004","name":"Ahaus, Stadt","type":"Stadt"},"district":{"key":"05554","name":"Borken","type":"Kreis"},"federalState":{"key":"05","name":"Nordrhein-Westfalen"}},{"name":"Einsteinstr.","postalCode":"48683","locality":"Ahaus","municipality":{"key":"05554004","name":"Ahaus, Stadt","type":"Stadt"},"district":{"key":"05554","name":"Borken","type":"Kreis"},"federalState":{"key":"05","name":"Nordrhein-Westfalen"}},{"name":"Emmets Hof","postalCode":"48683","locality":"Ahaus","municipality":{"key":"05554004","name":"Ahaus, Stadt","type":"Stadt"},"district":{"key":"05554","name":"Borken","type":"Kreis"},"federalState":{"key":"05","name":"Nordrhein-Westfalen"}},{"name":"Engelkamp","postalCode":"48683","locality":"Ahaus","municipality":{"key":"05554004","name":"Ahaus, Stadt","type":"Stadt"},"district":{"key":"05554","name":"Borken","type":"Kreis"},"federalState":{"key":"05","name":"Nordrhein-Westfalen"}},{"name":"Enscheder Str.","postalCode":"48683","locality":"Ahaus","municipality":{"key":"05554004","name":"Ahaus, Stadt","type":"Stadt"},"district":{"key":"05554","name":"Borken","type":"Kreis"},"federalState":{"key":"05","name":"Nordrhein-Westfalen"}},{"name":"Eper Damm","postalCode":"48683","locality":"Ahaus","municipality":{"key":"05554004","name":"Ahaus, Stadt","type":"Stadt"},"district":{"key":"05554","name":"Borken","type":"Kreis"},"federalState":{"key":"05","name":"Nordrhein-Westfalen"}},{"name":"Eper Str.","postalCode":"48683","locality":"Ahaus","municipality":{"key":"05554004","name":"Ahaus, Stadt","type":"Stadt"},"district":{"key":"05554","name":"Borken","type":"Kreis"},"federalState":{"key":"05","name":"Nordrhein-Westfalen"}},{"name":"Erhardstr.","postalCode":"48683","locality":"Ahaus","municipality":{"key":"05554004","name":"Ahaus, Stadt","type":"Stadt"},"district":{"key":"05554","name":"Borken","type":"Kreis"},"federalState":{"key":"05","name":"Nordrhein-Westfalen"}},{"name":"Erlengrund","postalCode":"48683","locality":"Ahaus","municipality":{"key":"05554004","name":"Ahaus, Stadt","type":"Stadt"},"district":{"key":"05554","name":"Borken","type":"Kreis"},"federalState":{"key":"05","name":"Nordrhein-Westfalen"}},{"name":"Eschstr.","postalCode":"48683","locality":"Ahaus","municipality":{"key":"05554004","name":"Ahaus, Stadt","type":"Stadt"},"district":{"key":"05554","name":"Borken","type":"Kreis"},"federalState":{"key":"05","name":"Nordrhein-Westfalen"}},{"name":"Eschweg","postalCode":"48683","locality":"Ahaus","municipality":{"key":"05554004","name":"Ahaus, Stadt","type":"Stadt"},"district":{"key":"05554","name":"Borken","type":"Kreis"},"federalState":{"key":"05","name":"Nordrhein-Westfalen"}},{"name":"Espenweg","postalCode":"48683","locality":"Ahaus","municipality":{"key":"05554004","name":"Ahaus, Stadt","type":"Stadt"},"district":{"key":"05554","name":"Borken","type":"Kreis"},"federalState":{"key":"05","name":"Nordrhein-Westfalen"}},{"name":"Falkenweg","postalCode":"48683","locality":"Ahaus","municipality":{"key":"05554004","name":"Ahaus, Stadt","type":"Stadt"},"district":{"key":"05554","name":"Borken","type":"Kreis"},"federalState":{"key":"05","name":"Nordrhein-Westfalen"}},{"name":"Fasanenstr.","postalCode":"48683","locality":"Ahaus","municipality":{"key":"05554004","name":"Ahaus, Stadt","type":"Stadt"},"district":{"key":"05554","name":"Borken","type":"Kreis"},"federalState":{"key":"05","name":"Nordrhein-Westfalen"}},{"name":"Feldkamp","postalCode":"48683","locality":"Ahaus","municipality":{"key":"05554004","name":"Ahaus, Stadt","type":"Stadt"},"district":{"key":"05554","name":"Borken","type":"Kreis"},"federalState":{"key":"05","name":"Nordrhein-Westfalen"}},{"name":"Fierdagsweg","postalCode":"48683","locality":"Ahaus","municipality":{"key":"05554004","name":"Ahaus, Stadt","type":"Stadt"},"district":{"key":"05554","name":"Borken","type":"Kreis"},"federalState":{"key":"05","name":"Nordrhein-Westfalen"}},{"name":"Finkenstr.","postalCode":"48683","locality":"Ahaus","municipality":{"key":"05554004","name":"Ahaus, Stadt","type":"Stadt"},"district":{"key":"05554","name":"Borken","type":"Kreis"},"federalState":{"key":"05","name":"Nordrhein-Westfalen"}},{"name":"Finkenweg","postalCode":"27367","locality":"Ahausen","municipality":{"key":"03357001","name":"Ahausen","type":"Kreisangehörige_Gemeinde"},"district":{"key":"03357","name":"Rotenburg (Wümme)","type":"Landkreis"},"federalState":{"key":"03","name":"Niedersachsen"}},{"name":"Flasbree","postalCode":"48683","locality":"Ahaus","municipality":{"key":"05554004","name":"Ahaus, Stadt","type":"Stadt"},"district":{"key":"05554","name":"Borken","type":"Kreis"},"federalState":{"key":"05","name":"Nordrhein-Westfalen"}},{"name":"Fleehook","postalCode":"48683","locality":"Ahaus","municipality":{"key":"05554004","name":"Ahaus, Stadt","type":"Stadt"},"district":{"key":"05554","name":"Borken","type":"Kreis"},"federalState":{"key":"05","name":"Nordrhein-Westfalen"}},{"name":"Fliederweg","postalCode":"48683","locality":"Ahaus","municipality":{"key":"05554004","name":"Ahaus, Stadt","type":"Stadt"},"district":{"key":"05554","name":"Borken","type":"Kreis"},"federalState":{"key":"05","name":"Nordrhein-Westfalen"}},{"name":"Florastr.","postalCode":"48683","locality":"Ahaus","municipality":{"key":"05554004","name":"Ahaus, Stadt","type":"Stadt"},"district":{"key":"05554","name":"Borken","type":"Kreis"},"federalState":{"key":"05","name":"Nordrhein-Westfalen"}},{"name":"Flörbachstr.","postalCode":"48683","locality":"Ahaus","municipality":{"key":"05554004","name":"Ahaus, Stadt","type":"Stadt"},"district":{"key":"05554","name":"Borken","type":"Kreis"},"federalState":{"key":"05","name":"Nordrhein-Westfalen"}},{"name":"Flörbachweg","postalCode":"48683","locality":"Ahaus","municipality":{"key":"05554004","name":"Ahaus, Stadt","type":"Stadt"},"district":{"key":"05554","name":"Borken","type":"Kreis"},"federalState":{"key":"05","name":"Nordrhein-Westfalen"}},{"name":"Fockenstegge","postalCode":"48683","locality":"Ahaus","municipality":{"key":"05554004","name":"Ahaus, Stadt","type":"Stadt"},"district":{"key":"05554","name":"Borken","type":"Kreis"},"federalState":{"key":"05","name":"Nordrhein-Westfalen"}},{"name":"Forckenbeckstr.","postalCode":"48683","locality":"Ahaus","municipality":{"key":"05554004","name":"Ahaus, Stadt","type":"Stadt"},"district":{"key":"05554","name":"Borken","type":"Kreis"},"federalState":{"key":"05","name":"Nordrhein-Westfalen"}},{"name":"Fossilienweg","postalCode":"48683","locality":"Ahaus","municipality":{"key":"05554004","name":"Ahaus, Stadt","type":"Stadt"},"district":{"key":"05554","name":"Borken","type":"Kreis"},"federalState":{"key":"05","name":"Nordrhein-Westfalen"}},{"name":"Frauenstr.","postalCode":"48683","locality":"Ahaus","municipality":{"key":"05554004","name":"Ahaus, Stadt","type":"Stadt"},"district":{"key":"05554","name":"Borken","type":"Kreis"},"federalState":{"key":"05","name":"Nordrhein-Westfalen"}},{"name":"Freizeitpark mit Spielplatz","postalCode":"48683","locality":"Ahaus","municipality":{"key":"05554004","name":"Ahaus, Stadt","type":"Stadt"},"district":{"key":"05554","name":"Borken","type":"Kreis"},"federalState":{"key":"05","name":"Nordrhein-Westfalen"}},{"name":"Frenkers Weg","postalCode":"48683","locality":"Ahaus","municipality":{"key":"05554004","name":"Ahaus, Stadt","type":"Stadt"},"district":{"key":"05554","name":"Borken","type":"Kreis"},"federalState":{"key":"05","name":"Nordrhein-Westfalen"}},{"name":"Friedmate","postalCode":"48683","locality":"Ahaus","municipality":{"key":"05554004","name":"Ahaus, Stadt","type":"Stadt"},"district":{"key":"05554","name":"Borken","type":"Kreis"},"federalState":{"key":"05","name":"Nordrhein-Westfalen"}},{"name":"Friedrichstr.","postalCode":"48683","locality":"Ahaus","municipality":{"key":"05554004","name":"Ahaus, Stadt","type":"Stadt"},"district":{"key":"05554","name":"Borken","type":"Kreis"},"federalState":{"key":"05","name":"Nordrhein-Westfalen"}},{"name":"Früchte","postalCode":"48683","locality":"Ahaus","municipality":{"key":"05554004","name":"Ahaus, Stadt","type":"Stadt"},"district":{"key":"05554","name":"Borken","type":"Kreis"},"federalState":{"key":"05","name":"Nordrhein-Westfalen"}},{"name":"Fuchsweg","postalCode":"48683","locality":"Ahaus","municipality":{"key":"05554004","name":"Ahaus, Stadt","type":"Stadt"},"district":{"key":"05554","name":"Borken","type":"Kreis"},"federalState":{"key":"05","name":"Nordrhein-Westfalen"}},{"name":"Fuistingstr.","postalCode":"48683","locality":"Ahaus","municipality":{"key":"05554004","name":"Ahaus, Stadt","type":"Stadt"},"district":{"key":"05554","name":"Borken","type":"Kreis"},"federalState":{"key":"05","name":"Nordrhein-Westfalen"}},{"name":"Fürstenkämpe","postalCode":"48683","locality":"Ahaus","municipality":{"key":"05554004","name":"Ahaus, Stadt","type":"Stadt"},"district":{"key":"05554","name":"Borken","type":"Kreis"},"federalState":{"key":"05","name":"Nordrhein-Westfalen"}},{"name":"Fürstenstr.","postalCode":"48683","locality":"Ahaus","municipality":{"key":"05554004","name":"Ahaus, Stadt","type":"Stadt"},"district":{"key":"05554","name":"Borken","type":"Kreis"},"federalState":{"key":"05","name":"Nordrhein-Westfalen"}},{"name":"Galenstr.","postalCode":"48683","locality":"Ahaus","municipality":{"key":"05554004","name":"Ahaus, Stadt","type":"Stadt"},"district":{"key":"05554","name":"Borken","type":"Kreis"},"federalState":{"key":"05","name":"Nordrhein-Westfalen"}},{"name":"Garteneck","postalCode":"48683","locality":"Ahaus","municipality":{"key":"05554004","name":"Ahaus, Stadt","type":"Stadt"},"district":{"key":"05554","name":"Borken","type":"Kreis"},"federalState":{"key":"05","name":"Nordrhein-Westfalen"}},{"name":"Gartenstiege","postalCode":"48683","locality":"Ahaus","municipality":{"key":"05554004","name":"Ahaus, Stadt","type":"Stadt"},"district":{"key":"05554","name":"Borken","type":"Kreis"},"federalState":{"key":"05","name":"Nordrhein-Westfalen"}},{"name":"Gartenstr.","postalCode":"48683","locality":"Ahaus","municipality":{"key":"05554004","name":"Ahaus, Stadt","type":"Stadt"},"district":{"key":"05554","name":"Borken","type":"Kreis"},"federalState":{"key":"05","name":"Nordrhein-Westfalen"}},{"name":"Georgstr.","postalCode":"48683","locality":"Ahaus","municipality":{"key":"05554004","name":"Ahaus, Stadt","type":"Stadt"},"district":{"key":"05554","name":"Borken","type":"Kreis"},"federalState":{"key":"05","name":"Nordrhein-Westfalen"}},{"name":"Gerhart-Hauptmann-Str.","postalCode":"48683","locality":"Ahaus","municipality":{"key":"05554004","name":"Ahaus, Stadt","type":"Stadt"},"district":{"key":"05554","name":"Borken","type":"Kreis"},"federalState":{"key":"05","name":"Nordrhein-Westfalen"}},{"name":"Gerstenfeld","postalCode":"48683","locality":"Ahaus","municipality":{"key":"05554004","name":"Ahaus, Stadt","type":"Stadt"},"district":{"key":"05554","name":"Borken","type":"Kreis"},"federalState":{"key":"05","name":"Nordrhein-Westfalen"}},{"name":"Gerwinghook","postalCode":"48683","locality":"Ahaus","municipality":{"key":"05554004","name":"Ahaus, Stadt","type":"Stadt"},"district":{"key":"05554","name":"Borken","type":"Kreis"},"federalState":{"key":"05","name":"Nordrhein-Westfalen"}},{"name":"Gescher Damm","postalCode":"48683","locality":"Ahaus","municipality":{"key":"05554004","name":"Ahaus, Stadt","type":"Stadt"},"district":{"key":"05554","name":"Borken","type":"Kreis"},"federalState":{"key":"05","name":"Nordrhein-Westfalen"}},{"name":"Geschwister-Scholl-Str.","postalCode":"48683","locality":"Ahaus","municipality":{"key":"05554004","name":"Ahaus, Stadt","type":"Stadt"},"district":{"key":"05554","name":"Borken","type":"Kreis"},"federalState":{"key":"05","name":"Nordrhein-Westfalen"}},{"name":"Ginsterplatz","postalCode":"48683","locality":"Ahaus","municipality":{"key":"05554004","name":"Ahaus, Stadt","type":"Stadt"},"district":{"key":"05554","name":"Borken","type":"Kreis"},"federalState":{"key":"05","name":"Nordrhein-Westfalen"}},{"name":"Goethestr.","postalCode":"48683","locality":"Ahaus","municipality":{"key":"05554004","name":"Ahaus, Stadt","type":"Stadt"},"district":{"key":"05554","name":"Borken","type":"Kreis"},"federalState":{"key":"05","name":"Nordrhein-Westfalen"}},{"name":"Goosestegge","postalCode":"48683","locality":"Ahaus","municipality":{"key":"05554004","name":"Ahaus, Stadt","type":"Stadt"},"district":{"key":"05554","name":"Borken","type":"Kreis"},"federalState":{"key":"05","name":"Nordrhein-Westfalen"}},{"name":"Götte","postalCode":"48683","locality":"Ahaus","municipality":{"key":"05554004","name":"Ahaus, Stadt","type":"Stadt"},"district":{"key":"05554","name":"Borken","type":"Kreis"},"federalState":{"key":"05","name":"Nordrhein-Westfalen"}},{"name":"Graeser Brook","postalCode":"48683","locality":"Ahaus","municipality":{"key":"05554004","name":"Ahaus, Stadt","type":"Stadt"},"district":{"key":"05554","name":"Borken","type":"Kreis"},"federalState":{"key":"05","name":"Nordrhein-Westfalen"}},{"name":"Graeser Str.","postalCode":"48683","locality":"Ahaus","municipality":{"key":"05554004","name":"Ahaus, Stadt","type":"Stadt"},"district":{"key":"05554","name":"Borken","type":"Kreis"},"federalState":{"key":"05","name":"Nordrhein-Westfalen"}},{"name":"Grenzweg","postalCode":"27367","locality":"Ahausen","municipality":{"key":"03357001","name":"Ahausen","type":"Kreisangehörige_Gemeinde"},"district":{"key":"03357","name":"Rotenburg (Wümme)","type":"Landkreis"},"federalState":{"key":"03","name":"Niedersachsen"}},{"name":"Gronauer Str.","postalCode":"48683","locality":"Ahaus","municipality":{"key":"05554004","name":"Ahaus, Stadt","type":"Stadt"},"district":{"key":"05554","name":"Borken","type":"Kreis"},"federalState":{"key":"05","name":"Nordrhein-Westfalen"}},{"name":"Großer Weidenweg","postalCode":"27367","locality":"Ahausen","municipality":{"key":"03357001","name":"Ahausen","type":"Kreisangehörige_Gemeinde"},"district":{"key":"03357","name":"Rotenburg (Wümme)","type":"Landkreis"},"federalState":{"key":"03","name":"Niedersachsen"}},{"name":"Grüner Weg","postalCode":"48683","locality":"Ahaus","municipality":{"key":"05554004","name":"Ahaus, Stadt","type":"Stadt"},"district":{"key":"05554","name":"Borken","type":"Kreis"},"federalState":{"key":"05","name":"Nordrhein-Westfalen"}},{"name":"Grüner Winkel","postalCode":"48683","locality":"Ahaus","municipality":{"key":"05554004","name":"Ahaus, Stadt","type":"Stadt"},"district":{"key":"05554","name":"Borken","type":"Kreis"},"federalState":{"key":"05","name":"Nordrhein-Westfalen"}},{"name":"Grünstr.","postalCode":"48683","locality":"Ahaus","municipality":{"key":"05554004","name":"Ahaus, Stadt","type":"Stadt"},"district":{"key":"05554","name":"Borken","type":"Kreis"},"federalState":{"key":"05","name":"Nordrhein-Westfalen"}},{"name":"Gutenbergstr.","postalCode":"48683","locality":"Ahaus","municipality":{"key":"05554004","name":"Ahaus, Stadt","type":"Stadt"},"district":{"key":"05554","name":"Borken","type":"Kreis"},"federalState":{"key":"05","name":"Nordrhein-Westfalen"}},{"name":"Haaksbergener Str.","postalCode":"48683","locality":"Ahaus","municipality":{"key":"05554004","name":"Ahaus, Stadt","type":"Stadt"},"district":{"key":"05554","name":"Borken","type":"Kreis"},"federalState":{"key":"05","name":"Nordrhein-Westfalen"}},{"name":"Habichtsberg","postalCode":"27367","locality":"Ahausen","municipality":{"key":"03357001","name":"Ahausen","type":"Kreisangehörige_Gemeinde"},"district":{"key":"03357","name":"Rotenburg (Wümme)","type":"Landkreis"},"federalState":{"key":"03","name":"Niedersachsen"}},{"name":"Habichtweg","postalCode":"48683","locality":"Ahaus","municipality":{"key":"05554004","name":"Ahaus, Stadt","type":"Stadt"},"district":{"key":"05554","name":"Borken","type":"Kreis"},"federalState":{"key":"05","name":"Nordrhein-Westfalen"}},{"name":"Haferkamp","postalCode":"48683","locality":"Ahaus","municipality":{"key":"05554004","name":"Ahaus, Stadt","type":"Stadt"},"district":{"key":"05554","name":"Borken","type":"Kreis"},"federalState":{"key":"05","name":"Nordrhein-Westfalen"}},{"name":"Hamalandstr.","postalCode":"48683","locality":"Ahaus","municipality":{"key":"05554004","name":"Ahaus, Stadt","type":"Stadt"},"district":{"key":"05554","name":"Borken","type":"Kreis"},"federalState":{"key":"05","name":"Nordrhein-Westfalen"}},{"name":"Harmate","postalCode":"48683","locality":"Ahaus","municipality":{"key":"05554004","name":"Ahaus, Stadt","type":"Stadt"},"district":{"key":"05554","name":"Borken","type":"Kreis"},"federalState":{"key":"05","name":"Nordrhein-Westfalen"}},{"name":"Hasenkamp","postalCode":"48683","locality":"Ahaus","municipality":{"key":"05554004","name":"Ahaus, Stadt","type":"Stadt"},"district":{"key":"05554","name":"Borken","type":"Kreis"},"federalState":{"key":"05","name":"Nordrhein-Westfalen"}},{"name":"Hauptstr.","postalCode":"27367","locality":"Ahausen","municipality":{"key":"03357001","name":"Ahausen","type":"Kreisangehörige_Gemeinde"},"district":{"key":"03357","name":"Rotenburg (Wümme)","type":"Landkreis"},"federalState":{"key":"03","name":"Niedersachsen"}},{"name":"Hauptstr.","postalCode":"48683","locality":"Ahaus","municipality":{"key":"05554004","name":"Ahaus, Stadt","type":"Stadt"},"district":{"key":"05554","name":"Borken","type":"Kreis"},"federalState":{"key":"05","name":"Nordrhein-Westfalen"}},{"name":"Heckenweg","postalCode":"48683","locality":"Ahaus","municipality":{"key":"05554004","name":"Ahaus, Stadt","type":"Stadt"},"district":{"key":"05554","name":"Borken","type":"Kreis"},"federalState":{"key":"05","name":"Nordrhein-Westfalen"}},{"name":"Heeker Str.","postalCode":"48683","locality":"Ahaus","municipality":{"key":"05554004","name":"Ahaus, Stadt","type":"Stadt"},"district":{"key":"05554","name":"Borken","type":"Kreis"},"federalState":{"key":"05","name":"Nordrhein-Westfalen"}},{"name":"Heideweg","postalCode":"48683","locality":"Ahaus","municipality":{"key":"05554004","name":"Ahaus, Stadt","type":"Stadt"},"district":{"key":"05554","name":"Borken","type":"Kreis"},"federalState":{"key":"05","name":"Nordrhein-Westfalen"}},{"name":"Heilige Maria","postalCode":"48683","locality":"Ahaus","municipality":{"key":"05554004","name":"Ahaus, Stadt","type":"Stadt"},"district":{"key":"05554","name":"Borken","type":"Kreis"},"federalState":{"key":"05","name":"Nordrhein-Westfalen"}},{"name":"Heinkelstr.","postalCode":"48683","locality":"Ahaus","municipality":{"key":"05554004","name":"Ahaus, Stadt","type":"Stadt"},"district":{"key":"05554","name":"Borken","type":"Kreis"},"federalState":{"key":"05","name":"Nordrhein-Westfalen"}},{"name":"Heinrichstr.","postalCode":"48683","locality":"Ahaus","municipality":{"key":"05554004","name":"Ahaus, Stadt","type":"Stadt"},"district":{"key":"05554","name":"Borken","type":"Kreis"},"federalState":{"key":"05","name":"Nordrhein-Westfalen"}},{"name":"Heisenbergstr.","postalCode":"48683","locality":"Ahaus","municipality":{"key":"05554004","name":"Ahaus, Stadt","type":"Stadt"},"district":{"key":"05554","name":"Borken","type":"Kreis"},"federalState":{"key":"05","name":"Nordrhein-Westfalen"}},{"name":"Hellweger Str.","postalCode":"27367","locality":"Ahausen","municipality":{"key":"03357001","name":"Ahausen","type":"Kreisangehörige_Gemeinde"},"district":{"key":"03357","name":"Rotenburg (Wümme)","type":"Landkreis"},"federalState":{"key":"03","name":"Niedersachsen"}},{"name":"Herderstr.","postalCode":"48683","locality":"Ahaus","municipality":{"key":"05554004","name":"Ahaus, Stadt","type":"Stadt"},"district":{"key":"05554","name":"Borken","type":"Kreis"},"federalState":{"key":"05","name":"Nordrhein-Westfalen"}},{"name":"Hessenweg","postalCode":"48683","locality":"Ahaus","municipality":{"key":"05554004","name":"Ahaus, Stadt","type":"Stadt"},"district":{"key":"05554","name":"Borken","type":"Kreis"},"federalState":{"key":"05","name":"Nordrhein-Westfalen"}},{"name":"Heuerlingstr.","postalCode":"48683","locality":"Ahaus","municipality":{"key":"05554004","name":"Ahaus, Stadt","type":"Stadt"},"district":{"key":"05554","name":"Borken","type":"Kreis"},"federalState":{"key":"05","name":"Nordrhein-Westfalen"}},{"name":"Heukers Weide","postalCode":"48683","locality":"Ahaus","municipality":{"key":"05554004","name":"Ahaus, Stadt","type":"Stadt"},"district":{"key":"05554","name":"Borken","type":"Kreis"},"federalState":{"key":"05","name":"Nordrhein-Westfalen"}},{"name":"Heuland","postalCode":"48683","locality":"Ahaus","municipality":{"key":"05554004","name":"Ahaus, Stadt","type":"Stadt"},"district":{"key":"05554","name":"Borken","type":"Kreis"},"federalState":{"key":"05","name":"Nordrhein-Westfalen"}},{"name":"Heuss-Str.","postalCode":"48683","locality":"Ahaus","municipality":{"key":"05554004","name":"Ahaus, Stadt","type":"Stadt"},"district":{"key":"05554","name":"Borken","type":"Kreis"},"federalState":{"key":"05","name":"Nordrhein-Westfalen"}},{"name":"Hindenburgallee","postalCode":"48683","locality":"Ahaus","municipality":{"key":"05554004","name":"Ahaus, Stadt","type":"Stadt"},"district":{"key":"05554","name":"Borken","type":"Kreis"},"federalState":{"key":"05","name":"Nordrhein-Westfalen"}},{"name":"Hinter den Höfen","postalCode":"27367","locality":"Ahausen","municipality":{"key":"03357001","name":"Ahausen","type":"Kreisangehörige_Gemeinde"},"district":{"key":"03357","name":"Rotenburg (Wümme)","type":"Landkreis"},"federalState":{"key":"03","name":"Niedersachsen"}},{"name":"Hinterer Wall","postalCode":"48683","locality":"Ahaus","municipality":{"key":"05554004","name":"Ahaus, Stadt","type":"Stadt"},"district":{"key":"05554","name":"Borken","type":"Kreis"},"federalState":{"key":"05","name":"Nordrhein-Westfalen"}},{"name":"Hochstr.","postalCode":"48683","locality":"Ahaus","municipality":{"key":"05554004","name":"Ahaus, Stadt","type":"Stadt"},"district":{"key":"05554","name":"Borken","type":"Kreis"},"federalState":{"key":"05","name":"Nordrhein-Westfalen"}},{"name":"Hocksstr.","postalCode":"48683","locality":"Ahaus","municipality":{"key":"05554004","name":"Ahaus, Stadt","type":"Stadt"},"district":{"key":"05554","name":"Borken","type":"Kreis"},"federalState":{"key":"05","name":"Nordrhein-Westfalen"}},{"name":"Hoffstegge","postalCode":"48683","locality":"Ahaus","municipality":{"key":"05554004","name":"Ahaus, Stadt","type":"Stadt"},"district":{"key":"05554","name":"Borken","type":"Kreis"},"federalState":{"key":"05","name":"Nordrhein-Westfalen"}},{"name":"Hofkamp","postalCode":"48683","locality":"Ahaus","municipality":{"key":"05554004","name":"Ahaus, Stadt","type":"Stadt"},"district":{"key":"05554","name":"Borken","type":"Kreis"},"federalState":{"key":"05","name":"Nordrhein-Westfalen"}},{"name":"Hofmate","postalCode":"48683","locality":"Ahaus","municipality":{"key":"05554004","name":"Ahaus, Stadt","type":"Stadt"},"district":{"key":"05554","name":"Borken","type":"Kreis"},"federalState":{"key":"05","name":"Nordrhein-Westfalen"}},{"name":"Hof zum Ahaus","postalCode":"48683","locality":"Ahaus","municipality":{"key":"05554004","name":"Ahaus, Stadt","type":"Stadt"},"district":{"key":"05554","name":"Borken","type":"Kreis"},"federalState":{"key":"05","name":"Nordrhein-Westfalen"}},{"name":"Högerstr.","postalCode":"48683","locality":"Ahaus","municipality":{"key":"05554004","name":"Ahaus, Stadt","type":"Stadt"},"district":{"key":"05554","name":"Borken","type":"Kreis"},"federalState":{"key":"05","name":"Nordrhein-Westfalen"}},{"name":"Hohen Kamp","postalCode":"48683","locality":"Ahaus","municipality":{"key":"05554004","name":"Ahaus, Stadt","type":"Stadt"},"district":{"key":"05554","name":"Borken","type":"Kreis"},"federalState":{"key":"05","name":"Nordrhein-Westfalen"}},{"name":"Hoher Esch","postalCode":"48683","locality":"Ahaus","municipality":{"key":"05554004","name":"Ahaus, Stadt","type":"Stadt"},"district":{"key":"05554","name":"Borken","type":"Kreis"},"federalState":{"key":"05","name":"Nordrhein-Westfalen"}},{"name":"Hoher Weg","postalCode":"48683","locality":"Ahaus","municipality":{"key":"05554004","name":"Ahaus, Stadt","type":"Stadt"},"district":{"key":"05554","name":"Borken","type":"Kreis"},"federalState":{"key":"05","name":"Nordrhein-Westfalen"}},{"name":"Holthueshoff","postalCode":"48683","locality":"Ahaus","municipality":{"key":"05554004","name":"Ahaus, Stadt","type":"Stadt"},"district":{"key":"05554","name":"Borken","type":"Kreis"},"federalState":{"key":"05","name":"Nordrhein-Westfalen"}},{"name":"Holtmate","postalCode":"48683","locality":"Ahaus","municipality":{"key":"05554004","name":"Ahaus, Stadt","type":"Stadt"},"district":{"key":"05554","name":"Borken","type":"Kreis"},"federalState":{"key":"05","name":"Nordrhein-Westfalen"}},{"name":"Holunderweg","postalCode":"48683","locality":"Ahaus","municipality":{"key":"05554004","name":"Ahaus, Stadt","type":"Stadt"},"district":{"key":"05554","name":"Borken","type":"Kreis"},"federalState":{"key":"05","name":"Nordrhein-Westfalen"}},{"name":"Hörsteloe","postalCode":"48683","locality":"Ahaus","municipality":{"key":"05554004","name":"Ahaus, Stadt","type":"Stadt"},"district":{"key":"05554","name":"Borken","type":"Kreis"},"federalState":{"key":"05","name":"Nordrhein-Westfalen"}},{"name":"Hörstingstr.","postalCode":"48683","locality":"Ahaus","municipality":{"key":"05554004","name":"Ahaus, Stadt","type":"Stadt"},"district":{"key":"05554","name":"Borken","type":"Kreis"},"federalState":{"key":"05","name":"Nordrhein-Westfalen"}},{"name":"Hovesaat","postalCode":"48683","locality":"Ahaus","municipality":{"key":"05554004","name":"Ahaus, Stadt","type":"Stadt"},"district":{"key":"05554","name":"Borken","type":"Kreis"},"federalState":{"key":"05","name":"Nordrhein-Westfalen"}},{"name":"Hülshoff-Str.","postalCode":"48683","locality":"Ahaus","municipality":{"key":"05554004","name":"Ahaus, Stadt","type":"Stadt"},"district":{"key":"05554","name":"Borken","type":"Kreis"},"federalState":{"key":"05","name":"Nordrhein-Westfalen"}},{"name":"Ikemannstr.","postalCode":"48683","locality":"Ahaus","municipality":{"key":"05554004","name":"Ahaus, Stadt","type":"Stadt"},"district":{"key":"05554","name":"Borken","type":"Kreis"},"federalState":{"key":"05","name":"Nordrhein-Westfalen"}},{"name":"Iltisweg","postalCode":"48683","locality":"Ahaus","municipality":{"key":"05554004","name":"Ahaus, Stadt","type":"Stadt"},"district":{"key":"05554","name":"Borken","type":"Kreis"},"federalState":{"key":"05","name":"Nordrhein-Westfalen"}},{"name":"Im Dorffeld","postalCode":"27367","locality":"Ahausen","municipality":{"key":"03357001","name":"Ahausen","type":"Kreisangehörige_Gemeinde"},"district":{"key":"03357","name":"Rotenburg (Wümme)","type":"Landkreis"},"federalState":{"key":"03","name":"Niedersachsen"}},{"name":"Im Dreieck","postalCode":"27367","locality":"Ahausen","municipality":{"key":"03357001","name":"Ahausen","type":"Kreisangehörige_Gemeinde"},"district":{"key":"03357","name":"Rotenburg (Wümme)","type":"Landkreis"},"federalState":{"key":"03","name":"Niedersachsen"}},{"name":"Im Garbrock","postalCode":"48683","locality":"Ahaus","municipality":{"key":"05554004","name":"Ahaus, Stadt","type":"Stadt"},"district":{"key":"05554","name":"Borken","type":"Kreis"},"federalState":{"key":"05","name":"Nordrhein-Westfalen"}},{"name":"Im Hagen","postalCode":"48683","locality":"Ahaus","municipality":{"key":"05554004","name":"Ahaus, Stadt","type":"Stadt"},"district":{"key":"05554","name":"Borken","type":"Kreis"},"federalState":{"key":"05","name":"Nordrhein-Westfalen"}},{"name":"Immentun","postalCode":"27367","locality":"Ahausen","municipality":{"key":"03357001","name":"Ahausen","type":"Kreisangehörige_Gemeinde"},"district":{"key":"03357","name":"Rotenburg (Wümme)","type":"Landkreis"},"federalState":{"key":"03","name":"Niedersachsen"}},{"name":"Im Sande","postalCode":"27367","locality":"Ahausen","municipality":{"key":"03357001","name":"Ahausen","type":"Kreisangehörige_Gemeinde"},"district":{"key":"03357","name":"Rotenburg (Wümme)","type":"Landkreis"},"federalState":{"key":"03","name":"Niedersachsen"}},{"name":"Im Schlatt","postalCode":"48683","locality":"Ahaus","municipality":{"key":"05554004","name":"Ahaus, Stadt","type":"Stadt"},"district":{"key":"05554","name":"Borken","type":"Kreis"},"federalState":{"key":"05","name":"Nordrhein-Westfalen"}},{"name":"Im Specken","postalCode":"27367","locality":"Ahausen","municipality":{"key":"03357001","name":"Ahausen","type":"Kreisangehörige_Gemeinde"},"district":{"key":"03357","name":"Rotenburg (Wümme)","type":"Landkreis"},"federalState":{"key":"03","name":"Niedersachsen"}},{"name":"Industriestr.","postalCode":"48683","locality":"Ahaus","municipality":{"key":"05554004","name":"Ahaus, Stadt","type":"Stadt"},"district":{"key":"05554","name":"Borken","type":"Kreis"},"federalState":{"key":"05","name":"Nordrhein-Westfalen"}},{"name":"Jägerskamp","postalCode":"48683","locality":"Ahaus","municipality":{"key":"05554004","name":"Ahaus, Stadt","type":"Stadt"},"district":{"key":"05554","name":"Borken","type":"Kreis"},"federalState":{"key":"05","name":"Nordrhein-Westfalen"}},{"name":"Jahnstr.","postalCode":"48683","locality":"Ahaus","municipality":{"key":"05554004","name":"Ahaus, Stadt","type":"Stadt"},"district":{"key":"05554","name":"Borken","type":"Kreis"},"federalState":{"key":"05","name":"Nordrhein-Westfalen"}},{"name":"Jakobistr.","postalCode":"48683","locality":"Ahaus","municipality":{"key":"05554004","name":"Ahaus, Stadt","type":"Stadt"},"district":{"key":"05554","name":"Borken","type":"Kreis"},"federalState":{"key":"05","name":"Nordrhein-Westfalen"}},{"name":"Johann-Harms-Str.","postalCode":"27367","locality":"Ahausen","municipality":{"key":"03357001","name":"Ahausen","type":"Kreisangehörige_Gemeinde"},"district":{"key":"03357","name":"Rotenburg (Wümme)","type":"Landkreis"},"federalState":{"key":"03","name":"Niedersachsen"}},{"name":"Johann-Wilhelm-Str.","postalCode":"48683","locality":"Ahaus","municipality":{"key":"05554004","name":"Ahaus, Stadt","type":"Stadt"},"district":{"key":"05554","name":"Borken","type":"Kreis"},"federalState":{"key":"05","name":"Nordrhein-Westfalen"}},{"name":"Josefstr.","postalCode":"48683","locality":"Ahaus","municipality":{"key":"05554004","name":"Ahaus, Stadt","type":"Stadt"},"district":{"key":"05554","name":"Borken","type":"Kreis"},"federalState":{"key":"05","name":"Nordrhein-Westfalen"}},{"name":"Jutequartier","postalCode":"48683","locality":"Ahaus","municipality":{"key":"05554004","name":"Ahaus, Stadt","type":"Stadt"},"district":{"key":"05554","name":"Borken","type":"Kreis"},"federalState":{"key":"05","name":"Nordrhein-Westfalen"}},{"name":"Jutestr.","postalCode":"48683","locality":"Ahaus","municipality":{"key":"05554004","name":"Ahaus, Stadt","type":"Stadt"},"district":{"key":"05554","name":"Borken","type":"Kreis"},"federalState":{"key":"05","name":"Nordrhein-Westfalen"}},{"name":"Juttastr.","postalCode":"48683","locality":"Ahaus","municipality":{"key":"05554004","name":"Ahaus, Stadt","type":"Stadt"},"district":{"key":"05554","name":"Borken","type":"Kreis"},"federalState":{"key":"05","name":"Nordrhein-Westfalen"}},{"name":"K 17 Heeker Str.","postalCode":"48683","locality":"Ahaus","municipality":{"key":"05554004","name":"Ahaus, Stadt","type":"Stadt"},"district":{"key":"05554","name":"Borken","type":"Kreis"},"federalState":{"key":"05","name":"Nordrhein-Westfalen"}},{"name":"Kaikhoffs Weg","postalCode":"48683","locality":"Ahaus","municipality":{"key":"05554004","name":"Ahaus, Stadt","type":"Stadt"},"district":{"key":"05554","name":"Borken","type":"Kreis"},"federalState":{"key":"05","name":"Nordrhein-Westfalen"}},{"name":"Kaland","postalCode":"48683","locality":"Ahaus","municipality":{"key":"05554004","name":"Ahaus, Stadt","type":"Stadt"},"district":{"key":"05554","name":"Borken","type":"Kreis"},"federalState":{"key":"05","name":"Nordrhein-Westfalen"}},{"name":"Kämpken","postalCode":"48683","locality":"Ahaus","municipality":{"key":"05554004","name":"Ahaus, Stadt","type":"Stadt"},"district":{"key":"05554","name":"Borken","type":"Kreis"},"federalState":{"key":"05","name":"Nordrhein-Westfalen"}},{"name":"Kampstr.","postalCode":"48683","locality":"Ahaus","municipality":{"key":"05554004","name":"Ahaus, Stadt","type":"Stadt"},"district":{"key":"05554","name":"Borken","type":"Kreis"},"federalState":{"key":"05","name":"Nordrhein-Westfalen"}},{"name":"Kappenbergstr.","postalCode":"48683","locality":"Ahaus","municipality":{"key":"05554004","name":"Ahaus, Stadt","type":"Stadt"},"district":{"key":"05554","name":"Borken","type":"Kreis"},"federalState":{"key":"05","name":"Nordrhein-Westfalen"}},{"name":"Kettelerstr.","postalCode":"48683","locality":"Ahaus","municipality":{"key":"05554004","name":"Ahaus, Stadt","type":"Stadt"},"district":{"key":"05554","name":"Borken","type":"Kreis"},"federalState":{"key":"05","name":"Nordrhein-Westfalen"}},{"name":"Kiefernweg","postalCode":"27367","locality":"Ahausen","municipality":{"key":"03357001","name":"Ahausen","type":"Kreisangehörige_Gemeinde"},"district":{"key":"03357","name":"Rotenburg (Wümme)","type":"Landkreis"},"federalState":{"key":"03","name":"Niedersachsen"}},{"name":"Kirchplatz","postalCode":"48683","locality":"Ahaus","municipality":{"key":"05554004","name":"Ahaus, Stadt","type":"Stadt"},"district":{"key":"05554","name":"Borken","type":"Kreis"},"federalState":{"key":"05","name":"Nordrhein-Westfalen"}},{"name":"Kirchstr.","postalCode":"48683","locality":"Ahaus","municipality":{"key":"05554004","name":"Ahaus, Stadt","type":"Stadt"},"district":{"key":"05554","name":"Borken","type":"Kreis"},"federalState":{"key":"05","name":"Nordrhein-Westfalen"}},{"name":"Kirchweg","postalCode":"27367","locality":"Ahausen","municipality":{"key":"03357001","name":"Ahausen","type":"Kreisangehörige_Gemeinde"},"district":{"key":"03357","name":"Rotenburg (Wümme)","type":"Landkreis"},"federalState":{"key":"03","name":"Niedersachsen"}},{"name":"Kiskamper Weg","postalCode":"48683","locality":"Ahaus","municipality":{"key":"05554004","name":"Ahaus, Stadt","type":"Stadt"},"district":{"key":"05554","name":"Borken","type":"Kreis"},"federalState":{"key":"05","name":"Nordrhein-Westfalen"}},{"name":"Kivitstegge","postalCode":"48683","locality":"Ahaus","municipality":{"key":"05554004","name":"Ahaus, Stadt","type":"Stadt"},"district":{"key":"05554","name":"Borken","type":"Kreis"},"federalState":{"key":"05","name":"Nordrhein-Westfalen"}},{"name":"Kleiberweg","postalCode":"27367","locality":"Ahausen","municipality":{"key":"03357001","name":"Ahausen","type":"Kreisangehörige_Gemeinde"},"district":{"key":"03357","name":"Rotenburg (Wümme)","type":"Landkreis"},"federalState":{"key":"03","name":"Niedersachsen"}},{"name":"Kleiner Weidenweg","postalCode":"27367","locality":"Ahausen","municipality":{"key":"03357001","name":"Ahausen","type":"Kreisangehörige_Gemeinde"},"district":{"key":"03357","name":"Rotenburg (Wümme)","type":"Landkreis"},"federalState":{"key":"03","name":"Niedersachsen"}},{"name":"Klendergarten","postalCode":"48683","locality":"Ahaus","municipality":{"key":"05554004","name":"Ahaus, Stadt","type":"Stadt"},"district":{"key":"05554","name":"Borken","type":"Kreis"},"federalState":{"key":"05","name":"Nordrhein-Westfalen"}},{"name":"Klopping","postalCode":"48683","locality":"Ahaus","municipality":{"key":"05554004","name":"Ahaus, Stadt","type":"Stadt"},"district":{"key":"05554","name":"Borken","type":"Kreis"},"federalState":{"key":"05","name":"Nordrhein-Westfalen"}},{"name":"Kohlhoff","postalCode":"27367","locality":"Ahausen","municipality":{"key":"03357001","name":"Ahausen","type":"Kreisangehörige_Gemeinde"},"district":{"key":"03357","name":"Rotenburg (Wümme)","type":"Landkreis"},"federalState":{"key":"03","name":"Niedersachsen"}},{"name":"Kolbestr.","postalCode":"48683","locality":"Ahaus","municipality":{"key":"05554004","name":"Ahaus, Stadt","type":"Stadt"},"district":{"key":"05554","name":"Borken","type":"Kreis"},"federalState":{"key":"05","name":"Nordrhein-Westfalen"}},{"name":"Kolpingweg","postalCode":"48683","locality":"Ahaus","municipality":{"key":"05554004","name":"Ahaus, Stadt","type":"Stadt"},"district":{"key":"05554","name":"Borken","type":"Kreis"},"federalState":{"key":"05","name":"Nordrhein-Westfalen"}},{"name":"Königsberger Str.","postalCode":"48683","locality":"Ahaus","municipality":{"key":"05554004","name":"Ahaus, Stadt","type":"Stadt"},"district":{"key":"05554","name":"Borken","type":"Kreis"},"federalState":{"key":"05","name":"Nordrhein-Westfalen"}},{"name":"Königstr.","postalCode":"48683","locality":"Ahaus","municipality":{"key":"05554004","name":"Ahaus, Stadt","type":"Stadt"},"district":{"key":"05554","name":"Borken","type":"Kreis"},"federalState":{"key":"05","name":"Nordrhein-Westfalen"}},{"name":"Körbelshook","postalCode":"48683","locality":"Ahaus","municipality":{"key":"05554004","name":"Ahaus, Stadt","type":"Stadt"},"district":{"key":"05554","name":"Borken","type":"Kreis"},"federalState":{"key":"05","name":"Nordrhein-Westfalen"}},{"name":"Kornweg","postalCode":"48683","locality":"Ahaus","municipality":{"key":"05554004","name":"Ahaus, Stadt","type":"Stadt"},"district":{"key":"05554","name":"Borken","type":"Kreis"},"federalState":{"key":"05","name":"Nordrhein-Westfalen"}},{"name":"Kötterstr.","postalCode":"48683","locality":"Ahaus","municipality":{"key":"05554004","name":"Ahaus, Stadt","type":"Stadt"},"district":{"key":"05554","name":"Borken","type":"Kreis"},"federalState":{"key":"05","name":"Nordrhein-Westfalen"}},{"name":"Kottland","postalCode":"48683","locality":"Ahaus","municipality":{"key":"05554004","name":"Ahaus, Stadt","type":"Stadt"},"district":{"key":"05554","name":"Borken","type":"Kreis"},"federalState":{"key":"05","name":"Nordrhein-Westfalen"}},{"name":"Krefters Busch","postalCode":"48683","locality":"Ahaus","municipality":{"key":"05554004","name":"Ahaus, Stadt","type":"Stadt"},"district":{"key":"05554","name":"Borken","type":"Kreis"},"federalState":{"key":"05","name":"Nordrhein-Westfalen"}},{"name":"Kreidestr.","postalCode":"48683","locality":"Ahaus","municipality":{"key":"05554004","name":"Ahaus, Stadt","type":"Stadt"},"district":{"key":"05554","name":"Borken","type":"Kreis"},"federalState":{"key":"05","name":"Nordrhein-Westfalen"}},{"name":"Kreuzkamp","postalCode":"48683","locality":"Ahaus","municipality":{"key":"05554004","name":"Ahaus, Stadt","type":"Stadt"},"district":{"key":"05554","name":"Borken","type":"Kreis"},"federalState":{"key":"05","name":"Nordrhein-Westfalen"}},{"name":"Kreuzstr.","postalCode":"48683","locality":"Ahaus","municipality":{"key":"05554004","name":"Ahaus, Stadt","type":"Stadt"},"district":{"key":"05554","name":"Borken","type":"Kreis"},"federalState":{"key":"05","name":"Nordrhein-Westfalen"}},{"name":"Kreuzweg","postalCode":"48683","locality":"Ahaus","municipality":{"key":"05554004","name":"Ahaus, Stadt","type":"Stadt"},"district":{"key":"05554","name":"Borken","type":"Kreis"},"federalState":{"key":"05","name":"Nordrhein-Westfalen"}},{"name":"Kronenweg","postalCode":"48683","locality":"Ahaus","municipality":{"key":"05554004","name":"Ahaus, Stadt","type":"Stadt"},"district":{"key":"05554","name":"Borken","type":"Kreis"},"federalState":{"key":"05","name":"Nordrhein-Westfalen"}},{"name":"Kruppstr.","postalCode":"48683","locality":"Ahaus","municipality":{"key":"05554004","name":"Ahaus, Stadt","type":"Stadt"},"district":{"key":"05554","name":"Borken","type":"Kreis"},"federalState":{"key":"05","name":"Nordrhein-Westfalen"}},{"name":"Kurze Str.","postalCode":"48683","locality":"Ahaus","municipality":{"key":"05554004","name":"Ahaus, Stadt","type":"Stadt"},"district":{"key":"05554","name":"Borken","type":"Kreis"},"federalState":{"key":"05","name":"Nordrhein-Westfalen"}},{"name":"Kusenhook","postalCode":"48683","locality":"Ahaus","municipality":{"key":"05554004","name":"Ahaus, Stadt","type":"Stadt"},"district":{"key":"05554","name":"Borken","type":"Kreis"},"federalState":{"key":"05","name":"Nordrhein-Westfalen"}},{"name":"Langen Kamp","postalCode":"48683","locality":"Ahaus","municipality":{"key":"05554004","name":"Ahaus, Stadt","type":"Stadt"},"district":{"key":"05554","name":"Borken","type":"Kreis"},"federalState":{"key":"05","name":"Nordrhein-Westfalen"}},{"name":"Lange Str.","postalCode":"48683","locality":"Ahaus","municipality":{"key":"05554004","name":"Ahaus, Stadt","type":"Stadt"},"district":{"key":"05554","name":"Borken","type":"Kreis"},"federalState":{"key":"05","name":"Nordrhein-Westfalen"}},{"name":"Legdener Str.","postalCode":"48683","locality":"Ahaus","municipality":{"key":"05554004","name":"Ahaus, Stadt","type":"Stadt"},"district":{"key":"05554","name":"Borken","type":"Kreis"},"federalState":{"key":"05","name":"Nordrhein-Westfalen"}},{"name":"Lehmkamp","postalCode":"48683","locality":"Ahaus","municipality":{"key":"05554004","name":"Ahaus, Stadt","type":"Stadt"},"district":{"key":"05554","name":"Borken","type":"Kreis"},"federalState":{"key":"05","name":"Nordrhein-Westfalen"}},{"name":"Lehmkösterstr.","postalCode":"48683","locality":"Ahaus","municipality":{"key":"05554004","name":"Ahaus, Stadt","type":"Stadt"},"district":{"key":"05554","name":"Borken","type":"Kreis"},"federalState":{"key":"05","name":"Nordrhein-Westfalen"}},{"name":"Leinenstr.","postalCode":"48683","locality":"Ahaus","municipality":{"key":"05554004","name":"Ahaus, Stadt","type":"Stadt"},"district":{"key":"05554","name":"Borken","type":"Kreis"},"federalState":{"key":"05","name":"Nordrhein-Westfalen"}},{"name":"Leisnerstr.","postalCode":"48683","locality":"Ahaus","municipality":{"key":"05554004","name":"Ahaus, Stadt","type":"Stadt"},"district":{"key":"05554","name":"Borken","type":"Kreis"},"federalState":{"key":"05","name":"Nordrhein-Westfalen"}},{"name":"Lerchenstr.","postalCode":"48683","locality":"Ahaus","municipality":{"key":"05554004","name":"Ahaus, Stadt","type":"Stadt"},"district":{"key":"05554","name":"Borken","type":"Kreis"},"federalState":{"key":"05","name":"Nordrhein-Westfalen"}},{"name":"Lessingstr.","postalCode":"48683","locality":"Ahaus","municipality":{"key":"05554004","name":"Ahaus, Stadt","type":"Stadt"},"district":{"key":"05554","name":"Borken","type":"Kreis"},"federalState":{"key":"05","name":"Nordrhein-Westfalen"}},{"name":"Liegnitzstr.","postalCode":"48683","locality":"Ahaus","municipality":{"key":"05554004","name":"Ahaus, Stadt","type":"Stadt"},"district":{"key":"05554","name":"Borken","type":"Kreis"},"federalState":{"key":"05","name":"Nordrhein-Westfalen"}},{"name":"Lilienweg","postalCode":"48683","locality":"Ahaus","municipality":{"key":"05554004","name":"Ahaus, Stadt","type":"Stadt"},"district":{"key":"05554","name":"Borken","type":"Kreis"},"federalState":{"key":"05","name":"Nordrhein-Westfalen"}},{"name":"Lindenstr.","postalCode":"48683","locality":"Ahaus","municipality":{"key":"05554004","name":"Ahaus, Stadt","type":"Stadt"},"district":{"key":"05554","name":"Borken","type":"Kreis"},"federalState":{"key":"05","name":"Nordrhein-Westfalen"}},{"name":"Lohgrube","postalCode":"48683","locality":"Ahaus","municipality":{"key":"05554004","name":"Ahaus, Stadt","type":"Stadt"},"district":{"key":"05554","name":"Borken","type":"Kreis"},"federalState":{"key":"05","name":"Nordrhein-Westfalen"}},{"name":"Lohweg","postalCode":"48683","locality":"Ahaus","municipality":{"key":"05554004","name":"Ahaus, Stadt","type":"Stadt"},"district":{"key":"05554","name":"Borken","type":"Kreis"},"federalState":{"key":"05","name":"Nordrhein-Westfalen"}},{"name":"Lönsweg","postalCode":"48683","locality":"Ahaus","municipality":{"key":"05554004","name":"Ahaus, Stadt","type":"Stadt"},"district":{"key":"05554","name":"Borken","type":"Kreis"},"federalState":{"key":"05","name":"Nordrhein-Westfalen"}},{"name":"Lorenweg","postalCode":"48683","locality":"Ahaus","municipality":{"key":"05554004","name":"Ahaus, Stadt","type":"Stadt"},"district":{"key":"05554","name":"Borken","type":"Kreis"},"federalState":{"key":"05","name":"Nordrhein-Westfalen"}},{"name":"Lüderitzstr.","postalCode":"48683","locality":"Ahaus","municipality":{"key":"05554004","name":"Ahaus, Stadt","type":"Stadt"},"district":{"key":"05554","name":"Borken","type":"Kreis"},"federalState":{"key":"05","name":"Nordrhein-Westfalen"}},{"name":"Ludgerusweg","postalCode":"48683","locality":"Ahaus","municipality":{"key":"05554004","name":"Ahaus, Stadt","type":"Stadt"},"district":{"key":"05554","name":"Borken","type":"Kreis"},"federalState":{"key":"05","name":"Nordrhein-Westfalen"}},{"name":"Ludolfstr.","postalCode":"48683","locality":"Ahaus","municipality":{"key":"05554004","name":"Ahaus, Stadt","type":"Stadt"},"district":{"key":"05554","name":"Borken","type":"Kreis"},"federalState":{"key":"05","name":"Nordrhein-Westfalen"}},{"name":"Lüntener Str.","postalCode":"48683","locality":"Ahaus","municipality":{"key":"05554004","name":"Ahaus, Stadt","type":"Stadt"},"district":{"key":"05554","name":"Borken","type":"Kreis"},"federalState":{"key":"05","name":"Nordrhein-Westfalen"}},{"name":"Lütensberg","postalCode":"27367","locality":"Ahausen","municipality":{"key":"03357001","name":"Ahausen","type":"Kreisangehörige_Gemeinde"},"district":{"key":"03357","name":"Rotenburg (Wümme)","type":"Landkreis"},"federalState":{"key":"03","name":"Niedersachsen"}},{"name":"Lutersstr.","postalCode":"48683","locality":"Ahaus","municipality":{"key":"05554004","name":"Ahaus, Stadt","type":"Stadt"},"district":{"key":"05554","name":"Borken","type":"Kreis"},"federalState":{"key":"05","name":"Nordrhein-Westfalen"}},{"name":"Lütkenfeld","postalCode":"48683","locality":"Ahaus","municipality":{"key":"05554004","name":"Ahaus, Stadt","type":"Stadt"},"district":{"key":"05554","name":"Borken","type":"Kreis"},"federalState":{"key":"05","name":"Nordrhein-Westfalen"}},{"name":"Marderweg","postalCode":"48683","locality":"Ahaus","municipality":{"key":"05554004","name":"Ahaus, Stadt","type":"Stadt"},"district":{"key":"05554","name":"Borken","type":"Kreis"},"federalState":{"key":"05","name":"Nordrhein-Westfalen"}},{"name":"Margarethenstr.","postalCode":"48683","locality":"Ahaus","municipality":{"key":"05554004","name":"Ahaus, Stadt","type":"Stadt"},"district":{"key":"05554","name":"Borken","type":"Kreis"},"federalState":{"key":"05","name":"Nordrhein-Westfalen"}},{"name":"Marienstr.","postalCode":"48683","locality":"Ahaus","municipality":{"key":"05554004","name":"Ahaus, Stadt","type":"Stadt"},"district":{"key":"05554","name":"Borken","type":"Kreis"},"federalState":{"key":"05","name":"Nordrhein-Westfalen"}},{"name":"Markemoote","postalCode":"48683","locality":"Ahaus","municipality":{"key":"05554004","name":"Ahaus, Stadt","type":"Stadt"},"district":{"key":"05554","name":"Borken","type":"Kreis"},"federalState":{"key":"05","name":"Nordrhein-Westfalen"}},{"name":"Marktplatz","postalCode":"48683","locality":"Ahaus","municipality":{"key":"05554004","name":"Ahaus, Stadt","type":"Stadt"},"district":{"key":"05554","name":"Borken","type":"Kreis"},"federalState":{"key":"05","name":"Nordrhein-Westfalen"}},{"name":"Martinistr.","postalCode":"48683","locality":"Ahaus","municipality":{"key":"05554004","name":"Ahaus, Stadt","type":"Stadt"},"district":{"key":"05554","name":"Borken","type":"Kreis"},"federalState":{"key":"05","name":"Nordrhein-Westfalen"}},{"name":"Max-Planck-Str.","postalCode":"48683","locality":"Ahaus","municipality":{"key":"05554004","name":"Ahaus, Stadt","type":"Stadt"},"district":{"key":"05554","name":"Borken","type":"Kreis"},"federalState":{"key":"05","name":"Nordrhein-Westfalen"}},{"name":"Meisenstr.","postalCode":"48683","locality":"Ahaus","municipality":{"key":"05554004","name":"Ahaus, Stadt","type":"Stadt"},"district":{"key":"05554","name":"Borken","type":"Kreis"},"federalState":{"key":"05","name":"Nordrhein-Westfalen"}},{"name":"Meisenweg","postalCode":"27367","locality":"Ahausen","municipality":{"key":"03357001","name":"Ahausen","type":"Kreisangehörige_Gemeinde"},"district":{"key":"03357","name":"Rotenburg (Wümme)","type":"Landkreis"},"federalState":{"key":"03","name":"Niedersachsen"}},{"name":"Melaniastr.","postalCode":"48683","locality":"Ahaus","municipality":{"key":"05554004","name":"Ahaus, Stadt","type":"Stadt"},"district":{"key":"05554","name":"Borken","type":"Kreis"},"federalState":{"key":"05","name":"Nordrhein-Westfalen"}},{"name":"Melchisengoren","postalCode":"48683","locality":"Ahaus","municipality":{"key":"05554004","name":"Ahaus, Stadt","type":"Stadt"},"district":{"key":"05554","name":"Borken","type":"Kreis"},"federalState":{"key":"05","name":"Nordrhein-Westfalen"}},{"name":"Mergelstr.","postalCode":"48683","locality":"Ahaus","municipality":{"key":"05554004","name":"Ahaus, Stadt","type":"Stadt"},"district":{"key":"05554","name":"Borken","type":"Kreis"},"federalState":{"key":"05","name":"Nordrhein-Westfalen"}},{"name":"Milanweg","postalCode":"48683","locality":"Ahaus","municipality":{"key":"05554004","name":"Ahaus, Stadt","type":"Stadt"},"district":{"key":"05554","name":"Borken","type":"Kreis"},"federalState":{"key":"05","name":"Nordrhein-Westfalen"}},{"name":"Molitorstr.","postalCode":"48683","locality":"Ahaus","municipality":{"key":"05554004","name":"Ahaus, Stadt","type":"Stadt"},"district":{"key":"05554","name":"Borken","type":"Kreis"},"federalState":{"key":"05","name":"Nordrhein-Westfalen"}},{"name":"Mörikestr.","postalCode":"48683","locality":"Ahaus","municipality":{"key":"05554004","name":"Ahaus, Stadt","type":"Stadt"},"district":{"key":"05554","name":"Borken","type":"Kreis"},"federalState":{"key":"05","name":"Nordrhein-Westfalen"}},{"name":"Möwenweg","postalCode":"48683","locality":"Ahaus","municipality":{"key":"05554004","name":"Ahaus, Stadt","type":"Stadt"},"district":{"key":"05554","name":"Borken","type":"Kreis"},"federalState":{"key":"05","name":"Nordrhein-Westfalen"}},{"name":"Mozartstr.","postalCode":"48683","locality":"Ahaus","municipality":{"key":"05554004","name":"Ahaus, Stadt","type":"Stadt"},"district":{"key":"05554","name":"Borken","type":"Kreis"},"federalState":{"key":"05","name":"Nordrhein-Westfalen"}},{"name":"Müggenbergstr.","postalCode":"48683","locality":"Ahaus","municipality":{"key":"05554004","name":"Ahaus, Stadt","type":"Stadt"},"district":{"key":"05554","name":"Borken","type":"Kreis"},"federalState":{"key":"05","name":"Nordrhein-Westfalen"}},{"name":"Mühlenstr.","postalCode":"27367","locality":"Ahausen","municipality":{"key":"03357001","name":"Ahausen","type":"Kreisangehörige_Gemeinde"},"district":{"key":"03357","name":"Rotenburg (Wümme)","type":"Landkreis"},"federalState":{"key":"03","name":"Niedersachsen"}},{"name":"Mühlenweg","postalCode":"48683","locality":"Ahaus","municipality":{"key":"05554004","name":"Ahaus, Stadt","type":"Stadt"},"district":{"key":"05554","name":"Borken","type":"Kreis"},"federalState":{"key":"05","name":"Nordrhein-Westfalen"}},{"name":"Münsterstr.","postalCode":"48683","locality":"Ahaus","municipality":{"key":"05554004","name":"Ahaus, Stadt","type":"Stadt"},"district":{"key":"05554","name":"Borken","type":"Kreis"},"federalState":{"key":"05","name":"Nordrhein-Westfalen"}},{"name":"Muschelweg","postalCode":"48683","locality":"Ahaus","municipality":{"key":"05554004","name":"Ahaus, Stadt","type":"Stadt"},"district":{"key":"05554","name":"Borken","type":"Kreis"},"federalState":{"key":"05","name":"Nordrhein-Westfalen"}},{"name":"Nachtigallenweg","postalCode":"48683","locality":"Ahaus","municipality":{"key":"05554004","name":"Ahaus, Stadt","type":"Stadt"},"district":{"key":"05554","name":"Borken","type":"Kreis"},"federalState":{"key":"05","name":"Nordrhein-Westfalen"}},{"name":"Nahkamp","postalCode":"48683","locality":"Ahaus","municipality":{"key":"05554004","name":"Ahaus, Stadt","type":"Stadt"},"district":{"key":"05554","name":"Borken","type":"Kreis"},"federalState":{"key":"05","name":"Nordrhein-Westfalen"}},{"name":"Nelkenweg","postalCode":"48683","locality":"Ahaus","municipality":{"key":"05554004","name":"Ahaus, Stadt","type":"Stadt"},"district":{"key":"05554","name":"Borken","type":"Kreis"},"federalState":{"key":"05","name":"Nordrhein-Westfalen"}},{"name":"Neuer Weg","postalCode":"48683","locality":"Ahaus","municipality":{"key":"05554004","name":"Ahaus, Stadt","type":"Stadt"},"district":{"key":"05554","name":"Borken","type":"Kreis"},"federalState":{"key":"05","name":"Nordrhein-Westfalen"}},{"name":"Neustr.","postalCode":"48683","locality":"Ahaus","municipality":{"key":"05554004","name":"Ahaus, Stadt","type":"Stadt"},"district":{"key":"05554","name":"Borken","type":"Kreis"},"federalState":{"key":"05","name":"Nordrhein-Westfalen"}},{"name":"Nienkamp","postalCode":"48683","locality":"Ahaus","municipality":{"key":"05554004","name":"Ahaus, Stadt","type":"Stadt"},"district":{"key":"05554","name":"Borken","type":"Kreis"},"federalState":{"key":"05","name":"Nordrhein-Westfalen"}},{"name":"Nordiek","postalCode":"48683","locality":"Ahaus","municipality":{"key":"05554004","name":"Ahaus, Stadt","type":"Stadt"},"district":{"key":"05554","name":"Borken","type":"Kreis"},"federalState":{"key":"05","name":"Nordrhein-Westfalen"}},{"name":"Nordring","postalCode":"48683","locality":"Ahaus","municipality":{"key":"05554004","name":"Ahaus, Stadt","type":"Stadt"},"district":{"key":"05554","name":"Borken","type":"Kreis"},"federalState":{"key":"05","name":"Nordrhein-Westfalen"}},{"name":"Nordstr.","postalCode":"48683","locality":"Ahaus","municipality":{"key":"05554004","name":"Ahaus, Stadt","type":"Stadt"},"district":{"key":"05554","name":"Borken","type":"Kreis"},"federalState":{"key":"05","name":"Nordrhein-Westfalen"}},{"name":"Nöttenkampstr.","postalCode":"48683","locality":"Ahaus","municipality":{"key":"05554004","name":"Ahaus, Stadt","type":"Stadt"},"district":{"key":"05554","name":"Borken","type":"Kreis"},"federalState":{"key":"05","name":"Nordrhein-Westfalen"}},{"name":"Nünnings Busch","postalCode":"48683","locality":"Ahaus","municipality":{"key":"05554004","name":"Ahaus, Stadt","type":"Stadt"},"district":{"key":"05554","name":"Borken","type":"Kreis"},"federalState":{"key":"05","name":"Nordrhein-Westfalen"}},{"name":"Ortwicker Str.","postalCode":"48683","locality":"Ahaus","municipality":{"key":"05554004","name":"Ahaus, Stadt","type":"Stadt"},"district":{"key":"05554","name":"Borken","type":"Kreis"},"federalState":{"key":"05","name":"Nordrhein-Westfalen"}},{"name":"Ostlandstr.","postalCode":"48683","locality":"Ahaus","municipality":{"key":"05554004","name":"Ahaus, Stadt","type":"Stadt"},"district":{"key":"05554","name":"Borken","type":"Kreis"},"federalState":{"key":"05","name":"Nordrhein-Westfalen"}},{"name":"Ottensteiner Brook","postalCode":"48683","locality":"Ahaus","municipality":{"key":"05554004","name":"Ahaus, Stadt","type":"Stadt"},"district":{"key":"05554","name":"Borken","type":"Kreis"},"federalState":{"key":"05","name":"Nordrhein-Westfalen"}},{"name":"Otto-Hahn-Str.","postalCode":"48683","locality":"Ahaus","municipality":{"key":"05554004","name":"Ahaus, Stadt","type":"Stadt"},"district":{"key":"05554","name":"Borken","type":"Kreis"},"federalState":{"key":"05","name":"Nordrhein-Westfalen"}},{"name":"Ottostr.","postalCode":"48683","locality":"Ahaus","municipality":{"key":"05554004","name":"Ahaus, Stadt","type":"Stadt"},"district":{"key":"05554","name":"Borken","type":"Kreis"},"federalState":{"key":"05","name":"Nordrhein-Westfalen"}},{"name":"Overbergstr.","postalCode":"48683","locality":"Ahaus","municipality":{"key":"05554004","name":"Ahaus, Stadt","type":"Stadt"},"district":{"key":"05554","name":"Borken","type":"Kreis"},"federalState":{"key":"05","name":"Nordrhein-Westfalen"}},{"name":"Padies","postalCode":"48683","locality":"Ahaus","municipality":{"key":"05554004","name":"Ahaus, Stadt","type":"Stadt"},"district":{"key":"05554","name":"Borken","type":"Kreis"},"federalState":{"key":"05","name":"Nordrhein-Westfalen"}},{"name":"Pappelweg","postalCode":"48683","locality":"Ahaus","municipality":{"key":"05554004","name":"Ahaus, Stadt","type":"Stadt"},"district":{"key":"05554","name":"Borken","type":"Kreis"},"federalState":{"key":"05","name":"Nordrhein-Westfalen"}},{"name":"Parallelstr.","postalCode":"48683","locality":"Ahaus","municipality":{"key":"05554004","name":"Ahaus, Stadt","type":"Stadt"},"district":{"key":"05554","name":"Borken","type":"Kreis"},"federalState":{"key":"05","name":"Nordrhein-Westfalen"}},{"name":"Parkstr.","postalCode":"48683","locality":"Ahaus","municipality":{"key":"05554004","name":"Ahaus, Stadt","type":"Stadt"},"district":{"key":"05554","name":"Borken","type":"Kreis"},"federalState":{"key":"05","name":"Nordrhein-Westfalen"}},{"name":"Pastor's Garten","postalCode":"48683","locality":"Ahaus","municipality":{"key":"05554004","name":"Ahaus, Stadt","type":"Stadt"},"district":{"key":"05554","name":"Borken","type":"Kreis"},"federalState":{"key":"05","name":"Nordrhein-Westfalen"}},{"name":"Pastorskamp","postalCode":"48683","locality":"Ahaus","municipality":{"key":"05554004","name":"Ahaus, Stadt","type":"Stadt"},"district":{"key":"05554","name":"Borken","type":"Kreis"},"federalState":{"key":"05","name":"Nordrhein-Westfalen"}},{"name":"Pastorsmoote","postalCode":"48683","locality":"Ahaus","municipality":{"key":"05554004","name":"Ahaus, Stadt","type":"Stadt"},"district":{"key":"05554","name":"Borken","type":"Kreis"},"federalState":{"key":"05","name":"Nordrhein-Westfalen"}},{"name":"Paus Gorden","postalCode":"48683","locality":"Ahaus","municipality":{"key":"05554004","name":"Ahaus, Stadt","type":"Stadt"},"district":{"key":"05554","name":"Borken","type":"Kreis"},"federalState":{"key":"05","name":"Nordrhein-Westfalen"}},{"name":"Pettenacker","postalCode":"48683","locality":"Ahaus","municipality":{"key":"05554004","name":"Ahaus, Stadt","type":"Stadt"},"district":{"key":"05554","name":"Borken","type":"Kreis"},"federalState":{"key":"05","name":"Nordrhein-Westfalen"}},{"name":"Pieperstr.","postalCode":"48683","locality":"Ahaus","municipality":{"key":"05554004","name":"Ahaus, Stadt","type":"Stadt"},"district":{"key":"05554","name":"Borken","type":"Kreis"},"federalState":{"key":"05","name":"Nordrhein-Westfalen"}},{"name":"Pineweg","postalCode":"48683","locality":"Ahaus","municipality":{"key":"05554004","name":"Ahaus, Stadt","type":"Stadt"},"district":{"key":"05554","name":"Borken","type":"Kreis"},"federalState":{"key":"05","name":"Nordrhein-Westfalen"}},{"name":"Plettenbergstr.","postalCode":"48683","locality":"Ahaus","municipality":{"key":"05554004","name":"Ahaus, Stadt","type":"Stadt"},"district":{"key":"05554","name":"Borken","type":"Kreis"},"federalState":{"key":"05","name":"Nordrhein-Westfalen"}},{"name":"Prozessionsweg","postalCode":"48683","locality":"Ahaus","municipality":{"key":"05554004","name":"Ahaus, Stadt","type":"Stadt"},"district":{"key":"05554","name":"Borken","type":"Kreis"},"federalState":{"key":"05","name":"Nordrhein-Westfalen"}},{"name":"Quantwick","postalCode":"48683","locality":"Ahaus","municipality":{"key":"05554004","name":"Ahaus, Stadt","type":"Stadt"},"district":{"key":"05554","name":"Borken","type":"Kreis"},"federalState":{"key":"05","name":"Nordrhein-Westfalen"}},{"name":"Quantwicker Str.","postalCode":"48683","locality":"Ahaus","municipality":{"key":"05554004","name":"Ahaus, Stadt","type":"Stadt"},"district":{"key":"05554","name":"Borken","type":"Kreis"},"federalState":{"key":"05","name":"Nordrhein-Westfalen"}},{"name":"Raiffeisenstr.","postalCode":"48683","locality":"Ahaus","municipality":{"key":"05554004","name":"Ahaus, Stadt","type":"Stadt"},"district":{"key":"05554","name":"Borken","type":"Kreis"},"federalState":{"key":"05","name":"Nordrhein-Westfalen"}},{"name":"Rentmeisterskamp","postalCode":"48683","locality":"Ahaus","municipality":{"key":"05554004","name":"Ahaus, Stadt","type":"Stadt"},"district":{"key":"05554","name":"Borken","type":"Kreis"},"federalState":{"key":"05","name":"Nordrhein-Westfalen"}},{"name":"Reservoirperipherie","postalCode":"48683","locality":"Ahaus","municipality":{"key":"05554004","name":"Ahaus, Stadt","type":"Stadt"},"district":{"key":"05554","name":"Borken","type":"Kreis"},"federalState":{"key":"05","name":"Nordrhein-Westfalen"}},{"name":"Ridderstr.","postalCode":"48683","locality":"Ahaus","municipality":{"key":"05554004","name":"Ahaus, Stadt","type":"Stadt"},"district":{"key":"05554","name":"Borken","type":"Kreis"},"federalState":{"key":"05","name":"Nordrhein-Westfalen"}},{"name":"Riete","postalCode":"48683","locality":"Ahaus","municipality":{"key":"05554004","name":"Ahaus, Stadt","type":"Stadt"},"district":{"key":"05554","name":"Borken","type":"Kreis"},"federalState":{"key":"05","name":"Nordrhein-Westfalen"}},{"name":"Ringstr.","postalCode":"48683","locality":"Ahaus","municipality":{"key":"05554004","name":"Ahaus, Stadt","type":"Stadt"},"district":{"key":"05554","name":"Borken","type":"Kreis"},"federalState":{"key":"05","name":"Nordrhein-Westfalen"}},{"name":"Roggenkamp","postalCode":"48683","locality":"Ahaus","municipality":{"key":"05554004","name":"Ahaus, Stadt","type":"Stadt"},"district":{"key":"05554","name":"Borken","type":"Kreis"},"federalState":{"key":"05","name":"Nordrhein-Westfalen"}},{"name":"Rosenthal","postalCode":"48683","locality":"Ahaus","municipality":{"key":"05554004","name":"Ahaus, Stadt","type":"Stadt"},"district":{"key":"05554","name":"Borken","type":"Kreis"},"federalState":{"key":"05","name":"Nordrhein-Westfalen"}},{"name":"Rotdornstr.","postalCode":"48683","locality":"Ahaus","municipality":{"key":"05554004","name":"Ahaus, Stadt","type":"Stadt"},"district":{"key":"05554","name":"Borken","type":"Kreis"},"federalState":{"key":"05","name":"Nordrhein-Westfalen"}},{"name":"Rottweg","postalCode":"48683","locality":"Ahaus","municipality":{"key":"05554004","name":"Ahaus, Stadt","type":"Stadt"},"district":{"key":"05554","name":"Borken","type":"Kreis"},"federalState":{"key":"05","name":"Nordrhein-Westfalen"}},{"name":"Runder Berg","postalCode":"48683","locality":"Ahaus","municipality":{"key":"05554004","name":"Ahaus, Stadt","type":"Stadt"},"district":{"key":"05554","name":"Borken","type":"Kreis"},"federalState":{"key":"05","name":"Nordrhein-Westfalen"}},{"name":"Rüskenkamp","postalCode":"48683","locality":"Ahaus","municipality":{"key":"05554004","name":"Ahaus, Stadt","type":"Stadt"},"district":{"key":"05554","name":"Borken","type":"Kreis"},"federalState":{"key":"05","name":"Nordrhein-Westfalen"}},{"name":"Sabstätte","postalCode":"48683","locality":"Ahaus","municipality":{"key":"05554004","name":"Ahaus, Stadt","type":"Stadt"},"district":{"key":"05554","name":"Borken","type":"Kreis"},"federalState":{"key":"05","name":"Nordrhein-Westfalen"}},{"name":"Sabstätter Str.","postalCode":"48683","locality":"Ahaus","municipality":{"key":"05554004","name":"Ahaus, Stadt","type":"Stadt"},"district":{"key":"05554","name":"Borken","type":"Kreis"},"federalState":{"key":"05","name":"Nordrhein-Westfalen"}},{"name":"Schaddenhook","postalCode":"48683","locality":"Ahaus","municipality":{"key":"05554004","name":"Ahaus, Stadt","type":"Stadt"},"district":{"key":"05554","name":"Borken","type":"Kreis"},"federalState":{"key":"05","name":"Nordrhein-Westfalen"}},{"name":"Scharfland","postalCode":"48683","locality":"Ahaus","municipality":{"key":"05554004","name":"Ahaus, Stadt","type":"Stadt"},"district":{"key":"05554","name":"Borken","type":"Kreis"},"federalState":{"key":"05","name":"Nordrhein-Westfalen"}},{"name":"Scharweg","postalCode":"48683","locality":"Ahaus","municipality":{"key":"05554004","name":"Ahaus, Stadt","type":"Stadt"},"district":{"key":"05554","name":"Borken","type":"Kreis"},"federalState":{"key":"05","name":"Nordrhein-Westfalen"}},{"name":"Scheelenkamp","postalCode":"48683","locality":"Ahaus","municipality":{"key":"05554004","name":"Ahaus, Stadt","type":"Stadt"},"district":{"key":"05554","name":"Borken","type":"Kreis"},"federalState":{"key":"05","name":"Nordrhein-Westfalen"}},{"name":"Schillerstr.","postalCode":"48683","locality":"Ahaus","municipality":{"key":"05554004","name":"Ahaus, Stadt","type":"Stadt"},"district":{"key":"05554","name":"Borken","type":"Kreis"},"federalState":{"key":"05","name":"Nordrhein-Westfalen"}},{"name":"Schlesienstr.","postalCode":"48683","locality":"Ahaus","municipality":{"key":"05554004","name":"Ahaus, Stadt","type":"Stadt"},"district":{"key":"05554","name":"Borken","type":"Kreis"},"federalState":{"key":"05","name":"Nordrhein-Westfalen"}},{"name":"Schlossgarten","postalCode":"48683","locality":"Ahaus","municipality":{"key":"05554004","name":"Ahaus, Stadt","type":"Stadt"},"district":{"key":"05554","name":"Borken","type":"Kreis"},"federalState":{"key":"05","name":"Nordrhein-Westfalen"}},{"name":"Schlosspark","postalCode":"48683","locality":"Ahaus","municipality":{"key":"05554004","name":"Ahaus, Stadt","type":"Stadt"},"district":{"key":"05554","name":"Borken","type":"Kreis"},"federalState":{"key":"05","name":"Nordrhein-Westfalen"}},{"name":"Schloßstr.","postalCode":"48683","locality":"Ahaus","municipality":{"key":"05554004","name":"Ahaus, Stadt","type":"Stadt"},"district":{"key":"05554","name":"Borken","type":"Kreis"},"federalState":{"key":"05","name":"Nordrhein-Westfalen"}},{"name":"Schlöttelborg","postalCode":"48683","locality":"Ahaus","municipality":{"key":"05554004","name":"Ahaus, Stadt","type":"Stadt"},"district":{"key":"05554","name":"Borken","type":"Kreis"},"federalState":{"key":"05","name":"Nordrhein-Westfalen"}},{"name":"Schmalenstrothstr.","postalCode":"48683","locality":"Ahaus","municipality":{"key":"05554004","name":"Ahaus, Stadt","type":"Stadt"},"district":{"key":"05554","name":"Borken","type":"Kreis"},"federalState":{"key":"05","name":"Nordrhein-Westfalen"}},{"name":"Schmiedegasse","postalCode":"48683","locality":"Ahaus","municipality":{"key":"05554004","name":"Ahaus, Stadt","type":"Stadt"},"district":{"key":"05554","name":"Borken","type":"Kreis"},"federalState":{"key":"05","name":"Nordrhein-Westfalen"}},{"name":"Schöppinger Str.","postalCode":"48683","locality":"Ahaus","municipality":{"key":"05554004","name":"Ahaus, Stadt","type":"Stadt"},"district":{"key":"05554","name":"Borken","type":"Kreis"},"federalState":{"key":"05","name":"Nordrhein-Westfalen"}},{"name":"Schorlemerstr.","postalCode":"48683","locality":"Ahaus","municipality":{"key":"05554004","name":"Ahaus, Stadt","type":"Stadt"},"district":{"key":"05554","name":"Borken","type":"Kreis"},"federalState":{"key":"05","name":"Nordrhein-Westfalen"}},{"name":"Schulstr.","postalCode":"48683","locality":"Ahaus","municipality":{"key":"05554004","name":"Ahaus, Stadt","type":"Stadt"},"district":{"key":"05554","name":"Borken","type":"Kreis"},"federalState":{"key":"05","name":"Nordrhein-Westfalen"}},{"name":"Schultenkamp","postalCode":"48683","locality":"Ahaus","municipality":{"key":"05554004","name":"Ahaus, Stadt","type":"Stadt"},"district":{"key":"05554","name":"Borken","type":"Kreis"},"federalState":{"key":"05","name":"Nordrhein-Westfalen"}},{"name":"Schultestr.","postalCode":"48683","locality":"Ahaus","municipality":{"key":"05554004","name":"Ahaus, Stadt","type":"Stadt"},"district":{"key":"05554","name":"Borken","type":"Kreis"},"federalState":{"key":"05","name":"Nordrhein-Westfalen"}},{"name":"Schumacherring","postalCode":"48683","locality":"Ahaus","municipality":{"key":"05554004","name":"Ahaus, Stadt","type":"Stadt"},"district":{"key":"05554","name":"Borken","type":"Kreis"},"federalState":{"key":"05","name":"Nordrhein-Westfalen"}},{"name":"Schüttenfeld","postalCode":"48683","locality":"Ahaus","municipality":{"key":"05554004","name":"Ahaus, Stadt","type":"Stadt"},"district":{"key":"05554","name":"Borken","type":"Kreis"},"federalState":{"key":"05","name":"Nordrhein-Westfalen"}},{"name":"Schützenplatz, Am Spieker","postalCode":"48683","locality":"Ahaus","municipality":{"key":"05554004","name":"Ahaus, Stadt","type":"Stadt"},"district":{"key":"05554","name":"Borken","type":"Kreis"},"federalState":{"key":"05","name":"Nordrhein-Westfalen"}},{"name":"Schützenplatz Wessum","postalCode":"48683","locality":"Ahaus","municipality":{"key":"05554004","name":"Ahaus, Stadt","type":"Stadt"},"district":{"key":"05554","name":"Borken","type":"Kreis"},"federalState":{"key":"05","name":"Nordrhein-Westfalen"}},{"name":"Schützenstr.","postalCode":"48683","locality":"Ahaus","municipality":{"key":"05554004","name":"Ahaus, Stadt","type":"Stadt"},"district":{"key":"05554","name":"Borken","type":"Kreis"},"federalState":{"key":"05","name":"Nordrhein-Westfalen"}},{"name":"Schwalbenweg","postalCode":"48683","locality":"Ahaus","municipality":{"key":"05554004","name":"Ahaus, Stadt","type":"Stadt"},"district":{"key":"05554","name":"Borken","type":"Kreis"},"federalState":{"key":"05","name":"Nordrhein-Westfalen"}},{"name":"Schwanenkamp","postalCode":"48683","locality":"Ahaus","municipality":{"key":"05554004","name":"Ahaus, Stadt","type":"Stadt"},"district":{"key":"05554","name":"Borken","type":"Kreis"},"federalState":{"key":"05","name":"Nordrhein-Westfalen"}},{"name":"Schwarzer Weg","postalCode":"48683","locality":"Ahaus","municipality":{"key":"05554004","name":"Ahaus, Stadt","type":"Stadt"},"district":{"key":"05554","name":"Borken","type":"Kreis"},"federalState":{"key":"05","name":"Nordrhein-Westfalen"}},{"name":"Schwesternbüschken und Josefskapelle","postalCode":"48683","locality":"Ahaus","municipality":{"key":"05554004","name":"Ahaus, Stadt","type":"Stadt"},"district":{"key":"05554","name":"Borken","type":"Kreis"},"federalState":{"key":"05","name":"Nordrhein-Westfalen"}},{"name":"Schwiepinghook","postalCode":"48683","locality":"Ahaus","municipality":{"key":"05554004","name":"Ahaus, Stadt","type":"Stadt"},"district":{"key":"05554","name":"Borken","type":"Kreis"},"federalState":{"key":"05","name":"Nordrhein-Westfalen"}},{"name":"Schwieterskamp","postalCode":"48683","locality":"Ahaus","municipality":{"key":"05554004","name":"Ahaus, Stadt","type":"Stadt"},"district":{"key":"05554","name":"Borken","type":"Kreis"},"federalState":{"key":"05","name":"Nordrhein-Westfalen"}},{"name":"Siemensstr.","postalCode":"48683","locality":"Ahaus","municipality":{"key":"05554004","name":"Ahaus, Stadt","type":"Stadt"},"district":{"key":"05554","name":"Borken","type":"Kreis"},"federalState":{"key":"05","name":"Nordrhein-Westfalen"}},{"name":"Sohlstätte","postalCode":"48683","locality":"Ahaus","municipality":{"key":"05554004","name":"Ahaus, Stadt","type":"Stadt"},"district":{"key":"05554","name":"Borken","type":"Kreis"},"federalState":{"key":"05","name":"Nordrhein-Westfalen"}},{"name":"Solmsstr.","postalCode":"48683","locality":"Ahaus","municipality":{"key":"05554004","name":"Ahaus, Stadt","type":"Stadt"},"district":{"key":"05554","name":"Borken","type":"Kreis"},"federalState":{"key":"05","name":"Nordrhein-Westfalen"}},{"name":"Sonderhues Esch","postalCode":"48683","locality":"Ahaus","municipality":{"key":"05554004","name":"Ahaus, Stadt","type":"Stadt"},"district":{"key":"05554","name":"Borken","type":"Kreis"},"federalState":{"key":"05","name":"Nordrhein-Westfalen"}},{"name":"Spechtweg","postalCode":"48683","locality":"Ahaus","municipality":{"key":"05554004","name":"Ahaus, Stadt","type":"Stadt"},"district":{"key":"05554","name":"Borken","type":"Kreis"},"federalState":{"key":"05","name":"Nordrhein-Westfalen"}},{"name":"Sperberweg","postalCode":"48683","locality":"Ahaus","municipality":{"key":"05554004","name":"Ahaus, Stadt","type":"Stadt"},"district":{"key":"05554","name":"Borken","type":"Kreis"},"federalState":{"key":"05","name":"Nordrhein-Westfalen"}},{"name":"Stadtlohner Str.","postalCode":"48683","locality":"Ahaus","municipality":{"key":"05554004","name":"Ahaus, Stadt","type":"Stadt"},"district":{"key":"05554","name":"Borken","type":"Kreis"},"federalState":{"key":"05","name":"Nordrhein-Westfalen"}},{"name":"Stadtpark","postalCode":"48683","locality":"Ahaus","municipality":{"key":"05554004","name":"Ahaus, Stadt","type":"Stadt"},"district":{"key":"05554","name":"Borken","type":"Kreis"},"federalState":{"key":"05","name":"Nordrhein-Westfalen"}},{"name":"Stadtwall","postalCode":"48683","locality":"Ahaus","municipality":{"key":"05554004","name":"Ahaus, Stadt","type":"Stadt"},"district":{"key":"05554","name":"Borken","type":"Kreis"},"federalState":{"key":"05","name":"Nordrhein-Westfalen"}},{"name":"Starenweg","postalCode":"27367","locality":"Ahausen","municipality":{"key":"03357001","name":"Ahausen","type":"Kreisangehörige_Gemeinde"},"district":{"key":"03357","name":"Rotenburg (Wümme)","type":"Landkreis"},"federalState":{"key":"03","name":"Niedersachsen"}},{"name":"Starenweg","postalCode":"48683","locality":"Ahaus","municipality":{"key":"05554004","name":"Ahaus, Stadt","type":"Stadt"},"district":{"key":"05554","name":"Borken","type":"Kreis"},"federalState":{"key":"05","name":"Nordrhein-Westfalen"}},{"name":"Steenacker","postalCode":"48683","locality":"Ahaus","municipality":{"key":"05554004","name":"Ahaus, Stadt","type":"Stadt"},"district":{"key":"05554","name":"Borken","type":"Kreis"},"federalState":{"key":"05","name":"Nordrhein-Westfalen"}},{"name":"Steenkamp","postalCode":"48683","locality":"Ahaus","municipality":{"key":"05554004","name":"Ahaus, Stadt","type":"Stadt"},"district":{"key":"05554","name":"Borken","type":"Kreis"},"federalState":{"key":"05","name":"Nordrhein-Westfalen"}},{"name":"Stegge","postalCode":"48683","locality":"Ahaus","municipality":{"key":"05554004","name":"Ahaus, Stadt","type":"Stadt"},"district":{"key":"05554","name":"Borken","type":"Kreis"},"federalState":{"key":"05","name":"Nordrhein-Westfalen"}},{"name":"Stikkenweg","postalCode":"48683","locality":"Ahaus","municipality":{"key":"05554004","name":"Ahaus, Stadt","type":"Stadt"},"district":{"key":"05554","name":"Borken","type":"Kreis"},"federalState":{"key":"05","name":"Nordrhein-Westfalen"}},{"name":"Stormstr.","postalCode":"48683","locality":"Ahaus","municipality":{"key":"05554004","name":"Ahaus, Stadt","type":"Stadt"},"district":{"key":"05554","name":"Borken","type":"Kreis"},"federalState":{"key":"05","name":"Nordrhein-Westfalen"}},{"name":"Süderwalseder Weg","postalCode":"27367","locality":"Ahausen","municipality":{"key":"03357001","name":"Ahausen","type":"Kreisangehörige_Gemeinde"},"district":{"key":"03357","name":"Rotenburg (Wümme)","type":"Landkreis"},"federalState":{"key":"03","name":"Niedersachsen"}},{"name":"Südring","postalCode":"27367","locality":"Ahausen","municipality":{"key":"03357001","name":"Ahausen","type":"Kreisangehörige_Gemeinde"},"district":{"key":"03357","name":"Rotenburg (Wümme)","type":"Landkreis"},"federalState":{"key":"03","name":"Niedersachsen"}},{"name":"Südstr.","postalCode":"48683","locality":"Ahaus","municipality":{"key":"05554004","name":"Ahaus, Stadt","type":"Stadt"},"district":{"key":"05554","name":"Borken","type":"Kreis"},"federalState":{"key":"05","name":"Nordrhein-Westfalen"}},{"name":"Sunderhues Esch","postalCode":"48683","locality":"Ahaus","municipality":{"key":"05554004","name":"Ahaus, Stadt","type":"Stadt"},"district":{"key":"05554","name":"Borken","type":"Kreis"},"federalState":{"key":"05","name":"Nordrhein-Westfalen"}},{"name":"Tannenweg","postalCode":"27367","locality":"Ahausen","municipality":{"key":"03357001","name":"Ahausen","type":"Kreisangehörige_Gemeinde"},"district":{"key":"03357","name":"Rotenburg (Wümme)","type":"Landkreis"},"federalState":{"key":"03","name":"Niedersachsen"}},{"name":"Telgenkamp","postalCode":"48683","locality":"Ahaus","municipality":{"key":"05554004","name":"Ahaus, Stadt","type":"Stadt"},"district":{"key":"05554","name":"Borken","type":"Kreis"},"federalState":{"key":"05","name":"Nordrhein-Westfalen"}},{"name":"Tembrinkstr.","postalCode":"48683","locality":"Ahaus","municipality":{"key":"05554004","name":"Ahaus, Stadt","type":"Stadt"},"district":{"key":"05554","name":"Borken","type":"Kreis"},"federalState":{"key":"05","name":"Nordrhein-Westfalen"}},{"name":"Textilstr.","postalCode":"48683","locality":"Ahaus","municipality":{"key":"05554004","name":"Ahaus, Stadt","type":"Stadt"},"district":{"key":"05554","name":"Borken","type":"Kreis"},"federalState":{"key":"05","name":"Nordrhein-Westfalen"}},{"name":"Thieweg","postalCode":"48683","locality":"Ahaus","municipality":{"key":"05554004","name":"Ahaus, Stadt","type":"Stadt"},"district":{"key":"05554","name":"Borken","type":"Kreis"},"federalState":{"key":"05","name":"Nordrhein-Westfalen"}},{"name":"Tückingstr.","postalCode":"48683","locality":"Ahaus","municipality":{"key":"05554004","name":"Ahaus, Stadt","type":"Stadt"},"district":{"key":"05554","name":"Borken","type":"Kreis"},"federalState":{"key":"05","name":"Nordrhein-Westfalen"}},{"name":"Tulpenweg","postalCode":"48683","locality":"Ahaus","municipality":{"key":"05554004","name":"Ahaus, Stadt","type":"Stadt"},"district":{"key":"05554","name":"Borken","type":"Kreis"},"federalState":{"key":"05","name":"Nordrhein-Westfalen"}},{"name":"Twentestr.","postalCode":"48683","locality":"Ahaus","municipality":{"key":"05554004","name":"Ahaus, Stadt","type":"Stadt"},"district":{"key":"05554","name":"Borken","type":"Kreis"},"federalState":{"key":"05","name":"Nordrhein-Westfalen"}},{"name":"Uhlandstr.","postalCode":"48683","locality":"Ahaus","municipality":{"key":"05554004","name":"Ahaus, Stadt","type":"Stadt"},"district":{"key":"05554","name":"Borken","type":"Kreis"},"federalState":{"key":"05","name":"Nordrhein-Westfalen"}},{"name":"Unterortwick","postalCode":"48683","locality":"Ahaus","municipality":{"key":"05554004","name":"Ahaus, Stadt","type":"Stadt"},"district":{"key":"05554","name":"Borken","type":"Kreis"},"federalState":{"key":"05","name":"Nordrhein-Westfalen"}},{"name":"Unterstedter Str.","postalCode":"27367","locality":"Ahausen","municipality":{"key":"03357001","name":"Ahausen","type":"Kreisangehörige_Gemeinde"},"district":{"key":"03357","name":"Rotenburg (Wümme)","type":"Landkreis"},"federalState":{"key":"03","name":"Niedersachsen"}},{"name":"Up de Bree","postalCode":"48683","locality":"Ahaus","municipality":{"key":"05554004","name":"Ahaus, Stadt","type":"Stadt"},"district":{"key":"05554","name":"Borken","type":"Kreis"},"federalState":{"key":"05","name":"Nordrhein-Westfalen"}},{"name":"Vagedesstr.","postalCode":"48683","locality":"Ahaus","municipality":{"key":"05554004","name":"Ahaus, Stadt","type":"Stadt"},"district":{"key":"05554","name":"Borken","type":"Kreis"},"federalState":{"key":"05","name":"Nordrhein-Westfalen"}},{"name":"Van-Delden-Str.","postalCode":"48683","locality":"Ahaus","municipality":{"key":"05554004","name":"Ahaus, Stadt","type":"Stadt"},"district":{"key":"05554","name":"Borken","type":"Kreis"},"federalState":{"key":"05","name":"Nordrhein-Westfalen"}},{"name":"Veilchenweg","postalCode":"48683","locality":"Ahaus","municipality":{"key":"05554004","name":"Ahaus, Stadt","type":"Stadt"},"district":{"key":"05554","name":"Borken","type":"Kreis"},"federalState":{"key":"05","name":"Nordrhein-Westfalen"}},{"name":"Verdener Str.","postalCode":"27367","locality":"Ahausen","municipality":{"key":"03357001","name":"Ahausen","type":"Kreisangehörige_Gemeinde"},"district":{"key":"03357","name":"Rotenburg (Wümme)","type":"Landkreis"},"federalState":{"key":"03","name":"Niedersachsen"}},{"name":"Verdener Weg","postalCode":"27367","locality":"Ahausen","municipality":{"key":"03357001","name":"Ahausen","type":"Kreisangehörige_Gemeinde"},"district":{"key":"03357","name":"Rotenburg (Wümme)","type":"Landkreis"},"federalState":{"key":"03","name":"Niedersachsen"}},{"name":"Vissingkamp","postalCode":"48683","locality":"Ahaus","municipality":{"key":"05554004","name":"Ahaus, Stadt","type":"Stadt"},"district":{"key":"05554","name":"Borken","type":"Kreis"},"federalState":{"key":"05","name":"Nordrhein-Westfalen"}},{"name":"Vogtei","postalCode":"27367","locality":"Ahausen","municipality":{"key":"03357001","name":"Ahausen","type":"Kreisangehörige_Gemeinde"},"district":{"key":"03357","name":"Rotenburg (Wümme)","type":"Landkreis"},"federalState":{"key":"03","name":"Niedersachsen"}},{"name":"Von-Braun-Str.","postalCode":"48683","locality":"Ahaus","municipality":{"key":"05554004","name":"Ahaus, Stadt","type":"Stadt"},"district":{"key":"05554","name":"Borken","type":"Kreis"},"federalState":{"key":"05","name":"Nordrhein-Westfalen"}},{"name":"Von-Heyden-Str.","postalCode":"48683","locality":"Ahaus","municipality":{"key":"05554004","name":"Ahaus, Stadt","type":"Stadt"},"district":{"key":"05554","name":"Borken","type":"Kreis"},"federalState":{"key":"05","name":"Nordrhein-Westfalen"}},{"name":"von-Martels-Str.","postalCode":"48683","locality":"Ahaus","municipality":{"key":"05554004","name":"Ahaus, Stadt","type":"Stadt"},"district":{"key":"05554","name":"Borken","type":"Kreis"},"federalState":{"key":"05","name":"Nordrhein-Westfalen"}},{"name":"von-Morrien-Str.","postalCode":"48683","locality":"Ahaus","municipality":{"key":"05554004","name":"Ahaus, Stadt","type":"Stadt"},"district":{"key":"05554","name":"Borken","type":"Kreis"},"federalState":{"key":"05","name":"Nordrhein-Westfalen"}},{"name":"Von-Röntgen-Str.","postalCode":"48683","locality":"Ahaus","municipality":{"key":"05554004","name":"Ahaus, Stadt","type":"Stadt"},"district":{"key":"05554","name":"Borken","type":"Kreis"},"federalState":{"key":"05","name":"Nordrhein-Westfalen"}},{"name":"Vor der Wümme","postalCode":"27367","locality":"Ahausen","municipality":{"key":"03357001","name":"Ahausen","type":"Kreisangehörige_Gemeinde"},"district":{"key":"03357","name":"Rotenburg (Wümme)","type":"Landkreis"},"federalState":{"key":"03","name":"Niedersachsen"}},{"name":"Vorm Himberg","postalCode":"27367","locality":"Ahausen","municipality":{"key":"03357001","name":"Ahausen","type":"Kreisangehörige_Gemeinde"},"district":{"key":"03357","name":"Rotenburg (Wümme)","type":"Landkreis"},"federalState":{"key":"03","name":"Niedersachsen"}},{"name":"Vor Pastors Busch","postalCode":"48683","locality":"Ahaus","municipality":{"key":"05554004","name":"Ahaus, Stadt","type":"Stadt"},"district":{"key":"05554","name":"Borken","type":"Kreis"},"federalState":{"key":"05","name":"Nordrhein-Westfalen"}},{"name":"Voßkamp","postalCode":"27367","locality":"Ahausen","municipality":{"key":"03357001","name":"Ahausen","type":"Kreisangehörige_Gemeinde"},"district":{"key":"03357","name":"Rotenburg (Wümme)","type":"Landkreis"},"federalState":{"key":"03","name":"Niedersachsen"}},{"name":"Vredener Dyk","postalCode":"48683","locality":"Ahaus","municipality":{"key":"05554004","name":"Ahaus, Stadt","type":"Stadt"},"district":{"key":"05554","name":"Borken","type":"Kreis"},"federalState":{"key":"05","name":"Nordrhein-Westfalen"}},{"name":"Vredener Str.","postalCode":"48683","locality":"Ahaus","municipality":{"key":"05554004","name":"Ahaus, Stadt","type":"Stadt"},"district":{"key":"05554","name":"Borken","type":"Kreis"},"federalState":{"key":"05","name":"Nordrhein-Westfalen"}},{"name":"Waffensener Weg","postalCode":"27367","locality":"Ahausen","municipality":{"key":"03357001","name":"Ahausen","type":"Kreisangehörige_Gemeinde"},"district":{"key":"03357","name":"Rotenburg (Wümme)","type":"Landkreis"},"federalState":{"key":"03","name":"Niedersachsen"}},{"name":"Wagenfeldstr.","postalCode":"48683","locality":"Ahaus","municipality":{"key":"05554004","name":"Ahaus, Stadt","type":"Stadt"},"district":{"key":"05554","name":"Borken","type":"Kreis"},"federalState":{"key":"05","name":"Nordrhein-Westfalen"}},{"name":"Wallstr.","postalCode":"48683","locality":"Ahaus","municipality":{"key":"05554004","name":"Ahaus, Stadt","type":"Stadt"},"district":{"key":"05554","name":"Borken","type":"Kreis"},"federalState":{"key":"05","name":"Nordrhein-Westfalen"}},{"name":"Wasserweg","postalCode":"48683","locality":"Ahaus","municipality":{"key":"05554004","name":"Ahaus, Stadt","type":"Stadt"},"district":{"key":"05554","name":"Borken","type":"Kreis"},"federalState":{"key":"05","name":"Nordrhein-Westfalen"}},{"name":"Webereiweg","postalCode":"48683","locality":"Ahaus","municipality":{"key":"05554004","name":"Ahaus, Stadt","type":"Stadt"},"district":{"key":"05554","name":"Borken","type":"Kreis"},"federalState":{"key":"05","name":"Nordrhein-Westfalen"}},{"name":"Weberstr.","postalCode":"48683","locality":"Ahaus","municipality":{"key":"05554004","name":"Ahaus, Stadt","type":"Stadt"},"district":{"key":"05554","name":"Borken","type":"Kreis"},"federalState":{"key":"05","name":"Nordrhein-Westfalen"}},{"name":"Weidenstr.","postalCode":"48683","locality":"Ahaus","municipality":{"key":"05554004","name":"Ahaus, Stadt","type":"Stadt"},"district":{"key":"05554","name":"Borken","type":"Kreis"},"federalState":{"key":"05","name":"Nordrhein-Westfalen"}},{"name":"Weißdornweg","postalCode":"48683","locality":"Ahaus","municipality":{"key":"05554004","name":"Ahaus, Stadt","type":"Stadt"},"district":{"key":"05554","name":"Borken","type":"Kreis"},"federalState":{"key":"05","name":"Nordrhein-Westfalen"}},{"name":"Weizenacker","postalCode":"48683","locality":"Ahaus","municipality":{"key":"05554004","name":"Ahaus, Stadt","type":"Stadt"},"district":{"key":"05554","name":"Borken","type":"Kreis"},"federalState":{"key":"05","name":"Nordrhein-Westfalen"}},{"name":"Wellhaarstr.","postalCode":"48683","locality":"Ahaus","municipality":{"key":"05554004","name":"Ahaus, Stadt","type":"Stadt"},"district":{"key":"05554","name":"Borken","type":"Kreis"},"federalState":{"key":"05","name":"Nordrhein-Westfalen"}},{"name":"Welsingstr.","postalCode":"48683","locality":"Ahaus","municipality":{"key":"05554004","name":"Ahaus, Stadt","type":"Stadt"},"district":{"key":"05554","name":"Borken","type":"Kreis"},"federalState":{"key":"05","name":"Nordrhein-Westfalen"}},{"name":"Wesheimstr.","postalCode":"48683","locality":"Ahaus","municipality":{"key":"05554004","name":"Ahaus, Stadt","type":"Stadt"},"district":{"key":"05554","name":"Borken","type":"Kreis"},"federalState":{"key":"05","name":"Nordrhein-Westfalen"}},{"name":"Wessumer Str.","postalCode":"48683","locality":"Ahaus","municipality":{"key":"05554004","name":"Ahaus, Stadt","type":"Stadt"},"district":{"key":"05554","name":"Borken","type":"Kreis"},"federalState":{"key":"05","name":"Nordrhein-Westfalen"}},{"name":"Westring","postalCode":"27367","locality":"Ahausen","municipality":{"key":"03357001","name":"Ahausen","type":"Kreisangehörige_Gemeinde"},"district":{"key":"03357","name":"Rotenburg (Wümme)","type":"Landkreis"},"federalState":{"key":"03","name":"Niedersachsen"}},{"name":"Westring","postalCode":"48683","locality":"Ahaus","municipality":{"key":"05554004","name":"Ahaus, Stadt","type":"Stadt"},"district":{"key":"05554","name":"Borken","type":"Kreis"},"federalState":{"key":"05","name":"Nordrhein-Westfalen"}},{"name":"Weststr.","postalCode":"48683","locality":"Ahaus","municipality":{"key":"05554004","name":"Ahaus, Stadt","type":"Stadt"},"district":{"key":"05554","name":"Borken","type":"Kreis"},"federalState":{"key":"05","name":"Nordrhein-Westfalen"}},{"name":"Wibbeltstr.","postalCode":"48683","locality":"Ahaus","municipality":{"key":"05554004","name":"Ahaus, Stadt","type":"Stadt"},"district":{"key":"05554","name":"Borken","type":"Kreis"},"federalState":{"key":"05","name":"Nordrhein-Westfalen"}},{"name":"Wiegbold","postalCode":"48683","locality":"Ahaus","municipality":{"key":"05554004","name":"Ahaus, Stadt","type":"Stadt"},"district":{"key":"05554","name":"Borken","type":"Kreis"},"federalState":{"key":"05","name":"Nordrhein-Westfalen"}},{"name":"Wieselweg","postalCode":"48683","locality":"Ahaus","municipality":{"key":"05554004","name":"Ahaus, Stadt","type":"Stadt"},"district":{"key":"05554","name":"Borken","type":"Kreis"},"federalState":{"key":"05","name":"Nordrhein-Westfalen"}},{"name":"Wiesengrund","postalCode":"48683","locality":"Ahaus","municipality":{"key":"05554004","name":"Ahaus, Stadt","type":"Stadt"},"district":{"key":"05554","name":"Borken","type":"Kreis"},"federalState":{"key":"05","name":"Nordrhein-Westfalen"}},{"name":"Wiesenstr.","postalCode":"48683","locality":"Ahaus","municipality":{"key":"05554004","name":"Ahaus, Stadt","type":"Stadt"},"district":{"key":"05554","name":"Borken","type":"Kreis"},"federalState":{"key":"05","name":"Nordrhein-Westfalen"}},{"name":"Wilgengrund","postalCode":"48683","locality":"Ahaus","municipality":{"key":"05554004","name":"Ahaus, Stadt","type":"Stadt"},"district":{"key":"05554","name":"Borken","type":"Kreis"},"federalState":{"key":"05","name":"Nordrhein-Westfalen"}},{"name":"Windhuk","postalCode":"48683","locality":"Ahaus","municipality":{"key":"05554004","name":"Ahaus, Stadt","type":"Stadt"},"district":{"key":"05554","name":"Borken","type":"Kreis"},"federalState":{"key":"05","name":"Nordrhein-Westfalen"}},{"name":"Windmühlentor","postalCode":"48683","locality":"Ahaus","municipality":{"key":"05554004","name":"Ahaus, Stadt","type":"Stadt"},"district":{"key":"05554","name":"Borken","type":"Kreis"},"federalState":{"key":"05","name":"Nordrhein-Westfalen"}},{"name":"Winkelstr.","postalCode":"48683","locality":"Ahaus","municipality":{"key":"05554004","name":"Ahaus, Stadt","type":"Stadt"},"district":{"key":"05554","name":"Borken","type":"Kreis"},"federalState":{"key":"05","name":"Nordrhein-Westfalen"}},{"name":"Witte Brook","postalCode":"48683","locality":"Ahaus","municipality":{"key":"05554004","name":"Ahaus, Stadt","type":"Stadt"},"district":{"key":"05554","name":"Borken","type":"Kreis"},"federalState":{"key":"05","name":"Nordrhein-Westfalen"}},{"name":"Wittenkamp","postalCode":"48683","locality":"Ahaus","municipality":{"key":"05554004","name":"Ahaus, Stadt","type":"Stadt"},"district":{"key":"05554","name":"Borken","type":"Kreis"},"federalState":{"key":"05","name":"Nordrhein-Westfalen"}},{"name":"Wulfertweg","postalCode":"48683","locality":"Ahaus","municipality":{"key":"05554004","name":"Ahaus, Stadt","type":"Stadt"},"district":{"key":"05554","name":"Borken","type":"Kreis"},"federalState":{"key":"05","name":"Nordrhein-Westfalen"}},{"name":"Wüllener Friedhofstr.","postalCode":"48683","locality":"Ahaus","municipality":{"key":"05554004","name":"Ahaus, Stadt","type":"Stadt"},"district":{"key":"05554","name":"Borken","type":"Kreis"},"federalState":{"key":"05","name":"Nordrhein-Westfalen"}},{"name":"Wüllener Str.","postalCode":"48683","locality":"Ahaus","municipality":{"key":"05554004","name":"Ahaus, Stadt","type":"Stadt"},"district":{"key":"05554","name":"Borken","type":"Kreis"},"federalState":{"key":"05","name":"Nordrhein-Westfalen"}},{"name":"Zeisigweg","postalCode":"48683","locality":"Ahaus","municipality":{"key":"05554004","name":"Ahaus, Stadt","type":"Stadt"},"district":{"key":"05554","name":"Borken","type":"Kreis"},"federalState":{"key":"05","name":"Nordrhein-Westfalen"}},{"name":"Zellerstr.","postalCode":"48683","locality":"Ahaus","municipality":{"key":"05554004","name":"Ahaus, Stadt","type":"Stadt"},"district":{"key":"05554","name":"Borken","type":"Kreis"},"federalState":{"key":"05","name":"Nordrhein-Westfalen"}},{"name":"Zieglers Weiden","postalCode":"48683","locality":"Ahaus","municipality":{"key":"05554004","name":"Ahaus, Stadt","type":"Stadt"},"district":{"key":"05554","name":"Borken","type":"Kreis"},"federalState":{"key":"05","name":"Nordrhein-Westfalen"}},{"name":"Zitadelle","postalCode":"48683","locality":"Ahaus","municipality":{"key":"05554004","name":"Ahaus, Stadt","type":"Stadt"},"district":{"key":"05554","name":"Borken","type":"Kreis"},"federalState":{"key":"05","name":"Nordrhein-Westfalen"}},{"name":"Zum Acker","postalCode":"27367","locality":"Ahausen","municipality":{"key":"03357001","name":"Ahausen","type":"Kreisangehörige_Gemeinde"},"district":{"key":"03357","name":"Rotenburg (Wümme)","type":"Landkreis"},"federalState":{"key":"03","name":"Niedersachsen"}},{"name":"Zum alten Dorf","postalCode":"27367","locality":"Ahausen","municipality":{"key":"03357001","name":"Ahausen","type":"Kreisangehörige_Gemeinde"},"district":{"key":"03357","name":"Rotenburg (Wümme)","type":"Landkreis"},"federalState":{"key":"03","name":"Niedersachsen"}},{"name":"Zum Riddebrocks Busch","postalCode":"48683","locality":"Ahaus","municipality":{"key":"05554004","name":"Ahaus, Stadt","type":"Stadt"},"district":{"key":"05554","name":"Borken","type":"Kreis"},"federalState":{"key":"05","name":"Nordrhein-Westfalen"}},{"name":"Zum Rotering","postalCode":"48683","locality":"Ahaus","municipality":{"key":"05554004","name":"Ahaus, Stadt","type":"Stadt"},"district":{"key":"05554","name":"Borken","type":"Kreis"},"federalState":{"key":"05","name":"Nordrhein-Westfalen"}},{"name":"Zum Sandberg","postalCode":"27367","locality":"Ahausen","municipality":{"key":"03357001","name":"Ahausen","type":"Kreisangehörige_Gemeinde"},"district":{"key":"03357","name":"Rotenburg (Wümme)","type":"Landkreis"},"federalState":{"key":"03","name":"Niedersachsen"}},{"name":"Zur Gräfte","postalCode":"48683","locality":"Ahaus","municipality":{"key":"05554004","name":"Ahaus, Stadt","type":"Stadt"},"district":{"key":"05554","name":"Borken","type":"Kreis"},"federalState":{"key":"05","name":"Nordrhein-Westfalen"}},{"name":"Zur Koppel","postalCode":"27367","locality":"Ahausen","municipality":{"key":"03357001","name":"Ahausen","type":"Kreisangehörige_Gemeinde"},"district":{"key":"03357","name":"Rotenburg (Wümme)","type":"Landkreis"},"federalState":{"key":"03","name":"Niedersachsen"}},{"name":"Zur Windmühle","postalCode":"48683","locality":"Ahaus","municipality":{"key":"05554004","name":"Ahaus, Stadt","type":"Stadt"},"district":{"key":"05554","name":"Borken","type":"Kreis"},"federalState":{"key":"05","name":"Nordrhein-Westfalen"}},{"name":"Ächterhook","postalCode":"48683","locality":"Ahaus","municipality":{"key":"05554004","name":"Ahaus, Stadt","type":"Stadt"},"district":{"key":"05554","name":"Borken","type":"Kreis"},"federalState":{"key":"05","name":"Nordrhein-Westfalen"}},{"name":"Öddingstr.","postalCode":"48683","locality":"Ahaus","municipality":{"key":"05554004","name":"Ahaus, Stadt","type":"Stadt"},"district":{"key":"05554","name":"Borken","type":"Kreis"},"federalState":{"key":"05","name":"Nordrhein-Westfalen"}},{"name":"Ölbachstr.","postalCode":"48683","locality":"Ahaus","municipality":{"key":"05554004","name":"Ahaus, Stadt","type":"Stadt"},"district":{"key":"05554","name":"Borken","type":"Kreis"},"federalState":{"key":"05","name":"Nordrhein-Westfalen"}},]