[{"key":"10093797","name":"Auguste-Piccard","postalCode":"1071","locality":"Chexbres","commune":{"key":"5601","name":"Chexbres","shortName":"Chexbres"},"district":{"key":"2226","name":"District de Lavaux-Oron"},"canton":{"key":"22","code":"VD","name":"Vaud"},"status":"Real"},{"key":"10072896","name":"Chemin Creux","postalCode":"1071","locality":"Chexbres","commune":{"key":"5601","name":"Chexbres","shortName":"Chexbres"},"district":{"key":"2226","name":"District de Lavaux-Oron"},"canton":{"key":"22","code":"VD","name":"Vaud"},"status":"Real"},{"key":"10044993","name":"Chemin de Baulet","postalCode":"1071","locality":"Chexbres","commune":{"key":"5601","name":"Chexbres","shortName":"Chexbres"},"district":{"key":"2226","name":"District de Lavaux-Oron"},"canton":{"key":"22","code":"VD","name":"Vaud"},"status":"Real"},{"key":"10093798","name":"Chemin de Chenilly","postalCode":"1071","locality":"Chexbres","commune":{"key":"5601","name":"Chexbres","shortName":"Chexbres"},"district":{"key":"2226","name":"District de Lavaux-Oron"},"canton":{"key":"22","code":"VD","name":"Vaud"},"status":"Real"},{"key":"10102100","name":"Chemin de Coumont","postalCode":"1071","locality":"Chexbres","commune":{"key":"5601","name":"Chexbres","shortName":"Chexbres"},"district":{"key":"2226","name":"District de Lavaux-Oron"},"canton":{"key":"22","code":"VD","name":"Vaud"},"status":"Real"},{"key":"10044994","name":"Chemin de Curtille","postalCode":"1071","locality":"Chexbres","commune":{"key":"5601","name":"Chexbres","shortName":"Chexbres"},"district":{"key":"2226","name":"District de Lavaux-Oron"},"canton":{"key":"22","code":"VD","name":"Vaud"},"status":"Real"},{"key":"10044992","name":"Chemin de Fleur-de-Lys","postalCode":"1071","locality":"Chexbres","commune":{"key":"5601","name":"Chexbres","shortName":"Chexbres"},"district":{"key":"2226","name":"District de Lavaux-Oron"},"canton":{"key":"22","code":"VD","name":"Vaud"},"status":"Real"},{"key":"10160375","name":"Chemin de Fossaux","postalCode":"1071","locality":"Chexbres","commune":{"key":"5601","name":"Chexbres","shortName":"Chexbres"},"district":{"key":"2226","name":"District de Lavaux-Oron"},"canton":{"key":"22","code":"VD","name":"Vaud"},"status":"Real"},{"key":"10044996","name":"Chemin de la Chapelle","postalCode":"1071","locality":"Chexbres","commune":{"key":"5601","name":"Chexbres","shortName":"Chexbres"},"district":{"key":"2226","name":"District de Lavaux-Oron"},"canton":{"key":"22","code":"VD","name":"Vaud"},"status":"Real"},{"key":"10133242","name":"Chemin de la Chapelle de Lignières","postalCode":"1071","locality":"Chexbres","commune":{"key":"5601","name":"Chexbres","shortName":"Chexbres"},"district":{"key":"2226","name":"District de Lavaux-Oron"},"canton":{"key":"22","code":"VD","name":"Vaud"},"status":"Real"},{"key":"10044997","name":"Chemin de la Cougnire","postalCode":"1071","locality":"Chexbres","commune":{"key":"5601","name":"Chexbres","shortName":"Chexbres"},"district":{"key":"2226","name":"District de Lavaux-Oron"},"canton":{"key":"22","code":"VD","name":"Vaud"},"status":"Real"},{"key":"10045248","name":"Chemin de la Croisée","postalCode":"1071","locality":"Chexbres","commune":{"key":"5601","name":"Chexbres","shortName":"Chexbres"},"district":{"key":"2226","name":"District de Lavaux-Oron"},"canton":{"key":"22","code":"VD","name":"Vaud"},"status":"Real"},{"key":"10073706","name":"Chemin de la Plantaz","postalCode":"1071","locality":"Chexbres","commune":{"key":"5601","name":"Chexbres","shortName":"Chexbres"},"district":{"key":"2226","name":"District de Lavaux-Oron"},"canton":{"key":"22","code":"VD","name":"Vaud"},"status":"Real"},{"key":"10092147","name":"Chemin de la Plantaz","postalCode":"1071","locality":"Chexbres","commune":{"key":"5601","name":"Chexbres","shortName":"Chexbres"},"district":{"key":"2226","name":"District de Lavaux-Oron"},"canton":{"key":"22","code":"VD","name":"Vaud"},"status":"Real"},{"key":"10093800","name":"Chemin de la Plantaz","postalCode":"1071","locality":"Chexbres","commune":{"key":"5601","name":"Chexbres","shortName":"Chexbres"},"district":{"key":"2226","name":"District de Lavaux-Oron"},"canton":{"key":"22","code":"VD","name":"Vaud"},"status":"Real"},{"key":"10204745","name":"Chemin de la Plantaz","postalCode":"1071","locality":"Chexbres","commune":{"key":"5601","name":"Chexbres","shortName":"Chexbres"},"district":{"key":"2226","name":"District de Lavaux-Oron"},"canton":{"key":"22","code":"VD","name":"Vaud"},"status":"Real"},{"key":"10176822","name":"Chemin de la Rochette","postalCode":"1071","locality":"Chexbres","commune":{"key":"5601","name":"Chexbres","shortName":"Chexbres"},"district":{"key":"2226","name":"District de Lavaux-Oron"},"canton":{"key":"22","code":"VD","name":"Vaud"},"status":"Real"},{"key":"10093799","name":"Chemin de l'Arzelier","postalCode":"1071","locality":"Chexbres","commune":{"key":"5601","name":"Chexbres","shortName":"Chexbres"},"district":{"key":"2226","name":"District de Lavaux-Oron"},"canton":{"key":"22","code":"VD","name":"Vaud"},"status":"Real"},{"key":"10072897","name":"Chemin de la Sablière","postalCode":"1071","locality":"Chexbres","commune":{"key":"5601","name":"Chexbres","shortName":"Chexbres"},"district":{"key":"2226","name":"District de Lavaux-Oron"},"canton":{"key":"22","code":"VD","name":"Vaud"},"status":"Real"},{"key":"10058852","name":"Chemin de Mont-de-Plan","postalCode":"1071","locality":"Chexbres","commune":{"key":"5601","name":"Chexbres","shortName":"Chexbres"},"district":{"key":"2226","name":"District de Lavaux-Oron"},"canton":{"key":"22","code":"VD","name":"Vaud"},"status":"Real"},{"key":"10107139","name":"Chemin de Mont-de-Plan","postalCode":"1071","locality":"Chexbres","commune":{"key":"5601","name":"Chexbres","shortName":"Chexbres"},"district":{"key":"2226","name":"District de Lavaux-Oron"},"canton":{"key":"22","code":"VD","name":"Vaud"},"status":"Real"},{"key":"10140126","name":"Chemin d'En Cheseaux","postalCode":"1071","locality":"Chexbres","commune":{"key":"5601","name":"Chexbres","shortName":"Chexbres"},"district":{"key":"2226","name":"District de Lavaux-Oron"},"canton":{"key":"22","code":"VD","name":"Vaud"},"status":"Real"},{"key":"10044995","name":"Chemin de Perche","postalCode":"1071","locality":"Chexbres","commune":{"key":"5601","name":"Chexbres","shortName":"Chexbres"},"district":{"key":"2226","name":"District de Lavaux-Oron"},"canton":{"key":"22","code":"VD","name":"Vaud"},"status":"Real"},{"key":"10242309","name":"Chemin de Praz-Roud","postalCode":"1071","locality":"Chexbres","commune":{"key":"5601","name":"Chexbres","shortName":"Chexbres"},"district":{"key":"2226","name":"District de Lavaux-Oron"},"canton":{"key":"22","code":"VD","name":"Vaud"},"status":"Real"},{"key":"10093804","name":"Chemin de Praz Routoz","postalCode":"1071","locality":"Chexbres","commune":{"key":"5601","name":"Chexbres","shortName":"Chexbres"},"district":{"key":"2226","name":"District de Lavaux-Oron"},"canton":{"key":"22","code":"VD","name":"Vaud"},"status":"Real"},{"key":"10235995","name":"Chemin des Blassinges","postalCode":"1071","locality":"Chexbres","commune":{"key":"5601","name":"Chexbres","shortName":"Chexbres"},"district":{"key":"2226","name":"District de Lavaux-Oron"},"canton":{"key":"22","code":"VD","name":"Vaud"},"status":"Real"},{"key":"10044998","name":"Chemin des Chènevières","postalCode":"1071","locality":"Chexbres","commune":{"key":"5601","name":"Chexbres","shortName":"Chexbres"},"district":{"key":"2226","name":"District de Lavaux-Oron"},"canton":{"key":"22","code":"VD","name":"Vaud"},"status":"Real"},{"key":"10093801","name":"Chemin des Condémines","postalCode":"1071","locality":"Chexbres","commune":{"key":"5601","name":"Chexbres","shortName":"Chexbres"},"district":{"key":"2226","name":"District de Lavaux-Oron"},"canton":{"key":"22","code":"VD","name":"Vaud"},"status":"Real"},{"key":"10092153","name":"Chemin des Curnilles","postalCode":"1071","locality":"Chexbres","commune":{"key":"5601","name":"Chexbres","shortName":"Chexbres"},"district":{"key":"2226","name":"District de Lavaux-Oron"},"canton":{"key":"22","code":"VD","name":"Vaud"},"status":"Real"},{"key":"10048082","name":"Chemin des Fosses","postalCode":"1071","locality":"Chexbres","commune":{"key":"5601","name":"Chexbres","shortName":"Chexbres"},"district":{"key":"2226","name":"District de Lavaux-Oron"},"canton":{"key":"22","code":"VD","name":"Vaud"},"status":"Real"},{"key":"10077156","name":"Chemin des Grand'Planches","postalCode":"1071","locality":"Chexbres","commune":{"key":"5601","name":"Chexbres","shortName":"Chexbres"},"district":{"key":"2226","name":"District de Lavaux-Oron"},"canton":{"key":"22","code":"VD","name":"Vaud"},"status":"Real"},{"key":"10102101","name":"Chemin des Pierres Neyres","postalCode":"1071","locality":"Chexbres","commune":{"key":"5601","name":"Chexbres","shortName":"Chexbres"},"district":{"key":"2226","name":"District de Lavaux-Oron"},"canton":{"key":"22","code":"VD","name":"Vaud"},"status":"Real"},{"key":"10035886","name":"Chemin des Rueyres","postalCode":"1071","locality":"Chexbres","commune":{"key":"5601","name":"Chexbres","shortName":"Chexbres"},"district":{"key":"2226","name":"District de Lavaux-Oron"},"canton":{"key":"22","code":"VD","name":"Vaud"},"status":"Real"},{"key":"10040378","name":"Chemin des Rueyres","postalCode":"1071","locality":"Chexbres","commune":{"key":"5601","name":"Chexbres","shortName":"Chexbres"},"district":{"key":"2226","name":"District de Lavaux-Oron"},"canton":{"key":"22","code":"VD","name":"Vaud"},"status":"Real"},{"key":"10045249","name":"Chemin des Tréflons","postalCode":"1071","locality":"Chexbres","commune":{"key":"5601","name":"Chexbres","shortName":"Chexbres"},"district":{"key":"2226","name":"District de Lavaux-Oron"},"canton":{"key":"22","code":"VD","name":"Vaud"},"status":"Real"},{"key":"10140129","name":"Chemin d'Ogoz","postalCode":"1071","locality":"Chexbres","commune":{"key":"5601","name":"Chexbres","shortName":"Chexbres"},"district":{"key":"2226","name":"District de Lavaux-Oron"},"canton":{"key":"22","code":"VD","name":"Vaud"},"status":"Real"},{"key":"10140124","name":"Chemin du Bois-Jaccoud","postalCode":"1071","locality":"Chexbres","commune":{"key":"5601","name":"Chexbres","shortName":"Chexbres"},"district":{"key":"2226","name":"District de Lavaux-Oron"},"canton":{"key":"22","code":"VD","name":"Vaud"},"status":"Real"},{"key":"10093802","name":"Chemin du Champ-Pâquis","postalCode":"1071","locality":"Chexbres","commune":{"key":"5601","name":"Chexbres","shortName":"Chexbres"},"district":{"key":"2226","name":"District de Lavaux-Oron"},"canton":{"key":"22","code":"VD","name":"Vaud"},"status":"Real"},{"key":"10072898","name":"Chemin du Chauderon","postalCode":"1071","locality":"Chexbres","commune":{"key":"5601","name":"Chexbres","shortName":"Chexbres"},"district":{"key":"2226","name":"District de Lavaux-Oron"},"canton":{"key":"22","code":"VD","name":"Vaud"},"status":"Real"},{"key":"10045250","name":"Chemin du Crêt","postalCode":"1071","locality":"Chexbres","commune":{"key":"5601","name":"Chexbres","shortName":"Chexbres"},"district":{"key":"2226","name":"District de Lavaux-Oron"},"canton":{"key":"22","code":"VD","name":"Vaud"},"status":"Real"},{"key":"10045251","name":"Chemin du Daillard","postalCode":"1071","locality":"Chexbres","commune":{"key":"5601","name":"Chexbres","shortName":"Chexbres"},"district":{"key":"2226","name":"District de Lavaux-Oron"},"canton":{"key":"22","code":"VD","name":"Vaud"},"status":"Real"},{"key":"10045252","name":"Chemin du Dard","postalCode":"1071","locality":"Chexbres","commune":{"key":"5601","name":"Chexbres","shortName":"Chexbres"},"district":{"key":"2226","name":"District de Lavaux-Oron"},"canton":{"key":"22","code":"VD","name":"Vaud"},"status":"Real"},{"key":"10093803","name":"Chemin du Frut","postalCode":"1071","locality":"Chexbres","commune":{"key":"5601","name":"Chexbres","shortName":"Chexbres"},"district":{"key":"2226","name":"District de Lavaux-Oron"},"canton":{"key":"22","code":"VD","name":"Vaud"},"status":"Real"},{"key":"10045253","name":"Chemin du Mont","postalCode":"1071","locality":"Chexbres","commune":{"key":"5601","name":"Chexbres","shortName":"Chexbres"},"district":{"key":"2226","name":"District de Lavaux-Oron"},"canton":{"key":"22","code":"VD","name":"Vaud"},"status":"Real"},{"key":"10093807","name":"Chemin du Monteiller","postalCode":"1071","locality":"Chexbres","commune":{"key":"5601","name":"Chexbres","shortName":"Chexbres"},"district":{"key":"2226","name":"District de Lavaux-Oron"},"canton":{"key":"22","code":"VD","name":"Vaud"},"status":"Real"},{"key":"10072899","name":"Chemin du Moulin","postalCode":"1071","locality":"Chexbres","commune":{"key":"5601","name":"Chexbres","shortName":"Chexbres"},"district":{"key":"2226","name":"District de Lavaux-Oron"},"canton":{"key":"22","code":"VD","name":"Vaud"},"status":"Real"},{"key":"10045254","name":"Chemin du Mur-Blanc","postalCode":"1071","locality":"Chexbres","commune":{"key":"5601","name":"Chexbres","shortName":"Chexbres"},"district":{"key":"2226","name":"District de Lavaux-Oron"},"canton":{"key":"22","code":"VD","name":"Vaud"},"status":"Real"},{"key":"10235996","name":"Chemin du Novallet","postalCode":"1071","locality":"Chexbres","commune":{"key":"5601","name":"Chexbres","shortName":"Chexbres"},"district":{"key":"2226","name":"District de Lavaux-Oron"},"canton":{"key":"22","code":"VD","name":"Vaud"},"status":"Real"},{"key":"10194336","name":"Chemin du Préalpina","postalCode":"1071","locality":"Chexbres","commune":{"key":"5601","name":"Chexbres","shortName":"Chexbres"},"district":{"key":"2226","name":"District de Lavaux-Oron"},"canton":{"key":"22","code":"VD","name":"Vaud"},"status":"Real"},{"key":"10073707","name":"Chemin du Rocher","postalCode":"1071","locality":"Chexbres","commune":{"key":"5601","name":"Chexbres","shortName":"Chexbres"},"district":{"key":"2226","name":"District de Lavaux-Oron"},"canton":{"key":"22","code":"VD","name":"Vaud"},"status":"Real"},{"key":"10106970","name":"Chemin du Signal","postalCode":"1071","locality":"Chexbres","commune":{"key":"5601","name":"Chexbres","shortName":"Chexbres"},"district":{"key":"2226","name":"District de Lavaux-Oron"},"canton":{"key":"22","code":"VD","name":"Vaud"},"status":"Real"},{"key":"10190443","name":"Grand'Rue","postalCode":"1071","locality":"Chexbres","commune":{"key":"5601","name":"Chexbres","shortName":"Chexbres"},"district":{"key":"2226","name":"District de Lavaux-Oron"},"canton":{"key":"22","code":"VD","name":"Vaud"},"status":"Real"},{"key":"10176823","name":"Place de la Gare","postalCode":"1071","locality":"Chexbres","commune":{"key":"5601","name":"Chexbres","shortName":"Chexbres"},"district":{"key":"2226","name":"District de Lavaux-Oron"},"canton":{"key":"22","code":"VD","name":"Vaud"},"status":"Real"},{"key":"10045255","name":"Place de l'Eglise","postalCode":"1071","locality":"Chexbres","commune":{"key":"5601","name":"Chexbres","shortName":"Chexbres"},"district":{"key":"2226","name":"District de Lavaux-Oron"},"canton":{"key":"22","code":"VD","name":"Vaud"},"status":"Real"},{"key":"10060087","name":"Place du Nord","postalCode":"1071","locality":"Chexbres","commune":{"key":"5601","name":"Chexbres","shortName":"Chexbres"},"district":{"key":"2226","name":"District de Lavaux-Oron"},"canton":{"key":"22","code":"VD","name":"Vaud"},"status":"Real"},{"key":"10045256","name":"Route de Chardonne","postalCode":"1071","locality":"Chexbres","commune":{"key":"5601","name":"Chexbres","shortName":"Chexbres"},"district":{"key":"2226","name":"District de Lavaux-Oron"},"canton":{"key":"22","code":"VD","name":"Vaud"},"status":"Real"},{"key":"10035887","name":"Route de Chardonne","postalCode":"1071","locality":"Chexbres","commune":{"key":"5601","name":"Chexbres","shortName":"Chexbres"},"district":{"key":"2226","name":"District de Lavaux-Oron"},"canton":{"key":"22","code":"VD","name":"Vaud"},"status":"Real"},{"key":"10093805","name":"Route de la Corniche","postalCode":"1071","locality":"Chexbres","commune":{"key":"5601","name":"Chexbres","shortName":"Chexbres"},"district":{"key":"2226","name":"District de Lavaux-Oron"},"canton":{"key":"22","code":"VD","name":"Vaud"},"status":"Real"},{"key":"10045258","name":"Route des Corges","postalCode":"1071","locality":"Chexbres","commune":{"key":"5601","name":"Chexbres","shortName":"Chexbres"},"district":{"key":"2226","name":"District de Lavaux-Oron"},"canton":{"key":"22","code":"VD","name":"Vaud"},"status":"Real"},{"key":"10116225","name":"Route des Corges","postalCode":"1071","locality":"Chexbres","commune":{"key":"5601","name":"Chexbres","shortName":"Chexbres"},"district":{"key":"2226","name":"District de Lavaux-Oron"},"canton":{"key":"22","code":"VD","name":"Vaud"},"status":"Real"},{"key":"10235997","name":"Route de Suhen","postalCode":"1071","locality":"Chexbres","commune":{"key":"5601","name":"Chexbres","shortName":"Chexbres"},"district":{"key":"2226","name":"District de Lavaux-Oron"},"canton":{"key":"22","code":"VD","name":"Vaud"},"status":"Real"},{"key":"10045257","name":"Route de Vevey","postalCode":"1071","locality":"Chexbres","commune":{"key":"5601","name":"Chexbres","shortName":"Chexbres"},"district":{"key":"2226","name":"District de Lavaux-Oron"},"canton":{"key":"22","code":"VD","name":"Vaud"},"status":"Real"},{"key":"10072901","name":"Route du Genevrex","postalCode":"1071","locality":"Chexbres","commune":{"key":"5601","name":"Chexbres","shortName":"Chexbres"},"district":{"key":"2226","name":"District de Lavaux-Oron"},"canton":{"key":"22","code":"VD","name":"Vaud"},"status":"Real"},{"key":"10045259","name":"Rue du Bourg","postalCode":"1071","locality":"Chexbres","commune":{"key":"5601","name":"Chexbres","shortName":"Chexbres"},"district":{"key":"2226","name":"District de Lavaux-Oron"},"canton":{"key":"22","code":"VD","name":"Vaud"},"status":"Real"},{"key":"10132440","name":"Rue du Bourg-de-Crousaz","postalCode":"1071","locality":"Chexbres","commune":{"key":"5601","name":"Chexbres","shortName":"Chexbres"},"district":{"key":"2226","name":"District de Lavaux-Oron"},"canton":{"key":"22","code":"VD","name":"Vaud"},"status":"Real"},{"key":"10045260","name":"Rue du Bourg-de-Plaît","postalCode":"1071","locality":"Chexbres","commune":{"key":"5601","name":"Chexbres","shortName":"Chexbres"},"district":{"key":"2226","name":"District de Lavaux-Oron"},"canton":{"key":"22","code":"VD","name":"Vaud"},"status":"Real"},{"key":"10045261","name":"Rue du Carroz","postalCode":"1071","locality":"Chexbres","commune":{"key":"5601","name":"Chexbres","shortName":"Chexbres"},"district":{"key":"2226","name":"District de Lavaux-Oron"},"canton":{"key":"22","code":"VD","name":"Vaud"},"status":"Real"},{"key":"10121989","name":"Rue du Cotterd","postalCode":"1071","locality":"Chexbres","commune":{"key":"5601","name":"Chexbres","shortName":"Chexbres"},"district":{"key":"2226","name":"District de Lavaux-Oron"},"canton":{"key":"22","code":"VD","name":"Vaud"},"status":"Real"},{"key":"10072902","name":"Ruelle de Grinaz","postalCode":"1071","locality":"Chexbres","commune":{"key":"5601","name":"Chexbres","shortName":"Chexbres"},"district":{"key":"2226","name":"District de Lavaux-Oron"},"canton":{"key":"22","code":"VD","name":"Vaud"},"status":"Real"},{"key":"10102190","name":"Ruelle de la Mottaz","postalCode":"1071","locality":"Chexbres","commune":{"key":"5601","name":"Chexbres","shortName":"Chexbres"},"district":{"key":"2226","name":"District de Lavaux-Oron"},"canton":{"key":"22","code":"VD","name":"Vaud"},"status":"Real"},{"key":"10093806","name":"Ruelle des Cadoules","postalCode":"1071","locality":"Chexbres","commune":{"key":"5601","name":"Chexbres","shortName":"Chexbres"},"district":{"key":"2226","name":"District de Lavaux-Oron"},"canton":{"key":"22","code":"VD","name":"Vaud"},"status":"Real"},{"key":"10176824","name":"Sentier de Champ-de-Clos","postalCode":"1071","locality":"Chexbres","commune":{"key":"5601","name":"Chexbres","shortName":"Chexbres"},"district":{"key":"2226","name":"District de Lavaux-Oron"},"canton":{"key":"22","code":"VD","name":"Vaud"},"status":"Real"},{"key":"10040379","name":"Sentier de Cremières","postalCode":"1071","locality":"Chexbres","commune":{"key":"5601","name":"Chexbres","shortName":"Chexbres"},"district":{"key":"2226","name":"District de Lavaux-Oron"},"canton":{"key":"22","code":"VD","name":"Vaud"},"status":"Real"},{"key":"10035888","name":"Sur la Fontaine","postalCode":"1071","locality":"Chexbres","commune":{"key":"5601","name":"Chexbres","shortName":"Chexbres"},"district":{"key":"2226","name":"District de Lavaux-Oron"},"canton":{"key":"22","code":"VD","name":"Vaud"},"status":"Real"},]