[{"name":"Alemannenweg","postalCode":"78582","locality":"Balgheim","municipality":{"key":"08327005","name":"Balgheim","type":"Kreisangehörige_Gemeinde"},"district":{"key":"08327","name":"Tuttlingen","type":"Landkreis"},"federalState":{"key":"08","name":"Baden-Württemberg"}},{"name":"Bahnhofstr.","postalCode":"78582","locality":"Balgheim","municipality":{"key":"08327005","name":"Balgheim","type":"Kreisangehörige_Gemeinde"},"district":{"key":"08327","name":"Tuttlingen","type":"Landkreis"},"federalState":{"key":"08","name":"Baden-Württemberg"}},{"name":"Baldenbergstr.","postalCode":"78582","locality":"Balgheim","municipality":{"key":"08327005","name":"Balgheim","type":"Kreisangehörige_Gemeinde"},"district":{"key":"08327","name":"Tuttlingen","type":"Landkreis"},"federalState":{"key":"08","name":"Baden-Württemberg"}},{"name":"Balgheimer Str.","postalCode":"78582","locality":"Balgheim","municipality":{"key":"08327005","name":"Balgheim","type":"Kreisangehörige_Gemeinde"},"district":{"key":"08327","name":"Tuttlingen","type":"Landkreis"},"federalState":{"key":"08","name":"Baden-Württemberg"}},{"name":"Bergstr.","postalCode":"78582","locality":"Balgheim","municipality":{"key":"08327005","name":"Balgheim","type":"Kreisangehörige_Gemeinde"},"district":{"key":"08327","name":"Tuttlingen","type":"Landkreis"},"federalState":{"key":"08","name":"Baden-Württemberg"}},{"name":"Breitensteigäcker","postalCode":"78582","locality":"Balgheim","municipality":{"key":"08327005","name":"Balgheim","type":"Kreisangehörige_Gemeinde"},"district":{"key":"08327","name":"Tuttlingen","type":"Landkreis"},"federalState":{"key":"08","name":"Baden-Württemberg"}},{"name":"Breite Steige","postalCode":"78582","locality":"Balgheim","municipality":{"key":"08327005","name":"Balgheim","type":"Kreisangehörige_Gemeinde"},"district":{"key":"08327","name":"Tuttlingen","type":"Landkreis"},"federalState":{"key":"08","name":"Baden-Württemberg"}},{"name":"Burghaldenweg","postalCode":"78582","locality":"Balgheim","municipality":{"key":"08327005","name":"Balgheim","type":"Kreisangehörige_Gemeinde"},"district":{"key":"08327","name":"Tuttlingen","type":"Landkreis"},"federalState":{"key":"08","name":"Baden-Württemberg"}},{"name":"Burghaldeweg","postalCode":"78582","locality":"Balgheim","municipality":{"key":"08327005","name":"Balgheim","type":"Kreisangehörige_Gemeinde"},"district":{"key":"08327","name":"Tuttlingen","type":"Landkreis"},"federalState":{"key":"08","name":"Baden-Württemberg"}},{"name":"Carl-Benz-Str.","postalCode":"78532","locality":"Tuttlingen","municipality":{"key":"08327050","name":"Tuttlingen, Stadt","type":"Große_Kreisstadt"},"district":{"key":"08327","name":"Tuttlingen","type":"Landkreis"},"federalState":{"key":"08","name":"Baden-Württemberg"}},{"name":"Carl-Zeiss-Str.","postalCode":"78532","locality":"Tuttlingen","municipality":{"key":"08327050","name":"Tuttlingen, Stadt","type":"Große_Kreisstadt"},"district":{"key":"08327","name":"Tuttlingen","type":"Landkreis"},"federalState":{"key":"08","name":"Baden-Württemberg"}},{"name":"Charlottenstr.","postalCode":"78532","locality":"Tuttlingen","municipality":{"key":"08327050","name":"Tuttlingen, Stadt","type":"Große_Kreisstadt"},"district":{"key":"08327","name":"Tuttlingen","type":"Landkreis"},"federalState":{"key":"08","name":"Baden-Württemberg"}},{"name":"Christian-Scheerer-Str.","postalCode":"78532","locality":"Tuttlingen","municipality":{"key":"08327050","name":"Tuttlingen, Stadt","type":"Große_Kreisstadt"},"district":{"key":"08327","name":"Tuttlingen","type":"Landkreis"},"federalState":{"key":"08","name":"Baden-Württemberg"}},{"name":"Christophstr.","postalCode":"78532","locality":"Tuttlingen","municipality":{"key":"08327050","name":"Tuttlingen, Stadt","type":"Große_Kreisstadt"},"district":{"key":"08327","name":"Tuttlingen","type":"Landkreis"},"federalState":{"key":"08","name":"Baden-Württemberg"}},{"name":"Dollenäcker","postalCode":"78582","locality":"Balgheim","municipality":{"key":"08327005","name":"Balgheim","type":"Kreisangehörige_Gemeinde"},"district":{"key":"08327","name":"Tuttlingen","type":"Landkreis"},"federalState":{"key":"08","name":"Baden-Württemberg"}},{"name":"Dorfstr.","postalCode":"78582","locality":"Balgheim","municipality":{"key":"08327005","name":"Balgheim","type":"Kreisangehörige_Gemeinde"},"district":{"key":"08327","name":"Tuttlingen","type":"Landkreis"},"federalState":{"key":"08","name":"Baden-Württemberg"}},{"name":"Dürbheimer Str.","postalCode":"78582","locality":"Balgheim","municipality":{"key":"08327005","name":"Balgheim","type":"Kreisangehörige_Gemeinde"},"district":{"key":"08327","name":"Tuttlingen","type":"Landkreis"},"federalState":{"key":"08","name":"Baden-Württemberg"}},{"name":"Eichhaldeweg","postalCode":"78582","locality":"Balgheim","municipality":{"key":"08327005","name":"Balgheim","type":"Kreisangehörige_Gemeinde"},"district":{"key":"08327","name":"Tuttlingen","type":"Landkreis"},"federalState":{"key":"08","name":"Baden-Württemberg"}},{"name":"Friedhofstr.","postalCode":"78582","locality":"Balgheim","municipality":{"key":"08327005","name":"Balgheim","type":"Kreisangehörige_Gemeinde"},"district":{"key":"08327","name":"Tuttlingen","type":"Landkreis"},"federalState":{"key":"08","name":"Baden-Württemberg"}},{"name":"Gartenstr.","postalCode":"78582","locality":"Balgheim","municipality":{"key":"08327005","name":"Balgheim","type":"Kreisangehörige_Gemeinde"},"district":{"key":"08327","name":"Tuttlingen","type":"Landkreis"},"federalState":{"key":"08","name":"Baden-Württemberg"}},{"name":"Geigenhalsweg","postalCode":"78582","locality":"Balgheim","municipality":{"key":"08327005","name":"Balgheim","type":"Kreisangehörige_Gemeinde"},"district":{"key":"08327","name":"Tuttlingen","type":"Landkreis"},"federalState":{"key":"08","name":"Baden-Württemberg"}},{"name":"Glemsweg","postalCode":"78582","locality":"Balgheim","municipality":{"key":"08327005","name":"Balgheim","type":"Kreisangehörige_Gemeinde"},"district":{"key":"08327","name":"Tuttlingen","type":"Landkreis"},"federalState":{"key":"08","name":"Baden-Württemberg"}},{"name":"Glockenbühlweg","postalCode":"78582","locality":"Balgheim","municipality":{"key":"08327005","name":"Balgheim","type":"Kreisangehörige_Gemeinde"},"district":{"key":"08327","name":"Tuttlingen","type":"Landkreis"},"federalState":{"key":"08","name":"Baden-Württemberg"}},{"name":"Hagenäcker","postalCode":"78582","locality":"Balgheim","municipality":{"key":"08327005","name":"Balgheim","type":"Kreisangehörige_Gemeinde"},"district":{"key":"08327","name":"Tuttlingen","type":"Landkreis"},"federalState":{"key":"08","name":"Baden-Württemberg"}},{"name":"Hauptstr.","postalCode":"78582","locality":"Balgheim","municipality":{"key":"08327005","name":"Balgheim","type":"Kreisangehörige_Gemeinde"},"district":{"key":"08327","name":"Tuttlingen","type":"Landkreis"},"federalState":{"key":"08","name":"Baden-Württemberg"}},{"name":"Himmelberg","postalCode":"78582","locality":"Balgheim","municipality":{"key":"08327005","name":"Balgheim","type":"Kreisangehörige_Gemeinde"},"district":{"key":"08327","name":"Tuttlingen","type":"Landkreis"},"federalState":{"key":"08","name":"Baden-Württemberg"}},{"name":"Hinter der Bindt","postalCode":"78582","locality":"Balgheim","municipality":{"key":"08327005","name":"Balgheim","type":"Kreisangehörige_Gemeinde"},"district":{"key":"08327","name":"Tuttlingen","type":"Landkreis"},"federalState":{"key":"08","name":"Baden-Württemberg"}},{"name":"Hochstattweg","postalCode":"78582","locality":"Balgheim","municipality":{"key":"08327005","name":"Balgheim","type":"Kreisangehörige_Gemeinde"},"district":{"key":"08327","name":"Tuttlingen","type":"Landkreis"},"federalState":{"key":"08","name":"Baden-Württemberg"}},{"name":"Höhenweg","postalCode":"78582","locality":"Balgheim","municipality":{"key":"08327005","name":"Balgheim","type":"Kreisangehörige_Gemeinde"},"district":{"key":"08327","name":"Tuttlingen","type":"Landkreis"},"federalState":{"key":"08","name":"Baden-Württemberg"}},{"name":"Im Bildstöckle","postalCode":"78582","locality":"Balgheim","municipality":{"key":"08327005","name":"Balgheim","type":"Kreisangehörige_Gemeinde"},"district":{"key":"08327","name":"Tuttlingen","type":"Landkreis"},"federalState":{"key":"08","name":"Baden-Württemberg"}},{"name":"Jägerbuchenweg","postalCode":"78532","locality":"Tuttlingen","municipality":{"key":"08327050","name":"Tuttlingen, Stadt","type":"Große_Kreisstadt"},"district":{"key":"08327","name":"Tuttlingen","type":"Landkreis"},"federalState":{"key":"08","name":"Baden-Württemberg"}},{"name":"Jägerhofstr.","postalCode":"78532","locality":"Tuttlingen","municipality":{"key":"08327050","name":"Tuttlingen, Stadt","type":"Große_Kreisstadt"},"district":{"key":"08327","name":"Tuttlingen","type":"Landkreis"},"federalState":{"key":"08","name":"Baden-Württemberg"}},{"name":"Jägerstr.","postalCode":"78532","locality":"Tuttlingen","municipality":{"key":"08327050","name":"Tuttlingen, Stadt","type":"Große_Kreisstadt"},"district":{"key":"08327","name":"Tuttlingen","type":"Landkreis"},"federalState":{"key":"08","name":"Baden-Württemberg"}},{"name":"Jahnstr.","postalCode":"78532","locality":"Tuttlingen","municipality":{"key":"08327050","name":"Tuttlingen, Stadt","type":"Große_Kreisstadt"},"district":{"key":"08327","name":"Tuttlingen","type":"Landkreis"},"federalState":{"key":"08","name":"Baden-Württemberg"}},{"name":"Jakobstr.","postalCode":"78532","locality":"Tuttlingen","municipality":{"key":"08327050","name":"Tuttlingen, Stadt","type":"Große_Kreisstadt"},"district":{"key":"08327","name":"Tuttlingen","type":"Landkreis"},"federalState":{"key":"08","name":"Baden-Württemberg"}},{"name":"Jetterstr.","postalCode":"78532","locality":"Tuttlingen","municipality":{"key":"08327050","name":"Tuttlingen, Stadt","type":"Große_Kreisstadt"},"district":{"key":"08327","name":"Tuttlingen","type":"Landkreis"},"federalState":{"key":"08","name":"Baden-Württemberg"}},{"name":"Johann-Sebastian-Bach-Str.","postalCode":"78532","locality":"Tuttlingen","municipality":{"key":"08327050","name":"Tuttlingen, Stadt","type":"Große_Kreisstadt"},"district":{"key":"08327","name":"Tuttlingen","type":"Landkreis"},"federalState":{"key":"08","name":"Baden-Württemberg"}},{"name":"Joseph-Haas-Weg","postalCode":"78532","locality":"Tuttlingen","municipality":{"key":"08327050","name":"Tuttlingen, Stadt","type":"Große_Kreisstadt"},"district":{"key":"08327","name":"Tuttlingen","type":"Landkreis"},"federalState":{"key":"08","name":"Baden-Württemberg"}},{"name":"Joseph-Haydn-Weg","postalCode":"78532","locality":"Tuttlingen","municipality":{"key":"08327050","name":"Tuttlingen, Stadt","type":"Große_Kreisstadt"},"district":{"key":"08327","name":"Tuttlingen","type":"Landkreis"},"federalState":{"key":"08","name":"Baden-Württemberg"}},{"name":"Julius-Fröhlich-Platz","postalCode":"78532","locality":"Tuttlingen","municipality":{"key":"08327050","name":"Tuttlingen, Stadt","type":"Große_Kreisstadt"},"district":{"key":"08327","name":"Tuttlingen","type":"Landkreis"},"federalState":{"key":"08","name":"Baden-Württemberg"}},{"name":"Junkersstr.","postalCode":"78532","locality":"Tuttlingen","municipality":{"key":"08327050","name":"Tuttlingen, Stadt","type":"Große_Kreisstadt"},"district":{"key":"08327","name":"Tuttlingen","type":"Landkreis"},"federalState":{"key":"08","name":"Baden-Württemberg"}},{"name":"Kehlenweg","postalCode":"78582","locality":"Balgheim","municipality":{"key":"08327005","name":"Balgheim","type":"Kreisangehörige_Gemeinde"},"district":{"key":"08327","name":"Tuttlingen","type":"Landkreis"},"federalState":{"key":"08","name":"Baden-Württemberg"}},{"name":"Keltenstr.","postalCode":"78582","locality":"Balgheim","municipality":{"key":"08327005","name":"Balgheim","type":"Kreisangehörige_Gemeinde"},"district":{"key":"08327","name":"Tuttlingen","type":"Landkreis"},"federalState":{"key":"08","name":"Baden-Württemberg"}},{"name":"Kiesgrubeweg","postalCode":"78582","locality":"Balgheim","municipality":{"key":"08327005","name":"Balgheim","type":"Kreisangehörige_Gemeinde"},"district":{"key":"08327","name":"Tuttlingen","type":"Landkreis"},"federalState":{"key":"08","name":"Baden-Württemberg"}},{"name":"Klippeneckweg","postalCode":"78582","locality":"Balgheim","municipality":{"key":"08327005","name":"Balgheim","type":"Kreisangehörige_Gemeinde"},"district":{"key":"08327","name":"Tuttlingen","type":"Landkreis"},"federalState":{"key":"08","name":"Baden-Württemberg"}},{"name":"Kreuzlebrunnenweg","postalCode":"78582","locality":"Balgheim","municipality":{"key":"08327005","name":"Balgheim","type":"Kreisangehörige_Gemeinde"},"district":{"key":"08327","name":"Tuttlingen","type":"Landkreis"},"federalState":{"key":"08","name":"Baden-Württemberg"}},{"name":"Lembergweg","postalCode":"78532","locality":"Tuttlingen","municipality":{"key":"08327050","name":"Tuttlingen, Stadt","type":"Große_Kreisstadt"},"district":{"key":"08327","name":"Tuttlingen","type":"Landkreis"},"federalState":{"key":"08","name":"Baden-Württemberg"}},{"name":"Lenaustr.","postalCode":"78532","locality":"Tuttlingen","municipality":{"key":"08327050","name":"Tuttlingen, Stadt","type":"Große_Kreisstadt"},"district":{"key":"08327","name":"Tuttlingen","type":"Landkreis"},"federalState":{"key":"08","name":"Baden-Württemberg"}},{"name":"Lessingstr.","postalCode":"78532","locality":"Tuttlingen","municipality":{"key":"08327050","name":"Tuttlingen, Stadt","type":"Große_Kreisstadt"},"district":{"key":"08327","name":"Tuttlingen","type":"Landkreis"},"federalState":{"key":"08","name":"Baden-Württemberg"}},{"name":"Leutenberghangweg","postalCode":"78532","locality":"Tuttlingen","municipality":{"key":"08327050","name":"Tuttlingen, Stadt","type":"Große_Kreisstadt"},"district":{"key":"08327","name":"Tuttlingen","type":"Landkreis"},"federalState":{"key":"08","name":"Baden-Württemberg"}},{"name":"Leutenbergstr.","postalCode":"78532","locality":"Tuttlingen","municipality":{"key":"08327050","name":"Tuttlingen, Stadt","type":"Große_Kreisstadt"},"district":{"key":"08327","name":"Tuttlingen","type":"Landkreis"},"federalState":{"key":"08","name":"Baden-Württemberg"}},{"name":"Lilienthalweg","postalCode":"78532","locality":"Tuttlingen","municipality":{"key":"08327050","name":"Tuttlingen, Stadt","type":"Große_Kreisstadt"},"district":{"key":"08327","name":"Tuttlingen","type":"Landkreis"},"federalState":{"key":"08","name":"Baden-Württemberg"}},{"name":"Lindenstr.","postalCode":"78532","locality":"Tuttlingen","municipality":{"key":"08327050","name":"Tuttlingen, Stadt","type":"Große_Kreisstadt"},"district":{"key":"08327","name":"Tuttlingen","type":"Landkreis"},"federalState":{"key":"08","name":"Baden-Württemberg"}},{"name":"Liptinger Str.","postalCode":"78532","locality":"Tuttlingen","municipality":{"key":"08327050","name":"Tuttlingen, Stadt","type":"Große_Kreisstadt"},"district":{"key":"08327","name":"Tuttlingen","type":"Landkreis"},"federalState":{"key":"08","name":"Baden-Württemberg"}},{"name":"Lohmehlenring","postalCode":"78532","locality":"Tuttlingen","municipality":{"key":"08327050","name":"Tuttlingen, Stadt","type":"Große_Kreisstadt"},"district":{"key":"08327","name":"Tuttlingen","type":"Landkreis"},"federalState":{"key":"08","name":"Baden-Württemberg"}},{"name":"Ludwig-Finckh-Weg","postalCode":"78532","locality":"Tuttlingen","municipality":{"key":"08327050","name":"Tuttlingen, Stadt","type":"Große_Kreisstadt"},"district":{"key":"08327","name":"Tuttlingen","type":"Landkreis"},"federalState":{"key":"08","name":"Baden-Württemberg"}},{"name":"Ludwigstal","postalCode":"78532","locality":"Tuttlingen","municipality":{"key":"08327050","name":"Tuttlingen, Stadt","type":"Große_Kreisstadt"},"district":{"key":"08327","name":"Tuttlingen","type":"Landkreis"},"federalState":{"key":"08","name":"Baden-Württemberg"}},{"name":"Ludwigstaler Str.","postalCode":"78532","locality":"Tuttlingen","municipality":{"key":"08327050","name":"Tuttlingen, Stadt","type":"Große_Kreisstadt"},"district":{"key":"08327","name":"Tuttlingen","type":"Landkreis"},"federalState":{"key":"08","name":"Baden-Württemberg"}},{"name":"Luginsfeldweg","postalCode":"78532","locality":"Tuttlingen","municipality":{"key":"08327050","name":"Tuttlingen, Stadt","type":"Große_Kreisstadt"},"district":{"key":"08327","name":"Tuttlingen","type":"Landkreis"},"federalState":{"key":"08","name":"Baden-Württemberg"}},{"name":"Lupfenstr.","postalCode":"78532","locality":"Tuttlingen","municipality":{"key":"08327050","name":"Tuttlingen, Stadt","type":"Große_Kreisstadt"},"district":{"key":"08327","name":"Tuttlingen","type":"Landkreis"},"federalState":{"key":"08","name":"Baden-Württemberg"}},{"name":"Mahlstetter Weg","postalCode":"78582","locality":"Balgheim","municipality":{"key":"08327005","name":"Balgheim","type":"Kreisangehörige_Gemeinde"},"district":{"key":"08327","name":"Tuttlingen","type":"Landkreis"},"federalState":{"key":"08","name":"Baden-Württemberg"}},{"name":"Mühlstr.","postalCode":"78582","locality":"Balgheim","municipality":{"key":"08327005","name":"Balgheim","type":"Kreisangehörige_Gemeinde"},"district":{"key":"08327","name":"Tuttlingen","type":"Landkreis"},"federalState":{"key":"08","name":"Baden-Württemberg"}},{"name":"Nelkenstr.","postalCode":"78532","locality":"Tuttlingen","municipality":{"key":"08327050","name":"Tuttlingen, Stadt","type":"Große_Kreisstadt"},"district":{"key":"08327","name":"Tuttlingen","type":"Landkreis"},"federalState":{"key":"08","name":"Baden-Württemberg"}},{"name":"Nendinger Allee","postalCode":"78532","locality":"Tuttlingen","municipality":{"key":"08327050","name":"Tuttlingen, Stadt","type":"Große_Kreisstadt"},"district":{"key":"08327","name":"Tuttlingen","type":"Landkreis"},"federalState":{"key":"08","name":"Baden-Württemberg"}},{"name":"Neuer Wurzenweg","postalCode":"78532","locality":"Tuttlingen","municipality":{"key":"08327050","name":"Tuttlingen, Stadt","type":"Große_Kreisstadt"},"district":{"key":"08327","name":"Tuttlingen","type":"Landkreis"},"federalState":{"key":"08","name":"Baden-Württemberg"}},{"name":"Neuhauser Str.","postalCode":"78532","locality":"Tuttlingen","municipality":{"key":"08327050","name":"Tuttlingen, Stadt","type":"Große_Kreisstadt"},"district":{"key":"08327","name":"Tuttlingen","type":"Landkreis"},"federalState":{"key":"08","name":"Baden-Württemberg"}},{"name":"Nonnenburgstr.","postalCode":"78532","locality":"Tuttlingen","municipality":{"key":"08327050","name":"Tuttlingen, Stadt","type":"Große_Kreisstadt"},"district":{"key":"08327","name":"Tuttlingen","type":"Landkreis"},"federalState":{"key":"08","name":"Baden-Württemberg"}},{"name":"Ob der Brücke","postalCode":"78532","locality":"Tuttlingen","municipality":{"key":"08327050","name":"Tuttlingen, Stadt","type":"Große_Kreisstadt"},"district":{"key":"08327","name":"Tuttlingen","type":"Landkreis"},"federalState":{"key":"08","name":"Baden-Württemberg"}},{"name":"Oberamteistr.","postalCode":"78532","locality":"Tuttlingen","municipality":{"key":"08327050","name":"Tuttlingen, Stadt","type":"Große_Kreisstadt"},"district":{"key":"08327","name":"Tuttlingen","type":"Landkreis"},"federalState":{"key":"08","name":"Baden-Württemberg"}},{"name":"Obere Gasse","postalCode":"78532","locality":"Tuttlingen","municipality":{"key":"08327050","name":"Tuttlingen, Stadt","type":"Große_Kreisstadt"},"district":{"key":"08327","name":"Tuttlingen","type":"Landkreis"},"federalState":{"key":"08","name":"Baden-Württemberg"}},{"name":"Obere Hauptstr.","postalCode":"78532","locality":"Tuttlingen","municipality":{"key":"08327050","name":"Tuttlingen, Stadt","type":"Große_Kreisstadt"},"district":{"key":"08327","name":"Tuttlingen","type":"Landkreis"},"federalState":{"key":"08","name":"Baden-Württemberg"}},{"name":"Oberer Bann","postalCode":"78532","locality":"Tuttlingen","municipality":{"key":"08327050","name":"Tuttlingen, Stadt","type":"Große_Kreisstadt"},"district":{"key":"08327","name":"Tuttlingen","type":"Landkreis"},"federalState":{"key":"08","name":"Baden-Württemberg"}},{"name":"Oberer Hangweg","postalCode":"78532","locality":"Tuttlingen","municipality":{"key":"08327050","name":"Tuttlingen, Stadt","type":"Große_Kreisstadt"},"district":{"key":"08327","name":"Tuttlingen","type":"Landkreis"},"federalState":{"key":"08","name":"Baden-Württemberg"}},{"name":"Oberer Klammenweg","postalCode":"78532","locality":"Tuttlingen","municipality":{"key":"08327050","name":"Tuttlingen, Stadt","type":"Große_Kreisstadt"},"district":{"key":"08327","name":"Tuttlingen","type":"Landkreis"},"federalState":{"key":"08","name":"Baden-Württemberg"}},{"name":"Obere Vorstadt","postalCode":"78532","locality":"Tuttlingen","municipality":{"key":"08327050","name":"Tuttlingen, Stadt","type":"Große_Kreisstadt"},"district":{"key":"08327","name":"Tuttlingen","type":"Landkreis"},"federalState":{"key":"08","name":"Baden-Württemberg"}},{"name":"Ob.Stichweg","postalCode":"78532","locality":"Tuttlingen","municipality":{"key":"08327050","name":"Tuttlingen, Stadt","type":"Große_Kreisstadt"},"district":{"key":"08327","name":"Tuttlingen","type":"Landkreis"},"federalState":{"key":"08","name":"Baden-Württemberg"}},{"name":"Olgastr.","postalCode":"78532","locality":"Tuttlingen","municipality":{"key":"08327050","name":"Tuttlingen, Stadt","type":"Große_Kreisstadt"},"district":{"key":"08327","name":"Tuttlingen","type":"Landkreis"},"federalState":{"key":"08","name":"Baden-Württemberg"}},{"name":"Ottilienstr.","postalCode":"78532","locality":"Tuttlingen","municipality":{"key":"08327050","name":"Tuttlingen, Stadt","type":"Große_Kreisstadt"},"district":{"key":"08327","name":"Tuttlingen","type":"Landkreis"},"federalState":{"key":"08","name":"Baden-Württemberg"}},{"name":"Otto-Dix-Str.","postalCode":"78532","locality":"Tuttlingen","municipality":{"key":"08327050","name":"Tuttlingen, Stadt","type":"Große_Kreisstadt"},"district":{"key":"08327","name":"Tuttlingen","type":"Landkreis"},"federalState":{"key":"08","name":"Baden-Württemberg"}},{"name":"Primstr.","postalCode":"78582","locality":"Balgheim","municipality":{"key":"08327005","name":"Balgheim","type":"Kreisangehörige_Gemeinde"},"district":{"key":"08327","name":"Tuttlingen","type":"Landkreis"},"federalState":{"key":"08","name":"Baden-Württemberg"}},{"name":"Querstr.","postalCode":"78532","locality":"Tuttlingen","municipality":{"key":"08327050","name":"Tuttlingen, Stadt","type":"Große_Kreisstadt"},"district":{"key":"08327","name":"Tuttlingen","type":"Landkreis"},"federalState":{"key":"08","name":"Baden-Württemberg"}},{"name":"Rappenhaldeweg","postalCode":"78582","locality":"Balgheim","municipality":{"key":"08327005","name":"Balgheim","type":"Kreisangehörige_Gemeinde"},"district":{"key":"08327","name":"Tuttlingen","type":"Landkreis"},"federalState":{"key":"08","name":"Baden-Württemberg"}},{"name":"Römerweg","postalCode":"78582","locality":"Balgheim","municipality":{"key":"08327005","name":"Balgheim","type":"Kreisangehörige_Gemeinde"},"district":{"key":"08327","name":"Tuttlingen","type":"Landkreis"},"federalState":{"key":"08","name":"Baden-Württemberg"}},{"name":"Schillerstr.","postalCode":"78582","locality":"Balgheim","municipality":{"key":"08327005","name":"Balgheim","type":"Kreisangehörige_Gemeinde"},"district":{"key":"08327","name":"Tuttlingen","type":"Landkreis"},"federalState":{"key":"08","name":"Baden-Württemberg"}},{"name":"Schloßäckerweg","postalCode":"78582","locality":"Balgheim","municipality":{"key":"08327005","name":"Balgheim","type":"Kreisangehörige_Gemeinde"},"district":{"key":"08327","name":"Tuttlingen","type":"Landkreis"},"federalState":{"key":"08","name":"Baden-Württemberg"}},{"name":"Schulstr.","postalCode":"78582","locality":"Balgheim","municipality":{"key":"08327005","name":"Balgheim","type":"Kreisangehörige_Gemeinde"},"district":{"key":"08327","name":"Tuttlingen","type":"Landkreis"},"federalState":{"key":"08","name":"Baden-Württemberg"}},{"name":"Schwärzenweg","postalCode":"78582","locality":"Balgheim","municipality":{"key":"08327005","name":"Balgheim","type":"Kreisangehörige_Gemeinde"},"district":{"key":"08327","name":"Tuttlingen","type":"Landkreis"},"federalState":{"key":"08","name":"Baden-Württemberg"}},{"name":"Sebastiansweg","postalCode":"78582","locality":"Balgheim","municipality":{"key":"08327005","name":"Balgheim","type":"Kreisangehörige_Gemeinde"},"district":{"key":"08327","name":"Tuttlingen","type":"Landkreis"},"federalState":{"key":"08","name":"Baden-Württemberg"}},{"name":"Spaichinger Str.","postalCode":"78582","locality":"Balgheim","municipality":{"key":"08327005","name":"Balgheim","type":"Kreisangehörige_Gemeinde"},"district":{"key":"08327","name":"Tuttlingen","type":"Landkreis"},"federalState":{"key":"08","name":"Baden-Württemberg"}},{"name":"Steigäcker","postalCode":"78582","locality":"Balgheim","municipality":{"key":"08327005","name":"Balgheim","type":"Kreisangehörige_Gemeinde"},"district":{"key":"08327","name":"Tuttlingen","type":"Landkreis"},"federalState":{"key":"08","name":"Baden-Württemberg"}},{"name":"Talstr.","postalCode":"78582","locality":"Balgheim","municipality":{"key":"08327005","name":"Balgheim","type":"Kreisangehörige_Gemeinde"},"district":{"key":"08327","name":"Tuttlingen","type":"Landkreis"},"federalState":{"key":"08","name":"Baden-Württemberg"}},{"name":"Tuttlinger Str.","postalCode":"78582","locality":"Balgheim","municipality":{"key":"08327005","name":"Balgheim","type":"Kreisangehörige_Gemeinde"},"district":{"key":"08327","name":"Tuttlingen","type":"Landkreis"},"federalState":{"key":"08","name":"Baden-Württemberg"}},{"name":"Uhlandstr.","postalCode":"78582","locality":"Balgheim","municipality":{"key":"08327005","name":"Balgheim","type":"Kreisangehörige_Gemeinde"},"district":{"key":"08327","name":"Tuttlingen","type":"Landkreis"},"federalState":{"key":"08","name":"Baden-Württemberg"}},{"name":"Unter dem Weißen","postalCode":"78582","locality":"Balgheim","municipality":{"key":"08327005","name":"Balgheim","type":"Kreisangehörige_Gemeinde"},"district":{"key":"08327","name":"Tuttlingen","type":"Landkreis"},"federalState":{"key":"08","name":"Baden-Württemberg"}},{"name":"Vogelsangweg","postalCode":"78532","locality":"Tuttlingen","municipality":{"key":"08327050","name":"Tuttlingen, Stadt","type":"Große_Kreisstadt"},"district":{"key":"08327","name":"Tuttlingen","type":"Landkreis"},"federalState":{"key":"08","name":"Baden-Württemberg"}},{"name":"Vogt's Mistweg","postalCode":"78532","locality":"Tuttlingen","municipality":{"key":"08327050","name":"Tuttlingen, Stadt","type":"Große_Kreisstadt"},"district":{"key":"08327","name":"Tuttlingen","type":"Landkreis"},"federalState":{"key":"08","name":"Baden-Württemberg"}},{"name":"Wiesleweg","postalCode":"78582","locality":"Balgheim","municipality":{"key":"08327005","name":"Balgheim","type":"Kreisangehörige_Gemeinde"},"district":{"key":"08327","name":"Tuttlingen","type":"Landkreis"},"federalState":{"key":"08","name":"Baden-Württemberg"}},{"name":"Zelterweg","postalCode":"78532","locality":"Tuttlingen","municipality":{"key":"08327050","name":"Tuttlingen, Stadt","type":"Große_Kreisstadt"},"district":{"key":"08327","name":"Tuttlingen","type":"Landkreis"},"federalState":{"key":"08","name":"Baden-Württemberg"}},{"name":"Zeppelinstr.","postalCode":"78532","locality":"Tuttlingen","municipality":{"key":"08327050","name":"Tuttlingen, Stadt","type":"Große_Kreisstadt"},"district":{"key":"08327","name":"Tuttlingen","type":"Landkreis"},"federalState":{"key":"08","name":"Baden-Württemberg"}},{"name":"Zeughausstr.","postalCode":"78532","locality":"Tuttlingen","municipality":{"key":"08327050","name":"Tuttlingen, Stadt","type":"Große_Kreisstadt"},"district":{"key":"08327","name":"Tuttlingen","type":"Landkreis"},"federalState":{"key":"08","name":"Baden-Württemberg"}},{"name":"Ziegeleiweg","postalCode":"78532","locality":"Tuttlingen","municipality":{"key":"08327050","name":"Tuttlingen, Stadt","type":"Große_Kreisstadt"},"district":{"key":"08327","name":"Tuttlingen","type":"Landkreis"},"federalState":{"key":"08","name":"Baden-Württemberg"}},{"name":"Ziegelweg","postalCode":"78532","locality":"Tuttlingen","municipality":{"key":"08327050","name":"Tuttlingen, Stadt","type":"Große_Kreisstadt"},"district":{"key":"08327","name":"Tuttlingen","type":"Landkreis"},"federalState":{"key":"08","name":"Baden-Württemberg"}},{"name":"Zirkelweg","postalCode":"78532","locality":"Tuttlingen","municipality":{"key":"08327050","name":"Tuttlingen, Stadt","type":"Große_Kreisstadt"},"district":{"key":"08327","name":"Tuttlingen","type":"Landkreis"},"federalState":{"key":"08","name":"Baden-Württemberg"}},{"name":"Zollernstr.","postalCode":"78532","locality":"Tuttlingen","municipality":{"key":"08327050","name":"Tuttlingen, Stadt","type":"Große_Kreisstadt"},"district":{"key":"08327","name":"Tuttlingen","type":"Landkreis"},"federalState":{"key":"08","name":"Baden-Württemberg"}},{"name":"Zur Widum","postalCode":"78532","locality":"Tuttlingen","municipality":{"key":"08327050","name":"Tuttlingen, Stadt","type":"Große_Kreisstadt"},"district":{"key":"08327","name":"Tuttlingen","type":"Landkreis"},"federalState":{"key":"08","name":"Baden-Württemberg"}},]