[{"name":"Alte Dorfstr.","postalCode":"21379","locality":"Rullstorf","municipality":{"key":"03355032","name":"Rullstorf","type":"Kreisangehörige_Gemeinde"},"district":{"key":"03355","name":"Lüneburg","type":"Landkreis"},"federalState":{"key":"03","name":"Niedersachsen"}},{"name":"Am Berge","postalCode":"21379","locality":"Rullstorf","municipality":{"key":"03355032","name":"Rullstorf","type":"Kreisangehörige_Gemeinde"},"district":{"key":"03355","name":"Lüneburg","type":"Landkreis"},"federalState":{"key":"03","name":"Niedersachsen"}},{"name":"Am Buchenholze","postalCode":"21379","locality":"Rullstorf","municipality":{"key":"03355032","name":"Rullstorf","type":"Kreisangehörige_Gemeinde"},"district":{"key":"03355","name":"Lüneburg","type":"Landkreis"},"federalState":{"key":"03","name":"Niedersachsen"}},{"name":"Am Hang","postalCode":"21379","locality":"Rullstorf","municipality":{"key":"03355032","name":"Rullstorf","type":"Kreisangehörige_Gemeinde"},"district":{"key":"03355","name":"Lüneburg","type":"Landkreis"},"federalState":{"key":"03","name":"Niedersachsen"}},{"name":"Am Kirchwege","postalCode":"21379","locality":"Rullstorf","municipality":{"key":"03355032","name":"Rullstorf","type":"Kreisangehörige_Gemeinde"},"district":{"key":"03355","name":"Lüneburg","type":"Landkreis"},"federalState":{"key":"03","name":"Niedersachsen"}},{"name":"Am Kronsberg","postalCode":"21379","locality":"Rullstorf","municipality":{"key":"03355032","name":"Rullstorf","type":"Kreisangehörige_Gemeinde"},"district":{"key":"03355","name":"Lüneburg","type":"Landkreis"},"federalState":{"key":"03","name":"Niedersachsen"}},{"name":"Am Neetzekanal","postalCode":"21379","locality":"Rullstorf","municipality":{"key":"03355032","name":"Rullstorf","type":"Kreisangehörige_Gemeinde"},"district":{"key":"03355","name":"Lüneburg","type":"Landkreis"},"federalState":{"key":"03","name":"Niedersachsen"}},{"name":"Am Osterberg","postalCode":"21379","locality":"Rullstorf","municipality":{"key":"03355032","name":"Rullstorf","type":"Kreisangehörige_Gemeinde"},"district":{"key":"03355","name":"Lüneburg","type":"Landkreis"},"federalState":{"key":"03","name":"Niedersachsen"}},{"name":"Am Sod","postalCode":"21379","locality":"Rullstorf","municipality":{"key":"03355032","name":"Rullstorf","type":"Kreisangehörige_Gemeinde"},"district":{"key":"03355","name":"Lüneburg","type":"Landkreis"},"federalState":{"key":"03","name":"Niedersachsen"}},{"name":"Am Steinberg","postalCode":"21379","locality":"Rullstorf","municipality":{"key":"03355032","name":"Rullstorf","type":"Kreisangehörige_Gemeinde"},"district":{"key":"03355","name":"Lüneburg","type":"Landkreis"},"federalState":{"key":"03","name":"Niedersachsen"}},{"name":"Am Walde","postalCode":"21379","locality":"Rullstorf","municipality":{"key":"03355032","name":"Rullstorf","type":"Kreisangehörige_Gemeinde"},"district":{"key":"03355","name":"Lüneburg","type":"Landkreis"},"federalState":{"key":"03","name":"Niedersachsen"}},{"name":"An der Bahn","postalCode":"21379","locality":"Rullstorf","municipality":{"key":"03355032","name":"Rullstorf","type":"Kreisangehörige_Gemeinde"},"district":{"key":"03355","name":"Lüneburg","type":"Landkreis"},"federalState":{"key":"03","name":"Niedersachsen"}},{"name":"An der Lust","postalCode":"21379","locality":"Rullstorf","municipality":{"key":"03355032","name":"Rullstorf","type":"Kreisangehörige_Gemeinde"},"district":{"key":"03355","name":"Lüneburg","type":"Landkreis"},"federalState":{"key":"03","name":"Niedersachsen"}},{"name":"Bäckerstr.","postalCode":"21379","locality":"Rullstorf","municipality":{"key":"03355032","name":"Rullstorf","type":"Kreisangehörige_Gemeinde"},"district":{"key":"03355","name":"Lüneburg","type":"Landkreis"},"federalState":{"key":"03","name":"Niedersachsen"}},{"name":"Bahnhofstr.","postalCode":"21379","locality":"Rullstorf","municipality":{"key":"03355032","name":"Rullstorf","type":"Kreisangehörige_Gemeinde"},"district":{"key":"03355","name":"Lüneburg","type":"Landkreis"},"federalState":{"key":"03","name":"Niedersachsen"}},{"name":"Bockelkathener Str.","postalCode":"21379","locality":"Rullstorf","municipality":{"key":"03355032","name":"Rullstorf","type":"Kreisangehörige_Gemeinde"},"district":{"key":"03355","name":"Lüneburg","type":"Landkreis"},"federalState":{"key":"03","name":"Niedersachsen"}},{"name":"Boltersener Str.","postalCode":"21379","locality":"Rullstorf","municipality":{"key":"03355032","name":"Rullstorf","type":"Kreisangehörige_Gemeinde"},"district":{"key":"03355","name":"Lüneburg","type":"Landkreis"},"federalState":{"key":"03","name":"Niedersachsen"}},{"name":"Boltersener Weg","postalCode":"21379","locality":"Rullstorf","municipality":{"key":"03355032","name":"Rullstorf","type":"Kreisangehörige_Gemeinde"},"district":{"key":"03355","name":"Lüneburg","type":"Landkreis"},"federalState":{"key":"03","name":"Niedersachsen"}},{"name":"Bolterser Str.","postalCode":"21379","locality":"Rullstorf","municipality":{"key":"03355032","name":"Rullstorf","type":"Kreisangehörige_Gemeinde"},"district":{"key":"03355","name":"Lüneburg","type":"Landkreis"},"federalState":{"key":"03","name":"Niedersachsen"}},{"name":"Bruchweg","postalCode":"21379","locality":"Rullstorf","municipality":{"key":"03355032","name":"Rullstorf","type":"Kreisangehörige_Gemeinde"},"district":{"key":"03355","name":"Lüneburg","type":"Landkreis"},"federalState":{"key":"03","name":"Niedersachsen"}},{"name":"Buchenweg","postalCode":"21379","locality":"Rullstorf","municipality":{"key":"03355032","name":"Rullstorf","type":"Kreisangehörige_Gemeinde"},"district":{"key":"03355","name":"Lüneburg","type":"Landkreis"},"federalState":{"key":"03","name":"Niedersachsen"}},{"name":"Carl-Friedrich-Goerdeler-Str.","postalCode":"21337","locality":"Lüneburg","municipality":{"key":"03355022","name":"Lüneburg, Hansestadt","type":"Stadt"},"district":{"key":"03355","name":"Lüneburg","type":"Landkreis"},"federalState":{"key":"03","name":"Niedersachsen"}},{"name":"Carl-Gottlieb-Scharff-Str.","postalCode":"21337","locality":"Lüneburg","municipality":{"key":"03355022","name":"Lüneburg, Hansestadt","type":"Stadt"},"district":{"key":"03355","name":"Lüneburg","type":"Landkreis"},"federalState":{"key":"03","name":"Niedersachsen"}},{"name":"Carl-von-Ossietzky-Str.","postalCode":"21335","locality":"Lüneburg","municipality":{"key":"03355022","name":"Lüneburg, Hansestadt","type":"Stadt"},"district":{"key":"03355","name":"Lüneburg","type":"Landkreis"},"federalState":{"key":"03","name":"Niedersachsen"}},{"name":"Chamissostr.","postalCode":"21337","locality":"Lüneburg","municipality":{"key":"03355022","name":"Lüneburg, Hansestadt","type":"Stadt"},"district":{"key":"03355","name":"Lüneburg","type":"Landkreis"},"federalState":{"key":"03","name":"Niedersachsen"}},{"name":"Charlotte-Huhn-Str.","postalCode":"21339","locality":"Lüneburg","municipality":{"key":"03355022","name":"Lüneburg, Hansestadt","type":"Stadt"},"district":{"key":"03355","name":"Lüneburg","type":"Landkreis"},"federalState":{"key":"03","name":"Niedersachsen"}},{"name":"Christel-Rebbin-Str.","postalCode":"21337","locality":"Lüneburg","municipality":{"key":"03355022","name":"Lüneburg, Hansestadt","type":"Stadt"},"district":{"key":"03355","name":"Lüneburg","type":"Landkreis"},"federalState":{"key":"03","name":"Niedersachsen"}},{"name":"Christian-Herbst-Str.","postalCode":"21339","locality":"Lüneburg","municipality":{"key":"03355022","name":"Lüneburg, Hansestadt","type":"Stadt"},"district":{"key":"03355","name":"Lüneburg","type":"Landkreis"},"federalState":{"key":"03","name":"Niedersachsen"}},{"name":"Christianiweg","postalCode":"21339","locality":"Lüneburg","municipality":{"key":"03355022","name":"Lüneburg, Hansestadt","type":"Stadt"},"district":{"key":"03355","name":"Lüneburg","type":"Landkreis"},"federalState":{"key":"03","name":"Niedersachsen"}},{"name":"Christian-Lindemann-Str.","postalCode":"21335","locality":"Lüneburg","municipality":{"key":"03355022","name":"Lüneburg, Hansestadt","type":"Stadt"},"district":{"key":"03355","name":"Lüneburg","type":"Landkreis"},"federalState":{"key":"03","name":"Niedersachsen"}},{"name":"Clamart-Park","postalCode":"21335","locality":"Lüneburg","municipality":{"key":"03355022","name":"Lüneburg, Hansestadt","type":"Stadt"},"district":{"key":"03355","name":"Lüneburg","type":"Landkreis"},"federalState":{"key":"03","name":"Niedersachsen"}},{"name":"Claudiusweg","postalCode":"21337","locality":"Lüneburg","municipality":{"key":"03355022","name":"Lüneburg, Hansestadt","type":"Stadt"},"district":{"key":"03355","name":"Lüneburg","type":"Landkreis"},"federalState":{"key":"03","name":"Niedersachsen"}},{"name":"Conventstr.","postalCode":"21335","locality":"Lüneburg","municipality":{"key":"03355022","name":"Lüneburg, Hansestadt","type":"Stadt"},"district":{"key":"03355","name":"Lüneburg","type":"Landkreis"},"federalState":{"key":"03","name":"Niedersachsen"}},{"name":"Curiostr.","postalCode":"21339","locality":"Lüneburg","municipality":{"key":"03355022","name":"Lüneburg, Hansestadt","type":"Stadt"},"district":{"key":"03355","name":"Lüneburg","type":"Landkreis"},"federalState":{"key":"03","name":"Niedersachsen"}},{"name":"Dachsweg","postalCode":"21379","locality":"Rullstorf","municipality":{"key":"03355032","name":"Rullstorf","type":"Kreisangehörige_Gemeinde"},"district":{"key":"03355","name":"Lüneburg","type":"Landkreis"},"federalState":{"key":"03","name":"Niedersachsen"}},{"name":"Dahlwegsfeld","postalCode":"21379","locality":"Rullstorf","municipality":{"key":"03355032","name":"Rullstorf","type":"Kreisangehörige_Gemeinde"},"district":{"key":"03355","name":"Lüneburg","type":"Landkreis"},"federalState":{"key":"03","name":"Niedersachsen"}},{"name":"Dorfstr.","postalCode":"21379","locality":"Rullstorf","municipality":{"key":"03355032","name":"Rullstorf","type":"Kreisangehörige_Gemeinde"},"district":{"key":"03355","name":"Lüneburg","type":"Landkreis"},"federalState":{"key":"03","name":"Niedersachsen"}},{"name":"Eckermannstr.","postalCode":"21335","locality":"Lüneburg","municipality":{"key":"03355022","name":"Lüneburg, Hansestadt","type":"Stadt"},"district":{"key":"03355","name":"Lüneburg","type":"Landkreis"},"federalState":{"key":"03","name":"Niedersachsen"}},{"name":"Egersdorffstr.","postalCode":"21335","locality":"Lüneburg","municipality":{"key":"03355022","name":"Lüneburg, Hansestadt","type":"Stadt"},"district":{"key":"03355","name":"Lüneburg","type":"Landkreis"},"federalState":{"key":"03","name":"Niedersachsen"}},{"name":"ehem. Panzerstr.","postalCode":"21337","locality":"Lüneburg","municipality":{"key":"03355022","name":"Lüneburg, Hansestadt","type":"Stadt"},"district":{"key":"03355","name":"Lüneburg","type":"Landkreis"},"federalState":{"key":"03","name":"Niedersachsen"}},{"name":"Eichenbrücker Str.","postalCode":"21337","locality":"Lüneburg","municipality":{"key":"03355022","name":"Lüneburg, Hansestadt","type":"Stadt"},"district":{"key":"03355","name":"Lüneburg","type":"Landkreis"},"federalState":{"key":"03","name":"Niedersachsen"}},{"name":"Eichendorffstr.","postalCode":"21337","locality":"Lüneburg","municipality":{"key":"03355022","name":"Lüneburg, Hansestadt","type":"Stadt"},"district":{"key":"03355","name":"Lüneburg","type":"Landkreis"},"federalState":{"key":"03","name":"Niedersachsen"}},{"name":"Eichenhain","postalCode":"21335","locality":"Lüneburg","municipality":{"key":"03355022","name":"Lüneburg, Hansestadt","type":"Stadt"},"district":{"key":"03355","name":"Lüneburg","type":"Landkreis"},"federalState":{"key":"03","name":"Niedersachsen"}},{"name":"Eichenkamp","postalCode":"21335","locality":"Lüneburg","municipality":{"key":"03355022","name":"Lüneburg, Hansestadt","type":"Stadt"},"district":{"key":"03355","name":"Lüneburg","type":"Landkreis"},"federalState":{"key":"03","name":"Niedersachsen"}},{"name":"Eichenweg","postalCode":"21337","locality":"Lüneburg","municipality":{"key":"03355022","name":"Lüneburg, Hansestadt","type":"Stadt"},"district":{"key":"03355","name":"Lüneburg","type":"Landkreis"},"federalState":{"key":"03","name":"Niedersachsen"}},{"name":"Eichhornweg","postalCode":"21337","locality":"Lüneburg","municipality":{"key":"03355022","name":"Lüneburg, Hansestadt","type":"Stadt"},"district":{"key":"03355","name":"Lüneburg","type":"Landkreis"},"federalState":{"key":"03","name":"Niedersachsen"}},{"name":"Eisenbahnweg","postalCode":"21337","locality":"Lüneburg","municipality":{"key":"03355022","name":"Lüneburg, Hansestadt","type":"Stadt"},"district":{"key":"03355","name":"Lüneburg","type":"Landkreis"},"federalState":{"key":"03","name":"Niedersachsen"}},{"name":"Elbinger Str.","postalCode":"21339","locality":"Lüneburg","municipality":{"key":"03355022","name":"Lüneburg, Hansestadt","type":"Stadt"},"district":{"key":"03355","name":"Lüneburg","type":"Landkreis"},"federalState":{"key":"03","name":"Niedersachsen"}},{"name":"Elisabeth-Maske-Str.","postalCode":"21337","locality":"Lüneburg","municipality":{"key":"03355022","name":"Lüneburg, Hansestadt","type":"Stadt"},"district":{"key":"03355","name":"Lüneburg","type":"Landkreis"},"federalState":{"key":"03","name":"Niedersachsen"}},{"name":"Elsa-Brandström-Str.","postalCode":"21337","locality":"Lüneburg","municipality":{"key":"03355022","name":"Lüneburg, Hansestadt","type":"Stadt"},"district":{"key":"03355","name":"Lüneburg","type":"Landkreis"},"federalState":{"key":"03","name":"Niedersachsen"}},{"name":"Else-Wex-Weg","postalCode":"21335","locality":"Lüneburg","municipality":{"key":"03355022","name":"Lüneburg, Hansestadt","type":"Stadt"},"district":{"key":"03355","name":"Lüneburg","type":"Landkreis"},"federalState":{"key":"03","name":"Niedersachsen"}},{"name":"Elso-Klöver-Str.","postalCode":"21337","locality":"Lüneburg","municipality":{"key":"03355022","name":"Lüneburg, Hansestadt","type":"Stadt"},"district":{"key":"03355","name":"Lüneburg","type":"Landkreis"},"federalState":{"key":"03","name":"Niedersachsen"}},{"name":"Elsterallee","postalCode":"21337","locality":"Lüneburg","municipality":{"key":"03355022","name":"Lüneburg, Hansestadt","type":"Stadt"},"district":{"key":"03355","name":"Lüneburg","type":"Landkreis"},"federalState":{"key":"03","name":"Niedersachsen"}},{"name":"Elversstr.","postalCode":"21339","locality":"Lüneburg","municipality":{"key":"03355022","name":"Lüneburg, Hansestadt","type":"Stadt"},"district":{"key":"03355","name":"Lüneburg","type":"Landkreis"},"federalState":{"key":"03","name":"Niedersachsen"}},{"name":"Embser Kirchweg","postalCode":"21335","locality":"Lüneburg","municipality":{"key":"03355022","name":"Lüneburg, Hansestadt","type":"Stadt"},"district":{"key":"03355","name":"Lüneburg","type":"Landkreis"},"federalState":{"key":"03","name":"Niedersachsen"}},{"name":"Emmy-Noether-Weg","postalCode":"21337","locality":"Lüneburg","municipality":{"key":"03355022","name":"Lüneburg, Hansestadt","type":"Stadt"},"district":{"key":"03355","name":"Lüneburg","type":"Landkreis"},"federalState":{"key":"03","name":"Niedersachsen"}},{"name":"Erbstorfer Landstr.","postalCode":"21337","locality":"Lüneburg","municipality":{"key":"03355022","name":"Lüneburg, Hansestadt","type":"Stadt"},"district":{"key":"03355","name":"Lüneburg","type":"Landkreis"},"federalState":{"key":"03","name":"Niedersachsen"}},{"name":"Erfurter Str.","postalCode":"21339","locality":"Lüneburg","municipality":{"key":"03355022","name":"Lüneburg, Hansestadt","type":"Stadt"},"district":{"key":"03355","name":"Lüneburg","type":"Landkreis"},"federalState":{"key":"03","name":"Niedersachsen"}},{"name":"Erlengrund","postalCode":"21335","locality":"Lüneburg","municipality":{"key":"03355022","name":"Lüneburg, Hansestadt","type":"Stadt"},"district":{"key":"03355","name":"Lüneburg","type":"Landkreis"},"federalState":{"key":"03","name":"Niedersachsen"}},{"name":"Ernst-Braune-Str.","postalCode":"21339","locality":"Lüneburg","municipality":{"key":"03355022","name":"Lüneburg, Hansestadt","type":"Stadt"},"district":{"key":"03355","name":"Lüneburg","type":"Landkreis"},"federalState":{"key":"03","name":"Niedersachsen"}},{"name":"Ernst-Ehlers-Str.","postalCode":"21335","locality":"Lüneburg","municipality":{"key":"03355022","name":"Lüneburg, Hansestadt","type":"Stadt"},"district":{"key":"03355","name":"Lüneburg","type":"Landkreis"},"federalState":{"key":"03","name":"Niedersachsen"}},{"name":"Erwin-von-Witzleben-Str.","postalCode":"21337","locality":"Lüneburg","municipality":{"key":"03355022","name":"Lüneburg, Hansestadt","type":"Stadt"},"district":{"key":"03355","name":"Lüneburg","type":"Landkreis"},"federalState":{"key":"03","name":"Niedersachsen"}},{"name":"Eulenweg","postalCode":"21337","locality":"Lüneburg","municipality":{"key":"03355022","name":"Lüneburg, Hansestadt","type":"Stadt"},"district":{"key":"03355","name":"Lüneburg","type":"Landkreis"},"federalState":{"key":"03","name":"Niedersachsen"}},{"name":"Fuchsweg","postalCode":"21379","locality":"Rullstorf","municipality":{"key":"03355032","name":"Rullstorf","type":"Kreisangehörige_Gemeinde"},"district":{"key":"03355","name":"Lüneburg","type":"Landkreis"},"federalState":{"key":"03","name":"Niedersachsen"}},{"name":"Garlopstr.","postalCode":"21335","locality":"Lüneburg","municipality":{"key":"03355022","name":"Lüneburg, Hansestadt","type":"Stadt"},"district":{"key":"03355","name":"Lüneburg","type":"Landkreis"},"federalState":{"key":"03","name":"Niedersachsen"}},{"name":"Gartenweg","postalCode":"21335","locality":"Lüneburg","municipality":{"key":"03355022","name":"Lüneburg, Hansestadt","type":"Stadt"},"district":{"key":"03355","name":"Lüneburg","type":"Landkreis"},"federalState":{"key":"03","name":"Niedersachsen"}},{"name":"Gaußstr.","postalCode":"21335","locality":"Lüneburg","municipality":{"key":"03355022","name":"Lüneburg, Hansestadt","type":"Stadt"},"district":{"key":"03355","name":"Lüneburg","type":"Landkreis"},"federalState":{"key":"03","name":"Niedersachsen"}},{"name":"Gebhardiweg","postalCode":"21339","locality":"Lüneburg","municipality":{"key":"03355022","name":"Lüneburg, Hansestadt","type":"Stadt"},"district":{"key":"03355","name":"Lüneburg","type":"Landkreis"},"federalState":{"key":"03","name":"Niedersachsen"}},{"name":"Gebrüder-Heyn-Str.","postalCode":"21337","locality":"Lüneburg","municipality":{"key":"03355022","name":"Lüneburg, Hansestadt","type":"Stadt"},"district":{"key":"03355","name":"Lüneburg","type":"Landkreis"},"federalState":{"key":"03","name":"Niedersachsen"}},{"name":"Gebrüder-Loewe-Str.","postalCode":"21337","locality":"Lüneburg","municipality":{"key":"03355022","name":"Lüneburg, Hansestadt","type":"Stadt"},"district":{"key":"03355","name":"Lüneburg","type":"Landkreis"},"federalState":{"key":"03","name":"Niedersachsen"}},{"name":"Geibelweg","postalCode":"21337","locality":"Lüneburg","municipality":{"key":"03355022","name":"Lüneburg, Hansestadt","type":"Stadt"},"district":{"key":"03355","name":"Lüneburg","type":"Landkreis"},"federalState":{"key":"03","name":"Niedersachsen"}},{"name":"Gellersstr.","postalCode":"21337","locality":"Lüneburg","municipality":{"key":"03355022","name":"Lüneburg, Hansestadt","type":"Stadt"},"district":{"key":"03355","name":"Lüneburg","type":"Landkreis"},"federalState":{"key":"03","name":"Niedersachsen"}},{"name":"Georg-Böhm-Str.","postalCode":"21337","locality":"Lüneburg","municipality":{"key":"03355022","name":"Lüneburg, Hansestadt","type":"Stadt"},"district":{"key":"03355","name":"Lüneburg","type":"Landkreis"},"federalState":{"key":"03","name":"Niedersachsen"}},{"name":"Georg-König-Str.","postalCode":"21335","locality":"Lüneburg","municipality":{"key":"03355022","name":"Lüneburg, Hansestadt","type":"Stadt"},"district":{"key":"03355","name":"Lüneburg","type":"Landkreis"},"federalState":{"key":"03","name":"Niedersachsen"}},{"name":"Georg-Leppien-Str.","postalCode":"21337","locality":"Lüneburg","municipality":{"key":"03355022","name":"Lüneburg, Hansestadt","type":"Stadt"},"district":{"key":"03355","name":"Lüneburg","type":"Landkreis"},"federalState":{"key":"03","name":"Niedersachsen"}},{"name":"Gerberstr.","postalCode":"21335","locality":"Lüneburg","municipality":{"key":"03355022","name":"Lüneburg, Hansestadt","type":"Stadt"},"district":{"key":"03355","name":"Lüneburg","type":"Landkreis"},"federalState":{"key":"03","name":"Niedersachsen"}},{"name":"Gerhart-Hauptmann-Str.","postalCode":"21337","locality":"Lüneburg","municipality":{"key":"03355022","name":"Lüneburg, Hansestadt","type":"Stadt"},"district":{"key":"03355","name":"Lüneburg","type":"Landkreis"},"federalState":{"key":"03","name":"Niedersachsen"}},{"name":"Gerstenkamp","postalCode":"21335","locality":"Lüneburg","municipality":{"key":"03355022","name":"Lüneburg, Hansestadt","type":"Stadt"},"district":{"key":"03355","name":"Lüneburg","type":"Landkreis"},"federalState":{"key":"03","name":"Niedersachsen"}},{"name":"Ginsterweg","postalCode":"21335","locality":"Lüneburg","municipality":{"key":"03355022","name":"Lüneburg, Hansestadt","type":"Stadt"},"district":{"key":"03355","name":"Lüneburg","type":"Landkreis"},"federalState":{"key":"03","name":"Niedersachsen"}},{"name":"Gladiolenweg","postalCode":"21339","locality":"Lüneburg","municipality":{"key":"03355022","name":"Lüneburg, Hansestadt","type":"Stadt"},"district":{"key":"03355","name":"Lüneburg","type":"Landkreis"},"federalState":{"key":"03","name":"Niedersachsen"}},{"name":"Gleiwitzer Str.","postalCode":"21337","locality":"Lüneburg","municipality":{"key":"03355022","name":"Lüneburg, Hansestadt","type":"Stadt"},"district":{"key":"03355","name":"Lüneburg","type":"Landkreis"},"federalState":{"key":"03","name":"Niedersachsen"}},{"name":"Glogauer Str.","postalCode":"21337","locality":"Lüneburg","municipality":{"key":"03355022","name":"Lüneburg, Hansestadt","type":"Stadt"},"district":{"key":"03355","name":"Lüneburg","type":"Landkreis"},"federalState":{"key":"03","name":"Niedersachsen"}},{"name":"Gneisenaustr.","postalCode":"21335","locality":"Lüneburg","municipality":{"key":"03355022","name":"Lüneburg, Hansestadt","type":"Stadt"},"district":{"key":"03355","name":"Lüneburg","type":"Landkreis"},"federalState":{"key":"03","name":"Niedersachsen"}},{"name":"Goebelstr.","postalCode":"21339","locality":"Lüneburg","municipality":{"key":"03355022","name":"Lüneburg, Hansestadt","type":"Stadt"},"district":{"key":"03355","name":"Lüneburg","type":"Landkreis"},"federalState":{"key":"03","name":"Niedersachsen"}},{"name":"Goethestr.","postalCode":"21335","locality":"Lüneburg","municipality":{"key":"03355022","name":"Lüneburg, Hansestadt","type":"Stadt"},"district":{"key":"03355","name":"Lüneburg","type":"Landkreis"},"federalState":{"key":"03","name":"Niedersachsen"}},{"name":"Gorch-Fock-Str.","postalCode":"21337","locality":"Lüneburg","municipality":{"key":"03355022","name":"Lüneburg, Hansestadt","type":"Stadt"},"district":{"key":"03355","name":"Lüneburg","type":"Landkreis"},"federalState":{"key":"03","name":"Niedersachsen"}},{"name":"Görgesstr.","postalCode":"21335","locality":"Lüneburg","municipality":{"key":"03355022","name":"Lüneburg, Hansestadt","type":"Stadt"},"district":{"key":"03355","name":"Lüneburg","type":"Landkreis"},"federalState":{"key":"03","name":"Niedersachsen"}},{"name":"Görlitzer Str.","postalCode":"21337","locality":"Lüneburg","municipality":{"key":"03355022","name":"Lüneburg, Hansestadt","type":"Stadt"},"district":{"key":"03355","name":"Lüneburg","type":"Landkreis"},"federalState":{"key":"03","name":"Niedersachsen"}},{"name":"Goseburg","postalCode":"21339","locality":"Lüneburg","municipality":{"key":"03355022","name":"Lüneburg, Hansestadt","type":"Stadt"},"district":{"key":"03355","name":"Lüneburg","type":"Landkreis"},"federalState":{"key":"03","name":"Niedersachsen"}},{"name":"Goseburgstr.","postalCode":"21339","locality":"Lüneburg","municipality":{"key":"03355022","name":"Lüneburg, Hansestadt","type":"Stadt"},"district":{"key":"03355","name":"Lüneburg","type":"Landkreis"},"federalState":{"key":"03","name":"Niedersachsen"}},{"name":"Gottfried-Keller-Str.","postalCode":"21337","locality":"Lüneburg","municipality":{"key":"03355022","name":"Lüneburg, Hansestadt","type":"Stadt"},"district":{"key":"03355","name":"Lüneburg","type":"Landkreis"},"federalState":{"key":"03","name":"Niedersachsen"}},{"name":"Göxer Weg","postalCode":"21337","locality":"Lüneburg","municipality":{"key":"03355022","name":"Lüneburg, Hansestadt","type":"Stadt"},"district":{"key":"03355","name":"Lüneburg","type":"Landkreis"},"federalState":{"key":"03","name":"Niedersachsen"}},{"name":"Grabenweg","postalCode":"21339","locality":"Lüneburg","municipality":{"key":"03355022","name":"Lüneburg, Hansestadt","type":"Stadt"},"district":{"key":"03355","name":"Lüneburg","type":"Landkreis"},"federalState":{"key":"03","name":"Niedersachsen"}},{"name":"Grabower Str.","postalCode":"21339","locality":"Lüneburg","municipality":{"key":"03355022","name":"Lüneburg, Hansestadt","type":"Stadt"},"district":{"key":"03355","name":"Lüneburg","type":"Landkreis"},"federalState":{"key":"03","name":"Niedersachsen"}},{"name":"Graf-Schenk-von-Stauffenberg-Str.","postalCode":"21337","locality":"Lüneburg","municipality":{"key":"03355022","name":"Lüneburg, Hansestadt","type":"Stadt"},"district":{"key":"03355","name":"Lüneburg","type":"Landkreis"},"federalState":{"key":"03","name":"Niedersachsen"}},{"name":"Graf-von-Moltke-Str.","postalCode":"21337","locality":"Lüneburg","municipality":{"key":"03355022","name":"Lüneburg, Hansestadt","type":"Stadt"},"district":{"key":"03355","name":"Lüneburg","type":"Landkreis"},"federalState":{"key":"03","name":"Niedersachsen"}},{"name":"Grasweg","postalCode":"21339","locality":"Lüneburg","municipality":{"key":"03355022","name":"Lüneburg, Hansestadt","type":"Stadt"},"district":{"key":"03355","name":"Lüneburg","type":"Landkreis"},"federalState":{"key":"03","name":"Niedersachsen"}},{"name":"Graudenzer Str.","postalCode":"21337","locality":"Lüneburg","municipality":{"key":"03355022","name":"Lüneburg, Hansestadt","type":"Stadt"},"district":{"key":"03355","name":"Lüneburg","type":"Landkreis"},"federalState":{"key":"03","name":"Niedersachsen"}},{"name":"Gravenhorststr.","postalCode":"21335","locality":"Lüneburg","municipality":{"key":"03355022","name":"Lüneburg, Hansestadt","type":"Stadt"},"district":{"key":"03355","name":"Lüneburg","type":"Landkreis"},"federalState":{"key":"03","name":"Niedersachsen"}},{"name":"Greifswalder Str.","postalCode":"21339","locality":"Lüneburg","municipality":{"key":"03355022","name":"Lüneburg, Hansestadt","type":"Stadt"},"district":{"key":"03355","name":"Lüneburg","type":"Landkreis"},"federalState":{"key":"03","name":"Niedersachsen"}},{"name":"Grenzstr.","postalCode":"21337","locality":"Lüneburg","municipality":{"key":"03355022","name":"Lüneburg, Hansestadt","type":"Stadt"},"district":{"key":"03355","name":"Lüneburg","type":"Landkreis"},"federalState":{"key":"03","name":"Niedersachsen"}},{"name":"Großer Garten","postalCode":"21335","locality":"Lüneburg","municipality":{"key":"03355022","name":"Lüneburg, Hansestadt","type":"Stadt"},"district":{"key":"03355","name":"Lüneburg","type":"Landkreis"},"federalState":{"key":"03","name":"Niedersachsen"}},{"name":"Grünberger Str.","postalCode":"21337","locality":"Lüneburg","municipality":{"key":"03355022","name":"Lüneburg, Hansestadt","type":"Stadt"},"district":{"key":"03355","name":"Lüneburg","type":"Landkreis"},"federalState":{"key":"03","name":"Niedersachsen"}},{"name":"Grundweg","postalCode":"21335","locality":"Lüneburg","municipality":{"key":"03355022","name":"Lüneburg, Hansestadt","type":"Stadt"},"district":{"key":"03355","name":"Lüneburg","type":"Landkreis"},"federalState":{"key":"03","name":"Niedersachsen"}},{"name":"Grüner Brink","postalCode":"21337","locality":"Lüneburg","municipality":{"key":"03355022","name":"Lüneburg, Hansestadt","type":"Stadt"},"district":{"key":"03355","name":"Lüneburg","type":"Landkreis"},"federalState":{"key":"03","name":"Niedersachsen"}},{"name":"Grüner Weg","postalCode":"21339","locality":"Lüneburg","municipality":{"key":"03355022","name":"Lüneburg, Hansestadt","type":"Stadt"},"district":{"key":"03355","name":"Lüneburg","type":"Landkreis"},"federalState":{"key":"03","name":"Niedersachsen"}},{"name":"Guerickestr.","postalCode":"21337","locality":"Lüneburg","municipality":{"key":"03355022","name":"Lüneburg, Hansestadt","type":"Stadt"},"district":{"key":"03355","name":"Lüneburg","type":"Landkreis"},"federalState":{"key":"03","name":"Niedersachsen"}},{"name":"Gumbinner Str.","postalCode":"21337","locality":"Lüneburg","municipality":{"key":"03355022","name":"Lüneburg, Hansestadt","type":"Stadt"},"district":{"key":"03355","name":"Lüneburg","type":"Landkreis"},"federalState":{"key":"03","name":"Niedersachsen"}},{"name":"Gummastr.","postalCode":"21335","locality":"Lüneburg","municipality":{"key":"03355022","name":"Lüneburg, Hansestadt","type":"Stadt"},"district":{"key":"03355","name":"Lüneburg","type":"Landkreis"},"federalState":{"key":"03","name":"Niedersachsen"}},{"name":"Gungelsbrunnen","postalCode":"21339","locality":"Lüneburg","municipality":{"key":"03355022","name":"Lüneburg, Hansestadt","type":"Stadt"},"district":{"key":"03355","name":"Lüneburg","type":"Landkreis"},"federalState":{"key":"03","name":"Niedersachsen"}},{"name":"Gut Wienebüttel","postalCode":"21339","locality":"Lüneburg","municipality":{"key":"03355022","name":"Lüneburg, Hansestadt","type":"Stadt"},"district":{"key":"03355","name":"Lüneburg","type":"Landkreis"},"federalState":{"key":"03","name":"Niedersachsen"}},{"name":"Hasenwinkel","postalCode":"21379","locality":"Rullstorf","municipality":{"key":"03355032","name":"Rullstorf","type":"Kreisangehörige_Gemeinde"},"district":{"key":"03355","name":"Lüneburg","type":"Landkreis"},"federalState":{"key":"03","name":"Niedersachsen"}},{"name":"Hauptstr.","postalCode":"21379","locality":"Rullstorf","municipality":{"key":"03355032","name":"Rullstorf","type":"Kreisangehörige_Gemeinde"},"district":{"key":"03355","name":"Lüneburg","type":"Landkreis"},"federalState":{"key":"03","name":"Niedersachsen"}},{"name":"Hoher Weg","postalCode":"21379","locality":"Rullstorf","municipality":{"key":"03355032","name":"Rullstorf","type":"Kreisangehörige_Gemeinde"},"district":{"key":"03355","name":"Lüneburg","type":"Landkreis"},"federalState":{"key":"03","name":"Niedersachsen"}},{"name":"Im Ort","postalCode":"21379","locality":"Rullstorf","municipality":{"key":"03355032","name":"Rullstorf","type":"Kreisangehörige_Gemeinde"},"district":{"key":"03355","name":"Lüneburg","type":"Landkreis"},"federalState":{"key":"03","name":"Niedersachsen"}},{"name":"In den Wiesen","postalCode":"21379","locality":"Rullstorf","municipality":{"key":"03355032","name":"Rullstorf","type":"Kreisangehörige_Gemeinde"},"district":{"key":"03355","name":"Lüneburg","type":"Landkreis"},"federalState":{"key":"03","name":"Niedersachsen"}},{"name":"Jägerstr.","postalCode":"21339","locality":"Lüneburg","municipality":{"key":"03355022","name":"Lüneburg, Hansestadt","type":"Stadt"},"district":{"key":"03355","name":"Lüneburg","type":"Landkreis"},"federalState":{"key":"03","name":"Niedersachsen"}},{"name":"Jakob-Kaiser-Str.","postalCode":"21337","locality":"Lüneburg","municipality":{"key":"03355022","name":"Lüneburg, Hansestadt","type":"Stadt"},"district":{"key":"03355","name":"Lüneburg","type":"Landkreis"},"federalState":{"key":"03","name":"Niedersachsen"}},{"name":"Jean-Leppien-Str.","postalCode":"21339","locality":"Lüneburg","municipality":{"key":"03355022","name":"Lüneburg, Hansestadt","type":"Stadt"},"district":{"key":"03355","name":"Lüneburg","type":"Landkreis"},"federalState":{"key":"03","name":"Niedersachsen"}},{"name":"Jens-Schreiber-Str.","postalCode":"21337","locality":"Lüneburg","municipality":{"key":"03355022","name":"Lüneburg, Hansestadt","type":"Stadt"},"district":{"key":"03355","name":"Lüneburg","type":"Landkreis"},"federalState":{"key":"03","name":"Niedersachsen"}},{"name":"Johanna-Kirchner-Str.","postalCode":"21337","locality":"Lüneburg","municipality":{"key":"03355022","name":"Lüneburg, Hansestadt","type":"Stadt"},"district":{"key":"03355","name":"Lüneburg","type":"Landkreis"},"federalState":{"key":"03","name":"Niedersachsen"}},{"name":"Johanna-Stegen-Str.","postalCode":"21339","locality":"Lüneburg","municipality":{"key":"03355022","name":"Lüneburg, Hansestadt","type":"Stadt"},"district":{"key":"03355","name":"Lüneburg","type":"Landkreis"},"federalState":{"key":"03","name":"Niedersachsen"}},{"name":"Johannes-Gutenberg-Str.","postalCode":"21337","locality":"Lüneburg","municipality":{"key":"03355022","name":"Lüneburg, Hansestadt","type":"Stadt"},"district":{"key":"03355","name":"Lüneburg","type":"Landkreis"},"federalState":{"key":"03","name":"Niedersachsen"}},{"name":"Johannisburger Str.","postalCode":"21337","locality":"Lüneburg","municipality":{"key":"03355022","name":"Lüneburg, Hansestadt","type":"Stadt"},"district":{"key":"03355","name":"Lüneburg","type":"Landkreis"},"federalState":{"key":"03","name":"Niedersachsen"}},{"name":"Johannisstr.","postalCode":"21335","locality":"Lüneburg","municipality":{"key":"03355022","name":"Lüneburg, Hansestadt","type":"Stadt"},"district":{"key":"03355","name":"Lüneburg","type":"Landkreis"},"federalState":{"key":"03","name":"Niedersachsen"}},{"name":"Johann-Sebastian-Bach-Platz","postalCode":"21335","locality":"Lüneburg","municipality":{"key":"03355022","name":"Lüneburg, Hansestadt","type":"Stadt"},"district":{"key":"03355","name":"Lüneburg","type":"Landkreis"},"federalState":{"key":"03","name":"Niedersachsen"}},{"name":"Julius-Leber-Str.","postalCode":"21337","locality":"Lüneburg","municipality":{"key":"03355022","name":"Lüneburg, Hansestadt","type":"Stadt"},"district":{"key":"03355","name":"Lüneburg","type":"Landkreis"},"federalState":{"key":"03","name":"Niedersachsen"}},{"name":"Julius-Wolff-Str.","postalCode":"21335","locality":"Lüneburg","municipality":{"key":"03355022","name":"Lüneburg, Hansestadt","type":"Stadt"},"district":{"key":"03355","name":"Lüneburg","type":"Landkreis"},"federalState":{"key":"03","name":"Niedersachsen"}},{"name":"Jürgen-Backhaus-Str.","postalCode":"21337","locality":"Lüneburg","municipality":{"key":"03355022","name":"Lüneburg, Hansestadt","type":"Stadt"},"district":{"key":"03355","name":"Lüneburg","type":"Landkreis"},"federalState":{"key":"03","name":"Niedersachsen"}},{"name":"Jüttkenmoor","postalCode":"21339","locality":"Lüneburg","municipality":{"key":"03355022","name":"Lüneburg, Hansestadt","type":"Stadt"},"district":{"key":"03355","name":"Lüneburg","type":"Landkreis"},"federalState":{"key":"03","name":"Niedersachsen"}},{"name":"Kampweg","postalCode":"21379","locality":"Rullstorf","municipality":{"key":"03355032","name":"Rullstorf","type":"Kreisangehörige_Gemeinde"},"district":{"key":"03355","name":"Lüneburg","type":"Landkreis"},"federalState":{"key":"03","name":"Niedersachsen"}},{"name":"Lindenring","postalCode":"21379","locality":"Rullstorf","municipality":{"key":"03355032","name":"Rullstorf","type":"Kreisangehörige_Gemeinde"},"district":{"key":"03355","name":"Lüneburg","type":"Landkreis"},"federalState":{"key":"03","name":"Niedersachsen"}},{"name":"Mittelweg","postalCode":"21379","locality":"Rullstorf","municipality":{"key":"03355032","name":"Rullstorf","type":"Kreisangehörige_Gemeinde"},"district":{"key":"03355","name":"Lüneburg","type":"Landkreis"},"federalState":{"key":"03","name":"Niedersachsen"}},{"name":"Möhlenkamp","postalCode":"21379","locality":"Rullstorf","municipality":{"key":"03355032","name":"Rullstorf","type":"Kreisangehörige_Gemeinde"},"district":{"key":"03355","name":"Lüneburg","type":"Landkreis"},"federalState":{"key":"03","name":"Niedersachsen"}},{"name":"Moorfeldweg","postalCode":"21379","locality":"Rullstorf","municipality":{"key":"03355032","name":"Rullstorf","type":"Kreisangehörige_Gemeinde"},"district":{"key":"03355","name":"Lüneburg","type":"Landkreis"},"federalState":{"key":"03","name":"Niedersachsen"}},{"name":"Mühlenweg","postalCode":"21379","locality":"Rullstorf","municipality":{"key":"03355032","name":"Rullstorf","type":"Kreisangehörige_Gemeinde"},"district":{"key":"03355","name":"Lüneburg","type":"Landkreis"},"federalState":{"key":"03","name":"Niedersachsen"}},{"name":"Nutzfelder Weg","postalCode":"21379","locality":"Rullstorf","municipality":{"key":"03355032","name":"Rullstorf","type":"Kreisangehörige_Gemeinde"},"district":{"key":"03355","name":"Lüneburg","type":"Landkreis"},"federalState":{"key":"03","name":"Niedersachsen"}},{"name":"Osterfeld","postalCode":"21379","locality":"Rullstorf","municipality":{"key":"03355032","name":"Rullstorf","type":"Kreisangehörige_Gemeinde"},"district":{"key":"03355","name":"Lüneburg","type":"Landkreis"},"federalState":{"key":"03","name":"Niedersachsen"}},{"name":"Postweg","postalCode":"21379","locality":"Rullstorf","municipality":{"key":"03355032","name":"Rullstorf","type":"Kreisangehörige_Gemeinde"},"district":{"key":"03355","name":"Lüneburg","type":"Landkreis"},"federalState":{"key":"03","name":"Niedersachsen"}},{"name":"Quellenweg","postalCode":"21339","locality":"Lüneburg","municipality":{"key":"03355022","name":"Lüneburg, Hansestadt","type":"Stadt"},"district":{"key":"03355","name":"Lüneburg","type":"Landkreis"},"federalState":{"key":"03","name":"Niedersachsen"}},{"name":"Quickbaumweg","postalCode":"21339","locality":"Lüneburg","municipality":{"key":"03355022","name":"Lüneburg, Hansestadt","type":"Stadt"},"district":{"key":"03355","name":"Lüneburg","type":"Landkreis"},"federalState":{"key":"03","name":"Niedersachsen"}},{"name":"Rullstorfer Str.","postalCode":"21379","locality":"Rullstorf","municipality":{"key":"03355032","name":"Rullstorf","type":"Kreisangehörige_Gemeinde"},"district":{"key":"03355","name":"Lüneburg","type":"Landkreis"},"federalState":{"key":"03","name":"Niedersachsen"}},{"name":"Sandwehe","postalCode":"21379","locality":"Rullstorf","municipality":{"key":"03355032","name":"Rullstorf","type":"Kreisangehörige_Gemeinde"},"district":{"key":"03355","name":"Lüneburg","type":"Landkreis"},"federalState":{"key":"03","name":"Niedersachsen"}},{"name":"Schulweg","postalCode":"21379","locality":"Rullstorf","municipality":{"key":"03355032","name":"Rullstorf","type":"Kreisangehörige_Gemeinde"},"district":{"key":"03355","name":"Lüneburg","type":"Landkreis"},"federalState":{"key":"03","name":"Niedersachsen"}},{"name":"Stadtweg","postalCode":"21379","locality":"Rullstorf","municipality":{"key":"03355032","name":"Rullstorf","type":"Kreisangehörige_Gemeinde"},"district":{"key":"03355","name":"Lüneburg","type":"Landkreis"},"federalState":{"key":"03","name":"Niedersachsen"}},{"name":"Sülbecker Weg","postalCode":"21379","locality":"Rullstorf","municipality":{"key":"03355032","name":"Rullstorf","type":"Kreisangehörige_Gemeinde"},"district":{"key":"03355","name":"Lüneburg","type":"Landkreis"},"federalState":{"key":"03","name":"Niedersachsen"}},{"name":"Twiete","postalCode":"21379","locality":"Rullstorf","municipality":{"key":"03355032","name":"Rullstorf","type":"Kreisangehörige_Gemeinde"},"district":{"key":"03355","name":"Lüneburg","type":"Landkreis"},"federalState":{"key":"03","name":"Niedersachsen"}},{"name":"Uelzener Str.","postalCode":"21335","locality":"Lüneburg","municipality":{"key":"03355022","name":"Lüneburg, Hansestadt","type":"Stadt"},"district":{"key":"03355","name":"Lüneburg","type":"Landkreis"},"federalState":{"key":"03","name":"Niedersachsen"}},{"name":"Uhlandstr.","postalCode":"21337","locality":"Lüneburg","municipality":{"key":"03355022","name":"Lüneburg, Hansestadt","type":"Stadt"},"district":{"key":"03355","name":"Lüneburg","type":"Landkreis"},"federalState":{"key":"03","name":"Niedersachsen"}},{"name":"Ulmenweg","postalCode":"21337","locality":"Lüneburg","municipality":{"key":"03355022","name":"Lüneburg, Hansestadt","type":"Stadt"},"district":{"key":"03355","name":"Lüneburg","type":"Landkreis"},"federalState":{"key":"03","name":"Niedersachsen"}},{"name":"Universitätsallee","postalCode":"21335","locality":"Lüneburg","municipality":{"key":"03355022","name":"Lüneburg, Hansestadt","type":"Stadt"},"district":{"key":"03355","name":"Lüneburg","type":"Landkreis"},"federalState":{"key":"03","name":"Niedersachsen"}},{"name":"Unter der Burg","postalCode":"21339","locality":"Lüneburg","municipality":{"key":"03355022","name":"Lüneburg, Hansestadt","type":"Stadt"},"district":{"key":"03355","name":"Lüneburg","type":"Landkreis"},"federalState":{"key":"03","name":"Niedersachsen"}},{"name":"Untere Ohlingerstr.","postalCode":"21335","locality":"Lüneburg","municipality":{"key":"03355022","name":"Lüneburg, Hansestadt","type":"Stadt"},"district":{"key":"03355","name":"Lüneburg","type":"Landkreis"},"federalState":{"key":"03","name":"Niedersachsen"}},{"name":"Van-der-Mölen-Str.","postalCode":"21339","locality":"Lüneburg","municipality":{"key":"03355022","name":"Lüneburg, Hansestadt","type":"Stadt"},"district":{"key":"03355","name":"Lüneburg","type":"Landkreis"},"federalState":{"key":"03","name":"Niedersachsen"}},{"name":"Veilchenring","postalCode":"21335","locality":"Lüneburg","municipality":{"key":"03355022","name":"Lüneburg, Hansestadt","type":"Stadt"},"district":{"key":"03355","name":"Lüneburg","type":"Landkreis"},"federalState":{"key":"03","name":"Niedersachsen"}},{"name":"Vickenteich","postalCode":"21339","locality":"Lüneburg","municipality":{"key":"03355022","name":"Lüneburg, Hansestadt","type":"Stadt"},"district":{"key":"03355","name":"Lüneburg","type":"Landkreis"},"federalState":{"key":"03","name":"Niedersachsen"}},{"name":"Virchowstr.","postalCode":"21335","locality":"Lüneburg","municipality":{"key":"03355022","name":"Lüneburg, Hansestadt","type":"Stadt"},"district":{"key":"03355","name":"Lüneburg","type":"Landkreis"},"federalState":{"key":"03","name":"Niedersachsen"}},{"name":"Viskulenhof","postalCode":"21335","locality":"Lüneburg","municipality":{"key":"03355022","name":"Lüneburg, Hansestadt","type":"Stadt"},"district":{"key":"03355","name":"Lüneburg","type":"Landkreis"},"federalState":{"key":"03","name":"Niedersachsen"}},{"name":"Vögelser Str.","postalCode":"21339","locality":"Lüneburg","municipality":{"key":"03355022","name":"Lüneburg, Hansestadt","type":"Stadt"},"district":{"key":"03355","name":"Lüneburg","type":"Landkreis"},"federalState":{"key":"03","name":"Niedersachsen"}},{"name":"Volgershall","postalCode":"21339","locality":"Lüneburg","municipality":{"key":"03355022","name":"Lüneburg, Hansestadt","type":"Stadt"},"district":{"key":"03355","name":"Lüneburg","type":"Landkreis"},"federalState":{"key":"03","name":"Niedersachsen"}},{"name":"Volgerstr.","postalCode":"21335","locality":"Lüneburg","municipality":{"key":"03355022","name":"Lüneburg, Hansestadt","type":"Stadt"},"district":{"key":"03355","name":"Lüneburg","type":"Landkreis"},"federalState":{"key":"03","name":"Niedersachsen"}},{"name":"Von-Dassel-Str.","postalCode":"21339","locality":"Lüneburg","municipality":{"key":"03355022","name":"Lüneburg, Hansestadt","type":"Stadt"},"district":{"key":"03355","name":"Lüneburg","type":"Landkreis"},"federalState":{"key":"03","name":"Niedersachsen"}},{"name":"Von-Döring-Weg","postalCode":"21339","locality":"Lüneburg","municipality":{"key":"03355022","name":"Lüneburg, Hansestadt","type":"Stadt"},"district":{"key":"03355","name":"Lüneburg","type":"Landkreis"},"federalState":{"key":"03","name":"Niedersachsen"}},{"name":"Von-Kleist-Str.","postalCode":"21337","locality":"Lüneburg","municipality":{"key":"03355022","name":"Lüneburg, Hansestadt","type":"Stadt"},"district":{"key":"03355","name":"Lüneburg","type":"Landkreis"},"federalState":{"key":"03","name":"Niedersachsen"}},{"name":"Vor dem Bardowicker Tore","postalCode":"21335","locality":"Lüneburg","municipality":{"key":"03355022","name":"Lüneburg, Hansestadt","type":"Stadt"},"district":{"key":"03355","name":"Lüneburg","type":"Landkreis"},"federalState":{"key":"03","name":"Niedersachsen"}},{"name":"Vor dem Bardowicker Tore","postalCode":"21339","locality":"Lüneburg","municipality":{"key":"03355022","name":"Lüneburg, Hansestadt","type":"Stadt"},"district":{"key":"03355","name":"Lüneburg","type":"Landkreis"},"federalState":{"key":"03","name":"Niedersachsen"}},{"name":"Vor dem Neuen Tore","postalCode":"21339","locality":"Lüneburg","municipality":{"key":"03355022","name":"Lüneburg, Hansestadt","type":"Stadt"},"district":{"key":"03355","name":"Lüneburg","type":"Landkreis"},"federalState":{"key":"03","name":"Niedersachsen"}},{"name":"Vor dem Roten Tore","postalCode":"21335","locality":"Lüneburg","municipality":{"key":"03355022","name":"Lüneburg, Hansestadt","type":"Stadt"},"district":{"key":"03355","name":"Lüneburg","type":"Landkreis"},"federalState":{"key":"03","name":"Niedersachsen"}},{"name":"Vor dem Weißen Berge","postalCode":"21339","locality":"Lüneburg","municipality":{"key":"03355022","name":"Lüneburg, Hansestadt","type":"Stadt"},"district":{"key":"03355","name":"Lüneburg","type":"Landkreis"},"federalState":{"key":"03","name":"Niedersachsen"}},{"name":"Vor der Heide","postalCode":"21339","locality":"Lüneburg","municipality":{"key":"03355022","name":"Lüneburg, Hansestadt","type":"Stadt"},"district":{"key":"03355","name":"Lüneburg","type":"Landkreis"},"federalState":{"key":"03","name":"Niedersachsen"}},{"name":"Vor der Sülze","postalCode":"21335","locality":"Lüneburg","municipality":{"key":"03355022","name":"Lüneburg, Hansestadt","type":"Stadt"},"district":{"key":"03355","name":"Lüneburg","type":"Landkreis"},"federalState":{"key":"03","name":"Niedersachsen"}},{"name":"Vor Mönchsgarten","postalCode":"21339","locality":"Lüneburg","municipality":{"key":"03355022","name":"Lüneburg, Hansestadt","type":"Stadt"},"district":{"key":"03355","name":"Lüneburg","type":"Landkreis"},"federalState":{"key":"03","name":"Niedersachsen"}},{"name":"Vrestorfer Weg","postalCode":"21339","locality":"Lüneburg","municipality":{"key":"03355022","name":"Lüneburg, Hansestadt","type":"Stadt"},"district":{"key":"03355","name":"Lüneburg","type":"Landkreis"},"federalState":{"key":"03","name":"Niedersachsen"}},{"name":"Waagestr.","postalCode":"21335","locality":"Lüneburg","municipality":{"key":"03355022","name":"Lüneburg, Hansestadt","type":"Stadt"},"district":{"key":"03355","name":"Lüneburg","type":"Landkreis"},"federalState":{"key":"03","name":"Niedersachsen"}},{"name":"Wacholderweg","postalCode":"21337","locality":"Lüneburg","municipality":{"key":"03355022","name":"Lüneburg, Hansestadt","type":"Stadt"},"district":{"key":"03355","name":"Lüneburg","type":"Landkreis"},"federalState":{"key":"03","name":"Niedersachsen"}},{"name":"Waldweg","postalCode":"21337","locality":"Lüneburg","municipality":{"key":"03355022","name":"Lüneburg, Hansestadt","type":"Stadt"},"district":{"key":"03355","name":"Lüneburg","type":"Landkreis"},"federalState":{"key":"03","name":"Niedersachsen"}},{"name":"Wallstr.","postalCode":"21335","locality":"Lüneburg","municipality":{"key":"03355022","name":"Lüneburg, Hansestadt","type":"Stadt"},"district":{"key":"03355","name":"Lüneburg","type":"Landkreis"},"federalState":{"key":"03","name":"Niedersachsen"}},{"name":"Walter-Bötcher-Str.","postalCode":"21337","locality":"Lüneburg","municipality":{"key":"03355022","name":"Lüneburg, Hansestadt","type":"Stadt"},"district":{"key":"03355","name":"Lüneburg","type":"Landkreis"},"federalState":{"key":"03","name":"Niedersachsen"}},{"name":"Wandfärberstr.","postalCode":"21335","locality":"Lüneburg","municipality":{"key":"03355022","name":"Lüneburg, Hansestadt","type":"Stadt"},"district":{"key":"03355","name":"Lüneburg","type":"Landkreis"},"federalState":{"key":"03","name":"Niedersachsen"}},{"name":"Wandrahmpark","postalCode":"21335","locality":"Lüneburg","municipality":{"key":"03355022","name":"Lüneburg, Hansestadt","type":"Stadt"},"district":{"key":"03355","name":"Lüneburg","type":"Landkreis"},"federalState":{"key":"03","name":"Niedersachsen"}},{"name":"Wandrahmstr.","postalCode":"21335","locality":"Lüneburg","municipality":{"key":"03355022","name":"Lüneburg, Hansestadt","type":"Stadt"},"district":{"key":"03355","name":"Lüneburg","type":"Landkreis"},"federalState":{"key":"03","name":"Niedersachsen"}},{"name":"Weberstr.","postalCode":"21335","locality":"Lüneburg","municipality":{"key":"03355022","name":"Lüneburg, Hansestadt","type":"Stadt"},"district":{"key":"03355","name":"Lüneburg","type":"Landkreis"},"federalState":{"key":"03","name":"Niedersachsen"}},{"name":"Wedekindstr.","postalCode":"21337","locality":"Lüneburg","municipality":{"key":"03355022","name":"Lüneburg, Hansestadt","type":"Stadt"},"district":{"key":"03355","name":"Lüneburg","type":"Landkreis"},"federalState":{"key":"03","name":"Niedersachsen"}},{"name":"Weißenburg","postalCode":"21337","locality":"Lüneburg","municipality":{"key":"03355022","name":"Lüneburg, Hansestadt","type":"Stadt"},"district":{"key":"03355","name":"Lüneburg","type":"Landkreis"},"federalState":{"key":"03","name":"Niedersachsen"}},{"name":"Wendische Str.","postalCode":"21335","locality":"Lüneburg","municipality":{"key":"03355022","name":"Lüneburg, Hansestadt","type":"Stadt"},"district":{"key":"03355","name":"Lüneburg","type":"Landkreis"},"federalState":{"key":"03","name":"Niedersachsen"}},{"name":"Werner-von-Meding-Str.","postalCode":"21335","locality":"Lüneburg","municipality":{"key":"03355022","name":"Lüneburg, Hansestadt","type":"Stadt"},"district":{"key":"03355","name":"Lüneburg","type":"Landkreis"},"federalState":{"key":"03","name":"Niedersachsen"}},{"name":"Westädts Garten","postalCode":"21335","locality":"Lüneburg","municipality":{"key":"03355022","name":"Lüneburg, Hansestadt","type":"Stadt"},"district":{"key":"03355","name":"Lüneburg","type":"Landkreis"},"federalState":{"key":"03","name":"Niedersachsen"}},{"name":"Wichernstr.","postalCode":"21335","locality":"Lüneburg","municipality":{"key":"03355022","name":"Lüneburg, Hansestadt","type":"Stadt"},"district":{"key":"03355","name":"Lüneburg","type":"Landkreis"},"federalState":{"key":"03","name":"Niedersachsen"}},{"name":"Wielandstr.","postalCode":"21335","locality":"Lüneburg","municipality":{"key":"03355022","name":"Lüneburg, Hansestadt","type":"Stadt"},"district":{"key":"03355","name":"Lüneburg","type":"Landkreis"},"federalState":{"key":"03","name":"Niedersachsen"}},{"name":"Wiesengrund","postalCode":"21335","locality":"Lüneburg","municipality":{"key":"03355022","name":"Lüneburg, Hansestadt","type":"Stadt"},"district":{"key":"03355","name":"Lüneburg","type":"Landkreis"},"federalState":{"key":"03","name":"Niedersachsen"}},{"name":"Wiesenstr.","postalCode":"21339","locality":"Lüneburg","municipality":{"key":"03355022","name":"Lüneburg, Hansestadt","type":"Stadt"},"district":{"key":"03355","name":"Lüneburg","type":"Landkreis"},"federalState":{"key":"03","name":"Niedersachsen"}},{"name":"Wiesenweg","postalCode":"21337","locality":"Lüneburg","municipality":{"key":"03355022","name":"Lüneburg, Hansestadt","type":"Stadt"},"district":{"key":"03355","name":"Lüneburg","type":"Landkreis"},"federalState":{"key":"03","name":"Niedersachsen"}},{"name":"Wildgraben","postalCode":"21339","locality":"Lüneburg","municipality":{"key":"03355022","name":"Lüneburg, Hansestadt","type":"Stadt"},"district":{"key":"03355","name":"Lüneburg","type":"Landkreis"},"federalState":{"key":"03","name":"Niedersachsen"}},{"name":"Wilhelm-Busch-Weg","postalCode":"21337","locality":"Lüneburg","municipality":{"key":"03355022","name":"Lüneburg, Hansestadt","type":"Stadt"},"district":{"key":"03355","name":"Lüneburg","type":"Landkreis"},"federalState":{"key":"03","name":"Niedersachsen"}},{"name":"Wilhelm-Fressel-Str.","postalCode":"21337","locality":"Lüneburg","municipality":{"key":"03355022","name":"Lüneburg, Hansestadt","type":"Stadt"},"district":{"key":"03355","name":"Lüneburg","type":"Landkreis"},"federalState":{"key":"03","name":"Niedersachsen"}},{"name":"Wilhelm-Hillmer-Str.","postalCode":"21339","locality":"Lüneburg","municipality":{"key":"03355022","name":"Lüneburg, Hansestadt","type":"Stadt"},"district":{"key":"03355","name":"Lüneburg","type":"Landkreis"},"federalState":{"key":"03","name":"Niedersachsen"}},{"name":"Wilhelm-Leuschner-Str.","postalCode":"21337","locality":"Lüneburg","municipality":{"key":"03355022","name":"Lüneburg, Hansestadt","type":"Stadt"},"district":{"key":"03355","name":"Lüneburg","type":"Landkreis"},"federalState":{"key":"03","name":"Niedersachsen"}},{"name":"Wilhelm-Reinecke-Str.","postalCode":"21335","locality":"Lüneburg","municipality":{"key":"03355022","name":"Lüneburg, Hansestadt","type":"Stadt"},"district":{"key":"03355","name":"Lüneburg","type":"Landkreis"},"federalState":{"key":"03","name":"Niedersachsen"}},{"name":"William-Watt-Str.","postalCode":"21339","locality":"Lüneburg","municipality":{"key":"03355022","name":"Lüneburg, Hansestadt","type":"Stadt"},"district":{"key":"03355","name":"Lüneburg","type":"Landkreis"},"federalState":{"key":"03","name":"Niedersachsen"}},{"name":"Willy-Brandt-Str.","postalCode":"21335","locality":"Lüneburg","municipality":{"key":"03355022","name":"Lüneburg, Hansestadt","type":"Stadt"},"district":{"key":"03355","name":"Lüneburg","type":"Landkreis"},"federalState":{"key":"03","name":"Niedersachsen"}},{"name":"Wilschenbrucher Weg","postalCode":"21335","locality":"Lüneburg","municipality":{"key":"03355022","name":"Lüneburg, Hansestadt","type":"Stadt"},"district":{"key":"03355","name":"Lüneburg","type":"Landkreis"},"federalState":{"key":"03","name":"Niedersachsen"}},{"name":"Winkelweg","postalCode":"21335","locality":"Lüneburg","municipality":{"key":"03355022","name":"Lüneburg, Hansestadt","type":"Stadt"},"district":{"key":"03355","name":"Lüneburg","type":"Landkreis"},"federalState":{"key":"03","name":"Niedersachsen"}},{"name":"Wismarer Str.","postalCode":"21337","locality":"Lüneburg","municipality":{"key":"03355022","name":"Lüneburg, Hansestadt","type":"Stadt"},"district":{"key":"03355","name":"Lüneburg","type":"Landkreis"},"federalState":{"key":"03","name":"Niedersachsen"}},{"name":"Wittenkamp","postalCode":"21339","locality":"Lüneburg","municipality":{"key":"03355022","name":"Lüneburg, Hansestadt","type":"Stadt"},"district":{"key":"03355","name":"Lüneburg","type":"Landkreis"},"federalState":{"key":"03","name":"Niedersachsen"}},{"name":"Witzendorffstr.","postalCode":"21339","locality":"Lüneburg","municipality":{"key":"03355022","name":"Lüneburg, Hansestadt","type":"Stadt"},"district":{"key":"03355","name":"Lüneburg","type":"Landkreis"},"federalState":{"key":"03","name":"Niedersachsen"}},{"name":"Wulf-Werum-Str.","postalCode":"21337","locality":"Lüneburg","municipality":{"key":"03355022","name":"Lüneburg, Hansestadt","type":"Stadt"},"district":{"key":"03355","name":"Lüneburg","type":"Landkreis"},"federalState":{"key":"03","name":"Niedersachsen"}},{"name":"Yorckstr.","postalCode":"21335","locality":"Lüneburg","municipality":{"key":"03355022","name":"Lüneburg, Hansestadt","type":"Stadt"},"district":{"key":"03355","name":"Lüneburg","type":"Landkreis"},"federalState":{"key":"03","name":"Niedersachsen"}},{"name":"Zum Bahnhof","postalCode":"21379","locality":"Rullstorf","municipality":{"key":"03355032","name":"Rullstorf","type":"Kreisangehörige_Gemeinde"},"district":{"key":"03355","name":"Lüneburg","type":"Landkreis"},"federalState":{"key":"03","name":"Niedersachsen"}},{"name":"Zum Sauerbach","postalCode":"21379","locality":"Rullstorf","municipality":{"key":"03355032","name":"Rullstorf","type":"Kreisangehörige_Gemeinde"},"district":{"key":"03355","name":"Lüneburg","type":"Landkreis"},"federalState":{"key":"03","name":"Niedersachsen"}},{"name":"Zur Buchholzheide","postalCode":"21379","locality":"Rullstorf","municipality":{"key":"03355032","name":"Rullstorf","type":"Kreisangehörige_Gemeinde"},"district":{"key":"03355","name":"Lüneburg","type":"Landkreis"},"federalState":{"key":"03","name":"Niedersachsen"}},{"name":"Zur Heidkoppel","postalCode":"21379","locality":"Rullstorf","municipality":{"key":"03355032","name":"Rullstorf","type":"Kreisangehörige_Gemeinde"},"district":{"key":"03355","name":"Lüneburg","type":"Landkreis"},"federalState":{"key":"03","name":"Niedersachsen"}},{"name":"Zur Wassermühle","postalCode":"21379","locality":"Rullstorf","municipality":{"key":"03355032","name":"Rullstorf","type":"Kreisangehörige_Gemeinde"},"district":{"key":"03355","name":"Lüneburg","type":"Landkreis"},"federalState":{"key":"03","name":"Niedersachsen"}},]