[{"name":"Ahornweg","postalCode":"54570","locality":"Deudesfeld","municipality":{"key":"07233017","name":"Deudesfeld","type":"Kreisangehörige_Gemeinde"},"district":{"key":"07233","name":"Vulkaneifel","type":"Landkreis"},"federalState":{"key":"07","name":"Rheinland-Pfalz"}},{"name":"Am Lindenborn","postalCode":"54570","locality":"Deudesfeld","municipality":{"key":"07233017","name":"Deudesfeld","type":"Kreisangehörige_Gemeinde"},"district":{"key":"07233","name":"Vulkaneifel","type":"Landkreis"},"federalState":{"key":"07","name":"Rheinland-Pfalz"}},{"name":"Am Spielplatz","postalCode":"54570","locality":"Deudesfeld","municipality":{"key":"07233017","name":"Deudesfeld","type":"Kreisangehörige_Gemeinde"},"district":{"key":"07233","name":"Vulkaneifel","type":"Landkreis"},"federalState":{"key":"07","name":"Rheinland-Pfalz"}},{"name":"Birkenstr.","postalCode":"54570","locality":"Deudesfeld","municipality":{"key":"07233017","name":"Deudesfeld","type":"Kreisangehörige_Gemeinde"},"district":{"key":"07233","name":"Vulkaneifel","type":"Landkreis"},"federalState":{"key":"07","name":"Rheinland-Pfalz"}},{"name":"Blumengasse","postalCode":"54570","locality":"Deudesfeld","municipality":{"key":"07233017","name":"Deudesfeld","type":"Kreisangehörige_Gemeinde"},"district":{"key":"07233","name":"Vulkaneifel","type":"Landkreis"},"federalState":{"key":"07","name":"Rheinland-Pfalz"}},{"name":"Eichenweg","postalCode":"54570","locality":"Deudesfeld","municipality":{"key":"07233017","name":"Deudesfeld","type":"Kreisangehörige_Gemeinde"},"district":{"key":"07233","name":"Vulkaneifel","type":"Landkreis"},"federalState":{"key":"07","name":"Rheinland-Pfalz"}},{"name":"Friedorfer Hof","postalCode":"54570","locality":"Deudesfeld","municipality":{"key":"07233017","name":"Deudesfeld","type":"Kreisangehörige_Gemeinde"},"district":{"key":"07233","name":"Vulkaneifel","type":"Landkreis"},"federalState":{"key":"07","name":"Rheinland-Pfalz"}},{"name":"Gartenstr.","postalCode":"54570","locality":"Deudesfeld","municipality":{"key":"07233017","name":"Deudesfeld","type":"Kreisangehörige_Gemeinde"},"district":{"key":"07233","name":"Vulkaneifel","type":"Landkreis"},"federalState":{"key":"07","name":"Rheinland-Pfalz"}},{"name":"Hauptstr.","postalCode":"54570","locality":"Deudesfeld","municipality":{"key":"07233017","name":"Deudesfeld","type":"Kreisangehörige_Gemeinde"},"district":{"key":"07233","name":"Vulkaneifel","type":"Landkreis"},"federalState":{"key":"07","name":"Rheinland-Pfalz"}},{"name":"Heideweg","postalCode":"54570","locality":"Deudesfeld","municipality":{"key":"07233017","name":"Deudesfeld","type":"Kreisangehörige_Gemeinde"},"district":{"key":"07233","name":"Vulkaneifel","type":"Landkreis"},"federalState":{"key":"07","name":"Rheinland-Pfalz"}},{"name":"Manderscheider Str.","postalCode":"54570","locality":"Deudesfeld","municipality":{"key":"07233017","name":"Deudesfeld","type":"Kreisangehörige_Gemeinde"},"district":{"key":"07233","name":"Vulkaneifel","type":"Landkreis"},"federalState":{"key":"07","name":"Rheinland-Pfalz"}},{"name":"Meerfelder Pfad","postalCode":"54570","locality":"Deudesfeld","municipality":{"key":"07233017","name":"Deudesfeld","type":"Kreisangehörige_Gemeinde"},"district":{"key":"07233","name":"Vulkaneifel","type":"Landkreis"},"federalState":{"key":"07","name":"Rheinland-Pfalz"}},{"name":"Meisburger Str.","postalCode":"54570","locality":"Deudesfeld","municipality":{"key":"07233017","name":"Deudesfeld","type":"Kreisangehörige_Gemeinde"},"district":{"key":"07233","name":"Vulkaneifel","type":"Landkreis"},"federalState":{"key":"07","name":"Rheinland-Pfalz"}},{"name":"Neustr.","postalCode":"54570","locality":"Deudesfeld","municipality":{"key":"07233017","name":"Deudesfeld","type":"Kreisangehörige_Gemeinde"},"district":{"key":"07233","name":"Vulkaneifel","type":"Landkreis"},"federalState":{"key":"07","name":"Rheinland-Pfalz"}},{"name":"Oberkailerweg","postalCode":"54570","locality":"Deudesfeld","municipality":{"key":"07233017","name":"Deudesfeld","type":"Kreisangehörige_Gemeinde"},"district":{"key":"07233","name":"Vulkaneifel","type":"Landkreis"},"federalState":{"key":"07","name":"Rheinland-Pfalz"}},{"name":"Salmtalstr.","postalCode":"54570","locality":"Deudesfeld","municipality":{"key":"07233017","name":"Deudesfeld","type":"Kreisangehörige_Gemeinde"},"district":{"key":"07233","name":"Vulkaneifel","type":"Landkreis"},"federalState":{"key":"07","name":"Rheinland-Pfalz"}},{"name":"Waldweg","postalCode":"54570","locality":"Deudesfeld","municipality":{"key":"07233017","name":"Deudesfeld","type":"Kreisangehörige_Gemeinde"},"district":{"key":"07233","name":"Vulkaneifel","type":"Landkreis"},"federalState":{"key":"07","name":"Rheinland-Pfalz"}},{"name":"Wiesental","postalCode":"54570","locality":"Deudesfeld","municipality":{"key":"07233017","name":"Deudesfeld","type":"Kreisangehörige_Gemeinde"},"district":{"key":"07233","name":"Vulkaneifel","type":"Landkreis"},"federalState":{"key":"07","name":"Rheinland-Pfalz"}},{"name":"Zum Lindenfeld","postalCode":"54570","locality":"Deudesfeld","municipality":{"key":"07233017","name":"Deudesfeld","type":"Kreisangehörige_Gemeinde"},"district":{"key":"07233","name":"Vulkaneifel","type":"Landkreis"},"federalState":{"key":"07","name":"Rheinland-Pfalz"}},]