[{"key":"10022295","name":"Avry-Bourg","postalCode":"1754","locality":"Avry-sur-Matran","commune":{"key":"2174","name":"Avry","shortName":"Avry"},"district":{"key":"1004","name":"District de la Sarine"},"canton":{"key":"10","code":"FR","name":"Fribourg / Freiburg"},"status":"Real"},{"key":"10018266","name":"En Bovigny","postalCode":"1644","locality":"Avry-devant-Pont","commune":{"key":"2122","name":"Pont-en-Ogoz","shortName":"Pont-en-Ogoz"},"district":{"key":"1003","name":"District de la Gruyère"},"canton":{"key":"10","code":"FR","name":"Fribourg / Freiburg"},"status":"Real"},{"key":"10167669","name":"En la Fin","postalCode":"1644","locality":"Avry-devant-Pont","commune":{"key":"2122","name":"Pont-en-Ogoz","shortName":"Pont-en-Ogoz"},"district":{"key":"1003","name":"District de la Gruyère"},"canton":{"key":"10","code":"FR","name":"Fribourg / Freiburg"},"status":"Real"},{"key":"10193693","name":"Impasse de Cheiry","postalCode":"1754","locality":"Avry-sur-Matran","commune":{"key":"2174","name":"Avry","shortName":"Avry"},"district":{"key":"1004","name":"District de la Sarine"},"canton":{"key":"10","code":"FR","name":"Fribourg / Freiburg"},"status":"Real"},{"key":"10087431","name":"Impasse de Courtaney","postalCode":"1754","locality":"Avry-sur-Matran","commune":{"key":"2174","name":"Avry","shortName":"Avry"},"district":{"key":"1004","name":"District de la Sarine"},"canton":{"key":"10","code":"FR","name":"Fribourg / Freiburg"},"status":"Real"},{"key":"10087432","name":"Impasse de la Colline","postalCode":"1754","locality":"Avry-sur-Matran","commune":{"key":"2174","name":"Avry","shortName":"Avry"},"district":{"key":"1004","name":"District de la Sarine"},"canton":{"key":"10","code":"FR","name":"Fribourg / Freiburg"},"status":"Real"},{"key":"10098251","name":"Impasse de la Planchetta","postalCode":"1754","locality":"Avry-sur-Matran","commune":{"key":"2174","name":"Avry","shortName":"Avry"},"district":{"key":"1004","name":"District de la Sarine"},"canton":{"key":"10","code":"FR","name":"Fribourg / Freiburg"},"status":"Real"},{"key":"10159548","name":"Impasse de la Source","postalCode":"1754","locality":"Avry-sur-Matran","commune":{"key":"2174","name":"Avry","shortName":"Avry"},"district":{"key":"1004","name":"District de la Sarine"},"canton":{"key":"10","code":"FR","name":"Fribourg / Freiburg"},"status":"Real"},{"key":"10066542","name":"Impasse de l'Otierdo","postalCode":"1754","locality":"Avry-sur-Matran","commune":{"key":"2174","name":"Avry","shortName":"Avry"},"district":{"key":"1004","name":"District de la Sarine"},"canton":{"key":"10","code":"FR","name":"Fribourg / Freiburg"},"status":"Real"},{"key":"10191735","name":"Impasse des Agges","postalCode":"1754","locality":"Avry-sur-Matran","commune":{"key":"2174","name":"Avry","shortName":"Avry"},"district":{"key":"1004","name":"District de la Sarine"},"canton":{"key":"10","code":"FR","name":"Fribourg / Freiburg"},"status":"Real"},{"key":"10087433","name":"Impasse des Préalpes","postalCode":"1754","locality":"Avry-sur-Matran","commune":{"key":"2174","name":"Avry","shortName":"Avry"},"district":{"key":"1004","name":"District de la Sarine"},"canton":{"key":"10","code":"FR","name":"Fribourg / Freiburg"},"status":"Real"},{"key":"10022296","name":"Impasse du Blanchet","postalCode":"1754","locality":"Avry-sur-Matran","commune":{"key":"2174","name":"Avry","shortName":"Avry"},"district":{"key":"1004","name":"District de la Sarine"},"canton":{"key":"10","code":"FR","name":"Fribourg / Freiburg"},"status":"Real"},{"key":"10176889","name":"Impasse du Bois","postalCode":"1754","locality":"Avry-sur-Matran","commune":{"key":"2174","name":"Avry","shortName":"Avry"},"district":{"key":"1004","name":"District de la Sarine"},"canton":{"key":"10","code":"FR","name":"Fribourg / Freiburg"},"status":"Real"},{"key":"10066543","name":"Impasse du Jura","postalCode":"1754","locality":"Avry-sur-Matran","commune":{"key":"2174","name":"Avry","shortName":"Avry"},"district":{"key":"1004","name":"District de la Sarine"},"canton":{"key":"10","code":"FR","name":"Fribourg / Freiburg"},"status":"Real"},{"key":"10022297","name":"Impasse du Verger","postalCode":"1754","locality":"Avry-sur-Matran","commune":{"key":"2174","name":"Avry","shortName":"Avry"},"district":{"key":"1004","name":"District de la Sarine"},"canton":{"key":"10","code":"FR","name":"Fribourg / Freiburg"},"status":"Real"},{"key":"10253681","name":"La Gissetta","postalCode":"1644","locality":"Avry-devant-Pont","commune":{"key":"2122","name":"Pont-en-Ogoz","shortName":"Pont-en-Ogoz"},"district":{"key":"1003","name":"District de la Gruyère"},"canton":{"key":"10","code":"FR","name":"Fribourg / Freiburg"},"status":"Real"},{"key":"10018269","name":"La Sauge","postalCode":"1644","locality":"Avry-devant-Pont","commune":{"key":"2122","name":"Pont-en-Ogoz","shortName":"Pont-en-Ogoz"},"district":{"key":"1003","name":"District de la Gruyère"},"canton":{"key":"10","code":"FR","name":"Fribourg / Freiburg"},"status":"Real"},{"key":"10018270","name":"Le Bugnon","postalCode":"1644","locality":"Avry-devant-Pont","commune":{"key":"2122","name":"Pont-en-Ogoz","shortName":"Pont-en-Ogoz"},"district":{"key":"1003","name":"District de la Gruyère"},"canton":{"key":"10","code":"FR","name":"Fribourg / Freiburg"},"status":"Real"},{"key":"10067928","name":"Le Châtillon","postalCode":"1644","locality":"Avry-devant-Pont","commune":{"key":"2122","name":"Pont-en-Ogoz","shortName":"Pont-en-Ogoz"},"district":{"key":"1003","name":"District de la Gruyère"},"canton":{"key":"10","code":"FR","name":"Fribourg / Freiburg"},"status":"Real"},{"key":"10170308","name":"Le Restoroute","postalCode":"1644","locality":"Avry-devant-Pont","commune":{"key":"2122","name":"Pont-en-Ogoz","shortName":"Pont-en-Ogoz"},"district":{"key":"1003","name":"District de la Gruyère"},"canton":{"key":"10","code":"FR","name":"Fribourg / Freiburg"},"status":"Real"},{"key":"10167672","name":"Les Coûtes","postalCode":"1644","locality":"Avry-devant-Pont","commune":{"key":"2122","name":"Pont-en-Ogoz","shortName":"Pont-en-Ogoz"},"district":{"key":"1003","name":"District de la Gruyère"},"canton":{"key":"10","code":"FR","name":"Fribourg / Freiburg"},"status":"Real"},{"key":"10067930","name":"Les Planchettes","postalCode":"1644","locality":"Avry-devant-Pont","commune":{"key":"2122","name":"Pont-en-Ogoz","shortName":"Pont-en-Ogoz"},"district":{"key":"1003","name":"District de la Gruyère"},"canton":{"key":"10","code":"FR","name":"Fribourg / Freiburg"},"status":"Real"},{"key":"10088672","name":"Pra d'Amont","postalCode":"1644","locality":"Avry-devant-Pont","commune":{"key":"2122","name":"Pont-en-Ogoz","shortName":"Pont-en-Ogoz"},"district":{"key":"1003","name":"District de la Gruyère"},"canton":{"key":"10","code":"FR","name":"Fribourg / Freiburg"},"status":"Real"},{"key":"10253693","name":"Redon","postalCode":"1644","locality":"Avry-devant-Pont","commune":{"key":"2122","name":"Pont-en-Ogoz","shortName":"Pont-en-Ogoz"},"district":{"key":"1003","name":"District de la Gruyère"},"canton":{"key":"10","code":"FR","name":"Fribourg / Freiburg"},"status":"Real"},{"key":"10012729","name":"Route d'Avry","postalCode":"1644","locality":"Avry-devant-Pont","commune":{"key":"2122","name":"Pont-en-Ogoz","shortName":"Pont-en-Ogoz"},"district":{"key":"1003","name":"District de la Gruyère"},"canton":{"key":"10","code":"FR","name":"Fribourg / Freiburg"},"status":"Real"},{"key":"10139515","name":"Route de Champ-du-Mont","postalCode":"1754","locality":"Avry-sur-Matran","commune":{"key":"2174","name":"Avry","shortName":"Avry"},"district":{"key":"1004","name":"District de la Sarine"},"canton":{"key":"10","code":"FR","name":"Fribourg / Freiburg"},"status":"Real"},{"key":"10022298","name":"Route de Fribourg","postalCode":"1754","locality":"Avry-sur-Matran","commune":{"key":"2174","name":"Avry","shortName":"Avry"},"district":{"key":"1004","name":"District de la Sarine"},"canton":{"key":"10","code":"FR","name":"Fribourg / Freiburg"},"status":"Real"},{"key":"10169649","name":"Route de la Cantine","postalCode":"1644","locality":"Avry-devant-Pont","commune":{"key":"2122","name":"Pont-en-Ogoz","shortName":"Pont-en-Ogoz"},"district":{"key":"1003","name":"District de la Gruyère"},"canton":{"key":"10","code":"FR","name":"Fribourg / Freiburg"},"status":"Real"},{"key":"10022301","name":"Route de la Côte","postalCode":"1754","locality":"Avry-sur-Matran","commune":{"key":"2174","name":"Avry","shortName":"Avry"},"district":{"key":"1004","name":"District de la Sarine"},"canton":{"key":"10","code":"FR","name":"Fribourg / Freiburg"},"status":"Real"},{"key":"10167673","name":"Route de la Gruyère","postalCode":"1644","locality":"Avry-devant-Pont","commune":{"key":"2122","name":"Pont-en-Ogoz","shortName":"Pont-en-Ogoz"},"district":{"key":"1003","name":"District de la Gruyère"},"canton":{"key":"10","code":"FR","name":"Fribourg / Freiburg"},"status":"Real"},{"key":"10022302","name":"Route de la Praly","postalCode":"1754","locality":"Avry-sur-Matran","commune":{"key":"2174","name":"Avry","shortName":"Avry"},"district":{"key":"1004","name":"District de la Sarine"},"canton":{"key":"10","code":"FR","name":"Fribourg / Freiburg"},"status":"Real"},{"key":"10104346","name":"Route de la Riviala","postalCode":"1754","locality":"Avry-sur-Matran","commune":{"key":"2174","name":"Avry","shortName":"Avry"},"district":{"key":"1004","name":"District de la Sarine"},"canton":{"key":"10","code":"FR","name":"Fribourg / Freiburg"},"status":"Real"},{"key":"10161563","name":"Route de la Tour","postalCode":"1644","locality":"Avry-devant-Pont","commune":{"key":"2122","name":"Pont-en-Ogoz","shortName":"Pont-en-Ogoz"},"district":{"key":"1003","name":"District de la Gruyère"},"canton":{"key":"10","code":"FR","name":"Fribourg / Freiburg"},"status":"Real"},{"key":"10169650","name":"Route de l'Eglise","postalCode":"1644","locality":"Avry-devant-Pont","commune":{"key":"2122","name":"Pont-en-Ogoz","shortName":"Pont-en-Ogoz"},"district":{"key":"1003","name":"District de la Gruyère"},"canton":{"key":"10","code":"FR","name":"Fribourg / Freiburg"},"status":"Real"},{"key":"10110351","name":"Route de l'Etrua","postalCode":"1644","locality":"Avry-devant-Pont","commune":{"key":"2122","name":"Pont-en-Ogoz","shortName":"Pont-en-Ogoz"},"district":{"key":"1003","name":"District de la Gruyère"},"canton":{"key":"10","code":"FR","name":"Fribourg / Freiburg"},"status":"Real"},{"key":"10121467","name":"Route de l'Industrie","postalCode":"1754","locality":"Avry-sur-Matran","commune":{"key":"2174","name":"Avry","shortName":"Avry"},"district":{"key":"1004","name":"District de la Sarine"},"canton":{"key":"10","code":"FR","name":"Fribourg / Freiburg"},"status":"Real"},{"key":"10087435","name":"Route de l'Otierdo","postalCode":"1754","locality":"Avry-sur-Matran","commune":{"key":"2174","name":"Avry","shortName":"Avry"},"district":{"key":"1004","name":"District de la Sarine"},"canton":{"key":"10","code":"FR","name":"Fribourg / Freiburg"},"status":"Real"},{"key":"10022299","name":"Route de Matran","postalCode":"1754","locality":"Avry-sur-Matran","commune":{"key":"2174","name":"Avry","shortName":"Avry"},"district":{"key":"1004","name":"District de la Sarine"},"canton":{"key":"10","code":"FR","name":"Fribourg / Freiburg"},"status":"Real"},{"key":"10022300","name":"Route de Pra-Fert","postalCode":"1754","locality":"Avry-sur-Matran","commune":{"key":"2174","name":"Avry","shortName":"Avry"},"district":{"key":"1004","name":"District de la Sarine"},"canton":{"key":"10","code":"FR","name":"Fribourg / Freiburg"},"status":"Real"},{"key":"10068197","name":"Route de Redon","postalCode":"1644","locality":"Avry-devant-Pont","commune":{"key":"2122","name":"Pont-en-Ogoz","shortName":"Pont-en-Ogoz"},"district":{"key":"1003","name":"District de la Gruyère"},"canton":{"key":"10","code":"FR","name":"Fribourg / Freiburg"},"status":"Real"},{"key":"10066544","name":"Route de Rosé","postalCode":"1754","locality":"Avry-sur-Matran","commune":{"key":"2174","name":"Avry","shortName":"Avry"},"district":{"key":"1004","name":"District de la Sarine"},"canton":{"key":"10","code":"FR","name":"Fribourg / Freiburg"},"status":"Real"},{"key":"10138153","name":"Route de Russille","postalCode":"1644","locality":"Avry-devant-Pont","commune":{"key":"2122","name":"Pont-en-Ogoz","shortName":"Pont-en-Ogoz"},"district":{"key":"1003","name":"District de la Gruyère"},"canton":{"key":"10","code":"FR","name":"Fribourg / Freiburg"},"status":"Real"},{"key":"10087434","name":"Route de Seedorf","postalCode":"1754","locality":"Avry-sur-Matran","commune":{"key":"2174","name":"Avry","shortName":"Avry"},"district":{"key":"1004","name":"District de la Sarine"},"canton":{"key":"10","code":"FR","name":"Fribourg / Freiburg"},"status":"Real"},{"key":"10022303","name":"Route des Fontanettes","postalCode":"1754","locality":"Avry-sur-Matran","commune":{"key":"2174","name":"Avry","shortName":"Avry"},"district":{"key":"1004","name":"District de la Sarine"},"canton":{"key":"10","code":"FR","name":"Fribourg / Freiburg"},"status":"Real"},{"key":"10087436","name":"Route des Murailles","postalCode":"1754","locality":"Avry-sur-Matran","commune":{"key":"2174","name":"Avry","shortName":"Avry"},"district":{"key":"1004","name":"District de la Sarine"},"canton":{"key":"10","code":"FR","name":"Fribourg / Freiburg"},"status":"Real"},{"key":"10022304","name":"Route des Tuileries","postalCode":"1754","locality":"Avry-sur-Matran","commune":{"key":"2174","name":"Avry","shortName":"Avry"},"district":{"key":"1004","name":"District de la Sarine"},"canton":{"key":"10","code":"FR","name":"Fribourg / Freiburg"},"status":"Real"},{"key":"10162173","name":"Route de Thusy","postalCode":"1644","locality":"Avry-devant-Pont","commune":{"key":"2122","name":"Pont-en-Ogoz","shortName":"Pont-en-Ogoz"},"district":{"key":"1003","name":"District de la Gruyère"},"canton":{"key":"10","code":"FR","name":"Fribourg / Freiburg"},"status":"Real"},{"key":"10191736","name":"Route du Château","postalCode":"1754","locality":"Avry-sur-Matran","commune":{"key":"2174","name":"Avry","shortName":"Avry"},"district":{"key":"1004","name":"District de la Sarine"},"canton":{"key":"10","code":"FR","name":"Fribourg / Freiburg"},"status":"Real"},{"key":"10087437","name":"Route du Covy","postalCode":"1754","locality":"Avry-sur-Matran","commune":{"key":"2174","name":"Avry","shortName":"Avry"},"district":{"key":"1004","name":"District de la Sarine"},"canton":{"key":"10","code":"FR","name":"Fribourg / Freiburg"},"status":"Real"},{"key":"10022305","name":"Route du Grand-Clos","postalCode":"1754","locality":"Avry-sur-Matran","commune":{"key":"2174","name":"Avry","shortName":"Avry"},"district":{"key":"1004","name":"District de la Sarine"},"canton":{"key":"10","code":"FR","name":"Fribourg / Freiburg"},"status":"Real"},{"key":"10172950","name":"Route du Lac","postalCode":"1644","locality":"Avry-devant-Pont","commune":{"key":"2122","name":"Pont-en-Ogoz","shortName":"Pont-en-Ogoz"},"district":{"key":"1003","name":"District de la Gruyère"},"canton":{"key":"10","code":"FR","name":"Fribourg / Freiburg"},"status":"Real"},{"key":"10162082","name":"Rue Marie-Favre","postalCode":"1754","locality":"Avry-sur-Matran","commune":{"key":"2174","name":"Avry","shortName":"Avry"},"district":{"key":"1004","name":"District de la Sarine"},"canton":{"key":"10","code":"FR","name":"Fribourg / Freiburg"},"status":"Real"},{"key":"10181477","name":"Sous Charmont","postalCode":"1644","locality":"Avry-devant-Pont","commune":{"key":"2122","name":"Pont-en-Ogoz","shortName":"Pont-en-Ogoz"},"district":{"key":"1003","name":"District de la Gruyère"},"canton":{"key":"10","code":"FR","name":"Fribourg / Freiburg"},"status":"Real"},{"key":"10018265","name":"Sur Charmont","postalCode":"1644","locality":"Avry-devant-Pont","commune":{"key":"2122","name":"Pont-en-Ogoz","shortName":"Pont-en-Ogoz"},"district":{"key":"1003","name":"District de la Gruyère"},"canton":{"key":"10","code":"FR","name":"Fribourg / Freiburg"},"status":"Real"},]