[{"name":"Am Sportplatz","postalCode":"67816","locality":"Dreisen","municipality":{"key":"07333017","name":"Dreisen","type":"Kreisangehörige_Gemeinde"},"district":{"key":"07333","name":"Donnersbergkreis","type":"Landkreis"},"federalState":{"key":"07","name":"Rheinland-Pfalz"}},{"name":"Bahnhofstr.","postalCode":"67816","locality":"Dreisen","municipality":{"key":"07333017","name":"Dreisen","type":"Kreisangehörige_Gemeinde"},"district":{"key":"07333","name":"Donnersbergkreis","type":"Landkreis"},"federalState":{"key":"07","name":"Rheinland-Pfalz"}},{"name":"Bannholz","postalCode":"67816","locality":"Dreisen","municipality":{"key":"07333017","name":"Dreisen","type":"Kreisangehörige_Gemeinde"},"district":{"key":"07333","name":"Donnersbergkreis","type":"Landkreis"},"federalState":{"key":"07","name":"Rheinland-Pfalz"}},{"name":"Donnersbergstr.","postalCode":"67816","locality":"Dreisen","municipality":{"key":"07333017","name":"Dreisen","type":"Kreisangehörige_Gemeinde"},"district":{"key":"07333","name":"Donnersbergkreis","type":"Landkreis"},"federalState":{"key":"07","name":"Rheinland-Pfalz"}},{"name":"Goethestr.","postalCode":"67816","locality":"Dreisen","municipality":{"key":"07333017","name":"Dreisen","type":"Kreisangehörige_Gemeinde"},"district":{"key":"07333","name":"Donnersbergkreis","type":"Landkreis"},"federalState":{"key":"07","name":"Rheinland-Pfalz"}},{"name":"Grafschaftsstr.","postalCode":"67816","locality":"Dreisen","municipality":{"key":"07333017","name":"Dreisen","type":"Kreisangehörige_Gemeinde"},"district":{"key":"07333","name":"Donnersbergkreis","type":"Landkreis"},"federalState":{"key":"07","name":"Rheinland-Pfalz"}},{"name":"Haardter Str.","postalCode":"67816","locality":"Dreisen","municipality":{"key":"07333017","name":"Dreisen","type":"Kreisangehörige_Gemeinde"},"district":{"key":"07333","name":"Donnersbergkreis","type":"Landkreis"},"federalState":{"key":"07","name":"Rheinland-Pfalz"}},{"name":"Im Gäßchen","postalCode":"67816","locality":"Dreisen","municipality":{"key":"07333017","name":"Dreisen","type":"Kreisangehörige_Gemeinde"},"district":{"key":"07333","name":"Donnersbergkreis","type":"Landkreis"},"federalState":{"key":"07","name":"Rheinland-Pfalz"}},{"name":"Im Kreuz","postalCode":"67816","locality":"Dreisen","municipality":{"key":"07333017","name":"Dreisen","type":"Kreisangehörige_Gemeinde"},"district":{"key":"07333","name":"Donnersbergkreis","type":"Landkreis"},"federalState":{"key":"07","name":"Rheinland-Pfalz"}},{"name":"Kaiserstr.","postalCode":"67816","locality":"Dreisen","municipality":{"key":"07333017","name":"Dreisen","type":"Kreisangehörige_Gemeinde"},"district":{"key":"07333","name":"Donnersbergkreis","type":"Landkreis"},"federalState":{"key":"07","name":"Rheinland-Pfalz"}},{"name":"Kappesfeldstr.","postalCode":"67816","locality":"Dreisen","municipality":{"key":"07333017","name":"Dreisen","type":"Kreisangehörige_Gemeinde"},"district":{"key":"07333","name":"Donnersbergkreis","type":"Landkreis"},"federalState":{"key":"07","name":"Rheinland-Pfalz"}},{"name":"Lagerhausstr.","postalCode":"67816","locality":"Dreisen","municipality":{"key":"07333017","name":"Dreisen","type":"Kreisangehörige_Gemeinde"},"district":{"key":"07333","name":"Donnersbergkreis","type":"Landkreis"},"federalState":{"key":"07","name":"Rheinland-Pfalz"}},{"name":"Lessingstr.","postalCode":"67816","locality":"Dreisen","municipality":{"key":"07333017","name":"Dreisen","type":"Kreisangehörige_Gemeinde"},"district":{"key":"07333","name":"Donnersbergkreis","type":"Landkreis"},"federalState":{"key":"07","name":"Rheinland-Pfalz"}},{"name":"Mittelstr.","postalCode":"67816","locality":"Dreisen","municipality":{"key":"07333017","name":"Dreisen","type":"Kreisangehörige_Gemeinde"},"district":{"key":"07333","name":"Donnersbergkreis","type":"Landkreis"},"federalState":{"key":"07","name":"Rheinland-Pfalz"}},{"name":"Mühlstr.","postalCode":"67816","locality":"Dreisen","municipality":{"key":"07333017","name":"Dreisen","type":"Kreisangehörige_Gemeinde"},"district":{"key":"07333","name":"Donnersbergkreis","type":"Landkreis"},"federalState":{"key":"07","name":"Rheinland-Pfalz"}},{"name":"Pfrimmstr.","postalCode":"67816","locality":"Dreisen","municipality":{"key":"07333017","name":"Dreisen","type":"Kreisangehörige_Gemeinde"},"district":{"key":"07333","name":"Donnersbergkreis","type":"Landkreis"},"federalState":{"key":"07","name":"Rheinland-Pfalz"}},{"name":"Rathausstr.","postalCode":"67816","locality":"Dreisen","municipality":{"key":"07333017","name":"Dreisen","type":"Kreisangehörige_Gemeinde"},"district":{"key":"07333","name":"Donnersbergkreis","type":"Landkreis"},"federalState":{"key":"07","name":"Rheinland-Pfalz"}},{"name":"Rosenweg","postalCode":"67816","locality":"Dreisen","municipality":{"key":"07333017","name":"Dreisen","type":"Kreisangehörige_Gemeinde"},"district":{"key":"07333","name":"Donnersbergkreis","type":"Landkreis"},"federalState":{"key":"07","name":"Rheinland-Pfalz"}},{"name":"Schillerstr.","postalCode":"67816","locality":"Dreisen","municipality":{"key":"07333017","name":"Dreisen","type":"Kreisangehörige_Gemeinde"},"district":{"key":"07333","name":"Donnersbergkreis","type":"Landkreis"},"federalState":{"key":"07","name":"Rheinland-Pfalz"}},{"name":"Schulstr.","postalCode":"67816","locality":"Dreisen","municipality":{"key":"07333017","name":"Dreisen","type":"Kreisangehörige_Gemeinde"},"district":{"key":"07333","name":"Donnersbergkreis","type":"Landkreis"},"federalState":{"key":"07","name":"Rheinland-Pfalz"}},{"name":"Uhlandstr.","postalCode":"67816","locality":"Dreisen","municipality":{"key":"07333017","name":"Dreisen","type":"Kreisangehörige_Gemeinde"},"district":{"key":"07333","name":"Donnersbergkreis","type":"Landkreis"},"federalState":{"key":"07","name":"Rheinland-Pfalz"}},{"name":"Weitersweiler Str.","postalCode":"67816","locality":"Dreisen","municipality":{"key":"07333017","name":"Dreisen","type":"Kreisangehörige_Gemeinde"},"district":{"key":"07333","name":"Donnersbergkreis","type":"Landkreis"},"federalState":{"key":"07","name":"Rheinland-Pfalz"}},{"name":"Zur Linde","postalCode":"67816","locality":"Dreisen","municipality":{"key":"07333017","name":"Dreisen","type":"Kreisangehörige_Gemeinde"},"district":{"key":"07333","name":"Donnersbergkreis","type":"Landkreis"},"federalState":{"key":"07","name":"Rheinland-Pfalz"}},{"name":"Zur Lochmühle","postalCode":"67816","locality":"Dreisen","municipality":{"key":"07333017","name":"Dreisen","type":"Kreisangehörige_Gemeinde"},"district":{"key":"07333","name":"Donnersbergkreis","type":"Landkreis"},"federalState":{"key":"07","name":"Rheinland-Pfalz"}},]