[{"name":"Alte Eckartshäuser Str.","postalCode":"63546","locality":"Hammersbach","municipality":{"key":"06435013","name":"Hammersbach","type":"Kreisangehörige_Gemeinde"},"district":{"key":"06435","name":"Main-Kinzig-Kreis","type":"Landkreis"},"federalState":{"key":"06","name":"Hessen"}},{"name":"Altwiedermuser Weg","postalCode":"63546","locality":"Hammersbach","municipality":{"key":"06435013","name":"Hammersbach","type":"Kreisangehörige_Gemeinde"},"district":{"key":"06435","name":"Main-Kinzig-Kreis","type":"Landkreis"},"federalState":{"key":"06","name":"Hessen"}},{"name":"Am Alten Friedhof","postalCode":"63546","locality":"Hammersbach","municipality":{"key":"06435013","name":"Hammersbach","type":"Kreisangehörige_Gemeinde"},"district":{"key":"06435","name":"Main-Kinzig-Kreis","type":"Landkreis"},"federalState":{"key":"06","name":"Hessen"}},{"name":"Am Futteracker","postalCode":"63546","locality":"Hammersbach","municipality":{"key":"06435013","name":"Hammersbach","type":"Kreisangehörige_Gemeinde"},"district":{"key":"06435","name":"Main-Kinzig-Kreis","type":"Landkreis"},"federalState":{"key":"06","name":"Hessen"}},{"name":"Am Galgenberg","postalCode":"63546","locality":"Hammersbach","municipality":{"key":"06435013","name":"Hammersbach","type":"Kreisangehörige_Gemeinde"},"district":{"key":"06435","name":"Main-Kinzig-Kreis","type":"Landkreis"},"federalState":{"key":"06","name":"Hessen"}},{"name":"Am Hochgericht","postalCode":"63546","locality":"Hammersbach","municipality":{"key":"06435013","name":"Hammersbach","type":"Kreisangehörige_Gemeinde"},"district":{"key":"06435","name":"Main-Kinzig-Kreis","type":"Landkreis"},"federalState":{"key":"06","name":"Hessen"}},{"name":"Am Katzengraben","postalCode":"63546","locality":"Hammersbach","municipality":{"key":"06435013","name":"Hammersbach","type":"Kreisangehörige_Gemeinde"},"district":{"key":"06435","name":"Main-Kinzig-Kreis","type":"Landkreis"},"federalState":{"key":"06","name":"Hessen"}},{"name":"Am Krebsbach","postalCode":"63546","locality":"Hammersbach","municipality":{"key":"06435013","name":"Hammersbach","type":"Kreisangehörige_Gemeinde"},"district":{"key":"06435","name":"Main-Kinzig-Kreis","type":"Landkreis"},"federalState":{"key":"06","name":"Hessen"}},{"name":"Am Münchgarten","postalCode":"63546","locality":"Hammersbach","municipality":{"key":"06435013","name":"Hammersbach","type":"Kreisangehörige_Gemeinde"},"district":{"key":"06435","name":"Main-Kinzig-Kreis","type":"Landkreis"},"federalState":{"key":"06","name":"Hessen"}},{"name":"Am Nußberg","postalCode":"63546","locality":"Hammersbach","municipality":{"key":"06435013","name":"Hammersbach","type":"Kreisangehörige_Gemeinde"},"district":{"key":"06435","name":"Main-Kinzig-Kreis","type":"Landkreis"},"federalState":{"key":"06","name":"Hessen"}},{"name":"Am Pflanzenrain","postalCode":"63546","locality":"Hammersbach","municipality":{"key":"06435013","name":"Hammersbach","type":"Kreisangehörige_Gemeinde"},"district":{"key":"06435","name":"Main-Kinzig-Kreis","type":"Landkreis"},"federalState":{"key":"06","name":"Hessen"}},{"name":"Am Rathaus","postalCode":"63546","locality":"Hammersbach","municipality":{"key":"06435013","name":"Hammersbach","type":"Kreisangehörige_Gemeinde"},"district":{"key":"06435","name":"Main-Kinzig-Kreis","type":"Landkreis"},"federalState":{"key":"06","name":"Hessen"}},{"name":"Am Schulzehnten","postalCode":"63546","locality":"Hammersbach","municipality":{"key":"06435013","name":"Hammersbach","type":"Kreisangehörige_Gemeinde"},"district":{"key":"06435","name":"Main-Kinzig-Kreis","type":"Landkreis"},"federalState":{"key":"06","name":"Hessen"}},{"name":"Am Seedamm","postalCode":"63546","locality":"Hammersbach","municipality":{"key":"06435013","name":"Hammersbach","type":"Kreisangehörige_Gemeinde"},"district":{"key":"06435","name":"Main-Kinzig-Kreis","type":"Landkreis"},"federalState":{"key":"06","name":"Hessen"}},{"name":"Am Steinhaus","postalCode":"63546","locality":"Hammersbach","municipality":{"key":"06435013","name":"Hammersbach","type":"Kreisangehörige_Gemeinde"},"district":{"key":"06435","name":"Main-Kinzig-Kreis","type":"Landkreis"},"federalState":{"key":"06","name":"Hessen"}},{"name":"Am Storchsborn","postalCode":"63546","locality":"Hammersbach","municipality":{"key":"06435013","name":"Hammersbach","type":"Kreisangehörige_Gemeinde"},"district":{"key":"06435","name":"Main-Kinzig-Kreis","type":"Landkreis"},"federalState":{"key":"06","name":"Hessen"}},{"name":"Am Untertor","postalCode":"63546","locality":"Hammersbach","municipality":{"key":"06435013","name":"Hammersbach","type":"Kreisangehörige_Gemeinde"},"district":{"key":"06435","name":"Main-Kinzig-Kreis","type":"Landkreis"},"federalState":{"key":"06","name":"Hessen"}},{"name":"An der Schafwiese","postalCode":"63546","locality":"Hammersbach","municipality":{"key":"06435013","name":"Hammersbach","type":"Kreisangehörige_Gemeinde"},"district":{"key":"06435","name":"Main-Kinzig-Kreis","type":"Landkreis"},"federalState":{"key":"06","name":"Hessen"}},{"name":"Auf dem alten Hof","postalCode":"63546","locality":"Hammersbach","municipality":{"key":"06435013","name":"Hammersbach","type":"Kreisangehörige_Gemeinde"},"district":{"key":"06435","name":"Main-Kinzig-Kreis","type":"Landkreis"},"federalState":{"key":"06","name":"Hessen"}},{"name":"Berliner Str.","postalCode":"63546","locality":"Hammersbach","municipality":{"key":"06435013","name":"Hammersbach","type":"Kreisangehörige_Gemeinde"},"district":{"key":"06435","name":"Main-Kinzig-Kreis","type":"Landkreis"},"federalState":{"key":"06","name":"Hessen"}},{"name":"Borngasse","postalCode":"63546","locality":"Hammersbach","municipality":{"key":"06435013","name":"Hammersbach","type":"Kreisangehörige_Gemeinde"},"district":{"key":"06435","name":"Main-Kinzig-Kreis","type":"Landkreis"},"federalState":{"key":"06","name":"Hessen"}},{"name":"Büdinger Str.","postalCode":"63546","locality":"Hammersbach","municipality":{"key":"06435013","name":"Hammersbach","type":"Kreisangehörige_Gemeinde"},"district":{"key":"06435","name":"Main-Kinzig-Kreis","type":"Landkreis"},"federalState":{"key":"06","name":"Hessen"}},{"name":"Burgstr.","postalCode":"63546","locality":"Hammersbach","municipality":{"key":"06435013","name":"Hammersbach","type":"Kreisangehörige_Gemeinde"},"district":{"key":"06435","name":"Main-Kinzig-Kreis","type":"Landkreis"},"federalState":{"key":"06","name":"Hessen"}},{"name":"Castellstr.","postalCode":"63546","locality":"Hammersbach","municipality":{"key":"06435013","name":"Hammersbach","type":"Kreisangehörige_Gemeinde"},"district":{"key":"06435","name":"Main-Kinzig-Kreis","type":"Landkreis"},"federalState":{"key":"06","name":"Hessen"}},{"name":"Erbsenstr.","postalCode":"63546","locality":"Hammersbach","municipality":{"key":"06435013","name":"Hammersbach","type":"Kreisangehörige_Gemeinde"},"district":{"key":"06435","name":"Main-Kinzig-Kreis","type":"Landkreis"},"federalState":{"key":"06","name":"Hessen"}},{"name":"Feldstr.","postalCode":"63546","locality":"Hammersbach","municipality":{"key":"06435013","name":"Hammersbach","type":"Kreisangehörige_Gemeinde"},"district":{"key":"06435","name":"Main-Kinzig-Kreis","type":"Landkreis"},"federalState":{"key":"06","name":"Hessen"}},{"name":"Frankfurter Str.","postalCode":"63546","locality":"Hammersbach","municipality":{"key":"06435013","name":"Hammersbach","type":"Kreisangehörige_Gemeinde"},"district":{"key":"06435","name":"Main-Kinzig-Kreis","type":"Landkreis"},"federalState":{"key":"06","name":"Hessen"}},{"name":"Friedhofstr.","postalCode":"63546","locality":"Hammersbach","municipality":{"key":"06435013","name":"Hammersbach","type":"Kreisangehörige_Gemeinde"},"district":{"key":"06435","name":"Main-Kinzig-Kreis","type":"Landkreis"},"federalState":{"key":"06","name":"Hessen"}},{"name":"Gartenstr.","postalCode":"63546","locality":"Hammersbach","municipality":{"key":"06435013","name":"Hammersbach","type":"Kreisangehörige_Gemeinde"},"district":{"key":"06435","name":"Main-Kinzig-Kreis","type":"Landkreis"},"federalState":{"key":"06","name":"Hessen"}},{"name":"Glockengasse","postalCode":"63546","locality":"Hammersbach","municipality":{"key":"06435013","name":"Hammersbach","type":"Kreisangehörige_Gemeinde"},"district":{"key":"06435","name":"Main-Kinzig-Kreis","type":"Landkreis"},"federalState":{"key":"06","name":"Hessen"}},{"name":"Goldbergstr.","postalCode":"63546","locality":"Hammersbach","municipality":{"key":"06435013","name":"Hammersbach","type":"Kreisangehörige_Gemeinde"},"district":{"key":"06435","name":"Main-Kinzig-Kreis","type":"Landkreis"},"federalState":{"key":"06","name":"Hessen"}},{"name":"Hainstr.","postalCode":"63546","locality":"Hammersbach","municipality":{"key":"06435013","name":"Hammersbach","type":"Kreisangehörige_Gemeinde"},"district":{"key":"06435","name":"Main-Kinzig-Kreis","type":"Landkreis"},"federalState":{"key":"06","name":"Hessen"}},{"name":"Hanauer Str.","postalCode":"63546","locality":"Hammersbach","municipality":{"key":"06435013","name":"Hammersbach","type":"Kreisangehörige_Gemeinde"},"district":{"key":"06435","name":"Main-Kinzig-Kreis","type":"Landkreis"},"federalState":{"key":"06","name":"Hessen"}},{"name":"Hauptstr.","postalCode":"63546","locality":"Hammersbach","municipality":{"key":"06435013","name":"Hammersbach","type":"Kreisangehörige_Gemeinde"},"district":{"key":"06435","name":"Main-Kinzig-Kreis","type":"Landkreis"},"federalState":{"key":"06","name":"Hessen"}},{"name":"Himbacher Weg","postalCode":"63546","locality":"Hammersbach","municipality":{"key":"06435013","name":"Hammersbach","type":"Kreisangehörige_Gemeinde"},"district":{"key":"06435","name":"Main-Kinzig-Kreis","type":"Landkreis"},"federalState":{"key":"06","name":"Hessen"}},{"name":"Hintergasse","postalCode":"63546","locality":"Hammersbach","municipality":{"key":"06435013","name":"Hammersbach","type":"Kreisangehörige_Gemeinde"},"district":{"key":"06435","name":"Main-Kinzig-Kreis","type":"Landkreis"},"federalState":{"key":"06","name":"Hessen"}},{"name":"Hirzbach","postalCode":"63546","locality":"Hammersbach","municipality":{"key":"06435013","name":"Hammersbach","type":"Kreisangehörige_Gemeinde"},"district":{"key":"06435","name":"Main-Kinzig-Kreis","type":"Landkreis"},"federalState":{"key":"06","name":"Hessen"}},{"name":"Hohe Str.","postalCode":"63546","locality":"Hammersbach","municipality":{"key":"06435013","name":"Hammersbach","type":"Kreisangehörige_Gemeinde"},"district":{"key":"06435","name":"Main-Kinzig-Kreis","type":"Landkreis"},"federalState":{"key":"06","name":"Hessen"}},{"name":"Hüttengesäßer Str.","postalCode":"63546","locality":"Hammersbach","municipality":{"key":"06435013","name":"Hammersbach","type":"Kreisangehörige_Gemeinde"},"district":{"key":"06435","name":"Main-Kinzig-Kreis","type":"Landkreis"},"federalState":{"key":"06","name":"Hessen"}},{"name":"Im Borngarten","postalCode":"63546","locality":"Hammersbach","municipality":{"key":"06435013","name":"Hammersbach","type":"Kreisangehörige_Gemeinde"},"district":{"key":"06435","name":"Main-Kinzig-Kreis","type":"Landkreis"},"federalState":{"key":"06","name":"Hessen"}},{"name":"Im Neuen Berg","postalCode":"63546","locality":"Hammersbach","municipality":{"key":"06435013","name":"Hammersbach","type":"Kreisangehörige_Gemeinde"},"district":{"key":"06435","name":"Main-Kinzig-Kreis","type":"Landkreis"},"federalState":{"key":"06","name":"Hessen"}},{"name":"In den Gräben","postalCode":"63546","locality":"Hammersbach","municipality":{"key":"06435013","name":"Hammersbach","type":"Kreisangehörige_Gemeinde"},"district":{"key":"06435","name":"Main-Kinzig-Kreis","type":"Landkreis"},"federalState":{"key":"06","name":"Hessen"}},{"name":"In der Ecke","postalCode":"63546","locality":"Hammersbach","municipality":{"key":"06435013","name":"Hammersbach","type":"Kreisangehörige_Gemeinde"},"district":{"key":"06435","name":"Main-Kinzig-Kreis","type":"Landkreis"},"federalState":{"key":"06","name":"Hessen"}},{"name":"In der Röthe","postalCode":"63546","locality":"Hammersbach","municipality":{"key":"06435013","name":"Hammersbach","type":"Kreisangehörige_Gemeinde"},"district":{"key":"06435","name":"Main-Kinzig-Kreis","type":"Landkreis"},"federalState":{"key":"06","name":"Hessen"}},{"name":"Katzbach","postalCode":"63546","locality":"Hammersbach","municipality":{"key":"06435013","name":"Hammersbach","type":"Kreisangehörige_Gemeinde"},"district":{"key":"06435","name":"Main-Kinzig-Kreis","type":"Landkreis"},"federalState":{"key":"06","name":"Hessen"}},{"name":"Kirchplatz","postalCode":"63546","locality":"Hammersbach","municipality":{"key":"06435013","name":"Hammersbach","type":"Kreisangehörige_Gemeinde"},"district":{"key":"06435","name":"Main-Kinzig-Kreis","type":"Landkreis"},"federalState":{"key":"06","name":"Hessen"}},{"name":"Kirchstr.","postalCode":"63546","locality":"Hammersbach","municipality":{"key":"06435013","name":"Hammersbach","type":"Kreisangehörige_Gemeinde"},"district":{"key":"06435","name":"Main-Kinzig-Kreis","type":"Landkreis"},"federalState":{"key":"06","name":"Hessen"}},{"name":"Köbler Weg","postalCode":"63546","locality":"Hammersbach","municipality":{"key":"06435013","name":"Hammersbach","type":"Kreisangehörige_Gemeinde"},"district":{"key":"06435","name":"Main-Kinzig-Kreis","type":"Landkreis"},"federalState":{"key":"06","name":"Hessen"}},{"name":"Langenbergheimer Str.","postalCode":"63546","locality":"Hammersbach","municipality":{"key":"06435013","name":"Hammersbach","type":"Kreisangehörige_Gemeinde"},"district":{"key":"06435","name":"Main-Kinzig-Kreis","type":"Landkreis"},"federalState":{"key":"06","name":"Hessen"}},{"name":"Langgasse","postalCode":"63546","locality":"Hammersbach","municipality":{"key":"06435013","name":"Hammersbach","type":"Kreisangehörige_Gemeinde"},"district":{"key":"06435","name":"Main-Kinzig-Kreis","type":"Landkreis"},"federalState":{"key":"06","name":"Hessen"}},{"name":"Limesstr.","postalCode":"63546","locality":"Hammersbach","municipality":{"key":"06435013","name":"Hammersbach","type":"Kreisangehörige_Gemeinde"},"district":{"key":"06435","name":"Main-Kinzig-Kreis","type":"Landkreis"},"federalState":{"key":"06","name":"Hessen"}},{"name":"Lindenstr.","postalCode":"63546","locality":"Hammersbach","municipality":{"key":"06435013","name":"Hammersbach","type":"Kreisangehörige_Gemeinde"},"district":{"key":"06435","name":"Main-Kinzig-Kreis","type":"Landkreis"},"federalState":{"key":"06","name":"Hessen"}},{"name":"Marienborner Weg","postalCode":"63546","locality":"Hammersbach","municipality":{"key":"06435013","name":"Hammersbach","type":"Kreisangehörige_Gemeinde"},"district":{"key":"06435","name":"Main-Kinzig-Kreis","type":"Landkreis"},"federalState":{"key":"06","name":"Hessen"}},{"name":"Marköbeler Str.","postalCode":"63546","locality":"Hammersbach","municipality":{"key":"06435013","name":"Hammersbach","type":"Kreisangehörige_Gemeinde"},"district":{"key":"06435","name":"Main-Kinzig-Kreis","type":"Landkreis"},"federalState":{"key":"06","name":"Hessen"}},{"name":"Mittelstr.","postalCode":"63546","locality":"Hammersbach","municipality":{"key":"06435013","name":"Hammersbach","type":"Kreisangehörige_Gemeinde"},"district":{"key":"06435","name":"Main-Kinzig-Kreis","type":"Landkreis"},"federalState":{"key":"06","name":"Hessen"}},{"name":"Mühlbachstr.","postalCode":"63546","locality":"Hammersbach","municipality":{"key":"06435013","name":"Hammersbach","type":"Kreisangehörige_Gemeinde"},"district":{"key":"06435","name":"Main-Kinzig-Kreis","type":"Landkreis"},"federalState":{"key":"06","name":"Hessen"}},{"name":"Nordstr.","postalCode":"63546","locality":"Hammersbach","municipality":{"key":"06435013","name":"Hammersbach","type":"Kreisangehörige_Gemeinde"},"district":{"key":"06435","name":"Main-Kinzig-Kreis","type":"Landkreis"},"federalState":{"key":"06","name":"Hessen"}},{"name":"Obergasse","postalCode":"63546","locality":"Hammersbach","municipality":{"key":"06435013","name":"Hammersbach","type":"Kreisangehörige_Gemeinde"},"district":{"key":"06435","name":"Main-Kinzig-Kreis","type":"Landkreis"},"federalState":{"key":"06","name":"Hessen"}},{"name":"Odenwaldstr.","postalCode":"63546","locality":"Hammersbach","municipality":{"key":"06435013","name":"Hammersbach","type":"Kreisangehörige_Gemeinde"},"district":{"key":"06435","name":"Main-Kinzig-Kreis","type":"Landkreis"},"federalState":{"key":"06","name":"Hessen"}},{"name":"Rausche-Hain-Weg","postalCode":"63546","locality":"Hammersbach","municipality":{"key":"06435013","name":"Hammersbach","type":"Kreisangehörige_Gemeinde"},"district":{"key":"06435","name":"Main-Kinzig-Kreis","type":"Landkreis"},"federalState":{"key":"06","name":"Hessen"}},{"name":"Rhönstr.","postalCode":"63546","locality":"Hammersbach","municipality":{"key":"06435013","name":"Hammersbach","type":"Kreisangehörige_Gemeinde"},"district":{"key":"06435","name":"Main-Kinzig-Kreis","type":"Landkreis"},"federalState":{"key":"06","name":"Hessen"}},{"name":"Ringstr.","postalCode":"63546","locality":"Hammersbach","municipality":{"key":"06435013","name":"Hammersbach","type":"Kreisangehörige_Gemeinde"},"district":{"key":"06435","name":"Main-Kinzig-Kreis","type":"Landkreis"},"federalState":{"key":"06","name":"Hessen"}},{"name":"Römerstr.","postalCode":"63546","locality":"Hammersbach","municipality":{"key":"06435013","name":"Hammersbach","type":"Kreisangehörige_Gemeinde"},"district":{"key":"06435","name":"Main-Kinzig-Kreis","type":"Landkreis"},"federalState":{"key":"06","name":"Hessen"}},{"name":"Ronneburgstr.","postalCode":"63546","locality":"Hammersbach","municipality":{"key":"06435013","name":"Hammersbach","type":"Kreisangehörige_Gemeinde"},"district":{"key":"06435","name":"Main-Kinzig-Kreis","type":"Landkreis"},"federalState":{"key":"06","name":"Hessen"}},{"name":"Roßdorfer Str.","postalCode":"63546","locality":"Hammersbach","municipality":{"key":"06435013","name":"Hammersbach","type":"Kreisangehörige_Gemeinde"},"district":{"key":"06435","name":"Main-Kinzig-Kreis","type":"Landkreis"},"federalState":{"key":"06","name":"Hessen"}},{"name":"Rüdigheimer Str.","postalCode":"63546","locality":"Hammersbach","municipality":{"key":"06435013","name":"Hammersbach","type":"Kreisangehörige_Gemeinde"},"district":{"key":"06435","name":"Main-Kinzig-Kreis","type":"Landkreis"},"federalState":{"key":"06","name":"Hessen"}},{"name":"Sackgasse","postalCode":"63546","locality":"Hammersbach","municipality":{"key":"06435013","name":"Hammersbach","type":"Kreisangehörige_Gemeinde"},"district":{"key":"06435","name":"Main-Kinzig-Kreis","type":"Landkreis"},"federalState":{"key":"06","name":"Hessen"}},{"name":"Schäfergasse","postalCode":"63546","locality":"Hammersbach","municipality":{"key":"06435013","name":"Hammersbach","type":"Kreisangehörige_Gemeinde"},"district":{"key":"06435","name":"Main-Kinzig-Kreis","type":"Landkreis"},"federalState":{"key":"06","name":"Hessen"}},{"name":"Spessartstr.","postalCode":"63546","locality":"Hammersbach","municipality":{"key":"06435013","name":"Hammersbach","type":"Kreisangehörige_Gemeinde"},"district":{"key":"06435","name":"Main-Kinzig-Kreis","type":"Landkreis"},"federalState":{"key":"06","name":"Hessen"}},{"name":"Taunusstr.","postalCode":"63546","locality":"Hammersbach","municipality":{"key":"06435013","name":"Hammersbach","type":"Kreisangehörige_Gemeinde"},"district":{"key":"06435","name":"Main-Kinzig-Kreis","type":"Landkreis"},"federalState":{"key":"06","name":"Hessen"}},{"name":"Unter den Weingärten","postalCode":"63546","locality":"Hammersbach","municipality":{"key":"06435013","name":"Hammersbach","type":"Kreisangehörige_Gemeinde"},"district":{"key":"06435","name":"Main-Kinzig-Kreis","type":"Landkreis"},"federalState":{"key":"06","name":"Hessen"}},{"name":"Urnenstr.","postalCode":"63546","locality":"Hammersbach","municipality":{"key":"06435013","name":"Hammersbach","type":"Kreisangehörige_Gemeinde"},"district":{"key":"06435","name":"Main-Kinzig-Kreis","type":"Landkreis"},"federalState":{"key":"06","name":"Hessen"}},{"name":"Vogelsbergstr.","postalCode":"63546","locality":"Hammersbach","municipality":{"key":"06435013","name":"Hammersbach","type":"Kreisangehörige_Gemeinde"},"district":{"key":"06435","name":"Main-Kinzig-Kreis","type":"Landkreis"},"federalState":{"key":"06","name":"Hessen"}},{"name":"Waldstr.","postalCode":"63546","locality":"Hammersbach","municipality":{"key":"06435013","name":"Hammersbach","type":"Kreisangehörige_Gemeinde"},"district":{"key":"06435","name":"Main-Kinzig-Kreis","type":"Landkreis"},"federalState":{"key":"06","name":"Hessen"}},{"name":"Wechmarer Ring","postalCode":"63546","locality":"Hammersbach","municipality":{"key":"06435013","name":"Hammersbach","type":"Kreisangehörige_Gemeinde"},"district":{"key":"06435","name":"Main-Kinzig-Kreis","type":"Landkreis"},"federalState":{"key":"06","name":"Hessen"}},{"name":"Weinbergstr.","postalCode":"63546","locality":"Hammersbach","municipality":{"key":"06435013","name":"Hammersbach","type":"Kreisangehörige_Gemeinde"},"district":{"key":"06435","name":"Main-Kinzig-Kreis","type":"Landkreis"},"federalState":{"key":"06","name":"Hessen"}},{"name":"Wiesenstr.","postalCode":"63546","locality":"Hammersbach","municipality":{"key":"06435013","name":"Hammersbach","type":"Kreisangehörige_Gemeinde"},"district":{"key":"06435","name":"Main-Kinzig-Kreis","type":"Landkreis"},"federalState":{"key":"06","name":"Hessen"}},{"name":"Wingertstr.","postalCode":"63546","locality":"Hammersbach","municipality":{"key":"06435013","name":"Hammersbach","type":"Kreisangehörige_Gemeinde"},"district":{"key":"06435","name":"Main-Kinzig-Kreis","type":"Landkreis"},"federalState":{"key":"06","name":"Hessen"}},{"name":"Zur Dammbrücke","postalCode":"63546","locality":"Hammersbach","municipality":{"key":"06435013","name":"Hammersbach","type":"Kreisangehörige_Gemeinde"},"district":{"key":"06435","name":"Main-Kinzig-Kreis","type":"Landkreis"},"federalState":{"key":"06","name":"Hessen"}},{"name":"Zur Elschwiese","postalCode":"63546","locality":"Hammersbach","municipality":{"key":"06435013","name":"Hammersbach","type":"Kreisangehörige_Gemeinde"},"district":{"key":"06435","name":"Main-Kinzig-Kreis","type":"Landkreis"},"federalState":{"key":"06","name":"Hessen"}},]