[{"key":"10239121","name":"A1","postalCode":"5034","locality":"Suhr","commune":{"key":"4012","name":"Suhr","shortName":"Suhr"},"district":{"key":"1901","name":"Bezirk Aarau"},"canton":{"key":"19","code":"AG","name":"Aargau"},"status":"Real"},{"key":"10239793","name":"Aaretalstrasse","postalCode":"5034","locality":"Suhr","commune":{"key":"4012","name":"Suhr","shortName":"Suhr"},"district":{"key":"1901","name":"Bezirk Aarau"},"canton":{"key":"19","code":"AG","name":"Aargau"},"status":"Real"},{"key":"10036051","name":"Ahornweg","postalCode":"5034","locality":"Suhr","commune":{"key":"4012","name":"Suhr","shortName":"Suhr"},"district":{"key":"1901","name":"Bezirk Aarau"},"canton":{"key":"19","code":"AG","name":"Aargau"},"status":"Real"},{"key":"10092879","name":"Allmendweg","postalCode":"5034","locality":"Suhr","commune":{"key":"4012","name":"Suhr","shortName":"Suhr"},"district":{"key":"1901","name":"Bezirk Aarau"},"canton":{"key":"19","code":"AG","name":"Aargau"},"status":"Real"},{"key":"10036052","name":"Alte Gasse","postalCode":"5034","locality":"Suhr","commune":{"key":"4012","name":"Suhr","shortName":"Suhr"},"district":{"key":"1901","name":"Bezirk Aarau"},"canton":{"key":"19","code":"AG","name":"Aargau"},"status":"Real"},{"key":"10180828","name":"Alter Badiweg","postalCode":"5034","locality":"Suhr","commune":{"key":"4012","name":"Suhr","shortName":"Suhr"},"district":{"key":"1901","name":"Bezirk Aarau"},"canton":{"key":"19","code":"AG","name":"Aargau"},"status":"Real"},{"key":"10155863","name":"Alter Kirchweg","postalCode":"5034","locality":"Suhr","commune":{"key":"4012","name":"Suhr","shortName":"Suhr"},"district":{"key":"1901","name":"Bezirk Aarau"},"canton":{"key":"19","code":"AG","name":"Aargau"},"status":"Real"},{"key":"10238869","name":"Alter Postweg","postalCode":"5034","locality":"Suhr","commune":{"key":"4012","name":"Suhr","shortName":"Suhr"},"district":{"key":"1901","name":"Bezirk Aarau"},"canton":{"key":"19","code":"AG","name":"Aargau"},"status":"Real"},{"key":"10070291","name":"Alter Salzhofweg","postalCode":"5034","locality":"Suhr","commune":{"key":"4012","name":"Suhr","shortName":"Suhr"},"district":{"key":"1901","name":"Bezirk Aarau"},"canton":{"key":"19","code":"AG","name":"Aargau"},"status":"Real"},{"key":"10036053","name":"Amselweg","postalCode":"5034","locality":"Suhr","commune":{"key":"4012","name":"Suhr","shortName":"Suhr"},"district":{"key":"1901","name":"Bezirk Aarau"},"canton":{"key":"19","code":"AG","name":"Aargau"},"status":"Real"},{"key":"10092880","name":"Anna Heer Strasse","postalCode":"5034","locality":"Suhr","commune":{"key":"4012","name":"Suhr","shortName":"Suhr"},"district":{"key":"1901","name":"Bezirk Aarau"},"canton":{"key":"19","code":"AG","name":"Aargau"},"status":"Real"},{"key":"10036054","name":"Apfelweg","postalCode":"5034","locality":"Suhr","commune":{"key":"4012","name":"Suhr","shortName":"Suhr"},"district":{"key":"1901","name":"Bezirk Aarau"},"canton":{"key":"19","code":"AG","name":"Aargau"},"status":"Real"},{"key":"10036055","name":"Augustinergasse","postalCode":"5034","locality":"Suhr","commune":{"key":"4012","name":"Suhr","shortName":"Suhr"},"district":{"key":"1901","name":"Bezirk Aarau"},"canton":{"key":"19","code":"AG","name":"Aargau"},"status":"Real"},{"key":"10112754","name":"Auweg","postalCode":"5034","locality":"Suhr","commune":{"key":"4012","name":"Suhr","shortName":"Suhr"},"district":{"key":"1901","name":"Bezirk Aarau"},"canton":{"key":"19","code":"AG","name":"Aargau"},"status":"Real"},{"key":"10105603","name":"Bachstrasse","postalCode":"5034","locality":"Suhr","commune":{"key":"4012","name":"Suhr","shortName":"Suhr"},"district":{"key":"1901","name":"Bezirk Aarau"},"canton":{"key":"19","code":"AG","name":"Aargau"},"status":"Real"},{"key":"10117238","name":"Bahnhofstrasse","postalCode":"5034","locality":"Suhr","commune":{"key":"4012","name":"Suhr","shortName":"Suhr"},"district":{"key":"1901","name":"Bezirk Aarau"},"canton":{"key":"19","code":"AG","name":"Aargau"},"status":"Real"},{"key":"10102204","name":"Bärenmattezentrum","postalCode":"5034","locality":"Suhr","commune":{"key":"4012","name":"Suhr","shortName":"Suhr"},"district":{"key":"1901","name":"Bezirk Aarau"},"canton":{"key":"19","code":"AG","name":"Aargau"},"status":"Real"},{"key":"10117400","name":"Belchenweg","postalCode":"5034","locality":"Suhr","commune":{"key":"4012","name":"Suhr","shortName":"Suhr"},"district":{"key":"1901","name":"Bezirk Aarau"},"canton":{"key":"19","code":"AG","name":"Aargau"},"status":"Real"},{"key":"10036056","name":"Bernstrasse Ost","postalCode":"5034","locality":"Suhr","commune":{"key":"4012","name":"Suhr","shortName":"Suhr"},"district":{"key":"1901","name":"Bezirk Aarau"},"canton":{"key":"19","code":"AG","name":"Aargau"},"status":"Real"},{"key":"10092881","name":"Bernstrasse West","postalCode":"5034","locality":"Suhr","commune":{"key":"4012","name":"Suhr","shortName":"Suhr"},"district":{"key":"1901","name":"Bezirk Aarau"},"canton":{"key":"19","code":"AG","name":"Aargau"},"status":"Real"},{"key":"10051147","name":"Beroweg","postalCode":"5034","locality":"Suhr","commune":{"key":"4012","name":"Suhr","shortName":"Suhr"},"district":{"key":"1901","name":"Bezirk Aarau"},"canton":{"key":"19","code":"AG","name":"Aargau"},"status":"Real"},{"key":"10191507","name":"Birkenweg","postalCode":"5034","locality":"Suhr","commune":{"key":"4012","name":"Suhr","shortName":"Suhr"},"district":{"key":"1901","name":"Bezirk Aarau"},"canton":{"key":"19","code":"AG","name":"Aargau"},"status":"Real"},{"key":"10036057","name":"Birnenweg","postalCode":"5034","locality":"Suhr","commune":{"key":"4012","name":"Suhr","shortName":"Suhr"},"district":{"key":"1901","name":"Bezirk Aarau"},"canton":{"key":"19","code":"AG","name":"Aargau"},"status":"Real"},{"key":"10051148","name":"Blumenweg","postalCode":"5034","locality":"Suhr","commune":{"key":"4012","name":"Suhr","shortName":"Suhr"},"district":{"key":"1901","name":"Bezirk Aarau"},"canton":{"key":"19","code":"AG","name":"Aargau"},"status":"Real"},{"key":"10036058","name":"Brestenegg","postalCode":"5034","locality":"Suhr","commune":{"key":"4012","name":"Suhr","shortName":"Suhr"},"district":{"key":"1901","name":"Bezirk Aarau"},"canton":{"key":"19","code":"AG","name":"Aargau"},"status":"Real"},{"key":"10180829","name":"Brügglifeldweg","postalCode":"5034","locality":"Suhr","commune":{"key":"4012","name":"Suhr","shortName":"Suhr"},"district":{"key":"1901","name":"Bezirk Aarau"},"canton":{"key":"19","code":"AG","name":"Aargau"},"status":"Real"},{"key":"10036059","name":"Buchenweg","postalCode":"5034","locality":"Suhr","commune":{"key":"4012","name":"Suhr","shortName":"Suhr"},"district":{"key":"1901","name":"Bezirk Aarau"},"canton":{"key":"19","code":"AG","name":"Aargau"},"status":"Real"},{"key":"10186829","name":"Buchsermarchweg","postalCode":"5034","locality":"Suhr","commune":{"key":"4012","name":"Suhr","shortName":"Suhr"},"district":{"key":"1901","name":"Bezirk Aarau"},"canton":{"key":"19","code":"AG","name":"Aargau"},"status":"Real"},{"key":"10070292","name":"Buchserstrasse","postalCode":"5034","locality":"Suhr","commune":{"key":"4012","name":"Suhr","shortName":"Suhr"},"district":{"key":"1901","name":"Bezirk Aarau"},"canton":{"key":"19","code":"AG","name":"Aargau"},"status":"Real"},{"key":"10092882","name":"Buhaldeweg","postalCode":"5034","locality":"Suhr","commune":{"key":"4012","name":"Suhr","shortName":"Suhr"},"district":{"key":"1901","name":"Bezirk Aarau"},"canton":{"key":"19","code":"AG","name":"Aargau"},"status":"Real"},{"key":"10070293","name":"Bündtenweg","postalCode":"5034","locality":"Suhr","commune":{"key":"4012","name":"Suhr","shortName":"Suhr"},"district":{"key":"1901","name":"Bezirk Aarau"},"canton":{"key":"19","code":"AG","name":"Aargau"},"status":"Real"},{"key":"10139651","name":"Chaibegässli","postalCode":"5034","locality":"Suhr","commune":{"key":"4012","name":"Suhr","shortName":"Suhr"},"district":{"key":"1901","name":"Bezirk Aarau"},"canton":{"key":"19","code":"AG","name":"Aargau"},"status":"Real"},{"key":"10139652","name":"Chilematteweg","postalCode":"5034","locality":"Suhr","commune":{"key":"4012","name":"Suhr","shortName":"Suhr"},"district":{"key":"1901","name":"Bezirk Aarau"},"canton":{"key":"19","code":"AG","name":"Aargau"},"status":"Real"},{"key":"10238873","name":"Chübelimattweg","postalCode":"5034","locality":"Suhr","commune":{"key":"4012","name":"Suhr","shortName":"Suhr"},"district":{"key":"1901","name":"Bezirk Aarau"},"canton":{"key":"19","code":"AG","name":"Aargau"},"status":"Real"},{"key":"10036060","name":"Distelmattweg","postalCode":"5034","locality":"Suhr","commune":{"key":"4012","name":"Suhr","shortName":"Suhr"},"district":{"key":"1901","name":"Bezirk Aarau"},"canton":{"key":"19","code":"AG","name":"Aargau"},"status":"Real"},{"key":"10036061","name":"Drosselweg","postalCode":"5034","locality":"Suhr","commune":{"key":"4012","name":"Suhr","shortName":"Suhr"},"district":{"key":"1901","name":"Bezirk Aarau"},"canton":{"key":"19","code":"AG","name":"Aargau"},"status":"Real"},{"key":"10051149","name":"Elektraweg","postalCode":"5034","locality":"Suhr","commune":{"key":"4012","name":"Suhr","shortName":"Suhr"},"district":{"key":"1901","name":"Bezirk Aarau"},"canton":{"key":"19","code":"AG","name":"Aargau"},"status":"Real"},{"key":"10036062","name":"Emdweg","postalCode":"5034","locality":"Suhr","commune":{"key":"4012","name":"Suhr","shortName":"Suhr"},"district":{"key":"1901","name":"Bezirk Aarau"},"canton":{"key":"19","code":"AG","name":"Aargau"},"status":"Real"},{"key":"10070294","name":"Entenweg","postalCode":"5034","locality":"Suhr","commune":{"key":"4012","name":"Suhr","shortName":"Suhr"},"district":{"key":"1901","name":"Bezirk Aarau"},"canton":{"key":"19","code":"AG","name":"Aargau"},"status":"Real"},{"key":"10101564","name":"Erlenweg","postalCode":"5034","locality":"Suhr","commune":{"key":"4012","name":"Suhr","shortName":"Suhr"},"district":{"key":"1901","name":"Bezirk Aarau"},"canton":{"key":"19","code":"AG","name":"Aargau"},"status":"Real"},{"key":"10092883","name":"Fliederweg","postalCode":"5034","locality":"Suhr","commune":{"key":"4012","name":"Suhr","shortName":"Suhr"},"district":{"key":"1901","name":"Bezirk Aarau"},"canton":{"key":"19","code":"AG","name":"Aargau"},"status":"Real"},{"key":"10051150","name":"Flurweg","postalCode":"5034","locality":"Suhr","commune":{"key":"4012","name":"Suhr","shortName":"Suhr"},"district":{"key":"1901","name":"Bezirk Aarau"},"canton":{"key":"19","code":"AG","name":"Aargau"},"status":"Real"},{"key":"10112755","name":"Forellenweg","postalCode":"5034","locality":"Suhr","commune":{"key":"4012","name":"Suhr","shortName":"Suhr"},"district":{"key":"1901","name":"Bezirk Aarau"},"canton":{"key":"19","code":"AG","name":"Aargau"},"status":"Real"},{"key":"10036064","name":"Forstweg","postalCode":"5034","locality":"Suhr","commune":{"key":"4012","name":"Suhr","shortName":"Suhr"},"district":{"key":"1901","name":"Bezirk Aarau"},"canton":{"key":"19","code":"AG","name":"Aargau"},"status":"Real"},{"key":"10051151","name":"Fraumatteweg","postalCode":"5034","locality":"Suhr","commune":{"key":"4012","name":"Suhr","shortName":"Suhr"},"district":{"key":"1901","name":"Bezirk Aarau"},"canton":{"key":"19","code":"AG","name":"Aargau"},"status":"Real"},{"key":"10070295","name":"Frohdörfli","postalCode":"5034","locality":"Suhr","commune":{"key":"4012","name":"Suhr","shortName":"Suhr"},"district":{"key":"1901","name":"Bezirk Aarau"},"canton":{"key":"19","code":"AG","name":"Aargau"},"status":"Real"},{"key":"10092884","name":"Fröschenweg","postalCode":"5034","locality":"Suhr","commune":{"key":"4012","name":"Suhr","shortName":"Suhr"},"district":{"key":"1901","name":"Bezirk Aarau"},"canton":{"key":"19","code":"AG","name":"Aargau"},"status":"Real"},{"key":"10036065","name":"Galeggenweg","postalCode":"5034","locality":"Suhr","commune":{"key":"4012","name":"Suhr","shortName":"Suhr"},"district":{"key":"1901","name":"Bezirk Aarau"},"canton":{"key":"19","code":"AG","name":"Aargau"},"status":"Real"},{"key":"10051152","name":"Garbenweg","postalCode":"5034","locality":"Suhr","commune":{"key":"4012","name":"Suhr","shortName":"Suhr"},"district":{"key":"1901","name":"Bezirk Aarau"},"canton":{"key":"19","code":"AG","name":"Aargau"},"status":"Real"},{"key":"10180830","name":"Gartenweg","postalCode":"5034","locality":"Suhr","commune":{"key":"4012","name":"Suhr","shortName":"Suhr"},"district":{"key":"1901","name":"Bezirk Aarau"},"canton":{"key":"19","code":"AG","name":"Aargau"},"status":"Real"},{"key":"10105604","name":"Gerstenweg","postalCode":"5034","locality":"Suhr","commune":{"key":"4012","name":"Suhr","shortName":"Suhr"},"district":{"key":"1901","name":"Bezirk Aarau"},"canton":{"key":"19","code":"AG","name":"Aargau"},"status":"Real"},{"key":"10051153","name":"Gewerbestrasse","postalCode":"5034","locality":"Suhr","commune":{"key":"4012","name":"Suhr","shortName":"Suhr"},"district":{"key":"1901","name":"Bezirk Aarau"},"canton":{"key":"19","code":"AG","name":"Aargau"},"status":"Real"},{"key":"10070296","name":"Gönhardweg","postalCode":"5034","locality":"Suhr","commune":{"key":"4012","name":"Suhr","shortName":"Suhr"},"district":{"key":"1901","name":"Bezirk Aarau"},"canton":{"key":"19","code":"AG","name":"Aargau"},"status":"Real"},{"key":"10036066","name":"Gränicherstrasse","postalCode":"5034","locality":"Suhr","commune":{"key":"4012","name":"Suhr","shortName":"Suhr"},"district":{"key":"1901","name":"Bezirk Aarau"},"canton":{"key":"19","code":"AG","name":"Aargau"},"status":"Real"},{"key":"10132652","name":"Grillenweg","postalCode":"5034","locality":"Suhr","commune":{"key":"4012","name":"Suhr","shortName":"Suhr"},"district":{"key":"1901","name":"Bezirk Aarau"},"canton":{"key":"19","code":"AG","name":"Aargau"},"status":"Real"},{"key":"10092885","name":"Grodweg","postalCode":"5034","locality":"Suhr","commune":{"key":"4012","name":"Suhr","shortName":"Suhr"},"district":{"key":"1901","name":"Bezirk Aarau"},"canton":{"key":"19","code":"AG","name":"Aargau"},"status":"Real"},{"key":"10051154","name":"Groppenweg","postalCode":"5034","locality":"Suhr","commune":{"key":"4012","name":"Suhr","shortName":"Suhr"},"district":{"key":"1901","name":"Bezirk Aarau"},"canton":{"key":"19","code":"AG","name":"Aargau"},"status":"Real"},{"key":"10117239","name":"Grubenweg","postalCode":"5034","locality":"Suhr","commune":{"key":"4012","name":"Suhr","shortName":"Suhr"},"district":{"key":"1901","name":"Bezirk Aarau"},"canton":{"key":"19","code":"AG","name":"Aargau"},"status":"Real"},{"key":"10051155","name":"Gysulaweg","postalCode":"5034","locality":"Suhr","commune":{"key":"4012","name":"Suhr","shortName":"Suhr"},"district":{"key":"1901","name":"Bezirk Aarau"},"canton":{"key":"19","code":"AG","name":"Aargau"},"status":"Real"},{"key":"10124542","name":"Habsburgweg","postalCode":"5034","locality":"Suhr","commune":{"key":"4012","name":"Suhr","shortName":"Suhr"},"district":{"key":"1901","name":"Bezirk Aarau"},"canton":{"key":"19","code":"AG","name":"Aargau"},"status":"Real"},{"key":"10101565","name":"Haferweg","postalCode":"5034","locality":"Suhr","commune":{"key":"4012","name":"Suhr","shortName":"Suhr"},"district":{"key":"1901","name":"Bezirk Aarau"},"canton":{"key":"19","code":"AG","name":"Aargau"},"status":"Real"},{"key":"10036067","name":"Hasenweg","postalCode":"5034","locality":"Suhr","commune":{"key":"4012","name":"Suhr","shortName":"Suhr"},"district":{"key":"1901","name":"Bezirk Aarau"},"canton":{"key":"19","code":"AG","name":"Aargau"},"status":"Real"},{"key":"10036068","name":"Heinrichweg","postalCode":"5034","locality":"Suhr","commune":{"key":"4012","name":"Suhr","shortName":"Suhr"},"district":{"key":"1901","name":"Bezirk Aarau"},"canton":{"key":"19","code":"AG","name":"Aargau"},"status":"Real"},{"key":"10110683","name":"Helgenfeld","postalCode":"5034","locality":"Suhr","commune":{"key":"4012","name":"Suhr","shortName":"Suhr"},"district":{"key":"1901","name":"Bezirk Aarau"},"canton":{"key":"19","code":"AG","name":"Aargau"},"status":"Real"},{"key":"10051156","name":"Helgenfeldweg","postalCode":"5034","locality":"Suhr","commune":{"key":"4012","name":"Suhr","shortName":"Suhr"},"district":{"key":"1901","name":"Bezirk Aarau"},"canton":{"key":"19","code":"AG","name":"Aargau"},"status":"Real"},{"key":"10036069","name":"Heuweg","postalCode":"5034","locality":"Suhr","commune":{"key":"4012","name":"Suhr","shortName":"Suhr"},"district":{"key":"1901","name":"Bezirk Aarau"},"canton":{"key":"19","code":"AG","name":"Aargau"},"status":"Real"},{"key":"10092886","name":"Hintere Bahnhofstrasse","postalCode":"5034","locality":"Suhr","commune":{"key":"4012","name":"Suhr","shortName":"Suhr"},"district":{"key":"1901","name":"Bezirk Aarau"},"canton":{"key":"19","code":"AG","name":"Aargau"},"status":"Real"},{"key":"10051157","name":"Hintere Dorfstrasse","postalCode":"5034","locality":"Suhr","commune":{"key":"4012","name":"Suhr","shortName":"Suhr"},"district":{"key":"1901","name":"Bezirk Aarau"},"canton":{"key":"19","code":"AG","name":"Aargau"},"status":"Real"},{"key":"10180831","name":"Hintere Kirchgasse","postalCode":"5034","locality":"Suhr","commune":{"key":"4012","name":"Suhr","shortName":"Suhr"},"district":{"key":"1901","name":"Bezirk Aarau"},"canton":{"key":"19","code":"AG","name":"Aargau"},"status":"Real"},{"key":"10122149","name":"Hofstattmattenweg","postalCode":"5034","locality":"Suhr","commune":{"key":"4012","name":"Suhr","shortName":"Suhr"},"district":{"key":"1901","name":"Bezirk Aarau"},"canton":{"key":"19","code":"AG","name":"Aargau"},"status":"Real"},{"key":"10036071","name":"Hombergweg","postalCode":"5034","locality":"Suhr","commune":{"key":"4012","name":"Suhr","shortName":"Suhr"},"district":{"key":"1901","name":"Bezirk Aarau"},"canton":{"key":"19","code":"AG","name":"Aargau"},"status":"Real"},{"key":"10036072","name":"Hübel","postalCode":"5034","locality":"Suhr","commune":{"key":"4012","name":"Suhr","shortName":"Suhr"},"district":{"key":"1901","name":"Bezirk Aarau"},"canton":{"key":"19","code":"AG","name":"Aargau"},"status":"Real"},{"key":"10112756","name":"Hübeliacker","postalCode":"5034","locality":"Suhr","commune":{"key":"4012","name":"Suhr","shortName":"Suhr"},"district":{"key":"1901","name":"Bezirk Aarau"},"canton":{"key":"19","code":"AG","name":"Aargau"},"status":"Real"},{"key":"10051158","name":"Hübeliackerweg","postalCode":"5034","locality":"Suhr","commune":{"key":"4012","name":"Suhr","shortName":"Suhr"},"district":{"key":"1901","name":"Bezirk Aarau"},"canton":{"key":"19","code":"AG","name":"Aargau"},"status":"Real"},{"key":"10092887","name":"Hünerwadelgasse","postalCode":"5034","locality":"Suhr","commune":{"key":"4012","name":"Suhr","shortName":"Suhr"},"district":{"key":"1901","name":"Bezirk Aarau"},"canton":{"key":"19","code":"AG","name":"Aargau"},"status":"Real"},{"key":"10070297","name":"Igelweg","postalCode":"5034","locality":"Suhr","commune":{"key":"4012","name":"Suhr","shortName":"Suhr"},"district":{"key":"1901","name":"Bezirk Aarau"},"canton":{"key":"19","code":"AG","name":"Aargau"},"status":"Real"},{"key":"10036073","name":"Junkerngasse","postalCode":"5034","locality":"Suhr","commune":{"key":"4012","name":"Suhr","shortName":"Suhr"},"district":{"key":"1901","name":"Bezirk Aarau"},"canton":{"key":"19","code":"AG","name":"Aargau"},"status":"Real"},{"key":"10238877","name":"Kanalweg","postalCode":"5034","locality":"Suhr","commune":{"key":"4012","name":"Suhr","shortName":"Suhr"},"district":{"key":"1901","name":"Bezirk Aarau"},"canton":{"key":"19","code":"AG","name":"Aargau"},"status":"Real"},{"key":"10101566","name":"Kapellenweg","postalCode":"5034","locality":"Suhr","commune":{"key":"4012","name":"Suhr","shortName":"Suhr"},"district":{"key":"1901","name":"Bezirk Aarau"},"canton":{"key":"19","code":"AG","name":"Aargau"},"status":"Real"},{"key":"10036074","name":"Kinoweg","postalCode":"5034","locality":"Suhr","commune":{"key":"4012","name":"Suhr","shortName":"Suhr"},"district":{"key":"1901","name":"Bezirk Aarau"},"canton":{"key":"19","code":"AG","name":"Aargau"},"status":"Real"},{"key":"10036075","name":"Kirchgasse","postalCode":"5034","locality":"Suhr","commune":{"key":"4012","name":"Suhr","shortName":"Suhr"},"district":{"key":"1901","name":"Bezirk Aarau"},"canton":{"key":"19","code":"AG","name":"Aargau"},"status":"Real"},{"key":"10139653","name":"Kirchweglein","postalCode":"5034","locality":"Suhr","commune":{"key":"4012","name":"Suhr","shortName":"Suhr"},"district":{"key":"1901","name":"Bezirk Aarau"},"canton":{"key":"19","code":"AG","name":"Aargau"},"status":"Real"},{"key":"10186830","name":"Kirschenweg","postalCode":"5034","locality":"Suhr","commune":{"key":"4012","name":"Suhr","shortName":"Suhr"},"district":{"key":"1901","name":"Bezirk Aarau"},"canton":{"key":"19","code":"AG","name":"Aargau"},"status":"Real"},{"key":"10105605","name":"Kongoweg","postalCode":"5034","locality":"Suhr","commune":{"key":"4012","name":"Suhr","shortName":"Suhr"},"district":{"key":"1901","name":"Bezirk Aarau"},"canton":{"key":"19","code":"AG","name":"Aargau"},"status":"Real"},{"key":"10092888","name":"Kornweg","postalCode":"5034","locality":"Suhr","commune":{"key":"4012","name":"Suhr","shortName":"Suhr"},"district":{"key":"1901","name":"Bezirk Aarau"},"canton":{"key":"19","code":"AG","name":"Aargau"},"status":"Real"},{"key":"10051159","name":"Kyburgweg","postalCode":"5034","locality":"Suhr","commune":{"key":"4012","name":"Suhr","shortName":"Suhr"},"district":{"key":"1901","name":"Bezirk Aarau"},"canton":{"key":"19","code":"AG","name":"Aargau"},"status":"Real"},{"key":"10117240","name":"Langmattweg","postalCode":"5034","locality":"Suhr","commune":{"key":"4012","name":"Suhr","shortName":"Suhr"},"district":{"key":"1901","name":"Bezirk Aarau"},"canton":{"key":"19","code":"AG","name":"Aargau"},"status":"Real"},{"key":"10180832","name":"Länziweg","postalCode":"5034","locality":"Suhr","commune":{"key":"4012","name":"Suhr","shortName":"Suhr"},"district":{"key":"1901","name":"Bezirk Aarau"},"canton":{"key":"19","code":"AG","name":"Aargau"},"status":"Real"},{"key":"10070298","name":"Lättmatte","postalCode":"5034","locality":"Suhr","commune":{"key":"4012","name":"Suhr","shortName":"Suhr"},"district":{"key":"1901","name":"Bezirk Aarau"},"canton":{"key":"19","code":"AG","name":"Aargau"},"status":"Real"},{"key":"10092889","name":"Lättweg","postalCode":"5034","locality":"Suhr","commune":{"key":"4012","name":"Suhr","shortName":"Suhr"},"district":{"key":"1901","name":"Bezirk Aarau"},"canton":{"key":"19","code":"AG","name":"Aargau"},"status":"Real"},{"key":"10036076","name":"Lerchenweg","postalCode":"5034","locality":"Suhr","commune":{"key":"4012","name":"Suhr","shortName":"Suhr"},"district":{"key":"1901","name":"Bezirk Aarau"},"canton":{"key":"19","code":"AG","name":"Aargau"},"status":"Real"},{"key":"10051160","name":"Lindenweg","postalCode":"5034","locality":"Suhr","commune":{"key":"4012","name":"Suhr","shortName":"Suhr"},"district":{"key":"1901","name":"Bezirk Aarau"},"canton":{"key":"19","code":"AG","name":"Aargau"},"status":"Real"},{"key":"10051161","name":"Margarethenweg","postalCode":"5034","locality":"Suhr","commune":{"key":"4012","name":"Suhr","shortName":"Suhr"},"district":{"key":"1901","name":"Bezirk Aarau"},"canton":{"key":"19","code":"AG","name":"Aargau"},"status":"Real"},{"key":"10036077","name":"Mattenweg","postalCode":"5034","locality":"Suhr","commune":{"key":"4012","name":"Suhr","shortName":"Suhr"},"district":{"key":"1901","name":"Bezirk Aarau"},"canton":{"key":"19","code":"AG","name":"Aargau"},"status":"Real"},{"key":"10036078","name":"Mausweg","postalCode":"5034","locality":"Suhr","commune":{"key":"4012","name":"Suhr","shortName":"Suhr"},"district":{"key":"1901","name":"Bezirk Aarau"},"canton":{"key":"19","code":"AG","name":"Aargau"},"status":"Real"},{"key":"10092890","name":"Meierhofweg","postalCode":"5034","locality":"Suhr","commune":{"key":"4012","name":"Suhr","shortName":"Suhr"},"district":{"key":"1901","name":"Bezirk Aarau"},"canton":{"key":"19","code":"AG","name":"Aargau"},"status":"Real"},{"key":"10036079","name":"Metzgergasse","postalCode":"5034","locality":"Suhr","commune":{"key":"4012","name":"Suhr","shortName":"Suhr"},"district":{"key":"1901","name":"Bezirk Aarau"},"canton":{"key":"19","code":"AG","name":"Aargau"},"status":"Real"},{"key":"10238881","name":"Mittelfurtweg","postalCode":"5034","locality":"Suhr","commune":{"key":"4012","name":"Suhr","shortName":"Suhr"},"district":{"key":"1901","name":"Bezirk Aarau"},"canton":{"key":"19","code":"AG","name":"Aargau"},"status":"Real"},{"key":"10180833","name":"Mittlere Dorfstrasse","postalCode":"5034","locality":"Suhr","commune":{"key":"4012","name":"Suhr","shortName":"Suhr"},"district":{"key":"1901","name":"Bezirk Aarau"},"canton":{"key":"19","code":"AG","name":"Aargau"},"status":"Real"},{"key":"10191508","name":"Mühlemattweg","postalCode":"5034","locality":"Suhr","commune":{"key":"4012","name":"Suhr","shortName":"Suhr"},"district":{"key":"1901","name":"Bezirk Aarau"},"canton":{"key":"19","code":"AG","name":"Aargau"},"status":"Real"},{"key":"10092891","name":"Mühleweg","postalCode":"5034","locality":"Suhr","commune":{"key":"4012","name":"Suhr","shortName":"Suhr"},"district":{"key":"1901","name":"Bezirk Aarau"},"canton":{"key":"19","code":"AG","name":"Aargau"},"status":"Real"},{"key":"10036080","name":"Neue Aarauerstrasse","postalCode":"5034","locality":"Suhr","commune":{"key":"4012","name":"Suhr","shortName":"Suhr"},"district":{"key":"1901","name":"Bezirk Aarau"},"canton":{"key":"19","code":"AG","name":"Aargau"},"status":"Real"},{"key":"10152567","name":"Neuer Badiweg","postalCode":"5034","locality":"Suhr","commune":{"key":"4012","name":"Suhr","shortName":"Suhr"},"district":{"key":"1901","name":"Bezirk Aarau"},"canton":{"key":"19","code":"AG","name":"Aargau"},"status":"Real"},{"key":"10112757","name":"Neumattweg","postalCode":"5034","locality":"Suhr","commune":{"key":"4012","name":"Suhr","shortName":"Suhr"},"district":{"key":"1901","name":"Bezirk Aarau"},"canton":{"key":"19","code":"AG","name":"Aargau"},"status":"Real"},{"key":"10190187","name":"Niedermattweg","postalCode":"5034","locality":"Suhr","commune":{"key":"4012","name":"Suhr","shortName":"Suhr"},"district":{"key":"1901","name":"Bezirk Aarau"},"canton":{"key":"19","code":"AG","name":"Aargau"},"status":"Real"},{"key":"10070299","name":"Nussweg","postalCode":"5034","locality":"Suhr","commune":{"key":"4012","name":"Suhr","shortName":"Suhr"},"district":{"key":"1901","name":"Bezirk Aarau"},"canton":{"key":"19","code":"AG","name":"Aargau"},"status":"Real"},{"key":"10036081","name":"Obere Dorfstrasse","postalCode":"5034","locality":"Suhr","commune":{"key":"4012","name":"Suhr","shortName":"Suhr"},"district":{"key":"1901","name":"Bezirk Aarau"},"canton":{"key":"19","code":"AG","name":"Aargau"},"status":"Real"},{"key":"10157072","name":"Oberesterweg","postalCode":"5034","locality":"Suhr","commune":{"key":"4012","name":"Suhr","shortName":"Suhr"},"district":{"key":"1901","name":"Bezirk Aarau"},"canton":{"key":"19","code":"AG","name":"Aargau"},"status":"Real"},{"key":"10034277","name":"Oberfeldweg","postalCode":"5034","locality":"Suhr","commune":{"key":"4012","name":"Suhr","shortName":"Suhr"},"district":{"key":"1901","name":"Bezirk Aarau"},"canton":{"key":"19","code":"AG","name":"Aargau"},"status":"Real"},{"key":"10195933","name":"Oberholz","postalCode":"5034","locality":"Suhr","commune":{"key":"4012","name":"Suhr","shortName":"Suhr"},"district":{"key":"1901","name":"Bezirk Aarau"},"canton":{"key":"19","code":"AG","name":"Aargau"},"status":"Real"},{"key":"10132653","name":"Obertelweg","postalCode":"5034","locality":"Suhr","commune":{"key":"4012","name":"Suhr","shortName":"Suhr"},"district":{"key":"1901","name":"Bezirk Aarau"},"canton":{"key":"19","code":"AG","name":"Aargau"},"status":"Real"},{"key":"10128103","name":"Oele","postalCode":"5034","locality":"Suhr","commune":{"key":"4012","name":"Suhr","shortName":"Suhr"},"district":{"key":"1901","name":"Bezirk Aarau"},"canton":{"key":"19","code":"AG","name":"Aargau"},"status":"Real"},{"key":"10092892","name":"Panamaweg","postalCode":"5034","locality":"Suhr","commune":{"key":"4012","name":"Suhr","shortName":"Suhr"},"district":{"key":"1901","name":"Bezirk Aarau"},"canton":{"key":"19","code":"AG","name":"Aargau"},"status":"Real"},{"key":"10070300","name":"Postweg","postalCode":"5034","locality":"Suhr","commune":{"key":"4012","name":"Suhr","shortName":"Suhr"},"district":{"key":"1901","name":"Bezirk Aarau"},"canton":{"key":"19","code":"AG","name":"Aargau"},"status":"Real"},{"key":"10034278","name":"Quellweg","postalCode":"5034","locality":"Suhr","commune":{"key":"4012","name":"Suhr","shortName":"Suhr"},"district":{"key":"1901","name":"Bezirk Aarau"},"canton":{"key":"19","code":"AG","name":"Aargau"},"status":"Real"},{"key":"10034279","name":"Rapsweg","postalCode":"5034","locality":"Suhr","commune":{"key":"4012","name":"Suhr","shortName":"Suhr"},"district":{"key":"1901","name":"Bezirk Aarau"},"canton":{"key":"19","code":"AG","name":"Aargau"},"status":"Real"},{"key":"10034280","name":"Reiherweg","postalCode":"5034","locality":"Suhr","commune":{"key":"4012","name":"Suhr","shortName":"Suhr"},"district":{"key":"1901","name":"Bezirk Aarau"},"canton":{"key":"19","code":"AG","name":"Aargau"},"status":"Real"},{"key":"10195934","name":"Rifegrind","postalCode":"5034","locality":"Suhr","commune":{"key":"4012","name":"Suhr","shortName":"Suhr"},"district":{"key":"1901","name":"Bezirk Aarau"},"canton":{"key":"19","code":"AG","name":"Aargau"},"status":"Real"},{"key":"10139655","name":"Ringstrasse","postalCode":"5034","locality":"Suhr","commune":{"key":"4012","name":"Suhr","shortName":"Suhr"},"district":{"key":"1901","name":"Bezirk Aarau"},"canton":{"key":"19","code":"AG","name":"Aargau"},"status":"Real"},{"key":"10132162","name":"Roggenweg","postalCode":"5034","locality":"Suhr","commune":{"key":"4012","name":"Suhr","shortName":"Suhr"},"district":{"key":"1901","name":"Bezirk Aarau"},"canton":{"key":"19","code":"AG","name":"Aargau"},"status":"Real"},{"key":"10092893","name":"Rosenweg","postalCode":"5034","locality":"Suhr","commune":{"key":"4012","name":"Suhr","shortName":"Suhr"},"district":{"key":"1901","name":"Bezirk Aarau"},"canton":{"key":"19","code":"AG","name":"Aargau"},"status":"Real"},{"key":"10238885","name":"Rynetelweg","postalCode":"5034","locality":"Suhr","commune":{"key":"4012","name":"Suhr","shortName":"Suhr"},"district":{"key":"1901","name":"Bezirk Aarau"},"canton":{"key":"19","code":"AG","name":"Aargau"},"status":"Real"},{"key":"10195032","name":"Sagiweg","postalCode":"5034","locality":"Suhr","commune":{"key":"4012","name":"Suhr","shortName":"Suhr"},"district":{"key":"1901","name":"Bezirk Aarau"},"canton":{"key":"19","code":"AG","name":"Aargau"},"status":"Real"},{"key":"10034553","name":"Salamanderweg","postalCode":"5034","locality":"Suhr","commune":{"key":"4012","name":"Suhr","shortName":"Suhr"},"district":{"key":"1901","name":"Bezirk Aarau"},"canton":{"key":"19","code":"AG","name":"Aargau"},"status":"Real"},{"key":"10034554","name":"Schmittegasse","postalCode":"5034","locality":"Suhr","commune":{"key":"4012","name":"Suhr","shortName":"Suhr"},"district":{"key":"1901","name":"Bezirk Aarau"},"canton":{"key":"19","code":"AG","name":"Aargau"},"status":"Real"},{"key":"10092894","name":"Schmittgutweg","postalCode":"5034","locality":"Suhr","commune":{"key":"4012","name":"Suhr","shortName":"Suhr"},"district":{"key":"1901","name":"Bezirk Aarau"},"canton":{"key":"19","code":"AG","name":"Aargau"},"status":"Real"},{"key":"10238889","name":"Schulweg","postalCode":"5034","locality":"Suhr","commune":{"key":"4012","name":"Suhr","shortName":"Suhr"},"district":{"key":"1901","name":"Bezirk Aarau"},"canton":{"key":"19","code":"AG","name":"Aargau"},"status":"Real"},{"key":"10238893","name":"Schüsselgasse","postalCode":"5034","locality":"Suhr","commune":{"key":"4012","name":"Suhr","shortName":"Suhr"},"district":{"key":"1901","name":"Bezirk Aarau"},"canton":{"key":"19","code":"AG","name":"Aargau"},"status":"Real"},{"key":"10180834","name":"Schützenweg","postalCode":"5034","locality":"Suhr","commune":{"key":"4012","name":"Suhr","shortName":"Suhr"},"district":{"key":"1901","name":"Bezirk Aarau"},"canton":{"key":"19","code":"AG","name":"Aargau"},"status":"Real"},{"key":"10070301","name":"Schwirrenmattweg","postalCode":"5034","locality":"Suhr","commune":{"key":"4012","name":"Suhr","shortName":"Suhr"},"district":{"key":"1901","name":"Bezirk Aarau"},"canton":{"key":"19","code":"AG","name":"Aargau"},"status":"Real"},{"key":"10034555","name":"Soffenmattweg","postalCode":"5034","locality":"Suhr","commune":{"key":"4012","name":"Suhr","shortName":"Suhr"},"district":{"key":"1901","name":"Bezirk Aarau"},"canton":{"key":"19","code":"AG","name":"Aargau"},"status":"Real"},{"key":"10034556","name":"Sonneckweg","postalCode":"5034","locality":"Suhr","commune":{"key":"4012","name":"Suhr","shortName":"Suhr"},"district":{"key":"1901","name":"Bezirk Aarau"},"canton":{"key":"19","code":"AG","name":"Aargau"},"status":"Real"},{"key":"10092895","name":"Sonnmattweg","postalCode":"5034","locality":"Suhr","commune":{"key":"4012","name":"Suhr","shortName":"Suhr"},"district":{"key":"1901","name":"Bezirk Aarau"},"canton":{"key":"19","code":"AG","name":"Aargau"},"status":"Real"},{"key":"10034557","name":"Spatzenweg","postalCode":"5034","locality":"Suhr","commune":{"key":"4012","name":"Suhr","shortName":"Suhr"},"district":{"key":"1901","name":"Bezirk Aarau"},"canton":{"key":"19","code":"AG","name":"Aargau"},"status":"Real"},{"key":"10118840","name":"Spittelweg","postalCode":"5034","locality":"Suhr","commune":{"key":"4012","name":"Suhr","shortName":"Suhr"},"district":{"key":"1901","name":"Bezirk Aarau"},"canton":{"key":"19","code":"AG","name":"Aargau"},"status":"Real"},{"key":"10070302","name":"Stapfenackerweg","postalCode":"5034","locality":"Suhr","commune":{"key":"4012","name":"Suhr","shortName":"Suhr"},"district":{"key":"1901","name":"Bezirk Aarau"},"canton":{"key":"19","code":"AG","name":"Aargau"},"status":"Real"},{"key":"10034558","name":"Steinfeldstrasse","postalCode":"5034","locality":"Suhr","commune":{"key":"4012","name":"Suhr","shortName":"Suhr"},"district":{"key":"1901","name":"Bezirk Aarau"},"canton":{"key":"19","code":"AG","name":"Aargau"},"status":"Real"},{"key":"10112758","name":"Storchenweg","postalCode":"5034","locality":"Suhr","commune":{"key":"4012","name":"Suhr","shortName":"Suhr"},"district":{"key":"1901","name":"Bezirk Aarau"},"canton":{"key":"19","code":"AG","name":"Aargau"},"status":"Real"},{"key":"10034559","name":"Südallee","postalCode":"5034","locality":"Suhr","commune":{"key":"4012","name":"Suhr","shortName":"Suhr"},"district":{"key":"1901","name":"Bezirk Aarau"},"canton":{"key":"19","code":"AG","name":"Aargau"},"status":"Real"},{"key":"10034560","name":"Südweg","postalCode":"5034","locality":"Suhr","commune":{"key":"4012","name":"Suhr","shortName":"Suhr"},"district":{"key":"1901","name":"Bezirk Aarau"},"canton":{"key":"19","code":"AG","name":"Aargau"},"status":"Real"},{"key":"10208784","name":"Suhreparkweg","postalCode":"5034","locality":"Suhr","commune":{"key":"4012","name":"Suhr","shortName":"Suhr"},"district":{"key":"1901","name":"Bezirk Aarau"},"canton":{"key":"19","code":"AG","name":"Aargau"},"status":"Real"},{"key":"10092896","name":"Suhrestrasse","postalCode":"5034","locality":"Suhr","commune":{"key":"4012","name":"Suhr","shortName":"Suhr"},"district":{"key":"1901","name":"Bezirk Aarau"},"canton":{"key":"19","code":"AG","name":"Aargau"},"status":"Real"},{"key":"10072198","name":"Tannenweg","postalCode":"5034","locality":"Suhr","commune":{"key":"4012","name":"Suhr","shortName":"Suhr"},"district":{"key":"1901","name":"Bezirk Aarau"},"canton":{"key":"19","code":"AG","name":"Aargau"},"status":"Real"},{"key":"10180835","name":"Tramstrasse","postalCode":"5034","locality":"Suhr","commune":{"key":"4012","name":"Suhr","shortName":"Suhr"},"district":{"key":"1901","name":"Bezirk Aarau"},"canton":{"key":"19","code":"AG","name":"Aargau"},"status":"Real"},{"key":"10092897","name":"Turnhalleweg","postalCode":"5034","locality":"Suhr","commune":{"key":"4012","name":"Suhr","shortName":"Suhr"},"district":{"key":"1901","name":"Bezirk Aarau"},"canton":{"key":"19","code":"AG","name":"Aargau"},"status":"Real"},{"key":"10034561","name":"Veilchenweg","postalCode":"5034","locality":"Suhr","commune":{"key":"4012","name":"Suhr","shortName":"Suhr"},"district":{"key":"1901","name":"Bezirk Aarau"},"canton":{"key":"19","code":"AG","name":"Aargau"},"status":"Real"},{"key":"10034562","name":"Waldhofweg","postalCode":"5034","locality":"Suhr","commune":{"key":"4012","name":"Suhr","shortName":"Suhr"},"district":{"key":"1901","name":"Bezirk Aarau"},"canton":{"key":"19","code":"AG","name":"Aargau"},"status":"Real"},{"key":"10034565","name":"Wältimattweg","postalCode":"5034","locality":"Suhr","commune":{"key":"4012","name":"Suhr","shortName":"Suhr"},"district":{"key":"1901","name":"Bezirk Aarau"},"canton":{"key":"19","code":"AG","name":"Aargau"},"status":"Real"},{"key":"10131124","name":"Weidweg","postalCode":"5034","locality":"Suhr","commune":{"key":"4012","name":"Suhr","shortName":"Suhr"},"district":{"key":"1901","name":"Bezirk Aarau"},"canton":{"key":"19","code":"AG","name":"Aargau"},"status":"Real"},{"key":"10034563","name":"Weiherweg","postalCode":"5034","locality":"Suhr","commune":{"key":"4012","name":"Suhr","shortName":"Suhr"},"district":{"key":"1901","name":"Bezirk Aarau"},"canton":{"key":"19","code":"AG","name":"Aargau"},"status":"Real"},{"key":"10092898","name":"Weinbergweg","postalCode":"5034","locality":"Suhr","commune":{"key":"4012","name":"Suhr","shortName":"Suhr"},"district":{"key":"1901","name":"Bezirk Aarau"},"canton":{"key":"19","code":"AG","name":"Aargau"},"status":"Real"},{"key":"10117241","name":"Wiesenweg","postalCode":"5034","locality":"Suhr","commune":{"key":"4012","name":"Suhr","shortName":"Suhr"},"district":{"key":"1901","name":"Bezirk Aarau"},"canton":{"key":"19","code":"AG","name":"Aargau"},"status":"Real"},{"key":"10105606","name":"Winkelweg","postalCode":"5034","locality":"Suhr","commune":{"key":"4012","name":"Suhr","shortName":"Suhr"},"district":{"key":"1901","name":"Bezirk Aarau"},"canton":{"key":"19","code":"AG","name":"Aargau"},"status":"Real"},{"key":"10034564","name":"Wynemattestrasse","postalCode":"5034","locality":"Suhr","commune":{"key":"4012","name":"Suhr","shortName":"Suhr"},"district":{"key":"1901","name":"Bezirk Aarau"},"canton":{"key":"19","code":"AG","name":"Aargau"},"status":"Real"},{"key":"10139657","name":"Wynematteweg","postalCode":"5034","locality":"Suhr","commune":{"key":"4012","name":"Suhr","shortName":"Suhr"},"district":{"key":"1901","name":"Bezirk Aarau"},"canton":{"key":"19","code":"AG","name":"Aargau"},"status":"Real"},{"key":"10124543","name":"Wynenfeldstrasse","postalCode":"5034","locality":"Suhr","commune":{"key":"4012","name":"Suhr","shortName":"Suhr"},"district":{"key":"1901","name":"Bezirk Aarau"},"canton":{"key":"19","code":"AG","name":"Aargau"},"status":"Real"},{"key":"10139656","name":"Wynenfeldweg","postalCode":"5034","locality":"Suhr","commune":{"key":"4012","name":"Suhr","shortName":"Suhr"},"district":{"key":"1901","name":"Bezirk Aarau"},"canton":{"key":"19","code":"AG","name":"Aargau"},"status":"Real"},{"key":"10139658","name":"Wynentalstrasse","postalCode":"5034","locality":"Suhr","commune":{"key":"4012","name":"Suhr","shortName":"Suhr"},"district":{"key":"1901","name":"Bezirk Aarau"},"canton":{"key":"19","code":"AG","name":"Aargau"},"status":"Real"},{"key":"10034566","name":"Zelgweg","postalCode":"5034","locality":"Suhr","commune":{"key":"4012","name":"Suhr","shortName":"Suhr"},"district":{"key":"1901","name":"Bezirk Aarau"},"canton":{"key":"19","code":"AG","name":"Aargau"},"status":"Real"},{"key":"10072199","name":"Zollweg","postalCode":"5034","locality":"Suhr","commune":{"key":"4012","name":"Suhr","shortName":"Suhr"},"district":{"key":"1901","name":"Bezirk Aarau"},"canton":{"key":"19","code":"AG","name":"Aargau"},"status":"Real"},{"key":"10242171","name":"Zopfweg","postalCode":"5034","locality":"Suhr","commune":{"key":"4012","name":"Suhr","shortName":"Suhr"},"district":{"key":"1901","name":"Bezirk Aarau"},"canton":{"key":"19","code":"AG","name":"Aargau"},"status":"Real"},]