[{"name":"Albert-Kromer-Str.","postalCode":"79199","locality":"Kirchzarten","municipality":{"key":"08315064","name":"Kirchzarten","type":"Kreisangehörige_Gemeinde"},"district":{"key":"08315","name":"Breisgau-Hochschwarzwald","type":"Landkreis"},"federalState":{"key":"08","name":"Baden-Württemberg"}},{"name":"Albert-Schweitzer-Str.","postalCode":"79199","locality":"Kirchzarten","municipality":{"key":"08315064","name":"Kirchzarten","type":"Kreisangehörige_Gemeinde"},"district":{"key":"08315","name":"Breisgau-Hochschwarzwald","type":"Landkreis"},"federalState":{"key":"08","name":"Baden-Württemberg"}},{"name":"Alte Ibentalstr.","postalCode":"79199","locality":"Kirchzarten","municipality":{"key":"08315064","name":"Kirchzarten","type":"Kreisangehörige_Gemeinde"},"district":{"key":"08315","name":"Breisgau-Hochschwarzwald","type":"Landkreis"},"federalState":{"key":"08","name":"Baden-Württemberg"}},{"name":"Alte Säge","postalCode":"79199","locality":"Kirchzarten","municipality":{"key":"08315064","name":"Kirchzarten","type":"Kreisangehörige_Gemeinde"},"district":{"key":"08315","name":"Breisgau-Hochschwarzwald","type":"Landkreis"},"federalState":{"key":"08","name":"Baden-Württemberg"}},{"name":"Am Bach","postalCode":"79199","locality":"Kirchzarten","municipality":{"key":"08315064","name":"Kirchzarten","type":"Kreisangehörige_Gemeinde"},"district":{"key":"08315","name":"Breisgau-Hochschwarzwald","type":"Landkreis"},"federalState":{"key":"08","name":"Baden-Württemberg"}},{"name":"Am Bühl","postalCode":"79199","locality":"Kirchzarten","municipality":{"key":"08315064","name":"Kirchzarten","type":"Kreisangehörige_Gemeinde"},"district":{"key":"08315","name":"Breisgau-Hochschwarzwald","type":"Landkreis"},"federalState":{"key":"08","name":"Baden-Württemberg"}},{"name":"Am Burger Platz","postalCode":"79199","locality":"Kirchzarten","municipality":{"key":"08315064","name":"Kirchzarten","type":"Kreisangehörige_Gemeinde"},"district":{"key":"08315","name":"Breisgau-Hochschwarzwald","type":"Landkreis"},"federalState":{"key":"08","name":"Baden-Württemberg"}},{"name":"Am Engenberg","postalCode":"79199","locality":"Kirchzarten","municipality":{"key":"08315064","name":"Kirchzarten","type":"Kreisangehörige_Gemeinde"},"district":{"key":"08315","name":"Breisgau-Hochschwarzwald","type":"Landkreis"},"federalState":{"key":"08","name":"Baden-Württemberg"}},{"name":"Am Fischbach","postalCode":"79199","locality":"Kirchzarten","municipality":{"key":"08315064","name":"Kirchzarten","type":"Kreisangehörige_Gemeinde"},"district":{"key":"08315","name":"Breisgau-Hochschwarzwald","type":"Landkreis"},"federalState":{"key":"08","name":"Baden-Württemberg"}},{"name":"Am Fischerrain","postalCode":"79199","locality":"Kirchzarten","municipality":{"key":"08315064","name":"Kirchzarten","type":"Kreisangehörige_Gemeinde"},"district":{"key":"08315","name":"Breisgau-Hochschwarzwald","type":"Landkreis"},"federalState":{"key":"08","name":"Baden-Württemberg"}},{"name":"Am Heidengraben","postalCode":"79199","locality":"Kirchzarten","municipality":{"key":"08315064","name":"Kirchzarten","type":"Kreisangehörige_Gemeinde"},"district":{"key":"08315","name":"Breisgau-Hochschwarzwald","type":"Landkreis"},"federalState":{"key":"08","name":"Baden-Württemberg"}},{"name":"Am Keltenbuck","postalCode":"79199","locality":"Kirchzarten","municipality":{"key":"08315064","name":"Kirchzarten","type":"Kreisangehörige_Gemeinde"},"district":{"key":"08315","name":"Breisgau-Hochschwarzwald","type":"Landkreis"},"federalState":{"key":"08","name":"Baden-Württemberg"}},{"name":"Am Kohlbach","postalCode":"79199","locality":"Kirchzarten","municipality":{"key":"08315064","name":"Kirchzarten","type":"Kreisangehörige_Gemeinde"},"district":{"key":"08315","name":"Breisgau-Hochschwarzwald","type":"Landkreis"},"federalState":{"key":"08","name":"Baden-Württemberg"}},{"name":"Am Rotbach","postalCode":"79199","locality":"Kirchzarten","municipality":{"key":"08315064","name":"Kirchzarten","type":"Kreisangehörige_Gemeinde"},"district":{"key":"08315","name":"Breisgau-Hochschwarzwald","type":"Landkreis"},"federalState":{"key":"08","name":"Baden-Württemberg"}},{"name":"Am Schmiedacker","postalCode":"79199","locality":"Kirchzarten","municipality":{"key":"08315064","name":"Kirchzarten","type":"Kreisangehörige_Gemeinde"},"district":{"key":"08315","name":"Breisgau-Hochschwarzwald","type":"Landkreis"},"federalState":{"key":"08","name":"Baden-Württemberg"}},{"name":"Amselweg","postalCode":"79199","locality":"Kirchzarten","municipality":{"key":"08315064","name":"Kirchzarten","type":"Kreisangehörige_Gemeinde"},"district":{"key":"08315","name":"Breisgau-Hochschwarzwald","type":"Landkreis"},"federalState":{"key":"08","name":"Baden-Württemberg"}},{"name":"Aumattenweg","postalCode":"79199","locality":"Kirchzarten","municipality":{"key":"08315064","name":"Kirchzarten","type":"Kreisangehörige_Gemeinde"},"district":{"key":"08315","name":"Breisgau-Hochschwarzwald","type":"Landkreis"},"federalState":{"key":"08","name":"Baden-Württemberg"}},{"name":"Bahnhofstr.","postalCode":"79199","locality":"Kirchzarten","municipality":{"key":"08315064","name":"Kirchzarten","type":"Kreisangehörige_Gemeinde"},"district":{"key":"08315","name":"Breisgau-Hochschwarzwald","type":"Landkreis"},"federalState":{"key":"08","name":"Baden-Württemberg"}},{"name":"Bergwerkweg","postalCode":"79199","locality":"Kirchzarten","municipality":{"key":"08315064","name":"Kirchzarten","type":"Kreisangehörige_Gemeinde"},"district":{"key":"08315","name":"Breisgau-Hochschwarzwald","type":"Landkreis"},"federalState":{"key":"08","name":"Baden-Württemberg"}},{"name":"Birnenhof","postalCode":"79199","locality":"Kirchzarten","municipality":{"key":"08315064","name":"Kirchzarten","type":"Kreisangehörige_Gemeinde"},"district":{"key":"08315","name":"Breisgau-Hochschwarzwald","type":"Landkreis"},"federalState":{"key":"08","name":"Baden-Württemberg"}},{"name":"Blechschmiede","postalCode":"79199","locality":"Kirchzarten","municipality":{"key":"08315064","name":"Kirchzarten","type":"Kreisangehörige_Gemeinde"},"district":{"key":"08315","name":"Breisgau-Hochschwarzwald","type":"Landkreis"},"federalState":{"key":"08","name":"Baden-Württemberg"}},{"name":"Blumweg","postalCode":"79199","locality":"Kirchzarten","municipality":{"key":"08315064","name":"Kirchzarten","type":"Kreisangehörige_Gemeinde"},"district":{"key":"08315","name":"Breisgau-Hochschwarzwald","type":"Landkreis"},"federalState":{"key":"08","name":"Baden-Württemberg"}},{"name":"Breitehof","postalCode":"79199","locality":"Kirchzarten","municipality":{"key":"08315064","name":"Kirchzarten","type":"Kreisangehörige_Gemeinde"},"district":{"key":"08315","name":"Breisgau-Hochschwarzwald","type":"Landkreis"},"federalState":{"key":"08","name":"Baden-Württemberg"}},{"name":"Brodbeckstr.","postalCode":"79199","locality":"Kirchzarten","municipality":{"key":"08315064","name":"Kirchzarten","type":"Kreisangehörige_Gemeinde"},"district":{"key":"08315","name":"Breisgau-Hochschwarzwald","type":"Landkreis"},"federalState":{"key":"08","name":"Baden-Württemberg"}},{"name":"Bruckmühlenweg","postalCode":"79199","locality":"Kirchzarten","municipality":{"key":"08315064","name":"Kirchzarten","type":"Kreisangehörige_Gemeinde"},"district":{"key":"08315","name":"Breisgau-Hochschwarzwald","type":"Landkreis"},"federalState":{"key":"08","name":"Baden-Württemberg"}},{"name":"Bruggastr.","postalCode":"79199","locality":"Kirchzarten","municipality":{"key":"08315064","name":"Kirchzarten","type":"Kreisangehörige_Gemeinde"},"district":{"key":"08315","name":"Breisgau-Hochschwarzwald","type":"Landkreis"},"federalState":{"key":"08","name":"Baden-Württemberg"}},{"name":"Brunnenstr.","postalCode":"79199","locality":"Kirchzarten","municipality":{"key":"08315064","name":"Kirchzarten","type":"Kreisangehörige_Gemeinde"},"district":{"key":"08315","name":"Breisgau-Hochschwarzwald","type":"Landkreis"},"federalState":{"key":"08","name":"Baden-Württemberg"}},{"name":"Bühlhof","postalCode":"79199","locality":"Kirchzarten","municipality":{"key":"08315064","name":"Kirchzarten","type":"Kreisangehörige_Gemeinde"},"district":{"key":"08315","name":"Breisgau-Hochschwarzwald","type":"Landkreis"},"federalState":{"key":"08","name":"Baden-Württemberg"}},{"name":"Bundesstr.","postalCode":"79199","locality":"Kirchzarten","municipality":{"key":"08315064","name":"Kirchzarten","type":"Kreisangehörige_Gemeinde"},"district":{"key":"08315","name":"Breisgau-Hochschwarzwald","type":"Landkreis"},"federalState":{"key":"08","name":"Baden-Württemberg"}},{"name":"Burger Str.","postalCode":"79199","locality":"Kirchzarten","municipality":{"key":"08315064","name":"Kirchzarten","type":"Kreisangehörige_Gemeinde"},"district":{"key":"08315","name":"Breisgau-Hochschwarzwald","type":"Landkreis"},"federalState":{"key":"08","name":"Baden-Württemberg"}},{"name":"Dietenbacher Str.","postalCode":"79199","locality":"Kirchzarten","municipality":{"key":"08315064","name":"Kirchzarten","type":"Kreisangehörige_Gemeinde"},"district":{"key":"08315","name":"Breisgau-Hochschwarzwald","type":"Landkreis"},"federalState":{"key":"08","name":"Baden-Württemberg"}},{"name":"Dorfbachstr.","postalCode":"79199","locality":"Kirchzarten","municipality":{"key":"08315064","name":"Kirchzarten","type":"Kreisangehörige_Gemeinde"},"district":{"key":"08315","name":"Breisgau-Hochschwarzwald","type":"Landkreis"},"federalState":{"key":"08","name":"Baden-Württemberg"}},{"name":"Dreisamstr.","postalCode":"79199","locality":"Kirchzarten","municipality":{"key":"08315064","name":"Kirchzarten","type":"Kreisangehörige_Gemeinde"},"district":{"key":"08315","name":"Breisgau-Hochschwarzwald","type":"Landkreis"},"federalState":{"key":"08","name":"Baden-Württemberg"}},{"name":"Dr.-Gremmelsbacher-Str.","postalCode":"79199","locality":"Kirchzarten","municipality":{"key":"08315064","name":"Kirchzarten","type":"Kreisangehörige_Gemeinde"},"district":{"key":"08315","name":"Breisgau-Hochschwarzwald","type":"Landkreis"},"federalState":{"key":"08","name":"Baden-Württemberg"}},{"name":"Eichendorffstr.","postalCode":"79199","locality":"Kirchzarten","municipality":{"key":"08315064","name":"Kirchzarten","type":"Kreisangehörige_Gemeinde"},"district":{"key":"08315","name":"Breisgau-Hochschwarzwald","type":"Landkreis"},"federalState":{"key":"08","name":"Baden-Württemberg"}},{"name":"Eichweg","postalCode":"79199","locality":"Kirchzarten","municipality":{"key":"08315064","name":"Kirchzarten","type":"Kreisangehörige_Gemeinde"},"district":{"key":"08315","name":"Breisgau-Hochschwarzwald","type":"Landkreis"},"federalState":{"key":"08","name":"Baden-Württemberg"}},{"name":"Erich-Rieder-Str.","postalCode":"79199","locality":"Kirchzarten","municipality":{"key":"08315064","name":"Kirchzarten","type":"Kreisangehörige_Gemeinde"},"district":{"key":"08315","name":"Breisgau-Hochschwarzwald","type":"Landkreis"},"federalState":{"key":"08","name":"Baden-Württemberg"}},{"name":"Eschbachstr.","postalCode":"79199","locality":"Kirchzarten","municipality":{"key":"08315064","name":"Kirchzarten","type":"Kreisangehörige_Gemeinde"},"district":{"key":"08315","name":"Breisgau-Hochschwarzwald","type":"Landkreis"},"federalState":{"key":"08","name":"Baden-Württemberg"}},{"name":"Eschenweg","postalCode":"79199","locality":"Kirchzarten","municipality":{"key":"08315064","name":"Kirchzarten","type":"Kreisangehörige_Gemeinde"},"district":{"key":"08315","name":"Breisgau-Hochschwarzwald","type":"Landkreis"},"federalState":{"key":"08","name":"Baden-Württemberg"}},{"name":"Falkensteinweg","postalCode":"79199","locality":"Kirchzarten","municipality":{"key":"08315064","name":"Kirchzarten","type":"Kreisangehörige_Gemeinde"},"district":{"key":"08315","name":"Breisgau-Hochschwarzwald","type":"Landkreis"},"federalState":{"key":"08","name":"Baden-Württemberg"}},{"name":"Feldbergstr.","postalCode":"79199","locality":"Kirchzarten","municipality":{"key":"08315064","name":"Kirchzarten","type":"Kreisangehörige_Gemeinde"},"district":{"key":"08315","name":"Breisgau-Hochschwarzwald","type":"Landkreis"},"federalState":{"key":"08","name":"Baden-Württemberg"}},{"name":"Flaunserstr.","postalCode":"79199","locality":"Kirchzarten","municipality":{"key":"08315064","name":"Kirchzarten","type":"Kreisangehörige_Gemeinde"},"district":{"key":"08315","name":"Breisgau-Hochschwarzwald","type":"Landkreis"},"federalState":{"key":"08","name":"Baden-Württemberg"}},{"name":"Freiburger Str.","postalCode":"79199","locality":"Kirchzarten","municipality":{"key":"08315064","name":"Kirchzarten","type":"Kreisangehörige_Gemeinde"},"district":{"key":"08315","name":"Breisgau-Hochschwarzwald","type":"Landkreis"},"federalState":{"key":"08","name":"Baden-Württemberg"}},{"name":"Friedhof","postalCode":"79199","locality":"Kirchzarten","municipality":{"key":"08315064","name":"Kirchzarten","type":"Kreisangehörige_Gemeinde"},"district":{"key":"08315","name":"Breisgau-Hochschwarzwald","type":"Landkreis"},"federalState":{"key":"08","name":"Baden-Württemberg"}},{"name":"Friedhofstr.","postalCode":"79199","locality":"Kirchzarten","municipality":{"key":"08315064","name":"Kirchzarten","type":"Kreisangehörige_Gemeinde"},"district":{"key":"08315","name":"Breisgau-Hochschwarzwald","type":"Landkreis"},"federalState":{"key":"08","name":"Baden-Württemberg"}},{"name":"Fürstenbergstr.","postalCode":"79199","locality":"Kirchzarten","municipality":{"key":"08315064","name":"Kirchzarten","type":"Kreisangehörige_Gemeinde"},"district":{"key":"08315","name":"Breisgau-Hochschwarzwald","type":"Landkreis"},"federalState":{"key":"08","name":"Baden-Württemberg"}},{"name":"Gartenstr.","postalCode":"79199","locality":"Kirchzarten","municipality":{"key":"08315064","name":"Kirchzarten","type":"Kreisangehörige_Gemeinde"},"district":{"key":"08315","name":"Breisgau-Hochschwarzwald","type":"Landkreis"},"federalState":{"key":"08","name":"Baden-Württemberg"}},{"name":"Geroldstalstr.","postalCode":"79199","locality":"Kirchzarten","municipality":{"key":"08315064","name":"Kirchzarten","type":"Kreisangehörige_Gemeinde"},"district":{"key":"08315","name":"Breisgau-Hochschwarzwald","type":"Landkreis"},"federalState":{"key":"08","name":"Baden-Württemberg"}},{"name":"Gerwigstr.","postalCode":"79199","locality":"Kirchzarten","municipality":{"key":"08315064","name":"Kirchzarten","type":"Kreisangehörige_Gemeinde"},"district":{"key":"08315","name":"Breisgau-Hochschwarzwald","type":"Landkreis"},"federalState":{"key":"08","name":"Baden-Württemberg"}},{"name":"Gewerbestr.","postalCode":"79199","locality":"Kirchzarten","municipality":{"key":"08315064","name":"Kirchzarten","type":"Kreisangehörige_Gemeinde"},"district":{"key":"08315","name":"Breisgau-Hochschwarzwald","type":"Landkreis"},"federalState":{"key":"08","name":"Baden-Württemberg"}},{"name":"Giersbergstr.","postalCode":"79199","locality":"Kirchzarten","municipality":{"key":"08315064","name":"Kirchzarten","type":"Kreisangehörige_Gemeinde"},"district":{"key":"08315","name":"Breisgau-Hochschwarzwald","type":"Landkreis"},"federalState":{"key":"08","name":"Baden-Württemberg"}},{"name":"Gütleackerstr.","postalCode":"79199","locality":"Kirchzarten","municipality":{"key":"08315064","name":"Kirchzarten","type":"Kreisangehörige_Gemeinde"},"district":{"key":"08315","name":"Breisgau-Hochschwarzwald","type":"Landkreis"},"federalState":{"key":"08","name":"Baden-Württemberg"}},{"name":"Hanselhofstr.","postalCode":"79199","locality":"Kirchzarten","municipality":{"key":"08315064","name":"Kirchzarten","type":"Kreisangehörige_Gemeinde"},"district":{"key":"08315","name":"Breisgau-Hochschwarzwald","type":"Landkreis"},"federalState":{"key":"08","name":"Baden-Württemberg"}},{"name":"Hansjakobstr.","postalCode":"79199","locality":"Kirchzarten","municipality":{"key":"08315064","name":"Kirchzarten","type":"Kreisangehörige_Gemeinde"},"district":{"key":"08315","name":"Breisgau-Hochschwarzwald","type":"Landkreis"},"federalState":{"key":"08","name":"Baden-Württemberg"}},{"name":"Hans-Thoma-Str.","postalCode":"79199","locality":"Kirchzarten","municipality":{"key":"08315064","name":"Kirchzarten","type":"Kreisangehörige_Gemeinde"},"district":{"key":"08315","name":"Breisgau-Hochschwarzwald","type":"Landkreis"},"federalState":{"key":"08","name":"Baden-Württemberg"}},{"name":"Hauptstr.","postalCode":"79199","locality":"Kirchzarten","municipality":{"key":"08315064","name":"Kirchzarten","type":"Kreisangehörige_Gemeinde"},"district":{"key":"08315","name":"Breisgau-Hochschwarzwald","type":"Landkreis"},"federalState":{"key":"08","name":"Baden-Württemberg"}},{"name":"Hebelstr.","postalCode":"79199","locality":"Kirchzarten","municipality":{"key":"08315064","name":"Kirchzarten","type":"Kreisangehörige_Gemeinde"},"district":{"key":"08315","name":"Breisgau-Hochschwarzwald","type":"Landkreis"},"federalState":{"key":"08","name":"Baden-Württemberg"}},{"name":"Heimatstr.","postalCode":"79199","locality":"Kirchzarten","municipality":{"key":"08315064","name":"Kirchzarten","type":"Kreisangehörige_Gemeinde"},"district":{"key":"08315","name":"Breisgau-Hochschwarzwald","type":"Landkreis"},"federalState":{"key":"08","name":"Baden-Württemberg"}},{"name":"Himmelreich","postalCode":"79199","locality":"Kirchzarten","municipality":{"key":"08315064","name":"Kirchzarten","type":"Kreisangehörige_Gemeinde"},"district":{"key":"08315","name":"Breisgau-Hochschwarzwald","type":"Landkreis"},"federalState":{"key":"08","name":"Baden-Württemberg"}},{"name":"Hinterer Dobelweg","postalCode":"79199","locality":"Kirchzarten","municipality":{"key":"08315064","name":"Kirchzarten","type":"Kreisangehörige_Gemeinde"},"district":{"key":"08315","name":"Breisgau-Hochschwarzwald","type":"Landkreis"},"federalState":{"key":"08","name":"Baden-Württemberg"}},{"name":"Höfener Str.","postalCode":"79199","locality":"Kirchzarten","municipality":{"key":"08315064","name":"Kirchzarten","type":"Kreisangehörige_Gemeinde"},"district":{"key":"08315","name":"Breisgau-Hochschwarzwald","type":"Landkreis"},"federalState":{"key":"08","name":"Baden-Württemberg"}},{"name":"Hohlgasse","postalCode":"79199","locality":"Kirchzarten","municipality":{"key":"08315064","name":"Kirchzarten","type":"Kreisangehörige_Gemeinde"},"district":{"key":"08315","name":"Breisgau-Hochschwarzwald","type":"Landkreis"},"federalState":{"key":"08","name":"Baden-Württemberg"}},{"name":"Höllentalstr.","postalCode":"79199","locality":"Kirchzarten","municipality":{"key":"08315064","name":"Kirchzarten","type":"Kreisangehörige_Gemeinde"},"district":{"key":"08315","name":"Breisgau-Hochschwarzwald","type":"Landkreis"},"federalState":{"key":"08","name":"Baden-Württemberg"}},{"name":"Holzeckstr.","postalCode":"79199","locality":"Kirchzarten","municipality":{"key":"08315064","name":"Kirchzarten","type":"Kreisangehörige_Gemeinde"},"district":{"key":"08315","name":"Breisgau-Hochschwarzwald","type":"Landkreis"},"federalState":{"key":"08","name":"Baden-Württemberg"}},{"name":"Ibentalstr.","postalCode":"79199","locality":"Kirchzarten","municipality":{"key":"08315064","name":"Kirchzarten","type":"Kreisangehörige_Gemeinde"},"district":{"key":"08315","name":"Breisgau-Hochschwarzwald","type":"Landkreis"},"federalState":{"key":"08","name":"Baden-Württemberg"}},{"name":"Im Eck","postalCode":"79199","locality":"Kirchzarten","municipality":{"key":"08315064","name":"Kirchzarten","type":"Kreisangehörige_Gemeinde"},"district":{"key":"08315","name":"Breisgau-Hochschwarzwald","type":"Landkreis"},"federalState":{"key":"08","name":"Baden-Württemberg"}},{"name":"Im Gässle","postalCode":"79199","locality":"Kirchzarten","municipality":{"key":"08315064","name":"Kirchzarten","type":"Kreisangehörige_Gemeinde"},"district":{"key":"08315","name":"Breisgau-Hochschwarzwald","type":"Landkreis"},"federalState":{"key":"08","name":"Baden-Württemberg"}},{"name":"Im Grün","postalCode":"79199","locality":"Kirchzarten","municipality":{"key":"08315064","name":"Kirchzarten","type":"Kreisangehörige_Gemeinde"},"district":{"key":"08315","name":"Breisgau-Hochschwarzwald","type":"Landkreis"},"federalState":{"key":"08","name":"Baden-Württemberg"}},{"name":"In den Aumatten","postalCode":"79199","locality":"Kirchzarten","municipality":{"key":"08315064","name":"Kirchzarten","type":"Kreisangehörige_Gemeinde"},"district":{"key":"08315","name":"Breisgau-Hochschwarzwald","type":"Landkreis"},"federalState":{"key":"08","name":"Baden-Württemberg"}},{"name":"Inselstr.","postalCode":"79199","locality":"Kirchzarten","municipality":{"key":"08315064","name":"Kirchzarten","type":"Kreisangehörige_Gemeinde"},"district":{"key":"08315","name":"Breisgau-Hochschwarzwald","type":"Landkreis"},"federalState":{"key":"08","name":"Baden-Württemberg"}},{"name":"Johannes-Thiel-Str.","postalCode":"79199","locality":"Kirchzarten","municipality":{"key":"08315064","name":"Kirchzarten","type":"Kreisangehörige_Gemeinde"},"district":{"key":"08315","name":"Breisgau-Hochschwarzwald","type":"Landkreis"},"federalState":{"key":"08","name":"Baden-Württemberg"}},{"name":"Josef-Saier-Str.","postalCode":"79199","locality":"Kirchzarten","municipality":{"key":"08315064","name":"Kirchzarten","type":"Kreisangehörige_Gemeinde"},"district":{"key":"08315","name":"Breisgau-Hochschwarzwald","type":"Landkreis"},"federalState":{"key":"08","name":"Baden-Württemberg"}},{"name":"Kandelstr.","postalCode":"79199","locality":"Kirchzarten","municipality":{"key":"08315064","name":"Kirchzarten","type":"Kreisangehörige_Gemeinde"},"district":{"key":"08315","name":"Breisgau-Hochschwarzwald","type":"Landkreis"},"federalState":{"key":"08","name":"Baden-Württemberg"}},{"name":"Kapellenweg","postalCode":"79199","locality":"Kirchzarten","municipality":{"key":"08315064","name":"Kirchzarten","type":"Kreisangehörige_Gemeinde"},"district":{"key":"08315","name":"Breisgau-Hochschwarzwald","type":"Landkreis"},"federalState":{"key":"08","name":"Baden-Württemberg"}},{"name":"Kastanienhof","postalCode":"79199","locality":"Kirchzarten","municipality":{"key":"08315064","name":"Kirchzarten","type":"Kreisangehörige_Gemeinde"},"district":{"key":"08315","name":"Breisgau-Hochschwarzwald","type":"Landkreis"},"federalState":{"key":"08","name":"Baden-Württemberg"}},{"name":"Keltenring","postalCode":"79199","locality":"Kirchzarten","municipality":{"key":"08315064","name":"Kirchzarten","type":"Kreisangehörige_Gemeinde"},"district":{"key":"08315","name":"Breisgau-Hochschwarzwald","type":"Landkreis"},"federalState":{"key":"08","name":"Baden-Württemberg"}},{"name":"Kirchplatz","postalCode":"79199","locality":"Kirchzarten","municipality":{"key":"08315064","name":"Kirchzarten","type":"Kreisangehörige_Gemeinde"},"district":{"key":"08315","name":"Breisgau-Hochschwarzwald","type":"Landkreis"},"federalState":{"key":"08","name":"Baden-Württemberg"}},{"name":"Kirschenhof","postalCode":"79199","locality":"Kirchzarten","municipality":{"key":"08315064","name":"Kirchzarten","type":"Kreisangehörige_Gemeinde"},"district":{"key":"08315","name":"Breisgau-Hochschwarzwald","type":"Landkreis"},"federalState":{"key":"08","name":"Baden-Württemberg"}},{"name":"Krüttweg","postalCode":"79199","locality":"Kirchzarten","municipality":{"key":"08315064","name":"Kirchzarten","type":"Kreisangehörige_Gemeinde"},"district":{"key":"08315","name":"Breisgau-Hochschwarzwald","type":"Landkreis"},"federalState":{"key":"08","name":"Baden-Württemberg"}},{"name":"Langenkreuzweg","postalCode":"79199","locality":"Kirchzarten","municipality":{"key":"08315064","name":"Kirchzarten","type":"Kreisangehörige_Gemeinde"},"district":{"key":"08315","name":"Breisgau-Hochschwarzwald","type":"Landkreis"},"federalState":{"key":"08","name":"Baden-Württemberg"}},{"name":"Lerchenfeldstr.","postalCode":"79199","locality":"Kirchzarten","municipality":{"key":"08315064","name":"Kirchzarten","type":"Kreisangehörige_Gemeinde"},"district":{"key":"08315","name":"Breisgau-Hochschwarzwald","type":"Landkreis"},"federalState":{"key":"08","name":"Baden-Württemberg"}},{"name":"Lindenaustr.","postalCode":"79199","locality":"Kirchzarten","municipality":{"key":"08315064","name":"Kirchzarten","type":"Kreisangehörige_Gemeinde"},"district":{"key":"08315","name":"Breisgau-Hochschwarzwald","type":"Landkreis"},"federalState":{"key":"08","name":"Baden-Württemberg"}},{"name":"Lindenbergstr.","postalCode":"79199","locality":"Kirchzarten","municipality":{"key":"08315064","name":"Kirchzarten","type":"Kreisangehörige_Gemeinde"},"district":{"key":"08315","name":"Breisgau-Hochschwarzwald","type":"Landkreis"},"federalState":{"key":"08","name":"Baden-Württemberg"}},{"name":"Lindenhof","postalCode":"79199","locality":"Kirchzarten","municipality":{"key":"08315064","name":"Kirchzarten","type":"Kreisangehörige_Gemeinde"},"district":{"key":"08315","name":"Breisgau-Hochschwarzwald","type":"Landkreis"},"federalState":{"key":"08","name":"Baden-Württemberg"}},{"name":"Löwenstr.","postalCode":"79199","locality":"Kirchzarten","municipality":{"key":"08315064","name":"Kirchzarten","type":"Kreisangehörige_Gemeinde"},"district":{"key":"08315","name":"Breisgau-Hochschwarzwald","type":"Landkreis"},"federalState":{"key":"08","name":"Baden-Württemberg"}},{"name":"Maria-Theresia-Str.","postalCode":"79199","locality":"Kirchzarten","municipality":{"key":"08315064","name":"Kirchzarten","type":"Kreisangehörige_Gemeinde"},"district":{"key":"08315","name":"Breisgau-Hochschwarzwald","type":"Landkreis"},"federalState":{"key":"08","name":"Baden-Württemberg"}},{"name":"Markenhofstr.","postalCode":"79199","locality":"Kirchzarten","municipality":{"key":"08315064","name":"Kirchzarten","type":"Kreisangehörige_Gemeinde"},"district":{"key":"08315","name":"Breisgau-Hochschwarzwald","type":"Landkreis"},"federalState":{"key":"08","name":"Baden-Württemberg"}},{"name":"Mattenweg","postalCode":"79199","locality":"Kirchzarten","municipality":{"key":"08315064","name":"Kirchzarten","type":"Kreisangehörige_Gemeinde"},"district":{"key":"08315","name":"Breisgau-Hochschwarzwald","type":"Landkreis"},"federalState":{"key":"08","name":"Baden-Württemberg"}},{"name":"Mühlenstr.","postalCode":"79199","locality":"Kirchzarten","municipality":{"key":"08315064","name":"Kirchzarten","type":"Kreisangehörige_Gemeinde"},"district":{"key":"08315","name":"Breisgau-Hochschwarzwald","type":"Landkreis"},"federalState":{"key":"08","name":"Baden-Württemberg"}},{"name":"Neuhäuserstr.","postalCode":"79199","locality":"Kirchzarten","municipality":{"key":"08315064","name":"Kirchzarten","type":"Kreisangehörige_Gemeinde"},"district":{"key":"08315","name":"Breisgau-Hochschwarzwald","type":"Landkreis"},"federalState":{"key":"08","name":"Baden-Württemberg"}},{"name":"Oberer Kohlbachweg","postalCode":"79199","locality":"Kirchzarten","municipality":{"key":"08315064","name":"Kirchzarten","type":"Kreisangehörige_Gemeinde"},"district":{"key":"08315","name":"Breisgau-Hochschwarzwald","type":"Landkreis"},"federalState":{"key":"08","name":"Baden-Württemberg"}},{"name":"Oberrieder Str.","postalCode":"79199","locality":"Kirchzarten","municipality":{"key":"08315064","name":"Kirchzarten","type":"Kreisangehörige_Gemeinde"},"district":{"key":"08315","name":"Breisgau-Hochschwarzwald","type":"Landkreis"},"federalState":{"key":"08","name":"Baden-Württemberg"}},{"name":"Ottenstr.","postalCode":"79199","locality":"Kirchzarten","municipality":{"key":"08315064","name":"Kirchzarten","type":"Kreisangehörige_Gemeinde"},"district":{"key":"08315","name":"Breisgau-Hochschwarzwald","type":"Landkreis"},"federalState":{"key":"08","name":"Baden-Württemberg"}},{"name":"Otto Steiert Weg","postalCode":"79199","locality":"Kirchzarten","municipality":{"key":"08315064","name":"Kirchzarten","type":"Kreisangehörige_Gemeinde"},"district":{"key":"08315","name":"Breisgau-Hochschwarzwald","type":"Landkreis"},"federalState":{"key":"08","name":"Baden-Württemberg"}},{"name":"Ringstr.","postalCode":"79199","locality":"Kirchzarten","municipality":{"key":"08315064","name":"Kirchzarten","type":"Kreisangehörige_Gemeinde"},"district":{"key":"08315","name":"Breisgau-Hochschwarzwald","type":"Landkreis"},"federalState":{"key":"08","name":"Baden-Württemberg"}},{"name":"Rosenweg","postalCode":"79199","locality":"Kirchzarten","municipality":{"key":"08315064","name":"Kirchzarten","type":"Kreisangehörige_Gemeinde"},"district":{"key":"08315","name":"Breisgau-Hochschwarzwald","type":"Landkreis"},"federalState":{"key":"08","name":"Baden-Württemberg"}},{"name":"Roßkopfstr.","postalCode":"79199","locality":"Kirchzarten","municipality":{"key":"08315064","name":"Kirchzarten","type":"Kreisangehörige_Gemeinde"},"district":{"key":"08315","name":"Breisgau-Hochschwarzwald","type":"Landkreis"},"federalState":{"key":"08","name":"Baden-Württemberg"}},{"name":"Roteckweg","postalCode":"79199","locality":"Kirchzarten","municipality":{"key":"08315064","name":"Kirchzarten","type":"Kreisangehörige_Gemeinde"},"district":{"key":"08315","name":"Breisgau-Hochschwarzwald","type":"Landkreis"},"federalState":{"key":"08","name":"Baden-Württemberg"}},{"name":"Rotenweg","postalCode":"79199","locality":"Kirchzarten","municipality":{"key":"08315064","name":"Kirchzarten","type":"Kreisangehörige_Gemeinde"},"district":{"key":"08315","name":"Breisgau-Hochschwarzwald","type":"Landkreis"},"federalState":{"key":"08","name":"Baden-Württemberg"}},{"name":"Sägeplatz","postalCode":"79199","locality":"Kirchzarten","municipality":{"key":"08315064","name":"Kirchzarten","type":"Kreisangehörige_Gemeinde"},"district":{"key":"08315","name":"Breisgau-Hochschwarzwald","type":"Landkreis"},"federalState":{"key":"08","name":"Baden-Württemberg"}},{"name":"Sankt Peter Str.","postalCode":"79199","locality":"Kirchzarten","municipality":{"key":"08315064","name":"Kirchzarten","type":"Kreisangehörige_Gemeinde"},"district":{"key":"08315","name":"Breisgau-Hochschwarzwald","type":"Landkreis"},"federalState":{"key":"08","name":"Baden-Württemberg"}},{"name":"Schauinslandstr.","postalCode":"79199","locality":"Kirchzarten","municipality":{"key":"08315064","name":"Kirchzarten","type":"Kreisangehörige_Gemeinde"},"district":{"key":"08315","name":"Breisgau-Hochschwarzwald","type":"Landkreis"},"federalState":{"key":"08","name":"Baden-Württemberg"}},{"name":"Scheffelstr.","postalCode":"79199","locality":"Kirchzarten","municipality":{"key":"08315064","name":"Kirchzarten","type":"Kreisangehörige_Gemeinde"},"district":{"key":"08315","name":"Breisgau-Hochschwarzwald","type":"Landkreis"},"federalState":{"key":"08","name":"Baden-Württemberg"}},{"name":"Schulhausstr.","postalCode":"79199","locality":"Kirchzarten","municipality":{"key":"08315064","name":"Kirchzarten","type":"Kreisangehörige_Gemeinde"},"district":{"key":"08315","name":"Breisgau-Hochschwarzwald","type":"Landkreis"},"federalState":{"key":"08","name":"Baden-Württemberg"}},{"name":"Schützenweg","postalCode":"79199","locality":"Kirchzarten","municipality":{"key":"08315064","name":"Kirchzarten","type":"Kreisangehörige_Gemeinde"},"district":{"key":"08315","name":"Breisgau-Hochschwarzwald","type":"Landkreis"},"federalState":{"key":"08","name":"Baden-Württemberg"}},{"name":"Schwarzwaldstr.","postalCode":"79199","locality":"Kirchzarten","municipality":{"key":"08315064","name":"Kirchzarten","type":"Kreisangehörige_Gemeinde"},"district":{"key":"08315","name":"Breisgau-Hochschwarzwald","type":"Landkreis"},"federalState":{"key":"08","name":"Baden-Württemberg"}},{"name":"Silberbrunnenstr.","postalCode":"79199","locality":"Kirchzarten","municipality":{"key":"08315064","name":"Kirchzarten","type":"Kreisangehörige_Gemeinde"},"district":{"key":"08315","name":"Breisgau-Hochschwarzwald","type":"Landkreis"},"federalState":{"key":"08","name":"Baden-Württemberg"}},{"name":"Sonneckstr.","postalCode":"79199","locality":"Kirchzarten","municipality":{"key":"08315064","name":"Kirchzarten","type":"Kreisangehörige_Gemeinde"},"district":{"key":"08315","name":"Breisgau-Hochschwarzwald","type":"Landkreis"},"federalState":{"key":"08","name":"Baden-Württemberg"}},{"name":"Sonneckweg","postalCode":"79199","locality":"Kirchzarten","municipality":{"key":"08315064","name":"Kirchzarten","type":"Kreisangehörige_Gemeinde"},"district":{"key":"08315","name":"Breisgau-Hochschwarzwald","type":"Landkreis"},"federalState":{"key":"08","name":"Baden-Württemberg"}},{"name":"Stegener Str.","postalCode":"79199","locality":"Kirchzarten","municipality":{"key":"08315064","name":"Kirchzarten","type":"Kreisangehörige_Gemeinde"},"district":{"key":"08315","name":"Breisgau-Hochschwarzwald","type":"Landkreis"},"federalState":{"key":"08","name":"Baden-Württemberg"}},{"name":"St.-Galler-Str.","postalCode":"79199","locality":"Kirchzarten","municipality":{"key":"08315064","name":"Kirchzarten","type":"Kreisangehörige_Gemeinde"},"district":{"key":"08315","name":"Breisgau-Hochschwarzwald","type":"Landkreis"},"federalState":{"key":"08","name":"Baden-Württemberg"}},{"name":"St. Johannes Weg","postalCode":"79199","locality":"Kirchzarten","municipality":{"key":"08315064","name":"Kirchzarten","type":"Kreisangehörige_Gemeinde"},"district":{"key":"08315","name":"Breisgau-Hochschwarzwald","type":"Landkreis"},"federalState":{"key":"08","name":"Baden-Württemberg"}},{"name":"St. Peter Str.","postalCode":"79199","locality":"Kirchzarten","municipality":{"key":"08315064","name":"Kirchzarten","type":"Kreisangehörige_Gemeinde"},"district":{"key":"08315","name":"Breisgau-Hochschwarzwald","type":"Landkreis"},"federalState":{"key":"08","name":"Baden-Württemberg"}},{"name":"Talvogteistr.","postalCode":"79199","locality":"Kirchzarten","municipality":{"key":"08315064","name":"Kirchzarten","type":"Kreisangehörige_Gemeinde"},"district":{"key":"08315","name":"Breisgau-Hochschwarzwald","type":"Landkreis"},"federalState":{"key":"08","name":"Baden-Württemberg"}},{"name":"Thaddäushofweg","postalCode":"79199","locality":"Kirchzarten","municipality":{"key":"08315064","name":"Kirchzarten","type":"Kreisangehörige_Gemeinde"},"district":{"key":"08315","name":"Breisgau-Hochschwarzwald","type":"Landkreis"},"federalState":{"key":"08","name":"Baden-Württemberg"}},{"name":"Weilerweg","postalCode":"79199","locality":"Kirchzarten","municipality":{"key":"08315064","name":"Kirchzarten","type":"Kreisangehörige_Gemeinde"},"district":{"key":"08315","name":"Breisgau-Hochschwarzwald","type":"Landkreis"},"federalState":{"key":"08","name":"Baden-Württemberg"}},{"name":"Wilhelm-Schauenberg-Str.","postalCode":"79199","locality":"Kirchzarten","municipality":{"key":"08315064","name":"Kirchzarten","type":"Kreisangehörige_Gemeinde"},"district":{"key":"08315","name":"Breisgau-Hochschwarzwald","type":"Landkreis"},"federalState":{"key":"08","name":"Baden-Württemberg"}},{"name":"Wittentalstr.","postalCode":"79199","locality":"Kirchzarten","municipality":{"key":"08315064","name":"Kirchzarten","type":"Kreisangehörige_Gemeinde"},"district":{"key":"08315","name":"Breisgau-Hochschwarzwald","type":"Landkreis"},"federalState":{"key":"08","name":"Baden-Württemberg"}},{"name":"Zardunastr.","postalCode":"79199","locality":"Kirchzarten","municipality":{"key":"08315064","name":"Kirchzarten","type":"Kreisangehörige_Gemeinde"},"district":{"key":"08315","name":"Breisgau-Hochschwarzwald","type":"Landkreis"},"federalState":{"key":"08","name":"Baden-Württemberg"}},{"name":"Zur Sägemühle","postalCode":"79199","locality":"Kirchzarten","municipality":{"key":"08315064","name":"Kirchzarten","type":"Kreisangehörige_Gemeinde"},"district":{"key":"08315","name":"Breisgau-Hochschwarzwald","type":"Landkreis"},"federalState":{"key":"08","name":"Baden-Württemberg"}},]