[{"name":"Aspenkehle","postalCode":"67468","locality":"Neidenfels","municipality":{"key":"07332037","name":"Neidenfels","type":"Kreisangehörige_Gemeinde"},"district":{"key":"07332","name":"Bad Dürkheim","type":"Landkreis"},"federalState":{"key":"07","name":"Rheinland-Pfalz"}},{"name":"Bürgerplatz","postalCode":"67468","locality":"Neidenfels","municipality":{"key":"07332037","name":"Neidenfels","type":"Kreisangehörige_Gemeinde"},"district":{"key":"07332","name":"Bad Dürkheim","type":"Landkreis"},"federalState":{"key":"07","name":"Rheinland-Pfalz"}},{"name":"Carl-Korbmann-Str.","postalCode":"67098","locality":"Bad Dürkheim","municipality":{"key":"07332002","name":"Bad Dürkheim, Stadt","type":"Stadt"},"district":{"key":"07332","name":"Bad Dürkheim","type":"Landkreis"},"federalState":{"key":"07","name":"Rheinland-Pfalz"}},{"name":"Chemnitzer Str.","postalCode":"67098","locality":"Bad Dürkheim","municipality":{"key":"07332002","name":"Bad Dürkheim, Stadt","type":"Stadt"},"district":{"key":"07332","name":"Bad Dürkheim","type":"Landkreis"},"federalState":{"key":"07","name":"Rheinland-Pfalz"}},{"name":"Deidesheimer Weg","postalCode":"67468","locality":"Neidenfels","municipality":{"key":"07332037","name":"Neidenfels","type":"Kreisangehörige_Gemeinde"},"district":{"key":"07332","name":"Bad Dürkheim","type":"Landkreis"},"federalState":{"key":"07","name":"Rheinland-Pfalz"}},{"name":"Deidesheimer Weg Ost","postalCode":"67468","locality":"Neidenfels","municipality":{"key":"07332037","name":"Neidenfels","type":"Kreisangehörige_Gemeinde"},"district":{"key":"07332","name":"Bad Dürkheim","type":"Landkreis"},"federalState":{"key":"07","name":"Rheinland-Pfalz"}},{"name":"Dorfstr.","postalCode":"67468","locality":"Neidenfels","municipality":{"key":"07332037","name":"Neidenfels","type":"Kreisangehörige_Gemeinde"},"district":{"key":"07332","name":"Bad Dürkheim","type":"Landkreis"},"federalState":{"key":"07","name":"Rheinland-Pfalz"}},{"name":"Eduard-Jost-Str.","postalCode":"67098","locality":"Bad Dürkheim","municipality":{"key":"07332002","name":"Bad Dürkheim, Stadt","type":"Stadt"},"district":{"key":"07332","name":"Bad Dürkheim","type":"Landkreis"},"federalState":{"key":"07","name":"Rheinland-Pfalz"}},{"name":"Eichenplatz","postalCode":"67098","locality":"Bad Dürkheim","municipality":{"key":"07332002","name":"Bad Dürkheim, Stadt","type":"Stadt"},"district":{"key":"07332","name":"Bad Dürkheim","type":"Landkreis"},"federalState":{"key":"07","name":"Rheinland-Pfalz"}},{"name":"Eichstr.","postalCode":"67098","locality":"Bad Dürkheim","municipality":{"key":"07332002","name":"Bad Dürkheim, Stadt","type":"Stadt"},"district":{"key":"07332","name":"Bad Dürkheim","type":"Landkreis"},"federalState":{"key":"07","name":"Rheinland-Pfalz"}},{"name":"Entengasse","postalCode":"67098","locality":"Bad Dürkheim","municipality":{"key":"07332002","name":"Bad Dürkheim, Stadt","type":"Stadt"},"district":{"key":"07332","name":"Bad Dürkheim","type":"Landkreis"},"federalState":{"key":"07","name":"Rheinland-Pfalz"}},{"name":"Erlenweg","postalCode":"67098","locality":"Bad Dürkheim","municipality":{"key":"07332002","name":"Bad Dürkheim, Stadt","type":"Stadt"},"district":{"key":"07332","name":"Bad Dürkheim","type":"Landkreis"},"federalState":{"key":"07","name":"Rheinland-Pfalz"}},{"name":"Erpolzheimer Str.","postalCode":"67098","locality":"Bad Dürkheim","municipality":{"key":"07332002","name":"Bad Dürkheim, Stadt","type":"Stadt"},"district":{"key":"07332","name":"Bad Dürkheim","type":"Landkreis"},"federalState":{"key":"07","name":"Rheinland-Pfalz"}},{"name":"Eschenweg","postalCode":"67098","locality":"Bad Dürkheim","municipality":{"key":"07332002","name":"Bad Dürkheim, Stadt","type":"Stadt"},"district":{"key":"07332","name":"Bad Dürkheim","type":"Landkreis"},"federalState":{"key":"07","name":"Rheinland-Pfalz"}},{"name":"Flurbergstr.","postalCode":"67468","locality":"Neidenfels","municipality":{"key":"07332037","name":"Neidenfels","type":"Kreisangehörige_Gemeinde"},"district":{"key":"07332","name":"Bad Dürkheim","type":"Landkreis"},"federalState":{"key":"07","name":"Rheinland-Pfalz"}},{"name":"Fuchsackerweg","postalCode":"67468","locality":"Neidenfels","municipality":{"key":"07332037","name":"Neidenfels","type":"Kreisangehörige_Gemeinde"},"district":{"key":"07332","name":"Bad Dürkheim","type":"Landkreis"},"federalState":{"key":"07","name":"Rheinland-Pfalz"}},{"name":"Gartenstr.","postalCode":"67098","locality":"Bad Dürkheim","municipality":{"key":"07332002","name":"Bad Dürkheim, Stadt","type":"Stadt"},"district":{"key":"07332","name":"Bad Dürkheim","type":"Landkreis"},"federalState":{"key":"07","name":"Rheinland-Pfalz"}},{"name":"Gaustr.","postalCode":"67098","locality":"Bad Dürkheim","municipality":{"key":"07332002","name":"Bad Dürkheim, Stadt","type":"Stadt"},"district":{"key":"07332","name":"Bad Dürkheim","type":"Landkreis"},"federalState":{"key":"07","name":"Rheinland-Pfalz"}},{"name":"Gelber Balken; Blau-Weißer Balken; Gelb-Roter Balken; Roter Balken; Blauer Balken","postalCode":"67098","locality":"Bad Dürkheim","municipality":{"key":"07332002","name":"Bad Dürkheim, Stadt","type":"Stadt"},"district":{"key":"07332","name":"Bad Dürkheim","type":"Landkreis"},"federalState":{"key":"07","name":"Rheinland-Pfalz"}},{"name":"Gerberstr.","postalCode":"67098","locality":"Bad Dürkheim","municipality":{"key":"07332002","name":"Bad Dürkheim, Stadt","type":"Stadt"},"district":{"key":"07332","name":"Bad Dürkheim","type":"Landkreis"},"federalState":{"key":"07","name":"Rheinland-Pfalz"}},{"name":"Goethestr.","postalCode":"67098","locality":"Bad Dürkheim","municipality":{"key":"07332002","name":"Bad Dürkheim, Stadt","type":"Stadt"},"district":{"key":"07332","name":"Bad Dürkheim","type":"Landkreis"},"federalState":{"key":"07","name":"Rheinland-Pfalz"}},{"name":"Grasweg","postalCode":"67098","locality":"Bad Dürkheim","municipality":{"key":"07332002","name":"Bad Dürkheim, Stadt","type":"Stadt"},"district":{"key":"07332","name":"Bad Dürkheim","type":"Landkreis"},"federalState":{"key":"07","name":"Rheinland-Pfalz"}},{"name":"Großes Eppental","postalCode":"67098","locality":"Bad Dürkheim","municipality":{"key":"07332002","name":"Bad Dürkheim, Stadt","type":"Stadt"},"district":{"key":"07332","name":"Bad Dürkheim","type":"Landkreis"},"federalState":{"key":"07","name":"Rheinland-Pfalz"}},{"name":"Grünstreifen Fronhof 1","postalCode":"67098","locality":"Bad Dürkheim","municipality":{"key":"07332002","name":"Bad Dürkheim, Stadt","type":"Stadt"},"district":{"key":"07332","name":"Bad Dürkheim","type":"Landkreis"},"federalState":{"key":"07","name":"Rheinland-Pfalz"}},{"name":"Grünstreifen Fronhof II","postalCode":"67098","locality":"Bad Dürkheim","municipality":{"key":"07332002","name":"Bad Dürkheim, Stadt","type":"Stadt"},"district":{"key":"07332","name":"Bad Dürkheim","type":"Landkreis"},"federalState":{"key":"07","name":"Rheinland-Pfalz"}},{"name":"Guck ins Land","postalCode":"67098","locality":"Bad Dürkheim","municipality":{"key":"07332002","name":"Bad Dürkheim, Stadt","type":"Stadt"},"district":{"key":"07332","name":"Bad Dürkheim","type":"Landkreis"},"federalState":{"key":"07","name":"Rheinland-Pfalz"}},{"name":"Gundheimer Gasse","postalCode":"67098","locality":"Bad Dürkheim","municipality":{"key":"07332002","name":"Bad Dürkheim, Stadt","type":"Stadt"},"district":{"key":"07332","name":"Bad Dürkheim","type":"Landkreis"},"federalState":{"key":"07","name":"Rheinland-Pfalz"}},{"name":"Gustav-Kirchhoff-Str.","postalCode":"67098","locality":"Bad Dürkheim","municipality":{"key":"07332002","name":"Bad Dürkheim, Stadt","type":"Stadt"},"district":{"key":"07332","name":"Bad Dürkheim","type":"Landkreis"},"federalState":{"key":"07","name":"Rheinland-Pfalz"}},{"name":"Gutleutstr.","postalCode":"67098","locality":"Bad Dürkheim","municipality":{"key":"07332002","name":"Bad Dürkheim, Stadt","type":"Stadt"},"district":{"key":"07332","name":"Bad Dürkheim","type":"Landkreis"},"federalState":{"key":"07","name":"Rheinland-Pfalz"}},{"name":"Hauptstr.","postalCode":"67468","locality":"Neidenfels","municipality":{"key":"07332037","name":"Neidenfels","type":"Kreisangehörige_Gemeinde"},"district":{"key":"07332","name":"Bad Dürkheim","type":"Landkreis"},"federalState":{"key":"07","name":"Rheinland-Pfalz"}},{"name":"Hintertalstr.","postalCode":"67468","locality":"Neidenfels","municipality":{"key":"07332037","name":"Neidenfels","type":"Kreisangehörige_Gemeinde"},"district":{"key":"07332","name":"Bad Dürkheim","type":"Landkreis"},"federalState":{"key":"07","name":"Rheinland-Pfalz"}},{"name":"Im Burgfrieden","postalCode":"67098","locality":"Bad Dürkheim","municipality":{"key":"07332002","name":"Bad Dürkheim, Stadt","type":"Stadt"},"district":{"key":"07332","name":"Bad Dürkheim","type":"Landkreis"},"federalState":{"key":"07","name":"Rheinland-Pfalz"}},{"name":"Im Haseneck","postalCode":"67098","locality":"Bad Dürkheim","municipality":{"key":"07332002","name":"Bad Dürkheim, Stadt","type":"Stadt"},"district":{"key":"07332","name":"Bad Dürkheim","type":"Landkreis"},"federalState":{"key":"07","name":"Rheinland-Pfalz"}},{"name":"Im Letten","postalCode":"67098","locality":"Bad Dürkheim","municipality":{"key":"07332002","name":"Bad Dürkheim, Stadt","type":"Stadt"},"district":{"key":"07332","name":"Bad Dürkheim","type":"Landkreis"},"federalState":{"key":"07","name":"Rheinland-Pfalz"}},{"name":"Im Meisterwasental","postalCode":"67098","locality":"Bad Dürkheim","municipality":{"key":"07332002","name":"Bad Dürkheim, Stadt","type":"Stadt"},"district":{"key":"07332","name":"Bad Dürkheim","type":"Landkreis"},"federalState":{"key":"07","name":"Rheinland-Pfalz"}},{"name":"Im Nonnengarten","postalCode":"67098","locality":"Bad Dürkheim","municipality":{"key":"07332002","name":"Bad Dürkheim, Stadt","type":"Stadt"},"district":{"key":"07332","name":"Bad Dürkheim","type":"Landkreis"},"federalState":{"key":"07","name":"Rheinland-Pfalz"}},{"name":"Im Nußriegel","postalCode":"67098","locality":"Bad Dürkheim","municipality":{"key":"07332002","name":"Bad Dürkheim, Stadt","type":"Stadt"},"district":{"key":"07332","name":"Bad Dürkheim","type":"Landkreis"},"federalState":{"key":"07","name":"Rheinland-Pfalz"}},{"name":"Im Obergarten","postalCode":"67098","locality":"Bad Dürkheim","municipality":{"key":"07332002","name":"Bad Dürkheim, Stadt","type":"Stadt"},"district":{"key":"07332","name":"Bad Dürkheim","type":"Landkreis"},"federalState":{"key":"07","name":"Rheinland-Pfalz"}},{"name":"Im Riedwingert","postalCode":"67098","locality":"Bad Dürkheim","municipality":{"key":"07332002","name":"Bad Dürkheim, Stadt","type":"Stadt"},"district":{"key":"07332","name":"Bad Dürkheim","type":"Landkreis"},"federalState":{"key":"07","name":"Rheinland-Pfalz"}},{"name":"Im Röhrich","postalCode":"67098","locality":"Bad Dürkheim","municipality":{"key":"07332002","name":"Bad Dürkheim, Stadt","type":"Stadt"},"district":{"key":"07332","name":"Bad Dürkheim","type":"Landkreis"},"federalState":{"key":"07","name":"Rheinland-Pfalz"}},{"name":"Im Rustengut","postalCode":"67098","locality":"Bad Dürkheim","municipality":{"key":"07332002","name":"Bad Dürkheim, Stadt","type":"Stadt"},"district":{"key":"07332","name":"Bad Dürkheim","type":"Landkreis"},"federalState":{"key":"07","name":"Rheinland-Pfalz"}},{"name":"Im Salzbrunnen","postalCode":"67098","locality":"Bad Dürkheim","municipality":{"key":"07332002","name":"Bad Dürkheim, Stadt","type":"Stadt"},"district":{"key":"07332","name":"Bad Dürkheim","type":"Landkreis"},"federalState":{"key":"07","name":"Rheinland-Pfalz"}},{"name":"Im Schreck","postalCode":"67098","locality":"Bad Dürkheim","municipality":{"key":"07332002","name":"Bad Dürkheim, Stadt","type":"Stadt"},"district":{"key":"07332","name":"Bad Dürkheim","type":"Landkreis"},"federalState":{"key":"07","name":"Rheinland-Pfalz"}},{"name":"Im Stephansstück","postalCode":"67098","locality":"Bad Dürkheim","municipality":{"key":"07332002","name":"Bad Dürkheim, Stadt","type":"Stadt"},"district":{"key":"07332","name":"Bad Dürkheim","type":"Landkreis"},"federalState":{"key":"07","name":"Rheinland-Pfalz"}},{"name":"In den Almen","postalCode":"67098","locality":"Bad Dürkheim","municipality":{"key":"07332002","name":"Bad Dürkheim, Stadt","type":"Stadt"},"district":{"key":"07332","name":"Bad Dürkheim","type":"Landkreis"},"federalState":{"key":"07","name":"Rheinland-Pfalz"}},{"name":"In den Hammerwiesen","postalCode":"67098","locality":"Bad Dürkheim","municipality":{"key":"07332002","name":"Bad Dürkheim, Stadt","type":"Stadt"},"district":{"key":"07332","name":"Bad Dürkheim","type":"Landkreis"},"federalState":{"key":"07","name":"Rheinland-Pfalz"}},{"name":"In den Kappesgärten","postalCode":"67098","locality":"Bad Dürkheim","municipality":{"key":"07332002","name":"Bad Dürkheim, Stadt","type":"Stadt"},"district":{"key":"07332","name":"Bad Dürkheim","type":"Landkreis"},"federalState":{"key":"07","name":"Rheinland-Pfalz"}},{"name":"In den Kastaniengärten","postalCode":"67098","locality":"Bad Dürkheim","municipality":{"key":"07332002","name":"Bad Dürkheim, Stadt","type":"Stadt"},"district":{"key":"07332","name":"Bad Dürkheim","type":"Landkreis"},"federalState":{"key":"07","name":"Rheinland-Pfalz"}},{"name":"In den Langwiesen","postalCode":"67098","locality":"Bad Dürkheim","municipality":{"key":"07332002","name":"Bad Dürkheim, Stadt","type":"Stadt"},"district":{"key":"07332","name":"Bad Dürkheim","type":"Landkreis"},"federalState":{"key":"07","name":"Rheinland-Pfalz"}},{"name":"In den Weiden","postalCode":"67098","locality":"Bad Dürkheim","municipality":{"key":"07332002","name":"Bad Dürkheim, Stadt","type":"Stadt"},"district":{"key":"07332","name":"Bad Dürkheim","type":"Landkreis"},"federalState":{"key":"07","name":"Rheinland-Pfalz"}},{"name":"In der Fürth","postalCode":"67098","locality":"Bad Dürkheim","municipality":{"key":"07332002","name":"Bad Dürkheim, Stadt","type":"Stadt"},"district":{"key":"07332","name":"Bad Dürkheim","type":"Landkreis"},"federalState":{"key":"07","name":"Rheinland-Pfalz"}},{"name":"In der Nonnenhecke","postalCode":"67098","locality":"Bad Dürkheim","municipality":{"key":"07332002","name":"Bad Dürkheim, Stadt","type":"Stadt"},"district":{"key":"07332","name":"Bad Dürkheim","type":"Landkreis"},"federalState":{"key":"07","name":"Rheinland-Pfalz"}},{"name":"In der Silz","postalCode":"67098","locality":"Bad Dürkheim","municipality":{"key":"07332002","name":"Bad Dürkheim, Stadt","type":"Stadt"},"district":{"key":"07332","name":"Bad Dürkheim","type":"Landkreis"},"federalState":{"key":"07","name":"Rheinland-Pfalz"}},{"name":"Jahnstr.","postalCode":"67098","locality":"Bad Dürkheim","municipality":{"key":"07332002","name":"Bad Dürkheim, Stadt","type":"Stadt"},"district":{"key":"07332","name":"Bad Dürkheim","type":"Landkreis"},"federalState":{"key":"07","name":"Rheinland-Pfalz"}},{"name":"Jan-Daniel-Georgens-Str.","postalCode":"67098","locality":"Bad Dürkheim","municipality":{"key":"07332002","name":"Bad Dürkheim, Stadt","type":"Stadt"},"district":{"key":"07332","name":"Bad Dürkheim","type":"Landkreis"},"federalState":{"key":"07","name":"Rheinland-Pfalz"}},{"name":"Jasminring","postalCode":"67098","locality":"Bad Dürkheim","municipality":{"key":"07332002","name":"Bad Dürkheim, Stadt","type":"Stadt"},"district":{"key":"07332","name":"Bad Dürkheim","type":"Landkreis"},"federalState":{"key":"07","name":"Rheinland-Pfalz"}},{"name":"Kirchenstr.","postalCode":"67468","locality":"Neidenfels","municipality":{"key":"07332037","name":"Neidenfels","type":"Kreisangehörige_Gemeinde"},"district":{"key":"07332","name":"Bad Dürkheim","type":"Landkreis"},"federalState":{"key":"07","name":"Rheinland-Pfalz"}},{"name":"Langer Krummer Weg","postalCode":"67098","locality":"Bad Dürkheim","municipality":{"key":"07332002","name":"Bad Dürkheim, Stadt","type":"Stadt"},"district":{"key":"07332","name":"Bad Dürkheim","type":"Landkreis"},"federalState":{"key":"07","name":"Rheinland-Pfalz"}},{"name":"Langer Wingert","postalCode":"67098","locality":"Bad Dürkheim","municipality":{"key":"07332002","name":"Bad Dürkheim, Stadt","type":"Stadt"},"district":{"key":"07332","name":"Bad Dürkheim","type":"Landkreis"},"federalState":{"key":"07","name":"Rheinland-Pfalz"}},{"name":"Lärchenweg","postalCode":"67098","locality":"Bad Dürkheim","municipality":{"key":"07332002","name":"Bad Dürkheim, Stadt","type":"Stadt"},"district":{"key":"07332","name":"Bad Dürkheim","type":"Landkreis"},"federalState":{"key":"07","name":"Rheinland-Pfalz"}},{"name":"Lavendelweg","postalCode":"67098","locality":"Bad Dürkheim","municipality":{"key":"07332002","name":"Bad Dürkheim, Stadt","type":"Stadt"},"district":{"key":"07332","name":"Bad Dürkheim","type":"Landkreis"},"federalState":{"key":"07","name":"Rheinland-Pfalz"}},{"name":"Leiningerstr.","postalCode":"67098","locality":"Bad Dürkheim","municipality":{"key":"07332002","name":"Bad Dürkheim, Stadt","type":"Stadt"},"district":{"key":"07332","name":"Bad Dürkheim","type":"Landkreis"},"federalState":{"key":"07","name":"Rheinland-Pfalz"}},{"name":"Leistadter Str.","postalCode":"67098","locality":"Bad Dürkheim","municipality":{"key":"07332002","name":"Bad Dürkheim, Stadt","type":"Stadt"},"district":{"key":"07332","name":"Bad Dürkheim","type":"Landkreis"},"federalState":{"key":"07","name":"Rheinland-Pfalz"}},{"name":"Leopoldstr.","postalCode":"67098","locality":"Bad Dürkheim","municipality":{"key":"07332002","name":"Bad Dürkheim, Stadt","type":"Stadt"},"district":{"key":"07332","name":"Bad Dürkheim","type":"Landkreis"},"federalState":{"key":"07","name":"Rheinland-Pfalz"}},{"name":"Limburgstr.","postalCode":"67098","locality":"Bad Dürkheim","municipality":{"key":"07332002","name":"Bad Dürkheim, Stadt","type":"Stadt"},"district":{"key":"07332","name":"Bad Dürkheim","type":"Landkreis"},"federalState":{"key":"07","name":"Rheinland-Pfalz"}},{"name":"Lindenring","postalCode":"67098","locality":"Bad Dürkheim","municipality":{"key":"07332002","name":"Bad Dürkheim, Stadt","type":"Stadt"},"district":{"key":"07332","name":"Bad Dürkheim","type":"Landkreis"},"federalState":{"key":"07","name":"Rheinland-Pfalz"}},{"name":"Lingenfelder Str.","postalCode":"67098","locality":"Bad Dürkheim","municipality":{"key":"07332002","name":"Bad Dürkheim, Stadt","type":"Stadt"},"district":{"key":"07332","name":"Bad Dürkheim","type":"Landkreis"},"federalState":{"key":"07","name":"Rheinland-Pfalz"}},{"name":"Lorbeerweg","postalCode":"67098","locality":"Bad Dürkheim","municipality":{"key":"07332002","name":"Bad Dürkheim, Stadt","type":"Stadt"},"district":{"key":"07332","name":"Bad Dürkheim","type":"Landkreis"},"federalState":{"key":"07","name":"Rheinland-Pfalz"}},{"name":"Ludwig-Strauß-Str.","postalCode":"67098","locality":"Bad Dürkheim","municipality":{"key":"07332002","name":"Bad Dürkheim, Stadt","type":"Stadt"},"district":{"key":"07332","name":"Bad Dürkheim","type":"Landkreis"},"federalState":{"key":"07","name":"Rheinland-Pfalz"}},{"name":"Mühlweg","postalCode":"67468","locality":"Neidenfels","municipality":{"key":"07332037","name":"Neidenfels","type":"Kreisangehörige_Gemeinde"},"district":{"key":"07332","name":"Bad Dürkheim","type":"Landkreis"},"federalState":{"key":"07","name":"Rheinland-Pfalz"}},{"name":"Neugasse","postalCode":"67098","locality":"Bad Dürkheim","municipality":{"key":"07332002","name":"Bad Dürkheim, Stadt","type":"Stadt"},"district":{"key":"07332","name":"Bad Dürkheim","type":"Landkreis"},"federalState":{"key":"07","name":"Rheinland-Pfalz"}},{"name":"Nolzeruhe","postalCode":"67098","locality":"Bad Dürkheim","municipality":{"key":"07332002","name":"Bad Dürkheim, Stadt","type":"Stadt"},"district":{"key":"07332","name":"Bad Dürkheim","type":"Landkreis"},"federalState":{"key":"07","name":"Rheinland-Pfalz"}},{"name":"Oberer Finkenpfad","postalCode":"67098","locality":"Bad Dürkheim","municipality":{"key":"07332002","name":"Bad Dürkheim, Stadt","type":"Stadt"},"district":{"key":"07332","name":"Bad Dürkheim","type":"Landkreis"},"federalState":{"key":"07","name":"Rheinland-Pfalz"}},{"name":"Oberes Gaistal","postalCode":"67098","locality":"Bad Dürkheim","municipality":{"key":"07332002","name":"Bad Dürkheim, Stadt","type":"Stadt"},"district":{"key":"07332","name":"Bad Dürkheim","type":"Landkreis"},"federalState":{"key":"07","name":"Rheinland-Pfalz"}},{"name":"Obergasse","postalCode":"67098","locality":"Bad Dürkheim","municipality":{"key":"07332002","name":"Bad Dürkheim, Stadt","type":"Stadt"},"district":{"key":"07332","name":"Bad Dürkheim","type":"Landkreis"},"federalState":{"key":"07","name":"Rheinland-Pfalz"}},{"name":"Oleanderweg","postalCode":"67098","locality":"Bad Dürkheim","municipality":{"key":"07332002","name":"Bad Dürkheim, Stadt","type":"Stadt"},"district":{"key":"07332","name":"Bad Dürkheim","type":"Landkreis"},"federalState":{"key":"07","name":"Rheinland-Pfalz"}},{"name":"Otto-Schmitt-Groß-Str.","postalCode":"67098","locality":"Bad Dürkheim","municipality":{"key":"07332002","name":"Bad Dürkheim, Stadt","type":"Stadt"},"district":{"key":"07332","name":"Bad Dürkheim","type":"Landkreis"},"federalState":{"key":"07","name":"Rheinland-Pfalz"}},{"name":"Paray-le-Monial-Str.","postalCode":"67098","locality":"Bad Dürkheim","municipality":{"key":"07332002","name":"Bad Dürkheim, Stadt","type":"Stadt"},"district":{"key":"07332","name":"Bad Dürkheim","type":"Landkreis"},"federalState":{"key":"07","name":"Rheinland-Pfalz"}},{"name":"Pfarrer-Maurer-Str.","postalCode":"67098","locality":"Bad Dürkheim","municipality":{"key":"07332002","name":"Bad Dürkheim, Stadt","type":"Stadt"},"district":{"key":"07332","name":"Bad Dürkheim","type":"Landkreis"},"federalState":{"key":"07","name":"Rheinland-Pfalz"}},{"name":"Pfarrgässchen","postalCode":"67098","locality":"Bad Dürkheim","municipality":{"key":"07332002","name":"Bad Dürkheim, Stadt","type":"Stadt"},"district":{"key":"07332","name":"Bad Dürkheim","type":"Landkreis"},"federalState":{"key":"07","name":"Rheinland-Pfalz"}},{"name":"Pfeffingen","postalCode":"67098","locality":"Bad Dürkheim","municipality":{"key":"07332002","name":"Bad Dürkheim, Stadt","type":"Stadt"},"district":{"key":"07332","name":"Bad Dürkheim","type":"Landkreis"},"federalState":{"key":"07","name":"Rheinland-Pfalz"}},{"name":"Philipp-Fauth-Str.","postalCode":"67098","locality":"Bad Dürkheim","municipality":{"key":"07332002","name":"Bad Dürkheim, Stadt","type":"Stadt"},"district":{"key":"07332","name":"Bad Dürkheim","type":"Landkreis"},"federalState":{"key":"07","name":"Rheinland-Pfalz"}},{"name":"Philipp-Heinrich-Messer-Str.","postalCode":"67098","locality":"Bad Dürkheim","municipality":{"key":"07332002","name":"Bad Dürkheim, Stadt","type":"Stadt"},"district":{"key":"07332","name":"Bad Dürkheim","type":"Landkreis"},"federalState":{"key":"07","name":"Rheinland-Pfalz"}},{"name":"Philipp-Krämer-Ring","postalCode":"67098","locality":"Bad Dürkheim","municipality":{"key":"07332002","name":"Bad Dürkheim, Stadt","type":"Stadt"},"district":{"key":"07332","name":"Bad Dürkheim","type":"Landkreis"},"federalState":{"key":"07","name":"Rheinland-Pfalz"}},{"name":"Pinienweg","postalCode":"67098","locality":"Bad Dürkheim","municipality":{"key":"07332002","name":"Bad Dürkheim, Stadt","type":"Stadt"},"district":{"key":"07332","name":"Bad Dürkheim","type":"Landkreis"},"federalState":{"key":"07","name":"Rheinland-Pfalz"}},{"name":"Platanenring","postalCode":"67098","locality":"Bad Dürkheim","municipality":{"key":"07332002","name":"Bad Dürkheim, Stadt","type":"Stadt"},"district":{"key":"07332","name":"Bad Dürkheim","type":"Landkreis"},"federalState":{"key":"07","name":"Rheinland-Pfalz"}},{"name":"Pochelstr.","postalCode":"67098","locality":"Bad Dürkheim","municipality":{"key":"07332002","name":"Bad Dürkheim, Stadt","type":"Stadt"},"district":{"key":"07332","name":"Bad Dürkheim","type":"Landkreis"},"federalState":{"key":"07","name":"Rheinland-Pfalz"}},{"name":"Portugieserstr.","postalCode":"67098","locality":"Bad Dürkheim","municipality":{"key":"07332002","name":"Bad Dürkheim, Stadt","type":"Stadt"},"district":{"key":"07332","name":"Bad Dürkheim","type":"Landkreis"},"federalState":{"key":"07","name":"Rheinland-Pfalz"}},{"name":"Professor-Dillinger-Weg","postalCode":"67098","locality":"Bad Dürkheim","municipality":{"key":"07332002","name":"Bad Dürkheim, Stadt","type":"Stadt"},"district":{"key":"07332","name":"Bad Dürkheim","type":"Landkreis"},"federalState":{"key":"07","name":"Rheinland-Pfalz"}},{"name":"Prof.-Otto-Dill-Str.","postalCode":"67098","locality":"Bad Dürkheim","municipality":{"key":"07332002","name":"Bad Dürkheim, Stadt","type":"Stadt"},"district":{"key":"07332","name":"Bad Dürkheim","type":"Landkreis"},"federalState":{"key":"07","name":"Rheinland-Pfalz"}},{"name":"Richard-Wagner-Str.","postalCode":"67098","locality":"Bad Dürkheim","municipality":{"key":"07332002","name":"Bad Dürkheim, Stadt","type":"Stadt"},"district":{"key":"07332","name":"Bad Dürkheim","type":"Landkreis"},"federalState":{"key":"07","name":"Rheinland-Pfalz"}},{"name":"Rieslingstr.","postalCode":"67098","locality":"Bad Dürkheim","municipality":{"key":"07332002","name":"Bad Dürkheim, Stadt","type":"Stadt"},"district":{"key":"07332","name":"Bad Dürkheim","type":"Landkreis"},"federalState":{"key":"07","name":"Rheinland-Pfalz"}},{"name":"Ringstr.","postalCode":"67098","locality":"Bad Dürkheim","municipality":{"key":"07332002","name":"Bad Dürkheim, Stadt","type":"Stadt"},"district":{"key":"07332","name":"Bad Dürkheim","type":"Landkreis"},"federalState":{"key":"07","name":"Rheinland-Pfalz"}},{"name":"Robert-Bunsen-Str.","postalCode":"67098","locality":"Bad Dürkheim","municipality":{"key":"07332002","name":"Bad Dürkheim, Stadt","type":"Stadt"},"district":{"key":"07332","name":"Bad Dürkheim","type":"Landkreis"},"federalState":{"key":"07","name":"Rheinland-Pfalz"}},{"name":"Robert-Stolz-Str.","postalCode":"67098","locality":"Bad Dürkheim","municipality":{"key":"07332002","name":"Bad Dürkheim, Stadt","type":"Stadt"},"district":{"key":"07332","name":"Bad Dürkheim","type":"Landkreis"},"federalState":{"key":"07","name":"Rheinland-Pfalz"}},{"name":"Robinienweg","postalCode":"67098","locality":"Bad Dürkheim","municipality":{"key":"07332002","name":"Bad Dürkheim, Stadt","type":"Stadt"},"district":{"key":"07332","name":"Bad Dürkheim","type":"Landkreis"},"federalState":{"key":"07","name":"Rheinland-Pfalz"}},{"name":"Römerstr.","postalCode":"67098","locality":"Bad Dürkheim","municipality":{"key":"07332002","name":"Bad Dürkheim, Stadt","type":"Stadt"},"district":{"key":"07332","name":"Bad Dürkheim","type":"Landkreis"},"federalState":{"key":"07","name":"Rheinland-Pfalz"}},{"name":"Rosmarinweg","postalCode":"67098","locality":"Bad Dürkheim","municipality":{"key":"07332002","name":"Bad Dürkheim, Stadt","type":"Stadt"},"district":{"key":"07332","name":"Bad Dürkheim","type":"Landkreis"},"federalState":{"key":"07","name":"Rheinland-Pfalz"}},{"name":"Rotsteiger Weg","postalCode":"67098","locality":"Bad Dürkheim","municipality":{"key":"07332002","name":"Bad Dürkheim, Stadt","type":"Stadt"},"district":{"key":"07332","name":"Bad Dürkheim","type":"Landkreis"},"federalState":{"key":"07","name":"Rheinland-Pfalz"}},{"name":"Rübental","postalCode":"67098","locality":"Bad Dürkheim","municipality":{"key":"07332002","name":"Bad Dürkheim, Stadt","type":"Stadt"},"district":{"key":"07332","name":"Bad Dürkheim","type":"Landkreis"},"federalState":{"key":"07","name":"Rheinland-Pfalz"}},{"name":"Rudolf-Bart-Siedlung","postalCode":"67098","locality":"Bad Dürkheim","municipality":{"key":"07332002","name":"Bad Dürkheim, Stadt","type":"Stadt"},"district":{"key":"07332","name":"Bad Dürkheim","type":"Landkreis"},"federalState":{"key":"07","name":"Rheinland-Pfalz"}},{"name":"Schloßbergweg","postalCode":"67468","locality":"Neidenfels","municipality":{"key":"07332037","name":"Neidenfels","type":"Kreisangehörige_Gemeinde"},"district":{"key":"07332","name":"Bad Dürkheim","type":"Landkreis"},"federalState":{"key":"07","name":"Rheinland-Pfalz"}},{"name":"Schulstr.","postalCode":"67468","locality":"Neidenfels","municipality":{"key":"07332037","name":"Neidenfels","type":"Kreisangehörige_Gemeinde"},"district":{"key":"07332","name":"Bad Dürkheim","type":"Landkreis"},"federalState":{"key":"07","name":"Rheinland-Pfalz"}},{"name":"Staatsstr.","postalCode":"67468","locality":"Neidenfels","municipality":{"key":"07332037","name":"Neidenfels","type":"Kreisangehörige_Gemeinde"},"district":{"key":"07332","name":"Bad Dürkheim","type":"Landkreis"},"federalState":{"key":"07","name":"Rheinland-Pfalz"}},{"name":"Tannenweg","postalCode":"67098","locality":"Bad Dürkheim","municipality":{"key":"07332002","name":"Bad Dürkheim, Stadt","type":"Stadt"},"district":{"key":"07332","name":"Bad Dürkheim","type":"Landkreis"},"federalState":{"key":"07","name":"Rheinland-Pfalz"}},{"name":"Thymianweg","postalCode":"67098","locality":"Bad Dürkheim","municipality":{"key":"07332002","name":"Bad Dürkheim, Stadt","type":"Stadt"},"district":{"key":"07332","name":"Bad Dürkheim","type":"Landkreis"},"federalState":{"key":"07","name":"Rheinland-Pfalz"}},{"name":"Traminerweg","postalCode":"67098","locality":"Bad Dürkheim","municipality":{"key":"07332002","name":"Bad Dürkheim, Stadt","type":"Stadt"},"district":{"key":"07332","name":"Bad Dürkheim","type":"Landkreis"},"federalState":{"key":"07","name":"Rheinland-Pfalz"}},{"name":"Trifenpfad","postalCode":"67098","locality":"Bad Dürkheim","municipality":{"key":"07332002","name":"Bad Dürkheim, Stadt","type":"Stadt"},"district":{"key":"07332","name":"Bad Dürkheim","type":"Landkreis"},"federalState":{"key":"07","name":"Rheinland-Pfalz"}},{"name":"Triftweg","postalCode":"67098","locality":"Bad Dürkheim","municipality":{"key":"07332002","name":"Bad Dürkheim, Stadt","type":"Stadt"},"district":{"key":"07332","name":"Bad Dürkheim","type":"Landkreis"},"federalState":{"key":"07","name":"Rheinland-Pfalz"}},{"name":"Unter der Hardenburg","postalCode":"67098","locality":"Bad Dürkheim","municipality":{"key":"07332002","name":"Bad Dürkheim, Stadt","type":"Stadt"},"district":{"key":"07332","name":"Bad Dürkheim","type":"Landkreis"},"federalState":{"key":"07","name":"Rheinland-Pfalz"}},{"name":"Unteres Gaistal","postalCode":"67098","locality":"Bad Dürkheim","municipality":{"key":"07332002","name":"Bad Dürkheim, Stadt","type":"Stadt"},"district":{"key":"07332","name":"Bad Dürkheim","type":"Landkreis"},"federalState":{"key":"07","name":"Rheinland-Pfalz"}},{"name":"Vordertalstr.","postalCode":"67468","locality":"Neidenfels","municipality":{"key":"07332037","name":"Neidenfels","type":"Kreisangehörige_Gemeinde"},"district":{"key":"07332","name":"Bad Dürkheim","type":"Landkreis"},"federalState":{"key":"07","name":"Rheinland-Pfalz"}},{"name":"Waldweg","postalCode":"67468","locality":"Neidenfels","municipality":{"key":"07332037","name":"Neidenfels","type":"Kreisangehörige_Gemeinde"},"district":{"key":"07332","name":"Bad Dürkheim","type":"Landkreis"},"federalState":{"key":"07","name":"Rheinland-Pfalz"}},{"name":"Zwerlenbachstr.","postalCode":"67468","locality":"Neidenfels","municipality":{"key":"07332037","name":"Neidenfels","type":"Kreisangehörige_Gemeinde"},"district":{"key":"07332","name":"Bad Dürkheim","type":"Landkreis"},"federalState":{"key":"07","name":"Rheinland-Pfalz"}},{"name":"Östlicher Kurpark","postalCode":"67098","locality":"Bad Dürkheim","municipality":{"key":"07332002","name":"Bad Dürkheim, Stadt","type":"Stadt"},"district":{"key":"07332","name":"Bad Dürkheim","type":"Landkreis"},"federalState":{"key":"07","name":"Rheinland-Pfalz"}},]