[{"name":"Alte Poststr.","postalCode":"56818","locality":"Klotten","municipality":{"key":"07135049","name":"Klotten","type":"Kreisangehörige_Gemeinde"},"district":{"key":"07135","name":"Cochem-Zell","type":"Landkreis"},"federalState":{"key":"07","name":"Rheinland-Pfalz"}},{"name":"Am Kapellenberg","postalCode":"56818","locality":"Klotten","municipality":{"key":"07135049","name":"Klotten","type":"Kreisangehörige_Gemeinde"},"district":{"key":"07135","name":"Cochem-Zell","type":"Landkreis"},"federalState":{"key":"07","name":"Rheinland-Pfalz"}},{"name":"Am Mühlenberg","postalCode":"56818","locality":"Klotten","municipality":{"key":"07135049","name":"Klotten","type":"Kreisangehörige_Gemeinde"},"district":{"key":"07135","name":"Cochem-Zell","type":"Landkreis"},"federalState":{"key":"07","name":"Rheinland-Pfalz"}},{"name":"Am Rosenberg","postalCode":"56818","locality":"Klotten","municipality":{"key":"07135049","name":"Klotten","type":"Kreisangehörige_Gemeinde"},"district":{"key":"07135","name":"Cochem-Zell","type":"Landkreis"},"federalState":{"key":"07","name":"Rheinland-Pfalz"}},{"name":"Bahnhofstr.","postalCode":"56818","locality":"Klotten","municipality":{"key":"07135049","name":"Klotten","type":"Kreisangehörige_Gemeinde"},"district":{"key":"07135","name":"Cochem-Zell","type":"Landkreis"},"federalState":{"key":"07","name":"Rheinland-Pfalz"}},{"name":"Blanscheidstr.","postalCode":"56818","locality":"Klotten","municipality":{"key":"07135049","name":"Klotten","type":"Kreisangehörige_Gemeinde"},"district":{"key":"07135","name":"Cochem-Zell","type":"Landkreis"},"federalState":{"key":"07","name":"Rheinland-Pfalz"}},{"name":"Brühlstr.","postalCode":"56818","locality":"Klotten","municipality":{"key":"07135049","name":"Klotten","type":"Kreisangehörige_Gemeinde"},"district":{"key":"07135","name":"Cochem-Zell","type":"Landkreis"},"federalState":{"key":"07","name":"Rheinland-Pfalz"}},{"name":"Burgweg","postalCode":"56818","locality":"Klotten","municipality":{"key":"07135049","name":"Klotten","type":"Kreisangehörige_Gemeinde"},"district":{"key":"07135","name":"Cochem-Zell","type":"Landkreis"},"federalState":{"key":"07","name":"Rheinland-Pfalz"}},{"name":"Fahrstr.","postalCode":"56818","locality":"Klotten","municipality":{"key":"07135049","name":"Klotten","type":"Kreisangehörige_Gemeinde"},"district":{"key":"07135","name":"Cochem-Zell","type":"Landkreis"},"federalState":{"key":"07","name":"Rheinland-Pfalz"}},{"name":"Hängebauchschweingehege","postalCode":"56818","locality":"Klotten","municipality":{"key":"07135049","name":"Klotten","type":"Kreisangehörige_Gemeinde"},"district":{"key":"07135","name":"Cochem-Zell","type":"Landkreis"},"federalState":{"key":"07","name":"Rheinland-Pfalz"}},{"name":"Hauptstr.","postalCode":"56818","locality":"Klotten","municipality":{"key":"07135049","name":"Klotten","type":"Kreisangehörige_Gemeinde"},"district":{"key":"07135","name":"Cochem-Zell","type":"Landkreis"},"federalState":{"key":"07","name":"Rheinland-Pfalz"}},{"name":"Hinter der Kirche","postalCode":"56818","locality":"Klotten","municipality":{"key":"07135049","name":"Klotten","type":"Kreisangehörige_Gemeinde"},"district":{"key":"07135","name":"Cochem-Zell","type":"Landkreis"},"federalState":{"key":"07","name":"Rheinland-Pfalz"}},{"name":"Hochwasserweg","postalCode":"56818","locality":"Klotten","municipality":{"key":"07135049","name":"Klotten","type":"Kreisangehörige_Gemeinde"},"district":{"key":"07135","name":"Cochem-Zell","type":"Landkreis"},"federalState":{"key":"07","name":"Rheinland-Pfalz"}},{"name":"Hohlstr.","postalCode":"56818","locality":"Klotten","municipality":{"key":"07135049","name":"Klotten","type":"Kreisangehörige_Gemeinde"},"district":{"key":"07135","name":"Cochem-Zell","type":"Landkreis"},"federalState":{"key":"07","name":"Rheinland-Pfalz"}},{"name":"Im Weingarten","postalCode":"56818","locality":"Klotten","municipality":{"key":"07135049","name":"Klotten","type":"Kreisangehörige_Gemeinde"},"district":{"key":"07135","name":"Cochem-Zell","type":"Landkreis"},"federalState":{"key":"07","name":"Rheinland-Pfalz"}},{"name":"Kavelocherhof","postalCode":"56818","locality":"Klotten","municipality":{"key":"07135049","name":"Klotten","type":"Kreisangehörige_Gemeinde"},"district":{"key":"07135","name":"Cochem-Zell","type":"Landkreis"},"federalState":{"key":"07","name":"Rheinland-Pfalz"}},{"name":"Kempelstr.","postalCode":"56818","locality":"Klotten","municipality":{"key":"07135049","name":"Klotten","type":"Kreisangehörige_Gemeinde"},"district":{"key":"07135","name":"Cochem-Zell","type":"Landkreis"},"federalState":{"key":"07","name":"Rheinland-Pfalz"}},{"name":"Kernstr.","postalCode":"56818","locality":"Klotten","municipality":{"key":"07135049","name":"Klotten","type":"Kreisangehörige_Gemeinde"},"district":{"key":"07135","name":"Cochem-Zell","type":"Landkreis"},"federalState":{"key":"07","name":"Rheinland-Pfalz"}},{"name":"Kesselstadtstr.","postalCode":"56818","locality":"Klotten","municipality":{"key":"07135049","name":"Klotten","type":"Kreisangehörige_Gemeinde"},"district":{"key":"07135","name":"Cochem-Zell","type":"Landkreis"},"federalState":{"key":"07","name":"Rheinland-Pfalz"}},{"name":"Kirchstr.","postalCode":"56818","locality":"Klotten","municipality":{"key":"07135049","name":"Klotten","type":"Kreisangehörige_Gemeinde"},"district":{"key":"07135","name":"Cochem-Zell","type":"Landkreis"},"federalState":{"key":"07","name":"Rheinland-Pfalz"}},{"name":"Krampenstr.","postalCode":"56818","locality":"Klotten","municipality":{"key":"07135049","name":"Klotten","type":"Kreisangehörige_Gemeinde"},"district":{"key":"07135","name":"Cochem-Zell","type":"Landkreis"},"federalState":{"key":"07","name":"Rheinland-Pfalz"}},{"name":"Kulturweg","postalCode":"56818","locality":"Klotten","municipality":{"key":"07135049","name":"Klotten","type":"Kreisangehörige_Gemeinde"},"district":{"key":"07135","name":"Cochem-Zell","type":"Landkreis"},"federalState":{"key":"07","name":"Rheinland-Pfalz"}},{"name":"Martinstr.","postalCode":"56818","locality":"Klotten","municipality":{"key":"07135049","name":"Klotten","type":"Kreisangehörige_Gemeinde"},"district":{"key":"07135","name":"Cochem-Zell","type":"Landkreis"},"federalState":{"key":"07","name":"Rheinland-Pfalz"}},{"name":"Mittelstr.","postalCode":"56818","locality":"Klotten","municipality":{"key":"07135049","name":"Klotten","type":"Kreisangehörige_Gemeinde"},"district":{"key":"07135","name":"Cochem-Zell","type":"Landkreis"},"federalState":{"key":"07","name":"Rheinland-Pfalz"}},{"name":"Moselstr.","postalCode":"56818","locality":"Klotten","municipality":{"key":"07135049","name":"Klotten","type":"Kreisangehörige_Gemeinde"},"district":{"key":"07135","name":"Cochem-Zell","type":"Landkreis"},"federalState":{"key":"07","name":"Rheinland-Pfalz"}},{"name":"Mühltal","postalCode":"56818","locality":"Klotten","municipality":{"key":"07135049","name":"Klotten","type":"Kreisangehörige_Gemeinde"},"district":{"key":"07135","name":"Cochem-Zell","type":"Landkreis"},"federalState":{"key":"07","name":"Rheinland-Pfalz"}},{"name":"Nikolausstr.","postalCode":"56818","locality":"Klotten","municipality":{"key":"07135049","name":"Klotten","type":"Kreisangehörige_Gemeinde"},"district":{"key":"07135","name":"Cochem-Zell","type":"Landkreis"},"federalState":{"key":"07","name":"Rheinland-Pfalz"}},{"name":"Obere Brühlstr.","postalCode":"56818","locality":"Klotten","municipality":{"key":"07135049","name":"Klotten","type":"Kreisangehörige_Gemeinde"},"district":{"key":"07135","name":"Cochem-Zell","type":"Landkreis"},"federalState":{"key":"07","name":"Rheinland-Pfalz"}},{"name":"Obere Kirchstr.","postalCode":"56818","locality":"Klotten","municipality":{"key":"07135049","name":"Klotten","type":"Kreisangehörige_Gemeinde"},"district":{"key":"07135","name":"Cochem-Zell","type":"Landkreis"},"federalState":{"key":"07","name":"Rheinland-Pfalz"}},{"name":"Oberes Mühltal","postalCode":"56818","locality":"Klotten","municipality":{"key":"07135049","name":"Klotten","type":"Kreisangehörige_Gemeinde"},"district":{"key":"07135","name":"Cochem-Zell","type":"Landkreis"},"federalState":{"key":"07","name":"Rheinland-Pfalz"}},{"name":"Rathausstr.","postalCode":"56818","locality":"Klotten","municipality":{"key":"07135049","name":"Klotten","type":"Kreisangehörige_Gemeinde"},"district":{"key":"07135","name":"Cochem-Zell","type":"Landkreis"},"federalState":{"key":"07","name":"Rheinland-Pfalz"}},{"name":"Räuschelstr.","postalCode":"56818","locality":"Klotten","municipality":{"key":"07135049","name":"Klotten","type":"Kreisangehörige_Gemeinde"},"district":{"key":"07135","name":"Cochem-Zell","type":"Landkreis"},"federalState":{"key":"07","name":"Rheinland-Pfalz"}},{"name":"Rigenzastr.","postalCode":"56818","locality":"Klotten","municipality":{"key":"07135049","name":"Klotten","type":"Kreisangehörige_Gemeinde"},"district":{"key":"07135","name":"Cochem-Zell","type":"Landkreis"},"federalState":{"key":"07","name":"Rheinland-Pfalz"}},{"name":"Rotwild","postalCode":"56818","locality":"Klotten","municipality":{"key":"07135049","name":"Klotten","type":"Kreisangehörige_Gemeinde"},"district":{"key":"07135","name":"Cochem-Zell","type":"Landkreis"},"federalState":{"key":"07","name":"Rheinland-Pfalz"}},{"name":"Steinböcke","postalCode":"56818","locality":"Klotten","municipality":{"key":"07135049","name":"Klotten","type":"Kreisangehörige_Gemeinde"},"district":{"key":"07135","name":"Cochem-Zell","type":"Landkreis"},"federalState":{"key":"07","name":"Rheinland-Pfalz"}},{"name":"Unter der Burg","postalCode":"56818","locality":"Klotten","municipality":{"key":"07135049","name":"Klotten","type":"Kreisangehörige_Gemeinde"},"district":{"key":"07135","name":"Cochem-Zell","type":"Landkreis"},"federalState":{"key":"07","name":"Rheinland-Pfalz"}},{"name":"Untere Brühlstr.","postalCode":"56818","locality":"Klotten","municipality":{"key":"07135049","name":"Klotten","type":"Kreisangehörige_Gemeinde"},"district":{"key":"07135","name":"Cochem-Zell","type":"Landkreis"},"federalState":{"key":"07","name":"Rheinland-Pfalz"}},{"name":"Wapitigehege","postalCode":"56818","locality":"Klotten","municipality":{"key":"07135049","name":"Klotten","type":"Kreisangehörige_Gemeinde"},"district":{"key":"07135","name":"Cochem-Zell","type":"Landkreis"},"federalState":{"key":"07","name":"Rheinland-Pfalz"}},{"name":"Wenzelstr.","postalCode":"56818","locality":"Klotten","municipality":{"key":"07135049","name":"Klotten","type":"Kreisangehörige_Gemeinde"},"district":{"key":"07135","name":"Cochem-Zell","type":"Landkreis"},"federalState":{"key":"07","name":"Rheinland-Pfalz"}},{"name":"Wildparkstr.","postalCode":"56818","locality":"Klotten","municipality":{"key":"07135049","name":"Klotten","type":"Kreisangehörige_Gemeinde"},"district":{"key":"07135","name":"Cochem-Zell","type":"Landkreis"},"federalState":{"key":"07","name":"Rheinland-Pfalz"}},{"name":"Wildschweingehege","postalCode":"56818","locality":"Klotten","municipality":{"key":"07135049","name":"Klotten","type":"Kreisangehörige_Gemeinde"},"district":{"key":"07135","name":"Cochem-Zell","type":"Landkreis"},"federalState":{"key":"07","name":"Rheinland-Pfalz"}},]