[{"key":"10070205","name":"Adlismatt","postalCode":"8905","locality":"Arni AG","commune":{"key":"4061","name":"Arni (AG)","shortName":"Arni (AG)"},"district":{"key":"1903","name":"Bezirk Bremgarten"},"canton":{"key":"19","code":"AG","name":"Aargau"},"status":"Real"},{"key":"10239716","name":"Allmendweg","postalCode":"8905","locality":"Arni AG","commune":{"key":"4061","name":"Arni (AG)","shortName":"Arni (AG)"},"district":{"key":"1903","name":"Bezirk Bremgarten"},"canton":{"key":"19","code":"AG","name":"Aargau"},"status":"Real"},{"key":"10035243","name":"Alte Aescherstrasse","postalCode":"8905","locality":"Arni AG","commune":{"key":"4061","name":"Arni (AG)","shortName":"Arni (AG)"},"district":{"key":"1903","name":"Bezirk Bremgarten"},"canton":{"key":"19","code":"AG","name":"Aargau"},"status":"Real"},{"key":"10092800","name":"Alte Lunkhoferstrasse","postalCode":"8905","locality":"Arni AG","commune":{"key":"4061","name":"Arni (AG)","shortName":"Arni (AG)"},"district":{"key":"1903","name":"Bezirk Bremgarten"},"canton":{"key":"19","code":"AG","name":"Aargau"},"status":"Real"},{"key":"10035244","name":"Altweg","postalCode":"8905","locality":"Arni AG","commune":{"key":"4061","name":"Arni (AG)","shortName":"Arni (AG)"},"district":{"key":"1903","name":"Bezirk Bremgarten"},"canton":{"key":"19","code":"AG","name":"Aargau"},"status":"Real"},{"key":"10111433","name":"Auwandel","postalCode":"8905","locality":"Arni AG","commune":{"key":"4061","name":"Arni (AG)","shortName":"Arni (AG)"},"district":{"key":"1903","name":"Bezirk Bremgarten"},"canton":{"key":"19","code":"AG","name":"Aargau"},"status":"Real"},{"key":"10239721","name":"Bächelstrasse","postalCode":"8905","locality":"Arni AG","commune":{"key":"4061","name":"Arni (AG)","shortName":"Arni (AG)"},"district":{"key":"1903","name":"Bezirk Bremgarten"},"canton":{"key":"19","code":"AG","name":"Aargau"},"status":"Real"},{"key":"10185645","name":"Baumgarten","postalCode":"8905","locality":"Arni AG","commune":{"key":"4061","name":"Arni (AG)","shortName":"Arni (AG)"},"district":{"key":"1903","name":"Bezirk Bremgarten"},"canton":{"key":"19","code":"AG","name":"Aargau"},"status":"Real"},{"key":"10070206","name":"Breite","postalCode":"8905","locality":"Arni AG","commune":{"key":"4061","name":"Arni (AG)","shortName":"Arni (AG)"},"district":{"key":"1903","name":"Bezirk Bremgarten"},"canton":{"key":"19","code":"AG","name":"Aargau"},"status":"Real"},{"key":"10035245","name":"Chälmatt","postalCode":"8905","locality":"Arni AG","commune":{"key":"4061","name":"Arni (AG)","shortName":"Arni (AG)"},"district":{"key":"1903","name":"Bezirk Bremgarten"},"canton":{"key":"19","code":"AG","name":"Aargau"},"status":"Real"},{"key":"10239725","name":"Eggisächer","postalCode":"8905","locality":"Arni AG","commune":{"key":"4061","name":"Arni (AG)","shortName":"Arni (AG)"},"district":{"key":"1903","name":"Bezirk Bremgarten"},"canton":{"key":"19","code":"AG","name":"Aargau"},"status":"Real"},{"key":"10035246","name":"Gassweid","postalCode":"8905","locality":"Arni AG","commune":{"key":"4061","name":"Arni (AG)","shortName":"Arni (AG)"},"district":{"key":"1903","name":"Bezirk Bremgarten"},"canton":{"key":"19","code":"AG","name":"Aargau"},"status":"Real"},{"key":"10147393","name":"Gehräcker","postalCode":"8905","locality":"Arni AG","commune":{"key":"4061","name":"Arni (AG)","shortName":"Arni (AG)"},"district":{"key":"1903","name":"Bezirk Bremgarten"},"canton":{"key":"19","code":"AG","name":"Aargau"},"status":"Real"},{"key":"10070207","name":"Gjuchstrasse","postalCode":"8905","locality":"Arni AG","commune":{"key":"4061","name":"Arni (AG)","shortName":"Arni (AG)"},"district":{"key":"1903","name":"Bezirk Bremgarten"},"canton":{"key":"19","code":"AG","name":"Aargau"},"status":"Real"},{"key":"10092801","name":"Hedingerstrasse","postalCode":"8905","locality":"Arni AG","commune":{"key":"4061","name":"Arni (AG)","shortName":"Arni (AG)"},"district":{"key":"1903","name":"Bezirk Bremgarten"},"canton":{"key":"19","code":"AG","name":"Aargau"},"status":"Real"},{"key":"10239729","name":"Hintereggweg","postalCode":"8905","locality":"Arni AG","commune":{"key":"4061","name":"Arni (AG)","shortName":"Arni (AG)"},"district":{"key":"1903","name":"Bezirk Bremgarten"},"canton":{"key":"19","code":"AG","name":"Aargau"},"status":"Real"},{"key":"10134417","name":"Hüttenbach","postalCode":"8905","locality":"Arni AG","commune":{"key":"4061","name":"Arni (AG)","shortName":"Arni (AG)"},"district":{"key":"1903","name":"Bezirk Bremgarten"},"canton":{"key":"19","code":"AG","name":"Aargau"},"status":"Real"},{"key":"10052879","name":"Im Himmelsbühl","postalCode":"8905","locality":"Arni AG","commune":{"key":"4061","name":"Arni (AG)","shortName":"Arni (AG)"},"district":{"key":"1903","name":"Bezirk Bremgarten"},"canton":{"key":"19","code":"AG","name":"Aargau"},"status":"Real"},{"key":"10052880","name":"Im Steindler","postalCode":"8905","locality":"Arni AG","commune":{"key":"4061","name":"Arni (AG)","shortName":"Arni (AG)"},"district":{"key":"1903","name":"Bezirk Bremgarten"},"canton":{"key":"19","code":"AG","name":"Aargau"},"status":"Real"},{"key":"10035247","name":"In den Reben","postalCode":"8905","locality":"Arni AG","commune":{"key":"4061","name":"Arni (AG)","shortName":"Arni (AG)"},"district":{"key":"1903","name":"Bezirk Bremgarten"},"canton":{"key":"19","code":"AG","name":"Aargau"},"status":"Real"},{"key":"10239733","name":"Innerer Rütiweg","postalCode":"8905","locality":"Arni AG","commune":{"key":"4061","name":"Arni (AG)","shortName":"Arni (AG)"},"district":{"key":"1903","name":"Bezirk Bremgarten"},"canton":{"key":"19","code":"AG","name":"Aargau"},"status":"Real"},{"key":"10146913","name":"Islisbergstrasse","postalCode":"8905","locality":"Arni AG","commune":{"key":"4061","name":"Arni (AG)","shortName":"Arni (AG)"},"district":{"key":"1903","name":"Bezirk Bremgarten"},"canton":{"key":"19","code":"AG","name":"Aargau"},"status":"Real"},{"key":"10239737","name":"Jonentalweg","postalCode":"8905","locality":"Arni AG","commune":{"key":"4061","name":"Arni (AG)","shortName":"Arni (AG)"},"district":{"key":"1903","name":"Bezirk Bremgarten"},"canton":{"key":"19","code":"AG","name":"Aargau"},"status":"Real"},{"key":"10035248","name":"Kelleramtstrasse","postalCode":"8905","locality":"Arni AG","commune":{"key":"4061","name":"Arni (AG)","shortName":"Arni (AG)"},"district":{"key":"1903","name":"Bezirk Bremgarten"},"canton":{"key":"19","code":"AG","name":"Aargau"},"status":"Real"},{"key":"10092802","name":"Kohlmatt","postalCode":"8905","locality":"Arni AG","commune":{"key":"4061","name":"Arni (AG)","shortName":"Arni (AG)"},"district":{"key":"1903","name":"Bezirk Bremgarten"},"canton":{"key":"19","code":"AG","name":"Aargau"},"status":"Real"},{"key":"10239741","name":"Kuhrumbelstrasse","postalCode":"8905","locality":"Arni AG","commune":{"key":"4061","name":"Arni (AG)","shortName":"Arni (AG)"},"district":{"key":"1903","name":"Bezirk Bremgarten"},"canton":{"key":"19","code":"AG","name":"Aargau"},"status":"Real"},{"key":"10239745","name":"Lizistrasse","postalCode":"8905","locality":"Arni AG","commune":{"key":"4061","name":"Arni (AG)","shortName":"Arni (AG)"},"district":{"key":"1903","name":"Bezirk Bremgarten"},"canton":{"key":"19","code":"AG","name":"Aargau"},"status":"Real"},{"key":"10122161","name":"Lorzenweg","postalCode":"8905","locality":"Arni AG","commune":{"key":"4061","name":"Arni (AG)","shortName":"Arni (AG)"},"district":{"key":"1903","name":"Bezirk Bremgarten"},"canton":{"key":"19","code":"AG","name":"Aargau"},"status":"Real"},{"key":"10138219","name":"Moosmatt","postalCode":"8905","locality":"Arni AG","commune":{"key":"4061","name":"Arni (AG)","shortName":"Arni (AG)"},"district":{"key":"1903","name":"Bezirk Bremgarten"},"canton":{"key":"19","code":"AG","name":"Aargau"},"status":"Real"},{"key":"10239749","name":"Niedermattstrasse","postalCode":"8905","locality":"Arni AG","commune":{"key":"4061","name":"Arni (AG)","shortName":"Arni (AG)"},"district":{"key":"1903","name":"Bezirk Bremgarten"},"canton":{"key":"19","code":"AG","name":"Aargau"},"status":"Real"},{"key":"10035249","name":"Oberfeldring","postalCode":"8905","locality":"Arni AG","commune":{"key":"4061","name":"Arni (AG)","shortName":"Arni (AG)"},"district":{"key":"1903","name":"Bezirk Bremgarten"},"canton":{"key":"19","code":"AG","name":"Aargau"},"status":"Real"},{"key":"10035250","name":"Obermatt","postalCode":"8905","locality":"Arni AG","commune":{"key":"4061","name":"Arni (AG)","shortName":"Arni (AG)"},"district":{"key":"1903","name":"Bezirk Bremgarten"},"canton":{"key":"19","code":"AG","name":"Aargau"},"status":"Real"},{"key":"10185646","name":"Oberwilerstrasse","postalCode":"8905","locality":"Arni AG","commune":{"key":"4061","name":"Arni (AG)","shortName":"Arni (AG)"},"district":{"key":"1903","name":"Bezirk Bremgarten"},"canton":{"key":"19","code":"AG","name":"Aargau"},"status":"Real"},{"key":"10239752","name":"Pfaffenmattstrasse","postalCode":"8905","locality":"Arni AG","commune":{"key":"4061","name":"Arni (AG)","shortName":"Arni (AG)"},"district":{"key":"1903","name":"Bezirk Bremgarten"},"canton":{"key":"19","code":"AG","name":"Aargau"},"status":"Real"},{"key":"10146922","name":"Rebacker","postalCode":"8905","locality":"Arni AG","commune":{"key":"4061","name":"Arni (AG)","shortName":"Arni (AG)"},"district":{"key":"1903","name":"Bezirk Bremgarten"},"canton":{"key":"19","code":"AG","name":"Aargau"},"status":"Real"},{"key":"10128148","name":"Rüschenweg","postalCode":"8905","locality":"Arni AG","commune":{"key":"4061","name":"Arni (AG)","shortName":"Arni (AG)"},"district":{"key":"1903","name":"Bezirk Bremgarten"},"canton":{"key":"19","code":"AG","name":"Aargau"},"status":"Real"},{"key":"10188294","name":"Seegaden","postalCode":"8905","locality":"Arni AG","commune":{"key":"4061","name":"Arni (AG)","shortName":"Arni (AG)"},"district":{"key":"1903","name":"Bezirk Bremgarten"},"canton":{"key":"19","code":"AG","name":"Aargau"},"status":"Real"},{"key":"10092803","name":"Selmahof","postalCode":"8905","locality":"Arni AG","commune":{"key":"4061","name":"Arni (AG)","shortName":"Arni (AG)"},"district":{"key":"1903","name":"Bezirk Bremgarten"},"canton":{"key":"19","code":"AG","name":"Aargau"},"status":"Real"},{"key":"10035251","name":"Sennhüttenstrasse","postalCode":"8905","locality":"Arni AG","commune":{"key":"4061","name":"Arni (AG)","shortName":"Arni (AG)"},"district":{"key":"1903","name":"Bezirk Bremgarten"},"canton":{"key":"19","code":"AG","name":"Aargau"},"status":"Real"},{"key":"10111434","name":"Sonnacker","postalCode":"8905","locality":"Arni AG","commune":{"key":"4061","name":"Arni (AG)","shortName":"Arni (AG)"},"district":{"key":"1903","name":"Bezirk Bremgarten"},"canton":{"key":"19","code":"AG","name":"Aargau"},"status":"Real"},{"key":"10092804","name":"Staldenstrasse","postalCode":"8905","locality":"Arni AG","commune":{"key":"4061","name":"Arni (AG)","shortName":"Arni (AG)"},"district":{"key":"1903","name":"Bezirk Bremgarten"},"canton":{"key":"19","code":"AG","name":"Aargau"},"status":"Real"},{"key":"10113982","name":"Steindlerstrasse","postalCode":"8905","locality":"Arni AG","commune":{"key":"4061","name":"Arni (AG)","shortName":"Arni (AG)"},"district":{"key":"1903","name":"Bezirk Bremgarten"},"canton":{"key":"19","code":"AG","name":"Aargau"},"status":"Real"},{"key":"10035252","name":"Stockacker","postalCode":"8905","locality":"Arni AG","commune":{"key":"4061","name":"Arni (AG)","shortName":"Arni (AG)"},"district":{"key":"1903","name":"Bezirk Bremgarten"},"canton":{"key":"19","code":"AG","name":"Aargau"},"status":"Real"},{"key":"10239756","name":"Tobelackerweg","postalCode":"8905","locality":"Arni AG","commune":{"key":"4061","name":"Arni (AG)","shortName":"Arni (AG)"},"district":{"key":"1903","name":"Bezirk Bremgarten"},"canton":{"key":"19","code":"AG","name":"Aargau"},"status":"Real"},{"key":"10239760","name":"Tschuepisstrasse","postalCode":"8905","locality":"Arni AG","commune":{"key":"4061","name":"Arni (AG)","shortName":"Arni (AG)"},"district":{"key":"1903","name":"Bezirk Bremgarten"},"canton":{"key":"19","code":"AG","name":"Aargau"},"status":"Real"},{"key":"10161634","name":"Voräckerweg","postalCode":"8905","locality":"Arni AG","commune":{"key":"4061","name":"Arni (AG)","shortName":"Arni (AG)"},"district":{"key":"1903","name":"Bezirk Bremgarten"},"canton":{"key":"19","code":"AG","name":"Aargau"},"status":"Real"},{"key":"10239764","name":"Weidgasse","postalCode":"8905","locality":"Arni AG","commune":{"key":"4061","name":"Arni (AG)","shortName":"Arni (AG)"},"district":{"key":"1903","name":"Bezirk Bremgarten"},"canton":{"key":"19","code":"AG","name":"Aargau"},"status":"Real"},{"key":"10035253","name":"Weidhof","postalCode":"8905","locality":"Arni AG","commune":{"key":"4061","name":"Arni (AG)","shortName":"Arni (AG)"},"district":{"key":"1903","name":"Bezirk Bremgarten"},"canton":{"key":"19","code":"AG","name":"Aargau"},"status":"Real"},{"key":"10039726","name":"Zelgli","postalCode":"8905","locality":"Arni AG","commune":{"key":"4061","name":"Arni (AG)","shortName":"Arni (AG)"},"district":{"key":"1903","name":"Bezirk Bremgarten"},"canton":{"key":"19","code":"AG","name":"Aargau"},"status":"Real"},{"key":"10039727","name":"Zelglihof","postalCode":"8905","locality":"Arni AG","commune":{"key":"4061","name":"Arni (AG)","shortName":"Arni (AG)"},"district":{"key":"1903","name":"Bezirk Bremgarten"},"canton":{"key":"19","code":"AG","name":"Aargau"},"status":"Real"},{"key":"10070208","name":"Zürcherstrasse","postalCode":"8905","locality":"Arni AG","commune":{"key":"4061","name":"Arni (AG)","shortName":"Arni (AG)"},"district":{"key":"1903","name":"Bezirk Bremgarten"},"canton":{"key":"19","code":"AG","name":"Aargau"},"status":"Real"},]