[{"key":"10126073","name":"Al Pontasc","postalCode":"6992","locality":"Vernate","commune":{"key":"5230","name":"Vernate","shortName":"Vernate"},"district":{"key":"2105","name":"Distretto di Lugano"},"canton":{"key":"21","code":"TI","name":"Ticino"},"status":"Real"},{"key":"10126076","name":"Al Portico","postalCode":"6992","locality":"Vernate","commune":{"key":"5230","name":"Vernate","shortName":"Vernate"},"district":{"key":"2105","name":"Distretto di Lugano"},"canton":{"key":"21","code":"TI","name":"Ticino"},"status":"Real"},{"key":"10244528","name":"Cön","postalCode":"6992","locality":"Vernate","commune":{"key":"5230","name":"Vernate","shortName":"Vernate"},"district":{"key":"2105","name":"Distretto di Lugano"},"canton":{"key":"21","code":"TI","name":"Ticino"},"status":"Real"},{"key":"10126102","name":"Piazzetta Municipio","postalCode":"6992","locality":"Vernate","commune":{"key":"5230","name":"Vernate","shortName":"Vernate"},"district":{"key":"2105","name":"Distretto di Lugano"},"canton":{"key":"21","code":"TI","name":"Ticino"},"status":"Real"},{"key":"10171266","name":"Summer Village","postalCode":"6992","locality":"Vernate","commune":{"key":"5230","name":"Vernate","shortName":"Vernate"},"district":{"key":"2105","name":"Distretto di Lugano"},"canton":{"key":"21","code":"TI","name":"Ticino"},"status":"Real"},{"key":"10147139","name":"Via ai Guasti","postalCode":"6992","locality":"Vernate","commune":{"key":"5230","name":"Vernate","shortName":"Vernate"},"district":{"key":"2105","name":"Distretto di Lugano"},"canton":{"key":"21","code":"TI","name":"Ticino"},"status":"Real"},{"key":"10126104","name":"Via alla Chiesa","postalCode":"6992","locality":"Vernate","commune":{"key":"5230","name":"Vernate","shortName":"Vernate"},"district":{"key":"2105","name":"Distretto di Lugano"},"canton":{"key":"21","code":"TI","name":"Ticino"},"status":"Real"},{"key":"10126105","name":"Via alla Valle","postalCode":"6992","locality":"Vernate","commune":{"key":"5230","name":"Vernate","shortName":"Vernate"},"district":{"key":"2105","name":"Distretto di Lugano"},"canton":{"key":"21","code":"TI","name":"Ticino"},"status":"Real"},{"key":"10126106","name":"Via Balà","postalCode":"6992","locality":"Vernate","commune":{"key":"5230","name":"Vernate","shortName":"Vernate"},"district":{"key":"2105","name":"Distretto di Lugano"},"canton":{"key":"21","code":"TI","name":"Ticino"},"status":"Real"},{"key":"10147146","name":"Via Burico","postalCode":"6992","locality":"Vernate","commune":{"key":"5230","name":"Vernate","shortName":"Vernate"},"district":{"key":"2105","name":"Distretto di Lugano"},"canton":{"key":"21","code":"TI","name":"Ticino"},"status":"Real"},{"key":"10147147","name":"Via Cantonale","postalCode":"6992","locality":"Vernate","commune":{"key":"5230","name":"Vernate","shortName":"Vernate"},"district":{"key":"2105","name":"Distretto di Lugano"},"canton":{"key":"21","code":"TI","name":"Ticino"},"status":"Real"},{"key":"10126107","name":"Via Evia","postalCode":"6992","locality":"Vernate","commune":{"key":"5230","name":"Vernate","shortName":"Vernate"},"district":{"key":"2105","name":"Distretto di Lugano"},"canton":{"key":"21","code":"TI","name":"Ticino"},"status":"Real"},{"key":"10126108","name":"Via Fontanone","postalCode":"6992","locality":"Vernate","commune":{"key":"5230","name":"Vernate","shortName":"Vernate"},"district":{"key":"2105","name":"Distretto di Lugano"},"canton":{"key":"21","code":"TI","name":"Ticino"},"status":"Real"},{"key":"10126112","name":"Via Mornirolo","postalCode":"6992","locality":"Vernate","commune":{"key":"5230","name":"Vernate","shortName":"Vernate"},"district":{"key":"2105","name":"Distretto di Lugano"},"canton":{"key":"21","code":"TI","name":"Ticino"},"status":"Real"},{"key":"10147141","name":"Via Pianca","postalCode":"6992","locality":"Vernate","commune":{"key":"5230","name":"Vernate","shortName":"Vernate"},"district":{"key":"2105","name":"Distretto di Lugano"},"canton":{"key":"21","code":"TI","name":"Ticino"},"status":"Real"},{"key":"10147148","name":"Via Piancaccia","postalCode":"6992","locality":"Vernate","commune":{"key":"5230","name":"Vernate","shortName":"Vernate"},"district":{"key":"2105","name":"Distretto di Lugano"},"canton":{"key":"21","code":"TI","name":"Ticino"},"status":"Real"},{"key":"10147142","name":"Via Pree","postalCode":"6992","locality":"Vernate","commune":{"key":"5230","name":"Vernate","shortName":"Vernate"},"district":{"key":"2105","name":"Distretto di Lugano"},"canton":{"key":"21","code":"TI","name":"Ticino"},"status":"Real"},{"key":"10147143","name":"Via Ravetta","postalCode":"6992","locality":"Vernate","commune":{"key":"5230","name":"Vernate","shortName":"Vernate"},"district":{"key":"2105","name":"Distretto di Lugano"},"canton":{"key":"21","code":"TI","name":"Ticino"},"status":"Real"},{"key":"10137746","name":"Via St. Maria","postalCode":"6992","locality":"Vernate","commune":{"key":"5230","name":"Vernate","shortName":"Vernate"},"district":{"key":"2105","name":"Distretto di Lugano"},"canton":{"key":"21","code":"TI","name":"Ticino"},"status":"Real"},{"key":"10126125","name":"Vicolo Strecia","postalCode":"6992","locality":"Vernate","commune":{"key":"5230","name":"Vernate","shortName":"Vernate"},"district":{"key":"2105","name":"Distretto di Lugano"},"canton":{"key":"21","code":"TI","name":"Ticino"},"status":"Real"},{"key":"10147149","name":"Villaggio del Sole","postalCode":"6992","locality":"Vernate","commune":{"key":"5230","name":"Vernate","shortName":"Vernate"},"district":{"key":"2105","name":"Distretto di Lugano"},"canton":{"key":"21","code":"TI","name":"Ticino"},"status":"Real"},]