[{"name":"Adam-Herdt-Str.","postalCode":"68526","locality":"Ladenburg","municipality":{"key":"08226038","name":"Ladenburg, Stadt","type":"Stadt"},"district":{"key":"08226","name":"Rhein-Neckar-Kreis","type":"Landkreis"},"federalState":{"key":"08","name":"Baden-Württemberg"}},{"name":"Alemannenweg","postalCode":"68526","locality":"Ladenburg","municipality":{"key":"08226038","name":"Ladenburg, Stadt","type":"Stadt"},"district":{"key":"08226","name":"Rhein-Neckar-Kreis","type":"Landkreis"},"federalState":{"key":"08","name":"Baden-Württemberg"}},{"name":"Allmendweg","postalCode":"68526","locality":"Ladenburg","municipality":{"key":"08226038","name":"Ladenburg, Stadt","type":"Stadt"},"district":{"key":"08226","name":"Rhein-Neckar-Kreis","type":"Landkreis"},"federalState":{"key":"08","name":"Baden-Württemberg"}},{"name":"Alte Heddesheimer Str.","postalCode":"68526","locality":"Ladenburg","municipality":{"key":"08226038","name":"Ladenburg, Stadt","type":"Stadt"},"district":{"key":"08226","name":"Rhein-Neckar-Kreis","type":"Landkreis"},"federalState":{"key":"08","name":"Baden-Württemberg"}},{"name":"Alte Leimgrube","postalCode":"68526","locality":"Ladenburg","municipality":{"key":"08226038","name":"Ladenburg, Stadt","type":"Stadt"},"district":{"key":"08226","name":"Rhein-Neckar-Kreis","type":"Landkreis"},"federalState":{"key":"08","name":"Baden-Württemberg"}},{"name":"Alte Weinheimer Str.","postalCode":"68526","locality":"Ladenburg","municipality":{"key":"08226038","name":"Ladenburg, Stadt","type":"Stadt"},"district":{"key":"08226","name":"Rhein-Neckar-Kreis","type":"Landkreis"},"federalState":{"key":"08","name":"Baden-Württemberg"}},{"name":"Am Alten Bach","postalCode":"68526","locality":"Ladenburg","municipality":{"key":"08226038","name":"Ladenburg, Stadt","type":"Stadt"},"district":{"key":"08226","name":"Rhein-Neckar-Kreis","type":"Landkreis"},"federalState":{"key":"08","name":"Baden-Württemberg"}},{"name":"Am Bahndamm","postalCode":"68526","locality":"Ladenburg","municipality":{"key":"08226038","name":"Ladenburg, Stadt","type":"Stadt"},"district":{"key":"08226","name":"Rhein-Neckar-Kreis","type":"Landkreis"},"federalState":{"key":"08","name":"Baden-Württemberg"}},{"name":"Am Bahnhof","postalCode":"68526","locality":"Ladenburg","municipality":{"key":"08226038","name":"Ladenburg, Stadt","type":"Stadt"},"district":{"key":"08226","name":"Rhein-Neckar-Kreis","type":"Landkreis"},"federalState":{"key":"08","name":"Baden-Württemberg"}},{"name":"Am Bildstock","postalCode":"68526","locality":"Ladenburg","municipality":{"key":"08226038","name":"Ladenburg, Stadt","type":"Stadt"},"district":{"key":"08226","name":"Rhein-Neckar-Kreis","type":"Landkreis"},"federalState":{"key":"08","name":"Baden-Württemberg"}},{"name":"Am Galgbrunnen","postalCode":"68526","locality":"Ladenburg","municipality":{"key":"08226038","name":"Ladenburg, Stadt","type":"Stadt"},"district":{"key":"08226","name":"Rhein-Neckar-Kreis","type":"Landkreis"},"federalState":{"key":"08","name":"Baden-Württemberg"}},{"name":"Am Hafen","postalCode":"68526","locality":"Ladenburg","municipality":{"key":"08226038","name":"Ladenburg, Stadt","type":"Stadt"},"district":{"key":"08226","name":"Rhein-Neckar-Kreis","type":"Landkreis"},"federalState":{"key":"08","name":"Baden-Württemberg"}},{"name":"Am Hahnenstück","postalCode":"68526","locality":"Ladenburg","municipality":{"key":"08226038","name":"Ladenburg, Stadt","type":"Stadt"},"district":{"key":"08226","name":"Rhein-Neckar-Kreis","type":"Landkreis"},"federalState":{"key":"08","name":"Baden-Württemberg"}},{"name":"Am Neckardamm","postalCode":"68526","locality":"Ladenburg","municipality":{"key":"08226038","name":"Ladenburg, Stadt","type":"Stadt"},"district":{"key":"08226","name":"Rhein-Neckar-Kreis","type":"Landkreis"},"federalState":{"key":"08","name":"Baden-Württemberg"}},{"name":"Am Sägewerk","postalCode":"68526","locality":"Ladenburg","municipality":{"key":"08226038","name":"Ladenburg, Stadt","type":"Stadt"},"district":{"key":"08226","name":"Rhein-Neckar-Kreis","type":"Landkreis"},"federalState":{"key":"08","name":"Baden-Württemberg"}},{"name":"Amtshof","postalCode":"68526","locality":"Ladenburg","municipality":{"key":"08226038","name":"Ladenburg, Stadt","type":"Stadt"},"district":{"key":"08226","name":"Rhein-Neckar-Kreis","type":"Landkreis"},"federalState":{"key":"08","name":"Baden-Württemberg"}},{"name":"Am Wasserbett","postalCode":"68526","locality":"Ladenburg","municipality":{"key":"08226038","name":"Ladenburg, Stadt","type":"Stadt"},"district":{"key":"08226","name":"Rhein-Neckar-Kreis","type":"Landkreis"},"federalState":{"key":"08","name":"Baden-Württemberg"}},{"name":"An den Martinsgärten","postalCode":"68526","locality":"Ladenburg","municipality":{"key":"08226038","name":"Ladenburg, Stadt","type":"Stadt"},"district":{"key":"08226","name":"Rhein-Neckar-Kreis","type":"Landkreis"},"federalState":{"key":"08","name":"Baden-Württemberg"}},{"name":"An der Beint","postalCode":"68526","locality":"Ladenburg","municipality":{"key":"08226038","name":"Ladenburg, Stadt","type":"Stadt"},"district":{"key":"08226","name":"Rhein-Neckar-Kreis","type":"Landkreis"},"federalState":{"key":"08","name":"Baden-Württemberg"}},{"name":"An der Bleich","postalCode":"68526","locality":"Ladenburg","municipality":{"key":"08226038","name":"Ladenburg, Stadt","type":"Stadt"},"district":{"key":"08226","name":"Rhein-Neckar-Kreis","type":"Landkreis"},"federalState":{"key":"08","name":"Baden-Württemberg"}},{"name":"An der Hockenwiese","postalCode":"68526","locality":"Ladenburg","municipality":{"key":"08226038","name":"Ladenburg, Stadt","type":"Stadt"},"district":{"key":"08226","name":"Rhein-Neckar-Kreis","type":"Landkreis"},"federalState":{"key":"08","name":"Baden-Württemberg"}},{"name":"An der Leimhütte","postalCode":"68526","locality":"Ladenburg","municipality":{"key":"08226038","name":"Ladenburg, Stadt","type":"Stadt"},"district":{"key":"08226","name":"Rhein-Neckar-Kreis","type":"Landkreis"},"federalState":{"key":"08","name":"Baden-Württemberg"}},{"name":"An der Nachtweid","postalCode":"68526","locality":"Ladenburg","municipality":{"key":"08226038","name":"Ladenburg, Stadt","type":"Stadt"},"district":{"key":"08226","name":"Rhein-Neckar-Kreis","type":"Landkreis"},"federalState":{"key":"08","name":"Baden-Württemberg"}},{"name":"Aufeldstr.","postalCode":"68526","locality":"Ladenburg","municipality":{"key":"08226038","name":"Ladenburg, Stadt","type":"Stadt"},"district":{"key":"08226","name":"Rhein-Neckar-Kreis","type":"Landkreis"},"federalState":{"key":"08","name":"Baden-Württemberg"}},{"name":"August-Frey-Weg","postalCode":"68526","locality":"Ladenburg","municipality":{"key":"08226038","name":"Ladenburg, Stadt","type":"Stadt"},"district":{"key":"08226","name":"Rhein-Neckar-Kreis","type":"Landkreis"},"federalState":{"key":"08","name":"Baden-Württemberg"}},{"name":"Ausoniusstr.","postalCode":"68526","locality":"Ladenburg","municipality":{"key":"08226038","name":"Ladenburg, Stadt","type":"Stadt"},"district":{"key":"08226","name":"Rhein-Neckar-Kreis","type":"Landkreis"},"federalState":{"key":"08","name":"Baden-Württemberg"}},{"name":"Bahnhofstr.","postalCode":"68526","locality":"Ladenburg","municipality":{"key":"08226038","name":"Ladenburg, Stadt","type":"Stadt"},"district":{"key":"08226","name":"Rhein-Neckar-Kreis","type":"Landkreis"},"federalState":{"key":"08","name":"Baden-Württemberg"}},{"name":"Banaterstr.","postalCode":"68526","locality":"Ladenburg","municipality":{"key":"08226038","name":"Ladenburg, Stadt","type":"Stadt"},"district":{"key":"08226","name":"Rhein-Neckar-Kreis","type":"Landkreis"},"federalState":{"key":"08","name":"Baden-Württemberg"}},{"name":"Bäumelgewann","postalCode":"68526","locality":"Ladenburg","municipality":{"key":"08226038","name":"Ladenburg, Stadt","type":"Stadt"},"district":{"key":"08226","name":"Rhein-Neckar-Kreis","type":"Landkreis"},"federalState":{"key":"08","name":"Baden-Württemberg"}},{"name":"Benzstr.","postalCode":"68526","locality":"Ladenburg","municipality":{"key":"08226038","name":"Ladenburg, Stadt","type":"Stadt"},"district":{"key":"08226","name":"Rhein-Neckar-Kreis","type":"Landkreis"},"federalState":{"key":"08","name":"Baden-Württemberg"}},{"name":"Bertha-Benz-Weg","postalCode":"68526","locality":"Ladenburg","municipality":{"key":"08226038","name":"Ladenburg, Stadt","type":"Stadt"},"district":{"key":"08226","name":"Rhein-Neckar-Kreis","type":"Landkreis"},"federalState":{"key":"08","name":"Baden-Württemberg"}},{"name":"Bodelschwinghstr.","postalCode":"68526","locality":"Ladenburg","municipality":{"key":"08226038","name":"Ladenburg, Stadt","type":"Stadt"},"district":{"key":"08226","name":"Rhein-Neckar-Kreis","type":"Landkreis"},"federalState":{"key":"08","name":"Baden-Württemberg"}},{"name":"Bollweg","postalCode":"68526","locality":"Ladenburg","municipality":{"key":"08226038","name":"Ladenburg, Stadt","type":"Stadt"},"district":{"key":"08226","name":"Rhein-Neckar-Kreis","type":"Landkreis"},"federalState":{"key":"08","name":"Baden-Württemberg"}},{"name":"Bordhofstr.","postalCode":"68526","locality":"Ladenburg","municipality":{"key":"08226038","name":"Ladenburg, Stadt","type":"Stadt"},"district":{"key":"08226","name":"Rhein-Neckar-Kreis","type":"Landkreis"},"federalState":{"key":"08","name":"Baden-Württemberg"}},{"name":"Boveristr.","postalCode":"68526","locality":"Ladenburg","municipality":{"key":"08226038","name":"Ladenburg, Stadt","type":"Stadt"},"district":{"key":"08226","name":"Rhein-Neckar-Kreis","type":"Landkreis"},"federalState":{"key":"08","name":"Baden-Württemberg"}},{"name":"Brauergasse","postalCode":"68526","locality":"Ladenburg","municipality":{"key":"08226038","name":"Ladenburg, Stadt","type":"Stadt"},"district":{"key":"08226","name":"Rhein-Neckar-Kreis","type":"Landkreis"},"federalState":{"key":"08","name":"Baden-Württemberg"}},{"name":"Brenngässel","postalCode":"68526","locality":"Ladenburg","municipality":{"key":"08226038","name":"Ladenburg, Stadt","type":"Stadt"},"district":{"key":"08226","name":"Rhein-Neckar-Kreis","type":"Landkreis"},"federalState":{"key":"08","name":"Baden-Württemberg"}},{"name":"Breslauer Str.","postalCode":"68526","locality":"Ladenburg","municipality":{"key":"08226038","name":"Ladenburg, Stadt","type":"Stadt"},"district":{"key":"08226","name":"Rhein-Neckar-Kreis","type":"Landkreis"},"federalState":{"key":"08","name":"Baden-Württemberg"}},{"name":"Brunnenstr.","postalCode":"68526","locality":"Ladenburg","municipality":{"key":"08226038","name":"Ladenburg, Stadt","type":"Stadt"},"district":{"key":"08226","name":"Rhein-Neckar-Kreis","type":"Landkreis"},"federalState":{"key":"08","name":"Baden-Württemberg"}},{"name":"Brunnenweg","postalCode":"68526","locality":"Ladenburg","municipality":{"key":"08226038","name":"Ladenburg, Stadt","type":"Stadt"},"district":{"key":"08226","name":"Rhein-Neckar-Kreis","type":"Landkreis"},"federalState":{"key":"08","name":"Baden-Württemberg"}},{"name":"Carl-Benz-Park","postalCode":"68526","locality":"Ladenburg","municipality":{"key":"08226038","name":"Ladenburg, Stadt","type":"Stadt"},"district":{"key":"08226","name":"Rhein-Neckar-Kreis","type":"Landkreis"},"federalState":{"key":"08","name":"Baden-Württemberg"}},{"name":"Cronbergergasse","postalCode":"68526","locality":"Ladenburg","municipality":{"key":"08226038","name":"Ladenburg, Stadt","type":"Stadt"},"district":{"key":"08226","name":"Rhein-Neckar-Kreis","type":"Landkreis"},"federalState":{"key":"08","name":"Baden-Württemberg"}},{"name":"Daimlerstr.","postalCode":"68526","locality":"Ladenburg","municipality":{"key":"08226038","name":"Ladenburg, Stadt","type":"Stadt"},"district":{"key":"08226","name":"Rhein-Neckar-Kreis","type":"Landkreis"},"federalState":{"key":"08","name":"Baden-Württemberg"}},{"name":"Domhofgasse","postalCode":"68526","locality":"Ladenburg","municipality":{"key":"08226038","name":"Ladenburg, Stadt","type":"Stadt"},"district":{"key":"08226","name":"Rhein-Neckar-Kreis","type":"Landkreis"},"federalState":{"key":"08","name":"Baden-Württemberg"}},{"name":"Domhofplatz","postalCode":"68526","locality":"Ladenburg","municipality":{"key":"08226038","name":"Ladenburg, Stadt","type":"Stadt"},"district":{"key":"08226","name":"Rhein-Neckar-Kreis","type":"Landkreis"},"federalState":{"key":"08","name":"Baden-Württemberg"}},{"name":"Domitianstr.","postalCode":"68526","locality":"Ladenburg","municipality":{"key":"08226038","name":"Ladenburg, Stadt","type":"Stadt"},"district":{"key":"08226","name":"Rhein-Neckar-Kreis","type":"Landkreis"},"federalState":{"key":"08","name":"Baden-Württemberg"}},{"name":"Donaustr.","postalCode":"68526","locality":"Ladenburg","municipality":{"key":"08226038","name":"Ladenburg, Stadt","type":"Stadt"},"district":{"key":"08226","name":"Rhein-Neckar-Kreis","type":"Landkreis"},"federalState":{"key":"08","name":"Baden-Württemberg"}},{"name":"Dossenheimer Weg","postalCode":"68526","locality":"Ladenburg","municipality":{"key":"08226038","name":"Ladenburg, Stadt","type":"Stadt"},"district":{"key":"08226","name":"Rhein-Neckar-Kreis","type":"Landkreis"},"federalState":{"key":"08","name":"Baden-Württemberg"}},{"name":"Dr.-Carl-Benz-Platz","postalCode":"68526","locality":"Ladenburg","municipality":{"key":"08226038","name":"Ladenburg, Stadt","type":"Stadt"},"district":{"key":"08226","name":"Rhein-Neckar-Kreis","type":"Landkreis"},"federalState":{"key":"08","name":"Baden-Württemberg"}},{"name":"Dreckgasse","postalCode":"68526","locality":"Ladenburg","municipality":{"key":"08226038","name":"Ladenburg, Stadt","type":"Stadt"},"district":{"key":"08226","name":"Rhein-Neckar-Kreis","type":"Landkreis"},"federalState":{"key":"08","name":"Baden-Württemberg"}},{"name":"Eintrachtgasse","postalCode":"68526","locality":"Ladenburg","municipality":{"key":"08226038","name":"Ladenburg, Stadt","type":"Stadt"},"district":{"key":"08226","name":"Rhein-Neckar-Kreis","type":"Landkreis"},"federalState":{"key":"08","name":"Baden-Württemberg"}},{"name":"Engelgäßchen","postalCode":"68526","locality":"Ladenburg","municipality":{"key":"08226038","name":"Ladenburg, Stadt","type":"Stadt"},"district":{"key":"08226","name":"Rhein-Neckar-Kreis","type":"Landkreis"},"federalState":{"key":"08","name":"Baden-Württemberg"}},{"name":"Eponastr.","postalCode":"68526","locality":"Ladenburg","municipality":{"key":"08226038","name":"Ladenburg, Stadt","type":"Stadt"},"district":{"key":"08226","name":"Rhein-Neckar-Kreis","type":"Landkreis"},"federalState":{"key":"08","name":"Baden-Württemberg"}},{"name":"Erbsenweg","postalCode":"68526","locality":"Ladenburg","municipality":{"key":"08226038","name":"Ladenburg, Stadt","type":"Stadt"},"district":{"key":"08226","name":"Rhein-Neckar-Kreis","type":"Landkreis"},"federalState":{"key":"08","name":"Baden-Württemberg"}},{"name":"Färbergasse","postalCode":"68526","locality":"Ladenburg","municipality":{"key":"08226038","name":"Ladenburg, Stadt","type":"Stadt"},"district":{"key":"08226","name":"Rhein-Neckar-Kreis","type":"Landkreis"},"federalState":{"key":"08","name":"Baden-Württemberg"}},{"name":"Festwiese","postalCode":"68526","locality":"Ladenburg","municipality":{"key":"08226038","name":"Ladenburg, Stadt","type":"Stadt"},"district":{"key":"08226","name":"Rhein-Neckar-Kreis","type":"Landkreis"},"federalState":{"key":"08","name":"Baden-Württemberg"}},{"name":"Feuerleitergasse","postalCode":"68526","locality":"Ladenburg","municipality":{"key":"08226038","name":"Ladenburg, Stadt","type":"Stadt"},"district":{"key":"08226","name":"Rhein-Neckar-Kreis","type":"Landkreis"},"federalState":{"key":"08","name":"Baden-Württemberg"}},{"name":"Frankenweg","postalCode":"68526","locality":"Ladenburg","municipality":{"key":"08226038","name":"Ladenburg, Stadt","type":"Stadt"},"district":{"key":"08226","name":"Rhein-Neckar-Kreis","type":"Landkreis"},"federalState":{"key":"08","name":"Baden-Württemberg"}},{"name":"Friedrich-Ebert-Str.","postalCode":"68526","locality":"Ladenburg","municipality":{"key":"08226038","name":"Ladenburg, Stadt","type":"Stadt"},"district":{"key":"08226","name":"Rhein-Neckar-Kreis","type":"Landkreis"},"federalState":{"key":"08","name":"Baden-Württemberg"}},{"name":"Friedrich-Hecker-Weg","postalCode":"68526","locality":"Ladenburg","municipality":{"key":"08226038","name":"Ladenburg, Stadt","type":"Stadt"},"district":{"key":"08226","name":"Rhein-Neckar-Kreis","type":"Landkreis"},"federalState":{"key":"08","name":"Baden-Württemberg"}},{"name":"Fritz-Würzburger-Weg","postalCode":"68526","locality":"Ladenburg","municipality":{"key":"08226038","name":"Ladenburg, Stadt","type":"Stadt"},"district":{"key":"08226","name":"Rhein-Neckar-Kreis","type":"Landkreis"},"federalState":{"key":"08","name":"Baden-Württemberg"}},{"name":"Gansäcker","postalCode":"68526","locality":"Ladenburg","municipality":{"key":"08226038","name":"Ladenburg, Stadt","type":"Stadt"},"district":{"key":"08226","name":"Rhein-Neckar-Kreis","type":"Landkreis"},"federalState":{"key":"08","name":"Baden-Württemberg"}},{"name":"Gänsäcker","postalCode":"68526","locality":"Ladenburg","municipality":{"key":"08226038","name":"Ladenburg, Stadt","type":"Stadt"},"district":{"key":"08226","name":"Rhein-Neckar-Kreis","type":"Landkreis"},"federalState":{"key":"08","name":"Baden-Württemberg"}},{"name":"Gartengässchen","postalCode":"68526","locality":"Ladenburg","municipality":{"key":"08226038","name":"Ladenburg, Stadt","type":"Stadt"},"district":{"key":"08226","name":"Rhein-Neckar-Kreis","type":"Landkreis"},"federalState":{"key":"08","name":"Baden-Württemberg"}},{"name":"Goethestr.","postalCode":"68526","locality":"Ladenburg","municipality":{"key":"08226038","name":"Ladenburg, Stadt","type":"Stadt"},"district":{"key":"08226","name":"Rhein-Neckar-Kreis","type":"Landkreis"},"federalState":{"key":"08","name":"Baden-Württemberg"}},{"name":"Gropengießerstr.","postalCode":"68526","locality":"Ladenburg","municipality":{"key":"08226038","name":"Ladenburg, Stadt","type":"Stadt"},"district":{"key":"08226","name":"Rhein-Neckar-Kreis","type":"Landkreis"},"federalState":{"key":"08","name":"Baden-Württemberg"}},{"name":"Große Klappergasse","postalCode":"68526","locality":"Ladenburg","municipality":{"key":"08226038","name":"Ladenburg, Stadt","type":"Stadt"},"district":{"key":"08226","name":"Rhein-Neckar-Kreis","type":"Landkreis"},"federalState":{"key":"08","name":"Baden-Württemberg"}},{"name":"Hadrianstr.","postalCode":"68526","locality":"Ladenburg","municipality":{"key":"08226038","name":"Ladenburg, Stadt","type":"Stadt"},"district":{"key":"08226","name":"Rhein-Neckar-Kreis","type":"Landkreis"},"federalState":{"key":"08","name":"Baden-Württemberg"}},{"name":"Hasenhain","postalCode":"68526","locality":"Ladenburg","municipality":{"key":"08226038","name":"Ladenburg, Stadt","type":"Stadt"},"district":{"key":"08226","name":"Rhein-Neckar-Kreis","type":"Landkreis"},"federalState":{"key":"08","name":"Baden-Württemberg"}},{"name":"Hauptstr.","postalCode":"68526","locality":"Ladenburg","municipality":{"key":"08226038","name":"Ladenburg, Stadt","type":"Stadt"},"district":{"key":"08226","name":"Rhein-Neckar-Kreis","type":"Landkreis"},"federalState":{"key":"08","name":"Baden-Württemberg"}},{"name":"Heddesheimer Str.","postalCode":"68526","locality":"Ladenburg","municipality":{"key":"08226038","name":"Ladenburg, Stadt","type":"Stadt"},"district":{"key":"08226","name":"Rhein-Neckar-Kreis","type":"Landkreis"},"federalState":{"key":"08","name":"Baden-Württemberg"}},{"name":"Heidelberger Str.","postalCode":"68526","locality":"Ladenburg","municipality":{"key":"08226038","name":"Ladenburg, Stadt","type":"Stadt"},"district":{"key":"08226","name":"Rhein-Neckar-Kreis","type":"Landkreis"},"federalState":{"key":"08","name":"Baden-Württemberg"}},{"name":"Heinrich-Heine-Str.","postalCode":"68526","locality":"Ladenburg","municipality":{"key":"08226038","name":"Ladenburg, Stadt","type":"Stadt"},"district":{"key":"08226","name":"Rhein-Neckar-Kreis","type":"Landkreis"},"federalState":{"key":"08","name":"Baden-Württemberg"}},{"name":"Hinterer Rindweg","postalCode":"68526","locality":"Ladenburg","municipality":{"key":"08226038","name":"Ladenburg, Stadt","type":"Stadt"},"district":{"key":"08226","name":"Rhein-Neckar-Kreis","type":"Landkreis"},"federalState":{"key":"08","name":"Baden-Württemberg"}},{"name":"Hirschberger Allee","postalCode":"68526","locality":"Ladenburg","municipality":{"key":"08226038","name":"Ladenburg, Stadt","type":"Stadt"},"district":{"key":"08226","name":"Rhein-Neckar-Kreis","type":"Landkreis"},"federalState":{"key":"08","name":"Baden-Württemberg"}},{"name":"Hohe Str.","postalCode":"68526","locality":"Ladenburg","municipality":{"key":"08226038","name":"Ladenburg, Stadt","type":"Stadt"},"district":{"key":"08226","name":"Rhein-Neckar-Kreis","type":"Landkreis"},"federalState":{"key":"08","name":"Baden-Württemberg"}},{"name":"Hohe Str. (ehemalige Römerstr.)","postalCode":"68526","locality":"Ladenburg","municipality":{"key":"08226038","name":"Ladenburg, Stadt","type":"Stadt"},"district":{"key":"08226","name":"Rhein-Neckar-Kreis","type":"Landkreis"},"federalState":{"key":"08","name":"Baden-Württemberg"}},{"name":"Ilvesheimer Str.","postalCode":"68526","locality":"Ladenburg","municipality":{"key":"08226038","name":"Ladenburg, Stadt","type":"Stadt"},"district":{"key":"08226","name":"Rhein-Neckar-Kreis","type":"Landkreis"},"federalState":{"key":"08","name":"Baden-Württemberg"}},{"name":"Im Kirchfeld","postalCode":"68526","locality":"Ladenburg","municipality":{"key":"08226038","name":"Ladenburg, Stadt","type":"Stadt"},"district":{"key":"08226","name":"Rhein-Neckar-Kreis","type":"Landkreis"},"federalState":{"key":"08","name":"Baden-Württemberg"}},{"name":"Im Matzgarten","postalCode":"68526","locality":"Ladenburg","municipality":{"key":"08226038","name":"Ladenburg, Stadt","type":"Stadt"},"district":{"key":"08226","name":"Rhein-Neckar-Kreis","type":"Landkreis"},"federalState":{"key":"08","name":"Baden-Württemberg"}},{"name":"Im Oberen Rech","postalCode":"68526","locality":"Ladenburg","municipality":{"key":"08226038","name":"Ladenburg, Stadt","type":"Stadt"},"district":{"key":"08226","name":"Rhein-Neckar-Kreis","type":"Landkreis"},"federalState":{"key":"08","name":"Baden-Württemberg"}},{"name":"Im Schwanenstein","postalCode":"68526","locality":"Ladenburg","municipality":{"key":"08226038","name":"Ladenburg, Stadt","type":"Stadt"},"district":{"key":"08226","name":"Rhein-Neckar-Kreis","type":"Landkreis"},"federalState":{"key":"08","name":"Baden-Württemberg"}},{"name":"Im Steg","postalCode":"68526","locality":"Ladenburg","municipality":{"key":"08226038","name":"Ladenburg, Stadt","type":"Stadt"},"district":{"key":"08226","name":"Rhein-Neckar-Kreis","type":"Landkreis"},"federalState":{"key":"08","name":"Baden-Württemberg"}},{"name":"Im Unteren Rech","postalCode":"68526","locality":"Ladenburg","municipality":{"key":"08226038","name":"Ladenburg, Stadt","type":"Stadt"},"district":{"key":"08226","name":"Rhein-Neckar-Kreis","type":"Landkreis"},"federalState":{"key":"08","name":"Baden-Württemberg"}},{"name":"In der Au","postalCode":"68526","locality":"Ladenburg","municipality":{"key":"08226038","name":"Ladenburg, Stadt","type":"Stadt"},"district":{"key":"08226","name":"Rhein-Neckar-Kreis","type":"Landkreis"},"federalState":{"key":"08","name":"Baden-Württemberg"}},{"name":"Jahnstr.","postalCode":"68526","locality":"Ladenburg","municipality":{"key":"08226038","name":"Ladenburg, Stadt","type":"Stadt"},"district":{"key":"08226","name":"Rhein-Neckar-Kreis","type":"Landkreis"},"federalState":{"key":"08","name":"Baden-Württemberg"}},{"name":"Januariusweg","postalCode":"68526","locality":"Ladenburg","municipality":{"key":"08226038","name":"Ladenburg, Stadt","type":"Stadt"},"district":{"key":"08226","name":"Rhein-Neckar-Kreis","type":"Landkreis"},"federalState":{"key":"08","name":"Baden-Württemberg"}},{"name":"Jesuitengasse","postalCode":"68526","locality":"Ladenburg","municipality":{"key":"08226038","name":"Ladenburg, Stadt","type":"Stadt"},"district":{"key":"08226","name":"Rhein-Neckar-Kreis","type":"Landkreis"},"federalState":{"key":"08","name":"Baden-Württemberg"}},{"name":"Jesuitenhof","postalCode":"68526","locality":"Ladenburg","municipality":{"key":"08226038","name":"Ladenburg, Stadt","type":"Stadt"},"district":{"key":"08226","name":"Rhein-Neckar-Kreis","type":"Landkreis"},"federalState":{"key":"08","name":"Baden-Württemberg"}},{"name":"Jupiterplatz","postalCode":"68526","locality":"Ladenburg","municipality":{"key":"08226038","name":"Ladenburg, Stadt","type":"Stadt"},"district":{"key":"08226","name":"Rhein-Neckar-Kreis","type":"Landkreis"},"federalState":{"key":"08","name":"Baden-Württemberg"}},{"name":"Kandelbachweg","postalCode":"68526","locality":"Ladenburg","municipality":{"key":"08226038","name":"Ladenburg, Stadt","type":"Stadt"},"district":{"key":"08226","name":"Rhein-Neckar-Kreis","type":"Landkreis"},"federalState":{"key":"08","name":"Baden-Württemberg"}},{"name":"Karl-Hemmer-Str.","postalCode":"68526","locality":"Ladenburg","municipality":{"key":"08226038","name":"Ladenburg, Stadt","type":"Stadt"},"district":{"key":"08226","name":"Rhein-Neckar-Kreis","type":"Landkreis"},"federalState":{"key":"08","name":"Baden-Württemberg"}},{"name":"Karl-Schlegel-Weg","postalCode":"68526","locality":"Ladenburg","municipality":{"key":"08226038","name":"Ladenburg, Stadt","type":"Stadt"},"district":{"key":"08226","name":"Rhein-Neckar-Kreis","type":"Landkreis"},"federalState":{"key":"08","name":"Baden-Württemberg"}},{"name":"Kastellweg","postalCode":"68526","locality":"Ladenburg","municipality":{"key":"08226038","name":"Ladenburg, Stadt","type":"Stadt"},"district":{"key":"08226","name":"Rhein-Neckar-Kreis","type":"Landkreis"},"federalState":{"key":"08","name":"Baden-Württemberg"}},{"name":"Kellereigasse","postalCode":"68526","locality":"Ladenburg","municipality":{"key":"08226038","name":"Ladenburg, Stadt","type":"Stadt"},"district":{"key":"08226","name":"Rhein-Neckar-Kreis","type":"Landkreis"},"federalState":{"key":"08","name":"Baden-Württemberg"}},{"name":"Keltenweg","postalCode":"68526","locality":"Ladenburg","municipality":{"key":"08226038","name":"Ladenburg, Stadt","type":"Stadt"},"district":{"key":"08226","name":"Rhein-Neckar-Kreis","type":"Landkreis"},"federalState":{"key":"08","name":"Baden-Württemberg"}},{"name":"Kettelerstr.","postalCode":"68526","locality":"Ladenburg","municipality":{"key":"08226038","name":"Ladenburg, Stadt","type":"Stadt"},"district":{"key":"08226","name":"Rhein-Neckar-Kreis","type":"Landkreis"},"federalState":{"key":"08","name":"Baden-Württemberg"}},{"name":"Kirchenstr.","postalCode":"68526","locality":"Ladenburg","municipality":{"key":"08226038","name":"Ladenburg, Stadt","type":"Stadt"},"district":{"key":"08226","name":"Rhein-Neckar-Kreis","type":"Landkreis"},"federalState":{"key":"08","name":"Baden-Württemberg"}},{"name":"Kolpingstr.","postalCode":"68526","locality":"Ladenburg","municipality":{"key":"08226038","name":"Ladenburg, Stadt","type":"Stadt"},"district":{"key":"08226","name":"Rhein-Neckar-Kreis","type":"Landkreis"},"federalState":{"key":"08","name":"Baden-Württemberg"}},{"name":"Konrad-Seel-Str.","postalCode":"68526","locality":"Ladenburg","municipality":{"key":"08226038","name":"Ladenburg, Stadt","type":"Stadt"},"district":{"key":"08226","name":"Rhein-Neckar-Kreis","type":"Landkreis"},"federalState":{"key":"08","name":"Baden-Württemberg"}},{"name":"Kurzgewannstr.","postalCode":"68526","locality":"Ladenburg","municipality":{"key":"08226038","name":"Ladenburg, Stadt","type":"Stadt"},"district":{"key":"08226","name":"Rhein-Neckar-Kreis","type":"Landkreis"},"federalState":{"key":"08","name":"Baden-Württemberg"}},{"name":"Ladenburger Str.","postalCode":"68526","locality":"Ladenburg","municipality":{"key":"08226038","name":"Ladenburg, Stadt","type":"Stadt"},"district":{"key":"08226","name":"Rhein-Neckar-Kreis","type":"Landkreis"},"federalState":{"key":"08","name":"Baden-Württemberg"}},{"name":"Langer Ruthen","postalCode":"68526","locality":"Ladenburg","municipality":{"key":"08226038","name":"Ladenburg, Stadt","type":"Stadt"},"district":{"key":"08226","name":"Rhein-Neckar-Kreis","type":"Landkreis"},"federalState":{"key":"08","name":"Baden-Württemberg"}},{"name":"Langgewannstr.","postalCode":"68526","locality":"Ladenburg","municipality":{"key":"08226038","name":"Ladenburg, Stadt","type":"Stadt"},"district":{"key":"08226","name":"Rhein-Neckar-Kreis","type":"Landkreis"},"federalState":{"key":"08","name":"Baden-Württemberg"}},{"name":"Lopodunumstr.","postalCode":"68526","locality":"Ladenburg","municipality":{"key":"08226038","name":"Ladenburg, Stadt","type":"Stadt"},"district":{"key":"08226","name":"Rhein-Neckar-Kreis","type":"Landkreis"},"federalState":{"key":"08","name":"Baden-Württemberg"}},{"name":"Luisenstr.","postalCode":"68526","locality":"Ladenburg","municipality":{"key":"08226038","name":"Ladenburg, Stadt","type":"Stadt"},"district":{"key":"08226","name":"Rhein-Neckar-Kreis","type":"Landkreis"},"federalState":{"key":"08","name":"Baden-Württemberg"}},{"name":"Lustgartenstr.","postalCode":"68526","locality":"Ladenburg","municipality":{"key":"08226038","name":"Ladenburg, Stadt","type":"Stadt"},"district":{"key":"08226","name":"Rhein-Neckar-Kreis","type":"Landkreis"},"federalState":{"key":"08","name":"Baden-Württemberg"}},{"name":"Marktplatz","postalCode":"68526","locality":"Ladenburg","municipality":{"key":"08226038","name":"Ladenburg, Stadt","type":"Stadt"},"district":{"key":"08226","name":"Rhein-Neckar-Kreis","type":"Landkreis"},"federalState":{"key":"08","name":"Baden-Württemberg"}},{"name":"Merianweg","postalCode":"68526","locality":"Ladenburg","municipality":{"key":"08226038","name":"Ladenburg, Stadt","type":"Stadt"},"district":{"key":"08226","name":"Rhein-Neckar-Kreis","type":"Landkreis"},"federalState":{"key":"08","name":"Baden-Württemberg"}},{"name":"Metzgergasse","postalCode":"68526","locality":"Ladenburg","municipality":{"key":"08226038","name":"Ladenburg, Stadt","type":"Stadt"},"district":{"key":"08226","name":"Rhein-Neckar-Kreis","type":"Landkreis"},"federalState":{"key":"08","name":"Baden-Württemberg"}},{"name":"Mithrasweg","postalCode":"68526","locality":"Ladenburg","municipality":{"key":"08226038","name":"Ladenburg, Stadt","type":"Stadt"},"district":{"key":"08226","name":"Rhein-Neckar-Kreis","type":"Landkreis"},"federalState":{"key":"08","name":"Baden-Württemberg"}},{"name":"Mühlgasse","postalCode":"68526","locality":"Ladenburg","municipality":{"key":"08226038","name":"Ladenburg, Stadt","type":"Stadt"},"district":{"key":"08226","name":"Rhein-Neckar-Kreis","type":"Landkreis"},"federalState":{"key":"08","name":"Baden-Württemberg"}},{"name":"Mühlgewannweg","postalCode":"68526","locality":"Ladenburg","municipality":{"key":"08226038","name":"Ladenburg, Stadt","type":"Stadt"},"district":{"key":"08226","name":"Rhein-Neckar-Kreis","type":"Landkreis"},"federalState":{"key":"08","name":"Baden-Württemberg"}},{"name":"Nadlerstr.","postalCode":"68526","locality":"Ladenburg","municipality":{"key":"08226038","name":"Ladenburg, Stadt","type":"Stadt"},"district":{"key":"08226","name":"Rhein-Neckar-Kreis","type":"Landkreis"},"federalState":{"key":"08","name":"Baden-Württemberg"}},{"name":"Nagelschmiedgasse","postalCode":"68526","locality":"Ladenburg","municipality":{"key":"08226038","name":"Ladenburg, Stadt","type":"Stadt"},"district":{"key":"08226","name":"Rhein-Neckar-Kreis","type":"Landkreis"},"federalState":{"key":"08","name":"Baden-Württemberg"}},{"name":"Neckarstr.","postalCode":"68526","locality":"Ladenburg","municipality":{"key":"08226038","name":"Ladenburg, Stadt","type":"Stadt"},"district":{"key":"08226","name":"Rhein-Neckar-Kreis","type":"Landkreis"},"federalState":{"key":"08","name":"Baden-Württemberg"}},{"name":"Neckartorplatz","postalCode":"68526","locality":"Ladenburg","municipality":{"key":"08226038","name":"Ladenburg, Stadt","type":"Stadt"},"district":{"key":"08226","name":"Rhein-Neckar-Kreis","type":"Landkreis"},"federalState":{"key":"08","name":"Baden-Württemberg"}},{"name":"Neckarufer","postalCode":"68526","locality":"Ladenburg","municipality":{"key":"08226038","name":"Ladenburg, Stadt","type":"Stadt"},"district":{"key":"08226","name":"Rhein-Neckar-Kreis","type":"Landkreis"},"federalState":{"key":"08","name":"Baden-Württemberg"}},{"name":"Neckarwiese","postalCode":"68526","locality":"Ladenburg","municipality":{"key":"08226038","name":"Ladenburg, Stadt","type":"Stadt"},"district":{"key":"08226","name":"Rhein-Neckar-Kreis","type":"Landkreis"},"federalState":{"key":"08","name":"Baden-Württemberg"}},{"name":"Neue Anlage","postalCode":"68526","locality":"Ladenburg","municipality":{"key":"08226038","name":"Ladenburg, Stadt","type":"Stadt"},"district":{"key":"08226","name":"Rhein-Neckar-Kreis","type":"Landkreis"},"federalState":{"key":"08","name":"Baden-Württemberg"}},{"name":"Neugasse","postalCode":"68526","locality":"Ladenburg","municipality":{"key":"08226038","name":"Ladenburg, Stadt","type":"Stadt"},"district":{"key":"08226","name":"Rhein-Neckar-Kreis","type":"Landkreis"},"federalState":{"key":"08","name":"Baden-Württemberg"}},{"name":"Neugraben","postalCode":"68526","locality":"Ladenburg","municipality":{"key":"08226038","name":"Ladenburg, Stadt","type":"Stadt"},"district":{"key":"08226","name":"Rhein-Neckar-Kreis","type":"Landkreis"},"federalState":{"key":"08","name":"Baden-Württemberg"}},{"name":"Nonnengäßchen","postalCode":"68526","locality":"Ladenburg","municipality":{"key":"08226038","name":"Ladenburg, Stadt","type":"Stadt"},"district":{"key":"08226","name":"Rhein-Neckar-Kreis","type":"Landkreis"},"federalState":{"key":"08","name":"Baden-Württemberg"}},{"name":"Nordapstr.","postalCode":"68526","locality":"Ladenburg","municipality":{"key":"08226038","name":"Ladenburg, Stadt","type":"Stadt"},"district":{"key":"08226","name":"Rhein-Neckar-Kreis","type":"Landkreis"},"federalState":{"key":"08","name":"Baden-Württemberg"}},{"name":"Ostlandstr.","postalCode":"68526","locality":"Ladenburg","municipality":{"key":"08226038","name":"Ladenburg, Stadt","type":"Stadt"},"district":{"key":"08226","name":"Rhein-Neckar-Kreis","type":"Landkreis"},"federalState":{"key":"08","name":"Baden-Württemberg"}},{"name":"Otto-Häussler-Str.","postalCode":"68526","locality":"Ladenburg","municipality":{"key":"08226038","name":"Ladenburg, Stadt","type":"Stadt"},"district":{"key":"08226","name":"Rhein-Neckar-Kreis","type":"Landkreis"},"federalState":{"key":"08","name":"Baden-Württemberg"}},{"name":"Preysingstr.","postalCode":"68526","locality":"Ladenburg","municipality":{"key":"08226038","name":"Ladenburg, Stadt","type":"Stadt"},"district":{"key":"08226","name":"Rhein-Neckar-Kreis","type":"Landkreis"},"federalState":{"key":"08","name":"Baden-Württemberg"}},{"name":"Rautenthalerstr.","postalCode":"68526","locality":"Ladenburg","municipality":{"key":"08226038","name":"Ladenburg, Stadt","type":"Stadt"},"district":{"key":"08226","name":"Rhein-Neckar-Kreis","type":"Landkreis"},"federalState":{"key":"08","name":"Baden-Württemberg"}},{"name":"Realschulstr.","postalCode":"68526","locality":"Ladenburg","municipality":{"key":"08226038","name":"Ladenburg, Stadt","type":"Stadt"},"district":{"key":"08226","name":"Rhein-Neckar-Kreis","type":"Landkreis"},"federalState":{"key":"08","name":"Baden-Württemberg"}},{"name":"Rheingaustr.","postalCode":"68526","locality":"Ladenburg","municipality":{"key":"08226038","name":"Ladenburg, Stadt","type":"Stadt"},"district":{"key":"08226","name":"Rhein-Neckar-Kreis","type":"Landkreis"},"federalState":{"key":"08","name":"Baden-Württemberg"}},{"name":"Rindweg","postalCode":"68526","locality":"Ladenburg","municipality":{"key":"08226038","name":"Ladenburg, Stadt","type":"Stadt"},"district":{"key":"08226","name":"Rhein-Neckar-Kreis","type":"Landkreis"},"federalState":{"key":"08","name":"Baden-Württemberg"}},{"name":"Sandgewannstr.","postalCode":"68526","locality":"Ladenburg","municipality":{"key":"08226038","name":"Ladenburg, Stadt","type":"Stadt"},"district":{"key":"08226","name":"Rhein-Neckar-Kreis","type":"Landkreis"},"federalState":{"key":"08","name":"Baden-Württemberg"}},{"name":"Scheffelstr.","postalCode":"68526","locality":"Ladenburg","municipality":{"key":"08226038","name":"Ladenburg, Stadt","type":"Stadt"},"district":{"key":"08226","name":"Rhein-Neckar-Kreis","type":"Landkreis"},"federalState":{"key":"08","name":"Baden-Württemberg"}},{"name":"Schillerstr.","postalCode":"68526","locality":"Ladenburg","municipality":{"key":"08226038","name":"Ladenburg, Stadt","type":"Stadt"},"district":{"key":"08226","name":"Rhein-Neckar-Kreis","type":"Landkreis"},"federalState":{"key":"08","name":"Baden-Württemberg"}},{"name":"Schmezerstr.","postalCode":"68526","locality":"Ladenburg","municipality":{"key":"08226038","name":"Ladenburg, Stadt","type":"Stadt"},"district":{"key":"08226","name":"Rhein-Neckar-Kreis","type":"Landkreis"},"federalState":{"key":"08","name":"Baden-Württemberg"}},{"name":"Schriesheimer Fußweg","postalCode":"68526","locality":"Ladenburg","municipality":{"key":"08226038","name":"Ladenburg, Stadt","type":"Stadt"},"district":{"key":"08226","name":"Rhein-Neckar-Kreis","type":"Landkreis"},"federalState":{"key":"08","name":"Baden-Württemberg"}},{"name":"Schriesheimer Str.","postalCode":"68526","locality":"Ladenburg","municipality":{"key":"08226038","name":"Ladenburg, Stadt","type":"Stadt"},"district":{"key":"08226","name":"Rhein-Neckar-Kreis","type":"Landkreis"},"federalState":{"key":"08","name":"Baden-Württemberg"}},{"name":"Schulstr.","postalCode":"68526","locality":"Ladenburg","municipality":{"key":"08226038","name":"Ladenburg, Stadt","type":"Stadt"},"district":{"key":"08226","name":"Rhein-Neckar-Kreis","type":"Landkreis"},"federalState":{"key":"08","name":"Baden-Württemberg"}},{"name":"Schwarzkreuzstr.","postalCode":"68526","locality":"Ladenburg","municipality":{"key":"08226038","name":"Ladenburg, Stadt","type":"Stadt"},"district":{"key":"08226","name":"Rhein-Neckar-Kreis","type":"Landkreis"},"federalState":{"key":"08","name":"Baden-Württemberg"}},{"name":"Schwedenweg","postalCode":"68526","locality":"Ladenburg","municipality":{"key":"08226038","name":"Ladenburg, Stadt","type":"Stadt"},"district":{"key":"08226","name":"Rhein-Neckar-Kreis","type":"Landkreis"},"federalState":{"key":"08","name":"Baden-Württemberg"}},{"name":"Seilergasse","postalCode":"68526","locality":"Ladenburg","municipality":{"key":"08226038","name":"Ladenburg, Stadt","type":"Stadt"},"district":{"key":"08226","name":"Rhein-Neckar-Kreis","type":"Landkreis"},"federalState":{"key":"08","name":"Baden-Württemberg"}},{"name":"Seilergraben","postalCode":"68526","locality":"Ladenburg","municipality":{"key":"08226038","name":"Ladenburg, Stadt","type":"Stadt"},"district":{"key":"08226","name":"Rhein-Neckar-Kreis","type":"Landkreis"},"federalState":{"key":"08","name":"Baden-Württemberg"}},{"name":"Sickingenstr.","postalCode":"68526","locality":"Ladenburg","municipality":{"key":"08226038","name":"Ladenburg, Stadt","type":"Stadt"},"district":{"key":"08226","name":"Rhein-Neckar-Kreis","type":"Landkreis"},"federalState":{"key":"08","name":"Baden-Württemberg"}},{"name":"Siemensstr.","postalCode":"68526","locality":"Ladenburg","municipality":{"key":"08226038","name":"Ladenburg, Stadt","type":"Stadt"},"district":{"key":"08226","name":"Rhein-Neckar-Kreis","type":"Landkreis"},"federalState":{"key":"08","name":"Baden-Württemberg"}},{"name":"Sievertstr.","postalCode":"68526","locality":"Ladenburg","municipality":{"key":"08226038","name":"Ladenburg, Stadt","type":"Stadt"},"district":{"key":"08226","name":"Rhein-Neckar-Kreis","type":"Landkreis"},"federalState":{"key":"08","name":"Baden-Württemberg"}},{"name":"Stadtäcker","postalCode":"68526","locality":"Ladenburg","municipality":{"key":"08226038","name":"Ladenburg, Stadt","type":"Stadt"},"district":{"key":"08226","name":"Rhein-Neckar-Kreis","type":"Landkreis"},"federalState":{"key":"08","name":"Baden-Württemberg"}},{"name":"Stahlbühlring","postalCode":"68526","locality":"Ladenburg","municipality":{"key":"08226038","name":"Ladenburg, Stadt","type":"Stadt"},"district":{"key":"08226","name":"Rhein-Neckar-Kreis","type":"Landkreis"},"federalState":{"key":"08","name":"Baden-Württemberg"}},{"name":"Strahlenburgweg","postalCode":"68526","locality":"Ladenburg","municipality":{"key":"08226038","name":"Ladenburg, Stadt","type":"Stadt"},"district":{"key":"08226","name":"Rhein-Neckar-Kreis","type":"Landkreis"},"federalState":{"key":"08","name":"Baden-Württemberg"}},{"name":"Sudetenweg","postalCode":"68526","locality":"Ladenburg","municipality":{"key":"08226038","name":"Ladenburg, Stadt","type":"Stadt"},"district":{"key":"08226","name":"Rhein-Neckar-Kreis","type":"Landkreis"},"federalState":{"key":"08","name":"Baden-Württemberg"}},{"name":"Suebenplatz","postalCode":"68526","locality":"Ladenburg","municipality":{"key":"08226038","name":"Ladenburg, Stadt","type":"Stadt"},"district":{"key":"08226","name":"Rhein-Neckar-Kreis","type":"Landkreis"},"federalState":{"key":"08","name":"Baden-Württemberg"}},{"name":"Trajanstr.","postalCode":"68526","locality":"Ladenburg","municipality":{"key":"08226038","name":"Ladenburg, Stadt","type":"Stadt"},"district":{"key":"08226","name":"Rhein-Neckar-Kreis","type":"Landkreis"},"federalState":{"key":"08","name":"Baden-Württemberg"}},{"name":"Uhlandstr.","postalCode":"68526","locality":"Ladenburg","municipality":{"key":"08226038","name":"Ladenburg, Stadt","type":"Stadt"},"district":{"key":"08226","name":"Rhein-Neckar-Kreis","type":"Landkreis"},"federalState":{"key":"08","name":"Baden-Württemberg"}},{"name":"Valentinianstr.","postalCode":"68526","locality":"Ladenburg","municipality":{"key":"08226038","name":"Ladenburg, Stadt","type":"Stadt"},"district":{"key":"08226","name":"Rhein-Neckar-Kreis","type":"Landkreis"},"federalState":{"key":"08","name":"Baden-Württemberg"}},{"name":"Vespasianstr.","postalCode":"68526","locality":"Ladenburg","municipality":{"key":"08226038","name":"Ladenburg, Stadt","type":"Stadt"},"district":{"key":"08226","name":"Rhein-Neckar-Kreis","type":"Landkreis"},"federalState":{"key":"08","name":"Baden-Württemberg"}},{"name":"Vorderer Rindweg","postalCode":"68526","locality":"Ladenburg","municipality":{"key":"08226038","name":"Ladenburg, Stadt","type":"Stadt"},"district":{"key":"08226","name":"Rhein-Neckar-Kreis","type":"Landkreis"},"federalState":{"key":"08","name":"Baden-Württemberg"}},{"name":"Waldpark","postalCode":"68526","locality":"Ladenburg","municipality":{"key":"08226038","name":"Ladenburg, Stadt","type":"Stadt"},"district":{"key":"08226","name":"Rhein-Neckar-Kreis","type":"Landkreis"},"federalState":{"key":"08","name":"Baden-Württemberg"}},{"name":"Wallstadter Str.","postalCode":"68526","locality":"Ladenburg","municipality":{"key":"08226038","name":"Ladenburg, Stadt","type":"Stadt"},"district":{"key":"08226","name":"Rhein-Neckar-Kreis","type":"Landkreis"},"federalState":{"key":"08","name":"Baden-Württemberg"}},{"name":"Weidenstr.","postalCode":"68526","locality":"Ladenburg","municipality":{"key":"08226038","name":"Ladenburg, Stadt","type":"Stadt"},"district":{"key":"08226","name":"Rhein-Neckar-Kreis","type":"Landkreis"},"federalState":{"key":"08","name":"Baden-Württemberg"}},{"name":"Weinheimer Str.","postalCode":"68526","locality":"Ladenburg","municipality":{"key":"08226038","name":"Ladenburg, Stadt","type":"Stadt"},"district":{"key":"08226","name":"Rhein-Neckar-Kreis","type":"Landkreis"},"federalState":{"key":"08","name":"Baden-Württemberg"}},{"name":"Wichernstr.","postalCode":"68526","locality":"Ladenburg","municipality":{"key":"08226038","name":"Ladenburg, Stadt","type":"Stadt"},"district":{"key":"08226","name":"Rhein-Neckar-Kreis","type":"Landkreis"},"federalState":{"key":"08","name":"Baden-Württemberg"}},{"name":"Wiesenstr.","postalCode":"68526","locality":"Ladenburg","municipality":{"key":"08226038","name":"Ladenburg, Stadt","type":"Stadt"},"district":{"key":"08226","name":"Rhein-Neckar-Kreis","type":"Landkreis"},"federalState":{"key":"08","name":"Baden-Württemberg"}},{"name":"Willy-Kress-Weg","postalCode":"68526","locality":"Ladenburg","municipality":{"key":"08226038","name":"Ladenburg, Stadt","type":"Stadt"},"district":{"key":"08226","name":"Rhein-Neckar-Kreis","type":"Landkreis"},"federalState":{"key":"08","name":"Baden-Württemberg"}},{"name":"Wormser Str.","postalCode":"68526","locality":"Ladenburg","municipality":{"key":"08226038","name":"Ladenburg, Stadt","type":"Stadt"},"district":{"key":"08226","name":"Rhein-Neckar-Kreis","type":"Landkreis"},"federalState":{"key":"08","name":"Baden-Württemberg"}},{"name":"Zehntstr.","postalCode":"68526","locality":"Ladenburg","municipality":{"key":"08226038","name":"Ladenburg, Stadt","type":"Stadt"},"district":{"key":"08226","name":"Rhein-Neckar-Kreis","type":"Landkreis"},"federalState":{"key":"08","name":"Baden-Württemberg"}},{"name":"Zelgenweg","postalCode":"68526","locality":"Ladenburg","municipality":{"key":"08226038","name":"Ladenburg, Stadt","type":"Stadt"},"district":{"key":"08226","name":"Rhein-Neckar-Kreis","type":"Landkreis"},"federalState":{"key":"08","name":"Baden-Württemberg"}},{"name":"Zieglerwasen","postalCode":"68526","locality":"Ladenburg","municipality":{"key":"08226038","name":"Ladenburg, Stadt","type":"Stadt"},"district":{"key":"08226","name":"Rhein-Neckar-Kreis","type":"Landkreis"},"federalState":{"key":"08","name":"Baden-Württemberg"}},{"name":"Zwingertgasse","postalCode":"68526","locality":"Ladenburg","municipality":{"key":"08226038","name":"Ladenburg, Stadt","type":"Stadt"},"district":{"key":"08226","name":"Rhein-Neckar-Kreis","type":"Landkreis"},"federalState":{"key":"08","name":"Baden-Württemberg"}},]