[{"name":"Am Elbdeich","postalCode":"19309","locality":"Lenzerwische","municipality":{"key":"12070246","name":"Lenzerwische","type":"Kreisangehörige_Gemeinde"},"district":{"key":"12070","name":"Prignitz","type":"Landkreis"},"federalState":{"key":"12","name":"Brandenburg"}},{"name":"Baeker Ausbau","postalCode":"16928","locality":"Groß Pankow (Prignitz)","municipality":{"key":"12070125","name":"Groß Pankow (Prignitz)","type":"Kreisangehörige_Gemeinde"},"district":{"key":"12070","name":"Prignitz","type":"Landkreis"},"federalState":{"key":"12","name":"Brandenburg"}},{"name":"Baeker Bahnhof","postalCode":"16928","locality":"Groß Pankow (Prignitz)","municipality":{"key":"12070125","name":"Groß Pankow (Prignitz)","type":"Kreisangehörige_Gemeinde"},"district":{"key":"12070","name":"Prignitz","type":"Landkreis"},"federalState":{"key":"12","name":"Brandenburg"}},{"name":"Baeker Hauptstr.","postalCode":"16928","locality":"Groß Pankow (Prignitz)","municipality":{"key":"12070125","name":"Groß Pankow (Prignitz)","type":"Kreisangehörige_Gemeinde"},"district":{"key":"12070","name":"Prignitz","type":"Landkreis"},"federalState":{"key":"12","name":"Brandenburg"}},{"name":"Baeker Str.","postalCode":"16928","locality":"Groß Pankow (Prignitz)","municipality":{"key":"12070125","name":"Groß Pankow (Prignitz)","type":"Kreisangehörige_Gemeinde"},"district":{"key":"12070","name":"Prignitz","type":"Landkreis"},"federalState":{"key":"12","name":"Brandenburg"}},{"name":"Bahnhofstr.","postalCode":"16928","locality":"Groß Pankow (Prignitz)","municipality":{"key":"12070125","name":"Groß Pankow (Prignitz)","type":"Kreisangehörige_Gemeinde"},"district":{"key":"12070","name":"Prignitz","type":"Landkreis"},"federalState":{"key":"12","name":"Brandenburg"}},{"name":"Blumenthaler Weg","postalCode":"16928","locality":"Groß Pankow (Prignitz)","municipality":{"key":"12070125","name":"Groß Pankow (Prignitz)","type":"Kreisangehörige_Gemeinde"},"district":{"key":"12070","name":"Prignitz","type":"Landkreis"},"federalState":{"key":"12","name":"Brandenburg"}},{"name":"Blumenweg","postalCode":"16928","locality":"Groß Pankow (Prignitz)","municipality":{"key":"12070125","name":"Groß Pankow (Prignitz)","type":"Kreisangehörige_Gemeinde"},"district":{"key":"12070","name":"Prignitz","type":"Landkreis"},"federalState":{"key":"12","name":"Brandenburg"}},{"name":"Boddiner Dorfstr.","postalCode":"16928","locality":"Groß Pankow (Prignitz)","municipality":{"key":"12070125","name":"Groß Pankow (Prignitz)","type":"Kreisangehörige_Gemeinde"},"district":{"key":"12070","name":"Prignitz","type":"Landkreis"},"federalState":{"key":"12","name":"Brandenburg"}},{"name":"Boddiner Weg","postalCode":"16928","locality":"Groß Pankow (Prignitz)","municipality":{"key":"12070125","name":"Groß Pankow (Prignitz)","type":"Kreisangehörige_Gemeinde"},"district":{"key":"12070","name":"Prignitz","type":"Landkreis"},"federalState":{"key":"12","name":"Brandenburg"}},{"name":"Bodenreformsiedlung","postalCode":"16928","locality":"Groß Pankow (Prignitz)","municipality":{"key":"12070125","name":"Groß Pankow (Prignitz)","type":"Kreisangehörige_Gemeinde"},"district":{"key":"12070","name":"Prignitz","type":"Landkreis"},"federalState":{"key":"12","name":"Brandenburg"}},{"name":"Buchholzer Weg","postalCode":"16928","locality":"Groß Pankow (Prignitz)","municipality":{"key":"12070125","name":"Groß Pankow (Prignitz)","type":"Kreisangehörige_Gemeinde"},"district":{"key":"12070","name":"Prignitz","type":"Landkreis"},"federalState":{"key":"12","name":"Brandenburg"}},{"name":"Bullendorf","postalCode":"16928","locality":"Groß Pankow (Prignitz)","municipality":{"key":"12070125","name":"Groß Pankow (Prignitz)","type":"Kreisangehörige_Gemeinde"},"district":{"key":"12070","name":"Prignitz","type":"Landkreis"},"federalState":{"key":"12","name":"Brandenburg"}},{"name":"Chausseestr.","postalCode":"16928","locality":"Groß Pankow (Prignitz)","municipality":{"key":"12070125","name":"Groß Pankow (Prignitz)","type":"Kreisangehörige_Gemeinde"},"district":{"key":"12070","name":"Prignitz","type":"Landkreis"},"federalState":{"key":"12","name":"Brandenburg"}},{"name":"Dannenwalder Weg","postalCode":"16928","locality":"Groß Pankow (Prignitz)","municipality":{"key":"12070125","name":"Groß Pankow (Prignitz)","type":"Kreisangehörige_Gemeinde"},"district":{"key":"12070","name":"Prignitz","type":"Landkreis"},"federalState":{"key":"12","name":"Brandenburg"}},{"name":"Dorfplatz","postalCode":"16928","locality":"Groß Pankow (Prignitz)","municipality":{"key":"12070125","name":"Groß Pankow (Prignitz)","type":"Kreisangehörige_Gemeinde"},"district":{"key":"12070","name":"Prignitz","type":"Landkreis"},"federalState":{"key":"12","name":"Brandenburg"}},{"name":"Dorfstr.","postalCode":"16928","locality":"Groß Pankow (Prignitz)","municipality":{"key":"12070125","name":"Groß Pankow (Prignitz)","type":"Kreisangehörige_Gemeinde"},"district":{"key":"12070","name":"Prignitz","type":"Landkreis"},"federalState":{"key":"12","name":"Brandenburg"}},{"name":"Eichenallee","postalCode":"16928","locality":"Groß Pankow (Prignitz)","municipality":{"key":"12070125","name":"Groß Pankow (Prignitz)","type":"Kreisangehörige_Gemeinde"},"district":{"key":"12070","name":"Prignitz","type":"Landkreis"},"federalState":{"key":"12","name":"Brandenburg"}},{"name":"Eichenweg","postalCode":"16928","locality":"Groß Pankow (Prignitz)","municipality":{"key":"12070125","name":"Groß Pankow (Prignitz)","type":"Kreisangehörige_Gemeinde"},"district":{"key":"12070","name":"Prignitz","type":"Landkreis"},"federalState":{"key":"12","name":"Brandenburg"}},{"name":"Fährstr.","postalCode":"19309","locality":"Lenzerwische","municipality":{"key":"12070246","name":"Lenzerwische","type":"Kreisangehörige_Gemeinde"},"district":{"key":"12070","name":"Prignitz","type":"Landkreis"},"federalState":{"key":"12","name":"Brandenburg"}},{"name":"Friedensstr.","postalCode":"19309","locality":"Lenzerwische","municipality":{"key":"12070246","name":"Lenzerwische","type":"Kreisangehörige_Gemeinde"},"district":{"key":"12070","name":"Prignitz","type":"Landkreis"},"federalState":{"key":"12","name":"Brandenburg"}},{"name":"Gartenweg","postalCode":"16928","locality":"Groß Pankow (Prignitz)","municipality":{"key":"12070125","name":"Groß Pankow (Prignitz)","type":"Kreisangehörige_Gemeinde"},"district":{"key":"12070","name":"Prignitz","type":"Landkreis"},"federalState":{"key":"12","name":"Brandenburg"}},{"name":"Gross Pankower Weg","postalCode":"16928","locality":"Groß Pankow (Prignitz)","municipality":{"key":"12070125","name":"Groß Pankow (Prignitz)","type":"Kreisangehörige_Gemeinde"},"district":{"key":"12070","name":"Prignitz","type":"Landkreis"},"federalState":{"key":"12","name":"Brandenburg"}},{"name":"Guhlsdorf","postalCode":"16928","locality":"Groß Pankow (Prignitz)","municipality":{"key":"12070125","name":"Groß Pankow (Prignitz)","type":"Kreisangehörige_Gemeinde"},"district":{"key":"12070","name":"Prignitz","type":"Landkreis"},"federalState":{"key":"12","name":"Brandenburg"}},{"name":"Gülitzer Str.","postalCode":"16928","locality":"Groß Pankow (Prignitz)","municipality":{"key":"12070125","name":"Groß Pankow (Prignitz)","type":"Kreisangehörige_Gemeinde"},"district":{"key":"12070","name":"Prignitz","type":"Landkreis"},"federalState":{"key":"12","name":"Brandenburg"}},{"name":"Gutsallee","postalCode":"16928","locality":"Groß Pankow (Prignitz)","municipality":{"key":"12070125","name":"Groß Pankow (Prignitz)","type":"Kreisangehörige_Gemeinde"},"district":{"key":"12070","name":"Prignitz","type":"Landkreis"},"federalState":{"key":"12","name":"Brandenburg"}},{"name":"Gutshof","postalCode":"16928","locality":"Groß Pankow (Prignitz)","municipality":{"key":"12070125","name":"Groß Pankow (Prignitz)","type":"Kreisangehörige_Gemeinde"},"district":{"key":"12070","name":"Prignitz","type":"Landkreis"},"federalState":{"key":"12","name":"Brandenburg"}},{"name":"Heidelberger Str.","postalCode":"16928","locality":"Groß Pankow (Prignitz)","municipality":{"key":"12070125","name":"Groß Pankow (Prignitz)","type":"Kreisangehörige_Gemeinde"},"district":{"key":"12070","name":"Prignitz","type":"Landkreis"},"federalState":{"key":"12","name":"Brandenburg"}},{"name":"Hellburger Dorfstr.","postalCode":"16928","locality":"Groß Pankow (Prignitz)","municipality":{"key":"12070125","name":"Groß Pankow (Prignitz)","type":"Kreisangehörige_Gemeinde"},"district":{"key":"12070","name":"Prignitz","type":"Landkreis"},"federalState":{"key":"12","name":"Brandenburg"}},{"name":"Im Dörp","postalCode":"16928","locality":"Groß Pankow (Prignitz)","municipality":{"key":"12070125","name":"Groß Pankow (Prignitz)","type":"Kreisangehörige_Gemeinde"},"district":{"key":"12070","name":"Prignitz","type":"Landkreis"},"federalState":{"key":"12","name":"Brandenburg"}},{"name":"Jakobsdorfer Weg","postalCode":"16928","locality":"Groß Pankow (Prignitz)","municipality":{"key":"12070125","name":"Groß Pankow (Prignitz)","type":"Kreisangehörige_Gemeinde"},"district":{"key":"12070","name":"Prignitz","type":"Landkreis"},"federalState":{"key":"12","name":"Brandenburg"}},{"name":"Kastanienallee","postalCode":"16928","locality":"Groß Pankow (Prignitz)","municipality":{"key":"12070125","name":"Groß Pankow (Prignitz)","type":"Kreisangehörige_Gemeinde"},"district":{"key":"12070","name":"Prignitz","type":"Landkreis"},"federalState":{"key":"12","name":"Brandenburg"}},{"name":"Kehrberger Dorfstr.","postalCode":"16928","locality":"Groß Pankow (Prignitz)","municipality":{"key":"12070125","name":"Groß Pankow (Prignitz)","type":"Kreisangehörige_Gemeinde"},"district":{"key":"12070","name":"Prignitz","type":"Landkreis"},"federalState":{"key":"12","name":"Brandenburg"}},{"name":"Klein Linde","postalCode":"16928","locality":"Groß Pankow (Prignitz)","municipality":{"key":"12070125","name":"Groß Pankow (Prignitz)","type":"Kreisangehörige_Gemeinde"},"district":{"key":"12070","name":"Prignitz","type":"Landkreis"},"federalState":{"key":"12","name":"Brandenburg"}},{"name":"Klein Woltersdorfer Str.","postalCode":"16928","locality":"Groß Pankow (Prignitz)","municipality":{"key":"12070125","name":"Groß Pankow (Prignitz)","type":"Kreisangehörige_Gemeinde"},"district":{"key":"12070","name":"Prignitz","type":"Landkreis"},"federalState":{"key":"12","name":"Brandenburg"}},{"name":"Klenzenhofer Weg","postalCode":"16928","locality":"Groß Pankow (Prignitz)","municipality":{"key":"12070125","name":"Groß Pankow (Prignitz)","type":"Kreisangehörige_Gemeinde"},"district":{"key":"12070","name":"Prignitz","type":"Landkreis"},"federalState":{"key":"12","name":"Brandenburg"}},{"name":"Koloniestr.","postalCode":"16928","locality":"Groß Pankow (Prignitz)","municipality":{"key":"12070125","name":"Groß Pankow (Prignitz)","type":"Kreisangehörige_Gemeinde"},"district":{"key":"12070","name":"Prignitz","type":"Landkreis"},"federalState":{"key":"12","name":"Brandenburg"}},{"name":"Krampfer Weg","postalCode":"16928","locality":"Groß Pankow (Prignitz)","municipality":{"key":"12070125","name":"Groß Pankow (Prignitz)","type":"Kreisangehörige_Gemeinde"},"district":{"key":"12070","name":"Prignitz","type":"Landkreis"},"federalState":{"key":"12","name":"Brandenburg"}},{"name":"Kreuzburg","postalCode":"16928","locality":"Groß Pankow (Prignitz)","municipality":{"key":"12070125","name":"Groß Pankow (Prignitz)","type":"Kreisangehörige_Gemeinde"},"district":{"key":"12070","name":"Prignitz","type":"Landkreis"},"federalState":{"key":"12","name":"Brandenburg"}},{"name":"Kronsbergweg","postalCode":"16928","locality":"Groß Pankow (Prignitz)","municipality":{"key":"12070125","name":"Groß Pankow (Prignitz)","type":"Kreisangehörige_Gemeinde"},"district":{"key":"12070","name":"Prignitz","type":"Landkreis"},"federalState":{"key":"12","name":"Brandenburg"}},{"name":"Kuhbier Ausbau","postalCode":"16928","locality":"Groß Pankow (Prignitz)","municipality":{"key":"12070125","name":"Groß Pankow (Prignitz)","type":"Kreisangehörige_Gemeinde"},"district":{"key":"12070","name":"Prignitz","type":"Landkreis"},"federalState":{"key":"12","name":"Brandenburg"}},{"name":"Kuhbierer Dorfstr.","postalCode":"16928","locality":"Groß Pankow (Prignitz)","municipality":{"key":"12070125","name":"Groß Pankow (Prignitz)","type":"Kreisangehörige_Gemeinde"},"district":{"key":"12070","name":"Prignitz","type":"Landkreis"},"federalState":{"key":"12","name":"Brandenburg"}},{"name":"Kuhsdorf","postalCode":"16928","locality":"Groß Pankow (Prignitz)","municipality":{"key":"12070125","name":"Groß Pankow (Prignitz)","type":"Kreisangehörige_Gemeinde"},"district":{"key":"12070","name":"Prignitz","type":"Landkreis"},"federalState":{"key":"12","name":"Brandenburg"}},{"name":"Kuhsdorfer Weg","postalCode":"16928","locality":"Groß Pankow (Prignitz)","municipality":{"key":"12070125","name":"Groß Pankow (Prignitz)","type":"Kreisangehörige_Gemeinde"},"district":{"key":"12070","name":"Prignitz","type":"Landkreis"},"federalState":{"key":"12","name":"Brandenburg"}},{"name":"Lenzener Str.","postalCode":"19309","locality":"Lenzerwische","municipality":{"key":"12070246","name":"Lenzerwische","type":"Kreisangehörige_Gemeinde"},"district":{"key":"12070","name":"Prignitz","type":"Landkreis"},"federalState":{"key":"12","name":"Brandenburg"}},{"name":"Mühlendamm","postalCode":"16928","locality":"Groß Pankow (Prignitz)","municipality":{"key":"12070125","name":"Groß Pankow (Prignitz)","type":"Kreisangehörige_Gemeinde"},"district":{"key":"12070","name":"Prignitz","type":"Landkreis"},"federalState":{"key":"12","name":"Brandenburg"}},{"name":"Mühlenweg","postalCode":"16928","locality":"Groß Pankow (Prignitz)","municipality":{"key":"12070125","name":"Groß Pankow (Prignitz)","type":"Kreisangehörige_Gemeinde"},"district":{"key":"12070","name":"Prignitz","type":"Landkreis"},"federalState":{"key":"12","name":"Brandenburg"}},{"name":"Neu Hohenvier","postalCode":"16928","locality":"Groß Pankow (Prignitz)","municipality":{"key":"12070125","name":"Groß Pankow (Prignitz)","type":"Kreisangehörige_Gemeinde"},"district":{"key":"12070","name":"Prignitz","type":"Landkreis"},"federalState":{"key":"12","name":"Brandenburg"}},{"name":"Neu Rohlsdorf","postalCode":"16928","locality":"Groß Pankow (Prignitz)","municipality":{"key":"12070125","name":"Groß Pankow (Prignitz)","type":"Kreisangehörige_Gemeinde"},"district":{"key":"12070","name":"Prignitz","type":"Landkreis"},"federalState":{"key":"12","name":"Brandenburg"}},{"name":"Obere Dorfstr.","postalCode":"16928","locality":"Groß Pankow (Prignitz)","municipality":{"key":"12070125","name":"Groß Pankow (Prignitz)","type":"Kreisangehörige_Gemeinde"},"district":{"key":"12070","name":"Prignitz","type":"Landkreis"},"federalState":{"key":"12","name":"Brandenburg"}},{"name":"Pappelweg","postalCode":"19309","locality":"Lenzerwische","municipality":{"key":"12070246","name":"Lenzerwische","type":"Kreisangehörige_Gemeinde"},"district":{"key":"12070","name":"Prignitz","type":"Landkreis"},"federalState":{"key":"12","name":"Brandenburg"}},{"name":"Ringstr.","postalCode":"19309","locality":"Lenzerwische","municipality":{"key":"12070246","name":"Lenzerwische","type":"Kreisangehörige_Gemeinde"},"district":{"key":"12070","name":"Prignitz","type":"Landkreis"},"federalState":{"key":"12","name":"Brandenburg"}},{"name":"Rosensdorfer Str.","postalCode":"19309","locality":"Lenzerwische","municipality":{"key":"12070246","name":"Lenzerwische","type":"Kreisangehörige_Gemeinde"},"district":{"key":"12070","name":"Prignitz","type":"Landkreis"},"federalState":{"key":"12","name":"Brandenburg"}},{"name":"Sandner Drift","postalCode":"19309","locality":"Lenzerwische","municipality":{"key":"12070246","name":"Lenzerwische","type":"Kreisangehörige_Gemeinde"},"district":{"key":"12070","name":"Prignitz","type":"Landkreis"},"federalState":{"key":"12","name":"Brandenburg"}},{"name":"Sandstr.","postalCode":"19309","locality":"Lenzerwische","municipality":{"key":"12070246","name":"Lenzerwische","type":"Kreisangehörige_Gemeinde"},"district":{"key":"12070","name":"Prignitz","type":"Landkreis"},"federalState":{"key":"12","name":"Brandenburg"}},{"name":"Tacken","postalCode":"16928","locality":"Groß Pankow (Prignitz)","municipality":{"key":"12070125","name":"Groß Pankow (Prignitz)","type":"Kreisangehörige_Gemeinde"},"district":{"key":"12070","name":"Prignitz","type":"Landkreis"},"federalState":{"key":"12","name":"Brandenburg"}},{"name":"Tangendorf Ausbau","postalCode":"16928","locality":"Groß Pankow (Prignitz)","municipality":{"key":"12070125","name":"Groß Pankow (Prignitz)","type":"Kreisangehörige_Gemeinde"},"district":{"key":"12070","name":"Prignitz","type":"Landkreis"},"federalState":{"key":"12","name":"Brandenburg"}},{"name":"Tangendorfer Hauptstr.","postalCode":"16928","locality":"Groß Pankow (Prignitz)","municipality":{"key":"12070125","name":"Groß Pankow (Prignitz)","type":"Kreisangehörige_Gemeinde"},"district":{"key":"12070","name":"Prignitz","type":"Landkreis"},"federalState":{"key":"12","name":"Brandenburg"}},{"name":"Tangendorfer Str.","postalCode":"16928","locality":"Groß Pankow (Prignitz)","municipality":{"key":"12070125","name":"Groß Pankow (Prignitz)","type":"Kreisangehörige_Gemeinde"},"district":{"key":"12070","name":"Prignitz","type":"Landkreis"},"federalState":{"key":"12","name":"Brandenburg"}},{"name":"Tüchener Hauptstr.","postalCode":"16928","locality":"Groß Pankow (Prignitz)","municipality":{"key":"12070125","name":"Groß Pankow (Prignitz)","type":"Kreisangehörige_Gemeinde"},"district":{"key":"12070","name":"Prignitz","type":"Landkreis"},"federalState":{"key":"12","name":"Brandenburg"}},{"name":"Unter den Linden","postalCode":"16928","locality":"Groß Pankow (Prignitz)","municipality":{"key":"12070125","name":"Groß Pankow (Prignitz)","type":"Kreisangehörige_Gemeinde"},"district":{"key":"12070","name":"Prignitz","type":"Landkreis"},"federalState":{"key":"12","name":"Brandenburg"}},{"name":"Vahrnower Str.","postalCode":"16928","locality":"Groß Pankow (Prignitz)","municipality":{"key":"12070125","name":"Groß Pankow (Prignitz)","type":"Kreisangehörige_Gemeinde"},"district":{"key":"12070","name":"Prignitz","type":"Landkreis"},"federalState":{"key":"12","name":"Brandenburg"}},{"name":"Vettin","postalCode":"16928","locality":"Groß Pankow (Prignitz)","municipality":{"key":"12070125","name":"Groß Pankow (Prignitz)","type":"Kreisangehörige_Gemeinde"},"district":{"key":"12070","name":"Prignitz","type":"Landkreis"},"federalState":{"key":"12","name":"Brandenburg"}},{"name":"Vettiner Str.","postalCode":"16928","locality":"Groß Pankow (Prignitz)","municipality":{"key":"12070125","name":"Groß Pankow (Prignitz)","type":"Kreisangehörige_Gemeinde"},"district":{"key":"12070","name":"Prignitz","type":"Landkreis"},"federalState":{"key":"12","name":"Brandenburg"}},{"name":"Wiesenweg","postalCode":"19309","locality":"Lenzerwische","municipality":{"key":"12070246","name":"Lenzerwische","type":"Kreisangehörige_Gemeinde"},"district":{"key":"12070","name":"Prignitz","type":"Landkreis"},"federalState":{"key":"12","name":"Brandenburg"}},]