[{"name":"Ahornweg","postalCode":"26556","locality":"Utarp","municipality":{"key":"03462016","name":"Utarp","type":"Kreisangehörige_Gemeinde"},"district":{"key":"03462","name":"Wittmund","type":"Landkreis"},"federalState":{"key":"03","name":"Niedersachsen"}},{"name":"Börgweg","postalCode":"26556","locality":"Utarp","municipality":{"key":"03462016","name":"Utarp","type":"Kreisangehörige_Gemeinde"},"district":{"key":"03462","name":"Wittmund","type":"Landkreis"},"federalState":{"key":"03","name":"Niedersachsen"}},{"name":"Carmslander Weg","postalCode":"26409","locality":"Wittmund","municipality":{"key":"03462019","name":"Wittmund, Stadt","type":"Stadt"},"district":{"key":"03462","name":"Wittmund","type":"Landkreis"},"federalState":{"key":"03","name":"Niedersachsen"}},{"name":"Carolinengroden Ost","postalCode":"26409","locality":"Wittmund","municipality":{"key":"03462019","name":"Wittmund, Stadt","type":"Stadt"},"district":{"key":"03462","name":"Wittmund","type":"Landkreis"},"federalState":{"key":"03","name":"Niedersachsen"}},{"name":"Carolinensieler Str.","postalCode":"26409","locality":"Wittmund","municipality":{"key":"03462019","name":"Wittmund, Stadt","type":"Stadt"},"district":{"key":"03462","name":"Wittmund","type":"Landkreis"},"federalState":{"key":"03","name":"Niedersachsen"}},{"name":"Caspersweg","postalCode":"26409","locality":"Wittmund","municipality":{"key":"03462019","name":"Wittmund, Stadt","type":"Stadt"},"district":{"key":"03462","name":"Wittmund","type":"Landkreis"},"federalState":{"key":"03","name":"Niedersachsen"}},{"name":"Christoffel-van-Brants-Weg","postalCode":"26409","locality":"Wittmund","municipality":{"key":"03462019","name":"Wittmund, Stadt","type":"Stadt"},"district":{"key":"03462","name":"Wittmund","type":"Landkreis"},"federalState":{"key":"03","name":"Niedersachsen"}},{"name":"Cliner Straat","postalCode":"26409","locality":"Wittmund","municipality":{"key":"03462019","name":"Wittmund, Stadt","type":"Stadt"},"district":{"key":"03462","name":"Wittmund","type":"Landkreis"},"federalState":{"key":"03","name":"Niedersachsen"}},{"name":"Collrunger Forst","postalCode":"26409","locality":"Wittmund","municipality":{"key":"03462019","name":"Wittmund, Stadt","type":"Stadt"},"district":{"key":"03462","name":"Wittmund","type":"Landkreis"},"federalState":{"key":"03","name":"Niedersachsen"}},{"name":"Collrungermoor","postalCode":"26409","locality":"Wittmund","municipality":{"key":"03462019","name":"Wittmund, Stadt","type":"Stadt"},"district":{"key":"03462","name":"Wittmund","type":"Landkreis"},"federalState":{"key":"03","name":"Niedersachsen"}},{"name":"Collrunger Str.","postalCode":"26409","locality":"Wittmund","municipality":{"key":"03462019","name":"Wittmund, Stadt","type":"Stadt"},"district":{"key":"03462","name":"Wittmund","type":"Landkreis"},"federalState":{"key":"03","name":"Niedersachsen"}},{"name":"Corneliuskamp","postalCode":"26409","locality":"Wittmund","municipality":{"key":"03462019","name":"Wittmund, Stadt","type":"Stadt"},"district":{"key":"03462","name":"Wittmund","type":"Landkreis"},"federalState":{"key":"03","name":"Niedersachsen"}},{"name":"Dorfstr.","postalCode":"26556","locality":"Utarp","municipality":{"key":"03462016","name":"Utarp","type":"Kreisangehörige_Gemeinde"},"district":{"key":"03462","name":"Wittmund","type":"Landkreis"},"federalState":{"key":"03","name":"Niedersachsen"}},{"name":"Drosselweg","postalCode":"26556","locality":"Utarp","municipality":{"key":"03462016","name":"Utarp","type":"Kreisangehörige_Gemeinde"},"district":{"key":"03462","name":"Wittmund","type":"Landkreis"},"federalState":{"key":"03","name":"Niedersachsen"}},{"name":"Esenser Str.","postalCode":"26556","locality":"Utarp","municipality":{"key":"03462016","name":"Utarp","type":"Kreisangehörige_Gemeinde"},"district":{"key":"03462","name":"Wittmund","type":"Landkreis"},"federalState":{"key":"03","name":"Niedersachsen"}},{"name":"Fliederweg","postalCode":"26556","locality":"Utarp","municipality":{"key":"03462016","name":"Utarp","type":"Kreisangehörige_Gemeinde"},"district":{"key":"03462","name":"Wittmund","type":"Landkreis"},"federalState":{"key":"03","name":"Niedersachsen"}},{"name":"Goldensteinsweg","postalCode":"26556","locality":"Utarp","municipality":{"key":"03462016","name":"Utarp","type":"Kreisangehörige_Gemeinde"},"district":{"key":"03462","name":"Wittmund","type":"Landkreis"},"federalState":{"key":"03","name":"Niedersachsen"}},{"name":"Grüner Weg","postalCode":"26556","locality":"Utarp","municipality":{"key":"03462016","name":"Utarp","type":"Kreisangehörige_Gemeinde"},"district":{"key":"03462","name":"Wittmund","type":"Landkreis"},"federalState":{"key":"03","name":"Niedersachsen"}},{"name":"Hartjesweg","postalCode":"26556","locality":"Utarp","municipality":{"key":"03462016","name":"Utarp","type":"Kreisangehörige_Gemeinde"},"district":{"key":"03462","name":"Wittmund","type":"Landkreis"},"federalState":{"key":"03","name":"Niedersachsen"}},{"name":"Hermann-Heeren-Weg","postalCode":"26556","locality":"Utarp","municipality":{"key":"03462016","name":"Utarp","type":"Kreisangehörige_Gemeinde"},"district":{"key":"03462","name":"Wittmund","type":"Landkreis"},"federalState":{"key":"03","name":"Niedersachsen"}},{"name":"Iskenweg","postalCode":"26556","locality":"Utarp","municipality":{"key":"03462016","name":"Utarp","type":"Kreisangehörige_Gemeinde"},"district":{"key":"03462","name":"Wittmund","type":"Landkreis"},"federalState":{"key":"03","name":"Niedersachsen"}},{"name":"Jackstede","postalCode":"26409","locality":"Wittmund","municipality":{"key":"03462019","name":"Wittmund, Stadt","type":"Stadt"},"district":{"key":"03462","name":"Wittmund","type":"Landkreis"},"federalState":{"key":"03","name":"Niedersachsen"}},{"name":"Jacksteder Weg","postalCode":"26409","locality":"Wittmund","municipality":{"key":"03462019","name":"Wittmund, Stadt","type":"Stadt"},"district":{"key":"03462","name":"Wittmund","type":"Landkreis"},"federalState":{"key":"03","name":"Niedersachsen"}},{"name":"Jadestr.","postalCode":"26409","locality":"Wittmund","municipality":{"key":"03462019","name":"Wittmund, Stadt","type":"Stadt"},"district":{"key":"03462","name":"Wittmund","type":"Landkreis"},"federalState":{"key":"03","name":"Niedersachsen"}},{"name":"Jahnstr.","postalCode":"26409","locality":"Wittmund","municipality":{"key":"03462019","name":"Wittmund, Stadt","type":"Stadt"},"district":{"key":"03462","name":"Wittmund","type":"Landkreis"},"federalState":{"key":"03","name":"Niedersachsen"}},{"name":"Jann-Berghaus-Str.","postalCode":"26409","locality":"Wittmund","municipality":{"key":"03462019","name":"Wittmund, Stadt","type":"Stadt"},"district":{"key":"03462","name":"Wittmund","type":"Landkreis"},"federalState":{"key":"03","name":"Niedersachsen"}},{"name":"Jeverstr.","postalCode":"26409","locality":"Wittmund","municipality":{"key":"03462019","name":"Wittmund, Stadt","type":"Stadt"},"district":{"key":"03462","name":"Wittmund","type":"Landkreis"},"federalState":{"key":"03","name":"Niedersachsen"}},{"name":"Juiststr.","postalCode":"26409","locality":"Wittmund","municipality":{"key":"03462019","name":"Wittmund, Stadt","type":"Stadt"},"district":{"key":"03462","name":"Wittmund","type":"Landkreis"},"federalState":{"key":"03","name":"Niedersachsen"}},{"name":"Kämmerer-Fremy-Str.","postalCode":"26409","locality":"Wittmund","municipality":{"key":"03462019","name":"Wittmund, Stadt","type":"Stadt"},"district":{"key":"03462","name":"Wittmund","type":"Landkreis"},"federalState":{"key":"03","name":"Niedersachsen"}},{"name":"Kampstr.","postalCode":"26409","locality":"Wittmund","municipality":{"key":"03462019","name":"Wittmund, Stadt","type":"Stadt"},"district":{"key":"03462","name":"Wittmund","type":"Landkreis"},"federalState":{"key":"03","name":"Niedersachsen"}},{"name":"Kankenastr.","postalCode":"26409","locality":"Wittmund","municipality":{"key":"03462019","name":"Wittmund, Stadt","type":"Stadt"},"district":{"key":"03462","name":"Wittmund","type":"Landkreis"},"federalState":{"key":"03","name":"Niedersachsen"}},{"name":"Karl-Bösch-Platz","postalCode":"26409","locality":"Wittmund","municipality":{"key":"03462019","name":"Wittmund, Stadt","type":"Stadt"},"district":{"key":"03462","name":"Wittmund","type":"Landkreis"},"federalState":{"key":"03","name":"Niedersachsen"}},{"name":"Karl-Schaaf-Weg","postalCode":"26409","locality":"Wittmund","municipality":{"key":"03462019","name":"Wittmund, Stadt","type":"Stadt"},"district":{"key":"03462","name":"Wittmund","type":"Landkreis"},"federalState":{"key":"03","name":"Niedersachsen"}},{"name":"Kattrepel","postalCode":"26409","locality":"Wittmund","municipality":{"key":"03462019","name":"Wittmund, Stadt","type":"Stadt"},"district":{"key":"03462","name":"Wittmund","type":"Landkreis"},"federalState":{"key":"03","name":"Niedersachsen"}},{"name":"Kattrepeldiek","postalCode":"26409","locality":"Wittmund","municipality":{"key":"03462019","name":"Wittmund, Stadt","type":"Stadt"},"district":{"key":"03462","name":"Wittmund","type":"Landkreis"},"federalState":{"key":"03","name":"Niedersachsen"}},{"name":"Keno-Tom-Brook-Str.","postalCode":"26409","locality":"Wittmund","municipality":{"key":"03462019","name":"Wittmund, Stadt","type":"Stadt"},"district":{"key":"03462","name":"Wittmund","type":"Landkreis"},"federalState":{"key":"03","name":"Niedersachsen"}},{"name":"Kiefernstr.","postalCode":"26409","locality":"Wittmund","municipality":{"key":"03462019","name":"Wittmund, Stadt","type":"Stadt"},"district":{"key":"03462","name":"Wittmund","type":"Landkreis"},"federalState":{"key":"03","name":"Niedersachsen"}},{"name":"Kielsgang","postalCode":"26409","locality":"Wittmund","municipality":{"key":"03462019","name":"Wittmund, Stadt","type":"Stadt"},"district":{"key":"03462","name":"Wittmund","type":"Landkreis"},"federalState":{"key":"03","name":"Niedersachsen"}},{"name":"Kippenser Weg","postalCode":"26409","locality":"Wittmund","municipality":{"key":"03462019","name":"Wittmund, Stadt","type":"Stadt"},"district":{"key":"03462","name":"Wittmund","type":"Landkreis"},"federalState":{"key":"03","name":"Niedersachsen"}},{"name":"Kirchpfad","postalCode":"26409","locality":"Wittmund","municipality":{"key":"03462019","name":"Wittmund, Stadt","type":"Stadt"},"district":{"key":"03462","name":"Wittmund","type":"Landkreis"},"federalState":{"key":"03","name":"Niedersachsen"}},{"name":"Kirchplatz","postalCode":"26409","locality":"Wittmund","municipality":{"key":"03462019","name":"Wittmund, Stadt","type":"Stadt"},"district":{"key":"03462","name":"Wittmund","type":"Landkreis"},"federalState":{"key":"03","name":"Niedersachsen"}},{"name":"Kirchreihe","postalCode":"26409","locality":"Wittmund","municipality":{"key":"03462019","name":"Wittmund, Stadt","type":"Stadt"},"district":{"key":"03462","name":"Wittmund","type":"Landkreis"},"federalState":{"key":"03","name":"Niedersachsen"}},{"name":"Kirchstr.","postalCode":"26409","locality":"Wittmund","municipality":{"key":"03462019","name":"Wittmund, Stadt","type":"Stadt"},"district":{"key":"03462","name":"Wittmund","type":"Landkreis"},"federalState":{"key":"03","name":"Niedersachsen"}},{"name":"Kirchweg","postalCode":"26409","locality":"Wittmund","municipality":{"key":"03462019","name":"Wittmund, Stadt","type":"Stadt"},"district":{"key":"03462","name":"Wittmund","type":"Landkreis"},"federalState":{"key":"03","name":"Niedersachsen"}},{"name":"Kirmeer","postalCode":"26409","locality":"Wittmund","municipality":{"key":"03462019","name":"Wittmund, Stadt","type":"Stadt"},"district":{"key":"03462","name":"Wittmund","type":"Landkreis"},"federalState":{"key":"03","name":"Niedersachsen"}},{"name":"Kirmeerstr.","postalCode":"26409","locality":"Wittmund","municipality":{"key":"03462019","name":"Wittmund, Stadt","type":"Stadt"},"district":{"key":"03462","name":"Wittmund","type":"Landkreis"},"federalState":{"key":"03","name":"Niedersachsen"}},{"name":"Kirschbaumweg","postalCode":"26409","locality":"Wittmund","municipality":{"key":"03462019","name":"Wittmund, Stadt","type":"Stadt"},"district":{"key":"03462","name":"Wittmund","type":"Landkreis"},"federalState":{"key":"03","name":"Niedersachsen"}},{"name":"Klein Charlottengroden","postalCode":"26409","locality":"Wittmund","municipality":{"key":"03462019","name":"Wittmund, Stadt","type":"Stadt"},"district":{"key":"03462","name":"Wittmund","type":"Landkreis"},"federalState":{"key":"03","name":"Niedersachsen"}},{"name":"Kleiner Dobbenweg","postalCode":"26409","locality":"Wittmund","municipality":{"key":"03462019","name":"Wittmund, Stadt","type":"Stadt"},"district":{"key":"03462","name":"Wittmund","type":"Landkreis"},"federalState":{"key":"03","name":"Niedersachsen"}},{"name":"Klein Warfen","postalCode":"26409","locality":"Wittmund","municipality":{"key":"03462019","name":"Wittmund, Stadt","type":"Stadt"},"district":{"key":"03462","name":"Wittmund","type":"Landkreis"},"federalState":{"key":"03","name":"Niedersachsen"}},{"name":"Kliemoorweg","postalCode":"26409","locality":"Wittmund","municipality":{"key":"03462019","name":"Wittmund, Stadt","type":"Stadt"},"district":{"key":"03462","name":"Wittmund","type":"Landkreis"},"federalState":{"key":"03","name":"Niedersachsen"}},{"name":"Klinge","postalCode":"26409","locality":"Wittmund","municipality":{"key":"03462019","name":"Wittmund, Stadt","type":"Stadt"},"district":{"key":"03462","name":"Wittmund","type":"Landkreis"},"federalState":{"key":"03","name":"Niedersachsen"}},{"name":"Klosterstr.","postalCode":"26409","locality":"Wittmund","municipality":{"key":"03462019","name":"Wittmund, Stadt","type":"Stadt"},"district":{"key":"03462","name":"Wittmund","type":"Landkreis"},"federalState":{"key":"03","name":"Niedersachsen"}},{"name":"Klunnerbarger Weg","postalCode":"26409","locality":"Wittmund","municipality":{"key":"03462019","name":"Wittmund, Stadt","type":"Stadt"},"district":{"key":"03462","name":"Wittmund","type":"Landkreis"},"federalState":{"key":"03","name":"Niedersachsen"}},{"name":"Klusforderstr.","postalCode":"26409","locality":"Wittmund","municipality":{"key":"03462019","name":"Wittmund, Stadt","type":"Stadt"},"district":{"key":"03462","name":"Wittmund","type":"Landkreis"},"federalState":{"key":"03","name":"Niedersachsen"}},{"name":"Kniphauserwald","postalCode":"26409","locality":"Wittmund","municipality":{"key":"03462019","name":"Wittmund, Stadt","type":"Stadt"},"district":{"key":"03462","name":"Wittmund","type":"Landkreis"},"federalState":{"key":"03","name":"Niedersachsen"}},{"name":"Knochenburgstr.","postalCode":"26409","locality":"Wittmund","municipality":{"key":"03462019","name":"Wittmund, Stadt","type":"Stadt"},"district":{"key":"03462","name":"Wittmund","type":"Landkreis"},"federalState":{"key":"03","name":"Niedersachsen"}},{"name":"Kohbrügg","postalCode":"26409","locality":"Wittmund","municipality":{"key":"03462019","name":"Wittmund, Stadt","type":"Stadt"},"district":{"key":"03462","name":"Wittmund","type":"Landkreis"},"federalState":{"key":"03","name":"Niedersachsen"}},{"name":"Kohpad","postalCode":"26409","locality":"Wittmund","municipality":{"key":"03462019","name":"Wittmund, Stadt","type":"Stadt"},"district":{"key":"03462","name":"Wittmund","type":"Landkreis"},"federalState":{"key":"03","name":"Niedersachsen"}},{"name":"Kolberger Str.","postalCode":"26409","locality":"Wittmund","municipality":{"key":"03462019","name":"Wittmund, Stadt","type":"Stadt"},"district":{"key":"03462","name":"Wittmund","type":"Landkreis"},"federalState":{"key":"03","name":"Niedersachsen"}},{"name":"Kolkweg","postalCode":"26409","locality":"Wittmund","municipality":{"key":"03462019","name":"Wittmund, Stadt","type":"Stadt"},"district":{"key":"03462","name":"Wittmund","type":"Landkreis"},"federalState":{"key":"03","name":"Niedersachsen"}},{"name":"Kollhörn","postalCode":"26409","locality":"Wittmund","municipality":{"key":"03462019","name":"Wittmund, Stadt","type":"Stadt"},"district":{"key":"03462","name":"Wittmund","type":"Landkreis"},"federalState":{"key":"03","name":"Niedersachsen"}},{"name":"Königsberger Str.","postalCode":"26409","locality":"Wittmund","municipality":{"key":"03462019","name":"Wittmund, Stadt","type":"Stadt"},"district":{"key":"03462","name":"Wittmund","type":"Landkreis"},"federalState":{"key":"03","name":"Niedersachsen"}},{"name":"Köterriege","postalCode":"26409","locality":"Wittmund","municipality":{"key":"03462019","name":"Wittmund, Stadt","type":"Stadt"},"district":{"key":"03462","name":"Wittmund","type":"Landkreis"},"federalState":{"key":"03","name":"Niedersachsen"}},{"name":"Krabbenpadd","postalCode":"26409","locality":"Wittmund","municipality":{"key":"03462019","name":"Wittmund, Stadt","type":"Stadt"},"district":{"key":"03462","name":"Wittmund","type":"Landkreis"},"federalState":{"key":"03","name":"Niedersachsen"}},{"name":"Kreyenburg","postalCode":"26409","locality":"Wittmund","municipality":{"key":"03462019","name":"Wittmund, Stadt","type":"Stadt"},"district":{"key":"03462","name":"Wittmund","type":"Landkreis"},"federalState":{"key":"03","name":"Niedersachsen"}},{"name":"Krugweg","postalCode":"26409","locality":"Wittmund","municipality":{"key":"03462019","name":"Wittmund, Stadt","type":"Stadt"},"district":{"key":"03462","name":"Wittmund","type":"Landkreis"},"federalState":{"key":"03","name":"Niedersachsen"}},{"name":"Küferstr.","postalCode":"26409","locality":"Wittmund","municipality":{"key":"03462019","name":"Wittmund, Stadt","type":"Stadt"},"district":{"key":"03462","name":"Wittmund","type":"Landkreis"},"federalState":{"key":"03","name":"Niedersachsen"}},{"name":"Kutterweg","postalCode":"26409","locality":"Wittmund","municipality":{"key":"03462019","name":"Wittmund, Stadt","type":"Stadt"},"district":{"key":"03462","name":"Wittmund","type":"Landkreis"},"federalState":{"key":"03","name":"Niedersachsen"}},{"name":"Lange-Land","postalCode":"26409","locality":"Wittmund","municipality":{"key":"03462019","name":"Wittmund, Stadt","type":"Stadt"},"district":{"key":"03462","name":"Wittmund","type":"Landkreis"},"federalState":{"key":"03","name":"Niedersachsen"}},{"name":"Langeoogstr.","postalCode":"26409","locality":"Wittmund","municipality":{"key":"03462019","name":"Wittmund, Stadt","type":"Stadt"},"district":{"key":"03462","name":"Wittmund","type":"Landkreis"},"federalState":{"key":"03","name":"Niedersachsen"}},{"name":"Langer Dobbenweg","postalCode":"26409","locality":"Wittmund","municipality":{"key":"03462019","name":"Wittmund, Stadt","type":"Stadt"},"district":{"key":"03462","name":"Wittmund","type":"Landkreis"},"federalState":{"key":"03","name":"Niedersachsen"}},{"name":"Ledastr.","postalCode":"26409","locality":"Wittmund","municipality":{"key":"03462019","name":"Wittmund, Stadt","type":"Stadt"},"district":{"key":"03462","name":"Wittmund","type":"Landkreis"},"federalState":{"key":"03","name":"Niedersachsen"}},{"name":"Leegewarf","postalCode":"26409","locality":"Wittmund","municipality":{"key":"03462019","name":"Wittmund, Stadt","type":"Stadt"},"district":{"key":"03462","name":"Wittmund","type":"Landkreis"},"federalState":{"key":"03","name":"Niedersachsen"}},{"name":"Leegkamp","postalCode":"26409","locality":"Wittmund","municipality":{"key":"03462019","name":"Wittmund, Stadt","type":"Stadt"},"district":{"key":"03462","name":"Wittmund","type":"Landkreis"},"federalState":{"key":"03","name":"Niedersachsen"}},{"name":"Leepenser Weg","postalCode":"26409","locality":"Wittmund","municipality":{"key":"03462019","name":"Wittmund, Stadt","type":"Stadt"},"district":{"key":"03462","name":"Wittmund","type":"Landkreis"},"federalState":{"key":"03","name":"Niedersachsen"}},{"name":"Leerer Str.","postalCode":"26409","locality":"Wittmund","municipality":{"key":"03462019","name":"Wittmund, Stadt","type":"Stadt"},"district":{"key":"03462","name":"Wittmund","type":"Landkreis"},"federalState":{"key":"03","name":"Niedersachsen"}},{"name":"Leerhaferfeld","postalCode":"26409","locality":"Wittmund","municipality":{"key":"03462019","name":"Wittmund, Stadt","type":"Stadt"},"district":{"key":"03462","name":"Wittmund","type":"Landkreis"},"federalState":{"key":"03","name":"Niedersachsen"}},{"name":"Leerhafer Geest","postalCode":"26409","locality":"Wittmund","municipality":{"key":"03462019","name":"Wittmund, Stadt","type":"Stadt"},"district":{"key":"03462","name":"Wittmund","type":"Landkreis"},"federalState":{"key":"03","name":"Niedersachsen"}},{"name":"Leerhafer Str.","postalCode":"26409","locality":"Wittmund","municipality":{"key":"03462019","name":"Wittmund, Stadt","type":"Stadt"},"district":{"key":"03462","name":"Wittmund","type":"Landkreis"},"federalState":{"key":"03","name":"Niedersachsen"}},{"name":"Lehe","postalCode":"26409","locality":"Wittmund","municipality":{"key":"03462019","name":"Wittmund, Stadt","type":"Stadt"},"district":{"key":"03462","name":"Wittmund","type":"Landkreis"},"federalState":{"key":"03","name":"Niedersachsen"}},{"name":"Lehmkuhlenweg","postalCode":"26409","locality":"Wittmund","municipality":{"key":"03462019","name":"Wittmund, Stadt","type":"Stadt"},"district":{"key":"03462","name":"Wittmund","type":"Landkreis"},"federalState":{"key":"03","name":"Niedersachsen"}},{"name":"Lerchenweg","postalCode":"26409","locality":"Wittmund","municipality":{"key":"03462019","name":"Wittmund, Stadt","type":"Stadt"},"district":{"key":"03462","name":"Wittmund","type":"Landkreis"},"federalState":{"key":"03","name":"Niedersachsen"}},{"name":"Lessingstr.","postalCode":"26409","locality":"Wittmund","municipality":{"key":"03462019","name":"Wittmund, Stadt","type":"Stadt"},"district":{"key":"03462","name":"Wittmund","type":"Landkreis"},"federalState":{"key":"03","name":"Niedersachsen"}},{"name":"Lilienweg","postalCode":"26409","locality":"Wittmund","municipality":{"key":"03462019","name":"Wittmund, Stadt","type":"Stadt"},"district":{"key":"03462","name":"Wittmund","type":"Landkreis"},"federalState":{"key":"03","name":"Niedersachsen"}},{"name":"Lindenstr.","postalCode":"26409","locality":"Wittmund","municipality":{"key":"03462019","name":"Wittmund, Stadt","type":"Stadt"},"district":{"key":"03462","name":"Wittmund","type":"Landkreis"},"federalState":{"key":"03","name":"Niedersachsen"}},{"name":"Lisztweg","postalCode":"26409","locality":"Wittmund","municipality":{"key":"03462019","name":"Wittmund, Stadt","type":"Stadt"},"district":{"key":"03462","name":"Wittmund","type":"Landkreis"},"federalState":{"key":"03","name":"Niedersachsen"}},{"name":"Lortzingweg","postalCode":"26409","locality":"Wittmund","municipality":{"key":"03462019","name":"Wittmund, Stadt","type":"Stadt"},"district":{"key":"03462","name":"Wittmund","type":"Landkreis"},"federalState":{"key":"03","name":"Niedersachsen"}},{"name":"Ludwig-Franzius-Str.","postalCode":"26409","locality":"Wittmund","municipality":{"key":"03462019","name":"Wittmund, Stadt","type":"Stadt"},"district":{"key":"03462","name":"Wittmund","type":"Landkreis"},"federalState":{"key":"03","name":"Niedersachsen"}},{"name":"Mühlenweg","postalCode":"26556","locality":"Utarp","municipality":{"key":"03462016","name":"Utarp","type":"Kreisangehörige_Gemeinde"},"district":{"key":"03462","name":"Wittmund","type":"Landkreis"},"federalState":{"key":"03","name":"Niedersachsen"}},{"name":"Narper Str.","postalCode":"26556","locality":"Utarp","municipality":{"key":"03462016","name":"Utarp","type":"Kreisangehörige_Gemeinde"},"district":{"key":"03462","name":"Wittmund","type":"Landkreis"},"federalState":{"key":"03","name":"Niedersachsen"}},{"name":"Nordenlandsweg","postalCode":"26556","locality":"Utarp","municipality":{"key":"03462016","name":"Utarp","type":"Kreisangehörige_Gemeinde"},"district":{"key":"03462","name":"Wittmund","type":"Landkreis"},"federalState":{"key":"03","name":"Niedersachsen"}},{"name":"Osterhammer Weg","postalCode":"26556","locality":"Utarp","municipality":{"key":"03462016","name":"Utarp","type":"Kreisangehörige_Gemeinde"},"district":{"key":"03462","name":"Wittmund","type":"Landkreis"},"federalState":{"key":"03","name":"Niedersachsen"}},{"name":"Paddelweg","postalCode":"26409","locality":"Wittmund","municipality":{"key":"03462019","name":"Wittmund, Stadt","type":"Stadt"},"district":{"key":"03462","name":"Wittmund","type":"Landkreis"},"federalState":{"key":"03","name":"Niedersachsen"}},{"name":"Pastor-Hoffmann-Str.","postalCode":"26409","locality":"Wittmund","municipality":{"key":"03462019","name":"Wittmund, Stadt","type":"Stadt"},"district":{"key":"03462","name":"Wittmund","type":"Landkreis"},"federalState":{"key":"03","name":"Niedersachsen"}},{"name":"Pellwormstr.","postalCode":"26409","locality":"Wittmund","municipality":{"key":"03462019","name":"Wittmund, Stadt","type":"Stadt"},"district":{"key":"03462","name":"Wittmund","type":"Landkreis"},"federalState":{"key":"03","name":"Niedersachsen"}},{"name":"Peter-Wilhelm-Johannsen-Str.","postalCode":"26409","locality":"Wittmund","municipality":{"key":"03462019","name":"Wittmund, Stadt","type":"Stadt"},"district":{"key":"03462","name":"Wittmund","type":"Landkreis"},"federalState":{"key":"03","name":"Niedersachsen"}},{"name":"Pfahldeich","postalCode":"26409","locality":"Wittmund","municipality":{"key":"03462019","name":"Wittmund, Stadt","type":"Stadt"},"district":{"key":"03462","name":"Wittmund","type":"Landkreis"},"federalState":{"key":"03","name":"Niedersachsen"}},{"name":"Poggenfehner Str.","postalCode":"26409","locality":"Wittmund","municipality":{"key":"03462019","name":"Wittmund, Stadt","type":"Stadt"},"district":{"key":"03462","name":"Wittmund","type":"Landkreis"},"federalState":{"key":"03","name":"Niedersachsen"}},{"name":"Poggenkrug","postalCode":"26409","locality":"Wittmund","municipality":{"key":"03462019","name":"Wittmund, Stadt","type":"Stadt"},"district":{"key":"03462","name":"Wittmund","type":"Landkreis"},"federalState":{"key":"03","name":"Niedersachsen"}},{"name":"Pollerweg","postalCode":"26409","locality":"Wittmund","municipality":{"key":"03462019","name":"Wittmund, Stadt","type":"Stadt"},"district":{"key":"03462","name":"Wittmund","type":"Landkreis"},"federalState":{"key":"03","name":"Niedersachsen"}},{"name":"Poolweg","postalCode":"26409","locality":"Wittmund","municipality":{"key":"03462019","name":"Wittmund, Stadt","type":"Stadt"},"district":{"key":"03462","name":"Wittmund","type":"Landkreis"},"federalState":{"key":"03","name":"Niedersachsen"}},{"name":"Poststr.","postalCode":"26409","locality":"Wittmund","municipality":{"key":"03462019","name":"Wittmund, Stadt","type":"Stadt"},"district":{"key":"03462","name":"Wittmund","type":"Landkreis"},"federalState":{"key":"03","name":"Niedersachsen"}},{"name":"Pumperhörner Weg","postalCode":"26409","locality":"Wittmund","municipality":{"key":"03462019","name":"Wittmund, Stadt","type":"Stadt"},"district":{"key":"03462","name":"Wittmund","type":"Landkreis"},"federalState":{"key":"03","name":"Niedersachsen"}},{"name":"Pumphusen","postalCode":"26409","locality":"Wittmund","municipality":{"key":"03462019","name":"Wittmund, Stadt","type":"Stadt"},"district":{"key":"03462","name":"Wittmund","type":"Landkreis"},"federalState":{"key":"03","name":"Niedersachsen"}},{"name":"Roggenstedter Weg","postalCode":"26556","locality":"Utarp","municipality":{"key":"03462016","name":"Utarp","type":"Kreisangehörige_Gemeinde"},"district":{"key":"03462","name":"Wittmund","type":"Landkreis"},"federalState":{"key":"03","name":"Niedersachsen"}},{"name":"Rosenweg","postalCode":"26556","locality":"Utarp","municipality":{"key":"03462016","name":"Utarp","type":"Kreisangehörige_Gemeinde"},"district":{"key":"03462","name":"Wittmund","type":"Landkreis"},"federalState":{"key":"03","name":"Niedersachsen"}},{"name":"Siedlerweg","postalCode":"26556","locality":"Utarp","municipality":{"key":"03462016","name":"Utarp","type":"Kreisangehörige_Gemeinde"},"district":{"key":"03462","name":"Wittmund","type":"Landkreis"},"federalState":{"key":"03","name":"Niedersachsen"}},{"name":"Tranendweg","postalCode":"26556","locality":"Utarp","municipality":{"key":"03462016","name":"Utarp","type":"Kreisangehörige_Gemeinde"},"district":{"key":"03462","name":"Wittmund","type":"Landkreis"},"federalState":{"key":"03","name":"Niedersachsen"}},{"name":"Utarper Str.","postalCode":"26556","locality":"Utarp","municipality":{"key":"03462016","name":"Utarp","type":"Kreisangehörige_Gemeinde"},"district":{"key":"03462","name":"Wittmund","type":"Landkreis"},"federalState":{"key":"03","name":"Niedersachsen"}},{"name":"Veilchenweg","postalCode":"26409","locality":"Wittmund","municipality":{"key":"03462019","name":"Wittmund, Stadt","type":"Stadt"},"district":{"key":"03462","name":"Wittmund","type":"Landkreis"},"federalState":{"key":"03","name":"Niedersachsen"}},{"name":"Virchowstr.","postalCode":"26409","locality":"Wittmund","municipality":{"key":"03462019","name":"Wittmund, Stadt","type":"Stadt"},"district":{"key":"03462","name":"Wittmund","type":"Landkreis"},"federalState":{"key":"03","name":"Niedersachsen"}},{"name":"Visbeckstr.","postalCode":"26409","locality":"Wittmund","municipality":{"key":"03462019","name":"Wittmund, Stadt","type":"Stadt"},"district":{"key":"03462","name":"Wittmund","type":"Landkreis"},"federalState":{"key":"03","name":"Niedersachsen"}},{"name":"Von-Röntgen-Str.","postalCode":"26409","locality":"Wittmund","municipality":{"key":"03462019","name":"Wittmund, Stadt","type":"Stadt"},"district":{"key":"03462","name":"Wittmund","type":"Landkreis"},"federalState":{"key":"03","name":"Niedersachsen"}},{"name":"Werdenweg","postalCode":"26556","locality":"Utarp","municipality":{"key":"03462016","name":"Utarp","type":"Kreisangehörige_Gemeinde"},"district":{"key":"03462","name":"Wittmund","type":"Landkreis"},"federalState":{"key":"03","name":"Niedersachsen"}},{"name":"Westerhammer","postalCode":"26556","locality":"Utarp","municipality":{"key":"03462016","name":"Utarp","type":"Kreisangehörige_Gemeinde"},"district":{"key":"03462","name":"Wittmund","type":"Landkreis"},"federalState":{"key":"03","name":"Niedersachsen"}},{"name":"Ziegeleiweg","postalCode":"26556","locality":"Utarp","municipality":{"key":"03462016","name":"Utarp","type":"Kreisangehörige_Gemeinde"},"district":{"key":"03462","name":"Wittmund","type":"Landkreis"},"federalState":{"key":"03","name":"Niedersachsen"}},{"name":"Ülkegatt","postalCode":"26409","locality":"Wittmund","municipality":{"key":"03462019","name":"Wittmund, Stadt","type":"Stadt"},"district":{"key":"03462","name":"Wittmund","type":"Landkreis"},"federalState":{"key":"03","name":"Niedersachsen"}},]