[{"name":"Altrichstr.","postalCode":"54518","locality":"Osann-Monzel","municipality":{"key":"07231103","name":"Osann-Monzel","type":"Kreisangehörige_Gemeinde"},"district":{"key":"07231","name":"Bernkastel-Wittlich","type":"Landkreis"},"federalState":{"key":"07","name":"Rheinland-Pfalz"}},{"name":"Am Klausenweiher","postalCode":"54518","locality":"Osann-Monzel","municipality":{"key":"07231103","name":"Osann-Monzel","type":"Kreisangehörige_Gemeinde"},"district":{"key":"07231","name":"Bernkastel-Wittlich","type":"Landkreis"},"federalState":{"key":"07","name":"Rheinland-Pfalz"}},{"name":"Am Oestelbach","postalCode":"54518","locality":"Osann-Monzel","municipality":{"key":"07231103","name":"Osann-Monzel","type":"Kreisangehörige_Gemeinde"},"district":{"key":"07231","name":"Bernkastel-Wittlich","type":"Landkreis"},"federalState":{"key":"07","name":"Rheinland-Pfalz"}},{"name":"Am Rosenberg","postalCode":"54518","locality":"Osann-Monzel","municipality":{"key":"07231103","name":"Osann-Monzel","type":"Kreisangehörige_Gemeinde"},"district":{"key":"07231","name":"Bernkastel-Wittlich","type":"Landkreis"},"federalState":{"key":"07","name":"Rheinland-Pfalz"}},{"name":"Bernkasteler Str.","postalCode":"54518","locality":"Osann-Monzel","municipality":{"key":"07231103","name":"Osann-Monzel","type":"Kreisangehörige_Gemeinde"},"district":{"key":"07231","name":"Bernkastel-Wittlich","type":"Landkreis"},"federalState":{"key":"07","name":"Rheinland-Pfalz"}},{"name":"Brunnenstr.","postalCode":"54518","locality":"Osann-Monzel","municipality":{"key":"07231103","name":"Osann-Monzel","type":"Kreisangehörige_Gemeinde"},"district":{"key":"07231","name":"Bernkastel-Wittlich","type":"Landkreis"},"federalState":{"key":"07","name":"Rheinland-Pfalz"}},{"name":"Forstweg","postalCode":"54518","locality":"Osann-Monzel","municipality":{"key":"07231103","name":"Osann-Monzel","type":"Kreisangehörige_Gemeinde"},"district":{"key":"07231","name":"Bernkastel-Wittlich","type":"Landkreis"},"federalState":{"key":"07","name":"Rheinland-Pfalz"}},{"name":"Gartenstr.","postalCode":"54518","locality":"Osann-Monzel","municipality":{"key":"07231103","name":"Osann-Monzel","type":"Kreisangehörige_Gemeinde"},"district":{"key":"07231","name":"Bernkastel-Wittlich","type":"Landkreis"},"federalState":{"key":"07","name":"Rheinland-Pfalz"}},{"name":"Grabenstr.","postalCode":"54518","locality":"Osann-Monzel","municipality":{"key":"07231103","name":"Osann-Monzel","type":"Kreisangehörige_Gemeinde"},"district":{"key":"07231","name":"Bernkastel-Wittlich","type":"Landkreis"},"federalState":{"key":"07","name":"Rheinland-Pfalz"}},{"name":"Hofstr.","postalCode":"54518","locality":"Osann-Monzel","municipality":{"key":"07231103","name":"Osann-Monzel","type":"Kreisangehörige_Gemeinde"},"district":{"key":"07231","name":"Bernkastel-Wittlich","type":"Landkreis"},"federalState":{"key":"07","name":"Rheinland-Pfalz"}},{"name":"Hüttenkopfstr.","postalCode":"54518","locality":"Osann-Monzel","municipality":{"key":"07231103","name":"Osann-Monzel","type":"Kreisangehörige_Gemeinde"},"district":{"key":"07231","name":"Bernkastel-Wittlich","type":"Landkreis"},"federalState":{"key":"07","name":"Rheinland-Pfalz"}},{"name":"Im Eichflur","postalCode":"54518","locality":"Osann-Monzel","municipality":{"key":"07231103","name":"Osann-Monzel","type":"Kreisangehörige_Gemeinde"},"district":{"key":"07231","name":"Bernkastel-Wittlich","type":"Landkreis"},"federalState":{"key":"07","name":"Rheinland-Pfalz"}},{"name":"Im Lehen","postalCode":"54518","locality":"Osann-Monzel","municipality":{"key":"07231103","name":"Osann-Monzel","type":"Kreisangehörige_Gemeinde"},"district":{"key":"07231","name":"Bernkastel-Wittlich","type":"Landkreis"},"federalState":{"key":"07","name":"Rheinland-Pfalz"}},{"name":"Kirchgasse","postalCode":"54518","locality":"Osann-Monzel","municipality":{"key":"07231103","name":"Osann-Monzel","type":"Kreisangehörige_Gemeinde"},"district":{"key":"07231","name":"Bernkastel-Wittlich","type":"Landkreis"},"federalState":{"key":"07","name":"Rheinland-Pfalz"}},{"name":"Kriesweg","postalCode":"54518","locality":"Osann-Monzel","municipality":{"key":"07231103","name":"Osann-Monzel","type":"Kreisangehörige_Gemeinde"},"district":{"key":"07231","name":"Bernkastel-Wittlich","type":"Landkreis"},"federalState":{"key":"07","name":"Rheinland-Pfalz"}},{"name":"Mehrgenerationenpark","postalCode":"54518","locality":"Osann-Monzel","municipality":{"key":"07231103","name":"Osann-Monzel","type":"Kreisangehörige_Gemeinde"},"district":{"key":"07231","name":"Bernkastel-Wittlich","type":"Landkreis"},"federalState":{"key":"07","name":"Rheinland-Pfalz"}},{"name":"Mittelweg","postalCode":"54518","locality":"Osann-Monzel","municipality":{"key":"07231103","name":"Osann-Monzel","type":"Kreisangehörige_Gemeinde"},"district":{"key":"07231","name":"Bernkastel-Wittlich","type":"Landkreis"},"federalState":{"key":"07","name":"Rheinland-Pfalz"}},{"name":"Moselstr.","postalCode":"54518","locality":"Osann-Monzel","municipality":{"key":"07231103","name":"Osann-Monzel","type":"Kreisangehörige_Gemeinde"},"district":{"key":"07231","name":"Bernkastel-Wittlich","type":"Landkreis"},"federalState":{"key":"07","name":"Rheinland-Pfalz"}},{"name":"Moseltalstr.","postalCode":"54518","locality":"Osann-Monzel","municipality":{"key":"07231103","name":"Osann-Monzel","type":"Kreisangehörige_Gemeinde"},"district":{"key":"07231","name":"Bernkastel-Wittlich","type":"Landkreis"},"federalState":{"key":"07","name":"Rheinland-Pfalz"}},{"name":"Neu Minheim","postalCode":"54518","locality":"Osann-Monzel","municipality":{"key":"07231103","name":"Osann-Monzel","type":"Kreisangehörige_Gemeinde"},"district":{"key":"07231","name":"Bernkastel-Wittlich","type":"Landkreis"},"federalState":{"key":"07","name":"Rheinland-Pfalz"}},{"name":"Nikolausstr.","postalCode":"54518","locality":"Osann-Monzel","municipality":{"key":"07231103","name":"Osann-Monzel","type":"Kreisangehörige_Gemeinde"},"district":{"key":"07231","name":"Bernkastel-Wittlich","type":"Landkreis"},"federalState":{"key":"07","name":"Rheinland-Pfalz"}},{"name":"Novianderweg","postalCode":"54518","locality":"Osann-Monzel","municipality":{"key":"07231103","name":"Osann-Monzel","type":"Kreisangehörige_Gemeinde"},"district":{"key":"07231","name":"Bernkastel-Wittlich","type":"Landkreis"},"federalState":{"key":"07","name":"Rheinland-Pfalz"}},{"name":"Oberer Steinrausch","postalCode":"54518","locality":"Osann-Monzel","municipality":{"key":"07231103","name":"Osann-Monzel","type":"Kreisangehörige_Gemeinde"},"district":{"key":"07231","name":"Bernkastel-Wittlich","type":"Landkreis"},"federalState":{"key":"07","name":"Rheinland-Pfalz"}},{"name":"Oberstr.","postalCode":"54518","locality":"Osann-Monzel","municipality":{"key":"07231103","name":"Osann-Monzel","type":"Kreisangehörige_Gemeinde"},"district":{"key":"07231","name":"Bernkastel-Wittlich","type":"Landkreis"},"federalState":{"key":"07","name":"Rheinland-Pfalz"}},{"name":"Raiffeisenstr.","postalCode":"54518","locality":"Osann-Monzel","municipality":{"key":"07231103","name":"Osann-Monzel","type":"Kreisangehörige_Gemeinde"},"district":{"key":"07231","name":"Bernkastel-Wittlich","type":"Landkreis"},"federalState":{"key":"07","name":"Rheinland-Pfalz"}},{"name":"Rauenweg","postalCode":"54518","locality":"Osann-Monzel","municipality":{"key":"07231103","name":"Osann-Monzel","type":"Kreisangehörige_Gemeinde"},"district":{"key":"07231","name":"Bernkastel-Wittlich","type":"Landkreis"},"federalState":{"key":"07","name":"Rheinland-Pfalz"}},{"name":"Steinrausch","postalCode":"54518","locality":"Osann-Monzel","municipality":{"key":"07231103","name":"Osann-Monzel","type":"Kreisangehörige_Gemeinde"},"district":{"key":"07231","name":"Bernkastel-Wittlich","type":"Landkreis"},"federalState":{"key":"07","name":"Rheinland-Pfalz"}},{"name":"Trierer Str.","postalCode":"54518","locality":"Osann-Monzel","municipality":{"key":"07231103","name":"Osann-Monzel","type":"Kreisangehörige_Gemeinde"},"district":{"key":"07231","name":"Bernkastel-Wittlich","type":"Landkreis"},"federalState":{"key":"07","name":"Rheinland-Pfalz"}},{"name":"Unter der Treff","postalCode":"54518","locality":"Osann-Monzel","municipality":{"key":"07231103","name":"Osann-Monzel","type":"Kreisangehörige_Gemeinde"},"district":{"key":"07231","name":"Bernkastel-Wittlich","type":"Landkreis"},"federalState":{"key":"07","name":"Rheinland-Pfalz"}},{"name":"Weinbergstr.","postalCode":"54518","locality":"Osann-Monzel","municipality":{"key":"07231103","name":"Osann-Monzel","type":"Kreisangehörige_Gemeinde"},"district":{"key":"07231","name":"Bernkastel-Wittlich","type":"Landkreis"},"federalState":{"key":"07","name":"Rheinland-Pfalz"}},{"name":"Wittlicher Str.","postalCode":"54518","locality":"Osann-Monzel","municipality":{"key":"07231103","name":"Osann-Monzel","type":"Kreisangehörige_Gemeinde"},"district":{"key":"07231","name":"Bernkastel-Wittlich","type":"Landkreis"},"federalState":{"key":"07","name":"Rheinland-Pfalz"}},{"name":"Zum Rosenberg","postalCode":"54518","locality":"Osann-Monzel","municipality":{"key":"07231103","name":"Osann-Monzel","type":"Kreisangehörige_Gemeinde"},"district":{"key":"07231","name":"Bernkastel-Wittlich","type":"Landkreis"},"federalState":{"key":"07","name":"Rheinland-Pfalz"}},]