[{"name":"Am Kuhberg","postalCode":"21483","locality":"Krukow","municipality":{"key":"01053074","name":"Krukow","type":"Kreisangehörige_Gemeinde"},"district":{"key":"01053","name":"Herzogtum Lauenburg","type":"Kreis"},"federalState":{"key":"01","name":"Schleswig-Holstein"}},{"name":"Geesthachter Str.","postalCode":"21483","locality":"Krukow","municipality":{"key":"01053074","name":"Krukow","type":"Kreisangehörige_Gemeinde"},"district":{"key":"01053","name":"Herzogtum Lauenburg","type":"Kreis"},"federalState":{"key":"01","name":"Schleswig-Holstein"}},{"name":"Gülzower Weg","postalCode":"21483","locality":"Krukow","municipality":{"key":"01053074","name":"Krukow","type":"Kreisangehörige_Gemeinde"},"district":{"key":"01053","name":"Herzogtum Lauenburg","type":"Kreis"},"federalState":{"key":"01","name":"Schleswig-Holstein"}},{"name":"Im Bohnenbusch","postalCode":"21483","locality":"Krukow","municipality":{"key":"01053074","name":"Krukow","type":"Kreisangehörige_Gemeinde"},"district":{"key":"01053","name":"Herzogtum Lauenburg","type":"Kreis"},"federalState":{"key":"01","name":"Schleswig-Holstein"}},{"name":"Im Lieschen Pütten","postalCode":"21483","locality":"Krukow","municipality":{"key":"01053074","name":"Krukow","type":"Kreisangehörige_Gemeinde"},"district":{"key":"01053","name":"Herzogtum Lauenburg","type":"Kreis"},"federalState":{"key":"01","name":"Schleswig-Holstein"}},{"name":"In de Rieh","postalCode":"21483","locality":"Krukow","municipality":{"key":"01053074","name":"Krukow","type":"Kreisangehörige_Gemeinde"},"district":{"key":"01053","name":"Herzogtum Lauenburg","type":"Kreis"},"federalState":{"key":"01","name":"Schleswig-Holstein"}},{"name":"Landstr.","postalCode":"21483","locality":"Krukow","municipality":{"key":"01053074","name":"Krukow","type":"Kreisangehörige_Gemeinde"},"district":{"key":"01053","name":"Herzogtum Lauenburg","type":"Kreis"},"federalState":{"key":"01","name":"Schleswig-Holstein"}},{"name":"Vor den Hainbuchen","postalCode":"21483","locality":"Krukow","municipality":{"key":"01053074","name":"Krukow","type":"Kreisangehörige_Gemeinde"},"district":{"key":"01053","name":"Herzogtum Lauenburg","type":"Kreis"},"federalState":{"key":"01","name":"Schleswig-Holstein"}},]