[{"name":"Ahornweg","postalCode":"89174","locality":"Altheim (Alb)","municipality":{"key":"08425005","name":"Altheim (Alb)","type":"Kreisangehörige_Gemeinde"},"district":{"key":"08425","name":"Alb-Donau-Kreis","type":"Landkreis"},"federalState":{"key":"08","name":"Baden-Württemberg"}},{"name":"Alamannenstr.","postalCode":"88499","locality":"Altheim","municipality":{"key":"08426008","name":"Altheim","type":"Kreisangehörige_Gemeinde"},"district":{"key":"08426","name":"Biberach","type":"Landkreis"},"federalState":{"key":"08","name":"Baden-Württemberg"}},{"name":"Alemannenstr.","postalCode":"86637","locality":"Zusamaltheim","municipality":{"key":"09773188","name":"Zusamaltheim","type":"Kreisangehörige_Gemeinde"},"district":{"key":"09773","name":"Dillingen a.d.Donau","type":"Landkreis"},"federalState":{"key":"09","name":"Bayern"}},{"name":"Alte Weiherstr.","postalCode":"86637","locality":"Zusamaltheim","municipality":{"key":"09773188","name":"Zusamaltheim","type":"Kreisangehörige_Gemeinde"},"district":{"key":"09773","name":"Dillingen a.d.Donau","type":"Landkreis"},"federalState":{"key":"09","name":"Bayern"}},{"name":"Alte Wertinger Str.","postalCode":"86637","locality":"Zusamaltheim","municipality":{"key":"09773188","name":"Zusamaltheim","type":"Kreisangehörige_Gemeinde"},"district":{"key":"09773","name":"Dillingen a.d.Donau","type":"Landkreis"},"federalState":{"key":"09","name":"Bayern"}},{"name":"Altheimer Str.","postalCode":"88499","locality":"Altheim","municipality":{"key":"08426008","name":"Altheim","type":"Kreisangehörige_Gemeinde"},"district":{"key":"08426","name":"Biberach","type":"Landkreis"},"federalState":{"key":"08","name":"Baden-Württemberg"}},{"name":"Am Bürzel","postalCode":"89174","locality":"Altheim (Alb)","municipality":{"key":"08425005","name":"Altheim (Alb)","type":"Kreisangehörige_Gemeinde"},"district":{"key":"08425","name":"Alb-Donau-Kreis","type":"Landkreis"},"federalState":{"key":"08","name":"Baden-Württemberg"}},{"name":"Am Gässle","postalCode":"86745","locality":"Hohenaltheim","municipality":{"key":"09779162","name":"Hohenaltheim","type":"Kreisangehörige_Gemeinde"},"district":{"key":"09779","name":"Donau-Ries","type":"Landkreis"},"federalState":{"key":"09","name":"Bayern"}},{"name":"Am Geiselbach","postalCode":"86637","locality":"Zusamaltheim","municipality":{"key":"09773188","name":"Zusamaltheim","type":"Kreisangehörige_Gemeinde"},"district":{"key":"09773","name":"Dillingen a.d.Donau","type":"Landkreis"},"federalState":{"key":"09","name":"Bayern"}},{"name":"Am Graben","postalCode":"86637","locality":"Zusamaltheim","municipality":{"key":"09773188","name":"Zusamaltheim","type":"Kreisangehörige_Gemeinde"},"district":{"key":"09773","name":"Dillingen a.d.Donau","type":"Landkreis"},"federalState":{"key":"09","name":"Bayern"}},{"name":"Am Hühlenberg","postalCode":"86637","locality":"Zusamaltheim","municipality":{"key":"09773188","name":"Zusamaltheim","type":"Kreisangehörige_Gemeinde"},"district":{"key":"09773","name":"Dillingen a.d.Donau","type":"Landkreis"},"federalState":{"key":"09","name":"Bayern"}},{"name":"Am Kanal","postalCode":"91799","locality":"Langenaltheim","municipality":{"key":"09577148","name":"Langenaltheim","type":"Kreisangehörige_Gemeinde"},"district":{"key":"09577","name":"Weißenburg-Gunzenhausen","type":"Landkreis"},"federalState":{"key":"09","name":"Bayern"}},{"name":"Am Kuhberg","postalCode":"89174","locality":"Altheim (Alb)","municipality":{"key":"08425005","name":"Altheim (Alb)","type":"Kreisangehörige_Gemeinde"},"district":{"key":"08425","name":"Alb-Donau-Kreis","type":"Landkreis"},"federalState":{"key":"08","name":"Baden-Württemberg"}},{"name":"Ammerweg","postalCode":"89174","locality":"Altheim (Alb)","municipality":{"key":"08425005","name":"Altheim (Alb)","type":"Kreisangehörige_Gemeinde"},"district":{"key":"08425","name":"Alb-Donau-Kreis","type":"Landkreis"},"federalState":{"key":"08","name":"Baden-Württemberg"}},{"name":"Am Moos","postalCode":"86637","locality":"Zusamaltheim","municipality":{"key":"09773188","name":"Zusamaltheim","type":"Kreisangehörige_Gemeinde"},"district":{"key":"09773","name":"Dillingen a.d.Donau","type":"Landkreis"},"federalState":{"key":"09","name":"Bayern"}},{"name":"Am Münster","postalCode":"88499","locality":"Altheim","municipality":{"key":"08426008","name":"Altheim","type":"Kreisangehörige_Gemeinde"},"district":{"key":"08426","name":"Biberach","type":"Landkreis"},"federalState":{"key":"08","name":"Baden-Württemberg"}},{"name":"Am Oberfeld","postalCode":"91799","locality":"Langenaltheim","municipality":{"key":"09577148","name":"Langenaltheim","type":"Kreisangehörige_Gemeinde"},"district":{"key":"09577","name":"Weißenburg-Gunzenhausen","type":"Landkreis"},"federalState":{"key":"09","name":"Bayern"}},{"name":"Am Schäfflerberg","postalCode":"86637","locality":"Zusamaltheim","municipality":{"key":"09773188","name":"Zusamaltheim","type":"Kreisangehörige_Gemeinde"},"district":{"key":"09773","name":"Dillingen a.d.Donau","type":"Landkreis"},"federalState":{"key":"09","name":"Bayern"}},{"name":"Am Schulgarten","postalCode":"86637","locality":"Zusamaltheim","municipality":{"key":"09773188","name":"Zusamaltheim","type":"Kreisangehörige_Gemeinde"},"district":{"key":"09773","name":"Dillingen a.d.Donau","type":"Landkreis"},"federalState":{"key":"09","name":"Bayern"}},{"name":"Amselweg","postalCode":"88499","locality":"Altheim","municipality":{"key":"08426008","name":"Altheim","type":"Kreisangehörige_Gemeinde"},"district":{"key":"08426","name":"Biberach","type":"Landkreis"},"federalState":{"key":"08","name":"Baden-Württemberg"}},{"name":"Am Sonnenberg","postalCode":"86637","locality":"Zusamaltheim","municipality":{"key":"09773188","name":"Zusamaltheim","type":"Kreisangehörige_Gemeinde"},"district":{"key":"09773","name":"Dillingen a.d.Donau","type":"Landkreis"},"federalState":{"key":"09","name":"Bayern"}},{"name":"Am Spitzberg","postalCode":"86745","locality":"Hohenaltheim","municipality":{"key":"09779162","name":"Hohenaltheim","type":"Kreisangehörige_Gemeinde"},"district":{"key":"09779","name":"Donau-Ries","type":"Landkreis"},"federalState":{"key":"09","name":"Bayern"}},{"name":"Am Steinacker","postalCode":"86637","locality":"Zusamaltheim","municipality":{"key":"09773188","name":"Zusamaltheim","type":"Kreisangehörige_Gemeinde"},"district":{"key":"09773","name":"Dillingen a.d.Donau","type":"Landkreis"},"federalState":{"key":"09","name":"Bayern"}},{"name":"Am Steinbruch","postalCode":"91799","locality":"Langenaltheim","municipality":{"key":"09577148","name":"Langenaltheim","type":"Kreisangehörige_Gemeinde"},"district":{"key":"09577","name":"Weißenburg-Gunzenhausen","type":"Landkreis"},"federalState":{"key":"09","name":"Bayern"}},{"name":"Am Straußenhof","postalCode":"86745","locality":"Hohenaltheim","municipality":{"key":"09779162","name":"Hohenaltheim","type":"Kreisangehörige_Gemeinde"},"district":{"key":"09779","name":"Donau-Ries","type":"Landkreis"},"federalState":{"key":"09","name":"Bayern"}},{"name":"Am Tannengarten","postalCode":"88499","locality":"Altheim","municipality":{"key":"08426008","name":"Altheim","type":"Kreisangehörige_Gemeinde"},"district":{"key":"08426","name":"Biberach","type":"Landkreis"},"federalState":{"key":"08","name":"Baden-Württemberg"}},{"name":"Am Wiesengrund","postalCode":"91799","locality":"Langenaltheim","municipality":{"key":"09577148","name":"Langenaltheim","type":"Kreisangehörige_Gemeinde"},"district":{"key":"09577","name":"Weißenburg-Gunzenhausen","type":"Landkreis"},"federalState":{"key":"09","name":"Bayern"}},{"name":"Andelfinger Str.","postalCode":"88499","locality":"Altheim","municipality":{"key":"08426008","name":"Altheim","type":"Kreisangehörige_Gemeinde"},"district":{"key":"08426","name":"Biberach","type":"Landkreis"},"federalState":{"key":"08","name":"Baden-Württemberg"}},{"name":"An den Reifwiesen","postalCode":"91799","locality":"Langenaltheim","municipality":{"key":"09577148","name":"Langenaltheim","type":"Kreisangehörige_Gemeinde"},"district":{"key":"09577","name":"Weißenburg-Gunzenhausen","type":"Landkreis"},"federalState":{"key":"09","name":"Bayern"}},{"name":"An der Natterwiese","postalCode":"91799","locality":"Langenaltheim","municipality":{"key":"09577148","name":"Langenaltheim","type":"Kreisangehörige_Gemeinde"},"district":{"key":"09577","name":"Weißenburg-Gunzenhausen","type":"Landkreis"},"federalState":{"key":"09","name":"Bayern"}},{"name":"An der Steige","postalCode":"88499","locality":"Altheim","municipality":{"key":"08426008","name":"Altheim","type":"Kreisangehörige_Gemeinde"},"district":{"key":"08426","name":"Biberach","type":"Landkreis"},"federalState":{"key":"08","name":"Baden-Württemberg"}},{"name":"Aschach","postalCode":"89605","locality":"Altheim","municipality":{"key":"08425004","name":"Altheim","type":"Kreisangehörige_Gemeinde"},"district":{"key":"08425","name":"Alb-Donau-Kreis","type":"Landkreis"},"federalState":{"key":"08","name":"Baden-Württemberg"}},{"name":"Attenbühlweg","postalCode":"86745","locality":"Hohenaltheim","municipality":{"key":"09779162","name":"Hohenaltheim","type":"Kreisangehörige_Gemeinde"},"district":{"key":"09779","name":"Donau-Ries","type":"Landkreis"},"federalState":{"key":"09","name":"Bayern"}},{"name":"Auf dem Bühl","postalCode":"88499","locality":"Altheim","municipality":{"key":"08426008","name":"Altheim","type":"Kreisangehörige_Gemeinde"},"district":{"key":"08426","name":"Biberach","type":"Landkreis"},"federalState":{"key":"08","name":"Baden-Württemberg"}},{"name":"Auf dem Bürgle","postalCode":"88499","locality":"Altheim","municipality":{"key":"08426008","name":"Altheim","type":"Kreisangehörige_Gemeinde"},"district":{"key":"08426","name":"Biberach","type":"Landkreis"},"federalState":{"key":"08","name":"Baden-Württemberg"}},{"name":"Bachgasse","postalCode":"88499","locality":"Altheim","municipality":{"key":"08426008","name":"Altheim","type":"Kreisangehörige_Gemeinde"},"district":{"key":"08426","name":"Biberach","type":"Landkreis"},"federalState":{"key":"08","name":"Baden-Württemberg"}},{"name":"Backhausgasse","postalCode":"88499","locality":"Altheim","municipality":{"key":"08426008","name":"Altheim","type":"Kreisangehörige_Gemeinde"},"district":{"key":"08426","name":"Biberach","type":"Landkreis"},"federalState":{"key":"08","name":"Baden-Württemberg"}},{"name":"Baderstr.","postalCode":"86637","locality":"Zusamaltheim","municipality":{"key":"09773188","name":"Zusamaltheim","type":"Kreisangehörige_Gemeinde"},"district":{"key":"09773","name":"Dillingen a.d.Donau","type":"Landkreis"},"federalState":{"key":"09","name":"Bayern"}},{"name":"Beckenberg","postalCode":"86745","locality":"Hohenaltheim","municipality":{"key":"09779162","name":"Hohenaltheim","type":"Kreisangehörige_Gemeinde"},"district":{"key":"09779","name":"Donau-Ries","type":"Landkreis"},"federalState":{"key":"09","name":"Bayern"}},{"name":"Beethovenstr.","postalCode":"88499","locality":"Altheim","municipality":{"key":"08426008","name":"Altheim","type":"Kreisangehörige_Gemeinde"},"district":{"key":"08426","name":"Biberach","type":"Landkreis"},"federalState":{"key":"08","name":"Baden-Württemberg"}},{"name":"Beim Feuerwehrhaus","postalCode":"86637","locality":"Zusamaltheim","municipality":{"key":"09773188","name":"Zusamaltheim","type":"Kreisangehörige_Gemeinde"},"district":{"key":"09773","name":"Dillingen a.d.Donau","type":"Landkreis"},"federalState":{"key":"09","name":"Bayern"}},{"name":"Beim Schloss","postalCode":"89605","locality":"Altheim","municipality":{"key":"08425004","name":"Altheim","type":"Kreisangehörige_Gemeinde"},"district":{"key":"08425","name":"Alb-Donau-Kreis","type":"Landkreis"},"federalState":{"key":"08","name":"Baden-Württemberg"}},{"name":"Bergnerweg","postalCode":"91799","locality":"Langenaltheim","municipality":{"key":"09577148","name":"Langenaltheim","type":"Kreisangehörige_Gemeinde"},"district":{"key":"09577","name":"Weißenburg-Gunzenhausen","type":"Landkreis"},"federalState":{"key":"09","name":"Bayern"}},{"name":"Bergstr.","postalCode":"89174","locality":"Altheim (Alb)","municipality":{"key":"08425005","name":"Altheim (Alb)","type":"Kreisangehörige_Gemeinde"},"district":{"key":"08425","name":"Alb-Donau-Kreis","type":"Landkreis"},"federalState":{"key":"08","name":"Baden-Württemberg"}},{"name":"Bergstr.","postalCode":"91799","locality":"Langenaltheim","municipality":{"key":"09577148","name":"Langenaltheim","type":"Kreisangehörige_Gemeinde"},"district":{"key":"09577","name":"Weißenburg-Gunzenhausen","type":"Landkreis"},"federalState":{"key":"09","name":"Bayern"}},{"name":"Bindersberg","postalCode":"86745","locality":"Hohenaltheim","municipality":{"key":"09779162","name":"Hohenaltheim","type":"Kreisangehörige_Gemeinde"},"district":{"key":"09779","name":"Donau-Ries","type":"Landkreis"},"federalState":{"key":"09","name":"Bayern"}},{"name":"Binzwanger Str.","postalCode":"88499","locality":"Altheim","municipality":{"key":"08426008","name":"Altheim","type":"Kreisangehörige_Gemeinde"},"district":{"key":"08426","name":"Biberach","type":"Landkreis"},"federalState":{"key":"08","name":"Baden-Württemberg"}},{"name":"Birkenstr.","postalCode":"89605","locality":"Altheim","municipality":{"key":"08425004","name":"Altheim","type":"Kreisangehörige_Gemeinde"},"district":{"key":"08425","name":"Alb-Donau-Kreis","type":"Landkreis"},"federalState":{"key":"08","name":"Baden-Württemberg"}},{"name":"Birkenweg","postalCode":"89174","locality":"Altheim (Alb)","municipality":{"key":"08425005","name":"Altheim (Alb)","type":"Kreisangehörige_Gemeinde"},"district":{"key":"08425","name":"Alb-Donau-Kreis","type":"Landkreis"},"federalState":{"key":"08","name":"Baden-Württemberg"}},{"name":"Bismarckstr.","postalCode":"89174","locality":"Altheim (Alb)","municipality":{"key":"08425005","name":"Altheim (Alb)","type":"Kreisangehörige_Gemeinde"},"district":{"key":"08425","name":"Alb-Donau-Kreis","type":"Landkreis"},"federalState":{"key":"08","name":"Baden-Württemberg"}},{"name":"Braas- und Schwenkstr.","postalCode":"89605","locality":"Altheim","municipality":{"key":"08425004","name":"Altheim","type":"Kreisangehörige_Gemeinde"},"district":{"key":"08425","name":"Alb-Donau-Kreis","type":"Landkreis"},"federalState":{"key":"08","name":"Baden-Württemberg"}},{"name":"Bräugasse","postalCode":"91799","locality":"Langenaltheim","municipality":{"key":"09577148","name":"Langenaltheim","type":"Kreisangehörige_Gemeinde"},"district":{"key":"09577","name":"Weißenburg-Gunzenhausen","type":"Landkreis"},"federalState":{"key":"09","name":"Bayern"}},{"name":"Brühlstr.","postalCode":"91799","locality":"Langenaltheim","municipality":{"key":"09577148","name":"Langenaltheim","type":"Kreisangehörige_Gemeinde"},"district":{"key":"09577","name":"Weißenburg-Gunzenhausen","type":"Landkreis"},"federalState":{"key":"09","name":"Bayern"}},{"name":"Brühlweg","postalCode":"88499","locality":"Altheim","municipality":{"key":"08426008","name":"Altheim","type":"Kreisangehörige_Gemeinde"},"district":{"key":"08426","name":"Biberach","type":"Landkreis"},"federalState":{"key":"08","name":"Baden-Württemberg"}},{"name":"Brunnengasse","postalCode":"89174","locality":"Altheim (Alb)","municipality":{"key":"08425005","name":"Altheim (Alb)","type":"Kreisangehörige_Gemeinde"},"district":{"key":"08425","name":"Alb-Donau-Kreis","type":"Landkreis"},"federalState":{"key":"08","name":"Baden-Württemberg"}},{"name":"Brunnengasse","postalCode":"91799","locality":"Langenaltheim","municipality":{"key":"09577148","name":"Langenaltheim","type":"Kreisangehörige_Gemeinde"},"district":{"key":"09577","name":"Weißenburg-Gunzenhausen","type":"Landkreis"},"federalState":{"key":"09","name":"Bayern"}},{"name":"Brunnenweg","postalCode":"88499","locality":"Altheim","municipality":{"key":"08426008","name":"Altheim","type":"Kreisangehörige_Gemeinde"},"district":{"key":"08426","name":"Biberach","type":"Landkreis"},"federalState":{"key":"08","name":"Baden-Württemberg"}},{"name":"Buchenweg","postalCode":"89174","locality":"Altheim (Alb)","municipality":{"key":"08425005","name":"Altheim (Alb)","type":"Kreisangehörige_Gemeinde"},"district":{"key":"08425","name":"Alb-Donau-Kreis","type":"Landkreis"},"federalState":{"key":"08","name":"Baden-Württemberg"}},{"name":"Bügelstr.","postalCode":"91799","locality":"Langenaltheim","municipality":{"key":"09577148","name":"Langenaltheim","type":"Kreisangehörige_Gemeinde"},"district":{"key":"09577","name":"Weißenburg-Gunzenhausen","type":"Landkreis"},"federalState":{"key":"09","name":"Bayern"}},{"name":"Bühlweg","postalCode":"89605","locality":"Altheim","municipality":{"key":"08425004","name":"Altheim","type":"Kreisangehörige_Gemeinde"},"district":{"key":"08425","name":"Alb-Donau-Kreis","type":"Landkreis"},"federalState":{"key":"08","name":"Baden-Württemberg"}},{"name":"Bürgergarten","postalCode":"88499","locality":"Altheim","municipality":{"key":"08426008","name":"Altheim","type":"Kreisangehörige_Gemeinde"},"district":{"key":"08426","name":"Biberach","type":"Landkreis"},"federalState":{"key":"08","name":"Baden-Württemberg"}},{"name":"Bürgermeister-Lettenmeyer-Str.","postalCode":"86745","locality":"Hohenaltheim","municipality":{"key":"09779162","name":"Hohenaltheim","type":"Kreisangehörige_Gemeinde"},"district":{"key":"09779","name":"Donau-Ries","type":"Landkreis"},"federalState":{"key":"09","name":"Bayern"}},{"name":"Bussenblick","postalCode":"88499","locality":"Altheim","municipality":{"key":"08426008","name":"Altheim","type":"Kreisangehörige_Gemeinde"},"district":{"key":"08426","name":"Biberach","type":"Landkreis"},"federalState":{"key":"08","name":"Baden-Württemberg"}},{"name":"Dachsleiteweg","postalCode":"91799","locality":"Langenaltheim","municipality":{"key":"09577148","name":"Langenaltheim","type":"Kreisangehörige_Gemeinde"},"district":{"key":"09577","name":"Weißenburg-Gunzenhausen","type":"Landkreis"},"federalState":{"key":"09","name":"Bayern"}},{"name":"Donaustr.","postalCode":"88499","locality":"Altheim","municipality":{"key":"08426008","name":"Altheim","type":"Kreisangehörige_Gemeinde"},"district":{"key":"08426","name":"Biberach","type":"Landkreis"},"federalState":{"key":"08","name":"Baden-Württemberg"}},{"name":"Dorfstr.","postalCode":"86745","locality":"Hohenaltheim","municipality":{"key":"09779162","name":"Hohenaltheim","type":"Kreisangehörige_Gemeinde"},"district":{"key":"09779","name":"Donau-Ries","type":"Landkreis"},"federalState":{"key":"09","name":"Bayern"}},{"name":"Dorfstr.","postalCode":"91799","locality":"Langenaltheim","municipality":{"key":"09577148","name":"Langenaltheim","type":"Kreisangehörige_Gemeinde"},"district":{"key":"09577","name":"Weißenburg-Gunzenhausen","type":"Landkreis"},"federalState":{"key":"09","name":"Bayern"}},{"name":"Dornäckerstr.","postalCode":"91799","locality":"Langenaltheim","municipality":{"key":"09577148","name":"Langenaltheim","type":"Kreisangehörige_Gemeinde"},"district":{"key":"09577","name":"Weißenburg-Gunzenhausen","type":"Landkreis"},"federalState":{"key":"09","name":"Bayern"}},{"name":"Egelsee","postalCode":"88499","locality":"Altheim","municipality":{"key":"08426008","name":"Altheim","type":"Kreisangehörige_Gemeinde"},"district":{"key":"08426","name":"Biberach","type":"Landkreis"},"federalState":{"key":"08","name":"Baden-Württemberg"}},{"name":"Eichendorffstr.","postalCode":"88499","locality":"Altheim","municipality":{"key":"08426008","name":"Altheim","type":"Kreisangehörige_Gemeinde"},"district":{"key":"08426","name":"Biberach","type":"Landkreis"},"federalState":{"key":"08","name":"Baden-Württemberg"}},{"name":"Eichenweg","postalCode":"89174","locality":"Altheim (Alb)","municipality":{"key":"08425005","name":"Altheim (Alb)","type":"Kreisangehörige_Gemeinde"},"district":{"key":"08425","name":"Alb-Donau-Kreis","type":"Landkreis"},"federalState":{"key":"08","name":"Baden-Württemberg"}},{"name":"Eichenweg","postalCode":"89605","locality":"Altheim","municipality":{"key":"08425004","name":"Altheim","type":"Kreisangehörige_Gemeinde"},"district":{"key":"08425","name":"Alb-Donau-Kreis","type":"Landkreis"},"federalState":{"key":"08","name":"Baden-Württemberg"}},{"name":"Elmweg","postalCode":"88499","locality":"Altheim","municipality":{"key":"08426008","name":"Altheim","type":"Kreisangehörige_Gemeinde"},"district":{"key":"08426","name":"Biberach","type":"Landkreis"},"federalState":{"key":"08","name":"Baden-Württemberg"}},{"name":"Eschenweg","postalCode":"89174","locality":"Altheim (Alb)","municipality":{"key":"08425005","name":"Altheim (Alb)","type":"Kreisangehörige_Gemeinde"},"district":{"key":"08425","name":"Alb-Donau-Kreis","type":"Landkreis"},"federalState":{"key":"08","name":"Baden-Württemberg"}},{"name":"Eschenweg","postalCode":"89605","locality":"Altheim","municipality":{"key":"08425004","name":"Altheim","type":"Kreisangehörige_Gemeinde"},"district":{"key":"08425","name":"Alb-Donau-Kreis","type":"Landkreis"},"federalState":{"key":"08","name":"Baden-Württemberg"}},{"name":"Esterbergweg","postalCode":"91799","locality":"Langenaltheim","municipality":{"key":"09577148","name":"Langenaltheim","type":"Kreisangehörige_Gemeinde"},"district":{"key":"09577","name":"Weißenburg-Gunzenhausen","type":"Landkreis"},"federalState":{"key":"09","name":"Bayern"}},{"name":"Falkenstr.","postalCode":"89605","locality":"Altheim","municipality":{"key":"08425004","name":"Altheim","type":"Kreisangehörige_Gemeinde"},"district":{"key":"08425","name":"Alb-Donau-Kreis","type":"Landkreis"},"federalState":{"key":"08","name":"Baden-Württemberg"}},{"name":"Feldstr.","postalCode":"86637","locality":"Zusamaltheim","municipality":{"key":"09773188","name":"Zusamaltheim","type":"Kreisangehörige_Gemeinde"},"district":{"key":"09773","name":"Dillingen a.d.Donau","type":"Landkreis"},"federalState":{"key":"09","name":"Bayern"}},{"name":"Finkenweg","postalCode":"88499","locality":"Altheim","municipality":{"key":"08426008","name":"Altheim","type":"Kreisangehörige_Gemeinde"},"district":{"key":"08426","name":"Biberach","type":"Landkreis"},"federalState":{"key":"08","name":"Baden-Württemberg"}},{"name":"Finkenweg","postalCode":"89174","locality":"Altheim (Alb)","municipality":{"key":"08425005","name":"Altheim (Alb)","type":"Kreisangehörige_Gemeinde"},"district":{"key":"08425","name":"Alb-Donau-Kreis","type":"Landkreis"},"federalState":{"key":"08","name":"Baden-Württemberg"}},{"name":"Finkenweg","postalCode":"89605","locality":"Altheim","municipality":{"key":"08425004","name":"Altheim","type":"Kreisangehörige_Gemeinde"},"district":{"key":"08425","name":"Alb-Donau-Kreis","type":"Landkreis"},"federalState":{"key":"08","name":"Baden-Württemberg"}},{"name":"Fischschneiderstr.","postalCode":"86637","locality":"Zusamaltheim","municipality":{"key":"09773188","name":"Zusamaltheim","type":"Kreisangehörige_Gemeinde"},"district":{"key":"09773","name":"Dillingen a.d.Donau","type":"Landkreis"},"federalState":{"key":"09","name":"Bayern"}},{"name":"Forchenweg","postalCode":"89605","locality":"Altheim","municipality":{"key":"08425004","name":"Altheim","type":"Kreisangehörige_Gemeinde"},"district":{"key":"08425","name":"Alb-Donau-Kreis","type":"Landkreis"},"federalState":{"key":"08","name":"Baden-Württemberg"}},{"name":"Forstgasse","postalCode":"89174","locality":"Altheim (Alb)","municipality":{"key":"08425005","name":"Altheim (Alb)","type":"Kreisangehörige_Gemeinde"},"district":{"key":"08425","name":"Alb-Donau-Kreis","type":"Landkreis"},"federalState":{"key":"08","name":"Baden-Württemberg"}},{"name":"Frankenstr.","postalCode":"88499","locality":"Altheim","municipality":{"key":"08426008","name":"Altheim","type":"Kreisangehörige_Gemeinde"},"district":{"key":"08426","name":"Biberach","type":"Landkreis"},"federalState":{"key":"08","name":"Baden-Württemberg"}},{"name":"Freidhofsgasse","postalCode":"91799","locality":"Langenaltheim","municipality":{"key":"09577148","name":"Langenaltheim","type":"Kreisangehörige_Gemeinde"},"district":{"key":"09577","name":"Weißenburg-Gunzenhausen","type":"Landkreis"},"federalState":{"key":"09","name":"Bayern"}},{"name":"Friedhofstr.","postalCode":"86637","locality":"Zusamaltheim","municipality":{"key":"09773188","name":"Zusamaltheim","type":"Kreisangehörige_Gemeinde"},"district":{"key":"09773","name":"Dillingen a.d.Donau","type":"Landkreis"},"federalState":{"key":"09","name":"Bayern"}},{"name":"Friedhofweg","postalCode":"88499","locality":"Altheim","municipality":{"key":"08426008","name":"Altheim","type":"Kreisangehörige_Gemeinde"},"district":{"key":"08426","name":"Biberach","type":"Landkreis"},"federalState":{"key":"08","name":"Baden-Württemberg"}},{"name":"Frohnmühle","postalCode":"86745","locality":"Hohenaltheim","municipality":{"key":"09779162","name":"Hohenaltheim","type":"Kreisangehörige_Gemeinde"},"district":{"key":"09779","name":"Donau-Ries","type":"Landkreis"},"federalState":{"key":"09","name":"Bayern"}},{"name":"Froschbachstr.","postalCode":"86745","locality":"Hohenaltheim","municipality":{"key":"09779162","name":"Hohenaltheim","type":"Kreisangehörige_Gemeinde"},"district":{"key":"09779","name":"Donau-Ries","type":"Landkreis"},"federalState":{"key":"09","name":"Bayern"}},{"name":"Gängle","postalCode":"89605","locality":"Altheim","municipality":{"key":"08425004","name":"Altheim","type":"Kreisangehörige_Gemeinde"},"district":{"key":"08425","name":"Alb-Donau-Kreis","type":"Landkreis"},"federalState":{"key":"08","name":"Baden-Württemberg"}},{"name":"Ganzenmühle","postalCode":"86745","locality":"Hohenaltheim","municipality":{"key":"09779162","name":"Hohenaltheim","type":"Kreisangehörige_Gemeinde"},"district":{"key":"09779","name":"Donau-Ries","type":"Landkreis"},"federalState":{"key":"09","name":"Bayern"}},{"name":"Gartenstr.","postalCode":"86637","locality":"Zusamaltheim","municipality":{"key":"09773188","name":"Zusamaltheim","type":"Kreisangehörige_Gemeinde"},"district":{"key":"09773","name":"Dillingen a.d.Donau","type":"Landkreis"},"federalState":{"key":"09","name":"Bayern"}},{"name":"Gartenstr.","postalCode":"89174","locality":"Altheim (Alb)","municipality":{"key":"08425005","name":"Altheim (Alb)","type":"Kreisangehörige_Gemeinde"},"district":{"key":"08425","name":"Alb-Donau-Kreis","type":"Landkreis"},"federalState":{"key":"08","name":"Baden-Württemberg"}},{"name":"Gartenstr.","postalCode":"91799","locality":"Langenaltheim","municipality":{"key":"09577148","name":"Langenaltheim","type":"Kreisangehörige_Gemeinde"},"district":{"key":"09577","name":"Weißenburg-Gunzenhausen","type":"Landkreis"},"federalState":{"key":"09","name":"Bayern"}},{"name":"Gartenweg","postalCode":"88499","locality":"Altheim","municipality":{"key":"08426008","name":"Altheim","type":"Kreisangehörige_Gemeinde"},"district":{"key":"08426","name":"Biberach","type":"Landkreis"},"federalState":{"key":"08","name":"Baden-Württemberg"}},{"name":"Georg-Rieder-Str.","postalCode":"86637","locality":"Zusamaltheim","municipality":{"key":"09773188","name":"Zusamaltheim","type":"Kreisangehörige_Gemeinde"},"district":{"key":"09773","name":"Dillingen a.d.Donau","type":"Landkreis"},"federalState":{"key":"09","name":"Bayern"}},{"name":"Gerstetter Str.","postalCode":"89174","locality":"Altheim (Alb)","municipality":{"key":"08425005","name":"Altheim (Alb)","type":"Kreisangehörige_Gemeinde"},"district":{"key":"08425","name":"Alb-Donau-Kreis","type":"Landkreis"},"federalState":{"key":"08","name":"Baden-Württemberg"}},{"name":"Glasergässle","postalCode":"86745","locality":"Hohenaltheim","municipality":{"key":"09779162","name":"Hohenaltheim","type":"Kreisangehörige_Gemeinde"},"district":{"key":"09779","name":"Donau-Ries","type":"Landkreis"},"federalState":{"key":"09","name":"Bayern"}},{"name":"Goethestr.","postalCode":"88499","locality":"Altheim","municipality":{"key":"08426008","name":"Altheim","type":"Kreisangehörige_Gemeinde"},"district":{"key":"08426","name":"Biberach","type":"Landkreis"},"federalState":{"key":"08","name":"Baden-Württemberg"}},{"name":"Goethestr.","postalCode":"91799","locality":"Langenaltheim","municipality":{"key":"09577148","name":"Langenaltheim","type":"Kreisangehörige_Gemeinde"},"district":{"key":"09577","name":"Weißenburg-Gunzenhausen","type":"Landkreis"},"federalState":{"key":"09","name":"Bayern"}},{"name":"Haderstr.","postalCode":"91799","locality":"Langenaltheim","municipality":{"key":"09577148","name":"Langenaltheim","type":"Kreisangehörige_Gemeinde"},"district":{"key":"09577","name":"Weißenburg-Gunzenhausen","type":"Landkreis"},"federalState":{"key":"09","name":"Bayern"}},{"name":"Härtenenweg","postalCode":"89605","locality":"Altheim","municipality":{"key":"08425004","name":"Altheim","type":"Kreisangehörige_Gemeinde"},"district":{"key":"08425","name":"Alb-Donau-Kreis","type":"Landkreis"},"federalState":{"key":"08","name":"Baden-Württemberg"}},{"name":"Haßlerstr.","postalCode":"89174","locality":"Altheim (Alb)","municipality":{"key":"08425005","name":"Altheim (Alb)","type":"Kreisangehörige_Gemeinde"},"district":{"key":"08425","name":"Alb-Donau-Kreis","type":"Landkreis"},"federalState":{"key":"08","name":"Baden-Württemberg"}},{"name":"Hauptstr.","postalCode":"86745","locality":"Hohenaltheim","municipality":{"key":"09779162","name":"Hohenaltheim","type":"Kreisangehörige_Gemeinde"},"district":{"key":"09779","name":"Donau-Ries","type":"Landkreis"},"federalState":{"key":"09","name":"Bayern"}},{"name":"Hauptstr.","postalCode":"88499","locality":"Altheim","municipality":{"key":"08426008","name":"Altheim","type":"Kreisangehörige_Gemeinde"},"district":{"key":"08426","name":"Biberach","type":"Landkreis"},"federalState":{"key":"08","name":"Baden-Württemberg"}},{"name":"Hauptstr.","postalCode":"89605","locality":"Altheim","municipality":{"key":"08425004","name":"Altheim","type":"Kreisangehörige_Gemeinde"},"district":{"key":"08425","name":"Alb-Donau-Kreis","type":"Landkreis"},"federalState":{"key":"08","name":"Baden-Württemberg"}},{"name":"Haydnstr.","postalCode":"88499","locality":"Altheim","municipality":{"key":"08426008","name":"Altheim","type":"Kreisangehörige_Gemeinde"},"district":{"key":"08426","name":"Biberach","type":"Landkreis"},"federalState":{"key":"08","name":"Baden-Württemberg"}},{"name":"Heckengasse","postalCode":"86637","locality":"Zusamaltheim","municipality":{"key":"09773188","name":"Zusamaltheim","type":"Kreisangehörige_Gemeinde"},"district":{"key":"09773","name":"Dillingen a.d.Donau","type":"Landkreis"},"federalState":{"key":"09","name":"Bayern"}},{"name":"Heilenberg","postalCode":"89605","locality":"Altheim","municipality":{"key":"08425004","name":"Altheim","type":"Kreisangehörige_Gemeinde"},"district":{"key":"08425","name":"Alb-Donau-Kreis","type":"Landkreis"},"federalState":{"key":"08","name":"Baden-Württemberg"}},{"name":"Helfergasse","postalCode":"89174","locality":"Altheim (Alb)","municipality":{"key":"08425005","name":"Altheim (Alb)","type":"Kreisangehörige_Gemeinde"},"district":{"key":"08425","name":"Alb-Donau-Kreis","type":"Landkreis"},"federalState":{"key":"08","name":"Baden-Württemberg"}},{"name":"Hennengasse","postalCode":"91799","locality":"Langenaltheim","municipality":{"key":"09577148","name":"Langenaltheim","type":"Kreisangehörige_Gemeinde"},"district":{"key":"09577","name":"Weißenburg-Gunzenhausen","type":"Landkreis"},"federalState":{"key":"09","name":"Bayern"}},{"name":"Herrengasse","postalCode":"89605","locality":"Altheim","municipality":{"key":"08425004","name":"Altheim","type":"Kreisangehörige_Gemeinde"},"district":{"key":"08425","name":"Alb-Donau-Kreis","type":"Landkreis"},"federalState":{"key":"08","name":"Baden-Württemberg"}},{"name":"Herrnstr.","postalCode":"91799","locality":"Langenaltheim","municipality":{"key":"09577148","name":"Langenaltheim","type":"Kreisangehörige_Gemeinde"},"district":{"key":"09577","name":"Weißenburg-Gunzenhausen","type":"Landkreis"},"federalState":{"key":"09","name":"Bayern"}},{"name":"Hindenburgstr.","postalCode":"89174","locality":"Altheim (Alb)","municipality":{"key":"08425005","name":"Altheim (Alb)","type":"Kreisangehörige_Gemeinde"},"district":{"key":"08425","name":"Alb-Donau-Kreis","type":"Landkreis"},"federalState":{"key":"08","name":"Baden-Württemberg"}},{"name":"Hinter der Mauer","postalCode":"89174","locality":"Altheim (Alb)","municipality":{"key":"08425005","name":"Altheim (Alb)","type":"Kreisangehörige_Gemeinde"},"district":{"key":"08425","name":"Alb-Donau-Kreis","type":"Landkreis"},"federalState":{"key":"08","name":"Baden-Württemberg"}},{"name":"Hintere Haardt","postalCode":"91799","locality":"Langenaltheim","municipality":{"key":"09577148","name":"Langenaltheim","type":"Kreisangehörige_Gemeinde"},"district":{"key":"09577","name":"Weißenburg-Gunzenhausen","type":"Landkreis"},"federalState":{"key":"09","name":"Bayern"}},{"name":"Hofstr.","postalCode":"86637","locality":"Zusamaltheim","municipality":{"key":"09773188","name":"Zusamaltheim","type":"Kreisangehörige_Gemeinde"},"district":{"key":"09773","name":"Dillingen a.d.Donau","type":"Landkreis"},"federalState":{"key":"09","name":"Bayern"}},{"name":"Höhenweg","postalCode":"89605","locality":"Altheim","municipality":{"key":"08425004","name":"Altheim","type":"Kreisangehörige_Gemeinde"},"district":{"key":"08425","name":"Alb-Donau-Kreis","type":"Landkreis"},"federalState":{"key":"08","name":"Baden-Württemberg"}},{"name":"Hubergasse","postalCode":"91799","locality":"Langenaltheim","municipality":{"key":"09577148","name":"Langenaltheim","type":"Kreisangehörige_Gemeinde"},"district":{"key":"09577","name":"Weißenburg-Gunzenhausen","type":"Landkreis"},"federalState":{"key":"09","name":"Bayern"}},{"name":"Im Alten Ried","postalCode":"86637","locality":"Zusamaltheim","municipality":{"key":"09773188","name":"Zusamaltheim","type":"Kreisangehörige_Gemeinde"},"district":{"key":"09773","name":"Dillingen a.d.Donau","type":"Landkreis"},"federalState":{"key":"09","name":"Bayern"}},{"name":"Im Bantel","postalCode":"89174","locality":"Altheim (Alb)","municipality":{"key":"08425005","name":"Altheim (Alb)","type":"Kreisangehörige_Gemeinde"},"district":{"key":"08425","name":"Alb-Donau-Kreis","type":"Landkreis"},"federalState":{"key":"08","name":"Baden-Württemberg"}},{"name":"Im Brand","postalCode":"91799","locality":"Langenaltheim","municipality":{"key":"09577148","name":"Langenaltheim","type":"Kreisangehörige_Gemeinde"},"district":{"key":"09577","name":"Weißenburg-Gunzenhausen","type":"Landkreis"},"federalState":{"key":"09","name":"Bayern"}},{"name":"Im Feldle","postalCode":"89174","locality":"Altheim (Alb)","municipality":{"key":"08425005","name":"Altheim (Alb)","type":"Kreisangehörige_Gemeinde"},"district":{"key":"08425","name":"Alb-Donau-Kreis","type":"Landkreis"},"federalState":{"key":"08","name":"Baden-Württemberg"}},{"name":"Im Schrandel","postalCode":"91799","locality":"Langenaltheim","municipality":{"key":"09577148","name":"Langenaltheim","type":"Kreisangehörige_Gemeinde"},"district":{"key":"09577","name":"Weißenburg-Gunzenhausen","type":"Landkreis"},"federalState":{"key":"09","name":"Bayern"}},{"name":"In den Schmidbreiten","postalCode":"86745","locality":"Hohenaltheim","municipality":{"key":"09779162","name":"Hohenaltheim","type":"Kreisangehörige_Gemeinde"},"district":{"key":"09779","name":"Donau-Ries","type":"Landkreis"},"federalState":{"key":"09","name":"Bayern"}},{"name":"In der Vorstadt","postalCode":"89174","locality":"Altheim (Alb)","municipality":{"key":"08425005","name":"Altheim (Alb)","type":"Kreisangehörige_Gemeinde"},"district":{"key":"08425","name":"Alb-Donau-Kreis","type":"Landkreis"},"federalState":{"key":"08","name":"Baden-Württemberg"}},{"name":"In der Wanne","postalCode":"89174","locality":"Altheim (Alb)","municipality":{"key":"08425005","name":"Altheim (Alb)","type":"Kreisangehörige_Gemeinde"},"district":{"key":"08425","name":"Alb-Donau-Kreis","type":"Landkreis"},"federalState":{"key":"08","name":"Baden-Württemberg"}},{"name":"Jungholzweg","postalCode":"88499","locality":"Altheim","municipality":{"key":"08426008","name":"Altheim","type":"Kreisangehörige_Gemeinde"},"district":{"key":"08426","name":"Biberach","type":"Landkreis"},"federalState":{"key":"08","name":"Baden-Württemberg"}},{"name":"Kapellenstr.","postalCode":"86637","locality":"Zusamaltheim","municipality":{"key":"09773188","name":"Zusamaltheim","type":"Kreisangehörige_Gemeinde"},"district":{"key":"09773","name":"Dillingen a.d.Donau","type":"Landkreis"},"federalState":{"key":"09","name":"Bayern"}},{"name":"Kapellenstr.","postalCode":"88499","locality":"Altheim","municipality":{"key":"08426008","name":"Altheim","type":"Kreisangehörige_Gemeinde"},"district":{"key":"08426","name":"Biberach","type":"Landkreis"},"federalState":{"key":"08","name":"Baden-Württemberg"}},{"name":"Karlstr.","postalCode":"89174","locality":"Altheim (Alb)","municipality":{"key":"08425005","name":"Altheim (Alb)","type":"Kreisangehörige_Gemeinde"},"district":{"key":"08425","name":"Alb-Donau-Kreis","type":"Landkreis"},"federalState":{"key":"08","name":"Baden-Württemberg"}},{"name":"Karolingerweg","postalCode":"86745","locality":"Hohenaltheim","municipality":{"key":"09779162","name":"Hohenaltheim","type":"Kreisangehörige_Gemeinde"},"district":{"key":"09779","name":"Donau-Ries","type":"Landkreis"},"federalState":{"key":"09","name":"Bayern"}},{"name":"Keirengasse","postalCode":"86745","locality":"Hohenaltheim","municipality":{"key":"09779162","name":"Hohenaltheim","type":"Kreisangehörige_Gemeinde"},"district":{"key":"09779","name":"Donau-Ries","type":"Landkreis"},"federalState":{"key":"09","name":"Bayern"}},{"name":"Keltenstr.","postalCode":"88499","locality":"Altheim","municipality":{"key":"08426008","name":"Altheim","type":"Kreisangehörige_Gemeinde"},"district":{"key":"08426","name":"Biberach","type":"Landkreis"},"federalState":{"key":"08","name":"Baden-Württemberg"}},{"name":"Kichenwegele","postalCode":"86637","locality":"Zusamaltheim","municipality":{"key":"09773188","name":"Zusamaltheim","type":"Kreisangehörige_Gemeinde"},"district":{"key":"09773","name":"Dillingen a.d.Donau","type":"Landkreis"},"federalState":{"key":"09","name":"Bayern"}},{"name":"Kirchberg","postalCode":"86745","locality":"Hohenaltheim","municipality":{"key":"09779162","name":"Hohenaltheim","type":"Kreisangehörige_Gemeinde"},"district":{"key":"09779","name":"Donau-Ries","type":"Landkreis"},"federalState":{"key":"09","name":"Bayern"}},{"name":"Kirchengasse","postalCode":"91799","locality":"Langenaltheim","municipality":{"key":"09577148","name":"Langenaltheim","type":"Kreisangehörige_Gemeinde"},"district":{"key":"09577","name":"Weißenburg-Gunzenhausen","type":"Landkreis"},"federalState":{"key":"09","name":"Bayern"}},{"name":"Kirchenweg","postalCode":"86637","locality":"Zusamaltheim","municipality":{"key":"09773188","name":"Zusamaltheim","type":"Kreisangehörige_Gemeinde"},"district":{"key":"09773","name":"Dillingen a.d.Donau","type":"Landkreis"},"federalState":{"key":"09","name":"Bayern"}},{"name":"Kirchenweg","postalCode":"91799","locality":"Langenaltheim","municipality":{"key":"09577148","name":"Langenaltheim","type":"Kreisangehörige_Gemeinde"},"district":{"key":"09577","name":"Weißenburg-Gunzenhausen","type":"Landkreis"},"federalState":{"key":"09","name":"Bayern"}},{"name":"Kirchplatz","postalCode":"86637","locality":"Zusamaltheim","municipality":{"key":"09773188","name":"Zusamaltheim","type":"Kreisangehörige_Gemeinde"},"district":{"key":"09773","name":"Dillingen a.d.Donau","type":"Landkreis"},"federalState":{"key":"09","name":"Bayern"}},{"name":"Kirchstr.","postalCode":"86637","locality":"Zusamaltheim","municipality":{"key":"09773188","name":"Zusamaltheim","type":"Kreisangehörige_Gemeinde"},"district":{"key":"09773","name":"Dillingen a.d.Donau","type":"Landkreis"},"federalState":{"key":"09","name":"Bayern"}},{"name":"Kirchstr.","postalCode":"88499","locality":"Altheim","municipality":{"key":"08426008","name":"Altheim","type":"Kreisangehörige_Gemeinde"},"district":{"key":"08426","name":"Biberach","type":"Landkreis"},"federalState":{"key":"08","name":"Baden-Württemberg"}},{"name":"Kirchstr.","postalCode":"89174","locality":"Altheim (Alb)","municipality":{"key":"08425005","name":"Altheim (Alb)","type":"Kreisangehörige_Gemeinde"},"district":{"key":"08425","name":"Alb-Donau-Kreis","type":"Landkreis"},"federalState":{"key":"08","name":"Baden-Württemberg"}},{"name":"Kirchweg","postalCode":"89605","locality":"Altheim","municipality":{"key":"08425004","name":"Altheim","type":"Kreisangehörige_Gemeinde"},"district":{"key":"08425","name":"Alb-Donau-Kreis","type":"Landkreis"},"federalState":{"key":"08","name":"Baden-Württemberg"}},{"name":"Kleine Halde","postalCode":"88499","locality":"Altheim","municipality":{"key":"08426008","name":"Altheim","type":"Kreisangehörige_Gemeinde"},"district":{"key":"08426","name":"Biberach","type":"Landkreis"},"federalState":{"key":"08","name":"Baden-Württemberg"}},{"name":"Kleinösch","postalCode":"88499","locality":"Altheim","municipality":{"key":"08426008","name":"Altheim","type":"Kreisangehörige_Gemeinde"},"district":{"key":"08426","name":"Biberach","type":"Landkreis"},"federalState":{"key":"08","name":"Baden-Württemberg"}},{"name":"Kohlplattenhau","postalCode":"89605","locality":"Altheim","municipality":{"key":"08425004","name":"Altheim","type":"Kreisangehörige_Gemeinde"},"district":{"key":"08425","name":"Alb-Donau-Kreis","type":"Landkreis"},"federalState":{"key":"08","name":"Baden-Württemberg"}},{"name":"Kohlstattweg","postalCode":"86637","locality":"Zusamaltheim","municipality":{"key":"09773188","name":"Zusamaltheim","type":"Kreisangehörige_Gemeinde"},"district":{"key":"09773","name":"Dillingen a.d.Donau","type":"Landkreis"},"federalState":{"key":"09","name":"Bayern"}},{"name":"Konradin-Kreutzer-Str.","postalCode":"88499","locality":"Altheim","municipality":{"key":"08426008","name":"Altheim","type":"Kreisangehörige_Gemeinde"},"district":{"key":"08426","name":"Biberach","type":"Landkreis"},"federalState":{"key":"08","name":"Baden-Württemberg"}},{"name":"Kronengasse","postalCode":"89174","locality":"Altheim (Alb)","municipality":{"key":"08425005","name":"Altheim (Alb)","type":"Kreisangehörige_Gemeinde"},"district":{"key":"08425","name":"Alb-Donau-Kreis","type":"Landkreis"},"federalState":{"key":"08","name":"Baden-Württemberg"}},{"name":"Kühgasse","postalCode":"91799","locality":"Langenaltheim","municipality":{"key":"09577148","name":"Langenaltheim","type":"Kreisangehörige_Gemeinde"},"district":{"key":"09577","name":"Weißenburg-Gunzenhausen","type":"Landkreis"},"federalState":{"key":"09","name":"Bayern"}},{"name":"Lammberg","postalCode":"89605","locality":"Altheim","municipality":{"key":"08425004","name":"Altheim","type":"Kreisangehörige_Gemeinde"},"district":{"key":"08425","name":"Alb-Donau-Kreis","type":"Landkreis"},"federalState":{"key":"08","name":"Baden-Württemberg"}},{"name":"Lämmerbauerstr.","postalCode":"86637","locality":"Zusamaltheim","municipality":{"key":"09773188","name":"Zusamaltheim","type":"Kreisangehörige_Gemeinde"},"district":{"key":"09773","name":"Dillingen a.d.Donau","type":"Landkreis"},"federalState":{"key":"09","name":"Bayern"}},{"name":"Lange Gasse","postalCode":"86637","locality":"Zusamaltheim","municipality":{"key":"09773188","name":"Zusamaltheim","type":"Kreisangehörige_Gemeinde"},"district":{"key":"09773","name":"Dillingen a.d.Donau","type":"Landkreis"},"federalState":{"key":"09","name":"Bayern"}},{"name":"Lange Str.","postalCode":"89174","locality":"Altheim (Alb)","municipality":{"key":"08425005","name":"Altheim (Alb)","type":"Kreisangehörige_Gemeinde"},"district":{"key":"08425","name":"Alb-Donau-Kreis","type":"Landkreis"},"federalState":{"key":"08","name":"Baden-Württemberg"}},{"name":"Lehbergring","postalCode":"86637","locality":"Zusamaltheim","municipality":{"key":"09773188","name":"Zusamaltheim","type":"Kreisangehörige_Gemeinde"},"district":{"key":"09773","name":"Dillingen a.d.Donau","type":"Landkreis"},"federalState":{"key":"09","name":"Bayern"}},{"name":"Lehmgrubenweg","postalCode":"88499","locality":"Altheim","municipality":{"key":"08426008","name":"Altheim","type":"Kreisangehörige_Gemeinde"},"district":{"key":"08426","name":"Biberach","type":"Landkreis"},"federalState":{"key":"08","name":"Baden-Württemberg"}},{"name":"Lerchenweg","postalCode":"88499","locality":"Altheim","municipality":{"key":"08426008","name":"Altheim","type":"Kreisangehörige_Gemeinde"},"district":{"key":"08426","name":"Biberach","type":"Landkreis"},"federalState":{"key":"08","name":"Baden-Württemberg"}},{"name":"Lerchenweg","postalCode":"89174","locality":"Altheim (Alb)","municipality":{"key":"08425005","name":"Altheim (Alb)","type":"Kreisangehörige_Gemeinde"},"district":{"key":"08425","name":"Alb-Donau-Kreis","type":"Landkreis"},"federalState":{"key":"08","name":"Baden-Württemberg"}},{"name":"Lerchenweg","postalCode":"89605","locality":"Altheim","municipality":{"key":"08425004","name":"Altheim","type":"Kreisangehörige_Gemeinde"},"district":{"key":"08425","name":"Alb-Donau-Kreis","type":"Landkreis"},"federalState":{"key":"08","name":"Baden-Württemberg"}},{"name":"Lindenstr.","postalCode":"89605","locality":"Altheim","municipality":{"key":"08425004","name":"Altheim","type":"Kreisangehörige_Gemeinde"},"district":{"key":"08425","name":"Alb-Donau-Kreis","type":"Landkreis"},"federalState":{"key":"08","name":"Baden-Württemberg"}},{"name":"Lindenweg","postalCode":"88499","locality":"Altheim","municipality":{"key":"08426008","name":"Altheim","type":"Kreisangehörige_Gemeinde"},"district":{"key":"08426","name":"Biberach","type":"Landkreis"},"federalState":{"key":"08","name":"Baden-Württemberg"}},{"name":"Ludwig-von-Wirkau-Str.","postalCode":"86637","locality":"Zusamaltheim","municipality":{"key":"09773188","name":"Zusamaltheim","type":"Kreisangehörige_Gemeinde"},"district":{"key":"09773","name":"Dillingen a.d.Donau","type":"Landkreis"},"federalState":{"key":"09","name":"Bayern"}},{"name":"Maierangerweg","postalCode":"86637","locality":"Zusamaltheim","municipality":{"key":"09773188","name":"Zusamaltheim","type":"Kreisangehörige_Gemeinde"},"district":{"key":"09773","name":"Dillingen a.d.Donau","type":"Landkreis"},"federalState":{"key":"09","name":"Bayern"}},{"name":"Maierhofstr.","postalCode":"91799","locality":"Langenaltheim","municipality":{"key":"09577148","name":"Langenaltheim","type":"Kreisangehörige_Gemeinde"},"district":{"key":"09577","name":"Weißenburg-Gunzenhausen","type":"Landkreis"},"federalState":{"key":"09","name":"Bayern"}},{"name":"Maierstr.","postalCode":"86637","locality":"Zusamaltheim","municipality":{"key":"09773188","name":"Zusamaltheim","type":"Kreisangehörige_Gemeinde"},"district":{"key":"09773","name":"Dillingen a.d.Donau","type":"Landkreis"},"federalState":{"key":"09","name":"Bayern"}},{"name":"Maigasse","postalCode":"91799","locality":"Langenaltheim","municipality":{"key":"09577148","name":"Langenaltheim","type":"Kreisangehörige_Gemeinde"},"district":{"key":"09577","name":"Weißenburg-Gunzenhausen","type":"Landkreis"},"federalState":{"key":"09","name":"Bayern"}},{"name":"Marzelstetten","postalCode":"86637","locality":"Zusamaltheim","municipality":{"key":"09773188","name":"Zusamaltheim","type":"Kreisangehörige_Gemeinde"},"district":{"key":"09773","name":"Dillingen a.d.Donau","type":"Landkreis"},"federalState":{"key":"09","name":"Bayern"}},{"name":"Michel-Buck-Str.","postalCode":"88499","locality":"Altheim","municipality":{"key":"08426008","name":"Altheim","type":"Kreisangehörige_Gemeinde"},"district":{"key":"08426","name":"Biberach","type":"Landkreis"},"federalState":{"key":"08","name":"Baden-Württemberg"}},{"name":"Mittelweg","postalCode":"86745","locality":"Hohenaltheim","municipality":{"key":"09779162","name":"Hohenaltheim","type":"Kreisangehörige_Gemeinde"},"district":{"key":"09779","name":"Donau-Ries","type":"Landkreis"},"federalState":{"key":"09","name":"Bayern"}},{"name":"Mittlerer Bühl","postalCode":"89174","locality":"Altheim (Alb)","municipality":{"key":"08425005","name":"Altheim (Alb)","type":"Kreisangehörige_Gemeinde"},"district":{"key":"08425","name":"Alb-Donau-Kreis","type":"Landkreis"},"federalState":{"key":"08","name":"Baden-Württemberg"}},{"name":"Morgengasse","postalCode":"88499","locality":"Altheim","municipality":{"key":"08426008","name":"Altheim","type":"Kreisangehörige_Gemeinde"},"district":{"key":"08426","name":"Biberach","type":"Landkreis"},"federalState":{"key":"08","name":"Baden-Württemberg"}},{"name":"Mörikestr.","postalCode":"88499","locality":"Altheim","municipality":{"key":"08426008","name":"Altheim","type":"Kreisangehörige_Gemeinde"},"district":{"key":"08426","name":"Biberach","type":"Landkreis"},"federalState":{"key":"08","name":"Baden-Württemberg"}},{"name":"Mostplatz","postalCode":"91799","locality":"Langenaltheim","municipality":{"key":"09577148","name":"Langenaltheim","type":"Kreisangehörige_Gemeinde"},"district":{"key":"09577","name":"Weißenburg-Gunzenhausen","type":"Landkreis"},"federalState":{"key":"09","name":"Bayern"}},{"name":"Moststr.","postalCode":"91799","locality":"Langenaltheim","municipality":{"key":"09577148","name":"Langenaltheim","type":"Kreisangehörige_Gemeinde"},"district":{"key":"09577","name":"Weißenburg-Gunzenhausen","type":"Landkreis"},"federalState":{"key":"09","name":"Bayern"}},{"name":"Mozartstr.","postalCode":"88499","locality":"Altheim","municipality":{"key":"08426008","name":"Altheim","type":"Kreisangehörige_Gemeinde"},"district":{"key":"08426","name":"Biberach","type":"Landkreis"},"federalState":{"key":"08","name":"Baden-Württemberg"}},{"name":"Mühlenweg","postalCode":"89605","locality":"Altheim","municipality":{"key":"08425004","name":"Altheim","type":"Kreisangehörige_Gemeinde"},"district":{"key":"08425","name":"Alb-Donau-Kreis","type":"Landkreis"},"federalState":{"key":"08","name":"Baden-Württemberg"}},{"name":"Mühlweg","postalCode":"86637","locality":"Zusamaltheim","municipality":{"key":"09773188","name":"Zusamaltheim","type":"Kreisangehörige_Gemeinde"},"district":{"key":"09773","name":"Dillingen a.d.Donau","type":"Landkreis"},"federalState":{"key":"09","name":"Bayern"}},{"name":"Neuer Weg","postalCode":"88499","locality":"Altheim","municipality":{"key":"08426008","name":"Altheim","type":"Kreisangehörige_Gemeinde"},"district":{"key":"08426","name":"Biberach","type":"Landkreis"},"federalState":{"key":"08","name":"Baden-Württemberg"}},{"name":"Nussbaumweg","postalCode":"88499","locality":"Altheim","municipality":{"key":"08426008","name":"Altheim","type":"Kreisangehörige_Gemeinde"},"district":{"key":"08426","name":"Biberach","type":"Landkreis"},"federalState":{"key":"08","name":"Baden-Württemberg"}},{"name":"Obere Dorfstr.","postalCode":"86637","locality":"Zusamaltheim","municipality":{"key":"09773188","name":"Zusamaltheim","type":"Kreisangehörige_Gemeinde"},"district":{"key":"09773","name":"Dillingen a.d.Donau","type":"Landkreis"},"federalState":{"key":"09","name":"Bayern"}},{"name":"Obere Haardt","postalCode":"91799","locality":"Langenaltheim","municipality":{"key":"09577148","name":"Langenaltheim","type":"Kreisangehörige_Gemeinde"},"district":{"key":"09577","name":"Weißenburg-Gunzenhausen","type":"Landkreis"},"federalState":{"key":"09","name":"Bayern"}},{"name":"Obere Hauptstr.","postalCode":"91799","locality":"Langenaltheim","municipality":{"key":"09577148","name":"Langenaltheim","type":"Kreisangehörige_Gemeinde"},"district":{"key":"09577","name":"Weißenburg-Gunzenhausen","type":"Landkreis"},"federalState":{"key":"09","name":"Bayern"}},{"name":"Oberer Dorfstr.","postalCode":"86637","locality":"Zusamaltheim","municipality":{"key":"09773188","name":"Zusamaltheim","type":"Kreisangehörige_Gemeinde"},"district":{"key":"09773","name":"Dillingen a.d.Donau","type":"Landkreis"},"federalState":{"key":"09","name":"Bayern"}},{"name":"Oberer Mühlweg","postalCode":"88499","locality":"Altheim","municipality":{"key":"08426008","name":"Altheim","type":"Kreisangehörige_Gemeinde"},"district":{"key":"08426","name":"Biberach","type":"Landkreis"},"federalState":{"key":"08","name":"Baden-Württemberg"}},{"name":"Osterackerweg","postalCode":"91799","locality":"Langenaltheim","municipality":{"key":"09577148","name":"Langenaltheim","type":"Kreisangehörige_Gemeinde"},"district":{"key":"09577","name":"Weißenburg-Gunzenhausen","type":"Landkreis"},"federalState":{"key":"09","name":"Bayern"}},{"name":"Panoramaweg","postalCode":"89174","locality":"Altheim (Alb)","municipality":{"key":"08425005","name":"Altheim (Alb)","type":"Kreisangehörige_Gemeinde"},"district":{"key":"08425","name":"Alb-Donau-Kreis","type":"Landkreis"},"federalState":{"key":"08","name":"Baden-Württemberg"}},{"name":"Pappenheimer Str.","postalCode":"91799","locality":"Langenaltheim","municipality":{"key":"09577148","name":"Langenaltheim","type":"Kreisangehörige_Gemeinde"},"district":{"key":"09577","name":"Weißenburg-Gunzenhausen","type":"Landkreis"},"federalState":{"key":"09","name":"Bayern"}},{"name":"Pfarrgasse","postalCode":"88499","locality":"Altheim","municipality":{"key":"08426008","name":"Altheim","type":"Kreisangehörige_Gemeinde"},"district":{"key":"08426","name":"Biberach","type":"Landkreis"},"federalState":{"key":"08","name":"Baden-Württemberg"}},{"name":"Pflummerner Weg","postalCode":"88499","locality":"Altheim","municipality":{"key":"08426008","name":"Altheim","type":"Kreisangehörige_Gemeinde"},"district":{"key":"08426","name":"Biberach","type":"Landkreis"},"federalState":{"key":"08","name":"Baden-Württemberg"}},{"name":"Postgasse","postalCode":"86745","locality":"Hohenaltheim","municipality":{"key":"09779162","name":"Hohenaltheim","type":"Kreisangehörige_Gemeinde"},"district":{"key":"09779","name":"Donau-Ries","type":"Landkreis"},"federalState":{"key":"09","name":"Bayern"}},{"name":"Postweg","postalCode":"91799","locality":"Langenaltheim","municipality":{"key":"09577148","name":"Langenaltheim","type":"Kreisangehörige_Gemeinde"},"district":{"key":"09577","name":"Weißenburg-Gunzenhausen","type":"Landkreis"},"federalState":{"key":"09","name":"Bayern"}},{"name":"Raiffeisenstr.","postalCode":"86745","locality":"Hohenaltheim","municipality":{"key":"09779162","name":"Hohenaltheim","type":"Kreisangehörige_Gemeinde"},"district":{"key":"09779","name":"Donau-Ries","type":"Landkreis"},"federalState":{"key":"09","name":"Bayern"}},{"name":"Raunsbergweg","postalCode":"86637","locality":"Zusamaltheim","municipality":{"key":"09773188","name":"Zusamaltheim","type":"Kreisangehörige_Gemeinde"},"district":{"key":"09773","name":"Dillingen a.d.Donau","type":"Landkreis"},"federalState":{"key":"09","name":"Bayern"}},{"name":"Rechbergstr.","postalCode":"86637","locality":"Zusamaltheim","municipality":{"key":"09773188","name":"Zusamaltheim","type":"Kreisangehörige_Gemeinde"},"district":{"key":"09773","name":"Dillingen a.d.Donau","type":"Landkreis"},"federalState":{"key":"09","name":"Bayern"}},{"name":"Reifwiesenweg","postalCode":"91799","locality":"Langenaltheim","municipality":{"key":"09577148","name":"Langenaltheim","type":"Kreisangehörige_Gemeinde"},"district":{"key":"09577","name":"Weißenburg-Gunzenhausen","type":"Landkreis"},"federalState":{"key":"09","name":"Bayern"}},{"name":"Reitleweg","postalCode":"91799","locality":"Langenaltheim","municipality":{"key":"09577148","name":"Langenaltheim","type":"Kreisangehörige_Gemeinde"},"district":{"key":"09577","name":"Weißenburg-Gunzenhausen","type":"Landkreis"},"federalState":{"key":"09","name":"Bayern"}},{"name":"Reutewiesenweg","postalCode":"88499","locality":"Altheim","municipality":{"key":"08426008","name":"Altheim","type":"Kreisangehörige_Gemeinde"},"district":{"key":"08426","name":"Biberach","type":"Landkreis"},"federalState":{"key":"08","name":"Baden-Württemberg"}},{"name":"Riedlinger Str.","postalCode":"88499","locality":"Altheim","municipality":{"key":"08426008","name":"Altheim","type":"Kreisangehörige_Gemeinde"},"district":{"key":"08426","name":"Biberach","type":"Landkreis"},"federalState":{"key":"08","name":"Baden-Württemberg"}},{"name":"Riedsender Str.","postalCode":"86637","locality":"Zusamaltheim","municipality":{"key":"09773188","name":"Zusamaltheim","type":"Kreisangehörige_Gemeinde"},"district":{"key":"09773","name":"Dillingen a.d.Donau","type":"Landkreis"},"federalState":{"key":"09","name":"Bayern"}},{"name":"Riedweg","postalCode":"88499","locality":"Altheim","municipality":{"key":"08426008","name":"Altheim","type":"Kreisangehörige_Gemeinde"},"district":{"key":"08426","name":"Biberach","type":"Landkreis"},"federalState":{"key":"08","name":"Baden-Württemberg"}},{"name":"Römerbrunnenweg","postalCode":"91799","locality":"Langenaltheim","municipality":{"key":"09577148","name":"Langenaltheim","type":"Kreisangehörige_Gemeinde"},"district":{"key":"09577","name":"Weißenburg-Gunzenhausen","type":"Landkreis"},"federalState":{"key":"09","name":"Bayern"}},{"name":"Römerstr.","postalCode":"88499","locality":"Altheim","municipality":{"key":"08426008","name":"Altheim","type":"Kreisangehörige_Gemeinde"},"district":{"key":"08426","name":"Biberach","type":"Landkreis"},"federalState":{"key":"08","name":"Baden-Württemberg"}},{"name":"Rosengasse","postalCode":"91799","locality":"Langenaltheim","municipality":{"key":"09577148","name":"Langenaltheim","type":"Kreisangehörige_Gemeinde"},"district":{"key":"09577","name":"Weißenburg-Gunzenhausen","type":"Landkreis"},"federalState":{"key":"09","name":"Bayern"}},{"name":"Roßbergweg","postalCode":"91799","locality":"Langenaltheim","municipality":{"key":"09577148","name":"Langenaltheim","type":"Kreisangehörige_Gemeinde"},"district":{"key":"09577","name":"Weißenburg-Gunzenhausen","type":"Landkreis"},"federalState":{"key":"09","name":"Bayern"}},{"name":"Rotengasse","postalCode":"86745","locality":"Hohenaltheim","municipality":{"key":"09779162","name":"Hohenaltheim","type":"Kreisangehörige_Gemeinde"},"district":{"key":"09779","name":"Donau-Ries","type":"Landkreis"},"federalState":{"key":"09","name":"Bayern"}},{"name":"Rotenweg","postalCode":"88499","locality":"Altheim","municipality":{"key":"08426008","name":"Altheim","type":"Kreisangehörige_Gemeinde"},"district":{"key":"08426","name":"Biberach","type":"Landkreis"},"federalState":{"key":"08","name":"Baden-Württemberg"}},{"name":"Ruchenholz","postalCode":"88499","locality":"Altheim","municipality":{"key":"08426008","name":"Altheim","type":"Kreisangehörige_Gemeinde"},"district":{"key":"08426","name":"Biberach","type":"Landkreis"},"federalState":{"key":"08","name":"Baden-Württemberg"}},{"name":"Sandgrube","postalCode":"89174","locality":"Altheim (Alb)","municipality":{"key":"08425005","name":"Altheim (Alb)","type":"Kreisangehörige_Gemeinde"},"district":{"key":"08425","name":"Alb-Donau-Kreis","type":"Landkreis"},"federalState":{"key":"08","name":"Baden-Württemberg"}},{"name":"Sandgrubenweg","postalCode":"88499","locality":"Altheim","municipality":{"key":"08426008","name":"Altheim","type":"Kreisangehörige_Gemeinde"},"district":{"key":"08426","name":"Biberach","type":"Landkreis"},"federalState":{"key":"08","name":"Baden-Württemberg"}},{"name":"Sattlergasse","postalCode":"86637","locality":"Zusamaltheim","municipality":{"key":"09773188","name":"Zusamaltheim","type":"Kreisangehörige_Gemeinde"},"district":{"key":"09773","name":"Dillingen a.d.Donau","type":"Landkreis"},"federalState":{"key":"09","name":"Bayern"}},{"name":"Saumweg","postalCode":"86637","locality":"Zusamaltheim","municipality":{"key":"09773188","name":"Zusamaltheim","type":"Kreisangehörige_Gemeinde"},"district":{"key":"09773","name":"Dillingen a.d.Donau","type":"Landkreis"},"federalState":{"key":"09","name":"Bayern"}},{"name":"Saure Wiesen","postalCode":"89605","locality":"Altheim","municipality":{"key":"08425004","name":"Altheim","type":"Kreisangehörige_Gemeinde"},"district":{"key":"08425","name":"Alb-Donau-Kreis","type":"Landkreis"},"federalState":{"key":"08","name":"Baden-Württemberg"}},{"name":"Schellenhof","postalCode":"86745","locality":"Hohenaltheim","municipality":{"key":"09779162","name":"Hohenaltheim","type":"Kreisangehörige_Gemeinde"},"district":{"key":"09779","name":"Donau-Ries","type":"Landkreis"},"federalState":{"key":"09","name":"Bayern"}},{"name":"Scherweg","postalCode":"86637","locality":"Zusamaltheim","municipality":{"key":"09773188","name":"Zusamaltheim","type":"Kreisangehörige_Gemeinde"},"district":{"key":"09773","name":"Dillingen a.d.Donau","type":"Landkreis"},"federalState":{"key":"09","name":"Bayern"}},{"name":"Schießmauer","postalCode":"89174","locality":"Altheim (Alb)","municipality":{"key":"08425005","name":"Altheim (Alb)","type":"Kreisangehörige_Gemeinde"},"district":{"key":"08425","name":"Alb-Donau-Kreis","type":"Landkreis"},"federalState":{"key":"08","name":"Baden-Württemberg"}},{"name":"Schiffgasse","postalCode":"91799","locality":"Langenaltheim","municipality":{"key":"09577148","name":"Langenaltheim","type":"Kreisangehörige_Gemeinde"},"district":{"key":"09577","name":"Weißenburg-Gunzenhausen","type":"Landkreis"},"federalState":{"key":"09","name":"Bayern"}},{"name":"Schillerstr.","postalCode":"88499","locality":"Altheim","municipality":{"key":"08426008","name":"Altheim","type":"Kreisangehörige_Gemeinde"},"district":{"key":"08426","name":"Biberach","type":"Landkreis"},"federalState":{"key":"08","name":"Baden-Württemberg"}},{"name":"Schillerstr.","postalCode":"91799","locality":"Langenaltheim","municipality":{"key":"09577148","name":"Langenaltheim","type":"Kreisangehörige_Gemeinde"},"district":{"key":"09577","name":"Weißenburg-Gunzenhausen","type":"Landkreis"},"federalState":{"key":"09","name":"Bayern"}},{"name":"Schloßstr.","postalCode":"86745","locality":"Hohenaltheim","municipality":{"key":"09779162","name":"Hohenaltheim","type":"Kreisangehörige_Gemeinde"},"district":{"key":"09779","name":"Donau-Ries","type":"Landkreis"},"federalState":{"key":"09","name":"Bayern"}},{"name":"Schmiedgasse","postalCode":"88499","locality":"Altheim","municipality":{"key":"08426008","name":"Altheim","type":"Kreisangehörige_Gemeinde"},"district":{"key":"08426","name":"Biberach","type":"Landkreis"},"federalState":{"key":"08","name":"Baden-Württemberg"}},{"name":"Schmiedgasse","postalCode":"89174","locality":"Altheim (Alb)","municipality":{"key":"08425005","name":"Altheim (Alb)","type":"Kreisangehörige_Gemeinde"},"district":{"key":"08425","name":"Alb-Donau-Kreis","type":"Landkreis"},"federalState":{"key":"08","name":"Baden-Württemberg"}},{"name":"Schmiedstr.","postalCode":"86637","locality":"Zusamaltheim","municipality":{"key":"09773188","name":"Zusamaltheim","type":"Kreisangehörige_Gemeinde"},"district":{"key":"09773","name":"Dillingen a.d.Donau","type":"Landkreis"},"federalState":{"key":"09","name":"Bayern"}},{"name":"Schrandlerweg","postalCode":"91799","locality":"Langenaltheim","municipality":{"key":"09577148","name":"Langenaltheim","type":"Kreisangehörige_Gemeinde"},"district":{"key":"09577","name":"Weißenburg-Gunzenhausen","type":"Landkreis"},"federalState":{"key":"09","name":"Bayern"}},{"name":"Schubertstr.","postalCode":"88499","locality":"Altheim","municipality":{"key":"08426008","name":"Altheim","type":"Kreisangehörige_Gemeinde"},"district":{"key":"08426","name":"Biberach","type":"Landkreis"},"federalState":{"key":"08","name":"Baden-Württemberg"}},{"name":"Schulgartenweg","postalCode":"91799","locality":"Langenaltheim","municipality":{"key":"09577148","name":"Langenaltheim","type":"Kreisangehörige_Gemeinde"},"district":{"key":"09577","name":"Weißenburg-Gunzenhausen","type":"Landkreis"},"federalState":{"key":"09","name":"Bayern"}},{"name":"Schulstr.","postalCode":"86745","locality":"Hohenaltheim","municipality":{"key":"09779162","name":"Hohenaltheim","type":"Kreisangehörige_Gemeinde"},"district":{"key":"09779","name":"Donau-Ries","type":"Landkreis"},"federalState":{"key":"09","name":"Bayern"}},{"name":"Schulstr.","postalCode":"88499","locality":"Altheim","municipality":{"key":"08426008","name":"Altheim","type":"Kreisangehörige_Gemeinde"},"district":{"key":"08426","name":"Biberach","type":"Landkreis"},"federalState":{"key":"08","name":"Baden-Württemberg"}},{"name":"Schulstr.","postalCode":"89605","locality":"Altheim","municipality":{"key":"08425004","name":"Altheim","type":"Kreisangehörige_Gemeinde"},"district":{"key":"08425","name":"Alb-Donau-Kreis","type":"Landkreis"},"federalState":{"key":"08","name":"Baden-Württemberg"}},{"name":"Schulweg","postalCode":"88499","locality":"Altheim","municipality":{"key":"08426008","name":"Altheim","type":"Kreisangehörige_Gemeinde"},"district":{"key":"08426","name":"Biberach","type":"Landkreis"},"federalState":{"key":"08","name":"Baden-Württemberg"}},{"name":"Schustergasse","postalCode":"91799","locality":"Langenaltheim","municipality":{"key":"09577148","name":"Langenaltheim","type":"Kreisangehörige_Gemeinde"},"district":{"key":"09577","name":"Weißenburg-Gunzenhausen","type":"Landkreis"},"federalState":{"key":"09","name":"Bayern"}},{"name":"Schwabenstr.","postalCode":"88499","locality":"Altheim","municipality":{"key":"08426008","name":"Altheim","type":"Kreisangehörige_Gemeinde"},"district":{"key":"08426","name":"Biberach","type":"Landkreis"},"federalState":{"key":"08","name":"Baden-Württemberg"}},{"name":"Schwalbenweg","postalCode":"89174","locality":"Altheim (Alb)","municipality":{"key":"08425005","name":"Altheim (Alb)","type":"Kreisangehörige_Gemeinde"},"district":{"key":"08425","name":"Alb-Donau-Kreis","type":"Landkreis"},"federalState":{"key":"08","name":"Baden-Württemberg"}},{"name":"Senefelderstr.","postalCode":"91799","locality":"Langenaltheim","municipality":{"key":"09577148","name":"Langenaltheim","type":"Kreisangehörige_Gemeinde"},"district":{"key":"09577","name":"Weißenburg-Gunzenhausen","type":"Landkreis"},"federalState":{"key":"09","name":"Bayern"}},{"name":"Silcherstr.","postalCode":"88499","locality":"Altheim","municipality":{"key":"08426008","name":"Altheim","type":"Kreisangehörige_Gemeinde"},"district":{"key":"08426","name":"Biberach","type":"Landkreis"},"federalState":{"key":"08","name":"Baden-Württemberg"}},{"name":"Söglinger Str.","postalCode":"89174","locality":"Altheim (Alb)","municipality":{"key":"08425005","name":"Altheim (Alb)","type":"Kreisangehörige_Gemeinde"},"district":{"key":"08425","name":"Alb-Donau-Kreis","type":"Landkreis"},"federalState":{"key":"08","name":"Baden-Württemberg"}},{"name":"Solastr.","postalCode":"91799","locality":"Langenaltheim","municipality":{"key":"09577148","name":"Langenaltheim","type":"Kreisangehörige_Gemeinde"},"district":{"key":"09577","name":"Weißenburg-Gunzenhausen","type":"Landkreis"},"federalState":{"key":"09","name":"Bayern"}},{"name":"Sommerkellerstr.","postalCode":"91799","locality":"Langenaltheim","municipality":{"key":"09577148","name":"Langenaltheim","type":"Kreisangehörige_Gemeinde"},"district":{"key":"09577","name":"Weißenburg-Gunzenhausen","type":"Landkreis"},"federalState":{"key":"09","name":"Bayern"}},{"name":"Sonnenstr.","postalCode":"86745","locality":"Hohenaltheim","municipality":{"key":"09779162","name":"Hohenaltheim","type":"Kreisangehörige_Gemeinde"},"district":{"key":"09779","name":"Donau-Ries","type":"Landkreis"},"federalState":{"key":"09","name":"Bayern"}},{"name":"Spindelgasse","postalCode":"89174","locality":"Altheim (Alb)","municipality":{"key":"08425005","name":"Altheim (Alb)","type":"Kreisangehörige_Gemeinde"},"district":{"key":"08425","name":"Alb-Donau-Kreis","type":"Landkreis"},"federalState":{"key":"08","name":"Baden-Württemberg"}},{"name":"Starenweg","postalCode":"88499","locality":"Altheim","municipality":{"key":"08426008","name":"Altheim","type":"Kreisangehörige_Gemeinde"},"district":{"key":"08426","name":"Biberach","type":"Landkreis"},"federalState":{"key":"08","name":"Baden-Württemberg"}},{"name":"Steingasse","postalCode":"91799","locality":"Langenaltheim","municipality":{"key":"09577148","name":"Langenaltheim","type":"Kreisangehörige_Gemeinde"},"district":{"key":"09577","name":"Weißenburg-Gunzenhausen","type":"Landkreis"},"federalState":{"key":"09","name":"Bayern"}},{"name":"Steingeweg","postalCode":"89605","locality":"Altheim","municipality":{"key":"08425004","name":"Altheim","type":"Kreisangehörige_Gemeinde"},"district":{"key":"08425","name":"Alb-Donau-Kreis","type":"Landkreis"},"federalState":{"key":"08","name":"Baden-Württemberg"}},{"name":"Stockigweg","postalCode":"91799","locality":"Langenaltheim","municipality":{"key":"09577148","name":"Langenaltheim","type":"Kreisangehörige_Gemeinde"},"district":{"key":"09577","name":"Weißenburg-Gunzenhausen","type":"Landkreis"},"federalState":{"key":"09","name":"Bayern"}},{"name":"Tuchplatz","postalCode":"89174","locality":"Altheim (Alb)","municipality":{"key":"08425005","name":"Altheim (Alb)","type":"Kreisangehörige_Gemeinde"},"district":{"key":"08425","name":"Alb-Donau-Kreis","type":"Landkreis"},"federalState":{"key":"08","name":"Baden-Württemberg"}},{"name":"Turnerweg","postalCode":"91799","locality":"Langenaltheim","municipality":{"key":"09577148","name":"Langenaltheim","type":"Kreisangehörige_Gemeinde"},"district":{"key":"09577","name":"Weißenburg-Gunzenhausen","type":"Landkreis"},"federalState":{"key":"09","name":"Bayern"}},{"name":"Uhlandstr.","postalCode":"88499","locality":"Altheim","municipality":{"key":"08426008","name":"Altheim","type":"Kreisangehörige_Gemeinde"},"district":{"key":"08426","name":"Biberach","type":"Landkreis"},"federalState":{"key":"08","name":"Baden-Württemberg"}},{"name":"Untere Dorfstr.","postalCode":"86637","locality":"Zusamaltheim","municipality":{"key":"09773188","name":"Zusamaltheim","type":"Kreisangehörige_Gemeinde"},"district":{"key":"09773","name":"Dillingen a.d.Donau","type":"Landkreis"},"federalState":{"key":"09","name":"Bayern"}},{"name":"Untere Haardt","postalCode":"91799","locality":"Langenaltheim","municipality":{"key":"09577148","name":"Langenaltheim","type":"Kreisangehörige_Gemeinde"},"district":{"key":"09577","name":"Weißenburg-Gunzenhausen","type":"Landkreis"},"federalState":{"key":"09","name":"Bayern"}},{"name":"Untere Hauptstr.","postalCode":"91799","locality":"Langenaltheim","municipality":{"key":"09577148","name":"Langenaltheim","type":"Kreisangehörige_Gemeinde"},"district":{"key":"09577","name":"Weißenburg-Gunzenhausen","type":"Landkreis"},"federalState":{"key":"09","name":"Bayern"}},{"name":"Untere Höfe","postalCode":"89605","locality":"Altheim","municipality":{"key":"08425004","name":"Altheim","type":"Kreisangehörige_Gemeinde"},"district":{"key":"08425","name":"Alb-Donau-Kreis","type":"Landkreis"},"federalState":{"key":"08","name":"Baden-Württemberg"}},{"name":"Veronika-von-Rietheim-Str.","postalCode":"88499","locality":"Altheim","municipality":{"key":"08426008","name":"Altheim","type":"Kreisangehörige_Gemeinde"},"district":{"key":"08426","name":"Biberach","type":"Landkreis"},"federalState":{"key":"08","name":"Baden-Württemberg"}},{"name":"Villenbacher Str.","postalCode":"86637","locality":"Zusamaltheim","municipality":{"key":"09773188","name":"Zusamaltheim","type":"Kreisangehörige_Gemeinde"},"district":{"key":"09773","name":"Dillingen a.d.Donau","type":"Landkreis"},"federalState":{"key":"09","name":"Bayern"}},{"name":"Vogelsangweg","postalCode":"88499","locality":"Altheim","municipality":{"key":"08426008","name":"Altheim","type":"Kreisangehörige_Gemeinde"},"district":{"key":"08426","name":"Biberach","type":"Landkreis"},"federalState":{"key":"08","name":"Baden-Württemberg"}},{"name":"Vorlandenweg","postalCode":"91799","locality":"Langenaltheim","municipality":{"key":"09577148","name":"Langenaltheim","type":"Kreisangehörige_Gemeinde"},"district":{"key":"09577","name":"Weißenburg-Gunzenhausen","type":"Landkreis"},"federalState":{"key":"09","name":"Bayern"}},{"name":"Vorstadt","postalCode":"88499","locality":"Altheim","municipality":{"key":"08426008","name":"Altheim","type":"Kreisangehörige_Gemeinde"},"district":{"key":"08426","name":"Biberach","type":"Landkreis"},"federalState":{"key":"08","name":"Baden-Württemberg"}},{"name":"Waldeck","postalCode":"89174","locality":"Altheim (Alb)","municipality":{"key":"08425005","name":"Altheim (Alb)","type":"Kreisangehörige_Gemeinde"},"district":{"key":"08425","name":"Alb-Donau-Kreis","type":"Landkreis"},"federalState":{"key":"08","name":"Baden-Württemberg"}},{"name":"Waldhauser Str.","postalCode":"88499","locality":"Altheim","municipality":{"key":"08426008","name":"Altheim","type":"Kreisangehörige_Gemeinde"},"district":{"key":"08426","name":"Biberach","type":"Landkreis"},"federalState":{"key":"08","name":"Baden-Württemberg"}},{"name":"Waldstr.","postalCode":"89174","locality":"Altheim (Alb)","municipality":{"key":"08425005","name":"Altheim (Alb)","type":"Kreisangehörige_Gemeinde"},"district":{"key":"08425","name":"Alb-Donau-Kreis","type":"Landkreis"},"federalState":{"key":"08","name":"Baden-Württemberg"}},{"name":"Wasserstallweg","postalCode":"91799","locality":"Langenaltheim","municipality":{"key":"09577148","name":"Langenaltheim","type":"Kreisangehörige_Gemeinde"},"district":{"key":"09577","name":"Weißenburg-Gunzenhausen","type":"Landkreis"},"federalState":{"key":"09","name":"Bayern"}},{"name":"Weidweg","postalCode":"86637","locality":"Zusamaltheim","municipality":{"key":"09773188","name":"Zusamaltheim","type":"Kreisangehörige_Gemeinde"},"district":{"key":"09773","name":"Dillingen a.d.Donau","type":"Landkreis"},"federalState":{"key":"09","name":"Bayern"}},{"name":"Weilerstr.","postalCode":"86745","locality":"Hohenaltheim","municipality":{"key":"09779162","name":"Hohenaltheim","type":"Kreisangehörige_Gemeinde"},"district":{"key":"09779","name":"Donau-Ries","type":"Landkreis"},"federalState":{"key":"09","name":"Bayern"}},{"name":"Wertinger Str.","postalCode":"86637","locality":"Zusamaltheim","municipality":{"key":"09773188","name":"Zusamaltheim","type":"Kreisangehörige_Gemeinde"},"district":{"key":"09773","name":"Dillingen a.d.Donau","type":"Landkreis"},"federalState":{"key":"09","name":"Bayern"}},{"name":"Wiesenstr.","postalCode":"86637","locality":"Zusamaltheim","municipality":{"key":"09773188","name":"Zusamaltheim","type":"Kreisangehörige_Gemeinde"},"district":{"key":"09773","name":"Dillingen a.d.Donau","type":"Landkreis"},"federalState":{"key":"09","name":"Bayern"}},{"name":"Wiesenstr.","postalCode":"91799","locality":"Langenaltheim","municipality":{"key":"09577148","name":"Langenaltheim","type":"Kreisangehörige_Gemeinde"},"district":{"key":"09577","name":"Weißenburg-Gunzenhausen","type":"Landkreis"},"federalState":{"key":"09","name":"Bayern"}},{"name":"Witzelgasse","postalCode":"91799","locality":"Langenaltheim","municipality":{"key":"09577148","name":"Langenaltheim","type":"Kreisangehörige_Gemeinde"},"district":{"key":"09577","name":"Weißenburg-Gunzenhausen","type":"Landkreis"},"federalState":{"key":"09","name":"Bayern"}},{"name":"Zähringen","postalCode":"89174","locality":"Altheim (Alb)","municipality":{"key":"08425005","name":"Altheim (Alb)","type":"Kreisangehörige_Gemeinde"},"district":{"key":"08425","name":"Alb-Donau-Kreis","type":"Landkreis"},"federalState":{"key":"08","name":"Baden-Württemberg"}},{"name":"Zähringer Weg","postalCode":"89174","locality":"Altheim (Alb)","municipality":{"key":"08425005","name":"Altheim (Alb)","type":"Kreisangehörige_Gemeinde"},"district":{"key":"08425","name":"Alb-Donau-Kreis","type":"Landkreis"},"federalState":{"key":"08","name":"Baden-Württemberg"}},{"name":"Zum Bärenloch","postalCode":"88499","locality":"Altheim","municipality":{"key":"08426008","name":"Altheim","type":"Kreisangehörige_Gemeinde"},"district":{"key":"08426","name":"Biberach","type":"Landkreis"},"federalState":{"key":"08","name":"Baden-Württemberg"}},{"name":"Zusambauerweg","postalCode":"86637","locality":"Zusamaltheim","municipality":{"key":"09773188","name":"Zusamaltheim","type":"Kreisangehörige_Gemeinde"},"district":{"key":"09773","name":"Dillingen a.d.Donau","type":"Landkreis"},"federalState":{"key":"09","name":"Bayern"}},{"name":"Öhmdwiesen","postalCode":"88499","locality":"Altheim","municipality":{"key":"08426008","name":"Altheim","type":"Kreisangehörige_Gemeinde"},"district":{"key":"08426","name":"Biberach","type":"Landkreis"},"federalState":{"key":"08","name":"Baden-Württemberg"}},{"name":"Österbergweg","postalCode":"88499","locality":"Altheim","municipality":{"key":"08426008","name":"Altheim","type":"Kreisangehörige_Gemeinde"},"district":{"key":"08426","name":"Biberach","type":"Landkreis"},"federalState":{"key":"08","name":"Baden-Württemberg"}},{"name":"Östlicher Postweg","postalCode":"91799","locality":"Langenaltheim","municipality":{"key":"09577148","name":"Langenaltheim","type":"Kreisangehörige_Gemeinde"},"district":{"key":"09577","name":"Weißenburg-Gunzenhausen","type":"Landkreis"},"federalState":{"key":"09","name":"Bayern"}},]