[{"name":"Ahornweg","postalCode":"47665","locality":"Sonsbeck","municipality":{"key":"05170040","name":"Sonsbeck","type":"Kreisangehörige_Gemeinde"},"district":{"key":"05170","name":"Wesel","type":"Kreis"},"federalState":{"key":"05","name":"Nordrhein-Westfalen"}},{"name":"Akazienstr.","postalCode":"47665","locality":"Sonsbeck","municipality":{"key":"05170040","name":"Sonsbeck","type":"Kreisangehörige_Gemeinde"},"district":{"key":"05170","name":"Wesel","type":"Kreis"},"federalState":{"key":"05","name":"Nordrhein-Westfalen"}},{"name":"Alde Stadtbleik","postalCode":"47665","locality":"Sonsbeck","municipality":{"key":"05170040","name":"Sonsbeck","type":"Kreisangehörige_Gemeinde"},"district":{"key":"05170","name":"Wesel","type":"Kreis"},"federalState":{"key":"05","name":"Nordrhein-Westfalen"}},{"name":"Alleenradweg","postalCode":"47665","locality":"Sonsbeck","municipality":{"key":"05170040","name":"Sonsbeck","type":"Kreisangehörige_Gemeinde"},"district":{"key":"05170","name":"Wesel","type":"Kreis"},"federalState":{"key":"05","name":"Nordrhein-Westfalen"}},{"name":"Alpener Str.","postalCode":"47665","locality":"Sonsbeck","municipality":{"key":"05170040","name":"Sonsbeck","type":"Kreisangehörige_Gemeinde"},"district":{"key":"05170","name":"Wesel","type":"Kreis"},"federalState":{"key":"05","name":"Nordrhein-Westfalen"}},{"name":"Am Boeltenschlag","postalCode":"47665","locality":"Sonsbeck","municipality":{"key":"05170040","name":"Sonsbeck","type":"Kreisangehörige_Gemeinde"},"district":{"key":"05170","name":"Wesel","type":"Kreis"},"federalState":{"key":"05","name":"Nordrhein-Westfalen"}},{"name":"Am Haselbusch","postalCode":"47665","locality":"Sonsbeck","municipality":{"key":"05170040","name":"Sonsbeck","type":"Kreisangehörige_Gemeinde"},"district":{"key":"05170","name":"Wesel","type":"Kreis"},"federalState":{"key":"05","name":"Nordrhein-Westfalen"}},{"name":"Am Hasenacker","postalCode":"47665","locality":"Sonsbeck","municipality":{"key":"05170040","name":"Sonsbeck","type":"Kreisangehörige_Gemeinde"},"district":{"key":"05170","name":"Wesel","type":"Kreis"},"federalState":{"key":"05","name":"Nordrhein-Westfalen"}},{"name":"Am Hülshof","postalCode":"47665","locality":"Sonsbeck","municipality":{"key":"05170040","name":"Sonsbeck","type":"Kreisangehörige_Gemeinde"},"district":{"key":"05170","name":"Wesel","type":"Kreis"},"federalState":{"key":"05","name":"Nordrhein-Westfalen"}},{"name":"Am Löwenberg","postalCode":"47665","locality":"Sonsbeck","municipality":{"key":"05170040","name":"Sonsbeck","type":"Kreisangehörige_Gemeinde"},"district":{"key":"05170","name":"Wesel","type":"Kreis"},"federalState":{"key":"05","name":"Nordrhein-Westfalen"}},{"name":"Am Tüschenwald","postalCode":"47665","locality":"Sonsbeck","municipality":{"key":"05170040","name":"Sonsbeck","type":"Kreisangehörige_Gemeinde"},"district":{"key":"05170","name":"Wesel","type":"Kreis"},"federalState":{"key":"05","name":"Nordrhein-Westfalen"}},{"name":"An der Ley","postalCode":"47665","locality":"Sonsbeck","municipality":{"key":"05170040","name":"Sonsbeck","type":"Kreisangehörige_Gemeinde"},"district":{"key":"05170","name":"Wesel","type":"Kreis"},"federalState":{"key":"05","name":"Nordrhein-Westfalen"}},{"name":"An der Stau","postalCode":"47665","locality":"Sonsbeck","municipality":{"key":"05170040","name":"Sonsbeck","type":"Kreisangehörige_Gemeinde"},"district":{"key":"05170","name":"Wesel","type":"Kreis"},"federalState":{"key":"05","name":"Nordrhein-Westfalen"}},{"name":"An Sangskath","postalCode":"47665","locality":"Sonsbeck","municipality":{"key":"05170040","name":"Sonsbeck","type":"Kreisangehörige_Gemeinde"},"district":{"key":"05170","name":"Wesel","type":"Kreis"},"federalState":{"key":"05","name":"Nordrhein-Westfalen"}},{"name":"Antoniusstr.","postalCode":"47665","locality":"Sonsbeck","municipality":{"key":"05170040","name":"Sonsbeck","type":"Kreisangehörige_Gemeinde"},"district":{"key":"05170","name":"Wesel","type":"Kreis"},"federalState":{"key":"05","name":"Nordrhein-Westfalen"}},{"name":"Auf der Mauer","postalCode":"47665","locality":"Sonsbeck","municipality":{"key":"05170040","name":"Sonsbeck","type":"Kreisangehörige_Gemeinde"},"district":{"key":"05170","name":"Wesel","type":"Kreis"},"federalState":{"key":"05","name":"Nordrhein-Westfalen"}},{"name":"Balberger Str.","postalCode":"47665","locality":"Sonsbeck","municipality":{"key":"05170040","name":"Sonsbeck","type":"Kreisangehörige_Gemeinde"},"district":{"key":"05170","name":"Wesel","type":"Kreis"},"federalState":{"key":"05","name":"Nordrhein-Westfalen"}},{"name":"Bergweg","postalCode":"47665","locality":"Sonsbeck","municipality":{"key":"05170040","name":"Sonsbeck","type":"Kreisangehörige_Gemeinde"},"district":{"key":"05170","name":"Wesel","type":"Kreis"},"federalState":{"key":"05","name":"Nordrhein-Westfalen"}},{"name":"Bernholter Str.","postalCode":"47665","locality":"Sonsbeck","municipality":{"key":"05170040","name":"Sonsbeck","type":"Kreisangehörige_Gemeinde"},"district":{"key":"05170","name":"Wesel","type":"Kreis"},"federalState":{"key":"05","name":"Nordrhein-Westfalen"}},{"name":"Biesenbruch","postalCode":"47665","locality":"Sonsbeck","municipality":{"key":"05170040","name":"Sonsbeck","type":"Kreisangehörige_Gemeinde"},"district":{"key":"05170","name":"Wesel","type":"Kreis"},"federalState":{"key":"05","name":"Nordrhein-Westfalen"}},{"name":"Birkenweg","postalCode":"47665","locality":"Sonsbeck","municipality":{"key":"05170040","name":"Sonsbeck","type":"Kreisangehörige_Gemeinde"},"district":{"key":"05170","name":"Wesel","type":"Kreis"},"federalState":{"key":"05","name":"Nordrhein-Westfalen"}},{"name":"Blatehof","postalCode":"47665","locality":"Sonsbeck","municipality":{"key":"05170040","name":"Sonsbeck","type":"Kreisangehörige_Gemeinde"},"district":{"key":"05170","name":"Wesel","type":"Kreis"},"federalState":{"key":"05","name":"Nordrhein-Westfalen"}},{"name":"Blumenfeld","postalCode":"47665","locality":"Sonsbeck","municipality":{"key":"05170040","name":"Sonsbeck","type":"Kreisangehörige_Gemeinde"},"district":{"key":"05170","name":"Wesel","type":"Kreis"},"federalState":{"key":"05","name":"Nordrhein-Westfalen"}},{"name":"Bögelscher Weg","postalCode":"47665","locality":"Sonsbeck","municipality":{"key":"05170040","name":"Sonsbeck","type":"Kreisangehörige_Gemeinde"},"district":{"key":"05170","name":"Wesel","type":"Kreis"},"federalState":{"key":"05","name":"Nordrhein-Westfalen"}},{"name":"Braemweg","postalCode":"47665","locality":"Sonsbeck","municipality":{"key":"05170040","name":"Sonsbeck","type":"Kreisangehörige_Gemeinde"},"district":{"key":"05170","name":"Wesel","type":"Kreis"},"federalState":{"key":"05","name":"Nordrhein-Westfalen"}},{"name":"Bremmerfeld","postalCode":"47665","locality":"Sonsbeck","municipality":{"key":"05170040","name":"Sonsbeck","type":"Kreisangehörige_Gemeinde"},"district":{"key":"05170","name":"Wesel","type":"Kreis"},"federalState":{"key":"05","name":"Nordrhein-Westfalen"}},{"name":"Breslauer Str.","postalCode":"47665","locality":"Sonsbeck","municipality":{"key":"05170040","name":"Sonsbeck","type":"Kreisangehörige_Gemeinde"},"district":{"key":"05170","name":"Wesel","type":"Kreis"},"federalState":{"key":"05","name":"Nordrhein-Westfalen"}},{"name":"Bruchheideweg","postalCode":"47665","locality":"Sonsbeck","municipality":{"key":"05170040","name":"Sonsbeck","type":"Kreisangehörige_Gemeinde"},"district":{"key":"05170","name":"Wesel","type":"Kreis"},"federalState":{"key":"05","name":"Nordrhein-Westfalen"}},{"name":"Buchenweg","postalCode":"47665","locality":"Sonsbeck","municipality":{"key":"05170040","name":"Sonsbeck","type":"Kreisangehörige_Gemeinde"},"district":{"key":"05170","name":"Wesel","type":"Kreis"},"federalState":{"key":"05","name":"Nordrhein-Westfalen"}},{"name":"Burgstr.","postalCode":"47665","locality":"Sonsbeck","municipality":{"key":"05170040","name":"Sonsbeck","type":"Kreisangehörige_Gemeinde"},"district":{"key":"05170","name":"Wesel","type":"Kreis"},"federalState":{"key":"05","name":"Nordrhein-Westfalen"}},{"name":"Chemnitzer Str.","postalCode":"47665","locality":"Sonsbeck","municipality":{"key":"05170040","name":"Sonsbeck","type":"Kreisangehörige_Gemeinde"},"district":{"key":"05170","name":"Wesel","type":"Kreis"},"federalState":{"key":"05","name":"Nordrhein-Westfalen"}},{"name":"Copray","postalCode":"47665","locality":"Sonsbeck","municipality":{"key":"05170040","name":"Sonsbeck","type":"Kreisangehörige_Gemeinde"},"district":{"key":"05170","name":"Wesel","type":"Kreis"},"federalState":{"key":"05","name":"Nordrhein-Westfalen"}},{"name":"Danziger Str.","postalCode":"47665","locality":"Sonsbeck","municipality":{"key":"05170040","name":"Sonsbeck","type":"Kreisangehörige_Gemeinde"},"district":{"key":"05170","name":"Wesel","type":"Kreis"},"federalState":{"key":"05","name":"Nordrhein-Westfalen"}},{"name":"Dassendaler Weg","postalCode":"47665","locality":"Sonsbeck","municipality":{"key":"05170040","name":"Sonsbeck","type":"Kreisangehörige_Gemeinde"},"district":{"key":"05170","name":"Wesel","type":"Kreis"},"federalState":{"key":"05","name":"Nordrhein-Westfalen"}},{"name":"Dominicus Hacks Weg","postalCode":"47665","locality":"Sonsbeck","municipality":{"key":"05170040","name":"Sonsbeck","type":"Kreisangehörige_Gemeinde"},"district":{"key":"05170","name":"Wesel","type":"Kreis"},"federalState":{"key":"05","name":"Nordrhein-Westfalen"}},{"name":"Dorfteich","postalCode":"47665","locality":"Sonsbeck","municipality":{"key":"05170040","name":"Sonsbeck","type":"Kreisangehörige_Gemeinde"},"district":{"key":"05170","name":"Wesel","type":"Kreis"},"federalState":{"key":"05","name":"Nordrhein-Westfalen"}},{"name":"Dresdener Str.","postalCode":"47665","locality":"Sonsbeck","municipality":{"key":"05170040","name":"Sonsbeck","type":"Kreisangehörige_Gemeinde"},"district":{"key":"05170","name":"Wesel","type":"Kreis"},"federalState":{"key":"05","name":"Nordrhein-Westfalen"}},{"name":"Eichenstr.","postalCode":"47665","locality":"Sonsbeck","municipality":{"key":"05170040","name":"Sonsbeck","type":"Kreisangehörige_Gemeinde"},"district":{"key":"05170","name":"Wesel","type":"Kreis"},"federalState":{"key":"05","name":"Nordrhein-Westfalen"}},{"name":"Erlenstr.","postalCode":"47665","locality":"Sonsbeck","municipality":{"key":"05170040","name":"Sonsbeck","type":"Kreisangehörige_Gemeinde"},"district":{"key":"05170","name":"Wesel","type":"Kreis"},"federalState":{"key":"05","name":"Nordrhein-Westfalen"}},{"name":"Erzhufe","postalCode":"47665","locality":"Sonsbeck","municipality":{"key":"05170040","name":"Sonsbeck","type":"Kreisangehörige_Gemeinde"},"district":{"key":"05170","name":"Wesel","type":"Kreis"},"federalState":{"key":"05","name":"Nordrhein-Westfalen"}},{"name":"Espenweg","postalCode":"47665","locality":"Sonsbeck","municipality":{"key":"05170040","name":"Sonsbeck","type":"Kreisangehörige_Gemeinde"},"district":{"key":"05170","name":"Wesel","type":"Kreis"},"federalState":{"key":"05","name":"Nordrhein-Westfalen"}},{"name":"Fasanenstr.","postalCode":"47665","locality":"Sonsbeck","municipality":{"key":"05170040","name":"Sonsbeck","type":"Kreisangehörige_Gemeinde"},"district":{"key":"05170","name":"Wesel","type":"Kreis"},"federalState":{"key":"05","name":"Nordrhein-Westfalen"}},{"name":"Filderstr.","postalCode":"47665","locality":"Sonsbeck","municipality":{"key":"05170040","name":"Sonsbeck","type":"Kreisangehörige_Gemeinde"},"district":{"key":"05170","name":"Wesel","type":"Kreis"},"federalState":{"key":"05","name":"Nordrhein-Westfalen"}},{"name":"Findlingsweg","postalCode":"47665","locality":"Sonsbeck","municipality":{"key":"05170040","name":"Sonsbeck","type":"Kreisangehörige_Gemeinde"},"district":{"key":"05170","name":"Wesel","type":"Kreis"},"federalState":{"key":"05","name":"Nordrhein-Westfalen"}},{"name":"Frankenorthstr.","postalCode":"47665","locality":"Sonsbeck","municipality":{"key":"05170040","name":"Sonsbeck","type":"Kreisangehörige_Gemeinde"},"district":{"key":"05170","name":"Wesel","type":"Kreis"},"federalState":{"key":"05","name":"Nordrhein-Westfalen"}},{"name":"Gartenstr.","postalCode":"47665","locality":"Sonsbeck","municipality":{"key":"05170040","name":"Sonsbeck","type":"Kreisangehörige_Gemeinde"},"district":{"key":"05170","name":"Wesel","type":"Kreis"},"federalState":{"key":"05","name":"Nordrhein-Westfalen"}},{"name":"Gelderner Str.","postalCode":"47665","locality":"Sonsbeck","municipality":{"key":"05170040","name":"Sonsbeck","type":"Kreisangehörige_Gemeinde"},"district":{"key":"05170","name":"Wesel","type":"Kreis"},"federalState":{"key":"05","name":"Nordrhein-Westfalen"}},{"name":"Gietsche Weg","postalCode":"47665","locality":"Sonsbeck","municipality":{"key":"05170040","name":"Sonsbeck","type":"Kreisangehörige_Gemeinde"},"district":{"key":"05170","name":"Wesel","type":"Kreis"},"federalState":{"key":"05","name":"Nordrhein-Westfalen"}},{"name":"Gildestr.","postalCode":"47665","locality":"Sonsbeck","municipality":{"key":"05170040","name":"Sonsbeck","type":"Kreisangehörige_Gemeinde"},"district":{"key":"05170","name":"Wesel","type":"Kreis"},"federalState":{"key":"05","name":"Nordrhein-Westfalen"}},{"name":"Gossensdeich","postalCode":"47665","locality":"Sonsbeck","municipality":{"key":"05170040","name":"Sonsbeck","type":"Kreisangehörige_Gemeinde"},"district":{"key":"05170","name":"Wesel","type":"Kreis"},"federalState":{"key":"05","name":"Nordrhein-Westfalen"}},{"name":"Grabenweg","postalCode":"47665","locality":"Sonsbeck","municipality":{"key":"05170040","name":"Sonsbeck","type":"Kreisangehörige_Gemeinde"},"district":{"key":"05170","name":"Wesel","type":"Kreis"},"federalState":{"key":"05","name":"Nordrhein-Westfalen"}},{"name":"Graf-Haeseler-Weg","postalCode":"47665","locality":"Sonsbeck","municipality":{"key":"05170040","name":"Sonsbeck","type":"Kreisangehörige_Gemeinde"},"district":{"key":"05170","name":"Wesel","type":"Kreis"},"federalState":{"key":"05","name":"Nordrhein-Westfalen"}},{"name":"Grenzdyck","postalCode":"47665","locality":"Sonsbeck","municipality":{"key":"05170040","name":"Sonsbeck","type":"Kreisangehörige_Gemeinde"},"district":{"key":"05170","name":"Wesel","type":"Kreis"},"federalState":{"key":"05","name":"Nordrhein-Westfalen"}},{"name":"Grenzdycker Str.","postalCode":"47665","locality":"Sonsbeck","municipality":{"key":"05170040","name":"Sonsbeck","type":"Kreisangehörige_Gemeinde"},"district":{"key":"05170","name":"Wesel","type":"Kreis"},"federalState":{"key":"05","name":"Nordrhein-Westfalen"}},{"name":"Grootensweg","postalCode":"47665","locality":"Sonsbeck","municipality":{"key":"05170040","name":"Sonsbeck","type":"Kreisangehörige_Gemeinde"},"district":{"key":"05170","name":"Wesel","type":"Kreis"},"federalState":{"key":"05","name":"Nordrhein-Westfalen"}},{"name":"Grüner Weg","postalCode":"47665","locality":"Sonsbeck","municipality":{"key":"05170040","name":"Sonsbeck","type":"Kreisangehörige_Gemeinde"},"district":{"key":"05170","name":"Wesel","type":"Kreis"},"federalState":{"key":"05","name":"Nordrhein-Westfalen"}},{"name":"Grüne Str.","postalCode":"47665","locality":"Sonsbeck","municipality":{"key":"05170040","name":"Sonsbeck","type":"Kreisangehörige_Gemeinde"},"district":{"key":"05170","name":"Wesel","type":"Kreis"},"federalState":{"key":"05","name":"Nordrhein-Westfalen"}},{"name":"Haagsche Str.","postalCode":"47665","locality":"Sonsbeck","municipality":{"key":"05170040","name":"Sonsbeck","type":"Kreisangehörige_Gemeinde"},"district":{"key":"05170","name":"Wesel","type":"Kreis"},"federalState":{"key":"05","name":"Nordrhein-Westfalen"}},{"name":"Hainbuchenweg","postalCode":"47665","locality":"Sonsbeck","municipality":{"key":"05170040","name":"Sonsbeck","type":"Kreisangehörige_Gemeinde"},"district":{"key":"05170","name":"Wesel","type":"Kreis"},"federalState":{"key":"05","name":"Nordrhein-Westfalen"}},{"name":"Hamber Dyck","postalCode":"47665","locality":"Sonsbeck","municipality":{"key":"05170040","name":"Sonsbeck","type":"Kreisangehörige_Gemeinde"},"district":{"key":"05170","name":"Wesel","type":"Kreis"},"federalState":{"key":"05","name":"Nordrhein-Westfalen"}},{"name":"Hamber Str.","postalCode":"47665","locality":"Sonsbeck","municipality":{"key":"05170040","name":"Sonsbeck","type":"Kreisangehörige_Gemeinde"},"district":{"key":"05170","name":"Wesel","type":"Kreis"},"federalState":{"key":"05","name":"Nordrhein-Westfalen"}},{"name":"Hammerbruch","postalCode":"47665","locality":"Sonsbeck","municipality":{"key":"05170040","name":"Sonsbeck","type":"Kreisangehörige_Gemeinde"},"district":{"key":"05170","name":"Wesel","type":"Kreis"},"federalState":{"key":"05","name":"Nordrhein-Westfalen"}},{"name":"Hammerstr.","postalCode":"47665","locality":"Sonsbeck","municipality":{"key":"05170040","name":"Sonsbeck","type":"Kreisangehörige_Gemeinde"},"district":{"key":"05170","name":"Wesel","type":"Kreis"},"federalState":{"key":"05","name":"Nordrhein-Westfalen"}},{"name":"Handweiser","postalCode":"47665","locality":"Sonsbeck","municipality":{"key":"05170040","name":"Sonsbeck","type":"Kreisangehörige_Gemeinde"},"district":{"key":"05170","name":"Wesel","type":"Kreis"},"federalState":{"key":"05","name":"Nordrhein-Westfalen"}},{"name":"Heideweg","postalCode":"47665","locality":"Sonsbeck","municipality":{"key":"05170040","name":"Sonsbeck","type":"Kreisangehörige_Gemeinde"},"district":{"key":"05170","name":"Wesel","type":"Kreis"},"federalState":{"key":"05","name":"Nordrhein-Westfalen"}},{"name":"Hermesweg","postalCode":"47665","locality":"Sonsbeck","municipality":{"key":"05170040","name":"Sonsbeck","type":"Kreisangehörige_Gemeinde"},"district":{"key":"05170","name":"Wesel","type":"Kreis"},"federalState":{"key":"05","name":"Nordrhein-Westfalen"}},{"name":"Herrenstr.","postalCode":"47665","locality":"Sonsbeck","municipality":{"key":"05170040","name":"Sonsbeck","type":"Kreisangehörige_Gemeinde"},"district":{"key":"05170","name":"Wesel","type":"Kreis"},"federalState":{"key":"05","name":"Nordrhein-Westfalen"}},{"name":"Herzogstr.","postalCode":"47665","locality":"Sonsbeck","municipality":{"key":"05170040","name":"Sonsbeck","type":"Kreisangehörige_Gemeinde"},"district":{"key":"05170","name":"Wesel","type":"Kreis"},"federalState":{"key":"05","name":"Nordrhein-Westfalen"}},{"name":"Hochstr.","postalCode":"47665","locality":"Sonsbeck","municipality":{"key":"05170040","name":"Sonsbeck","type":"Kreisangehörige_Gemeinde"},"district":{"key":"05170","name":"Wesel","type":"Kreis"},"federalState":{"key":"05","name":"Nordrhein-Westfalen"}},{"name":"Hohe Heide","postalCode":"47665","locality":"Sonsbeck","municipality":{"key":"05170040","name":"Sonsbeck","type":"Kreisangehörige_Gemeinde"},"district":{"key":"05170","name":"Wesel","type":"Kreis"},"federalState":{"key":"05","name":"Nordrhein-Westfalen"}},{"name":"Holländische Str.","postalCode":"47665","locality":"Sonsbeck","municipality":{"key":"05170040","name":"Sonsbeck","type":"Kreisangehörige_Gemeinde"},"district":{"key":"05170","name":"Wesel","type":"Kreis"},"federalState":{"key":"05","name":"Nordrhein-Westfalen"}},{"name":"Hoppekatsweg","postalCode":"47665","locality":"Sonsbeck","municipality":{"key":"05170040","name":"Sonsbeck","type":"Kreisangehörige_Gemeinde"},"district":{"key":"05170","name":"Wesel","type":"Kreis"},"federalState":{"key":"05","name":"Nordrhein-Westfalen"}},{"name":"Hubertusweg","postalCode":"47665","locality":"Sonsbeck","municipality":{"key":"05170040","name":"Sonsbeck","type":"Kreisangehörige_Gemeinde"},"district":{"key":"05170","name":"Wesel","type":"Kreis"},"federalState":{"key":"05","name":"Nordrhein-Westfalen"}},{"name":"Hufschmiedskamp","postalCode":"47665","locality":"Sonsbeck","municipality":{"key":"05170040","name":"Sonsbeck","type":"Kreisangehörige_Gemeinde"},"district":{"key":"05170","name":"Wesel","type":"Kreis"},"federalState":{"key":"05","name":"Nordrhein-Westfalen"}},{"name":"Hülsstr.","postalCode":"47665","locality":"Sonsbeck","municipality":{"key":"05170040","name":"Sonsbeck","type":"Kreisangehörige_Gemeinde"},"district":{"key":"05170","name":"Wesel","type":"Kreis"},"federalState":{"key":"05","name":"Nordrhein-Westfalen"}},{"name":"Hunnenbarths Weg","postalCode":"47665","locality":"Sonsbeck","municipality":{"key":"05170040","name":"Sonsbeck","type":"Kreisangehörige_Gemeinde"},"district":{"key":"05170","name":"Wesel","type":"Kreis"},"federalState":{"key":"05","name":"Nordrhein-Westfalen"}},{"name":"In den Brüchen","postalCode":"47665","locality":"Sonsbeck","municipality":{"key":"05170040","name":"Sonsbeck","type":"Kreisangehörige_Gemeinde"},"district":{"key":"05170","name":"Wesel","type":"Kreis"},"federalState":{"key":"05","name":"Nordrhein-Westfalen"}},{"name":"In der Huf","postalCode":"47665","locality":"Sonsbeck","municipality":{"key":"05170040","name":"Sonsbeck","type":"Kreisangehörige_Gemeinde"},"district":{"key":"05170","name":"Wesel","type":"Kreis"},"federalState":{"key":"05","name":"Nordrhein-Westfalen"}},{"name":"Jahnstr.","postalCode":"46485","locality":"Wesel","municipality":{"key":"05170048","name":"Wesel, Stadt","type":"Stadt"},"district":{"key":"05170","name":"Wesel","type":"Kreis"},"federalState":{"key":"05","name":"Nordrhein-Westfalen"}},{"name":"Jan-Joest-Weg","postalCode":"46483","locality":"Wesel","municipality":{"key":"05170048","name":"Wesel, Stadt","type":"Stadt"},"district":{"key":"05170","name":"Wesel","type":"Kreis"},"federalState":{"key":"05","name":"Nordrhein-Westfalen"}},{"name":"Jasminweg","postalCode":"46487","locality":"Wesel","municipality":{"key":"05170048","name":"Wesel, Stadt","type":"Stadt"},"district":{"key":"05170","name":"Wesel","type":"Kreis"},"federalState":{"key":"05","name":"Nordrhein-Westfalen"}},{"name":"Jean-Groos-Weg","postalCode":"46485","locality":"Wesel","municipality":{"key":"05170048","name":"Wesel, Stadt","type":"Stadt"},"district":{"key":"05170","name":"Wesel","type":"Kreis"},"federalState":{"key":"05","name":"Nordrhein-Westfalen"}},{"name":"Johannisstr.","postalCode":"46483","locality":"Wesel","municipality":{"key":"05170048","name":"Wesel, Stadt","type":"Stadt"},"district":{"key":"05170","name":"Wesel","type":"Kreis"},"federalState":{"key":"05","name":"Nordrhein-Westfalen"}},{"name":"Johann-Sigismund-Str.","postalCode":"46483","locality":"Wesel","municipality":{"key":"05170048","name":"Wesel, Stadt","type":"Stadt"},"district":{"key":"05170","name":"Wesel","type":"Kreis"},"federalState":{"key":"05","name":"Nordrhein-Westfalen"}},{"name":"Jorissenstege","postalCode":"46485","locality":"Wesel","municipality":{"key":"05170048","name":"Wesel, Stadt","type":"Stadt"},"district":{"key":"05170","name":"Wesel","type":"Kreis"},"federalState":{"key":"05","name":"Nordrhein-Westfalen"}},{"name":"Jülicher Str.","postalCode":"46483","locality":"Wesel","municipality":{"key":"05170048","name":"Wesel, Stadt","type":"Stadt"},"district":{"key":"05170","name":"Wesel","type":"Kreis"},"federalState":{"key":"05","name":"Nordrhein-Westfalen"}},{"name":"Julius-Leber-Str.","postalCode":"46485","locality":"Wesel","municipality":{"key":"05170048","name":"Wesel, Stadt","type":"Stadt"},"district":{"key":"05170","name":"Wesel","type":"Kreis"},"federalState":{"key":"05","name":"Nordrhein-Westfalen"}},{"name":"Julius-Niehues-Str.","postalCode":"46485","locality":"Wesel","municipality":{"key":"05170048","name":"Wesel, Stadt","type":"Stadt"},"district":{"key":"05170","name":"Wesel","type":"Kreis"},"federalState":{"key":"05","name":"Nordrhein-Westfalen"}},{"name":"Jupiterstr.","postalCode":"46487","locality":"Wesel","municipality":{"key":"05170048","name":"Wesel, Stadt","type":"Stadt"},"district":{"key":"05170","name":"Wesel","type":"Kreis"},"federalState":{"key":"05","name":"Nordrhein-Westfalen"}},{"name":"Kaempgenweg","postalCode":"47665","locality":"Sonsbeck","municipality":{"key":"05170040","name":"Sonsbeck","type":"Kreisangehörige_Gemeinde"},"district":{"key":"05170","name":"Wesel","type":"Kreis"},"federalState":{"key":"05","name":"Nordrhein-Westfalen"}},{"name":"Kapellensteg","postalCode":"47665","locality":"Sonsbeck","municipality":{"key":"05170040","name":"Sonsbeck","type":"Kreisangehörige_Gemeinde"},"district":{"key":"05170","name":"Wesel","type":"Kreis"},"federalState":{"key":"05","name":"Nordrhein-Westfalen"}},{"name":"Karnickelweg","postalCode":"47665","locality":"Sonsbeck","municipality":{"key":"05170040","name":"Sonsbeck","type":"Kreisangehörige_Gemeinde"},"district":{"key":"05170","name":"Wesel","type":"Kreis"},"federalState":{"key":"05","name":"Nordrhein-Westfalen"}},{"name":"Kastellstr.","postalCode":"47665","locality":"Sonsbeck","municipality":{"key":"05170040","name":"Sonsbeck","type":"Kreisangehörige_Gemeinde"},"district":{"key":"05170","name":"Wesel","type":"Kreis"},"federalState":{"key":"05","name":"Nordrhein-Westfalen"}},{"name":"Kevelaerer Str.","postalCode":"47665","locality":"Sonsbeck","municipality":{"key":"05170040","name":"Sonsbeck","type":"Kreisangehörige_Gemeinde"},"district":{"key":"05170","name":"Wesel","type":"Kreis"},"federalState":{"key":"05","name":"Nordrhein-Westfalen"}},{"name":"Kiefernweg","postalCode":"47665","locality":"Sonsbeck","municipality":{"key":"05170040","name":"Sonsbeck","type":"Kreisangehörige_Gemeinde"},"district":{"key":"05170","name":"Wesel","type":"Kreis"},"federalState":{"key":"05","name":"Nordrhein-Westfalen"}},{"name":"Kirchstr.","postalCode":"47665","locality":"Sonsbeck","municipality":{"key":"05170040","name":"Sonsbeck","type":"Kreisangehörige_Gemeinde"},"district":{"key":"05170","name":"Wesel","type":"Kreis"},"federalState":{"key":"05","name":"Nordrhein-Westfalen"}},{"name":"Kiwittweg","postalCode":"47665","locality":"Sonsbeck","municipality":{"key":"05170040","name":"Sonsbeck","type":"Kreisangehörige_Gemeinde"},"district":{"key":"05170","name":"Wesel","type":"Kreis"},"federalState":{"key":"05","name":"Nordrhein-Westfalen"}},{"name":"Klosterstr.","postalCode":"47665","locality":"Sonsbeck","municipality":{"key":"05170040","name":"Sonsbeck","type":"Kreisangehörige_Gemeinde"},"district":{"key":"05170","name":"Wesel","type":"Kreis"},"federalState":{"key":"05","name":"Nordrhein-Westfalen"}},{"name":"Köppenfeld","postalCode":"47665","locality":"Sonsbeck","municipality":{"key":"05170040","name":"Sonsbeck","type":"Kreisangehörige_Gemeinde"},"district":{"key":"05170","name":"Wesel","type":"Kreis"},"federalState":{"key":"05","name":"Nordrhein-Westfalen"}},{"name":"Köppen Kerkpädch","postalCode":"47665","locality":"Sonsbeck","municipality":{"key":"05170040","name":"Sonsbeck","type":"Kreisangehörige_Gemeinde"},"district":{"key":"05170","name":"Wesel","type":"Kreis"},"federalState":{"key":"05","name":"Nordrhein-Westfalen"}},{"name":"Kornfeld","postalCode":"47665","locality":"Sonsbeck","municipality":{"key":"05170040","name":"Sonsbeck","type":"Kreisangehörige_Gemeinde"},"district":{"key":"05170","name":"Wesel","type":"Kreis"},"federalState":{"key":"05","name":"Nordrhein-Westfalen"}},{"name":"Landdrostsche Huf","postalCode":"47665","locality":"Sonsbeck","municipality":{"key":"05170040","name":"Sonsbeck","type":"Kreisangehörige_Gemeinde"},"district":{"key":"05170","name":"Wesel","type":"Kreis"},"federalState":{"key":"05","name":"Nordrhein-Westfalen"}},{"name":"Langebend","postalCode":"47665","locality":"Sonsbeck","municipality":{"key":"05170040","name":"Sonsbeck","type":"Kreisangehörige_Gemeinde"},"district":{"key":"05170","name":"Wesel","type":"Kreis"},"federalState":{"key":"05","name":"Nordrhein-Westfalen"}},{"name":"Leipziger Str.","postalCode":"47665","locality":"Sonsbeck","municipality":{"key":"05170040","name":"Sonsbeck","type":"Kreisangehörige_Gemeinde"},"district":{"key":"05170","name":"Wesel","type":"Kreis"},"federalState":{"key":"05","name":"Nordrhein-Westfalen"}},{"name":"Leypäche","postalCode":"47665","locality":"Sonsbeck","municipality":{"key":"05170040","name":"Sonsbeck","type":"Kreisangehörige_Gemeinde"},"district":{"key":"05170","name":"Wesel","type":"Kreis"},"federalState":{"key":"05","name":"Nordrhein-Westfalen"}},{"name":"Liekweg","postalCode":"47665","locality":"Sonsbeck","municipality":{"key":"05170040","name":"Sonsbeck","type":"Kreisangehörige_Gemeinde"},"district":{"key":"05170","name":"Wesel","type":"Kreis"},"federalState":{"key":"05","name":"Nordrhein-Westfalen"}},{"name":"Lindenstr.","postalCode":"47665","locality":"Sonsbeck","municipality":{"key":"05170040","name":"Sonsbeck","type":"Kreisangehörige_Gemeinde"},"district":{"key":"05170","name":"Wesel","type":"Kreis"},"federalState":{"key":"05","name":"Nordrhein-Westfalen"}},{"name":"Loewenkamp","postalCode":"47665","locality":"Sonsbeck","municipality":{"key":"05170040","name":"Sonsbeck","type":"Kreisangehörige_Gemeinde"},"district":{"key":"05170","name":"Wesel","type":"Kreis"},"federalState":{"key":"05","name":"Nordrhein-Westfalen"}},{"name":"Löwenfeld","postalCode":"47665","locality":"Sonsbeck","municipality":{"key":"05170040","name":"Sonsbeck","type":"Kreisangehörige_Gemeinde"},"district":{"key":"05170","name":"Wesel","type":"Kreis"},"federalState":{"key":"05","name":"Nordrhein-Westfalen"}},{"name":"Löwensteg","postalCode":"47665","locality":"Sonsbeck","municipality":{"key":"05170040","name":"Sonsbeck","type":"Kreisangehörige_Gemeinde"},"district":{"key":"05170","name":"Wesel","type":"Kreis"},"federalState":{"key":"05","name":"Nordrhein-Westfalen"}},{"name":"Marienbaumer Str.","postalCode":"47665","locality":"Sonsbeck","municipality":{"key":"05170040","name":"Sonsbeck","type":"Kreisangehörige_Gemeinde"},"district":{"key":"05170","name":"Wesel","type":"Kreis"},"federalState":{"key":"05","name":"Nordrhein-Westfalen"}},{"name":"Marktstr.","postalCode":"47665","locality":"Sonsbeck","municipality":{"key":"05170040","name":"Sonsbeck","type":"Kreisangehörige_Gemeinde"},"district":{"key":"05170","name":"Wesel","type":"Kreis"},"federalState":{"key":"05","name":"Nordrhein-Westfalen"}},{"name":"Meisenweg","postalCode":"47665","locality":"Sonsbeck","municipality":{"key":"05170040","name":"Sonsbeck","type":"Kreisangehörige_Gemeinde"},"district":{"key":"05170","name":"Wesel","type":"Kreis"},"federalState":{"key":"05","name":"Nordrhein-Westfalen"}},{"name":"Mergelstr.","postalCode":"47665","locality":"Sonsbeck","municipality":{"key":"05170040","name":"Sonsbeck","type":"Kreisangehörige_Gemeinde"},"district":{"key":"05170","name":"Wesel","type":"Kreis"},"federalState":{"key":"05","name":"Nordrhein-Westfalen"}},{"name":"Metzekathweg","postalCode":"47665","locality":"Sonsbeck","municipality":{"key":"05170040","name":"Sonsbeck","type":"Kreisangehörige_Gemeinde"},"district":{"key":"05170","name":"Wesel","type":"Kreis"},"federalState":{"key":"05","name":"Nordrhein-Westfalen"}},{"name":"Moränenweg","postalCode":"47665","locality":"Sonsbeck","municipality":{"key":"05170040","name":"Sonsbeck","type":"Kreisangehörige_Gemeinde"},"district":{"key":"05170","name":"Wesel","type":"Kreis"},"federalState":{"key":"05","name":"Nordrhein-Westfalen"}},{"name":"Mühlenfeld","postalCode":"47665","locality":"Sonsbeck","municipality":{"key":"05170040","name":"Sonsbeck","type":"Kreisangehörige_Gemeinde"},"district":{"key":"05170","name":"Wesel","type":"Kreis"},"federalState":{"key":"05","name":"Nordrhein-Westfalen"}},{"name":"Mühlensteg","postalCode":"47665","locality":"Sonsbeck","municipality":{"key":"05170040","name":"Sonsbeck","type":"Kreisangehörige_Gemeinde"},"district":{"key":"05170","name":"Wesel","type":"Kreis"},"federalState":{"key":"05","name":"Nordrhein-Westfalen"}},{"name":"Mühlenweg","postalCode":"47665","locality":"Sonsbeck","municipality":{"key":"05170040","name":"Sonsbeck","type":"Kreisangehörige_Gemeinde"},"district":{"key":"05170","name":"Wesel","type":"Kreis"},"federalState":{"key":"05","name":"Nordrhein-Westfalen"}},{"name":"Mühlenwinkel","postalCode":"47665","locality":"Sonsbeck","municipality":{"key":"05170040","name":"Sonsbeck","type":"Kreisangehörige_Gemeinde"},"district":{"key":"05170","name":"Wesel","type":"Kreis"},"federalState":{"key":"05","name":"Nordrhein-Westfalen"}},{"name":"Neerstr.","postalCode":"47665","locality":"Sonsbeck","municipality":{"key":"05170040","name":"Sonsbeck","type":"Kreisangehörige_Gemeinde"},"district":{"key":"05170","name":"Wesel","type":"Kreis"},"federalState":{"key":"05","name":"Nordrhein-Westfalen"}},{"name":"Neuelandweg","postalCode":"47665","locality":"Sonsbeck","municipality":{"key":"05170040","name":"Sonsbeck","type":"Kreisangehörige_Gemeinde"},"district":{"key":"05170","name":"Wesel","type":"Kreis"},"federalState":{"key":"05","name":"Nordrhein-Westfalen"}},{"name":"Oelgarten","postalCode":"47665","locality":"Sonsbeck","municipality":{"key":"05170040","name":"Sonsbeck","type":"Kreisangehörige_Gemeinde"},"district":{"key":"05170","name":"Wesel","type":"Kreis"},"federalState":{"key":"05","name":"Nordrhein-Westfalen"}},{"name":"Op et Klöster","postalCode":"47665","locality":"Sonsbeck","municipality":{"key":"05170040","name":"Sonsbeck","type":"Kreisangehörige_Gemeinde"},"district":{"key":"05170","name":"Wesel","type":"Kreis"},"federalState":{"key":"05","name":"Nordrhein-Westfalen"}},{"name":"Pachland","postalCode":"47665","locality":"Sonsbeck","municipality":{"key":"05170040","name":"Sonsbeck","type":"Kreisangehörige_Gemeinde"},"district":{"key":"05170","name":"Wesel","type":"Kreis"},"federalState":{"key":"05","name":"Nordrhein-Westfalen"}},{"name":"Pallandweg","postalCode":"47665","locality":"Sonsbeck","municipality":{"key":"05170040","name":"Sonsbeck","type":"Kreisangehörige_Gemeinde"},"district":{"key":"05170","name":"Wesel","type":"Kreis"},"federalState":{"key":"05","name":"Nordrhein-Westfalen"}},{"name":"Parkstr.","postalCode":"47665","locality":"Sonsbeck","municipality":{"key":"05170040","name":"Sonsbeck","type":"Kreisangehörige_Gemeinde"},"district":{"key":"05170","name":"Wesel","type":"Kreis"},"federalState":{"key":"05","name":"Nordrhein-Westfalen"}},{"name":"Pauendyck","postalCode":"47665","locality":"Sonsbeck","municipality":{"key":"05170040","name":"Sonsbeck","type":"Kreisangehörige_Gemeinde"},"district":{"key":"05170","name":"Wesel","type":"Kreis"},"federalState":{"key":"05","name":"Nordrhein-Westfalen"}},{"name":"Pirloer Heideweg","postalCode":"47665","locality":"Sonsbeck","municipality":{"key":"05170040","name":"Sonsbeck","type":"Kreisangehörige_Gemeinde"},"district":{"key":"05170","name":"Wesel","type":"Kreis"},"federalState":{"key":"05","name":"Nordrhein-Westfalen"}},{"name":"Plooweg","postalCode":"47665","locality":"Sonsbeck","municipality":{"key":"05170040","name":"Sonsbeck","type":"Kreisangehörige_Gemeinde"},"district":{"key":"05170","name":"Wesel","type":"Kreis"},"federalState":{"key":"05","name":"Nordrhein-Westfalen"}},{"name":"Prostekath","postalCode":"47665","locality":"Sonsbeck","municipality":{"key":"05170040","name":"Sonsbeck","type":"Kreisangehörige_Gemeinde"},"district":{"key":"05170","name":"Wesel","type":"Kreis"},"federalState":{"key":"05","name":"Nordrhein-Westfalen"}},{"name":"Quadenweg","postalCode":"46485","locality":"Wesel","municipality":{"key":"05170048","name":"Wesel, Stadt","type":"Stadt"},"district":{"key":"05170","name":"Wesel","type":"Kreis"},"federalState":{"key":"05","name":"Nordrhein-Westfalen"}},{"name":"Querstr.","postalCode":"46487","locality":"Wesel","municipality":{"key":"05170048","name":"Wesel, Stadt","type":"Stadt"},"district":{"key":"05170","name":"Wesel","type":"Kreis"},"federalState":{"key":"05","name":"Nordrhein-Westfalen"}},{"name":"Raiffeisenstr.","postalCode":"47665","locality":"Sonsbeck","municipality":{"key":"05170040","name":"Sonsbeck","type":"Kreisangehörige_Gemeinde"},"district":{"key":"05170","name":"Wesel","type":"Kreis"},"federalState":{"key":"05","name":"Nordrhein-Westfalen"}},{"name":"Raysebruch","postalCode":"47665","locality":"Sonsbeck","municipality":{"key":"05170040","name":"Sonsbeck","type":"Kreisangehörige_Gemeinde"},"district":{"key":"05170","name":"Wesel","type":"Kreis"},"federalState":{"key":"05","name":"Nordrhein-Westfalen"}},{"name":"Reichswaldstr.","postalCode":"47665","locality":"Sonsbeck","municipality":{"key":"05170040","name":"Sonsbeck","type":"Kreisangehörige_Gemeinde"},"district":{"key":"05170","name":"Wesel","type":"Kreis"},"federalState":{"key":"05","name":"Nordrhein-Westfalen"}},{"name":"Reiherstr.","postalCode":"47665","locality":"Sonsbeck","municipality":{"key":"05170040","name":"Sonsbeck","type":"Kreisangehörige_Gemeinde"},"district":{"key":"05170","name":"Wesel","type":"Kreis"},"federalState":{"key":"05","name":"Nordrhein-Westfalen"}},{"name":"Rodekampsweg","postalCode":"47665","locality":"Sonsbeck","municipality":{"key":"05170040","name":"Sonsbeck","type":"Kreisangehörige_Gemeinde"},"district":{"key":"05170","name":"Wesel","type":"Kreis"},"federalState":{"key":"05","name":"Nordrhein-Westfalen"}},{"name":"Rosenbogen","postalCode":"47665","locality":"Sonsbeck","municipality":{"key":"05170040","name":"Sonsbeck","type":"Kreisangehörige_Gemeinde"},"district":{"key":"05170","name":"Wesel","type":"Kreis"},"federalState":{"key":"05","name":"Nordrhein-Westfalen"}},{"name":"Rostocker Str.","postalCode":"47665","locality":"Sonsbeck","municipality":{"key":"05170040","name":"Sonsbeck","type":"Kreisangehörige_Gemeinde"},"district":{"key":"05170","name":"Wesel","type":"Kreis"},"federalState":{"key":"05","name":"Nordrhein-Westfalen"}},{"name":"Rübstück","postalCode":"47665","locality":"Sonsbeck","municipality":{"key":"05170040","name":"Sonsbeck","type":"Kreisangehörige_Gemeinde"},"district":{"key":"05170","name":"Wesel","type":"Kreis"},"federalState":{"key":"05","name":"Nordrhein-Westfalen"}},{"name":"Schlehenweg","postalCode":"47665","locality":"Sonsbeck","municipality":{"key":"05170040","name":"Sonsbeck","type":"Kreisangehörige_Gemeinde"},"district":{"key":"05170","name":"Wesel","type":"Kreis"},"federalState":{"key":"05","name":"Nordrhein-Westfalen"}},{"name":"Schloßstr.","postalCode":"47665","locality":"Sonsbeck","municipality":{"key":"05170040","name":"Sonsbeck","type":"Kreisangehörige_Gemeinde"},"district":{"key":"05170","name":"Wesel","type":"Kreis"},"federalState":{"key":"05","name":"Nordrhein-Westfalen"}},{"name":"Schulstr.","postalCode":"47665","locality":"Sonsbeck","municipality":{"key":"05170040","name":"Sonsbeck","type":"Kreisangehörige_Gemeinde"},"district":{"key":"05170","name":"Wesel","type":"Kreis"},"federalState":{"key":"05","name":"Nordrhein-Westfalen"}},{"name":"Schustersweid","postalCode":"47665","locality":"Sonsbeck","municipality":{"key":"05170040","name":"Sonsbeck","type":"Kreisangehörige_Gemeinde"},"district":{"key":"05170","name":"Wesel","type":"Kreis"},"federalState":{"key":"05","name":"Nordrhein-Westfalen"}},{"name":"Schwarzbruch","postalCode":"47665","locality":"Sonsbeck","municipality":{"key":"05170040","name":"Sonsbeck","type":"Kreisangehörige_Gemeinde"},"district":{"key":"05170","name":"Wesel","type":"Kreis"},"federalState":{"key":"05","name":"Nordrhein-Westfalen"}},{"name":"Spannstr.","postalCode":"47665","locality":"Sonsbeck","municipality":{"key":"05170040","name":"Sonsbeck","type":"Kreisangehörige_Gemeinde"},"district":{"key":"05170","name":"Wesel","type":"Kreis"},"federalState":{"key":"05","name":"Nordrhein-Westfalen"}},{"name":"Spülstr.","postalCode":"47665","locality":"Sonsbeck","municipality":{"key":"05170040","name":"Sonsbeck","type":"Kreisangehörige_Gemeinde"},"district":{"key":"05170","name":"Wesel","type":"Kreis"},"federalState":{"key":"05","name":"Nordrhein-Westfalen"}},{"name":"St.-Bernardin-Str.","postalCode":"47665","locality":"Sonsbeck","municipality":{"key":"05170040","name":"Sonsbeck","type":"Kreisangehörige_Gemeinde"},"district":{"key":"05170","name":"Wesel","type":"Kreis"},"federalState":{"key":"05","name":"Nordrhein-Westfalen"}},{"name":"Steinheide","postalCode":"47665","locality":"Sonsbeck","municipality":{"key":"05170040","name":"Sonsbeck","type":"Kreisangehörige_Gemeinde"},"district":{"key":"05170","name":"Wesel","type":"Kreis"},"federalState":{"key":"05","name":"Nordrhein-Westfalen"}},{"name":"Stettiner Str.","postalCode":"47665","locality":"Sonsbeck","municipality":{"key":"05170040","name":"Sonsbeck","type":"Kreisangehörige_Gemeinde"},"district":{"key":"05170","name":"Wesel","type":"Kreis"},"federalState":{"key":"05","name":"Nordrhein-Westfalen"}},{"name":"Strohweg","postalCode":"47665","locality":"Sonsbeck","municipality":{"key":"05170040","name":"Sonsbeck","type":"Kreisangehörige_Gemeinde"},"district":{"key":"05170","name":"Wesel","type":"Kreis"},"federalState":{"key":"05","name":"Nordrhein-Westfalen"}},{"name":"Taubenweg","postalCode":"47665","locality":"Sonsbeck","municipality":{"key":"05170040","name":"Sonsbeck","type":"Kreisangehörige_Gemeinde"},"district":{"key":"05170","name":"Wesel","type":"Kreis"},"federalState":{"key":"05","name":"Nordrhein-Westfalen"}},{"name":"Töpferweg","postalCode":"47665","locality":"Sonsbeck","municipality":{"key":"05170040","name":"Sonsbeck","type":"Kreisangehörige_Gemeinde"},"district":{"key":"05170","name":"Wesel","type":"Kreis"},"federalState":{"key":"05","name":"Nordrhein-Westfalen"}},{"name":"Turmstr.","postalCode":"47665","locality":"Sonsbeck","municipality":{"key":"05170040","name":"Sonsbeck","type":"Kreisangehörige_Gemeinde"},"district":{"key":"05170","name":"Wesel","type":"Kreis"},"federalState":{"key":"05","name":"Nordrhein-Westfalen"}},{"name":"Uedemerbrucher Str.","postalCode":"47665","locality":"Sonsbeck","municipality":{"key":"05170040","name":"Sonsbeck","type":"Kreisangehörige_Gemeinde"},"district":{"key":"05170","name":"Wesel","type":"Kreis"},"federalState":{"key":"05","name":"Nordrhein-Westfalen"}},{"name":"Uedemer Str.","postalCode":"47665","locality":"Sonsbeck","municipality":{"key":"05170040","name":"Sonsbeck","type":"Kreisangehörige_Gemeinde"},"district":{"key":"05170","name":"Wesel","type":"Kreis"},"federalState":{"key":"05","name":"Nordrhein-Westfalen"}},{"name":"Ulmenweg","postalCode":"47665","locality":"Sonsbeck","municipality":{"key":"05170040","name":"Sonsbeck","type":"Kreisangehörige_Gemeinde"},"district":{"key":"05170","name":"Wesel","type":"Kreis"},"federalState":{"key":"05","name":"Nordrhein-Westfalen"}},{"name":"Vogelsang","postalCode":"47665","locality":"Sonsbeck","municipality":{"key":"05170040","name":"Sonsbeck","type":"Kreisangehörige_Gemeinde"},"district":{"key":"05170","name":"Wesel","type":"Kreis"},"federalState":{"key":"05","name":"Nordrhein-Westfalen"}},{"name":"Vollmühle","postalCode":"47665","locality":"Sonsbeck","municipality":{"key":"05170040","name":"Sonsbeck","type":"Kreisangehörige_Gemeinde"},"district":{"key":"05170","name":"Wesel","type":"Kreis"},"federalState":{"key":"05","name":"Nordrhein-Westfalen"}},{"name":"Von-Diest-Str.","postalCode":"47665","locality":"Sonsbeck","municipality":{"key":"05170040","name":"Sonsbeck","type":"Kreisangehörige_Gemeinde"},"district":{"key":"05170","name":"Wesel","type":"Kreis"},"federalState":{"key":"05","name":"Nordrhein-Westfalen"}},{"name":"Wallstr.","postalCode":"47665","locality":"Sonsbeck","municipality":{"key":"05170040","name":"Sonsbeck","type":"Kreisangehörige_Gemeinde"},"district":{"key":"05170","name":"Wesel","type":"Kreis"},"federalState":{"key":"05","name":"Nordrhein-Westfalen"}},{"name":"Weberstr.","postalCode":"47665","locality":"Sonsbeck","municipality":{"key":"05170040","name":"Sonsbeck","type":"Kreisangehörige_Gemeinde"},"district":{"key":"05170","name":"Wesel","type":"Kreis"},"federalState":{"key":"05","name":"Nordrhein-Westfalen"}},{"name":"Weidenstr.","postalCode":"47665","locality":"Sonsbeck","municipality":{"key":"05170040","name":"Sonsbeck","type":"Kreisangehörige_Gemeinde"},"district":{"key":"05170","name":"Wesel","type":"Kreis"},"federalState":{"key":"05","name":"Nordrhein-Westfalen"}},{"name":"Weseler Str.","postalCode":"47665","locality":"Sonsbeck","municipality":{"key":"05170040","name":"Sonsbeck","type":"Kreisangehörige_Gemeinde"},"district":{"key":"05170","name":"Wesel","type":"Kreis"},"federalState":{"key":"05","name":"Nordrhein-Westfalen"}},{"name":"Wiesenstr.","postalCode":"47665","locality":"Sonsbeck","municipality":{"key":"05170040","name":"Sonsbeck","type":"Kreisangehörige_Gemeinde"},"district":{"key":"05170","name":"Wesel","type":"Kreis"},"federalState":{"key":"05","name":"Nordrhein-Westfalen"}},{"name":"Wildpaßweg","postalCode":"47665","locality":"Sonsbeck","municipality":{"key":"05170040","name":"Sonsbeck","type":"Kreisangehörige_Gemeinde"},"district":{"key":"05170","name":"Wesel","type":"Kreis"},"federalState":{"key":"05","name":"Nordrhein-Westfalen"}},{"name":"Winkelscher Weg","postalCode":"47665","locality":"Sonsbeck","municipality":{"key":"05170040","name":"Sonsbeck","type":"Kreisangehörige_Gemeinde"},"district":{"key":"05170","name":"Wesel","type":"Kreis"},"federalState":{"key":"05","name":"Nordrhein-Westfalen"}},{"name":"Wyfeld","postalCode":"47665","locality":"Sonsbeck","municipality":{"key":"05170040","name":"Sonsbeck","type":"Kreisangehörige_Gemeinde"},"district":{"key":"05170","name":"Wesel","type":"Kreis"},"federalState":{"key":"05","name":"Nordrhein-Westfalen"}},{"name":"Xantener Str.","postalCode":"47665","locality":"Sonsbeck","municipality":{"key":"05170040","name":"Sonsbeck","type":"Kreisangehörige_Gemeinde"},"district":{"key":"05170","name":"Wesel","type":"Kreis"},"federalState":{"key":"05","name":"Nordrhein-Westfalen"}},{"name":"Yorckstr.","postalCode":"46485","locality":"Wesel","municipality":{"key":"05170048","name":"Wesel, Stadt","type":"Stadt"},"district":{"key":"05170","name":"Wesel","type":"Kreis"},"federalState":{"key":"05","name":"Nordrhein-Westfalen"}},{"name":"Zitterhuck","postalCode":"47665","locality":"Sonsbeck","municipality":{"key":"05170040","name":"Sonsbeck","type":"Kreisangehörige_Gemeinde"},"district":{"key":"05170","name":"Wesel","type":"Kreis"},"federalState":{"key":"05","name":"Nordrhein-Westfalen"}},{"name":"Zollensträßchen","postalCode":"47665","locality":"Sonsbeck","municipality":{"key":"05170040","name":"Sonsbeck","type":"Kreisangehörige_Gemeinde"},"district":{"key":"05170","name":"Wesel","type":"Kreis"},"federalState":{"key":"05","name":"Nordrhein-Westfalen"}},{"name":"Zur Licht","postalCode":"47665","locality":"Sonsbeck","municipality":{"key":"05170040","name":"Sonsbeck","type":"Kreisangehörige_Gemeinde"},"district":{"key":"05170","name":"Wesel","type":"Kreis"},"federalState":{"key":"05","name":"Nordrhein-Westfalen"}},{"name":"Över de Ley","postalCode":"47665","locality":"Sonsbeck","municipality":{"key":"05170040","name":"Sonsbeck","type":"Kreisangehörige_Gemeinde"},"district":{"key":"05170","name":"Wesel","type":"Kreis"},"federalState":{"key":"05","name":"Nordrhein-Westfalen"}},]