[{"name":"Alter Weg","postalCode":"57614","locality":"Oberwambach","municipality":{"key":"07132086","name":"Oberwambach","type":"Kreisangehörige_Gemeinde"},"district":{"key":"07132","name":"Altenkirchen (Westerwald)","type":"Landkreis"},"federalState":{"key":"07","name":"Rheinland-Pfalz"}},{"name":"Hauptstr.","postalCode":"57614","locality":"Oberwambach","municipality":{"key":"07132086","name":"Oberwambach","type":"Kreisangehörige_Gemeinde"},"district":{"key":"07132","name":"Altenkirchen (Westerwald)","type":"Landkreis"},"federalState":{"key":"07","name":"Rheinland-Pfalz"}},{"name":"Im alten Garten","postalCode":"57614","locality":"Oberwambach","municipality":{"key":"07132086","name":"Oberwambach","type":"Kreisangehörige_Gemeinde"},"district":{"key":"07132","name":"Altenkirchen (Westerwald)","type":"Landkreis"},"federalState":{"key":"07","name":"Rheinland-Pfalz"}},{"name":"Im Bodengarten","postalCode":"57614","locality":"Oberwambach","municipality":{"key":"07132086","name":"Oberwambach","type":"Kreisangehörige_Gemeinde"},"district":{"key":"07132","name":"Altenkirchen (Westerwald)","type":"Landkreis"},"federalState":{"key":"07","name":"Rheinland-Pfalz"}},{"name":"Im Heldengarten","postalCode":"57614","locality":"Oberwambach","municipality":{"key":"07132086","name":"Oberwambach","type":"Kreisangehörige_Gemeinde"},"district":{"key":"07132","name":"Altenkirchen (Westerwald)","type":"Landkreis"},"federalState":{"key":"07","name":"Rheinland-Pfalz"}},{"name":"Im Unterdorf","postalCode":"57614","locality":"Oberwambach","municipality":{"key":"07132086","name":"Oberwambach","type":"Kreisangehörige_Gemeinde"},"district":{"key":"07132","name":"Altenkirchen (Westerwald)","type":"Landkreis"},"federalState":{"key":"07","name":"Rheinland-Pfalz"}},{"name":"Kirchstr.","postalCode":"57614","locality":"Oberwambach","municipality":{"key":"07132086","name":"Oberwambach","type":"Kreisangehörige_Gemeinde"},"district":{"key":"07132","name":"Altenkirchen (Westerwald)","type":"Landkreis"},"federalState":{"key":"07","name":"Rheinland-Pfalz"}},{"name":"Lautzerter Str.","postalCode":"57614","locality":"Oberwambach","municipality":{"key":"07132086","name":"Oberwambach","type":"Kreisangehörige_Gemeinde"},"district":{"key":"07132","name":"Altenkirchen (Westerwald)","type":"Landkreis"},"federalState":{"key":"07","name":"Rheinland-Pfalz"}},{"name":"Mühlenweg","postalCode":"57614","locality":"Oberwambach","municipality":{"key":"07132086","name":"Oberwambach","type":"Kreisangehörige_Gemeinde"},"district":{"key":"07132","name":"Altenkirchen (Westerwald)","type":"Landkreis"},"federalState":{"key":"07","name":"Rheinland-Pfalz"}},{"name":"Obere Dorfstr.","postalCode":"57614","locality":"Oberwambach","municipality":{"key":"07132086","name":"Oberwambach","type":"Kreisangehörige_Gemeinde"},"district":{"key":"07132","name":"Altenkirchen (Westerwald)","type":"Landkreis"},"federalState":{"key":"07","name":"Rheinland-Pfalz"}},{"name":"Schulstr.","postalCode":"57614","locality":"Oberwambach","municipality":{"key":"07132086","name":"Oberwambach","type":"Kreisangehörige_Gemeinde"},"district":{"key":"07132","name":"Altenkirchen (Westerwald)","type":"Landkreis"},"federalState":{"key":"07","name":"Rheinland-Pfalz"}},{"name":"Vor dem Gebrannten","postalCode":"57614","locality":"Oberwambach","municipality":{"key":"07132086","name":"Oberwambach","type":"Kreisangehörige_Gemeinde"},"district":{"key":"07132","name":"Altenkirchen (Westerwald)","type":"Landkreis"},"federalState":{"key":"07","name":"Rheinland-Pfalz"}},{"name":"Zum Hahn","postalCode":"57614","locality":"Oberwambach","municipality":{"key":"07132086","name":"Oberwambach","type":"Kreisangehörige_Gemeinde"},"district":{"key":"07132","name":"Altenkirchen (Westerwald)","type":"Landkreis"},"federalState":{"key":"07","name":"Rheinland-Pfalz"}},]