[{"name":"Ahornweg","postalCode":"84494","locality":"Lohkirchen","municipality":{"key":"09183125","name":"Lohkirchen","type":"Kreisangehörige_Gemeinde"},"district":{"key":"09183","name":"Mühldorf a.Inn","type":"Landkreis"},"federalState":{"key":"09","name":"Bayern"}},{"name":"Am Straßfeld","postalCode":"84494","locality":"Lohkirchen","municipality":{"key":"09183125","name":"Lohkirchen","type":"Kreisangehörige_Gemeinde"},"district":{"key":"09183","name":"Mühldorf a.Inn","type":"Landkreis"},"federalState":{"key":"09","name":"Bayern"}},{"name":"Binderweg","postalCode":"84494","locality":"Lohkirchen","municipality":{"key":"09183125","name":"Lohkirchen","type":"Kreisangehörige_Gemeinde"},"district":{"key":"09183","name":"Mühldorf a.Inn","type":"Landkreis"},"federalState":{"key":"09","name":"Bayern"}},{"name":"Grün","postalCode":"84494","locality":"Lohkirchen","municipality":{"key":"09183125","name":"Lohkirchen","type":"Kreisangehörige_Gemeinde"},"district":{"key":"09183","name":"Mühldorf a.Inn","type":"Landkreis"},"federalState":{"key":"09","name":"Bayern"}},{"name":"Habersam","postalCode":"84494","locality":"Lohkirchen","municipality":{"key":"09183125","name":"Lohkirchen","type":"Kreisangehörige_Gemeinde"},"district":{"key":"09183","name":"Mühldorf a.Inn","type":"Landkreis"},"federalState":{"key":"09","name":"Bayern"}},{"name":"Hauptstr.","postalCode":"84494","locality":"Lohkirchen","municipality":{"key":"09183125","name":"Lohkirchen","type":"Kreisangehörige_Gemeinde"},"district":{"key":"09183","name":"Mühldorf a.Inn","type":"Landkreis"},"federalState":{"key":"09","name":"Bayern"}},{"name":"Hottenberg","postalCode":"84494","locality":"Lohkirchen","municipality":{"key":"09183125","name":"Lohkirchen","type":"Kreisangehörige_Gemeinde"},"district":{"key":"09183","name":"Mühldorf a.Inn","type":"Landkreis"},"federalState":{"key":"09","name":"Bayern"}},{"name":"Lindenweg","postalCode":"84494","locality":"Lohkirchen","municipality":{"key":"09183125","name":"Lohkirchen","type":"Kreisangehörige_Gemeinde"},"district":{"key":"09183","name":"Mühldorf a.Inn","type":"Landkreis"},"federalState":{"key":"09","name":"Bayern"}},{"name":"Lukasöder Str.","postalCode":"84494","locality":"Lohkirchen","municipality":{"key":"09183125","name":"Lohkirchen","type":"Kreisangehörige_Gemeinde"},"district":{"key":"09183","name":"Mühldorf a.Inn","type":"Landkreis"},"federalState":{"key":"09","name":"Bayern"}},{"name":"Pfarrer-Sinseder-Weg","postalCode":"84494","locality":"Lohkirchen","municipality":{"key":"09183125","name":"Lohkirchen","type":"Kreisangehörige_Gemeinde"},"district":{"key":"09183","name":"Mühldorf a.Inn","type":"Landkreis"},"federalState":{"key":"09","name":"Bayern"}},{"name":"Siedlungsstr.","postalCode":"84494","locality":"Lohkirchen","municipality":{"key":"09183125","name":"Lohkirchen","type":"Kreisangehörige_Gemeinde"},"district":{"key":"09183","name":"Mühldorf a.Inn","type":"Landkreis"},"federalState":{"key":"09","name":"Bayern"}},{"name":"Striebing","postalCode":"84494","locality":"Lohkirchen","municipality":{"key":"09183125","name":"Lohkirchen","type":"Kreisangehörige_Gemeinde"},"district":{"key":"09183","name":"Mühldorf a.Inn","type":"Landkreis"},"federalState":{"key":"09","name":"Bayern"}},{"name":"Weihäuslstr.","postalCode":"84494","locality":"Lohkirchen","municipality":{"key":"09183125","name":"Lohkirchen","type":"Kreisangehörige_Gemeinde"},"district":{"key":"09183","name":"Mühldorf a.Inn","type":"Landkreis"},"federalState":{"key":"09","name":"Bayern"}},{"name":"Weinbergstr.","postalCode":"84494","locality":"Lohkirchen","municipality":{"key":"09183125","name":"Lohkirchen","type":"Kreisangehörige_Gemeinde"},"district":{"key":"09183","name":"Mühldorf a.Inn","type":"Landkreis"},"federalState":{"key":"09","name":"Bayern"}},]