[{"name":"Adolf-Kolping-Str.","postalCode":"84359","locality":"Simbach","municipality":{"key":"09277145","name":"Simbach a.Inn, St","type":"Stadt"},"district":{"key":"09277","name":"Rottal-Inn","type":"Landkreis"},"federalState":{"key":"09","name":"Bayern"}},{"name":"Ahornweg","postalCode":"84359","locality":"Simbach","municipality":{"key":"09277145","name":"Simbach a.Inn, St","type":"Stadt"},"district":{"key":"09277","name":"Rottal-Inn","type":"Landkreis"},"federalState":{"key":"09","name":"Bayern"}},{"name":"Aign","postalCode":"84359","locality":"Simbach","municipality":{"key":"09277145","name":"Simbach a.Inn, St","type":"Stadt"},"district":{"key":"09277","name":"Rottal-Inn","type":"Landkreis"},"federalState":{"key":"09","name":"Bayern"}},{"name":"Albert-Seidl-Str.","postalCode":"84359","locality":"Simbach","municipality":{"key":"09277145","name":"Simbach a.Inn, St","type":"Stadt"},"district":{"key":"09277","name":"Rottal-Inn","type":"Landkreis"},"federalState":{"key":"09","name":"Bayern"}},{"name":"Alleestr.","postalCode":"84359","locality":"Simbach","municipality":{"key":"09277145","name":"Simbach a.Inn, St","type":"Stadt"},"district":{"key":"09277","name":"Rottal-Inn","type":"Landkreis"},"federalState":{"key":"09","name":"Bayern"}},{"name":"Alois-Leitner-Str.","postalCode":"84359","locality":"Simbach","municipality":{"key":"09277145","name":"Simbach a.Inn, St","type":"Stadt"},"district":{"key":"09277","name":"Rottal-Inn","type":"Landkreis"},"federalState":{"key":"09","name":"Bayern"}},{"name":"Alte Bergstr.","postalCode":"94436","locality":"Simbach","municipality":{"key":"09279135","name":"Simbach, M","type":"Markt"},"district":{"key":"09279","name":"Dingolfing-Landau","type":"Landkreis"},"federalState":{"key":"09","name":"Bayern"}},{"name":"Alte Dorfstr.","postalCode":"94436","locality":"Simbach","municipality":{"key":"09279135","name":"Simbach, M","type":"Markt"},"district":{"key":"09279","name":"Dingolfing-Landau","type":"Landkreis"},"federalState":{"key":"09","name":"Bayern"}},{"name":"Am Bahndamm","postalCode":"94436","locality":"Simbach","municipality":{"key":"09279135","name":"Simbach, M","type":"Markt"},"district":{"key":"09279","name":"Dingolfing-Landau","type":"Landkreis"},"federalState":{"key":"09","name":"Bayern"}},{"name":"Amberg","postalCode":"94436","locality":"Simbach","municipality":{"key":"09279135","name":"Simbach, M","type":"Markt"},"district":{"key":"09279","name":"Dingolfing-Landau","type":"Landkreis"},"federalState":{"key":"09","name":"Bayern"}},{"name":"Am Bergacker","postalCode":"94436","locality":"Simbach","municipality":{"key":"09279135","name":"Simbach, M","type":"Markt"},"district":{"key":"09279","name":"Dingolfing-Landau","type":"Landkreis"},"federalState":{"key":"09","name":"Bayern"}},{"name":"Am Dr.-Güldenapfel-Ring","postalCode":"84359","locality":"Simbach","municipality":{"key":"09277145","name":"Simbach a.Inn, St","type":"Stadt"},"district":{"key":"09277","name":"Rottal-Inn","type":"Landkreis"},"federalState":{"key":"09","name":"Bayern"}},{"name":"Am Haag","postalCode":"94436","locality":"Simbach","municipality":{"key":"09279135","name":"Simbach, M","type":"Markt"},"district":{"key":"09279","name":"Dingolfing-Landau","type":"Landkreis"},"federalState":{"key":"09","name":"Bayern"}},{"name":"Am Hasenöder Feld","postalCode":"94436","locality":"Simbach","municipality":{"key":"09279135","name":"Simbach, M","type":"Markt"},"district":{"key":"09279","name":"Dingolfing-Landau","type":"Landkreis"},"federalState":{"key":"09","name":"Bayern"}},{"name":"Am Moosgraben","postalCode":"84359","locality":"Simbach","municipality":{"key":"09277145","name":"Simbach a.Inn, St","type":"Stadt"},"district":{"key":"09277","name":"Rottal-Inn","type":"Landkreis"},"federalState":{"key":"09","name":"Bayern"}},{"name":"Am Mühlfeld","postalCode":"94436","locality":"Simbach","municipality":{"key":"09279135","name":"Simbach, M","type":"Markt"},"district":{"key":"09279","name":"Dingolfing-Landau","type":"Landkreis"},"federalState":{"key":"09","name":"Bayern"}},{"name":"Am Schwimmbad","postalCode":"94436","locality":"Simbach","municipality":{"key":"09279135","name":"Simbach, M","type":"Markt"},"district":{"key":"09279","name":"Dingolfing-Landau","type":"Landkreis"},"federalState":{"key":"09","name":"Bayern"}},{"name":"Am Unterfeld","postalCode":"94436","locality":"Simbach","municipality":{"key":"09279135","name":"Simbach, M","type":"Markt"},"district":{"key":"09279","name":"Dingolfing-Landau","type":"Landkreis"},"federalState":{"key":"09","name":"Bayern"}},{"name":"An der Schule","postalCode":"94436","locality":"Simbach","municipality":{"key":"09279135","name":"Simbach, M","type":"Markt"},"district":{"key":"09279","name":"Dingolfing-Landau","type":"Landkreis"},"federalState":{"key":"09","name":"Bayern"}},{"name":"Antersdorf","postalCode":"84359","locality":"Simbach","municipality":{"key":"09277145","name":"Simbach a.Inn, St","type":"Stadt"},"district":{"key":"09277","name":"Rottal-Inn","type":"Landkreis"},"federalState":{"key":"09","name":"Bayern"}},{"name":"Antersdorfer Str.","postalCode":"84359","locality":"Simbach","municipality":{"key":"09277145","name":"Simbach a.Inn, St","type":"Stadt"},"district":{"key":"09277","name":"Rottal-Inn","type":"Landkreis"},"federalState":{"key":"09","name":"Bayern"}},{"name":"Anton-Gober-Str.","postalCode":"84359","locality":"Simbach","municipality":{"key":"09277145","name":"Simbach a.Inn, St","type":"Stadt"},"district":{"key":"09277","name":"Rottal-Inn","type":"Landkreis"},"federalState":{"key":"09","name":"Bayern"}},{"name":"Anton-Mühldorfer-Str.","postalCode":"84359","locality":"Simbach","municipality":{"key":"09277145","name":"Simbach a.Inn, St","type":"Stadt"},"district":{"key":"09277","name":"Rottal-Inn","type":"Landkreis"},"federalState":{"key":"09","name":"Bayern"}},{"name":"Arnstorfer Str.","postalCode":"94436","locality":"Simbach","municipality":{"key":"09279135","name":"Simbach, M","type":"Markt"},"district":{"key":"09279","name":"Dingolfing-Landau","type":"Landkreis"},"federalState":{"key":"09","name":"Bayern"}},{"name":"Asang","postalCode":"94436","locality":"Simbach","municipality":{"key":"09279135","name":"Simbach, M","type":"Markt"},"district":{"key":"09279","name":"Dingolfing-Landau","type":"Landkreis"},"federalState":{"key":"09","name":"Bayern"}},{"name":"Asangstr.","postalCode":"94436","locality":"Simbach","municipality":{"key":"09279135","name":"Simbach, M","type":"Markt"},"district":{"key":"09279","name":"Dingolfing-Landau","type":"Landkreis"},"federalState":{"key":"09","name":"Bayern"}},{"name":"Auenweg","postalCode":"94436","locality":"Simbach","municipality":{"key":"09279135","name":"Simbach, M","type":"Markt"},"district":{"key":"09279","name":"Dingolfing-Landau","type":"Landkreis"},"federalState":{"key":"09","name":"Bayern"}},{"name":"Aufhausener Str.","postalCode":"94436","locality":"Simbach","municipality":{"key":"09279135","name":"Simbach, M","type":"Markt"},"district":{"key":"09279","name":"Dingolfing-Landau","type":"Landkreis"},"federalState":{"key":"09","name":"Bayern"}},{"name":"Austr.","postalCode":"84359","locality":"Simbach","municipality":{"key":"09277145","name":"Simbach a.Inn, St","type":"Stadt"},"district":{"key":"09277","name":"Rottal-Inn","type":"Landkreis"},"federalState":{"key":"09","name":"Bayern"}},{"name":"Bachstr.","postalCode":"84359","locality":"Simbach","municipality":{"key":"09277145","name":"Simbach a.Inn, St","type":"Stadt"},"district":{"key":"09277","name":"Rottal-Inn","type":"Landkreis"},"federalState":{"key":"09","name":"Bayern"}},{"name":"Bahnhofplatz","postalCode":"84359","locality":"Simbach","municipality":{"key":"09277145","name":"Simbach a.Inn, St","type":"Stadt"},"district":{"key":"09277","name":"Rottal-Inn","type":"Landkreis"},"federalState":{"key":"09","name":"Bayern"}},{"name":"Bahnhofsplatz","postalCode":"94436","locality":"Simbach","municipality":{"key":"09279135","name":"Simbach, M","type":"Markt"},"district":{"key":"09279","name":"Dingolfing-Landau","type":"Landkreis"},"federalState":{"key":"09","name":"Bayern"}},{"name":"Bahnhofstr.","postalCode":"84359","locality":"Simbach","municipality":{"key":"09277145","name":"Simbach a.Inn, St","type":"Stadt"},"district":{"key":"09277","name":"Rottal-Inn","type":"Landkreis"},"federalState":{"key":"09","name":"Bayern"}},{"name":"Bahnhofstr.","postalCode":"94436","locality":"Simbach","municipality":{"key":"09279135","name":"Simbach, M","type":"Markt"},"district":{"key":"09279","name":"Dingolfing-Landau","type":"Landkreis"},"federalState":{"key":"09","name":"Bayern"}},{"name":"Banaterstr.","postalCode":"84359","locality":"Simbach","municipality":{"key":"09277145","name":"Simbach a.Inn, St","type":"Stadt"},"district":{"key":"09277","name":"Rottal-Inn","type":"Landkreis"},"federalState":{"key":"09","name":"Bayern"}},{"name":"Baumgartner Feld","postalCode":"84359","locality":"Simbach","municipality":{"key":"09277145","name":"Simbach a.Inn, St","type":"Stadt"},"district":{"key":"09277","name":"Rottal-Inn","type":"Landkreis"},"federalState":{"key":"09","name":"Bayern"}},{"name":"Bayernwerkstr.","postalCode":"84359","locality":"Simbach","municipality":{"key":"09277145","name":"Simbach a.Inn, St","type":"Stadt"},"district":{"key":"09277","name":"Rottal-Inn","type":"Landkreis"},"federalState":{"key":"09","name":"Bayern"}},{"name":"Benedikt-Dachauer-Str.","postalCode":"84359","locality":"Simbach","municipality":{"key":"09277145","name":"Simbach a.Inn, St","type":"Stadt"},"district":{"key":"09277","name":"Rottal-Inn","type":"Landkreis"},"federalState":{"key":"09","name":"Bayern"}},{"name":"Bergstorf","postalCode":"94436","locality":"Simbach","municipality":{"key":"09279135","name":"Simbach, M","type":"Markt"},"district":{"key":"09279","name":"Dingolfing-Landau","type":"Landkreis"},"federalState":{"key":"09","name":"Bayern"}},{"name":"Bergstr.","postalCode":"84359","locality":"Simbach","municipality":{"key":"09277145","name":"Simbach a.Inn, St","type":"Stadt"},"district":{"key":"09277","name":"Rottal-Inn","type":"Landkreis"},"federalState":{"key":"09","name":"Bayern"}},{"name":"Binderöd","postalCode":"94436","locality":"Simbach","municipality":{"key":"09279135","name":"Simbach, M","type":"Markt"},"district":{"key":"09279","name":"Dingolfing-Landau","type":"Landkreis"},"federalState":{"key":"09","name":"Bayern"}},{"name":"Birkenweg","postalCode":"84359","locality":"Simbach","municipality":{"key":"09277145","name":"Simbach a.Inn, St","type":"Stadt"},"district":{"key":"09277","name":"Rottal-Inn","type":"Landkreis"},"federalState":{"key":"09","name":"Bayern"}},{"name":"Birkertstr.","postalCode":"94436","locality":"Simbach","municipality":{"key":"09279135","name":"Simbach, M","type":"Markt"},"district":{"key":"09279","name":"Dingolfing-Landau","type":"Landkreis"},"federalState":{"key":"09","name":"Bayern"}},{"name":"Birnkammerweg","postalCode":"94436","locality":"Simbach","municipality":{"key":"09279135","name":"Simbach, M","type":"Markt"},"district":{"key":"09279","name":"Dingolfing-Landau","type":"Landkreis"},"federalState":{"key":"09","name":"Bayern"}},{"name":"Blösham","postalCode":"94436","locality":"Simbach","municipality":{"key":"09279135","name":"Simbach, M","type":"Markt"},"district":{"key":"09279","name":"Dingolfing-Landau","type":"Landkreis"},"federalState":{"key":"09","name":"Bayern"}},{"name":"Blumenstr.","postalCode":"84359","locality":"Simbach","municipality":{"key":"09277145","name":"Simbach a.Inn, St","type":"Stadt"},"district":{"key":"09277","name":"Rottal-Inn","type":"Landkreis"},"federalState":{"key":"09","name":"Bayern"}},{"name":"Böhmerwaldring","postalCode":"94436","locality":"Simbach","municipality":{"key":"09279135","name":"Simbach, M","type":"Markt"},"district":{"key":"09279","name":"Dingolfing-Landau","type":"Landkreis"},"federalState":{"key":"09","name":"Bayern"}},{"name":"Bräugasse","postalCode":"94436","locality":"Simbach","municipality":{"key":"09279135","name":"Simbach, M","type":"Markt"},"district":{"key":"09279","name":"Dingolfing-Landau","type":"Landkreis"},"federalState":{"key":"09","name":"Bayern"}},{"name":"Brieger Ring","postalCode":"94436","locality":"Simbach","municipality":{"key":"09279135","name":"Simbach, M","type":"Markt"},"district":{"key":"09279","name":"Dingolfing-Landau","type":"Landkreis"},"federalState":{"key":"09","name":"Bayern"}},{"name":"Buchenstr.","postalCode":"94436","locality":"Simbach","municipality":{"key":"09279135","name":"Simbach, M","type":"Markt"},"district":{"key":"09279","name":"Dingolfing-Landau","type":"Landkreis"},"federalState":{"key":"09","name":"Bayern"}},{"name":"Buchöder Weg","postalCode":"94436","locality":"Simbach","municipality":{"key":"09279135","name":"Simbach, M","type":"Markt"},"district":{"key":"09279","name":"Dingolfing-Landau","type":"Landkreis"},"federalState":{"key":"09","name":"Bayern"}},{"name":"Danziger Str.","postalCode":"94436","locality":"Simbach","municipality":{"key":"09279135","name":"Simbach, M","type":"Markt"},"district":{"key":"09279","name":"Dingolfing-Landau","type":"Landkreis"},"federalState":{"key":"09","name":"Bayern"}},{"name":"Doktor-Eisenreiter-Weg","postalCode":"84359","locality":"Simbach","municipality":{"key":"09277145","name":"Simbach a.Inn, St","type":"Stadt"},"district":{"key":"09277","name":"Rottal-Inn","type":"Landkreis"},"federalState":{"key":"09","name":"Bayern"}},{"name":"Donislstr.","postalCode":"94436","locality":"Simbach","municipality":{"key":"09279135","name":"Simbach, M","type":"Markt"},"district":{"key":"09279","name":"Dingolfing-Landau","type":"Landkreis"},"federalState":{"key":"09","name":"Bayern"}},{"name":"Dr.-Hans-Pinzl-Str.","postalCode":"84359","locality":"Simbach","municipality":{"key":"09277145","name":"Simbach a.Inn, St","type":"Stadt"},"district":{"key":"09277","name":"Rottal-Inn","type":"Landkreis"},"federalState":{"key":"09","name":"Bayern"}},{"name":"Dr.-Josef-Weigl-Str.","postalCode":"84359","locality":"Simbach","municipality":{"key":"09277145","name":"Simbach a.Inn, St","type":"Stadt"},"district":{"key":"09277","name":"Rottal-Inn","type":"Landkreis"},"federalState":{"key":"09","name":"Bayern"}},{"name":"Drosselweg","postalCode":"94436","locality":"Simbach","municipality":{"key":"09279135","name":"Simbach, M","type":"Markt"},"district":{"key":"09279","name":"Dingolfing-Landau","type":"Landkreis"},"federalState":{"key":"09","name":"Bayern"}},{"name":"Duramstr.","postalCode":"94436","locality":"Simbach","municipality":{"key":"09279135","name":"Simbach, M","type":"Markt"},"district":{"key":"09279","name":"Dingolfing-Landau","type":"Landkreis"},"federalState":{"key":"09","name":"Bayern"}},{"name":"Egerlandstr.","postalCode":"94436","locality":"Simbach","municipality":{"key":"09279135","name":"Simbach, M","type":"Markt"},"district":{"key":"09279","name":"Dingolfing-Landau","type":"Landkreis"},"federalState":{"key":"09","name":"Bayern"}},{"name":"Eggenfeldener Str.","postalCode":"94436","locality":"Simbach","municipality":{"key":"09279135","name":"Simbach, M","type":"Markt"},"district":{"key":"09279","name":"Dingolfing-Landau","type":"Landkreis"},"federalState":{"key":"09","name":"Bayern"}},{"name":"Eggenfelder Str.","postalCode":"94436","locality":"Simbach","municipality":{"key":"09279135","name":"Simbach, M","type":"Markt"},"district":{"key":"09279","name":"Dingolfing-Landau","type":"Landkreis"},"federalState":{"key":"09","name":"Bayern"}},{"name":"Eichenweg","postalCode":"94436","locality":"Simbach","municipality":{"key":"09279135","name":"Simbach, M","type":"Markt"},"district":{"key":"09279","name":"Dingolfing-Landau","type":"Landkreis"},"federalState":{"key":"09","name":"Bayern"}},{"name":"Eichertstr.","postalCode":"94436","locality":"Simbach","municipality":{"key":"09279135","name":"Simbach, M","type":"Markt"},"district":{"key":"09279","name":"Dingolfing-Landau","type":"Landkreis"},"federalState":{"key":"09","name":"Bayern"}},{"name":"Engerthal","postalCode":"94436","locality":"Simbach","municipality":{"key":"09279135","name":"Simbach, M","type":"Markt"},"district":{"key":"09279","name":"Dingolfing-Landau","type":"Landkreis"},"federalState":{"key":"09","name":"Bayern"}},{"name":"Erlacher Mittelweg","postalCode":"84359","locality":"Simbach","municipality":{"key":"09277145","name":"Simbach a.Inn, St","type":"Stadt"},"district":{"key":"09277","name":"Rottal-Inn","type":"Landkreis"},"federalState":{"key":"09","name":"Bayern"}},{"name":"Erlacher Mitterweg","postalCode":"84359","locality":"Simbach","municipality":{"key":"09277145","name":"Simbach a.Inn, St","type":"Stadt"},"district":{"key":"09277","name":"Rottal-Inn","type":"Landkreis"},"federalState":{"key":"09","name":"Bayern"}},{"name":"Erlacher Str.","postalCode":"84359","locality":"Simbach","municipality":{"key":"09277145","name":"Simbach a.Inn, St","type":"Stadt"},"district":{"key":"09277","name":"Rottal-Inn","type":"Landkreis"},"federalState":{"key":"09","name":"Bayern"}},{"name":"Erlacher Wiesen","postalCode":"84359","locality":"Simbach","municipality":{"key":"09277145","name":"Simbach a.Inn, St","type":"Stadt"},"district":{"key":"09277","name":"Rottal-Inn","type":"Landkreis"},"federalState":{"key":"09","name":"Bayern"}},{"name":"Erlenweg","postalCode":"84359","locality":"Simbach","municipality":{"key":"09277145","name":"Simbach a.Inn, St","type":"Stadt"},"district":{"key":"09277","name":"Rottal-Inn","type":"Landkreis"},"federalState":{"key":"09","name":"Bayern"}},{"name":"Espertstr.","postalCode":"94436","locality":"Simbach","municipality":{"key":"09279135","name":"Simbach, M","type":"Markt"},"district":{"key":"09279","name":"Dingolfing-Landau","type":"Landkreis"},"federalState":{"key":"09","name":"Bayern"}},{"name":"Ewigkeit","postalCode":"84359","locality":"Simbach","municipality":{"key":"09277145","name":"Simbach a.Inn, St","type":"Stadt"},"district":{"key":"09277","name":"Rottal-Inn","type":"Landkreis"},"federalState":{"key":"09","name":"Bayern"}},{"name":"Feldstr.","postalCode":"94436","locality":"Simbach","municipality":{"key":"09279135","name":"Simbach, M","type":"Markt"},"district":{"key":"09279","name":"Dingolfing-Landau","type":"Landkreis"},"federalState":{"key":"09","name":"Bayern"}},{"name":"Ferdinand-Aufschläger-Str.","postalCode":"84359","locality":"Simbach","municipality":{"key":"09277145","name":"Simbach a.Inn, St","type":"Stadt"},"district":{"key":"09277","name":"Rottal-Inn","type":"Landkreis"},"federalState":{"key":"09","name":"Bayern"}},{"name":"Ferdinand-Lehner-Str.","postalCode":"84359","locality":"Simbach","municipality":{"key":"09277145","name":"Simbach a.Inn, St","type":"Stadt"},"district":{"key":"09277","name":"Rottal-Inn","type":"Landkreis"},"federalState":{"key":"09","name":"Bayern"}},{"name":"Fichtenstr.","postalCode":"94436","locality":"Simbach","municipality":{"key":"09279135","name":"Simbach, M","type":"Markt"},"district":{"key":"09279","name":"Dingolfing-Landau","type":"Landkreis"},"federalState":{"key":"09","name":"Bayern"}},{"name":"Finkenweg","postalCode":"94436","locality":"Simbach","municipality":{"key":"09279135","name":"Simbach, M","type":"Markt"},"district":{"key":"09279","name":"Dingolfing-Landau","type":"Landkreis"},"federalState":{"key":"09","name":"Bayern"}},{"name":"Fliederweg","postalCode":"94436","locality":"Simbach","municipality":{"key":"09279135","name":"Simbach, M","type":"Markt"},"district":{"key":"09279","name":"Dingolfing-Landau","type":"Landkreis"},"federalState":{"key":"09","name":"Bayern"}},{"name":"Flurstr.","postalCode":"84359","locality":"Simbach","municipality":{"key":"09277145","name":"Simbach a.Inn, St","type":"Stadt"},"district":{"key":"09277","name":"Rottal-Inn","type":"Landkreis"},"federalState":{"key":"09","name":"Bayern"}},{"name":"Flurstr.","postalCode":"94436","locality":"Simbach","municipality":{"key":"09279135","name":"Simbach, M","type":"Markt"},"district":{"key":"09279","name":"Dingolfing-Landau","type":"Landkreis"},"federalState":{"key":"09","name":"Bayern"}},{"name":"Fränkendorf","postalCode":"94436","locality":"Simbach","municipality":{"key":"09279135","name":"Simbach, M","type":"Markt"},"district":{"key":"09279","name":"Dingolfing-Landau","type":"Landkreis"},"federalState":{"key":"09","name":"Bayern"}},{"name":"Friedhofstr.","postalCode":"94436","locality":"Simbach","municipality":{"key":"09279135","name":"Simbach, M","type":"Markt"},"district":{"key":"09279","name":"Dingolfing-Landau","type":"Landkreis"},"federalState":{"key":"09","name":"Bayern"}},{"name":"Frühlingstr.","postalCode":"94436","locality":"Simbach","municipality":{"key":"09279135","name":"Simbach, M","type":"Markt"},"district":{"key":"09279","name":"Dingolfing-Landau","type":"Landkreis"},"federalState":{"key":"09","name":"Bayern"}},{"name":"Fuchshügelweg","postalCode":"94436","locality":"Simbach","municipality":{"key":"09279135","name":"Simbach, M","type":"Markt"},"district":{"key":"09279","name":"Dingolfing-Landau","type":"Landkreis"},"federalState":{"key":"09","name":"Bayern"}},{"name":"Furtnerhöhe","postalCode":"94436","locality":"Simbach","municipality":{"key":"09279135","name":"Simbach, M","type":"Markt"},"district":{"key":"09279","name":"Dingolfing-Landau","type":"Landkreis"},"federalState":{"key":"09","name":"Bayern"}},{"name":"Gartenstr.","postalCode":"84359","locality":"Simbach","municipality":{"key":"09277145","name":"Simbach a.Inn, St","type":"Stadt"},"district":{"key":"09277","name":"Rottal-Inn","type":"Landkreis"},"federalState":{"key":"09","name":"Bayern"}},{"name":"Geltermeierberg","postalCode":"94436","locality":"Simbach","municipality":{"key":"09279135","name":"Simbach, M","type":"Markt"},"district":{"key":"09279","name":"Dingolfing-Landau","type":"Landkreis"},"federalState":{"key":"09","name":"Bayern"}},{"name":"Geltermeierweg","postalCode":"94436","locality":"Simbach","municipality":{"key":"09279135","name":"Simbach, M","type":"Markt"},"district":{"key":"09279","name":"Dingolfing-Landau","type":"Landkreis"},"federalState":{"key":"09","name":"Bayern"}},{"name":"Gewerbering","postalCode":"84359","locality":"Simbach","municipality":{"key":"09277145","name":"Simbach a.Inn, St","type":"Stadt"},"district":{"key":"09277","name":"Rottal-Inn","type":"Landkreis"},"federalState":{"key":"09","name":"Bayern"}},{"name":"Gollinger Feld","postalCode":"84359","locality":"Simbach","municipality":{"key":"09277145","name":"Simbach a.Inn, St","type":"Stadt"},"district":{"key":"09277","name":"Rottal-Inn","type":"Landkreis"},"federalState":{"key":"09","name":"Bayern"}},{"name":"Gollinger Str.","postalCode":"84359","locality":"Simbach","municipality":{"key":"09277145","name":"Simbach a.Inn, St","type":"Stadt"},"district":{"key":"09277","name":"Rottal-Inn","type":"Landkreis"},"federalState":{"key":"09","name":"Bayern"}},{"name":"Griesenstr.","postalCode":"94436","locality":"Simbach","municipality":{"key":"09279135","name":"Simbach, M","type":"Markt"},"district":{"key":"09279","name":"Dingolfing-Landau","type":"Landkreis"},"federalState":{"key":"09","name":"Bayern"}},{"name":"Haberskirchner Str.","postalCode":"94436","locality":"Simbach","municipality":{"key":"09279135","name":"Simbach, M","type":"Markt"},"district":{"key":"09279","name":"Dingolfing-Landau","type":"Landkreis"},"federalState":{"key":"09","name":"Bayern"}},{"name":"Hangstr.","postalCode":"84359","locality":"Simbach","municipality":{"key":"09277145","name":"Simbach a.Inn, St","type":"Stadt"},"district":{"key":"09277","name":"Rottal-Inn","type":"Landkreis"},"federalState":{"key":"09","name":"Bayern"}},{"name":"Hans-Baierl-Str.","postalCode":"94436","locality":"Simbach","municipality":{"key":"09279135","name":"Simbach, M","type":"Markt"},"district":{"key":"09279","name":"Dingolfing-Landau","type":"Landkreis"},"federalState":{"key":"09","name":"Bayern"}},{"name":"Hans-Carossa-Str.","postalCode":"84359","locality":"Simbach","municipality":{"key":"09277145","name":"Simbach a.Inn, St","type":"Stadt"},"district":{"key":"09277","name":"Rottal-Inn","type":"Landkreis"},"federalState":{"key":"09","name":"Bayern"}},{"name":"Hans-Murauer-Str.","postalCode":"84359","locality":"Simbach","municipality":{"key":"09277145","name":"Simbach a.Inn, St","type":"Stadt"},"district":{"key":"09277","name":"Rottal-Inn","type":"Landkreis"},"federalState":{"key":"09","name":"Bayern"}},{"name":"Hasenöder Ring","postalCode":"94436","locality":"Simbach","municipality":{"key":"09279135","name":"Simbach, M","type":"Markt"},"district":{"key":"09279","name":"Dingolfing-Landau","type":"Landkreis"},"federalState":{"key":"09","name":"Bayern"}},{"name":"Hasenöderweg","postalCode":"94436","locality":"Simbach","municipality":{"key":"09279135","name":"Simbach, M","type":"Markt"},"district":{"key":"09279","name":"Dingolfing-Landau","type":"Landkreis"},"federalState":{"key":"09","name":"Bayern"}},{"name":"Hauptstr.","postalCode":"94436","locality":"Simbach","municipality":{"key":"09279135","name":"Simbach, M","type":"Markt"},"district":{"key":"09279","name":"Dingolfing-Landau","type":"Landkreis"},"federalState":{"key":"09","name":"Bayern"}},{"name":"Hausnerstr.","postalCode":"94436","locality":"Simbach","municipality":{"key":"09279135","name":"Simbach, M","type":"Markt"},"district":{"key":"09279","name":"Dingolfing-Landau","type":"Landkreis"},"federalState":{"key":"09","name":"Bayern"}},{"name":"Heinzelspitze","postalCode":"84359","locality":"Simbach","municipality":{"key":"09277145","name":"Simbach a.Inn, St","type":"Stadt"},"district":{"key":"09277","name":"Rottal-Inn","type":"Landkreis"},"federalState":{"key":"09","name":"Bayern"}},{"name":"Heraklithstr.","postalCode":"84359","locality":"Simbach","municipality":{"key":"09277145","name":"Simbach a.Inn, St","type":"Stadt"},"district":{"key":"09277","name":"Rottal-Inn","type":"Landkreis"},"federalState":{"key":"09","name":"Bayern"}},{"name":"Hintere Moosecker Str.","postalCode":"84359","locality":"Simbach","municipality":{"key":"09277145","name":"Simbach a.Inn, St","type":"Stadt"},"district":{"key":"09277","name":"Rottal-Inn","type":"Landkreis"},"federalState":{"key":"09","name":"Bayern"}},{"name":"Hochfeldweg","postalCode":"94436","locality":"Simbach","municipality":{"key":"09279135","name":"Simbach, M","type":"Markt"},"district":{"key":"09279","name":"Dingolfing-Landau","type":"Landkreis"},"federalState":{"key":"09","name":"Bayern"}},{"name":"Hochstr.","postalCode":"94436","locality":"Simbach","municipality":{"key":"09279135","name":"Simbach, M","type":"Markt"},"district":{"key":"09279","name":"Dingolfing-Landau","type":"Landkreis"},"federalState":{"key":"09","name":"Bayern"}},{"name":"Hofmark","postalCode":"94436","locality":"Simbach","municipality":{"key":"09279135","name":"Simbach, M","type":"Markt"},"district":{"key":"09279","name":"Dingolfing-Landau","type":"Landkreis"},"federalState":{"key":"09","name":"Bayern"}},{"name":"Hofstetten","postalCode":"94436","locality":"Simbach","municipality":{"key":"09279135","name":"Simbach, M","type":"Markt"},"district":{"key":"09279","name":"Dingolfing-Landau","type":"Landkreis"},"federalState":{"key":"09","name":"Bayern"}},{"name":"Holzhausen","postalCode":"94436","locality":"Simbach","municipality":{"key":"09279135","name":"Simbach, M","type":"Markt"},"district":{"key":"09279","name":"Dingolfing-Landau","type":"Landkreis"},"federalState":{"key":"09","name":"Bayern"}},{"name":"Holzhauser Weg","postalCode":"94436","locality":"Simbach","municipality":{"key":"09279135","name":"Simbach, M","type":"Markt"},"district":{"key":"09279","name":"Dingolfing-Landau","type":"Landkreis"},"federalState":{"key":"09","name":"Bayern"}},{"name":"Hornacher Str.","postalCode":"94436","locality":"Simbach","municipality":{"key":"09279135","name":"Simbach, M","type":"Markt"},"district":{"key":"09279","name":"Dingolfing-Landau","type":"Landkreis"},"federalState":{"key":"09","name":"Bayern"}},{"name":"In der Schacht","postalCode":"84359","locality":"Simbach","municipality":{"key":"09277145","name":"Simbach a.Inn, St","type":"Stadt"},"district":{"key":"09277","name":"Rottal-Inn","type":"Landkreis"},"federalState":{"key":"09","name":"Bayern"}},{"name":"Industriestr.","postalCode":"84359","locality":"Simbach","municipality":{"key":"09277145","name":"Simbach a.Inn, St","type":"Stadt"},"district":{"key":"09277","name":"Rottal-Inn","type":"Landkreis"},"federalState":{"key":"09","name":"Bayern"}},{"name":"Inndamm","postalCode":"84359","locality":"Simbach","municipality":{"key":"09277145","name":"Simbach a.Inn, St","type":"Stadt"},"district":{"key":"09277","name":"Rottal-Inn","type":"Landkreis"},"federalState":{"key":"09","name":"Bayern"}},{"name":"Innstr.","postalCode":"84359","locality":"Simbach","municipality":{"key":"09277145","name":"Simbach a.Inn, St","type":"Stadt"},"district":{"key":"09277","name":"Rottal-Inn","type":"Landkreis"},"federalState":{"key":"09","name":"Bayern"}},{"name":"Irging","postalCode":"84359","locality":"Simbach","municipality":{"key":"09277145","name":"Simbach a.Inn, St","type":"Stadt"},"district":{"key":"09277","name":"Rottal-Inn","type":"Landkreis"},"federalState":{"key":"09","name":"Bayern"}},{"name":"Jägerndorfer Str.","postalCode":"94436","locality":"Simbach","municipality":{"key":"09279135","name":"Simbach, M","type":"Markt"},"district":{"key":"09279","name":"Dingolfing-Landau","type":"Landkreis"},"federalState":{"key":"09","name":"Bayern"}},{"name":"Jahnweg","postalCode":"84359","locality":"Simbach","municipality":{"key":"09277145","name":"Simbach a.Inn, St","type":"Stadt"},"district":{"key":"09277","name":"Rottal-Inn","type":"Landkreis"},"federalState":{"key":"09","name":"Bayern"}},{"name":"Jakob-Groß-Str.","postalCode":"84359","locality":"Simbach","municipality":{"key":"09277145","name":"Simbach a.Inn, St","type":"Stadt"},"district":{"key":"09277","name":"Rottal-Inn","type":"Landkreis"},"federalState":{"key":"09","name":"Bayern"}},{"name":"Jakob-Stenger-Str.","postalCode":"84359","locality":"Simbach","municipality":{"key":"09277145","name":"Simbach a.Inn, St","type":"Stadt"},"district":{"key":"09277","name":"Rottal-Inn","type":"Landkreis"},"federalState":{"key":"09","name":"Bayern"}},{"name":"Jakob-Weindler-Str.","postalCode":"84359","locality":"Simbach","municipality":{"key":"09277145","name":"Simbach a.Inn, St","type":"Stadt"},"district":{"key":"09277","name":"Rottal-Inn","type":"Landkreis"},"federalState":{"key":"09","name":"Bayern"}},{"name":"Josef-Hadeier-Str.","postalCode":"84359","locality":"Simbach","municipality":{"key":"09277145","name":"Simbach a.Inn, St","type":"Stadt"},"district":{"key":"09277","name":"Rottal-Inn","type":"Landkreis"},"federalState":{"key":"09","name":"Bayern"}},{"name":"Josef-Hellmannsberger-Str.","postalCode":"84359","locality":"Simbach","municipality":{"key":"09277145","name":"Simbach a.Inn, St","type":"Stadt"},"district":{"key":"09277","name":"Rottal-Inn","type":"Landkreis"},"federalState":{"key":"09","name":"Bayern"}},{"name":"Josef-Karl-Nerud-Str.","postalCode":"84359","locality":"Simbach","municipality":{"key":"09277145","name":"Simbach a.Inn, St","type":"Stadt"},"district":{"key":"09277","name":"Rottal-Inn","type":"Landkreis"},"federalState":{"key":"09","name":"Bayern"}},{"name":"Josef-Scheiblhuber-Weg","postalCode":"84359","locality":"Simbach","municipality":{"key":"09277145","name":"Simbach a.Inn, St","type":"Stadt"},"district":{"key":"09277","name":"Rottal-Inn","type":"Landkreis"},"federalState":{"key":"09","name":"Bayern"}},{"name":"Josef-Strauß-Str.","postalCode":"84359","locality":"Simbach","municipality":{"key":"09277145","name":"Simbach a.Inn, St","type":"Stadt"},"district":{"key":"09277","name":"Rottal-Inn","type":"Landkreis"},"federalState":{"key":"09","name":"Bayern"}},{"name":"Kaltenbrunnweg","postalCode":"94436","locality":"Simbach","municipality":{"key":"09279135","name":"Simbach, M","type":"Markt"},"district":{"key":"09279","name":"Dingolfing-Landau","type":"Landkreis"},"federalState":{"key":"09","name":"Bayern"}},{"name":"Karl-Meisinger-Str.","postalCode":"84359","locality":"Simbach","municipality":{"key":"09277145","name":"Simbach a.Inn, St","type":"Stadt"},"district":{"key":"09277","name":"Rottal-Inn","type":"Landkreis"},"federalState":{"key":"09","name":"Bayern"}},{"name":"Karl-Mühlhuber-Str.","postalCode":"84359","locality":"Simbach","municipality":{"key":"09277145","name":"Simbach a.Inn, St","type":"Stadt"},"district":{"key":"09277","name":"Rottal-Inn","type":"Landkreis"},"federalState":{"key":"09","name":"Bayern"}},{"name":"Karl-Schaefler-Str.","postalCode":"84359","locality":"Simbach","municipality":{"key":"09277145","name":"Simbach a.Inn, St","type":"Stadt"},"district":{"key":"09277","name":"Rottal-Inn","type":"Landkreis"},"federalState":{"key":"09","name":"Bayern"}},{"name":"Kasberg","postalCode":"84359","locality":"Simbach","municipality":{"key":"09277145","name":"Simbach a.Inn, St","type":"Stadt"},"district":{"key":"09277","name":"Rottal-Inn","type":"Landkreis"},"federalState":{"key":"09","name":"Bayern"}},{"name":"Kirchberger Str.","postalCode":"84359","locality":"Simbach","municipality":{"key":"09277145","name":"Simbach a.Inn, St","type":"Stadt"},"district":{"key":"09277","name":"Rottal-Inn","type":"Landkreis"},"federalState":{"key":"09","name":"Bayern"}},{"name":"Kirchenplatz","postalCode":"84359","locality":"Simbach","municipality":{"key":"09277145","name":"Simbach a.Inn, St","type":"Stadt"},"district":{"key":"09277","name":"Rottal-Inn","type":"Landkreis"},"federalState":{"key":"09","name":"Bayern"}},{"name":"Kirchenstr.","postalCode":"84359","locality":"Simbach","municipality":{"key":"09277145","name":"Simbach a.Inn, St","type":"Stadt"},"district":{"key":"09277","name":"Rottal-Inn","type":"Landkreis"},"federalState":{"key":"09","name":"Bayern"}},{"name":"Kirchenweg","postalCode":"94436","locality":"Simbach","municipality":{"key":"09279135","name":"Simbach, M","type":"Markt"},"district":{"key":"09279","name":"Dingolfing-Landau","type":"Landkreis"},"federalState":{"key":"09","name":"Bayern"}},{"name":"Kollbach-Radweg","postalCode":"94436","locality":"Simbach","municipality":{"key":"09279135","name":"Simbach, M","type":"Markt"},"district":{"key":"09279","name":"Dingolfing-Landau","type":"Landkreis"},"federalState":{"key":"09","name":"Bayern"}},{"name":"Königsberger Str.","postalCode":"84359","locality":"Simbach","municipality":{"key":"09277145","name":"Simbach a.Inn, St","type":"Stadt"},"district":{"key":"09277","name":"Rottal-Inn","type":"Landkreis"},"federalState":{"key":"09","name":"Bayern"}},{"name":"Kreuzberger Feld","postalCode":"84359","locality":"Simbach","municipality":{"key":"09277145","name":"Simbach a.Inn, St","type":"Stadt"},"district":{"key":"09277","name":"Rottal-Inn","type":"Landkreis"},"federalState":{"key":"09","name":"Bayern"}},{"name":"Kreuzberger Weg","postalCode":"84359","locality":"Simbach","municipality":{"key":"09277145","name":"Simbach a.Inn, St","type":"Stadt"},"district":{"key":"09277","name":"Rottal-Inn","type":"Landkreis"},"federalState":{"key":"09","name":"Bayern"}},{"name":"Kreuzkirchenstr.","postalCode":"94436","locality":"Simbach","municipality":{"key":"09279135","name":"Simbach, M","type":"Markt"},"district":{"key":"09279","name":"Dingolfing-Landau","type":"Landkreis"},"federalState":{"key":"09","name":"Bayern"}},{"name":"Kreuzweg","postalCode":"84359","locality":"Simbach","municipality":{"key":"09277145","name":"Simbach a.Inn, St","type":"Stadt"},"district":{"key":"09277","name":"Rottal-Inn","type":"Landkreis"},"federalState":{"key":"09","name":"Bayern"}},{"name":"Lagerhausstr.","postalCode":"84359","locality":"Simbach","municipality":{"key":"09277145","name":"Simbach a.Inn, St","type":"Stadt"},"district":{"key":"09277","name":"Rottal-Inn","type":"Landkreis"},"federalState":{"key":"09","name":"Bayern"}},{"name":"Landauer Str.","postalCode":"94436","locality":"Simbach","municipality":{"key":"09279135","name":"Simbach, M","type":"Markt"},"district":{"key":"09279","name":"Dingolfing-Landau","type":"Landkreis"},"federalState":{"key":"09","name":"Bayern"}},{"name":"Langgrabener Ring","postalCode":"94436","locality":"Simbach","municipality":{"key":"09279135","name":"Simbach, M","type":"Markt"},"district":{"key":"09279","name":"Dingolfing-Landau","type":"Landkreis"},"federalState":{"key":"09","name":"Bayern"}},{"name":"Lengdorfer Ring","postalCode":"84359","locality":"Simbach","municipality":{"key":"09277145","name":"Simbach a.Inn, St","type":"Stadt"},"district":{"key":"09277","name":"Rottal-Inn","type":"Landkreis"},"federalState":{"key":"09","name":"Bayern"}},{"name":"Lindenstr.","postalCode":"84359","locality":"Simbach","municipality":{"key":"09277145","name":"Simbach a.Inn, St","type":"Stadt"},"district":{"key":"09277","name":"Rottal-Inn","type":"Landkreis"},"federalState":{"key":"09","name":"Bayern"}},{"name":"Maria-Ward-Str.","postalCode":"84359","locality":"Simbach","municipality":{"key":"09277145","name":"Simbach a.Inn, St","type":"Stadt"},"district":{"key":"09277","name":"Rottal-Inn","type":"Landkreis"},"federalState":{"key":"09","name":"Bayern"}},{"name":"Marktplatz","postalCode":"94436","locality":"Simbach","municipality":{"key":"09279135","name":"Simbach, M","type":"Markt"},"district":{"key":"09279","name":"Dingolfing-Landau","type":"Landkreis"},"federalState":{"key":"09","name":"Bayern"}},{"name":"Max-Herrndobler-Str.","postalCode":"84359","locality":"Simbach","municipality":{"key":"09277145","name":"Simbach a.Inn, St","type":"Stadt"},"district":{"key":"09277","name":"Rottal-Inn","type":"Landkreis"},"federalState":{"key":"09","name":"Bayern"}},{"name":"Maximilianstr.","postalCode":"84359","locality":"Simbach","municipality":{"key":"09277145","name":"Simbach a.Inn, St","type":"Stadt"},"district":{"key":"09277","name":"Rottal-Inn","type":"Landkreis"},"federalState":{"key":"09","name":"Bayern"}},{"name":"Max-Peinkofer-Str.","postalCode":"84359","locality":"Simbach","municipality":{"key":"09277145","name":"Simbach a.Inn, St","type":"Stadt"},"district":{"key":"09277","name":"Rottal-Inn","type":"Landkreis"},"federalState":{"key":"09","name":"Bayern"}},{"name":"Meindlstr.","postalCode":"84359","locality":"Simbach","municipality":{"key":"09277145","name":"Simbach a.Inn, St","type":"Stadt"},"district":{"key":"09277","name":"Rottal-Inn","type":"Landkreis"},"federalState":{"key":"09","name":"Bayern"}},{"name":"Mitterloh","postalCode":"94436","locality":"Simbach","municipality":{"key":"09279135","name":"Simbach, M","type":"Markt"},"district":{"key":"09279","name":"Dingolfing-Landau","type":"Landkreis"},"federalState":{"key":"09","name":"Bayern"}},{"name":"Mittermeierweg","postalCode":"94436","locality":"Simbach","municipality":{"key":"09279135","name":"Simbach, M","type":"Markt"},"district":{"key":"09279","name":"Dingolfing-Landau","type":"Landkreis"},"federalState":{"key":"09","name":"Bayern"}},{"name":"Moosecker Str.","postalCode":"84359","locality":"Simbach","municipality":{"key":"09277145","name":"Simbach a.Inn, St","type":"Stadt"},"district":{"key":"09277","name":"Rottal-Inn","type":"Landkreis"},"federalState":{"key":"09","name":"Bayern"}},{"name":"Mühlenweg","postalCode":"84359","locality":"Simbach","municipality":{"key":"09277145","name":"Simbach a.Inn, St","type":"Stadt"},"district":{"key":"09277","name":"Rottal-Inn","type":"Landkreis"},"federalState":{"key":"09","name":"Bayern"}},{"name":"Mühlstr.","postalCode":"94436","locality":"Simbach","municipality":{"key":"09279135","name":"Simbach, M","type":"Markt"},"district":{"key":"09279","name":"Dingolfing-Landau","type":"Landkreis"},"federalState":{"key":"09","name":"Bayern"}},{"name":"Mühlweg","postalCode":"84359","locality":"Simbach","municipality":{"key":"09277145","name":"Simbach a.Inn, St","type":"Stadt"},"district":{"key":"09277","name":"Rottal-Inn","type":"Landkreis"},"federalState":{"key":"09","name":"Bayern"}},{"name":"Münchner Str.","postalCode":"84359","locality":"Simbach","municipality":{"key":"09277145","name":"Simbach a.Inn, St","type":"Stadt"},"district":{"key":"09277","name":"Rottal-Inn","type":"Landkreis"},"federalState":{"key":"09","name":"Bayern"}},{"name":"Narzissenweg","postalCode":"94436","locality":"Simbach","municipality":{"key":"09279135","name":"Simbach, M","type":"Markt"},"district":{"key":"09279","name":"Dingolfing-Landau","type":"Landkreis"},"federalState":{"key":"09","name":"Bayern"}},{"name":"Nattersdorf","postalCode":"94436","locality":"Simbach","municipality":{"key":"09279135","name":"Simbach, M","type":"Markt"},"district":{"key":"09279","name":"Dingolfing-Landau","type":"Landkreis"},"federalState":{"key":"09","name":"Bayern"}},{"name":"Nelkenstr.","postalCode":"94436","locality":"Simbach","municipality":{"key":"09279135","name":"Simbach, M","type":"Markt"},"district":{"key":"09279","name":"Dingolfing-Landau","type":"Landkreis"},"federalState":{"key":"09","name":"Bayern"}},{"name":"Neue Gasse","postalCode":"84359","locality":"Simbach","municipality":{"key":"09277145","name":"Simbach a.Inn, St","type":"Stadt"},"district":{"key":"09277","name":"Rottal-Inn","type":"Landkreis"},"federalState":{"key":"09","name":"Bayern"}},{"name":"Nussbaumstr.","postalCode":"84359","locality":"Simbach","municipality":{"key":"09277145","name":"Simbach a.Inn, St","type":"Stadt"},"district":{"key":"09277","name":"Rottal-Inn","type":"Landkreis"},"federalState":{"key":"09","name":"Bayern"}},{"name":"Obere Dorfstr.","postalCode":"94436","locality":"Simbach","municipality":{"key":"09279135","name":"Simbach, M","type":"Markt"},"district":{"key":"09279","name":"Dingolfing-Landau","type":"Landkreis"},"federalState":{"key":"09","name":"Bayern"}},{"name":"Obersimbach","postalCode":"84359","locality":"Simbach","municipality":{"key":"09277145","name":"Simbach a.Inn, St","type":"Stadt"},"district":{"key":"09277","name":"Rottal-Inn","type":"Landkreis"},"federalState":{"key":"09","name":"Bayern"}},{"name":"Oberwirtssiedlung","postalCode":"94436","locality":"Simbach","municipality":{"key":"09279135","name":"Simbach, M","type":"Markt"},"district":{"key":"09279","name":"Dingolfing-Landau","type":"Landkreis"},"federalState":{"key":"09","name":"Bayern"}},{"name":"Osterweiher","postalCode":"94436","locality":"Simbach","municipality":{"key":"09279135","name":"Simbach, M","type":"Markt"},"district":{"key":"09279","name":"Dingolfing-Landau","type":"Landkreis"},"federalState":{"key":"09","name":"Bayern"}},{"name":"Ostpreußenweg","postalCode":"94436","locality":"Simbach","municipality":{"key":"09279135","name":"Simbach, M","type":"Markt"},"district":{"key":"09279","name":"Dingolfing-Landau","type":"Landkreis"},"federalState":{"key":"09","name":"Bayern"}},{"name":"Palmstr.","postalCode":"84359","locality":"Simbach","municipality":{"key":"09277145","name":"Simbach a.Inn, St","type":"Stadt"},"district":{"key":"09277","name":"Rottal-Inn","type":"Landkreis"},"federalState":{"key":"09","name":"Bayern"}},{"name":"Pappelweg","postalCode":"94436","locality":"Simbach","municipality":{"key":"09279135","name":"Simbach, M","type":"Markt"},"district":{"key":"09279","name":"Dingolfing-Landau","type":"Landkreis"},"federalState":{"key":"09","name":"Bayern"}},{"name":"Passauer Str.","postalCode":"84359","locality":"Simbach","municipality":{"key":"09277145","name":"Simbach a.Inn, St","type":"Stadt"},"district":{"key":"09277","name":"Rottal-Inn","type":"Landkreis"},"federalState":{"key":"09","name":"Bayern"}},{"name":"Pfarrer-Binder-Str.","postalCode":"84359","locality":"Simbach","municipality":{"key":"09277145","name":"Simbach a.Inn, St","type":"Stadt"},"district":{"key":"09277","name":"Rottal-Inn","type":"Landkreis"},"federalState":{"key":"09","name":"Bayern"}},{"name":"Pfarrhofstr.","postalCode":"94436","locality":"Simbach","municipality":{"key":"09279135","name":"Simbach, M","type":"Markt"},"district":{"key":"09279","name":"Dingolfing-Landau","type":"Landkreis"},"federalState":{"key":"09","name":"Bayern"}},{"name":"Pfarrkirchner Str.","postalCode":"84359","locality":"Simbach","municipality":{"key":"09277145","name":"Simbach a.Inn, St","type":"Stadt"},"district":{"key":"09277","name":"Rottal-Inn","type":"Landkreis"},"federalState":{"key":"09","name":"Bayern"}},{"name":"Pflugbeilstr.","postalCode":"94436","locality":"Simbach","municipality":{"key":"09279135","name":"Simbach, M","type":"Markt"},"district":{"key":"09279","name":"Dingolfing-Landau","type":"Landkreis"},"federalState":{"key":"09","name":"Bayern"}},{"name":"Pirka","postalCode":"94436","locality":"Simbach","municipality":{"key":"09279135","name":"Simbach, M","type":"Markt"},"district":{"key":"09279","name":"Dingolfing-Landau","type":"Landkreis"},"federalState":{"key":"09","name":"Bayern"}},{"name":"Plinganserstr.","postalCode":"84359","locality":"Simbach","municipality":{"key":"09277145","name":"Simbach a.Inn, St","type":"Stadt"},"district":{"key":"09277","name":"Rottal-Inn","type":"Landkreis"},"federalState":{"key":"09","name":"Bayern"}},{"name":"Pommernweg","postalCode":"94436","locality":"Simbach","municipality":{"key":"09279135","name":"Simbach, M","type":"Markt"},"district":{"key":"09279","name":"Dingolfing-Landau","type":"Landkreis"},"federalState":{"key":"09","name":"Bayern"}},{"name":"Posthalterstr.","postalCode":"84359","locality":"Simbach","municipality":{"key":"09277145","name":"Simbach a.Inn, St","type":"Stadt"},"district":{"key":"09277","name":"Rottal-Inn","type":"Landkreis"},"federalState":{"key":"09","name":"Bayern"}},{"name":"PrivatSteig","postalCode":"84359","locality":"Simbach","municipality":{"key":"09277145","name":"Simbach a.Inn, St","type":"Stadt"},"district":{"key":"09277","name":"Rottal-Inn","type":"Landkreis"},"federalState":{"key":"09","name":"Bayern"}},{"name":"Reisbacher Str.","postalCode":"94436","locality":"Simbach","municipality":{"key":"09279135","name":"Simbach, M","type":"Markt"},"district":{"key":"09279","name":"Dingolfing-Landau","type":"Landkreis"},"federalState":{"key":"09","name":"Bayern"}},{"name":"Rennbahnsiedlung","postalCode":"84359","locality":"Simbach","municipality":{"key":"09277145","name":"Simbach a.Inn, St","type":"Stadt"},"district":{"key":"09277","name":"Rottal-Inn","type":"Landkreis"},"federalState":{"key":"09","name":"Bayern"}},{"name":"Richard-Scharrer-Str.","postalCode":"84359","locality":"Simbach","municipality":{"key":"09277145","name":"Simbach a.Inn, St","type":"Stadt"},"district":{"key":"09277","name":"Rottal-Inn","type":"Landkreis"},"federalState":{"key":"09","name":"Bayern"}},{"name":"Ringstr.","postalCode":"84359","locality":"Simbach","municipality":{"key":"09277145","name":"Simbach a.Inn, St","type":"Stadt"},"district":{"key":"09277","name":"Rottal-Inn","type":"Landkreis"},"federalState":{"key":"09","name":"Bayern"}},{"name":"Rosenstr.","postalCode":"94436","locality":"Simbach","municipality":{"key":"09279135","name":"Simbach, M","type":"Markt"},"district":{"key":"09279","name":"Dingolfing-Landau","type":"Landkreis"},"federalState":{"key":"09","name":"Bayern"}},{"name":"Rudolf-Vierlinger-Str.","postalCode":"84359","locality":"Simbach","municipality":{"key":"09277145","name":"Simbach a.Inn, St","type":"Stadt"},"district":{"key":"09277","name":"Rottal-Inn","type":"Landkreis"},"federalState":{"key":"09","name":"Bayern"}},{"name":"Rupert-Feilkas-Str.","postalCode":"84359","locality":"Simbach","municipality":{"key":"09277145","name":"Simbach a.Inn, St","type":"Stadt"},"district":{"key":"09277","name":"Rottal-Inn","type":"Landkreis"},"federalState":{"key":"09","name":"Bayern"}},{"name":"Sand","postalCode":"94436","locality":"Simbach","municipality":{"key":"09279135","name":"Simbach, M","type":"Markt"},"district":{"key":"09279","name":"Dingolfing-Landau","type":"Landkreis"},"federalState":{"key":"09","name":"Bayern"}},{"name":"Sandweg","postalCode":"94436","locality":"Simbach","municipality":{"key":"09279135","name":"Simbach, M","type":"Markt"},"district":{"key":"09279","name":"Dingolfing-Landau","type":"Landkreis"},"federalState":{"key":"09","name":"Bayern"}},{"name":"Satzenberg","postalCode":"84359","locality":"Simbach","municipality":{"key":"09277145","name":"Simbach a.Inn, St","type":"Stadt"},"district":{"key":"09277","name":"Rottal-Inn","type":"Landkreis"},"federalState":{"key":"09","name":"Bayern"}},{"name":"Schillingsfürst","postalCode":"94436","locality":"Simbach","municipality":{"key":"09279135","name":"Simbach, M","type":"Markt"},"district":{"key":"09279","name":"Dingolfing-Landau","type":"Landkreis"},"federalState":{"key":"09","name":"Bayern"}},{"name":"Schlehenweg","postalCode":"94436","locality":"Simbach","municipality":{"key":"09279135","name":"Simbach, M","type":"Markt"},"district":{"key":"09279","name":"Dingolfing-Landau","type":"Landkreis"},"federalState":{"key":"09","name":"Bayern"}},{"name":"Schlesierstr.","postalCode":"84359","locality":"Simbach","municipality":{"key":"09277145","name":"Simbach a.Inn, St","type":"Stadt"},"district":{"key":"09277","name":"Rottal-Inn","type":"Landkreis"},"federalState":{"key":"09","name":"Bayern"}},{"name":"Schlesierstr.","postalCode":"94436","locality":"Simbach","municipality":{"key":"09279135","name":"Simbach, M","type":"Markt"},"district":{"key":"09279","name":"Dingolfing-Landau","type":"Landkreis"},"federalState":{"key":"09","name":"Bayern"}},{"name":"Schloßstr.","postalCode":"94436","locality":"Simbach","municipality":{"key":"09279135","name":"Simbach, M","type":"Markt"},"district":{"key":"09279","name":"Dingolfing-Landau","type":"Landkreis"},"federalState":{"key":"09","name":"Bayern"}},{"name":"Schmiedweg","postalCode":"94436","locality":"Simbach","municipality":{"key":"09279135","name":"Simbach, M","type":"Markt"},"district":{"key":"09279","name":"Dingolfing-Landau","type":"Landkreis"},"federalState":{"key":"09","name":"Bayern"}},{"name":"Schönbergweg","postalCode":"94436","locality":"Simbach","municipality":{"key":"09279135","name":"Simbach, M","type":"Markt"},"district":{"key":"09279","name":"Dingolfing-Landau","type":"Landkreis"},"federalState":{"key":"09","name":"Bayern"}},{"name":"Schreinerweg","postalCode":"94436","locality":"Simbach","municipality":{"key":"09279135","name":"Simbach, M","type":"Markt"},"district":{"key":"09279","name":"Dingolfing-Landau","type":"Landkreis"},"federalState":{"key":"09","name":"Bayern"}},{"name":"Schulgasse","postalCode":"84359","locality":"Simbach","municipality":{"key":"09277145","name":"Simbach a.Inn, St","type":"Stadt"},"district":{"key":"09277","name":"Rottal-Inn","type":"Landkreis"},"federalState":{"key":"09","name":"Bayern"}},{"name":"Schulstr.","postalCode":"94436","locality":"Simbach","municipality":{"key":"09279135","name":"Simbach, M","type":"Markt"},"district":{"key":"09279","name":"Dingolfing-Landau","type":"Landkreis"},"federalState":{"key":"09","name":"Bayern"}},{"name":"Sebastianiplatz","postalCode":"94436","locality":"Simbach","municipality":{"key":"09279135","name":"Simbach, M","type":"Markt"},"district":{"key":"09279","name":"Dingolfing-Landau","type":"Landkreis"},"federalState":{"key":"09","name":"Bayern"}},{"name":"Sebastianistr.","postalCode":"94436","locality":"Simbach","municipality":{"key":"09279135","name":"Simbach, M","type":"Markt"},"district":{"key":"09279","name":"Dingolfing-Landau","type":"Landkreis"},"federalState":{"key":"09","name":"Bayern"}},{"name":"Siedlung","postalCode":"94436","locality":"Simbach","municipality":{"key":"09279135","name":"Simbach, M","type":"Markt"},"district":{"key":"09279","name":"Dingolfing-Landau","type":"Landkreis"},"federalState":{"key":"09","name":"Bayern"}},{"name":"Simbacher Feld","postalCode":"84359","locality":"Simbach","municipality":{"key":"09277145","name":"Simbach a.Inn, St","type":"Stadt"},"district":{"key":"09277","name":"Rottal-Inn","type":"Landkreis"},"federalState":{"key":"09","name":"Bayern"}},{"name":"Simbacher Str.","postalCode":"94436","locality":"Simbach","municipality":{"key":"09279135","name":"Simbach, M","type":"Markt"},"district":{"key":"09279","name":"Dingolfing-Landau","type":"Landkreis"},"federalState":{"key":"09","name":"Bayern"}},{"name":"Simon-Breu-Str.","postalCode":"84359","locality":"Simbach","municipality":{"key":"09277145","name":"Simbach a.Inn, St","type":"Stadt"},"district":{"key":"09277","name":"Rottal-Inn","type":"Landkreis"},"federalState":{"key":"09","name":"Bayern"}},{"name":"Sonnenstr.","postalCode":"94436","locality":"Simbach","municipality":{"key":"09279135","name":"Simbach, M","type":"Markt"},"district":{"key":"09279","name":"Dingolfing-Landau","type":"Landkreis"},"federalState":{"key":"09","name":"Bayern"}},{"name":"Spielplatzring","postalCode":"94436","locality":"Simbach","municipality":{"key":"09279135","name":"Simbach, M","type":"Markt"},"district":{"key":"09279","name":"Dingolfing-Landau","type":"Landkreis"},"federalState":{"key":"09","name":"Bayern"}},{"name":"Sportplatzstr.","postalCode":"94436","locality":"Simbach","municipality":{"key":"09279135","name":"Simbach, M","type":"Markt"},"district":{"key":"09279","name":"Dingolfing-Landau","type":"Landkreis"},"federalState":{"key":"09","name":"Bayern"}},{"name":"Stadtpark","postalCode":"84359","locality":"Simbach","municipality":{"key":"09277145","name":"Simbach a.Inn, St","type":"Stadt"},"district":{"key":"09277","name":"Rottal-Inn","type":"Landkreis"},"federalState":{"key":"09","name":"Bayern"}},{"name":"St.-Antoni-Str.","postalCode":"94436","locality":"Simbach","municipality":{"key":"09279135","name":"Simbach, M","type":"Markt"},"district":{"key":"09279","name":"Dingolfing-Landau","type":"Landkreis"},"federalState":{"key":"09","name":"Bayern"}},{"name":"Steghäuser","postalCode":"84359","locality":"Simbach","municipality":{"key":"09277145","name":"Simbach a.Inn, St","type":"Stadt"},"district":{"key":"09277","name":"Rottal-Inn","type":"Landkreis"},"federalState":{"key":"09","name":"Bayern"}},{"name":"Steinhauerweg","postalCode":"94436","locality":"Simbach","municipality":{"key":"09279135","name":"Simbach, M","type":"Markt"},"district":{"key":"09279","name":"Dingolfing-Landau","type":"Landkreis"},"federalState":{"key":"09","name":"Bayern"}},{"name":"Stephanusstr.","postalCode":"94436","locality":"Simbach","municipality":{"key":"09279135","name":"Simbach, M","type":"Markt"},"district":{"key":"09279","name":"Dingolfing-Landau","type":"Landkreis"},"federalState":{"key":"09","name":"Bayern"}},{"name":"St.-Margarethen-Str.","postalCode":"84359","locality":"Simbach","municipality":{"key":"09277145","name":"Simbach a.Inn, St","type":"Stadt"},"district":{"key":"09277","name":"Rottal-Inn","type":"Landkreis"},"federalState":{"key":"09","name":"Bayern"}},{"name":"Sudetenstr.","postalCode":"84359","locality":"Simbach","municipality":{"key":"09277145","name":"Simbach a.Inn, St","type":"Stadt"},"district":{"key":"09277","name":"Rottal-Inn","type":"Landkreis"},"federalState":{"key":"09","name":"Bayern"}},{"name":"Tannenstr.","postalCode":"84359","locality":"Simbach","municipality":{"key":"09277145","name":"Simbach a.Inn, St","type":"Stadt"},"district":{"key":"09277","name":"Rottal-Inn","type":"Landkreis"},"federalState":{"key":"09","name":"Bayern"}},{"name":"Teichstr.","postalCode":"84359","locality":"Simbach","municipality":{"key":"09277145","name":"Simbach a.Inn, St","type":"Stadt"},"district":{"key":"09277","name":"Rottal-Inn","type":"Landkreis"},"federalState":{"key":"09","name":"Bayern"}},{"name":"Thal","postalCode":"94436","locality":"Simbach","municipality":{"key":"09279135","name":"Simbach, M","type":"Markt"},"district":{"key":"09279","name":"Dingolfing-Landau","type":"Landkreis"},"federalState":{"key":"09","name":"Bayern"}},{"name":"Thalhamer Weg","postalCode":"84359","locality":"Simbach","municipality":{"key":"09277145","name":"Simbach a.Inn, St","type":"Stadt"},"district":{"key":"09277","name":"Rottal-Inn","type":"Landkreis"},"federalState":{"key":"09","name":"Bayern"}},{"name":"Thannhackl","postalCode":"94436","locality":"Simbach","municipality":{"key":"09279135","name":"Simbach, M","type":"Markt"},"district":{"key":"09279","name":"Dingolfing-Landau","type":"Landkreis"},"federalState":{"key":"09","name":"Bayern"}},{"name":"Törringstr.","postalCode":"84359","locality":"Simbach","municipality":{"key":"09277145","name":"Simbach a.Inn, St","type":"Stadt"},"district":{"key":"09277","name":"Rottal-Inn","type":"Landkreis"},"federalState":{"key":"09","name":"Bayern"}},{"name":"Tulpenweg","postalCode":"94436","locality":"Simbach","municipality":{"key":"09279135","name":"Simbach, M","type":"Markt"},"district":{"key":"09279","name":"Dingolfing-Landau","type":"Landkreis"},"federalState":{"key":"09","name":"Bayern"}},{"name":"Ulmenweg","postalCode":"84359","locality":"Simbach","municipality":{"key":"09277145","name":"Simbach a.Inn, St","type":"Stadt"},"district":{"key":"09277","name":"Rottal-Inn","type":"Landkreis"},"federalState":{"key":"09","name":"Bayern"}},{"name":"Unterer Berg","postalCode":"94436","locality":"Simbach","municipality":{"key":"09279135","name":"Simbach, M","type":"Markt"},"district":{"key":"09279","name":"Dingolfing-Landau","type":"Landkreis"},"federalState":{"key":"09","name":"Bayern"}},{"name":"Unterhaarland","postalCode":"94436","locality":"Simbach","municipality":{"key":"09279135","name":"Simbach, M","type":"Markt"},"district":{"key":"09279","name":"Dingolfing-Landau","type":"Landkreis"},"federalState":{"key":"09","name":"Bayern"}},{"name":"Unterhaid","postalCode":"94436","locality":"Simbach","municipality":{"key":"09279135","name":"Simbach, M","type":"Markt"},"district":{"key":"09279","name":"Dingolfing-Landau","type":"Landkreis"},"federalState":{"key":"09","name":"Bayern"}},{"name":"Unterkuglöd","postalCode":"94436","locality":"Simbach","municipality":{"key":"09279135","name":"Simbach, M","type":"Markt"},"district":{"key":"09279","name":"Dingolfing-Landau","type":"Landkreis"},"federalState":{"key":"09","name":"Bayern"}},{"name":"Usselmannstr.","postalCode":"84359","locality":"Simbach","municipality":{"key":"09277145","name":"Simbach a.Inn, St","type":"Stadt"},"district":{"key":"09277","name":"Rottal-Inn","type":"Landkreis"},"federalState":{"key":"09","name":"Bayern"}},{"name":"Veilchenweg","postalCode":"94436","locality":"Simbach","municipality":{"key":"09279135","name":"Simbach, M","type":"Markt"},"district":{"key":"09279","name":"Dingolfing-Landau","type":"Landkreis"},"federalState":{"key":"09","name":"Bayern"}},{"name":"Vorderbrunn","postalCode":"84359","locality":"Simbach","municipality":{"key":"09277145","name":"Simbach a.Inn, St","type":"Stadt"},"district":{"key":"09277","name":"Rottal-Inn","type":"Landkreis"},"federalState":{"key":"09","name":"Bayern"}},{"name":"Vordereich","postalCode":"94436","locality":"Simbach","municipality":{"key":"09279135","name":"Simbach, M","type":"Markt"},"district":{"key":"09279","name":"Dingolfing-Landau","type":"Landkreis"},"federalState":{"key":"09","name":"Bayern"}},{"name":"Waldblickstr.","postalCode":"84359","locality":"Simbach","municipality":{"key":"09277145","name":"Simbach a.Inn, St","type":"Stadt"},"district":{"key":"09277","name":"Rottal-Inn","type":"Landkreis"},"federalState":{"key":"09","name":"Bayern"}},{"name":"Waldhauser Feld","postalCode":"84359","locality":"Simbach","municipality":{"key":"09277145","name":"Simbach a.Inn, St","type":"Stadt"},"district":{"key":"09277","name":"Rottal-Inn","type":"Landkreis"},"federalState":{"key":"09","name":"Bayern"}},{"name":"Waldstr.","postalCode":"84359","locality":"Simbach","municipality":{"key":"09277145","name":"Simbach a.Inn, St","type":"Stadt"},"district":{"key":"09277","name":"Rottal-Inn","type":"Landkreis"},"federalState":{"key":"09","name":"Bayern"}},{"name":"Waldstr.","postalCode":"94436","locality":"Simbach","municipality":{"key":"09279135","name":"Simbach, M","type":"Markt"},"district":{"key":"09279","name":"Dingolfing-Landau","type":"Landkreis"},"federalState":{"key":"09","name":"Bayern"}},{"name":"Waltersdorf","postalCode":"84359","locality":"Simbach","municipality":{"key":"09277145","name":"Simbach a.Inn, St","type":"Stadt"},"district":{"key":"09277","name":"Rottal-Inn","type":"Landkreis"},"federalState":{"key":"09","name":"Bayern"}},{"name":"Waltingerstr.","postalCode":"84359","locality":"Simbach","municipality":{"key":"09277145","name":"Simbach a.Inn, St","type":"Stadt"},"district":{"key":"09277","name":"Rottal-Inn","type":"Landkreis"},"federalState":{"key":"09","name":"Bayern"}},{"name":"Wannersberg","postalCode":"94436","locality":"Simbach","municipality":{"key":"09279135","name":"Simbach, M","type":"Markt"},"district":{"key":"09279","name":"Dingolfing-Landau","type":"Landkreis"},"federalState":{"key":"09","name":"Bayern"}},{"name":"Weiherweg","postalCode":"94436","locality":"Simbach","municipality":{"key":"09279135","name":"Simbach, M","type":"Markt"},"district":{"key":"09279","name":"Dingolfing-Landau","type":"Landkreis"},"federalState":{"key":"09","name":"Bayern"}},{"name":"Weinleiten","postalCode":"84359","locality":"Simbach","municipality":{"key":"09277145","name":"Simbach a.Inn, St","type":"Stadt"},"district":{"key":"09277","name":"Rottal-Inn","type":"Landkreis"},"federalState":{"key":"09","name":"Bayern"}},{"name":"Weißenöder Weg","postalCode":"94436","locality":"Simbach","municipality":{"key":"09279135","name":"Simbach, M","type":"Markt"},"district":{"key":"09279","name":"Dingolfing-Landau","type":"Landkreis"},"federalState":{"key":"09","name":"Bayern"}},{"name":"Weißerdeweg","postalCode":"94436","locality":"Simbach","municipality":{"key":"09279135","name":"Simbach, M","type":"Markt"},"district":{"key":"09279","name":"Dingolfing-Landau","type":"Landkreis"},"federalState":{"key":"09","name":"Bayern"}},{"name":"Widhalm","postalCode":"94436","locality":"Simbach","municipality":{"key":"09279135","name":"Simbach, M","type":"Markt"},"district":{"key":"09279","name":"Dingolfing-Landau","type":"Landkreis"},"federalState":{"key":"09","name":"Bayern"}},{"name":"Widhalmer Ring","postalCode":"94436","locality":"Simbach","municipality":{"key":"09279135","name":"Simbach, M","type":"Markt"},"district":{"key":"09279","name":"Dingolfing-Landau","type":"Landkreis"},"federalState":{"key":"09","name":"Bayern"}},{"name":"Wiesenweg","postalCode":"94436","locality":"Simbach","municipality":{"key":"09279135","name":"Simbach, M","type":"Markt"},"district":{"key":"09279","name":"Dingolfing-Landau","type":"Landkreis"},"federalState":{"key":"09","name":"Bayern"}},{"name":"Wilhelm-Dieß-Str.","postalCode":"84359","locality":"Simbach","municipality":{"key":"09277145","name":"Simbach a.Inn, St","type":"Stadt"},"district":{"key":"09277","name":"Rottal-Inn","type":"Landkreis"},"federalState":{"key":"09","name":"Bayern"}},{"name":"Wilhelm-Mayer-Str.","postalCode":"84359","locality":"Simbach","municipality":{"key":"09277145","name":"Simbach a.Inn, St","type":"Stadt"},"district":{"key":"09277","name":"Rottal-Inn","type":"Landkreis"},"federalState":{"key":"09","name":"Bayern"}},{"name":"Wilhelm-Vorwallner-Str.","postalCode":"84359","locality":"Simbach","municipality":{"key":"09277145","name":"Simbach a.Inn, St","type":"Stadt"},"district":{"key":"09277","name":"Rottal-Inn","type":"Landkreis"},"federalState":{"key":"09","name":"Bayern"}},{"name":"Winkler","postalCode":"84359","locality":"Simbach","municipality":{"key":"09277145","name":"Simbach a.Inn, St","type":"Stadt"},"district":{"key":"09277","name":"Rottal-Inn","type":"Landkreis"},"federalState":{"key":"09","name":"Bayern"}},{"name":"Winklhamer Str.","postalCode":"84359","locality":"Simbach","municipality":{"key":"09277145","name":"Simbach a.Inn, St","type":"Stadt"},"district":{"key":"09277","name":"Rottal-Inn","type":"Landkreis"},"federalState":{"key":"09","name":"Bayern"}},{"name":"Wintersberg","postalCode":"94436","locality":"Simbach","municipality":{"key":"09279135","name":"Simbach, M","type":"Markt"},"district":{"key":"09279","name":"Dingolfing-Landau","type":"Landkreis"},"federalState":{"key":"09","name":"Bayern"}},{"name":"Wintersteig","postalCode":"84359","locality":"Simbach","municipality":{"key":"09277145","name":"Simbach a.Inn, St","type":"Stadt"},"district":{"key":"09277","name":"Rottal-Inn","type":"Landkreis"},"federalState":{"key":"09","name":"Bayern"}},{"name":"Xaver-Weinzierl-Str.","postalCode":"84359","locality":"Simbach","municipality":{"key":"09277145","name":"Simbach a.Inn, St","type":"Stadt"},"district":{"key":"09277","name":"Rottal-Inn","type":"Landkreis"},"federalState":{"key":"09","name":"Bayern"}},{"name":"Zindler Weg","postalCode":"94436","locality":"Simbach","municipality":{"key":"09279135","name":"Simbach, M","type":"Markt"},"district":{"key":"09279","name":"Dingolfing-Landau","type":"Landkreis"},"federalState":{"key":"09","name":"Bayern"}},{"name":"Ölmühle","postalCode":"84359","locality":"Simbach","municipality":{"key":"09277145","name":"Simbach a.Inn, St","type":"Stadt"},"district":{"key":"09277","name":"Rottal-Inn","type":"Landkreis"},"federalState":{"key":"09","name":"Bayern"}},]