[{"name":"Adalbert-Müller-Str.","postalCode":"94447","locality":"Plattling","municipality":{"key":"09271146","name":"Plattling, St","type":"Stadt"},"district":{"key":"09271","name":"Deggendorf","type":"Landkreis"},"federalState":{"key":"09","name":"Bayern"}},{"name":"Ahornweg","postalCode":"94447","locality":"Plattling","municipality":{"key":"09271146","name":"Plattling, St","type":"Stadt"},"district":{"key":"09271","name":"Deggendorf","type":"Landkreis"},"federalState":{"key":"09","name":"Bayern"}},{"name":"Albrechtstr.","postalCode":"94447","locality":"Plattling","municipality":{"key":"09271146","name":"Plattling, St","type":"Stadt"},"district":{"key":"09271","name":"Deggendorf","type":"Landkreis"},"federalState":{"key":"09","name":"Bayern"}},{"name":"Alte Dorfstr.","postalCode":"94447","locality":"Plattling","municipality":{"key":"09271146","name":"Plattling, St","type":"Stadt"},"district":{"key":"09271","name":"Deggendorf","type":"Landkreis"},"federalState":{"key":"09","name":"Bayern"}},{"name":"Alte Marktstr.","postalCode":"94447","locality":"Plattling","municipality":{"key":"09271146","name":"Plattling, St","type":"Stadt"},"district":{"key":"09271","name":"Deggendorf","type":"Landkreis"},"federalState":{"key":"09","name":"Bayern"}},{"name":"Alter Flurweg","postalCode":"94447","locality":"Plattling","municipality":{"key":"09271146","name":"Plattling, St","type":"Stadt"},"district":{"key":"09271","name":"Deggendorf","type":"Landkreis"},"federalState":{"key":"09","name":"Bayern"}},{"name":"Alter Weg","postalCode":"94447","locality":"Plattling","municipality":{"key":"09271146","name":"Plattling, St","type":"Stadt"},"district":{"key":"09271","name":"Deggendorf","type":"Landkreis"},"federalState":{"key":"09","name":"Bayern"}},{"name":"Am Anger","postalCode":"94447","locality":"Plattling","municipality":{"key":"09271146","name":"Plattling, St","type":"Stadt"},"district":{"key":"09271","name":"Deggendorf","type":"Landkreis"},"federalState":{"key":"09","name":"Bayern"}},{"name":"Am Biberberg","postalCode":"94447","locality":"Plattling","municipality":{"key":"09271146","name":"Plattling, St","type":"Stadt"},"district":{"key":"09271","name":"Deggendorf","type":"Landkreis"},"federalState":{"key":"09","name":"Bayern"}},{"name":"Amesmeierweg","postalCode":"94447","locality":"Plattling","municipality":{"key":"09271146","name":"Plattling, St","type":"Stadt"},"district":{"key":"09271","name":"Deggendorf","type":"Landkreis"},"federalState":{"key":"09","name":"Bayern"}},{"name":"Am Forhnauer Weiher","postalCode":"94447","locality":"Plattling","municipality":{"key":"09271146","name":"Plattling, St","type":"Stadt"},"district":{"key":"09271","name":"Deggendorf","type":"Landkreis"},"federalState":{"key":"09","name":"Bayern"}},{"name":"Am Fürterfeld","postalCode":"94447","locality":"Plattling","municipality":{"key":"09271146","name":"Plattling, St","type":"Stadt"},"district":{"key":"09271","name":"Deggendorf","type":"Landkreis"},"federalState":{"key":"09","name":"Bayern"}},{"name":"Am Karolingerfeld","postalCode":"94447","locality":"Plattling","municipality":{"key":"09271146","name":"Plattling, St","type":"Stadt"},"district":{"key":"09271","name":"Deggendorf","type":"Landkreis"},"federalState":{"key":"09","name":"Bayern"}},{"name":"Ammerer Str.","postalCode":"94447","locality":"Plattling","municipality":{"key":"09271146","name":"Plattling, St","type":"Stadt"},"district":{"key":"09271","name":"Deggendorf","type":"Landkreis"},"federalState":{"key":"09","name":"Bayern"}},{"name":"Ammerhof","postalCode":"94447","locality":"Plattling","municipality":{"key":"09271146","name":"Plattling, St","type":"Stadt"},"district":{"key":"09271","name":"Deggendorf","type":"Landkreis"},"federalState":{"key":"09","name":"Bayern"}},{"name":"Amselweg","postalCode":"94447","locality":"Plattling","municipality":{"key":"09271146","name":"Plattling, St","type":"Stadt"},"district":{"key":"09271","name":"Deggendorf","type":"Landkreis"},"federalState":{"key":"09","name":"Bayern"}},{"name":"Am Waserturm","postalCode":"94447","locality":"Plattling","municipality":{"key":"09271146","name":"Plattling, St","type":"Stadt"},"district":{"key":"09271","name":"Deggendorf","type":"Landkreis"},"federalState":{"key":"09","name":"Bayern"}},{"name":"Angerweg","postalCode":"94447","locality":"Plattling","municipality":{"key":"09271146","name":"Plattling, St","type":"Stadt"},"district":{"key":"09271","name":"Deggendorf","type":"Landkreis"},"federalState":{"key":"09","name":"Bayern"}},{"name":"Arberstr.","postalCode":"94447","locality":"Plattling","municipality":{"key":"09271146","name":"Plattling, St","type":"Stadt"},"district":{"key":"09271","name":"Deggendorf","type":"Landkreis"},"federalState":{"key":"09","name":"Bayern"}},{"name":"Auenweg","postalCode":"94447","locality":"Plattling","municipality":{"key":"09271146","name":"Plattling, St","type":"Stadt"},"district":{"key":"09271","name":"Deggendorf","type":"Landkreis"},"federalState":{"key":"09","name":"Bayern"}},{"name":"Bachstr.","postalCode":"94447","locality":"Plattling","municipality":{"key":"09271146","name":"Plattling, St","type":"Stadt"},"district":{"key":"09271","name":"Deggendorf","type":"Landkreis"},"federalState":{"key":"09","name":"Bayern"}},{"name":"Bachwiese","postalCode":"94447","locality":"Plattling","municipality":{"key":"09271146","name":"Plattling, St","type":"Stadt"},"district":{"key":"09271","name":"Deggendorf","type":"Landkreis"},"federalState":{"key":"09","name":"Bayern"}},{"name":"Bahnhofplatz","postalCode":"94447","locality":"Plattling","municipality":{"key":"09271146","name":"Plattling, St","type":"Stadt"},"district":{"key":"09271","name":"Deggendorf","type":"Landkreis"},"federalState":{"key":"09","name":"Bayern"}},{"name":"Bahnhofstr.","postalCode":"94447","locality":"Plattling","municipality":{"key":"09271146","name":"Plattling, St","type":"Stadt"},"district":{"key":"09271","name":"Deggendorf","type":"Landkreis"},"federalState":{"key":"09","name":"Bayern"}},{"name":"Bajuwarenstr.","postalCode":"94447","locality":"Plattling","municipality":{"key":"09271146","name":"Plattling, St","type":"Stadt"},"district":{"key":"09271","name":"Deggendorf","type":"Landkreis"},"federalState":{"key":"09","name":"Bayern"}},{"name":"Bayerwaldstr.","postalCode":"94447","locality":"Plattling","municipality":{"key":"09271146","name":"Plattling, St","type":"Stadt"},"district":{"key":"09271","name":"Deggendorf","type":"Landkreis"},"federalState":{"key":"09","name":"Bayern"}},{"name":"Birkenweg","postalCode":"94447","locality":"Plattling","municipality":{"key":"09271146","name":"Plattling, St","type":"Stadt"},"district":{"key":"09271","name":"Deggendorf","type":"Landkreis"},"federalState":{"key":"09","name":"Bayern"}},{"name":"Bladilostr.","postalCode":"94447","locality":"Plattling","municipality":{"key":"09271146","name":"Plattling, St","type":"Stadt"},"district":{"key":"09271","name":"Deggendorf","type":"Landkreis"},"federalState":{"key":"09","name":"Bayern"}},{"name":"Blütenweg","postalCode":"94447","locality":"Plattling","municipality":{"key":"09271146","name":"Plattling, St","type":"Stadt"},"district":{"key":"09271","name":"Deggendorf","type":"Landkreis"},"federalState":{"key":"09","name":"Bayern"}},{"name":"Böhmerwaldstr.","postalCode":"94447","locality":"Plattling","municipality":{"key":"09271146","name":"Plattling, St","type":"Stadt"},"district":{"key":"09271","name":"Deggendorf","type":"Landkreis"},"federalState":{"key":"09","name":"Bayern"}},{"name":"Brauereigasse","postalCode":"94447","locality":"Plattling","municipality":{"key":"09271146","name":"Plattling, St","type":"Stadt"},"district":{"key":"09271","name":"Deggendorf","type":"Landkreis"},"federalState":{"key":"09","name":"Bayern"}},{"name":"Brunnenweg","postalCode":"94447","locality":"Plattling","municipality":{"key":"09271146","name":"Plattling, St","type":"Stadt"},"district":{"key":"09271","name":"Deggendorf","type":"Landkreis"},"federalState":{"key":"09","name":"Bayern"}},{"name":"Buchenweg","postalCode":"94447","locality":"Plattling","municipality":{"key":"09271146","name":"Plattling, St","type":"Stadt"},"district":{"key":"09271","name":"Deggendorf","type":"Landkreis"},"federalState":{"key":"09","name":"Bayern"}},{"name":"Christian-Winck-Weg","postalCode":"94469","locality":"Deggendorf","municipality":{"key":"09271119","name":"Deggendorf, GKSt","type":"Große_Kreisstadt"},"district":{"key":"09271","name":"Deggendorf","type":"Landkreis"},"federalState":{"key":"09","name":"Bayern"}},{"name":"Cölestin-Maier-Weg","postalCode":"94469","locality":"Deggendorf","municipality":{"key":"09271119","name":"Deggendorf, GKSt","type":"Große_Kreisstadt"},"district":{"key":"09271","name":"Deggendorf","type":"Landkreis"},"federalState":{"key":"09","name":"Bayern"}},{"name":"Crusila Passage","postalCode":"94469","locality":"Deggendorf","municipality":{"key":"09271119","name":"Deggendorf, GKSt","type":"Große_Kreisstadt"},"district":{"key":"09271","name":"Deggendorf","type":"Landkreis"},"federalState":{"key":"09","name":"Bayern"}},{"name":"Deggendorfer Str.","postalCode":"94447","locality":"Plattling","municipality":{"key":"09271146","name":"Plattling, St","type":"Stadt"},"district":{"key":"09271","name":"Deggendorf","type":"Landkreis"},"federalState":{"key":"09","name":"Bayern"}},{"name":"Deserfeld","postalCode":"94447","locality":"Plattling","municipality":{"key":"09271146","name":"Plattling, St","type":"Stadt"},"district":{"key":"09271","name":"Deggendorf","type":"Landkreis"},"federalState":{"key":"09","name":"Bayern"}},{"name":"Deserweg","postalCode":"94447","locality":"Plattling","municipality":{"key":"09271146","name":"Plattling, St","type":"Stadt"},"district":{"key":"09271","name":"Deggendorf","type":"Landkreis"},"federalState":{"key":"09","name":"Bayern"}},{"name":"Doktor-Kiefl-Str.","postalCode":"94447","locality":"Plattling","municipality":{"key":"09271146","name":"Plattling, St","type":"Stadt"},"district":{"key":"09271","name":"Deggendorf","type":"Landkreis"},"federalState":{"key":"09","name":"Bayern"}},{"name":"Doktor-Stemplinger-Str.","postalCode":"94447","locality":"Plattling","municipality":{"key":"09271146","name":"Plattling, St","type":"Stadt"},"district":{"key":"09271","name":"Deggendorf","type":"Landkreis"},"federalState":{"key":"09","name":"Bayern"}},{"name":"Doktor-Walter-Bruch-Str.","postalCode":"94447","locality":"Plattling","municipality":{"key":"09271146","name":"Plattling, St","type":"Stadt"},"district":{"key":"09271","name":"Deggendorf","type":"Landkreis"},"federalState":{"key":"09","name":"Bayern"}},{"name":"Dorfstr.","postalCode":"94447","locality":"Plattling","municipality":{"key":"09271146","name":"Plattling, St","type":"Stadt"},"district":{"key":"09271","name":"Deggendorf","type":"Landkreis"},"federalState":{"key":"09","name":"Bayern"}},{"name":"Dr.Haxpointner-Str.","postalCode":"94447","locality":"Plattling","municipality":{"key":"09271146","name":"Plattling, St","type":"Stadt"},"district":{"key":"09271","name":"Deggendorf","type":"Landkreis"},"federalState":{"key":"09","name":"Bayern"}},{"name":"Dr.-Kiefl-Str.","postalCode":"94447","locality":"Plattling","municipality":{"key":"09271146","name":"Plattling, St","type":"Stadt"},"district":{"key":"09271","name":"Deggendorf","type":"Landkreis"},"federalState":{"key":"09","name":"Bayern"}},{"name":"Dr.-Ludwig-Kayser-Str.","postalCode":"94447","locality":"Plattling","municipality":{"key":"09271146","name":"Plattling, St","type":"Stadt"},"district":{"key":"09271","name":"Deggendorf","type":"Landkreis"},"federalState":{"key":"09","name":"Bayern"}},{"name":"Drosselweg","postalCode":"94447","locality":"Plattling","municipality":{"key":"09271146","name":"Plattling, St","type":"Stadt"},"district":{"key":"09271","name":"Deggendorf","type":"Landkreis"},"federalState":{"key":"09","name":"Bayern"}},{"name":"Dr.-Wandinger-Str.","postalCode":"94447","locality":"Plattling","municipality":{"key":"09271146","name":"Plattling, St","type":"Stadt"},"district":{"key":"09271","name":"Deggendorf","type":"Landkreis"},"federalState":{"key":"09","name":"Bayern"}},{"name":"Dr.-Zacher-Str.","postalCode":"94447","locality":"Plattling","municipality":{"key":"09271146","name":"Plattling, St","type":"Stadt"},"district":{"key":"09271","name":"Deggendorf","type":"Landkreis"},"federalState":{"key":"09","name":"Bayern"}},{"name":"Eduard-Stanglmeier-Str.","postalCode":"94447","locality":"Plattling","municipality":{"key":"09271146","name":"Plattling, St","type":"Stadt"},"district":{"key":"09271","name":"Deggendorf","type":"Landkreis"},"federalState":{"key":"09","name":"Bayern"}},{"name":"Eichendorffstr.","postalCode":"94447","locality":"Plattling","municipality":{"key":"09271146","name":"Plattling, St","type":"Stadt"},"district":{"key":"09271","name":"Deggendorf","type":"Landkreis"},"federalState":{"key":"09","name":"Bayern"}},{"name":"Eisenbahnerstr.","postalCode":"94447","locality":"Plattling","municipality":{"key":"09271146","name":"Plattling, St","type":"Stadt"},"district":{"key":"09271","name":"Deggendorf","type":"Landkreis"},"federalState":{"key":"09","name":"Bayern"}},{"name":"Emil-Lihotzky-Str.","postalCode":"94447","locality":"Plattling","municipality":{"key":"09271146","name":"Plattling, St","type":"Stadt"},"district":{"key":"09271","name":"Deggendorf","type":"Landkreis"},"federalState":{"key":"09","name":"Bayern"}},{"name":"Enchendorfstr.","postalCode":"94447","locality":"Plattling","municipality":{"key":"09271146","name":"Plattling, St","type":"Stadt"},"district":{"key":"09271","name":"Deggendorf","type":"Landkreis"},"federalState":{"key":"09","name":"Bayern"}},{"name":"Enzkofen Siedlung","postalCode":"94447","locality":"Plattling","municipality":{"key":"09271146","name":"Plattling, St","type":"Stadt"},"district":{"key":"09271","name":"Deggendorf","type":"Landkreis"},"federalState":{"key":"09","name":"Bayern"}},{"name":"Enzkofer Mühlenstr.","postalCode":"94447","locality":"Plattling","municipality":{"key":"09271146","name":"Plattling, St","type":"Stadt"},"district":{"key":"09271","name":"Deggendorf","type":"Landkreis"},"federalState":{"key":"09","name":"Bayern"}},{"name":"Erlenweg","postalCode":"94447","locality":"Plattling","municipality":{"key":"09271146","name":"Plattling, St","type":"Stadt"},"district":{"key":"09271","name":"Deggendorf","type":"Landkreis"},"federalState":{"key":"09","name":"Bayern"}},{"name":"Ferdinand-Dax-Str.","postalCode":"94447","locality":"Plattling","municipality":{"key":"09271146","name":"Plattling, St","type":"Stadt"},"district":{"key":"09271","name":"Deggendorf","type":"Landkreis"},"federalState":{"key":"09","name":"Bayern"}},{"name":"Ferdinand-Porsche-Str.","postalCode":"94447","locality":"Plattling","municipality":{"key":"09271146","name":"Plattling, St","type":"Stadt"},"district":{"key":"09271","name":"Deggendorf","type":"Landkreis"},"federalState":{"key":"09","name":"Bayern"}},{"name":"Ferstlstr.","postalCode":"94447","locality":"Plattling","municipality":{"key":"09271146","name":"Plattling, St","type":"Stadt"},"district":{"key":"09271","name":"Deggendorf","type":"Landkreis"},"federalState":{"key":"09","name":"Bayern"}},{"name":"Fichtenstr.","postalCode":"94447","locality":"Plattling","municipality":{"key":"09271146","name":"Plattling, St","type":"Stadt"},"district":{"key":"09271","name":"Deggendorf","type":"Landkreis"},"federalState":{"key":"09","name":"Bayern"}},{"name":"Finkenweg","postalCode":"94447","locality":"Plattling","municipality":{"key":"09271146","name":"Plattling, St","type":"Stadt"},"district":{"key":"09271","name":"Deggendorf","type":"Landkreis"},"federalState":{"key":"09","name":"Bayern"}},{"name":"Fischerstr.","postalCode":"94447","locality":"Plattling","municipality":{"key":"09271146","name":"Plattling, St","type":"Stadt"},"district":{"key":"09271","name":"Deggendorf","type":"Landkreis"},"federalState":{"key":"09","name":"Bayern"}},{"name":"Fliederstr.","postalCode":"94447","locality":"Plattling","municipality":{"key":"09271146","name":"Plattling, St","type":"Stadt"},"district":{"key":"09271","name":"Deggendorf","type":"Landkreis"},"federalState":{"key":"09","name":"Bayern"}},{"name":"Flurweg","postalCode":"94447","locality":"Plattling","municipality":{"key":"09271146","name":"Plattling, St","type":"Stadt"},"district":{"key":"09271","name":"Deggendorf","type":"Landkreis"},"federalState":{"key":"09","name":"Bayern"}},{"name":"Forellenstr.","postalCode":"94447","locality":"Plattling","municipality":{"key":"09271146","name":"Plattling, St","type":"Stadt"},"district":{"key":"09271","name":"Deggendorf","type":"Landkreis"},"federalState":{"key":"09","name":"Bayern"}},{"name":"Franz-Xaver-Bauer-Str.","postalCode":"94447","locality":"Plattling","municipality":{"key":"09271146","name":"Plattling, St","type":"Stadt"},"district":{"key":"09271","name":"Deggendorf","type":"Landkreis"},"federalState":{"key":"09","name":"Bayern"}},{"name":"Franz-Xaver-Saller-Str.","postalCode":"94447","locality":"Plattling","municipality":{"key":"09271146","name":"Plattling, St","type":"Stadt"},"district":{"key":"09271","name":"Deggendorf","type":"Landkreis"},"federalState":{"key":"09","name":"Bayern"}},{"name":"Fraunhoferstr.","postalCode":"94447","locality":"Plattling","municipality":{"key":"09271146","name":"Plattling, St","type":"Stadt"},"district":{"key":"09271","name":"Deggendorf","type":"Landkreis"},"federalState":{"key":"09","name":"Bayern"}},{"name":"Freyweg","postalCode":"94447","locality":"Plattling","municipality":{"key":"09271146","name":"Plattling, St","type":"Stadt"},"district":{"key":"09271","name":"Deggendorf","type":"Landkreis"},"federalState":{"key":"09","name":"Bayern"}},{"name":"Friedenstr.","postalCode":"94447","locality":"Plattling","municipality":{"key":"09271146","name":"Plattling, St","type":"Stadt"},"district":{"key":"09271","name":"Deggendorf","type":"Landkreis"},"federalState":{"key":"09","name":"Bayern"}},{"name":"Friedhofstr.","postalCode":"94447","locality":"Plattling","municipality":{"key":"09271146","name":"Plattling, St","type":"Stadt"},"district":{"key":"09271","name":"Deggendorf","type":"Landkreis"},"federalState":{"key":"09","name":"Bayern"}},{"name":"Fritz-Ringler-Str.","postalCode":"94447","locality":"Plattling","municipality":{"key":"09271146","name":"Plattling, St","type":"Stadt"},"district":{"key":"09271","name":"Deggendorf","type":"Landkreis"},"federalState":{"key":"09","name":"Bayern"}},{"name":"Frühlingstr.","postalCode":"94447","locality":"Plattling","municipality":{"key":"09271146","name":"Plattling, St","type":"Stadt"},"district":{"key":"09271","name":"Deggendorf","type":"Landkreis"},"federalState":{"key":"09","name":"Bayern"}},{"name":"Gabelsbergerstr.","postalCode":"94447","locality":"Plattling","municipality":{"key":"09271146","name":"Plattling, St","type":"Stadt"},"district":{"key":"09271","name":"Deggendorf","type":"Landkreis"},"federalState":{"key":"09","name":"Bayern"}},{"name":"Gartenstr.","postalCode":"94447","locality":"Plattling","municipality":{"key":"09271146","name":"Plattling, St","type":"Stadt"},"district":{"key":"09271","name":"Deggendorf","type":"Landkreis"},"federalState":{"key":"09","name":"Bayern"}},{"name":"Geißkopfstr.","postalCode":"94447","locality":"Plattling","municipality":{"key":"09271146","name":"Plattling, St","type":"Stadt"},"district":{"key":"09271","name":"Deggendorf","type":"Landkreis"},"federalState":{"key":"09","name":"Bayern"}},{"name":"Georg-Eckl-Str.","postalCode":"94447","locality":"Plattling","municipality":{"key":"09271146","name":"Plattling, St","type":"Stadt"},"district":{"key":"09271","name":"Deggendorf","type":"Landkreis"},"federalState":{"key":"09","name":"Bayern"}},{"name":"Geranienweg","postalCode":"94447","locality":"Plattling","municipality":{"key":"09271146","name":"Plattling, St","type":"Stadt"},"district":{"key":"09271","name":"Deggendorf","type":"Landkreis"},"federalState":{"key":"09","name":"Bayern"}},{"name":"Goethestr.","postalCode":"94447","locality":"Plattling","municipality":{"key":"09271146","name":"Plattling, St","type":"Stadt"},"district":{"key":"09271","name":"Deggendorf","type":"Landkreis"},"federalState":{"key":"09","name":"Bayern"}},{"name":"Gottlieb-Daimler-Str.","postalCode":"94447","locality":"Plattling","municipality":{"key":"09271146","name":"Plattling, St","type":"Stadt"},"district":{"key":"09271","name":"Deggendorf","type":"Landkreis"},"federalState":{"key":"09","name":"Bayern"}},{"name":"Grabengasse","postalCode":"94447","locality":"Plattling","municipality":{"key":"09271146","name":"Plattling, St","type":"Stadt"},"district":{"key":"09271","name":"Deggendorf","type":"Landkreis"},"federalState":{"key":"09","name":"Bayern"}},{"name":"Grünau","postalCode":"94447","locality":"Plattling","municipality":{"key":"09271146","name":"Plattling, St","type":"Stadt"},"district":{"key":"09271","name":"Deggendorf","type":"Landkreis"},"federalState":{"key":"09","name":"Bayern"}},{"name":"Gutenbergstr.","postalCode":"94447","locality":"Plattling","municipality":{"key":"09271146","name":"Plattling, St","type":"Stadt"},"district":{"key":"09271","name":"Deggendorf","type":"Landkreis"},"federalState":{"key":"09","name":"Bayern"}},{"name":"Hannesstr.","postalCode":"94447","locality":"Plattling","municipality":{"key":"09271146","name":"Plattling, St","type":"Stadt"},"district":{"key":"09271","name":"Deggendorf","type":"Landkreis"},"federalState":{"key":"09","name":"Bayern"}},{"name":"Hindenburgstr.","postalCode":"94447","locality":"Plattling","municipality":{"key":"09271146","name":"Plattling, St","type":"Stadt"},"district":{"key":"09271","name":"Deggendorf","type":"Landkreis"},"federalState":{"key":"09","name":"Bayern"}},{"name":"Hinterwinklerstr.","postalCode":"94447","locality":"Plattling","municipality":{"key":"09271146","name":"Plattling, St","type":"Stadt"},"district":{"key":"09271","name":"Deggendorf","type":"Landkreis"},"federalState":{"key":"09","name":"Bayern"}},{"name":"Hirtenstr.","postalCode":"94447","locality":"Plattling","municipality":{"key":"09271146","name":"Plattling, St","type":"Stadt"},"district":{"key":"09271","name":"Deggendorf","type":"Landkreis"},"federalState":{"key":"09","name":"Bayern"}},{"name":"Hoferweg","postalCode":"94447","locality":"Plattling","municipality":{"key":"09271146","name":"Plattling, St","type":"Stadt"},"district":{"key":"09271","name":"Deggendorf","type":"Landkreis"},"federalState":{"key":"09","name":"Bayern"}},{"name":"Höhenrain","postalCode":"94447","locality":"Plattling","municipality":{"key":"09271146","name":"Plattling, St","type":"Stadt"},"district":{"key":"09271","name":"Deggendorf","type":"Landkreis"},"federalState":{"key":"09","name":"Bayern"}},{"name":"Höhenrain-Hoffeld","postalCode":"94447","locality":"Plattling","municipality":{"key":"09271146","name":"Plattling, St","type":"Stadt"},"district":{"key":"09271","name":"Deggendorf","type":"Landkreis"},"federalState":{"key":"09","name":"Bayern"}},{"name":"Höhenrain-Siedlung","postalCode":"94447","locality":"Plattling","municipality":{"key":"09271146","name":"Plattling, St","type":"Stadt"},"district":{"key":"09271","name":"Deggendorf","type":"Landkreis"},"federalState":{"key":"09","name":"Bayern"}},{"name":"Hopfengartenweg","postalCode":"94447","locality":"Plattling","municipality":{"key":"09271146","name":"Plattling, St","type":"Stadt"},"district":{"key":"09271","name":"Deggendorf","type":"Landkreis"},"federalState":{"key":"09","name":"Bayern"}},{"name":"Hubert-Franken-Str.","postalCode":"94447","locality":"Plattling","municipality":{"key":"09271146","name":"Plattling, St","type":"Stadt"},"district":{"key":"09271","name":"Deggendorf","type":"Landkreis"},"federalState":{"key":"09","name":"Bayern"}},{"name":"Isarweg","postalCode":"94447","locality":"Plattling","municipality":{"key":"09271146","name":"Plattling, St","type":"Stadt"},"district":{"key":"09271","name":"Deggendorf","type":"Landkreis"},"federalState":{"key":"09","name":"Bayern"}},{"name":"ja","postalCode":"94447","locality":"Plattling","municipality":{"key":"09271146","name":"Plattling, St","type":"Stadt"},"district":{"key":"09271","name":"Deggendorf","type":"Landkreis"},"federalState":{"key":"09","name":"Bayern"}},{"name":"Jägerstr.","postalCode":"94447","locality":"Plattling","municipality":{"key":"09271146","name":"Plattling, St","type":"Stadt"},"district":{"key":"09271","name":"Deggendorf","type":"Landkreis"},"federalState":{"key":"09","name":"Bayern"}},{"name":"Jahngasse","postalCode":"94447","locality":"Plattling","municipality":{"key":"09271146","name":"Plattling, St","type":"Stadt"},"district":{"key":"09271","name":"Deggendorf","type":"Landkreis"},"federalState":{"key":"09","name":"Bayern"}},{"name":"Jahnplatz","postalCode":"94447","locality":"Plattling","municipality":{"key":"09271146","name":"Plattling, St","type":"Stadt"},"district":{"key":"09271","name":"Deggendorf","type":"Landkreis"},"federalState":{"key":"09","name":"Bayern"}},{"name":"Johan-Krümpel-Str.","postalCode":"94447","locality":"Plattling","municipality":{"key":"09271146","name":"Plattling, St","type":"Stadt"},"district":{"key":"09271","name":"Deggendorf","type":"Landkreis"},"federalState":{"key":"09","name":"Bayern"}},{"name":"Johannes-Keppler-Str.","postalCode":"94447","locality":"Plattling","municipality":{"key":"09271146","name":"Plattling, St","type":"Stadt"},"district":{"key":"09271","name":"Deggendorf","type":"Landkreis"},"federalState":{"key":"09","name":"Bayern"}},{"name":"Josef-Dittmeier-Str.","postalCode":"94447","locality":"Plattling","municipality":{"key":"09271146","name":"Plattling, St","type":"Stadt"},"district":{"key":"09271","name":"Deggendorf","type":"Landkreis"},"federalState":{"key":"09","name":"Bayern"}},{"name":"Josef-Froschauer-Str.","postalCode":"94447","locality":"Plattling","municipality":{"key":"09271146","name":"Plattling, St","type":"Stadt"},"district":{"key":"09271","name":"Deggendorf","type":"Landkreis"},"federalState":{"key":"09","name":"Bayern"}},{"name":"Josef-Niebauer-Str.","postalCode":"94447","locality":"Plattling","municipality":{"key":"09271146","name":"Plattling, St","type":"Stadt"},"district":{"key":"09271","name":"Deggendorf","type":"Landkreis"},"federalState":{"key":"09","name":"Bayern"}},{"name":"Kapellenweg","postalCode":"94447","locality":"Plattling","municipality":{"key":"09271146","name":"Plattling, St","type":"Stadt"},"district":{"key":"09271","name":"Deggendorf","type":"Landkreis"},"federalState":{"key":"09","name":"Bayern"}},{"name":"Karl-Schweizer-Str.","postalCode":"94447","locality":"Plattling","municipality":{"key":"09271146","name":"Plattling, St","type":"Stadt"},"district":{"key":"09271","name":"Deggendorf","type":"Landkreis"},"federalState":{"key":"09","name":"Bayern"}},{"name":"Keltenstr.","postalCode":"94447","locality":"Plattling","municipality":{"key":"09271146","name":"Plattling, St","type":"Stadt"},"district":{"key":"09271","name":"Deggendorf","type":"Landkreis"},"federalState":{"key":"09","name":"Bayern"}},{"name":"Kirchenstr.","postalCode":"94447","locality":"Plattling","municipality":{"key":"09271146","name":"Plattling, St","type":"Stadt"},"district":{"key":"09271","name":"Deggendorf","type":"Landkreis"},"federalState":{"key":"09","name":"Bayern"}},{"name":"Kolpingstr.","postalCode":"94447","locality":"Plattling","municipality":{"key":"09271146","name":"Plattling, St","type":"Stadt"},"district":{"key":"09271","name":"Deggendorf","type":"Landkreis"},"federalState":{"key":"09","name":"Bayern"}},{"name":"Kriemhildstr.","postalCode":"94447","locality":"Plattling","municipality":{"key":"09271146","name":"Plattling, St","type":"Stadt"},"district":{"key":"09271","name":"Deggendorf","type":"Landkreis"},"federalState":{"key":"09","name":"Bayern"}},{"name":"Kurt-Kerschl-Str.","postalCode":"94447","locality":"Plattling","municipality":{"key":"09271146","name":"Plattling, St","type":"Stadt"},"district":{"key":"09271","name":"Deggendorf","type":"Landkreis"},"federalState":{"key":"09","name":"Bayern"}},{"name":"Lagerhausstr.","postalCode":"94447","locality":"Plattling","municipality":{"key":"09271146","name":"Plattling, St","type":"Stadt"},"district":{"key":"09271","name":"Deggendorf","type":"Landkreis"},"federalState":{"key":"09","name":"Bayern"}},{"name":"Landauer Str.","postalCode":"94447","locality":"Plattling","municipality":{"key":"09271146","name":"Plattling, St","type":"Stadt"},"district":{"key":"09271","name":"Deggendorf","type":"Landkreis"},"federalState":{"key":"09","name":"Bayern"}},{"name":"Landrat-Krug-Str.","postalCode":"94447","locality":"Plattling","municipality":{"key":"09271146","name":"Plattling, St","type":"Stadt"},"district":{"key":"09271","name":"Deggendorf","type":"Landkreis"},"federalState":{"key":"09","name":"Bayern"}},{"name":"Leitenweg","postalCode":"94447","locality":"Plattling","municipality":{"key":"09271146","name":"Plattling, St","type":"Stadt"},"district":{"key":"09271","name":"Deggendorf","type":"Landkreis"},"federalState":{"key":"09","name":"Bayern"}},{"name":"Lilienweg","postalCode":"94447","locality":"Plattling","municipality":{"key":"09271146","name":"Plattling, St","type":"Stadt"},"district":{"key":"09271","name":"Deggendorf","type":"Landkreis"},"federalState":{"key":"09","name":"Bayern"}},{"name":"Lindenweg","postalCode":"94447","locality":"Plattling","municipality":{"key":"09271146","name":"Plattling, St","type":"Stadt"},"district":{"key":"09271","name":"Deggendorf","type":"Landkreis"},"federalState":{"key":"09","name":"Bayern"}},{"name":"Ludwigplatz","postalCode":"94447","locality":"Plattling","municipality":{"key":"09271146","name":"Plattling, St","type":"Stadt"},"district":{"key":"09271","name":"Deggendorf","type":"Landkreis"},"federalState":{"key":"09","name":"Bayern"}},{"name":"Luitpoldstr.","postalCode":"94447","locality":"Plattling","municipality":{"key":"09271146","name":"Plattling, St","type":"Stadt"},"district":{"key":"09271","name":"Deggendorf","type":"Landkreis"},"federalState":{"key":"09","name":"Bayern"}},{"name":"Lusenstr.","postalCode":"94447","locality":"Plattling","municipality":{"key":"09271146","name":"Plattling, St","type":"Stadt"},"district":{"key":"09271","name":"Deggendorf","type":"Landkreis"},"federalState":{"key":"09","name":"Bayern"}},{"name":"Markgrafweg","postalCode":"94447","locality":"Plattling","municipality":{"key":"09271146","name":"Plattling, St","type":"Stadt"},"district":{"key":"09271","name":"Deggendorf","type":"Landkreis"},"federalState":{"key":"09","name":"Bayern"}},{"name":"Mater-Corona-Str.","postalCode":"94447","locality":"Plattling","municipality":{"key":"09271146","name":"Plattling, St","type":"Stadt"},"district":{"key":"09271","name":"Deggendorf","type":"Landkreis"},"federalState":{"key":"09","name":"Bayern"}},{"name":"Meisenweg","postalCode":"94447","locality":"Plattling","municipality":{"key":"09271146","name":"Plattling, St","type":"Stadt"},"district":{"key":"09271","name":"Deggendorf","type":"Landkreis"},"federalState":{"key":"09","name":"Bayern"}},{"name":"Michaelsbucherstr.","postalCode":"94447","locality":"Plattling","municipality":{"key":"09271146","name":"Plattling, St","type":"Stadt"},"district":{"key":"09271","name":"Deggendorf","type":"Landkreis"},"federalState":{"key":"09","name":"Bayern"}},{"name":"Michael-Weise-Str.","postalCode":"94447","locality":"Plattling","municipality":{"key":"09271146","name":"Plattling, St","type":"Stadt"},"district":{"key":"09271","name":"Deggendorf","type":"Landkreis"},"federalState":{"key":"09","name":"Bayern"}},{"name":"Molkereistr.","postalCode":"94447","locality":"Plattling","municipality":{"key":"09271146","name":"Plattling, St","type":"Stadt"},"district":{"key":"09271","name":"Deggendorf","type":"Landkreis"},"federalState":{"key":"09","name":"Bayern"}},{"name":"Mozartstr.","postalCode":"94447","locality":"Plattling","municipality":{"key":"09271146","name":"Plattling, St","type":"Stadt"},"district":{"key":"09271","name":"Deggendorf","type":"Landkreis"},"federalState":{"key":"09","name":"Bayern"}},{"name":"Mühlbachstr.","postalCode":"94447","locality":"Plattling","municipality":{"key":"09271146","name":"Plattling, St","type":"Stadt"},"district":{"key":"09271","name":"Deggendorf","type":"Landkreis"},"federalState":{"key":"09","name":"Bayern"}},{"name":"Mühlbogenstr.","postalCode":"94447","locality":"Plattling","municipality":{"key":"09271146","name":"Plattling, St","type":"Stadt"},"district":{"key":"09271","name":"Deggendorf","type":"Landkreis"},"federalState":{"key":"09","name":"Bayern"}},{"name":"Mühlfeldweg","postalCode":"94447","locality":"Plattling","municipality":{"key":"09271146","name":"Plattling, St","type":"Stadt"},"district":{"key":"09271","name":"Deggendorf","type":"Landkreis"},"federalState":{"key":"09","name":"Bayern"}},{"name":"Narzissenstr.","postalCode":"94447","locality":"Plattling","municipality":{"key":"09271146","name":"Plattling, St","type":"Stadt"},"district":{"key":"09271","name":"Deggendorf","type":"Landkreis"},"federalState":{"key":"09","name":"Bayern"}},{"name":"Nelkenstr.","postalCode":"94447","locality":"Plattling","municipality":{"key":"09271146","name":"Plattling, St","type":"Stadt"},"district":{"key":"09271","name":"Deggendorf","type":"Landkreis"},"federalState":{"key":"09","name":"Bayern"}},{"name":"Nibelungenweg","postalCode":"94447","locality":"Plattling","municipality":{"key":"09271146","name":"Plattling, St","type":"Stadt"},"district":{"key":"09271","name":"Deggendorf","type":"Landkreis"},"federalState":{"key":"09","name":"Bayern"}},{"name":"Nicolausstr.","postalCode":"94447","locality":"Plattling","municipality":{"key":"09271146","name":"Plattling, St","type":"Stadt"},"district":{"key":"09271","name":"Deggendorf","type":"Landkreis"},"federalState":{"key":"09","name":"Bayern"}},{"name":"Osserstr.","postalCode":"94447","locality":"Plattling","municipality":{"key":"09271146","name":"Plattling, St","type":"Stadt"},"district":{"key":"09271","name":"Deggendorf","type":"Landkreis"},"federalState":{"key":"09","name":"Bayern"}},{"name":"Otto-Brindl-Str.","postalCode":"94447","locality":"Plattling","municipality":{"key":"09271146","name":"Plattling, St","type":"Stadt"},"district":{"key":"09271","name":"Deggendorf","type":"Landkreis"},"federalState":{"key":"09","name":"Bayern"}},{"name":"Pankofen Bahnhof","postalCode":"94447","locality":"Plattling","municipality":{"key":"09271146","name":"Plattling, St","type":"Stadt"},"district":{"key":"09271","name":"Deggendorf","type":"Landkreis"},"federalState":{"key":"09","name":"Bayern"}},{"name":"Pankofen Dorfstr.","postalCode":"94447","locality":"Plattling","municipality":{"key":"09271146","name":"Plattling, St","type":"Stadt"},"district":{"key":"09271","name":"Deggendorf","type":"Landkreis"},"federalState":{"key":"09","name":"Bayern"}},{"name":"Pankofen Irlwiesen","postalCode":"94447","locality":"Plattling","municipality":{"key":"09271146","name":"Plattling, St","type":"Stadt"},"district":{"key":"09271","name":"Deggendorf","type":"Landkreis"},"federalState":{"key":"09","name":"Bayern"}},{"name":"Pankofen Moosstr.","postalCode":"94447","locality":"Plattling","municipality":{"key":"09271146","name":"Plattling, St","type":"Stadt"},"district":{"key":"09271","name":"Deggendorf","type":"Landkreis"},"federalState":{"key":"09","name":"Bayern"}},{"name":"Pankofen Mühle","postalCode":"94447","locality":"Plattling","municipality":{"key":"09271146","name":"Plattling, St","type":"Stadt"},"district":{"key":"09271","name":"Deggendorf","type":"Landkreis"},"federalState":{"key":"09","name":"Bayern"}},{"name":"Pappelweg","postalCode":"94447","locality":"Plattling","municipality":{"key":"09271146","name":"Plattling, St","type":"Stadt"},"district":{"key":"09271","name":"Deggendorf","type":"Landkreis"},"federalState":{"key":"09","name":"Bayern"}},{"name":"Passauer Str.","postalCode":"94447","locality":"Plattling","municipality":{"key":"09271146","name":"Plattling, St","type":"Stadt"},"district":{"key":"09271","name":"Deggendorf","type":"Landkreis"},"federalState":{"key":"09","name":"Bayern"}},{"name":"Pfarrer-Raab-Str.","postalCode":"94447","locality":"Plattling","municipality":{"key":"09271146","name":"Plattling, St","type":"Stadt"},"district":{"key":"09271","name":"Deggendorf","type":"Landkreis"},"federalState":{"key":"09","name":"Bayern"}},{"name":"Pfarrer-Schwäbl-Str.","postalCode":"94447","locality":"Plattling","municipality":{"key":"09271146","name":"Plattling, St","type":"Stadt"},"district":{"key":"09271","name":"Deggendorf","type":"Landkreis"},"federalState":{"key":"09","name":"Bayern"}},{"name":"Pielweichser Str.","postalCode":"94447","locality":"Plattling","municipality":{"key":"09271146","name":"Plattling, St","type":"Stadt"},"district":{"key":"09271","name":"Deggendorf","type":"Landkreis"},"federalState":{"key":"09","name":"Bayern"}},{"name":"Prälat-Kaiser-Str.","postalCode":"94447","locality":"Plattling","municipality":{"key":"09271146","name":"Plattling, St","type":"Stadt"},"district":{"key":"09271","name":"Deggendorf","type":"Landkreis"},"federalState":{"key":"09","name":"Bayern"}},{"name":"Preysingplatz","postalCode":"94447","locality":"Plattling","municipality":{"key":"09271146","name":"Plattling, St","type":"Stadt"},"district":{"key":"09271","name":"Deggendorf","type":"Landkreis"},"federalState":{"key":"09","name":"Bayern"}},{"name":"Preysingstr.","postalCode":"94447","locality":"Plattling","municipality":{"key":"09271146","name":"Plattling, St","type":"Stadt"},"district":{"key":"09271","name":"Deggendorf","type":"Landkreis"},"federalState":{"key":"09","name":"Bayern"}},{"name":"Quellenweg","postalCode":"94469","locality":"Deggendorf","municipality":{"key":"09271119","name":"Deggendorf, GKSt","type":"Große_Kreisstadt"},"district":{"key":"09271","name":"Deggendorf","type":"Landkreis"},"federalState":{"key":"09","name":"Bayern"}},{"name":"Rachelstr.","postalCode":"94447","locality":"Plattling","municipality":{"key":"09271146","name":"Plattling, St","type":"Stadt"},"district":{"key":"09271","name":"Deggendorf","type":"Landkreis"},"federalState":{"key":"09","name":"Bayern"}},{"name":"Reiterstr.","postalCode":"94447","locality":"Plattling","municipality":{"key":"09271146","name":"Plattling, St","type":"Stadt"},"district":{"key":"09271","name":"Deggendorf","type":"Landkreis"},"federalState":{"key":"09","name":"Bayern"}},{"name":"Rennbahnweg","postalCode":"94447","locality":"Plattling","municipality":{"key":"09271146","name":"Plattling, St","type":"Stadt"},"district":{"key":"09271","name":"Deggendorf","type":"Landkreis"},"federalState":{"key":"09","name":"Bayern"}},{"name":"Ringkofen","postalCode":"94447","locality":"Plattling","municipality":{"key":"09271146","name":"Plattling, St","type":"Stadt"},"district":{"key":"09271","name":"Deggendorf","type":"Landkreis"},"federalState":{"key":"09","name":"Bayern"}},{"name":"Robert-Bosch-Str.","postalCode":"94447","locality":"Plattling","municipality":{"key":"09271146","name":"Plattling, St","type":"Stadt"},"district":{"key":"09271","name":"Deggendorf","type":"Landkreis"},"federalState":{"key":"09","name":"Bayern"}},{"name":"Robert-Koch-Str.","postalCode":"94447","locality":"Plattling","municipality":{"key":"09271146","name":"Plattling, St","type":"Stadt"},"district":{"key":"09271","name":"Deggendorf","type":"Landkreis"},"federalState":{"key":"09","name":"Bayern"}},{"name":"Robertweg","postalCode":"94447","locality":"Plattling","municipality":{"key":"09271146","name":"Plattling, St","type":"Stadt"},"district":{"key":"09271","name":"Deggendorf","type":"Landkreis"},"federalState":{"key":"09","name":"Bayern"}},{"name":"Römerstr.","postalCode":"94447","locality":"Plattling","municipality":{"key":"09271146","name":"Plattling, St","type":"Stadt"},"district":{"key":"09271","name":"Deggendorf","type":"Landkreis"},"federalState":{"key":"09","name":"Bayern"}},{"name":"Rosenstr.","postalCode":"94447","locality":"Plattling","municipality":{"key":"09271146","name":"Plattling, St","type":"Stadt"},"district":{"key":"09271","name":"Deggendorf","type":"Landkreis"},"federalState":{"key":"09","name":"Bayern"}},{"name":"Ruselstr.","postalCode":"94447","locality":"Plattling","municipality":{"key":"09271146","name":"Plattling, St","type":"Stadt"},"district":{"key":"09271","name":"Deggendorf","type":"Landkreis"},"federalState":{"key":"09","name":"Bayern"}},{"name":"Salvatorstr.","postalCode":"94447","locality":"Plattling","municipality":{"key":"09271146","name":"Plattling, St","type":"Stadt"},"district":{"key":"09271","name":"Deggendorf","type":"Landkreis"},"federalState":{"key":"09","name":"Bayern"}},{"name":"Scheiblerstr.","postalCode":"94447","locality":"Plattling","municipality":{"key":"09271146","name":"Plattling, St","type":"Stadt"},"district":{"key":"09271","name":"Deggendorf","type":"Landkreis"},"federalState":{"key":"09","name":"Bayern"}},{"name":"Scheuer","postalCode":"94447","locality":"Plattling","municipality":{"key":"09271146","name":"Plattling, St","type":"Stadt"},"district":{"key":"09271","name":"Deggendorf","type":"Landkreis"},"federalState":{"key":"09","name":"Bayern"}},{"name":"Schillerstr.","postalCode":"94447","locality":"Plattling","municipality":{"key":"09271146","name":"Plattling, St","type":"Stadt"},"district":{"key":"09271","name":"Deggendorf","type":"Landkreis"},"federalState":{"key":"09","name":"Bayern"}},{"name":"Schlesische Str.","postalCode":"94447","locality":"Plattling","municipality":{"key":"09271146","name":"Plattling, St","type":"Stadt"},"district":{"key":"09271","name":"Deggendorf","type":"Landkreis"},"federalState":{"key":"09","name":"Bayern"}},{"name":"Schulstr.","postalCode":"94447","locality":"Plattling","municipality":{"key":"09271146","name":"Plattling, St","type":"Stadt"},"district":{"key":"09271","name":"Deggendorf","type":"Landkreis"},"federalState":{"key":"09","name":"Bayern"}},{"name":"Schützenstr.","postalCode":"94447","locality":"Plattling","municipality":{"key":"09271146","name":"Plattling, St","type":"Stadt"},"district":{"key":"09271","name":"Deggendorf","type":"Landkreis"},"federalState":{"key":"09","name":"Bayern"}},{"name":"Schwalbenweg","postalCode":"94447","locality":"Plattling","municipality":{"key":"09271146","name":"Plattling, St","type":"Stadt"},"district":{"key":"09271","name":"Deggendorf","type":"Landkreis"},"federalState":{"key":"09","name":"Bayern"}},{"name":"Siedlung a.d. Landauer Str.","postalCode":"94447","locality":"Plattling","municipality":{"key":"09271146","name":"Plattling, St","type":"Stadt"},"district":{"key":"09271","name":"Deggendorf","type":"Landkreis"},"federalState":{"key":"09","name":"Bayern"}},{"name":"Siegfriedstr.","postalCode":"94447","locality":"Plattling","municipality":{"key":"09271146","name":"Plattling, St","type":"Stadt"},"district":{"key":"09271","name":"Deggendorf","type":"Landkreis"},"federalState":{"key":"09","name":"Bayern"}},{"name":"Silostr.","postalCode":"94447","locality":"Plattling","municipality":{"key":"09271146","name":"Plattling, St","type":"Stadt"},"district":{"key":"09271","name":"Deggendorf","type":"Landkreis"},"federalState":{"key":"09","name":"Bayern"}},{"name":"Simon-Ohm-Str.","postalCode":"94447","locality":"Plattling","municipality":{"key":"09271146","name":"Plattling, St","type":"Stadt"},"district":{"key":"09271","name":"Deggendorf","type":"Landkreis"},"federalState":{"key":"09","name":"Bayern"}},{"name":"Sonnenstr.","postalCode":"94447","locality":"Plattling","municipality":{"key":"09271146","name":"Plattling, St","type":"Stadt"},"district":{"key":"09271","name":"Deggendorf","type":"Landkreis"},"federalState":{"key":"09","name":"Bayern"}},{"name":"Spatzenweg","postalCode":"94447","locality":"Plattling","municipality":{"key":"09271146","name":"Plattling, St","type":"Stadt"},"district":{"key":"09271","name":"Deggendorf","type":"Landkreis"},"federalState":{"key":"09","name":"Bayern"}},{"name":"Spitzenberger Str.","postalCode":"94447","locality":"Plattling","municipality":{"key":"09271146","name":"Plattling, St","type":"Stadt"},"district":{"key":"09271","name":"Deggendorf","type":"Landkreis"},"federalState":{"key":"09","name":"Bayern"}},{"name":"Starenweg","postalCode":"94447","locality":"Plattling","municipality":{"key":"09271146","name":"Plattling, St","type":"Stadt"},"district":{"key":"09271","name":"Deggendorf","type":"Landkreis"},"federalState":{"key":"09","name":"Bayern"}},{"name":"Steinfeldstr.","postalCode":"94447","locality":"Plattling","municipality":{"key":"09271146","name":"Plattling, St","type":"Stadt"},"district":{"key":"09271","name":"Deggendorf","type":"Landkreis"},"federalState":{"key":"09","name":"Bayern"}},{"name":"Sterngasse","postalCode":"94447","locality":"Plattling","municipality":{"key":"09271146","name":"Plattling, St","type":"Stadt"},"district":{"key":"09271","name":"Deggendorf","type":"Landkreis"},"federalState":{"key":"09","name":"Bayern"}},{"name":"St.-Michael-Weg","postalCode":"94447","locality":"Plattling","municipality":{"key":"09271146","name":"Plattling, St","type":"Stadt"},"district":{"key":"09271","name":"Deggendorf","type":"Landkreis"},"federalState":{"key":"09","name":"Bayern"}},{"name":"Straubinger Str.","postalCode":"94447","locality":"Plattling","municipality":{"key":"09271146","name":"Plattling, St","type":"Stadt"},"district":{"key":"09271","name":"Deggendorf","type":"Landkreis"},"federalState":{"key":"09","name":"Bayern"}},{"name":"Sudetendeutsche Str.","postalCode":"94447","locality":"Plattling","municipality":{"key":"09271146","name":"Plattling, St","type":"Stadt"},"district":{"key":"09271","name":"Deggendorf","type":"Landkreis"},"federalState":{"key":"09","name":"Bayern"}},{"name":"Tabertshausener Str.","postalCode":"94447","locality":"Plattling","municipality":{"key":"09271146","name":"Plattling, St","type":"Stadt"},"district":{"key":"09271","name":"Deggendorf","type":"Landkreis"},"federalState":{"key":"09","name":"Bayern"}},{"name":"Tassiloweg","postalCode":"94447","locality":"Plattling","municipality":{"key":"09271146","name":"Plattling, St","type":"Stadt"},"district":{"key":"09271","name":"Deggendorf","type":"Landkreis"},"federalState":{"key":"09","name":"Bayern"}},{"name":"Tulpenstr.","postalCode":"94447","locality":"Plattling","municipality":{"key":"09271146","name":"Plattling, St","type":"Stadt"},"district":{"key":"09271","name":"Deggendorf","type":"Landkreis"},"federalState":{"key":"09","name":"Bayern"}},{"name":"Uferplatz","postalCode":"94469","locality":"Deggendorf","municipality":{"key":"09271119","name":"Deggendorf, GKSt","type":"Große_Kreisstadt"},"district":{"key":"09271","name":"Deggendorf","type":"Landkreis"},"federalState":{"key":"09","name":"Bayern"}},{"name":"Ulrichsberger Str.","postalCode":"94469","locality":"Deggendorf","municipality":{"key":"09271119","name":"Deggendorf, GKSt","type":"Große_Kreisstadt"},"district":{"key":"09271","name":"Deggendorf","type":"Landkreis"},"federalState":{"key":"09","name":"Bayern"}},{"name":"Unterdippling","postalCode":"94469","locality":"Deggendorf","municipality":{"key":"09271119","name":"Deggendorf, GKSt","type":"Große_Kreisstadt"},"district":{"key":"09271","name":"Deggendorf","type":"Landkreis"},"federalState":{"key":"09","name":"Bayern"}},{"name":"Untere Himmelreichstr.","postalCode":"94469","locality":"Deggendorf","municipality":{"key":"09271119","name":"Deggendorf, GKSt","type":"Große_Kreisstadt"},"district":{"key":"09271","name":"Deggendorf","type":"Landkreis"},"federalState":{"key":"09","name":"Bayern"}},{"name":"Unterer Sommerfeldweg","postalCode":"94469","locality":"Deggendorf","municipality":{"key":"09271119","name":"Deggendorf, GKSt","type":"Große_Kreisstadt"},"district":{"key":"09271","name":"Deggendorf","type":"Landkreis"},"federalState":{"key":"09","name":"Bayern"}},{"name":"Unterer Thannberg","postalCode":"94469","locality":"Deggendorf","municipality":{"key":"09271119","name":"Deggendorf, GKSt","type":"Große_Kreisstadt"},"district":{"key":"09271","name":"Deggendorf","type":"Landkreis"},"federalState":{"key":"09","name":"Bayern"}},{"name":"Unteres Feld","postalCode":"94469","locality":"Deggendorf","municipality":{"key":"09271119","name":"Deggendorf, GKSt","type":"Große_Kreisstadt"},"district":{"key":"09271","name":"Deggendorf","type":"Landkreis"},"federalState":{"key":"09","name":"Bayern"}},{"name":"Untere Vorstadt","postalCode":"94469","locality":"Deggendorf","municipality":{"key":"09271119","name":"Deggendorf, GKSt","type":"Große_Kreisstadt"},"district":{"key":"09271","name":"Deggendorf","type":"Landkreis"},"federalState":{"key":"09","name":"Bayern"}},{"name":"Untergrub","postalCode":"94469","locality":"Deggendorf","municipality":{"key":"09271119","name":"Deggendorf, GKSt","type":"Große_Kreisstadt"},"district":{"key":"09271","name":"Deggendorf","type":"Landkreis"},"federalState":{"key":"09","name":"Bayern"}},{"name":"Veilchenweg","postalCode":"94447","locality":"Plattling","municipality":{"key":"09271146","name":"Plattling, St","type":"Stadt"},"district":{"key":"09271","name":"Deggendorf","type":"Landkreis"},"federalState":{"key":"09","name":"Bayern"}},{"name":"Vogelsangstr.","postalCode":"94447","locality":"Plattling","municipality":{"key":"09271146","name":"Plattling, St","type":"Stadt"},"district":{"key":"09271","name":"Deggendorf","type":"Landkreis"},"federalState":{"key":"09","name":"Bayern"}},{"name":"Wagnerweg","postalCode":"94447","locality":"Plattling","municipality":{"key":"09271146","name":"Plattling, St","type":"Stadt"},"district":{"key":"09271","name":"Deggendorf","type":"Landkreis"},"federalState":{"key":"09","name":"Bayern"}},{"name":"Wasingerweg","postalCode":"94447","locality":"Plattling","municipality":{"key":"09271146","name":"Plattling, St","type":"Stadt"},"district":{"key":"09271","name":"Deggendorf","type":"Landkreis"},"federalState":{"key":"09","name":"Bayern"}},{"name":"Werkstr.","postalCode":"94447","locality":"Plattling","municipality":{"key":"09271146","name":"Plattling, St","type":"Stadt"},"district":{"key":"09271","name":"Deggendorf","type":"Landkreis"},"federalState":{"key":"09","name":"Bayern"}},{"name":"Werkvolkstr.","postalCode":"94447","locality":"Plattling","municipality":{"key":"09271146","name":"Plattling, St","type":"Stadt"},"district":{"key":"09271","name":"Deggendorf","type":"Landkreis"},"federalState":{"key":"09","name":"Bayern"}},{"name":"Werner-von-Siemens-Str.","postalCode":"94447","locality":"Plattling","municipality":{"key":"09271146","name":"Plattling, St","type":"Stadt"},"district":{"key":"09271","name":"Deggendorf","type":"Landkreis"},"federalState":{"key":"09","name":"Bayern"}},{"name":"Wiserstr.","postalCode":"94447","locality":"Plattling","municipality":{"key":"09271146","name":"Plattling, St","type":"Stadt"},"district":{"key":"09271","name":"Deggendorf","type":"Landkreis"},"federalState":{"key":"09","name":"Bayern"}},{"name":"Xaver-Friedl-Str.","postalCode":"94469","locality":"Deggendorf","municipality":{"key":"09271119","name":"Deggendorf, GKSt","type":"Große_Kreisstadt"},"district":{"key":"09271","name":"Deggendorf","type":"Landkreis"},"federalState":{"key":"09","name":"Bayern"}},{"name":"Zeisigweg","postalCode":"94447","locality":"Plattling","municipality":{"key":"09271146","name":"Plattling, St","type":"Stadt"},"district":{"key":"09271","name":"Deggendorf","type":"Landkreis"},"federalState":{"key":"09","name":"Bayern"}},{"name":"Ziegeleiring","postalCode":"94447","locality":"Plattling","municipality":{"key":"09271146","name":"Plattling, St","type":"Stadt"},"district":{"key":"09271","name":"Deggendorf","type":"Landkreis"},"federalState":{"key":"09","name":"Bayern"}},{"name":"Ölschlagweg","postalCode":"94469","locality":"Deggendorf","municipality":{"key":"09271119","name":"Deggendorf, GKSt","type":"Große_Kreisstadt"},"district":{"key":"09271","name":"Deggendorf","type":"Landkreis"},"federalState":{"key":"09","name":"Bayern"}},{"name":"Östlicher Stadtgraben","postalCode":"94469","locality":"Deggendorf","municipality":{"key":"09271119","name":"Deggendorf, GKSt","type":"Große_Kreisstadt"},"district":{"key":"09271","name":"Deggendorf","type":"Landkreis"},"federalState":{"key":"09","name":"Bayern"}},{"name":"Östliche Zwingergasse","postalCode":"94469","locality":"Deggendorf","municipality":{"key":"09271119","name":"Deggendorf, GKSt","type":"Große_Kreisstadt"},"district":{"key":"09271","name":"Deggendorf","type":"Landkreis"},"federalState":{"key":"09","name":"Bayern"}},]