[{"name":"Achterstücke","postalCode":"21365","locality":"Adendorf","municipality":{"key":"03355001","name":"Adendorf","type":"Kreisangehörige_Gemeinde"},"district":{"key":"03355","name":"Lüneburg","type":"Landkreis"},"federalState":{"key":"03","name":"Niedersachsen"}},{"name":"Adendorfer Weg","postalCode":"21365","locality":"Adendorf","municipality":{"key":"03355001","name":"Adendorf","type":"Kreisangehörige_Gemeinde"},"district":{"key":"03355","name":"Lüneburg","type":"Landkreis"},"federalState":{"key":"03","name":"Niedersachsen"}},{"name":"Ahornweg","postalCode":"21365","locality":"Adendorf","municipality":{"key":"03355001","name":"Adendorf","type":"Kreisangehörige_Gemeinde"},"district":{"key":"03355","name":"Lüneburg","type":"Landkreis"},"federalState":{"key":"03","name":"Niedersachsen"}},{"name":"Alter Sportplatz","postalCode":"21365","locality":"Adendorf","municipality":{"key":"03355001","name":"Adendorf","type":"Kreisangehörige_Gemeinde"},"district":{"key":"03355","name":"Lüneburg","type":"Landkreis"},"federalState":{"key":"03","name":"Niedersachsen"}},{"name":"Alter Sportplatz","postalCode":"23619","locality":"Badendorf","municipality":{"key":"01062003","name":"Badendorf","type":"Kreisangehörige_Gemeinde"},"district":{"key":"01062","name":"Stormarn","type":"Kreis"},"federalState":{"key":"01","name":"Schleswig-Holstein"}},{"name":"Am Bahndamm","postalCode":"21365","locality":"Adendorf","municipality":{"key":"03355001","name":"Adendorf","type":"Kreisangehörige_Gemeinde"},"district":{"key":"03355","name":"Lüneburg","type":"Landkreis"},"federalState":{"key":"03","name":"Niedersachsen"}},{"name":"Am Distelkamp","postalCode":"21365","locality":"Adendorf","municipality":{"key":"03355001","name":"Adendorf","type":"Kreisangehörige_Gemeinde"},"district":{"key":"03355","name":"Lüneburg","type":"Landkreis"},"federalState":{"key":"03","name":"Niedersachsen"}},{"name":"Am Golfplatz","postalCode":"21365","locality":"Adendorf","municipality":{"key":"03355001","name":"Adendorf","type":"Kreisangehörige_Gemeinde"},"district":{"key":"03355","name":"Lüneburg","type":"Landkreis"},"federalState":{"key":"03","name":"Niedersachsen"}},{"name":"Am Kreuzkamp","postalCode":"21365","locality":"Adendorf","municipality":{"key":"03355001","name":"Adendorf","type":"Kreisangehörige_Gemeinde"},"district":{"key":"03355","name":"Lüneburg","type":"Landkreis"},"federalState":{"key":"03","name":"Niedersachsen"}},{"name":"Am Lehrgut","postalCode":"21365","locality":"Adendorf","municipality":{"key":"03355001","name":"Adendorf","type":"Kreisangehörige_Gemeinde"},"district":{"key":"03355","name":"Lüneburg","type":"Landkreis"},"federalState":{"key":"03","name":"Niedersachsen"}},{"name":"Am Lüner Holz","postalCode":"21365","locality":"Adendorf","municipality":{"key":"03355001","name":"Adendorf","type":"Kreisangehörige_Gemeinde"},"district":{"key":"03355","name":"Lüneburg","type":"Landkreis"},"federalState":{"key":"03","name":"Niedersachsen"}},{"name":"Amselweg","postalCode":"21365","locality":"Adendorf","municipality":{"key":"03355001","name":"Adendorf","type":"Kreisangehörige_Gemeinde"},"district":{"key":"03355","name":"Lüneburg","type":"Landkreis"},"federalState":{"key":"03","name":"Niedersachsen"}},{"name":"Am Sportzentrum","postalCode":"21365","locality":"Adendorf","municipality":{"key":"03355001","name":"Adendorf","type":"Kreisangehörige_Gemeinde"},"district":{"key":"03355","name":"Lüneburg","type":"Landkreis"},"federalState":{"key":"03","name":"Niedersachsen"}},{"name":"Am Wischhoff","postalCode":"21365","locality":"Adendorf","municipality":{"key":"03355001","name":"Adendorf","type":"Kreisangehörige_Gemeinde"},"district":{"key":"03355","name":"Lüneburg","type":"Landkreis"},"federalState":{"key":"03","name":"Niedersachsen"}},{"name":"An den Tonkuhlen","postalCode":"21365","locality":"Adendorf","municipality":{"key":"03355001","name":"Adendorf","type":"Kreisangehörige_Gemeinde"},"district":{"key":"03355","name":"Lüneburg","type":"Landkreis"},"federalState":{"key":"03","name":"Niedersachsen"}},{"name":"An der Bahn","postalCode":"21365","locality":"Adendorf","municipality":{"key":"03355001","name":"Adendorf","type":"Kreisangehörige_Gemeinde"},"district":{"key":"03355","name":"Lüneburg","type":"Landkreis"},"federalState":{"key":"03","name":"Niedersachsen"}},{"name":"An der Bünte","postalCode":"21365","locality":"Adendorf","municipality":{"key":"03355001","name":"Adendorf","type":"Kreisangehörige_Gemeinde"},"district":{"key":"03355","name":"Lüneburg","type":"Landkreis"},"federalState":{"key":"03","name":"Niedersachsen"}},{"name":"An der Waage","postalCode":"21365","locality":"Adendorf","municipality":{"key":"03355001","name":"Adendorf","type":"Kreisangehörige_Gemeinde"},"district":{"key":"03355","name":"Lüneburg","type":"Landkreis"},"federalState":{"key":"03","name":"Niedersachsen"}},{"name":"Artlenburger Landstr.","postalCode":"21365","locality":"Adendorf","municipality":{"key":"03355001","name":"Adendorf","type":"Kreisangehörige_Gemeinde"},"district":{"key":"03355","name":"Lüneburg","type":"Landkreis"},"federalState":{"key":"03","name":"Niedersachsen"}},{"name":"Auf der Höhe","postalCode":"21365","locality":"Adendorf","municipality":{"key":"03355001","name":"Adendorf","type":"Kreisangehörige_Gemeinde"},"district":{"key":"03355","name":"Lüneburg","type":"Landkreis"},"federalState":{"key":"03","name":"Niedersachsen"}},{"name":"Bahnhäuser","postalCode":"21365","locality":"Adendorf","municipality":{"key":"03355001","name":"Adendorf","type":"Kreisangehörige_Gemeinde"},"district":{"key":"03355","name":"Lüneburg","type":"Landkreis"},"federalState":{"key":"03","name":"Niedersachsen"}},{"name":"Bahnhof","postalCode":"21365","locality":"Adendorf","municipality":{"key":"03355001","name":"Adendorf","type":"Kreisangehörige_Gemeinde"},"district":{"key":"03355","name":"Lüneburg","type":"Landkreis"},"federalState":{"key":"03","name":"Niedersachsen"}},{"name":"Bardowicker Weg","postalCode":"21365","locality":"Adendorf","municipality":{"key":"03355001","name":"Adendorf","type":"Kreisangehörige_Gemeinde"},"district":{"key":"03355","name":"Lüneburg","type":"Landkreis"},"federalState":{"key":"03","name":"Niedersachsen"}},{"name":"Bei den Eichen","postalCode":"21365","locality":"Adendorf","municipality":{"key":"03355001","name":"Adendorf","type":"Kreisangehörige_Gemeinde"},"district":{"key":"03355","name":"Lüneburg","type":"Landkreis"},"federalState":{"key":"03","name":"Niedersachsen"}},{"name":"Bei der Rehkuhle","postalCode":"21365","locality":"Adendorf","municipality":{"key":"03355001","name":"Adendorf","type":"Kreisangehörige_Gemeinde"},"district":{"key":"03355","name":"Lüneburg","type":"Landkreis"},"federalState":{"key":"03","name":"Niedersachsen"}},{"name":"Beim Hügelgrab","postalCode":"21365","locality":"Adendorf","municipality":{"key":"03355001","name":"Adendorf","type":"Kreisangehörige_Gemeinde"},"district":{"key":"03355","name":"Lüneburg","type":"Landkreis"},"federalState":{"key":"03","name":"Niedersachsen"}},{"name":"Beim Raderbach","postalCode":"21365","locality":"Adendorf","municipality":{"key":"03355001","name":"Adendorf","type":"Kreisangehörige_Gemeinde"},"district":{"key":"03355","name":"Lüneburg","type":"Landkreis"},"federalState":{"key":"03","name":"Niedersachsen"}},{"name":"Beim Schnark","postalCode":"21365","locality":"Adendorf","municipality":{"key":"03355001","name":"Adendorf","type":"Kreisangehörige_Gemeinde"},"district":{"key":"03355","name":"Lüneburg","type":"Landkreis"},"federalState":{"key":"03","name":"Niedersachsen"}},{"name":"Bergstr.","postalCode":"21365","locality":"Adendorf","municipality":{"key":"03355001","name":"Adendorf","type":"Kreisangehörige_Gemeinde"},"district":{"key":"03355","name":"Lüneburg","type":"Landkreis"},"federalState":{"key":"03","name":"Niedersachsen"}},{"name":"Birkenweg","postalCode":"21365","locality":"Adendorf","municipality":{"key":"03355001","name":"Adendorf","type":"Kreisangehörige_Gemeinde"},"district":{"key":"03355","name":"Lüneburg","type":"Landkreis"},"federalState":{"key":"03","name":"Niedersachsen"}},{"name":"Blumengasse","postalCode":"21365","locality":"Adendorf","municipality":{"key":"03355001","name":"Adendorf","type":"Kreisangehörige_Gemeinde"},"district":{"key":"03355","name":"Lüneburg","type":"Landkreis"},"federalState":{"key":"03","name":"Niedersachsen"}},{"name":"Bonnestr.","postalCode":"21365","locality":"Adendorf","municipality":{"key":"03355001","name":"Adendorf","type":"Kreisangehörige_Gemeinde"},"district":{"key":"03355","name":"Lüneburg","type":"Landkreis"},"federalState":{"key":"03","name":"Niedersachsen"}},{"name":"Borgwardstr.","postalCode":"21365","locality":"Adendorf","municipality":{"key":"03355001","name":"Adendorf","type":"Kreisangehörige_Gemeinde"},"district":{"key":"03355","name":"Lüneburg","type":"Landkreis"},"federalState":{"key":"03","name":"Niedersachsen"}},{"name":"Böttcherstr.","postalCode":"21365","locality":"Adendorf","municipality":{"key":"03355001","name":"Adendorf","type":"Kreisangehörige_Gemeinde"},"district":{"key":"03355","name":"Lüneburg","type":"Landkreis"},"federalState":{"key":"03","name":"Niedersachsen"}},{"name":"Breslauer Weg","postalCode":"21365","locality":"Adendorf","municipality":{"key":"03355001","name":"Adendorf","type":"Kreisangehörige_Gemeinde"},"district":{"key":"03355","name":"Lüneburg","type":"Landkreis"},"federalState":{"key":"03","name":"Niedersachsen"}},{"name":"Bültenweg","postalCode":"21365","locality":"Adendorf","municipality":{"key":"03355001","name":"Adendorf","type":"Kreisangehörige_Gemeinde"},"district":{"key":"03355","name":"Lüneburg","type":"Landkreis"},"federalState":{"key":"03","name":"Niedersachsen"}},{"name":"Bundesstr.","postalCode":"21365","locality":"Adendorf","municipality":{"key":"03355001","name":"Adendorf","type":"Kreisangehörige_Gemeinde"},"district":{"key":"03355","name":"Lüneburg","type":"Landkreis"},"federalState":{"key":"03","name":"Niedersachsen"}},{"name":"Bunsenstr.","postalCode":"21365","locality":"Adendorf","municipality":{"key":"03355001","name":"Adendorf","type":"Kreisangehörige_Gemeinde"},"district":{"key":"03355","name":"Lüneburg","type":"Landkreis"},"federalState":{"key":"03","name":"Niedersachsen"}},{"name":"Carl-Orff-Str.","postalCode":"21365","locality":"Adendorf","municipality":{"key":"03355001","name":"Adendorf","type":"Kreisangehörige_Gemeinde"},"district":{"key":"03355","name":"Lüneburg","type":"Landkreis"},"federalState":{"key":"03","name":"Niedersachsen"}},{"name":"Daimlerstr.","postalCode":"21365","locality":"Adendorf","municipality":{"key":"03355001","name":"Adendorf","type":"Kreisangehörige_Gemeinde"},"district":{"key":"03355","name":"Lüneburg","type":"Landkreis"},"federalState":{"key":"03","name":"Niedersachsen"}},{"name":"Danziger Weg","postalCode":"21365","locality":"Adendorf","municipality":{"key":"03355001","name":"Adendorf","type":"Kreisangehörige_Gemeinde"},"district":{"key":"03355","name":"Lüneburg","type":"Landkreis"},"federalState":{"key":"03","name":"Niedersachsen"}},{"name":"Dieselstr.","postalCode":"21365","locality":"Adendorf","municipality":{"key":"03355001","name":"Adendorf","type":"Kreisangehörige_Gemeinde"},"district":{"key":"03355","name":"Lüneburg","type":"Landkreis"},"federalState":{"key":"03","name":"Niedersachsen"}},{"name":"Dorfstr.","postalCode":"21365","locality":"Adendorf","municipality":{"key":"03355001","name":"Adendorf","type":"Kreisangehörige_Gemeinde"},"district":{"key":"03355","name":"Lüneburg","type":"Landkreis"},"federalState":{"key":"03","name":"Niedersachsen"}},{"name":"Dorfstr.","postalCode":"23619","locality":"Badendorf","municipality":{"key":"01062003","name":"Badendorf","type":"Kreisangehörige_Gemeinde"},"district":{"key":"01062","name":"Stormarn","type":"Kreis"},"federalState":{"key":"01","name":"Schleswig-Holstein"}},{"name":"Drechslerstr.","postalCode":"21365","locality":"Adendorf","municipality":{"key":"03355001","name":"Adendorf","type":"Kreisangehörige_Gemeinde"},"district":{"key":"03355","name":"Lüneburg","type":"Landkreis"},"federalState":{"key":"03","name":"Niedersachsen"}},{"name":"Drögeholt","postalCode":"21365","locality":"Adendorf","municipality":{"key":"03355001","name":"Adendorf","type":"Kreisangehörige_Gemeinde"},"district":{"key":"03355","name":"Lüneburg","type":"Landkreis"},"federalState":{"key":"03","name":"Niedersachsen"}},{"name":"Drosselweg","postalCode":"21365","locality":"Adendorf","municipality":{"key":"03355001","name":"Adendorf","type":"Kreisangehörige_Gemeinde"},"district":{"key":"03355","name":"Lüneburg","type":"Landkreis"},"federalState":{"key":"03","name":"Niedersachsen"}},{"name":"Eggenweg","postalCode":"21365","locality":"Adendorf","municipality":{"key":"03355001","name":"Adendorf","type":"Kreisangehörige_Gemeinde"},"district":{"key":"03355","name":"Lüneburg","type":"Landkreis"},"federalState":{"key":"03","name":"Niedersachsen"}},{"name":"Eichkamp","postalCode":"21365","locality":"Adendorf","municipality":{"key":"03355001","name":"Adendorf","type":"Kreisangehörige_Gemeinde"},"district":{"key":"03355","name":"Lüneburg","type":"Landkreis"},"federalState":{"key":"03","name":"Niedersachsen"}},{"name":"Elba","postalCode":"21365","locality":"Adendorf","municipality":{"key":"03355001","name":"Adendorf","type":"Kreisangehörige_Gemeinde"},"district":{"key":"03355","name":"Lüneburg","type":"Landkreis"},"federalState":{"key":"03","name":"Niedersachsen"}},{"name":"Elbinger Weg","postalCode":"21365","locality":"Adendorf","municipality":{"key":"03355001","name":"Adendorf","type":"Kreisangehörige_Gemeinde"},"district":{"key":"03355","name":"Lüneburg","type":"Landkreis"},"federalState":{"key":"03","name":"Niedersachsen"}},{"name":"Elisabet-Boehm-Str.","postalCode":"21365","locality":"Adendorf","municipality":{"key":"03355001","name":"Adendorf","type":"Kreisangehörige_Gemeinde"},"district":{"key":"03355","name":"Lüneburg","type":"Landkreis"},"federalState":{"key":"03","name":"Niedersachsen"}},{"name":"Elsa-Brandström-Str.","postalCode":"21365","locality":"Adendorf","municipality":{"key":"03355001","name":"Adendorf","type":"Kreisangehörige_Gemeinde"},"district":{"key":"03355","name":"Lüneburg","type":"Landkreis"},"federalState":{"key":"03","name":"Niedersachsen"}},{"name":"Erbstorfer Landstr.","postalCode":"21365","locality":"Adendorf","municipality":{"key":"03355001","name":"Adendorf","type":"Kreisangehörige_Gemeinde"},"district":{"key":"03355","name":"Lüneburg","type":"Landkreis"},"federalState":{"key":"03","name":"Niedersachsen"}},{"name":"Eschenweg","postalCode":"21365","locality":"Adendorf","municipality":{"key":"03355001","name":"Adendorf","type":"Kreisangehörige_Gemeinde"},"district":{"key":"03355","name":"Lüneburg","type":"Landkreis"},"federalState":{"key":"03","name":"Niedersachsen"}},{"name":"Finkengasse","postalCode":"21365","locality":"Adendorf","municipality":{"key":"03355001","name":"Adendorf","type":"Kreisangehörige_Gemeinde"},"district":{"key":"03355","name":"Lüneburg","type":"Landkreis"},"federalState":{"key":"03","name":"Niedersachsen"}},{"name":"Fliederstr.","postalCode":"21365","locality":"Adendorf","municipality":{"key":"03355001","name":"Adendorf","type":"Kreisangehörige_Gemeinde"},"district":{"key":"03355","name":"Lüneburg","type":"Landkreis"},"federalState":{"key":"03","name":"Niedersachsen"}},{"name":"Fontaneweg","postalCode":"21365","locality":"Adendorf","municipality":{"key":"03355001","name":"Adendorf","type":"Kreisangehörige_Gemeinde"},"district":{"key":"03355","name":"Lüneburg","type":"Landkreis"},"federalState":{"key":"03","name":"Niedersachsen"}},{"name":"Forßmannstr.","postalCode":"21365","locality":"Adendorf","municipality":{"key":"03355001","name":"Adendorf","type":"Kreisangehörige_Gemeinde"},"district":{"key":"03355","name":"Lüneburg","type":"Landkreis"},"federalState":{"key":"03","name":"Niedersachsen"}},{"name":"Franz-Liszt-Str.","postalCode":"21365","locality":"Adendorf","municipality":{"key":"03355001","name":"Adendorf","type":"Kreisangehörige_Gemeinde"},"district":{"key":"03355","name":"Lüneburg","type":"Landkreis"},"federalState":{"key":"03","name":"Niedersachsen"}},{"name":"Franz-Schubert-Str.","postalCode":"21365","locality":"Adendorf","municipality":{"key":"03355001","name":"Adendorf","type":"Kreisangehörige_Gemeinde"},"district":{"key":"03355","name":"Lüneburg","type":"Landkreis"},"federalState":{"key":"03","name":"Niedersachsen"}},{"name":"Fritz-Reuter-Weg","postalCode":"21365","locality":"Adendorf","municipality":{"key":"03355001","name":"Adendorf","type":"Kreisangehörige_Gemeinde"},"district":{"key":"03355","name":"Lüneburg","type":"Landkreis"},"federalState":{"key":"03","name":"Niedersachsen"}},{"name":"Gartenstr.","postalCode":"21365","locality":"Adendorf","municipality":{"key":"03355001","name":"Adendorf","type":"Kreisangehörige_Gemeinde"},"district":{"key":"03355","name":"Lüneburg","type":"Landkreis"},"federalState":{"key":"03","name":"Niedersachsen"}},{"name":"Gerberstr.","postalCode":"21365","locality":"Adendorf","municipality":{"key":"03355001","name":"Adendorf","type":"Kreisangehörige_Gemeinde"},"district":{"key":"03355","name":"Lüneburg","type":"Landkreis"},"federalState":{"key":"03","name":"Niedersachsen"}},{"name":"Gertrud-Bäumer-Str.","postalCode":"21365","locality":"Adendorf","municipality":{"key":"03355001","name":"Adendorf","type":"Kreisangehörige_Gemeinde"},"district":{"key":"03355","name":"Lüneburg","type":"Landkreis"},"federalState":{"key":"03","name":"Niedersachsen"}},{"name":"Geschwister-Scholl-Str.","postalCode":"21365","locality":"Adendorf","municipality":{"key":"03355001","name":"Adendorf","type":"Kreisangehörige_Gemeinde"},"district":{"key":"03355","name":"Lüneburg","type":"Landkreis"},"federalState":{"key":"03","name":"Niedersachsen"}},{"name":"Ginsterweg","postalCode":"21365","locality":"Adendorf","municipality":{"key":"03355001","name":"Adendorf","type":"Kreisangehörige_Gemeinde"},"district":{"key":"03355","name":"Lüneburg","type":"Landkreis"},"federalState":{"key":"03","name":"Niedersachsen"}},{"name":"Goerdelerstr.","postalCode":"21365","locality":"Adendorf","municipality":{"key":"03355001","name":"Adendorf","type":"Kreisangehörige_Gemeinde"},"district":{"key":"03355","name":"Lüneburg","type":"Landkreis"},"federalState":{"key":"03","name":"Niedersachsen"}},{"name":"Goethestr.","postalCode":"21365","locality":"Adendorf","municipality":{"key":"03355001","name":"Adendorf","type":"Kreisangehörige_Gemeinde"},"district":{"key":"03355","name":"Lüneburg","type":"Landkreis"},"federalState":{"key":"03","name":"Niedersachsen"}},{"name":"Gorch-Fock-Weg","postalCode":"21365","locality":"Adendorf","municipality":{"key":"03355001","name":"Adendorf","type":"Kreisangehörige_Gemeinde"},"district":{"key":"03355","name":"Lüneburg","type":"Landkreis"},"federalState":{"key":"03","name":"Niedersachsen"}},{"name":"Gosekamp","postalCode":"21365","locality":"Adendorf","municipality":{"key":"03355001","name":"Adendorf","type":"Kreisangehörige_Gemeinde"},"district":{"key":"03355","name":"Lüneburg","type":"Landkreis"},"federalState":{"key":"03","name":"Niedersachsen"}},{"name":"Grüner-Jäger-Weg","postalCode":"21365","locality":"Adendorf","municipality":{"key":"03355001","name":"Adendorf","type":"Kreisangehörige_Gemeinde"},"district":{"key":"03355","name":"Lüneburg","type":"Landkreis"},"federalState":{"key":"03","name":"Niedersachsen"}},{"name":"Grüner Weg","postalCode":"21365","locality":"Adendorf","municipality":{"key":"03355001","name":"Adendorf","type":"Kreisangehörige_Gemeinde"},"district":{"key":"03355","name":"Lüneburg","type":"Landkreis"},"federalState":{"key":"03","name":"Niedersachsen"}},{"name":"Gustav-Mahler-Str.","postalCode":"21365","locality":"Adendorf","municipality":{"key":"03355001","name":"Adendorf","type":"Kreisangehörige_Gemeinde"},"district":{"key":"03355","name":"Lüneburg","type":"Landkreis"},"federalState":{"key":"03","name":"Niedersachsen"}},{"name":"Habichtsweg","postalCode":"21365","locality":"Adendorf","municipality":{"key":"03355001","name":"Adendorf","type":"Kreisangehörige_Gemeinde"},"district":{"key":"03355","name":"Lüneburg","type":"Landkreis"},"federalState":{"key":"03","name":"Niedersachsen"}},{"name":"Hasenheide","postalCode":"21365","locality":"Adendorf","municipality":{"key":"03355001","name":"Adendorf","type":"Kreisangehörige_Gemeinde"},"district":{"key":"03355","name":"Lüneburg","type":"Landkreis"},"federalState":{"key":"03","name":"Niedersachsen"}},{"name":"Hauptstr.","postalCode":"23619","locality":"Badendorf","municipality":{"key":"01062003","name":"Badendorf","type":"Kreisangehörige_Gemeinde"},"district":{"key":"01062","name":"Stormarn","type":"Kreis"},"federalState":{"key":"01","name":"Schleswig-Holstein"}},{"name":"Heckkaten","postalCode":"23619","locality":"Badendorf","municipality":{"key":"01062003","name":"Badendorf","type":"Kreisangehörige_Gemeinde"},"district":{"key":"01062","name":"Stormarn","type":"Kreis"},"federalState":{"key":"01","name":"Schleswig-Holstein"}},{"name":"Heidkoppelweg","postalCode":"21365","locality":"Adendorf","municipality":{"key":"03355001","name":"Adendorf","type":"Kreisangehörige_Gemeinde"},"district":{"key":"03355","name":"Lüneburg","type":"Landkreis"},"federalState":{"key":"03","name":"Niedersachsen"}},{"name":"Heinestr.","postalCode":"21365","locality":"Adendorf","municipality":{"key":"03355001","name":"Adendorf","type":"Kreisangehörige_Gemeinde"},"district":{"key":"03355","name":"Lüneburg","type":"Landkreis"},"federalState":{"key":"03","name":"Niedersachsen"}},{"name":"Heinrich-Hille-Str.","postalCode":"21365","locality":"Adendorf","municipality":{"key":"03355001","name":"Adendorf","type":"Kreisangehörige_Gemeinde"},"district":{"key":"03355","name":"Lüneburg","type":"Landkreis"},"federalState":{"key":"03","name":"Niedersachsen"}},{"name":"Helene-Lange-Str.","postalCode":"21365","locality":"Adendorf","municipality":{"key":"03355001","name":"Adendorf","type":"Kreisangehörige_Gemeinde"},"district":{"key":"03355","name":"Lüneburg","type":"Landkreis"},"federalState":{"key":"03","name":"Niedersachsen"}},{"name":"Hermann-Niemann-Str.","postalCode":"21365","locality":"Adendorf","municipality":{"key":"03355001","name":"Adendorf","type":"Kreisangehörige_Gemeinde"},"district":{"key":"03355","name":"Lüneburg","type":"Landkreis"},"federalState":{"key":"03","name":"Niedersachsen"}},{"name":"Holunderweg","postalCode":"21365","locality":"Adendorf","municipality":{"key":"03355001","name":"Adendorf","type":"Kreisangehörige_Gemeinde"},"district":{"key":"03355","name":"Lüneburg","type":"Landkreis"},"federalState":{"key":"03","name":"Niedersachsen"}},{"name":"Hügelstieg","postalCode":"21365","locality":"Adendorf","municipality":{"key":"03355001","name":"Adendorf","type":"Kreisangehörige_Gemeinde"},"district":{"key":"03355","name":"Lüneburg","type":"Landkreis"},"federalState":{"key":"03","name":"Niedersachsen"}},{"name":"Igelweg","postalCode":"21365","locality":"Adendorf","municipality":{"key":"03355001","name":"Adendorf","type":"Kreisangehörige_Gemeinde"},"district":{"key":"03355","name":"Lüneburg","type":"Landkreis"},"federalState":{"key":"03","name":"Niedersachsen"}},{"name":"Im Altdorf","postalCode":"21365","locality":"Adendorf","municipality":{"key":"03355001","name":"Adendorf","type":"Kreisangehörige_Gemeinde"},"district":{"key":"03355","name":"Lüneburg","type":"Landkreis"},"federalState":{"key":"03","name":"Niedersachsen"}},{"name":"Im Gutspark","postalCode":"21365","locality":"Adendorf","municipality":{"key":"03355001","name":"Adendorf","type":"Kreisangehörige_Gemeinde"},"district":{"key":"03355","name":"Lüneburg","type":"Landkreis"},"federalState":{"key":"03","name":"Niedersachsen"}},{"name":"Im Lurup","postalCode":"21365","locality":"Adendorf","municipality":{"key":"03355001","name":"Adendorf","type":"Kreisangehörige_Gemeinde"},"district":{"key":"03355","name":"Lüneburg","type":"Landkreis"},"federalState":{"key":"03","name":"Niedersachsen"}},{"name":"Im Moor","postalCode":"21365","locality":"Adendorf","municipality":{"key":"03355001","name":"Adendorf","type":"Kreisangehörige_Gemeinde"},"district":{"key":"03355","name":"Lüneburg","type":"Landkreis"},"federalState":{"key":"03","name":"Niedersachsen"}},{"name":"Im Stadtfeld","postalCode":"21365","locality":"Adendorf","municipality":{"key":"03355001","name":"Adendorf","type":"Kreisangehörige_Gemeinde"},"district":{"key":"03355","name":"Lüneburg","type":"Landkreis"},"federalState":{"key":"03","name":"Niedersachsen"}},{"name":"Im Stillen Winkel","postalCode":"21365","locality":"Adendorf","municipality":{"key":"03355001","name":"Adendorf","type":"Kreisangehörige_Gemeinde"},"district":{"key":"03355","name":"Lüneburg","type":"Landkreis"},"federalState":{"key":"03","name":"Niedersachsen"}},{"name":"Im Suren Winkel","postalCode":"21365","locality":"Adendorf","municipality":{"key":"03355001","name":"Adendorf","type":"Kreisangehörige_Gemeinde"},"district":{"key":"03355","name":"Lüneburg","type":"Landkreis"},"federalState":{"key":"03","name":"Niedersachsen"}},{"name":"In der Stube","postalCode":"21365","locality":"Adendorf","municipality":{"key":"03355001","name":"Adendorf","type":"Kreisangehörige_Gemeinde"},"district":{"key":"03355","name":"Lüneburg","type":"Landkreis"},"federalState":{"key":"03","name":"Niedersachsen"}},{"name":"In der Twiete","postalCode":"21365","locality":"Adendorf","municipality":{"key":"03355001","name":"Adendorf","type":"Kreisangehörige_Gemeinde"},"district":{"key":"03355","name":"Lüneburg","type":"Landkreis"},"federalState":{"key":"03","name":"Niedersachsen"}},{"name":"Jägersteig","postalCode":"21365","locality":"Adendorf","municipality":{"key":"03355001","name":"Adendorf","type":"Kreisangehörige_Gemeinde"},"district":{"key":"03355","name":"Lüneburg","type":"Landkreis"},"federalState":{"key":"03","name":"Niedersachsen"}},{"name":"Jahnweg","postalCode":"21365","locality":"Adendorf","municipality":{"key":"03355001","name":"Adendorf","type":"Kreisangehörige_Gemeinde"},"district":{"key":"03355","name":"Lüneburg","type":"Landkreis"},"federalState":{"key":"03","name":"Niedersachsen"}},{"name":"Johannes-Brahms-Str.","postalCode":"21365","locality":"Adendorf","municipality":{"key":"03355001","name":"Adendorf","type":"Kreisangehörige_Gemeinde"},"district":{"key":"03355","name":"Lüneburg","type":"Landkreis"},"federalState":{"key":"03","name":"Niedersachsen"}},{"name":"Joseph-Haydn-Str.","postalCode":"21365","locality":"Adendorf","municipality":{"key":"03355001","name":"Adendorf","type":"Kreisangehörige_Gemeinde"},"district":{"key":"03355","name":"Lüneburg","type":"Landkreis"},"federalState":{"key":"03","name":"Niedersachsen"}},{"name":"Kantstr.","postalCode":"21365","locality":"Adendorf","municipality":{"key":"03355001","name":"Adendorf","type":"Kreisangehörige_Gemeinde"},"district":{"key":"03355","name":"Lüneburg","type":"Landkreis"},"federalState":{"key":"03","name":"Niedersachsen"}},{"name":"Kastanienallee","postalCode":"21365","locality":"Adendorf","municipality":{"key":"03355001","name":"Adendorf","type":"Kreisangehörige_Gemeinde"},"district":{"key":"03355","name":"Lüneburg","type":"Landkreis"},"federalState":{"key":"03","name":"Niedersachsen"}},{"name":"Käthe-Kollwitz-Str.","postalCode":"21365","locality":"Adendorf","municipality":{"key":"03355001","name":"Adendorf","type":"Kreisangehörige_Gemeinde"},"district":{"key":"03355","name":"Lüneburg","type":"Landkreis"},"federalState":{"key":"03","name":"Niedersachsen"}},{"name":"Katzenweg","postalCode":"21365","locality":"Adendorf","municipality":{"key":"03355001","name":"Adendorf","type":"Kreisangehörige_Gemeinde"},"district":{"key":"03355","name":"Lüneburg","type":"Landkreis"},"federalState":{"key":"03","name":"Niedersachsen"}},{"name":"Kiefernweg","postalCode":"21365","locality":"Adendorf","municipality":{"key":"03355001","name":"Adendorf","type":"Kreisangehörige_Gemeinde"},"district":{"key":"03355","name":"Lüneburg","type":"Landkreis"},"federalState":{"key":"03","name":"Niedersachsen"}},{"name":"Kirchweg","postalCode":"21365","locality":"Adendorf","municipality":{"key":"03355001","name":"Adendorf","type":"Kreisangehörige_Gemeinde"},"district":{"key":"03355","name":"Lüneburg","type":"Landkreis"},"federalState":{"key":"03","name":"Niedersachsen"}},{"name":"Klaus-Groth-Weg","postalCode":"21365","locality":"Adendorf","municipality":{"key":"03355001","name":"Adendorf","type":"Kreisangehörige_Gemeinde"},"district":{"key":"03355","name":"Lüneburg","type":"Landkreis"},"federalState":{"key":"03","name":"Niedersachsen"}},{"name":"Kleiner Weinberg","postalCode":"21365","locality":"Adendorf","municipality":{"key":"03355001","name":"Adendorf","type":"Kreisangehörige_Gemeinde"},"district":{"key":"03355","name":"Lüneburg","type":"Landkreis"},"federalState":{"key":"03","name":"Niedersachsen"}},{"name":"Köhlerweg","postalCode":"21365","locality":"Adendorf","municipality":{"key":"03355001","name":"Adendorf","type":"Kreisangehörige_Gemeinde"},"district":{"key":"03355","name":"Lüneburg","type":"Landkreis"},"federalState":{"key":"03","name":"Niedersachsen"}},{"name":"Königsberger Weg","postalCode":"21365","locality":"Adendorf","municipality":{"key":"03355001","name":"Adendorf","type":"Kreisangehörige_Gemeinde"},"district":{"key":"03355","name":"Lüneburg","type":"Landkreis"},"federalState":{"key":"03","name":"Niedersachsen"}},{"name":"Kornblumenweg","postalCode":"21365","locality":"Adendorf","municipality":{"key":"03355001","name":"Adendorf","type":"Kreisangehörige_Gemeinde"},"district":{"key":"03355","name":"Lüneburg","type":"Landkreis"},"federalState":{"key":"03","name":"Niedersachsen"}},{"name":"Köthnerheide","postalCode":"21365","locality":"Adendorf","municipality":{"key":"03355001","name":"Adendorf","type":"Kreisangehörige_Gemeinde"},"district":{"key":"03355","name":"Lüneburg","type":"Landkreis"},"federalState":{"key":"03","name":"Niedersachsen"}},{"name":"Küchenschellenweg","postalCode":"21365","locality":"Adendorf","municipality":{"key":"03355001","name":"Adendorf","type":"Kreisangehörige_Gemeinde"},"district":{"key":"03355","name":"Lüneburg","type":"Landkreis"},"federalState":{"key":"03","name":"Niedersachsen"}},{"name":"Kurt-Weill-Str.","postalCode":"21365","locality":"Adendorf","municipality":{"key":"03355001","name":"Adendorf","type":"Kreisangehörige_Gemeinde"},"district":{"key":"03355","name":"Lüneburg","type":"Landkreis"},"federalState":{"key":"03","name":"Niedersachsen"}},{"name":"Landhaus-Meyn-Weg","postalCode":"21365","locality":"Adendorf","municipality":{"key":"03355001","name":"Adendorf","type":"Kreisangehörige_Gemeinde"},"district":{"key":"03355","name":"Lüneburg","type":"Landkreis"},"federalState":{"key":"03","name":"Niedersachsen"}},{"name":"Lentenauer Weg","postalCode":"21365","locality":"Adendorf","municipality":{"key":"03355001","name":"Adendorf","type":"Kreisangehörige_Gemeinde"},"district":{"key":"03355","name":"Lüneburg","type":"Landkreis"},"federalState":{"key":"03","name":"Niedersachsen"}},{"name":"Lerchenweg","postalCode":"21365","locality":"Adendorf","municipality":{"key":"03355001","name":"Adendorf","type":"Kreisangehörige_Gemeinde"},"district":{"key":"03355","name":"Lüneburg","type":"Landkreis"},"federalState":{"key":"03","name":"Niedersachsen"}},{"name":"Lindenweg","postalCode":"21365","locality":"Adendorf","municipality":{"key":"03355001","name":"Adendorf","type":"Kreisangehörige_Gemeinde"},"district":{"key":"03355","name":"Lüneburg","type":"Landkreis"},"federalState":{"key":"03","name":"Niedersachsen"}},{"name":"Lise-Meitner-Str.","postalCode":"21365","locality":"Adendorf","municipality":{"key":"03355001","name":"Adendorf","type":"Kreisangehörige_Gemeinde"},"district":{"key":"03355","name":"Lüneburg","type":"Landkreis"},"federalState":{"key":"03","name":"Niedersachsen"}},{"name":"Lönsstr.","postalCode":"21365","locality":"Adendorf","municipality":{"key":"03355001","name":"Adendorf","type":"Kreisangehörige_Gemeinde"},"district":{"key":"03355","name":"Lüneburg","type":"Landkreis"},"federalState":{"key":"03","name":"Niedersachsen"}},{"name":"Louise-Otto-Str.","postalCode":"21365","locality":"Adendorf","municipality":{"key":"03355001","name":"Adendorf","type":"Kreisangehörige_Gemeinde"},"district":{"key":"03355","name":"Lüneburg","type":"Landkreis"},"federalState":{"key":"03","name":"Niedersachsen"}},{"name":"Maria-Montessori-Str.","postalCode":"21365","locality":"Adendorf","municipality":{"key":"03355001","name":"Adendorf","type":"Kreisangehörige_Gemeinde"},"district":{"key":"03355","name":"Lüneburg","type":"Landkreis"},"federalState":{"key":"03","name":"Niedersachsen"}},{"name":"Marie-Curie-Str.","postalCode":"21365","locality":"Adendorf","municipality":{"key":"03355001","name":"Adendorf","type":"Kreisangehörige_Gemeinde"},"district":{"key":"03355","name":"Lüneburg","type":"Landkreis"},"federalState":{"key":"03","name":"Niedersachsen"}},{"name":"Marienburger Weg","postalCode":"21365","locality":"Adendorf","municipality":{"key":"03355001","name":"Adendorf","type":"Kreisangehörige_Gemeinde"},"district":{"key":"03355","name":"Lüneburg","type":"Landkreis"},"federalState":{"key":"03","name":"Niedersachsen"}},{"name":"Matthias-Claudius-Weg","postalCode":"21365","locality":"Adendorf","municipality":{"key":"03355001","name":"Adendorf","type":"Kreisangehörige_Gemeinde"},"district":{"key":"03355","name":"Lüneburg","type":"Landkreis"},"federalState":{"key":"03","name":"Niedersachsen"}},{"name":"Meisengasse","postalCode":"21365","locality":"Adendorf","municipality":{"key":"03355001","name":"Adendorf","type":"Kreisangehörige_Gemeinde"},"district":{"key":"03355","name":"Lüneburg","type":"Landkreis"},"federalState":{"key":"03","name":"Niedersachsen"}},{"name":"Memeler Weg","postalCode":"21365","locality":"Adendorf","municipality":{"key":"03355001","name":"Adendorf","type":"Kreisangehörige_Gemeinde"},"district":{"key":"03355","name":"Lüneburg","type":"Landkreis"},"federalState":{"key":"03","name":"Niedersachsen"}},{"name":"Mitteltor","postalCode":"23619","locality":"Badendorf","municipality":{"key":"01062003","name":"Badendorf","type":"Kreisangehörige_Gemeinde"},"district":{"key":"01062","name":"Stormarn","type":"Kreis"},"federalState":{"key":"01","name":"Schleswig-Holstein"}},{"name":"Mohnweg","postalCode":"21365","locality":"Adendorf","municipality":{"key":"03355001","name":"Adendorf","type":"Kreisangehörige_Gemeinde"},"district":{"key":"03355","name":"Lüneburg","type":"Landkreis"},"federalState":{"key":"03","name":"Niedersachsen"}},{"name":"Moorblick","postalCode":"21365","locality":"Adendorf","municipality":{"key":"03355001","name":"Adendorf","type":"Kreisangehörige_Gemeinde"},"district":{"key":"03355","name":"Lüneburg","type":"Landkreis"},"federalState":{"key":"03","name":"Niedersachsen"}},{"name":"Moorchaussee","postalCode":"21365","locality":"Adendorf","municipality":{"key":"03355001","name":"Adendorf","type":"Kreisangehörige_Gemeinde"},"district":{"key":"03355","name":"Lüneburg","type":"Landkreis"},"federalState":{"key":"03","name":"Niedersachsen"}},{"name":"Neue Str.","postalCode":"21365","locality":"Adendorf","municipality":{"key":"03355001","name":"Adendorf","type":"Kreisangehörige_Gemeinde"},"district":{"key":"03355","name":"Lüneburg","type":"Landkreis"},"federalState":{"key":"03","name":"Niedersachsen"}},{"name":"Normandieweg","postalCode":"21365","locality":"Adendorf","municipality":{"key":"03355001","name":"Adendorf","type":"Kreisangehörige_Gemeinde"},"district":{"key":"03355","name":"Lüneburg","type":"Landkreis"},"federalState":{"key":"03","name":"Niedersachsen"}},{"name":"Nutzfelder Weg","postalCode":"21365","locality":"Adendorf","municipality":{"key":"03355001","name":"Adendorf","type":"Kreisangehörige_Gemeinde"},"district":{"key":"03355","name":"Lüneburg","type":"Landkreis"},"federalState":{"key":"03","name":"Niedersachsen"}},{"name":"Obere Ohlingerstr.","postalCode":"21335","locality":"Lüneburg","municipality":{"key":"03355022","name":"Lüneburg, Hansestadt","type":"Stadt"},"district":{"key":"03355","name":"Lüneburg","type":"Landkreis"},"federalState":{"key":"03","name":"Niedersachsen"}},{"name":"Ochtmisser Kirchsteig","postalCode":"21339","locality":"Lüneburg","municipality":{"key":"03355022","name":"Lüneburg, Hansestadt","type":"Stadt"},"district":{"key":"03355","name":"Lüneburg","type":"Landkreis"},"federalState":{"key":"03","name":"Niedersachsen"}},{"name":"Ochtmisser Str.","postalCode":"21339","locality":"Lüneburg","municipality":{"key":"03355022","name":"Lüneburg, Hansestadt","type":"Stadt"},"district":{"key":"03355","name":"Lüneburg","type":"Landkreis"},"federalState":{"key":"03","name":"Niedersachsen"}},{"name":"Ochtmisser Weg","postalCode":"21339","locality":"Lüneburg","municipality":{"key":"03355022","name":"Lüneburg, Hansestadt","type":"Stadt"},"district":{"key":"03355","name":"Lüneburg","type":"Landkreis"},"federalState":{"key":"03","name":"Niedersachsen"}},{"name":"Oedemer Busch","postalCode":"21335","locality":"Lüneburg","municipality":{"key":"03355022","name":"Lüneburg, Hansestadt","type":"Stadt"},"district":{"key":"03355","name":"Lüneburg","type":"Landkreis"},"federalState":{"key":"03","name":"Niedersachsen"}},{"name":"Oedemer Weg","postalCode":"21335","locality":"Lüneburg","municipality":{"key":"03355022","name":"Lüneburg, Hansestadt","type":"Stadt"},"district":{"key":"03355","name":"Lüneburg","type":"Landkreis"},"federalState":{"key":"03","name":"Niedersachsen"}},{"name":"Olof-Palme-Hain","postalCode":"21337","locality":"Lüneburg","municipality":{"key":"03355022","name":"Lüneburg, Hansestadt","type":"Stadt"},"district":{"key":"03355","name":"Lüneburg","type":"Landkreis"},"federalState":{"key":"03","name":"Niedersachsen"}},{"name":"Olof-Palme-Str.","postalCode":"21337","locality":"Lüneburg","municipality":{"key":"03355022","name":"Lüneburg, Hansestadt","type":"Stadt"},"district":{"key":"03355","name":"Lüneburg","type":"Landkreis"},"federalState":{"key":"03","name":"Niedersachsen"}},{"name":"Oltrogge-Platz","postalCode":"21335","locality":"Lüneburg","municipality":{"key":"03355022","name":"Lüneburg, Hansestadt","type":"Stadt"},"district":{"key":"03355","name":"Lüneburg","type":"Landkreis"},"federalState":{"key":"03","name":"Niedersachsen"}},{"name":"Ortelsburger Str.","postalCode":"21337","locality":"Lüneburg","municipality":{"key":"03355022","name":"Lüneburg, Hansestadt","type":"Stadt"},"district":{"key":"03355","name":"Lüneburg","type":"Landkreis"},"federalState":{"key":"03","name":"Niedersachsen"}},{"name":"Osterfeld","postalCode":"21339","locality":"Lüneburg","municipality":{"key":"03355022","name":"Lüneburg, Hansestadt","type":"Stadt"},"district":{"key":"03355","name":"Lüneburg","type":"Landkreis"},"federalState":{"key":"03","name":"Niedersachsen"}},{"name":"Osterwiese","postalCode":"21335","locality":"Lüneburg","municipality":{"key":"03355022","name":"Lüneburg, Hansestadt","type":"Stadt"},"district":{"key":"03355","name":"Lüneburg","type":"Landkreis"},"federalState":{"key":"03","name":"Niedersachsen"}},{"name":"Ostlandring","postalCode":"21337","locality":"Lüneburg","municipality":{"key":"03355022","name":"Lüneburg, Hansestadt","type":"Stadt"},"district":{"key":"03355","name":"Lüneburg","type":"Landkreis"},"federalState":{"key":"03","name":"Niedersachsen"}},{"name":"Ostpreußenring","postalCode":"21339","locality":"Lüneburg","municipality":{"key":"03355022","name":"Lüneburg, Hansestadt","type":"Stadt"},"district":{"key":"03355","name":"Lüneburg","type":"Landkreis"},"federalState":{"key":"03","name":"Niedersachsen"}},{"name":"Otto-Brenner-Str.","postalCode":"21337","locality":"Lüneburg","municipality":{"key":"03355022","name":"Lüneburg, Hansestadt","type":"Stadt"},"district":{"key":"03355","name":"Lüneburg","type":"Landkreis"},"federalState":{"key":"03","name":"Niedersachsen"}},{"name":"Otto-Fuhrhop-Weg","postalCode":"21335","locality":"Lüneburg","municipality":{"key":"03355022","name":"Lüneburg, Hansestadt","type":"Stadt"},"district":{"key":"03355","name":"Lüneburg","type":"Landkreis"},"federalState":{"key":"03","name":"Niedersachsen"}},{"name":"Otto-Snell-Str.","postalCode":"21339","locality":"Lüneburg","municipality":{"key":"03355022","name":"Lüneburg, Hansestadt","type":"Stadt"},"district":{"key":"03355","name":"Lüneburg","type":"Landkreis"},"federalState":{"key":"03","name":"Niedersachsen"}},{"name":"Ovelgönner Weg","postalCode":"21335","locality":"Lüneburg","municipality":{"key":"03355022","name":"Lüneburg, Hansestadt","type":"Stadt"},"district":{"key":"03355","name":"Lüneburg","type":"Landkreis"},"federalState":{"key":"03","name":"Niedersachsen"}},{"name":"Papageienweg","postalCode":"21365","locality":"Adendorf","municipality":{"key":"03355001","name":"Adendorf","type":"Kreisangehörige_Gemeinde"},"district":{"key":"03355","name":"Lüneburg","type":"Landkreis"},"federalState":{"key":"03","name":"Niedersachsen"}},{"name":"Paracelsusstr.","postalCode":"21365","locality":"Adendorf","municipality":{"key":"03355001","name":"Adendorf","type":"Kreisangehörige_Gemeinde"},"district":{"key":"03355","name":"Lüneburg","type":"Landkreis"},"federalState":{"key":"03","name":"Niedersachsen"}},{"name":"Parkweg","postalCode":"21365","locality":"Adendorf","municipality":{"key":"03355001","name":"Adendorf","type":"Kreisangehörige_Gemeinde"},"district":{"key":"03355","name":"Lüneburg","type":"Landkreis"},"federalState":{"key":"03","name":"Niedersachsen"}},{"name":"Pfarrer-Kneipp-Weg","postalCode":"21365","locality":"Adendorf","municipality":{"key":"03355001","name":"Adendorf","type":"Kreisangehörige_Gemeinde"},"district":{"key":"03355","name":"Lüneburg","type":"Landkreis"},"federalState":{"key":"03","name":"Niedersachsen"}},{"name":"Pflugweg","postalCode":"21365","locality":"Adendorf","municipality":{"key":"03355001","name":"Adendorf","type":"Kreisangehörige_Gemeinde"},"district":{"key":"03355","name":"Lüneburg","type":"Landkreis"},"federalState":{"key":"03","name":"Niedersachsen"}},{"name":"Quellenweg","postalCode":"21339","locality":"Lüneburg","municipality":{"key":"03355022","name":"Lüneburg, Hansestadt","type":"Stadt"},"district":{"key":"03355","name":"Lüneburg","type":"Landkreis"},"federalState":{"key":"03","name":"Niedersachsen"}},{"name":"Quickbaumweg","postalCode":"21339","locality":"Lüneburg","municipality":{"key":"03355022","name":"Lüneburg, Hansestadt","type":"Stadt"},"district":{"key":"03355","name":"Lüneburg","type":"Landkreis"},"federalState":{"key":"03","name":"Niedersachsen"}},{"name":"Rauher Weg","postalCode":"21365","locality":"Adendorf","municipality":{"key":"03355001","name":"Adendorf","type":"Kreisangehörige_Gemeinde"},"district":{"key":"03355","name":"Lüneburg","type":"Landkreis"},"federalState":{"key":"03","name":"Niedersachsen"}},{"name":"Rehhagen","postalCode":"21365","locality":"Adendorf","municipality":{"key":"03355001","name":"Adendorf","type":"Kreisangehörige_Gemeinde"},"district":{"key":"03355","name":"Lüneburg","type":"Landkreis"},"federalState":{"key":"03","name":"Niedersachsen"}},{"name":"Reiherweg","postalCode":"21365","locality":"Adendorf","municipality":{"key":"03355001","name":"Adendorf","type":"Kreisangehörige_Gemeinde"},"district":{"key":"03355","name":"Lüneburg","type":"Landkreis"},"federalState":{"key":"03","name":"Niedersachsen"}},{"name":"Richard-Strauss-Str.","postalCode":"21365","locality":"Adendorf","municipality":{"key":"03355001","name":"Adendorf","type":"Kreisangehörige_Gemeinde"},"district":{"key":"03355","name":"Lüneburg","type":"Landkreis"},"federalState":{"key":"03","name":"Niedersachsen"}},{"name":"Richard-Wagner-Ring","postalCode":"21365","locality":"Adendorf","municipality":{"key":"03355001","name":"Adendorf","type":"Kreisangehörige_Gemeinde"},"district":{"key":"03355","name":"Lüneburg","type":"Landkreis"},"federalState":{"key":"03","name":"Niedersachsen"}},{"name":"Robert-Koch-Str.","postalCode":"21365","locality":"Adendorf","municipality":{"key":"03355001","name":"Adendorf","type":"Kreisangehörige_Gemeinde"},"district":{"key":"03355","name":"Lüneburg","type":"Landkreis"},"federalState":{"key":"03","name":"Niedersachsen"}},{"name":"Robert-Lehmann-Ring","postalCode":"21365","locality":"Adendorf","municipality":{"key":"03355001","name":"Adendorf","type":"Kreisangehörige_Gemeinde"},"district":{"key":"03355","name":"Lüneburg","type":"Landkreis"},"federalState":{"key":"03","name":"Niedersachsen"}},{"name":"Robert-Schumann-Str.","postalCode":"21365","locality":"Adendorf","municipality":{"key":"03355001","name":"Adendorf","type":"Kreisangehörige_Gemeinde"},"district":{"key":"03355","name":"Lüneburg","type":"Landkreis"},"federalState":{"key":"03","name":"Niedersachsen"}},{"name":"Röhlsche Koppel","postalCode":"23619","locality":"Badendorf","municipality":{"key":"01062003","name":"Badendorf","type":"Kreisangehörige_Gemeinde"},"district":{"key":"01062","name":"Stormarn","type":"Kreis"},"federalState":{"key":"01","name":"Schleswig-Holstein"}},{"name":"Röntgenstr.","postalCode":"21365","locality":"Adendorf","municipality":{"key":"03355001","name":"Adendorf","type":"Kreisangehörige_Gemeinde"},"district":{"key":"03355","name":"Lüneburg","type":"Landkreis"},"federalState":{"key":"03","name":"Niedersachsen"}},{"name":"Rosenweg","postalCode":"21365","locality":"Adendorf","municipality":{"key":"03355001","name":"Adendorf","type":"Kreisangehörige_Gemeinde"},"district":{"key":"03355","name":"Lüneburg","type":"Landkreis"},"federalState":{"key":"03","name":"Niedersachsen"}},{"name":"Röthenweg","postalCode":"21365","locality":"Adendorf","municipality":{"key":"03355001","name":"Adendorf","type":"Kreisangehörige_Gemeinde"},"district":{"key":"03355","name":"Lüneburg","type":"Landkreis"},"federalState":{"key":"03","name":"Niedersachsen"}},{"name":"Rudolf-Kinau-Weg","postalCode":"21365","locality":"Adendorf","municipality":{"key":"03355001","name":"Adendorf","type":"Kreisangehörige_Gemeinde"},"district":{"key":"03355","name":"Lüneburg","type":"Landkreis"},"federalState":{"key":"03","name":"Niedersachsen"}},{"name":"Sandweg","postalCode":"21365","locality":"Adendorf","municipality":{"key":"03355001","name":"Adendorf","type":"Kreisangehörige_Gemeinde"},"district":{"key":"03355","name":"Lüneburg","type":"Landkreis"},"federalState":{"key":"03","name":"Niedersachsen"}},{"name":"Sattlerstr.","postalCode":"21365","locality":"Adendorf","municipality":{"key":"03355001","name":"Adendorf","type":"Kreisangehörige_Gemeinde"},"district":{"key":"03355","name":"Lüneburg","type":"Landkreis"},"federalState":{"key":"03","name":"Niedersachsen"}},{"name":"Sauerbruchstr.","postalCode":"21365","locality":"Adendorf","municipality":{"key":"03355001","name":"Adendorf","type":"Kreisangehörige_Gemeinde"},"district":{"key":"03355","name":"Lüneburg","type":"Landkreis"},"federalState":{"key":"03","name":"Niedersachsen"}},{"name":"Scharnebecker Weg","postalCode":"21365","locality":"Adendorf","municipality":{"key":"03355001","name":"Adendorf","type":"Kreisangehörige_Gemeinde"},"district":{"key":"03355","name":"Lüneburg","type":"Landkreis"},"federalState":{"key":"03","name":"Niedersachsen"}},{"name":"Schillerstr.","postalCode":"21365","locality":"Adendorf","municipality":{"key":"03355001","name":"Adendorf","type":"Kreisangehörige_Gemeinde"},"district":{"key":"03355","name":"Lüneburg","type":"Landkreis"},"federalState":{"key":"03","name":"Niedersachsen"}},{"name":"Schlangenweg","postalCode":"21365","locality":"Adendorf","municipality":{"key":"03355001","name":"Adendorf","type":"Kreisangehörige_Gemeinde"},"district":{"key":"03355","name":"Lüneburg","type":"Landkreis"},"federalState":{"key":"03","name":"Niedersachsen"}},{"name":"Schmiedeweg","postalCode":"21365","locality":"Adendorf","municipality":{"key":"03355001","name":"Adendorf","type":"Kreisangehörige_Gemeinde"},"district":{"key":"03355","name":"Lüneburg","type":"Landkreis"},"federalState":{"key":"03","name":"Niedersachsen"}},{"name":"Schnedeweg","postalCode":"21365","locality":"Adendorf","municipality":{"key":"03355001","name":"Adendorf","type":"Kreisangehörige_Gemeinde"},"district":{"key":"03355","name":"Lüneburg","type":"Landkreis"},"federalState":{"key":"03","name":"Niedersachsen"}},{"name":"Schulweg","postalCode":"21365","locality":"Adendorf","municipality":{"key":"03355001","name":"Adendorf","type":"Kreisangehörige_Gemeinde"},"district":{"key":"03355","name":"Lüneburg","type":"Landkreis"},"federalState":{"key":"03","name":"Niedersachsen"}},{"name":"Schützenweg","postalCode":"21365","locality":"Adendorf","municipality":{"key":"03355001","name":"Adendorf","type":"Kreisangehörige_Gemeinde"},"district":{"key":"03355","name":"Lüneburg","type":"Landkreis"},"federalState":{"key":"03","name":"Niedersachsen"}},{"name":"Schwarzer Weg","postalCode":"21365","locality":"Adendorf","municipality":{"key":"03355001","name":"Adendorf","type":"Kreisangehörige_Gemeinde"},"district":{"key":"03355","name":"Lüneburg","type":"Landkreis"},"federalState":{"key":"03","name":"Niedersachsen"}},{"name":"Semmelweisstr.","postalCode":"21365","locality":"Adendorf","municipality":{"key":"03355001","name":"Adendorf","type":"Kreisangehörige_Gemeinde"},"district":{"key":"03355","name":"Lüneburg","type":"Landkreis"},"federalState":{"key":"03","name":"Niedersachsen"}},{"name":"Sperberweg","postalCode":"21365","locality":"Adendorf","municipality":{"key":"03355001","name":"Adendorf","type":"Kreisangehörige_Gemeinde"},"district":{"key":"03355","name":"Lüneburg","type":"Landkreis"},"federalState":{"key":"03","name":"Niedersachsen"}},{"name":"Spökenkuhlen","postalCode":"21365","locality":"Adendorf","municipality":{"key":"03355001","name":"Adendorf","type":"Kreisangehörige_Gemeinde"},"district":{"key":"03355","name":"Lüneburg","type":"Landkreis"},"federalState":{"key":"03","name":"Niedersachsen"}},{"name":"Steinbergkoppel","postalCode":"21365","locality":"Adendorf","municipality":{"key":"03355001","name":"Adendorf","type":"Kreisangehörige_Gemeinde"},"district":{"key":"03355","name":"Lüneburg","type":"Landkreis"},"federalState":{"key":"03","name":"Niedersachsen"}},{"name":"Steinweg","postalCode":"21365","locality":"Adendorf","municipality":{"key":"03355001","name":"Adendorf","type":"Kreisangehörige_Gemeinde"},"district":{"key":"03355","name":"Lüneburg","type":"Landkreis"},"federalState":{"key":"03","name":"Niedersachsen"}},{"name":"Stettiner Weg","postalCode":"21365","locality":"Adendorf","municipality":{"key":"03355001","name":"Adendorf","type":"Kreisangehörige_Gemeinde"},"district":{"key":"03355","name":"Lüneburg","type":"Landkreis"},"federalState":{"key":"03","name":"Niedersachsen"}},{"name":"Tannenweg","postalCode":"21365","locality":"Adendorf","municipality":{"key":"03355001","name":"Adendorf","type":"Kreisangehörige_Gemeinde"},"district":{"key":"03355","name":"Lüneburg","type":"Landkreis"},"federalState":{"key":"03","name":"Niedersachsen"}},{"name":"Teichaue","postalCode":"21365","locality":"Adendorf","municipality":{"key":"03355001","name":"Adendorf","type":"Kreisangehörige_Gemeinde"},"district":{"key":"03355","name":"Lüneburg","type":"Landkreis"},"federalState":{"key":"03","name":"Niedersachsen"}},{"name":"Theodor-Storm-Weg","postalCode":"21365","locality":"Adendorf","municipality":{"key":"03355001","name":"Adendorf","type":"Kreisangehörige_Gemeinde"},"district":{"key":"03355","name":"Lüneburg","type":"Landkreis"},"federalState":{"key":"03","name":"Niedersachsen"}},{"name":"Turmweg","postalCode":"21365","locality":"Adendorf","municipality":{"key":"03355001","name":"Adendorf","type":"Kreisangehörige_Gemeinde"},"district":{"key":"03355","name":"Lüneburg","type":"Landkreis"},"federalState":{"key":"03","name":"Niedersachsen"}},{"name":"Ulmenweg","postalCode":"21365","locality":"Adendorf","municipality":{"key":"03355001","name":"Adendorf","type":"Kreisangehörige_Gemeinde"},"district":{"key":"03355","name":"Lüneburg","type":"Landkreis"},"federalState":{"key":"03","name":"Niedersachsen"}},{"name":"Virchowstr.","postalCode":"21365","locality":"Adendorf","municipality":{"key":"03355001","name":"Adendorf","type":"Kreisangehörige_Gemeinde"},"district":{"key":"03355","name":"Lüneburg","type":"Landkreis"},"federalState":{"key":"03","name":"Niedersachsen"}},{"name":"Von-Behring-Str.","postalCode":"21365","locality":"Adendorf","municipality":{"key":"03355001","name":"Adendorf","type":"Kreisangehörige_Gemeinde"},"district":{"key":"03355","name":"Lüneburg","type":"Landkreis"},"federalState":{"key":"03","name":"Niedersachsen"}},{"name":"Von-Eichendorff-Str.","postalCode":"21365","locality":"Adendorf","municipality":{"key":"03355001","name":"Adendorf","type":"Kreisangehörige_Gemeinde"},"district":{"key":"03355","name":"Lüneburg","type":"Landkreis"},"federalState":{"key":"03","name":"Niedersachsen"}},{"name":"Von-Stauffenberg-Str.","postalCode":"21365","locality":"Adendorf","municipality":{"key":"03355001","name":"Adendorf","type":"Kreisangehörige_Gemeinde"},"district":{"key":"03355","name":"Lüneburg","type":"Landkreis"},"federalState":{"key":"03","name":"Niedersachsen"}},{"name":"Wacholderweg","postalCode":"21365","locality":"Adendorf","municipality":{"key":"03355001","name":"Adendorf","type":"Kreisangehörige_Gemeinde"},"district":{"key":"03355","name":"Lüneburg","type":"Landkreis"},"federalState":{"key":"03","name":"Niedersachsen"}},{"name":"Waldwinkel","postalCode":"21365","locality":"Adendorf","municipality":{"key":"03355001","name":"Adendorf","type":"Kreisangehörige_Gemeinde"},"district":{"key":"03355","name":"Lüneburg","type":"Landkreis"},"federalState":{"key":"03","name":"Niedersachsen"}},{"name":"Weberstr.","postalCode":"21365","locality":"Adendorf","municipality":{"key":"03355001","name":"Adendorf","type":"Kreisangehörige_Gemeinde"},"district":{"key":"03355","name":"Lüneburg","type":"Landkreis"},"federalState":{"key":"03","name":"Niedersachsen"}},{"name":"Weidenweg","postalCode":"21365","locality":"Adendorf","municipality":{"key":"03355001","name":"Adendorf","type":"Kreisangehörige_Gemeinde"},"district":{"key":"03355","name":"Lüneburg","type":"Landkreis"},"federalState":{"key":"03","name":"Niedersachsen"}},{"name":"Weinbergsweg","postalCode":"21365","locality":"Adendorf","municipality":{"key":"03355001","name":"Adendorf","type":"Kreisangehörige_Gemeinde"},"district":{"key":"03355","name":"Lüneburg","type":"Landkreis"},"federalState":{"key":"03","name":"Niedersachsen"}},{"name":"Wiesenweg","postalCode":"21365","locality":"Adendorf","municipality":{"key":"03355001","name":"Adendorf","type":"Kreisangehörige_Gemeinde"},"district":{"key":"03355","name":"Lüneburg","type":"Landkreis"},"federalState":{"key":"03","name":"Niedersachsen"}},{"name":"Wulfskamp","postalCode":"21365","locality":"Adendorf","municipality":{"key":"03355001","name":"Adendorf","type":"Kreisangehörige_Gemeinde"},"district":{"key":"03355","name":"Lüneburg","type":"Landkreis"},"federalState":{"key":"03","name":"Niedersachsen"}},{"name":"Yorckstr.","postalCode":"21335","locality":"Lüneburg","municipality":{"key":"03355022","name":"Lüneburg, Hansestadt","type":"Stadt"},"district":{"key":"03355","name":"Lüneburg","type":"Landkreis"},"federalState":{"key":"03","name":"Niedersachsen"}},{"name":"Ziegeleiweg","postalCode":"21365","locality":"Adendorf","municipality":{"key":"03355001","name":"Adendorf","type":"Kreisangehörige_Gemeinde"},"district":{"key":"03355","name":"Lüneburg","type":"Landkreis"},"federalState":{"key":"03","name":"Niedersachsen"}},{"name":"Ziegelweg","postalCode":"23619","locality":"Badendorf","municipality":{"key":"01062003","name":"Badendorf","type":"Kreisangehörige_Gemeinde"},"district":{"key":"01062","name":"Stormarn","type":"Kreis"},"federalState":{"key":"01","name":"Schleswig-Holstein"}},{"name":"Zum Weißenstein","postalCode":"21365","locality":"Adendorf","municipality":{"key":"03355001","name":"Adendorf","type":"Kreisangehörige_Gemeinde"},"district":{"key":"03355","name":"Lüneburg","type":"Landkreis"},"federalState":{"key":"03","name":"Niedersachsen"}},{"name":"Zur Wüstenei","postalCode":"23619","locality":"Badendorf","municipality":{"key":"01062003","name":"Badendorf","type":"Kreisangehörige_Gemeinde"},"district":{"key":"01062","name":"Stormarn","type":"Kreis"},"federalState":{"key":"01","name":"Schleswig-Holstein"}},]