[{"key":"10056753","name":"Alte Bremgartenstrasse","postalCode":"5443","locality":"Niederrohrdorf","commune":{"key":"4035","name":"Niederrohrdorf","shortName":"Niederrohrdorf"},"district":{"key":"1902","name":"Bezirk Baden"},"canton":{"key":"19","code":"AG","name":"Aargau"},"status":"Real"},{"key":"10240123","name":"Arbeitslosenweg","postalCode":"5443","locality":"Niederrohrdorf","commune":{"key":"4035","name":"Niederrohrdorf","shortName":"Niederrohrdorf"},"district":{"key":"1902","name":"Bezirk Baden"},"canton":{"key":"19","code":"AG","name":"Aargau"},"status":"Real"},{"key":"10240127","name":"Bachweg","postalCode":"5443","locality":"Niederrohrdorf","commune":{"key":"4035","name":"Niederrohrdorf","shortName":"Niederrohrdorf"},"district":{"key":"1902","name":"Bezirk Baden"},"canton":{"key":"19","code":"AG","name":"Aargau"},"status":"Real"},{"key":"10240131","name":"Badenerstrasse","postalCode":"5443","locality":"Niederrohrdorf","commune":{"key":"4035","name":"Niederrohrdorf","shortName":"Niederrohrdorf"},"district":{"key":"1902","name":"Bezirk Baden"},"canton":{"key":"19","code":"AG","name":"Aargau"},"status":"Real"},{"key":"10240135","name":"Bifangenweg","postalCode":"5443","locality":"Niederrohrdorf","commune":{"key":"4035","name":"Niederrohrdorf","shortName":"Niederrohrdorf"},"district":{"key":"1902","name":"Bezirk Baden"},"canton":{"key":"19","code":"AG","name":"Aargau"},"status":"Real"},{"key":"10036301","name":"Birkenweg","postalCode":"5443","locality":"Niederrohrdorf","commune":{"key":"4035","name":"Niederrohrdorf","shortName":"Niederrohrdorf"},"district":{"key":"1902","name":"Bezirk Baden"},"canton":{"key":"19","code":"AG","name":"Aargau"},"status":"Real"},{"key":"10071912","name":"Bodenacher","postalCode":"5443","locality":"Niederrohrdorf","commune":{"key":"4035","name":"Niederrohrdorf","shortName":"Niederrohrdorf"},"district":{"key":"1902","name":"Bezirk Baden"},"canton":{"key":"19","code":"AG","name":"Aargau"},"status":"Real"},{"key":"10240139","name":"Bodenacherweg","postalCode":"5443","locality":"Niederrohrdorf","commune":{"key":"4035","name":"Niederrohrdorf","shortName":"Niederrohrdorf"},"district":{"key":"1902","name":"Bezirk Baden"},"canton":{"key":"19","code":"AG","name":"Aargau"},"status":"Real"},{"key":"10034954","name":"Böhlistrasse","postalCode":"5443","locality":"Niederrohrdorf","commune":{"key":"4035","name":"Niederrohrdorf","shortName":"Niederrohrdorf"},"district":{"key":"1902","name":"Bezirk Baden"},"canton":{"key":"19","code":"AG","name":"Aargau"},"status":"Real"},{"key":"10240143","name":"Brandeggliweg","postalCode":"5443","locality":"Niederrohrdorf","commune":{"key":"4035","name":"Niederrohrdorf","shortName":"Niederrohrdorf"},"district":{"key":"1902","name":"Bezirk Baden"},"canton":{"key":"19","code":"AG","name":"Aargau"},"status":"Real"},{"key":"10036302","name":"Breitacherstrasse","postalCode":"5443","locality":"Niederrohrdorf","commune":{"key":"4035","name":"Niederrohrdorf","shortName":"Niederrohrdorf"},"district":{"key":"1902","name":"Bezirk Baden"},"canton":{"key":"19","code":"AG","name":"Aargau"},"status":"Real"},{"key":"10124549","name":"Bremgartenstrasse","postalCode":"5443","locality":"Niederrohrdorf","commune":{"key":"4035","name":"Niederrohrdorf","shortName":"Niederrohrdorf"},"district":{"key":"1902","name":"Bezirk Baden"},"canton":{"key":"19","code":"AG","name":"Aargau"},"status":"Real"},{"key":"10240147","name":"Brünnliweg","postalCode":"5443","locality":"Niederrohrdorf","commune":{"key":"4035","name":"Niederrohrdorf","shortName":"Niederrohrdorf"},"district":{"key":"1902","name":"Bezirk Baden"},"canton":{"key":"19","code":"AG","name":"Aargau"},"status":"Real"},{"key":"10039408","name":"Buacherweg","postalCode":"5443","locality":"Niederrohrdorf","commune":{"key":"4035","name":"Niederrohrdorf","shortName":"Niederrohrdorf"},"district":{"key":"1902","name":"Bezirk Baden"},"canton":{"key":"19","code":"AG","name":"Aargau"},"status":"Real"},{"key":"10111403","name":"Büntstrasse","postalCode":"5443","locality":"Niederrohrdorf","commune":{"key":"4035","name":"Niederrohrdorf","shortName":"Niederrohrdorf"},"district":{"key":"1902","name":"Bezirk Baden"},"canton":{"key":"19","code":"AG","name":"Aargau"},"status":"Real"},{"key":"10240151","name":"Chilestägli","postalCode":"5443","locality":"Niederrohrdorf","commune":{"key":"4035","name":"Niederrohrdorf","shortName":"Niederrohrdorf"},"district":{"key":"1902","name":"Bezirk Baden"},"canton":{"key":"19","code":"AG","name":"Aargau"},"status":"Real"},{"key":"10240155","name":"Chöölgartenweg","postalCode":"5443","locality":"Niederrohrdorf","commune":{"key":"4035","name":"Niederrohrdorf","shortName":"Niederrohrdorf"},"district":{"key":"1902","name":"Bezirk Baden"},"canton":{"key":"19","code":"AG","name":"Aargau"},"status":"Real"},{"key":"10071913","name":"Clemenzweg","postalCode":"5443","locality":"Niederrohrdorf","commune":{"key":"4035","name":"Niederrohrdorf","shortName":"Niederrohrdorf"},"district":{"key":"1902","name":"Bezirk Baden"},"canton":{"key":"19","code":"AG","name":"Aargau"},"status":"Real"},{"key":"10056754","name":"Daviacherweg","postalCode":"5443","locality":"Niederrohrdorf","commune":{"key":"4035","name":"Niederrohrdorf","shortName":"Niederrohrdorf"},"district":{"key":"1902","name":"Bezirk Baden"},"canton":{"key":"19","code":"AG","name":"Aargau"},"status":"Real"},{"key":"10052873","name":"Dobegg","postalCode":"5443","locality":"Niederrohrdorf","commune":{"key":"4035","name":"Niederrohrdorf","shortName":"Niederrohrdorf"},"district":{"key":"1902","name":"Bezirk Baden"},"canton":{"key":"19","code":"AG","name":"Aargau"},"status":"Real"},{"key":"10238704","name":"Dobeggweg","postalCode":"5443","locality":"Niederrohrdorf","commune":{"key":"4035","name":"Niederrohrdorf","shortName":"Niederrohrdorf"},"district":{"key":"1902","name":"Bezirk Baden"},"canton":{"key":"19","code":"AG","name":"Aargau"},"status":"Real"},{"key":"10238705","name":"Ebniweg","postalCode":"5443","locality":"Niederrohrdorf","commune":{"key":"4035","name":"Niederrohrdorf","shortName":"Niederrohrdorf"},"district":{"key":"1902","name":"Bezirk Baden"},"canton":{"key":"19","code":"AG","name":"Aargau"},"status":"Real"},{"key":"10238710","name":"Eggacherweg","postalCode":"5443","locality":"Niederrohrdorf","commune":{"key":"4035","name":"Niederrohrdorf","shortName":"Niederrohrdorf"},"district":{"key":"1902","name":"Bezirk Baden"},"canton":{"key":"19","code":"AG","name":"Aargau"},"status":"Real"},{"key":"10238714","name":"Eichhogerweg","postalCode":"5443","locality":"Niederrohrdorf","commune":{"key":"4035","name":"Niederrohrdorf","shortName":"Niederrohrdorf"},"district":{"key":"1902","name":"Bezirk Baden"},"canton":{"key":"19","code":"AG","name":"Aargau"},"status":"Real"},{"key":"10171431","name":"Eigerweg","postalCode":"5443","locality":"Niederrohrdorf","commune":{"key":"4035","name":"Niederrohrdorf","shortName":"Niederrohrdorf"},"district":{"key":"1902","name":"Bezirk Baden"},"canton":{"key":"19","code":"AG","name":"Aargau"},"status":"Real"},{"key":"10039409","name":"Esterlistrasse","postalCode":"5443","locality":"Niederrohrdorf","commune":{"key":"4035","name":"Niederrohrdorf","shortName":"Niederrohrdorf"},"district":{"key":"1902","name":"Bezirk Baden"},"canton":{"key":"19","code":"AG","name":"Aargau"},"status":"Real"},{"key":"10039410","name":"Fohrhölzlistrasse","postalCode":"5443","locality":"Niederrohrdorf","commune":{"key":"4035","name":"Niederrohrdorf","shortName":"Niederrohrdorf"},"district":{"key":"1902","name":"Bezirk Baden"},"canton":{"key":"19","code":"AG","name":"Aargau"},"status":"Real"},{"key":"10238717","name":"Fuchsensteinweg","postalCode":"5443","locality":"Niederrohrdorf","commune":{"key":"4035","name":"Niederrohrdorf","shortName":"Niederrohrdorf"},"district":{"key":"1902","name":"Bezirk Baden"},"canton":{"key":"19","code":"AG","name":"Aargau"},"status":"Real"},{"key":"10056755","name":"Gartenweg","postalCode":"5443","locality":"Niederrohrdorf","commune":{"key":"4035","name":"Niederrohrdorf","shortName":"Niederrohrdorf"},"district":{"key":"1902","name":"Bezirk Baden"},"canton":{"key":"19","code":"AG","name":"Aargau"},"status":"Real"},{"key":"10171430","name":"Gärtnerweg","postalCode":"5443","locality":"Niederrohrdorf","commune":{"key":"4035","name":"Niederrohrdorf","shortName":"Niederrohrdorf"},"district":{"key":"1902","name":"Bezirk Baden"},"canton":{"key":"19","code":"AG","name":"Aargau"},"status":"Real"},{"key":"10238720","name":"Gfeendweg","postalCode":"5443","locality":"Niederrohrdorf","commune":{"key":"4035","name":"Niederrohrdorf","shortName":"Niederrohrdorf"},"district":{"key":"1902","name":"Bezirk Baden"},"canton":{"key":"19","code":"AG","name":"Aargau"},"status":"Real"},{"key":"10093028","name":"Grabemattweg","postalCode":"5443","locality":"Niederrohrdorf","commune":{"key":"4035","name":"Niederrohrdorf","shortName":"Niederrohrdorf"},"district":{"key":"1902","name":"Bezirk Baden"},"canton":{"key":"19","code":"AG","name":"Aargau"},"status":"Real"},{"key":"10238726","name":"Gruebeweg","postalCode":"5443","locality":"Niederrohrdorf","commune":{"key":"4035","name":"Niederrohrdorf","shortName":"Niederrohrdorf"},"district":{"key":"1902","name":"Bezirk Baden"},"canton":{"key":"19","code":"AG","name":"Aargau"},"status":"Real"},{"key":"10117815","name":"Gsteingweg","postalCode":"5443","locality":"Niederrohrdorf","commune":{"key":"4035","name":"Niederrohrdorf","shortName":"Niederrohrdorf"},"district":{"key":"1902","name":"Bezirk Baden"},"canton":{"key":"19","code":"AG","name":"Aargau"},"status":"Real"},{"key":"10056756","name":"Gwiggweg","postalCode":"5443","locality":"Niederrohrdorf","commune":{"key":"4035","name":"Niederrohrdorf","shortName":"Niederrohrdorf"},"district":{"key":"1902","name":"Bezirk Baden"},"canton":{"key":"19","code":"AG","name":"Aargau"},"status":"Real"},{"key":"10071914","name":"Heigellochstrasse","postalCode":"5443","locality":"Niederrohrdorf","commune":{"key":"4035","name":"Niederrohrdorf","shortName":"Niederrohrdorf"},"district":{"key":"1902","name":"Bezirk Baden"},"canton":{"key":"19","code":"AG","name":"Aargau"},"status":"Real"},{"key":"10034643","name":"Heitersbergstrasse","postalCode":"5443","locality":"Niederrohrdorf","commune":{"key":"4035","name":"Niederrohrdorf","shortName":"Niederrohrdorf"},"district":{"key":"1902","name":"Bezirk Baden"},"canton":{"key":"19","code":"AG","name":"Aargau"},"status":"Real"},{"key":"10056757","name":"Hiltibergstrasse","postalCode":"5443","locality":"Niederrohrdorf","commune":{"key":"4035","name":"Niederrohrdorf","shortName":"Niederrohrdorf"},"district":{"key":"1902","name":"Bezirk Baden"},"canton":{"key":"19","code":"AG","name":"Aargau"},"status":"Real"},{"key":"10093029","name":"Hiltimattstrasse","postalCode":"5443","locality":"Niederrohrdorf","commune":{"key":"4035","name":"Niederrohrdorf","shortName":"Niederrohrdorf"},"district":{"key":"1902","name":"Bezirk Baden"},"canton":{"key":"19","code":"AG","name":"Aargau"},"status":"Real"},{"key":"10180959","name":"Hiltiwaldweg","postalCode":"5443","locality":"Niederrohrdorf","commune":{"key":"4035","name":"Niederrohrdorf","shortName":"Niederrohrdorf"},"district":{"key":"1902","name":"Bezirk Baden"},"canton":{"key":"19","code":"AG","name":"Aargau"},"status":"Real"},{"key":"10188161","name":"Hiltiweg","postalCode":"5443","locality":"Niederrohrdorf","commune":{"key":"4035","name":"Niederrohrdorf","shortName":"Niederrohrdorf"},"district":{"key":"1902","name":"Bezirk Baden"},"canton":{"key":"19","code":"AG","name":"Aargau"},"status":"Real"},{"key":"10174213","name":"Hintermattweg","postalCode":"5443","locality":"Niederrohrdorf","commune":{"key":"4035","name":"Niederrohrdorf","shortName":"Niederrohrdorf"},"district":{"key":"1902","name":"Bezirk Baden"},"canton":{"key":"19","code":"AG","name":"Aargau"},"status":"Real"},{"key":"10238730","name":"Hinterriedereweg","postalCode":"5443","locality":"Niederrohrdorf","commune":{"key":"4035","name":"Niederrohrdorf","shortName":"Niederrohrdorf"},"district":{"key":"1902","name":"Bezirk Baden"},"canton":{"key":"19","code":"AG","name":"Aargau"},"status":"Real"},{"key":"10161350","name":"Hofacherstrasse","postalCode":"5443","locality":"Niederrohrdorf","commune":{"key":"4035","name":"Niederrohrdorf","shortName":"Niederrohrdorf"},"district":{"key":"1902","name":"Bezirk Baden"},"canton":{"key":"19","code":"AG","name":"Aargau"},"status":"Real"},{"key":"10122156","name":"Höhenweg","postalCode":"5443","locality":"Niederrohrdorf","commune":{"key":"4035","name":"Niederrohrdorf","shortName":"Niederrohrdorf"},"district":{"key":"1902","name":"Bezirk Baden"},"canton":{"key":"19","code":"AG","name":"Aargau"},"status":"Real"},{"key":"10034644","name":"Holzrüti","postalCode":"5443","locality":"Niederrohrdorf","commune":{"key":"4035","name":"Niederrohrdorf","shortName":"Niederrohrdorf"},"district":{"key":"1902","name":"Bezirk Baden"},"canton":{"key":"19","code":"AG","name":"Aargau"},"status":"Real"},{"key":"10034645","name":"Holzrütistrasse","postalCode":"5443","locality":"Niederrohrdorf","commune":{"key":"4035","name":"Niederrohrdorf","shortName":"Niederrohrdorf"},"district":{"key":"1902","name":"Bezirk Baden"},"canton":{"key":"19","code":"AG","name":"Aargau"},"status":"Real"},{"key":"10238734","name":"Hundacherweg","postalCode":"5443","locality":"Niederrohrdorf","commune":{"key":"4035","name":"Niederrohrdorf","shortName":"Niederrohrdorf"},"district":{"key":"1902","name":"Bezirk Baden"},"canton":{"key":"19","code":"AG","name":"Aargau"},"status":"Real"},{"key":"10238738","name":"Hürstweg","postalCode":"5443","locality":"Niederrohrdorf","commune":{"key":"4035","name":"Niederrohrdorf","shortName":"Niederrohrdorf"},"district":{"key":"1902","name":"Bezirk Baden"},"canton":{"key":"19","code":"AG","name":"Aargau"},"status":"Real"},{"key":"10235530","name":"Johanna-Walz-Weg","postalCode":"5443","locality":"Niederrohrdorf","commune":{"key":"4035","name":"Niederrohrdorf","shortName":"Niederrohrdorf"},"district":{"key":"1902","name":"Bezirk Baden"},"canton":{"key":"19","code":"AG","name":"Aargau"},"status":"Real"},{"key":"10238742","name":"Josef-Villiger-Weg","postalCode":"5443","locality":"Niederrohrdorf","commune":{"key":"4035","name":"Niederrohrdorf","shortName":"Niederrohrdorf"},"district":{"key":"1902","name":"Bezirk Baden"},"canton":{"key":"19","code":"AG","name":"Aargau"},"status":"Real"},{"key":"10093030","name":"Kohlgrueb","postalCode":"5443","locality":"Niederrohrdorf","commune":{"key":"4035","name":"Niederrohrdorf","shortName":"Niederrohrdorf"},"district":{"key":"1902","name":"Bezirk Baden"},"canton":{"key":"19","code":"AG","name":"Aargau"},"status":"Real"},{"key":"10238746","name":"Länggweg","postalCode":"5443","locality":"Niederrohrdorf","commune":{"key":"4035","name":"Niederrohrdorf","shortName":"Niederrohrdorf"},"district":{"key":"1902","name":"Bezirk Baden"},"canton":{"key":"19","code":"AG","name":"Aargau"},"status":"Real"},{"key":"10120725","name":"Loonstrasse","postalCode":"5443","locality":"Niederrohrdorf","commune":{"key":"4035","name":"Niederrohrdorf","shortName":"Niederrohrdorf"},"district":{"key":"1902","name":"Bezirk Baden"},"canton":{"key":"19","code":"AG","name":"Aargau"},"status":"Real"},{"key":"10034646","name":"Loorenstrasse","postalCode":"5443","locality":"Niederrohrdorf","commune":{"key":"4035","name":"Niederrohrdorf","shortName":"Niederrohrdorf"},"district":{"key":"1902","name":"Bezirk Baden"},"canton":{"key":"19","code":"AG","name":"Aargau"},"status":"Real"},{"key":"10238750","name":"Maasweg","postalCode":"5443","locality":"Niederrohrdorf","commune":{"key":"4035","name":"Niederrohrdorf","shortName":"Niederrohrdorf"},"district":{"key":"1902","name":"Bezirk Baden"},"canton":{"key":"19","code":"AG","name":"Aargau"},"status":"Real"},{"key":"10034923","name":"Mellingerstrasse","postalCode":"5443","locality":"Niederrohrdorf","commune":{"key":"4035","name":"Niederrohrdorf","shortName":"Niederrohrdorf"},"district":{"key":"1902","name":"Bezirk Baden"},"canton":{"key":"19","code":"AG","name":"Aargau"},"status":"Real"},{"key":"10056758","name":"Moosstrasse","postalCode":"5443","locality":"Niederrohrdorf","commune":{"key":"4035","name":"Niederrohrdorf","shortName":"Niederrohrdorf"},"district":{"key":"1902","name":"Bezirk Baden"},"canton":{"key":"19","code":"AG","name":"Aargau"},"status":"Real"},{"key":"10106651","name":"Mülibachweg","postalCode":"5443","locality":"Niederrohrdorf","commune":{"key":"4035","name":"Niederrohrdorf","shortName":"Niederrohrdorf"},"district":{"key":"1902","name":"Bezirk Baden"},"canton":{"key":"19","code":"AG","name":"Aargau"},"status":"Real"},{"key":"10093031","name":"Mülimattstrasse","postalCode":"5443","locality":"Niederrohrdorf","commune":{"key":"4035","name":"Niederrohrdorf","shortName":"Niederrohrdorf"},"district":{"key":"1902","name":"Bezirk Baden"},"canton":{"key":"19","code":"AG","name":"Aargau"},"status":"Real"},{"key":"10238754","name":"Munimattweg","postalCode":"5443","locality":"Niederrohrdorf","commune":{"key":"4035","name":"Niederrohrdorf","shortName":"Niederrohrdorf"},"district":{"key":"1902","name":"Bezirk Baden"},"canton":{"key":"19","code":"AG","name":"Aargau"},"status":"Real"},{"key":"10186839","name":"Oberdorfstrasse","postalCode":"5443","locality":"Niederrohrdorf","commune":{"key":"4035","name":"Niederrohrdorf","shortName":"Niederrohrdorf"},"district":{"key":"1902","name":"Bezirk Baden"},"canton":{"key":"19","code":"AG","name":"Aargau"},"status":"Real"},{"key":"10238758","name":"Oberer Egelmoosweg","postalCode":"5443","locality":"Niederrohrdorf","commune":{"key":"4035","name":"Niederrohrdorf","shortName":"Niederrohrdorf"},"district":{"key":"1902","name":"Bezirk Baden"},"canton":{"key":"19","code":"AG","name":"Aargau"},"status":"Real"},{"key":"10238762","name":"Oberrütiweg","postalCode":"5443","locality":"Niederrohrdorf","commune":{"key":"4035","name":"Niederrohrdorf","shortName":"Niederrohrdorf"},"district":{"key":"1902","name":"Bezirk Baden"},"canton":{"key":"19","code":"AG","name":"Aargau"},"status":"Real"},{"key":"10205964","name":"Parkweg","postalCode":"5443","locality":"Niederrohrdorf","commune":{"key":"4035","name":"Niederrohrdorf","shortName":"Niederrohrdorf"},"district":{"key":"1902","name":"Bezirk Baden"},"canton":{"key":"19","code":"AG","name":"Aargau"},"status":"Real"},{"key":"10162650","name":"Pilatusweg","postalCode":"5443","locality":"Niederrohrdorf","commune":{"key":"4035","name":"Niederrohrdorf","shortName":"Niederrohrdorf"},"district":{"key":"1902","name":"Bezirk Baden"},"canton":{"key":"19","code":"AG","name":"Aargau"},"status":"Real"},{"key":"10124023","name":"Quellenweg","postalCode":"5443","locality":"Niederrohrdorf","commune":{"key":"4035","name":"Niederrohrdorf","shortName":"Niederrohrdorf"},"district":{"key":"1902","name":"Bezirk Baden"},"canton":{"key":"19","code":"AG","name":"Aargau"},"status":"Real"},{"key":"10034924","name":"Rebhaldenweg","postalCode":"5443","locality":"Niederrohrdorf","commune":{"key":"4035","name":"Niederrohrdorf","shortName":"Niederrohrdorf"},"district":{"key":"1902","name":"Bezirk Baden"},"canton":{"key":"19","code":"AG","name":"Aargau"},"status":"Real"},{"key":"10034925","name":"Rennweg","postalCode":"5443","locality":"Niederrohrdorf","commune":{"key":"4035","name":"Niederrohrdorf","shortName":"Niederrohrdorf"},"district":{"key":"1902","name":"Bezirk Baden"},"canton":{"key":"19","code":"AG","name":"Aargau"},"status":"Real"},{"key":"10034926","name":"Rigistrasse","postalCode":"5443","locality":"Niederrohrdorf","commune":{"key":"4035","name":"Niederrohrdorf","shortName":"Niederrohrdorf"},"district":{"key":"1902","name":"Bezirk Baden"},"canton":{"key":"19","code":"AG","name":"Aargau"},"status":"Real"},{"key":"10071915","name":"Römerweg","postalCode":"5443","locality":"Niederrohrdorf","commune":{"key":"4035","name":"Niederrohrdorf","shortName":"Niederrohrdorf"},"district":{"key":"1902","name":"Bezirk Baden"},"canton":{"key":"19","code":"AG","name":"Aargau"},"status":"Real"},{"key":"10034927","name":"Rorikerhof","postalCode":"5443","locality":"Niederrohrdorf","commune":{"key":"4035","name":"Niederrohrdorf","shortName":"Niederrohrdorf"},"district":{"key":"1902","name":"Bezirk Baden"},"canton":{"key":"19","code":"AG","name":"Aargau"},"status":"Real"},{"key":"10034928","name":"Rotrischweg","postalCode":"5443","locality":"Niederrohrdorf","commune":{"key":"4035","name":"Niederrohrdorf","shortName":"Niederrohrdorf"},"district":{"key":"1902","name":"Bezirk Baden"},"canton":{"key":"19","code":"AG","name":"Aargau"},"status":"Real"},{"key":"10093032","name":"Rüslerstrasse","postalCode":"5443","locality":"Niederrohrdorf","commune":{"key":"4035","name":"Niederrohrdorf","shortName":"Niederrohrdorf"},"district":{"key":"1902","name":"Bezirk Baden"},"canton":{"key":"19","code":"AG","name":"Aargau"},"status":"Real"},{"key":"10238766","name":"Schluckgrabenweg","postalCode":"5443","locality":"Niederrohrdorf","commune":{"key":"4035","name":"Niederrohrdorf","shortName":"Niederrohrdorf"},"district":{"key":"1902","name":"Bezirk Baden"},"canton":{"key":"19","code":"AG","name":"Aargau"},"status":"Real"},{"key":"10238770","name":"Schwelliweg","postalCode":"5443","locality":"Niederrohrdorf","commune":{"key":"4035","name":"Niederrohrdorf","shortName":"Niederrohrdorf"},"district":{"key":"1902","name":"Bezirk Baden"},"canton":{"key":"19","code":"AG","name":"Aargau"},"status":"Real"},{"key":"10238774","name":"Stetterstrasse","postalCode":"5443","locality":"Niederrohrdorf","commune":{"key":"4035","name":"Niederrohrdorf","shortName":"Niederrohrdorf"},"district":{"key":"1902","name":"Bezirk Baden"},"canton":{"key":"19","code":"AG","name":"Aargau"},"status":"Real"},{"key":"10238778","name":"Stetterweg","postalCode":"5443","locality":"Niederrohrdorf","commune":{"key":"4035","name":"Niederrohrdorf","shortName":"Niederrohrdorf"},"district":{"key":"1902","name":"Bezirk Baden"},"canton":{"key":"19","code":"AG","name":"Aargau"},"status":"Real"},{"key":"10238782","name":"Stockmattweg","postalCode":"5443","locality":"Niederrohrdorf","commune":{"key":"4035","name":"Niederrohrdorf","shortName":"Niederrohrdorf"},"district":{"key":"1902","name":"Bezirk Baden"},"canton":{"key":"19","code":"AG","name":"Aargau"},"status":"Real"},{"key":"10238786","name":"Taumoosweg","postalCode":"5443","locality":"Niederrohrdorf","commune":{"key":"4035","name":"Niederrohrdorf","shortName":"Niederrohrdorf"},"district":{"key":"1902","name":"Bezirk Baden"},"canton":{"key":"19","code":"AG","name":"Aargau"},"status":"Real"},{"key":"10034929","name":"Titlisweg","postalCode":"5443","locality":"Niederrohrdorf","commune":{"key":"4035","name":"Niederrohrdorf","shortName":"Niederrohrdorf"},"district":{"key":"1902","name":"Bezirk Baden"},"canton":{"key":"19","code":"AG","name":"Aargau"},"status":"Real"},{"key":"10238790","name":"Torffeldweg","postalCode":"5443","locality":"Niederrohrdorf","commune":{"key":"4035","name":"Niederrohrdorf","shortName":"Niederrohrdorf"},"district":{"key":"1902","name":"Bezirk Baden"},"canton":{"key":"19","code":"AG","name":"Aargau"},"status":"Real"},{"key":"10238794","name":"Unterer Egelmoosweg","postalCode":"5443","locality":"Niederrohrdorf","commune":{"key":"4035","name":"Niederrohrdorf","shortName":"Niederrohrdorf"},"district":{"key":"1902","name":"Bezirk Baden"},"canton":{"key":"19","code":"AG","name":"Aargau"},"status":"Real"},{"key":"10238798","name":"Unterrebenweg","postalCode":"5443","locality":"Niederrohrdorf","commune":{"key":"4035","name":"Niederrohrdorf","shortName":"Niederrohrdorf"},"district":{"key":"1902","name":"Bezirk Baden"},"canton":{"key":"19","code":"AG","name":"Aargau"},"status":"Real"},{"key":"10180960","name":"Valdöösweg","postalCode":"5443","locality":"Niederrohrdorf","commune":{"key":"4035","name":"Niederrohrdorf","shortName":"Niederrohrdorf"},"district":{"key":"1902","name":"Bezirk Baden"},"canton":{"key":"19","code":"AG","name":"Aargau"},"status":"Real"},{"key":"10238802","name":"Vogelhölzliweg","postalCode":"5443","locality":"Niederrohrdorf","commune":{"key":"4035","name":"Niederrohrdorf","shortName":"Niederrohrdorf"},"district":{"key":"1902","name":"Bezirk Baden"},"canton":{"key":"19","code":"AG","name":"Aargau"},"status":"Real"},{"key":"10034930","name":"Vogelrüti","postalCode":"5443","locality":"Niederrohrdorf","commune":{"key":"4035","name":"Niederrohrdorf","shortName":"Niederrohrdorf"},"district":{"key":"1902","name":"Bezirk Baden"},"canton":{"key":"19","code":"AG","name":"Aargau"},"status":"Real"},{"key":"10188278","name":"Weiherweg","postalCode":"5443","locality":"Niederrohrdorf","commune":{"key":"4035","name":"Niederrohrdorf","shortName":"Niederrohrdorf"},"district":{"key":"1902","name":"Bezirk Baden"},"canton":{"key":"19","code":"AG","name":"Aargau"},"status":"Real"},{"key":"10093033","name":"Zelglistrasse","postalCode":"5443","locality":"Niederrohrdorf","commune":{"key":"4035","name":"Niederrohrdorf","shortName":"Niederrohrdorf"},"district":{"key":"1902","name":"Bezirk Baden"},"canton":{"key":"19","code":"AG","name":"Aargau"},"status":"Real"},{"key":"10034931","name":"Zentrum","postalCode":"5443","locality":"Niederrohrdorf","commune":{"key":"4035","name":"Niederrohrdorf","shortName":"Niederrohrdorf"},"district":{"key":"1902","name":"Bezirk Baden"},"canton":{"key":"19","code":"AG","name":"Aargau"},"status":"Real"},{"key":"10034932","name":"Zweierestrasse","postalCode":"5443","locality":"Niederrohrdorf","commune":{"key":"4035","name":"Niederrohrdorf","shortName":"Niederrohrdorf"},"district":{"key":"1902","name":"Bezirk Baden"},"canton":{"key":"19","code":"AG","name":"Aargau"},"status":"Real"},]