[{"name":"Am Mühlchen","postalCode":"54486","locality":"Mülheim an der Mosel","municipality":{"key":"07231090","name":"Mülheim an der Mosel","type":"Kreisangehörige_Gemeinde"},"district":{"key":"07231","name":"Bernkastel-Wittlich","type":"Landkreis"},"federalState":{"key":"07","name":"Rheinland-Pfalz"}},{"name":"Am Veldenzer Bach","postalCode":"54486","locality":"Mülheim an der Mosel","municipality":{"key":"07231090","name":"Mülheim an der Mosel","type":"Kreisangehörige_Gemeinde"},"district":{"key":"07231","name":"Bernkastel-Wittlich","type":"Landkreis"},"federalState":{"key":"07","name":"Rheinland-Pfalz"}},{"name":"Am Wiesenhang","postalCode":"54486","locality":"Mülheim an der Mosel","municipality":{"key":"07231090","name":"Mülheim an der Mosel","type":"Kreisangehörige_Gemeinde"},"district":{"key":"07231","name":"Bernkastel-Wittlich","type":"Landkreis"},"federalState":{"key":"07","name":"Rheinland-Pfalz"}},{"name":"An der Köppelwies","postalCode":"54486","locality":"Mülheim an der Mosel","municipality":{"key":"07231090","name":"Mülheim an der Mosel","type":"Kreisangehörige_Gemeinde"},"district":{"key":"07231","name":"Bernkastel-Wittlich","type":"Landkreis"},"federalState":{"key":"07","name":"Rheinland-Pfalz"}},{"name":"Auf der Acht","postalCode":"54486","locality":"Mülheim an der Mosel","municipality":{"key":"07231090","name":"Mülheim an der Mosel","type":"Kreisangehörige_Gemeinde"},"district":{"key":"07231","name":"Bernkastel-Wittlich","type":"Landkreis"},"federalState":{"key":"07","name":"Rheinland-Pfalz"}},{"name":"Auf Oleck","postalCode":"54486","locality":"Mülheim an der Mosel","municipality":{"key":"07231090","name":"Mülheim an der Mosel","type":"Kreisangehörige_Gemeinde"},"district":{"key":"07231","name":"Bernkastel-Wittlich","type":"Landkreis"},"federalState":{"key":"07","name":"Rheinland-Pfalz"}},{"name":"Bergfried","postalCode":"54486","locality":"Mülheim an der Mosel","municipality":{"key":"07231090","name":"Mülheim an der Mosel","type":"Kreisangehörige_Gemeinde"},"district":{"key":"07231","name":"Bernkastel-Wittlich","type":"Landkreis"},"federalState":{"key":"07","name":"Rheinland-Pfalz"}},{"name":"Bergweg","postalCode":"54486","locality":"Mülheim an der Mosel","municipality":{"key":"07231090","name":"Mülheim an der Mosel","type":"Kreisangehörige_Gemeinde"},"district":{"key":"07231","name":"Bernkastel-Wittlich","type":"Landkreis"},"federalState":{"key":"07","name":"Rheinland-Pfalz"}},{"name":"Bitscher Weg","postalCode":"54486","locality":"Mülheim an der Mosel","municipality":{"key":"07231090","name":"Mülheim an der Mosel","type":"Kreisangehörige_Gemeinde"},"district":{"key":"07231","name":"Bernkastel-Wittlich","type":"Landkreis"},"federalState":{"key":"07","name":"Rheinland-Pfalz"}},{"name":"Gartenstr.","postalCode":"54486","locality":"Mülheim an der Mosel","municipality":{"key":"07231090","name":"Mülheim an der Mosel","type":"Kreisangehörige_Gemeinde"},"district":{"key":"07231","name":"Bernkastel-Wittlich","type":"Landkreis"},"federalState":{"key":"07","name":"Rheinland-Pfalz"}},{"name":"Graf-Zeppelin-Str.","postalCode":"54486","locality":"Mülheim an der Mosel","municipality":{"key":"07231090","name":"Mülheim an der Mosel","type":"Kreisangehörige_Gemeinde"},"district":{"key":"07231","name":"Bernkastel-Wittlich","type":"Landkreis"},"federalState":{"key":"07","name":"Rheinland-Pfalz"}},{"name":"Hauptstr.","postalCode":"54486","locality":"Mülheim an der Mosel","municipality":{"key":"07231090","name":"Mülheim an der Mosel","type":"Kreisangehörige_Gemeinde"},"district":{"key":"07231","name":"Bernkastel-Wittlich","type":"Landkreis"},"federalState":{"key":"07","name":"Rheinland-Pfalz"}},{"name":"Im Brühl","postalCode":"54486","locality":"Mülheim an der Mosel","municipality":{"key":"07231090","name":"Mülheim an der Mosel","type":"Kreisangehörige_Gemeinde"},"district":{"key":"07231","name":"Bernkastel-Wittlich","type":"Landkreis"},"federalState":{"key":"07","name":"Rheinland-Pfalz"}},{"name":"Im Flürchen","postalCode":"54486","locality":"Mülheim an der Mosel","municipality":{"key":"07231090","name":"Mülheim an der Mosel","type":"Kreisangehörige_Gemeinde"},"district":{"key":"07231","name":"Bernkastel-Wittlich","type":"Landkreis"},"federalState":{"key":"07","name":"Rheinland-Pfalz"}},{"name":"Kalkofenweg","postalCode":"54486","locality":"Mülheim an der Mosel","municipality":{"key":"07231090","name":"Mülheim an der Mosel","type":"Kreisangehörige_Gemeinde"},"district":{"key":"07231","name":"Bernkastel-Wittlich","type":"Landkreis"},"federalState":{"key":"07","name":"Rheinland-Pfalz"}},{"name":"Kirchstr.","postalCode":"54486","locality":"Mülheim an der Mosel","municipality":{"key":"07231090","name":"Mülheim an der Mosel","type":"Kreisangehörige_Gemeinde"},"district":{"key":"07231","name":"Bernkastel-Wittlich","type":"Landkreis"},"federalState":{"key":"07","name":"Rheinland-Pfalz"}},{"name":"Marktstr.","postalCode":"54486","locality":"Mülheim an der Mosel","municipality":{"key":"07231090","name":"Mülheim an der Mosel","type":"Kreisangehörige_Gemeinde"},"district":{"key":"07231","name":"Bernkastel-Wittlich","type":"Landkreis"},"federalState":{"key":"07","name":"Rheinland-Pfalz"}},{"name":"Moselstr.","postalCode":"54486","locality":"Mülheim an der Mosel","municipality":{"key":"07231090","name":"Mülheim an der Mosel","type":"Kreisangehörige_Gemeinde"},"district":{"key":"07231","name":"Bernkastel-Wittlich","type":"Landkreis"},"federalState":{"key":"07","name":"Rheinland-Pfalz"}},{"name":"Mühlenweg","postalCode":"54486","locality":"Mülheim an der Mosel","municipality":{"key":"07231090","name":"Mülheim an der Mosel","type":"Kreisangehörige_Gemeinde"},"district":{"key":"07231","name":"Bernkastel-Wittlich","type":"Landkreis"},"federalState":{"key":"07","name":"Rheinland-Pfalz"}},{"name":"Oberdorf","postalCode":"54486","locality":"Mülheim an der Mosel","municipality":{"key":"07231090","name":"Mülheim an der Mosel","type":"Kreisangehörige_Gemeinde"},"district":{"key":"07231","name":"Bernkastel-Wittlich","type":"Landkreis"},"federalState":{"key":"07","name":"Rheinland-Pfalz"}},{"name":"Poststr.","postalCode":"54486","locality":"Mülheim an der Mosel","municipality":{"key":"07231090","name":"Mülheim an der Mosel","type":"Kreisangehörige_Gemeinde"},"district":{"key":"07231","name":"Bernkastel-Wittlich","type":"Landkreis"},"federalState":{"key":"07","name":"Rheinland-Pfalz"}},{"name":"Schulweg","postalCode":"54486","locality":"Mülheim an der Mosel","municipality":{"key":"07231090","name":"Mülheim an der Mosel","type":"Kreisangehörige_Gemeinde"},"district":{"key":"07231","name":"Bernkastel-Wittlich","type":"Landkreis"},"federalState":{"key":"07","name":"Rheinland-Pfalz"}},{"name":"Sonnenlayweg","postalCode":"54486","locality":"Mülheim an der Mosel","municipality":{"key":"07231090","name":"Mülheim an der Mosel","type":"Kreisangehörige_Gemeinde"},"district":{"key":"07231","name":"Bernkastel-Wittlich","type":"Landkreis"},"federalState":{"key":"07","name":"Rheinland-Pfalz"}},{"name":"Talweg","postalCode":"54486","locality":"Mülheim an der Mosel","municipality":{"key":"07231090","name":"Mülheim an der Mosel","type":"Kreisangehörige_Gemeinde"},"district":{"key":"07231","name":"Bernkastel-Wittlich","type":"Landkreis"},"federalState":{"key":"07","name":"Rheinland-Pfalz"}},{"name":"Unterm Bann","postalCode":"54486","locality":"Mülheim an der Mosel","municipality":{"key":"07231090","name":"Mülheim an der Mosel","type":"Kreisangehörige_Gemeinde"},"district":{"key":"07231","name":"Bernkastel-Wittlich","type":"Landkreis"},"federalState":{"key":"07","name":"Rheinland-Pfalz"}},{"name":"Veldenzer Str.","postalCode":"54486","locality":"Mülheim an der Mosel","municipality":{"key":"07231090","name":"Mülheim an der Mosel","type":"Kreisangehörige_Gemeinde"},"district":{"key":"07231","name":"Bernkastel-Wittlich","type":"Landkreis"},"federalState":{"key":"07","name":"Rheinland-Pfalz"}},{"name":"Verduner Platz","postalCode":"54486","locality":"Mülheim an der Mosel","municipality":{"key":"07231090","name":"Mülheim an der Mosel","type":"Kreisangehörige_Gemeinde"},"district":{"key":"07231","name":"Bernkastel-Wittlich","type":"Landkreis"},"federalState":{"key":"07","name":"Rheinland-Pfalz"}},{"name":"Zum Johannisberg","postalCode":"54486","locality":"Mülheim an der Mosel","municipality":{"key":"07231090","name":"Mülheim an der Mosel","type":"Kreisangehörige_Gemeinde"},"district":{"key":"07231","name":"Bernkastel-Wittlich","type":"Landkreis"},"federalState":{"key":"07","name":"Rheinland-Pfalz"}},{"name":"Zur Docterey","postalCode":"54486","locality":"Mülheim an der Mosel","municipality":{"key":"07231090","name":"Mülheim an der Mosel","type":"Kreisangehörige_Gemeinde"},"district":{"key":"07231","name":"Bernkastel-Wittlich","type":"Landkreis"},"federalState":{"key":"07","name":"Rheinland-Pfalz"}},{"name":"Zur Doctorey","postalCode":"54486","locality":"Mülheim an der Mosel","municipality":{"key":"07231090","name":"Mülheim an der Mosel","type":"Kreisangehörige_Gemeinde"},"district":{"key":"07231","name":"Bernkastel-Wittlich","type":"Landkreis"},"federalState":{"key":"07","name":"Rheinland-Pfalz"}},]