[{"name":"Ahornweg","postalCode":"63486","locality":"Bruchköbel","municipality":{"key":"06435006","name":"Bruchköbel, Stadt","type":"Stadt"},"district":{"key":"06435","name":"Main-Kinzig-Kreis","type":"Landkreis"},"federalState":{"key":"06","name":"Hessen"}},{"name":"Akazienweg","postalCode":"63486","locality":"Bruchköbel","municipality":{"key":"06435006","name":"Bruchköbel, Stadt","type":"Stadt"},"district":{"key":"06435","name":"Main-Kinzig-Kreis","type":"Landkreis"},"federalState":{"key":"06","name":"Hessen"}},{"name":"Alfred-Delp-Str.","postalCode":"63486","locality":"Bruchköbel","municipality":{"key":"06435006","name":"Bruchköbel, Stadt","type":"Stadt"},"district":{"key":"06435","name":"Main-Kinzig-Kreis","type":"Landkreis"},"federalState":{"key":"06","name":"Hessen"}},{"name":"Allensteiner Str.","postalCode":"63486","locality":"Bruchköbel","municipality":{"key":"06435006","name":"Bruchköbel, Stadt","type":"Stadt"},"district":{"key":"06435","name":"Main-Kinzig-Kreis","type":"Landkreis"},"federalState":{"key":"06","name":"Hessen"}},{"name":"Altstädter Str.","postalCode":"63486","locality":"Bruchköbel","municipality":{"key":"06435006","name":"Bruchköbel, Stadt","type":"Stadt"},"district":{"key":"06435","name":"Main-Kinzig-Kreis","type":"Landkreis"},"federalState":{"key":"06","name":"Hessen"}},{"name":"Am Alten Spielplatz","postalCode":"63486","locality":"Bruchköbel","municipality":{"key":"06435006","name":"Bruchköbel, Stadt","type":"Stadt"},"district":{"key":"06435","name":"Main-Kinzig-Kreis","type":"Landkreis"},"federalState":{"key":"06","name":"Hessen"}},{"name":"Am Atzelsgraben","postalCode":"63486","locality":"Bruchköbel","municipality":{"key":"06435006","name":"Bruchköbel, Stadt","type":"Stadt"},"district":{"key":"06435","name":"Main-Kinzig-Kreis","type":"Landkreis"},"federalState":{"key":"06","name":"Hessen"}},{"name":"Am Flugplatz","postalCode":"63486","locality":"Bruchköbel","municipality":{"key":"06435006","name":"Bruchköbel, Stadt","type":"Stadt"},"district":{"key":"06435","name":"Main-Kinzig-Kreis","type":"Landkreis"},"federalState":{"key":"06","name":"Hessen"}},{"name":"Am Gehrenrain","postalCode":"63486","locality":"Bruchköbel","municipality":{"key":"06435006","name":"Bruchköbel, Stadt","type":"Stadt"},"district":{"key":"06435","name":"Main-Kinzig-Kreis","type":"Landkreis"},"federalState":{"key":"06","name":"Hessen"}},{"name":"Am Hang","postalCode":"63486","locality":"Bruchköbel","municipality":{"key":"06435006","name":"Bruchköbel, Stadt","type":"Stadt"},"district":{"key":"06435","name":"Main-Kinzig-Kreis","type":"Landkreis"},"federalState":{"key":"06","name":"Hessen"}},{"name":"Am Hasenpfad","postalCode":"63486","locality":"Bruchköbel","municipality":{"key":"06435006","name":"Bruchköbel, Stadt","type":"Stadt"},"district":{"key":"06435","name":"Main-Kinzig-Kreis","type":"Landkreis"},"federalState":{"key":"06","name":"Hessen"}},{"name":"Am Heeggraben","postalCode":"63486","locality":"Bruchköbel","municipality":{"key":"06435006","name":"Bruchköbel, Stadt","type":"Stadt"},"district":{"key":"06435","name":"Main-Kinzig-Kreis","type":"Landkreis"},"federalState":{"key":"06","name":"Hessen"}},{"name":"Am Heiligen Haus","postalCode":"63486","locality":"Bruchköbel","municipality":{"key":"06435006","name":"Bruchköbel, Stadt","type":"Stadt"},"district":{"key":"06435","name":"Main-Kinzig-Kreis","type":"Landkreis"},"federalState":{"key":"06","name":"Hessen"}},{"name":"Am Heinichenberg","postalCode":"63486","locality":"Bruchköbel","municipality":{"key":"06435006","name":"Bruchköbel, Stadt","type":"Stadt"},"district":{"key":"06435","name":"Main-Kinzig-Kreis","type":"Landkreis"},"federalState":{"key":"06","name":"Hessen"}},{"name":"Am Krebsbach","postalCode":"63486","locality":"Bruchköbel","municipality":{"key":"06435006","name":"Bruchköbel, Stadt","type":"Stadt"},"district":{"key":"06435","name":"Main-Kinzig-Kreis","type":"Landkreis"},"federalState":{"key":"06","name":"Hessen"}},{"name":"Am Römerbrunnen","postalCode":"63486","locality":"Bruchköbel","municipality":{"key":"06435006","name":"Bruchköbel, Stadt","type":"Stadt"},"district":{"key":"06435","name":"Main-Kinzig-Kreis","type":"Landkreis"},"federalState":{"key":"06","name":"Hessen"}},{"name":"Am Schlittenberg","postalCode":"63486","locality":"Bruchköbel","municipality":{"key":"06435006","name":"Bruchköbel, Stadt","type":"Stadt"},"district":{"key":"06435","name":"Main-Kinzig-Kreis","type":"Landkreis"},"federalState":{"key":"06","name":"Hessen"}},{"name":"Am Sportfeld","postalCode":"63486","locality":"Bruchköbel","municipality":{"key":"06435006","name":"Bruchköbel, Stadt","type":"Stadt"},"district":{"key":"06435","name":"Main-Kinzig-Kreis","type":"Landkreis"},"federalState":{"key":"06","name":"Hessen"}},{"name":"Am Sportplatz","postalCode":"63486","locality":"Bruchköbel","municipality":{"key":"06435006","name":"Bruchköbel, Stadt","type":"Stadt"},"district":{"key":"06435","name":"Main-Kinzig-Kreis","type":"Landkreis"},"federalState":{"key":"06","name":"Hessen"}},{"name":"Am Weihergraben","postalCode":"63486","locality":"Bruchköbel","municipality":{"key":"06435006","name":"Bruchköbel, Stadt","type":"Stadt"},"district":{"key":"06435","name":"Main-Kinzig-Kreis","type":"Landkreis"},"federalState":{"key":"06","name":"Hessen"}},{"name":"An den Freigärten","postalCode":"63486","locality":"Bruchköbel","municipality":{"key":"06435006","name":"Bruchköbel, Stadt","type":"Stadt"},"district":{"key":"06435","name":"Main-Kinzig-Kreis","type":"Landkreis"},"federalState":{"key":"06","name":"Hessen"}},{"name":"An der Kirche","postalCode":"63486","locality":"Bruchköbel","municipality":{"key":"06435006","name":"Bruchköbel, Stadt","type":"Stadt"},"district":{"key":"06435","name":"Main-Kinzig-Kreis","type":"Landkreis"},"federalState":{"key":"06","name":"Hessen"}},{"name":"An der Landwehr","postalCode":"63486","locality":"Bruchköbel","municipality":{"key":"06435006","name":"Bruchköbel, Stadt","type":"Stadt"},"district":{"key":"06435","name":"Main-Kinzig-Kreis","type":"Landkreis"},"federalState":{"key":"06","name":"Hessen"}},{"name":"An der Nachtweide","postalCode":"63486","locality":"Bruchköbel","municipality":{"key":"06435006","name":"Bruchköbel, Stadt","type":"Stadt"},"district":{"key":"06435","name":"Main-Kinzig-Kreis","type":"Landkreis"},"federalState":{"key":"06","name":"Hessen"}},{"name":"Andersenstr.","postalCode":"63486","locality":"Bruchköbel","municipality":{"key":"06435006","name":"Bruchköbel, Stadt","type":"Stadt"},"district":{"key":"06435","name":"Main-Kinzig-Kreis","type":"Landkreis"},"federalState":{"key":"06","name":"Hessen"}},{"name":"Anne-Frank-Str.","postalCode":"63486","locality":"Bruchköbel","municipality":{"key":"06435006","name":"Bruchköbel, Stadt","type":"Stadt"},"district":{"key":"06435","name":"Main-Kinzig-Kreis","type":"Landkreis"},"federalState":{"key":"06","name":"Hessen"}},{"name":"Antoniter Klostergarten","postalCode":"63486","locality":"Bruchköbel","municipality":{"key":"06435006","name":"Bruchköbel, Stadt","type":"Stadt"},"district":{"key":"06435","name":"Main-Kinzig-Kreis","type":"Landkreis"},"federalState":{"key":"06","name":"Hessen"}},{"name":"Antoniterstr.","postalCode":"63486","locality":"Bruchköbel","municipality":{"key":"06435006","name":"Bruchköbel, Stadt","type":"Stadt"},"district":{"key":"06435","name":"Main-Kinzig-Kreis","type":"Landkreis"},"federalState":{"key":"06","name":"Hessen"}},{"name":"Atzemer Str.","postalCode":"63486","locality":"Bruchköbel","municipality":{"key":"06435006","name":"Bruchköbel, Stadt","type":"Stadt"},"district":{"key":"06435","name":"Main-Kinzig-Kreis","type":"Landkreis"},"federalState":{"key":"06","name":"Hessen"}},{"name":"August-Bebel-Str.","postalCode":"63486","locality":"Bruchköbel","municipality":{"key":"06435006","name":"Bruchköbel, Stadt","type":"Stadt"},"district":{"key":"06435","name":"Main-Kinzig-Kreis","type":"Landkreis"},"federalState":{"key":"06","name":"Hessen"}},{"name":"Bächelstr.","postalCode":"63486","locality":"Bruchköbel","municipality":{"key":"06435006","name":"Bruchköbel, Stadt","type":"Stadt"},"district":{"key":"06435","name":"Main-Kinzig-Kreis","type":"Landkreis"},"federalState":{"key":"06","name":"Hessen"}},{"name":"Bachstr.","postalCode":"63486","locality":"Bruchköbel","municipality":{"key":"06435006","name":"Bruchköbel, Stadt","type":"Stadt"},"district":{"key":"06435","name":"Main-Kinzig-Kreis","type":"Landkreis"},"federalState":{"key":"06","name":"Hessen"}},{"name":"Bahnhofsplatz","postalCode":"63486","locality":"Bruchköbel","municipality":{"key":"06435006","name":"Bruchköbel, Stadt","type":"Stadt"},"district":{"key":"06435","name":"Main-Kinzig-Kreis","type":"Landkreis"},"federalState":{"key":"06","name":"Hessen"}},{"name":"Bahnhofstr.","postalCode":"63486","locality":"Bruchköbel","municipality":{"key":"06435006","name":"Bruchköbel, Stadt","type":"Stadt"},"district":{"key":"06435","name":"Main-Kinzig-Kreis","type":"Landkreis"},"federalState":{"key":"06","name":"Hessen"}},{"name":"Beethovenstr.","postalCode":"63486","locality":"Bruchköbel","municipality":{"key":"06435006","name":"Bruchköbel, Stadt","type":"Stadt"},"district":{"key":"06435","name":"Main-Kinzig-Kreis","type":"Landkreis"},"federalState":{"key":"06","name":"Hessen"}},{"name":"Bergstr.","postalCode":"63486","locality":"Bruchköbel","municipality":{"key":"06435006","name":"Bruchköbel, Stadt","type":"Stadt"},"district":{"key":"06435","name":"Main-Kinzig-Kreis","type":"Landkreis"},"federalState":{"key":"06","name":"Hessen"}},{"name":"Bergwerkstr.","postalCode":"63486","locality":"Bruchköbel","municipality":{"key":"06435006","name":"Bruchköbel, Stadt","type":"Stadt"},"district":{"key":"06435","name":"Main-Kinzig-Kreis","type":"Landkreis"},"federalState":{"key":"06","name":"Hessen"}},{"name":"Berliner Str.","postalCode":"63486","locality":"Bruchköbel","municipality":{"key":"06435006","name":"Bruchköbel, Stadt","type":"Stadt"},"district":{"key":"06435","name":"Main-Kinzig-Kreis","type":"Landkreis"},"federalState":{"key":"06","name":"Hessen"}},{"name":"Birkenweg","postalCode":"63486","locality":"Bruchköbel","municipality":{"key":"06435006","name":"Bruchköbel, Stadt","type":"Stadt"},"district":{"key":"06435","name":"Main-Kinzig-Kreis","type":"Landkreis"},"federalState":{"key":"06","name":"Hessen"}},{"name":"Bleichstr.","postalCode":"63486","locality":"Bruchköbel","municipality":{"key":"06435006","name":"Bruchköbel, Stadt","type":"Stadt"},"district":{"key":"06435","name":"Main-Kinzig-Kreis","type":"Landkreis"},"federalState":{"key":"06","name":"Hessen"}},{"name":"Blochbachstr.","postalCode":"63486","locality":"Bruchköbel","municipality":{"key":"06435006","name":"Bruchköbel, Stadt","type":"Stadt"},"district":{"key":"06435","name":"Main-Kinzig-Kreis","type":"Landkreis"},"federalState":{"key":"06","name":"Hessen"}},{"name":"Blochmühlstr.","postalCode":"63486","locality":"Bruchköbel","municipality":{"key":"06435006","name":"Bruchköbel, Stadt","type":"Stadt"},"district":{"key":"06435","name":"Main-Kinzig-Kreis","type":"Landkreis"},"federalState":{"key":"06","name":"Hessen"}},{"name":"Bogenstr.","postalCode":"63486","locality":"Bruchköbel","municipality":{"key":"06435006","name":"Bruchköbel, Stadt","type":"Stadt"},"district":{"key":"06435","name":"Main-Kinzig-Kreis","type":"Landkreis"},"federalState":{"key":"06","name":"Hessen"}},{"name":"Bonhoefferstr.","postalCode":"63486","locality":"Bruchköbel","municipality":{"key":"06435006","name":"Bruchköbel, Stadt","type":"Stadt"},"district":{"key":"06435","name":"Main-Kinzig-Kreis","type":"Landkreis"},"federalState":{"key":"06","name":"Hessen"}},{"name":"Borngasse","postalCode":"63486","locality":"Bruchköbel","municipality":{"key":"06435006","name":"Bruchköbel, Stadt","type":"Stadt"},"district":{"key":"06435","name":"Main-Kinzig-Kreis","type":"Landkreis"},"federalState":{"key":"06","name":"Hessen"}},{"name":"Boskooper Weg","postalCode":"63486","locality":"Bruchköbel","municipality":{"key":"06435006","name":"Bruchköbel, Stadt","type":"Stadt"},"district":{"key":"06435","name":"Main-Kinzig-Kreis","type":"Landkreis"},"federalState":{"key":"06","name":"Hessen"}},{"name":"Breslauer Str.","postalCode":"63486","locality":"Bruchköbel","municipality":{"key":"06435006","name":"Bruchköbel, Stadt","type":"Stadt"},"district":{"key":"06435","name":"Main-Kinzig-Kreis","type":"Landkreis"},"federalState":{"key":"06","name":"Hessen"}},{"name":"Brückenstr.","postalCode":"63486","locality":"Bruchköbel","municipality":{"key":"06435006","name":"Bruchköbel, Stadt","type":"Stadt"},"district":{"key":"06435","name":"Main-Kinzig-Kreis","type":"Landkreis"},"federalState":{"key":"06","name":"Hessen"}},{"name":"Brüder-Grimm-Str.","postalCode":"63486","locality":"Bruchköbel","municipality":{"key":"06435006","name":"Bruchköbel, Stadt","type":"Stadt"},"district":{"key":"06435","name":"Main-Kinzig-Kreis","type":"Landkreis"},"federalState":{"key":"06","name":"Hessen"}},{"name":"Buchbergstr.","postalCode":"63486","locality":"Bruchköbel","municipality":{"key":"06435006","name":"Bruchköbel, Stadt","type":"Stadt"},"district":{"key":"06435","name":"Main-Kinzig-Kreis","type":"Landkreis"},"federalState":{"key":"06","name":"Hessen"}},{"name":"Buchenweg","postalCode":"63486","locality":"Bruchköbel","municipality":{"key":"06435006","name":"Bruchköbel, Stadt","type":"Stadt"},"district":{"key":"06435","name":"Main-Kinzig-Kreis","type":"Landkreis"},"federalState":{"key":"06","name":"Hessen"}},{"name":"Bürgermeister-Fritz-Horst-Platz","postalCode":"63486","locality":"Bruchköbel","municipality":{"key":"06435006","name":"Bruchköbel, Stadt","type":"Stadt"},"district":{"key":"06435","name":"Main-Kinzig-Kreis","type":"Landkreis"},"federalState":{"key":"06","name":"Hessen"}},{"name":"Dammweg","postalCode":"63486","locality":"Bruchköbel","municipality":{"key":"06435006","name":"Bruchköbel, Stadt","type":"Stadt"},"district":{"key":"06435","name":"Main-Kinzig-Kreis","type":"Landkreis"},"federalState":{"key":"06","name":"Hessen"}},{"name":"Danziger Str.","postalCode":"63486","locality":"Bruchköbel","municipality":{"key":"06435006","name":"Bruchköbel, Stadt","type":"Stadt"},"district":{"key":"06435","name":"Main-Kinzig-Kreis","type":"Landkreis"},"federalState":{"key":"06","name":"Hessen"}},{"name":"Diebacher Str.","postalCode":"63486","locality":"Bruchköbel","municipality":{"key":"06435006","name":"Bruchköbel, Stadt","type":"Stadt"},"district":{"key":"06435","name":"Main-Kinzig-Kreis","type":"Landkreis"},"federalState":{"key":"06","name":"Hessen"}},{"name":"Dorfplatz","postalCode":"63486","locality":"Bruchköbel","municipality":{"key":"06435006","name":"Bruchköbel, Stadt","type":"Stadt"},"district":{"key":"06435","name":"Main-Kinzig-Kreis","type":"Landkreis"},"federalState":{"key":"06","name":"Hessen"}},{"name":"Edith-Stein-Str.","postalCode":"63486","locality":"Bruchköbel","municipality":{"key":"06435006","name":"Bruchköbel, Stadt","type":"Stadt"},"district":{"key":"06435","name":"Main-Kinzig-Kreis","type":"Landkreis"},"federalState":{"key":"06","name":"Hessen"}},{"name":"Egerlandstr.","postalCode":"63486","locality":"Bruchköbel","municipality":{"key":"06435006","name":"Bruchköbel, Stadt","type":"Stadt"},"district":{"key":"06435","name":"Main-Kinzig-Kreis","type":"Landkreis"},"federalState":{"key":"06","name":"Hessen"}},{"name":"Eichenweg","postalCode":"63486","locality":"Bruchköbel","municipality":{"key":"06435006","name":"Bruchköbel, Stadt","type":"Stadt"},"district":{"key":"06435","name":"Main-Kinzig-Kreis","type":"Landkreis"},"federalState":{"key":"06","name":"Hessen"}},{"name":"Eifelstr.","postalCode":"63486","locality":"Bruchköbel","municipality":{"key":"06435006","name":"Bruchköbel, Stadt","type":"Stadt"},"district":{"key":"06435","name":"Main-Kinzig-Kreis","type":"Landkreis"},"federalState":{"key":"06","name":"Hessen"}},{"name":"Elbinger Str.","postalCode":"63486","locality":"Bruchköbel","municipality":{"key":"06435006","name":"Bruchköbel, Stadt","type":"Stadt"},"district":{"key":"06435","name":"Main-Kinzig-Kreis","type":"Landkreis"},"federalState":{"key":"06","name":"Hessen"}},{"name":"Elsa-Brändström-Str.","postalCode":"63486","locality":"Bruchköbel","municipality":{"key":"06435006","name":"Bruchköbel, Stadt","type":"Stadt"},"district":{"key":"06435","name":"Main-Kinzig-Kreis","type":"Landkreis"},"federalState":{"key":"06","name":"Hessen"}},{"name":"Emil-von-Behring-Str.","postalCode":"63486","locality":"Bruchköbel","municipality":{"key":"06435006","name":"Bruchköbel, Stadt","type":"Stadt"},"district":{"key":"06435","name":"Main-Kinzig-Kreis","type":"Landkreis"},"federalState":{"key":"06","name":"Hessen"}},{"name":"Erich-Ollenhauer-Str.","postalCode":"63486","locality":"Bruchköbel","municipality":{"key":"06435006","name":"Bruchköbel, Stadt","type":"Stadt"},"district":{"key":"06435","name":"Main-Kinzig-Kreis","type":"Landkreis"},"federalState":{"key":"06","name":"Hessen"}},{"name":"Erlenweg","postalCode":"63486","locality":"Bruchköbel","municipality":{"key":"06435006","name":"Bruchköbel, Stadt","type":"Stadt"},"district":{"key":"06435","name":"Main-Kinzig-Kreis","type":"Landkreis"},"federalState":{"key":"06","name":"Hessen"}},{"name":"Ernst-Reuter-Str.","postalCode":"63486","locality":"Bruchköbel","municipality":{"key":"06435006","name":"Bruchköbel, Stadt","type":"Stadt"},"district":{"key":"06435","name":"Main-Kinzig-Kreis","type":"Landkreis"},"federalState":{"key":"06","name":"Hessen"}},{"name":"Eugen-Kaiser-Str.","postalCode":"63486","locality":"Bruchköbel","municipality":{"key":"06435006","name":"Bruchköbel, Stadt","type":"Stadt"},"district":{"key":"06435","name":"Main-Kinzig-Kreis","type":"Landkreis"},"federalState":{"key":"06","name":"Hessen"}},{"name":"Falltorstr.","postalCode":"63486","locality":"Bruchköbel","municipality":{"key":"06435006","name":"Bruchköbel, Stadt","type":"Stadt"},"district":{"key":"06435","name":"Main-Kinzig-Kreis","type":"Landkreis"},"federalState":{"key":"06","name":"Hessen"}},{"name":"Falterstr.","postalCode":"63486","locality":"Bruchköbel","municipality":{"key":"06435006","name":"Bruchköbel, Stadt","type":"Stadt"},"district":{"key":"06435","name":"Main-Kinzig-Kreis","type":"Landkreis"},"federalState":{"key":"06","name":"Hessen"}},{"name":"Feldbergstr.","postalCode":"63486","locality":"Bruchköbel","municipality":{"key":"06435006","name":"Bruchköbel, Stadt","type":"Stadt"},"district":{"key":"06435","name":"Main-Kinzig-Kreis","type":"Landkreis"},"federalState":{"key":"06","name":"Hessen"}},{"name":"Feldwiesenweg","postalCode":"63486","locality":"Bruchköbel","municipality":{"key":"06435006","name":"Bruchköbel, Stadt","type":"Stadt"},"district":{"key":"06435","name":"Main-Kinzig-Kreis","type":"Landkreis"},"federalState":{"key":"06","name":"Hessen"}},{"name":"Festplatz Bruchköbel","postalCode":"63486","locality":"Bruchköbel","municipality":{"key":"06435006","name":"Bruchköbel, Stadt","type":"Stadt"},"district":{"key":"06435","name":"Main-Kinzig-Kreis","type":"Landkreis"},"federalState":{"key":"06","name":"Hessen"}},{"name":"Fliederstr.","postalCode":"63486","locality":"Bruchköbel","municipality":{"key":"06435006","name":"Bruchköbel, Stadt","type":"Stadt"},"district":{"key":"06435","name":"Main-Kinzig-Kreis","type":"Landkreis"},"federalState":{"key":"06","name":"Hessen"}},{"name":"Fliederweg","postalCode":"63486","locality":"Bruchköbel","municipality":{"key":"06435006","name":"Bruchköbel, Stadt","type":"Stadt"},"district":{"key":"06435","name":"Main-Kinzig-Kreis","type":"Landkreis"},"federalState":{"key":"06","name":"Hessen"}},{"name":"Franz-Liszt-Str.","postalCode":"63486","locality":"Bruchköbel","municipality":{"key":"06435006","name":"Bruchköbel, Stadt","type":"Stadt"},"district":{"key":"06435","name":"Main-Kinzig-Kreis","type":"Landkreis"},"federalState":{"key":"06","name":"Hessen"}},{"name":"Franz-Ludwig-von-Cancrin-Weg","postalCode":"63486","locality":"Bruchköbel","municipality":{"key":"06435006","name":"Bruchköbel, Stadt","type":"Stadt"},"district":{"key":"06435","name":"Main-Kinzig-Kreis","type":"Landkreis"},"federalState":{"key":"06","name":"Hessen"}},{"name":"Freier Platz","postalCode":"63486","locality":"Bruchköbel","municipality":{"key":"06435006","name":"Bruchköbel, Stadt","type":"Stadt"},"district":{"key":"06435","name":"Main-Kinzig-Kreis","type":"Landkreis"},"federalState":{"key":"06","name":"Hessen"}},{"name":"Freizeitanlage \"Dicke Eiche\"","postalCode":"63486","locality":"Bruchköbel","municipality":{"key":"06435006","name":"Bruchköbel, Stadt","type":"Stadt"},"district":{"key":"06435","name":"Main-Kinzig-Kreis","type":"Landkreis"},"federalState":{"key":"06","name":"Hessen"}},{"name":"Friedberger Landstr.","postalCode":"63486","locality":"Bruchköbel","municipality":{"key":"06435006","name":"Bruchköbel, Stadt","type":"Stadt"},"district":{"key":"06435","name":"Main-Kinzig-Kreis","type":"Landkreis"},"federalState":{"key":"06","name":"Hessen"}},{"name":"Friedhofstr.","postalCode":"63486","locality":"Bruchköbel","municipality":{"key":"06435006","name":"Bruchköbel, Stadt","type":"Stadt"},"district":{"key":"06435","name":"Main-Kinzig-Kreis","type":"Landkreis"},"federalState":{"key":"06","name":"Hessen"}},{"name":"Friedhofsweg","postalCode":"63486","locality":"Bruchköbel","municipality":{"key":"06435006","name":"Bruchköbel, Stadt","type":"Stadt"},"district":{"key":"06435","name":"Main-Kinzig-Kreis","type":"Landkreis"},"federalState":{"key":"06","name":"Hessen"}},{"name":"Friedlandstr.","postalCode":"63486","locality":"Bruchköbel","municipality":{"key":"06435006","name":"Bruchköbel, Stadt","type":"Stadt"},"district":{"key":"06435","name":"Main-Kinzig-Kreis","type":"Landkreis"},"federalState":{"key":"06","name":"Hessen"}},{"name":"Friedrich-Ebert-Str.","postalCode":"63486","locality":"Bruchköbel","municipality":{"key":"06435006","name":"Bruchköbel, Stadt","type":"Stadt"},"district":{"key":"06435","name":"Main-Kinzig-Kreis","type":"Landkreis"},"federalState":{"key":"06","name":"Hessen"}},{"name":"Fritz-Erler-Str.","postalCode":"63486","locality":"Bruchköbel","municipality":{"key":"06435006","name":"Bruchköbel, Stadt","type":"Stadt"},"district":{"key":"06435","name":"Main-Kinzig-Kreis","type":"Landkreis"},"federalState":{"key":"06","name":"Hessen"}},{"name":"Fritz-Schubert-Ring","postalCode":"63486","locality":"Bruchköbel","municipality":{"key":"06435006","name":"Bruchköbel, Stadt","type":"Stadt"},"district":{"key":"06435","name":"Main-Kinzig-Kreis","type":"Landkreis"},"federalState":{"key":"06","name":"Hessen"}},{"name":"Gartenstr.","postalCode":"63486","locality":"Bruchköbel","municipality":{"key":"06435006","name":"Bruchköbel, Stadt","type":"Stadt"},"district":{"key":"06435","name":"Main-Kinzig-Kreis","type":"Landkreis"},"federalState":{"key":"06","name":"Hessen"}},{"name":"Georg-Kerschensteiner-Str.","postalCode":"63486","locality":"Bruchköbel","municipality":{"key":"06435006","name":"Bruchköbel, Stadt","type":"Stadt"},"district":{"key":"06435","name":"Main-Kinzig-Kreis","type":"Landkreis"},"federalState":{"key":"06","name":"Hessen"}},{"name":"Gerhart-Hauptmann-Str.","postalCode":"63486","locality":"Bruchköbel","municipality":{"key":"06435006","name":"Bruchköbel, Stadt","type":"Stadt"},"district":{"key":"06435","name":"Main-Kinzig-Kreis","type":"Landkreis"},"federalState":{"key":"06","name":"Hessen"}},{"name":"Gernot-Kopp-Weg","postalCode":"63486","locality":"Bruchköbel","municipality":{"key":"06435006","name":"Bruchköbel, Stadt","type":"Stadt"},"district":{"key":"06435","name":"Main-Kinzig-Kreis","type":"Landkreis"},"federalState":{"key":"06","name":"Hessen"}},{"name":"Geschwister-Scholl-Str.","postalCode":"63486","locality":"Bruchköbel","municipality":{"key":"06435006","name":"Bruchköbel, Stadt","type":"Stadt"},"district":{"key":"06435","name":"Main-Kinzig-Kreis","type":"Landkreis"},"federalState":{"key":"06","name":"Hessen"}},{"name":"Gleiwitzer Str.","postalCode":"63486","locality":"Bruchköbel","municipality":{"key":"06435006","name":"Bruchköbel, Stadt","type":"Stadt"},"district":{"key":"06435","name":"Main-Kinzig-Kreis","type":"Landkreis"},"federalState":{"key":"06","name":"Hessen"}},{"name":"Glockenstr.","postalCode":"63486","locality":"Bruchköbel","municipality":{"key":"06435006","name":"Bruchköbel, Stadt","type":"Stadt"},"district":{"key":"06435","name":"Main-Kinzig-Kreis","type":"Landkreis"},"federalState":{"key":"06","name":"Hessen"}},{"name":"Goethestr.","postalCode":"63486","locality":"Bruchköbel","municipality":{"key":"06435006","name":"Bruchköbel, Stadt","type":"Stadt"},"district":{"key":"06435","name":"Main-Kinzig-Kreis","type":"Landkreis"},"federalState":{"key":"06","name":"Hessen"}},{"name":"Görlitzer Str.","postalCode":"63486","locality":"Bruchköbel","municipality":{"key":"06435006","name":"Bruchköbel, Stadt","type":"Stadt"},"district":{"key":"06435","name":"Main-Kinzig-Kreis","type":"Landkreis"},"federalState":{"key":"06","name":"Hessen"}},{"name":"Graf-Stauffenberg-Str.","postalCode":"63486","locality":"Bruchköbel","municipality":{"key":"06435006","name":"Bruchköbel, Stadt","type":"Stadt"},"district":{"key":"06435","name":"Main-Kinzig-Kreis","type":"Landkreis"},"federalState":{"key":"06","name":"Hessen"}},{"name":"Gumbinnener Str.","postalCode":"63486","locality":"Bruchköbel","municipality":{"key":"06435006","name":"Bruchköbel, Stadt","type":"Stadt"},"district":{"key":"06435","name":"Main-Kinzig-Kreis","type":"Landkreis"},"federalState":{"key":"06","name":"Hessen"}},{"name":"Haagstr.","postalCode":"63486","locality":"Bruchköbel","municipality":{"key":"06435006","name":"Bruchköbel, Stadt","type":"Stadt"},"district":{"key":"06435","name":"Main-Kinzig-Kreis","type":"Landkreis"},"federalState":{"key":"06","name":"Hessen"}},{"name":"Hainstr.","postalCode":"63486","locality":"Bruchköbel","municipality":{"key":"06435006","name":"Bruchköbel, Stadt","type":"Stadt"},"district":{"key":"06435","name":"Main-Kinzig-Kreis","type":"Landkreis"},"federalState":{"key":"06","name":"Hessen"}},{"name":"Hammersbacher Str.","postalCode":"63486","locality":"Bruchköbel","municipality":{"key":"06435006","name":"Bruchköbel, Stadt","type":"Stadt"},"district":{"key":"06435","name":"Main-Kinzig-Kreis","type":"Landkreis"},"federalState":{"key":"06","name":"Hessen"}},{"name":"Hanauer Str.","postalCode":"63486","locality":"Bruchköbel","municipality":{"key":"06435006","name":"Bruchköbel, Stadt","type":"Stadt"},"district":{"key":"06435","name":"Main-Kinzig-Kreis","type":"Landkreis"},"federalState":{"key":"06","name":"Hessen"}},{"name":"Hauptstr.","postalCode":"63486","locality":"Bruchköbel","municipality":{"key":"06435006","name":"Bruchköbel, Stadt","type":"Stadt"},"district":{"key":"06435","name":"Main-Kinzig-Kreis","type":"Landkreis"},"federalState":{"key":"06","name":"Hessen"}},{"name":"Haydnstr.","postalCode":"63486","locality":"Bruchköbel","municipality":{"key":"06435006","name":"Bruchköbel, Stadt","type":"Stadt"},"district":{"key":"06435","name":"Main-Kinzig-Kreis","type":"Landkreis"},"federalState":{"key":"06","name":"Hessen"}},{"name":"Heinrich-Böll-Str.","postalCode":"63486","locality":"Bruchköbel","municipality":{"key":"06435006","name":"Bruchköbel, Stadt","type":"Stadt"},"district":{"key":"06435","name":"Main-Kinzig-Kreis","type":"Landkreis"},"federalState":{"key":"06","name":"Hessen"}},{"name":"Heinrich-Heine-Str.","postalCode":"63486","locality":"Bruchköbel","municipality":{"key":"06435006","name":"Bruchköbel, Stadt","type":"Stadt"},"district":{"key":"06435","name":"Main-Kinzig-Kreis","type":"Landkreis"},"federalState":{"key":"06","name":"Hessen"}},{"name":"Heinrich-Hoffmann-Str.","postalCode":"63486","locality":"Bruchköbel","municipality":{"key":"06435006","name":"Bruchköbel, Stadt","type":"Stadt"},"district":{"key":"06435","name":"Main-Kinzig-Kreis","type":"Landkreis"},"federalState":{"key":"06","name":"Hessen"}},{"name":"Heinrich-von-Brentano-Str.","postalCode":"63486","locality":"Bruchköbel","municipality":{"key":"06435006","name":"Bruchköbel, Stadt","type":"Stadt"},"district":{"key":"06435","name":"Main-Kinzig-Kreis","type":"Landkreis"},"federalState":{"key":"06","name":"Hessen"}},{"name":"Hepplergasse","postalCode":"63486","locality":"Bruchköbel","municipality":{"key":"06435006","name":"Bruchköbel, Stadt","type":"Stadt"},"district":{"key":"06435","name":"Main-Kinzig-Kreis","type":"Landkreis"},"federalState":{"key":"06","name":"Hessen"}},{"name":"Herderstr.","postalCode":"63486","locality":"Bruchköbel","municipality":{"key":"06435006","name":"Bruchköbel, Stadt","type":"Stadt"},"district":{"key":"06435","name":"Main-Kinzig-Kreis","type":"Landkreis"},"federalState":{"key":"06","name":"Hessen"}},{"name":"Hintergasse","postalCode":"63486","locality":"Bruchköbel","municipality":{"key":"06435006","name":"Bruchköbel, Stadt","type":"Stadt"},"district":{"key":"06435","name":"Main-Kinzig-Kreis","type":"Landkreis"},"federalState":{"key":"06","name":"Hessen"}},{"name":"Hoffahrt","postalCode":"63486","locality":"Bruchköbel","municipality":{"key":"06435006","name":"Bruchköbel, Stadt","type":"Stadt"},"district":{"key":"06435","name":"Main-Kinzig-Kreis","type":"Landkreis"},"federalState":{"key":"06","name":"Hessen"}},{"name":"Hohe Str.","postalCode":"63486","locality":"Bruchköbel","municipality":{"key":"06435006","name":"Bruchköbel, Stadt","type":"Stadt"},"district":{"key":"06435","name":"Main-Kinzig-Kreis","type":"Landkreis"},"federalState":{"key":"06","name":"Hessen"}},{"name":"Holunderweg","postalCode":"63486","locality":"Bruchköbel","municipality":{"key":"06435006","name":"Bruchköbel, Stadt","type":"Stadt"},"district":{"key":"06435","name":"Main-Kinzig-Kreis","type":"Landkreis"},"federalState":{"key":"06","name":"Hessen"}},{"name":"Im Breul","postalCode":"63486","locality":"Bruchköbel","municipality":{"key":"06435006","name":"Bruchköbel, Stadt","type":"Stadt"},"district":{"key":"06435","name":"Main-Kinzig-Kreis","type":"Landkreis"},"federalState":{"key":"06","name":"Hessen"}},{"name":"Im Kleinen Feld","postalCode":"63486","locality":"Bruchköbel","municipality":{"key":"06435006","name":"Bruchköbel, Stadt","type":"Stadt"},"district":{"key":"06435","name":"Main-Kinzig-Kreis","type":"Landkreis"},"federalState":{"key":"06","name":"Hessen"}},{"name":"Im Niederried","postalCode":"63486","locality":"Bruchköbel","municipality":{"key":"06435006","name":"Bruchköbel, Stadt","type":"Stadt"},"district":{"key":"06435","name":"Main-Kinzig-Kreis","type":"Landkreis"},"federalState":{"key":"06","name":"Hessen"}},{"name":"Im Rosenring","postalCode":"63486","locality":"Bruchköbel","municipality":{"key":"06435006","name":"Bruchköbel, Stadt","type":"Stadt"},"district":{"key":"06435","name":"Main-Kinzig-Kreis","type":"Landkreis"},"federalState":{"key":"06","name":"Hessen"}},{"name":"Im Schlitzboden","postalCode":"63486","locality":"Bruchköbel","municipality":{"key":"06435006","name":"Bruchköbel, Stadt","type":"Stadt"},"district":{"key":"06435","name":"Main-Kinzig-Kreis","type":"Landkreis"},"federalState":{"key":"06","name":"Hessen"}},{"name":"Im Weinberg","postalCode":"63486","locality":"Bruchköbel","municipality":{"key":"06435006","name":"Bruchköbel, Stadt","type":"Stadt"},"district":{"key":"06435","name":"Main-Kinzig-Kreis","type":"Landkreis"},"federalState":{"key":"06","name":"Hessen"}},{"name":"In den Bindwiesen","postalCode":"63486","locality":"Bruchköbel","municipality":{"key":"06435006","name":"Bruchköbel, Stadt","type":"Stadt"},"district":{"key":"06435","name":"Main-Kinzig-Kreis","type":"Landkreis"},"federalState":{"key":"06","name":"Hessen"}},{"name":"In den Niederwiesen","postalCode":"63486","locality":"Bruchköbel","municipality":{"key":"06435006","name":"Bruchköbel, Stadt","type":"Stadt"},"district":{"key":"06435","name":"Main-Kinzig-Kreis","type":"Landkreis"},"federalState":{"key":"06","name":"Hessen"}},{"name":"In der Aue","postalCode":"63486","locality":"Bruchköbel","municipality":{"key":"06435006","name":"Bruchköbel, Stadt","type":"Stadt"},"district":{"key":"06435","name":"Main-Kinzig-Kreis","type":"Landkreis"},"federalState":{"key":"06","name":"Hessen"}},{"name":"Innerer Ring","postalCode":"63486","locality":"Bruchköbel","municipality":{"key":"06435006","name":"Bruchköbel, Stadt","type":"Stadt"},"district":{"key":"06435","name":"Main-Kinzig-Kreis","type":"Landkreis"},"federalState":{"key":"06","name":"Hessen"}},{"name":"Insterburger Str.","postalCode":"63486","locality":"Bruchköbel","municipality":{"key":"06435006","name":"Bruchköbel, Stadt","type":"Stadt"},"district":{"key":"06435","name":"Main-Kinzig-Kreis","type":"Landkreis"},"federalState":{"key":"06","name":"Hessen"}},{"name":"Issigheimer Str.","postalCode":"63486","locality":"Bruchköbel","municipality":{"key":"06435006","name":"Bruchköbel, Stadt","type":"Stadt"},"district":{"key":"06435","name":"Main-Kinzig-Kreis","type":"Landkreis"},"federalState":{"key":"06","name":"Hessen"}},{"name":"Jahnstr.","postalCode":"63486","locality":"Bruchköbel","municipality":{"key":"06435006","name":"Bruchköbel, Stadt","type":"Stadt"},"district":{"key":"06435","name":"Main-Kinzig-Kreis","type":"Landkreis"},"federalState":{"key":"06","name":"Hessen"}},{"name":"Justus-von-Liebig-Str.","postalCode":"63486","locality":"Bruchköbel","municipality":{"key":"06435006","name":"Bruchköbel, Stadt","type":"Stadt"},"district":{"key":"06435","name":"Main-Kinzig-Kreis","type":"Landkreis"},"federalState":{"key":"06","name":"Hessen"}},{"name":"Karl-Eidmann-Str.","postalCode":"63486","locality":"Bruchköbel","municipality":{"key":"06435006","name":"Bruchköbel, Stadt","type":"Stadt"},"district":{"key":"06435","name":"Main-Kinzig-Kreis","type":"Landkreis"},"federalState":{"key":"06","name":"Hessen"}},{"name":"Karlsbader Platz","postalCode":"63486","locality":"Bruchköbel","municipality":{"key":"06435006","name":"Bruchköbel, Stadt","type":"Stadt"},"district":{"key":"06435","name":"Main-Kinzig-Kreis","type":"Landkreis"},"federalState":{"key":"06","name":"Hessen"}},{"name":"Kastanienweg","postalCode":"63486","locality":"Bruchköbel","municipality":{"key":"06435006","name":"Bruchköbel, Stadt","type":"Stadt"},"district":{"key":"06435","name":"Main-Kinzig-Kreis","type":"Landkreis"},"federalState":{"key":"06","name":"Hessen"}},{"name":"Kastellstr.","postalCode":"63486","locality":"Bruchköbel","municipality":{"key":"06435006","name":"Bruchköbel, Stadt","type":"Stadt"},"district":{"key":"06435","name":"Main-Kinzig-Kreis","type":"Landkreis"},"federalState":{"key":"06","name":"Hessen"}},{"name":"Käthe-Kollwitz-Ring","postalCode":"63486","locality":"Bruchköbel","municipality":{"key":"06435006","name":"Bruchköbel, Stadt","type":"Stadt"},"district":{"key":"06435","name":"Main-Kinzig-Kreis","type":"Landkreis"},"federalState":{"key":"06","name":"Hessen"}},{"name":"Kellereigasse","postalCode":"63486","locality":"Bruchköbel","municipality":{"key":"06435006","name":"Bruchköbel, Stadt","type":"Stadt"},"district":{"key":"06435","name":"Main-Kinzig-Kreis","type":"Landkreis"},"federalState":{"key":"06","name":"Hessen"}},{"name":"Keltenstr.","postalCode":"63486","locality":"Bruchköbel","municipality":{"key":"06435006","name":"Bruchköbel, Stadt","type":"Stadt"},"district":{"key":"06435","name":"Main-Kinzig-Kreis","type":"Landkreis"},"federalState":{"key":"06","name":"Hessen"}},{"name":"Kettelerstr.","postalCode":"63486","locality":"Bruchköbel","municipality":{"key":"06435006","name":"Bruchköbel, Stadt","type":"Stadt"},"district":{"key":"06435","name":"Main-Kinzig-Kreis","type":"Landkreis"},"federalState":{"key":"06","name":"Hessen"}},{"name":"Kiefernweg","postalCode":"63486","locality":"Bruchköbel","municipality":{"key":"06435006","name":"Bruchköbel, Stadt","type":"Stadt"},"district":{"key":"06435","name":"Main-Kinzig-Kreis","type":"Landkreis"},"federalState":{"key":"06","name":"Hessen"}},{"name":"Kilianstädter Str.","postalCode":"63486","locality":"Bruchköbel","municipality":{"key":"06435006","name":"Bruchköbel, Stadt","type":"Stadt"},"district":{"key":"06435","name":"Main-Kinzig-Kreis","type":"Landkreis"},"federalState":{"key":"06","name":"Hessen"}},{"name":"Kinzigheimer Weg","postalCode":"63486","locality":"Bruchköbel","municipality":{"key":"06435006","name":"Bruchköbel, Stadt","type":"Stadt"},"district":{"key":"06435","name":"Main-Kinzig-Kreis","type":"Landkreis"},"federalState":{"key":"06","name":"Hessen"}},{"name":"Kirchstr.","postalCode":"63486","locality":"Bruchköbel","municipality":{"key":"06435006","name":"Bruchköbel, Stadt","type":"Stadt"},"district":{"key":"06435","name":"Main-Kinzig-Kreis","type":"Landkreis"},"federalState":{"key":"06","name":"Hessen"}},{"name":"Kirleweg","postalCode":"63486","locality":"Bruchköbel","municipality":{"key":"06435006","name":"Bruchköbel, Stadt","type":"Stadt"},"district":{"key":"06435","name":"Main-Kinzig-Kreis","type":"Landkreis"},"federalState":{"key":"06","name":"Hessen"}},{"name":"Kleine Gasse","postalCode":"63486","locality":"Bruchköbel","municipality":{"key":"06435006","name":"Bruchköbel, Stadt","type":"Stadt"},"district":{"key":"06435","name":"Main-Kinzig-Kreis","type":"Landkreis"},"federalState":{"key":"06","name":"Hessen"}},{"name":"Klosterstr.","postalCode":"63486","locality":"Bruchköbel","municipality":{"key":"06435006","name":"Bruchköbel, Stadt","type":"Stadt"},"district":{"key":"06435","name":"Main-Kinzig-Kreis","type":"Landkreis"},"federalState":{"key":"06","name":"Hessen"}},{"name":"Köhlergasse","postalCode":"63486","locality":"Bruchköbel","municipality":{"key":"06435006","name":"Bruchköbel, Stadt","type":"Stadt"},"district":{"key":"06435","name":"Main-Kinzig-Kreis","type":"Landkreis"},"federalState":{"key":"06","name":"Hessen"}},{"name":"Kolpingstr.","postalCode":"63486","locality":"Bruchköbel","municipality":{"key":"06435006","name":"Bruchköbel, Stadt","type":"Stadt"},"district":{"key":"06435","name":"Main-Kinzig-Kreis","type":"Landkreis"},"federalState":{"key":"06","name":"Hessen"}},{"name":"Königsberger Str.","postalCode":"63486","locality":"Bruchköbel","municipality":{"key":"06435006","name":"Bruchköbel, Stadt","type":"Stadt"},"district":{"key":"06435","name":"Main-Kinzig-Kreis","type":"Landkreis"},"federalState":{"key":"06","name":"Hessen"}},{"name":"Konrad-Adenauer-Str.","postalCode":"63486","locality":"Bruchköbel","municipality":{"key":"06435006","name":"Bruchköbel, Stadt","type":"Stadt"},"district":{"key":"06435","name":"Main-Kinzig-Kreis","type":"Landkreis"},"federalState":{"key":"06","name":"Hessen"}},{"name":"Krebsbachpark","postalCode":"63486","locality":"Bruchköbel","municipality":{"key":"06435006","name":"Bruchköbel, Stadt","type":"Stadt"},"district":{"key":"06435","name":"Main-Kinzig-Kreis","type":"Landkreis"},"federalState":{"key":"06","name":"Hessen"}},{"name":"Kreuzweidstr.","postalCode":"63486","locality":"Bruchköbel","municipality":{"key":"06435006","name":"Bruchköbel, Stadt","type":"Stadt"},"district":{"key":"06435","name":"Main-Kinzig-Kreis","type":"Landkreis"},"federalState":{"key":"06","name":"Hessen"}},{"name":"Kurt-Schumacher-Ring","postalCode":"63486","locality":"Bruchköbel","municipality":{"key":"06435006","name":"Bruchköbel, Stadt","type":"Stadt"},"district":{"key":"06435","name":"Main-Kinzig-Kreis","type":"Landkreis"},"federalState":{"key":"06","name":"Hessen"}},{"name":"Langstr.","postalCode":"63486","locality":"Bruchköbel","municipality":{"key":"06435006","name":"Bruchköbel, Stadt","type":"Stadt"},"district":{"key":"06435","name":"Main-Kinzig-Kreis","type":"Landkreis"},"federalState":{"key":"06","name":"Hessen"}},{"name":"Leopold-Wittekindt-Str.","postalCode":"63486","locality":"Bruchköbel","municipality":{"key":"06435006","name":"Bruchköbel, Stadt","type":"Stadt"},"district":{"key":"06435","name":"Main-Kinzig-Kreis","type":"Landkreis"},"federalState":{"key":"06","name":"Hessen"}},{"name":"Lessingstr.","postalCode":"63486","locality":"Bruchköbel","municipality":{"key":"06435006","name":"Bruchköbel, Stadt","type":"Stadt"},"district":{"key":"06435","name":"Main-Kinzig-Kreis","type":"Landkreis"},"federalState":{"key":"06","name":"Hessen"}},{"name":"Lilienweg","postalCode":"63486","locality":"Bruchköbel","municipality":{"key":"06435006","name":"Bruchköbel, Stadt","type":"Stadt"},"district":{"key":"06435","name":"Main-Kinzig-Kreis","type":"Landkreis"},"federalState":{"key":"06","name":"Hessen"}},{"name":"Lindenallee","postalCode":"63486","locality":"Bruchköbel","municipality":{"key":"06435006","name":"Bruchköbel, Stadt","type":"Stadt"},"district":{"key":"06435","name":"Main-Kinzig-Kreis","type":"Landkreis"},"federalState":{"key":"06","name":"Hessen"}},{"name":"Lönsstr.","postalCode":"63486","locality":"Bruchköbel","municipality":{"key":"06435006","name":"Bruchköbel, Stadt","type":"Stadt"},"district":{"key":"06435","name":"Main-Kinzig-Kreis","type":"Landkreis"},"federalState":{"key":"06","name":"Hessen"}},{"name":"Ludwig-Bechstein-Str.","postalCode":"63486","locality":"Bruchköbel","municipality":{"key":"06435006","name":"Bruchköbel, Stadt","type":"Stadt"},"district":{"key":"06435","name":"Main-Kinzig-Kreis","type":"Landkreis"},"federalState":{"key":"06","name":"Hessen"}},{"name":"Ludwig-Erhard-Str.","postalCode":"63486","locality":"Bruchköbel","municipality":{"key":"06435006","name":"Bruchköbel, Stadt","type":"Stadt"},"district":{"key":"06435","name":"Main-Kinzig-Kreis","type":"Landkreis"},"federalState":{"key":"06","name":"Hessen"}},{"name":"Maidwiesenstr.","postalCode":"63486","locality":"Bruchköbel","municipality":{"key":"06435006","name":"Bruchköbel, Stadt","type":"Stadt"},"district":{"key":"06435","name":"Main-Kinzig-Kreis","type":"Landkreis"},"federalState":{"key":"06","name":"Hessen"}},{"name":"Marienburger Str.","postalCode":"63486","locality":"Bruchköbel","municipality":{"key":"06435006","name":"Bruchköbel, Stadt","type":"Stadt"},"district":{"key":"06435","name":"Main-Kinzig-Kreis","type":"Landkreis"},"federalState":{"key":"06","name":"Hessen"}},{"name":"Martin-Luther-Str.","postalCode":"63486","locality":"Bruchköbel","municipality":{"key":"06435006","name":"Bruchköbel, Stadt","type":"Stadt"},"district":{"key":"06435","name":"Main-Kinzig-Kreis","type":"Landkreis"},"federalState":{"key":"06","name":"Hessen"}},{"name":"Max-Planck-Str.","postalCode":"63486","locality":"Bruchköbel","municipality":{"key":"06435006","name":"Bruchköbel, Stadt","type":"Stadt"},"district":{"key":"06435","name":"Main-Kinzig-Kreis","type":"Landkreis"},"federalState":{"key":"06","name":"Hessen"}},{"name":"Memelstr.","postalCode":"63486","locality":"Bruchköbel","municipality":{"key":"06435006","name":"Bruchköbel, Stadt","type":"Stadt"},"district":{"key":"06435","name":"Main-Kinzig-Kreis","type":"Landkreis"},"federalState":{"key":"06","name":"Hessen"}},{"name":"Mittelbuchener Str.","postalCode":"63486","locality":"Bruchköbel","municipality":{"key":"06435006","name":"Bruchköbel, Stadt","type":"Stadt"},"district":{"key":"06435","name":"Main-Kinzig-Kreis","type":"Landkreis"},"federalState":{"key":"06","name":"Hessen"}},{"name":"Mittelstr.","postalCode":"63486","locality":"Bruchköbel","municipality":{"key":"06435006","name":"Bruchköbel, Stadt","type":"Stadt"},"district":{"key":"06435","name":"Main-Kinzig-Kreis","type":"Landkreis"},"federalState":{"key":"06","name":"Hessen"}},{"name":"Mozartstr.","postalCode":"63486","locality":"Bruchköbel","municipality":{"key":"06435006","name":"Bruchköbel, Stadt","type":"Stadt"},"district":{"key":"06435","name":"Main-Kinzig-Kreis","type":"Landkreis"},"federalState":{"key":"06","name":"Hessen"}},{"name":"Mühlbachstr.","postalCode":"63486","locality":"Bruchköbel","municipality":{"key":"06435006","name":"Bruchköbel, Stadt","type":"Stadt"},"district":{"key":"06435","name":"Main-Kinzig-Kreis","type":"Landkreis"},"federalState":{"key":"06","name":"Hessen"}},{"name":"Nelkenweg","postalCode":"63486","locality":"Bruchköbel","municipality":{"key":"06435006","name":"Bruchköbel, Stadt","type":"Stadt"},"district":{"key":"06435","name":"Main-Kinzig-Kreis","type":"Landkreis"},"federalState":{"key":"06","name":"Hessen"}},{"name":"Oberdorfstr.","postalCode":"63486","locality":"Bruchköbel","municipality":{"key":"06435006","name":"Bruchköbel, Stadt","type":"Stadt"},"district":{"key":"06435","name":"Main-Kinzig-Kreis","type":"Landkreis"},"federalState":{"key":"06","name":"Hessen"}},{"name":"Ober-Grafendorfer Weg","postalCode":"63486","locality":"Bruchköbel","municipality":{"key":"06435006","name":"Bruchköbel, Stadt","type":"Stadt"},"district":{"key":"06435","name":"Main-Kinzig-Kreis","type":"Landkreis"},"federalState":{"key":"06","name":"Hessen"}},{"name":"Obermarkersdorfer Str.","postalCode":"63486","locality":"Bruchköbel","municipality":{"key":"06435006","name":"Bruchköbel, Stadt","type":"Stadt"},"district":{"key":"06435","name":"Main-Kinzig-Kreis","type":"Landkreis"},"federalState":{"key":"06","name":"Hessen"}},{"name":"Odenwaldstr.","postalCode":"63486","locality":"Bruchköbel","municipality":{"key":"06435006","name":"Bruchköbel, Stadt","type":"Stadt"},"district":{"key":"06435","name":"Main-Kinzig-Kreis","type":"Landkreis"},"federalState":{"key":"06","name":"Hessen"}},{"name":"Ortsstr.","postalCode":"63486","locality":"Bruchköbel","municipality":{"key":"06435006","name":"Bruchköbel, Stadt","type":"Stadt"},"district":{"key":"06435","name":"Main-Kinzig-Kreis","type":"Landkreis"},"federalState":{"key":"06","name":"Hessen"}},{"name":"Paul-Gerhardt-Str.","postalCode":"63486","locality":"Bruchköbel","municipality":{"key":"06435006","name":"Bruchköbel, Stadt","type":"Stadt"},"district":{"key":"06435","name":"Main-Kinzig-Kreis","type":"Landkreis"},"federalState":{"key":"06","name":"Hessen"}},{"name":"Pellerweg","postalCode":"63486","locality":"Bruchköbel","municipality":{"key":"06435006","name":"Bruchköbel, Stadt","type":"Stadt"},"district":{"key":"06435","name":"Main-Kinzig-Kreis","type":"Landkreis"},"federalState":{"key":"06","name":"Hessen"}},{"name":"Pestalozzistr.","postalCode":"63486","locality":"Bruchköbel","municipality":{"key":"06435006","name":"Bruchköbel, Stadt","type":"Stadt"},"district":{"key":"06435","name":"Main-Kinzig-Kreis","type":"Landkreis"},"federalState":{"key":"06","name":"Hessen"}},{"name":"Pfingstweidstr.","postalCode":"63486","locality":"Bruchköbel","municipality":{"key":"06435006","name":"Bruchköbel, Stadt","type":"Stadt"},"district":{"key":"06435","name":"Main-Kinzig-Kreis","type":"Landkreis"},"federalState":{"key":"06","name":"Hessen"}},{"name":"Philipp-Reis-Str.","postalCode":"63486","locality":"Bruchköbel","municipality":{"key":"06435006","name":"Bruchköbel, Stadt","type":"Stadt"},"district":{"key":"06435","name":"Main-Kinzig-Kreis","type":"Landkreis"},"federalState":{"key":"06","name":"Hessen"}},{"name":"Querstr.","postalCode":"63486","locality":"Bruchköbel","municipality":{"key":"06435006","name":"Bruchköbel, Stadt","type":"Stadt"},"district":{"key":"06435","name":"Main-Kinzig-Kreis","type":"Landkreis"},"federalState":{"key":"06","name":"Hessen"}},{"name":"Raiffeisenstr.","postalCode":"63486","locality":"Bruchköbel","municipality":{"key":"06435006","name":"Bruchköbel, Stadt","type":"Stadt"},"district":{"key":"06435","name":"Main-Kinzig-Kreis","type":"Landkreis"},"federalState":{"key":"06","name":"Hessen"}},{"name":"Rhönstr.","postalCode":"63486","locality":"Bruchköbel","municipality":{"key":"06435006","name":"Bruchköbel, Stadt","type":"Stadt"},"district":{"key":"06435","name":"Main-Kinzig-Kreis","type":"Landkreis"},"federalState":{"key":"06","name":"Hessen"}},{"name":"Richard-Wagner-Str.","postalCode":"63486","locality":"Bruchköbel","municipality":{"key":"06435006","name":"Bruchköbel, Stadt","type":"Stadt"},"district":{"key":"06435","name":"Main-Kinzig-Kreis","type":"Landkreis"},"federalState":{"key":"06","name":"Hessen"}},{"name":"Riedstr.","postalCode":"63486","locality":"Bruchköbel","municipality":{"key":"06435006","name":"Bruchköbel, Stadt","type":"Stadt"},"district":{"key":"06435","name":"Main-Kinzig-Kreis","type":"Landkreis"},"federalState":{"key":"06","name":"Hessen"}},{"name":"Ringstr.","postalCode":"63486","locality":"Bruchköbel","municipality":{"key":"06435006","name":"Bruchköbel, Stadt","type":"Stadt"},"district":{"key":"06435","name":"Main-Kinzig-Kreis","type":"Landkreis"},"federalState":{"key":"06","name":"Hessen"}},{"name":"Robert-Koch-Str.","postalCode":"63486","locality":"Bruchköbel","municipality":{"key":"06435006","name":"Bruchköbel, Stadt","type":"Stadt"},"district":{"key":"06435","name":"Main-Kinzig-Kreis","type":"Landkreis"},"federalState":{"key":"06","name":"Hessen"}},{"name":"Robert-Schumann-Str.","postalCode":"63486","locality":"Bruchköbel","municipality":{"key":"06435006","name":"Bruchköbel, Stadt","type":"Stadt"},"district":{"key":"06435","name":"Main-Kinzig-Kreis","type":"Landkreis"},"federalState":{"key":"06","name":"Hessen"}},{"name":"Römerstr.","postalCode":"63486","locality":"Bruchköbel","municipality":{"key":"06435006","name":"Bruchköbel, Stadt","type":"Stadt"},"district":{"key":"06435","name":"Main-Kinzig-Kreis","type":"Landkreis"},"federalState":{"key":"06","name":"Hessen"}},{"name":"Röntgenstr.","postalCode":"63486","locality":"Bruchköbel","municipality":{"key":"06435006","name":"Bruchköbel, Stadt","type":"Stadt"},"district":{"key":"06435","name":"Main-Kinzig-Kreis","type":"Landkreis"},"federalState":{"key":"06","name":"Hessen"}},{"name":"Rosenweg","postalCode":"63486","locality":"Bruchköbel","municipality":{"key":"06435006","name":"Bruchköbel, Stadt","type":"Stadt"},"district":{"key":"06435","name":"Main-Kinzig-Kreis","type":"Landkreis"},"federalState":{"key":"06","name":"Hessen"}},{"name":"Roßdorfer Str.","postalCode":"63486","locality":"Bruchköbel","municipality":{"key":"06435006","name":"Bruchköbel, Stadt","type":"Stadt"},"district":{"key":"06435","name":"Main-Kinzig-Kreis","type":"Landkreis"},"federalState":{"key":"06","name":"Hessen"}},{"name":"Rostocker Str.","postalCode":"63486","locality":"Bruchköbel","municipality":{"key":"06435006","name":"Bruchköbel, Stadt","type":"Stadt"},"district":{"key":"06435","name":"Main-Kinzig-Kreis","type":"Landkreis"},"federalState":{"key":"06","name":"Hessen"}},{"name":"Saalburgring","postalCode":"63486","locality":"Bruchköbel","municipality":{"key":"06435006","name":"Bruchköbel, Stadt","type":"Stadt"},"district":{"key":"06435","name":"Main-Kinzig-Kreis","type":"Landkreis"},"federalState":{"key":"06","name":"Hessen"}},{"name":"Savignyring","postalCode":"63486","locality":"Bruchköbel","municipality":{"key":"06435006","name":"Bruchköbel, Stadt","type":"Stadt"},"district":{"key":"06435","name":"Main-Kinzig-Kreis","type":"Landkreis"},"federalState":{"key":"06","name":"Hessen"}},{"name":"Schäfergasse","postalCode":"63486","locality":"Bruchköbel","municipality":{"key":"06435006","name":"Bruchköbel, Stadt","type":"Stadt"},"district":{"key":"06435","name":"Main-Kinzig-Kreis","type":"Landkreis"},"federalState":{"key":"06","name":"Hessen"}},{"name":"Scheelbergstr.","postalCode":"63486","locality":"Bruchköbel","municipality":{"key":"06435006","name":"Bruchköbel, Stadt","type":"Stadt"},"district":{"key":"06435","name":"Main-Kinzig-Kreis","type":"Landkreis"},"federalState":{"key":"06","name":"Hessen"}},{"name":"Schießstr.","postalCode":"63486","locality":"Bruchköbel","municipality":{"key":"06435006","name":"Bruchköbel, Stadt","type":"Stadt"},"district":{"key":"06435","name":"Main-Kinzig-Kreis","type":"Landkreis"},"federalState":{"key":"06","name":"Hessen"}},{"name":"Schillerstr.","postalCode":"63486","locality":"Bruchköbel","municipality":{"key":"06435006","name":"Bruchköbel, Stadt","type":"Stadt"},"district":{"key":"06435","name":"Main-Kinzig-Kreis","type":"Landkreis"},"federalState":{"key":"06","name":"Hessen"}},{"name":"Schlesierstr.","postalCode":"63486","locality":"Bruchköbel","municipality":{"key":"06435006","name":"Bruchköbel, Stadt","type":"Stadt"},"district":{"key":"06435","name":"Main-Kinzig-Kreis","type":"Landkreis"},"federalState":{"key":"06","name":"Hessen"}},{"name":"Schmiedestr.","postalCode":"63486","locality":"Bruchköbel","municipality":{"key":"06435006","name":"Bruchköbel, Stadt","type":"Stadt"},"district":{"key":"06435","name":"Main-Kinzig-Kreis","type":"Landkreis"},"federalState":{"key":"06","name":"Hessen"}},{"name":"Schreinergasse","postalCode":"63486","locality":"Bruchköbel","municipality":{"key":"06435006","name":"Bruchköbel, Stadt","type":"Stadt"},"district":{"key":"06435","name":"Main-Kinzig-Kreis","type":"Landkreis"},"federalState":{"key":"06","name":"Hessen"}},{"name":"Schubertstr.","postalCode":"63486","locality":"Bruchköbel","municipality":{"key":"06435006","name":"Bruchköbel, Stadt","type":"Stadt"},"district":{"key":"06435","name":"Main-Kinzig-Kreis","type":"Landkreis"},"federalState":{"key":"06","name":"Hessen"}},{"name":"Schulstr.","postalCode":"63486","locality":"Bruchköbel","municipality":{"key":"06435006","name":"Bruchköbel, Stadt","type":"Stadt"},"district":{"key":"06435","name":"Main-Kinzig-Kreis","type":"Landkreis"},"federalState":{"key":"06","name":"Hessen"}},{"name":"Schulweg","postalCode":"63486","locality":"Bruchköbel","municipality":{"key":"06435006","name":"Bruchköbel, Stadt","type":"Stadt"},"district":{"key":"06435","name":"Main-Kinzig-Kreis","type":"Landkreis"},"federalState":{"key":"06","name":"Hessen"}},{"name":"Schulzenstr.","postalCode":"63486","locality":"Bruchköbel","municipality":{"key":"06435006","name":"Bruchköbel, Stadt","type":"Stadt"},"district":{"key":"06435","name":"Main-Kinzig-Kreis","type":"Landkreis"},"federalState":{"key":"06","name":"Hessen"}},{"name":"Schweizergasse","postalCode":"63486","locality":"Bruchköbel","municipality":{"key":"06435006","name":"Bruchköbel, Stadt","type":"Stadt"},"district":{"key":"06435","name":"Main-Kinzig-Kreis","type":"Landkreis"},"federalState":{"key":"06","name":"Hessen"}},{"name":"Schwimmbadstr.","postalCode":"63486","locality":"Bruchköbel","municipality":{"key":"06435006","name":"Bruchköbel, Stadt","type":"Stadt"},"district":{"key":"06435","name":"Main-Kinzig-Kreis","type":"Landkreis"},"federalState":{"key":"06","name":"Hessen"}},{"name":"Seebergstr.","postalCode":"63486","locality":"Bruchköbel","municipality":{"key":"06435006","name":"Bruchköbel, Stadt","type":"Stadt"},"district":{"key":"06435","name":"Main-Kinzig-Kreis","type":"Landkreis"},"federalState":{"key":"06","name":"Hessen"}},{"name":"Seewiesenring","postalCode":"63486","locality":"Bruchköbel","municipality":{"key":"06435006","name":"Bruchköbel, Stadt","type":"Stadt"},"district":{"key":"06435","name":"Main-Kinzig-Kreis","type":"Landkreis"},"federalState":{"key":"06","name":"Hessen"}},{"name":"Spessartring","postalCode":"63486","locality":"Bruchköbel","municipality":{"key":"06435006","name":"Bruchköbel, Stadt","type":"Stadt"},"district":{"key":"06435","name":"Main-Kinzig-Kreis","type":"Landkreis"},"federalState":{"key":"06","name":"Hessen"}},{"name":"Spessartstr.","postalCode":"63486","locality":"Bruchköbel","municipality":{"key":"06435006","name":"Bruchköbel, Stadt","type":"Stadt"},"district":{"key":"06435","name":"Main-Kinzig-Kreis","type":"Landkreis"},"federalState":{"key":"06","name":"Hessen"}},{"name":"Spielhausgasse","postalCode":"63486","locality":"Bruchköbel","municipality":{"key":"06435006","name":"Bruchköbel, Stadt","type":"Stadt"},"district":{"key":"06435","name":"Main-Kinzig-Kreis","type":"Landkreis"},"federalState":{"key":"06","name":"Hessen"}},{"name":"Stadtplatz","postalCode":"63486","locality":"Bruchköbel","municipality":{"key":"06435006","name":"Bruchköbel, Stadt","type":"Stadt"},"district":{"key":"06435","name":"Main-Kinzig-Kreis","type":"Landkreis"},"federalState":{"key":"06","name":"Hessen"}},{"name":"St.-Andrä-Wördern-Str.","postalCode":"63486","locality":"Bruchköbel","municipality":{"key":"06435006","name":"Bruchköbel, Stadt","type":"Stadt"},"district":{"key":"06435","name":"Main-Kinzig-Kreis","type":"Landkreis"},"federalState":{"key":"06","name":"Hessen"}},{"name":"Stresemannstr.","postalCode":"63486","locality":"Bruchköbel","municipality":{"key":"06435006","name":"Bruchköbel, Stadt","type":"Stadt"},"district":{"key":"06435","name":"Main-Kinzig-Kreis","type":"Landkreis"},"federalState":{"key":"06","name":"Hessen"}},{"name":"Sudetenstr.","postalCode":"63486","locality":"Bruchköbel","municipality":{"key":"06435006","name":"Bruchköbel, Stadt","type":"Stadt"},"district":{"key":"06435","name":"Main-Kinzig-Kreis","type":"Landkreis"},"federalState":{"key":"06","name":"Hessen"}},{"name":"Tannenweg","postalCode":"63486","locality":"Bruchköbel","municipality":{"key":"06435006","name":"Bruchköbel, Stadt","type":"Stadt"},"district":{"key":"06435","name":"Main-Kinzig-Kreis","type":"Landkreis"},"federalState":{"key":"06","name":"Hessen"}},{"name":"Taunusstr.","postalCode":"63486","locality":"Bruchköbel","municipality":{"key":"06435006","name":"Bruchköbel, Stadt","type":"Stadt"},"district":{"key":"06435","name":"Main-Kinzig-Kreis","type":"Landkreis"},"federalState":{"key":"06","name":"Hessen"}},{"name":"Theodor-Heuss-Str.","postalCode":"63486","locality":"Bruchköbel","municipality":{"key":"06435006","name":"Bruchköbel, Stadt","type":"Stadt"},"district":{"key":"06435","name":"Main-Kinzig-Kreis","type":"Landkreis"},"federalState":{"key":"06","name":"Hessen"}},{"name":"Thermenweg","postalCode":"63486","locality":"Bruchköbel","municipality":{"key":"06435006","name":"Bruchköbel, Stadt","type":"Stadt"},"district":{"key":"06435","name":"Main-Kinzig-Kreis","type":"Landkreis"},"federalState":{"key":"06","name":"Hessen"}},{"name":"Thomas-Mann-Str.","postalCode":"63486","locality":"Bruchköbel","municipality":{"key":"06435006","name":"Bruchköbel, Stadt","type":"Stadt"},"district":{"key":"06435","name":"Main-Kinzig-Kreis","type":"Landkreis"},"federalState":{"key":"06","name":"Hessen"}},{"name":"Tilsiter Str.","postalCode":"63486","locality":"Bruchköbel","municipality":{"key":"06435006","name":"Bruchköbel, Stadt","type":"Stadt"},"district":{"key":"06435","name":"Main-Kinzig-Kreis","type":"Landkreis"},"federalState":{"key":"06","name":"Hessen"}},{"name":"Troppauer Str.","postalCode":"63486","locality":"Bruchköbel","municipality":{"key":"06435006","name":"Bruchköbel, Stadt","type":"Stadt"},"district":{"key":"06435","name":"Main-Kinzig-Kreis","type":"Landkreis"},"federalState":{"key":"06","name":"Hessen"}},{"name":"Udo-Müller-Ring","postalCode":"63486","locality":"Bruchköbel","municipality":{"key":"06435006","name":"Bruchköbel, Stadt","type":"Stadt"},"district":{"key":"06435","name":"Main-Kinzig-Kreis","type":"Landkreis"},"federalState":{"key":"06","name":"Hessen"}},{"name":"Uhlandstr.","postalCode":"63486","locality":"Bruchköbel","municipality":{"key":"06435006","name":"Bruchköbel, Stadt","type":"Stadt"},"district":{"key":"06435","name":"Main-Kinzig-Kreis","type":"Landkreis"},"federalState":{"key":"06","name":"Hessen"}},{"name":"Ulmenweg","postalCode":"63486","locality":"Bruchköbel","municipality":{"key":"06435006","name":"Bruchköbel, Stadt","type":"Stadt"},"district":{"key":"06435","name":"Main-Kinzig-Kreis","type":"Landkreis"},"federalState":{"key":"06","name":"Hessen"}},{"name":"Varangéviller Str.","postalCode":"63486","locality":"Bruchköbel","municipality":{"key":"06435006","name":"Bruchköbel, Stadt","type":"Stadt"},"district":{"key":"06435","name":"Main-Kinzig-Kreis","type":"Landkreis"},"federalState":{"key":"06","name":"Hessen"}},{"name":"Vogelsbergstr.","postalCode":"63486","locality":"Bruchköbel","municipality":{"key":"06435006","name":"Bruchköbel, Stadt","type":"Stadt"},"district":{"key":"06435","name":"Main-Kinzig-Kreis","type":"Landkreis"},"federalState":{"key":"06","name":"Hessen"}},{"name":"Waimerstr.","postalCode":"63486","locality":"Bruchköbel","municipality":{"key":"06435006","name":"Bruchköbel, Stadt","type":"Stadt"},"district":{"key":"06435","name":"Main-Kinzig-Kreis","type":"Landkreis"},"federalState":{"key":"06","name":"Hessen"}},{"name":"Waldseestr.","postalCode":"63486","locality":"Bruchköbel","municipality":{"key":"06435006","name":"Bruchköbel, Stadt","type":"Stadt"},"district":{"key":"06435","name":"Main-Kinzig-Kreis","type":"Landkreis"},"federalState":{"key":"06","name":"Hessen"}},{"name":"Waldstr.","postalCode":"63486","locality":"Bruchköbel","municipality":{"key":"06435006","name":"Bruchköbel, Stadt","type":"Stadt"},"district":{"key":"06435","name":"Main-Kinzig-Kreis","type":"Landkreis"},"federalState":{"key":"06","name":"Hessen"}},{"name":"Walter-Rathenau-Str.","postalCode":"63486","locality":"Bruchköbel","municipality":{"key":"06435006","name":"Bruchköbel, Stadt","type":"Stadt"},"district":{"key":"06435","name":"Main-Kinzig-Kreis","type":"Landkreis"},"federalState":{"key":"06","name":"Hessen"}},{"name":"Weiherstr.","postalCode":"63486","locality":"Bruchköbel","municipality":{"key":"06435006","name":"Bruchköbel, Stadt","type":"Stadt"},"district":{"key":"06435","name":"Main-Kinzig-Kreis","type":"Landkreis"},"federalState":{"key":"06","name":"Hessen"}},{"name":"Weingartenstr.","postalCode":"63486","locality":"Bruchköbel","municipality":{"key":"06435006","name":"Bruchköbel, Stadt","type":"Stadt"},"district":{"key":"06435","name":"Main-Kinzig-Kreis","type":"Landkreis"},"federalState":{"key":"06","name":"Hessen"}},{"name":"Werner-von-Siemens-Str.","postalCode":"63486","locality":"Bruchköbel","municipality":{"key":"06435006","name":"Bruchköbel, Stadt","type":"Stadt"},"district":{"key":"06435","name":"Main-Kinzig-Kreis","type":"Landkreis"},"federalState":{"key":"06","name":"Hessen"}},{"name":"Wilhelm-Busch-Ring","postalCode":"63486","locality":"Bruchköbel","municipality":{"key":"06435006","name":"Bruchköbel, Stadt","type":"Stadt"},"district":{"key":"06435","name":"Main-Kinzig-Kreis","type":"Landkreis"},"federalState":{"key":"06","name":"Hessen"}},{"name":"Wilhelm-Hauff-Str.","postalCode":"63486","locality":"Bruchköbel","municipality":{"key":"06435006","name":"Bruchköbel, Stadt","type":"Stadt"},"district":{"key":"06435","name":"Main-Kinzig-Kreis","type":"Landkreis"},"federalState":{"key":"06","name":"Hessen"}},{"name":"Willy-Brandt-Str.","postalCode":"63486","locality":"Bruchköbel","municipality":{"key":"06435006","name":"Bruchköbel, Stadt","type":"Stadt"},"district":{"key":"06435","name":"Main-Kinzig-Kreis","type":"Landkreis"},"federalState":{"key":"06","name":"Hessen"}},{"name":"Windecker Weg","postalCode":"63486","locality":"Bruchköbel","municipality":{"key":"06435006","name":"Bruchköbel, Stadt","type":"Stadt"},"district":{"key":"06435","name":"Main-Kinzig-Kreis","type":"Landkreis"},"federalState":{"key":"06","name":"Hessen"}},{"name":"Wingertstr.","postalCode":"63486","locality":"Bruchköbel","municipality":{"key":"06435006","name":"Bruchköbel, Stadt","type":"Stadt"},"district":{"key":"06435","name":"Main-Kinzig-Kreis","type":"Landkreis"},"federalState":{"key":"06","name":"Hessen"}},{"name":"Zum Wiesengrund","postalCode":"63486","locality":"Bruchköbel","municipality":{"key":"06435006","name":"Bruchköbel, Stadt","type":"Stadt"},"district":{"key":"06435","name":"Main-Kinzig-Kreis","type":"Landkreis"},"federalState":{"key":"06","name":"Hessen"}},{"name":"Zur Fechenmühle","postalCode":"63486","locality":"Bruchköbel","municipality":{"key":"06435006","name":"Bruchköbel, Stadt","type":"Stadt"},"district":{"key":"06435","name":"Main-Kinzig-Kreis","type":"Landkreis"},"federalState":{"key":"06","name":"Hessen"}},{"name":"Zur Tanne","postalCode":"63486","locality":"Bruchköbel","municipality":{"key":"06435006","name":"Bruchköbel, Stadt","type":"Stadt"},"district":{"key":"06435","name":"Main-Kinzig-Kreis","type":"Landkreis"},"federalState":{"key":"06","name":"Hessen"}},]