[{"name":"91er Str.","postalCode":"26121","locality":"Oldenburg","municipality":{"key":"03403000","name":"Oldenburg (Oldenburg), Stadt","type":"Kreisfreie_Stadt"},"district":{"key":"03403","name":"Oldenburg (Oldenburg), Stadt","type":"Kreisfreie_Stadt"},"federalState":{"key":"03","name":"Niedersachsen"}},{"name":"Alte Dorfstr.","postalCode":"27243","locality":"Prinzhöfte","municipality":{"key":"03458012","name":"Prinzhöfte","type":"Kreisangehörige_Gemeinde"},"district":{"key":"03458","name":"Oldenburg","type":"Landkreis"},"federalState":{"key":"03","name":"Niedersachsen"}},{"name":"Alter Kirchweg","postalCode":"27243","locality":"Prinzhöfte","municipality":{"key":"03458012","name":"Prinzhöfte","type":"Kreisangehörige_Gemeinde"},"district":{"key":"03458","name":"Oldenburg","type":"Landkreis"},"federalState":{"key":"03","name":"Niedersachsen"}},{"name":"Alter Schulweg","postalCode":"27243","locality":"Prinzhöfte","municipality":{"key":"03458012","name":"Prinzhöfte","type":"Kreisangehörige_Gemeinde"},"district":{"key":"03458","name":"Oldenburg","type":"Landkreis"},"federalState":{"key":"03","name":"Niedersachsen"}},{"name":"Am Kürk","postalCode":"27243","locality":"Prinzhöfte","municipality":{"key":"03458012","name":"Prinzhöfte","type":"Kreisangehörige_Gemeinde"},"district":{"key":"03458","name":"Oldenburg","type":"Landkreis"},"federalState":{"key":"03","name":"Niedersachsen"}},{"name":"Am Sportplatz","postalCode":"27243","locality":"Prinzhöfte","municipality":{"key":"03458012","name":"Prinzhöfte","type":"Kreisangehörige_Gemeinde"},"district":{"key":"03458","name":"Oldenburg","type":"Landkreis"},"federalState":{"key":"03","name":"Niedersachsen"}},{"name":"Am Stüh","postalCode":"27243","locality":"Prinzhöfte","municipality":{"key":"03458012","name":"Prinzhöfte","type":"Kreisangehörige_Gemeinde"},"district":{"key":"03458","name":"Oldenburg","type":"Landkreis"},"federalState":{"key":"03","name":"Niedersachsen"}},{"name":"Am Wald","postalCode":"27243","locality":"Prinzhöfte","municipality":{"key":"03458012","name":"Prinzhöfte","type":"Kreisangehörige_Gemeinde"},"district":{"key":"03458","name":"Oldenburg","type":"Landkreis"},"federalState":{"key":"03","name":"Niedersachsen"}},{"name":"Am Wickhorn","postalCode":"27243","locality":"Prinzhöfte","municipality":{"key":"03458012","name":"Prinzhöfte","type":"Kreisangehörige_Gemeinde"},"district":{"key":"03458","name":"Oldenburg","type":"Landkreis"},"federalState":{"key":"03","name":"Niedersachsen"}},{"name":"An der Weide","postalCode":"27243","locality":"Prinzhöfte","municipality":{"key":"03458012","name":"Prinzhöfte","type":"Kreisangehörige_Gemeinde"},"district":{"key":"03458","name":"Oldenburg","type":"Landkreis"},"federalState":{"key":"03","name":"Niedersachsen"}},{"name":"Bramkamp","postalCode":"27243","locality":"Prinzhöfte","municipality":{"key":"03458012","name":"Prinzhöfte","type":"Kreisangehörige_Gemeinde"},"district":{"key":"03458","name":"Oldenburg","type":"Landkreis"},"federalState":{"key":"03","name":"Niedersachsen"}},{"name":"Bundesstr.","postalCode":"27243","locality":"Prinzhöfte","municipality":{"key":"03458012","name":"Prinzhöfte","type":"Kreisangehörige_Gemeinde"},"district":{"key":"03458","name":"Oldenburg","type":"Landkreis"},"federalState":{"key":"03","name":"Niedersachsen"}},{"name":"Cäcilienplatz","postalCode":"26122","locality":"Oldenburg","municipality":{"key":"03403000","name":"Oldenburg (Oldenburg), Stadt","type":"Kreisfreie_Stadt"},"district":{"key":"03403","name":"Oldenburg (Oldenburg), Stadt","type":"Kreisfreie_Stadt"},"federalState":{"key":"03","name":"Niedersachsen"}},{"name":"Cäcilienstr.","postalCode":"26122","locality":"Oldenburg","municipality":{"key":"03403000","name":"Oldenburg (Oldenburg), Stadt","type":"Kreisfreie_Stadt"},"district":{"key":"03403","name":"Oldenburg (Oldenburg), Stadt","type":"Kreisfreie_Stadt"},"federalState":{"key":"03","name":"Niedersachsen"}},{"name":"Calhorner Kirchweg","postalCode":"49632","locality":"Essen (Oldenburg)","municipality":{"key":"03453006","name":"Essen (Oldenburg)","type":"Kreisangehörige_Gemeinde"},"district":{"key":"03453","name":"Cloppenburg","type":"Landkreis"},"federalState":{"key":"03","name":"Niedersachsen"}},{"name":"Calhorner Str.","postalCode":"49632","locality":"Essen (Oldenburg)","municipality":{"key":"03453006","name":"Essen (Oldenburg)","type":"Kreisangehörige_Gemeinde"},"district":{"key":"03453","name":"Cloppenburg","type":"Landkreis"},"federalState":{"key":"03","name":"Niedersachsen"}},{"name":"Cappelner Damm","postalCode":"49692","locality":"Cappeln (Oldenburg)","municipality":{"key":"03453003","name":"Cappeln (Oldenburg)","type":"Kreisangehörige_Gemeinde"},"district":{"key":"03453","name":"Cloppenburg","type":"Landkreis"},"federalState":{"key":"03","name":"Niedersachsen"}},{"name":"Cappelner Str.","postalCode":"49692","locality":"Cappeln (Oldenburg)","municipality":{"key":"03453003","name":"Cappeln (Oldenburg)","type":"Kreisangehörige_Gemeinde"},"district":{"key":"03453","name":"Cloppenburg","type":"Landkreis"},"federalState":{"key":"03","name":"Niedersachsen"}},{"name":"Carl-Diem-Str.","postalCode":"27798","locality":"Hude (Oldenburg)","municipality":{"key":"03458010","name":"Hude (Oldb)","type":"Kreisangehörige_Gemeinde"},"district":{"key":"03458","name":"Oldenburg","type":"Landkreis"},"federalState":{"key":"03","name":"Niedersachsen"}},{"name":"Carl-Eggers-Weg","postalCode":"26127","locality":"Oldenburg","municipality":{"key":"03403000","name":"Oldenburg (Oldenburg), Stadt","type":"Kreisfreie_Stadt"},"district":{"key":"03403","name":"Oldenburg (Oldenburg), Stadt","type":"Kreisfreie_Stadt"},"federalState":{"key":"03","name":"Niedersachsen"}},{"name":"Carl-Friedrich-Gauß-Str.","postalCode":"26133","locality":"Oldenburg","municipality":{"key":"03403000","name":"Oldenburg (Oldenburg), Stadt","type":"Kreisfreie_Stadt"},"district":{"key":"03403","name":"Oldenburg (Oldenburg), Stadt","type":"Kreisfreie_Stadt"},"federalState":{"key":"03","name":"Niedersachsen"}},{"name":"Carl-Friedrich-Spieske-Str.","postalCode":"26133","locality":"Oldenburg","municipality":{"key":"03403000","name":"Oldenburg (Oldenburg), Stadt","type":"Kreisfreie_Stadt"},"district":{"key":"03403","name":"Oldenburg (Oldenburg), Stadt","type":"Kreisfreie_Stadt"},"federalState":{"key":"03","name":"Niedersachsen"}},{"name":"Carl-Heinrich-Slevogt-Str.","postalCode":"26133","locality":"Oldenburg","municipality":{"key":"03403000","name":"Oldenburg (Oldenburg), Stadt","type":"Kreisfreie_Stadt"},"district":{"key":"03403","name":"Oldenburg (Oldenburg), Stadt","type":"Kreisfreie_Stadt"},"federalState":{"key":"03","name":"Niedersachsen"}},{"name":"Carl-Maria-von-Weber-Str.","postalCode":"23758","locality":"Oldenburg in Holstein","municipality":{"key":"01055033","name":"Oldenburg in Holstein, Stadt","type":"Stadt"},"district":{"key":"01055","name":"Ostholstein","type":"Kreis"},"federalState":{"key":"01","name":"Schleswig-Holstein"}},{"name":"Carl-von-Ossietzky-Str.","postalCode":"26129","locality":"Oldenburg","municipality":{"key":"03403000","name":"Oldenburg (Oldenburg), Stadt","type":"Kreisfreie_Stadt"},"district":{"key":"03403","name":"Oldenburg (Oldenburg), Stadt","type":"Kreisfreie_Stadt"},"federalState":{"key":"03","name":"Niedersachsen"}},{"name":"Carl-Wöltje-Str.","postalCode":"26133","locality":"Oldenburg","municipality":{"key":"03403000","name":"Oldenburg (Oldenburg), Stadt","type":"Kreisfreie_Stadt"},"district":{"key":"03403","name":"Oldenburg (Oldenburg), Stadt","type":"Kreisfreie_Stadt"},"federalState":{"key":"03","name":"Niedersachsen"}},{"name":"Charlotte-Dettling-Str.","postalCode":"26135","locality":"Oldenburg","municipality":{"key":"03403000","name":"Oldenburg (Oldenburg), Stadt","type":"Kreisfreie_Stadt"},"district":{"key":"03403","name":"Oldenburg (Oldenburg), Stadt","type":"Kreisfreie_Stadt"},"federalState":{"key":"03","name":"Niedersachsen"}},{"name":"Charlottenstr.","postalCode":"26135","locality":"Oldenburg","municipality":{"key":"03403000","name":"Oldenburg (Oldenburg), Stadt","type":"Kreisfreie_Stadt"},"district":{"key":"03403","name":"Oldenburg (Oldenburg), Stadt","type":"Kreisfreie_Stadt"},"federalState":{"key":"03","name":"Niedersachsen"}},{"name":"Charlottenweg","postalCode":"27798","locality":"Hude (Oldenburg)","municipality":{"key":"03458010","name":"Hude (Oldb)","type":"Kreisangehörige_Gemeinde"},"district":{"key":"03458","name":"Oldenburg","type":"Landkreis"},"federalState":{"key":"03","name":"Niedersachsen"}},{"name":"Chaukenstr.","postalCode":"26121","locality":"Oldenburg","municipality":{"key":"03403000","name":"Oldenburg (Oldenburg), Stadt","type":"Kreisfreie_Stadt"},"district":{"key":"03403","name":"Oldenburg (Oldenburg), Stadt","type":"Kreisfreie_Stadt"},"federalState":{"key":"03","name":"Niedersachsen"}},{"name":"Chemnitzer Str.","postalCode":"26129","locality":"Oldenburg","municipality":{"key":"03403000","name":"Oldenburg (Oldenburg), Stadt","type":"Kreisfreie_Stadt"},"district":{"key":"03403","name":"Oldenburg (Oldenburg), Stadt","type":"Kreisfreie_Stadt"},"federalState":{"key":"03","name":"Niedersachsen"}},{"name":"Cheruskerweg","postalCode":"26121","locality":"Oldenburg","municipality":{"key":"03403000","name":"Oldenburg (Oldenburg), Stadt","type":"Kreisfreie_Stadt"},"district":{"key":"03403","name":"Oldenburg (Oldenburg), Stadt","type":"Kreisfreie_Stadt"},"federalState":{"key":"03","name":"Niedersachsen"}},{"name":"Choletstr.","postalCode":"26129","locality":"Oldenburg","municipality":{"key":"03403000","name":"Oldenburg (Oldenburg), Stadt","type":"Kreisfreie_Stadt"},"district":{"key":"03403","name":"Oldenburg (Oldenburg), Stadt","type":"Kreisfreie_Stadt"},"federalState":{"key":"03","name":"Niedersachsen"}},{"name":"Christian-Runde-Weg","postalCode":"26121","locality":"Oldenburg","municipality":{"key":"03403000","name":"Oldenburg (Oldenburg), Stadt","type":"Kreisfreie_Stadt"},"district":{"key":"03403","name":"Oldenburg (Oldenburg), Stadt","type":"Kreisfreie_Stadt"},"federalState":{"key":"03","name":"Niedersachsen"}},{"name":"Christopherweg","postalCode":"26131","locality":"Oldenburg","municipality":{"key":"03403000","name":"Oldenburg (Oldenburg), Stadt","type":"Kreisfreie_Stadt"},"district":{"key":"03403","name":"Oldenburg (Oldenburg), Stadt","type":"Kreisfreie_Stadt"},"federalState":{"key":"03","name":"Niedersachsen"}},{"name":"Clara-Grunwald-Str.","postalCode":"26127","locality":"Oldenburg","municipality":{"key":"03403000","name":"Oldenburg (Oldenburg), Stadt","type":"Kreisfreie_Stadt"},"district":{"key":"03403","name":"Oldenburg (Oldenburg), Stadt","type":"Kreisfreie_Stadt"},"federalState":{"key":"03","name":"Niedersachsen"}},{"name":"Clausewitzstr.","postalCode":"26125","locality":"Oldenburg","municipality":{"key":"03403000","name":"Oldenburg (Oldenburg), Stadt","type":"Kreisfreie_Stadt"},"district":{"key":"03403","name":"Oldenburg (Oldenburg), Stadt","type":"Kreisfreie_Stadt"},"federalState":{"key":"03","name":"Niedersachsen"}},{"name":"Claußenweg","postalCode":"27798","locality":"Hude (Oldenburg)","municipality":{"key":"03458010","name":"Hude (Oldb)","type":"Kreisangehörige_Gemeinde"},"district":{"key":"03458","name":"Oldenburg","type":"Landkreis"},"federalState":{"key":"03","name":"Niedersachsen"}},{"name":"Cloppenburger Str.","postalCode":"26133","locality":"Oldenburg","municipality":{"key":"03403000","name":"Oldenburg (Oldenburg), Stadt","type":"Kreisfreie_Stadt"},"district":{"key":"03403","name":"Oldenburg (Oldenburg), Stadt","type":"Kreisfreie_Stadt"},"federalState":{"key":"03","name":"Niedersachsen"}},{"name":"Cloppenburger Str.","postalCode":"26135","locality":"Oldenburg","municipality":{"key":"03403000","name":"Oldenburg (Oldenburg), Stadt","type":"Kreisfreie_Stadt"},"district":{"key":"03403","name":"Oldenburg (Oldenburg), Stadt","type":"Kreisfreie_Stadt"},"federalState":{"key":"03","name":"Niedersachsen"}},{"name":"Cloppenburger Str.","postalCode":"49632","locality":"Essen (Oldenburg)","municipality":{"key":"03453006","name":"Essen (Oldenburg)","type":"Kreisangehörige_Gemeinde"},"district":{"key":"03453","name":"Cloppenburg","type":"Landkreis"},"federalState":{"key":"03","name":"Niedersachsen"}},{"name":"Cloppenburger Str.","postalCode":"49692","locality":"Cappeln (Oldenburg)","municipality":{"key":"03453003","name":"Cappeln (Oldenburg)","type":"Kreisangehörige_Gemeinde"},"district":{"key":"03453","name":"Cloppenburg","type":"Landkreis"},"federalState":{"key":"03","name":"Niedersachsen"}},{"name":"Comeniusweg","postalCode":"26131","locality":"Oldenburg","municipality":{"key":"03403000","name":"Oldenburg (Oldenburg), Stadt","type":"Kreisfreie_Stadt"},"district":{"key":"03403","name":"Oldenburg (Oldenburg), Stadt","type":"Kreisfreie_Stadt"},"federalState":{"key":"03","name":"Niedersachsen"}},{"name":"Dorfstr.","postalCode":"27243","locality":"Prinzhöfte","municipality":{"key":"03458012","name":"Prinzhöfte","type":"Kreisangehörige_Gemeinde"},"district":{"key":"03458","name":"Oldenburg","type":"Landkreis"},"federalState":{"key":"03","name":"Niedersachsen"}},{"name":"Ebereschenweg","postalCode":"26133","locality":"Oldenburg","municipality":{"key":"03403000","name":"Oldenburg (Oldenburg), Stadt","type":"Kreisfreie_Stadt"},"district":{"key":"03403","name":"Oldenburg (Oldenburg), Stadt","type":"Kreisfreie_Stadt"},"federalState":{"key":"03","name":"Niedersachsen"}},{"name":"Eberswalder Weg","postalCode":"26133","locality":"Oldenburg","municipality":{"key":"03403000","name":"Oldenburg (Oldenburg), Stadt","type":"Kreisfreie_Stadt"},"district":{"key":"03403","name":"Oldenburg (Oldenburg), Stadt","type":"Kreisfreie_Stadt"},"federalState":{"key":"03","name":"Niedersachsen"}},{"name":"Eddeshorn","postalCode":"26125","locality":"Oldenburg","municipality":{"key":"03403000","name":"Oldenburg (Oldenburg), Stadt","type":"Kreisfreie_Stadt"},"district":{"key":"03403","name":"Oldenburg (Oldenburg), Stadt","type":"Kreisfreie_Stadt"},"federalState":{"key":"03","name":"Niedersachsen"}},{"name":"Edewechter Landstr.","postalCode":"26131","locality":"Oldenburg","municipality":{"key":"03403000","name":"Oldenburg (Oldenburg), Stadt","type":"Kreisfreie_Stadt"},"district":{"key":"03403","name":"Oldenburg (Oldenburg), Stadt","type":"Kreisfreie_Stadt"},"federalState":{"key":"03","name":"Niedersachsen"}},{"name":"Eduard-Mörike-Str.","postalCode":"26131","locality":"Oldenburg","municipality":{"key":"03403000","name":"Oldenburg (Oldenburg), Stadt","type":"Kreisfreie_Stadt"},"district":{"key":"03403","name":"Oldenburg (Oldenburg), Stadt","type":"Kreisfreie_Stadt"},"federalState":{"key":"03","name":"Niedersachsen"}},{"name":"Eekenhorst","postalCode":"26127","locality":"Oldenburg","municipality":{"key":"03403000","name":"Oldenburg (Oldenburg), Stadt","type":"Kreisfreie_Stadt"},"district":{"key":"03403","name":"Oldenburg (Oldenburg), Stadt","type":"Kreisfreie_Stadt"},"federalState":{"key":"03","name":"Niedersachsen"}},{"name":"Efeustr.","postalCode":"26121","locality":"Oldenburg","municipality":{"key":"03403000","name":"Oldenburg (Oldenburg), Stadt","type":"Kreisfreie_Stadt"},"district":{"key":"03403","name":"Oldenburg (Oldenburg), Stadt","type":"Kreisfreie_Stadt"},"federalState":{"key":"03","name":"Niedersachsen"}},{"name":"Efeuweg","postalCode":"27798","locality":"Hude (Oldenburg)","municipality":{"key":"03458010","name":"Hude (Oldb)","type":"Kreisangehörige_Gemeinde"},"district":{"key":"03458","name":"Oldenburg","type":"Landkreis"},"federalState":{"key":"03","name":"Niedersachsen"}},{"name":"Egerstr.","postalCode":"26127","locality":"Oldenburg","municipality":{"key":"03403000","name":"Oldenburg (Oldenburg), Stadt","type":"Kreisfreie_Stadt"},"district":{"key":"03403","name":"Oldenburg (Oldenburg), Stadt","type":"Kreisfreie_Stadt"},"federalState":{"key":"03","name":"Niedersachsen"}},{"name":"Ehlerstorfer Weg","postalCode":"23758","locality":"Oldenburg in Holstein","municipality":{"key":"01055033","name":"Oldenburg in Holstein, Stadt","type":"Stadt"},"district":{"key":"01055","name":"Ostholstein","type":"Kreis"},"federalState":{"key":"01","name":"Schleswig-Holstein"}},{"name":"Ehnernstr.","postalCode":"26121","locality":"Oldenburg","municipality":{"key":"03403000","name":"Oldenburg (Oldenburg), Stadt","type":"Kreisfreie_Stadt"},"district":{"key":"03403","name":"Oldenburg (Oldenburg), Stadt","type":"Kreisfreie_Stadt"},"federalState":{"key":"03","name":"Niedersachsen"}},{"name":"Ehnernstr.","postalCode":"26123","locality":"Oldenburg","municipality":{"key":"03403000","name":"Oldenburg (Oldenburg), Stadt","type":"Kreisfreie_Stadt"},"district":{"key":"03403","name":"Oldenburg (Oldenburg), Stadt","type":"Kreisfreie_Stadt"},"federalState":{"key":"03","name":"Niedersachsen"}},{"name":"Ehnkenweg","postalCode":"26125","locality":"Oldenburg","municipality":{"key":"03403000","name":"Oldenburg (Oldenburg), Stadt","type":"Kreisfreie_Stadt"},"district":{"key":"03403","name":"Oldenburg (Oldenburg), Stadt","type":"Kreisfreie_Stadt"},"federalState":{"key":"03","name":"Niedersachsen"}},{"name":"Ehrenpreisweg","postalCode":"26135","locality":"Oldenburg","municipality":{"key":"03403000","name":"Oldenburg (Oldenburg), Stadt","type":"Kreisfreie_Stadt"},"district":{"key":"03403","name":"Oldenburg (Oldenburg), Stadt","type":"Kreisfreie_Stadt"},"federalState":{"key":"03","name":"Niedersachsen"}},{"name":"Eibenstr.","postalCode":"49692","locality":"Cappeln (Oldenburg)","municipality":{"key":"03453003","name":"Cappeln (Oldenburg)","type":"Kreisangehörige_Gemeinde"},"district":{"key":"03453","name":"Cloppenburg","type":"Landkreis"},"federalState":{"key":"03","name":"Niedersachsen"}},{"name":"Eibenweg","postalCode":"26131","locality":"Oldenburg","municipality":{"key":"03403000","name":"Oldenburg (Oldenburg), Stadt","type":"Kreisfreie_Stadt"},"district":{"key":"03403","name":"Oldenburg (Oldenburg), Stadt","type":"Kreisfreie_Stadt"},"federalState":{"key":"03","name":"Niedersachsen"}},{"name":"Eichenallee","postalCode":"23758","locality":"Oldenburg in Holstein","municipality":{"key":"01055033","name":"Oldenburg in Holstein, Stadt","type":"Stadt"},"district":{"key":"01055","name":"Ostholstein","type":"Kreis"},"federalState":{"key":"01","name":"Schleswig-Holstein"}},{"name":"Eichenallee","postalCode":"49699","locality":"Lindern (Oldenburg)","municipality":{"key":"03453010","name":"Lindern (Oldenburg)","type":"Kreisangehörige_Gemeinde"},"district":{"key":"03453","name":"Cloppenburg","type":"Landkreis"},"federalState":{"key":"03","name":"Niedersachsen"}},{"name":"Eichendorffstr.","postalCode":"23758","locality":"Oldenburg in Holstein","municipality":{"key":"01055033","name":"Oldenburg in Holstein, Stadt","type":"Stadt"},"district":{"key":"01055","name":"Ostholstein","type":"Kreis"},"federalState":{"key":"01","name":"Schleswig-Holstein"}},{"name":"Eichendorffstr.","postalCode":"26131","locality":"Oldenburg","municipality":{"key":"03403000","name":"Oldenburg (Oldenburg), Stadt","type":"Kreisfreie_Stadt"},"district":{"key":"03403","name":"Oldenburg (Oldenburg), Stadt","type":"Kreisfreie_Stadt"},"federalState":{"key":"03","name":"Niedersachsen"}},{"name":"Eichendorffweg","postalCode":"27798","locality":"Hude (Oldenburg)","municipality":{"key":"03458010","name":"Hude (Oldb)","type":"Kreisangehörige_Gemeinde"},"district":{"key":"03458","name":"Oldenburg","type":"Landkreis"},"federalState":{"key":"03","name":"Niedersachsen"}},{"name":"Eichenkamp","postalCode":"49699","locality":"Lindern (Oldenburg)","municipality":{"key":"03453010","name":"Lindern (Oldenburg)","type":"Kreisangehörige_Gemeinde"},"district":{"key":"03453","name":"Cloppenburg","type":"Landkreis"},"federalState":{"key":"03","name":"Niedersachsen"}},{"name":"Eichenring","postalCode":"49699","locality":"Lindern (Oldenburg)","municipality":{"key":"03453010","name":"Lindern (Oldenburg)","type":"Kreisangehörige_Gemeinde"},"district":{"key":"03453","name":"Cloppenburg","type":"Landkreis"},"federalState":{"key":"03","name":"Niedersachsen"}},{"name":"Eichenstr.","postalCode":"26131","locality":"Oldenburg","municipality":{"key":"03403000","name":"Oldenburg (Oldenburg), Stadt","type":"Kreisfreie_Stadt"},"district":{"key":"03403","name":"Oldenburg (Oldenburg), Stadt","type":"Kreisfreie_Stadt"},"federalState":{"key":"03","name":"Niedersachsen"}},{"name":"Eichenstr.","postalCode":"49632","locality":"Essen (Oldenburg)","municipality":{"key":"03453006","name":"Essen (Oldenburg)","type":"Kreisangehörige_Gemeinde"},"district":{"key":"03453","name":"Cloppenburg","type":"Landkreis"},"federalState":{"key":"03","name":"Niedersachsen"}},{"name":"Eichenstr.","postalCode":"49692","locality":"Cappeln (Oldenburg)","municipality":{"key":"03453003","name":"Cappeln (Oldenburg)","type":"Kreisangehörige_Gemeinde"},"district":{"key":"03453","name":"Cloppenburg","type":"Landkreis"},"federalState":{"key":"03","name":"Niedersachsen"}},{"name":"Eichenstr.","postalCode":"49699","locality":"Lindern (Oldenburg)","municipality":{"key":"03453010","name":"Lindern (Oldenburg)","type":"Kreisangehörige_Gemeinde"},"district":{"key":"03453","name":"Cloppenburg","type":"Landkreis"},"federalState":{"key":"03","name":"Niedersachsen"}},{"name":"Eichenweg","postalCode":"23758","locality":"Oldenburg in Holstein","municipality":{"key":"01055033","name":"Oldenburg in Holstein, Stadt","type":"Stadt"},"district":{"key":"01055","name":"Ostholstein","type":"Kreis"},"federalState":{"key":"01","name":"Schleswig-Holstein"}},{"name":"Eichenweg","postalCode":"27798","locality":"Hude (Oldenburg)","municipality":{"key":"03458010","name":"Hude (Oldb)","type":"Kreisangehörige_Gemeinde"},"district":{"key":"03458","name":"Oldenburg","type":"Landkreis"},"federalState":{"key":"03","name":"Niedersachsen"}},{"name":"Eichhörnchenweg","postalCode":"26131","locality":"Oldenburg","municipality":{"key":"03403000","name":"Oldenburg (Oldenburg), Stadt","type":"Kreisfreie_Stadt"},"district":{"key":"03403","name":"Oldenburg (Oldenburg), Stadt","type":"Kreisfreie_Stadt"},"federalState":{"key":"03","name":"Niedersachsen"}},{"name":"Eichhörnchenweg","postalCode":"27798","locality":"Hude (Oldenburg)","municipality":{"key":"03458010","name":"Hude (Oldb)","type":"Kreisangehörige_Gemeinde"},"district":{"key":"03458","name":"Oldenburg","type":"Landkreis"},"federalState":{"key":"03","name":"Niedersachsen"}},{"name":"Eichhornweg","postalCode":"49699","locality":"Lindern (Oldenburg)","municipality":{"key":"03453010","name":"Lindern (Oldenburg)","type":"Kreisangehörige_Gemeinde"},"district":{"key":"03453","name":"Cloppenburg","type":"Landkreis"},"federalState":{"key":"03","name":"Niedersachsen"}},{"name":"Eichkamp","postalCode":"26131","locality":"Oldenburg","municipality":{"key":"03403000","name":"Oldenburg (Oldenburg), Stadt","type":"Kreisfreie_Stadt"},"district":{"key":"03403","name":"Oldenburg (Oldenburg), Stadt","type":"Kreisfreie_Stadt"},"federalState":{"key":"03","name":"Niedersachsen"}},{"name":"Eidechsenstr.","postalCode":"26133","locality":"Oldenburg","municipality":{"key":"03403000","name":"Oldenburg (Oldenburg), Stadt","type":"Kreisfreie_Stadt"},"district":{"key":"03403","name":"Oldenburg (Oldenburg), Stadt","type":"Kreisfreie_Stadt"},"federalState":{"key":"03","name":"Niedersachsen"}},{"name":"Eiffelstr.","postalCode":"26127","locality":"Oldenburg","municipality":{"key":"03403000","name":"Oldenburg (Oldenburg), Stadt","type":"Kreisfreie_Stadt"},"district":{"key":"03403","name":"Oldenburg (Oldenburg), Stadt","type":"Kreisfreie_Stadt"},"federalState":{"key":"03","name":"Niedersachsen"}},{"name":"Eike-von-Repkow-Str.","postalCode":"26121","locality":"Oldenburg","municipality":{"key":"03403000","name":"Oldenburg (Oldenburg), Stadt","type":"Kreisfreie_Stadt"},"district":{"key":"03403","name":"Oldenburg (Oldenburg), Stadt","type":"Kreisfreie_Stadt"},"federalState":{"key":"03","name":"Niedersachsen"}},{"name":"Einsteinstr.","postalCode":"26133","locality":"Oldenburg","municipality":{"key":"03403000","name":"Oldenburg (Oldenburg), Stadt","type":"Kreisfreie_Stadt"},"district":{"key":"03403","name":"Oldenburg (Oldenburg), Stadt","type":"Kreisfreie_Stadt"},"federalState":{"key":"03","name":"Niedersachsen"}},{"name":"Eißfeldstr.","postalCode":"23758","locality":"Oldenburg in Holstein","municipality":{"key":"01055033","name":"Oldenburg in Holstein, Stadt","type":"Stadt"},"district":{"key":"01055","name":"Ostholstein","type":"Kreis"},"federalState":{"key":"01","name":"Schleswig-Holstein"}},{"name":"Eisvogelring","postalCode":"26135","locality":"Oldenburg","municipality":{"key":"03403000","name":"Oldenburg (Oldenburg), Stadt","type":"Kreisfreie_Stadt"},"district":{"key":"03403","name":"Oldenburg (Oldenburg), Stadt","type":"Kreisfreie_Stadt"},"federalState":{"key":"03","name":"Niedersachsen"}},{"name":"Ekernstr.","postalCode":"26125","locality":"Oldenburg","municipality":{"key":"03403000","name":"Oldenburg (Oldenburg), Stadt","type":"Kreisfreie_Stadt"},"district":{"key":"03403","name":"Oldenburg (Oldenburg), Stadt","type":"Kreisfreie_Stadt"},"federalState":{"key":"03","name":"Niedersachsen"}},{"name":"Ekkardstr.","postalCode":"26135","locality":"Oldenburg","municipality":{"key":"03403000","name":"Oldenburg (Oldenburg), Stadt","type":"Kreisfreie_Stadt"},"district":{"key":"03403","name":"Oldenburg (Oldenburg), Stadt","type":"Kreisfreie_Stadt"},"federalState":{"key":"03","name":"Niedersachsen"}},{"name":"Elbestr.","postalCode":"26135","locality":"Oldenburg","municipality":{"key":"03403000","name":"Oldenburg (Oldenburg), Stadt","type":"Kreisfreie_Stadt"},"district":{"key":"03403","name":"Oldenburg (Oldenburg), Stadt","type":"Kreisfreie_Stadt"},"federalState":{"key":"03","name":"Niedersachsen"}},{"name":"Elchweg","postalCode":"26129","locality":"Oldenburg","municipality":{"key":"03403000","name":"Oldenburg (Oldenburg), Stadt","type":"Kreisfreie_Stadt"},"district":{"key":"03403","name":"Oldenburg (Oldenburg), Stadt","type":"Kreisfreie_Stadt"},"federalState":{"key":"03","name":"Niedersachsen"}},{"name":"Elimarstr.","postalCode":"26135","locality":"Oldenburg","municipality":{"key":"03403000","name":"Oldenburg (Oldenburg), Stadt","type":"Kreisfreie_Stadt"},"district":{"key":"03403","name":"Oldenburg (Oldenburg), Stadt","type":"Kreisfreie_Stadt"},"federalState":{"key":"03","name":"Niedersachsen"}},{"name":"Elisabethstr.","postalCode":"26135","locality":"Oldenburg","municipality":{"key":"03403000","name":"Oldenburg (Oldenburg), Stadt","type":"Kreisfreie_Stadt"},"district":{"key":"03403","name":"Oldenburg (Oldenburg), Stadt","type":"Kreisfreie_Stadt"},"federalState":{"key":"03","name":"Niedersachsen"}},{"name":"Elkes Welpenschule","postalCode":"27798","locality":"Hude (Oldenburg)","municipality":{"key":"03458010","name":"Hude (Oldb)","type":"Kreisangehörige_Gemeinde"},"district":{"key":"03458","name":"Oldenburg","type":"Landkreis"},"federalState":{"key":"03","name":"Niedersachsen"}},{"name":"Ellenbogen","postalCode":"26135","locality":"Oldenburg","municipality":{"key":"03403000","name":"Oldenburg (Oldenburg), Stadt","type":"Kreisfreie_Stadt"},"district":{"key":"03403","name":"Oldenburg (Oldenburg), Stadt","type":"Kreisfreie_Stadt"},"federalState":{"key":"03","name":"Niedersachsen"}},{"name":"Ellernbrok","postalCode":"26127","locality":"Oldenburg","municipality":{"key":"03403000","name":"Oldenburg (Oldenburg), Stadt","type":"Kreisfreie_Stadt"},"district":{"key":"03403","name":"Oldenburg (Oldenburg), Stadt","type":"Kreisfreie_Stadt"},"federalState":{"key":"03","name":"Niedersachsen"}},{"name":"Ellernbrook","postalCode":"27798","locality":"Hude (Oldenburg)","municipality":{"key":"03458010","name":"Hude (Oldb)","type":"Kreisangehörige_Gemeinde"},"district":{"key":"03458","name":"Oldenburg","type":"Landkreis"},"federalState":{"key":"03","name":"Niedersachsen"}},{"name":"Elmendorfer Str.","postalCode":"26127","locality":"Oldenburg","municipality":{"key":"03403000","name":"Oldenburg (Oldenburg), Stadt","type":"Kreisfreie_Stadt"},"district":{"key":"03403","name":"Oldenburg (Oldenburg), Stadt","type":"Kreisfreie_Stadt"},"federalState":{"key":"03","name":"Niedersachsen"}},{"name":"Fahrenkamp","postalCode":"26127","locality":"Oldenburg","municipality":{"key":"03403000","name":"Oldenburg (Oldenburg), Stadt","type":"Kreisfreie_Stadt"},"district":{"key":"03403","name":"Oldenburg (Oldenburg), Stadt","type":"Kreisfreie_Stadt"},"federalState":{"key":"03","name":"Niedersachsen"}},{"name":"Falkenweg","postalCode":"26135","locality":"Oldenburg","municipality":{"key":"03403000","name":"Oldenburg (Oldenburg), Stadt","type":"Kreisfreie_Stadt"},"district":{"key":"03403","name":"Oldenburg (Oldenburg), Stadt","type":"Kreisfreie_Stadt"},"federalState":{"key":"03","name":"Niedersachsen"}},{"name":"Falkenweg","postalCode":"27798","locality":"Hude (Oldenburg)","municipality":{"key":"03458010","name":"Hude (Oldb)","type":"Kreisangehörige_Gemeinde"},"district":{"key":"03458","name":"Oldenburg","type":"Landkreis"},"federalState":{"key":"03","name":"Niedersachsen"}},{"name":"Falkenweg","postalCode":"49699","locality":"Lindern (Oldenburg)","municipality":{"key":"03453010","name":"Lindern (Oldenburg)","type":"Kreisangehörige_Gemeinde"},"district":{"key":"03453","name":"Cloppenburg","type":"Landkreis"},"federalState":{"key":"03","name":"Niedersachsen"}},{"name":"Falklandstr.","postalCode":"26121","locality":"Oldenburg","municipality":{"key":"03403000","name":"Oldenburg (Oldenburg), Stadt","type":"Kreisfreie_Stadt"},"district":{"key":"03403","name":"Oldenburg (Oldenburg), Stadt","type":"Kreisfreie_Stadt"},"federalState":{"key":"03","name":"Niedersachsen"}},{"name":"Familie-Mechau-Str.","postalCode":"26121","locality":"Oldenburg","municipality":{"key":"03403000","name":"Oldenburg (Oldenburg), Stadt","type":"Kreisfreie_Stadt"},"district":{"key":"03403","name":"Oldenburg (Oldenburg), Stadt","type":"Kreisfreie_Stadt"},"federalState":{"key":"03","name":"Niedersachsen"}},{"name":"Fangweg","postalCode":"27798","locality":"Hude (Oldenburg)","municipality":{"key":"03458010","name":"Hude (Oldb)","type":"Kreisangehörige_Gemeinde"},"district":{"key":"03458","name":"Oldenburg","type":"Landkreis"},"federalState":{"key":"03","name":"Niedersachsen"}},{"name":"Farnweg","postalCode":"26135","locality":"Oldenburg","municipality":{"key":"03403000","name":"Oldenburg (Oldenburg), Stadt","type":"Kreisfreie_Stadt"},"district":{"key":"03403","name":"Oldenburg (Oldenburg), Stadt","type":"Kreisfreie_Stadt"},"federalState":{"key":"03","name":"Niedersachsen"}},{"name":"Fasanenstr.","postalCode":"49632","locality":"Essen (Oldenburg)","municipality":{"key":"03453006","name":"Essen (Oldenburg)","type":"Kreisangehörige_Gemeinde"},"district":{"key":"03453","name":"Cloppenburg","type":"Landkreis"},"federalState":{"key":"03","name":"Niedersachsen"}},{"name":"Fasanenweg","postalCode":"26133","locality":"Oldenburg","municipality":{"key":"03403000","name":"Oldenburg (Oldenburg), Stadt","type":"Kreisfreie_Stadt"},"district":{"key":"03403","name":"Oldenburg (Oldenburg), Stadt","type":"Kreisfreie_Stadt"},"federalState":{"key":"03","name":"Niedersachsen"}},{"name":"Fasanenweg","postalCode":"27798","locality":"Hude (Oldenburg)","municipality":{"key":"03458010","name":"Hude (Oldb)","type":"Kreisangehörige_Gemeinde"},"district":{"key":"03458","name":"Oldenburg","type":"Landkreis"},"federalState":{"key":"03","name":"Niedersachsen"}},{"name":"Fehmarner Ring","postalCode":"26131","locality":"Oldenburg","municipality":{"key":"03403000","name":"Oldenburg (Oldenburg), Stadt","type":"Kreisfreie_Stadt"},"district":{"key":"03403","name":"Oldenburg (Oldenburg), Stadt","type":"Kreisfreie_Stadt"},"federalState":{"key":"03","name":"Niedersachsen"}},{"name":"Fehnstr.","postalCode":"49699","locality":"Lindern (Oldenburg)","municipality":{"key":"03453010","name":"Lindern (Oldenburg)","type":"Kreisangehörige_Gemeinde"},"district":{"key":"03453","name":"Cloppenburg","type":"Landkreis"},"federalState":{"key":"03","name":"Niedersachsen"}},{"name":"Feldahornweg","postalCode":"26127","locality":"Oldenburg","municipality":{"key":"03403000","name":"Oldenburg (Oldenburg), Stadt","type":"Kreisfreie_Stadt"},"district":{"key":"03403","name":"Oldenburg (Oldenburg), Stadt","type":"Kreisfreie_Stadt"},"federalState":{"key":"03","name":"Niedersachsen"}},{"name":"Feldkamp","postalCode":"26123","locality":"Oldenburg","municipality":{"key":"03403000","name":"Oldenburg (Oldenburg), Stadt","type":"Kreisfreie_Stadt"},"district":{"key":"03403","name":"Oldenburg (Oldenburg), Stadt","type":"Kreisfreie_Stadt"},"federalState":{"key":"03","name":"Niedersachsen"}},{"name":"Feldkamp","postalCode":"26125","locality":"Oldenburg","municipality":{"key":"03403000","name":"Oldenburg (Oldenburg), Stadt","type":"Kreisfreie_Stadt"},"district":{"key":"03403","name":"Oldenburg (Oldenburg), Stadt","type":"Kreisfreie_Stadt"},"federalState":{"key":"03","name":"Niedersachsen"}},{"name":"Feldkamp","postalCode":"49692","locality":"Cappeln (Oldenburg)","municipality":{"key":"03453003","name":"Cappeln (Oldenburg)","type":"Kreisangehörige_Gemeinde"},"district":{"key":"03453","name":"Cloppenburg","type":"Landkreis"},"federalState":{"key":"03","name":"Niedersachsen"}},{"name":"Feldkamp","postalCode":"49699","locality":"Lindern (Oldenburg)","municipality":{"key":"03453010","name":"Lindern (Oldenburg)","type":"Kreisangehörige_Gemeinde"},"district":{"key":"03453","name":"Cloppenburg","type":"Landkreis"},"federalState":{"key":"03","name":"Niedersachsen"}},{"name":"Feldstr.","postalCode":"23758","locality":"Oldenburg in Holstein","municipality":{"key":"01055033","name":"Oldenburg in Holstein, Stadt","type":"Stadt"},"district":{"key":"01055","name":"Ostholstein","type":"Kreis"},"federalState":{"key":"01","name":"Schleswig-Holstein"}},{"name":"Feldstr.","postalCode":"26127","locality":"Oldenburg","municipality":{"key":"03403000","name":"Oldenburg (Oldenburg), Stadt","type":"Kreisfreie_Stadt"},"district":{"key":"03403","name":"Oldenburg (Oldenburg), Stadt","type":"Kreisfreie_Stadt"},"federalState":{"key":"03","name":"Niedersachsen"}},{"name":"Feldstr.","postalCode":"49699","locality":"Lindern (Oldenburg)","municipality":{"key":"03453010","name":"Lindern (Oldenburg)","type":"Kreisangehörige_Gemeinde"},"district":{"key":"03453","name":"Cloppenburg","type":"Landkreis"},"federalState":{"key":"03","name":"Niedersachsen"}},{"name":"Feldweg","postalCode":"49699","locality":"Lindern (Oldenburg)","municipality":{"key":"03453010","name":"Lindern (Oldenburg)","type":"Kreisangehörige_Gemeinde"},"district":{"key":"03453","name":"Cloppenburg","type":"Landkreis"},"federalState":{"key":"03","name":"Niedersachsen"}},{"name":"Felix-Wankel-Str.","postalCode":"26125","locality":"Oldenburg","municipality":{"key":"03403000","name":"Oldenburg (Oldenburg), Stadt","type":"Kreisfreie_Stadt"},"district":{"key":"03403","name":"Oldenburg (Oldenburg), Stadt","type":"Kreisfreie_Stadt"},"federalState":{"key":"03","name":"Niedersachsen"}},{"name":"Femeweg","postalCode":"49632","locality":"Essen (Oldenburg)","municipality":{"key":"03453006","name":"Essen (Oldenburg)","type":"Kreisangehörige_Gemeinde"},"district":{"key":"03453","name":"Cloppenburg","type":"Landkreis"},"federalState":{"key":"03","name":"Niedersachsen"}},{"name":"Ferdinand-Friedensburg-Str.","postalCode":"26125","locality":"Oldenburg","municipality":{"key":"03403000","name":"Oldenburg (Oldenburg), Stadt","type":"Kreisfreie_Stadt"},"district":{"key":"03403","name":"Oldenburg (Oldenburg), Stadt","type":"Kreisfreie_Stadt"},"federalState":{"key":"03","name":"Niedersachsen"}},{"name":"Ferdinand-Koch-Str.","postalCode":"26133","locality":"Oldenburg","municipality":{"key":"03403000","name":"Oldenburg (Oldenburg), Stadt","type":"Kreisfreie_Stadt"},"district":{"key":"03403","name":"Oldenburg (Oldenburg), Stadt","type":"Kreisfreie_Stadt"},"federalState":{"key":"03","name":"Niedersachsen"}},{"name":"Ferdinand-Lassalle-Str.","postalCode":"26129","locality":"Oldenburg","municipality":{"key":"03403000","name":"Oldenburg (Oldenburg), Stadt","type":"Kreisfreie_Stadt"},"district":{"key":"03403","name":"Oldenburg (Oldenburg), Stadt","type":"Kreisfreie_Stadt"},"federalState":{"key":"03","name":"Niedersachsen"}},{"name":"Ferdinand-von-Schill-Str.","postalCode":"26131","locality":"Oldenburg","municipality":{"key":"03403000","name":"Oldenburg (Oldenburg), Stadt","type":"Kreisfreie_Stadt"},"district":{"key":"03403","name":"Oldenburg (Oldenburg), Stadt","type":"Kreisfreie_Stadt"},"federalState":{"key":"03","name":"Niedersachsen"}},{"name":"Feststr.","postalCode":"26122","locality":"Oldenburg","municipality":{"key":"03403000","name":"Oldenburg (Oldenburg), Stadt","type":"Kreisfreie_Stadt"},"district":{"key":"03403","name":"Oldenburg (Oldenburg), Stadt","type":"Kreisfreie_Stadt"},"federalState":{"key":"03","name":"Niedersachsen"}},{"name":"Fichtenstr.","postalCode":"26122","locality":"Oldenburg","municipality":{"key":"03403000","name":"Oldenburg (Oldenburg), Stadt","type":"Kreisfreie_Stadt"},"district":{"key":"03403","name":"Oldenburg (Oldenburg), Stadt","type":"Kreisfreie_Stadt"},"federalState":{"key":"03","name":"Niedersachsen"}},{"name":"Fichtenweg","postalCode":"49632","locality":"Essen (Oldenburg)","municipality":{"key":"03453006","name":"Essen (Oldenburg)","type":"Kreisangehörige_Gemeinde"},"district":{"key":"03453","name":"Cloppenburg","type":"Landkreis"},"federalState":{"key":"03","name":"Niedersachsen"}},{"name":"Fichtestr.","postalCode":"27798","locality":"Hude (Oldenburg)","municipality":{"key":"03458010","name":"Hude (Oldb)","type":"Kreisangehörige_Gemeinde"},"district":{"key":"03458","name":"Oldenburg","type":"Landkreis"},"federalState":{"key":"03","name":"Niedersachsen"}},{"name":"Finkenbusch","postalCode":"23758","locality":"Oldenburg in Holstein","municipality":{"key":"01055033","name":"Oldenburg in Holstein, Stadt","type":"Stadt"},"district":{"key":"01055","name":"Ostholstein","type":"Kreis"},"federalState":{"key":"01","name":"Schleswig-Holstein"}},{"name":"Finkenstr.","postalCode":"27798","locality":"Hude (Oldenburg)","municipality":{"key":"03458010","name":"Hude (Oldb)","type":"Kreisangehörige_Gemeinde"},"district":{"key":"03458","name":"Oldenburg","type":"Landkreis"},"federalState":{"key":"03","name":"Niedersachsen"}},{"name":"Finkenstr.","postalCode":"49692","locality":"Cappeln (Oldenburg)","municipality":{"key":"03453003","name":"Cappeln (Oldenburg)","type":"Kreisangehörige_Gemeinde"},"district":{"key":"03453","name":"Cloppenburg","type":"Landkreis"},"federalState":{"key":"03","name":"Niedersachsen"}},{"name":"Finkenweg","postalCode":"26127","locality":"Oldenburg","municipality":{"key":"03403000","name":"Oldenburg (Oldenburg), Stadt","type":"Kreisfreie_Stadt"},"district":{"key":"03403","name":"Oldenburg (Oldenburg), Stadt","type":"Kreisfreie_Stadt"},"federalState":{"key":"03","name":"Niedersachsen"}},{"name":"Finkenweg","postalCode":"26131","locality":"Oldenburg","municipality":{"key":"03403000","name":"Oldenburg (Oldenburg), Stadt","type":"Kreisfreie_Stadt"},"district":{"key":"03403","name":"Oldenburg (Oldenburg), Stadt","type":"Kreisfreie_Stadt"},"federalState":{"key":"03","name":"Niedersachsen"}},{"name":"Fischbeckweg","postalCode":"27798","locality":"Hude (Oldenburg)","municipality":{"key":"03458010","name":"Hude (Oldb)","type":"Kreisangehörige_Gemeinde"},"district":{"key":"03458","name":"Oldenburg","type":"Landkreis"},"federalState":{"key":"03","name":"Niedersachsen"}},{"name":"Flämische Str.","postalCode":"49632","locality":"Essen (Oldenburg)","municipality":{"key":"03453006","name":"Essen (Oldenburg)","type":"Kreisangehörige_Gemeinde"},"district":{"key":"03453","name":"Cloppenburg","type":"Landkreis"},"federalState":{"key":"03","name":"Niedersachsen"}},{"name":"Fleerweg","postalCode":"49699","locality":"Lindern (Oldenburg)","municipality":{"key":"03453010","name":"Lindern (Oldenburg)","type":"Kreisangehörige_Gemeinde"},"district":{"key":"03453","name":"Cloppenburg","type":"Landkreis"},"federalState":{"key":"03","name":"Niedersachsen"}},{"name":"Flensburger Str.","postalCode":"27798","locality":"Hude (Oldenburg)","municipality":{"key":"03458010","name":"Hude (Oldb)","type":"Kreisangehörige_Gemeinde"},"district":{"key":"03458","name":"Oldenburg","type":"Landkreis"},"federalState":{"key":"03","name":"Niedersachsen"}},{"name":"Flerlagenweg","postalCode":"49632","locality":"Essen (Oldenburg)","municipality":{"key":"03453006","name":"Essen (Oldenburg)","type":"Kreisangehörige_Gemeinde"},"district":{"key":"03453","name":"Cloppenburg","type":"Landkreis"},"federalState":{"key":"03","name":"Niedersachsen"}},{"name":"Fliederstr.","postalCode":"49692","locality":"Cappeln (Oldenburg)","municipality":{"key":"03453003","name":"Cappeln (Oldenburg)","type":"Kreisangehörige_Gemeinde"},"district":{"key":"03453","name":"Cloppenburg","type":"Landkreis"},"federalState":{"key":"03","name":"Niedersachsen"}},{"name":"Fliederstr.","postalCode":"49699","locality":"Lindern (Oldenburg)","municipality":{"key":"03453010","name":"Lindern (Oldenburg)","type":"Kreisangehörige_Gemeinde"},"district":{"key":"03453","name":"Cloppenburg","type":"Landkreis"},"federalState":{"key":"03","name":"Niedersachsen"}},{"name":"Fliederweg","postalCode":"23758","locality":"Oldenburg in Holstein","municipality":{"key":"01055033","name":"Oldenburg in Holstein, Stadt","type":"Stadt"},"district":{"key":"01055","name":"Ostholstein","type":"Kreis"},"federalState":{"key":"01","name":"Schleswig-Holstein"}},{"name":"Fliederweg","postalCode":"26135","locality":"Oldenburg","municipality":{"key":"03403000","name":"Oldenburg (Oldenburg), Stadt","type":"Kreisfreie_Stadt"},"district":{"key":"03403","name":"Oldenburg (Oldenburg), Stadt","type":"Kreisfreie_Stadt"},"federalState":{"key":"03","name":"Niedersachsen"}},{"name":"Fliederweg","postalCode":"27798","locality":"Hude (Oldenburg)","municipality":{"key":"03458010","name":"Hude (Oldb)","type":"Kreisangehörige_Gemeinde"},"district":{"key":"03458","name":"Oldenburg","type":"Landkreis"},"federalState":{"key":"03","name":"Niedersachsen"}},{"name":"Fliederweg","postalCode":"49632","locality":"Essen (Oldenburg)","municipality":{"key":"03453006","name":"Essen (Oldenburg)","type":"Kreisangehörige_Gemeinde"},"district":{"key":"03453","name":"Cloppenburg","type":"Landkreis"},"federalState":{"key":"03","name":"Niedersachsen"}},{"name":"Fliednerstr.","postalCode":"26125","locality":"Oldenburg","municipality":{"key":"03403000","name":"Oldenburg (Oldenburg), Stadt","type":"Kreisfreie_Stadt"},"district":{"key":"03403","name":"Oldenburg (Oldenburg), Stadt","type":"Kreisfreie_Stadt"},"federalState":{"key":"03","name":"Niedersachsen"}},{"name":"Fliehweg","postalCode":"26125","locality":"Oldenburg","municipality":{"key":"03403000","name":"Oldenburg (Oldenburg), Stadt","type":"Kreisfreie_Stadt"},"district":{"key":"03403","name":"Oldenburg (Oldenburg), Stadt","type":"Kreisfreie_Stadt"},"federalState":{"key":"03","name":"Niedersachsen"}},{"name":"Gabelsbergerweg","postalCode":"26129","locality":"Oldenburg","municipality":{"key":"03403000","name":"Oldenburg (Oldenburg), Stadt","type":"Kreisfreie_Stadt"},"district":{"key":"03403","name":"Oldenburg (Oldenburg), Stadt","type":"Kreisfreie_Stadt"},"federalState":{"key":"03","name":"Niedersachsen"}},{"name":"Gabelweg","postalCode":"26127","locality":"Oldenburg","municipality":{"key":"03403000","name":"Oldenburg (Oldenburg), Stadt","type":"Kreisfreie_Stadt"},"district":{"key":"03403","name":"Oldenburg (Oldenburg), Stadt","type":"Kreisfreie_Stadt"},"federalState":{"key":"03","name":"Niedersachsen"}},{"name":"Gabriele-Münter-Str.","postalCode":"26133","locality":"Oldenburg","municipality":{"key":"03403000","name":"Oldenburg (Oldenburg), Stadt","type":"Kreisfreie_Stadt"},"district":{"key":"03403","name":"Oldenburg (Oldenburg), Stadt","type":"Kreisfreie_Stadt"},"federalState":{"key":"03","name":"Niedersachsen"}},{"name":"Gagelweg","postalCode":"26135","locality":"Oldenburg","municipality":{"key":"03403000","name":"Oldenburg (Oldenburg), Stadt","type":"Kreisfreie_Stadt"},"district":{"key":"03403","name":"Oldenburg (Oldenburg), Stadt","type":"Kreisfreie_Stadt"},"federalState":{"key":"03","name":"Niedersachsen"}},{"name":"Galileiweg","postalCode":"26133","locality":"Oldenburg","municipality":{"key":"03403000","name":"Oldenburg (Oldenburg), Stadt","type":"Kreisfreie_Stadt"},"district":{"key":"03403","name":"Oldenburg (Oldenburg), Stadt","type":"Kreisfreie_Stadt"},"federalState":{"key":"03","name":"Niedersachsen"}},{"name":"Ganterweg","postalCode":"26125","locality":"Oldenburg","municipality":{"key":"03403000","name":"Oldenburg (Oldenburg), Stadt","type":"Kreisfreie_Stadt"},"district":{"key":"03403","name":"Oldenburg (Oldenburg), Stadt","type":"Kreisfreie_Stadt"},"federalState":{"key":"03","name":"Niedersachsen"}},{"name":"Gardelerweg","postalCode":"26131","locality":"Oldenburg","municipality":{"key":"03403000","name":"Oldenburg (Oldenburg), Stadt","type":"Kreisfreie_Stadt"},"district":{"key":"03403","name":"Oldenburg (Oldenburg), Stadt","type":"Kreisfreie_Stadt"},"federalState":{"key":"03","name":"Niedersachsen"}},{"name":"Garener Ring","postalCode":"49699","locality":"Lindern (Oldenburg)","municipality":{"key":"03453010","name":"Lindern (Oldenburg)","type":"Kreisangehörige_Gemeinde"},"district":{"key":"03453","name":"Cloppenburg","type":"Landkreis"},"federalState":{"key":"03","name":"Niedersachsen"}},{"name":"Garnholter Str.","postalCode":"26127","locality":"Oldenburg","municipality":{"key":"03403000","name":"Oldenburg (Oldenburg), Stadt","type":"Kreisfreie_Stadt"},"district":{"key":"03403","name":"Oldenburg (Oldenburg), Stadt","type":"Kreisfreie_Stadt"},"federalState":{"key":"03","name":"Niedersachsen"}},{"name":"Gartenstr.","postalCode":"26122","locality":"Oldenburg","municipality":{"key":"03403000","name":"Oldenburg (Oldenburg), Stadt","type":"Kreisfreie_Stadt"},"district":{"key":"03403","name":"Oldenburg (Oldenburg), Stadt","type":"Kreisfreie_Stadt"},"federalState":{"key":"03","name":"Niedersachsen"}},{"name":"Gartenstr.","postalCode":"27798","locality":"Hude (Oldenburg)","municipality":{"key":"03458010","name":"Hude (Oldb)","type":"Kreisangehörige_Gemeinde"},"district":{"key":"03458","name":"Oldenburg","type":"Landkreis"},"federalState":{"key":"03","name":"Niedersachsen"}},{"name":"Gartenstr.","postalCode":"49632","locality":"Essen (Oldenburg)","municipality":{"key":"03453006","name":"Essen (Oldenburg)","type":"Kreisangehörige_Gemeinde"},"district":{"key":"03453","name":"Cloppenburg","type":"Landkreis"},"federalState":{"key":"03","name":"Niedersachsen"}},{"name":"Gartenstr.","postalCode":"49692","locality":"Cappeln (Oldenburg)","municipality":{"key":"03453003","name":"Cappeln (Oldenburg)","type":"Kreisangehörige_Gemeinde"},"district":{"key":"03453","name":"Cloppenburg","type":"Landkreis"},"federalState":{"key":"03","name":"Niedersachsen"}},{"name":"Gartenstr.","postalCode":"49699","locality":"Lindern (Oldenburg)","municipality":{"key":"03453010","name":"Lindern (Oldenburg)","type":"Kreisangehörige_Gemeinde"},"district":{"key":"03453","name":"Cloppenburg","type":"Landkreis"},"federalState":{"key":"03","name":"Niedersachsen"}},{"name":"Gartentorstr.","postalCode":"26122","locality":"Oldenburg","municipality":{"key":"03403000","name":"Oldenburg (Oldenburg), Stadt","type":"Kreisfreie_Stadt"},"district":{"key":"03403","name":"Oldenburg (Oldenburg), Stadt","type":"Kreisfreie_Stadt"},"federalState":{"key":"03","name":"Niedersachsen"}},{"name":"Gärtnerstr.","postalCode":"26122","locality":"Oldenburg","municipality":{"key":"03403000","name":"Oldenburg (Oldenburg), Stadt","type":"Kreisfreie_Stadt"},"district":{"key":"03403","name":"Oldenburg (Oldenburg), Stadt","type":"Kreisfreie_Stadt"},"federalState":{"key":"03","name":"Niedersachsen"}},{"name":"Gasweg","postalCode":"26135","locality":"Oldenburg","municipality":{"key":"03403000","name":"Oldenburg (Oldenburg), Stadt","type":"Kreisfreie_Stadt"},"district":{"key":"03403","name":"Oldenburg (Oldenburg), Stadt","type":"Kreisfreie_Stadt"},"federalState":{"key":"03","name":"Niedersachsen"}},{"name":"Gaußstr.","postalCode":"26129","locality":"Oldenburg","municipality":{"key":"03403000","name":"Oldenburg (Oldenburg), Stadt","type":"Kreisfreie_Stadt"},"district":{"key":"03403","name":"Oldenburg (Oldenburg), Stadt","type":"Kreisfreie_Stadt"},"federalState":{"key":"03","name":"Niedersachsen"}},{"name":"Gebkenweg","postalCode":"26127","locality":"Oldenburg","municipality":{"key":"03403000","name":"Oldenburg (Oldenburg), Stadt","type":"Kreisfreie_Stadt"},"district":{"key":"03403","name":"Oldenburg (Oldenburg), Stadt","type":"Kreisfreie_Stadt"},"federalState":{"key":"03","name":"Niedersachsen"}},{"name":"Gebrüder-Grimm-Str.","postalCode":"26133","locality":"Oldenburg","municipality":{"key":"03403000","name":"Oldenburg (Oldenburg), Stadt","type":"Kreisfreie_Stadt"},"district":{"key":"03403","name":"Oldenburg (Oldenburg), Stadt","type":"Kreisfreie_Stadt"},"federalState":{"key":"03","name":"Niedersachsen"}},{"name":"Geesthöhe","postalCode":"26125","locality":"Oldenburg","municipality":{"key":"03403000","name":"Oldenburg (Oldenburg), Stadt","type":"Kreisfreie_Stadt"},"district":{"key":"03403","name":"Oldenburg (Oldenburg), Stadt","type":"Kreisfreie_Stadt"},"federalState":{"key":"03","name":"Niedersachsen"}},{"name":"Geestkamp","postalCode":"26125","locality":"Oldenburg","municipality":{"key":"03403000","name":"Oldenburg (Oldenburg), Stadt","type":"Kreisfreie_Stadt"},"district":{"key":"03403","name":"Oldenburg (Oldenburg), Stadt","type":"Kreisfreie_Stadt"},"federalState":{"key":"03","name":"Niedersachsen"}},{"name":"Gegen den Diek","postalCode":"49632","locality":"Essen (Oldenburg)","municipality":{"key":"03453006","name":"Essen (Oldenburg)","type":"Kreisangehörige_Gemeinde"},"district":{"key":"03453","name":"Cloppenburg","type":"Landkreis"},"federalState":{"key":"03","name":"Niedersachsen"}},{"name":"Gellenerhörne","postalCode":"27798","locality":"Hude (Oldenburg)","municipality":{"key":"03458010","name":"Hude (Oldb)","type":"Kreisangehörige_Gemeinde"},"district":{"key":"03458","name":"Oldenburg","type":"Landkreis"},"federalState":{"key":"03","name":"Niedersachsen"}},{"name":"Georg-Bölts-Str.","postalCode":"26135","locality":"Oldenburg","municipality":{"key":"03403000","name":"Oldenburg (Oldenburg), Stadt","type":"Kreisfreie_Stadt"},"district":{"key":"03403","name":"Oldenburg (Oldenburg), Stadt","type":"Kreisfreie_Stadt"},"federalState":{"key":"03","name":"Niedersachsen"}},{"name":"Georg-Droste-Str.","postalCode":"27798","locality":"Hude (Oldenburg)","municipality":{"key":"03458010","name":"Hude (Oldb)","type":"Kreisangehörige_Gemeinde"},"district":{"key":"03458","name":"Oldenburg","type":"Landkreis"},"federalState":{"key":"03","name":"Niedersachsen"}},{"name":"Georg-Elser-Str.","postalCode":"26123","locality":"Oldenburg","municipality":{"key":"03403000","name":"Oldenburg (Oldenburg), Stadt","type":"Kreisfreie_Stadt"},"district":{"key":"03403","name":"Oldenburg (Oldenburg), Stadt","type":"Kreisfreie_Stadt"},"federalState":{"key":"03","name":"Niedersachsen"}},{"name":"Georg-Sello-Weg","postalCode":"26131","locality":"Oldenburg","municipality":{"key":"03403000","name":"Oldenburg (Oldenburg), Stadt","type":"Kreisfreie_Stadt"},"district":{"key":"03403","name":"Oldenburg (Oldenburg), Stadt","type":"Kreisfreie_Stadt"},"federalState":{"key":"03","name":"Niedersachsen"}},{"name":"Georgstr.","postalCode":"26121","locality":"Oldenburg","municipality":{"key":"03403000","name":"Oldenburg (Oldenburg), Stadt","type":"Kreisfreie_Stadt"},"district":{"key":"03403","name":"Oldenburg (Oldenburg), Stadt","type":"Kreisfreie_Stadt"},"federalState":{"key":"03","name":"Niedersachsen"}},{"name":"Georgstr.","postalCode":"27798","locality":"Hude (Oldenburg)","municipality":{"key":"03458010","name":"Hude (Oldb)","type":"Kreisangehörige_Gemeinde"},"district":{"key":"03458","name":"Oldenburg","type":"Landkreis"},"federalState":{"key":"03","name":"Niedersachsen"}},{"name":"Georg-von-der-Vring-Str.","postalCode":"26131","locality":"Oldenburg","municipality":{"key":"03403000","name":"Oldenburg (Oldenburg), Stadt","type":"Kreisfreie_Stadt"},"district":{"key":"03403","name":"Oldenburg (Oldenburg), Stadt","type":"Kreisfreie_Stadt"},"federalState":{"key":"03","name":"Niedersachsen"}},{"name":"Gerberhof","postalCode":"26122","locality":"Oldenburg","municipality":{"key":"03403000","name":"Oldenburg (Oldenburg), Stadt","type":"Kreisfreie_Stadt"},"district":{"key":"03403","name":"Oldenburg (Oldenburg), Stadt","type":"Kreisfreie_Stadt"},"federalState":{"key":"03","name":"Niedersachsen"}},{"name":"Gerd-Achgelis-Weg","postalCode":"27798","locality":"Hude (Oldenburg)","municipality":{"key":"03458010","name":"Hude (Oldb)","type":"Kreisangehörige_Gemeinde"},"district":{"key":"03458","name":"Oldenburg","type":"Landkreis"},"federalState":{"key":"03","name":"Niedersachsen"}},{"name":"Gerhard-Muntink-Str.","postalCode":"26133","locality":"Oldenburg","municipality":{"key":"03403000","name":"Oldenburg (Oldenburg), Stadt","type":"Kreisfreie_Stadt"},"district":{"key":"03403","name":"Oldenburg (Oldenburg), Stadt","type":"Kreisfreie_Stadt"},"federalState":{"key":"03","name":"Niedersachsen"}},{"name":"Gerhard-Schnitger-Str.","postalCode":"26133","locality":"Oldenburg","municipality":{"key":"03403000","name":"Oldenburg (Oldenburg), Stadt","type":"Kreisfreie_Stadt"},"district":{"key":"03403","name":"Oldenburg (Oldenburg), Stadt","type":"Kreisfreie_Stadt"},"federalState":{"key":"03","name":"Niedersachsen"}},{"name":"Gerhard-Stalling-Str.","postalCode":"26135","locality":"Oldenburg","municipality":{"key":"03403000","name":"Oldenburg (Oldenburg), Stadt","type":"Kreisfreie_Stadt"},"district":{"key":"03403","name":"Oldenburg (Oldenburg), Stadt","type":"Kreisfreie_Stadt"},"federalState":{"key":"03","name":"Niedersachsen"}},{"name":"Gerh.-Hauptmann-Weg","postalCode":"27798","locality":"Hude (Oldenburg)","municipality":{"key":"03458010","name":"Hude (Oldb)","type":"Kreisangehörige_Gemeinde"},"district":{"key":"03458","name":"Oldenburg","type":"Landkreis"},"federalState":{"key":"03","name":"Niedersachsen"}},{"name":"Gerichtsstr.","postalCode":"26135","locality":"Oldenburg","municipality":{"key":"03403000","name":"Oldenburg (Oldenburg), Stadt","type":"Kreisfreie_Stadt"},"district":{"key":"03403","name":"Oldenburg (Oldenburg), Stadt","type":"Kreisfreie_Stadt"},"federalState":{"key":"03","name":"Niedersachsen"}},{"name":"Gersteweg","postalCode":"26125","locality":"Oldenburg","municipality":{"key":"03403000","name":"Oldenburg (Oldenburg), Stadt","type":"Kreisfreie_Stadt"},"district":{"key":"03403","name":"Oldenburg (Oldenburg), Stadt","type":"Kreisfreie_Stadt"},"federalState":{"key":"03","name":"Niedersachsen"}},{"name":"Gertrud-Bäumer-Weg","postalCode":"26131","locality":"Oldenburg","municipality":{"key":"03403000","name":"Oldenburg (Oldenburg), Stadt","type":"Kreisfreie_Stadt"},"district":{"key":"03403","name":"Oldenburg (Oldenburg), Stadt","type":"Kreisfreie_Stadt"},"federalState":{"key":"03","name":"Niedersachsen"}},{"name":"Gertrudenstr.","postalCode":"26121","locality":"Oldenburg","municipality":{"key":"03403000","name":"Oldenburg (Oldenburg), Stadt","type":"Kreisfreie_Stadt"},"district":{"key":"03403","name":"Oldenburg (Oldenburg), Stadt","type":"Kreisfreie_Stadt"},"federalState":{"key":"03","name":"Niedersachsen"}},{"name":"Geschwister-Scholl-Str.","postalCode":"26131","locality":"Oldenburg","municipality":{"key":"03403000","name":"Oldenburg (Oldenburg), Stadt","type":"Kreisfreie_Stadt"},"district":{"key":"03403","name":"Oldenburg (Oldenburg), Stadt","type":"Kreisfreie_Stadt"},"federalState":{"key":"03","name":"Niedersachsen"}},{"name":"Giddendorfer Weg","postalCode":"23758","locality":"Oldenburg in Holstein","municipality":{"key":"01055033","name":"Oldenburg in Holstein, Stadt","type":"Stadt"},"district":{"key":"01055","name":"Ostholstein","type":"Kreis"},"federalState":{"key":"01","name":"Schleswig-Holstein"}},{"name":"Giesenweg","postalCode":"26133","locality":"Oldenburg","municipality":{"key":"03403000","name":"Oldenburg (Oldenburg), Stadt","type":"Kreisfreie_Stadt"},"district":{"key":"03403","name":"Oldenburg (Oldenburg), Stadt","type":"Kreisfreie_Stadt"},"federalState":{"key":"03","name":"Niedersachsen"}},{"name":"Gildeplatz","postalCode":"23758","locality":"Oldenburg in Holstein","municipality":{"key":"01055033","name":"Oldenburg in Holstein, Stadt","type":"Stadt"},"district":{"key":"01055","name":"Ostholstein","type":"Kreis"},"federalState":{"key":"01","name":"Schleswig-Holstein"}},{"name":"Gildestr.","postalCode":"26133","locality":"Oldenburg","municipality":{"key":"03403000","name":"Oldenburg (Oldenburg), Stadt","type":"Kreisfreie_Stadt"},"district":{"key":"03403","name":"Oldenburg (Oldenburg), Stadt","type":"Kreisfreie_Stadt"},"federalState":{"key":"03","name":"Niedersachsen"}},{"name":"Gimpelstr.","postalCode":"26131","locality":"Oldenburg","municipality":{"key":"03403000","name":"Oldenburg (Oldenburg), Stadt","type":"Kreisfreie_Stadt"},"district":{"key":"03403","name":"Oldenburg (Oldenburg), Stadt","type":"Kreisfreie_Stadt"},"federalState":{"key":"03","name":"Niedersachsen"}},{"name":"Ginger Str.","postalCode":"49699","locality":"Lindern (Oldenburg)","municipality":{"key":"03453010","name":"Lindern (Oldenburg)","type":"Kreisangehörige_Gemeinde"},"district":{"key":"03453","name":"Cloppenburg","type":"Landkreis"},"federalState":{"key":"03","name":"Niedersachsen"}},{"name":"Ginsterstr.","postalCode":"49692","locality":"Cappeln (Oldenburg)","municipality":{"key":"03453003","name":"Cappeln (Oldenburg)","type":"Kreisangehörige_Gemeinde"},"district":{"key":"03453","name":"Cloppenburg","type":"Landkreis"},"federalState":{"key":"03","name":"Niedersachsen"}},{"name":"Ginsterweg","postalCode":"23758","locality":"Oldenburg in Holstein","municipality":{"key":"01055033","name":"Oldenburg in Holstein, Stadt","type":"Stadt"},"district":{"key":"01055","name":"Ostholstein","type":"Kreis"},"federalState":{"key":"01","name":"Schleswig-Holstein"}},{"name":"Hauptstr.","postalCode":"27243","locality":"Prinzhöfte","municipality":{"key":"03458012","name":"Prinzhöfte","type":"Kreisangehörige_Gemeinde"},"district":{"key":"03458","name":"Oldenburg","type":"Landkreis"},"federalState":{"key":"03","name":"Niedersachsen"}},{"name":"Heidkamp","postalCode":"27243","locality":"Prinzhöfte","municipality":{"key":"03458012","name":"Prinzhöfte","type":"Kreisangehörige_Gemeinde"},"district":{"key":"03458","name":"Oldenburg","type":"Landkreis"},"federalState":{"key":"03","name":"Niedersachsen"}},{"name":"Heilstättenweg","postalCode":"27243","locality":"Prinzhöfte","municipality":{"key":"03458012","name":"Prinzhöfte","type":"Kreisangehörige_Gemeinde"},"district":{"key":"03458","name":"Oldenburg","type":"Landkreis"},"federalState":{"key":"03","name":"Niedersachsen"}},{"name":"Henstedter Damm","postalCode":"27243","locality":"Prinzhöfte","municipality":{"key":"03458012","name":"Prinzhöfte","type":"Kreisangehörige_Gemeinde"},"district":{"key":"03458","name":"Oldenburg","type":"Landkreis"},"federalState":{"key":"03","name":"Niedersachsen"}},{"name":"Henstedter Str.","postalCode":"27243","locality":"Prinzhöfte","municipality":{"key":"03458012","name":"Prinzhöfte","type":"Kreisangehörige_Gemeinde"},"district":{"key":"03458","name":"Oldenburg","type":"Landkreis"},"federalState":{"key":"03","name":"Niedersachsen"}},{"name":"Hölscherholz","postalCode":"27243","locality":"Prinzhöfte","municipality":{"key":"03458012","name":"Prinzhöfte","type":"Kreisangehörige_Gemeinde"},"district":{"key":"03458","name":"Oldenburg","type":"Landkreis"},"federalState":{"key":"03","name":"Niedersachsen"}},{"name":"In den Wiesen","postalCode":"27243","locality":"Prinzhöfte","municipality":{"key":"03458012","name":"Prinzhöfte","type":"Kreisangehörige_Gemeinde"},"district":{"key":"03458","name":"Oldenburg","type":"Landkreis"},"federalState":{"key":"03","name":"Niedersachsen"}},{"name":"Ippener Str.","postalCode":"27243","locality":"Prinzhöfte","municipality":{"key":"03458012","name":"Prinzhöfte","type":"Kreisangehörige_Gemeinde"},"district":{"key":"03458","name":"Oldenburg","type":"Landkreis"},"federalState":{"key":"03","name":"Niedersachsen"}},{"name":"Jagdweg","postalCode":"26133","locality":"Oldenburg","municipality":{"key":"03403000","name":"Oldenburg (Oldenburg), Stadt","type":"Kreisfreie_Stadt"},"district":{"key":"03403","name":"Oldenburg (Oldenburg), Stadt","type":"Kreisfreie_Stadt"},"federalState":{"key":"03","name":"Niedersachsen"}},{"name":"Jägerstr.","postalCode":"26121","locality":"Oldenburg","municipality":{"key":"03403000","name":"Oldenburg (Oldenburg), Stadt","type":"Kreisfreie_Stadt"},"district":{"key":"03403","name":"Oldenburg (Oldenburg), Stadt","type":"Kreisfreie_Stadt"},"federalState":{"key":"03","name":"Niedersachsen"}},{"name":"Jägerstr.","postalCode":"26129","locality":"Oldenburg","municipality":{"key":"03403000","name":"Oldenburg (Oldenburg), Stadt","type":"Kreisfreie_Stadt"},"district":{"key":"03403","name":"Oldenburg (Oldenburg), Stadt","type":"Kreisfreie_Stadt"},"federalState":{"key":"03","name":"Niedersachsen"}},{"name":"Jägerstr.","postalCode":"27798","locality":"Hude (Oldenburg)","municipality":{"key":"03458010","name":"Hude (Oldb)","type":"Kreisangehörige_Gemeinde"},"district":{"key":"03458","name":"Oldenburg","type":"Landkreis"},"federalState":{"key":"03","name":"Niedersachsen"}},{"name":"Jahnstr.","postalCode":"26122","locality":"Oldenburg","municipality":{"key":"03403000","name":"Oldenburg (Oldenburg), Stadt","type":"Kreisfreie_Stadt"},"district":{"key":"03403","name":"Oldenburg (Oldenburg), Stadt","type":"Kreisfreie_Stadt"},"federalState":{"key":"03","name":"Niedersachsen"}},{"name":"Jahnstr.","postalCode":"27798","locality":"Hude (Oldenburg)","municipality":{"key":"03458010","name":"Hude (Oldb)","type":"Kreisangehörige_Gemeinde"},"district":{"key":"03458","name":"Oldenburg","type":"Landkreis"},"federalState":{"key":"03","name":"Niedersachsen"}},{"name":"Jakob-Backer-Weg","postalCode":"27798","locality":"Hude (Oldenburg)","municipality":{"key":"03458010","name":"Hude (Oldb)","type":"Kreisangehörige_Gemeinde"},"district":{"key":"03458","name":"Oldenburg","type":"Landkreis"},"federalState":{"key":"03","name":"Niedersachsen"}},{"name":"Jakobistr.","postalCode":"26121","locality":"Oldenburg","municipality":{"key":"03403000","name":"Oldenburg (Oldenburg), Stadt","type":"Kreisfreie_Stadt"},"district":{"key":"03403","name":"Oldenburg (Oldenburg), Stadt","type":"Kreisfreie_Stadt"},"federalState":{"key":"03","name":"Niedersachsen"}},{"name":"Jammertal","postalCode":"49699","locality":"Lindern (Oldenburg)","municipality":{"key":"03453010","name":"Lindern (Oldenburg)","type":"Kreisangehörige_Gemeinde"},"district":{"key":"03453","name":"Cloppenburg","type":"Landkreis"},"federalState":{"key":"03","name":"Niedersachsen"}},{"name":"Jan-Oeltjen-Str.","postalCode":"26133","locality":"Oldenburg","municipality":{"key":"03403000","name":"Oldenburg (Oldenburg), Stadt","type":"Kreisfreie_Stadt"},"district":{"key":"03403","name":"Oldenburg (Oldenburg), Stadt","type":"Kreisfreie_Stadt"},"federalState":{"key":"03","name":"Niedersachsen"}},{"name":"Janusz-Korczak-Weg","postalCode":"26127","locality":"Oldenburg","municipality":{"key":"03403000","name":"Oldenburg (Oldenburg), Stadt","type":"Kreisfreie_Stadt"},"district":{"key":"03403","name":"Oldenburg (Oldenburg), Stadt","type":"Kreisfreie_Stadt"},"federalState":{"key":"03","name":"Niedersachsen"}},{"name":"Janzenweg","postalCode":"27798","locality":"Hude (Oldenburg)","municipality":{"key":"03458010","name":"Hude (Oldb)","type":"Kreisangehörige_Gemeinde"},"district":{"key":"03458","name":"Oldenburg","type":"Landkreis"},"federalState":{"key":"03","name":"Niedersachsen"}},{"name":"Jasminweg","postalCode":"23758","locality":"Oldenburg in Holstein","municipality":{"key":"01055033","name":"Oldenburg in Holstein, Stadt","type":"Stadt"},"district":{"key":"01055","name":"Ostholstein","type":"Kreis"},"federalState":{"key":"01","name":"Schleswig-Holstein"}},{"name":"Jawlenskystr.","postalCode":"26133","locality":"Oldenburg","municipality":{"key":"03403000","name":"Oldenburg (Oldenburg), Stadt","type":"Kreisfreie_Stadt"},"district":{"key":"03403","name":"Oldenburg (Oldenburg), Stadt","type":"Kreisfreie_Stadt"},"federalState":{"key":"03","name":"Niedersachsen"}},{"name":"Jebensweg","postalCode":"23758","locality":"Oldenburg in Holstein","municipality":{"key":"01055033","name":"Oldenburg in Holstein, Stadt","type":"Stadt"},"district":{"key":"01055","name":"Ostholstein","type":"Kreis"},"federalState":{"key":"01","name":"Schleswig-Holstein"}},{"name":"Jenaer Str.","postalCode":"26125","locality":"Oldenburg","municipality":{"key":"03403000","name":"Oldenburg (Oldenburg), Stadt","type":"Kreisfreie_Stadt"},"district":{"key":"03403","name":"Oldenburg (Oldenburg), Stadt","type":"Kreisfreie_Stadt"},"federalState":{"key":"03","name":"Niedersachsen"}},{"name":"Johannes-Brahms-Str.","postalCode":"26135","locality":"Oldenburg","municipality":{"key":"03403000","name":"Oldenburg (Oldenburg), Stadt","type":"Kreisfreie_Stadt"},"district":{"key":"03403","name":"Oldenburg (Oldenburg), Stadt","type":"Kreisfreie_Stadt"},"federalState":{"key":"03","name":"Niedersachsen"}},{"name":"Johannes-Gutenberg-Str.","postalCode":"49632","locality":"Essen (Oldenburg)","municipality":{"key":"03453006","name":"Essen (Oldenburg)","type":"Kreisangehörige_Gemeinde"},"district":{"key":"03453","name":"Cloppenburg","type":"Landkreis"},"federalState":{"key":"03","name":"Niedersachsen"}},{"name":"Johann-Gerdes-Str.","postalCode":"26125","locality":"Oldenburg","municipality":{"key":"03403000","name":"Oldenburg (Oldenburg), Stadt","type":"Kreisfreie_Stadt"},"district":{"key":"03403","name":"Oldenburg (Oldenburg), Stadt","type":"Kreisfreie_Stadt"},"federalState":{"key":"03","name":"Niedersachsen"}},{"name":"Johann-Heinrich-Brandes-Str.","postalCode":"26133","locality":"Oldenburg","municipality":{"key":"03403000","name":"Oldenburg (Oldenburg), Stadt","type":"Kreisfreie_Stadt"},"district":{"key":"03403","name":"Oldenburg (Oldenburg), Stadt","type":"Kreisfreie_Stadt"},"federalState":{"key":"03","name":"Niedersachsen"}},{"name":"Johann-Hinrich-Engelbart-Weg","postalCode":"26131","locality":"Oldenburg","municipality":{"key":"03403000","name":"Oldenburg (Oldenburg), Stadt","type":"Kreisfreie_Stadt"},"district":{"key":"03403","name":"Oldenburg (Oldenburg), Stadt","type":"Kreisfreie_Stadt"},"federalState":{"key":"03","name":"Niedersachsen"}},{"name":"Johannisdorfer Weg","postalCode":"23758","locality":"Oldenburg in Holstein","municipality":{"key":"01055033","name":"Oldenburg in Holstein, Stadt","type":"Stadt"},"district":{"key":"01055","name":"Ostholstein","type":"Kreis"},"federalState":{"key":"01","name":"Schleswig-Holstein"}},{"name":"Johannisgang","postalCode":"26121","locality":"Oldenburg","municipality":{"key":"03403000","name":"Oldenburg (Oldenburg), Stadt","type":"Kreisfreie_Stadt"},"district":{"key":"03403","name":"Oldenburg (Oldenburg), Stadt","type":"Kreisfreie_Stadt"},"federalState":{"key":"03","name":"Niedersachsen"}},{"name":"Johannisstr.","postalCode":"23758","locality":"Oldenburg in Holstein","municipality":{"key":"01055033","name":"Oldenburg in Holstein, Stadt","type":"Stadt"},"district":{"key":"01055","name":"Ostholstein","type":"Kreis"},"federalState":{"key":"01","name":"Schleswig-Holstein"}},{"name":"Johannisstr.","postalCode":"26121","locality":"Oldenburg","municipality":{"key":"03403000","name":"Oldenburg (Oldenburg), Stadt","type":"Kreisfreie_Stadt"},"district":{"key":"03403","name":"Oldenburg (Oldenburg), Stadt","type":"Kreisfreie_Stadt"},"federalState":{"key":"03","name":"Niedersachsen"}},{"name":"Johann-Justus-Weg","postalCode":"26127","locality":"Oldenburg","municipality":{"key":"03403000","name":"Oldenburg (Oldenburg), Stadt","type":"Kreisfreie_Stadt"},"district":{"key":"03403","name":"Oldenburg (Oldenburg), Stadt","type":"Kreisfreie_Stadt"},"federalState":{"key":"03","name":"Niedersachsen"}},{"name":"Johann-Liss-Str.","postalCode":"23758","locality":"Oldenburg in Holstein","municipality":{"key":"01055033","name":"Oldenburg in Holstein, Stadt","type":"Stadt"},"district":{"key":"01055","name":"Ostholstein","type":"Kreis"},"federalState":{"key":"01","name":"Schleswig-Holstein"}},{"name":"Josefstr.","postalCode":"49632","locality":"Essen (Oldenburg)","municipality":{"key":"03453006","name":"Essen (Oldenburg)","type":"Kreisangehörige_Gemeinde"},"district":{"key":"03453","name":"Cloppenburg","type":"Landkreis"},"federalState":{"key":"03","name":"Niedersachsen"}},{"name":"Joseph-Bernhard-Winck-Str.","postalCode":"26133","locality":"Oldenburg","municipality":{"key":"03403000","name":"Oldenburg (Oldenburg), Stadt","type":"Kreisfreie_Stadt"},"district":{"key":"03403","name":"Oldenburg (Oldenburg), Stadt","type":"Kreisfreie_Stadt"},"federalState":{"key":"03","name":"Niedersachsen"}},{"name":"Juiststr.","postalCode":"26131","locality":"Oldenburg","municipality":{"key":"03403000","name":"Oldenburg (Oldenburg), Stadt","type":"Kreisfreie_Stadt"},"district":{"key":"03403","name":"Oldenburg (Oldenburg), Stadt","type":"Kreisfreie_Stadt"},"federalState":{"key":"03","name":"Niedersachsen"}},{"name":"Julius-Leber-Str.","postalCode":"26129","locality":"Oldenburg","municipality":{"key":"03403000","name":"Oldenburg (Oldenburg), Stadt","type":"Kreisfreie_Stadt"},"district":{"key":"03403","name":"Oldenburg (Oldenburg), Stadt","type":"Kreisfreie_Stadt"},"federalState":{"key":"03","name":"Niedersachsen"}},{"name":"Junkerburg","postalCode":"26123","locality":"Oldenburg","municipality":{"key":"03403000","name":"Oldenburg (Oldenburg), Stadt","type":"Kreisfreie_Stadt"},"district":{"key":"03403","name":"Oldenburg (Oldenburg), Stadt","type":"Kreisfreie_Stadt"},"federalState":{"key":"03","name":"Niedersachsen"}},{"name":"Junkerstr.","postalCode":"26123","locality":"Oldenburg","municipality":{"key":"03403000","name":"Oldenburg (Oldenburg), Stadt","type":"Kreisfreie_Stadt"},"district":{"key":"03403","name":"Oldenburg (Oldenburg), Stadt","type":"Kreisfreie_Stadt"},"federalState":{"key":"03","name":"Niedersachsen"}},{"name":"Justin-Hüppe-Ring","postalCode":"26133","locality":"Oldenburg","municipality":{"key":"03403000","name":"Oldenburg (Oldenburg), Stadt","type":"Kreisfreie_Stadt"},"district":{"key":"03403","name":"Oldenburg (Oldenburg), Stadt","type":"Kreisfreie_Stadt"},"federalState":{"key":"03","name":"Niedersachsen"}},{"name":"Justus-von-Liebig-Str.","postalCode":"26133","locality":"Oldenburg","municipality":{"key":"03403000","name":"Oldenburg (Oldenburg), Stadt","type":"Kreisfreie_Stadt"},"district":{"key":"03403","name":"Oldenburg (Oldenburg), Stadt","type":"Kreisfreie_Stadt"},"federalState":{"key":"03","name":"Niedersachsen"}},{"name":"Kaiserhof","postalCode":"49632","locality":"Essen (Oldenburg)","municipality":{"key":"03453006","name":"Essen (Oldenburg)","type":"Kreisangehörige_Gemeinde"},"district":{"key":"03453","name":"Cloppenburg","type":"Landkreis"},"federalState":{"key":"03","name":"Niedersachsen"}},{"name":"Kaiserstr.","postalCode":"26122","locality":"Oldenburg","municipality":{"key":"03403000","name":"Oldenburg (Oldenburg), Stadt","type":"Kreisfreie_Stadt"},"district":{"key":"03403","name":"Oldenburg (Oldenburg), Stadt","type":"Kreisfreie_Stadt"},"federalState":{"key":"03","name":"Niedersachsen"}},{"name":"Kalefehn","postalCode":"49699","locality":"Lindern (Oldenburg)","municipality":{"key":"03453010","name":"Lindern (Oldenburg)","type":"Kreisangehörige_Gemeinde"},"district":{"key":"03453","name":"Cloppenburg","type":"Landkreis"},"federalState":{"key":"03","name":"Niedersachsen"}},{"name":"Kalmusweg","postalCode":"26135","locality":"Oldenburg","municipality":{"key":"03403000","name":"Oldenburg (Oldenburg), Stadt","type":"Kreisfreie_Stadt"},"district":{"key":"03403","name":"Oldenburg (Oldenburg), Stadt","type":"Kreisfreie_Stadt"},"federalState":{"key":"03","name":"Niedersachsen"}},{"name":"Kammersand","postalCode":"49699","locality":"Lindern (Oldenburg)","municipality":{"key":"03453010","name":"Lindern (Oldenburg)","type":"Kreisangehörige_Gemeinde"},"district":{"key":"03453","name":"Cloppenburg","type":"Landkreis"},"federalState":{"key":"03","name":"Niedersachsen"}},{"name":"Kämpener Dorfstr.","postalCode":"49699","locality":"Lindern (Oldenburg)","municipality":{"key":"03453010","name":"Lindern (Oldenburg)","type":"Kreisangehörige_Gemeinde"},"district":{"key":"03453","name":"Cloppenburg","type":"Landkreis"},"federalState":{"key":"03","name":"Niedersachsen"}},{"name":"Kämper Str.","postalCode":"49699","locality":"Lindern (Oldenburg)","municipality":{"key":"03453010","name":"Lindern (Oldenburg)","type":"Kreisangehörige_Gemeinde"},"district":{"key":"03453","name":"Cloppenburg","type":"Landkreis"},"federalState":{"key":"03","name":"Niedersachsen"}},{"name":"Kampstr.","postalCode":"26135","locality":"Oldenburg","municipality":{"key":"03403000","name":"Oldenburg (Oldenburg), Stadt","type":"Kreisfreie_Stadt"},"district":{"key":"03403","name":"Oldenburg (Oldenburg), Stadt","type":"Kreisfreie_Stadt"},"federalState":{"key":"03","name":"Niedersachsen"}},{"name":"Kanalstr.","postalCode":"26135","locality":"Oldenburg","municipality":{"key":"03403000","name":"Oldenburg (Oldenburg), Stadt","type":"Kreisfreie_Stadt"},"district":{"key":"03403","name":"Oldenburg (Oldenburg), Stadt","type":"Kreisfreie_Stadt"},"federalState":{"key":"03","name":"Niedersachsen"}},{"name":"Kandinskystr.","postalCode":"26133","locality":"Oldenburg","municipality":{"key":"03403000","name":"Oldenburg (Oldenburg), Stadt","type":"Kreisfreie_Stadt"},"district":{"key":"03403","name":"Oldenburg (Oldenburg), Stadt","type":"Kreisfreie_Stadt"},"federalState":{"key":"03","name":"Niedersachsen"}},{"name":"Kanonierstr.","postalCode":"26135","locality":"Oldenburg","municipality":{"key":"03403000","name":"Oldenburg (Oldenburg), Stadt","type":"Kreisfreie_Stadt"},"district":{"key":"03403","name":"Oldenburg (Oldenburg), Stadt","type":"Kreisfreie_Stadt"},"federalState":{"key":"03","name":"Niedersachsen"}},{"name":"Kantstr.","postalCode":"26129","locality":"Oldenburg","municipality":{"key":"03403000","name":"Oldenburg (Oldenburg), Stadt","type":"Kreisfreie_Stadt"},"district":{"key":"03403","name":"Oldenburg (Oldenburg), Stadt","type":"Kreisfreie_Stadt"},"federalState":{"key":"03","name":"Niedersachsen"}},{"name":"Kantstr.","postalCode":"27798","locality":"Hude (Oldenburg)","municipality":{"key":"03458010","name":"Hude (Oldb)","type":"Kreisangehörige_Gemeinde"},"district":{"key":"03458","name":"Oldenburg","type":"Landkreis"},"federalState":{"key":"03","name":"Niedersachsen"}},{"name":"Kapellenweg","postalCode":"49632","locality":"Essen (Oldenburg)","municipality":{"key":"03453006","name":"Essen (Oldenburg)","type":"Kreisangehörige_Gemeinde"},"district":{"key":"03453","name":"Cloppenburg","type":"Landkreis"},"federalState":{"key":"03","name":"Niedersachsen"}},{"name":"Kardinal-von-Galen-Str.","postalCode":"26133","locality":"Oldenburg","municipality":{"key":"03403000","name":"Oldenburg (Oldenburg), Stadt","type":"Kreisfreie_Stadt"},"district":{"key":"03403","name":"Oldenburg (Oldenburg), Stadt","type":"Kreisfreie_Stadt"},"federalState":{"key":"03","name":"Niedersachsen"}},{"name":"Karl-Arnold-Str.","postalCode":"26131","locality":"Oldenburg","municipality":{"key":"03403000","name":"Oldenburg (Oldenburg), Stadt","type":"Kreisfreie_Stadt"},"district":{"key":"03403","name":"Oldenburg (Oldenburg), Stadt","type":"Kreisfreie_Stadt"},"federalState":{"key":"03","name":"Niedersachsen"}},{"name":"Karl-Bunje-Str.","postalCode":"26129","locality":"Oldenburg","municipality":{"key":"03403000","name":"Oldenburg (Oldenburg), Stadt","type":"Kreisfreie_Stadt"},"district":{"key":"03403","name":"Oldenburg (Oldenburg), Stadt","type":"Kreisfreie_Stadt"},"federalState":{"key":"03","name":"Niedersachsen"}},{"name":"Karl-Jaspers-Str.","postalCode":"26129","locality":"Oldenburg","municipality":{"key":"03403000","name":"Oldenburg (Oldenburg), Stadt","type":"Kreisfreie_Stadt"},"district":{"key":"03403","name":"Oldenburg (Oldenburg), Stadt","type":"Kreisfreie_Stadt"},"federalState":{"key":"03","name":"Niedersachsen"}},{"name":"Karlsbadstr.","postalCode":"26127","locality":"Oldenburg","municipality":{"key":"03403000","name":"Oldenburg (Oldenburg), Stadt","type":"Kreisfreie_Stadt"},"district":{"key":"03403","name":"Oldenburg (Oldenburg), Stadt","type":"Kreisfreie_Stadt"},"federalState":{"key":"03","name":"Niedersachsen"}},{"name":"Karlstr.","postalCode":"26123","locality":"Oldenburg","municipality":{"key":"03403000","name":"Oldenburg (Oldenburg), Stadt","type":"Kreisfreie_Stadt"},"district":{"key":"03403","name":"Oldenburg (Oldenburg), Stadt","type":"Kreisfreie_Stadt"},"federalState":{"key":"03","name":"Niedersachsen"}},{"name":"Kärntner Str.","postalCode":"26131","locality":"Oldenburg","municipality":{"key":"03403000","name":"Oldenburg (Oldenburg), Stadt","type":"Kreisfreie_Stadt"},"district":{"key":"03403","name":"Oldenburg (Oldenburg), Stadt","type":"Kreisfreie_Stadt"},"federalState":{"key":"03","name":"Niedersachsen"}},{"name":"Karpfenweg","postalCode":"26127","locality":"Oldenburg","municipality":{"key":"03403000","name":"Oldenburg (Oldenburg), Stadt","type":"Kreisfreie_Stadt"},"district":{"key":"03403","name":"Oldenburg (Oldenburg), Stadt","type":"Kreisfreie_Stadt"},"federalState":{"key":"03","name":"Niedersachsen"}},{"name":"Karuschenweg","postalCode":"26127","locality":"Oldenburg","municipality":{"key":"03403000","name":"Oldenburg (Oldenburg), Stadt","type":"Kreisfreie_Stadt"},"district":{"key":"03403","name":"Oldenburg (Oldenburg), Stadt","type":"Kreisfreie_Stadt"},"federalState":{"key":"03","name":"Niedersachsen"}},{"name":"Kasernenstr.","postalCode":"26123","locality":"Oldenburg","municipality":{"key":"03403000","name":"Oldenburg (Oldenburg), Stadt","type":"Kreisfreie_Stadt"},"district":{"key":"03403","name":"Oldenburg (Oldenburg), Stadt","type":"Kreisfreie_Stadt"},"federalState":{"key":"03","name":"Niedersachsen"}},{"name":"Kasinoplatz","postalCode":"26122","locality":"Oldenburg","municipality":{"key":"03403000","name":"Oldenburg (Oldenburg), Stadt","type":"Kreisfreie_Stadt"},"district":{"key":"03403","name":"Oldenburg (Oldenburg), Stadt","type":"Kreisfreie_Stadt"},"federalState":{"key":"03","name":"Niedersachsen"}},{"name":"Kaspersweg","postalCode":"26131","locality":"Oldenburg","municipality":{"key":"03403000","name":"Oldenburg (Oldenburg), Stadt","type":"Kreisfreie_Stadt"},"district":{"key":"03403","name":"Oldenburg (Oldenburg), Stadt","type":"Kreisfreie_Stadt"},"federalState":{"key":"03","name":"Niedersachsen"}},{"name":"Kastanienallee","postalCode":"23758","locality":"Oldenburg in Holstein","municipality":{"key":"01055033","name":"Oldenburg in Holstein, Stadt","type":"Stadt"},"district":{"key":"01055","name":"Ostholstein","type":"Kreis"},"federalState":{"key":"01","name":"Schleswig-Holstein"}},{"name":"Kastanienallee","postalCode":"26121","locality":"Oldenburg","municipality":{"key":"03403000","name":"Oldenburg (Oldenburg), Stadt","type":"Kreisfreie_Stadt"},"district":{"key":"03403","name":"Oldenburg (Oldenburg), Stadt","type":"Kreisfreie_Stadt"},"federalState":{"key":"03","name":"Niedersachsen"}},{"name":"Kastanienstr.","postalCode":"49692","locality":"Cappeln (Oldenburg)","municipality":{"key":"03453003","name":"Cappeln (Oldenburg)","type":"Kreisangehörige_Gemeinde"},"district":{"key":"03453","name":"Cloppenburg","type":"Landkreis"},"federalState":{"key":"03","name":"Niedersachsen"}},{"name":"Kastanienweg","postalCode":"27798","locality":"Hude (Oldenburg)","municipality":{"key":"03458010","name":"Hude (Oldb)","type":"Kreisangehörige_Gemeinde"},"district":{"key":"03458","name":"Oldenburg","type":"Landkreis"},"federalState":{"key":"03","name":"Niedersachsen"}},{"name":"Kastanienweg","postalCode":"49632","locality":"Essen (Oldenburg)","municipality":{"key":"03453006","name":"Essen (Oldenburg)","type":"Kreisangehörige_Gemeinde"},"district":{"key":"03453","name":"Cloppenburg","type":"Landkreis"},"federalState":{"key":"03","name":"Niedersachsen"}},{"name":"Kästnerstr.","postalCode":"49632","locality":"Essen (Oldenburg)","municipality":{"key":"03453006","name":"Essen (Oldenburg)","type":"Kreisangehörige_Gemeinde"},"district":{"key":"03453","name":"Cloppenburg","type":"Landkreis"},"federalState":{"key":"03","name":"Niedersachsen"}},{"name":"Katharinenstr.","postalCode":"26121","locality":"Oldenburg","municipality":{"key":"03403000","name":"Oldenburg (Oldenburg), Stadt","type":"Kreisfreie_Stadt"},"district":{"key":"03403","name":"Oldenburg (Oldenburg), Stadt","type":"Kreisfreie_Stadt"},"federalState":{"key":"03","name":"Niedersachsen"}},{"name":"Käthe-Kollwitz-Str.","postalCode":"26127","locality":"Oldenburg","municipality":{"key":"03403000","name":"Oldenburg (Oldenburg), Stadt","type":"Kreisfreie_Stadt"},"district":{"key":"03403","name":"Oldenburg (Oldenburg), Stadt","type":"Kreisfreie_Stadt"},"federalState":{"key":"03","name":"Niedersachsen"}},{"name":"Kattenbarg","postalCode":"26127","locality":"Oldenburg","municipality":{"key":"03403000","name":"Oldenburg (Oldenburg), Stadt","type":"Kreisfreie_Stadt"},"district":{"key":"03403","name":"Oldenburg (Oldenburg), Stadt","type":"Kreisfreie_Stadt"},"federalState":{"key":"03","name":"Niedersachsen"}},{"name":"Kattenpool","postalCode":"49632","locality":"Essen (Oldenburg)","municipality":{"key":"03453006","name":"Essen (Oldenburg)","type":"Kreisangehörige_Gemeinde"},"district":{"key":"03453","name":"Cloppenburg","type":"Landkreis"},"federalState":{"key":"03","name":"Niedersachsen"}},{"name":"Kattowitzer Str.","postalCode":"26127","locality":"Oldenburg","municipality":{"key":"03403000","name":"Oldenburg (Oldenburg), Stadt","type":"Kreisfreie_Stadt"},"district":{"key":"03403","name":"Oldenburg (Oldenburg), Stadt","type":"Kreisfreie_Stadt"},"federalState":{"key":"03","name":"Niedersachsen"}},{"name":"Kehrwieder","postalCode":"23758","locality":"Oldenburg in Holstein","municipality":{"key":"01055033","name":"Oldenburg in Holstein, Stadt","type":"Stadt"},"district":{"key":"01055","name":"Ostholstein","type":"Kreis"},"federalState":{"key":"01","name":"Schleswig-Holstein"}},{"name":"Kellendamm","postalCode":"49632","locality":"Essen (Oldenburg)","municipality":{"key":"03453006","name":"Essen (Oldenburg)","type":"Kreisangehörige_Gemeinde"},"district":{"key":"03453","name":"Cloppenburg","type":"Landkreis"},"federalState":{"key":"03","name":"Niedersachsen"}},{"name":"Kempers Kamp","postalCode":"49632","locality":"Essen (Oldenburg)","municipality":{"key":"03453006","name":"Essen (Oldenburg)","type":"Kreisangehörige_Gemeinde"},"district":{"key":"03453","name":"Cloppenburg","type":"Landkreis"},"federalState":{"key":"03","name":"Niedersachsen"}},{"name":"Kennedystr.","postalCode":"26129","locality":"Oldenburg","municipality":{"key":"03403000","name":"Oldenburg (Oldenburg), Stadt","type":"Kreisfreie_Stadt"},"district":{"key":"03403","name":"Oldenburg (Oldenburg), Stadt","type":"Kreisfreie_Stadt"},"federalState":{"key":"03","name":"Niedersachsen"}},{"name":"Kennedystr.","postalCode":"26131","locality":"Oldenburg","municipality":{"key":"03403000","name":"Oldenburg (Oldenburg), Stadt","type":"Kreisfreie_Stadt"},"district":{"key":"03403","name":"Oldenburg (Oldenburg), Stadt","type":"Kreisfreie_Stadt"},"federalState":{"key":"03","name":"Niedersachsen"}},{"name":"Keplerstr.","postalCode":"26133","locality":"Oldenburg","municipality":{"key":"03403000","name":"Oldenburg (Oldenburg), Stadt","type":"Kreisfreie_Stadt"},"district":{"key":"03403","name":"Oldenburg (Oldenburg), Stadt","type":"Kreisfreie_Stadt"},"federalState":{"key":"03","name":"Niedersachsen"}},{"name":"Kernbeißerring","postalCode":"26135","locality":"Oldenburg","municipality":{"key":"03403000","name":"Oldenburg (Oldenburg), Stadt","type":"Kreisfreie_Stadt"},"district":{"key":"03403","name":"Oldenburg (Oldenburg), Stadt","type":"Kreisfreie_Stadt"},"federalState":{"key":"03","name":"Niedersachsen"}},{"name":"Kerschensteinerstr.","postalCode":"26131","locality":"Oldenburg","municipality":{"key":"03403000","name":"Oldenburg (Oldenburg), Stadt","type":"Kreisfreie_Stadt"},"district":{"key":"03403","name":"Oldenburg (Oldenburg), Stadt","type":"Kreisfreie_Stadt"},"federalState":{"key":"03","name":"Niedersachsen"}},{"name":"Kiebitzweg","postalCode":"26135","locality":"Oldenburg","municipality":{"key":"03403000","name":"Oldenburg (Oldenburg), Stadt","type":"Kreisfreie_Stadt"},"district":{"key":"03403","name":"Oldenburg (Oldenburg), Stadt","type":"Kreisfreie_Stadt"},"federalState":{"key":"03","name":"Niedersachsen"}},{"name":"Kiebitzweg","postalCode":"27798","locality":"Hude (Oldenburg)","municipality":{"key":"03458010","name":"Hude (Oldb)","type":"Kreisangehörige_Gemeinde"},"district":{"key":"03458","name":"Oldenburg","type":"Landkreis"},"federalState":{"key":"03","name":"Niedersachsen"}},{"name":"Kiefernweg","postalCode":"26135","locality":"Oldenburg","municipality":{"key":"03403000","name":"Oldenburg (Oldenburg), Stadt","type":"Kreisfreie_Stadt"},"district":{"key":"03403","name":"Oldenburg (Oldenburg), Stadt","type":"Kreisfreie_Stadt"},"federalState":{"key":"03","name":"Niedersachsen"}},{"name":"Kiefernweg","postalCode":"49632","locality":"Essen (Oldenburg)","municipality":{"key":"03453006","name":"Essen (Oldenburg)","type":"Kreisangehörige_Gemeinde"},"district":{"key":"03453","name":"Cloppenburg","type":"Landkreis"},"federalState":{"key":"03","name":"Niedersachsen"}},{"name":"Kiehnpool","postalCode":"26129","locality":"Oldenburg","municipality":{"key":"03403000","name":"Oldenburg (Oldenburg), Stadt","type":"Kreisfreie_Stadt"},"district":{"key":"03403","name":"Oldenburg (Oldenburg), Stadt","type":"Kreisfreie_Stadt"},"federalState":{"key":"03","name":"Niedersachsen"}},{"name":"Lachsweg","postalCode":"26127","locality":"Oldenburg","municipality":{"key":"03403000","name":"Oldenburg (Oldenburg), Stadt","type":"Kreisfreie_Stadt"},"district":{"key":"03403","name":"Oldenburg (Oldenburg), Stadt","type":"Kreisfreie_Stadt"},"federalState":{"key":"03","name":"Niedersachsen"}},{"name":"Ladillenring","postalCode":"27798","locality":"Hude (Oldenburg)","municipality":{"key":"03458010","name":"Hude (Oldb)","type":"Kreisangehörige_Gemeinde"},"district":{"key":"03458","name":"Oldenburg","type":"Landkreis"},"federalState":{"key":"03","name":"Niedersachsen"}},{"name":"Ladillenweg","postalCode":"27798","locality":"Hude (Oldenburg)","municipality":{"key":"03458010","name":"Hude (Oldb)","type":"Kreisangehörige_Gemeinde"},"district":{"key":"03458","name":"Oldenburg","type":"Landkreis"},"federalState":{"key":"03","name":"Niedersachsen"}},{"name":"Lafontainestr.","postalCode":"26129","locality":"Oldenburg","municipality":{"key":"03403000","name":"Oldenburg (Oldenburg), Stadt","type":"Kreisfreie_Stadt"},"district":{"key":"03403","name":"Oldenburg (Oldenburg), Stadt","type":"Kreisfreie_Stadt"},"federalState":{"key":"03","name":"Niedersachsen"}},{"name":"Lagerstr.","postalCode":"26125","locality":"Oldenburg","municipality":{"key":"03403000","name":"Oldenburg (Oldenburg), Stadt","type":"Kreisfreie_Stadt"},"district":{"key":"03403","name":"Oldenburg (Oldenburg), Stadt","type":"Kreisfreie_Stadt"},"federalState":{"key":"03","name":"Niedersachsen"}},{"name":"Lager Weg","postalCode":"49632","locality":"Essen (Oldenburg)","municipality":{"key":"03453006","name":"Essen (Oldenburg)","type":"Kreisangehörige_Gemeinde"},"district":{"key":"03453","name":"Cloppenburg","type":"Landkreis"},"federalState":{"key":"03","name":"Niedersachsen"}},{"name":"Lambertistr.","postalCode":"26121","locality":"Oldenburg","municipality":{"key":"03403000","name":"Oldenburg (Oldenburg), Stadt","type":"Kreisfreie_Stadt"},"district":{"key":"03403","name":"Oldenburg (Oldenburg), Stadt","type":"Kreisfreie_Stadt"},"federalState":{"key":"03","name":"Niedersachsen"}},{"name":"Lammweg","postalCode":"26133","locality":"Oldenburg","municipality":{"key":"03403000","name":"Oldenburg (Oldenburg), Stadt","type":"Kreisfreie_Stadt"},"district":{"key":"03403","name":"Oldenburg (Oldenburg), Stadt","type":"Kreisfreie_Stadt"},"federalState":{"key":"03","name":"Niedersachsen"}},{"name":"Landwehrstr.","postalCode":"26133","locality":"Oldenburg","municipality":{"key":"03403000","name":"Oldenburg (Oldenburg), Stadt","type":"Kreisfreie_Stadt"},"district":{"key":"03403","name":"Oldenburg (Oldenburg), Stadt","type":"Kreisfreie_Stadt"},"federalState":{"key":"03","name":"Niedersachsen"}},{"name":"Langefohr","postalCode":"27798","locality":"Hude (Oldenburg)","municipality":{"key":"03458010","name":"Hude (Oldb)","type":"Kreisangehörige_Gemeinde"},"district":{"key":"03458","name":"Oldenburg","type":"Landkreis"},"federalState":{"key":"03","name":"Niedersachsen"}},{"name":"Langenberger Sand","postalCode":"27798","locality":"Hude (Oldenburg)","municipality":{"key":"03458010","name":"Hude (Oldb)","type":"Kreisangehörige_Gemeinde"},"district":{"key":"03458","name":"Oldenburg","type":"Landkreis"},"federalState":{"key":"03","name":"Niedersachsen"}},{"name":"Langenberger Str.","postalCode":"27798","locality":"Hude (Oldenburg)","municipality":{"key":"03458010","name":"Hude (Oldb)","type":"Kreisangehörige_Gemeinde"},"district":{"key":"03458","name":"Oldenburg","type":"Landkreis"},"federalState":{"key":"03","name":"Niedersachsen"}},{"name":"Langensteiner Str.","postalCode":"49692","locality":"Cappeln (Oldenburg)","municipality":{"key":"03453003","name":"Cappeln (Oldenburg)","type":"Kreisangehörige_Gemeinde"},"district":{"key":"03453","name":"Cloppenburg","type":"Landkreis"},"federalState":{"key":"03","name":"Niedersachsen"}},{"name":"Langenweg","postalCode":"26125","locality":"Oldenburg","municipality":{"key":"03403000","name":"Oldenburg (Oldenburg), Stadt","type":"Kreisfreie_Stadt"},"district":{"key":"03403","name":"Oldenburg (Oldenburg), Stadt","type":"Kreisfreie_Stadt"},"federalState":{"key":"03","name":"Niedersachsen"}},{"name":"Langer Segen","postalCode":"23758","locality":"Oldenburg in Holstein","municipality":{"key":"01055033","name":"Oldenburg in Holstein, Stadt","type":"Stadt"},"district":{"key":"01055","name":"Ostholstein","type":"Kreis"},"federalState":{"key":"01","name":"Schleswig-Holstein"}},{"name":"Lange Str.","postalCode":"49632","locality":"Essen (Oldenburg)","municipality":{"key":"03453006","name":"Essen (Oldenburg)","type":"Kreisangehörige_Gemeinde"},"district":{"key":"03453","name":"Cloppenburg","type":"Landkreis"},"federalState":{"key":"03","name":"Niedersachsen"}},{"name":"Lange Wand","postalCode":"49699","locality":"Lindern (Oldenburg)","municipality":{"key":"03453010","name":"Lindern (Oldenburg)","type":"Kreisangehörige_Gemeinde"},"district":{"key":"03453","name":"Cloppenburg","type":"Landkreis"},"federalState":{"key":"03","name":"Niedersachsen"}},{"name":"Lange Wisch","postalCode":"27798","locality":"Hude (Oldenburg)","municipality":{"key":"03458010","name":"Hude (Oldb)","type":"Kreisangehörige_Gemeinde"},"district":{"key":"03458","name":"Oldenburg","type":"Landkreis"},"federalState":{"key":"03","name":"Niedersachsen"}},{"name":"Langfördener Str.","postalCode":"49692","locality":"Cappeln (Oldenburg)","municipality":{"key":"03453003","name":"Cappeln (Oldenburg)","type":"Kreisangehörige_Gemeinde"},"district":{"key":"03453","name":"Cloppenburg","type":"Landkreis"},"federalState":{"key":"03","name":"Niedersachsen"}},{"name":"Lankenstr.","postalCode":"23758","locality":"Oldenburg in Holstein","municipality":{"key":"01055033","name":"Oldenburg in Holstein, Stadt","type":"Stadt"},"district":{"key":"01055","name":"Ostholstein","type":"Kreis"},"federalState":{"key":"01","name":"Schleswig-Holstein"}},{"name":"Lärchenring","postalCode":"26133","locality":"Oldenburg","municipality":{"key":"03403000","name":"Oldenburg (Oldenburg), Stadt","type":"Kreisfreie_Stadt"},"district":{"key":"03403","name":"Oldenburg (Oldenburg), Stadt","type":"Kreisfreie_Stadt"},"federalState":{"key":"03","name":"Niedersachsen"}},{"name":"Lärchenweg","postalCode":"49632","locality":"Essen (Oldenburg)","municipality":{"key":"03453006","name":"Essen (Oldenburg)","type":"Kreisangehörige_Gemeinde"},"district":{"key":"03453","name":"Cloppenburg","type":"Landkreis"},"federalState":{"key":"03","name":"Niedersachsen"}},{"name":"Largauweg","postalCode":"26135","locality":"Oldenburg","municipality":{"key":"03403000","name":"Oldenburg (Oldenburg), Stadt","type":"Kreisfreie_Stadt"},"district":{"key":"03403","name":"Oldenburg (Oldenburg), Stadt","type":"Kreisfreie_Stadt"},"federalState":{"key":"03","name":"Niedersachsen"}},{"name":"Lasiusstr.","postalCode":"26122","locality":"Oldenburg","municipality":{"key":"03403000","name":"Oldenburg (Oldenburg), Stadt","type":"Kreisfreie_Stadt"},"district":{"key":"03403","name":"Oldenburg (Oldenburg), Stadt","type":"Kreisfreie_Stadt"},"federalState":{"key":"03","name":"Niedersachsen"}},{"name":"Lastruper Str.","postalCode":"49632","locality":"Essen (Oldenburg)","municipality":{"key":"03453006","name":"Essen (Oldenburg)","type":"Kreisangehörige_Gemeinde"},"district":{"key":"03453","name":"Cloppenburg","type":"Landkreis"},"federalState":{"key":"03","name":"Niedersachsen"}},{"name":"Lastruper Str.","postalCode":"49699","locality":"Lindern (Oldenburg)","municipality":{"key":"03453010","name":"Lindern (Oldenburg)","type":"Kreisangehörige_Gemeinde"},"district":{"key":"03453","name":"Cloppenburg","type":"Landkreis"},"federalState":{"key":"03","name":"Niedersachsen"}},{"name":"Lauenburger Ring","postalCode":"26131","locality":"Oldenburg","municipality":{"key":"03403000","name":"Oldenburg (Oldenburg), Stadt","type":"Kreisfreie_Stadt"},"district":{"key":"03403","name":"Oldenburg (Oldenburg), Stadt","type":"Kreisfreie_Stadt"},"federalState":{"key":"03","name":"Niedersachsen"}},{"name":"Leckerhörne","postalCode":"27798","locality":"Hude (Oldenburg)","municipality":{"key":"03458010","name":"Hude (Oldb)","type":"Kreisangehörige_Gemeinde"},"district":{"key":"03458","name":"Oldenburg","type":"Landkreis"},"federalState":{"key":"03","name":"Niedersachsen"}},{"name":"Le-Corbusier-Str.","postalCode":"26127","locality":"Oldenburg","municipality":{"key":"03403000","name":"Oldenburg (Oldenburg), Stadt","type":"Kreisfreie_Stadt"},"district":{"key":"03403","name":"Oldenburg (Oldenburg), Stadt","type":"Kreisfreie_Stadt"},"federalState":{"key":"03","name":"Niedersachsen"}},{"name":"Leffersweg","postalCode":"26135","locality":"Oldenburg","municipality":{"key":"03403000","name":"Oldenburg (Oldenburg), Stadt","type":"Kreisfreie_Stadt"},"district":{"key":"03403","name":"Oldenburg (Oldenburg), Stadt","type":"Kreisfreie_Stadt"},"federalState":{"key":"03","name":"Niedersachsen"}},{"name":"Lehmkuhle","postalCode":"49699","locality":"Lindern (Oldenburg)","municipality":{"key":"03453010","name":"Lindern (Oldenburg)","type":"Kreisangehörige_Gemeinde"},"district":{"key":"03453","name":"Cloppenburg","type":"Landkreis"},"federalState":{"key":"03","name":"Niedersachsen"}},{"name":"Lehmkuhlenstr.","postalCode":"26123","locality":"Oldenburg","municipality":{"key":"03403000","name":"Oldenburg (Oldenburg), Stadt","type":"Kreisfreie_Stadt"},"district":{"key":"03403","name":"Oldenburg (Oldenburg), Stadt","type":"Kreisfreie_Stadt"},"federalState":{"key":"03","name":"Niedersachsen"}},{"name":"Lehmplacken","postalCode":"26135","locality":"Oldenburg","municipality":{"key":"03403000","name":"Oldenburg (Oldenburg), Stadt","type":"Kreisfreie_Stadt"},"district":{"key":"03403","name":"Oldenburg (Oldenburg), Stadt","type":"Kreisfreie_Stadt"},"federalState":{"key":"03","name":"Niedersachsen"}},{"name":"Lehmweg","postalCode":"27798","locality":"Hude (Oldenburg)","municipality":{"key":"03458010","name":"Hude (Oldb)","type":"Kreisangehörige_Gemeinde"},"district":{"key":"03458","name":"Oldenburg","type":"Landkreis"},"federalState":{"key":"03","name":"Niedersachsen"}},{"name":"Leibnizstr.","postalCode":"26129","locality":"Oldenburg","municipality":{"key":"03403000","name":"Oldenburg (Oldenburg), Stadt","type":"Kreisfreie_Stadt"},"district":{"key":"03403","name":"Oldenburg (Oldenburg), Stadt","type":"Kreisfreie_Stadt"},"federalState":{"key":"03","name":"Niedersachsen"}},{"name":"Leinweg","postalCode":"26125","locality":"Oldenburg","municipality":{"key":"03403000","name":"Oldenburg (Oldenburg), Stadt","type":"Kreisfreie_Stadt"},"district":{"key":"03403","name":"Oldenburg (Oldenburg), Stadt","type":"Kreisfreie_Stadt"},"federalState":{"key":"03","name":"Niedersachsen"}},{"name":"Leipziger Str.","postalCode":"26129","locality":"Oldenburg","municipality":{"key":"03403000","name":"Oldenburg (Oldenburg), Stadt","type":"Kreisfreie_Stadt"},"district":{"key":"03403","name":"Oldenburg (Oldenburg), Stadt","type":"Kreisfreie_Stadt"},"federalState":{"key":"03","name":"Niedersachsen"}},{"name":"Lemmeldamm","postalCode":"27798","locality":"Hude (Oldenburg)","municipality":{"key":"03458010","name":"Hude (Oldb)","type":"Kreisangehörige_Gemeinde"},"district":{"key":"03458","name":"Oldenburg","type":"Landkreis"},"federalState":{"key":"03","name":"Niedersachsen"}},{"name":"Lemmelweg","postalCode":"27798","locality":"Hude (Oldenburg)","municipality":{"key":"03458010","name":"Hude (Oldb)","type":"Kreisangehörige_Gemeinde"},"district":{"key":"03458","name":"Oldenburg","type":"Landkreis"},"federalState":{"key":"03","name":"Niedersachsen"}},{"name":"Lenzweg","postalCode":"26129","locality":"Oldenburg","municipality":{"key":"03403000","name":"Oldenburg (Oldenburg), Stadt","type":"Kreisfreie_Stadt"},"district":{"key":"03403","name":"Oldenburg (Oldenburg), Stadt","type":"Kreisfreie_Stadt"},"federalState":{"key":"03","name":"Niedersachsen"}},{"name":"Leobschützer Str.","postalCode":"26125","locality":"Oldenburg","municipality":{"key":"03403000","name":"Oldenburg (Oldenburg), Stadt","type":"Kreisfreie_Stadt"},"district":{"key":"03403","name":"Oldenburg (Oldenburg), Stadt","type":"Kreisfreie_Stadt"},"federalState":{"key":"03","name":"Niedersachsen"}},{"name":"Leon-Bukofzer-Str.","postalCode":"26133","locality":"Oldenburg","municipality":{"key":"03403000","name":"Oldenburg (Oldenburg), Stadt","type":"Kreisfreie_Stadt"},"district":{"key":"03403","name":"Oldenburg (Oldenburg), Stadt","type":"Kreisfreie_Stadt"},"federalState":{"key":"03","name":"Niedersachsen"}},{"name":"Leo-Trepp-Str.","postalCode":"26121","locality":"Oldenburg","municipality":{"key":"03403000","name":"Oldenburg (Oldenburg), Stadt","type":"Kreisfreie_Stadt"},"district":{"key":"03403","name":"Oldenburg (Oldenburg), Stadt","type":"Kreisfreie_Stadt"},"federalState":{"key":"03","name":"Niedersachsen"}},{"name":"Leo-Trepp-Str.","postalCode":"26122","locality":"Oldenburg","municipality":{"key":"03403000","name":"Oldenburg (Oldenburg), Stadt","type":"Kreisfreie_Stadt"},"district":{"key":"03403","name":"Oldenburg (Oldenburg), Stadt","type":"Kreisfreie_Stadt"},"federalState":{"key":"03","name":"Niedersachsen"}},{"name":"Lerchenspornweg","postalCode":"26135","locality":"Oldenburg","municipality":{"key":"03403000","name":"Oldenburg (Oldenburg), Stadt","type":"Kreisfreie_Stadt"},"district":{"key":"03403","name":"Oldenburg (Oldenburg), Stadt","type":"Kreisfreie_Stadt"},"federalState":{"key":"03","name":"Niedersachsen"}},{"name":"Lerchenstr.","postalCode":"23758","locality":"Oldenburg in Holstein","municipality":{"key":"01055033","name":"Oldenburg in Holstein, Stadt","type":"Stadt"},"district":{"key":"01055","name":"Ostholstein","type":"Kreis"},"federalState":{"key":"01","name":"Schleswig-Holstein"}},{"name":"Lerchenstr.","postalCode":"26123","locality":"Oldenburg","municipality":{"key":"03403000","name":"Oldenburg (Oldenburg), Stadt","type":"Kreisfreie_Stadt"},"district":{"key":"03403","name":"Oldenburg (Oldenburg), Stadt","type":"Kreisfreie_Stadt"},"federalState":{"key":"03","name":"Niedersachsen"}},{"name":"Lerchenstr.","postalCode":"27798","locality":"Hude (Oldenburg)","municipality":{"key":"03458010","name":"Hude (Oldb)","type":"Kreisangehörige_Gemeinde"},"district":{"key":"03458","name":"Oldenburg","type":"Landkreis"},"federalState":{"key":"03","name":"Niedersachsen"}},{"name":"Lerchenstr.","postalCode":"49692","locality":"Cappeln (Oldenburg)","municipality":{"key":"03453003","name":"Cappeln (Oldenburg)","type":"Kreisangehörige_Gemeinde"},"district":{"key":"03453","name":"Cloppenburg","type":"Landkreis"},"federalState":{"key":"03","name":"Niedersachsen"}},{"name":"Lerigauweg","postalCode":"26131","locality":"Oldenburg","municipality":{"key":"03403000","name":"Oldenburg (Oldenburg), Stadt","type":"Kreisfreie_Stadt"},"district":{"key":"03403","name":"Oldenburg (Oldenburg), Stadt","type":"Kreisfreie_Stadt"},"federalState":{"key":"03","name":"Niedersachsen"}},{"name":"Maastrichter Str.","postalCode":"26123","locality":"Oldenburg","municipality":{"key":"03403000","name":"Oldenburg (Oldenburg), Stadt","type":"Kreisfreie_Stadt"},"district":{"key":"03403","name":"Oldenburg (Oldenburg), Stadt","type":"Kreisfreie_Stadt"},"federalState":{"key":"03","name":"Niedersachsen"}},{"name":"Magdeburger Str.","postalCode":"49692","locality":"Cappeln (Oldenburg)","municipality":{"key":"03453003","name":"Cappeln (Oldenburg)","type":"Kreisangehörige_Gemeinde"},"district":{"key":"03453","name":"Cloppenburg","type":"Landkreis"},"federalState":{"key":"03","name":"Niedersachsen"}},{"name":"Magnolienring","postalCode":"26129","locality":"Oldenburg","municipality":{"key":"03403000","name":"Oldenburg (Oldenburg), Stadt","type":"Kreisfreie_Stadt"},"district":{"key":"03403","name":"Oldenburg (Oldenburg), Stadt","type":"Kreisfreie_Stadt"},"federalState":{"key":"03","name":"Niedersachsen"}},{"name":"Maibuscher Str.","postalCode":"27798","locality":"Hude (Oldenburg)","municipality":{"key":"03458010","name":"Hude (Oldb)","type":"Kreisangehörige_Gemeinde"},"district":{"key":"03458","name":"Oldenburg","type":"Landkreis"},"federalState":{"key":"03","name":"Niedersachsen"}},{"name":"Maienweg","postalCode":"26127","locality":"Oldenburg","municipality":{"key":"03403000","name":"Oldenburg (Oldenburg), Stadt","type":"Kreisfreie_Stadt"},"district":{"key":"03403","name":"Oldenburg (Oldenburg), Stadt","type":"Kreisfreie_Stadt"},"federalState":{"key":"03","name":"Niedersachsen"}},{"name":"Malvenweg","postalCode":"26125","locality":"Oldenburg","municipality":{"key":"03403000","name":"Oldenburg (Oldenburg), Stadt","type":"Kreisfreie_Stadt"},"district":{"key":"03403","name":"Oldenburg (Oldenburg), Stadt","type":"Kreisfreie_Stadt"},"federalState":{"key":"03","name":"Niedersachsen"}},{"name":"Mansholter Str.","postalCode":"26127","locality":"Oldenburg","municipality":{"key":"03403000","name":"Oldenburg (Oldenburg), Stadt","type":"Kreisfreie_Stadt"},"district":{"key":"03403","name":"Oldenburg (Oldenburg), Stadt","type":"Kreisfreie_Stadt"},"federalState":{"key":"03","name":"Niedersachsen"}},{"name":"Marburger Str.","postalCode":"26133","locality":"Oldenburg","municipality":{"key":"03403000","name":"Oldenburg (Oldenburg), Stadt","type":"Kreisfreie_Stadt"},"district":{"key":"03403","name":"Oldenburg (Oldenburg), Stadt","type":"Kreisfreie_Stadt"},"federalState":{"key":"03","name":"Niedersachsen"}},{"name":"Marderweg","postalCode":"26131","locality":"Oldenburg","municipality":{"key":"03403000","name":"Oldenburg (Oldenburg), Stadt","type":"Kreisfreie_Stadt"},"district":{"key":"03403","name":"Oldenburg (Oldenburg), Stadt","type":"Kreisfreie_Stadt"},"federalState":{"key":"03","name":"Niedersachsen"}},{"name":"Margarete-Gramberg-Str.","postalCode":"26131","locality":"Oldenburg","municipality":{"key":"03403000","name":"Oldenburg (Oldenburg), Stadt","type":"Kreisfreie_Stadt"},"district":{"key":"03403","name":"Oldenburg (Oldenburg), Stadt","type":"Kreisfreie_Stadt"},"federalState":{"key":"03","name":"Niedersachsen"}},{"name":"Margaretenstr.","postalCode":"26121","locality":"Oldenburg","municipality":{"key":"03403000","name":"Oldenburg (Oldenburg), Stadt","type":"Kreisfreie_Stadt"},"district":{"key":"03403","name":"Oldenburg (Oldenburg), Stadt","type":"Kreisfreie_Stadt"},"federalState":{"key":"03","name":"Niedersachsen"}},{"name":"Maria-Montessori-Str.","postalCode":"26127","locality":"Oldenburg","municipality":{"key":"03403000","name":"Oldenburg (Oldenburg), Stadt","type":"Kreisfreie_Stadt"},"district":{"key":"03403","name":"Oldenburg (Oldenburg), Stadt","type":"Kreisfreie_Stadt"},"federalState":{"key":"03","name":"Niedersachsen"}},{"name":"Maria-von-Jever-Str.","postalCode":"26125","locality":"Oldenburg","municipality":{"key":"03403000","name":"Oldenburg (Oldenburg), Stadt","type":"Kreisfreie_Stadt"},"district":{"key":"03403","name":"Oldenburg (Oldenburg), Stadt","type":"Kreisfreie_Stadt"},"federalState":{"key":"03","name":"Niedersachsen"}},{"name":"Marie-Curie-Str.","postalCode":"26129","locality":"Oldenburg","municipality":{"key":"03403000","name":"Oldenburg (Oldenburg), Stadt","type":"Kreisfreie_Stadt"},"district":{"key":"03403","name":"Oldenburg (Oldenburg), Stadt","type":"Kreisfreie_Stadt"},"federalState":{"key":"03","name":"Niedersachsen"}},{"name":"Marie-Juchacz-Ring","postalCode":"26133","locality":"Oldenburg","municipality":{"key":"03403000","name":"Oldenburg (Oldenburg), Stadt","type":"Kreisfreie_Stadt"},"district":{"key":"03403","name":"Oldenburg (Oldenburg), Stadt","type":"Kreisfreie_Stadt"},"federalState":{"key":"03","name":"Niedersachsen"}},{"name":"Marienstr.","postalCode":"26121","locality":"Oldenburg","municipality":{"key":"03403000","name":"Oldenburg (Oldenburg), Stadt","type":"Kreisfreie_Stadt"},"district":{"key":"03403","name":"Oldenburg (Oldenburg), Stadt","type":"Kreisfreie_Stadt"},"federalState":{"key":"03","name":"Niedersachsen"}},{"name":"Marienstr.","postalCode":"26122","locality":"Oldenburg","municipality":{"key":"03403000","name":"Oldenburg (Oldenburg), Stadt","type":"Kreisfreie_Stadt"},"district":{"key":"03403","name":"Oldenburg (Oldenburg), Stadt","type":"Kreisfreie_Stadt"},"federalState":{"key":"03","name":"Niedersachsen"}},{"name":"Markt","postalCode":"23758","locality":"Oldenburg in Holstein","municipality":{"key":"01055033","name":"Oldenburg in Holstein, Stadt","type":"Stadt"},"district":{"key":"01055","name":"Ostholstein","type":"Kreis"},"federalState":{"key":"01","name":"Schleswig-Holstein"}},{"name":"Marktplatz Eversten","postalCode":"26122","locality":"Oldenburg","municipality":{"key":"03403000","name":"Oldenburg (Oldenburg), Stadt","type":"Kreisfreie_Stadt"},"district":{"key":"03403","name":"Oldenburg (Oldenburg), Stadt","type":"Kreisfreie_Stadt"},"federalState":{"key":"03","name":"Niedersachsen"}},{"name":"Marktstr.","postalCode":"49632","locality":"Essen (Oldenburg)","municipality":{"key":"03453006","name":"Essen (Oldenburg)","type":"Kreisangehörige_Gemeinde"},"district":{"key":"03453","name":"Cloppenburg","type":"Landkreis"},"federalState":{"key":"03","name":"Niedersachsen"}},{"name":"Maronenstr.","postalCode":"49692","locality":"Cappeln (Oldenburg)","municipality":{"key":"03453003","name":"Cappeln (Oldenburg)","type":"Kreisangehörige_Gemeinde"},"district":{"key":"03453","name":"Cloppenburg","type":"Landkreis"},"federalState":{"key":"03","name":"Niedersachsen"}},{"name":"Marschweg","postalCode":"26122","locality":"Oldenburg","municipality":{"key":"03403000","name":"Oldenburg (Oldenburg), Stadt","type":"Kreisfreie_Stadt"},"district":{"key":"03403","name":"Oldenburg (Oldenburg), Stadt","type":"Kreisfreie_Stadt"},"federalState":{"key":"03","name":"Niedersachsen"}},{"name":"Marschweg","postalCode":"26131","locality":"Oldenburg","municipality":{"key":"03403000","name":"Oldenburg (Oldenburg), Stadt","type":"Kreisfreie_Stadt"},"district":{"key":"03403","name":"Oldenburg (Oldenburg), Stadt","type":"Kreisfreie_Stadt"},"federalState":{"key":"03","name":"Niedersachsen"}},{"name":"Mars-la-Tour-Str.","postalCode":"26121","locality":"Oldenburg","municipality":{"key":"03403000","name":"Oldenburg (Oldenburg), Stadt","type":"Kreisfreie_Stadt"},"district":{"key":"03403","name":"Oldenburg (Oldenburg), Stadt","type":"Kreisfreie_Stadt"},"federalState":{"key":"03","name":"Niedersachsen"}},{"name":"Martin-Buber-Str.","postalCode":"26129","locality":"Oldenburg","municipality":{"key":"03403000","name":"Oldenburg (Oldenburg), Stadt","type":"Kreisfreie_Stadt"},"district":{"key":"03403","name":"Oldenburg (Oldenburg), Stadt","type":"Kreisfreie_Stadt"},"federalState":{"key":"03","name":"Niedersachsen"}},{"name":"Martin-Luther-Str.","postalCode":"26129","locality":"Oldenburg","municipality":{"key":"03403000","name":"Oldenburg (Oldenburg), Stadt","type":"Kreisfreie_Stadt"},"district":{"key":"03403","name":"Oldenburg (Oldenburg), Stadt","type":"Kreisfreie_Stadt"},"federalState":{"key":"03","name":"Niedersachsen"}},{"name":"Martin-Niemöller-Str.","postalCode":"26133","locality":"Oldenburg","municipality":{"key":"03403000","name":"Oldenburg (Oldenburg), Stadt","type":"Kreisfreie_Stadt"},"district":{"key":"03403","name":"Oldenburg (Oldenburg), Stadt","type":"Kreisfreie_Stadt"},"federalState":{"key":"03","name":"Niedersachsen"}},{"name":"Masurenstr.","postalCode":"26127","locality":"Oldenburg","municipality":{"key":"03403000","name":"Oldenburg (Oldenburg), Stadt","type":"Kreisfreie_Stadt"},"district":{"key":"03403","name":"Oldenburg (Oldenburg), Stadt","type":"Kreisfreie_Stadt"},"federalState":{"key":"03","name":"Niedersachsen"}},{"name":"Masurenweg","postalCode":"27798","locality":"Hude (Oldenburg)","municipality":{"key":"03458010","name":"Hude (Oldb)","type":"Kreisangehörige_Gemeinde"},"district":{"key":"03458","name":"Oldenburg","type":"Landkreis"},"federalState":{"key":"03","name":"Niedersachsen"}},{"name":"Matthias-Claudius-Str.","postalCode":"26131","locality":"Oldenburg","municipality":{"key":"03403000","name":"Oldenburg (Oldenburg), Stadt","type":"Kreisfreie_Stadt"},"district":{"key":"03403","name":"Oldenburg (Oldenburg), Stadt","type":"Kreisfreie_Stadt"},"federalState":{"key":"03","name":"Niedersachsen"}},{"name":"Matthias-Erzberger-Str.","postalCode":"26133","locality":"Oldenburg","municipality":{"key":"03403000","name":"Oldenburg (Oldenburg), Stadt","type":"Kreisfreie_Stadt"},"district":{"key":"03403","name":"Oldenburg (Oldenburg), Stadt","type":"Kreisfreie_Stadt"},"federalState":{"key":"03","name":"Niedersachsen"}},{"name":"Max-Beckmann-Str.","postalCode":"26133","locality":"Oldenburg","municipality":{"key":"03403000","name":"Oldenburg (Oldenburg), Stadt","type":"Kreisfreie_Stadt"},"district":{"key":"03403","name":"Oldenburg (Oldenburg), Stadt","type":"Kreisfreie_Stadt"},"federalState":{"key":"03","name":"Niedersachsen"}},{"name":"Maximilian-Kolbe-Str.","postalCode":"26133","locality":"Oldenburg","municipality":{"key":"03403000","name":"Oldenburg (Oldenburg), Stadt","type":"Kreisfreie_Stadt"},"district":{"key":"03403","name":"Oldenburg (Oldenburg), Stadt","type":"Kreisfreie_Stadt"},"federalState":{"key":"03","name":"Niedersachsen"}},{"name":"Max-Mehner-Str.","postalCode":"26131","locality":"Oldenburg","municipality":{"key":"03403000","name":"Oldenburg (Oldenburg), Stadt","type":"Kreisfreie_Stadt"},"district":{"key":"03403","name":"Oldenburg (Oldenburg), Stadt","type":"Kreisfreie_Stadt"},"federalState":{"key":"03","name":"Niedersachsen"}},{"name":"Max-Pechstein-Str.","postalCode":"26133","locality":"Oldenburg","municipality":{"key":"03403000","name":"Oldenburg (Oldenburg), Stadt","type":"Kreisfreie_Stadt"},"district":{"key":"03403","name":"Oldenburg (Oldenburg), Stadt","type":"Kreisfreie_Stadt"},"federalState":{"key":"03","name":"Niedersachsen"}},{"name":"Max-Planck-Str.","postalCode":"27798","locality":"Hude (Oldenburg)","municipality":{"key":"03458010","name":"Hude (Oldb)","type":"Kreisangehörige_Gemeinde"},"district":{"key":"03458","name":"Oldenburg","type":"Landkreis"},"federalState":{"key":"03","name":"Niedersachsen"}},{"name":"Max-v.-Eyth-Str.","postalCode":"27798","locality":"Hude (Oldenburg)","municipality":{"key":"03458010","name":"Hude (Oldb)","type":"Kreisangehörige_Gemeinde"},"district":{"key":"03458","name":"Oldenburg","type":"Landkreis"},"federalState":{"key":"03","name":"Niedersachsen"}},{"name":"Max-von-Laue-Weg","postalCode":"27798","locality":"Hude (Oldenburg)","municipality":{"key":"03458010","name":"Hude (Oldb)","type":"Kreisangehörige_Gemeinde"},"district":{"key":"03458","name":"Oldenburg","type":"Landkreis"},"federalState":{"key":"03","name":"Niedersachsen"}},{"name":"Meerkamp","postalCode":"26133","locality":"Oldenburg","municipality":{"key":"03403000","name":"Oldenburg (Oldenburg), Stadt","type":"Kreisfreie_Stadt"},"district":{"key":"03403","name":"Oldenburg (Oldenburg), Stadt","type":"Kreisfreie_Stadt"},"federalState":{"key":"03","name":"Niedersachsen"}},{"name":"Meerstr.","postalCode":"49699","locality":"Lindern (Oldenburg)","municipality":{"key":"03453010","name":"Lindern (Oldenburg)","type":"Kreisangehörige_Gemeinde"},"district":{"key":"03453","name":"Cloppenburg","type":"Landkreis"},"federalState":{"key":"03","name":"Niedersachsen"}},{"name":"Meerweg","postalCode":"26133","locality":"Oldenburg","municipality":{"key":"03403000","name":"Oldenburg (Oldenburg), Stadt","type":"Kreisfreie_Stadt"},"district":{"key":"03403","name":"Oldenburg (Oldenburg), Stadt","type":"Kreisfreie_Stadt"},"federalState":{"key":"03","name":"Niedersachsen"}},{"name":"Meeschweg","postalCode":"26127","locality":"Oldenburg","municipality":{"key":"03403000","name":"Oldenburg (Oldenburg), Stadt","type":"Kreisfreie_Stadt"},"district":{"key":"03403","name":"Oldenburg (Oldenburg), Stadt","type":"Kreisfreie_Stadt"},"federalState":{"key":"03","name":"Niedersachsen"}},{"name":"Mehlbeerenweg","postalCode":"26129","locality":"Oldenburg","municipality":{"key":"03403000","name":"Oldenburg (Oldenburg), Stadt","type":"Kreisfreie_Stadt"},"district":{"key":"03403","name":"Oldenburg (Oldenburg), Stadt","type":"Kreisfreie_Stadt"},"federalState":{"key":"03","name":"Niedersachsen"}},{"name":"Mehrgenerationenpark","postalCode":"49632","locality":"Essen (Oldenburg)","municipality":{"key":"03453006","name":"Essen (Oldenburg)","type":"Kreisangehörige_Gemeinde"},"district":{"key":"03453","name":"Cloppenburg","type":"Landkreis"},"federalState":{"key":"03","name":"Niedersachsen"}},{"name":"Meiereiweg","postalCode":"23758","locality":"Oldenburg in Holstein","municipality":{"key":"01055033","name":"Oldenburg in Holstein, Stadt","type":"Stadt"},"district":{"key":"01055","name":"Ostholstein","type":"Kreis"},"federalState":{"key":"01","name":"Schleswig-Holstein"}},{"name":"Meinardusstr.","postalCode":"26122","locality":"Oldenburg","municipality":{"key":"03403000","name":"Oldenburg (Oldenburg), Stadt","type":"Kreisfreie_Stadt"},"district":{"key":"03403","name":"Oldenburg (Oldenburg), Stadt","type":"Kreisfreie_Stadt"},"federalState":{"key":"03","name":"Niedersachsen"}},{"name":"Meisenstr.","postalCode":"27798","locality":"Hude (Oldenburg)","municipality":{"key":"03458010","name":"Hude (Oldb)","type":"Kreisangehörige_Gemeinde"},"district":{"key":"03458","name":"Oldenburg","type":"Landkreis"},"federalState":{"key":"03","name":"Niedersachsen"}},{"name":"Meisenweg","postalCode":"23758","locality":"Oldenburg in Holstein","municipality":{"key":"01055033","name":"Oldenburg in Holstein, Stadt","type":"Stadt"},"district":{"key":"01055","name":"Ostholstein","type":"Kreis"},"federalState":{"key":"01","name":"Schleswig-Holstein"}},{"name":"Meisenweg","postalCode":"26127","locality":"Oldenburg","municipality":{"key":"03403000","name":"Oldenburg (Oldenburg), Stadt","type":"Kreisfreie_Stadt"},"district":{"key":"03403","name":"Oldenburg (Oldenburg), Stadt","type":"Kreisfreie_Stadt"},"federalState":{"key":"03","name":"Niedersachsen"}},{"name":"Meisenweg","postalCode":"26131","locality":"Oldenburg","municipality":{"key":"03403000","name":"Oldenburg (Oldenburg), Stadt","type":"Kreisfreie_Stadt"},"district":{"key":"03403","name":"Oldenburg (Oldenburg), Stadt","type":"Kreisfreie_Stadt"},"federalState":{"key":"03","name":"Niedersachsen"}},{"name":"Nabbenkamp","postalCode":"27798","locality":"Hude (Oldenburg)","municipality":{"key":"03458010","name":"Hude (Oldb)","type":"Kreisangehörige_Gemeinde"},"district":{"key":"03458","name":"Oldenburg","type":"Landkreis"},"federalState":{"key":"03","name":"Niedersachsen"}},{"name":"Nachtigallenweg","postalCode":"23758","locality":"Oldenburg in Holstein","municipality":{"key":"01055033","name":"Oldenburg in Holstein, Stadt","type":"Stadt"},"district":{"key":"01055","name":"Ostholstein","type":"Kreis"},"federalState":{"key":"01","name":"Schleswig-Holstein"}},{"name":"Nachtigallenweg","postalCode":"26131","locality":"Oldenburg","municipality":{"key":"03403000","name":"Oldenburg (Oldenburg), Stadt","type":"Kreisfreie_Stadt"},"district":{"key":"03403","name":"Oldenburg (Oldenburg), Stadt","type":"Kreisfreie_Stadt"},"federalState":{"key":"03","name":"Niedersachsen"}},{"name":"Nadamer Str.","postalCode":"49632","locality":"Essen (Oldenburg)","municipality":{"key":"03453006","name":"Essen (Oldenburg)","type":"Kreisangehörige_Gemeinde"},"district":{"key":"03453","name":"Cloppenburg","type":"Landkreis"},"federalState":{"key":"03","name":"Niedersachsen"}},{"name":"Nadorster Str.","postalCode":"26123","locality":"Oldenburg","municipality":{"key":"03403000","name":"Oldenburg (Oldenburg), Stadt","type":"Kreisfreie_Stadt"},"district":{"key":"03403","name":"Oldenburg (Oldenburg), Stadt","type":"Kreisfreie_Stadt"},"federalState":{"key":"03","name":"Niedersachsen"}},{"name":"Nadorster Str.","postalCode":"26125","locality":"Oldenburg","municipality":{"key":"03403000","name":"Oldenburg (Oldenburg), Stadt","type":"Kreisfreie_Stadt"},"district":{"key":"03403","name":"Oldenburg (Oldenburg), Stadt","type":"Kreisfreie_Stadt"},"federalState":{"key":"03","name":"Niedersachsen"}},{"name":"Nedderend","postalCode":"26121","locality":"Oldenburg","municipality":{"key":"03403000","name":"Oldenburg (Oldenburg), Stadt","type":"Kreisfreie_Stadt"},"district":{"key":"03403","name":"Oldenburg (Oldenburg), Stadt","type":"Kreisfreie_Stadt"},"federalState":{"key":"03","name":"Niedersachsen"}},{"name":"Nedderlandsweg","postalCode":"26125","locality":"Oldenburg","municipality":{"key":"03403000","name":"Oldenburg (Oldenburg), Stadt","type":"Kreisfreie_Stadt"},"district":{"key":"03403","name":"Oldenburg (Oldenburg), Stadt","type":"Kreisfreie_Stadt"},"federalState":{"key":"03","name":"Niedersachsen"}},{"name":"Neenkamp","postalCode":"26127","locality":"Oldenburg","municipality":{"key":"03403000","name":"Oldenburg (Oldenburg), Stadt","type":"Kreisfreie_Stadt"},"district":{"key":"03403","name":"Oldenburg (Oldenburg), Stadt","type":"Kreisfreie_Stadt"},"federalState":{"key":"03","name":"Niedersachsen"}},{"name":"Neisser Str.","postalCode":"26127","locality":"Oldenburg","municipality":{"key":"03403000","name":"Oldenburg (Oldenburg), Stadt","type":"Kreisfreie_Stadt"},"district":{"key":"03403","name":"Oldenburg (Oldenburg), Stadt","type":"Kreisfreie_Stadt"},"federalState":{"key":"03","name":"Niedersachsen"}},{"name":"Nelkenstr.","postalCode":"26121","locality":"Oldenburg","municipality":{"key":"03403000","name":"Oldenburg (Oldenburg), Stadt","type":"Kreisfreie_Stadt"},"district":{"key":"03403","name":"Oldenburg (Oldenburg), Stadt","type":"Kreisfreie_Stadt"},"federalState":{"key":"03","name":"Niedersachsen"}},{"name":"Nelkenstr.","postalCode":"49632","locality":"Essen (Oldenburg)","municipality":{"key":"03453006","name":"Essen (Oldenburg)","type":"Kreisangehörige_Gemeinde"},"district":{"key":"03453","name":"Cloppenburg","type":"Landkreis"},"federalState":{"key":"03","name":"Niedersachsen"}},{"name":"Nelkenstr.","postalCode":"49692","locality":"Cappeln (Oldenburg)","municipality":{"key":"03453003","name":"Cappeln (Oldenburg)","type":"Kreisangehörige_Gemeinde"},"district":{"key":"03453","name":"Cloppenburg","type":"Landkreis"},"federalState":{"key":"03","name":"Niedersachsen"}},{"name":"Nelkenweg","postalCode":"26127","locality":"Oldenburg","municipality":{"key":"03403000","name":"Oldenburg (Oldenburg), Stadt","type":"Kreisfreie_Stadt"},"district":{"key":"03403","name":"Oldenburg (Oldenburg), Stadt","type":"Kreisfreie_Stadt"},"federalState":{"key":"03","name":"Niedersachsen"}},{"name":"Nelkenweg","postalCode":"27798","locality":"Hude (Oldenburg)","municipality":{"key":"03458010","name":"Hude (Oldb)","type":"Kreisangehörige_Gemeinde"},"district":{"key":"03458","name":"Oldenburg","type":"Landkreis"},"federalState":{"key":"03","name":"Niedersachsen"}},{"name":"Nelson-Mandela-Ring","postalCode":"26127","locality":"Oldenburg","municipality":{"key":"03403000","name":"Oldenburg (Oldenburg), Stadt","type":"Kreisfreie_Stadt"},"district":{"key":"03403","name":"Oldenburg (Oldenburg), Stadt","type":"Kreisfreie_Stadt"},"federalState":{"key":"03","name":"Niedersachsen"}},{"name":"Nerzweg","postalCode":"26131","locality":"Oldenburg","municipality":{"key":"03403000","name":"Oldenburg (Oldenburg), Stadt","type":"Kreisfreie_Stadt"},"district":{"key":"03403","name":"Oldenburg (Oldenburg), Stadt","type":"Kreisfreie_Stadt"},"federalState":{"key":"03","name":"Niedersachsen"}},{"name":"Nettelbeckstr.","postalCode":"26131","locality":"Oldenburg","municipality":{"key":"03403000","name":"Oldenburg (Oldenburg), Stadt","type":"Kreisfreie_Stadt"},"district":{"key":"03403","name":"Oldenburg (Oldenburg), Stadt","type":"Kreisfreie_Stadt"},"federalState":{"key":"03","name":"Niedersachsen"}},{"name":"Neue Barlage","postalCode":"49692","locality":"Cappeln (Oldenburg)","municipality":{"key":"03453003","name":"Cappeln (Oldenburg)","type":"Kreisangehörige_Gemeinde"},"district":{"key":"03453","name":"Cloppenburg","type":"Landkreis"},"federalState":{"key":"03","name":"Niedersachsen"}},{"name":"Neue Donnerschweer Str.","postalCode":"26123","locality":"Oldenburg","municipality":{"key":"03403000","name":"Oldenburg (Oldenburg), Stadt","type":"Kreisfreie_Stadt"},"district":{"key":"03403","name":"Oldenburg (Oldenburg), Stadt","type":"Kreisfreie_Stadt"},"federalState":{"key":"03","name":"Niedersachsen"}},{"name":"Neuenkruger Str.","postalCode":"26127","locality":"Oldenburg","municipality":{"key":"03403000","name":"Oldenburg (Oldenburg), Stadt","type":"Kreisfreie_Stadt"},"district":{"key":"03403","name":"Oldenburg (Oldenburg), Stadt","type":"Kreisfreie_Stadt"},"federalState":{"key":"03","name":"Niedersachsen"}},{"name":"Neuenweger Reihe","postalCode":"27798","locality":"Hude (Oldenburg)","municipality":{"key":"03458010","name":"Hude (Oldb)","type":"Kreisangehörige_Gemeinde"},"district":{"key":"03458","name":"Oldenburg","type":"Landkreis"},"federalState":{"key":"03","name":"Niedersachsen"}},{"name":"Neuer Weg","postalCode":"26135","locality":"Oldenburg","municipality":{"key":"03403000","name":"Oldenburg (Oldenburg), Stadt","type":"Kreisfreie_Stadt"},"district":{"key":"03403","name":"Oldenburg (Oldenburg), Stadt","type":"Kreisfreie_Stadt"},"federalState":{"key":"03","name":"Niedersachsen"}},{"name":"Neuer Weg","postalCode":"27798","locality":"Hude (Oldenburg)","municipality":{"key":"03458010","name":"Hude (Oldb)","type":"Kreisangehörige_Gemeinde"},"district":{"key":"03458","name":"Oldenburg","type":"Landkreis"},"federalState":{"key":"03","name":"Niedersachsen"}},{"name":"Neue Str.","postalCode":"26122","locality":"Oldenburg","municipality":{"key":"03403000","name":"Oldenburg (Oldenburg), Stadt","type":"Kreisfreie_Stadt"},"district":{"key":"03403","name":"Oldenburg (Oldenburg), Stadt","type":"Kreisfreie_Stadt"},"federalState":{"key":"03","name":"Niedersachsen"}},{"name":"Neue Welt","postalCode":"27798","locality":"Hude (Oldenburg)","municipality":{"key":"03458010","name":"Hude (Oldb)","type":"Kreisangehörige_Gemeinde"},"district":{"key":"03458","name":"Oldenburg","type":"Landkreis"},"federalState":{"key":"03","name":"Niedersachsen"}},{"name":"Neustadt","postalCode":"27798","locality":"Hude (Oldenburg)","municipality":{"key":"03458010","name":"Hude (Oldb)","type":"Kreisangehörige_Gemeinde"},"district":{"key":"03458","name":"Oldenburg","type":"Landkreis"},"federalState":{"key":"03","name":"Niedersachsen"}},{"name":"Neustädter Str.","postalCode":"23758","locality":"Oldenburg in Holstein","municipality":{"key":"01055033","name":"Oldenburg in Holstein, Stadt","type":"Stadt"},"district":{"key":"01055","name":"Ostholstein","type":"Kreis"},"federalState":{"key":"01","name":"Schleswig-Holstein"}},{"name":"Neusüdender Weg","postalCode":"26125","locality":"Oldenburg","municipality":{"key":"03403000","name":"Oldenburg (Oldenburg), Stadt","type":"Kreisfreie_Stadt"},"district":{"key":"03403","name":"Oldenburg (Oldenburg), Stadt","type":"Kreisfreie_Stadt"},"federalState":{"key":"03","name":"Niedersachsen"}},{"name":"Newtonstr.","postalCode":"26129","locality":"Oldenburg","municipality":{"key":"03403000","name":"Oldenburg (Oldenburg), Stadt","type":"Kreisfreie_Stadt"},"district":{"key":"03403","name":"Oldenburg (Oldenburg), Stadt","type":"Kreisfreie_Stadt"},"federalState":{"key":"03","name":"Niedersachsen"}},{"name":"Nibelungenstr.","postalCode":"26123","locality":"Oldenburg","municipality":{"key":"03403000","name":"Oldenburg (Oldenburg), Stadt","type":"Kreisfreie_Stadt"},"district":{"key":"03403","name":"Oldenburg (Oldenburg), Stadt","type":"Kreisfreie_Stadt"},"federalState":{"key":"03","name":"Niedersachsen"}},{"name":"Niederkamp","postalCode":"26129","locality":"Oldenburg","municipality":{"key":"03403000","name":"Oldenburg (Oldenburg), Stadt","type":"Kreisfreie_Stadt"},"district":{"key":"03403","name":"Oldenburg (Oldenburg), Stadt","type":"Kreisfreie_Stadt"},"federalState":{"key":"03","name":"Niedersachsen"}},{"name":"Niedersachsendamm","postalCode":"26131","locality":"Oldenburg","municipality":{"key":"03403000","name":"Oldenburg (Oldenburg), Stadt","type":"Kreisfreie_Stadt"},"district":{"key":"03403","name":"Oldenburg (Oldenburg), Stadt","type":"Kreisfreie_Stadt"},"federalState":{"key":"03","name":"Niedersachsen"}},{"name":"Niedersachsendamm","postalCode":"26133","locality":"Oldenburg","municipality":{"key":"03403000","name":"Oldenburg (Oldenburg), Stadt","type":"Kreisfreie_Stadt"},"district":{"key":"03403","name":"Oldenburg (Oldenburg), Stadt","type":"Kreisfreie_Stadt"},"federalState":{"key":"03","name":"Niedersachsen"}},{"name":"Niedriger Weg","postalCode":"49699","locality":"Lindern (Oldenburg)","municipality":{"key":"03453010","name":"Lindern (Oldenburg)","type":"Kreisangehörige_Gemeinde"},"district":{"key":"03453","name":"Cloppenburg","type":"Landkreis"},"federalState":{"key":"03","name":"Niedersachsen"}},{"name":"Niehen Kamp","postalCode":"49632","locality":"Essen (Oldenburg)","municipality":{"key":"03453006","name":"Essen (Oldenburg)","type":"Kreisangehörige_Gemeinde"},"district":{"key":"03453","name":"Cloppenburg","type":"Landkreis"},"federalState":{"key":"03","name":"Niedersachsen"}},{"name":"Niendorfer Weg","postalCode":"26125","locality":"Oldenburg","municipality":{"key":"03403000","name":"Oldenburg (Oldenburg), Stadt","type":"Kreisfreie_Stadt"},"district":{"key":"03403","name":"Oldenburg (Oldenburg), Stadt","type":"Kreisfreie_Stadt"},"federalState":{"key":"03","name":"Niedersachsen"}},{"name":"Nikolaikirchweg","postalCode":"26131","locality":"Oldenburg","municipality":{"key":"03403000","name":"Oldenburg (Oldenburg), Stadt","type":"Kreisfreie_Stadt"},"district":{"key":"03403","name":"Oldenburg (Oldenburg), Stadt","type":"Kreisfreie_Stadt"},"federalState":{"key":"03","name":"Niedersachsen"}},{"name":"Nikolaus-Bernett-Str.","postalCode":"26131","locality":"Oldenburg","municipality":{"key":"03403000","name":"Oldenburg (Oldenburg), Stadt","type":"Kreisfreie_Stadt"},"district":{"key":"03403","name":"Oldenburg (Oldenburg), Stadt","type":"Kreisfreie_Stadt"},"federalState":{"key":"03","name":"Niedersachsen"}},{"name":"Nikolausstr.","postalCode":"26135","locality":"Oldenburg","municipality":{"key":"03403000","name":"Oldenburg (Oldenburg), Stadt","type":"Kreisfreie_Stadt"},"district":{"key":"03403","name":"Oldenburg (Oldenburg), Stadt","type":"Kreisfreie_Stadt"},"federalState":{"key":"03","name":"Niedersachsen"}},{"name":"Nimrodweg","postalCode":"26133","locality":"Oldenburg","municipality":{"key":"03403000","name":"Oldenburg (Oldenburg), Stadt","type":"Kreisfreie_Stadt"},"district":{"key":"03403","name":"Oldenburg (Oldenburg), Stadt","type":"Kreisfreie_Stadt"},"federalState":{"key":"03","name":"Niedersachsen"}},{"name":"Noackstr.","postalCode":"26121","locality":"Oldenburg","municipality":{"key":"03403000","name":"Oldenburg (Oldenburg), Stadt","type":"Kreisfreie_Stadt"},"district":{"key":"03403","name":"Oldenburg (Oldenburg), Stadt","type":"Kreisfreie_Stadt"},"federalState":{"key":"03","name":"Niedersachsen"}},{"name":"Nobelstr.","postalCode":"26129","locality":"Oldenburg","municipality":{"key":"03403000","name":"Oldenburg (Oldenburg), Stadt","type":"Kreisfreie_Stadt"},"district":{"key":"03403","name":"Oldenburg (Oldenburg), Stadt","type":"Kreisfreie_Stadt"},"federalState":{"key":"03","name":"Niedersachsen"}},{"name":"Nollstr.","postalCode":"26135","locality":"Oldenburg","municipality":{"key":"03403000","name":"Oldenburg (Oldenburg), Stadt","type":"Kreisfreie_Stadt"},"district":{"key":"03403","name":"Oldenburg (Oldenburg), Stadt","type":"Kreisfreie_Stadt"},"federalState":{"key":"03","name":"Niedersachsen"}},{"name":"Nonnenweg","postalCode":"27798","locality":"Hude (Oldenburg)","municipality":{"key":"03458010","name":"Hude (Oldb)","type":"Kreisangehörige_Gemeinde"},"district":{"key":"03458","name":"Oldenburg","type":"Landkreis"},"federalState":{"key":"03","name":"Niedersachsen"}},{"name":"Nordenhamer Weg","postalCode":"26125","locality":"Oldenburg","municipality":{"key":"03403000","name":"Oldenburg (Oldenburg), Stadt","type":"Kreisfreie_Stadt"},"district":{"key":"03403","name":"Oldenburg (Oldenburg), Stadt","type":"Kreisfreie_Stadt"},"federalState":{"key":"03","name":"Niedersachsen"}},{"name":"Nordenholzer Str.","postalCode":"27798","locality":"Hude (Oldenburg)","municipality":{"key":"03458010","name":"Hude (Oldb)","type":"Kreisangehörige_Gemeinde"},"district":{"key":"03458","name":"Oldenburg","type":"Landkreis"},"federalState":{"key":"03","name":"Niedersachsen"}},{"name":"Norderdiek","postalCode":"26125","locality":"Oldenburg","municipality":{"key":"03403000","name":"Oldenburg (Oldenburg), Stadt","type":"Kreisfreie_Stadt"},"district":{"key":"03403","name":"Oldenburg (Oldenburg), Stadt","type":"Kreisfreie_Stadt"},"federalState":{"key":"03","name":"Niedersachsen"}},{"name":"Norderneyer Str.","postalCode":"26131","locality":"Oldenburg","municipality":{"key":"03403000","name":"Oldenburg (Oldenburg), Stadt","type":"Kreisfreie_Stadt"},"district":{"key":"03403","name":"Oldenburg (Oldenburg), Stadt","type":"Kreisfreie_Stadt"},"federalState":{"key":"03","name":"Niedersachsen"}},{"name":"Norderstr.","postalCode":"26123","locality":"Oldenburg","municipality":{"key":"03403000","name":"Oldenburg (Oldenburg), Stadt","type":"Kreisfreie_Stadt"},"district":{"key":"03403","name":"Oldenburg (Oldenburg), Stadt","type":"Kreisfreie_Stadt"},"federalState":{"key":"03","name":"Niedersachsen"}},{"name":"Oberhauser Kirchweg","postalCode":"27798","locality":"Hude (Oldenburg)","municipality":{"key":"03458010","name":"Hude (Oldb)","type":"Kreisangehörige_Gemeinde"},"district":{"key":"03458","name":"Oldenburg","type":"Landkreis"},"federalState":{"key":"03","name":"Niedersachsen"}},{"name":"Oederstr.","postalCode":"26121","locality":"Oldenburg","municipality":{"key":"03403000","name":"Oldenburg (Oldenburg), Stadt","type":"Kreisfreie_Stadt"},"district":{"key":"03403","name":"Oldenburg (Oldenburg), Stadt","type":"Kreisfreie_Stadt"},"federalState":{"key":"03","name":"Niedersachsen"}},{"name":"Ofenerdieker Str.","postalCode":"26125","locality":"Oldenburg","municipality":{"key":"03403000","name":"Oldenburg (Oldenburg), Stadt","type":"Kreisfreie_Stadt"},"district":{"key":"03403","name":"Oldenburg (Oldenburg), Stadt","type":"Kreisfreie_Stadt"},"federalState":{"key":"03","name":"Niedersachsen"}},{"name":"Ofener Str.","postalCode":"26121","locality":"Oldenburg","municipality":{"key":"03403000","name":"Oldenburg (Oldenburg), Stadt","type":"Kreisfreie_Stadt"},"district":{"key":"03403","name":"Oldenburg (Oldenburg), Stadt","type":"Kreisfreie_Stadt"},"federalState":{"key":"03","name":"Niedersachsen"}},{"name":"Ofener Str.","postalCode":"26122","locality":"Oldenburg","municipality":{"key":"03403000","name":"Oldenburg (Oldenburg), Stadt","type":"Kreisfreie_Stadt"},"district":{"key":"03403","name":"Oldenburg (Oldenburg), Stadt","type":"Kreisfreie_Stadt"},"federalState":{"key":"03","name":"Niedersachsen"}},{"name":"Ohlenbuschweg","postalCode":"26131","locality":"Oldenburg","municipality":{"key":"03403000","name":"Oldenburg (Oldenburg), Stadt","type":"Kreisfreie_Stadt"},"district":{"key":"03403","name":"Oldenburg (Oldenburg), Stadt","type":"Kreisfreie_Stadt"},"federalState":{"key":"03","name":"Niedersachsen"}},{"name":"Ohmsteder Esch","postalCode":"26125","locality":"Oldenburg","municipality":{"key":"03403000","name":"Oldenburg (Oldenburg), Stadt","type":"Kreisfreie_Stadt"},"district":{"key":"03403","name":"Oldenburg (Oldenburg), Stadt","type":"Kreisfreie_Stadt"},"federalState":{"key":"03","name":"Niedersachsen"}},{"name":"Oldenburger Str.","postalCode":"49692","locality":"Cappeln (Oldenburg)","municipality":{"key":"03453003","name":"Cappeln (Oldenburg)","type":"Kreisangehörige_Gemeinde"},"district":{"key":"03453","name":"Cloppenburg","type":"Landkreis"},"federalState":{"key":"03","name":"Niedersachsen"}},{"name":"Oldenburger Weg","postalCode":"27798","locality":"Hude (Oldenburg)","municipality":{"key":"03458010","name":"Hude (Oldb)","type":"Kreisangehörige_Gemeinde"},"district":{"key":"03458","name":"Oldenburg","type":"Landkreis"},"federalState":{"key":"03","name":"Niedersachsen"}},{"name":"Oldenrome","postalCode":"26127","locality":"Oldenburg","municipality":{"key":"03403000","name":"Oldenburg (Oldenburg), Stadt","type":"Kreisfreie_Stadt"},"district":{"key":"03403","name":"Oldenburg (Oldenburg), Stadt","type":"Kreisfreie_Stadt"},"federalState":{"key":"03","name":"Niedersachsen"}},{"name":"Oldeweg","postalCode":"26135","locality":"Oldenburg","municipality":{"key":"03403000","name":"Oldenburg (Oldenburg), Stadt","type":"Kreisfreie_Stadt"},"district":{"key":"03403","name":"Oldenburg (Oldenburg), Stadt","type":"Kreisfreie_Stadt"},"federalState":{"key":"03","name":"Niedersachsen"}},{"name":"Olmsweg","postalCode":"26129","locality":"Oldenburg","municipality":{"key":"03403000","name":"Oldenburg (Oldenburg), Stadt","type":"Kreisfreie_Stadt"},"district":{"key":"03403","name":"Oldenburg (Oldenburg), Stadt","type":"Kreisfreie_Stadt"},"federalState":{"key":"03","name":"Niedersachsen"}},{"name":"Oppelner Str.","postalCode":"26135","locality":"Oldenburg","municipality":{"key":"03403000","name":"Oldenburg (Oldenburg), Stadt","type":"Kreisfreie_Stadt"},"district":{"key":"03403","name":"Oldenburg (Oldenburg), Stadt","type":"Kreisfreie_Stadt"},"federalState":{"key":"03","name":"Niedersachsen"}},{"name":"Orfenweg","postalCode":"26125","locality":"Oldenburg","municipality":{"key":"03403000","name":"Oldenburg (Oldenburg), Stadt","type":"Kreisfreie_Stadt"},"district":{"key":"03403","name":"Oldenburg (Oldenburg), Stadt","type":"Kreisfreie_Stadt"},"federalState":{"key":"03","name":"Niedersachsen"}},{"name":"Orloff","postalCode":"49699","locality":"Lindern (Oldenburg)","municipality":{"key":"03453010","name":"Lindern (Oldenburg)","type":"Kreisangehörige_Gemeinde"},"district":{"key":"03453","name":"Cloppenburg","type":"Landkreis"},"federalState":{"key":"03","name":"Niedersachsen"}},{"name":"Oskar-Schlemmer-Str.","postalCode":"26133","locality":"Oldenburg","municipality":{"key":"03403000","name":"Oldenburg (Oldenburg), Stadt","type":"Kreisfreie_Stadt"},"district":{"key":"03403","name":"Oldenburg (Oldenburg), Stadt","type":"Kreisfreie_Stadt"},"federalState":{"key":"03","name":"Niedersachsen"}},{"name":"Osloer Str.","postalCode":"26127","locality":"Oldenburg","municipality":{"key":"03403000","name":"Oldenburg (Oldenburg), Stadt","type":"Kreisfreie_Stadt"},"district":{"key":"03403","name":"Oldenburg (Oldenburg), Stadt","type":"Kreisfreie_Stadt"},"federalState":{"key":"03","name":"Niedersachsen"}},{"name":"Osnabrücker Str.","postalCode":"49692","locality":"Cappeln (Oldenburg)","municipality":{"key":"03453003","name":"Cappeln (Oldenburg)","type":"Kreisangehörige_Gemeinde"},"district":{"key":"03453","name":"Cloppenburg","type":"Landkreis"},"federalState":{"key":"03","name":"Niedersachsen"}},{"name":"Osterdiek","postalCode":"26125","locality":"Oldenburg","municipality":{"key":"03403000","name":"Oldenburg (Oldenburg), Stadt","type":"Kreisfreie_Stadt"},"district":{"key":"03403","name":"Oldenburg (Oldenburg), Stadt","type":"Kreisfreie_Stadt"},"federalState":{"key":"03","name":"Niedersachsen"}},{"name":"Osteresch","postalCode":"26125","locality":"Oldenburg","municipality":{"key":"03403000","name":"Oldenburg (Oldenburg), Stadt","type":"Kreisfreie_Stadt"},"district":{"key":"03403","name":"Oldenburg (Oldenburg), Stadt","type":"Kreisfreie_Stadt"},"federalState":{"key":"03","name":"Niedersachsen"}},{"name":"Osterkampsweg","postalCode":"26131","locality":"Oldenburg","municipality":{"key":"03403000","name":"Oldenburg (Oldenburg), Stadt","type":"Kreisfreie_Stadt"},"district":{"key":"03403","name":"Oldenburg (Oldenburg), Stadt","type":"Kreisfreie_Stadt"},"federalState":{"key":"03","name":"Niedersachsen"}},{"name":"Osterlohsweg","postalCode":"27798","locality":"Hude (Oldenburg)","municipality":{"key":"03458010","name":"Hude (Oldb)","type":"Kreisangehörige_Gemeinde"},"district":{"key":"03458","name":"Oldenburg","type":"Landkreis"},"federalState":{"key":"03","name":"Niedersachsen"}},{"name":"Ostersteder Str.","postalCode":"49632","locality":"Essen (Oldenburg)","municipality":{"key":"03453006","name":"Essen (Oldenburg)","type":"Kreisangehörige_Gemeinde"},"district":{"key":"03453","name":"Cloppenburg","type":"Landkreis"},"federalState":{"key":"03","name":"Niedersachsen"}},{"name":"Osterstr.","postalCode":"26122","locality":"Oldenburg","municipality":{"key":"03403000","name":"Oldenburg (Oldenburg), Stadt","type":"Kreisfreie_Stadt"},"district":{"key":"03403","name":"Oldenburg (Oldenburg), Stadt","type":"Kreisfreie_Stadt"},"federalState":{"key":"03","name":"Niedersachsen"}},{"name":"Ostlandstr.","postalCode":"23758","locality":"Oldenburg in Holstein","municipality":{"key":"01055033","name":"Oldenburg in Holstein, Stadt","type":"Stadt"},"district":{"key":"01055","name":"Ostholstein","type":"Kreis"},"federalState":{"key":"01","name":"Schleswig-Holstein"}},{"name":"Ostlandstr.","postalCode":"26125","locality":"Oldenburg","municipality":{"key":"03403000","name":"Oldenburg (Oldenburg), Stadt","type":"Kreisfreie_Stadt"},"district":{"key":"03403","name":"Oldenburg (Oldenburg), Stadt","type":"Kreisfreie_Stadt"},"federalState":{"key":"03","name":"Niedersachsen"}},{"name":"Ostlandweg","postalCode":"49699","locality":"Lindern (Oldenburg)","municipality":{"key":"03453010","name":"Lindern (Oldenburg)","type":"Kreisangehörige_Gemeinde"},"district":{"key":"03453","name":"Cloppenburg","type":"Landkreis"},"federalState":{"key":"03","name":"Niedersachsen"}},{"name":"Ostring","postalCode":"26125","locality":"Oldenburg","municipality":{"key":"03403000","name":"Oldenburg (Oldenburg), Stadt","type":"Kreisfreie_Stadt"},"district":{"key":"03403","name":"Oldenburg (Oldenburg), Stadt","type":"Kreisfreie_Stadt"},"federalState":{"key":"03","name":"Niedersachsen"}},{"name":"Ostseestr.","postalCode":"26131","locality":"Oldenburg","municipality":{"key":"03403000","name":"Oldenburg (Oldenburg), Stadt","type":"Kreisfreie_Stadt"},"district":{"key":"03403","name":"Oldenburg (Oldenburg), Stadt","type":"Kreisfreie_Stadt"},"federalState":{"key":"03","name":"Niedersachsen"}},{"name":"Ostweg","postalCode":"26135","locality":"Oldenburg","municipality":{"key":"03403000","name":"Oldenburg (Oldenburg), Stadt","type":"Kreisfreie_Stadt"},"district":{"key":"03403","name":"Oldenburg (Oldenburg), Stadt","type":"Kreisfreie_Stadt"},"federalState":{"key":"03","name":"Niedersachsen"}},{"name":"Ost-West-Weg","postalCode":"49632","locality":"Essen (Oldenburg)","municipality":{"key":"03453006","name":"Essen (Oldenburg)","type":"Kreisangehörige_Gemeinde"},"district":{"key":"03453","name":"Cloppenburg","type":"Landkreis"},"federalState":{"key":"03","name":"Niedersachsen"}},{"name":"Otterweg","postalCode":"26123","locality":"Oldenburg","municipality":{"key":"03403000","name":"Oldenburg (Oldenburg), Stadt","type":"Kreisfreie_Stadt"},"district":{"key":"03403","name":"Oldenburg (Oldenburg), Stadt","type":"Kreisfreie_Stadt"},"federalState":{"key":"03","name":"Niedersachsen"}},{"name":"Otto-Dix-Str.","postalCode":"26133","locality":"Oldenburg","municipality":{"key":"03403000","name":"Oldenburg (Oldenburg), Stadt","type":"Kreisfreie_Stadt"},"district":{"key":"03403","name":"Oldenburg (Oldenburg), Stadt","type":"Kreisfreie_Stadt"},"federalState":{"key":"03","name":"Niedersachsen"}},{"name":"Otto-Hahn-Str.","postalCode":"27798","locality":"Hude (Oldenburg)","municipality":{"key":"03458010","name":"Hude (Oldb)","type":"Kreisangehörige_Gemeinde"},"district":{"key":"03458","name":"Oldenburg","type":"Landkreis"},"federalState":{"key":"03","name":"Niedersachsen"}},{"name":"Otto-Modersohn-Str.","postalCode":"26133","locality":"Oldenburg","municipality":{"key":"03403000","name":"Oldenburg (Oldenburg), Stadt","type":"Kreisfreie_Stadt"},"district":{"key":"03403","name":"Oldenburg (Oldenburg), Stadt","type":"Kreisfreie_Stadt"},"federalState":{"key":"03","name":"Niedersachsen"}},{"name":"Ottostr.","postalCode":"26135","locality":"Oldenburg","municipality":{"key":"03403000","name":"Oldenburg (Oldenburg), Stadt","type":"Kreisfreie_Stadt"},"district":{"key":"03403","name":"Oldenburg (Oldenburg), Stadt","type":"Kreisfreie_Stadt"},"federalState":{"key":"03","name":"Niedersachsen"}},{"name":"Otto-Suhr-Str.","postalCode":"26131","locality":"Oldenburg","municipality":{"key":"03403000","name":"Oldenburg (Oldenburg), Stadt","type":"Kreisfreie_Stadt"},"district":{"key":"03403","name":"Oldenburg (Oldenburg), Stadt","type":"Kreisfreie_Stadt"},"federalState":{"key":"03","name":"Niedersachsen"}},{"name":"Otto-Wels-Str.","postalCode":"26133","locality":"Oldenburg","municipality":{"key":"03403000","name":"Oldenburg (Oldenburg), Stadt","type":"Kreisfreie_Stadt"},"district":{"key":"03403","name":"Oldenburg (Oldenburg), Stadt","type":"Kreisfreie_Stadt"},"federalState":{"key":"03","name":"Niedersachsen"}},{"name":"Papenhof","postalCode":"23758","locality":"Oldenburg in Holstein","municipality":{"key":"01055033","name":"Oldenburg in Holstein, Stadt","type":"Stadt"},"district":{"key":"01055","name":"Ostholstein","type":"Kreis"},"federalState":{"key":"01","name":"Schleswig-Holstein"}},{"name":"Pappelallee","postalCode":"26122","locality":"Oldenburg","municipality":{"key":"03403000","name":"Oldenburg (Oldenburg), Stadt","type":"Kreisfreie_Stadt"},"district":{"key":"03403","name":"Oldenburg (Oldenburg), Stadt","type":"Kreisfreie_Stadt"},"federalState":{"key":"03","name":"Niedersachsen"}},{"name":"Pappelstr.","postalCode":"49692","locality":"Cappeln (Oldenburg)","municipality":{"key":"03453003","name":"Cappeln (Oldenburg)","type":"Kreisangehörige_Gemeinde"},"district":{"key":"03453","name":"Cloppenburg","type":"Landkreis"},"federalState":{"key":"03","name":"Niedersachsen"}},{"name":"Pappelweg","postalCode":"49699","locality":"Lindern (Oldenburg)","municipality":{"key":"03453010","name":"Lindern (Oldenburg)","type":"Kreisangehörige_Gemeinde"},"district":{"key":"03453","name":"Cloppenburg","type":"Landkreis"},"federalState":{"key":"03","name":"Niedersachsen"}},{"name":"Paradewall","postalCode":"26122","locality":"Oldenburg","municipality":{"key":"03403000","name":"Oldenburg (Oldenburg), Stadt","type":"Kreisfreie_Stadt"},"district":{"key":"03403","name":"Oldenburg (Oldenburg), Stadt","type":"Kreisfreie_Stadt"},"federalState":{"key":"03","name":"Niedersachsen"}},{"name":"Parc d'Arnage","postalCode":"27798","locality":"Hude (Oldenburg)","municipality":{"key":"03458010","name":"Hude (Oldb)","type":"Kreisangehörige_Gemeinde"},"district":{"key":"03458","name":"Oldenburg","type":"Landkreis"},"federalState":{"key":"03","name":"Niedersachsen"}},{"name":"Pariser Str.","postalCode":"26127","locality":"Oldenburg","municipality":{"key":"03403000","name":"Oldenburg (Oldenburg), Stadt","type":"Kreisfreie_Stadt"},"district":{"key":"03403","name":"Oldenburg (Oldenburg), Stadt","type":"Kreisfreie_Stadt"},"federalState":{"key":"03","name":"Niedersachsen"}},{"name":"Parisiusweg","postalCode":"27798","locality":"Hude (Oldenburg)","municipality":{"key":"03458010","name":"Hude (Oldb)","type":"Kreisangehörige_Gemeinde"},"district":{"key":"03458","name":"Oldenburg","type":"Landkreis"},"federalState":{"key":"03","name":"Niedersachsen"}},{"name":"Parkstr.","postalCode":"26122","locality":"Oldenburg","municipality":{"key":"03403000","name":"Oldenburg (Oldenburg), Stadt","type":"Kreisfreie_Stadt"},"district":{"key":"03403","name":"Oldenburg (Oldenburg), Stadt","type":"Kreisfreie_Stadt"},"federalState":{"key":"03","name":"Niedersachsen"}},{"name":"Parkstr.","postalCode":"27798","locality":"Hude (Oldenburg)","municipality":{"key":"03458010","name":"Hude (Oldb)","type":"Kreisangehörige_Gemeinde"},"district":{"key":"03458","name":"Oldenburg","type":"Landkreis"},"federalState":{"key":"03","name":"Niedersachsen"}},{"name":"Passage","postalCode":"23758","locality":"Oldenburg in Holstein","municipality":{"key":"01055033","name":"Oldenburg in Holstein, Stadt","type":"Stadt"},"district":{"key":"01055","name":"Ostholstein","type":"Kreis"},"federalState":{"key":"01","name":"Schleswig-Holstein"}},{"name":"Pasteurstr.","postalCode":"26133","locality":"Oldenburg","municipality":{"key":"03403000","name":"Oldenburg (Oldenburg), Stadt","type":"Kreisfreie_Stadt"},"district":{"key":"03403","name":"Oldenburg (Oldenburg), Stadt","type":"Kreisfreie_Stadt"},"federalState":{"key":"03","name":"Niedersachsen"}},{"name":"Pastorberg","postalCode":"23758","locality":"Oldenburg in Holstein","municipality":{"key":"01055033","name":"Oldenburg in Holstein, Stadt","type":"Stadt"},"district":{"key":"01055","name":"Ostholstein","type":"Kreis"},"federalState":{"key":"01","name":"Schleswig-Holstein"}},{"name":"Pastorenbusch","postalCode":"49632","locality":"Essen (Oldenburg)","municipality":{"key":"03453006","name":"Essen (Oldenburg)","type":"Kreisangehörige_Gemeinde"},"district":{"key":"03453","name":"Cloppenburg","type":"Landkreis"},"federalState":{"key":"03","name":"Niedersachsen"}},{"name":"Pastorenbusch","postalCode":"49699","locality":"Lindern (Oldenburg)","municipality":{"key":"03453010","name":"Lindern (Oldenburg)","type":"Kreisangehörige_Gemeinde"},"district":{"key":"03453","name":"Cloppenburg","type":"Landkreis"},"federalState":{"key":"03","name":"Niedersachsen"}},{"name":"Pastor Vossing Weg","postalCode":"49699","locality":"Lindern (Oldenburg)","municipality":{"key":"03453010","name":"Lindern (Oldenburg)","type":"Kreisangehörige_Gemeinde"},"district":{"key":"03453","name":"Cloppenburg","type":"Landkreis"},"federalState":{"key":"03","name":"Niedersachsen"}},{"name":"Paula-Modersohn-Becker-Str.","postalCode":"26133","locality":"Oldenburg","municipality":{"key":"03403000","name":"Oldenburg (Oldenburg), Stadt","type":"Kreisfreie_Stadt"},"district":{"key":"03403","name":"Oldenburg (Oldenburg), Stadt","type":"Kreisfreie_Stadt"},"federalState":{"key":"03","name":"Niedersachsen"}},{"name":"Paul-Bonatz-Str.","postalCode":"26133","locality":"Oldenburg","municipality":{"key":"03403000","name":"Oldenburg (Oldenburg), Stadt","type":"Kreisfreie_Stadt"},"district":{"key":"03403","name":"Oldenburg (Oldenburg), Stadt","type":"Kreisfreie_Stadt"},"federalState":{"key":"03","name":"Niedersachsen"}},{"name":"Paul-Klee-Str.","postalCode":"26133","locality":"Oldenburg","municipality":{"key":"03403000","name":"Oldenburg (Oldenburg), Stadt","type":"Kreisfreie_Stadt"},"district":{"key":"03403","name":"Oldenburg (Oldenburg), Stadt","type":"Kreisfreie_Stadt"},"federalState":{"key":"03","name":"Niedersachsen"}},{"name":"Paul-Krey-Str.","postalCode":"26135","locality":"Oldenburg","municipality":{"key":"03403000","name":"Oldenburg (Oldenburg), Stadt","type":"Kreisfreie_Stadt"},"district":{"key":"03403","name":"Oldenburg (Oldenburg), Stadt","type":"Kreisfreie_Stadt"},"federalState":{"key":"03","name":"Niedersachsen"}},{"name":"Paul-Löbe-Str.","postalCode":"26133","locality":"Oldenburg","municipality":{"key":"03403000","name":"Oldenburg (Oldenburg), Stadt","type":"Kreisfreie_Stadt"},"district":{"key":"03403","name":"Oldenburg (Oldenburg), Stadt","type":"Kreisfreie_Stadt"},"federalState":{"key":"03","name":"Niedersachsen"}},{"name":"Paulstr.","postalCode":"26129","locality":"Oldenburg","municipality":{"key":"03403000","name":"Oldenburg (Oldenburg), Stadt","type":"Kreisfreie_Stadt"},"district":{"key":"03403","name":"Oldenburg (Oldenburg), Stadt","type":"Kreisfreie_Stadt"},"federalState":{"key":"03","name":"Niedersachsen"}},{"name":"Paul-Tantzen-Str.","postalCode":"26125","locality":"Oldenburg","municipality":{"key":"03403000","name":"Oldenburg (Oldenburg), Stadt","type":"Kreisfreie_Stadt"},"district":{"key":"03403","name":"Oldenburg (Oldenburg), Stadt","type":"Kreisfreie_Stadt"},"federalState":{"key":"03","name":"Niedersachsen"}},{"name":"Peheimer Str.","postalCode":"49699","locality":"Lindern (Oldenburg)","municipality":{"key":"03453010","name":"Lindern (Oldenburg)","type":"Kreisangehörige_Gemeinde"},"district":{"key":"03453","name":"Cloppenburg","type":"Landkreis"},"federalState":{"key":"03","name":"Niedersachsen"}},{"name":"Pellwormer Weg","postalCode":"26131","locality":"Oldenburg","municipality":{"key":"03403000","name":"Oldenburg (Oldenburg), Stadt","type":"Kreisfreie_Stadt"},"district":{"key":"03403","name":"Oldenburg (Oldenburg), Stadt","type":"Kreisfreie_Stadt"},"federalState":{"key":"03","name":"Niedersachsen"}},{"name":"Pestalozzistr.","postalCode":"26131","locality":"Oldenburg","municipality":{"key":"03403000","name":"Oldenburg (Oldenburg), Stadt","type":"Kreisfreie_Stadt"},"district":{"key":"03403","name":"Oldenburg (Oldenburg), Stadt","type":"Kreisfreie_Stadt"},"federalState":{"key":"03","name":"Niedersachsen"}},{"name":"Pestrupsweg","postalCode":"26129","locality":"Oldenburg","municipality":{"key":"03403000","name":"Oldenburg (Oldenburg), Stadt","type":"Kreisfreie_Stadt"},"district":{"key":"03403","name":"Oldenburg (Oldenburg), Stadt","type":"Kreisfreie_Stadt"},"federalState":{"key":"03","name":"Niedersachsen"}},{"name":"Peterstr.","postalCode":"26121","locality":"Oldenburg","municipality":{"key":"03403000","name":"Oldenburg (Oldenburg), Stadt","type":"Kreisfreie_Stadt"},"district":{"key":"03403","name":"Oldenburg (Oldenburg), Stadt","type":"Kreisfreie_Stadt"},"federalState":{"key":"03","name":"Niedersachsen"}},{"name":"Peterstr.","postalCode":"49632","locality":"Essen (Oldenburg)","municipality":{"key":"03453006","name":"Essen (Oldenburg)","type":"Kreisangehörige_Gemeinde"},"district":{"key":"03453","name":"Cloppenburg","type":"Landkreis"},"federalState":{"key":"03","name":"Niedersachsen"}},{"name":"Pfänderweg","postalCode":"26123","locality":"Oldenburg","municipality":{"key":"03403000","name":"Oldenburg (Oldenburg), Stadt","type":"Kreisfreie_Stadt"},"district":{"key":"03403","name":"Oldenburg (Oldenburg), Stadt","type":"Kreisfreie_Stadt"},"federalState":{"key":"03","name":"Niedersachsen"}},{"name":"Pfauenstr.","postalCode":"26135","locality":"Oldenburg","municipality":{"key":"03403000","name":"Oldenburg (Oldenburg), Stadt","type":"Kreisfreie_Stadt"},"district":{"key":"03403","name":"Oldenburg (Oldenburg), Stadt","type":"Kreisfreie_Stadt"},"federalState":{"key":"03","name":"Niedersachsen"}},{"name":"Pferdemarkt","postalCode":"26121","locality":"Oldenburg","municipality":{"key":"03403000","name":"Oldenburg (Oldenburg), Stadt","type":"Kreisfreie_Stadt"},"district":{"key":"03403","name":"Oldenburg (Oldenburg), Stadt","type":"Kreisfreie_Stadt"},"federalState":{"key":"03","name":"Niedersachsen"}},{"name":"Philipp-de-Haas-Str.","postalCode":"26125","locality":"Oldenburg","municipality":{"key":"03403000","name":"Oldenburg (Oldenburg), Stadt","type":"Kreisfreie_Stadt"},"district":{"key":"03403","name":"Oldenburg (Oldenburg), Stadt","type":"Kreisfreie_Stadt"},"federalState":{"key":"03","name":"Niedersachsen"}},{"name":"Philipp-Reis-Gang","postalCode":"26122","locality":"Oldenburg","municipality":{"key":"03403000","name":"Oldenburg (Oldenburg), Stadt","type":"Kreisfreie_Stadt"},"district":{"key":"03403","name":"Oldenburg (Oldenburg), Stadt","type":"Kreisfreie_Stadt"},"federalState":{"key":"03","name":"Niedersachsen"}},{"name":"Philipp-Scheidemann-Str.","postalCode":"26133","locality":"Oldenburg","municipality":{"key":"03403000","name":"Oldenburg (Oldenburg), Stadt","type":"Kreisfreie_Stadt"},"district":{"key":"03403","name":"Oldenburg (Oldenburg), Stadt","type":"Kreisfreie_Stadt"},"federalState":{"key":"03","name":"Niedersachsen"}},{"name":"Philosophenweg","postalCode":"26121","locality":"Oldenburg","municipality":{"key":"03403000","name":"Oldenburg (Oldenburg), Stadt","type":"Kreisfreie_Stadt"},"district":{"key":"03403","name":"Oldenburg (Oldenburg), Stadt","type":"Kreisfreie_Stadt"},"federalState":{"key":"03","name":"Niedersachsen"}},{"name":"Piepersweg","postalCode":"27798","locality":"Hude (Oldenburg)","municipality":{"key":"03458010","name":"Hude (Oldb)","type":"Kreisangehörige_Gemeinde"},"district":{"key":"03458","name":"Oldenburg","type":"Landkreis"},"federalState":{"key":"03","name":"Niedersachsen"}},{"name":"Pillauer Weg","postalCode":"26127","locality":"Oldenburg","municipality":{"key":"03403000","name":"Oldenburg (Oldenburg), Stadt","type":"Kreisfreie_Stadt"},"district":{"key":"03403","name":"Oldenburg (Oldenburg), Stadt","type":"Kreisfreie_Stadt"},"federalState":{"key":"03","name":"Niedersachsen"}},{"name":"Pingel Anton","postalCode":"49699","locality":"Lindern (Oldenburg)","municipality":{"key":"03453010","name":"Lindern (Oldenburg)","type":"Kreisangehörige_Gemeinde"},"district":{"key":"03453","name":"Cloppenburg","type":"Landkreis"},"federalState":{"key":"03","name":"Niedersachsen"}},{"name":"Pionierweg","postalCode":"26129","locality":"Oldenburg","municipality":{"key":"03403000","name":"Oldenburg (Oldenburg), Stadt","type":"Kreisfreie_Stadt"},"district":{"key":"03403","name":"Oldenburg (Oldenburg), Stadt","type":"Kreisfreie_Stadt"},"federalState":{"key":"03","name":"Niedersachsen"}},{"name":"Pirolweg","postalCode":"26127","locality":"Oldenburg","municipality":{"key":"03403000","name":"Oldenburg (Oldenburg), Stadt","type":"Kreisfreie_Stadt"},"district":{"key":"03403","name":"Oldenburg (Oldenburg), Stadt","type":"Kreisfreie_Stadt"},"federalState":{"key":"03","name":"Niedersachsen"}},{"name":"Pirolweg","postalCode":"26131","locality":"Oldenburg","municipality":{"key":"03403000","name":"Oldenburg (Oldenburg), Stadt","type":"Kreisfreie_Stadt"},"district":{"key":"03403","name":"Oldenburg (Oldenburg), Stadt","type":"Kreisfreie_Stadt"},"federalState":{"key":"03","name":"Niedersachsen"}},{"name":"Pirschweg","postalCode":"26133","locality":"Oldenburg","municipality":{"key":"03403000","name":"Oldenburg (Oldenburg), Stadt","type":"Kreisfreie_Stadt"},"district":{"key":"03403","name":"Oldenburg (Oldenburg), Stadt","type":"Kreisfreie_Stadt"},"federalState":{"key":"03","name":"Niedersachsen"}},{"name":"Plaggenhau","postalCode":"26135","locality":"Oldenburg","municipality":{"key":"03403000","name":"Oldenburg (Oldenburg), Stadt","type":"Kreisfreie_Stadt"},"district":{"key":"03403","name":"Oldenburg (Oldenburg), Stadt","type":"Kreisfreie_Stadt"},"federalState":{"key":"03","name":"Niedersachsen"}},{"name":"Planckstr.","postalCode":"26133","locality":"Oldenburg","municipality":{"key":"03403000","name":"Oldenburg (Oldenburg), Stadt","type":"Kreisfreie_Stadt"},"district":{"key":"03403","name":"Oldenburg (Oldenburg), Stadt","type":"Kreisfreie_Stadt"},"federalState":{"key":"03","name":"Niedersachsen"}},{"name":"Platanenallee","postalCode":"23758","locality":"Oldenburg in Holstein","municipality":{"key":"01055033","name":"Oldenburg in Holstein, Stadt","type":"Stadt"},"district":{"key":"01055","name":"Ostholstein","type":"Kreis"},"federalState":{"key":"01","name":"Schleswig-Holstein"}},{"name":"Platanenhof","postalCode":"23758","locality":"Oldenburg in Holstein","municipality":{"key":"01055033","name":"Oldenburg in Holstein, Stadt","type":"Stadt"},"district":{"key":"01055","name":"Ostholstein","type":"Kreis"},"federalState":{"key":"01","name":"Schleswig-Holstein"}},{"name":"Plauk","postalCode":"49692","locality":"Cappeln (Oldenburg)","municipality":{"key":"03453003","name":"Cappeln (Oldenburg)","type":"Kreisangehörige_Gemeinde"},"district":{"key":"03453","name":"Cloppenburg","type":"Landkreis"},"federalState":{"key":"03","name":"Niedersachsen"}},{"name":"Poeler Ring","postalCode":"26131","locality":"Oldenburg","municipality":{"key":"03403000","name":"Oldenburg (Oldenburg), Stadt","type":"Kreisfreie_Stadt"},"district":{"key":"03403","name":"Oldenburg (Oldenburg), Stadt","type":"Kreisfreie_Stadt"},"federalState":{"key":"03","name":"Niedersachsen"}},{"name":"Pohlweg","postalCode":"27798","locality":"Hude (Oldenburg)","municipality":{"key":"03458010","name":"Hude (Oldb)","type":"Kreisangehörige_Gemeinde"},"district":{"key":"03458","name":"Oldenburg","type":"Landkreis"},"federalState":{"key":"03","name":"Niedersachsen"}},{"name":"Quakenbrücker Str.","postalCode":"49632","locality":"Essen (Oldenburg)","municipality":{"key":"03453006","name":"Essen (Oldenburg)","type":"Kreisangehörige_Gemeinde"},"district":{"key":"03453","name":"Cloppenburg","type":"Landkreis"},"federalState":{"key":"03","name":"Niedersachsen"}},{"name":"Quellenweg","postalCode":"26129","locality":"Oldenburg","municipality":{"key":"03403000","name":"Oldenburg (Oldenburg), Stadt","type":"Kreisfreie_Stadt"},"district":{"key":"03403","name":"Oldenburg (Oldenburg), Stadt","type":"Kreisfreie_Stadt"},"federalState":{"key":"03","name":"Niedersachsen"}},{"name":"Quendelstr.","postalCode":"26127","locality":"Oldenburg","municipality":{"key":"03403000","name":"Oldenburg (Oldenburg), Stadt","type":"Kreisfreie_Stadt"},"district":{"key":"03403","name":"Oldenburg (Oldenburg), Stadt","type":"Kreisfreie_Stadt"},"federalState":{"key":"03","name":"Niedersachsen"}},{"name":"Querweg","postalCode":"26127","locality":"Oldenburg","municipality":{"key":"03403000","name":"Oldenburg (Oldenburg), Stadt","type":"Kreisfreie_Stadt"},"district":{"key":"03403","name":"Oldenburg (Oldenburg), Stadt","type":"Kreisfreie_Stadt"},"federalState":{"key":"03","name":"Niedersachsen"}},{"name":"Rundebusch","postalCode":"27243","locality":"Prinzhöfte","municipality":{"key":"03458012","name":"Prinzhöfte","type":"Kreisangehörige_Gemeinde"},"district":{"key":"03458","name":"Oldenburg","type":"Landkreis"},"federalState":{"key":"03","name":"Niedersachsen"}},{"name":"Sandberg","postalCode":"27243","locality":"Prinzhöfte","municipality":{"key":"03458012","name":"Prinzhöfte","type":"Kreisangehörige_Gemeinde"},"district":{"key":"03458","name":"Oldenburg","type":"Landkreis"},"federalState":{"key":"03","name":"Niedersachsen"}},{"name":"Schafskamp","postalCode":"27243","locality":"Prinzhöfte","municipality":{"key":"03458012","name":"Prinzhöfte","type":"Kreisangehörige_Gemeinde"},"district":{"key":"03458","name":"Oldenburg","type":"Landkreis"},"federalState":{"key":"03","name":"Niedersachsen"}},{"name":"Schulenberger Str.","postalCode":"27243","locality":"Prinzhöfte","municipality":{"key":"03458012","name":"Prinzhöfte","type":"Kreisangehörige_Gemeinde"},"district":{"key":"03458","name":"Oldenburg","type":"Landkreis"},"federalState":{"key":"03","name":"Niedersachsen"}},{"name":"Sether Mühle","postalCode":"27243","locality":"Prinzhöfte","municipality":{"key":"03458012","name":"Prinzhöfte","type":"Kreisangehörige_Gemeinde"},"district":{"key":"03458","name":"Oldenburg","type":"Landkreis"},"federalState":{"key":"03","name":"Niedersachsen"}},{"name":"Simmerhauser Str.","postalCode":"27243","locality":"Prinzhöfte","municipality":{"key":"03458012","name":"Prinzhöfte","type":"Kreisangehörige_Gemeinde"},"district":{"key":"03458","name":"Oldenburg","type":"Landkreis"},"federalState":{"key":"03","name":"Niedersachsen"}},{"name":"Simmerhauser Weg","postalCode":"27243","locality":"Prinzhöfte","municipality":{"key":"03458012","name":"Prinzhöfte","type":"Kreisangehörige_Gemeinde"},"district":{"key":"03458","name":"Oldenburg","type":"Landkreis"},"federalState":{"key":"03","name":"Niedersachsen"}},{"name":"Stiftenhöfter Str.","postalCode":"27243","locality":"Prinzhöfte","municipality":{"key":"03458012","name":"Prinzhöfte","type":"Kreisangehörige_Gemeinde"},"district":{"key":"03458","name":"Oldenburg","type":"Landkreis"},"federalState":{"key":"03","name":"Niedersachsen"}},{"name":"Traren","postalCode":"27243","locality":"Prinzhöfte","municipality":{"key":"03458012","name":"Prinzhöfte","type":"Kreisangehörige_Gemeinde"},"district":{"key":"03458","name":"Oldenburg","type":"Landkreis"},"federalState":{"key":"03","name":"Niedersachsen"}},{"name":"Uferstr.","postalCode":"26135","locality":"Oldenburg","municipality":{"key":"03403000","name":"Oldenburg (Oldenburg), Stadt","type":"Kreisfreie_Stadt"},"district":{"key":"03403","name":"Oldenburg (Oldenburg), Stadt","type":"Kreisfreie_Stadt"},"federalState":{"key":"03","name":"Niedersachsen"}},{"name":"Uhlandstr.","postalCode":"27798","locality":"Hude (Oldenburg)","municipality":{"key":"03458010","name":"Hude (Oldb)","type":"Kreisangehörige_Gemeinde"},"district":{"key":"03458","name":"Oldenburg","type":"Landkreis"},"federalState":{"key":"03","name":"Niedersachsen"}},{"name":"Uhlenweg","postalCode":"26135","locality":"Oldenburg","municipality":{"key":"03403000","name":"Oldenburg (Oldenburg), Stadt","type":"Kreisfreie_Stadt"},"district":{"key":"03403","name":"Oldenburg (Oldenburg), Stadt","type":"Kreisfreie_Stadt"},"federalState":{"key":"03","name":"Niedersachsen"}},{"name":"Uhlhornsweg","postalCode":"26129","locality":"Oldenburg","municipality":{"key":"03403000","name":"Oldenburg (Oldenburg), Stadt","type":"Kreisfreie_Stadt"},"district":{"key":"03403","name":"Oldenburg (Oldenburg), Stadt","type":"Kreisfreie_Stadt"},"federalState":{"key":"03","name":"Niedersachsen"}},{"name":"Ulmenstr.","postalCode":"26135","locality":"Oldenburg","municipality":{"key":"03403000","name":"Oldenburg (Oldenburg), Stadt","type":"Kreisfreie_Stadt"},"district":{"key":"03403","name":"Oldenburg (Oldenburg), Stadt","type":"Kreisfreie_Stadt"},"federalState":{"key":"03","name":"Niedersachsen"}},{"name":"Ulmenstr.","postalCode":"27798","locality":"Hude (Oldenburg)","municipality":{"key":"03458010","name":"Hude (Oldb)","type":"Kreisangehörige_Gemeinde"},"district":{"key":"03458","name":"Oldenburg","type":"Landkreis"},"federalState":{"key":"03","name":"Niedersachsen"}},{"name":"Ulmenstr.","postalCode":"49692","locality":"Cappeln (Oldenburg)","municipality":{"key":"03453003","name":"Cappeln (Oldenburg)","type":"Kreisangehörige_Gemeinde"},"district":{"key":"03453","name":"Cloppenburg","type":"Landkreis"},"federalState":{"key":"03","name":"Niedersachsen"}},{"name":"Ulmenweg","postalCode":"23758","locality":"Oldenburg in Holstein","municipality":{"key":"01055033","name":"Oldenburg in Holstein, Stadt","type":"Stadt"},"district":{"key":"01055","name":"Ostholstein","type":"Kreis"},"federalState":{"key":"01","name":"Schleswig-Holstein"}},{"name":"Ulrich-von-Hutten-Str.","postalCode":"26129","locality":"Oldenburg","municipality":{"key":"03403000","name":"Oldenburg (Oldenburg), Stadt","type":"Kreisfreie_Stadt"},"district":{"key":"03403","name":"Oldenburg (Oldenburg), Stadt","type":"Kreisfreie_Stadt"},"federalState":{"key":"03","name":"Niedersachsen"}},{"name":"Unter den Eichen","postalCode":"26122","locality":"Oldenburg","municipality":{"key":"03403000","name":"Oldenburg (Oldenburg), Stadt","type":"Kreisfreie_Stadt"},"district":{"key":"03403","name":"Oldenburg (Oldenburg), Stadt","type":"Kreisfreie_Stadt"},"federalState":{"key":"03","name":"Niedersachsen"}},{"name":"Unter den Eichen","postalCode":"27798","locality":"Hude (Oldenburg)","municipality":{"key":"03458010","name":"Hude (Oldb)","type":"Kreisangehörige_Gemeinde"},"district":{"key":"03458","name":"Oldenburg","type":"Landkreis"},"federalState":{"key":"03","name":"Niedersachsen"}},{"name":"Unter den Linden","postalCode":"26129","locality":"Oldenburg","municipality":{"key":"03403000","name":"Oldenburg (Oldenburg), Stadt","type":"Kreisfreie_Stadt"},"district":{"key":"03403","name":"Oldenburg (Oldenburg), Stadt","type":"Kreisfreie_Stadt"},"federalState":{"key":"03","name":"Niedersachsen"}},{"name":"Unterm Berg","postalCode":"26123","locality":"Oldenburg","municipality":{"key":"03403000","name":"Oldenburg (Oldenburg), Stadt","type":"Kreisfreie_Stadt"},"district":{"key":"03403","name":"Oldenburg (Oldenburg), Stadt","type":"Kreisfreie_Stadt"},"federalState":{"key":"03","name":"Niedersachsen"}},{"name":"Unterstr.","postalCode":"26123","locality":"Oldenburg","municipality":{"key":"03403000","name":"Oldenburg (Oldenburg), Stadt","type":"Kreisfreie_Stadt"},"district":{"key":"03403","name":"Oldenburg (Oldenburg), Stadt","type":"Kreisfreie_Stadt"},"federalState":{"key":"03","name":"Niedersachsen"}},{"name":"Up de Wührden","postalCode":"26133","locality":"Oldenburg","municipality":{"key":"03403000","name":"Oldenburg (Oldenburg), Stadt","type":"Kreisfreie_Stadt"},"district":{"key":"03403","name":"Oldenburg (Oldenburg), Stadt","type":"Kreisfreie_Stadt"},"federalState":{"key":"03","name":"Niedersachsen"}},{"name":"Up'n Brink","postalCode":"49692","locality":"Cappeln (Oldenburg)","municipality":{"key":"03453003","name":"Cappeln (Oldenburg)","type":"Kreisangehörige_Gemeinde"},"district":{"key":"03453","name":"Cloppenburg","type":"Landkreis"},"federalState":{"key":"03","name":"Niedersachsen"}},{"name":"Up'n Felde","postalCode":"49632","locality":"Essen (Oldenburg)","municipality":{"key":"03453006","name":"Essen (Oldenburg)","type":"Kreisangehörige_Gemeinde"},"district":{"key":"03453","name":"Cloppenburg","type":"Landkreis"},"federalState":{"key":"03","name":"Niedersachsen"}},{"name":"Usedomer Ring","postalCode":"26131","locality":"Oldenburg","municipality":{"key":"03403000","name":"Oldenburg (Oldenburg), Stadt","type":"Kreisfreie_Stadt"},"district":{"key":"03403","name":"Oldenburg (Oldenburg), Stadt","type":"Kreisfreie_Stadt"},"federalState":{"key":"03","name":"Niedersachsen"}},{"name":"Vor den Höfen","postalCode":"27243","locality":"Prinzhöfte","municipality":{"key":"03458012","name":"Prinzhöfte","type":"Kreisangehörige_Gemeinde"},"district":{"key":"03458","name":"Oldenburg","type":"Landkreis"},"federalState":{"key":"03","name":"Niedersachsen"}},{"name":"Wabenweg","postalCode":"26125","locality":"Oldenburg","municipality":{"key":"03403000","name":"Oldenburg (Oldenburg), Stadt","type":"Kreisfreie_Stadt"},"district":{"key":"03403","name":"Oldenburg (Oldenburg), Stadt","type":"Kreisfreie_Stadt"},"federalState":{"key":"03","name":"Niedersachsen"}},{"name":"Wacholderstr.","postalCode":"49692","locality":"Cappeln (Oldenburg)","municipality":{"key":"03453003","name":"Cappeln (Oldenburg)","type":"Kreisangehörige_Gemeinde"},"district":{"key":"03453","name":"Cloppenburg","type":"Landkreis"},"federalState":{"key":"03","name":"Niedersachsen"}},{"name":"Wacholderweg","postalCode":"23758","locality":"Oldenburg in Holstein","municipality":{"key":"01055033","name":"Oldenburg in Holstein, Stadt","type":"Stadt"},"district":{"key":"01055","name":"Ostholstein","type":"Kreis"},"federalState":{"key":"01","name":"Schleswig-Holstein"}},{"name":"Wacholderweg","postalCode":"26133","locality":"Oldenburg","municipality":{"key":"03403000","name":"Oldenburg (Oldenburg), Stadt","type":"Kreisfreie_Stadt"},"district":{"key":"03403","name":"Oldenburg (Oldenburg), Stadt","type":"Kreisfreie_Stadt"},"federalState":{"key":"03","name":"Niedersachsen"}},{"name":"Wacholderweg","postalCode":"49632","locality":"Essen (Oldenburg)","municipality":{"key":"03453006","name":"Essen (Oldenburg)","type":"Kreisangehörige_Gemeinde"},"district":{"key":"03453","name":"Cloppenburg","type":"Landkreis"},"federalState":{"key":"03","name":"Niedersachsen"}},{"name":"Wachtelweg","postalCode":"26131","locality":"Oldenburg","municipality":{"key":"03403000","name":"Oldenburg (Oldenburg), Stadt","type":"Kreisfreie_Stadt"},"district":{"key":"03403","name":"Oldenburg (Oldenburg), Stadt","type":"Kreisfreie_Stadt"},"federalState":{"key":"03","name":"Niedersachsen"}},{"name":"Waffenplatz","postalCode":"26122","locality":"Oldenburg","municipality":{"key":"03403000","name":"Oldenburg (Oldenburg), Stadt","type":"Kreisfreie_Stadt"},"district":{"key":"03403","name":"Oldenburg (Oldenburg), Stadt","type":"Kreisfreie_Stadt"},"federalState":{"key":"03","name":"Niedersachsen"}},{"name":"Wagriaweg","postalCode":"23758","locality":"Oldenburg in Holstein","municipality":{"key":"01055033","name":"Oldenburg in Holstein, Stadt","type":"Stadt"},"district":{"key":"01055","name":"Ostholstein","type":"Kreis"},"federalState":{"key":"01","name":"Schleswig-Holstein"}},{"name":"Wahnbäkenweg","postalCode":"26125","locality":"Oldenburg","municipality":{"key":"03403000","name":"Oldenburg (Oldenburg), Stadt","type":"Kreisfreie_Stadt"},"district":{"key":"03403","name":"Oldenburg (Oldenburg), Stadt","type":"Kreisfreie_Stadt"},"federalState":{"key":"03","name":"Niedersachsen"}},{"name":"Waldkauzweg","postalCode":"26133","locality":"Oldenburg","municipality":{"key":"03403000","name":"Oldenburg (Oldenburg), Stadt","type":"Kreisfreie_Stadt"},"district":{"key":"03403","name":"Oldenburg (Oldenburg), Stadt","type":"Kreisfreie_Stadt"},"federalState":{"key":"03","name":"Niedersachsen"}},{"name":"Waldmannsweg","postalCode":"26133","locality":"Oldenburg","municipality":{"key":"03403000","name":"Oldenburg (Oldenburg), Stadt","type":"Kreisfreie_Stadt"},"district":{"key":"03403","name":"Oldenburg (Oldenburg), Stadt","type":"Kreisfreie_Stadt"},"federalState":{"key":"03","name":"Niedersachsen"}},{"name":"Waldmeisterweg","postalCode":"26135","locality":"Oldenburg","municipality":{"key":"03403000","name":"Oldenburg (Oldenburg), Stadt","type":"Kreisfreie_Stadt"},"district":{"key":"03403","name":"Oldenburg (Oldenburg), Stadt","type":"Kreisfreie_Stadt"},"federalState":{"key":"03","name":"Niedersachsen"}},{"name":"Waldstr.","postalCode":"27798","locality":"Hude (Oldenburg)","municipality":{"key":"03458010","name":"Hude (Oldb)","type":"Kreisangehörige_Gemeinde"},"district":{"key":"03458","name":"Oldenburg","type":"Landkreis"},"federalState":{"key":"03","name":"Niedersachsen"}},{"name":"Waldstr.","postalCode":"49699","locality":"Lindern (Oldenburg)","municipality":{"key":"03453010","name":"Lindern (Oldenburg)","type":"Kreisangehörige_Gemeinde"},"district":{"key":"03453","name":"Cloppenburg","type":"Landkreis"},"federalState":{"key":"03","name":"Niedersachsen"}},{"name":"Wallgraben","postalCode":"26121","locality":"Oldenburg","municipality":{"key":"03403000","name":"Oldenburg (Oldenburg), Stadt","type":"Kreisfreie_Stadt"},"district":{"key":"03403","name":"Oldenburg (Oldenburg), Stadt","type":"Kreisfreie_Stadt"},"federalState":{"key":"03","name":"Niedersachsen"}},{"name":"Wallheckenring","postalCode":"26125","locality":"Oldenburg","municipality":{"key":"03403000","name":"Oldenburg (Oldenburg), Stadt","type":"Kreisfreie_Stadt"},"district":{"key":"03403","name":"Oldenburg (Oldenburg), Stadt","type":"Kreisfreie_Stadt"},"federalState":{"key":"03","name":"Niedersachsen"}},{"name":"Wallstr.","postalCode":"23758","locality":"Oldenburg in Holstein","municipality":{"key":"01055033","name":"Oldenburg in Holstein, Stadt","type":"Stadt"},"district":{"key":"01055","name":"Ostholstein","type":"Kreis"},"federalState":{"key":"01","name":"Schleswig-Holstein"}},{"name":"Wallstr.","postalCode":"26122","locality":"Oldenburg","municipality":{"key":"03403000","name":"Oldenburg (Oldenburg), Stadt","type":"Kreisfreie_Stadt"},"district":{"key":"03403","name":"Oldenburg (Oldenburg), Stadt","type":"Kreisfreie_Stadt"},"federalState":{"key":"03","name":"Niedersachsen"}},{"name":"Walter-Meckauer-Str.","postalCode":"26131","locality":"Oldenburg","municipality":{"key":"03403000","name":"Oldenburg (Oldenburg), Stadt","type":"Kreisfreie_Stadt"},"district":{"key":"03403","name":"Oldenburg (Oldenburg), Stadt","type":"Kreisfreie_Stadt"},"federalState":{"key":"03","name":"Niedersachsen"}},{"name":"Walther-Diekmann-Str.","postalCode":"26133","locality":"Oldenburg","municipality":{"key":"03403000","name":"Oldenburg (Oldenburg), Stadt","type":"Kreisfreie_Stadt"},"district":{"key":"03403","name":"Oldenburg (Oldenburg), Stadt","type":"Kreisfreie_Stadt"},"federalState":{"key":"03","name":"Niedersachsen"}},{"name":"Walther-Rathenau-Str.","postalCode":"26133","locality":"Oldenburg","municipality":{"key":"03403000","name":"Oldenburg (Oldenburg), Stadt","type":"Kreisfreie_Stadt"},"district":{"key":"03403","name":"Oldenburg (Oldenburg), Stadt","type":"Kreisfreie_Stadt"},"federalState":{"key":"03","name":"Niedersachsen"}},{"name":"Wangerooger Str.","postalCode":"26131","locality":"Oldenburg","municipality":{"key":"03403000","name":"Oldenburg (Oldenburg), Stadt","type":"Kreisfreie_Stadt"},"district":{"key":"03403","name":"Oldenburg (Oldenburg), Stadt","type":"Kreisfreie_Stadt"},"federalState":{"key":"03","name":"Niedersachsen"}},{"name":"Wardenburgstr.","postalCode":"26121","locality":"Oldenburg","municipality":{"key":"03403000","name":"Oldenburg (Oldenburg), Stadt","type":"Kreisfreie_Stadt"},"district":{"key":"03403","name":"Oldenburg (Oldenburg), Stadt","type":"Kreisfreie_Stadt"},"federalState":{"key":"03","name":"Niedersachsen"}},{"name":"Warnstedter Grenzweg","postalCode":"49632","locality":"Essen (Oldenburg)","municipality":{"key":"03453006","name":"Essen (Oldenburg)","type":"Kreisangehörige_Gemeinde"},"district":{"key":"03453","name":"Cloppenburg","type":"Landkreis"},"federalState":{"key":"03","name":"Niedersachsen"}},{"name":"Warnstedter Str.","postalCode":"49632","locality":"Essen (Oldenburg)","municipality":{"key":"03453006","name":"Essen (Oldenburg)","type":"Kreisangehörige_Gemeinde"},"district":{"key":"03453","name":"Cloppenburg","type":"Landkreis"},"federalState":{"key":"03","name":"Niedersachsen"}},{"name":"Warnstedter Str.","postalCode":"49692","locality":"Cappeln (Oldenburg)","municipality":{"key":"03453003","name":"Cappeln (Oldenburg)","type":"Kreisangehörige_Gemeinde"},"district":{"key":"03453","name":"Cloppenburg","type":"Landkreis"},"federalState":{"key":"03","name":"Niedersachsen"}},{"name":"Warnsweg","postalCode":"26135","locality":"Oldenburg","municipality":{"key":"03403000","name":"Oldenburg (Oldenburg), Stadt","type":"Kreisfreie_Stadt"},"district":{"key":"03403","name":"Oldenburg (Oldenburg), Stadt","type":"Kreisfreie_Stadt"},"federalState":{"key":"03","name":"Niedersachsen"}},{"name":"Waterender Weg","postalCode":"26123","locality":"Oldenburg","municipality":{"key":"03403000","name":"Oldenburg (Oldenburg), Stadt","type":"Kreisfreie_Stadt"},"district":{"key":"03403","name":"Oldenburg (Oldenburg), Stadt","type":"Kreisfreie_Stadt"},"federalState":{"key":"03","name":"Niedersachsen"}},{"name":"Waterender Weg","postalCode":"26125","locality":"Oldenburg","municipality":{"key":"03403000","name":"Oldenburg (Oldenburg), Stadt","type":"Kreisfreie_Stadt"},"district":{"key":"03403","name":"Oldenburg (Oldenburg), Stadt","type":"Kreisfreie_Stadt"},"federalState":{"key":"03","name":"Niedersachsen"}},{"name":"Watertucht","postalCode":"26129","locality":"Oldenburg","municipality":{"key":"03403000","name":"Oldenburg (Oldenburg), Stadt","type":"Kreisfreie_Stadt"},"district":{"key":"03403","name":"Oldenburg (Oldenburg), Stadt","type":"Kreisfreie_Stadt"},"federalState":{"key":"03","name":"Niedersachsen"}},{"name":"Wechloyer Weg","postalCode":"26129","locality":"Oldenburg","municipality":{"key":"03403000","name":"Oldenburg (Oldenburg), Stadt","type":"Kreisfreie_Stadt"},"district":{"key":"03403","name":"Oldenburg (Oldenburg), Stadt","type":"Kreisfreie_Stadt"},"federalState":{"key":"03","name":"Niedersachsen"}},{"name":"Weddigenstr.","postalCode":"26123","locality":"Oldenburg","municipality":{"key":"03403000","name":"Oldenburg (Oldenburg), Stadt","type":"Kreisfreie_Stadt"},"district":{"key":"03403","name":"Oldenburg (Oldenburg), Stadt","type":"Kreisfreie_Stadt"},"federalState":{"key":"03","name":"Niedersachsen"}},{"name":"Weg am Blöcken","postalCode":"23758","locality":"Oldenburg in Holstein","municipality":{"key":"01055033","name":"Oldenburg in Holstein, Stadt","type":"Stadt"},"district":{"key":"01055","name":"Ostholstein","type":"Kreis"},"federalState":{"key":"01","name":"Schleswig-Holstein"}},{"name":"Weg zur Hardewiese","postalCode":"23758","locality":"Oldenburg in Holstein","municipality":{"key":"01055033","name":"Oldenburg in Holstein, Stadt","type":"Stadt"},"district":{"key":"01055","name":"Ostholstein","type":"Kreis"},"federalState":{"key":"01","name":"Schleswig-Holstein"}},{"name":"Wehdestr.","postalCode":"26123","locality":"Oldenburg","municipality":{"key":"03403000","name":"Oldenburg (Oldenburg), Stadt","type":"Kreisfreie_Stadt"},"district":{"key":"03403","name":"Oldenburg (Oldenburg), Stadt","type":"Kreisfreie_Stadt"},"federalState":{"key":"03","name":"Niedersachsen"}},{"name":"Weidamm","postalCode":"26135","locality":"Oldenburg","municipality":{"key":"03403000","name":"Oldenburg (Oldenburg), Stadt","type":"Kreisfreie_Stadt"},"district":{"key":"03403","name":"Oldenburg (Oldenburg), Stadt","type":"Kreisfreie_Stadt"},"federalState":{"key":"03","name":"Niedersachsen"}},{"name":"Weidenkamp","postalCode":"23758","locality":"Oldenburg in Holstein","municipality":{"key":"01055033","name":"Oldenburg in Holstein, Stadt","type":"Stadt"},"district":{"key":"01055","name":"Ostholstein","type":"Kreis"},"federalState":{"key":"01","name":"Schleswig-Holstein"}},{"name":"Weidenstr.","postalCode":"26135","locality":"Oldenburg","municipality":{"key":"03403000","name":"Oldenburg (Oldenburg), Stadt","type":"Kreisfreie_Stadt"},"district":{"key":"03403","name":"Oldenburg (Oldenburg), Stadt","type":"Kreisfreie_Stadt"},"federalState":{"key":"03","name":"Niedersachsen"}},{"name":"Weidenstr.","postalCode":"49699","locality":"Lindern (Oldenburg)","municipality":{"key":"03453010","name":"Lindern (Oldenburg)","type":"Kreisangehörige_Gemeinde"},"district":{"key":"03453","name":"Cloppenburg","type":"Landkreis"},"federalState":{"key":"03","name":"Niedersachsen"}},{"name":"Weidepadd","postalCode":"27798","locality":"Hude (Oldenburg)","municipality":{"key":"03458010","name":"Hude (Oldb)","type":"Kreisangehörige_Gemeinde"},"district":{"key":"03458","name":"Oldenburg","type":"Landkreis"},"federalState":{"key":"03","name":"Niedersachsen"}},{"name":"Weidweg","postalCode":"26133","locality":"Oldenburg","municipality":{"key":"03403000","name":"Oldenburg (Oldenburg), Stadt","type":"Kreisfreie_Stadt"},"district":{"key":"03403","name":"Oldenburg (Oldenburg), Stadt","type":"Kreisfreie_Stadt"},"federalState":{"key":"03","name":"Niedersachsen"}},{"name":"Weimarer Str.","postalCode":"26133","locality":"Oldenburg","municipality":{"key":"03403000","name":"Oldenburg (Oldenburg), Stadt","type":"Kreisfreie_Stadt"},"district":{"key":"03403","name":"Oldenburg (Oldenburg), Stadt","type":"Kreisfreie_Stadt"},"federalState":{"key":"03","name":"Niedersachsen"}},{"name":"Weiselweg","postalCode":"26125","locality":"Oldenburg","municipality":{"key":"03403000","name":"Oldenburg (Oldenburg), Stadt","type":"Kreisfreie_Stadt"},"district":{"key":"03403","name":"Oldenburg (Oldenburg), Stadt","type":"Kreisfreie_Stadt"},"federalState":{"key":"03","name":"Niedersachsen"}},{"name":"Weißdornring","postalCode":"49692","locality":"Cappeln (Oldenburg)","municipality":{"key":"03453003","name":"Cappeln (Oldenburg)","type":"Kreisangehörige_Gemeinde"},"district":{"key":"03453","name":"Cloppenburg","type":"Landkreis"},"federalState":{"key":"03","name":"Niedersachsen"}},{"name":"Weißdornweg","postalCode":"23758","locality":"Oldenburg in Holstein","municipality":{"key":"01055033","name":"Oldenburg in Holstein, Stadt","type":"Stadt"},"district":{"key":"01055","name":"Ostholstein","type":"Kreis"},"federalState":{"key":"01","name":"Schleswig-Holstein"}},{"name":"Weißdornweg","postalCode":"26129","locality":"Oldenburg","municipality":{"key":"03403000","name":"Oldenburg (Oldenburg), Stadt","type":"Kreisfreie_Stadt"},"district":{"key":"03403","name":"Oldenburg (Oldenburg), Stadt","type":"Kreisfreie_Stadt"},"federalState":{"key":"03","name":"Niedersachsen"}},{"name":"Weißenmoorstr.","postalCode":"26125","locality":"Oldenburg","municipality":{"key":"03403000","name":"Oldenburg (Oldenburg), Stadt","type":"Kreisfreie_Stadt"},"district":{"key":"03403","name":"Oldenburg (Oldenburg), Stadt","type":"Kreisfreie_Stadt"},"federalState":{"key":"03","name":"Niedersachsen"}},{"name":"Weiße Rose","postalCode":"26123","locality":"Oldenburg","municipality":{"key":"03403000","name":"Oldenburg (Oldenburg), Stadt","type":"Kreisfreie_Stadt"},"district":{"key":"03403","name":"Oldenburg (Oldenburg), Stadt","type":"Kreisfreie_Stadt"},"federalState":{"key":"03","name":"Niedersachsen"}},{"name":"Weitzstr.","postalCode":"26135","locality":"Oldenburg","municipality":{"key":"03403000","name":"Oldenburg (Oldenburg), Stadt","type":"Kreisfreie_Stadt"},"district":{"key":"03403","name":"Oldenburg (Oldenburg), Stadt","type":"Kreisfreie_Stadt"},"federalState":{"key":"03","name":"Niedersachsen"}},{"name":"Wellenforth","postalCode":"27798","locality":"Hude (Oldenburg)","municipality":{"key":"03458010","name":"Hude (Oldb)","type":"Kreisangehörige_Gemeinde"},"district":{"key":"03458","name":"Oldenburg","type":"Landkreis"},"federalState":{"key":"03","name":"Niedersachsen"}},{"name":"Yorckstr.","postalCode":"26131","locality":"Oldenburg","municipality":{"key":"03403000","name":"Oldenburg (Oldenburg), Stadt","type":"Kreisfreie_Stadt"},"district":{"key":"03403","name":"Oldenburg (Oldenburg), Stadt","type":"Kreisfreie_Stadt"},"federalState":{"key":"03","name":"Niedersachsen"}},{"name":"Zur Delme","postalCode":"27243","locality":"Prinzhöfte","municipality":{"key":"03458012","name":"Prinzhöfte","type":"Kreisangehörige_Gemeinde"},"district":{"key":"03458","name":"Oldenburg","type":"Landkreis"},"federalState":{"key":"03","name":"Niedersachsen"}},{"name":"Zur Großen Höhe","postalCode":"27243","locality":"Prinzhöfte","municipality":{"key":"03458012","name":"Prinzhöfte","type":"Kreisangehörige_Gemeinde"},"district":{"key":"03458","name":"Oldenburg","type":"Landkreis"},"federalState":{"key":"03","name":"Niedersachsen"}},{"name":"Östringer Str.","postalCode":"26121","locality":"Oldenburg","municipality":{"key":"03403000","name":"Oldenburg (Oldenburg), Stadt","type":"Kreisfreie_Stadt"},"district":{"key":"03403","name":"Oldenburg (Oldenburg), Stadt","type":"Kreisfreie_Stadt"},"federalState":{"key":"03","name":"Niedersachsen"}},{"name":"Överkamp","postalCode":"26125","locality":"Oldenburg","municipality":{"key":"03403000","name":"Oldenburg (Oldenburg), Stadt","type":"Kreisfreie_Stadt"},"district":{"key":"03403","name":"Oldenburg (Oldenburg), Stadt","type":"Kreisfreie_Stadt"},"federalState":{"key":"03","name":"Niedersachsen"}},{"name":"Über der Heide","postalCode":"26123","locality":"Oldenburg","municipality":{"key":"03403000","name":"Oldenburg (Oldenburg), Stadt","type":"Kreisfreie_Stadt"},"district":{"key":"03403","name":"Oldenburg (Oldenburg), Stadt","type":"Kreisfreie_Stadt"},"federalState":{"key":"03","name":"Niedersachsen"}},{"name":"Über'm Erdbrahm","postalCode":"27798","locality":"Hude (Oldenburg)","municipality":{"key":"03458010","name":"Hude (Oldb)","type":"Kreisangehörige_Gemeinde"},"district":{"key":"03458","name":"Oldenburg","type":"Landkreis"},"federalState":{"key":"03","name":"Niedersachsen"}},]