[{"name":"Ahornstr.","postalCode":"17248","locality":"Rechlin","municipality":{"key":"13071122","name":"Rechlin","type":"Kreisangehörige_Gemeinde"},"district":{"key":"13071","name":"Mecklenburgische Seenplatte","type":"Landkreis"},"federalState":{"key":"13","name":"Mecklenburg-Vorpommern"}},{"name":"Alte Fahrt","postalCode":"17248","locality":"Rechlin","municipality":{"key":"13071122","name":"Rechlin","type":"Kreisangehörige_Gemeinde"},"district":{"key":"13071","name":"Mecklenburgische Seenplatte","type":"Landkreis"},"federalState":{"key":"13","name":"Mecklenburg-Vorpommern"}},{"name":"Alte Post","postalCode":"17248","locality":"Rechlin","municipality":{"key":"13071122","name":"Rechlin","type":"Kreisangehörige_Gemeinde"},"district":{"key":"13071","name":"Mecklenburgische Seenplatte","type":"Landkreis"},"federalState":{"key":"13","name":"Mecklenburg-Vorpommern"}},{"name":"Alter Markt","postalCode":"17248","locality":"Rechlin","municipality":{"key":"13071122","name":"Rechlin","type":"Kreisangehörige_Gemeinde"},"district":{"key":"13071","name":"Mecklenburgische Seenplatte","type":"Landkreis"},"federalState":{"key":"13","name":"Mecklenburg-Vorpommern"}},{"name":"Alte Werftstr.","postalCode":"17248","locality":"Rechlin","municipality":{"key":"13071122","name":"Rechlin","type":"Kreisangehörige_Gemeinde"},"district":{"key":"13071","name":"Mecklenburgische Seenplatte","type":"Landkreis"},"federalState":{"key":"13","name":"Mecklenburg-Vorpommern"}},{"name":"Am Claassee","postalCode":"17248","locality":"Rechlin","municipality":{"key":"13071122","name":"Rechlin","type":"Kreisangehörige_Gemeinde"},"district":{"key":"13071","name":"Mecklenburgische Seenplatte","type":"Landkreis"},"federalState":{"key":"13","name":"Mecklenburg-Vorpommern"}},{"name":"Am Durland","postalCode":"17248","locality":"Rechlin","municipality":{"key":"13071122","name":"Rechlin","type":"Kreisangehörige_Gemeinde"},"district":{"key":"13071","name":"Mecklenburgische Seenplatte","type":"Landkreis"},"federalState":{"key":"13","name":"Mecklenburg-Vorpommern"}},{"name":"Am Feldrain","postalCode":"17248","locality":"Rechlin","municipality":{"key":"13071122","name":"Rechlin","type":"Kreisangehörige_Gemeinde"},"district":{"key":"13071","name":"Mecklenburgische Seenplatte","type":"Landkreis"},"federalState":{"key":"13","name":"Mecklenburg-Vorpommern"}},{"name":"Am Hafendorf","postalCode":"17248","locality":"Rechlin","municipality":{"key":"13071122","name":"Rechlin","type":"Kreisangehörige_Gemeinde"},"district":{"key":"13071","name":"Mecklenburgische Seenplatte","type":"Landkreis"},"federalState":{"key":"13","name":"Mecklenburg-Vorpommern"}},{"name":"Am Hahnenpohl","postalCode":"17248","locality":"Rechlin","municipality":{"key":"13071122","name":"Rechlin","type":"Kreisangehörige_Gemeinde"},"district":{"key":"13071","name":"Mecklenburgische Seenplatte","type":"Landkreis"},"federalState":{"key":"13","name":"Mecklenburg-Vorpommern"}},{"name":"Am Höpen","postalCode":"17248","locality":"Rechlin","municipality":{"key":"13071122","name":"Rechlin","type":"Kreisangehörige_Gemeinde"},"district":{"key":"13071","name":"Mecklenburgische Seenplatte","type":"Landkreis"},"federalState":{"key":"13","name":"Mecklenburg-Vorpommern"}},{"name":"Am Mirower Kanal","postalCode":"17248","locality":"Rechlin","municipality":{"key":"13071122","name":"Rechlin","type":"Kreisangehörige_Gemeinde"},"district":{"key":"13071","name":"Mecklenburgische Seenplatte","type":"Landkreis"},"federalState":{"key":"13","name":"Mecklenburg-Vorpommern"}},{"name":"Amselweg","postalCode":"17248","locality":"Rechlin","municipality":{"key":"13071122","name":"Rechlin","type":"Kreisangehörige_Gemeinde"},"district":{"key":"13071","name":"Mecklenburgische Seenplatte","type":"Landkreis"},"federalState":{"key":"13","name":"Mecklenburg-Vorpommern"}},{"name":"Am Stadion","postalCode":"17248","locality":"Rechlin","municipality":{"key":"13071122","name":"Rechlin","type":"Kreisangehörige_Gemeinde"},"district":{"key":"13071","name":"Mecklenburgische Seenplatte","type":"Landkreis"},"federalState":{"key":"13","name":"Mecklenburg-Vorpommern"}},{"name":"Am Sumpfsee","postalCode":"17248","locality":"Rechlin","municipality":{"key":"13071122","name":"Rechlin","type":"Kreisangehörige_Gemeinde"},"district":{"key":"13071","name":"Mecklenburgische Seenplatte","type":"Landkreis"},"federalState":{"key":"13","name":"Mecklenburg-Vorpommern"}},{"name":"An den Uferwiesen","postalCode":"17248","locality":"Rechlin","municipality":{"key":"13071122","name":"Rechlin","type":"Kreisangehörige_Gemeinde"},"district":{"key":"13071","name":"Mecklenburgische Seenplatte","type":"Landkreis"},"federalState":{"key":"13","name":"Mecklenburg-Vorpommern"}},{"name":"Anglerweg","postalCode":"17248","locality":"Rechlin","municipality":{"key":"13071122","name":"Rechlin","type":"Kreisangehörige_Gemeinde"},"district":{"key":"13071","name":"Mecklenburgische Seenplatte","type":"Landkreis"},"federalState":{"key":"13","name":"Mecklenburg-Vorpommern"}},{"name":"Anna Campbell Str.","postalCode":"17248","locality":"Rechlin","municipality":{"key":"13071122","name":"Rechlin","type":"Kreisangehörige_Gemeinde"},"district":{"key":"13071","name":"Mecklenburgische Seenplatte","type":"Landkreis"},"federalState":{"key":"13","name":"Mecklenburg-Vorpommern"}},{"name":"Audre-Lorde-Str.","postalCode":"17248","locality":"Rechlin","municipality":{"key":"13071122","name":"Rechlin","type":"Kreisangehörige_Gemeinde"},"district":{"key":"13071","name":"Mecklenburgische Seenplatte","type":"Landkreis"},"federalState":{"key":"13","name":"Mecklenburg-Vorpommern"}},{"name":"Bahnhofstr.","postalCode":"17248","locality":"Rechlin","municipality":{"key":"13071122","name":"Rechlin","type":"Kreisangehörige_Gemeinde"},"district":{"key":"13071","name":"Mecklenburgische Seenplatte","type":"Landkreis"},"federalState":{"key":"13","name":"Mecklenburg-Vorpommern"}},{"name":"Birkenweg","postalCode":"17248","locality":"Rechlin","municipality":{"key":"13071122","name":"Rechlin","type":"Kreisangehörige_Gemeinde"},"district":{"key":"13071","name":"Mecklenburgische Seenplatte","type":"Landkreis"},"federalState":{"key":"13","name":"Mecklenburg-Vorpommern"}},{"name":"Bissendorfer Str.","postalCode":"17248","locality":"Rechlin","municipality":{"key":"13071122","name":"Rechlin","type":"Kreisangehörige_Gemeinde"},"district":{"key":"13071","name":"Mecklenburgische Seenplatte","type":"Landkreis"},"federalState":{"key":"13","name":"Mecklenburg-Vorpommern"}},{"name":"Blumenweg","postalCode":"17248","locality":"Rechlin","municipality":{"key":"13071122","name":"Rechlin","type":"Kreisangehörige_Gemeinde"},"district":{"key":"13071","name":"Mecklenburgische Seenplatte","type":"Landkreis"},"federalState":{"key":"13","name":"Mecklenburg-Vorpommern"}},{"name":"Boeker Landstr.","postalCode":"17248","locality":"Rechlin","municipality":{"key":"13071122","name":"Rechlin","type":"Kreisangehörige_Gemeinde"},"district":{"key":"13071","name":"Mecklenburgische Seenplatte","type":"Landkreis"},"federalState":{"key":"13","name":"Mecklenburg-Vorpommern"}},{"name":"Boeker Mühle","postalCode":"17248","locality":"Rechlin","municipality":{"key":"13071122","name":"Rechlin","type":"Kreisangehörige_Gemeinde"},"district":{"key":"13071","name":"Mecklenburgische Seenplatte","type":"Landkreis"},"federalState":{"key":"13","name":"Mecklenburg-Vorpommern"}},{"name":"Boeker Str.","postalCode":"17248","locality":"Rechlin","municipality":{"key":"13071122","name":"Rechlin","type":"Kreisangehörige_Gemeinde"},"district":{"key":"13071","name":"Mecklenburgische Seenplatte","type":"Landkreis"},"federalState":{"key":"13","name":"Mecklenburg-Vorpommern"}},{"name":"Bolter Schleuse","postalCode":"17248","locality":"Rechlin","municipality":{"key":"13071122","name":"Rechlin","type":"Kreisangehörige_Gemeinde"},"district":{"key":"13071","name":"Mecklenburgische Seenplatte","type":"Landkreis"},"federalState":{"key":"13","name":"Mecklenburg-Vorpommern"}},{"name":"Bussardstr.","postalCode":"17248","locality":"Rechlin","municipality":{"key":"13071122","name":"Rechlin","type":"Kreisangehörige_Gemeinde"},"district":{"key":"13071","name":"Mecklenburgische Seenplatte","type":"Landkreis"},"federalState":{"key":"13","name":"Mecklenburg-Vorpommern"}},{"name":"Che-Guevara-Ring","postalCode":"17248","locality":"Rechlin","municipality":{"key":"13071122","name":"Rechlin","type":"Kreisangehörige_Gemeinde"},"district":{"key":"13071","name":"Mecklenburgische Seenplatte","type":"Landkreis"},"federalState":{"key":"13","name":"Mecklenburg-Vorpommern"}},{"name":"Dorfstr.","postalCode":"17248","locality":"Rechlin","municipality":{"key":"13071122","name":"Rechlin","type":"Kreisangehörige_Gemeinde"},"district":{"key":"13071","name":"Mecklenburgische Seenplatte","type":"Landkreis"},"federalState":{"key":"13","name":"Mecklenburg-Vorpommern"}},{"name":"Ellerholz","postalCode":"17248","locality":"Rechlin","municipality":{"key":"13071122","name":"Rechlin","type":"Kreisangehörige_Gemeinde"},"district":{"key":"13071","name":"Mecklenburgische Seenplatte","type":"Landkreis"},"federalState":{"key":"13","name":"Mecklenburg-Vorpommern"}},{"name":"Emiliano-Zapata-Allee","postalCode":"17248","locality":"Rechlin","municipality":{"key":"13071122","name":"Rechlin","type":"Kreisangehörige_Gemeinde"},"district":{"key":"13071","name":"Mecklenburgische Seenplatte","type":"Landkreis"},"federalState":{"key":"13","name":"Mecklenburg-Vorpommern"}},{"name":"Emma-Goldmann-Str.","postalCode":"17248","locality":"Rechlin","municipality":{"key":"13071122","name":"Rechlin","type":"Kreisangehörige_Gemeinde"},"district":{"key":"13071","name":"Mecklenburgische Seenplatte","type":"Landkreis"},"federalState":{"key":"13","name":"Mecklenburg-Vorpommern"}},{"name":"Feldweg","postalCode":"17248","locality":"Rechlin","municipality":{"key":"13071122","name":"Rechlin","type":"Kreisangehörige_Gemeinde"},"district":{"key":"13071","name":"Mecklenburgische Seenplatte","type":"Landkreis"},"federalState":{"key":"13","name":"Mecklenburg-Vorpommern"}},{"name":"Fer A Coudre","postalCode":"17248","locality":"Rechlin","municipality":{"key":"13071122","name":"Rechlin","type":"Kreisangehörige_Gemeinde"},"district":{"key":"13071","name":"Mecklenburgische Seenplatte","type":"Landkreis"},"federalState":{"key":"13","name":"Mecklenburg-Vorpommern"}},{"name":"Firespace","postalCode":"17248","locality":"Rechlin","municipality":{"key":"13071122","name":"Rechlin","type":"Kreisangehörige_Gemeinde"},"district":{"key":"13071","name":"Mecklenburgische Seenplatte","type":"Landkreis"},"federalState":{"key":"13","name":"Mecklenburg-Vorpommern"}},{"name":"Flaggentörn","postalCode":"17248","locality":"Rechlin","municipality":{"key":"13071122","name":"Rechlin","type":"Kreisangehörige_Gemeinde"},"district":{"key":"13071","name":"Mecklenburgische Seenplatte","type":"Landkreis"},"federalState":{"key":"13","name":"Mecklenburg-Vorpommern"}},{"name":"Fliederweg","postalCode":"17248","locality":"Rechlin","municipality":{"key":"13071122","name":"Rechlin","type":"Kreisangehörige_Gemeinde"},"district":{"key":"13071","name":"Mecklenburgische Seenplatte","type":"Landkreis"},"federalState":{"key":"13","name":"Mecklenburg-Vorpommern"}},{"name":"Frida-Kahlo-Str.","postalCode":"17248","locality":"Rechlin","municipality":{"key":"13071122","name":"Rechlin","type":"Kreisangehörige_Gemeinde"},"district":{"key":"13071","name":"Mecklenburgische Seenplatte","type":"Landkreis"},"federalState":{"key":"13","name":"Mecklenburg-Vorpommern"}},{"name":"Fritz-Reuter-Str.","postalCode":"17248","locality":"Rechlin","municipality":{"key":"13071122","name":"Rechlin","type":"Kreisangehörige_Gemeinde"},"district":{"key":"13071","name":"Mecklenburgische Seenplatte","type":"Landkreis"},"federalState":{"key":"13","name":"Mecklenburg-Vorpommern"}},{"name":"Gartenstr.","postalCode":"17248","locality":"Rechlin","municipality":{"key":"13071122","name":"Rechlin","type":"Kreisangehörige_Gemeinde"},"district":{"key":"13071","name":"Mecklenburgische Seenplatte","type":"Landkreis"},"federalState":{"key":"13","name":"Mecklenburg-Vorpommern"}},{"name":"Gartenweg","postalCode":"17248","locality":"Rechlin","municipality":{"key":"13071122","name":"Rechlin","type":"Kreisangehörige_Gemeinde"},"district":{"key":"13071","name":"Mecklenburgische Seenplatte","type":"Landkreis"},"federalState":{"key":"13","name":"Mecklenburg-Vorpommern"}},{"name":"Geschwister-Scholl-Str.","postalCode":"17248","locality":"Rechlin","municipality":{"key":"13071122","name":"Rechlin","type":"Kreisangehörige_Gemeinde"},"district":{"key":"13071","name":"Mecklenburgische Seenplatte","type":"Landkreis"},"federalState":{"key":"13","name":"Mecklenburg-Vorpommern"}},{"name":"Ginsterweg","postalCode":"17248","locality":"Rechlin","municipality":{"key":"13071122","name":"Rechlin","type":"Kreisangehörige_Gemeinde"},"district":{"key":"13071","name":"Mecklenburgische Seenplatte","type":"Landkreis"},"federalState":{"key":"13","name":"Mecklenburg-Vorpommern"}},{"name":"Goethestr.","postalCode":"17248","locality":"Rechlin","municipality":{"key":"13071122","name":"Rechlin","type":"Kreisangehörige_Gemeinde"},"district":{"key":"13071","name":"Mecklenburgische Seenplatte","type":"Landkreis"},"federalState":{"key":"13","name":"Mecklenburg-Vorpommern"}},{"name":"Ho Chi Min Pfad","postalCode":"17248","locality":"Rechlin","municipality":{"key":"13071122","name":"Rechlin","type":"Kreisangehörige_Gemeinde"},"district":{"key":"13071","name":"Mecklenburgische Seenplatte","type":"Landkreis"},"federalState":{"key":"13","name":"Mecklenburg-Vorpommern"}},{"name":"Imkerweg","postalCode":"17248","locality":"Rechlin","municipality":{"key":"13071122","name":"Rechlin","type":"Kreisangehörige_Gemeinde"},"district":{"key":"13071","name":"Mecklenburgische Seenplatte","type":"Landkreis"},"federalState":{"key":"13","name":"Mecklenburg-Vorpommern"}},{"name":"Inselstr.","postalCode":"17248","locality":"Rechlin","municipality":{"key":"13071122","name":"Rechlin","type":"Kreisangehörige_Gemeinde"},"district":{"key":"13071","name":"Mecklenburgische Seenplatte","type":"Landkreis"},"federalState":{"key":"13","name":"Mecklenburg-Vorpommern"}},{"name":"Karl-Marx-Allee","postalCode":"17248","locality":"Rechlin","municipality":{"key":"13071122","name":"Rechlin","type":"Kreisangehörige_Gemeinde"},"district":{"key":"13071","name":"Mecklenburgische Seenplatte","type":"Landkreis"},"federalState":{"key":"13","name":"Mecklenburg-Vorpommern"}},{"name":"Käthe-Kollwitz-Str.","postalCode":"17248","locality":"Rechlin","municipality":{"key":"13071122","name":"Rechlin","type":"Kreisangehörige_Gemeinde"},"district":{"key":"13071","name":"Mecklenburgische Seenplatte","type":"Landkreis"},"federalState":{"key":"13","name":"Mecklenburg-Vorpommern"}},{"name":"Kiefernhain","postalCode":"17248","locality":"Rechlin","municipality":{"key":"13071122","name":"Rechlin","type":"Kreisangehörige_Gemeinde"},"district":{"key":"13071","name":"Mecklenburgische Seenplatte","type":"Landkreis"},"federalState":{"key":"13","name":"Mecklenburg-Vorpommern"}},{"name":"Kirchenweg","postalCode":"17248","locality":"Rechlin","municipality":{"key":"13071122","name":"Rechlin","type":"Kreisangehörige_Gemeinde"},"district":{"key":"13071","name":"Mecklenburgische Seenplatte","type":"Landkreis"},"federalState":{"key":"13","name":"Mecklenburg-Vorpommern"}},{"name":"Kleine Müritzstr.","postalCode":"17248","locality":"Rechlin","municipality":{"key":"13071122","name":"Rechlin","type":"Kreisangehörige_Gemeinde"},"district":{"key":"13071","name":"Mecklenburgische Seenplatte","type":"Landkreis"},"federalState":{"key":"13","name":"Mecklenburg-Vorpommern"}},{"name":"Kompassweg","postalCode":"17248","locality":"Rechlin","municipality":{"key":"13071122","name":"Rechlin","type":"Kreisangehörige_Gemeinde"},"district":{"key":"13071","name":"Mecklenburgische Seenplatte","type":"Landkreis"},"federalState":{"key":"13","name":"Mecklenburg-Vorpommern"}},{"name":"Kotzow","postalCode":"17248","locality":"Rechlin","municipality":{"key":"13071122","name":"Rechlin","type":"Kreisangehörige_Gemeinde"},"district":{"key":"13071","name":"Mecklenburgische Seenplatte","type":"Landkreis"},"federalState":{"key":"13","name":"Mecklenburg-Vorpommern"}},{"name":"Leeweg","postalCode":"17248","locality":"Rechlin","municipality":{"key":"13071122","name":"Rechlin","type":"Kreisangehörige_Gemeinde"},"district":{"key":"13071","name":"Mecklenburgische Seenplatte","type":"Landkreis"},"federalState":{"key":"13","name":"Mecklenburg-Vorpommern"}},{"name":"Leninallee","postalCode":"17248","locality":"Rechlin","municipality":{"key":"13071122","name":"Rechlin","type":"Kreisangehörige_Gemeinde"},"district":{"key":"13071","name":"Mecklenburgische Seenplatte","type":"Landkreis"},"federalState":{"key":"13","name":"Mecklenburg-Vorpommern"}},{"name":"Liselotte Herrmann Str.","postalCode":"17248","locality":"Rechlin","municipality":{"key":"13071122","name":"Rechlin","type":"Kreisangehörige_Gemeinde"},"district":{"key":"13071","name":"Mecklenburgische Seenplatte","type":"Landkreis"},"federalState":{"key":"13","name":"Mecklenburg-Vorpommern"}},{"name":"Luvweg","postalCode":"17248","locality":"Rechlin","municipality":{"key":"13071122","name":"Rechlin","type":"Kreisangehörige_Gemeinde"},"district":{"key":"13071","name":"Mecklenburgische Seenplatte","type":"Landkreis"},"federalState":{"key":"13","name":"Mecklenburg-Vorpommern"}},{"name":"Mahatma-Gandhi-Pfad","postalCode":"17248","locality":"Rechlin","municipality":{"key":"13071122","name":"Rechlin","type":"Kreisangehörige_Gemeinde"},"district":{"key":"13071","name":"Mecklenburgische Seenplatte","type":"Landkreis"},"federalState":{"key":"13","name":"Mecklenburg-Vorpommern"}},{"name":"Marinastr.","postalCode":"17248","locality":"Rechlin","municipality":{"key":"13071122","name":"Rechlin","type":"Kreisangehörige_Gemeinde"},"district":{"key":"13071","name":"Mecklenburgische Seenplatte","type":"Landkreis"},"federalState":{"key":"13","name":"Mecklenburg-Vorpommern"}},{"name":"Mauerstr.","postalCode":"17248","locality":"Rechlin","municipality":{"key":"13071122","name":"Rechlin","type":"Kreisangehörige_Gemeinde"},"district":{"key":"13071","name":"Mecklenburgische Seenplatte","type":"Landkreis"},"federalState":{"key":"13","name":"Mecklenburg-Vorpommern"}},{"name":"Meena-Str.","postalCode":"17248","locality":"Rechlin","municipality":{"key":"13071122","name":"Rechlin","type":"Kreisangehörige_Gemeinde"},"district":{"key":"13071","name":"Mecklenburgische Seenplatte","type":"Landkreis"},"federalState":{"key":"13","name":"Mecklenburg-Vorpommern"}},{"name":"Mittelstr.","postalCode":"17248","locality":"Rechlin","municipality":{"key":"13071122","name":"Rechlin","type":"Kreisangehörige_Gemeinde"},"district":{"key":"13071","name":"Mecklenburgische Seenplatte","type":"Landkreis"},"federalState":{"key":"13","name":"Mecklenburg-Vorpommern"}},{"name":"Müritzblick","postalCode":"17248","locality":"Rechlin","municipality":{"key":"13071122","name":"Rechlin","type":"Kreisangehörige_Gemeinde"},"district":{"key":"13071","name":"Mecklenburgische Seenplatte","type":"Landkreis"},"federalState":{"key":"13","name":"Mecklenburg-Vorpommern"}},{"name":"Müritzstr.","postalCode":"17248","locality":"Rechlin","municipality":{"key":"13071122","name":"Rechlin","type":"Kreisangehörige_Gemeinde"},"district":{"key":"13071","name":"Mecklenburgische Seenplatte","type":"Landkreis"},"federalState":{"key":"13","name":"Mecklenburg-Vorpommern"}},{"name":"Müritztörn","postalCode":"17248","locality":"Rechlin","municipality":{"key":"13071122","name":"Rechlin","type":"Kreisangehörige_Gemeinde"},"district":{"key":"13071","name":"Mecklenburgische Seenplatte","type":"Landkreis"},"federalState":{"key":"13","name":"Mecklenburg-Vorpommern"}},{"name":"Neuer Markt","postalCode":"17248","locality":"Rechlin","municipality":{"key":"13071122","name":"Rechlin","type":"Kreisangehörige_Gemeinde"},"district":{"key":"13071","name":"Mecklenburgische Seenplatte","type":"Landkreis"},"federalState":{"key":"13","name":"Mecklenburg-Vorpommern"}},{"name":"Panne Eichel","postalCode":"17248","locality":"Rechlin","municipality":{"key":"13071122","name":"Rechlin","type":"Kreisangehörige_Gemeinde"},"district":{"key":"13071","name":"Mecklenburgische Seenplatte","type":"Landkreis"},"federalState":{"key":"13","name":"Mecklenburg-Vorpommern"}},{"name":"Pappelweg","postalCode":"17248","locality":"Rechlin","municipality":{"key":"13071122","name":"Rechlin","type":"Kreisangehörige_Gemeinde"},"district":{"key":"13071","name":"Mecklenburgische Seenplatte","type":"Landkreis"},"federalState":{"key":"13","name":"Mecklenburg-Vorpommern"}},{"name":"Parkweg","postalCode":"17248","locality":"Rechlin","municipality":{"key":"13071122","name":"Rechlin","type":"Kreisangehörige_Gemeinde"},"district":{"key":"13071","name":"Mecklenburgische Seenplatte","type":"Landkreis"},"federalState":{"key":"13","name":"Mecklenburg-Vorpommern"}},{"name":"Platz der Kosmonauten","postalCode":"17248","locality":"Rechlin","municipality":{"key":"13071122","name":"Rechlin","type":"Kreisangehörige_Gemeinde"},"district":{"key":"13071","name":"Mecklenburgische Seenplatte","type":"Landkreis"},"federalState":{"key":"13","name":"Mecklenburg-Vorpommern"}},{"name":"Querfeld","postalCode":"17248","locality":"Rechlin","municipality":{"key":"13071122","name":"Rechlin","type":"Kreisangehörige_Gemeinde"},"district":{"key":"13071","name":"Mecklenburgische Seenplatte","type":"Landkreis"},"federalState":{"key":"13","name":"Mecklenburg-Vorpommern"}},{"name":"Rio-Reiser-Str.","postalCode":"17248","locality":"Rechlin","municipality":{"key":"13071122","name":"Rechlin","type":"Kreisangehörige_Gemeinde"},"district":{"key":"13071","name":"Mecklenburgische Seenplatte","type":"Landkreis"},"federalState":{"key":"13","name":"Mecklenburg-Vorpommern"}},{"name":"Robinienweg","postalCode":"17248","locality":"Rechlin","municipality":{"key":"13071122","name":"Rechlin","type":"Kreisangehörige_Gemeinde"},"district":{"key":"13071","name":"Mecklenburgische Seenplatte","type":"Landkreis"},"federalState":{"key":"13","name":"Mecklenburg-Vorpommern"}},{"name":"Rootsbase","postalCode":"17248","locality":"Rechlin","municipality":{"key":"13071122","name":"Rechlin","type":"Kreisangehörige_Gemeinde"},"district":{"key":"13071","name":"Mecklenburgische Seenplatte","type":"Landkreis"},"federalState":{"key":"13","name":"Mecklenburg-Vorpommern"}},{"name":"Rudi-Dutschke-Str.","postalCode":"17248","locality":"Rechlin","municipality":{"key":"13071122","name":"Rechlin","type":"Kreisangehörige_Gemeinde"},"district":{"key":"13071","name":"Mecklenburgische Seenplatte","type":"Landkreis"},"federalState":{"key":"13","name":"Mecklenburg-Vorpommern"}},{"name":"Schledehauser Str.","postalCode":"17248","locality":"Rechlin","municipality":{"key":"13071122","name":"Rechlin","type":"Kreisangehörige_Gemeinde"},"district":{"key":"13071","name":"Mecklenburgische Seenplatte","type":"Landkreis"},"federalState":{"key":"13","name":"Mecklenburg-Vorpommern"}},{"name":"Schulstr.","postalCode":"17248","locality":"Rechlin","municipality":{"key":"13071122","name":"Rechlin","type":"Kreisangehörige_Gemeinde"},"district":{"key":"13071","name":"Mecklenburgische Seenplatte","type":"Landkreis"},"federalState":{"key":"13","name":"Mecklenburg-Vorpommern"}},{"name":"Seglerweg","postalCode":"17248","locality":"Rechlin","municipality":{"key":"13071122","name":"Rechlin","type":"Kreisangehörige_Gemeinde"},"district":{"key":"13071","name":"Mecklenburgische Seenplatte","type":"Landkreis"},"federalState":{"key":"13","name":"Mecklenburg-Vorpommern"}},{"name":"Skipperstr.","postalCode":"17248","locality":"Rechlin","municipality":{"key":"13071122","name":"Rechlin","type":"Kreisangehörige_Gemeinde"},"district":{"key":"13071","name":"Mecklenburgische Seenplatte","type":"Landkreis"},"federalState":{"key":"13","name":"Mecklenburg-Vorpommern"}},{"name":"Sophie-Scholl-Str.","postalCode":"17248","locality":"Rechlin","municipality":{"key":"13071122","name":"Rechlin","type":"Kreisangehörige_Gemeinde"},"district":{"key":"13071","name":"Mecklenburgische Seenplatte","type":"Landkreis"},"federalState":{"key":"13","name":"Mecklenburg-Vorpommern"}},{"name":"Stieglitzweg","postalCode":"17248","locality":"Rechlin","municipality":{"key":"13071122","name":"Rechlin","type":"Kreisangehörige_Gemeinde"},"district":{"key":"13071","name":"Mecklenburgische Seenplatte","type":"Landkreis"},"federalState":{"key":"13","name":"Mecklenburg-Vorpommern"}},{"name":"Tannenweg","postalCode":"17248","locality":"Rechlin","municipality":{"key":"13071122","name":"Rechlin","type":"Kreisangehörige_Gemeinde"},"district":{"key":"13071","name":"Mecklenburgische Seenplatte","type":"Landkreis"},"federalState":{"key":"13","name":"Mecklenburg-Vorpommern"}},{"name":"Tanzwüste","postalCode":"17248","locality":"Rechlin","municipality":{"key":"13071122","name":"Rechlin","type":"Kreisangehörige_Gemeinde"},"district":{"key":"13071","name":"Mecklenburgische Seenplatte","type":"Landkreis"},"federalState":{"key":"13","name":"Mecklenburg-Vorpommern"}},{"name":"Tina-Modotti-Str.","postalCode":"17248","locality":"Rechlin","municipality":{"key":"13071122","name":"Rechlin","type":"Kreisangehörige_Gemeinde"},"district":{"key":"13071","name":"Mecklenburgische Seenplatte","type":"Landkreis"},"federalState":{"key":"13","name":"Mecklenburg-Vorpommern"}},{"name":"Uferweg","postalCode":"17248","locality":"Rechlin","municipality":{"key":"13071122","name":"Rechlin","type":"Kreisangehörige_Gemeinde"},"district":{"key":"13071","name":"Mecklenburgische Seenplatte","type":"Landkreis"},"federalState":{"key":"13","name":"Mecklenburg-Vorpommern"}},{"name":"Velvet Soup","postalCode":"17248","locality":"Rechlin","municipality":{"key":"13071122","name":"Rechlin","type":"Kreisangehörige_Gemeinde"},"district":{"key":"13071","name":"Mecklenburgische Seenplatte","type":"Landkreis"},"federalState":{"key":"13","name":"Mecklenburg-Vorpommern"}},{"name":"Wacholderweg","postalCode":"17248","locality":"Rechlin","municipality":{"key":"13071122","name":"Rechlin","type":"Kreisangehörige_Gemeinde"},"district":{"key":"13071","name":"Mecklenburgische Seenplatte","type":"Landkreis"},"federalState":{"key":"13","name":"Mecklenburg-Vorpommern"}},{"name":"Willi-Bredel-Weg","postalCode":"17248","locality":"Rechlin","municipality":{"key":"13071122","name":"Rechlin","type":"Kreisangehörige_Gemeinde"},"district":{"key":"13071","name":"Mecklenburgische Seenplatte","type":"Landkreis"},"federalState":{"key":"13","name":"Mecklenburg-Vorpommern"}},{"name":"Zeisigweg","postalCode":"17248","locality":"Rechlin","municipality":{"key":"13071122","name":"Rechlin","type":"Kreisangehörige_Gemeinde"},"district":{"key":"13071","name":"Mecklenburgische Seenplatte","type":"Landkreis"},"federalState":{"key":"13","name":"Mecklenburg-Vorpommern"}},{"name":"Zwergenwald","postalCode":"17248","locality":"Rechlin","municipality":{"key":"13071122","name":"Rechlin","type":"Kreisangehörige_Gemeinde"},"district":{"key":"13071","name":"Mecklenburgische Seenplatte","type":"Landkreis"},"federalState":{"key":"13","name":"Mecklenburg-Vorpommern"}},]