[{"name":"Adlerstr.","postalCode":"97199","locality":"Ochsenfurt","municipality":{"key":"09679170","name":"Ochsenfurt, St","type":"Stadt"},"district":{"key":"09679","name":"Würzburg","type":"Landkreis"},"federalState":{"key":"09","name":"Bayern"}},{"name":"Ahornstr.","postalCode":"97199","locality":"Ochsenfurt","municipality":{"key":"09679170","name":"Ochsenfurt, St","type":"Stadt"},"district":{"key":"09679","name":"Würzburg","type":"Landkreis"},"federalState":{"key":"09","name":"Bayern"}},{"name":"Akazienweg","postalCode":"97199","locality":"Ochsenfurt","municipality":{"key":"09679170","name":"Ochsenfurt, St","type":"Stadt"},"district":{"key":"09679","name":"Würzburg","type":"Landkreis"},"federalState":{"key":"09","name":"Bayern"}},{"name":"Alte Mainbrücke","postalCode":"97199","locality":"Ochsenfurt","municipality":{"key":"09679170","name":"Ochsenfurt, St","type":"Stadt"},"district":{"key":"09679","name":"Würzburg","type":"Landkreis"},"federalState":{"key":"09","name":"Bayern"}},{"name":"Am Dorfgraben","postalCode":"97199","locality":"Ochsenfurt","municipality":{"key":"09679170","name":"Ochsenfurt, St","type":"Stadt"},"district":{"key":"09679","name":"Würzburg","type":"Landkreis"},"federalState":{"key":"09","name":"Bayern"}},{"name":"Am Dümmersberg","postalCode":"97199","locality":"Ochsenfurt","municipality":{"key":"09679170","name":"Ochsenfurt, St","type":"Stadt"},"district":{"key":"09679","name":"Würzburg","type":"Landkreis"},"federalState":{"key":"09","name":"Bayern"}},{"name":"Am Felsenkeller","postalCode":"97199","locality":"Ochsenfurt","municipality":{"key":"09679170","name":"Ochsenfurt, St","type":"Stadt"},"district":{"key":"09679","name":"Würzburg","type":"Landkreis"},"federalState":{"key":"09","name":"Bayern"}},{"name":"Am Greinberg","postalCode":"97199","locality":"Ochsenfurt","municipality":{"key":"09679170","name":"Ochsenfurt, St","type":"Stadt"},"district":{"key":"09679","name":"Würzburg","type":"Landkreis"},"federalState":{"key":"09","name":"Bayern"}},{"name":"Am Hirtentor","postalCode":"97199","locality":"Ochsenfurt","municipality":{"key":"09679170","name":"Ochsenfurt, St","type":"Stadt"},"district":{"key":"09679","name":"Würzburg","type":"Landkreis"},"federalState":{"key":"09","name":"Bayern"}},{"name":"Am Klostergarten","postalCode":"97199","locality":"Ochsenfurt","municipality":{"key":"09679170","name":"Ochsenfurt, St","type":"Stadt"},"district":{"key":"09679","name":"Würzburg","type":"Landkreis"},"federalState":{"key":"09","name":"Bayern"}},{"name":"Am Ladehof","postalCode":"97199","locality":"Ochsenfurt","municipality":{"key":"09679170","name":"Ochsenfurt, St","type":"Stadt"},"district":{"key":"09679","name":"Würzburg","type":"Landkreis"},"federalState":{"key":"09","name":"Bayern"}},{"name":"Am Landgraben","postalCode":"97199","locality":"Ochsenfurt","municipality":{"key":"09679170","name":"Ochsenfurt, St","type":"Stadt"},"district":{"key":"09679","name":"Würzburg","type":"Landkreis"},"federalState":{"key":"09","name":"Bayern"}},{"name":"Am Mühlengrund","postalCode":"97199","locality":"Ochsenfurt","municipality":{"key":"09679170","name":"Ochsenfurt, St","type":"Stadt"},"district":{"key":"09679","name":"Würzburg","type":"Landkreis"},"federalState":{"key":"09","name":"Bayern"}},{"name":"Am Schwedentor","postalCode":"97199","locality":"Ochsenfurt","municipality":{"key":"09679170","name":"Ochsenfurt, St","type":"Stadt"},"district":{"key":"09679","name":"Würzburg","type":"Landkreis"},"federalState":{"key":"09","name":"Bayern"}},{"name":"Am weißen Kreuz","postalCode":"97199","locality":"Ochsenfurt","municipality":{"key":"09679170","name":"Ochsenfurt, St","type":"Stadt"},"district":{"key":"09679","name":"Würzburg","type":"Landkreis"},"federalState":{"key":"09","name":"Bayern"}},{"name":"An der Heckensteige","postalCode":"97199","locality":"Ochsenfurt","municipality":{"key":"09679170","name":"Ochsenfurt, St","type":"Stadt"},"district":{"key":"09679","name":"Würzburg","type":"Landkreis"},"federalState":{"key":"09","name":"Bayern"}},{"name":"An der Schloßmauer","postalCode":"97199","locality":"Ochsenfurt","municipality":{"key":"09679170","name":"Ochsenfurt, St","type":"Stadt"},"district":{"key":"09679","name":"Würzburg","type":"Landkreis"},"federalState":{"key":"09","name":"Bayern"}},{"name":"An der Warth","postalCode":"97199","locality":"Ochsenfurt","municipality":{"key":"09679170","name":"Ochsenfurt, St","type":"Stadt"},"district":{"key":"09679","name":"Würzburg","type":"Landkreis"},"federalState":{"key":"09","name":"Bayern"}},{"name":"An der Ziegelhütte","postalCode":"97199","locality":"Ochsenfurt","municipality":{"key":"09679170","name":"Ochsenfurt, St","type":"Stadt"},"district":{"key":"09679","name":"Würzburg","type":"Landkreis"},"federalState":{"key":"09","name":"Bayern"}},{"name":"Angerstr.","postalCode":"97199","locality":"Ochsenfurt","municipality":{"key":"09679170","name":"Ochsenfurt, St","type":"Stadt"},"district":{"key":"09679","name":"Würzburg","type":"Landkreis"},"federalState":{"key":"09","name":"Bayern"}},{"name":"Auber Str.","postalCode":"97199","locality":"Ochsenfurt","municipality":{"key":"09679170","name":"Ochsenfurt, St","type":"Stadt"},"district":{"key":"09679","name":"Würzburg","type":"Landkreis"},"federalState":{"key":"09","name":"Bayern"}},{"name":"Badgasse","postalCode":"97199","locality":"Ochsenfurt","municipality":{"key":"09679170","name":"Ochsenfurt, St","type":"Stadt"},"district":{"key":"09679","name":"Würzburg","type":"Landkreis"},"federalState":{"key":"09","name":"Bayern"}},{"name":"Bahnhofsplatz","postalCode":"97199","locality":"Ochsenfurt","municipality":{"key":"09679170","name":"Ochsenfurt, St","type":"Stadt"},"district":{"key":"09679","name":"Würzburg","type":"Landkreis"},"federalState":{"key":"09","name":"Bayern"}},{"name":"Bärentalsiedlung","postalCode":"97199","locality":"Ochsenfurt","municipality":{"key":"09679170","name":"Ochsenfurt, St","type":"Stadt"},"district":{"key":"09679","name":"Würzburg","type":"Landkreis"},"federalState":{"key":"09","name":"Bayern"}},{"name":"Beckgasse","postalCode":"97199","locality":"Ochsenfurt","municipality":{"key":"09679170","name":"Ochsenfurt, St","type":"Stadt"},"district":{"key":"09679","name":"Würzburg","type":"Landkreis"},"federalState":{"key":"09","name":"Bayern"}},{"name":"Berliner Str.","postalCode":"97199","locality":"Ochsenfurt","municipality":{"key":"09679170","name":"Ochsenfurt, St","type":"Stadt"},"district":{"key":"09679","name":"Würzburg","type":"Landkreis"},"federalState":{"key":"09","name":"Bayern"}},{"name":"Birkenstr.","postalCode":"97199","locality":"Ochsenfurt","municipality":{"key":"09679170","name":"Ochsenfurt, St","type":"Stadt"},"district":{"key":"09679","name":"Würzburg","type":"Landkreis"},"federalState":{"key":"09","name":"Bayern"}},{"name":"Blumenring","postalCode":"97199","locality":"Ochsenfurt","municipality":{"key":"09679170","name":"Ochsenfurt, St","type":"Stadt"},"district":{"key":"09679","name":"Würzburg","type":"Landkreis"},"federalState":{"key":"09","name":"Bayern"}},{"name":"Boxgasse","postalCode":"97199","locality":"Ochsenfurt","municipality":{"key":"09679170","name":"Ochsenfurt, St","type":"Stadt"},"district":{"key":"09679","name":"Würzburg","type":"Landkreis"},"federalState":{"key":"09","name":"Bayern"}},{"name":"Breslauer Str.","postalCode":"97199","locality":"Ochsenfurt","municipality":{"key":"09679170","name":"Ochsenfurt, St","type":"Stadt"},"district":{"key":"09679","name":"Würzburg","type":"Landkreis"},"federalState":{"key":"09","name":"Bayern"}},{"name":"Brückenstr.","postalCode":"97199","locality":"Ochsenfurt","municipality":{"key":"09679170","name":"Ochsenfurt, St","type":"Stadt"},"district":{"key":"09679","name":"Würzburg","type":"Landkreis"},"federalState":{"key":"09","name":"Bayern"}},{"name":"Brunnenstr.","postalCode":"97199","locality":"Ochsenfurt","municipality":{"key":"09679170","name":"Ochsenfurt, St","type":"Stadt"},"district":{"key":"09679","name":"Würzburg","type":"Landkreis"},"federalState":{"key":"09","name":"Bayern"}},{"name":"Coutancer Str.","postalCode":"97199","locality":"Ochsenfurt","municipality":{"key":"09679170","name":"Ochsenfurt, St","type":"Stadt"},"district":{"key":"09679","name":"Würzburg","type":"Landkreis"},"federalState":{"key":"09","name":"Bayern"}},{"name":"Danziger Str.","postalCode":"97199","locality":"Ochsenfurt","municipality":{"key":"09679170","name":"Ochsenfurt, St","type":"Stadt"},"district":{"key":"09679","name":"Würzburg","type":"Landkreis"},"federalState":{"key":"09","name":"Bayern"}},{"name":"Darstadter Str.","postalCode":"97199","locality":"Ochsenfurt","municipality":{"key":"09679170","name":"Ochsenfurt, St","type":"Stadt"},"district":{"key":"09679","name":"Würzburg","type":"Landkreis"},"federalState":{"key":"09","name":"Bayern"}},{"name":"Dietrich-Bonhoeffer-Str.","postalCode":"97199","locality":"Ochsenfurt","municipality":{"key":"09679170","name":"Ochsenfurt, St","type":"Stadt"},"district":{"key":"09679","name":"Würzburg","type":"Landkreis"},"federalState":{"key":"09","name":"Bayern"}},{"name":"Domherrnviertel","postalCode":"97199","locality":"Ochsenfurt","municipality":{"key":"09679170","name":"Ochsenfurt, St","type":"Stadt"},"district":{"key":"09679","name":"Würzburg","type":"Landkreis"},"federalState":{"key":"09","name":"Bayern"}},{"name":"Dopplerstr.","postalCode":"97199","locality":"Ochsenfurt","municipality":{"key":"09679170","name":"Ochsenfurt, St","type":"Stadt"},"district":{"key":"09679","name":"Würzburg","type":"Landkreis"},"federalState":{"key":"09","name":"Bayern"}},{"name":"Dorfstr.","postalCode":"97199","locality":"Ochsenfurt","municipality":{"key":"09679170","name":"Ochsenfurt, St","type":"Stadt"},"district":{"key":"09679","name":"Würzburg","type":"Landkreis"},"federalState":{"key":"09","name":"Bayern"}},{"name":"Dresdener Str.","postalCode":"97199","locality":"Ochsenfurt","municipality":{"key":"09679170","name":"Ochsenfurt, St","type":"Stadt"},"district":{"key":"09679","name":"Würzburg","type":"Landkreis"},"federalState":{"key":"09","name":"Bayern"}},{"name":"Dr.-Heffner-Str.","postalCode":"97199","locality":"Ochsenfurt","municipality":{"key":"09679170","name":"Ochsenfurt, St","type":"Stadt"},"district":{"key":"09679","name":"Würzburg","type":"Landkreis"},"federalState":{"key":"09","name":"Bayern"}},{"name":"Dr.-Kimmel-Weg","postalCode":"97199","locality":"Ochsenfurt","municipality":{"key":"09679170","name":"Ochsenfurt, St","type":"Stadt"},"district":{"key":"09679","name":"Würzburg","type":"Landkreis"},"federalState":{"key":"09","name":"Bayern"}},{"name":"Dr.-Martin-Luther-Str.","postalCode":"97199","locality":"Ochsenfurt","municipality":{"key":"09679170","name":"Ochsenfurt, St","type":"Stadt"},"district":{"key":"09679","name":"Würzburg","type":"Landkreis"},"federalState":{"key":"09","name":"Bayern"}},{"name":"Dr.-Schuck-Str.","postalCode":"97199","locality":"Ochsenfurt","municipality":{"key":"09679170","name":"Ochsenfurt, St","type":"Stadt"},"district":{"key":"09679","name":"Würzburg","type":"Landkreis"},"federalState":{"key":"09","name":"Bayern"}},{"name":"Dr.-Seitz-Platz","postalCode":"97199","locality":"Ochsenfurt","municipality":{"key":"09679170","name":"Ochsenfurt, St","type":"Stadt"},"district":{"key":"09679","name":"Würzburg","type":"Landkreis"},"federalState":{"key":"09","name":"Bayern"}},{"name":"Düngersheimstr.","postalCode":"97199","locality":"Ochsenfurt","municipality":{"key":"09679170","name":"Ochsenfurt, St","type":"Stadt"},"district":{"key":"09679","name":"Würzburg","type":"Landkreis"},"federalState":{"key":"09","name":"Bayern"}},{"name":"Duttenhöferstr.","postalCode":"97199","locality":"Ochsenfurt","municipality":{"key":"09679170","name":"Ochsenfurt, St","type":"Stadt"},"district":{"key":"09679","name":"Würzburg","type":"Landkreis"},"federalState":{"key":"09","name":"Bayern"}},{"name":"Echterplatz","postalCode":"97199","locality":"Ochsenfurt","municipality":{"key":"09679170","name":"Ochsenfurt, St","type":"Stadt"},"district":{"key":"09679","name":"Würzburg","type":"Landkreis"},"federalState":{"key":"09","name":"Bayern"}},{"name":"Eichendorffweg","postalCode":"97199","locality":"Ochsenfurt","municipality":{"key":"09679170","name":"Ochsenfurt, St","type":"Stadt"},"district":{"key":"09679","name":"Würzburg","type":"Landkreis"},"federalState":{"key":"09","name":"Bayern"}},{"name":"Elbinger Str.","postalCode":"97199","locality":"Ochsenfurt","municipality":{"key":"09679170","name":"Ochsenfurt, St","type":"Stadt"},"district":{"key":"09679","name":"Würzburg","type":"Landkreis"},"federalState":{"key":"09","name":"Bayern"}},{"name":"Erfurter Str.","postalCode":"97199","locality":"Ochsenfurt","municipality":{"key":"09679170","name":"Ochsenfurt, St","type":"Stadt"},"district":{"key":"09679","name":"Würzburg","type":"Landkreis"},"federalState":{"key":"09","name":"Bayern"}},{"name":"Fabrikstr.","postalCode":"97199","locality":"Ochsenfurt","municipality":{"key":"09679170","name":"Ochsenfurt, St","type":"Stadt"},"district":{"key":"09679","name":"Würzburg","type":"Landkreis"},"federalState":{"key":"09","name":"Bayern"}},{"name":"Fährgasse","postalCode":"97199","locality":"Ochsenfurt","municipality":{"key":"09679170","name":"Ochsenfurt, St","type":"Stadt"},"district":{"key":"09679","name":"Würzburg","type":"Landkreis"},"federalState":{"key":"09","name":"Bayern"}},{"name":"Fichtenstr.","postalCode":"97199","locality":"Ochsenfurt","municipality":{"key":"09679170","name":"Ochsenfurt, St","type":"Stadt"},"district":{"key":"09679","name":"Würzburg","type":"Landkreis"},"federalState":{"key":"09","name":"Bayern"}},{"name":"Fliederstr.","postalCode":"97199","locality":"Ochsenfurt","municipality":{"key":"09679170","name":"Ochsenfurt, St","type":"Stadt"},"district":{"key":"09679","name":"Würzburg","type":"Landkreis"},"federalState":{"key":"09","name":"Bayern"}},{"name":"Floßhafenstr.","postalCode":"97199","locality":"Ochsenfurt","municipality":{"key":"09679170","name":"Ochsenfurt, St","type":"Stadt"},"district":{"key":"09679","name":"Würzburg","type":"Landkreis"},"federalState":{"key":"09","name":"Bayern"}},{"name":"Frickenhäuser Str.","postalCode":"97199","locality":"Ochsenfurt","municipality":{"key":"09679170","name":"Ochsenfurt, St","type":"Stadt"},"district":{"key":"09679","name":"Würzburg","type":"Landkreis"},"federalState":{"key":"09","name":"Bayern"}},{"name":"Friedhofstr.","postalCode":"97199","locality":"Ochsenfurt","municipality":{"key":"09679170","name":"Ochsenfurt, St","type":"Stadt"},"district":{"key":"09679","name":"Würzburg","type":"Landkreis"},"federalState":{"key":"09","name":"Bayern"}},{"name":"Friedrich-Ebert-Str.","postalCode":"97199","locality":"Ochsenfurt","municipality":{"key":"09679170","name":"Ochsenfurt, St","type":"Stadt"},"district":{"key":"09679","name":"Würzburg","type":"Landkreis"},"federalState":{"key":"09","name":"Bayern"}},{"name":"Frühlingstr.","postalCode":"97199","locality":"Ochsenfurt","municipality":{"key":"09679170","name":"Ochsenfurt, St","type":"Stadt"},"district":{"key":"09679","name":"Würzburg","type":"Landkreis"},"federalState":{"key":"09","name":"Bayern"}},{"name":"Fuchsstadter Weg","postalCode":"97199","locality":"Ochsenfurt","municipality":{"key":"09679170","name":"Ochsenfurt, St","type":"Stadt"},"district":{"key":"09679","name":"Würzburg","type":"Landkreis"},"federalState":{"key":"09","name":"Bayern"}},{"name":"Ganzhornstr.","postalCode":"97199","locality":"Ochsenfurt","municipality":{"key":"09679170","name":"Ochsenfurt, St","type":"Stadt"},"district":{"key":"09679","name":"Würzburg","type":"Landkreis"},"federalState":{"key":"09","name":"Bayern"}},{"name":"Gartenweg","postalCode":"97199","locality":"Ochsenfurt","municipality":{"key":"09679170","name":"Ochsenfurt, St","type":"Stadt"},"district":{"key":"09679","name":"Würzburg","type":"Landkreis"},"federalState":{"key":"09","name":"Bayern"}},{"name":"Geißlinger Str.","postalCode":"97199","locality":"Ochsenfurt","municipality":{"key":"09679170","name":"Ochsenfurt, St","type":"Stadt"},"district":{"key":"09679","name":"Würzburg","type":"Landkreis"},"federalState":{"key":"09","name":"Bayern"}},{"name":"Gervaisstr.","postalCode":"97199","locality":"Ochsenfurt","municipality":{"key":"09679170","name":"Ochsenfurt, St","type":"Stadt"},"district":{"key":"09679","name":"Würzburg","type":"Landkreis"},"federalState":{"key":"09","name":"Bayern"}},{"name":"Görlitzer Str.","postalCode":"97199","locality":"Ochsenfurt","municipality":{"key":"09679170","name":"Ochsenfurt, St","type":"Stadt"},"district":{"key":"09679","name":"Würzburg","type":"Landkreis"},"federalState":{"key":"09","name":"Bayern"}},{"name":"Grabengasse","postalCode":"97199","locality":"Ochsenfurt","municipality":{"key":"09679170","name":"Ochsenfurt, St","type":"Stadt"},"district":{"key":"09679","name":"Würzburg","type":"Landkreis"},"federalState":{"key":"09","name":"Bayern"}},{"name":"Grillengasse","postalCode":"97199","locality":"Ochsenfurt","municipality":{"key":"09679170","name":"Ochsenfurt, St","type":"Stadt"},"district":{"key":"09679","name":"Würzburg","type":"Landkreis"},"federalState":{"key":"09","name":"Bayern"}},{"name":"Grubenweg","postalCode":"97199","locality":"Ochsenfurt","municipality":{"key":"09679170","name":"Ochsenfurt, St","type":"Stadt"},"district":{"key":"09679","name":"Würzburg","type":"Landkreis"},"federalState":{"key":"09","name":"Bayern"}},{"name":"Häckerweg","postalCode":"97199","locality":"Ochsenfurt","municipality":{"key":"09679170","name":"Ochsenfurt, St","type":"Stadt"},"district":{"key":"09679","name":"Würzburg","type":"Landkreis"},"federalState":{"key":"09","name":"Bayern"}},{"name":"Hans-Bauer-Weg","postalCode":"97199","locality":"Ochsenfurt","municipality":{"key":"09679170","name":"Ochsenfurt, St","type":"Stadt"},"district":{"key":"09679","name":"Würzburg","type":"Landkreis"},"federalState":{"key":"09","name":"Bayern"}},{"name":"Hans-Stock-Str.","postalCode":"97199","locality":"Ochsenfurt","municipality":{"key":"09679170","name":"Ochsenfurt, St","type":"Stadt"},"district":{"key":"09679","name":"Würzburg","type":"Landkreis"},"federalState":{"key":"09","name":"Bayern"}},{"name":"Hauptstr.","postalCode":"97199","locality":"Ochsenfurt","municipality":{"key":"09679170","name":"Ochsenfurt, St","type":"Stadt"},"district":{"key":"09679","name":"Würzburg","type":"Landkreis"},"federalState":{"key":"09","name":"Bayern"}},{"name":"Hellmut-Opas-Weg","postalCode":"97199","locality":"Ochsenfurt","municipality":{"key":"09679170","name":"Ochsenfurt, St","type":"Stadt"},"district":{"key":"09679","name":"Würzburg","type":"Landkreis"},"federalState":{"key":"09","name":"Bayern"}},{"name":"Hofstallweg","postalCode":"97199","locality":"Ochsenfurt","municipality":{"key":"09679170","name":"Ochsenfurt, St","type":"Stadt"},"district":{"key":"09679","name":"Würzburg","type":"Landkreis"},"federalState":{"key":"09","name":"Bayern"}},{"name":"Hohestadter Steige","postalCode":"97199","locality":"Ochsenfurt","municipality":{"key":"09679170","name":"Ochsenfurt, St","type":"Stadt"},"district":{"key":"09679","name":"Würzburg","type":"Landkreis"},"federalState":{"key":"09","name":"Bayern"}},{"name":"Hohestadter Str.","postalCode":"97199","locality":"Ochsenfurt","municipality":{"key":"09679170","name":"Ochsenfurt, St","type":"Stadt"},"district":{"key":"09679","name":"Würzburg","type":"Landkreis"},"federalState":{"key":"09","name":"Bayern"}},{"name":"Hohestädter Str.","postalCode":"97199","locality":"Ochsenfurt","municipality":{"key":"09679170","name":"Ochsenfurt, St","type":"Stadt"},"district":{"key":"09679","name":"Würzburg","type":"Landkreis"},"federalState":{"key":"09","name":"Bayern"}},{"name":"Hübnerweg","postalCode":"97199","locality":"Ochsenfurt","municipality":{"key":"09679170","name":"Ochsenfurt, St","type":"Stadt"},"district":{"key":"09679","name":"Würzburg","type":"Landkreis"},"federalState":{"key":"09","name":"Bayern"}},{"name":"Humbertstr.","postalCode":"97199","locality":"Ochsenfurt","municipality":{"key":"09679170","name":"Ochsenfurt, St","type":"Stadt"},"district":{"key":"09679","name":"Würzburg","type":"Landkreis"},"federalState":{"key":"09","name":"Bayern"}},{"name":"Ihringstr.","postalCode":"97199","locality":"Ochsenfurt","municipality":{"key":"09679170","name":"Ochsenfurt, St","type":"Stadt"},"district":{"key":"09679","name":"Würzburg","type":"Landkreis"},"federalState":{"key":"09","name":"Bayern"}},{"name":"Im Burggraben","postalCode":"97199","locality":"Ochsenfurt","municipality":{"key":"09679170","name":"Ochsenfurt, St","type":"Stadt"},"district":{"key":"09679","name":"Würzburg","type":"Landkreis"},"federalState":{"key":"09","name":"Bayern"}},{"name":"Im Schnatter","postalCode":"97199","locality":"Ochsenfurt","municipality":{"key":"09679170","name":"Ochsenfurt, St","type":"Stadt"},"district":{"key":"09679","name":"Würzburg","type":"Landkreis"},"federalState":{"key":"09","name":"Bayern"}},{"name":"Industriepark Wolfgang","postalCode":"97199","locality":"Ochsenfurt","municipality":{"key":"09679170","name":"Ochsenfurt, St","type":"Stadt"},"district":{"key":"09679","name":"Würzburg","type":"Landkreis"},"federalState":{"key":"09","name":"Bayern"}},{"name":"Industriestr.","postalCode":"97199","locality":"Ochsenfurt","municipality":{"key":"09679170","name":"Ochsenfurt, St","type":"Stadt"},"district":{"key":"09679","name":"Würzburg","type":"Landkreis"},"federalState":{"key":"09","name":"Bayern"}},{"name":"Jägerstr.","postalCode":"97199","locality":"Ochsenfurt","municipality":{"key":"09679170","name":"Ochsenfurt, St","type":"Stadt"},"district":{"key":"09679","name":"Würzburg","type":"Landkreis"},"federalState":{"key":"09","name":"Bayern"}},{"name":"Jahnstr.","postalCode":"97199","locality":"Ochsenfurt","municipality":{"key":"09679170","name":"Ochsenfurt, St","type":"Stadt"},"district":{"key":"09679","name":"Würzburg","type":"Landkreis"},"federalState":{"key":"09","name":"Bayern"}},{"name":"Johann-Baptist-Kestler-Str.","postalCode":"97199","locality":"Ochsenfurt","municipality":{"key":"09679170","name":"Ochsenfurt, St","type":"Stadt"},"district":{"key":"09679","name":"Würzburg","type":"Landkreis"},"federalState":{"key":"09","name":"Bayern"}},{"name":"Johann-Eck-Str.","postalCode":"97199","locality":"Ochsenfurt","municipality":{"key":"09679170","name":"Ochsenfurt, St","type":"Stadt"},"district":{"key":"09679","name":"Würzburg","type":"Landkreis"},"federalState":{"key":"09","name":"Bayern"}},{"name":"Johannesgasse","postalCode":"97199","locality":"Ochsenfurt","municipality":{"key":"09679170","name":"Ochsenfurt, St","type":"Stadt"},"district":{"key":"09679","name":"Würzburg","type":"Landkreis"},"federalState":{"key":"09","name":"Bayern"}},{"name":"Johann-Fesel-Str.","postalCode":"97199","locality":"Ochsenfurt","municipality":{"key":"09679170","name":"Ochsenfurt, St","type":"Stadt"},"district":{"key":"09679","name":"Würzburg","type":"Landkreis"},"federalState":{"key":"09","name":"Bayern"}},{"name":"Judengasse","postalCode":"97199","locality":"Ochsenfurt","municipality":{"key":"09679170","name":"Ochsenfurt, St","type":"Stadt"},"district":{"key":"09679","name":"Würzburg","type":"Landkreis"},"federalState":{"key":"09","name":"Bayern"}},{"name":"Kapellengasse","postalCode":"97199","locality":"Ochsenfurt","municipality":{"key":"09679170","name":"Ochsenfurt, St","type":"Stadt"},"district":{"key":"09679","name":"Würzburg","type":"Landkreis"},"federalState":{"key":"09","name":"Bayern"}},{"name":"Kapuzinersteig","postalCode":"97199","locality":"Ochsenfurt","municipality":{"key":"09679170","name":"Ochsenfurt, St","type":"Stadt"},"district":{"key":"09679","name":"Würzburg","type":"Landkreis"},"federalState":{"key":"09","name":"Bayern"}},{"name":"Kartäuserstr.","postalCode":"97199","locality":"Ochsenfurt","municipality":{"key":"09679170","name":"Ochsenfurt, St","type":"Stadt"},"district":{"key":"09679","name":"Würzburg","type":"Landkreis"},"federalState":{"key":"09","name":"Bayern"}},{"name":"Kaspar-Hofmann-Weg","postalCode":"97199","locality":"Ochsenfurt","municipality":{"key":"09679170","name":"Ochsenfurt, St","type":"Stadt"},"district":{"key":"09679","name":"Würzburg","type":"Landkreis"},"federalState":{"key":"09","name":"Bayern"}},{"name":"Kastenhof","postalCode":"97199","locality":"Ochsenfurt","municipality":{"key":"09679170","name":"Ochsenfurt, St","type":"Stadt"},"district":{"key":"09679","name":"Würzburg","type":"Landkreis"},"federalState":{"key":"09","name":"Bayern"}},{"name":"Kellereistr.","postalCode":"97199","locality":"Ochsenfurt","municipality":{"key":"09679170","name":"Ochsenfurt, St","type":"Stadt"},"district":{"key":"09679","name":"Würzburg","type":"Landkreis"},"federalState":{"key":"09","name":"Bayern"}},{"name":"Kindermannstr.","postalCode":"97199","locality":"Ochsenfurt","municipality":{"key":"09679170","name":"Ochsenfurt, St","type":"Stadt"},"district":{"key":"09679","name":"Würzburg","type":"Landkreis"},"federalState":{"key":"09","name":"Bayern"}},{"name":"Kirchplatz","postalCode":"97199","locality":"Ochsenfurt","municipality":{"key":"09679170","name":"Ochsenfurt, St","type":"Stadt"},"district":{"key":"09679","name":"Würzburg","type":"Landkreis"},"federalState":{"key":"09","name":"Bayern"}},{"name":"Kleinochsenfurter Str.","postalCode":"97199","locality":"Ochsenfurt","municipality":{"key":"09679170","name":"Ochsenfurt, St","type":"Stadt"},"district":{"key":"09679","name":"Würzburg","type":"Landkreis"},"federalState":{"key":"09","name":"Bayern"}},{"name":"Klinge","postalCode":"97199","locality":"Ochsenfurt","municipality":{"key":"09679170","name":"Ochsenfurt, St","type":"Stadt"},"district":{"key":"09679","name":"Würzburg","type":"Landkreis"},"federalState":{"key":"09","name":"Bayern"}},{"name":"Klingentor - Passage","postalCode":"97199","locality":"Ochsenfurt","municipality":{"key":"09679170","name":"Ochsenfurt, St","type":"Stadt"},"district":{"key":"09679","name":"Würzburg","type":"Landkreis"},"federalState":{"key":"09","name":"Bayern"}},{"name":"Klosterweg","postalCode":"97199","locality":"Ochsenfurt","municipality":{"key":"09679170","name":"Ochsenfurt, St","type":"Stadt"},"district":{"key":"09679","name":"Würzburg","type":"Landkreis"},"federalState":{"key":"09","name":"Bayern"}},{"name":"Kniebreche","postalCode":"97199","locality":"Ochsenfurt","municipality":{"key":"09679170","name":"Ochsenfurt, St","type":"Stadt"},"district":{"key":"09679","name":"Würzburg","type":"Landkreis"},"federalState":{"key":"09","name":"Bayern"}},{"name":"Kolpingstr.","postalCode":"97199","locality":"Ochsenfurt","municipality":{"key":"09679170","name":"Ochsenfurt, St","type":"Stadt"},"district":{"key":"09679","name":"Würzburg","type":"Landkreis"},"federalState":{"key":"09","name":"Bayern"}},{"name":"Königsberger Str.","postalCode":"97199","locality":"Ochsenfurt","municipality":{"key":"09679170","name":"Ochsenfurt, St","type":"Stadt"},"district":{"key":"09679","name":"Würzburg","type":"Landkreis"},"federalState":{"key":"09","name":"Bayern"}},{"name":"Konradinstr.","postalCode":"97199","locality":"Ochsenfurt","municipality":{"key":"09679170","name":"Ochsenfurt, St","type":"Stadt"},"district":{"key":"09679","name":"Würzburg","type":"Landkreis"},"federalState":{"key":"09","name":"Bayern"}},{"name":"Konventstr.","postalCode":"97199","locality":"Ochsenfurt","municipality":{"key":"09679170","name":"Ochsenfurt, St","type":"Stadt"},"district":{"key":"09679","name":"Würzburg","type":"Landkreis"},"federalState":{"key":"09","name":"Bayern"}},{"name":"Kreuzstr.","postalCode":"97199","locality":"Ochsenfurt","municipality":{"key":"09679170","name":"Ochsenfurt, St","type":"Stadt"},"district":{"key":"09679","name":"Würzburg","type":"Landkreis"},"federalState":{"key":"09","name":"Bayern"}},{"name":"Lambertusweg","postalCode":"97199","locality":"Ochsenfurt","municipality":{"key":"09679170","name":"Ochsenfurt, St","type":"Stadt"},"district":{"key":"09679","name":"Würzburg","type":"Landkreis"},"federalState":{"key":"09","name":"Bayern"}},{"name":"Langgasse","postalCode":"97199","locality":"Ochsenfurt","municipality":{"key":"09679170","name":"Ochsenfurt, St","type":"Stadt"},"district":{"key":"09679","name":"Würzburg","type":"Landkreis"},"federalState":{"key":"09","name":"Bayern"}},{"name":"Lehbrunnenweg","postalCode":"97199","locality":"Ochsenfurt","municipality":{"key":"09679170","name":"Ochsenfurt, St","type":"Stadt"},"district":{"key":"09679","name":"Würzburg","type":"Landkreis"},"federalState":{"key":"09","name":"Bayern"}},{"name":"Lehmgrubenweg","postalCode":"97199","locality":"Ochsenfurt","municipality":{"key":"09679170","name":"Ochsenfurt, St","type":"Stadt"},"district":{"key":"09679","name":"Würzburg","type":"Landkreis"},"federalState":{"key":"09","name":"Bayern"}},{"name":"Lehmsteige","postalCode":"97199","locality":"Ochsenfurt","municipality":{"key":"09679170","name":"Ochsenfurt, St","type":"Stadt"},"district":{"key":"09679","name":"Würzburg","type":"Landkreis"},"federalState":{"key":"09","name":"Bayern"}},{"name":"Leipziger Str.","postalCode":"97199","locality":"Ochsenfurt","municipality":{"key":"09679170","name":"Ochsenfurt, St","type":"Stadt"},"district":{"key":"09679","name":"Würzburg","type":"Landkreis"},"federalState":{"key":"09","name":"Bayern"}},{"name":"Leonhardiweg","postalCode":"97199","locality":"Ochsenfurt","municipality":{"key":"09679170","name":"Ochsenfurt, St","type":"Stadt"},"district":{"key":"09679","name":"Würzburg","type":"Landkreis"},"federalState":{"key":"09","name":"Bayern"}},{"name":"Lindenstr.","postalCode":"97199","locality":"Ochsenfurt","municipality":{"key":"09679170","name":"Ochsenfurt, St","type":"Stadt"},"district":{"key":"09679","name":"Würzburg","type":"Landkreis"},"federalState":{"key":"09","name":"Bayern"}},{"name":"Lindhardstr.","postalCode":"97199","locality":"Ochsenfurt","municipality":{"key":"09679170","name":"Ochsenfurt, St","type":"Stadt"},"district":{"key":"09679","name":"Würzburg","type":"Landkreis"},"federalState":{"key":"09","name":"Bayern"}},{"name":"Linke Bachgasse","postalCode":"97199","locality":"Ochsenfurt","municipality":{"key":"09679170","name":"Ochsenfurt, St","type":"Stadt"},"district":{"key":"09679","name":"Würzburg","type":"Landkreis"},"federalState":{"key":"09","name":"Bayern"}},{"name":"Lohweg","postalCode":"97199","locality":"Ochsenfurt","municipality":{"key":"09679170","name":"Ochsenfurt, St","type":"Stadt"},"district":{"key":"09679","name":"Würzburg","type":"Landkreis"},"federalState":{"key":"09","name":"Bayern"}},{"name":"Mainau B","postalCode":"97199","locality":"Ochsenfurt","municipality":{"key":"09679170","name":"Ochsenfurt, St","type":"Stadt"},"district":{"key":"09679","name":"Würzburg","type":"Landkreis"},"federalState":{"key":"09","name":"Bayern"}},{"name":"Mainau C","postalCode":"97199","locality":"Ochsenfurt","municipality":{"key":"09679170","name":"Ochsenfurt, St","type":"Stadt"},"district":{"key":"09679","name":"Würzburg","type":"Landkreis"},"federalState":{"key":"09","name":"Bayern"}},{"name":"Maingasse","postalCode":"97199","locality":"Ochsenfurt","municipality":{"key":"09679170","name":"Ochsenfurt, St","type":"Stadt"},"district":{"key":"09679","name":"Würzburg","type":"Landkreis"},"federalState":{"key":"09","name":"Bayern"}},{"name":"Mainuferstr.","postalCode":"97199","locality":"Ochsenfurt","municipality":{"key":"09679170","name":"Ochsenfurt, St","type":"Stadt"},"district":{"key":"09679","name":"Würzburg","type":"Landkreis"},"federalState":{"key":"09","name":"Bayern"}},{"name":"Mangstr.","postalCode":"97199","locality":"Ochsenfurt","municipality":{"key":"09679170","name":"Ochsenfurt, St","type":"Stadt"},"district":{"key":"09679","name":"Würzburg","type":"Landkreis"},"federalState":{"key":"09","name":"Bayern"}},{"name":"Manigoldstr.","postalCode":"97199","locality":"Ochsenfurt","municipality":{"key":"09679170","name":"Ochsenfurt, St","type":"Stadt"},"district":{"key":"09679","name":"Würzburg","type":"Landkreis"},"federalState":{"key":"09","name":"Bayern"}},{"name":"Margareta-Helbling-Str.","postalCode":"97199","locality":"Ochsenfurt","municipality":{"key":"09679170","name":"Ochsenfurt, St","type":"Stadt"},"district":{"key":"09679","name":"Würzburg","type":"Landkreis"},"federalState":{"key":"09","name":"Bayern"}},{"name":"Marktbreiter Str.","postalCode":"97199","locality":"Ochsenfurt","municipality":{"key":"09679170","name":"Ochsenfurt, St","type":"Stadt"},"district":{"key":"09679","name":"Würzburg","type":"Landkreis"},"federalState":{"key":"09","name":"Bayern"}},{"name":"Mittlere Badgasse","postalCode":"97199","locality":"Ochsenfurt","municipality":{"key":"09679170","name":"Ochsenfurt, St","type":"Stadt"},"district":{"key":"09679","name":"Würzburg","type":"Landkreis"},"federalState":{"key":"09","name":"Bayern"}},{"name":"Mittlere Boxgasse","postalCode":"97199","locality":"Ochsenfurt","municipality":{"key":"09679170","name":"Ochsenfurt, St","type":"Stadt"},"district":{"key":"09679","name":"Würzburg","type":"Landkreis"},"federalState":{"key":"09","name":"Bayern"}},{"name":"Mittlere Redersgasse","postalCode":"97199","locality":"Ochsenfurt","municipality":{"key":"09679170","name":"Ochsenfurt, St","type":"Stadt"},"district":{"key":"09679","name":"Würzburg","type":"Landkreis"},"federalState":{"key":"09","name":"Bayern"}},{"name":"Molkereistr.","postalCode":"97199","locality":"Ochsenfurt","municipality":{"key":"09679170","name":"Ochsenfurt, St","type":"Stadt"},"district":{"key":"09679","name":"Würzburg","type":"Landkreis"},"federalState":{"key":"09","name":"Bayern"}},{"name":"Mönchstr.","postalCode":"97199","locality":"Ochsenfurt","municipality":{"key":"09679170","name":"Ochsenfurt, St","type":"Stadt"},"district":{"key":"09679","name":"Würzburg","type":"Landkreis"},"federalState":{"key":"09","name":"Bayern"}},{"name":"Nachtigallenweg","postalCode":"97199","locality":"Ochsenfurt","municipality":{"key":"09679170","name":"Ochsenfurt, St","type":"Stadt"},"district":{"key":"09679","name":"Würzburg","type":"Landkreis"},"federalState":{"key":"09","name":"Bayern"}},{"name":"Nelkenweg","postalCode":"97199","locality":"Ochsenfurt","municipality":{"key":"09679170","name":"Ochsenfurt, St","type":"Stadt"},"district":{"key":"09679","name":"Würzburg","type":"Landkreis"},"federalState":{"key":"09","name":"Bayern"}},{"name":"Neubergweg","postalCode":"97199","locality":"Ochsenfurt","municipality":{"key":"09679170","name":"Ochsenfurt, St","type":"Stadt"},"district":{"key":"09679","name":"Würzburg","type":"Landkreis"},"federalState":{"key":"09","name":"Bayern"}},{"name":"Obere Klingengasse","postalCode":"97199","locality":"Ochsenfurt","municipality":{"key":"09679170","name":"Ochsenfurt, St","type":"Stadt"},"district":{"key":"09679","name":"Würzburg","type":"Landkreis"},"federalState":{"key":"09","name":"Bayern"}},{"name":"Obere Manggasse","postalCode":"97199","locality":"Ochsenfurt","municipality":{"key":"09679170","name":"Ochsenfurt, St","type":"Stadt"},"district":{"key":"09679","name":"Würzburg","type":"Landkreis"},"federalState":{"key":"09","name":"Bayern"}},{"name":"Obere Redersgasse","postalCode":"97199","locality":"Ochsenfurt","municipality":{"key":"09679170","name":"Ochsenfurt, St","type":"Stadt"},"district":{"key":"09679","name":"Würzburg","type":"Landkreis"},"federalState":{"key":"09","name":"Bayern"}},{"name":"Oberer Lindhardweg","postalCode":"97199","locality":"Ochsenfurt","municipality":{"key":"09679170","name":"Ochsenfurt, St","type":"Stadt"},"district":{"key":"09679","name":"Würzburg","type":"Landkreis"},"federalState":{"key":"09","name":"Bayern"}},{"name":"Ochsenfurter Str.","postalCode":"97199","locality":"Ochsenfurt","municipality":{"key":"09679170","name":"Ochsenfurt, St","type":"Stadt"},"district":{"key":"09679","name":"Würzburg","type":"Landkreis"},"federalState":{"key":"09","name":"Bayern"}},{"name":"Ochsental","postalCode":"97199","locality":"Ochsenfurt","municipality":{"key":"09679170","name":"Ochsenfurt, St","type":"Stadt"},"district":{"key":"09679","name":"Würzburg","type":"Landkreis"},"federalState":{"key":"09","name":"Bayern"}},{"name":"Ochsentalstr.","postalCode":"97199","locality":"Ochsenfurt","municipality":{"key":"09679170","name":"Ochsenfurt, St","type":"Stadt"},"district":{"key":"09679","name":"Würzburg","type":"Landkreis"},"federalState":{"key":"09","name":"Bayern"}},{"name":"Pestalozzistr.","postalCode":"97199","locality":"Ochsenfurt","municipality":{"key":"09679170","name":"Ochsenfurt, St","type":"Stadt"},"district":{"key":"09679","name":"Würzburg","type":"Landkreis"},"federalState":{"key":"09","name":"Bayern"}},{"name":"Pfarrgasse","postalCode":"97199","locality":"Ochsenfurt","municipality":{"key":"09679170","name":"Ochsenfurt, St","type":"Stadt"},"district":{"key":"09679","name":"Würzburg","type":"Landkreis"},"federalState":{"key":"09","name":"Bayern"}},{"name":"Plankenweg","postalCode":"97199","locality":"Ochsenfurt","municipality":{"key":"09679170","name":"Ochsenfurt, St","type":"Stadt"},"district":{"key":"09679","name":"Würzburg","type":"Landkreis"},"federalState":{"key":"09","name":"Bayern"}},{"name":"Potsdamer Str.","postalCode":"97199","locality":"Ochsenfurt","municipality":{"key":"09679170","name":"Ochsenfurt, St","type":"Stadt"},"district":{"key":"09679","name":"Würzburg","type":"Landkreis"},"federalState":{"key":"09","name":"Bayern"}},{"name":"Quellengasse","postalCode":"97199","locality":"Ochsenfurt","municipality":{"key":"09679170","name":"Ochsenfurt, St","type":"Stadt"},"district":{"key":"09679","name":"Würzburg","type":"Landkreis"},"federalState":{"key":"09","name":"Bayern"}},{"name":"Rathausgasse","postalCode":"97199","locality":"Ochsenfurt","municipality":{"key":"09679170","name":"Ochsenfurt, St","type":"Stadt"},"district":{"key":"09679","name":"Würzburg","type":"Landkreis"},"federalState":{"key":"09","name":"Bayern"}},{"name":"Rechte Bachgasse","postalCode":"97199","locality":"Ochsenfurt","municipality":{"key":"09679170","name":"Ochsenfurt, St","type":"Stadt"},"district":{"key":"09679","name":"Würzburg","type":"Landkreis"},"federalState":{"key":"09","name":"Bayern"}},{"name":"Rittershäuser Str.","postalCode":"97199","locality":"Ochsenfurt","municipality":{"key":"09679170","name":"Ochsenfurt, St","type":"Stadt"},"district":{"key":"09679","name":"Würzburg","type":"Landkreis"},"federalState":{"key":"09","name":"Bayern"}},{"name":"Rosenstr.","postalCode":"97199","locality":"Ochsenfurt","municipality":{"key":"09679170","name":"Ochsenfurt, St","type":"Stadt"},"district":{"key":"09679","name":"Würzburg","type":"Landkreis"},"federalState":{"key":"09","name":"Bayern"}},{"name":"Roßhirtstr.","postalCode":"97199","locality":"Ochsenfurt","municipality":{"key":"09679170","name":"Ochsenfurt, St","type":"Stadt"},"district":{"key":"09679","name":"Würzburg","type":"Landkreis"},"federalState":{"key":"09","name":"Bayern"}},{"name":"Rosshof","postalCode":"97199","locality":"Ochsenfurt","municipality":{"key":"09679170","name":"Ochsenfurt, St","type":"Stadt"},"district":{"key":"09679","name":"Würzburg","type":"Landkreis"},"federalState":{"key":"09","name":"Bayern"}},{"name":"Rößleinstr.","postalCode":"97199","locality":"Ochsenfurt","municipality":{"key":"09679170","name":"Ochsenfurt, St","type":"Stadt"},"district":{"key":"09679","name":"Würzburg","type":"Landkreis"},"federalState":{"key":"09","name":"Bayern"}},{"name":"Rossmühlgasse","postalCode":"97199","locality":"Ochsenfurt","municipality":{"key":"09679170","name":"Ochsenfurt, St","type":"Stadt"},"district":{"key":"09679","name":"Würzburg","type":"Landkreis"},"federalState":{"key":"09","name":"Bayern"}},{"name":"Rudolf-Diesel-Str.","postalCode":"97199","locality":"Ochsenfurt","municipality":{"key":"09679170","name":"Ochsenfurt, St","type":"Stadt"},"district":{"key":"09679","name":"Würzburg","type":"Landkreis"},"federalState":{"key":"09","name":"Bayern"}},{"name":"Saalhofgasse","postalCode":"97199","locality":"Ochsenfurt","municipality":{"key":"09679170","name":"Ochsenfurt, St","type":"Stadt"},"district":{"key":"09679","name":"Würzburg","type":"Landkreis"},"federalState":{"key":"09","name":"Bayern"}},{"name":"Saarbachstr.","postalCode":"97199","locality":"Ochsenfurt","municipality":{"key":"09679170","name":"Ochsenfurt, St","type":"Stadt"},"district":{"key":"09679","name":"Würzburg","type":"Landkreis"},"federalState":{"key":"09","name":"Bayern"}},{"name":"Salbenweg","postalCode":"97199","locality":"Ochsenfurt","municipality":{"key":"09679170","name":"Ochsenfurt, St","type":"Stadt"},"district":{"key":"09679","name":"Würzburg","type":"Landkreis"},"federalState":{"key":"09","name":"Bayern"}},{"name":"Salmstr.","postalCode":"97199","locality":"Ochsenfurt","municipality":{"key":"09679170","name":"Ochsenfurt, St","type":"Stadt"},"district":{"key":"09679","name":"Würzburg","type":"Landkreis"},"federalState":{"key":"09","name":"Bayern"}},{"name":"Sandstr.","postalCode":"97199","locality":"Ochsenfurt","municipality":{"key":"09679170","name":"Ochsenfurt, St","type":"Stadt"},"district":{"key":"09679","name":"Würzburg","type":"Landkreis"},"federalState":{"key":"09","name":"Bayern"}},{"name":"Schäferweg","postalCode":"97199","locality":"Ochsenfurt","municipality":{"key":"09679170","name":"Ochsenfurt, St","type":"Stadt"},"district":{"key":"09679","name":"Würzburg","type":"Landkreis"},"federalState":{"key":"09","name":"Bayern"}},{"name":"Scheckenbachstr.","postalCode":"97199","locality":"Ochsenfurt","municipality":{"key":"09679170","name":"Ochsenfurt, St","type":"Stadt"},"district":{"key":"09679","name":"Würzburg","type":"Landkreis"},"federalState":{"key":"09","name":"Bayern"}},{"name":"Schlesierstr.","postalCode":"97199","locality":"Ochsenfurt","municipality":{"key":"09679170","name":"Ochsenfurt, St","type":"Stadt"},"district":{"key":"09679","name":"Würzburg","type":"Landkreis"},"federalState":{"key":"09","name":"Bayern"}},{"name":"Schloßstr.","postalCode":"97199","locality":"Ochsenfurt","municipality":{"key":"09679170","name":"Ochsenfurt, St","type":"Stadt"},"district":{"key":"09679","name":"Würzburg","type":"Landkreis"},"federalState":{"key":"09","name":"Bayern"}},{"name":"Schulstr.","postalCode":"97199","locality":"Ochsenfurt","municipality":{"key":"09679170","name":"Ochsenfurt, St","type":"Stadt"},"district":{"key":"09679","name":"Würzburg","type":"Landkreis"},"federalState":{"key":"09","name":"Bayern"}},{"name":"Schützenweg","postalCode":"97199","locality":"Ochsenfurt","municipality":{"key":"09679170","name":"Ochsenfurt, St","type":"Stadt"},"district":{"key":"09679","name":"Würzburg","type":"Landkreis"},"federalState":{"key":"09","name":"Bayern"}},{"name":"Schwarzenbergstr.","postalCode":"97199","locality":"Ochsenfurt","municipality":{"key":"09679170","name":"Ochsenfurt, St","type":"Stadt"},"district":{"key":"09679","name":"Würzburg","type":"Landkreis"},"federalState":{"key":"09","name":"Bayern"}},{"name":"Seeweg","postalCode":"97199","locality":"Ochsenfurt","municipality":{"key":"09679170","name":"Ochsenfurt, St","type":"Stadt"},"district":{"key":"09679","name":"Würzburg","type":"Landkreis"},"federalState":{"key":"09","name":"Bayern"}},{"name":"Seinsheimstr.","postalCode":"97199","locality":"Ochsenfurt","municipality":{"key":"09679170","name":"Ochsenfurt, St","type":"Stadt"},"district":{"key":"09679","name":"Würzburg","type":"Landkreis"},"federalState":{"key":"09","name":"Bayern"}},{"name":"Siedlerstr.","postalCode":"97199","locality":"Ochsenfurt","municipality":{"key":"09679170","name":"Ochsenfurt, St","type":"Stadt"},"district":{"key":"09679","name":"Würzburg","type":"Landkreis"},"federalState":{"key":"09","name":"Bayern"}},{"name":"Sommerhäuser Str.","postalCode":"97199","locality":"Ochsenfurt","municipality":{"key":"09679170","name":"Ochsenfurt, St","type":"Stadt"},"district":{"key":"09679","name":"Würzburg","type":"Landkreis"},"federalState":{"key":"09","name":"Bayern"}},{"name":"Sonnenstr.","postalCode":"97199","locality":"Ochsenfurt","municipality":{"key":"09679170","name":"Ochsenfurt, St","type":"Stadt"},"district":{"key":"09679","name":"Würzburg","type":"Landkreis"},"federalState":{"key":"09","name":"Bayern"}},{"name":"Spitalgasse","postalCode":"97199","locality":"Ochsenfurt","municipality":{"key":"09679170","name":"Ochsenfurt, St","type":"Stadt"},"district":{"key":"09679","name":"Würzburg","type":"Landkreis"},"federalState":{"key":"09","name":"Bayern"}},{"name":"Stadtpark Ochsenfurt","postalCode":"97199","locality":"Ochsenfurt","municipality":{"key":"09679170","name":"Ochsenfurt, St","type":"Stadt"},"district":{"key":"09679","name":"Würzburg","type":"Landkreis"},"federalState":{"key":"09","name":"Bayern"}},{"name":"Stangenbrunnen","postalCode":"97199","locality":"Ochsenfurt","municipality":{"key":"09679170","name":"Ochsenfurt, St","type":"Stadt"},"district":{"key":"09679","name":"Würzburg","type":"Landkreis"},"federalState":{"key":"09","name":"Bayern"}},{"name":"Staustufe","postalCode":"97199","locality":"Ochsenfurt","municipality":{"key":"09679170","name":"Ochsenfurt, St","type":"Stadt"},"district":{"key":"09679","name":"Würzburg","type":"Landkreis"},"federalState":{"key":"09","name":"Bayern"}},{"name":"Steinbruchweg","postalCode":"97199","locality":"Ochsenfurt","municipality":{"key":"09679170","name":"Ochsenfurt, St","type":"Stadt"},"district":{"key":"09679","name":"Würzburg","type":"Landkreis"},"federalState":{"key":"09","name":"Bayern"}},{"name":"Sterngasse","postalCode":"97199","locality":"Ochsenfurt","municipality":{"key":"09679170","name":"Ochsenfurt, St","type":"Stadt"},"district":{"key":"09679","name":"Würzburg","type":"Landkreis"},"federalState":{"key":"09","name":"Bayern"}},{"name":"Sternwirtsgasse","postalCode":"97199","locality":"Ochsenfurt","municipality":{"key":"09679170","name":"Ochsenfurt, St","type":"Stadt"},"district":{"key":"09679","name":"Würzburg","type":"Landkreis"},"federalState":{"key":"09","name":"Bayern"}},{"name":"Stettiner Str.","postalCode":"97199","locality":"Ochsenfurt","municipality":{"key":"09679170","name":"Ochsenfurt, St","type":"Stadt"},"district":{"key":"09679","name":"Würzburg","type":"Landkreis"},"federalState":{"key":"09","name":"Bayern"}},{"name":"St.-Georg-Str.","postalCode":"97199","locality":"Ochsenfurt","municipality":{"key":"09679170","name":"Ochsenfurt, St","type":"Stadt"},"district":{"key":"09679","name":"Würzburg","type":"Landkreis"},"federalState":{"key":"09","name":"Bayern"}},{"name":"Strickleinsweg","postalCode":"97199","locality":"Ochsenfurt","municipality":{"key":"09679170","name":"Ochsenfurt, St","type":"Stadt"},"district":{"key":"09679","name":"Würzburg","type":"Landkreis"},"federalState":{"key":"09","name":"Bayern"}},{"name":"St.-Thekla-Weg","postalCode":"97199","locality":"Ochsenfurt","municipality":{"key":"09679170","name":"Ochsenfurt, St","type":"Stadt"},"district":{"key":"09679","name":"Würzburg","type":"Landkreis"},"federalState":{"key":"09","name":"Bayern"}},{"name":"Sudetenstr.","postalCode":"97199","locality":"Ochsenfurt","municipality":{"key":"09679170","name":"Ochsenfurt, St","type":"Stadt"},"district":{"key":"09679","name":"Würzburg","type":"Landkreis"},"federalState":{"key":"09","name":"Bayern"}},{"name":"Südtangente","postalCode":"97199","locality":"Ochsenfurt","municipality":{"key":"09679170","name":"Ochsenfurt, St","type":"Stadt"},"district":{"key":"09679","name":"Würzburg","type":"Landkreis"},"federalState":{"key":"09","name":"Bayern"}},{"name":"Suhlersgasse","postalCode":"97199","locality":"Ochsenfurt","municipality":{"key":"09679170","name":"Ochsenfurt, St","type":"Stadt"},"district":{"key":"09679","name":"Würzburg","type":"Landkreis"},"federalState":{"key":"09","name":"Bayern"}},{"name":"Sulzfelder Weg","postalCode":"97199","locality":"Ochsenfurt","municipality":{"key":"09679170","name":"Ochsenfurt, St","type":"Stadt"},"district":{"key":"09679","name":"Würzburg","type":"Landkreis"},"federalState":{"key":"09","name":"Bayern"}},{"name":"Tannenwaldweg","postalCode":"97199","locality":"Ochsenfurt","municipality":{"key":"09679170","name":"Ochsenfurt, St","type":"Stadt"},"district":{"key":"09679","name":"Würzburg","type":"Landkreis"},"federalState":{"key":"09","name":"Bayern"}},{"name":"Theatergasse","postalCode":"97199","locality":"Ochsenfurt","municipality":{"key":"09679170","name":"Ochsenfurt, St","type":"Stadt"},"district":{"key":"09679","name":"Würzburg","type":"Landkreis"},"federalState":{"key":"09","name":"Bayern"}},{"name":"Tilsiter Str.","postalCode":"97199","locality":"Ochsenfurt","municipality":{"key":"09679170","name":"Ochsenfurt, St","type":"Stadt"},"district":{"key":"09679","name":"Würzburg","type":"Landkreis"},"federalState":{"key":"09","name":"Bayern"}},{"name":"Traubenweg","postalCode":"97199","locality":"Ochsenfurt","municipality":{"key":"09679170","name":"Ochsenfurt, St","type":"Stadt"},"district":{"key":"09679","name":"Würzburg","type":"Landkreis"},"federalState":{"key":"09","name":"Bayern"}},{"name":"Tückelhäuser Str.","postalCode":"97199","locality":"Ochsenfurt","municipality":{"key":"09679170","name":"Ochsenfurt, St","type":"Stadt"},"district":{"key":"09679","name":"Würzburg","type":"Landkreis"},"federalState":{"key":"09","name":"Bayern"}},{"name":"Tulpenweg","postalCode":"97199","locality":"Ochsenfurt","municipality":{"key":"09679170","name":"Ochsenfurt, St","type":"Stadt"},"district":{"key":"09679","name":"Würzburg","type":"Landkreis"},"federalState":{"key":"09","name":"Bayern"}},{"name":"Uffenheimer Str.","postalCode":"97199","locality":"Ochsenfurt","municipality":{"key":"09679170","name":"Ochsenfurt, St","type":"Stadt"},"district":{"key":"09679","name":"Würzburg","type":"Landkreis"},"federalState":{"key":"09","name":"Bayern"}},{"name":"Untere Badgasse","postalCode":"97199","locality":"Ochsenfurt","municipality":{"key":"09679170","name":"Ochsenfurt, St","type":"Stadt"},"district":{"key":"09679","name":"Würzburg","type":"Landkreis"},"federalState":{"key":"09","name":"Bayern"}},{"name":"Untere Boxgasse","postalCode":"97199","locality":"Ochsenfurt","municipality":{"key":"09679170","name":"Ochsenfurt, St","type":"Stadt"},"district":{"key":"09679","name":"Würzburg","type":"Landkreis"},"federalState":{"key":"09","name":"Bayern"}},{"name":"Untere Klingengasse","postalCode":"97199","locality":"Ochsenfurt","municipality":{"key":"09679170","name":"Ochsenfurt, St","type":"Stadt"},"district":{"key":"09679","name":"Würzburg","type":"Landkreis"},"federalState":{"key":"09","name":"Bayern"}},{"name":"Untere Redersgasse","postalCode":"97199","locality":"Ochsenfurt","municipality":{"key":"09679170","name":"Ochsenfurt, St","type":"Stadt"},"district":{"key":"09679","name":"Würzburg","type":"Landkreis"},"federalState":{"key":"09","name":"Bayern"}},{"name":"Unterer Spessartweg","postalCode":"97199","locality":"Ochsenfurt","municipality":{"key":"09679170","name":"Ochsenfurt, St","type":"Stadt"},"district":{"key":"09679","name":"Würzburg","type":"Landkreis"},"federalState":{"key":"09","name":"Bayern"}},{"name":"Valentingasse","postalCode":"97199","locality":"Ochsenfurt","municipality":{"key":"09679170","name":"Ochsenfurt, St","type":"Stadt"},"district":{"key":"09679","name":"Würzburg","type":"Landkreis"},"federalState":{"key":"09","name":"Bayern"}},{"name":"Veilchenweg","postalCode":"97199","locality":"Ochsenfurt","municipality":{"key":"09679170","name":"Ochsenfurt, St","type":"Stadt"},"district":{"key":"09679","name":"Würzburg","type":"Landkreis"},"federalState":{"key":"09","name":"Bayern"}},{"name":"Völkstr.","postalCode":"97199","locality":"Ochsenfurt","municipality":{"key":"09679170","name":"Ochsenfurt, St","type":"Stadt"},"district":{"key":"09679","name":"Würzburg","type":"Landkreis"},"federalState":{"key":"09","name":"Bayern"}},{"name":"Vorhof","postalCode":"97199","locality":"Ochsenfurt","municipality":{"key":"09679170","name":"Ochsenfurt, St","type":"Stadt"},"district":{"key":"09679","name":"Würzburg","type":"Landkreis"},"federalState":{"key":"09","name":"Bayern"}},{"name":"Wartweg","postalCode":"97199","locality":"Ochsenfurt","municipality":{"key":"09679170","name":"Ochsenfurt, St","type":"Stadt"},"district":{"key":"09679","name":"Würzburg","type":"Landkreis"},"federalState":{"key":"09","name":"Bayern"}},{"name":"Weinbergsweg","postalCode":"97199","locality":"Ochsenfurt","municipality":{"key":"09679170","name":"Ochsenfurt, St","type":"Stadt"},"district":{"key":"09679","name":"Würzburg","type":"Landkreis"},"federalState":{"key":"09","name":"Bayern"}},{"name":"Wengertsleite","postalCode":"97199","locality":"Ochsenfurt","municipality":{"key":"09679170","name":"Ochsenfurt, St","type":"Stadt"},"district":{"key":"09679","name":"Würzburg","type":"Landkreis"},"federalState":{"key":"09","name":"Bayern"}},{"name":"Wichernstr.","postalCode":"97199","locality":"Ochsenfurt","municipality":{"key":"09679170","name":"Ochsenfurt, St","type":"Stadt"},"district":{"key":"09679","name":"Würzburg","type":"Landkreis"},"federalState":{"key":"09","name":"Bayern"}},{"name":"Wiesenweg","postalCode":"97199","locality":"Ochsenfurt","municipality":{"key":"09679170","name":"Ochsenfurt, St","type":"Stadt"},"district":{"key":"09679","name":"Würzburg","type":"Landkreis"},"federalState":{"key":"09","name":"Bayern"}},{"name":"Wimborner Str.","postalCode":"97199","locality":"Ochsenfurt","municipality":{"key":"09679170","name":"Ochsenfurt, St","type":"Stadt"},"district":{"key":"09679","name":"Würzburg","type":"Landkreis"},"federalState":{"key":"09","name":"Bayern"}},{"name":"Winterhäuser Str.","postalCode":"97199","locality":"Ochsenfurt","municipality":{"key":"09679170","name":"Ochsenfurt, St","type":"Stadt"},"district":{"key":"09679","name":"Würzburg","type":"Landkreis"},"federalState":{"key":"09","name":"Bayern"}},{"name":"Wolfkehlstr.","postalCode":"97199","locality":"Ochsenfurt","municipality":{"key":"09679170","name":"Ochsenfurt, St","type":"Stadt"},"district":{"key":"09679","name":"Würzburg","type":"Landkreis"},"federalState":{"key":"09","name":"Bayern"}},{"name":"Würzburger Str.","postalCode":"97199","locality":"Ochsenfurt","municipality":{"key":"09679170","name":"Ochsenfurt, St","type":"Stadt"},"district":{"key":"09679","name":"Würzburg","type":"Landkreis"},"federalState":{"key":"09","name":"Bayern"}},{"name":"Ysenburgstr.","postalCode":"97082","locality":"Würzburg","municipality":{"key":"09663000","name":"Würzburg","type":"Kreisfreie_Stadt"},"district":{"key":"09663","name":"Würzburg","type":"Kreisfreie_Stadt"},"federalState":{"key":"09","name":"Bayern"}},{"name":"Y-Spange","postalCode":"97084","locality":"Würzburg","municipality":{"key":"09663000","name":"Würzburg","type":"Kreisfreie_Stadt"},"district":{"key":"09663","name":"Würzburg","type":"Kreisfreie_Stadt"},"federalState":{"key":"09","name":"Bayern"}},{"name":"Zehnthofstr.","postalCode":"97199","locality":"Ochsenfurt","municipality":{"key":"09679170","name":"Ochsenfurt, St","type":"Stadt"},"district":{"key":"09679","name":"Würzburg","type":"Landkreis"},"federalState":{"key":"09","name":"Bayern"}},{"name":"Zeilweg","postalCode":"97199","locality":"Ochsenfurt","municipality":{"key":"09679170","name":"Ochsenfurt, St","type":"Stadt"},"district":{"key":"09679","name":"Würzburg","type":"Landkreis"},"federalState":{"key":"09","name":"Bayern"}},{"name":"Zeubelrieder Steige","postalCode":"97199","locality":"Ochsenfurt","municipality":{"key":"09679170","name":"Ochsenfurt, St","type":"Stadt"},"district":{"key":"09679","name":"Würzburg","type":"Landkreis"},"federalState":{"key":"09","name":"Bayern"}},{"name":"Zielsgasse","postalCode":"97199","locality":"Ochsenfurt","municipality":{"key":"09679170","name":"Ochsenfurt, St","type":"Stadt"},"district":{"key":"09679","name":"Würzburg","type":"Landkreis"},"federalState":{"key":"09","name":"Bayern"}},{"name":"Zum Geier","postalCode":"97199","locality":"Ochsenfurt","municipality":{"key":"09679170","name":"Ochsenfurt, St","type":"Stadt"},"district":{"key":"09679","name":"Würzburg","type":"Landkreis"},"federalState":{"key":"09","name":"Bayern"}},{"name":"Zwinger","postalCode":"97199","locality":"Ochsenfurt","municipality":{"key":"09679170","name":"Ochsenfurt, St","type":"Stadt"},"district":{"key":"09679","name":"Würzburg","type":"Landkreis"},"federalState":{"key":"09","name":"Bayern"}},{"name":"Äußere Aumühlstr.","postalCode":"97076","locality":"Würzburg","municipality":{"key":"09663000","name":"Würzburg","type":"Kreisfreie_Stadt"},"district":{"key":"09663","name":"Würzburg","type":"Kreisfreie_Stadt"},"federalState":{"key":"09","name":"Bayern"}},{"name":"Äußerer Hublandweg","postalCode":"97074","locality":"Würzburg","municipality":{"key":"09663000","name":"Würzburg","type":"Kreisfreie_Stadt"},"district":{"key":"09663","name":"Würzburg","type":"Kreisfreie_Stadt"},"federalState":{"key":"09","name":"Bayern"}},{"name":"Äußerer Neubergweg","postalCode":"97074","locality":"Würzburg","municipality":{"key":"09663000","name":"Würzburg","type":"Kreisfreie_Stadt"},"district":{"key":"09663","name":"Würzburg","type":"Kreisfreie_Stadt"},"federalState":{"key":"09","name":"Bayern"}},{"name":"Äußerer Tränkeweg","postalCode":"97074","locality":"Würzburg","municipality":{"key":"09663000","name":"Würzburg","type":"Kreisfreie_Stadt"},"district":{"key":"09663","name":"Würzburg","type":"Kreisfreie_Stadt"},"federalState":{"key":"09","name":"Bayern"}},{"name":"Ölkammerweg","postalCode":"97199","locality":"Ochsenfurt","municipality":{"key":"09679170","name":"Ochsenfurt, St","type":"Stadt"},"district":{"key":"09679","name":"Würzburg","type":"Landkreis"},"federalState":{"key":"09","name":"Bayern"}},]