[{"name":"An Heisterbarg","postalCode":"25704","locality":"Nordermeldorf","municipality":{"key":"01051137","name":"Nordermeldorf","type":"Kreisangehörige_Gemeinde"},"district":{"key":"01051","name":"Dithmarschen","type":"Kreis"},"federalState":{"key":"01","name":"Schleswig-Holstein"}},{"name":"Bundesstr.","postalCode":"25704","locality":"Nordermeldorf","municipality":{"key":"01051137","name":"Nordermeldorf","type":"Kreisangehörige_Gemeinde"},"district":{"key":"01051","name":"Dithmarschen","type":"Kreis"},"federalState":{"key":"01","name":"Schleswig-Holstein"}},{"name":"Deichstr.","postalCode":"25704","locality":"Nordermeldorf","municipality":{"key":"01051137","name":"Nordermeldorf","type":"Kreisangehörige_Gemeinde"},"district":{"key":"01051","name":"Dithmarschen","type":"Kreis"},"federalState":{"key":"01","name":"Schleswig-Holstein"}},{"name":"Denkmalsweg","postalCode":"25704","locality":"Nordermeldorf","municipality":{"key":"01051137","name":"Nordermeldorf","type":"Kreisangehörige_Gemeinde"},"district":{"key":"01051","name":"Dithmarschen","type":"Kreis"},"federalState":{"key":"01","name":"Schleswig-Holstein"}},{"name":"Dorfstr.","postalCode":"25704","locality":"Nordermeldorf","municipality":{"key":"01051137","name":"Nordermeldorf","type":"Kreisangehörige_Gemeinde"},"district":{"key":"01051","name":"Dithmarschen","type":"Kreis"},"federalState":{"key":"01","name":"Schleswig-Holstein"}},{"name":"Dreihusen","postalCode":"25704","locality":"Nordermeldorf","municipality":{"key":"01051137","name":"Nordermeldorf","type":"Kreisangehörige_Gemeinde"},"district":{"key":"01051","name":"Dithmarschen","type":"Kreis"},"federalState":{"key":"01","name":"Schleswig-Holstein"}},{"name":"Dritter Querweg","postalCode":"25704","locality":"Nordermeldorf","municipality":{"key":"01051137","name":"Nordermeldorf","type":"Kreisangehörige_Gemeinde"},"district":{"key":"01051","name":"Dithmarschen","type":"Kreis"},"federalState":{"key":"01","name":"Schleswig-Holstein"}},{"name":"Droonsweg","postalCode":"25704","locality":"Nordermeldorf","municipality":{"key":"01051137","name":"Nordermeldorf","type":"Kreisangehörige_Gemeinde"},"district":{"key":"01051","name":"Dithmarschen","type":"Kreis"},"federalState":{"key":"01","name":"Schleswig-Holstein"}},{"name":"Düllweg","postalCode":"25704","locality":"Nordermeldorf","municipality":{"key":"01051137","name":"Nordermeldorf","type":"Kreisangehörige_Gemeinde"},"district":{"key":"01051","name":"Dithmarschen","type":"Kreis"},"federalState":{"key":"01","name":"Schleswig-Holstein"}},{"name":"Eichenweg","postalCode":"25712","locality":"Burg (Dithmarschen)","municipality":{"key":"01051016","name":"Burg (Dithmarschen)","type":"Kreisangehörige_Gemeinde"},"district":{"key":"01051","name":"Dithmarschen","type":"Kreis"},"federalState":{"key":"01","name":"Schleswig-Holstein"}},{"name":"Emil-Thießen-Str.","postalCode":"25712","locality":"Burg (Dithmarschen)","municipality":{"key":"01051016","name":"Burg (Dithmarschen)","type":"Kreisangehörige_Gemeinde"},"district":{"key":"01051","name":"Dithmarschen","type":"Kreis"},"federalState":{"key":"01","name":"Schleswig-Holstein"}},{"name":"Erlengrund","postalCode":"25712","locality":"Burg (Dithmarschen)","municipality":{"key":"01051016","name":"Burg (Dithmarschen)","type":"Kreisangehörige_Gemeinde"},"district":{"key":"01051","name":"Dithmarschen","type":"Kreis"},"federalState":{"key":"01","name":"Schleswig-Holstein"}},{"name":"Erwin-Behn-Str.","postalCode":"25712","locality":"Burg (Dithmarschen)","municipality":{"key":"01051016","name":"Burg (Dithmarschen)","type":"Kreisangehörige_Gemeinde"},"district":{"key":"01051","name":"Dithmarschen","type":"Kreis"},"federalState":{"key":"01","name":"Schleswig-Holstein"}},{"name":"Fähre-Süd","postalCode":"25572","locality":"Burg (Dithmarschen)","municipality":{"key":"01051016","name":"Burg (Dithmarschen)","type":"Kreisangehörige_Gemeinde"},"district":{"key":"01051","name":"Dithmarschen","type":"Kreis"},"federalState":{"key":"01","name":"Schleswig-Holstein"}},{"name":"Fähre-Süd","postalCode":"25712","locality":"Burg (Dithmarschen)","municipality":{"key":"01051016","name":"Burg (Dithmarschen)","type":"Kreisangehörige_Gemeinde"},"district":{"key":"01051","name":"Dithmarschen","type":"Kreis"},"federalState":{"key":"01","name":"Schleswig-Holstein"}},{"name":"Fasanenweg","postalCode":"25712","locality":"Burg (Dithmarschen)","municipality":{"key":"01051016","name":"Burg (Dithmarschen)","type":"Kreisangehörige_Gemeinde"},"district":{"key":"01051","name":"Dithmarschen","type":"Kreis"},"federalState":{"key":"01","name":"Schleswig-Holstein"}},{"name":"Feldstr.","postalCode":"25712","locality":"Burg (Dithmarschen)","municipality":{"key":"01051016","name":"Burg (Dithmarschen)","type":"Kreisangehörige_Gemeinde"},"district":{"key":"01051","name":"Dithmarschen","type":"Kreis"},"federalState":{"key":"01","name":"Schleswig-Holstein"}},{"name":"Finkenweg","postalCode":"25712","locality":"Burg (Dithmarschen)","municipality":{"key":"01051016","name":"Burg (Dithmarschen)","type":"Kreisangehörige_Gemeinde"},"district":{"key":"01051","name":"Dithmarschen","type":"Kreis"},"federalState":{"key":"01","name":"Schleswig-Holstein"}},{"name":"Friedrich-Hebbel-Weg","postalCode":"25712","locality":"Burg (Dithmarschen)","municipality":{"key":"01051016","name":"Burg (Dithmarschen)","type":"Kreisangehörige_Gemeinde"},"district":{"key":"01051","name":"Dithmarschen","type":"Kreis"},"federalState":{"key":"01","name":"Schleswig-Holstein"}},{"name":"Gartenstr.","postalCode":"25712","locality":"Burg (Dithmarschen)","municipality":{"key":"01051016","name":"Burg (Dithmarschen)","type":"Kreisangehörige_Gemeinde"},"district":{"key":"01051","name":"Dithmarschen","type":"Kreis"},"federalState":{"key":"01","name":"Schleswig-Holstein"}},{"name":"Große Bergstr.","postalCode":"25712","locality":"Burg (Dithmarschen)","municipality":{"key":"01051016","name":"Burg (Dithmarschen)","type":"Kreisangehörige_Gemeinde"},"district":{"key":"01051","name":"Dithmarschen","type":"Kreis"},"federalState":{"key":"01","name":"Schleswig-Holstein"}},{"name":"Große Mühlenstr.","postalCode":"25712","locality":"Burg (Dithmarschen)","municipality":{"key":"01051016","name":"Burg (Dithmarschen)","type":"Kreisangehörige_Gemeinde"},"district":{"key":"01051","name":"Dithmarschen","type":"Kreis"},"federalState":{"key":"01","name":"Schleswig-Holstein"}},{"name":"Große Schulstr.","postalCode":"25712","locality":"Burg (Dithmarschen)","municipality":{"key":"01051016","name":"Burg (Dithmarschen)","type":"Kreisangehörige_Gemeinde"},"district":{"key":"01051","name":"Dithmarschen","type":"Kreis"},"federalState":{"key":"01","name":"Schleswig-Holstein"}},{"name":"Gustav-Frenssen-Weg","postalCode":"25712","locality":"Burg (Dithmarschen)","municipality":{"key":"01051016","name":"Burg (Dithmarschen)","type":"Kreisangehörige_Gemeinde"},"district":{"key":"01051","name":"Dithmarschen","type":"Kreis"},"federalState":{"key":"01","name":"Schleswig-Holstein"}},{"name":"Hauptstr.","postalCode":"25704","locality":"Nordermeldorf","municipality":{"key":"01051137","name":"Nordermeldorf","type":"Kreisangehörige_Gemeinde"},"district":{"key":"01051","name":"Dithmarschen","type":"Kreis"},"federalState":{"key":"01","name":"Schleswig-Holstein"}},{"name":"Johannes-Kuhrt-Str.","postalCode":"25712","locality":"Burg (Dithmarschen)","municipality":{"key":"01051016","name":"Burg (Dithmarschen)","type":"Kreisangehörige_Gemeinde"},"district":{"key":"01051","name":"Dithmarschen","type":"Kreis"},"federalState":{"key":"01","name":"Schleswig-Holstein"}},{"name":"Kanzlei","postalCode":"25704","locality":"Nordermeldorf","municipality":{"key":"01051137","name":"Nordermeldorf","type":"Kreisangehörige_Gemeinde"},"district":{"key":"01051","name":"Dithmarschen","type":"Kreis"},"federalState":{"key":"01","name":"Schleswig-Holstein"}},{"name":"Koogstr.","postalCode":"25704","locality":"Nordermeldorf","municipality":{"key":"01051137","name":"Nordermeldorf","type":"Kreisangehörige_Gemeinde"},"district":{"key":"01051","name":"Dithmarschen","type":"Kreis"},"federalState":{"key":"01","name":"Schleswig-Holstein"}},{"name":"Lindenstr.","postalCode":"25712","locality":"Burg (Dithmarschen)","municipality":{"key":"01051016","name":"Burg (Dithmarschen)","type":"Kreisangehörige_Gemeinde"},"district":{"key":"01051","name":"Dithmarschen","type":"Kreis"},"federalState":{"key":"01","name":"Schleswig-Holstein"}},{"name":"Millionenweg","postalCode":"25704","locality":"Nordermeldorf","municipality":{"key":"01051137","name":"Nordermeldorf","type":"Kreisangehörige_Gemeinde"},"district":{"key":"01051","name":"Dithmarschen","type":"Kreis"},"federalState":{"key":"01","name":"Schleswig-Holstein"}},{"name":"Mittelweg","postalCode":"25704","locality":"Nordermeldorf","municipality":{"key":"01051137","name":"Nordermeldorf","type":"Kreisangehörige_Gemeinde"},"district":{"key":"01051","name":"Dithmarschen","type":"Kreis"},"federalState":{"key":"01","name":"Schleswig-Holstein"}},{"name":"Neuer Weg","postalCode":"25704","locality":"Nordermeldorf","municipality":{"key":"01051137","name":"Nordermeldorf","type":"Kreisangehörige_Gemeinde"},"district":{"key":"01051","name":"Dithmarschen","type":"Kreis"},"federalState":{"key":"01","name":"Schleswig-Holstein"}},{"name":"Op den Streek","postalCode":"25704","locality":"Nordermeldorf","municipality":{"key":"01051137","name":"Nordermeldorf","type":"Kreisangehörige_Gemeinde"},"district":{"key":"01051","name":"Dithmarschen","type":"Kreis"},"federalState":{"key":"01","name":"Schleswig-Holstein"}},{"name":"Osterhof","postalCode":"25704","locality":"Nordermeldorf","municipality":{"key":"01051137","name":"Nordermeldorf","type":"Kreisangehörige_Gemeinde"},"district":{"key":"01051","name":"Dithmarschen","type":"Kreis"},"federalState":{"key":"01","name":"Schleswig-Holstein"}},{"name":"Parallelstr.","postalCode":"25712","locality":"Burg (Dithmarschen)","municipality":{"key":"01051016","name":"Burg (Dithmarschen)","type":"Kreisangehörige_Gemeinde"},"district":{"key":"01051","name":"Dithmarschen","type":"Kreis"},"federalState":{"key":"01","name":"Schleswig-Holstein"}},{"name":"Peter-Göttsche-Str.","postalCode":"25712","locality":"Burg (Dithmarschen)","municipality":{"key":"01051016","name":"Burg (Dithmarschen)","type":"Kreisangehörige_Gemeinde"},"district":{"key":"01051","name":"Dithmarschen","type":"Kreis"},"federalState":{"key":"01","name":"Schleswig-Holstein"}},{"name":"Reiterweg","postalCode":"25704","locality":"Nordermeldorf","municipality":{"key":"01051137","name":"Nordermeldorf","type":"Kreisangehörige_Gemeinde"},"district":{"key":"01051","name":"Dithmarschen","type":"Kreis"},"federalState":{"key":"01","name":"Schleswig-Holstein"}},{"name":"Ringstr.","postalCode":"25704","locality":"Nordermeldorf","municipality":{"key":"01051137","name":"Nordermeldorf","type":"Kreisangehörige_Gemeinde"},"district":{"key":"01051","name":"Dithmarschen","type":"Kreis"},"federalState":{"key":"01","name":"Schleswig-Holstein"}},{"name":"Schulstr.","postalCode":"25704","locality":"Nordermeldorf","municipality":{"key":"01051137","name":"Nordermeldorf","type":"Kreisangehörige_Gemeinde"},"district":{"key":"01051","name":"Dithmarschen","type":"Kreis"},"federalState":{"key":"01","name":"Schleswig-Holstein"}},{"name":"Süder-Kirchweg","postalCode":"25704","locality":"Nordermeldorf","municipality":{"key":"01051137","name":"Nordermeldorf","type":"Kreisangehörige_Gemeinde"},"district":{"key":"01051","name":"Dithmarschen","type":"Kreis"},"federalState":{"key":"01","name":"Schleswig-Holstein"}},{"name":"Süderstr.","postalCode":"25704","locality":"Nordermeldorf","municipality":{"key":"01051137","name":"Nordermeldorf","type":"Kreisangehörige_Gemeinde"},"district":{"key":"01051","name":"Dithmarschen","type":"Kreis"},"federalState":{"key":"01","name":"Schleswig-Holstein"}},{"name":"Tannenbergallee","postalCode":"25712","locality":"Burg (Dithmarschen)","municipality":{"key":"01051016","name":"Burg (Dithmarschen)","type":"Kreisangehörige_Gemeinde"},"district":{"key":"01051","name":"Dithmarschen","type":"Kreis"},"federalState":{"key":"01","name":"Schleswig-Holstein"}},{"name":"Theodor-Storm-Weg","postalCode":"25712","locality":"Burg (Dithmarschen)","municipality":{"key":"01051016","name":"Burg (Dithmarschen)","type":"Kreisangehörige_Gemeinde"},"district":{"key":"01051","name":"Dithmarschen","type":"Kreis"},"federalState":{"key":"01","name":"Schleswig-Holstein"}},{"name":"Voßallee","postalCode":"25712","locality":"Burg (Dithmarschen)","municipality":{"key":"01051016","name":"Burg (Dithmarschen)","type":"Kreisangehörige_Gemeinde"},"district":{"key":"01051","name":"Dithmarschen","type":"Kreis"},"federalState":{"key":"01","name":"Schleswig-Holstein"}},{"name":"Voßweg","postalCode":"25712","locality":"Burg (Dithmarschen)","municipality":{"key":"01051016","name":"Burg (Dithmarschen)","type":"Kreisangehörige_Gemeinde"},"district":{"key":"01051","name":"Dithmarschen","type":"Kreis"},"federalState":{"key":"01","name":"Schleswig-Holstein"}},{"name":"Wurthweg","postalCode":"25704","locality":"Nordermeldorf","municipality":{"key":"01051137","name":"Nordermeldorf","type":"Kreisangehörige_Gemeinde"},"district":{"key":"01051","name":"Dithmarschen","type":"Kreis"},"federalState":{"key":"01","name":"Schleswig-Holstein"}},{"name":"Zweiter Querweg","postalCode":"25704","locality":"Nordermeldorf","municipality":{"key":"01051137","name":"Nordermeldorf","type":"Kreisangehörige_Gemeinde"},"district":{"key":"01051","name":"Dithmarschen","type":"Kreis"},"federalState":{"key":"01","name":"Schleswig-Holstein"}},]