[{"name":"Abtskamp","postalCode":"31719","locality":"Wiedensahl","municipality":{"key":"03257037","name":"Wiedensahl, Flecken","type":"Kreisangehörige_Gemeinde"},"district":{"key":"03257","name":"Schaumburg","type":"Landkreis"},"federalState":{"key":"03","name":"Niedersachsen"}},{"name":"Adelheidstr.","postalCode":"33378","locality":"Rheda-Wiedenbrück","municipality":{"key":"05754028","name":"Rheda-Wiedenbrück, Stadt","type":"Stadt"},"district":{"key":"05754","name":"Gütersloh","type":"Kreis"},"federalState":{"key":"05","name":"Nordrhein-Westfalen"}},{"name":"Aegidienwall","postalCode":"33378","locality":"Rheda-Wiedenbrück","municipality":{"key":"05754028","name":"Rheda-Wiedenbrück, Stadt","type":"Stadt"},"district":{"key":"05754","name":"Gütersloh","type":"Kreis"},"federalState":{"key":"05","name":"Nordrhein-Westfalen"}},{"name":"Ahornallee","postalCode":"33378","locality":"Rheda-Wiedenbrück","municipality":{"key":"05754028","name":"Rheda-Wiedenbrück, Stadt","type":"Stadt"},"district":{"key":"05754","name":"Gütersloh","type":"Kreis"},"federalState":{"key":"05","name":"Nordrhein-Westfalen"}},{"name":"Akazienstr.","postalCode":"33378","locality":"Rheda-Wiedenbrück","municipality":{"key":"05754028","name":"Rheda-Wiedenbrück, Stadt","type":"Stadt"},"district":{"key":"05754","name":"Gütersloh","type":"Kreis"},"federalState":{"key":"05","name":"Nordrhein-Westfalen"}},{"name":"Albert-Schweitzer-Str.","postalCode":"33378","locality":"Rheda-Wiedenbrück","municipality":{"key":"05754028","name":"Rheda-Wiedenbrück, Stadt","type":"Stadt"},"district":{"key":"05754","name":"Gütersloh","type":"Kreis"},"federalState":{"key":"05","name":"Nordrhein-Westfalen"}},{"name":"Alemannenweg","postalCode":"33378","locality":"Rheda-Wiedenbrück","municipality":{"key":"05754028","name":"Rheda-Wiedenbrück, Stadt","type":"Stadt"},"district":{"key":"05754","name":"Gütersloh","type":"Kreis"},"federalState":{"key":"05","name":"Nordrhein-Westfalen"}},{"name":"Alexander-Schem-Str.","postalCode":"33378","locality":"Rheda-Wiedenbrück","municipality":{"key":"05754028","name":"Rheda-Wiedenbrück, Stadt","type":"Stadt"},"district":{"key":"05754","name":"Gütersloh","type":"Kreis"},"federalState":{"key":"05","name":"Nordrhein-Westfalen"}},{"name":"Alfred-Delp-Str.","postalCode":"33378","locality":"Rheda-Wiedenbrück","municipality":{"key":"05754028","name":"Rheda-Wiedenbrück, Stadt","type":"Stadt"},"district":{"key":"05754","name":"Gütersloh","type":"Kreis"},"federalState":{"key":"05","name":"Nordrhein-Westfalen"}},{"name":"Alleestr.","postalCode":"33378","locality":"Rheda-Wiedenbrück","municipality":{"key":"05754028","name":"Rheda-Wiedenbrück, Stadt","type":"Stadt"},"district":{"key":"05754","name":"Gütersloh","type":"Kreis"},"federalState":{"key":"05","name":"Nordrhein-Westfalen"}},{"name":"Allerstr.","postalCode":"33378","locality":"Rheda-Wiedenbrück","municipality":{"key":"05754028","name":"Rheda-Wiedenbrück, Stadt","type":"Stadt"},"district":{"key":"05754","name":"Gütersloh","type":"Kreis"},"federalState":{"key":"05","name":"Nordrhein-Westfalen"}},{"name":"Alter Kamp","postalCode":"33378","locality":"Rheda-Wiedenbrück","municipality":{"key":"05754028","name":"Rheda-Wiedenbrück, Stadt","type":"Stadt"},"district":{"key":"05754","name":"Gütersloh","type":"Kreis"},"federalState":{"key":"05","name":"Nordrhein-Westfalen"}},{"name":"Althoffweg","postalCode":"33378","locality":"Rheda-Wiedenbrück","municipality":{"key":"05754028","name":"Rheda-Wiedenbrück, Stadt","type":"Stadt"},"district":{"key":"05754","name":"Gütersloh","type":"Kreis"},"federalState":{"key":"05","name":"Nordrhein-Westfalen"}},{"name":"Am Bach","postalCode":"33378","locality":"Rheda-Wiedenbrück","municipality":{"key":"05754028","name":"Rheda-Wiedenbrück, Stadt","type":"Stadt"},"district":{"key":"05754","name":"Gütersloh","type":"Kreis"},"federalState":{"key":"05","name":"Nordrhein-Westfalen"}},{"name":"Am Bahndamm","postalCode":"33378","locality":"Rheda-Wiedenbrück","municipality":{"key":"05754028","name":"Rheda-Wiedenbrück, Stadt","type":"Stadt"},"district":{"key":"05754","name":"Gütersloh","type":"Kreis"},"federalState":{"key":"05","name":"Nordrhein-Westfalen"}},{"name":"Am Bernebrock","postalCode":"33378","locality":"Rheda-Wiedenbrück","municipality":{"key":"05754028","name":"Rheda-Wiedenbrück, Stadt","type":"Stadt"},"district":{"key":"05754","name":"Gütersloh","type":"Kreis"},"federalState":{"key":"05","name":"Nordrhein-Westfalen"}},{"name":"Am Bödingsfeld","postalCode":"33378","locality":"Rheda-Wiedenbrück","municipality":{"key":"05754028","name":"Rheda-Wiedenbrück, Stadt","type":"Stadt"},"district":{"key":"05754","name":"Gütersloh","type":"Kreis"},"federalState":{"key":"05","name":"Nordrhein-Westfalen"}},{"name":"Am Breiten Schem","postalCode":"33378","locality":"Rheda-Wiedenbrück","municipality":{"key":"05754028","name":"Rheda-Wiedenbrück, Stadt","type":"Stadt"},"district":{"key":"05754","name":"Gütersloh","type":"Kreis"},"federalState":{"key":"05","name":"Nordrhein-Westfalen"}},{"name":"Am Domhof","postalCode":"33378","locality":"Rheda-Wiedenbrück","municipality":{"key":"05754028","name":"Rheda-Wiedenbrück, Stadt","type":"Stadt"},"district":{"key":"05754","name":"Gütersloh","type":"Kreis"},"federalState":{"key":"05","name":"Nordrhein-Westfalen"}},{"name":"Am Eusternbach","postalCode":"33378","locality":"Rheda-Wiedenbrück","municipality":{"key":"05754028","name":"Rheda-Wiedenbrück, Stadt","type":"Stadt"},"district":{"key":"05754","name":"Gütersloh","type":"Kreis"},"federalState":{"key":"05","name":"Nordrhein-Westfalen"}},{"name":"Am Faulbusch","postalCode":"33378","locality":"Rheda-Wiedenbrück","municipality":{"key":"05754028","name":"Rheda-Wiedenbrück, Stadt","type":"Stadt"},"district":{"key":"05754","name":"Gütersloh","type":"Kreis"},"federalState":{"key":"05","name":"Nordrhein-Westfalen"}},{"name":"Am Fichtenbusch","postalCode":"33378","locality":"Rheda-Wiedenbrück","municipality":{"key":"05754028","name":"Rheda-Wiedenbrück, Stadt","type":"Stadt"},"district":{"key":"05754","name":"Gütersloh","type":"Kreis"},"federalState":{"key":"05","name":"Nordrhein-Westfalen"}},{"name":"Am Frankenbrink","postalCode":"33378","locality":"Rheda-Wiedenbrück","municipality":{"key":"05754028","name":"Rheda-Wiedenbrück, Stadt","type":"Stadt"},"district":{"key":"05754","name":"Gütersloh","type":"Kreis"},"federalState":{"key":"05","name":"Nordrhein-Westfalen"}},{"name":"Am Freigrafenkamp","postalCode":"33378","locality":"Rheda-Wiedenbrück","municipality":{"key":"05754028","name":"Rheda-Wiedenbrück, Stadt","type":"Stadt"},"district":{"key":"05754","name":"Gütersloh","type":"Kreis"},"federalState":{"key":"05","name":"Nordrhein-Westfalen"}},{"name":"Am Fuhrmannskamp","postalCode":"33378","locality":"Rheda-Wiedenbrück","municipality":{"key":"05754028","name":"Rheda-Wiedenbrück, Stadt","type":"Stadt"},"district":{"key":"05754","name":"Gütersloh","type":"Kreis"},"federalState":{"key":"05","name":"Nordrhein-Westfalen"}},{"name":"Am Güterbahnhof","postalCode":"33378","locality":"Rheda-Wiedenbrück","municipality":{"key":"05754028","name":"Rheda-Wiedenbrück, Stadt","type":"Stadt"},"district":{"key":"05754","name":"Gütersloh","type":"Kreis"},"federalState":{"key":"05","name":"Nordrhein-Westfalen"}},{"name":"Am Hagekamp","postalCode":"33378","locality":"Rheda-Wiedenbrück","municipality":{"key":"05754028","name":"Rheda-Wiedenbrück, Stadt","type":"Stadt"},"district":{"key":"05754","name":"Gütersloh","type":"Kreis"},"federalState":{"key":"05","name":"Nordrhein-Westfalen"}},{"name":"Am Hallenbad","postalCode":"33378","locality":"Rheda-Wiedenbrück","municipality":{"key":"05754028","name":"Rheda-Wiedenbrück, Stadt","type":"Stadt"},"district":{"key":"05754","name":"Gütersloh","type":"Kreis"},"federalState":{"key":"05","name":"Nordrhein-Westfalen"}},{"name":"Am Holzbach","postalCode":"33378","locality":"Rheda-Wiedenbrück","municipality":{"key":"05754028","name":"Rheda-Wiedenbrück, Stadt","type":"Stadt"},"district":{"key":"05754","name":"Gütersloh","type":"Kreis"},"federalState":{"key":"05","name":"Nordrhein-Westfalen"}},{"name":"Am Jägerheim","postalCode":"33378","locality":"Rheda-Wiedenbrück","municipality":{"key":"05754028","name":"Rheda-Wiedenbrück, Stadt","type":"Stadt"},"district":{"key":"05754","name":"Gütersloh","type":"Kreis"},"federalState":{"key":"05","name":"Nordrhein-Westfalen"}},{"name":"Am Jödenkamp","postalCode":"33378","locality":"Rheda-Wiedenbrück","municipality":{"key":"05754028","name":"Rheda-Wiedenbrück, Stadt","type":"Stadt"},"district":{"key":"05754","name":"Gütersloh","type":"Kreis"},"federalState":{"key":"05","name":"Nordrhein-Westfalen"}},{"name":"Am Kirmesfeld","postalCode":"33378","locality":"Rheda-Wiedenbrück","municipality":{"key":"05754028","name":"Rheda-Wiedenbrück, Stadt","type":"Stadt"},"district":{"key":"05754","name":"Gütersloh","type":"Kreis"},"federalState":{"key":"05","name":"Nordrhein-Westfalen"}},{"name":"Am Kleigraben","postalCode":"33378","locality":"Rheda-Wiedenbrück","municipality":{"key":"05754028","name":"Rheda-Wiedenbrück, Stadt","type":"Stadt"},"district":{"key":"05754","name":"Gütersloh","type":"Kreis"},"federalState":{"key":"05","name":"Nordrhein-Westfalen"}},{"name":"Am Kleikamp","postalCode":"33378","locality":"Rheda-Wiedenbrück","municipality":{"key":"05754028","name":"Rheda-Wiedenbrück, Stadt","type":"Stadt"},"district":{"key":"05754","name":"Gütersloh","type":"Kreis"},"federalState":{"key":"05","name":"Nordrhein-Westfalen"}},{"name":"Am Lattenbusch","postalCode":"33378","locality":"Rheda-Wiedenbrück","municipality":{"key":"05754028","name":"Rheda-Wiedenbrück, Stadt","type":"Stadt"},"district":{"key":"05754","name":"Gütersloh","type":"Kreis"},"federalState":{"key":"05","name":"Nordrhein-Westfalen"}},{"name":"Am Neuen Werk","postalCode":"33378","locality":"Rheda-Wiedenbrück","municipality":{"key":"05754028","name":"Rheda-Wiedenbrück, Stadt","type":"Stadt"},"district":{"key":"05754","name":"Gütersloh","type":"Kreis"},"federalState":{"key":"05","name":"Nordrhein-Westfalen"}},{"name":"Am Nonenplatz","postalCode":"33378","locality":"Rheda-Wiedenbrück","municipality":{"key":"05754028","name":"Rheda-Wiedenbrück, Stadt","type":"Stadt"},"district":{"key":"05754","name":"Gütersloh","type":"Kreis"},"federalState":{"key":"05","name":"Nordrhein-Westfalen"}},{"name":"Am Petersholz","postalCode":"33378","locality":"Rheda-Wiedenbrück","municipality":{"key":"05754028","name":"Rheda-Wiedenbrück, Stadt","type":"Stadt"},"district":{"key":"05754","name":"Gütersloh","type":"Kreis"},"federalState":{"key":"05","name":"Nordrhein-Westfalen"}},{"name":"Am Postdamm","postalCode":"33378","locality":"Rheda-Wiedenbrück","municipality":{"key":"05754028","name":"Rheda-Wiedenbrück, Stadt","type":"Stadt"},"district":{"key":"05754","name":"Gütersloh","type":"Kreis"},"federalState":{"key":"05","name":"Nordrhein-Westfalen"}},{"name":"Am Reckenberg","postalCode":"33378","locality":"Rheda-Wiedenbrück","municipality":{"key":"05754028","name":"Rheda-Wiedenbrück, Stadt","type":"Stadt"},"district":{"key":"05754","name":"Gütersloh","type":"Kreis"},"federalState":{"key":"05","name":"Nordrhein-Westfalen"}},{"name":"Am Rondell","postalCode":"33378","locality":"Rheda-Wiedenbrück","municipality":{"key":"05754028","name":"Rheda-Wiedenbrück, Stadt","type":"Stadt"},"district":{"key":"05754","name":"Gütersloh","type":"Kreis"},"federalState":{"key":"05","name":"Nordrhein-Westfalen"}},{"name":"Am Rott","postalCode":"33378","locality":"Rheda-Wiedenbrück","municipality":{"key":"05754028","name":"Rheda-Wiedenbrück, Stadt","type":"Stadt"},"district":{"key":"05754","name":"Gütersloh","type":"Kreis"},"federalState":{"key":"05","name":"Nordrhein-Westfalen"}},{"name":"Am Ruthenbach","postalCode":"33378","locality":"Rheda-Wiedenbrück","municipality":{"key":"05754028","name":"Rheda-Wiedenbrück, Stadt","type":"Stadt"},"district":{"key":"05754","name":"Gütersloh","type":"Kreis"},"federalState":{"key":"05","name":"Nordrhein-Westfalen"}},{"name":"Am Sandberg","postalCode":"33378","locality":"Rheda-Wiedenbrück","municipality":{"key":"05754028","name":"Rheda-Wiedenbrück, Stadt","type":"Stadt"},"district":{"key":"05754","name":"Gütersloh","type":"Kreis"},"federalState":{"key":"05","name":"Nordrhein-Westfalen"}},{"name":"Am Schmiedebusch","postalCode":"33378","locality":"Rheda-Wiedenbrück","municipality":{"key":"05754028","name":"Rheda-Wiedenbrück, Stadt","type":"Stadt"},"district":{"key":"05754","name":"Gütersloh","type":"Kreis"},"federalState":{"key":"05","name":"Nordrhein-Westfalen"}},{"name":"Amselweg","postalCode":"33378","locality":"Rheda-Wiedenbrück","municipality":{"key":"05754028","name":"Rheda-Wiedenbrück, Stadt","type":"Stadt"},"district":{"key":"05754","name":"Gütersloh","type":"Kreis"},"federalState":{"key":"05","name":"Nordrhein-Westfalen"}},{"name":"Am Stadtgraben","postalCode":"33378","locality":"Rheda-Wiedenbrück","municipality":{"key":"05754028","name":"Rheda-Wiedenbrück, Stadt","type":"Stadt"},"district":{"key":"05754","name":"Gütersloh","type":"Kreis"},"federalState":{"key":"05","name":"Nordrhein-Westfalen"}},{"name":"Am Stadtholz","postalCode":"33378","locality":"Rheda-Wiedenbrück","municipality":{"key":"05754028","name":"Rheda-Wiedenbrück, Stadt","type":"Stadt"},"district":{"key":"05754","name":"Gütersloh","type":"Kreis"},"federalState":{"key":"05","name":"Nordrhein-Westfalen"}},{"name":"Am Stelzbach","postalCode":"33378","locality":"Rheda-Wiedenbrück","municipality":{"key":"05754028","name":"Rheda-Wiedenbrück, Stadt","type":"Stadt"},"district":{"key":"05754","name":"Gütersloh","type":"Kreis"},"federalState":{"key":"05","name":"Nordrhein-Westfalen"}},{"name":"Am Stückermersch","postalCode":"33378","locality":"Rheda-Wiedenbrück","municipality":{"key":"05754028","name":"Rheda-Wiedenbrück, Stadt","type":"Stadt"},"district":{"key":"05754","name":"Gütersloh","type":"Kreis"},"federalState":{"key":"05","name":"Nordrhein-Westfalen"}},{"name":"Bäckerstr.","postalCode":"33378","locality":"Rheda-Wiedenbrück","municipality":{"key":"05754028","name":"Rheda-Wiedenbrück, Stadt","type":"Stadt"},"district":{"key":"05754","name":"Gütersloh","type":"Kreis"},"federalState":{"key":"05","name":"Nordrhein-Westfalen"}},{"name":"Bahnhofsplatz","postalCode":"33378","locality":"Rheda-Wiedenbrück","municipality":{"key":"05754028","name":"Rheda-Wiedenbrück, Stadt","type":"Stadt"},"district":{"key":"05754","name":"Gütersloh","type":"Kreis"},"federalState":{"key":"05","name":"Nordrhein-Westfalen"}},{"name":"Bahnhofstr.","postalCode":"31719","locality":"Wiedensahl","municipality":{"key":"03257037","name":"Wiedensahl, Flecken","type":"Kreisangehörige_Gemeinde"},"district":{"key":"03257","name":"Schaumburg","type":"Landkreis"},"federalState":{"key":"03","name":"Niedersachsen"}},{"name":"Bahnhofstr.","postalCode":"33378","locality":"Rheda-Wiedenbrück","municipality":{"key":"05754028","name":"Rheda-Wiedenbrück, Stadt","type":"Stadt"},"district":{"key":"05754","name":"Gütersloh","type":"Kreis"},"federalState":{"key":"05","name":"Nordrhein-Westfalen"}},{"name":"Baldewinstr.","postalCode":"33378","locality":"Rheda-Wiedenbrück","municipality":{"key":"05754028","name":"Rheda-Wiedenbrück, Stadt","type":"Stadt"},"district":{"key":"05754","name":"Gütersloh","type":"Kreis"},"federalState":{"key":"05","name":"Nordrhein-Westfalen"}},{"name":"Barbarastr.","postalCode":"33378","locality":"Rheda-Wiedenbrück","municipality":{"key":"05754028","name":"Rheda-Wiedenbrück, Stadt","type":"Stadt"},"district":{"key":"05754","name":"Gütersloh","type":"Kreis"},"federalState":{"key":"05","name":"Nordrhein-Westfalen"}},{"name":"Bargfelder Weg","postalCode":"24613","locality":"Wiedenborstel","municipality":{"key":"01061111","name":"Wiedenborstel","type":"Kreisangehörige_Gemeinde"},"district":{"key":"01061","name":"Steinburg","type":"Kreis"},"federalState":{"key":"01","name":"Schleswig-Holstein"}},{"name":"Beckerpassage","postalCode":"33378","locality":"Rheda-Wiedenbrück","municipality":{"key":"05754028","name":"Rheda-Wiedenbrück, Stadt","type":"Stadt"},"district":{"key":"05754","name":"Gütersloh","type":"Kreis"},"federalState":{"key":"05","name":"Nordrhein-Westfalen"}},{"name":"Beckumer Str.","postalCode":"33378","locality":"Rheda-Wiedenbrück","municipality":{"key":"05754028","name":"Rheda-Wiedenbrück, Stadt","type":"Stadt"},"district":{"key":"05754","name":"Gütersloh","type":"Kreis"},"federalState":{"key":"05","name":"Nordrhein-Westfalen"}},{"name":"Beethovenstr.","postalCode":"33378","locality":"Rheda-Wiedenbrück","municipality":{"key":"05754028","name":"Rheda-Wiedenbrück, Stadt","type":"Stadt"},"district":{"key":"05754","name":"Gütersloh","type":"Kreis"},"federalState":{"key":"05","name":"Nordrhein-Westfalen"}},{"name":"Berliner Str.","postalCode":"33378","locality":"Rheda-Wiedenbrück","municipality":{"key":"05754028","name":"Rheda-Wiedenbrück, Stadt","type":"Stadt"},"district":{"key":"05754","name":"Gütersloh","type":"Kreis"},"federalState":{"key":"05","name":"Nordrhein-Westfalen"}},{"name":"Berliner Wall","postalCode":"33378","locality":"Rheda-Wiedenbrück","municipality":{"key":"05754028","name":"Rheda-Wiedenbrück, Stadt","type":"Stadt"},"district":{"key":"05754","name":"Gütersloh","type":"Kreis"},"federalState":{"key":"05","name":"Nordrhein-Westfalen"}},{"name":"Bernd-Hartmann-Str.","postalCode":"33378","locality":"Rheda-Wiedenbrück","municipality":{"key":"05754028","name":"Rheda-Wiedenbrück, Stadt","type":"Stadt"},"district":{"key":"05754","name":"Gütersloh","type":"Kreis"},"federalState":{"key":"05","name":"Nordrhein-Westfalen"}},{"name":"Berner Str.","postalCode":"33378","locality":"Rheda-Wiedenbrück","municipality":{"key":"05754028","name":"Rheda-Wiedenbrück, Stadt","type":"Stadt"},"district":{"key":"05754","name":"Gütersloh","type":"Kreis"},"federalState":{"key":"05","name":"Nordrhein-Westfalen"}},{"name":"Biberstr.","postalCode":"33378","locality":"Rheda-Wiedenbrück","municipality":{"key":"05754028","name":"Rheda-Wiedenbrück, Stadt","type":"Stadt"},"district":{"key":"05754","name":"Gütersloh","type":"Kreis"},"federalState":{"key":"05","name":"Nordrhein-Westfalen"}},{"name":"Bielefelder Str.","postalCode":"33378","locality":"Rheda-Wiedenbrück","municipality":{"key":"05754028","name":"Rheda-Wiedenbrück, Stadt","type":"Stadt"},"district":{"key":"05754","name":"Gütersloh","type":"Kreis"},"federalState":{"key":"05","name":"Nordrhein-Westfalen"}},{"name":"Binsenweg","postalCode":"33378","locality":"Rheda-Wiedenbrück","municipality":{"key":"05754028","name":"Rheda-Wiedenbrück, Stadt","type":"Stadt"},"district":{"key":"05754","name":"Gütersloh","type":"Kreis"},"federalState":{"key":"05","name":"Nordrhein-Westfalen"}},{"name":"Birkenweg","postalCode":"33378","locality":"Rheda-Wiedenbrück","municipality":{"key":"05754028","name":"Rheda-Wiedenbrück, Stadt","type":"Stadt"},"district":{"key":"05754","name":"Gütersloh","type":"Kreis"},"federalState":{"key":"05","name":"Nordrhein-Westfalen"}},{"name":"Birnstr.","postalCode":"33378","locality":"Rheda-Wiedenbrück","municipality":{"key":"05754028","name":"Rheda-Wiedenbrück, Stadt","type":"Stadt"},"district":{"key":"05754","name":"Gütersloh","type":"Kreis"},"federalState":{"key":"05","name":"Nordrhein-Westfalen"}},{"name":"Bismarckstr.","postalCode":"33378","locality":"Rheda-Wiedenbrück","municipality":{"key":"05754028","name":"Rheda-Wiedenbrück, Stadt","type":"Stadt"},"district":{"key":"05754","name":"Gütersloh","type":"Kreis"},"federalState":{"key":"05","name":"Nordrhein-Westfalen"}},{"name":"Bleichstr.","postalCode":"33378","locality":"Rheda-Wiedenbrück","municipality":{"key":"05754028","name":"Rheda-Wiedenbrück, Stadt","type":"Stadt"},"district":{"key":"05754","name":"Gütersloh","type":"Kreis"},"federalState":{"key":"05","name":"Nordrhein-Westfalen"}},{"name":"Blumenweg","postalCode":"33378","locality":"Rheda-Wiedenbrück","municipality":{"key":"05754028","name":"Rheda-Wiedenbrück, Stadt","type":"Stadt"},"district":{"key":"05754","name":"Gütersloh","type":"Kreis"},"federalState":{"key":"05","name":"Nordrhein-Westfalen"}},{"name":"Bokeler Str.","postalCode":"33378","locality":"Rheda-Wiedenbrück","municipality":{"key":"05754028","name":"Rheda-Wiedenbrück, Stadt","type":"Stadt"},"district":{"key":"05754","name":"Gütersloh","type":"Kreis"},"federalState":{"key":"05","name":"Nordrhein-Westfalen"}},{"name":"Bonhoefferstr.","postalCode":"33378","locality":"Rheda-Wiedenbrück","municipality":{"key":"05754028","name":"Rheda-Wiedenbrück, Stadt","type":"Stadt"},"district":{"key":"05754","name":"Gütersloh","type":"Kreis"},"federalState":{"key":"05","name":"Nordrhein-Westfalen"}},{"name":"Bonnusstr.","postalCode":"33378","locality":"Rheda-Wiedenbrück","municipality":{"key":"05754028","name":"Rheda-Wiedenbrück, Stadt","type":"Stadt"},"district":{"key":"05754","name":"Gütersloh","type":"Kreis"},"federalState":{"key":"05","name":"Nordrhein-Westfalen"}},{"name":"Bornstr.","postalCode":"33378","locality":"Rheda-Wiedenbrück","municipality":{"key":"05754028","name":"Rheda-Wiedenbrück, Stadt","type":"Stadt"},"district":{"key":"05754","name":"Gütersloh","type":"Kreis"},"federalState":{"key":"05","name":"Nordrhein-Westfalen"}},{"name":"Bosfelder Weg","postalCode":"33378","locality":"Rheda-Wiedenbrück","municipality":{"key":"05754028","name":"Rheda-Wiedenbrück, Stadt","type":"Stadt"},"district":{"key":"05754","name":"Gütersloh","type":"Kreis"},"federalState":{"key":"05","name":"Nordrhein-Westfalen"}},{"name":"Böttcherstr.","postalCode":"33378","locality":"Rheda-Wiedenbrück","municipality":{"key":"05754028","name":"Rheda-Wiedenbrück, Stadt","type":"Stadt"},"district":{"key":"05754","name":"Gütersloh","type":"Kreis"},"federalState":{"key":"05","name":"Nordrhein-Westfalen"}},{"name":"Brachumstr.","postalCode":"33378","locality":"Rheda-Wiedenbrück","municipality":{"key":"05754028","name":"Rheda-Wiedenbrück, Stadt","type":"Stadt"},"district":{"key":"05754","name":"Gütersloh","type":"Kreis"},"federalState":{"key":"05","name":"Nordrhein-Westfalen"}},{"name":"Brahmsweg","postalCode":"33378","locality":"Rheda-Wiedenbrück","municipality":{"key":"05754028","name":"Rheda-Wiedenbrück, Stadt","type":"Stadt"},"district":{"key":"05754","name":"Gütersloh","type":"Kreis"},"federalState":{"key":"05","name":"Nordrhein-Westfalen"}},{"name":"Braunholzstr.","postalCode":"33378","locality":"Rheda-Wiedenbrück","municipality":{"key":"05754028","name":"Rheda-Wiedenbrück, Stadt","type":"Stadt"},"district":{"key":"05754","name":"Gütersloh","type":"Kreis"},"federalState":{"key":"05","name":"Nordrhein-Westfalen"}},{"name":"Breite Str.","postalCode":"33378","locality":"Rheda-Wiedenbrück","municipality":{"key":"05754028","name":"Rheda-Wiedenbrück, Stadt","type":"Stadt"},"district":{"key":"05754","name":"Gütersloh","type":"Kreis"},"federalState":{"key":"05","name":"Nordrhein-Westfalen"}},{"name":"Brennereigasse","postalCode":"33378","locality":"Rheda-Wiedenbrück","municipality":{"key":"05754028","name":"Rheda-Wiedenbrück, Stadt","type":"Stadt"},"district":{"key":"05754","name":"Gütersloh","type":"Kreis"},"federalState":{"key":"05","name":"Nordrhein-Westfalen"}},{"name":"Brennwiesenweg","postalCode":"33378","locality":"Rheda-Wiedenbrück","municipality":{"key":"05754028","name":"Rheda-Wiedenbrück, Stadt","type":"Stadt"},"district":{"key":"05754","name":"Gütersloh","type":"Kreis"},"federalState":{"key":"05","name":"Nordrhein-Westfalen"}},{"name":"Brentanostr.","postalCode":"33378","locality":"Rheda-Wiedenbrück","municipality":{"key":"05754028","name":"Rheda-Wiedenbrück, Stadt","type":"Stadt"},"district":{"key":"05754","name":"Gütersloh","type":"Kreis"},"federalState":{"key":"05","name":"Nordrhein-Westfalen"}},{"name":"Breslauer Str.","postalCode":"33378","locality":"Rheda-Wiedenbrück","municipality":{"key":"05754028","name":"Rheda-Wiedenbrück, Stadt","type":"Stadt"},"district":{"key":"05754","name":"Gütersloh","type":"Kreis"},"federalState":{"key":"05","name":"Nordrhein-Westfalen"}},{"name":"Brieger Str.","postalCode":"33378","locality":"Rheda-Wiedenbrück","municipality":{"key":"05754028","name":"Rheda-Wiedenbrück, Stadt","type":"Stadt"},"district":{"key":"05754","name":"Gütersloh","type":"Kreis"},"federalState":{"key":"05","name":"Nordrhein-Westfalen"}},{"name":"Brillweg","postalCode":"33378","locality":"Rheda-Wiedenbrück","municipality":{"key":"05754028","name":"Rheda-Wiedenbrück, Stadt","type":"Stadt"},"district":{"key":"05754","name":"Gütersloh","type":"Kreis"},"federalState":{"key":"05","name":"Nordrhein-Westfalen"}},{"name":"Brockstr.","postalCode":"33378","locality":"Rheda-Wiedenbrück","municipality":{"key":"05754028","name":"Rheda-Wiedenbrück, Stadt","type":"Stadt"},"district":{"key":"05754","name":"Gütersloh","type":"Kreis"},"federalState":{"key":"05","name":"Nordrhein-Westfalen"}},{"name":"Brucknerweg","postalCode":"33378","locality":"Rheda-Wiedenbrück","municipality":{"key":"05754028","name":"Rheda-Wiedenbrück, Stadt","type":"Stadt"},"district":{"key":"05754","name":"Gütersloh","type":"Kreis"},"federalState":{"key":"05","name":"Nordrhein-Westfalen"}},{"name":"Brüder-Licht-Weg","postalCode":"33378","locality":"Rheda-Wiedenbrück","municipality":{"key":"05754028","name":"Rheda-Wiedenbrück, Stadt","type":"Stadt"},"district":{"key":"05754","name":"Gütersloh","type":"Kreis"},"federalState":{"key":"05","name":"Nordrhein-Westfalen"}},{"name":"Bruktererstr.","postalCode":"33378","locality":"Rheda-Wiedenbrück","municipality":{"key":"05754028","name":"Rheda-Wiedenbrück, Stadt","type":"Stadt"},"district":{"key":"05754","name":"Gütersloh","type":"Kreis"},"federalState":{"key":"05","name":"Nordrhein-Westfalen"}},{"name":"Buchenweg","postalCode":"33378","locality":"Rheda-Wiedenbrück","municipality":{"key":"05754028","name":"Rheda-Wiedenbrück, Stadt","type":"Stadt"},"district":{"key":"05754","name":"Gütersloh","type":"Kreis"},"federalState":{"key":"05","name":"Nordrhein-Westfalen"}},{"name":"Buddestr.","postalCode":"33378","locality":"Rheda-Wiedenbrück","municipality":{"key":"05754028","name":"Rheda-Wiedenbrück, Stadt","type":"Stadt"},"district":{"key":"05754","name":"Gütersloh","type":"Kreis"},"federalState":{"key":"05","name":"Nordrhein-Westfalen"}},{"name":"Bühlweg","postalCode":"79695","locality":"Wieden","municipality":{"key":"08336096","name":"Wieden","type":"Kreisangehörige_Gemeinde"},"district":{"key":"08336","name":"Lörrach","type":"Landkreis"},"federalState":{"key":"08","name":"Baden-Württemberg"}},{"name":"Burgweg","postalCode":"33378","locality":"Rheda-Wiedenbrück","municipality":{"key":"05754028","name":"Rheda-Wiedenbrück, Stadt","type":"Stadt"},"district":{"key":"05754","name":"Gütersloh","type":"Kreis"},"federalState":{"key":"05","name":"Nordrhein-Westfalen"}},{"name":"Büscherstr.","postalCode":"33378","locality":"Rheda-Wiedenbrück","municipality":{"key":"05754028","name":"Rheda-Wiedenbrück, Stadt","type":"Stadt"},"district":{"key":"05754","name":"Gütersloh","type":"Kreis"},"federalState":{"key":"05","name":"Nordrhein-Westfalen"}},{"name":"Buschweg","postalCode":"33378","locality":"Rheda-Wiedenbrück","municipality":{"key":"05754028","name":"Rheda-Wiedenbrück, Stadt","type":"Stadt"},"district":{"key":"05754","name":"Gütersloh","type":"Kreis"},"federalState":{"key":"05","name":"Nordrhein-Westfalen"}},{"name":"Cäcilienstr.","postalCode":"33378","locality":"Rheda-Wiedenbrück","municipality":{"key":"05754028","name":"Rheda-Wiedenbrück, Stadt","type":"Stadt"},"district":{"key":"05754","name":"Gütersloh","type":"Kreis"},"federalState":{"key":"05","name":"Nordrhein-Westfalen"}},{"name":"Capitelholz","postalCode":"33378","locality":"Rheda-Wiedenbrück","municipality":{"key":"05754028","name":"Rheda-Wiedenbrück, Stadt","type":"Stadt"},"district":{"key":"05754","name":"Gütersloh","type":"Kreis"},"federalState":{"key":"05","name":"Nordrhein-Westfalen"}},{"name":"Carl-Spitzweg-Str.","postalCode":"33378","locality":"Rheda-Wiedenbrück","municipality":{"key":"05754028","name":"Rheda-Wiedenbrück, Stadt","type":"Stadt"},"district":{"key":"05754","name":"Gütersloh","type":"Kreis"},"federalState":{"key":"05","name":"Nordrhein-Westfalen"}},{"name":"Cheruskerweg","postalCode":"33378","locality":"Rheda-Wiedenbrück","municipality":{"key":"05754028","name":"Rheda-Wiedenbrück, Stadt","type":"Stadt"},"district":{"key":"05754","name":"Gütersloh","type":"Kreis"},"federalState":{"key":"05","name":"Nordrhein-Westfalen"}},{"name":"Christoph-Siebe-Str.","postalCode":"33378","locality":"Rheda-Wiedenbrück","municipality":{"key":"05754028","name":"Rheda-Wiedenbrück, Stadt","type":"Stadt"},"district":{"key":"05754","name":"Gütersloh","type":"Kreis"},"federalState":{"key":"05","name":"Nordrhein-Westfalen"}},{"name":"Daaken Feld","postalCode":"33378","locality":"Rheda-Wiedenbrück","municipality":{"key":"05754028","name":"Rheda-Wiedenbrück, Stadt","type":"Stadt"},"district":{"key":"05754","name":"Gütersloh","type":"Kreis"},"federalState":{"key":"05","name":"Nordrhein-Westfalen"}},{"name":"Dachsstr.","postalCode":"33378","locality":"Rheda-Wiedenbrück","municipality":{"key":"05754028","name":"Rheda-Wiedenbrück, Stadt","type":"Stadt"},"district":{"key":"05754","name":"Gütersloh","type":"Kreis"},"federalState":{"key":"05","name":"Nordrhein-Westfalen"}},{"name":"Dahlienweg","postalCode":"33378","locality":"Rheda-Wiedenbrück","municipality":{"key":"05754028","name":"Rheda-Wiedenbrück, Stadt","type":"Stadt"},"district":{"key":"05754","name":"Gütersloh","type":"Kreis"},"federalState":{"key":"05","name":"Nordrhein-Westfalen"}},{"name":"Dänenweg","postalCode":"33378","locality":"Rheda-Wiedenbrück","municipality":{"key":"05754028","name":"Rheda-Wiedenbrück, Stadt","type":"Stadt"},"district":{"key":"05754","name":"Gütersloh","type":"Kreis"},"federalState":{"key":"05","name":"Nordrhein-Westfalen"}},{"name":"Danziger Str.","postalCode":"33378","locality":"Rheda-Wiedenbrück","municipality":{"key":"05754028","name":"Rheda-Wiedenbrück, Stadt","type":"Stadt"},"district":{"key":"05754","name":"Gütersloh","type":"Kreis"},"federalState":{"key":"05","name":"Nordrhein-Westfalen"}},{"name":"Dechant-Hense-Str.","postalCode":"33378","locality":"Rheda-Wiedenbrück","municipality":{"key":"05754028","name":"Rheda-Wiedenbrück, Stadt","type":"Stadt"},"district":{"key":"05754","name":"Gütersloh","type":"Kreis"},"federalState":{"key":"05","name":"Nordrhein-Westfalen"}},{"name":"Deilmannstr.","postalCode":"33378","locality":"Rheda-Wiedenbrück","municipality":{"key":"05754028","name":"Rheda-Wiedenbrück, Stadt","type":"Stadt"},"district":{"key":"05754","name":"Gütersloh","type":"Kreis"},"federalState":{"key":"05","name":"Nordrhein-Westfalen"}},{"name":"Delitzschweg","postalCode":"33378","locality":"Rheda-Wiedenbrück","municipality":{"key":"05754028","name":"Rheda-Wiedenbrück, Stadt","type":"Stadt"},"district":{"key":"05754","name":"Gütersloh","type":"Kreis"},"federalState":{"key":"05","name":"Nordrhein-Westfalen"}},{"name":"Dianalust","postalCode":"33378","locality":"Rheda-Wiedenbrück","municipality":{"key":"05754028","name":"Rheda-Wiedenbrück, Stadt","type":"Stadt"},"district":{"key":"05754","name":"Gütersloh","type":"Kreis"},"federalState":{"key":"05","name":"Nordrhein-Westfalen"}},{"name":"Diemelstr.","postalCode":"33378","locality":"Rheda-Wiedenbrück","municipality":{"key":"05754028","name":"Rheda-Wiedenbrück, Stadt","type":"Stadt"},"district":{"key":"05754","name":"Gütersloh","type":"Kreis"},"federalState":{"key":"05","name":"Nordrhein-Westfalen"}},{"name":"Disselkampstr.","postalCode":"33378","locality":"Rheda-Wiedenbrück","municipality":{"key":"05754028","name":"Rheda-Wiedenbrück, Stadt","type":"Stadt"},"district":{"key":"05754","name":"Gütersloh","type":"Kreis"},"federalState":{"key":"05","name":"Nordrhein-Westfalen"}},{"name":"Dr.-Brüning-Str.","postalCode":"33378","locality":"Rheda-Wiedenbrück","municipality":{"key":"05754028","name":"Rheda-Wiedenbrück, Stadt","type":"Stadt"},"district":{"key":"05754","name":"Gütersloh","type":"Kreis"},"federalState":{"key":"05","name":"Nordrhein-Westfalen"}},{"name":"Dr.-Flaskamp-Str.","postalCode":"33378","locality":"Rheda-Wiedenbrück","municipality":{"key":"05754028","name":"Rheda-Wiedenbrück, Stadt","type":"Stadt"},"district":{"key":"05754","name":"Gütersloh","type":"Kreis"},"federalState":{"key":"05","name":"Nordrhein-Westfalen"}},{"name":"Dr.-Hoffmann-Str.","postalCode":"33378","locality":"Rheda-Wiedenbrück","municipality":{"key":"05754028","name":"Rheda-Wiedenbrück, Stadt","type":"Stadt"},"district":{"key":"05754","name":"Gütersloh","type":"Kreis"},"federalState":{"key":"05","name":"Nordrhein-Westfalen"}},{"name":"Dr.-Jasper-Str.","postalCode":"33378","locality":"Rheda-Wiedenbrück","municipality":{"key":"05754028","name":"Rheda-Wiedenbrück, Stadt","type":"Stadt"},"district":{"key":"05754","name":"Gütersloh","type":"Kreis"},"federalState":{"key":"05","name":"Nordrhein-Westfalen"}},{"name":"Dr.-Lüning-Str.","postalCode":"33378","locality":"Rheda-Wiedenbrück","municipality":{"key":"05754028","name":"Rheda-Wiedenbrück, Stadt","type":"Stadt"},"district":{"key":"05754","name":"Gütersloh","type":"Kreis"},"federalState":{"key":"05","name":"Nordrhein-Westfalen"}},{"name":"Drogostr.","postalCode":"33378","locality":"Rheda-Wiedenbrück","municipality":{"key":"05754028","name":"Rheda-Wiedenbrück, Stadt","type":"Stadt"},"district":{"key":"05754","name":"Gütersloh","type":"Kreis"},"federalState":{"key":"05","name":"Nordrhein-Westfalen"}},{"name":"Drosselweg","postalCode":"33378","locality":"Rheda-Wiedenbrück","municipality":{"key":"05754028","name":"Rheda-Wiedenbrück, Stadt","type":"Stadt"},"district":{"key":"05754","name":"Gütersloh","type":"Kreis"},"federalState":{"key":"05","name":"Nordrhein-Westfalen"}},{"name":"Droste-Hülshoff-Str.","postalCode":"33378","locality":"Rheda-Wiedenbrück","municipality":{"key":"05754028","name":"Rheda-Wiedenbrück, Stadt","type":"Stadt"},"district":{"key":"05754","name":"Gütersloh","type":"Kreis"},"federalState":{"key":"05","name":"Nordrhein-Westfalen"}},{"name":"Drostenweg","postalCode":"33378","locality":"Rheda-Wiedenbrück","municipality":{"key":"05754028","name":"Rheda-Wiedenbrück, Stadt","type":"Stadt"},"district":{"key":"05754","name":"Gütersloh","type":"Kreis"},"federalState":{"key":"05","name":"Nordrhein-Westfalen"}},{"name":"Dr.-Röttscher-Str.","postalCode":"33378","locality":"Rheda-Wiedenbrück","municipality":{"key":"05754028","name":"Rheda-Wiedenbrück, Stadt","type":"Stadt"},"district":{"key":"05754","name":"Gütersloh","type":"Kreis"},"federalState":{"key":"05","name":"Nordrhein-Westfalen"}},{"name":"Dr.-Salzmann-Str.","postalCode":"33378","locality":"Rheda-Wiedenbrück","municipality":{"key":"05754028","name":"Rheda-Wiedenbrück, Stadt","type":"Stadt"},"district":{"key":"05754","name":"Gütersloh","type":"Kreis"},"federalState":{"key":"05","name":"Nordrhein-Westfalen"}},{"name":"Druffeler Str.","postalCode":"33378","locality":"Rheda-Wiedenbrück","municipality":{"key":"05754028","name":"Rheda-Wiedenbrück, Stadt","type":"Stadt"},"district":{"key":"05754","name":"Gütersloh","type":"Kreis"},"federalState":{"key":"05","name":"Nordrhein-Westfalen"}},{"name":"Druffelstr.","postalCode":"33378","locality":"Rheda-Wiedenbrück","municipality":{"key":"05754028","name":"Rheda-Wiedenbrück, Stadt","type":"Stadt"},"district":{"key":"05754","name":"Gütersloh","type":"Kreis"},"federalState":{"key":"05","name":"Nordrhein-Westfalen"}},{"name":"Dunenweg","postalCode":"33378","locality":"Rheda-Wiedenbrück","municipality":{"key":"05754028","name":"Rheda-Wiedenbrück, Stadt","type":"Stadt"},"district":{"key":"05754","name":"Gütersloh","type":"Kreis"},"federalState":{"key":"05","name":"Nordrhein-Westfalen"}},{"name":"Düsternstr.","postalCode":"33378","locality":"Rheda-Wiedenbrück","municipality":{"key":"05754028","name":"Rheda-Wiedenbrück, Stadt","type":"Stadt"},"district":{"key":"05754","name":"Gütersloh","type":"Kreis"},"federalState":{"key":"05","name":"Nordrhein-Westfalen"}},{"name":"Eckstr.","postalCode":"66894","locality":"Langwieden","municipality":{"key":"07335202","name":"Langwieden","type":"Kreisangehörige_Gemeinde"},"district":{"key":"07335","name":"Kaiserslautern","type":"Landkreis"},"federalState":{"key":"07","name":"Rheinland-Pfalz"}},{"name":"Eduard-Mörike-Str.","postalCode":"33378","locality":"Rheda-Wiedenbrück","municipality":{"key":"05754028","name":"Rheda-Wiedenbrück, Stadt","type":"Stadt"},"district":{"key":"05754","name":"Gütersloh","type":"Kreis"},"federalState":{"key":"05","name":"Nordrhein-Westfalen"}},{"name":"Egerstr.","postalCode":"33378","locality":"Rheda-Wiedenbrück","municipality":{"key":"05754028","name":"Rheda-Wiedenbrück, Stadt","type":"Stadt"},"district":{"key":"05754","name":"Gütersloh","type":"Kreis"},"federalState":{"key":"05","name":"Nordrhein-Westfalen"}},{"name":"Eichendorffstr.","postalCode":"33378","locality":"Rheda-Wiedenbrück","municipality":{"key":"05754028","name":"Rheda-Wiedenbrück, Stadt","type":"Stadt"},"district":{"key":"05754","name":"Gütersloh","type":"Kreis"},"federalState":{"key":"05","name":"Nordrhein-Westfalen"}},{"name":"Eichenweg","postalCode":"33378","locality":"Rheda-Wiedenbrück","municipality":{"key":"05754028","name":"Rheda-Wiedenbrück, Stadt","type":"Stadt"},"district":{"key":"05754","name":"Gütersloh","type":"Kreis"},"federalState":{"key":"05","name":"Nordrhein-Westfalen"}},{"name":"Eickelstr.","postalCode":"33378","locality":"Rheda-Wiedenbrück","municipality":{"key":"05754028","name":"Rheda-Wiedenbrück, Stadt","type":"Stadt"},"district":{"key":"05754","name":"Gütersloh","type":"Kreis"},"federalState":{"key":"05","name":"Nordrhein-Westfalen"}},{"name":"Eikenpatt","postalCode":"33378","locality":"Rheda-Wiedenbrück","municipality":{"key":"05754028","name":"Rheda-Wiedenbrück, Stadt","type":"Stadt"},"district":{"key":"05754","name":"Gütersloh","type":"Kreis"},"federalState":{"key":"05","name":"Nordrhein-Westfalen"}},{"name":"Eintrachtstr.","postalCode":"33378","locality":"Rheda-Wiedenbrück","municipality":{"key":"05754028","name":"Rheda-Wiedenbrück, Stadt","type":"Stadt"},"district":{"key":"05754","name":"Gütersloh","type":"Kreis"},"federalState":{"key":"05","name":"Nordrhein-Westfalen"}},{"name":"Elbestr.","postalCode":"33378","locality":"Rheda-Wiedenbrück","municipality":{"key":"05754028","name":"Rheda-Wiedenbrück, Stadt","type":"Stadt"},"district":{"key":"05754","name":"Gütersloh","type":"Kreis"},"federalState":{"key":"05","name":"Nordrhein-Westfalen"}},{"name":"Elsa-Brandström-Str.","postalCode":"33378","locality":"Rheda-Wiedenbrück","municipality":{"key":"05754028","name":"Rheda-Wiedenbrück, Stadt","type":"Stadt"},"district":{"key":"05754","name":"Gütersloh","type":"Kreis"},"federalState":{"key":"05","name":"Nordrhein-Westfalen"}},{"name":"Emser Landstr.","postalCode":"33378","locality":"Rheda-Wiedenbrück","municipality":{"key":"05754028","name":"Rheda-Wiedenbrück, Stadt","type":"Stadt"},"district":{"key":"05754","name":"Gütersloh","type":"Kreis"},"federalState":{"key":"05","name":"Nordrhein-Westfalen"}},{"name":"Emsweg","postalCode":"33378","locality":"Rheda-Wiedenbrück","municipality":{"key":"05754028","name":"Rheda-Wiedenbrück, Stadt","type":"Stadt"},"district":{"key":"05754","name":"Gütersloh","type":"Kreis"},"federalState":{"key":"05","name":"Nordrhein-Westfalen"}},{"name":"Engelbertstr.","postalCode":"33378","locality":"Rheda-Wiedenbrück","municipality":{"key":"05754028","name":"Rheda-Wiedenbrück, Stadt","type":"Stadt"},"district":{"key":"05754","name":"Gütersloh","type":"Kreis"},"federalState":{"key":"05","name":"Nordrhein-Westfalen"}},{"name":"Engernstr.","postalCode":"33378","locality":"Rheda-Wiedenbrück","municipality":{"key":"05754028","name":"Rheda-Wiedenbrück, Stadt","type":"Stadt"},"district":{"key":"05754","name":"Gütersloh","type":"Kreis"},"federalState":{"key":"05","name":"Nordrhein-Westfalen"}},{"name":"Erbsengarten","postalCode":"79695","locality":"Wieden","municipality":{"key":"08336096","name":"Wieden","type":"Kreisangehörige_Gemeinde"},"district":{"key":"08336","name":"Lörrach","type":"Landkreis"},"federalState":{"key":"08","name":"Baden-Württemberg"}},{"name":"Erich-Kästner-Str.","postalCode":"33378","locality":"Rheda-Wiedenbrück","municipality":{"key":"05754028","name":"Rheda-Wiedenbrück, Stadt","type":"Stadt"},"district":{"key":"05754","name":"Gütersloh","type":"Kreis"},"federalState":{"key":"05","name":"Nordrhein-Westfalen"}},{"name":"Erlenweg","postalCode":"33378","locality":"Rheda-Wiedenbrück","municipality":{"key":"05754028","name":"Rheda-Wiedenbrück, Stadt","type":"Stadt"},"district":{"key":"05754","name":"Gütersloh","type":"Kreis"},"federalState":{"key":"05","name":"Nordrhein-Westfalen"}},{"name":"Ernst-Moritz-Arndt-Str.","postalCode":"33378","locality":"Rheda-Wiedenbrück","municipality":{"key":"05754028","name":"Rheda-Wiedenbrück, Stadt","type":"Stadt"},"district":{"key":"05754","name":"Gütersloh","type":"Kreis"},"federalState":{"key":"05","name":"Nordrhein-Westfalen"}},{"name":"Eschstr.","postalCode":"33378","locality":"Rheda-Wiedenbrück","municipality":{"key":"05754028","name":"Rheda-Wiedenbrück, Stadt","type":"Stadt"},"district":{"key":"05754","name":"Gütersloh","type":"Kreis"},"federalState":{"key":"05","name":"Nordrhein-Westfalen"}},{"name":"Espenbusch","postalCode":"33378","locality":"Rheda-Wiedenbrück","municipality":{"key":"05754028","name":"Rheda-Wiedenbrück, Stadt","type":"Stadt"},"district":{"key":"05754","name":"Gütersloh","type":"Kreis"},"federalState":{"key":"05","name":"Nordrhein-Westfalen"}},{"name":"Eusterdiekstr.","postalCode":"33378","locality":"Rheda-Wiedenbrück","municipality":{"key":"05754028","name":"Rheda-Wiedenbrück, Stadt","type":"Stadt"},"district":{"key":"05754","name":"Gütersloh","type":"Kreis"},"federalState":{"key":"05","name":"Nordrhein-Westfalen"}},{"name":"Fabianstr.","postalCode":"33378","locality":"Rheda-Wiedenbrück","municipality":{"key":"05754028","name":"Rheda-Wiedenbrück, Stadt","type":"Stadt"},"district":{"key":"05754","name":"Gütersloh","type":"Kreis"},"federalState":{"key":"05","name":"Nordrhein-Westfalen"}},{"name":"Farnweg","postalCode":"33378","locality":"Rheda-Wiedenbrück","municipality":{"key":"05754028","name":"Rheda-Wiedenbrück, Stadt","type":"Stadt"},"district":{"key":"05754","name":"Gütersloh","type":"Kreis"},"federalState":{"key":"05","name":"Nordrhein-Westfalen"}},{"name":"Fasanenweg","postalCode":"33378","locality":"Rheda-Wiedenbrück","municipality":{"key":"05754028","name":"Rheda-Wiedenbrück, Stadt","type":"Stadt"},"district":{"key":"05754","name":"Gütersloh","type":"Kreis"},"federalState":{"key":"05","name":"Nordrhein-Westfalen"}},{"name":"Faule Str.","postalCode":"33378","locality":"Rheda-Wiedenbrück","municipality":{"key":"05754028","name":"Rheda-Wiedenbrück, Stadt","type":"Stadt"},"district":{"key":"05754","name":"Gütersloh","type":"Kreis"},"federalState":{"key":"05","name":"Nordrhein-Westfalen"}},{"name":"Feldhüserweg","postalCode":"33378","locality":"Rheda-Wiedenbrück","municipality":{"key":"05754028","name":"Rheda-Wiedenbrück, Stadt","type":"Stadt"},"district":{"key":"05754","name":"Gütersloh","type":"Kreis"},"federalState":{"key":"05","name":"Nordrhein-Westfalen"}},{"name":"Feldstr.","postalCode":"33378","locality":"Rheda-Wiedenbrück","municipality":{"key":"05754028","name":"Rheda-Wiedenbrück, Stadt","type":"Stadt"},"district":{"key":"05754","name":"Gütersloh","type":"Kreis"},"federalState":{"key":"05","name":"Nordrhein-Westfalen"}},{"name":"Finkenweg","postalCode":"33378","locality":"Rheda-Wiedenbrück","municipality":{"key":"05754028","name":"Rheda-Wiedenbrück, Stadt","type":"Stadt"},"district":{"key":"05754","name":"Gütersloh","type":"Kreis"},"federalState":{"key":"05","name":"Nordrhein-Westfalen"}},{"name":"Fleischerstr.","postalCode":"33378","locality":"Rheda-Wiedenbrück","municipality":{"key":"05754028","name":"Rheda-Wiedenbrück, Stadt","type":"Stadt"},"district":{"key":"05754","name":"Gütersloh","type":"Kreis"},"federalState":{"key":"05","name":"Nordrhein-Westfalen"}},{"name":"Fliederweg","postalCode":"33378","locality":"Rheda-Wiedenbrück","municipality":{"key":"05754028","name":"Rheda-Wiedenbrück, Stadt","type":"Stadt"},"district":{"key":"05754","name":"Gütersloh","type":"Kreis"},"federalState":{"key":"05","name":"Nordrhein-Westfalen"}},{"name":"Flora-Westfalica-Park","postalCode":"33378","locality":"Rheda-Wiedenbrück","municipality":{"key":"05754028","name":"Rheda-Wiedenbrück, Stadt","type":"Stadt"},"district":{"key":"05754","name":"Gütersloh","type":"Kreis"},"federalState":{"key":"05","name":"Nordrhein-Westfalen"}},{"name":"Fontainestr.","postalCode":"33378","locality":"Rheda-Wiedenbrück","municipality":{"key":"05754028","name":"Rheda-Wiedenbrück, Stadt","type":"Stadt"},"district":{"key":"05754","name":"Gütersloh","type":"Kreis"},"federalState":{"key":"05","name":"Nordrhein-Westfalen"}},{"name":"Frankensteiner Str.","postalCode":"33378","locality":"Rheda-Wiedenbrück","municipality":{"key":"05754028","name":"Rheda-Wiedenbrück, Stadt","type":"Stadt"},"district":{"key":"05754","name":"Gütersloh","type":"Kreis"},"federalState":{"key":"05","name":"Nordrhein-Westfalen"}},{"name":"Frankenweg","postalCode":"33378","locality":"Rheda-Wiedenbrück","municipality":{"key":"05754028","name":"Rheda-Wiedenbrück, Stadt","type":"Stadt"},"district":{"key":"05754","name":"Gütersloh","type":"Kreis"},"federalState":{"key":"05","name":"Nordrhein-Westfalen"}},{"name":"Franz-Geshe-Str.","postalCode":"33378","locality":"Rheda-Wiedenbrück","municipality":{"key":"05754028","name":"Rheda-Wiedenbrück, Stadt","type":"Stadt"},"district":{"key":"05754","name":"Gütersloh","type":"Kreis"},"federalState":{"key":"05","name":"Nordrhein-Westfalen"}},{"name":"Franz-Knöbel-Str.","postalCode":"33378","locality":"Rheda-Wiedenbrück","municipality":{"key":"05754028","name":"Rheda-Wiedenbrück, Stadt","type":"Stadt"},"district":{"key":"05754","name":"Gütersloh","type":"Kreis"},"federalState":{"key":"05","name":"Nordrhein-Westfalen"}},{"name":"Franz-Moorfeld-Str.","postalCode":"33378","locality":"Rheda-Wiedenbrück","municipality":{"key":"05754028","name":"Rheda-Wiedenbrück, Stadt","type":"Stadt"},"district":{"key":"05754","name":"Gütersloh","type":"Kreis"},"federalState":{"key":"05","name":"Nordrhein-Westfalen"}},{"name":"Freigerichtstr.","postalCode":"33378","locality":"Rheda-Wiedenbrück","municipality":{"key":"05754028","name":"Rheda-Wiedenbrück, Stadt","type":"Stadt"},"district":{"key":"05754","name":"Gütersloh","type":"Kreis"},"federalState":{"key":"05","name":"Nordrhein-Westfalen"}},{"name":"Freiherr-vom-Stein-Allee","postalCode":"33378","locality":"Rheda-Wiedenbrück","municipality":{"key":"05754028","name":"Rheda-Wiedenbrück, Stadt","type":"Stadt"},"district":{"key":"05754","name":"Gütersloh","type":"Kreis"},"federalState":{"key":"05","name":"Nordrhein-Westfalen"}},{"name":"Frentruper Str.","postalCode":"33378","locality":"Rheda-Wiedenbrück","municipality":{"key":"05754028","name":"Rheda-Wiedenbrück, Stadt","type":"Stadt"},"district":{"key":"05754","name":"Gütersloh","type":"Kreis"},"federalState":{"key":"05","name":"Nordrhein-Westfalen"}},{"name":"Friedhofstr.","postalCode":"66894","locality":"Langwieden","municipality":{"key":"07335202","name":"Langwieden","type":"Kreisangehörige_Gemeinde"},"district":{"key":"07335","name":"Kaiserslautern","type":"Landkreis"},"federalState":{"key":"07","name":"Rheinland-Pfalz"}},{"name":"Friedhofsweg","postalCode":"33378","locality":"Rheda-Wiedenbrück","municipality":{"key":"05754028","name":"Rheda-Wiedenbrück, Stadt","type":"Stadt"},"district":{"key":"05754","name":"Gütersloh","type":"Kreis"},"federalState":{"key":"05","name":"Nordrhein-Westfalen"}},{"name":"Fritz-Burmann-Str.","postalCode":"33378","locality":"Rheda-Wiedenbrück","municipality":{"key":"05754028","name":"Rheda-Wiedenbrück, Stadt","type":"Stadt"},"district":{"key":"05754","name":"Gütersloh","type":"Kreis"},"federalState":{"key":"05","name":"Nordrhein-Westfalen"}},{"name":"Fröbelstr.","postalCode":"33378","locality":"Rheda-Wiedenbrück","municipality":{"key":"05754028","name":"Rheda-Wiedenbrück, Stadt","type":"Stadt"},"district":{"key":"05754","name":"Gütersloh","type":"Kreis"},"federalState":{"key":"05","name":"Nordrhein-Westfalen"}},{"name":"Fuggerstr.","postalCode":"33378","locality":"Rheda-Wiedenbrück","municipality":{"key":"05754028","name":"Rheda-Wiedenbrück, Stadt","type":"Stadt"},"district":{"key":"05754","name":"Gütersloh","type":"Kreis"},"federalState":{"key":"05","name":"Nordrhein-Westfalen"}},{"name":"Fuldastr.","postalCode":"33378","locality":"Rheda-Wiedenbrück","municipality":{"key":"05754028","name":"Rheda-Wiedenbrück, Stadt","type":"Stadt"},"district":{"key":"05754","name":"Gütersloh","type":"Kreis"},"federalState":{"key":"05","name":"Nordrhein-Westfalen"}},{"name":"Fürst-Bentheim-Str.","postalCode":"33378","locality":"Rheda-Wiedenbrück","municipality":{"key":"05754028","name":"Rheda-Wiedenbrück, Stadt","type":"Stadt"},"district":{"key":"05754","name":"Gütersloh","type":"Kreis"},"federalState":{"key":"05","name":"Nordrhein-Westfalen"}},{"name":"Fürstenbergstr.","postalCode":"33378","locality":"Rheda-Wiedenbrück","municipality":{"key":"05754028","name":"Rheda-Wiedenbrück, Stadt","type":"Stadt"},"district":{"key":"05754","name":"Gütersloh","type":"Kreis"},"federalState":{"key":"05","name":"Nordrhein-Westfalen"}},{"name":"Gänsemarkt","postalCode":"33378","locality":"Rheda-Wiedenbrück","municipality":{"key":"05754028","name":"Rheda-Wiedenbrück, Stadt","type":"Stadt"},"district":{"key":"05754","name":"Gütersloh","type":"Kreis"},"federalState":{"key":"05","name":"Nordrhein-Westfalen"}},{"name":"Gartenstr.","postalCode":"33378","locality":"Rheda-Wiedenbrück","municipality":{"key":"05754028","name":"Rheda-Wiedenbrück, Stadt","type":"Stadt"},"district":{"key":"05754","name":"Gütersloh","type":"Kreis"},"federalState":{"key":"05","name":"Nordrhein-Westfalen"}},{"name":"Gaukenbrinkweg","postalCode":"33378","locality":"Rheda-Wiedenbrück","municipality":{"key":"05754028","name":"Rheda-Wiedenbrück, Stadt","type":"Stadt"},"district":{"key":"05754","name":"Gütersloh","type":"Kreis"},"federalState":{"key":"05","name":"Nordrhein-Westfalen"}},{"name":"Gebrüder-Thalheimer-Str.","postalCode":"33378","locality":"Rheda-Wiedenbrück","municipality":{"key":"05754028","name":"Rheda-Wiedenbrück, Stadt","type":"Stadt"},"district":{"key":"05754","name":"Gütersloh","type":"Kreis"},"federalState":{"key":"05","name":"Nordrhein-Westfalen"}},{"name":"Geldenweg","postalCode":"79695","locality":"Wieden","municipality":{"key":"08336096","name":"Wieden","type":"Kreisangehörige_Gemeinde"},"district":{"key":"08336","name":"Lörrach","type":"Landkreis"},"federalState":{"key":"08","name":"Baden-Württemberg"}},{"name":"Georgstr.","postalCode":"33378","locality":"Rheda-Wiedenbrück","municipality":{"key":"05754028","name":"Rheda-Wiedenbrück, Stadt","type":"Stadt"},"district":{"key":"05754","name":"Gütersloh","type":"Kreis"},"federalState":{"key":"05","name":"Nordrhein-Westfalen"}},{"name":"Geranienweg","postalCode":"33378","locality":"Rheda-Wiedenbrück","municipality":{"key":"05754028","name":"Rheda-Wiedenbrück, Stadt","type":"Stadt"},"district":{"key":"05754","name":"Gütersloh","type":"Kreis"},"federalState":{"key":"05","name":"Nordrhein-Westfalen"}},{"name":"Gerhard-Ortmeyer-Str.","postalCode":"33378","locality":"Rheda-Wiedenbrück","municipality":{"key":"05754028","name":"Rheda-Wiedenbrück, Stadt","type":"Stadt"},"district":{"key":"05754","name":"Gütersloh","type":"Kreis"},"federalState":{"key":"05","name":"Nordrhein-Westfalen"}},{"name":"Gerhardstr.","postalCode":"33378","locality":"Rheda-Wiedenbrück","municipality":{"key":"05754028","name":"Rheda-Wiedenbrück, Stadt","type":"Stadt"},"district":{"key":"05754","name":"Gütersloh","type":"Kreis"},"federalState":{"key":"05","name":"Nordrhein-Westfalen"}},{"name":"Gerhart-Hauptmann-Str.","postalCode":"33378","locality":"Rheda-Wiedenbrück","municipality":{"key":"05754028","name":"Rheda-Wiedenbrück, Stadt","type":"Stadt"},"district":{"key":"05754","name":"Gütersloh","type":"Kreis"},"federalState":{"key":"05","name":"Nordrhein-Westfalen"}},{"name":"Geschwister-Graf-Str.","postalCode":"33378","locality":"Rheda-Wiedenbrück","municipality":{"key":"05754028","name":"Rheda-Wiedenbrück, Stadt","type":"Stadt"},"district":{"key":"05754","name":"Gütersloh","type":"Kreis"},"federalState":{"key":"05","name":"Nordrhein-Westfalen"}},{"name":"Geweckenhorst","postalCode":"33378","locality":"Rheda-Wiedenbrück","municipality":{"key":"05754028","name":"Rheda-Wiedenbrück, Stadt","type":"Stadt"},"district":{"key":"05754","name":"Gütersloh","type":"Kreis"},"federalState":{"key":"05","name":"Nordrhein-Westfalen"}},{"name":"Ginsterweg","postalCode":"33378","locality":"Rheda-Wiedenbrück","municipality":{"key":"05754028","name":"Rheda-Wiedenbrück, Stadt","type":"Stadt"},"district":{"key":"05754","name":"Gütersloh","type":"Kreis"},"federalState":{"key":"05","name":"Nordrhein-Westfalen"}},{"name":"Glatzer Str.","postalCode":"33378","locality":"Rheda-Wiedenbrück","municipality":{"key":"05754028","name":"Rheda-Wiedenbrück, Stadt","type":"Stadt"},"district":{"key":"05754","name":"Gütersloh","type":"Kreis"},"federalState":{"key":"05","name":"Nordrhein-Westfalen"}},{"name":"Goethestr.","postalCode":"33378","locality":"Rheda-Wiedenbrück","municipality":{"key":"05754028","name":"Rheda-Wiedenbrück, Stadt","type":"Stadt"},"district":{"key":"05754","name":"Gütersloh","type":"Kreis"},"federalState":{"key":"05","name":"Nordrhein-Westfalen"}},{"name":"Goldbrink","postalCode":"33378","locality":"Rheda-Wiedenbrück","municipality":{"key":"05754028","name":"Rheda-Wiedenbrück, Stadt","type":"Stadt"},"district":{"key":"05754","name":"Gütersloh","type":"Kreis"},"federalState":{"key":"05","name":"Nordrhein-Westfalen"}},{"name":"Goldkuhlestr.","postalCode":"33378","locality":"Rheda-Wiedenbrück","municipality":{"key":"05754028","name":"Rheda-Wiedenbrück, Stadt","type":"Stadt"},"district":{"key":"05754","name":"Gütersloh","type":"Kreis"},"federalState":{"key":"05","name":"Nordrhein-Westfalen"}},{"name":"Göppnerstr.","postalCode":"33378","locality":"Rheda-Wiedenbrück","municipality":{"key":"05754028","name":"Rheda-Wiedenbrück, Stadt","type":"Stadt"},"district":{"key":"05754","name":"Gütersloh","type":"Kreis"},"federalState":{"key":"05","name":"Nordrhein-Westfalen"}},{"name":"Gotenweg","postalCode":"33378","locality":"Rheda-Wiedenbrück","municipality":{"key":"05754028","name":"Rheda-Wiedenbrück, Stadt","type":"Stadt"},"district":{"key":"05754","name":"Gütersloh","type":"Kreis"},"federalState":{"key":"05","name":"Nordrhein-Westfalen"}},{"name":"Gottfried-Niermann-Str.","postalCode":"33378","locality":"Rheda-Wiedenbrück","municipality":{"key":"05754028","name":"Rheda-Wiedenbrück, Stadt","type":"Stadt"},"district":{"key":"05754","name":"Gütersloh","type":"Kreis"},"federalState":{"key":"05","name":"Nordrhein-Westfalen"}},{"name":"Grabbestr.","postalCode":"33378","locality":"Rheda-Wiedenbrück","municipality":{"key":"05754028","name":"Rheda-Wiedenbrück, Stadt","type":"Stadt"},"district":{"key":"05754","name":"Gütersloh","type":"Kreis"},"federalState":{"key":"05","name":"Nordrhein-Westfalen"}},{"name":"Grädiekstr.","postalCode":"33378","locality":"Rheda-Wiedenbrück","municipality":{"key":"05754028","name":"Rheda-Wiedenbrück, Stadt","type":"Stadt"},"district":{"key":"05754","name":"Gütersloh","type":"Kreis"},"federalState":{"key":"05","name":"Nordrhein-Westfalen"}},{"name":"Grasweg","postalCode":"33378","locality":"Rheda-Wiedenbrück","municipality":{"key":"05754028","name":"Rheda-Wiedenbrück, Stadt","type":"Stadt"},"district":{"key":"05754","name":"Gütersloh","type":"Kreis"},"federalState":{"key":"05","name":"Nordrhein-Westfalen"}},{"name":"Grillenweg","postalCode":"33378","locality":"Rheda-Wiedenbrück","municipality":{"key":"05754028","name":"Rheda-Wiedenbrück, Stadt","type":"Stadt"},"district":{"key":"05754","name":"Gütersloh","type":"Kreis"},"federalState":{"key":"05","name":"Nordrhein-Westfalen"}},{"name":"Große Heide","postalCode":"33378","locality":"Rheda-Wiedenbrück","municipality":{"key":"05754028","name":"Rheda-Wiedenbrück, Stadt","type":"Stadt"},"district":{"key":"05754","name":"Gütersloh","type":"Kreis"},"federalState":{"key":"05","name":"Nordrhein-Westfalen"}},{"name":"Großer Wall","postalCode":"33378","locality":"Rheda-Wiedenbrück","municipality":{"key":"05754028","name":"Rheda-Wiedenbrück, Stadt","type":"Stadt"},"district":{"key":"05754","name":"Gütersloh","type":"Kreis"},"federalState":{"key":"05","name":"Nordrhein-Westfalen"}},{"name":"Grünstr.","postalCode":"33378","locality":"Rheda-Wiedenbrück","municipality":{"key":"05754028","name":"Rheda-Wiedenbrück, Stadt","type":"Stadt"},"district":{"key":"05754","name":"Gütersloh","type":"Kreis"},"federalState":{"key":"05","name":"Nordrhein-Westfalen"}},{"name":"Gütersloher Str.","postalCode":"33378","locality":"Rheda-Wiedenbrück","municipality":{"key":"05754028","name":"Rheda-Wiedenbrück, Stadt","type":"Stadt"},"district":{"key":"05754","name":"Gütersloh","type":"Kreis"},"federalState":{"key":"05","name":"Nordrhein-Westfalen"}},{"name":"Haardstr.","postalCode":"33378","locality":"Rheda-Wiedenbrück","municipality":{"key":"05754028","name":"Rheda-Wiedenbrück, Stadt","type":"Stadt"},"district":{"key":"05754","name":"Gütersloh","type":"Kreis"},"federalState":{"key":"05","name":"Nordrhein-Westfalen"}},{"name":"Hachmeisterstr.","postalCode":"33378","locality":"Rheda-Wiedenbrück","municipality":{"key":"05754028","name":"Rheda-Wiedenbrück, Stadt","type":"Stadt"},"district":{"key":"05754","name":"Gütersloh","type":"Kreis"},"federalState":{"key":"05","name":"Nordrhein-Westfalen"}},{"name":"Hagedornstr.","postalCode":"33378","locality":"Rheda-Wiedenbrück","municipality":{"key":"05754028","name":"Rheda-Wiedenbrück, Stadt","type":"Stadt"},"district":{"key":"05754","name":"Gütersloh","type":"Kreis"},"federalState":{"key":"05","name":"Nordrhein-Westfalen"}},{"name":"Hagemannstr.","postalCode":"33378","locality":"Rheda-Wiedenbrück","municipality":{"key":"05754028","name":"Rheda-Wiedenbrück, Stadt","type":"Stadt"},"district":{"key":"05754","name":"Gütersloh","type":"Kreis"},"federalState":{"key":"05","name":"Nordrhein-Westfalen"}},{"name":"Hammersenstr.","postalCode":"33378","locality":"Rheda-Wiedenbrück","municipality":{"key":"05754028","name":"Rheda-Wiedenbrück, Stadt","type":"Stadt"},"district":{"key":"05754","name":"Gütersloh","type":"Kreis"},"federalState":{"key":"05","name":"Nordrhein-Westfalen"}},{"name":"Händelstr.","postalCode":"33378","locality":"Rheda-Wiedenbrück","municipality":{"key":"05754028","name":"Rheda-Wiedenbrück, Stadt","type":"Stadt"},"district":{"key":"05754","name":"Gütersloh","type":"Kreis"},"federalState":{"key":"05","name":"Nordrhein-Westfalen"}},{"name":"Hansemannstr.","postalCode":"33378","locality":"Rheda-Wiedenbrück","municipality":{"key":"05754028","name":"Rheda-Wiedenbrück, Stadt","type":"Stadt"},"district":{"key":"05754","name":"Gütersloh","type":"Kreis"},"federalState":{"key":"05","name":"Nordrhein-Westfalen"}},{"name":"Hans-Schmitz-Str.","postalCode":"33378","locality":"Rheda-Wiedenbrück","municipality":{"key":"05754028","name":"Rheda-Wiedenbrück, Stadt","type":"Stadt"},"district":{"key":"05754","name":"Gütersloh","type":"Kreis"},"federalState":{"key":"05","name":"Nordrhein-Westfalen"}},{"name":"Hans-Thoma-Str.","postalCode":"33378","locality":"Rheda-Wiedenbrück","municipality":{"key":"05754028","name":"Rheda-Wiedenbrück, Stadt","type":"Stadt"},"district":{"key":"05754","name":"Gütersloh","type":"Kreis"},"federalState":{"key":"05","name":"Nordrhein-Westfalen"}},{"name":"Harsewinkelweg","postalCode":"33378","locality":"Rheda-Wiedenbrück","municipality":{"key":"05754028","name":"Rheda-Wiedenbrück, Stadt","type":"Stadt"},"district":{"key":"05754","name":"Gütersloh","type":"Kreis"},"federalState":{"key":"05","name":"Nordrhein-Westfalen"}},{"name":"Hartwigswalder Str.","postalCode":"33378","locality":"Rheda-Wiedenbrück","municipality":{"key":"05754028","name":"Rheda-Wiedenbrück, Stadt","type":"Stadt"},"district":{"key":"05754","name":"Gütersloh","type":"Kreis"},"federalState":{"key":"05","name":"Nordrhein-Westfalen"}},{"name":"Hauptstr.","postalCode":"31719","locality":"Wiedensahl","municipality":{"key":"03257037","name":"Wiedensahl, Flecken","type":"Kreisangehörige_Gemeinde"},"district":{"key":"03257","name":"Schaumburg","type":"Landkreis"},"federalState":{"key":"03","name":"Niedersachsen"}},{"name":"Hauptstr.","postalCode":"33378","locality":"Rheda-Wiedenbrück","municipality":{"key":"05754028","name":"Rheda-Wiedenbrück, Stadt","type":"Stadt"},"district":{"key":"05754","name":"Gütersloh","type":"Kreis"},"federalState":{"key":"05","name":"Nordrhein-Westfalen"}},{"name":"Hauptstr.","postalCode":"66894","locality":"Langwieden","municipality":{"key":"07335202","name":"Langwieden","type":"Kreisangehörige_Gemeinde"},"district":{"key":"07335","name":"Kaiserslautern","type":"Landkreis"},"federalState":{"key":"07","name":"Rheinland-Pfalz"}},{"name":"Hauptstuhler Flur","postalCode":"66894","locality":"Langwieden","municipality":{"key":"07335202","name":"Langwieden","type":"Kreisangehörige_Gemeinde"},"district":{"key":"07335","name":"Kaiserslautern","type":"Landkreis"},"federalState":{"key":"07","name":"Rheinland-Pfalz"}},{"name":"Havelstr.","postalCode":"33378","locality":"Rheda-Wiedenbrück","municipality":{"key":"05754028","name":"Rheda-Wiedenbrück, Stadt","type":"Stadt"},"district":{"key":"05754","name":"Gütersloh","type":"Kreis"},"federalState":{"key":"05","name":"Nordrhein-Westfalen"}},{"name":"Heckenweg","postalCode":"33378","locality":"Rheda-Wiedenbrück","municipality":{"key":"05754028","name":"Rheda-Wiedenbrück, Stadt","type":"Stadt"},"district":{"key":"05754","name":"Gütersloh","type":"Kreis"},"federalState":{"key":"05","name":"Nordrhein-Westfalen"}},{"name":"Heidbrinkstr.","postalCode":"33378","locality":"Rheda-Wiedenbrück","municipality":{"key":"05754028","name":"Rheda-Wiedenbrück, Stadt","type":"Stadt"},"district":{"key":"05754","name":"Gütersloh","type":"Kreis"},"federalState":{"key":"05","name":"Nordrhein-Westfalen"}},{"name":"Heiligenhäuschenweg","postalCode":"33378","locality":"Rheda-Wiedenbrück","municipality":{"key":"05754028","name":"Rheda-Wiedenbrück, Stadt","type":"Stadt"},"district":{"key":"05754","name":"Gütersloh","type":"Kreis"},"federalState":{"key":"05","name":"Nordrhein-Westfalen"}},{"name":"Heiligenstädter Weg","postalCode":"33378","locality":"Rheda-Wiedenbrück","municipality":{"key":"05754028","name":"Rheda-Wiedenbrück, Stadt","type":"Stadt"},"district":{"key":"05754","name":"Gütersloh","type":"Kreis"},"federalState":{"key":"05","name":"Nordrhein-Westfalen"}},{"name":"Heinrich-Heine-Str.","postalCode":"33378","locality":"Rheda-Wiedenbrück","municipality":{"key":"05754028","name":"Rheda-Wiedenbrück, Stadt","type":"Stadt"},"district":{"key":"05754","name":"Gütersloh","type":"Kreis"},"federalState":{"key":"05","name":"Nordrhein-Westfalen"}},{"name":"Heinrich-Kleibaumhüter-Weg","postalCode":"33378","locality":"Rheda-Wiedenbrück","municipality":{"key":"05754028","name":"Rheda-Wiedenbrück, Stadt","type":"Stadt"},"district":{"key":"05754","name":"Gütersloh","type":"Kreis"},"federalState":{"key":"05","name":"Nordrhein-Westfalen"}},{"name":"Heinrich-Nienhues-Weg","postalCode":"33378","locality":"Rheda-Wiedenbrück","municipality":{"key":"05754028","name":"Rheda-Wiedenbrück, Stadt","type":"Stadt"},"district":{"key":"05754","name":"Gütersloh","type":"Kreis"},"federalState":{"key":"05","name":"Nordrhein-Westfalen"}},{"name":"Heinrich-Püts-Str.","postalCode":"33378","locality":"Rheda-Wiedenbrück","municipality":{"key":"05754028","name":"Rheda-Wiedenbrück, Stadt","type":"Stadt"},"district":{"key":"05754","name":"Gütersloh","type":"Kreis"},"federalState":{"key":"05","name":"Nordrhein-Westfalen"}},{"name":"Hellingrottstr.","postalCode":"33378","locality":"Rheda-Wiedenbrück","municipality":{"key":"05754028","name":"Rheda-Wiedenbrück, Stadt","type":"Stadt"},"district":{"key":"05754","name":"Gütersloh","type":"Kreis"},"federalState":{"key":"05","name":"Nordrhein-Westfalen"}},{"name":"Hellkamp","postalCode":"33378","locality":"Rheda-Wiedenbrück","municipality":{"key":"05754028","name":"Rheda-Wiedenbrück, Stadt","type":"Stadt"},"district":{"key":"05754","name":"Gütersloh","type":"Kreis"},"federalState":{"key":"05","name":"Nordrhein-Westfalen"}},{"name":"Hellweg","postalCode":"33378","locality":"Rheda-Wiedenbrück","municipality":{"key":"05754028","name":"Rheda-Wiedenbrück, Stadt","type":"Stadt"},"district":{"key":"05754","name":"Gütersloh","type":"Kreis"},"federalState":{"key":"05","name":"Nordrhein-Westfalen"}},{"name":"Helmut-Frese-Weg","postalCode":"33378","locality":"Rheda-Wiedenbrück","municipality":{"key":"05754028","name":"Rheda-Wiedenbrück, Stadt","type":"Stadt"},"district":{"key":"05754","name":"Gütersloh","type":"Kreis"},"federalState":{"key":"05","name":"Nordrhein-Westfalen"}},{"name":"Herderstr.","postalCode":"33378","locality":"Rheda-Wiedenbrück","municipality":{"key":"05754028","name":"Rheda-Wiedenbrück, Stadt","type":"Stadt"},"district":{"key":"05754","name":"Gütersloh","type":"Kreis"},"federalState":{"key":"05","name":"Nordrhein-Westfalen"}},{"name":"Hermann-Löns-Weg","postalCode":"33378","locality":"Rheda-Wiedenbrück","municipality":{"key":"05754028","name":"Rheda-Wiedenbrück, Stadt","type":"Stadt"},"district":{"key":"05754","name":"Gütersloh","type":"Kreis"},"federalState":{"key":"05","name":"Nordrhein-Westfalen"}},{"name":"Hermelinstr.","postalCode":"33378","locality":"Rheda-Wiedenbrück","municipality":{"key":"05754028","name":"Rheda-Wiedenbrück, Stadt","type":"Stadt"},"district":{"key":"05754","name":"Gütersloh","type":"Kreis"},"federalState":{"key":"05","name":"Nordrhein-Westfalen"}},{"name":"Herzebrocker Str.","postalCode":"33378","locality":"Rheda-Wiedenbrück","municipality":{"key":"05754028","name":"Rheda-Wiedenbrück, Stadt","type":"Stadt"},"district":{"key":"05754","name":"Gütersloh","type":"Kreis"},"federalState":{"key":"05","name":"Nordrhein-Westfalen"}},{"name":"Hinter dem Sahl","postalCode":"31719","locality":"Wiedensahl","municipality":{"key":"03257037","name":"Wiedensahl, Flecken","type":"Kreisangehörige_Gemeinde"},"district":{"key":"03257","name":"Schaumburg","type":"Landkreis"},"federalState":{"key":"03","name":"Niedersachsen"}},{"name":"Hinter den Höfen","postalCode":"31719","locality":"Wiedensahl","municipality":{"key":"03257037","name":"Wiedensahl, Flecken","type":"Kreisangehörige_Gemeinde"},"district":{"key":"03257","name":"Schaumburg","type":"Landkreis"},"federalState":{"key":"03","name":"Niedersachsen"}},{"name":"Höchtekamp","postalCode":"33378","locality":"Rheda-Wiedenbrück","municipality":{"key":"05754028","name":"Rheda-Wiedenbrück, Stadt","type":"Stadt"},"district":{"key":"05754","name":"Gütersloh","type":"Kreis"},"federalState":{"key":"05","name":"Nordrhein-Westfalen"}},{"name":"Hoetger-Gasse","postalCode":"33378","locality":"Rheda-Wiedenbrück","municipality":{"key":"05754028","name":"Rheda-Wiedenbrück, Stadt","type":"Stadt"},"district":{"key":"05754","name":"Gütersloh","type":"Kreis"},"federalState":{"key":"05","name":"Nordrhein-Westfalen"}},{"name":"Hölderlinweg","postalCode":"33378","locality":"Rheda-Wiedenbrück","municipality":{"key":"05754028","name":"Rheda-Wiedenbrück, Stadt","type":"Stadt"},"district":{"key":"05754","name":"Gütersloh","type":"Kreis"},"federalState":{"key":"05","name":"Nordrhein-Westfalen"}},{"name":"Hölscherstr.","postalCode":"33378","locality":"Rheda-Wiedenbrück","municipality":{"key":"05754028","name":"Rheda-Wiedenbrück, Stadt","type":"Stadt"},"district":{"key":"05754","name":"Gütersloh","type":"Kreis"},"federalState":{"key":"05","name":"Nordrhein-Westfalen"}},{"name":"Holtkampstr.","postalCode":"33378","locality":"Rheda-Wiedenbrück","municipality":{"key":"05754028","name":"Rheda-Wiedenbrück, Stadt","type":"Stadt"},"district":{"key":"05754","name":"Gütersloh","type":"Kreis"},"federalState":{"key":"05","name":"Nordrhein-Westfalen"}},{"name":"Holzstr.","postalCode":"33378","locality":"Rheda-Wiedenbrück","municipality":{"key":"05754028","name":"Rheda-Wiedenbrück, Stadt","type":"Stadt"},"district":{"key":"05754","name":"Gütersloh","type":"Kreis"},"federalState":{"key":"05","name":"Nordrhein-Westfalen"}},{"name":"Hoppenkamp","postalCode":"33378","locality":"Rheda-Wiedenbrück","municipality":{"key":"05754028","name":"Rheda-Wiedenbrück, Stadt","type":"Stadt"},"district":{"key":"05754","name":"Gütersloh","type":"Kreis"},"federalState":{"key":"05","name":"Nordrhein-Westfalen"}},{"name":"Hoppenstr.","postalCode":"33378","locality":"Rheda-Wiedenbrück","municipality":{"key":"05754028","name":"Rheda-Wiedenbrück, Stadt","type":"Stadt"},"district":{"key":"05754","name":"Gütersloh","type":"Kreis"},"federalState":{"key":"05","name":"Nordrhein-Westfalen"}},{"name":"Hornissenstr.","postalCode":"33378","locality":"Rheda-Wiedenbrück","municipality":{"key":"05754028","name":"Rheda-Wiedenbrück, Stadt","type":"Stadt"},"district":{"key":"05754","name":"Gütersloh","type":"Kreis"},"federalState":{"key":"05","name":"Nordrhein-Westfalen"}},{"name":"Horstwiesenweg","postalCode":"33378","locality":"Rheda-Wiedenbrück","municipality":{"key":"05754028","name":"Rheda-Wiedenbrück, Stadt","type":"Stadt"},"district":{"key":"05754","name":"Gütersloh","type":"Kreis"},"federalState":{"key":"05","name":"Nordrhein-Westfalen"}},{"name":"Hortensienweg","postalCode":"33378","locality":"Rheda-Wiedenbrück","municipality":{"key":"05754028","name":"Rheda-Wiedenbrück, Stadt","type":"Stadt"},"district":{"key":"05754","name":"Gütersloh","type":"Kreis"},"federalState":{"key":"05","name":"Nordrhein-Westfalen"}},{"name":"Hubertusstr.","postalCode":"33378","locality":"Rheda-Wiedenbrück","municipality":{"key":"05754028","name":"Rheda-Wiedenbrück, Stadt","type":"Stadt"},"district":{"key":"05754","name":"Gütersloh","type":"Kreis"},"federalState":{"key":"05","name":"Nordrhein-Westfalen"}},{"name":"Hudeweg","postalCode":"33378","locality":"Rheda-Wiedenbrück","municipality":{"key":"05754028","name":"Rheda-Wiedenbrück, Stadt","type":"Stadt"},"district":{"key":"05754","name":"Gütersloh","type":"Kreis"},"federalState":{"key":"05","name":"Nordrhein-Westfalen"}},{"name":"Hüfferstr.","postalCode":"33378","locality":"Rheda-Wiedenbrück","municipality":{"key":"05754028","name":"Rheda-Wiedenbrück, Stadt","type":"Stadt"},"district":{"key":"05754","name":"Gütersloh","type":"Kreis"},"federalState":{"key":"05","name":"Nordrhein-Westfalen"}},{"name":"Hugo-Mense-Str.","postalCode":"33378","locality":"Rheda-Wiedenbrück","municipality":{"key":"05754028","name":"Rheda-Wiedenbrück, Stadt","type":"Stadt"},"district":{"key":"05754","name":"Gütersloh","type":"Kreis"},"federalState":{"key":"05","name":"Nordrhein-Westfalen"}},{"name":"Hummelweg","postalCode":"33378","locality":"Rheda-Wiedenbrück","municipality":{"key":"05754028","name":"Rheda-Wiedenbrück, Stadt","type":"Stadt"},"district":{"key":"05754","name":"Gütersloh","type":"Kreis"},"federalState":{"key":"05","name":"Nordrhein-Westfalen"}},{"name":"Iltisweg","postalCode":"33378","locality":"Rheda-Wiedenbrück","municipality":{"key":"05754028","name":"Rheda-Wiedenbrück, Stadt","type":"Stadt"},"district":{"key":"05754","name":"Gütersloh","type":"Kreis"},"federalState":{"key":"05","name":"Nordrhein-Westfalen"}},{"name":"Im Dicken Kamp","postalCode":"33378","locality":"Rheda-Wiedenbrück","municipality":{"key":"05754028","name":"Rheda-Wiedenbrück, Stadt","type":"Stadt"},"district":{"key":"05754","name":"Gütersloh","type":"Kreis"},"federalState":{"key":"05","name":"Nordrhein-Westfalen"}},{"name":"Imkerstr.","postalCode":"33378","locality":"Rheda-Wiedenbrück","municipality":{"key":"05754028","name":"Rheda-Wiedenbrück, Stadt","type":"Stadt"},"district":{"key":"05754","name":"Gütersloh","type":"Kreis"},"federalState":{"key":"05","name":"Nordrhein-Westfalen"}},{"name":"Im Mersch","postalCode":"33378","locality":"Rheda-Wiedenbrück","municipality":{"key":"05754028","name":"Rheda-Wiedenbrück, Stadt","type":"Stadt"},"district":{"key":"05754","name":"Gütersloh","type":"Kreis"},"federalState":{"key":"05","name":"Nordrhein-Westfalen"}},{"name":"Im Ried","postalCode":"33378","locality":"Rheda-Wiedenbrück","municipality":{"key":"05754028","name":"Rheda-Wiedenbrück, Stadt","type":"Stadt"},"district":{"key":"05754","name":"Gütersloh","type":"Kreis"},"federalState":{"key":"05","name":"Nordrhein-Westfalen"}},{"name":"Im Schilffeld","postalCode":"33378","locality":"Rheda-Wiedenbrück","municipality":{"key":"05754028","name":"Rheda-Wiedenbrück, Stadt","type":"Stadt"},"district":{"key":"05754","name":"Gütersloh","type":"Kreis"},"federalState":{"key":"05","name":"Nordrhein-Westfalen"}},{"name":"Im Stadtfeld","postalCode":"33378","locality":"Rheda-Wiedenbrück","municipality":{"key":"05754028","name":"Rheda-Wiedenbrück, Stadt","type":"Stadt"},"district":{"key":"05754","name":"Gütersloh","type":"Kreis"},"federalState":{"key":"05","name":"Nordrhein-Westfalen"}},{"name":"Im Wieksfeld","postalCode":"33378","locality":"Rheda-Wiedenbrück","municipality":{"key":"05754028","name":"Rheda-Wiedenbrück, Stadt","type":"Stadt"},"district":{"key":"05754","name":"Gütersloh","type":"Kreis"},"federalState":{"key":"05","name":"Nordrhein-Westfalen"}},{"name":"Im Winkel","postalCode":"79695","locality":"Wieden","municipality":{"key":"08336096","name":"Wieden","type":"Kreisangehörige_Gemeinde"},"district":{"key":"08336","name":"Lörrach","type":"Landkreis"},"federalState":{"key":"08","name":"Baden-Württemberg"}},{"name":"In der Halle","postalCode":"33378","locality":"Rheda-Wiedenbrück","municipality":{"key":"05754028","name":"Rheda-Wiedenbrück, Stadt","type":"Stadt"},"district":{"key":"05754","name":"Gütersloh","type":"Kreis"},"federalState":{"key":"05","name":"Nordrhein-Westfalen"}},{"name":"In der Helle","postalCode":"33378","locality":"Rheda-Wiedenbrück","municipality":{"key":"05754028","name":"Rheda-Wiedenbrück, Stadt","type":"Stadt"},"district":{"key":"05754","name":"Gütersloh","type":"Kreis"},"federalState":{"key":"05","name":"Nordrhein-Westfalen"}},{"name":"In der Hespe","postalCode":"31719","locality":"Wiedensahl","municipality":{"key":"03257037","name":"Wiedensahl, Flecken","type":"Kreisangehörige_Gemeinde"},"district":{"key":"03257","name":"Schaumburg","type":"Landkreis"},"federalState":{"key":"03","name":"Niedersachsen"}},{"name":"In der Mark","postalCode":"33378","locality":"Rheda-Wiedenbrück","municipality":{"key":"05754028","name":"Rheda-Wiedenbrück, Stadt","type":"Stadt"},"district":{"key":"05754","name":"Gütersloh","type":"Kreis"},"federalState":{"key":"05","name":"Nordrhein-Westfalen"}},{"name":"In der Schiffheide","postalCode":"33378","locality":"Rheda-Wiedenbrück","municipality":{"key":"05754028","name":"Rheda-Wiedenbrück, Stadt","type":"Stadt"},"district":{"key":"05754","name":"Gütersloh","type":"Kreis"},"federalState":{"key":"05","name":"Nordrhein-Westfalen"}},{"name":"Innsbrucker Str.","postalCode":"33378","locality":"Rheda-Wiedenbrück","municipality":{"key":"05754028","name":"Rheda-Wiedenbrück, Stadt","type":"Stadt"},"district":{"key":"05754","name":"Gütersloh","type":"Kreis"},"federalState":{"key":"05","name":"Nordrhein-Westfalen"}},{"name":"Jägerweg","postalCode":"33378","locality":"Rheda-Wiedenbrück","municipality":{"key":"05754028","name":"Rheda-Wiedenbrück, Stadt","type":"Stadt"},"district":{"key":"05754","name":"Gütersloh","type":"Kreis"},"federalState":{"key":"05","name":"Nordrhein-Westfalen"}},{"name":"Jödemannstr.","postalCode":"33378","locality":"Rheda-Wiedenbrück","municipality":{"key":"05754028","name":"Rheda-Wiedenbrück, Stadt","type":"Stadt"},"district":{"key":"05754","name":"Gütersloh","type":"Kreis"},"federalState":{"key":"05","name":"Nordrhein-Westfalen"}},{"name":"Jodokus-Temme-Str.","postalCode":"33378","locality":"Rheda-Wiedenbrück","municipality":{"key":"05754028","name":"Rheda-Wiedenbrück, Stadt","type":"Stadt"},"district":{"key":"05754","name":"Gütersloh","type":"Kreis"},"federalState":{"key":"05","name":"Nordrhein-Westfalen"}},{"name":"Johanniskamp","postalCode":"33378","locality":"Rheda-Wiedenbrück","municipality":{"key":"05754028","name":"Rheda-Wiedenbrück, Stadt","type":"Stadt"},"district":{"key":"05754","name":"Gütersloh","type":"Kreis"},"federalState":{"key":"05","name":"Nordrhein-Westfalen"}},{"name":"Johann-Sebastian-Bach-Str.","postalCode":"33378","locality":"Rheda-Wiedenbrück","municipality":{"key":"05754028","name":"Rheda-Wiedenbrück, Stadt","type":"Stadt"},"district":{"key":"05754","name":"Gütersloh","type":"Kreis"},"federalState":{"key":"05","name":"Nordrhein-Westfalen"}},{"name":"Josef-Nies-Str.","postalCode":"33378","locality":"Rheda-Wiedenbrück","municipality":{"key":"05754028","name":"Rheda-Wiedenbrück, Stadt","type":"Stadt"},"district":{"key":"05754","name":"Gütersloh","type":"Kreis"},"federalState":{"key":"05","name":"Nordrhein-Westfalen"}},{"name":"Joseph-Wichmann-Str.","postalCode":"33378","locality":"Rheda-Wiedenbrück","municipality":{"key":"05754028","name":"Rheda-Wiedenbrück, Stadt","type":"Stadt"},"district":{"key":"05754","name":"Gütersloh","type":"Kreis"},"federalState":{"key":"05","name":"Nordrhein-Westfalen"}},{"name":"Justus-Liebig-Str.","postalCode":"33378","locality":"Rheda-Wiedenbrück","municipality":{"key":"05754028","name":"Rheda-Wiedenbrück, Stadt","type":"Stadt"},"district":{"key":"05754","name":"Gütersloh","type":"Kreis"},"federalState":{"key":"05","name":"Nordrhein-Westfalen"}},{"name":"Kaiserforst","postalCode":"33378","locality":"Rheda-Wiedenbrück","municipality":{"key":"05754028","name":"Rheda-Wiedenbrück, Stadt","type":"Stadt"},"district":{"key":"05754","name":"Gütersloh","type":"Kreis"},"federalState":{"key":"05","name":"Nordrhein-Westfalen"}},{"name":"Kalksteinweg","postalCode":"33378","locality":"Rheda-Wiedenbrück","municipality":{"key":"05754028","name":"Rheda-Wiedenbrück, Stadt","type":"Stadt"},"district":{"key":"05754","name":"Gütersloh","type":"Kreis"},"federalState":{"key":"05","name":"Nordrhein-Westfalen"}},{"name":"Kantstr.","postalCode":"33378","locality":"Rheda-Wiedenbrück","municipality":{"key":"05754028","name":"Rheda-Wiedenbrück, Stadt","type":"Stadt"},"district":{"key":"05754","name":"Gütersloh","type":"Kreis"},"federalState":{"key":"05","name":"Nordrhein-Westfalen"}},{"name":"Kapellenstr.","postalCode":"33378","locality":"Rheda-Wiedenbrück","municipality":{"key":"05754028","name":"Rheda-Wiedenbrück, Stadt","type":"Stadt"},"district":{"key":"05754","name":"Gütersloh","type":"Kreis"},"federalState":{"key":"05","name":"Nordrhein-Westfalen"}},{"name":"Kapplenkamp","postalCode":"33378","locality":"Rheda-Wiedenbrück","municipality":{"key":"05754028","name":"Rheda-Wiedenbrück, Stadt","type":"Stadt"},"district":{"key":"05754","name":"Gütersloh","type":"Kreis"},"federalState":{"key":"05","name":"Nordrhein-Westfalen"}},{"name":"Karlstr.","postalCode":"33378","locality":"Rheda-Wiedenbrück","municipality":{"key":"05754028","name":"Rheda-Wiedenbrück, Stadt","type":"Stadt"},"district":{"key":"05754","name":"Gütersloh","type":"Kreis"},"federalState":{"key":"05","name":"Nordrhein-Westfalen"}},{"name":"Karl-Thiel-Str.","postalCode":"33378","locality":"Rheda-Wiedenbrück","municipality":{"key":"05754028","name":"Rheda-Wiedenbrück, Stadt","type":"Stadt"},"district":{"key":"05754","name":"Gütersloh","type":"Kreis"},"federalState":{"key":"05","name":"Nordrhein-Westfalen"}},{"name":"Karl-Wagenfeld-Str.","postalCode":"33378","locality":"Rheda-Wiedenbrück","municipality":{"key":"05754028","name":"Rheda-Wiedenbrück, Stadt","type":"Stadt"},"district":{"key":"05754","name":"Gütersloh","type":"Kreis"},"federalState":{"key":"05","name":"Nordrhein-Westfalen"}},{"name":"Kaspar-von-Zumbusch-Str.","postalCode":"33378","locality":"Rheda-Wiedenbrück","municipality":{"key":"05754028","name":"Rheda-Wiedenbrück, Stadt","type":"Stadt"},"district":{"key":"05754","name":"Gütersloh","type":"Kreis"},"federalState":{"key":"05","name":"Nordrhein-Westfalen"}},{"name":"Kastanienallee","postalCode":"33378","locality":"Rheda-Wiedenbrück","municipality":{"key":"05754028","name":"Rheda-Wiedenbrück, Stadt","type":"Stadt"},"district":{"key":"05754","name":"Gütersloh","type":"Kreis"},"federalState":{"key":"05","name":"Nordrhein-Westfalen"}},{"name":"Katthagen","postalCode":"33378","locality":"Rheda-Wiedenbrück","municipality":{"key":"05754028","name":"Rheda-Wiedenbrück, Stadt","type":"Stadt"},"district":{"key":"05754","name":"Gütersloh","type":"Kreis"},"federalState":{"key":"05","name":"Nordrhein-Westfalen"}},{"name":"Kernekampstr.","postalCode":"33378","locality":"Rheda-Wiedenbrück","municipality":{"key":"05754028","name":"Rheda-Wiedenbrück, Stadt","type":"Stadt"},"district":{"key":"05754","name":"Gütersloh","type":"Kreis"},"federalState":{"key":"05","name":"Nordrhein-Westfalen"}},{"name":"Kettelerstr.","postalCode":"33378","locality":"Rheda-Wiedenbrück","municipality":{"key":"05754028","name":"Rheda-Wiedenbrück, Stadt","type":"Stadt"},"district":{"key":"05754","name":"Gütersloh","type":"Kreis"},"federalState":{"key":"05","name":"Nordrhein-Westfalen"}},{"name":"Kiebitzweg","postalCode":"33378","locality":"Rheda-Wiedenbrück","municipality":{"key":"05754028","name":"Rheda-Wiedenbrück, Stadt","type":"Stadt"},"district":{"key":"05754","name":"Gütersloh","type":"Kreis"},"federalState":{"key":"05","name":"Nordrhein-Westfalen"}},{"name":"Kiefernweg","postalCode":"33378","locality":"Rheda-Wiedenbrück","municipality":{"key":"05754028","name":"Rheda-Wiedenbrück, Stadt","type":"Stadt"},"district":{"key":"05754","name":"Gütersloh","type":"Kreis"},"federalState":{"key":"05","name":"Nordrhein-Westfalen"}},{"name":"Kiesweg","postalCode":"33378","locality":"Rheda-Wiedenbrück","municipality":{"key":"05754028","name":"Rheda-Wiedenbrück, Stadt","type":"Stadt"},"district":{"key":"05754","name":"Gütersloh","type":"Kreis"},"federalState":{"key":"05","name":"Nordrhein-Westfalen"}},{"name":"Kirchstr.","postalCode":"33378","locality":"Rheda-Wiedenbrück","municipality":{"key":"05754028","name":"Rheda-Wiedenbrück, Stadt","type":"Stadt"},"district":{"key":"05754","name":"Gütersloh","type":"Kreis"},"federalState":{"key":"05","name":"Nordrhein-Westfalen"}},{"name":"Kirchstr.","postalCode":"79695","locality":"Wieden","municipality":{"key":"08336096","name":"Wieden","type":"Kreisangehörige_Gemeinde"},"district":{"key":"08336","name":"Lörrach","type":"Landkreis"},"federalState":{"key":"08","name":"Baden-Württemberg"}},{"name":"Kleestr.","postalCode":"33378","locality":"Rheda-Wiedenbrück","municipality":{"key":"05754028","name":"Rheda-Wiedenbrück, Stadt","type":"Stadt"},"district":{"key":"05754","name":"Gütersloh","type":"Kreis"},"federalState":{"key":"05","name":"Nordrhein-Westfalen"}},{"name":"Kleine Heide","postalCode":"33378","locality":"Rheda-Wiedenbrück","municipality":{"key":"05754028","name":"Rheda-Wiedenbrück, Stadt","type":"Stadt"},"district":{"key":"05754","name":"Gütersloh","type":"Kreis"},"federalState":{"key":"05","name":"Nordrhein-Westfalen"}},{"name":"Kleine Str.","postalCode":"33378","locality":"Rheda-Wiedenbrück","municipality":{"key":"05754028","name":"Rheda-Wiedenbrück, Stadt","type":"Stadt"},"district":{"key":"05754","name":"Gütersloh","type":"Kreis"},"federalState":{"key":"05","name":"Nordrhein-Westfalen"}},{"name":"Kleistr.","postalCode":"33378","locality":"Rheda-Wiedenbrück","municipality":{"key":"05754028","name":"Rheda-Wiedenbrück, Stadt","type":"Stadt"},"district":{"key":"05754","name":"Gütersloh","type":"Kreis"},"federalState":{"key":"05","name":"Nordrhein-Westfalen"}},{"name":"Klingelbrink","postalCode":"33378","locality":"Rheda-Wiedenbrück","municipality":{"key":"05754028","name":"Rheda-Wiedenbrück, Stadt","type":"Stadt"},"district":{"key":"05754","name":"Gütersloh","type":"Kreis"},"federalState":{"key":"05","name":"Nordrhein-Westfalen"}},{"name":"Klosterwall","postalCode":"33378","locality":"Rheda-Wiedenbrück","municipality":{"key":"05754028","name":"Rheda-Wiedenbrück, Stadt","type":"Stadt"},"district":{"key":"05754","name":"Gütersloh","type":"Kreis"},"federalState":{"key":"05","name":"Nordrhein-Westfalen"}},{"name":"Knippelingstr.","postalCode":"33378","locality":"Rheda-Wiedenbrück","municipality":{"key":"05754028","name":"Rheda-Wiedenbrück, Stadt","type":"Stadt"},"district":{"key":"05754","name":"Gütersloh","type":"Kreis"},"federalState":{"key":"05","name":"Nordrhein-Westfalen"}},{"name":"Köchlingstr.","postalCode":"33378","locality":"Rheda-Wiedenbrück","municipality":{"key":"05754028","name":"Rheda-Wiedenbrück, Stadt","type":"Stadt"},"district":{"key":"05754","name":"Gütersloh","type":"Kreis"},"federalState":{"key":"05","name":"Nordrhein-Westfalen"}},{"name":"Kolkebrede","postalCode":"33378","locality":"Rheda-Wiedenbrück","municipality":{"key":"05754028","name":"Rheda-Wiedenbrück, Stadt","type":"Stadt"},"district":{"key":"05754","name":"Gütersloh","type":"Kreis"},"federalState":{"key":"05","name":"Nordrhein-Westfalen"}},{"name":"Kolpingstr.","postalCode":"33378","locality":"Rheda-Wiedenbrück","municipality":{"key":"05754028","name":"Rheda-Wiedenbrück, Stadt","type":"Stadt"},"district":{"key":"05754","name":"Gütersloh","type":"Kreis"},"federalState":{"key":"05","name":"Nordrhein-Westfalen"}},{"name":"Königsberger Str.","postalCode":"33378","locality":"Rheda-Wiedenbrück","municipality":{"key":"05754028","name":"Rheda-Wiedenbrück, Stadt","type":"Stadt"},"district":{"key":"05754","name":"Gütersloh","type":"Kreis"},"federalState":{"key":"05","name":"Nordrhein-Westfalen"}},{"name":"Konrad-Adenauer-Platz","postalCode":"33378","locality":"Rheda-Wiedenbrück","municipality":{"key":"05754028","name":"Rheda-Wiedenbrück, Stadt","type":"Stadt"},"district":{"key":"05754","name":"Gütersloh","type":"Kreis"},"federalState":{"key":"05","name":"Nordrhein-Westfalen"}},{"name":"Kopernikusstr.","postalCode":"33378","locality":"Rheda-Wiedenbrück","municipality":{"key":"05754028","name":"Rheda-Wiedenbrück, Stadt","type":"Stadt"},"district":{"key":"05754","name":"Gütersloh","type":"Kreis"},"federalState":{"key":"05","name":"Nordrhein-Westfalen"}},{"name":"Kornstr.","postalCode":"33378","locality":"Rheda-Wiedenbrück","municipality":{"key":"05754028","name":"Rheda-Wiedenbrück, Stadt","type":"Stadt"},"district":{"key":"05754","name":"Gütersloh","type":"Kreis"},"federalState":{"key":"05","name":"Nordrhein-Westfalen"}},{"name":"Krämerstr.","postalCode":"33378","locality":"Rheda-Wiedenbrück","municipality":{"key":"05754028","name":"Rheda-Wiedenbrück, Stadt","type":"Stadt"},"district":{"key":"05754","name":"Gütersloh","type":"Kreis"},"federalState":{"key":"05","name":"Nordrhein-Westfalen"}},{"name":"Kreuzstr.","postalCode":"33378","locality":"Rheda-Wiedenbrück","municipality":{"key":"05754028","name":"Rheda-Wiedenbrück, Stadt","type":"Stadt"},"district":{"key":"05754","name":"Gütersloh","type":"Kreis"},"federalState":{"key":"05","name":"Nordrhein-Westfalen"}},{"name":"Krokusweg","postalCode":"33378","locality":"Rheda-Wiedenbrück","municipality":{"key":"05754028","name":"Rheda-Wiedenbrück, Stadt","type":"Stadt"},"district":{"key":"05754","name":"Gütersloh","type":"Kreis"},"federalState":{"key":"05","name":"Nordrhein-Westfalen"}},{"name":"Kruhenkamp","postalCode":"33378","locality":"Rheda-Wiedenbrück","municipality":{"key":"05754028","name":"Rheda-Wiedenbrück, Stadt","type":"Stadt"},"district":{"key":"05754","name":"Gütersloh","type":"Kreis"},"federalState":{"key":"05","name":"Nordrhein-Westfalen"}},{"name":"Krumholzstr.","postalCode":"33378","locality":"Rheda-Wiedenbrück","municipality":{"key":"05754028","name":"Rheda-Wiedenbrück, Stadt","type":"Stadt"},"district":{"key":"05754","name":"Gütersloh","type":"Kreis"},"federalState":{"key":"05","name":"Nordrhein-Westfalen"}},{"name":"Kuhlmersch","postalCode":"33378","locality":"Rheda-Wiedenbrück","municipality":{"key":"05754028","name":"Rheda-Wiedenbrück, Stadt","type":"Stadt"},"district":{"key":"05754","name":"Gütersloh","type":"Kreis"},"federalState":{"key":"05","name":"Nordrhein-Westfalen"}},{"name":"Kunigundenstr.","postalCode":"33378","locality":"Rheda-Wiedenbrück","municipality":{"key":"05754028","name":"Rheda-Wiedenbrück, Stadt","type":"Stadt"},"district":{"key":"05754","name":"Gütersloh","type":"Kreis"},"federalState":{"key":"05","name":"Nordrhein-Westfalen"}},{"name":"Kupfermoor","postalCode":"33378","locality":"Rheda-Wiedenbrück","municipality":{"key":"05754028","name":"Rheda-Wiedenbrück, Stadt","type":"Stadt"},"district":{"key":"05754","name":"Gütersloh","type":"Kreis"},"federalState":{"key":"05","name":"Nordrhein-Westfalen"}},{"name":"Kurzer Weg","postalCode":"33378","locality":"Rheda-Wiedenbrück","municipality":{"key":"05754028","name":"Rheda-Wiedenbrück, Stadt","type":"Stadt"},"district":{"key":"05754","name":"Gütersloh","type":"Kreis"},"federalState":{"key":"05","name":"Nordrhein-Westfalen"}},{"name":"Laitenbach","postalCode":"79695","locality":"Wieden","municipality":{"key":"08336096","name":"Wieden","type":"Kreisangehörige_Gemeinde"},"district":{"key":"08336","name":"Lörrach","type":"Landkreis"},"federalState":{"key":"08","name":"Baden-Württemberg"}},{"name":"Lammersstr.","postalCode":"33378","locality":"Rheda-Wiedenbrück","municipality":{"key":"05754028","name":"Rheda-Wiedenbrück, Stadt","type":"Stadt"},"district":{"key":"05754","name":"Gütersloh","type":"Kreis"},"federalState":{"key":"05","name":"Nordrhein-Westfalen"}},{"name":"Landholz","postalCode":"33378","locality":"Rheda-Wiedenbrück","municipality":{"key":"05754028","name":"Rheda-Wiedenbrück, Stadt","type":"Stadt"},"district":{"key":"05754","name":"Gütersloh","type":"Kreis"},"federalState":{"key":"05","name":"Nordrhein-Westfalen"}},{"name":"Landweg","postalCode":"33378","locality":"Rheda-Wiedenbrück","municipality":{"key":"05754028","name":"Rheda-Wiedenbrück, Stadt","type":"Stadt"},"district":{"key":"05754","name":"Gütersloh","type":"Kreis"},"federalState":{"key":"05","name":"Nordrhein-Westfalen"}},{"name":"Langenbrücker Torwall","postalCode":"33378","locality":"Rheda-Wiedenbrück","municipality":{"key":"05754028","name":"Rheda-Wiedenbrück, Stadt","type":"Stadt"},"district":{"key":"05754","name":"Gütersloh","type":"Kreis"},"federalState":{"key":"05","name":"Nordrhein-Westfalen"}},{"name":"Langer Kamp","postalCode":"33378","locality":"Rheda-Wiedenbrück","municipality":{"key":"05754028","name":"Rheda-Wiedenbrück, Stadt","type":"Stadt"},"district":{"key":"05754","name":"Gütersloh","type":"Kreis"},"federalState":{"key":"05","name":"Nordrhein-Westfalen"}},{"name":"Lange Str.","postalCode":"33378","locality":"Rheda-Wiedenbrück","municipality":{"key":"05754028","name":"Rheda-Wiedenbrück, Stadt","type":"Stadt"},"district":{"key":"05754","name":"Gütersloh","type":"Kreis"},"federalState":{"key":"05","name":"Nordrhein-Westfalen"}},{"name":"Lärchenweg","postalCode":"33378","locality":"Rheda-Wiedenbrück","municipality":{"key":"05754028","name":"Rheda-Wiedenbrück, Stadt","type":"Stadt"},"district":{"key":"05754","name":"Gütersloh","type":"Kreis"},"federalState":{"key":"05","name":"Nordrhein-Westfalen"}},{"name":"Lausitzer Str.","postalCode":"33378","locality":"Rheda-Wiedenbrück","municipality":{"key":"05754028","name":"Rheda-Wiedenbrück, Stadt","type":"Stadt"},"district":{"key":"05754","name":"Gütersloh","type":"Kreis"},"federalState":{"key":"05","name":"Nordrhein-Westfalen"}},{"name":"Leharweg","postalCode":"33378","locality":"Rheda-Wiedenbrück","municipality":{"key":"05754028","name":"Rheda-Wiedenbrück, Stadt","type":"Stadt"},"district":{"key":"05754","name":"Gütersloh","type":"Kreis"},"federalState":{"key":"05","name":"Nordrhein-Westfalen"}},{"name":"Lessingstr.","postalCode":"33378","locality":"Rheda-Wiedenbrück","municipality":{"key":"05754028","name":"Rheda-Wiedenbrück, Stadt","type":"Stadt"},"district":{"key":"05754","name":"Gütersloh","type":"Kreis"},"federalState":{"key":"05","name":"Nordrhein-Westfalen"}},{"name":"Libellenstr.","postalCode":"33378","locality":"Rheda-Wiedenbrück","municipality":{"key":"05754028","name":"Rheda-Wiedenbrück, Stadt","type":"Stadt"},"district":{"key":"05754","name":"Gütersloh","type":"Kreis"},"federalState":{"key":"05","name":"Nordrhein-Westfalen"}},{"name":"Lichtestr.","postalCode":"33378","locality":"Rheda-Wiedenbrück","municipality":{"key":"05754028","name":"Rheda-Wiedenbrück, Stadt","type":"Stadt"},"district":{"key":"05754","name":"Gütersloh","type":"Kreis"},"federalState":{"key":"05","name":"Nordrhein-Westfalen"}},{"name":"Lilienweg","postalCode":"33378","locality":"Rheda-Wiedenbrück","municipality":{"key":"05754028","name":"Rheda-Wiedenbrück, Stadt","type":"Stadt"},"district":{"key":"05754","name":"Gütersloh","type":"Kreis"},"federalState":{"key":"05","name":"Nordrhein-Westfalen"}},{"name":"Lindenstr.","postalCode":"33378","locality":"Rheda-Wiedenbrück","municipality":{"key":"05754028","name":"Rheda-Wiedenbrück, Stadt","type":"Stadt"},"district":{"key":"05754","name":"Gütersloh","type":"Kreis"},"federalState":{"key":"05","name":"Nordrhein-Westfalen"}},{"name":"Linzer Str.","postalCode":"33378","locality":"Rheda-Wiedenbrück","municipality":{"key":"05754028","name":"Rheda-Wiedenbrück, Stadt","type":"Stadt"},"district":{"key":"05754","name":"Gütersloh","type":"Kreis"},"federalState":{"key":"05","name":"Nordrhein-Westfalen"}},{"name":"Lippestr.","postalCode":"33378","locality":"Rheda-Wiedenbrück","municipality":{"key":"05754028","name":"Rheda-Wiedenbrück, Stadt","type":"Stadt"},"district":{"key":"05754","name":"Gütersloh","type":"Kreis"},"federalState":{"key":"05","name":"Nordrhein-Westfalen"}},{"name":"Lippstädter Str.","postalCode":"33378","locality":"Rheda-Wiedenbrück","municipality":{"key":"05754028","name":"Rheda-Wiedenbrück, Stadt","type":"Stadt"},"district":{"key":"05754","name":"Gütersloh","type":"Kreis"},"federalState":{"key":"05","name":"Nordrhein-Westfalen"}},{"name":"Lockebreedeweg","postalCode":"33378","locality":"Rheda-Wiedenbrück","municipality":{"key":"05754028","name":"Rheda-Wiedenbrück, Stadt","type":"Stadt"},"district":{"key":"05754","name":"Gütersloh","type":"Kreis"},"federalState":{"key":"05","name":"Nordrhein-Westfalen"}},{"name":"Loher Wall","postalCode":"33378","locality":"Rheda-Wiedenbrück","municipality":{"key":"05754028","name":"Rheda-Wiedenbrück, Stadt","type":"Stadt"},"district":{"key":"05754","name":"Gütersloh","type":"Kreis"},"federalState":{"key":"05","name":"Nordrhein-Westfalen"}},{"name":"Lohgerberstr.","postalCode":"33378","locality":"Rheda-Wiedenbrück","municipality":{"key":"05754028","name":"Rheda-Wiedenbrück, Stadt","type":"Stadt"},"district":{"key":"05754","name":"Gütersloh","type":"Kreis"},"federalState":{"key":"05","name":"Nordrhein-Westfalen"}},{"name":"Ludwig-Richter-Str.","postalCode":"33378","locality":"Rheda-Wiedenbrück","municipality":{"key":"05754028","name":"Rheda-Wiedenbrück, Stadt","type":"Stadt"},"district":{"key":"05754","name":"Gütersloh","type":"Kreis"},"federalState":{"key":"05","name":"Nordrhein-Westfalen"}},{"name":"Ludwig-Uhland-Str.","postalCode":"33378","locality":"Rheda-Wiedenbrück","municipality":{"key":"05754028","name":"Rheda-Wiedenbrück, Stadt","type":"Stadt"},"district":{"key":"05754","name":"Gütersloh","type":"Kreis"},"federalState":{"key":"05","name":"Nordrhein-Westfalen"}},{"name":"Ludwig-von-Vincke-Str.","postalCode":"33378","locality":"Rheda-Wiedenbrück","municipality":{"key":"05754028","name":"Rheda-Wiedenbrück, Stadt","type":"Stadt"},"district":{"key":"05754","name":"Gütersloh","type":"Kreis"},"federalState":{"key":"05","name":"Nordrhein-Westfalen"}},{"name":"Luise-Hensel-Str.","postalCode":"33378","locality":"Rheda-Wiedenbrück","municipality":{"key":"05754028","name":"Rheda-Wiedenbrück, Stadt","type":"Stadt"},"district":{"key":"05754","name":"Gütersloh","type":"Kreis"},"federalState":{"key":"05","name":"Nordrhein-Westfalen"}},{"name":"Lümernweg","postalCode":"33378","locality":"Rheda-Wiedenbrück","municipality":{"key":"05754028","name":"Rheda-Wiedenbrück, Stadt","type":"Stadt"},"district":{"key":"05754","name":"Gütersloh","type":"Kreis"},"federalState":{"key":"05","name":"Nordrhein-Westfalen"}},{"name":"Lütkestr.","postalCode":"33378","locality":"Rheda-Wiedenbrück","municipality":{"key":"05754028","name":"Rheda-Wiedenbrück, Stadt","type":"Stadt"},"district":{"key":"05754","name":"Gütersloh","type":"Kreis"},"federalState":{"key":"05","name":"Nordrhein-Westfalen"}},{"name":"Luzerner Str.","postalCode":"33378","locality":"Rheda-Wiedenbrück","municipality":{"key":"05754028","name":"Rheda-Wiedenbrück, Stadt","type":"Stadt"},"district":{"key":"05754","name":"Gütersloh","type":"Kreis"},"federalState":{"key":"05","name":"Nordrhein-Westfalen"}},{"name":"Mahlerstr.","postalCode":"33378","locality":"Rheda-Wiedenbrück","municipality":{"key":"05754028","name":"Rheda-Wiedenbrück, Stadt","type":"Stadt"},"district":{"key":"05754","name":"Gütersloh","type":"Kreis"},"federalState":{"key":"05","name":"Nordrhein-Westfalen"}},{"name":"Mallinckrodtstr.","postalCode":"33378","locality":"Rheda-Wiedenbrück","municipality":{"key":"05754028","name":"Rheda-Wiedenbrück, Stadt","type":"Stadt"},"district":{"key":"05754","name":"Gütersloh","type":"Kreis"},"federalState":{"key":"05","name":"Nordrhein-Westfalen"}},{"name":"Malvenweg","postalCode":"33378","locality":"Rheda-Wiedenbrück","municipality":{"key":"05754028","name":"Rheda-Wiedenbrück, Stadt","type":"Stadt"},"district":{"key":"05754","name":"Gütersloh","type":"Kreis"},"federalState":{"key":"05","name":"Nordrhein-Westfalen"}},{"name":"Marburg","postalCode":"33378","locality":"Rheda-Wiedenbrück","municipality":{"key":"05754028","name":"Rheda-Wiedenbrück, Stadt","type":"Stadt"},"district":{"key":"05754","name":"Gütersloh","type":"Kreis"},"federalState":{"key":"05","name":"Nordrhein-Westfalen"}},{"name":"Marderstr.","postalCode":"33378","locality":"Rheda-Wiedenbrück","municipality":{"key":"05754028","name":"Rheda-Wiedenbrück, Stadt","type":"Stadt"},"district":{"key":"05754","name":"Gütersloh","type":"Kreis"},"federalState":{"key":"05","name":"Nordrhein-Westfalen"}},{"name":"Margeritenweg","postalCode":"33378","locality":"Rheda-Wiedenbrück","municipality":{"key":"05754028","name":"Rheda-Wiedenbrück, Stadt","type":"Stadt"},"district":{"key":"05754","name":"Gütersloh","type":"Kreis"},"federalState":{"key":"05","name":"Nordrhein-Westfalen"}},{"name":"Marienstr.","postalCode":"33378","locality":"Rheda-Wiedenbrück","municipality":{"key":"05754028","name":"Rheda-Wiedenbrück, Stadt","type":"Stadt"},"district":{"key":"05754","name":"Gütersloh","type":"Kreis"},"federalState":{"key":"05","name":"Nordrhein-Westfalen"}},{"name":"Markt","postalCode":"33378","locality":"Rheda-Wiedenbrück","municipality":{"key":"05754028","name":"Rheda-Wiedenbrück, Stadt","type":"Stadt"},"district":{"key":"05754","name":"Gütersloh","type":"Kreis"},"federalState":{"key":"05","name":"Nordrhein-Westfalen"}},{"name":"Marlies-Zimmermeier-Weg","postalCode":"33378","locality":"Rheda-Wiedenbrück","municipality":{"key":"05754028","name":"Rheda-Wiedenbrück, Stadt","type":"Stadt"},"district":{"key":"05754","name":"Gütersloh","type":"Kreis"},"federalState":{"key":"05","name":"Nordrhein-Westfalen"}},{"name":"Marsenstr.","postalCode":"33378","locality":"Rheda-Wiedenbrück","municipality":{"key":"05754028","name":"Rheda-Wiedenbrück, Stadt","type":"Stadt"},"district":{"key":"05754","name":"Gütersloh","type":"Kreis"},"federalState":{"key":"05","name":"Nordrhein-Westfalen"}},{"name":"Martinshöher Weg","postalCode":"66894","locality":"Langwieden","municipality":{"key":"07335202","name":"Langwieden","type":"Kreisangehörige_Gemeinde"},"district":{"key":"07335","name":"Kaiserslautern","type":"Landkreis"},"federalState":{"key":"07","name":"Rheinland-Pfalz"}},{"name":"Matheweg","postalCode":"33378","locality":"Rheda-Wiedenbrück","municipality":{"key":"05754028","name":"Rheda-Wiedenbrück, Stadt","type":"Stadt"},"district":{"key":"05754","name":"Gütersloh","type":"Kreis"},"federalState":{"key":"05","name":"Nordrhein-Westfalen"}},{"name":"Maximilian-Kolbe-Str.","postalCode":"33378","locality":"Rheda-Wiedenbrück","municipality":{"key":"05754028","name":"Rheda-Wiedenbrück, Stadt","type":"Stadt"},"district":{"key":"05754","name":"Gütersloh","type":"Kreis"},"federalState":{"key":"05","name":"Nordrhein-Westfalen"}},{"name":"Meerweg","postalCode":"33378","locality":"Rheda-Wiedenbrück","municipality":{"key":"05754028","name":"Rheda-Wiedenbrück, Stadt","type":"Stadt"},"district":{"key":"05754","name":"Gütersloh","type":"Kreis"},"federalState":{"key":"05","name":"Nordrhein-Westfalen"}},{"name":"Mellagestr.","postalCode":"33378","locality":"Rheda-Wiedenbrück","municipality":{"key":"05754028","name":"Rheda-Wiedenbrück, Stadt","type":"Stadt"},"district":{"key":"05754","name":"Gütersloh","type":"Kreis"},"federalState":{"key":"05","name":"Nordrhein-Westfalen"}},{"name":"Melschedestr.","postalCode":"33378","locality":"Rheda-Wiedenbrück","municipality":{"key":"05754028","name":"Rheda-Wiedenbrück, Stadt","type":"Stadt"},"district":{"key":"05754","name":"Gütersloh","type":"Kreis"},"federalState":{"key":"05","name":"Nordrhein-Westfalen"}},{"name":"Memelstr.","postalCode":"33378","locality":"Rheda-Wiedenbrück","municipality":{"key":"05754028","name":"Rheda-Wiedenbrück, Stadt","type":"Stadt"},"district":{"key":"05754","name":"Gütersloh","type":"Kreis"},"federalState":{"key":"05","name":"Nordrhein-Westfalen"}},{"name":"Meraner Str.","postalCode":"33378","locality":"Rheda-Wiedenbrück","municipality":{"key":"05754028","name":"Rheda-Wiedenbrück, Stadt","type":"Stadt"},"district":{"key":"05754","name":"Gütersloh","type":"Kreis"},"federalState":{"key":"05","name":"Nordrhein-Westfalen"}},{"name":"Mergelstr.","postalCode":"33378","locality":"Rheda-Wiedenbrück","municipality":{"key":"05754028","name":"Rheda-Wiedenbrück, Stadt","type":"Stadt"},"district":{"key":"05754","name":"Gütersloh","type":"Kreis"},"federalState":{"key":"05","name":"Nordrhein-Westfalen"}},{"name":"Merianstr.","postalCode":"33378","locality":"Rheda-Wiedenbrück","municipality":{"key":"05754028","name":"Rheda-Wiedenbrück, Stadt","type":"Stadt"},"district":{"key":"05754","name":"Gütersloh","type":"Kreis"},"federalState":{"key":"05","name":"Nordrhein-Westfalen"}},{"name":"Merschweg","postalCode":"33378","locality":"Rheda-Wiedenbrück","municipality":{"key":"05754028","name":"Rheda-Wiedenbrück, Stadt","type":"Stadt"},"district":{"key":"05754","name":"Gütersloh","type":"Kreis"},"federalState":{"key":"05","name":"Nordrhein-Westfalen"}},{"name":"Mettelstr.","postalCode":"33378","locality":"Rheda-Wiedenbrück","municipality":{"key":"05754028","name":"Rheda-Wiedenbrück, Stadt","type":"Stadt"},"district":{"key":"05754","name":"Gütersloh","type":"Kreis"},"federalState":{"key":"05","name":"Nordrhein-Westfalen"}},{"name":"Michels Kamp","postalCode":"33378","locality":"Rheda-Wiedenbrück","municipality":{"key":"05754028","name":"Rheda-Wiedenbrück, Stadt","type":"Stadt"},"district":{"key":"05754","name":"Gütersloh","type":"Kreis"},"federalState":{"key":"05","name":"Nordrhein-Westfalen"}},{"name":"Middendorfstr.","postalCode":"33378","locality":"Rheda-Wiedenbrück","municipality":{"key":"05754028","name":"Rheda-Wiedenbrück, Stadt","type":"Stadt"},"district":{"key":"05754","name":"Gütersloh","type":"Kreis"},"federalState":{"key":"05","name":"Nordrhein-Westfalen"}},{"name":"Milchweg","postalCode":"33378","locality":"Rheda-Wiedenbrück","municipality":{"key":"05754028","name":"Rheda-Wiedenbrück, Stadt","type":"Stadt"},"district":{"key":"05754","name":"Gütersloh","type":"Kreis"},"federalState":{"key":"05","name":"Nordrhein-Westfalen"}},{"name":"Mittelhegge","postalCode":"33378","locality":"Rheda-Wiedenbrück","municipality":{"key":"05754028","name":"Rheda-Wiedenbrück, Stadt","type":"Stadt"},"district":{"key":"05754","name":"Gütersloh","type":"Kreis"},"federalState":{"key":"05","name":"Nordrhein-Westfalen"}},{"name":"Mohnweg","postalCode":"33378","locality":"Rheda-Wiedenbrück","municipality":{"key":"05754028","name":"Rheda-Wiedenbrück, Stadt","type":"Stadt"},"district":{"key":"05754","name":"Gütersloh","type":"Kreis"},"federalState":{"key":"05","name":"Nordrhein-Westfalen"}},{"name":"Mönchstr.","postalCode":"33378","locality":"Rheda-Wiedenbrück","municipality":{"key":"05754028","name":"Rheda-Wiedenbrück, Stadt","type":"Stadt"},"district":{"key":"05754","name":"Gütersloh","type":"Kreis"},"federalState":{"key":"05","name":"Nordrhein-Westfalen"}},{"name":"Mondweg","postalCode":"33378","locality":"Rheda-Wiedenbrück","municipality":{"key":"05754028","name":"Rheda-Wiedenbrück, Stadt","type":"Stadt"},"district":{"key":"05754","name":"Gütersloh","type":"Kreis"},"federalState":{"key":"05","name":"Nordrhein-Westfalen"}},{"name":"Moorheide","postalCode":"33378","locality":"Rheda-Wiedenbrück","municipality":{"key":"05754028","name":"Rheda-Wiedenbrück, Stadt","type":"Stadt"},"district":{"key":"05754","name":"Gütersloh","type":"Kreis"},"federalState":{"key":"05","name":"Nordrhein-Westfalen"}},{"name":"Moorweg","postalCode":"33378","locality":"Rheda-Wiedenbrück","municipality":{"key":"05754028","name":"Rheda-Wiedenbrück, Stadt","type":"Stadt"},"district":{"key":"05754","name":"Gütersloh","type":"Kreis"},"federalState":{"key":"05","name":"Nordrhein-Westfalen"}},{"name":"Moosstr.","postalCode":"33378","locality":"Rheda-Wiedenbrück","municipality":{"key":"05754028","name":"Rheda-Wiedenbrück, Stadt","type":"Stadt"},"district":{"key":"05754","name":"Gütersloh","type":"Kreis"},"federalState":{"key":"05","name":"Nordrhein-Westfalen"}},{"name":"Moritz-von-Schwind-Str.","postalCode":"33378","locality":"Rheda-Wiedenbrück","municipality":{"key":"05754028","name":"Rheda-Wiedenbrück, Stadt","type":"Stadt"},"district":{"key":"05754","name":"Gütersloh","type":"Kreis"},"federalState":{"key":"05","name":"Nordrhein-Westfalen"}},{"name":"Mozartstr.","postalCode":"33378","locality":"Rheda-Wiedenbrück","municipality":{"key":"05754028","name":"Rheda-Wiedenbrück, Stadt","type":"Stadt"},"district":{"key":"05754","name":"Gütersloh","type":"Kreis"},"federalState":{"key":"05","name":"Nordrhein-Westfalen"}},{"name":"Mühlenwall","postalCode":"33378","locality":"Rheda-Wiedenbrück","municipality":{"key":"05754028","name":"Rheda-Wiedenbrück, Stadt","type":"Stadt"},"district":{"key":"05754","name":"Gütersloh","type":"Kreis"},"federalState":{"key":"05","name":"Nordrhein-Westfalen"}},{"name":"Mühlenweg","postalCode":"31719","locality":"Wiedensahl","municipality":{"key":"03257037","name":"Wiedensahl, Flecken","type":"Kreisangehörige_Gemeinde"},"district":{"key":"03257","name":"Schaumburg","type":"Landkreis"},"federalState":{"key":"03","name":"Niedersachsen"}},{"name":"Nadelstr.","postalCode":"33378","locality":"Rheda-Wiedenbrück","municipality":{"key":"05754028","name":"Rheda-Wiedenbrück, Stadt","type":"Stadt"},"district":{"key":"05754","name":"Gütersloh","type":"Kreis"},"federalState":{"key":"05","name":"Nordrhein-Westfalen"}},{"name":"Narzissenweg","postalCode":"33378","locality":"Rheda-Wiedenbrück","municipality":{"key":"05754028","name":"Rheda-Wiedenbrück, Stadt","type":"Stadt"},"district":{"key":"05754","name":"Gütersloh","type":"Kreis"},"federalState":{"key":"05","name":"Nordrhein-Westfalen"}},{"name":"Neißestr.","postalCode":"33378","locality":"Rheda-Wiedenbrück","municipality":{"key":"05754028","name":"Rheda-Wiedenbrück, Stadt","type":"Stadt"},"district":{"key":"05754","name":"Gütersloh","type":"Kreis"},"federalState":{"key":"05","name":"Nordrhein-Westfalen"}},{"name":"Nelkenweg","postalCode":"33378","locality":"Rheda-Wiedenbrück","municipality":{"key":"05754028","name":"Rheda-Wiedenbrück, Stadt","type":"Stadt"},"district":{"key":"05754","name":"Gütersloh","type":"Kreis"},"federalState":{"key":"05","name":"Nordrhein-Westfalen"}},{"name":"Neuenkirchener Landstr.","postalCode":"33378","locality":"Rheda-Wiedenbrück","municipality":{"key":"05754028","name":"Rheda-Wiedenbrück, Stadt","type":"Stadt"},"district":{"key":"05754","name":"Gütersloh","type":"Kreis"},"federalState":{"key":"05","name":"Nordrhein-Westfalen"}},{"name":"Neuenkirchener Str.","postalCode":"33378","locality":"Rheda-Wiedenbrück","municipality":{"key":"05754028","name":"Rheda-Wiedenbrück, Stadt","type":"Stadt"},"district":{"key":"05754","name":"Gütersloh","type":"Kreis"},"federalState":{"key":"05","name":"Nordrhein-Westfalen"}},{"name":"Neuer Wall","postalCode":"33378","locality":"Rheda-Wiedenbrück","municipality":{"key":"05754028","name":"Rheda-Wiedenbrück, Stadt","type":"Stadt"},"district":{"key":"05754","name":"Gütersloh","type":"Kreis"},"federalState":{"key":"05","name":"Nordrhein-Westfalen"}},{"name":"Neumatt","postalCode":"79695","locality":"Wieden","municipality":{"key":"08336096","name":"Wieden","type":"Kreisangehörige_Gemeinde"},"district":{"key":"08336","name":"Lörrach","type":"Landkreis"},"federalState":{"key":"08","name":"Baden-Württemberg"}},{"name":"Neupförtner Wall","postalCode":"33378","locality":"Rheda-Wiedenbrück","municipality":{"key":"05754028","name":"Rheda-Wiedenbrück, Stadt","type":"Stadt"},"district":{"key":"05754","name":"Gütersloh","type":"Kreis"},"federalState":{"key":"05","name":"Nordrhein-Westfalen"}},{"name":"Niedermatt","postalCode":"79695","locality":"Wieden","municipality":{"key":"08336096","name":"Wieden","type":"Kreisangehörige_Gemeinde"},"district":{"key":"08336","name":"Lörrach","type":"Landkreis"},"federalState":{"key":"08","name":"Baden-Württemberg"}},{"name":"Nikolaus-Groß-Str.","postalCode":"33378","locality":"Rheda-Wiedenbrück","municipality":{"key":"05754028","name":"Rheda-Wiedenbrück, Stadt","type":"Stadt"},"district":{"key":"05754","name":"Gütersloh","type":"Kreis"},"federalState":{"key":"05","name":"Nordrhein-Westfalen"}},{"name":"Nonnenwall","postalCode":"33378","locality":"Rheda-Wiedenbrück","municipality":{"key":"05754028","name":"Rheda-Wiedenbrück, Stadt","type":"Stadt"},"district":{"key":"05754","name":"Gütersloh","type":"Kreis"},"federalState":{"key":"05","name":"Nordrhein-Westfalen"}},{"name":"Nordrheda","postalCode":"33378","locality":"Rheda-Wiedenbrück","municipality":{"key":"05754028","name":"Rheda-Wiedenbrück, Stadt","type":"Stadt"},"district":{"key":"05754","name":"Gütersloh","type":"Kreis"},"federalState":{"key":"05","name":"Nordrhein-Westfalen"}},{"name":"Nordring","postalCode":"33378","locality":"Rheda-Wiedenbrück","municipality":{"key":"05754028","name":"Rheda-Wiedenbrück, Stadt","type":"Stadt"},"district":{"key":"05754","name":"Gütersloh","type":"Kreis"},"federalState":{"key":"05","name":"Nordrhein-Westfalen"}},{"name":"Nordstr.","postalCode":"33378","locality":"Rheda-Wiedenbrück","municipality":{"key":"05754028","name":"Rheda-Wiedenbrück, Stadt","type":"Stadt"},"district":{"key":"05754","name":"Gütersloh","type":"Kreis"},"federalState":{"key":"05","name":"Nordrhein-Westfalen"}},{"name":"Nordwall","postalCode":"33378","locality":"Rheda-Wiedenbrück","municipality":{"key":"05754028","name":"Rheda-Wiedenbrück, Stadt","type":"Stadt"},"district":{"key":"05754","name":"Gütersloh","type":"Kreis"},"federalState":{"key":"05","name":"Nordrhein-Westfalen"}},{"name":"Oberwieden","postalCode":"79695","locality":"Wieden","municipality":{"key":"08336096","name":"Wieden","type":"Kreisangehörige_Gemeinde"},"district":{"key":"08336","name":"Lörrach","type":"Landkreis"},"federalState":{"key":"08","name":"Baden-Württemberg"}},{"name":"Oderstr.","postalCode":"33378","locality":"Rheda-Wiedenbrück","municipality":{"key":"05754028","name":"Rheda-Wiedenbrück, Stadt","type":"Stadt"},"district":{"key":"05754","name":"Gütersloh","type":"Kreis"},"federalState":{"key":"05","name":"Nordrhein-Westfalen"}},{"name":"Oelder Str.","postalCode":"33378","locality":"Rheda-Wiedenbrück","municipality":{"key":"05754028","name":"Rheda-Wiedenbrück, Stadt","type":"Stadt"},"district":{"key":"05754","name":"Gütersloh","type":"Kreis"},"federalState":{"key":"05","name":"Nordrhein-Westfalen"}},{"name":"Ortsstr.","postalCode":"79695","locality":"Wieden","municipality":{"key":"08336096","name":"Wieden","type":"Kreisangehörige_Gemeinde"},"district":{"key":"08336","name":"Lörrach","type":"Landkreis"},"federalState":{"key":"08","name":"Baden-Württemberg"}},{"name":"Osnabrücker Ring","postalCode":"33378","locality":"Rheda-Wiedenbrück","municipality":{"key":"05754028","name":"Rheda-Wiedenbrück, Stadt","type":"Stadt"},"district":{"key":"05754","name":"Gütersloh","type":"Kreis"},"federalState":{"key":"05","name":"Nordrhein-Westfalen"}},{"name":"Osnabrücker Weg","postalCode":"33378","locality":"Rheda-Wiedenbrück","municipality":{"key":"05754028","name":"Rheda-Wiedenbrück, Stadt","type":"Stadt"},"district":{"key":"05754","name":"Gütersloh","type":"Kreis"},"federalState":{"key":"05","name":"Nordrhein-Westfalen"}},{"name":"Ostenbergstr.","postalCode":"33378","locality":"Rheda-Wiedenbrück","municipality":{"key":"05754028","name":"Rheda-Wiedenbrück, Stadt","type":"Stadt"},"district":{"key":"05754","name":"Gütersloh","type":"Kreis"},"federalState":{"key":"05","name":"Nordrhein-Westfalen"}},{"name":"Ostenholz","postalCode":"33378","locality":"Rheda-Wiedenbrück","municipality":{"key":"05754028","name":"Rheda-Wiedenbrück, Stadt","type":"Stadt"},"district":{"key":"05754","name":"Gütersloh","type":"Kreis"},"federalState":{"key":"05","name":"Nordrhein-Westfalen"}},{"name":"Ostenstr.","postalCode":"33378","locality":"Rheda-Wiedenbrück","municipality":{"key":"05754028","name":"Rheda-Wiedenbrück, Stadt","type":"Stadt"},"district":{"key":"05754","name":"Gütersloh","type":"Kreis"},"federalState":{"key":"05","name":"Nordrhein-Westfalen"}},{"name":"Ostenwall","postalCode":"33378","locality":"Rheda-Wiedenbrück","municipality":{"key":"05754028","name":"Rheda-Wiedenbrück, Stadt","type":"Stadt"},"district":{"key":"05754","name":"Gütersloh","type":"Kreis"},"federalState":{"key":"05","name":"Nordrhein-Westfalen"}},{"name":"Osterrathstr.","postalCode":"33378","locality":"Rheda-Wiedenbrück","municipality":{"key":"05754028","name":"Rheda-Wiedenbrück, Stadt","type":"Stadt"},"district":{"key":"05754","name":"Gütersloh","type":"Kreis"},"federalState":{"key":"05","name":"Nordrhein-Westfalen"}},{"name":"Ostfalenweg","postalCode":"33378","locality":"Rheda-Wiedenbrück","municipality":{"key":"05754028","name":"Rheda-Wiedenbrück, Stadt","type":"Stadt"},"district":{"key":"05754","name":"Gütersloh","type":"Kreis"},"federalState":{"key":"05","name":"Nordrhein-Westfalen"}},{"name":"Ostmannstr.","postalCode":"33378","locality":"Rheda-Wiedenbrück","municipality":{"key":"05754028","name":"Rheda-Wiedenbrück, Stadt","type":"Stadt"},"district":{"key":"05754","name":"Gütersloh","type":"Kreis"},"federalState":{"key":"05","name":"Nordrhein-Westfalen"}},{"name":"Ostmarkstr.","postalCode":"33378","locality":"Rheda-Wiedenbrück","municipality":{"key":"05754028","name":"Rheda-Wiedenbrück, Stadt","type":"Stadt"},"district":{"key":"05754","name":"Gütersloh","type":"Kreis"},"federalState":{"key":"05","name":"Nordrhein-Westfalen"}},{"name":"Ostpreußenweg","postalCode":"33378","locality":"Rheda-Wiedenbrück","municipality":{"key":"05754028","name":"Rheda-Wiedenbrück, Stadt","type":"Stadt"},"district":{"key":"05754","name":"Gütersloh","type":"Kreis"},"federalState":{"key":"05","name":"Nordrhein-Westfalen"}},{"name":"Ostring","postalCode":"33378","locality":"Rheda-Wiedenbrück","municipality":{"key":"05754028","name":"Rheda-Wiedenbrück, Stadt","type":"Stadt"},"district":{"key":"05754","name":"Gütersloh","type":"Kreis"},"federalState":{"key":"05","name":"Nordrhein-Westfalen"}},{"name":"Parkstr.","postalCode":"33378","locality":"Rheda-Wiedenbrück","municipality":{"key":"05754028","name":"Rheda-Wiedenbrück, Stadt","type":"Stadt"},"district":{"key":"05754","name":"Gütersloh","type":"Kreis"},"federalState":{"key":"05","name":"Nordrhein-Westfalen"}},{"name":"Pater-A.-Schnusenberg-Str.","postalCode":"33378","locality":"Rheda-Wiedenbrück","municipality":{"key":"05754028","name":"Rheda-Wiedenbrück, Stadt","type":"Stadt"},"district":{"key":"05754","name":"Gütersloh","type":"Kreis"},"federalState":{"key":"05","name":"Nordrhein-Westfalen"}},{"name":"Pater-Kilian-Weg","postalCode":"33378","locality":"Rheda-Wiedenbrück","municipality":{"key":"05754028","name":"Rheda-Wiedenbrück, Stadt","type":"Stadt"},"district":{"key":"05754","name":"Gütersloh","type":"Kreis"},"federalState":{"key":"05","name":"Nordrhein-Westfalen"}},{"name":"Patkenbach","postalCode":"33378","locality":"Rheda-Wiedenbrück","municipality":{"key":"05754028","name":"Rheda-Wiedenbrück, Stadt","type":"Stadt"},"district":{"key":"05754","name":"Gütersloh","type":"Kreis"},"federalState":{"key":"05","name":"Nordrhein-Westfalen"}},{"name":"Paul-Schmitz-Str.","postalCode":"33378","locality":"Rheda-Wiedenbrück","municipality":{"key":"05754028","name":"Rheda-Wiedenbrück, Stadt","type":"Stadt"},"district":{"key":"05754","name":"Gütersloh","type":"Kreis"},"federalState":{"key":"05","name":"Nordrhein-Westfalen"}},{"name":"Pestalozziweg","postalCode":"33378","locality":"Rheda-Wiedenbrück","municipality":{"key":"05754028","name":"Rheda-Wiedenbrück, Stadt","type":"Stadt"},"district":{"key":"05754","name":"Gütersloh","type":"Kreis"},"federalState":{"key":"05","name":"Nordrhein-Westfalen"}},{"name":"Petkuserweg","postalCode":"33378","locality":"Rheda-Wiedenbrück","municipality":{"key":"05754028","name":"Rheda-Wiedenbrück, Stadt","type":"Stadt"},"district":{"key":"05754","name":"Gütersloh","type":"Kreis"},"federalState":{"key":"05","name":"Nordrhein-Westfalen"}},{"name":"Pixeler Str.","postalCode":"33378","locality":"Rheda-Wiedenbrück","municipality":{"key":"05754028","name":"Rheda-Wiedenbrück, Stadt","type":"Stadt"},"district":{"key":"05754","name":"Gütersloh","type":"Kreis"},"federalState":{"key":"05","name":"Nordrhein-Westfalen"}},{"name":"Platanenweg","postalCode":"33378","locality":"Rheda-Wiedenbrück","municipality":{"key":"05754028","name":"Rheda-Wiedenbrück, Stadt","type":"Stadt"},"district":{"key":"05754","name":"Gütersloh","type":"Kreis"},"federalState":{"key":"05","name":"Nordrhein-Westfalen"}},{"name":"Pohlmannstr.","postalCode":"33378","locality":"Rheda-Wiedenbrück","municipality":{"key":"05754028","name":"Rheda-Wiedenbrück, Stadt","type":"Stadt"},"district":{"key":"05754","name":"Gütersloh","type":"Kreis"},"federalState":{"key":"05","name":"Nordrhein-Westfalen"}},{"name":"Polliusweg","postalCode":"33378","locality":"Rheda-Wiedenbrück","municipality":{"key":"05754028","name":"Rheda-Wiedenbrück, Stadt","type":"Stadt"},"district":{"key":"05754","name":"Gütersloh","type":"Kreis"},"federalState":{"key":"05","name":"Nordrhein-Westfalen"}},{"name":"Pommernstr.","postalCode":"33378","locality":"Rheda-Wiedenbrück","municipality":{"key":"05754028","name":"Rheda-Wiedenbrück, Stadt","type":"Stadt"},"district":{"key":"05754","name":"Gütersloh","type":"Kreis"},"federalState":{"key":"05","name":"Nordrhein-Westfalen"}},{"name":"Portlandstr.","postalCode":"33378","locality":"Rheda-Wiedenbrück","municipality":{"key":"05754028","name":"Rheda-Wiedenbrück, Stadt","type":"Stadt"},"district":{"key":"05754","name":"Gütersloh","type":"Kreis"},"federalState":{"key":"05","name":"Nordrhein-Westfalen"}},{"name":"Pregelstr.","postalCode":"33378","locality":"Rheda-Wiedenbrück","municipality":{"key":"05754028","name":"Rheda-Wiedenbrück, Stadt","type":"Stadt"},"district":{"key":"05754","name":"Gütersloh","type":"Kreis"},"federalState":{"key":"05","name":"Nordrhein-Westfalen"}},{"name":"Raiffeisenallee","postalCode":"33378","locality":"Rheda-Wiedenbrück","municipality":{"key":"05754028","name":"Rheda-Wiedenbrück, Stadt","type":"Stadt"},"district":{"key":"05754","name":"Gütersloh","type":"Kreis"},"federalState":{"key":"05","name":"Nordrhein-Westfalen"}},{"name":"Ravensberger Holz","postalCode":"33378","locality":"Rheda-Wiedenbrück","municipality":{"key":"05754028","name":"Rheda-Wiedenbrück, Stadt","type":"Stadt"},"district":{"key":"05754","name":"Gütersloh","type":"Kreis"},"federalState":{"key":"05","name":"Nordrhein-Westfalen"}},{"name":"Reichensteiner Str.","postalCode":"33378","locality":"Rheda-Wiedenbrück","municipality":{"key":"05754028","name":"Rheda-Wiedenbrück, Stadt","type":"Stadt"},"district":{"key":"05754","name":"Gütersloh","type":"Kreis"},"federalState":{"key":"05","name":"Nordrhein-Westfalen"}},{"name":"Reinholdstr.","postalCode":"33378","locality":"Rheda-Wiedenbrück","municipality":{"key":"05754028","name":"Rheda-Wiedenbrück, Stadt","type":"Stadt"},"district":{"key":"05754","name":"Gütersloh","type":"Kreis"},"federalState":{"key":"05","name":"Nordrhein-Westfalen"}},{"name":"Reinkenweg","postalCode":"33378","locality":"Rheda-Wiedenbrück","municipality":{"key":"05754028","name":"Rheda-Wiedenbrück, Stadt","type":"Stadt"},"district":{"key":"05754","name":"Gütersloh","type":"Kreis"},"federalState":{"key":"05","name":"Nordrhein-Westfalen"}},{"name":"Reinkenwiese","postalCode":"33378","locality":"Rheda-Wiedenbrück","municipality":{"key":"05754028","name":"Rheda-Wiedenbrück, Stadt","type":"Stadt"},"district":{"key":"05754","name":"Gütersloh","type":"Kreis"},"federalState":{"key":"05","name":"Nordrhein-Westfalen"}},{"name":"Rektoratsstr.","postalCode":"33378","locality":"Rheda-Wiedenbrück","municipality":{"key":"05754028","name":"Rheda-Wiedenbrück, Stadt","type":"Stadt"},"district":{"key":"05754","name":"Gütersloh","type":"Kreis"},"federalState":{"key":"05","name":"Nordrhein-Westfalen"}},{"name":"Rentruper Str.","postalCode":"33378","locality":"Rheda-Wiedenbrück","municipality":{"key":"05754028","name":"Rheda-Wiedenbrück, Stadt","type":"Stadt"},"district":{"key":"05754","name":"Gütersloh","type":"Kreis"},"federalState":{"key":"05","name":"Nordrhein-Westfalen"}},{"name":"Repkestr.","postalCode":"33378","locality":"Rheda-Wiedenbrück","municipality":{"key":"05754028","name":"Rheda-Wiedenbrück, Stadt","type":"Stadt"},"district":{"key":"05754","name":"Gütersloh","type":"Kreis"},"federalState":{"key":"05","name":"Nordrhein-Westfalen"}},{"name":"Reumont-Promenade","postalCode":"33378","locality":"Rheda-Wiedenbrück","municipality":{"key":"05754028","name":"Rheda-Wiedenbrück, Stadt","type":"Stadt"},"district":{"key":"05754","name":"Gütersloh","type":"Kreis"},"federalState":{"key":"05","name":"Nordrhein-Westfalen"}},{"name":"Riemenstr.","postalCode":"31719","locality":"Wiedensahl","municipality":{"key":"03257037","name":"Wiedensahl, Flecken","type":"Kreisangehörige_Gemeinde"},"district":{"key":"03257","name":"Schaumburg","type":"Landkreis"},"federalState":{"key":"03","name":"Niedersachsen"}},{"name":"Rietberger Str.","postalCode":"33378","locality":"Rheda-Wiedenbrück","municipality":{"key":"05754028","name":"Rheda-Wiedenbrück, Stadt","type":"Stadt"},"district":{"key":"05754","name":"Gütersloh","type":"Kreis"},"federalState":{"key":"05","name":"Nordrhein-Westfalen"}},{"name":"Ringstr.","postalCode":"33378","locality":"Rheda-Wiedenbrück","municipality":{"key":"05754028","name":"Rheda-Wiedenbrück, Stadt","type":"Stadt"},"district":{"key":"05754","name":"Gütersloh","type":"Kreis"},"federalState":{"key":"05","name":"Nordrhein-Westfalen"}},{"name":"Robert-Schumann-Str.","postalCode":"33378","locality":"Rheda-Wiedenbrück","municipality":{"key":"05754028","name":"Rheda-Wiedenbrück, Stadt","type":"Stadt"},"district":{"key":"05754","name":"Gütersloh","type":"Kreis"},"federalState":{"key":"05","name":"Nordrhein-Westfalen"}},{"name":"Röckinghausener Str.","postalCode":"33378","locality":"Rheda-Wiedenbrück","municipality":{"key":"05754028","name":"Rheda-Wiedenbrück, Stadt","type":"Stadt"},"district":{"key":"05754","name":"Gütersloh","type":"Kreis"},"federalState":{"key":"05","name":"Nordrhein-Westfalen"}},{"name":"Roggestr.","postalCode":"33378","locality":"Rheda-Wiedenbrück","municipality":{"key":"05754028","name":"Rheda-Wiedenbrück, Stadt","type":"Stadt"},"district":{"key":"05754","name":"Gütersloh","type":"Kreis"},"federalState":{"key":"05","name":"Nordrhein-Westfalen"}},{"name":"Roidkinstr.","postalCode":"33378","locality":"Rheda-Wiedenbrück","municipality":{"key":"05754028","name":"Rheda-Wiedenbrück, Stadt","type":"Stadt"},"district":{"key":"05754","name":"Gütersloh","type":"Kreis"},"federalState":{"key":"05","name":"Nordrhein-Westfalen"}},{"name":"Rosengarten","postalCode":"33378","locality":"Rheda-Wiedenbrück","municipality":{"key":"05754028","name":"Rheda-Wiedenbrück, Stadt","type":"Stadt"},"district":{"key":"05754","name":"Gütersloh","type":"Kreis"},"federalState":{"key":"05","name":"Nordrhein-Westfalen"}},{"name":"Rosenkamp","postalCode":"31719","locality":"Wiedensahl","municipality":{"key":"03257037","name":"Wiedensahl, Flecken","type":"Kreisangehörige_Gemeinde"},"district":{"key":"03257","name":"Schaumburg","type":"Landkreis"},"federalState":{"key":"03","name":"Niedersachsen"}},{"name":"Rosenweg","postalCode":"33378","locality":"Rheda-Wiedenbrück","municipality":{"key":"05754028","name":"Rheda-Wiedenbrück, Stadt","type":"Stadt"},"district":{"key":"05754","name":"Gütersloh","type":"Kreis"},"federalState":{"key":"05","name":"Nordrhein-Westfalen"}},{"name":"Rotdornallee","postalCode":"33378","locality":"Rheda-Wiedenbrück","municipality":{"key":"05754028","name":"Rheda-Wiedenbrück, Stadt","type":"Stadt"},"district":{"key":"05754","name":"Gütersloh","type":"Kreis"},"federalState":{"key":"05","name":"Nordrhein-Westfalen"}},{"name":"Röttekenstr.","postalCode":"33378","locality":"Rheda-Wiedenbrück","municipality":{"key":"05754028","name":"Rheda-Wiedenbrück, Stadt","type":"Stadt"},"district":{"key":"05754","name":"Gütersloh","type":"Kreis"},"federalState":{"key":"05","name":"Nordrhein-Westfalen"}},{"name":"Ruhrstr.","postalCode":"33378","locality":"Rheda-Wiedenbrück","municipality":{"key":"05754028","name":"Rheda-Wiedenbrück, Stadt","type":"Stadt"},"district":{"key":"05754","name":"Gütersloh","type":"Kreis"},"federalState":{"key":"05","name":"Nordrhein-Westfalen"}},{"name":"Rütte","postalCode":"79695","locality":"Wieden","municipality":{"key":"08336096","name":"Wieden","type":"Kreisangehörige_Gemeinde"},"district":{"key":"08336","name":"Lörrach","type":"Landkreis"},"federalState":{"key":"08","name":"Baden-Württemberg"}},{"name":"Rütte 11-14","postalCode":"79695","locality":"Wieden","municipality":{"key":"08336096","name":"Wieden","type":"Kreisangehörige_Gemeinde"},"district":{"key":"08336","name":"Lörrach","type":"Landkreis"},"federalState":{"key":"08","name":"Baden-Württemberg"}},{"name":"Saalestr.","postalCode":"33378","locality":"Rheda-Wiedenbrück","municipality":{"key":"05754028","name":"Rheda-Wiedenbrück, Stadt","type":"Stadt"},"district":{"key":"05754","name":"Gütersloh","type":"Kreis"},"federalState":{"key":"05","name":"Nordrhein-Westfalen"}},{"name":"Saarstr.","postalCode":"33378","locality":"Rheda-Wiedenbrück","municipality":{"key":"05754028","name":"Rheda-Wiedenbrück, Stadt","type":"Stadt"},"district":{"key":"05754","name":"Gütersloh","type":"Kreis"},"federalState":{"key":"05","name":"Nordrhein-Westfalen"}},{"name":"Sachsenweg","postalCode":"33378","locality":"Rheda-Wiedenbrück","municipality":{"key":"05754028","name":"Rheda-Wiedenbrück, Stadt","type":"Stadt"},"district":{"key":"05754","name":"Gütersloh","type":"Kreis"},"federalState":{"key":"05","name":"Nordrhein-Westfalen"}},{"name":"Säge","postalCode":"79695","locality":"Wieden","municipality":{"key":"08336096","name":"Wieden","type":"Kreisangehörige_Gemeinde"},"district":{"key":"08336","name":"Lörrach","type":"Landkreis"},"federalState":{"key":"08","name":"Baden-Württemberg"}},{"name":"Salzburger Str.","postalCode":"33378","locality":"Rheda-Wiedenbrück","municipality":{"key":"05754028","name":"Rheda-Wiedenbrück, Stadt","type":"Stadt"},"district":{"key":"05754","name":"Gütersloh","type":"Kreis"},"federalState":{"key":"05","name":"Nordrhein-Westfalen"}},{"name":"Sandweg","postalCode":"33378","locality":"Rheda-Wiedenbrück","municipality":{"key":"05754028","name":"Rheda-Wiedenbrück, Stadt","type":"Stadt"},"district":{"key":"05754","name":"Gütersloh","type":"Kreis"},"federalState":{"key":"05","name":"Nordrhein-Westfalen"}},{"name":"Schäferstr.","postalCode":"33378","locality":"Rheda-Wiedenbrück","municipality":{"key":"05754028","name":"Rheda-Wiedenbrück, Stadt","type":"Stadt"},"district":{"key":"05754","name":"Gütersloh","type":"Kreis"},"federalState":{"key":"05","name":"Nordrhein-Westfalen"}},{"name":"Schafstallstr.","postalCode":"33378","locality":"Rheda-Wiedenbrück","municipality":{"key":"05754028","name":"Rheda-Wiedenbrück, Stadt","type":"Stadt"},"district":{"key":"05754","name":"Gütersloh","type":"Kreis"},"federalState":{"key":"05","name":"Nordrhein-Westfalen"}},{"name":"Schierenbrink","postalCode":"31719","locality":"Wiedensahl","municipality":{"key":"03257037","name":"Wiedensahl, Flecken","type":"Kreisangehörige_Gemeinde"},"district":{"key":"03257","name":"Schaumburg","type":"Landkreis"},"federalState":{"key":"03","name":"Niedersachsen"}},{"name":"Schillerstr.","postalCode":"33378","locality":"Rheda-Wiedenbrück","municipality":{"key":"05754028","name":"Rheda-Wiedenbrück, Stadt","type":"Stadt"},"district":{"key":"05754","name":"Gütersloh","type":"Kreis"},"federalState":{"key":"05","name":"Nordrhein-Westfalen"}},{"name":"Schlehenweg","postalCode":"33378","locality":"Rheda-Wiedenbrück","municipality":{"key":"05754028","name":"Rheda-Wiedenbrück, Stadt","type":"Stadt"},"district":{"key":"05754","name":"Gütersloh","type":"Kreis"},"federalState":{"key":"05","name":"Nordrhein-Westfalen"}},{"name":"Schlesierstr.","postalCode":"33378","locality":"Rheda-Wiedenbrück","municipality":{"key":"05754028","name":"Rheda-Wiedenbrück, Stadt","type":"Stadt"},"district":{"key":"05754","name":"Gütersloh","type":"Kreis"},"federalState":{"key":"05","name":"Nordrhein-Westfalen"}},{"name":"Schlickbreede","postalCode":"33378","locality":"Rheda-Wiedenbrück","municipality":{"key":"05754028","name":"Rheda-Wiedenbrück, Stadt","type":"Stadt"},"district":{"key":"05754","name":"Gütersloh","type":"Kreis"},"federalState":{"key":"05","name":"Nordrhein-Westfalen"}},{"name":"Schlickbruch","postalCode":"33378","locality":"Rheda-Wiedenbrück","municipality":{"key":"05754028","name":"Rheda-Wiedenbrück, Stadt","type":"Stadt"},"district":{"key":"05754","name":"Gütersloh","type":"Kreis"},"federalState":{"key":"05","name":"Nordrhein-Westfalen"}},{"name":"Schlossgarten","postalCode":"33378","locality":"Rheda-Wiedenbrück","municipality":{"key":"05754028","name":"Rheda-Wiedenbrück, Stadt","type":"Stadt"},"district":{"key":"05754","name":"Gütersloh","type":"Kreis"},"federalState":{"key":"05","name":"Nordrhein-Westfalen"}},{"name":"Schloßstr.","postalCode":"33378","locality":"Rheda-Wiedenbrück","municipality":{"key":"05754028","name":"Rheda-Wiedenbrück, Stadt","type":"Stadt"},"district":{"key":"05754","name":"Gütersloh","type":"Kreis"},"federalState":{"key":"05","name":"Nordrhein-Westfalen"}},{"name":"Schmalenbergstr.","postalCode":"33378","locality":"Rheda-Wiedenbrück","municipality":{"key":"05754028","name":"Rheda-Wiedenbrück, Stadt","type":"Stadt"},"district":{"key":"05754","name":"Gütersloh","type":"Kreis"},"federalState":{"key":"05","name":"Nordrhein-Westfalen"}},{"name":"Schmale Str.","postalCode":"33378","locality":"Rheda-Wiedenbrück","municipality":{"key":"05754028","name":"Rheda-Wiedenbrück, Stadt","type":"Stadt"},"district":{"key":"05754","name":"Gütersloh","type":"Kreis"},"federalState":{"key":"05","name":"Nordrhein-Westfalen"}},{"name":"Schmeerplatzweg","postalCode":"33378","locality":"Rheda-Wiedenbrück","municipality":{"key":"05754028","name":"Rheda-Wiedenbrück, Stadt","type":"Stadt"},"district":{"key":"05754","name":"Gütersloh","type":"Kreis"},"federalState":{"key":"05","name":"Nordrhein-Westfalen"}},{"name":"Schmiedestr.","postalCode":"33378","locality":"Rheda-Wiedenbrück","municipality":{"key":"05754028","name":"Rheda-Wiedenbrück, Stadt","type":"Stadt"},"district":{"key":"05754","name":"Gütersloh","type":"Kreis"},"federalState":{"key":"05","name":"Nordrhein-Westfalen"}},{"name":"Schnatweg","postalCode":"33378","locality":"Rheda-Wiedenbrück","municipality":{"key":"05754028","name":"Rheda-Wiedenbrück, Stadt","type":"Stadt"},"district":{"key":"05754","name":"Gütersloh","type":"Kreis"},"federalState":{"key":"05","name":"Nordrhein-Westfalen"}},{"name":"Schneiderstr.","postalCode":"33378","locality":"Rheda-Wiedenbrück","municipality":{"key":"05754028","name":"Rheda-Wiedenbrück, Stadt","type":"Stadt"},"district":{"key":"05754","name":"Gütersloh","type":"Kreis"},"federalState":{"key":"05","name":"Nordrhein-Westfalen"}},{"name":"Schönhofstr.","postalCode":"33378","locality":"Rheda-Wiedenbrück","municipality":{"key":"05754028","name":"Rheda-Wiedenbrück, Stadt","type":"Stadt"},"district":{"key":"05754","name":"Gütersloh","type":"Kreis"},"federalState":{"key":"05","name":"Nordrhein-Westfalen"}},{"name":"Schorlemer Weg","postalCode":"33378","locality":"Rheda-Wiedenbrück","municipality":{"key":"05754028","name":"Rheda-Wiedenbrück, Stadt","type":"Stadt"},"district":{"key":"05754","name":"Gütersloh","type":"Kreis"},"federalState":{"key":"05","name":"Nordrhein-Westfalen"}},{"name":"Schreinerstr.","postalCode":"33378","locality":"Rheda-Wiedenbrück","municipality":{"key":"05754028","name":"Rheda-Wiedenbrück, Stadt","type":"Stadt"},"district":{"key":"05754","name":"Gütersloh","type":"Kreis"},"federalState":{"key":"05","name":"Nordrhein-Westfalen"}},{"name":"Schröderstr.","postalCode":"33378","locality":"Rheda-Wiedenbrück","municipality":{"key":"05754028","name":"Rheda-Wiedenbrück, Stadt","type":"Stadt"},"district":{"key":"05754","name":"Gütersloh","type":"Kreis"},"federalState":{"key":"05","name":"Nordrhein-Westfalen"}},{"name":"Schubertallee","postalCode":"33378","locality":"Rheda-Wiedenbrück","municipality":{"key":"05754028","name":"Rheda-Wiedenbrück, Stadt","type":"Stadt"},"district":{"key":"05754","name":"Gütersloh","type":"Kreis"},"federalState":{"key":"05","name":"Nordrhein-Westfalen"}},{"name":"Schulbach","postalCode":"33378","locality":"Rheda-Wiedenbrück","municipality":{"key":"05754028","name":"Rheda-Wiedenbrück, Stadt","type":"Stadt"},"district":{"key":"05754","name":"Gütersloh","type":"Kreis"},"federalState":{"key":"05","name":"Nordrhein-Westfalen"}},{"name":"Schulbusch","postalCode":"33378","locality":"Rheda-Wiedenbrück","municipality":{"key":"05754028","name":"Rheda-Wiedenbrück, Stadt","type":"Stadt"},"district":{"key":"05754","name":"Gütersloh","type":"Kreis"},"federalState":{"key":"05","name":"Nordrhein-Westfalen"}},{"name":"Schulstr.","postalCode":"33378","locality":"Rheda-Wiedenbrück","municipality":{"key":"05754028","name":"Rheda-Wiedenbrück, Stadt","type":"Stadt"},"district":{"key":"05754","name":"Gütersloh","type":"Kreis"},"federalState":{"key":"05","name":"Nordrhein-Westfalen"}},{"name":"Schulstr.","postalCode":"66894","locality":"Langwieden","municipality":{"key":"07335202","name":"Langwieden","type":"Kreisangehörige_Gemeinde"},"district":{"key":"07335","name":"Kaiserslautern","type":"Landkreis"},"federalState":{"key":"07","name":"Rheinland-Pfalz"}},{"name":"Schulte-Mönting-Str.","postalCode":"33378","locality":"Rheda-Wiedenbrück","municipality":{"key":"05754028","name":"Rheda-Wiedenbrück, Stadt","type":"Stadt"},"district":{"key":"05754","name":"Gütersloh","type":"Kreis"},"federalState":{"key":"05","name":"Nordrhein-Westfalen"}},{"name":"Schützenstr.","postalCode":"31719","locality":"Wiedensahl","municipality":{"key":"03257037","name":"Wiedensahl, Flecken","type":"Kreisangehörige_Gemeinde"},"district":{"key":"03257","name":"Schaumburg","type":"Landkreis"},"federalState":{"key":"03","name":"Niedersachsen"}},{"name":"Schwalbenweg","postalCode":"33378","locality":"Rheda-Wiedenbrück","municipality":{"key":"05754028","name":"Rheda-Wiedenbrück, Stadt","type":"Stadt"},"district":{"key":"05754","name":"Gütersloh","type":"Kreis"},"federalState":{"key":"05","name":"Nordrhein-Westfalen"}},{"name":"Schwarzer Weg","postalCode":"33378","locality":"Rheda-Wiedenbrück","municipality":{"key":"05754028","name":"Rheda-Wiedenbrück, Stadt","type":"Stadt"},"district":{"key":"05754","name":"Gütersloh","type":"Kreis"},"federalState":{"key":"05","name":"Nordrhein-Westfalen"}},{"name":"Schwengerstr.","postalCode":"33378","locality":"Rheda-Wiedenbrück","municipality":{"key":"05754028","name":"Rheda-Wiedenbrück, Stadt","type":"Stadt"},"district":{"key":"05754","name":"Gütersloh","type":"Kreis"},"federalState":{"key":"05","name":"Nordrhein-Westfalen"}},{"name":"Schwenkelstr.","postalCode":"33378","locality":"Rheda-Wiedenbrück","municipality":{"key":"05754028","name":"Rheda-Wiedenbrück, Stadt","type":"Stadt"},"district":{"key":"05754","name":"Gütersloh","type":"Kreis"},"federalState":{"key":"05","name":"Nordrhein-Westfalen"}},{"name":"Sebastianstr.","postalCode":"33378","locality":"Rheda-Wiedenbrück","municipality":{"key":"05754028","name":"Rheda-Wiedenbrück, Stadt","type":"Stadt"},"district":{"key":"05754","name":"Gütersloh","type":"Kreis"},"federalState":{"key":"05","name":"Nordrhein-Westfalen"}},{"name":"Seilerstr.","postalCode":"33378","locality":"Rheda-Wiedenbrück","municipality":{"key":"05754028","name":"Rheda-Wiedenbrück, Stadt","type":"Stadt"},"district":{"key":"05754","name":"Gütersloh","type":"Kreis"},"federalState":{"key":"05","name":"Nordrhein-Westfalen"}},{"name":"Sieboldstr.","postalCode":"33378","locality":"Rheda-Wiedenbrück","municipality":{"key":"05754028","name":"Rheda-Wiedenbrück, Stadt","type":"Stadt"},"district":{"key":"05754","name":"Gütersloh","type":"Kreis"},"federalState":{"key":"05","name":"Nordrhein-Westfalen"}},{"name":"Siechenstr.","postalCode":"33378","locality":"Rheda-Wiedenbrück","municipality":{"key":"05754028","name":"Rheda-Wiedenbrück, Stadt","type":"Stadt"},"district":{"key":"05754","name":"Gütersloh","type":"Kreis"},"federalState":{"key":"05","name":"Nordrhein-Westfalen"}},{"name":"Sonnenkamp","postalCode":"33378","locality":"Rheda-Wiedenbrück","municipality":{"key":"05754028","name":"Rheda-Wiedenbrück, Stadt","type":"Stadt"},"district":{"key":"05754","name":"Gütersloh","type":"Kreis"},"federalState":{"key":"05","name":"Nordrhein-Westfalen"}},{"name":"Sonnhalde","postalCode":"79695","locality":"Wieden","municipality":{"key":"08336096","name":"Wieden","type":"Kreisangehörige_Gemeinde"},"district":{"key":"08336","name":"Lörrach","type":"Landkreis"},"federalState":{"key":"08","name":"Baden-Württemberg"}},{"name":"Sperberweg","postalCode":"33378","locality":"Rheda-Wiedenbrück","municipality":{"key":"05754028","name":"Rheda-Wiedenbrück, Stadt","type":"Stadt"},"district":{"key":"05754","name":"Gütersloh","type":"Kreis"},"federalState":{"key":"05","name":"Nordrhein-Westfalen"}},{"name":"Spitzdobelweg","postalCode":"79695","locality":"Wieden","municipality":{"key":"08336096","name":"Wieden","type":"Kreisangehörige_Gemeinde"},"district":{"key":"08336","name":"Lörrach","type":"Landkreis"},"federalState":{"key":"08","name":"Baden-Württemberg"}},{"name":"Spreestr.","postalCode":"33378","locality":"Rheda-Wiedenbrück","municipality":{"key":"05754028","name":"Rheda-Wiedenbrück, Stadt","type":"Stadt"},"district":{"key":"05754","name":"Gütersloh","type":"Kreis"},"federalState":{"key":"05","name":"Nordrhein-Westfalen"}},{"name":"Staudachweg","postalCode":"33378","locality":"Rheda-Wiedenbrück","municipality":{"key":"05754028","name":"Rheda-Wiedenbrück, Stadt","type":"Stadt"},"district":{"key":"05754","name":"Gütersloh","type":"Kreis"},"federalState":{"key":"05","name":"Nordrhein-Westfalen"}},{"name":"Steinbrinkstr.","postalCode":"33378","locality":"Rheda-Wiedenbrück","municipality":{"key":"05754028","name":"Rheda-Wiedenbrück, Stadt","type":"Stadt"},"district":{"key":"05754","name":"Gütersloh","type":"Kreis"},"federalState":{"key":"05","name":"Nordrhein-Westfalen"}},{"name":"Steinbühl","postalCode":"79695","locality":"Wieden","municipality":{"key":"08336096","name":"Wieden","type":"Kreisangehörige_Gemeinde"},"district":{"key":"08336","name":"Lörrach","type":"Landkreis"},"federalState":{"key":"08","name":"Baden-Württemberg"}},{"name":"Steinkamp","postalCode":"31719","locality":"Wiedensahl","municipality":{"key":"03257037","name":"Wiedensahl, Flecken","type":"Kreisangehörige_Gemeinde"},"district":{"key":"03257","name":"Schaumburg","type":"Landkreis"},"federalState":{"key":"03","name":"Niedersachsen"}},{"name":"Tannenweg","postalCode":"33378","locality":"Rheda-Wiedenbrück","municipality":{"key":"05754028","name":"Rheda-Wiedenbrück, Stadt","type":"Stadt"},"district":{"key":"05754","name":"Gütersloh","type":"Kreis"},"federalState":{"key":"05","name":"Nordrhein-Westfalen"}},{"name":"Tecklenborgstr.","postalCode":"33378","locality":"Rheda-Wiedenbrück","municipality":{"key":"05754028","name":"Rheda-Wiedenbrück, Stadt","type":"Stadt"},"district":{"key":"05754","name":"Gütersloh","type":"Kreis"},"federalState":{"key":"05","name":"Nordrhein-Westfalen"}},{"name":"Teutonenweg","postalCode":"33378","locality":"Rheda-Wiedenbrück","municipality":{"key":"05754028","name":"Rheda-Wiedenbrück, Stadt","type":"Stadt"},"district":{"key":"05754","name":"Gütersloh","type":"Kreis"},"federalState":{"key":"05","name":"Nordrhein-Westfalen"}},{"name":"Theodor-Storm-Str.","postalCode":"33378","locality":"Rheda-Wiedenbrück","municipality":{"key":"05754028","name":"Rheda-Wiedenbrück, Stadt","type":"Stadt"},"district":{"key":"05754","name":"Gütersloh","type":"Kreis"},"federalState":{"key":"05","name":"Nordrhein-Westfalen"}},{"name":"Thomestr.","postalCode":"33378","locality":"Rheda-Wiedenbrück","municipality":{"key":"05754028","name":"Rheda-Wiedenbrück, Stadt","type":"Stadt"},"district":{"key":"05754","name":"Gütersloh","type":"Kreis"},"federalState":{"key":"05","name":"Nordrhein-Westfalen"}},{"name":"Tonweg","postalCode":"33378","locality":"Rheda-Wiedenbrück","municipality":{"key":"05754028","name":"Rheda-Wiedenbrück, Stadt","type":"Stadt"},"district":{"key":"05754","name":"Gütersloh","type":"Kreis"},"federalState":{"key":"05","name":"Nordrhein-Westfalen"}},{"name":"Torfweg","postalCode":"33378","locality":"Rheda-Wiedenbrück","municipality":{"key":"05754028","name":"Rheda-Wiedenbrück, Stadt","type":"Stadt"},"district":{"key":"05754","name":"Gütersloh","type":"Kreis"},"federalState":{"key":"05","name":"Nordrhein-Westfalen"}},{"name":"Trakehner Str.","postalCode":"33378","locality":"Rheda-Wiedenbrück","municipality":{"key":"05754028","name":"Rheda-Wiedenbrück, Stadt","type":"Stadt"},"district":{"key":"05754","name":"Gütersloh","type":"Kreis"},"federalState":{"key":"05","name":"Nordrhein-Westfalen"}},{"name":"Triftstr.","postalCode":"33378","locality":"Rheda-Wiedenbrück","municipality":{"key":"05754028","name":"Rheda-Wiedenbrück, Stadt","type":"Stadt"},"district":{"key":"05754","name":"Gütersloh","type":"Kreis"},"federalState":{"key":"05","name":"Nordrhein-Westfalen"}},{"name":"Tulpenweg","postalCode":"33378","locality":"Rheda-Wiedenbrück","municipality":{"key":"05754028","name":"Rheda-Wiedenbrück, Stadt","type":"Stadt"},"district":{"key":"05754","name":"Gütersloh","type":"Kreis"},"federalState":{"key":"05","name":"Nordrhein-Westfalen"}},{"name":"Twiehüserweg","postalCode":"33378","locality":"Rheda-Wiedenbrück","municipality":{"key":"05754028","name":"Rheda-Wiedenbrück, Stadt","type":"Stadt"},"district":{"key":"05754","name":"Gütersloh","type":"Kreis"},"federalState":{"key":"05","name":"Nordrhein-Westfalen"}},{"name":"Ulmenweg","postalCode":"33378","locality":"Rheda-Wiedenbrück","municipality":{"key":"05754028","name":"Rheda-Wiedenbrück, Stadt","type":"Stadt"},"district":{"key":"05754","name":"Gütersloh","type":"Kreis"},"federalState":{"key":"05","name":"Nordrhein-Westfalen"}},{"name":"Ungendwieden","postalCode":"79695","locality":"Wieden","municipality":{"key":"08336096","name":"Wieden","type":"Kreisangehörige_Gemeinde"},"district":{"key":"08336","name":"Lörrach","type":"Landkreis"},"federalState":{"key":"08","name":"Baden-Württemberg"}},{"name":"Ursulastr.","postalCode":"33378","locality":"Rheda-Wiedenbrück","municipality":{"key":"05754028","name":"Rheda-Wiedenbrück, Stadt","type":"Stadt"},"district":{"key":"05754","name":"Gütersloh","type":"Kreis"},"federalState":{"key":"05","name":"Nordrhein-Westfalen"}},{"name":"Varenseller Str.","postalCode":"33378","locality":"Rheda-Wiedenbrück","municipality":{"key":"05754028","name":"Rheda-Wiedenbrück, Stadt","type":"Stadt"},"district":{"key":"05754","name":"Gütersloh","type":"Kreis"},"federalState":{"key":"05","name":"Nordrhein-Westfalen"}},{"name":"Veilchenweg","postalCode":"33378","locality":"Rheda-Wiedenbrück","municipality":{"key":"05754028","name":"Rheda-Wiedenbrück, Stadt","type":"Stadt"},"district":{"key":"05754","name":"Gütersloh","type":"Kreis"},"federalState":{"key":"05","name":"Nordrhein-Westfalen"}},{"name":"Vielenbergstr.","postalCode":"33378","locality":"Rheda-Wiedenbrück","municipality":{"key":"05754028","name":"Rheda-Wiedenbrück, Stadt","type":"Stadt"},"district":{"key":"05754","name":"Gütersloh","type":"Kreis"},"federalState":{"key":"05","name":"Nordrhein-Westfalen"}},{"name":"Vietingstr.","postalCode":"33378","locality":"Rheda-Wiedenbrück","municipality":{"key":"05754028","name":"Rheda-Wiedenbrück, Stadt","type":"Stadt"},"district":{"key":"05754","name":"Gütersloh","type":"Kreis"},"federalState":{"key":"05","name":"Nordrhein-Westfalen"}},{"name":"Virchowstr.","postalCode":"33378","locality":"Rheda-Wiedenbrück","municipality":{"key":"05754028","name":"Rheda-Wiedenbrück, Stadt","type":"Stadt"},"district":{"key":"05754","name":"Gütersloh","type":"Kreis"},"federalState":{"key":"05","name":"Nordrhein-Westfalen"}},{"name":"Vitusstr.","postalCode":"33378","locality":"Rheda-Wiedenbrück","municipality":{"key":"05754028","name":"Rheda-Wiedenbrück, Stadt","type":"Stadt"},"district":{"key":"05754","name":"Gütersloh","type":"Kreis"},"federalState":{"key":"05","name":"Nordrhein-Westfalen"}},{"name":"Vogelsangstr.","postalCode":"33378","locality":"Rheda-Wiedenbrück","municipality":{"key":"05754028","name":"Rheda-Wiedenbrück, Stadt","type":"Stadt"},"district":{"key":"05754","name":"Gütersloh","type":"Kreis"},"federalState":{"key":"05","name":"Nordrhein-Westfalen"}},{"name":"Volmaristr.","postalCode":"33378","locality":"Rheda-Wiedenbrück","municipality":{"key":"05754028","name":"Rheda-Wiedenbrück, Stadt","type":"Stadt"},"district":{"key":"05754","name":"Gütersloh","type":"Kreis"},"federalState":{"key":"05","name":"Nordrhein-Westfalen"}},{"name":"Von-Bodelschwingh-Str.","postalCode":"33378","locality":"Rheda-Wiedenbrück","municipality":{"key":"05754028","name":"Rheda-Wiedenbrück, Stadt","type":"Stadt"},"district":{"key":"05754","name":"Gütersloh","type":"Kreis"},"federalState":{"key":"05","name":"Nordrhein-Westfalen"}},{"name":"Von-Galen-Str.","postalCode":"33378","locality":"Rheda-Wiedenbrück","municipality":{"key":"05754028","name":"Rheda-Wiedenbrück, Stadt","type":"Stadt"},"district":{"key":"05754","name":"Gütersloh","type":"Kreis"},"federalState":{"key":"05","name":"Nordrhein-Westfalen"}},{"name":"Von-Hardenberg-Str.","postalCode":"33378","locality":"Rheda-Wiedenbrück","municipality":{"key":"05754028","name":"Rheda-Wiedenbrück, Stadt","type":"Stadt"},"district":{"key":"05754","name":"Gütersloh","type":"Kreis"},"federalState":{"key":"05","name":"Nordrhein-Westfalen"}},{"name":"Von-Willen-Str.","postalCode":"33378","locality":"Rheda-Wiedenbrück","municipality":{"key":"05754028","name":"Rheda-Wiedenbrück, Stadt","type":"Stadt"},"district":{"key":"05754","name":"Gütersloh","type":"Kreis"},"federalState":{"key":"05","name":"Nordrhein-Westfalen"}},{"name":"Wacholderweg","postalCode":"33378","locality":"Rheda-Wiedenbrück","municipality":{"key":"05754028","name":"Rheda-Wiedenbrück, Stadt","type":"Stadt"},"district":{"key":"05754","name":"Gütersloh","type":"Kreis"},"federalState":{"key":"05","name":"Nordrhein-Westfalen"}},{"name":"Wagnerstr.","postalCode":"33378","locality":"Rheda-Wiedenbrück","municipality":{"key":"05754028","name":"Rheda-Wiedenbrück, Stadt","type":"Stadt"},"district":{"key":"05754","name":"Gütersloh","type":"Kreis"},"federalState":{"key":"05","name":"Nordrhein-Westfalen"}},{"name":"Waldenburger Str.","postalCode":"33378","locality":"Rheda-Wiedenbrück","municipality":{"key":"05754028","name":"Rheda-Wiedenbrück, Stadt","type":"Stadt"},"district":{"key":"05754","name":"Gütersloh","type":"Kreis"},"federalState":{"key":"05","name":"Nordrhein-Westfalen"}},{"name":"Waldstr.","postalCode":"33378","locality":"Rheda-Wiedenbrück","municipality":{"key":"05754028","name":"Rheda-Wiedenbrück, Stadt","type":"Stadt"},"district":{"key":"05754","name":"Gütersloh","type":"Kreis"},"federalState":{"key":"05","name":"Nordrhein-Westfalen"}},{"name":"Walrawenweg","postalCode":"33378","locality":"Rheda-Wiedenbrück","municipality":{"key":"05754028","name":"Rheda-Wiedenbrück, Stadt","type":"Stadt"},"district":{"key":"05754","name":"Gütersloh","type":"Kreis"},"federalState":{"key":"05","name":"Nordrhein-Westfalen"}},{"name":"Warbach","postalCode":"79695","locality":"Wieden","municipality":{"key":"08336096","name":"Wieden","type":"Kreisangehörige_Gemeinde"},"district":{"key":"08336","name":"Lörrach","type":"Landkreis"},"federalState":{"key":"08","name":"Baden-Württemberg"}},{"name":"Wartenbergstr.","postalCode":"33378","locality":"Rheda-Wiedenbrück","municipality":{"key":"05754028","name":"Rheda-Wiedenbrück, Stadt","type":"Stadt"},"district":{"key":"05754","name":"Gütersloh","type":"Kreis"},"federalState":{"key":"05","name":"Nordrhein-Westfalen"}},{"name":"Wasserforthstr.","postalCode":"33378","locality":"Rheda-Wiedenbrück","municipality":{"key":"05754028","name":"Rheda-Wiedenbrück, Stadt","type":"Stadt"},"district":{"key":"05754","name":"Gütersloh","type":"Kreis"},"federalState":{"key":"05","name":"Nordrhein-Westfalen"}},{"name":"Wasserkampstr.","postalCode":"33378","locality":"Rheda-Wiedenbrück","municipality":{"key":"05754028","name":"Rheda-Wiedenbrück, Stadt","type":"Stadt"},"district":{"key":"05754","name":"Gütersloh","type":"Kreis"},"federalState":{"key":"05","name":"Nordrhein-Westfalen"}},{"name":"Wasserstr.","postalCode":"33378","locality":"Rheda-Wiedenbrück","municipality":{"key":"05754028","name":"Rheda-Wiedenbrück, Stadt","type":"Stadt"},"district":{"key":"05754","name":"Gütersloh","type":"Kreis"},"federalState":{"key":"05","name":"Nordrhein-Westfalen"}},{"name":"Wehmland","postalCode":"31719","locality":"Wiedensahl","municipality":{"key":"03257037","name":"Wiedensahl, Flecken","type":"Kreisangehörige_Gemeinde"},"district":{"key":"03257","name":"Schaumburg","type":"Landkreis"},"federalState":{"key":"03","name":"Niedersachsen"}},{"name":"Weichselstr.","postalCode":"33378","locality":"Rheda-Wiedenbrück","municipality":{"key":"05754028","name":"Rheda-Wiedenbrück, Stadt","type":"Stadt"},"district":{"key":"05754","name":"Gütersloh","type":"Kreis"},"federalState":{"key":"05","name":"Nordrhein-Westfalen"}},{"name":"Weidenweg","postalCode":"33378","locality":"Rheda-Wiedenbrück","municipality":{"key":"05754028","name":"Rheda-Wiedenbrück, Stadt","type":"Stadt"},"district":{"key":"05754","name":"Gütersloh","type":"Kreis"},"federalState":{"key":"05","name":"Nordrhein-Westfalen"}},{"name":"Weilerweg","postalCode":"33378","locality":"Rheda-Wiedenbrück","municipality":{"key":"05754028","name":"Rheda-Wiedenbrück, Stadt","type":"Stadt"},"district":{"key":"05754","name":"Gütersloh","type":"Kreis"},"federalState":{"key":"05","name":"Nordrhein-Westfalen"}},{"name":"Wendtstr.","postalCode":"33378","locality":"Rheda-Wiedenbrück","municipality":{"key":"05754028","name":"Rheda-Wiedenbrück, Stadt","type":"Stadt"},"district":{"key":"05754","name":"Gütersloh","type":"Kreis"},"federalState":{"key":"05","name":"Nordrhein-Westfalen"}},{"name":"Wenneberstr.","postalCode":"33378","locality":"Rheda-Wiedenbrück","municipality":{"key":"05754028","name":"Rheda-Wiedenbrück, Stadt","type":"Stadt"},"district":{"key":"05754","name":"Gütersloh","type":"Kreis"},"federalState":{"key":"05","name":"Nordrhein-Westfalen"}},{"name":"Werrastr.","postalCode":"33378","locality":"Rheda-Wiedenbrück","municipality":{"key":"05754028","name":"Rheda-Wiedenbrück, Stadt","type":"Stadt"},"district":{"key":"05754","name":"Gütersloh","type":"Kreis"},"federalState":{"key":"05","name":"Nordrhein-Westfalen"}},{"name":"Weserstr.","postalCode":"33378","locality":"Rheda-Wiedenbrück","municipality":{"key":"05754028","name":"Rheda-Wiedenbrück, Stadt","type":"Stadt"},"district":{"key":"05754","name":"Gütersloh","type":"Kreis"},"federalState":{"key":"05","name":"Nordrhein-Westfalen"}},{"name":"Westfalenweg","postalCode":"33378","locality":"Rheda-Wiedenbrück","municipality":{"key":"05754028","name":"Rheda-Wiedenbrück, Stadt","type":"Stadt"},"district":{"key":"05754","name":"Gütersloh","type":"Kreis"},"federalState":{"key":"05","name":"Nordrhein-Westfalen"}},{"name":"Westpreußenweg","postalCode":"33378","locality":"Rheda-Wiedenbrück","municipality":{"key":"05754028","name":"Rheda-Wiedenbrück, Stadt","type":"Stadt"},"district":{"key":"05754","name":"Gütersloh","type":"Kreis"},"federalState":{"key":"05","name":"Nordrhein-Westfalen"}},{"name":"Westring","postalCode":"33378","locality":"Rheda-Wiedenbrück","municipality":{"key":"05754028","name":"Rheda-Wiedenbrück, Stadt","type":"Stadt"},"district":{"key":"05754","name":"Gütersloh","type":"Kreis"},"federalState":{"key":"05","name":"Nordrhein-Westfalen"}},{"name":"Wichernstr.","postalCode":"33378","locality":"Rheda-Wiedenbrück","municipality":{"key":"05754028","name":"Rheda-Wiedenbrück, Stadt","type":"Stadt"},"district":{"key":"05754","name":"Gütersloh","type":"Kreis"},"federalState":{"key":"05","name":"Nordrhein-Westfalen"}},{"name":"Widukindstr.","postalCode":"33378","locality":"Rheda-Wiedenbrück","municipality":{"key":"05754028","name":"Rheda-Wiedenbrück, Stadt","type":"Stadt"},"district":{"key":"05754","name":"Gütersloh","type":"Kreis"},"federalState":{"key":"05","name":"Nordrhein-Westfalen"}},{"name":"Widumstr.","postalCode":"33378","locality":"Rheda-Wiedenbrück","municipality":{"key":"05754028","name":"Rheda-Wiedenbrück, Stadt","type":"Stadt"},"district":{"key":"05754","name":"Gütersloh","type":"Kreis"},"federalState":{"key":"05","name":"Nordrhein-Westfalen"}},{"name":"Wiedenborstel","postalCode":"24613","locality":"Wiedenborstel","municipality":{"key":"01061111","name":"Wiedenborstel","type":"Kreisangehörige_Gemeinde"},"district":{"key":"01061","name":"Steinburg","type":"Kreis"},"federalState":{"key":"01","name":"Schleswig-Holstein"}},{"name":"Wiedensahler Str.","postalCode":"31719","locality":"Wiedensahl","municipality":{"key":"03257037","name":"Wiedensahl, Flecken","type":"Kreisangehörige_Gemeinde"},"district":{"key":"03257","name":"Schaumburg","type":"Landkreis"},"federalState":{"key":"03","name":"Niedersachsen"}},{"name":"Wieksweg","postalCode":"33378","locality":"Rheda-Wiedenbrück","municipality":{"key":"05754028","name":"Rheda-Wiedenbrück, Stadt","type":"Stadt"},"district":{"key":"05754","name":"Gütersloh","type":"Kreis"},"federalState":{"key":"05","name":"Nordrhein-Westfalen"}},{"name":"Wiener Str.","postalCode":"33378","locality":"Rheda-Wiedenbrück","municipality":{"key":"05754028","name":"Rheda-Wiedenbrück, Stadt","type":"Stadt"},"district":{"key":"05754","name":"Gütersloh","type":"Kreis"},"federalState":{"key":"05","name":"Nordrhein-Westfalen"}},{"name":"Wieselstr.","postalCode":"33378","locality":"Rheda-Wiedenbrück","municipality":{"key":"05754028","name":"Rheda-Wiedenbrück, Stadt","type":"Stadt"},"district":{"key":"05754","name":"Gütersloh","type":"Kreis"},"federalState":{"key":"05","name":"Nordrhein-Westfalen"}},{"name":"Wiesenstr.","postalCode":"33378","locality":"Rheda-Wiedenbrück","municipality":{"key":"05754028","name":"Rheda-Wiedenbrück, Stadt","type":"Stadt"},"district":{"key":"05754","name":"Gütersloh","type":"Kreis"},"federalState":{"key":"05","name":"Nordrhein-Westfalen"}},{"name":"Wihostr.","postalCode":"33378","locality":"Rheda-Wiedenbrück","municipality":{"key":"05754028","name":"Rheda-Wiedenbrück, Stadt","type":"Stadt"},"district":{"key":"05754","name":"Gütersloh","type":"Kreis"},"federalState":{"key":"05","name":"Nordrhein-Westfalen"}},{"name":"Wilhelm-Busch-Str.","postalCode":"31719","locality":"Wiedensahl","municipality":{"key":"03257037","name":"Wiedensahl, Flecken","type":"Kreisangehörige_Gemeinde"},"district":{"key":"03257","name":"Schaumburg","type":"Landkreis"},"federalState":{"key":"03","name":"Niedersachsen"}},{"name":"Wilhelm-Busch-Str.","postalCode":"33378","locality":"Rheda-Wiedenbrück","municipality":{"key":"05754028","name":"Rheda-Wiedenbrück, Stadt","type":"Stadt"},"district":{"key":"05754","name":"Gütersloh","type":"Kreis"},"federalState":{"key":"05","name":"Nordrhein-Westfalen"}},{"name":"Wilhelm-Leibl-Str.","postalCode":"33378","locality":"Rheda-Wiedenbrück","municipality":{"key":"05754028","name":"Rheda-Wiedenbrück, Stadt","type":"Stadt"},"district":{"key":"05754","name":"Gütersloh","type":"Kreis"},"federalState":{"key":"05","name":"Nordrhein-Westfalen"}},{"name":"Wilhelmstr.","postalCode":"33378","locality":"Rheda-Wiedenbrück","municipality":{"key":"05754028","name":"Rheda-Wiedenbrück, Stadt","type":"Stadt"},"district":{"key":"05754","name":"Gütersloh","type":"Kreis"},"federalState":{"key":"05","name":"Nordrhein-Westfalen"}},{"name":"Wippermannstr.","postalCode":"33378","locality":"Rheda-Wiedenbrück","municipality":{"key":"05754028","name":"Rheda-Wiedenbrück, Stadt","type":"Stadt"},"district":{"key":"05754","name":"Gütersloh","type":"Kreis"},"federalState":{"key":"05","name":"Nordrhein-Westfalen"}},{"name":"Wöstering","postalCode":"33378","locality":"Rheda-Wiedenbrück","municipality":{"key":"05754028","name":"Rheda-Wiedenbrück, Stadt","type":"Stadt"},"district":{"key":"05754","name":"Gütersloh","type":"Kreis"},"federalState":{"key":"05","name":"Nordrhein-Westfalen"}},{"name":"Wösteweg","postalCode":"33378","locality":"Rheda-Wiedenbrück","municipality":{"key":"05754028","name":"Rheda-Wiedenbrück, Stadt","type":"Stadt"},"district":{"key":"05754","name":"Gütersloh","type":"Kreis"},"federalState":{"key":"05","name":"Nordrhein-Westfalen"}},{"name":"Zobelstr.","postalCode":"33378","locality":"Rheda-Wiedenbrück","municipality":{"key":"05754028","name":"Rheda-Wiedenbrück, Stadt","type":"Stadt"},"district":{"key":"05754","name":"Gütersloh","type":"Kreis"},"federalState":{"key":"05","name":"Nordrhein-Westfalen"}},{"name":"Zum Eidhagen","postalCode":"33378","locality":"Rheda-Wiedenbrück","municipality":{"key":"05754028","name":"Rheda-Wiedenbrück, Stadt","type":"Stadt"},"district":{"key":"05754","name":"Gütersloh","type":"Kreis"},"federalState":{"key":"05","name":"Nordrhein-Westfalen"}},{"name":"Zum Erlenbruch","postalCode":"33378","locality":"Rheda-Wiedenbrück","municipality":{"key":"05754028","name":"Rheda-Wiedenbrück, Stadt","type":"Stadt"},"district":{"key":"05754","name":"Gütersloh","type":"Kreis"},"federalState":{"key":"05","name":"Nordrhein-Westfalen"}},{"name":"Zum Galgenknapp","postalCode":"33378","locality":"Rheda-Wiedenbrück","municipality":{"key":"05754028","name":"Rheda-Wiedenbrück, Stadt","type":"Stadt"},"district":{"key":"05754","name":"Gütersloh","type":"Kreis"},"federalState":{"key":"05","name":"Nordrhein-Westfalen"}},{"name":"Zum Hambusch","postalCode":"33378","locality":"Rheda-Wiedenbrück","municipality":{"key":"05754028","name":"Rheda-Wiedenbrück, Stadt","type":"Stadt"},"district":{"key":"05754","name":"Gütersloh","type":"Kreis"},"federalState":{"key":"05","name":"Nordrhein-Westfalen"}},{"name":"Zur Flammenmühle","postalCode":"33378","locality":"Rheda-Wiedenbrück","municipality":{"key":"05754028","name":"Rheda-Wiedenbrück, Stadt","type":"Stadt"},"district":{"key":"05754","name":"Gütersloh","type":"Kreis"},"federalState":{"key":"05","name":"Nordrhein-Westfalen"}},{"name":"Ötlinger Str.","postalCode":"79539","locality":"Lörrach","municipality":{"key":"08336050","name":"Lörrach, Stadt","type":"Große_Kreisstadt"},"district":{"key":"08336","name":"Lörrach","type":"Landkreis"},"federalState":{"key":"08","name":"Baden-Württemberg"}},{"name":"Über der Wiese","postalCode":"79540","locality":"Lörrach","municipality":{"key":"08336050","name":"Lörrach, Stadt","type":"Große_Kreisstadt"},"district":{"key":"08336","name":"Lörrach","type":"Landkreis"},"federalState":{"key":"08","name":"Baden-Württemberg"}},]