[{"key":"10217790","name":"Aestelweg","postalCode":"3038","locality":"Kirchlindach","commune":{"key":"354","name":"Kirchlindach","shortName":"Kirchlindach"},"district":{"key":"246","name":"Verwaltungskreis Bern-Mittelland"},"canton":{"key":"2","code":"BE","name":"Bern / Berne"},"status":"Real"},{"key":"10083243","name":"Aetzikofenweg","postalCode":"3038","locality":"Kirchlindach","commune":{"key":"354","name":"Kirchlindach","shortName":"Kirchlindach"},"district":{"key":"246","name":"Verwaltungskreis Bern-Mittelland"},"canton":{"key":"2","code":"BE","name":"Bern / Berne"},"status":"Real"},{"key":"10217794","name":"Alchenweg","postalCode":"3038","locality":"Kirchlindach","commune":{"key":"354","name":"Kirchlindach","shortName":"Kirchlindach"},"district":{"key":"246","name":"Verwaltungskreis Bern-Mittelland"},"canton":{"key":"2","code":"BE","name":"Bern / Berne"},"status":"Real"},{"key":"10062432","name":"Alpenweg","postalCode":"3038","locality":"Kirchlindach","commune":{"key":"354","name":"Kirchlindach","shortName":"Kirchlindach"},"district":{"key":"246","name":"Verwaltungskreis Bern-Mittelland"},"canton":{"key":"2","code":"BE","name":"Bern / Berne"},"status":"Real"},{"key":"10008415","name":"Badweg","postalCode":"3038","locality":"Kirchlindach","commune":{"key":"354","name":"Kirchlindach","shortName":"Kirchlindach"},"district":{"key":"246","name":"Verwaltungskreis Bern-Mittelland"},"canton":{"key":"2","code":"BE","name":"Bern / Berne"},"status":"Real"},{"key":"10008418","name":"Bärgliweg","postalCode":"3038","locality":"Kirchlindach","commune":{"key":"354","name":"Kirchlindach","shortName":"Kirchlindach"},"district":{"key":"246","name":"Verwaltungskreis Bern-Mittelland"},"canton":{"key":"2","code":"BE","name":"Bern / Berne"},"status":"Real"},{"key":"10217799","name":"Birchiweg","postalCode":"3038","locality":"Kirchlindach","commune":{"key":"354","name":"Kirchlindach","shortName":"Kirchlindach"},"district":{"key":"246","name":"Verwaltungskreis Bern-Mittelland"},"canton":{"key":"2","code":"BE","name":"Bern / Berne"},"status":"Real"},{"key":"10008416","name":"Breitmaad","postalCode":"3038","locality":"Kirchlindach","commune":{"key":"354","name":"Kirchlindach","shortName":"Kirchlindach"},"district":{"key":"246","name":"Verwaltungskreis Bern-Mittelland"},"canton":{"key":"2","code":"BE","name":"Bern / Berne"},"status":"Real"},{"key":"10182910","name":"Breitmaadweg","postalCode":"3038","locality":"Kirchlindach","commune":{"key":"354","name":"Kirchlindach","shortName":"Kirchlindach"},"district":{"key":"246","name":"Verwaltungskreis Bern-Mittelland"},"canton":{"key":"2","code":"BE","name":"Bern / Berne"},"status":"Real"},{"key":"10083244","name":"Buchsackerweg","postalCode":"3038","locality":"Kirchlindach","commune":{"key":"354","name":"Kirchlindach","shortName":"Kirchlindach"},"district":{"key":"246","name":"Verwaltungskreis Bern-Mittelland"},"canton":{"key":"2","code":"BE","name":"Bern / Berne"},"status":"Real"},{"key":"10008417","name":"Buchsistrasse","postalCode":"3038","locality":"Kirchlindach","commune":{"key":"354","name":"Kirchlindach","shortName":"Kirchlindach"},"district":{"key":"246","name":"Verwaltungskreis Bern-Mittelland"},"canton":{"key":"2","code":"BE","name":"Bern / Berne"},"status":"Real"},{"key":"10008419","name":"Diemerswilstrasse","postalCode":"3038","locality":"Kirchlindach","commune":{"key":"354","name":"Kirchlindach","shortName":"Kirchlindach"},"district":{"key":"246","name":"Verwaltungskreis Bern-Mittelland"},"canton":{"key":"2","code":"BE","name":"Bern / Berne"},"status":"Real"},{"key":"10163124","name":"Eggenweg","postalCode":"3038","locality":"Kirchlindach","commune":{"key":"354","name":"Kirchlindach","shortName":"Kirchlindach"},"district":{"key":"246","name":"Verwaltungskreis Bern-Mittelland"},"canton":{"key":"2","code":"BE","name":"Bern / Berne"},"status":"Real"},{"key":"10062433","name":"Eichmattweg","postalCode":"3038","locality":"Kirchlindach","commune":{"key":"354","name":"Kirchlindach","shortName":"Kirchlindach"},"district":{"key":"246","name":"Verwaltungskreis Bern-Mittelland"},"canton":{"key":"2","code":"BE","name":"Bern / Berne"},"status":"Real"},{"key":"10180934","name":"Eigerweg","postalCode":"3038","locality":"Kirchlindach","commune":{"key":"354","name":"Kirchlindach","shortName":"Kirchlindach"},"district":{"key":"246","name":"Verwaltungskreis Bern-Mittelland"},"canton":{"key":"2","code":"BE","name":"Bern / Berne"},"status":"Real"},{"key":"10113487","name":"Färichweg","postalCode":"3038","locality":"Kirchlindach","commune":{"key":"354","name":"Kirchlindach","shortName":"Kirchlindach"},"district":{"key":"246","name":"Verwaltungskreis Bern-Mittelland"},"canton":{"key":"2","code":"BE","name":"Bern / Berne"},"status":"Real"},{"key":"10062434","name":"Heimenhausstrasse","postalCode":"3038","locality":"Kirchlindach","commune":{"key":"354","name":"Kirchlindach","shortName":"Kirchlindach"},"district":{"key":"246","name":"Verwaltungskreis Bern-Mittelland"},"canton":{"key":"2","code":"BE","name":"Bern / Berne"},"status":"Real"},{"key":"10006359","name":"Hofweg","postalCode":"3038","locality":"Kirchlindach","commune":{"key":"354","name":"Kirchlindach","shortName":"Kirchlindach"},"district":{"key":"246","name":"Verwaltungskreis Bern-Mittelland"},"canton":{"key":"2","code":"BE","name":"Bern / Berne"},"status":"Real"},{"key":"10117863","name":"Im Färich","postalCode":"3038","locality":"Kirchlindach","commune":{"key":"354","name":"Kirchlindach","shortName":"Kirchlindach"},"district":{"key":"246","name":"Verwaltungskreis Bern-Mittelland"},"canton":{"key":"2","code":"BE","name":"Bern / Berne"},"status":"Real"},{"key":"10083245","name":"Jetzikofen","postalCode":"3038","locality":"Kirchlindach","commune":{"key":"354","name":"Kirchlindach","shortName":"Kirchlindach"},"district":{"key":"246","name":"Verwaltungskreis Bern-Mittelland"},"canton":{"key":"2","code":"BE","name":"Bern / Berne"},"status":"Real"},{"key":"10006360","name":"Jetzikofenstrasse","postalCode":"3038","locality":"Kirchlindach","commune":{"key":"354","name":"Kirchlindach","shortName":"Kirchlindach"},"district":{"key":"246","name":"Verwaltungskreis Bern-Mittelland"},"canton":{"key":"2","code":"BE","name":"Bern / Berne"},"status":"Real"},{"key":"10062435","name":"Kirchweg","postalCode":"3038","locality":"Kirchlindach","commune":{"key":"354","name":"Kirchlindach","shortName":"Kirchlindach"},"district":{"key":"246","name":"Verwaltungskreis Bern-Mittelland"},"canton":{"key":"2","code":"BE","name":"Bern / Berne"},"status":"Real"},{"key":"10182911","name":"Kohlholz","postalCode":"3038","locality":"Kirchlindach","commune":{"key":"354","name":"Kirchlindach","shortName":"Kirchlindach"},"district":{"key":"246","name":"Verwaltungskreis Bern-Mittelland"},"canton":{"key":"2","code":"BE","name":"Bern / Berne"},"status":"Real"},{"key":"10083246","name":"Leutschenstrasse","postalCode":"3038","locality":"Kirchlindach","commune":{"key":"354","name":"Kirchlindach","shortName":"Kirchlindach"},"district":{"key":"246","name":"Verwaltungskreis Bern-Mittelland"},"canton":{"key":"2","code":"BE","name":"Bern / Berne"},"status":"Real"},{"key":"10006361","name":"Lindachstrasse","postalCode":"3038","locality":"Kirchlindach","commune":{"key":"354","name":"Kirchlindach","shortName":"Kirchlindach"},"district":{"key":"246","name":"Verwaltungskreis Bern-Mittelland"},"canton":{"key":"2","code":"BE","name":"Bern / Berne"},"status":"Real"},{"key":"10163136","name":"Lindachwaldstrasse","postalCode":"3038","locality":"Kirchlindach","commune":{"key":"354","name":"Kirchlindach","shortName":"Kirchlindach"},"district":{"key":"246","name":"Verwaltungskreis Bern-Mittelland"},"canton":{"key":"2","code":"BE","name":"Bern / Berne"},"status":"Real"},{"key":"10006362","name":"Lindenrain","postalCode":"3038","locality":"Kirchlindach","commune":{"key":"354","name":"Kirchlindach","shortName":"Kirchlindach"},"district":{"key":"246","name":"Verwaltungskreis Bern-Mittelland"},"canton":{"key":"2","code":"BE","name":"Bern / Berne"},"status":"Real"},{"key":"10083247","name":"Mittelstrasse","postalCode":"3038","locality":"Kirchlindach","commune":{"key":"354","name":"Kirchlindach","shortName":"Kirchlindach"},"district":{"key":"246","name":"Verwaltungskreis Bern-Mittelland"},"canton":{"key":"2","code":"BE","name":"Bern / Berne"},"status":"Real"},{"key":"10062436","name":"Moosweg","postalCode":"3038","locality":"Kirchlindach","commune":{"key":"354","name":"Kirchlindach","shortName":"Kirchlindach"},"district":{"key":"246","name":"Verwaltungskreis Bern-Mittelland"},"canton":{"key":"2","code":"BE","name":"Bern / Berne"},"status":"Real"},{"key":"10006363","name":"Neumattweg","postalCode":"3038","locality":"Kirchlindach","commune":{"key":"354","name":"Kirchlindach","shortName":"Kirchlindach"},"district":{"key":"246","name":"Verwaltungskreis Bern-Mittelland"},"canton":{"key":"2","code":"BE","name":"Bern / Berne"},"status":"Real"},{"key":"10122584","name":"Niesenweg","postalCode":"3038","locality":"Kirchlindach","commune":{"key":"354","name":"Kirchlindach","shortName":"Kirchlindach"},"district":{"key":"246","name":"Verwaltungskreis Bern-Mittelland"},"canton":{"key":"2","code":"BE","name":"Bern / Berne"},"status":"Real"},{"key":"10006364","name":"Nüchternweg","postalCode":"3038","locality":"Kirchlindach","commune":{"key":"354","name":"Kirchlindach","shortName":"Kirchlindach"},"district":{"key":"246","name":"Verwaltungskreis Bern-Mittelland"},"canton":{"key":"2","code":"BE","name":"Bern / Berne"},"status":"Real"},{"key":"10182912","name":"Rämisweg","postalCode":"3038","locality":"Kirchlindach","commune":{"key":"354","name":"Kirchlindach","shortName":"Kirchlindach"},"district":{"key":"246","name":"Verwaltungskreis Bern-Mittelland"},"canton":{"key":"2","code":"BE","name":"Bern / Berne"},"status":"Real"},{"key":"10062437","name":"Riedernstrasse","postalCode":"3038","locality":"Kirchlindach","commune":{"key":"354","name":"Kirchlindach","shortName":"Kirchlindach"},"district":{"key":"246","name":"Verwaltungskreis Bern-Mittelland"},"canton":{"key":"2","code":"BE","name":"Bern / Berne"},"status":"Real"},{"key":"10217807","name":"Sägebachweg","postalCode":"3038","locality":"Kirchlindach","commune":{"key":"354","name":"Kirchlindach","shortName":"Kirchlindach"},"district":{"key":"246","name":"Verwaltungskreis Bern-Mittelland"},"canton":{"key":"2","code":"BE","name":"Bern / Berne"},"status":"Real"},{"key":"10104039","name":"Schachenweg","postalCode":"3038","locality":"Kirchlindach","commune":{"key":"354","name":"Kirchlindach","shortName":"Kirchlindach"},"district":{"key":"246","name":"Verwaltungskreis Bern-Mittelland"},"canton":{"key":"2","code":"BE","name":"Bern / Berne"},"status":"Real"},{"key":"10113488","name":"Schützenrain","postalCode":"3038","locality":"Kirchlindach","commune":{"key":"354","name":"Kirchlindach","shortName":"Kirchlindach"},"district":{"key":"246","name":"Verwaltungskreis Bern-Mittelland"},"canton":{"key":"2","code":"BE","name":"Bern / Berne"},"status":"Real"},{"key":"10163123","name":"Steinackerstrasse","postalCode":"3038","locality":"Kirchlindach","commune":{"key":"354","name":"Kirchlindach","shortName":"Kirchlindach"},"district":{"key":"246","name":"Verwaltungskreis Bern-Mittelland"},"canton":{"key":"2","code":"BE","name":"Bern / Berne"},"status":"Real"},{"key":"10159597","name":"Südhang","postalCode":"3038","locality":"Kirchlindach","commune":{"key":"354","name":"Kirchlindach","shortName":"Kirchlindach"},"district":{"key":"246","name":"Verwaltungskreis Bern-Mittelland"},"canton":{"key":"2","code":"BE","name":"Bern / Berne"},"status":"Real"},{"key":"10217811","name":"Tannholz","postalCode":"3038","locality":"Kirchlindach","commune":{"key":"354","name":"Kirchlindach","shortName":"Kirchlindach"},"district":{"key":"246","name":"Verwaltungskreis Bern-Mittelland"},"canton":{"key":"2","code":"BE","name":"Bern / Berne"},"status":"Real"},{"key":"10217815","name":"Tannholzstrasse","postalCode":"3038","locality":"Kirchlindach","commune":{"key":"354","name":"Kirchlindach","shortName":"Kirchlindach"},"district":{"key":"246","name":"Verwaltungskreis Bern-Mittelland"},"canton":{"key":"2","code":"BE","name":"Bern / Berne"},"status":"Real"},{"key":"10006365","name":"Wintermatt","postalCode":"3038","locality":"Kirchlindach","commune":{"key":"354","name":"Kirchlindach","shortName":"Kirchlindach"},"district":{"key":"246","name":"Verwaltungskreis Bern-Mittelland"},"canton":{"key":"2","code":"BE","name":"Bern / Berne"},"status":"Real"},]