[{"key":"10203651","name":"A4","postalCode":"8450","locality":"Andelfingen","commune":{"key":"291","name":"Andelfingen","shortName":"Andelfingen"},"district":{"key":"102","name":"Bezirk Andelfingen"},"canton":{"key":"1","code":"ZH","name":"Zürich"},"status":"Real"},{"key":"10202273","name":"A4","postalCode":"8451","locality":"Kleinandelfingen","commune":{"key":"33","name":"Kleinandelfingen","shortName":"Kleinandelfingen"},"district":{"key":"102","name":"Bezirk Andelfingen"},"canton":{"key":"1","code":"ZH","name":"Zürich"},"status":"Real"},{"key":"10248453","name":"A4","postalCode":"8452","locality":"Adlikon b. Andelfingen","commune":{"key":"291","name":"Andelfingen","shortName":"Andelfingen"},"district":{"key":"102","name":"Bezirk Andelfingen"},"canton":{"key":"1","code":"ZH","name":"Zürich"},"status":"Real"},{"key":"10203652","name":"Adlikerstrasse","postalCode":"8450","locality":"Andelfingen","commune":{"key":"291","name":"Andelfingen","shortName":"Andelfingen"},"district":{"key":"102","name":"Bezirk Andelfingen"},"canton":{"key":"1","code":"ZH","name":"Zürich"},"status":"Real"},{"key":"10164249","name":"Ahornweg","postalCode":"8450","locality":"Andelfingen","commune":{"key":"291","name":"Andelfingen","shortName":"Andelfingen"},"district":{"key":"102","name":"Bezirk Andelfingen"},"canton":{"key":"1","code":"ZH","name":"Zürich"},"status":"Real"},{"key":"10110875","name":"Alfred-Baur-Strasse","postalCode":"8450","locality":"Andelfingen","commune":{"key":"291","name":"Andelfingen","shortName":"Andelfingen"},"district":{"key":"102","name":"Bezirk Andelfingen"},"canton":{"key":"1","code":"ZH","name":"Zürich"},"status":"Real"},{"key":"10203653","name":"Alte Gütighauserstrasse","postalCode":"8450","locality":"Andelfingen","commune":{"key":"291","name":"Andelfingen","shortName":"Andelfingen"},"district":{"key":"102","name":"Bezirk Andelfingen"},"canton":{"key":"1","code":"ZH","name":"Zürich"},"status":"Real"},{"key":"10202291","name":"Alte Gütighauserstrasse","postalCode":"8452","locality":"Adlikon b. Andelfingen","commune":{"key":"291","name":"Andelfingen","shortName":"Andelfingen"},"district":{"key":"102","name":"Bezirk Andelfingen"},"canton":{"key":"1","code":"ZH","name":"Zürich"},"status":"Real"},{"key":"10203655","name":"Altenerstrasse","postalCode":"8450","locality":"Andelfingen","commune":{"key":"291","name":"Andelfingen","shortName":"Andelfingen"},"district":{"key":"102","name":"Bezirk Andelfingen"},"canton":{"key":"1","code":"ZH","name":"Zürich"},"status":"Real"},{"key":"10057329","name":"Altenerstrasse","postalCode":"8451","locality":"Kleinandelfingen","commune":{"key":"33","name":"Kleinandelfingen","shortName":"Kleinandelfingen"},"district":{"key":"102","name":"Bezirk Andelfingen"},"canton":{"key":"1","code":"ZH","name":"Zürich"},"status":"Real"},{"key":"10203654","name":"Alte Niederwilerstrasse","postalCode":"8450","locality":"Andelfingen","commune":{"key":"291","name":"Andelfingen","shortName":"Andelfingen"},"district":{"key":"102","name":"Bezirk Andelfingen"},"canton":{"key":"1","code":"ZH","name":"Zürich"},"status":"Real"},{"key":"10150943","name":"Alte Pflanzschulstrasse","postalCode":"8451","locality":"Kleinandelfingen","commune":{"key":"33","name":"Kleinandelfingen","shortName":"Kleinandelfingen"},"district":{"key":"102","name":"Bezirk Andelfingen"},"canton":{"key":"1","code":"ZH","name":"Zürich"},"status":"Real"},{"key":"10067312","name":"Alterau","postalCode":"8450","locality":"Andelfingen","commune":{"key":"291","name":"Andelfingen","shortName":"Andelfingen"},"district":{"key":"102","name":"Bezirk Andelfingen"},"canton":{"key":"1","code":"ZH","name":"Zürich"},"status":"Real"},{"key":"10150944","name":"Alter Steinerweg","postalCode":"8451","locality":"Kleinandelfingen","commune":{"key":"33","name":"Kleinandelfingen","shortName":"Kleinandelfingen"},"district":{"key":"102","name":"Bezirk Andelfingen"},"canton":{"key":"1","code":"ZH","name":"Zürich"},"status":"Real"},{"key":"10080926","name":"Alte Steinerstrasse","postalCode":"8451","locality":"Kleinandelfingen","commune":{"key":"33","name":"Kleinandelfingen","shortName":"Kleinandelfingen"},"district":{"key":"102","name":"Bezirk Andelfingen"},"canton":{"key":"1","code":"ZH","name":"Zürich"},"status":"Real"},{"key":"10054219","name":"Altweg","postalCode":"8450","locality":"Andelfingen","commune":{"key":"291","name":"Andelfingen","shortName":"Andelfingen"},"district":{"key":"102","name":"Bezirk Andelfingen"},"canton":{"key":"1","code":"ZH","name":"Zürich"},"status":"Real"},{"key":"10154364","name":"Am Gässli","postalCode":"8452","locality":"Adlikon b. Andelfingen","commune":{"key":"291","name":"Andelfingen","shortName":"Andelfingen"},"district":{"key":"102","name":"Bezirk Andelfingen"},"canton":{"key":"1","code":"ZH","name":"Zürich"},"status":"Real"},{"key":"10154195","name":"Am Gross See","postalCode":"8451","locality":"Kleinandelfingen","commune":{"key":"33","name":"Kleinandelfingen","shortName":"Kleinandelfingen"},"district":{"key":"102","name":"Bezirk Andelfingen"},"canton":{"key":"1","code":"ZH","name":"Zürich"},"status":"Real"},{"key":"10066979","name":"Andelfingerstrasse","postalCode":"8452","locality":"Adlikon b. Andelfingen","commune":{"key":"291","name":"Andelfingen","shortName":"Andelfingen"},"district":{"key":"102","name":"Bezirk Andelfingen"},"canton":{"key":"1","code":"ZH","name":"Zürich"},"status":"Real"},{"key":"10203656","name":"Apothekerweg","postalCode":"8450","locality":"Andelfingen","commune":{"key":"291","name":"Andelfingen","shortName":"Andelfingen"},"district":{"key":"102","name":"Bezirk Andelfingen"},"canton":{"key":"1","code":"ZH","name":"Zürich"},"status":"Real"},{"key":"10130064","name":"Bachäcker","postalCode":"8452","locality":"Adlikon b. Andelfingen","commune":{"key":"291","name":"Andelfingen","shortName":"Andelfingen"},"district":{"key":"102","name":"Bezirk Andelfingen"},"canton":{"key":"1","code":"ZH","name":"Zürich"},"status":"Real"},{"key":"10202292","name":"Bachstrasse","postalCode":"8452","locality":"Adlikon b. Andelfingen","commune":{"key":"291","name":"Andelfingen","shortName":"Andelfingen"},"district":{"key":"102","name":"Bezirk Andelfingen"},"canton":{"key":"1","code":"ZH","name":"Zürich"},"status":"Real"},{"key":"10203657","name":"Bachtobelstrasse","postalCode":"8450","locality":"Andelfingen","commune":{"key":"291","name":"Andelfingen","shortName":"Andelfingen"},"district":{"key":"102","name":"Bezirk Andelfingen"},"canton":{"key":"1","code":"ZH","name":"Zürich"},"status":"Real"},{"key":"10166220","name":"Bahnhaus","postalCode":"8452","locality":"Adlikon b. Andelfingen","commune":{"key":"291","name":"Andelfingen","shortName":"Andelfingen"},"district":{"key":"102","name":"Bezirk Andelfingen"},"canton":{"key":"1","code":"ZH","name":"Zürich"},"status":"Real"},{"key":"10151255","name":"Bahnhofplatz SBB","postalCode":"8450","locality":"Andelfingen","commune":{"key":"291","name":"Andelfingen","shortName":"Andelfingen"},"district":{"key":"102","name":"Bezirk Andelfingen"},"canton":{"key":"1","code":"ZH","name":"Zürich"},"status":"Real"},{"key":"10238063","name":"Bahnhüslistrasse","postalCode":"8452","locality":"Adlikon b. Andelfingen","commune":{"key":"291","name":"Andelfingen","shortName":"Andelfingen"},"district":{"key":"102","name":"Bezirk Andelfingen"},"canton":{"key":"1","code":"ZH","name":"Zürich"},"status":"Real"},{"key":"10054204","name":"Bergstrasse","postalCode":"8452","locality":"Adlikon b. Andelfingen","commune":{"key":"291","name":"Andelfingen","shortName":"Andelfingen"},"district":{"key":"102","name":"Bezirk Andelfingen"},"canton":{"key":"1","code":"ZH","name":"Zürich"},"status":"Real"},{"key":"10150945","name":"Birchwiesseestrasse","postalCode":"8451","locality":"Kleinandelfingen","commune":{"key":"33","name":"Kleinandelfingen","shortName":"Kleinandelfingen"},"district":{"key":"102","name":"Bezirk Andelfingen"},"canton":{"key":"1","code":"ZH","name":"Zürich"},"status":"Real"},{"key":"10133705","name":"Birkenweg","postalCode":"8450","locality":"Andelfingen","commune":{"key":"291","name":"Andelfingen","shortName":"Andelfingen"},"district":{"key":"102","name":"Bezirk Andelfingen"},"canton":{"key":"1","code":"ZH","name":"Zürich"},"status":"Real"},{"key":"10134642","name":"Bodenäcker","postalCode":"8452","locality":"Adlikon b. Andelfingen","commune":{"key":"291","name":"Andelfingen","shortName":"Andelfingen"},"district":{"key":"102","name":"Bezirk Andelfingen"},"canton":{"key":"1","code":"ZH","name":"Zürich"},"status":"Real"},{"key":"10154365","name":"Bodenfeldstrasse","postalCode":"8452","locality":"Adlikon b. Andelfingen","commune":{"key":"291","name":"Andelfingen","shortName":"Andelfingen"},"district":{"key":"102","name":"Bezirk Andelfingen"},"canton":{"key":"1","code":"ZH","name":"Zürich"},"status":"Real"},{"key":"10238065","name":"Bodenseestrasse","postalCode":"8452","locality":"Adlikon b. Andelfingen","commune":{"key":"291","name":"Andelfingen","shortName":"Andelfingen"},"district":{"key":"102","name":"Bezirk Andelfingen"},"canton":{"key":"1","code":"ZH","name":"Zürich"},"status":"Real"},{"key":"10054220","name":"Bodenwiesstrasse","postalCode":"8450","locality":"Andelfingen","commune":{"key":"291","name":"Andelfingen","shortName":"Andelfingen"},"district":{"key":"102","name":"Bezirk Andelfingen"},"canton":{"key":"1","code":"ZH","name":"Zürich"},"status":"Real"},{"key":"10125355","name":"Bollenrain","postalCode":"8450","locality":"Andelfingen","commune":{"key":"291","name":"Andelfingen","shortName":"Andelfingen"},"district":{"key":"102","name":"Bezirk Andelfingen"},"canton":{"key":"1","code":"ZH","name":"Zürich"},"status":"Real"},{"key":"10111695","name":"Bollenstrasse","postalCode":"8450","locality":"Andelfingen","commune":{"key":"291","name":"Andelfingen","shortName":"Andelfingen"},"district":{"key":"102","name":"Bezirk Andelfingen"},"canton":{"key":"1","code":"ZH","name":"Zürich"},"status":"Real"},{"key":"10111164","name":"Breitestrasse","postalCode":"8451","locality":"Kleinandelfingen","commune":{"key":"33","name":"Kleinandelfingen","shortName":"Kleinandelfingen"},"district":{"key":"102","name":"Bezirk Andelfingen"},"canton":{"key":"1","code":"ZH","name":"Zürich"},"status":"Real"},{"key":"10202293","name":"Brentenbuck","postalCode":"8452","locality":"Adlikon b. Andelfingen","commune":{"key":"291","name":"Andelfingen","shortName":"Andelfingen"},"district":{"key":"102","name":"Bezirk Andelfingen"},"canton":{"key":"1","code":"ZH","name":"Zürich"},"status":"Real"},{"key":"10067313","name":"Brunnenweg","postalCode":"8450","locality":"Andelfingen","commune":{"key":"291","name":"Andelfingen","shortName":"Andelfingen"},"district":{"key":"102","name":"Bezirk Andelfingen"},"canton":{"key":"1","code":"ZH","name":"Zürich"},"status":"Real"},{"key":"10175563","name":"Brunngasse","postalCode":"8451","locality":"Kleinandelfingen","commune":{"key":"33","name":"Kleinandelfingen","shortName":"Kleinandelfingen"},"district":{"key":"102","name":"Bezirk Andelfingen"},"canton":{"key":"1","code":"ZH","name":"Zürich"},"status":"Real"},{"key":"10154366","name":"Buckweg","postalCode":"8452","locality":"Adlikon b. Andelfingen","commune":{"key":"291","name":"Andelfingen","shortName":"Andelfingen"},"district":{"key":"102","name":"Bezirk Andelfingen"},"canton":{"key":"1","code":"ZH","name":"Zürich"},"status":"Real"},{"key":"10150947","name":"Büechlirain","postalCode":"8451","locality":"Kleinandelfingen","commune":{"key":"33","name":"Kleinandelfingen","shortName":"Kleinandelfingen"},"district":{"key":"102","name":"Bezirk Andelfingen"},"canton":{"key":"1","code":"ZH","name":"Zürich"},"status":"Real"},{"key":"10000797","name":"Bungertweg","postalCode":"8450","locality":"Andelfingen","commune":{"key":"291","name":"Andelfingen","shortName":"Andelfingen"},"district":{"key":"102","name":"Bezirk Andelfingen"},"canton":{"key":"1","code":"ZH","name":"Zürich"},"status":"Real"},{"key":"10203658","name":"Buolistrasse","postalCode":"8450","locality":"Andelfingen","commune":{"key":"291","name":"Andelfingen","shortName":"Andelfingen"},"district":{"key":"102","name":"Bezirk Andelfingen"},"canton":{"key":"1","code":"ZH","name":"Zürich"},"status":"Real"},{"key":"10099744","name":"Burgstrasse","postalCode":"8450","locality":"Andelfingen","commune":{"key":"291","name":"Andelfingen","shortName":"Andelfingen"},"district":{"key":"102","name":"Bezirk Andelfingen"},"canton":{"key":"1","code":"ZH","name":"Zürich"},"status":"Real"},{"key":"10238302","name":"Cholacker","postalCode":"8450","locality":"Andelfingen","commune":{"key":"291","name":"Andelfingen","shortName":"Andelfingen"},"district":{"key":"102","name":"Bezirk Andelfingen"},"canton":{"key":"1","code":"ZH","name":"Zürich"},"status":"Real"},{"key":"10150948","name":"Cholgruebseestrasse","postalCode":"8451","locality":"Kleinandelfingen","commune":{"key":"33","name":"Kleinandelfingen","shortName":"Kleinandelfingen"},"district":{"key":"102","name":"Bezirk Andelfingen"},"canton":{"key":"1","code":"ZH","name":"Zürich"},"status":"Real"},{"key":"10166311","name":"Cholgruebstrasse","postalCode":"8451","locality":"Kleinandelfingen","commune":{"key":"33","name":"Kleinandelfingen","shortName":"Kleinandelfingen"},"district":{"key":"102","name":"Bezirk Andelfingen"},"canton":{"key":"1","code":"ZH","name":"Zürich"},"status":"Real"},{"key":"10080908","name":"Chrottenbuckstrasse","postalCode":"8450","locality":"Andelfingen","commune":{"key":"291","name":"Andelfingen","shortName":"Andelfingen"},"district":{"key":"102","name":"Bezirk Andelfingen"},"canton":{"key":"1","code":"ZH","name":"Zürich"},"status":"Real"},{"key":"10203659","name":"Dätwilerstrasse","postalCode":"8450","locality":"Andelfingen","commune":{"key":"291","name":"Andelfingen","shortName":"Andelfingen"},"district":{"key":"102","name":"Bezirk Andelfingen"},"canton":{"key":"1","code":"ZH","name":"Zürich"},"status":"Real"},{"key":"10121305","name":"Dätwilerstrasse","postalCode":"8452","locality":"Adlikon b. Andelfingen","commune":{"key":"291","name":"Andelfingen","shortName":"Andelfingen"},"district":{"key":"102","name":"Bezirk Andelfingen"},"canton":{"key":"1","code":"ZH","name":"Zürich"},"status":"Real"},{"key":"10073968","name":"Dorfstrasse","postalCode":"8452","locality":"Adlikon b. Andelfingen","commune":{"key":"291","name":"Andelfingen","shortName":"Andelfingen"},"district":{"key":"102","name":"Bezirk Andelfingen"},"canton":{"key":"1","code":"ZH","name":"Zürich"},"status":"Real"},{"key":"10238100","name":"Ebnet","postalCode":"8450","locality":"Andelfingen","commune":{"key":"291","name":"Andelfingen","shortName":"Andelfingen"},"district":{"key":"102","name":"Bezirk Andelfingen"},"canton":{"key":"1","code":"ZH","name":"Zürich"},"status":"Real"},{"key":"10000798","name":"Ebnetstrasse","postalCode":"8450","locality":"Andelfingen","commune":{"key":"291","name":"Andelfingen","shortName":"Andelfingen"},"district":{"key":"102","name":"Bezirk Andelfingen"},"canton":{"key":"1","code":"ZH","name":"Zürich"},"status":"Real"},{"key":"10203660","name":"Eggstrasse","postalCode":"8450","locality":"Andelfingen","commune":{"key":"291","name":"Andelfingen","shortName":"Andelfingen"},"district":{"key":"102","name":"Bezirk Andelfingen"},"canton":{"key":"1","code":"ZH","name":"Zürich"},"status":"Real"},{"key":"10203661","name":"Eichholzstrasse","postalCode":"8450","locality":"Andelfingen","commune":{"key":"291","name":"Andelfingen","shortName":"Andelfingen"},"district":{"key":"102","name":"Bezirk Andelfingen"},"canton":{"key":"1","code":"ZH","name":"Zürich"},"status":"Real"},{"key":"10182083","name":"Eichwaldstrasse","postalCode":"8450","locality":"Andelfingen","commune":{"key":"291","name":"Andelfingen","shortName":"Andelfingen"},"district":{"key":"102","name":"Bezirk Andelfingen"},"canton":{"key":"1","code":"ZH","name":"Zürich"},"status":"Real"},{"key":"10238064","name":"Eimerichstrasse","postalCode":"8452","locality":"Adlikon b. Andelfingen","commune":{"key":"291","name":"Andelfingen","shortName":"Andelfingen"},"district":{"key":"102","name":"Bezirk Andelfingen"},"canton":{"key":"1","code":"ZH","name":"Zürich"},"status":"Real"},{"key":"10002084","name":"Einfangstrasse","postalCode":"8451","locality":"Kleinandelfingen","commune":{"key":"33","name":"Kleinandelfingen","shortName":"Kleinandelfingen"},"district":{"key":"102","name":"Bezirk Andelfingen"},"canton":{"key":"1","code":"ZH","name":"Zürich"},"status":"Real"},{"key":"10248703","name":"Erlen","postalCode":"8450","locality":"Andelfingen","commune":{"key":"291","name":"Andelfingen","shortName":"Andelfingen"},"district":{"key":"102","name":"Bezirk Andelfingen"},"canton":{"key":"1","code":"ZH","name":"Zürich"},"status":"Real"},{"key":"10000799","name":"Erlenhof","postalCode":"8450","locality":"Andelfingen","commune":{"key":"291","name":"Andelfingen","shortName":"Andelfingen"},"district":{"key":"102","name":"Bezirk Andelfingen"},"canton":{"key":"1","code":"ZH","name":"Zürich"},"status":"Real"},{"key":"10141615","name":"Erlenweg","postalCode":"8450","locality":"Andelfingen","commune":{"key":"291","name":"Andelfingen","shortName":"Andelfingen"},"district":{"key":"102","name":"Bezirk Andelfingen"},"canton":{"key":"1","code":"ZH","name":"Zürich"},"status":"Real"},{"key":"10183526","name":"Ernibuckstrasse","postalCode":"8451","locality":"Kleinandelfingen","commune":{"key":"33","name":"Kleinandelfingen","shortName":"Kleinandelfingen"},"district":{"key":"102","name":"Bezirk Andelfingen"},"canton":{"key":"1","code":"ZH","name":"Zürich"},"status":"Real"},{"key":"10141616","name":"Feldhof","postalCode":"8450","locality":"Andelfingen","commune":{"key":"291","name":"Andelfingen","shortName":"Andelfingen"},"district":{"key":"102","name":"Bezirk Andelfingen"},"canton":{"key":"1","code":"ZH","name":"Zürich"},"status":"Real"},{"key":"10141858","name":"Felsengruebstrasse","postalCode":"8451","locality":"Kleinandelfingen","commune":{"key":"33","name":"Kleinandelfingen","shortName":"Kleinandelfingen"},"district":{"key":"102","name":"Bezirk Andelfingen"},"canton":{"key":"1","code":"ZH","name":"Zürich"},"status":"Real"},{"key":"10067314","name":"Felsenhofstrasse","postalCode":"8450","locality":"Andelfingen","commune":{"key":"291","name":"Andelfingen","shortName":"Andelfingen"},"district":{"key":"102","name":"Bezirk Andelfingen"},"canton":{"key":"1","code":"ZH","name":"Zürich"},"status":"Real"},{"key":"10000800","name":"Flaacherstrasse","postalCode":"8450","locality":"Andelfingen","commune":{"key":"291","name":"Andelfingen","shortName":"Andelfingen"},"district":{"key":"102","name":"Bezirk Andelfingen"},"canton":{"key":"1","code":"ZH","name":"Zürich"},"status":"Real"},{"key":"10111913","name":"Föhrehus","postalCode":"8452","locality":"Adlikon b. Andelfingen","commune":{"key":"291","name":"Andelfingen","shortName":"Andelfingen"},"district":{"key":"102","name":"Bezirk Andelfingen"},"canton":{"key":"1","code":"ZH","name":"Zürich"},"status":"Real"},{"key":"10150949","name":"Forenackerstrasse","postalCode":"8451","locality":"Kleinandelfingen","commune":{"key":"33","name":"Kleinandelfingen","shortName":"Kleinandelfingen"},"district":{"key":"102","name":"Bezirk Andelfingen"},"canton":{"key":"1","code":"ZH","name":"Zürich"},"status":"Real"},{"key":"10057330","name":"Gass","postalCode":"8451","locality":"Kleinandelfingen","commune":{"key":"33","name":"Kleinandelfingen","shortName":"Kleinandelfingen"},"district":{"key":"102","name":"Bezirk Andelfingen"},"canton":{"key":"1","code":"ZH","name":"Zürich"},"status":"Real"},{"key":"10172973","name":"Gewerbestrasse","postalCode":"8451","locality":"Kleinandelfingen","commune":{"key":"33","name":"Kleinandelfingen","shortName":"Kleinandelfingen"},"district":{"key":"102","name":"Bezirk Andelfingen"},"canton":{"key":"1","code":"ZH","name":"Zürich"},"status":"Real"},{"key":"10238101","name":"Gmeindäcker","postalCode":"8450","locality":"Andelfingen","commune":{"key":"291","name":"Andelfingen","shortName":"Andelfingen"},"district":{"key":"102","name":"Bezirk Andelfingen"},"canton":{"key":"1","code":"ZH","name":"Zürich"},"status":"Real"},{"key":"10054221","name":"Grabenackerstrasse","postalCode":"8450","locality":"Andelfingen","commune":{"key":"291","name":"Andelfingen","shortName":"Andelfingen"},"district":{"key":"102","name":"Bezirk Andelfingen"},"canton":{"key":"1","code":"ZH","name":"Zürich"},"status":"Real"},{"key":"10150950","name":"Grenzstrasse","postalCode":"8451","locality":"Kleinandelfingen","commune":{"key":"33","name":"Kleinandelfingen","shortName":"Kleinandelfingen"},"district":{"key":"102","name":"Bezirk Andelfingen"},"canton":{"key":"1","code":"ZH","name":"Zürich"},"status":"Real"},{"key":"10150951","name":"Grenzstrasse Hard","postalCode":"8451","locality":"Kleinandelfingen","commune":{"key":"33","name":"Kleinandelfingen","shortName":"Kleinandelfingen"},"district":{"key":"102","name":"Bezirk Andelfingen"},"canton":{"key":"1","code":"ZH","name":"Zürich"},"status":"Real"},{"key":"10203127","name":"Grenzstrasse Hard","postalCode":"8451","locality":"Kleinandelfingen","commune":{"key":"33","name":"Kleinandelfingen","shortName":"Kleinandelfingen"},"district":{"key":"102","name":"Bezirk Andelfingen"},"canton":{"key":"1","code":"ZH","name":"Zürich"},"status":"Real"},{"key":"10002086","name":"Grillenweg","postalCode":"8451","locality":"Kleinandelfingen","commune":{"key":"33","name":"Kleinandelfingen","shortName":"Kleinandelfingen"},"district":{"key":"102","name":"Bezirk Andelfingen"},"canton":{"key":"1","code":"ZH","name":"Zürich"},"status":"Real"},{"key":"10171293","name":"Grosseestrasse","postalCode":"8451","locality":"Kleinandelfingen","commune":{"key":"33","name":"Kleinandelfingen","shortName":"Kleinandelfingen"},"district":{"key":"102","name":"Bezirk Andelfingen"},"canton":{"key":"1","code":"ZH","name":"Zürich"},"status":"Real"},{"key":"10238113","name":"Gruebenstrasse","postalCode":"8451","locality":"Kleinandelfingen","commune":{"key":"33","name":"Kleinandelfingen","shortName":"Kleinandelfingen"},"district":{"key":"102","name":"Bezirk Andelfingen"},"canton":{"key":"1","code":"ZH","name":"Zürich"},"status":"Real"},{"key":"10203662","name":"Gsottnen Brunnenweg","postalCode":"8450","locality":"Andelfingen","commune":{"key":"291","name":"Andelfingen","shortName":"Andelfingen"},"district":{"key":"102","name":"Bezirk Andelfingen"},"canton":{"key":"1","code":"ZH","name":"Zürich"},"status":"Real"},{"key":"10000802","name":"Gugelmentstrasse","postalCode":"8450","locality":"Andelfingen","commune":{"key":"291","name":"Andelfingen","shortName":"Andelfingen"},"district":{"key":"102","name":"Bezirk Andelfingen"},"canton":{"key":"1","code":"ZH","name":"Zürich"},"status":"Real"},{"key":"10182081","name":"Haldenstrasse","postalCode":"8452","locality":"Adlikon b. Andelfingen","commune":{"key":"291","name":"Andelfingen","shortName":"Andelfingen"},"district":{"key":"102","name":"Bezirk Andelfingen"},"canton":{"key":"1","code":"ZH","name":"Zürich"},"status":"Real"},{"key":"10000801","name":"Haldenweg","postalCode":"8450","locality":"Andelfingen","commune":{"key":"291","name":"Andelfingen","shortName":"Andelfingen"},"district":{"key":"102","name":"Bezirk Andelfingen"},"canton":{"key":"1","code":"ZH","name":"Zürich"},"status":"Real"},{"key":"10154090","name":"Haldenweg","postalCode":"8452","locality":"Adlikon b. Andelfingen","commune":{"key":"291","name":"Andelfingen","shortName":"Andelfingen"},"district":{"key":"102","name":"Bezirk Andelfingen"},"canton":{"key":"1","code":"ZH","name":"Zürich"},"status":"Real"},{"key":"10002087","name":"Hälderstrasse","postalCode":"8451","locality":"Kleinandelfingen","commune":{"key":"33","name":"Kleinandelfingen","shortName":"Kleinandelfingen"},"district":{"key":"102","name":"Bezirk Andelfingen"},"canton":{"key":"1","code":"ZH","name":"Zürich"},"status":"Real"},{"key":"10111165","name":"Hälderweg","postalCode":"8451","locality":"Kleinandelfingen","commune":{"key":"33","name":"Kleinandelfingen","shortName":"Kleinandelfingen"},"district":{"key":"102","name":"Bezirk Andelfingen"},"canton":{"key":"1","code":"ZH","name":"Zürich"},"status":"Real"},{"key":"10203663","name":"Halunkenweg","postalCode":"8450","locality":"Andelfingen","commune":{"key":"291","name":"Andelfingen","shortName":"Andelfingen"},"district":{"key":"102","name":"Bezirk Andelfingen"},"canton":{"key":"1","code":"ZH","name":"Zürich"},"status":"Real"},{"key":"10150146","name":"Haslenweg","postalCode":"8452","locality":"Adlikon b. Andelfingen","commune":{"key":"291","name":"Andelfingen","shortName":"Andelfingen"},"district":{"key":"102","name":"Bezirk Andelfingen"},"canton":{"key":"1","code":"ZH","name":"Zürich"},"status":"Real"},{"key":"10203664","name":"Hätteliweiherstrasse","postalCode":"8450","locality":"Andelfingen","commune":{"key":"291","name":"Andelfingen","shortName":"Andelfingen"},"district":{"key":"102","name":"Bezirk Andelfingen"},"canton":{"key":"1","code":"ZH","name":"Zürich"},"status":"Real"},{"key":"10141617","name":"Hauptmannsbuckstrasse","postalCode":"8450","locality":"Andelfingen","commune":{"key":"291","name":"Andelfingen","shortName":"Andelfingen"},"district":{"key":"102","name":"Bezirk Andelfingen"},"canton":{"key":"1","code":"ZH","name":"Zürich"},"status":"Real"},{"key":"10066980","name":"Hauptstrasse","postalCode":"8452","locality":"Adlikon b. Andelfingen","commune":{"key":"291","name":"Andelfingen","shortName":"Andelfingen"},"district":{"key":"102","name":"Bezirk Andelfingen"},"canton":{"key":"1","code":"ZH","name":"Zürich"},"status":"Real"},{"key":"10055328","name":"Hauserstrasse","postalCode":"8451","locality":"Kleinandelfingen","commune":{"key":"33","name":"Kleinandelfingen","shortName":"Kleinandelfingen"},"district":{"key":"102","name":"Bezirk Andelfingen"},"canton":{"key":"1","code":"ZH","name":"Zürich"},"status":"Real"},{"key":"10080909","name":"Heiligbergstrasse","postalCode":"8450","locality":"Andelfingen","commune":{"key":"291","name":"Andelfingen","shortName":"Andelfingen"},"district":{"key":"102","name":"Bezirk Andelfingen"},"canton":{"key":"1","code":"ZH","name":"Zürich"},"status":"Real"},{"key":"10171037","name":"Heuweg","postalCode":"8451","locality":"Kleinandelfingen","commune":{"key":"33","name":"Kleinandelfingen","shortName":"Kleinandelfingen"},"district":{"key":"102","name":"Bezirk Andelfingen"},"canton":{"key":"1","code":"ZH","name":"Zürich"},"status":"Real"},{"key":"10150954","name":"Himmelstrasse","postalCode":"8451","locality":"Kleinandelfingen","commune":{"key":"33","name":"Kleinandelfingen","shortName":"Kleinandelfingen"},"district":{"key":"102","name":"Bezirk Andelfingen"},"canton":{"key":"1","code":"ZH","name":"Zürich"},"status":"Real"},{"key":"10060371","name":"Hinterdorfplatz","postalCode":"8451","locality":"Kleinandelfingen","commune":{"key":"33","name":"Kleinandelfingen","shortName":"Kleinandelfingen"},"district":{"key":"102","name":"Bezirk Andelfingen"},"canton":{"key":"1","code":"ZH","name":"Zürich"},"status":"Real"},{"key":"10111699","name":"Hinterdorfstrasse","postalCode":"8451","locality":"Kleinandelfingen","commune":{"key":"33","name":"Kleinandelfingen","shortName":"Kleinandelfingen"},"district":{"key":"102","name":"Bezirk Andelfingen"},"canton":{"key":"1","code":"ZH","name":"Zürich"},"status":"Real"},{"key":"10203665","name":"Hintere Eggstrasse","postalCode":"8450","locality":"Andelfingen","commune":{"key":"291","name":"Andelfingen","shortName":"Andelfingen"},"district":{"key":"102","name":"Bezirk Andelfingen"},"canton":{"key":"1","code":"ZH","name":"Zürich"},"status":"Real"},{"key":"10080927","name":"Hinterhofstrasse","postalCode":"8451","locality":"Kleinandelfingen","commune":{"key":"33","name":"Kleinandelfingen","shortName":"Kleinandelfingen"},"district":{"key":"102","name":"Bezirk Andelfingen"},"canton":{"key":"1","code":"ZH","name":"Zürich"},"status":"Real"},{"key":"10121316","name":"Hinterwuhrstrasse","postalCode":"8450","locality":"Andelfingen","commune":{"key":"291","name":"Andelfingen","shortName":"Andelfingen"},"district":{"key":"102","name":"Bezirk Andelfingen"},"canton":{"key":"1","code":"ZH","name":"Zürich"},"status":"Real"},{"key":"10120767","name":"Hirstighof","postalCode":"8451","locality":"Kleinandelfingen","commune":{"key":"33","name":"Kleinandelfingen","shortName":"Kleinandelfingen"},"district":{"key":"102","name":"Bezirk Andelfingen"},"canton":{"key":"1","code":"ZH","name":"Zürich"},"status":"Real"},{"key":"10080928","name":"Hirstigstrasse","postalCode":"8451","locality":"Kleinandelfingen","commune":{"key":"33","name":"Kleinandelfingen","shortName":"Kleinandelfingen"},"district":{"key":"102","name":"Bezirk Andelfingen"},"canton":{"key":"1","code":"ZH","name":"Zürich"},"status":"Real"},{"key":"10106072","name":"Hirstigweg","postalCode":"8451","locality":"Kleinandelfingen","commune":{"key":"33","name":"Kleinandelfingen","shortName":"Kleinandelfingen"},"district":{"key":"102","name":"Bezirk Andelfingen"},"canton":{"key":"1","code":"ZH","name":"Zürich"},"status":"Real"},{"key":"10099745","name":"Hofwiesenstrasse","postalCode":"8450","locality":"Andelfingen","commune":{"key":"291","name":"Andelfingen","shortName":"Andelfingen"},"district":{"key":"102","name":"Bezirk Andelfingen"},"canton":{"key":"1","code":"ZH","name":"Zürich"},"status":"Real"},{"key":"10200150","name":"Holzackerstrasse","postalCode":"8450","locality":"Andelfingen","commune":{"key":"291","name":"Andelfingen","shortName":"Andelfingen"},"district":{"key":"102","name":"Bezirk Andelfingen"},"canton":{"key":"1","code":"ZH","name":"Zürich"},"status":"Real"},{"key":"10202294","name":"Holzackerstrasse","postalCode":"8452","locality":"Adlikon b. Andelfingen","commune":{"key":"291","name":"Andelfingen","shortName":"Andelfingen"},"district":{"key":"102","name":"Bezirk Andelfingen"},"canton":{"key":"1","code":"ZH","name":"Zürich"},"status":"Real"},{"key":"10202295","name":"Homelstrasse","postalCode":"8452","locality":"Adlikon b. Andelfingen","commune":{"key":"291","name":"Andelfingen","shortName":"Andelfingen"},"district":{"key":"102","name":"Bezirk Andelfingen"},"canton":{"key":"1","code":"ZH","name":"Zürich"},"status":"Real"},{"key":"10202305","name":"Homelweg","postalCode":"8452","locality":"Adlikon b. Andelfingen","commune":{"key":"291","name":"Andelfingen","shortName":"Andelfingen"},"district":{"key":"102","name":"Bezirk Andelfingen"},"canton":{"key":"1","code":"ZH","name":"Zürich"},"status":"Real"},{"key":"10141618","name":"Hostbachstrasse","postalCode":"8450","locality":"Andelfingen","commune":{"key":"291","name":"Andelfingen","shortName":"Andelfingen"},"district":{"key":"102","name":"Bezirk Andelfingen"},"canton":{"key":"1","code":"ZH","name":"Zürich"},"status":"Real"},{"key":"10080910","name":"Humlikonerstrasse","postalCode":"8450","locality":"Andelfingen","commune":{"key":"291","name":"Andelfingen","shortName":"Andelfingen"},"district":{"key":"102","name":"Bezirk Andelfingen"},"canton":{"key":"1","code":"ZH","name":"Zürich"},"status":"Real"},{"key":"10080929","name":"Im Baumgarten","postalCode":"8451","locality":"Kleinandelfingen","commune":{"key":"33","name":"Kleinandelfingen","shortName":"Kleinandelfingen"},"district":{"key":"102","name":"Bezirk Andelfingen"},"canton":{"key":"1","code":"ZH","name":"Zürich"},"status":"Real"},{"key":"10000796","name":"Im Bilg","postalCode":"8450","locality":"Andelfingen","commune":{"key":"291","name":"Andelfingen","shortName":"Andelfingen"},"district":{"key":"102","name":"Bezirk Andelfingen"},"canton":{"key":"1","code":"ZH","name":"Zürich"},"status":"Real"},{"key":"10067315","name":"Im Böndler","postalCode":"8450","locality":"Andelfingen","commune":{"key":"291","name":"Andelfingen","shortName":"Andelfingen"},"district":{"key":"102","name":"Bezirk Andelfingen"},"canton":{"key":"1","code":"ZH","name":"Zürich"},"status":"Real"},{"key":"10076489","name":"Im Bungert","postalCode":"8451","locality":"Kleinandelfingen","commune":{"key":"33","name":"Kleinandelfingen","shortName":"Kleinandelfingen"},"district":{"key":"102","name":"Bezirk Andelfingen"},"canton":{"key":"1","code":"ZH","name":"Zürich"},"status":"Real"},{"key":"10162374","name":"Im Hächi","postalCode":"8452","locality":"Adlikon b. Andelfingen","commune":{"key":"291","name":"Andelfingen","shortName":"Andelfingen"},"district":{"key":"102","name":"Bezirk Andelfingen"},"canton":{"key":"1","code":"ZH","name":"Zürich"},"status":"Real"},{"key":"10000112","name":"Im Hof","postalCode":"8452","locality":"Adlikon b. Andelfingen","commune":{"key":"291","name":"Andelfingen","shortName":"Andelfingen"},"district":{"key":"102","name":"Bezirk Andelfingen"},"canton":{"key":"1","code":"ZH","name":"Zürich"},"status":"Real"},{"key":"10000803","name":"Im Langwingerten","postalCode":"8450","locality":"Andelfingen","commune":{"key":"291","name":"Andelfingen","shortName":"Andelfingen"},"district":{"key":"102","name":"Bezirk Andelfingen"},"canton":{"key":"1","code":"ZH","name":"Zürich"},"status":"Real"},{"key":"10149484","name":"Im Lodiker","postalCode":"8452","locality":"Adlikon b. Andelfingen","commune":{"key":"291","name":"Andelfingen","shortName":"Andelfingen"},"district":{"key":"102","name":"Bezirk Andelfingen"},"canton":{"key":"1","code":"ZH","name":"Zürich"},"status":"Real"},{"key":"10170472","name":"Im Loobuck","postalCode":"8452","locality":"Adlikon b. Andelfingen","commune":{"key":"291","name":"Andelfingen","shortName":"Andelfingen"},"district":{"key":"102","name":"Bezirk Andelfingen"},"canton":{"key":"1","code":"ZH","name":"Zürich"},"status":"Real"},{"key":"10057462","name":"Im Oerli","postalCode":"8450","locality":"Andelfingen","commune":{"key":"291","name":"Andelfingen","shortName":"Andelfingen"},"district":{"key":"102","name":"Bezirk Andelfingen"},"canton":{"key":"1","code":"ZH","name":"Zürich"},"status":"Real"},{"key":"10202296","name":"Impermoosstrasse","postalCode":"8452","locality":"Adlikon b. Andelfingen","commune":{"key":"291","name":"Andelfingen","shortName":"Andelfingen"},"district":{"key":"102","name":"Bezirk Andelfingen"},"canton":{"key":"1","code":"ZH","name":"Zürich"},"status":"Real"},{"key":"10002088","name":"Im Rebberg","postalCode":"8451","locality":"Kleinandelfingen","commune":{"key":"33","name":"Kleinandelfingen","shortName":"Kleinandelfingen"},"district":{"key":"102","name":"Bezirk Andelfingen"},"canton":{"key":"1","code":"ZH","name":"Zürich"},"status":"Real"},{"key":"10057041","name":"Im Stucki","postalCode":"8450","locality":"Andelfingen","commune":{"key":"291","name":"Andelfingen","shortName":"Andelfingen"},"district":{"key":"102","name":"Bezirk Andelfingen"},"canton":{"key":"1","code":"ZH","name":"Zürich"},"status":"Real"},{"key":"10172240","name":"Im Untergries","postalCode":"8451","locality":"Kleinandelfingen","commune":{"key":"33","name":"Kleinandelfingen","shortName":"Kleinandelfingen"},"district":{"key":"102","name":"Bezirk Andelfingen"},"canton":{"key":"1","code":"ZH","name":"Zürich"},"status":"Real"},{"key":"10001300","name":"Im Winkel","postalCode":"8450","locality":"Andelfingen","commune":{"key":"291","name":"Andelfingen","shortName":"Andelfingen"},"district":{"key":"102","name":"Bezirk Andelfingen"},"canton":{"key":"1","code":"ZH","name":"Zürich"},"status":"Real"},{"key":"10001301","name":"In der Au","postalCode":"8450","locality":"Andelfingen","commune":{"key":"291","name":"Andelfingen","shortName":"Andelfingen"},"district":{"key":"102","name":"Bezirk Andelfingen"},"canton":{"key":"1","code":"ZH","name":"Zürich"},"status":"Real"},{"key":"10067274","name":"In der Halden","postalCode":"8452","locality":"Adlikon b. Andelfingen","commune":{"key":"291","name":"Andelfingen","shortName":"Andelfingen"},"district":{"key":"102","name":"Bezirk Andelfingen"},"canton":{"key":"1","code":"ZH","name":"Zürich"},"status":"Real"},{"key":"10057042","name":"Industriestrasse","postalCode":"8450","locality":"Andelfingen","commune":{"key":"291","name":"Andelfingen","shortName":"Andelfingen"},"district":{"key":"102","name":"Bezirk Andelfingen"},"canton":{"key":"1","code":"ZH","name":"Zürich"},"status":"Real"},{"key":"10203666","name":"Inslenstrasse","postalCode":"8450","locality":"Andelfingen","commune":{"key":"291","name":"Andelfingen","shortName":"Andelfingen"},"district":{"key":"102","name":"Bezirk Andelfingen"},"canton":{"key":"1","code":"ZH","name":"Zürich"},"status":"Real"},{"key":"10001302","name":"Ischlagstrasse","postalCode":"8450","locality":"Andelfingen","commune":{"key":"291","name":"Andelfingen","shortName":"Andelfingen"},"district":{"key":"102","name":"Bezirk Andelfingen"},"canton":{"key":"1","code":"ZH","name":"Zürich"},"status":"Real"},{"key":"10080911","name":"Isenbergstrasse","postalCode":"8450","locality":"Andelfingen","commune":{"key":"291","name":"Andelfingen","shortName":"Andelfingen"},"district":{"key":"102","name":"Bezirk Andelfingen"},"canton":{"key":"1","code":"ZH","name":"Zürich"},"status":"Real"},{"key":"10166312","name":"Jagdhüttenstrasse","postalCode":"8451","locality":"Kleinandelfingen","commune":{"key":"33","name":"Kleinandelfingen","shortName":"Kleinandelfingen"},"district":{"key":"102","name":"Bezirk Andelfingen"},"canton":{"key":"1","code":"ZH","name":"Zürich"},"status":"Real"},{"key":"10150957","name":"Junkholzstrasse","postalCode":"8451","locality":"Kleinandelfingen","commune":{"key":"33","name":"Kleinandelfingen","shortName":"Kleinandelfingen"},"district":{"key":"102","name":"Bezirk Andelfingen"},"canton":{"key":"1","code":"ZH","name":"Zürich"},"status":"Real"},{"key":"10002089","name":"Kanzleistrasse","postalCode":"8451","locality":"Kleinandelfingen","commune":{"key":"33","name":"Kleinandelfingen","shortName":"Kleinandelfingen"},"district":{"key":"102","name":"Bezirk Andelfingen"},"canton":{"key":"1","code":"ZH","name":"Zürich"},"status":"Real"},{"key":"10152034","name":"Kellenweg","postalCode":"8450","locality":"Andelfingen","commune":{"key":"291","name":"Andelfingen","shortName":"Andelfingen"},"district":{"key":"102","name":"Bezirk Andelfingen"},"canton":{"key":"1","code":"ZH","name":"Zürich"},"status":"Real"},{"key":"10203667","name":"Keltenweg","postalCode":"8450","locality":"Andelfingen","commune":{"key":"291","name":"Andelfingen","shortName":"Andelfingen"},"district":{"key":"102","name":"Bezirk Andelfingen"},"canton":{"key":"1","code":"ZH","name":"Zürich"},"status":"Real"},{"key":"10170155","name":"Kirchweg","postalCode":"8450","locality":"Andelfingen","commune":{"key":"291","name":"Andelfingen","shortName":"Andelfingen"},"district":{"key":"102","name":"Bezirk Andelfingen"},"canton":{"key":"1","code":"ZH","name":"Zürich"},"status":"Real"},{"key":"10203668","name":"Läggenstrasse","postalCode":"8450","locality":"Andelfingen","commune":{"key":"291","name":"Andelfingen","shortName":"Andelfingen"},"district":{"key":"102","name":"Bezirk Andelfingen"},"canton":{"key":"1","code":"ZH","name":"Zürich"},"status":"Real"},{"key":"10202297","name":"Läholzstrasse","postalCode":"8452","locality":"Adlikon b. Andelfingen","commune":{"key":"291","name":"Andelfingen","shortName":"Andelfingen"},"district":{"key":"102","name":"Bezirk Andelfingen"},"canton":{"key":"1","code":"ZH","name":"Zürich"},"status":"Real"},{"key":"10202298","name":"Lampenrainstrasse","postalCode":"8452","locality":"Adlikon b. Andelfingen","commune":{"key":"291","name":"Andelfingen","shortName":"Andelfingen"},"district":{"key":"102","name":"Bezirk Andelfingen"},"canton":{"key":"1","code":"ZH","name":"Zürich"},"status":"Real"},{"key":"10110876","name":"Landstrasse","postalCode":"8450","locality":"Andelfingen","commune":{"key":"291","name":"Andelfingen","shortName":"Andelfingen"},"district":{"key":"102","name":"Bezirk Andelfingen"},"canton":{"key":"1","code":"ZH","name":"Zürich"},"status":"Real"},{"key":"10157549","name":"Landstrasse","postalCode":"8452","locality":"Adlikon b. Andelfingen","commune":{"key":"291","name":"Andelfingen","shortName":"Andelfingen"},"district":{"key":"102","name":"Bezirk Andelfingen"},"canton":{"key":"1","code":"ZH","name":"Zürich"},"status":"Real"},{"key":"10203669","name":"Langwiesenstrasse","postalCode":"8450","locality":"Andelfingen","commune":{"key":"291","name":"Andelfingen","shortName":"Andelfingen"},"district":{"key":"102","name":"Bezirk Andelfingen"},"canton":{"key":"1","code":"ZH","name":"Zürich"},"status":"Real"},{"key":"10150958","name":"Lärchenschlagstrasse","postalCode":"8451","locality":"Kleinandelfingen","commune":{"key":"33","name":"Kleinandelfingen","shortName":"Kleinandelfingen"},"district":{"key":"102","name":"Bezirk Andelfingen"},"canton":{"key":"1","code":"ZH","name":"Zürich"},"status":"Real"},{"key":"10150959","name":"Laubhaustrasse","postalCode":"8451","locality":"Kleinandelfingen","commune":{"key":"33","name":"Kleinandelfingen","shortName":"Kleinandelfingen"},"district":{"key":"102","name":"Bezirk Andelfingen"},"canton":{"key":"1","code":"ZH","name":"Zürich"},"status":"Real"},{"key":"10248788","name":"Leigrueb","postalCode":"8450","locality":"Andelfingen","commune":{"key":"291","name":"Andelfingen","shortName":"Andelfingen"},"district":{"key":"102","name":"Bezirk Andelfingen"},"canton":{"key":"1","code":"ZH","name":"Zürich"},"status":"Real"},{"key":"10161556","name":"Lindenweg","postalCode":"8450","locality":"Andelfingen","commune":{"key":"291","name":"Andelfingen","shortName":"Andelfingen"},"district":{"key":"102","name":"Bezirk Andelfingen"},"canton":{"key":"1","code":"ZH","name":"Zürich"},"status":"Real"},{"key":"10238112","name":"Lochseestrasse","postalCode":"8451","locality":"Kleinandelfingen","commune":{"key":"33","name":"Kleinandelfingen","shortName":"Kleinandelfingen"},"district":{"key":"102","name":"Bezirk Andelfingen"},"canton":{"key":"1","code":"ZH","name":"Zürich"},"status":"Real"},{"key":"10200133","name":"Lodikerstrasse","postalCode":"8452","locality":"Adlikon b. Andelfingen","commune":{"key":"291","name":"Andelfingen","shortName":"Andelfingen"},"district":{"key":"102","name":"Bezirk Andelfingen"},"canton":{"key":"1","code":"ZH","name":"Zürich"},"status":"Real"},{"key":"10153845","name":"Loobuckstrasse","postalCode":"8452","locality":"Adlikon b. Andelfingen","commune":{"key":"291","name":"Andelfingen","shortName":"Andelfingen"},"district":{"key":"102","name":"Bezirk Andelfingen"},"canton":{"key":"1","code":"ZH","name":"Zürich"},"status":"Real"},{"key":"10150960","name":"Lörenstrasse","postalCode":"8451","locality":"Kleinandelfingen","commune":{"key":"33","name":"Kleinandelfingen","shortName":"Kleinandelfingen"},"district":{"key":"102","name":"Bezirk Andelfingen"},"canton":{"key":"1","code":"ZH","name":"Zürich"},"status":"Real"},{"key":"10141859","name":"Lörenweg","postalCode":"8451","locality":"Kleinandelfingen","commune":{"key":"33","name":"Kleinandelfingen","shortName":"Kleinandelfingen"},"district":{"key":"102","name":"Bezirk Andelfingen"},"canton":{"key":"1","code":"ZH","name":"Zürich"},"status":"Real"},{"key":"10246450","name":"Marthalerstrasse","postalCode":"8451","locality":"Kleinandelfingen","commune":{"key":"33","name":"Kleinandelfingen","shortName":"Kleinandelfingen"},"district":{"key":"102","name":"Bezirk Andelfingen"},"canton":{"key":"1","code":"ZH","name":"Zürich"},"status":"Real"},{"key":"10106073","name":"Marthalerweg","postalCode":"8451","locality":"Kleinandelfingen","commune":{"key":"33","name":"Kleinandelfingen","shortName":"Kleinandelfingen"},"district":{"key":"102","name":"Bezirk Andelfingen"},"canton":{"key":"1","code":"ZH","name":"Zürich"},"status":"Real"},{"key":"10080930","name":"Metzggasse","postalCode":"8451","locality":"Kleinandelfingen","commune":{"key":"33","name":"Kleinandelfingen","shortName":"Kleinandelfingen"},"district":{"key":"102","name":"Bezirk Andelfingen"},"canton":{"key":"1","code":"ZH","name":"Zürich"},"status":"Real"},{"key":"10183524","name":"Mühlebergstrasse","postalCode":"8450","locality":"Andelfingen","commune":{"key":"291","name":"Andelfingen","shortName":"Andelfingen"},"district":{"key":"102","name":"Bezirk Andelfingen"},"canton":{"key":"1","code":"ZH","name":"Zürich"},"status":"Real"},{"key":"10238102","name":"Müliberg","postalCode":"8450","locality":"Andelfingen","commune":{"key":"291","name":"Andelfingen","shortName":"Andelfingen"},"district":{"key":"102","name":"Bezirk Andelfingen"},"canton":{"key":"1","code":"ZH","name":"Zürich"},"status":"Real"},{"key":"10202299","name":"Negistrasse","postalCode":"8452","locality":"Adlikon b. Andelfingen","commune":{"key":"291","name":"Andelfingen","shortName":"Andelfingen"},"district":{"key":"102","name":"Bezirk Andelfingen"},"canton":{"key":"1","code":"ZH","name":"Zürich"},"status":"Real"},{"key":"10001303","name":"Neugutstrasse","postalCode":"8450","locality":"Andelfingen","commune":{"key":"291","name":"Andelfingen","shortName":"Andelfingen"},"district":{"key":"102","name":"Bezirk Andelfingen"},"canton":{"key":"1","code":"ZH","name":"Zürich"},"status":"Real"},{"key":"10080912","name":"Niederfeld","postalCode":"8450","locality":"Andelfingen","commune":{"key":"291","name":"Andelfingen","shortName":"Andelfingen"},"district":{"key":"102","name":"Bezirk Andelfingen"},"canton":{"key":"1","code":"ZH","name":"Zürich"},"status":"Real"},{"key":"10141627","name":"Niederfeldstrasse","postalCode":"8450","locality":"Andelfingen","commune":{"key":"291","name":"Andelfingen","shortName":"Andelfingen"},"district":{"key":"102","name":"Bezirk Andelfingen"},"canton":{"key":"1","code":"ZH","name":"Zürich"},"status":"Real"},{"key":"10002090","name":"Niedergasse","postalCode":"8451","locality":"Kleinandelfingen","commune":{"key":"33","name":"Kleinandelfingen","shortName":"Kleinandelfingen"},"district":{"key":"102","name":"Bezirk Andelfingen"},"canton":{"key":"1","code":"ZH","name":"Zürich"},"status":"Real"},{"key":"10203670","name":"Niederwilerstrasse","postalCode":"8450","locality":"Andelfingen","commune":{"key":"291","name":"Andelfingen","shortName":"Andelfingen"},"district":{"key":"102","name":"Bezirk Andelfingen"},"canton":{"key":"1","code":"ZH","name":"Zürich"},"status":"Real"},{"key":"10203671","name":"Notariatsweg","postalCode":"8450","locality":"Andelfingen","commune":{"key":"291","name":"Andelfingen","shortName":"Andelfingen"},"district":{"key":"102","name":"Bezirk Andelfingen"},"canton":{"key":"1","code":"ZH","name":"Zürich"},"status":"Real"},{"key":"10001304","name":"Ob der Gass","postalCode":"8450","locality":"Andelfingen","commune":{"key":"291","name":"Andelfingen","shortName":"Andelfingen"},"district":{"key":"102","name":"Bezirk Andelfingen"},"canton":{"key":"1","code":"ZH","name":"Zürich"},"status":"Real"},{"key":"10000114","name":"Oberdorf","postalCode":"8452","locality":"Adlikon b. Andelfingen","commune":{"key":"291","name":"Andelfingen","shortName":"Andelfingen"},"district":{"key":"102","name":"Bezirk Andelfingen"},"canton":{"key":"1","code":"ZH","name":"Zürich"},"status":"Real"},{"key":"10203672","name":"Obere Birchhaustrasse","postalCode":"8450","locality":"Andelfingen","commune":{"key":"291","name":"Andelfingen","shortName":"Andelfingen"},"district":{"key":"102","name":"Bezirk Andelfingen"},"canton":{"key":"1","code":"ZH","name":"Zürich"},"status":"Real"},{"key":"10203673","name":"Obere Haselackerstrasse","postalCode":"8450","locality":"Andelfingen","commune":{"key":"291","name":"Andelfingen","shortName":"Andelfingen"},"district":{"key":"102","name":"Bezirk Andelfingen"},"canton":{"key":"1","code":"ZH","name":"Zürich"},"status":"Real"},{"key":"10203674","name":"Obere Läggenstrasse","postalCode":"8450","locality":"Andelfingen","commune":{"key":"291","name":"Andelfingen","shortName":"Andelfingen"},"district":{"key":"102","name":"Bezirk Andelfingen"},"canton":{"key":"1","code":"ZH","name":"Zürich"},"status":"Real"},{"key":"10141862","name":"Obere Schiterbergstrasse","postalCode":"8451","locality":"Kleinandelfingen","commune":{"key":"33","name":"Kleinandelfingen","shortName":"Kleinandelfingen"},"district":{"key":"102","name":"Bezirk Andelfingen"},"canton":{"key":"1","code":"ZH","name":"Zürich"},"status":"Real"},{"key":"10203675","name":"Oberholzstrasse","postalCode":"8450","locality":"Andelfingen","commune":{"key":"291","name":"Andelfingen","shortName":"Andelfingen"},"district":{"key":"102","name":"Bezirk Andelfingen"},"canton":{"key":"1","code":"ZH","name":"Zürich"},"status":"Real"},{"key":"10127684","name":"Oberkahnenstrasse","postalCode":"8450","locality":"Andelfingen","commune":{"key":"291","name":"Andelfingen","shortName":"Andelfingen"},"district":{"key":"102","name":"Bezirk Andelfingen"},"canton":{"key":"1","code":"ZH","name":"Zürich"},"status":"Real"},{"key":"10080913","name":"Obermühlestrasse","postalCode":"8450","locality":"Andelfingen","commune":{"key":"291","name":"Andelfingen","shortName":"Andelfingen"},"district":{"key":"102","name":"Bezirk Andelfingen"},"canton":{"key":"1","code":"ZH","name":"Zürich"},"status":"Real"},{"key":"10157550","name":"Oberwilerstrasse","postalCode":"8452","locality":"Adlikon b. Andelfingen","commune":{"key":"291","name":"Andelfingen","shortName":"Andelfingen"},"district":{"key":"102","name":"Bezirk Andelfingen"},"canton":{"key":"1","code":"ZH","name":"Zürich"},"status":"Real"},{"key":"10057043","name":"Obstgartenstrasse","postalCode":"8450","locality":"Andelfingen","commune":{"key":"291","name":"Andelfingen","shortName":"Andelfingen"},"district":{"key":"102","name":"Bezirk Andelfingen"},"canton":{"key":"1","code":"ZH","name":"Zürich"},"status":"Real"},{"key":"10119744","name":"Oerlingerstrasse","postalCode":"8451","locality":"Kleinandelfingen","commune":{"key":"33","name":"Kleinandelfingen","shortName":"Kleinandelfingen"},"district":{"key":"102","name":"Bezirk Andelfingen"},"canton":{"key":"1","code":"ZH","name":"Zürich"},"status":"Real"},{"key":"10150961","name":"Oerlingerweg","postalCode":"8451","locality":"Kleinandelfingen","commune":{"key":"33","name":"Kleinandelfingen","shortName":"Kleinandelfingen"},"district":{"key":"102","name":"Bezirk Andelfingen"},"canton":{"key":"1","code":"ZH","name":"Zürich"},"status":"Real"},{"key":"10080931","name":"Ossingerstrasse","postalCode":"8451","locality":"Kleinandelfingen","commune":{"key":"33","name":"Kleinandelfingen","shortName":"Kleinandelfingen"},"district":{"key":"102","name":"Bezirk Andelfingen"},"canton":{"key":"1","code":"ZH","name":"Zürich"},"status":"Real"},{"key":"10200132","name":"Pfaffenseestrasse","postalCode":"8451","locality":"Kleinandelfingen","commune":{"key":"33","name":"Kleinandelfingen","shortName":"Kleinandelfingen"},"district":{"key":"102","name":"Bezirk Andelfingen"},"canton":{"key":"1","code":"ZH","name":"Zürich"},"status":"Real"},{"key":"10157814","name":"Poststrasse","postalCode":"8452","locality":"Adlikon b. Andelfingen","commune":{"key":"291","name":"Andelfingen","shortName":"Andelfingen"},"district":{"key":"102","name":"Bezirk Andelfingen"},"canton":{"key":"1","code":"ZH","name":"Zürich"},"status":"Real"},{"key":"10238103","name":"Pünten","postalCode":"8450","locality":"Andelfingen","commune":{"key":"291","name":"Andelfingen","shortName":"Andelfingen"},"district":{"key":"102","name":"Bezirk Andelfingen"},"canton":{"key":"1","code":"ZH","name":"Zürich"},"status":"Real"},{"key":"10057463","name":"Püntenhof","postalCode":"8450","locality":"Andelfingen","commune":{"key":"291","name":"Andelfingen","shortName":"Andelfingen"},"district":{"key":"102","name":"Bezirk Andelfingen"},"canton":{"key":"1","code":"ZH","name":"Zürich"},"status":"Real"},{"key":"10141863","name":"Räubrichseestrasse","postalCode":"8451","locality":"Kleinandelfingen","commune":{"key":"33","name":"Kleinandelfingen","shortName":"Kleinandelfingen"},"district":{"key":"102","name":"Bezirk Andelfingen"},"canton":{"key":"1","code":"ZH","name":"Zürich"},"status":"Real"},{"key":"10141864","name":"Räubrichseeweg","postalCode":"8451","locality":"Kleinandelfingen","commune":{"key":"33","name":"Kleinandelfingen","shortName":"Kleinandelfingen"},"district":{"key":"102","name":"Bezirk Andelfingen"},"canton":{"key":"1","code":"ZH","name":"Zürich"},"status":"Real"},{"key":"10067276","name":"Rebbergstrasse","postalCode":"8452","locality":"Adlikon b. Andelfingen","commune":{"key":"291","name":"Andelfingen","shortName":"Andelfingen"},"district":{"key":"102","name":"Bezirk Andelfingen"},"canton":{"key":"1","code":"ZH","name":"Zürich"},"status":"Real"},{"key":"10000115","name":"Rebhof","postalCode":"8452","locality":"Adlikon b. Andelfingen","commune":{"key":"291","name":"Andelfingen","shortName":"Andelfingen"},"district":{"key":"102","name":"Bezirk Andelfingen"},"canton":{"key":"1","code":"ZH","name":"Zürich"},"status":"Real"},{"key":"10057335","name":"Rebhofstrasse","postalCode":"8451","locality":"Kleinandelfingen","commune":{"key":"33","name":"Kleinandelfingen","shortName":"Kleinandelfingen"},"district":{"key":"102","name":"Bezirk Andelfingen"},"canton":{"key":"1","code":"ZH","name":"Zürich"},"status":"Real"},{"key":"10203676","name":"Rebweg","postalCode":"8450","locality":"Andelfingen","commune":{"key":"291","name":"Andelfingen","shortName":"Andelfingen"},"district":{"key":"102","name":"Bezirk Andelfingen"},"canton":{"key":"1","code":"ZH","name":"Zürich"},"status":"Real"},{"key":"10001305","name":"Reitplatzstrasse","postalCode":"8450","locality":"Andelfingen","commune":{"key":"291","name":"Andelfingen","shortName":"Andelfingen"},"district":{"key":"102","name":"Bezirk Andelfingen"},"canton":{"key":"1","code":"ZH","name":"Zürich"},"status":"Real"},{"key":"10166313","name":"Riethaldenstrasse","postalCode":"8451","locality":"Kleinandelfingen","commune":{"key":"33","name":"Kleinandelfingen","shortName":"Kleinandelfingen"},"district":{"key":"102","name":"Bezirk Andelfingen"},"canton":{"key":"1","code":"ZH","name":"Zürich"},"status":"Real"},{"key":"10153168","name":"Riethaldenweg","postalCode":"8451","locality":"Kleinandelfingen","commune":{"key":"33","name":"Kleinandelfingen","shortName":"Kleinandelfingen"},"district":{"key":"102","name":"Bezirk Andelfingen"},"canton":{"key":"1","code":"ZH","name":"Zürich"},"status":"Real"},{"key":"10170820","name":"Rietstrasse","postalCode":"8451","locality":"Kleinandelfingen","commune":{"key":"33","name":"Kleinandelfingen","shortName":"Kleinandelfingen"},"district":{"key":"102","name":"Bezirk Andelfingen"},"canton":{"key":"1","code":"ZH","name":"Zürich"},"status":"Real"},{"key":"10202300","name":"Römerweg","postalCode":"8452","locality":"Adlikon b. Andelfingen","commune":{"key":"291","name":"Andelfingen","shortName":"Andelfingen"},"district":{"key":"102","name":"Bezirk Andelfingen"},"canton":{"key":"1","code":"ZH","name":"Zürich"},"status":"Real"},{"key":"10203677","name":"Rundstrasse","postalCode":"8450","locality":"Andelfingen","commune":{"key":"291","name":"Andelfingen","shortName":"Andelfingen"},"district":{"key":"102","name":"Bezirk Andelfingen"},"canton":{"key":"1","code":"ZH","name":"Zürich"},"status":"Real"},{"key":"10001306","name":"Rütenen","postalCode":"8450","locality":"Andelfingen","commune":{"key":"291","name":"Andelfingen","shortName":"Andelfingen"},"district":{"key":"102","name":"Bezirk Andelfingen"},"canton":{"key":"1","code":"ZH","name":"Zürich"},"status":"Real"},{"key":"10169337","name":"Rütibuckstrasse","postalCode":"8451","locality":"Kleinandelfingen","commune":{"key":"33","name":"Kleinandelfingen","shortName":"Kleinandelfingen"},"district":{"key":"102","name":"Bezirk Andelfingen"},"canton":{"key":"1","code":"ZH","name":"Zürich"},"status":"Real"},{"key":"10169338","name":"Rütibüelstrasse","postalCode":"8451","locality":"Kleinandelfingen","commune":{"key":"33","name":"Kleinandelfingen","shortName":"Kleinandelfingen"},"district":{"key":"102","name":"Bezirk Andelfingen"},"canton":{"key":"1","code":"ZH","name":"Zürich"},"status":"Real"},{"key":"10141865","name":"Rütibüelweg","postalCode":"8451","locality":"Kleinandelfingen","commune":{"key":"33","name":"Kleinandelfingen","shortName":"Kleinandelfingen"},"district":{"key":"102","name":"Bezirk Andelfingen"},"canton":{"key":"1","code":"ZH","name":"Zürich"},"status":"Real"},{"key":"10111696","name":"Rütihof","postalCode":"8450","locality":"Andelfingen","commune":{"key":"291","name":"Andelfingen","shortName":"Andelfingen"},"district":{"key":"102","name":"Bezirk Andelfingen"},"canton":{"key":"1","code":"ZH","name":"Zürich"},"status":"Real"},{"key":"10080914","name":"Salomon-Landolt-Strasse","postalCode":"8450","locality":"Andelfingen","commune":{"key":"291","name":"Andelfingen","shortName":"Andelfingen"},"district":{"key":"102","name":"Bezirk Andelfingen"},"canton":{"key":"1","code":"ZH","name":"Zürich"},"status":"Real"},{"key":"10238066","name":"Schadenwilstrasse","postalCode":"8452","locality":"Adlikon b. Andelfingen","commune":{"key":"291","name":"Andelfingen","shortName":"Andelfingen"},"district":{"key":"102","name":"Bezirk Andelfingen"},"canton":{"key":"1","code":"ZH","name":"Zürich"},"status":"Real"},{"key":"10002091","name":"Schaffhauserstrasse","postalCode":"8451","locality":"Kleinandelfingen","commune":{"key":"33","name":"Kleinandelfingen","shortName":"Kleinandelfingen"},"district":{"key":"102","name":"Bezirk Andelfingen"},"canton":{"key":"1","code":"ZH","name":"Zürich"},"status":"Real"},{"key":"10162342","name":"Schaubenstieg","postalCode":"8450","locality":"Andelfingen","commune":{"key":"291","name":"Andelfingen","shortName":"Andelfingen"},"district":{"key":"102","name":"Bezirk Andelfingen"},"canton":{"key":"1","code":"ZH","name":"Zürich"},"status":"Real"},{"key":"10001307","name":"Schaubenstrasse","postalCode":"8450","locality":"Andelfingen","commune":{"key":"291","name":"Andelfingen","shortName":"Andelfingen"},"district":{"key":"102","name":"Bezirk Andelfingen"},"canton":{"key":"1","code":"ZH","name":"Zürich"},"status":"Real"},{"key":"10150963","name":"Schiterbergholzstrasse","postalCode":"8451","locality":"Kleinandelfingen","commune":{"key":"33","name":"Kleinandelfingen","shortName":"Kleinandelfingen"},"district":{"key":"102","name":"Bezirk Andelfingen"},"canton":{"key":"1","code":"ZH","name":"Zürich"},"status":"Real"},{"key":"10080934","name":"Schiterbergstrasse","postalCode":"8451","locality":"Kleinandelfingen","commune":{"key":"33","name":"Kleinandelfingen","shortName":"Kleinandelfingen"},"district":{"key":"102","name":"Bezirk Andelfingen"},"canton":{"key":"1","code":"ZH","name":"Zürich"},"status":"Real"},{"key":"10000116","name":"Schlattgasse","postalCode":"8452","locality":"Adlikon b. Andelfingen","commune":{"key":"291","name":"Andelfingen","shortName":"Andelfingen"},"district":{"key":"102","name":"Bezirk Andelfingen"},"canton":{"key":"1","code":"ZH","name":"Zürich"},"status":"Real"},{"key":"10057044","name":"Schlossgasse","postalCode":"8450","locality":"Andelfingen","commune":{"key":"291","name":"Andelfingen","shortName":"Andelfingen"},"district":{"key":"102","name":"Bezirk Andelfingen"},"canton":{"key":"1","code":"ZH","name":"Zürich"},"status":"Real"},{"key":"10203678","name":"Schluchenweg","postalCode":"8450","locality":"Andelfingen","commune":{"key":"291","name":"Andelfingen","shortName":"Andelfingen"},"district":{"key":"102","name":"Bezirk Andelfingen"},"canton":{"key":"1","code":"ZH","name":"Zürich"},"status":"Real"},{"key":"10154225","name":"Schneitenberg","postalCode":"8451","locality":"Kleinandelfingen","commune":{"key":"33","name":"Kleinandelfingen","shortName":"Kleinandelfingen"},"district":{"key":"102","name":"Bezirk Andelfingen"},"canton":{"key":"1","code":"ZH","name":"Zürich"},"status":"Real"},{"key":"10171281","name":"Schneitenbergstrasse","postalCode":"8451","locality":"Kleinandelfingen","commune":{"key":"33","name":"Kleinandelfingen","shortName":"Kleinandelfingen"},"district":{"key":"102","name":"Bezirk Andelfingen"},"canton":{"key":"1","code":"ZH","name":"Zürich"},"status":"Real"},{"key":"10150964","name":"Schneitenbergweg","postalCode":"8451","locality":"Kleinandelfingen","commune":{"key":"33","name":"Kleinandelfingen","shortName":"Kleinandelfingen"},"district":{"key":"102","name":"Bezirk Andelfingen"},"canton":{"key":"1","code":"ZH","name":"Zürich"},"status":"Real"},{"key":"10202301","name":"Schorenweg","postalCode":"8452","locality":"Adlikon b. Andelfingen","commune":{"key":"291","name":"Andelfingen","shortName":"Andelfingen"},"district":{"key":"102","name":"Bezirk Andelfingen"},"canton":{"key":"1","code":"ZH","name":"Zürich"},"status":"Real"},{"key":"10002092","name":"Schulstrasse","postalCode":"8451","locality":"Kleinandelfingen","commune":{"key":"33","name":"Kleinandelfingen","shortName":"Kleinandelfingen"},"district":{"key":"102","name":"Bezirk Andelfingen"},"canton":{"key":"1","code":"ZH","name":"Zürich"},"status":"Real"},{"key":"10202302","name":"Schulstrasse","postalCode":"8452","locality":"Adlikon b. Andelfingen","commune":{"key":"291","name":"Andelfingen","shortName":"Andelfingen"},"district":{"key":"102","name":"Bezirk Andelfingen"},"canton":{"key":"1","code":"ZH","name":"Zürich"},"status":"Real"},{"key":"10150152","name":"Schützenhausstrasse","postalCode":"8452","locality":"Adlikon b. Andelfingen","commune":{"key":"291","name":"Andelfingen","shortName":"Andelfingen"},"district":{"key":"102","name":"Bezirk Andelfingen"},"canton":{"key":"1","code":"ZH","name":"Zürich"},"status":"Real"},{"key":"10202303","name":"Schwarzackerstrasse","postalCode":"8452","locality":"Adlikon b. Andelfingen","commune":{"key":"291","name":"Andelfingen","shortName":"Andelfingen"},"district":{"key":"102","name":"Bezirk Andelfingen"},"canton":{"key":"1","code":"ZH","name":"Zürich"},"status":"Real"},{"key":"10111159","name":"Schwellistrasse","postalCode":"8450","locality":"Andelfingen","commune":{"key":"291","name":"Andelfingen","shortName":"Andelfingen"},"district":{"key":"102","name":"Bezirk Andelfingen"},"canton":{"key":"1","code":"ZH","name":"Zürich"},"status":"Real"},{"key":"10202278","name":"Siegelisrütistrasse","postalCode":"8451","locality":"Kleinandelfingen","commune":{"key":"33","name":"Kleinandelfingen","shortName":"Kleinandelfingen"},"district":{"key":"102","name":"Bezirk Andelfingen"},"canton":{"key":"1","code":"ZH","name":"Zürich"},"status":"Real"},{"key":"10002093","name":"Sigelwiesstrasse","postalCode":"8451","locality":"Kleinandelfingen","commune":{"key":"33","name":"Kleinandelfingen","shortName":"Kleinandelfingen"},"district":{"key":"102","name":"Bezirk Andelfingen"},"canton":{"key":"1","code":"ZH","name":"Zürich"},"status":"Real"},{"key":"10067277","name":"Sonnenberg","postalCode":"8452","locality":"Adlikon b. Andelfingen","commune":{"key":"291","name":"Andelfingen","shortName":"Andelfingen"},"district":{"key":"102","name":"Bezirk Andelfingen"},"canton":{"key":"1","code":"ZH","name":"Zürich"},"status":"Real"},{"key":"10238099","name":"Sonnenhof","postalCode":"8450","locality":"Andelfingen","commune":{"key":"291","name":"Andelfingen","shortName":"Andelfingen"},"district":{"key":"102","name":"Bezirk Andelfingen"},"canton":{"key":"1","code":"ZH","name":"Zürich"},"status":"Real"},{"key":"10000117","name":"Sonnenhof","postalCode":"8452","locality":"Adlikon b. Andelfingen","commune":{"key":"291","name":"Andelfingen","shortName":"Andelfingen"},"district":{"key":"102","name":"Bezirk Andelfingen"},"canton":{"key":"1","code":"ZH","name":"Zürich"},"status":"Real"},{"key":"10154227","name":"Spühlbuck","postalCode":"8451","locality":"Kleinandelfingen","commune":{"key":"33","name":"Kleinandelfingen","shortName":"Kleinandelfingen"},"district":{"key":"102","name":"Bezirk Andelfingen"},"canton":{"key":"1","code":"ZH","name":"Zürich"},"status":"Real"},{"key":"10165998","name":"Steig","postalCode":"8451","locality":"Kleinandelfingen","commune":{"key":"33","name":"Kleinandelfingen","shortName":"Kleinandelfingen"},"district":{"key":"102","name":"Bezirk Andelfingen"},"canton":{"key":"1","code":"ZH","name":"Zürich"},"status":"Real"},{"key":"10150966","name":"Steigstrasse","postalCode":"8451","locality":"Kleinandelfingen","commune":{"key":"33","name":"Kleinandelfingen","shortName":"Kleinandelfingen"},"district":{"key":"102","name":"Bezirk Andelfingen"},"canton":{"key":"1","code":"ZH","name":"Zürich"},"status":"Real"},{"key":"10153846","name":"Steimerlenstrasse","postalCode":"8452","locality":"Adlikon b. Andelfingen","commune":{"key":"291","name":"Andelfingen","shortName":"Andelfingen"},"district":{"key":"102","name":"Bezirk Andelfingen"},"canton":{"key":"1","code":"ZH","name":"Zürich"},"status":"Real"},{"key":"10057450","name":"Steinacker","postalCode":"8452","locality":"Adlikon b. Andelfingen","commune":{"key":"291","name":"Andelfingen","shortName":"Andelfingen"},"district":{"key":"102","name":"Bezirk Andelfingen"},"canton":{"key":"1","code":"ZH","name":"Zürich"},"status":"Real"},{"key":"10114077","name":"Steinackerstrasse","postalCode":"8450","locality":"Andelfingen","commune":{"key":"291","name":"Andelfingen","shortName":"Andelfingen"},"district":{"key":"102","name":"Bezirk Andelfingen"},"canton":{"key":"1","code":"ZH","name":"Zürich"},"status":"Real"},{"key":"10203679","name":"Steinackerweg","postalCode":"8450","locality":"Andelfingen","commune":{"key":"291","name":"Andelfingen","shortName":"Andelfingen"},"district":{"key":"102","name":"Bezirk Andelfingen"},"canton":{"key":"1","code":"ZH","name":"Zürich"},"status":"Real"},{"key":"10001308","name":"Strehlgasse","postalCode":"8450","locality":"Andelfingen","commune":{"key":"291","name":"Andelfingen","shortName":"Andelfingen"},"district":{"key":"102","name":"Bezirk Andelfingen"},"canton":{"key":"1","code":"ZH","name":"Zürich"},"status":"Real"},{"key":"10203680","name":"Sturmholzweg","postalCode":"8450","locality":"Andelfingen","commune":{"key":"291","name":"Andelfingen","shortName":"Andelfingen"},"district":{"key":"102","name":"Bezirk Andelfingen"},"canton":{"key":"1","code":"ZH","name":"Zürich"},"status":"Real"},{"key":"10154228","name":"Sunnehof","postalCode":"8451","locality":"Kleinandelfingen","commune":{"key":"33","name":"Kleinandelfingen","shortName":"Kleinandelfingen"},"district":{"key":"102","name":"Bezirk Andelfingen"},"canton":{"key":"1","code":"ZH","name":"Zürich"},"status":"Real"},{"key":"10170473","name":"Sunnehof","postalCode":"8452","locality":"Adlikon b. Andelfingen","commune":{"key":"291","name":"Andelfingen","shortName":"Andelfingen"},"district":{"key":"102","name":"Bezirk Andelfingen"},"canton":{"key":"1","code":"ZH","name":"Zürich"},"status":"Real"},{"key":"10165999","name":"Sunnehofstrasse","postalCode":"8451","locality":"Kleinandelfingen","commune":{"key":"33","name":"Kleinandelfingen","shortName":"Kleinandelfingen"},"district":{"key":"102","name":"Bezirk Andelfingen"},"canton":{"key":"1","code":"ZH","name":"Zürich"},"status":"Real"},{"key":"10150967","name":"Süstallweg","postalCode":"8451","locality":"Kleinandelfingen","commune":{"key":"33","name":"Kleinandelfingen","shortName":"Kleinandelfingen"},"district":{"key":"102","name":"Bezirk Andelfingen"},"canton":{"key":"1","code":"ZH","name":"Zürich"},"status":"Real"},{"key":"10189178","name":"Tannenheimweg","postalCode":"8450","locality":"Andelfingen","commune":{"key":"291","name":"Andelfingen","shortName":"Andelfingen"},"district":{"key":"102","name":"Bezirk Andelfingen"},"canton":{"key":"1","code":"ZH","name":"Zürich"},"status":"Real"},{"key":"10119745","name":"Tannholzstrasse","postalCode":"8451","locality":"Kleinandelfingen","commune":{"key":"33","name":"Kleinandelfingen","shortName":"Kleinandelfingen"},"district":{"key":"102","name":"Bezirk Andelfingen"},"canton":{"key":"1","code":"ZH","name":"Zürich"},"status":"Real"},{"key":"10119746","name":"Tannholzweg","postalCode":"8451","locality":"Kleinandelfingen","commune":{"key":"33","name":"Kleinandelfingen","shortName":"Kleinandelfingen"},"district":{"key":"102","name":"Bezirk Andelfingen"},"canton":{"key":"1","code":"ZH","name":"Zürich"},"status":"Real"},{"key":"10057464","name":"Tännlihof","postalCode":"8450","locality":"Andelfingen","commune":{"key":"291","name":"Andelfingen","shortName":"Andelfingen"},"district":{"key":"102","name":"Bezirk Andelfingen"},"canton":{"key":"1","code":"ZH","name":"Zürich"},"status":"Real"},{"key":"10001309","name":"Theodor-Gubler-Strasse","postalCode":"8450","locality":"Andelfingen","commune":{"key":"291","name":"Andelfingen","shortName":"Andelfingen"},"district":{"key":"102","name":"Bezirk Andelfingen"},"canton":{"key":"1","code":"ZH","name":"Zürich"},"status":"Real"},{"key":"10153167","name":"Thurhaldenstrasse","postalCode":"8451","locality":"Kleinandelfingen","commune":{"key":"33","name":"Kleinandelfingen","shortName":"Kleinandelfingen"},"district":{"key":"102","name":"Bezirk Andelfingen"},"canton":{"key":"1","code":"ZH","name":"Zürich"},"status":"Real"},{"key":"10127685","name":"Thurhaldenweg","postalCode":"8451","locality":"Kleinandelfingen","commune":{"key":"33","name":"Kleinandelfingen","shortName":"Kleinandelfingen"},"district":{"key":"102","name":"Bezirk Andelfingen"},"canton":{"key":"1","code":"ZH","name":"Zürich"},"status":"Real"},{"key":"10000118","name":"Thurhof","postalCode":"8452","locality":"Adlikon b. Andelfingen","commune":{"key":"291","name":"Andelfingen","shortName":"Andelfingen"},"district":{"key":"102","name":"Bezirk Andelfingen"},"canton":{"key":"1","code":"ZH","name":"Zürich"},"status":"Real"},{"key":"10143623","name":"Thurstrasse","postalCode":"8451","locality":"Kleinandelfingen","commune":{"key":"33","name":"Kleinandelfingen","shortName":"Kleinandelfingen"},"district":{"key":"102","name":"Bezirk Andelfingen"},"canton":{"key":"1","code":"ZH","name":"Zürich"},"status":"Real"},{"key":"10067278","name":"Thurstrasse","postalCode":"8452","locality":"Adlikon b. Andelfingen","commune":{"key":"291","name":"Andelfingen","shortName":"Andelfingen"},"district":{"key":"102","name":"Bezirk Andelfingen"},"canton":{"key":"1","code":"ZH","name":"Zürich"},"status":"Real"},{"key":"10057045","name":"Thurtalstrasse","postalCode":"8450","locality":"Andelfingen","commune":{"key":"291","name":"Andelfingen","shortName":"Andelfingen"},"district":{"key":"102","name":"Bezirk Andelfingen"},"canton":{"key":"1","code":"ZH","name":"Zürich"},"status":"Real"},{"key":"10202304","name":"Thurtalstrasse","postalCode":"8452","locality":"Adlikon b. Andelfingen","commune":{"key":"291","name":"Andelfingen","shortName":"Andelfingen"},"district":{"key":"102","name":"Bezirk Andelfingen"},"canton":{"key":"1","code":"ZH","name":"Zürich"},"status":"Real"},{"key":"10130069","name":"Thurweg","postalCode":"8450","locality":"Andelfingen","commune":{"key":"291","name":"Andelfingen","shortName":"Andelfingen"},"district":{"key":"102","name":"Bezirk Andelfingen"},"canton":{"key":"1","code":"ZH","name":"Zürich"},"status":"Real"},{"key":"10237984","name":"Tobelackerstrasse","postalCode":"8452","locality":"Adlikon b. Andelfingen","commune":{"key":"291","name":"Andelfingen","shortName":"Andelfingen"},"district":{"key":"102","name":"Bezirk Andelfingen"},"canton":{"key":"1","code":"ZH","name":"Zürich"},"status":"Real"},{"key":"10183527","name":"Trottenweg","postalCode":"8451","locality":"Kleinandelfingen","commune":{"key":"33","name":"Kleinandelfingen","shortName":"Kleinandelfingen"},"district":{"key":"102","name":"Bezirk Andelfingen"},"canton":{"key":"1","code":"ZH","name":"Zürich"},"status":"Real"},{"key":"10106702","name":"Tüfenau","postalCode":"8452","locality":"Adlikon b. Andelfingen","commune":{"key":"291","name":"Andelfingen","shortName":"Andelfingen"},"district":{"key":"102","name":"Bezirk Andelfingen"},"canton":{"key":"1","code":"ZH","name":"Zürich"},"status":"Real"},{"key":"10171561","name":"Tüfenaustrasse","postalCode":"8452","locality":"Adlikon b. Andelfingen","commune":{"key":"291","name":"Andelfingen","shortName":"Andelfingen"},"district":{"key":"102","name":"Bezirk Andelfingen"},"canton":{"key":"1","code":"ZH","name":"Zürich"},"status":"Real"},{"key":"10000119","name":"Tüslerweg","postalCode":"8452","locality":"Adlikon b. Andelfingen","commune":{"key":"291","name":"Andelfingen","shortName":"Andelfingen"},"district":{"key":"102","name":"Bezirk Andelfingen"},"canton":{"key":"1","code":"ZH","name":"Zürich"},"status":"Real"},{"key":"10203681","name":"Undergillstrasse","postalCode":"8450","locality":"Andelfingen","commune":{"key":"291","name":"Andelfingen","shortName":"Andelfingen"},"district":{"key":"102","name":"Bezirk Andelfingen"},"canton":{"key":"1","code":"ZH","name":"Zürich"},"status":"Real"},{"key":"10157815","name":"Unterdorfstrasse","postalCode":"8452","locality":"Adlikon b. Andelfingen","commune":{"key":"291","name":"Andelfingen","shortName":"Andelfingen"},"district":{"key":"102","name":"Bezirk Andelfingen"},"canton":{"key":"1","code":"ZH","name":"Zürich"},"status":"Real"},{"key":"10203682","name":"Untere Birchhaustrasse","postalCode":"8450","locality":"Andelfingen","commune":{"key":"291","name":"Andelfingen","shortName":"Andelfingen"},"district":{"key":"102","name":"Bezirk Andelfingen"},"canton":{"key":"1","code":"ZH","name":"Zürich"},"status":"Real"},{"key":"10203683","name":"Untere Eggstrasse","postalCode":"8450","locality":"Andelfingen","commune":{"key":"291","name":"Andelfingen","shortName":"Andelfingen"},"district":{"key":"102","name":"Bezirk Andelfingen"},"canton":{"key":"1","code":"ZH","name":"Zürich"},"status":"Real"},{"key":"10200151","name":"Untere Pflanzschulstrasse","postalCode":"8450","locality":"Andelfingen","commune":{"key":"291","name":"Andelfingen","shortName":"Andelfingen"},"district":{"key":"102","name":"Bezirk Andelfingen"},"canton":{"key":"1","code":"ZH","name":"Zürich"},"status":"Real"},{"key":"10203684","name":"Unterer Rabhaldenweg","postalCode":"8450","locality":"Andelfingen","commune":{"key":"291","name":"Andelfingen","shortName":"Andelfingen"},"district":{"key":"102","name":"Bezirk Andelfingen"},"canton":{"key":"1","code":"ZH","name":"Zürich"},"status":"Real"},{"key":"10238115","name":"Untere Schiterbergstrasse","postalCode":"8451","locality":"Kleinandelfingen","commune":{"key":"33","name":"Kleinandelfingen","shortName":"Kleinandelfingen"},"district":{"key":"102","name":"Bezirk Andelfingen"},"canton":{"key":"1","code":"ZH","name":"Zürich"},"status":"Real"},{"key":"10080932","name":"Untergriesstrasse","postalCode":"8451","locality":"Kleinandelfingen","commune":{"key":"33","name":"Kleinandelfingen","shortName":"Kleinandelfingen"},"district":{"key":"102","name":"Bezirk Andelfingen"},"canton":{"key":"1","code":"ZH","name":"Zürich"},"status":"Real"},{"key":"10080915","name":"Ursprungstrasse","postalCode":"8450","locality":"Andelfingen","commune":{"key":"291","name":"Andelfingen","shortName":"Andelfingen"},"district":{"key":"102","name":"Bezirk Andelfingen"},"canton":{"key":"1","code":"ZH","name":"Zürich"},"status":"Real"},{"key":"10203685","name":"Volkemerchileweg","postalCode":"8450","locality":"Andelfingen","commune":{"key":"291","name":"Andelfingen","shortName":"Andelfingen"},"district":{"key":"102","name":"Bezirk Andelfingen"},"canton":{"key":"1","code":"ZH","name":"Zürich"},"status":"Real"},{"key":"10154091","name":"Vorstatt","postalCode":"8452","locality":"Adlikon b. Andelfingen","commune":{"key":"291","name":"Andelfingen","shortName":"Andelfingen"},"district":{"key":"102","name":"Bezirk Andelfingen"},"canton":{"key":"1","code":"ZH","name":"Zürich"},"status":"Real"},{"key":"10154232","name":"Waldegg","postalCode":"8451","locality":"Kleinandelfingen","commune":{"key":"33","name":"Kleinandelfingen","shortName":"Kleinandelfingen"},"district":{"key":"102","name":"Bezirk Andelfingen"},"canton":{"key":"1","code":"ZH","name":"Zürich"},"status":"Real"},{"key":"10119750","name":"Waldeggstrasse","postalCode":"8451","locality":"Kleinandelfingen","commune":{"key":"33","name":"Kleinandelfingen","shortName":"Kleinandelfingen"},"district":{"key":"102","name":"Bezirk Andelfingen"},"canton":{"key":"1","code":"ZH","name":"Zürich"},"status":"Real"},{"key":"10158310","name":"Waldhof","postalCode":"8450","locality":"Andelfingen","commune":{"key":"291","name":"Andelfingen","shortName":"Andelfingen"},"district":{"key":"102","name":"Bezirk Andelfingen"},"canton":{"key":"1","code":"ZH","name":"Zürich"},"status":"Real"},{"key":"10165997","name":"Wehri","postalCode":"8450","locality":"Andelfingen","commune":{"key":"291","name":"Andelfingen","shortName":"Andelfingen"},"district":{"key":"102","name":"Bezirk Andelfingen"},"canton":{"key":"1","code":"ZH","name":"Zürich"},"status":"Real"},{"key":"10157816","name":"Weierstrasse","postalCode":"8452","locality":"Adlikon b. Andelfingen","commune":{"key":"291","name":"Andelfingen","shortName":"Andelfingen"},"district":{"key":"102","name":"Bezirk Andelfingen"},"canton":{"key":"1","code":"ZH","name":"Zürich"},"status":"Real"},{"key":"10203687","name":"Weinlandstrasse","postalCode":"8450","locality":"Andelfingen","commune":{"key":"291","name":"Andelfingen","shortName":"Andelfingen"},"district":{"key":"102","name":"Bezirk Andelfingen"},"canton":{"key":"1","code":"ZH","name":"Zürich"},"status":"Real"},{"key":"10112589","name":"Weinlandstrasse","postalCode":"8451","locality":"Kleinandelfingen","commune":{"key":"33","name":"Kleinandelfingen","shortName":"Kleinandelfingen"},"district":{"key":"102","name":"Bezirk Andelfingen"},"canton":{"key":"1","code":"ZH","name":"Zürich"},"status":"Real"},{"key":"10147770","name":"Weinlandstrasse","postalCode":"8452","locality":"Adlikon b. Andelfingen","commune":{"key":"291","name":"Andelfingen","shortName":"Andelfingen"},"district":{"key":"102","name":"Bezirk Andelfingen"},"canton":{"key":"1","code":"ZH","name":"Zürich"},"status":"Real"},{"key":"10150968","name":"Werdhofstrasse","postalCode":"8451","locality":"Kleinandelfingen","commune":{"key":"33","name":"Kleinandelfingen","shortName":"Kleinandelfingen"},"district":{"key":"102","name":"Bezirk Andelfingen"},"canton":{"key":"1","code":"ZH","name":"Zürich"},"status":"Real"},{"key":"10001934","name":"Werkhofstrasse","postalCode":"8451","locality":"Kleinandelfingen","commune":{"key":"33","name":"Kleinandelfingen","shortName":"Kleinandelfingen"},"district":{"key":"102","name":"Bezirk Andelfingen"},"canton":{"key":"1","code":"ZH","name":"Zürich"},"status":"Real"},{"key":"10001310","name":"Wilhelm-Breiter-Weg","postalCode":"8450","locality":"Andelfingen","commune":{"key":"291","name":"Andelfingen","shortName":"Andelfingen"},"district":{"key":"102","name":"Bezirk Andelfingen"},"canton":{"key":"1","code":"ZH","name":"Zürich"},"status":"Real"},{"key":"10141631","name":"Wolferrietstrasse","postalCode":"8450","locality":"Andelfingen","commune":{"key":"291","name":"Andelfingen","shortName":"Andelfingen"},"district":{"key":"102","name":"Bezirk Andelfingen"},"canton":{"key":"1","code":"ZH","name":"Zürich"},"status":"Real"},{"key":"10248354","name":"Wolfsgrueb","postalCode":"8450","locality":"Andelfingen","commune":{"key":"291","name":"Andelfingen","shortName":"Andelfingen"},"district":{"key":"102","name":"Bezirk Andelfingen"},"canton":{"key":"1","code":"ZH","name":"Zürich"},"status":"Real"},{"key":"10157817","name":"Wybergstrasse","postalCode":"8452","locality":"Adlikon b. Andelfingen","commune":{"key":"291","name":"Andelfingen","shortName":"Andelfingen"},"district":{"key":"102","name":"Bezirk Andelfingen"},"canton":{"key":"1","code":"ZH","name":"Zürich"},"status":"Real"},{"key":"10246452","name":"Zelglistrasse","postalCode":"8451","locality":"Kleinandelfingen","commune":{"key":"33","name":"Kleinandelfingen","shortName":"Kleinandelfingen"},"district":{"key":"102","name":"Bezirk Andelfingen"},"canton":{"key":"1","code":"ZH","name":"Zürich"},"status":"Real"},{"key":"10002095","name":"Zielackerstrasse","postalCode":"8451","locality":"Kleinandelfingen","commune":{"key":"33","name":"Kleinandelfingen","shortName":"Kleinandelfingen"},"district":{"key":"102","name":"Bezirk Andelfingen"},"canton":{"key":"1","code":"ZH","name":"Zürich"},"status":"Real"},{"key":"10111700","name":"Zielackerweg","postalCode":"8451","locality":"Kleinandelfingen","commune":{"key":"33","name":"Kleinandelfingen","shortName":"Kleinandelfingen"},"district":{"key":"102","name":"Bezirk Andelfingen"},"canton":{"key":"1","code":"ZH","name":"Zürich"},"status":"Real"},{"key":"10119752","name":"Zwiegartenweg","postalCode":"8451","locality":"Kleinandelfingen","commune":{"key":"33","name":"Kleinandelfingen","shortName":"Kleinandelfingen"},"district":{"key":"102","name":"Bezirk Andelfingen"},"canton":{"key":"1","code":"ZH","name":"Zürich"},"status":"Real"},{"key":"10202290","name":"Äberlen","postalCode":"8452","locality":"Adlikon b. Andelfingen","commune":{"key":"291","name":"Andelfingen","shortName":"Andelfingen"},"district":{"key":"102","name":"Bezirk Andelfingen"},"canton":{"key":"1","code":"ZH","name":"Zürich"},"status":"Real"},]