[{"key":"10249578","name":"Aarefeldstrasse","postalCode":"3613","locality":"Steffisburg","commune":{"key":"939","name":"Steffisburg","shortName":"Steffisburg"},"district":{"key":"247","name":"Verwaltungskreis Thun"},"canton":{"key":"2","code":"BE","name":"Bern / Berne"},"status":"Real"},{"key":"10240680","name":"Aarestrasse","postalCode":"3613","locality":"Steffisburg","commune":{"key":"939","name":"Steffisburg","shortName":"Steffisburg"},"district":{"key":"247","name":"Verwaltungskreis Thun"},"canton":{"key":"2","code":"BE","name":"Bern / Berne"},"status":"Real"},{"key":"10015513","name":"Aarestrasse","postalCode":"3613","locality":"Steffisburg","commune":{"key":"939","name":"Steffisburg","shortName":"Steffisburg"},"district":{"key":"247","name":"Verwaltungskreis Thun"},"canton":{"key":"2","code":"BE","name":"Bern / Berne"},"status":"Real"},{"key":"10216721","name":"Aareweg","postalCode":"3613","locality":"Steffisburg","commune":{"key":"939","name":"Steffisburg","shortName":"Steffisburg"},"district":{"key":"247","name":"Verwaltungskreis Thun"},"canton":{"key":"2","code":"BE","name":"Bern / Berne"},"status":"Real"},{"key":"10061953","name":"Aehrenweg","postalCode":"3612","locality":"Steffisburg","commune":{"key":"939","name":"Steffisburg","shortName":"Steffisburg"},"district":{"key":"247","name":"Verwaltungskreis Thun"},"canton":{"key":"2","code":"BE","name":"Bern / Berne"},"status":"Real"},{"key":"10129462","name":"Ahornweg","postalCode":"3612","locality":"Steffisburg","commune":{"key":"939","name":"Steffisburg","shortName":"Steffisburg"},"district":{"key":"247","name":"Verwaltungskreis Thun"},"canton":{"key":"2","code":"BE","name":"Bern / Berne"},"status":"Real"},{"key":"10049300","name":"Alleestrasse","postalCode":"3613","locality":"Steffisburg","commune":{"key":"939","name":"Steffisburg","shortName":"Steffisburg"},"district":{"key":"247","name":"Verwaltungskreis Thun"},"canton":{"key":"2","code":"BE","name":"Bern / Berne"},"status":"Real"},{"key":"10015514","name":"Alte Bernstrasse","postalCode":"3613","locality":"Steffisburg","commune":{"key":"939","name":"Steffisburg","shortName":"Steffisburg"},"district":{"key":"247","name":"Verwaltungskreis Thun"},"canton":{"key":"2","code":"BE","name":"Bern / Berne"},"status":"Real"},{"key":"10014053","name":"Altelsstrasse","postalCode":"3612","locality":"Steffisburg","commune":{"key":"939","name":"Steffisburg","shortName":"Steffisburg"},"district":{"key":"247","name":"Verwaltungskreis Thun"},"canton":{"key":"2","code":"BE","name":"Bern / Berne"},"status":"Real"},{"key":"10081929","name":"Alte Schwarzeneggstrasse","postalCode":"3612","locality":"Steffisburg","commune":{"key":"939","name":"Steffisburg","shortName":"Steffisburg"},"district":{"key":"247","name":"Verwaltungskreis Thun"},"canton":{"key":"2","code":"BE","name":"Bern / Berne"},"status":"Real"},{"key":"10082212","name":"AMP-Strasse","postalCode":"3613","locality":"Steffisburg","commune":{"key":"939","name":"Steffisburg","shortName":"Steffisburg"},"district":{"key":"247","name":"Verwaltungskreis Thun"},"canton":{"key":"2","code":"BE","name":"Bern / Berne"},"status":"Real"},{"key":"10217831","name":"Amselweg","postalCode":"3612","locality":"Steffisburg","commune":{"key":"939","name":"Steffisburg","shortName":"Steffisburg"},"district":{"key":"247","name":"Verwaltungskreis Thun"},"canton":{"key":"2","code":"BE","name":"Bern / Berne"},"status":"Real"},{"key":"10014054","name":"Asternweg","postalCode":"3612","locality":"Steffisburg","commune":{"key":"939","name":"Steffisburg","shortName":"Steffisburg"},"district":{"key":"247","name":"Verwaltungskreis Thun"},"canton":{"key":"2","code":"BE","name":"Bern / Berne"},"status":"Real"},{"key":"10188928","name":"Astrastrasse","postalCode":"3612","locality":"Steffisburg","commune":{"key":"939","name":"Steffisburg","shortName":"Steffisburg"},"district":{"key":"247","name":"Verwaltungskreis Thun"},"canton":{"key":"2","code":"BE","name":"Bern / Berne"},"status":"Real"},{"key":"10114915","name":"Aumattweg","postalCode":"3612","locality":"Steffisburg","commune":{"key":"939","name":"Steffisburg","shortName":"Steffisburg"},"district":{"key":"247","name":"Verwaltungskreis Thun"},"canton":{"key":"2","code":"BE","name":"Bern / Berne"},"status":"Real"},{"key":"10114915","name":"Aumattweg","postalCode":"3613","locality":"Steffisburg","commune":{"key":"939","name":"Steffisburg","shortName":"Steffisburg"},"district":{"key":"247","name":"Verwaltungskreis Thun"},"canton":{"key":"2","code":"BE","name":"Bern / Berne"},"status":"Real"},{"key":"10185086","name":"Austrasse","postalCode":"3612","locality":"Steffisburg","commune":{"key":"939","name":"Steffisburg","shortName":"Steffisburg"},"district":{"key":"247","name":"Verwaltungskreis Thun"},"canton":{"key":"2","code":"BE","name":"Bern / Berne"},"status":"Real"},{"key":"10014055","name":"Bachhubelweg","postalCode":"3612","locality":"Steffisburg","commune":{"key":"939","name":"Steffisburg","shortName":"Steffisburg"},"district":{"key":"247","name":"Verwaltungskreis Thun"},"canton":{"key":"2","code":"BE","name":"Bern / Berne"},"status":"Real"},{"key":"10081930","name":"Bahnhofstrasse","postalCode":"3612","locality":"Steffisburg","commune":{"key":"939","name":"Steffisburg","shortName":"Steffisburg"},"district":{"key":"247","name":"Verwaltungskreis Thun"},"canton":{"key":"2","code":"BE","name":"Bern / Berne"},"status":"Real"},{"key":"10081930","name":"Bahnhofstrasse","postalCode":"3613","locality":"Steffisburg","commune":{"key":"939","name":"Steffisburg","shortName":"Steffisburg"},"district":{"key":"247","name":"Verwaltungskreis Thun"},"canton":{"key":"2","code":"BE","name":"Bern / Berne"},"status":"Real"},{"key":"10218501","name":"Bannweg","postalCode":"3612","locality":"Steffisburg","commune":{"key":"939","name":"Steffisburg","shortName":"Steffisburg"},"district":{"key":"247","name":"Verwaltungskreis Thun"},"canton":{"key":"2","code":"BE","name":"Bern / Berne"},"status":"Real"},{"key":"10061954","name":"Bernstrasse","postalCode":"3612","locality":"Steffisburg","commune":{"key":"939","name":"Steffisburg","shortName":"Steffisburg"},"district":{"key":"247","name":"Verwaltungskreis Thun"},"canton":{"key":"2","code":"BE","name":"Bern / Berne"},"status":"Real"},{"key":"10185514","name":"Bernstrasse","postalCode":"3613","locality":"Steffisburg","commune":{"key":"939","name":"Steffisburg","shortName":"Steffisburg"},"district":{"key":"247","name":"Verwaltungskreis Thun"},"canton":{"key":"2","code":"BE","name":"Bern / Berne"},"status":"Real"},{"key":"10061954","name":"Bernstrasse","postalCode":"3613","locality":"Steffisburg","commune":{"key":"939","name":"Steffisburg","shortName":"Steffisburg"},"district":{"key":"247","name":"Verwaltungskreis Thun"},"canton":{"key":"2","code":"BE","name":"Bern / Berne"},"status":"Real"},{"key":"10014056","name":"Birkenweg","postalCode":"3612","locality":"Steffisburg","commune":{"key":"939","name":"Steffisburg","shortName":"Steffisburg"},"district":{"key":"247","name":"Verwaltungskreis Thun"},"canton":{"key":"2","code":"BE","name":"Bern / Berne"},"status":"Real"},{"key":"10122047","name":"Birkenweg","postalCode":"3613","locality":"Steffisburg","commune":{"key":"939","name":"Steffisburg","shortName":"Steffisburg"},"district":{"key":"247","name":"Verwaltungskreis Thun"},"canton":{"key":"2","code":"BE","name":"Bern / Berne"},"status":"Real"},{"key":"10014058","name":"Blumenstrasse","postalCode":"3612","locality":"Steffisburg","commune":{"key":"939","name":"Steffisburg","shortName":"Steffisburg"},"district":{"key":"247","name":"Verwaltungskreis Thun"},"canton":{"key":"2","code":"BE","name":"Bern / Berne"},"status":"Real"},{"key":"10015515","name":"Blümlisalpstrasse","postalCode":"3613","locality":"Steffisburg","commune":{"key":"939","name":"Steffisburg","shortName":"Steffisburg"},"district":{"key":"247","name":"Verwaltungskreis Thun"},"canton":{"key":"2","code":"BE","name":"Bern / Berne"},"status":"Real"},{"key":"10014057","name":"Blutthölzliweg","postalCode":"3612","locality":"Steffisburg","commune":{"key":"939","name":"Steffisburg","shortName":"Steffisburg"},"district":{"key":"247","name":"Verwaltungskreis Thun"},"canton":{"key":"2","code":"BE","name":"Bern / Berne"},"status":"Real"},{"key":"10185087","name":"Bösbachstrasse","postalCode":"3612","locality":"Steffisburg","commune":{"key":"939","name":"Steffisburg","shortName":"Steffisburg"},"district":{"key":"247","name":"Verwaltungskreis Thun"},"canton":{"key":"2","code":"BE","name":"Bern / Berne"},"status":"Real"},{"key":"10218505","name":"Bösbachweg","postalCode":"3612","locality":"Steffisburg","commune":{"key":"939","name":"Steffisburg","shortName":"Steffisburg"},"district":{"key":"247","name":"Verwaltungskreis Thun"},"canton":{"key":"2","code":"BE","name":"Bern / Berne"},"status":"Real"},{"key":"10122051","name":"Brändlisbergweg","postalCode":"3612","locality":"Steffisburg","commune":{"key":"939","name":"Steffisburg","shortName":"Steffisburg"},"district":{"key":"247","name":"Verwaltungskreis Thun"},"canton":{"key":"2","code":"BE","name":"Bern / Berne"},"status":"Real"},{"key":"10081931","name":"Brauereiweg","postalCode":"3612","locality":"Steffisburg","commune":{"key":"939","name":"Steffisburg","shortName":"Steffisburg"},"district":{"key":"247","name":"Verwaltungskreis Thun"},"canton":{"key":"2","code":"BE","name":"Bern / Berne"},"status":"Real"},{"key":"10014059","name":"Brucheggweg","postalCode":"3612","locality":"Steffisburg","commune":{"key":"939","name":"Steffisburg","shortName":"Steffisburg"},"district":{"key":"247","name":"Verwaltungskreis Thun"},"canton":{"key":"2","code":"BE","name":"Bern / Berne"},"status":"Real"},{"key":"10242626","name":"Brückstrasse","postalCode":"3613","locality":"Steffisburg","commune":{"key":"939","name":"Steffisburg","shortName":"Steffisburg"},"district":{"key":"247","name":"Verwaltungskreis Thun"},"canton":{"key":"2","code":"BE","name":"Bern / Berne"},"status":"Real"},{"key":"10014060","name":"Buchrainweg","postalCode":"3612","locality":"Steffisburg","commune":{"key":"939","name":"Steffisburg","shortName":"Steffisburg"},"district":{"key":"247","name":"Verwaltungskreis Thun"},"canton":{"key":"2","code":"BE","name":"Bern / Berne"},"status":"Real"},{"key":"10081932","name":"Burgfeldweg","postalCode":"3612","locality":"Steffisburg","commune":{"key":"939","name":"Steffisburg","shortName":"Steffisburg"},"district":{"key":"247","name":"Verwaltungskreis Thun"},"canton":{"key":"2","code":"BE","name":"Bern / Berne"},"status":"Real"},{"key":"10014061","name":"Chaletweg","postalCode":"3612","locality":"Steffisburg","commune":{"key":"939","name":"Steffisburg","shortName":"Steffisburg"},"district":{"key":"247","name":"Verwaltungskreis Thun"},"canton":{"key":"2","code":"BE","name":"Bern / Berne"},"status":"Real"},{"key":"10061955","name":"Dahlienweg","postalCode":"3612","locality":"Steffisburg","commune":{"key":"939","name":"Steffisburg","shortName":"Steffisburg"},"district":{"key":"247","name":"Verwaltungskreis Thun"},"canton":{"key":"2","code":"BE","name":"Bern / Berne"},"status":"Real"},{"key":"10049301","name":"Distelweg","postalCode":"3613","locality":"Steffisburg","commune":{"key":"939","name":"Steffisburg","shortName":"Steffisburg"},"district":{"key":"247","name":"Verwaltungskreis Thun"},"canton":{"key":"2","code":"BE","name":"Bern / Berne"},"status":"Real"},{"key":"10108681","name":"Dohlenweg","postalCode":"3612","locality":"Steffisburg","commune":{"key":"939","name":"Steffisburg","shortName":"Steffisburg"},"district":{"key":"247","name":"Verwaltungskreis Thun"},"canton":{"key":"2","code":"BE","name":"Bern / Berne"},"status":"Real"},{"key":"10081933","name":"Dorfbachweg","postalCode":"3612","locality":"Steffisburg","commune":{"key":"939","name":"Steffisburg","shortName":"Steffisburg"},"district":{"key":"247","name":"Verwaltungskreis Thun"},"canton":{"key":"2","code":"BE","name":"Bern / Berne"},"status":"Real"},{"key":"10014062","name":"Dorfhalde","postalCode":"3612","locality":"Steffisburg","commune":{"key":"939","name":"Steffisburg","shortName":"Steffisburg"},"district":{"key":"247","name":"Verwaltungskreis Thun"},"canton":{"key":"2","code":"BE","name":"Bern / Berne"},"status":"Real"},{"key":"10014063","name":"Dorfhaldenweg","postalCode":"3612","locality":"Steffisburg","commune":{"key":"939","name":"Steffisburg","shortName":"Steffisburg"},"district":{"key":"247","name":"Verwaltungskreis Thun"},"canton":{"key":"2","code":"BE","name":"Bern / Berne"},"status":"Real"},{"key":"10143130","name":"Drosselweg","postalCode":"3613","locality":"Steffisburg","commune":{"key":"939","name":"Steffisburg","shortName":"Steffisburg"},"district":{"key":"247","name":"Verwaltungskreis Thun"},"canton":{"key":"2","code":"BE","name":"Bern / Berne"},"status":"Real"},{"key":"10061956","name":"Dükerweg","postalCode":"3612","locality":"Steffisburg","commune":{"key":"939","name":"Steffisburg","shortName":"Steffisburg"},"district":{"key":"247","name":"Verwaltungskreis Thun"},"canton":{"key":"2","code":"BE","name":"Bern / Berne"},"status":"Real"},{"key":"10014064","name":"Dürrenbühlweg","postalCode":"3612","locality":"Steffisburg","commune":{"key":"939","name":"Steffisburg","shortName":"Steffisburg"},"district":{"key":"247","name":"Verwaltungskreis Thun"},"canton":{"key":"2","code":"BE","name":"Bern / Berne"},"status":"Real"},{"key":"10152139","name":"Eichelackerweg","postalCode":"3612","locality":"Steffisburg","commune":{"key":"939","name":"Steffisburg","shortName":"Steffisburg"},"district":{"key":"247","name":"Verwaltungskreis Thun"},"canton":{"key":"2","code":"BE","name":"Bern / Berne"},"status":"Real"},{"key":"10081934","name":"Eichenriedweg","postalCode":"3612","locality":"Steffisburg","commune":{"key":"939","name":"Steffisburg","shortName":"Steffisburg"},"district":{"key":"247","name":"Verwaltungskreis Thun"},"canton":{"key":"2","code":"BE","name":"Bern / Berne"},"status":"Real"},{"key":"10114916","name":"Eichfeldstrasse","postalCode":"3612","locality":"Steffisburg","commune":{"key":"939","name":"Steffisburg","shortName":"Steffisburg"},"district":{"key":"247","name":"Verwaltungskreis Thun"},"canton":{"key":"2","code":"BE","name":"Bern / Berne"},"status":"Real"},{"key":"10014065","name":"Eichweg","postalCode":"3612","locality":"Steffisburg","commune":{"key":"939","name":"Steffisburg","shortName":"Steffisburg"},"district":{"key":"247","name":"Verwaltungskreis Thun"},"canton":{"key":"2","code":"BE","name":"Bern / Berne"},"status":"Real"},{"key":"10061957","name":"Elsternweg","postalCode":"3612","locality":"Steffisburg","commune":{"key":"939","name":"Steffisburg","shortName":"Steffisburg"},"district":{"key":"247","name":"Verwaltungskreis Thun"},"canton":{"key":"2","code":"BE","name":"Bern / Berne"},"status":"Real"},{"key":"10014066","name":"Embergrain","postalCode":"3612","locality":"Steffisburg","commune":{"key":"939","name":"Steffisburg","shortName":"Steffisburg"},"district":{"key":"247","name":"Verwaltungskreis Thun"},"canton":{"key":"2","code":"BE","name":"Bern / Berne"},"status":"Real"},{"key":"10081935","name":"Embergweg","postalCode":"3612","locality":"Steffisburg","commune":{"key":"939","name":"Steffisburg","shortName":"Steffisburg"},"district":{"key":"247","name":"Verwaltungskreis Thun"},"canton":{"key":"2","code":"BE","name":"Bern / Berne"},"status":"Real"},{"key":"10185097","name":"Engerainhalde","postalCode":"3613","locality":"Steffisburg","commune":{"key":"939","name":"Steffisburg","shortName":"Steffisburg"},"district":{"key":"247","name":"Verwaltungskreis Thun"},"canton":{"key":"2","code":"BE","name":"Bern / Berne"},"status":"Real"},{"key":"10186138","name":"Engerainstutz","postalCode":"3613","locality":"Steffisburg","commune":{"key":"939","name":"Steffisburg","shortName":"Steffisburg"},"district":{"key":"247","name":"Verwaltungskreis Thun"},"canton":{"key":"2","code":"BE","name":"Bern / Berne"},"status":"Real"},{"key":"10218509","name":"Engerainweg","postalCode":"3612","locality":"Steffisburg","commune":{"key":"939","name":"Steffisburg","shortName":"Steffisburg"},"district":{"key":"247","name":"Verwaltungskreis Thun"},"canton":{"key":"2","code":"BE","name":"Bern / Berne"},"status":"Real"},{"key":"10218509","name":"Engerainweg","postalCode":"3613","locality":"Steffisburg","commune":{"key":"939","name":"Steffisburg","shortName":"Steffisburg"},"district":{"key":"247","name":"Verwaltungskreis Thun"},"canton":{"key":"2","code":"BE","name":"Bern / Berne"},"status":"Real"},{"key":"10061935","name":"Enzenriedweg","postalCode":"3612","locality":"Steffisburg","commune":{"key":"939","name":"Steffisburg","shortName":"Steffisburg"},"district":{"key":"247","name":"Verwaltungskreis Thun"},"canton":{"key":"2","code":"BE","name":"Bern / Berne"},"status":"Real"},{"key":"10105940","name":"Erlengraben","postalCode":"3612","locality":"Steffisburg","commune":{"key":"939","name":"Steffisburg","shortName":"Steffisburg"},"district":{"key":"247","name":"Verwaltungskreis Thun"},"canton":{"key":"2","code":"BE","name":"Bern / Berne"},"status":"Real"},{"key":"10014067","name":"Erlenstrasse","postalCode":"3612","locality":"Steffisburg","commune":{"key":"939","name":"Steffisburg","shortName":"Steffisburg"},"district":{"key":"247","name":"Verwaltungskreis Thun"},"canton":{"key":"2","code":"BE","name":"Bern / Berne"},"status":"Real"},{"key":"10061958","name":"Eschenweg","postalCode":"3613","locality":"Steffisburg","commune":{"key":"939","name":"Steffisburg","shortName":"Steffisburg"},"district":{"key":"247","name":"Verwaltungskreis Thun"},"canton":{"key":"2","code":"BE","name":"Bern / Berne"},"status":"Real"},{"key":"10015519","name":"Fährenstrasse","postalCode":"3613","locality":"Steffisburg","commune":{"key":"939","name":"Steffisburg","shortName":"Steffisburg"},"district":{"key":"247","name":"Verwaltungskreis Thun"},"canton":{"key":"2","code":"BE","name":"Bern / Berne"},"status":"Real"},{"key":"10015516","name":"Falkenweg","postalCode":"3613","locality":"Steffisburg","commune":{"key":"939","name":"Steffisburg","shortName":"Steffisburg"},"district":{"key":"247","name":"Verwaltungskreis Thun"},"canton":{"key":"2","code":"BE","name":"Bern / Berne"},"status":"Real"},{"key":"10082893","name":"Farmweg","postalCode":"3613","locality":"Steffisburg","commune":{"key":"939","name":"Steffisburg","shortName":"Steffisburg"},"district":{"key":"247","name":"Verwaltungskreis Thun"},"canton":{"key":"2","code":"BE","name":"Bern / Berne"},"status":"Real"},{"key":"10049302","name":"Fasanenweg","postalCode":"3613","locality":"Steffisburg","commune":{"key":"939","name":"Steffisburg","shortName":"Steffisburg"},"district":{"key":"247","name":"Verwaltungskreis Thun"},"canton":{"key":"2","code":"BE","name":"Bern / Berne"},"status":"Real"},{"key":"10242630","name":"Feldstrasse","postalCode":"3613","locality":"Steffisburg","commune":{"key":"939","name":"Steffisburg","shortName":"Steffisburg"},"district":{"key":"247","name":"Verwaltungskreis Thun"},"canton":{"key":"2","code":"BE","name":"Bern / Berne"},"status":"Real"},{"key":"10081936","name":"Fichtenweg","postalCode":"3612","locality":"Steffisburg","commune":{"key":"939","name":"Steffisburg","shortName":"Steffisburg"},"district":{"key":"247","name":"Verwaltungskreis Thun"},"canton":{"key":"2","code":"BE","name":"Bern / Berne"},"status":"Real"},{"key":"10114900","name":"Fichtenweg","postalCode":"3613","locality":"Steffisburg","commune":{"key":"939","name":"Steffisburg","shortName":"Steffisburg"},"district":{"key":"247","name":"Verwaltungskreis Thun"},"canton":{"key":"2","code":"BE","name":"Bern / Berne"},"status":"Real"},{"key":"10014068","name":"Finkenweg","postalCode":"3612","locality":"Steffisburg","commune":{"key":"939","name":"Steffisburg","shortName":"Steffisburg"},"district":{"key":"247","name":"Verwaltungskreis Thun"},"canton":{"key":"2","code":"BE","name":"Bern / Berne"},"status":"Real"},{"key":"10061959","name":"Fischbachweg","postalCode":"3612","locality":"Steffisburg","commune":{"key":"939","name":"Steffisburg","shortName":"Steffisburg"},"district":{"key":"247","name":"Verwaltungskreis Thun"},"canton":{"key":"2","code":"BE","name":"Bern / Berne"},"status":"Real"},{"key":"10014069","name":"Fliederweg","postalCode":"3612","locality":"Steffisburg","commune":{"key":"939","name":"Steffisburg","shortName":"Steffisburg"},"district":{"key":"247","name":"Verwaltungskreis Thun"},"canton":{"key":"2","code":"BE","name":"Bern / Berne"},"status":"Real"},{"key":"10015517","name":"Floraweg","postalCode":"3613","locality":"Steffisburg","commune":{"key":"939","name":"Steffisburg","shortName":"Steffisburg"},"district":{"key":"247","name":"Verwaltungskreis Thun"},"canton":{"key":"2","code":"BE","name":"Bern / Berne"},"status":"Real"},{"key":"10128442","name":"Flühlistrasse","postalCode":"3612","locality":"Steffisburg","commune":{"key":"939","name":"Steffisburg","shortName":"Steffisburg"},"district":{"key":"247","name":"Verwaltungskreis Thun"},"canton":{"key":"2","code":"BE","name":"Bern / Berne"},"status":"Real"},{"key":"10014070","name":"Fluhweg","postalCode":"3612","locality":"Steffisburg","commune":{"key":"939","name":"Steffisburg","shortName":"Steffisburg"},"district":{"key":"247","name":"Verwaltungskreis Thun"},"canton":{"key":"2","code":"BE","name":"Bern / Berne"},"status":"Real"},{"key":"10218513","name":"Flurweg","postalCode":"3613","locality":"Steffisburg","commune":{"key":"939","name":"Steffisburg","shortName":"Steffisburg"},"district":{"key":"247","name":"Verwaltungskreis Thun"},"canton":{"key":"2","code":"BE","name":"Bern / Berne"},"status":"Real"},{"key":"10015518","name":"Fohlenweg","postalCode":"3613","locality":"Steffisburg","commune":{"key":"939","name":"Steffisburg","shortName":"Steffisburg"},"district":{"key":"247","name":"Verwaltungskreis Thun"},"canton":{"key":"2","code":"BE","name":"Bern / Berne"},"status":"Real"},{"key":"10049303","name":"Forellenweg","postalCode":"3613","locality":"Steffisburg","commune":{"key":"939","name":"Steffisburg","shortName":"Steffisburg"},"district":{"key":"247","name":"Verwaltungskreis Thun"},"canton":{"key":"2","code":"BE","name":"Bern / Berne"},"status":"Real"},{"key":"10014071","name":"Friedhofweg","postalCode":"3612","locality":"Steffisburg","commune":{"key":"939","name":"Steffisburg","shortName":"Steffisburg"},"district":{"key":"247","name":"Verwaltungskreis Thun"},"canton":{"key":"2","code":"BE","name":"Bern / Berne"},"status":"Real"},{"key":"10108682","name":"Galgenrainweg","postalCode":"3612","locality":"Steffisburg","commune":{"key":"939","name":"Steffisburg","shortName":"Steffisburg"},"district":{"key":"247","name":"Verwaltungskreis Thun"},"canton":{"key":"2","code":"BE","name":"Bern / Berne"},"status":"Real"},{"key":"10188929","name":"Gantrischweg","postalCode":"3612","locality":"Steffisburg","commune":{"key":"939","name":"Steffisburg","shortName":"Steffisburg"},"district":{"key":"247","name":"Verwaltungskreis Thun"},"canton":{"key":"2","code":"BE","name":"Bern / Berne"},"status":"Real"},{"key":"10014072","name":"Gartenstrasse","postalCode":"3612","locality":"Steffisburg","commune":{"key":"939","name":"Steffisburg","shortName":"Steffisburg"},"district":{"key":"247","name":"Verwaltungskreis Thun"},"canton":{"key":"2","code":"BE","name":"Bern / Berne"},"status":"Real"},{"key":"10105941","name":"Glättemühleweg","postalCode":"3613","locality":"Steffisburg","commune":{"key":"939","name":"Steffisburg","shortName":"Steffisburg"},"district":{"key":"247","name":"Verwaltungskreis Thun"},"canton":{"key":"2","code":"BE","name":"Bern / Berne"},"status":"Real"},{"key":"10081937","name":"Glockenthalstrasse","postalCode":"3612","locality":"Steffisburg","commune":{"key":"939","name":"Steffisburg","shortName":"Steffisburg"},"district":{"key":"247","name":"Verwaltungskreis Thun"},"canton":{"key":"2","code":"BE","name":"Bern / Berne"},"status":"Real"},{"key":"10061982","name":"Goldiwilstrasse","postalCode":"3612","locality":"Steffisburg","commune":{"key":"939","name":"Steffisburg","shortName":"Steffisburg"},"district":{"key":"247","name":"Verwaltungskreis Thun"},"canton":{"key":"2","code":"BE","name":"Bern / Berne"},"status":"Real"},{"key":"10014073","name":"Grabemattweg","postalCode":"3612","locality":"Steffisburg","commune":{"key":"939","name":"Steffisburg","shortName":"Steffisburg"},"district":{"key":"247","name":"Verwaltungskreis Thun"},"canton":{"key":"2","code":"BE","name":"Bern / Berne"},"status":"Real"},{"key":"10185089","name":"Grabenweg","postalCode":"3612","locality":"Steffisburg","commune":{"key":"939","name":"Steffisburg","shortName":"Steffisburg"},"district":{"key":"247","name":"Verwaltungskreis Thun"},"canton":{"key":"2","code":"BE","name":"Bern / Berne"},"status":"Real"},{"key":"10187147","name":"Grenzweg","postalCode":"3613","locality":"Steffisburg","commune":{"key":"939","name":"Steffisburg","shortName":"Steffisburg"},"district":{"key":"247","name":"Verwaltungskreis Thun"},"canton":{"key":"2","code":"BE","name":"Bern / Berne"},"status":"Real"},{"key":"10061960","name":"Grüneggweg","postalCode":"3612","locality":"Steffisburg","commune":{"key":"939","name":"Steffisburg","shortName":"Steffisburg"},"district":{"key":"247","name":"Verwaltungskreis Thun"},"canton":{"key":"2","code":"BE","name":"Bern / Berne"},"status":"Real"},{"key":"10082213","name":"Grünmattweg","postalCode":"3613","locality":"Steffisburg","commune":{"key":"939","name":"Steffisburg","shortName":"Steffisburg"},"district":{"key":"247","name":"Verwaltungskreis Thun"},"canton":{"key":"2","code":"BE","name":"Bern / Berne"},"status":"Real"},{"key":"10098685","name":"Gummweg","postalCode":"3612","locality":"Steffisburg","commune":{"key":"939","name":"Steffisburg","shortName":"Steffisburg"},"district":{"key":"247","name":"Verwaltungskreis Thun"},"canton":{"key":"2","code":"BE","name":"Bern / Berne"},"status":"Real"},{"key":"10116449","name":"Gummweg","postalCode":"3612","locality":"Steffisburg","commune":{"key":"939","name":"Steffisburg","shortName":"Steffisburg"},"district":{"key":"247","name":"Verwaltungskreis Thun"},"canton":{"key":"2","code":"BE","name":"Bern / Berne"},"status":"Real"},{"key":"10178359","name":"Günzenenstrasse","postalCode":"3612","locality":"Steffisburg","commune":{"key":"939","name":"Steffisburg","shortName":"Steffisburg"},"district":{"key":"247","name":"Verwaltungskreis Thun"},"canton":{"key":"2","code":"BE","name":"Bern / Berne"},"status":"Real"},{"key":"10015193","name":"Gurnigelweg","postalCode":"3612","locality":"Steffisburg","commune":{"key":"939","name":"Steffisburg","shortName":"Steffisburg"},"district":{"key":"247","name":"Verwaltungskreis Thun"},"canton":{"key":"2","code":"BE","name":"Bern / Berne"},"status":"Real"},{"key":"10015194","name":"Hagrösliweg","postalCode":"3612","locality":"Steffisburg","commune":{"key":"939","name":"Steffisburg","shortName":"Steffisburg"},"district":{"key":"247","name":"Verwaltungskreis Thun"},"canton":{"key":"2","code":"BE","name":"Bern / Berne"},"status":"Real"},{"key":"10081938","name":"Haldeneggweg","postalCode":"3612","locality":"Steffisburg","commune":{"key":"939","name":"Steffisburg","shortName":"Steffisburg"},"district":{"key":"247","name":"Verwaltungskreis Thun"},"canton":{"key":"2","code":"BE","name":"Bern / Berne"},"status":"Real"},{"key":"10114917","name":"Haldenweg","postalCode":"3612","locality":"Steffisburg","commune":{"key":"939","name":"Steffisburg","shortName":"Steffisburg"},"district":{"key":"247","name":"Verwaltungskreis Thun"},"canton":{"key":"2","code":"BE","name":"Bern / Berne"},"status":"Real"},{"key":"10061961","name":"Hardegghöhe","postalCode":"3612","locality":"Steffisburg","commune":{"key":"939","name":"Steffisburg","shortName":"Steffisburg"},"district":{"key":"247","name":"Verwaltungskreis Thun"},"canton":{"key":"2","code":"BE","name":"Bern / Berne"},"status":"Real"},{"key":"10049289","name":"Hardeggweg","postalCode":"3612","locality":"Steffisburg","commune":{"key":"939","name":"Steffisburg","shortName":"Steffisburg"},"district":{"key":"247","name":"Verwaltungskreis Thun"},"canton":{"key":"2","code":"BE","name":"Bern / Berne"},"status":"Real"},{"key":"10015195","name":"Hartlisbergstrasse","postalCode":"3612","locality":"Steffisburg","commune":{"key":"939","name":"Steffisburg","shortName":"Steffisburg"},"district":{"key":"247","name":"Verwaltungskreis Thun"},"canton":{"key":"2","code":"BE","name":"Bern / Berne"},"status":"Real"},{"key":"10115127","name":"Hasenweg","postalCode":"3613","locality":"Steffisburg","commune":{"key":"939","name":"Steffisburg","shortName":"Steffisburg"},"district":{"key":"247","name":"Verwaltungskreis Thun"},"canton":{"key":"2","code":"BE","name":"Bern / Berne"},"status":"Real"},{"key":"10218517","name":"Hedwigstrasse","postalCode":"3613","locality":"Steffisburg","commune":{"key":"939","name":"Steffisburg","shortName":"Steffisburg"},"district":{"key":"247","name":"Verwaltungskreis Thun"},"canton":{"key":"2","code":"BE","name":"Bern / Berne"},"status":"Real"},{"key":"10218521","name":"Heimbüehlweg","postalCode":"3612","locality":"Steffisburg","commune":{"key":"939","name":"Steffisburg","shortName":"Steffisburg"},"district":{"key":"247","name":"Verwaltungskreis Thun"},"canton":{"key":"2","code":"BE","name":"Bern / Berne"},"status":"Real"},{"key":"10081939","name":"Heinrich-Matter-Strasse","postalCode":"3612","locality":"Steffisburg","commune":{"key":"939","name":"Steffisburg","shortName":"Steffisburg"},"district":{"key":"247","name":"Verwaltungskreis Thun"},"canton":{"key":"2","code":"BE","name":"Bern / Berne"},"status":"Real"},{"key":"10049290","name":"Heumattweg","postalCode":"3612","locality":"Steffisburg","commune":{"key":"939","name":"Steffisburg","shortName":"Steffisburg"},"district":{"key":"247","name":"Verwaltungskreis Thun"},"canton":{"key":"2","code":"BE","name":"Bern / Berne"},"status":"Real"},{"key":"10015196","name":"Höchhusweg","postalCode":"3612","locality":"Steffisburg","commune":{"key":"939","name":"Steffisburg","shortName":"Steffisburg"},"district":{"key":"247","name":"Verwaltungskreis Thun"},"canton":{"key":"2","code":"BE","name":"Bern / Berne"},"status":"Real"},{"key":"10015199","name":"Höheweg","postalCode":"3612","locality":"Steffisburg","commune":{"key":"939","name":"Steffisburg","shortName":"Steffisburg"},"district":{"key":"247","name":"Verwaltungskreis Thun"},"canton":{"key":"2","code":"BE","name":"Bern / Berne"},"status":"Real"},{"key":"10061962","name":"Hohgantweg","postalCode":"3612","locality":"Steffisburg","commune":{"key":"939","name":"Steffisburg","shortName":"Steffisburg"},"district":{"key":"247","name":"Verwaltungskreis Thun"},"canton":{"key":"2","code":"BE","name":"Bern / Berne"},"status":"Real"},{"key":"10049291","name":"Hohlweg","postalCode":"3612","locality":"Steffisburg","commune":{"key":"939","name":"Steffisburg","shortName":"Steffisburg"},"district":{"key":"247","name":"Verwaltungskreis Thun"},"canton":{"key":"2","code":"BE","name":"Bern / Berne"},"status":"Real"},{"key":"10015197","name":"Hombergstrasse","postalCode":"3612","locality":"Steffisburg","commune":{"key":"939","name":"Steffisburg","shortName":"Steffisburg"},"district":{"key":"247","name":"Verwaltungskreis Thun"},"canton":{"key":"2","code":"BE","name":"Bern / Berne"},"status":"Real"},{"key":"10185090","name":"Honeggweg","postalCode":"3612","locality":"Steffisburg","commune":{"key":"939","name":"Steffisburg","shortName":"Steffisburg"},"district":{"key":"247","name":"Verwaltungskreis Thun"},"canton":{"key":"2","code":"BE","name":"Bern / Berne"},"status":"Real"},{"key":"10098686","name":"Hubelhaldeweg","postalCode":"3612","locality":"Steffisburg","commune":{"key":"939","name":"Steffisburg","shortName":"Steffisburg"},"district":{"key":"247","name":"Verwaltungskreis Thun"},"canton":{"key":"2","code":"BE","name":"Bern / Berne"},"status":"Real"},{"key":"10049292","name":"Hübelistrasse","postalCode":"3612","locality":"Steffisburg","commune":{"key":"939","name":"Steffisburg","shortName":"Steffisburg"},"district":{"key":"247","name":"Verwaltungskreis Thun"},"canton":{"key":"2","code":"BE","name":"Bern / Berne"},"status":"Real"},{"key":"10015198","name":"Hubelweg","postalCode":"3612","locality":"Steffisburg","commune":{"key":"939","name":"Steffisburg","shortName":"Steffisburg"},"district":{"key":"247","name":"Verwaltungskreis Thun"},"canton":{"key":"2","code":"BE","name":"Bern / Berne"},"status":"Real"},{"key":"10061963","name":"Industrieweg","postalCode":"3612","locality":"Steffisburg","commune":{"key":"939","name":"Steffisburg","shortName":"Steffisburg"},"district":{"key":"247","name":"Verwaltungskreis Thun"},"canton":{"key":"2","code":"BE","name":"Bern / Berne"},"status":"Real"},{"key":"10015200","name":"Jägerweg","postalCode":"3612","locality":"Steffisburg","commune":{"key":"939","name":"Steffisburg","shortName":"Steffisburg"},"district":{"key":"247","name":"Verwaltungskreis Thun"},"canton":{"key":"2","code":"BE","name":"Bern / Berne"},"status":"Real"},{"key":"10186136","name":"Jasminweg","postalCode":"3612","locality":"Steffisburg","commune":{"key":"939","name":"Steffisburg","shortName":"Steffisburg"},"district":{"key":"247","name":"Verwaltungskreis Thun"},"canton":{"key":"2","code":"BE","name":"Bern / Berne"},"status":"Real"},{"key":"10098688","name":"Jungfraustrasse","postalCode":"3613","locality":"Steffisburg","commune":{"key":"939","name":"Steffisburg","shortName":"Steffisburg"},"district":{"key":"247","name":"Verwaltungskreis Thun"},"canton":{"key":"2","code":"BE","name":"Bern / Berne"},"status":"Real"},{"key":"10049293","name":"Junkernholzweg","postalCode":"3612","locality":"Steffisburg","commune":{"key":"939","name":"Steffisburg","shortName":"Steffisburg"},"district":{"key":"247","name":"Verwaltungskreis Thun"},"canton":{"key":"2","code":"BE","name":"Bern / Berne"},"status":"Real"},{"key":"10015201","name":"Kapellenweg","postalCode":"3612","locality":"Steffisburg","commune":{"key":"939","name":"Steffisburg","shortName":"Steffisburg"},"district":{"key":"247","name":"Verwaltungskreis Thun"},"canton":{"key":"2","code":"BE","name":"Bern / Berne"},"status":"Real"},{"key":"10120172","name":"Katzenstiegweg","postalCode":"3612","locality":"Steffisburg","commune":{"key":"939","name":"Steffisburg","shortName":"Steffisburg"},"district":{"key":"247","name":"Verwaltungskreis Thun"},"canton":{"key":"2","code":"BE","name":"Bern / Berne"},"status":"Real"},{"key":"10122060","name":"Kirchbühlweg","postalCode":"3612","locality":"Steffisburg","commune":{"key":"939","name":"Steffisburg","shortName":"Steffisburg"},"district":{"key":"247","name":"Verwaltungskreis Thun"},"canton":{"key":"2","code":"BE","name":"Bern / Berne"},"status":"Real"},{"key":"10015520","name":"Kirchfeldstrasse","postalCode":"3613","locality":"Steffisburg","commune":{"key":"939","name":"Steffisburg","shortName":"Steffisburg"},"district":{"key":"247","name":"Verwaltungskreis Thun"},"canton":{"key":"2","code":"BE","name":"Bern / Berne"},"status":"Real"},{"key":"10206746","name":"Kirschenallee","postalCode":"3613","locality":"Steffisburg","commune":{"key":"939","name":"Steffisburg","shortName":"Steffisburg"},"district":{"key":"247","name":"Verwaltungskreis Thun"},"canton":{"key":"2","code":"BE","name":"Bern / Berne"},"status":"Real"},{"key":"10015202","name":"Klosternhalde","postalCode":"3612","locality":"Steffisburg","commune":{"key":"939","name":"Steffisburg","shortName":"Steffisburg"},"district":{"key":"247","name":"Verwaltungskreis Thun"},"canton":{"key":"2","code":"BE","name":"Bern / Berne"},"status":"Real"},{"key":"10105942","name":"Klosternhubel","postalCode":"3612","locality":"Steffisburg","commune":{"key":"939","name":"Steffisburg","shortName":"Steffisburg"},"district":{"key":"247","name":"Verwaltungskreis Thun"},"canton":{"key":"2","code":"BE","name":"Bern / Berne"},"status":"Real"},{"key":"10108683","name":"Klosternrain","postalCode":"3612","locality":"Steffisburg","commune":{"key":"939","name":"Steffisburg","shortName":"Steffisburg"},"district":{"key":"247","name":"Verwaltungskreis Thun"},"canton":{"key":"2","code":"BE","name":"Bern / Berne"},"status":"Real"},{"key":"10015203","name":"Klosternweg","postalCode":"3612","locality":"Steffisburg","commune":{"key":"939","name":"Steffisburg","shortName":"Steffisburg"},"district":{"key":"247","name":"Verwaltungskreis Thun"},"canton":{"key":"2","code":"BE","name":"Bern / Berne"},"status":"Real"},{"key":"10061964","name":"Kniebrecheweg","postalCode":"3612","locality":"Steffisburg","commune":{"key":"939","name":"Steffisburg","shortName":"Steffisburg"},"district":{"key":"247","name":"Verwaltungskreis Thun"},"canton":{"key":"2","code":"BE","name":"Bern / Berne"},"status":"Real"},{"key":"10188129","name":"Kornfeldstrasse","postalCode":"3612","locality":"Steffisburg","commune":{"key":"939","name":"Steffisburg","shortName":"Steffisburg"},"district":{"key":"247","name":"Verwaltungskreis Thun"},"canton":{"key":"2","code":"BE","name":"Bern / Berne"},"status":"Real"},{"key":"10081940","name":"Krebsenweg","postalCode":"3612","locality":"Steffisburg","commune":{"key":"939","name":"Steffisburg","shortName":"Steffisburg"},"district":{"key":"247","name":"Verwaltungskreis Thun"},"canton":{"key":"2","code":"BE","name":"Bern / Berne"},"status":"Real"},{"key":"10061965","name":"Lenzweg","postalCode":"3613","locality":"Steffisburg","commune":{"key":"939","name":"Steffisburg","shortName":"Steffisburg"},"district":{"key":"247","name":"Verwaltungskreis Thun"},"canton":{"key":"2","code":"BE","name":"Bern / Berne"},"status":"Real"},{"key":"10105934","name":"Lerchenweg","postalCode":"3613","locality":"Steffisburg","commune":{"key":"939","name":"Steffisburg","shortName":"Steffisburg"},"district":{"key":"247","name":"Verwaltungskreis Thun"},"canton":{"key":"2","code":"BE","name":"Bern / Berne"},"status":"Real"},{"key":"10185091","name":"Lilienweg","postalCode":"3612","locality":"Steffisburg","commune":{"key":"939","name":"Steffisburg","shortName":"Steffisburg"},"district":{"key":"247","name":"Verwaltungskreis Thun"},"canton":{"key":"2","code":"BE","name":"Bern / Berne"},"status":"Real"},{"key":"10015204","name":"Lindenweg","postalCode":"3612","locality":"Steffisburg","commune":{"key":"939","name":"Steffisburg","shortName":"Steffisburg"},"district":{"key":"247","name":"Verwaltungskreis Thun"},"canton":{"key":"2","code":"BE","name":"Bern / Berne"},"status":"Real"},{"key":"10015521","name":"Maienstrasse","postalCode":"3613","locality":"Steffisburg","commune":{"key":"939","name":"Steffisburg","shortName":"Steffisburg"},"district":{"key":"247","name":"Verwaltungskreis Thun"},"canton":{"key":"2","code":"BE","name":"Bern / Berne"},"status":"Real"},{"key":"10061966","name":"Mättenfeldweg","postalCode":"3612","locality":"Steffisburg","commune":{"key":"939","name":"Steffisburg","shortName":"Steffisburg"},"district":{"key":"247","name":"Verwaltungskreis Thun"},"canton":{"key":"2","code":"BE","name":"Bern / Berne"},"status":"Real"},{"key":"10049294","name":"Meisenweg","postalCode":"3612","locality":"Steffisburg","commune":{"key":"939","name":"Steffisburg","shortName":"Steffisburg"},"district":{"key":"247","name":"Verwaltungskreis Thun"},"canton":{"key":"2","code":"BE","name":"Bern / Berne"},"status":"Real"},{"key":"10049304","name":"Merkurstrasse","postalCode":"3613","locality":"Steffisburg","commune":{"key":"939","name":"Steffisburg","shortName":"Steffisburg"},"district":{"key":"247","name":"Verwaltungskreis Thun"},"canton":{"key":"2","code":"BE","name":"Bern / Berne"},"status":"Real"},{"key":"10082214","name":"Mittelstrasse","postalCode":"3613","locality":"Steffisburg","commune":{"key":"939","name":"Steffisburg","shortName":"Steffisburg"},"district":{"key":"247","name":"Verwaltungskreis Thun"},"canton":{"key":"2","code":"BE","name":"Bern / Berne"},"status":"Real"},{"key":"10015205","name":"Mösliweg","postalCode":"3612","locality":"Steffisburg","commune":{"key":"939","name":"Steffisburg","shortName":"Steffisburg"},"district":{"key":"247","name":"Verwaltungskreis Thun"},"canton":{"key":"2","code":"BE","name":"Bern / Berne"},"status":"Real"},{"key":"10218525","name":"Motorparkstrasse","postalCode":"3613","locality":"Steffisburg","commune":{"key":"939","name":"Steffisburg","shortName":"Steffisburg"},"district":{"key":"247","name":"Verwaltungskreis Thun"},"canton":{"key":"2","code":"BE","name":"Bern / Berne"},"status":"Real"},{"key":"10186480","name":"Mühleweg","postalCode":"3612","locality":"Steffisburg","commune":{"key":"939","name":"Steffisburg","shortName":"Steffisburg"},"district":{"key":"247","name":"Verwaltungskreis Thun"},"canton":{"key":"2","code":"BE","name":"Bern / Berne"},"status":"Real"},{"key":"10108379","name":"Muristutz","postalCode":"3612","locality":"Steffisburg","commune":{"key":"939","name":"Steffisburg","shortName":"Steffisburg"},"district":{"key":"247","name":"Verwaltungskreis Thun"},"canton":{"key":"2","code":"BE","name":"Bern / Berne"},"status":"Real"},{"key":"10114918","name":"Muriweg","postalCode":"3612","locality":"Steffisburg","commune":{"key":"939","name":"Steffisburg","shortName":"Steffisburg"},"district":{"key":"247","name":"Verwaltungskreis Thun"},"canton":{"key":"2","code":"BE","name":"Bern / Berne"},"status":"Real"},{"key":"10081941","name":"Narzissenweg","postalCode":"3612","locality":"Steffisburg","commune":{"key":"939","name":"Steffisburg","shortName":"Steffisburg"},"district":{"key":"247","name":"Verwaltungskreis Thun"},"canton":{"key":"2","code":"BE","name":"Bern / Berne"},"status":"Real"},{"key":"10049295","name":"Nelkenweg","postalCode":"3612","locality":"Steffisburg","commune":{"key":"939","name":"Steffisburg","shortName":"Steffisburg"},"district":{"key":"247","name":"Verwaltungskreis Thun"},"canton":{"key":"2","code":"BE","name":"Bern / Berne"},"status":"Real"},{"key":"10015206","name":"Niesenweg","postalCode":"3612","locality":"Steffisburg","commune":{"key":"939","name":"Steffisburg","shortName":"Steffisburg"},"district":{"key":"247","name":"Verwaltungskreis Thun"},"canton":{"key":"2","code":"BE","name":"Bern / Berne"},"status":"Real"},{"key":"10015207","name":"Nünenenweg","postalCode":"3612","locality":"Steffisburg","commune":{"key":"939","name":"Steffisburg","shortName":"Steffisburg"},"district":{"key":"247","name":"Verwaltungskreis Thun"},"canton":{"key":"2","code":"BE","name":"Bern / Berne"},"status":"Real"},{"key":"10049296","name":"Oberdorfstrasse","postalCode":"3612","locality":"Steffisburg","commune":{"key":"939","name":"Steffisburg","shortName":"Steffisburg"},"district":{"key":"247","name":"Verwaltungskreis Thun"},"canton":{"key":"2","code":"BE","name":"Bern / Berne"},"status":"Real"},{"key":"10061967","name":"Oberer Ortbühlweg","postalCode":"3612","locality":"Steffisburg","commune":{"key":"939","name":"Steffisburg","shortName":"Steffisburg"},"district":{"key":"247","name":"Verwaltungskreis Thun"},"canton":{"key":"2","code":"BE","name":"Bern / Berne"},"status":"Real"},{"key":"10081942","name":"Oberer Riederenweg","postalCode":"3612","locality":"Steffisburg","commune":{"key":"939","name":"Steffisburg","shortName":"Steffisburg"},"district":{"key":"247","name":"Verwaltungskreis Thun"},"canton":{"key":"2","code":"BE","name":"Bern / Berne"},"status":"Real"},{"key":"10185092","name":"Oberzelgweg","postalCode":"3612","locality":"Steffisburg","commune":{"key":"939","name":"Steffisburg","shortName":"Steffisburg"},"district":{"key":"247","name":"Verwaltungskreis Thun"},"canton":{"key":"2","code":"BE","name":"Bern / Berne"},"status":"Real"},{"key":"10187146","name":"Oeleweg","postalCode":"3612","locality":"Steffisburg","commune":{"key":"939","name":"Steffisburg","shortName":"Steffisburg"},"district":{"key":"247","name":"Verwaltungskreis Thun"},"canton":{"key":"2","code":"BE","name":"Bern / Berne"},"status":"Real"},{"key":"10015208","name":"Ortbühlweg","postalCode":"3612","locality":"Steffisburg","commune":{"key":"939","name":"Steffisburg","shortName":"Steffisburg"},"district":{"key":"247","name":"Verwaltungskreis Thun"},"canton":{"key":"2","code":"BE","name":"Bern / Berne"},"status":"Real"},{"key":"10015208","name":"Ortbühlweg","postalCode":"3613","locality":"Steffisburg","commune":{"key":"939","name":"Steffisburg","shortName":"Steffisburg"},"district":{"key":"247","name":"Verwaltungskreis Thun"},"canton":{"key":"2","code":"BE","name":"Bern / Berne"},"status":"Real"},{"key":"10061968","name":"Panoramaweg","postalCode":"3612","locality":"Steffisburg","commune":{"key":"939","name":"Steffisburg","shortName":"Steffisburg"},"district":{"key":"247","name":"Verwaltungskreis Thun"},"canton":{"key":"2","code":"BE","name":"Bern / Berne"},"status":"Real"},{"key":"10015209","name":"Pappelweg","postalCode":"3612","locality":"Steffisburg","commune":{"key":"939","name":"Steffisburg","shortName":"Steffisburg"},"district":{"key":"247","name":"Verwaltungskreis Thun"},"canton":{"key":"2","code":"BE","name":"Bern / Berne"},"status":"Real"},{"key":"10004910","name":"Pappelweg","postalCode":"3613","locality":"Steffisburg","commune":{"key":"939","name":"Steffisburg","shortName":"Steffisburg"},"district":{"key":"247","name":"Verwaltungskreis Thun"},"canton":{"key":"2","code":"BE","name":"Bern / Berne"},"status":"Real"},{"key":"10015210","name":"Pfaffenhaltenweg","postalCode":"3612","locality":"Steffisburg","commune":{"key":"939","name":"Steffisburg","shortName":"Steffisburg"},"district":{"key":"247","name":"Verwaltungskreis Thun"},"canton":{"key":"2","code":"BE","name":"Bern / Berne"},"status":"Real"},{"key":"10061969","name":"Pfarrhausweg","postalCode":"3612","locality":"Steffisburg","commune":{"key":"939","name":"Steffisburg","shortName":"Steffisburg"},"district":{"key":"247","name":"Verwaltungskreis Thun"},"canton":{"key":"2","code":"BE","name":"Bern / Berne"},"status":"Real"},{"key":"10049305","name":"Pfauenweg","postalCode":"3613","locality":"Steffisburg","commune":{"key":"939","name":"Steffisburg","shortName":"Steffisburg"},"district":{"key":"247","name":"Verwaltungskreis Thun"},"canton":{"key":"2","code":"BE","name":"Bern / Berne"},"status":"Real"},{"key":"10098687","name":"Pfrundmattweg","postalCode":"3612","locality":"Steffisburg","commune":{"key":"939","name":"Steffisburg","shortName":"Steffisburg"},"district":{"key":"247","name":"Verwaltungskreis Thun"},"canton":{"key":"2","code":"BE","name":"Bern / Berne"},"status":"Real"},{"key":"10218529","name":"Postgässli","postalCode":"3612","locality":"Steffisburg","commune":{"key":"939","name":"Steffisburg","shortName":"Steffisburg"},"district":{"key":"247","name":"Verwaltungskreis Thun"},"canton":{"key":"2","code":"BE","name":"Bern / Berne"},"status":"Real"},{"key":"10062259","name":"Primelweg","postalCode":"3612","locality":"Steffisburg","commune":{"key":"939","name":"Steffisburg","shortName":"Steffisburg"},"district":{"key":"247","name":"Verwaltungskreis Thun"},"canton":{"key":"2","code":"BE","name":"Bern / Berne"},"status":"Real"},{"key":"10144295","name":"Radweg","postalCode":"3613","locality":"Steffisburg","commune":{"key":"939","name":"Steffisburg","shortName":"Steffisburg"},"district":{"key":"247","name":"Verwaltungskreis Thun"},"canton":{"key":"2","code":"BE","name":"Bern / Berne"},"status":"Real"},{"key":"10216747","name":"Radweg","postalCode":"3613","locality":"Steffisburg","commune":{"key":"939","name":"Steffisburg","shortName":"Steffisburg"},"district":{"key":"247","name":"Verwaltungskreis Thun"},"canton":{"key":"2","code":"BE","name":"Bern / Berne"},"status":"Real"},{"key":"10015490","name":"Rainweg","postalCode":"3612","locality":"Steffisburg","commune":{"key":"939","name":"Steffisburg","shortName":"Steffisburg"},"district":{"key":"247","name":"Verwaltungskreis Thun"},"canton":{"key":"2","code":"BE","name":"Bern / Berne"},"status":"Real"},{"key":"10081943","name":"Reckweg","postalCode":"3612","locality":"Steffisburg","commune":{"key":"939","name":"Steffisburg","shortName":"Steffisburg"},"district":{"key":"247","name":"Verwaltungskreis Thun"},"canton":{"key":"2","code":"BE","name":"Bern / Berne"},"status":"Real"},{"key":"10081943","name":"Reckweg","postalCode":"3613","locality":"Steffisburg","commune":{"key":"939","name":"Steffisburg","shortName":"Steffisburg"},"district":{"key":"247","name":"Verwaltungskreis Thun"},"canton":{"key":"2","code":"BE","name":"Bern / Berne"},"status":"Real"},{"key":"10144261","name":"Riederenbödeliweg","postalCode":"3612","locality":"Steffisburg","commune":{"key":"939","name":"Steffisburg","shortName":"Steffisburg"},"district":{"key":"247","name":"Verwaltungskreis Thun"},"canton":{"key":"2","code":"BE","name":"Bern / Berne"},"status":"Real"},{"key":"10015491","name":"Riederenhubelweg","postalCode":"3612","locality":"Steffisburg","commune":{"key":"939","name":"Steffisburg","shortName":"Steffisburg"},"district":{"key":"247","name":"Verwaltungskreis Thun"},"canton":{"key":"2","code":"BE","name":"Bern / Berne"},"status":"Real"},{"key":"10062260","name":"Riedweg","postalCode":"3612","locality":"Steffisburg","commune":{"key":"939","name":"Steffisburg","shortName":"Steffisburg"},"district":{"key":"247","name":"Verwaltungskreis Thun"},"canton":{"key":"2","code":"BE","name":"Bern / Berne"},"status":"Real"},{"key":"10185098","name":"Ringweg","postalCode":"3613","locality":"Steffisburg","commune":{"key":"939","name":"Steffisburg","shortName":"Steffisburg"},"district":{"key":"247","name":"Verwaltungskreis Thun"},"canton":{"key":"2","code":"BE","name":"Bern / Berne"},"status":"Real"},{"key":"10081944","name":"Roggenweg","postalCode":"3612","locality":"Steffisburg","commune":{"key":"939","name":"Steffisburg","shortName":"Steffisburg"},"district":{"key":"247","name":"Verwaltungskreis Thun"},"canton":{"key":"2","code":"BE","name":"Bern / Berne"},"status":"Real"},{"key":"10015492","name":"Rosenweg","postalCode":"3612","locality":"Steffisburg","commune":{"key":"939","name":"Steffisburg","shortName":"Steffisburg"},"district":{"key":"247","name":"Verwaltungskreis Thun"},"canton":{"key":"2","code":"BE","name":"Bern / Berne"},"status":"Real"},{"key":"10185093","name":"Rothornweg","postalCode":"3612","locality":"Steffisburg","commune":{"key":"939","name":"Steffisburg","shortName":"Steffisburg"},"district":{"key":"247","name":"Verwaltungskreis Thun"},"canton":{"key":"2","code":"BE","name":"Bern / Berne"},"status":"Real"},{"key":"10188930","name":"Rüttiweg","postalCode":"3612","locality":"Steffisburg","commune":{"key":"939","name":"Steffisburg","shortName":"Steffisburg"},"district":{"key":"247","name":"Verwaltungskreis Thun"},"canton":{"key":"2","code":"BE","name":"Bern / Berne"},"status":"Real"},{"key":"10015503","name":"Sägeweg","postalCode":"3612","locality":"Steffisburg","commune":{"key":"939","name":"Steffisburg","shortName":"Steffisburg"},"district":{"key":"247","name":"Verwaltungskreis Thun"},"canton":{"key":"2","code":"BE","name":"Bern / Berne"},"status":"Real"},{"key":"10114554","name":"Sanddornweg","postalCode":"3613","locality":"Steffisburg","commune":{"key":"939","name":"Steffisburg","shortName":"Steffisburg"},"district":{"key":"247","name":"Verwaltungskreis Thun"},"canton":{"key":"2","code":"BE","name":"Bern / Berne"},"status":"Real"},{"key":"10062265","name":"Säuhubelweg","postalCode":"3612","locality":"Steffisburg","commune":{"key":"939","name":"Steffisburg","shortName":"Steffisburg"},"district":{"key":"247","name":"Verwaltungskreis Thun"},"canton":{"key":"2","code":"BE","name":"Bern / Berne"},"status":"Real"},{"key":"10185094","name":"Schächliweg","postalCode":"3612","locality":"Steffisburg","commune":{"key":"939","name":"Steffisburg","shortName":"Steffisburg"},"district":{"key":"247","name":"Verwaltungskreis Thun"},"canton":{"key":"2","code":"BE","name":"Bern / Berne"},"status":"Real"},{"key":"10082204","name":"Schafrainweg","postalCode":"3612","locality":"Steffisburg","commune":{"key":"939","name":"Steffisburg","shortName":"Steffisburg"},"district":{"key":"247","name":"Verwaltungskreis Thun"},"canton":{"key":"2","code":"BE","name":"Bern / Berne"},"status":"Real"},{"key":"10015493","name":"Scheidgasse","postalCode":"3612","locality":"Steffisburg","commune":{"key":"939","name":"Steffisburg","shortName":"Steffisburg"},"district":{"key":"247","name":"Verwaltungskreis Thun"},"canton":{"key":"2","code":"BE","name":"Bern / Berne"},"status":"Real"},{"key":"10062261","name":"Schlafhausweg","postalCode":"3612","locality":"Steffisburg","commune":{"key":"939","name":"Steffisburg","shortName":"Steffisburg"},"district":{"key":"247","name":"Verwaltungskreis Thun"},"canton":{"key":"2","code":"BE","name":"Bern / Berne"},"status":"Real"},{"key":"10015494","name":"Schlauchbachweg","postalCode":"3612","locality":"Steffisburg","commune":{"key":"939","name":"Steffisburg","shortName":"Steffisburg"},"district":{"key":"247","name":"Verwaltungskreis Thun"},"canton":{"key":"2","code":"BE","name":"Bern / Berne"},"status":"Real"},{"key":"10178360","name":"Schlehdornweg","postalCode":"3613","locality":"Steffisburg","commune":{"key":"939","name":"Steffisburg","shortName":"Steffisburg"},"district":{"key":"247","name":"Verwaltungskreis Thun"},"canton":{"key":"2","code":"BE","name":"Bern / Berne"},"status":"Real"},{"key":"10082215","name":"Schlossstrasse","postalCode":"3613","locality":"Steffisburg","commune":{"key":"939","name":"Steffisburg","shortName":"Steffisburg"},"district":{"key":"247","name":"Verwaltungskreis Thun"},"canton":{"key":"2","code":"BE","name":"Bern / Berne"},"status":"Real"},{"key":"10015495","name":"Schmiedeweg","postalCode":"3612","locality":"Steffisburg","commune":{"key":"939","name":"Steffisburg","shortName":"Steffisburg"},"district":{"key":"247","name":"Verwaltungskreis Thun"},"canton":{"key":"2","code":"BE","name":"Bern / Berne"},"status":"Real"},{"key":"10186137","name":"Schnittweierweg","postalCode":"3612","locality":"Steffisburg","commune":{"key":"939","name":"Steffisburg","shortName":"Steffisburg"},"district":{"key":"247","name":"Verwaltungskreis Thun"},"canton":{"key":"2","code":"BE","name":"Bern / Berne"},"status":"Real"},{"key":"10015498","name":"Schönauweg","postalCode":"3612","locality":"Steffisburg","commune":{"key":"939","name":"Steffisburg","shortName":"Steffisburg"},"district":{"key":"247","name":"Verwaltungskreis Thun"},"canton":{"key":"2","code":"BE","name":"Bern / Berne"},"status":"Real"},{"key":"10062263","name":"Schönmattweg","postalCode":"3613","locality":"Steffisburg","commune":{"key":"939","name":"Steffisburg","shortName":"Steffisburg"},"district":{"key":"247","name":"Verwaltungskreis Thun"},"canton":{"key":"2","code":"BE","name":"Bern / Berne"},"status":"Real"},{"key":"10082206","name":"Schörizweg","postalCode":"3612","locality":"Steffisburg","commune":{"key":"939","name":"Steffisburg","shortName":"Steffisburg"},"district":{"key":"247","name":"Verwaltungskreis Thun"},"canton":{"key":"2","code":"BE","name":"Bern / Berne"},"status":"Real"},{"key":"10015499","name":"Schörlenweg","postalCode":"3612","locality":"Steffisburg","commune":{"key":"939","name":"Steffisburg","shortName":"Steffisburg"},"district":{"key":"247","name":"Verwaltungskreis Thun"},"canton":{"key":"2","code":"BE","name":"Bern / Berne"},"status":"Real"},{"key":"10015496","name":"Schreinerweg","postalCode":"3612","locality":"Steffisburg","commune":{"key":"939","name":"Steffisburg","shortName":"Steffisburg"},"district":{"key":"247","name":"Verwaltungskreis Thun"},"canton":{"key":"2","code":"BE","name":"Bern / Berne"},"status":"Real"},{"key":"10175112","name":"Schulgässli","postalCode":"3612","locality":"Steffisburg","commune":{"key":"939","name":"Steffisburg","shortName":"Steffisburg"},"district":{"key":"247","name":"Verwaltungskreis Thun"},"canton":{"key":"2","code":"BE","name":"Bern / Berne"},"status":"Real"},{"key":"10108684","name":"Schulstrasse","postalCode":"3612","locality":"Steffisburg","commune":{"key":"939","name":"Steffisburg","shortName":"Steffisburg"},"district":{"key":"247","name":"Verwaltungskreis Thun"},"canton":{"key":"2","code":"BE","name":"Bern / Berne"},"status":"Real"},{"key":"10015500","name":"Schützenstrasse","postalCode":"3612","locality":"Steffisburg","commune":{"key":"939","name":"Steffisburg","shortName":"Steffisburg"},"district":{"key":"247","name":"Verwaltungskreis Thun"},"canton":{"key":"2","code":"BE","name":"Bern / Berne"},"status":"Real"},{"key":"10186481","name":"Schwäbismattweg","postalCode":"3613","locality":"Steffisburg","commune":{"key":"939","name":"Steffisburg","shortName":"Steffisburg"},"district":{"key":"247","name":"Verwaltungskreis Thun"},"canton":{"key":"2","code":"BE","name":"Bern / Berne"},"status":"Real"},{"key":"10015523","name":"Schwäbisstrasse","postalCode":"3613","locality":"Steffisburg","commune":{"key":"939","name":"Steffisburg","shortName":"Steffisburg"},"district":{"key":"247","name":"Verwaltungskreis Thun"},"canton":{"key":"2","code":"BE","name":"Bern / Berne"},"status":"Real"},{"key":"10015522","name":"Schwalbenweg","postalCode":"3613","locality":"Steffisburg","commune":{"key":"939","name":"Steffisburg","shortName":"Steffisburg"},"district":{"key":"247","name":"Verwaltungskreis Thun"},"canton":{"key":"2","code":"BE","name":"Bern / Berne"},"status":"Real"},{"key":"10082205","name":"Schwandenbadstrasse","postalCode":"3612","locality":"Steffisburg","commune":{"key":"939","name":"Steffisburg","shortName":"Steffisburg"},"district":{"key":"247","name":"Verwaltungskreis Thun"},"canton":{"key":"2","code":"BE","name":"Bern / Berne"},"status":"Real"},{"key":"10015497","name":"Schwandrainweg","postalCode":"3612","locality":"Steffisburg","commune":{"key":"939","name":"Steffisburg","shortName":"Steffisburg"},"district":{"key":"247","name":"Verwaltungskreis Thun"},"canton":{"key":"2","code":"BE","name":"Bern / Berne"},"status":"Real"},{"key":"10217094","name":"Schwandweg","postalCode":"3612","locality":"Steffisburg","commune":{"key":"939","name":"Steffisburg","shortName":"Steffisburg"},"district":{"key":"247","name":"Verwaltungskreis Thun"},"canton":{"key":"2","code":"BE","name":"Bern / Berne"},"status":"Real"},{"key":"10062262","name":"Schwarzeneggstrasse","postalCode":"3612","locality":"Steffisburg","commune":{"key":"939","name":"Steffisburg","shortName":"Steffisburg"},"district":{"key":"247","name":"Verwaltungskreis Thun"},"canton":{"key":"2","code":"BE","name":"Bern / Berne"},"status":"Real"},{"key":"10015501","name":"Seidenweg","postalCode":"3612","locality":"Steffisburg","commune":{"key":"939","name":"Steffisburg","shortName":"Steffisburg"},"district":{"key":"247","name":"Verwaltungskreis Thun"},"canton":{"key":"2","code":"BE","name":"Bern / Berne"},"status":"Real"},{"key":"10059879","name":"Siechenbodenweg","postalCode":"3612","locality":"Steffisburg","commune":{"key":"939","name":"Steffisburg","shortName":"Steffisburg"},"district":{"key":"247","name":"Verwaltungskreis Thun"},"canton":{"key":"2","code":"BE","name":"Bern / Berne"},"status":"Real"},{"key":"10082216","name":"Sonnenfeldstrasse","postalCode":"3613","locality":"Steffisburg","commune":{"key":"939","name":"Steffisburg","shortName":"Steffisburg"},"district":{"key":"247","name":"Verwaltungskreis Thun"},"canton":{"key":"2","code":"BE","name":"Bern / Berne"},"status":"Real"},{"key":"10082207","name":"Sonnenrainstrasse","postalCode":"3612","locality":"Steffisburg","commune":{"key":"939","name":"Steffisburg","shortName":"Steffisburg"},"district":{"key":"247","name":"Verwaltungskreis Thun"},"canton":{"key":"2","code":"BE","name":"Bern / Berne"},"status":"Real"},{"key":"10015502","name":"Sonnenweg","postalCode":"3612","locality":"Steffisburg","commune":{"key":"939","name":"Steffisburg","shortName":"Steffisburg"},"district":{"key":"247","name":"Verwaltungskreis Thun"},"canton":{"key":"2","code":"BE","name":"Bern / Berne"},"status":"Real"},{"key":"10049306","name":"Speicherweg","postalCode":"3613","locality":"Steffisburg","commune":{"key":"939","name":"Steffisburg","shortName":"Steffisburg"},"district":{"key":"247","name":"Verwaltungskreis Thun"},"canton":{"key":"2","code":"BE","name":"Bern / Berne"},"status":"Real"},{"key":"10009320","name":"Spittelweg","postalCode":"3612","locality":"Steffisburg","commune":{"key":"939","name":"Steffisburg","shortName":"Steffisburg"},"district":{"key":"247","name":"Verwaltungskreis Thun"},"canton":{"key":"2","code":"BE","name":"Bern / Berne"},"status":"Real"},{"key":"10114919","name":"Spittelweg","postalCode":"3612","locality":"Steffisburg","commune":{"key":"939","name":"Steffisburg","shortName":"Steffisburg"},"district":{"key":"247","name":"Verwaltungskreis Thun"},"canton":{"key":"2","code":"BE","name":"Bern / Berne"},"status":"Real"},{"key":"10251802","name":"Stöckerain","postalCode":"3612","locality":"Steffisburg","commune":{"key":"939","name":"Steffisburg","shortName":"Steffisburg"},"district":{"key":"247","name":"Verwaltungskreis Thun"},"canton":{"key":"2","code":"BE","name":"Bern / Berne"},"status":"Real"},{"key":"10185095","name":"Stockhornstrasse","postalCode":"3612","locality":"Steffisburg","commune":{"key":"939","name":"Steffisburg","shortName":"Steffisburg"},"district":{"key":"247","name":"Verwaltungskreis Thun"},"canton":{"key":"2","code":"BE","name":"Bern / Berne"},"status":"Real"},{"key":"10062264","name":"Stutzweg","postalCode":"3612","locality":"Steffisburg","commune":{"key":"939","name":"Steffisburg","shortName":"Steffisburg"},"district":{"key":"247","name":"Verwaltungskreis Thun"},"canton":{"key":"2","code":"BE","name":"Bern / Berne"},"status":"Real"},{"key":"10128443","name":"Sunneggweg","postalCode":"3612","locality":"Steffisburg","commune":{"key":"939","name":"Steffisburg","shortName":"Steffisburg"},"district":{"key":"247","name":"Verwaltungskreis Thun"},"canton":{"key":"2","code":"BE","name":"Bern / Berne"},"status":"Real"},{"key":"10015524","name":"Sunneschynweg","postalCode":"3613","locality":"Steffisburg","commune":{"key":"939","name":"Steffisburg","shortName":"Steffisburg"},"district":{"key":"247","name":"Verwaltungskreis Thun"},"canton":{"key":"2","code":"BE","name":"Bern / Berne"},"status":"Real"},{"key":"10015504","name":"Thunstrasse","postalCode":"3612","locality":"Steffisburg","commune":{"key":"939","name":"Steffisburg","shortName":"Steffisburg"},"district":{"key":"247","name":"Verwaltungskreis Thun"},"canton":{"key":"2","code":"BE","name":"Bern / Berne"},"status":"Real"},{"key":"10217098","name":"Toggelisgrabenweg","postalCode":"3612","locality":"Steffisburg","commune":{"key":"939","name":"Steffisburg","shortName":"Steffisburg"},"district":{"key":"247","name":"Verwaltungskreis Thun"},"canton":{"key":"2","code":"BE","name":"Bern / Berne"},"status":"Real"},{"key":"10082894","name":"Töpferweg","postalCode":"3613","locality":"Steffisburg","commune":{"key":"939","name":"Steffisburg","shortName":"Steffisburg"},"district":{"key":"247","name":"Verwaltungskreis Thun"},"canton":{"key":"2","code":"BE","name":"Bern / Berne"},"status":"Real"},{"key":"10185099","name":"Töpferweg","postalCode":"3613","locality":"Steffisburg","commune":{"key":"939","name":"Steffisburg","shortName":"Steffisburg"},"district":{"key":"247","name":"Verwaltungskreis Thun"},"canton":{"key":"2","code":"BE","name":"Bern / Berne"},"status":"Real"},{"key":"10015505","name":"Traubenweg","postalCode":"3612","locality":"Steffisburg","commune":{"key":"939","name":"Steffisburg","shortName":"Steffisburg"},"district":{"key":"247","name":"Verwaltungskreis Thun"},"canton":{"key":"2","code":"BE","name":"Bern / Berne"},"status":"Real"},{"key":"10062266","name":"Tüchtiwilweg","postalCode":"3612","locality":"Steffisburg","commune":{"key":"939","name":"Steffisburg","shortName":"Steffisburg"},"district":{"key":"247","name":"Verwaltungskreis Thun"},"canton":{"key":"2","code":"BE","name":"Bern / Berne"},"status":"Real"},{"key":"10015525","name":"Tulpenweg","postalCode":"3613","locality":"Steffisburg","commune":{"key":"939","name":"Steffisburg","shortName":"Steffisburg"},"district":{"key":"247","name":"Verwaltungskreis Thun"},"canton":{"key":"2","code":"BE","name":"Bern / Berne"},"status":"Real"},{"key":"10098689","name":"Turmstrasse","postalCode":"3613","locality":"Steffisburg","commune":{"key":"939","name":"Steffisburg","shortName":"Steffisburg"},"district":{"key":"247","name":"Verwaltungskreis Thun"},"canton":{"key":"2","code":"BE","name":"Bern / Berne"},"status":"Real"},{"key":"10082208","name":"Uf den Müren","postalCode":"3612","locality":"Steffisburg","commune":{"key":"939","name":"Steffisburg","shortName":"Steffisburg"},"district":{"key":"247","name":"Verwaltungskreis Thun"},"canton":{"key":"2","code":"BE","name":"Bern / Berne"},"status":"Real"},{"key":"10015526","name":"Uferweg","postalCode":"3613","locality":"Steffisburg","commune":{"key":"939","name":"Steffisburg","shortName":"Steffisburg"},"district":{"key":"247","name":"Verwaltungskreis Thun"},"canton":{"key":"2","code":"BE","name":"Bern / Berne"},"status":"Real"},{"key":"10216751","name":"Uferweg","postalCode":"3613","locality":"Steffisburg","commune":{"key":"939","name":"Steffisburg","shortName":"Steffisburg"},"district":{"key":"247","name":"Verwaltungskreis Thun"},"canton":{"key":"2","code":"BE","name":"Bern / Berne"},"status":"Real"},{"key":"10015506","name":"Ulmenweg","postalCode":"3612","locality":"Steffisburg","commune":{"key":"939","name":"Steffisburg","shortName":"Steffisburg"},"district":{"key":"247","name":"Verwaltungskreis Thun"},"canton":{"key":"2","code":"BE","name":"Bern / Berne"},"status":"Real"},{"key":"10108685","name":"Unterdorfstrasse","postalCode":"3612","locality":"Steffisburg","commune":{"key":"939","name":"Steffisburg","shortName":"Steffisburg"},"district":{"key":"247","name":"Verwaltungskreis Thun"},"canton":{"key":"2","code":"BE","name":"Bern / Berne"},"status":"Real"},{"key":"10082209","name":"Unterer Hardeggweg","postalCode":"3612","locality":"Steffisburg","commune":{"key":"939","name":"Steffisburg","shortName":"Steffisburg"},"district":{"key":"247","name":"Verwaltungskreis Thun"},"canton":{"key":"2","code":"BE","name":"Bern / Berne"},"status":"Real"},{"key":"10015507","name":"Unterer Riederenweg","postalCode":"3612","locality":"Steffisburg","commune":{"key":"939","name":"Steffisburg","shortName":"Steffisburg"},"district":{"key":"247","name":"Verwaltungskreis Thun"},"canton":{"key":"2","code":"BE","name":"Bern / Berne"},"status":"Real"},{"key":"10188931","name":"Untere Zulgstrasse","postalCode":"3613","locality":"Steffisburg","commune":{"key":"939","name":"Steffisburg","shortName":"Steffisburg"},"district":{"key":"247","name":"Verwaltungskreis Thun"},"canton":{"key":"2","code":"BE","name":"Bern / Berne"},"status":"Real"},{"key":"10015341","name":"Untere Zulgstrasse","postalCode":"3613","locality":"Steffisburg","commune":{"key":"939","name":"Steffisburg","shortName":"Steffisburg"},"district":{"key":"247","name":"Verwaltungskreis Thun"},"canton":{"key":"2","code":"BE","name":"Bern / Berne"},"status":"Real"},{"key":"10015342","name":"Wachtelweg","postalCode":"3613","locality":"Steffisburg","commune":{"key":"939","name":"Steffisburg","shortName":"Steffisburg"},"district":{"key":"247","name":"Verwaltungskreis Thun"},"canton":{"key":"2","code":"BE","name":"Bern / Berne"},"status":"Real"},{"key":"10015508","name":"Waldeggweg","postalCode":"3612","locality":"Steffisburg","commune":{"key":"939","name":"Steffisburg","shortName":"Steffisburg"},"district":{"key":"247","name":"Verwaltungskreis Thun"},"canton":{"key":"2","code":"BE","name":"Bern / Berne"},"status":"Real"},{"key":"10015509","name":"Walkeweg","postalCode":"3612","locality":"Steffisburg","commune":{"key":"939","name":"Steffisburg","shortName":"Steffisburg"},"district":{"key":"247","name":"Verwaltungskreis Thun"},"canton":{"key":"2","code":"BE","name":"Bern / Berne"},"status":"Real"},{"key":"10015510","name":"Weberweg","postalCode":"3612","locality":"Steffisburg","commune":{"key":"939","name":"Steffisburg","shortName":"Steffisburg"},"district":{"key":"247","name":"Verwaltungskreis Thun"},"canton":{"key":"2","code":"BE","name":"Bern / Berne"},"status":"Real"},{"key":"10062267","name":"Weidenweg","postalCode":"3612","locality":"Steffisburg","commune":{"key":"939","name":"Steffisburg","shortName":"Steffisburg"},"district":{"key":"247","name":"Verwaltungskreis Thun"},"canton":{"key":"2","code":"BE","name":"Bern / Berne"},"status":"Real"},{"key":"10082210","name":"Weieneggstrasse","postalCode":"3612","locality":"Steffisburg","commune":{"key":"939","name":"Steffisburg","shortName":"Steffisburg"},"district":{"key":"247","name":"Verwaltungskreis Thun"},"canton":{"key":"2","code":"BE","name":"Bern / Berne"},"status":"Real"},{"key":"10185096","name":"Weiergrabenweg","postalCode":"3612","locality":"Steffisburg","commune":{"key":"939","name":"Steffisburg","shortName":"Steffisburg"},"district":{"key":"247","name":"Verwaltungskreis Thun"},"canton":{"key":"2","code":"BE","name":"Bern / Berne"},"status":"Real"},{"key":"10049297","name":"Weinbergstrasse","postalCode":"3612","locality":"Steffisburg","commune":{"key":"939","name":"Steffisburg","shortName":"Steffisburg"},"district":{"key":"247","name":"Verwaltungskreis Thun"},"canton":{"key":"2","code":"BE","name":"Bern / Berne"},"status":"Real"},{"key":"10082211","name":"Wiesenstrasse","postalCode":"3612","locality":"Steffisburg","commune":{"key":"939","name":"Steffisburg","shortName":"Steffisburg"},"district":{"key":"247","name":"Verwaltungskreis Thun"},"canton":{"key":"2","code":"BE","name":"Bern / Berne"},"status":"Real"},{"key":"10062268","name":"Wolfgrubenweg","postalCode":"3612","locality":"Steffisburg","commune":{"key":"939","name":"Steffisburg","shortName":"Steffisburg"},"district":{"key":"247","name":"Verwaltungskreis Thun"},"canton":{"key":"2","code":"BE","name":"Bern / Berne"},"status":"Real"},{"key":"10015527","name":"Zelggässli","postalCode":"3613","locality":"Steffisburg","commune":{"key":"939","name":"Steffisburg","shortName":"Steffisburg"},"district":{"key":"247","name":"Verwaltungskreis Thun"},"canton":{"key":"2","code":"BE","name":"Bern / Berne"},"status":"Real"},{"key":"10049298","name":"Zelgmattweg","postalCode":"3612","locality":"Steffisburg","commune":{"key":"939","name":"Steffisburg","shortName":"Steffisburg"},"district":{"key":"247","name":"Verwaltungskreis Thun"},"canton":{"key":"2","code":"BE","name":"Bern / Berne"},"status":"Real"},{"key":"10015511","name":"Zelgstrasse","postalCode":"3612","locality":"Steffisburg","commune":{"key":"939","name":"Steffisburg","shortName":"Steffisburg"},"district":{"key":"247","name":"Verwaltungskreis Thun"},"canton":{"key":"2","code":"BE","name":"Bern / Berne"},"status":"Real"},{"key":"10114920","name":"Zibelegässli","postalCode":"3612","locality":"Steffisburg","commune":{"key":"939","name":"Steffisburg","shortName":"Steffisburg"},"district":{"key":"247","name":"Verwaltungskreis Thun"},"canton":{"key":"2","code":"BE","name":"Bern / Berne"},"status":"Real"},{"key":"10015512","name":"Ziegeleistrasse","postalCode":"3612","locality":"Steffisburg","commune":{"key":"939","name":"Steffisburg","shortName":"Steffisburg"},"district":{"key":"247","name":"Verwaltungskreis Thun"},"canton":{"key":"2","code":"BE","name":"Bern / Berne"},"status":"Real"},{"key":"10217102","name":"Zulgrainweg","postalCode":"3612","locality":"Steffisburg","commune":{"key":"939","name":"Steffisburg","shortName":"Steffisburg"},"district":{"key":"247","name":"Verwaltungskreis Thun"},"canton":{"key":"2","code":"BE","name":"Bern / Berne"},"status":"Real"},{"key":"10217104","name":"Zulgreckweg","postalCode":"3612","locality":"Steffisburg","commune":{"key":"939","name":"Steffisburg","shortName":"Steffisburg"},"district":{"key":"247","name":"Verwaltungskreis Thun"},"canton":{"key":"2","code":"BE","name":"Bern / Berne"},"status":"Real"},{"key":"10217104","name":"Zulgreckweg","postalCode":"3613","locality":"Steffisburg","commune":{"key":"939","name":"Steffisburg","shortName":"Steffisburg"},"district":{"key":"247","name":"Verwaltungskreis Thun"},"canton":{"key":"2","code":"BE","name":"Bern / Berne"},"status":"Real"},{"key":"10049299","name":"Zulgstrasse","postalCode":"3612","locality":"Steffisburg","commune":{"key":"939","name":"Steffisburg","shortName":"Steffisburg"},"district":{"key":"247","name":"Verwaltungskreis Thun"},"canton":{"key":"2","code":"BE","name":"Bern / Berne"},"status":"Real"},{"key":"10049299","name":"Zulgstrasse","postalCode":"3613","locality":"Steffisburg","commune":{"key":"939","name":"Steffisburg","shortName":"Steffisburg"},"district":{"key":"247","name":"Verwaltungskreis Thun"},"canton":{"key":"2","code":"BE","name":"Bern / Berne"},"status":"Real"},]