[{"name":"Aarstr.","postalCode":"65558","locality":"Holzheim","municipality":{"key":"07141061","name":"Holzheim","type":"Kreisangehörige_Gemeinde"},"district":{"key":"07141","name":"Rhein-Lahn-Kreis","type":"Landkreis"},"federalState":{"key":"07","name":"Rheinland-Pfalz"}},{"name":"Ahornring","postalCode":"86684","locality":"Holzheim","municipality":{"key":"09779163","name":"Holzheim","type":"Kreisangehörige_Gemeinde"},"district":{"key":"09779","name":"Donau-Ries","type":"Landkreis"},"federalState":{"key":"09","name":"Bayern"}},{"name":"Ahornstr.","postalCode":"89291","locality":"Holzheim","municipality":{"key":"09775126","name":"Holzheim","type":"Kreisangehörige_Gemeinde"},"district":{"key":"09775","name":"Neu-Ulm","type":"Landkreis"},"federalState":{"key":"09","name":"Bayern"}},{"name":"Albert-Schweitzer-Str.","postalCode":"65558","locality":"Holzheim","municipality":{"key":"07141061","name":"Holzheim","type":"Kreisangehörige_Gemeinde"},"district":{"key":"07141","name":"Rhein-Lahn-Kreis","type":"Landkreis"},"federalState":{"key":"07","name":"Rheinland-Pfalz"}},{"name":"Altenbaindter Str.","postalCode":"89438","locality":"Holzheim","municipality":{"key":"09773140","name":"Holzheim","type":"Kreisangehörige_Gemeinde"},"district":{"key":"09773","name":"Dillingen a.d.Donau","type":"Landkreis"},"federalState":{"key":"09","name":"Bayern"}},{"name":"Alte Str.","postalCode":"65558","locality":"Holzheim","municipality":{"key":"07141061","name":"Holzheim","type":"Kreisangehörige_Gemeinde"},"district":{"key":"07141","name":"Rhein-Lahn-Kreis","type":"Landkreis"},"federalState":{"key":"07","name":"Rheinland-Pfalz"}},{"name":"Am Bach","postalCode":"86684","locality":"Holzheim","municipality":{"key":"09779163","name":"Holzheim","type":"Kreisangehörige_Gemeinde"},"district":{"key":"09779","name":"Donau-Ries","type":"Landkreis"},"federalState":{"key":"09","name":"Bayern"}},{"name":"Am Bach","postalCode":"89291","locality":"Holzheim","municipality":{"key":"09775126","name":"Holzheim","type":"Kreisangehörige_Gemeinde"},"district":{"key":"09775","name":"Neu-Ulm","type":"Landkreis"},"federalState":{"key":"09","name":"Bayern"}},{"name":"Am Badanger","postalCode":"86684","locality":"Holzheim","municipality":{"key":"09779163","name":"Holzheim","type":"Kreisangehörige_Gemeinde"},"district":{"key":"09779","name":"Donau-Ries","type":"Landkreis"},"federalState":{"key":"09","name":"Bayern"}},{"name":"Am Blümlberg","postalCode":"93183","locality":"Holzheim am Forst","municipality":{"key":"09375153","name":"Holzheim a.Forst","type":"Kreisangehörige_Gemeinde"},"district":{"key":"09375","name":"Regensburg","type":"Landkreis"},"federalState":{"key":"09","name":"Bayern"}},{"name":"Am Breitenberg","postalCode":"89438","locality":"Holzheim","municipality":{"key":"09773140","name":"Holzheim","type":"Kreisangehörige_Gemeinde"},"district":{"key":"09773","name":"Dillingen a.d.Donau","type":"Landkreis"},"federalState":{"key":"09","name":"Bayern"}},{"name":"Am Brünnele","postalCode":"89291","locality":"Holzheim","municipality":{"key":"09775126","name":"Holzheim","type":"Kreisangehörige_Gemeinde"},"district":{"key":"09775","name":"Neu-Ulm","type":"Landkreis"},"federalState":{"key":"09","name":"Bayern"}},{"name":"Am Brunnenweg","postalCode":"89438","locality":"Holzheim","municipality":{"key":"09773140","name":"Holzheim","type":"Kreisangehörige_Gemeinde"},"district":{"key":"09773","name":"Dillingen a.d.Donau","type":"Landkreis"},"federalState":{"key":"09","name":"Bayern"}},{"name":"Am Burgweg","postalCode":"65558","locality":"Holzheim","municipality":{"key":"07141061","name":"Holzheim","type":"Kreisangehörige_Gemeinde"},"district":{"key":"07141","name":"Rhein-Lahn-Kreis","type":"Landkreis"},"federalState":{"key":"07","name":"Rheinland-Pfalz"}},{"name":"Am Fuchsengraben","postalCode":"93183","locality":"Holzheim am Forst","municipality":{"key":"09375153","name":"Holzheim a.Forst","type":"Kreisangehörige_Gemeinde"},"district":{"key":"09375","name":"Regensburg","type":"Landkreis"},"federalState":{"key":"09","name":"Bayern"}},{"name":"Am Gewandenfeld","postalCode":"89438","locality":"Holzheim","municipality":{"key":"09773140","name":"Holzheim","type":"Kreisangehörige_Gemeinde"},"district":{"key":"09773","name":"Dillingen a.d.Donau","type":"Landkreis"},"federalState":{"key":"09","name":"Bayern"}},{"name":"Am Hausberg","postalCode":"86684","locality":"Holzheim","municipality":{"key":"09779163","name":"Holzheim","type":"Kreisangehörige_Gemeinde"},"district":{"key":"09779","name":"Donau-Ries","type":"Landkreis"},"federalState":{"key":"09","name":"Bayern"}},{"name":"Am Heindlfeld","postalCode":"93183","locality":"Holzheim am Forst","municipality":{"key":"09375153","name":"Holzheim a.Forst","type":"Kreisangehörige_Gemeinde"},"district":{"key":"09375","name":"Regensburg","type":"Landkreis"},"federalState":{"key":"09","name":"Bayern"}},{"name":"Am Herrgottsfeld","postalCode":"89438","locality":"Holzheim","municipality":{"key":"09773140","name":"Holzheim","type":"Kreisangehörige_Gemeinde"},"district":{"key":"09773","name":"Dillingen a.d.Donau","type":"Landkreis"},"federalState":{"key":"09","name":"Bayern"}},{"name":"Am Heugarten","postalCode":"89438","locality":"Holzheim","municipality":{"key":"09773140","name":"Holzheim","type":"Kreisangehörige_Gemeinde"},"district":{"key":"09773","name":"Dillingen a.d.Donau","type":"Landkreis"},"federalState":{"key":"09","name":"Bayern"}},{"name":"Am hohen Berg","postalCode":"89438","locality":"Holzheim","municipality":{"key":"09773140","name":"Holzheim","type":"Kreisangehörige_Gemeinde"},"district":{"key":"09773","name":"Dillingen a.d.Donau","type":"Landkreis"},"federalState":{"key":"09","name":"Bayern"}},{"name":"Am Höhle","postalCode":"89438","locality":"Holzheim","municipality":{"key":"09773140","name":"Holzheim","type":"Kreisangehörige_Gemeinde"},"district":{"key":"09773","name":"Dillingen a.d.Donau","type":"Landkreis"},"federalState":{"key":"09","name":"Bayern"}},{"name":"Am Hohlweg","postalCode":"89438","locality":"Holzheim","municipality":{"key":"09773140","name":"Holzheim","type":"Kreisangehörige_Gemeinde"},"district":{"key":"09773","name":"Dillingen a.d.Donau","type":"Landkreis"},"federalState":{"key":"09","name":"Bayern"}},{"name":"Am Kirchberg","postalCode":"89438","locality":"Holzheim","municipality":{"key":"09773140","name":"Holzheim","type":"Kreisangehörige_Gemeinde"},"district":{"key":"09773","name":"Dillingen a.d.Donau","type":"Landkreis"},"federalState":{"key":"09","name":"Bayern"}},{"name":"Am Kirchplatz","postalCode":"89438","locality":"Holzheim","municipality":{"key":"09773140","name":"Holzheim","type":"Kreisangehörige_Gemeinde"},"district":{"key":"09773","name":"Dillingen a.d.Donau","type":"Landkreis"},"federalState":{"key":"09","name":"Bayern"}},{"name":"Am Krautgarten","postalCode":"86684","locality":"Holzheim","municipality":{"key":"09779163","name":"Holzheim","type":"Kreisangehörige_Gemeinde"},"district":{"key":"09779","name":"Donau-Ries","type":"Landkreis"},"federalState":{"key":"09","name":"Bayern"}},{"name":"Am Lehen","postalCode":"89438","locality":"Holzheim","municipality":{"key":"09773140","name":"Holzheim","type":"Kreisangehörige_Gemeinde"},"district":{"key":"09773","name":"Dillingen a.d.Donau","type":"Landkreis"},"federalState":{"key":"09","name":"Bayern"}},{"name":"Am Lindenberg","postalCode":"89438","locality":"Holzheim","municipality":{"key":"09773140","name":"Holzheim","type":"Kreisangehörige_Gemeinde"},"district":{"key":"09773","name":"Dillingen a.d.Donau","type":"Landkreis"},"federalState":{"key":"09","name":"Bayern"}},{"name":"Am Rosenhang","postalCode":"65558","locality":"Holzheim","municipality":{"key":"07141061","name":"Holzheim","type":"Kreisangehörige_Gemeinde"},"district":{"key":"07141","name":"Rhein-Lahn-Kreis","type":"Landkreis"},"federalState":{"key":"07","name":"Rheinland-Pfalz"}},{"name":"Am Schlarpfengrund","postalCode":"86684","locality":"Holzheim","municipality":{"key":"09779163","name":"Holzheim","type":"Kreisangehörige_Gemeinde"},"district":{"key":"09779","name":"Donau-Ries","type":"Landkreis"},"federalState":{"key":"09","name":"Bayern"}},{"name":"Am Schulgarten","postalCode":"89438","locality":"Holzheim","municipality":{"key":"09773140","name":"Holzheim","type":"Kreisangehörige_Gemeinde"},"district":{"key":"09773","name":"Dillingen a.d.Donau","type":"Landkreis"},"federalState":{"key":"09","name":"Bayern"}},{"name":"Amselweg","postalCode":"89291","locality":"Holzheim","municipality":{"key":"09775126","name":"Holzheim","type":"Kreisangehörige_Gemeinde"},"district":{"key":"09775","name":"Neu-Ulm","type":"Landkreis"},"federalState":{"key":"09","name":"Bayern"}},{"name":"Am Steinriegel","postalCode":"89438","locality":"Holzheim","municipality":{"key":"09773140","name":"Holzheim","type":"Kreisangehörige_Gemeinde"},"district":{"key":"09773","name":"Dillingen a.d.Donau","type":"Landkreis"},"federalState":{"key":"09","name":"Bayern"}},{"name":"Am Tiefental","postalCode":"89438","locality":"Holzheim","municipality":{"key":"09773140","name":"Holzheim","type":"Kreisangehörige_Gemeinde"},"district":{"key":"09773","name":"Dillingen a.d.Donau","type":"Landkreis"},"federalState":{"key":"09","name":"Bayern"}},{"name":"Am Wagnergraben","postalCode":"93183","locality":"Holzheim am Forst","municipality":{"key":"09375153","name":"Holzheim a.Forst","type":"Kreisangehörige_Gemeinde"},"district":{"key":"09375","name":"Regensburg","type":"Landkreis"},"federalState":{"key":"09","name":"Bayern"}},{"name":"Am Wolfsbühl","postalCode":"89438","locality":"Holzheim","municipality":{"key":"09773140","name":"Holzheim","type":"Kreisangehörige_Gemeinde"},"district":{"key":"09773","name":"Dillingen a.d.Donau","type":"Landkreis"},"federalState":{"key":"09","name":"Bayern"}},{"name":"Am Zwinger","postalCode":"89291","locality":"Holzheim","municipality":{"key":"09775126","name":"Holzheim","type":"Kreisangehörige_Gemeinde"},"district":{"key":"09775","name":"Neu-Ulm","type":"Landkreis"},"federalState":{"key":"09","name":"Bayern"}},{"name":"An der Breite","postalCode":"89291","locality":"Holzheim","municipality":{"key":"09775126","name":"Holzheim","type":"Kreisangehörige_Gemeinde"},"district":{"key":"09775","name":"Neu-Ulm","type":"Landkreis"},"federalState":{"key":"09","name":"Bayern"}},{"name":"An der Nachtweide","postalCode":"89438","locality":"Holzheim","municipality":{"key":"09773140","name":"Holzheim","type":"Kreisangehörige_Gemeinde"},"district":{"key":"09773","name":"Dillingen a.d.Donau","type":"Landkreis"},"federalState":{"key":"09","name":"Bayern"}},{"name":"An der Rohrwiese","postalCode":"89438","locality":"Holzheim","municipality":{"key":"09773140","name":"Holzheim","type":"Kreisangehörige_Gemeinde"},"district":{"key":"09773","name":"Dillingen a.d.Donau","type":"Landkreis"},"federalState":{"key":"09","name":"Bayern"}},{"name":"An der Steige","postalCode":"89438","locality":"Holzheim","municipality":{"key":"09773140","name":"Holzheim","type":"Kreisangehörige_Gemeinde"},"district":{"key":"09773","name":"Dillingen a.d.Donau","type":"Landkreis"},"federalState":{"key":"09","name":"Bayern"}},{"name":"Angerweg","postalCode":"86684","locality":"Holzheim","municipality":{"key":"09779163","name":"Holzheim","type":"Kreisangehörige_Gemeinde"},"district":{"key":"09779","name":"Donau-Ries","type":"Landkreis"},"federalState":{"key":"09","name":"Bayern"}},{"name":"Anton-Feuerer-Platz","postalCode":"93183","locality":"Holzheim am Forst","municipality":{"key":"09375153","name":"Holzheim a.Forst","type":"Kreisangehörige_Gemeinde"},"district":{"key":"09375","name":"Regensburg","type":"Landkreis"},"federalState":{"key":"09","name":"Bayern"}},{"name":"Ardeckblick","postalCode":"65558","locality":"Holzheim","municipality":{"key":"07141061","name":"Holzheim","type":"Kreisangehörige_Gemeinde"},"district":{"key":"07141","name":"Rhein-Lahn-Kreis","type":"Landkreis"},"federalState":{"key":"07","name":"Rheinland-Pfalz"}},{"name":"Auf der Röth","postalCode":"93183","locality":"Holzheim am Forst","municipality":{"key":"09375153","name":"Holzheim a.Forst","type":"Kreisangehörige_Gemeinde"},"district":{"key":"09375","name":"Regensburg","type":"Landkreis"},"federalState":{"key":"09","name":"Bayern"}},{"name":"Augsburger Str.","postalCode":"89438","locality":"Holzheim","municipality":{"key":"09773140","name":"Holzheim","type":"Kreisangehörige_Gemeinde"},"district":{"key":"09773","name":"Dillingen a.d.Donau","type":"Landkreis"},"federalState":{"key":"09","name":"Bayern"}},{"name":"Baarer Str.","postalCode":"86684","locality":"Holzheim","municipality":{"key":"09779163","name":"Holzheim","type":"Kreisangehörige_Gemeinde"},"district":{"key":"09779","name":"Donau-Ries","type":"Landkreis"},"federalState":{"key":"09","name":"Bayern"}},{"name":"Bachstr.","postalCode":"89438","locality":"Holzheim","municipality":{"key":"09773140","name":"Holzheim","type":"Kreisangehörige_Gemeinde"},"district":{"key":"09773","name":"Dillingen a.d.Donau","type":"Landkreis"},"federalState":{"key":"09","name":"Bayern"}},{"name":"Bäckergasse","postalCode":"89438","locality":"Holzheim","municipality":{"key":"09773140","name":"Holzheim","type":"Kreisangehörige_Gemeinde"},"district":{"key":"09773","name":"Dillingen a.d.Donau","type":"Landkreis"},"federalState":{"key":"09","name":"Bayern"}},{"name":"Bauerngasse","postalCode":"86684","locality":"Holzheim","municipality":{"key":"09779163","name":"Holzheim","type":"Kreisangehörige_Gemeinde"},"district":{"key":"09779","name":"Donau-Ries","type":"Landkreis"},"federalState":{"key":"09","name":"Bayern"}},{"name":"Bauerngasse","postalCode":"89291","locality":"Holzheim","municipality":{"key":"09775126","name":"Holzheim","type":"Kreisangehörige_Gemeinde"},"district":{"key":"09775","name":"Neu-Ulm","type":"Landkreis"},"federalState":{"key":"09","name":"Bayern"}},{"name":"Bergackerweg","postalCode":"89438","locality":"Holzheim","municipality":{"key":"09773140","name":"Holzheim","type":"Kreisangehörige_Gemeinde"},"district":{"key":"09773","name":"Dillingen a.d.Donau","type":"Landkreis"},"federalState":{"key":"09","name":"Bayern"}},{"name":"Bergstr.","postalCode":"65558","locality":"Holzheim","municipality":{"key":"07141061","name":"Holzheim","type":"Kreisangehörige_Gemeinde"},"district":{"key":"07141","name":"Rhein-Lahn-Kreis","type":"Landkreis"},"federalState":{"key":"07","name":"Rheinland-Pfalz"}},{"name":"Bergstr.","postalCode":"89438","locality":"Holzheim","municipality":{"key":"09773140","name":"Holzheim","type":"Kreisangehörige_Gemeinde"},"district":{"key":"09773","name":"Dillingen a.d.Donau","type":"Landkreis"},"federalState":{"key":"09","name":"Bayern"}},{"name":"Birkenstr.","postalCode":"86684","locality":"Holzheim","municipality":{"key":"09779163","name":"Holzheim","type":"Kreisangehörige_Gemeinde"},"district":{"key":"09779","name":"Donau-Ries","type":"Landkreis"},"federalState":{"key":"09","name":"Bayern"}},{"name":"Birkenstr.","postalCode":"89438","locality":"Holzheim","municipality":{"key":"09773140","name":"Holzheim","type":"Kreisangehörige_Gemeinde"},"district":{"key":"09773","name":"Dillingen a.d.Donau","type":"Landkreis"},"federalState":{"key":"09","name":"Bayern"}},{"name":"Birkenstr.","postalCode":"93183","locality":"Holzheim am Forst","municipality":{"key":"09375153","name":"Holzheim a.Forst","type":"Kreisangehörige_Gemeinde"},"district":{"key":"09375","name":"Regensburg","type":"Landkreis"},"federalState":{"key":"09","name":"Bayern"}},{"name":"Blanka-Schmitt-Weg","postalCode":"89438","locality":"Holzheim","municipality":{"key":"09773140","name":"Holzheim","type":"Kreisangehörige_Gemeinde"},"district":{"key":"09773","name":"Dillingen a.d.Donau","type":"Landkreis"},"federalState":{"key":"09","name":"Bayern"}},{"name":"Blumenstr.","postalCode":"86684","locality":"Holzheim","municipality":{"key":"09779163","name":"Holzheim","type":"Kreisangehörige_Gemeinde"},"district":{"key":"09779","name":"Donau-Ries","type":"Landkreis"},"federalState":{"key":"09","name":"Bayern"}},{"name":"Blumenstr.","postalCode":"89438","locality":"Holzheim","municipality":{"key":"09773140","name":"Holzheim","type":"Kreisangehörige_Gemeinde"},"district":{"key":"09773","name":"Dillingen a.d.Donau","type":"Landkreis"},"federalState":{"key":"09","name":"Bayern"}},{"name":"Brühlweg","postalCode":"89291","locality":"Holzheim","municipality":{"key":"09775126","name":"Holzheim","type":"Kreisangehörige_Gemeinde"},"district":{"key":"09775","name":"Neu-Ulm","type":"Landkreis"},"federalState":{"key":"09","name":"Bayern"}},{"name":"Brunnenstr.","postalCode":"65558","locality":"Holzheim","municipality":{"key":"07141061","name":"Holzheim","type":"Kreisangehörige_Gemeinde"},"district":{"key":"07141","name":"Rhein-Lahn-Kreis","type":"Landkreis"},"federalState":{"key":"07","name":"Rheinland-Pfalz"}},{"name":"Brunnenweg","postalCode":"89438","locality":"Holzheim","municipality":{"key":"09773140","name":"Holzheim","type":"Kreisangehörige_Gemeinde"},"district":{"key":"09773","name":"Dillingen a.d.Donau","type":"Landkreis"},"federalState":{"key":"09","name":"Bayern"}},{"name":"Bubacher Weg","postalCode":"93183","locality":"Holzheim am Forst","municipality":{"key":"09375153","name":"Holzheim a.Forst","type":"Kreisangehörige_Gemeinde"},"district":{"key":"09375","name":"Regensburg","type":"Landkreis"},"federalState":{"key":"09","name":"Bayern"}},{"name":"Buchenstr.","postalCode":"86684","locality":"Holzheim","municipality":{"key":"09779163","name":"Holzheim","type":"Kreisangehörige_Gemeinde"},"district":{"key":"09779","name":"Donau-Ries","type":"Landkreis"},"federalState":{"key":"09","name":"Bayern"}},{"name":"Buchenweg","postalCode":"89438","locality":"Holzheim","municipality":{"key":"09773140","name":"Holzheim","type":"Kreisangehörige_Gemeinde"},"district":{"key":"09773","name":"Dillingen a.d.Donau","type":"Landkreis"},"federalState":{"key":"09","name":"Bayern"}},{"name":"Bürgergasse","postalCode":"89291","locality":"Holzheim","municipality":{"key":"09775126","name":"Holzheim","type":"Kreisangehörige_Gemeinde"},"district":{"key":"09775","name":"Neu-Ulm","type":"Landkreis"},"federalState":{"key":"09","name":"Bayern"}},{"name":"Burglengenfelder Str.","postalCode":"93183","locality":"Holzheim am Forst","municipality":{"key":"09375153","name":"Holzheim a.Forst","type":"Kreisangehörige_Gemeinde"},"district":{"key":"09375","name":"Regensburg","type":"Landkreis"},"federalState":{"key":"09","name":"Bayern"}},{"name":"Carl-Zeiss-Str.","postalCode":"89231","locality":"Neu-Ulm","municipality":{"key":"09775135","name":"Neu-Ulm, GKSt","type":"Große_Kreisstadt"},"district":{"key":"09775","name":"Neu-Ulm","type":"Landkreis"},"federalState":{"key":"09","name":"Bayern"}},{"name":"Clara-Barton-Str.","postalCode":"89231","locality":"Neu-Ulm","municipality":{"key":"09775135","name":"Neu-Ulm, GKSt","type":"Große_Kreisstadt"},"district":{"key":"09775","name":"Neu-Ulm","type":"Landkreis"},"federalState":{"key":"09","name":"Bayern"}},{"name":"Clemens-Högg-Weg","postalCode":"89233","locality":"Neu-Ulm","municipality":{"key":"09775135","name":"Neu-Ulm, GKSt","type":"Große_Kreisstadt"},"district":{"key":"09775","name":"Neu-Ulm","type":"Landkreis"},"federalState":{"key":"09","name":"Bayern"}},{"name":"Dillinger Str.","postalCode":"89438","locality":"Holzheim","municipality":{"key":"09773140","name":"Holzheim","type":"Kreisangehörige_Gemeinde"},"district":{"key":"09773","name":"Dillingen a.d.Donau","type":"Landkreis"},"federalState":{"key":"09","name":"Bayern"}},{"name":"Domauer Str.","postalCode":"93183","locality":"Holzheim am Forst","municipality":{"key":"09375153","name":"Holzheim a.Forst","type":"Kreisangehörige_Gemeinde"},"district":{"key":"09375","name":"Regensburg","type":"Landkreis"},"federalState":{"key":"09","name":"Bayern"}},{"name":"Dorfstr.","postalCode":"86684","locality":"Holzheim","municipality":{"key":"09779163","name":"Holzheim","type":"Kreisangehörige_Gemeinde"},"district":{"key":"09779","name":"Donau-Ries","type":"Landkreis"},"federalState":{"key":"09","name":"Bayern"}},{"name":"Dorfstr.","postalCode":"89438","locality":"Holzheim","municipality":{"key":"09773140","name":"Holzheim","type":"Kreisangehörige_Gemeinde"},"district":{"key":"09773","name":"Dillingen a.d.Donau","type":"Landkreis"},"federalState":{"key":"09","name":"Bayern"}},{"name":"Dr.-Burgkart-Str.","postalCode":"89438","locality":"Holzheim","municipality":{"key":"09773140","name":"Holzheim","type":"Kreisangehörige_Gemeinde"},"district":{"key":"09773","name":"Dillingen a.d.Donau","type":"Landkreis"},"federalState":{"key":"09","name":"Bayern"}},{"name":"Drosselgasse","postalCode":"86684","locality":"Holzheim","municipality":{"key":"09779163","name":"Holzheim","type":"Kreisangehörige_Gemeinde"},"district":{"key":"09779","name":"Donau-Ries","type":"Landkreis"},"federalState":{"key":"09","name":"Bayern"}},{"name":"Drosselweg","postalCode":"89291","locality":"Holzheim","municipality":{"key":"09775126","name":"Holzheim","type":"Kreisangehörige_Gemeinde"},"district":{"key":"09775","name":"Neu-Ulm","type":"Landkreis"},"federalState":{"key":"09","name":"Bayern"}},{"name":"Dürrenlohweg","postalCode":"89291","locality":"Holzheim","municipality":{"key":"09775126","name":"Holzheim","type":"Kreisangehörige_Gemeinde"},"district":{"key":"09775","name":"Neu-Ulm","type":"Landkreis"},"federalState":{"key":"09","name":"Bayern"}},{"name":"Eichenstr.","postalCode":"86684","locality":"Holzheim","municipality":{"key":"09779163","name":"Holzheim","type":"Kreisangehörige_Gemeinde"},"district":{"key":"09779","name":"Donau-Ries","type":"Landkreis"},"federalState":{"key":"09","name":"Bayern"}},{"name":"Erlenweg","postalCode":"65558","locality":"Holzheim","municipality":{"key":"07141061","name":"Holzheim","type":"Kreisangehörige_Gemeinde"},"district":{"key":"07141","name":"Rhein-Lahn-Kreis","type":"Landkreis"},"federalState":{"key":"07","name":"Rheinland-Pfalz"}},{"name":"Espenweg","postalCode":"89291","locality":"Holzheim","municipality":{"key":"09775126","name":"Holzheim","type":"Kreisangehörige_Gemeinde"},"district":{"key":"09775","name":"Neu-Ulm","type":"Landkreis"},"federalState":{"key":"09","name":"Bayern"}},{"name":"Feldstr.","postalCode":"65558","locality":"Holzheim","municipality":{"key":"07141061","name":"Holzheim","type":"Kreisangehörige_Gemeinde"},"district":{"key":"07141","name":"Rhein-Lahn-Kreis","type":"Landkreis"},"federalState":{"key":"07","name":"Rheinland-Pfalz"}},{"name":"Finkenweg","postalCode":"86684","locality":"Holzheim","municipality":{"key":"09779163","name":"Holzheim","type":"Kreisangehörige_Gemeinde"},"district":{"key":"09779","name":"Donau-Ries","type":"Landkreis"},"federalState":{"key":"09","name":"Bayern"}},{"name":"Finkenweg","postalCode":"89291","locality":"Holzheim","municipality":{"key":"09775126","name":"Holzheim","type":"Kreisangehörige_Gemeinde"},"district":{"key":"09775","name":"Neu-Ulm","type":"Landkreis"},"federalState":{"key":"09","name":"Bayern"}},{"name":"Friedhofstr.","postalCode":"65558","locality":"Holzheim","municipality":{"key":"07141061","name":"Holzheim","type":"Kreisangehörige_Gemeinde"},"district":{"key":"07141","name":"Rhein-Lahn-Kreis","type":"Landkreis"},"federalState":{"key":"07","name":"Rheinland-Pfalz"}},{"name":"Friedhofstr.","postalCode":"93183","locality":"Holzheim am Forst","municipality":{"key":"09375153","name":"Holzheim a.Forst","type":"Kreisangehörige_Gemeinde"},"district":{"key":"09375","name":"Regensburg","type":"Landkreis"},"federalState":{"key":"09","name":"Bayern"}},{"name":"Fristinger Str.","postalCode":"89438","locality":"Holzheim","municipality":{"key":"09773140","name":"Holzheim","type":"Kreisangehörige_Gemeinde"},"district":{"key":"09773","name":"Dillingen a.d.Donau","type":"Landkreis"},"federalState":{"key":"09","name":"Bayern"}},{"name":"Frühlingstr.","postalCode":"89438","locality":"Holzheim","municipality":{"key":"09773140","name":"Holzheim","type":"Kreisangehörige_Gemeinde"},"district":{"key":"09773","name":"Dillingen a.d.Donau","type":"Landkreis"},"federalState":{"key":"09","name":"Bayern"}},{"name":"Frühlingstr.","postalCode":"93183","locality":"Holzheim am Forst","municipality":{"key":"09375153","name":"Holzheim a.Forst","type":"Kreisangehörige_Gemeinde"},"district":{"key":"09375","name":"Regensburg","type":"Landkreis"},"federalState":{"key":"09","name":"Bayern"}},{"name":"Fürstweg","postalCode":"86684","locality":"Holzheim","municipality":{"key":"09779163","name":"Holzheim","type":"Kreisangehörige_Gemeinde"},"district":{"key":"09779","name":"Donau-Ries","type":"Landkreis"},"federalState":{"key":"09","name":"Bayern"}},{"name":"Gartenstr.","postalCode":"65558","locality":"Holzheim","municipality":{"key":"07141061","name":"Holzheim","type":"Kreisangehörige_Gemeinde"},"district":{"key":"07141","name":"Rhein-Lahn-Kreis","type":"Landkreis"},"federalState":{"key":"07","name":"Rheinland-Pfalz"}},{"name":"Gartenstr.","postalCode":"89438","locality":"Holzheim","municipality":{"key":"09773140","name":"Holzheim","type":"Kreisangehörige_Gemeinde"},"district":{"key":"09773","name":"Dillingen a.d.Donau","type":"Landkreis"},"federalState":{"key":"09","name":"Bayern"}},{"name":"Gartenweg","postalCode":"86684","locality":"Holzheim","municipality":{"key":"09779163","name":"Holzheim","type":"Kreisangehörige_Gemeinde"},"district":{"key":"09779","name":"Donau-Ries","type":"Landkreis"},"federalState":{"key":"09","name":"Bayern"}},{"name":"Gefällstr.","postalCode":"89438","locality":"Holzheim","municipality":{"key":"09773140","name":"Holzheim","type":"Kreisangehörige_Gemeinde"},"district":{"key":"09773","name":"Dillingen a.d.Donau","type":"Landkreis"},"federalState":{"key":"09","name":"Bayern"}},{"name":"Gehauweg","postalCode":"89291","locality":"Holzheim","municipality":{"key":"09775126","name":"Holzheim","type":"Kreisangehörige_Gemeinde"},"district":{"key":"09775","name":"Neu-Ulm","type":"Landkreis"},"federalState":{"key":"09","name":"Bayern"}},{"name":"Gerlachstr.","postalCode":"89438","locality":"Holzheim","municipality":{"key":"09773140","name":"Holzheim","type":"Kreisangehörige_Gemeinde"},"district":{"key":"09773","name":"Dillingen a.d.Donau","type":"Landkreis"},"federalState":{"key":"09","name":"Bayern"}},{"name":"Grafeneckstr.","postalCode":"89438","locality":"Holzheim","municipality":{"key":"09773140","name":"Holzheim","type":"Kreisangehörige_Gemeinde"},"district":{"key":"09773","name":"Dillingen a.d.Donau","type":"Landkreis"},"federalState":{"key":"09","name":"Bayern"}},{"name":"Grubstr.","postalCode":"93183","locality":"Holzheim am Forst","municipality":{"key":"09375153","name":"Holzheim a.Forst","type":"Kreisangehörige_Gemeinde"},"district":{"key":"09375","name":"Regensburg","type":"Landkreis"},"federalState":{"key":"09","name":"Bayern"}},{"name":"Haldenweg","postalCode":"89438","locality":"Holzheim","municipality":{"key":"09773140","name":"Holzheim","type":"Kreisangehörige_Gemeinde"},"district":{"key":"09773","name":"Dillingen a.d.Donau","type":"Landkreis"},"federalState":{"key":"09","name":"Bayern"}},{"name":"Hangerstr.","postalCode":"89438","locality":"Holzheim","municipality":{"key":"09773140","name":"Holzheim","type":"Kreisangehörige_Gemeinde"},"district":{"key":"09773","name":"Dillingen a.d.Donau","type":"Landkreis"},"federalState":{"key":"09","name":"Bayern"}},{"name":"Hangstr.","postalCode":"89438","locality":"Holzheim","municipality":{"key":"09773140","name":"Holzheim","type":"Kreisangehörige_Gemeinde"},"district":{"key":"09773","name":"Dillingen a.d.Donau","type":"Landkreis"},"federalState":{"key":"09","name":"Bayern"}},{"name":"Harderweg","postalCode":"89291","locality":"Holzheim","municipality":{"key":"09775126","name":"Holzheim","type":"Kreisangehörige_Gemeinde"},"district":{"key":"09775","name":"Neu-Ulm","type":"Landkreis"},"federalState":{"key":"09","name":"Bayern"}},{"name":"Hartweg","postalCode":"89438","locality":"Holzheim","municipality":{"key":"09773140","name":"Holzheim","type":"Kreisangehörige_Gemeinde"},"district":{"key":"09773","name":"Dillingen a.d.Donau","type":"Landkreis"},"federalState":{"key":"09","name":"Bayern"}},{"name":"Hasenweg","postalCode":"89291","locality":"Holzheim","municipality":{"key":"09775126","name":"Holzheim","type":"Kreisangehörige_Gemeinde"},"district":{"key":"09775","name":"Neu-Ulm","type":"Landkreis"},"federalState":{"key":"09","name":"Bayern"}},{"name":"Haslach","postalCode":"93183","locality":"Holzheim am Forst","municipality":{"key":"09375153","name":"Holzheim a.Forst","type":"Kreisangehörige_Gemeinde"},"district":{"key":"09375","name":"Regensburg","type":"Landkreis"},"federalState":{"key":"09","name":"Bayern"}},{"name":"Haslacher Weg","postalCode":"93183","locality":"Holzheim am Forst","municipality":{"key":"09375153","name":"Holzheim a.Forst","type":"Kreisangehörige_Gemeinde"},"district":{"key":"09375","name":"Regensburg","type":"Landkreis"},"federalState":{"key":"09","name":"Bayern"}},{"name":"Hauptstr.","postalCode":"86684","locality":"Holzheim","municipality":{"key":"09779163","name":"Holzheim","type":"Kreisangehörige_Gemeinde"},"district":{"key":"09779","name":"Donau-Ries","type":"Landkreis"},"federalState":{"key":"09","name":"Bayern"}},{"name":"Hauptstr.","postalCode":"89291","locality":"Holzheim","municipality":{"key":"09775126","name":"Holzheim","type":"Kreisangehörige_Gemeinde"},"district":{"key":"09775","name":"Neu-Ulm","type":"Landkreis"},"federalState":{"key":"09","name":"Bayern"}},{"name":"Hauptstr.","postalCode":"89438","locality":"Holzheim","municipality":{"key":"09773140","name":"Holzheim","type":"Kreisangehörige_Gemeinde"},"district":{"key":"09773","name":"Dillingen a.d.Donau","type":"Landkreis"},"federalState":{"key":"09","name":"Bayern"}},{"name":"Heckenweg","postalCode":"89438","locality":"Holzheim","municipality":{"key":"09773140","name":"Holzheim","type":"Kreisangehörige_Gemeinde"},"district":{"key":"09773","name":"Dillingen a.d.Donau","type":"Landkreis"},"federalState":{"key":"09","name":"Bayern"}},{"name":"Hemerter Weg","postalCode":"86684","locality":"Holzheim","municipality":{"key":"09779163","name":"Holzheim","type":"Kreisangehörige_Gemeinde"},"district":{"key":"09779","name":"Donau-Ries","type":"Landkreis"},"federalState":{"key":"09","name":"Bayern"}},{"name":"Herrnbergstr.","postalCode":"65558","locality":"Holzheim","municipality":{"key":"07141061","name":"Holzheim","type":"Kreisangehörige_Gemeinde"},"district":{"key":"07141","name":"Rhein-Lahn-Kreis","type":"Landkreis"},"federalState":{"key":"07","name":"Rheinland-Pfalz"}},{"name":"Heuweg","postalCode":"89438","locality":"Holzheim","municipality":{"key":"09773140","name":"Holzheim","type":"Kreisangehörige_Gemeinde"},"district":{"key":"09773","name":"Dillingen a.d.Donau","type":"Landkreis"},"federalState":{"key":"09","name":"Bayern"}},{"name":"Hinter den Gärten","postalCode":"89438","locality":"Holzheim","municipality":{"key":"09773140","name":"Holzheim","type":"Kreisangehörige_Gemeinde"},"district":{"key":"09773","name":"Dillingen a.d.Donau","type":"Landkreis"},"federalState":{"key":"09","name":"Bayern"}},{"name":"Hinterdorfstr.","postalCode":"89438","locality":"Holzheim","municipality":{"key":"09773140","name":"Holzheim","type":"Kreisangehörige_Gemeinde"},"district":{"key":"09773","name":"Dillingen a.d.Donau","type":"Landkreis"},"federalState":{"key":"09","name":"Bayern"}},{"name":"Hirbishofer Str.","postalCode":"89291","locality":"Holzheim","municipality":{"key":"09775126","name":"Holzheim","type":"Kreisangehörige_Gemeinde"},"district":{"key":"09775","name":"Neu-Ulm","type":"Landkreis"},"federalState":{"key":"09","name":"Bayern"}},{"name":"Hochfeldstr.","postalCode":"89438","locality":"Holzheim","municipality":{"key":"09773140","name":"Holzheim","type":"Kreisangehörige_Gemeinde"},"district":{"key":"09773","name":"Dillingen a.d.Donau","type":"Landkreis"},"federalState":{"key":"09","name":"Bayern"}},{"name":"Hochstiftstr.","postalCode":"89438","locality":"Holzheim","municipality":{"key":"09773140","name":"Holzheim","type":"Kreisangehörige_Gemeinde"},"district":{"key":"09773","name":"Dillingen a.d.Donau","type":"Landkreis"},"federalState":{"key":"09","name":"Bayern"}},{"name":"Hofgartenstr.","postalCode":"89438","locality":"Holzheim","municipality":{"key":"09773140","name":"Holzheim","type":"Kreisangehörige_Gemeinde"},"district":{"key":"09773","name":"Dillingen a.d.Donau","type":"Landkreis"},"federalState":{"key":"09","name":"Bayern"}},{"name":"Hohlgasse","postalCode":"89291","locality":"Holzheim","municipality":{"key":"09775126","name":"Holzheim","type":"Kreisangehörige_Gemeinde"},"district":{"key":"09775","name":"Neu-Ulm","type":"Landkreis"},"federalState":{"key":"09","name":"Bayern"}},{"name":"Holdergasse","postalCode":"89291","locality":"Holzheim","municipality":{"key":"09775126","name":"Holzheim","type":"Kreisangehörige_Gemeinde"},"district":{"key":"09775","name":"Neu-Ulm","type":"Landkreis"},"federalState":{"key":"09","name":"Bayern"}},{"name":"Hubertusstr.","postalCode":"89438","locality":"Holzheim","municipality":{"key":"09773140","name":"Holzheim","type":"Kreisangehörige_Gemeinde"},"district":{"key":"09773","name":"Dillingen a.d.Donau","type":"Landkreis"},"federalState":{"key":"09","name":"Bayern"}},{"name":"Im Hostert","postalCode":"65558","locality":"Holzheim","municipality":{"key":"07141061","name":"Holzheim","type":"Kreisangehörige_Gemeinde"},"district":{"key":"07141","name":"Rhein-Lahn-Kreis","type":"Landkreis"},"federalState":{"key":"07","name":"Rheinland-Pfalz"}},{"name":"Im Moosteil","postalCode":"89291","locality":"Holzheim","municipality":{"key":"09775126","name":"Holzheim","type":"Kreisangehörige_Gemeinde"},"district":{"key":"09775","name":"Neu-Ulm","type":"Landkreis"},"federalState":{"key":"09","name":"Bayern"}},{"name":"Im Unterdorf","postalCode":"89291","locality":"Holzheim","municipality":{"key":"09775126","name":"Holzheim","type":"Kreisangehörige_Gemeinde"},"district":{"key":"09775","name":"Neu-Ulm","type":"Landkreis"},"federalState":{"key":"09","name":"Bayern"}},{"name":"Jahnstr.","postalCode":"89438","locality":"Holzheim","municipality":{"key":"09773140","name":"Holzheim","type":"Kreisangehörige_Gemeinde"},"district":{"key":"09773","name":"Dillingen a.d.Donau","type":"Landkreis"},"federalState":{"key":"09","name":"Bayern"}},{"name":"Johannisgrund","postalCode":"86684","locality":"Holzheim","municipality":{"key":"09779163","name":"Holzheim","type":"Kreisangehörige_Gemeinde"},"district":{"key":"09779","name":"Donau-Ries","type":"Landkreis"},"federalState":{"key":"09","name":"Bayern"}},{"name":"Josef-Frank-Str.","postalCode":"93183","locality":"Holzheim am Forst","municipality":{"key":"09375153","name":"Holzheim a.Forst","type":"Kreisangehörige_Gemeinde"},"district":{"key":"09375","name":"Regensburg","type":"Landkreis"},"federalState":{"key":"09","name":"Bayern"}},{"name":"Jungholzweg","postalCode":"89291","locality":"Holzheim","municipality":{"key":"09775126","name":"Holzheim","type":"Kreisangehörige_Gemeinde"},"district":{"key":"09775","name":"Neu-Ulm","type":"Landkreis"},"federalState":{"key":"09","name":"Bayern"}},{"name":"Kadeltshofer Str.","postalCode":"89291","locality":"Holzheim","municipality":{"key":"09775126","name":"Holzheim","type":"Kreisangehörige_Gemeinde"},"district":{"key":"09775","name":"Neu-Ulm","type":"Landkreis"},"federalState":{"key":"09","name":"Bayern"}},{"name":"Kallmünzer Str.","postalCode":"93183","locality":"Holzheim am Forst","municipality":{"key":"09375153","name":"Holzheim a.Forst","type":"Kreisangehörige_Gemeinde"},"district":{"key":"09375","name":"Regensburg","type":"Landkreis"},"federalState":{"key":"09","name":"Bayern"}},{"name":"Kapellenstr.","postalCode":"86684","locality":"Holzheim","municipality":{"key":"09779163","name":"Holzheim","type":"Kreisangehörige_Gemeinde"},"district":{"key":"09779","name":"Donau-Ries","type":"Landkreis"},"federalState":{"key":"09","name":"Bayern"}},{"name":"Kapellenweg","postalCode":"89438","locality":"Holzheim","municipality":{"key":"09773140","name":"Holzheim","type":"Kreisangehörige_Gemeinde"},"district":{"key":"09773","name":"Dillingen a.d.Donau","type":"Landkreis"},"federalState":{"key":"09","name":"Bayern"}},{"name":"Keltenweg","postalCode":"86684","locality":"Holzheim","municipality":{"key":"09779163","name":"Holzheim","type":"Kreisangehörige_Gemeinde"},"district":{"key":"09779","name":"Donau-Ries","type":"Landkreis"},"federalState":{"key":"09","name":"Bayern"}},{"name":"Kiesgrubenweg","postalCode":"89291","locality":"Holzheim","municipality":{"key":"09775126","name":"Holzheim","type":"Kreisangehörige_Gemeinde"},"district":{"key":"09775","name":"Neu-Ulm","type":"Landkreis"},"federalState":{"key":"09","name":"Bayern"}},{"name":"Kirchberg","postalCode":"86684","locality":"Holzheim","municipality":{"key":"09779163","name":"Holzheim","type":"Kreisangehörige_Gemeinde"},"district":{"key":"09779","name":"Donau-Ries","type":"Landkreis"},"federalState":{"key":"09","name":"Bayern"}},{"name":"Kirchenstr.","postalCode":"93183","locality":"Holzheim am Forst","municipality":{"key":"09375153","name":"Holzheim a.Forst","type":"Kreisangehörige_Gemeinde"},"district":{"key":"09375","name":"Regensburg","type":"Landkreis"},"federalState":{"key":"09","name":"Bayern"}},{"name":"Kirchplatz","postalCode":"86684","locality":"Holzheim","municipality":{"key":"09779163","name":"Holzheim","type":"Kreisangehörige_Gemeinde"},"district":{"key":"09779","name":"Donau-Ries","type":"Landkreis"},"federalState":{"key":"09","name":"Bayern"}},{"name":"Kirchstr.","postalCode":"89291","locality":"Holzheim","municipality":{"key":"09775126","name":"Holzheim","type":"Kreisangehörige_Gemeinde"},"district":{"key":"09775","name":"Neu-Ulm","type":"Landkreis"},"federalState":{"key":"09","name":"Bayern"}},{"name":"Kirchstr.","postalCode":"89438","locality":"Holzheim","municipality":{"key":"09773140","name":"Holzheim","type":"Kreisangehörige_Gemeinde"},"district":{"key":"09773","name":"Dillingen a.d.Donau","type":"Landkreis"},"federalState":{"key":"09","name":"Bayern"}},{"name":"Kleine Brunnenstr.","postalCode":"65558","locality":"Holzheim","municipality":{"key":"07141061","name":"Holzheim","type":"Kreisangehörige_Gemeinde"},"district":{"key":"07141","name":"Rhein-Lahn-Kreis","type":"Landkreis"},"federalState":{"key":"07","name":"Rheinland-Pfalz"}},{"name":"Kleine Gartenstr.","postalCode":"65558","locality":"Holzheim","municipality":{"key":"07141061","name":"Holzheim","type":"Kreisangehörige_Gemeinde"},"district":{"key":"07141","name":"Rhein-Lahn-Kreis","type":"Landkreis"},"federalState":{"key":"07","name":"Rheinland-Pfalz"}},{"name":"Kleine Paarstr.","postalCode":"86684","locality":"Holzheim","municipality":{"key":"09779163","name":"Holzheim","type":"Kreisangehörige_Gemeinde"},"district":{"key":"09779","name":"Donau-Ries","type":"Landkreis"},"federalState":{"key":"09","name":"Bayern"}},{"name":"Klosterberg","postalCode":"89438","locality":"Holzheim","municipality":{"key":"09773140","name":"Holzheim","type":"Kreisangehörige_Gemeinde"},"district":{"key":"09773","name":"Dillingen a.d.Donau","type":"Landkreis"},"federalState":{"key":"09","name":"Bayern"}},{"name":"Köhlenweg","postalCode":"89438","locality":"Holzheim","municipality":{"key":"09773140","name":"Holzheim","type":"Kreisangehörige_Gemeinde"},"district":{"key":"09773","name":"Dillingen a.d.Donau","type":"Landkreis"},"federalState":{"key":"09","name":"Bayern"}},{"name":"Kreuzackerweg","postalCode":"89438","locality":"Holzheim","municipality":{"key":"09773140","name":"Holzheim","type":"Kreisangehörige_Gemeinde"},"district":{"key":"09773","name":"Dillingen a.d.Donau","type":"Landkreis"},"federalState":{"key":"09","name":"Bayern"}},{"name":"Lauinger Str.","postalCode":"89438","locality":"Holzheim","municipality":{"key":"09773140","name":"Holzheim","type":"Kreisangehörige_Gemeinde"},"district":{"key":"09773","name":"Dillingen a.d.Donau","type":"Landkreis"},"federalState":{"key":"09","name":"Bayern"}},{"name":"Lehmühlenweg","postalCode":"86684","locality":"Holzheim","municipality":{"key":"09779163","name":"Holzheim","type":"Kreisangehörige_Gemeinde"},"district":{"key":"09779","name":"Donau-Ries","type":"Landkreis"},"federalState":{"key":"09","name":"Bayern"}},{"name":"Leibiweg","postalCode":"89291","locality":"Holzheim","municipality":{"key":"09775126","name":"Holzheim","type":"Kreisangehörige_Gemeinde"},"district":{"key":"09775","name":"Neu-Ulm","type":"Landkreis"},"federalState":{"key":"09","name":"Bayern"}},{"name":"Lerchenweg","postalCode":"89291","locality":"Holzheim","municipality":{"key":"09775126","name":"Holzheim","type":"Kreisangehörige_Gemeinde"},"district":{"key":"09775","name":"Neu-Ulm","type":"Landkreis"},"federalState":{"key":"09","name":"Bayern"}},{"name":"Lerchenweg","postalCode":"89438","locality":"Holzheim","municipality":{"key":"09773140","name":"Holzheim","type":"Kreisangehörige_Gemeinde"},"district":{"key":"09773","name":"Dillingen a.d.Donau","type":"Landkreis"},"federalState":{"key":"09","name":"Bayern"}},{"name":"Limburger Str.","postalCode":"65558","locality":"Holzheim","municipality":{"key":"07141061","name":"Holzheim","type":"Kreisangehörige_Gemeinde"},"district":{"key":"07141","name":"Rhein-Lahn-Kreis","type":"Landkreis"},"federalState":{"key":"07","name":"Rheinland-Pfalz"}},{"name":"Lindenstr.","postalCode":"89291","locality":"Holzheim","municipality":{"key":"09775126","name":"Holzheim","type":"Kreisangehörige_Gemeinde"},"district":{"key":"09775","name":"Neu-Ulm","type":"Landkreis"},"federalState":{"key":"09","name":"Bayern"}},{"name":"Lindenstr.","postalCode":"89438","locality":"Holzheim","municipality":{"key":"09773140","name":"Holzheim","type":"Kreisangehörige_Gemeinde"},"district":{"key":"09773","name":"Dillingen a.d.Donau","type":"Landkreis"},"federalState":{"key":"09","name":"Bayern"}},{"name":"Ludwig-Hirschberger-Siedlung","postalCode":"93183","locality":"Holzheim am Forst","municipality":{"key":"09375153","name":"Holzheim a.Forst","type":"Kreisangehörige_Gemeinde"},"district":{"key":"09375","name":"Regensburg","type":"Landkreis"},"federalState":{"key":"09","name":"Bayern"}},{"name":"Maiergasse","postalCode":"89438","locality":"Holzheim","municipality":{"key":"09773140","name":"Holzheim","type":"Kreisangehörige_Gemeinde"},"district":{"key":"09773","name":"Dillingen a.d.Donau","type":"Landkreis"},"federalState":{"key":"09","name":"Bayern"}},{"name":"Michael-Dobler-Str.","postalCode":"89438","locality":"Holzheim","municipality":{"key":"09773140","name":"Holzheim","type":"Kreisangehörige_Gemeinde"},"district":{"key":"09773","name":"Dillingen a.d.Donau","type":"Landkreis"},"federalState":{"key":"09","name":"Bayern"}},{"name":"Moosbergstr.","postalCode":"89291","locality":"Holzheim","municipality":{"key":"09775126","name":"Holzheim","type":"Kreisangehörige_Gemeinde"},"district":{"key":"09775","name":"Neu-Ulm","type":"Landkreis"},"federalState":{"key":"09","name":"Bayern"}},{"name":"Moosweg","postalCode":"86684","locality":"Holzheim","municipality":{"key":"09779163","name":"Holzheim","type":"Kreisangehörige_Gemeinde"},"district":{"key":"09779","name":"Donau-Ries","type":"Landkreis"},"federalState":{"key":"09","name":"Bayern"}},{"name":"Mühlbach","postalCode":"65558","locality":"Holzheim","municipality":{"key":"07141061","name":"Holzheim","type":"Kreisangehörige_Gemeinde"},"district":{"key":"07141","name":"Rhein-Lahn-Kreis","type":"Landkreis"},"federalState":{"key":"07","name":"Rheinland-Pfalz"}},{"name":"Mühlbergweg","postalCode":"86684","locality":"Holzheim","municipality":{"key":"09779163","name":"Holzheim","type":"Kreisangehörige_Gemeinde"},"district":{"key":"09779","name":"Donau-Ries","type":"Landkreis"},"federalState":{"key":"09","name":"Bayern"}},{"name":"Mühlstr.","postalCode":"89438","locality":"Holzheim","municipality":{"key":"09773140","name":"Holzheim","type":"Kreisangehörige_Gemeinde"},"district":{"key":"09773","name":"Dillingen a.d.Donau","type":"Landkreis"},"federalState":{"key":"09","name":"Bayern"}},{"name":"Neuhauser Str.","postalCode":"89291","locality":"Holzheim","municipality":{"key":"09775126","name":"Holzheim","type":"Kreisangehörige_Gemeinde"},"district":{"key":"09775","name":"Neu-Ulm","type":"Landkreis"},"federalState":{"key":"09","name":"Bayern"}},{"name":"Nussbaumweg","postalCode":"86684","locality":"Holzheim","municipality":{"key":"09779163","name":"Holzheim","type":"Kreisangehörige_Gemeinde"},"district":{"key":"09779","name":"Donau-Ries","type":"Landkreis"},"federalState":{"key":"09","name":"Bayern"}},{"name":"Ober den Erlen","postalCode":"65558","locality":"Holzheim","municipality":{"key":"07141061","name":"Holzheim","type":"Kreisangehörige_Gemeinde"},"district":{"key":"07141","name":"Rhein-Lahn-Kreis","type":"Landkreis"},"federalState":{"key":"07","name":"Rheinland-Pfalz"}},{"name":"Oraniensteiner Str.","postalCode":"65558","locality":"Holzheim","municipality":{"key":"07141061","name":"Holzheim","type":"Kreisangehörige_Gemeinde"},"district":{"key":"07141","name":"Rhein-Lahn-Kreis","type":"Landkreis"},"federalState":{"key":"07","name":"Rheinland-Pfalz"}},{"name":"Ortsstr.","postalCode":"86684","locality":"Holzheim","municipality":{"key":"09779163","name":"Holzheim","type":"Kreisangehörige_Gemeinde"},"district":{"key":"09779","name":"Donau-Ries","type":"Landkreis"},"federalState":{"key":"09","name":"Bayern"}},{"name":"Ortsstr.","postalCode":"89291","locality":"Holzheim","municipality":{"key":"09775126","name":"Holzheim","type":"Kreisangehörige_Gemeinde"},"district":{"key":"09775","name":"Neu-Ulm","type":"Landkreis"},"federalState":{"key":"09","name":"Bayern"}},{"name":"Ostertalstr.","postalCode":"86684","locality":"Holzheim","municipality":{"key":"09779163","name":"Holzheim","type":"Kreisangehörige_Gemeinde"},"district":{"key":"09779","name":"Donau-Ries","type":"Landkreis"},"federalState":{"key":"09","name":"Bayern"}},{"name":"Paartalweg","postalCode":"86684","locality":"Holzheim","municipality":{"key":"09779163","name":"Holzheim","type":"Kreisangehörige_Gemeinde"},"district":{"key":"09779","name":"Donau-Ries","type":"Landkreis"},"federalState":{"key":"09","name":"Bayern"}},{"name":"Pfälzer Str.","postalCode":"86684","locality":"Holzheim","municipality":{"key":"09779163","name":"Holzheim","type":"Kreisangehörige_Gemeinde"},"district":{"key":"09779","name":"Donau-Ries","type":"Landkreis"},"federalState":{"key":"09","name":"Bayern"}},{"name":"Pfarrer-Häfele-Ring","postalCode":"86684","locality":"Holzheim","municipality":{"key":"09779163","name":"Holzheim","type":"Kreisangehörige_Gemeinde"},"district":{"key":"09779","name":"Donau-Ries","type":"Landkreis"},"federalState":{"key":"09","name":"Bayern"}},{"name":"Pfarrer-Sailer-Weg","postalCode":"89438","locality":"Holzheim","municipality":{"key":"09773140","name":"Holzheim","type":"Kreisangehörige_Gemeinde"},"district":{"key":"09773","name":"Dillingen a.d.Donau","type":"Landkreis"},"federalState":{"key":"09","name":"Bayern"}},{"name":"Pfarrer-Ströll-Str.","postalCode":"93183","locality":"Holzheim am Forst","municipality":{"key":"09375153","name":"Holzheim a.Forst","type":"Kreisangehörige_Gemeinde"},"district":{"key":"09375","name":"Regensburg","type":"Landkreis"},"federalState":{"key":"09","name":"Bayern"}},{"name":"Pfarrweg","postalCode":"86684","locality":"Holzheim","municipality":{"key":"09779163","name":"Holzheim","type":"Kreisangehörige_Gemeinde"},"district":{"key":"09779","name":"Donau-Ries","type":"Landkreis"},"federalState":{"key":"09","name":"Bayern"}},{"name":"Pfarrweg","postalCode":"89291","locality":"Holzheim","municipality":{"key":"09775126","name":"Holzheim","type":"Kreisangehörige_Gemeinde"},"district":{"key":"09775","name":"Neu-Ulm","type":"Landkreis"},"federalState":{"key":"09","name":"Bayern"}},{"name":"Raiffeisenstr.","postalCode":"86684","locality":"Holzheim","municipality":{"key":"09779163","name":"Holzheim","type":"Kreisangehörige_Gemeinde"},"district":{"key":"09779","name":"Donau-Ries","type":"Landkreis"},"federalState":{"key":"09","name":"Bayern"}},{"name":"Raiffeisenstr.","postalCode":"89291","locality":"Holzheim","municipality":{"key":"09775126","name":"Holzheim","type":"Kreisangehörige_Gemeinde"},"district":{"key":"09775","name":"Neu-Ulm","type":"Landkreis"},"federalState":{"key":"09","name":"Bayern"}},{"name":"Raiffeisenstr.","postalCode":"89438","locality":"Holzheim","municipality":{"key":"09773140","name":"Holzheim","type":"Kreisangehörige_Gemeinde"},"district":{"key":"09773","name":"Dillingen a.d.Donau","type":"Landkreis"},"federalState":{"key":"09","name":"Bayern"}},{"name":"Rainer Str.","postalCode":"86684","locality":"Holzheim","municipality":{"key":"09779163","name":"Holzheim","type":"Kreisangehörige_Gemeinde"},"district":{"key":"09779","name":"Donau-Ries","type":"Landkreis"},"federalState":{"key":"09","name":"Bayern"}},{"name":"Regensburger Str.","postalCode":"93183","locality":"Holzheim am Forst","municipality":{"key":"09375153","name":"Holzheim a.Forst","type":"Kreisangehörige_Gemeinde"},"district":{"key":"09375","name":"Regensburg","type":"Landkreis"},"federalState":{"key":"09","name":"Bayern"}},{"name":"Reichenbachstr.","postalCode":"89438","locality":"Holzheim","municipality":{"key":"09773140","name":"Holzheim","type":"Kreisangehörige_Gemeinde"},"district":{"key":"09773","name":"Dillingen a.d.Donau","type":"Landkreis"},"federalState":{"key":"09","name":"Bayern"}},{"name":"Reuteweg","postalCode":"89438","locality":"Holzheim","municipality":{"key":"09773140","name":"Holzheim","type":"Kreisangehörige_Gemeinde"},"district":{"key":"09773","name":"Dillingen a.d.Donau","type":"Landkreis"},"federalState":{"key":"09","name":"Bayern"}},{"name":"Riedweg","postalCode":"89438","locality":"Holzheim","municipality":{"key":"09773140","name":"Holzheim","type":"Kreisangehörige_Gemeinde"},"district":{"key":"09773","name":"Dillingen a.d.Donau","type":"Landkreis"},"federalState":{"key":"09","name":"Bayern"}},{"name":"Ringstr.","postalCode":"86684","locality":"Holzheim","municipality":{"key":"09779163","name":"Holzheim","type":"Kreisangehörige_Gemeinde"},"district":{"key":"09779","name":"Donau-Ries","type":"Landkreis"},"federalState":{"key":"09","name":"Bayern"}},{"name":"Ritter-von-Eppo-Str.","postalCode":"89438","locality":"Holzheim","municipality":{"key":"09773140","name":"Holzheim","type":"Kreisangehörige_Gemeinde"},"district":{"key":"09773","name":"Dillingen a.d.Donau","type":"Landkreis"},"federalState":{"key":"09","name":"Bayern"}},{"name":"Römerring","postalCode":"86684","locality":"Holzheim","municipality":{"key":"09779163","name":"Holzheim","type":"Kreisangehörige_Gemeinde"},"district":{"key":"09779","name":"Donau-Ries","type":"Landkreis"},"federalState":{"key":"09","name":"Bayern"}},{"name":"Römerstr.","postalCode":"89438","locality":"Holzheim","municipality":{"key":"09773140","name":"Holzheim","type":"Kreisangehörige_Gemeinde"},"district":{"key":"09773","name":"Dillingen a.d.Donau","type":"Landkreis"},"federalState":{"key":"09","name":"Bayern"}},{"name":"Rosenstr.","postalCode":"89438","locality":"Holzheim","municipality":{"key":"09773140","name":"Holzheim","type":"Kreisangehörige_Gemeinde"},"district":{"key":"09773","name":"Dillingen a.d.Donau","type":"Landkreis"},"federalState":{"key":"09","name":"Bayern"}},{"name":"Rosenweg","postalCode":"86684","locality":"Holzheim","municipality":{"key":"09779163","name":"Holzheim","type":"Kreisangehörige_Gemeinde"},"district":{"key":"09779","name":"Donau-Ries","type":"Landkreis"},"federalState":{"key":"09","name":"Bayern"}},{"name":"Rosenweg","postalCode":"89291","locality":"Holzheim","municipality":{"key":"09775126","name":"Holzheim","type":"Kreisangehörige_Gemeinde"},"district":{"key":"09775","name":"Neu-Ulm","type":"Landkreis"},"federalState":{"key":"09","name":"Bayern"}},{"name":"Roßbachweg","postalCode":"86684","locality":"Holzheim","municipality":{"key":"09779163","name":"Holzheim","type":"Kreisangehörige_Gemeinde"},"district":{"key":"09779","name":"Donau-Ries","type":"Landkreis"},"federalState":{"key":"09","name":"Bayern"}},{"name":"Sackgasse","postalCode":"65558","locality":"Holzheim","municipality":{"key":"07141061","name":"Holzheim","type":"Kreisangehörige_Gemeinde"},"district":{"key":"07141","name":"Rhein-Lahn-Kreis","type":"Landkreis"},"federalState":{"key":"07","name":"Rheinland-Pfalz"}},{"name":"Sandackerstr.","postalCode":"89438","locality":"Holzheim","municipality":{"key":"09773140","name":"Holzheim","type":"Kreisangehörige_Gemeinde"},"district":{"key":"09773","name":"Dillingen a.d.Donau","type":"Landkreis"},"federalState":{"key":"09","name":"Bayern"}},{"name":"Sankt-Stephanus-Str.","postalCode":"89438","locality":"Holzheim","municipality":{"key":"09773140","name":"Holzheim","type":"Kreisangehörige_Gemeinde"},"district":{"key":"09773","name":"Dillingen a.d.Donau","type":"Landkreis"},"federalState":{"key":"09","name":"Bayern"}},{"name":"Schäferweg","postalCode":"86684","locality":"Holzheim","municipality":{"key":"09779163","name":"Holzheim","type":"Kreisangehörige_Gemeinde"},"district":{"key":"09779","name":"Donau-Ries","type":"Landkreis"},"federalState":{"key":"09","name":"Bayern"}},{"name":"Schloßbergweg","postalCode":"89291","locality":"Holzheim","municipality":{"key":"09775126","name":"Holzheim","type":"Kreisangehörige_Gemeinde"},"district":{"key":"09775","name":"Neu-Ulm","type":"Landkreis"},"federalState":{"key":"09","name":"Bayern"}},{"name":"Schloßstr.","postalCode":"65558","locality":"Holzheim","municipality":{"key":"07141061","name":"Holzheim","type":"Kreisangehörige_Gemeinde"},"district":{"key":"07141","name":"Rhein-Lahn-Kreis","type":"Landkreis"},"federalState":{"key":"07","name":"Rheinland-Pfalz"}},{"name":"Schöne Aussicht","postalCode":"65558","locality":"Holzheim","municipality":{"key":"07141061","name":"Holzheim","type":"Kreisangehörige_Gemeinde"},"district":{"key":"07141","name":"Rhein-Lahn-Kreis","type":"Landkreis"},"federalState":{"key":"07","name":"Rheinland-Pfalz"}},{"name":"Schulstr.","postalCode":"86684","locality":"Holzheim","municipality":{"key":"09779163","name":"Holzheim","type":"Kreisangehörige_Gemeinde"},"district":{"key":"09779","name":"Donau-Ries","type":"Landkreis"},"federalState":{"key":"09","name":"Bayern"}},{"name":"Schulstr.","postalCode":"89291","locality":"Holzheim","municipality":{"key":"09775126","name":"Holzheim","type":"Kreisangehörige_Gemeinde"},"district":{"key":"09775","name":"Neu-Ulm","type":"Landkreis"},"federalState":{"key":"09","name":"Bayern"}},{"name":"Schulstr.","postalCode":"89438","locality":"Holzheim","municipality":{"key":"09773140","name":"Holzheim","type":"Kreisangehörige_Gemeinde"},"district":{"key":"09773","name":"Dillingen a.d.Donau","type":"Landkreis"},"federalState":{"key":"09","name":"Bayern"}},{"name":"Schützenstr.","postalCode":"89438","locality":"Holzheim","municipality":{"key":"09773140","name":"Holzheim","type":"Kreisangehörige_Gemeinde"},"district":{"key":"09773","name":"Dillingen a.d.Donau","type":"Landkreis"},"federalState":{"key":"09","name":"Bayern"}},{"name":"Schwalbenweg","postalCode":"89291","locality":"Holzheim","municipality":{"key":"09775126","name":"Holzheim","type":"Kreisangehörige_Gemeinde"},"district":{"key":"09775","name":"Neu-Ulm","type":"Landkreis"},"federalState":{"key":"09","name":"Bayern"}},{"name":"Sebastiansberg","postalCode":"89438","locality":"Holzheim","municipality":{"key":"09773140","name":"Holzheim","type":"Kreisangehörige_Gemeinde"},"district":{"key":"09773","name":"Dillingen a.d.Donau","type":"Landkreis"},"federalState":{"key":"09","name":"Bayern"}},{"name":"Siebenbrunnstr.","postalCode":"89438","locality":"Holzheim","municipality":{"key":"09773140","name":"Holzheim","type":"Kreisangehörige_Gemeinde"},"district":{"key":"09773","name":"Dillingen a.d.Donau","type":"Landkreis"},"federalState":{"key":"09","name":"Bayern"}},{"name":"Siedlerweg","postalCode":"89291","locality":"Holzheim","municipality":{"key":"09775126","name":"Holzheim","type":"Kreisangehörige_Gemeinde"},"district":{"key":"09775","name":"Neu-Ulm","type":"Landkreis"},"federalState":{"key":"09","name":"Bayern"}},{"name":"Siedlerweg","postalCode":"89438","locality":"Holzheim","municipality":{"key":"09773140","name":"Holzheim","type":"Kreisangehörige_Gemeinde"},"district":{"key":"09773","name":"Dillingen a.d.Donau","type":"Landkreis"},"federalState":{"key":"09","name":"Bayern"}},{"name":"Siedlungsweg","postalCode":"86684","locality":"Holzheim","municipality":{"key":"09779163","name":"Holzheim","type":"Kreisangehörige_Gemeinde"},"district":{"key":"09779","name":"Donau-Ries","type":"Landkreis"},"federalState":{"key":"09","name":"Bayern"}},{"name":"Sommerstr.","postalCode":"93183","locality":"Holzheim am Forst","municipality":{"key":"09375153","name":"Holzheim a.Forst","type":"Kreisangehörige_Gemeinde"},"district":{"key":"09375","name":"Regensburg","type":"Landkreis"},"federalState":{"key":"09","name":"Bayern"}},{"name":"Sonnenstr.","postalCode":"89438","locality":"Holzheim","municipality":{"key":"09773140","name":"Holzheim","type":"Kreisangehörige_Gemeinde"},"district":{"key":"09773","name":"Dillingen a.d.Donau","type":"Landkreis"},"federalState":{"key":"09","name":"Bayern"}},{"name":"Sonnenstr.","postalCode":"93183","locality":"Holzheim am Forst","municipality":{"key":"09375153","name":"Holzheim a.Forst","type":"Kreisangehörige_Gemeinde"},"district":{"key":"09375","name":"Regensburg","type":"Landkreis"},"federalState":{"key":"09","name":"Bayern"}},{"name":"Sparkassenweg","postalCode":"86684","locality":"Holzheim","municipality":{"key":"09779163","name":"Holzheim","type":"Kreisangehörige_Gemeinde"},"district":{"key":"09779","name":"Donau-Ries","type":"Landkreis"},"federalState":{"key":"09","name":"Bayern"}},{"name":"Sportplatzweg","postalCode":"89438","locality":"Holzheim","municipality":{"key":"09773140","name":"Holzheim","type":"Kreisangehörige_Gemeinde"},"district":{"key":"09773","name":"Dillingen a.d.Donau","type":"Landkreis"},"federalState":{"key":"09","name":"Bayern"}},{"name":"Sportweg","postalCode":"89291","locality":"Holzheim","municipality":{"key":"09775126","name":"Holzheim","type":"Kreisangehörige_Gemeinde"},"district":{"key":"09775","name":"Neu-Ulm","type":"Landkreis"},"federalState":{"key":"09","name":"Bayern"}},{"name":"Staudenbergstr.","postalCode":"89438","locality":"Holzheim","municipality":{"key":"09773140","name":"Holzheim","type":"Kreisangehörige_Gemeinde"},"district":{"key":"09773","name":"Dillingen a.d.Donau","type":"Landkreis"},"federalState":{"key":"09","name":"Bayern"}},{"name":"Steigackerweg","postalCode":"89291","locality":"Holzheim","municipality":{"key":"09775126","name":"Holzheim","type":"Kreisangehörige_Gemeinde"},"district":{"key":"09775","name":"Neu-Ulm","type":"Landkreis"},"federalState":{"key":"09","name":"Bayern"}},{"name":"Steinheimer Str.","postalCode":"89291","locality":"Holzheim","municipality":{"key":"09775126","name":"Holzheim","type":"Kreisangehörige_Gemeinde"},"district":{"key":"09775","name":"Neu-Ulm","type":"Landkreis"},"federalState":{"key":"09","name":"Bayern"}},{"name":"Sudetenweg","postalCode":"89438","locality":"Holzheim","municipality":{"key":"09773140","name":"Holzheim","type":"Kreisangehörige_Gemeinde"},"district":{"key":"09773","name":"Dillingen a.d.Donau","type":"Landkreis"},"federalState":{"key":"09","name":"Bayern"}},{"name":"Sulzer Str.","postalCode":"86684","locality":"Holzheim","municipality":{"key":"09779163","name":"Holzheim","type":"Kreisangehörige_Gemeinde"},"district":{"key":"09779","name":"Donau-Ries","type":"Landkreis"},"federalState":{"key":"09","name":"Bayern"}},{"name":"Taunusstr.","postalCode":"65558","locality":"Holzheim","municipality":{"key":"07141061","name":"Holzheim","type":"Kreisangehörige_Gemeinde"},"district":{"key":"07141","name":"Rhein-Lahn-Kreis","type":"Landkreis"},"federalState":{"key":"07","name":"Rheinland-Pfalz"}},{"name":"Tränkstr.","postalCode":"65558","locality":"Holzheim","municipality":{"key":"07141061","name":"Holzheim","type":"Kreisangehörige_Gemeinde"},"district":{"key":"07141","name":"Rhein-Lahn-Kreis","type":"Landkreis"},"federalState":{"key":"07","name":"Rheinland-Pfalz"}},{"name":"Turnhallenweg","postalCode":"86684","locality":"Holzheim","municipality":{"key":"09779163","name":"Holzheim","type":"Kreisangehörige_Gemeinde"},"district":{"key":"09779","name":"Donau-Ries","type":"Landkreis"},"federalState":{"key":"09","name":"Bayern"}},{"name":"Ulmenweg","postalCode":"89438","locality":"Holzheim","municipality":{"key":"09773140","name":"Holzheim","type":"Kreisangehörige_Gemeinde"},"district":{"key":"09773","name":"Dillingen a.d.Donau","type":"Landkreis"},"federalState":{"key":"09","name":"Bayern"}},{"name":"Ulmer Str.","postalCode":"89291","locality":"Holzheim","municipality":{"key":"09775126","name":"Holzheim","type":"Kreisangehörige_Gemeinde"},"district":{"key":"09775","name":"Neu-Ulm","type":"Landkreis"},"federalState":{"key":"09","name":"Bayern"}},{"name":"Von-Riederer-Str.","postalCode":"86684","locality":"Holzheim","municipality":{"key":"09779163","name":"Holzheim","type":"Kreisangehörige_Gemeinde"},"district":{"key":"09779","name":"Donau-Ries","type":"Landkreis"},"federalState":{"key":"09","name":"Bayern"}},{"name":"Vopeliusstr.","postalCode":"89438","locality":"Holzheim","municipality":{"key":"09773140","name":"Holzheim","type":"Kreisangehörige_Gemeinde"},"district":{"key":"09773","name":"Dillingen a.d.Donau","type":"Landkreis"},"federalState":{"key":"09","name":"Bayern"}},{"name":"Waldstr.","postalCode":"89438","locality":"Holzheim","municipality":{"key":"09773140","name":"Holzheim","type":"Kreisangehörige_Gemeinde"},"district":{"key":"09773","name":"Dillingen a.d.Donau","type":"Landkreis"},"federalState":{"key":"09","name":"Bayern"}},{"name":"Weiherweg","postalCode":"89291","locality":"Holzheim","municipality":{"key":"09775126","name":"Holzheim","type":"Kreisangehörige_Gemeinde"},"district":{"key":"09775","name":"Neu-Ulm","type":"Landkreis"},"federalState":{"key":"09","name":"Bayern"}},{"name":"Weisinger Str.","postalCode":"89438","locality":"Holzheim","municipality":{"key":"09773140","name":"Holzheim","type":"Kreisangehörige_Gemeinde"},"district":{"key":"09773","name":"Dillingen a.d.Donau","type":"Landkreis"},"federalState":{"key":"09","name":"Bayern"}},{"name":"Wiedenfeldstr.","postalCode":"89438","locality":"Holzheim","municipality":{"key":"09773140","name":"Holzheim","type":"Kreisangehörige_Gemeinde"},"district":{"key":"09773","name":"Dillingen a.d.Donau","type":"Landkreis"},"federalState":{"key":"09","name":"Bayern"}},{"name":"Wiesengrund","postalCode":"86684","locality":"Holzheim","municipality":{"key":"09779163","name":"Holzheim","type":"Kreisangehörige_Gemeinde"},"district":{"key":"09779","name":"Donau-Ries","type":"Landkreis"},"federalState":{"key":"09","name":"Bayern"}},{"name":"Witteshoferstr.","postalCode":"89438","locality":"Holzheim","municipality":{"key":"09773140","name":"Holzheim","type":"Kreisangehörige_Gemeinde"},"district":{"key":"09773","name":"Dillingen a.d.Donau","type":"Landkreis"},"federalState":{"key":"09","name":"Bayern"}},{"name":"Xaver-Lochbrunner-Str.","postalCode":"89233","locality":"Neu-Ulm","municipality":{"key":"09775135","name":"Neu-Ulm, GKSt","type":"Große_Kreisstadt"},"district":{"key":"09775","name":"Neu-Ulm","type":"Landkreis"},"federalState":{"key":"09","name":"Bayern"}},{"name":"Ziegelweg","postalCode":"89438","locality":"Holzheim","municipality":{"key":"09773140","name":"Holzheim","type":"Kreisangehörige_Gemeinde"},"district":{"key":"09773","name":"Dillingen a.d.Donau","type":"Landkreis"},"federalState":{"key":"09","name":"Bayern"}},{"name":"Öschweg","postalCode":"89231","locality":"Neu-Ulm","municipality":{"key":"09775135","name":"Neu-Ulm, GKSt","type":"Große_Kreisstadt"},"district":{"key":"09775","name":"Neu-Ulm","type":"Landkreis"},"federalState":{"key":"09","name":"Bayern"}},]