[{"name":"Am Dorfteich","postalCode":"15328","locality":"Alt Tucheband","municipality":{"key":"12064009","name":"Alt Tucheband","type":"Kreisangehörige_Gemeinde"},"district":{"key":"12064","name":"Märkisch-Oderland","type":"Landkreis"},"federalState":{"key":"12","name":"Brandenburg"}},{"name":"Am Park","postalCode":"15328","locality":"Alt Tucheband","municipality":{"key":"12064009","name":"Alt Tucheband","type":"Kreisangehörige_Gemeinde"},"district":{"key":"12064","name":"Märkisch-Oderland","type":"Landkreis"},"federalState":{"key":"12","name":"Brandenburg"}},{"name":"Am Pflaster","postalCode":"15328","locality":"Alt Tucheband","municipality":{"key":"12064009","name":"Alt Tucheband","type":"Kreisangehörige_Gemeinde"},"district":{"key":"12064","name":"Märkisch-Oderland","type":"Landkreis"},"federalState":{"key":"12","name":"Brandenburg"}},{"name":"An der B1","postalCode":"15328","locality":"Alt Tucheband","municipality":{"key":"12064009","name":"Alt Tucheband","type":"Kreisangehörige_Gemeinde"},"district":{"key":"12064","name":"Märkisch-Oderland","type":"Landkreis"},"federalState":{"key":"12","name":"Brandenburg"}},{"name":"Ausbau","postalCode":"15328","locality":"Alt Tucheband","municipality":{"key":"12064009","name":"Alt Tucheband","type":"Kreisangehörige_Gemeinde"},"district":{"key":"12064","name":"Märkisch-Oderland","type":"Landkreis"},"federalState":{"key":"12","name":"Brandenburg"}},{"name":"Chausseestr.","postalCode":"15328","locality":"Alt Tucheband","municipality":{"key":"12064009","name":"Alt Tucheband","type":"Kreisangehörige_Gemeinde"},"district":{"key":"12064","name":"Märkisch-Oderland","type":"Landkreis"},"federalState":{"key":"12","name":"Brandenburg"}},{"name":"Dolgeliner Str.","postalCode":"15328","locality":"Alt Tucheband","municipality":{"key":"12064009","name":"Alt Tucheband","type":"Kreisangehörige_Gemeinde"},"district":{"key":"12064","name":"Märkisch-Oderland","type":"Landkreis"},"federalState":{"key":"12","name":"Brandenburg"}},{"name":"Dorfallee","postalCode":"15328","locality":"Alt Tucheband","municipality":{"key":"12064009","name":"Alt Tucheband","type":"Kreisangehörige_Gemeinde"},"district":{"key":"12064","name":"Märkisch-Oderland","type":"Landkreis"},"federalState":{"key":"12","name":"Brandenburg"}},{"name":"Dorfaue","postalCode":"15328","locality":"Alt Tucheband","municipality":{"key":"12064009","name":"Alt Tucheband","type":"Kreisangehörige_Gemeinde"},"district":{"key":"12064","name":"Märkisch-Oderland","type":"Landkreis"},"federalState":{"key":"12","name":"Brandenburg"}},{"name":"Dorfplatz","postalCode":"15328","locality":"Alt Tucheband","municipality":{"key":"12064009","name":"Alt Tucheband","type":"Kreisangehörige_Gemeinde"},"district":{"key":"12064","name":"Märkisch-Oderland","type":"Landkreis"},"federalState":{"key":"12","name":"Brandenburg"}},{"name":"Dorfstr.","postalCode":"15328","locality":"Alt Tucheband","municipality":{"key":"12064009","name":"Alt Tucheband","type":"Kreisangehörige_Gemeinde"},"district":{"key":"12064","name":"Märkisch-Oderland","type":"Landkreis"},"federalState":{"key":"12","name":"Brandenburg"}},{"name":"Eichenweg","postalCode":"15328","locality":"Alt Tucheband","municipality":{"key":"12064009","name":"Alt Tucheband","type":"Kreisangehörige_Gemeinde"},"district":{"key":"12064","name":"Märkisch-Oderland","type":"Landkreis"},"federalState":{"key":"12","name":"Brandenburg"}},{"name":"Feldweg","postalCode":"15328","locality":"Alt Tucheband","municipality":{"key":"12064009","name":"Alt Tucheband","type":"Kreisangehörige_Gemeinde"},"district":{"key":"12064","name":"Märkisch-Oderland","type":"Landkreis"},"federalState":{"key":"12","name":"Brandenburg"}},{"name":"Gänsekiez","postalCode":"15328","locality":"Alt Tucheband","municipality":{"key":"12064009","name":"Alt Tucheband","type":"Kreisangehörige_Gemeinde"},"district":{"key":"12064","name":"Märkisch-Oderland","type":"Landkreis"},"federalState":{"key":"12","name":"Brandenburg"}},{"name":"Golzower Str.","postalCode":"15328","locality":"Alt Tucheband","municipality":{"key":"12064009","name":"Alt Tucheband","type":"Kreisangehörige_Gemeinde"},"district":{"key":"12064","name":"Märkisch-Oderland","type":"Landkreis"},"federalState":{"key":"12","name":"Brandenburg"}},{"name":"Grenzweg","postalCode":"15328","locality":"Alt Tucheband","municipality":{"key":"12064009","name":"Alt Tucheband","type":"Kreisangehörige_Gemeinde"},"district":{"key":"12064","name":"Märkisch-Oderland","type":"Landkreis"},"federalState":{"key":"12","name":"Brandenburg"}},{"name":"Hackenower Weg","postalCode":"15328","locality":"Alt Tucheband","municipality":{"key":"12064009","name":"Alt Tucheband","type":"Kreisangehörige_Gemeinde"},"district":{"key":"12064","name":"Märkisch-Oderland","type":"Landkreis"},"federalState":{"key":"12","name":"Brandenburg"}},{"name":"Hauptstr.","postalCode":"15328","locality":"Alt Tucheband","municipality":{"key":"12064009","name":"Alt Tucheband","type":"Kreisangehörige_Gemeinde"},"district":{"key":"12064","name":"Märkisch-Oderland","type":"Landkreis"},"federalState":{"key":"12","name":"Brandenburg"}},{"name":"Hoher Weg","postalCode":"15328","locality":"Alt Tucheband","municipality":{"key":"12064009","name":"Alt Tucheband","type":"Kreisangehörige_Gemeinde"},"district":{"key":"12064","name":"Märkisch-Oderland","type":"Landkreis"},"federalState":{"key":"12","name":"Brandenburg"}},{"name":"Lindenstr.","postalCode":"15328","locality":"Alt Tucheband","municipality":{"key":"12064009","name":"Alt Tucheband","type":"Kreisangehörige_Gemeinde"},"district":{"key":"12064","name":"Märkisch-Oderland","type":"Landkreis"},"federalState":{"key":"12","name":"Brandenburg"}},{"name":"Neudorf","postalCode":"15328","locality":"Alt Tucheband","municipality":{"key":"12064009","name":"Alt Tucheband","type":"Kreisangehörige_Gemeinde"},"district":{"key":"12064","name":"Märkisch-Oderland","type":"Landkreis"},"federalState":{"key":"12","name":"Brandenburg"}},{"name":"Parkstr.","postalCode":"15328","locality":"Alt Tucheband","municipality":{"key":"12064009","name":"Alt Tucheband","type":"Kreisangehörige_Gemeinde"},"district":{"key":"12064","name":"Märkisch-Oderland","type":"Landkreis"},"federalState":{"key":"12","name":"Brandenburg"}},{"name":"Rathstocker Str.","postalCode":"15328","locality":"Alt Tucheband","municipality":{"key":"12064009","name":"Alt Tucheband","type":"Kreisangehörige_Gemeinde"},"district":{"key":"12064","name":"Märkisch-Oderland","type":"Landkreis"},"federalState":{"key":"12","name":"Brandenburg"}},{"name":"Sachsendorfer Chaussee","postalCode":"15328","locality":"Alt Tucheband","municipality":{"key":"12064009","name":"Alt Tucheband","type":"Kreisangehörige_Gemeinde"},"district":{"key":"12064","name":"Märkisch-Oderland","type":"Landkreis"},"federalState":{"key":"12","name":"Brandenburg"}},{"name":"Sachsendorfer Str.","postalCode":"15328","locality":"Alt Tucheband","municipality":{"key":"12064009","name":"Alt Tucheband","type":"Kreisangehörige_Gemeinde"},"district":{"key":"12064","name":"Märkisch-Oderland","type":"Landkreis"},"federalState":{"key":"12","name":"Brandenburg"}},{"name":"Str. der Freundschaft","postalCode":"15328","locality":"Alt Tucheband","municipality":{"key":"12064009","name":"Alt Tucheband","type":"Kreisangehörige_Gemeinde"},"district":{"key":"12064","name":"Märkisch-Oderland","type":"Landkreis"},"federalState":{"key":"12","name":"Brandenburg"}},{"name":"Stromweg","postalCode":"15328","locality":"Alt Tucheband","municipality":{"key":"12064009","name":"Alt Tucheband","type":"Kreisangehörige_Gemeinde"},"district":{"key":"12064","name":"Märkisch-Oderland","type":"Landkreis"},"federalState":{"key":"12","name":"Brandenburg"}},]