[{"name":"Abensstr.","postalCode":"84094","locality":"Elsendorf","municipality":{"key":"09273163","name":"Elsendorf","type":"Kreisangehörige_Gemeinde"},"district":{"key":"09273","name":"Kelheim","type":"Landkreis"},"federalState":{"key":"09","name":"Bayern"}},{"name":"Allakofen","postalCode":"84094","locality":"Elsendorf","municipality":{"key":"09273163","name":"Elsendorf","type":"Kreisangehörige_Gemeinde"},"district":{"key":"09273","name":"Kelheim","type":"Landkreis"},"federalState":{"key":"09","name":"Bayern"}},{"name":"Allakofener Str.","postalCode":"84094","locality":"Elsendorf","municipality":{"key":"09273163","name":"Elsendorf","type":"Kreisangehörige_Gemeinde"},"district":{"key":"09273","name":"Kelheim","type":"Landkreis"},"federalState":{"key":"09","name":"Bayern"}},{"name":"Am Kirchberg","postalCode":"84094","locality":"Elsendorf","municipality":{"key":"09273163","name":"Elsendorf","type":"Kreisangehörige_Gemeinde"},"district":{"key":"09273","name":"Kelheim","type":"Landkreis"},"federalState":{"key":"09","name":"Bayern"}},{"name":"Am Schulberg","postalCode":"84094","locality":"Elsendorf","municipality":{"key":"09273163","name":"Elsendorf","type":"Kreisangehörige_Gemeinde"},"district":{"key":"09273","name":"Kelheim","type":"Landkreis"},"federalState":{"key":"09","name":"Bayern"}},{"name":"Am Sportplatz","postalCode":"84094","locality":"Elsendorf","municipality":{"key":"09273163","name":"Elsendorf","type":"Kreisangehörige_Gemeinde"},"district":{"key":"09273","name":"Kelheim","type":"Landkreis"},"federalState":{"key":"09","name":"Bayern"}},{"name":"An der Linde","postalCode":"84094","locality":"Elsendorf","municipality":{"key":"09273163","name":"Elsendorf","type":"Kreisangehörige_Gemeinde"},"district":{"key":"09273","name":"Kelheim","type":"Landkreis"},"federalState":{"key":"09","name":"Bayern"}},{"name":"Angerstr.","postalCode":"84094","locality":"Elsendorf","municipality":{"key":"09273163","name":"Elsendorf","type":"Kreisangehörige_Gemeinde"},"district":{"key":"09273","name":"Kelheim","type":"Landkreis"},"federalState":{"key":"09","name":"Bayern"}},{"name":"Bachweg","postalCode":"84094","locality":"Elsendorf","municipality":{"key":"09273163","name":"Elsendorf","type":"Kreisangehörige_Gemeinde"},"district":{"key":"09273","name":"Kelheim","type":"Landkreis"},"federalState":{"key":"09","name":"Bayern"}},{"name":"Badergasse","postalCode":"84094","locality":"Elsendorf","municipality":{"key":"09273163","name":"Elsendorf","type":"Kreisangehörige_Gemeinde"},"district":{"key":"09273","name":"Kelheim","type":"Landkreis"},"federalState":{"key":"09","name":"Bayern"}},{"name":"Bergstr.","postalCode":"84094","locality":"Elsendorf","municipality":{"key":"09273163","name":"Elsendorf","type":"Kreisangehörige_Gemeinde"},"district":{"key":"09273","name":"Kelheim","type":"Landkreis"},"federalState":{"key":"09","name":"Bayern"}},{"name":"Birkenstr.","postalCode":"84094","locality":"Elsendorf","municipality":{"key":"09273163","name":"Elsendorf","type":"Kreisangehörige_Gemeinde"},"district":{"key":"09273","name":"Kelheim","type":"Landkreis"},"federalState":{"key":"09","name":"Bayern"}},{"name":"Blumenstr.","postalCode":"84094","locality":"Elsendorf","municipality":{"key":"09273163","name":"Elsendorf","type":"Kreisangehörige_Gemeinde"},"district":{"key":"09273","name":"Kelheim","type":"Landkreis"},"federalState":{"key":"09","name":"Bayern"}},{"name":"Blütenweg","postalCode":"84094","locality":"Elsendorf","municipality":{"key":"09273163","name":"Elsendorf","type":"Kreisangehörige_Gemeinde"},"district":{"key":"09273","name":"Kelheim","type":"Landkreis"},"federalState":{"key":"09","name":"Bayern"}},{"name":"Brünnlweg","postalCode":"84094","locality":"Elsendorf","municipality":{"key":"09273163","name":"Elsendorf","type":"Kreisangehörige_Gemeinde"},"district":{"key":"09273","name":"Kelheim","type":"Landkreis"},"federalState":{"key":"09","name":"Bayern"}},{"name":"Buchenweg","postalCode":"84094","locality":"Elsendorf","municipality":{"key":"09273163","name":"Elsendorf","type":"Kreisangehörige_Gemeinde"},"district":{"key":"09273","name":"Kelheim","type":"Landkreis"},"federalState":{"key":"09","name":"Bayern"}},{"name":"Bultweg","postalCode":"84094","locality":"Elsendorf","municipality":{"key":"09273163","name":"Elsendorf","type":"Kreisangehörige_Gemeinde"},"district":{"key":"09273","name":"Kelheim","type":"Landkreis"},"federalState":{"key":"09","name":"Bayern"}},{"name":"Carl-Anton-Lang-Str.","postalCode":"93309","locality":"Kelheim","municipality":{"key":"09273137","name":"Kelheim, St","type":"Stadt"},"district":{"key":"09273","name":"Kelheim","type":"Landkreis"},"federalState":{"key":"09","name":"Bayern"}},{"name":"Cramannsdorfer Weg","postalCode":"93309","locality":"Kelheim","municipality":{"key":"09273137","name":"Kelheim, St","type":"Stadt"},"district":{"key":"09273","name":"Kelheim","type":"Landkreis"},"federalState":{"key":"09","name":"Bayern"}},{"name":"Dorfstr.","postalCode":"84094","locality":"Elsendorf","municipality":{"key":"09273163","name":"Elsendorf","type":"Kreisangehörige_Gemeinde"},"district":{"key":"09273","name":"Kelheim","type":"Landkreis"},"federalState":{"key":"09","name":"Bayern"}},{"name":"Eichenstr.","postalCode":"84094","locality":"Elsendorf","municipality":{"key":"09273163","name":"Elsendorf","type":"Kreisangehörige_Gemeinde"},"district":{"key":"09273","name":"Kelheim","type":"Landkreis"},"federalState":{"key":"09","name":"Bayern"}},{"name":"Espertstr.","postalCode":"84094","locality":"Elsendorf","municipality":{"key":"09273163","name":"Elsendorf","type":"Kreisangehörige_Gemeinde"},"district":{"key":"09273","name":"Kelheim","type":"Landkreis"},"federalState":{"key":"09","name":"Bayern"}},{"name":"Fasanenstr.","postalCode":"84094","locality":"Elsendorf","municipality":{"key":"09273163","name":"Elsendorf","type":"Kreisangehörige_Gemeinde"},"district":{"key":"09273","name":"Kelheim","type":"Landkreis"},"federalState":{"key":"09","name":"Bayern"}},{"name":"Gartenstr.","postalCode":"84094","locality":"Elsendorf","municipality":{"key":"09273163","name":"Elsendorf","type":"Kreisangehörige_Gemeinde"},"district":{"key":"09273","name":"Kelheim","type":"Landkreis"},"federalState":{"key":"09","name":"Bayern"}},{"name":"Georg-Ruhland-Str.","postalCode":"84094","locality":"Elsendorf","municipality":{"key":"09273163","name":"Elsendorf","type":"Kreisangehörige_Gemeinde"},"district":{"key":"09273","name":"Kelheim","type":"Landkreis"},"federalState":{"key":"09","name":"Bayern"}},{"name":"Georg Ruhland Weg","postalCode":"84094","locality":"Elsendorf","municipality":{"key":"09273163","name":"Elsendorf","type":"Kreisangehörige_Gemeinde"},"district":{"key":"09273","name":"Kelheim","type":"Landkreis"},"federalState":{"key":"09","name":"Bayern"}},{"name":"Glaser Gangsteig","postalCode":"84094","locality":"Elsendorf","municipality":{"key":"09273163","name":"Elsendorf","type":"Kreisangehörige_Gemeinde"},"district":{"key":"09273","name":"Kelheim","type":"Landkreis"},"federalState":{"key":"09","name":"Bayern"}},{"name":"Glaserstr.","postalCode":"84094","locality":"Elsendorf","municipality":{"key":"09273163","name":"Elsendorf","type":"Kreisangehörige_Gemeinde"},"district":{"key":"09273","name":"Kelheim","type":"Landkreis"},"federalState":{"key":"09","name":"Bayern"}},{"name":"Hauptstr.","postalCode":"84094","locality":"Elsendorf","municipality":{"key":"09273163","name":"Elsendorf","type":"Kreisangehörige_Gemeinde"},"district":{"key":"09273","name":"Kelheim","type":"Landkreis"},"federalState":{"key":"09","name":"Bayern"}},{"name":"Hochfeldstr.","postalCode":"84094","locality":"Elsendorf","municipality":{"key":"09273163","name":"Elsendorf","type":"Kreisangehörige_Gemeinde"},"district":{"key":"09273","name":"Kelheim","type":"Landkreis"},"federalState":{"key":"09","name":"Bayern"}},{"name":"Hochweg","postalCode":"84094","locality":"Elsendorf","municipality":{"key":"09273163","name":"Elsendorf","type":"Kreisangehörige_Gemeinde"},"district":{"key":"09273","name":"Kelheim","type":"Landkreis"},"federalState":{"key":"09","name":"Bayern"}},{"name":"Hopfenstr.","postalCode":"84094","locality":"Elsendorf","municipality":{"key":"09273163","name":"Elsendorf","type":"Kreisangehörige_Gemeinde"},"district":{"key":"09273","name":"Kelheim","type":"Landkreis"},"federalState":{"key":"09","name":"Bayern"}},{"name":"Horneck","postalCode":"84094","locality":"Elsendorf","municipality":{"key":"09273163","name":"Elsendorf","type":"Kreisangehörige_Gemeinde"},"district":{"key":"09273","name":"Kelheim","type":"Landkreis"},"federalState":{"key":"09","name":"Bayern"}},{"name":"Hornecker Str.","postalCode":"84094","locality":"Elsendorf","municipality":{"key":"09273163","name":"Elsendorf","type":"Kreisangehörige_Gemeinde"},"district":{"key":"09273","name":"Kelheim","type":"Landkreis"},"federalState":{"key":"09","name":"Bayern"}},{"name":"Industriestr.","postalCode":"84094","locality":"Elsendorf","municipality":{"key":"09273163","name":"Elsendorf","type":"Kreisangehörige_Gemeinde"},"district":{"key":"09273","name":"Kelheim","type":"Landkreis"},"federalState":{"key":"09","name":"Bayern"}},{"name":"Jägerweg","postalCode":"93309","locality":"Kelheim","municipality":{"key":"09273137","name":"Kelheim, St","type":"Stadt"},"district":{"key":"09273","name":"Kelheim","type":"Landkreis"},"federalState":{"key":"09","name":"Bayern"}},{"name":"Jahnstr.","postalCode":"55596","locality":"Waldböckelheim","municipality":{"key":"07133107","name":"Waldböckelheim","type":"Kreisangehörige_Gemeinde"},"district":{"key":"07133","name":"Bad Kreuznach","type":"Landkreis"},"federalState":{"key":"07","name":"Rheinland-Pfalz"}},{"name":"Jakob-Wickert-Str.","postalCode":"55596","locality":"Waldböckelheim","municipality":{"key":"07133107","name":"Waldböckelheim","type":"Kreisangehörige_Gemeinde"},"district":{"key":"07133","name":"Bad Kreuznach","type":"Landkreis"},"federalState":{"key":"07","name":"Rheinland-Pfalz"}},{"name":"Johann-Mayr-Str.","postalCode":"93309","locality":"Kelheim","municipality":{"key":"09273137","name":"Kelheim, St","type":"Stadt"},"district":{"key":"09273","name":"Kelheim","type":"Landkreis"},"federalState":{"key":"09","name":"Bayern"}},{"name":"Johann-Stoll-Str.","postalCode":"93309","locality":"Kelheim","municipality":{"key":"09273137","name":"Kelheim, St","type":"Stadt"},"district":{"key":"09273","name":"Kelheim","type":"Landkreis"},"federalState":{"key":"09","name":"Bayern"}},{"name":"Judmannweg","postalCode":"93309","locality":"Kelheim","municipality":{"key":"09273137","name":"Kelheim, St","type":"Stadt"},"district":{"key":"09273","name":"Kelheim","type":"Landkreis"},"federalState":{"key":"09","name":"Bayern"}},{"name":"Jurasteig","postalCode":"93309","locality":"Kelheim","municipality":{"key":"09273137","name":"Kelheim, St","type":"Stadt"},"district":{"key":"09273","name":"Kelheim","type":"Landkreis"},"federalState":{"key":"09","name":"Bayern"}},{"name":"Karl-Weichenrieder-Str.","postalCode":"84094","locality":"Elsendorf","municipality":{"key":"09273163","name":"Elsendorf","type":"Kreisangehörige_Gemeinde"},"district":{"key":"09273","name":"Kelheim","type":"Landkreis"},"federalState":{"key":"09","name":"Bayern"}},{"name":"Kastanienstr.","postalCode":"84094","locality":"Elsendorf","municipality":{"key":"09273163","name":"Elsendorf","type":"Kreisangehörige_Gemeinde"},"district":{"key":"09273","name":"Kelheim","type":"Landkreis"},"federalState":{"key":"09","name":"Bayern"}},{"name":"Keltenweg","postalCode":"84094","locality":"Elsendorf","municipality":{"key":"09273163","name":"Elsendorf","type":"Kreisangehörige_Gemeinde"},"district":{"key":"09273","name":"Kelheim","type":"Landkreis"},"federalState":{"key":"09","name":"Bayern"}},{"name":"Kirchweg","postalCode":"84094","locality":"Elsendorf","municipality":{"key":"09273163","name":"Elsendorf","type":"Kreisangehörige_Gemeinde"},"district":{"key":"09273","name":"Kelheim","type":"Landkreis"},"federalState":{"key":"09","name":"Bayern"}},{"name":"Kramerweg","postalCode":"84094","locality":"Elsendorf","municipality":{"key":"09273163","name":"Elsendorf","type":"Kreisangehörige_Gemeinde"},"district":{"key":"09273","name":"Kelheim","type":"Landkreis"},"federalState":{"key":"09","name":"Bayern"}},{"name":"Landersdorf","postalCode":"84094","locality":"Elsendorf","municipality":{"key":"09273163","name":"Elsendorf","type":"Kreisangehörige_Gemeinde"},"district":{"key":"09273","name":"Kelheim","type":"Landkreis"},"federalState":{"key":"09","name":"Bayern"}},{"name":"Langweid","postalCode":"84094","locality":"Elsendorf","municipality":{"key":"09273163","name":"Elsendorf","type":"Kreisangehörige_Gemeinde"},"district":{"key":"09273","name":"Kelheim","type":"Landkreis"},"federalState":{"key":"09","name":"Bayern"}},{"name":"Lärchenstr.","postalCode":"84094","locality":"Elsendorf","municipality":{"key":"09273163","name":"Elsendorf","type":"Kreisangehörige_Gemeinde"},"district":{"key":"09273","name":"Kelheim","type":"Landkreis"},"federalState":{"key":"09","name":"Bayern"}},{"name":"Lerchental","postalCode":"84094","locality":"Elsendorf","municipality":{"key":"09273163","name":"Elsendorf","type":"Kreisangehörige_Gemeinde"},"district":{"key":"09273","name":"Kelheim","type":"Landkreis"},"federalState":{"key":"09","name":"Bayern"}},{"name":"Lindenstr.","postalCode":"84094","locality":"Elsendorf","municipality":{"key":"09273163","name":"Elsendorf","type":"Kreisangehörige_Gemeinde"},"district":{"key":"09273","name":"Kelheim","type":"Landkreis"},"federalState":{"key":"09","name":"Bayern"}},{"name":"Mainburger Str.","postalCode":"84094","locality":"Elsendorf","municipality":{"key":"09273163","name":"Elsendorf","type":"Kreisangehörige_Gemeinde"},"district":{"key":"09273","name":"Kelheim","type":"Landkreis"},"federalState":{"key":"09","name":"Bayern"}},{"name":"Neutalhang","postalCode":"84094","locality":"Elsendorf","municipality":{"key":"09273163","name":"Elsendorf","type":"Kreisangehörige_Gemeinde"},"district":{"key":"09273","name":"Kelheim","type":"Landkreis"},"federalState":{"key":"09","name":"Bayern"}},{"name":"Neutalweg","postalCode":"84094","locality":"Elsendorf","municipality":{"key":"09273163","name":"Elsendorf","type":"Kreisangehörige_Gemeinde"},"district":{"key":"09273","name":"Kelheim","type":"Landkreis"},"federalState":{"key":"09","name":"Bayern"}},{"name":"Obere Pforte","postalCode":"55599","locality":"Gau-Bickelheim","municipality":{"key":"07331030","name":"Gau-Bickelheim","type":"Kreisangehörige_Gemeinde"},"district":{"key":"07331","name":"Alzey-Worms","type":"Landkreis"},"federalState":{"key":"07","name":"Rheinland-Pfalz"}},{"name":"Oberer Brühl","postalCode":"55596","locality":"Waldböckelheim","municipality":{"key":"07133107","name":"Waldböckelheim","type":"Kreisangehörige_Gemeinde"},"district":{"key":"07133","name":"Bad Kreuznach","type":"Landkreis"},"federalState":{"key":"07","name":"Rheinland-Pfalz"}},{"name":"Ortsring","postalCode":"93309","locality":"Kelheim","municipality":{"key":"09273137","name":"Kelheim, St","type":"Stadt"},"district":{"key":"09273","name":"Kelheim","type":"Landkreis"},"federalState":{"key":"09","name":"Bayern"}},{"name":"Otto-Gruber-Str.","postalCode":"93309","locality":"Kelheim","municipality":{"key":"09273137","name":"Kelheim, St","type":"Stadt"},"district":{"key":"09273","name":"Kelheim","type":"Landkreis"},"federalState":{"key":"09","name":"Bayern"}},{"name":"Ottostr.","postalCode":"93309","locality":"Kelheim","municipality":{"key":"09273137","name":"Kelheim, St","type":"Stadt"},"district":{"key":"09273","name":"Kelheim","type":"Landkreis"},"federalState":{"key":"09","name":"Bayern"}},{"name":"Pfarrer-Stock-Weg","postalCode":"84094","locality":"Elsendorf","municipality":{"key":"09273163","name":"Elsendorf","type":"Kreisangehörige_Gemeinde"},"district":{"key":"09273","name":"Kelheim","type":"Landkreis"},"federalState":{"key":"09","name":"Bayern"}},{"name":"Ratzenhofener Str.","postalCode":"84094","locality":"Elsendorf","municipality":{"key":"09273163","name":"Elsendorf","type":"Kreisangehörige_Gemeinde"},"district":{"key":"09273","name":"Kelheim","type":"Landkreis"},"federalState":{"key":"09","name":"Bayern"}},{"name":"Rehmoosstr.","postalCode":"84094","locality":"Elsendorf","municipality":{"key":"09273163","name":"Elsendorf","type":"Kreisangehörige_Gemeinde"},"district":{"key":"09273","name":"Kelheim","type":"Landkreis"},"federalState":{"key":"09","name":"Bayern"}},{"name":"Römerstr.","postalCode":"84094","locality":"Elsendorf","municipality":{"key":"09273163","name":"Elsendorf","type":"Kreisangehörige_Gemeinde"},"district":{"key":"09273","name":"Kelheim","type":"Landkreis"},"federalState":{"key":"09","name":"Bayern"}},{"name":"Rottenburger Str.","postalCode":"84094","locality":"Elsendorf","municipality":{"key":"09273163","name":"Elsendorf","type":"Kreisangehörige_Gemeinde"},"district":{"key":"09273","name":"Kelheim","type":"Landkreis"},"federalState":{"key":"09","name":"Bayern"}},{"name":"Sandweg","postalCode":"84094","locality":"Elsendorf","municipality":{"key":"09273163","name":"Elsendorf","type":"Kreisangehörige_Gemeinde"},"district":{"key":"09273","name":"Kelheim","type":"Landkreis"},"federalState":{"key":"09","name":"Bayern"}},{"name":"Sankt-Anton-Str.","postalCode":"84094","locality":"Elsendorf","municipality":{"key":"09273163","name":"Elsendorf","type":"Kreisangehörige_Gemeinde"},"district":{"key":"09273","name":"Kelheim","type":"Landkreis"},"federalState":{"key":"09","name":"Bayern"}},{"name":"Schulstr.","postalCode":"84094","locality":"Elsendorf","municipality":{"key":"09273163","name":"Elsendorf","type":"Kreisangehörige_Gemeinde"},"district":{"key":"09273","name":"Kelheim","type":"Landkreis"},"federalState":{"key":"09","name":"Bayern"}},{"name":"Teuertinger Str.","postalCode":"93309","locality":"Kelheim","municipality":{"key":"09273137","name":"Kelheim, St","type":"Stadt"},"district":{"key":"09273","name":"Kelheim","type":"Landkreis"},"federalState":{"key":"09","name":"Bayern"}},{"name":"Tilsiter Str.","postalCode":"93309","locality":"Kelheim","municipality":{"key":"09273137","name":"Kelheim, St","type":"Stadt"},"district":{"key":"09273","name":"Kelheim","type":"Landkreis"},"federalState":{"key":"09","name":"Bayern"}},{"name":"Torhausplatz","postalCode":"93309","locality":"Kelheim","municipality":{"key":"09273137","name":"Kelheim, St","type":"Stadt"},"district":{"key":"09273","name":"Kelheim","type":"Landkreis"},"federalState":{"key":"09","name":"Bayern"}},{"name":"Traubenweg","postalCode":"93309","locality":"Kelheim","municipality":{"key":"09273137","name":"Kelheim, St","type":"Stadt"},"district":{"key":"09273","name":"Kelheim","type":"Landkreis"},"federalState":{"key":"09","name":"Bayern"}},{"name":"Triftstr.","postalCode":"93309","locality":"Kelheim","municipality":{"key":"09273137","name":"Kelheim, St","type":"Stadt"},"district":{"key":"09273","name":"Kelheim","type":"Landkreis"},"federalState":{"key":"09","name":"Bayern"}},{"name":"Tulpenring","postalCode":"93309","locality":"Kelheim","municipality":{"key":"09273137","name":"Kelheim, St","type":"Stadt"},"district":{"key":"09273","name":"Kelheim","type":"Landkreis"},"federalState":{"key":"09","name":"Bayern"}},{"name":"Tulpenstr.","postalCode":"93309","locality":"Kelheim","municipality":{"key":"09273137","name":"Kelheim, St","type":"Stadt"},"district":{"key":"09273","name":"Kelheim","type":"Landkreis"},"federalState":{"key":"09","name":"Bayern"}},{"name":"Uferstr.","postalCode":"93309","locality":"Kelheim","municipality":{"key":"09273137","name":"Kelheim, St","type":"Stadt"},"district":{"key":"09273","name":"Kelheim","type":"Landkreis"},"federalState":{"key":"09","name":"Bayern"}},{"name":"Ulrichstr.","postalCode":"93309","locality":"Kelheim","municipality":{"key":"09273137","name":"Kelheim, St","type":"Stadt"},"district":{"key":"09273","name":"Kelheim","type":"Landkreis"},"federalState":{"key":"09","name":"Bayern"}},{"name":"Untere Dorfgasse","postalCode":"93309","locality":"Kelheim","municipality":{"key":"09273137","name":"Kelheim, St","type":"Stadt"},"district":{"key":"09273","name":"Kelheim","type":"Landkreis"},"federalState":{"key":"09","name":"Bayern"}},{"name":"Unterer Sand","postalCode":"55596","locality":"Waldböckelheim","municipality":{"key":"07133107","name":"Waldböckelheim","type":"Kreisangehörige_Gemeinde"},"district":{"key":"07133","name":"Bad Kreuznach","type":"Landkreis"},"federalState":{"key":"07","name":"Rheinland-Pfalz"}},{"name":"Untergasse","postalCode":"55599","locality":"Gau-Bickelheim","municipality":{"key":"07331030","name":"Gau-Bickelheim","type":"Kreisangehörige_Gemeinde"},"district":{"key":"07331","name":"Alzey-Worms","type":"Landkreis"},"federalState":{"key":"07","name":"Rheinland-Pfalz"}},{"name":"Unter Mayen","postalCode":"55596","locality":"Waldböckelheim","municipality":{"key":"07133107","name":"Waldböckelheim","type":"Kreisangehörige_Gemeinde"},"district":{"key":"07133","name":"Bad Kreuznach","type":"Landkreis"},"federalState":{"key":"07","name":"Rheinland-Pfalz"}},{"name":"Urnenring","postalCode":"93309","locality":"Kelheim","municipality":{"key":"09273137","name":"Kelheim, St","type":"Stadt"},"district":{"key":"09273","name":"Kelheim","type":"Landkreis"},"federalState":{"key":"09","name":"Bayern"}},{"name":"Veilchenstr.","postalCode":"93309","locality":"Kelheim","municipality":{"key":"09273137","name":"Kelheim, St","type":"Stadt"},"district":{"key":"09273","name":"Kelheim","type":"Landkreis"},"federalState":{"key":"09","name":"Bayern"}},{"name":"Vogelsang","postalCode":"55596","locality":"Waldböckelheim","municipality":{"key":"07133107","name":"Waldböckelheim","type":"Kreisangehörige_Gemeinde"},"district":{"key":"07133","name":"Bad Kreuznach","type":"Landkreis"},"federalState":{"key":"07","name":"Rheinland-Pfalz"}},{"name":"Von-Eichendorff-Str.","postalCode":"93309","locality":"Kelheim","municipality":{"key":"09273137","name":"Kelheim, St","type":"Stadt"},"district":{"key":"09273","name":"Kelheim","type":"Landkreis"},"federalState":{"key":"09","name":"Bayern"}},{"name":"Vordere Mauergasse","postalCode":"55599","locality":"Gau-Bickelheim","municipality":{"key":"07331030","name":"Gau-Bickelheim","type":"Kreisangehörige_Gemeinde"},"district":{"key":"07331","name":"Alzey-Worms","type":"Landkreis"},"federalState":{"key":"07","name":"Rheinland-Pfalz"}},{"name":"Waldweg","postalCode":"84094","locality":"Elsendorf","municipality":{"key":"09273163","name":"Elsendorf","type":"Kreisangehörige_Gemeinde"},"district":{"key":"09273","name":"Kelheim","type":"Landkreis"},"federalState":{"key":"09","name":"Bayern"}},{"name":"Weinbergstr.","postalCode":"84094","locality":"Elsendorf","municipality":{"key":"09273163","name":"Elsendorf","type":"Kreisangehörige_Gemeinde"},"district":{"key":"09273","name":"Kelheim","type":"Landkreis"},"federalState":{"key":"09","name":"Bayern"}},{"name":"Wirtstr.","postalCode":"84094","locality":"Elsendorf","municipality":{"key":"09273163","name":"Elsendorf","type":"Kreisangehörige_Gemeinde"},"district":{"key":"09273","name":"Kelheim","type":"Landkreis"},"federalState":{"key":"09","name":"Bayern"}},{"name":"Wolfshauser Str.","postalCode":"84094","locality":"Elsendorf","municipality":{"key":"09273163","name":"Elsendorf","type":"Kreisangehörige_Gemeinde"},"district":{"key":"09273","name":"Kelheim","type":"Landkreis"},"federalState":{"key":"09","name":"Bayern"}},{"name":"Ziegelstr.","postalCode":"84094","locality":"Elsendorf","municipality":{"key":"09273163","name":"Elsendorf","type":"Kreisangehörige_Gemeinde"},"district":{"key":"09273","name":"Kelheim","type":"Landkreis"},"federalState":{"key":"09","name":"Bayern"}},{"name":"Östliche Weinstr.","postalCode":"93309","locality":"Kelheim","municipality":{"key":"09273137","name":"Kelheim, St","type":"Stadt"},"district":{"key":"09273","name":"Kelheim","type":"Landkreis"},"federalState":{"key":"09","name":"Bayern"}},]