[{"name":"Am Görberg","postalCode":"16248","locality":"Lunow-Stolzenhagen","municipality":{"key":"12060149","name":"Lunow-Stolzenhagen","type":"Kreisangehörige_Gemeinde"},"district":{"key":"12060","name":"Barnim","type":"Landkreis"},"federalState":{"key":"12","name":"Brandenburg"}},{"name":"Bauernstr.","postalCode":"16248","locality":"Lunow-Stolzenhagen","municipality":{"key":"12060149","name":"Lunow-Stolzenhagen","type":"Kreisangehörige_Gemeinde"},"district":{"key":"12060","name":"Barnim","type":"Landkreis"},"federalState":{"key":"12","name":"Brandenburg"}},{"name":"Burgwall","postalCode":"16248","locality":"Lunow-Stolzenhagen","municipality":{"key":"12060149","name":"Lunow-Stolzenhagen","type":"Kreisangehörige_Gemeinde"},"district":{"key":"12060","name":"Barnim","type":"Landkreis"},"federalState":{"key":"12","name":"Brandenburg"}},{"name":"Burgwallrundgang","postalCode":"16248","locality":"Lunow-Stolzenhagen","municipality":{"key":"12060149","name":"Lunow-Stolzenhagen","type":"Kreisangehörige_Gemeinde"},"district":{"key":"12060","name":"Barnim","type":"Landkreis"},"federalState":{"key":"12","name":"Brandenburg"}},{"name":"Dorfstr.","postalCode":"16248","locality":"Lunow-Stolzenhagen","municipality":{"key":"12060149","name":"Lunow-Stolzenhagen","type":"Kreisangehörige_Gemeinde"},"district":{"key":"12060","name":"Barnim","type":"Landkreis"},"federalState":{"key":"12","name":"Brandenburg"}},{"name":"Elsengrund","postalCode":"16248","locality":"Lunow-Stolzenhagen","municipality":{"key":"12060149","name":"Lunow-Stolzenhagen","type":"Kreisangehörige_Gemeinde"},"district":{"key":"12060","name":"Barnim","type":"Landkreis"},"federalState":{"key":"12","name":"Brandenburg"}},{"name":"Ernst-Thälmann-Str.","postalCode":"16248","locality":"Lunow-Stolzenhagen","municipality":{"key":"12060149","name":"Lunow-Stolzenhagen","type":"Kreisangehörige_Gemeinde"},"district":{"key":"12060","name":"Barnim","type":"Landkreis"},"federalState":{"key":"12","name":"Brandenburg"}},{"name":"Fischerstr.","postalCode":"16248","locality":"Lunow-Stolzenhagen","municipality":{"key":"12060149","name":"Lunow-Stolzenhagen","type":"Kreisangehörige_Gemeinde"},"district":{"key":"12060","name":"Barnim","type":"Landkreis"},"federalState":{"key":"12","name":"Brandenburg"}},{"name":"Gartenstr.","postalCode":"16248","locality":"Lunow-Stolzenhagen","municipality":{"key":"12060149","name":"Lunow-Stolzenhagen","type":"Kreisangehörige_Gemeinde"},"district":{"key":"12060","name":"Barnim","type":"Landkreis"},"federalState":{"key":"12","name":"Brandenburg"}},{"name":"Gesundbrunnen","postalCode":"16248","locality":"Lunow-Stolzenhagen","municipality":{"key":"12060149","name":"Lunow-Stolzenhagen","type":"Kreisangehörige_Gemeinde"},"district":{"key":"12060","name":"Barnim","type":"Landkreis"},"federalState":{"key":"12","name":"Brandenburg"}},{"name":"Gutshof","postalCode":"16248","locality":"Lunow-Stolzenhagen","municipality":{"key":"12060149","name":"Lunow-Stolzenhagen","type":"Kreisangehörige_Gemeinde"},"district":{"key":"12060","name":"Barnim","type":"Landkreis"},"federalState":{"key":"12","name":"Brandenburg"}},{"name":"Hohensaatener Str.","postalCode":"16248","locality":"Lunow-Stolzenhagen","municipality":{"key":"12060149","name":"Lunow-Stolzenhagen","type":"Kreisangehörige_Gemeinde"},"district":{"key":"12060","name":"Barnim","type":"Landkreis"},"federalState":{"key":"12","name":"Brandenburg"}},{"name":"Ihlower Ring","postalCode":"15377","locality":"Oberbarnim","municipality":{"key":"12064370","name":"Oberbarnim","type":"Kreisangehörige_Gemeinde"},"district":{"key":"12064","name":"Märkisch-Oderland","type":"Landkreis"},"federalState":{"key":"12","name":"Brandenburg"}},{"name":"Jasminweg","postalCode":"15377","locality":"Oberbarnim","municipality":{"key":"12064370","name":"Oberbarnim","type":"Kreisangehörige_Gemeinde"},"district":{"key":"12064","name":"Märkisch-Oderland","type":"Landkreis"},"federalState":{"key":"12","name":"Brandenburg"}},{"name":"Kameruner Str.","postalCode":"16248","locality":"Lunow-Stolzenhagen","municipality":{"key":"12060149","name":"Lunow-Stolzenhagen","type":"Kreisangehörige_Gemeinde"},"district":{"key":"12060","name":"Barnim","type":"Landkreis"},"federalState":{"key":"12","name":"Brandenburg"}},{"name":"Kastanienallee","postalCode":"16248","locality":"Lunow-Stolzenhagen","municipality":{"key":"12060149","name":"Lunow-Stolzenhagen","type":"Kreisangehörige_Gemeinde"},"district":{"key":"12060","name":"Barnim","type":"Landkreis"},"federalState":{"key":"12","name":"Brandenburg"}},{"name":"Kietz","postalCode":"16248","locality":"Lunow-Stolzenhagen","municipality":{"key":"12060149","name":"Lunow-Stolzenhagen","type":"Kreisangehörige_Gemeinde"},"district":{"key":"12060","name":"Barnim","type":"Landkreis"},"federalState":{"key":"12","name":"Brandenburg"}},{"name":"Lehrpfad Eiszeit","postalCode":"16248","locality":"Lunow-Stolzenhagen","municipality":{"key":"12060149","name":"Lunow-Stolzenhagen","type":"Kreisangehörige_Gemeinde"},"district":{"key":"12060","name":"Barnim","type":"Landkreis"},"federalState":{"key":"12","name":"Brandenburg"}},{"name":"Lüdersdorfer Str.","postalCode":"16248","locality":"Lunow-Stolzenhagen","municipality":{"key":"12060149","name":"Lunow-Stolzenhagen","type":"Kreisangehörige_Gemeinde"},"district":{"key":"12060","name":"Barnim","type":"Landkreis"},"federalState":{"key":"12","name":"Brandenburg"}},{"name":"Magnolienweg","postalCode":"15377","locality":"Oberbarnim","municipality":{"key":"12064370","name":"Oberbarnim","type":"Kreisangehörige_Gemeinde"},"district":{"key":"12064","name":"Märkisch-Oderland","type":"Landkreis"},"federalState":{"key":"12","name":"Brandenburg"}},{"name":"Mittelstr.","postalCode":"15377","locality":"Oberbarnim","municipality":{"key":"12064370","name":"Oberbarnim","type":"Kreisangehörige_Gemeinde"},"district":{"key":"12064","name":"Märkisch-Oderland","type":"Landkreis"},"federalState":{"key":"12","name":"Brandenburg"}},{"name":"Mittelweg","postalCode":"15377","locality":"Oberbarnim","municipality":{"key":"12064370","name":"Oberbarnim","type":"Kreisangehörige_Gemeinde"},"district":{"key":"12064","name":"Märkisch-Oderland","type":"Landkreis"},"federalState":{"key":"12","name":"Brandenburg"}},{"name":"Müncheberger Chaussee","postalCode":"15377","locality":"Oberbarnim","municipality":{"key":"12064370","name":"Oberbarnim","type":"Kreisangehörige_Gemeinde"},"district":{"key":"12064","name":"Märkisch-Oderland","type":"Landkreis"},"federalState":{"key":"12","name":"Brandenburg"}},{"name":"Narzissenweg","postalCode":"15377","locality":"Oberbarnim","municipality":{"key":"12064370","name":"Oberbarnim","type":"Kreisangehörige_Gemeinde"},"district":{"key":"12064","name":"Märkisch-Oderland","type":"Landkreis"},"federalState":{"key":"12","name":"Brandenburg"}},{"name":"Oderberger Str.","postalCode":"16248","locality":"Lunow-Stolzenhagen","municipality":{"key":"12060149","name":"Lunow-Stolzenhagen","type":"Kreisangehörige_Gemeinde"},"district":{"key":"12060","name":"Barnim","type":"Landkreis"},"federalState":{"key":"12","name":"Brandenburg"}},{"name":"Prädikower Weg","postalCode":"15377","locality":"Oberbarnim","municipality":{"key":"12064370","name":"Oberbarnim","type":"Kreisangehörige_Gemeinde"},"district":{"key":"12064","name":"Märkisch-Oderland","type":"Landkreis"},"federalState":{"key":"12","name":"Brandenburg"}},{"name":"Reichenberger Chaussee","postalCode":"15377","locality":"Oberbarnim","municipality":{"key":"12064370","name":"Oberbarnim","type":"Kreisangehörige_Gemeinde"},"district":{"key":"12064","name":"Märkisch-Oderland","type":"Landkreis"},"federalState":{"key":"12","name":"Brandenburg"}},{"name":"Reichenberger Str.","postalCode":"15377","locality":"Oberbarnim","municipality":{"key":"12064370","name":"Oberbarnim","type":"Kreisangehörige_Gemeinde"},"district":{"key":"12064","name":"Märkisch-Oderland","type":"Landkreis"},"federalState":{"key":"12","name":"Brandenburg"}},{"name":"Reichenower Str.","postalCode":"15377","locality":"Oberbarnim","municipality":{"key":"12064370","name":"Oberbarnim","type":"Kreisangehörige_Gemeinde"},"district":{"key":"12064","name":"Märkisch-Oderland","type":"Landkreis"},"federalState":{"key":"12","name":"Brandenburg"}},{"name":"Ringstr.","postalCode":"15377","locality":"Oberbarnim","municipality":{"key":"12064370","name":"Oberbarnim","type":"Kreisangehörige_Gemeinde"},"district":{"key":"12064","name":"Märkisch-Oderland","type":"Landkreis"},"federalState":{"key":"12","name":"Brandenburg"}},{"name":"Ruhlsdorfer Weg","postalCode":"15377","locality":"Oberbarnim","municipality":{"key":"12064370","name":"Oberbarnim","type":"Kreisangehörige_Gemeinde"},"district":{"key":"12064","name":"Märkisch-Oderland","type":"Landkreis"},"federalState":{"key":"12","name":"Brandenburg"}},{"name":"Schulstr.","postalCode":"16248","locality":"Lunow-Stolzenhagen","municipality":{"key":"12060149","name":"Lunow-Stolzenhagen","type":"Kreisangehörige_Gemeinde"},"district":{"key":"12060","name":"Barnim","type":"Landkreis"},"federalState":{"key":"12","name":"Brandenburg"}},{"name":"Silberkistenweg","postalCode":"16248","locality":"Lunow-Stolzenhagen","municipality":{"key":"12060149","name":"Lunow-Stolzenhagen","type":"Kreisangehörige_Gemeinde"},"district":{"key":"12060","name":"Barnim","type":"Landkreis"},"federalState":{"key":"12","name":"Brandenburg"}},{"name":"Sportlerweg","postalCode":"16248","locality":"Lunow-Stolzenhagen","municipality":{"key":"12060149","name":"Lunow-Stolzenhagen","type":"Kreisangehörige_Gemeinde"},"district":{"key":"12060","name":"Barnim","type":"Landkreis"},"federalState":{"key":"12","name":"Brandenburg"}},{"name":"Stolzenhagener Str.","postalCode":"16248","locality":"Lunow-Stolzenhagen","municipality":{"key":"12060149","name":"Lunow-Stolzenhagen","type":"Kreisangehörige_Gemeinde"},"district":{"key":"12060","name":"Barnim","type":"Landkreis"},"federalState":{"key":"12","name":"Brandenburg"}},{"name":"Tanneweg","postalCode":"15377","locality":"Oberbarnim","municipality":{"key":"12064370","name":"Oberbarnim","type":"Kreisangehörige_Gemeinde"},"district":{"key":"12064","name":"Märkisch-Oderland","type":"Landkreis"},"federalState":{"key":"12","name":"Brandenburg"}},{"name":"Vogelsang","postalCode":"16248","locality":"Lunow-Stolzenhagen","municipality":{"key":"12060149","name":"Lunow-Stolzenhagen","type":"Kreisangehörige_Gemeinde"},"district":{"key":"12060","name":"Barnim","type":"Landkreis"},"federalState":{"key":"12","name":"Brandenburg"}},{"name":"Weinbergstr.","postalCode":"16248","locality":"Lunow-Stolzenhagen","municipality":{"key":"12060149","name":"Lunow-Stolzenhagen","type":"Kreisangehörige_Gemeinde"},"district":{"key":"12060","name":"Barnim","type":"Landkreis"},"federalState":{"key":"12","name":"Brandenburg"}},{"name":"Wiesengrund","postalCode":"16248","locality":"Lunow-Stolzenhagen","municipality":{"key":"12060149","name":"Lunow-Stolzenhagen","type":"Kreisangehörige_Gemeinde"},"district":{"key":"12060","name":"Barnim","type":"Landkreis"},"federalState":{"key":"12","name":"Brandenburg"}},{"name":"Wilhelmstr.","postalCode":"16248","locality":"Lunow-Stolzenhagen","municipality":{"key":"12060149","name":"Lunow-Stolzenhagen","type":"Kreisangehörige_Gemeinde"},"district":{"key":"12060","name":"Barnim","type":"Landkreis"},"federalState":{"key":"12","name":"Brandenburg"}},{"name":"Ziegeleiweg","postalCode":"16248","locality":"Lunow-Stolzenhagen","municipality":{"key":"12060149","name":"Lunow-Stolzenhagen","type":"Kreisangehörige_Gemeinde"},"district":{"key":"12060","name":"Barnim","type":"Landkreis"},"federalState":{"key":"12","name":"Brandenburg"}},]