[{"name":"Ahornring","postalCode":"29664","locality":"Walsrode","municipality":{"key":"03358024","name":"Walsrode, Stadt","type":"Stadt"},"district":{"key":"03358","name":"Heidekreis","type":"Landkreis"},"federalState":{"key":"03","name":"Niedersachsen"}},{"name":"Ahornstr.","postalCode":"29699","locality":"Walsrode","municipality":{"key":"03358024","name":"Walsrode, Stadt","type":"Stadt"},"district":{"key":"03358","name":"Heidekreis","type":"Landkreis"},"federalState":{"key":"03","name":"Niedersachsen"}},{"name":"Ahrsener Str.","postalCode":"29699","locality":"Walsrode","municipality":{"key":"03358024","name":"Walsrode, Stadt","type":"Stadt"},"district":{"key":"03358","name":"Heidekreis","type":"Landkreis"},"federalState":{"key":"03","name":"Niedersachsen"}},{"name":"Akazienstr.","postalCode":"29664","locality":"Walsrode","municipality":{"key":"03358024","name":"Walsrode, Stadt","type":"Stadt"},"district":{"key":"03358","name":"Heidekreis","type":"Landkreis"},"federalState":{"key":"03","name":"Niedersachsen"}},{"name":"Albrecht-Thaer-Str.","postalCode":"29664","locality":"Walsrode","municipality":{"key":"03358024","name":"Walsrode, Stadt","type":"Stadt"},"district":{"key":"03358","name":"Heidekreis","type":"Landkreis"},"federalState":{"key":"03","name":"Niedersachsen"}},{"name":"Alter Böstlinger Weg","postalCode":"29664","locality":"Walsrode","municipality":{"key":"03358024","name":"Walsrode, Stadt","type":"Stadt"},"district":{"key":"03358","name":"Heidekreis","type":"Landkreis"},"federalState":{"key":"03","name":"Niedersachsen"}},{"name":"Alter Celler Weg","postalCode":"29664","locality":"Walsrode","municipality":{"key":"03358024","name":"Walsrode, Stadt","type":"Stadt"},"district":{"key":"03358","name":"Heidekreis","type":"Landkreis"},"federalState":{"key":"03","name":"Niedersachsen"}},{"name":"Alter Postweg","postalCode":"29664","locality":"Walsrode","municipality":{"key":"03358024","name":"Walsrode, Stadt","type":"Stadt"},"district":{"key":"03358","name":"Heidekreis","type":"Landkreis"},"federalState":{"key":"03","name":"Niedersachsen"}},{"name":"Alter Schulweg","postalCode":"29664","locality":"Walsrode","municipality":{"key":"03358024","name":"Walsrode, Stadt","type":"Stadt"},"district":{"key":"03358","name":"Heidekreis","type":"Landkreis"},"federalState":{"key":"03","name":"Niedersachsen"}},{"name":"Am Anger","postalCode":"29664","locality":"Walsrode","municipality":{"key":"03358024","name":"Walsrode, Stadt","type":"Stadt"},"district":{"key":"03358","name":"Heidekreis","type":"Landkreis"},"federalState":{"key":"03","name":"Niedersachsen"}},{"name":"Am Anger","postalCode":"29699","locality":"Walsrode","municipality":{"key":"03358024","name":"Walsrode, Stadt","type":"Stadt"},"district":{"key":"03358","name":"Heidekreis","type":"Landkreis"},"federalState":{"key":"03","name":"Niedersachsen"}},{"name":"Am Badeteich","postalCode":"29664","locality":"Walsrode","municipality":{"key":"03358024","name":"Walsrode, Stadt","type":"Stadt"},"district":{"key":"03358","name":"Heidekreis","type":"Landkreis"},"federalState":{"key":"03","name":"Niedersachsen"}},{"name":"Am Bahndamm","postalCode":"29664","locality":"Walsrode","municipality":{"key":"03358024","name":"Walsrode, Stadt","type":"Stadt"},"district":{"key":"03358","name":"Heidekreis","type":"Landkreis"},"federalState":{"key":"03","name":"Niedersachsen"}},{"name":"Am Bahnhof","postalCode":"29664","locality":"Walsrode","municipality":{"key":"03358024","name":"Walsrode, Stadt","type":"Stadt"},"district":{"key":"03358","name":"Heidekreis","type":"Landkreis"},"federalState":{"key":"03","name":"Niedersachsen"}},{"name":"Am Beetenbusch","postalCode":"29664","locality":"Walsrode","municipality":{"key":"03358024","name":"Walsrode, Stadt","type":"Stadt"},"district":{"key":"03358","name":"Heidekreis","type":"Landkreis"},"federalState":{"key":"03","name":"Niedersachsen"}},{"name":"Am Berge","postalCode":"29664","locality":"Walsrode","municipality":{"key":"03358024","name":"Walsrode, Stadt","type":"Stadt"},"district":{"key":"03358","name":"Heidekreis","type":"Landkreis"},"federalState":{"key":"03","name":"Niedersachsen"}},{"name":"Am Berge","postalCode":"29699","locality":"Walsrode","municipality":{"key":"03358024","name":"Walsrode, Stadt","type":"Stadt"},"district":{"key":"03358","name":"Heidekreis","type":"Landkreis"},"federalState":{"key":"03","name":"Niedersachsen"}},{"name":"Am Bockhorn","postalCode":"29664","locality":"Walsrode","municipality":{"key":"03358024","name":"Walsrode, Stadt","type":"Stadt"},"district":{"key":"03358","name":"Heidekreis","type":"Landkreis"},"federalState":{"key":"03","name":"Niedersachsen"}},{"name":"Am Böhmeufer","postalCode":"29699","locality":"Walsrode","municipality":{"key":"03358024","name":"Walsrode, Stadt","type":"Stadt"},"district":{"key":"03358","name":"Heidekreis","type":"Landkreis"},"federalState":{"key":"03","name":"Niedersachsen"}},{"name":"Am Breekamp","postalCode":"29699","locality":"Walsrode","municipality":{"key":"03358024","name":"Walsrode, Stadt","type":"Stadt"},"district":{"key":"03358","name":"Heidekreis","type":"Landkreis"},"federalState":{"key":"03","name":"Niedersachsen"}},{"name":"Am Bullerberg","postalCode":"29664","locality":"Walsrode","municipality":{"key":"03358024","name":"Walsrode, Stadt","type":"Stadt"},"district":{"key":"03358","name":"Heidekreis","type":"Landkreis"},"federalState":{"key":"03","name":"Niedersachsen"}},{"name":"Am Diekkamp","postalCode":"29699","locality":"Walsrode","municipality":{"key":"03358024","name":"Walsrode, Stadt","type":"Stadt"},"district":{"key":"03358","name":"Heidekreis","type":"Landkreis"},"federalState":{"key":"03","name":"Niedersachsen"}},{"name":"Am Dornbusch","postalCode":"29664","locality":"Walsrode","municipality":{"key":"03358024","name":"Walsrode, Stadt","type":"Stadt"},"district":{"key":"03358","name":"Heidekreis","type":"Landkreis"},"federalState":{"key":"03","name":"Niedersachsen"}},{"name":"Am Eichenkamp","postalCode":"29699","locality":"Walsrode","municipality":{"key":"03358024","name":"Walsrode, Stadt","type":"Stadt"},"district":{"key":"03358","name":"Heidekreis","type":"Landkreis"},"federalState":{"key":"03","name":"Niedersachsen"}},{"name":"Am Engelbach","postalCode":"29699","locality":"Walsrode","municipality":{"key":"03358024","name":"Walsrode, Stadt","type":"Stadt"},"district":{"key":"03358","name":"Heidekreis","type":"Landkreis"},"federalState":{"key":"03","name":"Niedersachsen"}},{"name":"Am Fischteich","postalCode":"29699","locality":"Walsrode","municipality":{"key":"03358024","name":"Walsrode, Stadt","type":"Stadt"},"district":{"key":"03358","name":"Heidekreis","type":"Landkreis"},"federalState":{"key":"03","name":"Niedersachsen"}},{"name":"Am Glockenberg","postalCode":"29664","locality":"Walsrode","municipality":{"key":"03358024","name":"Walsrode, Stadt","type":"Stadt"},"district":{"key":"03358","name":"Heidekreis","type":"Landkreis"},"federalState":{"key":"03","name":"Niedersachsen"}},{"name":"Am Großen Busch","postalCode":"29699","locality":"Walsrode","municipality":{"key":"03358024","name":"Walsrode, Stadt","type":"Stadt"},"district":{"key":"03358","name":"Heidekreis","type":"Landkreis"},"federalState":{"key":"03","name":"Niedersachsen"}},{"name":"Am Habichtskamp","postalCode":"29699","locality":"Walsrode","municipality":{"key":"03358024","name":"Walsrode, Stadt","type":"Stadt"},"district":{"key":"03358","name":"Heidekreis","type":"Landkreis"},"federalState":{"key":"03","name":"Niedersachsen"}},{"name":"Am Hang","postalCode":"29664","locality":"Walsrode","municipality":{"key":"03358024","name":"Walsrode, Stadt","type":"Stadt"},"district":{"key":"03358","name":"Heidekreis","type":"Landkreis"},"federalState":{"key":"03","name":"Niedersachsen"}},{"name":"Am Haselbusch","postalCode":"29699","locality":"Walsrode","municipality":{"key":"03358024","name":"Walsrode, Stadt","type":"Stadt"},"district":{"key":"03358","name":"Heidekreis","type":"Landkreis"},"federalState":{"key":"03","name":"Niedersachsen"}},{"name":"Am Hellteich","postalCode":"29664","locality":"Walsrode","municipality":{"key":"03358024","name":"Walsrode, Stadt","type":"Stadt"},"district":{"key":"03358","name":"Heidekreis","type":"Landkreis"},"federalState":{"key":"03","name":"Niedersachsen"}},{"name":"Am Hofe","postalCode":"29699","locality":"Walsrode","municipality":{"key":"03358024","name":"Walsrode, Stadt","type":"Stadt"},"district":{"key":"03358","name":"Heidekreis","type":"Landkreis"},"federalState":{"key":"03","name":"Niedersachsen"}},{"name":"Am Hoop","postalCode":"29699","locality":"Walsrode","municipality":{"key":"03358024","name":"Walsrode, Stadt","type":"Stadt"},"district":{"key":"03358","name":"Heidekreis","type":"Landkreis"},"federalState":{"key":"03","name":"Niedersachsen"}},{"name":"Am Hopfenhof","postalCode":"29664","locality":"Walsrode","municipality":{"key":"03358024","name":"Walsrode, Stadt","type":"Stadt"},"district":{"key":"03358","name":"Heidekreis","type":"Landkreis"},"federalState":{"key":"03","name":"Niedersachsen"}},{"name":"Am Imbesbach","postalCode":"29664","locality":"Walsrode","municipality":{"key":"03358024","name":"Walsrode, Stadt","type":"Stadt"},"district":{"key":"03358","name":"Heidekreis","type":"Landkreis"},"federalState":{"key":"03","name":"Niedersachsen"}},{"name":"Am Karbödel","postalCode":"29699","locality":"Walsrode","municipality":{"key":"03358024","name":"Walsrode, Stadt","type":"Stadt"},"district":{"key":"03358","name":"Heidekreis","type":"Landkreis"},"federalState":{"key":"03","name":"Niedersachsen"}},{"name":"Am Katzengrund","postalCode":"29699","locality":"Walsrode","municipality":{"key":"03358024","name":"Walsrode, Stadt","type":"Stadt"},"district":{"key":"03358","name":"Heidekreis","type":"Landkreis"},"federalState":{"key":"03","name":"Niedersachsen"}},{"name":"Am Kloster","postalCode":"29664","locality":"Walsrode","municipality":{"key":"03358024","name":"Walsrode, Stadt","type":"Stadt"},"district":{"key":"03358","name":"Heidekreis","type":"Landkreis"},"federalState":{"key":"03","name":"Niedersachsen"}},{"name":"Am Mühlenhof","postalCode":"29699","locality":"Walsrode","municipality":{"key":"03358024","name":"Walsrode, Stadt","type":"Stadt"},"district":{"key":"03358","name":"Heidekreis","type":"Landkreis"},"federalState":{"key":"03","name":"Niedersachsen"}},{"name":"Am Mühlenteich","postalCode":"29664","locality":"Walsrode","municipality":{"key":"03358024","name":"Walsrode, Stadt","type":"Stadt"},"district":{"key":"03358","name":"Heidekreis","type":"Landkreis"},"federalState":{"key":"03","name":"Niedersachsen"}},{"name":"Am Nordsunder","postalCode":"29664","locality":"Walsrode","municipality":{"key":"03358024","name":"Walsrode, Stadt","type":"Stadt"},"district":{"key":"03358","name":"Heidekreis","type":"Landkreis"},"federalState":{"key":"03","name":"Niedersachsen"}},{"name":"Am Osterbruch","postalCode":"29664","locality":"Walsrode","municipality":{"key":"03358024","name":"Walsrode, Stadt","type":"Stadt"},"district":{"key":"03358","name":"Heidekreis","type":"Landkreis"},"federalState":{"key":"03","name":"Niedersachsen"}},{"name":"Am Pascheberg","postalCode":"29664","locality":"Walsrode","municipality":{"key":"03358024","name":"Walsrode, Stadt","type":"Stadt"},"district":{"key":"03358","name":"Heidekreis","type":"Landkreis"},"federalState":{"key":"03","name":"Niedersachsen"}},{"name":"Am Riesbach","postalCode":"29699","locality":"Walsrode","municipality":{"key":"03358024","name":"Walsrode, Stadt","type":"Stadt"},"district":{"key":"03358","name":"Heidekreis","type":"Landkreis"},"federalState":{"key":"03","name":"Niedersachsen"}},{"name":"Am Rosengarten","postalCode":"29664","locality":"Walsrode","municipality":{"key":"03358024","name":"Walsrode, Stadt","type":"Stadt"},"district":{"key":"03358","name":"Heidekreis","type":"Landkreis"},"federalState":{"key":"03","name":"Niedersachsen"}},{"name":"Am Sandstich","postalCode":"29699","locality":"Walsrode","municipality":{"key":"03358024","name":"Walsrode, Stadt","type":"Stadt"},"district":{"key":"03358","name":"Heidekreis","type":"Landkreis"},"federalState":{"key":"03","name":"Niedersachsen"}},{"name":"Am Scharfen Berge","postalCode":"29664","locality":"Walsrode","municipality":{"key":"03358024","name":"Walsrode, Stadt","type":"Stadt"},"district":{"key":"03358","name":"Heidekreis","type":"Landkreis"},"federalState":{"key":"03","name":"Niedersachsen"}},{"name":"Amselsteig","postalCode":"29699","locality":"Walsrode","municipality":{"key":"03358024","name":"Walsrode, Stadt","type":"Stadt"},"district":{"key":"03358","name":"Heidekreis","type":"Landkreis"},"federalState":{"key":"03","name":"Niedersachsen"}},{"name":"Amselweg","postalCode":"29664","locality":"Walsrode","municipality":{"key":"03358024","name":"Walsrode, Stadt","type":"Stadt"},"district":{"key":"03358","name":"Heidekreis","type":"Landkreis"},"federalState":{"key":"03","name":"Niedersachsen"}},{"name":"Bahnhofstr.","postalCode":"29664","locality":"Walsrode","municipality":{"key":"03358024","name":"Walsrode, Stadt","type":"Stadt"},"district":{"key":"03358","name":"Heidekreis","type":"Landkreis"},"federalState":{"key":"03","name":"Niedersachsen"}},{"name":"Bahnhofstr.","postalCode":"29699","locality":"Walsrode","municipality":{"key":"03358024","name":"Walsrode, Stadt","type":"Stadt"},"district":{"key":"03358","name":"Heidekreis","type":"Landkreis"},"federalState":{"key":"03","name":"Niedersachsen"}},{"name":"Baitgersweg","postalCode":"29699","locality":"Walsrode","municipality":{"key":"03358024","name":"Walsrode, Stadt","type":"Stadt"},"district":{"key":"03358","name":"Heidekreis","type":"Landkreis"},"federalState":{"key":"03","name":"Niedersachsen"}},{"name":"Bayershofer Weg","postalCode":"29699","locality":"Walsrode","municipality":{"key":"03358024","name":"Walsrode, Stadt","type":"Stadt"},"district":{"key":"03358","name":"Heidekreis","type":"Landkreis"},"federalState":{"key":"03","name":"Niedersachsen"}},{"name":"Beckersberg","postalCode":"29664","locality":"Walsrode","municipality":{"key":"03358024","name":"Walsrode, Stadt","type":"Stadt"},"district":{"key":"03358","name":"Heidekreis","type":"Landkreis"},"federalState":{"key":"03","name":"Niedersachsen"}},{"name":"Beethovenstr.","postalCode":"29664","locality":"Walsrode","municipality":{"key":"03358024","name":"Walsrode, Stadt","type":"Stadt"},"district":{"key":"03358","name":"Heidekreis","type":"Landkreis"},"federalState":{"key":"03","name":"Niedersachsen"}},{"name":"Beethovenstr.","postalCode":"29699","locality":"Walsrode","municipality":{"key":"03358024","name":"Walsrode, Stadt","type":"Stadt"},"district":{"key":"03358","name":"Heidekreis","type":"Landkreis"},"federalState":{"key":"03","name":"Niedersachsen"}},{"name":"Beim Ginsterfeld","postalCode":"29699","locality":"Walsrode","municipality":{"key":"03358024","name":"Walsrode, Stadt","type":"Stadt"},"district":{"key":"03358","name":"Heidekreis","type":"Landkreis"},"federalState":{"key":"03","name":"Niedersachsen"}},{"name":"Beim Vorwerk","postalCode":"29664","locality":"Walsrode","municipality":{"key":"03358024","name":"Walsrode, Stadt","type":"Stadt"},"district":{"key":"03358","name":"Heidekreis","type":"Landkreis"},"federalState":{"key":"03","name":"Niedersachsen"}},{"name":"Benefelder Kirchweg","postalCode":"29699","locality":"Walsrode","municipality":{"key":"03358024","name":"Walsrode, Stadt","type":"Stadt"},"district":{"key":"03358","name":"Heidekreis","type":"Landkreis"},"federalState":{"key":"03","name":"Niedersachsen"}},{"name":"Benefelder Str.","postalCode":"29664","locality":"Walsrode","municipality":{"key":"03358024","name":"Walsrode, Stadt","type":"Stadt"},"district":{"key":"03358","name":"Heidekreis","type":"Landkreis"},"federalState":{"key":"03","name":"Niedersachsen"}},{"name":"Benefelder Str.","postalCode":"29699","locality":"Walsrode","municipality":{"key":"03358024","name":"Walsrode, Stadt","type":"Stadt"},"district":{"key":"03358","name":"Heidekreis","type":"Landkreis"},"federalState":{"key":"03","name":"Niedersachsen"}},{"name":"Benzer Kirchsteig","postalCode":"29664","locality":"Walsrode","municipality":{"key":"03358024","name":"Walsrode, Stadt","type":"Stadt"},"district":{"key":"03358","name":"Heidekreis","type":"Landkreis"},"federalState":{"key":"03","name":"Niedersachsen"}},{"name":"Benzer Str.","postalCode":"29664","locality":"Walsrode","municipality":{"key":"03358024","name":"Walsrode, Stadt","type":"Stadt"},"district":{"key":"03358","name":"Heidekreis","type":"Landkreis"},"federalState":{"key":"03","name":"Niedersachsen"}},{"name":"Benzer Winkel","postalCode":"29664","locality":"Walsrode","municipality":{"key":"03358024","name":"Walsrode, Stadt","type":"Stadt"},"district":{"key":"03358","name":"Heidekreis","type":"Landkreis"},"federalState":{"key":"03","name":"Niedersachsen"}},{"name":"Bergstr.","postalCode":"29664","locality":"Walsrode","municipality":{"key":"03358024","name":"Walsrode, Stadt","type":"Stadt"},"district":{"key":"03358","name":"Heidekreis","type":"Landkreis"},"federalState":{"key":"03","name":"Niedersachsen"}},{"name":"Bergstr.","postalCode":"29699","locality":"Walsrode","municipality":{"key":"03358024","name":"Walsrode, Stadt","type":"Stadt"},"district":{"key":"03358","name":"Heidekreis","type":"Landkreis"},"federalState":{"key":"03","name":"Niedersachsen"}},{"name":"Berthold-Schwarz-Str.","postalCode":"29699","locality":"Walsrode","municipality":{"key":"03358024","name":"Walsrode, Stadt","type":"Stadt"},"district":{"key":"03358","name":"Heidekreis","type":"Landkreis"},"federalState":{"key":"03","name":"Niedersachsen"}},{"name":"Birkenstr.","postalCode":"29699","locality":"Walsrode","municipality":{"key":"03358024","name":"Walsrode, Stadt","type":"Stadt"},"district":{"key":"03358","name":"Heidekreis","type":"Landkreis"},"federalState":{"key":"03","name":"Niedersachsen"}},{"name":"Birkenweg","postalCode":"29664","locality":"Walsrode","municipality":{"key":"03358024","name":"Walsrode, Stadt","type":"Stadt"},"district":{"key":"03358","name":"Heidekreis","type":"Landkreis"},"federalState":{"key":"03","name":"Niedersachsen"}},{"name":"Bismarckring","postalCode":"29664","locality":"Walsrode","municipality":{"key":"03358024","name":"Walsrode, Stadt","type":"Stadt"},"district":{"key":"03358","name":"Heidekreis","type":"Landkreis"},"federalState":{"key":"03","name":"Niedersachsen"}},{"name":"Blainville-Ring","postalCode":"29699","locality":"Walsrode","municipality":{"key":"03358024","name":"Walsrode, Stadt","type":"Stadt"},"district":{"key":"03358","name":"Heidekreis","type":"Landkreis"},"federalState":{"key":"03","name":"Niedersachsen"}},{"name":"Blankemühlen","postalCode":"29664","locality":"Walsrode","municipality":{"key":"03358024","name":"Walsrode, Stadt","type":"Stadt"},"district":{"key":"03358","name":"Heidekreis","type":"Landkreis"},"federalState":{"key":"03","name":"Niedersachsen"}},{"name":"Bleiche","postalCode":"29664","locality":"Walsrode","municipality":{"key":"03358024","name":"Walsrode, Stadt","type":"Stadt"},"district":{"key":"03358","name":"Heidekreis","type":"Landkreis"},"federalState":{"key":"03","name":"Niedersachsen"}},{"name":"Blockshornsweg","postalCode":"29664","locality":"Walsrode","municipality":{"key":"03358024","name":"Walsrode, Stadt","type":"Stadt"},"district":{"key":"03358","name":"Heidekreis","type":"Landkreis"},"federalState":{"key":"03","name":"Niedersachsen"}},{"name":"Bockhorn","postalCode":"29664","locality":"Walsrode","municipality":{"key":"03358024","name":"Walsrode, Stadt","type":"Stadt"},"district":{"key":"03358","name":"Heidekreis","type":"Landkreis"},"federalState":{"key":"03","name":"Niedersachsen"}},{"name":"Bockhorner Weg","postalCode":"29664","locality":"Walsrode","municipality":{"key":"03358024","name":"Walsrode, Stadt","type":"Stadt"},"district":{"key":"03358","name":"Heidekreis","type":"Landkreis"},"federalState":{"key":"03","name":"Niedersachsen"}},{"name":"Bomlitzer Str.","postalCode":"29664","locality":"Walsrode","municipality":{"key":"03358024","name":"Walsrode, Stadt","type":"Stadt"},"district":{"key":"03358","name":"Heidekreis","type":"Landkreis"},"federalState":{"key":"03","name":"Niedersachsen"}},{"name":"Bommelser Str.","postalCode":"29699","locality":"Walsrode","municipality":{"key":"03358024","name":"Walsrode, Stadt","type":"Stadt"},"district":{"key":"03358","name":"Heidekreis","type":"Landkreis"},"federalState":{"key":"03","name":"Niedersachsen"}},{"name":"Borger Steg","postalCode":"29664","locality":"Walsrode","municipality":{"key":"03358024","name":"Walsrode, Stadt","type":"Stadt"},"district":{"key":"03358","name":"Heidekreis","type":"Landkreis"},"federalState":{"key":"03","name":"Niedersachsen"}},{"name":"Borger Steg","postalCode":"29699","locality":"Walsrode","municipality":{"key":"03358024","name":"Walsrode, Stadt","type":"Stadt"},"district":{"key":"03358","name":"Heidekreis","type":"Landkreis"},"federalState":{"key":"03","name":"Niedersachsen"}},{"name":"Bosselmoor","postalCode":"29699","locality":"Walsrode","municipality":{"key":"03358024","name":"Walsrode, Stadt","type":"Stadt"},"district":{"key":"03358","name":"Heidekreis","type":"Landkreis"},"federalState":{"key":"03","name":"Niedersachsen"}},{"name":"Brammerweg","postalCode":"29664","locality":"Walsrode","municipality":{"key":"03358024","name":"Walsrode, Stadt","type":"Stadt"},"district":{"key":"03358","name":"Heidekreis","type":"Landkreis"},"federalState":{"key":"03","name":"Niedersachsen"}},{"name":"Brandsheide","postalCode":"29699","locality":"Walsrode","municipality":{"key":"03358024","name":"Walsrode, Stadt","type":"Stadt"},"district":{"key":"03358","name":"Heidekreis","type":"Landkreis"},"federalState":{"key":"03","name":"Niedersachsen"}},{"name":"Breslauer Str.","postalCode":"29699","locality":"Walsrode","municipality":{"key":"03358024","name":"Walsrode, Stadt","type":"Stadt"},"district":{"key":"03358","name":"Heidekreis","type":"Landkreis"},"federalState":{"key":"03","name":"Niedersachsen"}},{"name":"Breslauer Weg","postalCode":"29664","locality":"Walsrode","municipality":{"key":"03358024","name":"Walsrode, Stadt","type":"Stadt"},"district":{"key":"03358","name":"Heidekreis","type":"Landkreis"},"federalState":{"key":"03","name":"Niedersachsen"}},{"name":"Bromberger Str.","postalCode":"29664","locality":"Walsrode","municipality":{"key":"03358024","name":"Walsrode, Stadt","type":"Stadt"},"district":{"key":"03358","name":"Heidekreis","type":"Landkreis"},"federalState":{"key":"03","name":"Niedersachsen"}},{"name":"Bronzeweg","postalCode":"29664","locality":"Walsrode","municipality":{"key":"03358024","name":"Walsrode, Stadt","type":"Stadt"},"district":{"key":"03358","name":"Heidekreis","type":"Landkreis"},"federalState":{"key":"03","name":"Niedersachsen"}},{"name":"Bruchweg","postalCode":"29664","locality":"Walsrode","municipality":{"key":"03358024","name":"Walsrode, Stadt","type":"Stadt"},"district":{"key":"03358","name":"Heidekreis","type":"Landkreis"},"federalState":{"key":"03","name":"Niedersachsen"}},{"name":"Brückstr.","postalCode":"29664","locality":"Walsrode","municipality":{"key":"03358024","name":"Walsrode, Stadt","type":"Stadt"},"district":{"key":"03358","name":"Heidekreis","type":"Landkreis"},"federalState":{"key":"03","name":"Niedersachsen"}},{"name":"Brüggemannstr.","postalCode":"29664","locality":"Walsrode","municipality":{"key":"03358024","name":"Walsrode, Stadt","type":"Stadt"},"district":{"key":"03358","name":"Heidekreis","type":"Landkreis"},"federalState":{"key":"03","name":"Niedersachsen"}},{"name":"Brunkenwinkel","postalCode":"29664","locality":"Walsrode","municipality":{"key":"03358024","name":"Walsrode, Stadt","type":"Stadt"},"district":{"key":"03358","name":"Heidekreis","type":"Landkreis"},"federalState":{"key":"03","name":"Niedersachsen"}},{"name":"Buchenweg","postalCode":"29664","locality":"Walsrode","municipality":{"key":"03358024","name":"Walsrode, Stadt","type":"Stadt"},"district":{"key":"03358","name":"Heidekreis","type":"Landkreis"},"federalState":{"key":"03","name":"Niedersachsen"}},{"name":"Burnplatz","postalCode":"29664","locality":"Walsrode","municipality":{"key":"03358024","name":"Walsrode, Stadt","type":"Stadt"},"district":{"key":"03358","name":"Heidekreis","type":"Landkreis"},"federalState":{"key":"03","name":"Niedersachsen"}},{"name":"Bussen Barg","postalCode":"29664","locality":"Walsrode","municipality":{"key":"03358024","name":"Walsrode, Stadt","type":"Stadt"},"district":{"key":"03358","name":"Heidekreis","type":"Landkreis"},"federalState":{"key":"03","name":"Niedersachsen"}},{"name":"Caroline-Herschel-Str.","postalCode":"29664","locality":"Walsrode","municipality":{"key":"03358024","name":"Walsrode, Stadt","type":"Stadt"},"district":{"key":"03358","name":"Heidekreis","type":"Landkreis"},"federalState":{"key":"03","name":"Niedersachsen"}},{"name":"Caroline-von-Marschalck-Str.","postalCode":"29664","locality":"Walsrode","municipality":{"key":"03358024","name":"Walsrode, Stadt","type":"Stadt"},"district":{"key":"03358","name":"Heidekreis","type":"Landkreis"},"federalState":{"key":"03","name":"Niedersachsen"}},{"name":"Celler Heerstr.","postalCode":"29664","locality":"Walsrode","municipality":{"key":"03358024","name":"Walsrode, Stadt","type":"Stadt"},"district":{"key":"03358","name":"Heidekreis","type":"Landkreis"},"federalState":{"key":"03","name":"Niedersachsen"}},{"name":"Celler Str.","postalCode":"29664","locality":"Walsrode","municipality":{"key":"03358024","name":"Walsrode, Stadt","type":"Stadt"},"district":{"key":"03358","name":"Heidekreis","type":"Landkreis"},"federalState":{"key":"03","name":"Niedersachsen"}},{"name":"Claudiusstr.","postalCode":"29664","locality":"Walsrode","municipality":{"key":"03358024","name":"Walsrode, Stadt","type":"Stadt"},"district":{"key":"03358","name":"Heidekreis","type":"Landkreis"},"federalState":{"key":"03","name":"Niedersachsen"}},{"name":"Cordinger Str.","postalCode":"29699","locality":"Walsrode","municipality":{"key":"03358024","name":"Walsrode, Stadt","type":"Stadt"},"district":{"key":"03358","name":"Heidekreis","type":"Landkreis"},"federalState":{"key":"03","name":"Niedersachsen"}},{"name":"Dammstr.","postalCode":"29664","locality":"Walsrode","municipality":{"key":"03358024","name":"Walsrode, Stadt","type":"Stadt"},"district":{"key":"03358","name":"Heidekreis","type":"Landkreis"},"federalState":{"key":"03","name":"Niedersachsen"}},{"name":"Danziger Str.","postalCode":"29664","locality":"Walsrode","municipality":{"key":"03358024","name":"Walsrode, Stadt","type":"Stadt"},"district":{"key":"03358","name":"Heidekreis","type":"Landkreis"},"federalState":{"key":"03","name":"Niedersachsen"}},{"name":"Danziger Weg","postalCode":"29699","locality":"Walsrode","municipality":{"key":"03358024","name":"Walsrode, Stadt","type":"Stadt"},"district":{"key":"03358","name":"Heidekreis","type":"Landkreis"},"federalState":{"key":"03","name":"Niedersachsen"}},{"name":"Dehnbosteler Weg","postalCode":"29699","locality":"Walsrode","municipality":{"key":"03358024","name":"Walsrode, Stadt","type":"Stadt"},"district":{"key":"03358","name":"Heidekreis","type":"Landkreis"},"federalState":{"key":"03","name":"Niedersachsen"}},{"name":"Deiler Heuweg","postalCode":"29664","locality":"Walsrode","municipality":{"key":"03358024","name":"Walsrode, Stadt","type":"Stadt"},"district":{"key":"03358","name":"Heidekreis","type":"Landkreis"},"federalState":{"key":"03","name":"Niedersachsen"}},{"name":"Deiler Weg","postalCode":"29664","locality":"Walsrode","municipality":{"key":"03358024","name":"Walsrode, Stadt","type":"Stadt"},"district":{"key":"03358","name":"Heidekreis","type":"Landkreis"},"federalState":{"key":"03","name":"Niedersachsen"}},{"name":"Dierkingstr.","postalCode":"29664","locality":"Walsrode","municipality":{"key":"03358024","name":"Walsrode, Stadt","type":"Stadt"},"district":{"key":"03358","name":"Heidekreis","type":"Landkreis"},"federalState":{"key":"03","name":"Niedersachsen"}},{"name":"Dorfallee","postalCode":"29664","locality":"Walsrode","municipality":{"key":"03358024","name":"Walsrode, Stadt","type":"Stadt"},"district":{"key":"03358","name":"Heidekreis","type":"Landkreis"},"federalState":{"key":"03","name":"Niedersachsen"}},{"name":"Dorfmarker Weg","postalCode":"29699","locality":"Walsrode","municipality":{"key":"03358024","name":"Walsrode, Stadt","type":"Stadt"},"district":{"key":"03358","name":"Heidekreis","type":"Landkreis"},"federalState":{"key":"03","name":"Niedersachsen"}},{"name":"Dorfstr.","postalCode":"29664","locality":"Walsrode","municipality":{"key":"03358024","name":"Walsrode, Stadt","type":"Stadt"},"district":{"key":"03358","name":"Heidekreis","type":"Landkreis"},"federalState":{"key":"03","name":"Niedersachsen"}},{"name":"Dorfstr.","postalCode":"29699","locality":"Walsrode","municipality":{"key":"03358024","name":"Walsrode, Stadt","type":"Stadt"},"district":{"key":"03358","name":"Heidekreis","type":"Landkreis"},"federalState":{"key":"03","name":"Niedersachsen"}},{"name":"Drosselkamp","postalCode":"29699","locality":"Walsrode","municipality":{"key":"03358024","name":"Walsrode, Stadt","type":"Stadt"},"district":{"key":"03358","name":"Heidekreis","type":"Landkreis"},"federalState":{"key":"03","name":"Niedersachsen"}},{"name":"Drosselweg","postalCode":"29664","locality":"Walsrode","municipality":{"key":"03358024","name":"Walsrode, Stadt","type":"Stadt"},"district":{"key":"03358","name":"Heidekreis","type":"Landkreis"},"federalState":{"key":"03","name":"Niedersachsen"}},{"name":"Dr.-Schomerus-Str.","postalCode":"29664","locality":"Walsrode","municipality":{"key":"03358024","name":"Walsrode, Stadt","type":"Stadt"},"district":{"key":"03358","name":"Heidekreis","type":"Landkreis"},"federalState":{"key":"03","name":"Niedersachsen"}},{"name":"Duannenweg","postalCode":"29664","locality":"Walsrode","municipality":{"key":"03358024","name":"Walsrode, Stadt","type":"Stadt"},"district":{"key":"03358","name":"Heidekreis","type":"Landkreis"},"federalState":{"key":"03","name":"Niedersachsen"}},{"name":"Dürerring","postalCode":"29664","locality":"Walsrode","municipality":{"key":"03358024","name":"Walsrode, Stadt","type":"Stadt"},"district":{"key":"03358","name":"Heidekreis","type":"Landkreis"},"federalState":{"key":"03","name":"Niedersachsen"}},{"name":"Düshorner Landstr.","postalCode":"29664","locality":"Walsrode","municipality":{"key":"03358024","name":"Walsrode, Stadt","type":"Stadt"},"district":{"key":"03358","name":"Heidekreis","type":"Landkreis"},"federalState":{"key":"03","name":"Niedersachsen"}},{"name":"Düsterweg","postalCode":"29664","locality":"Walsrode","municipality":{"key":"03358024","name":"Walsrode, Stadt","type":"Stadt"},"district":{"key":"03358","name":"Heidekreis","type":"Landkreis"},"federalState":{"key":"03","name":"Niedersachsen"}},{"name":"Ebbingen","postalCode":"29664","locality":"Walsrode","municipality":{"key":"03358024","name":"Walsrode, Stadt","type":"Stadt"},"district":{"key":"03358","name":"Heidekreis","type":"Landkreis"},"federalState":{"key":"03","name":"Niedersachsen"}},{"name":"Ebbinger Str.","postalCode":"29664","locality":"Walsrode","municipality":{"key":"03358024","name":"Walsrode, Stadt","type":"Stadt"},"district":{"key":"03358","name":"Heidekreis","type":"Landkreis"},"federalState":{"key":"03","name":"Niedersachsen"}},{"name":"Eibenweg","postalCode":"29664","locality":"Walsrode","municipality":{"key":"03358024","name":"Walsrode, Stadt","type":"Stadt"},"district":{"key":"03358","name":"Heidekreis","type":"Landkreis"},"federalState":{"key":"03","name":"Niedersachsen"}},{"name":"Eichendorffstr.","postalCode":"29699","locality":"Walsrode","municipality":{"key":"03358024","name":"Walsrode, Stadt","type":"Stadt"},"district":{"key":"03358","name":"Heidekreis","type":"Landkreis"},"federalState":{"key":"03","name":"Niedersachsen"}},{"name":"Eichenkamp","postalCode":"29664","locality":"Walsrode","municipality":{"key":"03358024","name":"Walsrode, Stadt","type":"Stadt"},"district":{"key":"03358","name":"Heidekreis","type":"Landkreis"},"federalState":{"key":"03","name":"Niedersachsen"}},{"name":"Eichenstr.","postalCode":"29664","locality":"Walsrode","municipality":{"key":"03358024","name":"Walsrode, Stadt","type":"Stadt"},"district":{"key":"03358","name":"Heidekreis","type":"Landkreis"},"federalState":{"key":"03","name":"Niedersachsen"}},{"name":"Elferdinger Str.","postalCode":"29699","locality":"Walsrode","municipality":{"key":"03358024","name":"Walsrode, Stadt","type":"Stadt"},"district":{"key":"03358","name":"Heidekreis","type":"Landkreis"},"federalState":{"key":"03","name":"Niedersachsen"}},{"name":"Elisabeth-Selbert-Str.","postalCode":"29664","locality":"Walsrode","municipality":{"key":"03358024","name":"Walsrode, Stadt","type":"Stadt"},"district":{"key":"03358","name":"Heidekreis","type":"Landkreis"},"federalState":{"key":"03","name":"Niedersachsen"}},{"name":"Ellinghausen","postalCode":"29664","locality":"Walsrode","municipality":{"key":"03358024","name":"Walsrode, Stadt","type":"Stadt"},"district":{"key":"03358","name":"Heidekreis","type":"Landkreis"},"federalState":{"key":"03","name":"Niedersachsen"}},{"name":"Ellinghäuser Str.","postalCode":"29664","locality":"Walsrode","municipality":{"key":"03358024","name":"Walsrode, Stadt","type":"Stadt"},"district":{"key":"03358","name":"Heidekreis","type":"Landkreis"},"federalState":{"key":"03","name":"Niedersachsen"}},{"name":"Erlenring","postalCode":"29699","locality":"Walsrode","municipality":{"key":"03358024","name":"Walsrode, Stadt","type":"Stadt"},"district":{"key":"03358","name":"Heidekreis","type":"Landkreis"},"federalState":{"key":"03","name":"Niedersachsen"}},{"name":"Erlenweg","postalCode":"29664","locality":"Walsrode","municipality":{"key":"03358024","name":"Walsrode, Stadt","type":"Stadt"},"district":{"key":"03358","name":"Heidekreis","type":"Landkreis"},"federalState":{"key":"03","name":"Niedersachsen"}},{"name":"Ernst-August-Str.","postalCode":"29664","locality":"Walsrode","municipality":{"key":"03358024","name":"Walsrode, Stadt","type":"Stadt"},"district":{"key":"03358","name":"Heidekreis","type":"Landkreis"},"federalState":{"key":"03","name":"Niedersachsen"}},{"name":"Ernst-Moritz-Arndt-Str.","postalCode":"29664","locality":"Walsrode","municipality":{"key":"03358024","name":"Walsrode, Stadt","type":"Stadt"},"district":{"key":"03358","name":"Heidekreis","type":"Landkreis"},"federalState":{"key":"03","name":"Niedersachsen"}},{"name":"Eschenring","postalCode":"29664","locality":"Walsrode","municipality":{"key":"03358024","name":"Walsrode, Stadt","type":"Stadt"},"district":{"key":"03358","name":"Heidekreis","type":"Landkreis"},"federalState":{"key":"03","name":"Niedersachsen"}},{"name":"Esseler Damm","postalCode":"29664","locality":"Walsrode","municipality":{"key":"03358024","name":"Walsrode, Stadt","type":"Stadt"},"district":{"key":"03358","name":"Heidekreis","type":"Landkreis"},"federalState":{"key":"03","name":"Niedersachsen"}},{"name":"Ettenbosteler Trift","postalCode":"29664","locality":"Walsrode","municipality":{"key":"03358024","name":"Walsrode, Stadt","type":"Stadt"},"district":{"key":"03358","name":"Heidekreis","type":"Landkreis"},"federalState":{"key":"03","name":"Niedersachsen"}},{"name":"Ettenbostler Weg","postalCode":"29664","locality":"Walsrode","municipality":{"key":"03358024","name":"Walsrode, Stadt","type":"Stadt"},"district":{"key":"03358","name":"Heidekreis","type":"Landkreis"},"federalState":{"key":"03","name":"Niedersachsen"}},{"name":"Fahrenholzer Weg","postalCode":"29664","locality":"Walsrode","municipality":{"key":"03358024","name":"Walsrode, Stadt","type":"Stadt"},"district":{"key":"03358","name":"Heidekreis","type":"Landkreis"},"federalState":{"key":"03","name":"Niedersachsen"}},{"name":"Fallingbosteler Str.","postalCode":"29664","locality":"Walsrode","municipality":{"key":"03358024","name":"Walsrode, Stadt","type":"Stadt"},"district":{"key":"03358","name":"Heidekreis","type":"Landkreis"},"federalState":{"key":"03","name":"Niedersachsen"}},{"name":"Fallingbosteler Str.","postalCode":"29699","locality":"Walsrode","municipality":{"key":"03358024","name":"Walsrode, Stadt","type":"Stadt"},"district":{"key":"03358","name":"Heidekreis","type":"Landkreis"},"federalState":{"key":"03","name":"Niedersachsen"}},{"name":"Fasanenweg","postalCode":"29699","locality":"Walsrode","municipality":{"key":"03358024","name":"Walsrode, Stadt","type":"Stadt"},"district":{"key":"03358","name":"Heidekreis","type":"Landkreis"},"federalState":{"key":"03","name":"Niedersachsen"}},{"name":"Feldstr.","postalCode":"29699","locality":"Walsrode","municipality":{"key":"03358024","name":"Walsrode, Stadt","type":"Stadt"},"district":{"key":"03358","name":"Heidekreis","type":"Landkreis"},"federalState":{"key":"03","name":"Niedersachsen"}},{"name":"Fichtenring","postalCode":"29699","locality":"Walsrode","municipality":{"key":"03358024","name":"Walsrode, Stadt","type":"Stadt"},"district":{"key":"03358","name":"Heidekreis","type":"Landkreis"},"federalState":{"key":"03","name":"Niedersachsen"}},{"name":"Fichtenweg","postalCode":"29664","locality":"Walsrode","municipality":{"key":"03358024","name":"Walsrode, Stadt","type":"Stadt"},"district":{"key":"03358","name":"Heidekreis","type":"Landkreis"},"federalState":{"key":"03","name":"Niedersachsen"}},{"name":"Finkenweg","postalCode":"29664","locality":"Walsrode","municipality":{"key":"03358024","name":"Walsrode, Stadt","type":"Stadt"},"district":{"key":"03358","name":"Heidekreis","type":"Landkreis"},"federalState":{"key":"03","name":"Niedersachsen"}},{"name":"Finkenweg","postalCode":"29699","locality":"Walsrode","municipality":{"key":"03358024","name":"Walsrode, Stadt","type":"Stadt"},"district":{"key":"03358","name":"Heidekreis","type":"Landkreis"},"federalState":{"key":"03","name":"Niedersachsen"}},{"name":"Flachsacker","postalCode":"29699","locality":"Walsrode","municipality":{"key":"03358024","name":"Walsrode, Stadt","type":"Stadt"},"district":{"key":"03358","name":"Heidekreis","type":"Landkreis"},"federalState":{"key":"03","name":"Niedersachsen"}},{"name":"Flachsröten","postalCode":"29664","locality":"Walsrode","municipality":{"key":"03358024","name":"Walsrode, Stadt","type":"Stadt"},"district":{"key":"03358","name":"Heidekreis","type":"Landkreis"},"federalState":{"key":"03","name":"Niedersachsen"}},{"name":"Fliederweg","postalCode":"29664","locality":"Walsrode","municipality":{"key":"03358024","name":"Walsrode, Stadt","type":"Stadt"},"district":{"key":"03358","name":"Heidekreis","type":"Landkreis"},"federalState":{"key":"03","name":"Niedersachsen"}},{"name":"Flötenkamp","postalCode":"29664","locality":"Walsrode","municipality":{"key":"03358024","name":"Walsrode, Stadt","type":"Stadt"},"district":{"key":"03358","name":"Heidekreis","type":"Landkreis"},"federalState":{"key":"03","name":"Niedersachsen"}},{"name":"Föhrenring","postalCode":"29699","locality":"Walsrode","municipality":{"key":"03358024","name":"Walsrode, Stadt","type":"Stadt"},"district":{"key":"03358","name":"Heidekreis","type":"Landkreis"},"federalState":{"key":"03","name":"Niedersachsen"}},{"name":"Frauenring","postalCode":"29664","locality":"Walsrode","municipality":{"key":"03358024","name":"Walsrode, Stadt","type":"Stadt"},"district":{"key":"03358","name":"Heidekreis","type":"Landkreis"},"federalState":{"key":"03","name":"Niedersachsen"}},{"name":"Freudenthalstr.","postalCode":"29664","locality":"Walsrode","municipality":{"key":"03358024","name":"Walsrode, Stadt","type":"Stadt"},"district":{"key":"03358","name":"Heidekreis","type":"Landkreis"},"federalState":{"key":"03","name":"Niedersachsen"}},{"name":"Freudenthalstr.","postalCode":"29699","locality":"Walsrode","municipality":{"key":"03358024","name":"Walsrode, Stadt","type":"Stadt"},"district":{"key":"03358","name":"Heidekreis","type":"Landkreis"},"federalState":{"key":"03","name":"Niedersachsen"}},{"name":"Friedhofsweg","postalCode":"29664","locality":"Walsrode","municipality":{"key":"03358024","name":"Walsrode, Stadt","type":"Stadt"},"district":{"key":"03358","name":"Heidekreis","type":"Landkreis"},"federalState":{"key":"03","name":"Niedersachsen"}},{"name":"Friedhofsweg","postalCode":"29699","locality":"Walsrode","municipality":{"key":"03358024","name":"Walsrode, Stadt","type":"Stadt"},"district":{"key":"03358","name":"Heidekreis","type":"Landkreis"},"federalState":{"key":"03","name":"Niedersachsen"}},{"name":"Fritz-Reuter-Str.","postalCode":"29664","locality":"Walsrode","municipality":{"key":"03358024","name":"Walsrode, Stadt","type":"Stadt"},"district":{"key":"03358","name":"Heidekreis","type":"Landkreis"},"federalState":{"key":"03","name":"Niedersachsen"}},{"name":"Fuhrenkamp","postalCode":"29664","locality":"Walsrode","municipality":{"key":"03358024","name":"Walsrode, Stadt","type":"Stadt"},"district":{"key":"03358","name":"Heidekreis","type":"Landkreis"},"federalState":{"key":"03","name":"Niedersachsen"}},{"name":"Fuhrenkamp","postalCode":"29699","locality":"Walsrode","municipality":{"key":"03358024","name":"Walsrode, Stadt","type":"Stadt"},"district":{"key":"03358","name":"Heidekreis","type":"Landkreis"},"federalState":{"key":"03","name":"Niedersachsen"}},{"name":"Fuldepark","postalCode":"29664","locality":"Walsrode","municipality":{"key":"03358024","name":"Walsrode, Stadt","type":"Stadt"},"district":{"key":"03358","name":"Heidekreis","type":"Landkreis"},"federalState":{"key":"03","name":"Niedersachsen"}},{"name":"Gartenstr.","postalCode":"29699","locality":"Walsrode","municipality":{"key":"03358024","name":"Walsrode, Stadt","type":"Stadt"},"district":{"key":"03358","name":"Heidekreis","type":"Landkreis"},"federalState":{"key":"03","name":"Niedersachsen"}},{"name":"Geibelstr.","postalCode":"29664","locality":"Walsrode","municipality":{"key":"03358024","name":"Walsrode, Stadt","type":"Stadt"},"district":{"key":"03358","name":"Heidekreis","type":"Landkreis"},"federalState":{"key":"03","name":"Niedersachsen"}},{"name":"Gernröder Str.","postalCode":"29664","locality":"Walsrode","municipality":{"key":"03358024","name":"Walsrode, Stadt","type":"Stadt"},"district":{"key":"03358","name":"Heidekreis","type":"Landkreis"},"federalState":{"key":"03","name":"Niedersachsen"}},{"name":"Geschwister-Scholl-Str.","postalCode":"29664","locality":"Walsrode","municipality":{"key":"03358024","name":"Walsrode, Stadt","type":"Stadt"},"district":{"key":"03358","name":"Heidekreis","type":"Landkreis"},"federalState":{"key":"03","name":"Niedersachsen"}},{"name":"Ginsterweg","postalCode":"29664","locality":"Walsrode","municipality":{"key":"03358024","name":"Walsrode, Stadt","type":"Stadt"},"district":{"key":"03358","name":"Heidekreis","type":"Landkreis"},"federalState":{"key":"03","name":"Niedersachsen"}},{"name":"Gläsersdorfer Str.","postalCode":"29699","locality":"Walsrode","municipality":{"key":"03358024","name":"Walsrode, Stadt","type":"Stadt"},"district":{"key":"03358","name":"Heidekreis","type":"Landkreis"},"federalState":{"key":"03","name":"Niedersachsen"}},{"name":"Glockenblumenweg","postalCode":"29664","locality":"Walsrode","municipality":{"key":"03358024","name":"Walsrode, Stadt","type":"Stadt"},"district":{"key":"03358","name":"Heidekreis","type":"Landkreis"},"federalState":{"key":"03","name":"Niedersachsen"}},{"name":"Gneisenaustr.","postalCode":"29664","locality":"Walsrode","municipality":{"key":"03358024","name":"Walsrode, Stadt","type":"Stadt"},"district":{"key":"03358","name":"Heidekreis","type":"Landkreis"},"federalState":{"key":"03","name":"Niedersachsen"}},{"name":"Goethestr.","postalCode":"29699","locality":"Walsrode","municipality":{"key":"03358024","name":"Walsrode, Stadt","type":"Stadt"},"district":{"key":"03358","name":"Heidekreis","type":"Landkreis"},"federalState":{"key":"03","name":"Niedersachsen"}},{"name":"Goldweg","postalCode":"29664","locality":"Walsrode","municipality":{"key":"03358024","name":"Walsrode, Stadt","type":"Stadt"},"district":{"key":"03358","name":"Heidekreis","type":"Landkreis"},"federalState":{"key":"03","name":"Niedersachsen"}},{"name":"Goosmannstr.","postalCode":"29664","locality":"Walsrode","municipality":{"key":"03358024","name":"Walsrode, Stadt","type":"Stadt"},"district":{"key":"03358","name":"Heidekreis","type":"Landkreis"},"federalState":{"key":"03","name":"Niedersachsen"}},{"name":"Gorch-Fock-Str.","postalCode":"29664","locality":"Walsrode","municipality":{"key":"03358024","name":"Walsrode, Stadt","type":"Stadt"},"district":{"key":"03358","name":"Heidekreis","type":"Landkreis"},"federalState":{"key":"03","name":"Niedersachsen"}},{"name":"Graesbecker Weg","postalCode":"29664","locality":"Walsrode","municipality":{"key":"03358024","name":"Walsrode, Stadt","type":"Stadt"},"district":{"key":"03358","name":"Heidekreis","type":"Landkreis"},"federalState":{"key":"03","name":"Niedersachsen"}},{"name":"Graudenzer Str.","postalCode":"29664","locality":"Walsrode","municipality":{"key":"03358024","name":"Walsrode, Stadt","type":"Stadt"},"district":{"key":"03358","name":"Heidekreis","type":"Landkreis"},"federalState":{"key":"03","name":"Niedersachsen"}},{"name":"Graudenzer Str.","postalCode":"29699","locality":"Walsrode","municipality":{"key":"03358024","name":"Walsrode, Stadt","type":"Stadt"},"district":{"key":"03358","name":"Heidekreis","type":"Landkreis"},"federalState":{"key":"03","name":"Niedersachsen"}},{"name":"Groß Eilstorf","postalCode":"29664","locality":"Walsrode","municipality":{"key":"03358024","name":"Walsrode, Stadt","type":"Stadt"},"district":{"key":"03358","name":"Heidekreis","type":"Landkreis"},"federalState":{"key":"03","name":"Niedersachsen"}},{"name":"Großer Graben","postalCode":"29664","locality":"Walsrode","municipality":{"key":"03358024","name":"Walsrode, Stadt","type":"Stadt"},"district":{"key":"03358","name":"Heidekreis","type":"Landkreis"},"federalState":{"key":"03","name":"Niedersachsen"}},{"name":"Großer Kamp","postalCode":"29699","locality":"Walsrode","municipality":{"key":"03358024","name":"Walsrode, Stadt","type":"Stadt"},"district":{"key":"03358","name":"Heidekreis","type":"Landkreis"},"federalState":{"key":"03","name":"Niedersachsen"}},{"name":"Grüner Weg","postalCode":"29664","locality":"Walsrode","municipality":{"key":"03358024","name":"Walsrode, Stadt","type":"Stadt"},"district":{"key":"03358","name":"Heidekreis","type":"Landkreis"},"federalState":{"key":"03","name":"Niedersachsen"}},{"name":"Grünstr.","postalCode":"29664","locality":"Walsrode","municipality":{"key":"03358024","name":"Walsrode, Stadt","type":"Stadt"},"district":{"key":"03358","name":"Heidekreis","type":"Landkreis"},"federalState":{"key":"03","name":"Niedersachsen"}},{"name":"Grütterstr.","postalCode":"29664","locality":"Walsrode","municipality":{"key":"03358024","name":"Walsrode, Stadt","type":"Stadt"},"district":{"key":"03358","name":"Heidekreis","type":"Landkreis"},"federalState":{"key":"03","name":"Niedersachsen"}},{"name":"Gut Grasbeck","postalCode":"29664","locality":"Walsrode","municipality":{"key":"03358024","name":"Walsrode, Stadt","type":"Stadt"},"district":{"key":"03358","name":"Heidekreis","type":"Landkreis"},"federalState":{"key":"03","name":"Niedersachsen"}},{"name":"Gut Hilperdingen","postalCode":"29664","locality":"Walsrode","municipality":{"key":"03358024","name":"Walsrode, Stadt","type":"Stadt"},"district":{"key":"03358","name":"Heidekreis","type":"Landkreis"},"federalState":{"key":"03","name":"Niedersachsen"}},{"name":"Haberskamp","postalCode":"29664","locality":"Walsrode","municipality":{"key":"03358024","name":"Walsrode, Stadt","type":"Stadt"},"district":{"key":"03358","name":"Heidekreis","type":"Landkreis"},"federalState":{"key":"03","name":"Niedersachsen"}},{"name":"Hamwiede","postalCode":"29664","locality":"Walsrode","municipality":{"key":"03358024","name":"Walsrode, Stadt","type":"Stadt"},"district":{"key":"03358","name":"Heidekreis","type":"Landkreis"},"federalState":{"key":"03","name":"Niedersachsen"}},{"name":"Hangweg","postalCode":"29664","locality":"Walsrode","municipality":{"key":"03358024","name":"Walsrode, Stadt","type":"Stadt"},"district":{"key":"03358","name":"Heidekreis","type":"Landkreis"},"federalState":{"key":"03","name":"Niedersachsen"}},{"name":"Hangweg","postalCode":"29699","locality":"Walsrode","municipality":{"key":"03358024","name":"Walsrode, Stadt","type":"Stadt"},"district":{"key":"03358","name":"Heidekreis","type":"Landkreis"},"federalState":{"key":"03","name":"Niedersachsen"}},{"name":"Hannoversche Str.","postalCode":"29664","locality":"Walsrode","municipality":{"key":"03358024","name":"Walsrode, Stadt","type":"Stadt"},"district":{"key":"03358","name":"Heidekreis","type":"Landkreis"},"federalState":{"key":"03","name":"Niedersachsen"}},{"name":"Hans-Böckler-Str.","postalCode":"29699","locality":"Walsrode","municipality":{"key":"03358024","name":"Walsrode, Stadt","type":"Stadt"},"district":{"key":"03358","name":"Heidekreis","type":"Landkreis"},"federalState":{"key":"03","name":"Niedersachsen"}},{"name":"Hasberg","postalCode":"29699","locality":"Walsrode","municipality":{"key":"03358024","name":"Walsrode, Stadt","type":"Stadt"},"district":{"key":"03358","name":"Heidekreis","type":"Landkreis"},"federalState":{"key":"03","name":"Niedersachsen"}},{"name":"Haydnstr.","postalCode":"29664","locality":"Walsrode","municipality":{"key":"03358024","name":"Walsrode, Stadt","type":"Stadt"},"district":{"key":"03358","name":"Heidekreis","type":"Landkreis"},"federalState":{"key":"03","name":"Niedersachsen"}},{"name":"Heckenbergs Kamp","postalCode":"29664","locality":"Walsrode","municipality":{"key":"03358024","name":"Walsrode, Stadt","type":"Stadt"},"district":{"key":"03358","name":"Heidekreis","type":"Landkreis"},"federalState":{"key":"03","name":"Niedersachsen"}},{"name":"Hedwig-Dohm-Str.","postalCode":"29664","locality":"Walsrode","municipality":{"key":"03358024","name":"Walsrode, Stadt","type":"Stadt"},"district":{"key":"03358","name":"Heidekreis","type":"Landkreis"},"federalState":{"key":"03","name":"Niedersachsen"}},{"name":"Heinestr.","postalCode":"29664","locality":"Walsrode","municipality":{"key":"03358024","name":"Walsrode, Stadt","type":"Stadt"},"district":{"key":"03358","name":"Heidekreis","type":"Landkreis"},"federalState":{"key":"03","name":"Niedersachsen"}},{"name":"Hellberger Weg","postalCode":"29664","locality":"Walsrode","municipality":{"key":"03358024","name":"Walsrode, Stadt","type":"Stadt"},"district":{"key":"03358","name":"Heidekreis","type":"Landkreis"},"federalState":{"key":"03","name":"Niedersachsen"}},{"name":"Helmser Kirchweg","postalCode":"29664","locality":"Walsrode","municipality":{"key":"03358024","name":"Walsrode, Stadt","type":"Stadt"},"district":{"key":"03358","name":"Heidekreis","type":"Landkreis"},"federalState":{"key":"03","name":"Niedersachsen"}},{"name":"Hermann-Löns-Str.","postalCode":"29664","locality":"Walsrode","municipality":{"key":"03358024","name":"Walsrode, Stadt","type":"Stadt"},"district":{"key":"03358","name":"Heidekreis","type":"Landkreis"},"federalState":{"key":"03","name":"Niedersachsen"}},{"name":"Hermann-Löns-Str.","postalCode":"29699","locality":"Walsrode","municipality":{"key":"03358024","name":"Walsrode, Stadt","type":"Stadt"},"district":{"key":"03358","name":"Heidekreis","type":"Landkreis"},"federalState":{"key":"03","name":"Niedersachsen"}},{"name":"Hesternworth","postalCode":"29664","locality":"Walsrode","municipality":{"key":"03358024","name":"Walsrode, Stadt","type":"Stadt"},"district":{"key":"03358","name":"Heidekreis","type":"Landkreis"},"federalState":{"key":"03","name":"Niedersachsen"}},{"name":"Hibbinger Str.","postalCode":"29664","locality":"Walsrode","municipality":{"key":"03358024","name":"Walsrode, Stadt","type":"Stadt"},"district":{"key":"03358","name":"Heidekreis","type":"Landkreis"},"federalState":{"key":"03","name":"Niedersachsen"}},{"name":"Hillenrieth","postalCode":"29699","locality":"Walsrode","municipality":{"key":"03358024","name":"Walsrode, Stadt","type":"Stadt"},"district":{"key":"03358","name":"Heidekreis","type":"Landkreis"},"federalState":{"key":"03","name":"Niedersachsen"}},{"name":"Hilperdinger Weg","postalCode":"29664","locality":"Walsrode","municipality":{"key":"03358024","name":"Walsrode, Stadt","type":"Stadt"},"district":{"key":"03358","name":"Heidekreis","type":"Landkreis"},"federalState":{"key":"03","name":"Niedersachsen"}},{"name":"Hindenburgplatz","postalCode":"29699","locality":"Walsrode","municipality":{"key":"03358024","name":"Walsrode, Stadt","type":"Stadt"},"district":{"key":"03358","name":"Heidekreis","type":"Landkreis"},"federalState":{"key":"03","name":"Niedersachsen"}},{"name":"Hinrichsweg","postalCode":"29664","locality":"Walsrode","municipality":{"key":"03358024","name":"Walsrode, Stadt","type":"Stadt"},"district":{"key":"03358","name":"Heidekreis","type":"Landkreis"},"federalState":{"key":"03","name":"Niedersachsen"}},{"name":"Hinrich-Wilhelm-Kopf-Weg","postalCode":"29664","locality":"Walsrode","municipality":{"key":"03358024","name":"Walsrode, Stadt","type":"Stadt"},"district":{"key":"03358","name":"Heidekreis","type":"Landkreis"},"federalState":{"key":"03","name":"Niedersachsen"}},{"name":"Hinter dem Friedhof","postalCode":"29664","locality":"Walsrode","municipality":{"key":"03358024","name":"Walsrode, Stadt","type":"Stadt"},"district":{"key":"03358","name":"Heidekreis","type":"Landkreis"},"federalState":{"key":"03","name":"Niedersachsen"}},{"name":"Hinter den Höfen","postalCode":"29664","locality":"Walsrode","municipality":{"key":"03358024","name":"Walsrode, Stadt","type":"Stadt"},"district":{"key":"03358","name":"Heidekreis","type":"Landkreis"},"federalState":{"key":"03","name":"Niedersachsen"}},{"name":"Hinter Lodemanns Garten","postalCode":"29664","locality":"Walsrode","municipality":{"key":"03358024","name":"Walsrode, Stadt","type":"Stadt"},"district":{"key":"03358","name":"Heidekreis","type":"Landkreis"},"federalState":{"key":"03","name":"Niedersachsen"}},{"name":"Hinter Meikens Scheune","postalCode":"29664","locality":"Walsrode","municipality":{"key":"03358024","name":"Walsrode, Stadt","type":"Stadt"},"district":{"key":"03358","name":"Heidekreis","type":"Landkreis"},"federalState":{"key":"03","name":"Niedersachsen"}},{"name":"Hodenhagener Str.","postalCode":"29664","locality":"Walsrode","municipality":{"key":"03358024","name":"Walsrode, Stadt","type":"Stadt"},"district":{"key":"03358","name":"Heidekreis","type":"Landkreis"},"federalState":{"key":"03","name":"Niedersachsen"}},{"name":"Hoher Heideweg","postalCode":"29664","locality":"Walsrode","municipality":{"key":"03358024","name":"Walsrode, Stadt","type":"Stadt"},"district":{"key":"03358","name":"Heidekreis","type":"Landkreis"},"federalState":{"key":"03","name":"Niedersachsen"}},{"name":"Holbeinstr.","postalCode":"29664","locality":"Walsrode","municipality":{"key":"03358024","name":"Walsrode, Stadt","type":"Stadt"},"district":{"key":"03358","name":"Heidekreis","type":"Landkreis"},"federalState":{"key":"03","name":"Niedersachsen"}},{"name":"Holtenweg","postalCode":"29664","locality":"Walsrode","municipality":{"key":"03358024","name":"Walsrode, Stadt","type":"Stadt"},"district":{"key":"03358","name":"Heidekreis","type":"Landkreis"},"federalState":{"key":"03","name":"Niedersachsen"}},{"name":"Holunderstr.","postalCode":"29699","locality":"Walsrode","municipality":{"key":"03358024","name":"Walsrode, Stadt","type":"Stadt"},"district":{"key":"03358","name":"Heidekreis","type":"Landkreis"},"federalState":{"key":"03","name":"Niedersachsen"}},{"name":"Holunderweg","postalCode":"29664","locality":"Walsrode","municipality":{"key":"03358024","name":"Walsrode, Stadt","type":"Stadt"},"district":{"key":"03358","name":"Heidekreis","type":"Landkreis"},"federalState":{"key":"03","name":"Niedersachsen"}},{"name":"Honerdingen","postalCode":"29664","locality":"Walsrode","municipality":{"key":"03358024","name":"Walsrode, Stadt","type":"Stadt"},"district":{"key":"03358","name":"Heidekreis","type":"Landkreis"},"federalState":{"key":"03","name":"Niedersachsen"}},{"name":"Horstheide","postalCode":"29664","locality":"Walsrode","municipality":{"key":"03358024","name":"Walsrode, Stadt","type":"Stadt"},"district":{"key":"03358","name":"Heidekreis","type":"Landkreis"},"federalState":{"key":"03","name":"Niedersachsen"}},{"name":"Horststr.","postalCode":"29664","locality":"Walsrode","municipality":{"key":"03358024","name":"Walsrode, Stadt","type":"Stadt"},"district":{"key":"03358","name":"Heidekreis","type":"Landkreis"},"federalState":{"key":"03","name":"Niedersachsen"}},{"name":"Horststr.","postalCode":"29699","locality":"Walsrode","municipality":{"key":"03358024","name":"Walsrode, Stadt","type":"Stadt"},"district":{"key":"03358","name":"Heidekreis","type":"Landkreis"},"federalState":{"key":"03","name":"Niedersachsen"}},{"name":"Hülsenbrook","postalCode":"29699","locality":"Walsrode","municipality":{"key":"03358024","name":"Walsrode, Stadt","type":"Stadt"},"district":{"key":"03358","name":"Heidekreis","type":"Landkreis"},"federalState":{"key":"03","name":"Niedersachsen"}},{"name":"Hünzingen","postalCode":"29664","locality":"Walsrode","municipality":{"key":"03358024","name":"Walsrode, Stadt","type":"Stadt"},"district":{"key":"03358","name":"Heidekreis","type":"Landkreis"},"federalState":{"key":"03","name":"Niedersachsen"}},{"name":"Hünzinger Kirchweg","postalCode":"29664","locality":"Walsrode","municipality":{"key":"03358024","name":"Walsrode, Stadt","type":"Stadt"},"district":{"key":"03358","name":"Heidekreis","type":"Landkreis"},"federalState":{"key":"03","name":"Niedersachsen"}},{"name":"Hünzinger Schulsteig","postalCode":"29664","locality":"Walsrode","municipality":{"key":"03358024","name":"Walsrode, Stadt","type":"Stadt"},"district":{"key":"03358","name":"Heidekreis","type":"Landkreis"},"federalState":{"key":"03","name":"Niedersachsen"}},{"name":"Hünzinger Wiesenweg","postalCode":"29664","locality":"Walsrode","municipality":{"key":"03358024","name":"Walsrode, Stadt","type":"Stadt"},"district":{"key":"03358","name":"Heidekreis","type":"Landkreis"},"federalState":{"key":"03","name":"Niedersachsen"}},{"name":"Idsingen","postalCode":"29664","locality":"Walsrode","municipality":{"key":"03358024","name":"Walsrode, Stadt","type":"Stadt"},"district":{"key":"03358","name":"Heidekreis","type":"Landkreis"},"federalState":{"key":"03","name":"Niedersachsen"}},{"name":"Ilexweg","postalCode":"29664","locality":"Walsrode","municipality":{"key":"03358024","name":"Walsrode, Stadt","type":"Stadt"},"district":{"key":"03358","name":"Heidekreis","type":"Landkreis"},"federalState":{"key":"03","name":"Niedersachsen"}},{"name":"Im Fliederwinkel","postalCode":"29699","locality":"Walsrode","municipality":{"key":"03358024","name":"Walsrode, Stadt","type":"Stadt"},"district":{"key":"03358","name":"Heidekreis","type":"Landkreis"},"federalState":{"key":"03","name":"Niedersachsen"}},{"name":"Im Hagen","postalCode":"29699","locality":"Walsrode","municipality":{"key":"03358024","name":"Walsrode, Stadt","type":"Stadt"},"district":{"key":"03358","name":"Heidekreis","type":"Landkreis"},"federalState":{"key":"03","name":"Niedersachsen"}},{"name":"Im Hegebusch","postalCode":"29699","locality":"Walsrode","municipality":{"key":"03358024","name":"Walsrode, Stadt","type":"Stadt"},"district":{"key":"03358","name":"Heidekreis","type":"Landkreis"},"federalState":{"key":"03","name":"Niedersachsen"}},{"name":"Im Kleinen Moore","postalCode":"29664","locality":"Walsrode","municipality":{"key":"03358024","name":"Walsrode, Stadt","type":"Stadt"},"district":{"key":"03358","name":"Heidekreis","type":"Landkreis"},"federalState":{"key":"03","name":"Niedersachsen"}},{"name":"Im Moore","postalCode":"29664","locality":"Walsrode","municipality":{"key":"03358024","name":"Walsrode, Stadt","type":"Stadt"},"district":{"key":"03358","name":"Heidekreis","type":"Landkreis"},"federalState":{"key":"03","name":"Niedersachsen"}},{"name":"Im Sande","postalCode":"29664","locality":"Walsrode","municipality":{"key":"03358024","name":"Walsrode, Stadt","type":"Stadt"},"district":{"key":"03358","name":"Heidekreis","type":"Landkreis"},"federalState":{"key":"03","name":"Niedersachsen"}},{"name":"Im Sandgarten","postalCode":"29664","locality":"Walsrode","municipality":{"key":"03358024","name":"Walsrode, Stadt","type":"Stadt"},"district":{"key":"03358","name":"Heidekreis","type":"Landkreis"},"federalState":{"key":"03","name":"Niedersachsen"}},{"name":"Im Schlage","postalCode":"29664","locality":"Walsrode","municipality":{"key":"03358024","name":"Walsrode, Stadt","type":"Stadt"},"district":{"key":"03358","name":"Heidekreis","type":"Landkreis"},"federalState":{"key":"03","name":"Niedersachsen"}},{"name":"Im Wiesengrund","postalCode":"29664","locality":"Walsrode","municipality":{"key":"03358024","name":"Walsrode, Stadt","type":"Stadt"},"district":{"key":"03358","name":"Heidekreis","type":"Landkreis"},"federalState":{"key":"03","name":"Niedersachsen"}},{"name":"In der Barckheide","postalCode":"29699","locality":"Walsrode","municipality":{"key":"03358024","name":"Walsrode, Stadt","type":"Stadt"},"district":{"key":"03358","name":"Heidekreis","type":"Landkreis"},"federalState":{"key":"03","name":"Niedersachsen"}},{"name":"Jarlinger Weg","postalCode":"29699","locality":"Walsrode","municipality":{"key":"03358024","name":"Walsrode, Stadt","type":"Stadt"},"district":{"key":"03358","name":"Heidekreis","type":"Landkreis"},"federalState":{"key":"03","name":"Niedersachsen"}},{"name":"Johann-Sebastian-Bach-Str.","postalCode":"29699","locality":"Walsrode","municipality":{"key":"03358024","name":"Walsrode, Stadt","type":"Stadt"},"district":{"key":"03358","name":"Heidekreis","type":"Landkreis"},"federalState":{"key":"03","name":"Niedersachsen"}},{"name":"Kammererstr.","postalCode":"29664","locality":"Walsrode","municipality":{"key":"03358024","name":"Walsrode, Stadt","type":"Stadt"},"district":{"key":"03358","name":"Heidekreis","type":"Landkreis"},"federalState":{"key":"03","name":"Niedersachsen"}},{"name":"Kapellenkamp","postalCode":"29664","locality":"Walsrode","municipality":{"key":"03358024","name":"Walsrode, Stadt","type":"Stadt"},"district":{"key":"03358","name":"Heidekreis","type":"Landkreis"},"federalState":{"key":"03","name":"Niedersachsen"}},{"name":"Kastanienweg","postalCode":"29664","locality":"Walsrode","municipality":{"key":"03358024","name":"Walsrode, Stadt","type":"Stadt"},"district":{"key":"03358","name":"Heidekreis","type":"Landkreis"},"federalState":{"key":"03","name":"Niedersachsen"}},{"name":"Kastanienweg","postalCode":"29699","locality":"Walsrode","municipality":{"key":"03358024","name":"Walsrode, Stadt","type":"Stadt"},"district":{"key":"03358","name":"Heidekreis","type":"Landkreis"},"federalState":{"key":"03","name":"Niedersachsen"}},{"name":"Käthe-Kollwitz-Str.","postalCode":"29664","locality":"Walsrode","municipality":{"key":"03358024","name":"Walsrode, Stadt","type":"Stadt"},"district":{"key":"03358","name":"Heidekreis","type":"Landkreis"},"federalState":{"key":"03","name":"Niedersachsen"}},{"name":"Käthe-Kollwitz-Weg","postalCode":"29699","locality":"Walsrode","municipality":{"key":"03358024","name":"Walsrode, Stadt","type":"Stadt"},"district":{"key":"03358","name":"Heidekreis","type":"Landkreis"},"federalState":{"key":"03","name":"Niedersachsen"}},{"name":"Kepicer Weg","postalCode":"29699","locality":"Walsrode","municipality":{"key":"03358024","name":"Walsrode, Stadt","type":"Stadt"},"district":{"key":"03358","name":"Heidekreis","type":"Landkreis"},"federalState":{"key":"03","name":"Niedersachsen"}},{"name":"Ketlenburger Weg","postalCode":"29699","locality":"Walsrode","municipality":{"key":"03358024","name":"Walsrode, Stadt","type":"Stadt"},"district":{"key":"03358","name":"Heidekreis","type":"Landkreis"},"federalState":{"key":"03","name":"Niedersachsen"}},{"name":"Kettenburger Weg","postalCode":"29699","locality":"Walsrode","municipality":{"key":"03358024","name":"Walsrode, Stadt","type":"Stadt"},"district":{"key":"03358","name":"Heidekreis","type":"Landkreis"},"federalState":{"key":"03","name":"Niedersachsen"}},{"name":"Kiefernweg","postalCode":"29664","locality":"Walsrode","municipality":{"key":"03358024","name":"Walsrode, Stadt","type":"Stadt"},"district":{"key":"03358","name":"Heidekreis","type":"Landkreis"},"federalState":{"key":"03","name":"Niedersachsen"}},{"name":"Kirchensteg","postalCode":"29664","locality":"Walsrode","municipality":{"key":"03358024","name":"Walsrode, Stadt","type":"Stadt"},"district":{"key":"03358","name":"Heidekreis","type":"Landkreis"},"federalState":{"key":"03","name":"Niedersachsen"}},{"name":"Kirchenweg","postalCode":"29699","locality":"Walsrode","municipality":{"key":"03358024","name":"Walsrode, Stadt","type":"Stadt"},"district":{"key":"03358","name":"Heidekreis","type":"Landkreis"},"federalState":{"key":"03","name":"Niedersachsen"}},{"name":"Kirchplatz","postalCode":"29664","locality":"Walsrode","municipality":{"key":"03358024","name":"Walsrode, Stadt","type":"Stadt"},"district":{"key":"03358","name":"Heidekreis","type":"Landkreis"},"federalState":{"key":"03","name":"Niedersachsen"}},{"name":"Kirchstr.","postalCode":"29664","locality":"Walsrode","municipality":{"key":"03358024","name":"Walsrode, Stadt","type":"Stadt"},"district":{"key":"03358","name":"Heidekreis","type":"Landkreis"},"federalState":{"key":"03","name":"Niedersachsen"}},{"name":"Kirchstr.","postalCode":"29699","locality":"Walsrode","municipality":{"key":"03358024","name":"Walsrode, Stadt","type":"Stadt"},"district":{"key":"03358","name":"Heidekreis","type":"Landkreis"},"federalState":{"key":"03","name":"Niedersachsen"}},{"name":"Klaus-Groth-Winkel","postalCode":"29664","locality":"Walsrode","municipality":{"key":"03358024","name":"Walsrode, Stadt","type":"Stadt"},"district":{"key":"03358","name":"Heidekreis","type":"Landkreis"},"federalState":{"key":"03","name":"Niedersachsen"}},{"name":"Klein Eilstorf","postalCode":"29664","locality":"Walsrode","municipality":{"key":"03358024","name":"Walsrode, Stadt","type":"Stadt"},"district":{"key":"03358","name":"Heidekreis","type":"Landkreis"},"federalState":{"key":"03","name":"Niedersachsen"}},{"name":"Kleiner Graben","postalCode":"29664","locality":"Walsrode","municipality":{"key":"03358024","name":"Walsrode, Stadt","type":"Stadt"},"district":{"key":"03358","name":"Heidekreis","type":"Landkreis"},"federalState":{"key":"03","name":"Niedersachsen"}},{"name":"Klein-Harler-Str.","postalCode":"29699","locality":"Walsrode","municipality":{"key":"03358024","name":"Walsrode, Stadt","type":"Stadt"},"district":{"key":"03358","name":"Heidekreis","type":"Landkreis"},"federalState":{"key":"03","name":"Niedersachsen"}},{"name":"Königsberger Str.","postalCode":"29699","locality":"Walsrode","municipality":{"key":"03358024","name":"Walsrode, Stadt","type":"Stadt"},"district":{"key":"03358","name":"Heidekreis","type":"Landkreis"},"federalState":{"key":"03","name":"Niedersachsen"}},{"name":"Königsberger Weg","postalCode":"29664","locality":"Walsrode","municipality":{"key":"03358024","name":"Walsrode, Stadt","type":"Stadt"},"district":{"key":"03358","name":"Heidekreis","type":"Landkreis"},"federalState":{"key":"03","name":"Niedersachsen"}},{"name":"Königsholzweg","postalCode":"29664","locality":"Walsrode","municipality":{"key":"03358024","name":"Walsrode, Stadt","type":"Stadt"},"district":{"key":"03358","name":"Heidekreis","type":"Landkreis"},"federalState":{"key":"03","name":"Niedersachsen"}},{"name":"Kornblumenweg","postalCode":"29664","locality":"Walsrode","municipality":{"key":"03358024","name":"Walsrode, Stadt","type":"Stadt"},"district":{"key":"03358","name":"Heidekreis","type":"Landkreis"},"federalState":{"key":"03","name":"Niedersachsen"}},{"name":"Kotte Kamp","postalCode":"29664","locality":"Walsrode","municipality":{"key":"03358024","name":"Walsrode, Stadt","type":"Stadt"},"district":{"key":"03358","name":"Heidekreis","type":"Landkreis"},"federalState":{"key":"03","name":"Niedersachsen"}},{"name":"Koveler Str.","postalCode":"29664","locality":"Walsrode","municipality":{"key":"03358024","name":"Walsrode, Stadt","type":"Stadt"},"district":{"key":"03358","name":"Heidekreis","type":"Landkreis"},"federalState":{"key":"03","name":"Niedersachsen"}},{"name":"Kreienried","postalCode":"29664","locality":"Walsrode","municipality":{"key":"03358024","name":"Walsrode, Stadt","type":"Stadt"},"district":{"key":"03358","name":"Heidekreis","type":"Landkreis"},"federalState":{"key":"03","name":"Niedersachsen"}},{"name":"Krelinger Bruch","postalCode":"29664","locality":"Walsrode","municipality":{"key":"03358024","name":"Walsrode, Stadt","type":"Stadt"},"district":{"key":"03358","name":"Heidekreis","type":"Landkreis"},"federalState":{"key":"03","name":"Niedersachsen"}},{"name":"Krelinger Damm","postalCode":"29664","locality":"Walsrode","municipality":{"key":"03358024","name":"Walsrode, Stadt","type":"Stadt"},"district":{"key":"03358","name":"Heidekreis","type":"Landkreis"},"federalState":{"key":"03","name":"Niedersachsen"}},{"name":"Krelinger Weg","postalCode":"29664","locality":"Walsrode","municipality":{"key":"03358024","name":"Walsrode, Stadt","type":"Stadt"},"district":{"key":"03358","name":"Heidekreis","type":"Landkreis"},"federalState":{"key":"03","name":"Niedersachsen"}},{"name":"Kreyengrund","postalCode":"29664","locality":"Walsrode","municipality":{"key":"03358024","name":"Walsrode, Stadt","type":"Stadt"},"district":{"key":"03358","name":"Heidekreis","type":"Landkreis"},"federalState":{"key":"03","name":"Niedersachsen"}},{"name":"Kroger Landstr.","postalCode":"29699","locality":"Walsrode","municipality":{"key":"03358024","name":"Walsrode, Stadt","type":"Stadt"},"district":{"key":"03358","name":"Heidekreis","type":"Landkreis"},"federalState":{"key":"03","name":"Niedersachsen"}},{"name":"Krusenhausen Weg","postalCode":"29664","locality":"Walsrode","municipality":{"key":"03358024","name":"Walsrode, Stadt","type":"Stadt"},"district":{"key":"03358","name":"Heidekreis","type":"Landkreis"},"federalState":{"key":"03","name":"Niedersachsen"}},{"name":"Küchenwiesen","postalCode":"29664","locality":"Walsrode","municipality":{"key":"03358024","name":"Walsrode, Stadt","type":"Stadt"},"district":{"key":"03358","name":"Heidekreis","type":"Landkreis"},"federalState":{"key":"03","name":"Niedersachsen"}},{"name":"Kurze Str.","postalCode":"29664","locality":"Walsrode","municipality":{"key":"03358024","name":"Walsrode, Stadt","type":"Stadt"},"district":{"key":"03358","name":"Heidekreis","type":"Landkreis"},"federalState":{"key":"03","name":"Niedersachsen"}},{"name":"Kurze Str.","postalCode":"29699","locality":"Walsrode","municipality":{"key":"03358024","name":"Walsrode, Stadt","type":"Stadt"},"district":{"key":"03358","name":"Heidekreis","type":"Landkreis"},"federalState":{"key":"03","name":"Niedersachsen"}},{"name":"Küsterberg","postalCode":"29664","locality":"Walsrode","municipality":{"key":"03358024","name":"Walsrode, Stadt","type":"Stadt"},"district":{"key":"03358","name":"Heidekreis","type":"Landkreis"},"federalState":{"key":"03","name":"Niedersachsen"}},{"name":"Küstriner Str.","postalCode":"29699","locality":"Walsrode","municipality":{"key":"03358024","name":"Walsrode, Stadt","type":"Stadt"},"district":{"key":"03358","name":"Heidekreis","type":"Landkreis"},"federalState":{"key":"03","name":"Niedersachsen"}},{"name":"Lange Str.","postalCode":"29664","locality":"Walsrode","municipality":{"key":"03358024","name":"Walsrode, Stadt","type":"Stadt"},"district":{"key":"03358","name":"Heidekreis","type":"Landkreis"},"federalState":{"key":"03","name":"Niedersachsen"}},{"name":"Leitnantshof","postalCode":"29699","locality":"Walsrode","municipality":{"key":"03358024","name":"Walsrode, Stadt","type":"Stadt"},"district":{"key":"03358","name":"Heidekreis","type":"Landkreis"},"federalState":{"key":"03","name":"Niedersachsen"}},{"name":"Lerchenweg","postalCode":"29664","locality":"Walsrode","municipality":{"key":"03358024","name":"Walsrode, Stadt","type":"Stadt"},"district":{"key":"03358","name":"Heidekreis","type":"Landkreis"},"federalState":{"key":"03","name":"Niedersachsen"}},{"name":"Lindenring","postalCode":"29699","locality":"Walsrode","municipality":{"key":"03358024","name":"Walsrode, Stadt","type":"Stadt"},"district":{"key":"03358","name":"Heidekreis","type":"Landkreis"},"federalState":{"key":"03","name":"Niedersachsen"}},{"name":"Lindenstr.","postalCode":"29664","locality":"Walsrode","municipality":{"key":"03358024","name":"Walsrode, Stadt","type":"Stadt"},"district":{"key":"03358","name":"Heidekreis","type":"Landkreis"},"federalState":{"key":"03","name":"Niedersachsen"}},{"name":"Lise-Meitner-Str.","postalCode":"29664","locality":"Walsrode","municipality":{"key":"03358024","name":"Walsrode, Stadt","type":"Stadt"},"district":{"key":"03358","name":"Heidekreis","type":"Landkreis"},"federalState":{"key":"03","name":"Niedersachsen"}},{"name":"Lisztstr.","postalCode":"29664","locality":"Walsrode","municipality":{"key":"03358024","name":"Walsrode, Stadt","type":"Stadt"},"district":{"key":"03358","name":"Heidekreis","type":"Landkreis"},"federalState":{"key":"03","name":"Niedersachsen"}},{"name":"Lohbergs Kamp","postalCode":"29664","locality":"Walsrode","municipality":{"key":"03358024","name":"Walsrode, Stadt","type":"Stadt"},"district":{"key":"03358","name":"Heidekreis","type":"Landkreis"},"federalState":{"key":"03","name":"Niedersachsen"}},{"name":"Lohheider Str.","postalCode":"29699","locality":"Walsrode","municipality":{"key":"03358024","name":"Walsrode, Stadt","type":"Stadt"},"district":{"key":"03358","name":"Heidekreis","type":"Landkreis"},"federalState":{"key":"03","name":"Niedersachsen"}},{"name":"Lönsheide","postalCode":"29699","locality":"Walsrode","municipality":{"key":"03358024","name":"Walsrode, Stadt","type":"Stadt"},"district":{"key":"03358","name":"Heidekreis","type":"Landkreis"},"federalState":{"key":"03","name":"Niedersachsen"}},{"name":"Löverschen","postalCode":"29699","locality":"Walsrode","municipality":{"key":"03358024","name":"Walsrode, Stadt","type":"Stadt"},"district":{"key":"03358","name":"Heidekreis","type":"Landkreis"},"federalState":{"key":"03","name":"Niedersachsen"}},{"name":"Ludwig-Harms-Str.","postalCode":"29664","locality":"Walsrode","municipality":{"key":"03358024","name":"Walsrode, Stadt","type":"Stadt"},"district":{"key":"03358","name":"Heidekreis","type":"Landkreis"},"federalState":{"key":"03","name":"Niedersachsen"}},{"name":"Ludwig-Jahn-Str.","postalCode":"29699","locality":"Walsrode","municipality":{"key":"03358024","name":"Walsrode, Stadt","type":"Stadt"},"district":{"key":"03358","name":"Heidekreis","type":"Landkreis"},"federalState":{"key":"03","name":"Niedersachsen"}},{"name":"Ludwig-Rahlfs-Str.","postalCode":"29664","locality":"Walsrode","municipality":{"key":"03358024","name":"Walsrode, Stadt","type":"Stadt"},"district":{"key":"03358","name":"Heidekreis","type":"Landkreis"},"federalState":{"key":"03","name":"Niedersachsen"}},{"name":"Margeritenwinkel","postalCode":"29664","locality":"Walsrode","municipality":{"key":"03358024","name":"Walsrode, Stadt","type":"Stadt"},"district":{"key":"03358","name":"Heidekreis","type":"Landkreis"},"federalState":{"key":"03","name":"Niedersachsen"}},{"name":"Marktstr.","postalCode":"29664","locality":"Walsrode","municipality":{"key":"03358024","name":"Walsrode, Stadt","type":"Stadt"},"district":{"key":"03358","name":"Heidekreis","type":"Landkreis"},"federalState":{"key":"03","name":"Niedersachsen"}},{"name":"Maschhorns Damm","postalCode":"29664","locality":"Walsrode","municipality":{"key":"03358024","name":"Walsrode, Stadt","type":"Stadt"},"district":{"key":"03358","name":"Heidekreis","type":"Landkreis"},"federalState":{"key":"03","name":"Niedersachsen"}},{"name":"Maschweg","postalCode":"29664","locality":"Walsrode","municipality":{"key":"03358024","name":"Walsrode, Stadt","type":"Stadt"},"district":{"key":"03358","name":"Heidekreis","type":"Landkreis"},"federalState":{"key":"03","name":"Niedersachsen"}},{"name":"Meinerdinger Kirchweg","postalCode":"29664","locality":"Walsrode","municipality":{"key":"03358024","name":"Walsrode, Stadt","type":"Stadt"},"district":{"key":"03358","name":"Heidekreis","type":"Landkreis"},"federalState":{"key":"03","name":"Niedersachsen"}},{"name":"Meirehmer Berg","postalCode":"29664","locality":"Walsrode","municipality":{"key":"03358024","name":"Walsrode, Stadt","type":"Stadt"},"district":{"key":"03358","name":"Heidekreis","type":"Landkreis"},"federalState":{"key":"03","name":"Niedersachsen"}},{"name":"Meirehmer Str.","postalCode":"29664","locality":"Walsrode","municipality":{"key":"03358024","name":"Walsrode, Stadt","type":"Stadt"},"district":{"key":"03358","name":"Heidekreis","type":"Landkreis"},"federalState":{"key":"03","name":"Niedersachsen"}},{"name":"Meisenweg","postalCode":"29664","locality":"Walsrode","municipality":{"key":"03358024","name":"Walsrode, Stadt","type":"Stadt"},"district":{"key":"03358","name":"Heidekreis","type":"Landkreis"},"federalState":{"key":"03","name":"Niedersachsen"}},{"name":"Memelstr.","postalCode":"29664","locality":"Walsrode","municipality":{"key":"03358024","name":"Walsrode, Stadt","type":"Stadt"},"district":{"key":"03358","name":"Heidekreis","type":"Landkreis"},"federalState":{"key":"03","name":"Niedersachsen"}},{"name":"Mitteldamm","postalCode":"29664","locality":"Walsrode","municipality":{"key":"03358024","name":"Walsrode, Stadt","type":"Stadt"},"district":{"key":"03358","name":"Heidekreis","type":"Landkreis"},"federalState":{"key":"03","name":"Niedersachsen"}},{"name":"Mohnblumenweg","postalCode":"29664","locality":"Walsrode","municipality":{"key":"03358024","name":"Walsrode, Stadt","type":"Stadt"},"district":{"key":"03358","name":"Heidekreis","type":"Landkreis"},"federalState":{"key":"03","name":"Niedersachsen"}},{"name":"Mondscheinbrücke","postalCode":"29664","locality":"Walsrode","municipality":{"key":"03358024","name":"Walsrode, Stadt","type":"Stadt"},"district":{"key":"03358","name":"Heidekreis","type":"Landkreis"},"federalState":{"key":"03","name":"Niedersachsen"}},{"name":"Moorstr.","postalCode":"29664","locality":"Walsrode","municipality":{"key":"03358024","name":"Walsrode, Stadt","type":"Stadt"},"district":{"key":"03358","name":"Heidekreis","type":"Landkreis"},"federalState":{"key":"03","name":"Niedersachsen"}},{"name":"Moorweg","postalCode":"29664","locality":"Walsrode","municipality":{"key":"03358024","name":"Walsrode, Stadt","type":"Stadt"},"district":{"key":"03358","name":"Heidekreis","type":"Landkreis"},"federalState":{"key":"03","name":"Niedersachsen"}},{"name":"Moorwiese","postalCode":"29664","locality":"Walsrode","municipality":{"key":"03358024","name":"Walsrode, Stadt","type":"Stadt"},"district":{"key":"03358","name":"Heidekreis","type":"Landkreis"},"federalState":{"key":"03","name":"Niedersachsen"}},{"name":"Mozartstr.","postalCode":"29664","locality":"Walsrode","municipality":{"key":"03358024","name":"Walsrode, Stadt","type":"Stadt"},"district":{"key":"03358","name":"Heidekreis","type":"Landkreis"},"federalState":{"key":"03","name":"Niedersachsen"}},{"name":"Mühlenbruchweg","postalCode":"29664","locality":"Walsrode","municipality":{"key":"03358024","name":"Walsrode, Stadt","type":"Stadt"},"district":{"key":"03358","name":"Heidekreis","type":"Landkreis"},"federalState":{"key":"03","name":"Niedersachsen"}},{"name":"Mühlenstr.","postalCode":"29664","locality":"Walsrode","municipality":{"key":"03358024","name":"Walsrode, Stadt","type":"Stadt"},"district":{"key":"03358","name":"Heidekreis","type":"Landkreis"},"federalState":{"key":"03","name":"Niedersachsen"}},{"name":"Mühlenweg","postalCode":"29664","locality":"Walsrode","municipality":{"key":"03358024","name":"Walsrode, Stadt","type":"Stadt"},"district":{"key":"03358","name":"Heidekreis","type":"Landkreis"},"federalState":{"key":"03","name":"Niedersachsen"}},{"name":"Neuer Weg","postalCode":"29664","locality":"Walsrode","municipality":{"key":"03358024","name":"Walsrode, Stadt","type":"Stadt"},"district":{"key":"03358","name":"Heidekreis","type":"Landkreis"},"federalState":{"key":"03","name":"Niedersachsen"}},{"name":"Neue Schäferei","postalCode":"29699","locality":"Walsrode","municipality":{"key":"03358024","name":"Walsrode, Stadt","type":"Stadt"},"district":{"key":"03358","name":"Heidekreis","type":"Landkreis"},"federalState":{"key":"03","name":"Niedersachsen"}},{"name":"Neue Str.","postalCode":"29664","locality":"Walsrode","municipality":{"key":"03358024","name":"Walsrode, Stadt","type":"Stadt"},"district":{"key":"03358","name":"Heidekreis","type":"Landkreis"},"federalState":{"key":"03","name":"Niedersachsen"}},{"name":"Neue Str.","postalCode":"29699","locality":"Walsrode","municipality":{"key":"03358024","name":"Walsrode, Stadt","type":"Stadt"},"district":{"key":"03358","name":"Heidekreis","type":"Landkreis"},"federalState":{"key":"03","name":"Niedersachsen"}},{"name":"Niedersachsenplatz","postalCode":"29699","locality":"Walsrode","municipality":{"key":"03358024","name":"Walsrode, Stadt","type":"Stadt"},"district":{"key":"03358","name":"Heidekreis","type":"Landkreis"},"federalState":{"key":"03","name":"Niedersachsen"}},{"name":"Niefelfeld","postalCode":"29664","locality":"Walsrode","municipality":{"key":"03358024","name":"Walsrode, Stadt","type":"Stadt"},"district":{"key":"03358","name":"Heidekreis","type":"Landkreis"},"federalState":{"key":"03","name":"Niedersachsen"}},{"name":"Nordkampener Mühle","postalCode":"29664","locality":"Walsrode","municipality":{"key":"03358024","name":"Walsrode, Stadt","type":"Stadt"},"district":{"key":"03358","name":"Heidekreis","type":"Landkreis"},"federalState":{"key":"03","name":"Niedersachsen"}},{"name":"Nordsunderberg","postalCode":"29664","locality":"Walsrode","municipality":{"key":"03358024","name":"Walsrode, Stadt","type":"Stadt"},"district":{"key":"03358","name":"Heidekreis","type":"Landkreis"},"federalState":{"key":"03","name":"Niedersachsen"}},{"name":"Oskar-Wolff-Str.","postalCode":"29664","locality":"Walsrode","municipality":{"key":"03358024","name":"Walsrode, Stadt","type":"Stadt"},"district":{"key":"03358","name":"Heidekreis","type":"Landkreis"},"federalState":{"key":"03","name":"Niedersachsen"}},{"name":"Ostdeutsche Allee","postalCode":"29664","locality":"Walsrode","municipality":{"key":"03358024","name":"Walsrode, Stadt","type":"Stadt"},"district":{"key":"03358","name":"Heidekreis","type":"Landkreis"},"federalState":{"key":"03","name":"Niedersachsen"}},{"name":"Osterkamp","postalCode":"29664","locality":"Walsrode","municipality":{"key":"03358024","name":"Walsrode, Stadt","type":"Stadt"},"district":{"key":"03358","name":"Heidekreis","type":"Landkreis"},"federalState":{"key":"03","name":"Niedersachsen"}},{"name":"Ostlandring","postalCode":"29664","locality":"Walsrode","municipality":{"key":"03358024","name":"Walsrode, Stadt","type":"Stadt"},"district":{"key":"03358","name":"Heidekreis","type":"Landkreis"},"federalState":{"key":"03","name":"Niedersachsen"}},{"name":"Ostmarkstr.","postalCode":"29664","locality":"Walsrode","municipality":{"key":"03358024","name":"Walsrode, Stadt","type":"Stadt"},"district":{"key":"03358","name":"Heidekreis","type":"Landkreis"},"federalState":{"key":"03","name":"Niedersachsen"}},{"name":"Papiermacherkamp","postalCode":"29699","locality":"Walsrode","municipality":{"key":"03358024","name":"Walsrode, Stadt","type":"Stadt"},"district":{"key":"03358","name":"Heidekreis","type":"Landkreis"},"federalState":{"key":"03","name":"Niedersachsen"}},{"name":"Pappelweg","postalCode":"29664","locality":"Walsrode","municipality":{"key":"03358024","name":"Walsrode, Stadt","type":"Stadt"},"district":{"key":"03358","name":"Heidekreis","type":"Landkreis"},"federalState":{"key":"03","name":"Niedersachsen"}},{"name":"Parkweg","postalCode":"29664","locality":"Walsrode","municipality":{"key":"03358024","name":"Walsrode, Stadt","type":"Stadt"},"district":{"key":"03358","name":"Heidekreis","type":"Landkreis"},"federalState":{"key":"03","name":"Niedersachsen"}},{"name":"Paschewinkel","postalCode":"29664","locality":"Walsrode","municipality":{"key":"03358024","name":"Walsrode, Stadt","type":"Stadt"},"district":{"key":"03358","name":"Heidekreis","type":"Landkreis"},"federalState":{"key":"03","name":"Niedersachsen"}},{"name":"Platanenring","postalCode":"29664","locality":"Walsrode","municipality":{"key":"03358024","name":"Walsrode, Stadt","type":"Stadt"},"district":{"key":"03358","name":"Heidekreis","type":"Landkreis"},"federalState":{"key":"03","name":"Niedersachsen"}},{"name":"Pommernweg","postalCode":"29664","locality":"Walsrode","municipality":{"key":"03358024","name":"Walsrode, Stadt","type":"Stadt"},"district":{"key":"03358","name":"Heidekreis","type":"Landkreis"},"federalState":{"key":"03","name":"Niedersachsen"}},{"name":"Pommernweg","postalCode":"29699","locality":"Walsrode","municipality":{"key":"03358024","name":"Walsrode, Stadt","type":"Stadt"},"district":{"key":"03358","name":"Heidekreis","type":"Landkreis"},"federalState":{"key":"03","name":"Niedersachsen"}},{"name":"Posener Str.","postalCode":"29664","locality":"Walsrode","municipality":{"key":"03358024","name":"Walsrode, Stadt","type":"Stadt"},"district":{"key":"03358","name":"Heidekreis","type":"Landkreis"},"federalState":{"key":"03","name":"Niedersachsen"}},{"name":"Poststr.","postalCode":"29664","locality":"Walsrode","municipality":{"key":"03358024","name":"Walsrode, Stadt","type":"Stadt"},"district":{"key":"03358","name":"Heidekreis","type":"Landkreis"},"federalState":{"key":"03","name":"Niedersachsen"}},{"name":"Poststr.","postalCode":"29699","locality":"Walsrode","municipality":{"key":"03358024","name":"Walsrode, Stadt","type":"Stadt"},"district":{"key":"03358","name":"Heidekreis","type":"Landkreis"},"federalState":{"key":"03","name":"Niedersachsen"}},{"name":"Prachterstr.","postalCode":"29664","locality":"Walsrode","municipality":{"key":"03358024","name":"Walsrode, Stadt","type":"Stadt"},"district":{"key":"03358","name":"Heidekreis","type":"Landkreis"},"federalState":{"key":"03","name":"Niedersachsen"}},{"name":"Prager Str.","postalCode":"29664","locality":"Walsrode","municipality":{"key":"03358024","name":"Walsrode, Stadt","type":"Stadt"},"district":{"key":"03358","name":"Heidekreis","type":"Landkreis"},"federalState":{"key":"03","name":"Niedersachsen"}},{"name":"Quintusstr.","postalCode":"29664","locality":"Walsrode","municipality":{"key":"03358024","name":"Walsrode, Stadt","type":"Stadt"},"district":{"key":"03358","name":"Heidekreis","type":"Landkreis"},"federalState":{"key":"03","name":"Niedersachsen"}},{"name":"Raabestr.","postalCode":"29664","locality":"Walsrode","municipality":{"key":"03358024","name":"Walsrode, Stadt","type":"Stadt"},"district":{"key":"03358","name":"Heidekreis","type":"Landkreis"},"federalState":{"key":"03","name":"Niedersachsen"}},{"name":"Radewiesen","postalCode":"29664","locality":"Walsrode","municipality":{"key":"03358024","name":"Walsrode, Stadt","type":"Stadt"},"district":{"key":"03358","name":"Heidekreis","type":"Landkreis"},"federalState":{"key":"03","name":"Niedersachsen"}},{"name":"Rainstr.","postalCode":"29699","locality":"Walsrode","municipality":{"key":"03358024","name":"Walsrode, Stadt","type":"Stadt"},"district":{"key":"03358","name":"Heidekreis","type":"Landkreis"},"federalState":{"key":"03","name":"Niedersachsen"}},{"name":"Raucherhof","postalCode":"29664","locality":"Walsrode","municipality":{"key":"03358024","name":"Walsrode, Stadt","type":"Stadt"},"district":{"key":"03358","name":"Heidekreis","type":"Landkreis"},"federalState":{"key":"03","name":"Niedersachsen"}},{"name":"Rehrstr.","postalCode":"29664","locality":"Walsrode","municipality":{"key":"03358024","name":"Walsrode, Stadt","type":"Stadt"},"district":{"key":"03358","name":"Heidekreis","type":"Landkreis"},"federalState":{"key":"03","name":"Niedersachsen"}},{"name":"Rembrandtwinkel","postalCode":"29664","locality":"Walsrode","municipality":{"key":"03358024","name":"Walsrode, Stadt","type":"Stadt"},"district":{"key":"03358","name":"Heidekreis","type":"Landkreis"},"federalState":{"key":"03","name":"Niedersachsen"}},{"name":"Ricarda-Huch-Str.","postalCode":"29664","locality":"Walsrode","municipality":{"key":"03358024","name":"Walsrode, Stadt","type":"Stadt"},"district":{"key":"03358","name":"Heidekreis","type":"Landkreis"},"federalState":{"key":"03","name":"Niedersachsen"}},{"name":"Rieper Str.","postalCode":"29699","locality":"Walsrode","municipality":{"key":"03358024","name":"Walsrode, Stadt","type":"Stadt"},"district":{"key":"03358","name":"Heidekreis","type":"Landkreis"},"federalState":{"key":"03","name":"Niedersachsen"}},{"name":"Ritterspornweg","postalCode":"29664","locality":"Walsrode","municipality":{"key":"03358024","name":"Walsrode, Stadt","type":"Stadt"},"district":{"key":"03358","name":"Heidekreis","type":"Landkreis"},"federalState":{"key":"03","name":"Niedersachsen"}},{"name":"Robert-Koch-Str.","postalCode":"29664","locality":"Walsrode","municipality":{"key":"03358024","name":"Walsrode, Stadt","type":"Stadt"},"district":{"key":"03358","name":"Heidekreis","type":"Landkreis"},"federalState":{"key":"03","name":"Niedersachsen"}},{"name":"Rödershöfen","postalCode":"29664","locality":"Walsrode","municipality":{"key":"03358024","name":"Walsrode, Stadt","type":"Stadt"},"district":{"key":"03358","name":"Heidekreis","type":"Landkreis"},"federalState":{"key":"03","name":"Niedersachsen"}},{"name":"Rotdornweg","postalCode":"29664","locality":"Walsrode","municipality":{"key":"03358024","name":"Walsrode, Stadt","type":"Stadt"},"district":{"key":"03358","name":"Heidekreis","type":"Landkreis"},"federalState":{"key":"03","name":"Niedersachsen"}},{"name":"Rudolf-Steiner-Str.","postalCode":"29699","locality":"Walsrode","municipality":{"key":"03358024","name":"Walsrode, Stadt","type":"Stadt"},"district":{"key":"03358","name":"Heidekreis","type":"Landkreis"},"federalState":{"key":"03","name":"Niedersachsen"}},{"name":"Saarstr.","postalCode":"29664","locality":"Walsrode","municipality":{"key":"03358024","name":"Walsrode, Stadt","type":"Stadt"},"district":{"key":"03358","name":"Heidekreis","type":"Landkreis"},"federalState":{"key":"03","name":"Niedersachsen"}},{"name":"Saarweg","postalCode":"29699","locality":"Walsrode","municipality":{"key":"03358024","name":"Walsrode, Stadt","type":"Stadt"},"district":{"key":"03358","name":"Heidekreis","type":"Landkreis"},"federalState":{"key":"03","name":"Niedersachsen"}},{"name":"Schafdamm","postalCode":"29664","locality":"Walsrode","municipality":{"key":"03358024","name":"Walsrode, Stadt","type":"Stadt"},"district":{"key":"03358","name":"Heidekreis","type":"Landkreis"},"federalState":{"key":"03","name":"Niedersachsen"}},{"name":"Schäferweg","postalCode":"29664","locality":"Walsrode","municipality":{"key":"03358024","name":"Walsrode, Stadt","type":"Stadt"},"district":{"key":"03358","name":"Heidekreis","type":"Landkreis"},"federalState":{"key":"03","name":"Niedersachsen"}},{"name":"Schafstallweg","postalCode":"29664","locality":"Walsrode","municipality":{"key":"03358024","name":"Walsrode, Stadt","type":"Stadt"},"district":{"key":"03358","name":"Heidekreis","type":"Landkreis"},"federalState":{"key":"03","name":"Niedersachsen"}},{"name":"Schafsweide","postalCode":"29699","locality":"Walsrode","municipality":{"key":"03358024","name":"Walsrode, Stadt","type":"Stadt"},"district":{"key":"03358","name":"Heidekreis","type":"Landkreis"},"federalState":{"key":"03","name":"Niedersachsen"}},{"name":"Scharnhorststr.","postalCode":"29664","locality":"Walsrode","municipality":{"key":"03358024","name":"Walsrode, Stadt","type":"Stadt"},"district":{"key":"03358","name":"Heidekreis","type":"Landkreis"},"federalState":{"key":"03","name":"Niedersachsen"}},{"name":"Schillerstr.","postalCode":"29699","locality":"Walsrode","municipality":{"key":"03358024","name":"Walsrode, Stadt","type":"Stadt"},"district":{"key":"03358","name":"Heidekreis","type":"Landkreis"},"federalState":{"key":"03","name":"Niedersachsen"}},{"name":"Schlehenweg","postalCode":"29664","locality":"Walsrode","municipality":{"key":"03358024","name":"Walsrode, Stadt","type":"Stadt"},"district":{"key":"03358","name":"Heidekreis","type":"Landkreis"},"federalState":{"key":"03","name":"Niedersachsen"}},{"name":"Schlehenworth","postalCode":"29699","locality":"Walsrode","municipality":{"key":"03358024","name":"Walsrode, Stadt","type":"Stadt"},"district":{"key":"03358","name":"Heidekreis","type":"Landkreis"},"federalState":{"key":"03","name":"Niedersachsen"}},{"name":"Schlesierweg","postalCode":"29664","locality":"Walsrode","municipality":{"key":"03358024","name":"Walsrode, Stadt","type":"Stadt"},"district":{"key":"03358","name":"Heidekreis","type":"Landkreis"},"federalState":{"key":"03","name":"Niedersachsen"}},{"name":"Schlesier Weg","postalCode":"29699","locality":"Walsrode","municipality":{"key":"03358024","name":"Walsrode, Stadt","type":"Stadt"},"district":{"key":"03358","name":"Heidekreis","type":"Landkreis"},"federalState":{"key":"03","name":"Niedersachsen"}},{"name":"Schlüsselblumenweg","postalCode":"29664","locality":"Walsrode","municipality":{"key":"03358024","name":"Walsrode, Stadt","type":"Stadt"},"district":{"key":"03358","name":"Heidekreis","type":"Landkreis"},"federalState":{"key":"03","name":"Niedersachsen"}},{"name":"Schmersahlstr.","postalCode":"29664","locality":"Walsrode","municipality":{"key":"03358024","name":"Walsrode, Stadt","type":"Stadt"},"district":{"key":"03358","name":"Heidekreis","type":"Landkreis"},"federalState":{"key":"03","name":"Niedersachsen"}},{"name":"Schneeheide","postalCode":"29664","locality":"Walsrode","municipality":{"key":"03358024","name":"Walsrode, Stadt","type":"Stadt"},"district":{"key":"03358","name":"Heidekreis","type":"Landkreis"},"federalState":{"key":"03","name":"Niedersachsen"}},{"name":"Schnepfendamm","postalCode":"29664","locality":"Walsrode","municipality":{"key":"03358024","name":"Walsrode, Stadt","type":"Stadt"},"district":{"key":"03358","name":"Heidekreis","type":"Landkreis"},"federalState":{"key":"03","name":"Niedersachsen"}},{"name":"Schubertstr.","postalCode":"29664","locality":"Walsrode","municipality":{"key":"03358024","name":"Walsrode, Stadt","type":"Stadt"},"district":{"key":"03358","name":"Heidekreis","type":"Landkreis"},"federalState":{"key":"03","name":"Niedersachsen"}},{"name":"Schulstr.","postalCode":"29664","locality":"Walsrode","municipality":{"key":"03358024","name":"Walsrode, Stadt","type":"Stadt"},"district":{"key":"03358","name":"Heidekreis","type":"Landkreis"},"federalState":{"key":"03","name":"Niedersachsen"}},{"name":"Schulstr.","postalCode":"29699","locality":"Walsrode","municipality":{"key":"03358024","name":"Walsrode, Stadt","type":"Stadt"},"district":{"key":"03358","name":"Heidekreis","type":"Landkreis"},"federalState":{"key":"03","name":"Niedersachsen"}},{"name":"Schwalbenweg","postalCode":"29699","locality":"Walsrode","municipality":{"key":"03358024","name":"Walsrode, Stadt","type":"Stadt"},"district":{"key":"03358","name":"Heidekreis","type":"Landkreis"},"federalState":{"key":"03","name":"Niedersachsen"}},{"name":"Siedlungsstr.","postalCode":"29699","locality":"Walsrode","municipality":{"key":"03358024","name":"Walsrode, Stadt","type":"Stadt"},"district":{"key":"03358","name":"Heidekreis","type":"Landkreis"},"federalState":{"key":"03","name":"Niedersachsen"}},{"name":"Sieverdinger Kirchweg","postalCode":"29664","locality":"Walsrode","municipality":{"key":"03358024","name":"Walsrode, Stadt","type":"Stadt"},"district":{"key":"03358","name":"Heidekreis","type":"Landkreis"},"federalState":{"key":"03","name":"Niedersachsen"}},{"name":"Silberweg","postalCode":"29664","locality":"Walsrode","municipality":{"key":"03358024","name":"Walsrode, Stadt","type":"Stadt"},"district":{"key":"03358","name":"Heidekreis","type":"Landkreis"},"federalState":{"key":"03","name":"Niedersachsen"}},{"name":"Sonnenblumenweg","postalCode":"29664","locality":"Walsrode","municipality":{"key":"03358024","name":"Walsrode, Stadt","type":"Stadt"},"district":{"key":"03358","name":"Heidekreis","type":"Landkreis"},"federalState":{"key":"03","name":"Niedersachsen"}},{"name":"Sonnenweg","postalCode":"29664","locality":"Walsrode","municipality":{"key":"03358024","name":"Walsrode, Stadt","type":"Stadt"},"district":{"key":"03358","name":"Heidekreis","type":"Landkreis"},"federalState":{"key":"03","name":"Niedersachsen"}},{"name":"Sophienstr.","postalCode":"29664","locality":"Walsrode","municipality":{"key":"03358024","name":"Walsrode, Stadt","type":"Stadt"},"district":{"key":"03358","name":"Heidekreis","type":"Landkreis"},"federalState":{"key":"03","name":"Niedersachsen"}},{"name":"Speckenweg","postalCode":"29664","locality":"Walsrode","municipality":{"key":"03358024","name":"Walsrode, Stadt","type":"Stadt"},"district":{"key":"03358","name":"Heidekreis","type":"Landkreis"},"federalState":{"key":"03","name":"Niedersachsen"}},{"name":"Stadtgraben","postalCode":"29664","locality":"Walsrode","municipality":{"key":"03358024","name":"Walsrode, Stadt","type":"Stadt"},"district":{"key":"03358","name":"Heidekreis","type":"Landkreis"},"federalState":{"key":"03","name":"Niedersachsen"}},{"name":"Stadtplatz an der Böhme","postalCode":"29664","locality":"Walsrode","municipality":{"key":"03358024","name":"Walsrode, Stadt","type":"Stadt"},"district":{"key":"03358","name":"Heidekreis","type":"Landkreis"},"federalState":{"key":"03","name":"Niedersachsen"}},{"name":"Stellichte","postalCode":"29664","locality":"Walsrode","municipality":{"key":"03358024","name":"Walsrode, Stadt","type":"Stadt"},"district":{"key":"03358","name":"Heidekreis","type":"Landkreis"},"federalState":{"key":"03","name":"Niedersachsen"}},{"name":"Stettiner Str.","postalCode":"29699","locality":"Walsrode","municipality":{"key":"03358024","name":"Walsrode, Stadt","type":"Stadt"},"district":{"key":"03358","name":"Heidekreis","type":"Landkreis"},"federalState":{"key":"03","name":"Niedersachsen"}},{"name":"Stormstr.","postalCode":"29664","locality":"Walsrode","municipality":{"key":"03358024","name":"Walsrode, Stadt","type":"Stadt"},"district":{"key":"03358","name":"Heidekreis","type":"Landkreis"},"federalState":{"key":"03","name":"Niedersachsen"}},{"name":"Sudetenstr.","postalCode":"29664","locality":"Walsrode","municipality":{"key":"03358024","name":"Walsrode, Stadt","type":"Stadt"},"district":{"key":"03358","name":"Heidekreis","type":"Landkreis"},"federalState":{"key":"03","name":"Niedersachsen"}},{"name":"Südkampen","postalCode":"29664","locality":"Walsrode","municipality":{"key":"03358024","name":"Walsrode, Stadt","type":"Stadt"},"district":{"key":"03358","name":"Heidekreis","type":"Landkreis"},"federalState":{"key":"03","name":"Niedersachsen"}},{"name":"Sunderstr.","postalCode":"29664","locality":"Walsrode","municipality":{"key":"03358024","name":"Walsrode, Stadt","type":"Stadt"},"district":{"key":"03358","name":"Heidekreis","type":"Landkreis"},"federalState":{"key":"03","name":"Niedersachsen"}},{"name":"Talblick","postalCode":"29664","locality":"Walsrode","municipality":{"key":"03358024","name":"Walsrode, Stadt","type":"Stadt"},"district":{"key":"03358","name":"Heidekreis","type":"Landkreis"},"federalState":{"key":"03","name":"Niedersachsen"}},{"name":"Tannenstr.","postalCode":"29699","locality":"Walsrode","municipality":{"key":"03358024","name":"Walsrode, Stadt","type":"Stadt"},"district":{"key":"03358","name":"Heidekreis","type":"Landkreis"},"federalState":{"key":"03","name":"Niedersachsen"}},{"name":"Tannenweg","postalCode":"29664","locality":"Walsrode","municipality":{"key":"03358024","name":"Walsrode, Stadt","type":"Stadt"},"district":{"key":"03358","name":"Heidekreis","type":"Landkreis"},"federalState":{"key":"03","name":"Niedersachsen"}},{"name":"Thorner Str.","postalCode":"29664","locality":"Walsrode","municipality":{"key":"03358024","name":"Walsrode, Stadt","type":"Stadt"},"district":{"key":"03358","name":"Heidekreis","type":"Landkreis"},"federalState":{"key":"03","name":"Niedersachsen"}},{"name":"Tiefe Wiese","postalCode":"29664","locality":"Walsrode","municipality":{"key":"03358024","name":"Walsrode, Stadt","type":"Stadt"},"district":{"key":"03358","name":"Heidekreis","type":"Landkreis"},"federalState":{"key":"03","name":"Niedersachsen"}},{"name":"Triftweg","postalCode":"29664","locality":"Walsrode","municipality":{"key":"03358024","name":"Walsrode, Stadt","type":"Stadt"},"district":{"key":"03358","name":"Heidekreis","type":"Landkreis"},"federalState":{"key":"03","name":"Niedersachsen"}},{"name":"Uetzingener Kirchweg","postalCode":"29664","locality":"Walsrode","municipality":{"key":"03358024","name":"Walsrode, Stadt","type":"Stadt"},"district":{"key":"03358","name":"Heidekreis","type":"Landkreis"},"federalState":{"key":"03","name":"Niedersachsen"}},{"name":"Uetzinger Str.","postalCode":"29664","locality":"Walsrode","municipality":{"key":"03358024","name":"Walsrode, Stadt","type":"Stadt"},"district":{"key":"03358","name":"Heidekreis","type":"Landkreis"},"federalState":{"key":"03","name":"Niedersachsen"}},{"name":"Uferstr.","postalCode":"29699","locality":"Walsrode","municipality":{"key":"03358024","name":"Walsrode, Stadt","type":"Stadt"},"district":{"key":"03358","name":"Heidekreis","type":"Landkreis"},"federalState":{"key":"03","name":"Niedersachsen"}},{"name":"Ulmenweg","postalCode":"29664","locality":"Walsrode","municipality":{"key":"03358024","name":"Walsrode, Stadt","type":"Stadt"},"district":{"key":"03358","name":"Heidekreis","type":"Landkreis"},"federalState":{"key":"03","name":"Niedersachsen"}},{"name":"Verdener Str.","postalCode":"29664","locality":"Walsrode","municipality":{"key":"03358024","name":"Walsrode, Stadt","type":"Stadt"},"district":{"key":"03358","name":"Heidekreis","type":"Landkreis"},"federalState":{"key":"03","name":"Niedersachsen"}},{"name":"Vethem","postalCode":"29664","locality":"Walsrode","municipality":{"key":"03358024","name":"Walsrode, Stadt","type":"Stadt"},"district":{"key":"03358","name":"Heidekreis","type":"Landkreis"},"federalState":{"key":"03","name":"Niedersachsen"}},{"name":"Vitzer Kirchweg","postalCode":"29664","locality":"Walsrode","municipality":{"key":"03358024","name":"Walsrode, Stadt","type":"Stadt"},"district":{"key":"03358","name":"Heidekreis","type":"Landkreis"},"federalState":{"key":"03","name":"Niedersachsen"}},{"name":"Volkmannstr.","postalCode":"29664","locality":"Walsrode","municipality":{"key":"03358024","name":"Walsrode, Stadt","type":"Stadt"},"district":{"key":"03358","name":"Heidekreis","type":"Landkreis"},"federalState":{"key":"03","name":"Niedersachsen"}},{"name":"Von-Hodenberg-Str.","postalCode":"29664","locality":"Walsrode","municipality":{"key":"03358024","name":"Walsrode, Stadt","type":"Stadt"},"district":{"key":"03358","name":"Heidekreis","type":"Landkreis"},"federalState":{"key":"03","name":"Niedersachsen"}},{"name":"Von-Stoltzenberg-Str.","postalCode":"29664","locality":"Walsrode","municipality":{"key":"03358024","name":"Walsrode, Stadt","type":"Stadt"},"district":{"key":"03358","name":"Heidekreis","type":"Landkreis"},"federalState":{"key":"03","name":"Niedersachsen"}},{"name":"Vorbrücker Ring","postalCode":"29664","locality":"Walsrode","municipality":{"key":"03358024","name":"Walsrode, Stadt","type":"Stadt"},"district":{"key":"03358","name":"Heidekreis","type":"Landkreis"},"federalState":{"key":"03","name":"Niedersachsen"}},{"name":"Vor dem Balken","postalCode":"29664","locality":"Walsrode","municipality":{"key":"03358024","name":"Walsrode, Stadt","type":"Stadt"},"district":{"key":"03358","name":"Heidekreis","type":"Landkreis"},"federalState":{"key":"03","name":"Niedersachsen"}},{"name":"Vor dem Uhlenbusch","postalCode":"29664","locality":"Walsrode","municipality":{"key":"03358024","name":"Walsrode, Stadt","type":"Stadt"},"district":{"key":"03358","name":"Heidekreis","type":"Landkreis"},"federalState":{"key":"03","name":"Niedersachsen"}},{"name":"Wacholderstr.","postalCode":"29699","locality":"Walsrode","municipality":{"key":"03358024","name":"Walsrode, Stadt","type":"Stadt"},"district":{"key":"03358","name":"Heidekreis","type":"Landkreis"},"federalState":{"key":"03","name":"Niedersachsen"}},{"name":"Wacholderweg","postalCode":"29664","locality":"Walsrode","municipality":{"key":"03358024","name":"Walsrode, Stadt","type":"Stadt"},"district":{"key":"03358","name":"Heidekreis","type":"Landkreis"},"federalState":{"key":"03","name":"Niedersachsen"}},{"name":"Waetgenstr.","postalCode":"29664","locality":"Walsrode","municipality":{"key":"03358024","name":"Walsrode, Stadt","type":"Stadt"},"district":{"key":"03358","name":"Heidekreis","type":"Landkreis"},"federalState":{"key":"03","name":"Niedersachsen"}},{"name":"Waldstr.","postalCode":"29699","locality":"Walsrode","municipality":{"key":"03358024","name":"Walsrode, Stadt","type":"Stadt"},"district":{"key":"03358","name":"Heidekreis","type":"Landkreis"},"federalState":{"key":"03","name":"Niedersachsen"}},{"name":"Walsroder Str.","postalCode":"29664","locality":"Walsrode","municipality":{"key":"03358024","name":"Walsrode, Stadt","type":"Stadt"},"district":{"key":"03358","name":"Heidekreis","type":"Landkreis"},"federalState":{"key":"03","name":"Niedersachsen"}},{"name":"Walsroder Str.","postalCode":"29699","locality":"Walsrode","municipality":{"key":"03358024","name":"Walsrode, Stadt","type":"Stadt"},"district":{"key":"03358","name":"Heidekreis","type":"Landkreis"},"federalState":{"key":"03","name":"Niedersachsen"}},{"name":"Walter-Christoph-Platz","postalCode":"29699","locality":"Walsrode","municipality":{"key":"03358024","name":"Walsrode, Stadt","type":"Stadt"},"district":{"key":"03358","name":"Heidekreis","type":"Landkreis"},"federalState":{"key":"03","name":"Niedersachsen"}},{"name":"Wedden","postalCode":"29664","locality":"Walsrode","municipality":{"key":"03358024","name":"Walsrode, Stadt","type":"Stadt"},"district":{"key":"03358","name":"Heidekreis","type":"Landkreis"},"federalState":{"key":"03","name":"Niedersachsen"}},{"name":"Weddenwiesen","postalCode":"29664","locality":"Walsrode","municipality":{"key":"03358024","name":"Walsrode, Stadt","type":"Stadt"},"district":{"key":"03358","name":"Heidekreis","type":"Landkreis"},"federalState":{"key":"03","name":"Niedersachsen"}},{"name":"Westenholz","postalCode":"29664","locality":"Walsrode","municipality":{"key":"03358024","name":"Walsrode, Stadt","type":"Stadt"},"district":{"key":"03358","name":"Heidekreis","type":"Landkreis"},"federalState":{"key":"03","name":"Niedersachsen"}},{"name":"Westerharler Str.","postalCode":"29699","locality":"Walsrode","municipality":{"key":"03358024","name":"Walsrode, Stadt","type":"Stadt"},"district":{"key":"03358","name":"Heidekreis","type":"Landkreis"},"federalState":{"key":"03","name":"Niedersachsen"}},{"name":"Wiener Platz","postalCode":"29664","locality":"Walsrode","municipality":{"key":"03358024","name":"Walsrode, Stadt","type":"Stadt"},"district":{"key":"03358","name":"Heidekreis","type":"Landkreis"},"federalState":{"key":"03","name":"Niedersachsen"}},{"name":"Wiesenstr.","postalCode":"29664","locality":"Walsrode","municipality":{"key":"03358024","name":"Walsrode, Stadt","type":"Stadt"},"district":{"key":"03358","name":"Heidekreis","type":"Landkreis"},"federalState":{"key":"03","name":"Niedersachsen"}},{"name":"Wiesenstr.","postalCode":"29699","locality":"Walsrode","municipality":{"key":"03358024","name":"Walsrode, Stadt","type":"Stadt"},"district":{"key":"03358","name":"Heidekreis","type":"Landkreis"},"federalState":{"key":"03","name":"Niedersachsen"}},{"name":"Wilhelm-Asche-Weg","postalCode":"29664","locality":"Walsrode","municipality":{"key":"03358024","name":"Walsrode, Stadt","type":"Stadt"},"district":{"key":"03358","name":"Heidekreis","type":"Landkreis"},"federalState":{"key":"03","name":"Niedersachsen"}},{"name":"Wilhelm-Busch-Weg","postalCode":"29664","locality":"Walsrode","municipality":{"key":"03358024","name":"Walsrode, Stadt","type":"Stadt"},"district":{"key":"03358","name":"Heidekreis","type":"Landkreis"},"federalState":{"key":"03","name":"Niedersachsen"}},{"name":"Winkelkamp","postalCode":"29664","locality":"Walsrode","municipality":{"key":"03358024","name":"Walsrode, Stadt","type":"Stadt"},"district":{"key":"03358","name":"Heidekreis","type":"Landkreis"},"federalState":{"key":"03","name":"Niedersachsen"}},{"name":"Witternstr.","postalCode":"29664","locality":"Walsrode","municipality":{"key":"03358024","name":"Walsrode, Stadt","type":"Stadt"},"district":{"key":"03358","name":"Heidekreis","type":"Landkreis"},"federalState":{"key":"03","name":"Niedersachsen"}},{"name":"Witwengarten","postalCode":"29664","locality":"Walsrode","municipality":{"key":"03358024","name":"Walsrode, Stadt","type":"Stadt"},"district":{"key":"03358","name":"Heidekreis","type":"Landkreis"},"federalState":{"key":"03","name":"Niedersachsen"}},{"name":"Worth","postalCode":"29664","locality":"Walsrode","municipality":{"key":"03358024","name":"Walsrode, Stadt","type":"Stadt"},"district":{"key":"03358","name":"Heidekreis","type":"Landkreis"},"federalState":{"key":"03","name":"Niedersachsen"}},{"name":"Wurzelförde","postalCode":"29664","locality":"Walsrode","municipality":{"key":"03358024","name":"Walsrode, Stadt","type":"Stadt"},"district":{"key":"03358","name":"Heidekreis","type":"Landkreis"},"federalState":{"key":"03","name":"Niedersachsen"}},{"name":"Zaltbommeler Str.","postalCode":"29664","locality":"Walsrode","municipality":{"key":"03358024","name":"Walsrode, Stadt","type":"Stadt"},"district":{"key":"03358","name":"Heidekreis","type":"Landkreis"},"federalState":{"key":"03","name":"Niedersachsen"}},{"name":"Zedernweg","postalCode":"29664","locality":"Walsrode","municipality":{"key":"03358024","name":"Walsrode, Stadt","type":"Stadt"},"district":{"key":"03358","name":"Heidekreis","type":"Landkreis"},"federalState":{"key":"03","name":"Niedersachsen"}},{"name":"Ziegelweg","postalCode":"29664","locality":"Walsrode","municipality":{"key":"03358024","name":"Walsrode, Stadt","type":"Stadt"},"district":{"key":"03358","name":"Heidekreis","type":"Landkreis"},"federalState":{"key":"03","name":"Niedersachsen"}},{"name":"Zum Hohen Felde","postalCode":"29699","locality":"Walsrode","municipality":{"key":"03358024","name":"Walsrode, Stadt","type":"Stadt"},"district":{"key":"03358","name":"Heidekreis","type":"Landkreis"},"federalState":{"key":"03","name":"Niedersachsen"}},{"name":"Zum Wiesengrund","postalCode":"29699","locality":"Walsrode","municipality":{"key":"03358024","name":"Walsrode, Stadt","type":"Stadt"},"district":{"key":"03358","name":"Heidekreis","type":"Landkreis"},"federalState":{"key":"03","name":"Niedersachsen"}},{"name":"Zur Beeke","postalCode":"29699","locality":"Walsrode","municipality":{"key":"03358024","name":"Walsrode, Stadt","type":"Stadt"},"district":{"key":"03358","name":"Heidekreis","type":"Landkreis"},"federalState":{"key":"03","name":"Niedersachsen"}},]