[{"name":"Ahornweg","postalCode":"77761","locality":"Schiltach","municipality":{"key":"08325051","name":"Schiltach, Stadt","type":"Stadt"},"district":{"key":"08325","name":"Rottweil","type":"Landkreis"},"federalState":{"key":"08","name":"Baden-Württemberg"}},{"name":"Akazienweg","postalCode":"77761","locality":"Schiltach","municipality":{"key":"08325051","name":"Schiltach, Stadt","type":"Stadt"},"district":{"key":"08325","name":"Rottweil","type":"Landkreis"},"federalState":{"key":"08","name":"Baden-Württemberg"}},{"name":"Am Häberlesberg","postalCode":"77761","locality":"Schiltach","municipality":{"key":"08325051","name":"Schiltach, Stadt","type":"Stadt"},"district":{"key":"08325","name":"Rottweil","type":"Landkreis"},"federalState":{"key":"08","name":"Baden-Württemberg"}},{"name":"Am Herdweg","postalCode":"77761","locality":"Schiltach","municipality":{"key":"08325051","name":"Schiltach, Stadt","type":"Stadt"},"district":{"key":"08325","name":"Rottweil","type":"Landkreis"},"federalState":{"key":"08","name":"Baden-Württemberg"}},{"name":"Am Hirschen","postalCode":"77761","locality":"Schiltach","municipality":{"key":"08325051","name":"Schiltach, Stadt","type":"Stadt"},"district":{"key":"08325","name":"Rottweil","type":"Landkreis"},"federalState":{"key":"08","name":"Baden-Württemberg"}},{"name":"Am Hohenstein","postalCode":"77761","locality":"Schiltach","municipality":{"key":"08325051","name":"Schiltach, Stadt","type":"Stadt"},"district":{"key":"08325","name":"Rottweil","type":"Landkreis"},"federalState":{"key":"08","name":"Baden-Württemberg"}},{"name":"Am Hutschberg","postalCode":"77761","locality":"Schiltach","municipality":{"key":"08325051","name":"Schiltach, Stadt","type":"Stadt"},"district":{"key":"08325","name":"Rottweil","type":"Landkreis"},"federalState":{"key":"08","name":"Baden-Württemberg"}},{"name":"Am Kanal","postalCode":"77761","locality":"Schiltach","municipality":{"key":"08325051","name":"Schiltach, Stadt","type":"Stadt"},"district":{"key":"08325","name":"Rottweil","type":"Landkreis"},"federalState":{"key":"08","name":"Baden-Württemberg"}},{"name":"Am Lehen","postalCode":"77761","locality":"Schiltach","municipality":{"key":"08325051","name":"Schiltach, Stadt","type":"Stadt"},"district":{"key":"08325","name":"Rottweil","type":"Landkreis"},"federalState":{"key":"08","name":"Baden-Württemberg"}},{"name":"Am Reinhardsbächle","postalCode":"77761","locality":"Schiltach","municipality":{"key":"08325051","name":"Schiltach, Stadt","type":"Stadt"},"district":{"key":"08325","name":"Rottweil","type":"Landkreis"},"federalState":{"key":"08","name":"Baden-Württemberg"}},{"name":"An den Gärten","postalCode":"77761","locality":"Schiltach","municipality":{"key":"08325051","name":"Schiltach, Stadt","type":"Stadt"},"district":{"key":"08325","name":"Rottweil","type":"Landkreis"},"federalState":{"key":"08","name":"Baden-Württemberg"}},{"name":"Auestr.","postalCode":"77761","locality":"Schiltach","municipality":{"key":"08325051","name":"Schiltach, Stadt","type":"Stadt"},"district":{"key":"08325","name":"Rottweil","type":"Landkreis"},"federalState":{"key":"08","name":"Baden-Württemberg"}},{"name":"Bachstr.","postalCode":"77761","locality":"Schiltach","municipality":{"key":"08325051","name":"Schiltach, Stadt","type":"Stadt"},"district":{"key":"08325","name":"Rottweil","type":"Landkreis"},"federalState":{"key":"08","name":"Baden-Württemberg"}},{"name":"Bahnhofstr.","postalCode":"77761","locality":"Schiltach","municipality":{"key":"08325051","name":"Schiltach, Stadt","type":"Stadt"},"district":{"key":"08325","name":"Rottweil","type":"Landkreis"},"federalState":{"key":"08","name":"Baden-Württemberg"}},{"name":"Baldersäcker","postalCode":"77761","locality":"Schiltach","municipality":{"key":"08325051","name":"Schiltach, Stadt","type":"Stadt"},"district":{"key":"08325","name":"Rottweil","type":"Landkreis"},"federalState":{"key":"08","name":"Baden-Württemberg"}},{"name":"Baldersberg","postalCode":"77761","locality":"Schiltach","municipality":{"key":"08325051","name":"Schiltach, Stadt","type":"Stadt"},"district":{"key":"08325","name":"Rottweil","type":"Landkreis"},"federalState":{"key":"08","name":"Baden-Württemberg"}},{"name":"Baumgartenstr.","postalCode":"77761","locality":"Schiltach","municipality":{"key":"08325051","name":"Schiltach, Stadt","type":"Stadt"},"district":{"key":"08325","name":"Rottweil","type":"Landkreis"},"federalState":{"key":"08","name":"Baden-Württemberg"}},{"name":"Beim E-Werk","postalCode":"77761","locality":"Schiltach","municipality":{"key":"08325051","name":"Schiltach, Stadt","type":"Stadt"},"district":{"key":"08325","name":"Rottweil","type":"Landkreis"},"federalState":{"key":"08","name":"Baden-Württemberg"}},{"name":"Bickenmäuerle","postalCode":"77761","locality":"Schiltach","municipality":{"key":"08325051","name":"Schiltach, Stadt","type":"Stadt"},"district":{"key":"08325","name":"Rottweil","type":"Landkreis"},"federalState":{"key":"08","name":"Baden-Württemberg"}},{"name":"Birkenweg","postalCode":"77761","locality":"Schiltach","municipality":{"key":"08325051","name":"Schiltach, Stadt","type":"Stadt"},"district":{"key":"08325","name":"Rottweil","type":"Landkreis"},"federalState":{"key":"08","name":"Baden-Württemberg"}},{"name":"Blattenhäuserwiese","postalCode":"77761","locality":"Schiltach","municipality":{"key":"08325051","name":"Schiltach, Stadt","type":"Stadt"},"district":{"key":"08325","name":"Rottweil","type":"Landkreis"},"federalState":{"key":"08","name":"Baden-Württemberg"}},{"name":"Bohmen","postalCode":"77709","locality":"Schiltach","municipality":{"key":"08325051","name":"Schiltach, Stadt","type":"Stadt"},"district":{"key":"08325","name":"Rottweil","type":"Landkreis"},"federalState":{"key":"08","name":"Baden-Württemberg"}},{"name":"Breitwiese","postalCode":"77761","locality":"Schiltach","municipality":{"key":"08325051","name":"Schiltach, Stadt","type":"Stadt"},"district":{"key":"08325","name":"Rottweil","type":"Landkreis"},"federalState":{"key":"08","name":"Baden-Württemberg"}},{"name":"Buchenweg","postalCode":"77761","locality":"Schiltach","municipality":{"key":"08325051","name":"Schiltach, Stadt","type":"Stadt"},"district":{"key":"08325","name":"Rottweil","type":"Landkreis"},"federalState":{"key":"08","name":"Baden-Württemberg"}},{"name":"Charlottenwäldle","postalCode":"78628","locality":"Rottweil","municipality":{"key":"08325049","name":"Rottweil, Stadt","type":"Große_Kreisstadt"},"district":{"key":"08325","name":"Rottweil","type":"Landkreis"},"federalState":{"key":"08","name":"Baden-Württemberg"}},{"name":"Chemnitzer Str.","postalCode":"78658","locality":"Zimmern ob Rottweil","municipality":{"key":"08325069","name":"Zimmern ob Rottweil","type":"Kreisangehörige_Gemeinde"},"district":{"key":"08325","name":"Rottweil","type":"Landkreis"},"federalState":{"key":"08","name":"Baden-Württemberg"}},{"name":"Christian-Fader-Weg","postalCode":"78628","locality":"Rottweil","municipality":{"key":"08325049","name":"Rottweil, Stadt","type":"Große_Kreisstadt"},"district":{"key":"08325","name":"Rottweil","type":"Landkreis"},"federalState":{"key":"08","name":"Baden-Württemberg"}},{"name":"Daimlerstr.","postalCode":"78628","locality":"Rottweil","municipality":{"key":"08325049","name":"Rottweil, Stadt","type":"Große_Kreisstadt"},"district":{"key":"08325","name":"Rottweil","type":"Landkreis"},"federalState":{"key":"08","name":"Baden-Württemberg"}},{"name":"Dammstr.","postalCode":"78628","locality":"Rottweil","municipality":{"key":"08325049","name":"Rottweil, Stadt","type":"Große_Kreisstadt"},"district":{"key":"08325","name":"Rottweil","type":"Landkreis"},"federalState":{"key":"08","name":"Baden-Württemberg"}},{"name":"Danziger Str.","postalCode":"78628","locality":"Rottweil","municipality":{"key":"08325049","name":"Rottweil, Stadt","type":"Große_Kreisstadt"},"district":{"key":"08325","name":"Rottweil","type":"Landkreis"},"federalState":{"key":"08","name":"Baden-Württemberg"}},{"name":"Darrenbaum","postalCode":"78628","locality":"Rottweil","municipality":{"key":"08325049","name":"Rottweil, Stadt","type":"Große_Kreisstadt"},"district":{"key":"08325","name":"Rottweil","type":"Landkreis"},"federalState":{"key":"08","name":"Baden-Württemberg"}},{"name":"Dietinger Str.","postalCode":"78628","locality":"Rottweil","municipality":{"key":"08325049","name":"Rottweil, Stadt","type":"Große_Kreisstadt"},"district":{"key":"08325","name":"Rottweil","type":"Landkreis"},"federalState":{"key":"08","name":"Baden-Württemberg"}},{"name":"Dissenhornweg","postalCode":"78628","locality":"Rottweil","municipality":{"key":"08325049","name":"Rottweil, Stadt","type":"Große_Kreisstadt"},"district":{"key":"08325","name":"Rottweil","type":"Landkreis"},"federalState":{"key":"08","name":"Baden-Württemberg"}},{"name":"Dornentalweg","postalCode":"78628","locality":"Rottweil","municipality":{"key":"08325049","name":"Rottweil, Stadt","type":"Große_Kreisstadt"},"district":{"key":"08325","name":"Rottweil","type":"Landkreis"},"federalState":{"key":"08","name":"Baden-Württemberg"}},{"name":"Dreifaltigkeitsbergweg","postalCode":"78628","locality":"Rottweil","municipality":{"key":"08325049","name":"Rottweil, Stadt","type":"Große_Kreisstadt"},"district":{"key":"08325","name":"Rottweil","type":"Landkreis"},"federalState":{"key":"08","name":"Baden-Württemberg"}},{"name":"Dresdener Str.","postalCode":"78658","locality":"Zimmern ob Rottweil","municipality":{"key":"08325069","name":"Zimmern ob Rottweil","type":"Kreisangehörige_Gemeinde"},"district":{"key":"08325","name":"Rottweil","type":"Landkreis"},"federalState":{"key":"08","name":"Baden-Württemberg"}},{"name":"Drosselstr.","postalCode":"78628","locality":"Rottweil","municipality":{"key":"08325049","name":"Rottweil, Stadt","type":"Große_Kreisstadt"},"district":{"key":"08325","name":"Rottweil","type":"Landkreis"},"federalState":{"key":"08","name":"Baden-Württemberg"}},{"name":"Durschstr.","postalCode":"78628","locality":"Rottweil","municipality":{"key":"08325049","name":"Rottweil, Stadt","type":"Große_Kreisstadt"},"district":{"key":"08325","name":"Rottweil","type":"Landkreis"},"federalState":{"key":"08","name":"Baden-Württemberg"}},{"name":"Duttenhoferstr.","postalCode":"78628","locality":"Rottweil","municipality":{"key":"08325049","name":"Rottweil, Stadt","type":"Große_Kreisstadt"},"district":{"key":"08325","name":"Rottweil","type":"Landkreis"},"federalState":{"key":"08","name":"Baden-Württemberg"}},{"name":"Eichwaldweg","postalCode":"77761","locality":"Schiltach","municipality":{"key":"08325051","name":"Schiltach, Stadt","type":"Stadt"},"district":{"key":"08325","name":"Rottweil","type":"Landkreis"},"federalState":{"key":"08","name":"Baden-Württemberg"}},{"name":"Erlenweg","postalCode":"77761","locality":"Schiltach","municipality":{"key":"08325051","name":"Schiltach, Stadt","type":"Stadt"},"district":{"key":"08325","name":"Rottweil","type":"Landkreis"},"federalState":{"key":"08","name":"Baden-Württemberg"}},{"name":"Eythstr.","postalCode":"77761","locality":"Schiltach","municipality":{"key":"08325051","name":"Schiltach, Stadt","type":"Stadt"},"district":{"key":"08325","name":"Rottweil","type":"Landkreis"},"federalState":{"key":"08","name":"Baden-Württemberg"}},{"name":"Fichtenweg","postalCode":"77761","locality":"Schiltach","municipality":{"key":"08325051","name":"Schiltach, Stadt","type":"Stadt"},"district":{"key":"08325","name":"Rottweil","type":"Landkreis"},"federalState":{"key":"08","name":"Baden-Württemberg"}},{"name":"Froschgraben","postalCode":"77761","locality":"Schiltach","municipality":{"key":"08325051","name":"Schiltach, Stadt","type":"Stadt"},"district":{"key":"08325","name":"Rottweil","type":"Landkreis"},"federalState":{"key":"08","name":"Baden-Württemberg"}},{"name":"Gerbergasse","postalCode":"77761","locality":"Schiltach","municipality":{"key":"08325051","name":"Schiltach, Stadt","type":"Stadt"},"district":{"key":"08325","name":"Rottweil","type":"Landkreis"},"federalState":{"key":"08","name":"Baden-Württemberg"}},{"name":"Geroltzhäuser Weg","postalCode":"77761","locality":"Schiltach","municipality":{"key":"08325051","name":"Schiltach, Stadt","type":"Stadt"},"district":{"key":"08325","name":"Rottweil","type":"Landkreis"},"federalState":{"key":"08","name":"Baden-Württemberg"}},{"name":"Gerolzhäuser Weg","postalCode":"77761","locality":"Schiltach","municipality":{"key":"08325051","name":"Schiltach, Stadt","type":"Stadt"},"district":{"key":"08325","name":"Rottweil","type":"Landkreis"},"federalState":{"key":"08","name":"Baden-Württemberg"}},{"name":"Grubacker","postalCode":"77761","locality":"Schiltach","municipality":{"key":"08325051","name":"Schiltach, Stadt","type":"Stadt"},"district":{"key":"08325","name":"Rottweil","type":"Landkreis"},"federalState":{"key":"08","name":"Baden-Württemberg"}},{"name":"Grumpen","postalCode":"77761","locality":"Schiltach","municipality":{"key":"08325051","name":"Schiltach, Stadt","type":"Stadt"},"district":{"key":"08325","name":"Rottweil","type":"Landkreis"},"federalState":{"key":"08","name":"Baden-Württemberg"}},{"name":"Gründleweg","postalCode":"77761","locality":"Schiltach","municipality":{"key":"08325051","name":"Schiltach, Stadt","type":"Stadt"},"district":{"key":"08325","name":"Rottweil","type":"Landkreis"},"federalState":{"key":"08","name":"Baden-Württemberg"}},{"name":"Grünstr.","postalCode":"77761","locality":"Schiltach","municipality":{"key":"08325051","name":"Schiltach, Stadt","type":"Stadt"},"district":{"key":"08325","name":"Rottweil","type":"Landkreis"},"federalState":{"key":"08","name":"Baden-Württemberg"}},{"name":"Häberlesbrücke","postalCode":"77761","locality":"Schiltach","municipality":{"key":"08325051","name":"Schiltach, Stadt","type":"Stadt"},"district":{"key":"08325","name":"Rottweil","type":"Landkreis"},"federalState":{"key":"08","name":"Baden-Württemberg"}},{"name":"Hans-Grohe-Str.","postalCode":"77761","locality":"Schiltach","municipality":{"key":"08325051","name":"Schiltach, Stadt","type":"Stadt"},"district":{"key":"08325","name":"Rottweil","type":"Landkreis"},"federalState":{"key":"08","name":"Baden-Württemberg"}},{"name":"Hauptstr.","postalCode":"77761","locality":"Schiltach","municipality":{"key":"08325051","name":"Schiltach, Stadt","type":"Stadt"},"district":{"key":"08325","name":"Rottweil","type":"Landkreis"},"federalState":{"key":"08","name":"Baden-Württemberg"}},{"name":"Heidelbeerbühl","postalCode":"77761","locality":"Schiltach","municipality":{"key":"08325051","name":"Schiltach, Stadt","type":"Stadt"},"district":{"key":"08325","name":"Rottweil","type":"Landkreis"},"federalState":{"key":"08","name":"Baden-Württemberg"}},{"name":"Hoffeldstr.","postalCode":"77761","locality":"Schiltach","municipality":{"key":"08325051","name":"Schiltach, Stadt","type":"Stadt"},"district":{"key":"08325","name":"Rottweil","type":"Landkreis"},"federalState":{"key":"08","name":"Baden-Württemberg"}},{"name":"Höfleweg","postalCode":"77761","locality":"Schiltach","municipality":{"key":"08325051","name":"Schiltach, Stadt","type":"Stadt"},"district":{"key":"08325","name":"Rottweil","type":"Landkreis"},"federalState":{"key":"08","name":"Baden-Württemberg"}},{"name":"Hohensteinstr.","postalCode":"77761","locality":"Schiltach","municipality":{"key":"08325051","name":"Schiltach, Stadt","type":"Stadt"},"district":{"key":"08325","name":"Rottweil","type":"Landkreis"},"federalState":{"key":"08","name":"Baden-Württemberg"}},{"name":"Im Brühl","postalCode":"78628","locality":"Rottweil","municipality":{"key":"08325049","name":"Rottweil, Stadt","type":"Große_Kreisstadt"},"district":{"key":"08325","name":"Rottweil","type":"Landkreis"},"federalState":{"key":"08","name":"Baden-Württemberg"}},{"name":"Im Eschle","postalCode":"78628","locality":"Rottweil","municipality":{"key":"08325049","name":"Rottweil, Stadt","type":"Große_Kreisstadt"},"district":{"key":"08325","name":"Rottweil","type":"Landkreis"},"federalState":{"key":"08","name":"Baden-Württemberg"}},{"name":"Im Galgen","postalCode":"78658","locality":"Zimmern ob Rottweil","municipality":{"key":"08325069","name":"Zimmern ob Rottweil","type":"Kreisangehörige_Gemeinde"},"district":{"key":"08325","name":"Rottweil","type":"Landkreis"},"federalState":{"key":"08","name":"Baden-Württemberg"}},{"name":"Im Geigenrain","postalCode":"78628","locality":"Rottweil","municipality":{"key":"08325049","name":"Rottweil, Stadt","type":"Große_Kreisstadt"},"district":{"key":"08325","name":"Rottweil","type":"Landkreis"},"federalState":{"key":"08","name":"Baden-Württemberg"}},{"name":"Im Grund","postalCode":"78658","locality":"Zimmern ob Rottweil","municipality":{"key":"08325069","name":"Zimmern ob Rottweil","type":"Kreisangehörige_Gemeinde"},"district":{"key":"08325","name":"Rottweil","type":"Landkreis"},"federalState":{"key":"08","name":"Baden-Württemberg"}},{"name":"Im Hanfgarten","postalCode":"78658","locality":"Zimmern ob Rottweil","municipality":{"key":"08325069","name":"Zimmern ob Rottweil","type":"Kreisangehörige_Gemeinde"},"district":{"key":"08325","name":"Rottweil","type":"Landkreis"},"federalState":{"key":"08","name":"Baden-Württemberg"}},{"name":"Im Himmelreich","postalCode":"78628","locality":"Rottweil","municipality":{"key":"08325049","name":"Rottweil, Stadt","type":"Große_Kreisstadt"},"district":{"key":"08325","name":"Rottweil","type":"Landkreis"},"federalState":{"key":"08","name":"Baden-Württemberg"}},{"name":"Im Kapellenösch","postalCode":"78628","locality":"Rottweil","municipality":{"key":"08325049","name":"Rottweil, Stadt","type":"Große_Kreisstadt"},"district":{"key":"08325","name":"Rottweil","type":"Landkreis"},"federalState":{"key":"08","name":"Baden-Württemberg"}},{"name":"Im Lachengrund","postalCode":"78658","locality":"Zimmern ob Rottweil","municipality":{"key":"08325069","name":"Zimmern ob Rottweil","type":"Kreisangehörige_Gemeinde"},"district":{"key":"08325","name":"Rottweil","type":"Landkreis"},"federalState":{"key":"08","name":"Baden-Württemberg"}},{"name":"Immelwiesen","postalCode":"78658","locality":"Zimmern ob Rottweil","municipality":{"key":"08325069","name":"Zimmern ob Rottweil","type":"Kreisangehörige_Gemeinde"},"district":{"key":"08325","name":"Rottweil","type":"Landkreis"},"federalState":{"key":"08","name":"Baden-Württemberg"}},{"name":"Im Schönsteinle","postalCode":"78658","locality":"Zimmern ob Rottweil","municipality":{"key":"08325069","name":"Zimmern ob Rottweil","type":"Kreisangehörige_Gemeinde"},"district":{"key":"08325","name":"Rottweil","type":"Landkreis"},"federalState":{"key":"08","name":"Baden-Württemberg"}},{"name":"Imster Str.","postalCode":"78628","locality":"Rottweil","municipality":{"key":"08325049","name":"Rottweil, Stadt","type":"Große_Kreisstadt"},"district":{"key":"08325","name":"Rottweil","type":"Landkreis"},"federalState":{"key":"08","name":"Baden-Württemberg"}},{"name":"Im St.Michael","postalCode":"78628","locality":"Rottweil","municipality":{"key":"08325049","name":"Rottweil, Stadt","type":"Große_Kreisstadt"},"district":{"key":"08325","name":"Rottweil","type":"Landkreis"},"federalState":{"key":"08","name":"Baden-Württemberg"}},{"name":"Im Wasen","postalCode":"78658","locality":"Zimmern ob Rottweil","municipality":{"key":"08325069","name":"Zimmern ob Rottweil","type":"Kreisangehörige_Gemeinde"},"district":{"key":"08325","name":"Rottweil","type":"Landkreis"},"federalState":{"key":"08","name":"Baden-Württemberg"}},{"name":"Im Winkel","postalCode":"78628","locality":"Rottweil","municipality":{"key":"08325049","name":"Rottweil, Stadt","type":"Große_Kreisstadt"},"district":{"key":"08325","name":"Rottweil","type":"Landkreis"},"federalState":{"key":"08","name":"Baden-Württemberg"}},{"name":"Im Winkel","postalCode":"78658","locality":"Zimmern ob Rottweil","municipality":{"key":"08325069","name":"Zimmern ob Rottweil","type":"Kreisangehörige_Gemeinde"},"district":{"key":"08325","name":"Rottweil","type":"Landkreis"},"federalState":{"key":"08","name":"Baden-Württemberg"}},{"name":"Im Wolf","postalCode":"78658","locality":"Zimmern ob Rottweil","municipality":{"key":"08325069","name":"Zimmern ob Rottweil","type":"Kreisangehörige_Gemeinde"},"district":{"key":"08325","name":"Rottweil","type":"Landkreis"},"federalState":{"key":"08","name":"Baden-Württemberg"}},{"name":"Im Zinken","postalCode":"78628","locality":"Rottweil","municipality":{"key":"08325049","name":"Rottweil, Stadt","type":"Große_Kreisstadt"},"district":{"key":"08325","name":"Rottweil","type":"Landkreis"},"federalState":{"key":"08","name":"Baden-Württemberg"}},{"name":"In der Au","postalCode":"78628","locality":"Rottweil","municipality":{"key":"08325049","name":"Rottweil, Stadt","type":"Große_Kreisstadt"},"district":{"key":"08325","name":"Rottweil","type":"Landkreis"},"federalState":{"key":"08","name":"Baden-Württemberg"}},{"name":"In der Schmälze","postalCode":"78628","locality":"Rottweil","municipality":{"key":"08325049","name":"Rottweil, Stadt","type":"Große_Kreisstadt"},"district":{"key":"08325","name":"Rottweil","type":"Landkreis"},"federalState":{"key":"08","name":"Baden-Württemberg"}},{"name":"In Kreuzäcker","postalCode":"78658","locality":"Zimmern ob Rottweil","municipality":{"key":"08325069","name":"Zimmern ob Rottweil","type":"Kreisangehörige_Gemeinde"},"district":{"key":"08325","name":"Rottweil","type":"Landkreis"},"federalState":{"key":"08","name":"Baden-Württemberg"}},{"name":"In Kreuzegert","postalCode":"78658","locality":"Zimmern ob Rottweil","municipality":{"key":"08325069","name":"Zimmern ob Rottweil","type":"Kreisangehörige_Gemeinde"},"district":{"key":"08325","name":"Rottweil","type":"Landkreis"},"federalState":{"key":"08","name":"Baden-Württemberg"}},{"name":"Jahnstr.","postalCode":"77761","locality":"Schiltach","municipality":{"key":"08325051","name":"Schiltach, Stadt","type":"Stadt"},"district":{"key":"08325","name":"Rottweil","type":"Landkreis"},"federalState":{"key":"08","name":"Baden-Württemberg"}},{"name":"Kaibachweg","postalCode":"77761","locality":"Schiltach","municipality":{"key":"08325051","name":"Schiltach, Stadt","type":"Stadt"},"district":{"key":"08325","name":"Rottweil","type":"Landkreis"},"federalState":{"key":"08","name":"Baden-Württemberg"}},{"name":"Keßlerhalde","postalCode":"77761","locality":"Schiltach","municipality":{"key":"08325051","name":"Schiltach, Stadt","type":"Stadt"},"district":{"key":"08325","name":"Rottweil","type":"Landkreis"},"federalState":{"key":"08","name":"Baden-Württemberg"}},{"name":"Lärchenweg","postalCode":"77761","locality":"Schiltach","municipality":{"key":"08325051","name":"Schiltach, Stadt","type":"Stadt"},"district":{"key":"08325","name":"Rottweil","type":"Landkreis"},"federalState":{"key":"08","name":"Baden-Württemberg"}},{"name":"Lindenweg","postalCode":"77761","locality":"Schiltach","municipality":{"key":"08325051","name":"Schiltach, Stadt","type":"Stadt"},"district":{"key":"08325","name":"Rottweil","type":"Landkreis"},"federalState":{"key":"08","name":"Baden-Württemberg"}},{"name":"Marktplatz","postalCode":"77761","locality":"Schiltach","municipality":{"key":"08325051","name":"Schiltach, Stadt","type":"Stadt"},"district":{"key":"08325","name":"Rottweil","type":"Landkreis"},"federalState":{"key":"08","name":"Baden-Württemberg"}},{"name":"Mühlengasse","postalCode":"77761","locality":"Schiltach","municipality":{"key":"08325051","name":"Schiltach, Stadt","type":"Stadt"},"district":{"key":"08325","name":"Rottweil","type":"Landkreis"},"federalState":{"key":"08","name":"Baden-Württemberg"}},{"name":"Nachtweide","postalCode":"78628","locality":"Rottweil","municipality":{"key":"08325049","name":"Rottweil, Stadt","type":"Große_Kreisstadt"},"district":{"key":"08325","name":"Rottweil","type":"Landkreis"},"federalState":{"key":"08","name":"Baden-Württemberg"}},{"name":"Nägelesgrabenstr.","postalCode":"78628","locality":"Rottweil","municipality":{"key":"08325049","name":"Rottweil, Stadt","type":"Große_Kreisstadt"},"district":{"key":"08325","name":"Rottweil","type":"Landkreis"},"federalState":{"key":"08","name":"Baden-Württemberg"}},{"name":"Nagelschmiede","postalCode":"78628","locality":"Rottweil","municipality":{"key":"08325049","name":"Rottweil, Stadt","type":"Große_Kreisstadt"},"district":{"key":"08325","name":"Rottweil","type":"Landkreis"},"federalState":{"key":"08","name":"Baden-Württemberg"}},{"name":"Neckarbrücke","postalCode":"78628","locality":"Rottweil","municipality":{"key":"08325049","name":"Rottweil, Stadt","type":"Große_Kreisstadt"},"district":{"key":"08325","name":"Rottweil","type":"Landkreis"},"federalState":{"key":"08","name":"Baden-Württemberg"}},{"name":"Neckarstr.","postalCode":"78628","locality":"Rottweil","municipality":{"key":"08325049","name":"Rottweil, Stadt","type":"Große_Kreisstadt"},"district":{"key":"08325","name":"Rottweil","type":"Landkreis"},"federalState":{"key":"08","name":"Baden-Württemberg"}},{"name":"Neckartal","postalCode":"78628","locality":"Rottweil","municipality":{"key":"08325049","name":"Rottweil, Stadt","type":"Große_Kreisstadt"},"district":{"key":"08325","name":"Rottweil","type":"Landkreis"},"federalState":{"key":"08","name":"Baden-Württemberg"}},{"name":"Neue Str.","postalCode":"78658","locality":"Zimmern ob Rottweil","municipality":{"key":"08325069","name":"Zimmern ob Rottweil","type":"Kreisangehörige_Gemeinde"},"district":{"key":"08325","name":"Rottweil","type":"Landkreis"},"federalState":{"key":"08","name":"Baden-Württemberg"}},{"name":"Neufraer Str.","postalCode":"78628","locality":"Rottweil","municipality":{"key":"08325049","name":"Rottweil, Stadt","type":"Große_Kreisstadt"},"district":{"key":"08325","name":"Rottweil","type":"Landkreis"},"federalState":{"key":"08","name":"Baden-Württemberg"}},{"name":"Neukircher Str.","postalCode":"78628","locality":"Rottweil","municipality":{"key":"08325049","name":"Rottweil, Stadt","type":"Große_Kreisstadt"},"district":{"key":"08325","name":"Rottweil","type":"Landkreis"},"federalState":{"key":"08","name":"Baden-Württemberg"}},{"name":"Neutalweg","postalCode":"78658","locality":"Zimmern ob Rottweil","municipality":{"key":"08325069","name":"Zimmern ob Rottweil","type":"Kreisangehörige_Gemeinde"},"district":{"key":"08325","name":"Rottweil","type":"Landkreis"},"federalState":{"key":"08","name":"Baden-Württemberg"}},{"name":"Neutorstr.","postalCode":"78628","locality":"Rottweil","municipality":{"key":"08325049","name":"Rottweil, Stadt","type":"Große_Kreisstadt"},"district":{"key":"08325","name":"Rottweil","type":"Landkreis"},"federalState":{"key":"08","name":"Baden-Württemberg"}},{"name":"Niedereschacher Str.","postalCode":"78658","locality":"Zimmern ob Rottweil","municipality":{"key":"08325069","name":"Zimmern ob Rottweil","type":"Kreisangehörige_Gemeinde"},"district":{"key":"08325","name":"Rottweil","type":"Landkreis"},"federalState":{"key":"08","name":"Baden-Württemberg"}},{"name":"Nikolausstr.","postalCode":"78628","locality":"Rottweil","municipality":{"key":"08325049","name":"Rottweil, Stadt","type":"Große_Kreisstadt"},"district":{"key":"08325","name":"Rottweil","type":"Landkreis"},"federalState":{"key":"08","name":"Baden-Württemberg"}},{"name":"Nikolaus-Winzenried-Platz","postalCode":"78628","locality":"Rottweil","municipality":{"key":"08325049","name":"Rottweil, Stadt","type":"Große_Kreisstadt"},"district":{"key":"08325","name":"Rottweil","type":"Landkreis"},"federalState":{"key":"08","name":"Baden-Württemberg"}},{"name":"Nonnenweg","postalCode":"78628","locality":"Rottweil","municipality":{"key":"08325049","name":"Rottweil, Stadt","type":"Große_Kreisstadt"},"district":{"key":"08325","name":"Rottweil","type":"Landkreis"},"federalState":{"key":"08","name":"Baden-Württemberg"}},{"name":"Nussallee","postalCode":"78628","locality":"Rottweil","municipality":{"key":"08325049","name":"Rottweil, Stadt","type":"Große_Kreisstadt"},"district":{"key":"08325","name":"Rottweil","type":"Landkreis"},"federalState":{"key":"08","name":"Baden-Württemberg"}},{"name":"Oberes Bickenmäuerle","postalCode":"77761","locality":"Schiltach","municipality":{"key":"08325051","name":"Schiltach, Stadt","type":"Stadt"},"district":{"key":"08325","name":"Rottweil","type":"Landkreis"},"federalState":{"key":"08","name":"Baden-Württemberg"}},{"name":"Panoramastr.","postalCode":"78658","locality":"Zimmern ob Rottweil","municipality":{"key":"08325069","name":"Zimmern ob Rottweil","type":"Kreisangehörige_Gemeinde"},"district":{"key":"08325","name":"Rottweil","type":"Landkreis"},"federalState":{"key":"08","name":"Baden-Württemberg"}},{"name":"Parkstr.","postalCode":"78658","locality":"Zimmern ob Rottweil","municipality":{"key":"08325069","name":"Zimmern ob Rottweil","type":"Kreisangehörige_Gemeinde"},"district":{"key":"08325","name":"Rottweil","type":"Landkreis"},"federalState":{"key":"08","name":"Baden-Württemberg"}},{"name":"Paschalisweg","postalCode":"78628","locality":"Rottweil","municipality":{"key":"08325049","name":"Rottweil, Stadt","type":"Große_Kreisstadt"},"district":{"key":"08325","name":"Rottweil","type":"Landkreis"},"federalState":{"key":"08","name":"Baden-Württemberg"}},{"name":"Paulinenstr.","postalCode":"78628","locality":"Rottweil","municipality":{"key":"08325049","name":"Rottweil, Stadt","type":"Große_Kreisstadt"},"district":{"key":"08325","name":"Rottweil","type":"Landkreis"},"federalState":{"key":"08","name":"Baden-Württemberg"}},{"name":"Pelagiusgasse","postalCode":"78628","locality":"Rottweil","municipality":{"key":"08325049","name":"Rottweil, Stadt","type":"Große_Kreisstadt"},"district":{"key":"08325","name":"Rottweil","type":"Landkreis"},"federalState":{"key":"08","name":"Baden-Württemberg"}},{"name":"Pfarrer-Gabler-Str.","postalCode":"78628","locality":"Rottweil","municipality":{"key":"08325049","name":"Rottweil, Stadt","type":"Große_Kreisstadt"},"district":{"key":"08325","name":"Rottweil","type":"Landkreis"},"federalState":{"key":"08","name":"Baden-Württemberg"}},{"name":"Pfarrer-Uhl-Weg","postalCode":"78628","locality":"Rottweil","municipality":{"key":"08325049","name":"Rottweil, Stadt","type":"Große_Kreisstadt"},"district":{"key":"08325","name":"Rottweil","type":"Landkreis"},"federalState":{"key":"08","name":"Baden-Württemberg"}},{"name":"Pfarrer-Wiedmann-Weg","postalCode":"78658","locality":"Zimmern ob Rottweil","municipality":{"key":"08325069","name":"Zimmern ob Rottweil","type":"Kreisangehörige_Gemeinde"},"district":{"key":"08325","name":"Rottweil","type":"Landkreis"},"federalState":{"key":"08","name":"Baden-Württemberg"}},{"name":"Pfarrgasse","postalCode":"78628","locality":"Rottweil","municipality":{"key":"08325049","name":"Rottweil, Stadt","type":"Große_Kreisstadt"},"district":{"key":"08325","name":"Rottweil","type":"Landkreis"},"federalState":{"key":"08","name":"Baden-Württemberg"}},{"name":"Pfarrgasse","postalCode":"78658","locality":"Zimmern ob Rottweil","municipality":{"key":"08325069","name":"Zimmern ob Rottweil","type":"Kreisangehörige_Gemeinde"},"district":{"key":"08325","name":"Rottweil","type":"Landkreis"},"federalState":{"key":"08","name":"Baden-Württemberg"}},{"name":"Pfisterstr.","postalCode":"78628","locality":"Rottweil","municipality":{"key":"08325049","name":"Rottweil, Stadt","type":"Große_Kreisstadt"},"district":{"key":"08325","name":"Rottweil","type":"Landkreis"},"federalState":{"key":"08","name":"Baden-Württemberg"}},{"name":"Pflegeweg für Autobahn","postalCode":"78658","locality":"Zimmern ob Rottweil","municipality":{"key":"08325069","name":"Zimmern ob Rottweil","type":"Kreisangehörige_Gemeinde"},"district":{"key":"08325","name":"Rottweil","type":"Landkreis"},"federalState":{"key":"08","name":"Baden-Württemberg"}},{"name":"Pflumholzstr.","postalCode":"78628","locality":"Rottweil","municipality":{"key":"08325049","name":"Rottweil, Stadt","type":"Große_Kreisstadt"},"district":{"key":"08325","name":"Rottweil","type":"Landkreis"},"federalState":{"key":"08","name":"Baden-Württemberg"}},{"name":"Pius-Keller-Platz","postalCode":"78658","locality":"Zimmern ob Rottweil","municipality":{"key":"08325069","name":"Zimmern ob Rottweil","type":"Kreisangehörige_Gemeinde"},"district":{"key":"08325","name":"Rottweil","type":"Landkreis"},"federalState":{"key":"08","name":"Baden-Württemberg"}},{"name":"Platzhölzle","postalCode":"78658","locality":"Zimmern ob Rottweil","municipality":{"key":"08325069","name":"Zimmern ob Rottweil","type":"Kreisangehörige_Gemeinde"},"district":{"key":"08325","name":"Rottweil","type":"Landkreis"},"federalState":{"key":"08","name":"Baden-Württemberg"}},{"name":"Plettenbergstr.","postalCode":"78628","locality":"Rottweil","municipality":{"key":"08325049","name":"Rottweil, Stadt","type":"Große_Kreisstadt"},"district":{"key":"08325","name":"Rottweil","type":"Landkreis"},"federalState":{"key":"08","name":"Baden-Württemberg"}},{"name":"Präsenzgasse","postalCode":"78628","locality":"Rottweil","municipality":{"key":"08325049","name":"Rottweil, Stadt","type":"Große_Kreisstadt"},"district":{"key":"08325","name":"Rottweil","type":"Landkreis"},"federalState":{"key":"08","name":"Baden-Württemberg"}},{"name":"Predigerstr.","postalCode":"78628","locality":"Rottweil","municipality":{"key":"08325049","name":"Rottweil, Stadt","type":"Große_Kreisstadt"},"district":{"key":"08325","name":"Rottweil","type":"Landkreis"},"federalState":{"key":"08","name":"Baden-Württemberg"}},{"name":"Primstr.","postalCode":"78628","locality":"Rottweil","municipality":{"key":"08325049","name":"Rottweil, Stadt","type":"Große_Kreisstadt"},"district":{"key":"08325","name":"Rottweil","type":"Landkreis"},"federalState":{"key":"08","name":"Baden-Württemberg"}},{"name":"Primtalstr.","postalCode":"78628","locality":"Rottweil","municipality":{"key":"08325049","name":"Rottweil, Stadt","type":"Große_Kreisstadt"},"district":{"key":"08325","name":"Rottweil","type":"Landkreis"},"federalState":{"key":"08","name":"Baden-Württemberg"}},{"name":"Primwiesen","postalCode":"78628","locality":"Rottweil","municipality":{"key":"08325049","name":"Rottweil, Stadt","type":"Große_Kreisstadt"},"district":{"key":"08325","name":"Rottweil","type":"Landkreis"},"federalState":{"key":"08","name":"Baden-Württemberg"}},{"name":"Pulverstr.","postalCode":"78628","locality":"Rottweil","municipality":{"key":"08325049","name":"Rottweil, Stadt","type":"Große_Kreisstadt"},"district":{"key":"08325","name":"Rottweil","type":"Landkreis"},"federalState":{"key":"08","name":"Baden-Württemberg"}},{"name":"Pulverweg","postalCode":"78658","locality":"Zimmern ob Rottweil","municipality":{"key":"08325069","name":"Zimmern ob Rottweil","type":"Kreisangehörige_Gemeinde"},"district":{"key":"08325","name":"Rottweil","type":"Landkreis"},"federalState":{"key":"08","name":"Baden-Württemberg"}},{"name":"Pürschgerichtsweg","postalCode":"78628","locality":"Rottweil","municipality":{"key":"08325049","name":"Rottweil, Stadt","type":"Große_Kreisstadt"},"district":{"key":"08325","name":"Rottweil","type":"Landkreis"},"federalState":{"key":"08","name":"Baden-Württemberg"}},{"name":"Rappenfelsen","postalCode":"77761","locality":"Schiltach","municipality":{"key":"08325051","name":"Schiltach, Stadt","type":"Stadt"},"district":{"key":"08325","name":"Rottweil","type":"Landkreis"},"federalState":{"key":"08","name":"Baden-Württemberg"}},{"name":"Rohrbach","postalCode":"77761","locality":"Schiltach","municipality":{"key":"08325051","name":"Schiltach, Stadt","type":"Stadt"},"district":{"key":"08325","name":"Rottweil","type":"Landkreis"},"federalState":{"key":"08","name":"Baden-Württemberg"}},{"name":"Rotlach","postalCode":"77761","locality":"Schiltach","municipality":{"key":"08325051","name":"Schiltach, Stadt","type":"Stadt"},"district":{"key":"08325","name":"Rottweil","type":"Landkreis"},"federalState":{"key":"08","name":"Baden-Württemberg"}},{"name":"Sägergrün","postalCode":"77761","locality":"Schiltach","municipality":{"key":"08325051","name":"Schiltach, Stadt","type":"Stadt"},"district":{"key":"08325","name":"Rottweil","type":"Landkreis"},"federalState":{"key":"08","name":"Baden-Württemberg"}},{"name":"Schenkenzeller Str.","postalCode":"77761","locality":"Schiltach","municipality":{"key":"08325051","name":"Schiltach, Stadt","type":"Stadt"},"district":{"key":"08325","name":"Rottweil","type":"Landkreis"},"federalState":{"key":"08","name":"Baden-Württemberg"}},{"name":"Scheuernacker","postalCode":"77761","locality":"Schiltach","municipality":{"key":"08325051","name":"Schiltach, Stadt","type":"Stadt"},"district":{"key":"08325","name":"Rottweil","type":"Landkreis"},"federalState":{"key":"08","name":"Baden-Württemberg"}},{"name":"Schloßbergstr.","postalCode":"77761","locality":"Schiltach","municipality":{"key":"08325051","name":"Schiltach, Stadt","type":"Stadt"},"district":{"key":"08325","name":"Rottweil","type":"Landkreis"},"federalState":{"key":"08","name":"Baden-Württemberg"}},{"name":"Schloßhof","postalCode":"77761","locality":"Schiltach","municipality":{"key":"08325051","name":"Schiltach, Stadt","type":"Stadt"},"district":{"key":"08325","name":"Rottweil","type":"Landkreis"},"federalState":{"key":"08","name":"Baden-Württemberg"}},{"name":"Schmelze","postalCode":"77761","locality":"Schiltach","municipality":{"key":"08325051","name":"Schiltach, Stadt","type":"Stadt"},"district":{"key":"08325","name":"Rottweil","type":"Landkreis"},"federalState":{"key":"08","name":"Baden-Württemberg"}},{"name":"Schöngrund","postalCode":"77761","locality":"Schiltach","municipality":{"key":"08325051","name":"Schiltach, Stadt","type":"Stadt"},"district":{"key":"08325","name":"Rottweil","type":"Landkreis"},"federalState":{"key":"08","name":"Baden-Württemberg"}},{"name":"Schramberger Str.","postalCode":"77761","locality":"Schiltach","municipality":{"key":"08325051","name":"Schiltach, Stadt","type":"Stadt"},"district":{"key":"08325","name":"Rottweil","type":"Landkreis"},"federalState":{"key":"08","name":"Baden-Württemberg"}},{"name":"Schrofen","postalCode":"77761","locality":"Schiltach","municipality":{"key":"08325051","name":"Schiltach, Stadt","type":"Stadt"},"district":{"key":"08325","name":"Rottweil","type":"Landkreis"},"federalState":{"key":"08","name":"Baden-Württemberg"}},{"name":"Schwaigwiese","postalCode":"77761","locality":"Schiltach","municipality":{"key":"08325051","name":"Schiltach, Stadt","type":"Stadt"},"district":{"key":"08325","name":"Rottweil","type":"Landkreis"},"federalState":{"key":"08","name":"Baden-Württemberg"}},{"name":"Spitalstr.","postalCode":"77761","locality":"Schiltach","municipality":{"key":"08325051","name":"Schiltach, Stadt","type":"Stadt"},"district":{"key":"08325","name":"Rottweil","type":"Landkreis"},"federalState":{"key":"08","name":"Baden-Württemberg"}},{"name":"Tannenstr.","postalCode":"77761","locality":"Schiltach","municipality":{"key":"08325051","name":"Schiltach, Stadt","type":"Stadt"},"district":{"key":"08325","name":"Rottweil","type":"Landkreis"},"federalState":{"key":"08","name":"Baden-Württemberg"}},{"name":"Tiefenbach","postalCode":"77761","locality":"Schiltach","municipality":{"key":"08325051","name":"Schiltach, Stadt","type":"Stadt"},"district":{"key":"08325","name":"Rottweil","type":"Landkreis"},"federalState":{"key":"08","name":"Baden-Württemberg"}},{"name":"Ulmenweg","postalCode":"77761","locality":"Schiltach","municipality":{"key":"08325051","name":"Schiltach, Stadt","type":"Stadt"},"district":{"key":"08325","name":"Rottweil","type":"Landkreis"},"federalState":{"key":"08","name":"Baden-Württemberg"}},{"name":"Vor Ebersbach","postalCode":"77761","locality":"Schiltach","municipality":{"key":"08325051","name":"Schiltach, Stadt","type":"Stadt"},"district":{"key":"08325","name":"Rottweil","type":"Landkreis"},"federalState":{"key":"08","name":"Baden-Württemberg"}},{"name":"Vor Erdlinsbach","postalCode":"77761","locality":"Schiltach","municipality":{"key":"08325051","name":"Schiltach, Stadt","type":"Stadt"},"district":{"key":"08325","name":"Rottweil","type":"Landkreis"},"federalState":{"key":"08","name":"Baden-Württemberg"}},{"name":"Vor Eulersbach","postalCode":"77761","locality":"Schiltach","municipality":{"key":"08325051","name":"Schiltach, Stadt","type":"Stadt"},"district":{"key":"08325","name":"Rottweil","type":"Landkreis"},"federalState":{"key":"08","name":"Baden-Württemberg"}},{"name":"Vor Heubach","postalCode":"77761","locality":"Schiltach","municipality":{"key":"08325051","name":"Schiltach, Stadt","type":"Stadt"},"district":{"key":"08325","name":"Rottweil","type":"Landkreis"},"federalState":{"key":"08","name":"Baden-Württemberg"}},{"name":"Vor Hunsel","postalCode":"77761","locality":"Schiltach","municipality":{"key":"08325051","name":"Schiltach, Stadt","type":"Stadt"},"district":{"key":"08325","name":"Rottweil","type":"Landkreis"},"federalState":{"key":"08","name":"Baden-Württemberg"}},{"name":"Vor Kuhbach","postalCode":"77761","locality":"Schiltach","municipality":{"key":"08325051","name":"Schiltach, Stadt","type":"Stadt"},"district":{"key":"08325","name":"Rottweil","type":"Landkreis"},"federalState":{"key":"08","name":"Baden-Württemberg"}},{"name":"Waldstr.","postalCode":"77761","locality":"Schiltach","municipality":{"key":"08325051","name":"Schiltach, Stadt","type":"Stadt"},"district":{"key":"08325","name":"Rottweil","type":"Landkreis"},"federalState":{"key":"08","name":"Baden-Württemberg"}},{"name":"Wannenhaldenweg","postalCode":"77761","locality":"Schiltach","municipality":{"key":"08325051","name":"Schiltach, Stadt","type":"Stadt"},"district":{"key":"08325","name":"Rottweil","type":"Landkreis"},"federalState":{"key":"08","name":"Baden-Württemberg"}},{"name":"Zellershof","postalCode":"77761","locality":"Schiltach","municipality":{"key":"08325051","name":"Schiltach, Stadt","type":"Stadt"},"district":{"key":"08325","name":"Rottweil","type":"Landkreis"},"federalState":{"key":"08","name":"Baden-Württemberg"}},{"name":"Zimmerplatz","postalCode":"77761","locality":"Schiltach","municipality":{"key":"08325051","name":"Schiltach, Stadt","type":"Stadt"},"district":{"key":"08325","name":"Rottweil","type":"Landkreis"},"federalState":{"key":"08","name":"Baden-Württemberg"}},{"name":"Zollmatt","postalCode":"77761","locality":"Schiltach","municipality":{"key":"08325051","name":"Schiltach, Stadt","type":"Stadt"},"district":{"key":"08325","name":"Rottweil","type":"Landkreis"},"federalState":{"key":"08","name":"Baden-Württemberg"}},{"name":"Äußere Alleenstr.","postalCode":"78628","locality":"Rottweil","municipality":{"key":"08325049","name":"Rottweil, Stadt","type":"Große_Kreisstadt"},"district":{"key":"08325","name":"Rottweil","type":"Landkreis"},"federalState":{"key":"08","name":"Baden-Württemberg"}},{"name":"Öschlestr.","postalCode":"78628","locality":"Rottweil","municipality":{"key":"08325049","name":"Rottweil, Stadt","type":"Große_Kreisstadt"},"district":{"key":"08325","name":"Rottweil","type":"Landkreis"},"federalState":{"key":"08","name":"Baden-Württemberg"}},{"name":"Überlinger Str.","postalCode":"78628","locality":"Rottweil","municipality":{"key":"08325049","name":"Rottweil, Stadt","type":"Große_Kreisstadt"},"district":{"key":"08325","name":"Rottweil","type":"Landkreis"},"federalState":{"key":"08","name":"Baden-Württemberg"}},]