[{"name":"17er Str.","postalCode":"76726","locality":"Germersheim","municipality":{"key":"07334007","name":"Germersheim, Stadt","type":"Stadt"},"district":{"key":"07334","name":"Germersheim","type":"Landkreis"},"federalState":{"key":"07","name":"Rheinland-Pfalz"}},{"name":"Am Klärwerk","postalCode":"67363","locality":"Lustadt","municipality":{"key":"07334018","name":"Lustadt","type":"Kreisangehörige_Gemeinde"},"district":{"key":"07334","name":"Germersheim","type":"Landkreis"},"federalState":{"key":"07","name":"Rheinland-Pfalz"}},{"name":"Amselweg","postalCode":"67363","locality":"Lustadt","municipality":{"key":"07334018","name":"Lustadt","type":"Kreisangehörige_Gemeinde"},"district":{"key":"07334","name":"Germersheim","type":"Landkreis"},"federalState":{"key":"07","name":"Rheinland-Pfalz"}},{"name":"Am Sträßel","postalCode":"67363","locality":"Lustadt","municipality":{"key":"07334018","name":"Lustadt","type":"Kreisangehörige_Gemeinde"},"district":{"key":"07334","name":"Germersheim","type":"Landkreis"},"federalState":{"key":"07","name":"Rheinland-Pfalz"}},{"name":"Am Unteren Griesweg","postalCode":"67363","locality":"Lustadt","municipality":{"key":"07334018","name":"Lustadt","type":"Kreisangehörige_Gemeinde"},"district":{"key":"07334","name":"Germersheim","type":"Landkreis"},"federalState":{"key":"07","name":"Rheinland-Pfalz"}},{"name":"Angelstr.","postalCode":"67363","locality":"Lustadt","municipality":{"key":"07334018","name":"Lustadt","type":"Kreisangehörige_Gemeinde"},"district":{"key":"07334","name":"Germersheim","type":"Landkreis"},"federalState":{"key":"07","name":"Rheinland-Pfalz"}},{"name":"Auf der Weide","postalCode":"67363","locality":"Lustadt","municipality":{"key":"07334018","name":"Lustadt","type":"Kreisangehörige_Gemeinde"},"district":{"key":"07334","name":"Germersheim","type":"Landkreis"},"federalState":{"key":"07","name":"Rheinland-Pfalz"}},{"name":"August-Heinrich-Str.","postalCode":"67363","locality":"Lustadt","municipality":{"key":"07334018","name":"Lustadt","type":"Kreisangehörige_Gemeinde"},"district":{"key":"07334","name":"Germersheim","type":"Landkreis"},"federalState":{"key":"07","name":"Rheinland-Pfalz"}},{"name":"Augustin-Violet-Str.","postalCode":"67363","locality":"Lustadt","municipality":{"key":"07334018","name":"Lustadt","type":"Kreisangehörige_Gemeinde"},"district":{"key":"07334","name":"Germersheim","type":"Landkreis"},"federalState":{"key":"07","name":"Rheinland-Pfalz"}},{"name":"Bahnhofstr.","postalCode":"67363","locality":"Lustadt","municipality":{"key":"07334018","name":"Lustadt","type":"Kreisangehörige_Gemeinde"},"district":{"key":"07334","name":"Germersheim","type":"Landkreis"},"federalState":{"key":"07","name":"Rheinland-Pfalz"}},{"name":"Beethovenstr.","postalCode":"67363","locality":"Lustadt","municipality":{"key":"07334018","name":"Lustadt","type":"Kreisangehörige_Gemeinde"},"district":{"key":"07334","name":"Germersheim","type":"Landkreis"},"federalState":{"key":"07","name":"Rheinland-Pfalz"}},{"name":"Birkenstr.","postalCode":"67363","locality":"Lustadt","municipality":{"key":"07334018","name":"Lustadt","type":"Kreisangehörige_Gemeinde"},"district":{"key":"07334","name":"Germersheim","type":"Landkreis"},"federalState":{"key":"07","name":"Rheinland-Pfalz"}},{"name":"Blumenstr.","postalCode":"67363","locality":"Lustadt","municipality":{"key":"07334018","name":"Lustadt","type":"Kreisangehörige_Gemeinde"},"district":{"key":"07334","name":"Germersheim","type":"Landkreis"},"federalState":{"key":"07","name":"Rheinland-Pfalz"}},{"name":"Burgstr.","postalCode":"67363","locality":"Lustadt","municipality":{"key":"07334018","name":"Lustadt","type":"Kreisangehörige_Gemeinde"},"district":{"key":"07334","name":"Germersheim","type":"Landkreis"},"federalState":{"key":"07","name":"Rheinland-Pfalz"}},{"name":"Danziger Str.","postalCode":"76726","locality":"Germersheim","municipality":{"key":"07334007","name":"Germersheim, Stadt","type":"Stadt"},"district":{"key":"07334","name":"Germersheim","type":"Landkreis"},"federalState":{"key":"07","name":"Rheinland-Pfalz"}},{"name":"Donnersgasse","postalCode":"76726","locality":"Germersheim","municipality":{"key":"07334007","name":"Germersheim, Stadt","type":"Stadt"},"district":{"key":"07334","name":"Germersheim","type":"Landkreis"},"federalState":{"key":"07","name":"Rheinland-Pfalz"}},{"name":"Dresdener Str.","postalCode":"76726","locality":"Germersheim","municipality":{"key":"07334007","name":"Germersheim, Stadt","type":"Stadt"},"district":{"key":"07334","name":"Germersheim","type":"Landkreis"},"federalState":{"key":"07","name":"Rheinland-Pfalz"}},{"name":"Eduard-Mörike-Str.","postalCode":"76726","locality":"Germersheim","municipality":{"key":"07334007","name":"Germersheim, Stadt","type":"Stadt"},"district":{"key":"07334","name":"Germersheim","type":"Landkreis"},"federalState":{"key":"07","name":"Rheinland-Pfalz"}},{"name":"Eichenring","postalCode":"76726","locality":"Germersheim","municipality":{"key":"07334007","name":"Germersheim, Stadt","type":"Stadt"},"district":{"key":"07334","name":"Germersheim","type":"Landkreis"},"federalState":{"key":"07","name":"Rheinland-Pfalz"}},{"name":"Eisenbahnstr.","postalCode":"76726","locality":"Germersheim","municipality":{"key":"07334007","name":"Germersheim, Stadt","type":"Stadt"},"district":{"key":"07334","name":"Germersheim","type":"Landkreis"},"federalState":{"key":"07","name":"Rheinland-Pfalz"}},{"name":"Erlenstr.","postalCode":"76726","locality":"Germersheim","municipality":{"key":"07334007","name":"Germersheim, Stadt","type":"Stadt"},"district":{"key":"07334","name":"Germersheim","type":"Landkreis"},"federalState":{"key":"07","name":"Rheinland-Pfalz"}},{"name":"Eschenweg","postalCode":"76726","locality":"Germersheim","municipality":{"key":"07334007","name":"Germersheim, Stadt","type":"Stadt"},"district":{"key":"07334","name":"Germersheim","type":"Landkreis"},"federalState":{"key":"07","name":"Rheinland-Pfalz"}},{"name":"Eugen-Sauer-Str.","postalCode":"76726","locality":"Germersheim","municipality":{"key":"07334007","name":"Germersheim, Stadt","type":"Stadt"},"district":{"key":"07334","name":"Germersheim","type":"Landkreis"},"federalState":{"key":"07","name":"Rheinland-Pfalz"}},{"name":"Europaplatz","postalCode":"76726","locality":"Germersheim","municipality":{"key":"07334007","name":"Germersheim, Stadt","type":"Stadt"},"district":{"key":"07334","name":"Germersheim","type":"Landkreis"},"federalState":{"key":"07","name":"Rheinland-Pfalz"}},{"name":"Fasanenweg","postalCode":"67363","locality":"Lustadt","municipality":{"key":"07334018","name":"Lustadt","type":"Kreisangehörige_Gemeinde"},"district":{"key":"07334","name":"Germersheim","type":"Landkreis"},"federalState":{"key":"07","name":"Rheinland-Pfalz"}},{"name":"Finkenweg","postalCode":"67363","locality":"Lustadt","municipality":{"key":"07334018","name":"Lustadt","type":"Kreisangehörige_Gemeinde"},"district":{"key":"07334","name":"Germersheim","type":"Landkreis"},"federalState":{"key":"07","name":"Rheinland-Pfalz"}},{"name":"Gartenweg","postalCode":"67363","locality":"Lustadt","municipality":{"key":"07334018","name":"Lustadt","type":"Kreisangehörige_Gemeinde"},"district":{"key":"07334","name":"Germersheim","type":"Landkreis"},"federalState":{"key":"07","name":"Rheinland-Pfalz"}},{"name":"Goethestr.","postalCode":"67363","locality":"Lustadt","municipality":{"key":"07334018","name":"Lustadt","type":"Kreisangehörige_Gemeinde"},"district":{"key":"07334","name":"Germersheim","type":"Landkreis"},"federalState":{"key":"07","name":"Rheinland-Pfalz"}},{"name":"Heidengasse","postalCode":"67363","locality":"Lustadt","municipality":{"key":"07334018","name":"Lustadt","type":"Kreisangehörige_Gemeinde"},"district":{"key":"07334","name":"Germersheim","type":"Landkreis"},"federalState":{"key":"07","name":"Rheinland-Pfalz"}},{"name":"Heustr.","postalCode":"67363","locality":"Lustadt","municipality":{"key":"07334018","name":"Lustadt","type":"Kreisangehörige_Gemeinde"},"district":{"key":"07334","name":"Germersheim","type":"Landkreis"},"federalState":{"key":"07","name":"Rheinland-Pfalz"}},{"name":"Hohe Str.","postalCode":"67363","locality":"Lustadt","municipality":{"key":"07334018","name":"Lustadt","type":"Kreisangehörige_Gemeinde"},"district":{"key":"07334","name":"Germersheim","type":"Landkreis"},"federalState":{"key":"07","name":"Rheinland-Pfalz"}},{"name":"Holzgasse","postalCode":"67363","locality":"Lustadt","municipality":{"key":"07334018","name":"Lustadt","type":"Kreisangehörige_Gemeinde"},"district":{"key":"07334","name":"Germersheim","type":"Landkreis"},"federalState":{"key":"07","name":"Rheinland-Pfalz"}},{"name":"Im Röderfeld","postalCode":"67363","locality":"Lustadt","municipality":{"key":"07334018","name":"Lustadt","type":"Kreisangehörige_Gemeinde"},"district":{"key":"07334","name":"Germersheim","type":"Landkreis"},"federalState":{"key":"07","name":"Rheinland-Pfalz"}},{"name":"Jakob-Lehr-Str.","postalCode":"67363","locality":"Lustadt","municipality":{"key":"07334018","name":"Lustadt","type":"Kreisangehörige_Gemeinde"},"district":{"key":"07334","name":"Germersheim","type":"Landkreis"},"federalState":{"key":"07","name":"Rheinland-Pfalz"}},{"name":"Jakobsbrückl","postalCode":"67363","locality":"Lustadt","municipality":{"key":"07334018","name":"Lustadt","type":"Kreisangehörige_Gemeinde"},"district":{"key":"07334","name":"Germersheim","type":"Landkreis"},"federalState":{"key":"07","name":"Rheinland-Pfalz"}},{"name":"Kalmitstr.","postalCode":"67363","locality":"Lustadt","municipality":{"key":"07334018","name":"Lustadt","type":"Kreisangehörige_Gemeinde"},"district":{"key":"07334","name":"Germersheim","type":"Landkreis"},"federalState":{"key":"07","name":"Rheinland-Pfalz"}},{"name":"Karl-Lehr-Str.","postalCode":"67363","locality":"Lustadt","municipality":{"key":"07334018","name":"Lustadt","type":"Kreisangehörige_Gemeinde"},"district":{"key":"07334","name":"Germersheim","type":"Landkreis"},"federalState":{"key":"07","name":"Rheinland-Pfalz"}},{"name":"Kehrstr.","postalCode":"67363","locality":"Lustadt","municipality":{"key":"07334018","name":"Lustadt","type":"Kreisangehörige_Gemeinde"},"district":{"key":"07334","name":"Germersheim","type":"Landkreis"},"federalState":{"key":"07","name":"Rheinland-Pfalz"}},{"name":"Kirchstr.","postalCode":"67363","locality":"Lustadt","municipality":{"key":"07334018","name":"Lustadt","type":"Kreisangehörige_Gemeinde"},"district":{"key":"07334","name":"Germersheim","type":"Landkreis"},"federalState":{"key":"07","name":"Rheinland-Pfalz"}},{"name":"Lerchenweg","postalCode":"67363","locality":"Lustadt","municipality":{"key":"07334018","name":"Lustadt","type":"Kreisangehörige_Gemeinde"},"district":{"key":"07334","name":"Germersheim","type":"Landkreis"},"federalState":{"key":"07","name":"Rheinland-Pfalz"}},{"name":"Lina-Sommer-Str.","postalCode":"67363","locality":"Lustadt","municipality":{"key":"07334018","name":"Lustadt","type":"Kreisangehörige_Gemeinde"},"district":{"key":"07334","name":"Germersheim","type":"Landkreis"},"federalState":{"key":"07","name":"Rheinland-Pfalz"}},{"name":"Lindenstr.","postalCode":"67363","locality":"Lustadt","municipality":{"key":"07334018","name":"Lustadt","type":"Kreisangehörige_Gemeinde"},"district":{"key":"07334","name":"Germersheim","type":"Landkreis"},"federalState":{"key":"07","name":"Rheinland-Pfalz"}},{"name":"Lohngasse","postalCode":"67363","locality":"Lustadt","municipality":{"key":"07334018","name":"Lustadt","type":"Kreisangehörige_Gemeinde"},"district":{"key":"07334","name":"Germersheim","type":"Landkreis"},"federalState":{"key":"07","name":"Rheinland-Pfalz"}},{"name":"Meisenweg","postalCode":"67363","locality":"Lustadt","municipality":{"key":"07334018","name":"Lustadt","type":"Kreisangehörige_Gemeinde"},"district":{"key":"07334","name":"Germersheim","type":"Landkreis"},"federalState":{"key":"07","name":"Rheinland-Pfalz"}},{"name":"Mozartstr.","postalCode":"67363","locality":"Lustadt","municipality":{"key":"07334018","name":"Lustadt","type":"Kreisangehörige_Gemeinde"},"district":{"key":"07334","name":"Germersheim","type":"Landkreis"},"federalState":{"key":"07","name":"Rheinland-Pfalz"}},{"name":"Mühlweg","postalCode":"67363","locality":"Lustadt","municipality":{"key":"07334018","name":"Lustadt","type":"Kreisangehörige_Gemeinde"},"district":{"key":"07334","name":"Germersheim","type":"Landkreis"},"federalState":{"key":"07","name":"Rheinland-Pfalz"}},{"name":"Nachtigallenweg","postalCode":"67363","locality":"Lustadt","municipality":{"key":"07334018","name":"Lustadt","type":"Kreisangehörige_Gemeinde"},"district":{"key":"07334","name":"Germersheim","type":"Landkreis"},"federalState":{"key":"07","name":"Rheinland-Pfalz"}},{"name":"Neugasse","postalCode":"67363","locality":"Lustadt","municipality":{"key":"07334018","name":"Lustadt","type":"Kreisangehörige_Gemeinde"},"district":{"key":"07334","name":"Germersheim","type":"Landkreis"},"federalState":{"key":"07","name":"Rheinland-Pfalz"}},{"name":"Obere Hauptstr.","postalCode":"67363","locality":"Lustadt","municipality":{"key":"07334018","name":"Lustadt","type":"Kreisangehörige_Gemeinde"},"district":{"key":"07334","name":"Germersheim","type":"Landkreis"},"federalState":{"key":"07","name":"Rheinland-Pfalz"}},{"name":"Paul-Ginthum-Str.","postalCode":"67363","locality":"Lustadt","municipality":{"key":"07334018","name":"Lustadt","type":"Kreisangehörige_Gemeinde"},"district":{"key":"07334","name":"Germersheim","type":"Landkreis"},"federalState":{"key":"07","name":"Rheinland-Pfalz"}},{"name":"Paul-Münch-Str.","postalCode":"67363","locality":"Lustadt","municipality":{"key":"07334018","name":"Lustadt","type":"Kreisangehörige_Gemeinde"},"district":{"key":"07334","name":"Germersheim","type":"Landkreis"},"federalState":{"key":"07","name":"Rheinland-Pfalz"}},{"name":"Place Rosny sur Seine","postalCode":"67363","locality":"Lustadt","municipality":{"key":"07334018","name":"Lustadt","type":"Kreisangehörige_Gemeinde"},"district":{"key":"07334","name":"Germersheim","type":"Landkreis"},"federalState":{"key":"07","name":"Rheinland-Pfalz"}},{"name":"Poststr.","postalCode":"67363","locality":"Lustadt","municipality":{"key":"07334018","name":"Lustadt","type":"Kreisangehörige_Gemeinde"},"district":{"key":"07334","name":"Germersheim","type":"Landkreis"},"federalState":{"key":"07","name":"Rheinland-Pfalz"}},{"name":"Queichstr.","postalCode":"76726","locality":"Germersheim","municipality":{"key":"07334007","name":"Germersheim, Stadt","type":"Stadt"},"district":{"key":"07334","name":"Germersheim","type":"Landkreis"},"federalState":{"key":"07","name":"Rheinland-Pfalz"}},{"name":"Raiffeisenstr.","postalCode":"67363","locality":"Lustadt","municipality":{"key":"07334018","name":"Lustadt","type":"Kreisangehörige_Gemeinde"},"district":{"key":"07334","name":"Germersheim","type":"Landkreis"},"federalState":{"key":"07","name":"Rheinland-Pfalz"}},{"name":"Röderstr.","postalCode":"67363","locality":"Lustadt","municipality":{"key":"07334018","name":"Lustadt","type":"Kreisangehörige_Gemeinde"},"district":{"key":"07334","name":"Germersheim","type":"Landkreis"},"federalState":{"key":"07","name":"Rheinland-Pfalz"}},{"name":"Römerstr.","postalCode":"67363","locality":"Lustadt","municipality":{"key":"07334018","name":"Lustadt","type":"Kreisangehörige_Gemeinde"},"district":{"key":"07334","name":"Germersheim","type":"Landkreis"},"federalState":{"key":"07","name":"Rheinland-Pfalz"}},{"name":"Schillerstr.","postalCode":"67363","locality":"Lustadt","municipality":{"key":"07334018","name":"Lustadt","type":"Kreisangehörige_Gemeinde"},"district":{"key":"07334","name":"Germersheim","type":"Landkreis"},"federalState":{"key":"07","name":"Rheinland-Pfalz"}},{"name":"Schulstr.","postalCode":"67363","locality":"Lustadt","municipality":{"key":"07334018","name":"Lustadt","type":"Kreisangehörige_Gemeinde"},"district":{"key":"07334","name":"Germersheim","type":"Landkreis"},"federalState":{"key":"07","name":"Rheinland-Pfalz"}},{"name":"Schwalbenweg","postalCode":"67363","locality":"Lustadt","municipality":{"key":"07334018","name":"Lustadt","type":"Kreisangehörige_Gemeinde"},"district":{"key":"07334","name":"Germersheim","type":"Landkreis"},"federalState":{"key":"07","name":"Rheinland-Pfalz"}},{"name":"Speyerer Str.","postalCode":"67363","locality":"Lustadt","municipality":{"key":"07334018","name":"Lustadt","type":"Kreisangehörige_Gemeinde"},"district":{"key":"07334","name":"Germersheim","type":"Landkreis"},"federalState":{"key":"07","name":"Rheinland-Pfalz"}},{"name":"Theobaldstr.","postalCode":"76726","locality":"Germersheim","municipality":{"key":"07334007","name":"Germersheim, Stadt","type":"Stadt"},"district":{"key":"07334","name":"Germersheim","type":"Landkreis"},"federalState":{"key":"07","name":"Rheinland-Pfalz"}},{"name":"Theodor-Heuss-Str.","postalCode":"76726","locality":"Germersheim","municipality":{"key":"07334007","name":"Germersheim, Stadt","type":"Stadt"},"district":{"key":"07334","name":"Germersheim","type":"Landkreis"},"federalState":{"key":"07","name":"Rheinland-Pfalz"}},{"name":"Thomas-Dehler-Str.","postalCode":"76726","locality":"Germersheim","municipality":{"key":"07334007","name":"Germersheim, Stadt","type":"Stadt"},"district":{"key":"07334","name":"Germersheim","type":"Landkreis"},"federalState":{"key":"07","name":"Rheinland-Pfalz"}},{"name":"Tilsiter Str.","postalCode":"76726","locality":"Germersheim","municipality":{"key":"07334007","name":"Germersheim, Stadt","type":"Stadt"},"district":{"key":"07334","name":"Germersheim","type":"Landkreis"},"federalState":{"key":"07","name":"Rheinland-Pfalz"}},{"name":"Tournuser Platz","postalCode":"76726","locality":"Germersheim","municipality":{"key":"07334007","name":"Germersheim, Stadt","type":"Stadt"},"district":{"key":"07334","name":"Germersheim","type":"Landkreis"},"federalState":{"key":"07","name":"Rheinland-Pfalz"}},{"name":"Trifelsstr.","postalCode":"76726","locality":"Germersheim","municipality":{"key":"07334007","name":"Germersheim, Stadt","type":"Stadt"},"district":{"key":"07334","name":"Germersheim","type":"Landkreis"},"federalState":{"key":"07","name":"Rheinland-Pfalz"}},{"name":"Trommelweg","postalCode":"76726","locality":"Germersheim","municipality":{"key":"07334007","name":"Germersheim, Stadt","type":"Stadt"},"district":{"key":"07334","name":"Germersheim","type":"Landkreis"},"federalState":{"key":"07","name":"Rheinland-Pfalz"}},{"name":"Tulpenstr.","postalCode":"76726","locality":"Germersheim","municipality":{"key":"07334007","name":"Germersheim, Stadt","type":"Stadt"},"district":{"key":"07334","name":"Germersheim","type":"Landkreis"},"federalState":{"key":"07","name":"Rheinland-Pfalz"}},{"name":"Tunnel","postalCode":"76726","locality":"Germersheim","municipality":{"key":"07334007","name":"Germersheim, Stadt","type":"Stadt"},"district":{"key":"07334","name":"Germersheim","type":"Landkreis"},"federalState":{"key":"07","name":"Rheinland-Pfalz"}},{"name":"Untere Hauptstr.","postalCode":"67363","locality":"Lustadt","municipality":{"key":"07334018","name":"Lustadt","type":"Kreisangehörige_Gemeinde"},"district":{"key":"07334","name":"Germersheim","type":"Landkreis"},"federalState":{"key":"07","name":"Rheinland-Pfalz"}},{"name":"Vincentistr.","postalCode":"76726","locality":"Germersheim","municipality":{"key":"07334007","name":"Germersheim, Stadt","type":"Stadt"},"district":{"key":"07334","name":"Germersheim","type":"Landkreis"},"federalState":{"key":"07","name":"Rheinland-Pfalz"}},{"name":"Wachtelpfad","postalCode":"67363","locality":"Lustadt","municipality":{"key":"07334018","name":"Lustadt","type":"Kreisangehörige_Gemeinde"},"district":{"key":"07334","name":"Germersheim","type":"Landkreis"},"federalState":{"key":"07","name":"Rheinland-Pfalz"}},{"name":"Waldhaus im Schindereck","postalCode":"67363","locality":"Lustadt","municipality":{"key":"07334018","name":"Lustadt","type":"Kreisangehörige_Gemeinde"},"district":{"key":"07334","name":"Germersheim","type":"Landkreis"},"federalState":{"key":"07","name":"Rheinland-Pfalz"}},{"name":"Waldstr.","postalCode":"67363","locality":"Lustadt","municipality":{"key":"07334018","name":"Lustadt","type":"Kreisangehörige_Gemeinde"},"district":{"key":"07334","name":"Germersheim","type":"Landkreis"},"federalState":{"key":"07","name":"Rheinland-Pfalz"}},{"name":"Wehrweg","postalCode":"67363","locality":"Lustadt","municipality":{"key":"07334018","name":"Lustadt","type":"Kreisangehörige_Gemeinde"},"district":{"key":"07334","name":"Germersheim","type":"Landkreis"},"federalState":{"key":"07","name":"Rheinland-Pfalz"}},{"name":"Ysenburgstr.","postalCode":"76726","locality":"Germersheim","municipality":{"key":"07334007","name":"Germersheim, Stadt","type":"Stadt"},"district":{"key":"07334","name":"Germersheim","type":"Landkreis"},"federalState":{"key":"07","name":"Rheinland-Pfalz"}},{"name":"Zeiskamer Schneise","postalCode":"67363","locality":"Lustadt","municipality":{"key":"07334018","name":"Lustadt","type":"Kreisangehörige_Gemeinde"},"district":{"key":"07334","name":"Germersheim","type":"Landkreis"},"federalState":{"key":"07","name":"Rheinland-Pfalz"}},]