[{"name":"Adalbert-Stifter-Str.","postalCode":"93336","locality":"Altmannstein","municipality":{"key":"09176112","name":"Altmannstein, M","type":"Markt"},"district":{"key":"09176","name":"Eichstätt","type":"Landkreis"},"federalState":{"key":"09","name":"Bayern"}},{"name":"Ahornstr.","postalCode":"93336","locality":"Altmannstein","municipality":{"key":"09176112","name":"Altmannstein, M","type":"Markt"},"district":{"key":"09176","name":"Eichstätt","type":"Landkreis"},"federalState":{"key":"09","name":"Bayern"}},{"name":"Alleestr.","postalCode":"93336","locality":"Altmannstein","municipality":{"key":"09176112","name":"Altmannstein, M","type":"Markt"},"district":{"key":"09176","name":"Eichstätt","type":"Landkreis"},"federalState":{"key":"09","name":"Bayern"}},{"name":"Alte Salzstr.","postalCode":"93336","locality":"Altmannstein","municipality":{"key":"09176112","name":"Altmannstein, M","type":"Markt"},"district":{"key":"09176","name":"Eichstätt","type":"Landkreis"},"federalState":{"key":"09","name":"Bayern"}},{"name":"Altmannsteiner Str.","postalCode":"93336","locality":"Altmannstein","municipality":{"key":"09176112","name":"Altmannstein, M","type":"Markt"},"district":{"key":"09176","name":"Eichstätt","type":"Landkreis"},"federalState":{"key":"09","name":"Bayern"}},{"name":"Am Bachl","postalCode":"93336","locality":"Altmannstein","municipality":{"key":"09176112","name":"Altmannstein, M","type":"Markt"},"district":{"key":"09176","name":"Eichstätt","type":"Landkreis"},"federalState":{"key":"09","name":"Bayern"}},{"name":"Am Burgblick","postalCode":"93336","locality":"Altmannstein","municipality":{"key":"09176112","name":"Altmannstein, M","type":"Markt"},"district":{"key":"09176","name":"Eichstätt","type":"Landkreis"},"federalState":{"key":"09","name":"Bayern"}},{"name":"Am Görzenberg","postalCode":"93336","locality":"Altmannstein","municipality":{"key":"09176112","name":"Altmannstein, M","type":"Markt"},"district":{"key":"09176","name":"Eichstätt","type":"Landkreis"},"federalState":{"key":"09","name":"Bayern"}},{"name":"Am Gwendt","postalCode":"93336","locality":"Altmannstein","municipality":{"key":"09176112","name":"Altmannstein, M","type":"Markt"},"district":{"key":"09176","name":"Eichstätt","type":"Landkreis"},"federalState":{"key":"09","name":"Bayern"}},{"name":"Am Hang","postalCode":"93336","locality":"Altmannstein","municipality":{"key":"09176112","name":"Altmannstein, M","type":"Markt"},"district":{"key":"09176","name":"Eichstätt","type":"Landkreis"},"federalState":{"key":"09","name":"Bayern"}},{"name":"Am Hirtberg","postalCode":"93336","locality":"Altmannstein","municipality":{"key":"09176112","name":"Altmannstein, M","type":"Markt"},"district":{"key":"09176","name":"Eichstätt","type":"Landkreis"},"federalState":{"key":"09","name":"Bayern"}},{"name":"Am Kästelberg","postalCode":"93336","locality":"Altmannstein","municipality":{"key":"09176112","name":"Altmannstein, M","type":"Markt"},"district":{"key":"09176","name":"Eichstätt","type":"Landkreis"},"federalState":{"key":"09","name":"Bayern"}},{"name":"Am Kochfeld","postalCode":"93336","locality":"Altmannstein","municipality":{"key":"09176112","name":"Altmannstein, M","type":"Markt"},"district":{"key":"09176","name":"Eichstätt","type":"Landkreis"},"federalState":{"key":"09","name":"Bayern"}},{"name":"Am Limes","postalCode":"93336","locality":"Altmannstein","municipality":{"key":"09176112","name":"Altmannstein, M","type":"Markt"},"district":{"key":"09176","name":"Eichstätt","type":"Landkreis"},"federalState":{"key":"09","name":"Bayern"}},{"name":"Ammerbauerweg","postalCode":"93336","locality":"Altmannstein","municipality":{"key":"09176112","name":"Altmannstein, M","type":"Markt"},"district":{"key":"09176","name":"Eichstätt","type":"Landkreis"},"federalState":{"key":"09","name":"Bayern"}},{"name":"Am Prangerweg","postalCode":"93336","locality":"Altmannstein","municipality":{"key":"09176112","name":"Altmannstein, M","type":"Markt"},"district":{"key":"09176","name":"Eichstätt","type":"Landkreis"},"federalState":{"key":"09","name":"Bayern"}},{"name":"Am Sand","postalCode":"93336","locality":"Altmannstein","municipality":{"key":"09176112","name":"Altmannstein, M","type":"Markt"},"district":{"key":"09176","name":"Eichstätt","type":"Landkreis"},"federalState":{"key":"09","name":"Bayern"}},{"name":"Am Schindberg","postalCode":"93336","locality":"Altmannstein","municipality":{"key":"09176112","name":"Altmannstein, M","type":"Markt"},"district":{"key":"09176","name":"Eichstätt","type":"Landkreis"},"federalState":{"key":"09","name":"Bayern"}},{"name":"Am Schlossberg","postalCode":"93336","locality":"Altmannstein","municipality":{"key":"09176112","name":"Altmannstein, M","type":"Markt"},"district":{"key":"09176","name":"Eichstätt","type":"Landkreis"},"federalState":{"key":"09","name":"Bayern"}},{"name":"Amselweg","postalCode":"93336","locality":"Altmannstein","municipality":{"key":"09176112","name":"Altmannstein, M","type":"Markt"},"district":{"key":"09176","name":"Eichstätt","type":"Landkreis"},"federalState":{"key":"09","name":"Bayern"}},{"name":"Am Singer","postalCode":"93336","locality":"Altmannstein","municipality":{"key":"09176112","name":"Altmannstein, M","type":"Markt"},"district":{"key":"09176","name":"Eichstätt","type":"Landkreis"},"federalState":{"key":"09","name":"Bayern"}},{"name":"Am Sonneneck","postalCode":"93336","locality":"Altmannstein","municipality":{"key":"09176112","name":"Altmannstein, M","type":"Markt"},"district":{"key":"09176","name":"Eichstätt","type":"Landkreis"},"federalState":{"key":"09","name":"Bayern"}},{"name":"Am Sportplatz","postalCode":"93336","locality":"Altmannstein","municipality":{"key":"09176112","name":"Altmannstein, M","type":"Markt"},"district":{"key":"09176","name":"Eichstätt","type":"Landkreis"},"federalState":{"key":"09","name":"Bayern"}},{"name":"Am Steinbuckel","postalCode":"93336","locality":"Altmannstein","municipality":{"key":"09176112","name":"Altmannstein, M","type":"Markt"},"district":{"key":"09176","name":"Eichstätt","type":"Landkreis"},"federalState":{"key":"09","name":"Bayern"}},{"name":"Am Steinertal","postalCode":"93336","locality":"Altmannstein","municipality":{"key":"09176112","name":"Altmannstein, M","type":"Markt"},"district":{"key":"09176","name":"Eichstätt","type":"Landkreis"},"federalState":{"key":"09","name":"Bayern"}},{"name":"Am Südhang","postalCode":"93336","locality":"Altmannstein","municipality":{"key":"09176112","name":"Altmannstein, M","type":"Markt"},"district":{"key":"09176","name":"Eichstätt","type":"Landkreis"},"federalState":{"key":"09","name":"Bayern"}},{"name":"Am Talgraben","postalCode":"93336","locality":"Altmannstein","municipality":{"key":"09176112","name":"Altmannstein, M","type":"Markt"},"district":{"key":"09176","name":"Eichstätt","type":"Landkreis"},"federalState":{"key":"09","name":"Bayern"}},{"name":"Am Thannhauser Berg","postalCode":"93336","locality":"Altmannstein","municipality":{"key":"09176112","name":"Altmannstein, M","type":"Markt"},"district":{"key":"09176","name":"Eichstätt","type":"Landkreis"},"federalState":{"key":"09","name":"Bayern"}},{"name":"Am Ursprung","postalCode":"93336","locality":"Altmannstein","municipality":{"key":"09176112","name":"Altmannstein, M","type":"Markt"},"district":{"key":"09176","name":"Eichstätt","type":"Landkreis"},"federalState":{"key":"09","name":"Bayern"}},{"name":"Am Vogelherd","postalCode":"93336","locality":"Altmannstein","municipality":{"key":"09176112","name":"Altmannstein, M","type":"Markt"},"district":{"key":"09176","name":"Eichstätt","type":"Landkreis"},"federalState":{"key":"09","name":"Bayern"}},{"name":"Am Waldrand","postalCode":"93336","locality":"Altmannstein","municipality":{"key":"09176112","name":"Altmannstein, M","type":"Markt"},"district":{"key":"09176","name":"Eichstätt","type":"Landkreis"},"federalState":{"key":"09","name":"Bayern"}},{"name":"Am Weingarten","postalCode":"93336","locality":"Altmannstein","municipality":{"key":"09176112","name":"Altmannstein, M","type":"Markt"},"district":{"key":"09176","name":"Eichstätt","type":"Landkreis"},"federalState":{"key":"09","name":"Bayern"}},{"name":"Am Wierl","postalCode":"93336","locality":"Altmannstein","municipality":{"key":"09176112","name":"Altmannstein, M","type":"Markt"},"district":{"key":"09176","name":"Eichstätt","type":"Landkreis"},"federalState":{"key":"09","name":"Bayern"}},{"name":"Apianstr.","postalCode":"93336","locality":"Altmannstein","municipality":{"key":"09176112","name":"Altmannstein, M","type":"Markt"},"district":{"key":"09176","name":"Eichstätt","type":"Landkreis"},"federalState":{"key":"09","name":"Bayern"}},{"name":"Arnbucher Weg","postalCode":"93336","locality":"Altmannstein","municipality":{"key":"09176112","name":"Altmannstein, M","type":"Markt"},"district":{"key":"09176","name":"Eichstätt","type":"Landkreis"},"federalState":{"key":"09","name":"Bayern"}},{"name":"Auf der Biber","postalCode":"93336","locality":"Altmannstein","municipality":{"key":"09176112","name":"Altmannstein, M","type":"Markt"},"district":{"key":"09176","name":"Eichstätt","type":"Landkreis"},"federalState":{"key":"09","name":"Bayern"}},{"name":"Augustinerstr.","postalCode":"93336","locality":"Altmannstein","municipality":{"key":"09176112","name":"Altmannstein, M","type":"Markt"},"district":{"key":"09176","name":"Eichstätt","type":"Landkreis"},"federalState":{"key":"09","name":"Bayern"}},{"name":"Aventinstr.","postalCode":"93336","locality":"Altmannstein","municipality":{"key":"09176112","name":"Altmannstein, M","type":"Markt"},"district":{"key":"09176","name":"Eichstätt","type":"Landkreis"},"federalState":{"key":"09","name":"Bayern"}},{"name":"Bahnhofplatz","postalCode":"93336","locality":"Altmannstein","municipality":{"key":"09176112","name":"Altmannstein, M","type":"Markt"},"district":{"key":"09176","name":"Eichstätt","type":"Landkreis"},"federalState":{"key":"09","name":"Bayern"}},{"name":"Bahnhofstr.","postalCode":"93336","locality":"Altmannstein","municipality":{"key":"09176112","name":"Altmannstein, M","type":"Markt"},"district":{"key":"09176","name":"Eichstätt","type":"Landkreis"},"federalState":{"key":"09","name":"Bayern"}},{"name":"Bahnhofsweg","postalCode":"93336","locality":"Altmannstein","municipality":{"key":"09176112","name":"Altmannstein, M","type":"Markt"},"district":{"key":"09176","name":"Eichstätt","type":"Landkreis"},"federalState":{"key":"09","name":"Bayern"}},{"name":"Bajuwarenstr.","postalCode":"93336","locality":"Altmannstein","municipality":{"key":"09176112","name":"Altmannstein, M","type":"Markt"},"district":{"key":"09176","name":"Eichstätt","type":"Landkreis"},"federalState":{"key":"09","name":"Bayern"}},{"name":"Beilngrieser Str.","postalCode":"93336","locality":"Altmannstein","municipality":{"key":"09176112","name":"Altmannstein, M","type":"Markt"},"district":{"key":"09176","name":"Eichstätt","type":"Landkreis"},"federalState":{"key":"09","name":"Bayern"}},{"name":"Bellerweg","postalCode":"93336","locality":"Altmannstein","municipality":{"key":"09176112","name":"Altmannstein, M","type":"Markt"},"district":{"key":"09176","name":"Eichstätt","type":"Landkreis"},"federalState":{"key":"09","name":"Bayern"}},{"name":"Berghauser Str.","postalCode":"93336","locality":"Altmannstein","municipality":{"key":"09176112","name":"Altmannstein, M","type":"Markt"},"district":{"key":"09176","name":"Eichstätt","type":"Landkreis"},"federalState":{"key":"09","name":"Bayern"}},{"name":"Bergstr.","postalCode":"93336","locality":"Altmannstein","municipality":{"key":"09176112","name":"Altmannstein, M","type":"Markt"},"district":{"key":"09176","name":"Eichstätt","type":"Landkreis"},"federalState":{"key":"09","name":"Bayern"}},{"name":"Bettbrunner Str.","postalCode":"93336","locality":"Altmannstein","municipality":{"key":"09176112","name":"Altmannstein, M","type":"Markt"},"district":{"key":"09176","name":"Eichstätt","type":"Landkreis"},"federalState":{"key":"09","name":"Bayern"}},{"name":"Birkenstr.","postalCode":"93336","locality":"Altmannstein","municipality":{"key":"09176112","name":"Altmannstein, M","type":"Markt"},"district":{"key":"09176","name":"Eichstätt","type":"Landkreis"},"federalState":{"key":"09","name":"Bayern"}},{"name":"Blumenstr.","postalCode":"93336","locality":"Altmannstein","municipality":{"key":"09176112","name":"Altmannstein, M","type":"Markt"},"district":{"key":"09176","name":"Eichstätt","type":"Landkreis"},"federalState":{"key":"09","name":"Bayern"}},{"name":"Brunnenstr.","postalCode":"93336","locality":"Altmannstein","municipality":{"key":"09176112","name":"Altmannstein, M","type":"Markt"},"district":{"key":"09176","name":"Eichstätt","type":"Landkreis"},"federalState":{"key":"09","name":"Bayern"}},{"name":"Brunnenweg","postalCode":"93336","locality":"Altmannstein","municipality":{"key":"09176112","name":"Altmannstein, M","type":"Markt"},"district":{"key":"09176","name":"Eichstätt","type":"Landkreis"},"federalState":{"key":"09","name":"Bayern"}},{"name":"Buchenstr.","postalCode":"93336","locality":"Altmannstein","municipality":{"key":"09176112","name":"Altmannstein, M","type":"Markt"},"district":{"key":"09176","name":"Eichstätt","type":"Landkreis"},"federalState":{"key":"09","name":"Bayern"}},{"name":"Buchenweg","postalCode":"93336","locality":"Altmannstein","municipality":{"key":"09176112","name":"Altmannstein, M","type":"Markt"},"district":{"key":"09176","name":"Eichstätt","type":"Landkreis"},"federalState":{"key":"09","name":"Bayern"}},{"name":"Burchard-von-Stein-Str.","postalCode":"93336","locality":"Altmannstein","municipality":{"key":"09176112","name":"Altmannstein, M","type":"Markt"},"district":{"key":"09176","name":"Eichstätt","type":"Landkreis"},"federalState":{"key":"09","name":"Bayern"}},{"name":"Burg-Stein-Gasse","postalCode":"93336","locality":"Altmannstein","municipality":{"key":"09176112","name":"Altmannstein, M","type":"Markt"},"district":{"key":"09176","name":"Eichstätt","type":"Landkreis"},"federalState":{"key":"09","name":"Bayern"}},{"name":"Castellweg","postalCode":"85072","locality":"Eichstätt","municipality":{"key":"09176123","name":"Eichstätt, GKSt","type":"Große_Kreisstadt"},"district":{"key":"09176","name":"Eichstätt","type":"Landkreis"},"federalState":{"key":"09","name":"Bayern"}},{"name":"Christian-Wink-Str.","postalCode":"85072","locality":"Eichstätt","municipality":{"key":"09176123","name":"Eichstätt, GKSt","type":"Große_Kreisstadt"},"district":{"key":"09176","name":"Eichstätt","type":"Landkreis"},"federalState":{"key":"09","name":"Bayern"}},{"name":"Christoph-Willibald-Gluck-Weg","postalCode":"85072","locality":"Eichstätt","municipality":{"key":"09176123","name":"Eichstätt, GKSt","type":"Große_Kreisstadt"},"district":{"key":"09176","name":"Eichstätt","type":"Landkreis"},"federalState":{"key":"09","name":"Bayern"}},{"name":"Clara-Staiger-Str.","postalCode":"85072","locality":"Eichstätt","municipality":{"key":"09176123","name":"Eichstätt, GKSt","type":"Große_Kreisstadt"},"district":{"key":"09176","name":"Eichstätt","type":"Landkreis"},"federalState":{"key":"09","name":"Bayern"}},{"name":"de Bassus-Str.","postalCode":"93336","locality":"Altmannstein","municipality":{"key":"09176112","name":"Altmannstein, M","type":"Markt"},"district":{"key":"09176","name":"Eichstätt","type":"Landkreis"},"federalState":{"key":"09","name":"Bayern"}},{"name":"Dorfstr.","postalCode":"93336","locality":"Altmannstein","municipality":{"key":"09176112","name":"Altmannstein, M","type":"Markt"},"district":{"key":"09176","name":"Eichstätt","type":"Landkreis"},"federalState":{"key":"09","name":"Bayern"}},{"name":"Dr.-Leix-Str.","postalCode":"93336","locality":"Altmannstein","municipality":{"key":"09176112","name":"Altmannstein, M","type":"Markt"},"district":{"key":"09176","name":"Eichstätt","type":"Landkreis"},"federalState":{"key":"09","name":"Bayern"}},{"name":"Dr.-Seidl-Str.","postalCode":"93336","locality":"Altmannstein","municipality":{"key":"09176112","name":"Altmannstein, M","type":"Markt"},"district":{"key":"09176","name":"Eichstätt","type":"Landkreis"},"federalState":{"key":"09","name":"Bayern"}},{"name":"Eichendorffstr.","postalCode":"93336","locality":"Altmannstein","municipality":{"key":"09176112","name":"Altmannstein, M","type":"Markt"},"district":{"key":"09176","name":"Eichstätt","type":"Landkreis"},"federalState":{"key":"09","name":"Bayern"}},{"name":"Eichenweg","postalCode":"93336","locality":"Altmannstein","municipality":{"key":"09176112","name":"Altmannstein, M","type":"Markt"},"district":{"key":"09176","name":"Eichstätt","type":"Landkreis"},"federalState":{"key":"09","name":"Bayern"}},{"name":"Emmerstr.","postalCode":"93336","locality":"Altmannstein","municipality":{"key":"09176112","name":"Altmannstein, M","type":"Markt"},"district":{"key":"09176","name":"Eichstätt","type":"Landkreis"},"federalState":{"key":"09","name":"Bayern"}},{"name":"Erzstr.","postalCode":"93336","locality":"Altmannstein","municipality":{"key":"09176112","name":"Altmannstein, M","type":"Markt"},"district":{"key":"09176","name":"Eichstätt","type":"Landkreis"},"federalState":{"key":"09","name":"Bayern"}},{"name":"Falkenweg","postalCode":"93336","locality":"Altmannstein","municipality":{"key":"09176112","name":"Altmannstein, M","type":"Markt"},"district":{"key":"09176","name":"Eichstätt","type":"Landkreis"},"federalState":{"key":"09","name":"Bayern"}},{"name":"Fasanenweg","postalCode":"93336","locality":"Altmannstein","municipality":{"key":"09176112","name":"Altmannstein, M","type":"Markt"},"district":{"key":"09176","name":"Eichstätt","type":"Landkreis"},"federalState":{"key":"09","name":"Bayern"}},{"name":"Fichtenstr.","postalCode":"93336","locality":"Altmannstein","municipality":{"key":"09176112","name":"Altmannstein, M","type":"Markt"},"district":{"key":"09176","name":"Eichstätt","type":"Landkreis"},"federalState":{"key":"09","name":"Bayern"}},{"name":"Föhenring","postalCode":"93336","locality":"Altmannstein","municipality":{"key":"09176112","name":"Altmannstein, M","type":"Markt"},"district":{"key":"09176","name":"Eichstätt","type":"Landkreis"},"federalState":{"key":"09","name":"Bayern"}},{"name":"Föhrenweg","postalCode":"93336","locality":"Altmannstein","municipality":{"key":"09176112","name":"Altmannstein, M","type":"Markt"},"district":{"key":"09176","name":"Eichstätt","type":"Landkreis"},"federalState":{"key":"09","name":"Bayern"}},{"name":"Forststr.","postalCode":"93336","locality":"Altmannstein","municipality":{"key":"09176112","name":"Altmannstein, M","type":"Markt"},"district":{"key":"09176","name":"Eichstätt","type":"Landkreis"},"federalState":{"key":"09","name":"Bayern"}},{"name":"Frauenweg","postalCode":"93336","locality":"Altmannstein","municipality":{"key":"09176112","name":"Altmannstein, M","type":"Markt"},"district":{"key":"09176","name":"Eichstätt","type":"Landkreis"},"federalState":{"key":"09","name":"Bayern"}},{"name":"Galgenbergring","postalCode":"93336","locality":"Altmannstein","municipality":{"key":"09176112","name":"Altmannstein, M","type":"Markt"},"district":{"key":"09176","name":"Eichstätt","type":"Landkreis"},"federalState":{"key":"09","name":"Bayern"}},{"name":"Gartenstr.","postalCode":"93336","locality":"Altmannstein","municipality":{"key":"09176112","name":"Altmannstein, M","type":"Markt"},"district":{"key":"09176","name":"Eichstätt","type":"Landkreis"},"federalState":{"key":"09","name":"Bayern"}},{"name":"Gebertweg","postalCode":"93336","locality":"Altmannstein","municipality":{"key":"09176112","name":"Altmannstein, M","type":"Markt"},"district":{"key":"09176","name":"Eichstätt","type":"Landkreis"},"federalState":{"key":"09","name":"Bayern"}},{"name":"Graf-Niklas-Str.","postalCode":"93336","locality":"Altmannstein","municipality":{"key":"09176112","name":"Altmannstein, M","type":"Markt"},"district":{"key":"09176","name":"Eichstätt","type":"Landkreis"},"federalState":{"key":"09","name":"Bayern"}},{"name":"Haberländerstr.","postalCode":"93336","locality":"Altmannstein","municipality":{"key":"09176112","name":"Altmannstein, M","type":"Markt"},"district":{"key":"09176","name":"Eichstätt","type":"Landkreis"},"federalState":{"key":"09","name":"Bayern"}},{"name":"Hadrianstr.","postalCode":"93336","locality":"Altmannstein","municipality":{"key":"09176112","name":"Altmannstein, M","type":"Markt"},"district":{"key":"09176","name":"Eichstätt","type":"Landkreis"},"federalState":{"key":"09","name":"Bayern"}},{"name":"Hagenhiller Str.","postalCode":"93336","locality":"Altmannstein","municipality":{"key":"09176112","name":"Altmannstein, M","type":"Markt"},"district":{"key":"09176","name":"Eichstätt","type":"Landkreis"},"federalState":{"key":"09","name":"Bayern"}},{"name":"Hartmannstr.","postalCode":"93336","locality":"Altmannstein","municipality":{"key":"09176112","name":"Altmannstein, M","type":"Markt"},"district":{"key":"09176","name":"Eichstätt","type":"Landkreis"},"federalState":{"key":"09","name":"Bayern"}},{"name":"Haseltalring","postalCode":"93336","locality":"Altmannstein","municipality":{"key":"09176112","name":"Altmannstein, M","type":"Markt"},"district":{"key":"09176","name":"Eichstätt","type":"Landkreis"},"federalState":{"key":"09","name":"Bayern"}},{"name":"Hattenhausener Str.","postalCode":"93336","locality":"Altmannstein","municipality":{"key":"09176112","name":"Altmannstein, M","type":"Markt"},"district":{"key":"09176","name":"Eichstätt","type":"Landkreis"},"federalState":{"key":"09","name":"Bayern"}},{"name":"Hauptstr.","postalCode":"93336","locality":"Altmannstein","municipality":{"key":"09176112","name":"Altmannstein, M","type":"Markt"},"district":{"key":"09176","name":"Eichstätt","type":"Landkreis"},"federalState":{"key":"09","name":"Bayern"}},{"name":"Heinrichstr.","postalCode":"93336","locality":"Altmannstein","municipality":{"key":"09176112","name":"Altmannstein, M","type":"Markt"},"district":{"key":"09176","name":"Eichstätt","type":"Landkreis"},"federalState":{"key":"09","name":"Bayern"}},{"name":"Herzogstr.","postalCode":"93336","locality":"Altmannstein","municipality":{"key":"09176112","name":"Altmannstein, M","type":"Markt"},"district":{"key":"09176","name":"Eichstätt","type":"Landkreis"},"federalState":{"key":"09","name":"Bayern"}},{"name":"Heugass","postalCode":"93336","locality":"Altmannstein","municipality":{"key":"09176112","name":"Altmannstein, M","type":"Markt"},"district":{"key":"09176","name":"Eichstätt","type":"Landkreis"},"federalState":{"key":"09","name":"Bayern"}},{"name":"Hienheimer Str.","postalCode":"93336","locality":"Altmannstein","municipality":{"key":"09176112","name":"Altmannstein, M","type":"Markt"},"district":{"key":"09176","name":"Eichstätt","type":"Landkreis"},"federalState":{"key":"09","name":"Bayern"}},{"name":"Hinter der Hut","postalCode":"93336","locality":"Altmannstein","municipality":{"key":"09176112","name":"Altmannstein, M","type":"Markt"},"district":{"key":"09176","name":"Eichstätt","type":"Landkreis"},"federalState":{"key":"09","name":"Bayern"}},{"name":"Hofbauernfeld","postalCode":"93336","locality":"Altmannstein","municipality":{"key":"09176112","name":"Altmannstein, M","type":"Markt"},"district":{"key":"09176","name":"Eichstätt","type":"Landkreis"},"federalState":{"key":"09","name":"Bayern"}},{"name":"Hofmarkring","postalCode":"93336","locality":"Altmannstein","municipality":{"key":"09176112","name":"Altmannstein, M","type":"Markt"},"district":{"key":"09176","name":"Eichstätt","type":"Landkreis"},"federalState":{"key":"09","name":"Bayern"}},{"name":"Hohenwartstr.","postalCode":"93336","locality":"Altmannstein","municipality":{"key":"09176112","name":"Altmannstein, M","type":"Markt"},"district":{"key":"09176","name":"Eichstätt","type":"Landkreis"},"federalState":{"key":"09","name":"Bayern"}},{"name":"Hollerstr.","postalCode":"93336","locality":"Altmannstein","municipality":{"key":"09176112","name":"Altmannstein, M","type":"Markt"},"district":{"key":"09176","name":"Eichstätt","type":"Landkreis"},"federalState":{"key":"09","name":"Bayern"}},{"name":"Hopfenstr.","postalCode":"93336","locality":"Altmannstein","municipality":{"key":"09176112","name":"Altmannstein, M","type":"Markt"},"district":{"key":"09176","name":"Eichstätt","type":"Landkreis"},"federalState":{"key":"09","name":"Bayern"}},{"name":"Hütbergring","postalCode":"93336","locality":"Altmannstein","municipality":{"key":"09176112","name":"Altmannstein, M","type":"Markt"},"district":{"key":"09176","name":"Eichstätt","type":"Landkreis"},"federalState":{"key":"09","name":"Bayern"}},{"name":"Ignaz-Günther-Gasse","postalCode":"93336","locality":"Altmannstein","municipality":{"key":"09176112","name":"Altmannstein, M","type":"Markt"},"district":{"key":"09176","name":"Eichstätt","type":"Landkreis"},"federalState":{"key":"09","name":"Bayern"}},{"name":"Im Gassl","postalCode":"93336","locality":"Altmannstein","municipality":{"key":"09176112","name":"Altmannstein, M","type":"Markt"},"district":{"key":"09176","name":"Eichstätt","type":"Landkreis"},"federalState":{"key":"09","name":"Bayern"}},{"name":"Im Schloß","postalCode":"93336","locality":"Altmannstein","municipality":{"key":"09176112","name":"Altmannstein, M","type":"Markt"},"district":{"key":"09176","name":"Eichstätt","type":"Landkreis"},"federalState":{"key":"09","name":"Bayern"}},{"name":"Industriestr.","postalCode":"93336","locality":"Altmannstein","municipality":{"key":"09176112","name":"Altmannstein, M","type":"Markt"},"district":{"key":"09176","name":"Eichstätt","type":"Landkreis"},"federalState":{"key":"09","name":"Bayern"}},{"name":"Ingolstädter Str.","postalCode":"93336","locality":"Altmannstein","municipality":{"key":"09176112","name":"Altmannstein, M","type":"Markt"},"district":{"key":"09176","name":"Eichstätt","type":"Landkreis"},"federalState":{"key":"09","name":"Bayern"}},{"name":"Junghofstr.","postalCode":"93336","locality":"Altmannstein","municipality":{"key":"09176112","name":"Altmannstein, M","type":"Markt"},"district":{"key":"09176","name":"Eichstätt","type":"Landkreis"},"federalState":{"key":"09","name":"Bayern"}},{"name":"Jurastr.","postalCode":"93336","locality":"Altmannstein","municipality":{"key":"09176112","name":"Altmannstein, M","type":"Markt"},"district":{"key":"09176","name":"Eichstätt","type":"Landkreis"},"federalState":{"key":"09","name":"Bayern"}},{"name":"Kasinger Weg","postalCode":"93336","locality":"Altmannstein","municipality":{"key":"09176112","name":"Altmannstein, M","type":"Markt"},"district":{"key":"09176","name":"Eichstätt","type":"Landkreis"},"federalState":{"key":"09","name":"Bayern"}},{"name":"Kastanienweg","postalCode":"93336","locality":"Altmannstein","municipality":{"key":"09176112","name":"Altmannstein, M","type":"Markt"},"district":{"key":"09176","name":"Eichstätt","type":"Landkreis"},"federalState":{"key":"09","name":"Bayern"}},{"name":"Kastellstr.","postalCode":"93336","locality":"Altmannstein","municipality":{"key":"09176112","name":"Altmannstein, M","type":"Markt"},"district":{"key":"09176","name":"Eichstätt","type":"Landkreis"},"federalState":{"key":"09","name":"Bayern"}},{"name":"Kelheimer Str.","postalCode":"93336","locality":"Altmannstein","municipality":{"key":"09176112","name":"Altmannstein, M","type":"Markt"},"district":{"key":"09176","name":"Eichstätt","type":"Landkreis"},"federalState":{"key":"09","name":"Bayern"}},{"name":"Keltenring","postalCode":"93336","locality":"Altmannstein","municipality":{"key":"09176112","name":"Altmannstein, M","type":"Markt"},"district":{"key":"09176","name":"Eichstätt","type":"Landkreis"},"federalState":{"key":"09","name":"Bayern"}},{"name":"Keltenstr.","postalCode":"93336","locality":"Altmannstein","municipality":{"key":"09176112","name":"Altmannstein, M","type":"Markt"},"district":{"key":"09176","name":"Eichstätt","type":"Landkreis"},"federalState":{"key":"09","name":"Bayern"}},{"name":"Kieferstr.","postalCode":"93336","locality":"Altmannstein","municipality":{"key":"09176112","name":"Altmannstein, M","type":"Markt"},"district":{"key":"09176","name":"Eichstätt","type":"Landkreis"},"federalState":{"key":"09","name":"Bayern"}},{"name":"Kirchberg","postalCode":"93336","locality":"Altmannstein","municipality":{"key":"09176112","name":"Altmannstein, M","type":"Markt"},"district":{"key":"09176","name":"Eichstätt","type":"Landkreis"},"federalState":{"key":"09","name":"Bayern"}},{"name":"Kirchenweg","postalCode":"93336","locality":"Altmannstein","municipality":{"key":"09176112","name":"Altmannstein, M","type":"Markt"},"district":{"key":"09176","name":"Eichstätt","type":"Landkreis"},"federalState":{"key":"09","name":"Bayern"}},{"name":"Kirchgasse","postalCode":"93336","locality":"Altmannstein","municipality":{"key":"09176112","name":"Altmannstein, M","type":"Markt"},"district":{"key":"09176","name":"Eichstätt","type":"Landkreis"},"federalState":{"key":"09","name":"Bayern"}},{"name":"Kirchplatz","postalCode":"93336","locality":"Altmannstein","municipality":{"key":"09176112","name":"Altmannstein, M","type":"Markt"},"district":{"key":"09176","name":"Eichstätt","type":"Landkreis"},"federalState":{"key":"09","name":"Bayern"}},{"name":"Kirchstr.","postalCode":"93336","locality":"Altmannstein","municipality":{"key":"09176112","name":"Altmannstein, M","type":"Markt"},"district":{"key":"09176","name":"Eichstätt","type":"Landkreis"},"federalState":{"key":"09","name":"Bayern"}},{"name":"Kitzelgraben","postalCode":"93336","locality":"Altmannstein","municipality":{"key":"09176112","name":"Altmannstein, M","type":"Markt"},"district":{"key":"09176","name":"Eichstätt","type":"Landkreis"},"federalState":{"key":"09","name":"Bayern"}},{"name":"Kochberghang","postalCode":"93336","locality":"Altmannstein","municipality":{"key":"09176112","name":"Altmannstein, M","type":"Markt"},"district":{"key":"09176","name":"Eichstätt","type":"Landkreis"},"federalState":{"key":"09","name":"Bayern"}},{"name":"Kornstr.","postalCode":"93336","locality":"Altmannstein","municipality":{"key":"09176112","name":"Altmannstein, M","type":"Markt"},"district":{"key":"09176","name":"Eichstätt","type":"Landkreis"},"federalState":{"key":"09","name":"Bayern"}},{"name":"Kramerwiese","postalCode":"93336","locality":"Altmannstein","municipality":{"key":"09176112","name":"Altmannstein, M","type":"Markt"},"district":{"key":"09176","name":"Eichstätt","type":"Landkreis"},"federalState":{"key":"09","name":"Bayern"}},{"name":"Landshuter Str.","postalCode":"93336","locality":"Altmannstein","municipality":{"key":"09176112","name":"Altmannstein, M","type":"Markt"},"district":{"key":"09176","name":"Eichstätt","type":"Landkreis"},"federalState":{"key":"09","name":"Bayern"}},{"name":"Lehenbühl","postalCode":"93336","locality":"Altmannstein","municipality":{"key":"09176112","name":"Altmannstein, M","type":"Markt"},"district":{"key":"09176","name":"Eichstätt","type":"Landkreis"},"federalState":{"key":"09","name":"Bayern"}},{"name":"Lenzweg","postalCode":"93336","locality":"Altmannstein","municipality":{"key":"09176112","name":"Altmannstein, M","type":"Markt"},"district":{"key":"09176","name":"Eichstätt","type":"Landkreis"},"federalState":{"key":"09","name":"Bayern"}},{"name":"Liebfrauenweg","postalCode":"93336","locality":"Altmannstein","municipality":{"key":"09176112","name":"Altmannstein, M","type":"Markt"},"district":{"key":"09176","name":"Eichstätt","type":"Landkreis"},"federalState":{"key":"09","name":"Bayern"}},{"name":"Limesstr.","postalCode":"93336","locality":"Altmannstein","municipality":{"key":"09176112","name":"Altmannstein, M","type":"Markt"},"district":{"key":"09176","name":"Eichstätt","type":"Landkreis"},"federalState":{"key":"09","name":"Bayern"}},{"name":"Lindenstr.","postalCode":"93336","locality":"Altmannstein","municipality":{"key":"09176112","name":"Altmannstein, M","type":"Markt"},"district":{"key":"09176","name":"Eichstätt","type":"Landkreis"},"federalState":{"key":"09","name":"Bayern"}},{"name":"Lindenweg","postalCode":"93336","locality":"Altmannstein","municipality":{"key":"09176112","name":"Altmannstein, M","type":"Markt"},"district":{"key":"09176","name":"Eichstätt","type":"Landkreis"},"federalState":{"key":"09","name":"Bayern"}},{"name":"Lobsinger Str.","postalCode":"93336","locality":"Altmannstein","municipality":{"key":"09176112","name":"Altmannstein, M","type":"Markt"},"district":{"key":"09176","name":"Eichstätt","type":"Landkreis"},"federalState":{"key":"09","name":"Bayern"}},{"name":"Lohstr.","postalCode":"93336","locality":"Altmannstein","municipality":{"key":"09176112","name":"Altmannstein, M","type":"Markt"},"district":{"key":"09176","name":"Eichstätt","type":"Landkreis"},"federalState":{"key":"09","name":"Bayern"}},{"name":"Ludwigstr.","postalCode":"93336","locality":"Altmannstein","municipality":{"key":"09176112","name":"Altmannstein, M","type":"Markt"},"district":{"key":"09176","name":"Eichstätt","type":"Landkreis"},"federalState":{"key":"09","name":"Bayern"}},{"name":"Marienplatz","postalCode":"93336","locality":"Altmannstein","municipality":{"key":"09176112","name":"Altmannstein, M","type":"Markt"},"district":{"key":"09176","name":"Eichstätt","type":"Landkreis"},"federalState":{"key":"09","name":"Bayern"}},{"name":"Marienstr.","postalCode":"93336","locality":"Altmannstein","municipality":{"key":"09176112","name":"Altmannstein, M","type":"Markt"},"district":{"key":"09176","name":"Eichstätt","type":"Landkreis"},"federalState":{"key":"09","name":"Bayern"}},{"name":"Mathias-Bauer-Str.","postalCode":"93336","locality":"Altmannstein","municipality":{"key":"09176112","name":"Altmannstein, M","type":"Markt"},"district":{"key":"09176","name":"Eichstätt","type":"Landkreis"},"federalState":{"key":"09","name":"Bayern"}},{"name":"Mendorfer Str.","postalCode":"93336","locality":"Altmannstein","municipality":{"key":"09176112","name":"Altmannstein, M","type":"Markt"},"district":{"key":"09176","name":"Eichstätt","type":"Landkreis"},"federalState":{"key":"09","name":"Bayern"}},{"name":"Metzstr.","postalCode":"93336","locality":"Altmannstein","municipality":{"key":"09176112","name":"Altmannstein, M","type":"Markt"},"district":{"key":"09176","name":"Eichstätt","type":"Landkreis"},"federalState":{"key":"09","name":"Bayern"}},{"name":"Muggenthaler Str.","postalCode":"93336","locality":"Altmannstein","municipality":{"key":"09176112","name":"Altmannstein, M","type":"Markt"},"district":{"key":"09176","name":"Eichstätt","type":"Landkreis"},"federalState":{"key":"09","name":"Bayern"}},{"name":"Mühlweg","postalCode":"93336","locality":"Altmannstein","municipality":{"key":"09176112","name":"Altmannstein, M","type":"Markt"},"district":{"key":"09176","name":"Eichstätt","type":"Landkreis"},"federalState":{"key":"09","name":"Bayern"}},{"name":"Neumarkter Str.","postalCode":"93336","locality":"Altmannstein","municipality":{"key":"09176112","name":"Altmannstein, M","type":"Markt"},"district":{"key":"09176","name":"Eichstätt","type":"Landkreis"},"federalState":{"key":"09","name":"Bayern"}},{"name":"Neustädter Str.","postalCode":"93336","locality":"Altmannstein","municipality":{"key":"09176112","name":"Altmannstein, M","type":"Markt"},"district":{"key":"09176","name":"Eichstätt","type":"Landkreis"},"federalState":{"key":"09","name":"Bayern"}},{"name":"Nürnberger Str.","postalCode":"93336","locality":"Altmannstein","municipality":{"key":"09176112","name":"Altmannstein, M","type":"Markt"},"district":{"key":"09176","name":"Eichstätt","type":"Landkreis"},"federalState":{"key":"09","name":"Bayern"}},{"name":"Obere Ringstr.","postalCode":"93336","locality":"Altmannstein","municipality":{"key":"09176112","name":"Altmannstein, M","type":"Markt"},"district":{"key":"09176","name":"Eichstätt","type":"Landkreis"},"federalState":{"key":"09","name":"Bayern"}},{"name":"Oberer Walischberg","postalCode":"93336","locality":"Altmannstein","municipality":{"key":"09176112","name":"Altmannstein, M","type":"Markt"},"district":{"key":"09176","name":"Eichstätt","type":"Landkreis"},"federalState":{"key":"09","name":"Bayern"}},{"name":"Ostenstr.","postalCode":"93336","locality":"Altmannstein","municipality":{"key":"09176112","name":"Altmannstein, M","type":"Markt"},"district":{"key":"09176","name":"Eichstätt","type":"Landkreis"},"federalState":{"key":"09","name":"Bayern"}},{"name":"Ottostr.","postalCode":"93336","locality":"Altmannstein","municipality":{"key":"09176112","name":"Altmannstein, M","type":"Markt"},"district":{"key":"09176","name":"Eichstätt","type":"Landkreis"},"federalState":{"key":"09","name":"Bayern"}},{"name":"Pappelweg","postalCode":"93336","locality":"Altmannstein","municipality":{"key":"09176112","name":"Altmannstein, M","type":"Markt"},"district":{"key":"09176","name":"Eichstätt","type":"Landkreis"},"federalState":{"key":"09","name":"Bayern"}},{"name":"Pfarrer-Holzapfel-Str.","postalCode":"93336","locality":"Altmannstein","municipality":{"key":"09176112","name":"Altmannstein, M","type":"Markt"},"district":{"key":"09176","name":"Eichstätt","type":"Landkreis"},"federalState":{"key":"09","name":"Bayern"}},{"name":"Pfarrer-Mayer-Str.","postalCode":"93336","locality":"Altmannstein","municipality":{"key":"09176112","name":"Altmannstein, M","type":"Markt"},"district":{"key":"09176","name":"Eichstätt","type":"Landkreis"},"federalState":{"key":"09","name":"Bayern"}},{"name":"Pichlergäßchen","postalCode":"93336","locality":"Altmannstein","municipality":{"key":"09176112","name":"Altmannstein, M","type":"Markt"},"district":{"key":"09176","name":"Eichstätt","type":"Landkreis"},"federalState":{"key":"09","name":"Bayern"}},{"name":"Postweg","postalCode":"93336","locality":"Altmannstein","municipality":{"key":"09176112","name":"Altmannstein, M","type":"Markt"},"district":{"key":"09176","name":"Eichstätt","type":"Landkreis"},"federalState":{"key":"09","name":"Bayern"}},{"name":"Rehsteig","postalCode":"93336","locality":"Altmannstein","municipality":{"key":"09176112","name":"Altmannstein, M","type":"Markt"},"district":{"key":"09176","name":"Eichstätt","type":"Landkreis"},"federalState":{"key":"09","name":"Bayern"}},{"name":"Riedenburger Str.","postalCode":"93336","locality":"Altmannstein","municipality":{"key":"09176112","name":"Altmannstein, M","type":"Markt"},"district":{"key":"09176","name":"Eichstätt","type":"Landkreis"},"federalState":{"key":"09","name":"Bayern"}},{"name":"Ringstr.","postalCode":"93336","locality":"Altmannstein","municipality":{"key":"09176112","name":"Altmannstein, M","type":"Markt"},"district":{"key":"09176","name":"Eichstätt","type":"Landkreis"},"federalState":{"key":"09","name":"Bayern"}},{"name":"Römerschanzsiedlung","postalCode":"93336","locality":"Altmannstein","municipality":{"key":"09176112","name":"Altmannstein, M","type":"Markt"},"district":{"key":"09176","name":"Eichstätt","type":"Landkreis"},"federalState":{"key":"09","name":"Bayern"}},{"name":"Römerstr.","postalCode":"93336","locality":"Altmannstein","municipality":{"key":"09176112","name":"Altmannstein, M","type":"Markt"},"district":{"key":"09176","name":"Eichstätt","type":"Landkreis"},"federalState":{"key":"09","name":"Bayern"}},{"name":"Rot-Kreuz-Str.","postalCode":"93336","locality":"Altmannstein","municipality":{"key":"09176112","name":"Altmannstein, M","type":"Markt"},"district":{"key":"09176","name":"Eichstätt","type":"Landkreis"},"federalState":{"key":"09","name":"Bayern"}},{"name":"Salvatorweg","postalCode":"93336","locality":"Altmannstein","municipality":{"key":"09176112","name":"Altmannstein, M","type":"Markt"},"district":{"key":"09176","name":"Eichstätt","type":"Landkreis"},"federalState":{"key":"09","name":"Bayern"}},{"name":"Sandweg","postalCode":"93336","locality":"Altmannstein","municipality":{"key":"09176112","name":"Altmannstein, M","type":"Markt"},"district":{"key":"09176","name":"Eichstätt","type":"Landkreis"},"federalState":{"key":"09","name":"Bayern"}},{"name":"Sankt-Veit-Str.","postalCode":"93336","locality":"Altmannstein","municipality":{"key":"09176112","name":"Altmannstein, M","type":"Markt"},"district":{"key":"09176","name":"Eichstätt","type":"Landkreis"},"federalState":{"key":"09","name":"Bayern"}},{"name":"Schacherweg","postalCode":"93336","locality":"Altmannstein","municipality":{"key":"09176112","name":"Altmannstein, M","type":"Markt"},"district":{"key":"09176","name":"Eichstätt","type":"Landkreis"},"federalState":{"key":"09","name":"Bayern"}},{"name":"Schambachweg","postalCode":"93336","locality":"Altmannstein","municipality":{"key":"09176112","name":"Altmannstein, M","type":"Markt"},"district":{"key":"09176","name":"Eichstätt","type":"Landkreis"},"federalState":{"key":"09","name":"Bayern"}},{"name":"Schindbergring","postalCode":"93336","locality":"Altmannstein","municipality":{"key":"09176112","name":"Altmannstein, M","type":"Markt"},"district":{"key":"09176","name":"Eichstätt","type":"Landkreis"},"federalState":{"key":"09","name":"Bayern"}},{"name":"Schloßbergstr.","postalCode":"93336","locality":"Altmannstein","municipality":{"key":"09176112","name":"Altmannstein, M","type":"Markt"},"district":{"key":"09176","name":"Eichstätt","type":"Landkreis"},"federalState":{"key":"09","name":"Bayern"}},{"name":"Schloßstr.","postalCode":"93336","locality":"Altmannstein","municipality":{"key":"09176112","name":"Altmannstein, M","type":"Markt"},"district":{"key":"09176","name":"Eichstätt","type":"Landkreis"},"federalState":{"key":"09","name":"Bayern"}},{"name":"Schmiedgasse","postalCode":"93336","locality":"Altmannstein","municipality":{"key":"09176112","name":"Altmannstein, M","type":"Markt"},"district":{"key":"09176","name":"Eichstätt","type":"Landkreis"},"federalState":{"key":"09","name":"Bayern"}},{"name":"Schnepfenlucke","postalCode":"93336","locality":"Altmannstein","municipality":{"key":"09176112","name":"Altmannstein, M","type":"Markt"},"district":{"key":"09176","name":"Eichstätt","type":"Landkreis"},"federalState":{"key":"09","name":"Bayern"}},{"name":"Schrannenstr.","postalCode":"93336","locality":"Altmannstein","municipality":{"key":"09176112","name":"Altmannstein, M","type":"Markt"},"district":{"key":"09176","name":"Eichstätt","type":"Landkreis"},"federalState":{"key":"09","name":"Bayern"}},{"name":"Schulstr.","postalCode":"93336","locality":"Altmannstein","municipality":{"key":"09176112","name":"Altmannstein, M","type":"Markt"},"district":{"key":"09176","name":"Eichstätt","type":"Landkreis"},"federalState":{"key":"09","name":"Bayern"}},{"name":"Schwaben","postalCode":"93336","locality":"Altmannstein","municipality":{"key":"09176112","name":"Altmannstein, M","type":"Markt"},"district":{"key":"09176","name":"Eichstätt","type":"Landkreis"},"federalState":{"key":"09","name":"Bayern"}},{"name":"Seeweg","postalCode":"93336","locality":"Altmannstein","municipality":{"key":"09176112","name":"Altmannstein, M","type":"Markt"},"district":{"key":"09176","name":"Eichstätt","type":"Landkreis"},"federalState":{"key":"09","name":"Bayern"}},{"name":"Seewiesenweg","postalCode":"93336","locality":"Altmannstein","municipality":{"key":"09176112","name":"Altmannstein, M","type":"Markt"},"district":{"key":"09176","name":"Eichstätt","type":"Landkreis"},"federalState":{"key":"09","name":"Bayern"}},{"name":"Simon-Mayr-Platz","postalCode":"93336","locality":"Altmannstein","municipality":{"key":"09176112","name":"Altmannstein, M","type":"Markt"},"district":{"key":"09176","name":"Eichstätt","type":"Landkreis"},"federalState":{"key":"09","name":"Bayern"}},{"name":"Simon-Mayr-Str.","postalCode":"93336","locality":"Altmannstein","municipality":{"key":"09176112","name":"Altmannstein, M","type":"Markt"},"district":{"key":"09176","name":"Eichstätt","type":"Landkreis"},"federalState":{"key":"09","name":"Bayern"}},{"name":"Sonnenweg","postalCode":"93336","locality":"Altmannstein","municipality":{"key":"09176112","name":"Altmannstein, M","type":"Markt"},"district":{"key":"09176","name":"Eichstätt","type":"Landkreis"},"federalState":{"key":"09","name":"Bayern"}},{"name":"Sonnleite","postalCode":"93336","locality":"Altmannstein","municipality":{"key":"09176112","name":"Altmannstein, M","type":"Markt"},"district":{"key":"09176","name":"Eichstätt","type":"Landkreis"},"federalState":{"key":"09","name":"Bayern"}},{"name":"Steinsdorfer Str.","postalCode":"93336","locality":"Altmannstein","municipality":{"key":"09176112","name":"Altmannstein, M","type":"Markt"},"district":{"key":"09176","name":"Eichstätt","type":"Landkreis"},"federalState":{"key":"09","name":"Bayern"}},{"name":"Sternstr.","postalCode":"93336","locality":"Altmannstein","municipality":{"key":"09176112","name":"Altmannstein, M","type":"Markt"},"district":{"key":"09176","name":"Eichstätt","type":"Landkreis"},"federalState":{"key":"09","name":"Bayern"}},{"name":"St.-Georg-Str.","postalCode":"93336","locality":"Altmannstein","municipality":{"key":"09176112","name":"Altmannstein, M","type":"Markt"},"district":{"key":"09176","name":"Eichstätt","type":"Landkreis"},"federalState":{"key":"09","name":"Bayern"}},{"name":"Südring","postalCode":"93336","locality":"Altmannstein","municipality":{"key":"09176112","name":"Altmannstein, M","type":"Markt"},"district":{"key":"09176","name":"Eichstätt","type":"Landkreis"},"federalState":{"key":"09","name":"Bayern"}},{"name":"Talstr.","postalCode":"93336","locality":"Altmannstein","municipality":{"key":"09176112","name":"Altmannstein, M","type":"Markt"},"district":{"key":"09176","name":"Eichstätt","type":"Landkreis"},"federalState":{"key":"09","name":"Bayern"}},{"name":"Tannenweg","postalCode":"93336","locality":"Altmannstein","municipality":{"key":"09176112","name":"Altmannstein, M","type":"Markt"},"district":{"key":"09176","name":"Eichstätt","type":"Landkreis"},"federalState":{"key":"09","name":"Bayern"}},{"name":"Tassilostr.","postalCode":"93336","locality":"Altmannstein","municipality":{"key":"09176112","name":"Altmannstein, M","type":"Markt"},"district":{"key":"09176","name":"Eichstätt","type":"Landkreis"},"federalState":{"key":"09","name":"Bayern"}},{"name":"Thannhauser Weg","postalCode":"93336","locality":"Altmannstein","municipality":{"key":"09176112","name":"Altmannstein, M","type":"Markt"},"district":{"key":"09176","name":"Eichstätt","type":"Landkreis"},"federalState":{"key":"09","name":"Bayern"}},{"name":"Tränkstr.","postalCode":"93336","locality":"Altmannstein","municipality":{"key":"09176112","name":"Altmannstein, M","type":"Markt"},"district":{"key":"09176","name":"Eichstätt","type":"Landkreis"},"federalState":{"key":"09","name":"Bayern"}},{"name":"Triftweg","postalCode":"93336","locality":"Altmannstein","municipality":{"key":"09176112","name":"Altmannstein, M","type":"Markt"},"district":{"key":"09176","name":"Eichstätt","type":"Landkreis"},"federalState":{"key":"09","name":"Bayern"}},{"name":"Ulrich-von-Stein-Str.","postalCode":"93336","locality":"Altmannstein","municipality":{"key":"09176112","name":"Altmannstein, M","type":"Markt"},"district":{"key":"09176","name":"Eichstätt","type":"Landkreis"},"federalState":{"key":"09","name":"Bayern"}},{"name":"Unter der Linde","postalCode":"93336","locality":"Altmannstein","municipality":{"key":"09176112","name":"Altmannstein, M","type":"Markt"},"district":{"key":"09176","name":"Eichstätt","type":"Landkreis"},"federalState":{"key":"09","name":"Bayern"}},{"name":"Untere Ringstr.","postalCode":"93336","locality":"Altmannstein","municipality":{"key":"09176112","name":"Altmannstein, M","type":"Markt"},"district":{"key":"09176","name":"Eichstätt","type":"Landkreis"},"federalState":{"key":"09","name":"Bayern"}},{"name":"Unterhöhstr.","postalCode":"93336","locality":"Altmannstein","municipality":{"key":"09176112","name":"Altmannstein, M","type":"Markt"},"district":{"key":"09176","name":"Eichstätt","type":"Landkreis"},"federalState":{"key":"09","name":"Bayern"}},{"name":"Viermühlenweg","postalCode":"93336","locality":"Altmannstein","municipality":{"key":"09176112","name":"Altmannstein, M","type":"Markt"},"district":{"key":"09176","name":"Eichstätt","type":"Landkreis"},"federalState":{"key":"09","name":"Bayern"}},{"name":"Von-Geben-Str.","postalCode":"93336","locality":"Altmannstein","municipality":{"key":"09176112","name":"Altmannstein, M","type":"Markt"},"district":{"key":"09176","name":"Eichstätt","type":"Landkreis"},"federalState":{"key":"09","name":"Bayern"}},{"name":"Walburgisweg","postalCode":"93336","locality":"Altmannstein","municipality":{"key":"09176112","name":"Altmannstein, M","type":"Markt"},"district":{"key":"09176","name":"Eichstätt","type":"Landkreis"},"federalState":{"key":"09","name":"Bayern"}},{"name":"Weiherstr.","postalCode":"93336","locality":"Altmannstein","municipality":{"key":"09176112","name":"Altmannstein, M","type":"Markt"},"district":{"key":"09176","name":"Eichstätt","type":"Landkreis"},"federalState":{"key":"09","name":"Bayern"}},{"name":"Weinberg","postalCode":"93336","locality":"Altmannstein","municipality":{"key":"09176112","name":"Altmannstein, M","type":"Markt"},"district":{"key":"09176","name":"Eichstätt","type":"Landkreis"},"federalState":{"key":"09","name":"Bayern"}},{"name":"Weinbergweg","postalCode":"93336","locality":"Altmannstein","municipality":{"key":"09176112","name":"Altmannstein, M","type":"Markt"},"district":{"key":"09176","name":"Eichstätt","type":"Landkreis"},"federalState":{"key":"09","name":"Bayern"}},{"name":"Weningstr.","postalCode":"93336","locality":"Altmannstein","municipality":{"key":"09176112","name":"Altmannstein, M","type":"Markt"},"district":{"key":"09176","name":"Eichstätt","type":"Landkreis"},"federalState":{"key":"09","name":"Bayern"}},{"name":"Wierlweg","postalCode":"93336","locality":"Altmannstein","municipality":{"key":"09176112","name":"Altmannstein, M","type":"Markt"},"district":{"key":"09176","name":"Eichstätt","type":"Landkreis"},"federalState":{"key":"09","name":"Bayern"}},{"name":"Wiesenstr.","postalCode":"93336","locality":"Altmannstein","municipality":{"key":"09176112","name":"Altmannstein, M","type":"Markt"},"district":{"key":"09176","name":"Eichstätt","type":"Landkreis"},"federalState":{"key":"09","name":"Bayern"}},{"name":"Wiesenweg","postalCode":"93336","locality":"Altmannstein","municipality":{"key":"09176112","name":"Altmannstein, M","type":"Markt"},"district":{"key":"09176","name":"Eichstätt","type":"Landkreis"},"federalState":{"key":"09","name":"Bayern"}},{"name":"Windener Str.","postalCode":"93336","locality":"Altmannstein","municipality":{"key":"09176112","name":"Altmannstein, M","type":"Markt"},"district":{"key":"09176","name":"Eichstätt","type":"Landkreis"},"federalState":{"key":"09","name":"Bayern"}},{"name":"Wolfsbucher Weg","postalCode":"93336","locality":"Altmannstein","municipality":{"key":"09176112","name":"Altmannstein, M","type":"Markt"},"district":{"key":"09176","name":"Eichstätt","type":"Landkreis"},"federalState":{"key":"09","name":"Bayern"}},{"name":"Wolfstal","postalCode":"93336","locality":"Altmannstein","municipality":{"key":"09176112","name":"Altmannstein, M","type":"Markt"},"district":{"key":"09176","name":"Eichstätt","type":"Landkreis"},"federalState":{"key":"09","name":"Bayern"}},{"name":"Zehentstr.","postalCode":"93336","locality":"Altmannstein","municipality":{"key":"09176112","name":"Altmannstein, M","type":"Markt"},"district":{"key":"09176","name":"Eichstätt","type":"Landkreis"},"federalState":{"key":"09","name":"Bayern"}},{"name":"Zum Kreutberg","postalCode":"93336","locality":"Altmannstein","municipality":{"key":"09176112","name":"Altmannstein, M","type":"Markt"},"district":{"key":"09176","name":"Eichstätt","type":"Landkreis"},"federalState":{"key":"09","name":"Bayern"}},{"name":"Zum Markweg","postalCode":"93336","locality":"Altmannstein","municipality":{"key":"09176112","name":"Altmannstein, M","type":"Markt"},"district":{"key":"09176","name":"Eichstätt","type":"Landkreis"},"federalState":{"key":"09","name":"Bayern"}},{"name":"Zum Sailer","postalCode":"93336","locality":"Altmannstein","municipality":{"key":"09176112","name":"Altmannstein, M","type":"Markt"},"district":{"key":"09176","name":"Eichstätt","type":"Landkreis"},"federalState":{"key":"09","name":"Bayern"}},{"name":"Zur Froschau","postalCode":"93336","locality":"Altmannstein","municipality":{"key":"09176112","name":"Altmannstein, M","type":"Markt"},"district":{"key":"09176","name":"Eichstätt","type":"Landkreis"},"federalState":{"key":"09","name":"Bayern"}},{"name":"Zur Schambach","postalCode":"93336","locality":"Altmannstein","municipality":{"key":"09176112","name":"Altmannstein, M","type":"Markt"},"district":{"key":"09176","name":"Eichstätt","type":"Landkreis"},"federalState":{"key":"09","name":"Bayern"}},{"name":"Zur Waldkapelle","postalCode":"93336","locality":"Altmannstein","municipality":{"key":"09176112","name":"Altmannstein, M","type":"Markt"},"district":{"key":"09176","name":"Eichstätt","type":"Landkreis"},"federalState":{"key":"09","name":"Bayern"}},]