[{"name":"Am Rudelsberg","postalCode":"56357","locality":"Geisig","municipality":{"key":"07141046","name":"Geisig","type":"Kreisangehörige_Gemeinde"},"district":{"key":"07141","name":"Rhein-Lahn-Kreis","type":"Landkreis"},"federalState":{"key":"07","name":"Rheinland-Pfalz"}},{"name":"Brunnenstr.","postalCode":"56357","locality":"Geisig","municipality":{"key":"07141046","name":"Geisig","type":"Kreisangehörige_Gemeinde"},"district":{"key":"07141","name":"Rhein-Lahn-Kreis","type":"Landkreis"},"federalState":{"key":"07","name":"Rheinland-Pfalz"}},{"name":"Heister-Sturm-Str.","postalCode":"56357","locality":"Geisig","municipality":{"key":"07141046","name":"Geisig","type":"Kreisangehörige_Gemeinde"},"district":{"key":"07141","name":"Rhein-Lahn-Kreis","type":"Landkreis"},"federalState":{"key":"07","name":"Rheinland-Pfalz"}},{"name":"Im Bruch","postalCode":"56357","locality":"Geisig","municipality":{"key":"07141046","name":"Geisig","type":"Kreisangehörige_Gemeinde"},"district":{"key":"07141","name":"Rhein-Lahn-Kreis","type":"Landkreis"},"federalState":{"key":"07","name":"Rheinland-Pfalz"}},{"name":"Lärchenweg","postalCode":"56357","locality":"Geisig","municipality":{"key":"07141046","name":"Geisig","type":"Kreisangehörige_Gemeinde"},"district":{"key":"07141","name":"Rhein-Lahn-Kreis","type":"Landkreis"},"federalState":{"key":"07","name":"Rheinland-Pfalz"}},{"name":"Mühlbachstr.","postalCode":"56357","locality":"Geisig","municipality":{"key":"07141046","name":"Geisig","type":"Kreisangehörige_Gemeinde"},"district":{"key":"07141","name":"Rhein-Lahn-Kreis","type":"Landkreis"},"federalState":{"key":"07","name":"Rheinland-Pfalz"}},{"name":"Rhein-Taunus-Str.","postalCode":"56357","locality":"Geisig","municipality":{"key":"07141046","name":"Geisig","type":"Kreisangehörige_Gemeinde"},"district":{"key":"07141","name":"Rhein-Lahn-Kreis","type":"Landkreis"},"federalState":{"key":"07","name":"Rheinland-Pfalz"}},{"name":"Römerstr.","postalCode":"56357","locality":"Geisig","municipality":{"key":"07141046","name":"Geisig","type":"Kreisangehörige_Gemeinde"},"district":{"key":"07141","name":"Rhein-Lahn-Kreis","type":"Landkreis"},"federalState":{"key":"07","name":"Rheinland-Pfalz"}},{"name":"Sonnenweg","postalCode":"56357","locality":"Geisig","municipality":{"key":"07141046","name":"Geisig","type":"Kreisangehörige_Gemeinde"},"district":{"key":"07141","name":"Rhein-Lahn-Kreis","type":"Landkreis"},"federalState":{"key":"07","name":"Rheinland-Pfalz"}},{"name":"Zum Birkenhof","postalCode":"56357","locality":"Geisig","municipality":{"key":"07141046","name":"Geisig","type":"Kreisangehörige_Gemeinde"},"district":{"key":"07141","name":"Rhein-Lahn-Kreis","type":"Landkreis"},"federalState":{"key":"07","name":"Rheinland-Pfalz"}},]