[{"name":"Albastr.","postalCode":"87675","locality":"Stötten a.Auerberg","municipality":{"key":"09777171","name":"Stötten a.Auerberg","type":"Kreisangehörige_Gemeinde"},"district":{"key":"09777","name":"Ostallgäu","type":"Landkreis"},"federalState":{"key":"09","name":"Bayern"}},{"name":"Alter Römerweg","postalCode":"87675","locality":"Stötten a.Auerberg","municipality":{"key":"09777171","name":"Stötten a.Auerberg","type":"Kreisangehörige_Gemeinde"},"district":{"key":"09777","name":"Ostallgäu","type":"Landkreis"},"federalState":{"key":"09","name":"Bayern"}},{"name":"Am Bergblick","postalCode":"87675","locality":"Stötten a.Auerberg","municipality":{"key":"09777171","name":"Stötten a.Auerberg","type":"Kreisangehörige_Gemeinde"},"district":{"key":"09777","name":"Ostallgäu","type":"Landkreis"},"federalState":{"key":"09","name":"Bayern"}},{"name":"Am Schloßanger","postalCode":"87675","locality":"Stötten a.Auerberg","municipality":{"key":"09777171","name":"Stötten a.Auerberg","type":"Kreisangehörige_Gemeinde"},"district":{"key":"09777","name":"Ostallgäu","type":"Landkreis"},"federalState":{"key":"09","name":"Bayern"}},{"name":"Angerstr.","postalCode":"87675","locality":"Stötten a.Auerberg","municipality":{"key":"09777171","name":"Stötten a.Auerberg","type":"Kreisangehörige_Gemeinde"},"district":{"key":"09777","name":"Ostallgäu","type":"Landkreis"},"federalState":{"key":"09","name":"Bayern"}},{"name":"Bergstr.","postalCode":"87675","locality":"Stötten a.Auerberg","municipality":{"key":"09777171","name":"Stötten a.Auerberg","type":"Kreisangehörige_Gemeinde"},"district":{"key":"09777","name":"Ostallgäu","type":"Landkreis"},"federalState":{"key":"09","name":"Bayern"}},{"name":"Burgleiten","postalCode":"87675","locality":"Stötten a.Auerberg","municipality":{"key":"09777171","name":"Stötten a.Auerberg","type":"Kreisangehörige_Gemeinde"},"district":{"key":"09777","name":"Ostallgäu","type":"Landkreis"},"federalState":{"key":"09","name":"Bayern"}},{"name":"Dattenried","postalCode":"87675","locality":"Stötten a.Auerberg","municipality":{"key":"09777171","name":"Stötten a.Auerberg","type":"Kreisangehörige_Gemeinde"},"district":{"key":"09777","name":"Ostallgäu","type":"Landkreis"},"federalState":{"key":"09","name":"Bayern"}},{"name":"Dorfstr.","postalCode":"87675","locality":"Stötten a.Auerberg","municipality":{"key":"09777171","name":"Stötten a.Auerberg","type":"Kreisangehörige_Gemeinde"},"district":{"key":"09777","name":"Ostallgäu","type":"Landkreis"},"federalState":{"key":"09","name":"Bayern"}},{"name":"Füssener Str.","postalCode":"87675","locality":"Stötten a.Auerberg","municipality":{"key":"09777171","name":"Stötten a.Auerberg","type":"Kreisangehörige_Gemeinde"},"district":{"key":"09777","name":"Ostallgäu","type":"Landkreis"},"federalState":{"key":"09","name":"Bayern"}},{"name":"Geltnachweg","postalCode":"87675","locality":"Stötten a.Auerberg","municipality":{"key":"09777171","name":"Stötten a.Auerberg","type":"Kreisangehörige_Gemeinde"},"district":{"key":"09777","name":"Ostallgäu","type":"Landkreis"},"federalState":{"key":"09","name":"Bayern"}},{"name":"Gewerbestr.","postalCode":"87675","locality":"Stötten a.Auerberg","municipality":{"key":"09777171","name":"Stötten a.Auerberg","type":"Kreisangehörige_Gemeinde"},"district":{"key":"09777","name":"Ostallgäu","type":"Landkreis"},"federalState":{"key":"09","name":"Bayern"}},{"name":"Haldenstr.","postalCode":"87675","locality":"Stötten a.Auerberg","municipality":{"key":"09777171","name":"Stötten a.Auerberg","type":"Kreisangehörige_Gemeinde"},"district":{"key":"09777","name":"Ostallgäu","type":"Landkreis"},"federalState":{"key":"09","name":"Bayern"}},{"name":"Hauptstr.","postalCode":"87675","locality":"Stötten a.Auerberg","municipality":{"key":"09777171","name":"Stötten a.Auerberg","type":"Kreisangehörige_Gemeinde"},"district":{"key":"09777","name":"Ostallgäu","type":"Landkreis"},"federalState":{"key":"09","name":"Bayern"}},{"name":"Höflerstr.","postalCode":"87675","locality":"Stötten a.Auerberg","municipality":{"key":"09777171","name":"Stötten a.Auerberg","type":"Kreisangehörige_Gemeinde"},"district":{"key":"09777","name":"Ostallgäu","type":"Landkreis"},"federalState":{"key":"09","name":"Bayern"}},{"name":"Im Gries","postalCode":"87675","locality":"Stötten a.Auerberg","municipality":{"key":"09777171","name":"Stötten a.Auerberg","type":"Kreisangehörige_Gemeinde"},"district":{"key":"09777","name":"Ostallgäu","type":"Landkreis"},"federalState":{"key":"09","name":"Bayern"}},{"name":"Jägerstr.","postalCode":"87675","locality":"Stötten a.Auerberg","municipality":{"key":"09777171","name":"Stötten a.Auerberg","type":"Kreisangehörige_Gemeinde"},"district":{"key":"09777","name":"Ostallgäu","type":"Landkreis"},"federalState":{"key":"09","name":"Bayern"}},{"name":"Kapellenweg","postalCode":"87675","locality":"Stötten a.Auerberg","municipality":{"key":"09777171","name":"Stötten a.Auerberg","type":"Kreisangehörige_Gemeinde"},"district":{"key":"09777","name":"Ostallgäu","type":"Landkreis"},"federalState":{"key":"09","name":"Bayern"}},{"name":"Keltenring","postalCode":"87675","locality":"Stötten a.Auerberg","municipality":{"key":"09777171","name":"Stötten a.Auerberg","type":"Kreisangehörige_Gemeinde"},"district":{"key":"09777","name":"Ostallgäu","type":"Landkreis"},"federalState":{"key":"09","name":"Bayern"}},{"name":"Mühlenstr.","postalCode":"87675","locality":"Stötten a.Auerberg","municipality":{"key":"09777171","name":"Stötten a.Auerberg","type":"Kreisangehörige_Gemeinde"},"district":{"key":"09777","name":"Ostallgäu","type":"Landkreis"},"federalState":{"key":"09","name":"Bayern"}},{"name":"Neunerfeld","postalCode":"87675","locality":"Stötten a.Auerberg","municipality":{"key":"09777171","name":"Stötten a.Auerberg","type":"Kreisangehörige_Gemeinde"},"district":{"key":"09777","name":"Ostallgäu","type":"Landkreis"},"federalState":{"key":"09","name":"Bayern"}},{"name":"Oberdorfer Str.","postalCode":"87675","locality":"Stötten a.Auerberg","municipality":{"key":"09777171","name":"Stötten a.Auerberg","type":"Kreisangehörige_Gemeinde"},"district":{"key":"09777","name":"Ostallgäu","type":"Landkreis"},"federalState":{"key":"09","name":"Bayern"}},{"name":"Riedhof","postalCode":"87675","locality":"Stötten a.Auerberg","municipality":{"key":"09777171","name":"Stötten a.Auerberg","type":"Kreisangehörige_Gemeinde"},"district":{"key":"09777","name":"Ostallgäu","type":"Landkreis"},"federalState":{"key":"09","name":"Bayern"}},{"name":"Römerweg","postalCode":"87675","locality":"Stötten a.Auerberg","municipality":{"key":"09777171","name":"Stötten a.Auerberg","type":"Kreisangehörige_Gemeinde"},"district":{"key":"09777","name":"Ostallgäu","type":"Landkreis"},"federalState":{"key":"09","name":"Bayern"}},{"name":"Roßmoos","postalCode":"87675","locality":"Stötten a.Auerberg","municipality":{"key":"09777171","name":"Stötten a.Auerberg","type":"Kreisangehörige_Gemeinde"},"district":{"key":"09777","name":"Ostallgäu","type":"Landkreis"},"federalState":{"key":"09","name":"Bayern"}},{"name":"Schützenstr.","postalCode":"87675","locality":"Stötten a.Auerberg","municipality":{"key":"09777171","name":"Stötten a.Auerberg","type":"Kreisangehörige_Gemeinde"},"district":{"key":"09777","name":"Ostallgäu","type":"Landkreis"},"federalState":{"key":"09","name":"Bayern"}},{"name":"Sonnenweg","postalCode":"87675","locality":"Stötten a.Auerberg","municipality":{"key":"09777171","name":"Stötten a.Auerberg","type":"Kreisangehörige_Gemeinde"},"district":{"key":"09777","name":"Ostallgäu","type":"Landkreis"},"federalState":{"key":"09","name":"Bayern"}},{"name":"Steinäckerweg","postalCode":"87675","locality":"Stötten a.Auerberg","municipality":{"key":"09777171","name":"Stötten a.Auerberg","type":"Kreisangehörige_Gemeinde"},"district":{"key":"09777","name":"Ostallgäu","type":"Landkreis"},"federalState":{"key":"09","name":"Bayern"}},{"name":"Taulerstr.","postalCode":"87675","locality":"Stötten a.Auerberg","municipality":{"key":"09777171","name":"Stötten a.Auerberg","type":"Kreisangehörige_Gemeinde"},"district":{"key":"09777","name":"Ostallgäu","type":"Landkreis"},"federalState":{"key":"09","name":"Bayern"}},{"name":"Ulrichsring","postalCode":"87675","locality":"Stötten a.Auerberg","municipality":{"key":"09777171","name":"Stötten a.Auerberg","type":"Kreisangehörige_Gemeinde"},"district":{"key":"09777","name":"Ostallgäu","type":"Landkreis"},"federalState":{"key":"09","name":"Bayern"}},{"name":"Waldstr.","postalCode":"87675","locality":"Stötten a.Auerberg","municipality":{"key":"09777171","name":"Stötten a.Auerberg","type":"Kreisangehörige_Gemeinde"},"district":{"key":"09777","name":"Ostallgäu","type":"Landkreis"},"federalState":{"key":"09","name":"Bayern"}},{"name":"Wiesenweg","postalCode":"87675","locality":"Stötten a.Auerberg","municipality":{"key":"09777171","name":"Stötten a.Auerberg","type":"Kreisangehörige_Gemeinde"},"district":{"key":"09777","name":"Ostallgäu","type":"Landkreis"},"federalState":{"key":"09","name":"Bayern"}},]