[{"key":"10041194","name":"Chemin de Champ-Vovan","postalCode":"1294","locality":"Genthod","commune":{"key":"6622","name":"Genthod","shortName":"Genthod"},"district":{"key":"2500","name":"Canton de Genève"},"canton":{"key":"25","code":"GE","name":"Genève"},"status":"Real"},{"key":"10155746","name":"Chemin de la Caracole","postalCode":"1294","locality":"Genthod","commune":{"key":"6622","name":"Genthod","shortName":"Genthod"},"district":{"key":"2500","name":"Canton de Genève"},"canton":{"key":"25","code":"GE","name":"Genève"},"status":"Real"},{"key":"10115984","name":"Chemin de la Cressonnière","postalCode":"1294","locality":"Genthod","commune":{"key":"6622","name":"Genthod","shortName":"Genthod"},"district":{"key":"2500","name":"Canton de Genève"},"canton":{"key":"25","code":"GE","name":"Genève"},"status":"Real"},{"key":"10106526","name":"Chemin de la Dîme","postalCode":"1294","locality":"Genthod","commune":{"key":"6622","name":"Genthod","shortName":"Genthod"},"district":{"key":"2500","name":"Canton de Genève"},"canton":{"key":"25","code":"GE","name":"Genève"},"status":"Real"},{"key":"10041196","name":"Chemin de la Fauvette","postalCode":"1294","locality":"Genthod","commune":{"key":"6622","name":"Genthod","shortName":"Genthod"},"district":{"key":"2500","name":"Canton de Genève"},"canton":{"key":"25","code":"GE","name":"Genève"},"status":"Real"},{"key":"10181553","name":"Chemin de la Fermette","postalCode":"1294","locality":"Genthod","commune":{"key":"6622","name":"Genthod","shortName":"Genthod"},"district":{"key":"2500","name":"Canton de Genève"},"canton":{"key":"25","code":"GE","name":"Genève"},"status":"Real"},{"key":"10059811","name":"Chemin de La-Fouine","postalCode":"1294","locality":"Genthod","commune":{"key":"6622","name":"Genthod","shortName":"Genthod"},"district":{"key":"2500","name":"Canton de Genève"},"canton":{"key":"25","code":"GE","name":"Genève"},"status":"Real"},{"key":"10221886","name":"Chemin de la Gandole","postalCode":"1294","locality":"Genthod","commune":{"key":"6622","name":"Genthod","shortName":"Genthod"},"district":{"key":"2500","name":"Canton de Genève"},"canton":{"key":"25","code":"GE","name":"Genève"},"status":"Real"},{"key":"10221890","name":"Chemin de la Glaise","postalCode":"1294","locality":"Genthod","commune":{"key":"6622","name":"Genthod","shortName":"Genthod"},"district":{"key":"2500","name":"Canton de Genève"},"canton":{"key":"25","code":"GE","name":"Genève"},"status":"Real"},{"key":"10222044","name":"Chemin de la Grande-Vigne","postalCode":"1294","locality":"Genthod","commune":{"key":"6622","name":"Genthod","shortName":"Genthod"},"district":{"key":"2500","name":"Canton de Genève"},"canton":{"key":"25","code":"GE","name":"Genève"},"status":"Real"},{"key":"10041197","name":"Chemin de la Mairie","postalCode":"1294","locality":"Genthod","commune":{"key":"6622","name":"Genthod","shortName":"Genthod"},"district":{"key":"2500","name":"Canton de Genève"},"canton":{"key":"25","code":"GE","name":"Genève"},"status":"Real"},{"key":"10102478","name":"Chemin de la Petite-Voie","postalCode":"1294","locality":"Genthod","commune":{"key":"6622","name":"Genthod","shortName":"Genthod"},"district":{"key":"2500","name":"Canton de Genève"},"canton":{"key":"25","code":"GE","name":"Genève"},"status":"Real"},{"key":"10041198","name":"Chemin de la Pièce","postalCode":"1294","locality":"Genthod","commune":{"key":"6622","name":"Genthod","shortName":"Genthod"},"district":{"key":"2500","name":"Canton de Genève"},"canton":{"key":"25","code":"GE","name":"Genève"},"status":"Real"},{"key":"10041199","name":"Chemin de la Pralay","postalCode":"1294","locality":"Genthod","commune":{"key":"6622","name":"Genthod","shortName":"Genthod"},"district":{"key":"2500","name":"Canton de Genève"},"canton":{"key":"25","code":"GE","name":"Genève"},"status":"Real"},{"key":"10102479","name":"Chemin de la Voile","postalCode":"1294","locality":"Genthod","commune":{"key":"6622","name":"Genthod","shortName":"Genthod"},"district":{"key":"2500","name":"Canton de Genève"},"canton":{"key":"25","code":"GE","name":"Genève"},"status":"Real"},{"key":"10041195","name":"Chemin de Malagny-le-Lac","postalCode":"1294","locality":"Genthod","commune":{"key":"6622","name":"Genthod","shortName":"Genthod"},"district":{"key":"2500","name":"Canton de Genève"},"canton":{"key":"25","code":"GE","name":"Genève"},"status":"Real"},{"key":"10102477","name":"Chemin de Mont-Rose","postalCode":"1294","locality":"Genthod","commune":{"key":"6622","name":"Genthod","shortName":"Genthod"},"district":{"key":"2500","name":"Canton de Genève"},"canton":{"key":"25","code":"GE","name":"Genève"},"status":"Real"},{"key":"10122299","name":"Chemin de Pierre-Grise","postalCode":"1294","locality":"Genthod","commune":{"key":"6622","name":"Genthod","shortName":"Genthod"},"district":{"key":"2500","name":"Canton de Genève"},"canton":{"key":"25","code":"GE","name":"Genève"},"status":"Real"},{"key":"10183162","name":"Chemin de Pougny","postalCode":"1294","locality":"Genthod","commune":{"key":"6622","name":"Genthod","shortName":"Genthod"},"district":{"key":"2500","name":"Canton de Genève"},"canton":{"key":"25","code":"GE","name":"Genève"},"status":"Real"},{"key":"10080898","name":"Chemin des Bois-d'Avault","postalCode":"1294","locality":"Genthod","commune":{"key":"6622","name":"Genthod","shortName":"Genthod"},"district":{"key":"2500","name":"Canton de Genève"},"canton":{"key":"25","code":"GE","name":"Genève"},"status":"Real"},{"key":"10156822","name":"Chemin des Boulangers","postalCode":"1294","locality":"Genthod","commune":{"key":"6622","name":"Genthod","shortName":"Genthod"},"district":{"key":"2500","name":"Canton de Genève"},"canton":{"key":"25","code":"GE","name":"Genève"},"status":"Real"},{"key":"10041200","name":"Chemin des Chênes","postalCode":"1294","locality":"Genthod","commune":{"key":"6622","name":"Genthod","shortName":"Genthod"},"district":{"key":"2500","name":"Canton de Genève"},"canton":{"key":"25","code":"GE","name":"Genève"},"status":"Real"},{"key":"10059809","name":"Chemin des Dézalley","postalCode":"1294","locality":"Genthod","commune":{"key":"6622","name":"Genthod","shortName":"Genthod"},"district":{"key":"2500","name":"Canton de Genève"},"canton":{"key":"25","code":"GE","name":"Genève"},"status":"Real"},{"key":"10075167","name":"Chemin des Hauts-de-Genthod","postalCode":"1294","locality":"Genthod","commune":{"key":"6622","name":"Genthod","shortName":"Genthod"},"district":{"key":"2500","name":"Canton de Genève"},"canton":{"key":"25","code":"GE","name":"Genève"},"status":"Real"},{"key":"10041201","name":"Chemin des Hutins-Goulus","postalCode":"1294","locality":"Genthod","commune":{"key":"6622","name":"Genthod","shortName":"Genthod"},"district":{"key":"2500","name":"Canton de Genève"},"canton":{"key":"25","code":"GE","name":"Genève"},"status":"Real"},{"key":"10095996","name":"Chemin des Limites","postalCode":"1294","locality":"Genthod","commune":{"key":"6622","name":"Genthod","shortName":"Genthod"},"district":{"key":"2500","name":"Canton de Genève"},"canton":{"key":"25","code":"GE","name":"Genève"},"status":"Real"},{"key":"10122300","name":"Chemin des Moissons","postalCode":"1294","locality":"Genthod","commune":{"key":"6622","name":"Genthod","shortName":"Genthod"},"district":{"key":"2500","name":"Canton de Genève"},"canton":{"key":"25","code":"GE","name":"Genève"},"status":"Real"},{"key":"10102475","name":"Chemin des Rousses","postalCode":"1294","locality":"Genthod","commune":{"key":"6622","name":"Genthod","shortName":"Genthod"},"district":{"key":"2500","name":"Canton de Genève"},"canton":{"key":"25","code":"GE","name":"Genève"},"status":"Real"},{"key":"10083842","name":"Chemin des Troiselles","postalCode":"1294","locality":"Genthod","commune":{"key":"6622","name":"Genthod","shortName":"Genthod"},"district":{"key":"2500","name":"Canton de Genève"},"canton":{"key":"25","code":"GE","name":"Genève"},"status":"Real"},{"key":"10222362","name":"Chemin du Pertuis","postalCode":"1294","locality":"Genthod","commune":{"key":"6622","name":"Genthod","shortName":"Genthod"},"district":{"key":"2500","name":"Canton de Genève"},"canton":{"key":"25","code":"GE","name":"Genève"},"status":"Real"},{"key":"10041193","name":"Chemin du Pré-Félix","postalCode":"1294","locality":"Genthod","commune":{"key":"6622","name":"Genthod","shortName":"Genthod"},"district":{"key":"2500","name":"Canton de Genève"},"canton":{"key":"25","code":"GE","name":"Genève"},"status":"Real"},{"key":"10178323","name":"Chemin du Pré-Paul","postalCode":"1294","locality":"Genthod","commune":{"key":"6622","name":"Genthod","shortName":"Genthod"},"district":{"key":"2500","name":"Canton de Genève"},"canton":{"key":"25","code":"GE","name":"Genève"},"status":"Real"},{"key":"10103394","name":"Chemin du Pré-Roset","postalCode":"1294","locality":"Genthod","commune":{"key":"6622","name":"Genthod","shortName":"Genthod"},"district":{"key":"2500","name":"Canton de Genève"},"canton":{"key":"25","code":"GE","name":"Genève"},"status":"Real"},{"key":"10102480","name":"Chemin du Presbytère","postalCode":"1294","locality":"Genthod","commune":{"key":"6622","name":"Genthod","shortName":"Genthod"},"district":{"key":"2500","name":"Canton de Genève"},"canton":{"key":"25","code":"GE","name":"Genève"},"status":"Real"},{"key":"10041202","name":"Chemin du Pressoir","postalCode":"1294","locality":"Genthod","commune":{"key":"6622","name":"Genthod","shortName":"Genthod"},"district":{"key":"2500","name":"Canton de Genève"},"canton":{"key":"25","code":"GE","name":"Genève"},"status":"Real"},{"key":"10175622","name":"Chemin du Sautoir-d'Or","postalCode":"1294","locality":"Genthod","commune":{"key":"6622","name":"Genthod","shortName":"Genthod"},"district":{"key":"2500","name":"Canton de Genève"},"canton":{"key":"25","code":"GE","name":"Genève"},"status":"Real"},{"key":"10222048","name":"Chemin Vert","postalCode":"1294","locality":"Genthod","commune":{"key":"6622","name":"Genthod","shortName":"Genthod"},"district":{"key":"2500","name":"Canton de Genève"},"canton":{"key":"25","code":"GE","name":"Genève"},"status":"Real"},{"key":"10222052","name":"Promenade du Campus","postalCode":"1294","locality":"Genthod","commune":{"key":"6622","name":"Genthod","shortName":"Genthod"},"district":{"key":"2500","name":"Canton de Genève"},"canton":{"key":"25","code":"GE","name":"Genève"},"status":"Real"},{"key":"10059810","name":"Route de Collex","postalCode":"1294","locality":"Genthod","commune":{"key":"6622","name":"Genthod","shortName":"Genthod"},"district":{"key":"2500","name":"Canton de Genève"},"canton":{"key":"25","code":"GE","name":"Genève"},"status":"Real"},{"key":"10103395","name":"Route de Lausanne","postalCode":"1294","locality":"Genthod","commune":{"key":"6622","name":"Genthod","shortName":"Genthod"},"district":{"key":"2500","name":"Canton de Genève"},"canton":{"key":"25","code":"GE","name":"Genève"},"status":"Real"},{"key":"10102481","name":"Route de Malagny","postalCode":"1294","locality":"Genthod","commune":{"key":"6622","name":"Genthod","shortName":"Genthod"},"district":{"key":"2500","name":"Canton de Genève"},"canton":{"key":"25","code":"GE","name":"Genève"},"status":"Real"},{"key":"10041203","name":"Route de Rennex","postalCode":"1294","locality":"Genthod","commune":{"key":"6622","name":"Genthod","shortName":"Genthod"},"district":{"key":"2500","name":"Canton de Genève"},"canton":{"key":"25","code":"GE","name":"Genève"},"status":"Real"},{"key":"10041204","name":"Route de Valavran","postalCode":"1294","locality":"Genthod","commune":{"key":"6622","name":"Genthod","shortName":"Genthod"},"district":{"key":"2500","name":"Canton de Genève"},"canton":{"key":"25","code":"GE","name":"Genève"},"status":"Real"},{"key":"10041205","name":"Route du Creux-de-Genthod","postalCode":"1294","locality":"Genthod","commune":{"key":"6622","name":"Genthod","shortName":"Genthod"},"district":{"key":"2500","name":"Canton de Genève"},"canton":{"key":"25","code":"GE","name":"Genève"},"status":"Real"},{"key":"10222056","name":"Route du Saugy","postalCode":"1294","locality":"Genthod","commune":{"key":"6622","name":"Genthod","shortName":"Genthod"},"district":{"key":"2500","name":"Canton de Genève"},"canton":{"key":"25","code":"GE","name":"Genève"},"status":"Real"},{"key":"10041206","name":"Rue du Village","postalCode":"1294","locality":"Genthod","commune":{"key":"6622","name":"Genthod","shortName":"Genthod"},"district":{"key":"2500","name":"Canton de Genève"},"canton":{"key":"25","code":"GE","name":"Genève"},"status":"Real"},]