[{"key":"10141650","name":"Algierweg","postalCode":"5524","locality":"Niederwil AG","commune":{"key":"4072","name":"Niederwil (AG)","shortName":"Niederwil (AG)"},"district":{"key":"1903","name":"Bezirk Bremgarten"},"canton":{"key":"19","code":"AG","name":"Aargau"},"status":"Real"},{"key":"10093633","name":"Alte Wohlerstrasse","postalCode":"5524","locality":"Niederwil AG","commune":{"key":"4072","name":"Niederwil (AG)","shortName":"Niederwil (AG)"},"district":{"key":"1903","name":"Bezirk Bremgarten"},"canton":{"key":"19","code":"AG","name":"Aargau"},"status":"Real"},{"key":"10034734","name":"Althauweg","postalCode":"5524","locality":"Niederwil AG","commune":{"key":"4072","name":"Niederwil (AG)","shortName":"Niederwil (AG)"},"district":{"key":"1903","name":"Bezirk Bremgarten"},"canton":{"key":"19","code":"AG","name":"Aargau"},"status":"Real"},{"key":"10113985","name":"Bodenackerweg","postalCode":"5524","locality":"Niederwil AG","commune":{"key":"4072","name":"Niederwil (AG)","shortName":"Niederwil (AG)"},"district":{"key":"1903","name":"Bezirk Bremgarten"},"canton":{"key":"19","code":"AG","name":"Aargau"},"status":"Real"},{"key":"10034735","name":"Boonackerweg","postalCode":"5524","locality":"Niederwil AG","commune":{"key":"4072","name":"Niederwil (AG)","shortName":"Niederwil (AG)"},"district":{"key":"1903","name":"Bezirk Bremgarten"},"canton":{"key":"19","code":"AG","name":"Aargau"},"status":"Real"},{"key":"10185183","name":"Buchgrindel","postalCode":"5524","locality":"Niederwil AG","commune":{"key":"4072","name":"Niederwil (AG)","shortName":"Niederwil (AG)"},"district":{"key":"1903","name":"Bezirk Bremgarten"},"canton":{"key":"19","code":"AG","name":"Aargau"},"status":"Real"},{"key":"10185673","name":"Emmetweg","postalCode":"5524","locality":"Niederwil AG","commune":{"key":"4072","name":"Niederwil (AG)","shortName":"Niederwil (AG)"},"district":{"key":"1903","name":"Bezirk Bremgarten"},"canton":{"key":"19","code":"AG","name":"Aargau"},"status":"Real"},{"key":"10070264","name":"Feldeck","postalCode":"5524","locality":"Niederwil AG","commune":{"key":"4072","name":"Niederwil (AG)","shortName":"Niederwil (AG)"},"district":{"key":"1903","name":"Bezirk Bremgarten"},"canton":{"key":"19","code":"AG","name":"Aargau"},"status":"Real"},{"key":"10034736","name":"Feldweg","postalCode":"5524","locality":"Niederwil AG","commune":{"key":"4072","name":"Niederwil (AG)","shortName":"Niederwil (AG)"},"district":{"key":"1903","name":"Bezirk Bremgarten"},"canton":{"key":"19","code":"AG","name":"Aargau"},"status":"Real"},{"key":"10070554","name":"Frohmattweg","postalCode":"5524","locality":"Niederwil AG","commune":{"key":"4072","name":"Niederwil (AG)","shortName":"Niederwil (AG)"},"district":{"key":"1903","name":"Bezirk Bremgarten"},"canton":{"key":"19","code":"AG","name":"Aargau"},"status":"Real"},{"key":"10093634","name":"Gartenweg","postalCode":"5524","locality":"Niederwil AG","commune":{"key":"4072","name":"Niederwil (AG)","shortName":"Niederwil (AG)"},"district":{"key":"1903","name":"Bezirk Bremgarten"},"canton":{"key":"19","code":"AG","name":"Aargau"},"status":"Real"},{"key":"10240167","name":"Gnadenthalerstrasse","postalCode":"5524","locality":"Niederwil AG","commune":{"key":"4072","name":"Niederwil (AG)","shortName":"Niederwil (AG)"},"district":{"key":"1903","name":"Bezirk Bremgarten"},"canton":{"key":"19","code":"AG","name":"Aargau"},"status":"Real"},{"key":"10105002","name":"Göslikerstrasse","postalCode":"5524","locality":"Niederwil AG","commune":{"key":"4072","name":"Niederwil (AG)","shortName":"Niederwil (AG)"},"district":{"key":"1903","name":"Bezirk Bremgarten"},"canton":{"key":"19","code":"AG","name":"Aargau"},"status":"Real"},{"key":"10034739","name":"Hägglingerstrasse","postalCode":"5524","locality":"Niederwil AG","commune":{"key":"4072","name":"Niederwil (AG)","shortName":"Niederwil (AG)"},"district":{"key":"1903","name":"Bezirk Bremgarten"},"canton":{"key":"19","code":"AG","name":"Aargau"},"status":"Real"},{"key":"10034737","name":"Haldenweg","postalCode":"5524","locality":"Niederwil AG","commune":{"key":"4072","name":"Niederwil (AG)","shortName":"Niederwil (AG)"},"district":{"key":"1903","name":"Bezirk Bremgarten"},"canton":{"key":"19","code":"AG","name":"Aargau"},"status":"Real"},{"key":"10189976","name":"Hambelackerweg","postalCode":"5524","locality":"Niederwil AG","commune":{"key":"4072","name":"Niederwil (AG)","shortName":"Niederwil (AG)"},"district":{"key":"1903","name":"Bezirk Bremgarten"},"canton":{"key":"19","code":"AG","name":"Aargau"},"status":"Real"},{"key":"10034738","name":"Hambelweg","postalCode":"5524","locality":"Niederwil AG","commune":{"key":"4072","name":"Niederwil (AG)","shortName":"Niederwil (AG)"},"district":{"key":"1903","name":"Bezirk Bremgarten"},"canton":{"key":"19","code":"AG","name":"Aargau"},"status":"Real"},{"key":"10185674","name":"Hauptstrasse","postalCode":"5524","locality":"Niederwil AG","commune":{"key":"4072","name":"Niederwil (AG)","shortName":"Niederwil (AG)"},"district":{"key":"1903","name":"Bezirk Bremgarten"},"canton":{"key":"19","code":"AG","name":"Aargau"},"status":"Real"},{"key":"10093636","name":"Hofackerweg","postalCode":"5524","locality":"Niederwil AG","commune":{"key":"4072","name":"Niederwil (AG)","shortName":"Niederwil (AG)"},"district":{"key":"1903","name":"Bezirk Bremgarten"},"canton":{"key":"19","code":"AG","name":"Aargau"},"status":"Real"},{"key":"10034740","name":"Höhenweg","postalCode":"5524","locality":"Niederwil AG","commune":{"key":"4072","name":"Niederwil (AG)","shortName":"Niederwil (AG)"},"district":{"key":"1903","name":"Bezirk Bremgarten"},"canton":{"key":"19","code":"AG","name":"Aargau"},"status":"Real"},{"key":"10122164","name":"Hubelstrasse","postalCode":"5524","locality":"Niederwil AG","commune":{"key":"4072","name":"Niederwil (AG)","shortName":"Niederwil (AG)"},"district":{"key":"1903","name":"Bezirk Bremgarten"},"canton":{"key":"19","code":"AG","name":"Aargau"},"status":"Real"},{"key":"10070555","name":"Im Emmet","postalCode":"5524","locality":"Niederwil AG","commune":{"key":"4072","name":"Niederwil (AG)","shortName":"Niederwil (AG)"},"district":{"key":"1903","name":"Bezirk Bremgarten"},"canton":{"key":"19","code":"AG","name":"Aargau"},"status":"Real"},{"key":"10191293","name":"Im Isenbühl","postalCode":"5524","locality":"Niederwil AG","commune":{"key":"4072","name":"Niederwil (AG)","shortName":"Niederwil (AG)"},"district":{"key":"1903","name":"Bezirk Bremgarten"},"canton":{"key":"19","code":"AG","name":"Aargau"},"status":"Real"},{"key":"10114278","name":"Im Steindler","postalCode":"5524","locality":"Niederwil AG","commune":{"key":"4072","name":"Niederwil (AG)","shortName":"Niederwil (AG)"},"district":{"key":"1903","name":"Bezirk Bremgarten"},"canton":{"key":"19","code":"AG","name":"Aargau"},"status":"Real"},{"key":"10071697","name":"Isenbühlweg","postalCode":"5524","locality":"Niederwil AG","commune":{"key":"4072","name":"Niederwil (AG)","shortName":"Niederwil (AG)"},"district":{"key":"1903","name":"Bezirk Bremgarten"},"canton":{"key":"19","code":"AG","name":"Aargau"},"status":"Real"},{"key":"10034741","name":"Karrenwaldstrasse","postalCode":"5524","locality":"Niederwil AG","commune":{"key":"4072","name":"Niederwil (AG)","shortName":"Niederwil (AG)"},"district":{"key":"1903","name":"Bezirk Bremgarten"},"canton":{"key":"19","code":"AG","name":"Aargau"},"status":"Real"},{"key":"10093637","name":"Kieselweg","postalCode":"5524","locality":"Niederwil AG","commune":{"key":"4072","name":"Niederwil (AG)","shortName":"Niederwil (AG)"},"district":{"key":"1903","name":"Bezirk Bremgarten"},"canton":{"key":"19","code":"AG","name":"Aargau"},"status":"Real"},{"key":"10035018","name":"Kornweg","postalCode":"5524","locality":"Niederwil AG","commune":{"key":"4072","name":"Niederwil (AG)","shortName":"Niederwil (AG)"},"district":{"key":"1903","name":"Bezirk Bremgarten"},"canton":{"key":"19","code":"AG","name":"Aargau"},"status":"Real"},{"key":"10071698","name":"Landstrasse","postalCode":"5524","locality":"Niederwil AG","commune":{"key":"4072","name":"Niederwil (AG)","shortName":"Niederwil (AG)"},"district":{"key":"1903","name":"Bezirk Bremgarten"},"canton":{"key":"19","code":"AG","name":"Aargau"},"status":"Real"},{"key":"10035019","name":"Leodegarstrasse","postalCode":"5524","locality":"Niederwil AG","commune":{"key":"4072","name":"Niederwil (AG)","shortName":"Niederwil (AG)"},"district":{"key":"1903","name":"Bezirk Bremgarten"},"canton":{"key":"19","code":"AG","name":"Aargau"},"status":"Real"},{"key":"10035020","name":"Mühlebachweg","postalCode":"5524","locality":"Niederwil AG","commune":{"key":"4072","name":"Niederwil (AG)","shortName":"Niederwil (AG)"},"district":{"key":"1903","name":"Bezirk Bremgarten"},"canton":{"key":"19","code":"AG","name":"Aargau"},"status":"Real"},{"key":"10093638","name":"Mühlemattweg","postalCode":"5524","locality":"Niederwil AG","commune":{"key":"4072","name":"Niederwil (AG)","shortName":"Niederwil (AG)"},"district":{"key":"1903","name":"Bezirk Bremgarten"},"canton":{"key":"19","code":"AG","name":"Aargau"},"status":"Real"},{"key":"10071699","name":"Mühleweg","postalCode":"5524","locality":"Niederwil AG","commune":{"key":"4072","name":"Niederwil (AG)","shortName":"Niederwil (AG)"},"district":{"key":"1903","name":"Bezirk Bremgarten"},"canton":{"key":"19","code":"AG","name":"Aargau"},"status":"Real"},{"key":"10035021","name":"Nesselnbacherstrasse","postalCode":"5524","locality":"Niederwil AG","commune":{"key":"4072","name":"Niederwil (AG)","shortName":"Niederwil (AG)"},"district":{"key":"1903","name":"Bezirk Bremgarten"},"canton":{"key":"19","code":"AG","name":"Aargau"},"status":"Real"},{"key":"10093639","name":"Rebenackerweg","postalCode":"5524","locality":"Niederwil AG","commune":{"key":"4072","name":"Niederwil (AG)","shortName":"Niederwil (AG)"},"district":{"key":"1903","name":"Bezirk Bremgarten"},"canton":{"key":"19","code":"AG","name":"Aargau"},"status":"Real"},{"key":"10135165","name":"Riedmattweg","postalCode":"5524","locality":"Niederwil AG","commune":{"key":"4072","name":"Niederwil (AG)","shortName":"Niederwil (AG)"},"district":{"key":"1903","name":"Bezirk Bremgarten"},"canton":{"key":"19","code":"AG","name":"Aargau"},"status":"Real"},{"key":"10185675","name":"Rigiweg","postalCode":"5524","locality":"Niederwil AG","commune":{"key":"4072","name":"Niederwil (AG)","shortName":"Niederwil (AG)"},"district":{"key":"1903","name":"Bezirk Bremgarten"},"canton":{"key":"19","code":"AG","name":"Aargau"},"status":"Real"},{"key":"10105003","name":"Rosenweg","postalCode":"5524","locality":"Niederwil AG","commune":{"key":"4072","name":"Niederwil (AG)","shortName":"Niederwil (AG)"},"district":{"key":"1903","name":"Bezirk Bremgarten"},"canton":{"key":"19","code":"AG","name":"Aargau"},"status":"Real"},{"key":"10035022","name":"Rütistrasse","postalCode":"5524","locality":"Niederwil AG","commune":{"key":"4072","name":"Niederwil (AG)","shortName":"Niederwil (AG)"},"district":{"key":"1903","name":"Bezirk Bremgarten"},"canton":{"key":"19","code":"AG","name":"Aargau"},"status":"Real"},{"key":"10153479","name":"Rütmättlerweg","postalCode":"5524","locality":"Niederwil AG","commune":{"key":"4072","name":"Niederwil (AG)","shortName":"Niederwil (AG)"},"district":{"key":"1903","name":"Bezirk Bremgarten"},"canton":{"key":"19","code":"AG","name":"Aargau"},"status":"Real"},{"key":"10035024","name":"Schänisweg","postalCode":"5524","locality":"Niederwil AG","commune":{"key":"4072","name":"Niederwil (AG)","shortName":"Niederwil (AG)"},"district":{"key":"1903","name":"Bezirk Bremgarten"},"canton":{"key":"19","code":"AG","name":"Aargau"},"status":"Real"},{"key":"10188302","name":"Schulweg","postalCode":"5524","locality":"Niederwil AG","commune":{"key":"4072","name":"Niederwil (AG)","shortName":"Niederwil (AG)"},"district":{"key":"1903","name":"Bezirk Bremgarten"},"canton":{"key":"19","code":"AG","name":"Aargau"},"status":"Real"},{"key":"10124560","name":"Sonnenrain","postalCode":"5524","locality":"Niederwil AG","commune":{"key":"4072","name":"Niederwil (AG)","shortName":"Niederwil (AG)"},"district":{"key":"1903","name":"Bezirk Bremgarten"},"canton":{"key":"19","code":"AG","name":"Aargau"},"status":"Real"},{"key":"10071700","name":"Steindlerweg","postalCode":"5524","locality":"Niederwil AG","commune":{"key":"4072","name":"Niederwil (AG)","shortName":"Niederwil (AG)"},"district":{"key":"1903","name":"Bezirk Bremgarten"},"canton":{"key":"19","code":"AG","name":"Aargau"},"status":"Real"},{"key":"10035025","name":"Tafelackerweg","postalCode":"5524","locality":"Niederwil AG","commune":{"key":"4072","name":"Niederwil (AG)","shortName":"Niederwil (AG)"},"district":{"key":"1903","name":"Bezirk Bremgarten"},"canton":{"key":"19","code":"AG","name":"Aargau"},"status":"Real"},{"key":"10189977","name":"Unterdorfstrasse","postalCode":"5524","locality":"Niederwil AG","commune":{"key":"4072","name":"Niederwil (AG)","shortName":"Niederwil (AG)"},"district":{"key":"1903","name":"Bezirk Bremgarten"},"canton":{"key":"19","code":"AG","name":"Aargau"},"status":"Real"},{"key":"10093188","name":"Vorderdorfstrasse","postalCode":"5524","locality":"Niederwil AG","commune":{"key":"4072","name":"Niederwil (AG)","shortName":"Niederwil (AG)"},"district":{"key":"1903","name":"Bezirk Bremgarten"},"canton":{"key":"19","code":"AG","name":"Aargau"},"status":"Real"},{"key":"10071701","name":"Wendelinsmatt","postalCode":"5524","locality":"Niederwil AG","commune":{"key":"4072","name":"Niederwil (AG)","shortName":"Niederwil (AG)"},"district":{"key":"1903","name":"Bezirk Bremgarten"},"canton":{"key":"19","code":"AG","name":"Aargau"},"status":"Real"},{"key":"10185676","name":"Wiesenweg","postalCode":"5524","locality":"Niederwil AG","commune":{"key":"4072","name":"Niederwil (AG)","shortName":"Niederwil (AG)"},"district":{"key":"1903","name":"Bezirk Bremgarten"},"canton":{"key":"19","code":"AG","name":"Aargau"},"status":"Real"},{"key":"10035026","name":"Wohlerstrasse","postalCode":"5524","locality":"Niederwil AG","commune":{"key":"4072","name":"Niederwil (AG)","shortName":"Niederwil (AG)"},"district":{"key":"1903","name":"Bezirk Bremgarten"},"canton":{"key":"19","code":"AG","name":"Aargau"},"status":"Real"},{"key":"10056853","name":"Wolfetsmattweg","postalCode":"5524","locality":"Niederwil AG","commune":{"key":"4072","name":"Niederwil (AG)","shortName":"Niederwil (AG)"},"district":{"key":"1903","name":"Bezirk Bremgarten"},"canton":{"key":"19","code":"AG","name":"Aargau"},"status":"Real"},]