[{"name":"Am Sportplatz","postalCode":"24399","locality":"Arnis","municipality":{"key":"01059002","name":"Arnis, Stadt","type":"Stadt"},"district":{"key":"01059","name":"Schleswig-Flensburg","type":"Kreis"},"federalState":{"key":"01","name":"Schleswig-Holstein"}},{"name":"FÃ¤hrweg","postalCode":"24399","locality":"Arnis","municipality":{"key":"01059002","name":"Arnis, Stadt","type":"Stadt"},"district":{"key":"01059","name":"Schleswig-Flensburg","type":"Kreis"},"federalState":{"key":"01","name":"Schleswig-Holstein"}},{"name":"Lange Str.","postalCode":"24399","locality":"Arnis","municipality":{"key":"01059002","name":"Arnis, Stadt","type":"Stadt"},"district":{"key":"01059","name":"Schleswig-Flensburg","type":"Kreis"},"federalState":{"key":"01","name":"Schleswig-Holstein"}},{"name":"Lindenweg","postalCode":"24399","locality":"Arnis","municipality":{"key":"01059002","name":"Arnis, Stadt","type":"Stadt"},"district":{"key":"01059","name":"Schleswig-Flensburg","type":"Kreis"},"federalState":{"key":"01","name":"Schleswig-Holstein"}},{"name":"Neuer Damm","postalCode":"24399","locality":"Arnis","municipality":{"key":"01059002","name":"Arnis, Stadt","type":"Stadt"},"district":{"key":"01059","name":"Schleswig-Flensburg","type":"Kreis"},"federalState":{"key":"01","name":"Schleswig-Holstein"}},{"name":"Parkstr.","postalCode":"24399","locality":"Arnis","municipality":{"key":"01059002","name":"Arnis, Stadt","type":"Stadt"},"district":{"key":"01059","name":"Schleswig-Flensburg","type":"Kreis"},"federalState":{"key":"01","name":"Schleswig-Holstein"}},{"name":"Schulstr.","postalCode":"24399","locality":"Arnis","municipality":{"key":"01059002","name":"Arnis, Stadt","type":"Stadt"},"district":{"key":"01059","name":"Schleswig-Flensburg","type":"Kreis"},"federalState":{"key":"01","name":"Schleswig-Holstein"}},{"name":"Strandweg","postalCode":"24399","locality":"Arnis","municipality":{"key":"01059002","name":"Arnis, Stadt","type":"Stadt"},"district":{"key":"01059","name":"Schleswig-Flensburg","type":"Kreis"},"federalState":{"key":"01","name":"Schleswig-Holstein"}},]