[{"key":"10161389","name":"Aletenweg","postalCode":"4207","locality":"Bretzwil","commune":{"key":"2883","name":"Bretzwil","shortName":"Bretzwil"},"district":{"key":"1305","name":"Bezirk Waldenburg"},"canton":{"key":"13","code":"BL","name":"Basel-Landschaft"},"status":"Real"},{"key":"10154696","name":"Aumatt","postalCode":"4207","locality":"Bretzwil","commune":{"key":"2883","name":"Bretzwil","shortName":"Bretzwil"},"district":{"key":"1305","name":"Bezirk Waldenburg"},"canton":{"key":"13","code":"BL","name":"Basel-Landschaft"},"status":"Real"},{"key":"10243890","name":"Balsbergweg","postalCode":"4207","locality":"Bretzwil","commune":{"key":"2883","name":"Bretzwil","shortName":"Bretzwil"},"district":{"key":"1305","name":"Bezirk Waldenburg"},"canton":{"key":"13","code":"BL","name":"Basel-Landschaft"},"status":"Real"},{"key":"10022148","name":"Baumgartenweg","postalCode":"4207","locality":"Bretzwil","commune":{"key":"2883","name":"Bretzwil","shortName":"Bretzwil"},"district":{"key":"1305","name":"Bezirk Waldenburg"},"canton":{"key":"13","code":"BL","name":"Basel-Landschaft"},"status":"Real"},{"key":"10120382","name":"Bühlweg","postalCode":"4207","locality":"Bretzwil","commune":{"key":"2883","name":"Bretzwil","shortName":"Bretzwil"},"district":{"key":"1305","name":"Bezirk Waldenburg"},"canton":{"key":"13","code":"BL","name":"Basel-Landschaft"},"status":"Real"},{"key":"10086946","name":"Dentschenstrasse","postalCode":"4207","locality":"Bretzwil","commune":{"key":"2883","name":"Bretzwil","shortName":"Bretzwil"},"district":{"key":"1305","name":"Bezirk Waldenburg"},"canton":{"key":"13","code":"BL","name":"Basel-Landschaft"},"status":"Real"},{"key":"10243894","name":"Dietelweg","postalCode":"4207","locality":"Bretzwil","commune":{"key":"2883","name":"Bretzwil","shortName":"Bretzwil"},"district":{"key":"1305","name":"Bezirk Waldenburg"},"canton":{"key":"13","code":"BL","name":"Basel-Landschaft"},"status":"Real"},{"key":"10158004","name":"Eichengraben","postalCode":"4207","locality":"Bretzwil","commune":{"key":"2883","name":"Bretzwil","shortName":"Bretzwil"},"district":{"key":"1305","name":"Bezirk Waldenburg"},"canton":{"key":"13","code":"BL","name":"Basel-Landschaft"},"status":"Real"},{"key":"10053866","name":"Eichmatt","postalCode":"4207","locality":"Bretzwil","commune":{"key":"2883","name":"Bretzwil","shortName":"Bretzwil"},"district":{"key":"1305","name":"Bezirk Waldenburg"},"canton":{"key":"13","code":"BL","name":"Basel-Landschaft"},"status":"Real"},{"key":"10141810","name":"Erlimattweg","postalCode":"4207","locality":"Bretzwil","commune":{"key":"2883","name":"Bretzwil","shortName":"Bretzwil"},"district":{"key":"1305","name":"Bezirk Waldenburg"},"canton":{"key":"13","code":"BL","name":"Basel-Landschaft"},"status":"Real"},{"key":"10175929","name":"Fluhgasse","postalCode":"4207","locality":"Bretzwil","commune":{"key":"2883","name":"Bretzwil","shortName":"Bretzwil"},"district":{"key":"1305","name":"Bezirk Waldenburg"},"canton":{"key":"13","code":"BL","name":"Basel-Landschaft"},"status":"Real"},{"key":"10022149","name":"Fluhmattweg","postalCode":"4207","locality":"Bretzwil","commune":{"key":"2883","name":"Bretzwil","shortName":"Bretzwil"},"district":{"key":"1305","name":"Bezirk Waldenburg"},"canton":{"key":"13","code":"BL","name":"Basel-Landschaft"},"status":"Real"},{"key":"10161392","name":"Galmweg","postalCode":"4207","locality":"Bretzwil","commune":{"key":"2883","name":"Bretzwil","shortName":"Bretzwil"},"district":{"key":"1305","name":"Bezirk Waldenburg"},"canton":{"key":"13","code":"BL","name":"Basel-Landschaft"},"status":"Real"},{"key":"10022150","name":"Grabetsmatt","postalCode":"4207","locality":"Bretzwil","commune":{"key":"2883","name":"Bretzwil","shortName":"Bretzwil"},"district":{"key":"1305","name":"Bezirk Waldenburg"},"canton":{"key":"13","code":"BL","name":"Basel-Landschaft"},"status":"Real"},{"key":"10141803","name":"Grabetsmattweg","postalCode":"4207","locality":"Bretzwil","commune":{"key":"2883","name":"Bretzwil","shortName":"Bretzwil"},"district":{"key":"1305","name":"Bezirk Waldenburg"},"canton":{"key":"13","code":"BL","name":"Basel-Landschaft"},"status":"Real"},{"key":"10022151","name":"Grund","postalCode":"4207","locality":"Bretzwil","commune":{"key":"2883","name":"Bretzwil","shortName":"Bretzwil"},"district":{"key":"1305","name":"Bezirk Waldenburg"},"canton":{"key":"13","code":"BL","name":"Basel-Landschaft"},"status":"Real"},{"key":"10086947","name":"Hagmattstrasse","postalCode":"4207","locality":"Bretzwil","commune":{"key":"2883","name":"Bretzwil","shortName":"Bretzwil"},"district":{"key":"1305","name":"Bezirk Waldenburg"},"canton":{"key":"13","code":"BL","name":"Basel-Landschaft"},"status":"Real"},{"key":"10161410","name":"Hargartenweg","postalCode":"4207","locality":"Bretzwil","commune":{"key":"2883","name":"Bretzwil","shortName":"Bretzwil"},"district":{"key":"1305","name":"Bezirk Waldenburg"},"canton":{"key":"13","code":"BL","name":"Basel-Landschaft"},"status":"Real"},{"key":"10072513","name":"Hauptstrasse","postalCode":"4207","locality":"Bretzwil","commune":{"key":"2883","name":"Bretzwil","shortName":"Bretzwil"},"district":{"key":"1305","name":"Bezirk Waldenburg"},"canton":{"key":"13","code":"BL","name":"Basel-Landschaft"},"status":"Real"},{"key":"10141788","name":"Hinterbergweg","postalCode":"4207","locality":"Bretzwil","commune":{"key":"2883","name":"Bretzwil","shortName":"Bretzwil"},"district":{"key":"1305","name":"Bezirk Waldenburg"},"canton":{"key":"13","code":"BL","name":"Basel-Landschaft"},"status":"Real"},{"key":"10053867","name":"Hof auf Rübel","postalCode":"4207","locality":"Bretzwil","commune":{"key":"2883","name":"Bretzwil","shortName":"Bretzwil"},"district":{"key":"1305","name":"Bezirk Waldenburg"},"canton":{"key":"13","code":"BL","name":"Basel-Landschaft"},"status":"Real"},{"key":"10161393","name":"Hof Balsberg","postalCode":"4207","locality":"Bretzwil","commune":{"key":"2883","name":"Bretzwil","shortName":"Bretzwil"},"district":{"key":"1305","name":"Bezirk Waldenburg"},"canton":{"key":"13","code":"BL","name":"Basel-Landschaft"},"status":"Real"},{"key":"10192052","name":"Hof Felken","postalCode":"4207","locality":"Bretzwil","commune":{"key":"2883","name":"Bretzwil","shortName":"Bretzwil"},"district":{"key":"1305","name":"Bezirk Waldenburg"},"canton":{"key":"13","code":"BL","name":"Basel-Landschaft"},"status":"Real"},{"key":"10161394","name":"Hof Freisnacht","postalCode":"4207","locality":"Bretzwil","commune":{"key":"2883","name":"Bretzwil","shortName":"Bretzwil"},"district":{"key":"1305","name":"Bezirk Waldenburg"},"canton":{"key":"13","code":"BL","name":"Basel-Landschaft"},"status":"Real"},{"key":"10161397","name":"Hofgut Hinterberg","postalCode":"4207","locality":"Bretzwil","commune":{"key":"2883","name":"Bretzwil","shortName":"Bretzwil"},"district":{"key":"1305","name":"Bezirk Waldenburg"},"canton":{"key":"13","code":"BL","name":"Basel-Landschaft"},"status":"Real"},{"key":"10072514","name":"Hofgut Ramstein","postalCode":"4207","locality":"Bretzwil","commune":{"key":"2883","name":"Bretzwil","shortName":"Bretzwil"},"district":{"key":"1305","name":"Bezirk Waldenburg"},"canton":{"key":"13","code":"BL","name":"Basel-Landschaft"},"status":"Real"},{"key":"10185441","name":"Hof Hargarten","postalCode":"4207","locality":"Bretzwil","commune":{"key":"2883","name":"Bretzwil","shortName":"Bretzwil"},"district":{"key":"1305","name":"Bezirk Waldenburg"},"canton":{"key":"13","code":"BL","name":"Basel-Landschaft"},"status":"Real"},{"key":"10161395","name":"Hof in der Lank","postalCode":"4207","locality":"Bretzwil","commune":{"key":"2883","name":"Bretzwil","shortName":"Bretzwil"},"district":{"key":"1305","name":"Bezirk Waldenburg"},"canton":{"key":"13","code":"BL","name":"Basel-Landschaft"},"status":"Real"},{"key":"10161396","name":"Hof Rot-Sabel","postalCode":"4207","locality":"Bretzwil","commune":{"key":"2883","name":"Bretzwil","shortName":"Bretzwil"},"district":{"key":"1305","name":"Bezirk Waldenburg"},"canton":{"key":"13","code":"BL","name":"Basel-Landschaft"},"status":"Real"},{"key":"10108792","name":"Hof Sonnhalde","postalCode":"4207","locality":"Bretzwil","commune":{"key":"2883","name":"Bretzwil","shortName":"Bretzwil"},"district":{"key":"1305","name":"Bezirk Waldenburg"},"canton":{"key":"13","code":"BL","name":"Basel-Landschaft"},"status":"Real"},{"key":"10086948","name":"Hof Tschäggligen","postalCode":"4207","locality":"Bretzwil","commune":{"key":"2883","name":"Bretzwil","shortName":"Bretzwil"},"district":{"key":"1305","name":"Bezirk Waldenburg"},"canton":{"key":"13","code":"BL","name":"Basel-Landschaft"},"status":"Real"},{"key":"10161399","name":"Hollenweg","postalCode":"4207","locality":"Bretzwil","commune":{"key":"2883","name":"Bretzwil","shortName":"Bretzwil"},"district":{"key":"1305","name":"Bezirk Waldenburg"},"canton":{"key":"13","code":"BL","name":"Basel-Landschaft"},"status":"Real"},{"key":"10022152","name":"Im Bifang","postalCode":"4207","locality":"Bretzwil","commune":{"key":"2883","name":"Bretzwil","shortName":"Bretzwil"},"district":{"key":"1305","name":"Bezirk Waldenburg"},"canton":{"key":"13","code":"BL","name":"Basel-Landschaft"},"status":"Real"},{"key":"10161401","name":"Im Schlif","postalCode":"4207","locality":"Bretzwil","commune":{"key":"2883","name":"Bretzwil","shortName":"Bretzwil"},"district":{"key":"1305","name":"Bezirk Waldenburg"},"canton":{"key":"13","code":"BL","name":"Basel-Landschaft"},"status":"Real"},{"key":"10022153","name":"In den Dentschen","postalCode":"4207","locality":"Bretzwil","commune":{"key":"2883","name":"Bretzwil","shortName":"Bretzwil"},"district":{"key":"1305","name":"Bezirk Waldenburg"},"canton":{"key":"13","code":"BL","name":"Basel-Landschaft"},"status":"Real"},{"key":"10022154","name":"In der Rösi","postalCode":"4207","locality":"Bretzwil","commune":{"key":"2883","name":"Bretzwil","shortName":"Bretzwil"},"district":{"key":"1305","name":"Bezirk Waldenburg"},"canton":{"key":"13","code":"BL","name":"Basel-Landschaft"},"status":"Real"},{"key":"10161390","name":"Kählen","postalCode":"4207","locality":"Bretzwil","commune":{"key":"2883","name":"Bretzwil","shortName":"Bretzwil"},"district":{"key":"1305","name":"Bezirk Waldenburg"},"canton":{"key":"13","code":"BL","name":"Basel-Landschaft"},"status":"Real"},{"key":"10161402","name":"Kählenweg","postalCode":"4207","locality":"Bretzwil","commune":{"key":"2883","name":"Bretzwil","shortName":"Bretzwil"},"district":{"key":"1305","name":"Bezirk Waldenburg"},"canton":{"key":"13","code":"BL","name":"Basel-Landschaft"},"status":"Real"},{"key":"10103857","name":"Kirchgasse","postalCode":"4207","locality":"Bretzwil","commune":{"key":"2883","name":"Bretzwil","shortName":"Bretzwil"},"district":{"key":"1305","name":"Bezirk Waldenburg"},"canton":{"key":"13","code":"BL","name":"Basel-Landschaft"},"status":"Real"},{"key":"10022155","name":"Krummenhof","postalCode":"4207","locality":"Bretzwil","commune":{"key":"2883","name":"Bretzwil","shortName":"Bretzwil"},"district":{"key":"1305","name":"Bezirk Waldenburg"},"canton":{"key":"13","code":"BL","name":"Basel-Landschaft"},"status":"Real"},{"key":"10022156","name":"Mattenhof","postalCode":"4207","locality":"Bretzwil","commune":{"key":"2883","name":"Bretzwil","shortName":"Bretzwil"},"district":{"key":"1305","name":"Bezirk Waldenburg"},"canton":{"key":"13","code":"BL","name":"Basel-Landschaft"},"status":"Real"},{"key":"10161403","name":"Mettenbühlweg","postalCode":"4207","locality":"Bretzwil","commune":{"key":"2883","name":"Bretzwil","shortName":"Bretzwil"},"district":{"key":"1305","name":"Bezirk Waldenburg"},"canton":{"key":"13","code":"BL","name":"Basel-Landschaft"},"status":"Real"},{"key":"10110804","name":"Mühlemattstrasse","postalCode":"4207","locality":"Bretzwil","commune":{"key":"2883","name":"Bretzwil","shortName":"Bretzwil"},"district":{"key":"1305","name":"Bezirk Waldenburg"},"canton":{"key":"13","code":"BL","name":"Basel-Landschaft"},"status":"Real"},{"key":"10141804","name":"Niderländli","postalCode":"4207","locality":"Bretzwil","commune":{"key":"2883","name":"Bretzwil","shortName":"Bretzwil"},"district":{"key":"1305","name":"Bezirk Waldenburg"},"canton":{"key":"13","code":"BL","name":"Basel-Landschaft"},"status":"Real"},{"key":"10104494","name":"Oberfeld","postalCode":"4207","locality":"Bretzwil","commune":{"key":"2883","name":"Bretzwil","shortName":"Bretzwil"},"district":{"key":"1305","name":"Bezirk Waldenburg"},"canton":{"key":"13","code":"BL","name":"Basel-Landschaft"},"status":"Real"},{"key":"10161398","name":"Obersabel","postalCode":"4207","locality":"Bretzwil","commune":{"key":"2883","name":"Bretzwil","shortName":"Bretzwil"},"district":{"key":"1305","name":"Bezirk Waldenburg"},"canton":{"key":"13","code":"BL","name":"Basel-Landschaft"},"status":"Real"},{"key":"10161400","name":"Ramsteinweg","postalCode":"4207","locality":"Bretzwil","commune":{"key":"2883","name":"Bretzwil","shortName":"Bretzwil"},"district":{"key":"1305","name":"Bezirk Waldenburg"},"canton":{"key":"13","code":"BL","name":"Basel-Landschaft"},"status":"Real"},{"key":"10124086","name":"Rappenloch","postalCode":"4207","locality":"Bretzwil","commune":{"key":"2883","name":"Bretzwil","shortName":"Bretzwil"},"district":{"key":"1305","name":"Bezirk Waldenburg"},"canton":{"key":"13","code":"BL","name":"Basel-Landschaft"},"status":"Real"},{"key":"10120383","name":"Reigoldswilerstrasse","postalCode":"4207","locality":"Bretzwil","commune":{"key":"2883","name":"Bretzwil","shortName":"Bretzwil"},"district":{"key":"1305","name":"Bezirk Waldenburg"},"canton":{"key":"13","code":"BL","name":"Basel-Landschaft"},"status":"Real"},{"key":"10118345","name":"Rennenbachstrasse","postalCode":"4207","locality":"Bretzwil","commune":{"key":"2883","name":"Bretzwil","shortName":"Bretzwil"},"district":{"key":"1305","name":"Bezirk Waldenburg"},"canton":{"key":"13","code":"BL","name":"Basel-Landschaft"},"status":"Real"},{"key":"10022158","name":"Rösistrasse","postalCode":"4207","locality":"Bretzwil","commune":{"key":"2883","name":"Bretzwil","shortName":"Bretzwil"},"district":{"key":"1305","name":"Bezirk Waldenburg"},"canton":{"key":"13","code":"BL","name":"Basel-Landschaft"},"status":"Real"},{"key":"10161405","name":"Rosstelliweg","postalCode":"4207","locality":"Bretzwil","commune":{"key":"2883","name":"Bretzwil","shortName":"Bretzwil"},"district":{"key":"1305","name":"Bezirk Waldenburg"},"canton":{"key":"13","code":"BL","name":"Basel-Landschaft"},"status":"Real"},{"key":"10161406","name":"Rübelweg","postalCode":"4207","locality":"Bretzwil","commune":{"key":"2883","name":"Bretzwil","shortName":"Bretzwil"},"district":{"key":"1305","name":"Bezirk Waldenburg"},"canton":{"key":"13","code":"BL","name":"Basel-Landschaft"},"status":"Real"},{"key":"10072515","name":"Rufackerweg","postalCode":"4207","locality":"Bretzwil","commune":{"key":"2883","name":"Bretzwil","shortName":"Bretzwil"},"district":{"key":"1305","name":"Bezirk Waldenburg"},"canton":{"key":"13","code":"BL","name":"Basel-Landschaft"},"status":"Real"},{"key":"10114699","name":"Rüteliweg","postalCode":"4207","locality":"Bretzwil","commune":{"key":"2883","name":"Bretzwil","shortName":"Bretzwil"},"district":{"key":"1305","name":"Bezirk Waldenburg"},"canton":{"key":"13","code":"BL","name":"Basel-Landschaft"},"status":"Real"},{"key":"10186325","name":"Sägegasse","postalCode":"4207","locality":"Bretzwil","commune":{"key":"2883","name":"Bretzwil","shortName":"Bretzwil"},"district":{"key":"1305","name":"Bezirk Waldenburg"},"canton":{"key":"13","code":"BL","name":"Basel-Landschaft"},"status":"Real"},{"key":"10154697","name":"Sagenmätteli","postalCode":"4207","locality":"Bretzwil","commune":{"key":"2883","name":"Bretzwil","shortName":"Bretzwil"},"district":{"key":"1305","name":"Bezirk Waldenburg"},"canton":{"key":"13","code":"BL","name":"Basel-Landschaft"},"status":"Real"},{"key":"10243898","name":"Schärenweg","postalCode":"4207","locality":"Bretzwil","commune":{"key":"2883","name":"Bretzwil","shortName":"Bretzwil"},"district":{"key":"1305","name":"Bezirk Waldenburg"},"canton":{"key":"13","code":"BL","name":"Basel-Landschaft"},"status":"Real"},{"key":"10022159","name":"Schulgasse","postalCode":"4207","locality":"Bretzwil","commune":{"key":"2883","name":"Bretzwil","shortName":"Bretzwil"},"district":{"key":"1305","name":"Bezirk Waldenburg"},"canton":{"key":"13","code":"BL","name":"Basel-Landschaft"},"status":"Real"},{"key":"10141789","name":"Sonnhalde","postalCode":"4207","locality":"Bretzwil","commune":{"key":"2883","name":"Bretzwil","shortName":"Bretzwil"},"district":{"key":"1305","name":"Bezirk Waldenburg"},"canton":{"key":"13","code":"BL","name":"Basel-Landschaft"},"status":"Real"},{"key":"10022160","name":"Spelthof","postalCode":"4207","locality":"Bretzwil","commune":{"key":"2883","name":"Bretzwil","shortName":"Bretzwil"},"district":{"key":"1305","name":"Bezirk Waldenburg"},"canton":{"key":"13","code":"BL","name":"Basel-Landschaft"},"status":"Real"},{"key":"10086949","name":"Steinmatt","postalCode":"4207","locality":"Bretzwil","commune":{"key":"2883","name":"Bretzwil","shortName":"Bretzwil"},"district":{"key":"1305","name":"Bezirk Waldenburg"},"canton":{"key":"13","code":"BL","name":"Basel-Landschaft"},"status":"Real"},{"key":"10161660","name":"Stierenberg","postalCode":"4207","locality":"Bretzwil","commune":{"key":"2883","name":"Bretzwil","shortName":"Bretzwil"},"district":{"key":"1305","name":"Bezirk Waldenburg"},"canton":{"key":"13","code":"BL","name":"Basel-Landschaft"},"status":"Real"},{"key":"10141808","name":"Stierenbergweg","postalCode":"4207","locality":"Bretzwil","commune":{"key":"2883","name":"Bretzwil","shortName":"Bretzwil"},"district":{"key":"1305","name":"Bezirk Waldenburg"},"canton":{"key":"13","code":"BL","name":"Basel-Landschaft"},"status":"Real"},{"key":"10161411","name":"Unterbrang","postalCode":"4207","locality":"Bretzwil","commune":{"key":"2883","name":"Bretzwil","shortName":"Bretzwil"},"district":{"key":"1305","name":"Bezirk Waldenburg"},"canton":{"key":"13","code":"BL","name":"Basel-Landschaft"},"status":"Real"},{"key":"10161412","name":"Unter Sabel","postalCode":"4207","locality":"Bretzwil","commune":{"key":"2883","name":"Bretzwil","shortName":"Bretzwil"},"district":{"key":"1305","name":"Bezirk Waldenburg"},"canton":{"key":"13","code":"BL","name":"Basel-Landschaft"},"status":"Real"},{"key":"10141806","name":"Wannenweg","postalCode":"4207","locality":"Bretzwil","commune":{"key":"2883","name":"Bretzwil","shortName":"Bretzwil"},"district":{"key":"1305","name":"Bezirk Waldenburg"},"canton":{"key":"13","code":"BL","name":"Basel-Landschaft"},"status":"Real"},{"key":"10161413","name":"Wäschweg","postalCode":"4207","locality":"Bretzwil","commune":{"key":"2883","name":"Bretzwil","shortName":"Bretzwil"},"district":{"key":"1305","name":"Bezirk Waldenburg"},"canton":{"key":"13","code":"BL","name":"Basel-Landschaft"},"status":"Real"},{"key":"10141805","name":"Winkelgasse","postalCode":"4207","locality":"Bretzwil","commune":{"key":"2883","name":"Bretzwil","shortName":"Bretzwil"},"district":{"key":"1305","name":"Bezirk Waldenburg"},"canton":{"key":"13","code":"BL","name":"Basel-Landschaft"},"status":"Real"},]