[{"name":"55 Sonnenloipe","postalCode":"94481","locality":"Grafenau","municipality":{"key":"09272120","name":"Grafenau, St","type":"Stadt"},"district":{"key":"09272","name":"Freyung-Grafenau","type":"Landkreis"},"federalState":{"key":"09","name":"Bayern"}},{"name":"Adalbert-Stifter-Weg","postalCode":"71120","locality":"Grafenau","municipality":{"key":"08115054","name":"Grafenau","type":"Kreisangehörige_Gemeinde"},"district":{"key":"08115","name":"Böblingen","type":"Landkreis"},"federalState":{"key":"08","name":"Baden-Württemberg"}},{"name":"Ahornweg","postalCode":"71120","locality":"Grafenau","municipality":{"key":"08115054","name":"Grafenau","type":"Kreisangehörige_Gemeinde"},"district":{"key":"08115","name":"Böblingen","type":"Landkreis"},"federalState":{"key":"08","name":"Baden-Württemberg"}},{"name":"Altenstein","postalCode":"94481","locality":"Grafenau","municipality":{"key":"09272120","name":"Grafenau, St","type":"Stadt"},"district":{"key":"09272","name":"Freyung-Grafenau","type":"Landkreis"},"federalState":{"key":"09","name":"Bayern"}},{"name":"Alte Steige","postalCode":"71120","locality":"Grafenau","municipality":{"key":"08115054","name":"Grafenau","type":"Kreisangehörige_Gemeinde"},"district":{"key":"08115","name":"Böblingen","type":"Landkreis"},"federalState":{"key":"08","name":"Baden-Württemberg"}},{"name":"Am Point","postalCode":"94481","locality":"Grafenau","municipality":{"key":"09272120","name":"Grafenau, St","type":"Stadt"},"district":{"key":"09272","name":"Freyung-Grafenau","type":"Landkreis"},"federalState":{"key":"09","name":"Bayern"}},{"name":"Am Schwaimberg","postalCode":"94481","locality":"Grafenau","municipality":{"key":"09272120","name":"Grafenau, St","type":"Stadt"},"district":{"key":"09272","name":"Freyung-Grafenau","type":"Landkreis"},"federalState":{"key":"09","name":"Bayern"}},{"name":"Am Seltenbach","postalCode":"71120","locality":"Grafenau","municipality":{"key":"08115054","name":"Grafenau","type":"Kreisangehörige_Gemeinde"},"district":{"key":"08115","name":"Böblingen","type":"Landkreis"},"federalState":{"key":"08","name":"Baden-Württemberg"}},{"name":"Amselweg","postalCode":"71120","locality":"Grafenau","municipality":{"key":"08115054","name":"Grafenau","type":"Kreisangehörige_Gemeinde"},"district":{"key":"08115","name":"Böblingen","type":"Landkreis"},"federalState":{"key":"08","name":"Baden-Württemberg"}},{"name":"Amselweg","postalCode":"94481","locality":"Grafenau","municipality":{"key":"09272120","name":"Grafenau, St","type":"Stadt"},"district":{"key":"09272","name":"Freyung-Grafenau","type":"Landkreis"},"federalState":{"key":"09","name":"Bayern"}},{"name":"Am Turmacker","postalCode":"94481","locality":"Grafenau","municipality":{"key":"09272120","name":"Grafenau, St","type":"Stadt"},"district":{"key":"09272","name":"Freyung-Grafenau","type":"Landkreis"},"federalState":{"key":"09","name":"Bayern"}},{"name":"Am Waldrain","postalCode":"71120","locality":"Grafenau","municipality":{"key":"08115054","name":"Grafenau","type":"Kreisangehörige_Gemeinde"},"district":{"key":"08115","name":"Böblingen","type":"Landkreis"},"federalState":{"key":"08","name":"Baden-Württemberg"}},{"name":"Arberweg","postalCode":"94481","locality":"Grafenau","municipality":{"key":"09272120","name":"Grafenau, St","type":"Stadt"},"district":{"key":"09272","name":"Freyung-Grafenau","type":"Landkreis"},"federalState":{"key":"09","name":"Bayern"}},{"name":"Auf der Heide","postalCode":"71120","locality":"Grafenau","municipality":{"key":"08115054","name":"Grafenau","type":"Kreisangehörige_Gemeinde"},"district":{"key":"08115","name":"Böblingen","type":"Landkreis"},"federalState":{"key":"08","name":"Baden-Württemberg"}},{"name":"Bahnhofstr.","postalCode":"94481","locality":"Grafenau","municipality":{"key":"09272120","name":"Grafenau, St","type":"Stadt"},"district":{"key":"09272","name":"Freyung-Grafenau","type":"Landkreis"},"federalState":{"key":"09","name":"Bayern"}},{"name":"Bannfrieden","postalCode":"94481","locality":"Grafenau","municipality":{"key":"09272120","name":"Grafenau, St","type":"Stadt"},"district":{"key":"09272","name":"Freyung-Grafenau","type":"Landkreis"},"federalState":{"key":"09","name":"Bayern"}},{"name":"Bei der Linde","postalCode":"71120","locality":"Grafenau","municipality":{"key":"08115054","name":"Grafenau","type":"Kreisangehörige_Gemeinde"},"district":{"key":"08115","name":"Böblingen","type":"Landkreis"},"federalState":{"key":"08","name":"Baden-Württemberg"}},{"name":"Bergäcker","postalCode":"94481","locality":"Grafenau","municipality":{"key":"09272120","name":"Grafenau, St","type":"Stadt"},"district":{"key":"09272","name":"Freyung-Grafenau","type":"Landkreis"},"federalState":{"key":"09","name":"Bayern"}},{"name":"Bergreichensteiner Str.","postalCode":"94481","locality":"Grafenau","municipality":{"key":"09272120","name":"Grafenau, St","type":"Stadt"},"district":{"key":"09272","name":"Freyung-Grafenau","type":"Landkreis"},"federalState":{"key":"09","name":"Bayern"}},{"name":"Bergstr.","postalCode":"71120","locality":"Grafenau","municipality":{"key":"08115054","name":"Grafenau","type":"Kreisangehörige_Gemeinde"},"district":{"key":"08115","name":"Böblingen","type":"Landkreis"},"federalState":{"key":"08","name":"Baden-Württemberg"}},{"name":"Bergstr.","postalCode":"94481","locality":"Grafenau","municipality":{"key":"09272120","name":"Grafenau, St","type":"Stadt"},"district":{"key":"09272","name":"Freyung-Grafenau","type":"Landkreis"},"federalState":{"key":"09","name":"Bayern"}},{"name":"Bertha-Benz-Str.","postalCode":"71120","locality":"Grafenau","municipality":{"key":"08115054","name":"Grafenau","type":"Kreisangehörige_Gemeinde"},"district":{"key":"08115","name":"Böblingen","type":"Landkreis"},"federalState":{"key":"08","name":"Baden-Württemberg"}},{"name":"Bettina-von-Arnim-Weg","postalCode":"71120","locality":"Grafenau","municipality":{"key":"08115054","name":"Grafenau","type":"Kreisangehörige_Gemeinde"},"district":{"key":"08115","name":"Böblingen","type":"Landkreis"},"federalState":{"key":"08","name":"Baden-Württemberg"}},{"name":"Birkenweg","postalCode":"71120","locality":"Grafenau","municipality":{"key":"08115054","name":"Grafenau","type":"Kreisangehörige_Gemeinde"},"district":{"key":"08115","name":"Böblingen","type":"Landkreis"},"federalState":{"key":"08","name":"Baden-Württemberg"}},{"name":"Birkenweg","postalCode":"94481","locality":"Grafenau","municipality":{"key":"09272120","name":"Grafenau, St","type":"Stadt"},"district":{"key":"09272","name":"Freyung-Grafenau","type":"Landkreis"},"federalState":{"key":"09","name":"Bayern"}},{"name":"Blumenstr.","postalCode":"71120","locality":"Grafenau","municipality":{"key":"08115054","name":"Grafenau","type":"Kreisangehörige_Gemeinde"},"district":{"key":"08115","name":"Böblingen","type":"Landkreis"},"federalState":{"key":"08","name":"Baden-Württemberg"}},{"name":"Brandstr.","postalCode":"71120","locality":"Grafenau","municipality":{"key":"08115054","name":"Grafenau","type":"Kreisangehörige_Gemeinde"},"district":{"key":"08115","name":"Böblingen","type":"Landkreis"},"federalState":{"key":"08","name":"Baden-Württemberg"}},{"name":"Brückental","postalCode":"94481","locality":"Grafenau","municipality":{"key":"09272120","name":"Grafenau, St","type":"Stadt"},"district":{"key":"09272","name":"Freyung-Grafenau","type":"Landkreis"},"federalState":{"key":"09","name":"Bayern"}},{"name":"Brunnenhof","postalCode":"71120","locality":"Grafenau","municipality":{"key":"08115054","name":"Grafenau","type":"Kreisangehörige_Gemeinde"},"district":{"key":"08115","name":"Böblingen","type":"Landkreis"},"federalState":{"key":"08","name":"Baden-Württemberg"}},{"name":"Brunnwiesen","postalCode":"94481","locality":"Grafenau","municipality":{"key":"09272120","name":"Grafenau, St","type":"Stadt"},"district":{"key":"09272","name":"Freyung-Grafenau","type":"Landkreis"},"federalState":{"key":"09","name":"Bayern"}},{"name":"Buchdruckergasse","postalCode":"94481","locality":"Grafenau","municipality":{"key":"09272120","name":"Grafenau, St","type":"Stadt"},"district":{"key":"09272","name":"Freyung-Grafenau","type":"Landkreis"},"federalState":{"key":"09","name":"Bayern"}},{"name":"Buchenweg","postalCode":"71120","locality":"Grafenau","municipality":{"key":"08115054","name":"Grafenau","type":"Kreisangehörige_Gemeinde"},"district":{"key":"08115","name":"Böblingen","type":"Landkreis"},"federalState":{"key":"08","name":"Baden-Württemberg"}},{"name":"Bülowstr.","postalCode":"71120","locality":"Grafenau","municipality":{"key":"08115054","name":"Grafenau","type":"Kreisangehörige_Gemeinde"},"district":{"key":"08115","name":"Böblingen","type":"Landkreis"},"federalState":{"key":"08","name":"Baden-Württemberg"}},{"name":"Bürgergarten","postalCode":"94481","locality":"Grafenau","municipality":{"key":"09272120","name":"Grafenau, St","type":"Stadt"},"district":{"key":"09272","name":"Freyung-Grafenau","type":"Landkreis"},"federalState":{"key":"09","name":"Bayern"}},{"name":"Burschelweg","postalCode":"71120","locality":"Grafenau","municipality":{"key":"08115054","name":"Grafenau","type":"Kreisangehörige_Gemeinde"},"district":{"key":"08115","name":"Böblingen","type":"Landkreis"},"federalState":{"key":"08","name":"Baden-Württemberg"}},{"name":"Bussardweg","postalCode":"71120","locality":"Grafenau","municipality":{"key":"08115054","name":"Grafenau","type":"Kreisangehörige_Gemeinde"},"district":{"key":"08115","name":"Böblingen","type":"Landkreis"},"federalState":{"key":"08","name":"Baden-Württemberg"}},{"name":"Dammstr.","postalCode":"71120","locality":"Grafenau","municipality":{"key":"08115054","name":"Grafenau","type":"Kreisangehörige_Gemeinde"},"district":{"key":"08115","name":"Böblingen","type":"Landkreis"},"federalState":{"key":"08","name":"Baden-Württemberg"}},{"name":"Dätzinger Str.","postalCode":"71120","locality":"Grafenau","municipality":{"key":"08115054","name":"Grafenau","type":"Kreisangehörige_Gemeinde"},"district":{"key":"08115","name":"Böblingen","type":"Landkreis"},"federalState":{"key":"08","name":"Baden-Württemberg"}},{"name":"Dobelstr.","postalCode":"94481","locality":"Grafenau","municipality":{"key":"09272120","name":"Grafenau, St","type":"Stadt"},"district":{"key":"09272","name":"Freyung-Grafenau","type":"Landkreis"},"federalState":{"key":"09","name":"Bayern"}},{"name":"Doblstr.","postalCode":"94481","locality":"Grafenau","municipality":{"key":"09272120","name":"Grafenau, St","type":"Stadt"},"district":{"key":"09272","name":"Freyung-Grafenau","type":"Landkreis"},"federalState":{"key":"09","name":"Bayern"}},{"name":"Döffinger Str.","postalCode":"71120","locality":"Grafenau","municipality":{"key":"08115054","name":"Grafenau","type":"Kreisangehörige_Gemeinde"},"district":{"key":"08115","name":"Böblingen","type":"Landkreis"},"federalState":{"key":"08","name":"Baden-Württemberg"}},{"name":"Drosselweg","postalCode":"71120","locality":"Grafenau","municipality":{"key":"08115054","name":"Grafenau","type":"Kreisangehörige_Gemeinde"},"district":{"key":"08115","name":"Böblingen","type":"Landkreis"},"federalState":{"key":"08","name":"Baden-Württemberg"}},{"name":"Eberhardstr.","postalCode":"71120","locality":"Grafenau","municipality":{"key":"08115054","name":"Grafenau","type":"Kreisangehörige_Gemeinde"},"district":{"key":"08115","name":"Böblingen","type":"Landkreis"},"federalState":{"key":"08","name":"Baden-Württemberg"}},{"name":"Eichenweg","postalCode":"71120","locality":"Grafenau","municipality":{"key":"08115054","name":"Grafenau","type":"Kreisangehörige_Gemeinde"},"district":{"key":"08115","name":"Böblingen","type":"Landkreis"},"federalState":{"key":"08","name":"Baden-Württemberg"}},{"name":"Elsterweg","postalCode":"71120","locality":"Grafenau","municipality":{"key":"08115054","name":"Grafenau","type":"Kreisangehörige_Gemeinde"},"district":{"key":"08115","name":"Böblingen","type":"Landkreis"},"federalState":{"key":"08","name":"Baden-Württemberg"}},{"name":"Emezer Weg","postalCode":"71120","locality":"Grafenau","municipality":{"key":"08115054","name":"Grafenau","type":"Kreisangehörige_Gemeinde"},"district":{"key":"08115","name":"Böblingen","type":"Landkreis"},"federalState":{"key":"08","name":"Baden-Württemberg"}},{"name":"Ettlmühle","postalCode":"94481","locality":"Grafenau","municipality":{"key":"09272120","name":"Grafenau, St","type":"Stadt"},"district":{"key":"09272","name":"Freyung-Grafenau","type":"Landkreis"},"federalState":{"key":"09","name":"Bayern"}},{"name":"Falkenweg","postalCode":"71120","locality":"Grafenau","municipality":{"key":"08115054","name":"Grafenau","type":"Kreisangehörige_Gemeinde"},"district":{"key":"08115","name":"Böblingen","type":"Landkreis"},"federalState":{"key":"08","name":"Baden-Württemberg"}},{"name":"Finkenweg","postalCode":"71120","locality":"Grafenau","municipality":{"key":"08115054","name":"Grafenau","type":"Kreisangehörige_Gemeinde"},"district":{"key":"08115","name":"Böblingen","type":"Landkreis"},"federalState":{"key":"08","name":"Baden-Württemberg"}},{"name":"Finkenweg","postalCode":"94481","locality":"Grafenau","municipality":{"key":"09272120","name":"Grafenau, St","type":"Stadt"},"district":{"key":"09272","name":"Freyung-Grafenau","type":"Landkreis"},"federalState":{"key":"09","name":"Bayern"}},{"name":"Forchenweg","postalCode":"71120","locality":"Grafenau","municipality":{"key":"08115054","name":"Grafenau","type":"Kreisangehörige_Gemeinde"},"district":{"key":"08115","name":"Böblingen","type":"Landkreis"},"federalState":{"key":"08","name":"Baden-Württemberg"}},{"name":"Freudenhain","postalCode":"94481","locality":"Grafenau","municipality":{"key":"09272120","name":"Grafenau, St","type":"Stadt"},"district":{"key":"09272","name":"Freyung-Grafenau","type":"Landkreis"},"federalState":{"key":"09","name":"Bayern"}},{"name":"Freyunger Str.","postalCode":"94481","locality":"Grafenau","municipality":{"key":"09272120","name":"Grafenau, St","type":"Stadt"},"district":{"key":"09272","name":"Freyung-Grafenau","type":"Landkreis"},"federalState":{"key":"09","name":"Bayern"}},{"name":"Friedhofstr.","postalCode":"94481","locality":"Grafenau","municipality":{"key":"09272120","name":"Grafenau, St","type":"Stadt"},"district":{"key":"09272","name":"Freyung-Grafenau","type":"Landkreis"},"federalState":{"key":"09","name":"Bayern"}},{"name":"Furth","postalCode":"94481","locality":"Grafenau","municipality":{"key":"09272120","name":"Grafenau, St","type":"Stadt"},"district":{"key":"09272","name":"Freyung-Grafenau","type":"Landkreis"},"federalState":{"key":"09","name":"Bayern"}},{"name":"Further Str.","postalCode":"94481","locality":"Grafenau","municipality":{"key":"09272120","name":"Grafenau, St","type":"Stadt"},"district":{"key":"09272","name":"Freyung-Grafenau","type":"Landkreis"},"federalState":{"key":"09","name":"Bayern"}},{"name":"Garbenbinderweg","postalCode":"94481","locality":"Grafenau","municipality":{"key":"09272120","name":"Grafenau, St","type":"Stadt"},"district":{"key":"09272","name":"Freyung-Grafenau","type":"Landkreis"},"federalState":{"key":"09","name":"Bayern"}},{"name":"Garnfeld","postalCode":"94481","locality":"Grafenau","municipality":{"key":"09272120","name":"Grafenau, St","type":"Stadt"},"district":{"key":"09272","name":"Freyung-Grafenau","type":"Landkreis"},"federalState":{"key":"09","name":"Bayern"}},{"name":"Gartenstr.","postalCode":"71120","locality":"Grafenau","municipality":{"key":"08115054","name":"Grafenau","type":"Kreisangehörige_Gemeinde"},"district":{"key":"08115","name":"Böblingen","type":"Landkreis"},"federalState":{"key":"08","name":"Baden-Württemberg"}},{"name":"Gartenstr.","postalCode":"94481","locality":"Grafenau","municipality":{"key":"09272120","name":"Grafenau, St","type":"Stadt"},"district":{"key":"09272","name":"Freyung-Grafenau","type":"Landkreis"},"federalState":{"key":"09","name":"Bayern"}},{"name":"Geishauweg","postalCode":"71120","locality":"Grafenau","municipality":{"key":"08115054","name":"Grafenau","type":"Kreisangehörige_Gemeinde"},"district":{"key":"08115","name":"Böblingen","type":"Landkreis"},"federalState":{"key":"08","name":"Baden-Württemberg"}},{"name":"Georgenweg","postalCode":"94481","locality":"Grafenau","municipality":{"key":"09272120","name":"Grafenau, St","type":"Stadt"},"district":{"key":"09272","name":"Freyung-Grafenau","type":"Landkreis"},"federalState":{"key":"09","name":"Bayern"}},{"name":"Gerberaweg","postalCode":"94481","locality":"Grafenau","municipality":{"key":"09272120","name":"Grafenau, St","type":"Stadt"},"district":{"key":"09272","name":"Freyung-Grafenau","type":"Landkreis"},"federalState":{"key":"09","name":"Bayern"}},{"name":"Gerhart-Hauptmann-Weg","postalCode":"71120","locality":"Grafenau","municipality":{"key":"08115054","name":"Grafenau","type":"Kreisangehörige_Gemeinde"},"district":{"key":"08115","name":"Böblingen","type":"Landkreis"},"federalState":{"key":"08","name":"Baden-Württemberg"}},{"name":"Gerstenacker","postalCode":"94481","locality":"Grafenau","municipality":{"key":"09272120","name":"Grafenau, St","type":"Stadt"},"district":{"key":"09272","name":"Freyung-Grafenau","type":"Landkreis"},"federalState":{"key":"09","name":"Bayern"}},{"name":"Getreideweg","postalCode":"94481","locality":"Grafenau","municipality":{"key":"09272120","name":"Grafenau, St","type":"Stadt"},"district":{"key":"09272","name":"Freyung-Grafenau","type":"Landkreis"},"federalState":{"key":"09","name":"Bayern"}},{"name":"Giegelöd","postalCode":"94481","locality":"Grafenau","municipality":{"key":"09272120","name":"Grafenau, St","type":"Stadt"},"district":{"key":"09272","name":"Freyung-Grafenau","type":"Landkreis"},"federalState":{"key":"09","name":"Bayern"}},{"name":"Ginstersteig","postalCode":"94481","locality":"Grafenau","municipality":{"key":"09272120","name":"Grafenau, St","type":"Stadt"},"district":{"key":"09272","name":"Freyung-Grafenau","type":"Landkreis"},"federalState":{"key":"09","name":"Bayern"}},{"name":"Gladiolenweg","postalCode":"94481","locality":"Grafenau","municipality":{"key":"09272120","name":"Grafenau, St","type":"Stadt"},"district":{"key":"09272","name":"Freyung-Grafenau","type":"Landkreis"},"federalState":{"key":"09","name":"Bayern"}},{"name":"Glashüttensteig","postalCode":"94481","locality":"Grafenau","municipality":{"key":"09272120","name":"Grafenau, St","type":"Stadt"},"district":{"key":"09272","name":"Freyung-Grafenau","type":"Landkreis"},"federalState":{"key":"09","name":"Bayern"}},{"name":"Glockenweg","postalCode":"94481","locality":"Grafenau","municipality":{"key":"09272120","name":"Grafenau, St","type":"Stadt"},"district":{"key":"09272","name":"Freyung-Grafenau","type":"Landkreis"},"federalState":{"key":"09","name":"Bayern"}},{"name":"Gneisweg","postalCode":"94481","locality":"Grafenau","municipality":{"key":"09272120","name":"Grafenau, St","type":"Stadt"},"district":{"key":"09272","name":"Freyung-Grafenau","type":"Landkreis"},"federalState":{"key":"09","name":"Bayern"}},{"name":"Goethestr.","postalCode":"71120","locality":"Grafenau","municipality":{"key":"08115054","name":"Grafenau","type":"Kreisangehörige_Gemeinde"},"district":{"key":"08115","name":"Böblingen","type":"Landkreis"},"federalState":{"key":"08","name":"Baden-Württemberg"}},{"name":"Goldammerweg","postalCode":"94481","locality":"Grafenau","municipality":{"key":"09272120","name":"Grafenau, St","type":"Stadt"},"district":{"key":"09272","name":"Freyung-Grafenau","type":"Landkreis"},"federalState":{"key":"09","name":"Bayern"}},{"name":"Goldrautenweg","postalCode":"94481","locality":"Grafenau","municipality":{"key":"09272120","name":"Grafenau, St","type":"Stadt"},"district":{"key":"09272","name":"Freyung-Grafenau","type":"Landkreis"},"federalState":{"key":"09","name":"Bayern"}},{"name":"Gottsackerweg","postalCode":"94481","locality":"Grafenau","municipality":{"key":"09272120","name":"Grafenau, St","type":"Stadt"},"district":{"key":"09272","name":"Freyung-Grafenau","type":"Landkreis"},"federalState":{"key":"09","name":"Bayern"}},{"name":"Graben","postalCode":"94481","locality":"Grafenau","municipality":{"key":"09272120","name":"Grafenau, St","type":"Stadt"},"district":{"key":"09272","name":"Freyung-Grafenau","type":"Landkreis"},"federalState":{"key":"09","name":"Bayern"}},{"name":"Granitweg","postalCode":"94481","locality":"Grafenau","municipality":{"key":"09272120","name":"Grafenau, St","type":"Stadt"},"district":{"key":"09272","name":"Freyung-Grafenau","type":"Landkreis"},"federalState":{"key":"09","name":"Bayern"}},{"name":"Große Leite","postalCode":"94481","locality":"Grafenau","municipality":{"key":"09272120","name":"Grafenau, St","type":"Stadt"},"district":{"key":"09272","name":"Freyung-Grafenau","type":"Landkreis"},"federalState":{"key":"09","name":"Bayern"}},{"name":"Grüber Str.","postalCode":"94481","locality":"Grafenau","municipality":{"key":"09272120","name":"Grafenau, St","type":"Stadt"},"district":{"key":"09272","name":"Freyung-Grafenau","type":"Landkreis"},"federalState":{"key":"09","name":"Bayern"}},{"name":"Guldenstr.","postalCode":"94481","locality":"Grafenau","municipality":{"key":"09272120","name":"Grafenau, St","type":"Stadt"},"district":{"key":"09272","name":"Freyung-Grafenau","type":"Landkreis"},"federalState":{"key":"09","name":"Bayern"}},{"name":"Gunterstr.","postalCode":"94481","locality":"Grafenau","municipality":{"key":"09272120","name":"Grafenau, St","type":"Stadt"},"district":{"key":"09272","name":"Freyung-Grafenau","type":"Landkreis"},"federalState":{"key":"09","name":"Bayern"}},{"name":"Gutenbergstr.","postalCode":"71120","locality":"Grafenau","municipality":{"key":"08115054","name":"Grafenau","type":"Kreisangehörige_Gemeinde"},"district":{"key":"08115","name":"Böblingen","type":"Landkreis"},"federalState":{"key":"08","name":"Baden-Württemberg"}},{"name":"Habichtstr.","postalCode":"94481","locality":"Grafenau","municipality":{"key":"09272120","name":"Grafenau, St","type":"Stadt"},"district":{"key":"09272","name":"Freyung-Grafenau","type":"Landkreis"},"federalState":{"key":"09","name":"Bayern"}},{"name":"Haferfeld","postalCode":"94481","locality":"Grafenau","municipality":{"key":"09272120","name":"Grafenau, St","type":"Stadt"},"district":{"key":"09272","name":"Freyung-Grafenau","type":"Landkreis"},"federalState":{"key":"09","name":"Bayern"}},{"name":"Halmacker","postalCode":"94481","locality":"Grafenau","municipality":{"key":"09272120","name":"Grafenau, St","type":"Stadt"},"district":{"key":"09272","name":"Freyung-Grafenau","type":"Landkreis"},"federalState":{"key":"09","name":"Bayern"}},{"name":"Hambergweg","postalCode":"71120","locality":"Grafenau","municipality":{"key":"08115054","name":"Grafenau","type":"Kreisangehörige_Gemeinde"},"district":{"key":"08115","name":"Böblingen","type":"Landkreis"},"federalState":{"key":"08","name":"Baden-Württemberg"}},{"name":"Hangstr.","postalCode":"94481","locality":"Grafenau","municipality":{"key":"09272120","name":"Grafenau, St","type":"Stadt"},"district":{"key":"09272","name":"Freyung-Grafenau","type":"Landkreis"},"federalState":{"key":"09","name":"Bayern"}},{"name":"Hans-Kudlich-Str.","postalCode":"71120","locality":"Grafenau","municipality":{"key":"08115054","name":"Grafenau","type":"Kreisangehörige_Gemeinde"},"district":{"key":"08115","name":"Böblingen","type":"Landkreis"},"federalState":{"key":"08","name":"Baden-Württemberg"}},{"name":"Harretsreuth","postalCode":"94481","locality":"Grafenau","municipality":{"key":"09272120","name":"Grafenau, St","type":"Stadt"},"district":{"key":"09272","name":"Freyung-Grafenau","type":"Landkreis"},"federalState":{"key":"09","name":"Bayern"}},{"name":"Harschetsreuth","postalCode":"94481","locality":"Grafenau","municipality":{"key":"09272120","name":"Grafenau, St","type":"Stadt"},"district":{"key":"09272","name":"Freyung-Grafenau","type":"Landkreis"},"federalState":{"key":"09","name":"Bayern"}},{"name":"Hartauerstr.","postalCode":"94481","locality":"Grafenau","municipality":{"key":"09272120","name":"Grafenau, St","type":"Stadt"},"district":{"key":"09272","name":"Freyung-Grafenau","type":"Landkreis"},"federalState":{"key":"09","name":"Bayern"}},{"name":"Haselbacher Str.","postalCode":"94481","locality":"Grafenau","municipality":{"key":"09272120","name":"Grafenau, St","type":"Stadt"},"district":{"key":"09272","name":"Freyung-Grafenau","type":"Landkreis"},"federalState":{"key":"09","name":"Bayern"}},{"name":"Hasenweg","postalCode":"94481","locality":"Grafenau","municipality":{"key":"09272120","name":"Grafenau, St","type":"Stadt"},"district":{"key":"09272","name":"Freyung-Grafenau","type":"Landkreis"},"federalState":{"key":"09","name":"Bayern"}},{"name":"Haslerweg","postalCode":"94481","locality":"Grafenau","municipality":{"key":"09272120","name":"Grafenau, St","type":"Stadt"},"district":{"key":"09272","name":"Freyung-Grafenau","type":"Landkreis"},"federalState":{"key":"09","name":"Bayern"}},{"name":"Hauffstr.","postalCode":"71120","locality":"Grafenau","municipality":{"key":"08115054","name":"Grafenau","type":"Kreisangehörige_Gemeinde"},"district":{"key":"08115","name":"Böblingen","type":"Landkreis"},"federalState":{"key":"08","name":"Baden-Württemberg"}},{"name":"Hauptstr.","postalCode":"94481","locality":"Grafenau","municipality":{"key":"09272120","name":"Grafenau, St","type":"Stadt"},"district":{"key":"09272","name":"Freyung-Grafenau","type":"Landkreis"},"federalState":{"key":"09","name":"Bayern"}},{"name":"Heckenweg","postalCode":"71120","locality":"Grafenau","municipality":{"key":"08115054","name":"Grafenau","type":"Kreisangehörige_Gemeinde"},"district":{"key":"08115","name":"Böblingen","type":"Landkreis"},"federalState":{"key":"08","name":"Baden-Württemberg"}},{"name":"Heinrich-Heine-Weg","postalCode":"71120","locality":"Grafenau","municipality":{"key":"08115054","name":"Grafenau","type":"Kreisangehörige_Gemeinde"},"district":{"key":"08115","name":"Böblingen","type":"Landkreis"},"federalState":{"key":"08","name":"Baden-Württemberg"}},{"name":"Heinrichstr.","postalCode":"94481","locality":"Grafenau","municipality":{"key":"09272120","name":"Grafenau, St","type":"Stadt"},"district":{"key":"09272","name":"Freyung-Grafenau","type":"Landkreis"},"federalState":{"key":"09","name":"Bayern"}},{"name":"Hermann-Hesse-Weg","postalCode":"71120","locality":"Grafenau","municipality":{"key":"08115054","name":"Grafenau","type":"Kreisangehörige_Gemeinde"},"district":{"key":"08115","name":"Böblingen","type":"Landkreis"},"federalState":{"key":"08","name":"Baden-Württemberg"}},{"name":"Heuweg","postalCode":"94481","locality":"Grafenau","municipality":{"key":"09272120","name":"Grafenau, St","type":"Stadt"},"district":{"key":"09272","name":"Freyung-Grafenau","type":"Landkreis"},"federalState":{"key":"09","name":"Bayern"}},{"name":"Hintere Gasse","postalCode":"71120","locality":"Grafenau","municipality":{"key":"08115054","name":"Grafenau","type":"Kreisangehörige_Gemeinde"},"district":{"key":"08115","name":"Böblingen","type":"Landkreis"},"federalState":{"key":"08","name":"Baden-Württemberg"}},{"name":"Hinter Lehen","postalCode":"71120","locality":"Grafenau","municipality":{"key":"08115054","name":"Grafenau","type":"Kreisangehörige_Gemeinde"},"district":{"key":"08115","name":"Böblingen","type":"Landkreis"},"federalState":{"key":"08","name":"Baden-Württemberg"}},{"name":"Hirschplan","postalCode":"71120","locality":"Grafenau","municipality":{"key":"08115054","name":"Grafenau","type":"Kreisangehörige_Gemeinde"},"district":{"key":"08115","name":"Böblingen","type":"Landkreis"},"federalState":{"key":"08","name":"Baden-Württemberg"}},{"name":"Hochstr.","postalCode":"94481","locality":"Grafenau","municipality":{"key":"09272120","name":"Grafenau, St","type":"Stadt"},"district":{"key":"09272","name":"Freyung-Grafenau","type":"Landkreis"},"federalState":{"key":"09","name":"Bayern"}},{"name":"Hochwürden-Leeb-Str.","postalCode":"94481","locality":"Grafenau","municipality":{"key":"09272120","name":"Grafenau, St","type":"Stadt"},"district":{"key":"09272","name":"Freyung-Grafenau","type":"Landkreis"},"federalState":{"key":"09","name":"Bayern"}},{"name":"Hofäcker","postalCode":"94481","locality":"Grafenau","municipality":{"key":"09272120","name":"Grafenau, St","type":"Stadt"},"district":{"key":"09272","name":"Freyung-Grafenau","type":"Landkreis"},"federalState":{"key":"09","name":"Bayern"}},{"name":"Hofmark","postalCode":"94481","locality":"Grafenau","municipality":{"key":"09272120","name":"Grafenau, St","type":"Stadt"},"district":{"key":"09272","name":"Freyung-Grafenau","type":"Landkreis"},"federalState":{"key":"09","name":"Bayern"}},{"name":"Hofstetten","postalCode":"71120","locality":"Grafenau","municipality":{"key":"08115054","name":"Grafenau","type":"Kreisangehörige_Gemeinde"},"district":{"key":"08115","name":"Böblingen","type":"Landkreis"},"federalState":{"key":"08","name":"Baden-Württemberg"}},{"name":"Hölderlinweg","postalCode":"71120","locality":"Grafenau","municipality":{"key":"08115054","name":"Grafenau","type":"Kreisangehörige_Gemeinde"},"district":{"key":"08115","name":"Böblingen","type":"Landkreis"},"federalState":{"key":"08","name":"Baden-Württemberg"}},{"name":"Holundersteig","postalCode":"94481","locality":"Grafenau","municipality":{"key":"09272120","name":"Grafenau, St","type":"Stadt"},"district":{"key":"09272","name":"Freyung-Grafenau","type":"Landkreis"},"federalState":{"key":"09","name":"Bayern"}},{"name":"Im Auinger","postalCode":"71120","locality":"Grafenau","municipality":{"key":"08115054","name":"Grafenau","type":"Kreisangehörige_Gemeinde"},"district":{"key":"08115","name":"Böblingen","type":"Landkreis"},"federalState":{"key":"08","name":"Baden-Württemberg"}},{"name":"Im Flöschle","postalCode":"71120","locality":"Grafenau","municipality":{"key":"08115054","name":"Grafenau","type":"Kreisangehörige_Gemeinde"},"district":{"key":"08115","name":"Böblingen","type":"Landkreis"},"federalState":{"key":"08","name":"Baden-Württemberg"}},{"name":"Im Gässle","postalCode":"71120","locality":"Grafenau","municipality":{"key":"08115054","name":"Grafenau","type":"Kreisangehörige_Gemeinde"},"district":{"key":"08115","name":"Böblingen","type":"Landkreis"},"federalState":{"key":"08","name":"Baden-Württemberg"}},{"name":"Im Gressental","postalCode":"71120","locality":"Grafenau","municipality":{"key":"08115054","name":"Grafenau","type":"Kreisangehörige_Gemeinde"},"district":{"key":"08115","name":"Böblingen","type":"Landkreis"},"federalState":{"key":"08","name":"Baden-Württemberg"}},{"name":"Im Hörlen","postalCode":"71120","locality":"Grafenau","municipality":{"key":"08115054","name":"Grafenau","type":"Kreisangehörige_Gemeinde"},"district":{"key":"08115","name":"Böblingen","type":"Landkreis"},"federalState":{"key":"08","name":"Baden-Württemberg"}},{"name":"Im Mittenbühl","postalCode":"71120","locality":"Grafenau","municipality":{"key":"08115054","name":"Grafenau","type":"Kreisangehörige_Gemeinde"},"district":{"key":"08115","name":"Böblingen","type":"Landkreis"},"federalState":{"key":"08","name":"Baden-Württemberg"}},{"name":"Im Stolzen","postalCode":"71120","locality":"Grafenau","municipality":{"key":"08115054","name":"Grafenau","type":"Kreisangehörige_Gemeinde"},"district":{"key":"08115","name":"Böblingen","type":"Landkreis"},"federalState":{"key":"08","name":"Baden-Württemberg"}},{"name":"In der Röte","postalCode":"71120","locality":"Grafenau","municipality":{"key":"08115054","name":"Grafenau","type":"Kreisangehörige_Gemeinde"},"district":{"key":"08115","name":"Böblingen","type":"Landkreis"},"federalState":{"key":"08","name":"Baden-Württemberg"}},{"name":"Jahnstr.","postalCode":"71120","locality":"Grafenau","municipality":{"key":"08115054","name":"Grafenau","type":"Kreisangehörige_Gemeinde"},"district":{"key":"08115","name":"Böblingen","type":"Landkreis"},"federalState":{"key":"08","name":"Baden-Württemberg"}},{"name":"Johann-Peter-Hebel-Weg","postalCode":"71120","locality":"Grafenau","municipality":{"key":"08115054","name":"Grafenau","type":"Kreisangehörige_Gemeinde"},"district":{"key":"08115","name":"Böblingen","type":"Landkreis"},"federalState":{"key":"08","name":"Baden-Württemberg"}},{"name":"Josef-Buchinger Str.","postalCode":"94481","locality":"Grafenau","municipality":{"key":"09272120","name":"Grafenau, St","type":"Stadt"},"district":{"key":"09272","name":"Freyung-Grafenau","type":"Landkreis"},"federalState":{"key":"09","name":"Bayern"}},{"name":"Kapellenbergstr.","postalCode":"71120","locality":"Grafenau","municipality":{"key":"08115054","name":"Grafenau","type":"Kreisangehörige_Gemeinde"},"district":{"key":"08115","name":"Böblingen","type":"Landkreis"},"federalState":{"key":"08","name":"Baden-Württemberg"}},{"name":"Kapellenweg","postalCode":"71120","locality":"Grafenau","municipality":{"key":"08115054","name":"Grafenau","type":"Kreisangehörige_Gemeinde"},"district":{"key":"08115","name":"Böblingen","type":"Landkreis"},"federalState":{"key":"08","name":"Baden-Württemberg"}},{"name":"Karlstr.","postalCode":"94481","locality":"Grafenau","municipality":{"key":"09272120","name":"Grafenau, St","type":"Stadt"},"district":{"key":"09272","name":"Freyung-Grafenau","type":"Landkreis"},"federalState":{"key":"09","name":"Bayern"}},{"name":"Kernerstr.","postalCode":"71120","locality":"Grafenau","municipality":{"key":"08115054","name":"Grafenau","type":"Kreisangehörige_Gemeinde"},"district":{"key":"08115","name":"Böblingen","type":"Landkreis"},"federalState":{"key":"08","name":"Baden-Württemberg"}},{"name":"Kirchensteig","postalCode":"94481","locality":"Grafenau","municipality":{"key":"09272120","name":"Grafenau, St","type":"Stadt"},"district":{"key":"09272","name":"Freyung-Grafenau","type":"Landkreis"},"federalState":{"key":"09","name":"Bayern"}},{"name":"Kirchstr.","postalCode":"71120","locality":"Grafenau","municipality":{"key":"08115054","name":"Grafenau","type":"Kreisangehörige_Gemeinde"},"district":{"key":"08115","name":"Böblingen","type":"Landkreis"},"federalState":{"key":"08","name":"Baden-Württemberg"}},{"name":"Kirchstr.","postalCode":"94481","locality":"Grafenau","municipality":{"key":"09272120","name":"Grafenau, St","type":"Stadt"},"district":{"key":"09272","name":"Freyung-Grafenau","type":"Landkreis"},"federalState":{"key":"09","name":"Bayern"}},{"name":"Klingenweg","postalCode":"71120","locality":"Grafenau","municipality":{"key":"08115054","name":"Grafenau","type":"Kreisangehörige_Gemeinde"},"district":{"key":"08115","name":"Böblingen","type":"Landkreis"},"federalState":{"key":"08","name":"Baden-Württemberg"}},{"name":"Klosterweg","postalCode":"94481","locality":"Grafenau","municipality":{"key":"09272120","name":"Grafenau, St","type":"Stadt"},"district":{"key":"09272","name":"Freyung-Grafenau","type":"Landkreis"},"federalState":{"key":"09","name":"Bayern"}},{"name":"Koeppelstr.","postalCode":"94481","locality":"Grafenau","municipality":{"key":"09272120","name":"Grafenau, St","type":"Stadt"},"district":{"key":"09272","name":"Freyung-Grafenau","type":"Landkreis"},"federalState":{"key":"09","name":"Bayern"}},{"name":"Krähenweg","postalCode":"71120","locality":"Grafenau","municipality":{"key":"08115054","name":"Grafenau","type":"Kreisangehörige_Gemeinde"},"district":{"key":"08115","name":"Böblingen","type":"Landkreis"},"federalState":{"key":"08","name":"Baden-Württemberg"}},{"name":"Kreuzberger Weg","postalCode":"94481","locality":"Grafenau","municipality":{"key":"09272120","name":"Grafenau, St","type":"Stadt"},"district":{"key":"09272","name":"Freyung-Grafenau","type":"Landkreis"},"federalState":{"key":"09","name":"Bayern"}},{"name":"Kreuzbergweg","postalCode":"71120","locality":"Grafenau","municipality":{"key":"08115054","name":"Grafenau","type":"Kreisangehörige_Gemeinde"},"district":{"key":"08115","name":"Böblingen","type":"Landkreis"},"federalState":{"key":"08","name":"Baden-Württemberg"}},{"name":"Kröllstr.","postalCode":"94481","locality":"Grafenau","municipality":{"key":"09272120","name":"Grafenau, St","type":"Stadt"},"district":{"key":"09272","name":"Freyung-Grafenau","type":"Landkreis"},"federalState":{"key":"09","name":"Bayern"}},{"name":"Kuhwaldweg","postalCode":"71120","locality":"Grafenau","municipality":{"key":"08115054","name":"Grafenau","type":"Kreisangehörige_Gemeinde"},"district":{"key":"08115","name":"Böblingen","type":"Landkreis"},"federalState":{"key":"08","name":"Baden-Württemberg"}},{"name":"KurErlebnispark BÄREAL","postalCode":"94481","locality":"Grafenau","municipality":{"key":"09272120","name":"Grafenau, St","type":"Stadt"},"district":{"key":"09272","name":"Freyung-Grafenau","type":"Landkreis"},"federalState":{"key":"09","name":"Bayern"}},{"name":"Landhausstr.","postalCode":"71120","locality":"Grafenau","municipality":{"key":"08115054","name":"Grafenau","type":"Kreisangehörige_Gemeinde"},"district":{"key":"08115","name":"Böblingen","type":"Landkreis"},"federalState":{"key":"08","name":"Baden-Württemberg"}},{"name":"Leitenstr.","postalCode":"94481","locality":"Grafenau","municipality":{"key":"09272120","name":"Grafenau, St","type":"Stadt"},"district":{"key":"09272","name":"Freyung-Grafenau","type":"Landkreis"},"federalState":{"key":"09","name":"Bayern"}},{"name":"Lerchenweg","postalCode":"71120","locality":"Grafenau","municipality":{"key":"08115054","name":"Grafenau","type":"Kreisangehörige_Gemeinde"},"district":{"key":"08115","name":"Böblingen","type":"Landkreis"},"federalState":{"key":"08","name":"Baden-Württemberg"}},{"name":"Leuchtenbergerweg","postalCode":"94481","locality":"Grafenau","municipality":{"key":"09272120","name":"Grafenau, St","type":"Stadt"},"district":{"key":"09272","name":"Freyung-Grafenau","type":"Landkreis"},"federalState":{"key":"09","name":"Bayern"}},{"name":"Liebersberger Str.","postalCode":"94481","locality":"Grafenau","municipality":{"key":"09272120","name":"Grafenau, St","type":"Stadt"},"district":{"key":"09272","name":"Freyung-Grafenau","type":"Landkreis"},"federalState":{"key":"09","name":"Bayern"}},{"name":"Lindenweg","postalCode":"71120","locality":"Grafenau","municipality":{"key":"08115054","name":"Grafenau","type":"Kreisangehörige_Gemeinde"},"district":{"key":"08115","name":"Böblingen","type":"Landkreis"},"federalState":{"key":"08","name":"Baden-Württemberg"}},{"name":"Lusenstr.","postalCode":"94481","locality":"Grafenau","municipality":{"key":"09272120","name":"Grafenau, St","type":"Stadt"},"district":{"key":"09272","name":"Freyung-Grafenau","type":"Landkreis"},"federalState":{"key":"09","name":"Bayern"}},{"name":"Magstädter Weg","postalCode":"71120","locality":"Grafenau","municipality":{"key":"08115054","name":"Grafenau","type":"Kreisangehörige_Gemeinde"},"district":{"key":"08115","name":"Böblingen","type":"Landkreis"},"federalState":{"key":"08","name":"Baden-Württemberg"}},{"name":"Maichinger Str.","postalCode":"71120","locality":"Grafenau","municipality":{"key":"08115054","name":"Grafenau","type":"Kreisangehörige_Gemeinde"},"district":{"key":"08115","name":"Böblingen","type":"Landkreis"},"federalState":{"key":"08","name":"Baden-Württemberg"}},{"name":"Malmsheimer Weg","postalCode":"71120","locality":"Grafenau","municipality":{"key":"08115054","name":"Grafenau","type":"Kreisangehörige_Gemeinde"},"district":{"key":"08115","name":"Böblingen","type":"Landkreis"},"federalState":{"key":"08","name":"Baden-Württemberg"}},{"name":"Malteserstr.","postalCode":"71120","locality":"Grafenau","municipality":{"key":"08115054","name":"Grafenau","type":"Kreisangehörige_Gemeinde"},"district":{"key":"08115","name":"Böblingen","type":"Landkreis"},"federalState":{"key":"08","name":"Baden-Württemberg"}},{"name":"Martin Luther Str.","postalCode":"94481","locality":"Grafenau","municipality":{"key":"09272120","name":"Grafenau, St","type":"Stadt"},"district":{"key":"09272","name":"Freyung-Grafenau","type":"Landkreis"},"federalState":{"key":"09","name":"Bayern"}},{"name":"Meisenweg","postalCode":"71120","locality":"Grafenau","municipality":{"key":"08115054","name":"Grafenau","type":"Kreisangehörige_Gemeinde"},"district":{"key":"08115","name":"Böblingen","type":"Landkreis"},"federalState":{"key":"08","name":"Baden-Württemberg"}},{"name":"Mercedesstr.","postalCode":"71120","locality":"Grafenau","municipality":{"key":"08115054","name":"Grafenau","type":"Kreisangehörige_Gemeinde"},"district":{"key":"08115","name":"Böblingen","type":"Landkreis"},"federalState":{"key":"08","name":"Baden-Württemberg"}},{"name":"Moosweg","postalCode":"94481","locality":"Grafenau","municipality":{"key":"09272120","name":"Grafenau, St","type":"Stadt"},"district":{"key":"09272","name":"Freyung-Grafenau","type":"Landkreis"},"federalState":{"key":"09","name":"Bayern"}},{"name":"Mospurgerstr.","postalCode":"94481","locality":"Grafenau","municipality":{"key":"09272120","name":"Grafenau, St","type":"Stadt"},"district":{"key":"09272","name":"Freyung-Grafenau","type":"Landkreis"},"federalState":{"key":"09","name":"Bayern"}},{"name":"Mühlgasse","postalCode":"71120","locality":"Grafenau","municipality":{"key":"08115054","name":"Grafenau","type":"Kreisangehörige_Gemeinde"},"district":{"key":"08115","name":"Böblingen","type":"Landkreis"},"federalState":{"key":"08","name":"Baden-Württemberg"}},{"name":"Neckenmarkter Weg","postalCode":"71120","locality":"Grafenau","municipality":{"key":"08115054","name":"Grafenau","type":"Kreisangehörige_Gemeinde"},"district":{"key":"08115","name":"Böblingen","type":"Landkreis"},"federalState":{"key":"08","name":"Baden-Württemberg"}},{"name":"Nelkenstr.","postalCode":"71120","locality":"Grafenau","municipality":{"key":"08115054","name":"Grafenau","type":"Kreisangehörige_Gemeinde"},"district":{"key":"08115","name":"Böblingen","type":"Landkreis"},"federalState":{"key":"08","name":"Baden-Württemberg"}},{"name":"Nelkenweg","postalCode":"94481","locality":"Grafenau","municipality":{"key":"09272120","name":"Grafenau, St","type":"Stadt"},"district":{"key":"09272","name":"Freyung-Grafenau","type":"Landkreis"},"federalState":{"key":"09","name":"Bayern"}},{"name":"Neue Mitte","postalCode":"71120","locality":"Grafenau","municipality":{"key":"08115054","name":"Grafenau","type":"Kreisangehörige_Gemeinde"},"district":{"key":"08115","name":"Böblingen","type":"Landkreis"},"federalState":{"key":"08","name":"Baden-Württemberg"}},{"name":"Neufeld","postalCode":"94481","locality":"Grafenau","municipality":{"key":"09272120","name":"Grafenau, St","type":"Stadt"},"district":{"key":"09272","name":"Freyung-Grafenau","type":"Landkreis"},"federalState":{"key":"09","name":"Bayern"}},{"name":"Neulandweg","postalCode":"71120","locality":"Grafenau","municipality":{"key":"08115054","name":"Grafenau","type":"Kreisangehörige_Gemeinde"},"district":{"key":"08115","name":"Böblingen","type":"Landkreis"},"federalState":{"key":"08","name":"Baden-Württemberg"}},{"name":"Neuwiesenweg","postalCode":"94481","locality":"Grafenau","municipality":{"key":"09272120","name":"Grafenau, St","type":"Stadt"},"district":{"key":"09272","name":"Freyung-Grafenau","type":"Landkreis"},"federalState":{"key":"09","name":"Bayern"}},{"name":"Nordweg","postalCode":"94481","locality":"Grafenau","municipality":{"key":"09272120","name":"Grafenau, St","type":"Stadt"},"district":{"key":"09272","name":"Freyung-Grafenau","type":"Landkreis"},"federalState":{"key":"09","name":"Bayern"}},{"name":"Nr.:(4)","postalCode":"94481","locality":"Grafenau","municipality":{"key":"09272120","name":"Grafenau, St","type":"Stadt"},"district":{"key":"09272","name":"Freyung-Grafenau","type":"Landkreis"},"federalState":{"key":"09","name":"Bayern"}},{"name":"Nr.:4+5","postalCode":"94481","locality":"Grafenau","municipality":{"key":"09272120","name":"Grafenau, St","type":"Stadt"},"district":{"key":"09272","name":"Freyung-Grafenau","type":"Landkreis"},"federalState":{"key":"09","name":"Bayern"}},{"name":"Nußbaumweg","postalCode":"94481","locality":"Grafenau","municipality":{"key":"09272120","name":"Grafenau, St","type":"Stadt"},"district":{"key":"09272","name":"Freyung-Grafenau","type":"Landkreis"},"federalState":{"key":"09","name":"Bayern"}},{"name":"Obere Gasse","postalCode":"71120","locality":"Grafenau","municipality":{"key":"08115054","name":"Grafenau","type":"Kreisangehörige_Gemeinde"},"district":{"key":"08115","name":"Böblingen","type":"Landkreis"},"federalState":{"key":"08","name":"Baden-Württemberg"}},{"name":"Oberer Allmendhauweg","postalCode":"71120","locality":"Grafenau","municipality":{"key":"08115054","name":"Grafenau","type":"Kreisangehörige_Gemeinde"},"district":{"key":"08115","name":"Böblingen","type":"Landkreis"},"federalState":{"key":"08","name":"Baden-Württemberg"}},{"name":"Oheleiten","postalCode":"94481","locality":"Grafenau","municipality":{"key":"09272120","name":"Grafenau, St","type":"Stadt"},"district":{"key":"09272","name":"Freyung-Grafenau","type":"Landkreis"},"federalState":{"key":"09","name":"Bayern"}},{"name":"Ortenburgerweg","postalCode":"94481","locality":"Grafenau","municipality":{"key":"09272120","name":"Grafenau, St","type":"Stadt"},"district":{"key":"09272","name":"Freyung-Grafenau","type":"Landkreis"},"federalState":{"key":"09","name":"Bayern"}},{"name":"Pandurengasse","postalCode":"94481","locality":"Grafenau","municipality":{"key":"09272120","name":"Grafenau, St","type":"Stadt"},"district":{"key":"09272","name":"Freyung-Grafenau","type":"Landkreis"},"federalState":{"key":"09","name":"Bayern"}},{"name":"Pandurensteig","postalCode":"94481","locality":"Grafenau","municipality":{"key":"09272120","name":"Grafenau, St","type":"Stadt"},"district":{"key":"09272","name":"Freyung-Grafenau","type":"Landkreis"},"federalState":{"key":"09","name":"Bayern"}},{"name":"Parkweg","postalCode":"94481","locality":"Grafenau","municipality":{"key":"09272120","name":"Grafenau, St","type":"Stadt"},"district":{"key":"09272","name":"Freyung-Grafenau","type":"Landkreis"},"federalState":{"key":"09","name":"Bayern"}},{"name":"Perlesreuter Str.","postalCode":"94481","locality":"Grafenau","municipality":{"key":"09272120","name":"Grafenau, St","type":"Stadt"},"district":{"key":"09272","name":"Freyung-Grafenau","type":"Landkreis"},"federalState":{"key":"09","name":"Bayern"}},{"name":"Pfarrer-Rankl-Str.","postalCode":"94481","locality":"Grafenau","municipality":{"key":"09272120","name":"Grafenau, St","type":"Stadt"},"district":{"key":"09272","name":"Freyung-Grafenau","type":"Landkreis"},"federalState":{"key":"09","name":"Bayern"}},{"name":"Poppenhalde","postalCode":"71120","locality":"Grafenau","municipality":{"key":"08115054","name":"Grafenau","type":"Kreisangehörige_Gemeinde"},"district":{"key":"08115","name":"Böblingen","type":"Landkreis"},"federalState":{"key":"08","name":"Baden-Württemberg"}},{"name":"Querstr.","postalCode":"71120","locality":"Grafenau","municipality":{"key":"08115054","name":"Grafenau","type":"Kreisangehörige_Gemeinde"},"district":{"key":"08115","name":"Böblingen","type":"Landkreis"},"federalState":{"key":"08","name":"Baden-Württemberg"}},{"name":"Rachelweg","postalCode":"94481","locality":"Grafenau","municipality":{"key":"09272120","name":"Grafenau, St","type":"Stadt"},"district":{"key":"09272","name":"Freyung-Grafenau","type":"Landkreis"},"federalState":{"key":"09","name":"Bayern"}},{"name":"Rainacker","postalCode":"94481","locality":"Grafenau","municipality":{"key":"09272120","name":"Grafenau, St","type":"Stadt"},"district":{"key":"09272","name":"Freyung-Grafenau","type":"Landkreis"},"federalState":{"key":"09","name":"Bayern"}},{"name":"Rathausgasse","postalCode":"94481","locality":"Grafenau","municipality":{"key":"09272120","name":"Grafenau, St","type":"Stadt"},"district":{"key":"09272","name":"Freyung-Grafenau","type":"Landkreis"},"federalState":{"key":"09","name":"Bayern"}},{"name":"Rathausplatz","postalCode":"71120","locality":"Grafenau","municipality":{"key":"08115054","name":"Grafenau","type":"Kreisangehörige_Gemeinde"},"district":{"key":"08115","name":"Böblingen","type":"Landkreis"},"federalState":{"key":"08","name":"Baden-Württemberg"}},{"name":"Rebhuhnbogen","postalCode":"94481","locality":"Grafenau","municipality":{"key":"09272120","name":"Grafenau, St","type":"Stadt"},"district":{"key":"09272","name":"Freyung-Grafenau","type":"Landkreis"},"federalState":{"key":"09","name":"Bayern"}},{"name":"Rehtränke","postalCode":"94481","locality":"Grafenau","municipality":{"key":"09272120","name":"Grafenau, St","type":"Stadt"},"district":{"key":"09272","name":"Freyung-Grafenau","type":"Landkreis"},"federalState":{"key":"09","name":"Bayern"}},{"name":"Roggenfeld","postalCode":"94481","locality":"Grafenau","municipality":{"key":"09272120","name":"Grafenau, St","type":"Stadt"},"district":{"key":"09272","name":"Freyung-Grafenau","type":"Landkreis"},"federalState":{"key":"09","name":"Bayern"}},{"name":"Rosenau","postalCode":"94481","locality":"Grafenau","municipality":{"key":"09272120","name":"Grafenau, St","type":"Stadt"},"district":{"key":"09272","name":"Freyung-Grafenau","type":"Landkreis"},"federalState":{"key":"09","name":"Bayern"}},{"name":"Rosenauer Str.","postalCode":"94481","locality":"Grafenau","municipality":{"key":"09272120","name":"Grafenau, St","type":"Stadt"},"district":{"key":"09272","name":"Freyung-Grafenau","type":"Landkreis"},"federalState":{"key":"09","name":"Bayern"}},{"name":"Rosenstr.","postalCode":"71120","locality":"Grafenau","municipality":{"key":"08115054","name":"Grafenau","type":"Kreisangehörige_Gemeinde"},"district":{"key":"08115","name":"Böblingen","type":"Landkreis"},"federalState":{"key":"08","name":"Baden-Württemberg"}},{"name":"Rübezahlweg","postalCode":"94481","locality":"Grafenau","municipality":{"key":"09272120","name":"Grafenau, St","type":"Stadt"},"district":{"key":"09272","name":"Freyung-Grafenau","type":"Landkreis"},"federalState":{"key":"09","name":"Bayern"}},{"name":"Sachsenring","postalCode":"94481","locality":"Grafenau","municipality":{"key":"09272120","name":"Grafenau, St","type":"Stadt"},"district":{"key":"09272","name":"Freyung-Grafenau","type":"Landkreis"},"federalState":{"key":"09","name":"Bayern"}},{"name":"Sachsensteig","postalCode":"94481","locality":"Grafenau","municipality":{"key":"09272120","name":"Grafenau, St","type":"Stadt"},"district":{"key":"09272","name":"Freyung-Grafenau","type":"Landkreis"},"federalState":{"key":"09","name":"Bayern"}},{"name":"Salzherrnstr.","postalCode":"94481","locality":"Grafenau","municipality":{"key":"09272120","name":"Grafenau, St","type":"Stadt"},"district":{"key":"09272","name":"Freyung-Grafenau","type":"Landkreis"},"federalState":{"key":"09","name":"Bayern"}},{"name":"Säumersteig","postalCode":"94481","locality":"Grafenau","municipality":{"key":"09272120","name":"Grafenau, St","type":"Stadt"},"district":{"key":"09272","name":"Freyung-Grafenau","type":"Landkreis"},"federalState":{"key":"09","name":"Bayern"}},{"name":"Schafhauser Weg","postalCode":"71120","locality":"Grafenau","municipality":{"key":"08115054","name":"Grafenau","type":"Kreisangehörige_Gemeinde"},"district":{"key":"08115","name":"Böblingen","type":"Landkreis"},"federalState":{"key":"08","name":"Baden-Württemberg"}},{"name":"Schärdinger Str.","postalCode":"94481","locality":"Grafenau","municipality":{"key":"09272120","name":"Grafenau, St","type":"Stadt"},"district":{"key":"09272","name":"Freyung-Grafenau","type":"Landkreis"},"federalState":{"key":"09","name":"Bayern"}},{"name":"Scharrerstr.","postalCode":"94481","locality":"Grafenau","municipality":{"key":"09272120","name":"Grafenau, St","type":"Stadt"},"district":{"key":"09272","name":"Freyung-Grafenau","type":"Landkreis"},"federalState":{"key":"09","name":"Bayern"}},{"name":"Schillerstr.","postalCode":"71120","locality":"Grafenau","municipality":{"key":"08115054","name":"Grafenau","type":"Kreisangehörige_Gemeinde"},"district":{"key":"08115","name":"Böblingen","type":"Landkreis"},"federalState":{"key":"08","name":"Baden-Württemberg"}},{"name":"Schlag","postalCode":"94481","locality":"Grafenau","municipality":{"key":"09272120","name":"Grafenau, St","type":"Stadt"},"district":{"key":"09272","name":"Freyung-Grafenau","type":"Landkreis"},"federalState":{"key":"09","name":"Bayern"}},{"name":"Schlehenweg","postalCode":"71120","locality":"Grafenau","municipality":{"key":"08115054","name":"Grafenau","type":"Kreisangehörige_Gemeinde"},"district":{"key":"08115","name":"Böblingen","type":"Landkreis"},"federalState":{"key":"08","name":"Baden-Württemberg"}},{"name":"Schloßberg","postalCode":"94481","locality":"Grafenau","municipality":{"key":"09272120","name":"Grafenau, St","type":"Stadt"},"district":{"key":"09272","name":"Freyung-Grafenau","type":"Landkreis"},"federalState":{"key":"09","name":"Bayern"}},{"name":"Schloßstr.","postalCode":"71120","locality":"Grafenau","municipality":{"key":"08115054","name":"Grafenau","type":"Kreisangehörige_Gemeinde"},"district":{"key":"08115","name":"Böblingen","type":"Landkreis"},"federalState":{"key":"08","name":"Baden-Württemberg"}},{"name":"Schönangerstr.","postalCode":"94481","locality":"Grafenau","municipality":{"key":"09272120","name":"Grafenau, St","type":"Stadt"},"district":{"key":"09272","name":"Freyung-Grafenau","type":"Landkreis"},"federalState":{"key":"09","name":"Bayern"}},{"name":"Schulstr.","postalCode":"71120","locality":"Grafenau","municipality":{"key":"08115054","name":"Grafenau","type":"Kreisangehörige_Gemeinde"},"district":{"key":"08115","name":"Böblingen","type":"Landkreis"},"federalState":{"key":"08","name":"Baden-Württemberg"}},{"name":"Schusterbeckstr.","postalCode":"94481","locality":"Grafenau","municipality":{"key":"09272120","name":"Grafenau, St","type":"Stadt"},"district":{"key":"09272","name":"Freyung-Grafenau","type":"Landkreis"},"federalState":{"key":"09","name":"Bayern"}},{"name":"Schwalbenweg","postalCode":"71120","locality":"Grafenau","municipality":{"key":"08115054","name":"Grafenau","type":"Kreisangehörige_Gemeinde"},"district":{"key":"08115","name":"Böblingen","type":"Landkreis"},"federalState":{"key":"08","name":"Baden-Württemberg"}},{"name":"Schwalbenweg","postalCode":"94481","locality":"Grafenau","municipality":{"key":"09272120","name":"Grafenau, St","type":"Stadt"},"district":{"key":"09272","name":"Freyung-Grafenau","type":"Landkreis"},"federalState":{"key":"09","name":"Bayern"}},{"name":"Schwarzmaierstr.","postalCode":"94481","locality":"Grafenau","municipality":{"key":"09272120","name":"Grafenau, St","type":"Stadt"},"district":{"key":"09272","name":"Freyung-Grafenau","type":"Landkreis"},"federalState":{"key":"09","name":"Bayern"}},{"name":"Schwedensteig","postalCode":"94481","locality":"Grafenau","municipality":{"key":"09272120","name":"Grafenau, St","type":"Stadt"},"district":{"key":"09272","name":"Freyung-Grafenau","type":"Landkreis"},"federalState":{"key":"09","name":"Bayern"}},{"name":"Seesteig","postalCode":"94481","locality":"Grafenau","municipality":{"key":"09272120","name":"Grafenau, St","type":"Stadt"},"district":{"key":"09272","name":"Freyung-Grafenau","type":"Landkreis"},"federalState":{"key":"09","name":"Bayern"}},{"name":"Seybererweg","postalCode":"94481","locality":"Grafenau","municipality":{"key":"09272120","name":"Grafenau, St","type":"Stadt"},"district":{"key":"09272","name":"Freyung-Grafenau","type":"Landkreis"},"federalState":{"key":"09","name":"Bayern"}},{"name":"Siedlungsstr.","postalCode":"94481","locality":"Grafenau","municipality":{"key":"09272120","name":"Grafenau, St","type":"Stadt"},"district":{"key":"09272","name":"Freyung-Grafenau","type":"Landkreis"},"federalState":{"key":"09","name":"Bayern"}},{"name":"Sindelfinger Weg","postalCode":"71120","locality":"Grafenau","municipality":{"key":"08115054","name":"Grafenau","type":"Kreisangehörige_Gemeinde"},"district":{"key":"08115","name":"Böblingen","type":"Landkreis"},"federalState":{"key":"08","name":"Baden-Württemberg"}},{"name":"Sonnenbergstr.","postalCode":"71120","locality":"Grafenau","municipality":{"key":"08115054","name":"Grafenau","type":"Kreisangehörige_Gemeinde"},"district":{"key":"08115","name":"Böblingen","type":"Landkreis"},"federalState":{"key":"08","name":"Baden-Württemberg"}},{"name":"Sonnenstr.","postalCode":"94481","locality":"Grafenau","municipality":{"key":"09272120","name":"Grafenau, St","type":"Stadt"},"district":{"key":"09272","name":"Freyung-Grafenau","type":"Landkreis"},"federalState":{"key":"09","name":"Bayern"}},{"name":"Sophie-Scholl-Str.","postalCode":"71120","locality":"Grafenau","municipality":{"key":"08115054","name":"Grafenau","type":"Kreisangehörige_Gemeinde"},"district":{"key":"08115","name":"Böblingen","type":"Landkreis"},"federalState":{"key":"08","name":"Baden-Württemberg"}},{"name":"Spechtweg","postalCode":"94481","locality":"Grafenau","municipality":{"key":"09272120","name":"Grafenau, St","type":"Stadt"},"district":{"key":"09272","name":"Freyung-Grafenau","type":"Landkreis"},"federalState":{"key":"09","name":"Bayern"}},{"name":"Sperberweg","postalCode":"94481","locality":"Grafenau","municipality":{"key":"09272120","name":"Grafenau, St","type":"Stadt"},"district":{"key":"09272","name":"Freyung-Grafenau","type":"Landkreis"},"federalState":{"key":"09","name":"Bayern"}},{"name":"Spitalstr.","postalCode":"94481","locality":"Grafenau","municipality":{"key":"09272120","name":"Grafenau, St","type":"Stadt"},"district":{"key":"09272","name":"Freyung-Grafenau","type":"Landkreis"},"federalState":{"key":"09","name":"Bayern"}},{"name":"Spitzbergweg","postalCode":"94481","locality":"Grafenau","municipality":{"key":"09272120","name":"Grafenau, St","type":"Stadt"},"district":{"key":"09272","name":"Freyung-Grafenau","type":"Landkreis"},"federalState":{"key":"09","name":"Bayern"}},{"name":"Stadtplatz","postalCode":"94481","locality":"Grafenau","municipality":{"key":"09272120","name":"Grafenau, St","type":"Stadt"},"district":{"key":"09272","name":"Freyung-Grafenau","type":"Landkreis"},"federalState":{"key":"09","name":"Bayern"}},{"name":"Stangenwiese","postalCode":"71120","locality":"Grafenau","municipality":{"key":"08115054","name":"Grafenau","type":"Kreisangehörige_Gemeinde"},"district":{"key":"08115","name":"Böblingen","type":"Landkreis"},"federalState":{"key":"08","name":"Baden-Württemberg"}},{"name":"Starenweg","postalCode":"94481","locality":"Grafenau","municipality":{"key":"09272120","name":"Grafenau, St","type":"Stadt"},"district":{"key":"09272","name":"Freyung-Grafenau","type":"Landkreis"},"federalState":{"key":"09","name":"Bayern"}},{"name":"Stegmühle","postalCode":"71120","locality":"Grafenau","municipality":{"key":"08115054","name":"Grafenau","type":"Kreisangehörige_Gemeinde"},"district":{"key":"08115","name":"Böblingen","type":"Landkreis"},"federalState":{"key":"08","name":"Baden-Württemberg"}},{"name":"Steige","postalCode":"71120","locality":"Grafenau","municipality":{"key":"08115054","name":"Grafenau","type":"Kreisangehörige_Gemeinde"},"district":{"key":"08115","name":"Böblingen","type":"Landkreis"},"federalState":{"key":"08","name":"Baden-Württemberg"}},{"name":"Steinberg","postalCode":"94481","locality":"Grafenau","municipality":{"key":"09272120","name":"Grafenau, St","type":"Stadt"},"district":{"key":"09272","name":"Freyung-Grafenau","type":"Landkreis"},"federalState":{"key":"09","name":"Bayern"}},{"name":"Steinforelle","postalCode":"94481","locality":"Grafenau","municipality":{"key":"09272120","name":"Grafenau, St","type":"Stadt"},"district":{"key":"09272","name":"Freyung-Grafenau","type":"Landkreis"},"federalState":{"key":"09","name":"Bayern"}},{"name":"Stifterstr.","postalCode":"94481","locality":"Grafenau","municipality":{"key":"09272120","name":"Grafenau, St","type":"Stadt"},"district":{"key":"09272","name":"Freyung-Grafenau","type":"Landkreis"},"federalState":{"key":"09","name":"Bayern"}},{"name":"Stöcklholz","postalCode":"94481","locality":"Grafenau","municipality":{"key":"09272120","name":"Grafenau, St","type":"Stadt"},"district":{"key":"09272","name":"Freyung-Grafenau","type":"Landkreis"},"federalState":{"key":"09","name":"Bayern"}},{"name":"Tälesweg","postalCode":"71120","locality":"Grafenau","municipality":{"key":"08115054","name":"Grafenau","type":"Kreisangehörige_Gemeinde"},"district":{"key":"08115","name":"Böblingen","type":"Landkreis"},"federalState":{"key":"08","name":"Baden-Württemberg"}},{"name":"Talstr.","postalCode":"71120","locality":"Grafenau","municipality":{"key":"08115054","name":"Grafenau","type":"Kreisangehörige_Gemeinde"},"district":{"key":"08115","name":"Böblingen","type":"Landkreis"},"federalState":{"key":"08","name":"Baden-Württemberg"}},{"name":"Tannenweg","postalCode":"71120","locality":"Grafenau","municipality":{"key":"08115054","name":"Grafenau","type":"Kreisangehörige_Gemeinde"},"district":{"key":"08115","name":"Böblingen","type":"Landkreis"},"federalState":{"key":"08","name":"Baden-Württemberg"}},{"name":"Taubenweg","postalCode":"71120","locality":"Grafenau","municipality":{"key":"08115054","name":"Grafenau","type":"Kreisangehörige_Gemeinde"},"district":{"key":"08115","name":"Böblingen","type":"Landkreis"},"federalState":{"key":"08","name":"Baden-Württemberg"}},{"name":"Turmstr.","postalCode":"71120","locality":"Grafenau","municipality":{"key":"08115054","name":"Grafenau","type":"Kreisangehörige_Gemeinde"},"district":{"key":"08115","name":"Böblingen","type":"Landkreis"},"federalState":{"key":"08","name":"Baden-Württemberg"}},{"name":"Uhlandstr.","postalCode":"71120","locality":"Grafenau","municipality":{"key":"08115054","name":"Grafenau","type":"Kreisangehörige_Gemeinde"},"district":{"key":"08115","name":"Böblingen","type":"Landkreis"},"federalState":{"key":"08","name":"Baden-Württemberg"}},{"name":"Ulrichstr.","postalCode":"94481","locality":"Grafenau","municipality":{"key":"09272120","name":"Grafenau, St","type":"Stadt"},"district":{"key":"09272","name":"Freyung-Grafenau","type":"Landkreis"},"federalState":{"key":"09","name":"Bayern"}},{"name":"Ulrichweg","postalCode":"71120","locality":"Grafenau","municipality":{"key":"08115054","name":"Grafenau","type":"Kreisangehörige_Gemeinde"},"district":{"key":"08115","name":"Böblingen","type":"Landkreis"},"federalState":{"key":"08","name":"Baden-Württemberg"}},{"name":"Venusberg","postalCode":"94481","locality":"Grafenau","municipality":{"key":"09272120","name":"Grafenau, St","type":"Stadt"},"district":{"key":"09272","name":"Freyung-Grafenau","type":"Landkreis"},"federalState":{"key":"09","name":"Bayern"}},{"name":"VerwEiland","postalCode":"94481","locality":"Grafenau","municipality":{"key":"09272120","name":"Grafenau, St","type":"Stadt"},"district":{"key":"09272","name":"Freyung-Grafenau","type":"Landkreis"},"federalState":{"key":"09","name":"Bayern"}},{"name":"Vogelthenne","postalCode":"94481","locality":"Grafenau","municipality":{"key":"09272120","name":"Grafenau, St","type":"Stadt"},"district":{"key":"09272","name":"Freyung-Grafenau","type":"Landkreis"},"federalState":{"key":"09","name":"Bayern"}},{"name":"Vornbacherweg","postalCode":"94481","locality":"Grafenau","municipality":{"key":"09272120","name":"Grafenau, St","type":"Stadt"},"district":{"key":"09272","name":"Freyung-Grafenau","type":"Landkreis"},"federalState":{"key":"09","name":"Bayern"}},{"name":"Wacholderweg","postalCode":"71120","locality":"Grafenau","municipality":{"key":"08115054","name":"Grafenau","type":"Kreisangehörige_Gemeinde"},"district":{"key":"08115","name":"Böblingen","type":"Landkreis"},"federalState":{"key":"08","name":"Baden-Württemberg"}},{"name":"Waldschmidtstr.","postalCode":"94481","locality":"Grafenau","municipality":{"key":"09272120","name":"Grafenau, St","type":"Stadt"},"district":{"key":"09272","name":"Freyung-Grafenau","type":"Landkreis"},"federalState":{"key":"09","name":"Bayern"}},{"name":"Waldweg","postalCode":"94481","locality":"Grafenau","municipality":{"key":"09272120","name":"Grafenau, St","type":"Stadt"},"district":{"key":"09272","name":"Freyung-Grafenau","type":"Landkreis"},"federalState":{"key":"09","name":"Bayern"}},{"name":"Weilergarten","postalCode":"94481","locality":"Grafenau","municipality":{"key":"09272120","name":"Grafenau, St","type":"Stadt"},"district":{"key":"09272","name":"Freyung-Grafenau","type":"Landkreis"},"federalState":{"key":"09","name":"Bayern"}},{"name":"Wengertweg","postalCode":"71120","locality":"Grafenau","municipality":{"key":"08115054","name":"Grafenau","type":"Kreisangehörige_Gemeinde"},"district":{"key":"08115","name":"Böblingen","type":"Landkreis"},"federalState":{"key":"08","name":"Baden-Württemberg"}},{"name":"Wenzelstr.","postalCode":"94481","locality":"Grafenau","municipality":{"key":"09272120","name":"Grafenau, St","type":"Stadt"},"district":{"key":"09272","name":"Freyung-Grafenau","type":"Landkreis"},"federalState":{"key":"09","name":"Bayern"}},{"name":"Wilhelm-Sedlbauer Str.","postalCode":"94481","locality":"Grafenau","municipality":{"key":"09272120","name":"Grafenau, St","type":"Stadt"},"district":{"key":"09272","name":"Freyung-Grafenau","type":"Landkreis"},"federalState":{"key":"09","name":"Bayern"}},{"name":"Wittelsbacherstr.","postalCode":"94481","locality":"Grafenau","municipality":{"key":"09272120","name":"Grafenau, St","type":"Stadt"},"district":{"key":"09272","name":"Freyung-Grafenau","type":"Landkreis"},"federalState":{"key":"09","name":"Bayern"}},{"name":"Wittumstr.","postalCode":"71120","locality":"Grafenau","municipality":{"key":"08115054","name":"Grafenau","type":"Kreisangehörige_Gemeinde"},"district":{"key":"08115","name":"Böblingen","type":"Landkreis"},"federalState":{"key":"08","name":"Baden-Württemberg"}},{"name":"Zehnthof","postalCode":"71120","locality":"Grafenau","municipality":{"key":"08115054","name":"Grafenau","type":"Kreisangehörige_Gemeinde"},"district":{"key":"08115","name":"Böblingen","type":"Landkreis"},"federalState":{"key":"08","name":"Baden-Württemberg"}},{"name":"Zeisigweg","postalCode":"71120","locality":"Grafenau","municipality":{"key":"08115054","name":"Grafenau","type":"Kreisangehörige_Gemeinde"},"district":{"key":"08115","name":"Böblingen","type":"Landkreis"},"federalState":{"key":"08","name":"Baden-Württemberg"}},{"name":"Ziegelfeld","postalCode":"94481","locality":"Grafenau","municipality":{"key":"09272120","name":"Grafenau, St","type":"Stadt"},"district":{"key":"09272","name":"Freyung-Grafenau","type":"Landkreis"},"federalState":{"key":"09","name":"Bayern"}},{"name":"Zinslesbergweg","postalCode":"71120","locality":"Grafenau","municipality":{"key":"08115054","name":"Grafenau","type":"Kreisangehörige_Gemeinde"},"district":{"key":"08115","name":"Böblingen","type":"Landkreis"},"federalState":{"key":"08","name":"Baden-Württemberg"}},{"name":"Zum Brudersbrunn","postalCode":"94481","locality":"Grafenau","municipality":{"key":"09272120","name":"Grafenau, St","type":"Stadt"},"district":{"key":"09272","name":"Freyung-Grafenau","type":"Landkreis"},"federalState":{"key":"09","name":"Bayern"}},{"name":"Zum Grubstock","postalCode":"71120","locality":"Grafenau","municipality":{"key":"08115054","name":"Grafenau","type":"Kreisangehörige_Gemeinde"},"district":{"key":"08115","name":"Böblingen","type":"Landkreis"},"federalState":{"key":"08","name":"Baden-Württemberg"}},{"name":"Zum Stausee","postalCode":"94481","locality":"Grafenau","municipality":{"key":"09272120","name":"Grafenau, St","type":"Stadt"},"district":{"key":"09272","name":"Freyung-Grafenau","type":"Landkreis"},"federalState":{"key":"09","name":"Bayern"}},{"name":"Zum Ulrichstein","postalCode":"71120","locality":"Grafenau","municipality":{"key":"08115054","name":"Grafenau","type":"Kreisangehörige_Gemeinde"},"district":{"key":"08115","name":"Böblingen","type":"Landkreis"},"federalState":{"key":"08","name":"Baden-Württemberg"}},]