[{"name":"Adelhofer Str.","postalCode":"97258","locality":"Hemmersheim","municipality":{"key":"09575130","name":"Hemmersheim","type":"Kreisangehörige_Gemeinde"},"district":{"key":"09575","name":"Neustadt a.d.Aisch-Bad Windsheim","type":"Landkreis"},"federalState":{"key":"09","name":"Bayern"}},{"name":"Am Kapellfeld","postalCode":"97258","locality":"Hemmersheim","municipality":{"key":"09575130","name":"Hemmersheim","type":"Kreisangehörige_Gemeinde"},"district":{"key":"09575","name":"Neustadt a.d.Aisch-Bad Windsheim","type":"Landkreis"},"federalState":{"key":"09","name":"Bayern"}},{"name":"Am Sportplatz","postalCode":"97258","locality":"Hemmersheim","municipality":{"key":"09575130","name":"Hemmersheim","type":"Kreisangehörige_Gemeinde"},"district":{"key":"09575","name":"Neustadt a.d.Aisch-Bad Windsheim","type":"Landkreis"},"federalState":{"key":"09","name":"Bayern"}},{"name":"Auber Weg","postalCode":"97258","locality":"Hemmersheim","municipality":{"key":"09575130","name":"Hemmersheim","type":"Kreisangehörige_Gemeinde"},"district":{"key":"09575","name":"Neustadt a.d.Aisch-Bad Windsheim","type":"Landkreis"},"federalState":{"key":"09","name":"Bayern"}},{"name":"Balzenbuck","postalCode":"97258","locality":"Hemmersheim","municipality":{"key":"09575130","name":"Hemmersheim","type":"Kreisangehörige_Gemeinde"},"district":{"key":"09575","name":"Neustadt a.d.Aisch-Bad Windsheim","type":"Landkreis"},"federalState":{"key":"09","name":"Bayern"}},{"name":"Beerengarten","postalCode":"97258","locality":"Hemmersheim","municipality":{"key":"09575130","name":"Hemmersheim","type":"Kreisangehörige_Gemeinde"},"district":{"key":"09575","name":"Neustadt a.d.Aisch-Bad Windsheim","type":"Landkreis"},"federalState":{"key":"09","name":"Bayern"}},{"name":"Breiter Weg","postalCode":"97258","locality":"Hemmersheim","municipality":{"key":"09575130","name":"Hemmersheim","type":"Kreisangehörige_Gemeinde"},"district":{"key":"09575","name":"Neustadt a.d.Aisch-Bad Windsheim","type":"Landkreis"},"federalState":{"key":"09","name":"Bayern"}},{"name":"Burkertsbuck","postalCode":"97258","locality":"Hemmersheim","municipality":{"key":"09575130","name":"Hemmersheim","type":"Kreisangehörige_Gemeinde"},"district":{"key":"09575","name":"Neustadt a.d.Aisch-Bad Windsheim","type":"Landkreis"},"federalState":{"key":"09","name":"Bayern"}},{"name":"Dorfstr.","postalCode":"97258","locality":"Hemmersheim","municipality":{"key":"09575130","name":"Hemmersheim","type":"Kreisangehörige_Gemeinde"},"district":{"key":"09575","name":"Neustadt a.d.Aisch-Bad Windsheim","type":"Landkreis"},"federalState":{"key":"09","name":"Bayern"}},{"name":"Dorfwiesenweg","postalCode":"97258","locality":"Hemmersheim","municipality":{"key":"09575130","name":"Hemmersheim","type":"Kreisangehörige_Gemeinde"},"district":{"key":"09575","name":"Neustadt a.d.Aisch-Bad Windsheim","type":"Landkreis"},"federalState":{"key":"09","name":"Bayern"}},{"name":"Dreschhallenstr.","postalCode":"97258","locality":"Hemmersheim","municipality":{"key":"09575130","name":"Hemmersheim","type":"Kreisangehörige_Gemeinde"},"district":{"key":"09575","name":"Neustadt a.d.Aisch-Bad Windsheim","type":"Landkreis"},"federalState":{"key":"09","name":"Bayern"}},{"name":"Friedhofweg","postalCode":"97258","locality":"Hemmersheim","municipality":{"key":"09575130","name":"Hemmersheim","type":"Kreisangehörige_Gemeinde"},"district":{"key":"09575","name":"Neustadt a.d.Aisch-Bad Windsheim","type":"Landkreis"},"federalState":{"key":"09","name":"Bayern"}},{"name":"Fuhrweg","postalCode":"97258","locality":"Hemmersheim","municipality":{"key":"09575130","name":"Hemmersheim","type":"Kreisangehörige_Gemeinde"},"district":{"key":"09575","name":"Neustadt a.d.Aisch-Bad Windsheim","type":"Landkreis"},"federalState":{"key":"09","name":"Bayern"}},{"name":"Gülchsheimer Str.","postalCode":"97258","locality":"Hemmersheim","municipality":{"key":"09575130","name":"Hemmersheim","type":"Kreisangehörige_Gemeinde"},"district":{"key":"09575","name":"Neustadt a.d.Aisch-Bad Windsheim","type":"Landkreis"},"federalState":{"key":"09","name":"Bayern"}},{"name":"Gülchsheimer Weg","postalCode":"97258","locality":"Hemmersheim","municipality":{"key":"09575130","name":"Hemmersheim","type":"Kreisangehörige_Gemeinde"},"district":{"key":"09575","name":"Neustadt a.d.Aisch-Bad Windsheim","type":"Landkreis"},"federalState":{"key":"09","name":"Bayern"}},{"name":"Hauptstr.","postalCode":"97258","locality":"Hemmersheim","municipality":{"key":"09575130","name":"Hemmersheim","type":"Kreisangehörige_Gemeinde"},"district":{"key":"09575","name":"Neustadt a.d.Aisch-Bad Windsheim","type":"Landkreis"},"federalState":{"key":"09","name":"Bayern"}},{"name":"Im Beerengarten","postalCode":"97258","locality":"Hemmersheim","municipality":{"key":"09575130","name":"Hemmersheim","type":"Kreisangehörige_Gemeinde"},"district":{"key":"09575","name":"Neustadt a.d.Aisch-Bad Windsheim","type":"Landkreis"},"federalState":{"key":"09","name":"Bayern"}},{"name":"Kirchhofweg","postalCode":"97258","locality":"Hemmersheim","municipality":{"key":"09575130","name":"Hemmersheim","type":"Kreisangehörige_Gemeinde"},"district":{"key":"09575","name":"Neustadt a.d.Aisch-Bad Windsheim","type":"Landkreis"},"federalState":{"key":"09","name":"Bayern"}},{"name":"Kirchstr.","postalCode":"97258","locality":"Hemmersheim","municipality":{"key":"09575130","name":"Hemmersheim","type":"Kreisangehörige_Gemeinde"},"district":{"key":"09575","name":"Neustadt a.d.Aisch-Bad Windsheim","type":"Landkreis"},"federalState":{"key":"09","name":"Bayern"}},{"name":"Krautackerweg","postalCode":"97258","locality":"Hemmersheim","municipality":{"key":"09575130","name":"Hemmersheim","type":"Kreisangehörige_Gemeinde"},"district":{"key":"09575","name":"Neustadt a.d.Aisch-Bad Windsheim","type":"Landkreis"},"federalState":{"key":"09","name":"Bayern"}},{"name":"Luckenweg","postalCode":"97258","locality":"Hemmersheim","municipality":{"key":"09575130","name":"Hemmersheim","type":"Kreisangehörige_Gemeinde"},"district":{"key":"09575","name":"Neustadt a.d.Aisch-Bad Windsheim","type":"Landkreis"},"federalState":{"key":"09","name":"Bayern"}},{"name":"Mühlenweg","postalCode":"97258","locality":"Hemmersheim","municipality":{"key":"09575130","name":"Hemmersheim","type":"Kreisangehörige_Gemeinde"},"district":{"key":"09575","name":"Neustadt a.d.Aisch-Bad Windsheim","type":"Landkreis"},"federalState":{"key":"09","name":"Bayern"}},{"name":"Obere Dorfstr.","postalCode":"97258","locality":"Hemmersheim","municipality":{"key":"09575130","name":"Hemmersheim","type":"Kreisangehörige_Gemeinde"},"district":{"key":"09575","name":"Neustadt a.d.Aisch-Bad Windsheim","type":"Landkreis"},"federalState":{"key":"09","name":"Bayern"}},{"name":"Obere Dorfstrße","postalCode":"97258","locality":"Hemmersheim","municipality":{"key":"09575130","name":"Hemmersheim","type":"Kreisangehörige_Gemeinde"},"district":{"key":"09575","name":"Neustadt a.d.Aisch-Bad Windsheim","type":"Landkreis"},"federalState":{"key":"09","name":"Bayern"}},{"name":"Ochsenfurter Str.","postalCode":"97258","locality":"Hemmersheim","municipality":{"key":"09575130","name":"Hemmersheim","type":"Kreisangehörige_Gemeinde"},"district":{"key":"09575","name":"Neustadt a.d.Aisch-Bad Windsheim","type":"Landkreis"},"federalState":{"key":"09","name":"Bayern"}},{"name":"Oellinger Str.","postalCode":"97258","locality":"Hemmersheim","municipality":{"key":"09575130","name":"Hemmersheim","type":"Kreisangehörige_Gemeinde"},"district":{"key":"09575","name":"Neustadt a.d.Aisch-Bad Windsheim","type":"Landkreis"},"federalState":{"key":"09","name":"Bayern"}},{"name":"Ortsstr.","postalCode":"97258","locality":"Hemmersheim","municipality":{"key":"09575130","name":"Hemmersheim","type":"Kreisangehörige_Gemeinde"},"district":{"key":"09575","name":"Neustadt a.d.Aisch-Bad Windsheim","type":"Landkreis"},"federalState":{"key":"09","name":"Bayern"}},{"name":"Pfahlenheimer Str.","postalCode":"97258","locality":"Hemmersheim","municipality":{"key":"09575130","name":"Hemmersheim","type":"Kreisangehörige_Gemeinde"},"district":{"key":"09575","name":"Neustadt a.d.Aisch-Bad Windsheim","type":"Landkreis"},"federalState":{"key":"09","name":"Bayern"}},{"name":"Ringstr.","postalCode":"97258","locality":"Hemmersheim","municipality":{"key":"09575130","name":"Hemmersheim","type":"Kreisangehörige_Gemeinde"},"district":{"key":"09575","name":"Neustadt a.d.Aisch-Bad Windsheim","type":"Landkreis"},"federalState":{"key":"09","name":"Bayern"}},{"name":"Rodheimer Str.","postalCode":"97258","locality":"Hemmersheim","municipality":{"key":"09575130","name":"Hemmersheim","type":"Kreisangehörige_Gemeinde"},"district":{"key":"09575","name":"Neustadt a.d.Aisch-Bad Windsheim","type":"Landkreis"},"federalState":{"key":"09","name":"Bayern"}},{"name":"Schulstr.","postalCode":"97258","locality":"Hemmersheim","municipality":{"key":"09575130","name":"Hemmersheim","type":"Kreisangehörige_Gemeinde"},"district":{"key":"09575","name":"Neustadt a.d.Aisch-Bad Windsheim","type":"Landkreis"},"federalState":{"key":"09","name":"Bayern"}},{"name":"Seestr.","postalCode":"97258","locality":"Hemmersheim","municipality":{"key":"09575130","name":"Hemmersheim","type":"Kreisangehörige_Gemeinde"},"district":{"key":"09575","name":"Neustadt a.d.Aisch-Bad Windsheim","type":"Landkreis"},"federalState":{"key":"09","name":"Bayern"}},{"name":"Stöckemerweg","postalCode":"97258","locality":"Hemmersheim","municipality":{"key":"09575130","name":"Hemmersheim","type":"Kreisangehörige_Gemeinde"},"district":{"key":"09575","name":"Neustadt a.d.Aisch-Bad Windsheim","type":"Landkreis"},"federalState":{"key":"09","name":"Bayern"}},{"name":"Westumgehung","postalCode":"97258","locality":"Hemmersheim","municipality":{"key":"09575130","name":"Hemmersheim","type":"Kreisangehörige_Gemeinde"},"district":{"key":"09575","name":"Neustadt a.d.Aisch-Bad Windsheim","type":"Landkreis"},"federalState":{"key":"09","name":"Bayern"}},]