[{"name":"Ahlstädter Weg","postalCode":"98660","locality":"Kloster Veßra","municipality":{"key":"16069025","name":"Kloster Veßra","type":"Kreisangehörige_Gemeinde"},"district":{"key":"16069","name":"Hildburghausen","type":"Landkreis"},"federalState":{"key":"16","name":"Thüringen"}},{"name":"Bäckergasse","postalCode":"98646","locality":"Hildburghausen","municipality":{"key":"16069024","name":"Hildburghausen, Stadt","type":"Stadt"},"district":{"key":"16069","name":"Hildburghausen","type":"Landkreis"},"federalState":{"key":"16","name":"Thüringen"}},{"name":"Bahnhofstr.","postalCode":"98646","locality":"Hildburghausen","municipality":{"key":"16069024","name":"Hildburghausen, Stadt","type":"Stadt"},"district":{"key":"16069","name":"Hildburghausen","type":"Landkreis"},"federalState":{"key":"16","name":"Thüringen"}},{"name":"Bauershof","postalCode":"98646","locality":"Hildburghausen","municipality":{"key":"16069024","name":"Hildburghausen, Stadt","type":"Stadt"},"district":{"key":"16069","name":"Hildburghausen","type":"Landkreis"},"federalState":{"key":"16","name":"Thüringen"}},{"name":"Bechergasse","postalCode":"98646","locality":"Hildburghausen","municipality":{"key":"16069024","name":"Hildburghausen, Stadt","type":"Stadt"},"district":{"key":"16069","name":"Hildburghausen","type":"Landkreis"},"federalState":{"key":"16","name":"Thüringen"}},{"name":"Bernhardsbach","postalCode":"98646","locality":"Hildburghausen","municipality":{"key":"16069024","name":"Hildburghausen, Stadt","type":"Stadt"},"district":{"key":"16069","name":"Hildburghausen","type":"Landkreis"},"federalState":{"key":"16","name":"Thüringen"}},{"name":"Birkenfelder Str.","postalCode":"98646","locality":"Hildburghausen","municipality":{"key":"16069024","name":"Hildburghausen, Stadt","type":"Stadt"},"district":{"key":"16069","name":"Hildburghausen","type":"Landkreis"},"federalState":{"key":"16","name":"Thüringen"}},{"name":"Breiter Rasen","postalCode":"98646","locality":"Hildburghausen","municipality":{"key":"16069024","name":"Hildburghausen, Stadt","type":"Stadt"},"district":{"key":"16069","name":"Hildburghausen","type":"Landkreis"},"federalState":{"key":"16","name":"Thüringen"}},{"name":"Clara-Zetkin-Str.","postalCode":"98646","locality":"Hildburghausen","municipality":{"key":"16069024","name":"Hildburghausen, Stadt","type":"Stadt"},"district":{"key":"16069","name":"Hildburghausen","type":"Landkreis"},"federalState":{"key":"16","name":"Thüringen"}},{"name":"Coburger Str.","postalCode":"98646","locality":"Hildburghausen","municipality":{"key":"16069024","name":"Hildburghausen, Stadt","type":"Stadt"},"district":{"key":"16069","name":"Hildburghausen","type":"Landkreis"},"federalState":{"key":"16","name":"Thüringen"}},{"name":"Dachsweg","postalCode":"98646","locality":"Hildburghausen","municipality":{"key":"16069024","name":"Hildburghausen, Stadt","type":"Stadt"},"district":{"key":"16069","name":"Hildburghausen","type":"Landkreis"},"federalState":{"key":"16","name":"Thüringen"}},{"name":"Dammstr.","postalCode":"98646","locality":"Hildburghausen","municipality":{"key":"16069024","name":"Hildburghausen, Stadt","type":"Stadt"},"district":{"key":"16069","name":"Hildburghausen","type":"Landkreis"},"federalState":{"key":"16","name":"Thüringen"}},{"name":"Dorfplatz","postalCode":"98646","locality":"Hildburghausen","municipality":{"key":"16069024","name":"Hildburghausen, Stadt","type":"Stadt"},"district":{"key":"16069","name":"Hildburghausen","type":"Landkreis"},"federalState":{"key":"16","name":"Thüringen"}},{"name":"Dorfstr.","postalCode":"98646","locality":"Hildburghausen","municipality":{"key":"16069024","name":"Hildburghausen, Stadt","type":"Stadt"},"district":{"key":"16069","name":"Hildburghausen","type":"Landkreis"},"federalState":{"key":"16","name":"Thüringen"}},{"name":"Dr.-Moritz-Mitzenheim-Str.","postalCode":"98646","locality":"Hildburghausen","municipality":{"key":"16069024","name":"Hildburghausen, Stadt","type":"Stadt"},"district":{"key":"16069","name":"Hildburghausen","type":"Landkreis"},"federalState":{"key":"16","name":"Thüringen"}},{"name":"Drosselweg","postalCode":"98646","locality":"Hildburghausen","municipality":{"key":"16069024","name":"Hildburghausen, Stadt","type":"Stadt"},"district":{"key":"16069","name":"Hildburghausen","type":"Landkreis"},"federalState":{"key":"16","name":"Thüringen"}},{"name":"Dr.-Theodor-Neubauer-Str.","postalCode":"98646","locality":"Hildburghausen","municipality":{"key":"16069024","name":"Hildburghausen, Stadt","type":"Stadt"},"district":{"key":"16069","name":"Hildburghausen","type":"Landkreis"},"federalState":{"key":"16","name":"Thüringen"}},{"name":"Dr.-Wilhelm-Külz-Str.","postalCode":"98646","locality":"Hildburghausen","municipality":{"key":"16069024","name":"Hildburghausen, Stadt","type":"Stadt"},"district":{"key":"16069","name":"Hildburghausen","type":"Landkreis"},"federalState":{"key":"16","name":"Thüringen"}},{"name":"Ebenhardser Brunnenweg","postalCode":"98646","locality":"Hildburghausen","municipality":{"key":"16069024","name":"Hildburghausen, Stadt","type":"Stadt"},"district":{"key":"16069","name":"Hildburghausen","type":"Landkreis"},"federalState":{"key":"16","name":"Thüringen"}},{"name":"Ebenhardser Dorfstr.","postalCode":"98646","locality":"Hildburghausen","municipality":{"key":"16069024","name":"Hildburghausen, Stadt","type":"Stadt"},"district":{"key":"16069","name":"Hildburghausen","type":"Landkreis"},"federalState":{"key":"16","name":"Thüringen"}},{"name":"Ebenhardser Neustadt","postalCode":"98646","locality":"Hildburghausen","municipality":{"key":"16069024","name":"Hildburghausen, Stadt","type":"Stadt"},"district":{"key":"16069","name":"Hildburghausen","type":"Landkreis"},"federalState":{"key":"16","name":"Thüringen"}},{"name":"Eberhardser Dorfstr.","postalCode":"98646","locality":"Hildburghausen","municipality":{"key":"16069024","name":"Hildburghausen, Stadt","type":"Stadt"},"district":{"key":"16069","name":"Hildburghausen","type":"Landkreis"},"federalState":{"key":"16","name":"Thüringen"}},{"name":"Eibenweg","postalCode":"98646","locality":"Hildburghausen","municipality":{"key":"16069024","name":"Hildburghausen, Stadt","type":"Stadt"},"district":{"key":"16069","name":"Hildburghausen","type":"Landkreis"},"federalState":{"key":"16","name":"Thüringen"}},{"name":"Eisfelder Str.","postalCode":"98646","locality":"Hildburghausen","municipality":{"key":"16069024","name":"Hildburghausen, Stadt","type":"Stadt"},"district":{"key":"16069","name":"Hildburghausen","type":"Landkreis"},"federalState":{"key":"16","name":"Thüringen"}},{"name":"Eishäuser Str.","postalCode":"98646","locality":"Hildburghausen","municipality":{"key":"16069024","name":"Hildburghausen, Stadt","type":"Stadt"},"district":{"key":"16069","name":"Hildburghausen","type":"Landkreis"},"federalState":{"key":"16","name":"Thüringen"}},{"name":"Elsternweg","postalCode":"98646","locality":"Hildburghausen","municipality":{"key":"16069024","name":"Hildburghausen, Stadt","type":"Stadt"},"district":{"key":"16069","name":"Hildburghausen","type":"Landkreis"},"federalState":{"key":"16","name":"Thüringen"}},{"name":"Erlenweg","postalCode":"98646","locality":"Hildburghausen","municipality":{"key":"16069024","name":"Hildburghausen, Stadt","type":"Stadt"},"district":{"key":"16069","name":"Hildburghausen","type":"Landkreis"},"federalState":{"key":"16","name":"Thüringen"}},{"name":"Ernst-Thälmann-Platz","postalCode":"98646","locality":"Hildburghausen","municipality":{"key":"16069024","name":"Hildburghausen, Stadt","type":"Stadt"},"district":{"key":"16069","name":"Hildburghausen","type":"Landkreis"},"federalState":{"key":"16","name":"Thüringen"}},{"name":"Fabrikstr.","postalCode":"98660","locality":"Kloster Veßra","municipality":{"key":"16069025","name":"Kloster Veßra","type":"Kreisangehörige_Gemeinde"},"district":{"key":"16069","name":"Hildburghausen","type":"Landkreis"},"federalState":{"key":"16","name":"Thüringen"}},{"name":"Gartenstr.","postalCode":"98660","locality":"Kloster Veßra","municipality":{"key":"16069025","name":"Kloster Veßra","type":"Kreisangehörige_Gemeinde"},"district":{"key":"16069","name":"Hildburghausen","type":"Landkreis"},"federalState":{"key":"16","name":"Thüringen"}},{"name":"Hauptstr.","postalCode":"98660","locality":"Kloster Veßra","municipality":{"key":"16069025","name":"Kloster Veßra","type":"Kreisangehörige_Gemeinde"},"district":{"key":"16069","name":"Hildburghausen","type":"Landkreis"},"federalState":{"key":"16","name":"Thüringen"}},{"name":"Igelweg","postalCode":"98646","locality":"Hildburghausen","municipality":{"key":"16069024","name":"Hildburghausen, Stadt","type":"Stadt"},"district":{"key":"16069","name":"Hildburghausen","type":"Landkreis"},"federalState":{"key":"16","name":"Thüringen"}},{"name":"Iltisweg","postalCode":"98646","locality":"Hildburghausen","municipality":{"key":"16069024","name":"Hildburghausen, Stadt","type":"Stadt"},"district":{"key":"16069","name":"Hildburghausen","type":"Landkreis"},"federalState":{"key":"16","name":"Thüringen"}},{"name":"Immanuel-Kant-Platz","postalCode":"98646","locality":"Hildburghausen","municipality":{"key":"16069024","name":"Hildburghausen, Stadt","type":"Stadt"},"district":{"key":"16069","name":"Hildburghausen","type":"Landkreis"},"federalState":{"key":"16","name":"Thüringen"}},{"name":"Johann-Sebastian-Bach-Platz","postalCode":"98646","locality":"Hildburghausen","municipality":{"key":"16069024","name":"Hildburghausen, Stadt","type":"Stadt"},"district":{"key":"16069","name":"Hildburghausen","type":"Landkreis"},"federalState":{"key":"16","name":"Thüringen"}},{"name":"Johann-Sebastian-Bach-Str.","postalCode":"98646","locality":"Hildburghausen","municipality":{"key":"16069024","name":"Hildburghausen, Stadt","type":"Stadt"},"district":{"key":"16069","name":"Hildburghausen","type":"Landkreis"},"federalState":{"key":"16","name":"Thüringen"}},{"name":"Joseph-Meyer-Str.","postalCode":"98646","locality":"Hildburghausen","municipality":{"key":"16069024","name":"Hildburghausen, Stadt","type":"Stadt"},"district":{"key":"16069","name":"Hildburghausen","type":"Landkreis"},"federalState":{"key":"16","name":"Thüringen"}},{"name":"Kanonenweg","postalCode":"98646","locality":"Hildburghausen","municipality":{"key":"16069024","name":"Hildburghausen, Stadt","type":"Stadt"},"district":{"key":"16069","name":"Hildburghausen","type":"Landkreis"},"federalState":{"key":"16","name":"Thüringen"}},{"name":"Kehrweg","postalCode":"98646","locality":"Hildburghausen","municipality":{"key":"16069024","name":"Hildburghausen, Stadt","type":"Stadt"},"district":{"key":"16069","name":"Hildburghausen","type":"Landkreis"},"federalState":{"key":"16","name":"Thüringen"}},{"name":"Kirchgasse","postalCode":"98646","locality":"Hildburghausen","municipality":{"key":"16069024","name":"Hildburghausen, Stadt","type":"Stadt"},"district":{"key":"16069","name":"Hildburghausen","type":"Landkreis"},"federalState":{"key":"16","name":"Thüringen"}},{"name":"Kirchstr.","postalCode":"98646","locality":"Hildburghausen","municipality":{"key":"16069024","name":"Hildburghausen, Stadt","type":"Stadt"},"district":{"key":"16069","name":"Hildburghausen","type":"Landkreis"},"federalState":{"key":"16","name":"Thüringen"}},{"name":"Kirchweg","postalCode":"98646","locality":"Hildburghausen","municipality":{"key":"16069024","name":"Hildburghausen, Stadt","type":"Stadt"},"district":{"key":"16069","name":"Hildburghausen","type":"Landkreis"},"federalState":{"key":"16","name":"Thüringen"}},{"name":"Kirchwiesen","postalCode":"98646","locality":"Hildburghausen","municipality":{"key":"16069024","name":"Hildburghausen, Stadt","type":"Stadt"},"district":{"key":"16069","name":"Hildburghausen","type":"Landkreis"},"federalState":{"key":"16","name":"Thüringen"}},{"name":"Knappengasse","postalCode":"98646","locality":"Hildburghausen","municipality":{"key":"16069024","name":"Hildburghausen, Stadt","type":"Stadt"},"district":{"key":"16069","name":"Hildburghausen","type":"Landkreis"},"federalState":{"key":"16","name":"Thüringen"}},{"name":"Krautbergweg","postalCode":"98646","locality":"Hildburghausen","municipality":{"key":"16069024","name":"Hildburghausen, Stadt","type":"Stadt"},"district":{"key":"16069","name":"Hildburghausen","type":"Landkreis"},"federalState":{"key":"16","name":"Thüringen"}},{"name":"Kuhgasse","postalCode":"98646","locality":"Hildburghausen","municipality":{"key":"16069024","name":"Hildburghausen, Stadt","type":"Stadt"},"district":{"key":"16069","name":"Hildburghausen","type":"Landkreis"},"federalState":{"key":"16","name":"Thüringen"}},{"name":"Langer Steg","postalCode":"98646","locality":"Hildburghausen","municipality":{"key":"16069024","name":"Hildburghausen, Stadt","type":"Stadt"},"district":{"key":"16069","name":"Hildburghausen","type":"Landkreis"},"federalState":{"key":"16","name":"Thüringen"}},{"name":"Lärchenweg","postalCode":"98646","locality":"Hildburghausen","municipality":{"key":"16069024","name":"Hildburghausen, Stadt","type":"Stadt"},"district":{"key":"16069","name":"Hildburghausen","type":"Landkreis"},"federalState":{"key":"16","name":"Thüringen"}},{"name":"Leimriether Dorfstr.","postalCode":"98646","locality":"Hildburghausen","municipality":{"key":"16069024","name":"Hildburghausen, Stadt","type":"Stadt"},"district":{"key":"16069","name":"Hildburghausen","type":"Landkreis"},"federalState":{"key":"16","name":"Thüringen"}},{"name":"Leimriether Hauptstr.","postalCode":"98646","locality":"Hildburghausen","municipality":{"key":"16069024","name":"Hildburghausen, Stadt","type":"Stadt"},"district":{"key":"16069","name":"Hildburghausen","type":"Landkreis"},"federalState":{"key":"16","name":"Thüringen"}},{"name":"Ligustergasse","postalCode":"98646","locality":"Hildburghausen","municipality":{"key":"16069024","name":"Hildburghausen, Stadt","type":"Stadt"},"district":{"key":"16069","name":"Hildburghausen","type":"Landkreis"},"federalState":{"key":"16","name":"Thüringen"}},{"name":"Ludwig-Jahn-Str.","postalCode":"98646","locality":"Hildburghausen","municipality":{"key":"16069024","name":"Hildburghausen, Stadt","type":"Stadt"},"district":{"key":"16069","name":"Hildburghausen","type":"Landkreis"},"federalState":{"key":"16","name":"Thüringen"}},{"name":"Marderwiesen","postalCode":"98646","locality":"Hildburghausen","municipality":{"key":"16069024","name":"Hildburghausen, Stadt","type":"Stadt"},"district":{"key":"16069","name":"Hildburghausen","type":"Landkreis"},"federalState":{"key":"16","name":"Thüringen"}},{"name":"Marienstr.","postalCode":"98646","locality":"Hildburghausen","municipality":{"key":"16069024","name":"Hildburghausen, Stadt","type":"Stadt"},"district":{"key":"16069","name":"Hildburghausen","type":"Landkreis"},"federalState":{"key":"16","name":"Thüringen"}},{"name":"Martin-Luther-Str.","postalCode":"98646","locality":"Hildburghausen","municipality":{"key":"16069024","name":"Hildburghausen, Stadt","type":"Stadt"},"district":{"key":"16069","name":"Hildburghausen","type":"Landkreis"},"federalState":{"key":"16","name":"Thüringen"}},{"name":"Massenhäuser Str.","postalCode":"98646","locality":"Hildburghausen","municipality":{"key":"16069024","name":"Hildburghausen, Stadt","type":"Stadt"},"district":{"key":"16069","name":"Hildburghausen","type":"Landkreis"},"federalState":{"key":"16","name":"Thüringen"}},{"name":"Max-Michaelis-Str.","postalCode":"98646","locality":"Hildburghausen","municipality":{"key":"16069024","name":"Hildburghausen, Stadt","type":"Stadt"},"district":{"key":"16069","name":"Hildburghausen","type":"Landkreis"},"federalState":{"key":"16","name":"Thüringen"}},{"name":"Mohnhäcksweg","postalCode":"98646","locality":"Hildburghausen","municipality":{"key":"16069024","name":"Hildburghausen, Stadt","type":"Stadt"},"district":{"key":"16069","name":"Hildburghausen","type":"Landkreis"},"federalState":{"key":"16","name":"Thüringen"}},{"name":"Mühlrangen","postalCode":"98646","locality":"Hildburghausen","municipality":{"key":"16069024","name":"Hildburghausen, Stadt","type":"Stadt"},"district":{"key":"16069","name":"Hildburghausen","type":"Landkreis"},"federalState":{"key":"16","name":"Thüringen"}},{"name":"Neuhofer Str.","postalCode":"98660","locality":"Kloster Veßra","municipality":{"key":"16069025","name":"Kloster Veßra","type":"Kreisangehörige_Gemeinde"},"district":{"key":"16069","name":"Hildburghausen","type":"Landkreis"},"federalState":{"key":"16","name":"Thüringen"}},{"name":"Obere Allee","postalCode":"98646","locality":"Hildburghausen","municipality":{"key":"16069024","name":"Hildburghausen, Stadt","type":"Stadt"},"district":{"key":"16069","name":"Hildburghausen","type":"Landkreis"},"federalState":{"key":"16","name":"Thüringen"}},{"name":"Obere Braugasse","postalCode":"98646","locality":"Hildburghausen","municipality":{"key":"16069024","name":"Hildburghausen, Stadt","type":"Stadt"},"district":{"key":"16069","name":"Hildburghausen","type":"Landkreis"},"federalState":{"key":"16","name":"Thüringen"}},{"name":"Obere Dorfstr.","postalCode":"98646","locality":"Hildburghausen","municipality":{"key":"16069024","name":"Hildburghausen, Stadt","type":"Stadt"},"district":{"key":"16069","name":"Hildburghausen","type":"Landkreis"},"federalState":{"key":"16","name":"Thüringen"}},{"name":"Obere Gasse","postalCode":"98646","locality":"Hildburghausen","municipality":{"key":"16069024","name":"Hildburghausen, Stadt","type":"Stadt"},"district":{"key":"16069","name":"Hildburghausen","type":"Landkreis"},"federalState":{"key":"16","name":"Thüringen"}},{"name":"Obere Marktstr.","postalCode":"98646","locality":"Hildburghausen","municipality":{"key":"16069024","name":"Hildburghausen, Stadt","type":"Stadt"},"district":{"key":"16069","name":"Hildburghausen","type":"Landkreis"},"federalState":{"key":"16","name":"Thüringen"}},{"name":"Oberer Weinberg","postalCode":"98646","locality":"Hildburghausen","municipality":{"key":"16069024","name":"Hildburghausen, Stadt","type":"Stadt"},"district":{"key":"16069","name":"Hildburghausen","type":"Landkreis"},"federalState":{"key":"16","name":"Thüringen"}},{"name":"Oberes Kleinodsfeld","postalCode":"98646","locality":"Hildburghausen","municipality":{"key":"16069024","name":"Hildburghausen, Stadt","type":"Stadt"},"district":{"key":"16069","name":"Hildburghausen","type":"Landkreis"},"federalState":{"key":"16","name":"Thüringen"}},{"name":"Papendicksgäßchen","postalCode":"98646","locality":"Hildburghausen","municipality":{"key":"16069024","name":"Hildburghausen, Stadt","type":"Stadt"},"district":{"key":"16069","name":"Hildburghausen","type":"Landkreis"},"federalState":{"key":"16","name":"Thüringen"}},{"name":"Parkgelände der Helios Fachklinik","postalCode":"98646","locality":"Hildburghausen","municipality":{"key":"16069024","name":"Hildburghausen, Stadt","type":"Stadt"},"district":{"key":"16069","name":"Hildburghausen","type":"Landkreis"},"federalState":{"key":"16","name":"Thüringen"}},{"name":"Pehlrimover Str.","postalCode":"98646","locality":"Hildburghausen","municipality":{"key":"16069024","name":"Hildburghausen, Stadt","type":"Stadt"},"district":{"key":"16069","name":"Hildburghausen","type":"Landkreis"},"federalState":{"key":"16","name":"Thüringen"}},{"name":"Pfersdorfer Anspann","postalCode":"98646","locality":"Hildburghausen","municipality":{"key":"16069024","name":"Hildburghausen, Stadt","type":"Stadt"},"district":{"key":"16069","name":"Hildburghausen","type":"Landkreis"},"federalState":{"key":"16","name":"Thüringen"}},{"name":"Pfersdorfer Gries","postalCode":"98646","locality":"Hildburghausen","municipality":{"key":"16069024","name":"Hildburghausen, Stadt","type":"Stadt"},"district":{"key":"16069","name":"Hildburghausen","type":"Landkreis"},"federalState":{"key":"16","name":"Thüringen"}},{"name":"Pfersdorfer Hauptstr.","postalCode":"98646","locality":"Hildburghausen","municipality":{"key":"16069024","name":"Hildburghausen, Stadt","type":"Stadt"},"district":{"key":"16069","name":"Hildburghausen","type":"Landkreis"},"federalState":{"key":"16","name":"Thüringen"}},{"name":"Pfersdorfer Str.","postalCode":"98646","locality":"Hildburghausen","municipality":{"key":"16069024","name":"Hildburghausen, Stadt","type":"Stadt"},"district":{"key":"16069","name":"Hildburghausen","type":"Landkreis"},"federalState":{"key":"16","name":"Thüringen"}},{"name":"Pfersdorfer Untere Dorfstr.","postalCode":"98646","locality":"Hildburghausen","municipality":{"key":"16069024","name":"Hildburghausen, Stadt","type":"Stadt"},"district":{"key":"16069","name":"Hildburghausen","type":"Landkreis"},"federalState":{"key":"16","name":"Thüringen"}},{"name":"Pulvermühlenweg","postalCode":"98646","locality":"Hildburghausen","municipality":{"key":"16069024","name":"Hildburghausen, Stadt","type":"Stadt"},"district":{"key":"16069","name":"Hildburghausen","type":"Landkreis"},"federalState":{"key":"16","name":"Thüringen"}},{"name":"Puschkinplatz","postalCode":"98646","locality":"Hildburghausen","municipality":{"key":"16069024","name":"Hildburghausen, Stadt","type":"Stadt"},"district":{"key":"16069","name":"Hildburghausen","type":"Landkreis"},"federalState":{"key":"16","name":"Thüringen"}},{"name":"Rathausgasse","postalCode":"98646","locality":"Hildburghausen","municipality":{"key":"16069024","name":"Hildburghausen, Stadt","type":"Stadt"},"district":{"key":"16069","name":"Hildburghausen","type":"Landkreis"},"federalState":{"key":"16","name":"Thüringen"}},{"name":"Rehweg","postalCode":"98646","locality":"Hildburghausen","municipality":{"key":"16069024","name":"Hildburghausen, Stadt","type":"Stadt"},"district":{"key":"16069","name":"Hildburghausen","type":"Landkreis"},"federalState":{"key":"16","name":"Thüringen"}},{"name":"Reinhold-Huhn-Str.","postalCode":"98646","locality":"Hildburghausen","municipality":{"key":"16069024","name":"Hildburghausen, Stadt","type":"Stadt"},"district":{"key":"16069","name":"Hildburghausen","type":"Landkreis"},"federalState":{"key":"16","name":"Thüringen"}},{"name":"Reuriether Weg","postalCode":"98646","locality":"Hildburghausen","municipality":{"key":"16069024","name":"Hildburghausen, Stadt","type":"Stadt"},"district":{"key":"16069","name":"Hildburghausen","type":"Landkreis"},"federalState":{"key":"16","name":"Thüringen"}},{"name":"Römhilder Str.","postalCode":"98646","locality":"Hildburghausen","municipality":{"key":"16069024","name":"Hildburghausen, Stadt","type":"Stadt"},"district":{"key":"16069","name":"Hildburghausen","type":"Landkreis"},"federalState":{"key":"16","name":"Thüringen"}},{"name":"Rosa-Luxemburg-Str.","postalCode":"98646","locality":"Hildburghausen","municipality":{"key":"16069024","name":"Hildburghausen, Stadt","type":"Stadt"},"district":{"key":"16069","name":"Hildburghausen","type":"Landkreis"},"federalState":{"key":"16","name":"Thüringen"}},{"name":"Rosengasse","postalCode":"98646","locality":"Hildburghausen","municipality":{"key":"16069024","name":"Hildburghausen, Stadt","type":"Stadt"},"district":{"key":"16069","name":"Hildburghausen","type":"Landkreis"},"federalState":{"key":"16","name":"Thüringen"}},{"name":"Rosenweg","postalCode":"98646","locality":"Hildburghausen","municipality":{"key":"16069024","name":"Hildburghausen, Stadt","type":"Stadt"},"district":{"key":"16069","name":"Hildburghausen","type":"Landkreis"},"federalState":{"key":"16","name":"Thüringen"}},{"name":"Rote Leite","postalCode":"98646","locality":"Hildburghausen","municipality":{"key":"16069024","name":"Hildburghausen, Stadt","type":"Stadt"},"district":{"key":"16069","name":"Hildburghausen","type":"Landkreis"},"federalState":{"key":"16","name":"Thüringen"}},{"name":"Roter Hügel","postalCode":"98646","locality":"Hildburghausen","municipality":{"key":"16069024","name":"Hildburghausen, Stadt","type":"Stadt"},"district":{"key":"16069","name":"Hildburghausen","type":"Landkreis"},"federalState":{"key":"16","name":"Thüringen"}},{"name":"Rudolf-Breitscheid-Str.","postalCode":"98646","locality":"Hildburghausen","municipality":{"key":"16069024","name":"Hildburghausen, Stadt","type":"Stadt"},"district":{"key":"16069","name":"Hildburghausen","type":"Landkreis"},"federalState":{"key":"16","name":"Thüringen"}},{"name":"Schleusinger Str.","postalCode":"98660","locality":"Kloster Veßra","municipality":{"key":"16069025","name":"Kloster Veßra","type":"Kreisangehörige_Gemeinde"},"district":{"key":"16069","name":"Hildburghausen","type":"Landkreis"},"federalState":{"key":"16","name":"Thüringen"}},{"name":"Schulstr.","postalCode":"98660","locality":"Kloster Veßra","municipality":{"key":"16069025","name":"Kloster Veßra","type":"Kreisangehörige_Gemeinde"},"district":{"key":"16069","name":"Hildburghausen","type":"Landkreis"},"federalState":{"key":"16","name":"Thüringen"}},{"name":"Tannenweg","postalCode":"98646","locality":"Hildburghausen","municipality":{"key":"16069024","name":"Hildburghausen, Stadt","type":"Stadt"},"district":{"key":"16069","name":"Hildburghausen","type":"Landkreis"},"federalState":{"key":"16","name":"Thüringen"}},{"name":"Tulpenweg","postalCode":"98646","locality":"Hildburghausen","municipality":{"key":"16069024","name":"Hildburghausen, Stadt","type":"Stadt"},"district":{"key":"16069","name":"Hildburghausen","type":"Landkreis"},"federalState":{"key":"16","name":"Thüringen"}},{"name":"Ulmenweg","postalCode":"98646","locality":"Hildburghausen","municipality":{"key":"16069024","name":"Hildburghausen, Stadt","type":"Stadt"},"district":{"key":"16069","name":"Hildburghausen","type":"Landkreis"},"federalState":{"key":"16","name":"Thüringen"}},{"name":"Unter den Weinbergen","postalCode":"98646","locality":"Hildburghausen","municipality":{"key":"16069024","name":"Hildburghausen, Stadt","type":"Stadt"},"district":{"key":"16069","name":"Hildburghausen","type":"Landkreis"},"federalState":{"key":"16","name":"Thüringen"}},{"name":"Untere Allee","postalCode":"98646","locality":"Hildburghausen","municipality":{"key":"16069024","name":"Hildburghausen, Stadt","type":"Stadt"},"district":{"key":"16069","name":"Hildburghausen","type":"Landkreis"},"federalState":{"key":"16","name":"Thüringen"}},{"name":"Untere Braugasse","postalCode":"98646","locality":"Hildburghausen","municipality":{"key":"16069024","name":"Hildburghausen, Stadt","type":"Stadt"},"district":{"key":"16069","name":"Hildburghausen","type":"Landkreis"},"federalState":{"key":"16","name":"Thüringen"}},{"name":"Untere Dorfstr.","postalCode":"98646","locality":"Hildburghausen","municipality":{"key":"16069024","name":"Hildburghausen, Stadt","type":"Stadt"},"district":{"key":"16069","name":"Hildburghausen","type":"Landkreis"},"federalState":{"key":"16","name":"Thüringen"}},{"name":"Untere Marktstr.","postalCode":"98646","locality":"Hildburghausen","municipality":{"key":"16069024","name":"Hildburghausen, Stadt","type":"Stadt"},"district":{"key":"16069","name":"Hildburghausen","type":"Landkreis"},"federalState":{"key":"16","name":"Thüringen"}},{"name":"Unterer Gemeindeberg","postalCode":"98646","locality":"Hildburghausen","municipality":{"key":"16069024","name":"Hildburghausen, Stadt","type":"Stadt"},"district":{"key":"16069","name":"Hildburghausen","type":"Landkreis"},"federalState":{"key":"16","name":"Thüringen"}},{"name":"Unterer Gries","postalCode":"98646","locality":"Hildburghausen","municipality":{"key":"16069024","name":"Hildburghausen, Stadt","type":"Stadt"},"district":{"key":"16069","name":"Hildburghausen","type":"Landkreis"},"federalState":{"key":"16","name":"Thüringen"}},{"name":"Unterer Weinberg","postalCode":"98646","locality":"Hildburghausen","municipality":{"key":"16069024","name":"Hildburghausen, Stadt","type":"Stadt"},"district":{"key":"16069","name":"Hildburghausen","type":"Landkreis"},"federalState":{"key":"16","name":"Thüringen"}},{"name":"Unteres Kleinodsfeld","postalCode":"98646","locality":"Hildburghausen","municipality":{"key":"16069024","name":"Hildburghausen, Stadt","type":"Stadt"},"district":{"key":"16069","name":"Hildburghausen","type":"Landkreis"},"federalState":{"key":"16","name":"Thüringen"}},{"name":"Vorderer Steig","postalCode":"98646","locality":"Hildburghausen","municipality":{"key":"16069024","name":"Hildburghausen, Stadt","type":"Stadt"},"district":{"key":"16069","name":"Hildburghausen","type":"Landkreis"},"federalState":{"key":"16","name":"Thüringen"}},{"name":"Waldstr.","postalCode":"98646","locality":"Hildburghausen","municipality":{"key":"16069024","name":"Hildburghausen, Stadt","type":"Stadt"},"district":{"key":"16069","name":"Hildburghausen","type":"Landkreis"},"federalState":{"key":"16","name":"Thüringen"}},{"name":"Walkmühlenweg","postalCode":"98646","locality":"Hildburghausen","municipality":{"key":"16069024","name":"Hildburghausen, Stadt","type":"Stadt"},"district":{"key":"16069","name":"Hildburghausen","type":"Landkreis"},"federalState":{"key":"16","name":"Thüringen"}},{"name":"Wallrabser Str.","postalCode":"98646","locality":"Hildburghausen","municipality":{"key":"16069024","name":"Hildburghausen, Stadt","type":"Stadt"},"district":{"key":"16069","name":"Hildburghausen","type":"Landkreis"},"federalState":{"key":"16","name":"Thüringen"}},{"name":"Weitersrodaer Str.","postalCode":"98646","locality":"Hildburghausen","municipality":{"key":"16069024","name":"Hildburghausen, Stadt","type":"Stadt"},"district":{"key":"16069","name":"Hildburghausen","type":"Landkreis"},"federalState":{"key":"16","name":"Thüringen"}},{"name":"Werra-Burgen-Steig","postalCode":"98646","locality":"Hildburghausen","municipality":{"key":"16069024","name":"Hildburghausen, Stadt","type":"Stadt"},"district":{"key":"16069","name":"Hildburghausen","type":"Landkreis"},"federalState":{"key":"16","name":"Thüringen"}},{"name":"Wiedersbacher Str.","postalCode":"98646","locality":"Hildburghausen","municipality":{"key":"16069024","name":"Hildburghausen, Stadt","type":"Stadt"},"district":{"key":"16069","name":"Hildburghausen","type":"Landkreis"},"federalState":{"key":"16","name":"Thüringen"}},{"name":"Wiesenstr.","postalCode":"98646","locality":"Hildburghausen","municipality":{"key":"16069024","name":"Hildburghausen, Stadt","type":"Stadt"},"district":{"key":"16069","name":"Hildburghausen","type":"Landkreis"},"federalState":{"key":"16","name":"Thüringen"}},{"name":"Wilhelm-Rathke-Str.","postalCode":"98646","locality":"Hildburghausen","municipality":{"key":"16069024","name":"Hildburghausen, Stadt","type":"Stadt"},"district":{"key":"16069","name":"Hildburghausen","type":"Landkreis"},"federalState":{"key":"16","name":"Thüringen"}},{"name":"Winzergasse","postalCode":"98646","locality":"Hildburghausen","municipality":{"key":"16069024","name":"Hildburghausen, Stadt","type":"Stadt"},"district":{"key":"16069","name":"Hildburghausen","type":"Landkreis"},"federalState":{"key":"16","name":"Thüringen"}},{"name":"Würselener Str.","postalCode":"98646","locality":"Hildburghausen","municipality":{"key":"16069024","name":"Hildburghausen, Stadt","type":"Stadt"},"district":{"key":"16069","name":"Hildburghausen","type":"Landkreis"},"federalState":{"key":"16","name":"Thüringen"}},{"name":"Zwick","postalCode":"98660","locality":"Kloster Veßra","municipality":{"key":"16069025","name":"Kloster Veßra","type":"Kreisangehörige_Gemeinde"},"district":{"key":"16069","name":"Hildburghausen","type":"Landkreis"},"federalState":{"key":"16","name":"Thüringen"}},]