[{"name":"Agathastr.","postalCode":"33161","locality":"Hövelhof","municipality":{"key":"05774024","name":"Hövelhof, Sennegemeinde","type":"Kreisangehörige_Gemeinde"},"district":{"key":"05774","name":"Paderborn","type":"Kreis"},"federalState":{"key":"05","name":"Nordrhein-Westfalen"}},{"name":"Ahornstr.","postalCode":"33161","locality":"Hövelhof","municipality":{"key":"05774024","name":"Hövelhof, Sennegemeinde","type":"Kreisangehörige_Gemeinde"},"district":{"key":"05774","name":"Paderborn","type":"Kreis"},"federalState":{"key":"05","name":"Nordrhein-Westfalen"}},{"name":"Akazienstr.","postalCode":"33161","locality":"Hövelhof","municipality":{"key":"05774024","name":"Hövelhof, Sennegemeinde","type":"Kreisangehörige_Gemeinde"},"district":{"key":"05774","name":"Paderborn","type":"Kreis"},"federalState":{"key":"05","name":"Nordrhein-Westfalen"}},{"name":"Alkenbrink","postalCode":"33161","locality":"Hövelhof","municipality":{"key":"05774024","name":"Hövelhof, Sennegemeinde","type":"Kreisangehörige_Gemeinde"},"district":{"key":"05774","name":"Paderborn","type":"Kreis"},"federalState":{"key":"05","name":"Nordrhein-Westfalen"}},{"name":"Allee","postalCode":"33161","locality":"Hövelhof","municipality":{"key":"05774024","name":"Hövelhof, Sennegemeinde","type":"Kreisangehörige_Gemeinde"},"district":{"key":"05774","name":"Paderborn","type":"Kreis"},"federalState":{"key":"05","name":"Nordrhein-Westfalen"}},{"name":"Alte Poststr.","postalCode":"33161","locality":"Hövelhof","municipality":{"key":"05774024","name":"Hövelhof, Sennegemeinde","type":"Kreisangehörige_Gemeinde"},"district":{"key":"05774","name":"Paderborn","type":"Kreis"},"federalState":{"key":"05","name":"Nordrhein-Westfalen"}},{"name":"Alter Markt","postalCode":"33161","locality":"Hövelhof","municipality":{"key":"05774024","name":"Hövelhof, Sennegemeinde","type":"Kreisangehörige_Gemeinde"},"district":{"key":"05774","name":"Paderborn","type":"Kreis"},"federalState":{"key":"05","name":"Nordrhein-Westfalen"}},{"name":"Am Biotop","postalCode":"33161","locality":"Hövelhof","municipality":{"key":"05774024","name":"Hövelhof, Sennegemeinde","type":"Kreisangehörige_Gemeinde"},"district":{"key":"05774","name":"Paderborn","type":"Kreis"},"federalState":{"key":"05","name":"Nordrhein-Westfalen"}},{"name":"Am Buchweizenfeld","postalCode":"33161","locality":"Hövelhof","municipality":{"key":"05774024","name":"Hövelhof, Sennegemeinde","type":"Kreisangehörige_Gemeinde"},"district":{"key":"05774","name":"Paderborn","type":"Kreis"},"federalState":{"key":"05","name":"Nordrhein-Westfalen"}},{"name":"Am Finkenbach","postalCode":"33161","locality":"Hövelhof","municipality":{"key":"05774024","name":"Hövelhof, Sennegemeinde","type":"Kreisangehörige_Gemeinde"},"district":{"key":"05774","name":"Paderborn","type":"Kreis"},"federalState":{"key":"05","name":"Nordrhein-Westfalen"}},{"name":"Am Fluit","postalCode":"33161","locality":"Hövelhof","municipality":{"key":"05774024","name":"Hövelhof, Sennegemeinde","type":"Kreisangehörige_Gemeinde"},"district":{"key":"05774","name":"Paderborn","type":"Kreis"},"federalState":{"key":"05","name":"Nordrhein-Westfalen"}},{"name":"Am Friedhof","postalCode":"33161","locality":"Hövelhof","municipality":{"key":"05774024","name":"Hövelhof, Sennegemeinde","type":"Kreisangehörige_Gemeinde"},"district":{"key":"05774","name":"Paderborn","type":"Kreis"},"federalState":{"key":"05","name":"Nordrhein-Westfalen"}},{"name":"Am Hallenbad","postalCode":"33161","locality":"Hövelhof","municipality":{"key":"05774024","name":"Hövelhof, Sennegemeinde","type":"Kreisangehörige_Gemeinde"},"district":{"key":"05774","name":"Paderborn","type":"Kreis"},"federalState":{"key":"05","name":"Nordrhein-Westfalen"}},{"name":"Am Holtebach","postalCode":"33161","locality":"Hövelhof","municipality":{"key":"05774024","name":"Hövelhof, Sennegemeinde","type":"Kreisangehörige_Gemeinde"},"district":{"key":"05774","name":"Paderborn","type":"Kreis"},"federalState":{"key":"05","name":"Nordrhein-Westfalen"}},{"name":"Am Hüwel","postalCode":"33161","locality":"Hövelhof","municipality":{"key":"05774024","name":"Hövelhof, Sennegemeinde","type":"Kreisangehörige_Gemeinde"},"district":{"key":"05774","name":"Paderborn","type":"Kreis"},"federalState":{"key":"05","name":"Nordrhein-Westfalen"}},{"name":"Am Kiefernwäldchen","postalCode":"33161","locality":"Hövelhof","municipality":{"key":"05774024","name":"Hövelhof, Sennegemeinde","type":"Kreisangehörige_Gemeinde"},"district":{"key":"05774","name":"Paderborn","type":"Kreis"},"federalState":{"key":"05","name":"Nordrhein-Westfalen"}},{"name":"Am Knick","postalCode":"33161","locality":"Hövelhof","municipality":{"key":"05774024","name":"Hövelhof, Sennegemeinde","type":"Kreisangehörige_Gemeinde"},"district":{"key":"05774","name":"Paderborn","type":"Kreis"},"federalState":{"key":"05","name":"Nordrhein-Westfalen"}},{"name":"Am Kugelfang","postalCode":"33161","locality":"Hövelhof","municipality":{"key":"05774024","name":"Hövelhof, Sennegemeinde","type":"Kreisangehörige_Gemeinde"},"district":{"key":"05774","name":"Paderborn","type":"Kreis"},"federalState":{"key":"05","name":"Nordrhein-Westfalen"}},{"name":"Am Waldbad","postalCode":"33161","locality":"Hövelhof","municipality":{"key":"05774024","name":"Hövelhof, Sennegemeinde","type":"Kreisangehörige_Gemeinde"},"district":{"key":"05774","name":"Paderborn","type":"Kreis"},"federalState":{"key":"05","name":"Nordrhein-Westfalen"}},{"name":"Ansgarstr.","postalCode":"33161","locality":"Hövelhof","municipality":{"key":"05774024","name":"Hövelhof, Sennegemeinde","type":"Kreisangehörige_Gemeinde"},"district":{"key":"05774","name":"Paderborn","type":"Kreis"},"federalState":{"key":"05","name":"Nordrhein-Westfalen"}},{"name":"Apeldamm","postalCode":"33161","locality":"Hövelhof","municipality":{"key":"05774024","name":"Hövelhof, Sennegemeinde","type":"Kreisangehörige_Gemeinde"},"district":{"key":"05774","name":"Paderborn","type":"Kreis"},"federalState":{"key":"05","name":"Nordrhein-Westfalen"}},{"name":"Apelmeierstr.","postalCode":"33161","locality":"Hövelhof","municipality":{"key":"05774024","name":"Hövelhof, Sennegemeinde","type":"Kreisangehörige_Gemeinde"},"district":{"key":"05774","name":"Paderborn","type":"Kreis"},"federalState":{"key":"05","name":"Nordrhein-Westfalen"}},{"name":"Apelteich","postalCode":"33161","locality":"Hövelhof","municipality":{"key":"05774024","name":"Hövelhof, Sennegemeinde","type":"Kreisangehörige_Gemeinde"},"district":{"key":"05774","name":"Paderborn","type":"Kreis"},"federalState":{"key":"05","name":"Nordrhein-Westfalen"}},{"name":"Auf der Rieke","postalCode":"33161","locality":"Hövelhof","municipality":{"key":"05774024","name":"Hövelhof, Sennegemeinde","type":"Kreisangehörige_Gemeinde"},"district":{"key":"05774","name":"Paderborn","type":"Kreis"},"federalState":{"key":"05","name":"Nordrhein-Westfalen"}},{"name":"Augustin-Wibbelt-Str.","postalCode":"33161","locality":"Hövelhof","municipality":{"key":"05774024","name":"Hövelhof, Sennegemeinde","type":"Kreisangehörige_Gemeinde"},"district":{"key":"05774","name":"Paderborn","type":"Kreis"},"federalState":{"key":"05","name":"Nordrhein-Westfalen"}},{"name":"Bachstr.","postalCode":"33161","locality":"Hövelhof","municipality":{"key":"05774024","name":"Hövelhof, Sennegemeinde","type":"Kreisangehörige_Gemeinde"},"district":{"key":"05774","name":"Paderborn","type":"Kreis"},"federalState":{"key":"05","name":"Nordrhein-Westfalen"}},{"name":"Bahnhofstr.","postalCode":"33161","locality":"Hövelhof","municipality":{"key":"05774024","name":"Hövelhof, Sennegemeinde","type":"Kreisangehörige_Gemeinde"},"district":{"key":"05774","name":"Paderborn","type":"Kreis"},"federalState":{"key":"05","name":"Nordrhein-Westfalen"}},{"name":"Bardenhäuerstr.","postalCode":"33161","locality":"Hövelhof","municipality":{"key":"05774024","name":"Hövelhof, Sennegemeinde","type":"Kreisangehörige_Gemeinde"},"district":{"key":"05774","name":"Paderborn","type":"Kreis"},"federalState":{"key":"05","name":"Nordrhein-Westfalen"}},{"name":"Bauernweg","postalCode":"33161","locality":"Hövelhof","municipality":{"key":"05774024","name":"Hövelhof, Sennegemeinde","type":"Kreisangehörige_Gemeinde"},"district":{"key":"05774","name":"Paderborn","type":"Kreis"},"federalState":{"key":"05","name":"Nordrhein-Westfalen"}},{"name":"Belowstr.","postalCode":"33161","locality":"Hövelhof","municipality":{"key":"05774024","name":"Hövelhof, Sennegemeinde","type":"Kreisangehörige_Gemeinde"},"district":{"key":"05774","name":"Paderborn","type":"Kreis"},"federalState":{"key":"05","name":"Nordrhein-Westfalen"}},{"name":"Bentlakestr.","postalCode":"33161","locality":"Hövelhof","municipality":{"key":"05774024","name":"Hövelhof, Sennegemeinde","type":"Kreisangehörige_Gemeinde"},"district":{"key":"05774","name":"Paderborn","type":"Kreis"},"federalState":{"key":"05","name":"Nordrhein-Westfalen"}},{"name":"Bielefelder Str.","postalCode":"33161","locality":"Hövelhof","municipality":{"key":"05774024","name":"Hövelhof, Sennegemeinde","type":"Kreisangehörige_Gemeinde"},"district":{"key":"05774","name":"Paderborn","type":"Kreis"},"federalState":{"key":"05","name":"Nordrhein-Westfalen"}},{"name":"Birkenheide","postalCode":"33161","locality":"Hövelhof","municipality":{"key":"05774024","name":"Hövelhof, Sennegemeinde","type":"Kreisangehörige_Gemeinde"},"district":{"key":"05774","name":"Paderborn","type":"Kreis"},"federalState":{"key":"05","name":"Nordrhein-Westfalen"}},{"name":"Birkenweg","postalCode":"33161","locality":"Hövelhof","municipality":{"key":"05774024","name":"Hövelhof, Sennegemeinde","type":"Kreisangehörige_Gemeinde"},"district":{"key":"05774","name":"Paderborn","type":"Kreis"},"federalState":{"key":"05","name":"Nordrhein-Westfalen"}},{"name":"Blankensandweg","postalCode":"33161","locality":"Hövelhof","municipality":{"key":"05774024","name":"Hövelhof, Sennegemeinde","type":"Kreisangehörige_Gemeinde"},"district":{"key":"05774","name":"Paderborn","type":"Kreis"},"federalState":{"key":"05","name":"Nordrhein-Westfalen"}},{"name":"Bodelschwinghstr.","postalCode":"33161","locality":"Hövelhof","municipality":{"key":"05774024","name":"Hövelhof, Sennegemeinde","type":"Kreisangehörige_Gemeinde"},"district":{"key":"05774","name":"Paderborn","type":"Kreis"},"federalState":{"key":"05","name":"Nordrhein-Westfalen"}},{"name":"Bonhoefferstr.","postalCode":"33161","locality":"Hövelhof","municipality":{"key":"05774024","name":"Hövelhof, Sennegemeinde","type":"Kreisangehörige_Gemeinde"},"district":{"key":"05774","name":"Paderborn","type":"Kreis"},"federalState":{"key":"05","name":"Nordrhein-Westfalen"}},{"name":"Bönninghusenstr.","postalCode":"33161","locality":"Hövelhof","municipality":{"key":"05774024","name":"Hövelhof, Sennegemeinde","type":"Kreisangehörige_Gemeinde"},"district":{"key":"05774","name":"Paderborn","type":"Kreis"},"federalState":{"key":"05","name":"Nordrhein-Westfalen"}},{"name":"Brandenburger Str.","postalCode":"33161","locality":"Hövelhof","municipality":{"key":"05774024","name":"Hövelhof, Sennegemeinde","type":"Kreisangehörige_Gemeinde"},"district":{"key":"05774","name":"Paderborn","type":"Kreis"},"federalState":{"key":"05","name":"Nordrhein-Westfalen"}},{"name":"Brandtstr.","postalCode":"33161","locality":"Hövelhof","municipality":{"key":"05774024","name":"Hövelhof, Sennegemeinde","type":"Kreisangehörige_Gemeinde"},"district":{"key":"05774","name":"Paderborn","type":"Kreis"},"federalState":{"key":"05","name":"Nordrhein-Westfalen"}},{"name":"Bredemeiers Weg","postalCode":"33161","locality":"Hövelhof","municipality":{"key":"05774024","name":"Hövelhof, Sennegemeinde","type":"Kreisangehörige_Gemeinde"},"district":{"key":"05774","name":"Paderborn","type":"Kreis"},"federalState":{"key":"05","name":"Nordrhein-Westfalen"}},{"name":"Bremer Str.","postalCode":"33161","locality":"Hövelhof","municipality":{"key":"05774024","name":"Hövelhof, Sennegemeinde","type":"Kreisangehörige_Gemeinde"},"district":{"key":"05774","name":"Paderborn","type":"Kreis"},"federalState":{"key":"05","name":"Nordrhein-Westfalen"}},{"name":"Breslauer Str.","postalCode":"33161","locality":"Hövelhof","municipality":{"key":"05774024","name":"Hövelhof, Sennegemeinde","type":"Kreisangehörige_Gemeinde"},"district":{"key":"05774","name":"Paderborn","type":"Kreis"},"federalState":{"key":"05","name":"Nordrhein-Westfalen"}},{"name":"Brinks Wiese","postalCode":"33161","locality":"Hövelhof","municipality":{"key":"05774024","name":"Hövelhof, Sennegemeinde","type":"Kreisangehörige_Gemeinde"},"district":{"key":"05774","name":"Paderborn","type":"Kreis"},"federalState":{"key":"05","name":"Nordrhein-Westfalen"}},{"name":"Bruchweg","postalCode":"33161","locality":"Hövelhof","municipality":{"key":"05774024","name":"Hövelhof, Sennegemeinde","type":"Kreisangehörige_Gemeinde"},"district":{"key":"05774","name":"Paderborn","type":"Kreis"},"federalState":{"key":"05","name":"Nordrhein-Westfalen"}},{"name":"Buchenweg","postalCode":"33161","locality":"Hövelhof","municipality":{"key":"05774024","name":"Hövelhof, Sennegemeinde","type":"Kreisangehörige_Gemeinde"},"district":{"key":"05774","name":"Paderborn","type":"Kreis"},"federalState":{"key":"05","name":"Nordrhein-Westfalen"}},{"name":"Buschriege","postalCode":"33161","locality":"Hövelhof","municipality":{"key":"05774024","name":"Hövelhof, Sennegemeinde","type":"Kreisangehörige_Gemeinde"},"district":{"key":"05774","name":"Paderborn","type":"Kreis"},"federalState":{"key":"05","name":"Nordrhein-Westfalen"}},{"name":"Buschweg","postalCode":"33161","locality":"Hövelhof","municipality":{"key":"05774024","name":"Hövelhof, Sennegemeinde","type":"Kreisangehörige_Gemeinde"},"district":{"key":"05774","name":"Paderborn","type":"Kreis"},"federalState":{"key":"05","name":"Nordrhein-Westfalen"}},{"name":"Büskerweg","postalCode":"33161","locality":"Hövelhof","municipality":{"key":"05774024","name":"Hövelhof, Sennegemeinde","type":"Kreisangehörige_Gemeinde"},"district":{"key":"05774","name":"Paderborn","type":"Kreis"},"federalState":{"key":"05","name":"Nordrhein-Westfalen"}},{"name":"Butterblumenweg","postalCode":"33161","locality":"Hövelhof","municipality":{"key":"05774024","name":"Hövelhof, Sennegemeinde","type":"Kreisangehörige_Gemeinde"},"district":{"key":"05774","name":"Paderborn","type":"Kreis"},"federalState":{"key":"05","name":"Nordrhein-Westfalen"}},{"name":"Cäcilienstr.","postalCode":"33104","locality":"Paderborn","municipality":{"key":"05774032","name":"Paderborn, Stadt","type":"Stadt"},"district":{"key":"05774","name":"Paderborn","type":"Kreis"},"federalState":{"key":"05","name":"Nordrhein-Westfalen"}},{"name":"Cheruskerstr.","postalCode":"33102","locality":"Paderborn","municipality":{"key":"05774032","name":"Paderborn, Stadt","type":"Stadt"},"district":{"key":"05774","name":"Paderborn","type":"Kreis"},"federalState":{"key":"05","name":"Nordrhein-Westfalen"}},{"name":"Christel-Poll-Weg","postalCode":"33100","locality":"Paderborn","municipality":{"key":"05774032","name":"Paderborn, Stadt","type":"Stadt"},"district":{"key":"05774","name":"Paderborn","type":"Kreis"},"federalState":{"key":"05","name":"Nordrhein-Westfalen"}},{"name":"Christine-Koch-Str.","postalCode":"33106","locality":"Paderborn","municipality":{"key":"05774032","name":"Paderborn, Stadt","type":"Stadt"},"district":{"key":"05774","name":"Paderborn","type":"Kreis"},"federalState":{"key":"05","name":"Nordrhein-Westfalen"}},{"name":"Christoph-Tölle-Str.","postalCode":"33100","locality":"Paderborn","municipality":{"key":"05774032","name":"Paderborn, Stadt","type":"Stadt"},"district":{"key":"05774","name":"Paderborn","type":"Kreis"},"federalState":{"key":"05","name":"Nordrhein-Westfalen"}},{"name":"Clemens-August-Str.","postalCode":"33102","locality":"Paderborn","municipality":{"key":"05774032","name":"Paderborn, Stadt","type":"Stadt"},"district":{"key":"05774","name":"Paderborn","type":"Kreis"},"federalState":{"key":"05","name":"Nordrhein-Westfalen"}},{"name":"Contzenhof","postalCode":"33104","locality":"Paderborn","municipality":{"key":"05774032","name":"Paderborn, Stadt","type":"Stadt"},"district":{"key":"05774","name":"Paderborn","type":"Kreis"},"federalState":{"key":"05","name":"Nordrhein-Westfalen"}},{"name":"Corveyer Weg","postalCode":"33098","locality":"Paderborn","municipality":{"key":"05774032","name":"Paderborn, Stadt","type":"Stadt"},"district":{"key":"05774","name":"Paderborn","type":"Kreis"},"federalState":{"key":"05","name":"Nordrhein-Westfalen"}},{"name":"Cromptonstr.","postalCode":"33106","locality":"Paderborn","municipality":{"key":"05774032","name":"Paderborn, Stadt","type":"Stadt"},"district":{"key":"05774","name":"Paderborn","type":"Kreis"},"federalState":{"key":"05","name":"Nordrhein-Westfalen"}},{"name":"Csilla-von-Boeselager-Str.","postalCode":"33104","locality":"Paderborn","municipality":{"key":"05774032","name":"Paderborn, Stadt","type":"Stadt"},"district":{"key":"05774","name":"Paderborn","type":"Kreis"},"federalState":{"key":"05","name":"Nordrhein-Westfalen"}},{"name":"Daltrupsweg","postalCode":"33161","locality":"Hövelhof","municipality":{"key":"05774024","name":"Hövelhof, Sennegemeinde","type":"Kreisangehörige_Gemeinde"},"district":{"key":"05774","name":"Paderborn","type":"Kreis"},"federalState":{"key":"05","name":"Nordrhein-Westfalen"}},{"name":"Danziger Str.","postalCode":"33161","locality":"Hövelhof","municipality":{"key":"05774024","name":"Hövelhof, Sennegemeinde","type":"Kreisangehörige_Gemeinde"},"district":{"key":"05774","name":"Paderborn","type":"Kreis"},"federalState":{"key":"05","name":"Nordrhein-Westfalen"}},{"name":"Delbrücker Str.","postalCode":"33161","locality":"Hövelhof","municipality":{"key":"05774024","name":"Hövelhof, Sennegemeinde","type":"Kreisangehörige_Gemeinde"},"district":{"key":"05774","name":"Paderborn","type":"Kreis"},"federalState":{"key":"05","name":"Nordrhein-Westfalen"}},{"name":"Delpstr.","postalCode":"33161","locality":"Hövelhof","municipality":{"key":"05774024","name":"Hövelhof, Sennegemeinde","type":"Kreisangehörige_Gemeinde"},"district":{"key":"05774","name":"Paderborn","type":"Kreis"},"federalState":{"key":"05","name":"Nordrhein-Westfalen"}},{"name":"Detmolder Str.","postalCode":"33161","locality":"Hövelhof","municipality":{"key":"05774024","name":"Hövelhof, Sennegemeinde","type":"Kreisangehörige_Gemeinde"},"district":{"key":"05774","name":"Paderborn","type":"Kreis"},"federalState":{"key":"05","name":"Nordrhein-Westfalen"}},{"name":"Distelweg","postalCode":"33161","locality":"Hövelhof","municipality":{"key":"05774024","name":"Hövelhof, Sennegemeinde","type":"Kreisangehörige_Gemeinde"},"district":{"key":"05774","name":"Paderborn","type":"Kreis"},"federalState":{"key":"05","name":"Nordrhein-Westfalen"}},{"name":"Drosselweg","postalCode":"33161","locality":"Hövelhof","municipality":{"key":"05774024","name":"Hövelhof, Sennegemeinde","type":"Kreisangehörige_Gemeinde"},"district":{"key":"05774","name":"Paderborn","type":"Kreis"},"federalState":{"key":"05","name":"Nordrhein-Westfalen"}},{"name":"Droste-Hülshoff-Str.","postalCode":"33161","locality":"Hövelhof","municipality":{"key":"05774024","name":"Hövelhof, Sennegemeinde","type":"Kreisangehörige_Gemeinde"},"district":{"key":"05774","name":"Paderborn","type":"Kreis"},"federalState":{"key":"05","name":"Nordrhein-Westfalen"}},{"name":"Dr.-Schmidt-Str.","postalCode":"33161","locality":"Hövelhof","municipality":{"key":"05774024","name":"Hövelhof, Sennegemeinde","type":"Kreisangehörige_Gemeinde"},"district":{"key":"05774","name":"Paderborn","type":"Kreis"},"federalState":{"key":"05","name":"Nordrhein-Westfalen"}},{"name":"Dr.-Sonnenschein-Str.","postalCode":"33161","locality":"Hövelhof","municipality":{"key":"05774024","name":"Hövelhof, Sennegemeinde","type":"Kreisangehörige_Gemeinde"},"district":{"key":"05774","name":"Paderborn","type":"Kreis"},"federalState":{"key":"05","name":"Nordrhein-Westfalen"}},{"name":"Dr.-Tack-Str.","postalCode":"33161","locality":"Hövelhof","municipality":{"key":"05774024","name":"Hövelhof, Sennegemeinde","type":"Kreisangehörige_Gemeinde"},"district":{"key":"05774","name":"Paderborn","type":"Kreis"},"federalState":{"key":"05","name":"Nordrhein-Westfalen"}},{"name":"Dullwalsweg","postalCode":"33161","locality":"Hövelhof","municipality":{"key":"05774024","name":"Hövelhof, Sennegemeinde","type":"Kreisangehörige_Gemeinde"},"district":{"key":"05774","name":"Paderborn","type":"Kreis"},"federalState":{"key":"05","name":"Nordrhein-Westfalen"}},{"name":"Dünenweg","postalCode":"33161","locality":"Hövelhof","municipality":{"key":"05774024","name":"Hövelhof, Sennegemeinde","type":"Kreisangehörige_Gemeinde"},"district":{"key":"05774","name":"Paderborn","type":"Kreis"},"federalState":{"key":"05","name":"Nordrhein-Westfalen"}},{"name":"Ebenweg","postalCode":"33161","locality":"Hövelhof","municipality":{"key":"05774024","name":"Hövelhof, Sennegemeinde","type":"Kreisangehörige_Gemeinde"},"district":{"key":"05774","name":"Paderborn","type":"Kreis"},"federalState":{"key":"05","name":"Nordrhein-Westfalen"}},{"name":"Eichendorffstr.","postalCode":"33161","locality":"Hövelhof","municipality":{"key":"05774024","name":"Hövelhof, Sennegemeinde","type":"Kreisangehörige_Gemeinde"},"district":{"key":"05774","name":"Paderborn","type":"Kreis"},"federalState":{"key":"05","name":"Nordrhein-Westfalen"}},{"name":"Einkaufsstr.","postalCode":"33161","locality":"Hövelhof","municipality":{"key":"05774024","name":"Hövelhof, Sennegemeinde","type":"Kreisangehörige_Gemeinde"},"district":{"key":"05774","name":"Paderborn","type":"Kreis"},"federalState":{"key":"05","name":"Nordrhein-Westfalen"}},{"name":"Emsallee","postalCode":"33161","locality":"Hövelhof","municipality":{"key":"05774024","name":"Hövelhof, Sennegemeinde","type":"Kreisangehörige_Gemeinde"},"district":{"key":"05774","name":"Paderborn","type":"Kreis"},"federalState":{"key":"05","name":"Nordrhein-Westfalen"}},{"name":"Emser Kirchweg","postalCode":"33161","locality":"Hövelhof","municipality":{"key":"05774024","name":"Hövelhof, Sennegemeinde","type":"Kreisangehörige_Gemeinde"},"district":{"key":"05774","name":"Paderborn","type":"Kreis"},"federalState":{"key":"05","name":"Nordrhein-Westfalen"}},{"name":"Emssiedlung","postalCode":"33161","locality":"Hövelhof","municipality":{"key":"05774024","name":"Hövelhof, Sennegemeinde","type":"Kreisangehörige_Gemeinde"},"district":{"key":"05774","name":"Paderborn","type":"Kreis"},"federalState":{"key":"05","name":"Nordrhein-Westfalen"}},{"name":"Engelbrechtsweg","postalCode":"33161","locality":"Hövelhof","municipality":{"key":"05774024","name":"Hövelhof, Sennegemeinde","type":"Kreisangehörige_Gemeinde"},"district":{"key":"05774","name":"Paderborn","type":"Kreis"},"federalState":{"key":"05","name":"Nordrhein-Westfalen"}},{"name":"Engelbrechtweg","postalCode":"33161","locality":"Hövelhof","municipality":{"key":"05774024","name":"Hövelhof, Sennegemeinde","type":"Kreisangehörige_Gemeinde"},"district":{"key":"05774","name":"Paderborn","type":"Kreis"},"federalState":{"key":"05","name":"Nordrhein-Westfalen"}},{"name":"Eppinghof","postalCode":"33161","locality":"Hövelhof","municipality":{"key":"05774024","name":"Hövelhof, Sennegemeinde","type":"Kreisangehörige_Gemeinde"},"district":{"key":"05774","name":"Paderborn","type":"Kreis"},"federalState":{"key":"05","name":"Nordrhein-Westfalen"}},{"name":"Eschenweg","postalCode":"33161","locality":"Hövelhof","municipality":{"key":"05774024","name":"Hövelhof, Sennegemeinde","type":"Kreisangehörige_Gemeinde"},"district":{"key":"05774","name":"Paderborn","type":"Kreis"},"federalState":{"key":"05","name":"Nordrhein-Westfalen"}},{"name":"Espelner Str.","postalCode":"33161","locality":"Hövelhof","municipality":{"key":"05774024","name":"Hövelhof, Sennegemeinde","type":"Kreisangehörige_Gemeinde"},"district":{"key":"05774","name":"Paderborn","type":"Kreis"},"federalState":{"key":"05","name":"Nordrhein-Westfalen"}},{"name":"Espenloher Weg","postalCode":"33161","locality":"Hövelhof","municipality":{"key":"05774024","name":"Hövelhof, Sennegemeinde","type":"Kreisangehörige_Gemeinde"},"district":{"key":"05774","name":"Paderborn","type":"Kreis"},"federalState":{"key":"05","name":"Nordrhein-Westfalen"}},{"name":"Falkenweg","postalCode":"33161","locality":"Hövelhof","municipality":{"key":"05774024","name":"Hövelhof, Sennegemeinde","type":"Kreisangehörige_Gemeinde"},"district":{"key":"05774","name":"Paderborn","type":"Kreis"},"federalState":{"key":"05","name":"Nordrhein-Westfalen"}},{"name":"Fasanenstr.","postalCode":"33161","locality":"Hövelhof","municipality":{"key":"05774024","name":"Hövelhof, Sennegemeinde","type":"Kreisangehörige_Gemeinde"},"district":{"key":"05774","name":"Paderborn","type":"Kreis"},"federalState":{"key":"05","name":"Nordrhein-Westfalen"}},{"name":"Feldhagen","postalCode":"33161","locality":"Hövelhof","municipality":{"key":"05774024","name":"Hövelhof, Sennegemeinde","type":"Kreisangehörige_Gemeinde"},"district":{"key":"05774","name":"Paderborn","type":"Kreis"},"federalState":{"key":"05","name":"Nordrhein-Westfalen"}},{"name":"Ferdinandstr.","postalCode":"33161","locality":"Hövelhof","municipality":{"key":"05774024","name":"Hövelhof, Sennegemeinde","type":"Kreisangehörige_Gemeinde"},"district":{"key":"05774","name":"Paderborn","type":"Kreis"},"federalState":{"key":"05","name":"Nordrhein-Westfalen"}},{"name":"Fichtenweg","postalCode":"33161","locality":"Hövelhof","municipality":{"key":"05774024","name":"Hövelhof, Sennegemeinde","type":"Kreisangehörige_Gemeinde"},"district":{"key":"05774","name":"Paderborn","type":"Kreis"},"federalState":{"key":"05","name":"Nordrhein-Westfalen"}},{"name":"Flachsrode","postalCode":"33161","locality":"Hövelhof","municipality":{"key":"05774024","name":"Hövelhof, Sennegemeinde","type":"Kreisangehörige_Gemeinde"},"district":{"key":"05774","name":"Paderborn","type":"Kreis"},"federalState":{"key":"05","name":"Nordrhein-Westfalen"}},{"name":"Fliederweg","postalCode":"33161","locality":"Hövelhof","municipality":{"key":"05774024","name":"Hövelhof, Sennegemeinde","type":"Kreisangehörige_Gemeinde"},"district":{"key":"05774","name":"Paderborn","type":"Kreis"},"federalState":{"key":"05","name":"Nordrhein-Westfalen"}},{"name":"Flottmeierstr.","postalCode":"33161","locality":"Hövelhof","municipality":{"key":"05774024","name":"Hövelhof, Sennegemeinde","type":"Kreisangehörige_Gemeinde"},"district":{"key":"05774","name":"Paderborn","type":"Kreis"},"federalState":{"key":"05","name":"Nordrhein-Westfalen"}},{"name":"Föhrenweg","postalCode":"33161","locality":"Hövelhof","municipality":{"key":"05774024","name":"Hövelhof, Sennegemeinde","type":"Kreisangehörige_Gemeinde"},"district":{"key":"05774","name":"Paderborn","type":"Kreis"},"federalState":{"key":"05","name":"Nordrhein-Westfalen"}},{"name":"Franz-Stock-Str.","postalCode":"33161","locality":"Hövelhof","municipality":{"key":"05774024","name":"Hövelhof, Sennegemeinde","type":"Kreisangehörige_Gemeinde"},"district":{"key":"05774","name":"Paderborn","type":"Kreis"},"federalState":{"key":"05","name":"Nordrhein-Westfalen"}},{"name":"Friedensstr.","postalCode":"33161","locality":"Hövelhof","municipality":{"key":"05774024","name":"Hövelhof, Sennegemeinde","type":"Kreisangehörige_Gemeinde"},"district":{"key":"05774","name":"Paderborn","type":"Kreis"},"federalState":{"key":"05","name":"Nordrhein-Westfalen"}},{"name":"Friedhofsweg","postalCode":"33161","locality":"Hövelhof","municipality":{"key":"05774024","name":"Hövelhof, Sennegemeinde","type":"Kreisangehörige_Gemeinde"},"district":{"key":"05774","name":"Paderborn","type":"Kreis"},"federalState":{"key":"05","name":"Nordrhein-Westfalen"}},{"name":"Friedlandstr.","postalCode":"33161","locality":"Hövelhof","municipality":{"key":"05774024","name":"Hövelhof, Sennegemeinde","type":"Kreisangehörige_Gemeinde"},"district":{"key":"05774","name":"Paderborn","type":"Kreis"},"federalState":{"key":"05","name":"Nordrhein-Westfalen"}},{"name":"Friedrich-Wilhelm-Weber-Str.","postalCode":"33161","locality":"Hövelhof","municipality":{"key":"05774024","name":"Hövelhof, Sennegemeinde","type":"Kreisangehörige_Gemeinde"},"district":{"key":"05774","name":"Paderborn","type":"Kreis"},"federalState":{"key":"05","name":"Nordrhein-Westfalen"}},{"name":"Furlweg","postalCode":"33161","locality":"Hövelhof","municipality":{"key":"05774024","name":"Hövelhof, Sennegemeinde","type":"Kreisangehörige_Gemeinde"},"district":{"key":"05774","name":"Paderborn","type":"Kreis"},"federalState":{"key":"05","name":"Nordrhein-Westfalen"}},{"name":"Furlwiese","postalCode":"33161","locality":"Hövelhof","municipality":{"key":"05774024","name":"Hövelhof, Sennegemeinde","type":"Kreisangehörige_Gemeinde"},"district":{"key":"05774","name":"Paderborn","type":"Kreis"},"federalState":{"key":"05","name":"Nordrhein-Westfalen"}},{"name":"Gartenstr.","postalCode":"33161","locality":"Hövelhof","municipality":{"key":"05774024","name":"Hövelhof, Sennegemeinde","type":"Kreisangehörige_Gemeinde"},"district":{"key":"05774","name":"Paderborn","type":"Kreis"},"federalState":{"key":"05","name":"Nordrhein-Westfalen"}},{"name":"Gehastr.","postalCode":"33161","locality":"Hövelhof","municipality":{"key":"05774024","name":"Hövelhof, Sennegemeinde","type":"Kreisangehörige_Gemeinde"},"district":{"key":"05774","name":"Paderborn","type":"Kreis"},"federalState":{"key":"05","name":"Nordrhein-Westfalen"}},{"name":"Geschwister-Scholl-Str.","postalCode":"33161","locality":"Hövelhof","municipality":{"key":"05774024","name":"Hövelhof, Sennegemeinde","type":"Kreisangehörige_Gemeinde"},"district":{"key":"05774","name":"Paderborn","type":"Kreis"},"federalState":{"key":"05","name":"Nordrhein-Westfalen"}},{"name":"Ginsterweg","postalCode":"33161","locality":"Hövelhof","municipality":{"key":"05774024","name":"Hövelhof, Sennegemeinde","type":"Kreisangehörige_Gemeinde"},"district":{"key":"05774","name":"Paderborn","type":"Kreis"},"federalState":{"key":"05","name":"Nordrhein-Westfalen"}},{"name":"Glockenblumenweg","postalCode":"33161","locality":"Hövelhof","municipality":{"key":"05774024","name":"Hövelhof, Sennegemeinde","type":"Kreisangehörige_Gemeinde"},"district":{"key":"05774","name":"Paderborn","type":"Kreis"},"federalState":{"key":"05","name":"Nordrhein-Westfalen"}},{"name":"Goerdelerstr.","postalCode":"33161","locality":"Hövelhof","municipality":{"key":"05774024","name":"Hövelhof, Sennegemeinde","type":"Kreisangehörige_Gemeinde"},"district":{"key":"05774","name":"Paderborn","type":"Kreis"},"federalState":{"key":"05","name":"Nordrhein-Westfalen"}},{"name":"Goethestr.","postalCode":"33161","locality":"Hövelhof","municipality":{"key":"05774024","name":"Hövelhof, Sennegemeinde","type":"Kreisangehörige_Gemeinde"},"district":{"key":"05774","name":"Paderborn","type":"Kreis"},"federalState":{"key":"05","name":"Nordrhein-Westfalen"}},{"name":"Grenzweg","postalCode":"33161","locality":"Hövelhof","municipality":{"key":"05774024","name":"Hövelhof, Sennegemeinde","type":"Kreisangehörige_Gemeinde"},"district":{"key":"05774","name":"Paderborn","type":"Kreis"},"federalState":{"key":"05","name":"Nordrhein-Westfalen"}},{"name":"Große Wiese","postalCode":"33161","locality":"Hövelhof","municipality":{"key":"05774024","name":"Hövelhof, Sennegemeinde","type":"Kreisangehörige_Gemeinde"},"district":{"key":"05774","name":"Paderborn","type":"Kreis"},"federalState":{"key":"05","name":"Nordrhein-Westfalen"}},{"name":"Grüner Weg","postalCode":"33161","locality":"Hövelhof","municipality":{"key":"05774024","name":"Hövelhof, Sennegemeinde","type":"Kreisangehörige_Gemeinde"},"district":{"key":"05774","name":"Paderborn","type":"Kreis"},"federalState":{"key":"05","name":"Nordrhein-Westfalen"}},{"name":"Gutenbergstr.","postalCode":"33161","locality":"Hövelhof","municipality":{"key":"05774024","name":"Hövelhof, Sennegemeinde","type":"Kreisangehörige_Gemeinde"},"district":{"key":"05774","name":"Paderborn","type":"Kreis"},"federalState":{"key":"05","name":"Nordrhein-Westfalen"}},{"name":"Gütersloher Str.","postalCode":"33161","locality":"Hövelhof","municipality":{"key":"05774024","name":"Hövelhof, Sennegemeinde","type":"Kreisangehörige_Gemeinde"},"district":{"key":"05774","name":"Paderborn","type":"Kreis"},"federalState":{"key":"05","name":"Nordrhein-Westfalen"}},{"name":"Hallerweg","postalCode":"33161","locality":"Hövelhof","municipality":{"key":"05774024","name":"Hövelhof, Sennegemeinde","type":"Kreisangehörige_Gemeinde"},"district":{"key":"05774","name":"Paderborn","type":"Kreis"},"federalState":{"key":"05","name":"Nordrhein-Westfalen"}},{"name":"Hanhardts Kamp","postalCode":"33161","locality":"Hövelhof","municipality":{"key":"05774024","name":"Hövelhof, Sennegemeinde","type":"Kreisangehörige_Gemeinde"},"district":{"key":"05774","name":"Paderborn","type":"Kreis"},"federalState":{"key":"05","name":"Nordrhein-Westfalen"}},{"name":"Haselhorststr.","postalCode":"33161","locality":"Hövelhof","municipality":{"key":"05774024","name":"Hövelhof, Sennegemeinde","type":"Kreisangehörige_Gemeinde"},"district":{"key":"05774","name":"Paderborn","type":"Kreis"},"federalState":{"key":"05","name":"Nordrhein-Westfalen"}},{"name":"Haxtergrund","postalCode":"33161","locality":"Hövelhof","municipality":{"key":"05774024","name":"Hövelhof, Sennegemeinde","type":"Kreisangehörige_Gemeinde"},"district":{"key":"05774","name":"Paderborn","type":"Kreis"},"federalState":{"key":"05","name":"Nordrhein-Westfalen"}},{"name":"Heidebruch","postalCode":"33161","locality":"Hövelhof","municipality":{"key":"05774024","name":"Hövelhof, Sennegemeinde","type":"Kreisangehörige_Gemeinde"},"district":{"key":"05774","name":"Paderborn","type":"Kreis"},"federalState":{"key":"05","name":"Nordrhein-Westfalen"}},{"name":"Heideweg","postalCode":"33161","locality":"Hövelhof","municipality":{"key":"05774024","name":"Hövelhof, Sennegemeinde","type":"Kreisangehörige_Gemeinde"},"district":{"key":"05774","name":"Paderborn","type":"Kreis"},"federalState":{"key":"05","name":"Nordrhein-Westfalen"}},{"name":"Heinrich-Heine-Str.","postalCode":"33161","locality":"Hövelhof","municipality":{"key":"05774024","name":"Hövelhof, Sennegemeinde","type":"Kreisangehörige_Gemeinde"},"district":{"key":"05774","name":"Paderborn","type":"Kreis"},"federalState":{"key":"05","name":"Nordrhein-Westfalen"}},{"name":"Heinrichstr.","postalCode":"33161","locality":"Hövelhof","municipality":{"key":"05774024","name":"Hövelhof, Sennegemeinde","type":"Kreisangehörige_Gemeinde"},"district":{"key":"05774","name":"Paderborn","type":"Kreis"},"federalState":{"key":"05","name":"Nordrhein-Westfalen"}},{"name":"Heinz-Sallads-Str.","postalCode":"33161","locality":"Hövelhof","municipality":{"key":"05774024","name":"Hövelhof, Sennegemeinde","type":"Kreisangehörige_Gemeinde"},"district":{"key":"05774","name":"Paderborn","type":"Kreis"},"federalState":{"key":"05","name":"Nordrhein-Westfalen"}},{"name":"Henkenplatz","postalCode":"33161","locality":"Hövelhof","municipality":{"key":"05774024","name":"Hövelhof, Sennegemeinde","type":"Kreisangehörige_Gemeinde"},"district":{"key":"05774","name":"Paderborn","type":"Kreis"},"federalState":{"key":"05","name":"Nordrhein-Westfalen"}},{"name":"Hermann-Löns-Platz","postalCode":"33161","locality":"Hövelhof","municipality":{"key":"05774024","name":"Hövelhof, Sennegemeinde","type":"Kreisangehörige_Gemeinde"},"district":{"key":"05774","name":"Paderborn","type":"Kreis"},"federalState":{"key":"05","name":"Nordrhein-Westfalen"}},{"name":"Hermannsweg","postalCode":"33161","locality":"Hövelhof","municipality":{"key":"05774024","name":"Hövelhof, Sennegemeinde","type":"Kreisangehörige_Gemeinde"},"district":{"key":"05774","name":"Paderborn","type":"Kreis"},"federalState":{"key":"05","name":"Nordrhein-Westfalen"}},{"name":"Heuweg","postalCode":"33161","locality":"Hövelhof","municipality":{"key":"05774024","name":"Hövelhof, Sennegemeinde","type":"Kreisangehörige_Gemeinde"},"district":{"key":"05774","name":"Paderborn","type":"Kreis"},"federalState":{"key":"05","name":"Nordrhein-Westfalen"}},{"name":"Hiermsweg","postalCode":"33161","locality":"Hövelhof","municipality":{"key":"05774024","name":"Hövelhof, Sennegemeinde","type":"Kreisangehörige_Gemeinde"},"district":{"key":"05774","name":"Paderborn","type":"Kreis"},"federalState":{"key":"05","name":"Nordrhein-Westfalen"}},{"name":"Hirtenweg","postalCode":"33161","locality":"Hövelhof","municipality":{"key":"05774024","name":"Hövelhof, Sennegemeinde","type":"Kreisangehörige_Gemeinde"},"district":{"key":"05774","name":"Paderborn","type":"Kreis"},"federalState":{"key":"05","name":"Nordrhein-Westfalen"}},{"name":"Hochstiftstr.","postalCode":"33161","locality":"Hövelhof","municipality":{"key":"05774024","name":"Hövelhof, Sennegemeinde","type":"Kreisangehörige_Gemeinde"},"district":{"key":"05774","name":"Paderborn","type":"Kreis"},"federalState":{"key":"05","name":"Nordrhein-Westfalen"}},{"name":"Hochwasserschutzdamm Moosheide","postalCode":"33161","locality":"Hövelhof","municipality":{"key":"05774024","name":"Hövelhof, Sennegemeinde","type":"Kreisangehörige_Gemeinde"},"district":{"key":"05774","name":"Paderborn","type":"Kreis"},"federalState":{"key":"05","name":"Nordrhein-Westfalen"}},{"name":"Hollandsweg","postalCode":"33161","locality":"Hövelhof","municipality":{"key":"05774024","name":"Hövelhof, Sennegemeinde","type":"Kreisangehörige_Gemeinde"},"district":{"key":"05774","name":"Paderborn","type":"Kreis"},"federalState":{"key":"05","name":"Nordrhein-Westfalen"}},{"name":"Hölscherweg","postalCode":"33161","locality":"Hövelhof","municipality":{"key":"05774024","name":"Hövelhof, Sennegemeinde","type":"Kreisangehörige_Gemeinde"},"district":{"key":"05774","name":"Paderborn","type":"Kreis"},"federalState":{"key":"05","name":"Nordrhein-Westfalen"}},{"name":"Holtweg","postalCode":"33161","locality":"Hövelhof","municipality":{"key":"05774024","name":"Hövelhof, Sennegemeinde","type":"Kreisangehörige_Gemeinde"},"district":{"key":"05774","name":"Paderborn","type":"Kreis"},"federalState":{"key":"05","name":"Nordrhein-Westfalen"}},{"name":"Hövelmarkt","postalCode":"33161","locality":"Hövelhof","municipality":{"key":"05774024","name":"Hövelhof, Sennegemeinde","type":"Kreisangehörige_Gemeinde"},"district":{"key":"05774","name":"Paderborn","type":"Kreis"},"federalState":{"key":"05","name":"Nordrhein-Westfalen"}},{"name":"Hövelrieger Str.","postalCode":"33161","locality":"Hövelhof","municipality":{"key":"05774024","name":"Hövelhof, Sennegemeinde","type":"Kreisangehörige_Gemeinde"},"district":{"key":"05774","name":"Paderborn","type":"Kreis"},"federalState":{"key":"05","name":"Nordrhein-Westfalen"}},{"name":"Hövelwiese","postalCode":"33161","locality":"Hövelhof","municipality":{"key":"05774024","name":"Hövelhof, Sennegemeinde","type":"Kreisangehörige_Gemeinde"},"district":{"key":"05774","name":"Paderborn","type":"Kreis"},"federalState":{"key":"05","name":"Nordrhein-Westfalen"}},{"name":"Hubertusweg","postalCode":"33161","locality":"Hövelhof","municipality":{"key":"05774024","name":"Hövelhof, Sennegemeinde","type":"Kreisangehörige_Gemeinde"},"district":{"key":"05774","name":"Paderborn","type":"Kreis"},"federalState":{"key":"05","name":"Nordrhein-Westfalen"}},{"name":"Im Bruch","postalCode":"33161","locality":"Hövelhof","municipality":{"key":"05774024","name":"Hövelhof, Sennegemeinde","type":"Kreisangehörige_Gemeinde"},"district":{"key":"05774","name":"Paderborn","type":"Kreis"},"federalState":{"key":"05","name":"Nordrhein-Westfalen"}},{"name":"Im Diek","postalCode":"33161","locality":"Hövelhof","municipality":{"key":"05774024","name":"Hövelhof, Sennegemeinde","type":"Kreisangehörige_Gemeinde"},"district":{"key":"05774","name":"Paderborn","type":"Kreis"},"federalState":{"key":"05","name":"Nordrhein-Westfalen"}},{"name":"Im Füchtkamp","postalCode":"33161","locality":"Hövelhof","municipality":{"key":"05774024","name":"Hövelhof, Sennegemeinde","type":"Kreisangehörige_Gemeinde"},"district":{"key":"05774","name":"Paderborn","type":"Kreis"},"federalState":{"key":"05","name":"Nordrhein-Westfalen"}},{"name":"Im Kamp","postalCode":"33161","locality":"Hövelhof","municipality":{"key":"05774024","name":"Hövelhof, Sennegemeinde","type":"Kreisangehörige_Gemeinde"},"district":{"key":"05774","name":"Paderborn","type":"Kreis"},"federalState":{"key":"05","name":"Nordrhein-Westfalen"}},{"name":"Im Rinthe","postalCode":"33161","locality":"Hövelhof","municipality":{"key":"05774024","name":"Hövelhof, Sennegemeinde","type":"Kreisangehörige_Gemeinde"},"district":{"key":"05774","name":"Paderborn","type":"Kreis"},"federalState":{"key":"05","name":"Nordrhein-Westfalen"}},{"name":"Im Schulkamp","postalCode":"33161","locality":"Hövelhof","municipality":{"key":"05774024","name":"Hövelhof, Sennegemeinde","type":"Kreisangehörige_Gemeinde"},"district":{"key":"05774","name":"Paderborn","type":"Kreis"},"federalState":{"key":"05","name":"Nordrhein-Westfalen"}},{"name":"Im Winkel","postalCode":"33161","locality":"Hövelhof","municipality":{"key":"05774024","name":"Hövelhof, Sennegemeinde","type":"Kreisangehörige_Gemeinde"},"district":{"key":"05774","name":"Paderborn","type":"Kreis"},"federalState":{"key":"05","name":"Nordrhein-Westfalen"}},{"name":"Industriestr.","postalCode":"33161","locality":"Hövelhof","municipality":{"key":"05774024","name":"Hövelhof, Sennegemeinde","type":"Kreisangehörige_Gemeinde"},"district":{"key":"05774","name":"Paderborn","type":"Kreis"},"federalState":{"key":"05","name":"Nordrhein-Westfalen"}},{"name":"Isidorweg","postalCode":"33161","locality":"Hövelhof","municipality":{"key":"05774024","name":"Hövelhof, Sennegemeinde","type":"Kreisangehörige_Gemeinde"},"district":{"key":"05774","name":"Paderborn","type":"Kreis"},"federalState":{"key":"05","name":"Nordrhein-Westfalen"}},{"name":"Jägerstr.","postalCode":"33161","locality":"Hövelhof","municipality":{"key":"05774024","name":"Hövelhof, Sennegemeinde","type":"Kreisangehörige_Gemeinde"},"district":{"key":"05774","name":"Paderborn","type":"Kreis"},"federalState":{"key":"05","name":"Nordrhein-Westfalen"}},{"name":"Jahnstr.","postalCode":"33161","locality":"Hövelhof","municipality":{"key":"05774024","name":"Hövelhof, Sennegemeinde","type":"Kreisangehörige_Gemeinde"},"district":{"key":"05774","name":"Paderborn","type":"Kreis"},"federalState":{"key":"05","name":"Nordrhein-Westfalen"}},{"name":"Johannes-Liemke-Str.","postalCode":"33161","locality":"Hövelhof","municipality":{"key":"05774024","name":"Hövelhof, Sennegemeinde","type":"Kreisangehörige_Gemeinde"},"district":{"key":"05774","name":"Paderborn","type":"Kreis"},"federalState":{"key":"05","name":"Nordrhein-Westfalen"}},{"name":"Josef-Förster-Str.","postalCode":"33161","locality":"Hövelhof","municipality":{"key":"05774024","name":"Hövelhof, Sennegemeinde","type":"Kreisangehörige_Gemeinde"},"district":{"key":"05774","name":"Paderborn","type":"Kreis"},"federalState":{"key":"05","name":"Nordrhein-Westfalen"}},{"name":"Josefstr.","postalCode":"33161","locality":"Hövelhof","municipality":{"key":"05774024","name":"Hövelhof, Sennegemeinde","type":"Kreisangehörige_Gemeinde"},"district":{"key":"05774","name":"Paderborn","type":"Kreis"},"federalState":{"key":"05","name":"Nordrhein-Westfalen"}},{"name":"Jöterweg","postalCode":"33161","locality":"Hövelhof","municipality":{"key":"05774024","name":"Hövelhof, Sennegemeinde","type":"Kreisangehörige_Gemeinde"},"district":{"key":"05774","name":"Paderborn","type":"Kreis"},"federalState":{"key":"05","name":"Nordrhein-Westfalen"}},{"name":"Jüdenweg","postalCode":"33161","locality":"Hövelhof","municipality":{"key":"05774024","name":"Hövelhof, Sennegemeinde","type":"Kreisangehörige_Gemeinde"},"district":{"key":"05774","name":"Paderborn","type":"Kreis"},"federalState":{"key":"05","name":"Nordrhein-Westfalen"}},{"name":"Junkernallee","postalCode":"33161","locality":"Hövelhof","municipality":{"key":"05774024","name":"Hövelhof, Sennegemeinde","type":"Kreisangehörige_Gemeinde"},"district":{"key":"05774","name":"Paderborn","type":"Kreis"},"federalState":{"key":"05","name":"Nordrhein-Westfalen"}},{"name":"Kamillenweg","postalCode":"33161","locality":"Hövelhof","municipality":{"key":"05774024","name":"Hövelhof, Sennegemeinde","type":"Kreisangehörige_Gemeinde"},"district":{"key":"05774","name":"Paderborn","type":"Kreis"},"federalState":{"key":"05","name":"Nordrhein-Westfalen"}},{"name":"Kämpenschmiede","postalCode":"33161","locality":"Hövelhof","municipality":{"key":"05774024","name":"Hövelhof, Sennegemeinde","type":"Kreisangehörige_Gemeinde"},"district":{"key":"05774","name":"Paderborn","type":"Kreis"},"federalState":{"key":"05","name":"Nordrhein-Westfalen"}},{"name":"Kämperriege","postalCode":"33161","locality":"Hövelhof","municipality":{"key":"05774024","name":"Hövelhof, Sennegemeinde","type":"Kreisangehörige_Gemeinde"},"district":{"key":"05774","name":"Paderborn","type":"Kreis"},"federalState":{"key":"05","name":"Nordrhein-Westfalen"}},{"name":"Kantinenweg","postalCode":"33161","locality":"Hövelhof","municipality":{"key":"05774024","name":"Hövelhof, Sennegemeinde","type":"Kreisangehörige_Gemeinde"},"district":{"key":"05774","name":"Paderborn","type":"Kreis"},"federalState":{"key":"05","name":"Nordrhein-Westfalen"}},{"name":"Kapellenweg","postalCode":"33161","locality":"Hövelhof","municipality":{"key":"05774024","name":"Hövelhof, Sennegemeinde","type":"Kreisangehörige_Gemeinde"},"district":{"key":"05774","name":"Paderborn","type":"Kreis"},"federalState":{"key":"05","name":"Nordrhein-Westfalen"}},{"name":"Karlsstr.","postalCode":"33161","locality":"Hövelhof","municipality":{"key":"05774024","name":"Hövelhof, Sennegemeinde","type":"Kreisangehörige_Gemeinde"},"district":{"key":"05774","name":"Paderborn","type":"Kreis"},"federalState":{"key":"05","name":"Nordrhein-Westfalen"}},{"name":"Kastanienweg","postalCode":"33161","locality":"Hövelhof","municipality":{"key":"05774024","name":"Hövelhof, Sennegemeinde","type":"Kreisangehörige_Gemeinde"},"district":{"key":"05774","name":"Paderborn","type":"Kreis"},"federalState":{"key":"05","name":"Nordrhein-Westfalen"}},{"name":"Kemmingstr.","postalCode":"33161","locality":"Hövelhof","municipality":{"key":"05774024","name":"Hövelhof, Sennegemeinde","type":"Kreisangehörige_Gemeinde"},"district":{"key":"05774","name":"Paderborn","type":"Kreis"},"federalState":{"key":"05","name":"Nordrhein-Westfalen"}},{"name":"Kettelerstr.","postalCode":"33161","locality":"Hövelhof","municipality":{"key":"05774024","name":"Hövelhof, Sennegemeinde","type":"Kreisangehörige_Gemeinde"},"district":{"key":"05774","name":"Paderborn","type":"Kreis"},"federalState":{"key":"05","name":"Nordrhein-Westfalen"}},{"name":"Kiefernweg","postalCode":"33161","locality":"Hövelhof","municipality":{"key":"05774024","name":"Hövelhof, Sennegemeinde","type":"Kreisangehörige_Gemeinde"},"district":{"key":"05774","name":"Paderborn","type":"Kreis"},"federalState":{"key":"05","name":"Nordrhein-Westfalen"}},{"name":"Kirchstr.","postalCode":"33161","locality":"Hövelhof","municipality":{"key":"05774024","name":"Hövelhof, Sennegemeinde","type":"Kreisangehörige_Gemeinde"},"district":{"key":"05774","name":"Paderborn","type":"Kreis"},"federalState":{"key":"05","name":"Nordrhein-Westfalen"}},{"name":"Klausheider Str.","postalCode":"33161","locality":"Hövelhof","municipality":{"key":"05774024","name":"Hövelhof, Sennegemeinde","type":"Kreisangehörige_Gemeinde"},"district":{"key":"05774","name":"Paderborn","type":"Kreis"},"federalState":{"key":"05","name":"Nordrhein-Westfalen"}},{"name":"Kleestr.","postalCode":"33161","locality":"Hövelhof","municipality":{"key":"05774024","name":"Hövelhof, Sennegemeinde","type":"Kreisangehörige_Gemeinde"},"district":{"key":"05774","name":"Paderborn","type":"Kreis"},"federalState":{"key":"05","name":"Nordrhein-Westfalen"}},{"name":"Kohlrieger Weg","postalCode":"33161","locality":"Hövelhof","municipality":{"key":"05774024","name":"Hövelhof, Sennegemeinde","type":"Kreisangehörige_Gemeinde"},"district":{"key":"05774","name":"Paderborn","type":"Kreis"},"federalState":{"key":"05","name":"Nordrhein-Westfalen"}},{"name":"Köhnhornsweg","postalCode":"33161","locality":"Hövelhof","municipality":{"key":"05774024","name":"Hövelhof, Sennegemeinde","type":"Kreisangehörige_Gemeinde"},"district":{"key":"05774","name":"Paderborn","type":"Kreis"},"federalState":{"key":"05","name":"Nordrhein-Westfalen"}},{"name":"Kolbestr.","postalCode":"33161","locality":"Hövelhof","municipality":{"key":"05774024","name":"Hövelhof, Sennegemeinde","type":"Kreisangehörige_Gemeinde"},"district":{"key":"05774","name":"Paderborn","type":"Kreis"},"federalState":{"key":"05","name":"Nordrhein-Westfalen"}},{"name":"Kolpingstr.","postalCode":"33161","locality":"Hövelhof","municipality":{"key":"05774024","name":"Hövelhof, Sennegemeinde","type":"Kreisangehörige_Gemeinde"},"district":{"key":"05774","name":"Paderborn","type":"Kreis"},"federalState":{"key":"05","name":"Nordrhein-Westfalen"}},{"name":"Königsberger Str.","postalCode":"33161","locality":"Hövelhof","municipality":{"key":"05774024","name":"Hövelhof, Sennegemeinde","type":"Kreisangehörige_Gemeinde"},"district":{"key":"05774","name":"Paderborn","type":"Kreis"},"federalState":{"key":"05","name":"Nordrhein-Westfalen"}},{"name":"Kopernikusstr.","postalCode":"33161","locality":"Hövelhof","municipality":{"key":"05774024","name":"Hövelhof, Sennegemeinde","type":"Kreisangehörige_Gemeinde"},"district":{"key":"05774","name":"Paderborn","type":"Kreis"},"federalState":{"key":"05","name":"Nordrhein-Westfalen"}},{"name":"Kornblumenstr.","postalCode":"33161","locality":"Hövelhof","municipality":{"key":"05774024","name":"Hövelhof, Sennegemeinde","type":"Kreisangehörige_Gemeinde"},"district":{"key":"05774","name":"Paderborn","type":"Kreis"},"federalState":{"key":"05","name":"Nordrhein-Westfalen"}},{"name":"Kurze Str.","postalCode":"33161","locality":"Hövelhof","municipality":{"key":"05774024","name":"Hövelhof, Sennegemeinde","type":"Kreisangehörige_Gemeinde"},"district":{"key":"05774","name":"Paderborn","type":"Kreis"},"federalState":{"key":"05","name":"Nordrhein-Westfalen"}},{"name":"Küsterkamp","postalCode":"33161","locality":"Hövelhof","municipality":{"key":"05774024","name":"Hövelhof, Sennegemeinde","type":"Kreisangehörige_Gemeinde"},"district":{"key":"05774","name":"Paderborn","type":"Kreis"},"federalState":{"key":"05","name":"Nordrhein-Westfalen"}},{"name":"Lagerstr.","postalCode":"33161","locality":"Hövelhof","municipality":{"key":"05774024","name":"Hövelhof, Sennegemeinde","type":"Kreisangehörige_Gemeinde"},"district":{"key":"05774","name":"Paderborn","type":"Kreis"},"federalState":{"key":"05","name":"Nordrhein-Westfalen"}},{"name":"Lakeweg","postalCode":"33161","locality":"Hövelhof","municipality":{"key":"05774024","name":"Hövelhof, Sennegemeinde","type":"Kreisangehörige_Gemeinde"},"district":{"key":"05774","name":"Paderborn","type":"Kreis"},"federalState":{"key":"05","name":"Nordrhein-Westfalen"}},{"name":"Langengrund","postalCode":"33161","locality":"Hövelhof","municipality":{"key":"05774024","name":"Hövelhof, Sennegemeinde","type":"Kreisangehörige_Gemeinde"},"district":{"key":"05774","name":"Paderborn","type":"Kreis"},"federalState":{"key":"05","name":"Nordrhein-Westfalen"}},{"name":"Langer Weg","postalCode":"33161","locality":"Hövelhof","municipality":{"key":"05774024","name":"Hövelhof, Sennegemeinde","type":"Kreisangehörige_Gemeinde"},"district":{"key":"05774","name":"Paderborn","type":"Kreis"},"federalState":{"key":"05","name":"Nordrhein-Westfalen"}},{"name":"Lehmweg","postalCode":"33161","locality":"Hövelhof","municipality":{"key":"05774024","name":"Hövelhof, Sennegemeinde","type":"Kreisangehörige_Gemeinde"},"district":{"key":"05774","name":"Paderborn","type":"Kreis"},"federalState":{"key":"05","name":"Nordrhein-Westfalen"}},{"name":"Leostr.","postalCode":"33161","locality":"Hövelhof","municipality":{"key":"05774024","name":"Hövelhof, Sennegemeinde","type":"Kreisangehörige_Gemeinde"},"district":{"key":"05774","name":"Paderborn","type":"Kreis"},"federalState":{"key":"05","name":"Nordrhein-Westfalen"}},{"name":"Lerchenstr.","postalCode":"33161","locality":"Hövelhof","municipality":{"key":"05774024","name":"Hövelhof, Sennegemeinde","type":"Kreisangehörige_Gemeinde"},"district":{"key":"05774","name":"Paderborn","type":"Kreis"},"federalState":{"key":"05","name":"Nordrhein-Westfalen"}},{"name":"Lessingstr.","postalCode":"33161","locality":"Hövelhof","municipality":{"key":"05774024","name":"Hövelhof, Sennegemeinde","type":"Kreisangehörige_Gemeinde"},"district":{"key":"05774","name":"Paderborn","type":"Kreis"},"federalState":{"key":"05","name":"Nordrhein-Westfalen"}},{"name":"Leuschnerstr.","postalCode":"33161","locality":"Hövelhof","municipality":{"key":"05774024","name":"Hövelhof, Sennegemeinde","type":"Kreisangehörige_Gemeinde"},"district":{"key":"05774","name":"Paderborn","type":"Kreis"},"federalState":{"key":"05","name":"Nordrhein-Westfalen"}},{"name":"Levinus-Richter-Str.","postalCode":"33161","locality":"Hövelhof","municipality":{"key":"05774024","name":"Hövelhof, Sennegemeinde","type":"Kreisangehörige_Gemeinde"},"district":{"key":"05774","name":"Paderborn","type":"Kreis"},"federalState":{"key":"05","name":"Nordrhein-Westfalen"}},{"name":"Liboriusweg","postalCode":"33161","locality":"Hövelhof","municipality":{"key":"05774024","name":"Hövelhof, Sennegemeinde","type":"Kreisangehörige_Gemeinde"},"district":{"key":"05774","name":"Paderborn","type":"Kreis"},"federalState":{"key":"05","name":"Nordrhein-Westfalen"}},{"name":"Liegnitzer Str.","postalCode":"33161","locality":"Hövelhof","municipality":{"key":"05774024","name":"Hövelhof, Sennegemeinde","type":"Kreisangehörige_Gemeinde"},"district":{"key":"05774","name":"Paderborn","type":"Kreis"},"federalState":{"key":"05","name":"Nordrhein-Westfalen"}},{"name":"Lindenweg","postalCode":"33161","locality":"Hövelhof","municipality":{"key":"05774024","name":"Hövelhof, Sennegemeinde","type":"Kreisangehörige_Gemeinde"},"district":{"key":"05774","name":"Paderborn","type":"Kreis"},"federalState":{"key":"05","name":"Nordrhein-Westfalen"}},{"name":"Löwenzahnweg","postalCode":"33161","locality":"Hövelhof","municipality":{"key":"05774024","name":"Hövelhof, Sennegemeinde","type":"Kreisangehörige_Gemeinde"},"district":{"key":"05774","name":"Paderborn","type":"Kreis"},"federalState":{"key":"05","name":"Nordrhein-Westfalen"}},{"name":"Luise-Hensel-Str.","postalCode":"33161","locality":"Hövelhof","municipality":{"key":"05774024","name":"Hövelhof, Sennegemeinde","type":"Kreisangehörige_Gemeinde"},"district":{"key":"05774","name":"Paderborn","type":"Kreis"},"federalState":{"key":"05","name":"Nordrhein-Westfalen"}},{"name":"Lupinenweg","postalCode":"33161","locality":"Hövelhof","municipality":{"key":"05774024","name":"Hövelhof, Sennegemeinde","type":"Kreisangehörige_Gemeinde"},"district":{"key":"05774","name":"Paderborn","type":"Kreis"},"federalState":{"key":"05","name":"Nordrhein-Westfalen"}},{"name":"Margeritenweg","postalCode":"33161","locality":"Hövelhof","municipality":{"key":"05774024","name":"Hövelhof, Sennegemeinde","type":"Kreisangehörige_Gemeinde"},"district":{"key":"05774","name":"Paderborn","type":"Kreis"},"federalState":{"key":"05","name":"Nordrhein-Westfalen"}},{"name":"Memelstr.","postalCode":"33161","locality":"Hövelhof","municipality":{"key":"05774024","name":"Hövelhof, Sennegemeinde","type":"Kreisangehörige_Gemeinde"},"district":{"key":"05774","name":"Paderborn","type":"Kreis"},"federalState":{"key":"05","name":"Nordrhein-Westfalen"}},{"name":"Mergelweg","postalCode":"33161","locality":"Hövelhof","municipality":{"key":"05774024","name":"Hövelhof, Sennegemeinde","type":"Kreisangehörige_Gemeinde"},"district":{"key":"05774","name":"Paderborn","type":"Kreis"},"federalState":{"key":"05","name":"Nordrhein-Westfalen"}},{"name":"Mittweg","postalCode":"33161","locality":"Hövelhof","municipality":{"key":"05774024","name":"Hövelhof, Sennegemeinde","type":"Kreisangehörige_Gemeinde"},"district":{"key":"05774","name":"Paderborn","type":"Kreis"},"federalState":{"key":"05","name":"Nordrhein-Westfalen"}},{"name":"Mühlendamm","postalCode":"33161","locality":"Hövelhof","municipality":{"key":"05774024","name":"Hövelhof, Sennegemeinde","type":"Kreisangehörige_Gemeinde"},"district":{"key":"05774","name":"Paderborn","type":"Kreis"},"federalState":{"key":"05","name":"Nordrhein-Westfalen"}},{"name":"Mühlenschulweg","postalCode":"33161","locality":"Hövelhof","municipality":{"key":"05774024","name":"Hövelhof, Sennegemeinde","type":"Kreisangehörige_Gemeinde"},"district":{"key":"05774","name":"Paderborn","type":"Kreis"},"federalState":{"key":"05","name":"Nordrhein-Westfalen"}},{"name":"Mühlensenner Str.","postalCode":"33161","locality":"Hövelhof","municipality":{"key":"05774024","name":"Hövelhof, Sennegemeinde","type":"Kreisangehörige_Gemeinde"},"district":{"key":"05774","name":"Paderborn","type":"Kreis"},"federalState":{"key":"05","name":"Nordrhein-Westfalen"}},{"name":"Nachtigallenweg","postalCode":"33161","locality":"Hövelhof","municipality":{"key":"05774024","name":"Hövelhof, Sennegemeinde","type":"Kreisangehörige_Gemeinde"},"district":{"key":"05774","name":"Paderborn","type":"Kreis"},"federalState":{"key":"05","name":"Nordrhein-Westfalen"}},{"name":"Neue Riege","postalCode":"33161","locality":"Hövelhof","municipality":{"key":"05774024","name":"Hövelhof, Sennegemeinde","type":"Kreisangehörige_Gemeinde"},"district":{"key":"05774","name":"Paderborn","type":"Kreis"},"federalState":{"key":"05","name":"Nordrhein-Westfalen"}},{"name":"Neuer Weg","postalCode":"33161","locality":"Hövelhof","municipality":{"key":"05774024","name":"Hövelhof, Sennegemeinde","type":"Kreisangehörige_Gemeinde"},"district":{"key":"05774","name":"Paderborn","type":"Kreis"},"federalState":{"key":"05","name":"Nordrhein-Westfalen"}},{"name":"Niggenkamp","postalCode":"33161","locality":"Hövelhof","municipality":{"key":"05774024","name":"Hövelhof, Sennegemeinde","type":"Kreisangehörige_Gemeinde"},"district":{"key":"05774","name":"Paderborn","type":"Kreis"},"federalState":{"key":"05","name":"Nordrhein-Westfalen"}},{"name":"Nordstr.","postalCode":"33161","locality":"Hövelhof","municipality":{"key":"05774024","name":"Hövelhof, Sennegemeinde","type":"Kreisangehörige_Gemeinde"},"district":{"key":"05774","name":"Paderborn","type":"Kreis"},"federalState":{"key":"05","name":"Nordrhein-Westfalen"}},{"name":"Obere Bielefelder Landstr.","postalCode":"33161","locality":"Hövelhof","municipality":{"key":"05774024","name":"Hövelhof, Sennegemeinde","type":"Kreisangehörige_Gemeinde"},"district":{"key":"05774","name":"Paderborn","type":"Kreis"},"federalState":{"key":"05","name":"Nordrhein-Westfalen"}},{"name":"Oderstr.","postalCode":"33161","locality":"Hövelhof","municipality":{"key":"05774024","name":"Hövelhof, Sennegemeinde","type":"Kreisangehörige_Gemeinde"},"district":{"key":"05774","name":"Paderborn","type":"Kreis"},"federalState":{"key":"05","name":"Nordrhein-Westfalen"}},{"name":"Ostpreußenstr.","postalCode":"33161","locality":"Hövelhof","municipality":{"key":"05774024","name":"Hövelhof, Sennegemeinde","type":"Kreisangehörige_Gemeinde"},"district":{"key":"05774","name":"Paderborn","type":"Kreis"},"federalState":{"key":"05","name":"Nordrhein-Westfalen"}},{"name":"Otto-Hahn-Str.","postalCode":"33161","locality":"Hövelhof","municipality":{"key":"05774024","name":"Hövelhof, Sennegemeinde","type":"Kreisangehörige_Gemeinde"},"district":{"key":"05774","name":"Paderborn","type":"Kreis"},"federalState":{"key":"05","name":"Nordrhein-Westfalen"}},{"name":"Overbergstr.","postalCode":"33161","locality":"Hövelhof","municipality":{"key":"05774024","name":"Hövelhof, Sennegemeinde","type":"Kreisangehörige_Gemeinde"},"district":{"key":"05774","name":"Paderborn","type":"Kreis"},"federalState":{"key":"05","name":"Nordrhein-Westfalen"}},{"name":"Paderborner Str.","postalCode":"33161","locality":"Hövelhof","municipality":{"key":"05774024","name":"Hövelhof, Sennegemeinde","type":"Kreisangehörige_Gemeinde"},"district":{"key":"05774","name":"Paderborn","type":"Kreis"},"federalState":{"key":"05","name":"Nordrhein-Westfalen"}},{"name":"Park Verrières","postalCode":"33161","locality":"Hövelhof","municipality":{"key":"05774024","name":"Hövelhof, Sennegemeinde","type":"Kreisangehörige_Gemeinde"},"district":{"key":"05774","name":"Paderborn","type":"Kreis"},"federalState":{"key":"05","name":"Nordrhein-Westfalen"}},{"name":"Parkweg","postalCode":"33161","locality":"Hövelhof","municipality":{"key":"05774024","name":"Hövelhof, Sennegemeinde","type":"Kreisangehörige_Gemeinde"},"district":{"key":"05774","name":"Paderborn","type":"Kreis"},"federalState":{"key":"05","name":"Nordrhein-Westfalen"}},{"name":"Pastor-Spieker-Weg","postalCode":"33161","locality":"Hövelhof","municipality":{"key":"05774024","name":"Hövelhof, Sennegemeinde","type":"Kreisangehörige_Gemeinde"},"district":{"key":"05774","name":"Paderborn","type":"Kreis"},"federalState":{"key":"05","name":"Nordrhein-Westfalen"}},{"name":"Phillippers Feld","postalCode":"33161","locality":"Hövelhof","municipality":{"key":"05774024","name":"Hövelhof, Sennegemeinde","type":"Kreisangehörige_Gemeinde"},"district":{"key":"05774","name":"Paderborn","type":"Kreis"},"federalState":{"key":"05","name":"Nordrhein-Westfalen"}},{"name":"Postweg","postalCode":"33161","locality":"Hövelhof","municipality":{"key":"05774024","name":"Hövelhof, Sennegemeinde","type":"Kreisangehörige_Gemeinde"},"district":{"key":"05774","name":"Paderborn","type":"Kreis"},"federalState":{"key":"05","name":"Nordrhein-Westfalen"}},{"name":"Quellgrund","postalCode":"33161","locality":"Hövelhof","municipality":{"key":"05774024","name":"Hövelhof, Sennegemeinde","type":"Kreisangehörige_Gemeinde"},"district":{"key":"05774","name":"Paderborn","type":"Kreis"},"federalState":{"key":"05","name":"Nordrhein-Westfalen"}},{"name":"Querweg","postalCode":"33161","locality":"Hövelhof","municipality":{"key":"05774024","name":"Hövelhof, Sennegemeinde","type":"Kreisangehörige_Gemeinde"},"district":{"key":"05774","name":"Paderborn","type":"Kreis"},"federalState":{"key":"05","name":"Nordrhein-Westfalen"}},{"name":"Raiffeisenstr.","postalCode":"33161","locality":"Hövelhof","municipality":{"key":"05774024","name":"Hövelhof, Sennegemeinde","type":"Kreisangehörige_Gemeinde"},"district":{"key":"05774","name":"Paderborn","type":"Kreis"},"federalState":{"key":"05","name":"Nordrhein-Westfalen"}},{"name":"Ramselstr.","postalCode":"33161","locality":"Hövelhof","municipality":{"key":"05774024","name":"Hövelhof, Sennegemeinde","type":"Kreisangehörige_Gemeinde"},"district":{"key":"05774","name":"Paderborn","type":"Kreis"},"federalState":{"key":"05","name":"Nordrhein-Westfalen"}},{"name":"Rehsprung","postalCode":"33161","locality":"Hövelhof","municipality":{"key":"05774024","name":"Hövelhof, Sennegemeinde","type":"Kreisangehörige_Gemeinde"},"district":{"key":"05774","name":"Paderborn","type":"Kreis"},"federalState":{"key":"05","name":"Nordrhein-Westfalen"}},{"name":"Rellerriege","postalCode":"33161","locality":"Hövelhof","municipality":{"key":"05774024","name":"Hövelhof, Sennegemeinde","type":"Kreisangehörige_Gemeinde"},"district":{"key":"05774","name":"Paderborn","type":"Kreis"},"federalState":{"key":"05","name":"Nordrhein-Westfalen"}},{"name":"Rieger Heide","postalCode":"33161","locality":"Hövelhof","municipality":{"key":"05774024","name":"Hövelhof, Sennegemeinde","type":"Kreisangehörige_Gemeinde"},"district":{"key":"05774","name":"Paderborn","type":"Kreis"},"federalState":{"key":"05","name":"Nordrhein-Westfalen"}},{"name":"Rosenstr.","postalCode":"33161","locality":"Hövelhof","municipality":{"key":"05774024","name":"Hövelhof, Sennegemeinde","type":"Kreisangehörige_Gemeinde"},"district":{"key":"05774","name":"Paderborn","type":"Kreis"},"federalState":{"key":"05","name":"Nordrhein-Westfalen"}},{"name":"Rotheweg","postalCode":"33161","locality":"Hövelhof","municipality":{"key":"05774024","name":"Hövelhof, Sennegemeinde","type":"Kreisangehörige_Gemeinde"},"district":{"key":"05774","name":"Paderborn","type":"Kreis"},"federalState":{"key":"05","name":"Nordrhein-Westfalen"}},{"name":"Salbeiweg","postalCode":"33161","locality":"Hövelhof","municipality":{"key":"05774024","name":"Hövelhof, Sennegemeinde","type":"Kreisangehörige_Gemeinde"},"district":{"key":"05774","name":"Paderborn","type":"Kreis"},"federalState":{"key":"05","name":"Nordrhein-Westfalen"}},{"name":"Sandbrink","postalCode":"33161","locality":"Hövelhof","municipality":{"key":"05774024","name":"Hövelhof, Sennegemeinde","type":"Kreisangehörige_Gemeinde"},"district":{"key":"05774","name":"Paderborn","type":"Kreis"},"federalState":{"key":"05","name":"Nordrhein-Westfalen"}},{"name":"Sandweg","postalCode":"33161","locality":"Hövelhof","municipality":{"key":"05774024","name":"Hövelhof, Sennegemeinde","type":"Kreisangehörige_Gemeinde"},"district":{"key":"05774","name":"Paderborn","type":"Kreis"},"federalState":{"key":"05","name":"Nordrhein-Westfalen"}},{"name":"Schatenstr.","postalCode":"33161","locality":"Hövelhof","municipality":{"key":"05774024","name":"Hövelhof, Sennegemeinde","type":"Kreisangehörige_Gemeinde"},"district":{"key":"05774","name":"Paderborn","type":"Kreis"},"federalState":{"key":"05","name":"Nordrhein-Westfalen"}},{"name":"Schierbusch","postalCode":"33161","locality":"Hövelhof","municipality":{"key":"05774024","name":"Hövelhof, Sennegemeinde","type":"Kreisangehörige_Gemeinde"},"district":{"key":"05774","name":"Paderborn","type":"Kreis"},"federalState":{"key":"05","name":"Nordrhein-Westfalen"}},{"name":"Schillerstr.","postalCode":"33161","locality":"Hövelhof","municipality":{"key":"05774024","name":"Hövelhof, Sennegemeinde","type":"Kreisangehörige_Gemeinde"},"district":{"key":"05774","name":"Paderborn","type":"Kreis"},"federalState":{"key":"05","name":"Nordrhein-Westfalen"}},{"name":"Schlesische Str.","postalCode":"33161","locality":"Hövelhof","municipality":{"key":"05774024","name":"Hövelhof, Sennegemeinde","type":"Kreisangehörige_Gemeinde"},"district":{"key":"05774","name":"Paderborn","type":"Kreis"},"federalState":{"key":"05","name":"Nordrhein-Westfalen"}},{"name":"Schloßplatz","postalCode":"33161","locality":"Hövelhof","municipality":{"key":"05774024","name":"Hövelhof, Sennegemeinde","type":"Kreisangehörige_Gemeinde"},"district":{"key":"05774","name":"Paderborn","type":"Kreis"},"federalState":{"key":"05","name":"Nordrhein-Westfalen"}},{"name":"Schloßstr.","postalCode":"33161","locality":"Hövelhof","municipality":{"key":"05774024","name":"Hövelhof, Sennegemeinde","type":"Kreisangehörige_Gemeinde"},"district":{"key":"05774","name":"Paderborn","type":"Kreis"},"federalState":{"key":"05","name":"Nordrhein-Westfalen"}},{"name":"Schlüsselblumenweg","postalCode":"33161","locality":"Hövelhof","municipality":{"key":"05774024","name":"Hövelhof, Sennegemeinde","type":"Kreisangehörige_Gemeinde"},"district":{"key":"05774","name":"Paderborn","type":"Kreis"},"federalState":{"key":"05","name":"Nordrhein-Westfalen"}},{"name":"Schmiedeteich","postalCode":"33161","locality":"Hövelhof","municipality":{"key":"05774024","name":"Hövelhof, Sennegemeinde","type":"Kreisangehörige_Gemeinde"},"district":{"key":"05774","name":"Paderborn","type":"Kreis"},"federalState":{"key":"05","name":"Nordrhein-Westfalen"}},{"name":"Schnepfenflucht","postalCode":"33161","locality":"Hövelhof","municipality":{"key":"05774024","name":"Hövelhof, Sennegemeinde","type":"Kreisangehörige_Gemeinde"},"district":{"key":"05774","name":"Paderborn","type":"Kreis"},"federalState":{"key":"05","name":"Nordrhein-Westfalen"}},{"name":"Schulstr.","postalCode":"33161","locality":"Hövelhof","municipality":{"key":"05774024","name":"Hövelhof, Sennegemeinde","type":"Kreisangehörige_Gemeinde"},"district":{"key":"05774","name":"Paderborn","type":"Kreis"},"federalState":{"key":"05","name":"Nordrhein-Westfalen"}},{"name":"Schützenstr.","postalCode":"33161","locality":"Hövelhof","municipality":{"key":"05774024","name":"Hövelhof, Sennegemeinde","type":"Kreisangehörige_Gemeinde"},"district":{"key":"05774","name":"Paderborn","type":"Kreis"},"federalState":{"key":"05","name":"Nordrhein-Westfalen"}},{"name":"Schwarzwasserbach","postalCode":"33161","locality":"Hövelhof","municipality":{"key":"05774024","name":"Hövelhof, Sennegemeinde","type":"Kreisangehörige_Gemeinde"},"district":{"key":"05774","name":"Paderborn","type":"Kreis"},"federalState":{"key":"05","name":"Nordrhein-Westfalen"}},{"name":"Sennestr.","postalCode":"33161","locality":"Hövelhof","municipality":{"key":"05774024","name":"Hövelhof, Sennegemeinde","type":"Kreisangehörige_Gemeinde"},"district":{"key":"05774","name":"Paderborn","type":"Kreis"},"federalState":{"key":"05","name":"Nordrhein-Westfalen"}},{"name":"Setziner Weg","postalCode":"33161","locality":"Hövelhof","municipality":{"key":"05774024","name":"Hövelhof, Sennegemeinde","type":"Kreisangehörige_Gemeinde"},"district":{"key":"05774","name":"Paderborn","type":"Kreis"},"federalState":{"key":"05","name":"Nordrhein-Westfalen"}},{"name":"Sporckstr.","postalCode":"33161","locality":"Hövelhof","municipality":{"key":"05774024","name":"Hövelhof, Sennegemeinde","type":"Kreisangehörige_Gemeinde"},"district":{"key":"05774","name":"Paderborn","type":"Kreis"},"federalState":{"key":"05","name":"Nordrhein-Westfalen"}},{"name":"Stauffenbergstr.","postalCode":"33161","locality":"Hövelhof","municipality":{"key":"05774024","name":"Hövelhof, Sennegemeinde","type":"Kreisangehörige_Gemeinde"},"district":{"key":"05774","name":"Paderborn","type":"Kreis"},"federalState":{"key":"05","name":"Nordrhein-Westfalen"}},{"name":"Staumühler Str.","postalCode":"33161","locality":"Hövelhof","municipality":{"key":"05774024","name":"Hövelhof, Sennegemeinde","type":"Kreisangehörige_Gemeinde"},"district":{"key":"05774","name":"Paderborn","type":"Kreis"},"federalState":{"key":"05","name":"Nordrhein-Westfalen"}},{"name":"Steinbrink","postalCode":"33161","locality":"Hövelhof","municipality":{"key":"05774024","name":"Hövelhof, Sennegemeinde","type":"Kreisangehörige_Gemeinde"},"district":{"key":"05774","name":"Paderborn","type":"Kreis"},"federalState":{"key":"05","name":"Nordrhein-Westfalen"}},{"name":"Steinweg","postalCode":"33161","locality":"Hövelhof","municipality":{"key":"05774024","name":"Hövelhof, Sennegemeinde","type":"Kreisangehörige_Gemeinde"},"district":{"key":"05774","name":"Paderborn","type":"Kreis"},"federalState":{"key":"05","name":"Nordrhein-Westfalen"}},{"name":"Stettiner Str.","postalCode":"33161","locality":"Hövelhof","municipality":{"key":"05774024","name":"Hövelhof, Sennegemeinde","type":"Kreisangehörige_Gemeinde"},"district":{"key":"05774","name":"Paderborn","type":"Kreis"},"federalState":{"key":"05","name":"Nordrhein-Westfalen"}},{"name":"Strickstroot","postalCode":"33161","locality":"Hövelhof","municipality":{"key":"05774024","name":"Hövelhof, Sennegemeinde","type":"Kreisangehörige_Gemeinde"},"district":{"key":"05774","name":"Paderborn","type":"Kreis"},"federalState":{"key":"05","name":"Nordrhein-Westfalen"}},{"name":"Tannenweg","postalCode":"33161","locality":"Hövelhof","municipality":{"key":"05774024","name":"Hövelhof, Sennegemeinde","type":"Kreisangehörige_Gemeinde"},"district":{"key":"05774","name":"Paderborn","type":"Kreis"},"federalState":{"key":"05","name":"Nordrhein-Westfalen"}},{"name":"Tellweg","postalCode":"33161","locality":"Hövelhof","municipality":{"key":"05774024","name":"Hövelhof, Sennegemeinde","type":"Kreisangehörige_Gemeinde"},"district":{"key":"05774","name":"Paderborn","type":"Kreis"},"federalState":{"key":"05","name":"Nordrhein-Westfalen"}},{"name":"Theodor-Storm-Str.","postalCode":"33161","locality":"Hövelhof","municipality":{"key":"05774024","name":"Hövelhof, Sennegemeinde","type":"Kreisangehörige_Gemeinde"},"district":{"key":"05774","name":"Paderborn","type":"Kreis"},"federalState":{"key":"05","name":"Nordrhein-Westfalen"}},{"name":"Trift","postalCode":"33161","locality":"Hövelhof","municipality":{"key":"05774024","name":"Hövelhof, Sennegemeinde","type":"Kreisangehörige_Gemeinde"},"district":{"key":"05774","name":"Paderborn","type":"Kreis"},"federalState":{"key":"05","name":"Nordrhein-Westfalen"}},{"name":"Twielenweg","postalCode":"33161","locality":"Hövelhof","municipality":{"key":"05774024","name":"Hövelhof, Sennegemeinde","type":"Kreisangehörige_Gemeinde"},"district":{"key":"05774","name":"Paderborn","type":"Kreis"},"federalState":{"key":"05","name":"Nordrhein-Westfalen"}},{"name":"Ulmenstr.","postalCode":"33161","locality":"Hövelhof","municipality":{"key":"05774024","name":"Hövelhof, Sennegemeinde","type":"Kreisangehörige_Gemeinde"},"district":{"key":"05774","name":"Paderborn","type":"Kreis"},"federalState":{"key":"05","name":"Nordrhein-Westfalen"}},{"name":"Untere Bielefelder Landstr.","postalCode":"33161","locality":"Hövelhof","municipality":{"key":"05774024","name":"Hövelhof, Sennegemeinde","type":"Kreisangehörige_Gemeinde"},"district":{"key":"05774","name":"Paderborn","type":"Kreis"},"federalState":{"key":"05","name":"Nordrhein-Westfalen"}},{"name":"Unterems","postalCode":"33161","locality":"Hövelhof","municipality":{"key":"05774024","name":"Hövelhof, Sennegemeinde","type":"Kreisangehörige_Gemeinde"},"district":{"key":"05774","name":"Paderborn","type":"Kreis"},"federalState":{"key":"05","name":"Nordrhein-Westfalen"}},{"name":"Vogelweide","postalCode":"33161","locality":"Hövelhof","municipality":{"key":"05774024","name":"Hövelhof, Sennegemeinde","type":"Kreisangehörige_Gemeinde"},"district":{"key":"05774","name":"Paderborn","type":"Kreis"},"federalState":{"key":"05","name":"Nordrhein-Westfalen"}},{"name":"Vom-Stein-Str.","postalCode":"33161","locality":"Hövelhof","municipality":{"key":"05774024","name":"Hövelhof, Sennegemeinde","type":"Kreisangehörige_Gemeinde"},"district":{"key":"05774","name":"Paderborn","type":"Kreis"},"federalState":{"key":"05","name":"Nordrhein-Westfalen"}},{"name":"Von-der-Recke-Str.","postalCode":"33161","locality":"Hövelhof","municipality":{"key":"05774024","name":"Hövelhof, Sennegemeinde","type":"Kreisangehörige_Gemeinde"},"district":{"key":"05774","name":"Paderborn","type":"Kreis"},"federalState":{"key":"05","name":"Nordrhein-Westfalen"}},{"name":"Von-Galen-Str.","postalCode":"33161","locality":"Hövelhof","municipality":{"key":"05774024","name":"Hövelhof, Sennegemeinde","type":"Kreisangehörige_Gemeinde"},"district":{"key":"05774","name":"Paderborn","type":"Kreis"},"federalState":{"key":"05","name":"Nordrhein-Westfalen"}},{"name":"Von-Kleist-Str.","postalCode":"33161","locality":"Hövelhof","municipality":{"key":"05774024","name":"Hövelhof, Sennegemeinde","type":"Kreisangehörige_Gemeinde"},"district":{"key":"05774","name":"Paderborn","type":"Kreis"},"federalState":{"key":"05","name":"Nordrhein-Westfalen"}},{"name":"Von-Moltke-Str.","postalCode":"33161","locality":"Hövelhof","municipality":{"key":"05774024","name":"Hövelhof, Sennegemeinde","type":"Kreisangehörige_Gemeinde"},"district":{"key":"05774","name":"Paderborn","type":"Kreis"},"federalState":{"key":"05","name":"Nordrhein-Westfalen"}},{"name":"Von-Spee-Str.","postalCode":"33161","locality":"Hövelhof","municipality":{"key":"05774024","name":"Hövelhof, Sennegemeinde","type":"Kreisangehörige_Gemeinde"},"district":{"key":"05774","name":"Paderborn","type":"Kreis"},"federalState":{"key":"05","name":"Nordrhein-Westfalen"}},{"name":"Wacholderweg","postalCode":"33161","locality":"Hövelhof","municipality":{"key":"05774024","name":"Hövelhof, Sennegemeinde","type":"Kreisangehörige_Gemeinde"},"district":{"key":"05774","name":"Paderborn","type":"Kreis"},"federalState":{"key":"05","name":"Nordrhein-Westfalen"}},{"name":"Waldweg","postalCode":"33161","locality":"Hövelhof","municipality":{"key":"05774024","name":"Hövelhof, Sennegemeinde","type":"Kreisangehörige_Gemeinde"},"district":{"key":"05774","name":"Paderborn","type":"Kreis"},"federalState":{"key":"05","name":"Nordrhein-Westfalen"}},{"name":"Wassermannsweg","postalCode":"33161","locality":"Hövelhof","municipality":{"key":"05774024","name":"Hövelhof, Sennegemeinde","type":"Kreisangehörige_Gemeinde"},"district":{"key":"05774","name":"Paderborn","type":"Kreis"},"federalState":{"key":"05","name":"Nordrhein-Westfalen"}},{"name":"Wechmarbrücke","postalCode":"33161","locality":"Hövelhof","municipality":{"key":"05774024","name":"Hövelhof, Sennegemeinde","type":"Kreisangehörige_Gemeinde"},"district":{"key":"05774","name":"Paderborn","type":"Kreis"},"federalState":{"key":"05","name":"Nordrhein-Westfalen"}},{"name":"Weidenweg","postalCode":"33161","locality":"Hövelhof","municipality":{"key":"05774024","name":"Hövelhof, Sennegemeinde","type":"Kreisangehörige_Gemeinde"},"district":{"key":"05774","name":"Paderborn","type":"Kreis"},"federalState":{"key":"05","name":"Nordrhein-Westfalen"}},{"name":"Westfalenstr.","postalCode":"33161","locality":"Hövelhof","municipality":{"key":"05774024","name":"Hövelhof, Sennegemeinde","type":"Kreisangehörige_Gemeinde"},"district":{"key":"05774","name":"Paderborn","type":"Kreis"},"federalState":{"key":"05","name":"Nordrhein-Westfalen"}},{"name":"Wichmannallee","postalCode":"33161","locality":"Hövelhof","municipality":{"key":"05774024","name":"Hövelhof, Sennegemeinde","type":"Kreisangehörige_Gemeinde"},"district":{"key":"05774","name":"Paderborn","type":"Kreis"},"federalState":{"key":"05","name":"Nordrhein-Westfalen"}},{"name":"Wiesengrund","postalCode":"33161","locality":"Hövelhof","municipality":{"key":"05774024","name":"Hövelhof, Sennegemeinde","type":"Kreisangehörige_Gemeinde"},"district":{"key":"05774","name":"Paderborn","type":"Kreis"},"federalState":{"key":"05","name":"Nordrhein-Westfalen"}},{"name":"Wiesenpfad","postalCode":"33161","locality":"Hövelhof","municipality":{"key":"05774024","name":"Hövelhof, Sennegemeinde","type":"Kreisangehörige_Gemeinde"},"district":{"key":"05774","name":"Paderborn","type":"Kreis"},"federalState":{"key":"05","name":"Nordrhein-Westfalen"}},{"name":"Wildwechsel","postalCode":"33161","locality":"Hövelhof","municipality":{"key":"05774024","name":"Hövelhof, Sennegemeinde","type":"Kreisangehörige_Gemeinde"},"district":{"key":"05774","name":"Paderborn","type":"Kreis"},"federalState":{"key":"05","name":"Nordrhein-Westfalen"}},{"name":"Wilhelm-Bee-Str.","postalCode":"33161","locality":"Hövelhof","municipality":{"key":"05774024","name":"Hövelhof, Sennegemeinde","type":"Kreisangehörige_Gemeinde"},"district":{"key":"05774","name":"Paderborn","type":"Kreis"},"federalState":{"key":"05","name":"Nordrhein-Westfalen"}},{"name":"Wilhörster Teich","postalCode":"33161","locality":"Hövelhof","municipality":{"key":"05774024","name":"Hövelhof, Sennegemeinde","type":"Kreisangehörige_Gemeinde"},"district":{"key":"05774","name":"Paderborn","type":"Kreis"},"federalState":{"key":"05","name":"Nordrhein-Westfalen"}},{"name":"Windthorststr.","postalCode":"33161","locality":"Hövelhof","municipality":{"key":"05774024","name":"Hövelhof, Sennegemeinde","type":"Kreisangehörige_Gemeinde"},"district":{"key":"05774","name":"Paderborn","type":"Kreis"},"federalState":{"key":"05","name":"Nordrhein-Westfalen"}},{"name":"Wittekindstr.","postalCode":"33161","locality":"Hövelhof","municipality":{"key":"05774024","name":"Hövelhof, Sennegemeinde","type":"Kreisangehörige_Gemeinde"},"district":{"key":"05774","name":"Paderborn","type":"Kreis"},"federalState":{"key":"05","name":"Nordrhein-Westfalen"}},{"name":"Wolfgang-Borchert-Str.","postalCode":"33161","locality":"Hövelhof","municipality":{"key":"05774024","name":"Hövelhof, Sennegemeinde","type":"Kreisangehörige_Gemeinde"},"district":{"key":"05774","name":"Paderborn","type":"Kreis"},"federalState":{"key":"05","name":"Nordrhein-Westfalen"}},{"name":"Zieglerstr.","postalCode":"33161","locality":"Hövelhof","municipality":{"key":"05774024","name":"Hövelhof, Sennegemeinde","type":"Kreisangehörige_Gemeinde"},"district":{"key":"05774","name":"Paderborn","type":"Kreis"},"federalState":{"key":"05","name":"Nordrhein-Westfalen"}},{"name":"Zührer Weg","postalCode":"33161","locality":"Hövelhof","municipality":{"key":"05774024","name":"Hövelhof, Sennegemeinde","type":"Kreisangehörige_Gemeinde"},"district":{"key":"05774","name":"Paderborn","type":"Kreis"},"federalState":{"key":"05","name":"Nordrhein-Westfalen"}},{"name":"Zur Post","postalCode":"33161","locality":"Hövelhof","municipality":{"key":"05774024","name":"Hövelhof, Sennegemeinde","type":"Kreisangehörige_Gemeinde"},"district":{"key":"05774","name":"Paderborn","type":"Kreis"},"federalState":{"key":"05","name":"Nordrhein-Westfalen"}},{"name":"Ölmühlenweg","postalCode":"33161","locality":"Hövelhof","municipality":{"key":"05774024","name":"Hövelhof, Sennegemeinde","type":"Kreisangehörige_Gemeinde"},"district":{"key":"05774","name":"Paderborn","type":"Kreis"},"federalState":{"key":"05","name":"Nordrhein-Westfalen"}},{"name":"Überwasserstr.","postalCode":"33100","locality":"Paderborn","municipality":{"key":"05774032","name":"Paderborn, Stadt","type":"Stadt"},"district":{"key":"05774","name":"Paderborn","type":"Kreis"},"federalState":{"key":"05","name":"Nordrhein-Westfalen"}},{"name":"Ükern","postalCode":"33098","locality":"Paderborn","municipality":{"key":"05774032","name":"Paderborn, Stadt","type":"Stadt"},"district":{"key":"05774","name":"Paderborn","type":"Kreis"},"federalState":{"key":"05","name":"Nordrhein-Westfalen"}},]