[{"name":"464","postalCode":"83483","locality":"Bischofswiesen","municipality":{"key":"09172117","name":"Bischofswiesen","type":"Kreisangehörige_Gemeinde"},"district":{"key":"09172","name":"Berchtesgadener Land","type":"Landkreis"},"federalState":{"key":"09","name":"Bayern"}},{"name":"Am Bahndam","postalCode":"95237","locality":"Weißdorf","municipality":{"key":"09475184","name":"Weißdorf","type":"Kreisangehörige_Gemeinde"},"district":{"key":"09475","name":"Hof","type":"Landkreis"},"federalState":{"key":"09","name":"Bayern"}},{"name":"Am Schloß","postalCode":"95237","locality":"Weißdorf","municipality":{"key":"09475184","name":"Weißdorf","type":"Kreisangehörige_Gemeinde"},"district":{"key":"09475","name":"Hof","type":"Landkreis"},"federalState":{"key":"09","name":"Bayern"}},{"name":"Am Schrebergarten","postalCode":"95237","locality":"Weißdorf","municipality":{"key":"09475184","name":"Weißdorf","type":"Kreisangehörige_Gemeinde"},"district":{"key":"09475","name":"Hof","type":"Landkreis"},"federalState":{"key":"09","name":"Bayern"}},{"name":"Bärlas","postalCode":"95237","locality":"Weißdorf","municipality":{"key":"09475184","name":"Weißdorf","type":"Kreisangehörige_Gemeinde"},"district":{"key":"09475","name":"Hof","type":"Landkreis"},"federalState":{"key":"09","name":"Bayern"}},{"name":"Benk","postalCode":"95237","locality":"Weißdorf","municipality":{"key":"09475184","name":"Weißdorf","type":"Kreisangehörige_Gemeinde"},"district":{"key":"09475","name":"Hof","type":"Landkreis"},"federalState":{"key":"09","name":"Bayern"}},{"name":"Birkenhain","postalCode":"95237","locality":"Weißdorf","municipality":{"key":"09475184","name":"Weißdorf","type":"Kreisangehörige_Gemeinde"},"district":{"key":"09475","name":"Hof","type":"Landkreis"},"federalState":{"key":"09","name":"Bayern"}},{"name":"Birkenweg","postalCode":"95237","locality":"Weißdorf","municipality":{"key":"09475184","name":"Weißdorf","type":"Kreisangehörige_Gemeinde"},"district":{"key":"09475","name":"Hof","type":"Landkreis"},"federalState":{"key":"09","name":"Bayern"}},{"name":"Buchenweg","postalCode":"95237","locality":"Weißdorf","municipality":{"key":"09475184","name":"Weißdorf","type":"Kreisangehörige_Gemeinde"},"district":{"key":"09475","name":"Hof","type":"Landkreis"},"federalState":{"key":"09","name":"Bayern"}},{"name":"Bugbergstr.","postalCode":"95237","locality":"Weißdorf","municipality":{"key":"09475184","name":"Weißdorf","type":"Kreisangehörige_Gemeinde"},"district":{"key":"09475","name":"Hof","type":"Landkreis"},"federalState":{"key":"09","name":"Bayern"}},{"name":"Christian-Seidel-Str.","postalCode":"95237","locality":"Weißdorf","municipality":{"key":"09475184","name":"Weißdorf","type":"Kreisangehörige_Gemeinde"},"district":{"key":"09475","name":"Hof","type":"Landkreis"},"federalState":{"key":"09","name":"Bayern"}},{"name":"Dachauer Str.","postalCode":"82281","locality":"Egenhofen","municipality":{"key":"09179117","name":"Egenhofen","type":"Kreisangehörige_Gemeinde"},"district":{"key":"09179","name":"Fürstenfeldbruck","type":"Landkreis"},"federalState":{"key":"09","name":"Bayern"}},{"name":"Dachlmoosweg","postalCode":"83483","locality":"Bischofswiesen","municipality":{"key":"09172117","name":"Bischofswiesen","type":"Kreisangehörige_Gemeinde"},"district":{"key":"09172","name":"Berchtesgadener Land","type":"Landkreis"},"federalState":{"key":"09","name":"Bayern"}},{"name":"Dachsbau Weg","postalCode":"74924","locality":"Neckarbischofsheim","municipality":{"key":"08226055","name":"Neckarbischofsheim, Stadt","type":"Stadt"},"district":{"key":"08226","name":"Rhein-Neckar-Kreis","type":"Landkreis"},"federalState":{"key":"08","name":"Baden-Württemberg"}},{"name":"Dachsweg","postalCode":"65719","locality":"Hofheim am Taunus","municipality":{"key":"06436007","name":"Hofheim am Taunus, Kreisstadt","type":"Stadt"},"district":{"key":"06436","name":"Main-Taunus-Kreis","type":"Landkreis"},"federalState":{"key":"06","name":"Hessen"}},{"name":"Dachsweg","postalCode":"88433","locality":"Schemmerhofen","municipality":{"key":"08426134","name":"Schemmerhofen","type":"Kreisangehörige_Gemeinde"},"district":{"key":"08426","name":"Biberach","type":"Landkreis"},"federalState":{"key":"08","name":"Baden-Württemberg"}},{"name":"Dahlienweg","postalCode":"51580","locality":"Reichshof","municipality":{"key":"05374040","name":"Reichshof","type":"Kreisangehörige_Gemeinde"},"district":{"key":"05374","name":"Oberbergischer Kreis","type":"Kreis"},"federalState":{"key":"05","name":"Nordrhein-Westfalen"}},{"name":"Dahlienweg","postalCode":"86368","locality":"Gersthofen","municipality":{"key":"09772147","name":"Gersthofen, St","type":"Stadt"},"district":{"key":"09772","name":"Augsburg","type":"Landkreis"},"federalState":{"key":"09","name":"Bayern"}},{"name":"Dahlienweg","postalCode":"93142","locality":"Maxhütte-Haidhof","municipality":{"key":"09376141","name":"Maxhütte-Haidhof, St","type":"Stadt"},"district":{"key":"09376","name":"Schwandorf","type":"Landkreis"},"federalState":{"key":"09","name":"Bayern"}},{"name":"Dahlienweg","postalCode":"97653","locality":"Bischofsheim i.d.Rhön","municipality":{"key":"09673117","name":"Bischofsheim i.d.Rhön, St","type":"Stadt"},"district":{"key":"09673","name":"Rhön-Grabfeld","type":"Landkreis"},"federalState":{"key":"09","name":"Bayern"}},{"name":"Dahlienweg","postalCode":"97941","locality":"Tauberbischofsheim","municipality":{"key":"08128115","name":"Tauberbischofsheim, Stadt","type":"Stadt"},"district":{"key":"08128","name":"Main-Tauber-Kreis","type":"Landkreis"},"federalState":{"key":"08","name":"Baden-Württemberg"}},{"name":"Daimlerstr.","postalCode":"86368","locality":"Gersthofen","municipality":{"key":"09772147","name":"Gersthofen, St","type":"Stadt"},"district":{"key":"09772","name":"Augsburg","type":"Landkreis"},"federalState":{"key":"09","name":"Bayern"}},{"name":"Daimlerstr.","postalCode":"87448","locality":"Waltenhofen","municipality":{"key":"09780143","name":"Waltenhofen","type":"Kreisangehörige_Gemeinde"},"district":{"key":"09780","name":"Oberallgäu","type":"Landkreis"},"federalState":{"key":"09","name":"Bayern"}},{"name":"Daimlerstr.","postalCode":"90599","locality":"Dietenhofen","municipality":{"key":"09571135","name":"Dietenhofen, M","type":"Markt"},"district":{"key":"09571","name":"Ansbach","type":"Landkreis"},"federalState":{"key":"09","name":"Bayern"}},{"name":"Daimlerstr.","postalCode":"97941","locality":"Tauberbischofsheim","municipality":{"key":"08128115","name":"Tauberbischofsheim, Stadt","type":"Stadt"},"district":{"key":"08128","name":"Main-Tauber-Kreis","type":"Landkreis"},"federalState":{"key":"08","name":"Baden-Württemberg"}},{"name":"Daimlerweg","postalCode":"67117","locality":"Limburgerhof","municipality":{"key":"07338017","name":"Limburgerhof","type":"Kreisangehörige_Gemeinde"},"district":{"key":"07338","name":"Rhein-Pfalz-Kreis","type":"Landkreis"},"federalState":{"key":"07","name":"Rheinland-Pfalz"}},{"name":"Daisendorfer Str.","postalCode":"88690","locality":"Uhldingen-Mühlhofen","municipality":{"key":"08435066","name":"Uhldingen-Mühlhofen","type":"Kreisangehörige_Gemeinde"},"district":{"key":"08435","name":"Bodenseekreis","type":"Landkreis"},"federalState":{"key":"08","name":"Baden-Württemberg"}},{"name":"Dalbergstr.","postalCode":"67574","locality":"Osthofen","municipality":{"key":"07331055","name":"Osthofen, Stadt","type":"Stadt"},"district":{"key":"07331","name":"Alzey-Worms","type":"Landkreis"},"federalState":{"key":"07","name":"Rheinland-Pfalz"}},{"name":"Dalles","postalCode":"36119","locality":"Neuhof","municipality":{"key":"06631018","name":"Neuhof","type":"Kreisangehörige_Gemeinde"},"district":{"key":"06631","name":"Fulda","type":"Landkreis"},"federalState":{"key":"06","name":"Hessen"}},{"name":"Daltrupsweg","postalCode":"33161","locality":"Hövelhof","municipality":{"key":"05774024","name":"Hövelhof, Sennegemeinde","type":"Kreisangehörige_Gemeinde"},"district":{"key":"05774","name":"Paderborn","type":"Kreis"},"federalState":{"key":"05","name":"Nordrhein-Westfalen"}},{"name":"Damaschkestr.","postalCode":"04683","locality":"Naunhof","municipality":{"key":"14729300","name":"Naunhof, Stadt","type":"Stadt"},"district":{"key":"14729","name":"Leipzig","type":"Landkreis"},"federalState":{"key":"14","name":"Sachsen"}},{"name":"Damaschkestr.","postalCode":"91572","locality":"Bechhofen","municipality":{"key":"09571115","name":"Bechhofen, M","type":"Markt"},"district":{"key":"09571","name":"Ansbach","type":"Landkreis"},"federalState":{"key":"09","name":"Bayern"}},{"name":"Damaschkestr.","postalCode":"95032","locality":"Hof","municipality":{"key":"09464000","name":"Hof","type":"Kreisfreie_Stadt"},"district":{"key":"09464","name":"Hof","type":"Kreisfreie_Stadt"},"federalState":{"key":"09","name":"Bayern"}},{"name":"Dammbacherstr.","postalCode":"74248","locality":"Ellhofen","municipality":{"key":"08125024","name":"Ellhofen","type":"Kreisangehörige_Gemeinde"},"district":{"key":"08125","name":"Heilbronn","type":"Landkreis"},"federalState":{"key":"08","name":"Baden-Württemberg"}},{"name":"Dammersbacher Str.","postalCode":"36145","locality":"Hofbieber","municipality":{"key":"06631013","name":"Hofbieber","type":"Kreisangehörige_Gemeinde"},"district":{"key":"06631","name":"Fulda","type":"Landkreis"},"federalState":{"key":"06","name":"Hessen"}},{"name":"Dammstr.","postalCode":"51580","locality":"Reichshof","municipality":{"key":"05374040","name":"Reichshof","type":"Kreisangehörige_Gemeinde"},"district":{"key":"05374","name":"Oberbergischer Kreis","type":"Kreis"},"federalState":{"key":"05","name":"Nordrhein-Westfalen"}},{"name":"Dammstr.","postalCode":"65474","locality":"Bischofsheim","municipality":{"key":"06433002","name":"Bischofsheim","type":"Kreisangehörige_Gemeinde"},"district":{"key":"06433","name":"Groß-Gerau","type":"Landkreis"},"federalState":{"key":"06","name":"Hessen"}},{"name":"Dammstr.","postalCode":"67141","locality":"Neuhofen","municipality":{"key":"07338020","name":"Neuhofen","type":"Kreisangehörige_Gemeinde"},"district":{"key":"07338","name":"Rhein-Pfalz-Kreis","type":"Landkreis"},"federalState":{"key":"07","name":"Rheinland-Pfalz"}},{"name":"Dammstr.","postalCode":"74248","locality":"Ellhofen","municipality":{"key":"08125024","name":"Ellhofen","type":"Kreisangehörige_Gemeinde"},"district":{"key":"08125","name":"Heilbronn","type":"Landkreis"},"federalState":{"key":"08","name":"Baden-Württemberg"}},{"name":"Dammweg","postalCode":"01877","locality":"Bischofswerda","municipality":{"key":"14625040","name":"Bischofswerda, Stadt","type":"Stadt"},"district":{"key":"14625","name":"Bautzen","type":"Landkreis"},"federalState":{"key":"14","name":"Sachsen"}},{"name":"Dammweg","postalCode":"87527","locality":"Sonthofen","municipality":{"key":"09780139","name":"Sonthofen, St","type":"Stadt"},"district":{"key":"09780","name":"Oberallgäu","type":"Landkreis"},"federalState":{"key":"09","name":"Bayern"}},{"name":"Dammweg","postalCode":"87640","locality":"Biessenhofen","municipality":{"key":"09777112","name":"Biessenhofen","type":"Kreisangehörige_Gemeinde"},"district":{"key":"09777","name":"Ostallgäu","type":"Landkreis"},"federalState":{"key":"09","name":"Bayern"}},{"name":"Dammweg","postalCode":"94330","locality":"Aiterhofen","municipality":{"key":"09278113","name":"Aiterhofen","type":"Kreisangehörige_Gemeinde"},"district":{"key":"09278","name":"Straubing-Bogen","type":"Landkreis"},"federalState":{"key":"09","name":"Bayern"}},{"name":"Dammweg","postalCode":"94486","locality":"Osterhofen","municipality":{"key":"09271141","name":"Osterhofen, St","type":"Stadt"},"district":{"key":"09271","name":"Deggendorf","type":"Landkreis"},"federalState":{"key":"09","name":"Bayern"}},{"name":"Dampfstr.","postalCode":"95493","locality":"Bischofsgrüner Forst","municipality":{"key":"09472451","name":"Bischofsgrüner Forst","type":"Gemeindefreies_Gebiet_Unbewohnt"},"district":{"key":"09472","name":"Bayreuth","type":"Landkreis"},"federalState":{"key":"09","name":"Bayern"}},{"name":"Dannholt","postalCode":"25746","locality":"Lohe-Rickelshof","municipality":{"key":"01051069","name":"Lohe-Rickelshof","type":"Kreisangehörige_Gemeinde"},"district":{"key":"01051","name":"Dithmarschen","type":"Kreis"},"federalState":{"key":"01","name":"Schleswig-Holstein"}},{"name":"Danziger Str.","postalCode":"33161","locality":"Hövelhof","municipality":{"key":"05774024","name":"Hövelhof, Sennegemeinde","type":"Kreisangehörige_Gemeinde"},"district":{"key":"05774","name":"Paderborn","type":"Kreis"},"federalState":{"key":"05","name":"Nordrhein-Westfalen"}},{"name":"Danziger Str.","postalCode":"34369","locality":"Hofgeismar","municipality":{"key":"06633013","name":"Hofgeismar, Stadt","type":"Stadt"},"district":{"key":"06633","name":"Kassel","type":"Landkreis"},"federalState":{"key":"06","name":"Hessen"}},{"name":"Danziger Str.","postalCode":"36119","locality":"Neuhof","municipality":{"key":"06631018","name":"Neuhof","type":"Kreisangehörige_Gemeinde"},"district":{"key":"06631","name":"Fulda","type":"Landkreis"},"federalState":{"key":"06","name":"Hessen"}},{"name":"Danziger Str.","postalCode":"65474","locality":"Bischofsheim","municipality":{"key":"06433002","name":"Bischofsheim","type":"Kreisangehörige_Gemeinde"},"district":{"key":"06433","name":"Groß-Gerau","type":"Landkreis"},"federalState":{"key":"06","name":"Hessen"}},{"name":"Danziger Str.","postalCode":"67117","locality":"Limburgerhof","municipality":{"key":"07338017","name":"Limburgerhof","type":"Kreisangehörige_Gemeinde"},"district":{"key":"07338","name":"Rhein-Pfalz-Kreis","type":"Landkreis"},"federalState":{"key":"07","name":"Rheinland-Pfalz"}},{"name":"Danziger Str.","postalCode":"85276","locality":"Pfaffenhofen an der Ilm","municipality":{"key":"09186143","name":"Pfaffenhofen a.d.Ilm, St","type":"Stadt"},"district":{"key":"09186","name":"Pfaffenhofen a.d.Ilm","type":"Landkreis"},"federalState":{"key":"09","name":"Bayern"}},{"name":"Danziger Str.","postalCode":"86368","locality":"Gersthofen","municipality":{"key":"09772147","name":"Gersthofen, St","type":"Stadt"},"district":{"key":"09772","name":"Augsburg","type":"Landkreis"},"federalState":{"key":"09","name":"Bayern"}},{"name":"Danziger Str.","postalCode":"89284","locality":"Pfaffenhofen an der Roth","municipality":{"key":"09775143","name":"Pfaffenhofen a.d.Roth, M","type":"Markt"},"district":{"key":"09775","name":"Neu-Ulm","type":"Landkreis"},"federalState":{"key":"09","name":"Bayern"}},{"name":"Danziger Weg","postalCode":"65719","locality":"Hofheim am Taunus","municipality":{"key":"06436007","name":"Hofheim am Taunus, Kreisstadt","type":"Stadt"},"district":{"key":"06436","name":"Main-Taunus-Kreis","type":"Landkreis"},"federalState":{"key":"06","name":"Hessen"}},{"name":"Danzigstr.","postalCode":"95028","locality":"Hof","municipality":{"key":"09464000","name":"Hof","type":"Kreisfreie_Stadt"},"district":{"key":"09464","name":"Hof","type":"Kreisfreie_Stadt"},"federalState":{"key":"09","name":"Bayern"}},{"name":"Danzigstr.","postalCode":"97447","locality":"Gerolzhofen","municipality":{"key":"09678134","name":"Gerolzhofen, St","type":"Stadt"},"district":{"key":"09678","name":"Schweinfurt","type":"Landkreis"},"federalState":{"key":"09","name":"Bayern"}},{"name":"Darlehensgasse","postalCode":"73110","locality":"Hattenhofen","municipality":{"key":"08117029","name":"Hattenhofen","type":"Kreisangehörige_Gemeinde"},"district":{"key":"08117","name":"Göppingen","type":"Landkreis"},"federalState":{"key":"08","name":"Baden-Württemberg"}},{"name":"Darmstädter Str.","postalCode":"65474","locality":"Bischofsheim","municipality":{"key":"06433002","name":"Bischofsheim","type":"Kreisangehörige_Gemeinde"},"district":{"key":"06433","name":"Groß-Gerau","type":"Landkreis"},"federalState":{"key":"06","name":"Hessen"}},{"name":"Darzer Weg","postalCode":"17209","locality":"Altenhof","municipality":{"key":"13071003","name":"Altenhof","type":"Kreisangehörige_Gemeinde"},"district":{"key":"13071","name":"Mecklenburgische Seenplatte","type":"Landkreis"},"federalState":{"key":"13","name":"Mecklenburg-Vorpommern"}},{"name":"Das Schloß","postalCode":"24582","locality":"Hoffeld","municipality":{"key":"01058076","name":"Hoffeld","type":"Kreisangehörige_Gemeinde"},"district":{"key":"01058","name":"Rendsburg-Eckernförde","type":"Kreis"},"federalState":{"key":"01","name":"Schleswig-Holstein"}},{"name":"Eibbachweg","postalCode":"95237","locality":"Weißdorf","municipality":{"key":"09475184","name":"Weißdorf","type":"Kreisangehörige_Gemeinde"},"district":{"key":"09475","name":"Hof","type":"Landkreis"},"federalState":{"key":"09","name":"Bayern"}},{"name":"Fichtenweg","postalCode":"95237","locality":"Weißdorf","municipality":{"key":"09475184","name":"Weißdorf","type":"Kreisangehörige_Gemeinde"},"district":{"key":"09475","name":"Hof","type":"Landkreis"},"federalState":{"key":"09","name":"Bayern"}},{"name":"Gabelsbergerstr.","postalCode":"65474","locality":"Bischofsheim","municipality":{"key":"06433002","name":"Bischofsheim","type":"Kreisangehörige_Gemeinde"},"district":{"key":"06433","name":"Groß-Gerau","type":"Landkreis"},"federalState":{"key":"06","name":"Hessen"}},{"name":"Gabelsbergerstr.","postalCode":"86368","locality":"Gersthofen","municipality":{"key":"09772147","name":"Gersthofen, St","type":"Stadt"},"district":{"key":"09772","name":"Augsburg","type":"Landkreis"},"federalState":{"key":"09","name":"Bayern"}},{"name":"Gabelsbergerstr.","postalCode":"86825","locality":"Bad Wörishofen","municipality":{"key":"09778116","name":"Bad Wörishofen, St","type":"Stadt"},"district":{"key":"09778","name":"Unterallgäu","type":"Landkreis"},"federalState":{"key":"09","name":"Bayern"}},{"name":"Gabelsbergerstr.","postalCode":"95028","locality":"Hof","municipality":{"key":"09464000","name":"Hof","type":"Kreisfreie_Stadt"},"district":{"key":"09464","name":"Hof","type":"Kreisfreie_Stadt"},"federalState":{"key":"09","name":"Bayern"}},{"name":"Gabelweg","postalCode":"88433","locality":"Schemmerhofen","municipality":{"key":"08426134","name":"Schemmerhofen","type":"Kreisangehörige_Gemeinde"},"district":{"key":"08426","name":"Biberach","type":"Landkreis"},"federalState":{"key":"08","name":"Baden-Württemberg"}},{"name":"Gabis","postalCode":"85276","locality":"Pfaffenhofen an der Ilm","municipality":{"key":"09186143","name":"Pfaffenhofen a.d.Ilm, St","type":"Stadt"},"district":{"key":"09186","name":"Pfaffenhofen a.d.Ilm","type":"Landkreis"},"federalState":{"key":"09","name":"Bayern"}},{"name":"Gabisweg","postalCode":"85084","locality":"Reichertshofen","municipality":{"key":"09186147","name":"Reichertshofen, M","type":"Markt"},"district":{"key":"09186","name":"Pfaffenhofen a.d.Ilm","type":"Landkreis"},"federalState":{"key":"09","name":"Bayern"}},{"name":"Gablonzer Weg","postalCode":"95493","locality":"Bischofsgrün","municipality":{"key":"09472121","name":"Bischofsgrün","type":"Kreisangehörige_Gemeinde"},"district":{"key":"09472","name":"Bayreuth","type":"Landkreis"},"federalState":{"key":"09","name":"Bayern"}},{"name":"Gagernbergweg","postalCode":"74189","locality":"Ellhofen","municipality":{"key":"08125024","name":"Ellhofen","type":"Kreisangehörige_Gemeinde"},"district":{"key":"08125","name":"Heilbronn","type":"Landkreis"},"federalState":{"key":"08","name":"Baden-Württemberg"}},{"name":"Gaißhornstr.","postalCode":"87527","locality":"Sonthofen","municipality":{"key":"09780139","name":"Sonthofen, St","type":"Stadt"},"district":{"key":"09780","name":"Oberallgäu","type":"Landkreis"},"federalState":{"key":"09","name":"Bayern"}},{"name":"Galgenbargweg","postalCode":"74924","locality":"Neckarbischofsheim","municipality":{"key":"08226055","name":"Neckarbischofsheim, Stadt","type":"Stadt"},"district":{"key":"08226","name":"Rhein-Neckar-Kreis","type":"Landkreis"},"federalState":{"key":"08","name":"Baden-Württemberg"}},{"name":"Galgenberg","postalCode":"94474","locality":"Vilshofen an der Donau","municipality":{"key":"09275154","name":"Vilshofen an der Donau, St","type":"Stadt"},"district":{"key":"09275","name":"Passau","type":"Landkreis"},"federalState":{"key":"09","name":"Bayern"}},{"name":"Galgenberg Weg","postalCode":"74924","locality":"Neckarbischofsheim","municipality":{"key":"08226055","name":"Neckarbischofsheim, Stadt","type":"Stadt"},"district":{"key":"08226","name":"Rhein-Neckar-Kreis","type":"Landkreis"},"federalState":{"key":"08","name":"Baden-Württemberg"}},{"name":"Gallandring","postalCode":"36119","locality":"Neuhof","municipality":{"key":"06631018","name":"Neuhof","type":"Kreisangehörige_Gemeinde"},"district":{"key":"06631","name":"Fulda","type":"Landkreis"},"federalState":{"key":"06","name":"Hessen"}},{"name":"Gambacher Str.","postalCode":"85084","locality":"Reichertshofen","municipality":{"key":"09186147","name":"Reichertshofen, M","type":"Markt"},"district":{"key":"09186","name":"Pfaffenhofen a.d.Ilm","type":"Landkreis"},"federalState":{"key":"09","name":"Bayern"}},{"name":"Gambrinus","postalCode":"86825","locality":"Bad Wörishofen","municipality":{"key":"09778116","name":"Bad Wörishofen, St","type":"Stadt"},"district":{"key":"09778","name":"Unterallgäu","type":"Landkreis"},"federalState":{"key":"09","name":"Bayern"}},{"name":"Gammersfelder Weg","postalCode":"86643","locality":"Rennertshofen","municipality":{"key":"09185153","name":"Rennertshofen, M","type":"Markt"},"district":{"key":"09185","name":"Neuburg-Schrobenhausen","type":"Landkreis"},"federalState":{"key":"09","name":"Bayern"}},{"name":"Gangelweiher","postalCode":"95679","locality":"Waldershof","municipality":{"key":"09377157","name":"Waldershof, St","type":"Stadt"},"district":{"key":"09377","name":"Tirschenreuth","type":"Landkreis"},"federalState":{"key":"09","name":"Bayern"}},{"name":"Ganghoferstr.","postalCode":"85084","locality":"Reichertshofen","municipality":{"key":"09186147","name":"Reichertshofen, M","type":"Markt"},"district":{"key":"09186","name":"Pfaffenhofen a.d.Ilm","type":"Landkreis"},"federalState":{"key":"09","name":"Bayern"}},{"name":"Ganghoferstr.","postalCode":"85276","locality":"Pfaffenhofen an der Ilm","municipality":{"key":"09186143","name":"Pfaffenhofen a.d.Ilm, St","type":"Stadt"},"district":{"key":"09186","name":"Pfaffenhofen a.d.Ilm","type":"Landkreis"},"federalState":{"key":"09","name":"Bayern"}},{"name":"Ganghoferstr.","postalCode":"86368","locality":"Gersthofen","municipality":{"key":"09772147","name":"Gersthofen, St","type":"Stadt"},"district":{"key":"09772","name":"Augsburg","type":"Landkreis"},"federalState":{"key":"09","name":"Bayern"}},{"name":"Ganghoferstr.","postalCode":"86825","locality":"Bad Wörishofen","municipality":{"key":"09778116","name":"Bad Wörishofen, St","type":"Stadt"},"district":{"key":"09778","name":"Unterallgäu","type":"Landkreis"},"federalState":{"key":"09","name":"Bayern"}},{"name":"Ganghoferstr.","postalCode":"93142","locality":"Maxhütte-Haidhof","municipality":{"key":"09376141","name":"Maxhütte-Haidhof, St","type":"Stadt"},"district":{"key":"09376","name":"Schwandorf","type":"Landkreis"},"federalState":{"key":"09","name":"Bayern"}},{"name":"Ganghoferstr.","postalCode":"94474","locality":"Vilshofen an der Donau","municipality":{"key":"09275154","name":"Vilshofen an der Donau, St","type":"Stadt"},"district":{"key":"09275","name":"Passau","type":"Landkreis"},"federalState":{"key":"09","name":"Bayern"}},{"name":"Ganghoferstr.","postalCode":"94486","locality":"Osterhofen","municipality":{"key":"09271141","name":"Osterhofen, St","type":"Stadt"},"district":{"key":"09271","name":"Deggendorf","type":"Landkreis"},"federalState":{"key":"09","name":"Bayern"}},{"name":"Ganghoferstr.","postalCode":"97922","locality":"Lauda-Königshofen","municipality":{"key":"08128139","name":"Lauda-Königshofen, Stadt","type":"Stadt"},"district":{"key":"08128","name":"Main-Tauber-Kreis","type":"Landkreis"},"federalState":{"key":"08","name":"Baden-Württemberg"}},{"name":"Gangolfshof","postalCode":"36145","locality":"Hofbieber","municipality":{"key":"06631013","name":"Hofbieber","type":"Kreisangehörige_Gemeinde"},"district":{"key":"06631","name":"Fulda","type":"Landkreis"},"federalState":{"key":"06","name":"Hessen"}},{"name":"Gänseberg","postalCode":"88433","locality":"Schemmerhofen","municipality":{"key":"08426134","name":"Schemmerhofen","type":"Kreisangehörige_Gemeinde"},"district":{"key":"08426","name":"Biberach","type":"Landkreis"},"federalState":{"key":"08","name":"Baden-Württemberg"}},{"name":"Gänsgasse","postalCode":"73577","locality":"Ruppertshofen","municipality":{"key":"08136061","name":"Ruppertshofen","type":"Kreisangehörige_Gemeinde"},"district":{"key":"08136","name":"Ostalbkreis","type":"Landkreis"},"federalState":{"key":"08","name":"Baden-Württemberg"}},{"name":"Ganter Campus","postalCode":"97941","locality":"Tauberbischofsheim","municipality":{"key":"08128115","name":"Tauberbischofsheim, Stadt","type":"Stadt"},"district":{"key":"08128","name":"Main-Tauber-Kreis","type":"Landkreis"},"federalState":{"key":"08","name":"Baden-Württemberg"}},{"name":"Garhamer Str.","postalCode":"94544","locality":"Hofkirchen","municipality":{"key":"09275127","name":"Hofkirchen, M","type":"Markt"},"district":{"key":"09275","name":"Passau","type":"Landkreis"},"federalState":{"key":"09","name":"Bayern"}},{"name":"Garibaldstr.","postalCode":"94474","locality":"Vilshofen an der Donau","municipality":{"key":"09275154","name":"Vilshofen an der Donau, St","type":"Stadt"},"district":{"key":"09275","name":"Passau","type":"Landkreis"},"federalState":{"key":"09","name":"Bayern"}},{"name":"Garnisonsgalerie","postalCode":"34369","locality":"Hofgeismar","municipality":{"key":"06633013","name":"Hofgeismar, Stadt","type":"Stadt"},"district":{"key":"06633","name":"Kassel","type":"Landkreis"},"federalState":{"key":"06","name":"Hessen"}},{"name":"Garnisonstr.","postalCode":"34369","locality":"Hofgeismar","municipality":{"key":"06633013","name":"Hofgeismar, Stadt","type":"Stadt"},"district":{"key":"06633","name":"Kassel","type":"Landkreis"},"federalState":{"key":"06","name":"Hessen"}},{"name":"Gartenäckerstr.","postalCode":"86825","locality":"Bad Wörishofen","municipality":{"key":"09778116","name":"Bad Wörishofen, St","type":"Stadt"},"district":{"key":"09778","name":"Unterallgäu","type":"Landkreis"},"federalState":{"key":"09","name":"Bayern"}},{"name":"Gartenfeldstr.","postalCode":"54298","locality":"Orenhofen","municipality":{"key":"07232289","name":"Orenhofen","type":"Kreisangehörige_Gemeinde"},"district":{"key":"07232","name":"Eifelkreis Bitburg-Prüm","type":"Landkreis"},"federalState":{"key":"07","name":"Rheinland-Pfalz"}},{"name":"Gartenfeldstr.","postalCode":"65719","locality":"Hofheim am Taunus","municipality":{"key":"06436007","name":"Hofheim am Taunus, Kreisstadt","type":"Stadt"},"district":{"key":"06436","name":"Main-Taunus-Kreis","type":"Landkreis"},"federalState":{"key":"06","name":"Hessen"}},{"name":"Gartenpfad","postalCode":"97941","locality":"Tauberbischofsheim","municipality":{"key":"08128115","name":"Tauberbischofsheim, Stadt","type":"Stadt"},"district":{"key":"08128","name":"Main-Tauber-Kreis","type":"Landkreis"},"federalState":{"key":"08","name":"Baden-Württemberg"}},{"name":"Gartenstr.","postalCode":"01877","locality":"Bischofswerda","municipality":{"key":"14625040","name":"Bischofswerda, Stadt","type":"Stadt"},"district":{"key":"14625","name":"Bautzen","type":"Landkreis"},"federalState":{"key":"14","name":"Sachsen"}},{"name":"Gartenstr.","postalCode":"04683","locality":"Naunhof","municipality":{"key":"14729300","name":"Naunhof, Stadt","type":"Stadt"},"district":{"key":"14729","name":"Leipzig","type":"Landkreis"},"federalState":{"key":"14","name":"Sachsen"}},{"name":"Gartenstr.","postalCode":"17039","locality":"Blankenhof","municipality":{"key":"13071010","name":"Blankenhof","type":"Kreisangehörige_Gemeinde"},"district":{"key":"13071","name":"Mecklenburgische Seenplatte","type":"Landkreis"},"federalState":{"key":"13","name":"Mecklenburg-Vorpommern"}},{"name":"Gartenstr.","postalCode":"17379","locality":"Ferdinandshof","municipality":{"key":"13075033","name":"Ferdinandshof","type":"Kreisangehörige_Gemeinde"},"district":{"key":"13075","name":"Vorpommern-Greifswald","type":"Landkreis"},"federalState":{"key":"13","name":"Mecklenburg-Vorpommern"}},{"name":"Gartenstr.","postalCode":"17498","locality":"Behrenhoff","municipality":{"key":"13075008","name":"Behrenhoff","type":"Kreisangehörige_Gemeinde"},"district":{"key":"13075","name":"Vorpommern-Greifswald","type":"Landkreis"},"federalState":{"key":"13","name":"Mecklenburg-Vorpommern"}},{"name":"Gartenstr.","postalCode":"33161","locality":"Hövelhof","municipality":{"key":"05774024","name":"Hövelhof, Sennegemeinde","type":"Kreisangehörige_Gemeinde"},"district":{"key":"05774","name":"Paderborn","type":"Kreis"},"federalState":{"key":"05","name":"Nordrhein-Westfalen"}},{"name":"Gartenstr.","postalCode":"35649","locality":"Bischoffen","municipality":{"key":"06532002","name":"Bischoffen","type":"Kreisangehörige_Gemeinde"},"district":{"key":"06532","name":"Lahn-Dill-Kreis","type":"Landkreis"},"federalState":{"key":"06","name":"Hessen"}},{"name":"Gartenstr.","postalCode":"36119","locality":"Neuhof","municipality":{"key":"06631018","name":"Neuhof","type":"Kreisangehörige_Gemeinde"},"district":{"key":"06631","name":"Fulda","type":"Landkreis"},"federalState":{"key":"06","name":"Hessen"}},{"name":"Gartenstr.","postalCode":"36145","locality":"Hofbieber","municipality":{"key":"06631013","name":"Hofbieber","type":"Kreisangehörige_Gemeinde"},"district":{"key":"06631","name":"Fulda","type":"Landkreis"},"federalState":{"key":"06","name":"Hessen"}},{"name":"Gartenstr.","postalCode":"51580","locality":"Reichshof","municipality":{"key":"05374040","name":"Reichshof","type":"Kreisangehörige_Gemeinde"},"district":{"key":"05374","name":"Oberbergischer Kreis","type":"Kreis"},"federalState":{"key":"05","name":"Nordrhein-Westfalen"}},{"name":"Gartenstr.","postalCode":"53520","locality":"Wershofen","municipality":{"key":"07131082","name":"Wershofen","type":"Kreisangehörige_Gemeinde"},"district":{"key":"07131","name":"Ahrweiler","type":"Landkreis"},"federalState":{"key":"07","name":"Rheinland-Pfalz"}},{"name":"Gartenstr.","postalCode":"55296","locality":"Gau-Bischofsheim","municipality":{"key":"07339020","name":"Gau-Bischofsheim","type":"Kreisangehörige_Gemeinde"},"district":{"key":"07339","name":"Mainz-Bingen","type":"Landkreis"},"federalState":{"key":"07","name":"Rheinland-Pfalz"}},{"name":"Hagstr.","postalCode":"95237","locality":"Weißdorf","municipality":{"key":"09475184","name":"Weißdorf","type":"Kreisangehörige_Gemeinde"},"district":{"key":"09475","name":"Hof","type":"Landkreis"},"federalState":{"key":"09","name":"Bayern"}},{"name":"Ifenweg","postalCode":"86825","locality":"Bad Wörishofen","municipality":{"key":"09778116","name":"Bad Wörishofen, St","type":"Stadt"},"district":{"key":"09778","name":"Unterallgäu","type":"Landkreis"},"federalState":{"key":"09","name":"Bayern"}},{"name":"Igelstr.","postalCode":"65719","locality":"Hofheim am Taunus","municipality":{"key":"06436007","name":"Hofheim am Taunus, Kreisstadt","type":"Stadt"},"district":{"key":"06436","name":"Main-Taunus-Kreis","type":"Landkreis"},"federalState":{"key":"06","name":"Hessen"}},{"name":"Igelweg","postalCode":"95028","locality":"Hof","municipality":{"key":"09464000","name":"Hof","type":"Kreisfreie_Stadt"},"district":{"key":"09464","name":"Hof","type":"Kreisfreie_Stadt"},"federalState":{"key":"09","name":"Bayern"}},{"name":"Iggelheimer Str.","postalCode":"67373","locality":"Dudenhofen","municipality":{"key":"07338007","name":"Dudenhofen","type":"Kreisangehörige_Gemeinde"},"district":{"key":"07338","name":"Rhein-Pfalz-Kreis","type":"Landkreis"},"federalState":{"key":"07","name":"Rheinland-Pfalz"}},{"name":"Iggelheimer Str.","postalCode":"67374","locality":"Hanhofen","municipality":{"key":"07338010","name":"Hanhofen","type":"Kreisangehörige_Gemeinde"},"district":{"key":"07338","name":"Rhein-Pfalz-Kreis","type":"Landkreis"},"federalState":{"key":"07","name":"Rheinland-Pfalz"}},{"name":"Illenschwang","postalCode":"91749","locality":"Wittelshofen","municipality":{"key":"09571227","name":"Wittelshofen","type":"Kreisangehörige_Gemeinde"},"district":{"key":"09571","name":"Ansbach","type":"Landkreis"},"federalState":{"key":"09","name":"Bayern"}},{"name":"Illersiedlung","postalCode":"87527","locality":"Sonthofen","municipality":{"key":"09780139","name":"Sonthofen, St","type":"Stadt"},"district":{"key":"09780","name":"Oberallgäu","type":"Landkreis"},"federalState":{"key":"09","name":"Bayern"}},{"name":"Illerstr.","postalCode":"87527","locality":"Sonthofen","municipality":{"key":"09780139","name":"Sonthofen, St","type":"Stadt"},"district":{"key":"09780","name":"Oberallgäu","type":"Landkreis"},"federalState":{"key":"09","name":"Bayern"}},{"name":"Illerswiesen","postalCode":"95493","locality":"Bischofsgrün","municipality":{"key":"09472121","name":"Bischofsgrün","type":"Kreisangehörige_Gemeinde"},"district":{"key":"09472","name":"Bayreuth","type":"Landkreis"},"federalState":{"key":"09","name":"Bayern"}},{"name":"Ilmbogen","postalCode":"85276","locality":"Pfaffenhofen an der Ilm","municipality":{"key":"09186143","name":"Pfaffenhofen a.d.Ilm, St","type":"Stadt"},"district":{"key":"09186","name":"Pfaffenhofen a.d.Ilm","type":"Landkreis"},"federalState":{"key":"09","name":"Bayern"}},{"name":"Ilmgrund","postalCode":"85276","locality":"Pfaffenhofen an der Ilm","municipality":{"key":"09186143","name":"Pfaffenhofen a.d.Ilm, St","type":"Stadt"},"district":{"key":"09186","name":"Pfaffenhofen a.d.Ilm","type":"Landkreis"},"federalState":{"key":"09","name":"Bayern"}},{"name":"Ilmsiedlung","postalCode":"85276","locality":"Pfaffenhofen an der Ilm","municipality":{"key":"09186143","name":"Pfaffenhofen a.d.Ilm, St","type":"Stadt"},"district":{"key":"09186","name":"Pfaffenhofen a.d.Ilm","type":"Landkreis"},"federalState":{"key":"09","name":"Bayern"}},{"name":"Ilmstr.","postalCode":"85276","locality":"Pfaffenhofen an der Ilm","municipality":{"key":"09186143","name":"Pfaffenhofen a.d.Ilm, St","type":"Stadt"},"district":{"key":"09186","name":"Pfaffenhofen a.d.Ilm","type":"Landkreis"},"federalState":{"key":"09","name":"Bayern"}},{"name":"Ilshofener Str.","postalCode":"74532","locality":"Ilshofen","municipality":{"key":"08127043","name":"Ilshofen, Stadt","type":"Stadt"},"district":{"key":"08127","name":"Schwäbisch Hall","type":"Landkreis"},"federalState":{"key":"08","name":"Baden-Württemberg"}},{"name":"Ilshofer Höhenweg","postalCode":"74532","locality":"Ilshofen","municipality":{"key":"08127043","name":"Ilshofen, Stadt","type":"Stadt"},"district":{"key":"08127","name":"Schwäbisch Hall","type":"Landkreis"},"federalState":{"key":"08","name":"Baden-Württemberg"}},{"name":"Iltisweg","postalCode":"65719","locality":"Hofheim am Taunus","municipality":{"key":"06436007","name":"Hofheim am Taunus, Kreisstadt","type":"Stadt"},"district":{"key":"06436","name":"Main-Taunus-Kreis","type":"Landkreis"},"federalState":{"key":"06","name":"Hessen"}},{"name":"Im Acker","postalCode":"54298","locality":"Orenhofen","municipality":{"key":"07232289","name":"Orenhofen","type":"Kreisangehörige_Gemeinde"},"district":{"key":"07232","name":"Eifelkreis Bitburg-Prüm","type":"Landkreis"},"federalState":{"key":"07","name":"Rheinland-Pfalz"}},{"name":"Im Alten Bach","postalCode":"78343","locality":"Gaienhofen","municipality":{"key":"08335025","name":"Gaienhofen","type":"Kreisangehörige_Gemeinde"},"district":{"key":"08335","name":"Konstanz","type":"Landkreis"},"federalState":{"key":"08","name":"Baden-Württemberg"}},{"name":"Im Alten Garten","postalCode":"51580","locality":"Reichshof","municipality":{"key":"05374040","name":"Reichshof","type":"Kreisangehörige_Gemeinde"},"district":{"key":"05374","name":"Oberbergischer Kreis","type":"Kreis"},"federalState":{"key":"05","name":"Nordrhein-Westfalen"}},{"name":"Im Alten Hof","postalCode":"51580","locality":"Reichshof","municipality":{"key":"05374040","name":"Reichshof","type":"Kreisangehörige_Gemeinde"},"district":{"key":"05374","name":"Oberbergischer Kreis","type":"Kreis"},"federalState":{"key":"05","name":"Nordrhein-Westfalen"}},{"name":"Im alten See","postalCode":"97922","locality":"Lauda-Königshofen","municipality":{"key":"08128139","name":"Lauda-Königshofen, Stadt","type":"Stadt"},"district":{"key":"08128","name":"Main-Tauber-Kreis","type":"Landkreis"},"federalState":{"key":"08","name":"Baden-Württemberg"}},{"name":"Im Angel","postalCode":"65719","locality":"Hofheim am Taunus","municipality":{"key":"06436007","name":"Hofheim am Taunus, Kreisstadt","type":"Stadt"},"district":{"key":"06436","name":"Main-Taunus-Kreis","type":"Landkreis"},"federalState":{"key":"06","name":"Hessen"}},{"name":"Im Anger","postalCode":"87640","locality":"Biessenhofen","municipality":{"key":"09777112","name":"Biessenhofen","type":"Kreisangehörige_Gemeinde"},"district":{"key":"09777","name":"Ostallgäu","type":"Landkreis"},"federalState":{"key":"09","name":"Bayern"}},{"name":"Im Apfelgarten","postalCode":"65474","locality":"Bischofsheim","municipality":{"key":"06433002","name":"Bischofsheim","type":"Kreisangehörige_Gemeinde"},"district":{"key":"06433","name":"Groß-Gerau","type":"Landkreis"},"federalState":{"key":"06","name":"Hessen"}},{"name":"Im Armenkamp","postalCode":"51580","locality":"Reichshof","municipality":{"key":"05374040","name":"Reichshof","type":"Kreisangehörige_Gemeinde"},"district":{"key":"05374","name":"Oberbergischer Kreis","type":"Kreis"},"federalState":{"key":"05","name":"Nordrhein-Westfalen"}},{"name":"Im Asbachpark","postalCode":"51580","locality":"Reichshof","municipality":{"key":"05374040","name":"Reichshof","type":"Kreisangehörige_Gemeinde"},"district":{"key":"05374","name":"Oberbergischer Kreis","type":"Kreis"},"federalState":{"key":"05","name":"Nordrhein-Westfalen"}},{"name":"Im Attich","postalCode":"65474","locality":"Bischofsheim","municipality":{"key":"06433002","name":"Bischofsheim","type":"Kreisangehörige_Gemeinde"},"district":{"key":"06433","name":"Groß-Gerau","type":"Landkreis"},"federalState":{"key":"06","name":"Hessen"}},{"name":"Im Auchtert","postalCode":"73110","locality":"Hattenhofen","municipality":{"key":"08117029","name":"Hattenhofen","type":"Kreisangehörige_Gemeinde"},"district":{"key":"08117","name":"Göppingen","type":"Landkreis"},"federalState":{"key":"08","name":"Baden-Württemberg"}},{"name":"Im Bänkle","postalCode":"78343","locality":"Gaienhofen","municipality":{"key":"08335025","name":"Gaienhofen","type":"Kreisangehörige_Gemeinde"},"district":{"key":"08335","name":"Konstanz","type":"Landkreis"},"federalState":{"key":"08","name":"Baden-Württemberg"}},{"name":"Im Baumgarten","postalCode":"78343","locality":"Gaienhofen","municipality":{"key":"08335025","name":"Gaienhofen","type":"Kreisangehörige_Gemeinde"},"district":{"key":"08335","name":"Konstanz","type":"Landkreis"},"federalState":{"key":"08","name":"Baden-Württemberg"}},{"name":"Im Bäumlesfeld","postalCode":"74532","locality":"Ilshofen","municipality":{"key":"08127043","name":"Ilshofen, Stadt","type":"Stadt"},"district":{"key":"08127","name":"Schwäbisch Hall","type":"Landkreis"},"federalState":{"key":"08","name":"Baden-Württemberg"}},{"name":"Imberger Str.","postalCode":"87527","locality":"Sonthofen","municipality":{"key":"09780139","name":"Sonthofen, St","type":"Stadt"},"district":{"key":"09780","name":"Oberallgäu","type":"Landkreis"},"federalState":{"key":"09","name":"Bayern"}},{"name":"Imbergstr.","postalCode":"86825","locality":"Bad Wörishofen","municipality":{"key":"09778116","name":"Bad Wörishofen, St","type":"Stadt"},"district":{"key":"09778","name":"Unterallgäu","type":"Landkreis"},"federalState":{"key":"09","name":"Bayern"}},{"name":"Im Bienengarten","postalCode":"76889","locality":"Pleisweiler-Oberhofen","municipality":{"key":"07337062","name":"Pleisweiler-Oberhofen","type":"Kreisangehörige_Gemeinde"},"district":{"key":"07337","name":"Südliche Weinstraße","type":"Landkreis"},"federalState":{"key":"07","name":"Rheinland-Pfalz"}},{"name":"Im Biental","postalCode":"36119","locality":"Neuhof","municipality":{"key":"06631018","name":"Neuhof","type":"Kreisangehörige_Gemeinde"},"district":{"key":"06631","name":"Fulda","type":"Landkreis"},"federalState":{"key":"06","name":"Hessen"}},{"name":"Im Birkenfeld","postalCode":"65719","locality":"Hofheim am Taunus","municipality":{"key":"06436007","name":"Hofheim am Taunus, Kreisstadt","type":"Stadt"},"district":{"key":"06436","name":"Main-Taunus-Kreis","type":"Landkreis"},"federalState":{"key":"06","name":"Hessen"}},{"name":"Im Boden","postalCode":"56242","locality":"Nordhofen","municipality":{"key":"07143056","name":"Nordhofen","type":"Kreisangehörige_Gemeinde"},"district":{"key":"07143","name":"Westerwaldkreis","type":"Landkreis"},"federalState":{"key":"07","name":"Rheinland-Pfalz"}},{"name":"Im Boden","postalCode":"99887","locality":"Herrenhof","municipality":{"key":"16067036","name":"Herrenhof","type":"Kreisangehörige_Gemeinde"},"district":{"key":"16067","name":"Gotha","type":"Landkreis"},"federalState":{"key":"16","name":"Thüringen"}},{"name":"Im Bohnenkamp","postalCode":"51580","locality":"Reichshof","municipality":{"key":"05374040","name":"Reichshof","type":"Kreisangehörige_Gemeinde"},"district":{"key":"05374","name":"Oberbergischer Kreis","type":"Kreis"},"federalState":{"key":"05","name":"Nordrhein-Westfalen"}},{"name":"Im Bohnenstock","postalCode":"88433","locality":"Schemmerhofen","municipality":{"key":"08426134","name":"Schemmerhofen","type":"Kreisangehörige_Gemeinde"},"district":{"key":"08426","name":"Biberach","type":"Landkreis"},"federalState":{"key":"08","name":"Baden-Württemberg"}},{"name":"Im Brand","postalCode":"65719","locality":"Hofheim am Taunus","municipality":{"key":"06436007","name":"Hofheim am Taunus, Kreisstadt","type":"Stadt"},"district":{"key":"06436","name":"Main-Taunus-Kreis","type":"Landkreis"},"federalState":{"key":"06","name":"Hessen"}},{"name":"Im Bruch","postalCode":"33161","locality":"Hövelhof","municipality":{"key":"05774024","name":"Hövelhof, Sennegemeinde","type":"Kreisangehörige_Gemeinde"},"district":{"key":"05774","name":"Paderborn","type":"Kreis"},"federalState":{"key":"05","name":"Nordrhein-Westfalen"}},{"name":"Im Bruch","postalCode":"51580","locality":"Reichshof","municipality":{"key":"05374040","name":"Reichshof","type":"Kreisangehörige_Gemeinde"},"district":{"key":"05374","name":"Oberbergischer Kreis","type":"Kreis"},"federalState":{"key":"05","name":"Nordrhein-Westfalen"}},{"name":"Im Brücher Garten","postalCode":"51580","locality":"Reichshof","municipality":{"key":"05374040","name":"Reichshof","type":"Kreisangehörige_Gemeinde"},"district":{"key":"05374","name":"Oberbergischer Kreis","type":"Kreis"},"federalState":{"key":"05","name":"Nordrhein-Westfalen"}},{"name":"Im Bruchkamp","postalCode":"51580","locality":"Reichshof","municipality":{"key":"05374040","name":"Reichshof","type":"Kreisangehörige_Gemeinde"},"district":{"key":"05374","name":"Oberbergischer Kreis","type":"Kreis"},"federalState":{"key":"05","name":"Nordrhein-Westfalen"}},{"name":"Im Brühl","postalCode":"66903","locality":"Frohnhofen","municipality":{"key":"07336027","name":"Frohnhofen","type":"Kreisangehörige_Gemeinde"},"district":{"key":"07336","name":"Kusel","type":"Landkreis"},"federalState":{"key":"07","name":"Rheinland-Pfalz"}},{"name":"Im Brühl","postalCode":"89284","locality":"Pfaffenhofen an der Roth","municipality":{"key":"09775143","name":"Pfaffenhofen a.d.Roth, M","type":"Markt"},"district":{"key":"09775","name":"Neu-Ulm","type":"Landkreis"},"federalState":{"key":"09","name":"Bayern"}},{"name":"Im Brühl","postalCode":"91741","locality":"Theilenhofen","municipality":{"key":"09577172","name":"Theilenhofen","type":"Kreisangehörige_Gemeinde"},"district":{"key":"09577","name":"Weißenburg-Gunzenhausen","type":"Landkreis"},"federalState":{"key":"09","name":"Bayern"}},{"name":"Im Bündtle","postalCode":"78343","locality":"Gaienhofen","municipality":{"key":"08335025","name":"Gaienhofen","type":"Kreisangehörige_Gemeinde"},"district":{"key":"08335","name":"Konstanz","type":"Landkreis"},"federalState":{"key":"08","name":"Baden-Württemberg"}},{"name":"Im Burgfried","postalCode":"67374","locality":"Hanhofen","municipality":{"key":"07338010","name":"Hanhofen","type":"Kreisangehörige_Gemeinde"},"district":{"key":"07338","name":"Rhein-Pfalz-Kreis","type":"Landkreis"},"federalState":{"key":"07","name":"Rheinland-Pfalz"}},{"name":"Johann-Schricker-Weg","postalCode":"95237","locality":"Weißdorf","municipality":{"key":"09475184","name":"Weißdorf","type":"Kreisangehörige_Gemeinde"},"district":{"key":"09475","name":"Hof","type":"Landkreis"},"federalState":{"key":"09","name":"Bayern"}},{"name":"Karl-Reichel-Str.","postalCode":"95237","locality":"Weißdorf","municipality":{"key":"09475184","name":"Weißdorf","type":"Kreisangehörige_Gemeinde"},"district":{"key":"09475","name":"Hof","type":"Landkreis"},"federalState":{"key":"09","name":"Bayern"}},{"name":"Kirchbergweg","postalCode":"95237","locality":"Weißdorf","municipality":{"key":"09475184","name":"Weißdorf","type":"Kreisangehörige_Gemeinde"},"district":{"key":"09475","name":"Hof","type":"Landkreis"},"federalState":{"key":"09","name":"Bayern"}},{"name":"Kirchenlamitzer Str.","postalCode":"95237","locality":"Weißdorf","municipality":{"key":"09475184","name":"Weißdorf","type":"Kreisangehörige_Gemeinde"},"district":{"key":"09475","name":"Hof","type":"Landkreis"},"federalState":{"key":"09","name":"Bayern"}},{"name":"Kornbergstr.","postalCode":"95237","locality":"Weißdorf","municipality":{"key":"09475184","name":"Weißdorf","type":"Kreisangehörige_Gemeinde"},"district":{"key":"09475","name":"Hof","type":"Landkreis"},"federalState":{"key":"09","name":"Bayern"}},{"name":"Kösseinestr.","postalCode":"95237","locality":"Weißdorf","municipality":{"key":"09475184","name":"Weißdorf","type":"Kreisangehörige_Gemeinde"},"district":{"key":"09475","name":"Hof","type":"Landkreis"},"federalState":{"key":"09","name":"Bayern"}},{"name":"Krummer Weg","postalCode":"95237","locality":"Weißdorf","municipality":{"key":"09475184","name":"Weißdorf","type":"Kreisangehörige_Gemeinde"},"district":{"key":"09475","name":"Hof","type":"Landkreis"},"federalState":{"key":"09","name":"Bayern"}},{"name":"Lamitzlohweg","postalCode":"95237","locality":"Weißdorf","municipality":{"key":"09475184","name":"Weißdorf","type":"Kreisangehörige_Gemeinde"},"district":{"key":"09475","name":"Hof","type":"Landkreis"},"federalState":{"key":"09","name":"Bayern"}},{"name":"Lilienstr.","postalCode":"95237","locality":"Weißdorf","municipality":{"key":"09475184","name":"Weißdorf","type":"Kreisangehörige_Gemeinde"},"district":{"key":"09475","name":"Hof","type":"Landkreis"},"federalState":{"key":"09","name":"Bayern"}},{"name":"Luisenburgstr.","postalCode":"95237","locality":"Weißdorf","municipality":{"key":"09475184","name":"Weißdorf","type":"Kreisangehörige_Gemeinde"},"district":{"key":"09475","name":"Hof","type":"Landkreis"},"federalState":{"key":"09","name":"Bayern"}},{"name":"Mühlbachleite","postalCode":"95237","locality":"Weißdorf","municipality":{"key":"09475184","name":"Weißdorf","type":"Kreisangehörige_Gemeinde"},"district":{"key":"09475","name":"Hof","type":"Landkreis"},"federalState":{"key":"09","name":"Bayern"}},{"name":"Münchberger Str.","postalCode":"95237","locality":"Weißdorf","municipality":{"key":"09475184","name":"Weißdorf","type":"Kreisangehörige_Gemeinde"},"district":{"key":"09475","name":"Hof","type":"Landkreis"},"federalState":{"key":"09","name":"Bayern"}},{"name":"Naabstr.","postalCode":"93188","locality":"Pielenhofen","municipality":{"key":"09375184","name":"Pielenhofen","type":"Kreisangehörige_Gemeinde"},"district":{"key":"09375","name":"Regensburg","type":"Landkreis"},"federalState":{"key":"09","name":"Bayern"}},{"name":"Nabburger Str.","postalCode":"92447","locality":"Schwarzhofen","municipality":{"key":"09376164","name":"Schwarzhofen, M","type":"Markt"},"district":{"key":"09376","name":"Schwandorf","type":"Landkreis"},"federalState":{"key":"09","name":"Bayern"}},{"name":"Nachtigallenweg","postalCode":"33161","locality":"Hövelhof","municipality":{"key":"05774024","name":"Hövelhof, Sennegemeinde","type":"Kreisangehörige_Gemeinde"},"district":{"key":"05774","name":"Paderborn","type":"Kreis"},"federalState":{"key":"05","name":"Nordrhein-Westfalen"}},{"name":"Nachtigallenweg","postalCode":"65719","locality":"Hofheim am Taunus","municipality":{"key":"06436007","name":"Hofheim am Taunus, Kreisstadt","type":"Stadt"},"district":{"key":"06436","name":"Main-Taunus-Kreis","type":"Landkreis"},"federalState":{"key":"06","name":"Hessen"}},{"name":"Nachtigallenweg","postalCode":"74532","locality":"Ilshofen","municipality":{"key":"08127043","name":"Ilshofen, Stadt","type":"Stadt"},"district":{"key":"08127","name":"Schwäbisch Hall","type":"Landkreis"},"federalState":{"key":"08","name":"Baden-Württemberg"}},{"name":"Nachtweidweg","postalCode":"79802","locality":"Dettighofen","municipality":{"key":"08337030","name":"Dettighofen","type":"Kreisangehörige_Gemeinde"},"district":{"key":"08337","name":"Waldshut","type":"Landkreis"},"federalState":{"key":"08","name":"Baden-Württemberg"}},{"name":"Nagelschmiedgasse","postalCode":"86643","locality":"Rennertshofen","municipality":{"key":"09185153","name":"Rennertshofen, M","type":"Markt"},"district":{"key":"09185","name":"Neuburg-Schrobenhausen","type":"Landkreis"},"federalState":{"key":"09","name":"Bayern"}},{"name":"Nagelstr.","postalCode":"85276","locality":"Pfaffenhofen an der Ilm","municipality":{"key":"09186143","name":"Pfaffenhofen a.d.Ilm, St","type":"Stadt"},"district":{"key":"09186","name":"Pfaffenhofen a.d.Ilm","type":"Landkreis"},"federalState":{"key":"09","name":"Bayern"}},{"name":"Nahestr.","postalCode":"67117","locality":"Limburgerhof","municipality":{"key":"07338017","name":"Limburgerhof","type":"Kreisangehörige_Gemeinde"},"district":{"key":"07338","name":"Rhein-Pfalz-Kreis","type":"Landkreis"},"federalState":{"key":"07","name":"Rheinland-Pfalz"}},{"name":"Nahestr.","postalCode":"67141","locality":"Neuhofen","municipality":{"key":"07338020","name":"Neuhofen","type":"Kreisangehörige_Gemeinde"},"district":{"key":"07338","name":"Rhein-Pfalz-Kreis","type":"Landkreis"},"federalState":{"key":"07","name":"Rheinland-Pfalz"}},{"name":"Nahestr.","postalCode":"67574","locality":"Osthofen","municipality":{"key":"07331055","name":"Osthofen, Stadt","type":"Stadt"},"district":{"key":"07331","name":"Alzey-Worms","type":"Landkreis"},"federalState":{"key":"07","name":"Rheinland-Pfalz"}},{"name":"Nailaer Str.","postalCode":"95030","locality":"Hof","municipality":{"key":"09464000","name":"Hof","type":"Kreisfreie_Stadt"},"district":{"key":"09464","name":"Hof","type":"Kreisfreie_Stadt"},"federalState":{"key":"09","name":"Bayern"}},{"name":"Narzissenweg","postalCode":"86368","locality":"Gersthofen","municipality":{"key":"09772147","name":"Gersthofen, St","type":"Stadt"},"district":{"key":"09772","name":"Augsburg","type":"Landkreis"},"federalState":{"key":"09","name":"Bayern"}},{"name":"Nassenhausener Str.","postalCode":"82276","locality":"Adelshofen","municipality":{"key":"09179111","name":"Adelshofen","type":"Kreisangehörige_Gemeinde"},"district":{"key":"09179","name":"Fürstenfeldbruck","type":"Landkreis"},"federalState":{"key":"09","name":"Bayern"}},{"name":"Nastätter Str.","postalCode":"56355","locality":"Endlichhofen","municipality":{"key":"07141037","name":"Endlichhofen","type":"Kreisangehörige_Gemeinde"},"district":{"key":"07141","name":"Rhein-Lahn-Kreis","type":"Landkreis"},"federalState":{"key":"07","name":"Rheinland-Pfalz"}},{"name":"Natur-Kurpark","postalCode":"95493","locality":"Bischofsgrün","municipality":{"key":"09472121","name":"Bischofsgrün","type":"Kreisangehörige_Gemeinde"},"district":{"key":"09472","name":"Bayreuth","type":"Landkreis"},"federalState":{"key":"09","name":"Bayern"}},{"name":"Nauendorfer Str.","postalCode":"99887","locality":"Herrenhof","municipality":{"key":"16067036","name":"Herrenhof","type":"Kreisangehörige_Gemeinde"},"district":{"key":"16067","name":"Gotha","type":"Landkreis"},"federalState":{"key":"16","name":"Thüringen"}},{"name":"Naunhofer Str.","postalCode":"04683","locality":"Naunhof","municipality":{"key":"14729300","name":"Naunhof, Stadt","type":"Stadt"},"district":{"key":"14729","name":"Leipzig","type":"Landkreis"},"federalState":{"key":"14","name":"Sachsen"}},{"name":"Nausitzer Gasse","postalCode":"06571","locality":"Gehofen","municipality":{"key":"16065019","name":"Gehofen","type":"Kreisangehörige_Gemeinde"},"district":{"key":"16065","name":"Kyffhäuserkreis","type":"Landkreis"},"federalState":{"key":"16","name":"Thüringen"}},{"name":"Nazgasse","postalCode":"95679","locality":"Waldershof","municipality":{"key":"09377157","name":"Waldershof, St","type":"Stadt"},"district":{"key":"09377","name":"Tirschenreuth","type":"Landkreis"},"federalState":{"key":"09","name":"Bayern"}},{"name":"Nebelhornstr.","postalCode":"86825","locality":"Bad Wörishofen","municipality":{"key":"09778116","name":"Bad Wörishofen, St","type":"Stadt"},"district":{"key":"09778","name":"Unterallgäu","type":"Landkreis"},"federalState":{"key":"09","name":"Bayern"}},{"name":"Nebelhornstr.","postalCode":"87448","locality":"Waltenhofen","municipality":{"key":"09780143","name":"Waltenhofen","type":"Kreisangehörige_Gemeinde"},"district":{"key":"09780","name":"Oberallgäu","type":"Landkreis"},"federalState":{"key":"09","name":"Bayern"}},{"name":"Nebelhornstr.","postalCode":"87640","locality":"Biessenhofen","municipality":{"key":"09777112","name":"Biessenhofen","type":"Kreisangehörige_Gemeinde"},"district":{"key":"09777","name":"Ostallgäu","type":"Landkreis"},"federalState":{"key":"09","name":"Bayern"}},{"name":"Nebelseifener Str.","postalCode":"51580","locality":"Reichshof","municipality":{"key":"05374040","name":"Reichshof","type":"Kreisangehörige_Gemeinde"},"district":{"key":"05374","name":"Oberbergischer Kreis","type":"Kreis"},"federalState":{"key":"05","name":"Nordrhein-Westfalen"}},{"name":"Neben dem Mühlweg","postalCode":"65474","locality":"Bischofsheim","municipality":{"key":"06433002","name":"Bischofsheim","type":"Kreisangehörige_Gemeinde"},"district":{"key":"06433","name":"Groß-Gerau","type":"Landkreis"},"federalState":{"key":"06","name":"Hessen"}},{"name":"Nebengasse","postalCode":"65719","locality":"Hofheim am Taunus","municipality":{"key":"06436007","name":"Hofheim am Taunus, Kreisstadt","type":"Stadt"},"district":{"key":"06436","name":"Main-Taunus-Kreis","type":"Landkreis"},"federalState":{"key":"06","name":"Hessen"}},{"name":"Nebengassenweg","postalCode":"97922","locality":"Lauda-Königshofen","municipality":{"key":"08128139","name":"Lauda-Königshofen, Stadt","type":"Stadt"},"district":{"key":"08128","name":"Main-Tauber-Kreis","type":"Landkreis"},"federalState":{"key":"08","name":"Baden-Württemberg"}},{"name":"Neckarstr.","postalCode":"67117","locality":"Limburgerhof","municipality":{"key":"07338017","name":"Limburgerhof","type":"Kreisangehörige_Gemeinde"},"district":{"key":"07338","name":"Rhein-Pfalz-Kreis","type":"Landkreis"},"federalState":{"key":"07","name":"Rheinland-Pfalz"}},{"name":"Neckarstr.","postalCode":"67141","locality":"Neuhofen","municipality":{"key":"07338020","name":"Neuhofen","type":"Kreisangehörige_Gemeinde"},"district":{"key":"07338","name":"Rhein-Pfalz-Kreis","type":"Landkreis"},"federalState":{"key":"07","name":"Rheinland-Pfalz"}},{"name":"Neckarstr.","postalCode":"67574","locality":"Osthofen","municipality":{"key":"07331055","name":"Osthofen, Stadt","type":"Stadt"},"district":{"key":"07331","name":"Alzey-Worms","type":"Landkreis"},"federalState":{"key":"07","name":"Rheinland-Pfalz"}},{"name":"Nehren","postalCode":"25746","locality":"Lohe-Rickelshof","municipality":{"key":"01051069","name":"Lohe-Rickelshof","type":"Kreisangehörige_Gemeinde"},"district":{"key":"01051","name":"Dithmarschen","type":"Kreis"},"federalState":{"key":"01","name":"Schleswig-Holstein"}},{"name":"Neidhansenweg","postalCode":"97922","locality":"Lauda-Königshofen","municipality":{"key":"08128139","name":"Lauda-Königshofen, Stadt","type":"Stadt"},"district":{"key":"08128","name":"Main-Tauber-Kreis","type":"Landkreis"},"federalState":{"key":"08","name":"Baden-Württemberg"}},{"name":"Neißestr.","postalCode":"67574","locality":"Osthofen","municipality":{"key":"07331055","name":"Osthofen, Stadt","type":"Stadt"},"district":{"key":"07331","name":"Alzey-Worms","type":"Landkreis"},"federalState":{"key":"07","name":"Rheinland-Pfalz"}},{"name":"Nelkenstr.","postalCode":"36119","locality":"Neuhof","municipality":{"key":"06631018","name":"Neuhof","type":"Kreisangehörige_Gemeinde"},"district":{"key":"06631","name":"Fulda","type":"Landkreis"},"federalState":{"key":"06","name":"Hessen"}},{"name":"Nelkenstr.","postalCode":"74248","locality":"Ellhofen","municipality":{"key":"08125024","name":"Ellhofen","type":"Kreisangehörige_Gemeinde"},"district":{"key":"08125","name":"Heilbronn","type":"Landkreis"},"federalState":{"key":"08","name":"Baden-Württemberg"}},{"name":"Nelkenstr.","postalCode":"82281","locality":"Egenhofen","municipality":{"key":"09179117","name":"Egenhofen","type":"Kreisangehörige_Gemeinde"},"district":{"key":"09179","name":"Fürstenfeldbruck","type":"Landkreis"},"federalState":{"key":"09","name":"Bayern"}},{"name":"Nelkenstr.","postalCode":"86368","locality":"Gersthofen","municipality":{"key":"09772147","name":"Gersthofen, St","type":"Stadt"},"district":{"key":"09772","name":"Augsburg","type":"Landkreis"},"federalState":{"key":"09","name":"Bayern"}},{"name":"Nelkenstr.","postalCode":"88433","locality":"Schemmerhofen","municipality":{"key":"08426134","name":"Schemmerhofen","type":"Kreisangehörige_Gemeinde"},"district":{"key":"08426","name":"Biberach","type":"Landkreis"},"federalState":{"key":"08","name":"Baden-Württemberg"}},{"name":"Nelkenstr.","postalCode":"94486","locality":"Osterhofen","municipality":{"key":"09271141","name":"Osterhofen, St","type":"Stadt"},"district":{"key":"09271","name":"Deggendorf","type":"Landkreis"},"federalState":{"key":"09","name":"Bayern"}},{"name":"Nelkenstr.","postalCode":"95679","locality":"Waldershof","municipality":{"key":"09377157","name":"Waldershof, St","type":"Stadt"},"district":{"key":"09377","name":"Tirschenreuth","type":"Landkreis"},"federalState":{"key":"09","name":"Bayern"}},{"name":"Nelkenstr.","postalCode":"97922","locality":"Lauda-Königshofen","municipality":{"key":"08128139","name":"Lauda-Königshofen, Stadt","type":"Stadt"},"district":{"key":"08128","name":"Main-Tauber-Kreis","type":"Landkreis"},"federalState":{"key":"08","name":"Baden-Württemberg"}},{"name":"Nelkenweg","postalCode":"51580","locality":"Reichshof","municipality":{"key":"05374040","name":"Reichshof","type":"Kreisangehörige_Gemeinde"},"district":{"key":"05374","name":"Oberbergischer Kreis","type":"Kreis"},"federalState":{"key":"05","name":"Nordrhein-Westfalen"}},{"name":"Nelkenweg","postalCode":"65719","locality":"Hofheim am Taunus","municipality":{"key":"06436007","name":"Hofheim am Taunus, Kreisstadt","type":"Stadt"},"district":{"key":"06436","name":"Main-Taunus-Kreis","type":"Landkreis"},"federalState":{"key":"06","name":"Hessen"}},{"name":"Nelkenweg","postalCode":"85122","locality":"Hitzhofen","municipality":{"key":"09176132","name":"Hitzhofen","type":"Kreisangehörige_Gemeinde"},"district":{"key":"09176","name":"Eichstätt","type":"Landkreis"},"federalState":{"key":"09","name":"Bayern"}},{"name":"Nelkenweg","postalCode":"86877","locality":"Walkertshofen","municipality":{"key":"09772214","name":"Walkertshofen","type":"Kreisangehörige_Gemeinde"},"district":{"key":"09772","name":"Augsburg","type":"Landkreis"},"federalState":{"key":"09","name":"Bayern"}},{"name":"Nelkenweg","postalCode":"88690","locality":"Uhldingen-Mühlhofen","municipality":{"key":"08435066","name":"Uhldingen-Mühlhofen","type":"Kreisangehörige_Gemeinde"},"district":{"key":"08435","name":"Bodenseekreis","type":"Landkreis"},"federalState":{"key":"08","name":"Baden-Württemberg"}},{"name":"Nelkenweg","postalCode":"91572","locality":"Bechhofen","municipality":{"key":"09571115","name":"Bechhofen, M","type":"Markt"},"district":{"key":"09571","name":"Ansbach","type":"Landkreis"},"federalState":{"key":"09","name":"Bayern"}},{"name":"Nelkenweg","postalCode":"93142","locality":"Maxhütte-Haidhof","municipality":{"key":"09376141","name":"Maxhütte-Haidhof, St","type":"Stadt"},"district":{"key":"09376","name":"Schwandorf","type":"Landkreis"},"federalState":{"key":"09","name":"Bayern"}},{"name":"Nelkenweg","postalCode":"97653","locality":"Bischofsheim i.d.Rhön","municipality":{"key":"09673117","name":"Bischofsheim i.d.Rhön, St","type":"Stadt"},"district":{"key":"09673","name":"Rhön-Grabfeld","type":"Landkreis"},"federalState":{"key":"09","name":"Bayern"}},{"name":"Nelkenweg","postalCode":"97941","locality":"Tauberbischofsheim","municipality":{"key":"08128115","name":"Tauberbischofsheim, Stadt","type":"Stadt"},"district":{"key":"08128","name":"Main-Tauber-Kreis","type":"Landkreis"},"federalState":{"key":"08","name":"Baden-Württemberg"}},{"name":"Obere Siedlung","postalCode":"95237","locality":"Weißdorf","municipality":{"key":"09475184","name":"Weißdorf","type":"Kreisangehörige_Gemeinde"},"district":{"key":"09475","name":"Hof","type":"Landkreis"},"federalState":{"key":"09","name":"Bayern"}},{"name":"Oppenroth","postalCode":"95237","locality":"Weißdorf","municipality":{"key":"09475184","name":"Weißdorf","type":"Kreisangehörige_Gemeinde"},"district":{"key":"09475","name":"Hof","type":"Landkreis"},"federalState":{"key":"09","name":"Bayern"}},{"name":"Paarstr.","postalCode":"85084","locality":"Reichertshofen","municipality":{"key":"09186147","name":"Reichertshofen, M","type":"Markt"},"district":{"key":"09186","name":"Pfaffenhofen a.d.Ilm","type":"Landkreis"},"federalState":{"key":"09","name":"Bayern"}},{"name":"Paarweg","postalCode":"86579","locality":"Waidhofen","municipality":{"key":"09185166","name":"Waidhofen","type":"Kreisangehörige_Gemeinde"},"district":{"key":"09185","name":"Neuburg-Schrobenhausen","type":"Landkreis"},"federalState":{"key":"09","name":"Bayern"}},{"name":"Pacellistr.","postalCode":"93142","locality":"Maxhütte-Haidhof","municipality":{"key":"09376141","name":"Maxhütte-Haidhof, St","type":"Stadt"},"district":{"key":"09376","name":"Schwandorf","type":"Landkreis"},"federalState":{"key":"09","name":"Bayern"}},{"name":"Pacherstr.","postalCode":"94474","locality":"Vilshofen an der Donau","municipality":{"key":"09275154","name":"Vilshofen an der Donau, St","type":"Stadt"},"district":{"key":"09275","name":"Passau","type":"Landkreis"},"federalState":{"key":"09","name":"Bayern"}},{"name":"Pachmeierstr.","postalCode":"94486","locality":"Osterhofen","municipality":{"key":"09271141","name":"Osterhofen, St","type":"Stadt"},"district":{"key":"09271","name":"Deggendorf","type":"Landkreis"},"federalState":{"key":"09","name":"Bayern"}},{"name":"Packs Buchen","postalCode":"51580","locality":"Reichshof","municipality":{"key":"05374040","name":"Reichshof","type":"Kreisangehörige_Gemeinde"},"district":{"key":"05374","name":"Oberbergischer Kreis","type":"Kreis"},"federalState":{"key":"05","name":"Nordrhein-Westfalen"}},{"name":"Paderborner Str.","postalCode":"33161","locality":"Hövelhof","municipality":{"key":"05774024","name":"Hövelhof, Sennegemeinde","type":"Kreisangehörige_Gemeinde"},"district":{"key":"05774","name":"Paderborn","type":"Kreis"},"federalState":{"key":"05","name":"Nordrhein-Westfalen"}},{"name":"Pallaststr.","postalCode":"86643","locality":"Rennertshofen","municipality":{"key":"09185153","name":"Rennertshofen, M","type":"Markt"},"district":{"key":"09185","name":"Neuburg-Schrobenhausen","type":"Landkreis"},"federalState":{"key":"09","name":"Bayern"}},{"name":"Pandurenweg","postalCode":"95493","locality":"Bischofsgrün","municipality":{"key":"09472121","name":"Bischofsgrün","type":"Kreisangehörige_Gemeinde"},"district":{"key":"09472","name":"Bayreuth","type":"Landkreis"},"federalState":{"key":"09","name":"Bayern"}},{"name":"Panoramastr.","postalCode":"88433","locality":"Schemmerhofen","municipality":{"key":"08426134","name":"Schemmerhofen","type":"Kreisangehörige_Gemeinde"},"district":{"key":"08426","name":"Biberach","type":"Landkreis"},"federalState":{"key":"08","name":"Baden-Württemberg"}},{"name":"Panoramastr.","postalCode":"95493","locality":"Bischofsgrüner Forst","municipality":{"key":"09472451","name":"Bischofsgrüner Forst","type":"Gemeindefreies_Gebiet_Unbewohnt"},"district":{"key":"09472","name":"Bayreuth","type":"Landkreis"},"federalState":{"key":"09","name":"Bayern"}},{"name":"Panoramaweg","postalCode":"35649","locality":"Bischoffen","municipality":{"key":"06532002","name":"Bischoffen","type":"Kreisangehörige_Gemeinde"},"district":{"key":"06532","name":"Lahn-Dill-Kreis","type":"Landkreis"},"federalState":{"key":"06","name":"Hessen"}},{"name":"Panoramaweg","postalCode":"74532","locality":"Ilshofen","municipality":{"key":"08127043","name":"Ilshofen, Stadt","type":"Stadt"},"district":{"key":"08127","name":"Schwäbisch Hall","type":"Landkreis"},"federalState":{"key":"08","name":"Baden-Württemberg"}},{"name":"Panoramaweg","postalCode":"83483","locality":"Bischofswiesen","municipality":{"key":"09172117","name":"Bischofswiesen","type":"Kreisangehörige_Gemeinde"},"district":{"key":"09172","name":"Berchtesgadener Land","type":"Landkreis"},"federalState":{"key":"09","name":"Bayern"}},{"name":"Pantaleonstr.","postalCode":"56341","locality":"Kamp-Bornhofen","municipality":{"key":"07141066","name":"Kamp-Bornhofen","type":"Kreisangehörige_Gemeinde"},"district":{"key":"07141","name":"Rhein-Lahn-Kreis","type":"Landkreis"},"federalState":{"key":"07","name":"Rheinland-Pfalz"}},{"name":"Pantoffelgasse","postalCode":"97653","locality":"Bischofsheim i.d.Rhön","municipality":{"key":"09673117","name":"Bischofsheim i.d.Rhön, St","type":"Stadt"},"district":{"key":"09673","name":"Rhön-Grabfeld","type":"Landkreis"},"federalState":{"key":"09","name":"Bayern"}},{"name":"Panturensteig","postalCode":"95493","locality":"Bischofsgrüner Forst","municipality":{"key":"09472451","name":"Bischofsgrüner Forst","type":"Gemeindefreies_Gebiet_Unbewohnt"},"district":{"key":"09472","name":"Bayreuth","type":"Landkreis"},"federalState":{"key":"09","name":"Bayern"}},{"name":"Papiermühle","postalCode":"34369","locality":"Hofgeismar","municipality":{"key":"06633013","name":"Hofgeismar, Stadt","type":"Stadt"},"district":{"key":"06633","name":"Kassel","type":"Landkreis"},"federalState":{"key":"06","name":"Hessen"}},{"name":"Papiermühlenweg","postalCode":"34369","locality":"Hofgeismar","municipality":{"key":"06633013","name":"Hofgeismar, Stadt","type":"Stadt"},"district":{"key":"06633","name":"Kassel","type":"Landkreis"},"federalState":{"key":"06","name":"Hessen"}},{"name":"Papiermühlenweg","postalCode":"87448","locality":"Waltenhofen","municipality":{"key":"09780143","name":"Waltenhofen","type":"Kreisangehörige_Gemeinde"},"district":{"key":"09780","name":"Oberallgäu","type":"Landkreis"},"federalState":{"key":"09","name":"Bayern"}},{"name":"Pappelallee","postalCode":"04683","locality":"Naunhof","municipality":{"key":"14729300","name":"Naunhof, Stadt","type":"Stadt"},"district":{"key":"14729","name":"Leipzig","type":"Landkreis"},"federalState":{"key":"14","name":"Sachsen"}},{"name":"Pappelweg","postalCode":"18445","locality":"Kramerhof","municipality":{"key":"13073046","name":"Kramerhof","type":"Kreisangehörige_Gemeinde"},"district":{"key":"13073","name":"Vorpommern-Rügen","type":"Landkreis"},"federalState":{"key":"13","name":"Mecklenburg-Vorpommern"}},{"name":"Pappelweg","postalCode":"74532","locality":"Ilshofen","municipality":{"key":"08127043","name":"Ilshofen, Stadt","type":"Stadt"},"district":{"key":"08127","name":"Schwäbisch Hall","type":"Landkreis"},"federalState":{"key":"08","name":"Baden-Württemberg"}},{"name":"Pappelweg","postalCode":"85276","locality":"Pfaffenhofen an der Ilm","municipality":{"key":"09186143","name":"Pfaffenhofen a.d.Ilm, St","type":"Stadt"},"district":{"key":"09186","name":"Pfaffenhofen a.d.Ilm","type":"Landkreis"},"federalState":{"key":"09","name":"Bayern"}},{"name":"Pappelweg","postalCode":"86368","locality":"Gersthofen","municipality":{"key":"09772147","name":"Gersthofen, St","type":"Stadt"},"district":{"key":"09772","name":"Augsburg","type":"Landkreis"},"federalState":{"key":"09","name":"Bayern"}},{"name":"Pappelweg","postalCode":"88433","locality":"Schemmerhofen","municipality":{"key":"08426134","name":"Schemmerhofen","type":"Kreisangehörige_Gemeinde"},"district":{"key":"08426","name":"Biberach","type":"Landkreis"},"federalState":{"key":"08","name":"Baden-Württemberg"}},{"name":"Pappenheimer Str.","postalCode":"91807","locality":"Solnhofen","municipality":{"key":"09577168","name":"Solnhofen","type":"Kreisangehörige_Gemeinde"},"district":{"key":"09577","name":"Weißenburg-Gunzenhausen","type":"Landkreis"},"federalState":{"key":"09","name":"Bayern"}},{"name":"Paracelsusstr.","postalCode":"95032","locality":"Hof","municipality":{"key":"09464000","name":"Hof","type":"Kreisfreie_Stadt"},"district":{"key":"09464","name":"Hof","type":"Kreisfreie_Stadt"},"federalState":{"key":"09","name":"Bayern"}},{"name":"Paradiesbuckweg","postalCode":"79802","locality":"Dettighofen","municipality":{"key":"08337030","name":"Dettighofen","type":"Kreisangehörige_Gemeinde"},"district":{"key":"08337","name":"Waldshut","type":"Landkreis"},"federalState":{"key":"08","name":"Baden-Württemberg"}},{"name":"Paradiesinsel","postalCode":"87640","locality":"Biessenhofen","municipality":{"key":"09777112","name":"Biessenhofen","type":"Kreisangehörige_Gemeinde"},"district":{"key":"09777","name":"Ostallgäu","type":"Landkreis"},"federalState":{"key":"09","name":"Bayern"}},{"name":"Park am Mühlteich","postalCode":"01877","locality":"Bischofswerda","municipality":{"key":"14625040","name":"Bischofswerda, Stadt","type":"Stadt"},"district":{"key":"14625","name":"Bautzen","type":"Landkreis"},"federalState":{"key":"14","name":"Sachsen"}},{"name":"Parkanlage Kirchberg","postalCode":"97461","locality":"Hofheim in Unterfranken","municipality":{"key":"09674149","name":"Hofheim i.UFr., St","type":"Stadt"},"district":{"key":"09674","name":"Haßberge","type":"Landkreis"},"federalState":{"key":"09","name":"Bayern"}},{"name":"Parkblick","postalCode":"97941","locality":"Tauberbischofsheim","municipality":{"key":"08128115","name":"Tauberbischofsheim, Stadt","type":"Stadt"},"district":{"key":"08128","name":"Main-Tauber-Kreis","type":"Landkreis"},"federalState":{"key":"08","name":"Baden-Württemberg"}},{"name":"Parkstr.","postalCode":"17039","locality":"Blankenhof","municipality":{"key":"13071010","name":"Blankenhof","type":"Kreisangehörige_Gemeinde"},"district":{"key":"13071","name":"Mecklenburgische Seenplatte","type":"Landkreis"},"federalState":{"key":"13","name":"Mecklenburg-Vorpommern"}},{"name":"Parkstr.","postalCode":"17209","locality":"Altenhof","municipality":{"key":"13071003","name":"Altenhof","type":"Kreisangehörige_Gemeinde"},"district":{"key":"13071","name":"Mecklenburgische Seenplatte","type":"Landkreis"},"federalState":{"key":"13","name":"Mecklenburg-Vorpommern"}},{"name":"Parkstr.","postalCode":"17498","locality":"Behrenhoff","municipality":{"key":"13075008","name":"Behrenhoff","type":"Kreisangehörige_Gemeinde"},"district":{"key":"13075","name":"Vorpommern-Greifswald","type":"Landkreis"},"federalState":{"key":"13","name":"Mecklenburg-Vorpommern"}},{"name":"Parkstr.","postalCode":"18445","locality":"Kramerhof","municipality":{"key":"13073046","name":"Kramerhof","type":"Kreisangehörige_Gemeinde"},"district":{"key":"13073","name":"Vorpommern-Rügen","type":"Landkreis"},"federalState":{"key":"13","name":"Mecklenburg-Vorpommern"}},{"name":"Parkstr.","postalCode":"34369","locality":"Hofgeismar","municipality":{"key":"06633013","name":"Hofgeismar, Stadt","type":"Stadt"},"district":{"key":"06633","name":"Kassel","type":"Landkreis"},"federalState":{"key":"06","name":"Hessen"}},{"name":"Parkstr.","postalCode":"56459","locality":"Stahlhofen am Wiesensee","municipality":{"key":"07143293","name":"Stahlhofen am Wiesensee","type":"Kreisangehörige_Gemeinde"},"district":{"key":"07143","name":"Westerwaldkreis","type":"Landkreis"},"federalState":{"key":"07","name":"Rheinland-Pfalz"}},{"name":"Parkstr.","postalCode":"65719","locality":"Hofheim am Taunus","municipality":{"key":"06436007","name":"Hofheim am Taunus, Kreisstadt","type":"Stadt"},"district":{"key":"06436","name":"Main-Taunus-Kreis","type":"Landkreis"},"federalState":{"key":"06","name":"Hessen"}},{"name":"Parkstr.","postalCode":"67117","locality":"Limburgerhof","municipality":{"key":"07338017","name":"Limburgerhof","type":"Kreisangehörige_Gemeinde"},"district":{"key":"07338","name":"Rhein-Pfalz-Kreis","type":"Landkreis"},"federalState":{"key":"07","name":"Rheinland-Pfalz"}},{"name":"Parkstr.","postalCode":"74532","locality":"Ilshofen","municipality":{"key":"08127043","name":"Ilshofen, Stadt","type":"Stadt"},"district":{"key":"08127","name":"Schwäbisch Hall","type":"Landkreis"},"federalState":{"key":"08","name":"Baden-Württemberg"}},{"name":"Parkstr.","postalCode":"79802","locality":"Dettighofen","municipality":{"key":"08337030","name":"Dettighofen","type":"Kreisangehörige_Gemeinde"},"district":{"key":"08337","name":"Waldshut","type":"Landkreis"},"federalState":{"key":"08","name":"Baden-Württemberg"}},{"name":"Parkstr.","postalCode":"89284","locality":"Pfaffenhofen an der Roth","municipality":{"key":"09775143","name":"Pfaffenhofen a.d.Roth, M","type":"Markt"},"district":{"key":"09775","name":"Neu-Ulm","type":"Landkreis"},"federalState":{"key":"09","name":"Bayern"}},{"name":"Parkstr.","postalCode":"93142","locality":"Maxhütte-Haidhof","municipality":{"key":"09376141","name":"Maxhütte-Haidhof, St","type":"Stadt"},"district":{"key":"09376","name":"Schwandorf","type":"Landkreis"},"federalState":{"key":"09","name":"Bayern"}},{"name":"Park Verrières","postalCode":"33161","locality":"Hövelhof","municipality":{"key":"05774024","name":"Hövelhof, Sennegemeinde","type":"Kreisangehörige_Gemeinde"},"district":{"key":"05774","name":"Paderborn","type":"Kreis"},"federalState":{"key":"05","name":"Nordrhein-Westfalen"}},{"name":"Parkweg","postalCode":"18445","locality":"Kramerhof","municipality":{"key":"13073046","name":"Kramerhof","type":"Kreisangehörige_Gemeinde"},"district":{"key":"13073","name":"Vorpommern-Rügen","type":"Landkreis"},"federalState":{"key":"13","name":"Mecklenburg-Vorpommern"}},{"name":"Parkweg","postalCode":"19069","locality":"Seehof","municipality":{"key":"13074075","name":"Seehof","type":"Kreisangehörige_Gemeinde"},"district":{"key":"13074","name":"Nordwestmecklenburg","type":"Landkreis"},"federalState":{"key":"13","name":"Mecklenburg-Vorpommern"}},{"name":"Parkweg","postalCode":"33161","locality":"Hövelhof","municipality":{"key":"05774024","name":"Hövelhof, Sennegemeinde","type":"Kreisangehörige_Gemeinde"},"district":{"key":"05774","name":"Paderborn","type":"Kreis"},"federalState":{"key":"05","name":"Nordrhein-Westfalen"}},{"name":"Parkweg","postalCode":"65474","locality":"Bischofsheim","municipality":{"key":"06433002","name":"Bischofsheim","type":"Kreisangehörige_Gemeinde"},"district":{"key":"06433","name":"Groß-Gerau","type":"Landkreis"},"federalState":{"key":"06","name":"Hessen"}},{"name":"Quäkerstr.","postalCode":"65719","locality":"Hofheim am Taunus","municipality":{"key":"06436007","name":"Hofheim am Taunus, Kreisstadt","type":"Stadt"},"district":{"key":"06436","name":"Main-Taunus-Kreis","type":"Landkreis"},"federalState":{"key":"06","name":"Hessen"}},{"name":"Queichstr.","postalCode":"67117","locality":"Limburgerhof","municipality":{"key":"07338017","name":"Limburgerhof","type":"Kreisangehörige_Gemeinde"},"district":{"key":"07338","name":"Rhein-Pfalz-Kreis","type":"Landkreis"},"federalState":{"key":"07","name":"Rheinland-Pfalz"}},{"name":"Quellengasse","postalCode":"85276","locality":"Pfaffenhofen an der Ilm","municipality":{"key":"09186143","name":"Pfaffenhofen a.d.Ilm, St","type":"Stadt"},"district":{"key":"09186","name":"Pfaffenhofen a.d.Ilm","type":"Landkreis"},"federalState":{"key":"09","name":"Bayern"}},{"name":"Quellenhangweg","postalCode":"74924","locality":"Neckarbischofsheim","municipality":{"key":"08226055","name":"Neckarbischofsheim, Stadt","type":"Stadt"},"district":{"key":"08226","name":"Rhein-Neckar-Kreis","type":"Landkreis"},"federalState":{"key":"08","name":"Baden-Württemberg"}},{"name":"Quellenstr.","postalCode":"86368","locality":"Gersthofen","municipality":{"key":"09772147","name":"Gersthofen, St","type":"Stadt"},"district":{"key":"09772","name":"Augsburg","type":"Landkreis"},"federalState":{"key":"09","name":"Bayern"}},{"name":"Quellenweg","postalCode":"51580","locality":"Reichshof","municipality":{"key":"05374040","name":"Reichshof","type":"Kreisangehörige_Gemeinde"},"district":{"key":"05374","name":"Oberbergischer Kreis","type":"Kreis"},"federalState":{"key":"05","name":"Nordrhein-Westfalen"}},{"name":"Quellenweg","postalCode":"65719","locality":"Hofheim am Taunus","municipality":{"key":"06436007","name":"Hofheim am Taunus, Kreisstadt","type":"Stadt"},"district":{"key":"06436","name":"Main-Taunus-Kreis","type":"Landkreis"},"federalState":{"key":"06","name":"Hessen"}},{"name":"Quellenweg","postalCode":"83483","locality":"Bischofswiesen","municipality":{"key":"09172117","name":"Bischofswiesen","type":"Kreisangehörige_Gemeinde"},"district":{"key":"09172","name":"Berchtesgadener Land","type":"Landkreis"},"federalState":{"key":"09","name":"Bayern"}},{"name":"Quellenweg","postalCode":"85570","locality":"Ottenhofen","municipality":{"key":"09177134","name":"Ottenhofen","type":"Kreisangehörige_Gemeinde"},"district":{"key":"09177","name":"Erding","type":"Landkreis"},"federalState":{"key":"09","name":"Bayern"}},{"name":"Quellenweg","postalCode":"86825","locality":"Bad Wörishofen","municipality":{"key":"09778116","name":"Bad Wörishofen, St","type":"Stadt"},"district":{"key":"09778","name":"Unterallgäu","type":"Landkreis"},"federalState":{"key":"09","name":"Bayern"}},{"name":"Quellenweg","postalCode":"94474","locality":"Vilshofen an der Donau","municipality":{"key":"09275154","name":"Vilshofen an der Donau, St","type":"Stadt"},"district":{"key":"09275","name":"Passau","type":"Landkreis"},"federalState":{"key":"09","name":"Bayern"}},{"name":"Quellgrund","postalCode":"33161","locality":"Hövelhof","municipality":{"key":"05774024","name":"Hövelhof, Sennegemeinde","type":"Kreisangehörige_Gemeinde"},"district":{"key":"05774","name":"Paderborn","type":"Kreis"},"federalState":{"key":"05","name":"Nordrhein-Westfalen"}},{"name":"Quellitzweg","postalCode":"95030","locality":"Hof","municipality":{"key":"09464000","name":"Hof","type":"Kreisfreie_Stadt"},"district":{"key":"09464","name":"Hof","type":"Kreisfreie_Stadt"},"federalState":{"key":"09","name":"Bayern"}},{"name":"Querfloßweg","postalCode":"97653","locality":"Bischofsheim i.d.Rhön","municipality":{"key":"09673117","name":"Bischofsheim i.d.Rhön, St","type":"Stadt"},"district":{"key":"09673","name":"Rhön-Grabfeld","type":"Landkreis"},"federalState":{"key":"09","name":"Bayern"}},{"name":"Quergäßchen","postalCode":"86368","locality":"Gersthofen","municipality":{"key":"09772147","name":"Gersthofen, St","type":"Stadt"},"district":{"key":"09772","name":"Augsburg","type":"Landkreis"},"federalState":{"key":"09","name":"Bayern"}},{"name":"Quergasse","postalCode":"74397","locality":"Pfaffenhofen","municipality":{"key":"08125081","name":"Pfaffenhofen","type":"Kreisangehörige_Gemeinde"},"district":{"key":"08125","name":"Heilbronn","type":"Landkreis"},"federalState":{"key":"08","name":"Baden-Württemberg"}},{"name":"Querschoppen","postalCode":"34369","locality":"Hofgeismar","municipality":{"key":"06633013","name":"Hofgeismar, Stadt","type":"Stadt"},"district":{"key":"06633","name":"Kassel","type":"Landkreis"},"federalState":{"key":"06","name":"Hessen"}},{"name":"Querstr.","postalCode":"04683","locality":"Naunhof","municipality":{"key":"14729300","name":"Naunhof, Stadt","type":"Stadt"},"district":{"key":"14729","name":"Leipzig","type":"Landkreis"},"federalState":{"key":"14","name":"Sachsen"}},{"name":"Querstr.","postalCode":"36119","locality":"Neuhof","municipality":{"key":"06631018","name":"Neuhof","type":"Kreisangehörige_Gemeinde"},"district":{"key":"06631","name":"Fulda","type":"Landkreis"},"federalState":{"key":"06","name":"Hessen"}},{"name":"Querstr.","postalCode":"51580","locality":"Reichshof","municipality":{"key":"05374040","name":"Reichshof","type":"Kreisangehörige_Gemeinde"},"district":{"key":"05374","name":"Oberbergischer Kreis","type":"Kreis"},"federalState":{"key":"05","name":"Nordrhein-Westfalen"}},{"name":"Quertrift","postalCode":"34369","locality":"Hofgeismar","municipality":{"key":"06633013","name":"Hofgeismar, Stadt","type":"Stadt"},"district":{"key":"06633","name":"Kassel","type":"Landkreis"},"federalState":{"key":"06","name":"Hessen"}},{"name":"Querweg","postalCode":"33161","locality":"Hövelhof","municipality":{"key":"05774024","name":"Hövelhof, Sennegemeinde","type":"Kreisangehörige_Gemeinde"},"district":{"key":"05774","name":"Paderborn","type":"Kreis"},"federalState":{"key":"05","name":"Nordrhein-Westfalen"}},{"name":"Querweg","postalCode":"51580","locality":"Reichshof","municipality":{"key":"05374040","name":"Reichshof","type":"Kreisangehörige_Gemeinde"},"district":{"key":"05374","name":"Oberbergischer Kreis","type":"Kreis"},"federalState":{"key":"05","name":"Nordrhein-Westfalen"}},{"name":"Querweg","postalCode":"88433","locality":"Schemmerhofen","municipality":{"key":"08426134","name":"Schemmerhofen","type":"Kreisangehörige_Gemeinde"},"district":{"key":"08426","name":"Biberach","type":"Landkreis"},"federalState":{"key":"08","name":"Baden-Württemberg"}},{"name":"Querweg","postalCode":"99887","locality":"Herrenhof","municipality":{"key":"16067036","name":"Herrenhof","type":"Kreisangehörige_Gemeinde"},"district":{"key":"16067","name":"Gotha","type":"Landkreis"},"federalState":{"key":"16","name":"Thüringen"}},{"name":"Quetschen","postalCode":"95030","locality":"Hof","municipality":{"key":"09464000","name":"Hof","type":"Kreisfreie_Stadt"},"district":{"key":"09464","name":"Hof","type":"Kreisfreie_Stadt"},"federalState":{"key":"09","name":"Bayern"}},{"name":"Quetschenweg","postalCode":"95030","locality":"Hof","municipality":{"key":"09464000","name":"Hof","type":"Kreisfreie_Stadt"},"district":{"key":"09464","name":"Hof","type":"Kreisfreie_Stadt"},"federalState":{"key":"09","name":"Bayern"}},{"name":"Quintana Str.","postalCode":"94474","locality":"Vilshofen an der Donau","municipality":{"key":"09275154","name":"Vilshofen an der Donau, St","type":"Stadt"},"district":{"key":"09275","name":"Passau","type":"Landkreis"},"federalState":{"key":"09","name":"Bayern"}},{"name":"Quirinistr.","postalCode":"94486","locality":"Osterhofen","municipality":{"key":"09271141","name":"Osterhofen, St","type":"Stadt"},"district":{"key":"09271","name":"Deggendorf","type":"Landkreis"},"federalState":{"key":"09","name":"Bayern"}},{"name":"Rosenweg","postalCode":"95237","locality":"Weißdorf","municipality":{"key":"09475184","name":"Weißdorf","type":"Kreisangehörige_Gemeinde"},"district":{"key":"09475","name":"Hof","type":"Landkreis"},"federalState":{"key":"09","name":"Bayern"}},{"name":"Schönburgweg","postalCode":"95237","locality":"Weißdorf","municipality":{"key":"09475184","name":"Weißdorf","type":"Kreisangehörige_Gemeinde"},"district":{"key":"09475","name":"Hof","type":"Landkreis"},"federalState":{"key":"09","name":"Bayern"}},{"name":"Schulstr.","postalCode":"95237","locality":"Weißdorf","municipality":{"key":"09475184","name":"Weißdorf","type":"Kreisangehörige_Gemeinde"},"district":{"key":"09475","name":"Hof","type":"Landkreis"},"federalState":{"key":"09","name":"Bayern"}},{"name":"Schwarzenbacher Str.","postalCode":"95237","locality":"Weißdorf","municipality":{"key":"09475184","name":"Weißdorf","type":"Kreisangehörige_Gemeinde"},"district":{"key":"09475","name":"Hof","type":"Landkreis"},"federalState":{"key":"09","name":"Bayern"}},{"name":"Seenweg","postalCode":"95237","locality":"Weißdorf","municipality":{"key":"09475184","name":"Weißdorf","type":"Kreisangehörige_Gemeinde"},"district":{"key":"09475","name":"Hof","type":"Landkreis"},"federalState":{"key":"09","name":"Bayern"}},{"name":"Siebensternstr.","postalCode":"95237","locality":"Weißdorf","municipality":{"key":"09475184","name":"Weißdorf","type":"Kreisangehörige_Gemeinde"},"district":{"key":"09475","name":"Hof","type":"Landkreis"},"federalState":{"key":"09","name":"Bayern"}},{"name":"Siedlungsweg","postalCode":"95237","locality":"Weißdorf","municipality":{"key":"09475184","name":"Weißdorf","type":"Kreisangehörige_Gemeinde"},"district":{"key":"09475","name":"Hof","type":"Landkreis"},"federalState":{"key":"09","name":"Bayern"}},{"name":"Sparnecker Str.","postalCode":"95237","locality":"Weißdorf","municipality":{"key":"09475184","name":"Weißdorf","type":"Kreisangehörige_Gemeinde"},"district":{"key":"09475","name":"Hof","type":"Landkreis"},"federalState":{"key":"09","name":"Bayern"}},{"name":"Tannenweg","postalCode":"95237","locality":"Weißdorf","municipality":{"key":"09475184","name":"Weißdorf","type":"Kreisangehörige_Gemeinde"},"district":{"key":"09475","name":"Hof","type":"Landkreis"},"federalState":{"key":"09","name":"Bayern"}},{"name":"Turmhügelstr.","postalCode":"95237","locality":"Weißdorf","municipality":{"key":"09475184","name":"Weißdorf","type":"Kreisangehörige_Gemeinde"},"district":{"key":"09475","name":"Hof","type":"Landkreis"},"federalState":{"key":"09","name":"Bayern"}},{"name":"Untere Siedlung","postalCode":"95237","locality":"Weißdorf","municipality":{"key":"09475184","name":"Weißdorf","type":"Kreisangehörige_Gemeinde"},"district":{"key":"09475","name":"Hof","type":"Landkreis"},"federalState":{"key":"09","name":"Bayern"}},{"name":"Valentin-Arnold-Str.","postalCode":"97346","locality":"Iphofen","municipality":{"key":"09675139","name":"Iphofen, St","type":"Stadt"},"district":{"key":"09675","name":"Kitzingen","type":"Landkreis"},"federalState":{"key":"09","name":"Bayern"}},{"name":"Valesistr.","postalCode":"82285","locality":"Hattenhofen","municipality":{"key":"09179128","name":"Hattenhofen","type":"Kreisangehörige_Gemeinde"},"district":{"key":"09179","name":"Fürstenfeldbruck","type":"Landkreis"},"federalState":{"key":"09","name":"Bayern"}},{"name":"Veilchenstr.","postalCode":"88433","locality":"Schemmerhofen","municipality":{"key":"08426134","name":"Schemmerhofen","type":"Kreisangehörige_Gemeinde"},"district":{"key":"08426","name":"Biberach","type":"Landkreis"},"federalState":{"key":"08","name":"Baden-Württemberg"}},{"name":"Veilchenstr.","postalCode":"94486","locality":"Osterhofen","municipality":{"key":"09271141","name":"Osterhofen, St","type":"Stadt"},"district":{"key":"09271","name":"Deggendorf","type":"Landkreis"},"federalState":{"key":"09","name":"Bayern"}},{"name":"Veilchenweg","postalCode":"86368","locality":"Gersthofen","municipality":{"key":"09772147","name":"Gersthofen, St","type":"Stadt"},"district":{"key":"09772","name":"Augsburg","type":"Landkreis"},"federalState":{"key":"09","name":"Bayern"}},{"name":"Veitsberg","postalCode":"91807","locality":"Solnhofen","municipality":{"key":"09577168","name":"Solnhofen","type":"Kreisangehörige_Gemeinde"},"district":{"key":"09577","name":"Weißenburg-Gunzenhausen","type":"Landkreis"},"federalState":{"key":"09","name":"Bayern"}},{"name":"Veitskirch","postalCode":"91807","locality":"Solnhofen","municipality":{"key":"09577168","name":"Solnhofen","type":"Kreisangehörige_Gemeinde"},"district":{"key":"09577","name":"Weißenburg-Gunzenhausen","type":"Landkreis"},"federalState":{"key":"09","name":"Bayern"}},{"name":"Veitsmühle","postalCode":"97631","locality":"Bad Königshofen im Grabfeld","municipality":{"key":"09673141","name":"Bad Königshofen i.Grabfeld, St","type":"Stadt"},"district":{"key":"09673","name":"Rhön-Grabfeld","type":"Landkreis"},"federalState":{"key":"09","name":"Bayern"}},{"name":"Veit-Stoß-Str.","postalCode":"97941","locality":"Tauberbischofsheim","municipality":{"key":"08128115","name":"Tauberbischofsheim, Stadt","type":"Stadt"},"district":{"key":"08128","name":"Main-Tauber-Kreis","type":"Landkreis"},"federalState":{"key":"08","name":"Baden-Württemberg"}},{"name":"Veitstr.","postalCode":"97941","locality":"Tauberbischofsheim","municipality":{"key":"08128115","name":"Tauberbischofsheim, Stadt","type":"Stadt"},"district":{"key":"08128","name":"Main-Tauber-Kreis","type":"Landkreis"},"federalState":{"key":"08","name":"Baden-Württemberg"}},{"name":"Veit-vom-Berg-Str.","postalCode":"91466","locality":"Gerhardshofen","municipality":{"key":"09575125","name":"Gerhardshofen","type":"Kreisangehörige_Gemeinde"},"district":{"key":"09575","name":"Neustadt a.d.Aisch-Bad Windsheim","type":"Landkreis"},"federalState":{"key":"09","name":"Bayern"}},{"name":"Veldener Str.","postalCode":"84169","locality":"Altfraunhofen","municipality":{"key":"09274114","name":"Altfraunhofen","type":"Kreisangehörige_Gemeinde"},"district":{"key":"09274","name":"Landshut","type":"Landkreis"},"federalState":{"key":"09","name":"Bayern"}},{"name":"Veldener Str.","postalCode":"84181","locality":"Neufraunhofen","municipality":{"key":"09274154","name":"Neufraunhofen","type":"Kreisangehörige_Gemeinde"},"district":{"key":"09274","name":"Landshut","type":"Landkreis"},"federalState":{"key":"09","name":"Bayern"}},{"name":"Verbindungsforstweg","postalCode":"88167","locality":"Stiefenhofen","municipality":{"key":"09776127","name":"Stiefenhofen","type":"Kreisangehörige_Gemeinde"},"district":{"key":"09776","name":"Lindau (Bodensee)","type":"Landkreis"},"federalState":{"key":"09","name":"Bayern"}},{"name":"Verbindungsstr.","postalCode":"65719","locality":"Hofheim am Taunus","municipality":{"key":"06436007","name":"Hofheim am Taunus, Kreisstadt","type":"Stadt"},"district":{"key":"06436","name":"Main-Taunus-Kreis","type":"Landkreis"},"federalState":{"key":"06","name":"Hessen"}},{"name":"Verdistr.","postalCode":"86368","locality":"Gersthofen","municipality":{"key":"09772147","name":"Gersthofen, St","type":"Stadt"},"district":{"key":"09772","name":"Augsburg","type":"Landkreis"},"federalState":{"key":"09","name":"Bayern"}},{"name":"Verdistr.","postalCode":"93142","locality":"Maxhütte-Haidhof","municipality":{"key":"09376141","name":"Maxhütte-Haidhof, St","type":"Stadt"},"district":{"key":"09376","name":"Schwandorf","type":"Landkreis"},"federalState":{"key":"09","name":"Bayern"}},{"name":"Verdistr.","postalCode":"95030","locality":"Hof","municipality":{"key":"09464000","name":"Hof","type":"Kreisfreie_Stadt"},"district":{"key":"09464","name":"Hof","type":"Kreisfreie_Stadt"},"federalState":{"key":"09","name":"Bayern"}},{"name":"Verdyweg","postalCode":"65719","locality":"Hofheim am Taunus","municipality":{"key":"06436007","name":"Hofheim am Taunus, Kreisstadt","type":"Stadt"},"district":{"key":"06436","name":"Main-Taunus-Kreis","type":"Landkreis"},"federalState":{"key":"06","name":"Hessen"}},{"name":"Vereinshausweg","postalCode":"51580","locality":"Reichshof","municipality":{"key":"05374040","name":"Reichshof","type":"Kreisangehörige_Gemeinde"},"district":{"key":"05374","name":"Oberbergischer Kreis","type":"Kreis"},"federalState":{"key":"05","name":"Nordrhein-Westfalen"}},{"name":"Vereinsweg","postalCode":"04683","locality":"Naunhof","municipality":{"key":"14729300","name":"Naunhof, Stadt","type":"Stadt"},"district":{"key":"14729","name":"Leipzig","type":"Landkreis"},"federalState":{"key":"14","name":"Sachsen"}},{"name":"Viceburgstr.","postalCode":"95032","locality":"Hof","municipality":{"key":"09464000","name":"Hof","type":"Kreisfreie_Stadt"},"district":{"key":"09464","name":"Hof","type":"Kreisfreie_Stadt"},"federalState":{"key":"09","name":"Bayern"}},{"name":"Viehledenweg","postalCode":"01877","locality":"Bischofswerda","municipality":{"key":"14625040","name":"Bischofswerda, Stadt","type":"Stadt"},"district":{"key":"14625","name":"Bautzen","type":"Landkreis"},"federalState":{"key":"14","name":"Sachsen"}},{"name":"Viehweg","postalCode":"97653","locality":"Bischofsheim i.d.Rhön","municipality":{"key":"09673117","name":"Bischofsheim i.d.Rhön, St","type":"Stadt"},"district":{"key":"09673","name":"Rhön-Grabfeld","type":"Landkreis"},"federalState":{"key":"09","name":"Bayern"}},{"name":"Viehweide","postalCode":"04683","locality":"Naunhof","municipality":{"key":"14729300","name":"Naunhof, Stadt","type":"Stadt"},"district":{"key":"14729","name":"Leipzig","type":"Landkreis"},"federalState":{"key":"14","name":"Sachsen"}},{"name":"Viehweideweg","postalCode":"65719","locality":"Hofheim am Taunus","municipality":{"key":"06436007","name":"Hofheim am Taunus, Kreisstadt","type":"Stadt"},"district":{"key":"06436","name":"Main-Taunus-Kreis","type":"Landkreis"},"federalState":{"key":"06","name":"Hessen"}},{"name":"Viehweidweg","postalCode":"86825","locality":"Bad Wörishofen","municipality":{"key":"09778116","name":"Bad Wörishofen, St","type":"Stadt"},"district":{"key":"09778","name":"Unterallgäu","type":"Landkreis"},"federalState":{"key":"09","name":"Bayern"}},{"name":"Vierradweg","postalCode":"83483","locality":"Bischofswiesen","municipality":{"key":"09172117","name":"Bischofswiesen","type":"Kreisangehörige_Gemeinde"},"district":{"key":"09172","name":"Berchtesgadener Land","type":"Landkreis"},"federalState":{"key":"09","name":"Bayern"}},{"name":"Viktoriastr.","postalCode":"86825","locality":"Bad Wörishofen","municipality":{"key":"09778116","name":"Bad Wörishofen, St","type":"Stadt"},"district":{"key":"09778","name":"Unterallgäu","type":"Landkreis"},"federalState":{"key":"09","name":"Bayern"}},{"name":"Viktoriaweg","postalCode":"89284","locality":"Pfaffenhofen an der Roth","municipality":{"key":"09775143","name":"Pfaffenhofen a.d.Roth, M","type":"Markt"},"district":{"key":"09775","name":"Neu-Ulm","type":"Landkreis"},"federalState":{"key":"09","name":"Bayern"}},{"name":"Viktor-von-Scheffel-Str.","postalCode":"95032","locality":"Hof","municipality":{"key":"09464000","name":"Hof","type":"Kreisfreie_Stadt"},"district":{"key":"09464","name":"Hof","type":"Kreisfreie_Stadt"},"federalState":{"key":"09","name":"Bayern"}},{"name":"Vilchbander Str.","postalCode":"97922","locality":"Lauda-Königshofen","municipality":{"key":"08128139","name":"Lauda-Königshofen, Stadt","type":"Stadt"},"district":{"key":"08128","name":"Main-Tauber-Kreis","type":"Landkreis"},"federalState":{"key":"08","name":"Baden-Württemberg"}},{"name":"Vilgertshofer Str.","postalCode":"86946","locality":"Vilgertshofen","municipality":{"key":"09181133","name":"Vilgertshofen","type":"Kreisangehörige_Gemeinde"},"district":{"key":"09181","name":"Landsberg am Lech","type":"Landkreis"},"federalState":{"key":"09","name":"Bayern"}},{"name":"Villacher Str.","postalCode":"86825","locality":"Bad Wörishofen","municipality":{"key":"09778116","name":"Bad Wörishofen, St","type":"Stadt"},"district":{"key":"09778","name":"Unterallgäu","type":"Landkreis"},"federalState":{"key":"09","name":"Bayern"}},{"name":"Villeneuve-la-Garenne-Str.","postalCode":"95030","locality":"Hof","municipality":{"key":"09464000","name":"Hof","type":"Kreisfreie_Stadt"},"district":{"key":"09464","name":"Hof","type":"Kreisfreie_Stadt"},"federalState":{"key":"09","name":"Bayern"}},{"name":"Villenstr.","postalCode":"93142","locality":"Maxhütte-Haidhof","municipality":{"key":"09376141","name":"Maxhütte-Haidhof, St","type":"Stadt"},"district":{"key":"09376","name":"Schwandorf","type":"Landkreis"},"federalState":{"key":"09","name":"Bayern"}},{"name":"Vilsfeldstr.","postalCode":"94474","locality":"Vilshofen an der Donau","municipality":{"key":"09275154","name":"Vilshofen an der Donau, St","type":"Stadt"},"district":{"key":"09275","name":"Passau","type":"Landkreis"},"federalState":{"key":"09","name":"Bayern"}},{"name":"Vilshofener Str.","postalCode":"94474","locality":"Vilshofen an der Donau","municipality":{"key":"09275154","name":"Vilshofen an der Donau, St","type":"Stadt"},"district":{"key":"09275","name":"Passau","type":"Landkreis"},"federalState":{"key":"09","name":"Bayern"}},{"name":"Vilshofener Str.","postalCode":"94544","locality":"Hofkirchen","municipality":{"key":"09275127","name":"Hofkirchen, M","type":"Markt"},"district":{"key":"09275","name":"Passau","type":"Landkreis"},"federalState":{"key":"09","name":"Bayern"}},{"name":"Vilsstr.","postalCode":"94486","locality":"Osterhofen","municipality":{"key":"09271141","name":"Osterhofen, St","type":"Stadt"},"district":{"key":"09271","name":"Deggendorf","type":"Landkreis"},"federalState":{"key":"09","name":"Bayern"}},{"name":"Vilsvorstadt","postalCode":"94474","locality":"Vilshofen an der Donau","municipality":{"key":"09275154","name":"Vilshofen an der Donau, St","type":"Stadt"},"district":{"key":"09275","name":"Passau","type":"Landkreis"},"federalState":{"key":"09","name":"Bayern"}},{"name":"Vincenzstr.","postalCode":"65719","locality":"Hofheim am Taunus","municipality":{"key":"06436007","name":"Hofheim am Taunus, Kreisstadt","type":"Stadt"},"district":{"key":"06436","name":"Main-Taunus-Kreis","type":"Landkreis"},"federalState":{"key":"06","name":"Hessen"}},{"name":"Virchowstr.","postalCode":"93142","locality":"Maxhütte-Haidhof","municipality":{"key":"09376141","name":"Maxhütte-Haidhof, St","type":"Stadt"},"district":{"key":"09376","name":"Schwandorf","type":"Landkreis"},"federalState":{"key":"09","name":"Bayern"}},{"name":"Vischerstr.","postalCode":"67117","locality":"Limburgerhof","municipality":{"key":"07338017","name":"Limburgerhof","type":"Kreisangehörige_Gemeinde"},"district":{"key":"07338","name":"Rhein-Pfalz-Kreis","type":"Landkreis"},"federalState":{"key":"07","name":"Rheinland-Pfalz"}},{"name":"Vitryallee","postalCode":"97941","locality":"Tauberbischofsheim","municipality":{"key":"08128115","name":"Tauberbischofsheim, Stadt","type":"Stadt"},"district":{"key":"08128","name":"Main-Tauber-Kreis","type":"Landkreis"},"federalState":{"key":"08","name":"Baden-Württemberg"}},{"name":"Vogelgasse","postalCode":"97631","locality":"Bad Königshofen im Grabfeld","municipality":{"key":"09673141","name":"Bad Königshofen i.Grabfeld, St","type":"Stadt"},"district":{"key":"09673","name":"Rhön-Grabfeld","type":"Landkreis"},"federalState":{"key":"09","name":"Bayern"}},{"name":"Vogelhain","postalCode":"97922","locality":"Lauda-Königshofen","municipality":{"key":"08128139","name":"Lauda-Königshofen, Stadt","type":"Stadt"},"district":{"key":"08128","name":"Main-Tauber-Kreis","type":"Landkreis"},"federalState":{"key":"08","name":"Baden-Württemberg"}},{"name":"Vogelherder Str.","postalCode":"95030","locality":"Hof","municipality":{"key":"09464000","name":"Hof","type":"Kreisfreie_Stadt"},"district":{"key":"09464","name":"Hof","type":"Kreisfreie_Stadt"},"federalState":{"key":"09","name":"Bayern"}},{"name":"Vogelhuberstr.","postalCode":"91572","locality":"Bechhofen","municipality":{"key":"09571115","name":"Bechhofen, M","type":"Markt"},"district":{"key":"09571","name":"Ansbach","type":"Landkreis"},"federalState":{"key":"09","name":"Bayern"}},{"name":"Vogelkamp","postalCode":"51580","locality":"Reichshof","municipality":{"key":"05374040","name":"Reichshof","type":"Kreisangehörige_Gemeinde"},"district":{"key":"05374","name":"Oberbergischer Kreis","type":"Kreis"},"federalState":{"key":"05","name":"Nordrhein-Westfalen"}},{"name":"Waldsteinstr.","postalCode":"95237","locality":"Weißdorf","municipality":{"key":"09475184","name":"Weißdorf","type":"Kreisangehörige_Gemeinde"},"district":{"key":"09475","name":"Hof","type":"Landkreis"},"federalState":{"key":"09","name":"Bayern"}},{"name":"Werner-von-Leuckart-Str.","postalCode":"95237","locality":"Weißdorf","municipality":{"key":"09475184","name":"Weißdorf","type":"Kreisangehörige_Gemeinde"},"district":{"key":"09475","name":"Hof","type":"Landkreis"},"federalState":{"key":"09","name":"Bayern"}},{"name":"Wiesenweg","postalCode":"95237","locality":"Weißdorf","municipality":{"key":"09475184","name":"Weißdorf","type":"Kreisangehörige_Gemeinde"},"district":{"key":"09475","name":"Hof","type":"Landkreis"},"federalState":{"key":"09","name":"Bayern"}},{"name":"Xaver-Hafner-Brücke","postalCode":"94330","locality":"Aiterhofen","municipality":{"key":"09278113","name":"Aiterhofen","type":"Kreisangehörige_Gemeinde"},"district":{"key":"09278","name":"Straubing-Bogen","type":"Landkreis"},"federalState":{"key":"09","name":"Bayern"}},{"name":"Xaver-Hartl-Str.","postalCode":"82281","locality":"Egenhofen","municipality":{"key":"09179117","name":"Egenhofen","type":"Kreisangehörige_Gemeinde"},"district":{"key":"09179","name":"Fürstenfeldbruck","type":"Landkreis"},"federalState":{"key":"09","name":"Bayern"}},{"name":"Xaveristr.","postalCode":"85084","locality":"Reichertshofen","municipality":{"key":"09186147","name":"Reichertshofen, M","type":"Markt"},"district":{"key":"09186","name":"Pfaffenhofen a.d.Ilm","type":"Landkreis"},"federalState":{"key":"09","name":"Bayern"}},{"name":"Yachthafen","postalCode":"18445","locality":"Kramerhof","municipality":{"key":"13073046","name":"Kramerhof","type":"Kreisangehörige_Gemeinde"},"district":{"key":"13073","name":"Vorpommern-Rügen","type":"Landkreis"},"federalState":{"key":"13","name":"Mecklenburg-Vorpommern"}},{"name":"Yorckstr.","postalCode":"95030","locality":"Hof","municipality":{"key":"09464000","name":"Hof","type":"Kreisfreie_Stadt"},"district":{"key":"09464","name":"Hof","type":"Kreisfreie_Stadt"},"federalState":{"key":"09","name":"Bayern"}},{"name":"Yves-Fily-Str.","postalCode":"87448","locality":"Waltenhofen","municipality":{"key":"09780143","name":"Waltenhofen","type":"Kreisangehörige_Gemeinde"},"district":{"key":"09780","name":"Oberallgäu","type":"Landkreis"},"federalState":{"key":"09","name":"Bayern"}},{"name":"Zaberfelder Str.","postalCode":"74397","locality":"Pfaffenhofen","municipality":{"key":"08125081","name":"Pfaffenhofen","type":"Kreisangehörige_Gemeinde"},"district":{"key":"08125","name":"Heilbronn","type":"Landkreis"},"federalState":{"key":"08","name":"Baden-Württemberg"}},{"name":"Zaberstr.","postalCode":"74397","locality":"Pfaffenhofen","municipality":{"key":"08125081","name":"Pfaffenhofen","type":"Kreisangehörige_Gemeinde"},"district":{"key":"08125","name":"Heilbronn","type":"Landkreis"},"federalState":{"key":"08","name":"Baden-Württemberg"}},{"name":"Zähringerstr.","postalCode":"97922","locality":"Lauda-Königshofen","municipality":{"key":"08128139","name":"Lauda-Königshofen, Stadt","type":"Stadt"},"district":{"key":"08128","name":"Main-Tauber-Kreis","type":"Landkreis"},"federalState":{"key":"08","name":"Baden-Württemberg"}},{"name":"Zähringerweg","postalCode":"97941","locality":"Tauberbischofsheim","municipality":{"key":"08128115","name":"Tauberbischofsheim, Stadt","type":"Stadt"},"district":{"key":"08128","name":"Main-Tauber-Kreis","type":"Landkreis"},"federalState":{"key":"08","name":"Baden-Württemberg"}},{"name":"Zainschmiedeweg","postalCode":"87527","locality":"Sonthofen","municipality":{"key":"09780139","name":"Sonthofen, St","type":"Stadt"},"district":{"key":"09780","name":"Oberallgäu","type":"Landkreis"},"federalState":{"key":"09","name":"Bayern"}},{"name":"Zange","postalCode":"99826","locality":"Bischofroda","municipality":{"key":"16063008","name":"Bischofroda","type":"Kreisangehörige_Gemeinde"},"district":{"key":"16063","name":"Wartburgkreis","type":"Landkreis"},"federalState":{"key":"16","name":"Thüringen"}},{"name":"Zanggasse","postalCode":"65719","locality":"Hofheim am Taunus","municipality":{"key":"06436007","name":"Hofheim am Taunus, Kreisstadt","type":"Stadt"},"district":{"key":"06436","name":"Main-Taunus-Kreis","type":"Landkreis"},"federalState":{"key":"06","name":"Hessen"}},{"name":"Zaundorf","postalCode":"94544","locality":"Hofkirchen","municipality":{"key":"09275127","name":"Hofkirchen, M","type":"Markt"},"district":{"key":"09275","name":"Passau","type":"Landkreis"},"federalState":{"key":"09","name":"Bayern"}},{"name":"Zaunkönigweg","postalCode":"51580","locality":"Reichshof","municipality":{"key":"05374040","name":"Reichshof","type":"Kreisangehörige_Gemeinde"},"district":{"key":"05374","name":"Oberbergischer Kreis","type":"Kreis"},"federalState":{"key":"05","name":"Nordrhein-Westfalen"}},{"name":"Zaunkönigweg","postalCode":"65719","locality":"Hofheim am Taunus","municipality":{"key":"06436007","name":"Hofheim am Taunus, Kreisstadt","type":"Stadt"},"district":{"key":"06436","name":"Main-Taunus-Kreis","type":"Landkreis"},"federalState":{"key":"06","name":"Hessen"}},{"name":"Zedernweg","postalCode":"51580","locality":"Reichshof","municipality":{"key":"05374040","name":"Reichshof","type":"Kreisangehörige_Gemeinde"},"district":{"key":"05374","name":"Oberbergischer Kreis","type":"Kreis"},"federalState":{"key":"05","name":"Nordrhein-Westfalen"}},{"name":"Zedtwitzer Str.","postalCode":"95030","locality":"Hof","municipality":{"key":"09464000","name":"Hof","type":"Kreisfreie_Stadt"},"district":{"key":"09464","name":"Hof","type":"Kreisfreie_Stadt"},"federalState":{"key":"09","name":"Bayern"}},{"name":"Zehentstadelweg","postalCode":"89284","locality":"Pfaffenhofen an der Roth","municipality":{"key":"09775143","name":"Pfaffenhofen a.d.Roth, M","type":"Markt"},"district":{"key":"09775","name":"Neu-Ulm","type":"Landkreis"},"federalState":{"key":"09","name":"Bayern"}},{"name":"Zehntfreistr.","postalCode":"97941","locality":"Tauberbischofsheim","municipality":{"key":"08128115","name":"Tauberbischofsheim, Stadt","type":"Stadt"},"district":{"key":"08128","name":"Main-Tauber-Kreis","type":"Landkreis"},"federalState":{"key":"08","name":"Baden-Württemberg"}},{"name":"Zehntgasse","postalCode":"97922","locality":"Lauda-Königshofen","municipality":{"key":"08128139","name":"Lauda-Königshofen, Stadt","type":"Stadt"},"district":{"key":"08128","name":"Main-Tauber-Kreis","type":"Landkreis"},"federalState":{"key":"08","name":"Baden-Württemberg"}},{"name":"Zehntgasse","postalCode":"97941","locality":"Tauberbischofsheim","municipality":{"key":"08128115","name":"Tauberbischofsheim, Stadt","type":"Stadt"},"district":{"key":"08128","name":"Main-Tauber-Kreis","type":"Landkreis"},"federalState":{"key":"08","name":"Baden-Württemberg"}},{"name":"Zehnthof","postalCode":"67574","locality":"Osthofen","municipality":{"key":"07331055","name":"Osthofen, Stadt","type":"Stadt"},"district":{"key":"07331","name":"Alzey-Worms","type":"Landkreis"},"federalState":{"key":"07","name":"Rheinland-Pfalz"}},{"name":"Zehnthofstr.","postalCode":"97253","locality":"Gaukönigshofen","municipality":{"key":"09679134","name":"Gaukönigshofen","type":"Kreisangehörige_Gemeinde"},"district":{"key":"09679","name":"Würzburg","type":"Landkreis"},"federalState":{"key":"09","name":"Bayern"}},{"name":"Zehntscheune","postalCode":"97258","locality":"Gollhofen","municipality":{"key":"09575127","name":"Gollhofen","type":"Kreisangehörige_Gemeinde"},"district":{"key":"09575","name":"Neustadt a.d.Aisch-Bad Windsheim","type":"Landkreis"},"federalState":{"key":"09","name":"Bayern"}},{"name":"Zehntstr.","postalCode":"97631","locality":"Bad Königshofen im Grabfeld","municipality":{"key":"09673141","name":"Bad Königshofen i.Grabfeld, St","type":"Stadt"},"district":{"key":"09673","name":"Rhön-Grabfeld","type":"Landkreis"},"federalState":{"key":"09","name":"Bayern"}},{"name":"Zehntweg","postalCode":"79802","locality":"Dettighofen","municipality":{"key":"08337030","name":"Dettighofen","type":"Kreisangehörige_Gemeinde"},"district":{"key":"08337","name":"Waldshut","type":"Landkreis"},"federalState":{"key":"08","name":"Baden-Württemberg"}},{"name":"Zeidelweide","postalCode":"91054","locality":"Buckenhof","municipality":{"key":"09572120","name":"Buckenhof","type":"Kreisangehörige_Gemeinde"},"district":{"key":"09572","name":"Erlangen-Höchstadt","type":"Landkreis"},"federalState":{"key":"09","name":"Bayern"}},{"name":"Zeil","postalCode":"65719","locality":"Hofheim am Taunus","municipality":{"key":"06436007","name":"Hofheim am Taunus, Kreisstadt","type":"Stadt"},"district":{"key":"06436","name":"Main-Taunus-Kreis","type":"Landkreis"},"federalState":{"key":"06","name":"Hessen"}},{"name":"Zeilerstr.","postalCode":"56341","locality":"Kamp-Bornhofen","municipality":{"key":"07141066","name":"Kamp-Bornhofen","type":"Kreisangehörige_Gemeinde"},"district":{"key":"07141","name":"Rhein-Lahn-Kreis","type":"Landkreis"},"federalState":{"key":"07","name":"Rheinland-Pfalz"}},{"name":"Zeilsheimer Str.","postalCode":"65719","locality":"Hofheim am Taunus","municipality":{"key":"06436007","name":"Hofheim am Taunus, Kreisstadt","type":"Stadt"},"district":{"key":"06436","name":"Main-Taunus-Kreis","type":"Landkreis"},"federalState":{"key":"06","name":"Hessen"}},{"name":"Zeiltorstr.","postalCode":"74397","locality":"Pfaffenhofen","municipality":{"key":"08125081","name":"Pfaffenhofen","type":"Kreisangehörige_Gemeinde"},"district":{"key":"08125","name":"Heilbronn","type":"Landkreis"},"federalState":{"key":"08","name":"Baden-Württemberg"}},{"name":"Zeilweg","postalCode":"97653","locality":"Bischofsheim i.d.Rhön","municipality":{"key":"09673117","name":"Bischofsheim i.d.Rhön, St","type":"Stadt"},"district":{"key":"09673","name":"Rhön-Grabfeld","type":"Landkreis"},"federalState":{"key":"09","name":"Bayern"}},{"name":"Zeisenweg","postalCode":"86928","locality":"Hofstetten","municipality":{"key":"09181124","name":"Hofstetten","type":"Kreisangehörige_Gemeinde"},"district":{"key":"09181","name":"Landsberg am Lech","type":"Landkreis"},"federalState":{"key":"09","name":"Bayern"}},{"name":"Zeisigweg","postalCode":"51580","locality":"Reichshof","municipality":{"key":"05374040","name":"Reichshof","type":"Kreisangehörige_Gemeinde"},"district":{"key":"05374","name":"Oberbergischer Kreis","type":"Kreis"},"federalState":{"key":"05","name":"Nordrhein-Westfalen"}},{"name":"Zeisigweg","postalCode":"65719","locality":"Hofheim am Taunus","municipality":{"key":"06436007","name":"Hofheim am Taunus, Kreisstadt","type":"Stadt"},"district":{"key":"06436","name":"Main-Taunus-Kreis","type":"Landkreis"},"federalState":{"key":"06","name":"Hessen"}},{"name":"Zeisigweg","postalCode":"74532","locality":"Ilshofen","municipality":{"key":"08127043","name":"Ilshofen, Stadt","type":"Stadt"},"district":{"key":"08127","name":"Schwäbisch Hall","type":"Landkreis"},"federalState":{"key":"08","name":"Baden-Württemberg"}},{"name":"Zeisigweg","postalCode":"88433","locality":"Schemmerhofen","municipality":{"key":"08426134","name":"Schemmerhofen","type":"Kreisangehörige_Gemeinde"},"district":{"key":"08426","name":"Biberach","type":"Landkreis"},"federalState":{"key":"08","name":"Baden-Württemberg"}},{"name":"Zeisigweg","postalCode":"91466","locality":"Gerhardshofen","municipality":{"key":"09575125","name":"Gerhardshofen","type":"Kreisangehörige_Gemeinde"},"district":{"key":"09575","name":"Neustadt a.d.Aisch-Bad Windsheim","type":"Landkreis"},"federalState":{"key":"09","name":"Bayern"}},{"name":"Zeisigweg","postalCode":"95030","locality":"Hof","municipality":{"key":"09464000","name":"Hof","type":"Kreisfreie_Stadt"},"district":{"key":"09464","name":"Hof","type":"Kreisfreie_Stadt"},"federalState":{"key":"09","name":"Bayern"}},{"name":"Zeitlarner Str.","postalCode":"94474","locality":"Vilshofen an der Donau","municipality":{"key":"09275154","name":"Vilshofen an der Donau, St","type":"Stadt"},"district":{"key":"09275","name":"Passau","type":"Landkreis"},"federalState":{"key":"09","name":"Bayern"}},{"name":"Zellaer Str.","postalCode":"98559","locality":"Oberhof","municipality":{"key":"16066047","name":"Oberhof, Stadt","type":"Stadt"},"district":{"key":"16066","name":"Schmalkalden-Meiningen","type":"Landkreis"},"federalState":{"key":"16","name":"Thüringen"}},{"name":"Zellen","postalCode":"87448","locality":"Waltenhofen","municipality":{"key":"09780143","name":"Waltenhofen","type":"Kreisangehörige_Gemeinde"},"district":{"key":"09780","name":"Oberallgäu","type":"Landkreis"},"federalState":{"key":"09","name":"Bayern"}},{"name":"Zellerstr.","postalCode":"86368","locality":"Gersthofen","municipality":{"key":"09772147","name":"Gersthofen, St","type":"Stadt"},"district":{"key":"09772","name":"Augsburg","type":"Landkreis"},"federalState":{"key":"09","name":"Bayern"}},{"name":"Zeller Str.","postalCode":"73110","locality":"Hattenhofen","municipality":{"key":"08117029","name":"Hattenhofen","type":"Kreisangehörige_Gemeinde"},"district":{"key":"08117","name":"Göppingen","type":"Landkreis"},"federalState":{"key":"08","name":"Baden-Württemberg"}},{"name":"Zellertstr.","postalCode":"36119","locality":"Neuhof","municipality":{"key":"06631018","name":"Neuhof","type":"Kreisangehörige_Gemeinde"},"district":{"key":"06631","name":"Fulda","type":"Landkreis"},"federalState":{"key":"06","name":"Hessen"}},{"name":"Zellweg","postalCode":"92447","locality":"Schwarzhofen","municipality":{"key":"09376164","name":"Schwarzhofen, M","type":"Markt"},"district":{"key":"09376","name":"Schwandorf","type":"Landkreis"},"federalState":{"key":"09","name":"Bayern"}},{"name":"Zemmerer Str.","postalCode":"54298","locality":"Orenhofen","municipality":{"key":"07232289","name":"Orenhofen","type":"Kreisangehörige_Gemeinde"},"district":{"key":"07232","name":"Eifelkreis Bitburg-Prüm","type":"Landkreis"},"federalState":{"key":"07","name":"Rheinland-Pfalz"}},{"name":"Zengerweg","postalCode":"92447","locality":"Schwarzhofen","municipality":{"key":"09376164","name":"Schwarzhofen, M","type":"Markt"},"district":{"key":"09376","name":"Schwandorf","type":"Landkreis"},"federalState":{"key":"09","name":"Bayern"}},{"name":"Zentweg","postalCode":"97653","locality":"Bischofsheim i.d.Rhön","municipality":{"key":"09673117","name":"Bischofsheim i.d.Rhön, St","type":"Stadt"},"district":{"key":"09673","name":"Rhön-Grabfeld","type":"Landkreis"},"federalState":{"key":"09","name":"Bayern"}},{"name":"Zeppelinstr.","postalCode":"86825","locality":"Bad Wörishofen","municipality":{"key":"09778116","name":"Bad Wörishofen, St","type":"Stadt"},"district":{"key":"09778","name":"Unterallgäu","type":"Landkreis"},"federalState":{"key":"09","name":"Bayern"}},{"name":"Zeppelinstr.","postalCode":"89284","locality":"Pfaffenhofen an der Roth","municipality":{"key":"09775143","name":"Pfaffenhofen a.d.Roth, M","type":"Markt"},"district":{"key":"09775","name":"Neu-Ulm","type":"Landkreis"},"federalState":{"key":"09","name":"Bayern"}},{"name":"Zeppelinstr.","postalCode":"95030","locality":"Hof","municipality":{"key":"09464000","name":"Hof","type":"Kreisfreie_Stadt"},"district":{"key":"09464","name":"Hof","type":"Kreisfreie_Stadt"},"federalState":{"key":"09","name":"Bayern"}},{"name":"Zeppelinstr.","postalCode":"95032","locality":"Hof","municipality":{"key":"09464000","name":"Hof","type":"Kreisfreie_Stadt"},"district":{"key":"09464","name":"Hof","type":"Kreisfreie_Stadt"},"federalState":{"key":"09","name":"Bayern"}},{"name":"Zeppelinweg","postalCode":"67117","locality":"Limburgerhof","municipality":{"key":"07338017","name":"Limburgerhof","type":"Kreisangehörige_Gemeinde"},"district":{"key":"07338","name":"Rhein-Pfalz-Kreis","type":"Landkreis"},"federalState":{"key":"07","name":"Rheinland-Pfalz"}},{"name":"Zettlerstr.","postalCode":"87448","locality":"Waltenhofen","municipality":{"key":"09780143","name":"Waltenhofen","type":"Kreisangehörige_Gemeinde"},"district":{"key":"09780","name":"Oberallgäu","type":"Landkreis"},"federalState":{"key":"09","name":"Bayern"}},{"name":"Äußere Bayreuther Str.","postalCode":"95030","locality":"Hof","municipality":{"key":"09464000","name":"Hof","type":"Kreisfreie_Stadt"},"district":{"key":"09464","name":"Hof","type":"Kreisfreie_Stadt"},"federalState":{"key":"09","name":"Bayern"}},{"name":"Äußere Bayreuther Str.","postalCode":"95032","locality":"Hof","municipality":{"key":"09464000","name":"Hof","type":"Kreisfreie_Stadt"},"district":{"key":"09464","name":"Hof","type":"Kreisfreie_Stadt"},"federalState":{"key":"09","name":"Bayern"}},{"name":"Äußere Gasse","postalCode":"97461","locality":"Hofheim in Unterfranken","municipality":{"key":"09674149","name":"Hofheim i.UFr., St","type":"Stadt"},"district":{"key":"09674","name":"Haßberge","type":"Landkreis"},"federalState":{"key":"09","name":"Bayern"}},{"name":"Äußere Moosburger Str.","postalCode":"85276","locality":"Pfaffenhofen an der Ilm","municipality":{"key":"09186143","name":"Pfaffenhofen a.d.Ilm, St","type":"Stadt"},"district":{"key":"09186","name":"Pfaffenhofen a.d.Ilm","type":"Landkreis"},"federalState":{"key":"09","name":"Bayern"}},{"name":"Äußere Quellengasse","postalCode":"85276","locality":"Pfaffenhofen an der Ilm","municipality":{"key":"09186143","name":"Pfaffenhofen a.d.Ilm, St","type":"Stadt"},"district":{"key":"09186","name":"Pfaffenhofen a.d.Ilm","type":"Landkreis"},"federalState":{"key":"09","name":"Bayern"}},{"name":"Äußeres Eschle","postalCode":"87674","locality":"Ruderatshofen","municipality":{"key":"09777167","name":"Ruderatshofen","type":"Kreisangehörige_Gemeinde"},"district":{"key":"09777","name":"Ostallgäu","type":"Landkreis"},"federalState":{"key":"09","name":"Bayern"}},{"name":"Öchenbach","postalCode":"36145","locality":"Hofbieber","municipality":{"key":"06631013","name":"Hofbieber","type":"Kreisangehörige_Gemeinde"},"district":{"key":"06631","name":"Fulda","type":"Landkreis"},"federalState":{"key":"06","name":"Hessen"}},{"name":"Ödenwaldstr.","postalCode":"88433","locality":"Schemmerhofen","municipality":{"key":"08426134","name":"Schemmerhofen","type":"Kreisangehörige_Gemeinde"},"district":{"key":"08426","name":"Biberach","type":"Landkreis"},"federalState":{"key":"08","name":"Baden-Württemberg"}},{"name":"Ölbergstr.","postalCode":"97922","locality":"Lauda-Königshofen","municipality":{"key":"08128139","name":"Lauda-Königshofen, Stadt","type":"Stadt"},"district":{"key":"08128","name":"Main-Tauber-Kreis","type":"Landkreis"},"federalState":{"key":"08","name":"Baden-Württemberg"}},{"name":"Ölmühlenweg","postalCode":"33161","locality":"Hövelhof","municipality":{"key":"05774024","name":"Hövelhof, Sennegemeinde","type":"Kreisangehörige_Gemeinde"},"district":{"key":"05774","name":"Paderborn","type":"Kreis"},"federalState":{"key":"05","name":"Nordrhein-Westfalen"}},{"name":"Ölmühleweg","postalCode":"88433","locality":"Schemmerhofen","municipality":{"key":"08426134","name":"Schemmerhofen","type":"Kreisangehörige_Gemeinde"},"district":{"key":"08426","name":"Biberach","type":"Landkreis"},"federalState":{"key":"08","name":"Baden-Württemberg"}},{"name":"Ölmützer Weg","postalCode":"86368","locality":"Gersthofen","municipality":{"key":"09772147","name":"Gersthofen, St","type":"Stadt"},"district":{"key":"09772","name":"Augsburg","type":"Landkreis"},"federalState":{"key":"09","name":"Bayern"}},{"name":"Österreichstr.","postalCode":"85084","locality":"Reichertshofen","municipality":{"key":"09186147","name":"Reichertshofen, M","type":"Markt"},"district":{"key":"09186","name":"Pfaffenhofen a.d.Ilm","type":"Landkreis"},"federalState":{"key":"09","name":"Bayern"}},{"name":"Östliche Allee","postalCode":"97447","locality":"Gerolzhofen","municipality":{"key":"09678134","name":"Gerolzhofen, St","type":"Stadt"},"district":{"key":"09678","name":"Schweinfurt","type":"Landkreis"},"federalState":{"key":"09","name":"Bayern"}},{"name":"Östliche Alpenstr.","postalCode":"87527","locality":"Sonthofen","municipality":{"key":"09780139","name":"Sonthofen, St","type":"Stadt"},"district":{"key":"09780","name":"Oberallgäu","type":"Landkreis"},"federalState":{"key":"09","name":"Bayern"}},{"name":"Östlicher Birkenweg","postalCode":"86643","locality":"Rennertshofen","municipality":{"key":"09185153","name":"Rennertshofen, M","type":"Markt"},"district":{"key":"09185","name":"Neuburg-Schrobenhausen","type":"Landkreis"},"federalState":{"key":"09","name":"Bayern"}},{"name":"Öttnergasse","postalCode":"97461","locality":"Hofheim in Unterfranken","municipality":{"key":"09674149","name":"Hofheim i.UFr., St","type":"Stadt"},"district":{"key":"09674","name":"Haßberge","type":"Landkreis"},"federalState":{"key":"09","name":"Bayern"}},{"name":"Über den Höfen","postalCode":"34369","locality":"Hofgeismar","municipality":{"key":"06633013","name":"Hofgeismar, Stadt","type":"Stadt"},"district":{"key":"06633","name":"Kassel","type":"Landkreis"},"federalState":{"key":"06","name":"Hessen"}},{"name":"Überlinger Str.","postalCode":"88690","locality":"Uhldingen-Mühlhofen","municipality":{"key":"08435066","name":"Uhldingen-Mühlhofen","type":"Kreisangehörige_Gemeinde"},"district":{"key":"08435","name":"Bodenseekreis","type":"Landkreis"},"federalState":{"key":"08","name":"Baden-Württemberg"}},{"name":"ÜF PFA21 Reichertshofen","postalCode":"85084","locality":"Reichertshofen","municipality":{"key":"09186147","name":"Reichertshofen, M","type":"Markt"},"district":{"key":"09186","name":"Pfaffenhofen a.d.Ilm","type":"Landkreis"},"federalState":{"key":"09","name":"Bayern"}},]