[{"key":"10075436","name":"Aegelseestrasse","postalCode":"3375","locality":"Inkwil","commune":{"key":"980","name":"Inkwil","shortName":"Inkwil"},"district":{"key":"244","name":"Verwaltungskreis Oberaargau"},"canton":{"key":"2","code":"BE","name":"Bern / Berne"},"status":"Real"},{"key":"10012982","name":"Ahornweg","postalCode":"3375","locality":"Inkwil","commune":{"key":"980","name":"Inkwil","shortName":"Inkwil"},"district":{"key":"244","name":"Verwaltungskreis Oberaargau"},"canton":{"key":"2","code":"BE","name":"Bern / Berne"},"status":"Real"},{"key":"10012983","name":"Bachstrasse","postalCode":"3375","locality":"Inkwil","commune":{"key":"980","name":"Inkwil","shortName":"Inkwil"},"district":{"key":"244","name":"Verwaltungskreis Oberaargau"},"canton":{"key":"2","code":"BE","name":"Bern / Berne"},"status":"Real"},{"key":"10012984","name":"Bahnhofstrasse","postalCode":"3375","locality":"Inkwil","commune":{"key":"980","name":"Inkwil","shortName":"Inkwil"},"district":{"key":"244","name":"Verwaltungskreis Oberaargau"},"canton":{"key":"2","code":"BE","name":"Bern / Berne"},"status":"Real"},{"key":"10108412","name":"Birchackerstrasse","postalCode":"3375","locality":"Inkwil","commune":{"key":"980","name":"Inkwil","shortName":"Inkwil"},"district":{"key":"244","name":"Verwaltungskreis Oberaargau"},"canton":{"key":"2","code":"BE","name":"Bern / Berne"},"status":"Real"},{"key":"10075437","name":"Birkenweg","postalCode":"3375","locality":"Inkwil","commune":{"key":"980","name":"Inkwil","shortName":"Inkwil"},"district":{"key":"244","name":"Verwaltungskreis Oberaargau"},"canton":{"key":"2","code":"BE","name":"Bern / Berne"},"status":"Real"},{"key":"10179064","name":"Bolkenstrasse","postalCode":"3375","locality":"Inkwil","commune":{"key":"980","name":"Inkwil","shortName":"Inkwil"},"district":{"key":"244","name":"Verwaltungskreis Oberaargau"},"canton":{"key":"2","code":"BE","name":"Bern / Berne"},"status":"Real"},{"key":"10046961","name":"Brüggliacherweg","postalCode":"3375","locality":"Inkwil","commune":{"key":"980","name":"Inkwil","shortName":"Inkwil"},"district":{"key":"244","name":"Verwaltungskreis Oberaargau"},"canton":{"key":"2","code":"BE","name":"Bern / Berne"},"status":"Real"},{"key":"10012985","name":"Buchenweg","postalCode":"3375","locality":"Inkwil","commune":{"key":"980","name":"Inkwil","shortName":"Inkwil"},"district":{"key":"244","name":"Verwaltungskreis Oberaargau"},"canton":{"key":"2","code":"BE","name":"Bern / Berne"},"status":"Real"},{"key":"10219646","name":"Chrummächerweg","postalCode":"3375","locality":"Inkwil","commune":{"key":"980","name":"Inkwil","shortName":"Inkwil"},"district":{"key":"244","name":"Verwaltungskreis Oberaargau"},"canton":{"key":"2","code":"BE","name":"Bern / Berne"},"status":"Real"},{"key":"10075438","name":"Deitingenstrasse","postalCode":"3375","locality":"Inkwil","commune":{"key":"980","name":"Inkwil","shortName":"Inkwil"},"district":{"key":"244","name":"Verwaltungskreis Oberaargau"},"canton":{"key":"2","code":"BE","name":"Bern / Berne"},"status":"Real"},{"key":"10012986","name":"Dorfstrasse","postalCode":"3375","locality":"Inkwil","commune":{"key":"980","name":"Inkwil","shortName":"Inkwil"},"district":{"key":"244","name":"Verwaltungskreis Oberaargau"},"canton":{"key":"2","code":"BE","name":"Bern / Berne"},"status":"Real"},{"key":"10012987","name":"Erlenweg","postalCode":"3375","locality":"Inkwil","commune":{"key":"980","name":"Inkwil","shortName":"Inkwil"},"district":{"key":"244","name":"Verwaltungskreis Oberaargau"},"canton":{"key":"2","code":"BE","name":"Bern / Berne"},"status":"Real"},{"key":"10065205","name":"Eschenweg","postalCode":"3375","locality":"Inkwil","commune":{"key":"980","name":"Inkwil","shortName":"Inkwil"},"district":{"key":"244","name":"Verwaltungskreis Oberaargau"},"canton":{"key":"2","code":"BE","name":"Bern / Berne"},"status":"Real"},{"key":"10012988","name":"Flurweg","postalCode":"3375","locality":"Inkwil","commune":{"key":"980","name":"Inkwil","shortName":"Inkwil"},"district":{"key":"244","name":"Verwaltungskreis Oberaargau"},"canton":{"key":"2","code":"BE","name":"Bern / Berne"},"status":"Real"},{"key":"10219650","name":"Grundwald","postalCode":"3375","locality":"Inkwil","commune":{"key":"980","name":"Inkwil","shortName":"Inkwil"},"district":{"key":"244","name":"Verwaltungskreis Oberaargau"},"canton":{"key":"2","code":"BE","name":"Bern / Berne"},"status":"Real"},{"key":"10012989","name":"Haselweg","postalCode":"3375","locality":"Inkwil","commune":{"key":"980","name":"Inkwil","shortName":"Inkwil"},"district":{"key":"244","name":"Verwaltungskreis Oberaargau"},"canton":{"key":"2","code":"BE","name":"Bern / Berne"},"status":"Real"},{"key":"10219653","name":"Hasenmatt","postalCode":"3375","locality":"Inkwil","commune":{"key":"980","name":"Inkwil","shortName":"Inkwil"},"district":{"key":"244","name":"Verwaltungskreis Oberaargau"},"canton":{"key":"2","code":"BE","name":"Bern / Berne"},"status":"Real"},{"key":"10075439","name":"Hertiackerstrasse","postalCode":"3375","locality":"Inkwil","commune":{"key":"980","name":"Inkwil","shortName":"Inkwil"},"district":{"key":"244","name":"Verwaltungskreis Oberaargau"},"canton":{"key":"2","code":"BE","name":"Bern / Berne"},"status":"Real"},{"key":"10123180","name":"Hölzlistrasse","postalCode":"3375","locality":"Inkwil","commune":{"key":"980","name":"Inkwil","shortName":"Inkwil"},"district":{"key":"244","name":"Verwaltungskreis Oberaargau"},"canton":{"key":"2","code":"BE","name":"Bern / Berne"},"status":"Real"},{"key":"10012990","name":"Jurastrasse","postalCode":"3375","locality":"Inkwil","commune":{"key":"980","name":"Inkwil","shortName":"Inkwil"},"district":{"key":"244","name":"Verwaltungskreis Oberaargau"},"canton":{"key":"2","code":"BE","name":"Bern / Berne"},"status":"Real"},{"key":"10012991","name":"Käsereistrasse","postalCode":"3375","locality":"Inkwil","commune":{"key":"980","name":"Inkwil","shortName":"Inkwil"},"district":{"key":"244","name":"Verwaltungskreis Oberaargau"},"canton":{"key":"2","code":"BE","name":"Bern / Berne"},"status":"Real"},{"key":"10065206","name":"Moosstrasse","postalCode":"3375","locality":"Inkwil","commune":{"key":"980","name":"Inkwil","shortName":"Inkwil"},"district":{"key":"244","name":"Verwaltungskreis Oberaargau"},"canton":{"key":"2","code":"BE","name":"Bern / Berne"},"status":"Real"},{"key":"10219657","name":"Moosweg","postalCode":"3375","locality":"Inkwil","commune":{"key":"980","name":"Inkwil","shortName":"Inkwil"},"district":{"key":"244","name":"Verwaltungskreis Oberaargau"},"canton":{"key":"2","code":"BE","name":"Bern / Berne"},"status":"Real"},{"key":"10179065","name":"Niederönzstrasse","postalCode":"3375","locality":"Inkwil","commune":{"key":"980","name":"Inkwil","shortName":"Inkwil"},"district":{"key":"244","name":"Verwaltungskreis Oberaargau"},"canton":{"key":"2","code":"BE","name":"Bern / Berne"},"status":"Real"},{"key":"10219661","name":"Oberfeldweg","postalCode":"3375","locality":"Inkwil","commune":{"key":"980","name":"Inkwil","shortName":"Inkwil"},"district":{"key":"244","name":"Verwaltungskreis Oberaargau"},"canton":{"key":"2","code":"BE","name":"Bern / Berne"},"status":"Real"},{"key":"10075440","name":"Oenzbergstrasse","postalCode":"3375","locality":"Inkwil","commune":{"key":"980","name":"Inkwil","shortName":"Inkwil"},"district":{"key":"244","name":"Verwaltungskreis Oberaargau"},"canton":{"key":"2","code":"BE","name":"Bern / Berne"},"status":"Real"},{"key":"10040021","name":"Ringstrasse","postalCode":"3375","locality":"Inkwil","commune":{"key":"980","name":"Inkwil","shortName":"Inkwil"},"district":{"key":"244","name":"Verwaltungskreis Oberaargau"},"canton":{"key":"2","code":"BE","name":"Bern / Berne"},"status":"Real"},{"key":"10187207","name":"Rosenweg","postalCode":"3375","locality":"Inkwil","commune":{"key":"980","name":"Inkwil","shortName":"Inkwil"},"district":{"key":"244","name":"Verwaltungskreis Oberaargau"},"canton":{"key":"2","code":"BE","name":"Bern / Berne"},"status":"Real"},{"key":"10189946","name":"Röthenbachstrasse","postalCode":"3375","locality":"Inkwil","commune":{"key":"980","name":"Inkwil","shortName":"Inkwil"},"district":{"key":"244","name":"Verwaltungskreis Oberaargau"},"canton":{"key":"2","code":"BE","name":"Bern / Berne"},"status":"Real"},{"key":"10219665","name":"Röthenbachweg","postalCode":"3375","locality":"Inkwil","commune":{"key":"980","name":"Inkwil","shortName":"Inkwil"},"district":{"key":"244","name":"Verwaltungskreis Oberaargau"},"canton":{"key":"2","code":"BE","name":"Bern / Berne"},"status":"Real"},{"key":"10040022","name":"Schulstrasse","postalCode":"3375","locality":"Inkwil","commune":{"key":"980","name":"Inkwil","shortName":"Inkwil"},"district":{"key":"244","name":"Verwaltungskreis Oberaargau"},"canton":{"key":"2","code":"BE","name":"Bern / Berne"},"status":"Real"},{"key":"10012992","name":"Seegasse","postalCode":"3375","locality":"Inkwil","commune":{"key":"980","name":"Inkwil","shortName":"Inkwil"},"district":{"key":"244","name":"Verwaltungskreis Oberaargau"},"canton":{"key":"2","code":"BE","name":"Bern / Berne"},"status":"Real"},{"key":"10012993","name":"Stationsweg","postalCode":"3375","locality":"Inkwil","commune":{"key":"980","name":"Inkwil","shortName":"Inkwil"},"district":{"key":"244","name":"Verwaltungskreis Oberaargau"},"canton":{"key":"2","code":"BE","name":"Bern / Berne"},"status":"Real"},{"key":"10075441","name":"Subingenstrasse","postalCode":"3375","locality":"Inkwil","commune":{"key":"980","name":"Inkwil","shortName":"Inkwil"},"district":{"key":"244","name":"Verwaltungskreis Oberaargau"},"canton":{"key":"2","code":"BE","name":"Bern / Berne"},"status":"Real"},{"key":"10040023","name":"Tannwäldlistrasse","postalCode":"3375","locality":"Inkwil","commune":{"key":"980","name":"Inkwil","shortName":"Inkwil"},"district":{"key":"244","name":"Verwaltungskreis Oberaargau"},"canton":{"key":"2","code":"BE","name":"Bern / Berne"},"status":"Real"},{"key":"10218858","name":"Tulpenweg","postalCode":"3375","locality":"Inkwil","commune":{"key":"980","name":"Inkwil","shortName":"Inkwil"},"district":{"key":"244","name":"Verwaltungskreis Oberaargau"},"canton":{"key":"2","code":"BE","name":"Bern / Berne"},"status":"Real"},{"key":"10065207","name":"Vorstatt","postalCode":"3375","locality":"Inkwil","commune":{"key":"980","name":"Inkwil","shortName":"Inkwil"},"district":{"key":"244","name":"Verwaltungskreis Oberaargau"},"canton":{"key":"2","code":"BE","name":"Bern / Berne"},"status":"Real"},{"key":"10012994","name":"Wangenriedstrasse","postalCode":"3375","locality":"Inkwil","commune":{"key":"980","name":"Inkwil","shortName":"Inkwil"},"district":{"key":"244","name":"Verwaltungskreis Oberaargau"},"canton":{"key":"2","code":"BE","name":"Bern / Berne"},"status":"Real"},]