[{"name":"An der alten Schule","postalCode":"17429","locality":"Mellenthin","municipality":{"key":"13075090","name":"Mellenthin","type":"Kreisangehörige_Gemeinde"},"district":{"key":"13075","name":"Vorpommern-Greifswald","type":"Landkreis"},"federalState":{"key":"13","name":"Mecklenburg-Vorpommern"}},{"name":"Chausseeberg","postalCode":"17429","locality":"Mellenthin","municipality":{"key":"13075090","name":"Mellenthin","type":"Kreisangehörige_Gemeinde"},"district":{"key":"13075","name":"Vorpommern-Greifswald","type":"Landkreis"},"federalState":{"key":"13","name":"Mecklenburg-Vorpommern"}},{"name":"Dewichower Str.","postalCode":"17429","locality":"Mellenthin","municipality":{"key":"13075090","name":"Mellenthin","type":"Kreisangehörige_Gemeinde"},"district":{"key":"13075","name":"Vorpommern-Greifswald","type":"Landkreis"},"federalState":{"key":"13","name":"Mecklenburg-Vorpommern"}},{"name":"Grüne Trift","postalCode":"17429","locality":"Mellenthin","municipality":{"key":"13075090","name":"Mellenthin","type":"Kreisangehörige_Gemeinde"},"district":{"key":"13075","name":"Vorpommern-Greifswald","type":"Landkreis"},"federalState":{"key":"13","name":"Mecklenburg-Vorpommern"}},{"name":"Kirchallee","postalCode":"17429","locality":"Mellenthin","municipality":{"key":"13075090","name":"Mellenthin","type":"Kreisangehörige_Gemeinde"},"district":{"key":"13075","name":"Vorpommern-Greifswald","type":"Landkreis"},"federalState":{"key":"13","name":"Mecklenburg-Vorpommern"}},{"name":"Lindenallee","postalCode":"17429","locality":"Mellenthin","municipality":{"key":"13075090","name":"Mellenthin","type":"Kreisangehörige_Gemeinde"},"district":{"key":"13075","name":"Vorpommern-Greifswald","type":"Landkreis"},"federalState":{"key":"13","name":"Mecklenburg-Vorpommern"}},{"name":"Morgenitzer Berg","postalCode":"17429","locality":"Mellenthin","municipality":{"key":"13075090","name":"Mellenthin","type":"Kreisangehörige_Gemeinde"},"district":{"key":"13075","name":"Vorpommern-Greifswald","type":"Landkreis"},"federalState":{"key":"13","name":"Mecklenburg-Vorpommern"}},{"name":"Schlossallee","postalCode":"17429","locality":"Mellenthin","municipality":{"key":"13075090","name":"Mellenthin","type":"Kreisangehörige_Gemeinde"},"district":{"key":"13075","name":"Vorpommern-Greifswald","type":"Landkreis"},"federalState":{"key":"13","name":"Mecklenburg-Vorpommern"}},{"name":"Stolper Postweg","postalCode":"17429","locality":"Mellenthin","municipality":{"key":"13075090","name":"Mellenthin","type":"Kreisangehörige_Gemeinde"},"district":{"key":"13075","name":"Vorpommern-Greifswald","type":"Landkreis"},"federalState":{"key":"13","name":"Mecklenburg-Vorpommern"}},{"name":"Suckower Str.","postalCode":"17429","locality":"Mellenthin","municipality":{"key":"13075090","name":"Mellenthin","type":"Kreisangehörige_Gemeinde"},"district":{"key":"13075","name":"Vorpommern-Greifswald","type":"Landkreis"},"federalState":{"key":"13","name":"Mecklenburg-Vorpommern"}},{"name":"Töpferstr.","postalCode":"17429","locality":"Mellenthin","municipality":{"key":"13075090","name":"Mellenthin","type":"Kreisangehörige_Gemeinde"},"district":{"key":"13075","name":"Vorpommern-Greifswald","type":"Landkreis"},"federalState":{"key":"13","name":"Mecklenburg-Vorpommern"}},{"name":"Wiesenweg","postalCode":"17429","locality":"Mellenthin","municipality":{"key":"13075090","name":"Mellenthin","type":"Kreisangehörige_Gemeinde"},"district":{"key":"13075","name":"Vorpommern-Greifswald","type":"Landkreis"},"federalState":{"key":"13","name":"Mecklenburg-Vorpommern"}},{"name":"Zum Baumberg","postalCode":"17429","locality":"Mellenthin","municipality":{"key":"13075090","name":"Mellenthin","type":"Kreisangehörige_Gemeinde"},"district":{"key":"13075","name":"Vorpommern-Greifswald","type":"Landkreis"},"federalState":{"key":"13","name":"Mecklenburg-Vorpommern"}},]