[{"name":"Am Heidkamp","postalCode":"27327","locality":"Schwarme","municipality":{"key":"03251033","name":"Schwarme","type":"Kreisangehörige_Gemeinde"},"district":{"key":"03251","name":"Diepholz","type":"Landkreis"},"federalState":{"key":"03","name":"Niedersachsen"}},{"name":"Am Moor","postalCode":"27327","locality":"Schwarme","municipality":{"key":"03251033","name":"Schwarme","type":"Kreisangehörige_Gemeinde"},"district":{"key":"03251","name":"Diepholz","type":"Landkreis"},"federalState":{"key":"03","name":"Niedersachsen"}},{"name":"Ancinner Ring","postalCode":"27327","locality":"Schwarme","municipality":{"key":"03251033","name":"Schwarme","type":"Kreisangehörige_Gemeinde"},"district":{"key":"03251","name":"Diepholz","type":"Landkreis"},"federalState":{"key":"03","name":"Niedersachsen"}},{"name":"An der Eiter","postalCode":"27327","locality":"Schwarme","municipality":{"key":"03251033","name":"Schwarme","type":"Kreisangehörige_Gemeinde"},"district":{"key":"03251","name":"Diepholz","type":"Landkreis"},"federalState":{"key":"03","name":"Niedersachsen"}},{"name":"An der Heide","postalCode":"27327","locality":"Schwarme","municipality":{"key":"03251033","name":"Schwarme","type":"Kreisangehörige_Gemeinde"},"district":{"key":"03251","name":"Diepholz","type":"Landkreis"},"federalState":{"key":"03","name":"Niedersachsen"}},{"name":"An der Herrlichkeit","postalCode":"27327","locality":"Schwarme","municipality":{"key":"03251033","name":"Schwarme","type":"Kreisangehörige_Gemeinde"},"district":{"key":"03251","name":"Diepholz","type":"Landkreis"},"federalState":{"key":"03","name":"Niedersachsen"}},{"name":"Auf der Brake","postalCode":"27327","locality":"Schwarme","municipality":{"key":"03251033","name":"Schwarme","type":"Kreisangehörige_Gemeinde"},"district":{"key":"03251","name":"Diepholz","type":"Landkreis"},"federalState":{"key":"03","name":"Niedersachsen"}},{"name":"Augustusburger Str.","postalCode":"27327","locality":"Schwarme","municipality":{"key":"03251033","name":"Schwarme","type":"Kreisangehörige_Gemeinde"},"district":{"key":"03251","name":"Diepholz","type":"Landkreis"},"federalState":{"key":"03","name":"Niedersachsen"}},{"name":"Benzkamp","postalCode":"27327","locality":"Schwarme","municipality":{"key":"03251033","name":"Schwarme","type":"Kreisangehörige_Gemeinde"},"district":{"key":"03251","name":"Diepholz","type":"Landkreis"},"federalState":{"key":"03","name":"Niedersachsen"}},{"name":"Beppener Str.","postalCode":"27327","locality":"Schwarme","municipality":{"key":"03251033","name":"Schwarme","type":"Kreisangehörige_Gemeinde"},"district":{"key":"03251","name":"Diepholz","type":"Landkreis"},"federalState":{"key":"03","name":"Niedersachsen"}},{"name":"Berliner Str.","postalCode":"27327","locality":"Schwarme","municipality":{"key":"03251033","name":"Schwarme","type":"Kreisangehörige_Gemeinde"},"district":{"key":"03251","name":"Diepholz","type":"Landkreis"},"federalState":{"key":"03","name":"Niedersachsen"}},{"name":"Borsteler Str.","postalCode":"27327","locality":"Schwarme","municipality":{"key":"03251033","name":"Schwarme","type":"Kreisangehörige_Gemeinde"},"district":{"key":"03251","name":"Diepholz","type":"Landkreis"},"federalState":{"key":"03","name":"Niedersachsen"}},{"name":"Bremer Str.","postalCode":"27327","locality":"Schwarme","municipality":{"key":"03251033","name":"Schwarme","type":"Kreisangehörige_Gemeinde"},"district":{"key":"03251","name":"Diepholz","type":"Landkreis"},"federalState":{"key":"03","name":"Niedersachsen"}},{"name":"Breslauer Str.","postalCode":"27327","locality":"Schwarme","municipality":{"key":"03251033","name":"Schwarme","type":"Kreisangehörige_Gemeinde"},"district":{"key":"03251","name":"Diepholz","type":"Landkreis"},"federalState":{"key":"03","name":"Niedersachsen"}},{"name":"Bruchhausener Str.","postalCode":"27327","locality":"Schwarme","municipality":{"key":"03251033","name":"Schwarme","type":"Kreisangehörige_Gemeinde"},"district":{"key":"03251","name":"Diepholz","type":"Landkreis"},"federalState":{"key":"03","name":"Niedersachsen"}},{"name":"Bruchweg","postalCode":"27327","locality":"Schwarme","municipality":{"key":"03251033","name":"Schwarme","type":"Kreisangehörige_Gemeinde"},"district":{"key":"03251","name":"Diepholz","type":"Landkreis"},"federalState":{"key":"03","name":"Niedersachsen"}},{"name":"Coorskamp","postalCode":"27327","locality":"Schwarme","municipality":{"key":"03251033","name":"Schwarme","type":"Kreisangehörige_Gemeinde"},"district":{"key":"03251","name":"Diepholz","type":"Landkreis"},"federalState":{"key":"03","name":"Niedersachsen"}},{"name":"Danziger Str.","postalCode":"27327","locality":"Schwarme","municipality":{"key":"03251033","name":"Schwarme","type":"Kreisangehörige_Gemeinde"},"district":{"key":"03251","name":"Diepholz","type":"Landkreis"},"federalState":{"key":"03","name":"Niedersachsen"}},{"name":"Ditzenkamp","postalCode":"27327","locality":"Schwarme","municipality":{"key":"03251033","name":"Schwarme","type":"Kreisangehörige_Gemeinde"},"district":{"key":"03251","name":"Diepholz","type":"Landkreis"},"federalState":{"key":"03","name":"Niedersachsen"}},{"name":"Dobbendamm","postalCode":"27327","locality":"Schwarme","municipality":{"key":"03251033","name":"Schwarme","type":"Kreisangehörige_Gemeinde"},"district":{"key":"03251","name":"Diepholz","type":"Landkreis"},"federalState":{"key":"03","name":"Niedersachsen"}},{"name":"Eichengrund","postalCode":"27327","locality":"Schwarme","municipality":{"key":"03251033","name":"Schwarme","type":"Kreisangehörige_Gemeinde"},"district":{"key":"03251","name":"Diepholz","type":"Landkreis"},"federalState":{"key":"03","name":"Niedersachsen"}},{"name":"Einster Str.","postalCode":"27327","locality":"Schwarme","municipality":{"key":"03251033","name":"Schwarme","type":"Kreisangehörige_Gemeinde"},"district":{"key":"03251","name":"Diepholz","type":"Landkreis"},"federalState":{"key":"03","name":"Niedersachsen"}},{"name":"Forststr.","postalCode":"27327","locality":"Schwarme","municipality":{"key":"03251033","name":"Schwarme","type":"Kreisangehörige_Gemeinde"},"district":{"key":"03251","name":"Diepholz","type":"Landkreis"},"federalState":{"key":"03","name":"Niedersachsen"}},{"name":"Glatzer Str.","postalCode":"27327","locality":"Schwarme","municipality":{"key":"03251033","name":"Schwarme","type":"Kreisangehörige_Gemeinde"},"district":{"key":"03251","name":"Diepholz","type":"Landkreis"},"federalState":{"key":"03","name":"Niedersachsen"}},{"name":"Haferkamp","postalCode":"27327","locality":"Schwarme","municipality":{"key":"03251033","name":"Schwarme","type":"Kreisangehörige_Gemeinde"},"district":{"key":"03251","name":"Diepholz","type":"Landkreis"},"federalState":{"key":"03","name":"Niedersachsen"}},{"name":"Hauendamm","postalCode":"27327","locality":"Schwarme","municipality":{"key":"03251033","name":"Schwarme","type":"Kreisangehörige_Gemeinde"},"district":{"key":"03251","name":"Diepholz","type":"Landkreis"},"federalState":{"key":"03","name":"Niedersachsen"}},{"name":"Hauptstr.","postalCode":"27327","locality":"Schwarme","municipality":{"key":"03251033","name":"Schwarme","type":"Kreisangehörige_Gemeinde"},"district":{"key":"03251","name":"Diepholz","type":"Landkreis"},"federalState":{"key":"03","name":"Niedersachsen"}},{"name":"Hörstener Str.","postalCode":"27327","locality":"Schwarme","municipality":{"key":"03251033","name":"Schwarme","type":"Kreisangehörige_Gemeinde"},"district":{"key":"03251","name":"Diepholz","type":"Landkreis"},"federalState":{"key":"03","name":"Niedersachsen"}},{"name":"Hoyaer Str.","postalCode":"27327","locality":"Schwarme","municipality":{"key":"03251033","name":"Schwarme","type":"Kreisangehörige_Gemeinde"},"district":{"key":"03251","name":"Diepholz","type":"Landkreis"},"federalState":{"key":"03","name":"Niedersachsen"}},{"name":"Hünkenweg","postalCode":"27327","locality":"Schwarme","municipality":{"key":"03251033","name":"Schwarme","type":"Kreisangehörige_Gemeinde"},"district":{"key":"03251","name":"Diepholz","type":"Landkreis"},"federalState":{"key":"03","name":"Niedersachsen"}},{"name":"Im Dreieck","postalCode":"27327","locality":"Schwarme","municipality":{"key":"03251033","name":"Schwarme","type":"Kreisangehörige_Gemeinde"},"district":{"key":"03251","name":"Diepholz","type":"Landkreis"},"federalState":{"key":"03","name":"Niedersachsen"}},{"name":"Im Fleut","postalCode":"27327","locality":"Schwarme","municipality":{"key":"03251033","name":"Schwarme","type":"Kreisangehörige_Gemeinde"},"district":{"key":"03251","name":"Diepholz","type":"Landkreis"},"federalState":{"key":"03","name":"Niedersachsen"}},{"name":"In der Weide","postalCode":"27327","locality":"Schwarme","municipality":{"key":"03251033","name":"Schwarme","type":"Kreisangehörige_Gemeinde"},"district":{"key":"03251","name":"Diepholz","type":"Landkreis"},"federalState":{"key":"03","name":"Niedersachsen"}},{"name":"Jahnstr.","postalCode":"49356","locality":"Diepholz","municipality":{"key":"03251012","name":"Diepholz, Stadt","type":"Stadt"},"district":{"key":"03251","name":"Diepholz","type":"Landkreis"},"federalState":{"key":"03","name":"Niedersachsen"}},{"name":"Johannstr.","postalCode":"49356","locality":"Diepholz","municipality":{"key":"03251012","name":"Diepholz, Stadt","type":"Stadt"},"district":{"key":"03251","name":"Diepholz","type":"Landkreis"},"federalState":{"key":"03","name":"Niedersachsen"}},{"name":"Julius-Leber-Str.","postalCode":"49356","locality":"Diepholz","municipality":{"key":"03251012","name":"Diepholz, Stadt","type":"Stadt"},"district":{"key":"03251","name":"Diepholz","type":"Landkreis"},"federalState":{"key":"03","name":"Niedersachsen"}},{"name":"Kirchstr.","postalCode":"27327","locality":"Schwarme","municipality":{"key":"03251033","name":"Schwarme","type":"Kreisangehörige_Gemeinde"},"district":{"key":"03251","name":"Diepholz","type":"Landkreis"},"federalState":{"key":"03","name":"Niedersachsen"}},{"name":"Kirchweg","postalCode":"27327","locality":"Schwarme","municipality":{"key":"03251033","name":"Schwarme","type":"Kreisangehörige_Gemeinde"},"district":{"key":"03251","name":"Diepholz","type":"Landkreis"},"federalState":{"key":"03","name":"Niedersachsen"}},{"name":"Klinkerweg","postalCode":"27327","locality":"Schwarme","municipality":{"key":"03251033","name":"Schwarme","type":"Kreisangehörige_Gemeinde"},"district":{"key":"03251","name":"Diepholz","type":"Landkreis"},"federalState":{"key":"03","name":"Niedersachsen"}},{"name":"Königsberger Str.","postalCode":"27327","locality":"Schwarme","municipality":{"key":"03251033","name":"Schwarme","type":"Kreisangehörige_Gemeinde"},"district":{"key":"03251","name":"Diepholz","type":"Landkreis"},"federalState":{"key":"03","name":"Niedersachsen"}},{"name":"Lindemanns Kamp","postalCode":"27327","locality":"Schwarme","municipality":{"key":"03251033","name":"Schwarme","type":"Kreisangehörige_Gemeinde"},"district":{"key":"03251","name":"Diepholz","type":"Landkreis"},"federalState":{"key":"03","name":"Niedersachsen"}},{"name":"Lütjenkamp","postalCode":"27327","locality":"Schwarme","municipality":{"key":"03251033","name":"Schwarme","type":"Kreisangehörige_Gemeinde"},"district":{"key":"03251","name":"Diepholz","type":"Landkreis"},"federalState":{"key":"03","name":"Niedersachsen"}},{"name":"Martfelder Weg","postalCode":"27327","locality":"Schwarme","municipality":{"key":"03251033","name":"Schwarme","type":"Kreisangehörige_Gemeinde"},"district":{"key":"03251","name":"Diepholz","type":"Landkreis"},"federalState":{"key":"03","name":"Niedersachsen"}},{"name":"Mühlenweg","postalCode":"27327","locality":"Schwarme","municipality":{"key":"03251033","name":"Schwarme","type":"Kreisangehörige_Gemeinde"},"district":{"key":"03251","name":"Diepholz","type":"Landkreis"},"federalState":{"key":"03","name":"Niedersachsen"}},{"name":"Neenstatt","postalCode":"49356","locality":"Diepholz","municipality":{"key":"03251012","name":"Diepholz, Stadt","type":"Stadt"},"district":{"key":"03251","name":"Diepholz","type":"Landkreis"},"federalState":{"key":"03","name":"Niedersachsen"}},{"name":"Neißeweg","postalCode":"49356","locality":"Diepholz","municipality":{"key":"03251012","name":"Diepholz, Stadt","type":"Stadt"},"district":{"key":"03251","name":"Diepholz","type":"Landkreis"},"federalState":{"key":"03","name":"Niedersachsen"}},{"name":"Neuer Moordamm","postalCode":"49356","locality":"Diepholz","municipality":{"key":"03251012","name":"Diepholz, Stadt","type":"Stadt"},"district":{"key":"03251","name":"Diepholz","type":"Landkreis"},"federalState":{"key":"03","name":"Niedersachsen"}},{"name":"Niedersachsenstr.","postalCode":"49356","locality":"Diepholz","municipality":{"key":"03251012","name":"Diepholz, Stadt","type":"Stadt"},"district":{"key":"03251","name":"Diepholz","type":"Landkreis"},"federalState":{"key":"03","name":"Niedersachsen"}},{"name":"Nutloer Weg","postalCode":"49356","locality":"Diepholz","municipality":{"key":"03251012","name":"Diepholz, Stadt","type":"Stadt"},"district":{"key":"03251","name":"Diepholz","type":"Landkreis"},"federalState":{"key":"03","name":"Niedersachsen"}},{"name":"Oppelner Str.","postalCode":"27327","locality":"Schwarme","municipality":{"key":"03251033","name":"Schwarme","type":"Kreisangehörige_Gemeinde"},"district":{"key":"03251","name":"Diepholz","type":"Landkreis"},"federalState":{"key":"03","name":"Niedersachsen"}},{"name":"Papingsweg","postalCode":"49356","locality":"Diepholz","municipality":{"key":"03251012","name":"Diepholz, Stadt","type":"Stadt"},"district":{"key":"03251","name":"Diepholz","type":"Landkreis"},"federalState":{"key":"03","name":"Niedersachsen"}},{"name":"Pappelweg","postalCode":"49356","locality":"Diepholz","municipality":{"key":"03251012","name":"Diepholz, Stadt","type":"Stadt"},"district":{"key":"03251","name":"Diepholz","type":"Landkreis"},"federalState":{"key":"03","name":"Niedersachsen"}},{"name":"Parkweg","postalCode":"49356","locality":"Diepholz","municipality":{"key":"03251012","name":"Diepholz, Stadt","type":"Stadt"},"district":{"key":"03251","name":"Diepholz","type":"Landkreis"},"federalState":{"key":"03","name":"Niedersachsen"}},{"name":"Pelsters Weg","postalCode":"49356","locality":"Diepholz","municipality":{"key":"03251012","name":"Diepholz, Stadt","type":"Stadt"},"district":{"key":"03251","name":"Diepholz","type":"Landkreis"},"federalState":{"key":"03","name":"Niedersachsen"}},{"name":"Philosophenweg","postalCode":"49356","locality":"Diepholz","municipality":{"key":"03251012","name":"Diepholz, Stadt","type":"Stadt"},"district":{"key":"03251","name":"Diepholz","type":"Landkreis"},"federalState":{"key":"03","name":"Niedersachsen"}},{"name":"Pommernstr.","postalCode":"49356","locality":"Diepholz","municipality":{"key":"03251012","name":"Diepholz, Stadt","type":"Stadt"},"district":{"key":"03251","name":"Diepholz","type":"Landkreis"},"federalState":{"key":"03","name":"Niedersachsen"}},{"name":"Postdamm","postalCode":"49356","locality":"Diepholz","municipality":{"key":"03251012","name":"Diepholz, Stadt","type":"Stadt"},"district":{"key":"03251","name":"Diepholz","type":"Landkreis"},"federalState":{"key":"03","name":"Niedersachsen"}},{"name":"Pregelweg","postalCode":"49356","locality":"Diepholz","municipality":{"key":"03251012","name":"Diepholz, Stadt","type":"Stadt"},"district":{"key":"03251","name":"Diepholz","type":"Landkreis"},"federalState":{"key":"03","name":"Niedersachsen"}},{"name":"Prinzhornstr.","postalCode":"49356","locality":"Diepholz","municipality":{"key":"03251012","name":"Diepholz, Stadt","type":"Stadt"},"district":{"key":"03251","name":"Diepholz","type":"Landkreis"},"federalState":{"key":"03","name":"Niedersachsen"}},{"name":"Quelleweg","postalCode":"49356","locality":"Diepholz","municipality":{"key":"03251012","name":"Diepholz, Stadt","type":"Stadt"},"district":{"key":"03251","name":"Diepholz","type":"Landkreis"},"federalState":{"key":"03","name":"Niedersachsen"}},{"name":"Roggenkamp","postalCode":"27327","locality":"Schwarme","municipality":{"key":"03251033","name":"Schwarme","type":"Kreisangehörige_Gemeinde"},"district":{"key":"03251","name":"Diepholz","type":"Landkreis"},"federalState":{"key":"03","name":"Niedersachsen"}},{"name":"Rosenweg","postalCode":"27327","locality":"Schwarme","municipality":{"key":"03251033","name":"Schwarme","type":"Kreisangehörige_Gemeinde"},"district":{"key":"03251","name":"Diepholz","type":"Landkreis"},"federalState":{"key":"03","name":"Niedersachsen"}},{"name":"Rotbuchenweg","postalCode":"27327","locality":"Schwarme","municipality":{"key":"03251033","name":"Schwarme","type":"Kreisangehörige_Gemeinde"},"district":{"key":"03251","name":"Diepholz","type":"Landkreis"},"federalState":{"key":"03","name":"Niedersachsen"}},{"name":"Sprakener Str.","postalCode":"27327","locality":"Schwarme","municipality":{"key":"03251033","name":"Schwarme","type":"Kreisangehörige_Gemeinde"},"district":{"key":"03251","name":"Diepholz","type":"Landkreis"},"federalState":{"key":"03","name":"Niedersachsen"}},{"name":"Stettiner Str.","postalCode":"27327","locality":"Schwarme","municipality":{"key":"03251033","name":"Schwarme","type":"Kreisangehörige_Gemeinde"},"district":{"key":"03251","name":"Diepholz","type":"Landkreis"},"federalState":{"key":"03","name":"Niedersachsen"}},{"name":"Stüringsweg","postalCode":"27327","locality":"Schwarme","municipality":{"key":"03251033","name":"Schwarme","type":"Kreisangehörige_Gemeinde"},"district":{"key":"03251","name":"Diepholz","type":"Landkreis"},"federalState":{"key":"03","name":"Niedersachsen"}},{"name":"Tulpenweg","postalCode":"27327","locality":"Schwarme","municipality":{"key":"03251033","name":"Schwarme","type":"Kreisangehörige_Gemeinde"},"district":{"key":"03251","name":"Diepholz","type":"Landkreis"},"federalState":{"key":"03","name":"Niedersachsen"}},{"name":"Uhlenbruchsdamm","postalCode":"27327","locality":"Schwarme","municipality":{"key":"03251033","name":"Schwarme","type":"Kreisangehörige_Gemeinde"},"district":{"key":"03251","name":"Diepholz","type":"Landkreis"},"federalState":{"key":"03","name":"Niedersachsen"}},{"name":"Unter den Eichen","postalCode":"27327","locality":"Schwarme","municipality":{"key":"03251033","name":"Schwarme","type":"Kreisangehörige_Gemeinde"},"district":{"key":"03251","name":"Diepholz","type":"Landkreis"},"federalState":{"key":"03","name":"Niedersachsen"}},{"name":"Unter den Linden","postalCode":"27327","locality":"Schwarme","municipality":{"key":"03251033","name":"Schwarme","type":"Kreisangehörige_Gemeinde"},"district":{"key":"03251","name":"Diepholz","type":"Landkreis"},"federalState":{"key":"03","name":"Niedersachsen"}},{"name":"Verdener Str.","postalCode":"27327","locality":"Schwarme","municipality":{"key":"03251033","name":"Schwarme","type":"Kreisangehörige_Gemeinde"},"district":{"key":"03251","name":"Diepholz","type":"Landkreis"},"federalState":{"key":"03","name":"Niedersachsen"}},{"name":"Vorwiese","postalCode":"27327","locality":"Schwarme","municipality":{"key":"03251033","name":"Schwarme","type":"Kreisangehörige_Gemeinde"},"district":{"key":"03251","name":"Diepholz","type":"Landkreis"},"federalState":{"key":"03","name":"Niedersachsen"}},{"name":"Waldblick","postalCode":"27327","locality":"Schwarme","municipality":{"key":"03251033","name":"Schwarme","type":"Kreisangehörige_Gemeinde"},"district":{"key":"03251","name":"Diepholz","type":"Landkreis"},"federalState":{"key":"03","name":"Niedersachsen"}},{"name":"Waldstr.","postalCode":"27327","locality":"Schwarme","municipality":{"key":"03251033","name":"Schwarme","type":"Kreisangehörige_Gemeinde"},"district":{"key":"03251","name":"Diepholz","type":"Landkreis"},"federalState":{"key":"03","name":"Niedersachsen"}},{"name":"Wilmsweg","postalCode":"27327","locality":"Schwarme","municipality":{"key":"03251033","name":"Schwarme","type":"Kreisangehörige_Gemeinde"},"district":{"key":"03251","name":"Diepholz","type":"Landkreis"},"federalState":{"key":"03","name":"Niedersachsen"}},{"name":"Zeppelinstr.","postalCode":"49356","locality":"Diepholz","municipality":{"key":"03251012","name":"Diepholz, Stadt","type":"Stadt"},"district":{"key":"03251","name":"Diepholz","type":"Landkreis"},"federalState":{"key":"03","name":"Niedersachsen"}},{"name":"Ziegeleiweg","postalCode":"49356","locality":"Diepholz","municipality":{"key":"03251012","name":"Diepholz, Stadt","type":"Stadt"},"district":{"key":"03251","name":"Diepholz","type":"Landkreis"},"federalState":{"key":"03","name":"Niedersachsen"}},{"name":"Zum Lehmstich","postalCode":"49356","locality":"Diepholz","municipality":{"key":"03251012","name":"Diepholz, Stadt","type":"Stadt"},"district":{"key":"03251","name":"Diepholz","type":"Landkreis"},"federalState":{"key":"03","name":"Niedersachsen"}},{"name":"Zur Heide","postalCode":"49356","locality":"Diepholz","municipality":{"key":"03251012","name":"Diepholz, Stadt","type":"Stadt"},"district":{"key":"03251","name":"Diepholz","type":"Landkreis"},"federalState":{"key":"03","name":"Niedersachsen"}},{"name":"Zur Kleinbahn","postalCode":"49356","locality":"Diepholz","municipality":{"key":"03251012","name":"Diepholz, Stadt","type":"Stadt"},"district":{"key":"03251","name":"Diepholz","type":"Landkreis"},"federalState":{"key":"03","name":"Niedersachsen"}},{"name":"Zwickertstr.","postalCode":"49356","locality":"Diepholz","municipality":{"key":"03251012","name":"Diepholz, Stadt","type":"Stadt"},"district":{"key":"03251","name":"Diepholz","type":"Landkreis"},"federalState":{"key":"03","name":"Niedersachsen"}},]