[{"name":"Abt-Bürgi-Str.","postalCode":"79271","locality":"St. Peter","municipality":{"key":"08315095","name":"St. Peter","type":"Kreisangehörige_Gemeinde"},"district":{"key":"08315","name":"Breisgau-Hochschwarzwald","type":"Landkreis"},"federalState":{"key":"08","name":"Baden-Württemberg"}},{"name":"Allmendweg","postalCode":"79271","locality":"St. Peter","municipality":{"key":"08315095","name":"St. Peter","type":"Kreisangehörige_Gemeinde"},"district":{"key":"08315","name":"Breisgau-Hochschwarzwald","type":"Landkreis"},"federalState":{"key":"08","name":"Baden-Württemberg"}},{"name":"Alter Weg","postalCode":"79271","locality":"St. Peter","municipality":{"key":"08315095","name":"St. Peter","type":"Kreisangehörige_Gemeinde"},"district":{"key":"08315","name":"Breisgau-Hochschwarzwald","type":"Landkreis"},"federalState":{"key":"08","name":"Baden-Württemberg"}},{"name":"Am Birkenrain","postalCode":"79271","locality":"St. Peter","municipality":{"key":"08315095","name":"St. Peter","type":"Kreisangehörige_Gemeinde"},"district":{"key":"08315","name":"Breisgau-Hochschwarzwald","type":"Landkreis"},"federalState":{"key":"08","name":"Baden-Württemberg"}},{"name":"Am Scheuerwald","postalCode":"79271","locality":"St. Peter","municipality":{"key":"08315095","name":"St. Peter","type":"Kreisangehörige_Gemeinde"},"district":{"key":"08315","name":"Breisgau-Hochschwarzwald","type":"Landkreis"},"federalState":{"key":"08","name":"Baden-Württemberg"}},{"name":"Auf der Eck","postalCode":"79271","locality":"St. Peter","municipality":{"key":"08315095","name":"St. Peter","type":"Kreisangehörige_Gemeinde"},"district":{"key":"08315","name":"Breisgau-Hochschwarzwald","type":"Landkreis"},"federalState":{"key":"08","name":"Baden-Württemberg"}},{"name":"Bodenhurstweg","postalCode":"79271","locality":"St. Peter","municipality":{"key":"08315095","name":"St. Peter","type":"Kreisangehörige_Gemeinde"},"district":{"key":"08315","name":"Breisgau-Hochschwarzwald","type":"Landkreis"},"federalState":{"key":"08","name":"Baden-Württemberg"}},{"name":"Brückleweg","postalCode":"79271","locality":"St. Peter","municipality":{"key":"08315095","name":"St. Peter","type":"Kreisangehörige_Gemeinde"},"district":{"key":"08315","name":"Breisgau-Hochschwarzwald","type":"Landkreis"},"federalState":{"key":"08","name":"Baden-Württemberg"}},{"name":"Bürgerschaft","postalCode":"79271","locality":"St. Peter","municipality":{"key":"08315095","name":"St. Peter","type":"Kreisangehörige_Gemeinde"},"district":{"key":"08315","name":"Breisgau-Hochschwarzwald","type":"Landkreis"},"federalState":{"key":"08","name":"Baden-Württemberg"}},{"name":"Drayerbühl","postalCode":"79271","locality":"St. Peter","municipality":{"key":"08315095","name":"St. Peter","type":"Kreisangehörige_Gemeinde"},"district":{"key":"08315","name":"Breisgau-Hochschwarzwald","type":"Landkreis"},"federalState":{"key":"08","name":"Baden-Württemberg"}},{"name":"Eschbachstr.","postalCode":"79271","locality":"St. Peter","municipality":{"key":"08315095","name":"St. Peter","type":"Kreisangehörige_Gemeinde"},"district":{"key":"08315","name":"Breisgau-Hochschwarzwald","type":"Landkreis"},"federalState":{"key":"08","name":"Baden-Württemberg"}},{"name":"Finkenherd","postalCode":"79271","locality":"St. Peter","municipality":{"key":"08315095","name":"St. Peter","type":"Kreisangehörige_Gemeinde"},"district":{"key":"08315","name":"Breisgau-Hochschwarzwald","type":"Landkreis"},"federalState":{"key":"08","name":"Baden-Württemberg"}},{"name":"Finstergrundweg","postalCode":"79271","locality":"St. Peter","municipality":{"key":"08315095","name":"St. Peter","type":"Kreisangehörige_Gemeinde"},"district":{"key":"08315","name":"Breisgau-Hochschwarzwald","type":"Landkreis"},"federalState":{"key":"08","name":"Baden-Württemberg"}},{"name":"Fischerweg","postalCode":"79271","locality":"St. Peter","municipality":{"key":"08315095","name":"St. Peter","type":"Kreisangehörige_Gemeinde"},"district":{"key":"08315","name":"Breisgau-Hochschwarzwald","type":"Landkreis"},"federalState":{"key":"08","name":"Baden-Württemberg"}},{"name":"Fuchsfelsenweg","postalCode":"79271","locality":"St. Peter","municipality":{"key":"08315095","name":"St. Peter","type":"Kreisangehörige_Gemeinde"},"district":{"key":"08315","name":"Breisgau-Hochschwarzwald","type":"Landkreis"},"federalState":{"key":"08","name":"Baden-Württemberg"}},{"name":"Glottertalstr.","postalCode":"79271","locality":"St. Peter","municipality":{"key":"08315095","name":"St. Peter","type":"Kreisangehörige_Gemeinde"},"district":{"key":"08315","name":"Breisgau-Hochschwarzwald","type":"Landkreis"},"federalState":{"key":"08","name":"Baden-Württemberg"}},{"name":"Gummenbergweg","postalCode":"79271","locality":"St. Peter","municipality":{"key":"08315095","name":"St. Peter","type":"Kreisangehörige_Gemeinde"},"district":{"key":"08315","name":"Breisgau-Hochschwarzwald","type":"Landkreis"},"federalState":{"key":"08","name":"Baden-Württemberg"}},{"name":"Hangmoosweg","postalCode":"79271","locality":"St. Peter","municipality":{"key":"08315095","name":"St. Peter","type":"Kreisangehörige_Gemeinde"},"district":{"key":"08315","name":"Breisgau-Hochschwarzwald","type":"Landkreis"},"federalState":{"key":"08","name":"Baden-Württemberg"}},{"name":"Hanissenweg","postalCode":"79271","locality":"St. Peter","municipality":{"key":"08315095","name":"St. Peter","type":"Kreisangehörige_Gemeinde"},"district":{"key":"08315","name":"Breisgau-Hochschwarzwald","type":"Landkreis"},"federalState":{"key":"08","name":"Baden-Württemberg"}},{"name":"Hauptweg","postalCode":"79271","locality":"St. Peter","municipality":{"key":"08315095","name":"St. Peter","type":"Kreisangehörige_Gemeinde"},"district":{"key":"08315","name":"Breisgau-Hochschwarzwald","type":"Landkreis"},"federalState":{"key":"08","name":"Baden-Württemberg"}},{"name":"Hirschbühlweg","postalCode":"79271","locality":"St. Peter","municipality":{"key":"08315095","name":"St. Peter","type":"Kreisangehörige_Gemeinde"},"district":{"key":"08315","name":"Breisgau-Hochschwarzwald","type":"Landkreis"},"federalState":{"key":"08","name":"Baden-Württemberg"}},{"name":"Hirschmattenweg","postalCode":"79271","locality":"St. Peter","municipality":{"key":"08315095","name":"St. Peter","type":"Kreisangehörige_Gemeinde"},"district":{"key":"08315","name":"Breisgau-Hochschwarzwald","type":"Landkreis"},"federalState":{"key":"08","name":"Baden-Württemberg"}},{"name":"Hohlweg","postalCode":"79271","locality":"St. Peter","municipality":{"key":"08315095","name":"St. Peter","type":"Kreisangehörige_Gemeinde"},"district":{"key":"08315","name":"Breisgau-Hochschwarzwald","type":"Landkreis"},"federalState":{"key":"08","name":"Baden-Württemberg"}},{"name":"Hornweg","postalCode":"79271","locality":"St. Peter","municipality":{"key":"08315095","name":"St. Peter","type":"Kreisangehörige_Gemeinde"},"district":{"key":"08315","name":"Breisgau-Hochschwarzwald","type":"Landkreis"},"federalState":{"key":"08","name":"Baden-Württemberg"}},{"name":"Im Lehrerfeld","postalCode":"79271","locality":"St. Peter","municipality":{"key":"08315095","name":"St. Peter","type":"Kreisangehörige_Gemeinde"},"district":{"key":"08315","name":"Breisgau-Hochschwarzwald","type":"Landkreis"},"federalState":{"key":"08","name":"Baden-Württemberg"}},{"name":"Im Wechselfeld","postalCode":"79271","locality":"St. Peter","municipality":{"key":"08315095","name":"St. Peter","type":"Kreisangehörige_Gemeinde"},"district":{"key":"08315","name":"Breisgau-Hochschwarzwald","type":"Landkreis"},"federalState":{"key":"08","name":"Baden-Württemberg"}},{"name":"In der Wiehre","postalCode":"79271","locality":"St. Peter","municipality":{"key":"08315095","name":"St. Peter","type":"Kreisangehörige_Gemeinde"},"district":{"key":"08315","name":"Breisgau-Hochschwarzwald","type":"Landkreis"},"federalState":{"key":"08","name":"Baden-Württemberg"}},{"name":"Jockenweg","postalCode":"79271","locality":"St. Peter","municipality":{"key":"08315095","name":"St. Peter","type":"Kreisangehörige_Gemeinde"},"district":{"key":"08315","name":"Breisgau-Hochschwarzwald","type":"Landkreis"},"federalState":{"key":"08","name":"Baden-Württemberg"}},{"name":"Jörgleweg","postalCode":"79271","locality":"St. Peter","municipality":{"key":"08315095","name":"St. Peter","type":"Kreisangehörige_Gemeinde"},"district":{"key":"08315","name":"Breisgau-Hochschwarzwald","type":"Landkreis"},"federalState":{"key":"08","name":"Baden-Württemberg"}},{"name":"Josefsweg","postalCode":"79271","locality":"St. Peter","municipality":{"key":"08315095","name":"St. Peter","type":"Kreisangehörige_Gemeinde"},"district":{"key":"08315","name":"Breisgau-Hochschwarzwald","type":"Landkreis"},"federalState":{"key":"08","name":"Baden-Württemberg"}},{"name":"Kapellenweg","postalCode":"79271","locality":"St. Peter","municipality":{"key":"08315095","name":"St. Peter","type":"Kreisangehörige_Gemeinde"},"district":{"key":"08315","name":"Breisgau-Hochschwarzwald","type":"Landkreis"},"federalState":{"key":"08","name":"Baden-Württemberg"}},{"name":"Kapfenberg","postalCode":"79271","locality":"St. Peter","municipality":{"key":"08315095","name":"St. Peter","type":"Kreisangehörige_Gemeinde"},"district":{"key":"08315","name":"Breisgau-Hochschwarzwald","type":"Landkreis"},"federalState":{"key":"08","name":"Baden-Württemberg"}},{"name":"Kapfenbergweg","postalCode":"79271","locality":"St. Peter","municipality":{"key":"08315095","name":"St. Peter","type":"Kreisangehörige_Gemeinde"},"district":{"key":"08315","name":"Breisgau-Hochschwarzwald","type":"Landkreis"},"federalState":{"key":"08","name":"Baden-Württemberg"}},{"name":"Karolina-Reiner Str.","postalCode":"79271","locality":"St. Peter","municipality":{"key":"08315095","name":"St. Peter","type":"Kreisangehörige_Gemeinde"},"district":{"key":"08315","name":"Breisgau-Hochschwarzwald","type":"Landkreis"},"federalState":{"key":"08","name":"Baden-Württemberg"}},{"name":"Klaus-Weber-Str.","postalCode":"79271","locality":"St. Peter","municipality":{"key":"08315095","name":"St. Peter","type":"Kreisangehörige_Gemeinde"},"district":{"key":"08315","name":"Breisgau-Hochschwarzwald","type":"Landkreis"},"federalState":{"key":"08","name":"Baden-Württemberg"}},{"name":"Kohlplatzweg","postalCode":"79271","locality":"St. Peter","municipality":{"key":"08315095","name":"St. Peter","type":"Kreisangehörige_Gemeinde"},"district":{"key":"08315","name":"Breisgau-Hochschwarzwald","type":"Landkreis"},"federalState":{"key":"08","name":"Baden-Württemberg"}},{"name":"Kohlwaldweg","postalCode":"79271","locality":"St. Peter","municipality":{"key":"08315095","name":"St. Peter","type":"Kreisangehörige_Gemeinde"},"district":{"key":"08315","name":"Breisgau-Hochschwarzwald","type":"Landkreis"},"federalState":{"key":"08","name":"Baden-Württemberg"}},{"name":"Langeck-Weg","postalCode":"79271","locality":"St. Peter","municipality":{"key":"08315095","name":"St. Peter","type":"Kreisangehörige_Gemeinde"},"district":{"key":"08315","name":"Breisgau-Hochschwarzwald","type":"Landkreis"},"federalState":{"key":"08","name":"Baden-Württemberg"}},{"name":"Lindlewaldweg","postalCode":"79271","locality":"St. Peter","municipality":{"key":"08315095","name":"St. Peter","type":"Kreisangehörige_Gemeinde"},"district":{"key":"08315","name":"Breisgau-Hochschwarzwald","type":"Landkreis"},"federalState":{"key":"08","name":"Baden-Württemberg"}},{"name":"Matthias-Faller-Str.","postalCode":"79271","locality":"St. Peter","municipality":{"key":"08315095","name":"St. Peter","type":"Kreisangehörige_Gemeinde"},"district":{"key":"08315","name":"Breisgau-Hochschwarzwald","type":"Landkreis"},"federalState":{"key":"08","name":"Baden-Württemberg"}},{"name":"Militärschlagweg","postalCode":"79271","locality":"St. Peter","municipality":{"key":"08315095","name":"St. Peter","type":"Kreisangehörige_Gemeinde"},"district":{"key":"08315","name":"Breisgau-Hochschwarzwald","type":"Landkreis"},"federalState":{"key":"08","name":"Baden-Württemberg"}},{"name":"Mittlerer Nebenweg","postalCode":"79271","locality":"St. Peter","municipality":{"key":"08315095","name":"St. Peter","type":"Kreisangehörige_Gemeinde"},"district":{"key":"08315","name":"Breisgau-Hochschwarzwald","type":"Landkreis"},"federalState":{"key":"08","name":"Baden-Württemberg"}},{"name":"Mühlegraben","postalCode":"79271","locality":"St. Peter","municipality":{"key":"08315095","name":"St. Peter","type":"Kreisangehörige_Gemeinde"},"district":{"key":"08315","name":"Breisgau-Hochschwarzwald","type":"Landkreis"},"federalState":{"key":"08","name":"Baden-Württemberg"}},{"name":"Neuwelt","postalCode":"79271","locality":"St. Peter","municipality":{"key":"08315095","name":"St. Peter","type":"Kreisangehörige_Gemeinde"},"district":{"key":"08315","name":"Breisgau-Hochschwarzwald","type":"Landkreis"},"federalState":{"key":"08","name":"Baden-Württemberg"}},{"name":"Oberer Nebenweg","postalCode":"79271","locality":"St. Peter","municipality":{"key":"08315095","name":"St. Peter","type":"Kreisangehörige_Gemeinde"},"district":{"key":"08315","name":"Breisgau-Hochschwarzwald","type":"Landkreis"},"federalState":{"key":"08","name":"Baden-Württemberg"}},{"name":"Oberibental","postalCode":"79271","locality":"St. Peter","municipality":{"key":"08315095","name":"St. Peter","type":"Kreisangehörige_Gemeinde"},"district":{"key":"08315","name":"Breisgau-Hochschwarzwald","type":"Landkreis"},"federalState":{"key":"08","name":"Baden-Württemberg"}},{"name":"Peter-Thumb-Weg","postalCode":"79271","locality":"St. Peter","municipality":{"key":"08315095","name":"St. Peter","type":"Kreisangehörige_Gemeinde"},"district":{"key":"08315","name":"Breisgau-Hochschwarzwald","type":"Landkreis"},"federalState":{"key":"08","name":"Baden-Württemberg"}},{"name":"Plattenwaldweg","postalCode":"79271","locality":"St. Peter","municipality":{"key":"08315095","name":"St. Peter","type":"Kreisangehörige_Gemeinde"},"district":{"key":"08315","name":"Breisgau-Hochschwarzwald","type":"Landkreis"},"federalState":{"key":"08","name":"Baden-Württemberg"}},{"name":"Ränke","postalCode":"79271","locality":"St. Peter","municipality":{"key":"08315095","name":"St. Peter","type":"Kreisangehörige_Gemeinde"},"district":{"key":"08315","name":"Breisgau-Hochschwarzwald","type":"Landkreis"},"federalState":{"key":"08","name":"Baden-Württemberg"}},{"name":"Rankwaldweg","postalCode":"79271","locality":"St. Peter","municipality":{"key":"08315095","name":"St. Peter","type":"Kreisangehörige_Gemeinde"},"district":{"key":"08315","name":"Breisgau-Hochschwarzwald","type":"Landkreis"},"federalState":{"key":"08","name":"Baden-Württemberg"}},{"name":"Rothansenweg","postalCode":"79271","locality":"St. Peter","municipality":{"key":"08315095","name":"St. Peter","type":"Kreisangehörige_Gemeinde"},"district":{"key":"08315","name":"Breisgau-Hochschwarzwald","type":"Landkreis"},"federalState":{"key":"08","name":"Baden-Württemberg"}},{"name":"Sägendobel","postalCode":"79271","locality":"St. Peter","municipality":{"key":"08315095","name":"St. Peter","type":"Kreisangehörige_Gemeinde"},"district":{"key":"08315","name":"Breisgau-Hochschwarzwald","type":"Landkreis"},"federalState":{"key":"08","name":"Baden-Württemberg"}},{"name":"Schafteckweg","postalCode":"79271","locality":"St. Peter","municipality":{"key":"08315095","name":"St. Peter","type":"Kreisangehörige_Gemeinde"},"district":{"key":"08315","name":"Breisgau-Hochschwarzwald","type":"Landkreis"},"federalState":{"key":"08","name":"Baden-Württemberg"}},{"name":"Scheuergasse","postalCode":"79271","locality":"St. Peter","municipality":{"key":"08315095","name":"St. Peter","type":"Kreisangehörige_Gemeinde"},"district":{"key":"08315","name":"Breisgau-Hochschwarzwald","type":"Landkreis"},"federalState":{"key":"08","name":"Baden-Württemberg"}},{"name":"Schindhaldenweg","postalCode":"79271","locality":"St. Peter","municipality":{"key":"08315095","name":"St. Peter","type":"Kreisangehörige_Gemeinde"},"district":{"key":"08315","name":"Breisgau-Hochschwarzwald","type":"Landkreis"},"federalState":{"key":"08","name":"Baden-Württemberg"}},{"name":"Schönhöferweg","postalCode":"79271","locality":"St. Peter","municipality":{"key":"08315095","name":"St. Peter","type":"Kreisangehörige_Gemeinde"},"district":{"key":"08315","name":"Breisgau-Hochschwarzwald","type":"Landkreis"},"federalState":{"key":"08","name":"Baden-Württemberg"}},{"name":"Schulweg","postalCode":"79271","locality":"St. Peter","municipality":{"key":"08315095","name":"St. Peter","type":"Kreisangehörige_Gemeinde"},"district":{"key":"08315","name":"Breisgau-Hochschwarzwald","type":"Landkreis"},"federalState":{"key":"08","name":"Baden-Württemberg"}},{"name":"Schweighofweg","postalCode":"79271","locality":"St. Peter","municipality":{"key":"08315095","name":"St. Peter","type":"Kreisangehörige_Gemeinde"},"district":{"key":"08315","name":"Breisgau-Hochschwarzwald","type":"Landkreis"},"federalState":{"key":"08","name":"Baden-Württemberg"}},{"name":"Seelgutweg","postalCode":"79271","locality":"St. Peter","municipality":{"key":"08315095","name":"St. Peter","type":"Kreisangehörige_Gemeinde"},"district":{"key":"08315","name":"Breisgau-Hochschwarzwald","type":"Landkreis"},"federalState":{"key":"08","name":"Baden-Württemberg"}},{"name":"Spittelhofstr.","postalCode":"79271","locality":"St. Peter","municipality":{"key":"08315095","name":"St. Peter","type":"Kreisangehörige_Gemeinde"},"district":{"key":"08315","name":"Breisgau-Hochschwarzwald","type":"Landkreis"},"federalState":{"key":"08","name":"Baden-Württemberg"}},{"name":"Steinbruchweg","postalCode":"79271","locality":"St. Peter","municipality":{"key":"08315095","name":"St. Peter","type":"Kreisangehörige_Gemeinde"},"district":{"key":"08315","name":"Breisgau-Hochschwarzwald","type":"Landkreis"},"federalState":{"key":"08","name":"Baden-Württemberg"}},{"name":"Steingrubenhofweg","postalCode":"79271","locality":"St. Peter","municipality":{"key":"08315095","name":"St. Peter","type":"Kreisangehörige_Gemeinde"},"district":{"key":"08315","name":"Breisgau-Hochschwarzwald","type":"Landkreis"},"federalState":{"key":"08","name":"Baden-Württemberg"}},{"name":"Türlekopfweg","postalCode":"79271","locality":"St. Peter","municipality":{"key":"08315095","name":"St. Peter","type":"Kreisangehörige_Gemeinde"},"district":{"key":"08315","name":"Breisgau-Hochschwarzwald","type":"Landkreis"},"federalState":{"key":"08","name":"Baden-Württemberg"}},{"name":"Unterer Nebenweg","postalCode":"79271","locality":"St. Peter","municipality":{"key":"08315095","name":"St. Peter","type":"Kreisangehörige_Gemeinde"},"district":{"key":"08315","name":"Breisgau-Hochschwarzwald","type":"Landkreis"},"federalState":{"key":"08","name":"Baden-Württemberg"}},{"name":"William-Tubman-Weg","postalCode":"79271","locality":"St. Peter","municipality":{"key":"08315095","name":"St. Peter","type":"Kreisangehörige_Gemeinde"},"district":{"key":"08315","name":"Breisgau-Hochschwarzwald","type":"Landkreis"},"federalState":{"key":"08","name":"Baden-Württemberg"}},{"name":"Wilmendobelweg","postalCode":"79271","locality":"St. Peter","municipality":{"key":"08315095","name":"St. Peter","type":"Kreisangehörige_Gemeinde"},"district":{"key":"08315","name":"Breisgau-Hochschwarzwald","type":"Landkreis"},"federalState":{"key":"08","name":"Baden-Württemberg"}},{"name":"Wolfsteige","postalCode":"79271","locality":"St. Peter","municipality":{"key":"08315095","name":"St. Peter","type":"Kreisangehörige_Gemeinde"},"district":{"key":"08315","name":"Breisgau-Hochschwarzwald","type":"Landkreis"},"federalState":{"key":"08","name":"Baden-Württemberg"}},{"name":"Wolfweg","postalCode":"79271","locality":"St. Peter","municipality":{"key":"08315095","name":"St. Peter","type":"Kreisangehörige_Gemeinde"},"district":{"key":"08315","name":"Breisgau-Hochschwarzwald","type":"Landkreis"},"federalState":{"key":"08","name":"Baden-Württemberg"}},{"name":"Zähringerstr.","postalCode":"79271","locality":"St. Peter","municipality":{"key":"08315095","name":"St. Peter","type":"Kreisangehörige_Gemeinde"},"district":{"key":"08315","name":"Breisgau-Hochschwarzwald","type":"Landkreis"},"federalState":{"key":"08","name":"Baden-Württemberg"}},{"name":"Zur Gerbe","postalCode":"79271","locality":"St. Peter","municipality":{"key":"08315095","name":"St. Peter","type":"Kreisangehörige_Gemeinde"},"district":{"key":"08315","name":"Breisgau-Hochschwarzwald","type":"Landkreis"},"federalState":{"key":"08","name":"Baden-Württemberg"}},]