[{"name":"Ackermannweg","postalCode":"73577","locality":"Ruppertshofen","municipality":{"key":"08136061","name":"Ruppertshofen","type":"Kreisangehörige_Gemeinde"},"district":{"key":"08136","name":"Ostalbkreis","type":"Landkreis"},"federalState":{"key":"08","name":"Baden-Württemberg"}},{"name":"Albstr.","postalCode":"73577","locality":"Ruppertshofen","municipality":{"key":"08136061","name":"Ruppertshofen","type":"Kreisangehörige_Gemeinde"},"district":{"key":"08136","name":"Ostalbkreis","type":"Landkreis"},"federalState":{"key":"08","name":"Baden-Württemberg"}},{"name":"Althönig","postalCode":"73577","locality":"Ruppertshofen","municipality":{"key":"08136061","name":"Ruppertshofen","type":"Kreisangehörige_Gemeinde"},"district":{"key":"08136","name":"Ostalbkreis","type":"Landkreis"},"federalState":{"key":"08","name":"Baden-Württemberg"}},{"name":"Am Berghain","postalCode":"73577","locality":"Ruppertshofen","municipality":{"key":"08136061","name":"Ruppertshofen","type":"Kreisangehörige_Gemeinde"},"district":{"key":"08136","name":"Ostalbkreis","type":"Landkreis"},"federalState":{"key":"08","name":"Baden-Württemberg"}},{"name":"Am Hochsitz","postalCode":"73577","locality":"Ruppertshofen","municipality":{"key":"08136061","name":"Ruppertshofen","type":"Kreisangehörige_Gemeinde"},"district":{"key":"08136","name":"Ostalbkreis","type":"Landkreis"},"federalState":{"key":"08","name":"Baden-Württemberg"}},{"name":"Am Hölzle","postalCode":"73577","locality":"Ruppertshofen","municipality":{"key":"08136061","name":"Ruppertshofen","type":"Kreisangehörige_Gemeinde"},"district":{"key":"08136","name":"Ostalbkreis","type":"Landkreis"},"federalState":{"key":"08","name":"Baden-Württemberg"}},{"name":"Am Jägergarten","postalCode":"73577","locality":"Ruppertshofen","municipality":{"key":"08136061","name":"Ruppertshofen","type":"Kreisangehörige_Gemeinde"},"district":{"key":"08136","name":"Ostalbkreis","type":"Landkreis"},"federalState":{"key":"08","name":"Baden-Württemberg"}},{"name":"Am Köpfchen","postalCode":"56357","locality":"Ruppertshofen","municipality":{"key":"07141120","name":"Ruppertshofen","type":"Kreisangehörige_Gemeinde"},"district":{"key":"07141","name":"Rhein-Lahn-Kreis","type":"Landkreis"},"federalState":{"key":"07","name":"Rheinland-Pfalz"}},{"name":"Am Rehwechsel","postalCode":"73577","locality":"Ruppertshofen","municipality":{"key":"08136061","name":"Ruppertshofen","type":"Kreisangehörige_Gemeinde"},"district":{"key":"08136","name":"Ostalbkreis","type":"Landkreis"},"federalState":{"key":"08","name":"Baden-Württemberg"}},{"name":"Amselweg","postalCode":"73577","locality":"Ruppertshofen","municipality":{"key":"08136061","name":"Ruppertshofen","type":"Kreisangehörige_Gemeinde"},"district":{"key":"08136","name":"Ostalbkreis","type":"Landkreis"},"federalState":{"key":"08","name":"Baden-Württemberg"}},{"name":"Am Sommerrain","postalCode":"73577","locality":"Ruppertshofen","municipality":{"key":"08136061","name":"Ruppertshofen","type":"Kreisangehörige_Gemeinde"},"district":{"key":"08136","name":"Ostalbkreis","type":"Landkreis"},"federalState":{"key":"08","name":"Baden-Württemberg"}},{"name":"Am Sonnenhang","postalCode":"56357","locality":"Ruppertshofen","municipality":{"key":"07141120","name":"Ruppertshofen","type":"Kreisangehörige_Gemeinde"},"district":{"key":"07141","name":"Rhein-Lahn-Kreis","type":"Landkreis"},"federalState":{"key":"07","name":"Rheinland-Pfalz"}},{"name":"Am Spielplatz","postalCode":"73577","locality":"Ruppertshofen","municipality":{"key":"08136061","name":"Ruppertshofen","type":"Kreisangehörige_Gemeinde"},"district":{"key":"08136","name":"Ostalbkreis","type":"Landkreis"},"federalState":{"key":"08","name":"Baden-Württemberg"}},{"name":"Am Waldrand","postalCode":"73577","locality":"Ruppertshofen","municipality":{"key":"08136061","name":"Ruppertshofen","type":"Kreisangehörige_Gemeinde"},"district":{"key":"08136","name":"Ostalbkreis","type":"Landkreis"},"federalState":{"key":"08","name":"Baden-Württemberg"}},{"name":"Asternweg","postalCode":"73577","locality":"Ruppertshofen","municipality":{"key":"08136061","name":"Ruppertshofen","type":"Kreisangehörige_Gemeinde"},"district":{"key":"08136","name":"Ostalbkreis","type":"Landkreis"},"federalState":{"key":"08","name":"Baden-Württemberg"}},{"name":"Bachstr.","postalCode":"73577","locality":"Ruppertshofen","municipality":{"key":"08136061","name":"Ruppertshofen","type":"Kreisangehörige_Gemeinde"},"district":{"key":"08136","name":"Ostalbkreis","type":"Landkreis"},"federalState":{"key":"08","name":"Baden-Württemberg"}},{"name":"Birkenloher Str.","postalCode":"73577","locality":"Ruppertshofen","municipality":{"key":"08136061","name":"Ruppertshofen","type":"Kreisangehörige_Gemeinde"},"district":{"key":"08136","name":"Ostalbkreis","type":"Landkreis"},"federalState":{"key":"08","name":"Baden-Württemberg"}},{"name":"Birkenweg","postalCode":"73577","locality":"Ruppertshofen","municipality":{"key":"08136061","name":"Ruppertshofen","type":"Kreisangehörige_Gemeinde"},"district":{"key":"08136","name":"Ostalbkreis","type":"Landkreis"},"federalState":{"key":"08","name":"Baden-Württemberg"}},{"name":"Blumenstr.","postalCode":"73577","locality":"Ruppertshofen","municipality":{"key":"08136061","name":"Ruppertshofen","type":"Kreisangehörige_Gemeinde"},"district":{"key":"08136","name":"Ostalbkreis","type":"Landkreis"},"federalState":{"key":"08","name":"Baden-Württemberg"}},{"name":"Bodenwaldweg","postalCode":"73577","locality":"Ruppertshofen","municipality":{"key":"08136061","name":"Ruppertshofen","type":"Kreisangehörige_Gemeinde"},"district":{"key":"08136","name":"Ostalbkreis","type":"Landkreis"},"federalState":{"key":"08","name":"Baden-Württemberg"}},{"name":"Brunnenweg","postalCode":"73577","locality":"Ruppertshofen","municipality":{"key":"08136061","name":"Ruppertshofen","type":"Kreisangehörige_Gemeinde"},"district":{"key":"08136","name":"Ostalbkreis","type":"Landkreis"},"federalState":{"key":"08","name":"Baden-Württemberg"}},{"name":"Bussardweg","postalCode":"73577","locality":"Ruppertshofen","municipality":{"key":"08136061","name":"Ruppertshofen","type":"Kreisangehörige_Gemeinde"},"district":{"key":"08136","name":"Ostalbkreis","type":"Landkreis"},"federalState":{"key":"08","name":"Baden-Württemberg"}},{"name":"Drosselweg","postalCode":"73577","locality":"Ruppertshofen","municipality":{"key":"08136061","name":"Ruppertshofen","type":"Kreisangehörige_Gemeinde"},"district":{"key":"08136","name":"Ostalbkreis","type":"Landkreis"},"federalState":{"key":"08","name":"Baden-Württemberg"}},{"name":"Erlenstr.","postalCode":"73577","locality":"Ruppertshofen","municipality":{"key":"08136061","name":"Ruppertshofen","type":"Kreisangehörige_Gemeinde"},"district":{"key":"08136","name":"Ostalbkreis","type":"Landkreis"},"federalState":{"key":"08","name":"Baden-Württemberg"}},{"name":"Falkenweg","postalCode":"73577","locality":"Ruppertshofen","municipality":{"key":"08136061","name":"Ruppertshofen","type":"Kreisangehörige_Gemeinde"},"district":{"key":"08136","name":"Ostalbkreis","type":"Landkreis"},"federalState":{"key":"08","name":"Baden-Württemberg"}},{"name":"Fasanenweg","postalCode":"73577","locality":"Ruppertshofen","municipality":{"key":"08136061","name":"Ruppertshofen","type":"Kreisangehörige_Gemeinde"},"district":{"key":"08136","name":"Ostalbkreis","type":"Landkreis"},"federalState":{"key":"08","name":"Baden-Württemberg"}},{"name":"Fichtenstr.","postalCode":"73577","locality":"Ruppertshofen","municipality":{"key":"08136061","name":"Ruppertshofen","type":"Kreisangehörige_Gemeinde"},"district":{"key":"08136","name":"Ostalbkreis","type":"Landkreis"},"federalState":{"key":"08","name":"Baden-Württemberg"}},{"name":"Finkenweg","postalCode":"73577","locality":"Ruppertshofen","municipality":{"key":"08136061","name":"Ruppertshofen","type":"Kreisangehörige_Gemeinde"},"district":{"key":"08136","name":"Ostalbkreis","type":"Landkreis"},"federalState":{"key":"08","name":"Baden-Württemberg"}},{"name":"Frickenhofer Str.","postalCode":"73577","locality":"Ruppertshofen","municipality":{"key":"08136061","name":"Ruppertshofen","type":"Kreisangehörige_Gemeinde"},"district":{"key":"08136","name":"Ostalbkreis","type":"Landkreis"},"federalState":{"key":"08","name":"Baden-Württemberg"}},{"name":"Gänsgasse","postalCode":"73577","locality":"Ruppertshofen","municipality":{"key":"08136061","name":"Ruppertshofen","type":"Kreisangehörige_Gemeinde"},"district":{"key":"08136","name":"Ostalbkreis","type":"Landkreis"},"federalState":{"key":"08","name":"Baden-Württemberg"}},{"name":"Gartenstr.","postalCode":"73577","locality":"Ruppertshofen","municipality":{"key":"08136061","name":"Ruppertshofen","type":"Kreisangehörige_Gemeinde"},"district":{"key":"08136","name":"Ostalbkreis","type":"Landkreis"},"federalState":{"key":"08","name":"Baden-Württemberg"}},{"name":"Geißäcker","postalCode":"73577","locality":"Ruppertshofen","municipality":{"key":"08136061","name":"Ruppertshofen","type":"Kreisangehörige_Gemeinde"},"district":{"key":"08136","name":"Ostalbkreis","type":"Landkreis"},"federalState":{"key":"08","name":"Baden-Württemberg"}},{"name":"Gmünder Str.","postalCode":"73577","locality":"Ruppertshofen","municipality":{"key":"08136061","name":"Ruppertshofen","type":"Kreisangehörige_Gemeinde"},"district":{"key":"08136","name":"Ostalbkreis","type":"Landkreis"},"federalState":{"key":"08","name":"Baden-Württemberg"}},{"name":"Gottlieb-Daimler-Str.","postalCode":"73577","locality":"Ruppertshofen","municipality":{"key":"08136061","name":"Ruppertshofen","type":"Kreisangehörige_Gemeinde"},"district":{"key":"08136","name":"Ostalbkreis","type":"Landkreis"},"federalState":{"key":"08","name":"Baden-Württemberg"}},{"name":"Gschwender Str.","postalCode":"73577","locality":"Ruppertshofen","municipality":{"key":"08136061","name":"Ruppertshofen","type":"Kreisangehörige_Gemeinde"},"district":{"key":"08136","name":"Ostalbkreis","type":"Landkreis"},"federalState":{"key":"08","name":"Baden-Württemberg"}},{"name":"Habichtweg","postalCode":"73577","locality":"Ruppertshofen","municipality":{"key":"08136061","name":"Ruppertshofen","type":"Kreisangehörige_Gemeinde"},"district":{"key":"08136","name":"Ostalbkreis","type":"Landkreis"},"federalState":{"key":"08","name":"Baden-Württemberg"}},{"name":"Haldenhausweg","postalCode":"73577","locality":"Ruppertshofen","municipality":{"key":"08136061","name":"Ruppertshofen","type":"Kreisangehörige_Gemeinde"},"district":{"key":"08136","name":"Ostalbkreis","type":"Landkreis"},"federalState":{"key":"08","name":"Baden-Württemberg"}},{"name":"Haldenweg","postalCode":"73577","locality":"Ruppertshofen","municipality":{"key":"08136061","name":"Ruppertshofen","type":"Kreisangehörige_Gemeinde"},"district":{"key":"08136","name":"Ostalbkreis","type":"Landkreis"},"federalState":{"key":"08","name":"Baden-Württemberg"}},{"name":"Hasenhalde","postalCode":"73577","locality":"Ruppertshofen","municipality":{"key":"08136061","name":"Ruppertshofen","type":"Kreisangehörige_Gemeinde"},"district":{"key":"08136","name":"Ostalbkreis","type":"Landkreis"},"federalState":{"key":"08","name":"Baden-Württemberg"}},{"name":"Hauptstr.","postalCode":"56357","locality":"Ruppertshofen","municipality":{"key":"07141120","name":"Ruppertshofen","type":"Kreisangehörige_Gemeinde"},"district":{"key":"07141","name":"Rhein-Lahn-Kreis","type":"Landkreis"},"federalState":{"key":"07","name":"Rheinland-Pfalz"}},{"name":"Hauptstr.","postalCode":"73577","locality":"Ruppertshofen","municipality":{"key":"08136061","name":"Ruppertshofen","type":"Kreisangehörige_Gemeinde"},"district":{"key":"08136","name":"Ostalbkreis","type":"Landkreis"},"federalState":{"key":"08","name":"Baden-Württemberg"}},{"name":"Hofäcker","postalCode":"73577","locality":"Ruppertshofen","municipality":{"key":"08136061","name":"Ruppertshofen","type":"Kreisangehörige_Gemeinde"},"district":{"key":"08136","name":"Ostalbkreis","type":"Landkreis"},"federalState":{"key":"08","name":"Baden-Württemberg"}},{"name":"Höniger Str.","postalCode":"73577","locality":"Ruppertshofen","municipality":{"key":"08136061","name":"Ruppertshofen","type":"Kreisangehörige_Gemeinde"},"district":{"key":"08136","name":"Ostalbkreis","type":"Landkreis"},"federalState":{"key":"08","name":"Baden-Württemberg"}},{"name":"Im Erlengrund","postalCode":"73577","locality":"Ruppertshofen","municipality":{"key":"08136061","name":"Ruppertshofen","type":"Kreisangehörige_Gemeinde"},"district":{"key":"08136","name":"Ostalbkreis","type":"Landkreis"},"federalState":{"key":"08","name":"Baden-Württemberg"}},{"name":"Im Fuchsbau","postalCode":"73577","locality":"Ruppertshofen","municipality":{"key":"08136061","name":"Ruppertshofen","type":"Kreisangehörige_Gemeinde"},"district":{"key":"08136","name":"Ostalbkreis","type":"Landkreis"},"federalState":{"key":"08","name":"Baden-Württemberg"}},{"name":"Im Kornfeld","postalCode":"73577","locality":"Ruppertshofen","municipality":{"key":"08136061","name":"Ruppertshofen","type":"Kreisangehörige_Gemeinde"},"district":{"key":"08136","name":"Ostalbkreis","type":"Landkreis"},"federalState":{"key":"08","name":"Baden-Württemberg"}},{"name":"Im Spagen","postalCode":"73577","locality":"Ruppertshofen","municipality":{"key":"08136061","name":"Ruppertshofen","type":"Kreisangehörige_Gemeinde"},"district":{"key":"08136","name":"Ostalbkreis","type":"Landkreis"},"federalState":{"key":"08","name":"Baden-Württemberg"}},{"name":"Im Wiesengrund","postalCode":"56357","locality":"Ruppertshofen","municipality":{"key":"07141120","name":"Ruppertshofen","type":"Kreisangehörige_Gemeinde"},"district":{"key":"07141","name":"Rhein-Lahn-Kreis","type":"Landkreis"},"federalState":{"key":"07","name":"Rheinland-Pfalz"}},{"name":"Industriestr.","postalCode":"73577","locality":"Ruppertshofen","municipality":{"key":"08136061","name":"Ruppertshofen","type":"Kreisangehörige_Gemeinde"},"district":{"key":"08136","name":"Ostalbkreis","type":"Landkreis"},"federalState":{"key":"08","name":"Baden-Württemberg"}},{"name":"Jakobsberg","postalCode":"73577","locality":"Ruppertshofen","municipality":{"key":"08136061","name":"Ruppertshofen","type":"Kreisangehörige_Gemeinde"},"district":{"key":"08136","name":"Ostalbkreis","type":"Landkreis"},"federalState":{"key":"08","name":"Baden-Württemberg"}},{"name":"Käppelesberg","postalCode":"73577","locality":"Ruppertshofen","municipality":{"key":"08136061","name":"Ruppertshofen","type":"Kreisangehörige_Gemeinde"},"district":{"key":"08136","name":"Ostalbkreis","type":"Landkreis"},"federalState":{"key":"08","name":"Baden-Württemberg"}},{"name":"Kirchgasse","postalCode":"56357","locality":"Ruppertshofen","municipality":{"key":"07141120","name":"Ruppertshofen","type":"Kreisangehörige_Gemeinde"},"district":{"key":"07141","name":"Rhein-Lahn-Kreis","type":"Landkreis"},"federalState":{"key":"07","name":"Rheinland-Pfalz"}},{"name":"Kirchgasse","postalCode":"73577","locality":"Ruppertshofen","municipality":{"key":"08136061","name":"Ruppertshofen","type":"Kreisangehörige_Gemeinde"},"district":{"key":"08136","name":"Ostalbkreis","type":"Landkreis"},"federalState":{"key":"08","name":"Baden-Württemberg"}},{"name":"Kornblumenweg","postalCode":"73577","locality":"Ruppertshofen","municipality":{"key":"08136061","name":"Ruppertshofen","type":"Kreisangehörige_Gemeinde"},"district":{"key":"08136","name":"Ostalbkreis","type":"Landkreis"},"federalState":{"key":"08","name":"Baden-Württemberg"}},{"name":"Lerchenweg","postalCode":"73577","locality":"Ruppertshofen","municipality":{"key":"08136061","name":"Ruppertshofen","type":"Kreisangehörige_Gemeinde"},"district":{"key":"08136","name":"Ostalbkreis","type":"Landkreis"},"federalState":{"key":"08","name":"Baden-Württemberg"}},{"name":"Lindenstr.","postalCode":"73577","locality":"Ruppertshofen","municipality":{"key":"08136061","name":"Ruppertshofen","type":"Kreisangehörige_Gemeinde"},"district":{"key":"08136","name":"Ostalbkreis","type":"Landkreis"},"federalState":{"key":"08","name":"Baden-Württemberg"}},{"name":"Lindenweg","postalCode":"56357","locality":"Ruppertshofen","municipality":{"key":"07141120","name":"Ruppertshofen","type":"Kreisangehörige_Gemeinde"},"district":{"key":"07141","name":"Rhein-Lahn-Kreis","type":"Landkreis"},"federalState":{"key":"07","name":"Rheinland-Pfalz"}},{"name":"Miehlener Str.","postalCode":"56357","locality":"Ruppertshofen","municipality":{"key":"07141120","name":"Ruppertshofen","type":"Kreisangehörige_Gemeinde"},"district":{"key":"07141","name":"Rhein-Lahn-Kreis","type":"Landkreis"},"federalState":{"key":"07","name":"Rheinland-Pfalz"}},{"name":"Mittelgasse","postalCode":"73577","locality":"Ruppertshofen","municipality":{"key":"08136061","name":"Ruppertshofen","type":"Kreisangehörige_Gemeinde"},"district":{"key":"08136","name":"Ostalbkreis","type":"Landkreis"},"federalState":{"key":"08","name":"Baden-Württemberg"}},{"name":"Mozartstr.","postalCode":"73577","locality":"Ruppertshofen","municipality":{"key":"08136061","name":"Ruppertshofen","type":"Kreisangehörige_Gemeinde"},"district":{"key":"08136","name":"Ostalbkreis","type":"Landkreis"},"federalState":{"key":"08","name":"Baden-Württemberg"}},{"name":"Mühlhalde","postalCode":"73577","locality":"Ruppertshofen","municipality":{"key":"08136061","name":"Ruppertshofen","type":"Kreisangehörige_Gemeinde"},"district":{"key":"08136","name":"Ostalbkreis","type":"Landkreis"},"federalState":{"key":"08","name":"Baden-Württemberg"}},{"name":"Obere Gasse","postalCode":"73577","locality":"Ruppertshofen","municipality":{"key":"08136061","name":"Ruppertshofen","type":"Kreisangehörige_Gemeinde"},"district":{"key":"08136","name":"Ostalbkreis","type":"Landkreis"},"federalState":{"key":"08","name":"Baden-Württemberg"}},{"name":"Poststr.","postalCode":"73577","locality":"Ruppertshofen","municipality":{"key":"08136061","name":"Ruppertshofen","type":"Kreisangehörige_Gemeinde"},"district":{"key":"08136","name":"Ostalbkreis","type":"Landkreis"},"federalState":{"key":"08","name":"Baden-Württemberg"}},{"name":"Rheinstr.","postalCode":"56357","locality":"Ruppertshofen","municipality":{"key":"07141120","name":"Ruppertshofen","type":"Kreisangehörige_Gemeinde"},"district":{"key":"07141","name":"Rhein-Lahn-Kreis","type":"Landkreis"},"federalState":{"key":"07","name":"Rheinland-Pfalz"}},{"name":"Robert-Bosch-Str.","postalCode":"73577","locality":"Ruppertshofen","municipality":{"key":"08136061","name":"Ruppertshofen","type":"Kreisangehörige_Gemeinde"},"district":{"key":"08136","name":"Ostalbkreis","type":"Landkreis"},"federalState":{"key":"08","name":"Baden-Württemberg"}},{"name":"Schubertstr.","postalCode":"73577","locality":"Ruppertshofen","municipality":{"key":"08136061","name":"Ruppertshofen","type":"Kreisangehörige_Gemeinde"},"district":{"key":"08136","name":"Ostalbkreis","type":"Landkreis"},"federalState":{"key":"08","name":"Baden-Württemberg"}},{"name":"Schulstr.","postalCode":"73577","locality":"Ruppertshofen","municipality":{"key":"08136061","name":"Ruppertshofen","type":"Kreisangehörige_Gemeinde"},"district":{"key":"08136","name":"Ostalbkreis","type":"Landkreis"},"federalState":{"key":"08","name":"Baden-Württemberg"}},{"name":"Silcherstr.","postalCode":"73577","locality":"Ruppertshofen","municipality":{"key":"08136061","name":"Ruppertshofen","type":"Kreisangehörige_Gemeinde"},"district":{"key":"08136","name":"Ostalbkreis","type":"Landkreis"},"federalState":{"key":"08","name":"Baden-Württemberg"}},{"name":"Sperberweg","postalCode":"73577","locality":"Ruppertshofen","municipality":{"key":"08136061","name":"Ruppertshofen","type":"Kreisangehörige_Gemeinde"},"district":{"key":"08136","name":"Ostalbkreis","type":"Landkreis"},"federalState":{"key":"08","name":"Baden-Württemberg"}},{"name":"Spraitbacher Str.","postalCode":"73577","locality":"Ruppertshofen","municipality":{"key":"08136061","name":"Ruppertshofen","type":"Kreisangehörige_Gemeinde"},"district":{"key":"08136","name":"Ostalbkreis","type":"Landkreis"},"federalState":{"key":"08","name":"Baden-Württemberg"}},{"name":"Steinenbach","postalCode":"73577","locality":"Ruppertshofen","municipality":{"key":"08136061","name":"Ruppertshofen","type":"Kreisangehörige_Gemeinde"},"district":{"key":"08136","name":"Ostalbkreis","type":"Landkreis"},"federalState":{"key":"08","name":"Baden-Württemberg"}},{"name":"Stiller Winkel","postalCode":"73577","locality":"Ruppertshofen","municipality":{"key":"08136061","name":"Ruppertshofen","type":"Kreisangehörige_Gemeinde"},"district":{"key":"08136","name":"Ostalbkreis","type":"Landkreis"},"federalState":{"key":"08","name":"Baden-Württemberg"}},{"name":"Tannäckerstr.","postalCode":"73577","locality":"Ruppertshofen","municipality":{"key":"08136061","name":"Ruppertshofen","type":"Kreisangehörige_Gemeinde"},"district":{"key":"08136","name":"Ostalbkreis","type":"Landkreis"},"federalState":{"key":"08","name":"Baden-Württemberg"}},{"name":"Tanngasse","postalCode":"73577","locality":"Ruppertshofen","municipality":{"key":"08136061","name":"Ruppertshofen","type":"Kreisangehörige_Gemeinde"},"district":{"key":"08136","name":"Ostalbkreis","type":"Landkreis"},"federalState":{"key":"08","name":"Baden-Württemberg"}},{"name":"Taunusstr.","postalCode":"56357","locality":"Ruppertshofen","municipality":{"key":"07141120","name":"Ruppertshofen","type":"Kreisangehörige_Gemeinde"},"district":{"key":"07141","name":"Rhein-Lahn-Kreis","type":"Landkreis"},"federalState":{"key":"07","name":"Rheinland-Pfalz"}},{"name":"Tierhaupter Weg","postalCode":"73577","locality":"Ruppertshofen","municipality":{"key":"08136061","name":"Ruppertshofen","type":"Kreisangehörige_Gemeinde"},"district":{"key":"08136","name":"Ostalbkreis","type":"Landkreis"},"federalState":{"key":"08","name":"Baden-Württemberg"}},{"name":"Tonolzbronner Str.","postalCode":"73577","locality":"Ruppertshofen","municipality":{"key":"08136061","name":"Ruppertshofen","type":"Kreisangehörige_Gemeinde"},"district":{"key":"08136","name":"Ostalbkreis","type":"Landkreis"},"federalState":{"key":"08","name":"Baden-Württemberg"}},{"name":"Utzstetter Str.","postalCode":"73577","locality":"Ruppertshofen","municipality":{"key":"08136061","name":"Ruppertshofen","type":"Kreisangehörige_Gemeinde"},"district":{"key":"08136","name":"Ostalbkreis","type":"Landkreis"},"federalState":{"key":"08","name":"Baden-Württemberg"}},{"name":"Wachtelweg","postalCode":"73577","locality":"Ruppertshofen","municipality":{"key":"08136061","name":"Ruppertshofen","type":"Kreisangehörige_Gemeinde"},"district":{"key":"08136","name":"Ostalbkreis","type":"Landkreis"},"federalState":{"key":"08","name":"Baden-Württemberg"}},{"name":"Waldstr.","postalCode":"73577","locality":"Ruppertshofen","municipality":{"key":"08136061","name":"Ruppertshofen","type":"Kreisangehörige_Gemeinde"},"district":{"key":"08136","name":"Ostalbkreis","type":"Landkreis"},"federalState":{"key":"08","name":"Baden-Württemberg"}},{"name":"Werner-von-Siemens-Str.","postalCode":"73577","locality":"Ruppertshofen","municipality":{"key":"08136061","name":"Ruppertshofen","type":"Kreisangehörige_Gemeinde"},"district":{"key":"08136","name":"Ostalbkreis","type":"Landkreis"},"federalState":{"key":"08","name":"Baden-Württemberg"}},{"name":"Wolfsmühleweg","postalCode":"73577","locality":"Ruppertshofen","municipality":{"key":"08136061","name":"Ruppertshofen","type":"Kreisangehörige_Gemeinde"},"district":{"key":"08136","name":"Ostalbkreis","type":"Landkreis"},"federalState":{"key":"08","name":"Baden-Württemberg"}},]