[{"name":"Achterwurth","postalCode":"27729","locality":"Hambergen","municipality":{"key":"03356003","name":"Hambergen","type":"Kreisangehörige_Gemeinde"},"district":{"key":"03356","name":"Osterholz","type":"Landkreis"},"federalState":{"key":"03","name":"Niedersachsen"}},{"name":"Alte Schulstr.","postalCode":"27729","locality":"Hambergen","municipality":{"key":"03356003","name":"Hambergen","type":"Kreisangehörige_Gemeinde"},"district":{"key":"03356","name":"Osterholz","type":"Landkreis"},"federalState":{"key":"03","name":"Niedersachsen"}},{"name":"Am Bramberg","postalCode":"27729","locality":"Hambergen","municipality":{"key":"03356003","name":"Hambergen","type":"Kreisangehörige_Gemeinde"},"district":{"key":"03356","name":"Osterholz","type":"Landkreis"},"federalState":{"key":"03","name":"Niedersachsen"}},{"name":"Am Demmberg","postalCode":"27729","locality":"Hambergen","municipality":{"key":"03356003","name":"Hambergen","type":"Kreisangehörige_Gemeinde"},"district":{"key":"03356","name":"Osterholz","type":"Landkreis"},"federalState":{"key":"03","name":"Niedersachsen"}},{"name":"Am Diekhoop","postalCode":"27729","locality":"Hambergen","municipality":{"key":"03356003","name":"Hambergen","type":"Kreisangehörige_Gemeinde"},"district":{"key":"03356","name":"Osterholz","type":"Landkreis"},"federalState":{"key":"03","name":"Niedersachsen"}},{"name":"Am Hang","postalCode":"27729","locality":"Hambergen","municipality":{"key":"03356003","name":"Hambergen","type":"Kreisangehörige_Gemeinde"},"district":{"key":"03356","name":"Osterholz","type":"Landkreis"},"federalState":{"key":"03","name":"Niedersachsen"}},{"name":"Am Heidberg","postalCode":"27729","locality":"Hambergen","municipality":{"key":"03356003","name":"Hambergen","type":"Kreisangehörige_Gemeinde"},"district":{"key":"03356","name":"Osterholz","type":"Landkreis"},"federalState":{"key":"03","name":"Niedersachsen"}},{"name":"Am Hingstkamp","postalCode":"27729","locality":"Hambergen","municipality":{"key":"03356003","name":"Hambergen","type":"Kreisangehörige_Gemeinde"},"district":{"key":"03356","name":"Osterholz","type":"Landkreis"},"federalState":{"key":"03","name":"Niedersachsen"}},{"name":"Am Jantzen Park","postalCode":"27729","locality":"Hambergen","municipality":{"key":"03356003","name":"Hambergen","type":"Kreisangehörige_Gemeinde"},"district":{"key":"03356","name":"Osterholz","type":"Landkreis"},"federalState":{"key":"03","name":"Niedersachsen"}},{"name":"Am Kleinen Felde","postalCode":"27729","locality":"Hambergen","municipality":{"key":"03356003","name":"Hambergen","type":"Kreisangehörige_Gemeinde"},"district":{"key":"03356","name":"Osterholz","type":"Landkreis"},"federalState":{"key":"03","name":"Niedersachsen"}},{"name":"Am Schützenplatz","postalCode":"27729","locality":"Hambergen","municipality":{"key":"03356003","name":"Hambergen","type":"Kreisangehörige_Gemeinde"},"district":{"key":"03356","name":"Osterholz","type":"Landkreis"},"federalState":{"key":"03","name":"Niedersachsen"}},{"name":"Amselweg","postalCode":"27729","locality":"Hambergen","municipality":{"key":"03356003","name":"Hambergen","type":"Kreisangehörige_Gemeinde"},"district":{"key":"03356","name":"Osterholz","type":"Landkreis"},"federalState":{"key":"03","name":"Niedersachsen"}},{"name":"Am Walde","postalCode":"27729","locality":"Hambergen","municipality":{"key":"03356003","name":"Hambergen","type":"Kreisangehörige_Gemeinde"},"district":{"key":"03356","name":"Osterholz","type":"Landkreis"},"federalState":{"key":"03","name":"Niedersachsen"}},{"name":"Am Wasserwerk","postalCode":"27729","locality":"Hambergen","municipality":{"key":"03356003","name":"Hambergen","type":"Kreisangehörige_Gemeinde"},"district":{"key":"03356","name":"Osterholz","type":"Landkreis"},"federalState":{"key":"03","name":"Niedersachsen"}},{"name":"Auf dem Kamp","postalCode":"27729","locality":"Hambergen","municipality":{"key":"03356003","name":"Hambergen","type":"Kreisangehörige_Gemeinde"},"district":{"key":"03356","name":"Osterholz","type":"Landkreis"},"federalState":{"key":"03","name":"Niedersachsen"}},{"name":"Auf dem Wällenberg","postalCode":"27729","locality":"Hambergen","municipality":{"key":"03356003","name":"Hambergen","type":"Kreisangehörige_Gemeinde"},"district":{"key":"03356","name":"Osterholz","type":"Landkreis"},"federalState":{"key":"03","name":"Niedersachsen"}},{"name":"Auf den Siebenbergen","postalCode":"27729","locality":"Hambergen","municipality":{"key":"03356003","name":"Hambergen","type":"Kreisangehörige_Gemeinde"},"district":{"key":"03356","name":"Osterholz","type":"Landkreis"},"federalState":{"key":"03","name":"Niedersachsen"}},{"name":"Auf der Geest","postalCode":"27729","locality":"Hambergen","municipality":{"key":"03356003","name":"Hambergen","type":"Kreisangehörige_Gemeinde"},"district":{"key":"03356","name":"Osterholz","type":"Landkreis"},"federalState":{"key":"03","name":"Niedersachsen"}},{"name":"Auf der Lust","postalCode":"27729","locality":"Hambergen","municipality":{"key":"03356003","name":"Hambergen","type":"Kreisangehörige_Gemeinde"},"district":{"key":"03356","name":"Osterholz","type":"Landkreis"},"federalState":{"key":"03","name":"Niedersachsen"}},{"name":"Bahnhofstr.","postalCode":"27729","locality":"Hambergen","municipality":{"key":"03356003","name":"Hambergen","type":"Kreisangehörige_Gemeinde"},"district":{"key":"03356","name":"Osterholz","type":"Landkreis"},"federalState":{"key":"03","name":"Niedersachsen"}},{"name":"Bergstr.","postalCode":"27729","locality":"Hambergen","municipality":{"key":"03356003","name":"Hambergen","type":"Kreisangehörige_Gemeinde"},"district":{"key":"03356","name":"Osterholz","type":"Landkreis"},"federalState":{"key":"03","name":"Niedersachsen"}},{"name":"Birkenweg","postalCode":"27729","locality":"Hambergen","municipality":{"key":"03356003","name":"Hambergen","type":"Kreisangehörige_Gemeinde"},"district":{"key":"03356","name":"Osterholz","type":"Landkreis"},"federalState":{"key":"03","name":"Niedersachsen"}},{"name":"Brautstr.","postalCode":"27729","locality":"Hambergen","municipality":{"key":"03356003","name":"Hambergen","type":"Kreisangehörige_Gemeinde"},"district":{"key":"03356","name":"Osterholz","type":"Landkreis"},"federalState":{"key":"03","name":"Niedersachsen"}},{"name":"Bremer Str.","postalCode":"27729","locality":"Hambergen","municipality":{"key":"03356003","name":"Hambergen","type":"Kreisangehörige_Gemeinde"},"district":{"key":"03356","name":"Osterholz","type":"Landkreis"},"federalState":{"key":"03","name":"Niedersachsen"}},{"name":"Brinkstr.","postalCode":"27729","locality":"Hambergen","municipality":{"key":"03356003","name":"Hambergen","type":"Kreisangehörige_Gemeinde"},"district":{"key":"03356","name":"Osterholz","type":"Landkreis"},"federalState":{"key":"03","name":"Niedersachsen"}},{"name":"Buchenbuschweg","postalCode":"27729","locality":"Hambergen","municipality":{"key":"03356003","name":"Hambergen","type":"Kreisangehörige_Gemeinde"},"district":{"key":"03356","name":"Osterholz","type":"Landkreis"},"federalState":{"key":"03","name":"Niedersachsen"}},{"name":"Bullwinkeler Weg","postalCode":"27729","locality":"Hambergen","municipality":{"key":"03356003","name":"Hambergen","type":"Kreisangehörige_Gemeinde"},"district":{"key":"03356","name":"Osterholz","type":"Landkreis"},"federalState":{"key":"03","name":"Niedersachsen"}},{"name":"Bundsbarg","postalCode":"27729","locality":"Hambergen","municipality":{"key":"03356003","name":"Hambergen","type":"Kreisangehörige_Gemeinde"},"district":{"key":"03356","name":"Osterholz","type":"Landkreis"},"federalState":{"key":"03","name":"Niedersachsen"}},{"name":"Bundsbargweg","postalCode":"27729","locality":"Hambergen","municipality":{"key":"03356003","name":"Hambergen","type":"Kreisangehörige_Gemeinde"},"district":{"key":"03356","name":"Osterholz","type":"Landkreis"},"federalState":{"key":"03","name":"Niedersachsen"}},{"name":"Butterberg","postalCode":"27729","locality":"Hambergen","municipality":{"key":"03356003","name":"Hambergen","type":"Kreisangehörige_Gemeinde"},"district":{"key":"03356","name":"Osterholz","type":"Landkreis"},"federalState":{"key":"03","name":"Niedersachsen"}},{"name":"Carl-Schurz-Str.","postalCode":"27711","locality":"Osterholz-Scharmbeck","municipality":{"key":"03356007","name":"Osterholz-Scharmbeck, Stadt","type":"Stadt"},"district":{"key":"03356","name":"Osterholz","type":"Landkreis"},"federalState":{"key":"03","name":"Niedersachsen"}},{"name":"Carl-Vinnen-Str.","postalCode":"27711","locality":"Osterholz-Scharmbeck","municipality":{"key":"03356007","name":"Osterholz-Scharmbeck, Stadt","type":"Stadt"},"district":{"key":"03356","name":"Osterholz","type":"Landkreis"},"federalState":{"key":"03","name":"Niedersachsen"}},{"name":"Clara-Westhoff-Str.","postalCode":"27711","locality":"Osterholz-Scharmbeck","municipality":{"key":"03356007","name":"Osterholz-Scharmbeck, Stadt","type":"Stadt"},"district":{"key":"03356","name":"Osterholz","type":"Landkreis"},"federalState":{"key":"03","name":"Niedersachsen"}},{"name":"Damendamm","postalCode":"27729","locality":"Hambergen","municipality":{"key":"03356003","name":"Hambergen","type":"Kreisangehörige_Gemeinde"},"district":{"key":"03356","name":"Osterholz","type":"Landkreis"},"federalState":{"key":"03","name":"Niedersachsen"}},{"name":"Dornbusch","postalCode":"27729","locality":"Hambergen","municipality":{"key":"03356003","name":"Hambergen","type":"Kreisangehörige_Gemeinde"},"district":{"key":"03356","name":"Osterholz","type":"Landkreis"},"federalState":{"key":"03","name":"Niedersachsen"}},{"name":"Dornweg","postalCode":"27729","locality":"Hambergen","municipality":{"key":"03356003","name":"Hambergen","type":"Kreisangehörige_Gemeinde"},"district":{"key":"03356","name":"Osterholz","type":"Landkreis"},"federalState":{"key":"03","name":"Niedersachsen"}},{"name":"Drosselweg","postalCode":"27729","locality":"Hambergen","municipality":{"key":"03356003","name":"Hambergen","type":"Kreisangehörige_Gemeinde"},"district":{"key":"03356","name":"Osterholz","type":"Landkreis"},"federalState":{"key":"03","name":"Niedersachsen"}},{"name":"Edelhof","postalCode":"27729","locality":"Hambergen","municipality":{"key":"03356003","name":"Hambergen","type":"Kreisangehörige_Gemeinde"},"district":{"key":"03356","name":"Osterholz","type":"Landkreis"},"federalState":{"key":"03","name":"Niedersachsen"}},{"name":"Eschenweg","postalCode":"27729","locality":"Hambergen","municipality":{"key":"03356003","name":"Hambergen","type":"Kreisangehörige_Gemeinde"},"district":{"key":"03356","name":"Osterholz","type":"Landkreis"},"federalState":{"key":"03","name":"Niedersachsen"}},{"name":"Feldstr.","postalCode":"27729","locality":"Hambergen","municipality":{"key":"03356003","name":"Hambergen","type":"Kreisangehörige_Gemeinde"},"district":{"key":"03356","name":"Osterholz","type":"Landkreis"},"federalState":{"key":"03","name":"Niedersachsen"}},{"name":"Finkenweg","postalCode":"27729","locality":"Hambergen","municipality":{"key":"03356003","name":"Hambergen","type":"Kreisangehörige_Gemeinde"},"district":{"key":"03356","name":"Osterholz","type":"Landkreis"},"federalState":{"key":"03","name":"Niedersachsen"}},{"name":"Föhrenweg","postalCode":"27729","locality":"Hambergen","municipality":{"key":"03356003","name":"Hambergen","type":"Kreisangehörige_Gemeinde"},"district":{"key":"03356","name":"Osterholz","type":"Landkreis"},"federalState":{"key":"03","name":"Niedersachsen"}},{"name":"Gartenstr.","postalCode":"27729","locality":"Hambergen","municipality":{"key":"03356003","name":"Hambergen","type":"Kreisangehörige_Gemeinde"},"district":{"key":"03356","name":"Osterholz","type":"Landkreis"},"federalState":{"key":"03","name":"Niedersachsen"}},{"name":"Gleisendamm","postalCode":"27729","locality":"Hambergen","municipality":{"key":"03356003","name":"Hambergen","type":"Kreisangehörige_Gemeinde"},"district":{"key":"03356","name":"Osterholz","type":"Landkreis"},"federalState":{"key":"03","name":"Niedersachsen"}},{"name":"Grashörens Grund","postalCode":"27729","locality":"Hambergen","municipality":{"key":"03356003","name":"Hambergen","type":"Kreisangehörige_Gemeinde"},"district":{"key":"03356","name":"Osterholz","type":"Landkreis"},"federalState":{"key":"03","name":"Niedersachsen"}},{"name":"Grüne Grund","postalCode":"27729","locality":"Hambergen","municipality":{"key":"03356003","name":"Hambergen","type":"Kreisangehörige_Gemeinde"},"district":{"key":"03356","name":"Osterholz","type":"Landkreis"},"federalState":{"key":"03","name":"Niedersachsen"}},{"name":"Hauptstr.","postalCode":"27729","locality":"Hambergen","municipality":{"key":"03356003","name":"Hambergen","type":"Kreisangehörige_Gemeinde"},"district":{"key":"03356","name":"Osterholz","type":"Landkreis"},"federalState":{"key":"03","name":"Niedersachsen"}},{"name":"Hemsiek","postalCode":"27729","locality":"Hambergen","municipality":{"key":"03356003","name":"Hambergen","type":"Kreisangehörige_Gemeinde"},"district":{"key":"03356","name":"Osterholz","type":"Landkreis"},"federalState":{"key":"03","name":"Niedersachsen"}},{"name":"Hornacker","postalCode":"27729","locality":"Hambergen","municipality":{"key":"03356003","name":"Hambergen","type":"Kreisangehörige_Gemeinde"},"district":{"key":"03356","name":"Osterholz","type":"Landkreis"},"federalState":{"key":"03","name":"Niedersachsen"}},{"name":"Im Bruch","postalCode":"27729","locality":"Hambergen","municipality":{"key":"03356003","name":"Hambergen","type":"Kreisangehörige_Gemeinde"},"district":{"key":"03356","name":"Osterholz","type":"Landkreis"},"federalState":{"key":"03","name":"Niedersachsen"}},{"name":"Im Winkel","postalCode":"27729","locality":"Hambergen","municipality":{"key":"03356003","name":"Hambergen","type":"Kreisangehörige_Gemeinde"},"district":{"key":"03356","name":"Osterholz","type":"Landkreis"},"federalState":{"key":"03","name":"Niedersachsen"}},{"name":"Jantzen Park","postalCode":"27729","locality":"Hambergen","municipality":{"key":"03356003","name":"Hambergen","type":"Kreisangehörige_Gemeinde"},"district":{"key":"03356","name":"Osterholz","type":"Landkreis"},"federalState":{"key":"03","name":"Niedersachsen"}},{"name":"Kampstr.","postalCode":"27729","locality":"Hambergen","municipality":{"key":"03356003","name":"Hambergen","type":"Kreisangehörige_Gemeinde"},"district":{"key":"03356","name":"Osterholz","type":"Landkreis"},"federalState":{"key":"03","name":"Niedersachsen"}},{"name":"Kastanienweg","postalCode":"27729","locality":"Hambergen","municipality":{"key":"03356003","name":"Hambergen","type":"Kreisangehörige_Gemeinde"},"district":{"key":"03356","name":"Osterholz","type":"Landkreis"},"federalState":{"key":"03","name":"Niedersachsen"}},{"name":"Keilstr.","postalCode":"27729","locality":"Hambergen","municipality":{"key":"03356003","name":"Hambergen","type":"Kreisangehörige_Gemeinde"},"district":{"key":"03356","name":"Osterholz","type":"Landkreis"},"federalState":{"key":"03","name":"Niedersachsen"}},{"name":"Kirchweg","postalCode":"27729","locality":"Hambergen","municipality":{"key":"03356003","name":"Hambergen","type":"Kreisangehörige_Gemeinde"},"district":{"key":"03356","name":"Osterholz","type":"Landkreis"},"federalState":{"key":"03","name":"Niedersachsen"}},{"name":"Klöterbusch","postalCode":"27729","locality":"Hambergen","municipality":{"key":"03356003","name":"Hambergen","type":"Kreisangehörige_Gemeinde"},"district":{"key":"03356","name":"Osterholz","type":"Landkreis"},"federalState":{"key":"03","name":"Niedersachsen"}},{"name":"Koppelweg","postalCode":"27729","locality":"Hambergen","municipality":{"key":"03356003","name":"Hambergen","type":"Kreisangehörige_Gemeinde"},"district":{"key":"03356","name":"Osterholz","type":"Landkreis"},"federalState":{"key":"03","name":"Niedersachsen"}},{"name":"Kornstr.","postalCode":"27729","locality":"Hambergen","municipality":{"key":"03356003","name":"Hambergen","type":"Kreisangehörige_Gemeinde"},"district":{"key":"03356","name":"Osterholz","type":"Landkreis"},"federalState":{"key":"03","name":"Niedersachsen"}},{"name":"Lange Reihe","postalCode":"27711","locality":"Osterholz-Scharmbeck","municipality":{"key":"03356007","name":"Osterholz-Scharmbeck, Stadt","type":"Stadt"},"district":{"key":"03356","name":"Osterholz","type":"Landkreis"},"federalState":{"key":"03","name":"Niedersachsen"}},{"name":"Lärchenweg","postalCode":"27711","locality":"Osterholz-Scharmbeck","municipality":{"key":"03356007","name":"Osterholz-Scharmbeck, Stadt","type":"Stadt"},"district":{"key":"03356","name":"Osterholz","type":"Landkreis"},"federalState":{"key":"03","name":"Niedersachsen"}},{"name":"Laubenweg","postalCode":"27711","locality":"Osterholz-Scharmbeck","municipality":{"key":"03356007","name":"Osterholz-Scharmbeck, Stadt","type":"Stadt"},"district":{"key":"03356","name":"Osterholz","type":"Landkreis"},"federalState":{"key":"03","name":"Niedersachsen"}},{"name":"Leipziger Str.","postalCode":"27711","locality":"Osterholz-Scharmbeck","municipality":{"key":"03356007","name":"Osterholz-Scharmbeck, Stadt","type":"Stadt"},"district":{"key":"03356","name":"Osterholz","type":"Landkreis"},"federalState":{"key":"03","name":"Niedersachsen"}},{"name":"Lerchenstr.","postalCode":"27711","locality":"Osterholz-Scharmbeck","municipality":{"key":"03356007","name":"Osterholz-Scharmbeck, Stadt","type":"Stadt"},"district":{"key":"03356","name":"Osterholz","type":"Landkreis"},"federalState":{"key":"03","name":"Niedersachsen"}},{"name":"Lichter Weg","postalCode":"27711","locality":"Osterholz-Scharmbeck","municipality":{"key":"03356007","name":"Osterholz-Scharmbeck, Stadt","type":"Stadt"},"district":{"key":"03356","name":"Osterholz","type":"Landkreis"},"federalState":{"key":"03","name":"Niedersachsen"}},{"name":"Lilienweg","postalCode":"27711","locality":"Osterholz-Scharmbeck","municipality":{"key":"03356007","name":"Osterholz-Scharmbeck, Stadt","type":"Stadt"},"district":{"key":"03356","name":"Osterholz","type":"Landkreis"},"federalState":{"key":"03","name":"Niedersachsen"}},{"name":"Lintel","postalCode":"27711","locality":"Osterholz-Scharmbeck","municipality":{"key":"03356007","name":"Osterholz-Scharmbeck, Stadt","type":"Stadt"},"district":{"key":"03356","name":"Osterholz","type":"Landkreis"},"federalState":{"key":"03","name":"Niedersachsen"}},{"name":"Loger Hof","postalCode":"27711","locality":"Osterholz-Scharmbeck","municipality":{"key":"03356007","name":"Osterholz-Scharmbeck, Stadt","type":"Stadt"},"district":{"key":"03356","name":"Osterholz","type":"Landkreis"},"federalState":{"key":"03","name":"Niedersachsen"}},{"name":"Loger Str.","postalCode":"27711","locality":"Osterholz-Scharmbeck","municipality":{"key":"03356007","name":"Osterholz-Scharmbeck, Stadt","type":"Stadt"},"district":{"key":"03356","name":"Osterholz","type":"Landkreis"},"federalState":{"key":"03","name":"Niedersachsen"}},{"name":"Luisenstr.","postalCode":"27711","locality":"Osterholz-Scharmbeck","municipality":{"key":"03356007","name":"Osterholz-Scharmbeck, Stadt","type":"Stadt"},"district":{"key":"03356","name":"Osterholz","type":"Landkreis"},"federalState":{"key":"03","name":"Niedersachsen"}},{"name":"Malvenstr.","postalCode":"27729","locality":"Hambergen","municipality":{"key":"03356003","name":"Hambergen","type":"Kreisangehörige_Gemeinde"},"district":{"key":"03356","name":"Osterholz","type":"Landkreis"},"federalState":{"key":"03","name":"Niedersachsen"}},{"name":"Meisenweg","postalCode":"27729","locality":"Hambergen","municipality":{"key":"03356003","name":"Hambergen","type":"Kreisangehörige_Gemeinde"},"district":{"key":"03356","name":"Osterholz","type":"Landkreis"},"federalState":{"key":"03","name":"Niedersachsen"}},{"name":"Mühlenstr.","postalCode":"27729","locality":"Hambergen","municipality":{"key":"03356003","name":"Hambergen","type":"Kreisangehörige_Gemeinde"},"district":{"key":"03356","name":"Osterholz","type":"Landkreis"},"federalState":{"key":"03","name":"Niedersachsen"}},{"name":"Neuenkrug","postalCode":"27729","locality":"Hambergen","municipality":{"key":"03356003","name":"Hambergen","type":"Kreisangehörige_Gemeinde"},"district":{"key":"03356","name":"Osterholz","type":"Landkreis"},"federalState":{"key":"03","name":"Niedersachsen"}},{"name":"Ohlenstedter Str.","postalCode":"27729","locality":"Hambergen","municipality":{"key":"03356003","name":"Hambergen","type":"Kreisangehörige_Gemeinde"},"district":{"key":"03356","name":"Osterholz","type":"Landkreis"},"federalState":{"key":"03","name":"Niedersachsen"}},{"name":"Oldenbütteler Str.","postalCode":"27729","locality":"Hambergen","municipality":{"key":"03356003","name":"Hambergen","type":"Kreisangehörige_Gemeinde"},"district":{"key":"03356","name":"Osterholz","type":"Landkreis"},"federalState":{"key":"03","name":"Niedersachsen"}},{"name":"Papenbütteler Weg","postalCode":"27729","locality":"Hambergen","municipality":{"key":"03356003","name":"Hambergen","type":"Kreisangehörige_Gemeinde"},"district":{"key":"03356","name":"Osterholz","type":"Landkreis"},"federalState":{"key":"03","name":"Niedersachsen"}},{"name":"Parallelweg","postalCode":"27729","locality":"Hambergen","municipality":{"key":"03356003","name":"Hambergen","type":"Kreisangehörige_Gemeinde"},"district":{"key":"03356","name":"Osterholz","type":"Landkreis"},"federalState":{"key":"03","name":"Niedersachsen"}},{"name":"Pennigbütteler Heide","postalCode":"27729","locality":"Hambergen","municipality":{"key":"03356003","name":"Hambergen","type":"Kreisangehörige_Gemeinde"},"district":{"key":"03356","name":"Osterholz","type":"Landkreis"},"federalState":{"key":"03","name":"Niedersachsen"}},{"name":"Porstriehen","postalCode":"27729","locality":"Hambergen","municipality":{"key":"03356003","name":"Hambergen","type":"Kreisangehörige_Gemeinde"},"district":{"key":"03356","name":"Osterholz","type":"Landkreis"},"federalState":{"key":"03","name":"Niedersachsen"}},{"name":"Querstr.","postalCode":"27729","locality":"Hambergen","municipality":{"key":"03356003","name":"Hambergen","type":"Kreisangehörige_Gemeinde"},"district":{"key":"03356","name":"Osterholz","type":"Landkreis"},"federalState":{"key":"03","name":"Niedersachsen"}},{"name":"Rainstr.","postalCode":"27729","locality":"Hambergen","municipality":{"key":"03356003","name":"Hambergen","type":"Kreisangehörige_Gemeinde"},"district":{"key":"03356","name":"Osterholz","type":"Landkreis"},"federalState":{"key":"03","name":"Niedersachsen"}},{"name":"Ringstr.","postalCode":"27729","locality":"Hambergen","municipality":{"key":"03356003","name":"Hambergen","type":"Kreisangehörige_Gemeinde"},"district":{"key":"03356","name":"Osterholz","type":"Landkreis"},"federalState":{"key":"03","name":"Niedersachsen"}},{"name":"Rollbaumsberg","postalCode":"27729","locality":"Hambergen","municipality":{"key":"03356003","name":"Hambergen","type":"Kreisangehörige_Gemeinde"},"district":{"key":"03356","name":"Osterholz","type":"Landkreis"},"federalState":{"key":"03","name":"Niedersachsen"}},{"name":"Sandhausener Str.","postalCode":"27729","locality":"Hambergen","municipality":{"key":"03356003","name":"Hambergen","type":"Kreisangehörige_Gemeinde"},"district":{"key":"03356","name":"Osterholz","type":"Landkreis"},"federalState":{"key":"03","name":"Niedersachsen"}},{"name":"Schwalbenweg","postalCode":"27729","locality":"Hambergen","municipality":{"key":"03356003","name":"Hambergen","type":"Kreisangehörige_Gemeinde"},"district":{"key":"03356","name":"Osterholz","type":"Landkreis"},"federalState":{"key":"03","name":"Niedersachsen"}},{"name":"Spitzenkiel","postalCode":"27729","locality":"Hambergen","municipality":{"key":"03356003","name":"Hambergen","type":"Kreisangehörige_Gemeinde"},"district":{"key":"03356","name":"Osterholz","type":"Landkreis"},"federalState":{"key":"03","name":"Niedersachsen"}},{"name":"Stader Str.","postalCode":"27729","locality":"Hambergen","municipality":{"key":"03356003","name":"Hambergen","type":"Kreisangehörige_Gemeinde"},"district":{"key":"03356","name":"Osterholz","type":"Landkreis"},"federalState":{"key":"03","name":"Niedersachsen"}},{"name":"Steinkamp","postalCode":"27729","locality":"Hambergen","municipality":{"key":"03356003","name":"Hambergen","type":"Kreisangehörige_Gemeinde"},"district":{"key":"03356","name":"Osterholz","type":"Landkreis"},"federalState":{"key":"03","name":"Niedersachsen"}},{"name":"Ströher Damm","postalCode":"27729","locality":"Hambergen","municipality":{"key":"03356003","name":"Hambergen","type":"Kreisangehörige_Gemeinde"},"district":{"key":"03356","name":"Osterholz","type":"Landkreis"},"federalState":{"key":"03","name":"Niedersachsen"}},{"name":"Tannenkampsweg","postalCode":"27729","locality":"Hambergen","municipality":{"key":"03356003","name":"Hambergen","type":"Kreisangehörige_Gemeinde"},"district":{"key":"03356","name":"Osterholz","type":"Landkreis"},"federalState":{"key":"03","name":"Niedersachsen"}},{"name":"Trotzkamp","postalCode":"27729","locality":"Hambergen","municipality":{"key":"03356003","name":"Hambergen","type":"Kreisangehörige_Gemeinde"},"district":{"key":"03356","name":"Osterholz","type":"Landkreis"},"federalState":{"key":"03","name":"Niedersachsen"}},{"name":"Umbeckweg","postalCode":"27711","locality":"Osterholz-Scharmbeck","municipality":{"key":"03356007","name":"Osterholz-Scharmbeck, Stadt","type":"Stadt"},"district":{"key":"03356","name":"Osterholz","type":"Landkreis"},"federalState":{"key":"03","name":"Niedersachsen"}},{"name":"Umgehungsstr.","postalCode":"27711","locality":"Osterholz-Scharmbeck","municipality":{"key":"03356007","name":"Osterholz-Scharmbeck, Stadt","type":"Stadt"},"district":{"key":"03356","name":"Osterholz","type":"Landkreis"},"federalState":{"key":"03","name":"Niedersachsen"}},{"name":"Unter den Linden","postalCode":"27711","locality":"Osterholz-Scharmbeck","municipality":{"key":"03356007","name":"Osterholz-Scharmbeck, Stadt","type":"Stadt"},"district":{"key":"03356","name":"Osterholz","type":"Landkreis"},"federalState":{"key":"03","name":"Niedersachsen"}},{"name":"Vahlenkamp","postalCode":"27729","locality":"Hambergen","municipality":{"key":"03356003","name":"Hambergen","type":"Kreisangehörige_Gemeinde"},"district":{"key":"03356","name":"Osterholz","type":"Landkreis"},"federalState":{"key":"03","name":"Niedersachsen"}},{"name":"Vierhausen","postalCode":"27729","locality":"Hambergen","municipality":{"key":"03356003","name":"Hambergen","type":"Kreisangehörige_Gemeinde"},"district":{"key":"03356","name":"Osterholz","type":"Landkreis"},"federalState":{"key":"03","name":"Niedersachsen"}},{"name":"Vohrlingen","postalCode":"27729","locality":"Hambergen","municipality":{"key":"03356003","name":"Hambergen","type":"Kreisangehörige_Gemeinde"},"district":{"key":"03356","name":"Osterholz","type":"Landkreis"},"federalState":{"key":"03","name":"Niedersachsen"}},{"name":"Vollersoder Kirchweg","postalCode":"27729","locality":"Hambergen","municipality":{"key":"03356003","name":"Hambergen","type":"Kreisangehörige_Gemeinde"},"district":{"key":"03356","name":"Osterholz","type":"Landkreis"},"federalState":{"key":"03","name":"Niedersachsen"}},{"name":"Vor dem Butterberg","postalCode":"27729","locality":"Hambergen","municipality":{"key":"03356003","name":"Hambergen","type":"Kreisangehörige_Gemeinde"},"district":{"key":"03356","name":"Osterholz","type":"Landkreis"},"federalState":{"key":"03","name":"Niedersachsen"}},{"name":"Vor dem Schäferberg","postalCode":"27729","locality":"Hambergen","municipality":{"key":"03356003","name":"Hambergen","type":"Kreisangehörige_Gemeinde"},"district":{"key":"03356","name":"Osterholz","type":"Landkreis"},"federalState":{"key":"03","name":"Niedersachsen"}},{"name":"Wällenberg","postalCode":"27729","locality":"Hambergen","municipality":{"key":"03356003","name":"Hambergen","type":"Kreisangehörige_Gemeinde"},"district":{"key":"03356","name":"Osterholz","type":"Landkreis"},"federalState":{"key":"03","name":"Niedersachsen"}},{"name":"Wallhöfener Kirchweg","postalCode":"27729","locality":"Hambergen","municipality":{"key":"03356003","name":"Hambergen","type":"Kreisangehörige_Gemeinde"},"district":{"key":"03356","name":"Osterholz","type":"Landkreis"},"federalState":{"key":"03","name":"Niedersachsen"}},{"name":"Wesermünder Str.","postalCode":"27729","locality":"Hambergen","municipality":{"key":"03356003","name":"Hambergen","type":"Kreisangehörige_Gemeinde"},"district":{"key":"03356","name":"Osterholz","type":"Landkreis"},"federalState":{"key":"03","name":"Niedersachsen"}},{"name":"Wiesenstr.","postalCode":"27729","locality":"Hambergen","municipality":{"key":"03356003","name":"Hambergen","type":"Kreisangehörige_Gemeinde"},"district":{"key":"03356","name":"Osterholz","type":"Landkreis"},"federalState":{"key":"03","name":"Niedersachsen"}},{"name":"Windhornsfeld","postalCode":"27729","locality":"Hambergen","municipality":{"key":"03356003","name":"Hambergen","type":"Kreisangehörige_Gemeinde"},"district":{"key":"03356","name":"Osterholz","type":"Landkreis"},"federalState":{"key":"03","name":"Niedersachsen"}},{"name":"Wittenweg","postalCode":"27729","locality":"Hambergen","municipality":{"key":"03356003","name":"Hambergen","type":"Kreisangehörige_Gemeinde"},"district":{"key":"03356","name":"Osterholz","type":"Landkreis"},"federalState":{"key":"03","name":"Niedersachsen"}},{"name":"Zum Birkengrund","postalCode":"27729","locality":"Hambergen","municipality":{"key":"03356003","name":"Hambergen","type":"Kreisangehörige_Gemeinde"},"district":{"key":"03356","name":"Osterholz","type":"Landkreis"},"federalState":{"key":"03","name":"Niedersachsen"}},]