[{"name":"Ahornweg","postalCode":"99988","locality":"Südeichsfeld","municipality":{"key":"16064074","name":"Südeichsfeld","type":"Kreisangehörige_Gemeinde"},"district":{"key":"16064","name":"Unstrut-Hainich-Kreis","type":"Landkreis"},"federalState":{"key":"16","name":"Thüringen"}},{"name":"Alte Gasse","postalCode":"99988","locality":"Südeichsfeld","municipality":{"key":"16064074","name":"Südeichsfeld","type":"Kreisangehörige_Gemeinde"},"district":{"key":"16064","name":"Unstrut-Hainich-Kreis","type":"Landkreis"},"federalState":{"key":"16","name":"Thüringen"}},{"name":"Am alten Schuttplatz","postalCode":"99976","locality":"Südeichsfeld","municipality":{"key":"16064074","name":"Südeichsfeld","type":"Kreisangehörige_Gemeinde"},"district":{"key":"16064","name":"Unstrut-Hainich-Kreis","type":"Landkreis"},"federalState":{"key":"16","name":"Thüringen"}},{"name":"Am Bahndamm","postalCode":"99988","locality":"Südeichsfeld","municipality":{"key":"16064074","name":"Südeichsfeld","type":"Kreisangehörige_Gemeinde"},"district":{"key":"16064","name":"Unstrut-Hainich-Kreis","type":"Landkreis"},"federalState":{"key":"16","name":"Thüringen"}},{"name":"Am Bahnhof","postalCode":"99988","locality":"Südeichsfeld","municipality":{"key":"16064074","name":"Südeichsfeld","type":"Kreisangehörige_Gemeinde"},"district":{"key":"16064","name":"Unstrut-Hainich-Kreis","type":"Landkreis"},"federalState":{"key":"16","name":"Thüringen"}},{"name":"Am Gänseloh","postalCode":"99988","locality":"Südeichsfeld","municipality":{"key":"16064074","name":"Südeichsfeld","type":"Kreisangehörige_Gemeinde"},"district":{"key":"16064","name":"Unstrut-Hainich-Kreis","type":"Landkreis"},"federalState":{"key":"16","name":"Thüringen"}},{"name":"Am Heinzrain","postalCode":"99976","locality":"Südeichsfeld","municipality":{"key":"16064074","name":"Südeichsfeld","type":"Kreisangehörige_Gemeinde"},"district":{"key":"16064","name":"Unstrut-Hainich-Kreis","type":"Landkreis"},"federalState":{"key":"16","name":"Thüringen"}},{"name":"Am Heuberg","postalCode":"99988","locality":"Südeichsfeld","municipality":{"key":"16064074","name":"Südeichsfeld","type":"Kreisangehörige_Gemeinde"},"district":{"key":"16064","name":"Unstrut-Hainich-Kreis","type":"Landkreis"},"federalState":{"key":"16","name":"Thüringen"}},{"name":"Am Plan","postalCode":"99988","locality":"Südeichsfeld","municipality":{"key":"16064074","name":"Südeichsfeld","type":"Kreisangehörige_Gemeinde"},"district":{"key":"16064","name":"Unstrut-Hainich-Kreis","type":"Landkreis"},"federalState":{"key":"16","name":"Thüringen"}},{"name":"Am Schlößchen","postalCode":"99988","locality":"Südeichsfeld","municipality":{"key":"16064074","name":"Südeichsfeld","type":"Kreisangehörige_Gemeinde"},"district":{"key":"16064","name":"Unstrut-Hainich-Kreis","type":"Landkreis"},"federalState":{"key":"16","name":"Thüringen"}},{"name":"Am Schwimmbad","postalCode":"99976","locality":"Südeichsfeld","municipality":{"key":"16064074","name":"Südeichsfeld","type":"Kreisangehörige_Gemeinde"},"district":{"key":"16064","name":"Unstrut-Hainich-Kreis","type":"Landkreis"},"federalState":{"key":"16","name":"Thüringen"}},{"name":"Amselweg","postalCode":"99988","locality":"Südeichsfeld","municipality":{"key":"16064074","name":"Südeichsfeld","type":"Kreisangehörige_Gemeinde"},"district":{"key":"16064","name":"Unstrut-Hainich-Kreis","type":"Landkreis"},"federalState":{"key":"16","name":"Thüringen"}},{"name":"Am Wald","postalCode":"99988","locality":"Südeichsfeld","municipality":{"key":"16064074","name":"Südeichsfeld","type":"Kreisangehörige_Gemeinde"},"district":{"key":"16064","name":"Unstrut-Hainich-Kreis","type":"Landkreis"},"federalState":{"key":"16","name":"Thüringen"}},{"name":"An der Kanonenbahn","postalCode":"99976","locality":"Südeichsfeld","municipality":{"key":"16064074","name":"Südeichsfeld","type":"Kreisangehörige_Gemeinde"},"district":{"key":"16064","name":"Unstrut-Hainich-Kreis","type":"Landkreis"},"federalState":{"key":"16","name":"Thüringen"}},{"name":"Anger","postalCode":"99988","locality":"Südeichsfeld","municipality":{"key":"16064074","name":"Südeichsfeld","type":"Kreisangehörige_Gemeinde"},"district":{"key":"16064","name":"Unstrut-Hainich-Kreis","type":"Landkreis"},"federalState":{"key":"16","name":"Thüringen"}},{"name":"Antoniestr.","postalCode":"99988","locality":"Südeichsfeld","municipality":{"key":"16064074","name":"Südeichsfeld","type":"Kreisangehörige_Gemeinde"},"district":{"key":"16064","name":"Unstrut-Hainich-Kreis","type":"Landkreis"},"federalState":{"key":"16","name":"Thüringen"}},{"name":"Aschbergstr.","postalCode":"99988","locality":"Südeichsfeld","municipality":{"key":"16064074","name":"Südeichsfeld","type":"Kreisangehörige_Gemeinde"},"district":{"key":"16064","name":"Unstrut-Hainich-Kreis","type":"Landkreis"},"federalState":{"key":"16","name":"Thüringen"}},{"name":"Auf dem Schafhof","postalCode":"99976","locality":"Südeichsfeld","municipality":{"key":"16064074","name":"Südeichsfeld","type":"Kreisangehörige_Gemeinde"},"district":{"key":"16064","name":"Unstrut-Hainich-Kreis","type":"Landkreis"},"federalState":{"key":"16","name":"Thüringen"}},{"name":"Brückenstr.","postalCode":"37339","locality":"Ecklingerode","municipality":{"key":"16061026","name":"Ecklingerode","type":"Kreisangehörige_Gemeinde"},"district":{"key":"16061","name":"Eichsfeld","type":"Landkreis"},"federalState":{"key":"16","name":"Thüringen"}},{"name":"Diedorfer Str.","postalCode":"99988","locality":"Südeichsfeld","municipality":{"key":"16064074","name":"Südeichsfeld","type":"Kreisangehörige_Gemeinde"},"district":{"key":"16064","name":"Unstrut-Hainich-Kreis","type":"Landkreis"},"federalState":{"key":"16","name":"Thüringen"}},{"name":"Dorfstr.","postalCode":"99988","locality":"Südeichsfeld","municipality":{"key":"16064074","name":"Südeichsfeld","type":"Kreisangehörige_Gemeinde"},"district":{"key":"16064","name":"Unstrut-Hainich-Kreis","type":"Landkreis"},"federalState":{"key":"16","name":"Thüringen"}},{"name":"Dreiling","postalCode":"99988","locality":"Südeichsfeld","municipality":{"key":"16064074","name":"Südeichsfeld","type":"Kreisangehörige_Gemeinde"},"district":{"key":"16064","name":"Unstrut-Hainich-Kreis","type":"Landkreis"},"federalState":{"key":"16","name":"Thüringen"}},{"name":"Drosselweg","postalCode":"99988","locality":"Südeichsfeld","municipality":{"key":"16064074","name":"Südeichsfeld","type":"Kreisangehörige_Gemeinde"},"district":{"key":"16064","name":"Unstrut-Hainich-Kreis","type":"Landkreis"},"federalState":{"key":"16","name":"Thüringen"}},{"name":"Effelder Weg","postalCode":"99976","locality":"Südeichsfeld","municipality":{"key":"16064074","name":"Südeichsfeld","type":"Kreisangehörige_Gemeinde"},"district":{"key":"16064","name":"Unstrut-Hainich-Kreis","type":"Landkreis"},"federalState":{"key":"16","name":"Thüringen"}},{"name":"Eichsfelder Str.","postalCode":"99988","locality":"Südeichsfeld","municipality":{"key":"16064074","name":"Südeichsfeld","type":"Kreisangehörige_Gemeinde"},"district":{"key":"16064","name":"Unstrut-Hainich-Kreis","type":"Landkreis"},"federalState":{"key":"16","name":"Thüringen"}},{"name":"Eichtal","postalCode":"99988","locality":"Südeichsfeld","municipality":{"key":"16064074","name":"Südeichsfeld","type":"Kreisangehörige_Gemeinde"},"district":{"key":"16064","name":"Unstrut-Hainich-Kreis","type":"Landkreis"},"federalState":{"key":"16","name":"Thüringen"}},{"name":"Eisenacher Str.","postalCode":"99988","locality":"Südeichsfeld","municipality":{"key":"16064074","name":"Südeichsfeld","type":"Kreisangehörige_Gemeinde"},"district":{"key":"16064","name":"Unstrut-Hainich-Kreis","type":"Landkreis"},"federalState":{"key":"16","name":"Thüringen"}},{"name":"Friedensstr.","postalCode":"37339","locality":"Ecklingerode","municipality":{"key":"16061026","name":"Ecklingerode","type":"Kreisangehörige_Gemeinde"},"district":{"key":"16061","name":"Eichsfeld","type":"Landkreis"},"federalState":{"key":"16","name":"Thüringen"}},{"name":"Gaibergweg","postalCode":"99976","locality":"Südeichsfeld","municipality":{"key":"16064074","name":"Südeichsfeld","type":"Kreisangehörige_Gemeinde"},"district":{"key":"16064","name":"Unstrut-Hainich-Kreis","type":"Landkreis"},"federalState":{"key":"16","name":"Thüringen"}},{"name":"Gartenstr.","postalCode":"99976","locality":"Südeichsfeld","municipality":{"key":"16064074","name":"Südeichsfeld","type":"Kreisangehörige_Gemeinde"},"district":{"key":"16064","name":"Unstrut-Hainich-Kreis","type":"Landkreis"},"federalState":{"key":"16","name":"Thüringen"}},{"name":"Gartenstr.","postalCode":"99988","locality":"Südeichsfeld","municipality":{"key":"16064074","name":"Südeichsfeld","type":"Kreisangehörige_Gemeinde"},"district":{"key":"16064","name":"Unstrut-Hainich-Kreis","type":"Landkreis"},"federalState":{"key":"16","name":"Thüringen"}},{"name":"Gäßchen","postalCode":"99988","locality":"Südeichsfeld","municipality":{"key":"16064074","name":"Südeichsfeld","type":"Kreisangehörige_Gemeinde"},"district":{"key":"16064","name":"Unstrut-Hainich-Kreis","type":"Landkreis"},"federalState":{"key":"16","name":"Thüringen"}},{"name":"Goethestr.","postalCode":"99988","locality":"Südeichsfeld","municipality":{"key":"16064074","name":"Südeichsfeld","type":"Kreisangehörige_Gemeinde"},"district":{"key":"16064","name":"Unstrut-Hainich-Kreis","type":"Landkreis"},"federalState":{"key":"16","name":"Thüringen"}},{"name":"Goldgasse","postalCode":"99976","locality":"Südeichsfeld","municipality":{"key":"16064074","name":"Südeichsfeld","type":"Kreisangehörige_Gemeinde"},"district":{"key":"16064","name":"Unstrut-Hainich-Kreis","type":"Landkreis"},"federalState":{"key":"16","name":"Thüringen"}},{"name":"Grenzstr.","postalCode":"99988","locality":"Südeichsfeld","municipality":{"key":"16064074","name":"Südeichsfeld","type":"Kreisangehörige_Gemeinde"},"district":{"key":"16064","name":"Unstrut-Hainich-Kreis","type":"Landkreis"},"federalState":{"key":"16","name":"Thüringen"}},{"name":"Grünstr.","postalCode":"99988","locality":"Südeichsfeld","municipality":{"key":"16064074","name":"Südeichsfeld","type":"Kreisangehörige_Gemeinde"},"district":{"key":"16064","name":"Unstrut-Hainich-Kreis","type":"Landkreis"},"federalState":{"key":"16","name":"Thüringen"}},{"name":"Hauptstr.","postalCode":"37339","locality":"Ecklingerode","municipality":{"key":"16061026","name":"Ecklingerode","type":"Kreisangehörige_Gemeinde"},"district":{"key":"16061","name":"Eichsfeld","type":"Landkreis"},"federalState":{"key":"16","name":"Thüringen"}},{"name":"Hinterdorfstr.","postalCode":"37339","locality":"Ecklingerode","municipality":{"key":"16061026","name":"Ecklingerode","type":"Kreisangehörige_Gemeinde"},"district":{"key":"16061","name":"Eichsfeld","type":"Landkreis"},"federalState":{"key":"16","name":"Thüringen"}},{"name":"Im Grunde","postalCode":"99988","locality":"Südeichsfeld","municipality":{"key":"16064074","name":"Südeichsfeld","type":"Kreisangehörige_Gemeinde"},"district":{"key":"16064","name":"Unstrut-Hainich-Kreis","type":"Landkreis"},"federalState":{"key":"16","name":"Thüringen"}},{"name":"Im Gut","postalCode":"99988","locality":"Südeichsfeld","municipality":{"key":"16064074","name":"Südeichsfeld","type":"Kreisangehörige_Gemeinde"},"district":{"key":"16064","name":"Unstrut-Hainich-Kreis","type":"Landkreis"},"federalState":{"key":"16","name":"Thüringen"}},{"name":"Im Kessel","postalCode":"99988","locality":"Südeichsfeld","municipality":{"key":"16064074","name":"Südeichsfeld","type":"Kreisangehörige_Gemeinde"},"district":{"key":"16064","name":"Unstrut-Hainich-Kreis","type":"Landkreis"},"federalState":{"key":"16","name":"Thüringen"}},{"name":"Im Neuen Hof","postalCode":"99988","locality":"Südeichsfeld","municipality":{"key":"16064074","name":"Südeichsfeld","type":"Kreisangehörige_Gemeinde"},"district":{"key":"16064","name":"Unstrut-Hainich-Kreis","type":"Landkreis"},"federalState":{"key":"16","name":"Thüringen"}},{"name":"Jägerstr.","postalCode":"99988","locality":"Südeichsfeld","municipality":{"key":"16064074","name":"Südeichsfeld","type":"Kreisangehörige_Gemeinde"},"district":{"key":"16064","name":"Unstrut-Hainich-Kreis","type":"Landkreis"},"federalState":{"key":"16","name":"Thüringen"}},{"name":"Johannesstr.","postalCode":"99988","locality":"Südeichsfeld","municipality":{"key":"16064074","name":"Südeichsfeld","type":"Kreisangehörige_Gemeinde"},"district":{"key":"16064","name":"Unstrut-Hainich-Kreis","type":"Landkreis"},"federalState":{"key":"16","name":"Thüringen"}},{"name":"Kolonnenweg DDR-Grenze","postalCode":"37339","locality":"Ecklingerode","municipality":{"key":"16061026","name":"Ecklingerode","type":"Kreisangehörige_Gemeinde"},"district":{"key":"16061","name":"Eichsfeld","type":"Landkreis"},"federalState":{"key":"16","name":"Thüringen"}},{"name":"Kolonnenweg DDR-Grenze (sehr steil)","postalCode":"37339","locality":"Ecklingerode","municipality":{"key":"16061026","name":"Ecklingerode","type":"Kreisangehörige_Gemeinde"},"district":{"key":"16061","name":"Eichsfeld","type":"Landkreis"},"federalState":{"key":"16","name":"Thüringen"}},{"name":"Landstr.","postalCode":"99988","locality":"Südeichsfeld","municipality":{"key":"16064074","name":"Südeichsfeld","type":"Kreisangehörige_Gemeinde"},"district":{"key":"16064","name":"Unstrut-Hainich-Kreis","type":"Landkreis"},"federalState":{"key":"16","name":"Thüringen"}},{"name":"Lengenfelder Weg","postalCode":"99976","locality":"Südeichsfeld","municipality":{"key":"16064074","name":"Südeichsfeld","type":"Kreisangehörige_Gemeinde"},"district":{"key":"16064","name":"Unstrut-Hainich-Kreis","type":"Landkreis"},"federalState":{"key":"16","name":"Thüringen"}},{"name":"Lessingstr.","postalCode":"99988","locality":"Südeichsfeld","municipality":{"key":"16064074","name":"Südeichsfeld","type":"Kreisangehörige_Gemeinde"},"district":{"key":"16064","name":"Unstrut-Hainich-Kreis","type":"Landkreis"},"federalState":{"key":"16","name":"Thüringen"}},{"name":"Lindenstr.","postalCode":"99988","locality":"Südeichsfeld","municipality":{"key":"16064074","name":"Südeichsfeld","type":"Kreisangehörige_Gemeinde"},"district":{"key":"16064","name":"Unstrut-Hainich-Kreis","type":"Landkreis"},"federalState":{"key":"16","name":"Thüringen"}},{"name":"Lindenufer","postalCode":"99976","locality":"Südeichsfeld","municipality":{"key":"16064074","name":"Südeichsfeld","type":"Kreisangehörige_Gemeinde"},"district":{"key":"16064","name":"Unstrut-Hainich-Kreis","type":"Landkreis"},"federalState":{"key":"16","name":"Thüringen"}},{"name":"Mühlengasse","postalCode":"37339","locality":"Ecklingerode","municipality":{"key":"16061026","name":"Ecklingerode","type":"Kreisangehörige_Gemeinde"},"district":{"key":"16061","name":"Eichsfeld","type":"Landkreis"},"federalState":{"key":"16","name":"Thüringen"}},{"name":"Neuer Weg","postalCode":"37339","locality":"Ecklingerode","municipality":{"key":"16061026","name":"Ecklingerode","type":"Kreisangehörige_Gemeinde"},"district":{"key":"16061","name":"Eichsfeld","type":"Landkreis"},"federalState":{"key":"16","name":"Thüringen"}},{"name":"Obergasse","postalCode":"99988","locality":"Südeichsfeld","municipality":{"key":"16064074","name":"Südeichsfeld","type":"Kreisangehörige_Gemeinde"},"district":{"key":"16064","name":"Unstrut-Hainich-Kreis","type":"Landkreis"},"federalState":{"key":"16","name":"Thüringen"}},{"name":"Oberstr.","postalCode":"99988","locality":"Südeichsfeld","municipality":{"key":"16064074","name":"Südeichsfeld","type":"Kreisangehörige_Gemeinde"},"district":{"key":"16064","name":"Unstrut-Hainich-Kreis","type":"Landkreis"},"federalState":{"key":"16","name":"Thüringen"}},{"name":"Pfarrgasse","postalCode":"37339","locality":"Ecklingerode","municipality":{"key":"16061026","name":"Ecklingerode","type":"Kreisangehörige_Gemeinde"},"district":{"key":"16061","name":"Eichsfeld","type":"Landkreis"},"federalState":{"key":"16","name":"Thüringen"}},{"name":"Rasen","postalCode":"99976","locality":"Südeichsfeld","municipality":{"key":"16064074","name":"Südeichsfeld","type":"Kreisangehörige_Gemeinde"},"district":{"key":"16064","name":"Unstrut-Hainich-Kreis","type":"Landkreis"},"federalState":{"key":"16","name":"Thüringen"}},{"name":"Riedstr.","postalCode":"99988","locality":"Südeichsfeld","municipality":{"key":"16064074","name":"Südeichsfeld","type":"Kreisangehörige_Gemeinde"},"district":{"key":"16064","name":"Unstrut-Hainich-Kreis","type":"Landkreis"},"federalState":{"key":"16","name":"Thüringen"}},{"name":"Rosengarten","postalCode":"99988","locality":"Südeichsfeld","municipality":{"key":"16064074","name":"Südeichsfeld","type":"Kreisangehörige_Gemeinde"},"district":{"key":"16064","name":"Unstrut-Hainich-Kreis","type":"Landkreis"},"federalState":{"key":"16","name":"Thüringen"}},{"name":"Rosenstr.","postalCode":"99988","locality":"Südeichsfeld","municipality":{"key":"16064074","name":"Südeichsfeld","type":"Kreisangehörige_Gemeinde"},"district":{"key":"16064","name":"Unstrut-Hainich-Kreis","type":"Landkreis"},"federalState":{"key":"16","name":"Thüringen"}},{"name":"Schenkenburgstr.","postalCode":"37339","locality":"Ecklingerode","municipality":{"key":"16061026","name":"Ecklingerode","type":"Kreisangehörige_Gemeinde"},"district":{"key":"16061","name":"Eichsfeld","type":"Landkreis"},"federalState":{"key":"16","name":"Thüringen"}},{"name":"Sielmann Höhenweg","postalCode":"37339","locality":"Ecklingerode","municipality":{"key":"16061026","name":"Ecklingerode","type":"Kreisangehörige_Gemeinde"},"district":{"key":"16061","name":"Eichsfeld","type":"Landkreis"},"federalState":{"key":"16","name":"Thüringen"}},{"name":"Sielmann Höhenweg (Hin- und Rückweg)","postalCode":"37339","locality":"Ecklingerode","municipality":{"key":"16061026","name":"Ecklingerode","type":"Kreisangehörige_Gemeinde"},"district":{"key":"16061","name":"Eichsfeld","type":"Landkreis"},"federalState":{"key":"16","name":"Thüringen"}},{"name":"Sielmann Höhenweg (Hinweg)","postalCode":"37339","locality":"Ecklingerode","municipality":{"key":"16061026","name":"Ecklingerode","type":"Kreisangehörige_Gemeinde"},"district":{"key":"16061","name":"Eichsfeld","type":"Landkreis"},"federalState":{"key":"16","name":"Thüringen"}},{"name":"Sielmann Höhenweg (Rückweg)","postalCode":"37339","locality":"Ecklingerode","municipality":{"key":"16061026","name":"Ecklingerode","type":"Kreisangehörige_Gemeinde"},"district":{"key":"16061","name":"Eichsfeld","type":"Landkreis"},"federalState":{"key":"16","name":"Thüringen"}},{"name":"Sonnensteinweg","postalCode":"37339","locality":"Ecklingerode","municipality":{"key":"16061026","name":"Ecklingerode","type":"Kreisangehörige_Gemeinde"},"district":{"key":"16061","name":"Eichsfeld","type":"Landkreis"},"federalState":{"key":"16","name":"Thüringen"}},{"name":"Teichstr.","postalCode":"37339","locality":"Ecklingerode","municipality":{"key":"16061026","name":"Ecklingerode","type":"Kreisangehörige_Gemeinde"},"district":{"key":"16061","name":"Eichsfeld","type":"Landkreis"},"federalState":{"key":"16","name":"Thüringen"}},{"name":"Tiefe Str.","postalCode":"37339","locality":"Ecklingerode","municipality":{"key":"16061026","name":"Ecklingerode","type":"Kreisangehörige_Gemeinde"},"district":{"key":"16061","name":"Eichsfeld","type":"Landkreis"},"federalState":{"key":"16","name":"Thüringen"}},{"name":"Unter dem Hanstein","postalCode":"99976","locality":"Südeichsfeld","municipality":{"key":"16064074","name":"Südeichsfeld","type":"Kreisangehörige_Gemeinde"},"district":{"key":"16064","name":"Unstrut-Hainich-Kreis","type":"Landkreis"},"federalState":{"key":"16","name":"Thüringen"}},{"name":"Unterm Kirchberg","postalCode":"99976","locality":"Südeichsfeld","municipality":{"key":"16064074","name":"Südeichsfeld","type":"Kreisangehörige_Gemeinde"},"district":{"key":"16064","name":"Unstrut-Hainich-Kreis","type":"Landkreis"},"federalState":{"key":"16","name":"Thüringen"}},{"name":"Unterm Lichten","postalCode":"99988","locality":"Südeichsfeld","municipality":{"key":"16064074","name":"Südeichsfeld","type":"Kreisangehörige_Gemeinde"},"district":{"key":"16064","name":"Unstrut-Hainich-Kreis","type":"Landkreis"},"federalState":{"key":"16","name":"Thüringen"}},{"name":"Unterm Mühlberg","postalCode":"99988","locality":"Südeichsfeld","municipality":{"key":"16064074","name":"Südeichsfeld","type":"Kreisangehörige_Gemeinde"},"district":{"key":"16064","name":"Unstrut-Hainich-Kreis","type":"Landkreis"},"federalState":{"key":"16","name":"Thüringen"}},{"name":"Untermühle","postalCode":"99976","locality":"Südeichsfeld","municipality":{"key":"16064074","name":"Südeichsfeld","type":"Kreisangehörige_Gemeinde"},"district":{"key":"16064","name":"Unstrut-Hainich-Kreis","type":"Landkreis"},"federalState":{"key":"16","name":"Thüringen"}},{"name":"Vor dem Kreuztal","postalCode":"99988","locality":"Südeichsfeld","municipality":{"key":"16064074","name":"Südeichsfeld","type":"Kreisangehörige_Gemeinde"},"district":{"key":"16064","name":"Unstrut-Hainich-Kreis","type":"Landkreis"},"federalState":{"key":"16","name":"Thüringen"}},{"name":"Weg","postalCode":"99976","locality":"Südeichsfeld","municipality":{"key":"16064074","name":"Südeichsfeld","type":"Kreisangehörige_Gemeinde"},"district":{"key":"16064","name":"Unstrut-Hainich-Kreis","type":"Landkreis"},"federalState":{"key":"16","name":"Thüringen"}},{"name":"Weinbergstr.","postalCode":"99988","locality":"Südeichsfeld","municipality":{"key":"16064074","name":"Südeichsfeld","type":"Kreisangehörige_Gemeinde"},"district":{"key":"16064","name":"Unstrut-Hainich-Kreis","type":"Landkreis"},"federalState":{"key":"16","name":"Thüringen"}},{"name":"Wendehäuser Str.","postalCode":"99988","locality":"Südeichsfeld","municipality":{"key":"16064074","name":"Südeichsfeld","type":"Kreisangehörige_Gemeinde"},"district":{"key":"16064","name":"Unstrut-Hainich-Kreis","type":"Landkreis"},"federalState":{"key":"16","name":"Thüringen"}},{"name":"Wiesengrund","postalCode":"99988","locality":"Südeichsfeld","municipality":{"key":"16064074","name":"Südeichsfeld","type":"Kreisangehörige_Gemeinde"},"district":{"key":"16064","name":"Unstrut-Hainich-Kreis","type":"Landkreis"},"federalState":{"key":"16","name":"Thüringen"}},{"name":"Wiesenweg","postalCode":"99988","locality":"Südeichsfeld","municipality":{"key":"16064074","name":"Südeichsfeld","type":"Kreisangehörige_Gemeinde"},"district":{"key":"16064","name":"Unstrut-Hainich-Kreis","type":"Landkreis"},"federalState":{"key":"16","name":"Thüringen"}},{"name":"Wilhelmstr.","postalCode":"99988","locality":"Südeichsfeld","municipality":{"key":"16064074","name":"Südeichsfeld","type":"Kreisangehörige_Gemeinde"},"district":{"key":"16064","name":"Unstrut-Hainich-Kreis","type":"Landkreis"},"federalState":{"key":"16","name":"Thüringen"}},{"name":"Ziehborn","postalCode":"99976","locality":"Südeichsfeld","municipality":{"key":"16064074","name":"Südeichsfeld","type":"Kreisangehörige_Gemeinde"},"district":{"key":"16064","name":"Unstrut-Hainich-Kreis","type":"Landkreis"},"federalState":{"key":"16","name":"Thüringen"}},{"name":"Zittelstr.","postalCode":"99988","locality":"Südeichsfeld","municipality":{"key":"16064074","name":"Südeichsfeld","type":"Kreisangehörige_Gemeinde"},"district":{"key":"16064","name":"Unstrut-Hainich-Kreis","type":"Landkreis"},"federalState":{"key":"16","name":"Thüringen"}},{"name":"Zollgasse","postalCode":"99988","locality":"Südeichsfeld","municipality":{"key":"16064074","name":"Südeichsfeld","type":"Kreisangehörige_Gemeinde"},"district":{"key":"16064","name":"Unstrut-Hainich-Kreis","type":"Landkreis"},"federalState":{"key":"16","name":"Thüringen"}},{"name":"Zum Steinacker","postalCode":"99988","locality":"Südeichsfeld","municipality":{"key":"16064074","name":"Südeichsfeld","type":"Kreisangehörige_Gemeinde"},"district":{"key":"16064","name":"Unstrut-Hainich-Kreis","type":"Landkreis"},"federalState":{"key":"16","name":"Thüringen"}},{"name":"Zum Vogelsang","postalCode":"99988","locality":"Südeichsfeld","municipality":{"key":"16064074","name":"Südeichsfeld","type":"Kreisangehörige_Gemeinde"},"district":{"key":"16064","name":"Unstrut-Hainich-Kreis","type":"Landkreis"},"federalState":{"key":"16","name":"Thüringen"}},{"name":"Zur Salztrift","postalCode":"99988","locality":"Südeichsfeld","municipality":{"key":"16064074","name":"Südeichsfeld","type":"Kreisangehörige_Gemeinde"},"district":{"key":"16064","name":"Unstrut-Hainich-Kreis","type":"Landkreis"},"federalState":{"key":"16","name":"Thüringen"}},]