[{"name":"Am Pastoratsweg","postalCode":"25836","locality":"Katharinenheerd","municipality":{"key":"01054063","name":"Katharinenheerd","type":"Kreisangehörige_Gemeinde"},"district":{"key":"01054","name":"Nordfriesland","type":"Kreis"},"federalState":{"key":"01","name":"Schleswig-Holstein"}},{"name":"Am Wäldchen","postalCode":"25836","locality":"Katharinenheerd","municipality":{"key":"01054063","name":"Katharinenheerd","type":"Kreisangehörige_Gemeinde"},"district":{"key":"01054","name":"Nordfriesland","type":"Kreis"},"federalState":{"key":"01","name":"Schleswig-Holstein"}},{"name":"Bahnhofstr.","postalCode":"25836","locality":"Katharinenheerd","municipality":{"key":"01054063","name":"Katharinenheerd","type":"Kreisangehörige_Gemeinde"},"district":{"key":"01054","name":"Nordfriesland","type":"Kreis"},"federalState":{"key":"01","name":"Schleswig-Holstein"}},{"name":"Bootführerdeich","postalCode":"25836","locality":"Katharinenheerd","municipality":{"key":"01054063","name":"Katharinenheerd","type":"Kreisangehörige_Gemeinde"},"district":{"key":"01054","name":"Nordfriesland","type":"Kreis"},"federalState":{"key":"01","name":"Schleswig-Holstein"}},{"name":"Grandweg","postalCode":"25836","locality":"Katharinenheerd","municipality":{"key":"01054063","name":"Katharinenheerd","type":"Kreisangehörige_Gemeinde"},"district":{"key":"01054","name":"Nordfriesland","type":"Kreis"},"federalState":{"key":"01","name":"Schleswig-Holstein"}},{"name":"Lerchenweg","postalCode":"25836","locality":"Katharinenheerd","municipality":{"key":"01054063","name":"Katharinenheerd","type":"Kreisangehörige_Gemeinde"},"district":{"key":"01054","name":"Nordfriesland","type":"Kreis"},"federalState":{"key":"01","name":"Schleswig-Holstein"}},{"name":"Martje-Flohrs-Str.","postalCode":"25836","locality":"Katharinenheerd","municipality":{"key":"01054063","name":"Katharinenheerd","type":"Kreisangehörige_Gemeinde"},"district":{"key":"01054","name":"Nordfriesland","type":"Kreis"},"federalState":{"key":"01","name":"Schleswig-Holstein"}},{"name":"Pastoratsweg","postalCode":"25836","locality":"Katharinenheerd","municipality":{"key":"01054063","name":"Katharinenheerd","type":"Kreisangehörige_Gemeinde"},"district":{"key":"01054","name":"Nordfriesland","type":"Kreis"},"federalState":{"key":"01","name":"Schleswig-Holstein"}},{"name":"Schüttkobenweg","postalCode":"25836","locality":"Katharinenheerd","municipality":{"key":"01054063","name":"Katharinenheerd","type":"Kreisangehörige_Gemeinde"},"district":{"key":"01054","name":"Nordfriesland","type":"Kreis"},"federalState":{"key":"01","name":"Schleswig-Holstein"}},]