[{"name":"Achweg","postalCode":"88364","locality":"Wolfegg","municipality":{"key":"08436085","name":"Wolfegg","type":"Kreisangehörige_Gemeinde"},"district":{"key":"08436","name":"Ravensburg","type":"Landkreis"},"federalState":{"key":"08","name":"Baden-Württemberg"}},{"name":"Altdorfstr.","postalCode":"88364","locality":"Wolfegg","municipality":{"key":"08436085","name":"Wolfegg","type":"Kreisangehörige_Gemeinde"},"district":{"key":"08436","name":"Ravensburg","type":"Landkreis"},"federalState":{"key":"08","name":"Baden-Württemberg"}},{"name":"Alter Kirchweg","postalCode":"88364","locality":"Wolfegg","municipality":{"key":"08436085","name":"Wolfegg","type":"Kreisangehörige_Gemeinde"},"district":{"key":"08436","name":"Ravensburg","type":"Landkreis"},"federalState":{"key":"08","name":"Baden-Württemberg"}},{"name":"Alttanner Str.","postalCode":"88364","locality":"Wolfegg","municipality":{"key":"08436085","name":"Wolfegg","type":"Kreisangehörige_Gemeinde"},"district":{"key":"08436","name":"Ravensburg","type":"Landkreis"},"federalState":{"key":"08","name":"Baden-Württemberg"}},{"name":"Am Alpenblick","postalCode":"88364","locality":"Wolfegg","municipality":{"key":"08436085","name":"Wolfegg","type":"Kreisangehörige_Gemeinde"},"district":{"key":"08436","name":"Ravensburg","type":"Landkreis"},"federalState":{"key":"08","name":"Baden-Württemberg"}},{"name":"Am Bannholz","postalCode":"88364","locality":"Wolfegg","municipality":{"key":"08436085","name":"Wolfegg","type":"Kreisangehörige_Gemeinde"},"district":{"key":"08436","name":"Ravensburg","type":"Landkreis"},"federalState":{"key":"08","name":"Baden-Württemberg"}},{"name":"Am Galgengrüble","postalCode":"88364","locality":"Wolfegg","municipality":{"key":"08436085","name":"Wolfegg","type":"Kreisangehörige_Gemeinde"},"district":{"key":"08436","name":"Ravensburg","type":"Landkreis"},"federalState":{"key":"08","name":"Baden-Württemberg"}},{"name":"Am Pfarrstadel","postalCode":"88364","locality":"Wolfegg","municipality":{"key":"08436085","name":"Wolfegg","type":"Kreisangehörige_Gemeinde"},"district":{"key":"08436","name":"Ravensburg","type":"Landkreis"},"federalState":{"key":"08","name":"Baden-Württemberg"}},{"name":"Am Schwanen","postalCode":"88364","locality":"Wolfegg","municipality":{"key":"08436085","name":"Wolfegg","type":"Kreisangehörige_Gemeinde"},"district":{"key":"08436","name":"Ravensburg","type":"Landkreis"},"federalState":{"key":"08","name":"Baden-Württemberg"}},{"name":"Amselweg","postalCode":"88364","locality":"Wolfegg","municipality":{"key":"08436085","name":"Wolfegg","type":"Kreisangehörige_Gemeinde"},"district":{"key":"08436","name":"Ravensburg","type":"Landkreis"},"federalState":{"key":"08","name":"Baden-Württemberg"}},{"name":"An der langen Mauer","postalCode":"88364","locality":"Wolfegg","municipality":{"key":"08436085","name":"Wolfegg","type":"Kreisangehörige_Gemeinde"},"district":{"key":"08436","name":"Ravensburg","type":"Landkreis"},"federalState":{"key":"08","name":"Baden-Württemberg"}},{"name":"Bahnhofstr.","postalCode":"88364","locality":"Wolfegg","municipality":{"key":"08436085","name":"Wolfegg","type":"Kreisangehörige_Gemeinde"},"district":{"key":"08436","name":"Ravensburg","type":"Landkreis"},"federalState":{"key":"08","name":"Baden-Württemberg"}},{"name":"Bethlehemstr.","postalCode":"88364","locality":"Wolfegg","municipality":{"key":"08436085","name":"Wolfegg","type":"Kreisangehörige_Gemeinde"},"district":{"key":"08436","name":"Ravensburg","type":"Landkreis"},"federalState":{"key":"08","name":"Baden-Württemberg"}},{"name":"Birkenallee","postalCode":"88364","locality":"Wolfegg","municipality":{"key":"08436085","name":"Wolfegg","type":"Kreisangehörige_Gemeinde"},"district":{"key":"08436","name":"Ravensburg","type":"Landkreis"},"federalState":{"key":"08","name":"Baden-Württemberg"}},{"name":"Chorherrengasse","postalCode":"88364","locality":"Wolfegg","municipality":{"key":"08436085","name":"Wolfegg","type":"Kreisangehörige_Gemeinde"},"district":{"key":"08436","name":"Ravensburg","type":"Landkreis"},"federalState":{"key":"08","name":"Baden-Württemberg"}},{"name":"Dorfstr.","postalCode":"88364","locality":"Wolfegg","municipality":{"key":"08436085","name":"Wolfegg","type":"Kreisangehörige_Gemeinde"},"district":{"key":"08436","name":"Ravensburg","type":"Landkreis"},"federalState":{"key":"08","name":"Baden-Württemberg"}},{"name":"Eberhardplatz","postalCode":"88364","locality":"Wolfegg","municipality":{"key":"08436085","name":"Wolfegg","type":"Kreisangehörige_Gemeinde"},"district":{"key":"08436","name":"Ravensburg","type":"Landkreis"},"federalState":{"key":"08","name":"Baden-Württemberg"}},{"name":"Ebe´s Weinsteige","postalCode":"88364","locality":"Wolfegg","municipality":{"key":"08436085","name":"Wolfegg","type":"Kreisangehörige_Gemeinde"},"district":{"key":"08436","name":"Ravensburg","type":"Landkreis"},"federalState":{"key":"08","name":"Baden-Württemberg"}},{"name":"ehemalige Panzerstr. Weltkrieg II","postalCode":"88364","locality":"Wolfegg","municipality":{"key":"08436085","name":"Wolfegg","type":"Kreisangehörige_Gemeinde"},"district":{"key":"08436","name":"Ravensburg","type":"Landkreis"},"federalState":{"key":"08","name":"Baden-Württemberg"}},{"name":"Eichenweg","postalCode":"88364","locality":"Wolfegg","municipality":{"key":"08436085","name":"Wolfegg","type":"Kreisangehörige_Gemeinde"},"district":{"key":"08436","name":"Ravensburg","type":"Landkreis"},"federalState":{"key":"08","name":"Baden-Württemberg"}},{"name":"Eintürner Str.","postalCode":"88364","locality":"Wolfegg","municipality":{"key":"08436085","name":"Wolfegg","type":"Kreisangehörige_Gemeinde"},"district":{"key":"08436","name":"Ravensburg","type":"Landkreis"},"federalState":{"key":"08","name":"Baden-Württemberg"}},{"name":"Fichtenweg","postalCode":"88364","locality":"Wolfegg","municipality":{"key":"08436085","name":"Wolfegg","type":"Kreisangehörige_Gemeinde"},"district":{"key":"08436","name":"Ravensburg","type":"Landkreis"},"federalState":{"key":"08","name":"Baden-Württemberg"}},{"name":"Fischergasse","postalCode":"88364","locality":"Wolfegg","municipality":{"key":"08436085","name":"Wolfegg","type":"Kreisangehörige_Gemeinde"},"district":{"key":"08436","name":"Ravensburg","type":"Landkreis"},"federalState":{"key":"08","name":"Baden-Württemberg"}},{"name":"Friedhofstr.","postalCode":"88364","locality":"Wolfegg","municipality":{"key":"08436085","name":"Wolfegg","type":"Kreisangehörige_Gemeinde"},"district":{"key":"08436","name":"Ravensburg","type":"Landkreis"},"federalState":{"key":"08","name":"Baden-Württemberg"}},{"name":"Fritz-B.-Busch-Weg","postalCode":"88364","locality":"Wolfegg","municipality":{"key":"08436085","name":"Wolfegg","type":"Kreisangehörige_Gemeinde"},"district":{"key":"08436","name":"Ravensburg","type":"Landkreis"},"federalState":{"key":"08","name":"Baden-Württemberg"}},{"name":"Fürst-Max-Willibald-Str.","postalCode":"88364","locality":"Wolfegg","municipality":{"key":"08436085","name":"Wolfegg","type":"Kreisangehörige_Gemeinde"},"district":{"key":"08436","name":"Ravensburg","type":"Landkreis"},"federalState":{"key":"08","name":"Baden-Württemberg"}},{"name":"Gartenstr.","postalCode":"88364","locality":"Wolfegg","municipality":{"key":"08436085","name":"Wolfegg","type":"Kreisangehörige_Gemeinde"},"district":{"key":"08436","name":"Ravensburg","type":"Landkreis"},"federalState":{"key":"08","name":"Baden-Württemberg"}},{"name":"Gässle","postalCode":"88364","locality":"Wolfegg","municipality":{"key":"08436085","name":"Wolfegg","type":"Kreisangehörige_Gemeinde"},"district":{"key":"08436","name":"Ravensburg","type":"Landkreis"},"federalState":{"key":"08","name":"Baden-Württemberg"}},{"name":"Glasergasse","postalCode":"88364","locality":"Wolfegg","municipality":{"key":"08436085","name":"Wolfegg","type":"Kreisangehörige_Gemeinde"},"district":{"key":"08436","name":"Ravensburg","type":"Landkreis"},"federalState":{"key":"08","name":"Baden-Württemberg"}},{"name":"Greutweg","postalCode":"88364","locality":"Wolfegg","municipality":{"key":"08436085","name":"Wolfegg","type":"Kreisangehörige_Gemeinde"},"district":{"key":"08436","name":"Ravensburg","type":"Landkreis"},"federalState":{"key":"08","name":"Baden-Württemberg"}},{"name":"Grimmenstein","postalCode":"88364","locality":"Wolfegg","municipality":{"key":"08436085","name":"Wolfegg","type":"Kreisangehörige_Gemeinde"},"district":{"key":"08436","name":"Ravensburg","type":"Landkreis"},"federalState":{"key":"08","name":"Baden-Württemberg"}},{"name":"Grüntenstr.","postalCode":"88364","locality":"Wolfegg","municipality":{"key":"08436085","name":"Wolfegg","type":"Kreisangehörige_Gemeinde"},"district":{"key":"08436","name":"Ravensburg","type":"Landkreis"},"federalState":{"key":"08","name":"Baden-Württemberg"}},{"name":"Haidweg","postalCode":"88364","locality":"Wolfegg","municipality":{"key":"08436085","name":"Wolfegg","type":"Kreisangehörige_Gemeinde"},"district":{"key":"08436","name":"Ravensburg","type":"Landkreis"},"federalState":{"key":"08","name":"Baden-Württemberg"}},{"name":"Haselweg","postalCode":"88364","locality":"Wolfegg","municipality":{"key":"08436085","name":"Wolfegg","type":"Kreisangehörige_Gemeinde"},"district":{"key":"08436","name":"Ravensburg","type":"Landkreis"},"federalState":{"key":"08","name":"Baden-Württemberg"}},{"name":"Hochgratstr.","postalCode":"88364","locality":"Wolfegg","municipality":{"key":"08436085","name":"Wolfegg","type":"Kreisangehörige_Gemeinde"},"district":{"key":"08436","name":"Ravensburg","type":"Landkreis"},"federalState":{"key":"08","name":"Baden-Württemberg"}},{"name":"Höllsteige","postalCode":"88364","locality":"Wolfegg","municipality":{"key":"08436085","name":"Wolfegg","type":"Kreisangehörige_Gemeinde"},"district":{"key":"08436","name":"Ravensburg","type":"Landkreis"},"federalState":{"key":"08","name":"Baden-Württemberg"}},{"name":"Im Andermannsberg","postalCode":"88212","locality":"Ravensburg","municipality":{"key":"08436064","name":"Ravensburg, Stadt","type":"Große_Kreisstadt"},"district":{"key":"08436","name":"Ravensburg","type":"Landkreis"},"federalState":{"key":"08","name":"Baden-Württemberg"}},{"name":"Im Bergle","postalCode":"88213","locality":"Ravensburg","municipality":{"key":"08436064","name":"Ravensburg, Stadt","type":"Große_Kreisstadt"},"district":{"key":"08436","name":"Ravensburg","type":"Landkreis"},"federalState":{"key":"08","name":"Baden-Württemberg"}},{"name":"Im Egert","postalCode":"88213","locality":"Ravensburg","municipality":{"key":"08436064","name":"Ravensburg, Stadt","type":"Große_Kreisstadt"},"district":{"key":"08436","name":"Ravensburg","type":"Landkreis"},"federalState":{"key":"08","name":"Baden-Württemberg"}},{"name":"Im Eichen","postalCode":"88214","locality":"Ravensburg","municipality":{"key":"08436064","name":"Ravensburg, Stadt","type":"Große_Kreisstadt"},"district":{"key":"08436","name":"Ravensburg","type":"Landkreis"},"federalState":{"key":"08","name":"Baden-Württemberg"}},{"name":"Im Hegenried","postalCode":"88214","locality":"Ravensburg","municipality":{"key":"08436064","name":"Ravensburg, Stadt","type":"Große_Kreisstadt"},"district":{"key":"08436","name":"Ravensburg","type":"Landkreis"},"federalState":{"key":"08","name":"Baden-Württemberg"}},{"name":"Im Herrengut","postalCode":"88214","locality":"Ravensburg","municipality":{"key":"08436064","name":"Ravensburg, Stadt","type":"Große_Kreisstadt"},"district":{"key":"08436","name":"Ravensburg","type":"Landkreis"},"federalState":{"key":"08","name":"Baden-Württemberg"}},{"name":"Im Kammerbrühl","postalCode":"88212","locality":"Ravensburg","municipality":{"key":"08436064","name":"Ravensburg, Stadt","type":"Große_Kreisstadt"},"district":{"key":"08436","name":"Ravensburg","type":"Landkreis"},"federalState":{"key":"08","name":"Baden-Württemberg"}},{"name":"Im Karrer","postalCode":"88214","locality":"Ravensburg","municipality":{"key":"08436064","name":"Ravensburg, Stadt","type":"Große_Kreisstadt"},"district":{"key":"08436","name":"Ravensburg","type":"Landkreis"},"federalState":{"key":"08","name":"Baden-Württemberg"}},{"name":"Immelmannweg","postalCode":"88214","locality":"Ravensburg","municipality":{"key":"08436064","name":"Ravensburg, Stadt","type":"Große_Kreisstadt"},"district":{"key":"08436","name":"Ravensburg","type":"Landkreis"},"federalState":{"key":"08","name":"Baden-Württemberg"}},{"name":"Immenweg","postalCode":"88212","locality":"Ravensburg","municipality":{"key":"08436064","name":"Ravensburg, Stadt","type":"Große_Kreisstadt"},"district":{"key":"08436","name":"Ravensburg","type":"Landkreis"},"federalState":{"key":"08","name":"Baden-Württemberg"}},{"name":"Im Obstgarten","postalCode":"88213","locality":"Ravensburg","municipality":{"key":"08436064","name":"Ravensburg, Stadt","type":"Große_Kreisstadt"},"district":{"key":"08436","name":"Ravensburg","type":"Landkreis"},"federalState":{"key":"08","name":"Baden-Württemberg"}},{"name":"Im Rebgarten","postalCode":"88213","locality":"Ravensburg","municipality":{"key":"08436064","name":"Ravensburg, Stadt","type":"Große_Kreisstadt"},"district":{"key":"08436","name":"Ravensburg","type":"Landkreis"},"federalState":{"key":"08","name":"Baden-Württemberg"}},{"name":"Im Wiesental","postalCode":"88212","locality":"Ravensburg","municipality":{"key":"08436064","name":"Ravensburg, Stadt","type":"Große_Kreisstadt"},"district":{"key":"08436","name":"Ravensburg","type":"Landkreis"},"federalState":{"key":"08","name":"Baden-Württemberg"}},{"name":"In der Baumwiese","postalCode":"88214","locality":"Ravensburg","municipality":{"key":"08436064","name":"Ravensburg, Stadt","type":"Große_Kreisstadt"},"district":{"key":"08436","name":"Ravensburg","type":"Landkreis"},"federalState":{"key":"08","name":"Baden-Württemberg"}},{"name":"Irisweg","postalCode":"88214","locality":"Ravensburg","municipality":{"key":"08436064","name":"Ravensburg, Stadt","type":"Große_Kreisstadt"},"district":{"key":"08436","name":"Ravensburg","type":"Landkreis"},"federalState":{"key":"08","name":"Baden-Württemberg"}},{"name":"Irmengardstr.","postalCode":"88213","locality":"Ravensburg","municipality":{"key":"08436064","name":"Ravensburg, Stadt","type":"Große_Kreisstadt"},"district":{"key":"08436","name":"Ravensburg","type":"Landkreis"},"federalState":{"key":"08","name":"Baden-Württemberg"}},{"name":"Ittenbeuren","postalCode":"88212","locality":"Ravensburg","municipality":{"key":"08436064","name":"Ravensburg, Stadt","type":"Große_Kreisstadt"},"district":{"key":"08436","name":"Ravensburg","type":"Landkreis"},"federalState":{"key":"08","name":"Baden-Württemberg"}},{"name":"Jägergasse","postalCode":"88364","locality":"Wolfegg","municipality":{"key":"08436085","name":"Wolfegg","type":"Kreisangehörige_Gemeinde"},"district":{"key":"08436","name":"Ravensburg","type":"Landkreis"},"federalState":{"key":"08","name":"Baden-Württemberg"}},{"name":"Josef Katein Weg","postalCode":"88364","locality":"Wolfegg","municipality":{"key":"08436085","name":"Wolfegg","type":"Kreisangehörige_Gemeinde"},"district":{"key":"08436","name":"Ravensburg","type":"Landkreis"},"federalState":{"key":"08","name":"Baden-Württemberg"}},{"name":"Kardinal-Otto-Str.","postalCode":"88364","locality":"Wolfegg","municipality":{"key":"08436085","name":"Wolfegg","type":"Kreisangehörige_Gemeinde"},"district":{"key":"08436","name":"Ravensburg","type":"Landkreis"},"federalState":{"key":"08","name":"Baden-Württemberg"}},{"name":"Kastanienweg","postalCode":"88364","locality":"Wolfegg","municipality":{"key":"08436085","name":"Wolfegg","type":"Kreisangehörige_Gemeinde"},"district":{"key":"08436","name":"Ravensburg","type":"Landkreis"},"federalState":{"key":"08","name":"Baden-Württemberg"}},{"name":"Katzensteig","postalCode":"88364","locality":"Wolfegg","municipality":{"key":"08436085","name":"Wolfegg","type":"Kreisangehörige_Gemeinde"},"district":{"key":"08436","name":"Ravensburg","type":"Landkreis"},"federalState":{"key":"08","name":"Baden-Württemberg"}},{"name":"Kiebitz","postalCode":"88364","locality":"Wolfegg","municipality":{"key":"08436085","name":"Wolfegg","type":"Kreisangehörige_Gemeinde"},"district":{"key":"08436","name":"Ravensburg","type":"Landkreis"},"federalState":{"key":"08","name":"Baden-Württemberg"}},{"name":"Kirchberg","postalCode":"88364","locality":"Wolfegg","municipality":{"key":"08436085","name":"Wolfegg","type":"Kreisangehörige_Gemeinde"},"district":{"key":"08436","name":"Ravensburg","type":"Landkreis"},"federalState":{"key":"08","name":"Baden-Württemberg"}},{"name":"Kirchbuckel","postalCode":"88364","locality":"Wolfegg","municipality":{"key":"08436085","name":"Wolfegg","type":"Kreisangehörige_Gemeinde"},"district":{"key":"08436","name":"Ravensburg","type":"Landkreis"},"federalState":{"key":"08","name":"Baden-Württemberg"}},{"name":"Kirchbühl","postalCode":"88364","locality":"Wolfegg","municipality":{"key":"08436085","name":"Wolfegg","type":"Kreisangehörige_Gemeinde"},"district":{"key":"08436","name":"Ravensburg","type":"Landkreis"},"federalState":{"key":"08","name":"Baden-Württemberg"}},{"name":"Kranichweg","postalCode":"88364","locality":"Wolfegg","municipality":{"key":"08436085","name":"Wolfegg","type":"Kreisangehörige_Gemeinde"},"district":{"key":"08436","name":"Ravensburg","type":"Landkreis"},"federalState":{"key":"08","name":"Baden-Württemberg"}},{"name":"Lindenbühl","postalCode":"88364","locality":"Wolfegg","municipality":{"key":"08436085","name":"Wolfegg","type":"Kreisangehörige_Gemeinde"},"district":{"key":"08436","name":"Ravensburg","type":"Landkreis"},"federalState":{"key":"08","name":"Baden-Württemberg"}},{"name":"Maierhof","postalCode":"88364","locality":"Wolfegg","municipality":{"key":"08436085","name":"Wolfegg","type":"Kreisangehörige_Gemeinde"},"district":{"key":"08436","name":"Ravensburg","type":"Landkreis"},"federalState":{"key":"08","name":"Baden-Württemberg"}},{"name":"Maximilianplatz","postalCode":"88364","locality":"Wolfegg","municipality":{"key":"08436085","name":"Wolfegg","type":"Kreisangehörige_Gemeinde"},"district":{"key":"08436","name":"Ravensburg","type":"Landkreis"},"federalState":{"key":"08","name":"Baden-Württemberg"}},{"name":"Mesnergässle","postalCode":"88364","locality":"Wolfegg","municipality":{"key":"08436085","name":"Wolfegg","type":"Kreisangehörige_Gemeinde"},"district":{"key":"08436","name":"Ravensburg","type":"Landkreis"},"federalState":{"key":"08","name":"Baden-Württemberg"}},{"name":"Moränenweg","postalCode":"88364","locality":"Wolfegg","municipality":{"key":"08436085","name":"Wolfegg","type":"Kreisangehörige_Gemeinde"},"district":{"key":"08436","name":"Ravensburg","type":"Landkreis"},"federalState":{"key":"08","name":"Baden-Württemberg"}},{"name":"Mühlberg","postalCode":"88364","locality":"Wolfegg","municipality":{"key":"08436085","name":"Wolfegg","type":"Kreisangehörige_Gemeinde"},"district":{"key":"08436","name":"Ravensburg","type":"Landkreis"},"federalState":{"key":"08","name":"Baden-Württemberg"}},{"name":"Mühlenstr.","postalCode":"88364","locality":"Wolfegg","municipality":{"key":"08436085","name":"Wolfegg","type":"Kreisangehörige_Gemeinde"},"district":{"key":"08436","name":"Ravensburg","type":"Landkreis"},"federalState":{"key":"08","name":"Baden-Württemberg"}},{"name":"Neckenfurt","postalCode":"88364","locality":"Wolfegg","municipality":{"key":"08436085","name":"Wolfegg","type":"Kreisangehörige_Gemeinde"},"district":{"key":"08436","name":"Ravensburg","type":"Landkreis"},"federalState":{"key":"08","name":"Baden-Württemberg"}},{"name":"Neckenfurter Str.","postalCode":"88364","locality":"Wolfegg","municipality":{"key":"08436085","name":"Wolfegg","type":"Kreisangehörige_Gemeinde"},"district":{"key":"08436","name":"Ravensburg","type":"Landkreis"},"federalState":{"key":"08","name":"Baden-Württemberg"}},{"name":"Oberamteigasse","postalCode":"88214","locality":"Ravensburg","municipality":{"key":"08436064","name":"Ravensburg, Stadt","type":"Große_Kreisstadt"},"district":{"key":"08436","name":"Ravensburg","type":"Landkreis"},"federalState":{"key":"08","name":"Baden-Württemberg"}},{"name":"Obere Breite Str.","postalCode":"88212","locality":"Ravensburg","municipality":{"key":"08436064","name":"Ravensburg, Stadt","type":"Große_Kreisstadt"},"district":{"key":"08436","name":"Ravensburg","type":"Landkreis"},"federalState":{"key":"08","name":"Baden-Württemberg"}},{"name":"Obere Burachstr.","postalCode":"88212","locality":"Ravensburg","municipality":{"key":"08436064","name":"Ravensburg, Stadt","type":"Große_Kreisstadt"},"district":{"key":"08436","name":"Ravensburg","type":"Landkreis"},"federalState":{"key":"08","name":"Baden-Württemberg"}},{"name":"Obere Kehlstr.","postalCode":"88214","locality":"Ravensburg","municipality":{"key":"08436064","name":"Ravensburg, Stadt","type":"Große_Kreisstadt"},"district":{"key":"08436","name":"Ravensburg","type":"Landkreis"},"federalState":{"key":"08","name":"Baden-Württemberg"}},{"name":"Oberer Haldenweg","postalCode":"88212","locality":"Ravensburg","municipality":{"key":"08436064","name":"Ravensburg, Stadt","type":"Große_Kreisstadt"},"district":{"key":"08436","name":"Ravensburg","type":"Landkreis"},"federalState":{"key":"08","name":"Baden-Württemberg"}},{"name":"Oberer Illen","postalCode":"88212","locality":"Ravensburg","municipality":{"key":"08436064","name":"Ravensburg, Stadt","type":"Große_Kreisstadt"},"district":{"key":"08436","name":"Ravensburg","type":"Landkreis"},"federalState":{"key":"08","name":"Baden-Württemberg"}},{"name":"Obereschacher Str.","postalCode":"88214","locality":"Ravensburg","municipality":{"key":"08436064","name":"Ravensburg, Stadt","type":"Große_Kreisstadt"},"district":{"key":"08436","name":"Ravensburg","type":"Landkreis"},"federalState":{"key":"08","name":"Baden-Württemberg"}},{"name":"Oberhofener Weg","postalCode":"88214","locality":"Ravensburg","municipality":{"key":"08436064","name":"Ravensburg, Stadt","type":"Große_Kreisstadt"},"district":{"key":"08436","name":"Ravensburg","type":"Landkreis"},"federalState":{"key":"08","name":"Baden-Württemberg"}},{"name":"Oberweiler","postalCode":"88213","locality":"Ravensburg","municipality":{"key":"08436064","name":"Ravensburg, Stadt","type":"Große_Kreisstadt"},"district":{"key":"08436","name":"Ravensburg","type":"Landkreis"},"federalState":{"key":"08","name":"Baden-Württemberg"}},{"name":"Oberzeller Str.","postalCode":"88213","locality":"Ravensburg","municipality":{"key":"08436064","name":"Ravensburg, Stadt","type":"Große_Kreisstadt"},"district":{"key":"08436","name":"Ravensburg","type":"Landkreis"},"federalState":{"key":"08","name":"Baden-Württemberg"}},{"name":"O.E.W.-Str.","postalCode":"88212","locality":"Ravensburg","municipality":{"key":"08436064","name":"Ravensburg, Stadt","type":"Große_Kreisstadt"},"district":{"key":"08436","name":"Ravensburg","type":"Landkreis"},"federalState":{"key":"08","name":"Baden-Württemberg"}},{"name":"Okatreute","postalCode":"88213","locality":"Ravensburg","municipality":{"key":"08436064","name":"Ravensburg, Stadt","type":"Große_Kreisstadt"},"district":{"key":"08436","name":"Ravensburg","type":"Landkreis"},"federalState":{"key":"08","name":"Baden-Württemberg"}},{"name":"Olgastr.","postalCode":"88214","locality":"Ravensburg","municipality":{"key":"08436064","name":"Ravensburg, Stadt","type":"Große_Kreisstadt"},"district":{"key":"08436","name":"Ravensburg","type":"Landkreis"},"federalState":{"key":"08","name":"Baden-Württemberg"}},{"name":"Opfenwangweg","postalCode":"88213","locality":"Ravensburg","municipality":{"key":"08436064","name":"Ravensburg, Stadt","type":"Große_Kreisstadt"},"district":{"key":"08436","name":"Ravensburg","type":"Landkreis"},"federalState":{"key":"08","name":"Baden-Württemberg"}},{"name":"Oppeltshofer Weg","postalCode":"88212","locality":"Ravensburg","municipality":{"key":"08436064","name":"Ravensburg, Stadt","type":"Große_Kreisstadt"},"district":{"key":"08436","name":"Ravensburg","type":"Landkreis"},"federalState":{"key":"08","name":"Baden-Württemberg"}},{"name":"Osianderweg","postalCode":"88213","locality":"Ravensburg","municipality":{"key":"08436064","name":"Ravensburg, Stadt","type":"Große_Kreisstadt"},"district":{"key":"08436","name":"Ravensburg","type":"Landkreis"},"federalState":{"key":"08","name":"Baden-Württemberg"}},{"name":"Ostlandweg","postalCode":"88214","locality":"Ravensburg","municipality":{"key":"08436064","name":"Ravensburg, Stadt","type":"Große_Kreisstadt"},"district":{"key":"08436","name":"Ravensburg","type":"Landkreis"},"federalState":{"key":"08","name":"Baden-Württemberg"}},{"name":"Otto-Timme-Str.","postalCode":"88214","locality":"Ravensburg","municipality":{"key":"08436064","name":"Ravensburg, Stadt","type":"Große_Kreisstadt"},"district":{"key":"08436","name":"Ravensburg","type":"Landkreis"},"federalState":{"key":"08","name":"Baden-Württemberg"}},{"name":"Panoramastr.","postalCode":"88364","locality":"Wolfegg","municipality":{"key":"08436085","name":"Wolfegg","type":"Kreisangehörige_Gemeinde"},"district":{"key":"08436","name":"Ravensburg","type":"Landkreis"},"federalState":{"key":"08","name":"Baden-Württemberg"}},{"name":"Parkstr.","postalCode":"88364","locality":"Wolfegg","municipality":{"key":"08436085","name":"Wolfegg","type":"Kreisangehörige_Gemeinde"},"district":{"key":"08436","name":"Ravensburg","type":"Landkreis"},"federalState":{"key":"08","name":"Baden-Württemberg"}},{"name":"Pfarr","postalCode":"88364","locality":"Wolfegg","municipality":{"key":"08436085","name":"Wolfegg","type":"Kreisangehörige_Gemeinde"},"district":{"key":"08436","name":"Ravensburg","type":"Landkreis"},"federalState":{"key":"08","name":"Baden-Württemberg"}},{"name":"Posthalters Weg","postalCode":"88364","locality":"Wolfegg","municipality":{"key":"08436085","name":"Wolfegg","type":"Kreisangehörige_Gemeinde"},"district":{"key":"08436","name":"Ravensburg","type":"Landkreis"},"federalState":{"key":"08","name":"Baden-Württemberg"}},{"name":"Ravensburger Str.","postalCode":"88364","locality":"Wolfegg","municipality":{"key":"08436085","name":"Wolfegg","type":"Kreisangehörige_Gemeinde"},"district":{"key":"08436","name":"Ravensburg","type":"Landkreis"},"federalState":{"key":"08","name":"Baden-Württemberg"}},{"name":"Rötenbacher Str.","postalCode":"88364","locality":"Wolfegg","municipality":{"key":"08436085","name":"Wolfegg","type":"Kreisangehörige_Gemeinde"},"district":{"key":"08436","name":"Ravensburg","type":"Landkreis"},"federalState":{"key":"08","name":"Baden-Württemberg"}},{"name":"Säntisstr.","postalCode":"88364","locality":"Wolfegg","municipality":{"key":"08436085","name":"Wolfegg","type":"Kreisangehörige_Gemeinde"},"district":{"key":"08436","name":"Ravensburg","type":"Landkreis"},"federalState":{"key":"08","name":"Baden-Württemberg"}},{"name":"Schafweide","postalCode":"88364","locality":"Wolfegg","municipality":{"key":"08436085","name":"Wolfegg","type":"Kreisangehörige_Gemeinde"},"district":{"key":"08436","name":"Ravensburg","type":"Landkreis"},"federalState":{"key":"08","name":"Baden-Württemberg"}},{"name":"Schloß","postalCode":"88364","locality":"Wolfegg","municipality":{"key":"08436085","name":"Wolfegg","type":"Kreisangehörige_Gemeinde"},"district":{"key":"08436","name":"Ravensburg","type":"Landkreis"},"federalState":{"key":"08","name":"Baden-Württemberg"}},{"name":"Schloßplatz","postalCode":"88364","locality":"Wolfegg","municipality":{"key":"08436085","name":"Wolfegg","type":"Kreisangehörige_Gemeinde"},"district":{"key":"08436","name":"Ravensburg","type":"Landkreis"},"federalState":{"key":"08","name":"Baden-Württemberg"}},{"name":"Schmiedgasse","postalCode":"88364","locality":"Wolfegg","municipality":{"key":"08436085","name":"Wolfegg","type":"Kreisangehörige_Gemeinde"},"district":{"key":"08436","name":"Ravensburg","type":"Landkreis"},"federalState":{"key":"08","name":"Baden-Württemberg"}},{"name":"Schulgasse","postalCode":"88364","locality":"Wolfegg","municipality":{"key":"08436085","name":"Wolfegg","type":"Kreisangehörige_Gemeinde"},"district":{"key":"08436","name":"Ravensburg","type":"Landkreis"},"federalState":{"key":"08","name":"Baden-Württemberg"}},{"name":"Sennereiweg","postalCode":"88364","locality":"Wolfegg","municipality":{"key":"08436085","name":"Wolfegg","type":"Kreisangehörige_Gemeinde"},"district":{"key":"08436","name":"Ravensburg","type":"Landkreis"},"federalState":{"key":"08","name":"Baden-Württemberg"}},{"name":"Sonnenhalde","postalCode":"88364","locality":"Wolfegg","municipality":{"key":"08436085","name":"Wolfegg","type":"Kreisangehörige_Gemeinde"},"district":{"key":"08436","name":"Ravensburg","type":"Landkreis"},"federalState":{"key":"08","name":"Baden-Württemberg"}},{"name":"St.-Gabriel-Weg","postalCode":"88364","locality":"Wolfegg","municipality":{"key":"08436085","name":"Wolfegg","type":"Kreisangehörige_Gemeinde"},"district":{"key":"08436","name":"Ravensburg","type":"Landkreis"},"federalState":{"key":"08","name":"Baden-Württemberg"}},{"name":"St.-Katharina-Str.","postalCode":"88364","locality":"Wolfegg","municipality":{"key":"08436085","name":"Wolfegg","type":"Kreisangehörige_Gemeinde"},"district":{"key":"08436","name":"Ravensburg","type":"Landkreis"},"federalState":{"key":"08","name":"Baden-Württemberg"}},{"name":"St.-Ulrich-Weg","postalCode":"88364","locality":"Wolfegg","municipality":{"key":"08436085","name":"Wolfegg","type":"Kreisangehörige_Gemeinde"},"district":{"key":"08436","name":"Ravensburg","type":"Landkreis"},"federalState":{"key":"08","name":"Baden-Württemberg"}},{"name":"Thannweg","postalCode":"88364","locality":"Wolfegg","municipality":{"key":"08436085","name":"Wolfegg","type":"Kreisangehörige_Gemeinde"},"district":{"key":"08436","name":"Ravensburg","type":"Landkreis"},"federalState":{"key":"08","name":"Baden-Württemberg"}},{"name":"Truchsessenstr.","postalCode":"88364","locality":"Wolfegg","municipality":{"key":"08436085","name":"Wolfegg","type":"Kreisangehörige_Gemeinde"},"district":{"key":"08436","name":"Ravensburg","type":"Landkreis"},"federalState":{"key":"08","name":"Baden-Württemberg"}},{"name":"Ulmenweg","postalCode":"88364","locality":"Wolfegg","municipality":{"key":"08436085","name":"Wolfegg","type":"Kreisangehörige_Gemeinde"},"district":{"key":"08436","name":"Ravensburg","type":"Landkreis"},"federalState":{"key":"08","name":"Baden-Württemberg"}},{"name":"Vogter Str.","postalCode":"88364","locality":"Wolfegg","municipality":{"key":"08436085","name":"Wolfegg","type":"Kreisangehörige_Gemeinde"},"district":{"key":"08436","name":"Ravensburg","type":"Landkreis"},"federalState":{"key":"08","name":"Baden-Württemberg"}},{"name":"Waldseer Str.","postalCode":"88364","locality":"Wolfegg","municipality":{"key":"08436085","name":"Wolfegg","type":"Kreisangehörige_Gemeinde"},"district":{"key":"08436","name":"Ravensburg","type":"Landkreis"},"federalState":{"key":"08","name":"Baden-Württemberg"}},{"name":"Weingartener Str.","postalCode":"88364","locality":"Wolfegg","municipality":{"key":"08436085","name":"Wolfegg","type":"Kreisangehörige_Gemeinde"},"district":{"key":"08436","name":"Ravensburg","type":"Landkreis"},"federalState":{"key":"08","name":"Baden-Württemberg"}},{"name":"Wette","postalCode":"88364","locality":"Wolfegg","municipality":{"key":"08436085","name":"Wolfegg","type":"Kreisangehörige_Gemeinde"},"district":{"key":"08436","name":"Ravensburg","type":"Landkreis"},"federalState":{"key":"08","name":"Baden-Württemberg"}},{"name":"Wiesenweg","postalCode":"88364","locality":"Wolfegg","municipality":{"key":"08436085","name":"Wolfegg","type":"Kreisangehörige_Gemeinde"},"district":{"key":"08436","name":"Ravensburg","type":"Landkreis"},"federalState":{"key":"08","name":"Baden-Württemberg"}},{"name":"Wildpark","postalCode":"88364","locality":"Wolfegg","municipality":{"key":"08436085","name":"Wolfegg","type":"Kreisangehörige_Gemeinde"},"district":{"key":"08436","name":"Ravensburg","type":"Landkreis"},"federalState":{"key":"08","name":"Baden-Württemberg"}},{"name":"Wolfegger Str.","postalCode":"88364","locality":"Wolfegg","municipality":{"key":"08436085","name":"Wolfegg","type":"Kreisangehörige_Gemeinde"},"district":{"key":"08436","name":"Ravensburg","type":"Landkreis"},"federalState":{"key":"08","name":"Baden-Württemberg"}},{"name":"Zabergäu","postalCode":"88214","locality":"Ravensburg","municipality":{"key":"08436064","name":"Ravensburg, Stadt","type":"Große_Kreisstadt"},"district":{"key":"08436","name":"Ravensburg","type":"Landkreis"},"federalState":{"key":"08","name":"Baden-Württemberg"}},{"name":"Zeppelinstr.","postalCode":"88212","locality":"Ravensburg","municipality":{"key":"08436064","name":"Ravensburg, Stadt","type":"Große_Kreisstadt"},"district":{"key":"08436","name":"Ravensburg","type":"Landkreis"},"federalState":{"key":"08","name":"Baden-Württemberg"}},{"name":"Zeughausstr.","postalCode":"88212","locality":"Ravensburg","municipality":{"key":"08436064","name":"Ravensburg, Stadt","type":"Große_Kreisstadt"},"district":{"key":"08436","name":"Ravensburg","type":"Landkreis"},"federalState":{"key":"08","name":"Baden-Württemberg"}},{"name":"Ziegelstr.","postalCode":"88214","locality":"Ravensburg","municipality":{"key":"08436064","name":"Ravensburg, Stadt","type":"Große_Kreisstadt"},"district":{"key":"08436","name":"Ravensburg","type":"Landkreis"},"federalState":{"key":"08","name":"Baden-Württemberg"}},{"name":"Ziegelweg","postalCode":"88213","locality":"Ravensburg","municipality":{"key":"08436064","name":"Ravensburg, Stadt","type":"Große_Kreisstadt"},"district":{"key":"08436","name":"Ravensburg","type":"Landkreis"},"federalState":{"key":"08","name":"Baden-Württemberg"}},{"name":"Zogenfeldstr.","postalCode":"88214","locality":"Ravensburg","municipality":{"key":"08436064","name":"Ravensburg, Stadt","type":"Große_Kreisstadt"},"district":{"key":"08436","name":"Ravensburg","type":"Landkreis"},"federalState":{"key":"08","name":"Baden-Württemberg"}},{"name":"Zuppingerstr.","postalCode":"88213","locality":"Ravensburg","municipality":{"key":"08436064","name":"Ravensburg, Stadt","type":"Große_Kreisstadt"},"district":{"key":"08436","name":"Ravensburg","type":"Landkreis"},"federalState":{"key":"08","name":"Baden-Württemberg"}},{"name":"Zwergerstr.","postalCode":"88214","locality":"Ravensburg","municipality":{"key":"08436064","name":"Ravensburg, Stadt","type":"Große_Kreisstadt"},"district":{"key":"08436","name":"Ravensburg","type":"Landkreis"},"federalState":{"key":"08","name":"Baden-Württemberg"}},{"name":"Ährenweg","postalCode":"88214","locality":"Ravensburg","municipality":{"key":"08436064","name":"Ravensburg, Stadt","type":"Große_Kreisstadt"},"district":{"key":"08436","name":"Ravensburg","type":"Landkreis"},"federalState":{"key":"08","name":"Baden-Württemberg"}},{"name":"Ölschwangweg","postalCode":"88212","locality":"Ravensburg","municipality":{"key":"08436064","name":"Ravensburg, Stadt","type":"Große_Kreisstadt"},"district":{"key":"08436","name":"Ravensburg","type":"Landkreis"},"federalState":{"key":"08","name":"Baden-Württemberg"}},]