[{"name":"Achterstr.","postalCode":"29413","locality":"Wallstawe","municipality":{"key":"15081545","name":"Wallstawe","type":"Kreisangehörige_Gemeinde"},"district":{"key":"15081","name":"Altmarkkreis Salzwedel","type":"Landkreis"},"federalState":{"key":"15","name":"Sachsen-Anhalt"}},{"name":"Alte Bahnhofstr.","postalCode":"29413","locality":"Wallstawe","municipality":{"key":"15081545","name":"Wallstawe","type":"Kreisangehörige_Gemeinde"},"district":{"key":"15081","name":"Altmarkkreis Salzwedel","type":"Landkreis"},"federalState":{"key":"15","name":"Sachsen-Anhalt"}},{"name":"Alte Dorfstr.","postalCode":"29413","locality":"Wallstawe","municipality":{"key":"15081545","name":"Wallstawe","type":"Kreisangehörige_Gemeinde"},"district":{"key":"15081","name":"Altmarkkreis Salzwedel","type":"Landkreis"},"federalState":{"key":"15","name":"Sachsen-Anhalt"}},{"name":"Alte Schulstr.","postalCode":"29413","locality":"Wallstawe","municipality":{"key":"15081545","name":"Wallstawe","type":"Kreisangehörige_Gemeinde"},"district":{"key":"15081","name":"Altmarkkreis Salzwedel","type":"Landkreis"},"federalState":{"key":"15","name":"Sachsen-Anhalt"}},{"name":"Am Dorfplatz","postalCode":"29413","locality":"Wallstawe","municipality":{"key":"15081545","name":"Wallstawe","type":"Kreisangehörige_Gemeinde"},"district":{"key":"15081","name":"Altmarkkreis Salzwedel","type":"Landkreis"},"federalState":{"key":"15","name":"Sachsen-Anhalt"}},{"name":"Am Reitplatz","postalCode":"29413","locality":"Wallstawe","municipality":{"key":"15081545","name":"Wallstawe","type":"Kreisangehörige_Gemeinde"},"district":{"key":"15081","name":"Altmarkkreis Salzwedel","type":"Landkreis"},"federalState":{"key":"15","name":"Sachsen-Anhalt"}},{"name":"Am Ring","postalCode":"29413","locality":"Wallstawe","municipality":{"key":"15081545","name":"Wallstawe","type":"Kreisangehörige_Gemeinde"},"district":{"key":"15081","name":"Altmarkkreis Salzwedel","type":"Landkreis"},"federalState":{"key":"15","name":"Sachsen-Anhalt"}},{"name":"An der Kirche","postalCode":"29413","locality":"Wallstawe","municipality":{"key":"15081545","name":"Wallstawe","type":"Kreisangehörige_Gemeinde"},"district":{"key":"15081","name":"Altmarkkreis Salzwedel","type":"Landkreis"},"federalState":{"key":"15","name":"Sachsen-Anhalt"}},{"name":"An der Pappel","postalCode":"29413","locality":"Wallstawe","municipality":{"key":"15081545","name":"Wallstawe","type":"Kreisangehörige_Gemeinde"},"district":{"key":"15081","name":"Altmarkkreis Salzwedel","type":"Landkreis"},"federalState":{"key":"15","name":"Sachsen-Anhalt"}},{"name":"Bahnhofstr.","postalCode":"29413","locality":"Wallstawe","municipality":{"key":"15081545","name":"Wallstawe","type":"Kreisangehörige_Gemeinde"},"district":{"key":"15081","name":"Altmarkkreis Salzwedel","type":"Landkreis"},"federalState":{"key":"15","name":"Sachsen-Anhalt"}},{"name":"Dorfstr.","postalCode":"29413","locality":"Wallstawe","municipality":{"key":"15081545","name":"Wallstawe","type":"Kreisangehörige_Gemeinde"},"district":{"key":"15081","name":"Altmarkkreis Salzwedel","type":"Landkreis"},"federalState":{"key":"15","name":"Sachsen-Anhalt"}},{"name":"Ellenberger Weg","postalCode":"29413","locality":"Wallstawe","municipality":{"key":"15081545","name":"Wallstawe","type":"Kreisangehörige_Gemeinde"},"district":{"key":"15081","name":"Altmarkkreis Salzwedel","type":"Landkreis"},"federalState":{"key":"15","name":"Sachsen-Anhalt"}},{"name":"Fahrendorfer Weg","postalCode":"29413","locality":"Wallstawe","municipality":{"key":"15081545","name":"Wallstawe","type":"Kreisangehörige_Gemeinde"},"district":{"key":"15081","name":"Altmarkkreis Salzwedel","type":"Landkreis"},"federalState":{"key":"15","name":"Sachsen-Anhalt"}},{"name":"Fuhrenkamp","postalCode":"29413","locality":"Wallstawe","municipality":{"key":"15081545","name":"Wallstawe","type":"Kreisangehörige_Gemeinde"},"district":{"key":"15081","name":"Altmarkkreis Salzwedel","type":"Landkreis"},"federalState":{"key":"15","name":"Sachsen-Anhalt"}},{"name":"Gieseritzer Str.","postalCode":"29413","locality":"Wallstawe","municipality":{"key":"15081545","name":"Wallstawe","type":"Kreisangehörige_Gemeinde"},"district":{"key":"15081","name":"Altmarkkreis Salzwedel","type":"Landkreis"},"federalState":{"key":"15","name":"Sachsen-Anhalt"}},{"name":"Hauptstr.","postalCode":"29413","locality":"Wallstawe","municipality":{"key":"15081545","name":"Wallstawe","type":"Kreisangehörige_Gemeinde"},"district":{"key":"15081","name":"Altmarkkreis Salzwedel","type":"Landkreis"},"federalState":{"key":"15","name":"Sachsen-Anhalt"}},{"name":"Hilmsener Weg","postalCode":"29413","locality":"Wallstawe","municipality":{"key":"15081545","name":"Wallstawe","type":"Kreisangehörige_Gemeinde"},"district":{"key":"15081","name":"Altmarkkreis Salzwedel","type":"Landkreis"},"federalState":{"key":"15","name":"Sachsen-Anhalt"}},{"name":"Mittelstr.","postalCode":"29413","locality":"Wallstawe","municipality":{"key":"15081545","name":"Wallstawe","type":"Kreisangehörige_Gemeinde"},"district":{"key":"15081","name":"Altmarkkreis Salzwedel","type":"Landkreis"},"federalState":{"key":"15","name":"Sachsen-Anhalt"}},{"name":"Molkereistr.","postalCode":"29413","locality":"Wallstawe","municipality":{"key":"15081545","name":"Wallstawe","type":"Kreisangehörige_Gemeinde"},"district":{"key":"15081","name":"Altmarkkreis Salzwedel","type":"Landkreis"},"federalState":{"key":"15","name":"Sachsen-Anhalt"}},{"name":"Nipkendeyer Weg","postalCode":"29413","locality":"Wallstawe","municipality":{"key":"15081545","name":"Wallstawe","type":"Kreisangehörige_Gemeinde"},"district":{"key":"15081","name":"Altmarkkreis Salzwedel","type":"Landkreis"},"federalState":{"key":"15","name":"Sachsen-Anhalt"}},{"name":"Ringstr.","postalCode":"29413","locality":"Wallstawe","municipality":{"key":"15081545","name":"Wallstawe","type":"Kreisangehörige_Gemeinde"},"district":{"key":"15081","name":"Altmarkkreis Salzwedel","type":"Landkreis"},"federalState":{"key":"15","name":"Sachsen-Anhalt"}},{"name":"Rotdornweg","postalCode":"29413","locality":"Wallstawe","municipality":{"key":"15081545","name":"Wallstawe","type":"Kreisangehörige_Gemeinde"},"district":{"key":"15081","name":"Altmarkkreis Salzwedel","type":"Landkreis"},"federalState":{"key":"15","name":"Sachsen-Anhalt"}},{"name":"Schulstr.","postalCode":"29413","locality":"Wallstawe","municipality":{"key":"15081545","name":"Wallstawe","type":"Kreisangehörige_Gemeinde"},"district":{"key":"15081","name":"Altmarkkreis Salzwedel","type":"Landkreis"},"federalState":{"key":"15","name":"Sachsen-Anhalt"}},{"name":"Wiesengrund","postalCode":"29413","locality":"Wallstawe","municipality":{"key":"15081545","name":"Wallstawe","type":"Kreisangehörige_Gemeinde"},"district":{"key":"15081","name":"Altmarkkreis Salzwedel","type":"Landkreis"},"federalState":{"key":"15","name":"Sachsen-Anhalt"}},{"name":"Wiesenweg","postalCode":"29413","locality":"Wallstawe","municipality":{"key":"15081545","name":"Wallstawe","type":"Kreisangehörige_Gemeinde"},"district":{"key":"15081","name":"Altmarkkreis Salzwedel","type":"Landkreis"},"federalState":{"key":"15","name":"Sachsen-Anhalt"}},{"name":"Wistedt","postalCode":"29413","locality":"Wallstawe","municipality":{"key":"15081545","name":"Wallstawe","type":"Kreisangehörige_Gemeinde"},"district":{"key":"15081","name":"Altmarkkreis Salzwedel","type":"Landkreis"},"federalState":{"key":"15","name":"Sachsen-Anhalt"}},{"name":"Ziegeleistr.","postalCode":"29413","locality":"Wallstawe","municipality":{"key":"15081545","name":"Wallstawe","type":"Kreisangehörige_Gemeinde"},"district":{"key":"15081","name":"Altmarkkreis Salzwedel","type":"Landkreis"},"federalState":{"key":"15","name":"Sachsen-Anhalt"}},]