[{"name":"Ackerfelder Dorfstr.","postalCode":"16909","locality":"Wittstock/Dosse","municipality":{"key":"12068468","name":"Wittstock/Dosse, Stadt","type":"Stadt"},"district":{"key":"12068","name":"Ostprignitz-Ruppin","type":"Landkreis"},"federalState":{"key":"12","name":"Brandenburg"}},{"name":"Ackerstr.","postalCode":"16909","locality":"Wittstock/Dosse","municipality":{"key":"12068468","name":"Wittstock/Dosse, Stadt","type":"Stadt"},"district":{"key":"12068","name":"Ostprignitz-Ruppin","type":"Landkreis"},"federalState":{"key":"12","name":"Brandenburg"}},{"name":"Albrecht-Dürer-Str.","postalCode":"16909","locality":"Wittstock/Dosse","municipality":{"key":"12068468","name":"Wittstock/Dosse, Stadt","type":"Stadt"},"district":{"key":"12068","name":"Ostprignitz-Ruppin","type":"Landkreis"},"federalState":{"key":"12","name":"Brandenburg"}},{"name":"Alfred-Wegener-Str.","postalCode":"16909","locality":"Wittstock/Dosse","municipality":{"key":"12068468","name":"Wittstock/Dosse, Stadt","type":"Stadt"},"district":{"key":"12068","name":"Ostprignitz-Ruppin","type":"Landkreis"},"federalState":{"key":"12","name":"Brandenburg"}},{"name":"Alt Daber","postalCode":"16909","locality":"Wittstock/Dosse","municipality":{"key":"12068468","name":"Wittstock/Dosse, Stadt","type":"Stadt"},"district":{"key":"12068","name":"Ostprignitz-Ruppin","type":"Landkreis"},"federalState":{"key":"12","name":"Brandenburg"}},{"name":"Alte Bahnhofstr.","postalCode":"16909","locality":"Wittstock/Dosse","municipality":{"key":"12068468","name":"Wittstock/Dosse, Stadt","type":"Stadt"},"district":{"key":"12068","name":"Ostprignitz-Ruppin","type":"Landkreis"},"federalState":{"key":"12","name":"Brandenburg"}},{"name":"Alte Burgstr.","postalCode":"16909","locality":"Wittstock/Dosse","municipality":{"key":"12068468","name":"Wittstock/Dosse, Stadt","type":"Stadt"},"district":{"key":"12068","name":"Ostprignitz-Ruppin","type":"Landkreis"},"federalState":{"key":"12","name":"Brandenburg"}},{"name":"Alte Poststr.","postalCode":"16909","locality":"Wittstock/Dosse","municipality":{"key":"12068468","name":"Wittstock/Dosse, Stadt","type":"Stadt"},"district":{"key":"12068","name":"Ostprignitz-Ruppin","type":"Landkreis"},"federalState":{"key":"12","name":"Brandenburg"}},{"name":"Alte Pritzwalker Str.","postalCode":"16909","locality":"Wittstock/Dosse","municipality":{"key":"12068468","name":"Wittstock/Dosse, Stadt","type":"Stadt"},"district":{"key":"12068","name":"Ostprignitz-Ruppin","type":"Landkreis"},"federalState":{"key":"12","name":"Brandenburg"}},{"name":"Alter Bahndamm","postalCode":"16909","locality":"Wittstock/Dosse","municipality":{"key":"12068468","name":"Wittstock/Dosse, Stadt","type":"Stadt"},"district":{"key":"12068","name":"Ostprignitz-Ruppin","type":"Landkreis"},"federalState":{"key":"12","name":"Brandenburg"}},{"name":"Alte Ziegelei","postalCode":"16909","locality":"Wittstock/Dosse","municipality":{"key":"12068468","name":"Wittstock/Dosse, Stadt","type":"Stadt"},"district":{"key":"12068","name":"Ostprignitz-Ruppin","type":"Landkreis"},"federalState":{"key":"12","name":"Brandenburg"}},{"name":"Altstadt","postalCode":"16909","locality":"Wittstock/Dosse","municipality":{"key":"12068468","name":"Wittstock/Dosse, Stadt","type":"Stadt"},"district":{"key":"12068","name":"Ostprignitz-Ruppin","type":"Landkreis"},"federalState":{"key":"12","name":"Brandenburg"}},{"name":"Am Alten Bahnhof","postalCode":"16909","locality":"Wittstock/Dosse","municipality":{"key":"12068468","name":"Wittstock/Dosse, Stadt","type":"Stadt"},"district":{"key":"12068","name":"Ostprignitz-Ruppin","type":"Landkreis"},"federalState":{"key":"12","name":"Brandenburg"}},{"name":"Am Bahnhof","postalCode":"16909","locality":"Wittstock/Dosse","municipality":{"key":"12068468","name":"Wittstock/Dosse, Stadt","type":"Stadt"},"district":{"key":"12068","name":"Ostprignitz-Ruppin","type":"Landkreis"},"federalState":{"key":"12","name":"Brandenburg"}},{"name":"Am Blanschen","postalCode":"16909","locality":"Wittstock/Dosse","municipality":{"key":"12068468","name":"Wittstock/Dosse, Stadt","type":"Stadt"},"district":{"key":"12068","name":"Ostprignitz-Ruppin","type":"Landkreis"},"federalState":{"key":"12","name":"Brandenburg"}},{"name":"Am Brink","postalCode":"16909","locality":"Wittstock/Dosse","municipality":{"key":"12068468","name":"Wittstock/Dosse, Stadt","type":"Stadt"},"district":{"key":"12068","name":"Ostprignitz-Ruppin","type":"Landkreis"},"federalState":{"key":"12","name":"Brandenburg"}},{"name":"Am Donnerberg","postalCode":"16909","locality":"Wittstock/Dosse","municipality":{"key":"12068468","name":"Wittstock/Dosse, Stadt","type":"Stadt"},"district":{"key":"12068","name":"Ostprignitz-Ruppin","type":"Landkreis"},"federalState":{"key":"12","name":"Brandenburg"}},{"name":"Am Heideberg","postalCode":"16909","locality":"Wittstock/Dosse","municipality":{"key":"12068468","name":"Wittstock/Dosse, Stadt","type":"Stadt"},"district":{"key":"12068","name":"Ostprignitz-Ruppin","type":"Landkreis"},"federalState":{"key":"12","name":"Brandenburg"}},{"name":"Am Hühnerberg","postalCode":"16909","locality":"Wittstock/Dosse","municipality":{"key":"12068468","name":"Wittstock/Dosse, Stadt","type":"Stadt"},"district":{"key":"12068","name":"Ostprignitz-Ruppin","type":"Landkreis"},"federalState":{"key":"12","name":"Brandenburg"}},{"name":"Am Kadaverhaus","postalCode":"16909","locality":"Wittstock/Dosse","municipality":{"key":"12068468","name":"Wittstock/Dosse, Stadt","type":"Stadt"},"district":{"key":"12068","name":"Ostprignitz-Ruppin","type":"Landkreis"},"federalState":{"key":"12","name":"Brandenburg"}},{"name":"Am Kamp","postalCode":"16909","locality":"Wittstock/Dosse","municipality":{"key":"12068468","name":"Wittstock/Dosse, Stadt","type":"Stadt"},"district":{"key":"12068","name":"Ostprignitz-Ruppin","type":"Landkreis"},"federalState":{"key":"12","name":"Brandenburg"}},{"name":"Am Kyritzer Tor","postalCode":"16909","locality":"Wittstock/Dosse","municipality":{"key":"12068468","name":"Wittstock/Dosse, Stadt","type":"Stadt"},"district":{"key":"12068","name":"Ostprignitz-Ruppin","type":"Landkreis"},"federalState":{"key":"12","name":"Brandenburg"}},{"name":"Am Markt","postalCode":"16909","locality":"Wittstock/Dosse","municipality":{"key":"12068468","name":"Wittstock/Dosse, Stadt","type":"Stadt"},"district":{"key":"12068","name":"Ostprignitz-Ruppin","type":"Landkreis"},"federalState":{"key":"12","name":"Brandenburg"}},{"name":"Am Müllerberg","postalCode":"16909","locality":"Wittstock/Dosse","municipality":{"key":"12068468","name":"Wittstock/Dosse, Stadt","type":"Stadt"},"district":{"key":"12068","name":"Ostprignitz-Ruppin","type":"Landkreis"},"federalState":{"key":"12","name":"Brandenburg"}},{"name":"Am Neuen Weg","postalCode":"16909","locality":"Wittstock/Dosse","municipality":{"key":"12068468","name":"Wittstock/Dosse, Stadt","type":"Stadt"},"district":{"key":"12068","name":"Ostprignitz-Ruppin","type":"Landkreis"},"federalState":{"key":"12","name":"Brandenburg"}},{"name":"Am Rosenplan","postalCode":"16909","locality":"Wittstock/Dosse","municipality":{"key":"12068468","name":"Wittstock/Dosse, Stadt","type":"Stadt"},"district":{"key":"12068","name":"Ostprignitz-Ruppin","type":"Landkreis"},"federalState":{"key":"12","name":"Brandenburg"}},{"name":"Am Rosenwinkel","postalCode":"16909","locality":"Wittstock/Dosse","municipality":{"key":"12068468","name":"Wittstock/Dosse, Stadt","type":"Stadt"},"district":{"key":"12068","name":"Ostprignitz-Ruppin","type":"Landkreis"},"federalState":{"key":"12","name":"Brandenburg"}},{"name":"Am Sandberg","postalCode":"16909","locality":"Wittstock/Dosse","municipality":{"key":"12068468","name":"Wittstock/Dosse, Stadt","type":"Stadt"},"district":{"key":"12068","name":"Ostprignitz-Ruppin","type":"Landkreis"},"federalState":{"key":"12","name":"Brandenburg"}},{"name":"Amselweg","postalCode":"16909","locality":"Wittstock/Dosse","municipality":{"key":"12068468","name":"Wittstock/Dosse, Stadt","type":"Stadt"},"district":{"key":"12068","name":"Ostprignitz-Ruppin","type":"Landkreis"},"federalState":{"key":"12","name":"Brandenburg"}},{"name":"Amtshof","postalCode":"16909","locality":"Wittstock/Dosse","municipality":{"key":"12068468","name":"Wittstock/Dosse, Stadt","type":"Stadt"},"district":{"key":"12068","name":"Ostprignitz-Ruppin","type":"Landkreis"},"federalState":{"key":"12","name":"Brandenburg"}},{"name":"Am Weinberg","postalCode":"16909","locality":"Wittstock/Dosse","municipality":{"key":"12068468","name":"Wittstock/Dosse, Stadt","type":"Stadt"},"district":{"key":"12068","name":"Ostprignitz-Ruppin","type":"Landkreis"},"federalState":{"key":"12","name":"Brandenburg"}},{"name":"Am Wiesenhang","postalCode":"16909","locality":"Wittstock/Dosse","municipality":{"key":"12068468","name":"Wittstock/Dosse, Stadt","type":"Stadt"},"district":{"key":"12068","name":"Ostprignitz-Ruppin","type":"Landkreis"},"federalState":{"key":"12","name":"Brandenburg"}},{"name":"Am Wolfsloch","postalCode":"16909","locality":"Wittstock/Dosse","municipality":{"key":"12068468","name":"Wittstock/Dosse, Stadt","type":"Stadt"},"district":{"key":"12068","name":"Ostprignitz-Ruppin","type":"Landkreis"},"federalState":{"key":"12","name":"Brandenburg"}},{"name":"An den Dossewiesen","postalCode":"16909","locality":"Wittstock/Dosse","municipality":{"key":"12068468","name":"Wittstock/Dosse, Stadt","type":"Stadt"},"district":{"key":"12068","name":"Ostprignitz-Ruppin","type":"Landkreis"},"federalState":{"key":"12","name":"Brandenburg"}},{"name":"An der Glinze","postalCode":"16909","locality":"Wittstock/Dosse","municipality":{"key":"12068468","name":"Wittstock/Dosse, Stadt","type":"Stadt"},"district":{"key":"12068","name":"Ostprignitz-Ruppin","type":"Landkreis"},"federalState":{"key":"12","name":"Brandenburg"}},{"name":"An der Rackstädt","postalCode":"16909","locality":"Wittstock/Dosse","municipality":{"key":"12068468","name":"Wittstock/Dosse, Stadt","type":"Stadt"},"district":{"key":"12068","name":"Ostprignitz-Ruppin","type":"Landkreis"},"federalState":{"key":"12","name":"Brandenburg"}},{"name":"Auf der Freiheit","postalCode":"16909","locality":"Wittstock/Dosse","municipality":{"key":"12068468","name":"Wittstock/Dosse, Stadt","type":"Stadt"},"district":{"key":"12068","name":"Ostprignitz-Ruppin","type":"Landkreis"},"federalState":{"key":"12","name":"Brandenburg"}},{"name":"August-Bebel-Platz","postalCode":"16909","locality":"Wittstock/Dosse","municipality":{"key":"12068468","name":"Wittstock/Dosse, Stadt","type":"Stadt"},"district":{"key":"12068","name":"Ostprignitz-Ruppin","type":"Landkreis"},"federalState":{"key":"12","name":"Brandenburg"}},{"name":"Babitzer Str.","postalCode":"16909","locality":"Wittstock/Dosse","municipality":{"key":"12068468","name":"Wittstock/Dosse, Stadt","type":"Stadt"},"district":{"key":"12068","name":"Ostprignitz-Ruppin","type":"Landkreis"},"federalState":{"key":"12","name":"Brandenburg"}},{"name":"Bahnhofsstr.","postalCode":"16909","locality":"Wittstock/Dosse","municipality":{"key":"12068468","name":"Wittstock/Dosse, Stadt","type":"Stadt"},"district":{"key":"12068","name":"Ostprignitz-Ruppin","type":"Landkreis"},"federalState":{"key":"12","name":"Brandenburg"}},{"name":"Banérplatz","postalCode":"16909","locality":"Wittstock/Dosse","municipality":{"key":"12068468","name":"Wittstock/Dosse, Stadt","type":"Stadt"},"district":{"key":"12068","name":"Ostprignitz-Ruppin","type":"Landkreis"},"federalState":{"key":"12","name":"Brandenburg"}},{"name":"Banérstr.","postalCode":"16909","locality":"Wittstock/Dosse","municipality":{"key":"12068468","name":"Wittstock/Dosse, Stadt","type":"Stadt"},"district":{"key":"12068","name":"Ostprignitz-Ruppin","type":"Landkreis"},"federalState":{"key":"12","name":"Brandenburg"}},{"name":"Bauhofweg","postalCode":"16909","locality":"Wittstock/Dosse","municipality":{"key":"12068468","name":"Wittstock/Dosse, Stadt","type":"Stadt"},"district":{"key":"12068","name":"Ostprignitz-Ruppin","type":"Landkreis"},"federalState":{"key":"12","name":"Brandenburg"}},{"name":"Baustr.","postalCode":"16909","locality":"Wittstock/Dosse","municipality":{"key":"12068468","name":"Wittstock/Dosse, Stadt","type":"Stadt"},"district":{"key":"12068","name":"Ostprignitz-Ruppin","type":"Landkreis"},"federalState":{"key":"12","name":"Brandenburg"}},{"name":"Beethovenstr.","postalCode":"16909","locality":"Wittstock/Dosse","municipality":{"key":"12068468","name":"Wittstock/Dosse, Stadt","type":"Stadt"},"district":{"key":"12068","name":"Ostprignitz-Ruppin","type":"Landkreis"},"federalState":{"key":"12","name":"Brandenburg"}},{"name":"Belower Damm","postalCode":"16909","locality":"Wittstock/Dosse","municipality":{"key":"12068468","name":"Wittstock/Dosse, Stadt","type":"Stadt"},"district":{"key":"12068","name":"Ostprignitz-Ruppin","type":"Landkreis"},"federalState":{"key":"12","name":"Brandenburg"}},{"name":"Bergstr.","postalCode":"16909","locality":"Wittstock/Dosse","municipality":{"key":"12068468","name":"Wittstock/Dosse, Stadt","type":"Stadt"},"district":{"key":"12068","name":"Ostprignitz-Ruppin","type":"Landkreis"},"federalState":{"key":"12","name":"Brandenburg"}},{"name":"Berlinchener Chaussee","postalCode":"16909","locality":"Wittstock/Dosse","municipality":{"key":"12068468","name":"Wittstock/Dosse, Stadt","type":"Stadt"},"district":{"key":"12068","name":"Ostprignitz-Ruppin","type":"Landkreis"},"federalState":{"key":"12","name":"Brandenburg"}},{"name":"Berlinchener Dorfplatz","postalCode":"16909","locality":"Wittstock/Dosse","municipality":{"key":"12068468","name":"Wittstock/Dosse, Stadt","type":"Stadt"},"district":{"key":"12068","name":"Ostprignitz-Ruppin","type":"Landkreis"},"federalState":{"key":"12","name":"Brandenburg"}},{"name":"Berlinchener Dorfstr.","postalCode":"16909","locality":"Wittstock/Dosse","municipality":{"key":"12068468","name":"Wittstock/Dosse, Stadt","type":"Stadt"},"district":{"key":"12068","name":"Ostprignitz-Ruppin","type":"Landkreis"},"federalState":{"key":"12","name":"Brandenburg"}},{"name":"Bettina-von-Arnim-Str.","postalCode":"16909","locality":"Wittstock/Dosse","municipality":{"key":"12068468","name":"Wittstock/Dosse, Stadt","type":"Stadt"},"district":{"key":"12068","name":"Ostprignitz-Ruppin","type":"Landkreis"},"federalState":{"key":"12","name":"Brandenburg"}},{"name":"Biesener Str.","postalCode":"16909","locality":"Wittstock/Dosse","municipality":{"key":"12068468","name":"Wittstock/Dosse, Stadt","type":"Stadt"},"district":{"key":"12068","name":"Ostprignitz-Ruppin","type":"Landkreis"},"federalState":{"key":"12","name":"Brandenburg"}},{"name":"Birkenallee","postalCode":"16909","locality":"Wittstock/Dosse","municipality":{"key":"12068468","name":"Wittstock/Dosse, Stadt","type":"Stadt"},"district":{"key":"12068","name":"Ostprignitz-Ruppin","type":"Landkreis"},"federalState":{"key":"12","name":"Brandenburg"}},{"name":"Birkenweg","postalCode":"16909","locality":"Wittstock/Dosse","municipality":{"key":"12068468","name":"Wittstock/Dosse, Stadt","type":"Stadt"},"district":{"key":"12068","name":"Ostprignitz-Ruppin","type":"Landkreis"},"federalState":{"key":"12","name":"Brandenburg"}},{"name":"Blesendorfer Weg","postalCode":"16909","locality":"Wittstock/Dosse","municipality":{"key":"12068468","name":"Wittstock/Dosse, Stadt","type":"Stadt"},"district":{"key":"12068","name":"Ostprignitz-Ruppin","type":"Landkreis"},"federalState":{"key":"12","name":"Brandenburg"}},{"name":"Bohnekampweg","postalCode":"16909","locality":"Wittstock/Dosse","municipality":{"key":"12068468","name":"Wittstock/Dosse, Stadt","type":"Stadt"},"district":{"key":"12068","name":"Ostprignitz-Ruppin","type":"Landkreis"},"federalState":{"key":"12","name":"Brandenburg"}},{"name":"Briefträgerweg","postalCode":"16909","locality":"Wittstock/Dosse","municipality":{"key":"12068468","name":"Wittstock/Dosse, Stadt","type":"Stadt"},"district":{"key":"12068","name":"Ostprignitz-Ruppin","type":"Landkreis"},"federalState":{"key":"12","name":"Brandenburg"}},{"name":"Buchholzer Str.","postalCode":"16909","locality":"Wittstock/Dosse","municipality":{"key":"12068468","name":"Wittstock/Dosse, Stadt","type":"Stadt"},"district":{"key":"12068","name":"Ostprignitz-Ruppin","type":"Landkreis"},"federalState":{"key":"12","name":"Brandenburg"}},{"name":"Burgstr.","postalCode":"16909","locality":"Wittstock/Dosse","municipality":{"key":"12068468","name":"Wittstock/Dosse, Stadt","type":"Stadt"},"district":{"key":"12068","name":"Ostprignitz-Ruppin","type":"Landkreis"},"federalState":{"key":"12","name":"Brandenburg"}},{"name":"Charlottenhofer Str.","postalCode":"16909","locality":"Wittstock/Dosse","municipality":{"key":"12068468","name":"Wittstock/Dosse, Stadt","type":"Stadt"},"district":{"key":"12068","name":"Ostprignitz-Ruppin","type":"Landkreis"},"federalState":{"key":"12","name":"Brandenburg"}},{"name":"Christdorfer Dorfstr.","postalCode":"16909","locality":"Wittstock/Dosse","municipality":{"key":"12068468","name":"Wittstock/Dosse, Stadt","type":"Stadt"},"district":{"key":"12068","name":"Ostprignitz-Ruppin","type":"Landkreis"},"federalState":{"key":"12","name":"Brandenburg"}},{"name":"Christdorfer Weg","postalCode":"16909","locality":"Wittstock/Dosse","municipality":{"key":"12068468","name":"Wittstock/Dosse, Stadt","type":"Stadt"},"district":{"key":"12068","name":"Ostprignitz-Ruppin","type":"Landkreis"},"federalState":{"key":"12","name":"Brandenburg"}},{"name":"Clara-Schumann-Str.","postalCode":"16909","locality":"Wittstock/Dosse","municipality":{"key":"12068468","name":"Wittstock/Dosse, Stadt","type":"Stadt"},"district":{"key":"12068","name":"Ostprignitz-Ruppin","type":"Landkreis"},"federalState":{"key":"12","name":"Brandenburg"}},{"name":"Clara-Zetkin-Str.","postalCode":"16909","locality":"Wittstock/Dosse","municipality":{"key":"12068468","name":"Wittstock/Dosse, Stadt","type":"Stadt"},"district":{"key":"12068","name":"Ostprignitz-Ruppin","type":"Landkreis"},"federalState":{"key":"12","name":"Brandenburg"}},{"name":"Domhof","postalCode":"16909","locality":"Wittstock/Dosse","municipality":{"key":"12068468","name":"Wittstock/Dosse, Stadt","type":"Stadt"},"district":{"key":"12068","name":"Ostprignitz-Ruppin","type":"Landkreis"},"federalState":{"key":"12","name":"Brandenburg"}},{"name":"Dorfplatz","postalCode":"16909","locality":"Wittstock/Dosse","municipality":{"key":"12068468","name":"Wittstock/Dosse, Stadt","type":"Stadt"},"district":{"key":"12068","name":"Ostprignitz-Ruppin","type":"Landkreis"},"federalState":{"key":"12","name":"Brandenburg"}},{"name":"Dorfstr.","postalCode":"16909","locality":"Wittstock/Dosse","municipality":{"key":"12068468","name":"Wittstock/Dosse, Stadt","type":"Stadt"},"district":{"key":"12068","name":"Ostprignitz-Ruppin","type":"Landkreis"},"federalState":{"key":"12","name":"Brandenburg"}},{"name":"Dossower Bahnhofstr.","postalCode":"16909","locality":"Wittstock/Dosse","municipality":{"key":"12068468","name":"Wittstock/Dosse, Stadt","type":"Stadt"},"district":{"key":"12068","name":"Ostprignitz-Ruppin","type":"Landkreis"},"federalState":{"key":"12","name":"Brandenburg"}},{"name":"Dossower Damm","postalCode":"16909","locality":"Wittstock/Dosse","municipality":{"key":"12068468","name":"Wittstock/Dosse, Stadt","type":"Stadt"},"district":{"key":"12068","name":"Ostprignitz-Ruppin","type":"Landkreis"},"federalState":{"key":"12","name":"Brandenburg"}},{"name":"Dossower Dorfstr.","postalCode":"16909","locality":"Wittstock/Dosse","municipality":{"key":"12068468","name":"Wittstock/Dosse, Stadt","type":"Stadt"},"district":{"key":"12068","name":"Ostprignitz-Ruppin","type":"Landkreis"},"federalState":{"key":"12","name":"Brandenburg"}},{"name":"Dossower Str.","postalCode":"16909","locality":"Wittstock/Dosse","municipality":{"key":"12068468","name":"Wittstock/Dosse, Stadt","type":"Stadt"},"district":{"key":"12068","name":"Ostprignitz-Ruppin","type":"Landkreis"},"federalState":{"key":"12","name":"Brandenburg"}},{"name":"Dossower Weg","postalCode":"16909","locality":"Wittstock/Dosse","municipality":{"key":"12068468","name":"Wittstock/Dosse, Stadt","type":"Stadt"},"district":{"key":"12068","name":"Ostprignitz-Ruppin","type":"Landkreis"},"federalState":{"key":"12","name":"Brandenburg"}},{"name":"Dranser Damm","postalCode":"16909","locality":"Wittstock/Dosse","municipality":{"key":"12068468","name":"Wittstock/Dosse, Stadt","type":"Stadt"},"district":{"key":"12068","name":"Ostprignitz-Ruppin","type":"Landkreis"},"federalState":{"key":"12","name":"Brandenburg"}},{"name":"Dranser Dorfstr.","postalCode":"16909","locality":"Wittstock/Dosse","municipality":{"key":"12068468","name":"Wittstock/Dosse, Stadt","type":"Stadt"},"district":{"key":"12068","name":"Ostprignitz-Ruppin","type":"Landkreis"},"federalState":{"key":"12","name":"Brandenburg"}},{"name":"Dranser Str.","postalCode":"16909","locality":"Wittstock/Dosse","municipality":{"key":"12068468","name":"Wittstock/Dosse, Stadt","type":"Stadt"},"district":{"key":"12068","name":"Ostprignitz-Ruppin","type":"Landkreis"},"federalState":{"key":"12","name":"Brandenburg"}},{"name":"Dranser Wiesenstr.","postalCode":"16909","locality":"Wittstock/Dosse","municipality":{"key":"12068468","name":"Wittstock/Dosse, Stadt","type":"Stadt"},"district":{"key":"12068","name":"Ostprignitz-Ruppin","type":"Landkreis"},"federalState":{"key":"12","name":"Brandenburg"}},{"name":"Draußenberg","postalCode":"16909","locality":"Wittstock/Dosse","municipality":{"key":"12068468","name":"Wittstock/Dosse, Stadt","type":"Stadt"},"district":{"key":"12068","name":"Ostprignitz-Ruppin","type":"Landkreis"},"federalState":{"key":"12","name":"Brandenburg"}},{"name":"Drosselweg","postalCode":"16909","locality":"Wittstock/Dosse","municipality":{"key":"12068468","name":"Wittstock/Dosse, Stadt","type":"Stadt"},"district":{"key":"12068","name":"Ostprignitz-Ruppin","type":"Landkreis"},"federalState":{"key":"12","name":"Brandenburg"}},{"name":"Dunkelsruher Weg","postalCode":"16909","locality":"Wittstock/Dosse","municipality":{"key":"12068468","name":"Wittstock/Dosse, Stadt","type":"Stadt"},"district":{"key":"12068","name":"Ostprignitz-Ruppin","type":"Landkreis"},"federalState":{"key":"12","name":"Brandenburg"}},{"name":"Eichenfelder Str.","postalCode":"16909","locality":"Wittstock/Dosse","municipality":{"key":"12068468","name":"Wittstock/Dosse, Stadt","type":"Stadt"},"district":{"key":"12068","name":"Ostprignitz-Ruppin","type":"Landkreis"},"federalState":{"key":"12","name":"Brandenburg"}},{"name":"Eichenweg","postalCode":"16909","locality":"Wittstock/Dosse","municipality":{"key":"12068468","name":"Wittstock/Dosse, Stadt","type":"Stadt"},"district":{"key":"12068","name":"Ostprignitz-Ruppin","type":"Landkreis"},"federalState":{"key":"12","name":"Brandenburg"}},{"name":"Eisenbahnstr.","postalCode":"16909","locality":"Wittstock/Dosse","municipality":{"key":"12068468","name":"Wittstock/Dosse, Stadt","type":"Stadt"},"district":{"key":"12068","name":"Ostprignitz-Ruppin","type":"Landkreis"},"federalState":{"key":"12","name":"Brandenburg"}},{"name":"Elsenstr.","postalCode":"16909","locality":"Wittstock/Dosse","municipality":{"key":"12068468","name":"Wittstock/Dosse, Stadt","type":"Stadt"},"district":{"key":"12068","name":"Ostprignitz-Ruppin","type":"Landkreis"},"federalState":{"key":"12","name":"Brandenburg"}},{"name":"Eschenweg","postalCode":"16909","locality":"Wittstock/Dosse","municipality":{"key":"12068468","name":"Wittstock/Dosse, Stadt","type":"Stadt"},"district":{"key":"12068","name":"Ostprignitz-Ruppin","type":"Landkreis"},"federalState":{"key":"12","name":"Brandenburg"}},{"name":"Feldstr.","postalCode":"16909","locality":"Wittstock/Dosse","municipality":{"key":"12068468","name":"Wittstock/Dosse, Stadt","type":"Stadt"},"district":{"key":"12068","name":"Ostprignitz-Ruppin","type":"Landkreis"},"federalState":{"key":"12","name":"Brandenburg"}},{"name":"Fichtenweg","postalCode":"16909","locality":"Wittstock/Dosse","municipality":{"key":"12068468","name":"Wittstock/Dosse, Stadt","type":"Stadt"},"district":{"key":"12068","name":"Ostprignitz-Ruppin","type":"Landkreis"},"federalState":{"key":"12","name":"Brandenburg"}},{"name":"Fliederweg","postalCode":"16909","locality":"Wittstock/Dosse","municipality":{"key":"12068468","name":"Wittstock/Dosse, Stadt","type":"Stadt"},"district":{"key":"12068","name":"Ostprignitz-Ruppin","type":"Landkreis"},"federalState":{"key":"12","name":"Brandenburg"}},{"name":"Franz-Mehring-Str.","postalCode":"16909","locality":"Wittstock/Dosse","municipality":{"key":"12068468","name":"Wittstock/Dosse, Stadt","type":"Stadt"},"district":{"key":"12068","name":"Ostprignitz-Ruppin","type":"Landkreis"},"federalState":{"key":"12","name":"Brandenburg"}},{"name":"Fretzdorfer Bahnhofstr.","postalCode":"16909","locality":"Wittstock/Dosse","municipality":{"key":"12068468","name":"Wittstock/Dosse, Stadt","type":"Stadt"},"district":{"key":"12068","name":"Ostprignitz-Ruppin","type":"Landkreis"},"federalState":{"key":"12","name":"Brandenburg"}},{"name":"Fretzdorfer Dorfstr.","postalCode":"16909","locality":"Wittstock/Dosse","municipality":{"key":"12068468","name":"Wittstock/Dosse, Stadt","type":"Stadt"},"district":{"key":"12068","name":"Ostprignitz-Ruppin","type":"Landkreis"},"federalState":{"key":"12","name":"Brandenburg"}},{"name":"Fretzdorfer Eichenweg","postalCode":"16909","locality":"Wittstock/Dosse","municipality":{"key":"12068468","name":"Wittstock/Dosse, Stadt","type":"Stadt"},"district":{"key":"12068","name":"Ostprignitz-Ruppin","type":"Landkreis"},"federalState":{"key":"12","name":"Brandenburg"}},{"name":"Fretzdorfer Steinstr.","postalCode":"16909","locality":"Wittstock/Dosse","municipality":{"key":"12068468","name":"Wittstock/Dosse, Stadt","type":"Stadt"},"district":{"key":"12068","name":"Ostprignitz-Ruppin","type":"Landkreis"},"federalState":{"key":"12","name":"Brandenburg"}},{"name":"Fretzdorfer Str.","postalCode":"16909","locality":"Wittstock/Dosse","municipality":{"key":"12068468","name":"Wittstock/Dosse, Stadt","type":"Stadt"},"district":{"key":"12068","name":"Ostprignitz-Ruppin","type":"Landkreis"},"federalState":{"key":"12","name":"Brandenburg"}},{"name":"Friedrich-Ludwig-Jahn-Str.","postalCode":"16909","locality":"Wittstock/Dosse","municipality":{"key":"12068468","name":"Wittstock/Dosse, Stadt","type":"Stadt"},"district":{"key":"12068","name":"Ostprignitz-Ruppin","type":"Landkreis"},"federalState":{"key":"12","name":"Brandenburg"}},{"name":"Friedrich-Schiller-Str.","postalCode":"16909","locality":"Wittstock/Dosse","municipality":{"key":"12068468","name":"Wittstock/Dosse, Stadt","type":"Stadt"},"district":{"key":"12068","name":"Ostprignitz-Ruppin","type":"Landkreis"},"federalState":{"key":"12","name":"Brandenburg"}},{"name":"Gadower Damm","postalCode":"16909","locality":"Wittstock/Dosse","municipality":{"key":"12068468","name":"Wittstock/Dosse, Stadt","type":"Stadt"},"district":{"key":"12068","name":"Ostprignitz-Ruppin","type":"Landkreis"},"federalState":{"key":"12","name":"Brandenburg"}},{"name":"Gadower Dorfstr.","postalCode":"16909","locality":"Wittstock/Dosse","municipality":{"key":"12068468","name":"Wittstock/Dosse, Stadt","type":"Stadt"},"district":{"key":"12068","name":"Ostprignitz-Ruppin","type":"Landkreis"},"federalState":{"key":"12","name":"Brandenburg"}},{"name":"Gadower Landstr.","postalCode":"16909","locality":"Wittstock/Dosse","municipality":{"key":"12068468","name":"Wittstock/Dosse, Stadt","type":"Stadt"},"district":{"key":"12068","name":"Ostprignitz-Ruppin","type":"Landkreis"},"federalState":{"key":"12","name":"Brandenburg"}},{"name":"Gadow Nord","postalCode":"16909","locality":"Wittstock/Dosse","municipality":{"key":"12068468","name":"Wittstock/Dosse, Stadt","type":"Stadt"},"district":{"key":"12068","name":"Ostprignitz-Ruppin","type":"Landkreis"},"federalState":{"key":"12","name":"Brandenburg"}},{"name":"Gartenstr.","postalCode":"16909","locality":"Wittstock/Dosse","municipality":{"key":"12068468","name":"Wittstock/Dosse, Stadt","type":"Stadt"},"district":{"key":"12068","name":"Ostprignitz-Ruppin","type":"Landkreis"},"federalState":{"key":"12","name":"Brandenburg"}},{"name":"Generalsweg","postalCode":"16909","locality":"Wittstock/Dosse","municipality":{"key":"12068468","name":"Wittstock/Dosse, Stadt","type":"Stadt"},"district":{"key":"12068","name":"Ostprignitz-Ruppin","type":"Landkreis"},"federalState":{"key":"12","name":"Brandenburg"}},{"name":"Gerstlandweg","postalCode":"16909","locality":"Wittstock/Dosse","municipality":{"key":"12068468","name":"Wittstock/Dosse, Stadt","type":"Stadt"},"district":{"key":"12068","name":"Ostprignitz-Ruppin","type":"Landkreis"},"federalState":{"key":"12","name":"Brandenburg"}},{"name":"Geschwister-Scholl-Str.","postalCode":"16909","locality":"Wittstock/Dosse","municipality":{"key":"12068468","name":"Wittstock/Dosse, Stadt","type":"Stadt"},"district":{"key":"12068","name":"Ostprignitz-Ruppin","type":"Landkreis"},"federalState":{"key":"12","name":"Brandenburg"}},{"name":"Glashütter Weg","postalCode":"16909","locality":"Wittstock/Dosse","municipality":{"key":"12068468","name":"Wittstock/Dosse, Stadt","type":"Stadt"},"district":{"key":"12068","name":"Ostprignitz-Ruppin","type":"Landkreis"},"federalState":{"key":"12","name":"Brandenburg"}},{"name":"Glinzeweg","postalCode":"16909","locality":"Wittstock/Dosse","municipality":{"key":"12068468","name":"Wittstock/Dosse, Stadt","type":"Stadt"},"district":{"key":"12068","name":"Ostprignitz-Ruppin","type":"Landkreis"},"federalState":{"key":"12","name":"Brandenburg"}},{"name":"Goldbecker Burgstr.","postalCode":"16909","locality":"Wittstock/Dosse","municipality":{"key":"12068468","name":"Wittstock/Dosse, Stadt","type":"Stadt"},"district":{"key":"12068","name":"Ostprignitz-Ruppin","type":"Landkreis"},"federalState":{"key":"12","name":"Brandenburg"}},{"name":"Goldbecker Str.","postalCode":"16909","locality":"Wittstock/Dosse","municipality":{"key":"12068468","name":"Wittstock/Dosse, Stadt","type":"Stadt"},"district":{"key":"12068","name":"Ostprignitz-Ruppin","type":"Landkreis"},"federalState":{"key":"12","name":"Brandenburg"}},{"name":"Grabower Weg","postalCode":"16909","locality":"Wittstock/Dosse","municipality":{"key":"12068468","name":"Wittstock/Dosse, Stadt","type":"Stadt"},"district":{"key":"12068","name":"Ostprignitz-Ruppin","type":"Landkreis"},"federalState":{"key":"12","name":"Brandenburg"}},{"name":"Grenzweg","postalCode":"16909","locality":"Wittstock/Dosse","municipality":{"key":"12068468","name":"Wittstock/Dosse, Stadt","type":"Stadt"},"district":{"key":"12068","name":"Ostprignitz-Ruppin","type":"Landkreis"},"federalState":{"key":"12","name":"Brandenburg"}},{"name":"Grenzweg Nord","postalCode":"16909","locality":"Wittstock/Dosse","municipality":{"key":"12068468","name":"Wittstock/Dosse, Stadt","type":"Stadt"},"district":{"key":"12068","name":"Ostprignitz-Ruppin","type":"Landkreis"},"federalState":{"key":"12","name":"Brandenburg"}},{"name":"Grimmelshausenstr.","postalCode":"16909","locality":"Wittstock/Dosse","municipality":{"key":"12068468","name":"Wittstock/Dosse, Stadt","type":"Stadt"},"district":{"key":"12068","name":"Ostprignitz-Ruppin","type":"Landkreis"},"federalState":{"key":"12","name":"Brandenburg"}},{"name":"Gröper Gärten","postalCode":"16909","locality":"Wittstock/Dosse","municipality":{"key":"12068468","name":"Wittstock/Dosse, Stadt","type":"Stadt"},"district":{"key":"12068","name":"Ostprignitz-Ruppin","type":"Landkreis"},"federalState":{"key":"12","name":"Brandenburg"}},{"name":"Gröperstr.","postalCode":"16909","locality":"Wittstock/Dosse","municipality":{"key":"12068468","name":"Wittstock/Dosse, Stadt","type":"Stadt"},"district":{"key":"12068","name":"Ostprignitz-Ruppin","type":"Landkreis"},"federalState":{"key":"12","name":"Brandenburg"}},{"name":"Großer Graben","postalCode":"16909","locality":"Wittstock/Dosse","municipality":{"key":"12068468","name":"Wittstock/Dosse, Stadt","type":"Stadt"},"district":{"key":"12068","name":"Ostprignitz-Ruppin","type":"Landkreis"},"federalState":{"key":"12","name":"Brandenburg"}},{"name":"Groß Haßlower Str.","postalCode":"16909","locality":"Wittstock/Dosse","municipality":{"key":"12068468","name":"Wittstock/Dosse, Stadt","type":"Stadt"},"district":{"key":"12068","name":"Ostprignitz-Ruppin","type":"Landkreis"},"federalState":{"key":"12","name":"Brandenburg"}},{"name":"Haßlower Chaussee","postalCode":"16909","locality":"Wittstock/Dosse","municipality":{"key":"12068468","name":"Wittstock/Dosse, Stadt","type":"Stadt"},"district":{"key":"12068","name":"Ostprignitz-Ruppin","type":"Landkreis"},"federalState":{"key":"12","name":"Brandenburg"}},{"name":"Haßlower Weg","postalCode":"16909","locality":"Wittstock/Dosse","municipality":{"key":"12068468","name":"Wittstock/Dosse, Stadt","type":"Stadt"},"district":{"key":"12068","name":"Ostprignitz-Ruppin","type":"Landkreis"},"federalState":{"key":"12","name":"Brandenburg"}},{"name":"Hatzfeldstr.","postalCode":"16909","locality":"Wittstock/Dosse","municipality":{"key":"12068468","name":"Wittstock/Dosse, Stadt","type":"Stadt"},"district":{"key":"12068","name":"Ostprignitz-Ruppin","type":"Landkreis"},"federalState":{"key":"12","name":"Brandenburg"}},{"name":"Hauptstr.","postalCode":"16909","locality":"Wittstock/Dosse","municipality":{"key":"12068468","name":"Wittstock/Dosse, Stadt","type":"Stadt"},"district":{"key":"12068","name":"Ostprignitz-Ruppin","type":"Landkreis"},"federalState":{"key":"12","name":"Brandenburg"}},{"name":"Heiligegeiststr.","postalCode":"16909","locality":"Wittstock/Dosse","municipality":{"key":"12068468","name":"Wittstock/Dosse, Stadt","type":"Stadt"},"district":{"key":"12068","name":"Ostprignitz-Ruppin","type":"Landkreis"},"federalState":{"key":"12","name":"Brandenburg"}},{"name":"Heinrichsdorfer Siedlung","postalCode":"16909","locality":"Wittstock/Dosse","municipality":{"key":"12068468","name":"Wittstock/Dosse, Stadt","type":"Stadt"},"district":{"key":"12068","name":"Ostprignitz-Ruppin","type":"Landkreis"},"federalState":{"key":"12","name":"Brandenburg"}},{"name":"Heinrichsdorfer Str.","postalCode":"16909","locality":"Wittstock/Dosse","municipality":{"key":"12068468","name":"Wittstock/Dosse, Stadt","type":"Stadt"},"district":{"key":"12068","name":"Ostprignitz-Ruppin","type":"Landkreis"},"federalState":{"key":"12","name":"Brandenburg"}},{"name":"Herrmannstr.","postalCode":"16909","locality":"Wittstock/Dosse","municipality":{"key":"12068468","name":"Wittstock/Dosse, Stadt","type":"Stadt"},"district":{"key":"12068","name":"Ostprignitz-Ruppin","type":"Landkreis"},"federalState":{"key":"12","name":"Brandenburg"}},{"name":"Herzdorfer Str.","postalCode":"16909","locality":"Wittstock/Dosse","municipality":{"key":"12068468","name":"Wittstock/Dosse, Stadt","type":"Stadt"},"district":{"key":"12068","name":"Ostprignitz-Ruppin","type":"Landkreis"},"federalState":{"key":"12","name":"Brandenburg"}},{"name":"Igelweg","postalCode":"16909","locality":"Wittstock/Dosse","municipality":{"key":"12068468","name":"Wittstock/Dosse, Stadt","type":"Stadt"},"district":{"key":"12068","name":"Ostprignitz-Ruppin","type":"Landkreis"},"federalState":{"key":"12","name":"Brandenburg"}},{"name":"In den Elsen","postalCode":"16909","locality":"Wittstock/Dosse","municipality":{"key":"12068468","name":"Wittstock/Dosse, Stadt","type":"Stadt"},"district":{"key":"12068","name":"Ostprignitz-Ruppin","type":"Landkreis"},"federalState":{"key":"12","name":"Brandenburg"}},{"name":"Jabeler Chaussee","postalCode":"16909","locality":"Wittstock/Dosse","municipality":{"key":"12068468","name":"Wittstock/Dosse, Stadt","type":"Stadt"},"district":{"key":"12068","name":"Ostprignitz-Ruppin","type":"Landkreis"},"federalState":{"key":"12","name":"Brandenburg"}},{"name":"Jaebetzer Chaussee","postalCode":"16909","locality":"Wittstock/Dosse","municipality":{"key":"12068468","name":"Wittstock/Dosse, Stadt","type":"Stadt"},"district":{"key":"12068","name":"Ostprignitz-Ruppin","type":"Landkreis"},"federalState":{"key":"12","name":"Brandenburg"}},{"name":"Jägerstr.","postalCode":"16909","locality":"Wittstock/Dosse","municipality":{"key":"12068468","name":"Wittstock/Dosse, Stadt","type":"Stadt"},"district":{"key":"12068","name":"Ostprignitz-Ruppin","type":"Landkreis"},"federalState":{"key":"12","name":"Brandenburg"}},{"name":"Kampgarten","postalCode":"16909","locality":"Wittstock/Dosse","municipality":{"key":"12068468","name":"Wittstock/Dosse, Stadt","type":"Stadt"},"district":{"key":"12068","name":"Ostprignitz-Ruppin","type":"Landkreis"},"federalState":{"key":"12","name":"Brandenburg"}},{"name":"Karl-Liebknecht-Str.","postalCode":"16909","locality":"Wittstock/Dosse","municipality":{"key":"12068468","name":"Wittstock/Dosse, Stadt","type":"Stadt"},"district":{"key":"12068","name":"Ostprignitz-Ruppin","type":"Landkreis"},"federalState":{"key":"12","name":"Brandenburg"}},{"name":"Karstedtshofer Str.","postalCode":"16909","locality":"Wittstock/Dosse","municipality":{"key":"12068468","name":"Wittstock/Dosse, Stadt","type":"Stadt"},"district":{"key":"12068","name":"Ostprignitz-Ruppin","type":"Landkreis"},"federalState":{"key":"12","name":"Brandenburg"}},{"name":"Käthe-Kollwitz-Str.","postalCode":"16909","locality":"Wittstock/Dosse","municipality":{"key":"12068468","name":"Wittstock/Dosse, Stadt","type":"Stadt"},"district":{"key":"12068","name":"Ostprignitz-Ruppin","type":"Landkreis"},"federalState":{"key":"12","name":"Brandenburg"}},{"name":"Kettenstr.","postalCode":"16909","locality":"Wittstock/Dosse","municipality":{"key":"12068468","name":"Wittstock/Dosse, Stadt","type":"Stadt"},"district":{"key":"12068","name":"Ostprignitz-Ruppin","type":"Landkreis"},"federalState":{"key":"12","name":"Brandenburg"}},{"name":"Kirchgasse","postalCode":"16909","locality":"Wittstock/Dosse","municipality":{"key":"12068468","name":"Wittstock/Dosse, Stadt","type":"Stadt"},"district":{"key":"12068","name":"Ostprignitz-Ruppin","type":"Landkreis"},"federalState":{"key":"12","name":"Brandenburg"}},{"name":"Kirchplatz","postalCode":"16909","locality":"Wittstock/Dosse","municipality":{"key":"12068468","name":"Wittstock/Dosse, Stadt","type":"Stadt"},"district":{"key":"12068","name":"Ostprignitz-Ruppin","type":"Landkreis"},"federalState":{"key":"12","name":"Brandenburg"}},{"name":"Kirchstr.","postalCode":"16909","locality":"Wittstock/Dosse","municipality":{"key":"12068468","name":"Wittstock/Dosse, Stadt","type":"Stadt"},"district":{"key":"12068","name":"Ostprignitz-Ruppin","type":"Landkreis"},"federalState":{"key":"12","name":"Brandenburg"}},{"name":"Kleine Kettenstr.","postalCode":"16909","locality":"Wittstock/Dosse","municipality":{"key":"12068468","name":"Wittstock/Dosse, Stadt","type":"Stadt"},"district":{"key":"12068","name":"Ostprignitz-Ruppin","type":"Landkreis"},"federalState":{"key":"12","name":"Brandenburg"}},{"name":"Kleiner Graben","postalCode":"16909","locality":"Wittstock/Dosse","municipality":{"key":"12068468","name":"Wittstock/Dosse, Stadt","type":"Stadt"},"district":{"key":"12068","name":"Ostprignitz-Ruppin","type":"Landkreis"},"federalState":{"key":"12","name":"Brandenburg"}},{"name":"Kleingasse","postalCode":"16909","locality":"Wittstock/Dosse","municipality":{"key":"12068468","name":"Wittstock/Dosse, Stadt","type":"Stadt"},"district":{"key":"12068","name":"Ostprignitz-Ruppin","type":"Landkreis"},"federalState":{"key":"12","name":"Brandenburg"}},{"name":"Klein Haßlower Str.","postalCode":"16909","locality":"Wittstock/Dosse","municipality":{"key":"12068468","name":"Wittstock/Dosse, Stadt","type":"Stadt"},"district":{"key":"12068","name":"Ostprignitz-Ruppin","type":"Landkreis"},"federalState":{"key":"12","name":"Brandenburg"}},{"name":"Knüppeldamm","postalCode":"16909","locality":"Wittstock/Dosse","municipality":{"key":"12068468","name":"Wittstock/Dosse, Stadt","type":"Stadt"},"district":{"key":"12068","name":"Ostprignitz-Ruppin","type":"Landkreis"},"federalState":{"key":"12","name":"Brandenburg"}},{"name":"Königstr.","postalCode":"16909","locality":"Wittstock/Dosse","municipality":{"key":"12068468","name":"Wittstock/Dosse, Stadt","type":"Stadt"},"district":{"key":"12068","name":"Ostprignitz-Ruppin","type":"Landkreis"},"federalState":{"key":"12","name":"Brandenburg"}},{"name":"Köstersteg","postalCode":"16909","locality":"Wittstock/Dosse","municipality":{"key":"12068468","name":"Wittstock/Dosse, Stadt","type":"Stadt"},"district":{"key":"12068","name":"Ostprignitz-Ruppin","type":"Landkreis"},"federalState":{"key":"12","name":"Brandenburg"}},{"name":"Kuhlmühler Str.","postalCode":"16909","locality":"Wittstock/Dosse","municipality":{"key":"12068468","name":"Wittstock/Dosse, Stadt","type":"Stadt"},"district":{"key":"12068","name":"Ostprignitz-Ruppin","type":"Landkreis"},"federalState":{"key":"12","name":"Brandenburg"}},{"name":"Kuhstr.","postalCode":"16909","locality":"Wittstock/Dosse","municipality":{"key":"12068468","name":"Wittstock/Dosse, Stadt","type":"Stadt"},"district":{"key":"12068","name":"Ostprignitz-Ruppin","type":"Landkreis"},"federalState":{"key":"12","name":"Brandenburg"}},{"name":"Küsterland","postalCode":"16909","locality":"Wittstock/Dosse","municipality":{"key":"12068468","name":"Wittstock/Dosse, Stadt","type":"Stadt"},"district":{"key":"12068","name":"Ostprignitz-Ruppin","type":"Landkreis"},"federalState":{"key":"12","name":"Brandenburg"}},{"name":"Küsterstr.","postalCode":"16909","locality":"Wittstock/Dosse","municipality":{"key":"12068468","name":"Wittstock/Dosse, Stadt","type":"Stadt"},"district":{"key":"12068","name":"Ostprignitz-Ruppin","type":"Landkreis"},"federalState":{"key":"12","name":"Brandenburg"}},{"name":"Kyritzer Str.","postalCode":"16909","locality":"Wittstock/Dosse","municipality":{"key":"12068468","name":"Wittstock/Dosse, Stadt","type":"Stadt"},"district":{"key":"12068","name":"Ostprignitz-Ruppin","type":"Landkreis"},"federalState":{"key":"12","name":"Brandenburg"}},{"name":"Lärchenweg","postalCode":"16909","locality":"Wittstock/Dosse","municipality":{"key":"12068468","name":"Wittstock/Dosse, Stadt","type":"Stadt"},"district":{"key":"12068","name":"Ostprignitz-Ruppin","type":"Landkreis"},"federalState":{"key":"12","name":"Brandenburg"}},{"name":"Liebenthaler Weg","postalCode":"16909","locality":"Wittstock/Dosse","municipality":{"key":"12068468","name":"Wittstock/Dosse, Stadt","type":"Stadt"},"district":{"key":"12068","name":"Ostprignitz-Ruppin","type":"Landkreis"},"federalState":{"key":"12","name":"Brandenburg"}},{"name":"Lindengraben","postalCode":"16909","locality":"Wittstock/Dosse","municipality":{"key":"12068468","name":"Wittstock/Dosse, Stadt","type":"Stadt"},"district":{"key":"12068","name":"Ostprignitz-Ruppin","type":"Landkreis"},"federalState":{"key":"12","name":"Brandenburg"}},{"name":"Lindenstr.","postalCode":"16909","locality":"Wittstock/Dosse","municipality":{"key":"12068468","name":"Wittstock/Dosse, Stadt","type":"Stadt"},"district":{"key":"12068","name":"Ostprignitz-Ruppin","type":"Landkreis"},"federalState":{"key":"12","name":"Brandenburg"}},{"name":"Lucas-Cranach-Str.","postalCode":"16909","locality":"Wittstock/Dosse","municipality":{"key":"12068468","name":"Wittstock/Dosse, Stadt","type":"Stadt"},"district":{"key":"12068","name":"Ostprignitz-Ruppin","type":"Landkreis"},"federalState":{"key":"12","name":"Brandenburg"}},{"name":"Luhmer Str.","postalCode":"16909","locality":"Wittstock/Dosse","municipality":{"key":"12068468","name":"Wittstock/Dosse, Stadt","type":"Stadt"},"district":{"key":"12068","name":"Ostprignitz-Ruppin","type":"Landkreis"},"federalState":{"key":"12","name":"Brandenburg"}},{"name":"Mainzer Weg","postalCode":"16909","locality":"Wittstock/Dosse","municipality":{"key":"12068468","name":"Wittstock/Dosse, Stadt","type":"Stadt"},"district":{"key":"12068","name":"Ostprignitz-Ruppin","type":"Landkreis"},"federalState":{"key":"12","name":"Brandenburg"}},{"name":"Märkische Str.","postalCode":"16909","locality":"Wittstock/Dosse","municipality":{"key":"12068468","name":"Wittstock/Dosse, Stadt","type":"Stadt"},"district":{"key":"12068","name":"Ostprignitz-Ruppin","type":"Landkreis"},"federalState":{"key":"12","name":"Brandenburg"}},{"name":"Markt","postalCode":"16909","locality":"Wittstock/Dosse","municipality":{"key":"12068468","name":"Wittstock/Dosse, Stadt","type":"Stadt"},"district":{"key":"12068","name":"Ostprignitz-Ruppin","type":"Landkreis"},"federalState":{"key":"12","name":"Brandenburg"}},{"name":"Marktgasse","postalCode":"16909","locality":"Wittstock/Dosse","municipality":{"key":"12068468","name":"Wittstock/Dosse, Stadt","type":"Stadt"},"district":{"key":"12068","name":"Ostprignitz-Ruppin","type":"Landkreis"},"federalState":{"key":"12","name":"Brandenburg"}},{"name":"Marktplatz","postalCode":"16909","locality":"Wittstock/Dosse","municipality":{"key":"12068468","name":"Wittstock/Dosse, Stadt","type":"Stadt"},"district":{"key":"12068","name":"Ostprignitz-Ruppin","type":"Landkreis"},"federalState":{"key":"12","name":"Brandenburg"}},{"name":"Marktstr.","postalCode":"16909","locality":"Wittstock/Dosse","municipality":{"key":"12068468","name":"Wittstock/Dosse, Stadt","type":"Stadt"},"district":{"key":"12068","name":"Ostprignitz-Ruppin","type":"Landkreis"},"federalState":{"key":"12","name":"Brandenburg"}},{"name":"Mauerstr.","postalCode":"16909","locality":"Wittstock/Dosse","municipality":{"key":"12068468","name":"Wittstock/Dosse, Stadt","type":"Stadt"},"district":{"key":"12068","name":"Ostprignitz-Ruppin","type":"Landkreis"},"federalState":{"key":"12","name":"Brandenburg"}},{"name":"Maxim-Gorki-Str.","postalCode":"16909","locality":"Wittstock/Dosse","municipality":{"key":"12068468","name":"Wittstock/Dosse, Stadt","type":"Stadt"},"district":{"key":"12068","name":"Ostprignitz-Ruppin","type":"Landkreis"},"federalState":{"key":"12","name":"Brandenburg"}},{"name":"Meyenburger Chaussee","postalCode":"16909","locality":"Wittstock/Dosse","municipality":{"key":"12068468","name":"Wittstock/Dosse, Stadt","type":"Stadt"},"district":{"key":"12068","name":"Ostprignitz-Ruppin","type":"Landkreis"},"federalState":{"key":"12","name":"Brandenburg"}},{"name":"Meyenburger Str.","postalCode":"16909","locality":"Wittstock/Dosse","municipality":{"key":"12068468","name":"Wittstock/Dosse, Stadt","type":"Stadt"},"district":{"key":"12068","name":"Ostprignitz-Ruppin","type":"Landkreis"},"federalState":{"key":"12","name":"Brandenburg"}},{"name":"Minna-Cauer-Str.","postalCode":"16909","locality":"Wittstock/Dosse","municipality":{"key":"12068468","name":"Wittstock/Dosse, Stadt","type":"Stadt"},"district":{"key":"12068","name":"Ostprignitz-Ruppin","type":"Landkreis"},"federalState":{"key":"12","name":"Brandenburg"}},{"name":"Mozartstr.","postalCode":"16909","locality":"Wittstock/Dosse","municipality":{"key":"12068468","name":"Wittstock/Dosse, Stadt","type":"Stadt"},"district":{"key":"12068","name":"Ostprignitz-Ruppin","type":"Landkreis"},"federalState":{"key":"12","name":"Brandenburg"}},{"name":"Mühlenweg","postalCode":"16909","locality":"Wittstock/Dosse","municipality":{"key":"12068468","name":"Wittstock/Dosse, Stadt","type":"Stadt"},"district":{"key":"12068","name":"Ostprignitz-Ruppin","type":"Landkreis"},"federalState":{"key":"12","name":"Brandenburg"}},{"name":"Müllerweg","postalCode":"16909","locality":"Wittstock/Dosse","municipality":{"key":"12068468","name":"Wittstock/Dosse, Stadt","type":"Stadt"},"district":{"key":"12068","name":"Ostprignitz-Ruppin","type":"Landkreis"},"federalState":{"key":"12","name":"Brandenburg"}},{"name":"Neu-Biesener Weg","postalCode":"16909","locality":"Wittstock/Dosse","municipality":{"key":"12068468","name":"Wittstock/Dosse, Stadt","type":"Stadt"},"district":{"key":"12068","name":"Ostprignitz-Ruppin","type":"Landkreis"},"federalState":{"key":"12","name":"Brandenburg"}},{"name":"Neu Cölln","postalCode":"16909","locality":"Wittstock/Dosse","municipality":{"key":"12068468","name":"Wittstock/Dosse, Stadt","type":"Stadt"},"district":{"key":"12068","name":"Ostprignitz-Ruppin","type":"Landkreis"},"federalState":{"key":"12","name":"Brandenburg"}},{"name":"Neue Gartenstr.","postalCode":"16909","locality":"Wittstock/Dosse","municipality":{"key":"12068468","name":"Wittstock/Dosse, Stadt","type":"Stadt"},"district":{"key":"12068","name":"Ostprignitz-Ruppin","type":"Landkreis"},"federalState":{"key":"12","name":"Brandenburg"}},{"name":"Neuendorfer Str.","postalCode":"16909","locality":"Wittstock/Dosse","municipality":{"key":"12068468","name":"Wittstock/Dosse, Stadt","type":"Stadt"},"district":{"key":"12068","name":"Ostprignitz-Ruppin","type":"Landkreis"},"federalState":{"key":"12","name":"Brandenburg"}},{"name":"Niemerlang Ausbau","postalCode":"16909","locality":"Wittstock/Dosse","municipality":{"key":"12068468","name":"Wittstock/Dosse, Stadt","type":"Stadt"},"district":{"key":"12068","name":"Ostprignitz-Ruppin","type":"Landkreis"},"federalState":{"key":"12","name":"Brandenburg"}},{"name":"Papenbrucher Chaussee","postalCode":"16909","locality":"Wittstock/Dosse","municipality":{"key":"12068468","name":"Wittstock/Dosse, Stadt","type":"Stadt"},"district":{"key":"12068","name":"Ostprignitz-Ruppin","type":"Landkreis"},"federalState":{"key":"12","name":"Brandenburg"}},{"name":"Perleberger Str.","postalCode":"16909","locality":"Wittstock/Dosse","municipality":{"key":"12068468","name":"Wittstock/Dosse, Stadt","type":"Stadt"},"district":{"key":"12068","name":"Ostprignitz-Ruppin","type":"Landkreis"},"federalState":{"key":"12","name":"Brandenburg"}},{"name":"Plauer Tor","postalCode":"16909","locality":"Wittstock/Dosse","municipality":{"key":"12068468","name":"Wittstock/Dosse, Stadt","type":"Stadt"},"district":{"key":"12068","name":"Ostprignitz-Ruppin","type":"Landkreis"},"federalState":{"key":"12","name":"Brandenburg"}},{"name":"Polthierstr.","postalCode":"16909","locality":"Wittstock/Dosse","municipality":{"key":"12068468","name":"Wittstock/Dosse, Stadt","type":"Stadt"},"district":{"key":"12068","name":"Ostprignitz-Ruppin","type":"Landkreis"},"federalState":{"key":"12","name":"Brandenburg"}},{"name":"Poststr.","postalCode":"16909","locality":"Wittstock/Dosse","municipality":{"key":"12068468","name":"Wittstock/Dosse, Stadt","type":"Stadt"},"district":{"key":"12068","name":"Ostprignitz-Ruppin","type":"Landkreis"},"federalState":{"key":"12","name":"Brandenburg"}},{"name":"Predigerstr.","postalCode":"16909","locality":"Wittstock/Dosse","municipality":{"key":"12068468","name":"Wittstock/Dosse, Stadt","type":"Stadt"},"district":{"key":"12068","name":"Ostprignitz-Ruppin","type":"Landkreis"},"federalState":{"key":"12","name":"Brandenburg"}},{"name":"Pritzwalker Chaussee","postalCode":"16909","locality":"Wittstock/Dosse","municipality":{"key":"12068468","name":"Wittstock/Dosse, Stadt","type":"Stadt"},"district":{"key":"12068","name":"Ostprignitz-Ruppin","type":"Landkreis"},"federalState":{"key":"12","name":"Brandenburg"}},{"name":"Pritzwalker Str.","postalCode":"16909","locality":"Wittstock/Dosse","municipality":{"key":"12068468","name":"Wittstock/Dosse, Stadt","type":"Stadt"},"district":{"key":"12068","name":"Ostprignitz-Ruppin","type":"Landkreis"},"federalState":{"key":"12","name":"Brandenburg"}},{"name":"Rackstädter Weg","postalCode":"16909","locality":"Wittstock/Dosse","municipality":{"key":"12068468","name":"Wittstock/Dosse, Stadt","type":"Stadt"},"district":{"key":"12068","name":"Ostprignitz-Ruppin","type":"Landkreis"},"federalState":{"key":"12","name":"Brandenburg"}},{"name":"Rägeliner Str.","postalCode":"16909","locality":"Wittstock/Dosse","municipality":{"key":"12068468","name":"Wittstock/Dosse, Stadt","type":"Stadt"},"district":{"key":"12068","name":"Ostprignitz-Ruppin","type":"Landkreis"},"federalState":{"key":"12","name":"Brandenburg"}},{"name":"Randower Str.","postalCode":"16909","locality":"Wittstock/Dosse","municipality":{"key":"12068468","name":"Wittstock/Dosse, Stadt","type":"Stadt"},"district":{"key":"12068","name":"Ostprignitz-Ruppin","type":"Landkreis"},"federalState":{"key":"12","name":"Brandenburg"}},{"name":"Rheinsberger Siedlung","postalCode":"16909","locality":"Wittstock/Dosse","municipality":{"key":"12068468","name":"Wittstock/Dosse, Stadt","type":"Stadt"},"district":{"key":"12068","name":"Ostprignitz-Ruppin","type":"Landkreis"},"federalState":{"key":"12","name":"Brandenburg"}},{"name":"Rheinsberger Str.","postalCode":"16909","locality":"Wittstock/Dosse","municipality":{"key":"12068468","name":"Wittstock/Dosse, Stadt","type":"Stadt"},"district":{"key":"12068","name":"Ostprignitz-Ruppin","type":"Landkreis"},"federalState":{"key":"12","name":"Brandenburg"}},{"name":"Ringstr.","postalCode":"16909","locality":"Wittstock/Dosse","municipality":{"key":"12068468","name":"Wittstock/Dosse, Stadt","type":"Stadt"},"district":{"key":"12068","name":"Ostprignitz-Ruppin","type":"Landkreis"},"federalState":{"key":"12","name":"Brandenburg"}},{"name":"Röbeler Str.","postalCode":"16909","locality":"Wittstock/Dosse","municipality":{"key":"12068468","name":"Wittstock/Dosse, Stadt","type":"Stadt"},"district":{"key":"12068","name":"Ostprignitz-Ruppin","type":"Landkreis"},"federalState":{"key":"12","name":"Brandenburg"}},{"name":"Rosa-Luxemburg-Str.","postalCode":"16909","locality":"Wittstock/Dosse","municipality":{"key":"12068468","name":"Wittstock/Dosse, Stadt","type":"Stadt"},"district":{"key":"12068","name":"Ostprignitz-Ruppin","type":"Landkreis"},"federalState":{"key":"12","name":"Brandenburg"}},{"name":"Rosenecker Str.","postalCode":"16909","locality":"Wittstock/Dosse","municipality":{"key":"12068468","name":"Wittstock/Dosse, Stadt","type":"Stadt"},"district":{"key":"12068","name":"Ostprignitz-Ruppin","type":"Landkreis"},"federalState":{"key":"12","name":"Brandenburg"}},{"name":"Rosenecker Weg","postalCode":"16909","locality":"Wittstock/Dosse","municipality":{"key":"12068468","name":"Wittstock/Dosse, Stadt","type":"Stadt"},"district":{"key":"12068","name":"Ostprignitz-Ruppin","type":"Landkreis"},"federalState":{"key":"12","name":"Brandenburg"}},{"name":"Rosenplansiedlung","postalCode":"16909","locality":"Wittstock/Dosse","municipality":{"key":"12068468","name":"Wittstock/Dosse, Stadt","type":"Stadt"},"district":{"key":"12068","name":"Ostprignitz-Ruppin","type":"Landkreis"},"federalState":{"key":"12","name":"Brandenburg"}},{"name":"Rosenwinkel","postalCode":"16909","locality":"Wittstock/Dosse","municipality":{"key":"12068468","name":"Wittstock/Dosse, Stadt","type":"Stadt"},"district":{"key":"12068","name":"Ostprignitz-Ruppin","type":"Landkreis"},"federalState":{"key":"12","name":"Brandenburg"}},{"name":"Rossower Dorfstr.","postalCode":"16909","locality":"Wittstock/Dosse","municipality":{"key":"12068468","name":"Wittstock/Dosse, Stadt","type":"Stadt"},"district":{"key":"12068","name":"Ostprignitz-Ruppin","type":"Landkreis"},"federalState":{"key":"12","name":"Brandenburg"}},{"name":"Rossower Weg","postalCode":"16909","locality":"Wittstock/Dosse","municipality":{"key":"12068468","name":"Wittstock/Dosse, Stadt","type":"Stadt"},"district":{"key":"12068","name":"Ostprignitz-Ruppin","type":"Landkreis"},"federalState":{"key":"12","name":"Brandenburg"}},{"name":"Rote-Mühle-Weg","postalCode":"16909","locality":"Wittstock/Dosse","municipality":{"key":"12068468","name":"Wittstock/Dosse, Stadt","type":"Stadt"},"district":{"key":"12068","name":"Ostprignitz-Ruppin","type":"Landkreis"},"federalState":{"key":"12","name":"Brandenburg"}},{"name":"Ruhegasse","postalCode":"16909","locality":"Wittstock/Dosse","municipality":{"key":"12068468","name":"Wittstock/Dosse, Stadt","type":"Stadt"},"district":{"key":"12068","name":"Ostprignitz-Ruppin","type":"Landkreis"},"federalState":{"key":"12","name":"Brandenburg"}},{"name":"Sandberg","postalCode":"16909","locality":"Wittstock/Dosse","municipality":{"key":"12068468","name":"Wittstock/Dosse, Stadt","type":"Stadt"},"district":{"key":"12068","name":"Ostprignitz-Ruppin","type":"Landkreis"},"federalState":{"key":"12","name":"Brandenburg"}},{"name":"Sankt-Marien-Str.","postalCode":"16909","locality":"Wittstock/Dosse","municipality":{"key":"12068468","name":"Wittstock/Dosse, Stadt","type":"Stadt"},"district":{"key":"12068","name":"Ostprignitz-Ruppin","type":"Landkreis"},"federalState":{"key":"12","name":"Brandenburg"}},{"name":"Scharfenberg","postalCode":"16909","locality":"Wittstock/Dosse","municipality":{"key":"12068468","name":"Wittstock/Dosse, Stadt","type":"Stadt"},"district":{"key":"12068","name":"Ostprignitz-Ruppin","type":"Landkreis"},"federalState":{"key":"12","name":"Brandenburg"}},{"name":"Schlossstr.","postalCode":"16909","locality":"Wittstock/Dosse","municipality":{"key":"12068468","name":"Wittstock/Dosse, Stadt","type":"Stadt"},"district":{"key":"12068","name":"Ostprignitz-Ruppin","type":"Landkreis"},"federalState":{"key":"12","name":"Brandenburg"}},{"name":"Schmiedeweg","postalCode":"16909","locality":"Wittstock/Dosse","municipality":{"key":"12068468","name":"Wittstock/Dosse, Stadt","type":"Stadt"},"district":{"key":"12068","name":"Ostprignitz-Ruppin","type":"Landkreis"},"federalState":{"key":"12","name":"Brandenburg"}},{"name":"Schmolder Weg","postalCode":"16909","locality":"Wittstock/Dosse","municipality":{"key":"12068468","name":"Wittstock/Dosse, Stadt","type":"Stadt"},"district":{"key":"12068","name":"Ostprignitz-Ruppin","type":"Landkreis"},"federalState":{"key":"12","name":"Brandenburg"}},{"name":"Schönfelder Weg","postalCode":"16909","locality":"Wittstock/Dosse","municipality":{"key":"12068468","name":"Wittstock/Dosse, Stadt","type":"Stadt"},"district":{"key":"12068","name":"Ostprignitz-Ruppin","type":"Landkreis"},"federalState":{"key":"12","name":"Brandenburg"}},{"name":"Schulgasse","postalCode":"16909","locality":"Wittstock/Dosse","municipality":{"key":"12068468","name":"Wittstock/Dosse, Stadt","type":"Stadt"},"district":{"key":"12068","name":"Ostprignitz-Ruppin","type":"Landkreis"},"federalState":{"key":"12","name":"Brandenburg"}},{"name":"Schulstr.","postalCode":"16909","locality":"Wittstock/Dosse","municipality":{"key":"12068468","name":"Wittstock/Dosse, Stadt","type":"Stadt"},"district":{"key":"12068","name":"Ostprignitz-Ruppin","type":"Landkreis"},"federalState":{"key":"12","name":"Brandenburg"}},{"name":"Schulweg","postalCode":"16909","locality":"Wittstock/Dosse","municipality":{"key":"12068468","name":"Wittstock/Dosse, Stadt","type":"Stadt"},"district":{"key":"12068","name":"Ostprignitz-Ruppin","type":"Landkreis"},"federalState":{"key":"12","name":"Brandenburg"}},{"name":"Schützenstr.","postalCode":"16909","locality":"Wittstock/Dosse","municipality":{"key":"12068468","name":"Wittstock/Dosse, Stadt","type":"Stadt"},"district":{"key":"12068","name":"Ostprignitz-Ruppin","type":"Landkreis"},"federalState":{"key":"12","name":"Brandenburg"}},{"name":"Schwedenstr.","postalCode":"16909","locality":"Wittstock/Dosse","municipality":{"key":"12068468","name":"Wittstock/Dosse, Stadt","type":"Stadt"},"district":{"key":"12068","name":"Ostprignitz-Ruppin","type":"Landkreis"},"federalState":{"key":"12","name":"Brandenburg"}},{"name":"Schweinricher Str.","postalCode":"16909","locality":"Wittstock/Dosse","municipality":{"key":"12068468","name":"Wittstock/Dosse, Stadt","type":"Stadt"},"district":{"key":"12068","name":"Ostprignitz-Ruppin","type":"Landkreis"},"federalState":{"key":"12","name":"Brandenburg"}},{"name":"Seestr.","postalCode":"16909","locality":"Wittstock/Dosse","municipality":{"key":"12068468","name":"Wittstock/Dosse, Stadt","type":"Stadt"},"district":{"key":"12068","name":"Ostprignitz-Ruppin","type":"Landkreis"},"federalState":{"key":"12","name":"Brandenburg"}},{"name":"Sewekower Dorfstr.","postalCode":"16909","locality":"Wittstock/Dosse","municipality":{"key":"12068468","name":"Wittstock/Dosse, Stadt","type":"Stadt"},"district":{"key":"12068","name":"Ostprignitz-Ruppin","type":"Landkreis"},"federalState":{"key":"12","name":"Brandenburg"}},{"name":"Siebmannshorster Str.","postalCode":"16909","locality":"Wittstock/Dosse","municipality":{"key":"12068468","name":"Wittstock/Dosse, Stadt","type":"Stadt"},"district":{"key":"12068","name":"Ostprignitz-Ruppin","type":"Landkreis"},"federalState":{"key":"12","name":"Brandenburg"}},{"name":"Sonnenweg","postalCode":"16909","locality":"Wittstock/Dosse","municipality":{"key":"12068468","name":"Wittstock/Dosse, Stadt","type":"Stadt"},"district":{"key":"12068","name":"Ostprignitz-Ruppin","type":"Landkreis"},"federalState":{"key":"12","name":"Brandenburg"}},{"name":"Steinstr.","postalCode":"16909","locality":"Wittstock/Dosse","municipality":{"key":"12068468","name":"Wittstock/Dosse, Stadt","type":"Stadt"},"district":{"key":"12068","name":"Ostprignitz-Ruppin","type":"Landkreis"},"federalState":{"key":"12","name":"Brandenburg"}},{"name":"Str. der Freundschaft","postalCode":"16909","locality":"Wittstock/Dosse","municipality":{"key":"12068468","name":"Wittstock/Dosse, Stadt","type":"Stadt"},"district":{"key":"12068","name":"Ostprignitz-Ruppin","type":"Landkreis"},"federalState":{"key":"12","name":"Brandenburg"}},{"name":"Str. zur Försterei","postalCode":"16909","locality":"Wittstock/Dosse","municipality":{"key":"12068468","name":"Wittstock/Dosse, Stadt","type":"Stadt"},"district":{"key":"12068","name":"Ostprignitz-Ruppin","type":"Landkreis"},"federalState":{"key":"12","name":"Brandenburg"}},{"name":"Sudrowshofer Damm","postalCode":"16909","locality":"Wittstock/Dosse","municipality":{"key":"12068468","name":"Wittstock/Dosse, Stadt","type":"Stadt"},"district":{"key":"12068","name":"Ostprignitz-Ruppin","type":"Landkreis"},"federalState":{"key":"12","name":"Brandenburg"}},{"name":"Tannenkoppelweg","postalCode":"16909","locality":"Wittstock/Dosse","municipality":{"key":"12068468","name":"Wittstock/Dosse, Stadt","type":"Stadt"},"district":{"key":"12068","name":"Ostprignitz-Ruppin","type":"Landkreis"},"federalState":{"key":"12","name":"Brandenburg"}},{"name":"Tannenstr.","postalCode":"16909","locality":"Wittstock/Dosse","municipality":{"key":"12068468","name":"Wittstock/Dosse, Stadt","type":"Stadt"},"district":{"key":"12068","name":"Ostprignitz-Ruppin","type":"Landkreis"},"federalState":{"key":"12","name":"Brandenburg"}},{"name":"Teetzerstr.","postalCode":"16909","locality":"Wittstock/Dosse","municipality":{"key":"12068468","name":"Wittstock/Dosse, Stadt","type":"Stadt"},"district":{"key":"12068","name":"Ostprignitz-Ruppin","type":"Landkreis"},"federalState":{"key":"12","name":"Brandenburg"}},{"name":"Teetzer Str.","postalCode":"16909","locality":"Wittstock/Dosse","municipality":{"key":"12068468","name":"Wittstock/Dosse, Stadt","type":"Stadt"},"district":{"key":"12068","name":"Ostprignitz-Ruppin","type":"Landkreis"},"federalState":{"key":"12","name":"Brandenburg"}},{"name":"Tetschendorfer Lindenstr.","postalCode":"16909","locality":"Wittstock/Dosse","municipality":{"key":"12068468","name":"Wittstock/Dosse, Stadt","type":"Stadt"},"district":{"key":"12068","name":"Ostprignitz-Ruppin","type":"Landkreis"},"federalState":{"key":"12","name":"Brandenburg"}},{"name":"Tetschendorfer Weg","postalCode":"16909","locality":"Wittstock/Dosse","municipality":{"key":"12068468","name":"Wittstock/Dosse, Stadt","type":"Stadt"},"district":{"key":"12068","name":"Ostprignitz-Ruppin","type":"Landkreis"},"federalState":{"key":"12","name":"Brandenburg"}},{"name":"Turmgestell","postalCode":"16909","locality":"Wittstock/Dosse","municipality":{"key":"12068468","name":"Wittstock/Dosse, Stadt","type":"Stadt"},"district":{"key":"12068","name":"Ostprignitz-Ruppin","type":"Landkreis"},"federalState":{"key":"12","name":"Brandenburg"}},{"name":"Vorstadtweg","postalCode":"16909","locality":"Wittstock/Dosse","municipality":{"key":"12068468","name":"Wittstock/Dosse, Stadt","type":"Stadt"},"district":{"key":"12068","name":"Ostprignitz-Ruppin","type":"Landkreis"},"federalState":{"key":"12","name":"Brandenburg"}},{"name":"Waldrandsiedlung","postalCode":"16909","locality":"Wittstock/Dosse","municipality":{"key":"12068468","name":"Wittstock/Dosse, Stadt","type":"Stadt"},"district":{"key":"12068","name":"Ostprignitz-Ruppin","type":"Landkreis"},"federalState":{"key":"12","name":"Brandenburg"}},{"name":"Waldring","postalCode":"16909","locality":"Wittstock/Dosse","municipality":{"key":"12068468","name":"Wittstock/Dosse, Stadt","type":"Stadt"},"district":{"key":"12068","name":"Ostprignitz-Ruppin","type":"Landkreis"},"federalState":{"key":"12","name":"Brandenburg"}},{"name":"Walkmühler Siedlung","postalCode":"16909","locality":"Wittstock/Dosse","municipality":{"key":"12068468","name":"Wittstock/Dosse, Stadt","type":"Stadt"},"district":{"key":"12068","name":"Ostprignitz-Ruppin","type":"Landkreis"},"federalState":{"key":"12","name":"Brandenburg"}},{"name":"Walkmühler Str.","postalCode":"16909","locality":"Wittstock/Dosse","municipality":{"key":"12068468","name":"Wittstock/Dosse, Stadt","type":"Stadt"},"district":{"key":"12068","name":"Ostprignitz-Ruppin","type":"Landkreis"},"federalState":{"key":"12","name":"Brandenburg"}},{"name":"Wallitzer Weg","postalCode":"16909","locality":"Wittstock/Dosse","municipality":{"key":"12068468","name":"Wittstock/Dosse, Stadt","type":"Stadt"},"district":{"key":"12068","name":"Ostprignitz-Ruppin","type":"Landkreis"},"federalState":{"key":"12","name":"Brandenburg"}},{"name":"Walter-Schulz-Platz","postalCode":"16909","locality":"Wittstock/Dosse","municipality":{"key":"12068468","name":"Wittstock/Dosse, Stadt","type":"Stadt"},"district":{"key":"12068","name":"Ostprignitz-Ruppin","type":"Landkreis"},"federalState":{"key":"12","name":"Brandenburg"}},{"name":"Warnsdorfer Weg","postalCode":"16909","locality":"Wittstock/Dosse","municipality":{"key":"12068468","name":"Wittstock/Dosse, Stadt","type":"Stadt"},"district":{"key":"12068","name":"Ostprignitz-Ruppin","type":"Landkreis"},"federalState":{"key":"12","name":"Brandenburg"}},{"name":"Weg zum Kindergarten","postalCode":"16909","locality":"Wittstock/Dosse","municipality":{"key":"12068468","name":"Wittstock/Dosse, Stadt","type":"Stadt"},"district":{"key":"12068","name":"Ostprignitz-Ruppin","type":"Landkreis"},"federalState":{"key":"12","name":"Brandenburg"}},{"name":"Werdelweg","postalCode":"16909","locality":"Wittstock/Dosse","municipality":{"key":"12068468","name":"Wittstock/Dosse, Stadt","type":"Stadt"},"district":{"key":"12068","name":"Ostprignitz-Ruppin","type":"Landkreis"},"federalState":{"key":"12","name":"Brandenburg"}},{"name":"Werderstr.","postalCode":"16909","locality":"Wittstock/Dosse","municipality":{"key":"12068468","name":"Wittstock/Dosse, Stadt","type":"Stadt"},"district":{"key":"12068","name":"Ostprignitz-Ruppin","type":"Landkreis"},"federalState":{"key":"12","name":"Brandenburg"}},{"name":"Wiesenstr.","postalCode":"16909","locality":"Wittstock/Dosse","municipality":{"key":"12068468","name":"Wittstock/Dosse, Stadt","type":"Stadt"},"district":{"key":"12068","name":"Ostprignitz-Ruppin","type":"Landkreis"},"federalState":{"key":"12","name":"Brandenburg"}},{"name":"Wilmersdorfer Weg","postalCode":"16909","locality":"Wittstock/Dosse","municipality":{"key":"12068468","name":"Wittstock/Dosse, Stadt","type":"Stadt"},"district":{"key":"12068","name":"Ostprignitz-Ruppin","type":"Landkreis"},"federalState":{"key":"12","name":"Brandenburg"}},{"name":"Winkelgasse","postalCode":"16909","locality":"Wittstock/Dosse","municipality":{"key":"12068468","name":"Wittstock/Dosse, Stadt","type":"Stadt"},"district":{"key":"12068","name":"Ostprignitz-Ruppin","type":"Landkreis"},"federalState":{"key":"12","name":"Brandenburg"}},{"name":"Wittstocker Eck","postalCode":"16909","locality":"Wittstock/Dosse","municipality":{"key":"12068468","name":"Wittstock/Dosse, Stadt","type":"Stadt"},"district":{"key":"12068","name":"Ostprignitz-Ruppin","type":"Landkreis"},"federalState":{"key":"12","name":"Brandenburg"}},{"name":"Wittstocker Str.","postalCode":"16909","locality":"Wittstock/Dosse","municipality":{"key":"12068468","name":"Wittstock/Dosse, Stadt","type":"Stadt"},"district":{"key":"12068","name":"Ostprignitz-Ruppin","type":"Landkreis"},"federalState":{"key":"12","name":"Brandenburg"}},{"name":"Wittstocker Weg","postalCode":"16909","locality":"Wittstock/Dosse","municipality":{"key":"12068468","name":"Wittstock/Dosse, Stadt","type":"Stadt"},"district":{"key":"12068","name":"Ostprignitz-Ruppin","type":"Landkreis"},"federalState":{"key":"12","name":"Brandenburg"}},{"name":"Wulfersdorfer Str.","postalCode":"16909","locality":"Wittstock/Dosse","municipality":{"key":"12068468","name":"Wittstock/Dosse, Stadt","type":"Stadt"},"district":{"key":"12068","name":"Ostprignitz-Ruppin","type":"Landkreis"},"federalState":{"key":"12","name":"Brandenburg"}},{"name":"Zaatzker Weg","postalCode":"16909","locality":"Wittstock/Dosse","municipality":{"key":"12068468","name":"Wittstock/Dosse, Stadt","type":"Stadt"},"district":{"key":"12068","name":"Ostprignitz-Ruppin","type":"Landkreis"},"federalState":{"key":"12","name":"Brandenburg"}},{"name":"Zechliner Str.","postalCode":"16909","locality":"Wittstock/Dosse","municipality":{"key":"12068468","name":"Wittstock/Dosse, Stadt","type":"Stadt"},"district":{"key":"12068","name":"Ostprignitz-Ruppin","type":"Landkreis"},"federalState":{"key":"12","name":"Brandenburg"}},{"name":"Zempower Dorfstr.","postalCode":"16909","locality":"Wittstock/Dosse","municipality":{"key":"12068468","name":"Wittstock/Dosse, Stadt","type":"Stadt"},"district":{"key":"12068","name":"Ostprignitz-Ruppin","type":"Landkreis"},"federalState":{"key":"12","name":"Brandenburg"}},{"name":"Zootzener Damm","postalCode":"16909","locality":"Wittstock/Dosse","municipality":{"key":"12068468","name":"Wittstock/Dosse, Stadt","type":"Stadt"},"district":{"key":"12068","name":"Ostprignitz-Ruppin","type":"Landkreis"},"federalState":{"key":"12","name":"Brandenburg"}},{"name":"Zootzener Dorfstr.","postalCode":"16909","locality":"Wittstock/Dosse","municipality":{"key":"12068468","name":"Wittstock/Dosse, Stadt","type":"Stadt"},"district":{"key":"12068","name":"Ostprignitz-Ruppin","type":"Landkreis"},"federalState":{"key":"12","name":"Brandenburg"}},{"name":"Zootzener Str.","postalCode":"16909","locality":"Wittstock/Dosse","municipality":{"key":"12068468","name":"Wittstock/Dosse, Stadt","type":"Stadt"},"district":{"key":"12068","name":"Ostprignitz-Ruppin","type":"Landkreis"},"federalState":{"key":"12","name":"Brandenburg"}},{"name":"Zootzener Weg","postalCode":"16909","locality":"Wittstock/Dosse","municipality":{"key":"12068468","name":"Wittstock/Dosse, Stadt","type":"Stadt"},"district":{"key":"12068","name":"Ostprignitz-Ruppin","type":"Landkreis"},"federalState":{"key":"12","name":"Brandenburg"}},{"name":"Zu den Birken","postalCode":"16909","locality":"Wittstock/Dosse","municipality":{"key":"12068468","name":"Wittstock/Dosse, Stadt","type":"Stadt"},"district":{"key":"12068","name":"Ostprignitz-Ruppin","type":"Landkreis"},"federalState":{"key":"12","name":"Brandenburg"}},{"name":"Zühlener Weg","postalCode":"16909","locality":"Wittstock/Dosse","municipality":{"key":"12068468","name":"Wittstock/Dosse, Stadt","type":"Stadt"},"district":{"key":"12068","name":"Ostprignitz-Ruppin","type":"Landkreis"},"federalState":{"key":"12","name":"Brandenburg"}},{"name":"Zum Bahnhof","postalCode":"16909","locality":"Wittstock/Dosse","municipality":{"key":"12068468","name":"Wittstock/Dosse, Stadt","type":"Stadt"},"district":{"key":"12068","name":"Ostprignitz-Ruppin","type":"Landkreis"},"federalState":{"key":"12","name":"Brandenburg"}},{"name":"Zum Vogelberg","postalCode":"16909","locality":"Wittstock/Dosse","municipality":{"key":"12068468","name":"Wittstock/Dosse, Stadt","type":"Stadt"},"district":{"key":"12068","name":"Ostprignitz-Ruppin","type":"Landkreis"},"federalState":{"key":"12","name":"Brandenburg"}},{"name":"Zur Hottenburg","postalCode":"16909","locality":"Wittstock/Dosse","municipality":{"key":"12068468","name":"Wittstock/Dosse, Stadt","type":"Stadt"},"district":{"key":"12068","name":"Ostprignitz-Ruppin","type":"Landkreis"},"federalState":{"key":"12","name":"Brandenburg"}},]