[{"name":"Abteilungsweg","postalCode":"35510","locality":"Butzbach","municipality":{"key":"06440005","name":"Butzbach, Friedrich-Ludwig-Weidig-Stadt","type":"Stadt"},"district":{"key":"06440","name":"Wetteraukreis","type":"Landkreis"},"federalState":{"key":"06","name":"Hessen"}},{"name":"Abt-Möhler-Str.","postalCode":"35510","locality":"Butzbach","municipality":{"key":"06440005","name":"Butzbach, Friedrich-Ludwig-Weidig-Stadt","type":"Stadt"},"district":{"key":"06440","name":"Wetteraukreis","type":"Landkreis"},"federalState":{"key":"06","name":"Hessen"}},{"name":"Ahornweg","postalCode":"35510","locality":"Butzbach","municipality":{"key":"06440005","name":"Butzbach, Friedrich-Ludwig-Weidig-Stadt","type":"Stadt"},"district":{"key":"06440","name":"Wetteraukreis","type":"Landkreis"},"federalState":{"key":"06","name":"Hessen"}},{"name":"A.-J.-Tröster-Str.","postalCode":"35510","locality":"Butzbach","municipality":{"key":"06440005","name":"Butzbach, Friedrich-Ludwig-Weidig-Stadt","type":"Stadt"},"district":{"key":"06440","name":"Wetteraukreis","type":"Landkreis"},"federalState":{"key":"06","name":"Hessen"}},{"name":"Albert-Wamser-Str.","postalCode":"35510","locality":"Butzbach","municipality":{"key":"06440005","name":"Butzbach, Friedrich-Ludwig-Weidig-Stadt","type":"Stadt"},"district":{"key":"06440","name":"Wetteraukreis","type":"Landkreis"},"federalState":{"key":"06","name":"Hessen"}},{"name":"Alemannenstr.","postalCode":"35510","locality":"Butzbach","municipality":{"key":"06440005","name":"Butzbach, Friedrich-Ludwig-Weidig-Stadt","type":"Stadt"},"district":{"key":"06440","name":"Wetteraukreis","type":"Landkreis"},"federalState":{"key":"06","name":"Hessen"}},{"name":"Alte Allee","postalCode":"35510","locality":"Butzbach","municipality":{"key":"06440005","name":"Butzbach, Friedrich-Ludwig-Weidig-Stadt","type":"Stadt"},"district":{"key":"06440","name":"Wetteraukreis","type":"Landkreis"},"federalState":{"key":"06","name":"Hessen"}},{"name":"Alte Allee / L3353","postalCode":"35510","locality":"Butzbach","municipality":{"key":"06440005","name":"Butzbach, Friedrich-Ludwig-Weidig-Stadt","type":"Stadt"},"district":{"key":"06440","name":"Wetteraukreis","type":"Landkreis"},"federalState":{"key":"06","name":"Hessen"}},{"name":"Alte Brauerei","postalCode":"35510","locality":"Butzbach","municipality":{"key":"06440005","name":"Butzbach, Friedrich-Ludwig-Weidig-Stadt","type":"Stadt"},"district":{"key":"06440","name":"Wetteraukreis","type":"Landkreis"},"federalState":{"key":"06","name":"Hessen"}},{"name":"Alte Hauptstr.","postalCode":"35510","locality":"Butzbach","municipality":{"key":"06440005","name":"Butzbach, Friedrich-Ludwig-Weidig-Stadt","type":"Stadt"},"district":{"key":"06440","name":"Wetteraukreis","type":"Landkreis"},"federalState":{"key":"06","name":"Hessen"}},{"name":"Alte Str.","postalCode":"35510","locality":"Butzbach","municipality":{"key":"06440005","name":"Butzbach, Friedrich-Ludwig-Weidig-Stadt","type":"Stadt"},"district":{"key":"06440","name":"Wetteraukreis","type":"Landkreis"},"federalState":{"key":"06","name":"Hessen"}},{"name":"Alte Weinstr.","postalCode":"35510","locality":"Butzbach","municipality":{"key":"06440005","name":"Butzbach, Friedrich-Ludwig-Weidig-Stadt","type":"Stadt"},"district":{"key":"06440","name":"Wetteraukreis","type":"Landkreis"},"federalState":{"key":"06","name":"Hessen"}},{"name":"Alte Wetzlarer Str.","postalCode":"35510","locality":"Butzbach","municipality":{"key":"06440005","name":"Butzbach, Friedrich-Ludwig-Weidig-Stadt","type":"Stadt"},"district":{"key":"06440","name":"Wetteraukreis","type":"Landkreis"},"federalState":{"key":"06","name":"Hessen"}},{"name":"Alt-Maibach","postalCode":"35510","locality":"Butzbach","municipality":{"key":"06440005","name":"Butzbach, Friedrich-Ludwig-Weidig-Stadt","type":"Stadt"},"district":{"key":"06440","name":"Wetteraukreis","type":"Landkreis"},"federalState":{"key":"06","name":"Hessen"}},{"name":"Am Alten Pfarrhaus","postalCode":"35510","locality":"Butzbach","municipality":{"key":"06440005","name":"Butzbach, Friedrich-Ludwig-Weidig-Stadt","type":"Stadt"},"district":{"key":"06440","name":"Wetteraukreis","type":"Landkreis"},"federalState":{"key":"06","name":"Hessen"}},{"name":"Am Anger","postalCode":"35510","locality":"Butzbach","municipality":{"key":"06440005","name":"Butzbach, Friedrich-Ludwig-Weidig-Stadt","type":"Stadt"},"district":{"key":"06440","name":"Wetteraukreis","type":"Landkreis"},"federalState":{"key":"06","name":"Hessen"}},{"name":"Am Ballhaus","postalCode":"35510","locality":"Butzbach","municipality":{"key":"06440005","name":"Butzbach, Friedrich-Ludwig-Weidig-Stadt","type":"Stadt"},"district":{"key":"06440","name":"Wetteraukreis","type":"Landkreis"},"federalState":{"key":"06","name":"Hessen"}},{"name":"Am Berg","postalCode":"35510","locality":"Butzbach","municipality":{"key":"06440005","name":"Butzbach, Friedrich-Ludwig-Weidig-Stadt","type":"Stadt"},"district":{"key":"06440","name":"Wetteraukreis","type":"Landkreis"},"federalState":{"key":"06","name":"Hessen"}},{"name":"Am Bergwerk","postalCode":"35510","locality":"Butzbach","municipality":{"key":"06440005","name":"Butzbach, Friedrich-Ludwig-Weidig-Stadt","type":"Stadt"},"district":{"key":"06440","name":"Wetteraukreis","type":"Landkreis"},"federalState":{"key":"06","name":"Hessen"}},{"name":"Am Blauen Berg","postalCode":"35510","locality":"Butzbach","municipality":{"key":"06440005","name":"Butzbach, Friedrich-Ludwig-Weidig-Stadt","type":"Stadt"},"district":{"key":"06440","name":"Wetteraukreis","type":"Landkreis"},"federalState":{"key":"06","name":"Hessen"}},{"name":"Am Bollwerk","postalCode":"35510","locality":"Butzbach","municipality":{"key":"06440005","name":"Butzbach, Friedrich-Ludwig-Weidig-Stadt","type":"Stadt"},"district":{"key":"06440","name":"Wetteraukreis","type":"Landkreis"},"federalState":{"key":"06","name":"Hessen"}},{"name":"Am Bolzplatz","postalCode":"35510","locality":"Butzbach","municipality":{"key":"06440005","name":"Butzbach, Friedrich-Ludwig-Weidig-Stadt","type":"Stadt"},"district":{"key":"06440","name":"Wetteraukreis","type":"Landkreis"},"federalState":{"key":"06","name":"Hessen"}},{"name":"Am Brückenweg","postalCode":"35510","locality":"Butzbach","municipality":{"key":"06440005","name":"Butzbach, Friedrich-Ludwig-Weidig-Stadt","type":"Stadt"},"district":{"key":"06440","name":"Wetteraukreis","type":"Landkreis"},"federalState":{"key":"06","name":"Hessen"}},{"name":"Am Burgberg","postalCode":"35510","locality":"Butzbach","municipality":{"key":"06440005","name":"Butzbach, Friedrich-Ludwig-Weidig-Stadt","type":"Stadt"},"district":{"key":"06440","name":"Wetteraukreis","type":"Landkreis"},"federalState":{"key":"06","name":"Hessen"}},{"name":"Am Dillenberg","postalCode":"35510","locality":"Butzbach","municipality":{"key":"06440005","name":"Butzbach, Friedrich-Ludwig-Weidig-Stadt","type":"Stadt"},"district":{"key":"06440","name":"Wetteraukreis","type":"Landkreis"},"federalState":{"key":"06","name":"Hessen"}},{"name":"Am Dreispitz","postalCode":"35510","locality":"Butzbach","municipality":{"key":"06440005","name":"Butzbach, Friedrich-Ludwig-Weidig-Stadt","type":"Stadt"},"district":{"key":"06440","name":"Wetteraukreis","type":"Landkreis"},"federalState":{"key":"06","name":"Hessen"}},{"name":"Am Eichberg","postalCode":"35510","locality":"Butzbach","municipality":{"key":"06440005","name":"Butzbach, Friedrich-Ludwig-Weidig-Stadt","type":"Stadt"},"district":{"key":"06440","name":"Wetteraukreis","type":"Landkreis"},"federalState":{"key":"06","name":"Hessen"}},{"name":"Am Engelsberg","postalCode":"35510","locality":"Butzbach","municipality":{"key":"06440005","name":"Butzbach, Friedrich-Ludwig-Weidig-Stadt","type":"Stadt"},"district":{"key":"06440","name":"Wetteraukreis","type":"Landkreis"},"federalState":{"key":"06","name":"Hessen"}},{"name":"Am Fauerbach","postalCode":"35510","locality":"Butzbach","municipality":{"key":"06440005","name":"Butzbach, Friedrich-Ludwig-Weidig-Stadt","type":"Stadt"},"district":{"key":"06440","name":"Wetteraukreis","type":"Landkreis"},"federalState":{"key":"06","name":"Hessen"}},{"name":"Am Grasweg","postalCode":"35510","locality":"Butzbach","municipality":{"key":"06440005","name":"Butzbach, Friedrich-Ludwig-Weidig-Stadt","type":"Stadt"},"district":{"key":"06440","name":"Wetteraukreis","type":"Landkreis"},"federalState":{"key":"06","name":"Hessen"}},{"name":"Am Grünen Gäßchen","postalCode":"35510","locality":"Butzbach","municipality":{"key":"06440005","name":"Butzbach, Friedrich-Ludwig-Weidig-Stadt","type":"Stadt"},"district":{"key":"06440","name":"Wetteraukreis","type":"Landkreis"},"federalState":{"key":"06","name":"Hessen"}},{"name":"Am Haingraben","postalCode":"35510","locality":"Butzbach","municipality":{"key":"06440005","name":"Butzbach, Friedrich-Ludwig-Weidig-Stadt","type":"Stadt"},"district":{"key":"06440","name":"Wetteraukreis","type":"Landkreis"},"federalState":{"key":"06","name":"Hessen"}},{"name":"Am Heidebrunnen","postalCode":"35510","locality":"Butzbach","municipality":{"key":"06440005","name":"Butzbach, Friedrich-Ludwig-Weidig-Stadt","type":"Stadt"},"district":{"key":"06440","name":"Wetteraukreis","type":"Landkreis"},"federalState":{"key":"06","name":"Hessen"}},{"name":"Am Helgenhaus","postalCode":"35510","locality":"Butzbach","municipality":{"key":"06440005","name":"Butzbach, Friedrich-Ludwig-Weidig-Stadt","type":"Stadt"},"district":{"key":"06440","name":"Wetteraukreis","type":"Landkreis"},"federalState":{"key":"06","name":"Hessen"}},{"name":"Am Hetgesborn","postalCode":"35510","locality":"Butzbach","municipality":{"key":"06440005","name":"Butzbach, Friedrich-Ludwig-Weidig-Stadt","type":"Stadt"},"district":{"key":"06440","name":"Wetteraukreis","type":"Landkreis"},"federalState":{"key":"06","name":"Hessen"}},{"name":"Am Hilpertsbrunnen","postalCode":"35510","locality":"Butzbach","municipality":{"key":"06440005","name":"Butzbach, Friedrich-Ludwig-Weidig-Stadt","type":"Stadt"},"district":{"key":"06440","name":"Wetteraukreis","type":"Landkreis"},"federalState":{"key":"06","name":"Hessen"}},{"name":"Am Hohenrain","postalCode":"35510","locality":"Butzbach","municipality":{"key":"06440005","name":"Butzbach, Friedrich-Ludwig-Weidig-Stadt","type":"Stadt"},"district":{"key":"06440","name":"Wetteraukreis","type":"Landkreis"},"federalState":{"key":"06","name":"Hessen"}},{"name":"Am Hoyerplatz","postalCode":"35510","locality":"Butzbach","municipality":{"key":"06440005","name":"Butzbach, Friedrich-Ludwig-Weidig-Stadt","type":"Stadt"},"district":{"key":"06440","name":"Wetteraukreis","type":"Landkreis"},"federalState":{"key":"06","name":"Hessen"}},{"name":"Am Jungborn","postalCode":"35510","locality":"Butzbach","municipality":{"key":"06440005","name":"Butzbach, Friedrich-Ludwig-Weidig-Stadt","type":"Stadt"},"district":{"key":"06440","name":"Wetteraukreis","type":"Landkreis"},"federalState":{"key":"06","name":"Hessen"}},{"name":"Am Kalkofen","postalCode":"35510","locality":"Butzbach","municipality":{"key":"06440005","name":"Butzbach, Friedrich-Ludwig-Weidig-Stadt","type":"Stadt"},"district":{"key":"06440","name":"Wetteraukreis","type":"Landkreis"},"federalState":{"key":"06","name":"Hessen"}},{"name":"Am Kastell","postalCode":"35510","locality":"Butzbach","municipality":{"key":"06440005","name":"Butzbach, Friedrich-Ludwig-Weidig-Stadt","type":"Stadt"},"district":{"key":"06440","name":"Wetteraukreis","type":"Landkreis"},"federalState":{"key":"06","name":"Hessen"}},{"name":"Am Keltenhof","postalCode":"35510","locality":"Butzbach","municipality":{"key":"06440005","name":"Butzbach, Friedrich-Ludwig-Weidig-Stadt","type":"Stadt"},"district":{"key":"06440","name":"Wetteraukreis","type":"Landkreis"},"federalState":{"key":"06","name":"Hessen"}},{"name":"Am Kleinen Hausberg","postalCode":"35510","locality":"Butzbach","municipality":{"key":"06440005","name":"Butzbach, Friedrich-Ludwig-Weidig-Stadt","type":"Stadt"},"district":{"key":"06440","name":"Wetteraukreis","type":"Landkreis"},"federalState":{"key":"06","name":"Hessen"}},{"name":"Am Kornmarkt","postalCode":"35510","locality":"Butzbach","municipality":{"key":"06440005","name":"Butzbach, Friedrich-Ludwig-Weidig-Stadt","type":"Stadt"},"district":{"key":"06440","name":"Wetteraukreis","type":"Landkreis"},"federalState":{"key":"06","name":"Hessen"}},{"name":"Am Kuhtrieb","postalCode":"35510","locality":"Butzbach","municipality":{"key":"06440005","name":"Butzbach, Friedrich-Ludwig-Weidig-Stadt","type":"Stadt"},"district":{"key":"06440","name":"Wetteraukreis","type":"Landkreis"},"federalState":{"key":"06","name":"Hessen"}},{"name":"Am Lahntor","postalCode":"35510","locality":"Butzbach","municipality":{"key":"06440005","name":"Butzbach, Friedrich-Ludwig-Weidig-Stadt","type":"Stadt"},"district":{"key":"06440","name":"Wetteraukreis","type":"Landkreis"},"federalState":{"key":"06","name":"Hessen"}},{"name":"Am Lichtweg","postalCode":"35510","locality":"Butzbach","municipality":{"key":"06440005","name":"Butzbach, Friedrich-Ludwig-Weidig-Stadt","type":"Stadt"},"district":{"key":"06440","name":"Wetteraukreis","type":"Landkreis"},"federalState":{"key":"06","name":"Hessen"}},{"name":"Am Limes","postalCode":"35510","locality":"Butzbach","municipality":{"key":"06440005","name":"Butzbach, Friedrich-Ludwig-Weidig-Stadt","type":"Stadt"},"district":{"key":"06440","name":"Wetteraukreis","type":"Landkreis"},"federalState":{"key":"06","name":"Hessen"}},{"name":"Am Lustgarten","postalCode":"35510","locality":"Butzbach","municipality":{"key":"06440005","name":"Butzbach, Friedrich-Ludwig-Weidig-Stadt","type":"Stadt"},"district":{"key":"06440","name":"Wetteraukreis","type":"Landkreis"},"federalState":{"key":"06","name":"Hessen"}},{"name":"Am Magna Park","postalCode":"35510","locality":"Butzbach","municipality":{"key":"06440005","name":"Butzbach, Friedrich-Ludwig-Weidig-Stadt","type":"Stadt"},"district":{"key":"06440","name":"Wetteraukreis","type":"Landkreis"},"federalState":{"key":"06","name":"Hessen"}},{"name":"Bachgasse","postalCode":"35510","locality":"Butzbach","municipality":{"key":"06440005","name":"Butzbach, Friedrich-Ludwig-Weidig-Stadt","type":"Stadt"},"district":{"key":"06440","name":"Wetteraukreis","type":"Landkreis"},"federalState":{"key":"06","name":"Hessen"}},{"name":"Backgasse","postalCode":"35510","locality":"Butzbach","municipality":{"key":"06440005","name":"Butzbach, Friedrich-Ludwig-Weidig-Stadt","type":"Stadt"},"district":{"key":"06440","name":"Wetteraukreis","type":"Landkreis"},"federalState":{"key":"06","name":"Hessen"}},{"name":"Backhausstr.","postalCode":"35510","locality":"Butzbach","municipality":{"key":"06440005","name":"Butzbach, Friedrich-Ludwig-Weidig-Stadt","type":"Stadt"},"district":{"key":"06440","name":"Wetteraukreis","type":"Landkreis"},"federalState":{"key":"06","name":"Hessen"}},{"name":"Badborngasse","postalCode":"35510","locality":"Butzbach","municipality":{"key":"06440005","name":"Butzbach, Friedrich-Ludwig-Weidig-Stadt","type":"Stadt"},"district":{"key":"06440","name":"Wetteraukreis","type":"Landkreis"},"federalState":{"key":"06","name":"Hessen"}},{"name":"Bad Nauheimer Str.","postalCode":"35510","locality":"Butzbach","municipality":{"key":"06440005","name":"Butzbach, Friedrich-Ludwig-Weidig-Stadt","type":"Stadt"},"district":{"key":"06440","name":"Wetteraukreis","type":"Landkreis"},"federalState":{"key":"06","name":"Hessen"}},{"name":"Bahnhofsallee","postalCode":"35510","locality":"Butzbach","municipality":{"key":"06440005","name":"Butzbach, Friedrich-Ludwig-Weidig-Stadt","type":"Stadt"},"district":{"key":"06440","name":"Wetteraukreis","type":"Landkreis"},"federalState":{"key":"06","name":"Hessen"}},{"name":"Bahnhofsplatz","postalCode":"35510","locality":"Butzbach","municipality":{"key":"06440005","name":"Butzbach, Friedrich-Ludwig-Weidig-Stadt","type":"Stadt"},"district":{"key":"06440","name":"Wetteraukreis","type":"Landkreis"},"federalState":{"key":"06","name":"Hessen"}},{"name":"Bahnhofstr.","postalCode":"35510","locality":"Butzbach","municipality":{"key":"06440005","name":"Butzbach, Friedrich-Ludwig-Weidig-Stadt","type":"Stadt"},"district":{"key":"06440","name":"Wetteraukreis","type":"Landkreis"},"federalState":{"key":"06","name":"Hessen"}},{"name":"Bärengasse","postalCode":"35510","locality":"Butzbach","municipality":{"key":"06440005","name":"Butzbach, Friedrich-Ludwig-Weidig-Stadt","type":"Stadt"},"district":{"key":"06440","name":"Wetteraukreis","type":"Landkreis"},"federalState":{"key":"06","name":"Hessen"}},{"name":"Beethovenstr.","postalCode":"35510","locality":"Butzbach","municipality":{"key":"06440005","name":"Butzbach, Friedrich-Ludwig-Weidig-Stadt","type":"Stadt"},"district":{"key":"06440","name":"Wetteraukreis","type":"Landkreis"},"federalState":{"key":"06","name":"Hessen"}},{"name":"Bergstr.","postalCode":"35510","locality":"Butzbach","municipality":{"key":"06440005","name":"Butzbach, Friedrich-Ludwig-Weidig-Stadt","type":"Stadt"},"district":{"key":"06440","name":"Wetteraukreis","type":"Landkreis"},"federalState":{"key":"06","name":"Hessen"}},{"name":"Bergweg","postalCode":"35510","locality":"Butzbach","municipality":{"key":"06440005","name":"Butzbach, Friedrich-Ludwig-Weidig-Stadt","type":"Stadt"},"district":{"key":"06440","name":"Wetteraukreis","type":"Landkreis"},"federalState":{"key":"06","name":"Hessen"}},{"name":"Berliner Weg","postalCode":"35510","locality":"Butzbach","municipality":{"key":"06440005","name":"Butzbach, Friedrich-Ludwig-Weidig-Stadt","type":"Stadt"},"district":{"key":"06440","name":"Wetteraukreis","type":"Landkreis"},"federalState":{"key":"06","name":"Hessen"}},{"name":"Bettlerpfad","postalCode":"35510","locality":"Butzbach","municipality":{"key":"06440005","name":"Butzbach, Friedrich-Ludwig-Weidig-Stadt","type":"Stadt"},"district":{"key":"06440","name":"Wetteraukreis","type":"Landkreis"},"federalState":{"key":"06","name":"Hessen"}},{"name":"Birkenweg","postalCode":"35510","locality":"Butzbach","municipality":{"key":"06440005","name":"Butzbach, Friedrich-Ludwig-Weidig-Stadt","type":"Stadt"},"district":{"key":"06440","name":"Wetteraukreis","type":"Landkreis"},"federalState":{"key":"06","name":"Hessen"}},{"name":"Bismarckstr.","postalCode":"35510","locality":"Butzbach","municipality":{"key":"06440005","name":"Butzbach, Friedrich-Ludwig-Weidig-Stadt","type":"Stadt"},"district":{"key":"06440","name":"Wetteraukreis","type":"Landkreis"},"federalState":{"key":"06","name":"Hessen"}},{"name":"Bleichstr.","postalCode":"35510","locality":"Butzbach","municipality":{"key":"06440005","name":"Butzbach, Friedrich-Ludwig-Weidig-Stadt","type":"Stadt"},"district":{"key":"06440","name":"Wetteraukreis","type":"Landkreis"},"federalState":{"key":"06","name":"Hessen"}},{"name":"Bleichweg","postalCode":"35510","locality":"Butzbach","municipality":{"key":"06440005","name":"Butzbach, Friedrich-Ludwig-Weidig-Stadt","type":"Stadt"},"district":{"key":"06440","name":"Wetteraukreis","type":"Landkreis"},"federalState":{"key":"06","name":"Hessen"}},{"name":"Bockenheimer Bachweg","postalCode":"35510","locality":"Butzbach","municipality":{"key":"06440005","name":"Butzbach, Friedrich-Ludwig-Weidig-Stadt","type":"Stadt"},"district":{"key":"06440","name":"Wetteraukreis","type":"Landkreis"},"federalState":{"key":"06","name":"Hessen"}},{"name":"Bodenröder Kirchweg","postalCode":"35510","locality":"Butzbach","municipality":{"key":"06440005","name":"Butzbach, Friedrich-Ludwig-Weidig-Stadt","type":"Stadt"},"district":{"key":"06440","name":"Wetteraukreis","type":"Landkreis"},"federalState":{"key":"06","name":"Hessen"}},{"name":"Bodenröder Str.","postalCode":"35510","locality":"Butzbach","municipality":{"key":"06440005","name":"Butzbach, Friedrich-Ludwig-Weidig-Stadt","type":"Stadt"},"district":{"key":"06440","name":"Wetteraukreis","type":"Landkreis"},"federalState":{"key":"06","name":"Hessen"}},{"name":"Bornäckerweg","postalCode":"35510","locality":"Butzbach","municipality":{"key":"06440005","name":"Butzbach, Friedrich-Ludwig-Weidig-Stadt","type":"Stadt"},"district":{"key":"06440","name":"Wetteraukreis","type":"Landkreis"},"federalState":{"key":"06","name":"Hessen"}},{"name":"Borngartenstr.","postalCode":"35510","locality":"Butzbach","municipality":{"key":"06440005","name":"Butzbach, Friedrich-Ludwig-Weidig-Stadt","type":"Stadt"},"district":{"key":"06440","name":"Wetteraukreis","type":"Landkreis"},"federalState":{"key":"06","name":"Hessen"}},{"name":"Borngasse","postalCode":"35510","locality":"Butzbach","municipality":{"key":"06440005","name":"Butzbach, Friedrich-Ludwig-Weidig-Stadt","type":"Stadt"},"district":{"key":"06440","name":"Wetteraukreis","type":"Landkreis"},"federalState":{"key":"06","name":"Hessen"}},{"name":"Bornhofener Weg","postalCode":"35510","locality":"Butzbach","municipality":{"key":"06440005","name":"Butzbach, Friedrich-Ludwig-Weidig-Stadt","type":"Stadt"},"district":{"key":"06440","name":"Wetteraukreis","type":"Landkreis"},"federalState":{"key":"06","name":"Hessen"}},{"name":"Bottengasse","postalCode":"35510","locality":"Butzbach","municipality":{"key":"06440005","name":"Butzbach, Friedrich-Ludwig-Weidig-Stadt","type":"Stadt"},"district":{"key":"06440","name":"Wetteraukreis","type":"Landkreis"},"federalState":{"key":"06","name":"Hessen"}},{"name":"Brahmsstr.","postalCode":"35510","locality":"Butzbach","municipality":{"key":"06440005","name":"Butzbach, Friedrich-Ludwig-Weidig-Stadt","type":"Stadt"},"district":{"key":"06440","name":"Wetteraukreis","type":"Landkreis"},"federalState":{"key":"06","name":"Hessen"}},{"name":"Breiter Stein","postalCode":"35510","locality":"Butzbach","municipality":{"key":"06440005","name":"Butzbach, Friedrich-Ludwig-Weidig-Stadt","type":"Stadt"},"district":{"key":"06440","name":"Wetteraukreis","type":"Landkreis"},"federalState":{"key":"06","name":"Hessen"}},{"name":"Breslauer Str.","postalCode":"35510","locality":"Butzbach","municipality":{"key":"06440005","name":"Butzbach, Friedrich-Ludwig-Weidig-Stadt","type":"Stadt"},"district":{"key":"06440","name":"Wetteraukreis","type":"Landkreis"},"federalState":{"key":"06","name":"Hessen"}},{"name":"Brucknerweg","postalCode":"35510","locality":"Butzbach","municipality":{"key":"06440005","name":"Butzbach, Friedrich-Ludwig-Weidig-Stadt","type":"Stadt"},"district":{"key":"06440","name":"Wetteraukreis","type":"Landkreis"},"federalState":{"key":"06","name":"Hessen"}},{"name":"Brudergasse","postalCode":"35510","locality":"Butzbach","municipality":{"key":"06440005","name":"Butzbach, Friedrich-Ludwig-Weidig-Stadt","type":"Stadt"},"district":{"key":"06440","name":"Wetteraukreis","type":"Landkreis"},"federalState":{"key":"06","name":"Hessen"}},{"name":"Brüder-Grimm-Weg","postalCode":"35510","locality":"Butzbach","municipality":{"key":"06440005","name":"Butzbach, Friedrich-Ludwig-Weidig-Stadt","type":"Stadt"},"district":{"key":"06440","name":"Wetteraukreis","type":"Landkreis"},"federalState":{"key":"06","name":"Hessen"}},{"name":"Brühlgasse","postalCode":"35510","locality":"Butzbach","municipality":{"key":"06440005","name":"Butzbach, Friedrich-Ludwig-Weidig-Stadt","type":"Stadt"},"district":{"key":"06440","name":"Wetteraukreis","type":"Landkreis"},"federalState":{"key":"06","name":"Hessen"}},{"name":"Brühlweg","postalCode":"35510","locality":"Butzbach","municipality":{"key":"06440005","name":"Butzbach, Friedrich-Ludwig-Weidig-Stadt","type":"Stadt"},"district":{"key":"06440","name":"Wetteraukreis","type":"Landkreis"},"federalState":{"key":"06","name":"Hessen"}},{"name":"Brunnengasse","postalCode":"35510","locality":"Butzbach","municipality":{"key":"06440005","name":"Butzbach, Friedrich-Ludwig-Weidig-Stadt","type":"Stadt"},"district":{"key":"06440","name":"Wetteraukreis","type":"Landkreis"},"federalState":{"key":"06","name":"Hessen"}},{"name":"Brunnenstr.","postalCode":"35510","locality":"Butzbach","municipality":{"key":"06440005","name":"Butzbach, Friedrich-Ludwig-Weidig-Stadt","type":"Stadt"},"district":{"key":"06440","name":"Wetteraukreis","type":"Landkreis"},"federalState":{"key":"06","name":"Hessen"}},{"name":"Brunnenweg","postalCode":"35510","locality":"Butzbach","municipality":{"key":"06440005","name":"Butzbach, Friedrich-Ludwig-Weidig-Stadt","type":"Stadt"},"district":{"key":"06440","name":"Wetteraukreis","type":"Landkreis"},"federalState":{"key":"06","name":"Hessen"}},{"name":"Buchenhain","postalCode":"35510","locality":"Butzbach","municipality":{"key":"06440005","name":"Butzbach, Friedrich-Ludwig-Weidig-Stadt","type":"Stadt"},"district":{"key":"06440","name":"Wetteraukreis","type":"Landkreis"},"federalState":{"key":"06","name":"Hessen"}},{"name":"Buchenweg","postalCode":"35510","locality":"Butzbach","municipality":{"key":"06440005","name":"Butzbach, Friedrich-Ludwig-Weidig-Stadt","type":"Stadt"},"district":{"key":"06440","name":"Wetteraukreis","type":"Landkreis"},"federalState":{"key":"06","name":"Hessen"}},{"name":"Büchnerstr.","postalCode":"35510","locality":"Butzbach","municipality":{"key":"06440005","name":"Butzbach, Friedrich-Ludwig-Weidig-Stadt","type":"Stadt"},"district":{"key":"06440","name":"Wetteraukreis","type":"Landkreis"},"federalState":{"key":"06","name":"Hessen"}},{"name":"Bühlweg","postalCode":"35510","locality":"Butzbach","municipality":{"key":"06440005","name":"Butzbach, Friedrich-Ludwig-Weidig-Stadt","type":"Stadt"},"district":{"key":"06440","name":"Wetteraukreis","type":"Landkreis"},"federalState":{"key":"06","name":"Hessen"}},{"name":"Burggasse","postalCode":"35510","locality":"Butzbach","municipality":{"key":"06440005","name":"Butzbach, Friedrich-Ludwig-Weidig-Stadt","type":"Stadt"},"district":{"key":"06440","name":"Wetteraukreis","type":"Landkreis"},"federalState":{"key":"06","name":"Hessen"}},{"name":"Butzbacher Str.","postalCode":"35510","locality":"Butzbach","municipality":{"key":"06440005","name":"Butzbach, Friedrich-Ludwig-Weidig-Stadt","type":"Stadt"},"district":{"key":"06440","name":"Wetteraukreis","type":"Landkreis"},"federalState":{"key":"06","name":"Hessen"}},{"name":"Butzbacher Weg","postalCode":"35510","locality":"Butzbach","municipality":{"key":"06440005","name":"Butzbach, Friedrich-Ludwig-Weidig-Stadt","type":"Stadt"},"district":{"key":"06440","name":"Wetteraukreis","type":"Landkreis"},"federalState":{"key":"06","name":"Hessen"}},{"name":"Chattenstr.","postalCode":"35510","locality":"Butzbach","municipality":{"key":"06440005","name":"Butzbach, Friedrich-Ludwig-Weidig-Stadt","type":"Stadt"},"district":{"key":"06440","name":"Wetteraukreis","type":"Landkreis"},"federalState":{"key":"06","name":"Hessen"}},{"name":"Christian-Schneider-Str.","postalCode":"35510","locality":"Butzbach","municipality":{"key":"06440005","name":"Butzbach, Friedrich-Ludwig-Weidig-Stadt","type":"Stadt"},"district":{"key":"06440","name":"Wetteraukreis","type":"Landkreis"},"federalState":{"key":"06","name":"Hessen"}},{"name":"C.-J.-Melchior-Str.","postalCode":"35510","locality":"Butzbach","municipality":{"key":"06440005","name":"Butzbach, Friedrich-Ludwig-Weidig-Stadt","type":"Stadt"},"district":{"key":"06440","name":"Wetteraukreis","type":"Landkreis"},"federalState":{"key":"06","name":"Hessen"}},{"name":"Clara-Immerwahr-Str.","postalCode":"35510","locality":"Butzbach","municipality":{"key":"06440005","name":"Butzbach, Friedrich-Ludwig-Weidig-Stadt","type":"Stadt"},"district":{"key":"06440","name":"Wetteraukreis","type":"Landkreis"},"federalState":{"key":"06","name":"Hessen"}},{"name":"Cleeberger Weg","postalCode":"35510","locality":"Butzbach","municipality":{"key":"06440005","name":"Butzbach, Friedrich-Ludwig-Weidig-Stadt","type":"Stadt"},"district":{"key":"06440","name":"Wetteraukreis","type":"Landkreis"},"federalState":{"key":"06","name":"Hessen"}},{"name":"Comturgasse","postalCode":"35510","locality":"Butzbach","municipality":{"key":"06440005","name":"Butzbach, Friedrich-Ludwig-Weidig-Stadt","type":"Stadt"},"district":{"key":"06440","name":"Wetteraukreis","type":"Landkreis"},"federalState":{"key":"06","name":"Hessen"}},{"name":"C.-Schneider-Str.","postalCode":"35510","locality":"Butzbach","municipality":{"key":"06440005","name":"Butzbach, Friedrich-Ludwig-Weidig-Stadt","type":"Stadt"},"district":{"key":"06440","name":"Wetteraukreis","type":"Landkreis"},"federalState":{"key":"06","name":"Hessen"}},{"name":"Dachsbauschneise","postalCode":"35510","locality":"Butzbach","municipality":{"key":"06440005","name":"Butzbach, Friedrich-Ludwig-Weidig-Stadt","type":"Stadt"},"district":{"key":"06440","name":"Wetteraukreis","type":"Landkreis"},"federalState":{"key":"06","name":"Hessen"}},{"name":"Dachsweg","postalCode":"35510","locality":"Butzbach","municipality":{"key":"06440005","name":"Butzbach, Friedrich-Ludwig-Weidig-Stadt","type":"Stadt"},"district":{"key":"06440","name":"Wetteraukreis","type":"Landkreis"},"federalState":{"key":"06","name":"Hessen"}},{"name":"Danziger Str.","postalCode":"35510","locality":"Butzbach","municipality":{"key":"06440005","name":"Butzbach, Friedrich-Ludwig-Weidig-Stadt","type":"Stadt"},"district":{"key":"06440","name":"Wetteraukreis","type":"Landkreis"},"federalState":{"key":"06","name":"Hessen"}},{"name":"Der Lachenweg","postalCode":"35510","locality":"Butzbach","municipality":{"key":"06440005","name":"Butzbach, Friedrich-Ludwig-Weidig-Stadt","type":"Stadt"},"district":{"key":"06440","name":"Wetteraukreis","type":"Landkreis"},"federalState":{"key":"06","name":"Hessen"}},{"name":"Die Klaus","postalCode":"35510","locality":"Butzbach","municipality":{"key":"06440005","name":"Butzbach, Friedrich-Ludwig-Weidig-Stadt","type":"Stadt"},"district":{"key":"06440","name":"Wetteraukreis","type":"Landkreis"},"federalState":{"key":"06","name":"Hessen"}},{"name":"Dielenbergstr.","postalCode":"35510","locality":"Butzbach","municipality":{"key":"06440005","name":"Butzbach, Friedrich-Ludwig-Weidig-Stadt","type":"Stadt"},"district":{"key":"06440","name":"Wetteraukreis","type":"Landkreis"},"federalState":{"key":"06","name":"Hessen"}},{"name":"Domgasse","postalCode":"35510","locality":"Butzbach","municipality":{"key":"06440005","name":"Butzbach, Friedrich-Ludwig-Weidig-Stadt","type":"Stadt"},"district":{"key":"06440","name":"Wetteraukreis","type":"Landkreis"},"federalState":{"key":"06","name":"Hessen"}},{"name":"Dresdener Str.","postalCode":"35510","locality":"Butzbach","municipality":{"key":"06440005","name":"Butzbach, Friedrich-Ludwig-Weidig-Stadt","type":"Stadt"},"district":{"key":"06440","name":"Wetteraukreis","type":"Landkreis"},"federalState":{"key":"06","name":"Hessen"}},{"name":"Dr.-Karl-Sack-Str.","postalCode":"35510","locality":"Butzbach","municipality":{"key":"06440005","name":"Butzbach, Friedrich-Ludwig-Weidig-Stadt","type":"Stadt"},"district":{"key":"06440","name":"Wetteraukreis","type":"Landkreis"},"federalState":{"key":"06","name":"Hessen"}},{"name":"Ebersgönser Str.","postalCode":"35510","locality":"Butzbach","municipality":{"key":"06440005","name":"Butzbach, Friedrich-Ludwig-Weidig-Stadt","type":"Stadt"},"district":{"key":"06440","name":"Wetteraukreis","type":"Landkreis"},"federalState":{"key":"06","name":"Hessen"}},{"name":"Ebersgönser Weg","postalCode":"35510","locality":"Butzbach","municipality":{"key":"06440005","name":"Butzbach, Friedrich-Ludwig-Weidig-Stadt","type":"Stadt"},"district":{"key":"06440","name":"Wetteraukreis","type":"Landkreis"},"federalState":{"key":"06","name":"Hessen"}},{"name":"Eduard-Otto-Str.","postalCode":"35510","locality":"Butzbach","municipality":{"key":"06440005","name":"Butzbach, Friedrich-Ludwig-Weidig-Stadt","type":"Stadt"},"district":{"key":"06440","name":"Wetteraukreis","type":"Landkreis"},"federalState":{"key":"06","name":"Hessen"}},{"name":"Egerländer Str.","postalCode":"35510","locality":"Butzbach","municipality":{"key":"06440005","name":"Butzbach, Friedrich-Ludwig-Weidig-Stadt","type":"Stadt"},"district":{"key":"06440","name":"Wetteraukreis","type":"Landkreis"},"federalState":{"key":"06","name":"Hessen"}},{"name":"Eichberg - Forsthaus  Wiesental","postalCode":"35510","locality":"Butzbach","municipality":{"key":"06440005","name":"Butzbach, Friedrich-Ludwig-Weidig-Stadt","type":"Stadt"},"district":{"key":"06440","name":"Wetteraukreis","type":"Landkreis"},"federalState":{"key":"06","name":"Hessen"}},{"name":"Eichendorffweg","postalCode":"35510","locality":"Butzbach","municipality":{"key":"06440005","name":"Butzbach, Friedrich-Ludwig-Weidig-Stadt","type":"Stadt"},"district":{"key":"06440","name":"Wetteraukreis","type":"Landkreis"},"federalState":{"key":"06","name":"Hessen"}},{"name":"Eilenburger Platz","postalCode":"35510","locality":"Butzbach","municipality":{"key":"06440005","name":"Butzbach, Friedrich-Ludwig-Weidig-Stadt","type":"Stadt"},"district":{"key":"06440","name":"Wetteraukreis","type":"Landkreis"},"federalState":{"key":"06","name":"Hessen"}},{"name":"Elisabethenstr.","postalCode":"35510","locality":"Butzbach","municipality":{"key":"06440005","name":"Butzbach, Friedrich-Ludwig-Weidig-Stadt","type":"Stadt"},"district":{"key":"06440","name":"Wetteraukreis","type":"Landkreis"},"federalState":{"key":"06","name":"Hessen"}},{"name":"Elsa-Brandström-Str.","postalCode":"35510","locality":"Butzbach","municipality":{"key":"06440005","name":"Butzbach, Friedrich-Ludwig-Weidig-Stadt","type":"Stadt"},"district":{"key":"06440","name":"Wetteraukreis","type":"Landkreis"},"federalState":{"key":"06","name":"Hessen"}},{"name":"Emil-Vogt-Str.","postalCode":"35510","locality":"Butzbach","municipality":{"key":"06440005","name":"Butzbach, Friedrich-Ludwig-Weidig-Stadt","type":"Stadt"},"district":{"key":"06440","name":"Wetteraukreis","type":"Landkreis"},"federalState":{"key":"06","name":"Hessen"}},{"name":"Eppsteiner Str.","postalCode":"35510","locality":"Butzbach","municipality":{"key":"06440005","name":"Butzbach, Friedrich-Ludwig-Weidig-Stadt","type":"Stadt"},"district":{"key":"06440","name":"Wetteraukreis","type":"Landkreis"},"federalState":{"key":"06","name":"Hessen"}},{"name":"Erbsengasse","postalCode":"35510","locality":"Butzbach","municipality":{"key":"06440005","name":"Butzbach, Friedrich-Ludwig-Weidig-Stadt","type":"Stadt"},"district":{"key":"06440","name":"Wetteraukreis","type":"Landkreis"},"federalState":{"key":"06","name":"Hessen"}},{"name":"Erich-Kästner-Weg","postalCode":"35510","locality":"Butzbach","municipality":{"key":"06440005","name":"Butzbach, Friedrich-Ludwig-Weidig-Stadt","type":"Stadt"},"district":{"key":"06440","name":"Wetteraukreis","type":"Landkreis"},"federalState":{"key":"06","name":"Hessen"}},{"name":"Erlenpfad","postalCode":"35510","locality":"Butzbach","municipality":{"key":"06440005","name":"Butzbach, Friedrich-Ludwig-Weidig-Stadt","type":"Stadt"},"district":{"key":"06440","name":"Wetteraukreis","type":"Landkreis"},"federalState":{"key":"06","name":"Hessen"}},{"name":"Erlenweg","postalCode":"35510","locality":"Butzbach","municipality":{"key":"06440005","name":"Butzbach, Friedrich-Ludwig-Weidig-Stadt","type":"Stadt"},"district":{"key":"06440","name":"Wetteraukreis","type":"Landkreis"},"federalState":{"key":"06","name":"Hessen"}},{"name":"Eschbacher Weg","postalCode":"35510","locality":"Butzbach","municipality":{"key":"06440005","name":"Butzbach, Friedrich-Ludwig-Weidig-Stadt","type":"Stadt"},"district":{"key":"06440","name":"Wetteraukreis","type":"Landkreis"},"federalState":{"key":"06","name":"Hessen"}},{"name":"Esper Weg","postalCode":"35510","locality":"Butzbach","municipality":{"key":"06440005","name":"Butzbach, Friedrich-Ludwig-Weidig-Stadt","type":"Stadt"},"district":{"key":"06440","name":"Wetteraukreis","type":"Landkreis"},"federalState":{"key":"06","name":"Hessen"}},{"name":"Europaplatz","postalCode":"35510","locality":"Butzbach","municipality":{"key":"06440005","name":"Butzbach, Friedrich-Ludwig-Weidig-Stadt","type":"Stadt"},"district":{"key":"06440","name":"Wetteraukreis","type":"Landkreis"},"federalState":{"key":"06","name":"Hessen"}},{"name":"Falkensteiner Str.","postalCode":"35510","locality":"Butzbach","municipality":{"key":"06440005","name":"Butzbach, Friedrich-Ludwig-Weidig-Stadt","type":"Stadt"},"district":{"key":"06440","name":"Wetteraukreis","type":"Landkreis"},"federalState":{"key":"06","name":"Hessen"}},{"name":"Färbgasse","postalCode":"35510","locality":"Butzbach","municipality":{"key":"06440005","name":"Butzbach, Friedrich-Ludwig-Weidig-Stadt","type":"Stadt"},"district":{"key":"06440","name":"Wetteraukreis","type":"Landkreis"},"federalState":{"key":"06","name":"Hessen"}},{"name":"Fauerbacher Str.","postalCode":"35510","locality":"Butzbach","municipality":{"key":"06440005","name":"Butzbach, Friedrich-Ludwig-Weidig-Stadt","type":"Stadt"},"district":{"key":"06440","name":"Wetteraukreis","type":"Landkreis"},"federalState":{"key":"06","name":"Hessen"}},{"name":"Fauerbacher Weg","postalCode":"35510","locality":"Butzbach","municipality":{"key":"06440005","name":"Butzbach, Friedrich-Ludwig-Weidig-Stadt","type":"Stadt"},"district":{"key":"06440","name":"Wetteraukreis","type":"Landkreis"},"federalState":{"key":"06","name":"Hessen"}},{"name":"Feldbornstr.","postalCode":"35510","locality":"Butzbach","municipality":{"key":"06440005","name":"Butzbach, Friedrich-Ludwig-Weidig-Stadt","type":"Stadt"},"district":{"key":"06440","name":"Wetteraukreis","type":"Landkreis"},"federalState":{"key":"06","name":"Hessen"}},{"name":"Finkgartenweg","postalCode":"35510","locality":"Butzbach","municipality":{"key":"06440005","name":"Butzbach, Friedrich-Ludwig-Weidig-Stadt","type":"Stadt"},"district":{"key":"06440","name":"Wetteraukreis","type":"Landkreis"},"federalState":{"key":"06","name":"Hessen"}},{"name":"Fischwiesenweg","postalCode":"35510","locality":"Butzbach","municipality":{"key":"06440005","name":"Butzbach, Friedrich-Ludwig-Weidig-Stadt","type":"Stadt"},"district":{"key":"06440","name":"Wetteraukreis","type":"Landkreis"},"federalState":{"key":"06","name":"Hessen"}},{"name":"Fohlenweide","postalCode":"35510","locality":"Butzbach","municipality":{"key":"06440005","name":"Butzbach, Friedrich-Ludwig-Weidig-Stadt","type":"Stadt"},"district":{"key":"06440","name":"Wetteraukreis","type":"Landkreis"},"federalState":{"key":"06","name":"Hessen"}},{"name":"Forbach-Pfad","postalCode":"35510","locality":"Butzbach","municipality":{"key":"06440005","name":"Butzbach, Friedrich-Ludwig-Weidig-Stadt","type":"Stadt"},"district":{"key":"06440","name":"Wetteraukreis","type":"Landkreis"},"federalState":{"key":"06","name":"Hessen"}},{"name":"Forbach-Weg","postalCode":"35510","locality":"Butzbach","municipality":{"key":"06440005","name":"Butzbach, Friedrich-Ludwig-Weidig-Stadt","type":"Stadt"},"district":{"key":"06440","name":"Wetteraukreis","type":"Landkreis"},"federalState":{"key":"06","name":"Hessen"}},{"name":"Forsthausstr.","postalCode":"35510","locality":"Butzbach","municipality":{"key":"06440005","name":"Butzbach, Friedrich-Ludwig-Weidig-Stadt","type":"Stadt"},"district":{"key":"06440","name":"Wetteraukreis","type":"Landkreis"},"federalState":{"key":"06","name":"Hessen"}},{"name":"Forsthausweg","postalCode":"35510","locality":"Butzbach","municipality":{"key":"06440005","name":"Butzbach, Friedrich-Ludwig-Weidig-Stadt","type":"Stadt"},"district":{"key":"06440","name":"Wetteraukreis","type":"Landkreis"},"federalState":{"key":"06","name":"Hessen"}},{"name":"Frankenstr.","postalCode":"35510","locality":"Butzbach","municipality":{"key":"06440005","name":"Butzbach, Friedrich-Ludwig-Weidig-Stadt","type":"Stadt"},"district":{"key":"06440","name":"Wetteraukreis","type":"Landkreis"},"federalState":{"key":"06","name":"Hessen"}},{"name":"Franz-Rettig-Weg","postalCode":"35510","locality":"Butzbach","municipality":{"key":"06440005","name":"Butzbach, Friedrich-Ludwig-Weidig-Stadt","type":"Stadt"},"district":{"key":"06440","name":"Wetteraukreis","type":"Landkreis"},"federalState":{"key":"06","name":"Hessen"}},{"name":"Freiherr-vom-Stein-Str.","postalCode":"35510","locality":"Butzbach","municipality":{"key":"06440005","name":"Butzbach, Friedrich-Ludwig-Weidig-Stadt","type":"Stadt"},"district":{"key":"06440","name":"Wetteraukreis","type":"Landkreis"},"federalState":{"key":"06","name":"Hessen"}},{"name":"Friedberger Str.","postalCode":"35510","locality":"Butzbach","municipality":{"key":"06440005","name":"Butzbach, Friedrich-Ludwig-Weidig-Stadt","type":"Stadt"},"district":{"key":"06440","name":"Wetteraukreis","type":"Landkreis"},"federalState":{"key":"06","name":"Hessen"}},{"name":"Friedberger Weg","postalCode":"35510","locality":"Butzbach","municipality":{"key":"06440005","name":"Butzbach, Friedrich-Ludwig-Weidig-Stadt","type":"Stadt"},"district":{"key":"06440","name":"Wetteraukreis","type":"Landkreis"},"federalState":{"key":"06","name":"Hessen"}},{"name":"Fröbelstr.","postalCode":"35510","locality":"Butzbach","municipality":{"key":"06440005","name":"Butzbach, Friedrich-Ludwig-Weidig-Stadt","type":"Stadt"},"district":{"key":"06440","name":"Wetteraukreis","type":"Landkreis"},"federalState":{"key":"06","name":"Hessen"}},{"name":"Furthweg","postalCode":"35510","locality":"Butzbach","municipality":{"key":"06440005","name":"Butzbach, Friedrich-Ludwig-Weidig-Stadt","type":"Stadt"},"district":{"key":"06440","name":"Wetteraukreis","type":"Landkreis"},"federalState":{"key":"06","name":"Hessen"}},{"name":"Fußgasse","postalCode":"35510","locality":"Butzbach","municipality":{"key":"06440005","name":"Butzbach, Friedrich-Ludwig-Weidig-Stadt","type":"Stadt"},"district":{"key":"06440","name":"Wetteraukreis","type":"Landkreis"},"federalState":{"key":"06","name":"Hessen"}},{"name":"Gabelsberger Str.","postalCode":"35510","locality":"Butzbach","municipality":{"key":"06440005","name":"Butzbach, Friedrich-Ludwig-Weidig-Stadt","type":"Stadt"},"district":{"key":"06440","name":"Wetteraukreis","type":"Landkreis"},"federalState":{"key":"06","name":"Hessen"}},{"name":"Gambacher Str.","postalCode":"35510","locality":"Butzbach","municipality":{"key":"06440005","name":"Butzbach, Friedrich-Ludwig-Weidig-Stadt","type":"Stadt"},"district":{"key":"06440","name":"Wetteraukreis","type":"Landkreis"},"federalState":{"key":"06","name":"Hessen"}},{"name":"Gambacher Weg","postalCode":"35510","locality":"Butzbach","municipality":{"key":"06440005","name":"Butzbach, Friedrich-Ludwig-Weidig-Stadt","type":"Stadt"},"district":{"key":"06440","name":"Wetteraukreis","type":"Landkreis"},"federalState":{"key":"06","name":"Hessen"}},{"name":"Gartenstr.","postalCode":"35510","locality":"Butzbach","municipality":{"key":"06440005","name":"Butzbach, Friedrich-Ludwig-Weidig-Stadt","type":"Stadt"},"district":{"key":"06440","name":"Wetteraukreis","type":"Landkreis"},"federalState":{"key":"06","name":"Hessen"}},{"name":"Gartenweg","postalCode":"35510","locality":"Butzbach","municipality":{"key":"06440005","name":"Butzbach, Friedrich-Ludwig-Weidig-Stadt","type":"Stadt"},"district":{"key":"06440","name":"Wetteraukreis","type":"Landkreis"},"federalState":{"key":"06","name":"Hessen"}},{"name":"Gebrüder-Freitag-Str.","postalCode":"35510","locality":"Butzbach","municipality":{"key":"06440005","name":"Butzbach, Friedrich-Ludwig-Weidig-Stadt","type":"Stadt"},"district":{"key":"06440","name":"Wetteraukreis","type":"Landkreis"},"federalState":{"key":"06","name":"Hessen"}},{"name":"Gebrüder-Zeuner-Str.","postalCode":"35510","locality":"Butzbach","municipality":{"key":"06440005","name":"Butzbach, Friedrich-Ludwig-Weidig-Stadt","type":"Stadt"},"district":{"key":"06440","name":"Wetteraukreis","type":"Landkreis"},"federalState":{"key":"06","name":"Hessen"}},{"name":"Gerald-Ford-Str.","postalCode":"35510","locality":"Butzbach","municipality":{"key":"06440005","name":"Butzbach, Friedrich-Ludwig-Weidig-Stadt","type":"Stadt"},"district":{"key":"06440","name":"Wetteraukreis","type":"Landkreis"},"federalState":{"key":"06","name":"Hessen"}},{"name":"Gerbergasse","postalCode":"35510","locality":"Butzbach","municipality":{"key":"06440005","name":"Butzbach, Friedrich-Ludwig-Weidig-Stadt","type":"Stadt"},"district":{"key":"06440","name":"Wetteraukreis","type":"Landkreis"},"federalState":{"key":"06","name":"Hessen"}},{"name":"Gerhart-Hauptmann-Str.","postalCode":"35510","locality":"Butzbach","municipality":{"key":"06440005","name":"Butzbach, Friedrich-Ludwig-Weidig-Stadt","type":"Stadt"},"district":{"key":"06440","name":"Wetteraukreis","type":"Landkreis"},"federalState":{"key":"06","name":"Hessen"}},{"name":"Gießener Str.","postalCode":"35510","locality":"Butzbach","municipality":{"key":"06440005","name":"Butzbach, Friedrich-Ludwig-Weidig-Stadt","type":"Stadt"},"district":{"key":"06440","name":"Wetteraukreis","type":"Landkreis"},"federalState":{"key":"06","name":"Hessen"}},{"name":"Gluckstr.","postalCode":"35510","locality":"Butzbach","municipality":{"key":"06440005","name":"Butzbach, Friedrich-Ludwig-Weidig-Stadt","type":"Stadt"},"district":{"key":"06440","name":"Wetteraukreis","type":"Landkreis"},"federalState":{"key":"06","name":"Hessen"}},{"name":"Goethestr.","postalCode":"35510","locality":"Butzbach","municipality":{"key":"06440005","name":"Butzbach, Friedrich-Ludwig-Weidig-Stadt","type":"Stadt"},"district":{"key":"06440","name":"Wetteraukreis","type":"Landkreis"},"federalState":{"key":"06","name":"Hessen"}},{"name":"Gönser Str.","postalCode":"35510","locality":"Butzbach","municipality":{"key":"06440005","name":"Butzbach, Friedrich-Ludwig-Weidig-Stadt","type":"Stadt"},"district":{"key":"06440","name":"Wetteraukreis","type":"Landkreis"},"federalState":{"key":"06","name":"Hessen"}},{"name":"Grabenstr.","postalCode":"35510","locality":"Butzbach","municipality":{"key":"06440005","name":"Butzbach, Friedrich-Ludwig-Weidig-Stadt","type":"Stadt"},"district":{"key":"06440","name":"Wetteraukreis","type":"Landkreis"},"federalState":{"key":"06","name":"Hessen"}},{"name":"Grenzschneise","postalCode":"35510","locality":"Butzbach","municipality":{"key":"06440005","name":"Butzbach, Friedrich-Ludwig-Weidig-Stadt","type":"Stadt"},"district":{"key":"06440","name":"Wetteraukreis","type":"Landkreis"},"federalState":{"key":"06","name":"Hessen"}},{"name":"Grenzweg","postalCode":"35510","locality":"Butzbach","municipality":{"key":"06440005","name":"Butzbach, Friedrich-Ludwig-Weidig-Stadt","type":"Stadt"},"district":{"key":"06440","name":"Wetteraukreis","type":"Landkreis"},"federalState":{"key":"06","name":"Hessen"}},{"name":"Griedeler Str.","postalCode":"35510","locality":"Butzbach","municipality":{"key":"06440005","name":"Butzbach, Friedrich-Ludwig-Weidig-Stadt","type":"Stadt"},"district":{"key":"06440","name":"Wetteraukreis","type":"Landkreis"},"federalState":{"key":"06","name":"Hessen"}},{"name":"Große Hintergasse","postalCode":"35510","locality":"Butzbach","municipality":{"key":"06440005","name":"Butzbach, Friedrich-Ludwig-Weidig-Stadt","type":"Stadt"},"district":{"key":"06440","name":"Wetteraukreis","type":"Landkreis"},"federalState":{"key":"06","name":"Hessen"}},{"name":"Große Jahnstr.","postalCode":"35510","locality":"Butzbach","municipality":{"key":"06440005","name":"Butzbach, Friedrich-Ludwig-Weidig-Stadt","type":"Stadt"},"district":{"key":"06440","name":"Wetteraukreis","type":"Landkreis"},"federalState":{"key":"06","name":"Hessen"}},{"name":"Große Wendelstr.","postalCode":"35510","locality":"Butzbach","municipality":{"key":"06440005","name":"Butzbach, Friedrich-Ludwig-Weidig-Stadt","type":"Stadt"},"district":{"key":"06440","name":"Wetteraukreis","type":"Landkreis"},"federalState":{"key":"06","name":"Hessen"}},{"name":"Grüner Weg","postalCode":"35510","locality":"Butzbach","municipality":{"key":"06440005","name":"Butzbach, Friedrich-Ludwig-Weidig-Stadt","type":"Stadt"},"district":{"key":"06440","name":"Wetteraukreis","type":"Landkreis"},"federalState":{"key":"06","name":"Hessen"}},{"name":"Guldengasse","postalCode":"35510","locality":"Butzbach","municipality":{"key":"06440005","name":"Butzbach, Friedrich-Ludwig-Weidig-Stadt","type":"Stadt"},"district":{"key":"06440","name":"Wetteraukreis","type":"Landkreis"},"federalState":{"key":"06","name":"Hessen"}},{"name":"Gutenbergstr.","postalCode":"35510","locality":"Butzbach","municipality":{"key":"06440005","name":"Butzbach, Friedrich-Ludwig-Weidig-Stadt","type":"Stadt"},"district":{"key":"06440","name":"Wetteraukreis","type":"Landkreis"},"federalState":{"key":"06","name":"Hessen"}},{"name":"Hammersweg","postalCode":"35510","locality":"Butzbach","municipality":{"key":"06440005","name":"Butzbach, Friedrich-Ludwig-Weidig-Stadt","type":"Stadt"},"district":{"key":"06440","name":"Wetteraukreis","type":"Landkreis"},"federalState":{"key":"06","name":"Hessen"}},{"name":"Händelweg","postalCode":"35510","locality":"Butzbach","municipality":{"key":"06440005","name":"Butzbach, Friedrich-Ludwig-Weidig-Stadt","type":"Stadt"},"district":{"key":"06440","name":"Wetteraukreis","type":"Landkreis"},"federalState":{"key":"06","name":"Hessen"}},{"name":"Harbachstr.","postalCode":"35510","locality":"Butzbach","municipality":{"key":"06440005","name":"Butzbach, Friedrich-Ludwig-Weidig-Stadt","type":"Stadt"},"district":{"key":"06440","name":"Wetteraukreis","type":"Landkreis"},"federalState":{"key":"06","name":"Hessen"}},{"name":"Hassiastr.","postalCode":"35510","locality":"Butzbach","municipality":{"key":"06440005","name":"Butzbach, Friedrich-Ludwig-Weidig-Stadt","type":"Stadt"},"district":{"key":"06440","name":"Wetteraukreis","type":"Landkreis"},"federalState":{"key":"06","name":"Hessen"}},{"name":"Hauptschneise","postalCode":"35510","locality":"Butzbach","municipality":{"key":"06440005","name":"Butzbach, Friedrich-Ludwig-Weidig-Stadt","type":"Stadt"},"district":{"key":"06440","name":"Wetteraukreis","type":"Landkreis"},"federalState":{"key":"06","name":"Hessen"}},{"name":"Hauptstr.","postalCode":"35510","locality":"Butzbach","municipality":{"key":"06440005","name":"Butzbach, Friedrich-Ludwig-Weidig-Stadt","type":"Stadt"},"district":{"key":"06440","name":"Wetteraukreis","type":"Landkreis"},"federalState":{"key":"06","name":"Hessen"}},{"name":"Hausbergstr.","postalCode":"35510","locality":"Butzbach","municipality":{"key":"06440005","name":"Butzbach, Friedrich-Ludwig-Weidig-Stadt","type":"Stadt"},"district":{"key":"06440","name":"Wetteraukreis","type":"Landkreis"},"federalState":{"key":"06","name":"Hessen"}},{"name":"Hausener Str.","postalCode":"35510","locality":"Butzbach","municipality":{"key":"06440005","name":"Butzbach, Friedrich-Ludwig-Weidig-Stadt","type":"Stadt"},"district":{"key":"06440","name":"Wetteraukreis","type":"Landkreis"},"federalState":{"key":"06","name":"Hessen"}},{"name":"Hausener Weg","postalCode":"35510","locality":"Butzbach","municipality":{"key":"06440005","name":"Butzbach, Friedrich-Ludwig-Weidig-Stadt","type":"Stadt"},"district":{"key":"06440","name":"Wetteraukreis","type":"Landkreis"},"federalState":{"key":"06","name":"Hessen"}},{"name":"Häuser Chaussee","postalCode":"35510","locality":"Butzbach","municipality":{"key":"06440005","name":"Butzbach, Friedrich-Ludwig-Weidig-Stadt","type":"Stadt"},"district":{"key":"06440","name":"Wetteraukreis","type":"Landkreis"},"federalState":{"key":"06","name":"Hessen"}},{"name":"Haydnstr.","postalCode":"35510","locality":"Butzbach","municipality":{"key":"06440005","name":"Butzbach, Friedrich-Ludwig-Weidig-Stadt","type":"Stadt"},"district":{"key":"06440","name":"Wetteraukreis","type":"Landkreis"},"federalState":{"key":"06","name":"Hessen"}},{"name":"Heidelbeerbergschneise","postalCode":"35510","locality":"Butzbach","municipality":{"key":"06440005","name":"Butzbach, Friedrich-Ludwig-Weidig-Stadt","type":"Stadt"},"district":{"key":"06440","name":"Wetteraukreis","type":"Landkreis"},"federalState":{"key":"06","name":"Hessen"}},{"name":"Heidelberg-Schneise","postalCode":"35510","locality":"Butzbach","municipality":{"key":"06440005","name":"Butzbach, Friedrich-Ludwig-Weidig-Stadt","type":"Stadt"},"district":{"key":"06440","name":"Wetteraukreis","type":"Landkreis"},"federalState":{"key":"06","name":"Hessen"}},{"name":"Heidschneise","postalCode":"35510","locality":"Butzbach","municipality":{"key":"06440005","name":"Butzbach, Friedrich-Ludwig-Weidig-Stadt","type":"Stadt"},"district":{"key":"06440","name":"Wetteraukreis","type":"Landkreis"},"federalState":{"key":"06","name":"Hessen"}},{"name":"Heinrich-Schneider-Siedlung","postalCode":"35510","locality":"Butzbach","municipality":{"key":"06440005","name":"Butzbach, Friedrich-Ludwig-Weidig-Stadt","type":"Stadt"},"district":{"key":"06440","name":"Wetteraukreis","type":"Landkreis"},"federalState":{"key":"06","name":"Hessen"}},{"name":"Herderstr.","postalCode":"35510","locality":"Butzbach","municipality":{"key":"06440005","name":"Butzbach, Friedrich-Ludwig-Weidig-Stadt","type":"Stadt"},"district":{"key":"06440","name":"Wetteraukreis","type":"Landkreis"},"federalState":{"key":"06","name":"Hessen"}},{"name":"Hermann-Jäger-Str.","postalCode":"35510","locality":"Butzbach","municipality":{"key":"06440005","name":"Butzbach, Friedrich-Ludwig-Weidig-Stadt","type":"Stadt"},"district":{"key":"06440","name":"Wetteraukreis","type":"Landkreis"},"federalState":{"key":"06","name":"Hessen"}},{"name":"Hermann-Löns-Str.","postalCode":"35510","locality":"Butzbach","municipality":{"key":"06440005","name":"Butzbach, Friedrich-Ludwig-Weidig-Stadt","type":"Stadt"},"district":{"key":"06440","name":"Wetteraukreis","type":"Landkreis"},"federalState":{"key":"06","name":"Hessen"}},{"name":"Hesselweg","postalCode":"35510","locality":"Butzbach","municipality":{"key":"06440005","name":"Butzbach, Friedrich-Ludwig-Weidig-Stadt","type":"Stadt"},"district":{"key":"06440","name":"Wetteraukreis","type":"Landkreis"},"federalState":{"key":"06","name":"Hessen"}},{"name":"Himmrichsweg","postalCode":"35510","locality":"Butzbach","municipality":{"key":"06440005","name":"Butzbach, Friedrich-Ludwig-Weidig-Stadt","type":"Stadt"},"district":{"key":"06440","name":"Wetteraukreis","type":"Landkreis"},"federalState":{"key":"06","name":"Hessen"}},{"name":"Hinter der Burg","postalCode":"35510","locality":"Butzbach","municipality":{"key":"06440005","name":"Butzbach, Friedrich-Ludwig-Weidig-Stadt","type":"Stadt"},"district":{"key":"06440","name":"Wetteraukreis","type":"Landkreis"},"federalState":{"key":"06","name":"Hessen"}},{"name":"Hinter der Kirche","postalCode":"35510","locality":"Butzbach","municipality":{"key":"06440005","name":"Butzbach, Friedrich-Ludwig-Weidig-Stadt","type":"Stadt"},"district":{"key":"06440","name":"Wetteraukreis","type":"Landkreis"},"federalState":{"key":"06","name":"Hessen"}},{"name":"Hinter der Linde","postalCode":"35510","locality":"Butzbach","municipality":{"key":"06440005","name":"Butzbach, Friedrich-Ludwig-Weidig-Stadt","type":"Stadt"},"district":{"key":"06440","name":"Wetteraukreis","type":"Landkreis"},"federalState":{"key":"06","name":"Hessen"}},{"name":"Hintergasse","postalCode":"35510","locality":"Butzbach","municipality":{"key":"06440005","name":"Butzbach, Friedrich-Ludwig-Weidig-Stadt","type":"Stadt"},"district":{"key":"06440","name":"Wetteraukreis","type":"Landkreis"},"federalState":{"key":"06","name":"Hessen"}},{"name":"Hirschgasse","postalCode":"35510","locality":"Butzbach","municipality":{"key":"06440005","name":"Butzbach, Friedrich-Ludwig-Weidig-Stadt","type":"Stadt"},"district":{"key":"06440","name":"Wetteraukreis","type":"Landkreis"},"federalState":{"key":"06","name":"Hessen"}},{"name":"Hochstr.","postalCode":"35510","locality":"Butzbach","municipality":{"key":"06440005","name":"Butzbach, Friedrich-Ludwig-Weidig-Stadt","type":"Stadt"},"district":{"key":"06440","name":"Wetteraukreis","type":"Landkreis"},"federalState":{"key":"06","name":"Hessen"}},{"name":"Hoch-Weiseler Str.","postalCode":"35510","locality":"Butzbach","municipality":{"key":"06440005","name":"Butzbach, Friedrich-Ludwig-Weidig-Stadt","type":"Stadt"},"district":{"key":"06440","name":"Wetteraukreis","type":"Landkreis"},"federalState":{"key":"06","name":"Hessen"}},{"name":"Hoch-Weiseler Weg","postalCode":"35510","locality":"Butzbach","municipality":{"key":"06440005","name":"Butzbach, Friedrich-Ludwig-Weidig-Stadt","type":"Stadt"},"district":{"key":"06440","name":"Wetteraukreis","type":"Landkreis"},"federalState":{"key":"06","name":"Hessen"}},{"name":"Hoffmannsweg","postalCode":"35510","locality":"Butzbach","municipality":{"key":"06440005","name":"Butzbach, Friedrich-Ludwig-Weidig-Stadt","type":"Stadt"},"district":{"key":"06440","name":"Wetteraukreis","type":"Landkreis"},"federalState":{"key":"06","name":"Hessen"}},{"name":"Höhenweg","postalCode":"35510","locality":"Butzbach","municipality":{"key":"06440005","name":"Butzbach, Friedrich-Ludwig-Weidig-Stadt","type":"Stadt"},"district":{"key":"06440","name":"Wetteraukreis","type":"Landkreis"},"federalState":{"key":"06","name":"Hessen"}},{"name":"Hohe Weg","postalCode":"35510","locality":"Butzbach","municipality":{"key":"06440005","name":"Butzbach, Friedrich-Ludwig-Weidig-Stadt","type":"Stadt"},"district":{"key":"06440","name":"Wetteraukreis","type":"Landkreis"},"federalState":{"key":"06","name":"Hessen"}},{"name":"Hohlstr.","postalCode":"35510","locality":"Butzbach","municipality":{"key":"06440005","name":"Butzbach, Friedrich-Ludwig-Weidig-Stadt","type":"Stadt"},"district":{"key":"06440","name":"Wetteraukreis","type":"Landkreis"},"federalState":{"key":"06","name":"Hessen"}},{"name":"Holunderweg","postalCode":"35510","locality":"Butzbach","municipality":{"key":"06440005","name":"Butzbach, Friedrich-Ludwig-Weidig-Stadt","type":"Stadt"},"district":{"key":"06440","name":"Wetteraukreis","type":"Landkreis"},"federalState":{"key":"06","name":"Hessen"}},{"name":"Holzheimer Pfad","postalCode":"35510","locality":"Butzbach","municipality":{"key":"06440005","name":"Butzbach, Friedrich-Ludwig-Weidig-Stadt","type":"Stadt"},"district":{"key":"06440","name":"Wetteraukreis","type":"Landkreis"},"federalState":{"key":"06","name":"Hessen"}},{"name":"Holzheimer Str.","postalCode":"35510","locality":"Butzbach","municipality":{"key":"06440005","name":"Butzbach, Friedrich-Ludwig-Weidig-Stadt","type":"Stadt"},"district":{"key":"06440","name":"Wetteraukreis","type":"Landkreis"},"federalState":{"key":"06","name":"Hessen"}},{"name":"Holzheimer Weg","postalCode":"35510","locality":"Butzbach","municipality":{"key":"06440005","name":"Butzbach, Friedrich-Ludwig-Weidig-Stadt","type":"Stadt"},"district":{"key":"06440","name":"Wetteraukreis","type":"Landkreis"},"federalState":{"key":"06","name":"Hessen"}},{"name":"Hoyergasse","postalCode":"35510","locality":"Butzbach","municipality":{"key":"06440005","name":"Butzbach, Friedrich-Ludwig-Weidig-Stadt","type":"Stadt"},"district":{"key":"06440","name":"Wetteraukreis","type":"Landkreis"},"federalState":{"key":"06","name":"Hessen"}},{"name":"Hubertus-Pfad","postalCode":"35510","locality":"Butzbach","municipality":{"key":"06440005","name":"Butzbach, Friedrich-Ludwig-Weidig-Stadt","type":"Stadt"},"district":{"key":"06440","name":"Wetteraukreis","type":"Landkreis"},"federalState":{"key":"06","name":"Hessen"}},{"name":"Humboldtstr.","postalCode":"35510","locality":"Butzbach","municipality":{"key":"06440005","name":"Butzbach, Friedrich-Ludwig-Weidig-Stadt","type":"Stadt"},"district":{"key":"06440","name":"Wetteraukreis","type":"Landkreis"},"federalState":{"key":"06","name":"Hessen"}},{"name":"Hunnenburgweg","postalCode":"35510","locality":"Butzbach","municipality":{"key":"06440005","name":"Butzbach, Friedrich-Ludwig-Weidig-Stadt","type":"Stadt"},"district":{"key":"06440","name":"Wetteraukreis","type":"Landkreis"},"federalState":{"key":"06","name":"Hessen"}},{"name":"Hüttenberger Str.","postalCode":"35510","locality":"Butzbach","municipality":{"key":"06440005","name":"Butzbach, Friedrich-Ludwig-Weidig-Stadt","type":"Stadt"},"district":{"key":"06440","name":"Wetteraukreis","type":"Landkreis"},"federalState":{"key":"06","name":"Hessen"}},{"name":"Im Alten Dorf","postalCode":"35510","locality":"Butzbach","municipality":{"key":"06440005","name":"Butzbach, Friedrich-Ludwig-Weidig-Stadt","type":"Stadt"},"district":{"key":"06440","name":"Wetteraukreis","type":"Landkreis"},"federalState":{"key":"06","name":"Hessen"}},{"name":"Im Berghof","postalCode":"35510","locality":"Butzbach","municipality":{"key":"06440005","name":"Butzbach, Friedrich-Ludwig-Weidig-Stadt","type":"Stadt"},"district":{"key":"06440","name":"Wetteraukreis","type":"Landkreis"},"federalState":{"key":"06","name":"Hessen"}},{"name":"Im Briel","postalCode":"35510","locality":"Butzbach","municipality":{"key":"06440005","name":"Butzbach, Friedrich-Ludwig-Weidig-Stadt","type":"Stadt"},"district":{"key":"06440","name":"Wetteraukreis","type":"Landkreis"},"federalState":{"key":"06","name":"Hessen"}},{"name":"Im Erlengrund","postalCode":"35510","locality":"Butzbach","municipality":{"key":"06440005","name":"Butzbach, Friedrich-Ludwig-Weidig-Stadt","type":"Stadt"},"district":{"key":"06440","name":"Wetteraukreis","type":"Landkreis"},"federalState":{"key":"06","name":"Hessen"}},{"name":"Im Grund","postalCode":"35510","locality":"Butzbach","municipality":{"key":"06440005","name":"Butzbach, Friedrich-Ludwig-Weidig-Stadt","type":"Stadt"},"district":{"key":"06440","name":"Wetteraukreis","type":"Landkreis"},"federalState":{"key":"06","name":"Hessen"}},{"name":"Im kleinen Brühl","postalCode":"35510","locality":"Butzbach","municipality":{"key":"06440005","name":"Butzbach, Friedrich-Ludwig-Weidig-Stadt","type":"Stadt"},"district":{"key":"06440","name":"Wetteraukreis","type":"Landkreis"},"federalState":{"key":"06","name":"Hessen"}},{"name":"Im Stiegelfeld","postalCode":"35510","locality":"Butzbach","municipality":{"key":"06440005","name":"Butzbach, Friedrich-Ludwig-Weidig-Stadt","type":"Stadt"},"district":{"key":"06440","name":"Wetteraukreis","type":"Landkreis"},"federalState":{"key":"06","name":"Hessen"}},{"name":"Im Vogelsang","postalCode":"35510","locality":"Butzbach","municipality":{"key":"06440005","name":"Butzbach, Friedrich-Ludwig-Weidig-Stadt","type":"Stadt"},"district":{"key":"06440","name":"Wetteraukreis","type":"Landkreis"},"federalState":{"key":"06","name":"Hessen"}},{"name":"Im Völlchen","postalCode":"35510","locality":"Butzbach","municipality":{"key":"06440005","name":"Butzbach, Friedrich-Ludwig-Weidig-Stadt","type":"Stadt"},"district":{"key":"06440","name":"Wetteraukreis","type":"Landkreis"},"federalState":{"key":"06","name":"Hessen"}},{"name":"Im Weichenrod","postalCode":"35510","locality":"Butzbach","municipality":{"key":"06440005","name":"Butzbach, Friedrich-Ludwig-Weidig-Stadt","type":"Stadt"},"district":{"key":"06440","name":"Wetteraukreis","type":"Landkreis"},"federalState":{"key":"06","name":"Hessen"}},{"name":"Im Weidchensgarten","postalCode":"35510","locality":"Butzbach","municipality":{"key":"06440005","name":"Butzbach, Friedrich-Ludwig-Weidig-Stadt","type":"Stadt"},"district":{"key":"06440","name":"Wetteraukreis","type":"Landkreis"},"federalState":{"key":"06","name":"Hessen"}},{"name":"In den Biengärten","postalCode":"35510","locality":"Butzbach","municipality":{"key":"06440005","name":"Butzbach, Friedrich-Ludwig-Weidig-Stadt","type":"Stadt"},"district":{"key":"06440","name":"Wetteraukreis","type":"Landkreis"},"federalState":{"key":"06","name":"Hessen"}},{"name":"In den Bodenäckern","postalCode":"35510","locality":"Butzbach","municipality":{"key":"06440005","name":"Butzbach, Friedrich-Ludwig-Weidig-Stadt","type":"Stadt"},"district":{"key":"06440","name":"Wetteraukreis","type":"Landkreis"},"federalState":{"key":"06","name":"Hessen"}},{"name":"In den Döngesgärten","postalCode":"35510","locality":"Butzbach","municipality":{"key":"06440005","name":"Butzbach, Friedrich-Ludwig-Weidig-Stadt","type":"Stadt"},"district":{"key":"06440","name":"Wetteraukreis","type":"Landkreis"},"federalState":{"key":"06","name":"Hessen"}},{"name":"In den Herrengärten","postalCode":"35510","locality":"Butzbach","municipality":{"key":"06440005","name":"Butzbach, Friedrich-Ludwig-Weidig-Stadt","type":"Stadt"},"district":{"key":"06440","name":"Wetteraukreis","type":"Landkreis"},"federalState":{"key":"06","name":"Hessen"}},{"name":"In den Urwiesen","postalCode":"35510","locality":"Butzbach","municipality":{"key":"06440005","name":"Butzbach, Friedrich-Ludwig-Weidig-Stadt","type":"Stadt"},"district":{"key":"06440","name":"Wetteraukreis","type":"Landkreis"},"federalState":{"key":"06","name":"Hessen"}},{"name":"In der Alböhn","postalCode":"35510","locality":"Butzbach","municipality":{"key":"06440005","name":"Butzbach, Friedrich-Ludwig-Weidig-Stadt","type":"Stadt"},"district":{"key":"06440","name":"Wetteraukreis","type":"Landkreis"},"federalState":{"key":"06","name":"Hessen"}},{"name":"In der Dall","postalCode":"35510","locality":"Butzbach","municipality":{"key":"06440005","name":"Butzbach, Friedrich-Ludwig-Weidig-Stadt","type":"Stadt"},"district":{"key":"06440","name":"Wetteraukreis","type":"Landkreis"},"federalState":{"key":"06","name":"Hessen"}},{"name":"In der Schmalbach","postalCode":"35510","locality":"Butzbach","municipality":{"key":"06440005","name":"Butzbach, Friedrich-Ludwig-Weidig-Stadt","type":"Stadt"},"district":{"key":"06440","name":"Wetteraukreis","type":"Landkreis"},"federalState":{"key":"06","name":"Hessen"}},{"name":"In der Wolfskaute","postalCode":"35510","locality":"Butzbach","municipality":{"key":"06440005","name":"Butzbach, Friedrich-Ludwig-Weidig-Stadt","type":"Stadt"},"district":{"key":"06440","name":"Wetteraukreis","type":"Landkreis"},"federalState":{"key":"06","name":"Hessen"}},{"name":"Innerstädtische Erholungszone","postalCode":"35510","locality":"Butzbach","municipality":{"key":"06440005","name":"Butzbach, Friedrich-Ludwig-Weidig-Stadt","type":"Stadt"},"district":{"key":"06440","name":"Wetteraukreis","type":"Landkreis"},"federalState":{"key":"06","name":"Hessen"}},{"name":"Isarweg","postalCode":"35510","locality":"Butzbach","municipality":{"key":"06440005","name":"Butzbach, Friedrich-Ludwig-Weidig-Stadt","type":"Stadt"},"district":{"key":"06440","name":"Wetteraukreis","type":"Landkreis"},"federalState":{"key":"06","name":"Hessen"}},{"name":"Isselbachgasse","postalCode":"35510","locality":"Butzbach","municipality":{"key":"06440005","name":"Butzbach, Friedrich-Ludwig-Weidig-Stadt","type":"Stadt"},"district":{"key":"06440","name":"Wetteraukreis","type":"Landkreis"},"federalState":{"key":"06","name":"Hessen"}},{"name":"Jacob-Wilhelm-Küchel-Str.","postalCode":"35510","locality":"Butzbach","municipality":{"key":"06440005","name":"Butzbach, Friedrich-Ludwig-Weidig-Stadt","type":"Stadt"},"district":{"key":"06440","name":"Wetteraukreis","type":"Landkreis"},"federalState":{"key":"06","name":"Hessen"}},{"name":"Jahnstr.","postalCode":"35510","locality":"Butzbach","municipality":{"key":"06440005","name":"Butzbach, Friedrich-Ludwig-Weidig-Stadt","type":"Stadt"},"district":{"key":"06440","name":"Wetteraukreis","type":"Landkreis"},"federalState":{"key":"06","name":"Hessen"}},{"name":"Jakob-Rumpf-Str.","postalCode":"35510","locality":"Butzbach","municipality":{"key":"06440005","name":"Butzbach, Friedrich-Ludwig-Weidig-Stadt","type":"Stadt"},"district":{"key":"06440","name":"Wetteraukreis","type":"Landkreis"},"federalState":{"key":"06","name":"Hessen"}},{"name":"Johanniterstr.","postalCode":"35510","locality":"Butzbach","municipality":{"key":"06440005","name":"Butzbach, Friedrich-Ludwig-Weidig-Stadt","type":"Stadt"},"district":{"key":"06440","name":"Wetteraukreis","type":"Landkreis"},"federalState":{"key":"06","name":"Hessen"}},{"name":"Johann-Sebastian-Bach-Str.","postalCode":"35510","locality":"Butzbach","municipality":{"key":"06440005","name":"Butzbach, Friedrich-Ludwig-Weidig-Stadt","type":"Stadt"},"district":{"key":"06440","name":"Wetteraukreis","type":"Landkreis"},"federalState":{"key":"06","name":"Hessen"}},{"name":"John-F.-Kennedy-Str.","postalCode":"35510","locality":"Butzbach","municipality":{"key":"06440005","name":"Butzbach, Friedrich-Ludwig-Weidig-Stadt","type":"Stadt"},"district":{"key":"06440","name":"Wetteraukreis","type":"Landkreis"},"federalState":{"key":"06","name":"Hessen"}},{"name":"Josef-Singer-Weg","postalCode":"35510","locality":"Butzbach","municipality":{"key":"06440005","name":"Butzbach, Friedrich-Ludwig-Weidig-Stadt","type":"Stadt"},"district":{"key":"06440","name":"Wetteraukreis","type":"Landkreis"},"federalState":{"key":"06","name":"Hessen"}},{"name":"Joststr.","postalCode":"35510","locality":"Butzbach","municipality":{"key":"06440005","name":"Butzbach, Friedrich-Ludwig-Weidig-Stadt","type":"Stadt"},"district":{"key":"06440","name":"Wetteraukreis","type":"Landkreis"},"federalState":{"key":"06","name":"Hessen"}},{"name":"Jungs-Schneise","postalCode":"35510","locality":"Butzbach","municipality":{"key":"06440005","name":"Butzbach, Friedrich-Ludwig-Weidig-Stadt","type":"Stadt"},"district":{"key":"06440","name":"Wetteraukreis","type":"Landkreis"},"federalState":{"key":"06","name":"Hessen"}},{"name":"Kaiserstr.","postalCode":"35510","locality":"Butzbach","municipality":{"key":"06440005","name":"Butzbach, Friedrich-Ludwig-Weidig-Stadt","type":"Stadt"},"district":{"key":"06440","name":"Wetteraukreis","type":"Landkreis"},"federalState":{"key":"06","name":"Hessen"}},{"name":"Kantstr.","postalCode":"35510","locality":"Butzbach","municipality":{"key":"06440005","name":"Butzbach, Friedrich-Ludwig-Weidig-Stadt","type":"Stadt"},"district":{"key":"06440","name":"Wetteraukreis","type":"Landkreis"},"federalState":{"key":"06","name":"Hessen"}},{"name":"Kasernenstr.","postalCode":"35510","locality":"Butzbach","municipality":{"key":"06440005","name":"Butzbach, Friedrich-Ludwig-Weidig-Stadt","type":"Stadt"},"district":{"key":"06440","name":"Wetteraukreis","type":"Landkreis"},"federalState":{"key":"06","name":"Hessen"}},{"name":"Kastanienweg","postalCode":"35510","locality":"Butzbach","municipality":{"key":"06440005","name":"Butzbach, Friedrich-Ludwig-Weidig-Stadt","type":"Stadt"},"district":{"key":"06440","name":"Wetteraukreis","type":"Landkreis"},"federalState":{"key":"06","name":"Hessen"}},{"name":"Keltenstr.","postalCode":"35510","locality":"Butzbach","municipality":{"key":"06440005","name":"Butzbach, Friedrich-Ludwig-Weidig-Stadt","type":"Stadt"},"district":{"key":"06440","name":"Wetteraukreis","type":"Landkreis"},"federalState":{"key":"06","name":"Hessen"}},{"name":"Keltenweg","postalCode":"35510","locality":"Butzbach","municipality":{"key":"06440005","name":"Butzbach, Friedrich-Ludwig-Weidig-Stadt","type":"Stadt"},"district":{"key":"06440","name":"Wetteraukreis","type":"Landkreis"},"federalState":{"key":"06","name":"Hessen"}},{"name":"Keplerstr.","postalCode":"35510","locality":"Butzbach","municipality":{"key":"06440005","name":"Butzbach, Friedrich-Ludwig-Weidig-Stadt","type":"Stadt"},"district":{"key":"06440","name":"Wetteraukreis","type":"Landkreis"},"federalState":{"key":"06","name":"Hessen"}},{"name":"Kiefernweg","postalCode":"35510","locality":"Butzbach","municipality":{"key":"06440005","name":"Butzbach, Friedrich-Ludwig-Weidig-Stadt","type":"Stadt"},"district":{"key":"06440","name":"Wetteraukreis","type":"Landkreis"},"federalState":{"key":"06","name":"Hessen"}},{"name":"Kirchgarten Butzbach","postalCode":"35510","locality":"Butzbach","municipality":{"key":"06440005","name":"Butzbach, Friedrich-Ludwig-Weidig-Stadt","type":"Stadt"},"district":{"key":"06440","name":"Wetteraukreis","type":"Landkreis"},"federalState":{"key":"06","name":"Hessen"}},{"name":"Kirchgasse","postalCode":"35510","locality":"Butzbach","municipality":{"key":"06440005","name":"Butzbach, Friedrich-Ludwig-Weidig-Stadt","type":"Stadt"},"district":{"key":"06440","name":"Wetteraukreis","type":"Landkreis"},"federalState":{"key":"06","name":"Hessen"}},{"name":"Kirchgönser Str.","postalCode":"35510","locality":"Butzbach","municipality":{"key":"06440005","name":"Butzbach, Friedrich-Ludwig-Weidig-Stadt","type":"Stadt"},"district":{"key":"06440","name":"Wetteraukreis","type":"Landkreis"},"federalState":{"key":"06","name":"Hessen"}},{"name":"Kirchplatz","postalCode":"35510","locality":"Butzbach","municipality":{"key":"06440005","name":"Butzbach, Friedrich-Ludwig-Weidig-Stadt","type":"Stadt"},"district":{"key":"06440","name":"Wetteraukreis","type":"Landkreis"},"federalState":{"key":"06","name":"Hessen"}},{"name":"Kirchweg","postalCode":"35510","locality":"Butzbach","municipality":{"key":"06440005","name":"Butzbach, Friedrich-Ludwig-Weidig-Stadt","type":"Stadt"},"district":{"key":"06440","name":"Wetteraukreis","type":"Landkreis"},"federalState":{"key":"06","name":"Hessen"}},{"name":"Kirschenweg","postalCode":"35510","locality":"Butzbach","municipality":{"key":"06440005","name":"Butzbach, Friedrich-Ludwig-Weidig-Stadt","type":"Stadt"},"district":{"key":"06440","name":"Wetteraukreis","type":"Landkreis"},"federalState":{"key":"06","name":"Hessen"}},{"name":"Kleeberger Str.","postalCode":"35510","locality":"Butzbach","municipality":{"key":"06440005","name":"Butzbach, Friedrich-Ludwig-Weidig-Stadt","type":"Stadt"},"district":{"key":"06440","name":"Wetteraukreis","type":"Landkreis"},"federalState":{"key":"06","name":"Hessen"}},{"name":"Kleinbachstr.","postalCode":"35510","locality":"Butzbach","municipality":{"key":"06440005","name":"Butzbach, Friedrich-Ludwig-Weidig-Stadt","type":"Stadt"},"district":{"key":"06440","name":"Wetteraukreis","type":"Landkreis"},"federalState":{"key":"06","name":"Hessen"}},{"name":"Kleine Hintergasse","postalCode":"35510","locality":"Butzbach","municipality":{"key":"06440005","name":"Butzbach, Friedrich-Ludwig-Weidig-Stadt","type":"Stadt"},"district":{"key":"06440","name":"Wetteraukreis","type":"Landkreis"},"federalState":{"key":"06","name":"Hessen"}},{"name":"Kleine Jahnstr.","postalCode":"35510","locality":"Butzbach","municipality":{"key":"06440005","name":"Butzbach, Friedrich-Ludwig-Weidig-Stadt","type":"Stadt"},"district":{"key":"06440","name":"Wetteraukreis","type":"Landkreis"},"federalState":{"key":"06","name":"Hessen"}},{"name":"Kleine Kirchgasse","postalCode":"35510","locality":"Butzbach","municipality":{"key":"06440005","name":"Butzbach, Friedrich-Ludwig-Weidig-Stadt","type":"Stadt"},"district":{"key":"06440","name":"Wetteraukreis","type":"Landkreis"},"federalState":{"key":"06","name":"Hessen"}},{"name":"Kleine Neugasse","postalCode":"35510","locality":"Butzbach","municipality":{"key":"06440005","name":"Butzbach, Friedrich-Ludwig-Weidig-Stadt","type":"Stadt"},"district":{"key":"06440","name":"Wetteraukreis","type":"Landkreis"},"federalState":{"key":"06","name":"Hessen"}},{"name":"Kleine Solmser Str.","postalCode":"35510","locality":"Butzbach","municipality":{"key":"06440005","name":"Butzbach, Friedrich-Ludwig-Weidig-Stadt","type":"Stadt"},"district":{"key":"06440","name":"Wetteraukreis","type":"Landkreis"},"federalState":{"key":"06","name":"Hessen"}},{"name":"Königsberger Str.","postalCode":"35510","locality":"Butzbach","municipality":{"key":"06440005","name":"Butzbach, Friedrich-Ludwig-Weidig-Stadt","type":"Stadt"},"district":{"key":"06440","name":"Wetteraukreis","type":"Landkreis"},"federalState":{"key":"06","name":"Hessen"}},{"name":"Königsteiner Str.","postalCode":"35510","locality":"Butzbach","municipality":{"key":"06440005","name":"Butzbach, Friedrich-Ludwig-Weidig-Stadt","type":"Stadt"},"district":{"key":"06440","name":"Wetteraukreis","type":"Landkreis"},"federalState":{"key":"06","name":"Hessen"}},{"name":"Köppelbrunnenschneise","postalCode":"35510","locality":"Butzbach","municipality":{"key":"06440005","name":"Butzbach, Friedrich-Ludwig-Weidig-Stadt","type":"Stadt"},"district":{"key":"06440","name":"Wetteraukreis","type":"Landkreis"},"federalState":{"key":"06","name":"Hessen"}},{"name":"Korngasse","postalCode":"35510","locality":"Butzbach","municipality":{"key":"06440005","name":"Butzbach, Friedrich-Ludwig-Weidig-Stadt","type":"Stadt"},"district":{"key":"06440","name":"Wetteraukreis","type":"Landkreis"},"federalState":{"key":"06","name":"Hessen"}},{"name":"Krachbaumgasse","postalCode":"35510","locality":"Butzbach","municipality":{"key":"06440005","name":"Butzbach, Friedrich-Ludwig-Weidig-Stadt","type":"Stadt"},"district":{"key":"06440","name":"Wetteraukreis","type":"Landkreis"},"federalState":{"key":"06","name":"Hessen"}},{"name":"Küchengartenweg","postalCode":"35510","locality":"Butzbach","municipality":{"key":"06440005","name":"Butzbach, Friedrich-Ludwig-Weidig-Stadt","type":"Stadt"},"district":{"key":"06440","name":"Wetteraukreis","type":"Landkreis"},"federalState":{"key":"06","name":"Hessen"}},{"name":"Kugelherrenstr.","postalCode":"35510","locality":"Butzbach","municipality":{"key":"06440005","name":"Butzbach, Friedrich-Ludwig-Weidig-Stadt","type":"Stadt"},"district":{"key":"06440","name":"Wetteraukreis","type":"Landkreis"},"federalState":{"key":"06","name":"Hessen"}},{"name":"Kuhhohlweg","postalCode":"35510","locality":"Butzbach","municipality":{"key":"06440005","name":"Butzbach, Friedrich-Ludwig-Weidig-Stadt","type":"Stadt"},"district":{"key":"06440","name":"Wetteraukreis","type":"Landkreis"},"federalState":{"key":"06","name":"Hessen"}},{"name":"L3353","postalCode":"35510","locality":"Butzbach","municipality":{"key":"06440005","name":"Butzbach, Friedrich-Ludwig-Weidig-Stadt","type":"Stadt"},"district":{"key":"06440","name":"Wetteraukreis","type":"Landkreis"},"federalState":{"key":"06","name":"Hessen"}},{"name":"Lachen-Schneise","postalCode":"35510","locality":"Butzbach","municipality":{"key":"06440005","name":"Butzbach, Friedrich-Ludwig-Weidig-Stadt","type":"Stadt"},"district":{"key":"06440","name":"Wetteraukreis","type":"Landkreis"},"federalState":{"key":"06","name":"Hessen"}},{"name":"Lahntorpark","postalCode":"35510","locality":"Butzbach","municipality":{"key":"06440005","name":"Butzbach, Friedrich-Ludwig-Weidig-Stadt","type":"Stadt"},"district":{"key":"06440","name":"Wetteraukreis","type":"Landkreis"},"federalState":{"key":"06","name":"Hessen"}},{"name":"Landgrafenweg","postalCode":"35510","locality":"Butzbach","municipality":{"key":"06440005","name":"Butzbach, Friedrich-Ludwig-Weidig-Stadt","type":"Stadt"},"district":{"key":"06440","name":"Wetteraukreis","type":"Landkreis"},"federalState":{"key":"06","name":"Hessen"}},{"name":"Landgraf-Philipp-Str.","postalCode":"35510","locality":"Butzbach","municipality":{"key":"06440005","name":"Butzbach, Friedrich-Ludwig-Weidig-Stadt","type":"Stadt"},"district":{"key":"06440","name":"Wetteraukreis","type":"Landkreis"},"federalState":{"key":"06","name":"Hessen"}},{"name":"Langenhainer Str.","postalCode":"35510","locality":"Butzbach","municipality":{"key":"06440005","name":"Butzbach, Friedrich-Ludwig-Weidig-Stadt","type":"Stadt"},"district":{"key":"06440","name":"Wetteraukreis","type":"Landkreis"},"federalState":{"key":"06","name":"Hessen"}},{"name":"Langenseifschneise","postalCode":"35510","locality":"Butzbach","municipality":{"key":"06440005","name":"Butzbach, Friedrich-Ludwig-Weidig-Stadt","type":"Stadt"},"district":{"key":"06440","name":"Wetteraukreis","type":"Landkreis"},"federalState":{"key":"06","name":"Hessen"}},{"name":"Lange Schneise","postalCode":"35510","locality":"Butzbach","municipality":{"key":"06440005","name":"Butzbach, Friedrich-Ludwig-Weidig-Stadt","type":"Stadt"},"district":{"key":"06440","name":"Wetteraukreis","type":"Landkreis"},"federalState":{"key":"06","name":"Hessen"}},{"name":"Langgasse","postalCode":"35510","locality":"Butzbach","municipality":{"key":"06440005","name":"Butzbach, Friedrich-Ludwig-Weidig-Stadt","type":"Stadt"},"district":{"key":"06440","name":"Wetteraukreis","type":"Landkreis"},"federalState":{"key":"06","name":"Hessen"}},{"name":"Langgönser Str.","postalCode":"35510","locality":"Butzbach","municipality":{"key":"06440005","name":"Butzbach, Friedrich-Ludwig-Weidig-Stadt","type":"Stadt"},"district":{"key":"06440","name":"Wetteraukreis","type":"Landkreis"},"federalState":{"key":"06","name":"Hessen"}},{"name":"Langscheide","postalCode":"35510","locality":"Butzbach","municipality":{"key":"06440005","name":"Butzbach, Friedrich-Ludwig-Weidig-Stadt","type":"Stadt"},"district":{"key":"06440","name":"Wetteraukreis","type":"Landkreis"},"federalState":{"key":"06","name":"Hessen"}},{"name":"Laubenkieferweg","postalCode":"35510","locality":"Butzbach","municipality":{"key":"06440005","name":"Butzbach, Friedrich-Ludwig-Weidig-Stadt","type":"Stadt"},"district":{"key":"06440","name":"Wetteraukreis","type":"Landkreis"},"federalState":{"key":"06","name":"Hessen"}},{"name":"Leipziger Str.","postalCode":"35510","locality":"Butzbach","municipality":{"key":"06440005","name":"Butzbach, Friedrich-Ludwig-Weidig-Stadt","type":"Stadt"},"district":{"key":"06440","name":"Wetteraukreis","type":"Landkreis"},"federalState":{"key":"06","name":"Hessen"}},{"name":"Liebigstr.","postalCode":"35510","locality":"Butzbach","municipality":{"key":"06440005","name":"Butzbach, Friedrich-Ludwig-Weidig-Stadt","type":"Stadt"},"district":{"key":"06440","name":"Wetteraukreis","type":"Landkreis"},"federalState":{"key":"06","name":"Hessen"}},{"name":"Limesstr.","postalCode":"35510","locality":"Butzbach","municipality":{"key":"06440005","name":"Butzbach, Friedrich-Ludwig-Weidig-Stadt","type":"Stadt"},"district":{"key":"06440","name":"Wetteraukreis","type":"Landkreis"},"federalState":{"key":"06","name":"Hessen"}},{"name":"Lindenbergstr.","postalCode":"35510","locality":"Butzbach","municipality":{"key":"06440005","name":"Butzbach, Friedrich-Ludwig-Weidig-Stadt","type":"Stadt"},"district":{"key":"06440","name":"Wetteraukreis","type":"Landkreis"},"federalState":{"key":"06","name":"Hessen"}},{"name":"Lindenweg","postalCode":"35510","locality":"Butzbach","municipality":{"key":"06440005","name":"Butzbach, Friedrich-Ludwig-Weidig-Stadt","type":"Stadt"},"district":{"key":"06440","name":"Wetteraukreis","type":"Landkreis"},"federalState":{"key":"06","name":"Hessen"}},{"name":"Lisztstr.","postalCode":"35510","locality":"Butzbach","municipality":{"key":"06440005","name":"Butzbach, Friedrich-Ludwig-Weidig-Stadt","type":"Stadt"},"district":{"key":"06440","name":"Wetteraukreis","type":"Landkreis"},"federalState":{"key":"06","name":"Hessen"}},{"name":"Ludwigstr.","postalCode":"35510","locality":"Butzbach","municipality":{"key":"06440005","name":"Butzbach, Friedrich-Ludwig-Weidig-Stadt","type":"Stadt"},"district":{"key":"06440","name":"Wetteraukreis","type":"Landkreis"},"federalState":{"key":"06","name":"Hessen"}},{"name":"Lustgarten","postalCode":"35510","locality":"Butzbach","municipality":{"key":"06440005","name":"Butzbach, Friedrich-Ludwig-Weidig-Stadt","type":"Stadt"},"district":{"key":"06440","name":"Wetteraukreis","type":"Landkreis"},"federalState":{"key":"06","name":"Hessen"}},{"name":"Maibacher Kirchweg","postalCode":"35510","locality":"Butzbach","municipality":{"key":"06440005","name":"Butzbach, Friedrich-Ludwig-Weidig-Stadt","type":"Stadt"},"district":{"key":"06440","name":"Wetteraukreis","type":"Landkreis"},"federalState":{"key":"06","name":"Hessen"}},{"name":"Maibacher Pfädchen","postalCode":"35510","locality":"Butzbach","municipality":{"key":"06440005","name":"Butzbach, Friedrich-Ludwig-Weidig-Stadt","type":"Stadt"},"district":{"key":"06440","name":"Wetteraukreis","type":"Landkreis"},"federalState":{"key":"06","name":"Hessen"}},{"name":"Maibacher Str.","postalCode":"35510","locality":"Butzbach","municipality":{"key":"06440005","name":"Butzbach, Friedrich-Ludwig-Weidig-Stadt","type":"Stadt"},"district":{"key":"06440","name":"Wetteraukreis","type":"Landkreis"},"federalState":{"key":"06","name":"Hessen"}},{"name":"Maibacher Weg","postalCode":"35510","locality":"Butzbach","municipality":{"key":"06440005","name":"Butzbach, Friedrich-Ludwig-Weidig-Stadt","type":"Stadt"},"district":{"key":"06440","name":"Wetteraukreis","type":"Landkreis"},"federalState":{"key":"06","name":"Hessen"}},{"name":"Mariazeller Weg","postalCode":"35510","locality":"Butzbach","municipality":{"key":"06440005","name":"Butzbach, Friedrich-Ludwig-Weidig-Stadt","type":"Stadt"},"district":{"key":"06440","name":"Wetteraukreis","type":"Landkreis"},"federalState":{"key":"06","name":"Hessen"}},{"name":"Marie-Curie-Str.","postalCode":"35510","locality":"Butzbach","municipality":{"key":"06440005","name":"Butzbach, Friedrich-Ludwig-Weidig-Stadt","type":"Stadt"},"district":{"key":"06440","name":"Wetteraukreis","type":"Landkreis"},"federalState":{"key":"06","name":"Hessen"}},{"name":"Marienbader Str.","postalCode":"35510","locality":"Butzbach","municipality":{"key":"06440005","name":"Butzbach, Friedrich-Ludwig-Weidig-Stadt","type":"Stadt"},"district":{"key":"06440","name":"Wetteraukreis","type":"Landkreis"},"federalState":{"key":"06","name":"Hessen"}},{"name":"Markwaldstr.","postalCode":"35510","locality":"Butzbach","municipality":{"key":"06440005","name":"Butzbach, Friedrich-Ludwig-Weidig-Stadt","type":"Stadt"},"district":{"key":"06440","name":"Wetteraukreis","type":"Landkreis"},"federalState":{"key":"06","name":"Hessen"}},{"name":"Martelgasse","postalCode":"35510","locality":"Butzbach","municipality":{"key":"06440005","name":"Butzbach, Friedrich-Ludwig-Weidig-Stadt","type":"Stadt"},"district":{"key":"06440","name":"Wetteraukreis","type":"Landkreis"},"federalState":{"key":"06","name":"Hessen"}},{"name":"Mauerfeldstr.","postalCode":"35510","locality":"Butzbach","municipality":{"key":"06440005","name":"Butzbach, Friedrich-Ludwig-Weidig-Stadt","type":"Stadt"},"district":{"key":"06440","name":"Wetteraukreis","type":"Landkreis"},"federalState":{"key":"06","name":"Hessen"}},{"name":"Mauerstr.","postalCode":"35510","locality":"Butzbach","municipality":{"key":"06440005","name":"Butzbach, Friedrich-Ludwig-Weidig-Stadt","type":"Stadt"},"district":{"key":"06440","name":"Wetteraukreis","type":"Landkreis"},"federalState":{"key":"06","name":"Hessen"}},{"name":"Max-Hessemer-Str.","postalCode":"35510","locality":"Butzbach","municipality":{"key":"06440005","name":"Butzbach, Friedrich-Ludwig-Weidig-Stadt","type":"Stadt"},"district":{"key":"06440","name":"Wetteraukreis","type":"Landkreis"},"federalState":{"key":"06","name":"Hessen"}},{"name":"Mehlgasse","postalCode":"35510","locality":"Butzbach","municipality":{"key":"06440005","name":"Butzbach, Friedrich-Ludwig-Weidig-Stadt","type":"Stadt"},"district":{"key":"06440","name":"Wetteraukreis","type":"Landkreis"},"federalState":{"key":"06","name":"Hessen"}},{"name":"Memeler Str.","postalCode":"35510","locality":"Butzbach","municipality":{"key":"06440005","name":"Butzbach, Friedrich-Ludwig-Weidig-Stadt","type":"Stadt"},"district":{"key":"06440","name":"Wetteraukreis","type":"Landkreis"},"federalState":{"key":"06","name":"Hessen"}},{"name":"Merianstr.","postalCode":"35510","locality":"Butzbach","municipality":{"key":"06440005","name":"Butzbach, Friedrich-Ludwig-Weidig-Stadt","type":"Stadt"},"district":{"key":"06440","name":"Wetteraukreis","type":"Landkreis"},"federalState":{"key":"06","name":"Hessen"}},{"name":"Merowingerstr.","postalCode":"35510","locality":"Butzbach","municipality":{"key":"06440005","name":"Butzbach, Friedrich-Ludwig-Weidig-Stadt","type":"Stadt"},"district":{"key":"06440","name":"Wetteraukreis","type":"Landkreis"},"federalState":{"key":"06","name":"Hessen"}},{"name":"MIttelschneise","postalCode":"35510","locality":"Butzbach","municipality":{"key":"06440005","name":"Butzbach, Friedrich-Ludwig-Weidig-Stadt","type":"Stadt"},"district":{"key":"06440","name":"Wetteraukreis","type":"Landkreis"},"federalState":{"key":"06","name":"Hessen"}},{"name":"Mittelstr.","postalCode":"35510","locality":"Butzbach","municipality":{"key":"06440005","name":"Butzbach, Friedrich-Ludwig-Weidig-Stadt","type":"Stadt"},"district":{"key":"06440","name":"Wetteraukreis","type":"Landkreis"},"federalState":{"key":"06","name":"Hessen"}},{"name":"Mittelweg","postalCode":"35510","locality":"Butzbach","municipality":{"key":"06440005","name":"Butzbach, Friedrich-Ludwig-Weidig-Stadt","type":"Stadt"},"district":{"key":"06440","name":"Wetteraukreis","type":"Landkreis"},"federalState":{"key":"06","name":"Hessen"}},{"name":"Moritz-Kuhl-Str.","postalCode":"35510","locality":"Butzbach","municipality":{"key":"06440005","name":"Butzbach, Friedrich-Ludwig-Weidig-Stadt","type":"Stadt"},"district":{"key":"06440","name":"Wetteraukreis","type":"Landkreis"},"federalState":{"key":"06","name":"Hessen"}},{"name":"Mörler Weg","postalCode":"35510","locality":"Butzbach","municipality":{"key":"06440005","name":"Butzbach, Friedrich-Ludwig-Weidig-Stadt","type":"Stadt"},"district":{"key":"06440","name":"Wetteraukreis","type":"Landkreis"},"federalState":{"key":"06","name":"Hessen"}},{"name":"Mozartstr.","postalCode":"35510","locality":"Butzbach","municipality":{"key":"06440005","name":"Butzbach, Friedrich-Ludwig-Weidig-Stadt","type":"Stadt"},"district":{"key":"06440","name":"Wetteraukreis","type":"Landkreis"},"federalState":{"key":"06","name":"Hessen"}},{"name":"Mühlenweg","postalCode":"35510","locality":"Butzbach","municipality":{"key":"06440005","name":"Butzbach, Friedrich-Ludwig-Weidig-Stadt","type":"Stadt"},"district":{"key":"06440","name":"Wetteraukreis","type":"Landkreis"},"federalState":{"key":"06","name":"Hessen"}},{"name":"Mühlgasse","postalCode":"35510","locality":"Butzbach","municipality":{"key":"06440005","name":"Butzbach, Friedrich-Ludwig-Weidig-Stadt","type":"Stadt"},"district":{"key":"06440","name":"Wetteraukreis","type":"Landkreis"},"federalState":{"key":"06","name":"Hessen"}},{"name":"Mühlweg","postalCode":"35510","locality":"Butzbach","municipality":{"key":"06440005","name":"Butzbach, Friedrich-Ludwig-Weidig-Stadt","type":"Stadt"},"district":{"key":"06440","name":"Wetteraukreis","type":"Landkreis"},"federalState":{"key":"06","name":"Hessen"}},{"name":"Münchgartenweg","postalCode":"35510","locality":"Butzbach","municipality":{"key":"06440005","name":"Butzbach, Friedrich-Ludwig-Weidig-Stadt","type":"Stadt"},"district":{"key":"06440","name":"Wetteraukreis","type":"Landkreis"},"federalState":{"key":"06","name":"Hessen"}},{"name":"Münsterer Hohl","postalCode":"35510","locality":"Butzbach","municipality":{"key":"06440005","name":"Butzbach, Friedrich-Ludwig-Weidig-Stadt","type":"Stadt"},"district":{"key":"06440","name":"Wetteraukreis","type":"Landkreis"},"federalState":{"key":"06","name":"Hessen"}},{"name":"Münsterer Hohl Weg","postalCode":"35510","locality":"Butzbach","municipality":{"key":"06440005","name":"Butzbach, Friedrich-Ludwig-Weidig-Stadt","type":"Stadt"},"district":{"key":"06440","name":"Wetteraukreis","type":"Landkreis"},"federalState":{"key":"06","name":"Hessen"}},{"name":"Münsterer Schleichweg","postalCode":"35510","locality":"Butzbach","municipality":{"key":"06440005","name":"Butzbach, Friedrich-Ludwig-Weidig-Stadt","type":"Stadt"},"district":{"key":"06440","name":"Wetteraukreis","type":"Landkreis"},"federalState":{"key":"06","name":"Hessen"}},{"name":"Münsterer Str.","postalCode":"35510","locality":"Butzbach","municipality":{"key":"06440005","name":"Butzbach, Friedrich-Ludwig-Weidig-Stadt","type":"Stadt"},"district":{"key":"06440","name":"Wetteraukreis","type":"Landkreis"},"federalState":{"key":"06","name":"Hessen"}},{"name":"Münzenberger Weg","postalCode":"35510","locality":"Butzbach","municipality":{"key":"06440005","name":"Butzbach, Friedrich-Ludwig-Weidig-Stadt","type":"Stadt"},"district":{"key":"06440","name":"Wetteraukreis","type":"Landkreis"},"federalState":{"key":"06","name":"Hessen"}},{"name":"Nassauische Weinstr.","postalCode":"35510","locality":"Butzbach","municipality":{"key":"06440005","name":"Butzbach, Friedrich-Ludwig-Weidig-Stadt","type":"Stadt"},"district":{"key":"06440","name":"Wetteraukreis","type":"Landkreis"},"federalState":{"key":"06","name":"Hessen"}},{"name":"Neuer Weg","postalCode":"35510","locality":"Butzbach","municipality":{"key":"06440005","name":"Butzbach, Friedrich-Ludwig-Weidig-Stadt","type":"Stadt"},"district":{"key":"06440","name":"Wetteraukreis","type":"Landkreis"},"federalState":{"key":"06","name":"Hessen"}},{"name":"Neugasse","postalCode":"35510","locality":"Butzbach","municipality":{"key":"06440005","name":"Butzbach, Friedrich-Ludwig-Weidig-Stadt","type":"Stadt"},"district":{"key":"06440","name":"Wetteraukreis","type":"Landkreis"},"federalState":{"key":"06","name":"Hessen"}},{"name":"Neuweidstr.","postalCode":"35510","locality":"Butzbach","municipality":{"key":"06440005","name":"Butzbach, Friedrich-Ludwig-Weidig-Stadt","type":"Stadt"},"district":{"key":"06440","name":"Wetteraukreis","type":"Landkreis"},"federalState":{"key":"06","name":"Hessen"}},{"name":"New York Str.","postalCode":"35510","locality":"Butzbach","municipality":{"key":"06440005","name":"Butzbach, Friedrich-Ludwig-Weidig-Stadt","type":"Stadt"},"district":{"key":"06440","name":"Wetteraukreis","type":"Landkreis"},"federalState":{"key":"06","name":"Hessen"}},{"name":"Nollweg","postalCode":"35510","locality":"Butzbach","municipality":{"key":"06440005","name":"Butzbach, Friedrich-Ludwig-Weidig-Stadt","type":"Stadt"},"district":{"key":"06440","name":"Wetteraukreis","type":"Landkreis"},"federalState":{"key":"06","name":"Hessen"}},{"name":"Nußallee","postalCode":"35510","locality":"Butzbach","municipality":{"key":"06440005","name":"Butzbach, Friedrich-Ludwig-Weidig-Stadt","type":"Stadt"},"district":{"key":"06440","name":"Wetteraukreis","type":"Landkreis"},"federalState":{"key":"06","name":"Hessen"}},{"name":"Obere Bauwaldschneise","postalCode":"35510","locality":"Butzbach","municipality":{"key":"06440005","name":"Butzbach, Friedrich-Ludwig-Weidig-Stadt","type":"Stadt"},"district":{"key":"06440","name":"Wetteraukreis","type":"Landkreis"},"federalState":{"key":"06","name":"Hessen"}},{"name":"Oberer Bauwaldweg","postalCode":"35510","locality":"Butzbach","municipality":{"key":"06440005","name":"Butzbach, Friedrich-Ludwig-Weidig-Stadt","type":"Stadt"},"district":{"key":"06440","name":"Wetteraukreis","type":"Landkreis"},"federalState":{"key":"06","name":"Hessen"}},{"name":"Oberer Lachenweg","postalCode":"35510","locality":"Butzbach","municipality":{"key":"06440005","name":"Butzbach, Friedrich-Ludwig-Weidig-Stadt","type":"Stadt"},"district":{"key":"06440","name":"Wetteraukreis","type":"Landkreis"},"federalState":{"key":"06","name":"Hessen"}},{"name":"Obergasse","postalCode":"35510","locality":"Butzbach","municipality":{"key":"06440005","name":"Butzbach, Friedrich-Ludwig-Weidig-Stadt","type":"Stadt"},"district":{"key":"06440","name":"Wetteraukreis","type":"Landkreis"},"federalState":{"key":"06","name":"Hessen"}},{"name":"Oberhalb der Weinstr.","postalCode":"35510","locality":"Butzbach","municipality":{"key":"06440005","name":"Butzbach, Friedrich-Ludwig-Weidig-Stadt","type":"Stadt"},"district":{"key":"06440","name":"Wetteraukreis","type":"Landkreis"},"federalState":{"key":"06","name":"Hessen"}},{"name":"Oberhalb des Steinbruchs","postalCode":"35510","locality":"Butzbach","municipality":{"key":"06440005","name":"Butzbach, Friedrich-Ludwig-Weidig-Stadt","type":"Stadt"},"district":{"key":"06440","name":"Wetteraukreis","type":"Landkreis"},"federalState":{"key":"06","name":"Hessen"}},{"name":"Oberkleener Str.","postalCode":"35510","locality":"Butzbach","municipality":{"key":"06440005","name":"Butzbach, Friedrich-Ludwig-Weidig-Stadt","type":"Stadt"},"district":{"key":"06440","name":"Wetteraukreis","type":"Landkreis"},"federalState":{"key":"06","name":"Hessen"}},{"name":"Obernberg","postalCode":"35510","locality":"Butzbach","municipality":{"key":"06440005","name":"Butzbach, Friedrich-Ludwig-Weidig-Stadt","type":"Stadt"},"district":{"key":"06440","name":"Wetteraukreis","type":"Landkreis"},"federalState":{"key":"06","name":"Hessen"}},{"name":"Oberpforte","postalCode":"35510","locality":"Butzbach","municipality":{"key":"06440005","name":"Butzbach, Friedrich-Ludwig-Weidig-Stadt","type":"Stadt"},"district":{"key":"06440","name":"Wetteraukreis","type":"Landkreis"},"federalState":{"key":"06","name":"Hessen"}},{"name":"Oesbachweg","postalCode":"35510","locality":"Butzbach","municipality":{"key":"06440005","name":"Butzbach, Friedrich-Ludwig-Weidig-Stadt","type":"Stadt"},"district":{"key":"06440","name":"Wetteraukreis","type":"Landkreis"},"federalState":{"key":"06","name":"Hessen"}},{"name":"Oppershofener Str.","postalCode":"35510","locality":"Butzbach","municipality":{"key":"06440005","name":"Butzbach, Friedrich-Ludwig-Weidig-Stadt","type":"Stadt"},"district":{"key":"06440","name":"Wetteraukreis","type":"Landkreis"},"federalState":{"key":"06","name":"Hessen"}},{"name":"Oppershofener Weg","postalCode":"35510","locality":"Butzbach","municipality":{"key":"06440005","name":"Butzbach, Friedrich-Ludwig-Weidig-Stadt","type":"Stadt"},"district":{"key":"06440","name":"Wetteraukreis","type":"Landkreis"},"federalState":{"key":"06","name":"Hessen"}},{"name":"Ostheimer Str.","postalCode":"35510","locality":"Butzbach","municipality":{"key":"06440005","name":"Butzbach, Friedrich-Ludwig-Weidig-Stadt","type":"Stadt"},"district":{"key":"06440","name":"Wetteraukreis","type":"Landkreis"},"federalState":{"key":"06","name":"Hessen"}},{"name":"Ostheimer Weg","postalCode":"35510","locality":"Butzbach","municipality":{"key":"06440005","name":"Butzbach, Friedrich-Ludwig-Weidig-Stadt","type":"Stadt"},"district":{"key":"06440","name":"Wetteraukreis","type":"Landkreis"},"federalState":{"key":"06","name":"Hessen"}},{"name":"Ostumgehung","postalCode":"35510","locality":"Butzbach","municipality":{"key":"06440005","name":"Butzbach, Friedrich-Ludwig-Weidig-Stadt","type":"Stadt"},"district":{"key":"06440","name":"Wetteraukreis","type":"Landkreis"},"federalState":{"key":"06","name":"Hessen"}},{"name":"Otto-Hahn-Str.","postalCode":"35510","locality":"Butzbach","municipality":{"key":"06440005","name":"Butzbach, Friedrich-Ludwig-Weidig-Stadt","type":"Stadt"},"district":{"key":"06440","name":"Wetteraukreis","type":"Landkreis"},"federalState":{"key":"06","name":"Hessen"}},{"name":"Ovid-Str.","postalCode":"35510","locality":"Butzbach","municipality":{"key":"06440005","name":"Butzbach, Friedrich-Ludwig-Weidig-Stadt","type":"Stadt"},"district":{"key":"06440","name":"Wetteraukreis","type":"Landkreis"},"federalState":{"key":"06","name":"Hessen"}},{"name":"Parkstr.","postalCode":"35510","locality":"Butzbach","municipality":{"key":"06440005","name":"Butzbach, Friedrich-Ludwig-Weidig-Stadt","type":"Stadt"},"district":{"key":"06440","name":"Wetteraukreis","type":"Landkreis"},"federalState":{"key":"06","name":"Hessen"}},{"name":"Paul-Ehrlich-Str.","postalCode":"35510","locality":"Butzbach","municipality":{"key":"06440005","name":"Butzbach, Friedrich-Ludwig-Weidig-Stadt","type":"Stadt"},"district":{"key":"06440","name":"Wetteraukreis","type":"Landkreis"},"federalState":{"key":"06","name":"Hessen"}},{"name":"Petermannsweg","postalCode":"35510","locality":"Butzbach","municipality":{"key":"06440005","name":"Butzbach, Friedrich-Ludwig-Weidig-Stadt","type":"Stadt"},"district":{"key":"06440","name":"Wetteraukreis","type":"Landkreis"},"federalState":{"key":"06","name":"Hessen"}},{"name":"Pfahlgrabenweg","postalCode":"35510","locality":"Butzbach","municipality":{"key":"06440005","name":"Butzbach, Friedrich-Ludwig-Weidig-Stadt","type":"Stadt"},"district":{"key":"06440","name":"Wetteraukreis","type":"Landkreis"},"federalState":{"key":"06","name":"Hessen"}},{"name":"Pfalesweg","postalCode":"35510","locality":"Butzbach","municipality":{"key":"06440005","name":"Butzbach, Friedrich-Ludwig-Weidig-Stadt","type":"Stadt"},"district":{"key":"06440","name":"Wetteraukreis","type":"Landkreis"},"federalState":{"key":"06","name":"Hessen"}},{"name":"Pfarrer-Kayser-Str.","postalCode":"35510","locality":"Butzbach","municipality":{"key":"06440005","name":"Butzbach, Friedrich-Ludwig-Weidig-Stadt","type":"Stadt"},"district":{"key":"06440","name":"Wetteraukreis","type":"Landkreis"},"federalState":{"key":"06","name":"Hessen"}},{"name":"Pfarrgasse","postalCode":"35510","locality":"Butzbach","municipality":{"key":"06440005","name":"Butzbach, Friedrich-Ludwig-Weidig-Stadt","type":"Stadt"},"district":{"key":"06440","name":"Wetteraukreis","type":"Landkreis"},"federalState":{"key":"06","name":"Hessen"}},{"name":"Pfeifergasse","postalCode":"35510","locality":"Butzbach","municipality":{"key":"06440005","name":"Butzbach, Friedrich-Ludwig-Weidig-Stadt","type":"Stadt"},"district":{"key":"06440","name":"Wetteraukreis","type":"Landkreis"},"federalState":{"key":"06","name":"Hessen"}},{"name":"Pflanzgartenschneise","postalCode":"35510","locality":"Butzbach","municipality":{"key":"06440005","name":"Butzbach, Friedrich-Ludwig-Weidig-Stadt","type":"Stadt"},"district":{"key":"06440","name":"Wetteraukreis","type":"Landkreis"},"federalState":{"key":"06","name":"Hessen"}},{"name":"Philipp-Reis-Str.","postalCode":"35510","locality":"Butzbach","municipality":{"key":"06440005","name":"Butzbach, Friedrich-Ludwig-Weidig-Stadt","type":"Stadt"},"district":{"key":"06440","name":"Wetteraukreis","type":"Landkreis"},"federalState":{"key":"06","name":"Hessen"}},{"name":"Philipp-Seipp-Str.","postalCode":"35510","locality":"Butzbach","municipality":{"key":"06440005","name":"Butzbach, Friedrich-Ludwig-Weidig-Stadt","type":"Stadt"},"district":{"key":"06440","name":"Wetteraukreis","type":"Landkreis"},"federalState":{"key":"06","name":"Hessen"}},{"name":"Pohl-Gönser Pfad","postalCode":"35510","locality":"Butzbach","municipality":{"key":"06440005","name":"Butzbach, Friedrich-Ludwig-Weidig-Stadt","type":"Stadt"},"district":{"key":"06440","name":"Wetteraukreis","type":"Landkreis"},"federalState":{"key":"06","name":"Hessen"}},{"name":"Pohlgönser Str.","postalCode":"35510","locality":"Butzbach","municipality":{"key":"06440005","name":"Butzbach, Friedrich-Ludwig-Weidig-Stadt","type":"Stadt"},"district":{"key":"06440","name":"Wetteraukreis","type":"Landkreis"},"federalState":{"key":"06","name":"Hessen"}},{"name":"Posener Str.","postalCode":"35510","locality":"Butzbach","municipality":{"key":"06440005","name":"Butzbach, Friedrich-Ludwig-Weidig-Stadt","type":"Stadt"},"district":{"key":"06440","name":"Wetteraukreis","type":"Landkreis"},"federalState":{"key":"06","name":"Hessen"}},{"name":"Quergasse","postalCode":"35510","locality":"Butzbach","municipality":{"key":"06440005","name":"Butzbach, Friedrich-Ludwig-Weidig-Stadt","type":"Stadt"},"district":{"key":"06440","name":"Wetteraukreis","type":"Landkreis"},"federalState":{"key":"06","name":"Hessen"}},{"name":"Raiffeisengasse","postalCode":"35510","locality":"Butzbach","municipality":{"key":"06440005","name":"Butzbach, Friedrich-Ludwig-Weidig-Stadt","type":"Stadt"},"district":{"key":"06440","name":"Wetteraukreis","type":"Landkreis"},"federalState":{"key":"06","name":"Hessen"}},{"name":"Raiffeisenstr.","postalCode":"35510","locality":"Butzbach","municipality":{"key":"06440005","name":"Butzbach, Friedrich-Ludwig-Weidig-Stadt","type":"Stadt"},"district":{"key":"06440","name":"Wetteraukreis","type":"Landkreis"},"federalState":{"key":"06","name":"Hessen"}},{"name":"Rathausstr.","postalCode":"35510","locality":"Butzbach","municipality":{"key":"06440005","name":"Butzbach, Friedrich-Ludwig-Weidig-Stadt","type":"Stadt"},"district":{"key":"06440","name":"Wetteraukreis","type":"Landkreis"},"federalState":{"key":"06","name":"Hessen"}},{"name":"Rauchweg","postalCode":"35510","locality":"Butzbach","municipality":{"key":"06440005","name":"Butzbach, Friedrich-Ludwig-Weidig-Stadt","type":"Stadt"},"district":{"key":"06440","name":"Wetteraukreis","type":"Landkreis"},"federalState":{"key":"06","name":"Hessen"}},{"name":"Rechtenbacher Str.","postalCode":"35510","locality":"Butzbach","municipality":{"key":"06440005","name":"Butzbach, Friedrich-Ludwig-Weidig-Stadt","type":"Stadt"},"district":{"key":"06440","name":"Wetteraukreis","type":"Landkreis"},"federalState":{"key":"06","name":"Hessen"}},{"name":"Regerstr.","postalCode":"35510","locality":"Butzbach","municipality":{"key":"06440005","name":"Butzbach, Friedrich-Ludwig-Weidig-Stadt","type":"Stadt"},"district":{"key":"06440","name":"Wetteraukreis","type":"Landkreis"},"federalState":{"key":"06","name":"Hessen"}},{"name":"Reichweinstr.","postalCode":"35510","locality":"Butzbach","municipality":{"key":"06440005","name":"Butzbach, Friedrich-Ludwig-Weidig-Stadt","type":"Stadt"},"district":{"key":"06440","name":"Wetteraukreis","type":"Landkreis"},"federalState":{"key":"06","name":"Hessen"}},{"name":"Reinhard-Hanack-Str.","postalCode":"35510","locality":"Butzbach","municipality":{"key":"06440005","name":"Butzbach, Friedrich-Ludwig-Weidig-Stadt","type":"Stadt"},"district":{"key":"06440","name":"Wetteraukreis","type":"Landkreis"},"federalState":{"key":"06","name":"Hessen"}},{"name":"Reinhard-Samesreuther-Str.","postalCode":"35510","locality":"Butzbach","municipality":{"key":"06440005","name":"Butzbach, Friedrich-Ludwig-Weidig-Stadt","type":"Stadt"},"district":{"key":"06440","name":"Wetteraukreis","type":"Landkreis"},"federalState":{"key":"06","name":"Hessen"}},{"name":"Reußenweg","postalCode":"35510","locality":"Butzbach","municipality":{"key":"06440005","name":"Butzbach, Friedrich-Ludwig-Weidig-Stadt","type":"Stadt"},"district":{"key":"06440","name":"Wetteraukreis","type":"Landkreis"},"federalState":{"key":"06","name":"Hessen"}},{"name":"Reutergasse","postalCode":"35510","locality":"Butzbach","municipality":{"key":"06440005","name":"Butzbach, Friedrich-Ludwig-Weidig-Stadt","type":"Stadt"},"district":{"key":"06440","name":"Wetteraukreis","type":"Landkreis"},"federalState":{"key":"06","name":"Hessen"}},{"name":"Richard-Wagner-Str.","postalCode":"35510","locality":"Butzbach","municipality":{"key":"06440005","name":"Butzbach, Friedrich-Ludwig-Weidig-Stadt","type":"Stadt"},"district":{"key":"06440","name":"Wetteraukreis","type":"Landkreis"},"federalState":{"key":"06","name":"Hessen"}},{"name":"Ringstr.","postalCode":"35510","locality":"Butzbach","municipality":{"key":"06440005","name":"Butzbach, Friedrich-Ludwig-Weidig-Stadt","type":"Stadt"},"district":{"key":"06440","name":"Wetteraukreis","type":"Landkreis"},"federalState":{"key":"06","name":"Hessen"}},{"name":"Ringwall-Rundwanderweg","postalCode":"35510","locality":"Butzbach","municipality":{"key":"06440005","name":"Butzbach, Friedrich-Ludwig-Weidig-Stadt","type":"Stadt"},"district":{"key":"06440","name":"Wetteraukreis","type":"Landkreis"},"federalState":{"key":"06","name":"Hessen"}},{"name":"Robert-Bosch-Str.","postalCode":"35510","locality":"Butzbach","municipality":{"key":"06440005","name":"Butzbach, Friedrich-Ludwig-Weidig-Stadt","type":"Stadt"},"district":{"key":"06440","name":"Wetteraukreis","type":"Landkreis"},"federalState":{"key":"06","name":"Hessen"}},{"name":"Robert-Koch-Weg","postalCode":"35510","locality":"Butzbach","municipality":{"key":"06440005","name":"Butzbach, Friedrich-Ludwig-Weidig-Stadt","type":"Stadt"},"district":{"key":"06440","name":"Wetteraukreis","type":"Landkreis"},"federalState":{"key":"06","name":"Hessen"}},{"name":"Rockenberger Str.","postalCode":"35510","locality":"Butzbach","municipality":{"key":"06440005","name":"Butzbach, Friedrich-Ludwig-Weidig-Stadt","type":"Stadt"},"district":{"key":"06440","name":"Wetteraukreis","type":"Landkreis"},"federalState":{"key":"06","name":"Hessen"}},{"name":"Rockenberger Weg","postalCode":"35510","locality":"Butzbach","municipality":{"key":"06440005","name":"Butzbach, Friedrich-Ludwig-Weidig-Stadt","type":"Stadt"},"district":{"key":"06440","name":"Wetteraukreis","type":"Landkreis"},"federalState":{"key":"06","name":"Hessen"}},{"name":"Rollweg","postalCode":"35510","locality":"Butzbach","municipality":{"key":"06440005","name":"Butzbach, Friedrich-Ludwig-Weidig-Stadt","type":"Stadt"},"district":{"key":"06440","name":"Wetteraukreis","type":"Landkreis"},"federalState":{"key":"06","name":"Hessen"}},{"name":"Römerstr.","postalCode":"35510","locality":"Butzbach","municipality":{"key":"06440005","name":"Butzbach, Friedrich-Ludwig-Weidig-Stadt","type":"Stadt"},"district":{"key":"06440","name":"Wetteraukreis","type":"Landkreis"},"federalState":{"key":"06","name":"Hessen"}},{"name":"Röntgenweg","postalCode":"35510","locality":"Butzbach","municipality":{"key":"06440005","name":"Butzbach, Friedrich-Ludwig-Weidig-Stadt","type":"Stadt"},"district":{"key":"06440","name":"Wetteraukreis","type":"Landkreis"},"federalState":{"key":"06","name":"Hessen"}},{"name":"Rosenstr.","postalCode":"35510","locality":"Butzbach","municipality":{"key":"06440005","name":"Butzbach, Friedrich-Ludwig-Weidig-Stadt","type":"Stadt"},"district":{"key":"06440","name":"Wetteraukreis","type":"Landkreis"},"federalState":{"key":"06","name":"Hessen"}},{"name":"Roßbrunnenstr.","postalCode":"35510","locality":"Butzbach","municipality":{"key":"06440005","name":"Butzbach, Friedrich-Ludwig-Weidig-Stadt","type":"Stadt"},"district":{"key":"06440","name":"Wetteraukreis","type":"Landkreis"},"federalState":{"key":"06","name":"Hessen"}},{"name":"Roter Lohweg","postalCode":"35510","locality":"Butzbach","municipality":{"key":"06440005","name":"Butzbach, Friedrich-Ludwig-Weidig-Stadt","type":"Stadt"},"district":{"key":"06440","name":"Wetteraukreis","type":"Landkreis"},"federalState":{"key":"06","name":"Hessen"}},{"name":"Rudolf-Diesel-Str.","postalCode":"35510","locality":"Butzbach","municipality":{"key":"06440005","name":"Butzbach, Friedrich-Ludwig-Weidig-Stadt","type":"Stadt"},"district":{"key":"06440","name":"Wetteraukreis","type":"Landkreis"},"federalState":{"key":"06","name":"Hessen"}},{"name":"Sackgasse","postalCode":"35510","locality":"Butzbach","municipality":{"key":"06440005","name":"Butzbach, Friedrich-Ludwig-Weidig-Stadt","type":"Stadt"},"district":{"key":"06440","name":"Wetteraukreis","type":"Landkreis"},"federalState":{"key":"06","name":"Hessen"}},{"name":"Saint-Cyr-l'Ecole-Platz","postalCode":"35510","locality":"Butzbach","municipality":{"key":"06440005","name":"Butzbach, Friedrich-Ludwig-Weidig-Stadt","type":"Stadt"},"district":{"key":"06440","name":"Wetteraukreis","type":"Landkreis"},"federalState":{"key":"06","name":"Hessen"}},{"name":"Sankt-Florian-Str.","postalCode":"35510","locality":"Butzbach","municipality":{"key":"06440005","name":"Butzbach, Friedrich-Ludwig-Weidig-Stadt","type":"Stadt"},"district":{"key":"06440","name":"Wetteraukreis","type":"Landkreis"},"federalState":{"key":"06","name":"Hessen"}},{"name":"Schäfergasse","postalCode":"35510","locality":"Butzbach","municipality":{"key":"06440005","name":"Butzbach, Friedrich-Ludwig-Weidig-Stadt","type":"Stadt"},"district":{"key":"06440","name":"Wetteraukreis","type":"Landkreis"},"federalState":{"key":"06","name":"Hessen"}},{"name":"Schäferpfad","postalCode":"35510","locality":"Butzbach","municipality":{"key":"06440005","name":"Butzbach, Friedrich-Ludwig-Weidig-Stadt","type":"Stadt"},"district":{"key":"06440","name":"Wetteraukreis","type":"Landkreis"},"federalState":{"key":"06","name":"Hessen"}},{"name":"Schieferkautweg","postalCode":"35510","locality":"Butzbach","municipality":{"key":"06440005","name":"Butzbach, Friedrich-Ludwig-Weidig-Stadt","type":"Stadt"},"district":{"key":"06440","name":"Wetteraukreis","type":"Landkreis"},"federalState":{"key":"06","name":"Hessen"}},{"name":"Schießgasse","postalCode":"35510","locality":"Butzbach","municipality":{"key":"06440005","name":"Butzbach, Friedrich-Ludwig-Weidig-Stadt","type":"Stadt"},"district":{"key":"06440","name":"Wetteraukreis","type":"Landkreis"},"federalState":{"key":"06","name":"Hessen"}},{"name":"Schillerstr.","postalCode":"35510","locality":"Butzbach","municipality":{"key":"06440005","name":"Butzbach, Friedrich-Ludwig-Weidig-Stadt","type":"Stadt"},"district":{"key":"06440","name":"Wetteraukreis","type":"Landkreis"},"federalState":{"key":"06","name":"Hessen"}},{"name":"Schlagweg","postalCode":"35510","locality":"Butzbach","municipality":{"key":"06440005","name":"Butzbach, Friedrich-Ludwig-Weidig-Stadt","type":"Stadt"},"district":{"key":"06440","name":"Wetteraukreis","type":"Landkreis"},"federalState":{"key":"06","name":"Hessen"}},{"name":"Schloßgartenweg","postalCode":"35510","locality":"Butzbach","municipality":{"key":"06440005","name":"Butzbach, Friedrich-Ludwig-Weidig-Stadt","type":"Stadt"},"district":{"key":"06440","name":"Wetteraukreis","type":"Landkreis"},"federalState":{"key":"06","name":"Hessen"}},{"name":"Schloßstr.","postalCode":"35510","locality":"Butzbach","municipality":{"key":"06440005","name":"Butzbach, Friedrich-Ludwig-Weidig-Stadt","type":"Stadt"},"district":{"key":"06440","name":"Wetteraukreis","type":"Landkreis"},"federalState":{"key":"06","name":"Hessen"}},{"name":"Schloßweg","postalCode":"35510","locality":"Butzbach","municipality":{"key":"06440005","name":"Butzbach, Friedrich-Ludwig-Weidig-Stadt","type":"Stadt"},"district":{"key":"06440","name":"Wetteraukreis","type":"Landkreis"},"federalState":{"key":"06","name":"Hessen"}},{"name":"Schneidwaldstr.","postalCode":"35510","locality":"Butzbach","municipality":{"key":"06440005","name":"Butzbach, Friedrich-Ludwig-Weidig-Stadt","type":"Stadt"},"district":{"key":"06440","name":"Wetteraukreis","type":"Landkreis"},"federalState":{"key":"06","name":"Hessen"}},{"name":"Schnepfenschneise","postalCode":"35510","locality":"Butzbach","municipality":{"key":"06440005","name":"Butzbach, Friedrich-Ludwig-Weidig-Stadt","type":"Stadt"},"district":{"key":"06440","name":"Wetteraukreis","type":"Landkreis"},"federalState":{"key":"06","name":"Hessen"}},{"name":"Schönberger Str.","postalCode":"35510","locality":"Butzbach","municipality":{"key":"06440005","name":"Butzbach, Friedrich-Ludwig-Weidig-Stadt","type":"Stadt"},"district":{"key":"06440","name":"Wetteraukreis","type":"Landkreis"},"federalState":{"key":"06","name":"Hessen"}},{"name":"Schorbachstr.","postalCode":"35510","locality":"Butzbach","municipality":{"key":"06440005","name":"Butzbach, Friedrich-Ludwig-Weidig-Stadt","type":"Stadt"},"district":{"key":"06440","name":"Wetteraukreis","type":"Landkreis"},"federalState":{"key":"06","name":"Hessen"}},{"name":"Schrenzerschneise","postalCode":"35510","locality":"Butzbach","municipality":{"key":"06440005","name":"Butzbach, Friedrich-Ludwig-Weidig-Stadt","type":"Stadt"},"district":{"key":"06440","name":"Wetteraukreis","type":"Landkreis"},"federalState":{"key":"06","name":"Hessen"}},{"name":"Schubertstr.","postalCode":"35510","locality":"Butzbach","municipality":{"key":"06440005","name":"Butzbach, Friedrich-Ludwig-Weidig-Stadt","type":"Stadt"},"district":{"key":"06440","name":"Wetteraukreis","type":"Landkreis"},"federalState":{"key":"06","name":"Hessen"}},{"name":"Schulstr.","postalCode":"35510","locality":"Butzbach","municipality":{"key":"06440005","name":"Butzbach, Friedrich-Ludwig-Weidig-Stadt","type":"Stadt"},"district":{"key":"06440","name":"Wetteraukreis","type":"Landkreis"},"federalState":{"key":"06","name":"Hessen"}},{"name":"Schumannstr.","postalCode":"35510","locality":"Butzbach","municipality":{"key":"06440005","name":"Butzbach, Friedrich-Ludwig-Weidig-Stadt","type":"Stadt"},"district":{"key":"06440","name":"Wetteraukreis","type":"Landkreis"},"federalState":{"key":"06","name":"Hessen"}},{"name":"Seedammweg","postalCode":"35510","locality":"Butzbach","municipality":{"key":"06440005","name":"Butzbach, Friedrich-Ludwig-Weidig-Stadt","type":"Stadt"},"district":{"key":"06440","name":"Wetteraukreis","type":"Landkreis"},"federalState":{"key":"06","name":"Hessen"}},{"name":"Seefeldweg","postalCode":"35510","locality":"Butzbach","municipality":{"key":"06440005","name":"Butzbach, Friedrich-Ludwig-Weidig-Stadt","type":"Stadt"},"district":{"key":"06440","name":"Wetteraukreis","type":"Landkreis"},"federalState":{"key":"06","name":"Hessen"}},{"name":"Seeweg","postalCode":"35510","locality":"Butzbach","municipality":{"key":"06440005","name":"Butzbach, Friedrich-Ludwig-Weidig-Stadt","type":"Stadt"},"district":{"key":"06440","name":"Wetteraukreis","type":"Landkreis"},"federalState":{"key":"06","name":"Hessen"}},{"name":"Siegelweg","postalCode":"35510","locality":"Butzbach","municipality":{"key":"06440005","name":"Butzbach, Friedrich-Ludwig-Weidig-Stadt","type":"Stadt"},"district":{"key":"06440","name":"Wetteraukreis","type":"Landkreis"},"federalState":{"key":"06","name":"Hessen"}},{"name":"Solmser Str.","postalCode":"35510","locality":"Butzbach","municipality":{"key":"06440005","name":"Butzbach, Friedrich-Ludwig-Weidig-Stadt","type":"Stadt"},"district":{"key":"06440","name":"Wetteraukreis","type":"Landkreis"},"federalState":{"key":"06","name":"Hessen"}},{"name":"Sommerbergsweg","postalCode":"35510","locality":"Butzbach","municipality":{"key":"06440005","name":"Butzbach, Friedrich-Ludwig-Weidig-Stadt","type":"Stadt"},"district":{"key":"06440","name":"Wetteraukreis","type":"Landkreis"},"federalState":{"key":"06","name":"Hessen"}},{"name":"Sophie-Spiegelberger-Weg","postalCode":"35510","locality":"Butzbach","municipality":{"key":"06440005","name":"Butzbach, Friedrich-Ludwig-Weidig-Stadt","type":"Stadt"},"district":{"key":"06440","name":"Wetteraukreis","type":"Landkreis"},"federalState":{"key":"06","name":"Hessen"}},{"name":"Springerweg","postalCode":"35510","locality":"Butzbach","municipality":{"key":"06440005","name":"Butzbach, Friedrich-Ludwig-Weidig-Stadt","type":"Stadt"},"district":{"key":"06440","name":"Wetteraukreis","type":"Landkreis"},"federalState":{"key":"06","name":"Hessen"}},{"name":"Spülgasse","postalCode":"35510","locality":"Butzbach","municipality":{"key":"06440005","name":"Butzbach, Friedrich-Ludwig-Weidig-Stadt","type":"Stadt"},"district":{"key":"06440","name":"Wetteraukreis","type":"Landkreis"},"federalState":{"key":"06","name":"Hessen"}},{"name":"Stautzertstr.","postalCode":"35510","locality":"Butzbach","municipality":{"key":"06440005","name":"Butzbach, Friedrich-Ludwig-Weidig-Stadt","type":"Stadt"},"district":{"key":"06440","name":"Wetteraukreis","type":"Landkreis"},"federalState":{"key":"06","name":"Hessen"}},{"name":"Steinbrückenweg","postalCode":"35510","locality":"Butzbach","municipality":{"key":"06440005","name":"Butzbach, Friedrich-Ludwig-Weidig-Stadt","type":"Stadt"},"district":{"key":"06440","name":"Wetteraukreis","type":"Landkreis"},"federalState":{"key":"06","name":"Hessen"}},{"name":"Steinstr.","postalCode":"35510","locality":"Butzbach","municipality":{"key":"06440005","name":"Butzbach, Friedrich-Ludwig-Weidig-Stadt","type":"Stadt"},"district":{"key":"06440","name":"Wetteraukreis","type":"Landkreis"},"federalState":{"key":"06","name":"Hessen"}},{"name":"Stettiner Str.","postalCode":"35510","locality":"Butzbach","municipality":{"key":"06440005","name":"Butzbach, Friedrich-Ludwig-Weidig-Stadt","type":"Stadt"},"district":{"key":"06440","name":"Wetteraukreis","type":"Landkreis"},"federalState":{"key":"06","name":"Hessen"}},{"name":"Str. der Deutschen Einheit","postalCode":"35510","locality":"Butzbach","municipality":{"key":"06440005","name":"Butzbach, Friedrich-Ludwig-Weidig-Stadt","type":"Stadt"},"district":{"key":"06440","name":"Wetteraukreis","type":"Landkreis"},"federalState":{"key":"06","name":"Hessen"}},{"name":"Stresemannstr.","postalCode":"35510","locality":"Butzbach","municipality":{"key":"06440005","name":"Butzbach, Friedrich-Ludwig-Weidig-Stadt","type":"Stadt"},"district":{"key":"06440","name":"Wetteraukreis","type":"Landkreis"},"federalState":{"key":"06","name":"Hessen"}},{"name":"Suderschneise","postalCode":"35510","locality":"Butzbach","municipality":{"key":"06440005","name":"Butzbach, Friedrich-Ludwig-Weidig-Stadt","type":"Stadt"},"district":{"key":"06440","name":"Wetteraukreis","type":"Landkreis"},"federalState":{"key":"06","name":"Hessen"}},{"name":"Suderweg","postalCode":"35510","locality":"Butzbach","municipality":{"key":"06440005","name":"Butzbach, Friedrich-Ludwig-Weidig-Stadt","type":"Stadt"},"district":{"key":"06440","name":"Wetteraukreis","type":"Landkreis"},"federalState":{"key":"06","name":"Hessen"}},{"name":"Sudetenlandstr.","postalCode":"35510","locality":"Butzbach","municipality":{"key":"06440005","name":"Butzbach, Friedrich-Ludwig-Weidig-Stadt","type":"Stadt"},"district":{"key":"06440","name":"Wetteraukreis","type":"Landkreis"},"federalState":{"key":"06","name":"Hessen"}},{"name":"Sudetenring","postalCode":"35510","locality":"Butzbach","municipality":{"key":"06440005","name":"Butzbach, Friedrich-Ludwig-Weidig-Stadt","type":"Stadt"},"district":{"key":"06440","name":"Wetteraukreis","type":"Landkreis"},"federalState":{"key":"06","name":"Hessen"}},{"name":"Sudetenstr.","postalCode":"35510","locality":"Butzbach","municipality":{"key":"06440005","name":"Butzbach, Friedrich-Ludwig-Weidig-Stadt","type":"Stadt"},"district":{"key":"06440","name":"Wetteraukreis","type":"Landkreis"},"federalState":{"key":"06","name":"Hessen"}},{"name":"Südumgehung","postalCode":"35510","locality":"Butzbach","municipality":{"key":"06440005","name":"Butzbach, Friedrich-Ludwig-Weidig-Stadt","type":"Stadt"},"district":{"key":"06440","name":"Wetteraukreis","type":"Landkreis"},"federalState":{"key":"06","name":"Hessen"}},{"name":"Synagogenplatz","postalCode":"35510","locality":"Butzbach","municipality":{"key":"06440005","name":"Butzbach, Friedrich-Ludwig-Weidig-Stadt","type":"Stadt"},"district":{"key":"06440","name":"Wetteraukreis","type":"Landkreis"},"federalState":{"key":"06","name":"Hessen"}},{"name":"Tacitus-Str.","postalCode":"35510","locality":"Butzbach","municipality":{"key":"06440005","name":"Butzbach, Friedrich-Ludwig-Weidig-Stadt","type":"Stadt"},"district":{"key":"06440","name":"Wetteraukreis","type":"Landkreis"},"federalState":{"key":"06","name":"Hessen"}},{"name":"Tannenweg","postalCode":"35510","locality":"Butzbach","municipality":{"key":"06440005","name":"Butzbach, Friedrich-Ludwig-Weidig-Stadt","type":"Stadt"},"district":{"key":"06440","name":"Wetteraukreis","type":"Landkreis"},"federalState":{"key":"06","name":"Hessen"}},{"name":"Taubgasse","postalCode":"35510","locality":"Butzbach","municipality":{"key":"06440005","name":"Butzbach, Friedrich-Ludwig-Weidig-Stadt","type":"Stadt"},"district":{"key":"06440","name":"Wetteraukreis","type":"Landkreis"},"federalState":{"key":"06","name":"Hessen"}},{"name":"Taunushöhenweg","postalCode":"35510","locality":"Butzbach","municipality":{"key":"06440005","name":"Butzbach, Friedrich-Ludwig-Weidig-Stadt","type":"Stadt"},"district":{"key":"06440","name":"Wetteraukreis","type":"Landkreis"},"federalState":{"key":"06","name":"Hessen"}},{"name":"Taunusstr.","postalCode":"35510","locality":"Butzbach","municipality":{"key":"06440005","name":"Butzbach, Friedrich-Ludwig-Weidig-Stadt","type":"Stadt"},"district":{"key":"06440","name":"Wetteraukreis","type":"Landkreis"},"federalState":{"key":"06","name":"Hessen"}},{"name":"Teichgasse","postalCode":"35510","locality":"Butzbach","municipality":{"key":"06440005","name":"Butzbach, Friedrich-Ludwig-Weidig-Stadt","type":"Stadt"},"district":{"key":"06440","name":"Wetteraukreis","type":"Landkreis"},"federalState":{"key":"06","name":"Hessen"}},{"name":"Tepler Str.","postalCode":"35510","locality":"Butzbach","municipality":{"key":"06440005","name":"Butzbach, Friedrich-Ludwig-Weidig-Stadt","type":"Stadt"},"district":{"key":"06440","name":"Wetteraukreis","type":"Landkreis"},"federalState":{"key":"06","name":"Hessen"}},{"name":"Tuchbleiche","postalCode":"35510","locality":"Butzbach","municipality":{"key":"06440005","name":"Butzbach, Friedrich-Ludwig-Weidig-Stadt","type":"Stadt"},"district":{"key":"06440","name":"Wetteraukreis","type":"Landkreis"},"federalState":{"key":"06","name":"Hessen"}},{"name":"Unterer Köppelweg","postalCode":"35510","locality":"Butzbach","municipality":{"key":"06440005","name":"Butzbach, Friedrich-Ludwig-Weidig-Stadt","type":"Stadt"},"district":{"key":"06440","name":"Wetteraukreis","type":"Landkreis"},"federalState":{"key":"06","name":"Hessen"}},{"name":"Unterer Lachenweg","postalCode":"35510","locality":"Butzbach","municipality":{"key":"06440005","name":"Butzbach, Friedrich-Ludwig-Weidig-Stadt","type":"Stadt"},"district":{"key":"06440","name":"Wetteraukreis","type":"Landkreis"},"federalState":{"key":"06","name":"Hessen"}},{"name":"Unterer Prinzenweg","postalCode":"35510","locality":"Butzbach","municipality":{"key":"06440005","name":"Butzbach, Friedrich-Ludwig-Weidig-Stadt","type":"Stadt"},"district":{"key":"06440","name":"Wetteraukreis","type":"Landkreis"},"federalState":{"key":"06","name":"Hessen"}},{"name":"Untergasse","postalCode":"35510","locality":"Butzbach","municipality":{"key":"06440005","name":"Butzbach, Friedrich-Ludwig-Weidig-Stadt","type":"Stadt"},"district":{"key":"06440","name":"Wetteraukreis","type":"Landkreis"},"federalState":{"key":"06","name":"Hessen"}},{"name":"Usinger Str.","postalCode":"35510","locality":"Butzbach","municipality":{"key":"06440005","name":"Butzbach, Friedrich-Ludwig-Weidig-Stadt","type":"Stadt"},"district":{"key":"06440","name":"Wetteraukreis","type":"Landkreis"},"federalState":{"key":"06","name":"Hessen"}},{"name":"Vergil-Str.","postalCode":"35510","locality":"Butzbach","municipality":{"key":"06440005","name":"Butzbach, Friedrich-Ludwig-Weidig-Stadt","type":"Stadt"},"district":{"key":"06440","name":"Wetteraukreis","type":"Landkreis"},"federalState":{"key":"06","name":"Hessen"}},{"name":"Virginia Str.","postalCode":"35510","locality":"Butzbach","municipality":{"key":"06440005","name":"Butzbach, Friedrich-Ludwig-Weidig-Stadt","type":"Stadt"},"district":{"key":"06440","name":"Wetteraukreis","type":"Landkreis"},"federalState":{"key":"06","name":"Hessen"}},{"name":"Vogelsang","postalCode":"35510","locality":"Butzbach","municipality":{"key":"06440005","name":"Butzbach, Friedrich-Ludwig-Weidig-Stadt","type":"Stadt"},"district":{"key":"06440","name":"Wetteraukreis","type":"Landkreis"},"federalState":{"key":"06","name":"Hessen"}},{"name":"Vordergasse","postalCode":"35510","locality":"Butzbach","municipality":{"key":"06440005","name":"Butzbach, Friedrich-Ludwig-Weidig-Stadt","type":"Stadt"},"district":{"key":"06440","name":"Wetteraukreis","type":"Landkreis"},"federalState":{"key":"06","name":"Hessen"}},{"name":"Vorderweide","postalCode":"35510","locality":"Butzbach","municipality":{"key":"06440005","name":"Butzbach, Friedrich-Ludwig-Weidig-Stadt","type":"Stadt"},"district":{"key":"06440","name":"Wetteraukreis","type":"Landkreis"},"federalState":{"key":"06","name":"Hessen"}},{"name":"Wacholderweg","postalCode":"35510","locality":"Butzbach","municipality":{"key":"06440005","name":"Butzbach, Friedrich-Ludwig-Weidig-Stadt","type":"Stadt"},"district":{"key":"06440","name":"Wetteraukreis","type":"Landkreis"},"federalState":{"key":"06","name":"Hessen"}},{"name":"Wächtersgang","postalCode":"35510","locality":"Butzbach","municipality":{"key":"06440005","name":"Butzbach, Friedrich-Ludwig-Weidig-Stadt","type":"Stadt"},"district":{"key":"06440","name":"Wetteraukreis","type":"Landkreis"},"federalState":{"key":"06","name":"Hessen"}},{"name":"Wächtersgasse","postalCode":"35510","locality":"Butzbach","municipality":{"key":"06440005","name":"Butzbach, Friedrich-Ludwig-Weidig-Stadt","type":"Stadt"},"district":{"key":"06440","name":"Wetteraukreis","type":"Landkreis"},"federalState":{"key":"06","name":"Hessen"}},{"name":"Waldstr.","postalCode":"35510","locality":"Butzbach","municipality":{"key":"06440005","name":"Butzbach, Friedrich-Ludwig-Weidig-Stadt","type":"Stadt"},"district":{"key":"06440","name":"Wetteraukreis","type":"Landkreis"},"federalState":{"key":"06","name":"Hessen"}},{"name":"Wallgasse","postalCode":"35510","locality":"Butzbach","municipality":{"key":"06440005","name":"Butzbach, Friedrich-Ludwig-Weidig-Stadt","type":"Stadt"},"district":{"key":"06440","name":"Wetteraukreis","type":"Landkreis"},"federalState":{"key":"06","name":"Hessen"}},{"name":"Wander- + Radweg","postalCode":"35510","locality":"Butzbach","municipality":{"key":"06440005","name":"Butzbach, Friedrich-Ludwig-Weidig-Stadt","type":"Stadt"},"district":{"key":"06440","name":"Wetteraukreis","type":"Landkreis"},"federalState":{"key":"06","name":"Hessen"}},{"name":"Weber-Schneise","postalCode":"35510","locality":"Butzbach","municipality":{"key":"06440005","name":"Butzbach, Friedrich-Ludwig-Weidig-Stadt","type":"Stadt"},"district":{"key":"06440","name":"Wetteraukreis","type":"Landkreis"},"federalState":{"key":"06","name":"Hessen"}},{"name":"Weidbrunnenstr.","postalCode":"35510","locality":"Butzbach","municipality":{"key":"06440005","name":"Butzbach, Friedrich-Ludwig-Weidig-Stadt","type":"Stadt"},"district":{"key":"06440","name":"Wetteraukreis","type":"Landkreis"},"federalState":{"key":"06","name":"Hessen"}},{"name":"Weidengasse","postalCode":"35510","locality":"Butzbach","municipality":{"key":"06440005","name":"Butzbach, Friedrich-Ludwig-Weidig-Stadt","type":"Stadt"},"district":{"key":"06440","name":"Wetteraukreis","type":"Landkreis"},"federalState":{"key":"06","name":"Hessen"}},{"name":"Weidig-Schneise","postalCode":"35510","locality":"Butzbach","municipality":{"key":"06440005","name":"Butzbach, Friedrich-Ludwig-Weidig-Stadt","type":"Stadt"},"district":{"key":"06440","name":"Wetteraukreis","type":"Landkreis"},"federalState":{"key":"06","name":"Hessen"}},{"name":"Weidigstr.","postalCode":"35510","locality":"Butzbach","municipality":{"key":"06440005","name":"Butzbach, Friedrich-Ludwig-Weidig-Stadt","type":"Stadt"},"district":{"key":"06440","name":"Wetteraukreis","type":"Landkreis"},"federalState":{"key":"06","name":"Hessen"}},{"name":"Weiherstr.","postalCode":"35510","locality":"Butzbach","municipality":{"key":"06440005","name":"Butzbach, Friedrich-Ludwig-Weidig-Stadt","type":"Stadt"},"district":{"key":"06440","name":"Wetteraukreis","type":"Landkreis"},"federalState":{"key":"06","name":"Hessen"}},{"name":"Weingartenstr.","postalCode":"35510","locality":"Butzbach","municipality":{"key":"06440005","name":"Butzbach, Friedrich-Ludwig-Weidig-Stadt","type":"Stadt"},"district":{"key":"06440","name":"Wetteraukreis","type":"Landkreis"},"federalState":{"key":"06","name":"Hessen"}},{"name":"Weinstr.","postalCode":"35510","locality":"Butzbach","municipality":{"key":"06440005","name":"Butzbach, Friedrich-Ludwig-Weidig-Stadt","type":"Stadt"},"district":{"key":"06440","name":"Wetteraukreis","type":"Landkreis"},"federalState":{"key":"06","name":"Hessen"}},{"name":"Weiseler Str.","postalCode":"35510","locality":"Butzbach","municipality":{"key":"06440005","name":"Butzbach, Friedrich-Ludwig-Weidig-Stadt","type":"Stadt"},"district":{"key":"06440","name":"Wetteraukreis","type":"Landkreis"},"federalState":{"key":"06","name":"Hessen"}},{"name":"Weizgang","postalCode":"35510","locality":"Butzbach","municipality":{"key":"06440005","name":"Butzbach, Friedrich-Ludwig-Weidig-Stadt","type":"Stadt"},"district":{"key":"06440","name":"Wetteraukreis","type":"Landkreis"},"federalState":{"key":"06","name":"Hessen"}},{"name":"Wellbodenweg","postalCode":"35510","locality":"Butzbach","municipality":{"key":"06440005","name":"Butzbach, Friedrich-Ludwig-Weidig-Stadt","type":"Stadt"},"district":{"key":"06440","name":"Wetteraukreis","type":"Landkreis"},"federalState":{"key":"06","name":"Hessen"}},{"name":"Wellerweg","postalCode":"35510","locality":"Butzbach","municipality":{"key":"06440005","name":"Butzbach, Friedrich-Ludwig-Weidig-Stadt","type":"Stadt"},"district":{"key":"06440","name":"Wetteraukreis","type":"Landkreis"},"federalState":{"key":"06","name":"Hessen"}},{"name":"Wendelgasse","postalCode":"35510","locality":"Butzbach","municipality":{"key":"06440005","name":"Butzbach, Friedrich-Ludwig-Weidig-Stadt","type":"Stadt"},"district":{"key":"06440","name":"Wetteraukreis","type":"Landkreis"},"federalState":{"key":"06","name":"Hessen"}},{"name":"Wendelin-Steinbach-Weg","postalCode":"35510","locality":"Butzbach","municipality":{"key":"06440005","name":"Butzbach, Friedrich-Ludwig-Weidig-Stadt","type":"Stadt"},"district":{"key":"06440","name":"Wetteraukreis","type":"Landkreis"},"federalState":{"key":"06","name":"Hessen"}},{"name":"Wernborner-Weg","postalCode":"35510","locality":"Butzbach","municipality":{"key":"06440005","name":"Butzbach, Friedrich-Ludwig-Weidig-Stadt","type":"Stadt"},"district":{"key":"06440","name":"Wetteraukreis","type":"Landkreis"},"federalState":{"key":"06","name":"Hessen"}},{"name":"Werner-von-Siemens-Str.","postalCode":"35510","locality":"Butzbach","municipality":{"key":"06440005","name":"Butzbach, Friedrich-Ludwig-Weidig-Stadt","type":"Stadt"},"district":{"key":"06440","name":"Wetteraukreis","type":"Landkreis"},"federalState":{"key":"06","name":"Hessen"}},{"name":"Wetterstr.","postalCode":"35510","locality":"Butzbach","municipality":{"key":"06440005","name":"Butzbach, Friedrich-Ludwig-Weidig-Stadt","type":"Stadt"},"district":{"key":"06440","name":"Wetteraukreis","type":"Landkreis"},"federalState":{"key":"06","name":"Hessen"}},{"name":"Wetzlarer Str.","postalCode":"35510","locality":"Butzbach","municipality":{"key":"06440005","name":"Butzbach, Friedrich-Ludwig-Weidig-Stadt","type":"Stadt"},"district":{"key":"06440","name":"Wetteraukreis","type":"Landkreis"},"federalState":{"key":"06","name":"Hessen"}},{"name":"Wiesengrund","postalCode":"35510","locality":"Butzbach","municipality":{"key":"06440005","name":"Butzbach, Friedrich-Ludwig-Weidig-Stadt","type":"Stadt"},"district":{"key":"06440","name":"Wetteraukreis","type":"Landkreis"},"federalState":{"key":"06","name":"Hessen"}},{"name":"Wiesenstr.","postalCode":"35510","locality":"Butzbach","municipality":{"key":"06440005","name":"Butzbach, Friedrich-Ludwig-Weidig-Stadt","type":"Stadt"},"district":{"key":"06440","name":"Wetteraukreis","type":"Landkreis"},"federalState":{"key":"06","name":"Hessen"}},{"name":"Wilhelm-Joutz-Str.","postalCode":"35510","locality":"Butzbach","municipality":{"key":"06440005","name":"Butzbach, Friedrich-Ludwig-Weidig-Stadt","type":"Stadt"},"district":{"key":"06440","name":"Wetteraukreis","type":"Landkreis"},"federalState":{"key":"06","name":"Hessen"}},{"name":"Wilhelm-Leuschner-Str.","postalCode":"35510","locality":"Butzbach","municipality":{"key":"06440005","name":"Butzbach, Friedrich-Ludwig-Weidig-Stadt","type":"Stadt"},"district":{"key":"06440","name":"Wetteraukreis","type":"Landkreis"},"federalState":{"key":"06","name":"Hessen"}},{"name":"Wilhem-Braubach-Str.","postalCode":"35510","locality":"Butzbach","municipality":{"key":"06440005","name":"Butzbach, Friedrich-Ludwig-Weidig-Stadt","type":"Stadt"},"district":{"key":"06440","name":"Wetteraukreis","type":"Landkreis"},"federalState":{"key":"06","name":"Hessen"}},{"name":"Windhofstr.","postalCode":"35510","locality":"Butzbach","municipality":{"key":"06440005","name":"Butzbach, Friedrich-Ludwig-Weidig-Stadt","type":"Stadt"},"district":{"key":"06440","name":"Wetteraukreis","type":"Landkreis"},"federalState":{"key":"06","name":"Hessen"}},{"name":"Wingertstr.","postalCode":"35510","locality":"Butzbach","municipality":{"key":"06440005","name":"Butzbach, Friedrich-Ludwig-Weidig-Stadt","type":"Stadt"},"district":{"key":"06440","name":"Wetteraukreis","type":"Landkreis"},"federalState":{"key":"06","name":"Hessen"}},{"name":"Wolfskehl","postalCode":"35510","locality":"Butzbach","municipality":{"key":"06440005","name":"Butzbach, Friedrich-Ludwig-Weidig-Stadt","type":"Stadt"},"district":{"key":"06440","name":"Wetteraukreis","type":"Landkreis"},"federalState":{"key":"06","name":"Hessen"}},{"name":"Wörnergasse","postalCode":"35510","locality":"Butzbach","municipality":{"key":"06440005","name":"Butzbach, Friedrich-Ludwig-Weidig-Stadt","type":"Stadt"},"district":{"key":"06440","name":"Wetteraukreis","type":"Landkreis"},"federalState":{"key":"06","name":"Hessen"}},{"name":"Zacharias-Rosbach-Weg","postalCode":"35510","locality":"Butzbach","municipality":{"key":"06440005","name":"Butzbach, Friedrich-Ludwig-Weidig-Stadt","type":"Stadt"},"district":{"key":"06440","name":"Wetteraukreis","type":"Landkreis"},"federalState":{"key":"06","name":"Hessen"}},{"name":"Ziegelgärten","postalCode":"35510","locality":"Butzbach","municipality":{"key":"06440005","name":"Butzbach, Friedrich-Ludwig-Weidig-Stadt","type":"Stadt"},"district":{"key":"06440","name":"Wetteraukreis","type":"Landkreis"},"federalState":{"key":"06","name":"Hessen"}},{"name":"Ziegenberger Pfad","postalCode":"35510","locality":"Butzbach","municipality":{"key":"06440005","name":"Butzbach, Friedrich-Ludwig-Weidig-Stadt","type":"Stadt"},"district":{"key":"06440","name":"Wetteraukreis","type":"Landkreis"},"federalState":{"key":"06","name":"Hessen"}},{"name":"Ziegenberger - Weg","postalCode":"35510","locality":"Butzbach","municipality":{"key":"06440005","name":"Butzbach, Friedrich-Ludwig-Weidig-Stadt","type":"Stadt"},"district":{"key":"06440","name":"Wetteraukreis","type":"Landkreis"},"federalState":{"key":"06","name":"Hessen"}},{"name":"Zimmerplatzschneise","postalCode":"35510","locality":"Butzbach","municipality":{"key":"06440005","name":"Butzbach, Friedrich-Ludwig-Weidig-Stadt","type":"Stadt"},"district":{"key":"06440","name":"Wetteraukreis","type":"Landkreis"},"federalState":{"key":"06","name":"Hessen"}},{"name":"Zipfenweg","postalCode":"35510","locality":"Butzbach","municipality":{"key":"06440005","name":"Butzbach, Friedrich-Ludwig-Weidig-Stadt","type":"Stadt"},"district":{"key":"06440","name":"Wetteraukreis","type":"Landkreis"},"federalState":{"key":"06","name":"Hessen"}},{"name":"Zum Bahnhof","postalCode":"35510","locality":"Butzbach","municipality":{"key":"06440005","name":"Butzbach, Friedrich-Ludwig-Weidig-Stadt","type":"Stadt"},"district":{"key":"06440","name":"Wetteraukreis","type":"Landkreis"},"federalState":{"key":"06","name":"Hessen"}},{"name":"Zum Hausbergturm","postalCode":"35510","locality":"Butzbach","municipality":{"key":"06440005","name":"Butzbach, Friedrich-Ludwig-Weidig-Stadt","type":"Stadt"},"district":{"key":"06440","name":"Wetteraukreis","type":"Landkreis"},"federalState":{"key":"06","name":"Hessen"}},{"name":"Zum Oberwerk","postalCode":"35510","locality":"Butzbach","municipality":{"key":"06440005","name":"Butzbach, Friedrich-Ludwig-Weidig-Stadt","type":"Stadt"},"district":{"key":"06440","name":"Wetteraukreis","type":"Landkreis"},"federalState":{"key":"06","name":"Hessen"}},{"name":"Zum Pfahlgraben","postalCode":"35510","locality":"Butzbach","municipality":{"key":"06440005","name":"Butzbach, Friedrich-Ludwig-Weidig-Stadt","type":"Stadt"},"district":{"key":"06440","name":"Wetteraukreis","type":"Landkreis"},"federalState":{"key":"06","name":"Hessen"}},{"name":"Zum Raupenborn","postalCode":"35510","locality":"Butzbach","municipality":{"key":"06440005","name":"Butzbach, Friedrich-Ludwig-Weidig-Stadt","type":"Stadt"},"district":{"key":"06440","name":"Wetteraukreis","type":"Landkreis"},"federalState":{"key":"06","name":"Hessen"}},{"name":"Zum Struthwald","postalCode":"35510","locality":"Butzbach","municipality":{"key":"06440005","name":"Butzbach, Friedrich-Ludwig-Weidig-Stadt","type":"Stadt"},"district":{"key":"06440","name":"Wetteraukreis","type":"Landkreis"},"federalState":{"key":"06","name":"Hessen"}},{"name":"Zum Weißen Stein","postalCode":"35510","locality":"Butzbach","municipality":{"key":"06440005","name":"Butzbach, Friedrich-Ludwig-Weidig-Stadt","type":"Stadt"},"district":{"key":"06440","name":"Wetteraukreis","type":"Landkreis"},"federalState":{"key":"06","name":"Hessen"}},{"name":"Zur Alten Tongrube","postalCode":"35510","locality":"Butzbach","municipality":{"key":"06440005","name":"Butzbach, Friedrich-Ludwig-Weidig-Stadt","type":"Stadt"},"district":{"key":"06440","name":"Wetteraukreis","type":"Landkreis"},"federalState":{"key":"06","name":"Hessen"}},{"name":"Zur Froschau","postalCode":"35510","locality":"Butzbach","municipality":{"key":"06440005","name":"Butzbach, Friedrich-Ludwig-Weidig-Stadt","type":"Stadt"},"district":{"key":"06440","name":"Wetteraukreis","type":"Landkreis"},"federalState":{"key":"06","name":"Hessen"}},{"name":"Zur Kläranlage","postalCode":"35510","locality":"Butzbach","municipality":{"key":"06440005","name":"Butzbach, Friedrich-Ludwig-Weidig-Stadt","type":"Stadt"},"district":{"key":"06440","name":"Wetteraukreis","type":"Landkreis"},"federalState":{"key":"06","name":"Hessen"}},{"name":"Zur Martinskirche","postalCode":"35510","locality":"Butzbach","municipality":{"key":"06440005","name":"Butzbach, Friedrich-Ludwig-Weidig-Stadt","type":"Stadt"},"district":{"key":"06440","name":"Wetteraukreis","type":"Landkreis"},"federalState":{"key":"06","name":"Hessen"}},{"name":"Zur Pfingstweide","postalCode":"35510","locality":"Butzbach","municipality":{"key":"06440005","name":"Butzbach, Friedrich-Ludwig-Weidig-Stadt","type":"Stadt"},"district":{"key":"06440","name":"Wetteraukreis","type":"Landkreis"},"federalState":{"key":"06","name":"Hessen"}},{"name":"Zur Weinstr.","postalCode":"35510","locality":"Butzbach","municipality":{"key":"06440005","name":"Butzbach, Friedrich-Ludwig-Weidig-Stadt","type":"Stadt"},"district":{"key":"06440","name":"Wetteraukreis","type":"Landkreis"},"federalState":{"key":"06","name":"Hessen"}},{"name":"Zwerchgasse","postalCode":"35510","locality":"Butzbach","municipality":{"key":"06440005","name":"Butzbach, Friedrich-Ludwig-Weidig-Stadt","type":"Stadt"},"district":{"key":"06440","name":"Wetteraukreis","type":"Landkreis"},"federalState":{"key":"06","name":"Hessen"}},{"name":"Äppelweg","postalCode":"35510","locality":"Butzbach","municipality":{"key":"06440005","name":"Butzbach, Friedrich-Ludwig-Weidig-Stadt","type":"Stadt"},"district":{"key":"06440","name":"Wetteraukreis","type":"Landkreis"},"federalState":{"key":"06","name":"Hessen"}},]