[{"name":"Allee","postalCode":"08223","locality":"Falkenstein/Vogtland","municipality":{"key":"14523120","name":"Falkenstein/Vogtl., Stadt","type":"Stadt"},"district":{"key":"14523","name":"Vogtlandkreis","type":"Landkreis"},"federalState":{"key":"14","name":"Sachsen"}},{"name":"Alte Falkensteiner Str.","postalCode":"08239","locality":"Falkenstein/Vogtland","municipality":{"key":"14523120","name":"Falkenstein/Vogtl., Stadt","type":"Stadt"},"district":{"key":"14523","name":"Vogtlandkreis","type":"Landkreis"},"federalState":{"key":"14","name":"Sachsen"}},{"name":"Am alten Krankenhaus","postalCode":"08223","locality":"Falkenstein/Vogtland","municipality":{"key":"14523120","name":"Falkenstein/Vogtl., Stadt","type":"Stadt"},"district":{"key":"14523","name":"Vogtlandkreis","type":"Landkreis"},"federalState":{"key":"14","name":"Sachsen"}},{"name":"Am Anger","postalCode":"08223","locality":"Falkenstein/Vogtland","municipality":{"key":"14523120","name":"Falkenstein/Vogtl., Stadt","type":"Stadt"},"district":{"key":"14523","name":"Vogtlandkreis","type":"Landkreis"},"federalState":{"key":"14","name":"Sachsen"}},{"name":"Am Brand","postalCode":"08223","locality":"Falkenstein/Vogtland","municipality":{"key":"14523120","name":"Falkenstein/Vogtl., Stadt","type":"Stadt"},"district":{"key":"14523","name":"Vogtlandkreis","type":"Landkreis"},"federalState":{"key":"14","name":"Sachsen"}},{"name":"Am Butterberg","postalCode":"08239","locality":"Falkenstein/Vogtland","municipality":{"key":"14523120","name":"Falkenstein/Vogtl., Stadt","type":"Stadt"},"district":{"key":"14523","name":"Vogtlandkreis","type":"Landkreis"},"federalState":{"key":"14","name":"Sachsen"}},{"name":"Am Datacenter-Park","postalCode":"08223","locality":"Falkenstein/Vogtland","municipality":{"key":"14523120","name":"Falkenstein/Vogtl., Stadt","type":"Stadt"},"district":{"key":"14523","name":"Vogtlandkreis","type":"Landkreis"},"federalState":{"key":"14","name":"Sachsen"}},{"name":"Am Harzberg","postalCode":"08239","locality":"Falkenstein/Vogtland","municipality":{"key":"14523120","name":"Falkenstein/Vogtl., Stadt","type":"Stadt"},"district":{"key":"14523","name":"Vogtlandkreis","type":"Landkreis"},"federalState":{"key":"14","name":"Sachsen"}},{"name":"Am Lohberg","postalCode":"08223","locality":"Falkenstein/Vogtland","municipality":{"key":"14523120","name":"Falkenstein/Vogtl., Stadt","type":"Stadt"},"district":{"key":"14523","name":"Vogtlandkreis","type":"Landkreis"},"federalState":{"key":"14","name":"Sachsen"}},{"name":"Am Markt","postalCode":"08223","locality":"Falkenstein/Vogtland","municipality":{"key":"14523120","name":"Falkenstein/Vogtl., Stadt","type":"Stadt"},"district":{"key":"14523","name":"Vogtlandkreis","type":"Landkreis"},"federalState":{"key":"14","name":"Sachsen"}},{"name":"Am Pfarrlehn","postalCode":"08223","locality":"Falkenstein/Vogtland","municipality":{"key":"14523120","name":"Falkenstein/Vogtl., Stadt","type":"Stadt"},"district":{"key":"14523","name":"Vogtlandkreis","type":"Landkreis"},"federalState":{"key":"14","name":"Sachsen"}},{"name":"Am Schafacker","postalCode":"08223","locality":"Falkenstein/Vogtland","municipality":{"key":"14523120","name":"Falkenstein/Vogtl., Stadt","type":"Stadt"},"district":{"key":"14523","name":"Vogtlandkreis","type":"Landkreis"},"federalState":{"key":"14","name":"Sachsen"}},{"name":"Am Sportplatz","postalCode":"08223","locality":"Falkenstein/Vogtland","municipality":{"key":"14523120","name":"Falkenstein/Vogtl., Stadt","type":"Stadt"},"district":{"key":"14523","name":"Vogtlandkreis","type":"Landkreis"},"federalState":{"key":"14","name":"Sachsen"}},{"name":"Am Teich","postalCode":"08223","locality":"Falkenstein/Vogtland","municipality":{"key":"14523120","name":"Falkenstein/Vogtl., Stadt","type":"Stadt"},"district":{"key":"14523","name":"Vogtlandkreis","type":"Landkreis"},"federalState":{"key":"14","name":"Sachsen"}},{"name":"Amtsstr.","postalCode":"08223","locality":"Falkenstein/Vogtland","municipality":{"key":"14523120","name":"Falkenstein/Vogtl., Stadt","type":"Stadt"},"district":{"key":"14523","name":"Vogtlandkreis","type":"Landkreis"},"federalState":{"key":"14","name":"Sachsen"}},{"name":"Am Wald","postalCode":"08223","locality":"Falkenstein/Vogtland","municipality":{"key":"14523120","name":"Falkenstein/Vogtl., Stadt","type":"Stadt"},"district":{"key":"14523","name":"Vogtlandkreis","type":"Landkreis"},"federalState":{"key":"14","name":"Sachsen"}},{"name":"Am Wehr","postalCode":"08239","locality":"Falkenstein/Vogtland","municipality":{"key":"14523120","name":"Falkenstein/Vogtl., Stadt","type":"Stadt"},"district":{"key":"14523","name":"Vogtlandkreis","type":"Landkreis"},"federalState":{"key":"14","name":"Sachsen"}},{"name":"Am Winkel","postalCode":"08239","locality":"Falkenstein/Vogtland","municipality":{"key":"14523120","name":"Falkenstein/Vogtl., Stadt","type":"Stadt"},"district":{"key":"14523","name":"Vogtlandkreis","type":"Landkreis"},"federalState":{"key":"14","name":"Sachsen"}},{"name":"An der Götzenwiese","postalCode":"08223","locality":"Falkenstein/Vogtland","municipality":{"key":"14523120","name":"Falkenstein/Vogtl., Stadt","type":"Stadt"},"district":{"key":"14523","name":"Vogtlandkreis","type":"Landkreis"},"federalState":{"key":"14","name":"Sachsen"}},{"name":"An der Talsperre","postalCode":"08223","locality":"Falkenstein/Vogtland","municipality":{"key":"14523120","name":"Falkenstein/Vogtl., Stadt","type":"Stadt"},"district":{"key":"14523","name":"Vogtlandkreis","type":"Landkreis"},"federalState":{"key":"14","name":"Sachsen"}},{"name":"An der Zeidelweide","postalCode":"08223","locality":"Falkenstein/Vogtland","municipality":{"key":"14523120","name":"Falkenstein/Vogtl., Stadt","type":"Stadt"},"district":{"key":"14523","name":"Vogtlandkreis","type":"Landkreis"},"federalState":{"key":"14","name":"Sachsen"}},{"name":"Anton-Günther-Str.","postalCode":"08223","locality":"Falkenstein/Vogtland","municipality":{"key":"14523120","name":"Falkenstein/Vogtl., Stadt","type":"Stadt"},"district":{"key":"14523","name":"Vogtlandkreis","type":"Landkreis"},"federalState":{"key":"14","name":"Sachsen"}},{"name":"Auerbacher Str.","postalCode":"08223","locality":"Falkenstein/Vogtland","municipality":{"key":"14523120","name":"Falkenstein/Vogtl., Stadt","type":"Stadt"},"district":{"key":"14523","name":"Vogtlandkreis","type":"Landkreis"},"federalState":{"key":"14","name":"Sachsen"}},{"name":"August-Bebel-Str.","postalCode":"08223","locality":"Falkenstein/Vogtland","municipality":{"key":"14523120","name":"Falkenstein/Vogtl., Stadt","type":"Stadt"},"district":{"key":"14523","name":"Vogtlandkreis","type":"Landkreis"},"federalState":{"key":"14","name":"Sachsen"}},{"name":"Bahnhofstr.","postalCode":"08223","locality":"Falkenstein/Vogtland","municipality":{"key":"14523120","name":"Falkenstein/Vogtl., Stadt","type":"Stadt"},"district":{"key":"14523","name":"Vogtlandkreis","type":"Landkreis"},"federalState":{"key":"14","name":"Sachsen"}},{"name":"Beethovenstr.","postalCode":"08223","locality":"Falkenstein/Vogtland","municipality":{"key":"14523120","name":"Falkenstein/Vogtl., Stadt","type":"Stadt"},"district":{"key":"14523","name":"Vogtlandkreis","type":"Landkreis"},"federalState":{"key":"14","name":"Sachsen"}},{"name":"Bleichweg","postalCode":"08223","locality":"Falkenstein/Vogtland","municipality":{"key":"14523120","name":"Falkenstein/Vogtl., Stadt","type":"Stadt"},"district":{"key":"14523","name":"Vogtlandkreis","type":"Landkreis"},"federalState":{"key":"14","name":"Sachsen"}},{"name":"Brandstr.","postalCode":"08223","locality":"Falkenstein/Vogtland","municipality":{"key":"14523120","name":"Falkenstein/Vogtl., Stadt","type":"Stadt"},"district":{"key":"14523","name":"Vogtlandkreis","type":"Landkreis"},"federalState":{"key":"14","name":"Sachsen"}},{"name":"Brüderstr.","postalCode":"08223","locality":"Falkenstein/Vogtland","municipality":{"key":"14523120","name":"Falkenstein/Vogtl., Stadt","type":"Stadt"},"district":{"key":"14523","name":"Vogtlandkreis","type":"Landkreis"},"federalState":{"key":"14","name":"Sachsen"}},{"name":"Butterbergweg","postalCode":"08239","locality":"Falkenstein/Vogtland","municipality":{"key":"14523120","name":"Falkenstein/Vogtl., Stadt","type":"Stadt"},"district":{"key":"14523","name":"Vogtlandkreis","type":"Landkreis"},"federalState":{"key":"14","name":"Sachsen"}},{"name":"Carolaplatz","postalCode":"08223","locality":"Falkenstein/Vogtland","municipality":{"key":"14523120","name":"Falkenstein/Vogtl., Stadt","type":"Stadt"},"district":{"key":"14523","name":"Vogtlandkreis","type":"Landkreis"},"federalState":{"key":"14","name":"Sachsen"}},{"name":"Clara-Zetkin-Str.","postalCode":"08223","locality":"Falkenstein/Vogtland","municipality":{"key":"14523120","name":"Falkenstein/Vogtl., Stadt","type":"Stadt"},"district":{"key":"14523","name":"Vogtlandkreis","type":"Landkreis"},"federalState":{"key":"14","name":"Sachsen"}},{"name":"Damaschkestr.","postalCode":"08223","locality":"Falkenstein/Vogtland","municipality":{"key":"14523120","name":"Falkenstein/Vogtl., Stadt","type":"Stadt"},"district":{"key":"14523","name":"Vogtlandkreis","type":"Landkreis"},"federalState":{"key":"14","name":"Sachsen"}},{"name":"Dorfstädter Str.","postalCode":"08223","locality":"Falkenstein/Vogtland","municipality":{"key":"14523120","name":"Falkenstein/Vogtl., Stadt","type":"Stadt"},"district":{"key":"14523","name":"Vogtlandkreis","type":"Landkreis"},"federalState":{"key":"14","name":"Sachsen"}},{"name":"Dr.-Robert-Koch-Str.","postalCode":"08223","locality":"Falkenstein/Vogtland","municipality":{"key":"14523120","name":"Falkenstein/Vogtl., Stadt","type":"Stadt"},"district":{"key":"14523","name":"Vogtlandkreis","type":"Landkreis"},"federalState":{"key":"14","name":"Sachsen"}},{"name":"Dr.-Wilhelm-Külz-Str.","postalCode":"08223","locality":"Falkenstein/Vogtland","municipality":{"key":"14523120","name":"Falkenstein/Vogtl., Stadt","type":"Stadt"},"district":{"key":"14523","name":"Vogtlandkreis","type":"Landkreis"},"federalState":{"key":"14","name":"Sachsen"}},{"name":"Eisenbahnstr.","postalCode":"08223","locality":"Falkenstein/Vogtland","municipality":{"key":"14523120","name":"Falkenstein/Vogtl., Stadt","type":"Stadt"},"district":{"key":"14523","name":"Vogtlandkreis","type":"Landkreis"},"federalState":{"key":"14","name":"Sachsen"}},{"name":"Ellefelder Str.","postalCode":"08223","locality":"Falkenstein/Vogtland","municipality":{"key":"14523120","name":"Falkenstein/Vogtl., Stadt","type":"Stadt"},"district":{"key":"14523","name":"Vogtlandkreis","type":"Landkreis"},"federalState":{"key":"14","name":"Sachsen"}},{"name":"Falkensteiner Str.","postalCode":"08239","locality":"Falkenstein/Vogtland","municipality":{"key":"14523120","name":"Falkenstein/Vogtl., Stadt","type":"Stadt"},"district":{"key":"14523","name":"Vogtlandkreis","type":"Landkreis"},"federalState":{"key":"14","name":"Sachsen"}},{"name":"Feldstr.","postalCode":"08223","locality":"Falkenstein/Vogtland","municipality":{"key":"14523120","name":"Falkenstein/Vogtl., Stadt","type":"Stadt"},"district":{"key":"14523","name":"Vogtlandkreis","type":"Landkreis"},"federalState":{"key":"14","name":"Sachsen"}},{"name":"Ferdinand-Lassalle-Str.","postalCode":"08223","locality":"Falkenstein/Vogtland","municipality":{"key":"14523120","name":"Falkenstein/Vogtl., Stadt","type":"Stadt"},"district":{"key":"14523","name":"Vogtlandkreis","type":"Landkreis"},"federalState":{"key":"14","name":"Sachsen"}},{"name":"Friedrich-Engels-Str.","postalCode":"08223","locality":"Falkenstein/Vogtland","municipality":{"key":"14523120","name":"Falkenstein/Vogtl., Stadt","type":"Stadt"},"district":{"key":"14523","name":"Vogtlandkreis","type":"Landkreis"},"federalState":{"key":"14","name":"Sachsen"}},{"name":"Gartenstr.","postalCode":"08223","locality":"Falkenstein/Vogtland","municipality":{"key":"14523120","name":"Falkenstein/Vogtl., Stadt","type":"Stadt"},"district":{"key":"14523","name":"Vogtlandkreis","type":"Landkreis"},"federalState":{"key":"14","name":"Sachsen"}},{"name":"Gewerbering","postalCode":"08223","locality":"Falkenstein/Vogtland","municipality":{"key":"14523120","name":"Falkenstein/Vogtl., Stadt","type":"Stadt"},"district":{"key":"14523","name":"Vogtlandkreis","type":"Landkreis"},"federalState":{"key":"14","name":"Sachsen"}},{"name":"Goethestr.","postalCode":"08223","locality":"Falkenstein/Vogtland","municipality":{"key":"14523120","name":"Falkenstein/Vogtl., Stadt","type":"Stadt"},"district":{"key":"14523","name":"Vogtlandkreis","type":"Landkreis"},"federalState":{"key":"14","name":"Sachsen"}},{"name":"Grenzstr.","postalCode":"08223","locality":"Falkenstein/Vogtland","municipality":{"key":"14523120","name":"Falkenstein/Vogtl., Stadt","type":"Stadt"},"district":{"key":"14523","name":"Vogtlandkreis","type":"Landkreis"},"federalState":{"key":"14","name":"Sachsen"}},{"name":"Grünbacher Str.","postalCode":"08223","locality":"Falkenstein/Vogtland","municipality":{"key":"14523120","name":"Falkenstein/Vogtl., Stadt","type":"Stadt"},"district":{"key":"14523","name":"Vogtlandkreis","type":"Landkreis"},"federalState":{"key":"14","name":"Sachsen"}},{"name":"Grund","postalCode":"08223","locality":"Falkenstein/Vogtland","municipality":{"key":"14523120","name":"Falkenstein/Vogtl., Stadt","type":"Stadt"},"district":{"key":"14523","name":"Vogtlandkreis","type":"Landkreis"},"federalState":{"key":"14","name":"Sachsen"}},{"name":"Hammerbrücker Str.","postalCode":"08223","locality":"Falkenstein/Vogtland","municipality":{"key":"14523120","name":"Falkenstein/Vogtl., Stadt","type":"Stadt"},"district":{"key":"14523","name":"Vogtlandkreis","type":"Landkreis"},"federalState":{"key":"14","name":"Sachsen"}},{"name":"Hangweg","postalCode":"08223","locality":"Falkenstein/Vogtland","municipality":{"key":"14523120","name":"Falkenstein/Vogtl., Stadt","type":"Stadt"},"district":{"key":"14523","name":"Vogtlandkreis","type":"Landkreis"},"federalState":{"key":"14","name":"Sachsen"}},{"name":"Harzbergstr.","postalCode":"08239","locality":"Falkenstein/Vogtland","municipality":{"key":"14523120","name":"Falkenstein/Vogtl., Stadt","type":"Stadt"},"district":{"key":"14523","name":"Vogtlandkreis","type":"Landkreis"},"federalState":{"key":"14","name":"Sachsen"}},{"name":"Hauptstr.","postalCode":"08223","locality":"Falkenstein/Vogtland","municipality":{"key":"14523120","name":"Falkenstein/Vogtl., Stadt","type":"Stadt"},"district":{"key":"14523","name":"Vogtlandkreis","type":"Landkreis"},"federalState":{"key":"14","name":"Sachsen"}},{"name":"Hauptstr.","postalCode":"08239","locality":"Falkenstein/Vogtland","municipality":{"key":"14523120","name":"Falkenstein/Vogtl., Stadt","type":"Stadt"},"district":{"key":"14523","name":"Vogtlandkreis","type":"Landkreis"},"federalState":{"key":"14","name":"Sachsen"}},{"name":"Heinrich-Heine-Str.","postalCode":"08223","locality":"Falkenstein/Vogtland","municipality":{"key":"14523120","name":"Falkenstein/Vogtl., Stadt","type":"Stadt"},"district":{"key":"14523","name":"Vogtlandkreis","type":"Landkreis"},"federalState":{"key":"14","name":"Sachsen"}},{"name":"Hoher Weg","postalCode":"08223","locality":"Falkenstein/Vogtland","municipality":{"key":"14523120","name":"Falkenstein/Vogtl., Stadt","type":"Stadt"},"district":{"key":"14523","name":"Vogtlandkreis","type":"Landkreis"},"federalState":{"key":"14","name":"Sachsen"}},{"name":"Holzbrunnen","postalCode":"08223","locality":"Falkenstein/Vogtland","municipality":{"key":"14523120","name":"Falkenstein/Vogtl., Stadt","type":"Stadt"},"district":{"key":"14523","name":"Vogtlandkreis","type":"Landkreis"},"federalState":{"key":"14","name":"Sachsen"}},{"name":"Jagdhausweg","postalCode":"08223","locality":"Falkenstein/Vogtland","municipality":{"key":"14523120","name":"Falkenstein/Vogtl., Stadt","type":"Stadt"},"district":{"key":"14523","name":"Vogtlandkreis","type":"Landkreis"},"federalState":{"key":"14","name":"Sachsen"}},{"name":"Jahnplatz","postalCode":"08223","locality":"Falkenstein/Vogtland","municipality":{"key":"14523120","name":"Falkenstein/Vogtl., Stadt","type":"Stadt"},"district":{"key":"14523","name":"Vogtlandkreis","type":"Landkreis"},"federalState":{"key":"14","name":"Sachsen"}},{"name":"Käthe-Kollwitz-Str.","postalCode":"08223","locality":"Falkenstein/Vogtland","municipality":{"key":"14523120","name":"Falkenstein/Vogtl., Stadt","type":"Stadt"},"district":{"key":"14523","name":"Vogtlandkreis","type":"Landkreis"},"federalState":{"key":"14","name":"Sachsen"}},{"name":"Lauterbacher Str.","postalCode":"08223","locality":"Falkenstein/Vogtland","municipality":{"key":"14523120","name":"Falkenstein/Vogtl., Stadt","type":"Stadt"},"district":{"key":"14523","name":"Vogtlandkreis","type":"Landkreis"},"federalState":{"key":"14","name":"Sachsen"}},{"name":"Lessingstr.","postalCode":"08223","locality":"Falkenstein/Vogtland","municipality":{"key":"14523120","name":"Falkenstein/Vogtl., Stadt","type":"Stadt"},"district":{"key":"14523","name":"Vogtlandkreis","type":"Landkreis"},"federalState":{"key":"14","name":"Sachsen"}},{"name":"Lindenstr.","postalCode":"08223","locality":"Falkenstein/Vogtland","municipality":{"key":"14523120","name":"Falkenstein/Vogtl., Stadt","type":"Stadt"},"district":{"key":"14523","name":"Vogtlandkreis","type":"Landkreis"},"federalState":{"key":"14","name":"Sachsen"}},{"name":"Lochsteinweg","postalCode":"08223","locality":"Falkenstein/Vogtland","municipality":{"key":"14523120","name":"Falkenstein/Vogtl., Stadt","type":"Stadt"},"district":{"key":"14523","name":"Vogtlandkreis","type":"Landkreis"},"federalState":{"key":"14","name":"Sachsen"}},{"name":"Louis-Müller-Str.","postalCode":"08223","locality":"Falkenstein/Vogtland","municipality":{"key":"14523120","name":"Falkenstein/Vogtl., Stadt","type":"Stadt"},"district":{"key":"14523","name":"Vogtlandkreis","type":"Landkreis"},"federalState":{"key":"14","name":"Sachsen"}},{"name":"Lutherstr.","postalCode":"08223","locality":"Falkenstein/Vogtland","municipality":{"key":"14523120","name":"Falkenstein/Vogtl., Stadt","type":"Stadt"},"district":{"key":"14523","name":"Vogtlandkreis","type":"Landkreis"},"federalState":{"key":"14","name":"Sachsen"}},{"name":"Melanchthonstr.","postalCode":"08223","locality":"Falkenstein/Vogtland","municipality":{"key":"14523120","name":"Falkenstein/Vogtl., Stadt","type":"Stadt"},"district":{"key":"14523","name":"Vogtlandkreis","type":"Landkreis"},"federalState":{"key":"14","name":"Sachsen"}},{"name":"Mosenstr.","postalCode":"08223","locality":"Falkenstein/Vogtland","municipality":{"key":"14523120","name":"Falkenstein/Vogtl., Stadt","type":"Stadt"},"district":{"key":"14523","name":"Vogtlandkreis","type":"Landkreis"},"federalState":{"key":"14","name":"Sachsen"}},{"name":"Mozartstr.","postalCode":"08223","locality":"Falkenstein/Vogtland","municipality":{"key":"14523120","name":"Falkenstein/Vogtl., Stadt","type":"Stadt"},"district":{"key":"14523","name":"Vogtlandkreis","type":"Landkreis"},"federalState":{"key":"14","name":"Sachsen"}},{"name":"Mühlenweg","postalCode":"08239","locality":"Falkenstein/Vogtland","municipality":{"key":"14523120","name":"Falkenstein/Vogtl., Stadt","type":"Stadt"},"district":{"key":"14523","name":"Vogtlandkreis","type":"Landkreis"},"federalState":{"key":"14","name":"Sachsen"}},{"name":"Neue Siedlung","postalCode":"08239","locality":"Falkenstein/Vogtland","municipality":{"key":"14523120","name":"Falkenstein/Vogtl., Stadt","type":"Stadt"},"district":{"key":"14523","name":"Vogtlandkreis","type":"Landkreis"},"federalState":{"key":"14","name":"Sachsen"}},{"name":"Neustädter Str.","postalCode":"08239","locality":"Falkenstein/Vogtland","municipality":{"key":"14523120","name":"Falkenstein/Vogtl., Stadt","type":"Stadt"},"district":{"key":"14523","name":"Vogtlandkreis","type":"Landkreis"},"federalState":{"key":"14","name":"Sachsen"}},{"name":"Oberer Weg","postalCode":"08223","locality":"Falkenstein/Vogtland","municipality":{"key":"14523120","name":"Falkenstein/Vogtl., Stadt","type":"Stadt"},"district":{"key":"14523","name":"Vogtlandkreis","type":"Landkreis"},"federalState":{"key":"14","name":"Sachsen"}},{"name":"Oberlauterbacher Str.","postalCode":"08239","locality":"Falkenstein/Vogtland","municipality":{"key":"14523120","name":"Falkenstein/Vogtl., Stadt","type":"Stadt"},"district":{"key":"14523","name":"Vogtlandkreis","type":"Landkreis"},"federalState":{"key":"14","name":"Sachsen"}},{"name":"Oelsnitzer Str.","postalCode":"08223","locality":"Falkenstein/Vogtland","municipality":{"key":"14523120","name":"Falkenstein/Vogtl., Stadt","type":"Stadt"},"district":{"key":"14523","name":"Vogtlandkreis","type":"Landkreis"},"federalState":{"key":"14","name":"Sachsen"}},{"name":"Oskar-Hölzel-Str.","postalCode":"08223","locality":"Falkenstein/Vogtland","municipality":{"key":"14523120","name":"Falkenstein/Vogtl., Stadt","type":"Stadt"},"district":{"key":"14523","name":"Vogtlandkreis","type":"Landkreis"},"federalState":{"key":"14","name":"Sachsen"}},{"name":"Park Unterlauterbach","postalCode":"08239","locality":"Falkenstein/Vogtland","municipality":{"key":"14523120","name":"Falkenstein/Vogtl., Stadt","type":"Stadt"},"district":{"key":"14523","name":"Vogtlandkreis","type":"Landkreis"},"federalState":{"key":"14","name":"Sachsen"}},{"name":"Pestalozzistr.","postalCode":"08223","locality":"Falkenstein/Vogtland","municipality":{"key":"14523120","name":"Falkenstein/Vogtl., Stadt","type":"Stadt"},"district":{"key":"14523","name":"Vogtlandkreis","type":"Landkreis"},"federalState":{"key":"14","name":"Sachsen"}},{"name":"Plauensche Str.","postalCode":"08223","locality":"Falkenstein/Vogtland","municipality":{"key":"14523120","name":"Falkenstein/Vogtl., Stadt","type":"Stadt"},"district":{"key":"14523","name":"Vogtlandkreis","type":"Landkreis"},"federalState":{"key":"14","name":"Sachsen"}},{"name":"Promilleweg","postalCode":"08239","locality":"Falkenstein/Vogtland","municipality":{"key":"14523120","name":"Falkenstein/Vogtl., Stadt","type":"Stadt"},"district":{"key":"14523","name":"Vogtlandkreis","type":"Landkreis"},"federalState":{"key":"14","name":"Sachsen"}},{"name":"Rathenaustr.","postalCode":"08223","locality":"Falkenstein/Vogtland","municipality":{"key":"14523120","name":"Falkenstein/Vogtl., Stadt","type":"Stadt"},"district":{"key":"14523","name":"Vogtlandkreis","type":"Landkreis"},"federalState":{"key":"14","name":"Sachsen"}},{"name":"Reumtengrüner Str.","postalCode":"08223","locality":"Falkenstein/Vogtland","municipality":{"key":"14523120","name":"Falkenstein/Vogtl., Stadt","type":"Stadt"},"district":{"key":"14523","name":"Vogtlandkreis","type":"Landkreis"},"federalState":{"key":"14","name":"Sachsen"}},{"name":"Reumtengrüner Str.","postalCode":"08239","locality":"Falkenstein/Vogtland","municipality":{"key":"14523120","name":"Falkenstein/Vogtl., Stadt","type":"Stadt"},"district":{"key":"14523","name":"Vogtlandkreis","type":"Landkreis"},"federalState":{"key":"14","name":"Sachsen"}},{"name":"Rosa-Luxemburg-Str.","postalCode":"08223","locality":"Falkenstein/Vogtland","municipality":{"key":"14523120","name":"Falkenstein/Vogtl., Stadt","type":"Stadt"},"district":{"key":"14523","name":"Vogtlandkreis","type":"Landkreis"},"federalState":{"key":"14","name":"Sachsen"}},{"name":"Rudolf-Breitscheid-Str.","postalCode":"08223","locality":"Falkenstein/Vogtland","municipality":{"key":"14523120","name":"Falkenstein/Vogtl., Stadt","type":"Stadt"},"district":{"key":"14523","name":"Vogtlandkreis","type":"Landkreis"},"federalState":{"key":"14","name":"Sachsen"}},{"name":"Schillerstr.","postalCode":"08223","locality":"Falkenstein/Vogtland","municipality":{"key":"14523120","name":"Falkenstein/Vogtl., Stadt","type":"Stadt"},"district":{"key":"14523","name":"Vogtlandkreis","type":"Landkreis"},"federalState":{"key":"14","name":"Sachsen"}},{"name":"Schloßplatz","postalCode":"08223","locality":"Falkenstein/Vogtland","municipality":{"key":"14523120","name":"Falkenstein/Vogtl., Stadt","type":"Stadt"},"district":{"key":"14523","name":"Vogtlandkreis","type":"Landkreis"},"federalState":{"key":"14","name":"Sachsen"}},{"name":"Schloßstr.","postalCode":"08223","locality":"Falkenstein/Vogtland","municipality":{"key":"14523120","name":"Falkenstein/Vogtl., Stadt","type":"Stadt"},"district":{"key":"14523","name":"Vogtlandkreis","type":"Landkreis"},"federalState":{"key":"14","name":"Sachsen"}},{"name":"Schönauer Str.","postalCode":"08239","locality":"Falkenstein/Vogtland","municipality":{"key":"14523120","name":"Falkenstein/Vogtl., Stadt","type":"Stadt"},"district":{"key":"14523","name":"Vogtlandkreis","type":"Landkreis"},"federalState":{"key":"14","name":"Sachsen"}},{"name":"Schönauer Weg","postalCode":"08239","locality":"Falkenstein/Vogtland","municipality":{"key":"14523120","name":"Falkenstein/Vogtl., Stadt","type":"Stadt"},"district":{"key":"14523","name":"Vogtlandkreis","type":"Landkreis"},"federalState":{"key":"14","name":"Sachsen"}},{"name":"Schulstr.","postalCode":"08239","locality":"Falkenstein/Vogtland","municipality":{"key":"14523120","name":"Falkenstein/Vogtl., Stadt","type":"Stadt"},"district":{"key":"14523","name":"Vogtlandkreis","type":"Landkreis"},"federalState":{"key":"14","name":"Sachsen"}},{"name":"Siebenhitzer Weg","postalCode":"08223","locality":"Falkenstein/Vogtland","municipality":{"key":"14523120","name":"Falkenstein/Vogtl., Stadt","type":"Stadt"},"district":{"key":"14523","name":"Vogtlandkreis","type":"Landkreis"},"federalState":{"key":"14","name":"Sachsen"}},{"name":"Sportplatzweg","postalCode":"08239","locality":"Falkenstein/Vogtland","municipality":{"key":"14523120","name":"Falkenstein/Vogtl., Stadt","type":"Stadt"},"district":{"key":"14523","name":"Vogtlandkreis","type":"Landkreis"},"federalState":{"key":"14","name":"Sachsen"}},{"name":"Theodor-Körner-Str.","postalCode":"08223","locality":"Falkenstein/Vogtland","municipality":{"key":"14523120","name":"Falkenstein/Vogtl., Stadt","type":"Stadt"},"district":{"key":"14523","name":"Vogtlandkreis","type":"Landkreis"},"federalState":{"key":"14","name":"Sachsen"}},{"name":"Tiergartenpark","postalCode":"08223","locality":"Falkenstein/Vogtland","municipality":{"key":"14523120","name":"Falkenstein/Vogtl., Stadt","type":"Stadt"},"district":{"key":"14523","name":"Vogtlandkreis","type":"Landkreis"},"federalState":{"key":"14","name":"Sachsen"}},{"name":"Treuener Str.","postalCode":"08239","locality":"Falkenstein/Vogtland","municipality":{"key":"14523120","name":"Falkenstein/Vogtl., Stadt","type":"Stadt"},"district":{"key":"14523","name":"Vogtlandkreis","type":"Landkreis"},"federalState":{"key":"14","name":"Sachsen"}},{"name":"Trieber Str.","postalCode":"08239","locality":"Falkenstein/Vogtland","municipality":{"key":"14523120","name":"Falkenstein/Vogtl., Stadt","type":"Stadt"},"district":{"key":"14523","name":"Vogtlandkreis","type":"Landkreis"},"federalState":{"key":"14","name":"Sachsen"}},{"name":"Trieber Weg","postalCode":"08223","locality":"Falkenstein/Vogtland","municipality":{"key":"14523120","name":"Falkenstein/Vogtl., Stadt","type":"Stadt"},"district":{"key":"14523","name":"Vogtlandkreis","type":"Landkreis"},"federalState":{"key":"14","name":"Sachsen"}},{"name":"Trützschlerplatz","postalCode":"08223","locality":"Falkenstein/Vogtland","municipality":{"key":"14523120","name":"Falkenstein/Vogtl., Stadt","type":"Stadt"},"district":{"key":"14523","name":"Vogtlandkreis","type":"Landkreis"},"federalState":{"key":"14","name":"Sachsen"}},{"name":"Unterlauterbacher Str.","postalCode":"08239","locality":"Falkenstein/Vogtland","municipality":{"key":"14523120","name":"Falkenstein/Vogtl., Stadt","type":"Stadt"},"district":{"key":"14523","name":"Vogtlandkreis","type":"Landkreis"},"federalState":{"key":"14","name":"Sachsen"}},{"name":"Waldweg","postalCode":"08239","locality":"Falkenstein/Vogtland","municipality":{"key":"14523120","name":"Falkenstein/Vogtl., Stadt","type":"Stadt"},"district":{"key":"14523","name":"Vogtlandkreis","type":"Landkreis"},"federalState":{"key":"14","name":"Sachsen"}},{"name":"Weißmühlenweg","postalCode":"08223","locality":"Falkenstein/Vogtland","municipality":{"key":"14523120","name":"Falkenstein/Vogtl., Stadt","type":"Stadt"},"district":{"key":"14523","name":"Vogtlandkreis","type":"Landkreis"},"federalState":{"key":"14","name":"Sachsen"}},{"name":"Wenzelstr.","postalCode":"08223","locality":"Falkenstein/Vogtland","municipality":{"key":"14523120","name":"Falkenstein/Vogtl., Stadt","type":"Stadt"},"district":{"key":"14523","name":"Vogtlandkreis","type":"Landkreis"},"federalState":{"key":"14","name":"Sachsen"}},{"name":"Wiesenweg","postalCode":"08239","locality":"Falkenstein/Vogtland","municipality":{"key":"14523120","name":"Falkenstein/Vogtl., Stadt","type":"Stadt"},"district":{"key":"14523","name":"Vogtlandkreis","type":"Landkreis"},"federalState":{"key":"14","name":"Sachsen"}},{"name":"Willy-Rudert-Platz","postalCode":"08223","locality":"Falkenstein/Vogtland","municipality":{"key":"14523120","name":"Falkenstein/Vogtl., Stadt","type":"Stadt"},"district":{"key":"14523","name":"Vogtlandkreis","type":"Landkreis"},"federalState":{"key":"14","name":"Sachsen"}},{"name":"Winnweg","postalCode":"08223","locality":"Falkenstein/Vogtland","municipality":{"key":"14523120","name":"Falkenstein/Vogtl., Stadt","type":"Stadt"},"district":{"key":"14523","name":"Vogtlandkreis","type":"Landkreis"},"federalState":{"key":"14","name":"Sachsen"}},{"name":"Wohnpark am Brand","postalCode":"08223","locality":"Falkenstein/Vogtland","municipality":{"key":"14523120","name":"Falkenstein/Vogtl., Stadt","type":"Stadt"},"district":{"key":"14523","name":"Vogtlandkreis","type":"Landkreis"},"federalState":{"key":"14","name":"Sachsen"}},{"name":"Ziegengasse","postalCode":"08223","locality":"Falkenstein/Vogtland","municipality":{"key":"14523120","name":"Falkenstein/Vogtl., Stadt","type":"Stadt"},"district":{"key":"14523","name":"Vogtlandkreis","type":"Landkreis"},"federalState":{"key":"14","name":"Sachsen"}},{"name":"Zum Wendelstein","postalCode":"08223","locality":"Falkenstein/Vogtland","municipality":{"key":"14523120","name":"Falkenstein/Vogtl., Stadt","type":"Stadt"},"district":{"key":"14523","name":"Vogtlandkreis","type":"Landkreis"},"federalState":{"key":"14","name":"Sachsen"}},]