[{"name":"Ahornstr.","postalCode":"85662","locality":"Hohenbrunn","municipality":{"key":"09184129","name":"Hohenbrunn","type":"Kreisangehörige_Gemeinde"},"district":{"key":"09184","name":"München","type":"Landkreis"},"federalState":{"key":"09","name":"Bayern"}},{"name":"Am Baumgarten","postalCode":"85662","locality":"Hohenbrunn","municipality":{"key":"09184129","name":"Hohenbrunn","type":"Kreisangehörige_Gemeinde"},"district":{"key":"09184","name":"München","type":"Landkreis"},"federalState":{"key":"09","name":"Bayern"}},{"name":"Am Rothenanger","postalCode":"85521","locality":"Hohenbrunn","municipality":{"key":"09184129","name":"Hohenbrunn","type":"Kreisangehörige_Gemeinde"},"district":{"key":"09184","name":"München","type":"Landkreis"},"federalState":{"key":"09","name":"Bayern"}},{"name":"Am Schulgarten","postalCode":"85662","locality":"Hohenbrunn","municipality":{"key":"09184129","name":"Hohenbrunn","type":"Kreisangehörige_Gemeinde"},"district":{"key":"09184","name":"München","type":"Landkreis"},"federalState":{"key":"09","name":"Bayern"}},{"name":"Andreas-Geyer-Weg","postalCode":"85662","locality":"Hohenbrunn","municipality":{"key":"09184129","name":"Hohenbrunn","type":"Kreisangehörige_Gemeinde"},"district":{"key":"09184","name":"München","type":"Landkreis"},"federalState":{"key":"09","name":"Bayern"}},{"name":"Andreasstiftstr.","postalCode":"85662","locality":"Hohenbrunn","municipality":{"key":"09184129","name":"Hohenbrunn","type":"Kreisangehörige_Gemeinde"},"district":{"key":"09184","name":"München","type":"Landkreis"},"federalState":{"key":"09","name":"Bayern"}},{"name":"Asternstr.","postalCode":"85521","locality":"Hohenbrunn","municipality":{"key":"09184129","name":"Hohenbrunn","type":"Kreisangehörige_Gemeinde"},"district":{"key":"09184","name":"München","type":"Landkreis"},"federalState":{"key":"09","name":"Bayern"}},{"name":"Auenstr.","postalCode":"85521","locality":"Hohenbrunn","municipality":{"key":"09184129","name":"Hohenbrunn","type":"Kreisangehörige_Gemeinde"},"district":{"key":"09184","name":"München","type":"Landkreis"},"federalState":{"key":"09","name":"Bayern"}},{"name":"Bahnhofstr.","postalCode":"85662","locality":"Hohenbrunn","municipality":{"key":"09184129","name":"Hohenbrunn","type":"Kreisangehörige_Gemeinde"},"district":{"key":"09184","name":"München","type":"Landkreis"},"federalState":{"key":"09","name":"Bayern"}},{"name":"Birkenweg","postalCode":"85662","locality":"Hohenbrunn","municipality":{"key":"09184129","name":"Hohenbrunn","type":"Kreisangehörige_Gemeinde"},"district":{"key":"09184","name":"München","type":"Landkreis"},"federalState":{"key":"09","name":"Bayern"}},{"name":"Bogenstr.","postalCode":"85521","locality":"Hohenbrunn","municipality":{"key":"09184129","name":"Hohenbrunn","type":"Kreisangehörige_Gemeinde"},"district":{"key":"09184","name":"München","type":"Landkreis"},"federalState":{"key":"09","name":"Bayern"}},{"name":"Brennereistr.","postalCode":"85662","locality":"Hohenbrunn","municipality":{"key":"09184129","name":"Hohenbrunn","type":"Kreisangehörige_Gemeinde"},"district":{"key":"09184","name":"München","type":"Landkreis"},"federalState":{"key":"09","name":"Bayern"}},{"name":"Brunnengasse","postalCode":"85662","locality":"Hohenbrunn","municipality":{"key":"09184129","name":"Hohenbrunn","type":"Kreisangehörige_Gemeinde"},"district":{"key":"09184","name":"München","type":"Landkreis"},"federalState":{"key":"09","name":"Bayern"}},{"name":"Bussardstr.","postalCode":"85662","locality":"Hohenbrunn","municipality":{"key":"09184129","name":"Hohenbrunn","type":"Kreisangehörige_Gemeinde"},"district":{"key":"09184","name":"München","type":"Landkreis"},"federalState":{"key":"09","name":"Bayern"}},{"name":"Carl-Zeiss-Str.","postalCode":"85521","locality":"Hohenbrunn","municipality":{"key":"09184129","name":"Hohenbrunn","type":"Kreisangehörige_Gemeinde"},"district":{"key":"09184","name":"München","type":"Landkreis"},"federalState":{"key":"09","name":"Bayern"}},{"name":"Dahlienstr.","postalCode":"85521","locality":"Hohenbrunn","municipality":{"key":"09184129","name":"Hohenbrunn","type":"Kreisangehörige_Gemeinde"},"district":{"key":"09184","name":"München","type":"Landkreis"},"federalState":{"key":"09","name":"Bayern"}},{"name":"Diesterwegstr.","postalCode":"85521","locality":"Hohenbrunn","municipality":{"key":"09184129","name":"Hohenbrunn","type":"Kreisangehörige_Gemeinde"},"district":{"key":"09184","name":"München","type":"Landkreis"},"federalState":{"key":"09","name":"Bayern"}},{"name":"Dorfstr.","postalCode":"85662","locality":"Hohenbrunn","municipality":{"key":"09184129","name":"Hohenbrunn","type":"Kreisangehörige_Gemeinde"},"district":{"key":"09184","name":"München","type":"Landkreis"},"federalState":{"key":"09","name":"Bayern"}},{"name":"Eduard-Spranger-Str.","postalCode":"85521","locality":"Hohenbrunn","municipality":{"key":"09184129","name":"Hohenbrunn","type":"Kreisangehörige_Gemeinde"},"district":{"key":"09184","name":"München","type":"Landkreis"},"federalState":{"key":"09","name":"Bayern"}},{"name":"Erikastr.","postalCode":"85521","locality":"Hohenbrunn","municipality":{"key":"09184129","name":"Hohenbrunn","type":"Kreisangehörige_Gemeinde"},"district":{"key":"09184","name":"München","type":"Landkreis"},"federalState":{"key":"09","name":"Bayern"}},{"name":"Erlenstr.","postalCode":"85662","locality":"Hohenbrunn","municipality":{"key":"09184129","name":"Hohenbrunn","type":"Kreisangehörige_Gemeinde"},"district":{"key":"09184","name":"München","type":"Landkreis"},"federalState":{"key":"09","name":"Bayern"}},{"name":"Falkenstr.","postalCode":"85662","locality":"Hohenbrunn","municipality":{"key":"09184129","name":"Hohenbrunn","type":"Kreisangehörige_Gemeinde"},"district":{"key":"09184","name":"München","type":"Landkreis"},"federalState":{"key":"09","name":"Bayern"}},{"name":"Flößergasse","postalCode":"85662","locality":"Hohenbrunn","municipality":{"key":"09184129","name":"Hohenbrunn","type":"Kreisangehörige_Gemeinde"},"district":{"key":"09184","name":"München","type":"Landkreis"},"federalState":{"key":"09","name":"Bayern"}},{"name":"Forststr.","postalCode":"85521","locality":"Hohenbrunn","municipality":{"key":"09184129","name":"Hohenbrunn","type":"Kreisangehörige_Gemeinde"},"district":{"key":"09184","name":"München","type":"Landkreis"},"federalState":{"key":"09","name":"Bayern"}},{"name":"Freizeitgelände Hohenbrunn","postalCode":"85521","locality":"Hohenbrunn","municipality":{"key":"09184129","name":"Hohenbrunn","type":"Kreisangehörige_Gemeinde"},"district":{"key":"09184","name":"München","type":"Landkreis"},"federalState":{"key":"09","name":"Bayern"}},{"name":"Friedrich-Fröbel-Str.","postalCode":"85521","locality":"Hohenbrunn","municipality":{"key":"09184129","name":"Hohenbrunn","type":"Kreisangehörige_Gemeinde"},"district":{"key":"09184","name":"München","type":"Landkreis"},"federalState":{"key":"09","name":"Bayern"}},{"name":"Friedrich-Hofmann-Str.","postalCode":"85521","locality":"Hohenbrunn","municipality":{"key":"09184129","name":"Hohenbrunn","type":"Kreisangehörige_Gemeinde"},"district":{"key":"09184","name":"München","type":"Landkreis"},"federalState":{"key":"09","name":"Bayern"}},{"name":"Frühlingstr.","postalCode":"85521","locality":"Hohenbrunn","municipality":{"key":"09184129","name":"Hohenbrunn","type":"Kreisangehörige_Gemeinde"},"district":{"key":"09184","name":"München","type":"Landkreis"},"federalState":{"key":"09","name":"Bayern"}},{"name":"Georginenstr.","postalCode":"85521","locality":"Hohenbrunn","municipality":{"key":"09184129","name":"Hohenbrunn","type":"Kreisangehörige_Gemeinde"},"district":{"key":"09184","name":"München","type":"Landkreis"},"federalState":{"key":"09","name":"Bayern"}},{"name":"Georg-Kerschensteiner-Str.","postalCode":"85521","locality":"Hohenbrunn","municipality":{"key":"09184129","name":"Hohenbrunn","type":"Kreisangehörige_Gemeinde"},"district":{"key":"09184","name":"München","type":"Landkreis"},"federalState":{"key":"09","name":"Bayern"}},{"name":"Geranienstr.","postalCode":"85521","locality":"Hohenbrunn","municipality":{"key":"09184129","name":"Hohenbrunn","type":"Kreisangehörige_Gemeinde"},"district":{"key":"09184","name":"München","type":"Landkreis"},"federalState":{"key":"09","name":"Bayern"}},{"name":"Glonner Str.","postalCode":"85662","locality":"Hohenbrunn","municipality":{"key":"09184129","name":"Hohenbrunn","type":"Kreisangehörige_Gemeinde"},"district":{"key":"09184","name":"München","type":"Landkreis"},"federalState":{"key":"09","name":"Bayern"}},{"name":"Grasbrunner Geräumt","postalCode":"85662","locality":"Hohenbrunn","municipality":{"key":"09184129","name":"Hohenbrunn","type":"Kreisangehörige_Gemeinde"},"district":{"key":"09184","name":"München","type":"Landkreis"},"federalState":{"key":"09","name":"Bayern"}},{"name":"Grasbrunner Weg","postalCode":"85662","locality":"Hohenbrunn","municipality":{"key":"09184129","name":"Hohenbrunn","type":"Kreisangehörige_Gemeinde"},"district":{"key":"09184","name":"München","type":"Landkreis"},"federalState":{"key":"09","name":"Bayern"}},{"name":"Habichtstr.","postalCode":"85662","locality":"Hohenbrunn","municipality":{"key":"09184129","name":"Hohenbrunn","type":"Kreisangehörige_Gemeinde"},"district":{"key":"09184","name":"München","type":"Landkreis"},"federalState":{"key":"09","name":"Bayern"}},{"name":"Hagebuttenweg","postalCode":"85662","locality":"Hohenbrunn","municipality":{"key":"09184129","name":"Hohenbrunn","type":"Kreisangehörige_Gemeinde"},"district":{"key":"09184","name":"München","type":"Landkreis"},"federalState":{"key":"09","name":"Bayern"}},{"name":"Harthauser Geräumt","postalCode":"85662","locality":"Hohenbrunn","municipality":{"key":"09184129","name":"Hohenbrunn","type":"Kreisangehörige_Gemeinde"},"district":{"key":"09184","name":"München","type":"Landkreis"},"federalState":{"key":"09","name":"Bayern"}},{"name":"Harthauser Str.","postalCode":"85662","locality":"Hohenbrunn","municipality":{"key":"09184129","name":"Hohenbrunn","type":"Kreisangehörige_Gemeinde"},"district":{"key":"09184","name":"München","type":"Landkreis"},"federalState":{"key":"09","name":"Bayern"}},{"name":"Harthauser Weg","postalCode":"85662","locality":"Hohenbrunn","municipality":{"key":"09184129","name":"Hohenbrunn","type":"Kreisangehörige_Gemeinde"},"district":{"key":"09184","name":"München","type":"Landkreis"},"federalState":{"key":"09","name":"Bayern"}},{"name":"Hasenweg","postalCode":"85521","locality":"Hohenbrunn","municipality":{"key":"09184129","name":"Hohenbrunn","type":"Kreisangehörige_Gemeinde"},"district":{"key":"09184","name":"München","type":"Landkreis"},"federalState":{"key":"09","name":"Bayern"}},{"name":"Heckenrosenweg","postalCode":"85662","locality":"Hohenbrunn","municipality":{"key":"09184129","name":"Hohenbrunn","type":"Kreisangehörige_Gemeinde"},"district":{"key":"09184","name":"München","type":"Landkreis"},"federalState":{"key":"09","name":"Bayern"}},{"name":"Herbststr.","postalCode":"85521","locality":"Hohenbrunn","municipality":{"key":"09184129","name":"Hohenbrunn","type":"Kreisangehörige_Gemeinde"},"district":{"key":"09184","name":"München","type":"Landkreis"},"federalState":{"key":"09","name":"Bayern"}},{"name":"Hochackerstr.","postalCode":"85521","locality":"Hohenbrunn","municipality":{"key":"09184129","name":"Hohenbrunn","type":"Kreisangehörige_Gemeinde"},"district":{"key":"09184","name":"München","type":"Landkreis"},"federalState":{"key":"09","name":"Bayern"}},{"name":"Hohenbrunner Geräumt","postalCode":"85662","locality":"Hohenbrunn","municipality":{"key":"09184129","name":"Hohenbrunn","type":"Kreisangehörige_Gemeinde"},"district":{"key":"09184","name":"München","type":"Landkreis"},"federalState":{"key":"09","name":"Bayern"}},{"name":"Hohenbrunner Str.","postalCode":"85521","locality":"Hohenbrunn","municipality":{"key":"09184129","name":"Hohenbrunn","type":"Kreisangehörige_Gemeinde"},"district":{"key":"09184","name":"München","type":"Landkreis"},"federalState":{"key":"09","name":"Bayern"}},{"name":"Hohenbrunner Str.","postalCode":"85662","locality":"Hohenbrunn","municipality":{"key":"09184129","name":"Hohenbrunn","type":"Kreisangehörige_Gemeinde"},"district":{"key":"09184","name":"München","type":"Landkreis"},"federalState":{"key":"09","name":"Bayern"}},{"name":"Höhenkirchener Str.","postalCode":"85662","locality":"Hohenbrunn","municipality":{"key":"09184129","name":"Hohenbrunn","type":"Kreisangehörige_Gemeinde"},"district":{"key":"09184","name":"München","type":"Landkreis"},"federalState":{"key":"09","name":"Bayern"}},{"name":"Höhenkirchner Str.","postalCode":"85662","locality":"Hohenbrunn","municipality":{"key":"09184129","name":"Hohenbrunn","type":"Kreisangehörige_Gemeinde"},"district":{"key":"09184","name":"München","type":"Landkreis"},"federalState":{"key":"09","name":"Bayern"}},{"name":"Holunderweg","postalCode":"85662","locality":"Hohenbrunn","municipality":{"key":"09184129","name":"Hohenbrunn","type":"Kreisangehörige_Gemeinde"},"district":{"key":"09184","name":"München","type":"Landkreis"},"federalState":{"key":"09","name":"Bayern"}},{"name":"Hubertusstr.","postalCode":"85662","locality":"Hohenbrunn","municipality":{"key":"09184129","name":"Hohenbrunn","type":"Kreisangehörige_Gemeinde"},"district":{"key":"09184","name":"München","type":"Landkreis"},"federalState":{"key":"09","name":"Bayern"}},{"name":"Irisstr.","postalCode":"85521","locality":"Hohenbrunn","municipality":{"key":"09184129","name":"Hohenbrunn","type":"Kreisangehörige_Gemeinde"},"district":{"key":"09184","name":"München","type":"Landkreis"},"federalState":{"key":"09","name":"Bayern"}},{"name":"Jagdstr.","postalCode":"85521","locality":"Hohenbrunn","municipality":{"key":"09184129","name":"Hohenbrunn","type":"Kreisangehörige_Gemeinde"},"district":{"key":"09184","name":"München","type":"Landkreis"},"federalState":{"key":"09","name":"Bayern"}},{"name":"Jäger-von-Fall-Str.","postalCode":"85662","locality":"Hohenbrunn","municipality":{"key":"09184129","name":"Hohenbrunn","type":"Kreisangehörige_Gemeinde"},"district":{"key":"09184","name":"München","type":"Landkreis"},"federalState":{"key":"09","name":"Bayern"}},{"name":"Kirchstockacher Str.","postalCode":"85662","locality":"Hohenbrunn","municipality":{"key":"09184129","name":"Hohenbrunn","type":"Kreisangehörige_Gemeinde"},"district":{"key":"09184","name":"München","type":"Landkreis"},"federalState":{"key":"09","name":"Bayern"}},{"name":"Kistlerstr.","postalCode":"85662","locality":"Hohenbrunn","municipality":{"key":"09184129","name":"Hohenbrunn","type":"Kreisangehörige_Gemeinde"},"district":{"key":"09184","name":"München","type":"Landkreis"},"federalState":{"key":"09","name":"Bayern"}},{"name":"Königs Geräumt","postalCode":"85662","locality":"Hohenbrunn","municipality":{"key":"09184129","name":"Hohenbrunn","type":"Kreisangehörige_Gemeinde"},"district":{"key":"09184","name":"München","type":"Landkreis"},"federalState":{"key":"09","name":"Bayern"}},{"name":"Kufsteiner Str.","postalCode":"85521","locality":"Hohenbrunn","municipality":{"key":"09184129","name":"Hohenbrunn","type":"Kreisangehörige_Gemeinde"},"district":{"key":"09184","name":"München","type":"Landkreis"},"federalState":{"key":"09","name":"Bayern"}},{"name":"Leonhardsweg","postalCode":"85662","locality":"Hohenbrunn","municipality":{"key":"09184129","name":"Hohenbrunn","type":"Kreisangehörige_Gemeinde"},"district":{"key":"09184","name":"München","type":"Landkreis"},"federalState":{"key":"09","name":"Bayern"}},{"name":"Lilienstr.","postalCode":"85521","locality":"Hohenbrunn","municipality":{"key":"09184129","name":"Hohenbrunn","type":"Kreisangehörige_Gemeinde"},"district":{"key":"09184","name":"München","type":"Landkreis"},"federalState":{"key":"09","name":"Bayern"}},{"name":"Maiglöckchenweg","postalCode":"85521","locality":"Hohenbrunn","municipality":{"key":"09184129","name":"Hohenbrunn","type":"Kreisangehörige_Gemeinde"},"district":{"key":"09184","name":"München","type":"Landkreis"},"federalState":{"key":"09","name":"Bayern"}},{"name":"Mesnerweg","postalCode":"85662","locality":"Hohenbrunn","municipality":{"key":"09184129","name":"Hohenbrunn","type":"Kreisangehörige_Gemeinde"},"district":{"key":"09184","name":"München","type":"Landkreis"},"federalState":{"key":"09","name":"Bayern"}},{"name":"Nelkenstr.","postalCode":"85521","locality":"Hohenbrunn","municipality":{"key":"09184129","name":"Hohenbrunn","type":"Kreisangehörige_Gemeinde"},"district":{"key":"09184","name":"München","type":"Landkreis"},"federalState":{"key":"09","name":"Bayern"}},{"name":"Neulingerstr.","postalCode":"85662","locality":"Hohenbrunn","municipality":{"key":"09184129","name":"Hohenbrunn","type":"Kreisangehörige_Gemeinde"},"district":{"key":"09184","name":"München","type":"Landkreis"},"federalState":{"key":"09","name":"Bayern"}},{"name":"Notinger Weg","postalCode":"85521","locality":"Hohenbrunn","municipality":{"key":"09184129","name":"Hohenbrunn","type":"Kreisangehörige_Gemeinde"},"district":{"key":"09184","name":"München","type":"Landkreis"},"federalState":{"key":"09","name":"Bayern"}},{"name":"Notinger Weg","postalCode":"85662","locality":"Hohenbrunn","municipality":{"key":"09184129","name":"Hohenbrunn","type":"Kreisangehörige_Gemeinde"},"district":{"key":"09184","name":"München","type":"Landkreis"},"federalState":{"key":"09","name":"Bayern"}},{"name":"Otto-Hahn-Str.","postalCode":"85521","locality":"Hohenbrunn","municipality":{"key":"09184129","name":"Hohenbrunn","type":"Kreisangehörige_Gemeinde"},"district":{"key":"09184","name":"München","type":"Landkreis"},"federalState":{"key":"09","name":"Bayern"}},{"name":"Ottostr.","postalCode":"85521","locality":"Hohenbrunn","municipality":{"key":"09184129","name":"Hohenbrunn","type":"Kreisangehörige_Gemeinde"},"district":{"key":"09184","name":"München","type":"Landkreis"},"federalState":{"key":"09","name":"Bayern"}},{"name":"Pframmerner Weg","postalCode":"85662","locality":"Hohenbrunn","municipality":{"key":"09184129","name":"Hohenbrunn","type":"Kreisangehörige_Gemeinde"},"district":{"key":"09184","name":"München","type":"Landkreis"},"federalState":{"key":"09","name":"Bayern"}},{"name":"Prinz-Alfons-Str.","postalCode":"85521","locality":"Hohenbrunn","municipality":{"key":"09184129","name":"Hohenbrunn","type":"Kreisangehörige_Gemeinde"},"district":{"key":"09184","name":"München","type":"Landkreis"},"federalState":{"key":"09","name":"Bayern"}},{"name":"Putzbrunner Str.","postalCode":"85662","locality":"Hohenbrunn","municipality":{"key":"09184129","name":"Hohenbrunn","type":"Kreisangehörige_Gemeinde"},"district":{"key":"09184","name":"München","type":"Landkreis"},"federalState":{"key":"09","name":"Bayern"}},{"name":"Quagliostr.","postalCode":"81543","locality":"München","municipality":{"key":"09162000","name":"München, Landeshauptstadt","type":"Kreisfreie_Stadt"},"district":{"key":"09162","name":"München, Landeshauptstadt","type":"Kreisfreie_Stadt"},"federalState":{"key":"09","name":"Bayern"}},{"name":"Quedlinburger Str.","postalCode":"80992","locality":"München","municipality":{"key":"09162000","name":"München, Landeshauptstadt","type":"Kreisfreie_Stadt"},"district":{"key":"09162","name":"München, Landeshauptstadt","type":"Kreisfreie_Stadt"},"federalState":{"key":"09","name":"Bayern"}},{"name":"Quellweg","postalCode":"85551","locality":"Kirchheim bei München","municipality":{"key":"09184131","name":"Kirchheim b.München","type":"Kreisangehörige_Gemeinde"},"district":{"key":"09184","name":"München","type":"Landkreis"},"federalState":{"key":"09","name":"Bayern"}},{"name":"Queristr.","postalCode":"80689","locality":"München","municipality":{"key":"09162000","name":"München, Landeshauptstadt","type":"Kreisfreie_Stadt"},"district":{"key":"09162","name":"München, Landeshauptstadt","type":"Kreisfreie_Stadt"},"federalState":{"key":"09","name":"Bayern"}},{"name":"Querstr.","postalCode":"07589","locality":"Münchenbernsdorf","municipality":{"key":"16076049","name":"Münchenbernsdorf, Stadt","type":"Stadt"},"district":{"key":"16076","name":"Greiz","type":"Landkreis"},"federalState":{"key":"16","name":"Thüringen"}},{"name":"Quiddestr.","postalCode":"81735","locality":"München","municipality":{"key":"09162000","name":"München, Landeshauptstadt","type":"Kreisfreie_Stadt"},"district":{"key":"09162","name":"München, Landeshauptstadt","type":"Kreisfreie_Stadt"},"federalState":{"key":"09","name":"Bayern"}},{"name":"Quiddestr.","postalCode":"81737","locality":"München","municipality":{"key":"09162000","name":"München, Landeshauptstadt","type":"Kreisfreie_Stadt"},"district":{"key":"09162","name":"München, Landeshauptstadt","type":"Kreisfreie_Stadt"},"federalState":{"key":"09","name":"Bayern"}},{"name":"Riemerlinger Str.","postalCode":"85662","locality":"Hohenbrunn","municipality":{"key":"09184129","name":"Hohenbrunn","type":"Kreisangehörige_Gemeinde"},"district":{"key":"09184","name":"München","type":"Landkreis"},"federalState":{"key":"09","name":"Bayern"}},{"name":"Robert-Bosch-Str.","postalCode":"85521","locality":"Hohenbrunn","municipality":{"key":"09184129","name":"Hohenbrunn","type":"Kreisangehörige_Gemeinde"},"district":{"key":"09184","name":"München","type":"Landkreis"},"federalState":{"key":"09","name":"Bayern"}},{"name":"Rosenstr.","postalCode":"85521","locality":"Hohenbrunn","municipality":{"key":"09184129","name":"Hohenbrunn","type":"Kreisangehörige_Gemeinde"},"district":{"key":"09184","name":"München","type":"Landkreis"},"federalState":{"key":"09","name":"Bayern"}},{"name":"Rudolf-Diesel-Str.","postalCode":"85521","locality":"Hohenbrunn","municipality":{"key":"09184129","name":"Hohenbrunn","type":"Kreisangehörige_Gemeinde"},"district":{"key":"09184","name":"München","type":"Landkreis"},"federalState":{"key":"09","name":"Bayern"}},{"name":"Schlehenweg","postalCode":"85662","locality":"Hohenbrunn","municipality":{"key":"09184129","name":"Hohenbrunn","type":"Kreisangehörige_Gemeinde"},"district":{"key":"09184","name":"München","type":"Landkreis"},"federalState":{"key":"09","name":"Bayern"}},{"name":"Schmiedgasse","postalCode":"85662","locality":"Hohenbrunn","municipality":{"key":"09184129","name":"Hohenbrunn","type":"Kreisangehörige_Gemeinde"},"district":{"key":"09184","name":"München","type":"Landkreis"},"federalState":{"key":"09","name":"Bayern"}},{"name":"Schmiedweg","postalCode":"85662","locality":"Hohenbrunn","municipality":{"key":"09184129","name":"Hohenbrunn","type":"Kreisangehörige_Gemeinde"},"district":{"key":"09184","name":"München","type":"Landkreis"},"federalState":{"key":"09","name":"Bayern"}},{"name":"Schulze-Geräumt","postalCode":"85662","locality":"Hohenbrunn","municipality":{"key":"09184129","name":"Hohenbrunn","type":"Kreisangehörige_Gemeinde"},"district":{"key":"09184","name":"München","type":"Landkreis"},"federalState":{"key":"09","name":"Bayern"}},{"name":"Siegertsbrunner Str.","postalCode":"85662","locality":"Hohenbrunn","municipality":{"key":"09184129","name":"Hohenbrunn","type":"Kreisangehörige_Gemeinde"},"district":{"key":"09184","name":"München","type":"Landkreis"},"federalState":{"key":"09","name":"Bayern"}},{"name":"Sommerstr.","postalCode":"85521","locality":"Hohenbrunn","municipality":{"key":"09184129","name":"Hohenbrunn","type":"Kreisangehörige_Gemeinde"},"district":{"key":"09184","name":"München","type":"Landkreis"},"federalState":{"key":"09","name":"Bayern"}},{"name":"Sperberstr.","postalCode":"85662","locality":"Hohenbrunn","municipality":{"key":"09184129","name":"Hohenbrunn","type":"Kreisangehörige_Gemeinde"},"district":{"key":"09184","name":"München","type":"Landkreis"},"federalState":{"key":"09","name":"Bayern"}},{"name":"Taufkirchener Str.","postalCode":"85521","locality":"Hohenbrunn","municipality":{"key":"09184129","name":"Hohenbrunn","type":"Kreisangehörige_Gemeinde"},"district":{"key":"09184","name":"München","type":"Landkreis"},"federalState":{"key":"09","name":"Bayern"}},{"name":"Taufkirchener Str.","postalCode":"85662","locality":"Hohenbrunn","municipality":{"key":"09184129","name":"Hohenbrunn","type":"Kreisangehörige_Gemeinde"},"district":{"key":"09184","name":"München","type":"Landkreis"},"federalState":{"key":"09","name":"Bayern"}},{"name":"Thoma-Geräumt","postalCode":"85662","locality":"Hohenbrunn","municipality":{"key":"09184129","name":"Hohenbrunn","type":"Kreisangehörige_Gemeinde"},"district":{"key":"09184","name":"München","type":"Landkreis"},"federalState":{"key":"09","name":"Bayern"}},{"name":"Tulpenweg","postalCode":"85521","locality":"Hohenbrunn","municipality":{"key":"09184129","name":"Hohenbrunn","type":"Kreisangehörige_Gemeinde"},"district":{"key":"09184","name":"München","type":"Landkreis"},"federalState":{"key":"09","name":"Bayern"}},{"name":"Turm-Geräumt","postalCode":"85662","locality":"Hohenbrunn","municipality":{"key":"09184129","name":"Hohenbrunn","type":"Kreisangehörige_Gemeinde"},"district":{"key":"09184","name":"München","type":"Landkreis"},"federalState":{"key":"09","name":"Bayern"}},{"name":"U6","postalCode":"85748","locality":"Garching bei München","municipality":{"key":"09184119","name":"Garching b.München, St","type":"Stadt"},"district":{"key":"09184","name":"München","type":"Landkreis"},"federalState":{"key":"09","name":"Bayern"}},{"name":"Ubostr.","postalCode":"81245","locality":"München","municipality":{"key":"09162000","name":"München, Landeshauptstadt","type":"Kreisfreie_Stadt"},"district":{"key":"09162","name":"München, Landeshauptstadt","type":"Kreisfreie_Stadt"},"federalState":{"key":"09","name":"Bayern"}},{"name":"Udalrichstr.","postalCode":"80933","locality":"München","municipality":{"key":"09162000","name":"München, Landeshauptstadt","type":"Kreisfreie_Stadt"},"district":{"key":"09162","name":"München, Landeshauptstadt","type":"Kreisfreie_Stadt"},"federalState":{"key":"09","name":"Bayern"}},{"name":"Uffinger Str.","postalCode":"81477","locality":"München","municipality":{"key":"09162000","name":"München, Landeshauptstadt","type":"Kreisfreie_Stadt"},"district":{"key":"09162","name":"München, Landeshauptstadt","type":"Kreisfreie_Stadt"},"federalState":{"key":"09","name":"Bayern"}},{"name":"Uhdestr.","postalCode":"81477","locality":"München","municipality":{"key":"09162000","name":"München, Landeshauptstadt","type":"Kreisfreie_Stadt"},"district":{"key":"09162","name":"München, Landeshauptstadt","type":"Kreisfreie_Stadt"},"federalState":{"key":"09","name":"Bayern"}},{"name":"Uhlandstr.","postalCode":"80336","locality":"München","municipality":{"key":"09162000","name":"München, Landeshauptstadt","type":"Kreisfreie_Stadt"},"district":{"key":"09162","name":"München, Landeshauptstadt","type":"Kreisfreie_Stadt"},"federalState":{"key":"09","name":"Bayern"}},{"name":"Ulfilasstr.","postalCode":"81739","locality":"München","municipality":{"key":"09162000","name":"München, Landeshauptstadt","type":"Kreisfreie_Stadt"},"district":{"key":"09162","name":"München, Landeshauptstadt","type":"Kreisfreie_Stadt"},"federalState":{"key":"09","name":"Bayern"}},{"name":"Ulmenstr.","postalCode":"81545","locality":"München","municipality":{"key":"09162000","name":"München, Landeshauptstadt","type":"Kreisfreie_Stadt"},"district":{"key":"09162","name":"München, Landeshauptstadt","type":"Kreisfreie_Stadt"},"federalState":{"key":"09","name":"Bayern"}},{"name":"Ulrich-Corti-Str.","postalCode":"81249","locality":"München","municipality":{"key":"09162000","name":"München, Landeshauptstadt","type":"Kreisfreie_Stadt"},"district":{"key":"09162","name":"München, Landeshauptstadt","type":"Kreisfreie_Stadt"},"federalState":{"key":"09","name":"Bayern"}},{"name":"Ulrich-Kortler-Weg","postalCode":"81241","locality":"München","municipality":{"key":"09162000","name":"München, Landeshauptstadt","type":"Kreisfreie_Stadt"},"district":{"key":"09162","name":"München, Landeshauptstadt","type":"Kreisfreie_Stadt"},"federalState":{"key":"09","name":"Bayern"}},{"name":"Ulrichsberg","postalCode":"86830","locality":"Schwabmünchen","municipality":{"key":"09772200","name":"Schwabmünchen, St","type":"Stadt"},"district":{"key":"09772","name":"Augsburg","type":"Landkreis"},"federalState":{"key":"09","name":"Bayern"}},{"name":"Ulrichsbergstr.","postalCode":"81673","locality":"München","municipality":{"key":"09162000","name":"München, Landeshauptstadt","type":"Kreisfreie_Stadt"},"district":{"key":"09162","name":"München, Landeshauptstadt","type":"Kreisfreie_Stadt"},"federalState":{"key":"09","name":"Bayern"}},{"name":"Ulrichsgrüner Str.","postalCode":"93449","locality":"Waldmünchen","municipality":{"key":"09372171","name":"Waldmünchen, St","type":"Stadt"},"district":{"key":"09372","name":"Cham","type":"Landkreis"},"federalState":{"key":"09","name":"Bayern"}},{"name":"Ulrich-von-Hutten-Str.","postalCode":"81739","locality":"München","municipality":{"key":"09162000","name":"München, Landeshauptstadt","type":"Kreisfreie_Stadt"},"district":{"key":"09162","name":"München, Landeshauptstadt","type":"Kreisfreie_Stadt"},"federalState":{"key":"09","name":"Bayern"}},{"name":"Umgehungsstr.","postalCode":"85748","locality":"Garching bei München","municipality":{"key":"09184119","name":"Garching b.München, St","type":"Stadt"},"district":{"key":"09184","name":"München","type":"Landkreis"},"federalState":{"key":"09","name":"Bayern"}},{"name":"Undinestr.","postalCode":"81927","locality":"München","municipality":{"key":"09162000","name":"München, Landeshauptstadt","type":"Kreisfreie_Stadt"},"district":{"key":"09162","name":"München, Landeshauptstadt","type":"Kreisfreie_Stadt"},"federalState":{"key":"09","name":"Bayern"}},{"name":"Unertlstr.","postalCode":"80803","locality":"München","municipality":{"key":"09162000","name":"München, Landeshauptstadt","type":"Kreisfreie_Stadt"},"district":{"key":"09162","name":"München, Landeshauptstadt","type":"Kreisfreie_Stadt"},"federalState":{"key":"09","name":"Bayern"}},{"name":"Ungererstr.","postalCode":"80802","locality":"München","municipality":{"key":"09162000","name":"München, Landeshauptstadt","type":"Kreisfreie_Stadt"},"district":{"key":"09162","name":"München, Landeshauptstadt","type":"Kreisfreie_Stadt"},"federalState":{"key":"09","name":"Bayern"}},{"name":"Ungererstr.","postalCode":"80805","locality":"München","municipality":{"key":"09162000","name":"München, Landeshauptstadt","type":"Kreisfreie_Stadt"},"district":{"key":"09162","name":"München, Landeshauptstadt","type":"Kreisfreie_Stadt"},"federalState":{"key":"09","name":"Bayern"}},{"name":"Ungsteiner Str.","postalCode":"81539","locality":"München","municipality":{"key":"09162000","name":"München, Landeshauptstadt","type":"Kreisfreie_Stadt"},"district":{"key":"09162","name":"München, Landeshauptstadt","type":"Kreisfreie_Stadt"},"federalState":{"key":"09","name":"Bayern"}},{"name":"Ungsteiner Str.","postalCode":"81541","locality":"München","municipality":{"key":"09162000","name":"München, Landeshauptstadt","type":"Kreisfreie_Stadt"},"district":{"key":"09162","name":"München, Landeshauptstadt","type":"Kreisfreie_Stadt"},"federalState":{"key":"09","name":"Bayern"}},{"name":"Unnützstr.","postalCode":"81825","locality":"München","municipality":{"key":"09162000","name":"München, Landeshauptstadt","type":"Kreisfreie_Stadt"},"district":{"key":"09162","name":"München, Landeshauptstadt","type":"Kreisfreie_Stadt"},"federalState":{"key":"09","name":"Bayern"}},{"name":"Unnützwiese","postalCode":"81825","locality":"München","municipality":{"key":"09162000","name":"München, Landeshauptstadt","type":"Kreisfreie_Stadt"},"district":{"key":"09162","name":"München, Landeshauptstadt","type":"Kreisfreie_Stadt"},"federalState":{"key":"09","name":"Bayern"}},{"name":"Unsöldstr.","postalCode":"80538","locality":"München","municipality":{"key":"09162000","name":"München, Landeshauptstadt","type":"Kreisfreie_Stadt"},"district":{"key":"09162","name":"München, Landeshauptstadt","type":"Kreisfreie_Stadt"},"federalState":{"key":"09","name":"Bayern"}},{"name":"Unteranger","postalCode":"85567","locality":"Grafing bei München","municipality":{"key":"09175122","name":"Grafing b.München, St","type":"Stadt"},"district":{"key":"09175","name":"Ebersberg","type":"Landkreis"},"federalState":{"key":"09","name":"Bayern"}},{"name":"Unterbiberger Str.","postalCode":"81737","locality":"München","municipality":{"key":"09162000","name":"München, Landeshauptstadt","type":"Kreisfreie_Stadt"},"district":{"key":"09162","name":"München, Landeshauptstadt","type":"Kreisfreie_Stadt"},"federalState":{"key":"09","name":"Bayern"}},{"name":"Unterbrunner Str.","postalCode":"81475","locality":"München","municipality":{"key":"09162000","name":"München, Landeshauptstadt","type":"Kreisfreie_Stadt"},"district":{"key":"09162","name":"München, Landeshauptstadt","type":"Kreisfreie_Stadt"},"federalState":{"key":"09","name":"Bayern"}},{"name":"Unter der Linde","postalCode":"80939","locality":"München","municipality":{"key":"09162000","name":"München, Landeshauptstadt","type":"Kreisfreie_Stadt"},"district":{"key":"09162","name":"München, Landeshauptstadt","type":"Kreisfreie_Stadt"},"federalState":{"key":"09","name":"Bayern"}},{"name":"Untere Allee","postalCode":"80997","locality":"München","municipality":{"key":"09162000","name":"München, Landeshauptstadt","type":"Kreisfreie_Stadt"},"district":{"key":"09162","name":"München, Landeshauptstadt","type":"Kreisfreie_Stadt"},"federalState":{"key":"09","name":"Bayern"}},{"name":"Untere Angerlohe","postalCode":"80997","locality":"München","municipality":{"key":"09162000","name":"München, Landeshauptstadt","type":"Kreisfreie_Stadt"},"district":{"key":"09162","name":"München, Landeshauptstadt","type":"Kreisfreie_Stadt"},"federalState":{"key":"09","name":"Bayern"}},{"name":"Untere Bachgasse","postalCode":"07589","locality":"Münchenbernsdorf","municipality":{"key":"16076049","name":"Münchenbernsdorf, Stadt","type":"Stadt"},"district":{"key":"16076","name":"Greiz","type":"Landkreis"},"federalState":{"key":"16","name":"Thüringen"}},{"name":"Untere Bräuhausstr.","postalCode":"93449","locality":"Waldmünchen","municipality":{"key":"09372171","name":"Waldmünchen, St","type":"Stadt"},"district":{"key":"09372","name":"Cham","type":"Landkreis"},"federalState":{"key":"09","name":"Bayern"}},{"name":"Untere Feldstr.","postalCode":"81675","locality":"München","municipality":{"key":"09162000","name":"München, Landeshauptstadt","type":"Kreisfreie_Stadt"},"district":{"key":"09162","name":"München, Landeshauptstadt","type":"Kreisfreie_Stadt"},"federalState":{"key":"09","name":"Bayern"}},{"name":"Untere Grasstr.","postalCode":"81541","locality":"München","municipality":{"key":"09162000","name":"München, Landeshauptstadt","type":"Kreisfreie_Stadt"},"district":{"key":"09162","name":"München, Landeshauptstadt","type":"Kreisfreie_Stadt"},"federalState":{"key":"09","name":"Bayern"}},{"name":"Untere Hausbreite","postalCode":"80939","locality":"München","municipality":{"key":"09162000","name":"München, Landeshauptstadt","type":"Kreisfreie_Stadt"},"district":{"key":"09162","name":"München, Landeshauptstadt","type":"Kreisfreie_Stadt"},"federalState":{"key":"09","name":"Bayern"}},{"name":"Untere Johannisstr.","postalCode":"81667","locality":"München","municipality":{"key":"09162000","name":"München, Landeshauptstadt","type":"Kreisfreie_Stadt"},"district":{"key":"09162","name":"München, Landeshauptstadt","type":"Kreisfreie_Stadt"},"federalState":{"key":"09","name":"Bayern"}},{"name":"Untere Krautstr.","postalCode":"80993","locality":"München","municipality":{"key":"09162000","name":"München, Landeshauptstadt","type":"Kreisfreie_Stadt"},"district":{"key":"09162","name":"München, Landeshauptstadt","type":"Kreisfreie_Stadt"},"federalState":{"key":"09","name":"Bayern"}},{"name":"Untere Länge","postalCode":"80939","locality":"München","municipality":{"key":"09162000","name":"München, Landeshauptstadt","type":"Kreisfreie_Stadt"},"district":{"key":"09162","name":"München, Landeshauptstadt","type":"Kreisfreie_Stadt"},"federalState":{"key":"09","name":"Bayern"}},{"name":"Untere Mühlstr.","postalCode":"80999","locality":"München","municipality":{"key":"09162000","name":"München, Landeshauptstadt","type":"Kreisfreie_Stadt"},"district":{"key":"09162","name":"München, Landeshauptstadt","type":"Kreisfreie_Stadt"},"federalState":{"key":"09","name":"Bayern"}},{"name":"Unterer Anger","postalCode":"80331","locality":"München","municipality":{"key":"09162000","name":"München, Landeshauptstadt","type":"Kreisfreie_Stadt"},"district":{"key":"09162","name":"München, Landeshauptstadt","type":"Kreisfreie_Stadt"},"federalState":{"key":"09","name":"Bayern"}},{"name":"Untere Rieselstr.","postalCode":"93449","locality":"Waldmünchen","municipality":{"key":"09372171","name":"Waldmünchen, St","type":"Stadt"},"district":{"key":"09372","name":"Cham","type":"Landkreis"},"federalState":{"key":"09","name":"Bayern"}},{"name":"Unterer Trathweg","postalCode":"93449","locality":"Waldmünchen","municipality":{"key":"09372171","name":"Waldmünchen, St","type":"Stadt"},"district":{"key":"09372","name":"Cham","type":"Landkreis"},"federalState":{"key":"09","name":"Bayern"}},{"name":"Untere Straßäcker","postalCode":"85748","locality":"Garching bei München","municipality":{"key":"09184119","name":"Garching b.München, St","type":"Stadt"},"district":{"key":"09184","name":"München","type":"Landkreis"},"federalState":{"key":"09","name":"Bayern"}},{"name":"Untere Weidenstr.","postalCode":"81543","locality":"München","municipality":{"key":"09162000","name":"München, Landeshauptstadt","type":"Kreisfreie_Stadt"},"district":{"key":"09162","name":"München, Landeshauptstadt","type":"Kreisfreie_Stadt"},"federalState":{"key":"09","name":"Bayern"}},{"name":"Untere Zell","postalCode":"93449","locality":"Waldmünchen","municipality":{"key":"09372171","name":"Waldmünchen, St","type":"Stadt"},"district":{"key":"09372","name":"Cham","type":"Landkreis"},"federalState":{"key":"09","name":"Bayern"}},{"name":"Unterhachinger Str.","postalCode":"81737","locality":"München","municipality":{"key":"09162000","name":"München, Landeshauptstadt","type":"Kreisfreie_Stadt"},"district":{"key":"09162","name":"München, Landeshauptstadt","type":"Kreisfreie_Stadt"},"federalState":{"key":"09","name":"Bayern"}},{"name":"Unterhütte","postalCode":"93449","locality":"Waldmünchen","municipality":{"key":"09372171","name":"Waldmünchen, St","type":"Stadt"},"district":{"key":"09372","name":"Cham","type":"Landkreis"},"federalState":{"key":"09","name":"Bayern"}},{"name":"Unterhüttener Str.","postalCode":"93449","locality":"Waldmünchen","municipality":{"key":"09372171","name":"Waldmünchen, St","type":"Stadt"},"district":{"key":"09372","name":"Cham","type":"Landkreis"},"federalState":{"key":"09","name":"Bayern"}},{"name":"Untermenzinger Str.","postalCode":"80997","locality":"München","municipality":{"key":"09162000","name":"München, Landeshauptstadt","type":"Kreisfreie_Stadt"},"district":{"key":"09162","name":"München, Landeshauptstadt","type":"Kreisfreie_Stadt"},"federalState":{"key":"09","name":"Bayern"}},{"name":"Untermühlanger","postalCode":"80995","locality":"München","municipality":{"key":"09162000","name":"München, Landeshauptstadt","type":"Kreisfreie_Stadt"},"district":{"key":"09162","name":"München, Landeshauptstadt","type":"Kreisfreie_Stadt"},"federalState":{"key":"09","name":"Bayern"}},{"name":"Veilchenweg","postalCode":"85521","locality":"Hohenbrunn","municipality":{"key":"09184129","name":"Hohenbrunn","type":"Kreisangehörige_Gemeinde"},"district":{"key":"09184","name":"München","type":"Landkreis"},"federalState":{"key":"09","name":"Bayern"}},{"name":"Wagenberger Str.","postalCode":"85662","locality":"Hohenbrunn","municipality":{"key":"09184129","name":"Hohenbrunn","type":"Kreisangehörige_Gemeinde"},"district":{"key":"09184","name":"München","type":"Landkreis"},"federalState":{"key":"09","name":"Bayern"}},{"name":"Waldparkstr.","postalCode":"85521","locality":"Hohenbrunn","municipality":{"key":"09184129","name":"Hohenbrunn","type":"Kreisangehörige_Gemeinde"},"district":{"key":"09184","name":"München","type":"Landkreis"},"federalState":{"key":"09","name":"Bayern"}},{"name":"Weidenstr.","postalCode":"85662","locality":"Hohenbrunn","municipality":{"key":"09184129","name":"Hohenbrunn","type":"Kreisangehörige_Gemeinde"},"district":{"key":"09184","name":"München","type":"Landkreis"},"federalState":{"key":"09","name":"Bayern"}},{"name":"Weißdornbogen","postalCode":"85662","locality":"Hohenbrunn","municipality":{"key":"09184129","name":"Hohenbrunn","type":"Kreisangehörige_Gemeinde"},"district":{"key":"09184","name":"München","type":"Landkreis"},"federalState":{"key":"09","name":"Bayern"}},{"name":"Xaver-Weismor-Str.","postalCode":"81829","locality":"München","municipality":{"key":"09162000","name":"München, Landeshauptstadt","type":"Kreisfreie_Stadt"},"district":{"key":"09162","name":"München, Landeshauptstadt","type":"Kreisfreie_Stadt"},"federalState":{"key":"09","name":"Bayern"}},{"name":"Yorckstr.","postalCode":"80637","locality":"München","municipality":{"key":"09162000","name":"München, Landeshauptstadt","type":"Kreisfreie_Stadt"},"district":{"key":"09162","name":"München, Landeshauptstadt","type":"Kreisfreie_Stadt"},"federalState":{"key":"09","name":"Bayern"}},{"name":"Ysenburgstr.","postalCode":"80634","locality":"München","municipality":{"key":"09162000","name":"München, Landeshauptstadt","type":"Kreisfreie_Stadt"},"district":{"key":"09162","name":"München, Landeshauptstadt","type":"Kreisfreie_Stadt"},"federalState":{"key":"09","name":"Bayern"}},{"name":"Zeppelinstr.","postalCode":"85521","locality":"Hohenbrunn","municipality":{"key":"09184129","name":"Hohenbrunn","type":"Kreisangehörige_Gemeinde"},"district":{"key":"09184","name":"München","type":"Landkreis"},"federalState":{"key":"09","name":"Bayern"}},{"name":"Zirbelstr.","postalCode":"85662","locality":"Hohenbrunn","municipality":{"key":"09184129","name":"Hohenbrunn","type":"Kreisangehörige_Gemeinde"},"district":{"key":"09184","name":"München","type":"Landkreis"},"federalState":{"key":"09","name":"Bayern"}},{"name":"Öcklweg","postalCode":"81369","locality":"München","municipality":{"key":"09162000","name":"München, Landeshauptstadt","type":"Kreisfreie_Stadt"},"district":{"key":"09162","name":"München, Landeshauptstadt","type":"Kreisfreie_Stadt"},"federalState":{"key":"09","name":"Bayern"}},{"name":"Öffentliche Grünanlage am Horst-Salzmann-Weg","postalCode":"81825","locality":"München","municipality":{"key":"09162000","name":"München, Landeshauptstadt","type":"Kreisfreie_Stadt"},"district":{"key":"09162","name":"München, Landeshauptstadt","type":"Kreisfreie_Stadt"},"federalState":{"key":"09","name":"Bayern"}},{"name":"Öffentliche Grünfläche Hochäckerstr.","postalCode":"81737","locality":"München","municipality":{"key":"09162000","name":"München, Landeshauptstadt","type":"Kreisfreie_Stadt"},"district":{"key":"09162","name":"München, Landeshauptstadt","type":"Kreisfreie_Stadt"},"federalState":{"key":"09","name":"Bayern"}},{"name":"Öffentlicher Garten am Kriegsarchiv","postalCode":"80636","locality":"München","municipality":{"key":"09162000","name":"München, Landeshauptstadt","type":"Kreisfreie_Stadt"},"district":{"key":"09162","name":"München, Landeshauptstadt","type":"Kreisfreie_Stadt"},"federalState":{"key":"09","name":"Bayern"}},{"name":"Ölbergstr.","postalCode":"93449","locality":"Waldmünchen","municipality":{"key":"09372171","name":"Waldmünchen, St","type":"Stadt"},"district":{"key":"09372","name":"Cham","type":"Landkreis"},"federalState":{"key":"09","name":"Bayern"}},{"name":"Ölbergweg","postalCode":"93449","locality":"Waldmünchen","municipality":{"key":"09372171","name":"Waldmünchen, St","type":"Stadt"},"district":{"key":"09372","name":"Cham","type":"Landkreis"},"federalState":{"key":"09","name":"Bayern"}},{"name":"Ötschmannweg","postalCode":"81369","locality":"München","municipality":{"key":"09162000","name":"München, Landeshauptstadt","type":"Kreisfreie_Stadt"},"district":{"key":"09162","name":"München, Landeshauptstadt","type":"Kreisfreie_Stadt"},"federalState":{"key":"09","name":"Bayern"}},{"name":"Öttlmairstr.","postalCode":"81737","locality":"München","municipality":{"key":"09162000","name":"München, Landeshauptstadt","type":"Kreisfreie_Stadt"},"district":{"key":"09162","name":"München, Landeshauptstadt","type":"Kreisfreie_Stadt"},"federalState":{"key":"09","name":"Bayern"}},{"name":"Über der Klause","postalCode":"81545","locality":"München","municipality":{"key":"09162000","name":"München, Landeshauptstadt","type":"Kreisfreie_Stadt"},"district":{"key":"09162","name":"München, Landeshauptstadt","type":"Kreisfreie_Stadt"},"federalState":{"key":"09","name":"Bayern"}},{"name":"Überlinger Weg","postalCode":"81243","locality":"München","municipality":{"key":"09162000","name":"München, Landeshauptstadt","type":"Kreisfreie_Stadt"},"district":{"key":"09162","name":"München, Landeshauptstadt","type":"Kreisfreie_Stadt"},"federalState":{"key":"09","name":"Bayern"}},{"name":"Überreiterstr.","postalCode":"81247","locality":"München","municipality":{"key":"09162000","name":"München, Landeshauptstadt","type":"Kreisfreie_Stadt"},"district":{"key":"09162","name":"München, Landeshauptstadt","type":"Kreisfreie_Stadt"},"federalState":{"key":"09","name":"Bayern"}},{"name":"Überreiterweg","postalCode":"85748","locality":"Garching bei München","municipality":{"key":"09184119","name":"Garching b.München, St","type":"Stadt"},"district":{"key":"09184","name":"München","type":"Landkreis"},"federalState":{"key":"09","name":"Bayern"}},{"name":"Überrheinerstr.","postalCode":"85551","locality":"Kirchheim bei München","municipality":{"key":"09184131","name":"Kirchheim b.München","type":"Kreisangehörige_Gemeinde"},"district":{"key":"09184","name":"München","type":"Landkreis"},"federalState":{"key":"09","name":"Bayern"}},{"name":"Überseeplatz","postalCode":"81825","locality":"München","municipality":{"key":"09162000","name":"München, Landeshauptstadt","type":"Kreisfreie_Stadt"},"district":{"key":"09162","name":"München, Landeshauptstadt","type":"Kreisfreie_Stadt"},"federalState":{"key":"09","name":"Bayern"}},]