[{"name":"Am Schweinskrug","postalCode":"23898","locality":"Labenz","municipality":{"key":"01053079","name":"Labenz","type":"Kreisangehörige_Gemeinde"},"district":{"key":"01053","name":"Herzogtum Lauenburg","type":"Kreis"},"federalState":{"key":"01","name":"Schleswig-Holstein"}},{"name":"Fuhrweg","postalCode":"23898","locality":"Labenz","municipality":{"key":"01053079","name":"Labenz","type":"Kreisangehörige_Gemeinde"},"district":{"key":"01053","name":"Herzogtum Lauenburg","type":"Kreis"},"federalState":{"key":"01","name":"Schleswig-Holstein"}},{"name":"Godentwiete","postalCode":"23898","locality":"Labenz","municipality":{"key":"01053079","name":"Labenz","type":"Kreisangehörige_Gemeinde"},"district":{"key":"01053","name":"Herzogtum Lauenburg","type":"Kreis"},"federalState":{"key":"01","name":"Schleswig-Holstein"}},{"name":"Hauptstr.","postalCode":"23898","locality":"Labenz","municipality":{"key":"01053079","name":"Labenz","type":"Kreisangehörige_Gemeinde"},"district":{"key":"01053","name":"Herzogtum Lauenburg","type":"Kreis"},"federalState":{"key":"01","name":"Schleswig-Holstein"}},{"name":"Hellerfeld","postalCode":"23898","locality":"Labenz","municipality":{"key":"01053079","name":"Labenz","type":"Kreisangehörige_Gemeinde"},"district":{"key":"01053","name":"Herzogtum Lauenburg","type":"Kreis"},"federalState":{"key":"01","name":"Schleswig-Holstein"}},{"name":"Im Dorfe","postalCode":"23898","locality":"Labenz","municipality":{"key":"01053079","name":"Labenz","type":"Kreisangehörige_Gemeinde"},"district":{"key":"01053","name":"Herzogtum Lauenburg","type":"Kreis"},"federalState":{"key":"01","name":"Schleswig-Holstein"}},{"name":"Im Ruhwinkel","postalCode":"23898","locality":"Labenz","municipality":{"key":"01053079","name":"Labenz","type":"Kreisangehörige_Gemeinde"},"district":{"key":"01053","name":"Herzogtum Lauenburg","type":"Kreis"},"federalState":{"key":"01","name":"Schleswig-Holstein"}},{"name":"Lüchower Weg","postalCode":"23898","locality":"Labenz","municipality":{"key":"01053079","name":"Labenz","type":"Kreisangehörige_Gemeinde"},"district":{"key":"01053","name":"Herzogtum Lauenburg","type":"Kreis"},"federalState":{"key":"01","name":"Schleswig-Holstein"}},{"name":"Moorweg","postalCode":"23898","locality":"Labenz","municipality":{"key":"01053079","name":"Labenz","type":"Kreisangehörige_Gemeinde"},"district":{"key":"01053","name":"Herzogtum Lauenburg","type":"Kreis"},"federalState":{"key":"01","name":"Schleswig-Holstein"}},{"name":"Mühlenkoppel","postalCode":"23898","locality":"Labenz","municipality":{"key":"01053079","name":"Labenz","type":"Kreisangehörige_Gemeinde"},"district":{"key":"01053","name":"Herzogtum Lauenburg","type":"Kreis"},"federalState":{"key":"01","name":"Schleswig-Holstein"}},{"name":"Schmiedetwiete","postalCode":"23898","locality":"Labenz","municipality":{"key":"01053079","name":"Labenz","type":"Kreisangehörige_Gemeinde"},"district":{"key":"01053","name":"Herzogtum Lauenburg","type":"Kreis"},"federalState":{"key":"01","name":"Schleswig-Holstein"}},{"name":"Schulweg","postalCode":"23898","locality":"Labenz","municipality":{"key":"01053079","name":"Labenz","type":"Kreisangehörige_Gemeinde"},"district":{"key":"01053","name":"Herzogtum Lauenburg","type":"Kreis"},"federalState":{"key":"01","name":"Schleswig-Holstein"}},{"name":"Steinhorster Str.","postalCode":"23898","locality":"Labenz","municipality":{"key":"01053079","name":"Labenz","type":"Kreisangehörige_Gemeinde"},"district":{"key":"01053","name":"Herzogtum Lauenburg","type":"Kreis"},"federalState":{"key":"01","name":"Schleswig-Holstein"}},{"name":"Vierstücken","postalCode":"23898","locality":"Labenz","municipality":{"key":"01053079","name":"Labenz","type":"Kreisangehörige_Gemeinde"},"district":{"key":"01053","name":"Herzogtum Lauenburg","type":"Kreis"},"federalState":{"key":"01","name":"Schleswig-Holstein"}},{"name":"Wolfsberg","postalCode":"23898","locality":"Labenz","municipality":{"key":"01053079","name":"Labenz","type":"Kreisangehörige_Gemeinde"},"district":{"key":"01053","name":"Herzogtum Lauenburg","type":"Kreis"},"federalState":{"key":"01","name":"Schleswig-Holstein"}},{"name":"Zum Mühlenteich","postalCode":"23898","locality":"Labenz","municipality":{"key":"01053079","name":"Labenz","type":"Kreisangehörige_Gemeinde"},"district":{"key":"01053","name":"Herzogtum Lauenburg","type":"Kreis"},"federalState":{"key":"01","name":"Schleswig-Holstein"}},]