[{"name":"Am Kaulsbach","postalCode":"07381","locality":"Langenorla","municipality":{"key":"16075054","name":"Langenorla","type":"Kreisangehörige_Gemeinde"},"district":{"key":"16075","name":"Saale-Orla-Kreis","type":"Landkreis"},"federalState":{"key":"16","name":"Thüringen"}},{"name":"An der Bahn","postalCode":"07381","locality":"Langenorla","municipality":{"key":"16075054","name":"Langenorla","type":"Kreisangehörige_Gemeinde"},"district":{"key":"16075","name":"Saale-Orla-Kreis","type":"Landkreis"},"federalState":{"key":"16","name":"Thüringen"}},{"name":"Bettelmann","postalCode":"07381","locality":"Langenorla","municipality":{"key":"16075054","name":"Langenorla","type":"Kreisangehörige_Gemeinde"},"district":{"key":"16075","name":"Saale-Orla-Kreis","type":"Landkreis"},"federalState":{"key":"16","name":"Thüringen"}},{"name":"Dorfstr.","postalCode":"07381","locality":"Langenorla","municipality":{"key":"16075054","name":"Langenorla","type":"Kreisangehörige_Gemeinde"},"district":{"key":"16075","name":"Saale-Orla-Kreis","type":"Landkreis"},"federalState":{"key":"16","name":"Thüringen"}},{"name":"Eichenstr.","postalCode":"07381","locality":"Langenorla","municipality":{"key":"16075054","name":"Langenorla","type":"Kreisangehörige_Gemeinde"},"district":{"key":"16075","name":"Saale-Orla-Kreis","type":"Landkreis"},"federalState":{"key":"16","name":"Thüringen"}},{"name":"Eichtalweg","postalCode":"07381","locality":"Langenorla","municipality":{"key":"16075054","name":"Langenorla","type":"Kreisangehörige_Gemeinde"},"district":{"key":"16075","name":"Saale-Orla-Kreis","type":"Landkreis"},"federalState":{"key":"16","name":"Thüringen"}},{"name":"Fiedlers Steig","postalCode":"07381","locality":"Langenorla","municipality":{"key":"16075054","name":"Langenorla","type":"Kreisangehörige_Gemeinde"},"district":{"key":"16075","name":"Saale-Orla-Kreis","type":"Landkreis"},"federalState":{"key":"16","name":"Thüringen"}},{"name":"Fräßtal","postalCode":"07381","locality":"Langenorla","municipality":{"key":"16075054","name":"Langenorla","type":"Kreisangehörige_Gemeinde"},"district":{"key":"16075","name":"Saale-Orla-Kreis","type":"Landkreis"},"federalState":{"key":"16","name":"Thüringen"}},{"name":"Grenzweg","postalCode":"07381","locality":"Langenorla","municipality":{"key":"16075054","name":"Langenorla","type":"Kreisangehörige_Gemeinde"},"district":{"key":"16075","name":"Saale-Orla-Kreis","type":"Landkreis"},"federalState":{"key":"16","name":"Thüringen"}},{"name":"Heideland","postalCode":"07381","locality":"Langenorla","municipality":{"key":"16075054","name":"Langenorla","type":"Kreisangehörige_Gemeinde"},"district":{"key":"16075","name":"Saale-Orla-Kreis","type":"Landkreis"},"federalState":{"key":"16","name":"Thüringen"}},{"name":"Jenaer Str.","postalCode":"07381","locality":"Langenorla","municipality":{"key":"16075054","name":"Langenorla","type":"Kreisangehörige_Gemeinde"},"district":{"key":"16075","name":"Saale-Orla-Kreis","type":"Landkreis"},"federalState":{"key":"16","name":"Thüringen"}},{"name":"Kreuzweg","postalCode":"07381","locality":"Langenorla","municipality":{"key":"16075054","name":"Langenorla","type":"Kreisangehörige_Gemeinde"},"district":{"key":"16075","name":"Saale-Orla-Kreis","type":"Landkreis"},"federalState":{"key":"16","name":"Thüringen"}},{"name":"Langendembach","postalCode":"07381","locality":"Langenorla","municipality":{"key":"16075054","name":"Langenorla","type":"Kreisangehörige_Gemeinde"},"district":{"key":"16075","name":"Saale-Orla-Kreis","type":"Landkreis"},"federalState":{"key":"16","name":"Thüringen"}},{"name":"Langendembacher Str.","postalCode":"07381","locality":"Langenorla","municipality":{"key":"16075054","name":"Langenorla","type":"Kreisangehörige_Gemeinde"},"district":{"key":"16075","name":"Saale-Orla-Kreis","type":"Landkreis"},"federalState":{"key":"16","name":"Thüringen"}},{"name":"Lochgrund","postalCode":"07381","locality":"Langenorla","municipality":{"key":"16075054","name":"Langenorla","type":"Kreisangehörige_Gemeinde"},"district":{"key":"16075","name":"Saale-Orla-Kreis","type":"Landkreis"},"federalState":{"key":"16","name":"Thüringen"}},{"name":"Ortsstr.","postalCode":"07381","locality":"Langenorla","municipality":{"key":"16075054","name":"Langenorla","type":"Kreisangehörige_Gemeinde"},"district":{"key":"16075","name":"Saale-Orla-Kreis","type":"Landkreis"},"federalState":{"key":"16","name":"Thüringen"}},{"name":"Schweinitzer Weg","postalCode":"07381","locality":"Langenorla","municipality":{"key":"16075054","name":"Langenorla","type":"Kreisangehörige_Gemeinde"},"district":{"key":"16075","name":"Saale-Orla-Kreis","type":"Landkreis"},"federalState":{"key":"16","name":"Thüringen"}},{"name":"Tötschenweg","postalCode":"07381","locality":"Langenorla","municipality":{"key":"16075054","name":"Langenorla","type":"Kreisangehörige_Gemeinde"},"district":{"key":"16075","name":"Saale-Orla-Kreis","type":"Landkreis"},"federalState":{"key":"16","name":"Thüringen"}},{"name":"Umgehungsstr.","postalCode":"07381","locality":"Langenorla","municipality":{"key":"16075054","name":"Langenorla","type":"Kreisangehörige_Gemeinde"},"district":{"key":"16075","name":"Saale-Orla-Kreis","type":"Landkreis"},"federalState":{"key":"16","name":"Thüringen"}},{"name":"Weg ins Hoftal","postalCode":"07381","locality":"Langenorla","municipality":{"key":"16075054","name":"Langenorla","type":"Kreisangehörige_Gemeinde"},"district":{"key":"16075","name":"Saale-Orla-Kreis","type":"Landkreis"},"federalState":{"key":"16","name":"Thüringen"}},{"name":"Werner-Seelenbinder-Weg","postalCode":"07381","locality":"Langenorla","municipality":{"key":"16075054","name":"Langenorla","type":"Kreisangehörige_Gemeinde"},"district":{"key":"16075","name":"Saale-Orla-Kreis","type":"Landkreis"},"federalState":{"key":"16","name":"Thüringen"}},]