[{"name":"Am Altenhof","postalCode":"76857","locality":"Wernersberg","municipality":{"key":"07337083","name":"Wernersberg","type":"Kreisangehörige_Gemeinde"},"district":{"key":"07337","name":"Südliche Weinstraße","type":"Landkreis"},"federalState":{"key":"07","name":"Rheinland-Pfalz"}},{"name":"Am Bornbach","postalCode":"76857","locality":"Wernersberg","municipality":{"key":"07337083","name":"Wernersberg","type":"Kreisangehörige_Gemeinde"},"district":{"key":"07337","name":"Südliche Weinstraße","type":"Landkreis"},"federalState":{"key":"07","name":"Rheinland-Pfalz"}},{"name":"Am Löhl","postalCode":"76857","locality":"Wernersberg","municipality":{"key":"07337083","name":"Wernersberg","type":"Kreisangehörige_Gemeinde"},"district":{"key":"07337","name":"Südliche Weinstraße","type":"Landkreis"},"federalState":{"key":"07","name":"Rheinland-Pfalz"}},{"name":"Am Rothenberg","postalCode":"76857","locality":"Wernersberg","municipality":{"key":"07337083","name":"Wernersberg","type":"Kreisangehörige_Gemeinde"},"district":{"key":"07337","name":"Südliche Weinstraße","type":"Landkreis"},"federalState":{"key":"07","name":"Rheinland-Pfalz"}},{"name":"Auf der Acht","postalCode":"76857","locality":"Wernersberg","municipality":{"key":"07337083","name":"Wernersberg","type":"Kreisangehörige_Gemeinde"},"district":{"key":"07337","name":"Südliche Weinstraße","type":"Landkreis"},"federalState":{"key":"07","name":"Rheinland-Pfalz"}},{"name":"Bergstr.","postalCode":"76857","locality":"Wernersberg","municipality":{"key":"07337083","name":"Wernersberg","type":"Kreisangehörige_Gemeinde"},"district":{"key":"07337","name":"Südliche Weinstraße","type":"Landkreis"},"federalState":{"key":"07","name":"Rheinland-Pfalz"}},{"name":"Birkenstr.","postalCode":"76857","locality":"Wernersberg","municipality":{"key":"07337083","name":"Wernersberg","type":"Kreisangehörige_Gemeinde"},"district":{"key":"07337","name":"Südliche Weinstraße","type":"Landkreis"},"federalState":{"key":"07","name":"Rheinland-Pfalz"}},{"name":"Friedhofstr.","postalCode":"76857","locality":"Wernersberg","municipality":{"key":"07337083","name":"Wernersberg","type":"Kreisangehörige_Gemeinde"},"district":{"key":"07337","name":"Südliche Weinstraße","type":"Landkreis"},"federalState":{"key":"07","name":"Rheinland-Pfalz"}},{"name":"Gartenstr.","postalCode":"76857","locality":"Wernersberg","municipality":{"key":"07337083","name":"Wernersberg","type":"Kreisangehörige_Gemeinde"},"district":{"key":"07337","name":"Südliche Weinstraße","type":"Landkreis"},"federalState":{"key":"07","name":"Rheinland-Pfalz"}},{"name":"Hauptstr.","postalCode":"76857","locality":"Wernersberg","municipality":{"key":"07337083","name":"Wernersberg","type":"Kreisangehörige_Gemeinde"},"district":{"key":"07337","name":"Südliche Weinstraße","type":"Landkreis"},"federalState":{"key":"07","name":"Rheinland-Pfalz"}},{"name":"Kapellenstr.","postalCode":"76857","locality":"Wernersberg","municipality":{"key":"07337083","name":"Wernersberg","type":"Kreisangehörige_Gemeinde"},"district":{"key":"07337","name":"Südliche Weinstraße","type":"Landkreis"},"federalState":{"key":"07","name":"Rheinland-Pfalz"}},{"name":"Kirchstr.","postalCode":"76857","locality":"Wernersberg","municipality":{"key":"07337083","name":"Wernersberg","type":"Kreisangehörige_Gemeinde"},"district":{"key":"07337","name":"Südliche Weinstraße","type":"Landkreis"},"federalState":{"key":"07","name":"Rheinland-Pfalz"}},{"name":"Knoddelgass","postalCode":"76857","locality":"Wernersberg","municipality":{"key":"07337083","name":"Wernersberg","type":"Kreisangehörige_Gemeinde"},"district":{"key":"07337","name":"Südliche Weinstraße","type":"Landkreis"},"federalState":{"key":"07","name":"Rheinland-Pfalz"}},{"name":"Krautgärten","postalCode":"76857","locality":"Wernersberg","municipality":{"key":"07337083","name":"Wernersberg","type":"Kreisangehörige_Gemeinde"},"district":{"key":"07337","name":"Südliche Weinstraße","type":"Landkreis"},"federalState":{"key":"07","name":"Rheinland-Pfalz"}},{"name":"Maisbachstr.","postalCode":"76857","locality":"Wernersberg","municipality":{"key":"07337083","name":"Wernersberg","type":"Kreisangehörige_Gemeinde"},"district":{"key":"07337","name":"Südliche Weinstraße","type":"Landkreis"},"federalState":{"key":"07","name":"Rheinland-Pfalz"}},{"name":"Mühlstr.","postalCode":"76857","locality":"Wernersberg","municipality":{"key":"07337083","name":"Wernersberg","type":"Kreisangehörige_Gemeinde"},"district":{"key":"07337","name":"Südliche Weinstraße","type":"Landkreis"},"federalState":{"key":"07","name":"Rheinland-Pfalz"}},{"name":"Neudorfstr.","postalCode":"76857","locality":"Wernersberg","municipality":{"key":"07337083","name":"Wernersberg","type":"Kreisangehörige_Gemeinde"},"district":{"key":"07337","name":"Südliche Weinstraße","type":"Landkreis"},"federalState":{"key":"07","name":"Rheinland-Pfalz"}},{"name":"Nußfeldstr.","postalCode":"76857","locality":"Wernersberg","municipality":{"key":"07337083","name":"Wernersberg","type":"Kreisangehörige_Gemeinde"},"district":{"key":"07337","name":"Südliche Weinstraße","type":"Landkreis"},"federalState":{"key":"07","name":"Rheinland-Pfalz"}},{"name":"Obere Nußfeldstr.","postalCode":"76857","locality":"Wernersberg","municipality":{"key":"07337083","name":"Wernersberg","type":"Kreisangehörige_Gemeinde"},"district":{"key":"07337","name":"Südliche Weinstraße","type":"Landkreis"},"federalState":{"key":"07","name":"Rheinland-Pfalz"}},{"name":"Oststr.","postalCode":"76857","locality":"Wernersberg","municipality":{"key":"07337083","name":"Wernersberg","type":"Kreisangehörige_Gemeinde"},"district":{"key":"07337","name":"Südliche Weinstraße","type":"Landkreis"},"federalState":{"key":"07","name":"Rheinland-Pfalz"}},{"name":"Schulstr.","postalCode":"76857","locality":"Wernersberg","municipality":{"key":"07337083","name":"Wernersberg","type":"Kreisangehörige_Gemeinde"},"district":{"key":"07337","name":"Südliche Weinstraße","type":"Landkreis"},"federalState":{"key":"07","name":"Rheinland-Pfalz"}},{"name":"Waldstr.","postalCode":"76857","locality":"Wernersberg","municipality":{"key":"07337083","name":"Wernersberg","type":"Kreisangehörige_Gemeinde"},"district":{"key":"07337","name":"Südliche Weinstraße","type":"Landkreis"},"federalState":{"key":"07","name":"Rheinland-Pfalz"}},{"name":"Wiesenstr.","postalCode":"76857","locality":"Wernersberg","municipality":{"key":"07337083","name":"Wernersberg","type":"Kreisangehörige_Gemeinde"},"district":{"key":"07337","name":"Südliche Weinstraße","type":"Landkreis"},"federalState":{"key":"07","name":"Rheinland-Pfalz"}},{"name":"Zum Geierstein","postalCode":"76857","locality":"Wernersberg","municipality":{"key":"07337083","name":"Wernersberg","type":"Kreisangehörige_Gemeinde"},"district":{"key":"07337","name":"Südliche Weinstraße","type":"Landkreis"},"federalState":{"key":"07","name":"Rheinland-Pfalz"}},{"name":"Zum Osterbrunnen","postalCode":"76857","locality":"Wernersberg","municipality":{"key":"07337083","name":"Wernersberg","type":"Kreisangehörige_Gemeinde"},"district":{"key":"07337","name":"Südliche Weinstraße","type":"Landkreis"},"federalState":{"key":"07","name":"Rheinland-Pfalz"}},]