[{"key":"10009466","name":"Allmendweg","postalCode":"3236","locality":"Gampelen","commune":{"key":"2284","name":"Mont-Vully","shortName":"Mont-Vully"},"district":{"key":"1005","name":"Bezirk See / District du Lac"},"canton":{"key":"10","code":"FR","name":"Fribourg / Freiburg"},"status":"Real"},{"key":"10188199","name":"Alte Neuenburgstrasse","postalCode":"3236","locality":"Gampelen","commune":{"key":"2284","name":"Mont-Vully","shortName":"Mont-Vully"},"district":{"key":"1005","name":"Bezirk See / District du Lac"},"canton":{"key":"10","code":"FR","name":"Fribourg / Freiburg"},"status":"Real"},{"key":"10221118","name":"Artillerieweg","postalCode":"3236","locality":"Gampelen","commune":{"key":"2284","name":"Mont-Vully","shortName":"Mont-Vully"},"district":{"key":"1005","name":"Bezirk See / District du Lac"},"canton":{"key":"10","code":"FR","name":"Fribourg / Freiburg"},"status":"Real"},{"key":"10009467","name":"Bahnhofstrasse","postalCode":"3236","locality":"Gampelen","commune":{"key":"2284","name":"Mont-Vully","shortName":"Mont-Vully"},"district":{"key":"1005","name":"Bezirk See / District du Lac"},"canton":{"key":"10","code":"FR","name":"Fribourg / Freiburg"},"status":"Real"},{"key":"10176258","name":"Birkenhof","postalCode":"3236","locality":"Gampelen","commune":{"key":"2284","name":"Mont-Vully","shortName":"Mont-Vully"},"district":{"key":"1005","name":"Bezirk See / District du Lac"},"canton":{"key":"10","code":"FR","name":"Fribourg / Freiburg"},"status":"Real"},{"key":"10082489","name":"Böschenteileweg","postalCode":"3236","locality":"Gampelen","commune":{"key":"2284","name":"Mont-Vully","shortName":"Mont-Vully"},"district":{"key":"1005","name":"Bezirk See / District du Lac"},"canton":{"key":"10","code":"FR","name":"Fribourg / Freiburg"},"status":"Real"},{"key":"10253526","name":"Cudrefinstrasse","postalCode":"3236","locality":"Gampelen","commune":{"key":"2284","name":"Mont-Vully","shortName":"Mont-Vully"},"district":{"key":"1005","name":"Bezirk See / District du Lac"},"canton":{"key":"10","code":"FR","name":"Fribourg / Freiburg"},"status":"Real"},{"key":"10009468","name":"Cudrefinstrasse","postalCode":"3236","locality":"Gampelen","commune":{"key":"2284","name":"Mont-Vully","shortName":"Mont-Vully"},"district":{"key":"1005","name":"Bezirk See / District du Lac"},"canton":{"key":"10","code":"FR","name":"Fribourg / Freiburg"},"status":"Real"},{"key":"10221122","name":"Denkmalweg","postalCode":"3236","locality":"Gampelen","commune":{"key":"2284","name":"Mont-Vully","shortName":"Mont-Vully"},"district":{"key":"1005","name":"Bezirk See / District du Lac"},"canton":{"key":"10","code":"FR","name":"Fribourg / Freiburg"},"status":"Real"},{"key":"10082490","name":"Dröschiweg","postalCode":"3236","locality":"Gampelen","commune":{"key":"2284","name":"Mont-Vully","shortName":"Mont-Vully"},"district":{"key":"1005","name":"Bezirk See / District du Lac"},"canton":{"key":"10","code":"FR","name":"Fribourg / Freiburg"},"status":"Real"},{"key":"10045575","name":"Erlenhof","postalCode":"3236","locality":"Gampelen","commune":{"key":"2284","name":"Mont-Vully","shortName":"Mont-Vully"},"district":{"key":"1005","name":"Bezirk See / District du Lac"},"canton":{"key":"10","code":"FR","name":"Fribourg / Freiburg"},"status":"Real"},{"key":"10176007","name":"Eschenhof","postalCode":"3236","locality":"Gampelen","commune":{"key":"2284","name":"Mont-Vully","shortName":"Mont-Vully"},"district":{"key":"1005","name":"Bezirk See / District du Lac"},"canton":{"key":"10","code":"FR","name":"Fribourg / Freiburg"},"status":"Real"},{"key":"10221126","name":"Gampelemoos","postalCode":"3236","locality":"Gampelen","commune":{"key":"2284","name":"Mont-Vully","shortName":"Mont-Vully"},"district":{"key":"1005","name":"Bezirk See / District du Lac"},"canton":{"key":"10","code":"FR","name":"Fribourg / Freiburg"},"status":"Real"},{"key":"10151639","name":"Gewerbestrasse","postalCode":"3236","locality":"Gampelen","commune":{"key":"2284","name":"Mont-Vully","shortName":"Mont-Vully"},"district":{"key":"1005","name":"Bezirk See / District du Lac"},"canton":{"key":"10","code":"FR","name":"Fribourg / Freiburg"},"status":"Real"},{"key":"10221132","name":"Gürlenweg","postalCode":"3236","locality":"Gampelen","commune":{"key":"2284","name":"Mont-Vully","shortName":"Mont-Vully"},"district":{"key":"1005","name":"Bezirk See / District du Lac"},"canton":{"key":"10","code":"FR","name":"Fribourg / Freiburg"},"status":"Real"},{"key":"10221135","name":"Hauptweg","postalCode":"3236","locality":"Gampelen","commune":{"key":"2284","name":"Mont-Vully","shortName":"Mont-Vully"},"district":{"key":"1005","name":"Bezirk See / District du Lac"},"canton":{"key":"10","code":"FR","name":"Fribourg / Freiburg"},"status":"Real"},{"key":"10221139","name":"Hohlenweg","postalCode":"3236","locality":"Gampelen","commune":{"key":"2284","name":"Mont-Vully","shortName":"Mont-Vully"},"district":{"key":"1005","name":"Bezirk See / District du Lac"},"canton":{"key":"10","code":"FR","name":"Fribourg / Freiburg"},"status":"Real"},{"key":"10066263","name":"Holdern","postalCode":"3236","locality":"Gampelen","commune":{"key":"2284","name":"Mont-Vully","shortName":"Mont-Vully"},"district":{"key":"1005","name":"Bezirk See / District du Lac"},"canton":{"key":"10","code":"FR","name":"Fribourg / Freiburg"},"status":"Real"},{"key":"10009758","name":"Insstrasse","postalCode":"3236","locality":"Gampelen","commune":{"key":"2284","name":"Mont-Vully","shortName":"Mont-Vully"},"district":{"key":"1005","name":"Bezirk See / District du Lac"},"canton":{"key":"10","code":"FR","name":"Fribourg / Freiburg"},"status":"Real"},{"key":"10104059","name":"Islerenhölzli","postalCode":"3236","locality":"Gampelen","commune":{"key":"2284","name":"Mont-Vully","shortName":"Mont-Vully"},"district":{"key":"1005","name":"Bezirk See / District du Lac"},"canton":{"key":"10","code":"FR","name":"Fribourg / Freiburg"},"status":"Real"},{"key":"10221143","name":"Laritschweg","postalCode":"3236","locality":"Gampelen","commune":{"key":"2284","name":"Mont-Vully","shortName":"Mont-Vully"},"district":{"key":"1005","name":"Bezirk See / District du Lac"},"canton":{"key":"10","code":"FR","name":"Fribourg / Freiburg"},"status":"Real"},{"key":"10221147","name":"Leinacherweg","postalCode":"3236","locality":"Gampelen","commune":{"key":"2284","name":"Mont-Vully","shortName":"Mont-Vully"},"district":{"key":"1005","name":"Bezirk See / District du Lac"},"canton":{"key":"10","code":"FR","name":"Fribourg / Freiburg"},"status":"Real"},{"key":"10253586","name":"Le Riondet","postalCode":"3236","locality":"Gampelen","commune":{"key":"2284","name":"Mont-Vully","shortName":"Mont-Vully"},"district":{"key":"1005","name":"Bezirk See / District du Lac"},"canton":{"key":"10","code":"FR","name":"Fribourg / Freiburg"},"status":"Real"},{"key":"10221151","name":"Lindenhof","postalCode":"3236","locality":"Gampelen","commune":{"key":"2284","name":"Mont-Vully","shortName":"Mont-Vully"},"district":{"key":"1005","name":"Bezirk See / District du Lac"},"canton":{"key":"10","code":"FR","name":"Fribourg / Freiburg"},"status":"Real"},{"key":"10066268","name":"Lindenhof","postalCode":"3236","locality":"Gampelen","commune":{"key":"2284","name":"Mont-Vully","shortName":"Mont-Vully"},"district":{"key":"1005","name":"Bezirk See / District du Lac"},"canton":{"key":"10","code":"FR","name":"Fribourg / Freiburg"},"status":"Real"},{"key":"10217694","name":"Mauriweg","postalCode":"3236","locality":"Gampelen","commune":{"key":"2284","name":"Mont-Vully","shortName":"Mont-Vully"},"district":{"key":"1005","name":"Bezirk See / District du Lac"},"canton":{"key":"10","code":"FR","name":"Fribourg / Freiburg"},"status":"Real"},{"key":"10202602","name":"Moosteile","postalCode":"3236","locality":"Gampelen","commune":{"key":"2284","name":"Mont-Vully","shortName":"Mont-Vully"},"district":{"key":"1005","name":"Bezirk See / District du Lac"},"canton":{"key":"10","code":"FR","name":"Fribourg / Freiburg"},"status":"Real"},{"key":"10221155","name":"Neuenburgersee","postalCode":"3236","locality":"Gampelen","commune":{"key":"2284","name":"Mont-Vully","shortName":"Mont-Vully"},"district":{"key":"1005","name":"Bezirk See / District du Lac"},"canton":{"key":"10","code":"FR","name":"Fribourg / Freiburg"},"status":"Real"},{"key":"10112122","name":"Neuenburgstrasse","postalCode":"3236","locality":"Gampelen","commune":{"key":"2284","name":"Mont-Vully","shortName":"Mont-Vully"},"district":{"key":"1005","name":"Bezirk See / District du Lac"},"canton":{"key":"10","code":"FR","name":"Fribourg / Freiburg"},"status":"Real"},{"key":"10082491","name":"Oberdorfstrasse","postalCode":"3236","locality":"Gampelen","commune":{"key":"2284","name":"Mont-Vully","shortName":"Mont-Vully"},"district":{"key":"1005","name":"Bezirk See / District du Lac"},"canton":{"key":"10","code":"FR","name":"Fribourg / Freiburg"},"status":"Real"},{"key":"10221160","name":"Oberholenbodenweg","postalCode":"3236","locality":"Gampelen","commune":{"key":"2284","name":"Mont-Vully","shortName":"Mont-Vully"},"district":{"key":"1005","name":"Bezirk See / District du Lac"},"canton":{"key":"10","code":"FR","name":"Fribourg / Freiburg"},"status":"Real"},{"key":"10169626","name":"Platanenstrasse","postalCode":"3236","locality":"Gampelen","commune":{"key":"2284","name":"Mont-Vully","shortName":"Mont-Vully"},"district":{"key":"1005","name":"Bezirk See / District du Lac"},"canton":{"key":"10","code":"FR","name":"Fribourg / Freiburg"},"status":"Real"},{"key":"10009759","name":"Rainackerweg","postalCode":"3236","locality":"Gampelen","commune":{"key":"2284","name":"Mont-Vully","shortName":"Mont-Vully"},"district":{"key":"1005","name":"Bezirk See / District du Lac"},"canton":{"key":"10","code":"FR","name":"Fribourg / Freiburg"},"status":"Real"},{"key":"10009760","name":"Rebenweg","postalCode":"3236","locality":"Gampelen","commune":{"key":"2284","name":"Mont-Vully","shortName":"Mont-Vully"},"district":{"key":"1005","name":"Bezirk See / District du Lac"},"canton":{"key":"10","code":"FR","name":"Fribourg / Freiburg"},"status":"Real"},{"key":"10066264","name":"Reckholdern","postalCode":"3236","locality":"Gampelen","commune":{"key":"2284","name":"Mont-Vully","shortName":"Mont-Vully"},"district":{"key":"1005","name":"Bezirk See / District du Lac"},"canton":{"key":"10","code":"FR","name":"Fribourg / Freiburg"},"status":"Real"},{"key":"10174752","name":"Rondi","postalCode":"3236","locality":"Gampelen","commune":{"key":"2284","name":"Mont-Vully","shortName":"Mont-Vully"},"district":{"key":"1005","name":"Bezirk See / District du Lac"},"canton":{"key":"10","code":"FR","name":"Fribourg / Freiburg"},"status":"Real"},{"key":"10009761","name":"Rothausstrasse","postalCode":"3236","locality":"Gampelen","commune":{"key":"2284","name":"Mont-Vully","shortName":"Mont-Vully"},"district":{"key":"1005","name":"Bezirk See / District du Lac"},"canton":{"key":"10","code":"FR","name":"Fribourg / Freiburg"},"status":"Real"},{"key":"10082492","name":"Seestrasse","postalCode":"3236","locality":"Gampelen","commune":{"key":"2284","name":"Mont-Vully","shortName":"Mont-Vully"},"district":{"key":"1005","name":"Bezirk See / District du Lac"},"canton":{"key":"10","code":"FR","name":"Fribourg / Freiburg"},"status":"Real"},{"key":"10221164","name":"Seewald","postalCode":"3236","locality":"Gampelen","commune":{"key":"2284","name":"Mont-Vully","shortName":"Mont-Vully"},"district":{"key":"1005","name":"Bezirk See / District du Lac"},"canton":{"key":"10","code":"FR","name":"Fribourg / Freiburg"},"status":"Real"},{"key":"10009762","name":"Siedlung Seewald","postalCode":"3236","locality":"Gampelen","commune":{"key":"2284","name":"Mont-Vully","shortName":"Mont-Vully"},"district":{"key":"1005","name":"Bezirk See / District du Lac"},"canton":{"key":"10","code":"FR","name":"Fribourg / Freiburg"},"status":"Real"},{"key":"10173728","name":"Strandboden","postalCode":"3236","locality":"Gampelen","commune":{"key":"2284","name":"Mont-Vully","shortName":"Mont-Vully"},"district":{"key":"1005","name":"Bezirk See / District du Lac"},"canton":{"key":"10","code":"FR","name":"Fribourg / Freiburg"},"status":"Real"},{"key":"10176257","name":"Tannenhof","postalCode":"3236","locality":"Gampelen","commune":{"key":"2284","name":"Mont-Vully","shortName":"Mont-Vully"},"district":{"key":"1005","name":"Bezirk See / District du Lac"},"canton":{"key":"10","code":"FR","name":"Fribourg / Freiburg"},"status":"Real"},{"key":"10174336","name":"Tannenhüsli","postalCode":"3236","locality":"Gampelen","commune":{"key":"2284","name":"Mont-Vully","shortName":"Mont-Vully"},"district":{"key":"1005","name":"Bezirk See / District du Lac"},"canton":{"key":"10","code":"FR","name":"Fribourg / Freiburg"},"status":"Real"},{"key":"10082493","name":"Tschuggstrasse","postalCode":"3236","locality":"Gampelen","commune":{"key":"2284","name":"Mont-Vully","shortName":"Mont-Vully"},"district":{"key":"1005","name":"Bezirk See / District du Lac"},"canton":{"key":"10","code":"FR","name":"Fribourg / Freiburg"},"status":"Real"},{"key":"10124927","name":"Unterdorfstrasse","postalCode":"3236","locality":"Gampelen","commune":{"key":"2284","name":"Mont-Vully","shortName":"Mont-Vully"},"district":{"key":"1005","name":"Bezirk See / District du Lac"},"canton":{"key":"10","code":"FR","name":"Fribourg / Freiburg"},"status":"Real"},{"key":"10117130","name":"Untere Gürle","postalCode":"3236","locality":"Gampelen","commune":{"key":"2284","name":"Mont-Vully","shortName":"Mont-Vully"},"district":{"key":"1005","name":"Bezirk See / District du Lac"},"canton":{"key":"10","code":"FR","name":"Fribourg / Freiburg"},"status":"Real"},{"key":"10009763","name":"Untermatteweg","postalCode":"3236","locality":"Gampelen","commune":{"key":"2284","name":"Mont-Vully","shortName":"Mont-Vully"},"district":{"key":"1005","name":"Bezirk See / District du Lac"},"canton":{"key":"10","code":"FR","name":"Fribourg / Freiburg"},"status":"Real"},{"key":"10217634","name":"Witzwilmoos","postalCode":"3236","locality":"Gampelen","commune":{"key":"2284","name":"Mont-Vully","shortName":"Mont-Vully"},"district":{"key":"1005","name":"Bezirk See / District du Lac"},"canton":{"key":"10","code":"FR","name":"Fribourg / Freiburg"},"status":"Real"},{"key":"10082501","name":"Witzwilstrasse","postalCode":"3236","locality":"Gampelen","commune":{"key":"2284","name":"Mont-Vully","shortName":"Mont-Vully"},"district":{"key":"1005","name":"Bezirk See / District du Lac"},"canton":{"key":"10","code":"FR","name":"Fribourg / Freiburg"},"status":"Real"},{"key":"10009778","name":"Ziegelhof","postalCode":"3236","locality":"Gampelen","commune":{"key":"2284","name":"Mont-Vully","shortName":"Mont-Vully"},"district":{"key":"1005","name":"Bezirk See / District du Lac"},"canton":{"key":"10","code":"FR","name":"Fribourg / Freiburg"},"status":"Real"},{"key":"10217638","name":"Ziegelmoos","postalCode":"3236","locality":"Gampelen","commune":{"key":"2284","name":"Mont-Vully","shortName":"Mont-Vully"},"district":{"key":"1005","name":"Bezirk See / District du Lac"},"canton":{"key":"10","code":"FR","name":"Fribourg / Freiburg"},"status":"Real"},{"key":"10082494","name":"Zimmerplatz","postalCode":"3236","locality":"Gampelen","commune":{"key":"2284","name":"Mont-Vully","shortName":"Mont-Vully"},"district":{"key":"1005","name":"Bezirk See / District du Lac"},"canton":{"key":"10","code":"FR","name":"Fribourg / Freiburg"},"status":"Real"},]