[{"name":"Alte Kirchgasse","postalCode":"56858","locality":"Sankt Aldegund","municipality":{"key":"07135076","name":"Sankt Aldegund","type":"Kreisangehörige_Gemeinde"},"district":{"key":"07135","name":"Cochem-Zell","type":"Landkreis"},"federalState":{"key":"07","name":"Rheinland-Pfalz"}},{"name":"Am Moselstausee","postalCode":"56858","locality":"Sankt Aldegund","municipality":{"key":"07135076","name":"Sankt Aldegund","type":"Kreisangehörige_Gemeinde"},"district":{"key":"07135","name":"Cochem-Zell","type":"Landkreis"},"federalState":{"key":"07","name":"Rheinland-Pfalz"}},{"name":"Auf der Teusch","postalCode":"56858","locality":"Sankt Aldegund","municipality":{"key":"07135076","name":"Sankt Aldegund","type":"Kreisangehörige_Gemeinde"},"district":{"key":"07135","name":"Cochem-Zell","type":"Landkreis"},"federalState":{"key":"07","name":"Rheinland-Pfalz"}},{"name":"Bergstr.","postalCode":"56858","locality":"Sankt Aldegund","municipality":{"key":"07135076","name":"Sankt Aldegund","type":"Kreisangehörige_Gemeinde"},"district":{"key":"07135","name":"Cochem-Zell","type":"Landkreis"},"federalState":{"key":"07","name":"Rheinland-Pfalz"}},{"name":"Brunnenstr.","postalCode":"56858","locality":"Sankt Aldegund","municipality":{"key":"07135076","name":"Sankt Aldegund","type":"Kreisangehörige_Gemeinde"},"district":{"key":"07135","name":"Cochem-Zell","type":"Landkreis"},"federalState":{"key":"07","name":"Rheinland-Pfalz"}},{"name":"Christophorusstr.","postalCode":"56858","locality":"Sankt Aldegund","municipality":{"key":"07135076","name":"Sankt Aldegund","type":"Kreisangehörige_Gemeinde"},"district":{"key":"07135","name":"Cochem-Zell","type":"Landkreis"},"federalState":{"key":"07","name":"Rheinland-Pfalz"}},{"name":"Im Bungert","postalCode":"56858","locality":"Sankt Aldegund","municipality":{"key":"07135076","name":"Sankt Aldegund","type":"Kreisangehörige_Gemeinde"},"district":{"key":"07135","name":"Cochem-Zell","type":"Landkreis"},"federalState":{"key":"07","name":"Rheinland-Pfalz"}},{"name":"Kapellenstr.","postalCode":"56858","locality":"Sankt Aldegund","municipality":{"key":"07135076","name":"Sankt Aldegund","type":"Kreisangehörige_Gemeinde"},"district":{"key":"07135","name":"Cochem-Zell","type":"Landkreis"},"federalState":{"key":"07","name":"Rheinland-Pfalz"}},{"name":"Klosterkammerstr.","postalCode":"56858","locality":"Sankt Aldegund","municipality":{"key":"07135076","name":"Sankt Aldegund","type":"Kreisangehörige_Gemeinde"},"district":{"key":"07135","name":"Cochem-Zell","type":"Landkreis"},"federalState":{"key":"07","name":"Rheinland-Pfalz"}},{"name":"Römerstr.","postalCode":"56858","locality":"Sankt Aldegund","municipality":{"key":"07135076","name":"Sankt Aldegund","type":"Kreisangehörige_Gemeinde"},"district":{"key":"07135","name":"Cochem-Zell","type":"Landkreis"},"federalState":{"key":"07","name":"Rheinland-Pfalz"}},{"name":"Zehnthausstr.","postalCode":"56858","locality":"Sankt Aldegund","municipality":{"key":"07135076","name":"Sankt Aldegund","type":"Kreisangehörige_Gemeinde"},"district":{"key":"07135","name":"Cochem-Zell","type":"Landkreis"},"federalState":{"key":"07","name":"Rheinland-Pfalz"}},]