[{"key":"10058188","name":"Bas du Village","postalCode":"2762","locality":"Roches BE","commune":{"key":"704","name":"Roches (BE)","shortName":"Roches (BE)"},"district":{"key":"241","name":"Arrondissement administratif Jura bernois"},"canton":{"key":"2","code":"BE","name":"Bern / Berne"},"status":"Real"},{"key":"10131157","name":"Champs la Joux","postalCode":"2762","locality":"Roches BE","commune":{"key":"704","name":"Roches (BE)","shortName":"Roches (BE)"},"district":{"key":"241","name":"Arrondissement administratif Jura bernois"},"canton":{"key":"2","code":"BE","name":"Bern / Berne"},"status":"Real"},{"key":"10247484","name":"Côte de l'Envers","postalCode":"2762","locality":"Roches BE","commune":{"key":"704","name":"Roches (BE)","shortName":"Roches (BE)"},"district":{"key":"241","name":"Arrondissement administratif Jura bernois"},"canton":{"key":"2","code":"BE","name":"Bern / Berne"},"status":"Real"},{"key":"10247485","name":"Derrière la Roche","postalCode":"2762","locality":"Roches BE","commune":{"key":"704","name":"Roches (BE)","shortName":"Roches (BE)"},"district":{"key":"241","name":"Arrondissement administratif Jura bernois"},"canton":{"key":"2","code":"BE","name":"Bern / Berne"},"status":"Real"},{"key":"10216646","name":"Dos la Gattre","postalCode":"2762","locality":"Roches BE","commune":{"key":"704","name":"Roches (BE)","shortName":"Roches (BE)"},"district":{"key":"241","name":"Arrondissement administratif Jura bernois"},"canton":{"key":"2","code":"BE","name":"Bern / Berne"},"status":"Real"},{"key":"10079654","name":"Haut du Village","postalCode":"2762","locality":"Roches BE","commune":{"key":"704","name":"Roches (BE)","shortName":"Roches (BE)"},"district":{"key":"241","name":"Arrondissement administratif Jura bernois"},"canton":{"key":"2","code":"BE","name":"Bern / Berne"},"status":"Real"},{"key":"10216651","name":"La Belleface","postalCode":"2762","locality":"Roches BE","commune":{"key":"704","name":"Roches (BE)","shortName":"Roches (BE)"},"district":{"key":"241","name":"Arrondissement administratif Jura bernois"},"canton":{"key":"2","code":"BE","name":"Bern / Berne"},"status":"Real"},{"key":"10192345","name":"La Charbonnière","postalCode":"2762","locality":"Roches BE","commune":{"key":"704","name":"Roches (BE)","shortName":"Roches (BE)"},"district":{"key":"241","name":"Arrondissement administratif Jura bernois"},"canton":{"key":"2","code":"BE","name":"Bern / Berne"},"status":"Real"},{"key":"10008497","name":"La Combe","postalCode":"2762","locality":"Roches BE","commune":{"key":"704","name":"Roches (BE)","shortName":"Roches (BE)"},"district":{"key":"241","name":"Arrondissement administratif Jura bernois"},"canton":{"key":"2","code":"BE","name":"Bern / Berne"},"status":"Real"},{"key":"10192238","name":"La Nan","postalCode":"2762","locality":"Roches BE","commune":{"key":"704","name":"Roches (BE)","shortName":"Roches (BE)"},"district":{"key":"241","name":"Arrondissement administratif Jura bernois"},"canton":{"key":"2","code":"BE","name":"Bern / Berne"},"status":"Real"},{"key":"10059317","name":"La Roche ès Corbets","postalCode":"2762","locality":"Roches BE","commune":{"key":"704","name":"Roches (BE)","shortName":"Roches (BE)"},"district":{"key":"241","name":"Arrondissement administratif Jura bernois"},"canton":{"key":"2","code":"BE","name":"Bern / Berne"},"status":"Real"},{"key":"10191425","name":"La Roche St-Jean","postalCode":"2762","locality":"Roches BE","commune":{"key":"704","name":"Roches (BE)","shortName":"Roches (BE)"},"district":{"key":"241","name":"Arrondissement administratif Jura bernois"},"canton":{"key":"2","code":"BE","name":"Bern / Berne"},"status":"Real"},{"key":"10216656","name":"Le petit Raimeux","postalCode":"2762","locality":"Roches BE","commune":{"key":"704","name":"Roches (BE)","shortName":"Roches (BE)"},"district":{"key":"241","name":"Arrondissement administratif Jura bernois"},"canton":{"key":"2","code":"BE","name":"Bern / Berne"},"status":"Real"},{"key":"10008498","name":"Le Raimeux","postalCode":"2762","locality":"Roches BE","commune":{"key":"704","name":"Roches (BE)","shortName":"Roches (BE)"},"district":{"key":"241","name":"Arrondissement administratif Jura bernois"},"canton":{"key":"2","code":"BE","name":"Bern / Berne"},"status":"Real"},{"key":"10216659","name":"Les Cras","postalCode":"2762","locality":"Roches BE","commune":{"key":"704","name":"Roches (BE)","shortName":"Roches (BE)"},"district":{"key":"241","name":"Arrondissement administratif Jura bernois"},"canton":{"key":"2","code":"BE","name":"Bern / Berne"},"status":"Real"},{"key":"10008500","name":"Les Hautes Roches","postalCode":"2762","locality":"Roches BE","commune":{"key":"704","name":"Roches (BE)","shortName":"Roches (BE)"},"district":{"key":"241","name":"Arrondissement administratif Jura bernois"},"canton":{"key":"2","code":"BE","name":"Bern / Berne"},"status":"Real"},{"key":"10202959","name":"L'Essert Guenin","postalCode":"2762","locality":"Roches BE","commune":{"key":"704","name":"Roches (BE)","shortName":"Roches (BE)"},"district":{"key":"241","name":"Arrondissement administratif Jura bernois"},"canton":{"key":"2","code":"BE","name":"Bern / Berne"},"status":"Real"},{"key":"10216663","name":"Les Vieux Prés","postalCode":"2762","locality":"Roches BE","commune":{"key":"704","name":"Roches (BE)","shortName":"Roches (BE)"},"district":{"key":"241","name":"Arrondissement administratif Jura bernois"},"canton":{"key":"2","code":"BE","name":"Bern / Berne"},"status":"Real"},{"key":"10202960","name":"Le Trondai","postalCode":"2762","locality":"Roches BE","commune":{"key":"704","name":"Roches (BE)","shortName":"Roches (BE)"},"district":{"key":"241","name":"Arrondissement administratif Jura bernois"},"canton":{"key":"2","code":"BE","name":"Bern / Berne"},"status":"Real"},{"key":"10197131","name":"Le Vélie","postalCode":"2762","locality":"Roches BE","commune":{"key":"704","name":"Roches (BE)","shortName":"Roches (BE)"},"district":{"key":"241","name":"Arrondissement administratif Jura bernois"},"canton":{"key":"2","code":"BE","name":"Bern / Berne"},"status":"Real"},{"key":"10059316","name":"Le Vevay","postalCode":"2762","locality":"Roches BE","commune":{"key":"704","name":"Roches (BE)","shortName":"Roches (BE)"},"district":{"key":"241","name":"Arrondissement administratif Jura bernois"},"canton":{"key":"2","code":"BE","name":"Bern / Berne"},"status":"Real"},{"key":"10216667","name":"Milieu de l'Envers","postalCode":"2762","locality":"Roches BE","commune":{"key":"704","name":"Roches (BE)","shortName":"Roches (BE)"},"district":{"key":"241","name":"Arrondissement administratif Jura bernois"},"canton":{"key":"2","code":"BE","name":"Bern / Berne"},"status":"Real"},{"key":"10079655","name":"Milieu du Village","postalCode":"2762","locality":"Roches BE","commune":{"key":"704","name":"Roches (BE)","shortName":"Roches (BE)"},"district":{"key":"241","name":"Arrondissement administratif Jura bernois"},"canton":{"key":"2","code":"BE","name":"Bern / Berne"},"status":"Real"},{"key":"10216671","name":"Plain de la Nan","postalCode":"2762","locality":"Roches BE","commune":{"key":"704","name":"Roches (BE)","shortName":"Roches (BE)"},"district":{"key":"241","name":"Arrondissement administratif Jura bernois"},"canton":{"key":"2","code":"BE","name":"Bern / Berne"},"status":"Real"},{"key":"10216675","name":"Pré de l'Astai","postalCode":"2762","locality":"Roches BE","commune":{"key":"704","name":"Roches (BE)","shortName":"Roches (BE)"},"district":{"key":"241","name":"Arrondissement administratif Jura bernois"},"canton":{"key":"2","code":"BE","name":"Bern / Berne"},"status":"Real"},{"key":"10189588","name":"Pré Frene","postalCode":"2762","locality":"Roches BE","commune":{"key":"704","name":"Roches (BE)","shortName":"Roches (BE)"},"district":{"key":"241","name":"Arrondissement administratif Jura bernois"},"canton":{"key":"2","code":"BE","name":"Bern / Berne"},"status":"Real"},{"key":"10192307","name":"Pré Gris","postalCode":"2762","locality":"Roches BE","commune":{"key":"704","name":"Roches (BE)","shortName":"Roches (BE)"},"district":{"key":"241","name":"Arrondissement administratif Jura bernois"},"canton":{"key":"2","code":"BE","name":"Bern / Berne"},"status":"Real"},{"key":"10216679","name":"Prés des Envers","postalCode":"2762","locality":"Roches BE","commune":{"key":"704","name":"Roches (BE)","shortName":"Roches (BE)"},"district":{"key":"241","name":"Arrondissement administratif Jura bernois"},"canton":{"key":"2","code":"BE","name":"Bern / Berne"},"status":"Real"},{"key":"10008501","name":"Route Principale","postalCode":"2762","locality":"Roches BE","commune":{"key":"704","name":"Roches (BE)","shortName":"Roches (BE)"},"district":{"key":"241","name":"Arrondissement administratif Jura bernois"},"canton":{"key":"2","code":"BE","name":"Bern / Berne"},"status":"Real"},{"key":"10216683","name":"Sous le Champ de la Combe","postalCode":"2762","locality":"Roches BE","commune":{"key":"704","name":"Roches (BE)","shortName":"Roches (BE)"},"district":{"key":"241","name":"Arrondissement administratif Jura bernois"},"canton":{"key":"2","code":"BE","name":"Bern / Berne"},"status":"Real"},]