[{"key":"10124469","name":"Aacherstrasse","postalCode":"8514","locality":"Amlikon-Bissegg","commune":{"key":"4881","name":"Amlikon-Bissegg","shortName":"Amlikon-Bissegg"},"district":{"key":"2015","name":"Bezirk Weinfelden"},"canton":{"key":"20","code":"TG","name":"Thurgau"},"status":"Real"},{"key":"10157322","name":"Alpenweg","postalCode":"8514","locality":"Amlikon-Bissegg","commune":{"key":"4881","name":"Amlikon-Bissegg","shortName":"Amlikon-Bissegg"},"district":{"key":"2015","name":"Bezirk Weinfelden"},"canton":{"key":"20","code":"TG","name":"Thurgau"},"status":"Real"},{"key":"10044297","name":"Altenburg","postalCode":"8514","locality":"Amlikon-Bissegg","commune":{"key":"4881","name":"Amlikon-Bissegg","shortName":"Amlikon-Bissegg"},"district":{"key":"2015","name":"Bezirk Weinfelden"},"canton":{"key":"20","code":"TG","name":"Thurgau"},"status":"Real"},{"key":"10007135","name":"Amselweg","postalCode":"8514","locality":"Amlikon-Bissegg","commune":{"key":"4881","name":"Amlikon-Bissegg","shortName":"Amlikon-Bissegg"},"district":{"key":"2015","name":"Bezirk Weinfelden"},"canton":{"key":"20","code":"TG","name":"Thurgau"},"status":"Real"},{"key":"10184399","name":"Batlehausen","postalCode":"8514","locality":"Amlikon-Bissegg","commune":{"key":"4881","name":"Amlikon-Bissegg","shortName":"Amlikon-Bissegg"},"district":{"key":"2015","name":"Bezirk Weinfelden"},"canton":{"key":"20","code":"TG","name":"Thurgau"},"status":"Real"},{"key":"10215269","name":"Batlihauserstrasse","postalCode":"8514","locality":"Amlikon-Bissegg","commune":{"key":"4881","name":"Amlikon-Bissegg","shortName":"Amlikon-Bissegg"},"district":{"key":"2015","name":"Bezirk Weinfelden"},"canton":{"key":"20","code":"TG","name":"Thurgau"},"status":"Real"},{"key":"10176811","name":"Bergholzstrasse","postalCode":"8514","locality":"Amlikon-Bissegg","commune":{"key":"4881","name":"Amlikon-Bissegg","shortName":"Amlikon-Bissegg"},"district":{"key":"2015","name":"Bezirk Weinfelden"},"canton":{"key":"20","code":"TG","name":"Thurgau"},"status":"Real"},{"key":"10157315","name":"Bettelwiesstrasse","postalCode":"8514","locality":"Amlikon-Bissegg","commune":{"key":"4881","name":"Amlikon-Bissegg","shortName":"Amlikon-Bissegg"},"district":{"key":"2015","name":"Bezirk Weinfelden"},"canton":{"key":"20","code":"TG","name":"Thurgau"},"status":"Real"},{"key":"10203335","name":"Bilchli","postalCode":"8514","locality":"Amlikon-Bissegg","commune":{"key":"4881","name":"Amlikon-Bissegg","shortName":"Amlikon-Bissegg"},"district":{"key":"2015","name":"Bezirk Weinfelden"},"canton":{"key":"20","code":"TG","name":"Thurgau"},"status":"Real"},{"key":"10007134","name":"Binzwiesstrasse","postalCode":"8514","locality":"Amlikon-Bissegg","commune":{"key":"4881","name":"Amlikon-Bissegg","shortName":"Amlikon-Bissegg"},"district":{"key":"2015","name":"Bezirk Weinfelden"},"canton":{"key":"20","code":"TG","name":"Thurgau"},"status":"Real"},{"key":"10247040","name":"Birkenweg","postalCode":"8514","locality":"Amlikon-Bissegg","commune":{"key":"4881","name":"Amlikon-Bissegg","shortName":"Amlikon-Bissegg"},"district":{"key":"2015","name":"Bezirk Weinfelden"},"canton":{"key":"20","code":"TG","name":"Thurgau"},"status":"Planned"},{"key":"10162903","name":"Blumenstrasse","postalCode":"8514","locality":"Amlikon-Bissegg","commune":{"key":"4881","name":"Amlikon-Bissegg","shortName":"Amlikon-Bissegg"},"district":{"key":"2015","name":"Bezirk Weinfelden"},"canton":{"key":"20","code":"TG","name":"Thurgau"},"status":"Real"},{"key":"10157311","name":"Bohnackerstrasse","postalCode":"8514","locality":"Amlikon-Bissegg","commune":{"key":"4881","name":"Amlikon-Bissegg","shortName":"Amlikon-Bissegg"},"district":{"key":"2015","name":"Bezirk Weinfelden"},"canton":{"key":"20","code":"TG","name":"Thurgau"},"status":"Real"},{"key":"10157047","name":"Brunnenwiesstrasse","postalCode":"8514","locality":"Amlikon-Bissegg","commune":{"key":"4881","name":"Amlikon-Bissegg","shortName":"Amlikon-Bissegg"},"district":{"key":"2015","name":"Bezirk Weinfelden"},"canton":{"key":"20","code":"TG","name":"Thurgau"},"status":"Real"},{"key":"10157044","name":"Buchenweg","postalCode":"8514","locality":"Amlikon-Bissegg","commune":{"key":"4881","name":"Amlikon-Bissegg","shortName":"Amlikon-Bissegg"},"district":{"key":"2015","name":"Bezirk Weinfelden"},"canton":{"key":"20","code":"TG","name":"Thurgau"},"status":"Real"},{"key":"10165266","name":"Bürgerstrasse","postalCode":"8514","locality":"Amlikon-Bissegg","commune":{"key":"4881","name":"Amlikon-Bissegg","shortName":"Amlikon-Bissegg"},"district":{"key":"2015","name":"Bezirk Weinfelden"},"canton":{"key":"20","code":"TG","name":"Thurgau"},"status":"Real"},{"key":"10160627","name":"Burgmühle","postalCode":"8514","locality":"Amlikon-Bissegg","commune":{"key":"4881","name":"Amlikon-Bissegg","shortName":"Amlikon-Bissegg"},"district":{"key":"2015","name":"Bezirk Weinfelden"},"canton":{"key":"20","code":"TG","name":"Thurgau"},"status":"Real"},{"key":"10157039","name":"Burgstockstrasse","postalCode":"8514","locality":"Amlikon-Bissegg","commune":{"key":"4881","name":"Amlikon-Bissegg","shortName":"Amlikon-Bissegg"},"district":{"key":"2015","name":"Bezirk Weinfelden"},"canton":{"key":"20","code":"TG","name":"Thurgau"},"status":"Real"},{"key":"10215273","name":"Bussnangerstrasse","postalCode":"8514","locality":"Amlikon-Bissegg","commune":{"key":"4881","name":"Amlikon-Bissegg","shortName":"Amlikon-Bissegg"},"district":{"key":"2015","name":"Bezirk Weinfelden"},"canton":{"key":"20","code":"TG","name":"Thurgau"},"status":"Real"},{"key":"10169127","name":"Carl Haselbachstrasse","postalCode":"8514","locality":"Amlikon-Bissegg","commune":{"key":"4881","name":"Amlikon-Bissegg","shortName":"Amlikon-Bissegg"},"district":{"key":"2015","name":"Bezirk Weinfelden"},"canton":{"key":"20","code":"TG","name":"Thurgau"},"status":"Real"},{"key":"10203551","name":"Chappeliwis","postalCode":"8514","locality":"Amlikon-Bissegg","commune":{"key":"4881","name":"Amlikon-Bissegg","shortName":"Amlikon-Bissegg"},"district":{"key":"2015","name":"Bezirk Weinfelden"},"canton":{"key":"20","code":"TG","name":"Thurgau"},"status":"Real"},{"key":"10203336","name":"Cholgrueb","postalCode":"8514","locality":"Amlikon-Bissegg","commune":{"key":"4881","name":"Amlikon-Bissegg","shortName":"Amlikon-Bissegg"},"district":{"key":"2015","name":"Bezirk Weinfelden"},"canton":{"key":"20","code":"TG","name":"Thurgau"},"status":"Real"},{"key":"10157048","name":"Dorfstrasse","postalCode":"8514","locality":"Amlikon-Bissegg","commune":{"key":"4881","name":"Amlikon-Bissegg","shortName":"Amlikon-Bissegg"},"district":{"key":"2015","name":"Bezirk Weinfelden"},"canton":{"key":"20","code":"TG","name":"Thurgau"},"status":"Real"},{"key":"10215277","name":"Dreispitzstrasse","postalCode":"8514","locality":"Amlikon-Bissegg","commune":{"key":"4881","name":"Amlikon-Bissegg","shortName":"Amlikon-Bissegg"},"district":{"key":"2015","name":"Bezirk Weinfelden"},"canton":{"key":"20","code":"TG","name":"Thurgau"},"status":"Real"},{"key":"10119630","name":"Drosselweg","postalCode":"8514","locality":"Amlikon-Bissegg","commune":{"key":"4881","name":"Amlikon-Bissegg","shortName":"Amlikon-Bissegg"},"district":{"key":"2015","name":"Bezirk Weinfelden"},"canton":{"key":"20","code":"TG","name":"Thurgau"},"status":"Real"},{"key":"10204387","name":"Egg","postalCode":"8514","locality":"Amlikon-Bissegg","commune":{"key":"4881","name":"Amlikon-Bissegg","shortName":"Amlikon-Bissegg"},"district":{"key":"2015","name":"Bezirk Weinfelden"},"canton":{"key":"20","code":"TG","name":"Thurgau"},"status":"Real"},{"key":"10203337","name":"Ewigkeit","postalCode":"8514","locality":"Amlikon-Bissegg","commune":{"key":"4881","name":"Amlikon-Bissegg","shortName":"Amlikon-Bissegg"},"district":{"key":"2015","name":"Bezirk Weinfelden"},"canton":{"key":"20","code":"TG","name":"Thurgau"},"status":"Real"},{"key":"10159832","name":"Fabrikstrasse","postalCode":"8514","locality":"Amlikon-Bissegg","commune":{"key":"4881","name":"Amlikon-Bissegg","shortName":"Amlikon-Bissegg"},"district":{"key":"2015","name":"Bezirk Weinfelden"},"canton":{"key":"20","code":"TG","name":"Thurgau"},"status":"Real"},{"key":"10118768","name":"Finkenweg","postalCode":"8514","locality":"Amlikon-Bissegg","commune":{"key":"4881","name":"Amlikon-Bissegg","shortName":"Amlikon-Bissegg"},"district":{"key":"2015","name":"Bezirk Weinfelden"},"canton":{"key":"20","code":"TG","name":"Thurgau"},"status":"Real"},{"key":"10096925","name":"Flugplatzstrasse","postalCode":"8514","locality":"Amlikon-Bissegg","commune":{"key":"4881","name":"Amlikon-Bissegg","shortName":"Amlikon-Bissegg"},"district":{"key":"2015","name":"Bezirk Weinfelden"},"canton":{"key":"20","code":"TG","name":"Thurgau"},"status":"Real"},{"key":"10157323","name":"Frauenfelderstrasse","postalCode":"8514","locality":"Amlikon-Bissegg","commune":{"key":"4881","name":"Amlikon-Bissegg","shortName":"Amlikon-Bissegg"},"district":{"key":"2015","name":"Bezirk Weinfelden"},"canton":{"key":"20","code":"TG","name":"Thurgau"},"status":"Real"},{"key":"10202402","name":"Fuchsloch","postalCode":"8514","locality":"Amlikon-Bissegg","commune":{"key":"4881","name":"Amlikon-Bissegg","shortName":"Amlikon-Bissegg"},"district":{"key":"2015","name":"Bezirk Weinfelden"},"canton":{"key":"20","code":"TG","name":"Thurgau"},"status":"Real"},{"key":"10215281","name":"Furgstrasse","postalCode":"8514","locality":"Amlikon-Bissegg","commune":{"key":"4881","name":"Amlikon-Bissegg","shortName":"Amlikon-Bissegg"},"district":{"key":"2015","name":"Bezirk Weinfelden"},"canton":{"key":"20","code":"TG","name":"Thurgau"},"status":"Real"},{"key":"10203338","name":"Galgenacker","postalCode":"8514","locality":"Amlikon-Bissegg","commune":{"key":"4881","name":"Amlikon-Bissegg","shortName":"Amlikon-Bissegg"},"district":{"key":"2015","name":"Bezirk Weinfelden"},"canton":{"key":"20","code":"TG","name":"Thurgau"},"status":"Real"},{"key":"10159833","name":"Gartenstrasse","postalCode":"8514","locality":"Amlikon-Bissegg","commune":{"key":"4881","name":"Amlikon-Bissegg","shortName":"Amlikon-Bissegg"},"district":{"key":"2015","name":"Bezirk Weinfelden"},"canton":{"key":"20","code":"TG","name":"Thurgau"},"status":"Real"},{"key":"10167759","name":"Gemeindeammannstrasse","postalCode":"8514","locality":"Amlikon-Bissegg","commune":{"key":"4881","name":"Amlikon-Bissegg","shortName":"Amlikon-Bissegg"},"district":{"key":"2015","name":"Bezirk Weinfelden"},"canton":{"key":"20","code":"TG","name":"Thurgau"},"status":"Real"},{"key":"10204388","name":"Grütholz","postalCode":"8514","locality":"Amlikon-Bissegg","commune":{"key":"4881","name":"Amlikon-Bissegg","shortName":"Amlikon-Bissegg"},"district":{"key":"2015","name":"Bezirk Weinfelden"},"canton":{"key":"20","code":"TG","name":"Thurgau"},"status":"Real"},{"key":"10043676","name":"Haghof","postalCode":"8514","locality":"Amlikon-Bissegg","commune":{"key":"4881","name":"Amlikon-Bissegg","shortName":"Amlikon-Bissegg"},"district":{"key":"2015","name":"Bezirk Weinfelden"},"canton":{"key":"20","code":"TG","name":"Thurgau"},"status":"Real"},{"key":"10157313","name":"Haldenstrasse","postalCode":"8514","locality":"Amlikon-Bissegg","commune":{"key":"4881","name":"Amlikon-Bissegg","shortName":"Amlikon-Bissegg"},"district":{"key":"2015","name":"Bezirk Weinfelden"},"canton":{"key":"20","code":"TG","name":"Thurgau"},"status":"Real"},{"key":"10215285","name":"Hanfackerstrasse","postalCode":"8514","locality":"Amlikon-Bissegg","commune":{"key":"4881","name":"Amlikon-Bissegg","shortName":"Amlikon-Bissegg"},"district":{"key":"2015","name":"Bezirk Weinfelden"},"canton":{"key":"20","code":"TG","name":"Thurgau"},"status":"Real"},{"key":"10149336","name":"Harenwilerstrasse","postalCode":"8514","locality":"Amlikon-Bissegg","commune":{"key":"4881","name":"Amlikon-Bissegg","shortName":"Amlikon-Bissegg"},"district":{"key":"2015","name":"Bezirk Weinfelden"},"canton":{"key":"20","code":"TG","name":"Thurgau"},"status":"Real"},{"key":"10199939","name":"Haseloch","postalCode":"8514","locality":"Amlikon-Bissegg","commune":{"key":"4881","name":"Amlikon-Bissegg","shortName":"Amlikon-Bissegg"},"district":{"key":"2015","name":"Bezirk Weinfelden"},"canton":{"key":"20","code":"TG","name":"Thurgau"},"status":"Real"},{"key":"10202403","name":"Hasli","postalCode":"8514","locality":"Amlikon-Bissegg","commune":{"key":"4881","name":"Amlikon-Bissegg","shortName":"Amlikon-Bissegg"},"district":{"key":"2015","name":"Bezirk Weinfelden"},"canton":{"key":"20","code":"TG","name":"Thurgau"},"status":"Real"},{"key":"10157324","name":"Hinterdorfstrasse","postalCode":"8514","locality":"Amlikon-Bissegg","commune":{"key":"4881","name":"Amlikon-Bissegg","shortName":"Amlikon-Bissegg"},"district":{"key":"2015","name":"Bezirk Weinfelden"},"canton":{"key":"20","code":"TG","name":"Thurgau"},"status":"Real"},{"key":"10157032","name":"Hirschaustrasse","postalCode":"8514","locality":"Amlikon-Bissegg","commune":{"key":"4881","name":"Amlikon-Bissegg","shortName":"Amlikon-Bissegg"},"district":{"key":"2015","name":"Bezirk Weinfelden"},"canton":{"key":"20","code":"TG","name":"Thurgau"},"status":"Real"},{"key":"10159834","name":"Hohlgasse","postalCode":"8514","locality":"Amlikon-Bissegg","commune":{"key":"4881","name":"Amlikon-Bissegg","shortName":"Amlikon-Bissegg"},"district":{"key":"2015","name":"Bezirk Weinfelden"},"canton":{"key":"20","code":"TG","name":"Thurgau"},"status":"Real"},{"key":"10247047","name":"Hopfengasse","postalCode":"8514","locality":"Amlikon-Bissegg","commune":{"key":"4881","name":"Amlikon-Bissegg","shortName":"Amlikon-Bissegg"},"district":{"key":"2015","name":"Bezirk Weinfelden"},"canton":{"key":"20","code":"TG","name":"Thurgau"},"status":"Real"},{"key":"10203556","name":"Horloo","postalCode":"8514","locality":"Amlikon-Bissegg","commune":{"key":"4881","name":"Amlikon-Bissegg","shortName":"Amlikon-Bissegg"},"district":{"key":"2015","name":"Bezirk Weinfelden"},"canton":{"key":"20","code":"TG","name":"Thurgau"},"status":"Real"},{"key":"10215289","name":"Hubgartenstrasse","postalCode":"8514","locality":"Amlikon-Bissegg","commune":{"key":"4881","name":"Amlikon-Bissegg","shortName":"Amlikon-Bissegg"},"district":{"key":"2015","name":"Bezirk Weinfelden"},"canton":{"key":"20","code":"TG","name":"Thurgau"},"status":"Real"},{"key":"10044295","name":"Hünikonerstrasse","postalCode":"8514","locality":"Amlikon-Bissegg","commune":{"key":"4881","name":"Amlikon-Bissegg","shortName":"Amlikon-Bissegg"},"district":{"key":"2015","name":"Bezirk Weinfelden"},"canton":{"key":"20","code":"TG","name":"Thurgau"},"status":"Real"},{"key":"10194823","name":"Hüttenweg","postalCode":"8514","locality":"Amlikon-Bissegg","commune":{"key":"4881","name":"Amlikon-Bissegg","shortName":"Amlikon-Bissegg"},"district":{"key":"2015","name":"Bezirk Weinfelden"},"canton":{"key":"20","code":"TG","name":"Thurgau"},"status":"Real"},{"key":"10157319","name":"Hüttlingerstrasse","postalCode":"8514","locality":"Amlikon-Bissegg","commune":{"key":"4881","name":"Amlikon-Bissegg","shortName":"Amlikon-Bissegg"},"district":{"key":"2015","name":"Bezirk Weinfelden"},"canton":{"key":"20","code":"TG","name":"Thurgau"},"status":"Real"},{"key":"10107849","name":"Im Bergli","postalCode":"8514","locality":"Amlikon-Bissegg","commune":{"key":"4881","name":"Amlikon-Bissegg","shortName":"Amlikon-Bissegg"},"district":{"key":"2015","name":"Bezirk Weinfelden"},"canton":{"key":"20","code":"TG","name":"Thurgau"},"status":"Real"},{"key":"10044292","name":"Im Böppeler","postalCode":"8514","locality":"Amlikon-Bissegg","commune":{"key":"4881","name":"Amlikon-Bissegg","shortName":"Amlikon-Bissegg"},"district":{"key":"2015","name":"Bezirk Weinfelden"},"canton":{"key":"20","code":"TG","name":"Thurgau"},"status":"Real"},{"key":"10157318","name":"Im Rebberg","postalCode":"8514","locality":"Amlikon-Bissegg","commune":{"key":"4881","name":"Amlikon-Bissegg","shortName":"Amlikon-Bissegg"},"district":{"key":"2015","name":"Bezirk Weinfelden"},"canton":{"key":"20","code":"TG","name":"Thurgau"},"status":"Real"},{"key":"10165268","name":"Im Säget","postalCode":"8514","locality":"Amlikon-Bissegg","commune":{"key":"4881","name":"Amlikon-Bissegg","shortName":"Amlikon-Bissegg"},"district":{"key":"2015","name":"Bezirk Weinfelden"},"canton":{"key":"20","code":"TG","name":"Thurgau"},"status":"Real"},{"key":"10157325","name":"Im Säntisblick","postalCode":"8514","locality":"Amlikon-Bissegg","commune":{"key":"4881","name":"Amlikon-Bissegg","shortName":"Amlikon-Bissegg"},"district":{"key":"2015","name":"Bezirk Weinfelden"},"canton":{"key":"20","code":"TG","name":"Thurgau"},"status":"Real"},{"key":"10215293","name":"Im Winkel","postalCode":"8514","locality":"Amlikon-Bissegg","commune":{"key":"4881","name":"Amlikon-Bissegg","shortName":"Amlikon-Bissegg"},"district":{"key":"2015","name":"Bezirk Weinfelden"},"canton":{"key":"20","code":"TG","name":"Thurgau"},"status":"Real"},{"key":"10149030","name":"Jägerstrasse","postalCode":"8514","locality":"Amlikon-Bissegg","commune":{"key":"4881","name":"Amlikon-Bissegg","shortName":"Amlikon-Bissegg"},"district":{"key":"2015","name":"Bezirk Weinfelden"},"canton":{"key":"20","code":"TG","name":"Thurgau"},"status":"Real"},{"key":"10203553","name":"Jungholzerbärg","postalCode":"8514","locality":"Amlikon-Bissegg","commune":{"key":"4881","name":"Amlikon-Bissegg","shortName":"Amlikon-Bissegg"},"district":{"key":"2015","name":"Bezirk Weinfelden"},"canton":{"key":"20","code":"TG","name":"Thurgau"},"status":"Real"},{"key":"10202208","name":"Junkholz","postalCode":"8514","locality":"Amlikon-Bissegg","commune":{"key":"4881","name":"Amlikon-Bissegg","shortName":"Amlikon-Bissegg"},"district":{"key":"2015","name":"Bezirk Weinfelden"},"canton":{"key":"20","code":"TG","name":"Thurgau"},"status":"Real"},{"key":"10043677","name":"Kaltenbrunnen","postalCode":"8514","locality":"Amlikon-Bissegg","commune":{"key":"4881","name":"Amlikon-Bissegg","shortName":"Amlikon-Bissegg"},"district":{"key":"2015","name":"Bezirk Weinfelden"},"canton":{"key":"20","code":"TG","name":"Thurgau"},"status":"Real"},{"key":"10157050","name":"Kanzleistrasse","postalCode":"8514","locality":"Amlikon-Bissegg","commune":{"key":"4881","name":"Amlikon-Bissegg","shortName":"Amlikon-Bissegg"},"district":{"key":"2015","name":"Bezirk Weinfelden"},"canton":{"key":"20","code":"TG","name":"Thurgau"},"status":"Real"},{"key":"10157057","name":"Kirchweg","postalCode":"8514","locality":"Amlikon-Bissegg","commune":{"key":"4881","name":"Amlikon-Bissegg","shortName":"Amlikon-Bissegg"},"district":{"key":"2015","name":"Bezirk Weinfelden"},"canton":{"key":"20","code":"TG","name":"Thurgau"},"status":"Real"},{"key":"10110486","name":"Klösterli","postalCode":"8514","locality":"Amlikon-Bissegg","commune":{"key":"4881","name":"Amlikon-Bissegg","shortName":"Amlikon-Bissegg"},"district":{"key":"2015","name":"Bezirk Weinfelden"},"canton":{"key":"20","code":"TG","name":"Thurgau"},"status":"Real"},{"key":"10170296","name":"Kreiselstrasse","postalCode":"8514","locality":"Amlikon-Bissegg","commune":{"key":"4881","name":"Amlikon-Bissegg","shortName":"Amlikon-Bissegg"},"district":{"key":"2015","name":"Bezirk Weinfelden"},"canton":{"key":"20","code":"TG","name":"Thurgau"},"status":"Real"},{"key":"10159835","name":"Lehmbergstrasse","postalCode":"8514","locality":"Amlikon-Bissegg","commune":{"key":"4881","name":"Amlikon-Bissegg","shortName":"Amlikon-Bissegg"},"district":{"key":"2015","name":"Bezirk Weinfelden"},"canton":{"key":"20","code":"TG","name":"Thurgau"},"status":"Real"},{"key":"10159836","name":"Lerchenweg","postalCode":"8514","locality":"Amlikon-Bissegg","commune":{"key":"4881","name":"Amlikon-Bissegg","shortName":"Amlikon-Bissegg"},"district":{"key":"2015","name":"Bezirk Weinfelden"},"canton":{"key":"20","code":"TG","name":"Thurgau"},"status":"Real"},{"key":"10168569","name":"Lettenstrasse","postalCode":"8514","locality":"Amlikon-Bissegg","commune":{"key":"4881","name":"Amlikon-Bissegg","shortName":"Amlikon-Bissegg"},"district":{"key":"2015","name":"Bezirk Weinfelden"},"canton":{"key":"20","code":"TG","name":"Thurgau"},"status":"Real"},{"key":"10247041","name":"Lindenweg","postalCode":"8514","locality":"Amlikon-Bissegg","commune":{"key":"4881","name":"Amlikon-Bissegg","shortName":"Amlikon-Bissegg"},"district":{"key":"2015","name":"Bezirk Weinfelden"},"canton":{"key":"20","code":"TG","name":"Thurgau"},"status":"Planned"},{"key":"10043678","name":"Maltbach","postalCode":"8514","locality":"Amlikon-Bissegg","commune":{"key":"4881","name":"Amlikon-Bissegg","shortName":"Amlikon-Bissegg"},"district":{"key":"2015","name":"Bezirk Weinfelden"},"canton":{"key":"20","code":"TG","name":"Thurgau"},"status":"Real"},{"key":"10204389","name":"Märwiile","postalCode":"8514","locality":"Amlikon-Bissegg","commune":{"key":"4881","name":"Amlikon-Bissegg","shortName":"Amlikon-Bissegg"},"district":{"key":"2015","name":"Bezirk Weinfelden"},"canton":{"key":"20","code":"TG","name":"Thurgau"},"status":"Real"},{"key":"10149335","name":"Meisenweg","postalCode":"8514","locality":"Amlikon-Bissegg","commune":{"key":"4881","name":"Amlikon-Bissegg","shortName":"Amlikon-Bissegg"},"district":{"key":"2015","name":"Bezirk Weinfelden"},"canton":{"key":"20","code":"TG","name":"Thurgau"},"status":"Real"},{"key":"10157314","name":"Moosstrasse","postalCode":"8514","locality":"Amlikon-Bissegg","commune":{"key":"4881","name":"Amlikon-Bissegg","shortName":"Amlikon-Bissegg"},"district":{"key":"2015","name":"Bezirk Weinfelden"},"canton":{"key":"20","code":"TG","name":"Thurgau"},"status":"Real"},{"key":"10202404","name":"Mos","postalCode":"8514","locality":"Amlikon-Bissegg","commune":{"key":"4881","name":"Amlikon-Bissegg","shortName":"Amlikon-Bissegg"},"district":{"key":"2015","name":"Bezirk Weinfelden"},"canton":{"key":"20","code":"TG","name":"Thurgau"},"status":"Real"},{"key":"10254708","name":"Muggetanz","postalCode":"8514","locality":"Amlikon-Bissegg","commune":{"key":"4881","name":"Amlikon-Bissegg","shortName":"Amlikon-Bissegg"},"district":{"key":"2015","name":"Bezirk Weinfelden"},"canton":{"key":"20","code":"TG","name":"Thurgau"},"status":"Real"},{"key":"10044296","name":"Mühlegasse","postalCode":"8514","locality":"Amlikon-Bissegg","commune":{"key":"4881","name":"Amlikon-Bissegg","shortName":"Amlikon-Bissegg"},"district":{"key":"2015","name":"Bezirk Weinfelden"},"canton":{"key":"20","code":"TG","name":"Thurgau"},"status":"Real"},{"key":"10157051","name":"Nestlerstrasse","postalCode":"8514","locality":"Amlikon-Bissegg","commune":{"key":"4881","name":"Amlikon-Bissegg","shortName":"Amlikon-Bissegg"},"district":{"key":"2015","name":"Bezirk Weinfelden"},"canton":{"key":"20","code":"TG","name":"Thurgau"},"status":"Real"},{"key":"10157056","name":"Neuhofstrasse","postalCode":"8514","locality":"Amlikon-Bissegg","commune":{"key":"4881","name":"Amlikon-Bissegg","shortName":"Amlikon-Bissegg"},"district":{"key":"2015","name":"Bezirk Weinfelden"},"canton":{"key":"20","code":"TG","name":"Thurgau"},"status":"Real"},{"key":"10203557","name":"Nübruch","postalCode":"8514","locality":"Amlikon-Bissegg","commune":{"key":"4881","name":"Amlikon-Bissegg","shortName":"Amlikon-Bissegg"},"district":{"key":"2015","name":"Bezirk Weinfelden"},"canton":{"key":"20","code":"TG","name":"Thurgau"},"status":"Real"},{"key":"10044293","name":"Oberbrunnenstrasse","postalCode":"8514","locality":"Amlikon-Bissegg","commune":{"key":"4881","name":"Amlikon-Bissegg","shortName":"Amlikon-Bissegg"},"district":{"key":"2015","name":"Bezirk Weinfelden"},"canton":{"key":"20","code":"TG","name":"Thurgau"},"status":"Real"},{"key":"10202405","name":"Oberfäld","postalCode":"8514","locality":"Amlikon-Bissegg","commune":{"key":"4881","name":"Amlikon-Bissegg","shortName":"Amlikon-Bissegg"},"district":{"key":"2015","name":"Bezirk Weinfelden"},"canton":{"key":"20","code":"TG","name":"Thurgau"},"status":"Real"},{"key":"10070573","name":"Oberfeldstrasse","postalCode":"8514","locality":"Amlikon-Bissegg","commune":{"key":"4881","name":"Amlikon-Bissegg","shortName":"Amlikon-Bissegg"},"district":{"key":"2015","name":"Bezirk Weinfelden"},"canton":{"key":"20","code":"TG","name":"Thurgau"},"status":"Real"},{"key":"10157035","name":"Obstgartenstrasse","postalCode":"8514","locality":"Amlikon-Bissegg","commune":{"key":"4881","name":"Amlikon-Bissegg","shortName":"Amlikon-Bissegg"},"district":{"key":"2015","name":"Bezirk Weinfelden"},"canton":{"key":"20","code":"TG","name":"Thurgau"},"status":"Real"},{"key":"10157045","name":"Oppikonerstrasse","postalCode":"8514","locality":"Amlikon-Bissegg","commune":{"key":"4881","name":"Amlikon-Bissegg","shortName":"Amlikon-Bissegg"},"district":{"key":"2015","name":"Bezirk Weinfelden"},"canton":{"key":"20","code":"TG","name":"Thurgau"},"status":"Real"},{"key":"10152430","name":"Räckholderstrasse","postalCode":"8514","locality":"Amlikon-Bissegg","commune":{"key":"4881","name":"Amlikon-Bissegg","shortName":"Amlikon-Bissegg"},"district":{"key":"2015","name":"Bezirk Weinfelden"},"canton":{"key":"20","code":"TG","name":"Thurgau"},"status":"Real"},{"key":"10157052","name":"Rebhaldenstrasse","postalCode":"8514","locality":"Amlikon-Bissegg","commune":{"key":"4881","name":"Amlikon-Bissegg","shortName":"Amlikon-Bissegg"},"district":{"key":"2015","name":"Bezirk Weinfelden"},"canton":{"key":"20","code":"TG","name":"Thurgau"},"status":"Real"},{"key":"10159837","name":"Rossweidstrasse","postalCode":"8514","locality":"Amlikon-Bissegg","commune":{"key":"4881","name":"Amlikon-Bissegg","shortName":"Amlikon-Bissegg"},"district":{"key":"2015","name":"Bezirk Weinfelden"},"canton":{"key":"20","code":"TG","name":"Thurgau"},"status":"Real"},{"key":"10157326","name":"Schibelstrasse","postalCode":"8514","locality":"Amlikon-Bissegg","commune":{"key":"4881","name":"Amlikon-Bissegg","shortName":"Amlikon-Bissegg"},"district":{"key":"2015","name":"Bezirk Weinfelden"},"canton":{"key":"20","code":"TG","name":"Thurgau"},"status":"Real"},{"key":"10070775","name":"Schlatt","postalCode":"8514","locality":"Amlikon-Bissegg","commune":{"key":"4881","name":"Amlikon-Bissegg","shortName":"Amlikon-Bissegg"},"district":{"key":"2015","name":"Bezirk Weinfelden"},"canton":{"key":"20","code":"TG","name":"Thurgau"},"status":"Real"},{"key":"10157037","name":"Schlossstrasse","postalCode":"8514","locality":"Amlikon-Bissegg","commune":{"key":"4881","name":"Amlikon-Bissegg","shortName":"Amlikon-Bissegg"},"district":{"key":"2015","name":"Bezirk Weinfelden"},"canton":{"key":"20","code":"TG","name":"Thurgau"},"status":"Real"},{"key":"10157040","name":"Schmidshofstrasse","postalCode":"8514","locality":"Amlikon-Bissegg","commune":{"key":"4881","name":"Amlikon-Bissegg","shortName":"Amlikon-Bissegg"},"district":{"key":"2015","name":"Bezirk Weinfelden"},"canton":{"key":"20","code":"TG","name":"Thurgau"},"status":"Real"},{"key":"10207091","name":"Schmittenstrasse","postalCode":"8514","locality":"Amlikon-Bissegg","commune":{"key":"4881","name":"Amlikon-Bissegg","shortName":"Amlikon-Bissegg"},"district":{"key":"2015","name":"Bezirk Weinfelden"},"canton":{"key":"20","code":"TG","name":"Thurgau"},"status":"Real"},{"key":"10203558","name":"Schräne","postalCode":"8514","locality":"Amlikon-Bissegg","commune":{"key":"4881","name":"Amlikon-Bissegg","shortName":"Amlikon-Bissegg"},"district":{"key":"2015","name":"Bezirk Weinfelden"},"canton":{"key":"20","code":"TG","name":"Thurgau"},"status":"Real"},{"key":"10157327","name":"Schulackerstrasse","postalCode":"8514","locality":"Amlikon-Bissegg","commune":{"key":"4881","name":"Amlikon-Bissegg","shortName":"Amlikon-Bissegg"},"district":{"key":"2015","name":"Bezirk Weinfelden"},"canton":{"key":"20","code":"TG","name":"Thurgau"},"status":"Real"},{"key":"10043681","name":"Schulhaus","postalCode":"8514","locality":"Amlikon-Bissegg","commune":{"key":"4881","name":"Amlikon-Bissegg","shortName":"Amlikon-Bissegg"},"district":{"key":"2015","name":"Bezirk Weinfelden"},"canton":{"key":"20","code":"TG","name":"Thurgau"},"status":"Real"},{"key":"10198678","name":"Schulweg","postalCode":"8514","locality":"Amlikon-Bissegg","commune":{"key":"4881","name":"Amlikon-Bissegg","shortName":"Amlikon-Bissegg"},"district":{"key":"2015","name":"Bezirk Weinfelden"},"canton":{"key":"20","code":"TG","name":"Thurgau"},"status":"Real"},{"key":"10194137","name":"Schulwies","postalCode":"8514","locality":"Amlikon-Bissegg","commune":{"key":"4881","name":"Amlikon-Bissegg","shortName":"Amlikon-Bissegg"},"district":{"key":"2015","name":"Bezirk Weinfelden"},"canton":{"key":"20","code":"TG","name":"Thurgau"},"status":"Real"},{"key":"10203786","name":"Schwoobewis","postalCode":"8514","locality":"Amlikon-Bissegg","commune":{"key":"4881","name":"Amlikon-Bissegg","shortName":"Amlikon-Bissegg"},"district":{"key":"2015","name":"Bezirk Weinfelden"},"canton":{"key":"20","code":"TG","name":"Thurgau"},"status":"Real"},{"key":"10162591","name":"Sonnenhofstrasse","postalCode":"8514","locality":"Amlikon-Bissegg","commune":{"key":"4881","name":"Amlikon-Bissegg","shortName":"Amlikon-Bissegg"},"district":{"key":"2015","name":"Bezirk Weinfelden"},"canton":{"key":"20","code":"TG","name":"Thurgau"},"status":"Real"},{"key":"10159838","name":"Sonnhaldenstrasse","postalCode":"8514","locality":"Amlikon-Bissegg","commune":{"key":"4881","name":"Amlikon-Bissegg","shortName":"Amlikon-Bissegg"},"district":{"key":"2015","name":"Bezirk Weinfelden"},"canton":{"key":"20","code":"TG","name":"Thurgau"},"status":"Real"},{"key":"10148302","name":"Starenweg","postalCode":"8514","locality":"Amlikon-Bissegg","commune":{"key":"4881","name":"Amlikon-Bissegg","shortName":"Amlikon-Bissegg"},"district":{"key":"2015","name":"Bezirk Weinfelden"},"canton":{"key":"20","code":"TG","name":"Thurgau"},"status":"Real"},{"key":"10203559","name":"Stockete","postalCode":"8514","locality":"Amlikon-Bissegg","commune":{"key":"4881","name":"Amlikon-Bissegg","shortName":"Amlikon-Bissegg"},"district":{"key":"2015","name":"Bezirk Weinfelden"},"canton":{"key":"20","code":"TG","name":"Thurgau"},"status":"Real"},{"key":"10204391","name":"Sunebärg","postalCode":"8514","locality":"Amlikon-Bissegg","commune":{"key":"4881","name":"Amlikon-Bissegg","shortName":"Amlikon-Bissegg"},"district":{"key":"2015","name":"Bezirk Weinfelden"},"canton":{"key":"20","code":"TG","name":"Thurgau"},"status":"Real"},{"key":"10162904","name":"Sunneggstrasse","postalCode":"8514","locality":"Amlikon-Bissegg","commune":{"key":"4881","name":"Amlikon-Bissegg","shortName":"Amlikon-Bissegg"},"district":{"key":"2015","name":"Bezirk Weinfelden"},"canton":{"key":"20","code":"TG","name":"Thurgau"},"status":"Real"},{"key":"10157308","name":"Thurtalstrasse","postalCode":"8514","locality":"Amlikon-Bissegg","commune":{"key":"4881","name":"Amlikon-Bissegg","shortName":"Amlikon-Bissegg"},"district":{"key":"2015","name":"Bezirk Weinfelden"},"canton":{"key":"20","code":"TG","name":"Thurgau"},"status":"Real"},{"key":"10157033","name":"Tobelstrasse","postalCode":"8514","locality":"Amlikon-Bissegg","commune":{"key":"4881","name":"Amlikon-Bissegg","shortName":"Amlikon-Bissegg"},"district":{"key":"2015","name":"Bezirk Weinfelden"},"canton":{"key":"20","code":"TG","name":"Thurgau"},"status":"Real"},{"key":"10159839","name":"Ulmenstrasse","postalCode":"8514","locality":"Amlikon-Bissegg","commune":{"key":"4881","name":"Amlikon-Bissegg","shortName":"Amlikon-Bissegg"},"district":{"key":"2015","name":"Bezirk Weinfelden"},"canton":{"key":"20","code":"TG","name":"Thurgau"},"status":"Real"},{"key":"10124586","name":"Wahrenberg","postalCode":"8514","locality":"Amlikon-Bissegg","commune":{"key":"4881","name":"Amlikon-Bissegg","shortName":"Amlikon-Bissegg"},"district":{"key":"2015","name":"Bezirk Weinfelden"},"canton":{"key":"20","code":"TG","name":"Thurgau"},"status":"Real"},{"key":"10159841","name":"Waidenrain","postalCode":"8514","locality":"Amlikon-Bissegg","commune":{"key":"4881","name":"Amlikon-Bissegg","shortName":"Amlikon-Bissegg"},"district":{"key":"2015","name":"Bezirk Weinfelden"},"canton":{"key":"20","code":"TG","name":"Thurgau"},"status":"Real"},{"key":"10157036","name":"Wattwiesenstrasse","postalCode":"8514","locality":"Amlikon-Bissegg","commune":{"key":"4881","name":"Amlikon-Bissegg","shortName":"Amlikon-Bissegg"},"district":{"key":"2015","name":"Bezirk Weinfelden"},"canton":{"key":"20","code":"TG","name":"Thurgau"},"status":"Real"},{"key":"10202407","name":"Weierstucki","postalCode":"8514","locality":"Amlikon-Bissegg","commune":{"key":"4881","name":"Amlikon-Bissegg","shortName":"Amlikon-Bissegg"},"district":{"key":"2015","name":"Bezirk Weinfelden"},"canton":{"key":"20","code":"TG","name":"Thurgau"},"status":"Real"},{"key":"10159842","name":"Weiherblickstrasse","postalCode":"8514","locality":"Amlikon-Bissegg","commune":{"key":"4881","name":"Amlikon-Bissegg","shortName":"Amlikon-Bissegg"},"district":{"key":"2015","name":"Bezirk Weinfelden"},"canton":{"key":"20","code":"TG","name":"Thurgau"},"status":"Real"},{"key":"10167266","name":"Weiherstrasse","postalCode":"8514","locality":"Amlikon-Bissegg","commune":{"key":"4881","name":"Amlikon-Bissegg","shortName":"Amlikon-Bissegg"},"district":{"key":"2015","name":"Bezirk Weinfelden"},"canton":{"key":"20","code":"TG","name":"Thurgau"},"status":"Real"},{"key":"10157046","name":"Weinfelderstrasse","postalCode":"8514","locality":"Amlikon-Bissegg","commune":{"key":"4881","name":"Amlikon-Bissegg","shortName":"Amlikon-Bissegg"},"district":{"key":"2015","name":"Bezirk Weinfelden"},"canton":{"key":"20","code":"TG","name":"Thurgau"},"status":"Real"},{"key":"10160628","name":"Wetzikonerstrasse","postalCode":"8514","locality":"Amlikon-Bissegg","commune":{"key":"4881","name":"Amlikon-Bissegg","shortName":"Amlikon-Bissegg"},"district":{"key":"2015","name":"Bezirk Weinfelden"},"canton":{"key":"20","code":"TG","name":"Thurgau"},"status":"Real"},{"key":"10010701","name":"Wiesenstrasse","postalCode":"8514","locality":"Amlikon-Bissegg","commune":{"key":"4881","name":"Amlikon-Bissegg","shortName":"Amlikon-Bissegg"},"district":{"key":"2015","name":"Bezirk Weinfelden"},"canton":{"key":"20","code":"TG","name":"Thurgau"},"status":"Real"},{"key":"10165267","name":"Wilerstrasse","postalCode":"8514","locality":"Amlikon-Bissegg","commune":{"key":"4881","name":"Amlikon-Bissegg","shortName":"Amlikon-Bissegg"},"district":{"key":"2015","name":"Bezirk Weinfelden"},"canton":{"key":"20","code":"TG","name":"Thurgau"},"status":"Real"},{"key":"10242001","name":"Zezikonerstrasse","postalCode":"8514","locality":"Amlikon-Bissegg","commune":{"key":"4881","name":"Amlikon-Bissegg","shortName":"Amlikon-Bissegg"},"district":{"key":"2015","name":"Bezirk Weinfelden"},"canton":{"key":"20","code":"TG","name":"Thurgau"},"status":"Real"},{"key":"10167267","name":"Ziegelhüttenstrasse","postalCode":"8514","locality":"Amlikon-Bissegg","commune":{"key":"4881","name":"Amlikon-Bissegg","shortName":"Amlikon-Bissegg"},"district":{"key":"2015","name":"Bezirk Weinfelden"},"canton":{"key":"20","code":"TG","name":"Thurgau"},"status":"Real"},{"key":"10202399","name":"Äuli","postalCode":"8514","locality":"Amlikon-Bissegg","commune":{"key":"4881","name":"Amlikon-Bissegg","shortName":"Amlikon-Bissegg"},"district":{"key":"2015","name":"Bezirk Weinfelden"},"canton":{"key":"20","code":"TG","name":"Thurgau"},"status":"Real"},]