[{"name":"Ahornweg","postalCode":"66709","locality":"Weiskirchen","municipality":{"key":"10042117","name":"Weiskirchen","type":"Kreisangehörige_Gemeinde"},"district":{"key":"10042","name":"Merzig-Wadern","type":"Landkreis"},"federalState":{"key":"10","name":"Saarland"}},{"name":"Akazienweg","postalCode":"66709","locality":"Weiskirchen","municipality":{"key":"10042117","name":"Weiskirchen","type":"Kreisangehörige_Gemeinde"},"district":{"key":"10042","name":"Merzig-Wadern","type":"Landkreis"},"federalState":{"key":"10","name":"Saarland"}},{"name":"Am Bach","postalCode":"66709","locality":"Weiskirchen","municipality":{"key":"10042117","name":"Weiskirchen","type":"Kreisangehörige_Gemeinde"},"district":{"key":"10042","name":"Merzig-Wadern","type":"Landkreis"},"federalState":{"key":"10","name":"Saarland"}},{"name":"Am Brückelchen","postalCode":"66709","locality":"Weiskirchen","municipality":{"key":"10042117","name":"Weiskirchen","type":"Kreisangehörige_Gemeinde"},"district":{"key":"10042","name":"Merzig-Wadern","type":"Landkreis"},"federalState":{"key":"10","name":"Saarland"}},{"name":"Am Brühl","postalCode":"66709","locality":"Weiskirchen","municipality":{"key":"10042117","name":"Weiskirchen","type":"Kreisangehörige_Gemeinde"},"district":{"key":"10042","name":"Merzig-Wadern","type":"Landkreis"},"federalState":{"key":"10","name":"Saarland"}},{"name":"Am Dreschplatz","postalCode":"66709","locality":"Weiskirchen","municipality":{"key":"10042117","name":"Weiskirchen","type":"Kreisangehörige_Gemeinde"},"district":{"key":"10042","name":"Merzig-Wadern","type":"Landkreis"},"federalState":{"key":"10","name":"Saarland"}},{"name":"Am Konfelder Friedhof","postalCode":"66709","locality":"Weiskirchen","municipality":{"key":"10042117","name":"Weiskirchen","type":"Kreisangehörige_Gemeinde"},"district":{"key":"10042","name":"Merzig-Wadern","type":"Landkreis"},"federalState":{"key":"10","name":"Saarland"}},{"name":"Am Kurzentrum","postalCode":"66709","locality":"Weiskirchen","municipality":{"key":"10042117","name":"Weiskirchen","type":"Kreisangehörige_Gemeinde"},"district":{"key":"10042","name":"Merzig-Wadern","type":"Landkreis"},"federalState":{"key":"10","name":"Saarland"}},{"name":"Am Marktplatz","postalCode":"66709","locality":"Weiskirchen","municipality":{"key":"10042117","name":"Weiskirchen","type":"Kreisangehörige_Gemeinde"},"district":{"key":"10042","name":"Merzig-Wadern","type":"Landkreis"},"federalState":{"key":"10","name":"Saarland"}},{"name":"Am Markusborn","postalCode":"66709","locality":"Weiskirchen","municipality":{"key":"10042117","name":"Weiskirchen","type":"Kreisangehörige_Gemeinde"},"district":{"key":"10042","name":"Merzig-Wadern","type":"Landkreis"},"federalState":{"key":"10","name":"Saarland"}},{"name":"Am Schankborn","postalCode":"66709","locality":"Weiskirchen","municipality":{"key":"10042117","name":"Weiskirchen","type":"Kreisangehörige_Gemeinde"},"district":{"key":"10042","name":"Merzig-Wadern","type":"Landkreis"},"federalState":{"key":"10","name":"Saarland"}},{"name":"Amselweg","postalCode":"66709","locality":"Weiskirchen","municipality":{"key":"10042117","name":"Weiskirchen","type":"Kreisangehörige_Gemeinde"},"district":{"key":"10042","name":"Merzig-Wadern","type":"Landkreis"},"federalState":{"key":"10","name":"Saarland"}},{"name":"Am Sportplatz","postalCode":"66709","locality":"Weiskirchen","municipality":{"key":"10042117","name":"Weiskirchen","type":"Kreisangehörige_Gemeinde"},"district":{"key":"10042","name":"Merzig-Wadern","type":"Landkreis"},"federalState":{"key":"10","name":"Saarland"}},{"name":"Am Stehl","postalCode":"66709","locality":"Weiskirchen","municipality":{"key":"10042117","name":"Weiskirchen","type":"Kreisangehörige_Gemeinde"},"district":{"key":"10042","name":"Merzig-Wadern","type":"Landkreis"},"federalState":{"key":"10","name":"Saarland"}},{"name":"An der Finkenburg","postalCode":"66709","locality":"Weiskirchen","municipality":{"key":"10042117","name":"Weiskirchen","type":"Kreisangehörige_Gemeinde"},"district":{"key":"10042","name":"Merzig-Wadern","type":"Landkreis"},"federalState":{"key":"10","name":"Saarland"}},{"name":"Ankergasse","postalCode":"66709","locality":"Weiskirchen","municipality":{"key":"10042117","name":"Weiskirchen","type":"Kreisangehörige_Gemeinde"},"district":{"key":"10042","name":"Merzig-Wadern","type":"Landkreis"},"federalState":{"key":"10","name":"Saarland"}},{"name":"Auf der Alm","postalCode":"66709","locality":"Weiskirchen","municipality":{"key":"10042117","name":"Weiskirchen","type":"Kreisangehörige_Gemeinde"},"district":{"key":"10042","name":"Merzig-Wadern","type":"Landkreis"},"federalState":{"key":"10","name":"Saarland"}},{"name":"Auf der Flachsbach","postalCode":"66709","locality":"Weiskirchen","municipality":{"key":"10042117","name":"Weiskirchen","type":"Kreisangehörige_Gemeinde"},"district":{"key":"10042","name":"Merzig-Wadern","type":"Landkreis"},"federalState":{"key":"10","name":"Saarland"}},{"name":"Auf der Heide","postalCode":"66709","locality":"Weiskirchen","municipality":{"key":"10042117","name":"Weiskirchen","type":"Kreisangehörige_Gemeinde"},"district":{"key":"10042","name":"Merzig-Wadern","type":"Landkreis"},"federalState":{"key":"10","name":"Saarland"}},{"name":"Auf der Kimm","postalCode":"66709","locality":"Weiskirchen","municipality":{"key":"10042117","name":"Weiskirchen","type":"Kreisangehörige_Gemeinde"},"district":{"key":"10042","name":"Merzig-Wadern","type":"Landkreis"},"federalState":{"key":"10","name":"Saarland"}},{"name":"Barbarastr.","postalCode":"66709","locality":"Weiskirchen","municipality":{"key":"10042117","name":"Weiskirchen","type":"Kreisangehörige_Gemeinde"},"district":{"key":"10042","name":"Merzig-Wadern","type":"Landkreis"},"federalState":{"key":"10","name":"Saarland"}},{"name":"Beckerecken","postalCode":"66709","locality":"Weiskirchen","municipality":{"key":"10042117","name":"Weiskirchen","type":"Kreisangehörige_Gemeinde"},"district":{"key":"10042","name":"Merzig-Wadern","type":"Landkreis"},"federalState":{"key":"10","name":"Saarland"}},{"name":"Beim Dorf","postalCode":"66709","locality":"Weiskirchen","municipality":{"key":"10042117","name":"Weiskirchen","type":"Kreisangehörige_Gemeinde"},"district":{"key":"10042","name":"Merzig-Wadern","type":"Landkreis"},"federalState":{"key":"10","name":"Saarland"}},{"name":"Beim Leschenhaus","postalCode":"66709","locality":"Weiskirchen","municipality":{"key":"10042117","name":"Weiskirchen","type":"Kreisangehörige_Gemeinde"},"district":{"key":"10042","name":"Merzig-Wadern","type":"Landkreis"},"federalState":{"key":"10","name":"Saarland"}},{"name":"Beim Puhlhaus","postalCode":"66709","locality":"Weiskirchen","municipality":{"key":"10042117","name":"Weiskirchen","type":"Kreisangehörige_Gemeinde"},"district":{"key":"10042","name":"Merzig-Wadern","type":"Landkreis"},"federalState":{"key":"10","name":"Saarland"}},{"name":"Beim schwarzen Kreuz","postalCode":"66709","locality":"Weiskirchen","municipality":{"key":"10042117","name":"Weiskirchen","type":"Kreisangehörige_Gemeinde"},"district":{"key":"10042","name":"Merzig-Wadern","type":"Landkreis"},"federalState":{"key":"10","name":"Saarland"}},{"name":"Bergstr.","postalCode":"66709","locality":"Weiskirchen","municipality":{"key":"10042117","name":"Weiskirchen","type":"Kreisangehörige_Gemeinde"},"district":{"key":"10042","name":"Merzig-Wadern","type":"Landkreis"},"federalState":{"key":"10","name":"Saarland"}},{"name":"Birkenstr.","postalCode":"66709","locality":"Weiskirchen","municipality":{"key":"10042117","name":"Weiskirchen","type":"Kreisangehörige_Gemeinde"},"district":{"key":"10042","name":"Merzig-Wadern","type":"Landkreis"},"federalState":{"key":"10","name":"Saarland"}},{"name":"Braunswasen","postalCode":"66709","locality":"Weiskirchen","municipality":{"key":"10042117","name":"Weiskirchen","type":"Kreisangehörige_Gemeinde"},"district":{"key":"10042","name":"Merzig-Wadern","type":"Landkreis"},"federalState":{"key":"10","name":"Saarland"}},{"name":"Brunnenstr.","postalCode":"66709","locality":"Weiskirchen","municipality":{"key":"10042117","name":"Weiskirchen","type":"Kreisangehörige_Gemeinde"},"district":{"key":"10042","name":"Merzig-Wadern","type":"Landkreis"},"federalState":{"key":"10","name":"Saarland"}},{"name":"Buchenstr.","postalCode":"66709","locality":"Weiskirchen","municipality":{"key":"10042117","name":"Weiskirchen","type":"Kreisangehörige_Gemeinde"},"district":{"key":"10042","name":"Merzig-Wadern","type":"Landkreis"},"federalState":{"key":"10","name":"Saarland"}},{"name":"Burgstr.","postalCode":"66709","locality":"Weiskirchen","municipality":{"key":"10042117","name":"Weiskirchen","type":"Kreisangehörige_Gemeinde"},"district":{"key":"10042","name":"Merzig-Wadern","type":"Landkreis"},"federalState":{"key":"10","name":"Saarland"}},{"name":"Campingplatz Weierweiler Mühle","postalCode":"66709","locality":"Weiskirchen","municipality":{"key":"10042117","name":"Weiskirchen","type":"Kreisangehörige_Gemeinde"},"district":{"key":"10042","name":"Merzig-Wadern","type":"Landkreis"},"federalState":{"key":"10","name":"Saarland"}},{"name":"Dechant-Arenz-Str.","postalCode":"66709","locality":"Weiskirchen","municipality":{"key":"10042117","name":"Weiskirchen","type":"Kreisangehörige_Gemeinde"},"district":{"key":"10042","name":"Merzig-Wadern","type":"Landkreis"},"federalState":{"key":"10","name":"Saarland"}},{"name":"Dorfstr.","postalCode":"66709","locality":"Weiskirchen","municipality":{"key":"10042117","name":"Weiskirchen","type":"Kreisangehörige_Gemeinde"},"district":{"key":"10042","name":"Merzig-Wadern","type":"Landkreis"},"federalState":{"key":"10","name":"Saarland"}},{"name":"Eichenlaubstr.","postalCode":"66709","locality":"Weiskirchen","municipality":{"key":"10042117","name":"Weiskirchen","type":"Kreisangehörige_Gemeinde"},"district":{"key":"10042","name":"Merzig-Wadern","type":"Landkreis"},"federalState":{"key":"10","name":"Saarland"}},{"name":"Enzweilerweg","postalCode":"66709","locality":"Weiskirchen","municipality":{"key":"10042117","name":"Weiskirchen","type":"Kreisangehörige_Gemeinde"},"district":{"key":"10042","name":"Merzig-Wadern","type":"Landkreis"},"federalState":{"key":"10","name":"Saarland"}},{"name":"Erste Deutsche Mostbirnen-Allee","postalCode":"66709","locality":"Weiskirchen","municipality":{"key":"10042117","name":"Weiskirchen","type":"Kreisangehörige_Gemeinde"},"district":{"key":"10042","name":"Merzig-Wadern","type":"Landkreis"},"federalState":{"key":"10","name":"Saarland"}},{"name":"Fasanenweg","postalCode":"66709","locality":"Weiskirchen","municipality":{"key":"10042117","name":"Weiskirchen","type":"Kreisangehörige_Gemeinde"},"district":{"key":"10042","name":"Merzig-Wadern","type":"Landkreis"},"federalState":{"key":"10","name":"Saarland"}},{"name":"Feldstr.","postalCode":"66709","locality":"Weiskirchen","municipality":{"key":"10042117","name":"Weiskirchen","type":"Kreisangehörige_Gemeinde"},"district":{"key":"10042","name":"Merzig-Wadern","type":"Landkreis"},"federalState":{"key":"10","name":"Saarland"}},{"name":"Fichtenstr.","postalCode":"66709","locality":"Weiskirchen","municipality":{"key":"10042117","name":"Weiskirchen","type":"Kreisangehörige_Gemeinde"},"district":{"key":"10042","name":"Merzig-Wadern","type":"Landkreis"},"federalState":{"key":"10","name":"Saarland"}},{"name":"Forsthausstr.","postalCode":"66709","locality":"Weiskirchen","municipality":{"key":"10042117","name":"Weiskirchen","type":"Kreisangehörige_Gemeinde"},"district":{"key":"10042","name":"Merzig-Wadern","type":"Landkreis"},"federalState":{"key":"10","name":"Saarland"}},{"name":"Friedhofstr.","postalCode":"66709","locality":"Weiskirchen","municipality":{"key":"10042117","name":"Weiskirchen","type":"Kreisangehörige_Gemeinde"},"district":{"key":"10042","name":"Merzig-Wadern","type":"Landkreis"},"federalState":{"key":"10","name":"Saarland"}},{"name":"Fuchsstr.","postalCode":"66709","locality":"Weiskirchen","municipality":{"key":"10042117","name":"Weiskirchen","type":"Kreisangehörige_Gemeinde"},"district":{"key":"10042","name":"Merzig-Wadern","type":"Landkreis"},"federalState":{"key":"10","name":"Saarland"}},{"name":"Gartenstr.","postalCode":"66709","locality":"Weiskirchen","municipality":{"key":"10042117","name":"Weiskirchen","type":"Kreisangehörige_Gemeinde"},"district":{"key":"10042","name":"Merzig-Wadern","type":"Landkreis"},"federalState":{"key":"10","name":"Saarland"}},{"name":"Georgi Panoramaweg","postalCode":"66709","locality":"Weiskirchen","municipality":{"key":"10042117","name":"Weiskirchen","type":"Kreisangehörige_Gemeinde"},"district":{"key":"10042","name":"Merzig-Wadern","type":"Landkreis"},"federalState":{"key":"10","name":"Saarland"}},{"name":"Gewerbepark Am Höhenweg","postalCode":"66709","locality":"Weiskirchen","municipality":{"key":"10042117","name":"Weiskirchen","type":"Kreisangehörige_Gemeinde"},"district":{"key":"10042","name":"Merzig-Wadern","type":"Landkreis"},"federalState":{"key":"10","name":"Saarland"}},{"name":"Goethestr.","postalCode":"66709","locality":"Weiskirchen","municipality":{"key":"10042117","name":"Weiskirchen","type":"Kreisangehörige_Gemeinde"},"district":{"key":"10042","name":"Merzig-Wadern","type":"Landkreis"},"federalState":{"key":"10","name":"Saarland"}},{"name":"Gräfin-Jutta-Str.","postalCode":"66709","locality":"Weiskirchen","municipality":{"key":"10042117","name":"Weiskirchen","type":"Kreisangehörige_Gemeinde"},"district":{"key":"10042","name":"Merzig-Wadern","type":"Landkreis"},"federalState":{"key":"10","name":"Saarland"}},{"name":"Hauptstr.","postalCode":"66709","locality":"Weiskirchen","municipality":{"key":"10042117","name":"Weiskirchen","type":"Kreisangehörige_Gemeinde"},"district":{"key":"10042","name":"Merzig-Wadern","type":"Landkreis"},"federalState":{"key":"10","name":"Saarland"}},{"name":"Heiligkreuzstr.","postalCode":"66709","locality":"Weiskirchen","municipality":{"key":"10042117","name":"Weiskirchen","type":"Kreisangehörige_Gemeinde"},"district":{"key":"10042","name":"Merzig-Wadern","type":"Landkreis"},"federalState":{"key":"10","name":"Saarland"}},{"name":"Hindenburgstr.","postalCode":"66709","locality":"Weiskirchen","municipality":{"key":"10042117","name":"Weiskirchen","type":"Kreisangehörige_Gemeinde"},"district":{"key":"10042","name":"Merzig-Wadern","type":"Landkreis"},"federalState":{"key":"10","name":"Saarland"}},{"name":"Hochstr.","postalCode":"66709","locality":"Weiskirchen","municipality":{"key":"10042117","name":"Weiskirchen","type":"Kreisangehörige_Gemeinde"},"district":{"key":"10042","name":"Merzig-Wadern","type":"Landkreis"},"federalState":{"key":"10","name":"Saarland"}},{"name":"Hochwaldstr.","postalCode":"66709","locality":"Weiskirchen","municipality":{"key":"10042117","name":"Weiskirchen","type":"Kreisangehörige_Gemeinde"},"district":{"key":"10042","name":"Merzig-Wadern","type":"Landkreis"},"federalState":{"key":"10","name":"Saarland"}},{"name":"Höhenweg","postalCode":"66709","locality":"Weiskirchen","municipality":{"key":"10042117","name":"Weiskirchen","type":"Kreisangehörige_Gemeinde"},"district":{"key":"10042","name":"Merzig-Wadern","type":"Landkreis"},"federalState":{"key":"10","name":"Saarland"}},{"name":"Hohlweg","postalCode":"66709","locality":"Weiskirchen","municipality":{"key":"10042117","name":"Weiskirchen","type":"Kreisangehörige_Gemeinde"},"district":{"key":"10042","name":"Merzig-Wadern","type":"Landkreis"},"federalState":{"key":"10","name":"Saarland"}},{"name":"Hubertusstr.","postalCode":"66709","locality":"Weiskirchen","municipality":{"key":"10042117","name":"Weiskirchen","type":"Kreisangehörige_Gemeinde"},"district":{"key":"10042","name":"Merzig-Wadern","type":"Landkreis"},"federalState":{"key":"10","name":"Saarland"}},{"name":"Im Gewerbegebiet","postalCode":"66709","locality":"Weiskirchen","municipality":{"key":"10042117","name":"Weiskirchen","type":"Kreisangehörige_Gemeinde"},"district":{"key":"10042","name":"Merzig-Wadern","type":"Landkreis"},"federalState":{"key":"10","name":"Saarland"}},{"name":"Im Ginselt","postalCode":"66709","locality":"Weiskirchen","municipality":{"key":"10042117","name":"Weiskirchen","type":"Kreisangehörige_Gemeinde"},"district":{"key":"10042","name":"Merzig-Wadern","type":"Landkreis"},"federalState":{"key":"10","name":"Saarland"}},{"name":"Im Grauenstein","postalCode":"66709","locality":"Weiskirchen","municipality":{"key":"10042117","name":"Weiskirchen","type":"Kreisangehörige_Gemeinde"},"district":{"key":"10042","name":"Merzig-Wadern","type":"Landkreis"},"federalState":{"key":"10","name":"Saarland"}},{"name":"Im Hänfert","postalCode":"66709","locality":"Weiskirchen","municipality":{"key":"10042117","name":"Weiskirchen","type":"Kreisangehörige_Gemeinde"},"district":{"key":"10042","name":"Merzig-Wadern","type":"Landkreis"},"federalState":{"key":"10","name":"Saarland"}},{"name":"Im Heckenwald","postalCode":"66709","locality":"Weiskirchen","municipality":{"key":"10042117","name":"Weiskirchen","type":"Kreisangehörige_Gemeinde"},"district":{"key":"10042","name":"Merzig-Wadern","type":"Landkreis"},"federalState":{"key":"10","name":"Saarland"}},{"name":"Im Heidesfeld","postalCode":"66709","locality":"Weiskirchen","municipality":{"key":"10042117","name":"Weiskirchen","type":"Kreisangehörige_Gemeinde"},"district":{"key":"10042","name":"Merzig-Wadern","type":"Landkreis"},"federalState":{"key":"10","name":"Saarland"}},{"name":"Im Köllenbruch","postalCode":"66709","locality":"Weiskirchen","municipality":{"key":"10042117","name":"Weiskirchen","type":"Kreisangehörige_Gemeinde"},"district":{"key":"10042","name":"Merzig-Wadern","type":"Landkreis"},"federalState":{"key":"10","name":"Saarland"}},{"name":"Im Werggarten","postalCode":"66709","locality":"Weiskirchen","municipality":{"key":"10042117","name":"Weiskirchen","type":"Kreisangehörige_Gemeinde"},"district":{"key":"10042","name":"Merzig-Wadern","type":"Landkreis"},"federalState":{"key":"10","name":"Saarland"}},{"name":"Im Wittum","postalCode":"66709","locality":"Weiskirchen","municipality":{"key":"10042117","name":"Weiskirchen","type":"Kreisangehörige_Gemeinde"},"district":{"key":"10042","name":"Merzig-Wadern","type":"Landkreis"},"federalState":{"key":"10","name":"Saarland"}},{"name":"In der Lach","postalCode":"66709","locality":"Weiskirchen","municipality":{"key":"10042117","name":"Weiskirchen","type":"Kreisangehörige_Gemeinde"},"district":{"key":"10042","name":"Merzig-Wadern","type":"Landkreis"},"federalState":{"key":"10","name":"Saarland"}},{"name":"In der Lohmühle","postalCode":"66709","locality":"Weiskirchen","municipality":{"key":"10042117","name":"Weiskirchen","type":"Kreisangehörige_Gemeinde"},"district":{"key":"10042","name":"Merzig-Wadern","type":"Landkreis"},"federalState":{"key":"10","name":"Saarland"}},{"name":"In der Perch","postalCode":"66709","locality":"Weiskirchen","municipality":{"key":"10042117","name":"Weiskirchen","type":"Kreisangehörige_Gemeinde"},"district":{"key":"10042","name":"Merzig-Wadern","type":"Landkreis"},"federalState":{"key":"10","name":"Saarland"}},{"name":"In der Straßheck","postalCode":"66709","locality":"Weiskirchen","municipality":{"key":"10042117","name":"Weiskirchen","type":"Kreisangehörige_Gemeinde"},"district":{"key":"10042","name":"Merzig-Wadern","type":"Landkreis"},"federalState":{"key":"10","name":"Saarland"}},{"name":"In der Trift","postalCode":"66709","locality":"Weiskirchen","municipality":{"key":"10042117","name":"Weiskirchen","type":"Kreisangehörige_Gemeinde"},"district":{"key":"10042","name":"Merzig-Wadern","type":"Landkreis"},"federalState":{"key":"10","name":"Saarland"}},{"name":"Jakobustreppe","postalCode":"66709","locality":"Weiskirchen","municipality":{"key":"10042117","name":"Weiskirchen","type":"Kreisangehörige_Gemeinde"},"district":{"key":"10042","name":"Merzig-Wadern","type":"Landkreis"},"federalState":{"key":"10","name":"Saarland"}},{"name":"Jugendherbergstr.","postalCode":"66709","locality":"Weiskirchen","municipality":{"key":"10042117","name":"Weiskirchen","type":"Kreisangehörige_Gemeinde"},"district":{"key":"10042","name":"Merzig-Wadern","type":"Landkreis"},"federalState":{"key":"10","name":"Saarland"}},{"name":"Kalkofenstr.","postalCode":"66709","locality":"Weiskirchen","municipality":{"key":"10042117","name":"Weiskirchen","type":"Kreisangehörige_Gemeinde"},"district":{"key":"10042","name":"Merzig-Wadern","type":"Landkreis"},"federalState":{"key":"10","name":"Saarland"}},{"name":"Kantstr.","postalCode":"66709","locality":"Weiskirchen","municipality":{"key":"10042117","name":"Weiskirchen","type":"Kreisangehörige_Gemeinde"},"district":{"key":"10042","name":"Merzig-Wadern","type":"Landkreis"},"federalState":{"key":"10","name":"Saarland"}},{"name":"Kapellenberg","postalCode":"66709","locality":"Weiskirchen","municipality":{"key":"10042117","name":"Weiskirchen","type":"Kreisangehörige_Gemeinde"},"district":{"key":"10042","name":"Merzig-Wadern","type":"Landkreis"},"federalState":{"key":"10","name":"Saarland"}},{"name":"Kiefernweg","postalCode":"66709","locality":"Weiskirchen","municipality":{"key":"10042117","name":"Weiskirchen","type":"Kreisangehörige_Gemeinde"},"district":{"key":"10042","name":"Merzig-Wadern","type":"Landkreis"},"federalState":{"key":"10","name":"Saarland"}},{"name":"Kirchenweg","postalCode":"66709","locality":"Weiskirchen","municipality":{"key":"10042117","name":"Weiskirchen","type":"Kreisangehörige_Gemeinde"},"district":{"key":"10042","name":"Merzig-Wadern","type":"Landkreis"},"federalState":{"key":"10","name":"Saarland"}},{"name":"Klosterstr.","postalCode":"66709","locality":"Weiskirchen","municipality":{"key":"10042117","name":"Weiskirchen","type":"Kreisangehörige_Gemeinde"},"district":{"key":"10042","name":"Merzig-Wadern","type":"Landkreis"},"federalState":{"key":"10","name":"Saarland"}},{"name":"Konfelder Str.","postalCode":"66709","locality":"Weiskirchen","municipality":{"key":"10042117","name":"Weiskirchen","type":"Kreisangehörige_Gemeinde"},"district":{"key":"10042","name":"Merzig-Wadern","type":"Landkreis"},"federalState":{"key":"10","name":"Saarland"}},{"name":"Kreuzfeldstr.","postalCode":"66709","locality":"Weiskirchen","municipality":{"key":"10042117","name":"Weiskirchen","type":"Kreisangehörige_Gemeinde"},"district":{"key":"10042","name":"Merzig-Wadern","type":"Landkreis"},"federalState":{"key":"10","name":"Saarland"}},{"name":"Kurparkstr.","postalCode":"66709","locality":"Weiskirchen","municipality":{"key":"10042117","name":"Weiskirchen","type":"Kreisangehörige_Gemeinde"},"district":{"key":"10042","name":"Merzig-Wadern","type":"Landkreis"},"federalState":{"key":"10","name":"Saarland"}},{"name":"Kurpark Weiskirchen","postalCode":"66709","locality":"Weiskirchen","municipality":{"key":"10042117","name":"Weiskirchen","type":"Kreisangehörige_Gemeinde"},"district":{"key":"10042","name":"Merzig-Wadern","type":"Landkreis"},"federalState":{"key":"10","name":"Saarland"}},{"name":"Lauterstein","postalCode":"66709","locality":"Weiskirchen","municipality":{"key":"10042117","name":"Weiskirchen","type":"Kreisangehörige_Gemeinde"},"district":{"key":"10042","name":"Merzig-Wadern","type":"Landkreis"},"federalState":{"key":"10","name":"Saarland"}},{"name":"Lehmkaul","postalCode":"66709","locality":"Weiskirchen","municipality":{"key":"10042117","name":"Weiskirchen","type":"Kreisangehörige_Gemeinde"},"district":{"key":"10042","name":"Merzig-Wadern","type":"Landkreis"},"federalState":{"key":"10","name":"Saarland"}},{"name":"Lessingstr.","postalCode":"66709","locality":"Weiskirchen","municipality":{"key":"10042117","name":"Weiskirchen","type":"Kreisangehörige_Gemeinde"},"district":{"key":"10042","name":"Merzig-Wadern","type":"Landkreis"},"federalState":{"key":"10","name":"Saarland"}},{"name":"Lindenstr.","postalCode":"66709","locality":"Weiskirchen","municipality":{"key":"10042117","name":"Weiskirchen","type":"Kreisangehörige_Gemeinde"},"district":{"key":"10042","name":"Merzig-Wadern","type":"Landkreis"},"federalState":{"key":"10","name":"Saarland"}},{"name":"Lönsstr.","postalCode":"66709","locality":"Weiskirchen","municipality":{"key":"10042117","name":"Weiskirchen","type":"Kreisangehörige_Gemeinde"},"district":{"key":"10042","name":"Merzig-Wadern","type":"Landkreis"},"federalState":{"key":"10","name":"Saarland"}},{"name":"Losheimer Str.","postalCode":"66709","locality":"Weiskirchen","municipality":{"key":"10042117","name":"Weiskirchen","type":"Kreisangehörige_Gemeinde"},"district":{"key":"10042","name":"Merzig-Wadern","type":"Landkreis"},"federalState":{"key":"10","name":"Saarland"}},{"name":"Martinusstr.","postalCode":"66709","locality":"Weiskirchen","municipality":{"key":"10042117","name":"Weiskirchen","type":"Kreisangehörige_Gemeinde"},"district":{"key":"10042","name":"Merzig-Wadern","type":"Landkreis"},"federalState":{"key":"10","name":"Saarland"}},{"name":"Mattheiserstr.","postalCode":"66709","locality":"Weiskirchen","municipality":{"key":"10042117","name":"Weiskirchen","type":"Kreisangehörige_Gemeinde"},"district":{"key":"10042","name":"Merzig-Wadern","type":"Landkreis"},"federalState":{"key":"10","name":"Saarland"}},{"name":"Merziger Str.","postalCode":"66709","locality":"Weiskirchen","municipality":{"key":"10042117","name":"Weiskirchen","type":"Kreisangehörige_Gemeinde"},"district":{"key":"10042","name":"Merzig-Wadern","type":"Landkreis"},"federalState":{"key":"10","name":"Saarland"}},{"name":"Mitlosheimer Weg","postalCode":"66709","locality":"Weiskirchen","municipality":{"key":"10042117","name":"Weiskirchen","type":"Kreisangehörige_Gemeinde"},"district":{"key":"10042","name":"Merzig-Wadern","type":"Landkreis"},"federalState":{"key":"10","name":"Saarland"}},{"name":"Mittelstr.","postalCode":"66709","locality":"Weiskirchen","municipality":{"key":"10042117","name":"Weiskirchen","type":"Kreisangehörige_Gemeinde"},"district":{"key":"10042","name":"Merzig-Wadern","type":"Landkreis"},"federalState":{"key":"10","name":"Saarland"}},{"name":"Morscholzer Str.","postalCode":"66709","locality":"Weiskirchen","municipality":{"key":"10042117","name":"Weiskirchen","type":"Kreisangehörige_Gemeinde"},"district":{"key":"10042","name":"Merzig-Wadern","type":"Landkreis"},"federalState":{"key":"10","name":"Saarland"}},{"name":"Mühlenkaul","postalCode":"66709","locality":"Weiskirchen","municipality":{"key":"10042117","name":"Weiskirchen","type":"Kreisangehörige_Gemeinde"},"district":{"key":"10042","name":"Merzig-Wadern","type":"Landkreis"},"federalState":{"key":"10","name":"Saarland"}},{"name":"Münchweiler Weg","postalCode":"66709","locality":"Weiskirchen","municipality":{"key":"10042117","name":"Weiskirchen","type":"Kreisangehörige_Gemeinde"},"district":{"key":"10042","name":"Merzig-Wadern","type":"Landkreis"},"federalState":{"key":"10","name":"Saarland"}},{"name":"Niederlosheimer Weg","postalCode":"66709","locality":"Weiskirchen","municipality":{"key":"10042117","name":"Weiskirchen","type":"Kreisangehörige_Gemeinde"},"district":{"key":"10042","name":"Merzig-Wadern","type":"Landkreis"},"federalState":{"key":"10","name":"Saarland"}},{"name":"Ober der Chaussee","postalCode":"66709","locality":"Weiskirchen","municipality":{"key":"10042117","name":"Weiskirchen","type":"Kreisangehörige_Gemeinde"},"district":{"key":"10042","name":"Merzig-Wadern","type":"Landkreis"},"federalState":{"key":"10","name":"Saarland"}},{"name":"Oberstr.","postalCode":"66709","locality":"Weiskirchen","municipality":{"key":"10042117","name":"Weiskirchen","type":"Kreisangehörige_Gemeinde"},"district":{"key":"10042","name":"Merzig-Wadern","type":"Landkreis"},"federalState":{"key":"10","name":"Saarland"}},{"name":"Oststr.","postalCode":"66709","locality":"Weiskirchen","municipality":{"key":"10042117","name":"Weiskirchen","type":"Kreisangehörige_Gemeinde"},"district":{"key":"10042","name":"Merzig-Wadern","type":"Landkreis"},"federalState":{"key":"10","name":"Saarland"}},{"name":"Panoramaweg","postalCode":"66709","locality":"Weiskirchen","municipality":{"key":"10042117","name":"Weiskirchen","type":"Kreisangehörige_Gemeinde"},"district":{"key":"10042","name":"Merzig-Wadern","type":"Landkreis"},"federalState":{"key":"10","name":"Saarland"}},{"name":"Pfaffenweg","postalCode":"66709","locality":"Weiskirchen","municipality":{"key":"10042117","name":"Weiskirchen","type":"Kreisangehörige_Gemeinde"},"district":{"key":"10042","name":"Merzig-Wadern","type":"Landkreis"},"federalState":{"key":"10","name":"Saarland"}},{"name":"Rappweiler Str.","postalCode":"66709","locality":"Weiskirchen","municipality":{"key":"10042117","name":"Weiskirchen","type":"Kreisangehörige_Gemeinde"},"district":{"key":"10042","name":"Merzig-Wadern","type":"Landkreis"},"federalState":{"key":"10","name":"Saarland"}},{"name":"Ringstr.","postalCode":"66709","locality":"Weiskirchen","municipality":{"key":"10042117","name":"Weiskirchen","type":"Kreisangehörige_Gemeinde"},"district":{"key":"10042","name":"Merzig-Wadern","type":"Landkreis"},"federalState":{"key":"10","name":"Saarland"}},{"name":"Römerstr.","postalCode":"66709","locality":"Weiskirchen","municipality":{"key":"10042117","name":"Weiskirchen","type":"Kreisangehörige_Gemeinde"},"district":{"key":"10042","name":"Merzig-Wadern","type":"Landkreis"},"federalState":{"key":"10","name":"Saarland"}},{"name":"Rosenstr.","postalCode":"66709","locality":"Weiskirchen","municipality":{"key":"10042117","name":"Weiskirchen","type":"Kreisangehörige_Gemeinde"},"district":{"key":"10042","name":"Merzig-Wadern","type":"Landkreis"},"federalState":{"key":"10","name":"Saarland"}},{"name":"Sandstr.","postalCode":"66709","locality":"Weiskirchen","municipality":{"key":"10042117","name":"Weiskirchen","type":"Kreisangehörige_Gemeinde"},"district":{"key":"10042","name":"Merzig-Wadern","type":"Landkreis"},"federalState":{"key":"10","name":"Saarland"}},{"name":"Schillerstr.","postalCode":"66709","locality":"Weiskirchen","municipality":{"key":"10042117","name":"Weiskirchen","type":"Kreisangehörige_Gemeinde"},"district":{"key":"10042","name":"Merzig-Wadern","type":"Landkreis"},"federalState":{"key":"10","name":"Saarland"}},{"name":"Schmiedenstr.","postalCode":"66709","locality":"Weiskirchen","municipality":{"key":"10042117","name":"Weiskirchen","type":"Kreisangehörige_Gemeinde"},"district":{"key":"10042","name":"Merzig-Wadern","type":"Landkreis"},"federalState":{"key":"10","name":"Saarland"}},{"name":"Schulstr.","postalCode":"66709","locality":"Weiskirchen","municipality":{"key":"10042117","name":"Weiskirchen","type":"Kreisangehörige_Gemeinde"},"district":{"key":"10042","name":"Merzig-Wadern","type":"Landkreis"},"federalState":{"key":"10","name":"Saarland"}},{"name":"Schusterweg","postalCode":"66709","locality":"Weiskirchen","municipality":{"key":"10042117","name":"Weiskirchen","type":"Kreisangehörige_Gemeinde"},"district":{"key":"10042","name":"Merzig-Wadern","type":"Landkreis"},"federalState":{"key":"10","name":"Saarland"}},{"name":"Schwarzrinder See","postalCode":"66709","locality":"Weiskirchen","municipality":{"key":"10042117","name":"Weiskirchen","type":"Kreisangehörige_Gemeinde"},"district":{"key":"10042","name":"Merzig-Wadern","type":"Landkreis"},"federalState":{"key":"10","name":"Saarland"}},{"name":"Selzer","postalCode":"66709","locality":"Weiskirchen","municipality":{"key":"10042117","name":"Weiskirchen","type":"Kreisangehörige_Gemeinde"},"district":{"key":"10042","name":"Merzig-Wadern","type":"Landkreis"},"federalState":{"key":"10","name":"Saarland"}},{"name":"Stockland","postalCode":"66709","locality":"Weiskirchen","municipality":{"key":"10042117","name":"Weiskirchen","type":"Kreisangehörige_Gemeinde"},"district":{"key":"10042","name":"Merzig-Wadern","type":"Landkreis"},"federalState":{"key":"10","name":"Saarland"}},{"name":"Südstr.","postalCode":"66709","locality":"Weiskirchen","municipality":{"key":"10042117","name":"Weiskirchen","type":"Kreisangehörige_Gemeinde"},"district":{"key":"10042","name":"Merzig-Wadern","type":"Landkreis"},"federalState":{"key":"10","name":"Saarland"}},{"name":"Talstr.","postalCode":"66709","locality":"Weiskirchen","municipality":{"key":"10042117","name":"Weiskirchen","type":"Kreisangehörige_Gemeinde"},"district":{"key":"10042","name":"Merzig-Wadern","type":"Landkreis"},"federalState":{"key":"10","name":"Saarland"}},{"name":"Tannenweg","postalCode":"66709","locality":"Weiskirchen","municipality":{"key":"10042117","name":"Weiskirchen","type":"Kreisangehörige_Gemeinde"},"district":{"key":"10042","name":"Merzig-Wadern","type":"Landkreis"},"federalState":{"key":"10","name":"Saarland"}},{"name":"Trierer Str.","postalCode":"66709","locality":"Weiskirchen","municipality":{"key":"10042117","name":"Weiskirchen","type":"Kreisangehörige_Gemeinde"},"district":{"key":"10042","name":"Merzig-Wadern","type":"Landkreis"},"federalState":{"key":"10","name":"Saarland"}},{"name":"Uhlandstr.","postalCode":"66709","locality":"Weiskirchen","municipality":{"key":"10042117","name":"Weiskirchen","type":"Kreisangehörige_Gemeinde"},"district":{"key":"10042","name":"Merzig-Wadern","type":"Landkreis"},"federalState":{"key":"10","name":"Saarland"}},{"name":"Waldhölzbacher Str.","postalCode":"66709","locality":"Weiskirchen","municipality":{"key":"10042117","name":"Weiskirchen","type":"Kreisangehörige_Gemeinde"},"district":{"key":"10042","name":"Merzig-Wadern","type":"Landkreis"},"federalState":{"key":"10","name":"Saarland"}},{"name":"Weiherstr.","postalCode":"66709","locality":"Weiskirchen","municipality":{"key":"10042117","name":"Weiskirchen","type":"Kreisangehörige_Gemeinde"},"district":{"key":"10042","name":"Merzig-Wadern","type":"Landkreis"},"federalState":{"key":"10","name":"Saarland"}},{"name":"Wiesenweg","postalCode":"66709","locality":"Weiskirchen","municipality":{"key":"10042117","name":"Weiskirchen","type":"Kreisangehörige_Gemeinde"},"district":{"key":"10042","name":"Merzig-Wadern","type":"Landkreis"},"federalState":{"key":"10","name":"Saarland"}},{"name":"Zuckerberg","postalCode":"66709","locality":"Weiskirchen","municipality":{"key":"10042117","name":"Weiskirchen","type":"Kreisangehörige_Gemeinde"},"district":{"key":"10042","name":"Merzig-Wadern","type":"Landkreis"},"federalState":{"key":"10","name":"Saarland"}},{"name":"Zum Boxpfad","postalCode":"66709","locality":"Weiskirchen","municipality":{"key":"10042117","name":"Weiskirchen","type":"Kreisangehörige_Gemeinde"},"district":{"key":"10042","name":"Merzig-Wadern","type":"Landkreis"},"federalState":{"key":"10","name":"Saarland"}},{"name":"Zum Campingplatz","postalCode":"66709","locality":"Weiskirchen","municipality":{"key":"10042117","name":"Weiskirchen","type":"Kreisangehörige_Gemeinde"},"district":{"key":"10042","name":"Merzig-Wadern","type":"Landkreis"},"federalState":{"key":"10","name":"Saarland"}},{"name":"Zum Ehrenmal","postalCode":"66709","locality":"Weiskirchen","municipality":{"key":"10042117","name":"Weiskirchen","type":"Kreisangehörige_Gemeinde"},"district":{"key":"10042","name":"Merzig-Wadern","type":"Landkreis"},"federalState":{"key":"10","name":"Saarland"}},{"name":"Zum Heidehof","postalCode":"66709","locality":"Weiskirchen","municipality":{"key":"10042117","name":"Weiskirchen","type":"Kreisangehörige_Gemeinde"},"district":{"key":"10042","name":"Merzig-Wadern","type":"Landkreis"},"federalState":{"key":"10","name":"Saarland"}},{"name":"Zum Herrengarten","postalCode":"66709","locality":"Weiskirchen","municipality":{"key":"10042117","name":"Weiskirchen","type":"Kreisangehörige_Gemeinde"},"district":{"key":"10042","name":"Merzig-Wadern","type":"Landkreis"},"federalState":{"key":"10","name":"Saarland"}},{"name":"Zum Jungenwald","postalCode":"66709","locality":"Weiskirchen","municipality":{"key":"10042117","name":"Weiskirchen","type":"Kreisangehörige_Gemeinde"},"district":{"key":"10042","name":"Merzig-Wadern","type":"Landkreis"},"federalState":{"key":"10","name":"Saarland"}},{"name":"Zum Ruwerbach","postalCode":"66709","locality":"Weiskirchen","municipality":{"key":"10042117","name":"Weiskirchen","type":"Kreisangehörige_Gemeinde"},"district":{"key":"10042","name":"Merzig-Wadern","type":"Landkreis"},"federalState":{"key":"10","name":"Saarland"}},{"name":"Zum Scheidwald","postalCode":"66709","locality":"Weiskirchen","municipality":{"key":"10042117","name":"Weiskirchen","type":"Kreisangehörige_Gemeinde"},"district":{"key":"10042","name":"Merzig-Wadern","type":"Landkreis"},"federalState":{"key":"10","name":"Saarland"}},{"name":"Zum Schlittental","postalCode":"66709","locality":"Weiskirchen","municipality":{"key":"10042117","name":"Weiskirchen","type":"Kreisangehörige_Gemeinde"},"district":{"key":"10042","name":"Merzig-Wadern","type":"Landkreis"},"federalState":{"key":"10","name":"Saarland"}},{"name":"Zum Spießkopf","postalCode":"66709","locality":"Weiskirchen","municipality":{"key":"10042117","name":"Weiskirchen","type":"Kreisangehörige_Gemeinde"},"district":{"key":"10042","name":"Merzig-Wadern","type":"Landkreis"},"federalState":{"key":"10","name":"Saarland"}},{"name":"Zur Köllenbruchmühle","postalCode":"66709","locality":"Weiskirchen","municipality":{"key":"10042117","name":"Weiskirchen","type":"Kreisangehörige_Gemeinde"},"district":{"key":"10042","name":"Merzig-Wadern","type":"Landkreis"},"federalState":{"key":"10","name":"Saarland"}},{"name":"Zwalbacher Str.","postalCode":"66709","locality":"Weiskirchen","municipality":{"key":"10042117","name":"Weiskirchen","type":"Kreisangehörige_Gemeinde"},"district":{"key":"10042","name":"Merzig-Wadern","type":"Landkreis"},"federalState":{"key":"10","name":"Saarland"}},]