[{"name":"Auf dem Schloß","postalCode":"56291","locality":"Wiebelsheim","municipality":{"key":"07140161","name":"Wiebelsheim","type":"Kreisangehörige_Gemeinde"},"district":{"key":"07140","name":"Rhein-Hunsrück-Kreis","type":"Landkreis"},"federalState":{"key":"07","name":"Rheinland-Pfalz"}},{"name":"Auf der Gaß","postalCode":"56291","locality":"Wiebelsheim","municipality":{"key":"07140161","name":"Wiebelsheim","type":"Kreisangehörige_Gemeinde"},"district":{"key":"07140","name":"Rhein-Hunsrück-Kreis","type":"Landkreis"},"federalState":{"key":"07","name":"Rheinland-Pfalz"}},{"name":"Friedhofstr.","postalCode":"56291","locality":"Wiebelsheim","municipality":{"key":"07140161","name":"Wiebelsheim","type":"Kreisangehörige_Gemeinde"},"district":{"key":"07140","name":"Rhein-Hunsrück-Kreis","type":"Landkreis"},"federalState":{"key":"07","name":"Rheinland-Pfalz"}},{"name":"Im Eck","postalCode":"56291","locality":"Wiebelsheim","municipality":{"key":"07140161","name":"Wiebelsheim","type":"Kreisangehörige_Gemeinde"},"district":{"key":"07140","name":"Rhein-Hunsrück-Kreis","type":"Landkreis"},"federalState":{"key":"07","name":"Rheinland-Pfalz"}},{"name":"In der Hohl","postalCode":"56291","locality":"Wiebelsheim","municipality":{"key":"07140161","name":"Wiebelsheim","type":"Kreisangehörige_Gemeinde"},"district":{"key":"07140","name":"Rhein-Hunsrück-Kreis","type":"Landkreis"},"federalState":{"key":"07","name":"Rheinland-Pfalz"}},{"name":"Industriepark","postalCode":"56291","locality":"Wiebelsheim","municipality":{"key":"07140161","name":"Wiebelsheim","type":"Kreisangehörige_Gemeinde"},"district":{"key":"07140","name":"Rhein-Hunsrück-Kreis","type":"Landkreis"},"federalState":{"key":"07","name":"Rheinland-Pfalz"}},{"name":"Jugendheimstr.","postalCode":"56291","locality":"Wiebelsheim","municipality":{"key":"07140161","name":"Wiebelsheim","type":"Kreisangehörige_Gemeinde"},"district":{"key":"07140","name":"Rhein-Hunsrück-Kreis","type":"Landkreis"},"federalState":{"key":"07","name":"Rheinland-Pfalz"}},{"name":"Kreuzgartenstr.","postalCode":"56291","locality":"Wiebelsheim","municipality":{"key":"07140161","name":"Wiebelsheim","type":"Kreisangehörige_Gemeinde"},"district":{"key":"07140","name":"Rhein-Hunsrück-Kreis","type":"Landkreis"},"federalState":{"key":"07","name":"Rheinland-Pfalz"}},{"name":"Maisberg","postalCode":"56291","locality":"Wiebelsheim","municipality":{"key":"07140161","name":"Wiebelsheim","type":"Kreisangehörige_Gemeinde"},"district":{"key":"07140","name":"Rhein-Hunsrück-Kreis","type":"Landkreis"},"federalState":{"key":"07","name":"Rheinland-Pfalz"}},{"name":"Nackweg","postalCode":"56291","locality":"Wiebelsheim","municipality":{"key":"07140161","name":"Wiebelsheim","type":"Kreisangehörige_Gemeinde"},"district":{"key":"07140","name":"Rhein-Hunsrück-Kreis","type":"Landkreis"},"federalState":{"key":"07","name":"Rheinland-Pfalz"}},{"name":"Perscheider Str.","postalCode":"56291","locality":"Wiebelsheim","municipality":{"key":"07140161","name":"Wiebelsheim","type":"Kreisangehörige_Gemeinde"},"district":{"key":"07140","name":"Rhein-Hunsrück-Kreis","type":"Landkreis"},"federalState":{"key":"07","name":"Rheinland-Pfalz"}},{"name":"Schloßstr.","postalCode":"56291","locality":"Wiebelsheim","municipality":{"key":"07140161","name":"Wiebelsheim","type":"Kreisangehörige_Gemeinde"},"district":{"key":"07140","name":"Rhein-Hunsrück-Kreis","type":"Landkreis"},"federalState":{"key":"07","name":"Rheinland-Pfalz"}},{"name":"Simmerner Str.","postalCode":"56291","locality":"Wiebelsheim","municipality":{"key":"07140161","name":"Wiebelsheim","type":"Kreisangehörige_Gemeinde"},"district":{"key":"07140","name":"Rhein-Hunsrück-Kreis","type":"Landkreis"},"federalState":{"key":"07","name":"Rheinland-Pfalz"}},{"name":"Weseler Str.","postalCode":"56291","locality":"Wiebelsheim","municipality":{"key":"07140161","name":"Wiebelsheim","type":"Kreisangehörige_Gemeinde"},"district":{"key":"07140","name":"Rhein-Hunsrück-Kreis","type":"Landkreis"},"federalState":{"key":"07","name":"Rheinland-Pfalz"}},]