[{"key":"10112696","name":"Bachäckerweg","postalCode":"8261","locality":"Hemishofen","commune":{"key":"2962","name":"Hemishofen","shortName":"Hemishofen"},"district":{"key":"1405","name":"Bezirk Stein"},"canton":{"key":"14","code":"SH","name":"Schaffhausen"},"status":"Real"},{"key":"10113213","name":"Bahnhofstrasse","postalCode":"8261","locality":"Hemishofen","commune":{"key":"2962","name":"Hemishofen","shortName":"Hemishofen"},"district":{"key":"1405","name":"Bezirk Stein"},"canton":{"key":"14","code":"SH","name":"Schaffhausen"},"status":"Real"},{"key":"10164639","name":"Bahnstieg","postalCode":"8261","locality":"Hemishofen","commune":{"key":"2962","name":"Hemishofen","shortName":"Hemishofen"},"district":{"key":"1405","name":"Bezirk Stein"},"canton":{"key":"14","code":"SH","name":"Schaffhausen"},"status":"Real"},{"key":"10149629","name":"Bolderhof","postalCode":"8261","locality":"Hemishofen","commune":{"key":"2962","name":"Hemishofen","shortName":"Hemishofen"},"district":{"key":"1405","name":"Bezirk Stein"},"canton":{"key":"14","code":"SH","name":"Schaffhausen"},"status":"Real"},{"key":"10031585","name":"Bürglerstrasse","postalCode":"8261","locality":"Hemishofen","commune":{"key":"2962","name":"Hemishofen","shortName":"Hemishofen"},"district":{"key":"1405","name":"Bezirk Stein"},"canton":{"key":"14","code":"SH","name":"Schaffhausen"},"status":"Real"},{"key":"10071687","name":"Chollstatt","postalCode":"8261","locality":"Hemishofen","commune":{"key":"2962","name":"Hemishofen","shortName":"Hemishofen"},"district":{"key":"1405","name":"Bezirk Stein"},"canton":{"key":"14","code":"SH","name":"Schaffhausen"},"status":"Real"},{"key":"10071686","name":"Dorfstrasse","postalCode":"8261","locality":"Hemishofen","commune":{"key":"2962","name":"Hemishofen","shortName":"Hemishofen"},"district":{"key":"1405","name":"Bezirk Stein"},"canton":{"key":"14","code":"SH","name":"Schaffhausen"},"status":"Real"},{"key":"10181358","name":"Grabenackerstrasse","postalCode":"8261","locality":"Hemishofen","commune":{"key":"2962","name":"Hemishofen","shortName":"Hemishofen"},"district":{"key":"1405","name":"Bezirk Stein"},"canton":{"key":"14","code":"SH","name":"Schaffhausen"},"status":"Real"},{"key":"10164640","name":"Hansegässli","postalCode":"8261","locality":"Hemishofen","commune":{"key":"2962","name":"Hemishofen","shortName":"Hemishofen"},"district":{"key":"1405","name":"Bezirk Stein"},"canton":{"key":"14","code":"SH","name":"Schaffhausen"},"status":"Real"},{"key":"10031586","name":"Hauptstrasse","postalCode":"8261","locality":"Hemishofen","commune":{"key":"2962","name":"Hemishofen","shortName":"Hemishofen"},"district":{"key":"1405","name":"Bezirk Stein"},"canton":{"key":"14","code":"SH","name":"Schaffhausen"},"status":"Real"},{"key":"10031588","name":"Hörnli","postalCode":"8261","locality":"Hemishofen","commune":{"key":"2962","name":"Hemishofen","shortName":"Hemishofen"},"district":{"key":"1405","name":"Bezirk Stein"},"canton":{"key":"14","code":"SH","name":"Schaffhausen"},"status":"Real"},{"key":"10031587","name":"Im Bergli","postalCode":"8261","locality":"Hemishofen","commune":{"key":"2962","name":"Hemishofen","shortName":"Hemishofen"},"district":{"key":"1405","name":"Bezirk Stein"},"canton":{"key":"14","code":"SH","name":"Schaffhausen"},"status":"Real"},{"key":"10163591","name":"Im Bläsi","postalCode":"8261","locality":"Hemishofen","commune":{"key":"2962","name":"Hemishofen","shortName":"Hemishofen"},"district":{"key":"1405","name":"Bezirk Stein"},"canton":{"key":"14","code":"SH","name":"Schaffhausen"},"status":"Real"},{"key":"10164638","name":"Im Gali","postalCode":"8261","locality":"Hemishofen","commune":{"key":"2962","name":"Hemishofen","shortName":"Hemishofen"},"district":{"key":"1405","name":"Bezirk Stein"},"canton":{"key":"14","code":"SH","name":"Schaffhausen"},"status":"Real"},{"key":"10179747","name":"Im Hafacker","postalCode":"8261","locality":"Hemishofen","commune":{"key":"2962","name":"Hemishofen","shortName":"Hemishofen"},"district":{"key":"1405","name":"Bezirk Stein"},"canton":{"key":"14","code":"SH","name":"Schaffhausen"},"status":"Real"},{"key":"10031589","name":"Im Oberfeld","postalCode":"8261","locality":"Hemishofen","commune":{"key":"2962","name":"Hemishofen","shortName":"Hemishofen"},"district":{"key":"1405","name":"Bezirk Stein"},"canton":{"key":"14","code":"SH","name":"Schaffhausen"},"status":"Real"},{"key":"10087214","name":"In Enzwise","postalCode":"8261","locality":"Hemishofen","commune":{"key":"2962","name":"Hemishofen","shortName":"Hemishofen"},"district":{"key":"1405","name":"Bezirk Stein"},"canton":{"key":"14","code":"SH","name":"Schaffhausen"},"status":"Real"},{"key":"10135340","name":"In Pratle","postalCode":"8261","locality":"Hemishofen","commune":{"key":"2962","name":"Hemishofen","shortName":"Hemishofen"},"district":{"key":"1405","name":"Bezirk Stein"},"canton":{"key":"14","code":"SH","name":"Schaffhausen"},"status":"Real"},{"key":"10149559","name":"Müliwis","postalCode":"8261","locality":"Hemishofen","commune":{"key":"2962","name":"Hemishofen","shortName":"Hemishofen"},"district":{"key":"1405","name":"Bezirk Stein"},"canton":{"key":"14","code":"SH","name":"Schaffhausen"},"status":"Real"},{"key":"10087215","name":"Oberdorfstrasse","postalCode":"8261","locality":"Hemishofen","commune":{"key":"2962","name":"Hemishofen","shortName":"Hemishofen"},"district":{"key":"1405","name":"Bezirk Stein"},"canton":{"key":"14","code":"SH","name":"Schaffhausen"},"status":"Real"},{"key":"10103232","name":"Oberwald","postalCode":"8261","locality":"Hemishofen","commune":{"key":"2962","name":"Hemishofen","shortName":"Hemishofen"},"district":{"key":"1405","name":"Bezirk Stein"},"canton":{"key":"14","code":"SH","name":"Schaffhausen"},"status":"Real"},{"key":"10187916","name":"Oberwalderstrasse","postalCode":"8261","locality":"Hemishofen","commune":{"key":"2962","name":"Hemishofen","shortName":"Hemishofen"},"district":{"key":"1405","name":"Bezirk Stein"},"canton":{"key":"14","code":"SH","name":"Schaffhausen"},"status":"Real"},{"key":"10031590","name":"Randenstrasse","postalCode":"8261","locality":"Hemishofen","commune":{"key":"2962","name":"Hemishofen","shortName":"Hemishofen"},"district":{"key":"1405","name":"Bezirk Stein"},"canton":{"key":"14","code":"SH","name":"Schaffhausen"},"status":"Real"},{"key":"10176069","name":"Riigaarte","postalCode":"8261","locality":"Hemishofen","commune":{"key":"2962","name":"Hemishofen","shortName":"Hemishofen"},"district":{"key":"1405","name":"Bezirk Stein"},"canton":{"key":"14","code":"SH","name":"Schaffhausen"},"status":"Real"},{"key":"10087216","name":"Stigele","postalCode":"8261","locality":"Hemishofen","commune":{"key":"2962","name":"Hemishofen","shortName":"Hemishofen"},"district":{"key":"1405","name":"Bezirk Stein"},"canton":{"key":"14","code":"SH","name":"Schaffhausen"},"status":"Real"},{"key":"10179748","name":"Unterdorf","postalCode":"8261","locality":"Hemishofen","commune":{"key":"2962","name":"Hemishofen","shortName":"Hemishofen"},"district":{"key":"1405","name":"Bezirk Stein"},"canton":{"key":"14","code":"SH","name":"Schaffhausen"},"status":"Real"},{"key":"10071688","name":"Unterwald","postalCode":"8261","locality":"Hemishofen","commune":{"key":"2962","name":"Hemishofen","shortName":"Hemishofen"},"district":{"key":"1405","name":"Bezirk Stein"},"canton":{"key":"14","code":"SH","name":"Schaffhausen"},"status":"Real"},]