[{"name":"Alfbachweg","postalCode":"54558","locality":"Gillenfeld","municipality":{"key":"07233027","name":"Gillenfeld","type":"Kreisangehörige_Gemeinde"},"district":{"key":"07233","name":"Vulkaneifel","type":"Landkreis"},"federalState":{"key":"07","name":"Rheinland-Pfalz"}},{"name":"Am Kirchberg","postalCode":"54558","locality":"Gillenfeld","municipality":{"key":"07233027","name":"Gillenfeld","type":"Kreisangehörige_Gemeinde"},"district":{"key":"07233","name":"Vulkaneifel","type":"Landkreis"},"federalState":{"key":"07","name":"Rheinland-Pfalz"}},{"name":"Am Markt","postalCode":"54558","locality":"Gillenfeld","municipality":{"key":"07233027","name":"Gillenfeld","type":"Kreisangehörige_Gemeinde"},"district":{"key":"07233","name":"Vulkaneifel","type":"Landkreis"},"federalState":{"key":"07","name":"Rheinland-Pfalz"}},{"name":"Amselweg","postalCode":"54558","locality":"Gillenfeld","municipality":{"key":"07233027","name":"Gillenfeld","type":"Kreisangehörige_Gemeinde"},"district":{"key":"07233","name":"Vulkaneifel","type":"Landkreis"},"federalState":{"key":"07","name":"Rheinland-Pfalz"}},{"name":"Andreasweg","postalCode":"54558","locality":"Gillenfeld","municipality":{"key":"07233027","name":"Gillenfeld","type":"Kreisangehörige_Gemeinde"},"district":{"key":"07233","name":"Vulkaneifel","type":"Landkreis"},"federalState":{"key":"07","name":"Rheinland-Pfalz"}},{"name":"Auf dem Hof","postalCode":"54558","locality":"Gillenfeld","municipality":{"key":"07233027","name":"Gillenfeld","type":"Kreisangehörige_Gemeinde"},"district":{"key":"07233","name":"Vulkaneifel","type":"Landkreis"},"federalState":{"key":"07","name":"Rheinland-Pfalz"}},{"name":"Auf Leidenberg","postalCode":"54558","locality":"Gillenfeld","municipality":{"key":"07233027","name":"Gillenfeld","type":"Kreisangehörige_Gemeinde"},"district":{"key":"07233","name":"Vulkaneifel","type":"Landkreis"},"federalState":{"key":"07","name":"Rheinland-Pfalz"}},{"name":"Bahnhofstr.","postalCode":"54558","locality":"Gillenfeld","municipality":{"key":"07233027","name":"Gillenfeld","type":"Kreisangehörige_Gemeinde"},"district":{"key":"07233","name":"Vulkaneifel","type":"Landkreis"},"federalState":{"key":"07","name":"Rheinland-Pfalz"}},{"name":"Bergweg","postalCode":"54558","locality":"Gillenfeld","municipality":{"key":"07233027","name":"Gillenfeld","type":"Kreisangehörige_Gemeinde"},"district":{"key":"07233","name":"Vulkaneifel","type":"Landkreis"},"federalState":{"key":"07","name":"Rheinland-Pfalz"}},{"name":"Brunnenstr.","postalCode":"54558","locality":"Gillenfeld","municipality":{"key":"07233027","name":"Gillenfeld","type":"Kreisangehörige_Gemeinde"},"district":{"key":"07233","name":"Vulkaneifel","type":"Landkreis"},"federalState":{"key":"07","name":"Rheinland-Pfalz"}},{"name":"Drosselweg","postalCode":"54558","locality":"Gillenfeld","municipality":{"key":"07233027","name":"Gillenfeld","type":"Kreisangehörige_Gemeinde"},"district":{"key":"07233","name":"Vulkaneifel","type":"Landkreis"},"federalState":{"key":"07","name":"Rheinland-Pfalz"}},{"name":"Finkenweg","postalCode":"54558","locality":"Gillenfeld","municipality":{"key":"07233027","name":"Gillenfeld","type":"Kreisangehörige_Gemeinde"},"district":{"key":"07233","name":"Vulkaneifel","type":"Landkreis"},"federalState":{"key":"07","name":"Rheinland-Pfalz"}},{"name":"Florinsweg","postalCode":"54558","locality":"Gillenfeld","municipality":{"key":"07233027","name":"Gillenfeld","type":"Kreisangehörige_Gemeinde"},"district":{"key":"07233","name":"Vulkaneifel","type":"Landkreis"},"federalState":{"key":"07","name":"Rheinland-Pfalz"}},{"name":"Friedhofsweg","postalCode":"54558","locality":"Gillenfeld","municipality":{"key":"07233027","name":"Gillenfeld","type":"Kreisangehörige_Gemeinde"},"district":{"key":"07233","name":"Vulkaneifel","type":"Landkreis"},"federalState":{"key":"07","name":"Rheinland-Pfalz"}},{"name":"Ginsterweg","postalCode":"54558","locality":"Gillenfeld","municipality":{"key":"07233027","name":"Gillenfeld","type":"Kreisangehörige_Gemeinde"},"district":{"key":"07233","name":"Vulkaneifel","type":"Landkreis"},"federalState":{"key":"07","name":"Rheinland-Pfalz"}},{"name":"Hinterm Pulvermaar","postalCode":"54558","locality":"Gillenfeld","municipality":{"key":"07233027","name":"Gillenfeld","type":"Kreisangehörige_Gemeinde"},"district":{"key":"07233","name":"Vulkaneifel","type":"Landkreis"},"federalState":{"key":"07","name":"Rheinland-Pfalz"}},{"name":"Holzmaarstr.","postalCode":"54558","locality":"Gillenfeld","municipality":{"key":"07233027","name":"Gillenfeld","type":"Kreisangehörige_Gemeinde"},"district":{"key":"07233","name":"Vulkaneifel","type":"Landkreis"},"federalState":{"key":"07","name":"Rheinland-Pfalz"}},{"name":"Im Brühl","postalCode":"54558","locality":"Gillenfeld","municipality":{"key":"07233027","name":"Gillenfeld","type":"Kreisangehörige_Gemeinde"},"district":{"key":"07233","name":"Vulkaneifel","type":"Landkreis"},"federalState":{"key":"07","name":"Rheinland-Pfalz"}},{"name":"Im Gänspesch","postalCode":"54558","locality":"Gillenfeld","municipality":{"key":"07233027","name":"Gillenfeld","type":"Kreisangehörige_Gemeinde"},"district":{"key":"07233","name":"Vulkaneifel","type":"Landkreis"},"federalState":{"key":"07","name":"Rheinland-Pfalz"}},{"name":"Im Rehwinkel","postalCode":"54558","locality":"Gillenfeld","municipality":{"key":"07233027","name":"Gillenfeld","type":"Kreisangehörige_Gemeinde"},"district":{"key":"07233","name":"Vulkaneifel","type":"Landkreis"},"federalState":{"key":"07","name":"Rheinland-Pfalz"}},{"name":"Im Steinpesch","postalCode":"54558","locality":"Gillenfeld","municipality":{"key":"07233027","name":"Gillenfeld","type":"Kreisangehörige_Gemeinde"},"district":{"key":"07233","name":"Vulkaneifel","type":"Landkreis"},"federalState":{"key":"07","name":"Rheinland-Pfalz"}},{"name":"Im Weingarten","postalCode":"54558","locality":"Gillenfeld","municipality":{"key":"07233027","name":"Gillenfeld","type":"Kreisangehörige_Gemeinde"},"district":{"key":"07233","name":"Vulkaneifel","type":"Landkreis"},"federalState":{"key":"07","name":"Rheinland-Pfalz"}},{"name":"Im Wiesental","postalCode":"54558","locality":"Gillenfeld","municipality":{"key":"07233027","name":"Gillenfeld","type":"Kreisangehörige_Gemeinde"},"district":{"key":"07233","name":"Vulkaneifel","type":"Landkreis"},"federalState":{"key":"07","name":"Rheinland-Pfalz"}},{"name":"In der Lunn","postalCode":"54558","locality":"Gillenfeld","municipality":{"key":"07233027","name":"Gillenfeld","type":"Kreisangehörige_Gemeinde"},"district":{"key":"07233","name":"Vulkaneifel","type":"Landkreis"},"federalState":{"key":"07","name":"Rheinland-Pfalz"}},{"name":"Keltenweg","postalCode":"54558","locality":"Gillenfeld","municipality":{"key":"07233027","name":"Gillenfeld","type":"Kreisangehörige_Gemeinde"},"district":{"key":"07233","name":"Vulkaneifel","type":"Landkreis"},"federalState":{"key":"07","name":"Rheinland-Pfalz"}},{"name":"Laubachweg","postalCode":"54558","locality":"Gillenfeld","municipality":{"key":"07233027","name":"Gillenfeld","type":"Kreisangehörige_Gemeinde"},"district":{"key":"07233","name":"Vulkaneifel","type":"Landkreis"},"federalState":{"key":"07","name":"Rheinland-Pfalz"}},{"name":"Mühlenstr.","postalCode":"54558","locality":"Gillenfeld","municipality":{"key":"07233027","name":"Gillenfeld","type":"Kreisangehörige_Gemeinde"},"district":{"key":"07233","name":"Vulkaneifel","type":"Landkreis"},"federalState":{"key":"07","name":"Rheinland-Pfalz"}},{"name":"Pulvermaarstr.","postalCode":"54558","locality":"Gillenfeld","municipality":{"key":"07233027","name":"Gillenfeld","type":"Kreisangehörige_Gemeinde"},"district":{"key":"07233","name":"Vulkaneifel","type":"Landkreis"},"federalState":{"key":"07","name":"Rheinland-Pfalz"}},{"name":"Ronnentalweg","postalCode":"54558","locality":"Gillenfeld","municipality":{"key":"07233027","name":"Gillenfeld","type":"Kreisangehörige_Gemeinde"},"district":{"key":"07233","name":"Vulkaneifel","type":"Landkreis"},"federalState":{"key":"07","name":"Rheinland-Pfalz"}},{"name":"Schulstr.","postalCode":"54558","locality":"Gillenfeld","municipality":{"key":"07233027","name":"Gillenfeld","type":"Kreisangehörige_Gemeinde"},"district":{"key":"07233","name":"Vulkaneifel","type":"Landkreis"},"federalState":{"key":"07","name":"Rheinland-Pfalz"}},{"name":"Schwalbenweg","postalCode":"54558","locality":"Gillenfeld","municipality":{"key":"07233027","name":"Gillenfeld","type":"Kreisangehörige_Gemeinde"},"district":{"key":"07233","name":"Vulkaneifel","type":"Landkreis"},"federalState":{"key":"07","name":"Rheinland-Pfalz"}},{"name":"Strohner Str.","postalCode":"54558","locality":"Gillenfeld","municipality":{"key":"07233027","name":"Gillenfeld","type":"Kreisangehörige_Gemeinde"},"district":{"key":"07233","name":"Vulkaneifel","type":"Landkreis"},"federalState":{"key":"07","name":"Rheinland-Pfalz"}},{"name":"Vulkanstr.","postalCode":"54558","locality":"Gillenfeld","municipality":{"key":"07233027","name":"Gillenfeld","type":"Kreisangehörige_Gemeinde"},"district":{"key":"07233","name":"Vulkaneifel","type":"Landkreis"},"federalState":{"key":"07","name":"Rheinland-Pfalz"}},{"name":"Wilhelm-Schmelzer-Weg","postalCode":"54558","locality":"Gillenfeld","municipality":{"key":"07233027","name":"Gillenfeld","type":"Kreisangehörige_Gemeinde"},"district":{"key":"07233","name":"Vulkaneifel","type":"Landkreis"},"federalState":{"key":"07","name":"Rheinland-Pfalz"}},]